<?xml version='1.0' encoding='UTF-8'?>
<osm version="0.6" generator="libosmium/2.20.0">
  <way id="37191363" version="2" timestamp="2009-09-30T08:13:53Z" uid="115477" user="wowik" changeset="2685440">
    <nd ref="432821662"/>
    <nd ref="432821670"/>
    <nd ref="514212249"/>
    <nd ref="432821663"/>
    <nd ref="432821664"/>
    <nd ref="432821665"/>
    <nd ref="432821666"/>
    <nd ref="432821667"/>
    <nd ref="432821668"/>
    <nd ref="432821669"/>
    <nd ref="432821662"/>
    <tag k="amenity" v="parking"/>
    <tag k="parking" v="surface"/>
  </way>
  <way id="37191363" version="3" timestamp="2009-10-02T08:29:36Z" uid="75496" user="alex_545" changeset="2709791">
    <nd ref="432821662"/>
    <nd ref="432821670"/>
    <nd ref="432821663"/>
    <nd ref="432821664"/>
    <nd ref="432821665"/>
    <nd ref="432821666"/>
    <nd ref="432821667"/>
    <nd ref="432821668"/>
    <nd ref="432821669"/>
    <nd ref="432821662"/>
    <tag k="amenity" v="parking"/>
    <tag k="parking" v="surface"/>
  </way>
  <way id="37191363" version="4" timestamp="2010-09-08T10:59:41Z" uid="241531" user="dik_man" changeset="5715951">
    <nd ref="432821662"/>
    <nd ref="432821670"/>
    <nd ref="902579071"/>
    <nd ref="432821663"/>
    <nd ref="902579076"/>
    <nd ref="432821664"/>
    <nd ref="432821665"/>
    <nd ref="432821666"/>
    <nd ref="432821667"/>
    <nd ref="432821668"/>
    <nd ref="432821669"/>
    <nd ref="432821662"/>
    <tag k="amenity" v="parking"/>
    <tag k="parking" v="surface"/>
  </way>
  <way id="37191363" version="5" timestamp="2010-09-14T06:29:09Z" uid="241531" user="dik_man" changeset="5775586">
    <nd ref="432821662"/>
    <nd ref="432821670"/>
    <nd ref="902579071"/>
    <nd ref="911591265"/>
    <nd ref="911591266"/>
    <nd ref="432821663"/>
    <nd ref="902579076"/>
    <nd ref="432821664"/>
    <nd ref="432821665"/>
    <nd ref="911591267"/>
    <nd ref="432821666"/>
    <nd ref="432821667"/>
    <nd ref="432821668"/>
    <nd ref="432821669"/>
    <nd ref="432821662"/>
    <tag k="amenity" v="parking"/>
    <tag k="parking" v="surface"/>
  </way>
  <way id="37191363" version="6" timestamp="2010-10-23T12:07:28Z" uid="241531" user="dik_man" changeset="6144428">
    <nd ref="432821662"/>
    <nd ref="432821670"/>
    <nd ref="902579071"/>
    <nd ref="911591265"/>
    <nd ref="911591266"/>
    <nd ref="432821663"/>
    <nd ref="902579076"/>
    <nd ref="432821664"/>
    <nd ref="432821665"/>
    <nd ref="911591267"/>
    <nd ref="432821666"/>
    <nd ref="432821667"/>
    <nd ref="961420614"/>
    <nd ref="432821668"/>
    <nd ref="432821669"/>
    <nd ref="432821662"/>
    <tag k="amenity" v="parking"/>
    <tag k="parking" v="surface"/>
  </way>
  <way id="37191363" version="7" timestamp="2011-01-14T16:44:03Z" uid="115477" user="wowik" changeset="6968851">
    <nd ref="432821662"/>
    <nd ref="902579071"/>
    <nd ref="911591265"/>
    <nd ref="911591266"/>
    <nd ref="432821663"/>
    <nd ref="1103423888"/>
    <nd ref="1103423689"/>
    <nd ref="432821664"/>
    <nd ref="432821665"/>
    <nd ref="911591267"/>
    <nd ref="432821666"/>
    <nd ref="432821667"/>
    <nd ref="961420614"/>
    <nd ref="432821668"/>
    <nd ref="432821669"/>
    <nd ref="432821662"/>
    <tag k="amenity" v="parking"/>
    <tag k="parking" v="surface"/>
  </way>
  <way id="37191365" version="2" timestamp="2009-07-28T16:58:07Z" uid="115477" user="wowik" changeset="1967137">
    <nd ref="432821661"/>
    <nd ref="450141425"/>
    <nd ref="338465905"/>
    <nd ref="253150368"/>
    <tag k="addr:postcode" v="124575"/>
    <tag k="cladr:code" v="77000002000109000"/>
    <tag k="cladr:name" v="Гоголя"/>
    <tag k="cladr:suffix" v="Улица"/>
    <tag k="highway" v="residential"/>
    <tag k="name" v="ул. Гоголя"/>
  </way>
  <way id="37191365" version="3" timestamp="2009-11-15T11:24:55Z" uid="11132" user="liosha" changeset="3120735">
    <nd ref="432821661"/>
    <nd ref="450141425"/>
    <nd ref="338465905"/>
    <nd ref="253150368"/>
    <tag k="addr:postcode" v="124575"/>
    <tag k="cladr:code" v="77000002000109000"/>
    <tag k="cladr:name" v="Гоголя"/>
    <tag k="cladr:suffix" v="Улица"/>
    <tag k="highway" v="residential"/>
    <tag k="name" v="улица Гоголя"/>
    <tag k="omkum:code" v="04930"/>
    <tag k="sorting_name" v="Гоголя  улица"/>
  </way>
  <way id="37191365" version="4" timestamp="2010-02-13T05:27:54Z" uid="200618" user="gps-Max" changeset="3862048">
    <nd ref="432821661"/>
    <nd ref="450141425"/>
    <nd ref="338465905"/>
    <nd ref="253150368"/>
    <tag k="addr:postcode" v="124575"/>
    <tag k="cladr:code" v="77000002000109000"/>
    <tag k="cladr:name" v="Гоголя"/>
    <tag k="cladr:suffix" v="Улица"/>
    <tag k="highway" v="tertiary"/>
    <tag k="name" v="улица Гоголя"/>
    <tag k="omkum:code" v="04930"/>
    <tag k="sorting_name" v="Гоголя  улица"/>
  </way>
  <way id="37191365" version="5" timestamp="2010-07-23T12:46:47Z" uid="241531" user="dik_man" changeset="5295272">
    <nd ref="253150368"/>
    <nd ref="338465905"/>
    <nd ref="450141425"/>
    <nd ref="432821661"/>
    <tag k="addr:postcode" v="124575"/>
    <tag k="cladr:code" v="77000002000109000"/>
    <tag k="cladr:name" v="Гоголя"/>
    <tag k="cladr:suffix" v="Улица"/>
    <tag k="highway" v="tertiary"/>
    <tag k="name" v="улица Гоголя"/>
    <tag k="omkum:code" v="04930"/>
    <tag k="oneway" v="yes"/>
    <tag k="sorting_name" v="Гоголя  улица"/>
  </way>
  <way id="37191365" version="6" timestamp="2010-07-29T13:30:45Z" uid="241531" user="dik_man" changeset="5346590">
    <nd ref="253150368"/>
    <nd ref="338465905"/>
    <nd ref="450141425"/>
    <nd ref="432821661"/>
    <tag k="addr:postcode" v="124575"/>
    <tag k="cladr:code" v="77000002000109000"/>
    <tag k="cladr:name" v="Гоголя"/>
    <tag k="cladr:suffix" v="Улица"/>
    <tag k="highway" v="tertiary"/>
    <tag k="lanes" v="2"/>
    <tag k="name" v="улица Гоголя"/>
    <tag k="omkum:code" v="04930"/>
    <tag k="oneway" v="yes"/>
    <tag k="sorting_name" v="Гоголя  улица"/>
  </way>
  <way id="37191365" version="7" timestamp="2010-08-05T06:54:47Z" uid="241531" user="dik_man" changeset="5405173">
    <nd ref="846566996"/>
    <nd ref="338465905"/>
    <nd ref="450141425"/>
    <nd ref="432821661"/>
    <tag k="addr:postcode" v="124575"/>
    <tag k="cladr:code" v="77000002000109000"/>
    <tag k="cladr:name" v="Гоголя"/>
    <tag k="cladr:suffix" v="Улица"/>
    <tag k="highway" v="tertiary"/>
    <tag k="lanes" v="2"/>
    <tag k="name" v="улица Гоголя"/>
    <tag k="omkum:code" v="04930"/>
    <tag k="oneway" v="yes"/>
    <tag k="sorting_name" v="Гоголя  улица"/>
  </way>
  <way id="37191365" version="8" timestamp="2010-08-27T12:25:13Z" uid="241531" user="dik_man" changeset="5607161">
    <nd ref="846566996"/>
    <nd ref="882386331"/>
    <nd ref="338465905"/>
    <nd ref="450141425"/>
    <nd ref="432821661"/>
    <tag k="addr:postcode" v="124575"/>
    <tag k="cladr:code" v="77000002000109000"/>
    <tag k="cladr:name" v="Гоголя"/>
    <tag k="cladr:suffix" v="Улица"/>
    <tag k="highway" v="tertiary"/>
    <tag k="lanes" v="2"/>
    <tag k="name" v="улица Гоголя"/>
    <tag k="omkum:code" v="04930"/>
    <tag k="oneway" v="yes"/>
    <tag k="sorting_name" v="Гоголя  улица"/>
  </way>
  <way id="37191365" version="9" timestamp="2010-08-27T12:31:01Z" uid="241531" user="dik_man" changeset="5607161">
    <nd ref="846566996"/>
    <nd ref="882386331"/>
    <nd ref="338465905"/>
    <nd ref="450141425"/>
    <nd ref="882390537"/>
    <nd ref="432821661"/>
    <tag k="addr:postcode" v="124575"/>
    <tag k="cladr:code" v="77000002000109000"/>
    <tag k="cladr:name" v="Гоголя"/>
    <tag k="cladr:suffix" v="Улица"/>
    <tag k="highway" v="tertiary"/>
    <tag k="lanes" v="2"/>
    <tag k="name" v="улица Гоголя"/>
    <tag k="omkum:code" v="04930"/>
    <tag k="oneway" v="yes"/>
    <tag k="sorting_name" v="Гоголя  улица"/>
  </way>
  <way id="37191365" version="10" timestamp="2010-08-31T14:10:42Z" uid="241531" user="dik_man" changeset="5645599">
    <nd ref="846566996"/>
    <nd ref="882386331"/>
    <nd ref="338465905"/>
    <nd ref="450141425"/>
    <nd ref="882390537"/>
    <nd ref="432821661"/>
    <nd ref="665365756"/>
    <nd ref="769073201"/>
    <nd ref="769073195"/>
    <nd ref="449774788"/>
    <nd ref="838439297"/>
    <nd ref="838439309"/>
    <nd ref="253145534"/>
    <tag k="addr:postcode" v="124575"/>
    <tag k="cladr:code" v="77000002000109000"/>
    <tag k="cladr:name" v="Гоголя"/>
    <tag k="cladr:suffix" v="Улица"/>
    <tag k="highway" v="tertiary"/>
    <tag k="lanes" v="2"/>
    <tag k="name" v="улица Гоголя"/>
    <tag k="omkum:code" v="04930"/>
    <tag k="oneway" v="yes"/>
    <tag k="sorting_name" v="Гоголя  улица"/>
  </way>
  <way id="37191365" version="11" timestamp="2010-09-01T11:42:12Z" uid="65083" user="deep125" changeset="5653280">
    <nd ref="846566996"/>
    <nd ref="882386331"/>
    <nd ref="338465905"/>
    <nd ref="450141425"/>
    <nd ref="882390537"/>
    <nd ref="432821661"/>
    <nd ref="665365756"/>
    <nd ref="769073201"/>
    <nd ref="769073195"/>
    <nd ref="891751154"/>
    <nd ref="449774788"/>
    <nd ref="838439297"/>
    <nd ref="838439309"/>
    <nd ref="253145534"/>
    <tag k="addr:postcode" v="124575"/>
    <tag k="cladr:code" v="77000002000109000"/>
    <tag k="cladr:name" v="Гоголя"/>
    <tag k="cladr:suffix" v="Улица"/>
    <tag k="highway" v="tertiary"/>
    <tag k="lanes" v="2"/>
    <tag k="name" v="улица Гоголя"/>
    <tag k="omkum:code" v="04930"/>
    <tag k="oneway" v="yes"/>
    <tag k="sorting_name" v="Гоголя  улица"/>
  </way>
  <way id="37191365" version="12" timestamp="2010-10-03T18:33:38Z" uid="65083" user="deep125" changeset="5947114">
    <nd ref="846566996"/>
    <nd ref="882386331"/>
    <nd ref="338465905"/>
    <nd ref="450141425"/>
    <nd ref="882390537"/>
    <nd ref="432821661"/>
    <nd ref="665365756"/>
    <nd ref="769073201"/>
    <nd ref="769073195"/>
    <nd ref="891751154"/>
    <nd ref="449774788"/>
    <nd ref="838439297"/>
    <nd ref="838439309"/>
    <nd ref="937027135"/>
    <nd ref="253145534"/>
    <tag k="addr:postcode" v="124575"/>
    <tag k="cladr:code" v="77000002000109000"/>
    <tag k="cladr:name" v="Гоголя"/>
    <tag k="cladr:suffix" v="Улица"/>
    <tag k="highway" v="tertiary"/>
    <tag k="lanes" v="2"/>
    <tag k="name" v="улица Гоголя"/>
    <tag k="omkum:code" v="04930"/>
    <tag k="oneway" v="yes"/>
    <tag k="sorting_name" v="Гоголя  улица"/>
  </way>
  <way id="37191365" version="13" timestamp="2010-12-08T11:00:55Z" uid="380194" user="ac-trash" changeset="6583891">
    <nd ref="846566996"/>
    <nd ref="882386331"/>
    <nd ref="1027905880"/>
    <nd ref="338465905"/>
    <nd ref="450141425"/>
    <nd ref="882390537"/>
    <nd ref="432821661"/>
    <nd ref="665365756"/>
    <nd ref="769073201"/>
    <nd ref="769073195"/>
    <nd ref="891751154"/>
    <nd ref="1027905834"/>
    <nd ref="449774788"/>
    <nd ref="1027905849"/>
    <nd ref="838439297"/>
    <nd ref="1027905869"/>
    <nd ref="838439309"/>
    <nd ref="937027135"/>
    <nd ref="253145534"/>
    <tag k="addr:postcode" v="124575"/>
    <tag k="cladr:code" v="77000002000109000"/>
    <tag k="cladr:name" v="Гоголя"/>
    <tag k="cladr:suffix" v="Улица"/>
    <tag k="highway" v="tertiary"/>
    <tag k="lanes" v="2"/>
    <tag k="name" v="улица Гоголя"/>
    <tag k="omkum:code" v="04930"/>
    <tag k="oneway" v="yes"/>
    <tag k="sorting_name" v="Гоголя  улица"/>
  </way>
  <way id="37191365" version="14" timestamp="2010-12-09T21:12:55Z" uid="380194" user="ac-trash" changeset="6599679">
    <nd ref="846566996"/>
    <nd ref="882386331"/>
    <nd ref="1027905880"/>
    <nd ref="338465905"/>
    <nd ref="450141425"/>
    <nd ref="882390537"/>
    <nd ref="432821661"/>
    <nd ref="665365756"/>
    <nd ref="769073201"/>
    <nd ref="769073195"/>
    <nd ref="891751154"/>
    <nd ref="1027905834"/>
    <nd ref="449774788"/>
    <nd ref="1027905849"/>
    <nd ref="838439297"/>
    <nd ref="1027905869"/>
    <nd ref="838439309"/>
    <nd ref="1030032645"/>
    <nd ref="937027135"/>
    <nd ref="253145534"/>
    <tag k="addr:postcode" v="124575"/>
    <tag k="cladr:code" v="77000002000109000"/>
    <tag k="cladr:name" v="Гоголя"/>
    <tag k="cladr:suffix" v="Улица"/>
    <tag k="highway" v="tertiary"/>
    <tag k="lanes" v="2"/>
    <tag k="name" v="улица Гоголя"/>
    <tag k="omkum:code" v="04930"/>
    <tag k="oneway" v="yes"/>
    <tag k="sorting_name" v="Гоголя  улица"/>
  </way>
  <way id="37191365" version="15" timestamp="2011-01-14T16:43:08Z" uid="115477" user="wowik" changeset="6968851">
    <nd ref="846566996"/>
    <nd ref="882386331"/>
    <nd ref="338465905"/>
    <nd ref="450141425"/>
    <nd ref="882390537"/>
    <nd ref="432821661"/>
    <nd ref="665365756"/>
    <nd ref="769073201"/>
    <nd ref="891751154"/>
    <nd ref="449774788"/>
    <nd ref="1027905849"/>
    <nd ref="838439297"/>
    <nd ref="1027905869"/>
    <nd ref="838439309"/>
    <nd ref="937027135"/>
    <nd ref="253145534"/>
    <tag k="addr:postcode" v="124575"/>
    <tag k="cladr:code" v="77000002000109000"/>
    <tag k="cladr:name" v="Гоголя"/>
    <tag k="cladr:suffix" v="Улица"/>
    <tag k="highway" v="tertiary"/>
    <tag k="lanes" v="2"/>
    <tag k="name" v="улица Гоголя"/>
    <tag k="omkum:code" v="04930"/>
    <tag k="oneway" v="yes"/>
    <tag k="sorting_name" v="Гоголя  улица"/>
  </way>
  <way id="37191365" version="16" timestamp="2011-04-21T11:01:37Z" uid="241531" user="dik_man" changeset="7924355">
    <nd ref="846566996"/>
    <nd ref="882386331"/>
    <nd ref="338465905"/>
    <nd ref="450141425"/>
    <nd ref="882390537"/>
    <nd ref="432821661"/>
    <nd ref="665365756"/>
    <nd ref="769073201"/>
    <nd ref="891751154"/>
    <nd ref="449774788"/>
    <nd ref="1027905849"/>
    <nd ref="838439297"/>
    <nd ref="1027905869"/>
    <nd ref="838439309"/>
    <nd ref="937027135"/>
    <nd ref="253145534"/>
    <tag k="addr:postcode" v="124575"/>
    <tag k="cladr:code" v="77000002000109000"/>
    <tag k="cladr:name" v="Гоголя"/>
    <tag k="cladr:suffix" v="Улица"/>
    <tag k="highway" v="tertiary"/>
    <tag k="lanes" v="2"/>
    <tag k="maxspeed" v="60"/>
    <tag k="name" v="улица Гоголя"/>
    <tag k="omkum:code" v="04930"/>
    <tag k="oneway" v="yes"/>
    <tag k="sorting_name" v="Гоголя  улица"/>
  </way>
  <way id="37191365" version="17" timestamp="2012-02-09T16:57:14Z" uid="241531" user="dik_man" changeset="10635732">
    <nd ref="846566996"/>
    <nd ref="882386331"/>
    <nd ref="338465905"/>
    <nd ref="450141425"/>
    <nd ref="882390537"/>
    <nd ref="432821661"/>
    <nd ref="665365756"/>
    <nd ref="769073201"/>
    <nd ref="891751154"/>
    <nd ref="449774788"/>
    <nd ref="1027905849"/>
    <nd ref="838439297"/>
    <nd ref="1625507356"/>
    <nd ref="1027905869"/>
    <nd ref="838439309"/>
    <nd ref="937027135"/>
    <nd ref="253145534"/>
    <tag k="addr:postcode" v="124575"/>
    <tag k="cladr:code" v="77000002000109000"/>
    <tag k="cladr:name" v="Гоголя"/>
    <tag k="cladr:suffix" v="Улица"/>
    <tag k="highway" v="tertiary"/>
    <tag k="lanes" v="2"/>
    <tag k="maxspeed" v="60"/>
    <tag k="name" v="улица Гоголя"/>
    <tag k="omkum:code" v="04930"/>
    <tag k="oneway" v="yes"/>
    <tag k="sorting_name" v="Гоголя  улица"/>
  </way>
  <way id="37191365" version="18" timestamp="2012-02-09T17:00:38Z" uid="241531" user="dik_man" changeset="10635754">
    <nd ref="846566996"/>
    <nd ref="882386331"/>
    <tag k="addr:postcode" v="124575"/>
    <tag k="cladr:code" v="77000002000109000"/>
    <tag k="cladr:name" v="Гоголя"/>
    <tag k="cladr:suffix" v="Улица"/>
    <tag k="highway" v="tertiary"/>
    <tag k="lanes" v="2"/>
    <tag k="maxspeed" v="60"/>
    <tag k="name" v="улица Гоголя"/>
    <tag k="omkum:code" v="04930"/>
    <tag k="oneway" v="yes"/>
    <tag k="sorting_name" v="Гоголя  улица"/>
  </way>
  <way id="37191366" version="2" timestamp="2009-07-28T12:08:20Z" uid="115477" user="wowik" changeset="1964716">
    <nd ref="253145534"/>
    <nd ref="449774788"/>
    <nd ref="432821661"/>
    <tag k="addr:postcode" v="124575"/>
    <tag k="cladr:code" v="77000002000109000"/>
    <tag k="cladr:name" v="Гоголя"/>
    <tag k="cladr:suffix" v="Улица"/>
    <tag k="highway" v="residential"/>
    <tag k="name" v="ул. Гоголя"/>
  </way>
  <way id="37191366" version="3" timestamp="2009-11-15T11:24:55Z" uid="11132" user="liosha" changeset="3120735">
    <nd ref="253145534"/>
    <nd ref="449774788"/>
    <nd ref="432821661"/>
    <tag k="addr:postcode" v="124575"/>
    <tag k="cladr:code" v="77000002000109000"/>
    <tag k="cladr:name" v="Гоголя"/>
    <tag k="cladr:suffix" v="Улица"/>
    <tag k="highway" v="residential"/>
    <tag k="name" v="улица Гоголя"/>
    <tag k="omkum:code" v="04930"/>
    <tag k="sorting_name" v="Гоголя  улица"/>
  </way>
  <way id="37191366" version="4" timestamp="2010-02-13T05:27:54Z" uid="200618" user="gps-Max" changeset="3862048">
    <nd ref="253145534"/>
    <nd ref="449774788"/>
    <nd ref="432821661"/>
    <tag k="addr:postcode" v="124575"/>
    <tag k="cladr:code" v="77000002000109000"/>
    <tag k="cladr:name" v="Гоголя"/>
    <tag k="cladr:suffix" v="Улица"/>
    <tag k="highway" v="tertiary"/>
    <tag k="name" v="улица Гоголя"/>
    <tag k="omkum:code" v="04930"/>
    <tag k="sorting_name" v="Гоголя  улица"/>
  </way>
  <way id="37191366" version="5" timestamp="2010-03-13T17:13:28Z" uid="241531" user="dik_man" changeset="4116855">
    <nd ref="253145534"/>
    <nd ref="449774788"/>
    <nd ref="665365756"/>
    <nd ref="432821661"/>
    <tag k="addr:postcode" v="124575"/>
    <tag k="cladr:code" v="77000002000109000"/>
    <tag k="cladr:name" v="Гоголя"/>
    <tag k="cladr:suffix" v="Улица"/>
    <tag k="highway" v="tertiary"/>
    <tag k="name" v="улица Гоголя"/>
    <tag k="omkum:code" v="04930"/>
    <tag k="sorting_name" v="Гоголя  улица"/>
  </way>
  <way id="37191366" version="6" timestamp="2010-06-11T08:45:20Z" uid="241531" user="dik_man" changeset="4960607">
    <nd ref="253145534"/>
    <nd ref="449774788"/>
    <nd ref="769073195"/>
    <nd ref="665365756"/>
    <nd ref="432821661"/>
    <tag k="addr:postcode" v="124575"/>
    <tag k="cladr:code" v="77000002000109000"/>
    <tag k="cladr:name" v="Гоголя"/>
    <tag k="cladr:suffix" v="Улица"/>
    <tag k="highway" v="tertiary"/>
    <tag k="name" v="улица Гоголя"/>
    <tag k="omkum:code" v="04930"/>
    <tag k="sorting_name" v="Гоголя  улица"/>
  </way>
  <way id="37191366" version="7" timestamp="2010-06-11T08:45:40Z" uid="241531" user="dik_man" changeset="4960607">
    <nd ref="253145534"/>
    <nd ref="449774788"/>
    <nd ref="769073195"/>
    <nd ref="769073201"/>
    <nd ref="665365756"/>
    <nd ref="432821661"/>
    <tag k="addr:postcode" v="124575"/>
    <tag k="cladr:code" v="77000002000109000"/>
    <tag k="cladr:name" v="Гоголя"/>
    <tag k="cladr:suffix" v="Улица"/>
    <tag k="highway" v="tertiary"/>
    <tag k="name" v="улица Гоголя"/>
    <tag k="omkum:code" v="04930"/>
    <tag k="sorting_name" v="Гоголя  улица"/>
  </way>
  <way id="37191366" version="8" timestamp="2010-07-23T12:46:47Z" uid="241531" user="dik_man" changeset="5295272">
    <nd ref="432821661"/>
    <nd ref="665365756"/>
    <nd ref="769073201"/>
    <nd ref="769073195"/>
    <nd ref="449774788"/>
    <nd ref="253145534"/>
    <tag k="addr:postcode" v="124575"/>
    <tag k="cladr:code" v="77000002000109000"/>
    <tag k="cladr:name" v="Гоголя"/>
    <tag k="cladr:suffix" v="Улица"/>
    <tag k="highway" v="tertiary"/>
    <tag k="name" v="улица Гоголя"/>
    <tag k="omkum:code" v="04930"/>
    <tag k="oneway" v="yes"/>
    <tag k="sorting_name" v="Гоголя  улица"/>
  </way>
  <way id="37191366" version="9" timestamp="2010-07-30T08:51:56Z" uid="241531" user="dik_man" changeset="5352716">
    <nd ref="432821661"/>
    <nd ref="665365756"/>
    <nd ref="769073201"/>
    <nd ref="769073195"/>
    <nd ref="449774788"/>
    <nd ref="838439297"/>
    <nd ref="838439309"/>
    <nd ref="253145534"/>
    <tag k="addr:postcode" v="124575"/>
    <tag k="cladr:code" v="77000002000109000"/>
    <tag k="cladr:name" v="Гоголя"/>
    <tag k="cladr:suffix" v="Улица"/>
    <tag k="highway" v="tertiary"/>
    <tag k="lanes" v="2"/>
    <tag k="name" v="улица Гоголя"/>
    <tag k="omkum:code" v="04930"/>
    <tag k="oneway" v="yes"/>
    <tag k="sorting_name" v="Гоголя  улица"/>
  </way>
  <way id="37191366" version="10" timestamp="2010-08-31T14:10:44Z" uid="241531" user="dik_man" changeset="5645599"/>
  <way id="37191479" version="9" timestamp="2011-02-04T14:31:17Z" uid="115477" user="wowik" changeset="7183773">
    <nd ref="325062636"/>
    <nd ref="1135696984"/>
    <nd ref="461272938"/>
    <nd ref="461272941"/>
    <nd ref="891868110"/>
    <nd ref="891868113"/>
    <nd ref="1135697107"/>
    <nd ref="461272940"/>
    <nd ref="461272909"/>
    <nd ref="611780740"/>
    <nd ref="461272907"/>
    <nd ref="461272906"/>
    <nd ref="461272911"/>
    <nd ref="461272904"/>
    <nd ref="891868072"/>
    <nd ref="891867961"/>
    <nd ref="891868122"/>
    <nd ref="526824401"/>
    <tag k="highway" v="tertiary"/>
  </way>
  <way id="37191479" version="10" timestamp="2011-02-04T14:31:33Z" uid="115477" user="wowik" changeset="7183777">
    <nd ref="325062636"/>
    <nd ref="1135696984"/>
    <nd ref="461272938"/>
    <nd ref="461272941"/>
    <nd ref="891868110"/>
    <nd ref="891868113"/>
    <nd ref="1135697107"/>
    <nd ref="461272909"/>
    <nd ref="611780740"/>
    <nd ref="461272907"/>
    <nd ref="461272906"/>
    <nd ref="461272911"/>
    <nd ref="461272904"/>
    <nd ref="891868072"/>
    <nd ref="891867961"/>
    <nd ref="891868122"/>
    <nd ref="526824401"/>
    <tag k="highway" v="tertiary"/>
  </way>
  <way id="37191479" version="11" timestamp="2011-09-24T21:51:43Z" uid="133332" user="AMDmi3" changeset="9388377"/>
  <way id="37191479" version="12" timestamp="2011-11-11T07:01:41Z" uid="481934" user="iWowik" changeset="9793916">
    <nd ref="325062636"/>
    <nd ref="1135696984"/>
    <nd ref="461272938"/>
    <nd ref="461272941"/>
    <nd ref="891868110"/>
    <nd ref="891868113"/>
    <nd ref="1135697107"/>
    <nd ref="461272909"/>
    <nd ref="611780740"/>
    <nd ref="461272907"/>
    <nd ref="461272906"/>
    <nd ref="461272911"/>
    <nd ref="461272904"/>
    <nd ref="891868072"/>
    <nd ref="891867961"/>
    <nd ref="891868122"/>
    <nd ref="526824401"/>
    <tag k="highway" v="tertiary"/>
  </way>
  <way id="37191480" version="9" timestamp="2011-02-02T17:43:52Z" uid="115477" user="wowik" changeset="7166738">
    <nd ref="891868093"/>
    <nd ref="891867995"/>
    <nd ref="613130545"/>
    <nd ref="613130543"/>
    <nd ref="613130541"/>
    <nd ref="611780681"/>
    <nd ref="891868096"/>
    <nd ref="891868099"/>
    <nd ref="325062648"/>
    <tag k="highway" v="tertiary"/>
    <tag k="name" v="Центральная улица"/>
  </way>
  <way id="37191480" version="10" timestamp="2011-02-03T19:59:49Z" uid="115477" user="wowik" changeset="7177261">
    <nd ref="891868093"/>
    <nd ref="613130545"/>
    <nd ref="613130543"/>
    <nd ref="613130541"/>
    <nd ref="611780681"/>
    <nd ref="891868096"/>
    <nd ref="891868099"/>
    <nd ref="325062648"/>
    <tag k="highway" v="tertiary"/>
    <tag k="name" v="Центральная улица"/>
  </way>
  <way id="37191480" version="11" timestamp="2011-09-24T21:51:46Z" uid="133332" user="AMDmi3" changeset="9388377"/>
  <way id="37191480" version="12" timestamp="2011-11-11T07:01:40Z" uid="481934" user="iWowik" changeset="9793916">
    <nd ref="891868093"/>
    <nd ref="613130545"/>
    <nd ref="613130543"/>
    <nd ref="613130541"/>
    <nd ref="611780681"/>
    <nd ref="891868096"/>
    <nd ref="891868099"/>
    <nd ref="325062648"/>
    <tag k="highway" v="tertiary"/>
    <tag k="name" v="Центральная улица"/>
  </way>
  <way id="37191504" version="2" timestamp="2009-07-30T08:33:54Z" uid="4467" user="Rosscoe" changeset="1982765">
    <nd ref="432822280"/>
    <nd ref="432822281"/>
    <nd ref="432822282"/>
    <nd ref="432822283"/>
    <nd ref="432822284"/>
    <nd ref="432822285"/>
    <nd ref="432822286"/>
    <tag k="highway" v="unclassified"/>
    <tag k="name" v="Power Street"/>
    <tag k="source" v="survey"/>
  </way>
  <way id="37191507" version="2" timestamp="2009-07-30T08:33:53Z" uid="4467" user="Rosscoe" changeset="1982765">
    <nd ref="432822282"/>
    <nd ref="432822290"/>
    <nd ref="432822291"/>
    <tag k="highway" v="residential"/>
    <tag k="name" v="Ross Street"/>
    <tag k="source" v="survey"/>
  </way>
  <way id="37191508" version="2" timestamp="2009-07-30T08:33:51Z" uid="4467" user="Rosscoe" changeset="1982765">
    <nd ref="432822292"/>
    <nd ref="432822291"/>
    <nd ref="432822293"/>
    <tag k="highway" v="residential"/>
    <tag k="name" v="Mount Street"/>
    <tag k="source" v="survey"/>
  </way>
  <way id="37191509" version="2" timestamp="2009-07-30T08:33:55Z" uid="4467" user="Rosscoe" changeset="1982765">
    <nd ref="432822290"/>
    <nd ref="432822294"/>
    <nd ref="432822295"/>
    <nd ref="432822296"/>
    <nd ref="432822297"/>
    <tag k="highway" v="residential"/>
    <tag k="name" v="Lamberton Street"/>
    <tag k="source" v="survey"/>
  </way>
  <way id="37191510" version="2" timestamp="2009-07-30T08:33:54Z" uid="4467" user="Rosscoe" changeset="1982765">
    <nd ref="432822294"/>
    <nd ref="432822283"/>
    <tag k="highway" v="residential"/>
    <tag k="name" v="Ward Street"/>
    <tag k="source" v="survey"/>
  </way>
  <way id="37191516" version="2" timestamp="2010-06-02T13:34:49Z" uid="4467" user="Rosscoe" changeset="4884139">
    <nd ref="429759952"/>
    <nd ref="432822315"/>
    <nd ref="432822316"/>
    <nd ref="432822317"/>
    <nd ref="432822308"/>
    <nd ref="432822318"/>
    <nd ref="432822319"/>
    <nd ref="432822320"/>
    <nd ref="432822321"/>
    <nd ref="432822322"/>
    <nd ref="432822323"/>
    <nd ref="432822324"/>
    <nd ref="432822325"/>
    <nd ref="432822326"/>
    <nd ref="432822327"/>
    <nd ref="432822328"/>
    <tag k="highway" v="residential"/>
    <tag k="name" v="Meilland Street"/>
  </way>
  <way id="37191547" version="2" timestamp="2009-07-30T08:33:54Z" uid="4467" user="Rosscoe" changeset="1982765">
    <nd ref="429760015"/>
    <nd ref="314077287"/>
    <nd ref="432822443"/>
    <nd ref="432822444"/>
    <tag k="highway" v="unclassified"/>
    <tag k="name" v="Industrial Avenue"/>
    <tag k="source" v="survey"/>
  </way>
  <way id="37191550" version="2" timestamp="2009-07-30T08:33:52Z" uid="4467" user="Rosscoe" changeset="1982765">
    <nd ref="432822452"/>
    <nd ref="432822453"/>
    <nd ref="432822454"/>
    <nd ref="432822455"/>
    <tag k="highway" v="residential"/>
    <tag k="name" v="Johnathon Street"/>
    <tag k="source" v="survey"/>
  </way>
  <way id="37191551" version="2" timestamp="2009-07-30T08:33:53Z" uid="4467" user="Rosscoe" changeset="1982765">
    <nd ref="432822456"/>
    <nd ref="432822457"/>
    <nd ref="432822458"/>
    <tag k="highway" v="residential"/>
    <tag k="name" v="Pfaff Street"/>
    <tag k="source" v="survey"/>
  </way>
  <way id="37191552" version="2" timestamp="2009-07-30T08:33:54Z" uid="4467" user="Rosscoe" changeset="1982765">
    <nd ref="432822457"/>
    <nd ref="432822459"/>
    <nd ref="432822460"/>
    <nd ref="432822461"/>
    <nd ref="432822462"/>
    <nd ref="432822463"/>
    <tag k="highway" v="residential"/>
    <tag k="name" v="Grace Court"/>
    <tag k="source" v="survey"/>
  </way>
  <way id="37191640" version="3" timestamp="2009-11-06T06:40:05Z" uid="74617" user="JohnSmith" changeset="3045911">
    <nd ref="87732684"/>
    <nd ref="124663727"/>
    <nd ref="557761172"/>
    <nd ref="557761176"/>
    <nd ref="557761174"/>
    <nd ref="432823029"/>
    <nd ref="432823030"/>
    <nd ref="557761163"/>
    <nd ref="557761161"/>
    <nd ref="432823031"/>
    <nd ref="432823032"/>
    <nd ref="432823033"/>
    <nd ref="432823034"/>
    <nd ref="432823035"/>
    <tag k="highway" v="unclassified"/>
    <tag k="name" v="Mott Street"/>
  </way>
  <way id="37191363" version="8" timestamp="2012-07-20T23:48:45Z" uid="722137" user="OSMF Redaction Account" changeset="12396479">
    <nd ref="432821662"/>
    <nd ref="902579071"/>
    <nd ref="911591265"/>
    <nd ref="911591266"/>
    <nd ref="432821663"/>
    <nd ref="432821664"/>
    <nd ref="432821665"/>
    <nd ref="911591267"/>
    <nd ref="432821666"/>
    <nd ref="432821667"/>
    <nd ref="961420614"/>
    <nd ref="432821668"/>
    <nd ref="432821669"/>
    <nd ref="432821662"/>
    <tag k="amenity" v="parking"/>
    <tag k="parking" v="surface"/>
  </way>
  <way id="37191363" version="9" timestamp="2012-07-24T08:14:39Z" uid="241531" user="dik_man" changeset="12461558">
    <nd ref="432821662"/>
    <nd ref="902579071"/>
    <nd ref="911591265"/>
    <nd ref="911591266"/>
    <nd ref="432821663"/>
    <nd ref="1836237410"/>
    <nd ref="1836237143"/>
    <nd ref="432821664"/>
    <nd ref="432821665"/>
    <nd ref="911591267"/>
    <nd ref="432821666"/>
    <nd ref="432821667"/>
    <nd ref="961420614"/>
    <nd ref="1836236905"/>
    <nd ref="432821668"/>
    <nd ref="432821669"/>
    <nd ref="432821662"/>
    <tag k="amenity" v="parking"/>
    <tag k="parking" v="surface"/>
  </way>
  <way id="37191479" version="14" timestamp="2012-04-06T15:56:44Z" uid="65083" user="deep125" changeset="11203573">
    <nd ref="325062636"/>
    <nd ref="1135696984"/>
    <nd ref="461272938"/>
    <nd ref="461272941"/>
    <nd ref="891868110"/>
    <nd ref="1135697107"/>
    <nd ref="461272909"/>
    <nd ref="611780740"/>
    <nd ref="461272907"/>
    <nd ref="461272911"/>
    <nd ref="461272904"/>
    <nd ref="1147014070"/>
    <nd ref="891868072"/>
    <nd ref="891867961"/>
    <nd ref="526824401"/>
    <tag k="highway" v="tertiary"/>
  </way>
  <way id="37191480" version="14" timestamp="2012-05-19T09:14:38Z" uid="241531" user="dik_man" changeset="11640649">
    <nd ref="891868093"/>
    <nd ref="613130545"/>
    <nd ref="613130543"/>
    <nd ref="613130541"/>
    <nd ref="611780681"/>
    <nd ref="1758185931"/>
    <nd ref="325062648"/>
    <tag k="highway" v="tertiary"/>
    <tag k="name" v="Центральная улица"/>
  </way>
  <way id="37191480" version="15" timestamp="2012-05-19T09:34:08Z" uid="241531" user="dik_man" changeset="11640649">
    <nd ref="891868093"/>
    <nd ref="613130545"/>
    <nd ref="613130543"/>
    <nd ref="613130541"/>
    <nd ref="611780681"/>
    <nd ref="1758210731"/>
    <nd ref="1758185931"/>
    <nd ref="325062648"/>
    <tag k="highway" v="tertiary"/>
    <tag k="name" v="Центральная улица"/>
  </way>
  <way id="37191480" version="16" timestamp="2012-07-20T16:36:59Z" uid="722137" user="OSMF Redaction Account" changeset="12383572">
    <nd ref="891868093"/>
    <nd ref="613130545"/>
    <nd ref="613130543"/>
    <nd ref="613130541"/>
    <nd ref="611780681"/>
    <nd ref="1758210731"/>
    <nd ref="1758185931"/>
    <nd ref="325062648"/>
    <tag k="highway" v="tertiary"/>
  </way>
  <way id="37191504" version="3" timestamp="2012-07-19T13:40:57Z" uid="722137" user="OSMF Redaction Account" changeset="12329887">
    <nd ref="432822280"/>
    <nd ref="432822281"/>
    <nd ref="432822282"/>
    <nd ref="432822283"/>
    <nd ref="432822284"/>
    <nd ref="432822285"/>
    <nd ref="432822286"/>
    <tag k="highway" v="unclassified"/>
    <tag k="name" v="Power Street"/>
  </way>
  <way id="37191507" version="3" timestamp="2012-07-19T13:40:58Z" uid="722137" user="OSMF Redaction Account" changeset="12329887">
    <nd ref="432822282"/>
    <nd ref="432822290"/>
    <nd ref="432822291"/>
    <tag k="highway" v="residential"/>
    <tag k="name" v="Ross Street"/>
  </way>
  <way id="37191508" version="3" timestamp="2012-07-19T13:40:58Z" uid="722137" user="OSMF Redaction Account" changeset="12329887">
    <nd ref="432822292"/>
    <nd ref="432822291"/>
    <nd ref="432822293"/>
    <tag k="highway" v="residential"/>
    <tag k="name" v="Mount Street"/>
  </way>
  <way id="37191509" version="3" timestamp="2012-07-19T13:40:57Z" uid="722137" user="OSMF Redaction Account" changeset="12329887">
    <nd ref="432822290"/>
    <nd ref="432822294"/>
    <nd ref="432822295"/>
    <nd ref="432822296"/>
    <nd ref="432822297"/>
    <tag k="highway" v="residential"/>
    <tag k="name" v="Lamberton Street"/>
  </way>
  <way id="37191510" version="3" timestamp="2012-07-19T13:40:58Z" uid="722137" user="OSMF Redaction Account" changeset="12329887">
    <nd ref="432822294"/>
    <nd ref="432822283"/>
    <tag k="highway" v="residential"/>
    <tag k="name" v="Ward Street"/>
  </way>
  <way id="37191547" version="3" timestamp="2012-07-19T13:42:26Z" uid="722137" user="OSMF Redaction Account" changeset="12329977">
    <nd ref="429760015"/>
    <nd ref="314077287"/>
    <nd ref="432822443"/>
    <nd ref="432822444"/>
    <tag k="highway" v="unclassified"/>
    <tag k="name" v="Industrial Avenue"/>
  </way>
  <way id="37191550" version="3" timestamp="2012-07-19T13:42:25Z" uid="722137" user="OSMF Redaction Account" changeset="12329977">
    <nd ref="432822452"/>
    <nd ref="432822453"/>
    <nd ref="432822454"/>
    <nd ref="432822455"/>
    <tag k="highway" v="residential"/>
    <tag k="name" v="Johnathon Street"/>
  </way>
  <way id="37191551" version="3" timestamp="2012-07-19T13:42:25Z" uid="722137" user="OSMF Redaction Account" changeset="12329977">
    <nd ref="432822456"/>
    <nd ref="432822457"/>
    <nd ref="432822458"/>
    <tag k="highway" v="residential"/>
    <tag k="name" v="Pfaff Street"/>
  </way>
  <way id="37191552" version="3" timestamp="2012-07-19T13:42:24Z" uid="722137" user="OSMF Redaction Account" changeset="12329977">
    <nd ref="432822457"/>
    <nd ref="432822459"/>
    <nd ref="432822460"/>
    <nd ref="432822461"/>
    <nd ref="432822462"/>
    <nd ref="432822463"/>
    <tag k="highway" v="residential"/>
    <tag k="name" v="Grace Court"/>
  </way>
  <way id="37191640" version="4" timestamp="2012-07-19T19:19:13Z" uid="722137" user="OSMF Redaction Account" changeset="12344687">
    <nd ref="87732684"/>
    <nd ref="124663727"/>
    <nd ref="432823029"/>
    <nd ref="432823030"/>
    <nd ref="432823031"/>
    <nd ref="432823032"/>
    <nd ref="432823033"/>
    <nd ref="432823034"/>
    <nd ref="432823035"/>
    <tag k="highway" v="unclassified"/>
    <tag k="name" v="Mott Street"/>
  </way>
</osm>
