<?xml version='1.0' encoding='UTF-8'?>
<osm version="0.6" generator="libosmium/2.20.0">
  <way id="3743121" version="1" timestamp="2007-10-06T02:57:15Z" uid="7617" user="Franc" changeset="43642">
    <nd ref="18548790"/>
    <nd ref="18544902"/>
    <nd ref="18548776"/>
    <tag k="created_by" v="Potlatch alpha"/>
    <tag k="highway" v="secondary"/>
    <tag k="name" v="Coogee Bay Road"/>
  </way>
  <way id="3743121" version="2" timestamp="2009-12-27T03:35:42Z" uid="12203" user="brainwad" changeset="3460027">
    <nd ref="18548790"/>
    <nd ref="18544902"/>
    <nd ref="18548776"/>
    <tag k="highway" v="secondary"/>
    <tag k="maxspeed" v="50"/>
    <tag k="name" v="Coogee Bay Road"/>
  </way>
  <way id="3743121" version="3" timestamp="2009-12-29T16:31:18Z" uid="12203" user="brainwad" changeset="3482747">
    <nd ref="18548790"/>
    <nd ref="600936115"/>
    <tag k="highway" v="secondary"/>
    <tag k="maxspeed" v="50"/>
    <tag k="maxspeed:(Mo-Fr 08:00-09:30,14:30-16:00)" v="40"/>
    <tag k="name" v="Coogee Bay Road"/>
    <tag k="restriction" v="school_zone"/>
  </way>
  <way id="3743121" version="4" timestamp="2011-12-06T09:23:50Z" uid="349913" user="Peter W34" changeset="10048242">
    <nd ref="18548790"/>
    <nd ref="600936115"/>
    <tag k="highway" v="secondary"/>
    <tag k="maxspeed" v="50"/>
    <tag k="maxspeed:restriction" v="40"/>
    <tag k="name" v="Coogee Bay Road"/>
    <tag k="restriction" v="school_zone"/>
    <tag k="restriction_hours" v="Mo-Fr 08:00-09:30;14:30-16:00"/>
  </way>
  <way id="3743124" version="1" timestamp="2007-10-06T03:00:03Z" uid="7617" user="Franc" changeset="43642">
    <nd ref="18548790"/>
    <nd ref="60795584"/>
    <nd ref="31488878"/>
    <nd ref="60795849"/>
    <nd ref="31488864"/>
    <nd ref="20954614"/>
    <nd ref="18531915"/>
    <tag k="created_by" v="Potlatch alpha"/>
    <tag k="highway" v="secondary"/>
    <tag k="name" v="Coogee Bay Road"/>
    <tag k="source" v="interpolation"/>
  </way>
  <way id="3743124" version="2" timestamp="2008-02-09T02:38:24Z" uid="7617" user="Franc" changeset="82122">
    <nd ref="18548790"/>
    <nd ref="60795584"/>
    <nd ref="31488878"/>
    <nd ref="60795849"/>
    <nd ref="31488864"/>
    <nd ref="20954614"/>
    <nd ref="246712794"/>
    <nd ref="246712744"/>
    <nd ref="246712852"/>
    <nd ref="246712808"/>
    <nd ref="246712798"/>
    <nd ref="18531915"/>
    <tag k="created_by" v="Potlatch alpha"/>
    <tag k="highway" v="secondary"/>
    <tag k="name" v="Coogee Bay Road"/>
    <tag k="source" v="interpolation"/>
  </way>
  <way id="3743124" version="3" timestamp="2008-04-07T03:14:02Z" uid="30201" user="rrankin" changeset="70643">
    <nd ref="18548790"/>
    <nd ref="60795584"/>
    <nd ref="31488878"/>
    <nd ref="60795849"/>
    <nd ref="31488864"/>
    <nd ref="20954614"/>
    <nd ref="246712794"/>
    <nd ref="246712744"/>
    <nd ref="246712808"/>
    <nd ref="246712798"/>
    <nd ref="18531915"/>
    <tag k="created_by" v="Potlatch alpha"/>
    <tag k="highway" v="secondary"/>
    <tag k="name" v="Coogee Bay Road"/>
    <tag k="source" v="interpolation"/>
  </way>
  <way id="3743124" version="4" timestamp="2008-04-12T05:47:21Z" uid="7617" user="Franc" changeset="122422">
    <nd ref="18548790"/>
    <nd ref="60795584"/>
    <nd ref="31488878"/>
    <nd ref="257004386"/>
    <nd ref="60795849"/>
    <nd ref="31488864"/>
    <nd ref="20954614"/>
    <nd ref="246712794"/>
    <nd ref="246712744"/>
    <nd ref="246712808"/>
    <nd ref="246712798"/>
    <nd ref="18531915"/>
    <tag k="created_by" v="Potlatch alpha"/>
    <tag k="highway" v="secondary"/>
    <tag k="name" v="Coogee Bay Road"/>
    <tag k="source" v="interpolation"/>
  </way>
  <way id="3743124" version="5" timestamp="2009-12-27T03:35:40Z" uid="12203" user="brainwad" changeset="3460027">
    <nd ref="18548790"/>
    <nd ref="60795584"/>
    <nd ref="31488878"/>
    <nd ref="257004386"/>
    <nd ref="60795849"/>
    <nd ref="31488864"/>
    <nd ref="20954614"/>
    <nd ref="246712794"/>
    <nd ref="246712744"/>
    <nd ref="246712808"/>
    <nd ref="246712798"/>
    <nd ref="18531915"/>
    <tag k="highway" v="secondary"/>
    <tag k="maxspeed" v="50"/>
    <tag k="name" v="Coogee Bay Road"/>
    <tag k="source" v="interpolation"/>
  </way>
  <way id="3743124" version="6" timestamp="2009-12-29T16:31:20Z" uid="12203" user="brainwad" changeset="3482747">
    <nd ref="18548790"/>
    <nd ref="60795584"/>
    <nd ref="31488878"/>
    <nd ref="257004386"/>
    <nd ref="600936119"/>
    <tag k="highway" v="secondary"/>
    <tag k="maxspeed" v="50"/>
    <tag k="maxspeed:(Mo-Fr 08:00-09:30,14:30-16:00)" v="40"/>
    <tag k="name" v="Coogee Bay Road"/>
    <tag k="restriction" v="school_zone"/>
    <tag k="source" v="interpolation"/>
  </way>
  <way id="3743124" version="7" timestamp="2011-03-19T23:18:08Z" uid="7617" user="Franc" changeset="7611445">
    <nd ref="18548790"/>
    <nd ref="60795584"/>
    <nd ref="1209780793"/>
    <nd ref="31488878"/>
    <nd ref="257004386"/>
    <nd ref="600936119"/>
    <tag k="highway" v="secondary"/>
    <tag k="maxspeed" v="50"/>
    <tag k="maxspeed:(Mo-Fr 08:00-09:30,14:30-16:00)" v="40"/>
    <tag k="name" v="Coogee Bay Road"/>
    <tag k="restriction" v="school_zone"/>
    <tag k="source" v="interpolation"/>
  </way>
  <way id="3743124" version="8" timestamp="2011-12-06T09:23:51Z" uid="349913" user="Peter W34" changeset="10048242">
    <nd ref="18548790"/>
    <nd ref="60795584"/>
    <nd ref="1209780793"/>
    <nd ref="31488878"/>
    <nd ref="257004386"/>
    <nd ref="600936119"/>
    <tag k="highway" v="secondary"/>
    <tag k="maxspeed" v="50"/>
    <tag k="maxspeed:restriction" v="40"/>
    <tag k="name" v="Coogee Bay Road"/>
    <tag k="restriction" v="school_zone"/>
    <tag k="restriction_hours" v="Mo-Fr 08:00-09:30;14:30-16:00"/>
    <tag k="source" v="interpolation"/>
  </way>
  <way id="3743127" version="1" timestamp="2007-10-06T02:57:14Z" uid="7617" user="Franc" changeset="43642">
    <nd ref="18548797"/>
    <nd ref="60795788"/>
    <nd ref="18544902"/>
    <tag k="created_by" v="Potlatch alpha"/>
    <tag k="highway" v="secondary"/>
    <tag k="name" v="Belmore Road"/>
    <tag k="oneway" v="yes"/>
  </way>
  <way id="3743127" version="2" timestamp="2007-11-20T06:43:21Z" uid="7617" user="Franc" changeset="578612">
    <nd ref="18548797"/>
    <nd ref="125093800"/>
    <nd ref="18544902"/>
    <tag k="created_by" v="Potlatch alpha"/>
    <tag k="highway" v="secondary"/>
    <tag k="name" v="Belmore Road"/>
    <tag k="oneway" v="yes"/>
  </way>
  <way id="3743127" version="3" timestamp="2009-12-27T03:35:42Z" uid="12203" user="brainwad" changeset="3460027">
    <nd ref="18548797"/>
    <nd ref="125093800"/>
    <nd ref="18544902"/>
    <tag k="highway" v="secondary"/>
    <tag k="maxspeed" v="50"/>
    <tag k="name" v="Belmore Road"/>
    <tag k="oneway" v="yes"/>
  </way>
  <way id="3743886" version="1" timestamp="2007-07-21T04:16:35Z" uid="7617" user="Franc" changeset="158749">
    <nd ref="18556444"/>
    <nd ref="32476717"/>
    <nd ref="18556453"/>
    <nd ref="18811051"/>
    <tag k="abutters" v="residential"/>
    <tag k="created_by" v="JOSM"/>
    <tag k="highway" v="residential"/>
    <tag k="name" v="The Avenue"/>
  </way>
  <way id="3743886" version="2" timestamp="2009-11-14T12:09:17Z" uid="117890" user="Jonathan Trott" changeset="3112508">
    <nd ref="18556444"/>
    <nd ref="32476717"/>
    <nd ref="18556453"/>
    <nd ref="18811051"/>
    <tag k="abutters" v="residential"/>
    <tag k="highway" v="residential"/>
    <tag k="name" v="The Avenue"/>
  </way>
  <way id="3743886" version="3" timestamp="2009-12-10T02:31:24Z" uid="30201" user="rrankin" changeset="3338883">
    <nd ref="18556444"/>
    <nd ref="32476717"/>
    <nd ref="18556453"/>
    <nd ref="18811051"/>
    <tag k="highway" v="residential"/>
    <tag k="name" v="The Avenue"/>
  </way>
  <way id="3743886" version="4" timestamp="2009-12-29T16:31:22Z" uid="12203" user="brainwad" changeset="3482747">
    <nd ref="18556444"/>
    <nd ref="600936125"/>
    <tag k="highway" v="residential"/>
    <tag k="maxspeed:(Mo-Fr 08:00-09:30,14:30-16:00)" v="40"/>
    <tag k="name" v="The Avenue"/>
    <tag k="restriction" v="school_zone"/>
  </way>
  <way id="3743886" version="5" timestamp="2010-07-07T21:53:18Z" uid="74617" user="JohnSmith" changeset="5161069">
    <nd ref="18556444"/>
    <nd ref="600936125"/>
    <tag k="highway" v="residential"/>
    <tag k="maxspeed" v="50"/>
    <tag k="maxspeed:(Mo-Fr 08:00-09:30,14:30-16:00)" v="40"/>
    <tag k="maxspeed:source" v="default residential speed limit in Australia"/>
    <tag k="name" v="The Avenue"/>
    <tag k="restriction" v="school_zone"/>
  </way>
  <way id="3743886" version="6" timestamp="2011-12-13T22:58:39Z" uid="349913" user="Peter W34" changeset="10112055">
    <nd ref="18556444"/>
    <nd ref="600936125"/>
    <tag k="highway" v="residential"/>
    <tag k="maxspeed" v="50"/>
    <tag k="maxspeed:restriction" v="40"/>
    <tag k="maxspeed:source" v="default residential speed limit in Australia"/>
    <tag k="name" v="The Avenue"/>
    <tag k="restriction" v="school_zone"/>
    <tag k="restriction_hours" v="Mo-Fr 08:00-09:30;14:30-16:00"/>
  </way>
  <way id="3743886" version="7" timestamp="2012-01-08T02:34:31Z" uid="147510" user="woodpeck_fixbot" changeset="10327743">
    <nd ref="18556444"/>
    <nd ref="600936125"/>
    <tag k="highway" v="residential"/>
    <tag k="maxspeed:restriction" v="40"/>
    <tag k="name" v="The Avenue"/>
    <tag k="restriction" v="school_zone"/>
    <tag k="restriction_hours" v="Mo-Fr 08:00-09:30;14:30-16:00"/>
  </way>
  <way id="3743888" version="2" timestamp="2009-12-10T02:31:23Z" uid="30201" user="rrankin" changeset="3338883">
    <nd ref="18556494"/>
    <nd ref="18556501"/>
    <nd ref="18556509"/>
    <nd ref="18557340"/>
    <nd ref="18548797"/>
    <tag k="highway" v="unclassified"/>
    <tag k="name" v="Belmore Road"/>
  </way>
  <way id="3743888" version="3" timestamp="2009-12-29T16:31:28Z" uid="12203" user="brainwad" changeset="3482747"/>
  <way id="3743889" version="2" timestamp="2007-11-20T04:03:58Z" uid="7617" user="Franc" changeset="578612">
    <nd ref="18556494"/>
    <nd ref="18556486"/>
    <nd ref="18556481"/>
    <nd ref="124835937"/>
    <tag k="created_by" v="Potlatch alpha"/>
    <tag k="highway" v="unclassified"/>
    <tag k="name" v="Silver Street"/>
  </way>
  <way id="3743889" version="3" timestamp="2007-11-20T04:08:12Z" uid="7617" user="Franc" changeset="578612">
    <nd ref="18556494"/>
    <nd ref="18556486"/>
    <nd ref="18556481"/>
    <nd ref="124835937"/>
    <tag k="created_by" v="Potlatch alpha"/>
    <tag k="highway" v="unclassified"/>
    <tag k="name" v="Silver Street"/>
    <tag k="source" v="survey"/>
  </way>
  <way id="3743889" version="4" timestamp="2009-12-30T02:15:12Z" uid="12203" user="brainwad" changeset="3486874">
    <nd ref="18556494"/>
    <nd ref="18556486"/>
    <nd ref="18556481"/>
    <nd ref="124835937"/>
    <tag k="highway" v="unclassified"/>
    <tag k="maxspeed" v="50"/>
    <tag k="name" v="Silver Street"/>
    <tag k="source" v="survey"/>
    <tag k="source:maxspeed" v="state_limit"/>
  </way>
  <way id="3743889" version="5" timestamp="2010-06-13T08:28:32Z" uid="7617" user="Franc" changeset="4976341">
    <nd ref="18556494"/>
    <nd ref="771187276"/>
    <nd ref="18556486"/>
    <nd ref="18556481"/>
    <nd ref="124835937"/>
    <tag k="highway" v="unclassified"/>
    <tag k="maxspeed" v="50"/>
    <tag k="name" v="Silver Street"/>
    <tag k="source" v="survey"/>
    <tag k="source:maxspeed" v="state_limit"/>
  </way>
  <way id="3743121" version="5" timestamp="2012-07-03T08:16:52Z" uid="689849" user="BaseLoad72" changeset="12097490">
    <nd ref="18548790"/>
    <nd ref="600936115"/>
    <tag k="highway" v="secondary"/>
    <tag k="lcn" v="yes"/>
    <tag k="maxspeed" v="50"/>
    <tag k="maxspeed:restriction" v="40"/>
    <tag k="name" v="Coogee Bay Road"/>
    <tag k="restriction" v="school_zone"/>
    <tag k="restriction_hours" v="Mo-Fr 08:00-09:30;14:30-16:00"/>
  </way>
  <way id="3743121" version="6" timestamp="2012-07-11T21:14:17Z" uid="713671" user="auspod" changeset="12190465">
    <nd ref="1822130146"/>
    <nd ref="1822130650"/>
    <tag k="highway" v="secondary"/>
    <tag k="lcn" v="yes"/>
    <tag k="maxspeed" v="50"/>
    <tag k="maxspeed:restriction" v="40"/>
    <tag k="name" v="Coogee Bay Road"/>
    <tag k="restriction" v="school_zone"/>
    <tag k="restriction_hours" v="Mo-Fr 08:00-09:30;14:30-16:00"/>
  </way>
  <way id="3743121" version="7" timestamp="2012-07-20T00:58:10Z" uid="722137" user="OSMF Redaction Account" changeset="12353764">
    <nd ref="1822130146"/>
    <nd ref="1822130650"/>
    <tag k="lcn" v="yes"/>
    <tag k="maxspeed" v="50"/>
    <tag k="maxspeed:restriction" v="40"/>
    <tag k="restriction" v="school_zone"/>
    <tag k="restriction_hours" v="Mo-Fr 08:00-09:30;14:30-16:00"/>
  </way>
  <way id="3743121" version="8" timestamp="2012-07-25T18:00:39Z" uid="462898" user="Alexander Wilms" changeset="12489876">
    <nd ref="1822130146"/>
    <nd ref="1822130650"/>
    <tag k="highway" v="residential"/>
    <tag k="lcn" v="yes"/>
    <tag k="maxspeed" v="50"/>
    <tag k="maxspeed:restriction" v="40"/>
    <tag k="restriction" v="school_zone"/>
    <tag k="restriction_hours" v="Mo-Fr 08:00-09:30;14:30-16:00"/>
  </way>
  <way id="3743121" version="9" timestamp="2012-07-25T19:09:28Z" uid="18675" user="JeLuF" changeset="12490639">
    <nd ref="1822130146"/>
    <nd ref="1822130650"/>
    <tag k="highway" v="secondary"/>
    <tag k="name" v="Coogee Bay Road"/>
  </way>
  <way id="3743124" version="9" timestamp="2012-07-03T08:16:53Z" uid="689849" user="BaseLoad72" changeset="12097490">
    <nd ref="18548790"/>
    <nd ref="60795584"/>
    <nd ref="1209780793"/>
    <nd ref="31488878"/>
    <nd ref="257004386"/>
    <nd ref="600936119"/>
    <tag k="highway" v="secondary"/>
    <tag k="lcn" v="yes"/>
    <tag k="maxspeed" v="50"/>
    <tag k="maxspeed:restriction" v="40"/>
    <tag k="name" v="Coogee Bay Road"/>
    <tag k="restriction" v="school_zone"/>
    <tag k="restriction_hours" v="Mo-Fr 08:00-09:30;14:30-16:00"/>
    <tag k="source" v="interpolation"/>
  </way>
  <way id="3743124" version="10" timestamp="2012-07-11T21:14:17Z" uid="713671" user="auspod" changeset="12190465">
    <nd ref="1822130146"/>
    <nd ref="1822130207"/>
    <nd ref="1822130702"/>
    <nd ref="1822130278"/>
    <nd ref="257004386"/>
    <nd ref="600936119"/>
    <tag k="highway" v="secondary"/>
    <tag k="lcn" v="yes"/>
    <tag k="maxspeed" v="50"/>
    <tag k="maxspeed:restriction" v="40"/>
    <tag k="name" v="Coogee Bay Road"/>
    <tag k="restriction" v="school_zone"/>
    <tag k="restriction_hours" v="Mo-Fr 08:00-09:30;14:30-16:00"/>
    <tag k="source" v="interpolation"/>
  </way>
  <way id="3743124" version="11" timestamp="2012-07-20T00:56:14Z" uid="722137" user="OSMF Redaction Account" changeset="12353633">
    <nd ref="1822130146"/>
    <nd ref="1822130207"/>
    <nd ref="1822130702"/>
    <nd ref="1822130278"/>
    <nd ref="600936119"/>
    <tag k="lcn" v="yes"/>
    <tag k="maxspeed" v="50"/>
    <tag k="maxspeed:restriction" v="40"/>
    <tag k="restriction" v="school_zone"/>
    <tag k="restriction_hours" v="Mo-Fr 08:00-09:30;14:30-16:00"/>
  </way>
  <way id="3743124" version="12" timestamp="2012-07-25T18:00:45Z" uid="462898" user="Alexander Wilms" changeset="12489876">
    <nd ref="1822130146"/>
    <nd ref="1822130207"/>
    <nd ref="1822130702"/>
    <nd ref="1822130278"/>
    <nd ref="600936119"/>
    <tag k="highway" v="residential"/>
    <tag k="lcn" v="yes"/>
    <tag k="maxspeed" v="50"/>
    <tag k="maxspeed:restriction" v="40"/>
    <tag k="restriction" v="school_zone"/>
    <tag k="restriction_hours" v="Mo-Fr 08:00-09:30;14:30-16:00"/>
  </way>
  <way id="3743124" version="13" timestamp="2012-07-25T19:09:27Z" uid="18675" user="JeLuF" changeset="12490639">
    <nd ref="1822130146"/>
    <nd ref="1822130207"/>
    <nd ref="1822130702"/>
    <nd ref="1822130278"/>
    <nd ref="600936119"/>
    <tag k="highway" v="secondary"/>
    <tag k="name" v="Coogee Bay Road"/>
  </way>
  <way id="3743124" version="14" timestamp="2012-07-27T12:55:10Z" uid="18675" user="JeLuF" changeset="12510985">
    <nd ref="1822130146"/>
    <nd ref="1839800329"/>
    <nd ref="1822130207"/>
    <nd ref="1822130702"/>
    <nd ref="1822130278"/>
    <nd ref="600936119"/>
    <tag k="highway" v="secondary"/>
    <tag k="name" v="Coogee Bay Road"/>
  </way>
  <way id="3743124" version="15" timestamp="2012-07-30T18:22:09Z" uid="18675" user="JeLuF" changeset="12551806">
    <nd ref="1822130146"/>
    <nd ref="1839800329"/>
    <nd ref="1822130207"/>
    <nd ref="1822130702"/>
    <nd ref="1822130278"/>
    <nd ref="1844350416"/>
    <nd ref="600936119"/>
    <tag k="highway" v="secondary"/>
    <tag k="name" v="Coogee Bay Road"/>
  </way>
  <way id="3743127" version="4" timestamp="2012-07-03T11:08:34Z" uid="689849" user="BaseLoad72" changeset="12098864">
    <nd ref="18548797"/>
    <nd ref="125093800"/>
    <nd ref="18544902"/>
    <tag k="highway" v="secondary"/>
    <tag k="lcn" v="yes"/>
    <tag k="maxspeed" v="50"/>
    <tag k="name" v="Belmore Road"/>
    <tag k="oneway" v="yes"/>
  </way>
  <way id="3743127" version="5" timestamp="2012-07-11T21:14:17Z" uid="713671" user="auspod" changeset="12190465">
    <nd ref="18548797"/>
    <nd ref="125093800"/>
    <nd ref="1822130970"/>
    <tag k="highway" v="secondary"/>
    <tag k="lcn" v="yes"/>
    <tag k="maxspeed" v="50"/>
    <tag k="name" v="Belmore Road"/>
    <tag k="oneway" v="yes"/>
  </way>
  <way id="3743127" version="6" timestamp="2012-07-20T01:04:01Z" uid="722137" user="OSMF Redaction Account" changeset="12354149"/>
  <way id="3743886" version="8" timestamp="2012-07-20T01:04:08Z" uid="722137" user="OSMF Redaction Account" changeset="12354149"/>
  <way id="3743889" version="6" timestamp="2012-07-11T21:13:30Z" uid="713671" user="auspod" changeset="12190465">
    <nd ref="18556494"/>
    <nd ref="771187276"/>
    <nd ref="18556486"/>
    <nd ref="18556481"/>
    <nd ref="1822130324"/>
    <tag k="highway" v="unclassified"/>
    <tag k="maxspeed" v="50"/>
    <tag k="name" v="Silver Street"/>
    <tag k="source" v="survey"/>
    <tag k="source:maxspeed" v="state_limit"/>
  </way>
  <way id="3743889" version="7" timestamp="2012-07-20T01:04:06Z" uid="722137" user="OSMF Redaction Account" changeset="12354149"/>
</osm>
