<?xml version='1.0' encoding='UTF-8'?>
<osm version="0.6" generator="libosmium/2.20.0">
  <way id="37452162" version="2" timestamp="2009-10-20T00:55:30Z" uid="36809" user="pfoten_weg_!_" changeset="2899059">
    <nd ref="438093102"/>
    <nd ref="438093103"/>
    <nd ref="438093104"/>
    <nd ref="438093105"/>
    <nd ref="438093107"/>
    <nd ref="438093108"/>
    <tag k="highway" v="service"/>
  </way>
  <way id="37452162" version="3" timestamp="2011-05-17T22:40:44Z" uid="418282" user="Norbert18" changeset="8176970">
    <nd ref="438093102"/>
    <nd ref="438093105"/>
    <nd ref="438093107"/>
    <nd ref="438093108"/>
    <tag k="highway" v="service"/>
  </way>
  <way id="37452163" version="2" timestamp="2009-10-20T00:52:02Z" uid="36809" user="pfoten_weg_!_" changeset="2899059">
    <nd ref="438093139"/>
    <nd ref="438093141"/>
    <nd ref="438093142"/>
    <nd ref="438093140"/>
    <nd ref="438093139"/>
    <tag k="amenity" v="restaurant"/>
    <tag k="building" v="yes"/>
    <tag k="ele" v="1299"/>
    <tag k="name" v="Auer Alm"/>
    <tag k="tourism" v="alpine_hut"/>
  </way>
  <way id="37452163" version="3" timestamp="2010-03-14T16:30:18Z" uid="246609" user="masti_bayern" changeset="4126440">
    <nd ref="438093139"/>
    <nd ref="438093141"/>
    <nd ref="438093142"/>
    <nd ref="438093140"/>
    <nd ref="438093139"/>
    <tag k="amenity" v="restaurant"/>
    <tag k="building" v="yes"/>
    <tag k="ele" v="1299"/>
    <tag k="highway" v="primary"/>
    <tag k="name" v="Auer Alm"/>
    <tag k="tourism" v="alpine_hut"/>
  </way>
  <way id="37452163" version="4" timestamp="2010-04-18T19:36:23Z" uid="64756" user="alegria6208" changeset="4461984">
    <nd ref="438093139"/>
    <nd ref="438093141"/>
    <nd ref="438093142"/>
    <nd ref="438093140"/>
    <nd ref="438093139"/>
    <tag k="amenity" v="restaurant"/>
    <tag k="building" v="yes"/>
    <tag k="ele" v="1269"/>
    <tag k="highway" v="primary"/>
    <tag k="name" v="Auer Alm"/>
    <tag k="tourism" v="alpine_hut"/>
  </way>
  <way id="37452163" version="5" timestamp="2010-04-20T19:47:38Z" uid="62236" user="Paulchen Panther" changeset="4480992">
    <nd ref="438093139"/>
    <nd ref="438093141"/>
    <nd ref="438093142"/>
    <nd ref="438093140"/>
    <nd ref="438093139"/>
    <tag k="amenity" v="restaurant"/>
    <tag k="building" v="yes"/>
    <tag k="ele" v="1269"/>
    <tag k="name" v="Auer Alm"/>
    <tag k="tourism" v="alpine_hut"/>
  </way>
  <way id="37452163" version="6" timestamp="2010-06-29T16:51:29Z" uid="48130" user="joerg_s" changeset="5107248">
    <nd ref="438093139"/>
    <nd ref="438093141"/>
    <nd ref="438093142"/>
    <nd ref="438093140"/>
    <nd ref="438093139"/>
    <tag k="amenity" v="restaurant"/>
    <tag k="building" v="yes"/>
    <tag k="ele" v="1269"/>
    <tag k="name" v="Auer Alm"/>
    <tag k="tourism" v="alpine_hut"/>
    <tag k="website" v="http://www.aueralm.de"/>
  </way>
  <way id="37452163" version="7" timestamp="2010-07-16T17:24:50Z" uid="129061" user="Singvogel" changeset="5236398">
    <nd ref="438093139"/>
    <nd ref="438093141"/>
    <nd ref="438093142"/>
    <nd ref="820947263"/>
    <nd ref="438093140"/>
    <nd ref="438093139"/>
    <tag k="amenity" v="restaurant"/>
    <tag k="building" v="yes"/>
    <tag k="ele" v="1269"/>
    <tag k="name" v="Auer Alm"/>
    <tag k="tourism" v="alpine_hut"/>
    <tag k="website" v="http://www.aueralm.de"/>
  </way>
  <way id="37452163" version="8" timestamp="2010-10-05T17:44:12Z" uid="65148" user="Pirat_Michi" changeset="5963251">
    <nd ref="438093139"/>
    <nd ref="438093141"/>
    <nd ref="438093142"/>
    <nd ref="820947263"/>
    <nd ref="438093140"/>
    <nd ref="438093139"/>
    <tag k="amenity" v="restaurant"/>
    <tag k="building" v="yes"/>
    <tag k="contact:phone" v="08022/83600"/>
    <tag k="contact:website" v="http://www.aueralm.de"/>
    <tag k="ele" v="1269"/>
    <tag k="name" v="Auer Alm"/>
    <tag k="opening_hours" v="Summer Mo-Su 08:30-19:00; We 8:30-22:00; Winter 09:00-18:00; We 09:00-22:00"/>
    <tag k="tourism" v="alpine_hut"/>
    <tag k="website" v="http://www.aueralm.de"/>
  </way>
  <way id="37452163" version="9" timestamp="2010-10-16T21:02:02Z" uid="31727" user="frolty" changeset="6061643">
    <nd ref="438093139"/>
    <nd ref="438093141"/>
    <nd ref="438093142"/>
    <nd ref="820947263"/>
    <nd ref="438093140"/>
    <nd ref="438093139"/>
    <tag k="amenity" v="restaurant"/>
    <tag k="building" v="yes"/>
    <tag k="contact:phone" v="08022/83600"/>
    <tag k="contact:website" v="http://www.aueralm.de"/>
    <tag k="ele" v="1269"/>
    <tag k="name" v="Aueralm"/>
    <tag k="opening_hours" v="Summer Mo-Su 08:30-19:00; We 8:30-22:00; Winter 09:00-18:00; We 09:00-22:00"/>
    <tag k="tourism" v="alpine_hut"/>
    <tag k="website" v="http://www.aueralm.de"/>
  </way>
  <way id="37452163" version="10" timestamp="2011-07-18T21:54:52Z" uid="162465" user="ckol" changeset="8763514">
    <nd ref="438093139"/>
    <nd ref="438093141"/>
    <nd ref="438093142"/>
    <nd ref="820947263"/>
    <nd ref="438093140"/>
    <nd ref="438093139"/>
    <tag k="amenity" v="restaurant"/>
    <tag k="building" v="yes"/>
    <tag k="contact:phone" v="08022/83600"/>
    <tag k="contact:website" v="http://www.aueralm.de"/>
    <tag k="ele" v="1269"/>
    <tag k="name" v="Aueralm"/>
    <tag k="opening_hours" v="&quot;Summer:&quot; Mo-Su 08:30-19:00; We 8:30-22:00; &quot;Winter:&quot; Mo-Su 09:00-18:00; We 09:00-22:00"/>
    <tag k="tourism" v="alpine_hut"/>
    <tag k="website" v="http://www.aueralm.de"/>
  </way>
  <way id="37452163" version="11" timestamp="2011-08-10T18:33:07Z" uid="32786" user="Netzwolf" changeset="8979194">
    <nd ref="438093139"/>
    <nd ref="438093141"/>
    <nd ref="438093142"/>
    <nd ref="820947263"/>
    <nd ref="438093140"/>
    <nd ref="438093139"/>
    <tag k="amenity" v="restaurant"/>
    <tag k="building" v="yes"/>
    <tag k="contact:phone" v="08022/83600"/>
    <tag k="contact:website" v="http://www.aueralm.de"/>
    <tag k="ele" v="1269"/>
    <tag k="name" v="Aueralm"/>
    <tag k="opening_hours" v="Summer: Th-Tu 08:30-19:00; We 8:30-22:00; Winter: Th-Tu 09:00-18:00; We 09:00-22:00"/>
    <tag k="tourism" v="alpine_hut"/>
    <tag k="website" v="http://www.aueralm.de"/>
  </way>
  <way id="37452164" version="2" timestamp="2009-10-20T00:52:03Z" uid="36809" user="pfoten_weg_!_" changeset="2899059">
    <nd ref="438093155"/>
    <nd ref="438093157"/>
    <nd ref="438093158"/>
    <nd ref="438093156"/>
    <nd ref="438093155"/>
    <tag k="amenity" v="barn"/>
    <tag k="building" v="yes"/>
  </way>
  <way id="37452164" version="3" timestamp="2011-12-29T08:38:46Z" uid="78656" user="Walter Schlögl" changeset="10232939">
    <nd ref="438093155"/>
    <nd ref="438093157"/>
    <nd ref="438093158"/>
    <nd ref="438093156"/>
    <nd ref="438093155"/>
    <tag k="building" v="barn"/>
  </way>
  <way id="37452400" version="4" timestamp="2010-04-06T14:37:47Z" uid="20587" user="balrog-kun" changeset="4342997">
    <nd ref="438096941"/>
    <nd ref="121034723"/>
    <nd ref="120993614"/>
    <nd ref="121040767"/>
    <nd ref="438096001"/>
    <nd ref="121054897"/>
    <tag k="highway" v="residential"/>
    <tag k="name" v="Iowa Avenue"/>
    <tag k="tiger:cfcc" v="A41"/>
    <tag k="tiger:county" v="Leavenworth, KS"/>
    <tag k="tiger:name_base" v="Iowa"/>
    <tag k="tiger:name_type" v="Ave"/>
    <tag k="tiger:reviewed" v="no"/>
    <tag k="tiger:separated" v="no"/>
    <tag k="tiger:source" v="tiger_import_dch_v0.6_20070812"/>
    <tag k="tiger:tlid" v="91399970:91414842:91414843"/>
  </way>
  <way id="37452427" version="1" timestamp="2009-07-09T13:35:17Z" uid="43863" user="Rundling" changeset="1781063">
    <nd ref="438097535"/>
    <nd ref="438097534"/>
    <nd ref="332188665"/>
    <nd ref="332188666"/>
    <nd ref="438097535"/>
    <tag k="addr:city" v="Uelzen"/>
    <tag k="addr:country" v="DE"/>
    <tag k="addr:housenumber" v="26"/>
    <tag k="addr:postcode" v="29525"/>
    <tag k="addr:street" v="Hochgraefestraße"/>
    <tag k="building" v="yes"/>
  </way>
  <way id="37452428" version="1" timestamp="2009-07-09T13:35:17Z" uid="43863" user="Rundling" changeset="1781063">
    <nd ref="438097540"/>
    <nd ref="438097538"/>
    <nd ref="438097537"/>
    <nd ref="438097539"/>
    <nd ref="438097540"/>
    <tag k="addr:city" v="Uelzen"/>
    <tag k="addr:country" v="DE"/>
    <tag k="addr:housenumber" v="59"/>
    <tag k="addr:postcode" v="29525"/>
    <tag k="addr:street" v="Hambrocker Straße"/>
    <tag k="building" v="yes"/>
  </way>
  <way id="37452428" version="2" timestamp="2009-07-23T09:23:54Z" uid="43863" user="Rundling" changeset="1913509"/>
  <way id="37452429" version="1" timestamp="2009-07-09T13:35:17Z" uid="43863" user="Rundling" changeset="1781063">
    <nd ref="438097540"/>
    <nd ref="438097541"/>
    <nd ref="438097542"/>
    <nd ref="438097539"/>
    <nd ref="438097540"/>
    <tag k="addr:city" v="Uelzen"/>
    <tag k="addr:country" v="DE"/>
    <tag k="addr:housenumber" v="61"/>
    <tag k="addr:postcode" v="29525"/>
    <tag k="addr:street" v="Hambrocker Straße"/>
    <tag k="building" v="yes"/>
  </way>
  <way id="37452430" version="1" timestamp="2009-07-09T13:35:17Z" uid="43863" user="Rundling" changeset="1781063">
    <nd ref="438097541"/>
    <nd ref="438097543"/>
    <nd ref="438097544"/>
    <nd ref="438097542"/>
    <nd ref="438097541"/>
    <tag k="addr:city" v="Uelzen"/>
    <tag k="addr:country" v="DE"/>
    <tag k="addr:housenumber" v="2"/>
    <tag k="addr:postcode" v="29525"/>
    <tag k="addr:street" v="Hambrocker Straße"/>
    <tag k="building" v="yes"/>
  </way>
  <way id="37452431" version="1" timestamp="2009-07-09T13:35:17Z" uid="43863" user="Rundling" changeset="1781063">
    <nd ref="438097543"/>
    <nd ref="438097538"/>
    <nd ref="438097537"/>
    <nd ref="438097544"/>
    <nd ref="438097543"/>
    <tag k="addr:city" v="Uelzen"/>
    <tag k="addr:country" v="DE"/>
    <tag k="addr:housenumber" v="57"/>
    <tag k="addr:postcode" v="29525"/>
    <tag k="addr:street" v="Hambrocker Straße"/>
    <tag k="building" v="yes"/>
  </way>
  <way id="37452435" version="6" timestamp="2010-04-06T14:37:47Z" uid="20587" user="balrog-kun" changeset="4342997">
    <nd ref="438096485"/>
    <nd ref="438098143"/>
    <nd ref="438098165"/>
    <nd ref="438098171"/>
    <nd ref="438098176"/>
    <nd ref="438098182"/>
    <nd ref="438098187"/>
    <nd ref="438098192"/>
    <nd ref="438098197"/>
    <nd ref="438098201"/>
    <nd ref="438098206"/>
    <nd ref="438098215"/>
    <nd ref="438098219"/>
    <nd ref="438098224"/>
    <nd ref="438098229"/>
    <nd ref="438098232"/>
    <nd ref="438098237"/>
    <tag k="highway" v="residential"/>
    <tag k="name" v="Iowa Avenue"/>
    <tag k="oneway" v="yes"/>
  </way>
  <way id="37452487" version="1" timestamp="2009-07-09T13:38:07Z" uid="43863" user="Rundling" changeset="1781080">
    <nd ref="438098650"/>
    <nd ref="438098654"/>
    <nd ref="438098655"/>
    <nd ref="438098651"/>
    <nd ref="438098650"/>
    <tag k="building" v="yes"/>
  </way>
  <way id="37452487" version="2" timestamp="2009-07-09T14:32:17Z" uid="43863" user="Rundling" changeset="1781456">
    <nd ref="438098650"/>
    <nd ref="438098654"/>
    <nd ref="438122169"/>
    <nd ref="438122171"/>
    <nd ref="438122172"/>
    <nd ref="438122173"/>
    <nd ref="438098650"/>
    <tag k="building" v="yes"/>
  </way>
  <way id="37452487" version="3" timestamp="2009-07-09T15:09:15Z" uid="43863" user="Rundling" changeset="1781719">
    <nd ref="438098650"/>
    <nd ref="438098654"/>
    <nd ref="438122169"/>
    <nd ref="438151575"/>
    <nd ref="438098650"/>
    <tag k="building" v="yes"/>
  </way>
  <way id="37452487" version="4" timestamp="2009-07-22T23:20:26Z" uid="26492" user="phobie" changeset="1910111"/>
  <way id="37452488" version="1" timestamp="2009-07-09T13:38:07Z" uid="43863" user="Rundling" changeset="1781080">
    <nd ref="438098653"/>
    <nd ref="438098656"/>
    <nd ref="438098657"/>
    <nd ref="438098652"/>
    <nd ref="438098653"/>
    <tag k="building" v="yes"/>
  </way>
  <way id="37452488" version="2" timestamp="2009-07-09T14:32:16Z" uid="43863" user="Rundling" changeset="1781456">
    <nd ref="438098656"/>
    <nd ref="438122166"/>
    <nd ref="438122168"/>
    <nd ref="438122164"/>
    <nd ref="438098656"/>
    <tag k="building" v="yes"/>
  </way>
  <way id="37452496" version="2" timestamp="2009-10-20T00:54:00Z" uid="36809" user="pfoten_weg_!_" changeset="2899059">
    <nd ref="438099259"/>
    <nd ref="438099262"/>
    <nd ref="438099265"/>
    <nd ref="438099260"/>
    <nd ref="438099259"/>
    <tag k="building" v="yes"/>
    <tag k="ele" v="944"/>
    <tag k="name" v="Diensthütte"/>
    <tag k="tourism" v="chalet"/>
  </way>
  <way id="37452631" version="2" timestamp="2010-03-28T17:51:59Z" uid="253183" user="Bastioh" changeset="4259896">
    <nd ref="438102690"/>
    <nd ref="438102692"/>
    <nd ref="438102694"/>
    <nd ref="438102696"/>
    <nd ref="438102720"/>
    <nd ref="438102698"/>
    <tag k="highway" v="residential"/>
    <tag k="name" v="Vogelsang"/>
    <tag k="surface" v="unpaved"/>
  </way>
  <way id="37452631" version="3" timestamp="2012-03-28T19:42:16Z" uid="63107" user="brogo" changeset="11130466"/>
  <way id="37452752" version="3" timestamp="2011-03-18T14:22:26Z" uid="115477" user="wowik" changeset="7595576"/>
  <way id="37452753" version="4" timestamp="2011-03-18T14:22:15Z" uid="115477" user="wowik" changeset="7595576">
    <nd ref="438105396"/>
    <nd ref="438105393"/>
    <nd ref="893305508"/>
    <nd ref="255906548"/>
    <tag k="bridge" v="yes"/>
    <tag k="highway" v="primary_link"/>
    <tag k="layer" v="1"/>
    <tag k="oneway" v="yes"/>
  </way>
  <way id="37452753" version="5" timestamp="2011-08-09T15:17:08Z" uid="260756" user="Felis Pimeja" changeset="8967969">
    <nd ref="438105396"/>
    <nd ref="438105393"/>
    <nd ref="893305508"/>
    <nd ref="255906548"/>
    <tag k="bridge" v="yes"/>
    <tag k="highway" v="primary_link"/>
    <tag k="layer" v="1"/>
    <tag k="lit" v="yes"/>
    <tag k="oneway" v="yes"/>
  </way>
  <way id="37452753" version="6" timestamp="2011-08-12T11:52:47Z" uid="260756" user="Felis Pimeja" changeset="8995231">
    <nd ref="438105396"/>
    <nd ref="438105393"/>
    <nd ref="893305508"/>
    <nd ref="255906548"/>
    <tag k="bridge" v="yes"/>
    <tag k="foot" v="no"/>
    <tag k="highway" v="primary_link"/>
    <tag k="layer" v="1"/>
    <tag k="lit" v="yes"/>
    <tag k="oneway" v="yes"/>
  </way>
  <way id="37452753" version="7" timestamp="2011-08-12T12:16:05Z" uid="260756" user="Felis Pimeja" changeset="8995431">
    <nd ref="438105396"/>
    <nd ref="438105393"/>
    <nd ref="893305508"/>
    <nd ref="255906548"/>
    <tag k="bridge" v="yes"/>
    <tag k="foot" v="no"/>
    <tag k="highway" v="primary_link"/>
    <tag k="layer" v="1"/>
    <tag k="lit" v="yes"/>
    <tag k="oneway" v="yes"/>
    <tag k="surface" v="asphalt"/>
  </way>
  <way id="37452753" version="8" timestamp="2012-03-30T20:54:04Z" uid="336354" user="esaulenka" changeset="11160016"/>
  <way id="37452754" version="2" timestamp="2011-03-18T14:22:26Z" uid="115477" user="wowik" changeset="7595576"/>
  <way id="37452755" version="2" timestamp="2011-03-18T14:22:26Z" uid="115477" user="wowik" changeset="7595576"/>
  <way id="37452760" version="4" timestamp="2009-08-25T08:04:59Z" uid="18775" user="drlizau" changeset="2253357">
    <nd ref="438080630"/>
    <nd ref="438080629"/>
    <nd ref="31206101"/>
    <nd ref="31207313"/>
    <tag k="highway" v="residential"/>
    <tag k="name" v="gustav maier"/>
  </way>
  <way id="37452760" version="5" timestamp="2009-08-25T09:18:14Z" uid="18775" user="drlizau" changeset="2254105">
    <nd ref="438080630"/>
    <nd ref="438080629"/>
    <nd ref="31206101"/>
    <nd ref="31207313"/>
    <tag k="highway" v="residential"/>
    <tag k="name" v="gustav maier"/>
  </way>
  <way id="37452760" version="6" timestamp="2009-08-25T09:48:10Z" uid="18775" user="drlizau" changeset="2254359">
    <nd ref="438080630"/>
    <nd ref="438080629"/>
    <nd ref="31206101"/>
    <tag k="highway" v="residential"/>
    <tag k="name" v="gustav maier"/>
  </way>
  <way id="37452760" version="7" timestamp="2010-01-08T21:08:23Z" uid="131059" user="h4ck3rm1k3" changeset="3573626">
    <nd ref="438080630"/>
    <nd ref="438080629"/>
    <nd ref="609751686"/>
    <nd ref="609751662"/>
    <nd ref="609751634"/>
    <nd ref="31206101"/>
    <tag k="highway" v="residential"/>
    <tag k="name" v="gustav maier"/>
  </way>
  <way id="37452760" version="8" timestamp="2010-02-14T17:38:26Z" uid="39504" user="malenki" changeset="3876326"/>
  <way id="37452761" version="3" timestamp="2009-08-25T08:05:14Z" uid="18775" user="drlizau" changeset="2253357">
    <nd ref="29675686"/>
    <nd ref="29675646"/>
    <nd ref="29675239"/>
    <nd ref="29675658"/>
    <nd ref="29675230"/>
    <nd ref="29675828"/>
    <nd ref="29675458"/>
    <tag k="highway" v="residential"/>
  </way>
  <way id="37452761" version="4" timestamp="2009-08-25T08:21:50Z" uid="18775" user="drlizau" changeset="2253574">
    <nd ref="29675686"/>
    <nd ref="29675646"/>
    <nd ref="29675239"/>
    <nd ref="29675658"/>
    <nd ref="29675230"/>
    <nd ref="29675828"/>
    <nd ref="29675458"/>
    <tag k="highway" v="secondary"/>
  </way>
  <way id="37452761" version="5" timestamp="2009-09-21T13:10:54Z" uid="171439" user="ValdrinMaliqi" changeset="2557375">
    <nd ref="29675686"/>
    <nd ref="29675646"/>
    <nd ref="29675239"/>
    <nd ref="29675658"/>
    <nd ref="29675230"/>
    <nd ref="29675828"/>
    <nd ref="29675458"/>
    <nd ref="281986402"/>
    <tag k="highway" v="secondary"/>
  </way>
  <way id="37452761" version="6" timestamp="2009-12-15T19:21:14Z" uid="135234" user="Arianit" changeset="3382209"/>
  <way id="37452763" version="3" timestamp="2009-08-25T08:04:45Z" uid="18775" user="drlizau" changeset="2253357">
    <nd ref="438105411"/>
    <nd ref="438105415"/>
    <nd ref="438105412"/>
    <nd ref="438105413"/>
    <nd ref="438105414"/>
    <nd ref="438105411"/>
    <tag k="amenity" v="library"/>
    <tag k="name" v="Bibloteka Kombetare"/>
  </way>
  <way id="37452763" version="4" timestamp="2011-03-14T21:34:15Z" uid="350005" user="prabhasp" changeset="7561303">
    <nd ref="438105411"/>
    <nd ref="438105415"/>
    <nd ref="438105412"/>
    <nd ref="438105413"/>
    <nd ref="438105414"/>
    <nd ref="438105411"/>
    <tag k="amenity" v="library"/>
    <tag k="name" v="Bibloteka Kombetare"/>
    <tag k="name:en" v="Kosovo National Library"/>
  </way>
  <way id="37452763" version="5" timestamp="2011-08-06T21:02:05Z" uid="199034" user="Altin" changeset="8941924">
    <nd ref="438105411"/>
    <nd ref="438105415"/>
    <nd ref="438105412"/>
    <nd ref="438105413"/>
    <nd ref="438105414"/>
    <nd ref="438105411"/>
    <tag k="amenity" v="library"/>
    <tag k="building" v="yes"/>
    <tag k="name" v="Bibloteka Kombetare"/>
    <tag k="name:en" v="Kosovo National Library"/>
  </way>
  <way id="37452763" version="6" timestamp="2011-08-07T00:02:01Z" uid="199034" user="Altin" changeset="8942994"/>
  <way id="37452764" version="3" timestamp="2009-08-25T08:05:06Z" uid="18775" user="drlizau" changeset="2253357">
    <nd ref="438105416"/>
    <nd ref="438105417"/>
    <nd ref="438105418"/>
    <nd ref="438105419"/>
    <nd ref="438105416"/>
    <tag k="building" v="yes"/>
    <tag k="name" v="RTK1"/>
  </way>
  <way id="37452764" version="4" timestamp="2009-09-17T15:06:27Z" uid="131059" user="h4ck3rm1k3" changeset="2513297">
    <nd ref="438105416"/>
    <nd ref="438105417"/>
    <nd ref="438105418"/>
    <nd ref="438105419"/>
    <nd ref="438105416"/>
    <tag k="building" v="yes"/>
    <tag k="landuse" v="commercial"/>
    <tag k="name" v="RTK1"/>
  </way>
  <way id="37452765" version="3" timestamp="2009-08-25T08:04:37Z" uid="18775" user="drlizau" changeset="2253357">
    <nd ref="438105420"/>
    <nd ref="438105421"/>
  </way>
  <way id="37452765" version="4" timestamp="2009-09-17T15:06:28Z" uid="131059" user="h4ck3rm1k3" changeset="2513297">
    <nd ref="438105420"/>
    <nd ref="438105421"/>
    <tag k="highway" v="unclassified"/>
  </way>
  <way id="37452765" version="5" timestamp="2011-08-10T10:49:22Z" uid="199034" user="Altin" changeset="8975214">
    <nd ref="438105420"/>
    <nd ref="438105421"/>
    <tag k="highway" v="service"/>
  </way>
  <way id="37452765" version="6" timestamp="2011-08-10T19:58:08Z" uid="199034" user="Altin" changeset="8980024">
    <nd ref="438105420"/>
    <nd ref="438105421"/>
    <nd ref="1394068443"/>
    <nd ref="1394069059"/>
    <nd ref="1394067943"/>
    <tag k="highway" v="service"/>
  </way>
  <way id="37452892" version="4" timestamp="2010-07-23T23:19:52Z" uid="9581" user="Lobelt" changeset="5299824">
    <nd ref="438108407"/>
    <nd ref="438108409"/>
    <nd ref="438108411"/>
    <nd ref="438108412"/>
    <nd ref="438108407"/>
    <tag k="amenity" v="school"/>
    <tag k="name" v="Kurfürst-Friedich-Gymnasium"/>
  </way>
  <way id="37452892" version="5" timestamp="2011-01-24T23:05:22Z" uid="55945" user="xeen" changeset="7079181">
    <nd ref="438108407"/>
    <nd ref="438108409"/>
    <nd ref="438108411"/>
    <nd ref="1119485162"/>
    <nd ref="438108412"/>
    <nd ref="438108407"/>
    <tag k="amenity" v="school"/>
    <tag k="name" v="Kurfürst-Friedich-Gymnasium"/>
  </way>
  <way id="37452892" version="6" timestamp="2011-01-24T23:10:28Z" uid="55945" user="xeen" changeset="7079238">
    <nd ref="438108407"/>
    <nd ref="438108409"/>
    <nd ref="438108411"/>
    <nd ref="1119485162"/>
    <nd ref="438108407"/>
    <tag k="amenity" v="school"/>
    <tag k="name" v="Kurfürst-Friedich-Gymnasium"/>
  </way>
  <way id="37452892" version="7" timestamp="2012-03-15T21:15:24Z" uid="136321" user="Teddy73" changeset="10992640"/>
  <way id="37452916" version="1" timestamp="2009-07-09T14:06:56Z" uid="43863" user="Rundling" changeset="1781271">
    <nd ref="438108547"/>
    <nd ref="438108549"/>
    <nd ref="438108550"/>
    <nd ref="438108548"/>
    <nd ref="438108547"/>
    <tag k="addr:city" v="Uelzen"/>
    <tag k="addr:country" v="DE"/>
    <tag k="addr:housenumber" v="23"/>
    <tag k="addr:postcode" v="29525"/>
    <tag k="addr:street" v="Hochgraefestraße"/>
    <tag k="building" v="yes"/>
  </way>
  <way id="37452917" version="1" timestamp="2009-07-09T14:06:56Z" uid="43863" user="Rundling" changeset="1781271">
    <nd ref="438108553"/>
    <nd ref="438108551"/>
    <nd ref="438108554"/>
    <nd ref="438108552"/>
    <nd ref="438108553"/>
    <tag k="addr:city" v="Uelzen"/>
    <tag k="addr:country" v="DE"/>
    <tag k="addr:housenumber" v="21"/>
    <tag k="addr:postcode" v="29525"/>
    <tag k="addr:street" v="Hochgraefestraße"/>
    <tag k="building" v="yes"/>
  </way>
  <way id="37452917" version="2" timestamp="2009-07-09T15:11:08Z" uid="43863" user="Rundling" changeset="1781736">
    <nd ref="438108553"/>
    <nd ref="438152050"/>
    <nd ref="438152051"/>
    <nd ref="438108552"/>
    <nd ref="438108553"/>
    <tag k="addr:city" v="Uelzen"/>
    <tag k="addr:country" v="DE"/>
    <tag k="addr:housenumber" v="21"/>
    <tag k="addr:postcode" v="29525"/>
    <tag k="addr:street" v="Hochgraefestraße"/>
    <tag k="building" v="yes"/>
  </way>
  <way id="37452927" version="3" timestamp="2009-08-25T08:05:00Z" uid="18775" user="drlizau" changeset="2253357">
    <nd ref="29675493"/>
    <nd ref="438109018"/>
  </way>
  <way id="37452927" version="4" timestamp="2009-08-25T09:48:10Z" uid="18775" user="drlizau" changeset="2254359">
    <nd ref="29675493"/>
    <nd ref="438109018"/>
  </way>
  <way id="37452927" version="5" timestamp="2009-10-02T14:54:48Z" uid="131059" user="h4ck3rm1k3" changeset="2713590">
    <nd ref="29675493"/>
    <nd ref="438109018"/>
    <tag k="highway" v="road"/>
  </way>
  <way id="37452927" version="6" timestamp="2010-02-02T17:08:31Z" uid="207424" user="Ardi" changeset="3777140">
    <nd ref="29675493"/>
    <nd ref="438109018"/>
    <tag k="highway" v="tertiary"/>
  </way>
  <way id="37452927" version="7" timestamp="2010-02-20T15:42:09Z" uid="65432" user="bmog" changeset="3924636">
    <nd ref="29675493"/>
    <nd ref="438109018"/>
    <tag k="FIXME" v="check"/>
    <tag k="highway" v="tertiary"/>
  </way>
  <way id="37452927" version="8" timestamp="2011-03-21T22:03:06Z" uid="199034" user="Altin" changeset="7632260"/>
  <way id="37452929" version="3" timestamp="2009-08-25T08:04:41Z" uid="18775" user="drlizau" changeset="2253357">
    <nd ref="438109021"/>
    <nd ref="438109026"/>
    <nd ref="438109023"/>
  </way>
  <way id="37452929" version="4" timestamp="2009-08-25T09:48:09Z" uid="18775" user="drlizau" changeset="2254359">
    <nd ref="438109021"/>
    <nd ref="438109026"/>
    <nd ref="438109018"/>
    <nd ref="438109023"/>
  </way>
  <way id="37452929" version="5" timestamp="2009-10-02T14:54:47Z" uid="131059" user="h4ck3rm1k3" changeset="2713590">
    <nd ref="438109021"/>
    <nd ref="438109026"/>
    <nd ref="438109018"/>
    <nd ref="438109023"/>
    <tag k="highway" v="road"/>
  </way>
  <way id="37452929" version="6" timestamp="2010-02-02T17:08:30Z" uid="207424" user="Ardi" changeset="3777140">
    <nd ref="626794032"/>
    <nd ref="438109026"/>
    <nd ref="438109018"/>
    <nd ref="438109023"/>
    <tag k="highway" v="tertiary"/>
  </way>
  <way id="37452929" version="7" timestamp="2010-02-20T15:42:08Z" uid="65432" user="bmog" changeset="3924636">
    <nd ref="626794032"/>
    <nd ref="438109026"/>
    <nd ref="438109018"/>
    <nd ref="438109023"/>
    <tag k="FIXME" v="check"/>
    <tag k="highway" v="tertiary"/>
  </way>
  <way id="37452929" version="8" timestamp="2011-03-21T22:03:07Z" uid="199034" user="Altin" changeset="7632260"/>
  <way id="37452930" version="3" timestamp="2009-08-25T08:04:48Z" uid="18775" user="drlizau" changeset="2253357">
    <nd ref="438109026"/>
    <nd ref="438109029"/>
  </way>
  <way id="37452930" version="4" timestamp="2009-09-17T15:06:27Z" uid="131059" user="h4ck3rm1k3" changeset="2513297">
    <nd ref="438109026"/>
    <nd ref="438109029"/>
    <tag k="highway" v="unclassified"/>
  </way>
  <way id="37452930" version="5" timestamp="2009-09-28T05:29:39Z" uid="178813" user="Pleurati" changeset="2660647">
    <nd ref="438109026"/>
    <nd ref="438109029"/>
  </way>
  <way id="37452930" version="6" timestamp="2009-10-02T14:54:47Z" uid="131059" user="h4ck3rm1k3" changeset="2713590">
    <nd ref="438109026"/>
    <nd ref="438109029"/>
    <tag k="highway" v="road"/>
  </way>
  <way id="37452930" version="7" timestamp="2010-01-10T15:38:00Z" uid="131059" user="h4ck3rm1k3" changeset="3588139">
    <nd ref="438109026"/>
    <nd ref="610961430"/>
    <tag k="highway" v="road"/>
  </way>
  <way id="37452930" version="8" timestamp="2010-02-02T17:08:31Z" uid="207424" user="Ardi" changeset="3777140">
    <nd ref="438109026"/>
    <nd ref="610961430"/>
    <tag k="highway" v="tertiary"/>
  </way>
  <way id="37452930" version="9" timestamp="2010-02-20T15:42:09Z" uid="65432" user="bmog" changeset="3924636">
    <nd ref="438109026"/>
    <nd ref="610961430"/>
    <tag k="FIXME" v="check"/>
    <tag k="highway" v="tertiary"/>
  </way>
  <way id="37452930" version="10" timestamp="2010-12-02T18:20:55Z" uid="199034" user="Altinn" changeset="6517552">
    <nd ref="610961430"/>
    <nd ref="1016335656"/>
    <tag k="FIXME" v="check"/>
    <tag k="highway" v="tertiary"/>
  </way>
  <way id="37452930" version="11" timestamp="2011-03-31T16:59:49Z" uid="355102" user="Besfort Guri" changeset="7727749"/>
  <way id="37452931" version="3" timestamp="2009-08-25T08:04:48Z" uid="18775" user="drlizau" changeset="2253357">
    <nd ref="438109032"/>
    <nd ref="438109033"/>
    <nd ref="438109034"/>
    <nd ref="438109035"/>
    <nd ref="438109032"/>
    <tag k="amenity" v="public_building"/>
    <tag k="name" v="KEK"/>
  </way>
  <way id="37452931" version="4" timestamp="2010-01-10T15:03:37Z" uid="131059" user="h4ck3rm1k3" changeset="3587735">
    <nd ref="438109032"/>
    <nd ref="438109033"/>
    <nd ref="438109034"/>
    <nd ref="438109035"/>
    <nd ref="438109032"/>
    <tag k="amenity" v="public_building"/>
    <tag k="landuse" v="commercial"/>
    <tag k="name" v="KEK Korporata Energjetike e Kosovës"/>
  </way>
  <way id="37452931" version="5" timestamp="2010-04-03T08:27:58Z" uid="208612" user="FlosskPrishtina" changeset="4310502"/>
  <way id="37452427" version="2" timestamp="2012-07-18T17:14:22Z" uid="722137" user="OSMF Redaction Account" changeset="12290215"/>
  <way id="37452429" version="2" timestamp="2012-07-18T17:14:21Z" uid="722137" user="OSMF Redaction Account" changeset="12290215"/>
  <way id="37452430" version="2" timestamp="2012-07-18T17:14:23Z" uid="722137" user="OSMF Redaction Account" changeset="12290215"/>
  <way id="37452431" version="2" timestamp="2012-07-18T17:14:25Z" uid="722137" user="OSMF Redaction Account" changeset="12290215"/>
  <way id="37452488" version="3" timestamp="2012-07-18T17:14:24Z" uid="722137" user="OSMF Redaction Account" changeset="12290215"/>
  <way id="37452764" version="5" timestamp="2012-07-20T13:15:46Z" uid="722137" user="OSMF Redaction Account" changeset="12377300"/>
  <way id="37452765" version="7" timestamp="2012-07-20T13:15:00Z" uid="722137" user="OSMF Redaction Account" changeset="12377237">
    <nd ref="1394068443"/>
    <nd ref="1394069059"/>
    <nd ref="1394067943"/>
    <tag k="highway" v="service"/>
  </way>
  <way id="37452916" version="2" timestamp="2012-07-18T17:14:20Z" uid="722137" user="OSMF Redaction Account" changeset="12290215"/>
  <way id="37452917" version="3" timestamp="2012-07-18T17:14:21Z" uid="722137" user="OSMF Redaction Account" changeset="12290215"/>
</osm>
