<?xml version='1.0' encoding='UTF-8'?>
<osm version="0.6" generator="libosmium/2.20.0">
  <way id="37592021" version="1" timestamp="2009-07-12T11:02:34Z" uid="43863" user="Rundling" changeset="1805769">
    <nd ref="440673403"/>
    <nd ref="440673402"/>
    <tag k="bicycle" v="yes"/>
    <tag k="highway" v="footway"/>
    <tag k="surface" v="cobblestone"/>
  </way>
  <way id="37592022" version="1" timestamp="2009-07-12T11:02:34Z" uid="43863" user="Rundling" changeset="1805769">
    <nd ref="287240979"/>
    <nd ref="440673405"/>
    <nd ref="440673404"/>
    <tag k="bicycle" v="yes"/>
    <tag k="highway" v="footway"/>
    <tag k="surface" v="cobblestone"/>
  </way>
  <way id="37592023" version="1" timestamp="2009-07-12T11:02:34Z" uid="43863" user="Rundling" changeset="1805769">
    <nd ref="440673405"/>
    <nd ref="287240976"/>
    <tag k="bicycle" v="yes"/>
    <tag k="highway" v="footway"/>
    <tag k="surface" v="cobblestone"/>
  </way>
  <way id="37592024" version="1" timestamp="2009-07-12T11:02:35Z" uid="43863" user="Rundling" changeset="1805769">
    <nd ref="440673406"/>
    <nd ref="440673404"/>
    <tag k="highway" v="residential"/>
    <tag k="name" v="Medingstraße"/>
  </way>
  <way id="37592025" version="1" timestamp="2009-07-12T11:02:35Z" uid="43863" user="Rundling" changeset="1805769">
    <nd ref="440673402"/>
    <nd ref="332580741"/>
    <tag k="bicycle" v="yes"/>
    <tag k="highway" v="footway"/>
    <tag k="surface" v="cobblestone"/>
  </way>
  <way id="37592026" version="1" timestamp="2009-07-12T11:02:35Z" uid="43863" user="Rundling" changeset="1805769">
    <nd ref="440673410"/>
    <nd ref="440673411"/>
    <tag k="highway" v="footway"/>
    <tag k="surface" v="unpaved"/>
  </way>
  <way id="37592206" version="2" timestamp="2010-04-03T13:51:14Z" uid="20587" user="balrog-kun" changeset="4312927">
    <nd ref="82921277"/>
    <nd ref="82925199"/>
    <nd ref="82925201"/>
    <tag k="highway" v="residential"/>
    <tag k="name" v="East 4100  North"/>
    <tag k="tiger:cfcc" v="A41"/>
    <tag k="tiger:county" v="Cache, UT"/>
    <tag k="tiger:name_base" v="4100"/>
    <tag k="tiger:name_direction_prefix" v="E"/>
    <tag k="tiger:name_direction_suffix" v="N"/>
    <tag k="tiger:reviewed" v="no"/>
    <tag k="tiger:separated" v="no"/>
    <tag k="tiger:source" v="tiger_import_dch_v0.6_20070830"/>
    <tag k="tiger:tlid" v="155091319:155095881:155106637"/>
    <tag k="tiger:zip_left" v="84318"/>
    <tag k="tiger:zip_right" v="84318"/>
  </way>
  <way id="37592244" version="1" timestamp="2009-07-12T11:13:20Z" uid="43863" user="Rundling" changeset="1805855">
    <nd ref="440675887"/>
    <nd ref="440675889"/>
    <nd ref="440675890"/>
    <tag k="access" v="private"/>
    <tag k="bicycle" v="yes"/>
    <tag k="boat" v="no"/>
    <tag k="foot" v="yes"/>
    <tag k="goods" v="no"/>
    <tag k="hgv" v="no"/>
    <tag k="highway" v="footway"/>
    <tag k="horse" v="yes"/>
    <tag k="maxspeed" v="10"/>
    <tag k="motorboat" v="no"/>
    <tag k="motorcar" v="yes"/>
    <tag k="motorcycle" v="yes"/>
    <tag k="noexit" v="yes"/>
    <tag k="psv" v="no"/>
    <tag k="surface" v="unpaved"/>
  </way>
  <way id="37592264" version="1" timestamp="2009-07-12T11:16:13Z" uid="43863" user="Rundling" changeset="1805877">
    <nd ref="440676374"/>
    <nd ref="440676376"/>
    <nd ref="440676377"/>
    <nd ref="440676375"/>
    <nd ref="440676374"/>
    <tag k="addr:city" v="Uelzen"/>
    <tag k="addr:country" v="DE"/>
    <tag k="addr:housenumber" v="3b"/>
    <tag k="addr:postcode" v="29525"/>
    <tag k="addr:street" v="Goethestraße"/>
    <tag k="building" v="yes"/>
  </way>
  <way id="37592264" version="2" timestamp="2009-07-12T11:51:39Z" uid="43863" user="Rundling" changeset="1806245">
    <nd ref="440009073"/>
    <nd ref="440676376"/>
    <nd ref="440676377"/>
    <nd ref="440009074"/>
    <nd ref="440009073"/>
    <tag k="addr:city" v="Uelzen"/>
    <tag k="addr:country" v="DE"/>
    <tag k="addr:housenumber" v="3b"/>
    <tag k="addr:postcode" v="29525"/>
    <tag k="addr:street" v="Goethestraße"/>
    <tag k="building" v="yes"/>
  </way>
  <way id="37592265" version="1" timestamp="2009-07-12T11:16:13Z" uid="43863" user="Rundling" changeset="1805877">
    <nd ref="440676376"/>
    <nd ref="440676378"/>
    <nd ref="440676379"/>
    <nd ref="440676377"/>
    <nd ref="440676376"/>
    <tag k="addr:city" v="Uelzen"/>
    <tag k="addr:country" v="DE"/>
    <tag k="addr:housenumber" v="3a"/>
    <tag k="addr:postcode" v="29525"/>
    <tag k="addr:street" v="Goethestraße"/>
    <tag k="building" v="yes"/>
  </way>
  <way id="37592265" version="2" timestamp="2009-07-12T11:51:39Z" uid="43863" user="Rundling" changeset="1806245">
    <nd ref="440676376"/>
    <nd ref="440009075"/>
    <nd ref="440009076"/>
    <nd ref="440676377"/>
    <nd ref="440676376"/>
    <tag k="addr:city" v="Uelzen"/>
    <tag k="addr:country" v="DE"/>
    <tag k="addr:housenumber" v="3a"/>
    <tag k="addr:postcode" v="29525"/>
    <tag k="addr:street" v="Goethestraße"/>
    <tag k="building" v="yes"/>
  </way>
  <way id="37592268" version="2" timestamp="2010-05-02T07:42:52Z" uid="151899" user="Bikeman2000" changeset="4581798">
    <nd ref="440676407"/>
    <nd ref="440676409"/>
    <nd ref="440676410"/>
    <nd ref="716518907"/>
    <nd ref="440676411"/>
    <nd ref="440676407"/>
    <tag k="landuse" v="construction"/>
  </way>
  <way id="37592279" version="1" timestamp="2009-07-12T11:17:28Z" uid="19626" user="Swamp" changeset="1805883">
    <nd ref="440676530"/>
    <nd ref="440676485"/>
    <nd ref="440676486"/>
    <nd ref="440676487"/>
    <nd ref="440676488"/>
    <tag k="highway" v="unclassified"/>
    <tag k="name" v="Pyles Road"/>
    <tag k="source" v="gps/landsat"/>
  </way>
  <way id="37592279" version="2" timestamp="2010-05-01T02:30:38Z" uid="115684" user="jVviJ11dNx" changeset="4571305">
    <nd ref="440676530"/>
    <nd ref="714377427"/>
    <tag k="highway" v="unclassified"/>
    <tag k="name" v="Pyles Road"/>
    <tag k="source" v="nearmap"/>
  </way>
  <way id="37592280" version="1" timestamp="2009-07-12T11:17:28Z" uid="19626" user="Swamp" changeset="1805883">
    <nd ref="440676529"/>
    <nd ref="440676490"/>
    <nd ref="440676492"/>
    <tag k="highway" v="unclassified"/>
    <tag k="name" v="Victoria Park Road"/>
    <tag k="source" v="gps/landsat"/>
  </way>
  <way id="37592280" version="2" timestamp="2010-07-18T01:26:06Z" uid="115684" user="jVviJ11dNx" changeset="5247425">
    <nd ref="440676529"/>
    <nd ref="822359270"/>
    <nd ref="822359455"/>
    <nd ref="822358954"/>
    <nd ref="822359087"/>
    <nd ref="822358992"/>
    <nd ref="822359122"/>
    <nd ref="822359050"/>
    <nd ref="822359071"/>
    <nd ref="440676492"/>
    <nd ref="822358914"/>
    <nd ref="822359404"/>
    <nd ref="822359089"/>
    <nd ref="822358957"/>
    <nd ref="822359429"/>
    <nd ref="822359327"/>
    <nd ref="822359409"/>
    <nd ref="822359289"/>
    <nd ref="822359158"/>
    <nd ref="822359026"/>
    <nd ref="822359332"/>
    <nd ref="822359196"/>
    <nd ref="822359066"/>
    <nd ref="822358921"/>
    <nd ref="822359232"/>
    <nd ref="822359097"/>
    <nd ref="822358959"/>
    <nd ref="822359433"/>
    <nd ref="822359134"/>
    <nd ref="822358997"/>
    <nd ref="822359459"/>
    <nd ref="822359358"/>
    <nd ref="822359186"/>
    <nd ref="822359045"/>
    <nd ref="822358903"/>
    <nd ref="822359396"/>
    <nd ref="822359083"/>
    <nd ref="822358938"/>
    <nd ref="822359420"/>
    <nd ref="822359311"/>
    <nd ref="822358977"/>
    <nd ref="822359447"/>
    <nd ref="822359348"/>
    <nd ref="822359216"/>
    <nd ref="822359483"/>
    <nd ref="822359380"/>
    <nd ref="822359253"/>
    <nd ref="822359115"/>
    <nd ref="822359280"/>
    <nd ref="822359144"/>
    <nd ref="822359013"/>
    <nd ref="822359472"/>
    <nd ref="822359191"/>
    <nd ref="822359052"/>
    <nd ref="822358909"/>
    <nd ref="822359399"/>
    <nd ref="822359086"/>
    <nd ref="822358945"/>
    <nd ref="822359426"/>
    <nd ref="822359323"/>
    <nd ref="822358991"/>
    <nd ref="822359454"/>
    <nd ref="822359354"/>
    <nd ref="344401391"/>
    <tag k="highway" v="unclassified"/>
    <tag k="name" v="Victoria Park Road"/>
    <tag k="source" v="nearmap"/>
    <tag k="surface" v="unpaved"/>
  </way>
  <way id="37592281" version="1" timestamp="2009-07-12T11:17:28Z" uid="19626" user="Swamp" changeset="1805883">
    <nd ref="355764306"/>
    <nd ref="440676494"/>
    <nd ref="440676496"/>
    <nd ref="440676500"/>
    <nd ref="440676510"/>
    <tag k="highway" v="unclassified"/>
    <tag k="name" v="Oakenfull Road"/>
    <tag k="source" v="gps/landsat"/>
  </way>
  <way id="37592281" version="2" timestamp="2010-04-30T04:26:37Z" uid="115684" user="jVviJ11dNx" changeset="4562999">
    <nd ref="712837537"/>
    <nd ref="712837528"/>
    <nd ref="712837610"/>
    <nd ref="712837584"/>
    <nd ref="440676494"/>
    <nd ref="712837598"/>
    <nd ref="712837543"/>
    <nd ref="440676496"/>
    <nd ref="712837611"/>
    <nd ref="440676500"/>
    <nd ref="440676510"/>
    <tag k="highway" v="unclassified"/>
    <tag k="name" v="Oakenfull Road"/>
    <tag k="source" v="nearmap"/>
  </way>
  <way id="37592281" version="3" timestamp="2010-07-18T01:26:08Z" uid="115684" user="jVviJ11dNx" changeset="5247425">
    <nd ref="822359219"/>
    <nd ref="822359062"/>
    <nd ref="822359195"/>
    <nd ref="822359330"/>
    <nd ref="822359431"/>
    <nd ref="822359153"/>
    <nd ref="822359287"/>
    <nd ref="822359407"/>
    <nd ref="822358916"/>
    <nd ref="822359251"/>
    <nd ref="822359373"/>
    <nd ref="822359475"/>
    <tag k="highway" v="unclassified"/>
    <tag k="source" v="nearmap"/>
    <tag k="surface" v="unpaved"/>
  </way>
  <way id="37592282" version="1" timestamp="2009-07-12T11:17:28Z" uid="19626" user="Swamp" changeset="1805883">
    <nd ref="440676518"/>
    <nd ref="440676527"/>
    <tag k="highway" v="unclassified"/>
    <tag k="name" v="McGee Lane"/>
    <tag k="source" v="gps/landsat"/>
  </way>
  <way id="37592282" version="2" timestamp="2010-04-30T04:26:34Z" uid="115684" user="jVviJ11dNx" changeset="4562999">
    <nd ref="712837575"/>
    <nd ref="712837529"/>
    <nd ref="712837545"/>
    <nd ref="712837619"/>
    <nd ref="712837525"/>
    <nd ref="712837570"/>
    <nd ref="712837603"/>
    <nd ref="712837617"/>
    <nd ref="712837590"/>
    <nd ref="712837620"/>
    <nd ref="712837536"/>
    <nd ref="440676518"/>
    <nd ref="712837572"/>
    <nd ref="712837565"/>
    <tag k="highway" v="unclassified"/>
    <tag k="name" v="McGee Lane"/>
    <tag k="source" v="nearmap"/>
  </way>
  <way id="37592381" version="1" timestamp="2009-07-12T11:21:15Z" uid="43863" user="Rundling" changeset="1805920">
    <nd ref="440677551"/>
    <nd ref="440677553"/>
    <nd ref="440677554"/>
    <nd ref="440677552"/>
    <nd ref="440677551"/>
    <tag k="addr:housenumber" v="4"/>
    <tag k="addr:street" v="Hauenriede"/>
    <tag k="building" v="yes"/>
  </way>
  <way id="37592381" version="2" timestamp="2009-07-12T11:51:40Z" uid="43863" user="Rundling" changeset="1806245">
    <nd ref="440009227"/>
    <nd ref="440677553"/>
    <nd ref="440677554"/>
    <nd ref="440009228"/>
    <nd ref="440009227"/>
    <tag k="addr:housenumber" v="4"/>
    <tag k="addr:street" v="Hauenriede"/>
    <tag k="building" v="yes"/>
  </way>
  <way id="37592382" version="1" timestamp="2009-07-12T11:21:15Z" uid="43863" user="Rundling" changeset="1805920">
    <nd ref="440677553"/>
    <nd ref="440677555"/>
    <nd ref="440677556"/>
    <nd ref="440677554"/>
    <nd ref="440677553"/>
    <tag k="addr:housenumber" v="6"/>
    <tag k="addr:street" v="Hauenriede"/>
    <tag k="building" v="yes"/>
  </way>
  <way id="37592382" version="2" timestamp="2009-07-12T11:51:40Z" uid="43863" user="Rundling" changeset="1806245">
    <nd ref="440677553"/>
    <nd ref="440009229"/>
    <nd ref="440009230"/>
    <nd ref="440677554"/>
    <nd ref="440677553"/>
    <tag k="addr:housenumber" v="6"/>
    <tag k="addr:street" v="Hauenriede"/>
    <tag k="building" v="yes"/>
  </way>
  <way id="37592385" version="2" timestamp="2010-02-15T06:08:16Z" uid="74617" user="JohnSmith" changeset="3880328">
    <nd ref="330823363"/>
    <nd ref="330824286"/>
    <nd ref="330824287"/>
    <nd ref="330824288"/>
    <nd ref="330824289"/>
    <nd ref="330824290"/>
    <nd ref="330824291"/>
    <tag k="highway" v="residential"/>
    <tag k="maxspeed" v="50"/>
    <tag k="name" v="W. M. Hughes Street"/>
  </way>
  <way id="37592385" version="3" timestamp="2012-01-19T01:28:36Z" uid="147510" user="woodpeck_fixbot" changeset="10433378">
    <nd ref="330823363"/>
    <nd ref="330824286"/>
    <nd ref="330824287"/>
    <nd ref="330824288"/>
    <nd ref="330824289"/>
    <nd ref="330824290"/>
    <nd ref="330824291"/>
    <tag k="highway" v="residential"/>
    <tag k="name" v="W. M. Hughes Street"/>
  </way>
  <way id="37592605" version="1" timestamp="2009-07-12T11:32:13Z" uid="43863" user="Rundling" changeset="1806024">
    <nd ref="439991825"/>
    <nd ref="440681743"/>
    <nd ref="440681745"/>
    <nd ref="439991824"/>
    <nd ref="439991825"/>
    <tag k="addr:housenumber" v="25"/>
    <tag k="addr:street" v="Hauenriede"/>
    <tag k="building" v="yes"/>
  </way>
  <way id="37592606" version="1" timestamp="2009-07-12T11:32:13Z" uid="43863" user="Rundling" changeset="1806024">
    <nd ref="440681743"/>
    <nd ref="439991828"/>
    <nd ref="439991823"/>
    <nd ref="440681745"/>
    <nd ref="440681743"/>
    <tag k="addr:housenumber" v="23"/>
    <tag k="addr:street" v="Hauenriede"/>
    <tag k="building" v="yes"/>
  </way>
  <way id="37592607" version="1" timestamp="2009-07-12T11:32:14Z" uid="43863" user="Rundling" changeset="1806024">
    <nd ref="439991830"/>
    <nd ref="440681748"/>
    <nd ref="440681751"/>
    <nd ref="439991834"/>
    <nd ref="439991830"/>
    <tag k="addr:housenumber" v="31"/>
    <tag k="addr:street" v="Hauenriede"/>
    <tag k="building" v="yes"/>
  </way>
  <way id="37592608" version="1" timestamp="2009-07-12T11:32:14Z" uid="43863" user="Rundling" changeset="1806024">
    <nd ref="440681748"/>
    <nd ref="440681754"/>
    <nd ref="440681756"/>
    <nd ref="440681751"/>
    <nd ref="440681748"/>
    <tag k="addr:housenumber" v="29"/>
    <tag k="addr:street" v="Hauenriede"/>
    <tag k="building" v="yes"/>
  </way>
  <way id="37592609" version="1" timestamp="2009-07-12T11:32:14Z" uid="43863" user="Rundling" changeset="1806024">
    <nd ref="440681754"/>
    <nd ref="439991833"/>
    <nd ref="439991839"/>
    <nd ref="440681756"/>
    <nd ref="440681754"/>
    <tag k="addr:housenumber" v="27"/>
    <tag k="addr:street" v="Hauenriede"/>
    <tag k="building" v="yes"/>
  </way>
  <way id="37592610" version="1" timestamp="2009-07-12T11:32:14Z" uid="43863" user="Rundling" changeset="1806024">
    <nd ref="440681759"/>
    <nd ref="440681763"/>
    <nd ref="440681764"/>
    <nd ref="440681761"/>
    <nd ref="440681759"/>
    <tag k="addr:housenumber" v="43"/>
    <tag k="addr:street" v="Hauenriede"/>
    <tag k="building" v="yes"/>
  </way>
  <way id="37592610" version="2" timestamp="2009-07-12T11:51:40Z" uid="43863" user="Rundling" changeset="1806245">
    <nd ref="440192193"/>
    <nd ref="440681763"/>
    <nd ref="440681764"/>
    <nd ref="440192191"/>
    <nd ref="440192193"/>
    <tag k="addr:housenumber" v="43"/>
    <tag k="addr:street" v="Hauenriede"/>
    <tag k="building" v="yes"/>
  </way>
  <way id="37592611" version="1" timestamp="2009-07-12T11:32:14Z" uid="43863" user="Rundling" changeset="1806024">
    <nd ref="440681763"/>
    <nd ref="440681766"/>
    <nd ref="440681769"/>
    <nd ref="440681764"/>
    <nd ref="440681763"/>
    <tag k="addr:housenumber" v="41"/>
    <tag k="addr:street" v="Hauenriede"/>
    <tag k="building" v="yes"/>
  </way>
  <way id="37592612" version="1" timestamp="2009-07-12T11:32:14Z" uid="43863" user="Rundling" changeset="1806024">
    <nd ref="440681766"/>
    <nd ref="440681771"/>
    <nd ref="440681773"/>
    <nd ref="440681769"/>
    <nd ref="440681766"/>
    <tag k="addr:housenumber" v="39"/>
    <tag k="addr:street" v="Hauenriede"/>
    <tag k="building" v="yes"/>
  </way>
  <way id="37592612" version="2" timestamp="2009-07-12T11:51:40Z" uid="43863" user="Rundling" changeset="1806245">
    <nd ref="440681766"/>
    <nd ref="440179773"/>
    <nd ref="440179775"/>
    <nd ref="440681769"/>
    <nd ref="440681766"/>
    <tag k="addr:housenumber" v="39"/>
    <tag k="addr:street" v="Hauenriede"/>
    <tag k="building" v="yes"/>
  </way>
  <way id="37592842" version="1" timestamp="2009-07-12T11:36:52Z" uid="43863" user="Rundling" changeset="1806072">
    <nd ref="440684674"/>
    <nd ref="440684673"/>
    <nd ref="440684675"/>
    <nd ref="440684676"/>
    <nd ref="440305818"/>
    <nd ref="440305821"/>
    <nd ref="440305810"/>
    <nd ref="440305806"/>
    <nd ref="440305808"/>
    <nd ref="440305815"/>
    <nd ref="440305824"/>
    <nd ref="440305827"/>
    <nd ref="440684674"/>
    <tag k="addr:city" v="Uelzen"/>
    <tag k="addr:country" v="DE"/>
    <tag k="addr:housenumber" v="6"/>
    <tag k="addr:postcode" v="29525"/>
    <tag k="addr:street" v="Wullhop"/>
    <tag k="building" v="yes"/>
  </way>
  <way id="37592842" version="2" timestamp="2009-07-12T11:37:46Z" uid="43863" user="Rundling" changeset="1806082">
    <nd ref="440684674"/>
    <nd ref="440684673"/>
    <nd ref="440684675"/>
    <nd ref="440684676"/>
    <nd ref="440684674"/>
    <tag k="addr:city" v="Uelzen"/>
    <tag k="addr:country" v="DE"/>
    <tag k="addr:housenumber" v="6"/>
    <tag k="addr:postcode" v="29525"/>
    <tag k="addr:street" v="Wullhop"/>
    <tag k="building" v="yes"/>
  </way>
  <way id="37592842" version="3" timestamp="2011-02-12T16:07:45Z" uid="43863" user="Rundling" changeset="7266381">
    <nd ref="440684674"/>
    <nd ref="440684673"/>
    <nd ref="440684675"/>
    <nd ref="440684676"/>
    <nd ref="1149209055"/>
    <nd ref="1149208828"/>
    <nd ref="1149208889"/>
    <nd ref="1149208681"/>
    <nd ref="1149208536"/>
    <nd ref="1149209129"/>
    <nd ref="1149208587"/>
    <nd ref="1149208649"/>
    <nd ref="440684674"/>
    <tag k="addr:city" v="Uelzen"/>
    <tag k="addr:country" v="DE"/>
    <tag k="addr:housenumber" v="6"/>
    <tag k="addr:postcode" v="29525"/>
    <tag k="addr:street" v="Wullhop"/>
    <tag k="building" v="yes"/>
  </way>
  <way id="37592843" version="1" timestamp="2009-07-12T11:37:00Z" uid="58091" user="Andreas M" changeset="1806074">
    <nd ref="440117301"/>
    <nd ref="440117340"/>
    <nd ref="440117343"/>
    <nd ref="440117338"/>
    <nd ref="440117345"/>
    <nd ref="440117347"/>
    <nd ref="440117349"/>
    <nd ref="440117351"/>
    <nd ref="440117353"/>
    <nd ref="440117395"/>
    <tag k="highway" v="path"/>
  </way>
  <way id="37592843" version="2" timestamp="2010-02-21T14:00:27Z" uid="58091" user="Andreas M" changeset="3933641">
    <nd ref="440117301"/>
    <nd ref="440117340"/>
    <nd ref="440117343"/>
    <nd ref="440117338"/>
    <nd ref="440117345"/>
    <nd ref="440117347"/>
    <nd ref="440117349"/>
    <nd ref="440117351"/>
    <nd ref="440117353"/>
    <nd ref="440117395"/>
    <tag k="bicycle" v="no"/>
    <tag k="highway" v="path"/>
  </way>
  <way id="37592844" version="1" timestamp="2009-07-12T11:37:00Z" uid="58091" user="Andreas M" changeset="1806074">
    <nd ref="440117303"/>
    <nd ref="440117394"/>
    <tag k="fixme" v="Geht in Richtung Osten weiter"/>
    <tag k="highway" v="path"/>
  </way>
  <way id="37592844" version="2" timestamp="2009-07-12T16:58:30Z" uid="58091" user="Andreas M" changeset="1809260">
    <nd ref="440117303"/>
    <nd ref="440117394"/>
    <nd ref="440837522"/>
    <nd ref="440837523"/>
    <nd ref="440837524"/>
    <nd ref="440837526"/>
    <nd ref="440837527"/>
    <nd ref="440837529"/>
    <nd ref="440837530"/>
    <nd ref="440837531"/>
    <nd ref="440837532"/>
    <nd ref="440837534"/>
    <nd ref="440837535"/>
    <nd ref="440837536"/>
    <nd ref="440837537"/>
    <tag k="highway" v="path"/>
  </way>
  <way id="37592844" version="3" timestamp="2009-09-23T13:52:45Z" uid="58091" user="Andreas M" changeset="2595669">
    <nd ref="440117303"/>
    <nd ref="440117394"/>
    <nd ref="440837522"/>
    <nd ref="440837523"/>
    <nd ref="440837524"/>
    <nd ref="440837526"/>
    <nd ref="440837527"/>
    <nd ref="440837529"/>
    <nd ref="440837530"/>
    <nd ref="440837531"/>
    <nd ref="440837532"/>
    <nd ref="440837534"/>
    <tag k="highway" v="path"/>
  </way>
  <way id="37592844" version="4" timestamp="2009-09-23T14:26:35Z" uid="58091" user="Andreas M" changeset="2596015">
    <nd ref="440117303"/>
    <nd ref="440117394"/>
    <nd ref="440837522"/>
    <nd ref="440837523"/>
    <nd ref="440837524"/>
    <nd ref="440837526"/>
    <nd ref="440837527"/>
    <nd ref="440837529"/>
    <nd ref="440837530"/>
    <nd ref="440837531"/>
    <nd ref="440837532"/>
    <nd ref="440837534"/>
    <tag k="bicycle" v="no"/>
    <tag k="highway" v="path"/>
  </way>
  <way id="37592916" version="1" timestamp="2009-07-12T11:40:07Z" uid="43863" user="Rundling" changeset="1806106">
    <nd ref="440686089"/>
    <nd ref="440686087"/>
    <nd ref="440686091"/>
    <nd ref="440686093"/>
    <nd ref="440686089"/>
    <tag k="addr:city" v="Uelzen"/>
    <tag k="addr:country" v="DE"/>
    <tag k="addr:housenumber" v="2"/>
    <tag k="addr:postcode" v="29525"/>
    <tag k="addr:street" v="Wullhop"/>
    <tag k="building" v="yes"/>
  </way>
  <way id="37592021" version="2" timestamp="2012-04-21T03:11:14Z" uid="512815" user="Nojan32" changeset="11370135"/>
  <way id="37592022" version="2" timestamp="2012-04-21T03:11:15Z" uid="512815" user="Nojan32" changeset="11370135"/>
  <way id="37592023" version="2" timestamp="2012-04-21T03:11:14Z" uid="512815" user="Nojan32" changeset="11370135"/>
  <way id="37592024" version="2" timestamp="2012-04-21T03:11:13Z" uid="512815" user="Nojan32" changeset="11370135"/>
  <way id="37592025" version="2" timestamp="2012-04-21T03:11:15Z" uid="512815" user="Nojan32" changeset="11370135"/>
  <way id="37592026" version="2" timestamp="2012-07-14T21:03:46Z" uid="473481" user="Karisa" changeset="12221690">
    <nd ref="1724849894"/>
    <nd ref="1724849898"/>
    <tag k="highway" v="footway"/>
    <tag k="surface" v="unpaved"/>
  </way>
  <way id="37592026" version="3" timestamp="2012-07-18T18:17:03Z" uid="722137" user="OSMF Redaction Account" changeset="12291848">
    <nd ref="1724849894"/>
    <nd ref="1724849898"/>
  </way>
  <way id="37592244" version="2" timestamp="2012-07-14T20:57:11Z" uid="473481" user="Karisa" changeset="12221690">
    <nd ref="1724863993"/>
    <nd ref="440675889"/>
    <nd ref="440675890"/>
    <tag k="access" v="private"/>
    <tag k="bicycle" v="yes"/>
    <tag k="boat" v="no"/>
    <tag k="foot" v="yes"/>
    <tag k="goods" v="no"/>
    <tag k="hgv" v="no"/>
    <tag k="highway" v="footway"/>
    <tag k="horse" v="yes"/>
    <tag k="maxspeed" v="10"/>
    <tag k="motorboat" v="no"/>
    <tag k="motorcar" v="yes"/>
    <tag k="motorcycle" v="yes"/>
    <tag k="noexit" v="yes"/>
    <tag k="psv" v="no"/>
    <tag k="surface" v="unpaved"/>
  </way>
  <way id="37592244" version="3" timestamp="2012-07-18T18:19:22Z" uid="722137" user="OSMF Redaction Account" changeset="12292026"/>
  <way id="37592264" version="3" timestamp="2012-07-18T18:19:16Z" uid="722137" user="OSMF Redaction Account" changeset="12292026"/>
  <way id="37592265" version="3" timestamp="2012-07-18T18:19:15Z" uid="722137" user="OSMF Redaction Account" changeset="12292026"/>
  <way id="37592268" version="3" timestamp="2012-07-17T02:51:39Z" uid="722137" user="OSMF Redaction Account" changeset="12255687">
    <nd ref="440676407"/>
    <nd ref="440676409"/>
    <nd ref="440676410"/>
    <nd ref="440676411"/>
    <nd ref="440676407"/>
    <tag k="landuse" v="construction"/>
  </way>
  <way id="37592279" version="3" timestamp="2012-07-19T10:04:05Z" uid="722137" user="OSMF Redaction Account" changeset="12317442"/>
  <way id="37592280" version="3" timestamp="2012-07-19T10:01:16Z" uid="722137" user="OSMF Redaction Account" changeset="12317313">
    <nd ref="440676529"/>
    <nd ref="822359270"/>
    <nd ref="822359455"/>
    <nd ref="822358954"/>
    <nd ref="822359087"/>
    <nd ref="822358992"/>
    <nd ref="822359122"/>
    <nd ref="822359050"/>
    <nd ref="822359071"/>
    <nd ref="440676492"/>
    <nd ref="822358914"/>
    <nd ref="822359404"/>
    <nd ref="822359089"/>
    <nd ref="822358957"/>
    <nd ref="822359429"/>
    <nd ref="822359327"/>
    <nd ref="822359409"/>
    <nd ref="822359289"/>
    <nd ref="822359158"/>
    <nd ref="822359026"/>
    <nd ref="822359332"/>
    <nd ref="822359196"/>
    <nd ref="822359066"/>
    <nd ref="822358921"/>
    <nd ref="822359232"/>
    <nd ref="822359097"/>
    <nd ref="822358959"/>
    <nd ref="822359433"/>
    <nd ref="822359134"/>
    <nd ref="822358997"/>
    <nd ref="822359459"/>
    <nd ref="822359358"/>
    <nd ref="822359186"/>
    <nd ref="822359045"/>
    <nd ref="822358903"/>
    <nd ref="822359396"/>
    <nd ref="822359083"/>
    <nd ref="822358938"/>
    <nd ref="822359420"/>
    <nd ref="822359311"/>
    <nd ref="822358977"/>
    <nd ref="822359447"/>
    <nd ref="822359348"/>
    <nd ref="822359216"/>
    <nd ref="822359483"/>
    <nd ref="822359380"/>
    <nd ref="822359253"/>
    <nd ref="822359115"/>
    <nd ref="822359280"/>
    <nd ref="344401391"/>
    <tag k="highway" v="unclassified"/>
    <tag k="name" v="Victoria Park Road"/>
    <tag k="source" v="nearmap"/>
    <tag k="surface" v="unpaved"/>
  </way>
  <way id="37592280" version="4" timestamp="2012-07-19T10:01:38Z" uid="722137" user="OSMF Redaction Account" changeset="12317324">
    <nd ref="440676529"/>
    <nd ref="822359270"/>
    <nd ref="822359455"/>
    <nd ref="822358954"/>
    <nd ref="822359087"/>
    <nd ref="822358992"/>
    <nd ref="822359122"/>
    <nd ref="822359050"/>
    <nd ref="344401391"/>
    <tag k="highway" v="unclassified"/>
    <tag k="name" v="Victoria Park Road"/>
    <tag k="source" v="nearmap"/>
    <tag k="surface" v="unpaved"/>
  </way>
  <way id="37592280" version="5" timestamp="2012-07-19T10:01:58Z" uid="722137" user="OSMF Redaction Account" changeset="12317336"/>
  <way id="37592281" version="4" timestamp="2012-07-19T10:01:58Z" uid="722137" user="OSMF Redaction Account" changeset="12317336"/>
  <way id="37592282" version="3" timestamp="2012-07-19T09:47:26Z" uid="722137" user="OSMF Redaction Account" changeset="12316799"/>
  <way id="37592381" version="3" timestamp="2012-07-18T18:19:13Z" uid="722137" user="OSMF Redaction Account" changeset="12292026"/>
  <way id="37592382" version="3" timestamp="2012-07-18T18:19:12Z" uid="722137" user="OSMF Redaction Account" changeset="12292026"/>
  <way id="37592605" version="2" timestamp="2012-07-18T18:19:03Z" uid="722137" user="OSMF Redaction Account" changeset="12292026"/>
  <way id="37592606" version="2" timestamp="2012-07-18T18:19:04Z" uid="722137" user="OSMF Redaction Account" changeset="12292026"/>
  <way id="37592607" version="2" timestamp="2012-07-18T18:19:02Z" uid="722137" user="OSMF Redaction Account" changeset="12292026"/>
  <way id="37592608" version="2" timestamp="2012-07-18T18:19:02Z" uid="722137" user="OSMF Redaction Account" changeset="12292026"/>
  <way id="37592609" version="2" timestamp="2012-07-18T18:19:02Z" uid="722137" user="OSMF Redaction Account" changeset="12292026"/>
  <way id="37592610" version="3" timestamp="2012-07-18T18:18:53Z" uid="722137" user="OSMF Redaction Account" changeset="12291986"/>
  <way id="37592611" version="2" timestamp="2012-07-18T18:18:54Z" uid="722137" user="OSMF Redaction Account" changeset="12291986"/>
  <way id="37592612" version="3" timestamp="2012-07-18T18:18:56Z" uid="722137" user="OSMF Redaction Account" changeset="12292026"/>
  <way id="37592842" version="4" timestamp="2012-07-18T18:18:50Z" uid="722137" user="OSMF Redaction Account" changeset="12291986"/>
  <way id="37592843" version="3" timestamp="2012-07-17T01:04:10Z" uid="722137" user="OSMF Redaction Account" changeset="12254520"/>
  <way id="37592844" version="5" timestamp="2012-07-17T01:04:09Z" uid="722137" user="OSMF Redaction Account" changeset="12254520"/>
  <way id="37592916" version="2" timestamp="2012-07-18T18:18:48Z" uid="722137" user="OSMF Redaction Account" changeset="12291986"/>
</osm>
