<?xml version='1.0' encoding='UTF-8'?>
<osm version="0.6" generator="libosmium/2.20.0">
  <way id="37677000" version="2" timestamp="2010-04-03T04:16:13Z" uid="20587" user="balrog-kun" changeset="4309442">
    <nd ref="441735449"/>
    <nd ref="441735476"/>
    <nd ref="441735475"/>
    <nd ref="441735482"/>
    <nd ref="441735480"/>
    <nd ref="441735484"/>
    <nd ref="441735483"/>
    <nd ref="441735421"/>
    <tag k="highway" v="residential"/>
    <tag k="name" v="South Olympic Drive"/>
  </way>
  <way id="37677001" version="2" timestamp="2010-04-03T04:16:13Z" uid="20587" user="balrog-kun" changeset="4309442">
    <nd ref="441735406"/>
    <nd ref="441735408"/>
    <tag k="highway" v="residential"/>
    <tag k="name" v="East Cathy Drive"/>
  </way>
  <way id="37677002" version="2" timestamp="2010-04-03T04:16:13Z" uid="20587" user="balrog-kun" changeset="4309442">
    <nd ref="441735436"/>
    <nd ref="441735438"/>
    <tag k="highway" v="residential"/>
    <tag k="name" v="South Pheasant Drive"/>
  </way>
  <way id="37677003" version="2" timestamp="2010-04-03T04:16:13Z" uid="20587" user="balrog-kun" changeset="4309442">
    <nd ref="441735432"/>
    <nd ref="441735446"/>
    <tag k="highway" v="residential"/>
    <tag k="name" v="South Olympic Drive"/>
  </way>
  <way id="37677004" version="2" timestamp="2010-04-03T04:16:13Z" uid="20587" user="balrog-kun" changeset="4309442">
    <nd ref="441735414"/>
    <nd ref="441735490"/>
    <tag k="highway" v="residential"/>
    <tag k="name" v="East Cooper Ranch Road"/>
  </way>
  <way id="37677005" version="2" timestamp="2010-04-03T04:16:13Z" uid="20587" user="balrog-kun" changeset="4309442">
    <nd ref="441735410"/>
    <nd ref="441735435"/>
    <tag k="highway" v="residential"/>
    <tag k="name" v="South Deerfield Lane"/>
  </way>
  <way id="37677006" version="2" timestamp="2010-04-03T04:16:13Z" uid="20587" user="balrog-kun" changeset="4309442">
    <nd ref="441735494"/>
    <nd ref="441735429"/>
    <tag k="highway" v="residential"/>
    <tag k="name" v="South Hawk Lane"/>
  </way>
  <way id="37677007" version="2" timestamp="2010-04-03T04:16:13Z" uid="20587" user="balrog-kun" changeset="4309442">
    <nd ref="441735469"/>
    <nd ref="441735449"/>
    <tag k="highway" v="residential"/>
    <tag k="name" v="East Estrella Drive"/>
  </way>
  <way id="37677007" version="3" timestamp="2012-02-17T20:14:21Z" uid="4111" user="adenium" changeset="10714410">
    <nd ref="1636949463"/>
    <nd ref="441735449"/>
    <tag k="highway" v="residential"/>
    <tag k="name" v="East Estrella Drive"/>
  </way>
  <way id="37677008" version="2" timestamp="2010-04-03T04:16:13Z" uid="20587" user="balrog-kun" changeset="4309442">
    <nd ref="441735433"/>
    <nd ref="441735487"/>
    <tag k="highway" v="residential"/>
    <tag k="name" v="South Swallow Lane"/>
  </way>
  <way id="37677009" version="2" timestamp="2010-04-03T04:16:13Z" uid="20587" user="balrog-kun" changeset="4309442">
    <nd ref="441735446"/>
    <nd ref="441735439"/>
    <tag k="highway" v="residential"/>
    <tag k="name" v="East Nunnley Road"/>
  </way>
  <way id="37677010" version="2" timestamp="2010-04-03T04:16:13Z" uid="20587" user="balrog-kun" changeset="4309442">
    <nd ref="441735406"/>
    <nd ref="441735432"/>
    <tag k="highway" v="residential"/>
    <tag k="name" v="South Olympic Drive"/>
  </way>
  <way id="37677011" version="2" timestamp="2010-04-03T04:16:13Z" uid="20587" user="balrog-kun" changeset="4309442">
    <nd ref="441735435"/>
    <nd ref="441735436"/>
    <tag k="highway" v="residential"/>
    <tag k="name" v="East Ranch Road"/>
  </way>
  <way id="37677012" version="2" timestamp="2010-04-03T04:16:13Z" uid="20587" user="balrog-kun" changeset="4309442">
    <nd ref="441735430"/>
    <nd ref="441735429"/>
    <tag k="highway" v="residential"/>
    <tag k="name" v="East Stottler Drive"/>
  </way>
  <way id="37677013" version="2" timestamp="2010-04-03T04:16:13Z" uid="20587" user="balrog-kun" changeset="4309442">
    <nd ref="441735432"/>
    <nd ref="441735419"/>
    <tag k="highway" v="residential"/>
    <tag k="name" v="East Gila Street"/>
  </way>
  <way id="37677014" version="2" timestamp="2010-04-03T04:16:13Z" uid="20587" user="balrog-kun" changeset="4309442">
    <nd ref="441735417"/>
    <nd ref="441735433"/>
    <tag k="highway" v="residential"/>
    <tag k="name" v="South Swallow Lane"/>
  </way>
  <way id="37677015" version="2" timestamp="2010-04-03T04:16:14Z" uid="20587" user="balrog-kun" changeset="4309442">
    <nd ref="441735427"/>
    <nd ref="441735426"/>
    <tag k="highway" v="residential"/>
    <tag k="name" v="South Cheshire Lane"/>
  </way>
  <way id="37677016" version="2" timestamp="2010-04-03T04:16:14Z" uid="20587" user="balrog-kun" changeset="4309442">
    <nd ref="441735417"/>
    <nd ref="441735435"/>
    <tag k="highway" v="residential"/>
    <tag k="name" v="East Ranch Road"/>
  </way>
  <way id="37677017" version="2" timestamp="2010-04-03T04:16:14Z" uid="20587" user="balrog-kun" changeset="4309442">
    <nd ref="441735426"/>
    <nd ref="441735410"/>
    <tag k="highway" v="residential"/>
    <tag k="name" v="East Stottler Drive"/>
  </way>
  <way id="37677018" version="2" timestamp="2010-04-03T04:16:14Z" uid="20587" user="balrog-kun" changeset="4309442">
    <nd ref="441735423"/>
    <nd ref="441735467"/>
    <nd ref="441735466"/>
    <nd ref="441735489"/>
    <nd ref="441735443"/>
    <tag k="highway" v="residential"/>
    <tag k="name" v="East Ranch Road"/>
  </way>
  <way id="37677019" version="2" timestamp="2010-04-03T04:16:14Z" uid="20587" user="balrog-kun" changeset="4309442">
    <nd ref="441735438"/>
    <nd ref="441735486"/>
    <tag k="highway" v="residential"/>
    <tag k="name" v="East Brooks Street"/>
  </way>
  <way id="37677020" version="2" timestamp="2010-04-03T04:16:15Z" uid="20587" user="balrog-kun" changeset="4309442">
    <nd ref="441735424"/>
    <nd ref="441735423"/>
    <tag k="highway" v="residential"/>
    <tag k="name" v="East Ranch Road"/>
  </way>
  <way id="37677020" version="3" timestamp="2012-02-17T20:14:21Z" uid="4111" user="adenium" changeset="10714410">
    <nd ref="1636949439"/>
    <nd ref="441735423"/>
    <tag k="highway" v="residential"/>
    <tag k="name" v="East Ranch Road"/>
  </way>
  <way id="37677021" version="2" timestamp="2010-04-03T04:16:15Z" uid="20587" user="balrog-kun" changeset="4309442">
    <nd ref="441735430"/>
    <nd ref="441735489"/>
    <tag k="highway" v="residential"/>
    <tag k="name" v="South Sabino Drive"/>
  </way>
  <way id="37677022" version="2" timestamp="2010-04-03T04:16:15Z" uid="20587" user="balrog-kun" changeset="4309442">
    <nd ref="441735414"/>
    <nd ref="441735413"/>
    <tag k="highway" v="residential"/>
    <tag k="name" v="South Pheasant Drive"/>
  </way>
  <way id="37677023" version="2" timestamp="2010-04-03T04:16:15Z" uid="20587" user="balrog-kun" changeset="4309442">
    <nd ref="441735429"/>
    <nd ref="441735426"/>
    <tag k="highway" v="residential"/>
    <tag k="name" v="East Stottler Drive"/>
  </way>
  <way id="37677024" version="2" timestamp="2010-04-03T04:16:15Z" uid="20587" user="balrog-kun" changeset="4309442">
    <nd ref="441735495"/>
    <nd ref="441735430"/>
    <tag k="highway" v="residential"/>
    <tag k="name" v="South Sabino Drive"/>
  </way>
  <way id="37677028" version="6" timestamp="2010-07-16T08:38:39Z" uid="4467" user="Rosscoe" changeset="5233091">
    <nd ref="556420756"/>
    <nd ref="820288804"/>
    <nd ref="556420770"/>
    <nd ref="441735603"/>
    <nd ref="556418936"/>
    <nd ref="441735647"/>
    <tag k="foot" v="yes"/>
    <tag k="highway" v="cycleway"/>
  </way>
  <way id="37677034" version="2" timestamp="2010-02-26T17:45:46Z" uid="74617" user="JohnSmith" changeset="3982219">
    <nd ref="441735662"/>
    <nd ref="80742208"/>
    <nd ref="441735665"/>
    <tag k="bridge" v="yes"/>
    <tag k="highway" v="trunk"/>
    <tag k="layer" v="1"/>
    <tag k="maxspeed" v="60"/>
    <tag k="name" v="Gympie Road"/>
    <tag k="oneway" v="yes"/>
  </way>
  <way id="37677035" version="2" timestamp="2010-02-26T17:45:46Z" uid="74617" user="JohnSmith" changeset="3982219">
    <nd ref="441735661"/>
    <nd ref="80715444"/>
    <nd ref="319973183"/>
    <tag k="highway" v="trunk"/>
    <tag k="maxspeed" v="60"/>
    <tag k="name" v="Gympie Road"/>
    <tag k="oneway" v="yes"/>
  </way>
  <way id="37677038" version="2" timestamp="2010-02-26T17:45:46Z" uid="74617" user="JohnSmith" changeset="3982219">
    <nd ref="441735667"/>
    <nd ref="37118050"/>
    <nd ref="441735661"/>
    <tag k="bridge" v="yes"/>
    <tag k="highway" v="trunk"/>
    <tag k="layer" v="1"/>
    <tag k="maxspeed" v="60"/>
    <tag k="name" v="Gympie Road"/>
    <tag k="oneway" v="yes"/>
  </way>
  <way id="37677039" version="3" timestamp="2010-02-26T17:45:45Z" uid="74617" user="JohnSmith" changeset="3982219">
    <nd ref="441735665"/>
    <nd ref="89586758"/>
    <nd ref="80742211"/>
    <nd ref="557792847"/>
    <nd ref="80742213"/>
    <nd ref="557792841"/>
    <nd ref="278897846"/>
    <nd ref="557792642"/>
    <nd ref="80574435"/>
    <nd ref="278902063"/>
    <tag k="highway" v="trunk"/>
    <tag k="maxspeed" v="60"/>
    <tag k="name" v="Gympie Road"/>
    <tag k="oneway" v="yes"/>
  </way>
  <way id="37677044" version="2" timestamp="2010-04-03T04:16:15Z" uid="20587" user="balrog-kun" changeset="4309442">
    <nd ref="441735702"/>
    <nd ref="441735705"/>
    <tag k="highway" v="residential"/>
    <tag k="name" v="East Edna Drive"/>
  </way>
  <way id="37677045" version="2" timestamp="2010-04-03T04:16:15Z" uid="20587" user="balrog-kun" changeset="4309442">
    <nd ref="441735800"/>
    <nd ref="441735839"/>
    <tag k="highway" v="residential"/>
    <tag k="name" v="South Henry Lane"/>
  </way>
  <way id="37677046" version="2" timestamp="2010-04-03T04:16:15Z" uid="20587" user="balrog-kun" changeset="4309442">
    <nd ref="441735789"/>
    <nd ref="441735685"/>
    <tag k="highway" v="residential"/>
    <tag k="name" v="South Agnes Lane"/>
  </way>
  <way id="37677047" version="2" timestamp="2010-04-03T04:16:15Z" uid="20587" user="balrog-kun" changeset="4309442">
    <nd ref="441735699"/>
    <nd ref="441735701"/>
    <tag k="highway" v="residential"/>
    <tag k="name" v="South Annie Lane"/>
  </way>
  <way id="37677048" version="2" timestamp="2010-04-03T04:16:15Z" uid="20587" user="balrog-kun" changeset="4309442">
    <nd ref="441735800"/>
    <nd ref="441735732"/>
    <tag k="highway" v="residential"/>
    <tag k="name" v="East Turnbull Street"/>
  </way>
  <way id="37677049" version="2" timestamp="2010-04-03T04:16:15Z" uid="20587" user="balrog-kun" changeset="4309442">
    <nd ref="441735848"/>
    <nd ref="441735758"/>
    <tag k="highway" v="residential"/>
    <tag k="name" v="East Edna Drive"/>
  </way>
  <way id="37677050" version="2" timestamp="2010-04-03T04:16:15Z" uid="20587" user="balrog-kun" changeset="4309442">
    <nd ref="441735695"/>
    <nd ref="441735696"/>
    <tag k="highway" v="residential"/>
    <tag k="name" v="East Leslie Drive"/>
  </way>
  <way id="37677051" version="2" timestamp="2010-04-03T04:16:15Z" uid="20587" user="balrog-kun" changeset="4309442">
    <nd ref="441735713"/>
    <nd ref="441735823"/>
    <tag k="highway" v="residential"/>
    <tag k="name" v="East Turnbull Street"/>
  </way>
  <way id="37677052" version="2" timestamp="2010-04-03T04:16:15Z" uid="20587" user="balrog-kun" changeset="4309442">
    <nd ref="441735690"/>
    <nd ref="441735691"/>
    <tag k="highway" v="residential"/>
    <tag k="name" v="East Tidwell Drive"/>
  </way>
  <way id="37677053" version="2" timestamp="2010-04-03T04:16:15Z" uid="20587" user="balrog-kun" changeset="4309442">
    <nd ref="441735691"/>
    <nd ref="441735693"/>
    <tag k="highway" v="residential"/>
    <tag k="name" v="East Tidwell Drive"/>
  </way>
  <way id="37677054" version="2" timestamp="2010-04-03T04:16:16Z" uid="20587" user="balrog-kun" changeset="4309442">
    <nd ref="441735796"/>
    <nd ref="441735821"/>
    <tag k="highway" v="residential"/>
    <tag k="name" v="South Storment Lane"/>
  </way>
  <way id="37677055" version="2" timestamp="2010-04-03T04:16:16Z" uid="20587" user="balrog-kun" changeset="4309442">
    <nd ref="441735856"/>
    <nd ref="441735827"/>
    <tag k="highway" v="residential"/>
    <tag k="name" v="East Angstead Drive"/>
  </way>
  <way id="37677056" version="2" timestamp="2010-04-03T04:16:16Z" uid="20587" user="balrog-kun" changeset="4309442">
    <nd ref="441735688"/>
    <nd ref="441735690"/>
    <tag k="highway" v="residential"/>
    <tag k="name" v="East Tidwell Drive"/>
  </way>
  <way id="37677057" version="2" timestamp="2010-04-03T04:16:16Z" uid="20587" user="balrog-kun" changeset="4309442">
    <nd ref="441735805"/>
    <nd ref="441735790"/>
    <tag k="highway" v="residential"/>
    <tag k="name" v="South Adam Way"/>
  </way>
  <way id="37677058" version="2" timestamp="2010-04-03T04:16:16Z" uid="20587" user="balrog-kun" changeset="4309442">
    <nd ref="441735742"/>
    <nd ref="441735718"/>
    <tag k="highway" v="residential"/>
    <tag k="name" v="East Turnbull Street"/>
  </way>
  <way id="37677059" version="2" timestamp="2010-04-03T04:16:16Z" uid="20587" user="balrog-kun" changeset="4309442">
    <nd ref="441735685"/>
    <nd ref="441735687"/>
    <tag k="highway" v="residential"/>
    <tag k="name" v="East Elona Drive"/>
  </way>
  <way id="37677059" version="3" timestamp="2012-02-20T01:24:22Z" uid="4111" user="adenium" changeset="10736664">
    <nd ref="441735685"/>
    <nd ref="1640035713"/>
    <nd ref="441735687"/>
    <tag k="highway" v="residential"/>
    <tag k="name" v="East Elona Drive"/>
  </way>
  <way id="37677060" version="2" timestamp="2010-04-03T04:16:16Z" uid="20587" user="balrog-kun" changeset="4309442">
    <nd ref="441735875"/>
    <nd ref="441735893"/>
    <nd ref="441735821"/>
    <tag k="highway" v="residential"/>
    <tag k="name" v="East Turnbull Street"/>
  </way>
  <way id="37677061" version="2" timestamp="2010-04-03T04:16:16Z" uid="20587" user="balrog-kun" changeset="4309442">
    <nd ref="441735832"/>
    <nd ref="441735845"/>
    <tag k="highway" v="residential"/>
    <tag k="name" v="East Isabella Drive"/>
  </way>
  <way id="37677062" version="2" timestamp="2010-04-03T04:16:16Z" uid="20587" user="balrog-kun" changeset="4309442">
    <nd ref="441735682"/>
    <nd ref="441735684"/>
    <tag k="highway" v="residential"/>
    <tag k="name" v="South Follett Way"/>
  </way>
  <way id="37677063" version="2" timestamp="2010-04-03T04:16:16Z" uid="20587" user="balrog-kun" changeset="4309442">
    <nd ref="441735741"/>
    <nd ref="441735702"/>
    <tag k="highway" v="residential"/>
    <tag k="name" v="East Edna Drive"/>
  </way>
  <way id="37677064" version="2" timestamp="2010-04-03T04:16:16Z" uid="20587" user="balrog-kun" changeset="4309442">
    <nd ref="441735691"/>
    <nd ref="441735843"/>
    <tag k="highway" v="residential"/>
    <tag k="name" v="South Huish Drive"/>
  </way>
  <way id="37677065" version="2" timestamp="2010-04-03T04:16:17Z" uid="20587" user="balrog-kun" changeset="4309442">
    <nd ref="441735679"/>
    <nd ref="441735680"/>
    <tag k="highway" v="residential"/>
    <tag k="name" v="South Adam Way"/>
  </way>
  <way id="37677066" version="2" timestamp="2010-04-03T04:16:17Z" uid="20587" user="balrog-kun" changeset="4309442">
    <nd ref="441735892"/>
    <nd ref="441735722"/>
    <tag k="highway" v="residential"/>
    <tag k="name" v="South Storment Lane"/>
  </way>
  <way id="37677067" version="2" timestamp="2010-04-03T04:16:17Z" uid="20587" user="balrog-kun" changeset="4309442">
    <nd ref="441735747"/>
    <nd ref="441735840"/>
    <tag k="highway" v="residential"/>
    <tag k="name" v="South Wade Drive"/>
  </way>
  <way id="37677068" version="2" timestamp="2010-04-03T04:16:17Z" uid="20587" user="balrog-kun" changeset="4309442">
    <nd ref="441735851"/>
    <nd ref="441735709"/>
    <tag k="highway" v="residential"/>
    <tag k="name" v="South Agnes Lane"/>
  </way>
  <way id="37677069" version="2" timestamp="2010-04-03T04:16:17Z" uid="20587" user="balrog-kun" changeset="4309442">
    <nd ref="441735685"/>
    <nd ref="441735866"/>
    <tag k="highway" v="residential"/>
    <tag k="name" v="South Agnes Lane"/>
  </way>
  <way id="37677070" version="2" timestamp="2010-04-03T04:16:17Z" uid="20587" user="balrog-kun" changeset="4309442">
    <nd ref="441735724"/>
    <nd ref="441735722"/>
    <tag k="highway" v="residential"/>
    <tag k="name" v="East Edna Drive"/>
  </way>
  <way id="37677070" version="3" timestamp="2012-02-20T01:24:23Z" uid="4111" user="adenium" changeset="10736664">
    <nd ref="441735724"/>
    <nd ref="1640035693"/>
    <nd ref="441735722"/>
    <tag k="highway" v="residential"/>
    <tag k="name" v="East Edna Drive"/>
  </way>
  <way id="37677071" version="2" timestamp="2010-04-03T04:16:17Z" uid="20587" user="balrog-kun" changeset="4309442">
    <nd ref="441735764"/>
    <nd ref="441735826"/>
    <tag k="highway" v="residential"/>
    <tag k="name" v="South Osborn Lane"/>
  </way>
  <way id="37677072" version="2" timestamp="2010-04-03T04:16:17Z" uid="20587" user="balrog-kun" changeset="4309442">
    <nd ref="441735710"/>
    <nd ref="441735688"/>
    <tag k="highway" v="residential"/>
    <tag k="name" v="East Tidwell Drive"/>
  </way>
  <way id="37677072" version="3" timestamp="2012-02-20T01:24:23Z" uid="4111" user="adenium" changeset="10736664">
    <nd ref="441735710"/>
    <nd ref="1640035689"/>
    <nd ref="1640035691"/>
    <nd ref="441735688"/>
    <tag k="highway" v="residential"/>
    <tag k="name" v="East Tidwell Drive"/>
  </way>
  <way id="37677073" version="2" timestamp="2010-04-03T04:16:17Z" uid="20587" user="balrog-kun" changeset="4309442">
    <nd ref="441735721"/>
    <nd ref="441735720"/>
    <tag k="highway" v="residential"/>
    <tag k="name" v="East Leslie Drive"/>
  </way>
  <way id="37677074" version="2" timestamp="2010-04-03T04:16:17Z" uid="20587" user="balrog-kun" changeset="4309442">
    <nd ref="441735738"/>
    <nd ref="441735834"/>
    <nd ref="441735837"/>
    <tag k="highway" v="residential"/>
    <tag k="name" v="South Wade Drive"/>
  </way>
  <way id="37677075" version="2" timestamp="2010-04-03T04:16:17Z" uid="20587" user="balrog-kun" changeset="4309442">
    <nd ref="441735854"/>
    <nd ref="441735763"/>
    <tag k="highway" v="residential"/>
    <tag k="name" v="South Annie Lane"/>
  </way>
  <way id="37677076" version="2" timestamp="2010-04-03T04:16:17Z" uid="20587" user="balrog-kun" changeset="4309442">
    <nd ref="441735718"/>
    <nd ref="441735717"/>
    <tag k="highway" v="residential"/>
    <tag k="name" v="East Turnbull Street"/>
  </way>
  <way id="37677077" version="2" timestamp="2010-04-03T04:16:17Z" uid="20587" user="balrog-kun" changeset="4309442">
    <nd ref="441735736"/>
    <nd ref="441735761"/>
    <tag k="highway" v="residential"/>
    <tag k="name" v="South Storment Lane"/>
  </way>
  <way id="37677078" version="2" timestamp="2010-04-03T04:16:18Z" uid="20587" user="balrog-kun" changeset="4309442">
    <nd ref="441735769"/>
    <nd ref="441735800"/>
    <tag k="highway" v="residential"/>
    <tag k="name" v="East Turnbull Street"/>
  </way>
  <way id="37677078" version="3" timestamp="2012-02-20T01:24:23Z" uid="4111" user="adenium" changeset="10736664">
    <nd ref="441735769"/>
    <nd ref="1640035705"/>
    <nd ref="441735800"/>
    <tag k="highway" v="residential"/>
    <tag k="name" v="East Turnbull Street"/>
  </way>
  <way id="37677079" version="2" timestamp="2010-04-03T04:16:18Z" uid="20587" user="balrog-kun" changeset="4309442">
    <nd ref="441735680"/>
    <nd ref="441735715"/>
    <tag k="highway" v="residential"/>
    <tag k="name" v="East Sabra Lane"/>
  </way>
  <way id="37677080" version="2" timestamp="2010-04-03T04:16:18Z" uid="20587" user="balrog-kun" changeset="4309442">
    <nd ref="441735679"/>
    <nd ref="441735884"/>
    <nd ref="441735883"/>
    <nd ref="441735882"/>
    <nd ref="441735880"/>
    <nd ref="441735887"/>
    <nd ref="441735886"/>
    <nd ref="441735894"/>
    <tag k="highway" v="residential"/>
    <tag k="name" v="East Elona Drive"/>
  </way>
  <way id="37677080" version="3" timestamp="2012-02-17T20:14:20Z" uid="4111" user="adenium" changeset="10714410">
    <nd ref="441735679"/>
    <nd ref="441735884"/>
    <nd ref="441735883"/>
    <nd ref="441735882"/>
    <nd ref="441735880"/>
    <nd ref="441735887"/>
    <nd ref="1636949452"/>
    <nd ref="1636949463"/>
    <tag k="highway" v="residential"/>
    <tag k="name" v="East Elona Drive"/>
  </way>
  <way id="37677081" version="2" timestamp="2010-04-03T04:16:18Z" uid="20587" user="balrog-kun" changeset="4309442">
    <nd ref="441735784"/>
    <nd ref="441735746"/>
    <tag k="highway" v="residential"/>
    <tag k="name" v="South Nancy Drive"/>
  </way>
  <way id="37677082" version="2" timestamp="2010-04-03T04:16:18Z" uid="20587" user="balrog-kun" changeset="4309442">
    <nd ref="441735714"/>
    <nd ref="441735713"/>
    <tag k="highway" v="residential"/>
    <tag k="name" v="South Annie Lane"/>
  </way>
  <way id="37677083" version="2" timestamp="2010-04-03T04:16:18Z" uid="20587" user="balrog-kun" changeset="4309442">
    <nd ref="441735720"/>
    <nd ref="441735787"/>
    <tag k="highway" v="residential"/>
    <tag k="name" v="East Leslie Drive"/>
  </way>
  <way id="37677084" version="2" timestamp="2010-04-03T04:16:18Z" uid="20587" user="balrog-kun" changeset="4309442">
    <nd ref="441735805"/>
    <nd ref="441735776"/>
    <tag k="highway" v="residential"/>
    <tag k="name" v="East Turnbull Street"/>
  </way>
  <way id="37677085" version="2" timestamp="2010-04-03T04:16:18Z" uid="20587" user="balrog-kun" changeset="4309442">
    <nd ref="441735711"/>
    <nd ref="441735693"/>
    <tag k="highway" v="residential"/>
    <tag k="name" v="South Adam Way"/>
  </way>
  <way id="37677086" version="2" timestamp="2010-04-03T04:16:18Z" uid="20587" user="balrog-kun" changeset="4309442">
    <nd ref="441735837"/>
    <nd ref="441735728"/>
    <tag k="highway" v="residential"/>
    <tag k="name" v="East Welker Drive"/>
  </way>
  <way id="37677087" version="2" timestamp="2010-04-03T04:16:18Z" uid="20587" user="balrog-kun" changeset="4309442">
    <nd ref="441735850"/>
    <nd ref="441735769"/>
    <tag k="highway" v="residential"/>
    <tag k="name" v="East Turnbull Street"/>
  </way>
  <way id="37677088" version="2" timestamp="2010-04-03T04:16:18Z" uid="20587" user="balrog-kun" changeset="4309442">
    <nd ref="441735687"/>
    <nd ref="441735710"/>
    <tag k="highway" v="residential"/>
    <tag k="name" v="South Benjamin Drive"/>
  </way>
  <way id="37677089" version="2" timestamp="2010-04-03T04:16:18Z" uid="20587" user="balrog-kun" changeset="4309442">
    <nd ref="441735731"/>
    <nd ref="441735727"/>
    <tag k="highway" v="residential"/>
    <tag k="name" v="East Elona Drive"/>
  </way>
  <way id="37677090" version="2" timestamp="2010-04-03T04:16:18Z" uid="20587" user="balrog-kun" changeset="4309442">
    <nd ref="441735710"/>
    <nd ref="441735850"/>
    <tag k="highway" v="residential"/>
    <tag k="name" v="South Benjamin Drive"/>
  </way>
  <way id="37677090" version="3" timestamp="2012-02-20T01:24:23Z" uid="4111" user="adenium" changeset="10736664">
    <nd ref="441735710"/>
    <nd ref="1640035695"/>
    <nd ref="441735850"/>
    <tag k="highway" v="residential"/>
    <tag k="name" v="South Benjamin Drive"/>
  </way>
  <way id="37677091" version="2" timestamp="2010-04-03T04:16:18Z" uid="20587" user="balrog-kun" changeset="4309442">
    <nd ref="441735709"/>
    <nd ref="441735707"/>
    <tag k="highway" v="residential"/>
    <tag k="name" v="East Welker Drive"/>
  </way>
  <way id="37677092" version="2" timestamp="2010-04-03T04:16:18Z" uid="20587" user="balrog-kun" changeset="4309442">
    <nd ref="441735744"/>
    <nd ref="441735725"/>
    <tag k="highway" v="residential"/>
    <tag k="name" v="East Hans Drive"/>
  </way>
  <way id="37677093" version="2" timestamp="2010-04-03T04:16:18Z" uid="20587" user="balrog-kun" changeset="4309442">
    <nd ref="441735776"/>
    <nd ref="441735742"/>
    <tag k="highway" v="residential"/>
    <tag k="name" v="East Turnbull Street"/>
  </way>
  <way id="37677094" version="2" timestamp="2010-04-03T04:16:18Z" uid="20587" user="balrog-kun" changeset="4309442">
    <nd ref="441735741"/>
    <nd ref="441735742"/>
    <tag k="highway" v="residential"/>
    <tag k="name" v="South Brewer Drive"/>
  </way>
  <way id="37677095" version="2" timestamp="2010-04-03T04:16:19Z" uid="20587" user="balrog-kun" changeset="4309442">
    <nd ref="441735746"/>
    <nd ref="441735862"/>
    <tag k="highway" v="residential"/>
    <tag k="name" v="South Nancy Drive"/>
  </way>
  <way id="37677096" version="2" timestamp="2010-04-03T04:16:19Z" uid="20587" user="balrog-kun" changeset="4309442">
    <nd ref="441735738"/>
    <nd ref="441735739"/>
    <tag k="highway" v="residential"/>
    <tag k="name" v="East Isabella Drive"/>
  </way>
  <way id="37677097" version="2" timestamp="2010-04-03T04:16:19Z" uid="20587" user="balrog-kun" changeset="4309442">
    <nd ref="441735778"/>
    <nd ref="441735797"/>
    <tag k="highway" v="residential"/>
    <tag k="name" v="South Adam Way"/>
  </way>
  <way id="37677098" version="2" timestamp="2010-04-03T04:16:19Z" uid="20587" user="balrog-kun" changeset="4309442">
    <nd ref="441735735"/>
    <nd ref="441735736"/>
    <tag k="highway" v="residential"/>
    <tag k="name" v="South Storment Lane"/>
  </way>
  <way id="37677099" version="2" timestamp="2010-04-03T04:16:20Z" uid="20587" user="balrog-kun" changeset="4309442">
    <nd ref="441735803"/>
    <nd ref="441735848"/>
    <tag k="highway" v="residential"/>
    <tag k="name" v="East Edna Drive"/>
  </way>
  <way id="37677100" version="2" timestamp="2010-04-03T04:16:20Z" uid="20587" user="balrog-kun" changeset="4309442">
    <nd ref="441735732"/>
    <nd ref="441735734"/>
    <tag k="highway" v="residential"/>
    <tag k="name" v="South Huish Drive"/>
  </way>
  <way id="37677101" version="2" timestamp="2010-04-03T04:16:20Z" uid="20587" user="balrog-kun" changeset="4309442">
    <nd ref="441735821"/>
    <nd ref="441735713"/>
    <tag k="highway" v="residential"/>
    <tag k="name" v="East Turnbull Street"/>
  </way>
  <way id="37677102" version="2" timestamp="2010-04-03T04:16:20Z" uid="20587" user="balrog-kun" changeset="4309442">
    <nd ref="441735687"/>
    <nd ref="441735731"/>
    <tag k="highway" v="residential"/>
    <tag k="name" v="East Elona Drive"/>
  </way>
  <way id="37677102" version="3" timestamp="2012-02-20T01:24:23Z" uid="4111" user="adenium" changeset="10736664">
    <nd ref="441735687"/>
    <nd ref="1640035688"/>
    <nd ref="441735731"/>
    <tag k="highway" v="residential"/>
    <tag k="name" v="East Elona Drive"/>
  </way>
  <way id="37677103" version="2" timestamp="2010-04-03T04:16:20Z" uid="20587" user="balrog-kun" changeset="4309442">
    <nd ref="441735791"/>
    <nd ref="441735856"/>
    <tag k="highway" v="residential"/>
    <tag k="name" v="East Angstead Drive"/>
  </way>
  <way id="37677104" version="2" timestamp="2010-04-03T04:16:20Z" uid="20587" user="balrog-kun" changeset="4309442">
    <nd ref="441735728"/>
    <nd ref="441735729"/>
    <tag k="highway" v="residential"/>
    <tag k="name" v="East Welker Drive"/>
  </way>
  <way id="37677105" version="2" timestamp="2010-04-03T04:16:20Z" uid="20587" user="balrog-kun" changeset="4309442">
    <nd ref="441735860"/>
    <nd ref="441735796"/>
    <tag k="highway" v="residential"/>
    <tag k="name" v="East Horace Drive"/>
  </way>
  <way id="37677106" version="2" timestamp="2010-04-03T04:16:20Z" uid="20587" user="balrog-kun" changeset="4309442">
    <nd ref="441735725"/>
    <nd ref="441735727"/>
    <tag k="highway" v="residential"/>
    <tag k="name" v="South Henry Lane"/>
  </way>
  <way id="37677107" version="2" timestamp="2010-04-03T04:16:20Z" uid="20587" user="balrog-kun" changeset="4309442">
    <nd ref="441735749"/>
    <nd ref="441735865"/>
    <tag k="highway" v="residential"/>
    <tag k="name" v="East Leslie Drive"/>
  </way>
  <way id="37677108" version="2" timestamp="2010-04-03T04:16:20Z" uid="20587" user="balrog-kun" changeset="4309442">
    <nd ref="441735801"/>
    <nd ref="441735803"/>
    <tag k="highway" v="residential"/>
    <tag k="name" v="East Edna Drive"/>
  </way>
  <way id="37677109" version="2" timestamp="2010-04-03T04:16:20Z" uid="20587" user="balrog-kun" changeset="4309442">
    <nd ref="441735758"/>
    <nd ref="441735741"/>
    <tag k="highway" v="residential"/>
    <tag k="name" v="East Edna Drive"/>
  </way>
  <way id="37677110" version="2" timestamp="2010-04-03T04:16:20Z" uid="20587" user="balrog-kun" changeset="4309442">
    <nd ref="441735872"/>
    <nd ref="441735871"/>
    <tag k="highway" v="residential"/>
    <tag k="name" v="South Reber Avenue"/>
  </way>
  <way id="37677111" version="2" timestamp="2010-04-03T04:16:20Z" uid="20587" user="balrog-kun" changeset="4309442">
    <nd ref="441735729"/>
    <nd ref="441735763"/>
    <tag k="highway" v="residential"/>
    <tag k="name" v="East Welker Drive"/>
  </way>
  <way id="37677112" version="2" timestamp="2010-04-03T04:16:20Z" uid="20587" user="balrog-kun" changeset="4309442">
    <nd ref="441735854"/>
    <nd ref="441735851"/>
    <tag k="highway" v="residential"/>
    <tag k="name" v="East Isabella Drive"/>
  </way>
  <way id="37677113" version="2" timestamp="2010-04-03T04:16:20Z" uid="20587" user="balrog-kun" changeset="4309442">
    <nd ref="441735756"/>
    <nd ref="441735721"/>
    <tag k="highway" v="residential"/>
    <tag k="name" v="East Leslie Drive"/>
  </way>
  <way id="37677114" version="2" timestamp="2010-04-03T04:16:20Z" uid="20587" user="balrog-kun" changeset="4309442">
    <nd ref="441735858"/>
    <nd ref="441735711"/>
    <tag k="highway" v="residential"/>
    <tag k="name" v="East Gideon Way"/>
  </way>
  <way id="37677115" version="2" timestamp="2010-04-03T04:16:20Z" uid="20587" user="balrog-kun" changeset="4309442">
    <nd ref="441735755"/>
    <nd ref="441735753"/>
    <nd ref="441735725"/>
    <tag k="highway" v="residential"/>
    <tag k="name" v="South Henry Lane"/>
  </way>
  <way id="37677116" version="2" timestamp="2010-04-03T04:16:21Z" uid="20587" user="balrog-kun" changeset="4309442">
    <nd ref="441735724"/>
    <nd ref="441735860"/>
    <tag k="highway" v="residential"/>
    <tag k="name" v="South Wade Drive"/>
  </way>
  <way id="37677117" version="2" timestamp="2010-04-03T04:16:21Z" uid="20587" user="balrog-kun" changeset="4309442">
    <nd ref="441735752"/>
    <nd ref="441735696"/>
    <tag k="highway" v="residential"/>
    <tag k="name" v="South Brewer Drive"/>
  </way>
  <way id="37677118" version="2" timestamp="2010-04-03T04:16:21Z" uid="20587" user="balrog-kun" changeset="4309442">
    <nd ref="441735850"/>
    <nd ref="441735890"/>
    <nd ref="441735889"/>
    <tag k="highway" v="residential"/>
    <tag k="name" v="South Benjamin Drive"/>
  </way>
  <way id="37677119" version="2" timestamp="2010-04-03T04:16:21Z" uid="20587" user="balrog-kun" changeset="4309442">
    <nd ref="441735868"/>
    <nd ref="441735729"/>
    <tag k="highway" v="residential"/>
    <tag k="name" v="South Storment Lane"/>
  </way>
  <way id="37677120" version="2" timestamp="2010-04-03T04:16:21Z" uid="20587" user="balrog-kun" changeset="4309442">
    <nd ref="441735750"/>
    <nd ref="441735749"/>
    <tag k="highway" v="residential"/>
    <tag k="name" v="South Almira Avenue"/>
  </way>
  <way id="37677121" version="2" timestamp="2010-04-03T04:16:21Z" uid="20587" user="balrog-kun" changeset="4309442">
    <nd ref="441735739"/>
    <nd ref="441735728"/>
    <tag k="highway" v="residential"/>
    <tag k="name" v="South Nancy Drive"/>
  </way>
  <way id="37677122" version="2" timestamp="2010-04-03T04:16:21Z" uid="20587" user="balrog-kun" changeset="4309442">
    <nd ref="441735840"/>
    <nd ref="441735756"/>
    <tag k="highway" v="residential"/>
    <tag k="name" v="South Wade Drive"/>
  </way>
  <way id="37677122" version="3" timestamp="2012-02-20T01:24:23Z" uid="4111" user="adenium" changeset="10736664">
    <nd ref="441735840"/>
    <nd ref="1640035703"/>
    <nd ref="441735756"/>
    <tag k="highway" v="residential"/>
    <tag k="name" v="South Wade Drive"/>
  </way>
  <way id="37677123" version="2" timestamp="2010-04-03T04:16:21Z" uid="20587" user="balrog-kun" changeset="4309442">
    <nd ref="441735747"/>
    <nd ref="441735746"/>
    <tag k="highway" v="residential"/>
    <tag k="name" v="East Elona Drive"/>
  </way>
  <way id="37677124" version="2" timestamp="2010-04-03T04:16:21Z" uid="20587" user="balrog-kun" changeset="4309442">
    <nd ref="441735767"/>
    <nd ref="441735843"/>
    <tag k="highway" v="residential"/>
    <tag k="name" v="East Leslie Drive"/>
  </way>
  <way id="37677125" version="2" timestamp="2010-04-03T04:16:21Z" uid="20587" user="balrog-kun" changeset="4309442">
    <nd ref="441735823"/>
    <nd ref="441735856"/>
    <tag k="highway" v="residential"/>
    <tag k="name" v="South Agnes Lane"/>
  </way>
  <way id="37677126" version="2" timestamp="2010-04-03T04:16:21Z" uid="20587" user="balrog-kun" changeset="4309442">
    <nd ref="441735746"/>
    <nd ref="441735736"/>
    <tag k="highway" v="residential"/>
    <tag k="name" v="East Elona Drive"/>
  </way>
  <way id="37677127" version="2" timestamp="2010-04-03T04:16:21Z" uid="20587" user="balrog-kun" changeset="4309442">
    <nd ref="441735690"/>
    <nd ref="441735767"/>
    <tag k="highway" v="residential"/>
    <tag k="name" v="South Henry Lane"/>
  </way>
  <way id="37677128" version="2" timestamp="2010-04-03T04:16:22Z" uid="20587" user="balrog-kun" changeset="4309442">
    <nd ref="441735701"/>
    <nd ref="441735866"/>
    <tag k="highway" v="residential"/>
    <tag k="name" v="East Gideon Way"/>
  </way>
  <way id="37677129" version="2" timestamp="2010-04-03T04:16:22Z" uid="20587" user="balrog-kun" changeset="4309442">
    <nd ref="441735756"/>
    <nd ref="441735724"/>
    <tag k="highway" v="residential"/>
    <tag k="name" v="South Wade Drive"/>
  </way>
  <way id="37677130" version="2" timestamp="2010-04-03T04:16:22Z" uid="20587" user="balrog-kun" changeset="4309442">
    <nd ref="441735839"/>
    <nd ref="441735734"/>
    <tag k="highway" v="residential"/>
    <tag k="name" v="East Angstead Drive"/>
  </way>
  <way id="37677131" version="2" timestamp="2010-04-03T04:16:22Z" uid="20587" user="balrog-kun" changeset="4309442">
    <nd ref="441735758"/>
    <nd ref="441735776"/>
    <tag k="highway" v="residential"/>
    <tag k="name" v="South Wallrade Lane"/>
  </way>
  <way id="37677132" version="2" timestamp="2010-04-03T04:16:22Z" uid="20587" user="balrog-kun" changeset="4309442">
    <nd ref="441735794"/>
    <nd ref="441735699"/>
    <tag k="highway" v="residential"/>
    <tag k="name" v="South Annie Lane"/>
  </way>
  <way id="37677133" version="2" timestamp="2010-04-03T04:16:22Z" uid="20587" user="balrog-kun" changeset="4309442">
    <nd ref="441735769"/>
    <nd ref="441735770"/>
    <tag k="highway" v="residential"/>
    <tag k="name" v="South Reber Avenue"/>
  </way>
  <way id="37677134" version="2" timestamp="2010-04-03T04:16:22Z" uid="20587" user="balrog-kun" changeset="4309442">
    <nd ref="441735699"/>
    <nd ref="441735685"/>
    <tag k="highway" v="residential"/>
    <tag k="name" v="East Elona Drive"/>
  </way>
  <way id="37677135" version="2" timestamp="2010-04-03T04:16:22Z" uid="20587" user="balrog-kun" changeset="4309442">
    <nd ref="441735752"/>
    <nd ref="441735750"/>
    <tag k="highway" v="residential"/>
    <tag k="name" v="East Tidwell Drive"/>
  </way>
  <way id="37677135" version="3" timestamp="2012-02-17T20:14:21Z" uid="4111" user="adenium" changeset="10714410">
    <nd ref="441735752"/>
    <nd ref="1636949479"/>
    <nd ref="441735750"/>
    <tag k="highway" v="residential"/>
    <tag k="name" v="East Tidwell Drive"/>
  </way>
  <way id="37677136" version="2" timestamp="2010-04-03T04:16:22Z" uid="20587" user="balrog-kun" changeset="4309442">
    <nd ref="441735860"/>
    <nd ref="441735873"/>
    <nd ref="441735875"/>
    <tag k="highway" v="residential"/>
    <tag k="name" v="South Wade Drive"/>
  </way>
  <way id="37677137" version="2" timestamp="2010-04-03T04:16:22Z" uid="20587" user="balrog-kun" changeset="4309442">
    <nd ref="441735764"/>
    <nd ref="441735766"/>
    <tag k="highway" v="residential"/>
    <tag k="name" v="East Leslie Drive"/>
  </way>
  <way id="37677138" version="2" timestamp="2010-04-03T04:16:22Z" uid="20587" user="balrog-kun" changeset="4309442">
    <nd ref="441735826"/>
    <nd ref="441735850"/>
    <tag k="highway" v="residential"/>
    <tag k="name" v="East Turnbull Street"/>
  </way>
  <way id="37677139" version="2" timestamp="2010-04-03T04:16:22Z" uid="20587" user="balrog-kun" changeset="4309442">
    <nd ref="441735761"/>
    <nd ref="441735701"/>
    <tag k="highway" v="residential"/>
    <tag k="name" v="East Gideon Way"/>
  </way>
  <way id="37677140" version="2" timestamp="2010-04-03T04:16:23Z" uid="20587" user="balrog-kun" changeset="4309442">
    <nd ref="441735715"/>
    <nd ref="441735829"/>
    <tag k="highway" v="residential"/>
    <tag k="name" v="South Brewer Drive"/>
  </way>
  <way id="37677141" version="2" timestamp="2010-04-03T04:16:23Z" uid="20587" user="balrog-kun" changeset="4309442">
    <nd ref="441735759"/>
    <nd ref="441735752"/>
    <tag k="highway" v="residential"/>
    <tag k="name" v="East Tidwell Drive"/>
  </way>
  <way id="37677142" version="2" timestamp="2010-04-03T04:16:23Z" uid="20587" user="balrog-kun" changeset="4309442">
    <nd ref="441735735"/>
    <nd ref="441735794"/>
    <tag k="highway" v="residential"/>
    <tag k="name" v="East Hans Drive"/>
  </way>
  <way id="37677143" version="2" timestamp="2010-04-03T04:16:23Z" uid="20587" user="balrog-kun" changeset="4309442">
    <nd ref="441735739"/>
    <nd ref="441735868"/>
    <tag k="highway" v="residential"/>
    <tag k="name" v="East Isabella Drive"/>
  </way>
  <way id="37677144" version="2" timestamp="2010-04-03T04:16:23Z" uid="20587" user="balrog-kun" changeset="4309442">
    <nd ref="441735717"/>
    <nd ref="441735786"/>
    <nd ref="441735684"/>
    <tag k="highway" v="residential"/>
    <tag k="name" v="East Turnbull Street"/>
  </way>
  <way id="37677145" version="2" timestamp="2010-04-03T04:16:23Z" uid="20587" user="balrog-kun" changeset="4309442">
    <nd ref="441735727"/>
    <nd ref="441735679"/>
    <tag k="highway" v="residential"/>
    <tag k="name" v="East Elona Drive"/>
  </way>
  <way id="37677146" version="2" timestamp="2010-04-03T04:16:23Z" uid="20587" user="balrog-kun" changeset="4309442">
    <nd ref="441735734"/>
    <nd ref="441735790"/>
    <tag k="highway" v="residential"/>
    <tag k="name" v="East Angstead Drive"/>
  </way>
  <way id="37677147" version="2" timestamp="2010-04-03T04:16:23Z" uid="20587" user="balrog-kun" changeset="4309442">
    <nd ref="441735837"/>
    <nd ref="441735775"/>
    <tag k="highway" v="residential"/>
    <tag k="name" v="South Wade Drive"/>
  </way>
  <way id="37677148" version="2" timestamp="2010-04-03T04:16:23Z" uid="20587" user="balrog-kun" changeset="4309442">
    <nd ref="441735794"/>
    <nd ref="441735789"/>
    <tag k="highway" v="residential"/>
    <tag k="name" v="East Hans Drive"/>
  </way>
  <way id="37677149" version="2" timestamp="2010-04-03T04:16:23Z" uid="20587" user="balrog-kun" changeset="4309442">
    <nd ref="441735707"/>
    <nd ref="441735772"/>
    <tag k="highway" v="residential"/>
    <tag k="name" v="East Welker Drive"/>
  </way>
  <way id="37677150" version="2" timestamp="2010-04-03T04:16:23Z" uid="20587" user="balrog-kun" changeset="4309442">
    <nd ref="441735787"/>
    <nd ref="441735764"/>
    <tag k="highway" v="residential"/>
    <tag k="name" v="East Leslie Drive"/>
  </way>
  <way id="37677151" version="2" timestamp="2010-04-03T04:16:23Z" uid="20587" user="balrog-kun" changeset="4309442">
    <nd ref="441735858"/>
    <nd ref="441735688"/>
    <tag k="highway" v="residential"/>
    <tag k="name" v="South Reber Avenue"/>
  </way>
  <way id="37677152" version="2" timestamp="2010-04-03T04:16:23Z" uid="20587" user="balrog-kun" changeset="4309442">
    <nd ref="441735778"/>
    <nd ref="441735759"/>
    <tag k="highway" v="residential"/>
    <tag k="name" v="East Tidwell Drive"/>
  </way>
  <way id="37677153" version="2" timestamp="2010-04-03T04:16:23Z" uid="20587" user="balrog-kun" changeset="4309442">
    <nd ref="441735705"/>
    <nd ref="441735717"/>
    <tag k="highway" v="residential"/>
    <tag k="name" v="South Utilis Drive"/>
  </way>
  <way id="37677154" version="2" timestamp="2010-04-03T04:16:23Z" uid="20587" user="balrog-kun" changeset="4309442">
    <nd ref="441735775"/>
    <nd ref="441735784"/>
    <tag k="highway" v="residential"/>
    <tag k="name" v="East Hans Drive"/>
  </way>
  <way id="37677155" version="2" timestamp="2010-04-03T04:16:23Z" uid="20587" user="balrog-kun" changeset="4309442">
    <nd ref="441735787"/>
    <nd ref="441735823"/>
    <tag k="highway" v="residential"/>
    <tag k="name" v="South Agnes Lane"/>
  </way>
  <way id="37677156" version="2" timestamp="2010-04-03T04:16:23Z" uid="20587" user="balrog-kun" changeset="4309442">
    <nd ref="441735789"/>
    <nd ref="441735744"/>
    <tag k="highway" v="residential"/>
    <tag k="name" v="East Hans Drive"/>
  </way>
  <way id="37677156" version="3" timestamp="2012-02-20T01:24:24Z" uid="4111" user="adenium" changeset="10736664">
    <nd ref="441735789"/>
    <nd ref="1640035711"/>
    <nd ref="1640035707"/>
    <nd ref="441735744"/>
    <tag k="highway" v="residential"/>
    <tag k="name" v="East Hans Drive"/>
  </way>
  <way id="37677157" version="2" timestamp="2010-04-03T04:16:24Z" uid="20587" user="balrog-kun" changeset="4309442">
    <nd ref="441735845"/>
    <nd ref="441735772"/>
    <tag k="highway" v="residential"/>
    <tag k="name" v="South Lydia Way"/>
  </way>
  <way id="37677158" version="2" timestamp="2010-04-03T04:16:24Z" uid="20587" user="balrog-kun" changeset="4309442">
    <nd ref="441735772"/>
    <nd ref="441735773"/>
    <nd ref="441735755"/>
    <tag k="highway" v="residential"/>
    <tag k="name" v="East Welker Drive"/>
  </way>
  <way id="37677159" version="2" timestamp="2010-04-03T04:16:24Z" uid="20587" user="balrog-kun" changeset="4309442">
    <nd ref="441735722"/>
    <nd ref="441735796"/>
    <tag k="highway" v="residential"/>
    <tag k="name" v="South Storment Lane"/>
  </way>
  <way id="37677160" version="2" timestamp="2010-04-03T04:16:24Z" uid="20587" user="balrog-kun" changeset="4309442">
    <nd ref="441735843"/>
    <nd ref="441735797"/>
    <tag k="highway" v="residential"/>
    <tag k="name" v="East Leslie Drive"/>
  </way>
  <way id="37677161" version="2" timestamp="2010-04-03T04:16:24Z" uid="20587" user="balrog-kun" changeset="4309442">
    <nd ref="441735797"/>
    <nd ref="441735695"/>
    <tag k="highway" v="residential"/>
    <tag k="name" v="East Leslie Drive"/>
  </way>
  <way id="37677162" version="2" timestamp="2010-04-03T04:16:24Z" uid="20587" user="balrog-kun" changeset="4309442">
    <nd ref="441735680"/>
    <nd ref="441735711"/>
    <tag k="highway" v="residential"/>
    <tag k="name" v="South Adam Way"/>
  </way>
  <way id="37677163" version="2" timestamp="2010-04-03T04:16:24Z" uid="20587" user="balrog-kun" changeset="4309442">
    <nd ref="441735702"/>
    <nd ref="441735718"/>
    <tag k="highway" v="residential"/>
    <tag k="name" v="South Almira Avenue"/>
  </way>
  <way id="37677164" version="2" timestamp="2010-04-03T04:16:24Z" uid="20587" user="balrog-kun" changeset="4309442">
    <nd ref="441735871"/>
    <nd ref="441735858"/>
    <tag k="highway" v="residential"/>
    <tag k="name" v="South Reber Avenue"/>
  </way>
  <way id="37677165" version="2" timestamp="2010-04-03T04:16:24Z" uid="20587" user="balrog-kun" changeset="4309442">
    <nd ref="441735732"/>
    <nd ref="441735805"/>
    <tag k="highway" v="residential"/>
    <tag k="name" v="East Turnbull Street"/>
  </way>
  <way id="37677166" version="2" timestamp="2010-04-03T04:16:24Z" uid="20587" user="balrog-kun" changeset="4309442">
    <nd ref="441735759"/>
    <nd ref="441735695"/>
    <tag k="highway" v="residential"/>
    <tag k="name" v="South Wallrade Lane"/>
  </way>
  <way id="37677167" version="2" timestamp="2010-04-03T04:16:25Z" uid="20587" user="balrog-kun" changeset="4309442">
    <nd ref="441735693"/>
    <nd ref="441735778"/>
    <tag k="highway" v="residential"/>
    <tag k="name" v="East Tidwell Drive"/>
  </way>
  <way id="37677168" version="2" timestamp="2010-04-03T04:16:25Z" uid="20587" user="balrog-kun" changeset="4309442">
    <nd ref="441735798"/>
    <nd ref="441735877"/>
    <nd ref="441735879"/>
    <nd ref="441735876"/>
    <nd ref="441735865"/>
    <tag k="highway" v="residential"/>
    <tag k="name" v="South Utilis Drive"/>
  </way>
  <way id="37677169" version="2" timestamp="2010-04-03T04:16:25Z" uid="20587" user="balrog-kun" changeset="4309442">
    <nd ref="441735793"/>
    <nd ref="441735791"/>
    <tag k="highway" v="residential"/>
    <tag k="name" v="East Angstead Drive"/>
  </way>
  <way id="37677170" version="2" timestamp="2010-04-03T04:16:25Z" uid="20587" user="balrog-kun" changeset="4309442">
    <nd ref="441735713"/>
    <nd ref="441735791"/>
    <tag k="highway" v="residential"/>
    <tag k="name" v="South Annie Lane"/>
  </way>
  <way id="37677171" version="2" timestamp="2010-04-03T04:16:25Z" uid="20587" user="balrog-kun" changeset="4309442">
    <nd ref="441735763"/>
    <nd ref="441735709"/>
    <tag k="highway" v="residential"/>
    <tag k="name" v="East Welker Drive"/>
  </way>
  <way id="37677172" version="2" timestamp="2010-04-03T04:16:25Z" uid="20587" user="balrog-kun" changeset="4309442">
    <nd ref="441735840"/>
    <nd ref="441735862"/>
    <tag k="highway" v="residential"/>
    <tag k="name" v="East Gideon Way"/>
  </way>
  <way id="37677173" version="2" timestamp="2010-04-03T04:16:25Z" uid="20587" user="balrog-kun" changeset="4309442">
    <nd ref="441735744"/>
    <nd ref="441735731"/>
    <tag k="highway" v="residential"/>
    <tag k="name" v="South Reber Avenue"/>
  </way>
  <way id="37677174" version="2" timestamp="2010-04-03T04:16:25Z" uid="20587" user="balrog-kun" changeset="4309442">
    <nd ref="441735784"/>
    <nd ref="441735735"/>
    <tag k="highway" v="residential"/>
    <tag k="name" v="East Hans Drive"/>
  </way>
  <way id="37677175" version="2" timestamp="2010-04-03T04:16:25Z" uid="20587" user="balrog-kun" changeset="4309442">
    <nd ref="441735862"/>
    <nd ref="441735761"/>
    <tag k="highway" v="residential"/>
    <tag k="name" v="East Gideon Way"/>
  </way>
  <way id="37677176" version="2" timestamp="2010-04-03T04:16:25Z" uid="20587" user="balrog-kun" changeset="4309442">
    <nd ref="441735826"/>
    <nd ref="441735827"/>
    <tag k="highway" v="residential"/>
    <tag k="name" v="South Osborn Lane"/>
  </way>
  <way id="37677177" version="2" timestamp="2010-04-03T04:16:25Z" uid="20587" user="balrog-kun" changeset="4309442">
    <nd ref="441735848"/>
    <nd ref="441735805"/>
    <tag k="highway" v="residential"/>
    <tag k="name" v="South Adam Way"/>
  </way>
  <way id="37677178" version="2" timestamp="2010-04-03T04:16:25Z" uid="20587" user="balrog-kun" changeset="4309442">
    <nd ref="441735711"/>
    <nd ref="441735829"/>
    <tag k="highway" v="residential"/>
    <tag k="name" v="East Gideon Way"/>
  </way>
  <way id="37677179" version="2" timestamp="2010-04-03T04:16:25Z" uid="20587" user="balrog-kun" changeset="4309442">
    <nd ref="441735775"/>
    <nd ref="441735747"/>
    <tag k="highway" v="residential"/>
    <tag k="name" v="South Wade Drive"/>
  </way>
  <way id="37677180" version="2" timestamp="2010-04-03T04:16:26Z" uid="20587" user="balrog-kun" changeset="4309442">
    <nd ref="441735696"/>
    <nd ref="441735749"/>
    <tag k="highway" v="residential"/>
    <tag k="name" v="East Leslie Drive"/>
  </way>
  <way id="37677181" version="2" timestamp="2010-04-03T04:16:26Z" uid="20587" user="balrog-kun" changeset="4309442">
    <nd ref="441735682"/>
    <nd ref="441735896"/>
    <tag k="highway" v="residential"/>
    <tag k="name" v="East Ranch Road"/>
  </way>
  <way id="37677181" version="3" timestamp="2012-02-17T20:14:21Z" uid="4111" user="adenium" changeset="10714410">
    <nd ref="441735682"/>
    <nd ref="1636949439"/>
    <tag k="highway" v="residential"/>
    <tag k="name" v="East Ranch Road"/>
  </way>
  <way id="37677182" version="2" timestamp="2010-04-03T04:16:26Z" uid="20587" user="balrog-kun" changeset="4309442">
    <nd ref="441735832"/>
    <nd ref="441735707"/>
    <tag k="highway" v="residential"/>
    <tag k="name" v="South Osborn Lane"/>
  </way>
  <way id="37677183" version="2" timestamp="2010-04-03T04:16:26Z" uid="20587" user="balrog-kun" changeset="4309442">
    <nd ref="441735770"/>
    <nd ref="441735839"/>
    <tag k="highway" v="residential"/>
    <tag k="name" v="East Angstead Drive"/>
  </way>
  <way id="37677184" version="2" timestamp="2010-04-03T04:16:26Z" uid="20587" user="balrog-kun" changeset="4309442">
    <nd ref="441735803"/>
    <nd ref="441735732"/>
    <tag k="highway" v="residential"/>
    <tag k="name" v="South Huish Drive"/>
  </way>
  <way id="37677185" version="2" timestamp="2010-04-03T04:16:26Z" uid="20587" user="balrog-kun" changeset="4309442">
    <nd ref="441735823"/>
    <nd ref="441735826"/>
    <tag k="highway" v="residential"/>
    <tag k="name" v="East Turnbull Street"/>
  </way>
  <way id="37677186" version="2" timestamp="2010-04-03T04:16:26Z" uid="20587" user="balrog-kun" changeset="4309442">
    <nd ref="441735801"/>
    <nd ref="441735800"/>
    <tag k="highway" v="residential"/>
    <tag k="name" v="South Henry Lane"/>
  </way>
  <way id="37677187" version="2" timestamp="2010-04-03T04:16:26Z" uid="20587" user="balrog-kun" changeset="4309442">
    <nd ref="441735736"/>
    <nd ref="441735699"/>
    <tag k="highway" v="residential"/>
    <tag k="name" v="East Elona Drive"/>
  </way>
  <way id="37677188" version="2" timestamp="2010-04-03T04:16:26Z" uid="20587" user="balrog-kun" changeset="4309442">
    <nd ref="441735798"/>
    <nd ref="441735818"/>
    <nd ref="441735816"/>
    <nd ref="441735813"/>
    <nd ref="441735682"/>
    <tag k="highway" v="residential"/>
    <tag k="name" v="South Follett Way"/>
  </way>
  <way id="37677189" version="2" timestamp="2010-04-03T04:16:26Z" uid="20587" user="balrog-kun" changeset="4309442">
    <nd ref="441735871"/>
    <nd ref="441735680"/>
    <tag k="highway" v="residential"/>
    <tag k="name" v="East Sabra Lane"/>
  </way>
  <way id="37677190" version="2" timestamp="2010-04-03T04:16:26Z" uid="20587" user="balrog-kun" changeset="4309442">
    <nd ref="441735750"/>
    <nd ref="441735811"/>
    <nd ref="441735809"/>
    <nd ref="441735807"/>
    <nd ref="441735798"/>
    <tag k="highway" v="residential"/>
    <tag k="name" v="East Tidwell Drive"/>
  </way>
  <way id="37677635" version="2" timestamp="2010-02-09T02:05:15Z" uid="74617" user="JohnSmith" changeset="3828705">
    <nd ref="432500787"/>
    <nd ref="441755178"/>
    <nd ref="441755179"/>
    <tag k="highway" v="residential"/>
    <tag k="maxspeed" v="50"/>
    <tag k="name" v="Pebble Court"/>
  </way>
  <way id="37677635" version="3" timestamp="2012-01-19T01:38:55Z" uid="147510" user="woodpeck_fixbot" changeset="10433378">
    <nd ref="432500787"/>
    <nd ref="441755178"/>
    <nd ref="441755179"/>
    <tag k="highway" v="residential"/>
    <tag k="name" v="Pebble Court"/>
  </way>
  <way id="37677641" version="3" timestamp="2010-02-09T02:05:12Z" uid="74617" user="JohnSmith" changeset="3828705">
    <nd ref="432500862"/>
    <nd ref="441755206"/>
    <nd ref="432500866"/>
    <nd ref="432500880"/>
    <nd ref="432500863"/>
    <tag k="highway" v="residential"/>
    <tag k="maxspeed" v="50"/>
    <tag k="name" v="Brushbox Street"/>
  </way>
  <way id="37677641" version="4" timestamp="2012-01-19T01:38:56Z" uid="147510" user="woodpeck_fixbot" changeset="10433378">
    <nd ref="432500862"/>
    <nd ref="441755206"/>
    <nd ref="432500866"/>
    <nd ref="432500880"/>
    <nd ref="432500863"/>
    <tag k="highway" v="residential"/>
    <tag k="name" v="Brushbox Street"/>
  </way>
  <way id="37677643" version="3" timestamp="2010-02-09T02:05:12Z" uid="74617" user="JohnSmith" changeset="3828705">
    <nd ref="441755206"/>
    <nd ref="441755210"/>
    <nd ref="441755212"/>
    <nd ref="441755214"/>
    <nd ref="441755216"/>
    <nd ref="441755218"/>
    <nd ref="441755219"/>
    <nd ref="441755221"/>
    <tag k="highway" v="residential"/>
    <tag k="maxspeed" v="50"/>
    <tag k="name" v="Bluegum Place"/>
  </way>
  <way id="37677643" version="4" timestamp="2012-01-19T01:38:57Z" uid="147510" user="woodpeck_fixbot" changeset="10433378">
    <nd ref="441755206"/>
    <nd ref="441755210"/>
    <nd ref="441755212"/>
    <nd ref="441755214"/>
    <nd ref="441755216"/>
    <nd ref="441755218"/>
    <nd ref="441755219"/>
    <nd ref="441755221"/>
    <tag k="highway" v="residential"/>
    <tag k="name" v="Bluegum Place"/>
  </way>
  <way id="37677646" version="2" timestamp="2010-02-09T02:05:12Z" uid="74617" user="JohnSmith" changeset="3828705">
    <nd ref="441755232"/>
    <nd ref="441755233"/>
    <nd ref="441755235"/>
    <tag k="highway" v="residential"/>
    <tag k="maxspeed" v="50"/>
    <tag k="name" v="Cooma Court"/>
  </way>
  <way id="37677646" version="3" timestamp="2012-01-19T01:38:58Z" uid="147510" user="woodpeck_fixbot" changeset="10433378">
    <nd ref="441755232"/>
    <nd ref="441755233"/>
    <nd ref="441755235"/>
    <tag k="highway" v="residential"/>
    <tag k="name" v="Cooma Court"/>
  </way>
  <way id="37677647" version="2" timestamp="2010-02-09T02:05:12Z" uid="74617" user="JohnSmith" changeset="3828705">
    <nd ref="441755233"/>
    <nd ref="441755236"/>
    <nd ref="441755238"/>
    <nd ref="441755212"/>
    <tag k="highway" v="residential"/>
    <tag k="maxspeed" v="50"/>
    <tag k="name" v="Cooma Court"/>
  </way>
  <way id="37677647" version="3" timestamp="2012-01-19T01:38:59Z" uid="147510" user="woodpeck_fixbot" changeset="10433378">
    <nd ref="441755233"/>
    <nd ref="441755236"/>
    <nd ref="441755238"/>
    <nd ref="441755212"/>
    <tag k="highway" v="residential"/>
    <tag k="name" v="Cooma Court"/>
  </way>
  <way id="37677653" version="3" timestamp="2010-02-09T02:05:13Z" uid="74617" user="JohnSmith" changeset="3828705">
    <nd ref="441755218"/>
    <nd ref="576907206"/>
    <nd ref="441755205"/>
    <nd ref="441755239"/>
    <nd ref="441755240"/>
    <nd ref="441755241"/>
    <nd ref="441755242"/>
    <tag k="highway" v="residential"/>
    <tag k="maxspeed" v="50"/>
    <tag k="name" v="Ghostgum Close"/>
  </way>
  <way id="37677653" version="4" timestamp="2012-01-19T01:39:00Z" uid="147510" user="woodpeck_fixbot" changeset="10433378">
    <nd ref="441755218"/>
    <nd ref="576907206"/>
    <nd ref="441755205"/>
    <nd ref="441755239"/>
    <nd ref="441755240"/>
    <nd ref="441755241"/>
    <nd ref="441755242"/>
    <tag k="highway" v="residential"/>
    <tag k="name" v="Ghostgum Close"/>
  </way>
  <way id="37677656" version="2" timestamp="2010-02-09T02:05:14Z" uid="74617" user="JohnSmith" changeset="3828705">
    <nd ref="441755229"/>
    <nd ref="441755221"/>
    <nd ref="441755230"/>
    <tag k="highway" v="residential"/>
    <tag k="maxspeed" v="50"/>
    <tag k="name" v="Bluegum Place"/>
  </way>
  <way id="37677656" version="3" timestamp="2012-01-19T01:39:01Z" uid="147510" user="woodpeck_fixbot" changeset="10433378">
    <nd ref="441755229"/>
    <nd ref="441755221"/>
    <nd ref="441755230"/>
    <tag k="highway" v="residential"/>
    <tag k="name" v="Bluegum Place"/>
  </way>
  <way id="37677658" version="2" timestamp="2010-02-09T02:05:14Z" uid="74617" user="JohnSmith" changeset="3828705">
    <nd ref="441755243"/>
    <nd ref="441755242"/>
    <nd ref="441755244"/>
    <tag k="highway" v="residential"/>
    <tag k="maxspeed" v="50"/>
    <tag k="name" v="Ghostgum Close"/>
  </way>
  <way id="37677658" version="3" timestamp="2012-01-19T01:39:02Z" uid="147510" user="woodpeck_fixbot" changeset="10433378">
    <nd ref="441755243"/>
    <nd ref="441755242"/>
    <nd ref="441755244"/>
    <tag k="highway" v="residential"/>
    <tag k="name" v="Ghostgum Close"/>
  </way>
  <way id="37677660" version="2" timestamp="2010-02-09T02:05:16Z" uid="74617" user="JohnSmith" changeset="3828705">
    <nd ref="441755246"/>
    <nd ref="441755247"/>
    <tag k="highway" v="residential"/>
    <tag k="maxspeed" v="50"/>
    <tag k="name" v="Eider Court"/>
  </way>
  <way id="37677660" version="3" timestamp="2012-01-19T01:39:03Z" uid="147510" user="woodpeck_fixbot" changeset="10433378">
    <nd ref="441755246"/>
    <nd ref="441755247"/>
    <tag k="highway" v="residential"/>
    <tag k="name" v="Eider Court"/>
  </way>
  <way id="37677663" version="3" timestamp="2010-02-09T02:05:19Z" uid="74617" user="JohnSmith" changeset="3828705">
    <nd ref="441755262"/>
    <nd ref="441755258"/>
    <tag k="highway" v="residential"/>
    <tag k="maxspeed" v="50"/>
    <tag k="name" v="Egret Place"/>
  </way>
  <way id="37677663" version="4" timestamp="2012-01-19T01:39:04Z" uid="147510" user="woodpeck_fixbot" changeset="10433378">
    <nd ref="441755262"/>
    <nd ref="441755258"/>
    <tag k="highway" v="residential"/>
    <tag k="name" v="Egret Place"/>
  </way>
  <way id="37677665" version="2" timestamp="2010-02-09T02:05:08Z" uid="74617" user="JohnSmith" changeset="3828705">
    <nd ref="441755269"/>
    <nd ref="441755271"/>
    <nd ref="441755273"/>
    <tag k="highway" v="residential"/>
    <tag k="maxspeed" v="50"/>
    <tag k="name" v="Teal Place"/>
  </way>
  <way id="37677665" version="3" timestamp="2012-01-19T01:39:05Z" uid="147510" user="woodpeck_fixbot" changeset="10433378">
    <nd ref="441755269"/>
    <nd ref="441755271"/>
    <nd ref="441755273"/>
    <tag k="highway" v="residential"/>
    <tag k="name" v="Teal Place"/>
  </way>
  <way id="37677666" version="2" timestamp="2010-02-09T02:05:09Z" uid="74617" user="JohnSmith" changeset="3828705">
    <nd ref="441755271"/>
    <nd ref="441755275"/>
    <tag k="highway" v="residential"/>
    <tag k="maxspeed" v="50"/>
  </way>
  <way id="37677666" version="3" timestamp="2012-01-19T01:39:06Z" uid="147510" user="woodpeck_fixbot" changeset="10433378">
    <nd ref="441755271"/>
    <nd ref="441755275"/>
    <tag k="highway" v="residential"/>
  </way>
  <way id="37677667" version="2" timestamp="2010-02-09T02:05:09Z" uid="74617" user="JohnSmith" changeset="3828705">
    <nd ref="87315546"/>
    <nd ref="264179200"/>
    <nd ref="87315547"/>
    <tag k="cycleway" v="lane"/>
    <tag k="highway" v="secondary"/>
    <tag k="name" v="Roghan Road"/>
  </way>
  <way id="37677668" version="2" timestamp="2010-02-09T02:05:07Z" uid="74617" user="JohnSmith" changeset="3828705">
    <nd ref="87315547"/>
    <nd ref="87315549"/>
    <nd ref="87315550"/>
    <nd ref="263675359"/>
    <nd ref="263675360"/>
    <nd ref="277932143"/>
    <nd ref="367347535"/>
    <nd ref="263675361"/>
    <nd ref="263675362"/>
    <nd ref="263675363"/>
    <tag k="highway" v="secondary"/>
    <tag k="name" v="Roghan Road"/>
  </way>
  <way id="37677668" version="3" timestamp="2010-07-24T08:12:16Z" uid="4467" user="Rosscoe" changeset="5301672">
    <nd ref="87315547"/>
    <nd ref="87315549"/>
    <nd ref="87315550"/>
    <nd ref="263675359"/>
    <nd ref="263675360"/>
    <nd ref="277932143"/>
    <nd ref="367347535"/>
    <nd ref="263675361"/>
    <nd ref="263675362"/>
    <nd ref="263675363"/>
    <tag k="highway" v="secondary"/>
    <tag k="name" v="Roghan Road"/>
  </way>
  <way id="37677669" version="3" timestamp="2010-07-17T07:45:12Z" uid="4467" user="Rosscoe" changeset="5240084">
    <nd ref="264179230"/>
    <nd ref="576907235"/>
    <nd ref="432500916"/>
    <nd ref="264179231"/>
    <nd ref="264179232"/>
    <nd ref="821495981"/>
    <tag k="highway" v="tertiary"/>
    <tag k="name" v="Church Road"/>
  </way>
  <way id="37677671" version="4" timestamp="2010-02-09T02:05:08Z" uid="74617" user="JohnSmith" changeset="3828705">
    <nd ref="441755290"/>
    <nd ref="441755292"/>
    <tag k="highway" v="residential"/>
    <tag k="maxspeed" v="50"/>
    <tag k="name" v="Ginko Close"/>
  </way>
  <way id="37677671" version="5" timestamp="2012-01-19T01:39:07Z" uid="147510" user="woodpeck_fixbot" changeset="10433378">
    <nd ref="441755290"/>
    <nd ref="441755292"/>
    <tag k="highway" v="residential"/>
    <tag k="name" v="Ginko Close"/>
  </way>
  <way id="37677672" version="2" timestamp="2010-07-17T07:43:43Z" uid="4467" user="Rosscoe" changeset="5240084">
    <nd ref="441755295"/>
    <nd ref="821496951"/>
    <nd ref="821496075"/>
    <nd ref="441755296"/>
    <nd ref="441755298"/>
    <nd ref="441755299"/>
    <nd ref="441755302"/>
    <nd ref="441755304"/>
    <nd ref="441755305"/>
    <tag k="highway" v="footway"/>
  </way>
  <way id="37677675" version="2" timestamp="2010-07-17T07:42:35Z" uid="4467" user="Rosscoe" changeset="5240084">
    <nd ref="441755316"/>
    <nd ref="821495761"/>
    <nd ref="441755318"/>
    <nd ref="441755321"/>
    <nd ref="441755323"/>
    <nd ref="441755325"/>
    <nd ref="821496025"/>
    <nd ref="821496195"/>
    <nd ref="821495698"/>
    <nd ref="441755316"/>
    <tag k="leisure" v="park"/>
    <tag k="name" v="Watkinson Park"/>
  </way>
  <way id="37677706" version="4" timestamp="2010-04-03T04:16:26Z" uid="20587" user="balrog-kun" changeset="4309442">
    <nd ref="441755834"/>
    <nd ref="441755931"/>
    <nd ref="441756139"/>
    <nd ref="441755932"/>
    <tag k="highway" v="residential"/>
    <tag k="name" v="South 162nd Street"/>
  </way>
  <way id="37677716" version="3" timestamp="2010-04-03T04:16:26Z" uid="20587" user="balrog-kun" changeset="4309442">
    <nd ref="441755931"/>
    <nd ref="441756129"/>
    <tag k="highway" v="residential"/>
    <tag k="name" v="East Claxton Avenue"/>
  </way>
  <way id="37677717" version="3" timestamp="2010-04-03T04:16:27Z" uid="20587" user="balrog-kun" changeset="4309442">
    <nd ref="441756139"/>
    <nd ref="441756247"/>
    <tag k="highway" v="residential"/>
    <tag k="name" v="East Claxton Avenue"/>
  </way>
  <way id="37677723" version="3" timestamp="2010-04-03T04:16:27Z" uid="20587" user="balrog-kun" changeset="4309442">
    <nd ref="441756448"/>
    <nd ref="441755932"/>
    <nd ref="441756450"/>
    <tag k="highway" v="residential"/>
    <tag k="name" v="East Melrose Street"/>
  </way>
  <way id="37677726" version="3" timestamp="2010-04-03T04:16:27Z" uid="20587" user="balrog-kun" changeset="4309442">
    <nd ref="41699183"/>
    <nd ref="441756768"/>
    <nd ref="441756769"/>
    <tag k="highway" v="residential"/>
    <tag k="name" v="East Melrose Court"/>
  </way>
  <way id="37677735" version="3" timestamp="2010-04-03T04:16:27Z" uid="20587" user="balrog-kun" changeset="4309442">
    <nd ref="441756809"/>
    <nd ref="441756902"/>
    <nd ref="441756903"/>
    <tag k="highway" v="residential"/>
    <tag k="name" v="East Baars Court"/>
  </way>
  <way id="37677736" version="3" timestamp="2010-04-03T04:16:27Z" uid="20587" user="balrog-kun" changeset="4309442">
    <nd ref="41514914"/>
    <nd ref="441757064"/>
    <nd ref="441757067"/>
    <tag k="highway" v="residential"/>
    <tag k="name" v="East Claxton Court"/>
  </way>
  <way id="37677792" version="7" timestamp="2010-03-28T10:11:09Z" uid="20587" user="balrog-kun" changeset="4254597">
    <nd ref="441759146"/>
    <nd ref="659024910"/>
    <nd ref="57925508"/>
    <nd ref="659024911"/>
    <nd ref="57925509"/>
    <nd ref="659024912"/>
    <nd ref="659024913"/>
    <nd ref="441759220"/>
    <nd ref="659024914"/>
    <nd ref="441759221"/>
    <nd ref="659024915"/>
    <nd ref="659024916"/>
    <nd ref="441759222"/>
    <nd ref="659024917"/>
    <nd ref="659024918"/>
    <nd ref="659024919"/>
    <nd ref="659024920"/>
    <nd ref="659024921"/>
    <nd ref="57924866"/>
    <nd ref="57925512"/>
    <nd ref="659024922"/>
    <nd ref="659024923"/>
    <nd ref="441757273"/>
    <nd ref="659024924"/>
    <nd ref="659024925"/>
    <nd ref="659024926"/>
    <nd ref="57925514"/>
    <nd ref="57925516"/>
    <nd ref="659024927"/>
    <nd ref="659024928"/>
    <nd ref="659024929"/>
    <nd ref="659024930"/>
    <nd ref="441757277"/>
    <nd ref="441757278"/>
    <nd ref="659024931"/>
    <nd ref="57899503"/>
    <nd ref="659024932"/>
    <nd ref="659024933"/>
    <nd ref="441757281"/>
    <nd ref="659024934"/>
    <nd ref="659024935"/>
    <nd ref="659024936"/>
    <nd ref="57925518"/>
    <nd ref="659024509"/>
    <nd ref="659024494"/>
    <nd ref="659024495"/>
    <nd ref="659024496"/>
    <nd ref="57925521"/>
    <tag k="highway" v="secondary"/>
    <tag k="name" v="Dougherty Road"/>
  </way>
  <way id="37677999" version="3" timestamp="2010-03-28T10:11:10Z" uid="20587" user="balrog-kun" changeset="4254597">
    <nd ref="65422929"/>
    <nd ref="65422932"/>
    <nd ref="272099177"/>
    <nd ref="441770652"/>
    <nd ref="272099178"/>
    <nd ref="441770653"/>
    <nd ref="65422934"/>
    <nd ref="65422936"/>
    <nd ref="65422938"/>
    <nd ref="65422940"/>
    <nd ref="65422943"/>
    <nd ref="65409233"/>
    <nd ref="272099610"/>
    <nd ref="65422945"/>
    <tag k="created_by" v="Potlatch 0.10d"/>
    <tag k="highway" v="residential"/>
    <tag k="name" v="Bret Harte Drive"/>
    <tag k="tiger:cfcc" v="A41"/>
    <tag k="tiger:county" v="San Mateo, CA"/>
    <tag k="tiger:name_base" v="Bret Harte"/>
    <tag k="tiger:name_type" v="Dr"/>
    <tag k="tiger:reviewed" v="no"/>
    <tag k="tiger:separated" v="no"/>
    <tag k="tiger:source" v="tiger_import_dch_v0.6_20070809"/>
    <tag k="tiger:tlid" v="192386059:192386065"/>
  </way>
  <way id="37677028" version="7" timestamp="2012-07-20T03:35:03Z" uid="722137" user="OSMF Redaction Account" changeset="12359497">
    <nd ref="556420756"/>
    <nd ref="556420770"/>
    <nd ref="441735603"/>
    <nd ref="556418936"/>
    <nd ref="441735647"/>
    <tag k="foot" v="yes"/>
    <tag k="highway" v="cycleway"/>
  </way>
  <way id="37677669" version="4" timestamp="2012-07-20T02:50:14Z" uid="722137" user="OSMF Redaction Account" changeset="12358676">
    <nd ref="264179230"/>
    <nd ref="576907235"/>
    <nd ref="432500916"/>
    <nd ref="264179231"/>
    <nd ref="264179232"/>
    <tag k="highway" v="tertiary"/>
    <tag k="name" v="Church Road"/>
  </way>
  <way id="37677672" version="3" timestamp="2012-07-20T02:48:47Z" uid="722137" user="OSMF Redaction Account" changeset="12358643">
    <nd ref="441755295"/>
    <nd ref="441755296"/>
    <nd ref="441755298"/>
    <nd ref="441755299"/>
    <nd ref="441755302"/>
    <nd ref="441755304"/>
    <nd ref="441755305"/>
    <tag k="highway" v="footway"/>
  </way>
  <way id="37677675" version="3" timestamp="2012-07-20T02:48:46Z" uid="722137" user="OSMF Redaction Account" changeset="12358643">
    <nd ref="441755316"/>
    <nd ref="441755318"/>
    <nd ref="441755321"/>
    <nd ref="441755323"/>
    <nd ref="441755325"/>
    <nd ref="441755316"/>
    <tag k="leisure" v="park"/>
    <tag k="name" v="Watkinson Park"/>
  </way>
</osm>
