<?xml version='1.0' encoding='UTF-8'?>
<osm version="0.6" generator="libosmium/2.20.0">
  <way id="37701061" version="6" timestamp="2009-08-22T04:59:50Z" uid="34428" user="usm78-gis" changeset="2230314">
    <nd ref="88028456"/>
    <nd ref="271960082"/>
    <nd ref="271960083"/>
    <nd ref="442079369"/>
    <nd ref="442079284"/>
    <nd ref="432440214"/>
    <nd ref="442079112"/>
    <nd ref="271960085"/>
    <nd ref="271960087"/>
    <tag k="addr:postcode" v="196641"/>
    <tag k="cladr:code" v="78000000018001000"/>
    <tag k="cladr:name" v="Плановая"/>
    <tag k="cladr:suffix" v="Улица"/>
    <tag k="highway" v="residential"/>
    <tag k="name" v="Плановая ул."/>
  </way>
  <way id="37701061" version="7" timestamp="2010-06-11T17:35:33Z" uid="127299" user="Batareikin" changeset="4964114">
    <nd ref="88028456"/>
    <nd ref="271960082"/>
    <nd ref="271960083"/>
    <nd ref="442079369"/>
    <nd ref="442079284"/>
    <nd ref="432440214"/>
    <nd ref="442079112"/>
    <nd ref="271960085"/>
    <nd ref="271960087"/>
    <tag k="addr:postcode" v="196641"/>
    <tag k="cladr:code" v="78000000018001000"/>
    <tag k="cladr:name" v="Плановая"/>
    <tag k="cladr:suffix" v="Улица"/>
    <tag k="highway" v="residential"/>
    <tag k="name" v="Плановая улица"/>
  </way>
  <way id="37701061" version="8" timestamp="2011-02-20T22:03:35Z" uid="373123" user="serge56" changeset="7348536">
    <nd ref="88028456"/>
    <nd ref="271960082"/>
    <nd ref="1164314829"/>
    <nd ref="271960083"/>
    <nd ref="442079369"/>
    <nd ref="442079284"/>
    <nd ref="432440214"/>
    <nd ref="442079112"/>
    <nd ref="271960085"/>
    <nd ref="271960087"/>
    <tag k="addr:postcode" v="196641"/>
    <tag k="cladr:code" v="78000000018001000"/>
    <tag k="cladr:name" v="Плановая"/>
    <tag k="cladr:suffix" v="Улица"/>
    <tag k="highway" v="residential"/>
    <tag k="name" v="Плановая улица"/>
  </way>
  <way id="37701061" version="9" timestamp="2011-04-20T19:47:28Z" uid="392109" user="GaM" changeset="7919642">
    <nd ref="88028456"/>
    <nd ref="271960082"/>
    <nd ref="1164314829"/>
    <nd ref="271960083"/>
    <nd ref="442079369"/>
    <nd ref="442079284"/>
    <nd ref="432440214"/>
    <nd ref="442079112"/>
    <nd ref="271960085"/>
    <nd ref="271960087"/>
    <tag k="addr:postcode" v="196641"/>
    <tag k="cladr:code" v="78000000018001000"/>
    <tag k="cladr:name" v="Плановая"/>
    <tag k="cladr:suffix" v="Улица"/>
    <tag k="highway" v="residential"/>
    <tag k="maxspeed" v="60"/>
    <tag k="name" v="Плановая улица"/>
  </way>
  <way id="37701061" version="10" timestamp="2011-07-16T15:02:33Z" uid="39040" user="Dinamik" changeset="8740259">
    <nd ref="88028456"/>
    <nd ref="271960082"/>
    <nd ref="1164314829"/>
    <nd ref="271960083"/>
    <nd ref="442079369"/>
    <nd ref="442079284"/>
    <nd ref="432440214"/>
    <nd ref="442079112"/>
    <nd ref="271960085"/>
    <nd ref="271960087"/>
    <tag k="addr:city" v="Металлострой;Усть-Ижора"/>
    <tag k="addr:country" v="RU"/>
    <tag k="addr:postcode" v="196641"/>
    <tag k="addr:region" v="Санкт-Петербург"/>
    <tag k="cladr:code" v="78000000018001000"/>
    <tag k="cladr:name" v="Плановая"/>
    <tag k="cladr:suffix" v="Улица"/>
    <tag k="highway" v="residential"/>
    <tag k="maxspeed" v="60"/>
    <tag k="name" v="Плановая улица"/>
  </way>
  <way id="37701061" version="11" timestamp="2011-07-16T15:04:33Z" uid="39040" user="Dinamik" changeset="8740259">
    <nd ref="88028456"/>
    <nd ref="271960082"/>
    <nd ref="1164314829"/>
    <nd ref="271960083"/>
    <nd ref="442079369"/>
    <nd ref="442079284"/>
    <nd ref="432440214"/>
    <nd ref="442079112"/>
    <nd ref="271960085"/>
    <nd ref="271960087"/>
    <tag k="addr:city" v="Металлострой;Усть-Ижора"/>
    <tag k="addr:country" v="RU"/>
    <tag k="addr:postcode" v="196641;196645"/>
    <tag k="addr:region" v="Санкт-Петербург"/>
    <tag k="cladr:code" v="78000000018001000"/>
    <tag k="cladr:name" v="Плановая"/>
    <tag k="cladr:suffix" v="Улица"/>
    <tag k="highway" v="residential"/>
    <tag k="maxspeed" v="60"/>
    <tag k="name" v="Плановая улица"/>
  </way>
  <way id="37701061" version="12" timestamp="2011-07-16T15:09:44Z" uid="39040" user="Dinamik" changeset="8740259">
    <nd ref="88028456"/>
    <nd ref="271960082"/>
    <nd ref="1164314829"/>
    <nd ref="271960083"/>
    <nd ref="442079369"/>
    <nd ref="442079284"/>
    <nd ref="432440214"/>
    <nd ref="442079112"/>
    <nd ref="271960085"/>
    <nd ref="271960087"/>
    <tag k="addr:city" v="Металлострой;Усть-Ижора"/>
    <tag k="addr:country" v="RU"/>
    <tag k="addr:postcode" v="196641;196645"/>
    <tag k="addr:region" v="Санкт-Петербург"/>
    <tag k="cladr:code" v="78000000018001000;78000000037004100"/>
    <tag k="cladr:name" v="Плановая"/>
    <tag k="cladr:suffix" v="Улица"/>
    <tag k="highway" v="residential"/>
    <tag k="maxspeed" v="60"/>
    <tag k="name" v="Плановая улица"/>
  </way>
  <way id="37701061" version="13" timestamp="2011-07-20T23:19:31Z" uid="39040" user="Dinamik" changeset="8784062">
    <nd ref="88028456"/>
    <nd ref="1368483117"/>
    <tag k="addr:city" v="Металлострой;Усть-Ижора"/>
    <tag k="addr:country" v="RU"/>
    <tag k="addr:postcode" v="196641;196645"/>
    <tag k="addr:region" v="Санкт-Петербург"/>
    <tag k="cladr:code" v="78000000018001000;78000000037004100"/>
    <tag k="cladr:name" v="Плановая"/>
    <tag k="cladr:suffix" v="Улица"/>
    <tag k="highway" v="residential"/>
    <tag k="maxspeed" v="60"/>
    <tag k="name" v="Плановая улица"/>
  </way>
  <way id="37701061" version="14" timestamp="2011-09-05T15:09:16Z" uid="39040" user="Dinamik" changeset="9218607">
    <nd ref="88028456"/>
    <nd ref="1368483117"/>
    <tag k="addr:city" v="Металлострой;Усть-Ижора"/>
    <tag k="addr:country" v="RU"/>
    <tag k="addr:postcode" v="196641;196645"/>
    <tag k="addr:region" v="Санкт-Петербург"/>
    <tag k="cladr:code" v="78000000018001000;78000000037004100"/>
    <tag k="cladr:name" v="Плановая"/>
    <tag k="cladr:suffix" v="Улица"/>
    <tag k="highway" v="residential"/>
    <tag k="name" v="Плановая улица"/>
  </way>
  <way id="37701061" version="15" timestamp="2011-09-27T21:44:25Z" uid="143266" user="Sergey Astakhov" changeset="9415123">
    <nd ref="88028456"/>
    <nd ref="1368483117"/>
    <tag k="addr:city" v="Металлострой;Усть-Ижора"/>
    <tag k="addr:country" v="RU"/>
    <tag k="addr:postcode" v="196641;196645"/>
    <tag k="addr:region" v="Санкт-Петербург"/>
    <tag k="highway" v="residential"/>
    <tag k="name" v="Плановая улица"/>
  </way>
  <way id="37701061" version="16" timestamp="2011-11-03T08:05:49Z" uid="275821" user="Ramzes" changeset="9728311"/>
  <way id="37701606" version="1" timestamp="2009-07-15T11:14:55Z" uid="7617" user="Franc" changeset="1835480">
    <nd ref="442085141"/>
    <nd ref="442085146"/>
    <nd ref="442085145"/>
    <nd ref="442085142"/>
    <nd ref="442085143"/>
    <nd ref="442085144"/>
    <tag k="highway" v="residential"/>
    <tag k="name" v="Waterview Crescent"/>
    <tag k="source" v="survey"/>
  </way>
  <way id="37701606" version="2" timestamp="2010-02-28T23:48:54Z" uid="114230" user="danerikk" changeset="4004426">
    <nd ref="442085141"/>
    <nd ref="442085146"/>
    <nd ref="442085145"/>
    <nd ref="656893987"/>
    <nd ref="442085142"/>
    <nd ref="656893994"/>
    <nd ref="442085143"/>
    <nd ref="442085144"/>
    <tag k="highway" v="residential"/>
    <tag k="name" v="Waterview Crescent"/>
    <tag k="source" v="survey"/>
  </way>
  <way id="37701606" version="3" timestamp="2010-07-06T17:42:50Z" uid="74617" user="JohnSmith" changeset="5152225">
    <nd ref="442085141"/>
    <nd ref="442085146"/>
    <nd ref="442085145"/>
    <nd ref="656893987"/>
    <nd ref="442085142"/>
    <nd ref="656893994"/>
    <nd ref="442085143"/>
    <nd ref="442085144"/>
    <tag k="highway" v="residential"/>
    <tag k="maxspeed" v="50"/>
    <tag k="maxspeed:source" v="default residential speed limit in Australia"/>
    <tag k="name" v="Waterview Crescent"/>
    <tag k="source" v="survey"/>
  </way>
  <way id="37701606" version="4" timestamp="2012-01-19T01:41:19Z" uid="147510" user="woodpeck_fixbot" changeset="10433378">
    <nd ref="442085141"/>
    <nd ref="442085146"/>
    <nd ref="442085145"/>
    <nd ref="656893987"/>
    <nd ref="442085142"/>
    <nd ref="656893994"/>
    <nd ref="442085143"/>
    <nd ref="442085144"/>
    <tag k="highway" v="residential"/>
    <tag k="name" v="Waterview Crescent"/>
    <tag k="source" v="survey"/>
  </way>
  <way id="37701607" version="1" timestamp="2009-07-15T11:14:55Z" uid="7617" user="Franc" changeset="1835480">
    <nd ref="442085147"/>
    <nd ref="442085148"/>
    <nd ref="442085149"/>
    <nd ref="442085145"/>
    <tag k="highway" v="residential"/>
    <tag k="name" v="St Moritz Terrace"/>
    <tag k="source" v="survey"/>
  </way>
  <way id="37701607" version="2" timestamp="2010-02-28T23:49:15Z" uid="114230" user="danerikk" changeset="4004426">
    <nd ref="442085147"/>
    <nd ref="442085148"/>
    <nd ref="656894655"/>
    <nd ref="656894657"/>
    <nd ref="442085149"/>
    <nd ref="656894661"/>
    <nd ref="656894663"/>
    <nd ref="442085145"/>
    <tag k="highway" v="residential"/>
    <tag k="name" v="St Moritz Terrace"/>
    <tag k="source" v="survey"/>
  </way>
  <way id="37701607" version="3" timestamp="2010-02-28T23:49:22Z" uid="114230" user="danerikk" changeset="4004426">
    <nd ref="442085147"/>
    <nd ref="442085148"/>
    <nd ref="656894913"/>
    <nd ref="656894915"/>
    <nd ref="656894918"/>
    <nd ref="656894655"/>
    <nd ref="656894657"/>
    <nd ref="442085149"/>
    <nd ref="656894661"/>
    <nd ref="656894663"/>
    <nd ref="442085145"/>
    <tag k="highway" v="residential"/>
    <tag k="name" v="St Moritz Terrace"/>
    <tag k="source" v="survey"/>
  </way>
  <way id="37701607" version="4" timestamp="2010-02-28T23:49:28Z" uid="114230" user="danerikk" changeset="4004426">
    <nd ref="442085147"/>
    <nd ref="656895002"/>
    <nd ref="442085148"/>
    <nd ref="656894913"/>
    <nd ref="656894915"/>
    <nd ref="656894918"/>
    <nd ref="656894655"/>
    <nd ref="656894657"/>
    <nd ref="442085149"/>
    <nd ref="656894661"/>
    <nd ref="656894663"/>
    <nd ref="442085145"/>
    <tag k="highway" v="residential"/>
    <tag k="name" v="St Moritz Terrace"/>
    <tag k="source" v="survey"/>
  </way>
  <way id="37701607" version="5" timestamp="2010-07-06T17:40:05Z" uid="74617" user="JohnSmith" changeset="5152225">
    <nd ref="442085147"/>
    <nd ref="656895002"/>
    <nd ref="442085148"/>
    <nd ref="656894913"/>
    <nd ref="656894915"/>
    <nd ref="656894918"/>
    <nd ref="656894655"/>
    <nd ref="656894657"/>
    <nd ref="442085149"/>
    <nd ref="656894661"/>
    <nd ref="656894663"/>
    <nd ref="442085145"/>
    <tag k="highway" v="residential"/>
    <tag k="maxspeed" v="50"/>
    <tag k="maxspeed:source" v="default residential speed limit in Australia"/>
    <tag k="name" v="St Moritz Terrace"/>
    <tag k="source" v="survey"/>
  </way>
  <way id="37701607" version="6" timestamp="2012-01-19T01:41:20Z" uid="147510" user="woodpeck_fixbot" changeset="10433378">
    <nd ref="442085147"/>
    <nd ref="656895002"/>
    <nd ref="442085148"/>
    <nd ref="656894913"/>
    <nd ref="656894915"/>
    <nd ref="656894918"/>
    <nd ref="656894655"/>
    <nd ref="656894657"/>
    <nd ref="442085149"/>
    <nd ref="656894661"/>
    <nd ref="656894663"/>
    <nd ref="442085145"/>
    <tag k="highway" v="residential"/>
    <tag k="name" v="St Moritz Terrace"/>
    <tag k="source" v="survey"/>
  </way>
  <way id="37701608" version="1" timestamp="2009-07-15T11:14:55Z" uid="7617" user="Franc" changeset="1835480">
    <nd ref="306601738"/>
    <nd ref="306601739"/>
    <nd ref="442085153"/>
    <nd ref="306601740"/>
    <tag k="created_by" v="Potlatch 0.10e"/>
    <tag k="highway" v="residential"/>
    <tag k="name" v="Marseille Court"/>
  </way>
  <way id="37701608" version="2" timestamp="2010-07-06T17:43:15Z" uid="74617" user="JohnSmith" changeset="5152225">
    <nd ref="306601738"/>
    <nd ref="306601739"/>
    <nd ref="442085153"/>
    <nd ref="306601740"/>
    <tag k="highway" v="residential"/>
    <tag k="maxspeed" v="50"/>
    <tag k="maxspeed:source" v="default residential speed limit in Australia"/>
    <tag k="name" v="Marseille Court"/>
  </way>
  <way id="37701608" version="3" timestamp="2012-01-19T01:41:22Z" uid="147510" user="woodpeck_fixbot" changeset="10433378">
    <nd ref="306601738"/>
    <nd ref="306601739"/>
    <nd ref="442085153"/>
    <nd ref="306601740"/>
    <tag k="highway" v="residential"/>
    <tag k="name" v="Marseille Court"/>
  </way>
  <way id="37701609" version="1" timestamp="2009-07-15T11:14:55Z" uid="7617" user="Franc" changeset="1835480">
    <nd ref="306601741"/>
    <nd ref="442085152"/>
    <nd ref="306601742"/>
    <nd ref="442085151"/>
    <nd ref="306601743"/>
    <nd ref="306601745"/>
    <nd ref="298981975"/>
    <tag k="created_by" v="Potlatch 0.10e"/>
    <tag k="highway" v="residential"/>
    <tag k="name" v="Marseille Court"/>
  </way>
  <way id="37701609" version="2" timestamp="2010-02-28T23:50:34Z" uid="114230" user="danerikk" changeset="4004426">
    <nd ref="306601741"/>
    <nd ref="442085152"/>
    <nd ref="306601742"/>
    <nd ref="442085151"/>
    <nd ref="656896821"/>
    <nd ref="306601743"/>
    <nd ref="306601745"/>
    <nd ref="656896825"/>
    <nd ref="656896828"/>
    <nd ref="298981975"/>
    <tag k="highway" v="residential"/>
    <tag k="name" v="Marseille Court"/>
  </way>
  <way id="37701609" version="3" timestamp="2010-07-06T17:40:45Z" uid="74617" user="JohnSmith" changeset="5152225">
    <nd ref="306601741"/>
    <nd ref="442085152"/>
    <nd ref="306601742"/>
    <nd ref="442085151"/>
    <nd ref="656896821"/>
    <nd ref="306601743"/>
    <nd ref="306601745"/>
    <nd ref="656896825"/>
    <nd ref="656896828"/>
    <nd ref="298981975"/>
    <tag k="highway" v="residential"/>
    <tag k="maxspeed" v="50"/>
    <tag k="maxspeed:source" v="default residential speed limit in Australia"/>
    <tag k="name" v="Marseille Court"/>
  </way>
  <way id="37701609" version="4" timestamp="2012-01-19T01:41:23Z" uid="147510" user="woodpeck_fixbot" changeset="10433378">
    <nd ref="306601741"/>
    <nd ref="442085152"/>
    <nd ref="306601742"/>
    <nd ref="442085151"/>
    <nd ref="656896821"/>
    <nd ref="306601743"/>
    <nd ref="306601745"/>
    <nd ref="656896825"/>
    <nd ref="656896828"/>
    <nd ref="298981975"/>
    <tag k="highway" v="residential"/>
    <tag k="name" v="Marseille Court"/>
  </way>
  <way id="37701610" version="1" timestamp="2009-07-15T11:14:55Z" uid="7617" user="Franc" changeset="1835480">
    <nd ref="306601740"/>
    <nd ref="442085156"/>
    <nd ref="442085155"/>
    <nd ref="442085154"/>
    <nd ref="306601741"/>
    <tag k="created_by" v="Potlatch 0.10e"/>
    <tag k="highway" v="residential"/>
    <tag k="name" v="Marseille Court"/>
  </way>
  <way id="37701610" version="2" timestamp="2010-02-28T23:50:42Z" uid="114230" user="danerikk" changeset="4004426">
    <nd ref="306601740"/>
    <nd ref="442085156"/>
    <nd ref="442085155"/>
    <nd ref="442085154"/>
    <nd ref="306601741"/>
    <tag k="highway" v="residential"/>
    <tag k="name" v="Marseille Court"/>
  </way>
  <way id="37701610" version="3" timestamp="2010-07-06T17:47:19Z" uid="74617" user="JohnSmith" changeset="5152225">
    <nd ref="306601740"/>
    <nd ref="442085156"/>
    <nd ref="442085155"/>
    <nd ref="442085154"/>
    <nd ref="306601741"/>
    <tag k="highway" v="residential"/>
    <tag k="maxspeed" v="50"/>
    <tag k="maxspeed:source" v="default residential speed limit in Australia"/>
    <tag k="name" v="Marseille Court"/>
  </way>
  <way id="37701610" version="4" timestamp="2012-01-19T01:41:24Z" uid="147510" user="woodpeck_fixbot" changeset="10433378">
    <nd ref="306601740"/>
    <nd ref="442085156"/>
    <nd ref="442085155"/>
    <nd ref="442085154"/>
    <nd ref="306601741"/>
    <tag k="highway" v="residential"/>
    <tag k="name" v="Marseille Court"/>
  </way>
  <way id="37701611" version="1" timestamp="2009-07-15T11:14:55Z" uid="7617" user="Franc" changeset="1835480">
    <nd ref="306601741"/>
    <nd ref="442085158"/>
    <nd ref="442085157"/>
    <nd ref="442085159"/>
    <nd ref="306601740"/>
    <tag k="created_by" v="Potlatch 0.10e"/>
    <tag k="highway" v="residential"/>
    <tag k="name" v="Marseille Court"/>
  </way>
  <way id="37701611" version="2" timestamp="2010-02-28T23:50:36Z" uid="114230" user="danerikk" changeset="4004426">
    <nd ref="306601741"/>
    <nd ref="442085158"/>
    <nd ref="442085157"/>
    <nd ref="442085159"/>
    <nd ref="306601740"/>
    <tag k="highway" v="residential"/>
    <tag k="name" v="Marseille Court"/>
  </way>
  <way id="37701611" version="3" timestamp="2010-02-28T23:50:51Z" uid="114230" user="danerikk" changeset="4004426">
    <nd ref="306601741"/>
    <nd ref="442085158"/>
    <nd ref="442085157"/>
    <nd ref="656897349"/>
    <nd ref="442085159"/>
    <nd ref="306601740"/>
    <tag k="highway" v="residential"/>
    <tag k="name" v="Marseille Court"/>
  </way>
  <way id="37701611" version="4" timestamp="2010-07-06T17:45:18Z" uid="74617" user="JohnSmith" changeset="5152225">
    <nd ref="306601741"/>
    <nd ref="442085158"/>
    <nd ref="442085157"/>
    <nd ref="656897349"/>
    <nd ref="442085159"/>
    <nd ref="306601740"/>
    <tag k="highway" v="residential"/>
    <tag k="maxspeed" v="50"/>
    <tag k="maxspeed:source" v="default residential speed limit in Australia"/>
    <tag k="name" v="Marseille Court"/>
  </way>
  <way id="37701611" version="5" timestamp="2012-01-19T01:41:25Z" uid="147510" user="woodpeck_fixbot" changeset="10433378">
    <nd ref="306601741"/>
    <nd ref="442085158"/>
    <nd ref="442085157"/>
    <nd ref="656897349"/>
    <nd ref="442085159"/>
    <nd ref="306601740"/>
    <tag k="highway" v="residential"/>
    <tag k="name" v="Marseille Court"/>
  </way>
  <way id="37701612" version="1" timestamp="2009-07-15T11:14:55Z" uid="7617" user="Franc" changeset="1835480">
    <nd ref="442085169"/>
    <nd ref="442085170"/>
    <nd ref="442085171"/>
    <nd ref="442085172"/>
    <tag k="highway" v="residential"/>
    <tag k="name" v="Kookaburra Court"/>
    <tag k="oneway" v="yes"/>
    <tag k="source" v="survey"/>
  </way>
  <way id="37701612" version="2" timestamp="2010-07-06T17:41:35Z" uid="74617" user="JohnSmith" changeset="5152225">
    <nd ref="442085169"/>
    <nd ref="442085170"/>
    <nd ref="442085171"/>
    <nd ref="442085172"/>
    <tag k="highway" v="residential"/>
    <tag k="maxspeed" v="50"/>
    <tag k="maxspeed:source" v="default residential speed limit in Australia"/>
    <tag k="name" v="Kookaburra Court"/>
    <tag k="oneway" v="yes"/>
    <tag k="source" v="survey"/>
  </way>
  <way id="37701612" version="3" timestamp="2012-01-19T01:41:26Z" uid="147510" user="woodpeck_fixbot" changeset="10433378">
    <nd ref="442085169"/>
    <nd ref="442085170"/>
    <nd ref="442085171"/>
    <nd ref="442085172"/>
    <tag k="highway" v="residential"/>
    <tag k="name" v="Kookaburra Court"/>
    <tag k="oneway" v="yes"/>
    <tag k="source" v="survey"/>
  </way>
  <way id="37701613" version="1" timestamp="2009-07-15T11:14:55Z" uid="7617" user="Franc" changeset="1835480">
    <nd ref="304714283"/>
    <nd ref="442085185"/>
    <nd ref="304714493"/>
    <nd ref="442085169"/>
    <nd ref="411307147"/>
    <nd ref="304714285"/>
    <tag k="created_by" v="Potlatch 0.10e"/>
    <tag k="highway" v="residential"/>
    <tag k="name" v="Platypus Avenue"/>
    <tag k="source" v="survey"/>
  </way>
  <way id="37701613" version="2" timestamp="2010-07-06T17:38:27Z" uid="74617" user="JohnSmith" changeset="5152225">
    <nd ref="304714283"/>
    <nd ref="442085185"/>
    <nd ref="304714493"/>
    <nd ref="442085169"/>
    <nd ref="411307147"/>
    <nd ref="304714285"/>
    <tag k="highway" v="residential"/>
    <tag k="maxspeed" v="50"/>
    <tag k="maxspeed:source" v="default residential speed limit in Australia"/>
    <tag k="name" v="Platypus Avenue"/>
    <tag k="source" v="survey"/>
  </way>
  <way id="37701613" version="3" timestamp="2012-01-19T01:41:28Z" uid="147510" user="woodpeck_fixbot" changeset="10433378">
    <nd ref="304714283"/>
    <nd ref="442085185"/>
    <nd ref="304714493"/>
    <nd ref="442085169"/>
    <nd ref="411307147"/>
    <nd ref="304714285"/>
    <tag k="highway" v="residential"/>
    <tag k="name" v="Platypus Avenue"/>
    <tag k="source" v="survey"/>
  </way>
  <way id="37701614" version="1" timestamp="2009-07-15T11:14:55Z" uid="7617" user="Franc" changeset="1835480">
    <nd ref="304714283"/>
    <nd ref="304714308"/>
    <tag k="highway" v="residential"/>
    <tag k="name" v="Platypus Avenue"/>
    <tag k="oneway" v="yes"/>
    <tag k="source" v="survey"/>
  </way>
  <way id="37701614" version="2" timestamp="2010-07-06T17:45:52Z" uid="74617" user="JohnSmith" changeset="5152225">
    <nd ref="304714283"/>
    <nd ref="304714308"/>
    <tag k="highway" v="residential"/>
    <tag k="maxspeed" v="50"/>
    <tag k="maxspeed:source" v="default residential speed limit in Australia"/>
    <tag k="name" v="Platypus Avenue"/>
    <tag k="oneway" v="yes"/>
    <tag k="source" v="survey"/>
  </way>
  <way id="37701614" version="3" timestamp="2012-01-19T01:41:29Z" uid="147510" user="woodpeck_fixbot" changeset="10433378">
    <nd ref="304714283"/>
    <nd ref="304714308"/>
    <tag k="highway" v="residential"/>
    <tag k="name" v="Platypus Avenue"/>
    <tag k="oneway" v="yes"/>
    <tag k="source" v="survey"/>
  </way>
  <way id="37701615" version="1" timestamp="2009-07-15T11:14:56Z" uid="7617" user="Franc" changeset="1835480">
    <nd ref="304714308"/>
    <nd ref="304714306"/>
    <tag k="created_by" v="Potlatch 0.10e"/>
    <tag k="highway" v="residential"/>
    <tag k="name" v="Platypus Avenue"/>
  </way>
  <way id="37701615" version="2" timestamp="2010-07-06T17:43:46Z" uid="74617" user="JohnSmith" changeset="5152225">
    <nd ref="304714308"/>
    <nd ref="304714306"/>
    <tag k="highway" v="residential"/>
    <tag k="maxspeed" v="50"/>
    <tag k="maxspeed:source" v="default residential speed limit in Australia"/>
    <tag k="name" v="Platypus Avenue"/>
  </way>
  <way id="37701615" version="3" timestamp="2012-01-19T01:41:31Z" uid="147510" user="woodpeck_fixbot" changeset="10433378">
    <nd ref="304714308"/>
    <nd ref="304714306"/>
    <tag k="highway" v="residential"/>
    <tag k="name" v="Platypus Avenue"/>
  </way>
  <way id="37701616" version="1" timestamp="2009-07-15T11:14:56Z" uid="7617" user="Franc" changeset="1835480">
    <nd ref="442085173"/>
    <nd ref="442085174"/>
    <nd ref="442085175"/>
    <nd ref="442085176"/>
    <nd ref="442085177"/>
    <nd ref="442085178"/>
    <nd ref="442085179"/>
    <nd ref="442085180"/>
    <nd ref="304714301"/>
    <tag k="highway" v="residential"/>
    <tag k="oneway" v="yes"/>
    <tag k="source" v="survey"/>
  </way>
  <way id="37701616" version="2" timestamp="2009-07-17T23:18:32Z" uid="7617" user="Franc" changeset="1859154">
    <nd ref="442085173"/>
    <nd ref="442085174"/>
    <nd ref="442085175"/>
    <nd ref="442085176"/>
    <nd ref="442085177"/>
    <nd ref="442085178"/>
    <nd ref="442085179"/>
    <nd ref="442085180"/>
    <nd ref="304714301"/>
    <tag k="highway" v="residential"/>
    <tag k="name" v="Platypus Avenue"/>
    <tag k="oneway" v="yes"/>
    <tag k="source" v="survey"/>
  </way>
  <way id="37701616" version="3" timestamp="2010-07-06T17:44:00Z" uid="74617" user="JohnSmith" changeset="5152225">
    <nd ref="442085173"/>
    <nd ref="442085174"/>
    <nd ref="442085175"/>
    <nd ref="442085176"/>
    <nd ref="442085177"/>
    <nd ref="442085178"/>
    <nd ref="442085179"/>
    <nd ref="442085180"/>
    <nd ref="304714301"/>
    <tag k="highway" v="residential"/>
    <tag k="maxspeed" v="50"/>
    <tag k="maxspeed:source" v="default residential speed limit in Australia"/>
    <tag k="name" v="Platypus Avenue"/>
    <tag k="oneway" v="yes"/>
    <tag k="source" v="survey"/>
  </way>
  <way id="37701616" version="4" timestamp="2012-01-19T01:41:32Z" uid="147510" user="woodpeck_fixbot" changeset="10433378">
    <nd ref="442085173"/>
    <nd ref="442085174"/>
    <nd ref="442085175"/>
    <nd ref="442085176"/>
    <nd ref="442085177"/>
    <nd ref="442085178"/>
    <nd ref="442085179"/>
    <nd ref="442085180"/>
    <nd ref="304714301"/>
    <tag k="highway" v="residential"/>
    <tag k="name" v="Platypus Avenue"/>
    <tag k="oneway" v="yes"/>
    <tag k="source" v="survey"/>
  </way>
  <way id="37701617" version="1" timestamp="2009-07-15T11:14:56Z" uid="7617" user="Franc" changeset="1835480">
    <nd ref="304714280"/>
    <nd ref="442085181"/>
    <nd ref="442085182"/>
    <nd ref="304714298"/>
    <tag k="highway" v="residential"/>
    <tag k="name" v="Wallaby Place"/>
    <tag k="oneway" v="yes"/>
    <tag k="source" v="survey"/>
  </way>
  <way id="37701617" version="2" timestamp="2010-07-06T17:41:48Z" uid="74617" user="JohnSmith" changeset="5152225">
    <nd ref="304714280"/>
    <nd ref="442085181"/>
    <nd ref="442085182"/>
    <nd ref="304714298"/>
    <tag k="highway" v="residential"/>
    <tag k="maxspeed" v="50"/>
    <tag k="maxspeed:source" v="default residential speed limit in Australia"/>
    <tag k="name" v="Wallaby Place"/>
    <tag k="oneway" v="yes"/>
    <tag k="source" v="survey"/>
  </way>
  <way id="37701617" version="3" timestamp="2012-01-19T01:41:33Z" uid="147510" user="woodpeck_fixbot" changeset="10433378">
    <nd ref="304714280"/>
    <nd ref="442085181"/>
    <nd ref="442085182"/>
    <nd ref="304714298"/>
    <tag k="highway" v="residential"/>
    <tag k="name" v="Wallaby Place"/>
    <tag k="oneway" v="yes"/>
    <tag k="source" v="survey"/>
  </way>
  <way id="37701618" version="1" timestamp="2009-07-15T11:14:56Z" uid="7617" user="Franc" changeset="1835480">
    <nd ref="304714298"/>
    <nd ref="442085184"/>
    <nd ref="442085183"/>
    <nd ref="304714306"/>
    <tag k="highway" v="residential"/>
    <tag k="name" v="Wallaby Place"/>
    <tag k="oneway" v="yes"/>
    <tag k="source" v="survey"/>
  </way>
  <way id="37701618" version="2" timestamp="2010-07-06T17:48:08Z" uid="74617" user="JohnSmith" changeset="5152225">
    <nd ref="304714298"/>
    <nd ref="442085184"/>
    <nd ref="442085183"/>
    <nd ref="304714306"/>
    <tag k="highway" v="residential"/>
    <tag k="maxspeed" v="50"/>
    <tag k="maxspeed:source" v="default residential speed limit in Australia"/>
    <tag k="name" v="Wallaby Place"/>
    <tag k="oneway" v="yes"/>
    <tag k="source" v="survey"/>
  </way>
  <way id="37701618" version="3" timestamp="2012-01-19T01:41:35Z" uid="147510" user="woodpeck_fixbot" changeset="10433378">
    <nd ref="304714298"/>
    <nd ref="442085184"/>
    <nd ref="442085183"/>
    <nd ref="304714306"/>
    <tag k="highway" v="residential"/>
    <tag k="name" v="Wallaby Place"/>
    <tag k="oneway" v="yes"/>
    <tag k="source" v="survey"/>
  </way>
  <way id="37701619" version="1" timestamp="2009-07-15T11:14:56Z" uid="7617" user="Franc" changeset="1835480">
    <nd ref="442085185"/>
    <nd ref="442085186"/>
    <nd ref="442085172"/>
    <tag k="highway" v="residential"/>
    <tag k="name" v="Kookaburra Court"/>
    <tag k="oneway" v="yes"/>
    <tag k="source" v="survey"/>
  </way>
  <way id="37701619" version="2" timestamp="2010-07-06T17:46:05Z" uid="74617" user="JohnSmith" changeset="5152225">
    <nd ref="442085185"/>
    <nd ref="442085186"/>
    <nd ref="442085172"/>
    <tag k="highway" v="residential"/>
    <tag k="maxspeed" v="50"/>
    <tag k="maxspeed:source" v="default residential speed limit in Australia"/>
    <tag k="name" v="Kookaburra Court"/>
    <tag k="oneway" v="yes"/>
    <tag k="source" v="survey"/>
  </way>
  <way id="37701619" version="3" timestamp="2012-01-19T01:41:36Z" uid="147510" user="woodpeck_fixbot" changeset="10433378">
    <nd ref="442085185"/>
    <nd ref="442085186"/>
    <nd ref="442085172"/>
    <tag k="highway" v="residential"/>
    <tag k="name" v="Kookaburra Court"/>
    <tag k="oneway" v="yes"/>
    <tag k="source" v="survey"/>
  </way>
  <way id="37701620" version="1" timestamp="2009-07-15T11:14:56Z" uid="7617" user="Franc" changeset="1835480">
    <nd ref="442085196"/>
    <nd ref="442085197"/>
    <nd ref="442085198"/>
    <nd ref="442085199"/>
    <tag k="highway" v="residential"/>
    <tag k="name" v="Emu Court"/>
    <tag k="oneway" v="yes"/>
    <tag k="source" v="survey"/>
  </way>
  <way id="37701620" version="2" timestamp="2010-07-06T17:42:26Z" uid="74617" user="JohnSmith" changeset="5152225">
    <nd ref="442085196"/>
    <nd ref="442085197"/>
    <nd ref="442085198"/>
    <nd ref="442085199"/>
    <tag k="highway" v="residential"/>
    <tag k="maxspeed" v="50"/>
    <tag k="maxspeed:source" v="default residential speed limit in Australia"/>
    <tag k="name" v="Emu Court"/>
    <tag k="oneway" v="yes"/>
    <tag k="source" v="survey"/>
  </way>
  <way id="37701620" version="3" timestamp="2012-01-19T01:41:39Z" uid="147510" user="woodpeck_fixbot" changeset="10433378">
    <nd ref="442085196"/>
    <nd ref="442085197"/>
    <nd ref="442085198"/>
    <nd ref="442085199"/>
    <tag k="highway" v="residential"/>
    <tag k="name" v="Emu Court"/>
    <tag k="oneway" v="yes"/>
    <tag k="source" v="survey"/>
  </way>
  <way id="37701621" version="1" timestamp="2009-07-15T11:14:56Z" uid="7617" user="Franc" changeset="1835480">
    <nd ref="442085199"/>
    <nd ref="442085200"/>
    <nd ref="442085201"/>
    <nd ref="442085202"/>
    <tag k="highway" v="residential"/>
    <tag k="name" v="Emu Court"/>
    <tag k="oneway" v="yes"/>
    <tag k="source" v="survey"/>
  </way>
  <way id="37701621" version="2" timestamp="2010-07-06T17:39:34Z" uid="74617" user="JohnSmith" changeset="5152225">
    <nd ref="442085199"/>
    <nd ref="442085200"/>
    <nd ref="442085201"/>
    <nd ref="442085202"/>
    <tag k="highway" v="residential"/>
    <tag k="maxspeed" v="50"/>
    <tag k="maxspeed:source" v="default residential speed limit in Australia"/>
    <tag k="name" v="Emu Court"/>
    <tag k="oneway" v="yes"/>
    <tag k="source" v="survey"/>
  </way>
  <way id="37701621" version="3" timestamp="2012-01-19T01:41:41Z" uid="147510" user="woodpeck_fixbot" changeset="10433378">
    <nd ref="442085199"/>
    <nd ref="442085200"/>
    <nd ref="442085201"/>
    <nd ref="442085202"/>
    <tag k="highway" v="residential"/>
    <tag k="name" v="Emu Court"/>
    <tag k="oneway" v="yes"/>
    <tag k="source" v="survey"/>
  </way>
  <way id="37701622" version="1" timestamp="2009-07-15T11:14:56Z" uid="7617" user="Franc" changeset="1835480">
    <nd ref="442085203"/>
    <nd ref="442085204"/>
    <nd ref="442085205"/>
    <nd ref="442085206"/>
    <nd ref="442085203"/>
    <tag k="landuse" v="grass"/>
  </way>
  <way id="37701623" version="1" timestamp="2009-07-15T11:14:56Z" uid="7617" user="Franc" changeset="1835480">
    <nd ref="442085207"/>
    <nd ref="442085217"/>
    <nd ref="442085208"/>
    <nd ref="442085209"/>
    <nd ref="442085210"/>
    <nd ref="442085211"/>
    <nd ref="442085212"/>
    <nd ref="442085214"/>
    <nd ref="442085215"/>
    <nd ref="442085216"/>
    <nd ref="442085217"/>
    <tag k="landuse" v="grass"/>
  </way>
  <way id="37701623" version="2" timestamp="2011-11-24T13:04:59Z" uid="338866" user="tiger" changeset="9932369">
    <nd ref="442085217"/>
    <nd ref="442085208"/>
    <nd ref="442085209"/>
    <nd ref="442085210"/>
    <nd ref="442085211"/>
    <nd ref="442085212"/>
    <nd ref="442085214"/>
    <nd ref="442085215"/>
    <nd ref="442085216"/>
    <nd ref="442085217"/>
    <tag k="landuse" v="grass"/>
  </way>
  <way id="37701624" version="1" timestamp="2009-07-15T11:14:56Z" uid="7617" user="Franc" changeset="1835480">
    <nd ref="442085224"/>
    <nd ref="442085225"/>
    <nd ref="442085226"/>
    <tag k="highway" v="residential"/>
    <tag k="source" v="yahoo_imagery"/>
  </way>
  <way id="37701624" version="2" timestamp="2009-11-24T11:12:51Z" uid="7617" user="Franc" changeset="3203376">
    <nd ref="442085224"/>
    <nd ref="569950868"/>
    <nd ref="442085225"/>
    <nd ref="442085226"/>
    <tag k="highway" v="residential"/>
    <tag k="source" v="yahoo_imagery"/>
  </way>
  <way id="37701624" version="3" timestamp="2010-04-30T01:45:16Z" uid="244897" user="M526244" changeset="4562660">
    <nd ref="442085224"/>
    <nd ref="569950868"/>
    <nd ref="442085225"/>
    <nd ref="442085226"/>
    <tag k="highway" v="residential"/>
    <tag k="name" v="La Spezia Court"/>
    <tag k="source" v="yahoo_imagery"/>
  </way>
  <way id="37701624" version="4" timestamp="2010-07-06T17:31:39Z" uid="74617" user="JohnSmith" changeset="5152225">
    <nd ref="442085224"/>
    <nd ref="569950868"/>
    <nd ref="442085225"/>
    <nd ref="442085226"/>
    <tag k="highway" v="residential"/>
    <tag k="maxspeed" v="50"/>
    <tag k="maxspeed:source" v="default residential speed limit in Australia"/>
    <tag k="name" v="La Spezia Court"/>
    <tag k="source" v="yahoo_imagery"/>
  </way>
  <way id="37701624" version="5" timestamp="2012-01-19T01:41:43Z" uid="147510" user="woodpeck_fixbot" changeset="10433378">
    <nd ref="442085224"/>
    <nd ref="569950868"/>
    <nd ref="442085225"/>
    <nd ref="442085226"/>
    <tag k="highway" v="residential"/>
    <tag k="name" v="La Spezia Court"/>
    <tag k="source" v="yahoo_imagery"/>
  </way>
  <way id="37701606" version="5" timestamp="2012-07-19T14:16:28Z" uid="722137" user="OSMF Redaction Account" changeset="12331124">
    <nd ref="656893987"/>
    <nd ref="656893994"/>
  </way>
  <way id="37701606" version="6" timestamp="2012-09-09T06:15:16Z" uid="38548" user="PesceVerde" changeset="13040668"/>
  <way id="37701607" version="7" timestamp="2012-07-19T14:12:06Z" uid="722137" user="OSMF Redaction Account" changeset="12331001">
    <nd ref="656895002"/>
    <nd ref="656894913"/>
    <nd ref="656894915"/>
    <nd ref="656894918"/>
    <nd ref="656894655"/>
    <nd ref="656894657"/>
    <nd ref="656894661"/>
    <nd ref="656894663"/>
  </way>
  <way id="37701607" version="8" timestamp="2012-09-09T06:15:07Z" uid="38548" user="PesceVerde" changeset="13040668">
    <nd ref="442085147"/>
    <nd ref="656895002"/>
    <nd ref="656894657"/>
    <nd ref="656894661"/>
    <nd ref="656894663"/>
    <nd ref="442085145"/>
    <tag k="highway" v="residential"/>
  </way>
  <way id="37701608" version="4" timestamp="2012-07-19T14:22:18Z" uid="722137" user="OSMF Redaction Account" changeset="12331236"/>
  <way id="37701609" version="5" timestamp="2012-07-19T14:16:30Z" uid="722137" user="OSMF Redaction Account" changeset="12331124">
    <nd ref="656896821"/>
    <nd ref="656896825"/>
    <nd ref="656896828"/>
  </way>
  <way id="37701609" version="6" timestamp="2012-09-09T06:15:03Z" uid="38548" user="PesceVerde" changeset="13040668">
    <nd ref="306601738"/>
    <nd ref="306601739"/>
    <nd ref="306601740"/>
    <nd ref="442085157"/>
    <nd ref="306601741"/>
    <nd ref="442085152"/>
    <nd ref="306601742"/>
    <nd ref="442085151"/>
    <nd ref="656896821"/>
    <nd ref="306601743"/>
    <nd ref="306601745"/>
    <nd ref="656896825"/>
    <nd ref="656896828"/>
    <tag k="highway" v="residential"/>
  </way>
  <way id="37701610" version="5" timestamp="2012-07-19T14:22:18Z" uid="722137" user="OSMF Redaction Account" changeset="12331236"/>
  <way id="37701611" version="6" timestamp="2012-07-19T14:22:19Z" uid="722137" user="OSMF Redaction Account" changeset="12331236"/>
  <way id="37701612" version="4" timestamp="2012-07-19T14:22:25Z" uid="722137" user="OSMF Redaction Account" changeset="12331253"/>
  <way id="37701613" version="4" timestamp="2012-07-19T14:22:25Z" uid="722137" user="OSMF Redaction Account" changeset="12331253"/>
  <way id="37701614" version="4" timestamp="2012-07-19T14:22:25Z" uid="722137" user="OSMF Redaction Account" changeset="12331253"/>
  <way id="37701615" version="4" timestamp="2012-07-19T14:22:26Z" uid="722137" user="OSMF Redaction Account" changeset="12331253"/>
  <way id="37701616" version="5" timestamp="2012-07-19T14:22:26Z" uid="722137" user="OSMF Redaction Account" changeset="12331253"/>
  <way id="37701617" version="4" timestamp="2012-07-19T14:22:26Z" uid="722137" user="OSMF Redaction Account" changeset="12331253"/>
  <way id="37701618" version="4" timestamp="2012-07-19T14:22:25Z" uid="722137" user="OSMF Redaction Account" changeset="12331253"/>
  <way id="37701619" version="4" timestamp="2012-07-19T14:22:25Z" uid="722137" user="OSMF Redaction Account" changeset="12331253"/>
  <way id="37701620" version="4" timestamp="2012-07-19T14:22:26Z" uid="722137" user="OSMF Redaction Account" changeset="12331253"/>
  <way id="37701621" version="4" timestamp="2012-07-19T14:22:26Z" uid="722137" user="OSMF Redaction Account" changeset="12331253"/>
  <way id="37701622" version="2" timestamp="2012-07-19T14:22:26Z" uid="722137" user="OSMF Redaction Account" changeset="12331253"/>
  <way id="37701623" version="3" timestamp="2012-07-19T14:22:26Z" uid="722137" user="OSMF Redaction Account" changeset="12331253"/>
  <way id="37701624" version="6" timestamp="2012-07-19T14:22:27Z" uid="722137" user="OSMF Redaction Account" changeset="12331253"/>
</osm>
