<?xml version='1.0' encoding='UTF-8'?>
<osm version="0.6" generator="libosmium/2.20.0">
  <way id="37733325" version="6" timestamp="2010-03-22T06:33:24Z" uid="20587" user="balrog-kun" changeset="4199043">
    <nd ref="38506945"/>
    <nd ref="38533688"/>
    <nd ref="38520416"/>
    <nd ref="38494603"/>
    <tag k="highway" v="tertiary"/>
    <tag k="name" v="Northeast Greenwood Avenue"/>
    <tag k="tiger:cfcc" v="A21"/>
    <tag k="tiger:county" v="Deschutes, OR"/>
    <tag k="tiger:name_base" v="Greenwood"/>
    <tag k="tiger:name_base_1" v="United States Highway 20"/>
    <tag k="tiger:name_direction_prefix" v="NE"/>
    <tag k="tiger:name_type" v="Ave"/>
    <tag k="tiger:reviewed" v="yes"/>
    <tag k="tiger:separated" v="no"/>
    <tag k="tiger:source" v="tiger_import_dch_v0.6_20070808"/>
    <tag k="tiger:tlid" v="152553808:152553809:152553793:152553796:152553797:152553786:152553799:152584878"/>
    <tag k="tiger:zip_left" v="97701"/>
    <tag k="tiger:zip_right" v="97701"/>
  </way>
  <way id="37733326" version="5" timestamp="2010-03-22T06:33:25Z" uid="20587" user="balrog-kun" changeset="4199043">
    <nd ref="38509847"/>
    <nd ref="38509849"/>
    <nd ref="38509852"/>
    <nd ref="38240123"/>
    <nd ref="38509857"/>
    <nd ref="38240156"/>
    <nd ref="38240094"/>
    <nd ref="38509865"/>
    <nd ref="622859197"/>
    <nd ref="38509867"/>
    <nd ref="38509871"/>
    <nd ref="38509873"/>
    <nd ref="38509876"/>
    <nd ref="622859194"/>
    <nd ref="38509878"/>
    <nd ref="38509881"/>
    <nd ref="38509886"/>
    <nd ref="38509888"/>
    <nd ref="38509890"/>
    <nd ref="38507007"/>
    <tag k="highway" v="primary"/>
    <tag k="name" v="Northeast 3rd Street"/>
    <tag k="ref" v="US 20; US 97 Business"/>
    <tag k="tiger:cfcc" v="A25"/>
    <tag k="tiger:county" v="Deschutes, OR"/>
    <tag k="tiger:name_base" v="Highway 97"/>
    <tag k="tiger:name_base_1" v="United States Highway 97"/>
    <tag k="tiger:name_base_2" v="United States Highway 20; The Dalles-California"/>
    <tag k="tiger:name_base_3" v="The Dalles-California"/>
    <tag k="tiger:name_direction_prefix" v="N"/>
    <tag k="tiger:name_direction_prefix_1" v="N"/>
    <tag k="tiger:name_type_2" v="Hwy"/>
    <tag k="tiger:name_type_3" v="Hwy"/>
    <tag k="tiger:separated" v="yes"/>
    <tag k="tiger:source" v="tiger_import_dch_v0.6_20070808"/>
    <tag k="tiger:tlid" v="152552998:152556151; 152566824:152567808"/>
  </way>
  <way id="37733326" version="6" timestamp="2010-12-21T18:15:34Z" uid="373763" user="ylekot" changeset="6727929">
    <nd ref="38509847"/>
    <nd ref="38509849"/>
    <nd ref="38509852"/>
    <nd ref="38240123"/>
    <nd ref="38509857"/>
    <nd ref="38240156"/>
    <nd ref="38240094"/>
    <nd ref="38509865"/>
    <nd ref="622859197"/>
    <nd ref="38509867"/>
    <nd ref="38509871"/>
    <nd ref="38509873"/>
    <nd ref="38509876"/>
    <nd ref="622859194"/>
    <nd ref="38509878"/>
    <nd ref="38509881"/>
    <nd ref="38509886"/>
    <nd ref="38509888"/>
    <nd ref="38509890"/>
    <nd ref="38507007"/>
    <tag k="highway" v="primary"/>
    <tag k="name" v="Northeast 3rd Street"/>
    <tag k="ref" v="US 20"/>
    <tag k="tiger:cfcc" v="A25"/>
    <tag k="tiger:county" v="Deschutes, OR"/>
    <tag k="tiger:name_base" v="Highway 97"/>
    <tag k="tiger:name_base_1" v="United States Highway 97"/>
    <tag k="tiger:name_base_2" v="United States Highway 20; The Dalles-California"/>
    <tag k="tiger:name_base_3" v="The Dalles-California"/>
    <tag k="tiger:name_direction_prefix" v="N"/>
    <tag k="tiger:name_direction_prefix_1" v="N"/>
    <tag k="tiger:name_type_2" v="Hwy"/>
    <tag k="tiger:name_type_3" v="Hwy"/>
    <tag k="tiger:separated" v="yes"/>
    <tag k="tiger:source" v="tiger_import_dch_v0.6_20070808"/>
    <tag k="tiger:tlid" v="152552998:152556151; 152566824:152567808"/>
  </way>
  <way id="37733326" version="7" timestamp="2010-12-22T02:29:07Z" uid="373763" user="ylekot" changeset="6731929">
    <nd ref="38509847"/>
    <nd ref="38509849"/>
    <tag k="highway" v="primary"/>
    <tag k="name" v="Northeast 3rd Street"/>
    <tag k="ref" v="US 20"/>
    <tag k="tiger:cfcc" v="A25"/>
    <tag k="tiger:county" v="Deschutes, OR"/>
    <tag k="tiger:name_base" v="Highway 97"/>
    <tag k="tiger:name_base_1" v="United States Highway 97"/>
    <tag k="tiger:name_base_2" v="United States Highway 20; The Dalles-California"/>
    <tag k="tiger:name_base_3" v="The Dalles-California"/>
    <tag k="tiger:name_direction_prefix" v="N"/>
    <tag k="tiger:name_direction_prefix_1" v="N"/>
    <tag k="tiger:name_type_2" v="Hwy"/>
    <tag k="tiger:name_type_3" v="Hwy"/>
    <tag k="tiger:separated" v="yes"/>
    <tag k="tiger:source" v="tiger_import_dch_v0.6_20070808"/>
    <tag k="tiger:tlid" v="152552998:152556151; 152566824:152567808"/>
  </way>
  <way id="37733326" version="8" timestamp="2011-06-11T11:24:19Z" uid="207745" user="NE2" changeset="8404776">
    <nd ref="38509847"/>
    <nd ref="38509849"/>
    <tag k="highway" v="primary"/>
    <tag k="lanes" v="4"/>
    <tag k="name" v="Northeast 3rd Street"/>
    <tag k="ref" v="US 20"/>
    <tag k="tiger:cfcc" v="A25"/>
    <tag k="tiger:county" v="Deschutes, OR"/>
    <tag k="tiger:name_base" v="Highway 97"/>
    <tag k="tiger:name_base_1" v="United States Highway 97"/>
    <tag k="tiger:name_base_2" v="United States Highway 20; The Dalles-California"/>
    <tag k="tiger:name_base_3" v="The Dalles-California"/>
    <tag k="tiger:name_direction_prefix" v="N"/>
    <tag k="tiger:name_direction_prefix_1" v="N"/>
    <tag k="tiger:name_type_2" v="Hwy"/>
    <tag k="tiger:name_type_3" v="Hwy"/>
    <tag k="tiger:separated" v="yes"/>
    <tag k="tiger:source" v="tiger_import_dch_v0.6_20070808"/>
    <tag k="tiger:tlid" v="152552998:152556151; 152566824:152567808"/>
  </way>
  <way id="37733326" version="9" timestamp="2011-07-07T16:29:33Z" uid="473471" user="NE3" changeset="8658775">
    <nd ref="38509847"/>
    <nd ref="38509849"/>
    <tag k="NHS" v="yes"/>
    <tag k="highway" v="primary"/>
    <tag k="lanes" v="4"/>
    <tag k="name" v="Northeast 3rd Street"/>
    <tag k="ref" v="US 20"/>
    <tag k="tiger:cfcc" v="A25"/>
    <tag k="tiger:county" v="Deschutes, OR"/>
    <tag k="tiger:name_base" v="Highway 97"/>
    <tag k="tiger:name_base_1" v="United States Highway 97"/>
    <tag k="tiger:name_base_2" v="United States Highway 20; The Dalles-California"/>
    <tag k="tiger:name_base_3" v="The Dalles-California"/>
    <tag k="tiger:name_direction_prefix" v="N"/>
    <tag k="tiger:name_direction_prefix_1" v="N"/>
    <tag k="tiger:name_type_2" v="Hwy"/>
    <tag k="tiger:name_type_3" v="Hwy"/>
    <tag k="tiger:separated" v="yes"/>
    <tag k="tiger:source" v="tiger_import_dch_v0.6_20070808"/>
    <tag k="tiger:tlid" v="152552998:152556151; 152566824:152567808"/>
  </way>
  <way id="37733326" version="10" timestamp="2011-11-25T16:59:32Z" uid="207745" user="NE2" changeset="9945867">
    <nd ref="38509847"/>
    <nd ref="38509849"/>
    <tag k="NHS" v="yes"/>
    <tag k="hgv" v="designated"/>
    <tag k="hgv:national_network" v="yes"/>
    <tag k="highway" v="primary"/>
    <tag k="lanes" v="4"/>
    <tag k="name" v="Northeast 3rd Street"/>
    <tag k="ref" v="US 20"/>
    <tag k="source:hgv:national_network" v="Title 23: Highways Part 658 http://ecfr.gpoaccess.gov/cgi/t/text/text-idx?c=ecfr&amp;rgn=div5&amp;view=text&amp;node=23:1.0.1.7.33&amp;idno=23"/>
    <tag k="tiger:cfcc" v="A25"/>
    <tag k="tiger:county" v="Deschutes, OR"/>
    <tag k="tiger:name_base" v="Highway 97"/>
    <tag k="tiger:name_base_1" v="United States Highway 97"/>
    <tag k="tiger:name_base_2" v="United States Highway 20; The Dalles-California"/>
    <tag k="tiger:name_base_3" v="The Dalles-California"/>
    <tag k="tiger:name_direction_prefix" v="N"/>
    <tag k="tiger:name_direction_prefix_1" v="N"/>
    <tag k="tiger:name_type_2" v="Hwy"/>
    <tag k="tiger:name_type_3" v="Hwy"/>
    <tag k="tiger:separated" v="yes"/>
    <tag k="tiger:source" v="tiger_import_dch_v0.6_20070808"/>
    <tag k="tiger:tlid" v="152552998:152556151; 152566824:152567808"/>
  </way>
  <way id="37733326" version="11" timestamp="2011-12-30T11:34:53Z" uid="207745" user="NE2" changeset="10244195">
    <nd ref="38509847"/>
    <nd ref="38509849"/>
    <tag k="NHS" v="yes"/>
    <tag k="hgv" v="designated"/>
    <tag k="hgv:national_network" v="yes"/>
    <tag k="highway" v="primary"/>
    <tag k="lanes" v="4"/>
    <tag k="name" v="Northeast 3rd Street"/>
    <tag k="ref" v="US 20;US 97 Business"/>
    <tag k="source:hgv:national_network" v="Title 23: Highways Part 658 http://ecfr.gpoaccess.gov/cgi/t/text/text-idx?c=ecfr&amp;rgn=div5&amp;view=text&amp;node=23:1.0.1.7.33&amp;idno=23"/>
    <tag k="tiger:cfcc" v="A25"/>
    <tag k="tiger:county" v="Deschutes, OR"/>
    <tag k="tiger:name_base" v="Highway 97"/>
    <tag k="tiger:name_base_1" v="United States Highway 97"/>
    <tag k="tiger:name_base_2" v="United States Highway 20; The Dalles-California"/>
    <tag k="tiger:name_base_3" v="The Dalles-California"/>
    <tag k="tiger:name_direction_prefix" v="N"/>
    <tag k="tiger:name_direction_prefix_1" v="N"/>
    <tag k="tiger:name_type_2" v="Hwy"/>
    <tag k="tiger:name_type_3" v="Hwy"/>
    <tag k="tiger:separated" v="yes"/>
    <tag k="tiger:source" v="tiger_import_dch_v0.6_20070808"/>
    <tag k="tiger:tlid" v="152552998:152556151; 152566824:152567808"/>
  </way>
  <way id="37733326" version="12" timestamp="2011-12-30T22:49:57Z" uid="92286" user="Paul Johnson" changeset="10250590">
    <nd ref="38509847"/>
    <nd ref="38509849"/>
    <tag k="NHS" v="yes"/>
    <tag k="cycleway" v="lane"/>
    <tag k="hgv" v="designated"/>
    <tag k="hgv:national_network" v="yes"/>
    <tag k="highway" v="primary"/>
    <tag k="lanes" v="4"/>
    <tag k="name" v="Northeast 3rd Street"/>
    <tag k="ref" v="US 20;US 97B"/>
    <tag k="source:hgv:national_network" v="Title 23: Highways Part 658 http://ecfr.gpoaccess.gov/cgi/t/text/text-idx?c=ecfr&amp;rgn=div5&amp;view=text&amp;node=23:1.0.1.7.33&amp;idno=23"/>
    <tag k="tiger:cfcc" v="A25"/>
    <tag k="tiger:county" v="Deschutes, OR"/>
    <tag k="tiger:name_base" v="Highway 97"/>
    <tag k="tiger:name_base_1" v="United States Highway 97"/>
    <tag k="tiger:name_base_2" v="United States Highway 20; The Dalles-California"/>
    <tag k="tiger:name_base_3" v="The Dalles-California"/>
    <tag k="tiger:name_direction_prefix" v="N"/>
    <tag k="tiger:name_direction_prefix_1" v="N"/>
    <tag k="tiger:name_type_2" v="Hwy"/>
    <tag k="tiger:name_type_3" v="Hwy"/>
    <tag k="tiger:separated" v="yes"/>
    <tag k="tiger:source" v="tiger_import_dch_v0.6_20070808"/>
    <tag k="tiger:tlid" v="152552998:152556151; 152566824:152567808"/>
  </way>
  <way id="37733326" version="13" timestamp="2011-12-31T22:41:23Z" uid="207745" user="NE2" changeset="10258418">
    <nd ref="38509847"/>
    <nd ref="38509849"/>
    <tag k="NHS" v="yes"/>
    <tag k="cycleway" v="lane"/>
    <tag k="hgv" v="designated"/>
    <tag k="hgv:national_network" v="yes"/>
    <tag k="highway" v="primary"/>
    <tag k="lanes" v="4"/>
    <tag k="name" v="Northeast 3rd Street"/>
    <tag k="ref" v="US 20;US 97 Business"/>
    <tag k="source:hgv:national_network" v="Title 23: Highways Part 658 http://ecfr.gpoaccess.gov/cgi/t/text/text-idx?c=ecfr&amp;rgn=div5&amp;view=text&amp;node=23:1.0.1.7.33&amp;idno=23"/>
    <tag k="tiger:cfcc" v="A25"/>
    <tag k="tiger:county" v="Deschutes, OR"/>
    <tag k="tiger:name_base" v="Highway 97"/>
    <tag k="tiger:name_base_1" v="United States Highway 97"/>
    <tag k="tiger:name_base_2" v="United States Highway 20; The Dalles-California"/>
    <tag k="tiger:name_base_3" v="The Dalles-California"/>
    <tag k="tiger:name_direction_prefix" v="N"/>
    <tag k="tiger:name_direction_prefix_1" v="N"/>
    <tag k="tiger:name_type_2" v="Hwy"/>
    <tag k="tiger:name_type_3" v="Hwy"/>
    <tag k="tiger:separated" v="yes"/>
    <tag k="tiger:source" v="tiger_import_dch_v0.6_20070808"/>
    <tag k="tiger:tlid" v="152552998:152556151; 152566824:152567808"/>
  </way>
  <way id="37733365" version="4" timestamp="2010-03-22T06:33:26Z" uid="20587" user="balrog-kun" changeset="4199043">
    <nd ref="265674409"/>
    <nd ref="265674298"/>
    <tag k="bridge" v="yes"/>
    <tag k="highway" v="primary"/>
    <tag k="layer" v="1"/>
    <tag k="name" v="McKenzie-Bend Highway"/>
    <tag k="oneway" v="yes"/>
    <tag k="ref" v="US 20"/>
    <tag k="source" v="Yahoo image"/>
  </way>
  <way id="37733365" version="5" timestamp="2010-08-03T01:21:40Z" uid="63936" user="MojaveNC" changeset="5386172">
    <nd ref="265674409"/>
    <nd ref="265674298"/>
    <tag k="bridge" v="yes"/>
    <tag k="highway" v="motorway_link"/>
    <tag k="lanes" v="1"/>
    <tag k="layer" v="1"/>
    <tag k="name" v="McKenzie-Bend Highway"/>
    <tag k="oneway" v="yes"/>
    <tag k="ref" v="US 20"/>
    <tag k="source" v="Yahoo image"/>
  </way>
  <way id="37733365" version="6" timestamp="2011-07-07T16:26:35Z" uid="473471" user="NE3" changeset="8658775">
    <nd ref="265674409"/>
    <nd ref="265674298"/>
    <tag k="NHS" v="yes"/>
    <tag k="bridge" v="yes"/>
    <tag k="highway" v="motorway_link"/>
    <tag k="lanes" v="1"/>
    <tag k="layer" v="1"/>
    <tag k="name" v="McKenzie-Bend Highway"/>
    <tag k="oneway" v="yes"/>
    <tag k="ref" v="US 20"/>
    <tag k="source" v="Yahoo image"/>
  </way>
  <way id="37733365" version="7" timestamp="2011-11-25T16:52:34Z" uid="207745" user="NE2" changeset="9945867">
    <nd ref="265674409"/>
    <nd ref="265674298"/>
    <tag k="NHS" v="yes"/>
    <tag k="bridge" v="yes"/>
    <tag k="hgv" v="designated"/>
    <tag k="hgv:national_network" v="yes"/>
    <tag k="highway" v="motorway_link"/>
    <tag k="lanes" v="1"/>
    <tag k="layer" v="1"/>
    <tag k="name" v="McKenzie-Bend Highway"/>
    <tag k="oneway" v="yes"/>
    <tag k="ref" v="US 20"/>
    <tag k="source" v="Yahoo image"/>
    <tag k="source:hgv:national_network" v="Title 23: Highways Part 658 http://ecfr.gpoaccess.gov/cgi/t/text/text-idx?c=ecfr&amp;rgn=div5&amp;view=text&amp;node=23:1.0.1.7.33&amp;idno=23"/>
  </way>
  <way id="37733365" version="8" timestamp="2011-12-30T11:34:46Z" uid="207745" user="NE2" changeset="10244195">
    <nd ref="265674409"/>
    <nd ref="265674298"/>
    <tag k="NHS" v="yes"/>
    <tag k="bridge" v="yes"/>
    <tag k="hgv" v="designated"/>
    <tag k="hgv:national_network" v="yes"/>
    <tag k="highway" v="primary"/>
    <tag k="lanes" v="1"/>
    <tag k="layer" v="1"/>
    <tag k="name" v="McKenzie-Bend Highway"/>
    <tag k="oneway" v="yes"/>
    <tag k="ref" v="US 20"/>
    <tag k="source" v="Yahoo image"/>
    <tag k="source:hgv:national_network" v="Title 23: Highways Part 658 http://ecfr.gpoaccess.gov/cgi/t/text/text-idx?c=ecfr&amp;rgn=div5&amp;view=text&amp;node=23:1.0.1.7.33&amp;idno=23"/>
  </way>
  <way id="37733365" version="9" timestamp="2011-12-30T22:49:43Z" uid="92286" user="Paul Johnson" changeset="10250590">
    <nd ref="265674409"/>
    <nd ref="265674298"/>
    <tag k="NHS" v="yes"/>
    <tag k="bridge" v="yes"/>
    <tag k="cycleway" v="lane"/>
    <tag k="hgv" v="designated"/>
    <tag k="hgv:national_network" v="yes"/>
    <tag k="highway" v="primary"/>
    <tag k="lanes" v="1"/>
    <tag k="layer" v="1"/>
    <tag k="name" v="McKenzie-Bend Highway"/>
    <tag k="oneway" v="yes"/>
    <tag k="ref" v="US 20"/>
    <tag k="source" v="Yahoo image"/>
    <tag k="source:hgv:national_network" v="Title 23: Highways Part 658 http://ecfr.gpoaccess.gov/cgi/t/text/text-idx?c=ecfr&amp;rgn=div5&amp;view=text&amp;node=23:1.0.1.7.33&amp;idno=23"/>
  </way>
  <way id="37733372" version="3" timestamp="2010-05-05T15:17:13Z" uid="33382" user="de_muur" changeset="4613859">
    <nd ref="442589432"/>
    <nd ref="30640798"/>
    <nd ref="30640800"/>
    <nd ref="521080073"/>
    <nd ref="426511161"/>
    <tag k="bicycle" v="yes"/>
    <tag k="foot" v="yes"/>
    <tag k="highway" v="cycleway"/>
    <tag k="surface" v="paved"/>
  </way>
  <way id="37733372" version="4" timestamp="2011-06-01T17:42:36Z" uid="45445" user="UScha" changeset="8312303">
    <nd ref="442589432"/>
    <nd ref="30640798"/>
    <nd ref="30640800"/>
    <nd ref="521080073"/>
    <nd ref="426511161"/>
    <tag k="bicycle" v="yes"/>
    <tag k="foot" v="yes"/>
    <tag k="highway" v="path"/>
    <tag k="surface" v="paved"/>
  </way>
  <way id="37733376" version="7" timestamp="2010-04-04T01:17:06Z" uid="20587" user="balrog-kun" changeset="4318136">
    <nd ref="442588912"/>
    <nd ref="442588913"/>
    <nd ref="176070306"/>
    <nd ref="442588914"/>
    <tag k="bridge" v="yes"/>
    <tag k="highway" v="primary"/>
    <tag k="layer" v="1"/>
    <tag k="name" v="East Hampden Avenue"/>
    <tag k="oneway" v="yes"/>
    <tag k="ref" v="US 285"/>
    <tag k="tiger:cfcc" v="A31"/>
    <tag k="tiger:county" v="Denver, CO"/>
    <tag k="tiger:separated" v="no"/>
    <tag k="tiger:source" v="tiger_import_dch_v0.6_20070809"/>
    <tag k="tiger:tlid" v="177344490:177344534:177624877:177344017:177344018:177630593:177344461:177344466:177518864:177344489"/>
    <tag k="tiger:zip_left" v="80231"/>
    <tag k="tiger:zip_right" v="80222"/>
  </way>
  <way id="37733376" version="8" timestamp="2011-06-25T15:49:00Z" uid="473471" user="NE3" changeset="8543716">
    <nd ref="442588912"/>
    <nd ref="442588913"/>
    <nd ref="176070306"/>
    <nd ref="442588914"/>
    <tag k="bridge" v="yes"/>
    <tag k="highway" v="primary"/>
    <tag k="lanes" v="3"/>
    <tag k="layer" v="1"/>
    <tag k="name" v="East Hampden Avenue"/>
    <tag k="oneway" v="yes"/>
    <tag k="ref" v="US 285"/>
    <tag k="tiger:cfcc" v="A31"/>
    <tag k="tiger:county" v="Denver, CO"/>
    <tag k="tiger:separated" v="no"/>
    <tag k="tiger:source" v="tiger_import_dch_v0.6_20070809"/>
    <tag k="tiger:tlid" v="177344490:177344534:177624877:177344017:177344018:177630593:177344461:177344466:177518864:177344489"/>
    <tag k="tiger:zip_left" v="80231"/>
    <tag k="tiger:zip_right" v="80222"/>
  </way>
  <way id="37733376" version="9" timestamp="2011-07-06T22:13:33Z" uid="473471" user="NE3" changeset="8652884">
    <nd ref="442588912"/>
    <nd ref="442588913"/>
    <nd ref="176070306"/>
    <nd ref="442588914"/>
    <tag k="NHS" v="yes"/>
    <tag k="bridge" v="yes"/>
    <tag k="highway" v="primary"/>
    <tag k="lanes" v="3"/>
    <tag k="layer" v="1"/>
    <tag k="name" v="East Hampden Avenue"/>
    <tag k="oneway" v="yes"/>
    <tag k="ref" v="US 285"/>
    <tag k="tiger:cfcc" v="A31"/>
    <tag k="tiger:county" v="Denver, CO"/>
    <tag k="tiger:separated" v="no"/>
    <tag k="tiger:source" v="tiger_import_dch_v0.6_20070809"/>
    <tag k="tiger:tlid" v="177344490:177344534:177624877:177344017:177344018:177630593:177344461:177344466:177518864:177344489"/>
    <tag k="tiger:zip_left" v="80231"/>
    <tag k="tiger:zip_right" v="80222"/>
  </way>
  <way id="37733376" version="10" timestamp="2011-09-07T03:28:54Z" uid="139555" user="DavidJDBA" changeset="9233092">
    <nd ref="442588912"/>
    <nd ref="176070306"/>
    <nd ref="442588914"/>
    <tag k="NHS" v="yes"/>
    <tag k="bridge" v="yes"/>
    <tag k="highway" v="primary"/>
    <tag k="lanes" v="3"/>
    <tag k="layer" v="1"/>
    <tag k="name" v="East Hampden Avenue"/>
    <tag k="oneway" v="yes"/>
    <tag k="ref" v="US 285"/>
    <tag k="tiger:cfcc" v="A31"/>
    <tag k="tiger:county" v="Denver, CO"/>
    <tag k="tiger:separated" v="no"/>
    <tag k="tiger:source" v="tiger_import_dch_v0.6_20070809"/>
    <tag k="tiger:tlid" v="177344490:177344534:177624877:177344017:177344018:177630593:177344461:177344466:177518864:177344489"/>
    <tag k="tiger:zip_left" v="80231"/>
    <tag k="tiger:zip_right" v="80222"/>
  </way>
  <way id="37733376" version="11" timestamp="2011-09-07T03:51:24Z" uid="139555" user="DavidJDBA" changeset="9233156">
    <nd ref="442588912"/>
    <nd ref="442588914"/>
    <tag k="NHS" v="yes"/>
    <tag k="bridge" v="yes"/>
    <tag k="highway" v="primary"/>
    <tag k="lanes" v="3"/>
    <tag k="layer" v="1"/>
    <tag k="name" v="East Hampden Avenue"/>
    <tag k="oneway" v="yes"/>
    <tag k="ref" v="US 285"/>
    <tag k="tiger:cfcc" v="A31"/>
    <tag k="tiger:county" v="Denver, CO"/>
    <tag k="tiger:separated" v="no"/>
    <tag k="tiger:source" v="tiger_import_dch_v0.6_20070809"/>
    <tag k="tiger:tlid" v="177344490:177344534:177624877:177344017:177344018:177630593:177344461:177344466:177518864:177344489"/>
    <tag k="tiger:zip_left" v="80231"/>
    <tag k="tiger:zip_right" v="80222"/>
  </way>
  <way id="37733685" version="2" timestamp="2009-10-30T03:36:46Z" uid="36809" user="pfoten_weg_!_" changeset="2986371">
    <nd ref="442591663"/>
    <nd ref="442591665"/>
    <nd ref="442591666"/>
    <nd ref="442591664"/>
    <nd ref="442591663"/>
  </way>
  <way id="37733685" version="3" timestamp="2009-12-15T22:08:46Z" uid="64756" user="alegria6208" changeset="3383363">
    <nd ref="442591663"/>
    <nd ref="442591665"/>
    <nd ref="442591666"/>
    <nd ref="442591664"/>
    <nd ref="442591663"/>
    <tag k="building" v="yes"/>
  </way>
  <way id="37733686" version="2" timestamp="2009-10-30T03:36:39Z" uid="36809" user="pfoten_weg_!_" changeset="2986371">
    <nd ref="442350828"/>
    <nd ref="442350829"/>
    <tag k="access" v="agricultural"/>
    <tag k="bicycle" v="yes"/>
    <tag k="bridge" v="yes"/>
    <tag k="highway" v="track"/>
    <tag k="hiking" v="yes"/>
    <tag k="layer" v="1"/>
    <tag k="sac_scale" v="hiking"/>
  </way>
  <way id="37733687" version="3" timestamp="2009-10-30T03:36:07Z" uid="36809" user="pfoten_weg_!_" changeset="2986371">
    <nd ref="442350829"/>
    <nd ref="442350830"/>
    <nd ref="442350831"/>
    <nd ref="442350832"/>
    <nd ref="442350833"/>
    <nd ref="442350834"/>
    <nd ref="442350835"/>
    <nd ref="442594846"/>
    <nd ref="442350836"/>
    <nd ref="442350837"/>
    <nd ref="442350838"/>
    <nd ref="442350839"/>
    <nd ref="442594879"/>
    <nd ref="442350840"/>
    <nd ref="442350841"/>
    <nd ref="442350842"/>
    <nd ref="442350843"/>
    <nd ref="442350844"/>
    <nd ref="442350845"/>
    <nd ref="442350846"/>
    <nd ref="442350847"/>
    <nd ref="442591667"/>
    <nd ref="442591668"/>
    <nd ref="442350848"/>
    <tag k="access" v="agricultural"/>
    <tag k="bicycle" v="yes"/>
    <tag k="highway" v="track"/>
    <tag k="hiking" v="yes"/>
    <tag k="sac_scale" v="hiking"/>
  </way>
  <way id="37733718" version="3" timestamp="2009-10-30T03:34:52Z" uid="36809" user="pfoten_weg_!_" changeset="2986371">
    <nd ref="442591901"/>
    <nd ref="442591902"/>
    <nd ref="442591903"/>
    <nd ref="442591904"/>
    <nd ref="442591905"/>
    <nd ref="442591906"/>
    <nd ref="442591907"/>
    <nd ref="442591908"/>
    <nd ref="442591909"/>
    <nd ref="442591910"/>
    <nd ref="442591911"/>
    <nd ref="442591912"/>
    <nd ref="442591913"/>
    <nd ref="442591914"/>
    <nd ref="442591915"/>
    <nd ref="442591916"/>
    <nd ref="442591917"/>
    <nd ref="442591918"/>
    <nd ref="442591919"/>
    <nd ref="442591920"/>
    <nd ref="442591921"/>
    <nd ref="442591922"/>
    <nd ref="442591923"/>
    <nd ref="442591924"/>
    <nd ref="442591925"/>
    <nd ref="442591926"/>
    <nd ref="442591927"/>
    <nd ref="442591928"/>
    <nd ref="442591930"/>
    <nd ref="442591932"/>
    <nd ref="442591933"/>
    <nd ref="442591934"/>
    <nd ref="442591935"/>
    <nd ref="442591936"/>
    <nd ref="442591937"/>
    <nd ref="442591938"/>
    <nd ref="442591939"/>
    <nd ref="442591940"/>
    <nd ref="442591941"/>
    <nd ref="442591942"/>
    <nd ref="442591943"/>
    <nd ref="442591944"/>
    <nd ref="442591945"/>
    <nd ref="442591946"/>
    <nd ref="442591947"/>
    <nd ref="442591948"/>
    <nd ref="442591949"/>
    <nd ref="442591950"/>
    <nd ref="442591951"/>
    <nd ref="442591952"/>
    <nd ref="442591953"/>
    <nd ref="442591954"/>
    <nd ref="442350704"/>
    <tag k="access" v="agricultural"/>
    <tag k="bicycle" v="yes"/>
    <tag k="highway" v="track"/>
    <tag k="hiking" v="yes"/>
    <tag k="mtb" v="yes"/>
    <tag k="sac_scale" v="hiking"/>
  </way>
  <way id="37733736" version="4" timestamp="2010-04-03T04:16:46Z" uid="20587" user="balrog-kun" changeset="4309442">
    <nd ref="444440939"/>
    <nd ref="444440943"/>
    <nd ref="444440944"/>
    <nd ref="444440878"/>
    <nd ref="444440888"/>
    <nd ref="42270465"/>
    <nd ref="41617389"/>
    <tag k="highway" v="service"/>
    <tag k="name" v="East Galveston Street"/>
    <tag k="tiger:cfcc" v="A41"/>
    <tag k="tiger:county" v="Maricopa, AZ"/>
    <tag k="tiger:name_base" v="Galveston"/>
    <tag k="tiger:name_direction_prefix" v="E"/>
    <tag k="tiger:name_type" v="St"/>
    <tag k="tiger:reviewed" v="no"/>
    <tag k="tiger:separated" v="no"/>
    <tag k="tiger:source" v="tiger_import_dch_v0.6_20070809"/>
    <tag k="tiger:tlid" v="128873967:128823638"/>
    <tag k="tiger:zip_left" v="85236"/>
    <tag k="tiger:zip_right" v="85236"/>
  </way>
  <way id="37733736" version="5" timestamp="2012-02-26T23:31:29Z" uid="4111" user="adenium" changeset="10804486">
    <nd ref="1649704370"/>
    <nd ref="444440878"/>
    <nd ref="444440888"/>
    <nd ref="42270465"/>
    <nd ref="41617389"/>
    <tag k="access" v="private"/>
    <tag k="highway" v="service"/>
    <tag k="name" v="East Galveston Street"/>
    <tag k="tiger:cfcc" v="A41"/>
    <tag k="tiger:county" v="Maricopa, AZ"/>
    <tag k="tiger:name_base" v="Galveston"/>
    <tag k="tiger:name_direction_prefix" v="E"/>
    <tag k="tiger:name_type" v="St"/>
    <tag k="tiger:reviewed" v="no"/>
    <tag k="tiger:separated" v="no"/>
    <tag k="tiger:source" v="tiger_import_dch_v0.6_20070809"/>
    <tag k="tiger:tlid" v="128873967:128823638"/>
    <tag k="tiger:zip_left" v="85236"/>
    <tag k="tiger:zip_right" v="85236"/>
  </way>
  <way id="37733804" version="5" timestamp="2010-04-03T04:16:47Z" uid="20587" user="balrog-kun" changeset="4309442">
    <nd ref="442592468"/>
    <nd ref="442592469"/>
    <nd ref="442592489"/>
    <nd ref="442592470"/>
    <nd ref="442592471"/>
    <tag k="highway" v="residential"/>
    <tag k="name" v="South Arroyo Lane"/>
  </way>
  <way id="37733806" version="3" timestamp="2010-04-03T04:16:47Z" uid="20587" user="balrog-kun" changeset="4309442">
    <nd ref="442592377"/>
    <nd ref="442592375"/>
    <nd ref="442592374"/>
    <nd ref="442592373"/>
    <nd ref="442592372"/>
    <nd ref="442592370"/>
    <nd ref="442592368"/>
    <nd ref="442592479"/>
    <nd ref="442592480"/>
    <nd ref="442592481"/>
    <nd ref="442592482"/>
    <nd ref="442592468"/>
    <tag k="highway" v="residential"/>
    <tag k="name" v="East Magen Street"/>
  </way>
  <way id="37733807" version="4" timestamp="2010-04-03T04:16:47Z" uid="20587" user="balrog-kun" changeset="4309442">
    <nd ref="442592377"/>
    <nd ref="442592378"/>
    <nd ref="442592484"/>
    <nd ref="442592380"/>
    <nd ref="442592381"/>
    <tag k="highway" v="residential"/>
    <tag k="name" v="South Cole Drive"/>
  </way>
  <way id="37733810" version="3" timestamp="2010-04-03T04:16:47Z" uid="20587" user="balrog-kun" changeset="4309442">
    <nd ref="442592484"/>
    <nd ref="442592489"/>
    <tag k="highway" v="residential"/>
    <tag k="name" v="East Shannon Street"/>
  </way>
  <way id="37733813" version="5" timestamp="2010-04-03T04:16:47Z" uid="20587" user="balrog-kun" changeset="4309442">
    <nd ref="442592398"/>
    <nd ref="442592396"/>
    <nd ref="442592395"/>
    <nd ref="442592394"/>
    <nd ref="442592393"/>
    <nd ref="442592392"/>
    <nd ref="442592391"/>
    <nd ref="442592566"/>
    <nd ref="442592567"/>
    <nd ref="442592568"/>
    <nd ref="442592569"/>
    <tag k="highway" v="residential"/>
    <tag k="name" v="East Oxford Lane"/>
  </way>
  <way id="37733814" version="5" timestamp="2010-04-03T04:16:47Z" uid="20587" user="balrog-kun" changeset="4309442">
    <nd ref="442592398"/>
    <nd ref="442592400"/>
    <nd ref="442592577"/>
    <nd ref="442592402"/>
    <nd ref="442592403"/>
    <tag k="highway" v="residential"/>
    <tag k="name" v="South Cole Drive"/>
  </way>
  <way id="37733816" version="4" timestamp="2010-04-03T04:16:47Z" uid="20587" user="balrog-kun" changeset="4309442">
    <nd ref="442592408"/>
    <nd ref="442592410"/>
    <tag k="highway" v="residential"/>
    <tag k="name" v="South Tatum Lane"/>
  </way>
  <way id="37733821" version="3" timestamp="2010-04-03T04:16:47Z" uid="20587" user="balrog-kun" changeset="4309442">
    <nd ref="442592577"/>
    <nd ref="442592587"/>
    <tag k="highway" v="residential"/>
    <tag k="name" v="East Ivanhoe Street"/>
  </way>
  <way id="37733828" version="3" timestamp="2010-04-03T04:16:48Z" uid="20587" user="balrog-kun" changeset="4309442">
    <nd ref="442592571"/>
    <nd ref="442592674"/>
    <tag k="highway" v="residential"/>
    <tag k="name" v="East Ivanhoe Street"/>
  </way>
  <way id="37733836" version="5" timestamp="2010-04-03T04:16:48Z" uid="20587" user="balrog-kun" changeset="4309442">
    <nd ref="442592420"/>
    <nd ref="442592422"/>
    <nd ref="442592423"/>
    <nd ref="442592681"/>
    <nd ref="442592682"/>
    <tag k="highway" v="residential"/>
    <tag k="name" v="East Loma Vista Street"/>
  </way>
  <way id="37733838" version="5" timestamp="2010-04-03T04:16:48Z" uid="20587" user="balrog-kun" changeset="4309442">
    <nd ref="442592415"/>
    <nd ref="442592417"/>
    <nd ref="442592688"/>
    <nd ref="442592418"/>
    <nd ref="442592420"/>
    <tag k="highway" v="residential"/>
    <tag k="name" v="South Cole Drive"/>
  </way>
  <way id="37733841" version="3" timestamp="2010-04-03T04:16:48Z" uid="20587" user="balrog-kun" changeset="4309442">
    <nd ref="442592423"/>
    <nd ref="442592424"/>
    <tag k="highway" v="residential"/>
    <tag k="name" v="South Tatum Lane"/>
  </way>
  <way id="37733849" version="4" timestamp="2010-04-03T04:16:48Z" uid="20587" user="balrog-kun" changeset="4309442">
    <nd ref="442592676"/>
    <nd ref="442592677"/>
    <nd ref="442592679"/>
    <nd ref="442592680"/>
    <nd ref="442592410"/>
    <nd ref="442592411"/>
    <nd ref="442592412"/>
    <nd ref="442592413"/>
    <nd ref="442592414"/>
    <nd ref="442592415"/>
    <tag k="highway" v="residential"/>
    <tag k="name" v="East Del Rio Street"/>
  </way>
  <way id="37733850" version="3" timestamp="2010-04-03T04:16:48Z" uid="20587" user="balrog-kun" changeset="4309442">
    <nd ref="442592682"/>
    <nd ref="442592683"/>
    <nd ref="442592684"/>
    <nd ref="442592685"/>
    <nd ref="442592676"/>
    <tag k="highway" v="residential"/>
    <tag k="name" v="South Arroyo Lane"/>
  </way>
  <way id="37733852" version="3" timestamp="2010-04-03T04:16:48Z" uid="20587" user="balrog-kun" changeset="4309442">
    <nd ref="442592684"/>
    <nd ref="442592688"/>
    <tag k="highway" v="residential"/>
    <tag k="name" v="East Bart Street"/>
  </way>
  <way id="37733855" version="5" timestamp="2010-04-03T04:16:48Z" uid="20587" user="balrog-kun" changeset="4309442">
    <nd ref="444438374"/>
    <nd ref="442592697"/>
    <nd ref="442592698"/>
    <nd ref="442592674"/>
    <nd ref="442592748"/>
    <tag k="highway" v="residential"/>
    <tag k="name" v="South Wade Drive"/>
  </way>
  <way id="37733856" version="5" timestamp="2010-04-03T04:16:48Z" uid="20587" user="balrog-kun" changeset="4309442">
    <nd ref="42270448"/>
    <nd ref="42270452"/>
    <nd ref="444437683"/>
    <nd ref="444438047"/>
    <nd ref="444437738"/>
    <nd ref="444437810"/>
    <nd ref="42270454"/>
    <nd ref="444438374"/>
    <nd ref="442592424"/>
    <nd ref="442592700"/>
    <nd ref="442592424"/>
    <tag k="highway" v="residential"/>
    <tag k="name" v="East Galveston Street"/>
    <tag k="tiger:cfcc" v="A41"/>
    <tag k="tiger:county" v="Maricopa, AZ"/>
    <tag k="tiger:name_base" v="Galveston"/>
    <tag k="tiger:name_direction_prefix" v="E"/>
    <tag k="tiger:name_type" v="St"/>
    <tag k="tiger:reviewed" v="no"/>
    <tag k="tiger:separated" v="no"/>
    <tag k="tiger:source" v="tiger_import_dch_v0.6_20070809"/>
    <tag k="tiger:tlid" v="128823638:128873967"/>
    <tag k="tiger:zip_left" v="85236"/>
    <tag k="tiger:zip_right" v="85236"/>
  </way>
  <way id="37733856" version="6" timestamp="2012-02-24T23:53:40Z" uid="4111" user="adenium" changeset="10783829">
    <nd ref="42270448"/>
    <nd ref="42270452"/>
    <nd ref="1646321766"/>
    <nd ref="444437683"/>
    <nd ref="444438047"/>
    <nd ref="444437738"/>
    <nd ref="444437810"/>
    <nd ref="42270454"/>
    <nd ref="444438374"/>
    <nd ref="442592424"/>
    <nd ref="442592700"/>
    <nd ref="442592424"/>
    <tag k="highway" v="residential"/>
    <tag k="name" v="East Galveston Street"/>
    <tag k="tiger:cfcc" v="A41"/>
    <tag k="tiger:county" v="Maricopa, AZ"/>
    <tag k="tiger:name_base" v="Galveston"/>
    <tag k="tiger:name_direction_prefix" v="E"/>
    <tag k="tiger:name_type" v="St"/>
    <tag k="tiger:reviewed" v="no"/>
    <tag k="tiger:separated" v="no"/>
    <tag k="tiger:source" v="tiger_import_dch_v0.6_20070809"/>
    <tag k="tiger:tlid" v="128823638:128873967"/>
    <tag k="tiger:zip_left" v="85236"/>
    <tag k="tiger:zip_right" v="85236"/>
  </way>
  <way id="37733864" version="3" timestamp="2010-04-03T04:16:49Z" uid="20587" user="balrog-kun" changeset="4309442">
    <nd ref="442592763"/>
    <nd ref="442592764"/>
    <nd ref="442592765"/>
    <nd ref="442592766"/>
    <nd ref="442592767"/>
    <nd ref="442592768"/>
    <nd ref="442592769"/>
    <nd ref="442592770"/>
    <nd ref="41936299"/>
    <nd ref="442592368"/>
    <tag k="highway" v="residential"/>
    <tag k="name" v="South Tatum Lane"/>
  </way>
  <way id="37733896" version="5" timestamp="2010-04-03T04:16:49Z" uid="20587" user="balrog-kun" changeset="4309442">
    <nd ref="442592853"/>
    <nd ref="442592855"/>
    <nd ref="442592857"/>
    <nd ref="442592859"/>
    <nd ref="442592860"/>
    <nd ref="442592861"/>
    <nd ref="442592763"/>
    <nd ref="442592929"/>
    <nd ref="442592930"/>
    <nd ref="442592931"/>
    <nd ref="442592932"/>
    <tag k="highway" v="residential"/>
    <tag k="name" v="East Sheffield Road"/>
  </way>
  <way id="37733896" version="6" timestamp="2012-02-19T23:38:16Z" uid="4111" user="adenium" changeset="10736275">
    <nd ref="442592853"/>
    <nd ref="442592855"/>
    <nd ref="442592857"/>
    <nd ref="442592859"/>
    <nd ref="442592860"/>
    <nd ref="442592861"/>
    <nd ref="1639960686"/>
    <nd ref="442592763"/>
    <nd ref="442592929"/>
    <nd ref="442592930"/>
    <nd ref="442592931"/>
    <nd ref="442592932"/>
    <tag k="highway" v="residential"/>
    <tag k="name" v="East Sheffield Road"/>
  </way>
  <way id="37733898" version="3" timestamp="2010-04-03T04:16:49Z" uid="20587" user="balrog-kun" changeset="4309442">
    <nd ref="442592848"/>
    <nd ref="442592850"/>
    <nd ref="442592851"/>
    <nd ref="442592853"/>
    <tag k="highway" v="residential"/>
    <tag k="name" v="South Cole Drive"/>
  </way>
  <way id="37733899" version="4" timestamp="2010-04-03T04:16:49Z" uid="20587" user="balrog-kun" changeset="4309442">
    <nd ref="442592886"/>
    <nd ref="442592841"/>
    <tag k="highway" v="residential"/>
    <tag k="name" v="South Bridgegate Drive"/>
  </way>
  <way id="37733902" version="3" timestamp="2010-04-03T04:16:49Z" uid="20587" user="balrog-kun" changeset="4309442">
    <nd ref="442592893"/>
    <nd ref="442592894"/>
    <nd ref="442592769"/>
    <tag k="highway" v="residential"/>
    <tag k="name" v="East Liberty Lane"/>
  </way>
  <way id="37733904" version="3" timestamp="2010-04-03T04:16:49Z" uid="20587" user="balrog-kun" changeset="4309442">
    <nd ref="442592897"/>
    <nd ref="442592898"/>
    <nd ref="442592895"/>
    <nd ref="442592896"/>
    <nd ref="442592893"/>
    <tag k="highway" v="residential"/>
    <tag k="name" v="South Cole Drive"/>
  </way>
  <way id="37733905" version="3" timestamp="2010-04-03T04:16:50Z" uid="20587" user="balrog-kun" changeset="4309442">
    <nd ref="442592766"/>
    <nd ref="442592901"/>
    <nd ref="442592886"/>
    <nd ref="442592899"/>
    <nd ref="442592900"/>
    <nd ref="442592897"/>
    <tag k="highway" v="residential"/>
    <tag k="name" v="East Betsy Lane"/>
  </way>
  <way id="37733906" version="3" timestamp="2010-04-03T04:16:50Z" uid="20587" user="balrog-kun" changeset="4309442">
    <nd ref="442592895"/>
    <nd ref="442592902"/>
    <tag k="highway" v="residential"/>
    <tag k="name" v="East Constitution Lane"/>
  </way>
  <way id="37733913" version="3" timestamp="2010-04-03T04:16:50Z" uid="20587" user="balrog-kun" changeset="4309442">
    <nd ref="442592935"/>
    <nd ref="442592936"/>
    <nd ref="442592764"/>
    <tag k="highway" v="residential"/>
    <tag k="name" v="East Orchid Lane"/>
  </way>
  <way id="37733914" version="3" timestamp="2010-04-03T04:16:50Z" uid="20587" user="balrog-kun" changeset="4309442">
    <nd ref="442592931"/>
    <nd ref="442592935"/>
    <tag k="highway" v="residential"/>
    <tag k="name" v="South Arroyo Lane"/>
  </way>
  <way id="37733915" version="3" timestamp="2010-04-03T04:16:50Z" uid="20587" user="balrog-kun" changeset="4309442">
    <nd ref="442592768"/>
    <nd ref="442592939"/>
    <tag k="highway" v="residential"/>
    <tag k="name" v="East Constitution Drive"/>
  </way>
  <way id="37733918" version="4" timestamp="2010-04-03T04:16:50Z" uid="20587" user="balrog-kun" changeset="4309442">
    <nd ref="442593032"/>
    <nd ref="442593034"/>
    <nd ref="442593032"/>
    <tag k="highway" v="residential"/>
    <tag k="name" v="South Loback Lane"/>
  </way>
  <way id="37733919" version="3" timestamp="2010-04-03T04:16:50Z" uid="20587" user="balrog-kun" changeset="4309442">
    <nd ref="442592859"/>
    <nd ref="442592981"/>
    <tag k="highway" v="residential"/>
    <tag k="name" v="South Brighton Lane"/>
  </way>
  <way id="37733921" version="4" timestamp="2010-04-03T04:16:50Z" uid="20587" user="balrog-kun" changeset="4309442">
    <nd ref="442592993"/>
    <nd ref="442592994"/>
    <nd ref="442592995"/>
    <nd ref="442592996"/>
    <nd ref="442592997"/>
    <nd ref="442592998"/>
    <nd ref="442592999"/>
    <nd ref="443151997"/>
    <nd ref="442592981"/>
    <nd ref="442592982"/>
    <nd ref="442592983"/>
    <nd ref="442592984"/>
    <nd ref="442592985"/>
    <nd ref="442592986"/>
    <nd ref="442592987"/>
    <tag k="highway" v="residential"/>
    <tag k="name" v="East Jasper Drive"/>
  </way>
  <way id="37733921" version="5" timestamp="2012-02-19T23:38:16Z" uid="4111" user="adenium" changeset="10736275">
    <nd ref="442592993"/>
    <nd ref="442592994"/>
    <nd ref="442592995"/>
    <nd ref="442592996"/>
    <nd ref="442592997"/>
    <nd ref="442592998"/>
    <nd ref="442592999"/>
    <nd ref="443151997"/>
    <nd ref="442592981"/>
    <nd ref="442592982"/>
    <nd ref="1639960630"/>
    <nd ref="442592983"/>
    <nd ref="442592984"/>
    <nd ref="1639960690"/>
    <nd ref="442592985"/>
    <nd ref="442592986"/>
    <nd ref="442592987"/>
    <tag k="highway" v="residential"/>
    <tag k="name" v="East Jasper Drive"/>
  </way>
  <way id="37733922" version="4" timestamp="2010-04-03T04:16:50Z" uid="20587" user="balrog-kun" changeset="4309442">
    <nd ref="442593001"/>
    <nd ref="442593039"/>
    <nd ref="442592993"/>
    <tag k="highway" v="residential"/>
    <tag k="name" v="South Joshua Tree Lane"/>
  </way>
  <way id="37733922" version="5" timestamp="2012-02-19T23:15:13Z" uid="4111" user="adenium" changeset="10736114">
    <nd ref="442593001"/>
    <nd ref="1639941738"/>
    <nd ref="442593039"/>
    <nd ref="442592993"/>
    <tag k="highway" v="residential"/>
    <tag k="name" v="South Joshua Tree Lane"/>
  </way>
  <way id="37733925" version="3" timestamp="2010-04-03T04:16:50Z" uid="20587" user="balrog-kun" changeset="4309442">
    <nd ref="442593032"/>
    <nd ref="442593033"/>
    <nd ref="442593001"/>
    <tag k="highway" v="residential"/>
    <tag k="name" v="East Kent Avenue"/>
  </way>
  <way id="37733927" version="3" timestamp="2010-04-03T04:16:50Z" uid="20587" user="balrog-kun" changeset="4309442">
    <nd ref="442593046"/>
    <nd ref="442593039"/>
    <tag k="highway" v="residential"/>
    <tag k="name" v="East Windsor Drive"/>
  </way>
  <way id="37733929" version="4" timestamp="2010-04-03T04:16:50Z" uid="20587" user="balrog-kun" changeset="4309442">
    <nd ref="442592987"/>
    <nd ref="442592932"/>
    <nd ref="443151748"/>
    <nd ref="442593064"/>
    <tag k="highway" v="residential"/>
    <tag k="name" v="South Wade Drive"/>
  </way>
  <way id="37733946" version="4" timestamp="2010-04-03T04:16:50Z" uid="20587" user="balrog-kun" changeset="4309442">
    <nd ref="442593447"/>
    <nd ref="442593448"/>
    <tag k="highway" v="residential"/>
    <tag k="name" v="East Gail Court"/>
  </way>
  <way id="37733964" version="5" timestamp="2010-04-03T04:16:50Z" uid="20587" user="balrog-kun" changeset="4309442">
    <nd ref="442593448"/>
    <nd ref="442593449"/>
    <nd ref="442593481"/>
    <nd ref="442593482"/>
    <nd ref="442593698"/>
    <nd ref="442593699"/>
    <nd ref="442593563"/>
    <tag k="highway" v="residential"/>
    <tag k="name" v="South Sabino Drive"/>
  </way>
  <way id="37733973" version="3" timestamp="2010-04-03T04:16:51Z" uid="20587" user="balrog-kun" changeset="4309442">
    <nd ref="442593482"/>
    <nd ref="442593483"/>
    <tag k="highway" v="residential"/>
    <tag k="name" v="East Betsy Court"/>
  </way>
  <way id="37733974" version="4" timestamp="2010-04-03T04:16:51Z" uid="20587" user="balrog-kun" changeset="4309442">
    <nd ref="442593696"/>
    <nd ref="442595657"/>
    <nd ref="442593563"/>
    <nd ref="442595696"/>
    <nd ref="442593565"/>
    <tag k="highway" v="residential"/>
    <tag k="name" v="East Constitution Drive"/>
  </way>
  <way id="37733989" version="5" timestamp="2010-04-03T04:16:51Z" uid="20587" user="balrog-kun" changeset="4309442">
    <nd ref="442593813"/>
    <nd ref="442593814"/>
    <tag k="highway" v="residential"/>
    <tag k="name" v="South Hawk Lane"/>
  </way>
  <way id="37733992" version="3" timestamp="2010-04-03T04:16:51Z" uid="20587" user="balrog-kun" changeset="4309442">
    <nd ref="442593815"/>
    <nd ref="442593816"/>
    <tag k="highway" v="residential"/>
    <tag k="name" v="South Pheasant Drive"/>
  </way>
  <way id="37733372" version="5" timestamp="2012-07-17T12:25:26Z" uid="722137" user="OSMF Redaction Account" changeset="12265109">
    <nd ref="442589432"/>
    <nd ref="30640798"/>
    <nd ref="30640800"/>
    <nd ref="521080073"/>
    <nd ref="426511161"/>
    <tag k="highway" v="path"/>
  </way>
</osm>
