<?xml version='1.0' encoding='UTF-8'?>
<osm version="0.6" generator="libosmium/2.20.0">
  <way id="37754016" version="2" timestamp="2010-03-28T10:11:59Z" uid="20587" user="balrog-kun" changeset="4254597">
    <nd ref="57832110"/>
    <nd ref="442862915"/>
    <nd ref="57885815"/>
    <nd ref="57824693"/>
    <nd ref="442862916"/>
    <tag k="highway" v="residential"/>
    <tag k="name" v="Mac Murtry Drive"/>
    <tag k="tiger:cfcc" v="A41"/>
    <tag k="tiger:county" v="Contra Costa, CA"/>
    <tag k="tiger:name_base" v="Mac Murtry"/>
    <tag k="tiger:name_type" v="Dr"/>
    <tag k="tiger:reviewed" v="no"/>
    <tag k="tiger:separated" v="no"/>
    <tag k="tiger:source" v="tiger_import_dch_v0.6_20070809"/>
    <tag k="tiger:tlid" v="192092781:192092782:192036309"/>
    <tag k="tiger:zip_left" v="94553"/>
    <tag k="tiger:zip_right" v="94553"/>
  </way>
  <way id="37754225" version="2" timestamp="2009-11-09T19:52:59Z" uid="171838" user="argrath" changeset="3076925">
    <nd ref="412739411"/>
    <nd ref="442864387"/>
    <nd ref="372158895"/>
    <nd ref="372158875"/>
    <nd ref="372158861"/>
    <nd ref="442864383"/>
    <nd ref="372158826"/>
    <nd ref="372158809"/>
    <nd ref="412491911"/>
    <nd ref="412491910"/>
    <nd ref="372158791"/>
    <nd ref="372158776"/>
    <nd ref="372159307"/>
    <nd ref="372158761"/>
    <tag k="highway" v="primary"/>
    <tag k="name" v="なにわ筋 (Naniwa suji)"/>
    <tag k="name:ja" v="府道41号線"/>
    <tag k="ref" v="41"/>
    <tag k="source" v="MLIT Japan"/>
    <tag k="source:ja" v="国土画像情報（オルソ化空中写真）国土交通省"/>
  </way>
  <way id="37754225" version="3" timestamp="2009-11-26T07:57:04Z" uid="127167" user="ignis" changeset="3218299">
    <nd ref="412739411"/>
    <nd ref="442864387"/>
    <nd ref="372158895"/>
    <nd ref="372158875"/>
    <nd ref="372158861"/>
    <nd ref="442864383"/>
    <nd ref="372158826"/>
    <nd ref="372158809"/>
    <nd ref="412491911"/>
    <nd ref="412491910"/>
    <nd ref="372158791"/>
    <nd ref="372158776"/>
    <nd ref="372159307"/>
    <nd ref="372158761"/>
    <nd ref="571361445"/>
    <nd ref="571361446"/>
    <nd ref="372159413"/>
    <tag k="highway" v="primary"/>
    <tag k="name" v="なにわ筋 (Naniwa suji)"/>
    <tag k="name:ja" v="府道41号線"/>
    <tag k="ref" v="41"/>
    <tag k="source" v="MLIT Japan"/>
    <tag k="source:ja" v="国土画像情報（オルソ化空中写真）国土交通省"/>
  </way>
  <way id="37754225" version="4" timestamp="2010-05-12T11:55:09Z" uid="171838" user="argrath" changeset="4676560">
    <nd ref="412739411"/>
    <nd ref="442864387"/>
    <nd ref="372158895"/>
    <nd ref="372158875"/>
    <nd ref="372158861"/>
    <nd ref="442864383"/>
    <nd ref="372158826"/>
    <nd ref="372158809"/>
    <nd ref="412491911"/>
    <nd ref="412491910"/>
    <nd ref="372158791"/>
    <nd ref="730755221"/>
    <nd ref="372159307"/>
    <nd ref="372158761"/>
    <nd ref="571361445"/>
    <nd ref="571361446"/>
    <nd ref="372159413"/>
    <tag k="highway" v="primary"/>
    <tag k="name" v="なにわ筋 (Naniwa suji)"/>
    <tag k="name:ja" v="府道41号線"/>
    <tag k="ref" v="41"/>
    <tag k="source" v="MLIT Japan"/>
    <tag k="source:ja" v="国土画像情報（オルソ化空中写真）国土交通省"/>
  </way>
  <way id="37754225" version="5" timestamp="2010-07-29T13:18:36Z" uid="171838" user="argrath" changeset="5346649">
    <nd ref="412739411"/>
    <nd ref="442864387"/>
    <nd ref="372158895"/>
    <nd ref="372158875"/>
    <nd ref="372158861"/>
    <nd ref="442864383"/>
    <nd ref="372158826"/>
    <nd ref="372158809"/>
    <nd ref="412491911"/>
    <nd ref="412491910"/>
    <nd ref="837533778"/>
    <nd ref="372158791"/>
    <nd ref="730755221"/>
    <nd ref="372159307"/>
    <nd ref="372158761"/>
    <nd ref="571361445"/>
    <nd ref="571361446"/>
    <nd ref="372159413"/>
    <tag k="highway" v="primary"/>
    <tag k="name" v="なにわ筋 (Naniwa suji)"/>
    <tag k="name:ja" v="府道41号線"/>
    <tag k="ref" v="41"/>
    <tag k="source" v="MLIT Japan"/>
    <tag k="source:ja" v="国土画像情報（オルソ化空中写真）国土交通省"/>
  </way>
  <way id="37754225" version="6" timestamp="2010-10-08T12:31:12Z" uid="171838" user="argrath" changeset="5985679">
    <nd ref="412739411"/>
    <nd ref="442864387"/>
    <nd ref="372158895"/>
    <nd ref="372158875"/>
    <nd ref="372158861"/>
    <nd ref="442864383"/>
    <nd ref="372158826"/>
    <nd ref="372158809"/>
    <nd ref="412491911"/>
    <nd ref="412491910"/>
    <nd ref="837533778"/>
    <nd ref="372158791"/>
    <nd ref="730755221"/>
    <nd ref="372159307"/>
    <nd ref="372158761"/>
    <nd ref="571361445"/>
    <nd ref="571361446"/>
    <nd ref="941389563"/>
    <nd ref="372159413"/>
    <tag k="highway" v="primary"/>
    <tag k="name" v="なにわ筋 (Naniwa suji)"/>
    <tag k="name:ja" v="府道41号線"/>
    <tag k="ref" v="41"/>
    <tag k="source" v="MLIT Japan"/>
    <tag k="source:ja" v="国土画像情報（オルソ化空中写真）国土交通省"/>
  </way>
  <way id="37754225" version="7" timestamp="2011-10-17T15:13:36Z" uid="151227" user="MaryHiroshige" changeset="9582960">
    <nd ref="412739411"/>
    <nd ref="442864387"/>
    <tag k="highway" v="primary"/>
    <tag k="name" v="なにわ筋 (Naniwa suji)"/>
    <tag k="name:ja" v="府道41号線"/>
    <tag k="ref" v="41"/>
    <tag k="source" v="MLIT Japan"/>
    <tag k="source:ja" v="国土画像情報（オルソ化空中写真）国土交通省"/>
    <tag k="yh:LINE_NAME" v="大阪伊丹線"/>
  </way>
  <way id="37754225" version="8" timestamp="2012-02-04T02:18:11Z" uid="151227" user="MaryHiroshige" changeset="10580878"/>
  <way id="37754551" version="2" timestamp="2009-11-18T11:55:49Z" uid="7617" user="Franc" changeset="3149715">
    <nd ref="442867009"/>
    <nd ref="442867010"/>
    <nd ref="566600194"/>
    <nd ref="442867011"/>
    <nd ref="442867012"/>
    <nd ref="442867009"/>
    <tag k="leisure" v="park"/>
    <tag k="name" v="The Lookout"/>
    <tag k="source" v="Yahoo"/>
    <tag k="source:name" v="local_knowledge"/>
  </way>
  <way id="37754585" version="2" timestamp="2010-03-28T10:11:59Z" uid="20587" user="balrog-kun" changeset="4254597">
    <nd ref="57802715"/>
    <nd ref="442867241"/>
    <nd ref="57802717"/>
    <tag k="created_by" v="Potlatch 0.10f"/>
    <tag k="highway" v="residential"/>
    <tag k="name" v="St Moritz Avenue"/>
    <tag k="tiger:cfcc" v="A41"/>
    <tag k="tiger:county" v="Contra Costa, CA"/>
    <tag k="tiger:name_base" v="St Moritz"/>
    <tag k="tiger:name_type" v="Ave"/>
    <tag k="tiger:reviewed" v="no"/>
    <tag k="tiger:separated" v="no"/>
    <tag k="tiger:source" v="tiger_import_dch_v0.6_20070809"/>
    <tag k="tiger:tlid" v="192093016"/>
    <tag k="tiger:zip_left" v="94553"/>
    <tag k="tiger:zip_right" v="94553"/>
  </way>
  <way id="37754585" version="3" timestamp="2010-04-05T12:35:35Z" uid="20587" user="balrog-kun" changeset="4332433">
    <nd ref="57802715"/>
    <nd ref="442867241"/>
    <nd ref="57802717"/>
    <tag k="created_by" v="Potlatch 0.10f"/>
    <tag k="highway" v="residential"/>
    <tag k="name" v="Saint Moritz Avenue"/>
    <tag k="tiger:cfcc" v="A41"/>
    <tag k="tiger:county" v="Contra Costa, CA"/>
    <tag k="tiger:name_base" v="St Moritz"/>
    <tag k="tiger:name_type" v="Ave"/>
    <tag k="tiger:reviewed" v="no"/>
    <tag k="tiger:separated" v="no"/>
    <tag k="tiger:source" v="tiger_import_dch_v0.6_20070809"/>
    <tag k="tiger:tlid" v="192093016"/>
    <tag k="tiger:zip_left" v="94553"/>
    <tag k="tiger:zip_right" v="94553"/>
  </way>
  <way id="37754990" version="2" timestamp="2010-05-22T21:46:43Z" uid="9581" user="Lobelt" changeset="4778711">
    <nd ref="442869964"/>
    <nd ref="345859541"/>
    <nd ref="442869959"/>
    <nd ref="307054067"/>
    <nd ref="745951597"/>
    <nd ref="307054069"/>
    <tag k="highway" v="service"/>
    <tag k="name" v="Werner-Liebrich-Straße"/>
  </way>
  <way id="37754990" version="3" timestamp="2011-09-11T10:05:49Z" uid="505237" user="winnido" changeset="9269335">
    <nd ref="442869964"/>
    <nd ref="345859541"/>
    <nd ref="442869959"/>
    <nd ref="307054067"/>
    <nd ref="745951597"/>
    <nd ref="307054069"/>
    <tag k="highway" v="service"/>
    <tag k="name" v="Werner-Liebrich-Straße"/>
    <tag k="surface" v="asphalt"/>
  </way>
  <way id="37754990" version="4" timestamp="2011-10-03T13:30:18Z" uid="342690" user="Güni_C" changeset="9460201">
    <nd ref="442869964"/>
    <nd ref="345859541"/>
    <nd ref="442869959"/>
    <nd ref="307054067"/>
    <nd ref="745951597"/>
    <nd ref="307054069"/>
    <tag k="highway" v="service"/>
    <tag k="name" v="Werner-Liebrich-Straße"/>
    <tag k="surface" v="asphalt"/>
  </way>
  <way id="37754990" version="5" timestamp="2012-03-03T20:41:26Z" uid="328555" user="peb12345" changeset="10862091">
    <nd ref="442869964"/>
    <nd ref="345859541"/>
    <nd ref="442869959"/>
    <nd ref="307054067"/>
    <nd ref="1658066589"/>
    <nd ref="1658066585"/>
    <tag k="highway" v="service"/>
    <tag k="name" v="Werner-Liebrich-Straße"/>
    <tag k="surface" v="asphalt"/>
  </way>
  <way id="37754551" version="3" timestamp="2012-07-19T19:13:28Z" uid="722137" user="OSMF Redaction Account" changeset="12344468">
    <nd ref="442867009"/>
    <nd ref="442867010"/>
    <nd ref="442867011"/>
    <nd ref="442867012"/>
    <nd ref="442867009"/>
    <tag k="leisure" v="park"/>
    <tag k="name" v="The Lookout"/>
    <tag k="source" v="Yahoo"/>
    <tag k="source:name" v="local_knowledge"/>
  </way>
</osm>
