<?xml version='1.0' encoding='UTF-8'?>
<osm version="0.6" generator="libosmium/2.20.0">
  <way id="37772654" version="3" timestamp="2010-03-28T10:12:02Z" uid="20587" user="balrog-kun" changeset="4254597">
    <nd ref="536292054"/>
    <nd ref="443102364"/>
    <tag k="bridge" v="yes"/>
    <tag k="highway" v="primary"/>
    <tag k="name" v="Foothill Boulevard"/>
    <tag k="old_ref" v="US 66"/>
  </way>
  <way id="37772654" version="4" timestamp="2010-11-22T04:52:46Z" uid="194231" user="Chris Bell in California" changeset="6428825">
    <nd ref="536292054"/>
    <nd ref="443102364"/>
    <tag k="bridge" v="yes"/>
    <tag k="highway" v="primary"/>
    <tag k="layer" v="1"/>
    <tag k="name" v="Foothill Boulevard"/>
    <tag k="old_ref" v="US 66"/>
  </way>
  <way id="37772654" version="5" timestamp="2012-02-01T04:56:02Z" uid="82317" user="AM909" changeset="10555889">
    <nd ref="536292054"/>
    <nd ref="443102364"/>
    <tag k="alt_name" v="Historic Route 66"/>
    <tag k="bridge" v="yes"/>
    <tag k="highway" v="primary"/>
    <tag k="layer" v="1"/>
    <tag k="name" v="Foothill Boulevard"/>
    <tag k="old_ref" v="US 66"/>
  </way>
  <way id="37772864" version="2" timestamp="2010-03-28T10:12:03Z" uid="20587" user="balrog-kun" changeset="4254597">
    <nd ref="353027445"/>
    <nd ref="443104256"/>
    <nd ref="443104257"/>
    <nd ref="443104258"/>
    <nd ref="443104259"/>
    <nd ref="443104260"/>
    <nd ref="442704522"/>
    <tag k="highway" v="primary"/>
    <tag k="name" v="Huntington Drive"/>
    <tag k="old_ref" v="US 66"/>
    <tag k="oneway" v="yes"/>
  </way>
  <way id="37772864" version="3" timestamp="2012-02-01T04:32:11Z" uid="82317" user="AM909" changeset="10555830">
    <nd ref="353027445"/>
    <nd ref="1613868251"/>
    <nd ref="1613868252"/>
    <nd ref="443104257"/>
    <nd ref="443104258"/>
    <nd ref="443104259"/>
    <nd ref="443104260"/>
    <nd ref="442704522"/>
    <tag k="highway" v="primary"/>
    <tag k="name" v="Huntington Drive"/>
    <tag k="old_ref" v="US 66"/>
    <tag k="oneway" v="yes"/>
  </way>
  <way id="37772864" version="4" timestamp="2012-02-01T04:56:03Z" uid="82317" user="AM909" changeset="10555889">
    <nd ref="353027445"/>
    <nd ref="1613868251"/>
    <nd ref="1613868252"/>
    <nd ref="443104257"/>
    <nd ref="443104258"/>
    <nd ref="443104259"/>
    <nd ref="443104260"/>
    <nd ref="1613887214"/>
    <nd ref="1613887212"/>
    <nd ref="442704522"/>
    <tag k="alt_name" v="Historic Route 66"/>
    <tag k="highway" v="primary"/>
    <tag k="name" v="Huntington Drive"/>
    <tag k="old_ref" v="US 66"/>
    <tag k="oneway" v="yes"/>
  </way>
  <way id="37772864" version="5" timestamp="2012-03-23T13:22:00Z" uid="28775" user="StellanL" changeset="11072882">
    <nd ref="1687158788"/>
    <nd ref="1613868252"/>
    <nd ref="443104257"/>
    <nd ref="443104258"/>
    <nd ref="443104259"/>
    <nd ref="443104260"/>
    <nd ref="1613887214"/>
    <nd ref="1613887212"/>
    <nd ref="442704522"/>
    <tag k="alt_name" v="Historic Route 66"/>
    <tag k="highway" v="primary"/>
    <tag k="name" v="Huntington Drive"/>
    <tag k="old_ref" v="US 66"/>
    <tag k="oneway" v="yes"/>
  </way>
  <way id="37772865" version="2" timestamp="2010-03-28T10:12:03Z" uid="20587" user="balrog-kun" changeset="4254597">
    <nd ref="442704522"/>
    <nd ref="443104261"/>
    <nd ref="443104262"/>
    <nd ref="443104227"/>
    <nd ref="443104263"/>
    <nd ref="443104264"/>
    <nd ref="443104265"/>
    <nd ref="353027445"/>
    <tag k="highway" v="primary"/>
    <tag k="name" v="Huntington Drive"/>
    <tag k="old_ref" v="US 66"/>
    <tag k="oneway" v="yes"/>
  </way>
  <way id="37772865" version="3" timestamp="2010-05-08T16:03:14Z" uid="189573" user="DontMapMeBro" changeset="4640222">
    <nd ref="442704522"/>
    <nd ref="443104261"/>
    <nd ref="443104262"/>
    <nd ref="443104227"/>
    <nd ref="443104263"/>
    <nd ref="443104264"/>
    <nd ref="443104265"/>
    <nd ref="726622881"/>
    <nd ref="353027445"/>
    <tag k="highway" v="primary"/>
    <tag k="name" v="Huntington Drive"/>
    <tag k="old_ref" v="US 66"/>
    <tag k="oneway" v="yes"/>
  </way>
  <way id="37772865" version="4" timestamp="2012-02-01T04:32:06Z" uid="82317" user="AM909" changeset="10555830">
    <nd ref="442704522"/>
    <nd ref="443104261"/>
    <nd ref="443104262"/>
    <nd ref="443104227"/>
    <nd ref="443104263"/>
    <nd ref="443104264"/>
    <nd ref="443104265"/>
    <nd ref="726622881"/>
    <nd ref="1613868253"/>
    <nd ref="353027445"/>
    <tag k="highway" v="primary"/>
    <tag k="name" v="Huntington Drive"/>
    <tag k="old_ref" v="US 66"/>
    <tag k="oneway" v="yes"/>
  </way>
  <way id="37772865" version="5" timestamp="2012-02-01T04:56:03Z" uid="82317" user="AM909" changeset="10555889">
    <nd ref="442704522"/>
    <nd ref="1613887213"/>
    <nd ref="443104261"/>
    <nd ref="443104262"/>
    <nd ref="443104227"/>
    <nd ref="443104263"/>
    <nd ref="443104264"/>
    <nd ref="443104265"/>
    <nd ref="726622881"/>
    <nd ref="1613868253"/>
    <nd ref="353027445"/>
    <tag k="alt_name" v="Historic Route 66"/>
    <tag k="highway" v="primary"/>
    <tag k="name" v="Huntington Drive"/>
    <tag k="old_ref" v="US 66"/>
    <tag k="oneway" v="yes"/>
  </way>
  <way id="37772865" version="6" timestamp="2012-03-23T13:22:00Z" uid="28775" user="StellanL" changeset="11072882">
    <nd ref="442704522"/>
    <nd ref="1613887213"/>
    <nd ref="443104261"/>
    <nd ref="443104262"/>
    <nd ref="443104227"/>
    <nd ref="443104263"/>
    <nd ref="443104264"/>
    <nd ref="443104265"/>
    <nd ref="726622881"/>
    <nd ref="353027445"/>
    <tag k="alt_name" v="Historic Route 66"/>
    <tag k="highway" v="primary"/>
    <tag k="name" v="Huntington Drive"/>
    <tag k="old_ref" v="US 66"/>
    <tag k="oneway" v="yes"/>
  </way>
</osm>
