<?xml version='1.0' encoding='UTF-8'?>
<osm version="0.6" generator="libosmium/2.20.0">
  <way id="37993712" version="1" timestamp="2009-07-23T15:50:48Z" uid="36809" user="pfoten_weg_!_" changeset="1916881">
    <nd ref="446219486"/>
    <nd ref="446219465"/>
    <nd ref="446219468"/>
    <nd ref="446219470"/>
    <nd ref="446219471"/>
    <nd ref="446219473"/>
    <nd ref="446219475"/>
    <nd ref="446219477"/>
    <nd ref="446219479"/>
    <nd ref="446219481"/>
    <nd ref="446219483"/>
    <nd ref="446219485"/>
    <nd ref="446219486"/>
    <tag k="building" v="yes"/>
    <tag k="discovered_by" v="RambaZamba"/>
    <tag k="source" v="survey"/>
  </way>
  <way id="37993712" version="2" timestamp="2009-08-30T09:39:20Z" uid="156995" user="HampelZamba" changeset="2310659">
    <nd ref="446219486"/>
    <nd ref="446219465"/>
    <nd ref="446219468"/>
    <nd ref="446219470"/>
    <nd ref="446219471"/>
    <nd ref="446219473"/>
    <nd ref="446219475"/>
    <nd ref="446219477"/>
    <nd ref="446219479"/>
    <nd ref="446219481"/>
    <nd ref="446219483"/>
    <nd ref="446219485"/>
    <nd ref="446219486"/>
    <tag k="building" v="yes"/>
    <tag k="source" v="survey"/>
  </way>
  <way id="37993712" version="3" timestamp="2011-03-27T11:23:15Z" uid="44811" user="laufstar1" changeset="7684832">
    <nd ref="446219486"/>
    <nd ref="446219465"/>
    <nd ref="446219468"/>
    <nd ref="446219470"/>
    <nd ref="446219471"/>
    <nd ref="446219473"/>
    <nd ref="446219475"/>
    <nd ref="446219477"/>
    <nd ref="446219479"/>
    <nd ref="446219481"/>
    <nd ref="446219483"/>
    <nd ref="446219485"/>
    <nd ref="446219486"/>
    <tag k="building" v="yes"/>
    <tag k="name" v="TechnoMarkt"/>
    <tag k="shop" v="electronics"/>
    <tag k="source" v="survey"/>
  </way>
  <way id="37993712" version="4" timestamp="2011-03-27T11:24:11Z" uid="44811" user="laufstar1" changeset="7684832">
    <nd ref="446219486"/>
    <nd ref="446219465"/>
    <nd ref="446219468"/>
    <nd ref="446219470"/>
    <nd ref="446219471"/>
    <nd ref="446219473"/>
    <nd ref="446219475"/>
    <nd ref="446219477"/>
    <nd ref="446219479"/>
    <nd ref="446219481"/>
    <nd ref="446219483"/>
    <nd ref="446219485"/>
    <nd ref="446219486"/>
    <tag k="addr:city" v="Gräfelfing"/>
    <tag k="addr:country" v="DE"/>
    <tag k="addr:postcode" v="82166"/>
    <tag k="building" v="yes"/>
    <tag k="name" v="expert TechnoMarkt"/>
    <tag k="shop" v="electronics"/>
    <tag k="source" v="survey"/>
  </way>
  <way id="37993712" version="5" timestamp="2011-03-27T11:24:35Z" uid="44811" user="laufstar1" changeset="7684832">
    <nd ref="446219486"/>
    <nd ref="446219465"/>
    <nd ref="446219468"/>
    <nd ref="446219470"/>
    <nd ref="446219471"/>
    <nd ref="446219473"/>
    <nd ref="446219475"/>
    <nd ref="446219477"/>
    <nd ref="446219479"/>
    <nd ref="446219481"/>
    <nd ref="446219483"/>
    <nd ref="446219485"/>
    <nd ref="446219486"/>
    <tag k="addr:city" v="Gräfelfing"/>
    <tag k="addr:country" v="DE"/>
    <tag k="addr:postcode" v="82166"/>
    <tag k="addr:street" v="Kleinhaderner Weg"/>
    <tag k="building" v="yes"/>
    <tag k="name" v="expert TechnoMarkt"/>
    <tag k="shop" v="electronics"/>
    <tag k="source" v="survey"/>
  </way>
  <way id="37993712" version="6" timestamp="2011-03-27T11:25:16Z" uid="44811" user="laufstar1" changeset="7684832">
    <nd ref="446219486"/>
    <nd ref="446219465"/>
    <nd ref="446219468"/>
    <nd ref="446219470"/>
    <nd ref="446219471"/>
    <nd ref="446219473"/>
    <nd ref="446219475"/>
    <nd ref="446219477"/>
    <nd ref="446219479"/>
    <nd ref="446219481"/>
    <nd ref="446219483"/>
    <nd ref="446219485"/>
    <nd ref="446219486"/>
    <tag k="addr:city" v="Gräfelfing"/>
    <tag k="addr:country" v="DE"/>
    <tag k="addr:housenumber" v="94"/>
    <tag k="addr:postcode" v="82166"/>
    <tag k="addr:street" v="Pasinger Straße"/>
    <tag k="building" v="yes"/>
    <tag k="name" v="expert TechnoMarkt"/>
    <tag k="shop" v="electronics"/>
    <tag k="source" v="survey"/>
  </way>
  <way id="37993712" version="7" timestamp="2011-03-27T11:25:41Z" uid="44811" user="laufstar1" changeset="7684832">
    <nd ref="446219486"/>
    <nd ref="446219465"/>
    <nd ref="446219468"/>
    <nd ref="446219470"/>
    <nd ref="446219471"/>
    <nd ref="446219473"/>
    <nd ref="446219475"/>
    <nd ref="446219477"/>
    <nd ref="446219479"/>
    <nd ref="446219481"/>
    <nd ref="446219483"/>
    <nd ref="446219485"/>
    <nd ref="446219486"/>
    <tag k="addr:city" v="Gräfelfing"/>
    <tag k="addr:country" v="DE"/>
    <tag k="addr:housenumber" v="94"/>
    <tag k="addr:postcode" v="82166"/>
    <tag k="addr:street" v="Pasinger Straße"/>
    <tag k="building" v="yes"/>
    <tag k="name" v="expert TechnoMarkt"/>
    <tag k="phone" v="0898955800"/>
    <tag k="shop" v="electronics"/>
    <tag k="source" v="survey"/>
  </way>
  <way id="37993713" version="1" timestamp="2009-07-23T15:50:48Z" uid="36809" user="pfoten_weg_!_" changeset="1916881">
    <nd ref="446219497"/>
    <nd ref="446219488"/>
    <nd ref="446219493"/>
    <nd ref="446219492"/>
    <nd ref="446219499"/>
    <nd ref="446219495"/>
    <nd ref="446219490"/>
    <nd ref="446219497"/>
    <tag k="amenity" v="parking"/>
    <tag k="discovered_by" v="RambaZamba"/>
    <tag k="source" v="survey"/>
  </way>
  <way id="37993713" version="2" timestamp="2009-08-30T09:39:21Z" uid="156995" user="HampelZamba" changeset="2310659">
    <nd ref="446219497"/>
    <nd ref="446219488"/>
    <nd ref="446219493"/>
    <nd ref="446219492"/>
    <nd ref="446219499"/>
    <nd ref="446219495"/>
    <nd ref="446219490"/>
    <nd ref="446219497"/>
    <tag k="amenity" v="parking"/>
    <tag k="source" v="survey"/>
  </way>
  <way id="37993713" version="3" timestamp="2011-01-12T09:39:13Z" uid="29061" user="KPG" changeset="6945023">
    <nd ref="446219497"/>
    <nd ref="446219488"/>
    <nd ref="1099465626"/>
    <nd ref="446219493"/>
    <nd ref="446219492"/>
    <nd ref="446219499"/>
    <nd ref="1099465538"/>
    <nd ref="446219495"/>
    <nd ref="1099465480"/>
    <nd ref="446219490"/>
    <nd ref="1099465637"/>
    <nd ref="446219497"/>
    <tag k="amenity" v="parking"/>
    <tag k="source" v="survey"/>
  </way>
  <way id="37993715" version="1" timestamp="2009-07-23T15:50:48Z" uid="36809" user="pfoten_weg_!_" changeset="1916881">
    <nd ref="234790"/>
    <nd ref="446219503"/>
    <nd ref="446219510"/>
    <tag k="discovered_by" v="RambaZamba"/>
    <tag k="highway" v="residential"/>
    <tag k="maxspeed" v="50"/>
    <tag k="name" v="Kleinhadener Weg"/>
    <tag k="postal_code" v="82166"/>
    <tag k="source" v="survey"/>
  </way>
  <way id="37993715" version="2" timestamp="2009-08-30T09:39:21Z" uid="156995" user="HampelZamba" changeset="2310659">
    <nd ref="234790"/>
    <nd ref="446219503"/>
    <nd ref="446219510"/>
    <tag k="highway" v="residential"/>
    <tag k="maxspeed" v="50"/>
    <tag k="name" v="Kleinhadener Weg"/>
    <tag k="postal_code" v="82166"/>
    <tag k="source" v="survey"/>
  </way>
  <way id="37993715" version="3" timestamp="2011-01-12T09:39:14Z" uid="29061" user="KPG" changeset="6945023">
    <nd ref="234790"/>
    <nd ref="1099465470"/>
    <nd ref="1099465427"/>
    <nd ref="446219503"/>
    <nd ref="446219510"/>
    <tag k="highway" v="residential"/>
    <tag k="maxspeed" v="50"/>
    <tag k="name" v="Kleinhadener Weg"/>
    <tag k="postal_code" v="82166"/>
    <tag k="source" v="survey"/>
  </way>
  <way id="37993715" version="4" timestamp="2012-03-13T00:00:06Z" uid="2675" user="Eckhart Wörner" changeset="10962040">
    <nd ref="234790"/>
    <nd ref="1099465470"/>
    <nd ref="1099465427"/>
    <tag k="highway" v="residential"/>
    <tag k="maxspeed" v="50"/>
    <tag k="name" v="Kleinhadener Weg"/>
    <tag k="postal_code" v="82166"/>
    <tag k="source" v="survey"/>
  </way>
  <way id="37993716" version="1" timestamp="2009-07-23T15:50:48Z" uid="36809" user="pfoten_weg_!_" changeset="1916881">
    <nd ref="446219503"/>
    <nd ref="446219505"/>
    <nd ref="446219501"/>
    <nd ref="446219508"/>
    <tag k="discovered_by" v="RambaZamba"/>
    <tag k="highway" v="service"/>
    <tag k="note" v="FIXME: check/rework required"/>
    <tag k="source" v="survey"/>
  </way>
  <way id="37993716" version="2" timestamp="2009-08-30T09:39:21Z" uid="156995" user="HampelZamba" changeset="2310659">
    <nd ref="446219503"/>
    <nd ref="446219505"/>
    <nd ref="446219501"/>
    <nd ref="446219508"/>
    <tag k="highway" v="service"/>
    <tag k="note" v="FIXME: check/rework required"/>
    <tag k="source" v="survey"/>
  </way>
  <way id="37993717" version="1" timestamp="2009-07-23T15:50:48Z" uid="36809" user="pfoten_weg_!_" changeset="1916881">
    <nd ref="446219508"/>
    <nd ref="446219506"/>
    <nd ref="446219505"/>
    <tag k="discovered_by" v="RambaZamba"/>
    <tag k="highway" v="service"/>
    <tag k="note" v="FIXME: check/rework required"/>
    <tag k="source" v="survey"/>
  </way>
  <way id="37993717" version="2" timestamp="2009-08-30T09:39:21Z" uid="156995" user="HampelZamba" changeset="2310659">
    <nd ref="446219508"/>
    <nd ref="446219506"/>
    <nd ref="446219505"/>
    <tag k="highway" v="service"/>
    <tag k="note" v="FIXME: check/rework required"/>
    <tag k="source" v="survey"/>
  </way>
  <way id="37993712" version="8" timestamp="2012-04-16T12:23:34Z" uid="342705" user="KLMB" changeset="11321520">
    <nd ref="446219486"/>
    <nd ref="446219465"/>
    <nd ref="446219468"/>
    <nd ref="446219470"/>
    <nd ref="446219471"/>
    <nd ref="446219473"/>
    <nd ref="446219475"/>
    <nd ref="446219477"/>
    <nd ref="446219479"/>
    <nd ref="446219481"/>
    <nd ref="446219483"/>
    <nd ref="446219485"/>
    <nd ref="446219486"/>
    <tag k="addr:city" v="Gräfelfing"/>
    <tag k="addr:country" v="DE"/>
    <tag k="addr:housenumber" v="94"/>
    <tag k="addr:postcode" v="82166"/>
    <tag k="addr:street" v="Pasinger Straße"/>
    <tag k="name" v="expert TechnoMarkt"/>
    <tag k="phone" v="0898955800"/>
    <tag k="shop" v="electronics"/>
    <tag k="source" v="survey"/>
  </way>
  <way id="37993712" version="9" timestamp="2012-04-29T15:36:06Z" uid="16290" user="MichaelK" changeset="11451051"/>
  <way id="37993713" version="4" timestamp="2012-04-16T12:23:47Z" uid="342705" user="KLMB" changeset="11321520"/>
  <way id="37993715" version="5" timestamp="2012-04-08T08:03:47Z" uid="13832" user="Peter14" changeset="11221922"/>
  <way id="37993716" version="3" timestamp="2012-04-16T12:23:46Z" uid="342705" user="KLMB" changeset="11321520"/>
  <way id="37993717" version="3" timestamp="2012-04-16T12:23:46Z" uid="342705" user="KLMB" changeset="11321520"/>
</osm>
