<?xml version='1.0' encoding='UTF-8'?>
<osm version="0.6" generator="libosmium/2.20.0">
  <way id="38085080" version="3" timestamp="2009-10-08T23:01:08Z" uid="179968" user="Ich_hasse_doitsche_OSM-Korinthenkacker" changeset="2788677">
    <nd ref="61189312"/>
    <nd ref="419754061"/>
    <nd ref="61189314"/>
    <nd ref="61192743"/>
    <tag k="highway" v="pedestrian"/>
    <tag k="name" v="Kalvarienweg"/>
    <tag k="postal_code" v="26736"/>
    <tag k="source" v="GPS"/>
  </way>
  <way id="38085090" version="1" timestamp="2009-07-25T18:51:50Z" uid="149740" user="manel-nina" changeset="1937523">
    <nd ref="447941666"/>
    <nd ref="447941668"/>
    <nd ref="447941669"/>
    <nd ref="447941666"/>
  </way>
  <way id="38085090" version="2" timestamp="2011-10-05T10:13:24Z" uid="293774" user="Oli-Wan" changeset="9476800"/>
  <way id="38085154" version="3" timestamp="2009-10-08T23:00:22Z" uid="179968" user="Ich_hasse_doitsche_OSM-Korinthenkacker" changeset="2788677">
    <nd ref="61194742"/>
    <nd ref="206268933"/>
    <nd ref="110195598"/>
    <nd ref="447873404"/>
    <nd ref="61194740"/>
    <nd ref="61194739"/>
    <nd ref="61203775"/>
    <tag k="highway" v="pedestrian"/>
    <tag k="motorcar" v="permissive"/>
    <tag k="name" v="Schatthauser Weg"/>
    <tag k="postal_code" v="26736"/>
    <tag k="source" v="GPS"/>
  </way>
  <way id="38085291" version="7" timestamp="2010-04-03T04:17:45Z" uid="20587" user="balrog-kun" changeset="4309442">
    <nd ref="175307982"/>
    <nd ref="175307979"/>
    <nd ref="175307971"/>
    <nd ref="175307967"/>
    <nd ref="175297781"/>
    <nd ref="175307964"/>
    <nd ref="175307960"/>
    <nd ref="175307949"/>
    <tag k="highway" v="secondary"/>
    <tag k="name" v="East 22nd Street"/>
    <tag k="oneway" v="yes"/>
    <tag k="tiger:cfcc" v="A41"/>
    <tag k="tiger:county" v="Pima, AZ"/>
    <tag k="tiger:name_base" v="22nd"/>
    <tag k="tiger:name_direction_prefix" v="E"/>
    <tag k="tiger:name_type" v="St"/>
    <tag k="tiger:reviewed" v="no"/>
    <tag k="tiger:separated" v="no"/>
    <tag k="tiger:source" v="tiger_import_dch_v0.6_20070809"/>
    <tag k="tiger:tlid" v="121388214:121388178:121388179:121412911:121412912:121382541:121188609:121407955"/>
    <tag k="tiger:zip_left" v="85748"/>
    <tag k="tiger:zip_right" v="85748"/>
  </way>
  <way id="38085292" version="3" timestamp="2010-04-03T04:17:45Z" uid="20587" user="balrog-kun" changeset="4309442">
    <nd ref="175307949"/>
    <nd ref="175307946"/>
    <tag k="bridge" v="yes"/>
    <tag k="highway" v="secondary"/>
    <tag k="layer" v="1"/>
    <tag k="name" v="East 22nd Street"/>
    <tag k="oneway" v="yes"/>
    <tag k="tiger:cfcc" v="A41"/>
    <tag k="tiger:county" v="Pima, AZ"/>
    <tag k="tiger:name_base" v="22nd"/>
    <tag k="tiger:name_direction_prefix" v="E"/>
    <tag k="tiger:name_type" v="St"/>
    <tag k="tiger:reviewed" v="no"/>
    <tag k="tiger:separated" v="no"/>
    <tag k="tiger:source" v="tiger_import_dch_v0.6_20070809"/>
    <tag k="tiger:tlid" v="121388214:121388178:121388179:121412911:121412912:121382541:121188609:121407955"/>
    <tag k="tiger:zip_left" v="85748"/>
    <tag k="tiger:zip_right" v="85748"/>
  </way>
  <way id="38085756" version="3" timestamp="2009-09-24T09:18:34Z" uid="115477" user="wowik" changeset="2603682">
    <nd ref="253713478"/>
    <nd ref="253721410"/>
    <nd ref="250638693"/>
    <nd ref="250638715"/>
    <tag k="addr:postcode" v="115054"/>
    <tag k="cladr:code" v="77000000000092700"/>
    <tag k="cladr:name" v="Валовая"/>
    <tag k="cladr:suffix" v="Улица"/>
    <tag k="highway" v="primary"/>
    <tag k="name" v="Валовая ул."/>
    <tag k="oneway" v="yes"/>
  </way>
  <way id="38085756" version="4" timestamp="2009-11-11T19:14:18Z" uid="11132" user="liosha" changeset="3092781">
    <nd ref="253713478"/>
    <nd ref="253721410"/>
    <nd ref="250638693"/>
    <nd ref="250638715"/>
    <tag k="addr:postcode" v="115054"/>
    <tag k="cladr:code" v="77000000000092700"/>
    <tag k="cladr:name" v="Валовая"/>
    <tag k="cladr:suffix" v="Улица"/>
    <tag k="highway" v="primary"/>
    <tag k="name" v="Валовая улица"/>
    <tag k="omkum:code" v="02800"/>
    <tag k="omkum:old_name" v="улица Зацепский Вал (до 1917 г.)"/>
    <tag k="oneway" v="yes"/>
    <tag k="sorting_name" v="Валовая  улица"/>
  </way>
  <way id="38085756" version="5" timestamp="2010-03-01T20:05:29Z" uid="69625" user="Eugene120" changeset="4011799">
    <nd ref="253713478"/>
    <nd ref="253721410"/>
    <nd ref="250638693"/>
    <nd ref="658755645"/>
    <nd ref="250638715"/>
    <tag k="addr:postcode" v="115054"/>
    <tag k="cladr:code" v="77000000000092700"/>
    <tag k="cladr:name" v="Валовая"/>
    <tag k="cladr:suffix" v="Улица"/>
    <tag k="highway" v="primary"/>
    <tag k="name" v="Валовая улица"/>
    <tag k="omkum:code" v="02800"/>
    <tag k="omkum:old_name" v="улица Зацепский Вал (до 1917 г.)"/>
    <tag k="oneway" v="yes"/>
    <tag k="sorting_name" v="Валовая  улица"/>
  </way>
  <way id="38085756" version="6" timestamp="2010-04-01T04:51:03Z" uid="30590" user="KekcuHa" changeset="4291110">
    <nd ref="253713478"/>
    <nd ref="253721410"/>
    <nd ref="250638693"/>
    <nd ref="250638715"/>
    <tag k="addr:postcode" v="115054"/>
    <tag k="cladr:code" v="77000000000092700"/>
    <tag k="cladr:name" v="Валовая"/>
    <tag k="cladr:suffix" v="Улица"/>
    <tag k="highway" v="primary"/>
    <tag k="name" v="Валовая улица"/>
    <tag k="omkum:code" v="02800"/>
    <tag k="omkum:old_name" v="улица Зацепский Вал (до 1917 г.)"/>
    <tag k="oneway" v="yes"/>
    <tag k="sorting_name" v="Валовая  улица"/>
  </way>
  <way id="38085756" version="7" timestamp="2010-04-23T09:27:42Z" uid="30590" user="KekcuHa" changeset="4501957">
    <nd ref="253713478"/>
    <nd ref="253721410"/>
    <nd ref="250638693"/>
    <nd ref="250638715"/>
    <tag k="addr:postcode" v="115054"/>
    <tag k="cladr:code" v="77000000000092700"/>
    <tag k="cladr:name" v="Валовая"/>
    <tag k="cladr:suffix" v="Улица"/>
    <tag k="highway" v="primary"/>
    <tag k="lanes" v="3"/>
    <tag k="name" v="Валовая улица"/>
    <tag k="omkum:code" v="02800"/>
    <tag k="omkum:old_name" v="улица Зацепский Вал (до 1917 г.)"/>
    <tag k="oneway" v="yes"/>
    <tag k="sorting_name" v="Валовая  улица"/>
  </way>
  <way id="38085756" version="8" timestamp="2011-03-05T11:28:46Z" uid="316868" user="LexIgnatov" changeset="7462073">
    <nd ref="253713478"/>
    <nd ref="253721410"/>
    <nd ref="250638693"/>
    <nd ref="1187075777"/>
    <nd ref="250638715"/>
    <tag k="addr:postcode" v="115054"/>
    <tag k="cladr:code" v="77000000000092700"/>
    <tag k="cladr:name" v="Валовая"/>
    <tag k="cladr:suffix" v="Улица"/>
    <tag k="highway" v="primary"/>
    <tag k="lanes" v="3"/>
    <tag k="name" v="Валовая улица"/>
    <tag k="omkum:code" v="02800"/>
    <tag k="omkum:old_name" v="улица Зацепский Вал (до 1917 г.)"/>
    <tag k="oneway" v="yes"/>
    <tag k="sorting_name" v="Валовая  улица"/>
  </way>
  <way id="38085756" version="9" timestamp="2011-03-05T14:05:05Z" uid="316868" user="LexIgnatov" changeset="7463531">
    <nd ref="1187250361"/>
    <nd ref="1187138830"/>
    <nd ref="250638693"/>
    <nd ref="1187075777"/>
    <nd ref="1187200097"/>
    <tag k="addr:postcode" v="115054"/>
    <tag k="cladr:code" v="77000000000092700"/>
    <tag k="cladr:name" v="Валовая"/>
    <tag k="cladr:suffix" v="Улица"/>
    <tag k="highway" v="primary"/>
    <tag k="lanes" v="3"/>
    <tag k="name" v="Валовая улица"/>
    <tag k="omkum:code" v="02800"/>
    <tag k="omkum:old_name" v="улица Зацепский Вал (до 1917 г.)"/>
    <tag k="oneway" v="yes"/>
    <tag k="sorting_name" v="Валовая  улица"/>
  </way>
  <way id="38085756" version="10" timestamp="2011-09-28T13:01:13Z" uid="397326" user="trolleway" changeset="9419476">
    <nd ref="1187250361"/>
    <nd ref="1187138830"/>
    <nd ref="250638693"/>
    <tag k="addr:postcode" v="115054"/>
    <tag k="cladr:code" v="77000000000092700"/>
    <tag k="cladr:name" v="Валовая"/>
    <tag k="cladr:suffix" v="Улица"/>
    <tag k="highway" v="primary"/>
    <tag k="lanes" v="3"/>
    <tag k="name" v="Валовая улица"/>
    <tag k="omkum:code" v="02800"/>
    <tag k="omkum:old_name" v="улица Зацепский Вал (до 1917 г.)"/>
    <tag k="oneway" v="yes"/>
    <tag k="sorting_name" v="Валовая  улица"/>
  </way>
  <way id="38085756" version="11" timestamp="2012-01-20T13:58:45Z" uid="373453" user="Helium" changeset="10446592">
    <nd ref="1187250361"/>
    <nd ref="1187138830"/>
    <nd ref="1598906556"/>
    <nd ref="250638693"/>
    <tag k="addr:postcode" v="115054"/>
    <tag k="cladr:code" v="77000000000092700"/>
    <tag k="cladr:name" v="Валовая"/>
    <tag k="cladr:suffix" v="Улица"/>
    <tag k="highway" v="primary"/>
    <tag k="lanes" v="3"/>
    <tag k="name" v="Валовая улица"/>
    <tag k="omkum:code" v="02800"/>
    <tag k="omkum:old_name" v="улица Зацепский Вал (до 1917 г.)"/>
    <tag k="oneway" v="yes"/>
    <tag k="sorting_name" v="Валовая  улица"/>
  </way>
  <way id="38085756" version="12" timestamp="2012-03-11T13:38:20Z" uid="421825" user="asdqweasd" changeset="10942382">
    <nd ref="1187250361"/>
    <nd ref="1187138830"/>
    <nd ref="1598906556"/>
    <nd ref="250638693"/>
    <tag k="addr:postcode" v="115054"/>
    <tag k="cladr:code" v="77000000000092700"/>
    <tag k="cladr:name" v="Валовая"/>
    <tag k="cladr:suffix" v="Улица"/>
    <tag k="highway" v="primary"/>
    <tag k="lanes" v="5"/>
    <tag k="name" v="Валовая улица"/>
    <tag k="omkum:code" v="02800"/>
    <tag k="omkum:old_name" v="улица Зацепский Вал (до 1917 г.)"/>
    <tag k="oneway" v="yes"/>
    <tag k="sorting_name" v="Валовая  улица"/>
  </way>
  <way id="38085756" version="13" timestamp="2012-03-22T08:10:03Z" uid="336354" user="esaulenka" changeset="11060163"/>
  <way id="38085080" version="4" timestamp="2012-05-21T06:38:10Z" uid="414856" user="tempi" changeset="11658469"/>
  <way id="38085154" version="4" timestamp="2012-05-21T06:38:19Z" uid="414856" user="tempi" changeset="11658469"/>
</osm>
