<?xml version='1.0' encoding='UTF-8'?>
<osm version="0.6" generator="libosmium/2.20.0">
  <way id="38169198" version="2" timestamp="2009-08-04T16:50:42Z" uid="74617" user="JohnSmith" changeset="2037541"/>
  <way id="38169283" version="2" timestamp="2010-04-07T13:43:20Z" uid="20587" user="balrog-kun" changeset="4353646">
    <nd ref="449430026"/>
    <nd ref="151579217"/>
    <nd ref="151579202"/>
    <tag k="highway" v="secondary"/>
    <tag k="name" v="Old Kyle Road"/>
    <tag k="ref" v="Old Kyle Road"/>
    <tag k="tiger:cfcc" v="A41"/>
    <tag k="tiger:county" v="Hays, TX"/>
    <tag k="tiger:name_base" v="Old Kyle Road"/>
    <tag k="tiger:name_base_1" v="Old Kyle Road"/>
    <tag k="tiger:name_base_2" v="Farm-to-Market Road 3237"/>
    <tag k="tiger:name_type" v="Rd"/>
    <tag k="tiger:reviewed" v="no"/>
    <tag k="tiger:separated" v="no"/>
    <tag k="tiger:source" v="tiger_import_dch_v0.6_20070830"/>
    <tag k="tiger:tlid" v="63844341:63840459:63831312:63845900:63833072:63833050:63833048:63833049:63845899:63841949:63834444:63839552:63839553:63845765:63845766:63831361:63831145:63843912"/>
  </way>
  <way id="38169283" version="3" timestamp="2011-08-21T01:11:44Z" uid="119881" user="Clorox" changeset="9080062">
    <nd ref="151579217"/>
    <nd ref="151579202"/>
    <tag k="highway" v="secondary"/>
    <tag k="name" v="Old Kyle Road"/>
    <tag k="ref" v="Old Kyle Road"/>
    <tag k="tiger:cfcc" v="A41"/>
    <tag k="tiger:county" v="Hays, TX"/>
    <tag k="tiger:name_base" v="Old Kyle Road"/>
    <tag k="tiger:name_base_1" v="Old Kyle Road"/>
    <tag k="tiger:name_base_2" v="Farm-to-Market Road 3237"/>
    <tag k="tiger:name_type" v="Rd"/>
    <tag k="tiger:reviewed" v="no"/>
    <tag k="tiger:separated" v="no"/>
    <tag k="tiger:source" v="tiger_import_dch_v0.6_20070830"/>
    <tag k="tiger:tlid" v="63844341:63840459:63831312:63845900:63833072:63833050:63833048:63833049:63845899:63841949:63834444:63839552:63839553:63845765:63845766:63831361:63831145:63843912"/>
  </way>
  <way id="38169283" version="4" timestamp="2011-08-21T01:12:54Z" uid="119881" user="Clorox" changeset="9080062">
    <nd ref="151579202"/>
    <nd ref="151579217"/>
    <tag k="highway" v="secondary_link"/>
    <tag k="oneway" v="yes"/>
    <tag k="tiger:cfcc" v="A41"/>
    <tag k="tiger:county" v="Hays, TX"/>
    <tag k="tiger:name_base" v="Old Kyle Road"/>
    <tag k="tiger:name_base_1" v="Old Kyle Road"/>
    <tag k="tiger:name_base_2" v="Farm-to-Market Road 3237"/>
    <tag k="tiger:name_type" v="Rd"/>
    <tag k="tiger:reviewed" v="no"/>
    <tag k="tiger:separated" v="no"/>
    <tag k="tiger:source" v="tiger_import_dch_v0.6_20070830"/>
    <tag k="tiger:tlid" v="63844341:63840459:63831312:63845900:63833072:63833050:63833048:63833049:63845899:63841949:63834444:63839552:63839553:63845765:63845766:63831361:63831145:63843912"/>
  </way>
  <way id="38169283" version="5" timestamp="2012-02-29T03:01:22Z" uid="37392" user="25or6to4" changeset="10824576"/>
  <way id="38169285" version="2" timestamp="2010-03-29T13:19:34Z" uid="74617" user="JohnSmith" changeset="4267300">
    <nd ref="449431510"/>
    <nd ref="25975527"/>
    <nd ref="25975528"/>
    <nd ref="25975529"/>
    <tag k="highway" v="motorway"/>
    <tag k="lanes" v="2"/>
    <tag k="maxspeed" v="100"/>
    <tag k="oneway" v="yes"/>
  </way>
  <way id="38169285" version="3" timestamp="2010-07-11T01:08:49Z" uid="299678" user="peteramjet" changeset="5186404">
    <nd ref="449431510"/>
    <nd ref="25975527"/>
    <nd ref="25975528"/>
    <nd ref="25975529"/>
    <tag k="highway" v="motorway"/>
    <tag k="lanes" v="2"/>
    <tag k="maxspeed" v="100"/>
    <tag k="name" v="Pacific Highway"/>
    <tag k="oneway" v="yes"/>
  </way>
  <way id="38169285" version="4" timestamp="2010-09-14T05:58:34Z" uid="24459" user="RRover" changeset="5775460">
    <nd ref="449431510"/>
    <nd ref="25975527"/>
    <nd ref="25975528"/>
    <nd ref="25975529"/>
    <tag k="highway" v="motorway"/>
    <tag k="lanes" v="2"/>
    <tag k="maxspeed" v="100"/>
    <tag k="name" v="Pacific Highway"/>
    <tag k="oneway" v="yes"/>
    <tag k="ref" v="NH1"/>
  </way>
  <way id="38169286" version="2" timestamp="2009-08-04T16:46:09Z" uid="74617" user="JohnSmith" changeset="2037498">
    <nd ref="449431485"/>
    <nd ref="449431510"/>
    <tag k="bridge" v="yes"/>
    <tag k="highway" v="motorway"/>
    <tag k="lanes" v="2"/>
    <tag k="layer" v="1"/>
    <tag k="maxspeed" v="100"/>
    <tag k="name" v="Pacific Highway"/>
    <tag k="oneway" v="yes"/>
    <tag k="ref" v="NH1"/>
  </way>
  <way id="38169286" version="3" timestamp="2010-03-29T13:19:35Z" uid="74617" user="JohnSmith" changeset="4267300">
    <nd ref="449431485"/>
    <nd ref="449431510"/>
    <tag k="bridge" v="yes"/>
    <tag k="highway" v="motorway"/>
    <tag k="lanes" v="2"/>
    <tag k="layer" v="1"/>
    <tag k="maxspeed" v="100"/>
    <tag k="oneway" v="yes"/>
  </way>
  <way id="38169286" version="4" timestamp="2010-07-11T01:08:50Z" uid="299678" user="peteramjet" changeset="5186404">
    <nd ref="449431485"/>
    <nd ref="449431510"/>
    <tag k="bridge" v="yes"/>
    <tag k="highway" v="motorway"/>
    <tag k="lanes" v="2"/>
    <tag k="layer" v="1"/>
    <tag k="maxspeed" v="100"/>
    <tag k="name" v="Pacific Highway"/>
    <tag k="oneway" v="yes"/>
  </way>
  <way id="38169286" version="5" timestamp="2010-08-23T00:00:12Z" uid="24459" user="RRover" changeset="5566969">
    <nd ref="449431485"/>
    <nd ref="449431510"/>
    <tag k="bridge" v="yes"/>
    <tag k="highway" v="motorway"/>
    <tag k="lanes" v="2"/>
    <tag k="layer" v="1"/>
    <tag k="maxspeed" v="100"/>
    <tag k="name" v="Pacific Highway"/>
    <tag k="oneway" v="yes"/>
    <tag k="ref" v="NH-1"/>
  </way>
  <way id="38169286" version="6" timestamp="2010-09-01T09:20:23Z" uid="299678" user="peteramjet" changeset="5652363">
    <nd ref="449431485"/>
    <nd ref="449431510"/>
    <tag k="bridge" v="yes"/>
    <tag k="highway" v="motorway"/>
    <tag k="lanes" v="2"/>
    <tag k="layer" v="1"/>
    <tag k="maxspeed" v="100"/>
    <tag k="name" v="Pacific Highway"/>
    <tag k="oneway" v="yes"/>
  </way>
  <way id="38169286" version="7" timestamp="2010-11-08T00:16:55Z" uid="24459" user="RRover" changeset="6317343">
    <nd ref="449431485"/>
    <nd ref="449431510"/>
    <tag k="bridge" v="yes"/>
    <tag k="highway" v="motorway"/>
    <tag k="lanes" v="2"/>
    <tag k="layer" v="1"/>
    <tag k="maxspeed" v="100"/>
    <tag k="name" v="Pacific Highway"/>
    <tag k="oneway" v="yes"/>
    <tag k="ref" v="NH1"/>
  </way>
  <way id="38169286" version="8" timestamp="2011-01-27T08:04:39Z" uid="4467" user="Rosscoe" changeset="7100928">
    <nd ref="1123131557"/>
    <nd ref="449431510"/>
    <tag k="bridge" v="yes"/>
    <tag k="highway" v="motorway"/>
    <tag k="lanes" v="2"/>
    <tag k="layer" v="1"/>
    <tag k="maxspeed" v="100"/>
    <tag k="name" v="Pacific Highway"/>
    <tag k="oneway" v="yes"/>
    <tag k="ref" v="NH1"/>
  </way>
  <way id="38169287" version="2" timestamp="2009-08-04T16:46:09Z" uid="74617" user="JohnSmith" changeset="2037498">
    <nd ref="449431475"/>
    <nd ref="449431526"/>
    <tag k="bridge" v="yes"/>
    <tag k="highway" v="motorway"/>
    <tag k="lanes" v="2"/>
    <tag k="layer" v="1"/>
    <tag k="maxspeed" v="100"/>
    <tag k="name" v="Pacific Highway"/>
    <tag k="oneway" v="yes"/>
    <tag k="ref" v="NH1"/>
    <tag k="source" v="survey"/>
  </way>
  <way id="38169287" version="3" timestamp="2010-03-29T13:19:34Z" uid="74617" user="JohnSmith" changeset="4267300">
    <nd ref="449431475"/>
    <nd ref="449431526"/>
    <tag k="bridge" v="yes"/>
    <tag k="highway" v="motorway"/>
    <tag k="lanes" v="2"/>
    <tag k="layer" v="1"/>
    <tag k="maxspeed" v="100"/>
    <tag k="oneway" v="yes"/>
    <tag k="source" v="survey"/>
  </way>
  <way id="38169287" version="4" timestamp="2010-07-11T01:08:50Z" uid="299678" user="peteramjet" changeset="5186404">
    <nd ref="449431475"/>
    <nd ref="449431526"/>
    <tag k="bridge" v="yes"/>
    <tag k="highway" v="motorway"/>
    <tag k="lanes" v="2"/>
    <tag k="layer" v="1"/>
    <tag k="maxspeed" v="100"/>
    <tag k="name" v="Pacific Highway"/>
    <tag k="oneway" v="yes"/>
    <tag k="source" v="survey"/>
  </way>
  <way id="38169287" version="5" timestamp="2010-08-23T00:37:51Z" uid="24459" user="RRover" changeset="5567120">
    <nd ref="449431475"/>
    <nd ref="449431526"/>
    <tag k="bridge" v="yes"/>
    <tag k="highway" v="motorway"/>
    <tag k="lanes" v="2"/>
    <tag k="layer" v="1"/>
    <tag k="maxspeed" v="100"/>
    <tag k="name" v="Pacific Highway"/>
    <tag k="oneway" v="yes"/>
    <tag k="ref" v="NH-1"/>
    <tag k="source" v="survey"/>
  </way>
  <way id="38169287" version="6" timestamp="2010-09-01T09:20:22Z" uid="299678" user="peteramjet" changeset="5652363">
    <nd ref="449431475"/>
    <nd ref="449431526"/>
    <tag k="bridge" v="yes"/>
    <tag k="highway" v="motorway"/>
    <tag k="lanes" v="2"/>
    <tag k="layer" v="1"/>
    <tag k="maxspeed" v="100"/>
    <tag k="name" v="Pacific Highway"/>
    <tag k="oneway" v="yes"/>
    <tag k="source" v="survey"/>
  </way>
  <way id="38169287" version="7" timestamp="2010-10-14T01:00:03Z" uid="24459" user="RRover" changeset="6035326">
    <nd ref="449431475"/>
    <nd ref="449431526"/>
    <tag k="bridge" v="yes"/>
    <tag k="highway" v="motorway"/>
    <tag k="lanes" v="2"/>
    <tag k="layer" v="1"/>
    <tag k="maxspeed" v="100"/>
    <tag k="name" v="Pacific Highway"/>
    <tag k="oneway" v="yes"/>
    <tag k="ref" v="NH1"/>
    <tag k="source" v="survey"/>
  </way>
  <way id="38169288" version="2" timestamp="2010-03-29T13:19:35Z" uid="74617" user="JohnSmith" changeset="4267300">
    <nd ref="449431526"/>
    <nd ref="423628670"/>
    <nd ref="423628641"/>
    <nd ref="423628672"/>
    <nd ref="423628673"/>
    <nd ref="423628679"/>
    <nd ref="423628472"/>
    <nd ref="423628680"/>
    <nd ref="423628682"/>
    <nd ref="423628684"/>
    <nd ref="423628687"/>
    <nd ref="423628689"/>
    <nd ref="423628691"/>
    <nd ref="423628692"/>
    <nd ref="423628694"/>
    <nd ref="423628697"/>
    <nd ref="423628699"/>
    <nd ref="25975518"/>
    <tag k="highway" v="motorway"/>
    <tag k="lanes" v="2"/>
    <tag k="maxspeed" v="100"/>
    <tag k="oneway" v="yes"/>
    <tag k="source" v="survey"/>
  </way>
  <way id="38169288" version="3" timestamp="2010-07-11T01:08:53Z" uid="299678" user="peteramjet" changeset="5186404">
    <nd ref="449431526"/>
    <nd ref="423628670"/>
    <nd ref="423628641"/>
    <nd ref="423628672"/>
    <nd ref="423628673"/>
    <nd ref="423628679"/>
    <nd ref="423628472"/>
    <nd ref="423628680"/>
    <nd ref="423628682"/>
    <nd ref="423628684"/>
    <nd ref="423628687"/>
    <nd ref="423628689"/>
    <nd ref="423628691"/>
    <nd ref="423628692"/>
    <nd ref="423628694"/>
    <nd ref="423628697"/>
    <nd ref="423628699"/>
    <nd ref="25975518"/>
    <tag k="highway" v="motorway"/>
    <tag k="lanes" v="2"/>
    <tag k="maxspeed" v="100"/>
    <tag k="name" v="Pacific Highway"/>
    <tag k="oneway" v="yes"/>
    <tag k="source" v="survey"/>
  </way>
  <way id="38169288" version="4" timestamp="2010-07-16T05:58:44Z" uid="4467" user="Rosscoe" changeset="5232168">
    <nd ref="449431526"/>
    <nd ref="423628670"/>
    <nd ref="423628641"/>
    <nd ref="423628672"/>
    <nd ref="423628679"/>
    <nd ref="423628472"/>
    <nd ref="423628680"/>
    <nd ref="423628682"/>
    <nd ref="423628684"/>
    <nd ref="423628687"/>
    <nd ref="423628689"/>
    <nd ref="423628691"/>
    <nd ref="423628692"/>
    <nd ref="423628694"/>
    <nd ref="423628697"/>
    <nd ref="423628699"/>
    <nd ref="25975518"/>
    <tag k="highway" v="motorway"/>
    <tag k="lanes" v="2"/>
    <tag k="maxspeed" v="100"/>
    <tag k="name" v="Pacific Highway"/>
    <tag k="oneway" v="yes"/>
    <tag k="source" v="survey"/>
  </way>
  <way id="38169288" version="5" timestamp="2010-08-23T00:38:43Z" uid="24459" user="RRover" changeset="5567125">
    <nd ref="449431526"/>
    <nd ref="423628670"/>
    <nd ref="423628641"/>
    <nd ref="423628672"/>
    <nd ref="423628679"/>
    <nd ref="423628472"/>
    <nd ref="423628680"/>
    <nd ref="423628682"/>
    <nd ref="423628684"/>
    <nd ref="423628687"/>
    <nd ref="423628689"/>
    <nd ref="423628691"/>
    <nd ref="423628692"/>
    <nd ref="423628694"/>
    <nd ref="423628697"/>
    <nd ref="423628699"/>
    <nd ref="25975518"/>
    <tag k="highway" v="motorway"/>
    <tag k="lanes" v="2"/>
    <tag k="maxspeed" v="100"/>
    <tag k="name" v="Pacific Highway"/>
    <tag k="oneway" v="yes"/>
    <tag k="ref" v="NH-1"/>
    <tag k="source" v="survey"/>
  </way>
  <way id="38169288" version="6" timestamp="2010-09-01T09:20:22Z" uid="299678" user="peteramjet" changeset="5652363">
    <nd ref="449431526"/>
    <nd ref="423628670"/>
    <nd ref="423628641"/>
    <nd ref="423628672"/>
    <nd ref="423628679"/>
    <nd ref="423628472"/>
    <nd ref="423628680"/>
    <nd ref="423628682"/>
    <nd ref="423628684"/>
    <nd ref="423628687"/>
    <nd ref="423628689"/>
    <nd ref="423628691"/>
    <nd ref="423628692"/>
    <nd ref="423628694"/>
    <nd ref="423628697"/>
    <nd ref="423628699"/>
    <nd ref="25975518"/>
    <tag k="highway" v="motorway"/>
    <tag k="lanes" v="2"/>
    <tag k="maxspeed" v="100"/>
    <tag k="name" v="Pacific Highway"/>
    <tag k="oneway" v="yes"/>
    <tag k="source" v="survey"/>
  </way>
  <way id="38169288" version="7" timestamp="2010-09-14T05:57:37Z" uid="24459" user="RRover" changeset="5775452">
    <nd ref="449431526"/>
    <nd ref="423628670"/>
    <nd ref="423628641"/>
    <nd ref="423628672"/>
    <nd ref="423628679"/>
    <nd ref="423628472"/>
    <nd ref="423628680"/>
    <nd ref="423628682"/>
    <nd ref="423628684"/>
    <nd ref="423628687"/>
    <nd ref="423628689"/>
    <nd ref="423628691"/>
    <nd ref="423628692"/>
    <nd ref="423628694"/>
    <nd ref="423628697"/>
    <nd ref="423628699"/>
    <nd ref="25975518"/>
    <tag k="highway" v="motorway"/>
    <tag k="lanes" v="2"/>
    <tag k="maxspeed" v="100"/>
    <tag k="name" v="Pacific Highway"/>
    <tag k="oneway" v="yes"/>
    <tag k="ref" v="NH1"/>
    <tag k="source" v="survey"/>
  </way>
  <way id="38169288" version="8" timestamp="2011-01-27T08:04:41Z" uid="4467" user="Rosscoe" changeset="7100928">
    <nd ref="449431526"/>
    <nd ref="423628641"/>
    <nd ref="423628672"/>
    <nd ref="423628472"/>
    <nd ref="423628680"/>
    <nd ref="423628682"/>
    <nd ref="423628684"/>
    <nd ref="423628687"/>
    <nd ref="423628689"/>
    <nd ref="423628691"/>
    <nd ref="423628692"/>
    <nd ref="423628694"/>
    <nd ref="423628697"/>
    <nd ref="423628699"/>
    <nd ref="25975518"/>
    <tag k="highway" v="motorway"/>
    <tag k="lanes" v="2"/>
    <tag k="maxspeed" v="100"/>
    <tag k="name" v="Pacific Highway"/>
    <tag k="oneway" v="yes"/>
    <tag k="ref" v="NH1"/>
    <tag k="source" v="survey"/>
  </way>
  <way id="38169289" version="2" timestamp="2009-08-04T16:46:09Z" uid="74617" user="JohnSmith" changeset="2037498">
    <nd ref="449431608"/>
    <nd ref="423628604"/>
    <nd ref="423628605"/>
    <nd ref="423628607"/>
    <nd ref="423628610"/>
    <nd ref="423628613"/>
    <nd ref="423628614"/>
    <nd ref="423628620"/>
    <nd ref="423628621"/>
    <nd ref="423628622"/>
    <nd ref="423628625"/>
    <nd ref="423628482"/>
    <nd ref="410452774"/>
    <tag k="highway" v="motorway"/>
    <tag k="lanes" v="2"/>
    <tag k="maxspeed" v="100"/>
    <tag k="name" v="Pacific Highway"/>
    <tag k="oneway" v="yes"/>
    <tag k="ref" v="NH1"/>
    <tag k="source" v="survey"/>
  </way>
  <way id="38169289" version="3" timestamp="2010-03-29T13:19:35Z" uid="74617" user="JohnSmith" changeset="4267300">
    <nd ref="449431608"/>
    <nd ref="423628604"/>
    <nd ref="423628605"/>
    <nd ref="423628607"/>
    <nd ref="423628610"/>
    <nd ref="423628613"/>
    <nd ref="423628614"/>
    <nd ref="423628620"/>
    <nd ref="423628621"/>
    <nd ref="423628622"/>
    <nd ref="423628625"/>
    <nd ref="423628482"/>
    <nd ref="410452774"/>
    <tag k="highway" v="motorway"/>
    <tag k="lanes" v="2"/>
    <tag k="maxspeed" v="100"/>
    <tag k="oneway" v="yes"/>
    <tag k="source" v="survey"/>
  </way>
  <way id="38169289" version="4" timestamp="2010-07-11T01:10:00Z" uid="299678" user="peteramjet" changeset="5186404">
    <nd ref="449431608"/>
    <nd ref="423628604"/>
    <nd ref="423628605"/>
    <nd ref="423628607"/>
    <nd ref="423628610"/>
    <nd ref="423628613"/>
    <nd ref="423628614"/>
    <nd ref="423628620"/>
    <nd ref="423628621"/>
    <nd ref="423628622"/>
    <nd ref="423628625"/>
    <nd ref="423628482"/>
    <nd ref="410452774"/>
    <tag k="highway" v="motorway"/>
    <tag k="lanes" v="2"/>
    <tag k="maxspeed" v="100"/>
    <tag k="name" v="Pacific Highway"/>
    <tag k="oneway" v="yes"/>
    <tag k="source" v="survey"/>
  </way>
  <way id="38169289" version="5" timestamp="2010-08-23T00:05:12Z" uid="24459" user="RRover" changeset="5566988">
    <nd ref="449431608"/>
    <nd ref="423628604"/>
    <nd ref="423628605"/>
    <nd ref="423628607"/>
    <nd ref="423628610"/>
    <nd ref="423628613"/>
    <nd ref="423628614"/>
    <nd ref="423628620"/>
    <nd ref="423628621"/>
    <nd ref="423628622"/>
    <nd ref="423628625"/>
    <nd ref="423628482"/>
    <nd ref="410452774"/>
    <tag k="highway" v="motorway"/>
    <tag k="lanes" v="2"/>
    <tag k="maxspeed" v="100"/>
    <tag k="name" v="Pacific Highway"/>
    <tag k="oneway" v="yes"/>
    <tag k="ref" v="NH-1"/>
    <tag k="source" v="survey"/>
  </way>
  <way id="38169289" version="6" timestamp="2010-09-01T09:21:17Z" uid="299678" user="peteramjet" changeset="5652363">
    <nd ref="449431608"/>
    <nd ref="423628604"/>
    <nd ref="423628605"/>
    <nd ref="423628607"/>
    <nd ref="423628610"/>
    <nd ref="423628613"/>
    <nd ref="423628614"/>
    <nd ref="423628620"/>
    <nd ref="423628621"/>
    <nd ref="423628622"/>
    <nd ref="423628625"/>
    <nd ref="423628482"/>
    <nd ref="410452774"/>
    <tag k="highway" v="motorway"/>
    <tag k="lanes" v="2"/>
    <tag k="maxspeed" v="100"/>
    <tag k="name" v="Pacific Highway"/>
    <tag k="oneway" v="yes"/>
    <tag k="source" v="survey"/>
  </way>
  <way id="38169289" version="7" timestamp="2010-09-14T05:53:32Z" uid="24459" user="RRover" changeset="5775441">
    <nd ref="449431608"/>
    <nd ref="423628604"/>
    <nd ref="423628605"/>
    <nd ref="423628607"/>
    <nd ref="423628610"/>
    <nd ref="423628613"/>
    <nd ref="423628614"/>
    <nd ref="423628620"/>
    <nd ref="423628621"/>
    <nd ref="423628622"/>
    <nd ref="423628625"/>
    <nd ref="423628482"/>
    <nd ref="410452774"/>
    <tag k="highway" v="motorway"/>
    <tag k="lanes" v="2"/>
    <tag k="maxspeed" v="100"/>
    <tag k="name" v="Pacific Highway"/>
    <tag k="oneway" v="yes"/>
    <tag k="ref" v="NH1"/>
    <tag k="source" v="survey"/>
  </way>
  <way id="38169290" version="2" timestamp="2009-08-08T23:58:43Z" uid="4467" user="Rosscoe" changeset="2080580">
    <nd ref="423628602"/>
    <nd ref="449431608"/>
    <tag k="bridge" v="yes"/>
    <tag k="highway" v="motorway"/>
    <tag k="lanes" v="2"/>
    <tag k="layer" v="1"/>
    <tag k="maxspeed" v="100"/>
    <tag k="name" v="Pacific Highway"/>
    <tag k="oneway" v="yes"/>
    <tag k="ref" v="NH1"/>
    <tag k="source" v="survey"/>
  </way>
  <way id="38169290" version="3" timestamp="2010-03-29T13:19:35Z" uid="74617" user="JohnSmith" changeset="4267300">
    <nd ref="423628602"/>
    <nd ref="449431608"/>
    <tag k="bridge" v="yes"/>
    <tag k="highway" v="motorway"/>
    <tag k="lanes" v="2"/>
    <tag k="layer" v="1"/>
    <tag k="maxspeed" v="100"/>
    <tag k="oneway" v="yes"/>
    <tag k="source" v="survey"/>
  </way>
  <way id="38169290" version="4" timestamp="2010-07-11T01:10:02Z" uid="299678" user="peteramjet" changeset="5186404">
    <nd ref="423628602"/>
    <nd ref="449431608"/>
    <tag k="bridge" v="yes"/>
    <tag k="highway" v="motorway"/>
    <tag k="lanes" v="2"/>
    <tag k="layer" v="1"/>
    <tag k="maxspeed" v="100"/>
    <tag k="name" v="Pacific Highway"/>
    <tag k="oneway" v="yes"/>
    <tag k="source" v="survey"/>
  </way>
  <way id="38169290" version="5" timestamp="2010-08-23T00:07:16Z" uid="24459" user="RRover" changeset="5566988">
    <nd ref="423628602"/>
    <nd ref="874702990"/>
    <nd ref="874702992"/>
    <nd ref="449431608"/>
    <tag k="bridge" v="yes"/>
    <tag k="highway" v="motorway"/>
    <tag k="lanes" v="2"/>
    <tag k="layer" v="1"/>
    <tag k="maxspeed" v="100"/>
    <tag k="name" v="Pacific Highway"/>
    <tag k="oneway" v="yes"/>
    <tag k="source" v="survey"/>
  </way>
  <way id="38169290" version="6" timestamp="2010-08-23T00:07:22Z" uid="24459" user="RRover" changeset="5566988">
    <nd ref="423628602"/>
    <nd ref="874702990"/>
    <nd ref="874702992"/>
    <tag k="bridge" v="yes"/>
    <tag k="highway" v="motorway"/>
    <tag k="lanes" v="2"/>
    <tag k="layer" v="1"/>
    <tag k="maxspeed" v="100"/>
    <tag k="name" v="Pacific Highway"/>
    <tag k="oneway" v="yes"/>
    <tag k="source" v="survey"/>
  </way>
  <way id="38169290" version="7" timestamp="2010-10-14T01:04:35Z" uid="24459" user="RRover" changeset="6035346">
    <nd ref="423628602"/>
    <nd ref="874702990"/>
    <nd ref="874702992"/>
    <tag k="bridge" v="yes"/>
    <tag k="highway" v="motorway"/>
    <tag k="lanes" v="2"/>
    <tag k="layer" v="1"/>
    <tag k="maxspeed" v="100"/>
    <tag k="name" v="Pacific Highway"/>
    <tag k="oneway" v="yes"/>
    <tag k="ref" v="NH1"/>
    <tag k="source" v="survey"/>
  </way>
  <way id="38169290" version="8" timestamp="2011-12-01T08:00:17Z" uid="338866" user="tiger" changeset="10005883">
    <nd ref="423628602"/>
    <nd ref="874702990"/>
    <nd ref="874702992"/>
    <nd ref="449431608"/>
    <tag k="bridge" v="yes"/>
    <tag k="highway" v="motorway"/>
    <tag k="lanes" v="2"/>
    <tag k="layer" v="1"/>
    <tag k="maxspeed" v="100"/>
    <tag k="name" v="Pacific Highway"/>
    <tag k="oneway" v="yes"/>
    <tag k="ref" v="NH1"/>
    <tag k="source" v="survey"/>
  </way>
  <way id="38169544" version="1" timestamp="2009-07-28T01:24:21Z" uid="18775" user="drlizau" changeset="1960837">
    <nd ref="449436821"/>
    <nd ref="449436826"/>
    <nd ref="449436822"/>
    <nd ref="449436827"/>
    <nd ref="449436823"/>
    <nd ref="449436828"/>
    <nd ref="449436824"/>
    <nd ref="449436829"/>
    <nd ref="449436821"/>
    <tag k="highway" v="residential"/>
    <tag k="junction" v="roundabout"/>
  </way>
  <way id="38169544" version="2" timestamp="2010-03-13T03:19:19Z" uid="115684" user="jVviJ11dNx" changeset="4111493"/>
  <way id="38169546" version="1" timestamp="2009-07-28T01:24:21Z" uid="18775" user="drlizau" changeset="1960837">
    <nd ref="449436822"/>
    <nd ref="347279569"/>
    <nd ref="347279536"/>
    <nd ref="347279570"/>
    <nd ref="347279571"/>
    <tag k="highway" v="residential"/>
  </way>
  <way id="38169546" version="2" timestamp="2010-03-13T03:19:16Z" uid="115684" user="jVviJ11dNx" changeset="4111493">
    <nd ref="449436823"/>
    <nd ref="664988417"/>
    <nd ref="664987675"/>
    <nd ref="347279569"/>
    <nd ref="347279536"/>
    <nd ref="347279570"/>
    <nd ref="664987607"/>
    <nd ref="347279571"/>
    <tag k="highway" v="residential"/>
  </way>
  <way id="38169546" version="3" timestamp="2010-03-23T04:31:17Z" uid="18775" user="drlizau" changeset="4209028"/>
  <way id="38169547" version="1" timestamp="2009-07-28T01:24:21Z" uid="18775" user="drlizau" changeset="1960837">
    <nd ref="449436835"/>
    <nd ref="449436830"/>
    <nd ref="449436837"/>
    <nd ref="449436832"/>
    <nd ref="449436833"/>
    <nd ref="449436831"/>
    <nd ref="449436836"/>
    <nd ref="449436834"/>
    <nd ref="449436835"/>
    <tag k="highway" v="residential"/>
    <tag k="junction" v="roundabout"/>
  </way>
  <way id="38169549" version="1" timestamp="2009-07-28T01:24:21Z" uid="18775" user="drlizau" changeset="1960837">
    <nd ref="449436835"/>
    <nd ref="145513711"/>
    <nd ref="249181208"/>
    <nd ref="249181211"/>
    <nd ref="249181217"/>
    <nd ref="249181222"/>
    <nd ref="249181227"/>
    <nd ref="249181231"/>
    <tag k="highway" v="residential"/>
  </way>
  <way id="38169549" version="2" timestamp="2010-03-13T03:19:15Z" uid="115684" user="jVviJ11dNx" changeset="4111493">
    <nd ref="449436835"/>
    <nd ref="664987661"/>
    <tag k="highway" v="residential"/>
  </way>
  <way id="38169551" version="1" timestamp="2009-07-28T01:24:21Z" uid="18775" user="drlizau" changeset="1960837">
    <nd ref="449436837"/>
    <nd ref="449436824"/>
    <tag k="highway" v="residential"/>
    <tag k="name" v="Napier Street"/>
  </way>
  <way id="38169551" version="2" timestamp="2010-03-13T03:19:18Z" uid="115684" user="jVviJ11dNx" changeset="4111493">
    <nd ref="449436837"/>
    <nd ref="449436823"/>
    <tag k="highway" v="residential"/>
    <tag k="name" v="Napier Street"/>
  </way>
  <way id="38169551" version="3" timestamp="2010-03-23T04:31:11Z" uid="18775" user="drlizau" changeset="4209028">
    <nd ref="449436837"/>
    <nd ref="449436823"/>
    <nd ref="664988417"/>
    <nd ref="664987675"/>
    <nd ref="347279569"/>
    <nd ref="347279536"/>
    <nd ref="347279570"/>
    <nd ref="664987607"/>
    <nd ref="347279571"/>
    <tag k="highway" v="residential"/>
    <tag k="name" v="Napier Street"/>
  </way>
  <way id="38169551" version="4" timestamp="2010-04-26T11:33:32Z" uid="74617" user="JohnSmith" changeset="4529522">
    <nd ref="449436837"/>
    <nd ref="449436823"/>
    <nd ref="664988417"/>
    <nd ref="664987675"/>
    <nd ref="707192772"/>
    <nd ref="347279569"/>
    <nd ref="347279536"/>
    <nd ref="347279570"/>
    <nd ref="664987607"/>
    <nd ref="347279571"/>
    <tag k="highway" v="residential"/>
    <tag k="name" v="Napier Street"/>
  </way>
  <way id="38169551" version="5" timestamp="2010-05-02T02:57:18Z" uid="115684" user="jVviJ11dNx" changeset="4580894">
    <nd ref="449436837"/>
    <nd ref="449436823"/>
    <nd ref="664988417"/>
    <nd ref="664987675"/>
    <nd ref="707192772"/>
    <nd ref="347279569"/>
    <nd ref="347279536"/>
    <nd ref="347279570"/>
    <nd ref="664987607"/>
    <nd ref="347279571"/>
    <tag k="highway" v="residential"/>
    <tag k="name" v="Napier Street"/>
  </way>
  <way id="38169551" version="6" timestamp="2011-01-26T06:55:34Z" uid="19626" user="Swamp" changeset="7090726">
    <nd ref="449436837"/>
    <nd ref="449436823"/>
    <nd ref="664988417"/>
    <nd ref="664987675"/>
    <nd ref="707192772"/>
    <nd ref="347279569"/>
    <nd ref="347279536"/>
    <nd ref="347279570"/>
    <nd ref="664987607"/>
    <nd ref="347279571"/>
    <tag k="highway" v="residential"/>
    <tag k="maxspeed" v="50"/>
    <tag k="name" v="Napier Street"/>
    <tag k="source" v="survey/nearmap"/>
  </way>
  <way id="38169551" version="7" timestamp="2011-02-12T10:58:03Z" uid="18775" user="drlizau" changeset="7263387">
    <nd ref="449436837"/>
    <nd ref="449436823"/>
    <nd ref="664988417"/>
    <nd ref="664987675"/>
    <nd ref="707192772"/>
    <nd ref="347279569"/>
    <nd ref="347279536"/>
    <nd ref="1148878338"/>
    <nd ref="347279570"/>
    <nd ref="1148878386"/>
    <nd ref="664987607"/>
    <nd ref="347279571"/>
    <tag k="highway" v="residential"/>
    <tag k="maxspeed" v="50"/>
    <tag k="name" v="Napier Street"/>
    <tag k="source" v="survey/nearmap"/>
  </way>
  <way id="38169940" version="1" timestamp="2009-07-28T01:41:18Z" uid="18775" user="drlizau" changeset="1960870">
    <nd ref="125462012"/>
    <nd ref="125462073"/>
    <nd ref="125462115"/>
    <nd ref="125462157"/>
    <nd ref="113537422"/>
    <tag k="highway" v="tertiary"/>
    <tag k="name" v="Beelbangera Road"/>
  </way>
  <way id="38169940" version="2" timestamp="2010-12-16T02:19:11Z" uid="18775" user="drlizau" changeset="6673344">
    <nd ref="125462012"/>
    <nd ref="125462073"/>
    <nd ref="125462115"/>
    <nd ref="125462157"/>
    <nd ref="113537422"/>
    <tag k="highway" v="tertiary"/>
    <tag k="name" v="Beelbangera Road"/>
    <tag k="source" v="survey"/>
  </way>
  <way id="38169940" version="3" timestamp="2010-12-20T12:55:51Z" uid="19626" user="Swamp" changeset="6715726">
    <nd ref="125462012"/>
    <nd ref="125462073"/>
    <nd ref="125462115"/>
    <nd ref="125462157"/>
    <nd ref="1051486757"/>
    <tag k="highway" v="tertiary"/>
    <tag k="maxspeed" v="50"/>
    <tag k="name" v="Beelbangera Road"/>
    <tag k="source" v="survey"/>
  </way>
  <way id="38169941" version="1" timestamp="2009-07-28T01:41:19Z" uid="18775" user="drlizau" changeset="1960870">
    <nd ref="125462012"/>
    <nd ref="245077990"/>
    <nd ref="311940504"/>
    <nd ref="251068936"/>
    <nd ref="249071514"/>
    <nd ref="245064300"/>
    <nd ref="249072111"/>
    <nd ref="249072113"/>
    <nd ref="249072115"/>
    <nd ref="249072117"/>
    <nd ref="249072119"/>
    <nd ref="249072122"/>
    <nd ref="249072124"/>
    <nd ref="249072126"/>
    <nd ref="249072127"/>
    <nd ref="249072129"/>
    <nd ref="249072159"/>
    <nd ref="249072160"/>
    <tag k="highway" v="unclassified"/>
    <tag k="name" v="Twigg Road"/>
  </way>
  <way id="38169941" version="2" timestamp="2010-12-20T12:55:49Z" uid="19626" user="Swamp" changeset="6715726">
    <nd ref="125462012"/>
    <nd ref="245077990"/>
    <nd ref="311940504"/>
    <nd ref="251068936"/>
    <nd ref="249071514"/>
    <nd ref="245064300"/>
    <nd ref="249072111"/>
    <nd ref="249072113"/>
    <nd ref="249072115"/>
    <nd ref="249072117"/>
    <nd ref="249072119"/>
    <nd ref="249072122"/>
    <nd ref="249072124"/>
    <nd ref="249072126"/>
    <nd ref="249072127"/>
    <nd ref="249072129"/>
    <nd ref="249072159"/>
    <nd ref="249072160"/>
    <tag k="highway" v="unclassified"/>
    <tag k="maxspeed" v="100"/>
    <tag k="name" v="Twigg Road"/>
  </way>
  <way id="38169285" version="5" timestamp="2012-08-08T14:15:56Z" uid="67896" user="mrpulley" changeset="12657723">
    <nd ref="449431510"/>
    <nd ref="25975527"/>
    <nd ref="25975528"/>
    <nd ref="25975529"/>
    <tag k="highway" v="motorway"/>
    <tag k="lanes" v="2"/>
    <tag k="maxspeed" v="100"/>
    <tag k="name" v="Pacific Highway"/>
    <tag k="network" v="NR"/>
    <tag k="oneway" v="yes"/>
    <tag k="ref" v="1"/>
  </way>
  <way id="38169286" version="9" timestamp="2012-07-19T14:46:10Z" uid="722137" user="OSMF Redaction Account" changeset="12331963"/>
  <way id="38169287" version="8" timestamp="2012-07-19T14:45:56Z" uid="722137" user="OSMF Redaction Account" changeset="12331963">
    <nd ref="449431475"/>
    <nd ref="449431526"/>
    <tag k="bridge" v="yes"/>
    <tag k="highway" v="motorway"/>
    <tag k="lanes" v="2"/>
    <tag k="maxspeed" v="100"/>
    <tag k="name" v="Pacific Highway"/>
    <tag k="oneway" v="yes"/>
    <tag k="ref" v="NH1"/>
    <tag k="source" v="survey"/>
  </way>
  <way id="38169287" version="9" timestamp="2012-07-22T07:38:31Z" uid="67896" user="mrpulley" changeset="12427269">
    <nd ref="449431475"/>
    <nd ref="1833862481"/>
    <nd ref="449431526"/>
    <nd ref="423628641"/>
    <nd ref="1833862503"/>
    <tag k="bridge" v="yes"/>
    <tag k="highway" v="motorway"/>
    <tag k="lanes" v="2"/>
    <tag k="layer" v="1"/>
    <tag k="maxspeed" v="100"/>
    <tag k="name" v="Pacific Highway"/>
    <tag k="oneway" v="yes"/>
    <tag k="ref" v="NH1"/>
    <tag k="source" v="Bing"/>
    <tag k="surface" v="asphalt"/>
  </way>
  <way id="38169287" version="10" timestamp="2012-08-08T14:16:00Z" uid="67896" user="mrpulley" changeset="12657723">
    <nd ref="449431475"/>
    <nd ref="1833862481"/>
    <nd ref="449431526"/>
    <nd ref="423628641"/>
    <nd ref="1833862503"/>
    <tag k="bridge" v="yes"/>
    <tag k="highway" v="motorway"/>
    <tag k="lanes" v="2"/>
    <tag k="layer" v="1"/>
    <tag k="maxspeed" v="100"/>
    <tag k="name" v="Pacific Highway"/>
    <tag k="network" v="NR"/>
    <tag k="oneway" v="yes"/>
    <tag k="ref" v="1"/>
    <tag k="source" v="Bing"/>
    <tag k="surface" v="asphalt"/>
  </way>
  <way id="38169288" version="9" timestamp="2012-07-22T07:38:31Z" uid="67896" user="mrpulley" changeset="12427269">
    <nd ref="1833862503"/>
    <nd ref="423628672"/>
    <nd ref="1833862526"/>
    <nd ref="423628472"/>
    <nd ref="423628680"/>
    <nd ref="423628682"/>
    <nd ref="423628684"/>
    <nd ref="423628687"/>
    <nd ref="423628689"/>
    <nd ref="423628691"/>
    <nd ref="423628692"/>
    <nd ref="423628694"/>
    <nd ref="423628697"/>
    <nd ref="423628699"/>
    <nd ref="25975518"/>
    <tag k="highway" v="motorway"/>
    <tag k="lanes" v="2"/>
    <tag k="maxspeed" v="100"/>
    <tag k="name" v="Pacific Highway"/>
    <tag k="oneway" v="yes"/>
    <tag k="ref" v="NH1"/>
    <tag k="source" v="survey"/>
  </way>
  <way id="38169288" version="10" timestamp="2012-08-08T14:15:20Z" uid="67896" user="mrpulley" changeset="12657723">
    <nd ref="1833862503"/>
    <nd ref="423628672"/>
    <nd ref="1833862526"/>
    <nd ref="423628472"/>
    <nd ref="423628680"/>
    <nd ref="423628682"/>
    <nd ref="423628684"/>
    <nd ref="423628687"/>
    <nd ref="423628689"/>
    <nd ref="423628691"/>
    <nd ref="423628692"/>
    <nd ref="423628694"/>
    <nd ref="423628697"/>
    <nd ref="423628699"/>
    <nd ref="25975518"/>
    <tag k="highway" v="motorway"/>
    <tag k="lanes" v="2"/>
    <tag k="maxspeed" v="100"/>
    <tag k="name" v="Pacific Highway"/>
    <tag k="network" v="NR"/>
    <tag k="oneway" v="yes"/>
    <tag k="ref" v="1"/>
    <tag k="source" v="survey"/>
  </way>
  <way id="38169289" version="8" timestamp="2012-07-19T14:46:00Z" uid="722137" user="OSMF Redaction Account" changeset="12331963">
    <nd ref="449431608"/>
    <nd ref="423628604"/>
    <nd ref="423628605"/>
    <nd ref="423628607"/>
    <nd ref="423628610"/>
    <nd ref="423628613"/>
    <nd ref="423628614"/>
    <nd ref="423628620"/>
    <nd ref="423628621"/>
    <nd ref="423628622"/>
    <nd ref="423628625"/>
    <nd ref="423628482"/>
    <tag k="highway" v="motorway"/>
    <tag k="lanes" v="2"/>
    <tag k="maxspeed" v="100"/>
    <tag k="name" v="Pacific Highway"/>
    <tag k="oneway" v="yes"/>
    <tag k="ref" v="NH1"/>
    <tag k="source" v="survey"/>
  </way>
  <way id="38169289" version="9" timestamp="2012-07-25T07:27:53Z" uid="92387" user="SimonPoole" changeset="12482490">
    <nd ref="449431608"/>
    <nd ref="423628604"/>
    <nd ref="423628605"/>
    <nd ref="423628607"/>
    <nd ref="423628610"/>
    <nd ref="423628613"/>
    <nd ref="423628614"/>
    <nd ref="423628620"/>
    <nd ref="423628621"/>
    <nd ref="423628622"/>
    <nd ref="423628625"/>
    <nd ref="423628482"/>
    <nd ref="1837333810"/>
    <nd ref="410452774"/>
    <tag k="highway" v="motorway"/>
    <tag k="lanes" v="2"/>
    <tag k="maxspeed" v="100"/>
    <tag k="name" v="Pacific Highway"/>
    <tag k="oneway" v="yes"/>
    <tag k="ref" v="NH1"/>
    <tag k="source" v="survey"/>
  </way>
  <way id="38169289" version="10" timestamp="2012-08-08T14:15:17Z" uid="67896" user="mrpulley" changeset="12657723">
    <nd ref="449431608"/>
    <nd ref="423628604"/>
    <nd ref="423628605"/>
    <nd ref="423628607"/>
    <nd ref="423628610"/>
    <nd ref="423628613"/>
    <nd ref="423628614"/>
    <nd ref="423628620"/>
    <nd ref="423628621"/>
    <nd ref="423628622"/>
    <nd ref="423628625"/>
    <nd ref="423628482"/>
    <nd ref="1837333810"/>
    <nd ref="410452774"/>
    <tag k="highway" v="motorway"/>
    <tag k="lanes" v="2"/>
    <tag k="maxspeed" v="100"/>
    <tag k="name" v="Pacific Highway"/>
    <tag k="network" v="NR"/>
    <tag k="oneway" v="yes"/>
    <tag k="ref" v="1"/>
    <tag k="source" v="survey"/>
  </way>
  <way id="38169290" version="9" timestamp="2012-07-19T14:46:01Z" uid="722137" user="OSMF Redaction Account" changeset="12331963">
    <nd ref="423628602"/>
    <nd ref="874702990"/>
    <nd ref="874702992"/>
    <nd ref="449431608"/>
    <tag k="bridge" v="yes"/>
    <tag k="highway" v="motorway"/>
    <tag k="lanes" v="2"/>
    <tag k="maxspeed" v="100"/>
    <tag k="name" v="Pacific Highway"/>
    <tag k="oneway" v="yes"/>
    <tag k="ref" v="NH1"/>
    <tag k="source" v="survey"/>
  </way>
  <way id="38169290" version="10" timestamp="2012-08-08T14:15:56Z" uid="67896" user="mrpulley" changeset="12657723">
    <nd ref="423628602"/>
    <nd ref="874702990"/>
    <nd ref="874702992"/>
    <nd ref="449431608"/>
    <tag k="bridge" v="yes"/>
    <tag k="highway" v="motorway"/>
    <tag k="lanes" v="2"/>
    <tag k="maxspeed" v="100"/>
    <tag k="name" v="Pacific Highway"/>
    <tag k="network" v="NR"/>
    <tag k="oneway" v="yes"/>
    <tag k="ref" v="1"/>
    <tag k="source" v="survey"/>
  </way>
  <way id="38169547" version="2" timestamp="2012-07-19T08:44:12Z" uid="722137" user="OSMF Redaction Account" changeset="12314392"/>
  <way id="38169549" version="3" timestamp="2012-07-19T08:44:12Z" uid="722137" user="OSMF Redaction Account" changeset="12314392"/>
  <way id="38169551" version="8" timestamp="2012-07-19T08:44:12Z" uid="722137" user="OSMF Redaction Account" changeset="12314392"/>
  <way id="38169940" version="4" timestamp="2012-07-19T07:41:49Z" uid="722137" user="OSMF Redaction Account" changeset="12312382"/>
  <way id="38169941" version="3" timestamp="2012-07-19T07:41:49Z" uid="722137" user="OSMF Redaction Account" changeset="12312382"/>
</osm>
