<?xml version='1.0' encoding='UTF-8'?>
<osm version="0.6" generator="libosmium/2.20.0">
  <way id="38210060" version="2" timestamp="2009-10-22T21:15:57Z" uid="36809" user="pfoten_weg_!_" changeset="2925600">
    <nd ref="332565145"/>
    <nd ref="436160909"/>
    <nd ref="332565148"/>
    <nd ref="436160910"/>
    <nd ref="429843274"/>
    <nd ref="429843275"/>
    <tag k="highway" v="unclassified"/>
    <tag k="name" v="Sternecker Weg"/>
  </way>
  <way id="38210060" version="3" timestamp="2010-12-24T08:25:16Z" uid="42393" user="mawi42" changeset="6752463">
    <nd ref="332565145"/>
    <nd ref="1061143660"/>
    <nd ref="1061143752"/>
    <nd ref="1061143756"/>
    <nd ref="1061143764"/>
    <nd ref="1061143782"/>
    <nd ref="436160909"/>
    <nd ref="332565148"/>
    <nd ref="436160910"/>
    <nd ref="429843274"/>
    <nd ref="429843275"/>
    <tag k="highway" v="unclassified"/>
    <tag k="name" v="Sternecker Weg"/>
  </way>
  <way id="38210060" version="4" timestamp="2011-11-10T19:42:12Z" uid="513461" user="knobel" changeset="9791584">
    <nd ref="332565145"/>
    <nd ref="1061143660"/>
    <nd ref="1061143752"/>
    <nd ref="1061143756"/>
    <nd ref="1061143764"/>
    <nd ref="1061143782"/>
    <nd ref="436160909"/>
    <nd ref="332565148"/>
    <nd ref="436160910"/>
    <nd ref="429843274"/>
    <nd ref="429843275"/>
    <tag k="highway" v="unclassified"/>
    <tag k="name" v="Sternecker Weg"/>
  </way>
  <way id="38210650" version="2" timestamp="2010-10-25T19:28:41Z" uid="30632" user="antblant" changeset="6176628">
    <nd ref="254751212"/>
    <nd ref="965225153"/>
    <tag k="highway" v="primary"/>
    <tag k="int_ref" v="E 28"/>
    <tag k="ref" v="54"/>
  </way>
  <way id="38210650" version="3" timestamp="2011-02-27T17:25:46Z" uid="163896" user="Zbigniew Czernik" changeset="7412474">
    <nd ref="254751212"/>
    <nd ref="1177415280"/>
    <nd ref="965225153"/>
    <tag k="highway" v="primary"/>
    <tag k="int_ref" v="E 28"/>
    <tag k="ref" v="54"/>
  </way>
  <way id="38210651" version="2" timestamp="2010-10-25T19:28:42Z" uid="30632" user="antblant" changeset="6176628">
    <nd ref="450160601"/>
    <nd ref="450160604"/>
    <nd ref="254751207"/>
    <tag k="highway" v="primary"/>
    <tag k="int_ref" v="E 28"/>
    <tag k="ref" v="54"/>
  </way>
  <way id="38210651" version="3" timestamp="2011-02-16T09:18:56Z" uid="263596" user="OberfÃ¶rster" changeset="7302105">
    <nd ref="450160601"/>
    <nd ref="450160604"/>
    <nd ref="254751207"/>
    <tag k="highway" v="trunk"/>
    <tag k="int_ref" v="E 28"/>
    <tag k="motorroad" v="yes"/>
    <tag k="ref" v="54"/>
  </way>
  <way id="38210651" version="4" timestamp="2011-02-16T19:36:04Z" uid="145231" user="woodpeck_repair" changeset="7306560">
    <nd ref="450160601"/>
    <nd ref="450160604"/>
    <nd ref="254751207"/>
    <tag k="highway" v="primary"/>
    <tag k="int_ref" v="E 28"/>
    <tag k="ref" v="54"/>
  </way>
  <way id="38210651" version="5" timestamp="2011-02-27T17:28:37Z" uid="163896" user="Zbigniew Czernik" changeset="7412474"/>
  <way id="38210650" version="4" timestamp="2012-07-24T16:54:24Z" uid="722137" user="OSMF Redaction Account" changeset="12471073">
    <nd ref="254751212"/>
    <nd ref="965225153"/>
    <tag k="highway" v="primary"/>
    <tag k="int_ref" v="E 28"/>
    <tag k="ref" v="54"/>
  </way>
</osm>
