<?xml version='1.0' encoding='UTF-8'?>
<osm version="0.6" generator="libosmium/2.20.0">
  <way id="38301271" version="2" timestamp="2009-09-30T16:31:31Z" uid="36809" user="pfoten_weg_!_" changeset="2690373">
    <nd ref="452026514"/>
    <nd ref="452026517"/>
    <nd ref="452026521"/>
    <nd ref="452026524"/>
    <nd ref="452026514"/>
    <tag k="fixme" v="Lage nur extrapoliert"/>
    <tag k="tourism" v="camp_site"/>
  </way>
  <way id="38301271" version="3" timestamp="2011-03-09T06:48:36Z" uid="62236" user="Paulchen Panther" changeset="7500975">
    <nd ref="452026514"/>
    <nd ref="1193806002"/>
    <nd ref="452026517"/>
    <nd ref="1193806001"/>
    <nd ref="452026521"/>
    <nd ref="452026524"/>
    <nd ref="452026514"/>
    <tag k="addr:city" v="Sankt Heinrich"/>
    <tag k="addr:country" v="DE"/>
    <tag k="addr:housenumber" v="10"/>
    <tag k="addr:postcode" v="82541"/>
    <tag k="addr:street" v="BuchscharnstraÃŸe"/>
    <tag k="name" v="Camping beim Fischer"/>
    <tag k="phone" v="+49 8801 802"/>
    <tag k="tourism" v="camp_site"/>
    <tag k="website" v="http://www.camping-beim-fischer.de/"/>
  </way>
  <way id="38301449" version="2" timestamp="2009-10-17T21:50:24Z" uid="36809" user="pfoten_weg_!_" changeset="2878655">
    <nd ref="452034540"/>
    <nd ref="452034548"/>
    <nd ref="452034555"/>
    <nd ref="452034563"/>
    <nd ref="452034569"/>
    <nd ref="452034574"/>
    <nd ref="452034540"/>
    <tag k="tourism" v="camp_site"/>
  </way>
  <way id="38301449" version="3" timestamp="2009-10-17T22:06:11Z" uid="36809" user="pfoten_weg_!_" changeset="2878758"/>
  <way id="38301453" version="3" timestamp="2010-03-28T10:13:59Z" uid="20587" user="balrog-kun" changeset="4254597">
    <nd ref="452034714"/>
    <nd ref="452034770"/>
    <tag k="bridge" v="yes"/>
    <tag k="highway" v="tertiary"/>
    <tag k="layer" v="1"/>
    <tag k="name" v="Miramontes Street"/>
    <tag k="tiger:cfcc" v="A41"/>
    <tag k="tiger:county" v="San Mateo, CA"/>
    <tag k="tiger:name_base" v="Miramontes"/>
    <tag k="tiger:name_type" v="St"/>
    <tag k="tiger:separated" v="no"/>
    <tag k="tiger:source" v="tiger_import_dch_v0.6_20070809"/>
    <tag k="tiger:tlid" v="192404067:192404068:192397503:192391386:192382728:192382732:192382703:192382710"/>
    <tag k="tiger:zip_left" v="94019"/>
    <tag k="tiger:zip_left_1" v="94019"/>
    <tag k="tiger:zip_right" v="94019"/>
  </way>
  <way id="38301461" version="7" timestamp="2010-03-28T10:14:00Z" uid="20587" user="balrog-kun" changeset="4254597">
    <nd ref="452034770"/>
    <nd ref="65373392"/>
    <nd ref="65477204"/>
    <nd ref="452316785"/>
    <nd ref="452316786"/>
    <nd ref="65477207"/>
    <nd ref="451932805"/>
    <nd ref="65477209"/>
    <nd ref="65477212"/>
    <tag k="highway" v="residential"/>
    <tag k="name" v="Miramontes Street"/>
    <tag k="tiger:cfcc" v="A41"/>
    <tag k="tiger:county" v="San Mateo, CA"/>
    <tag k="tiger:name_base" v="Miramontes"/>
    <tag k="tiger:name_type" v="St"/>
    <tag k="tiger:separated" v="no"/>
    <tag k="tiger:source" v="tiger_import_dch_v0.6_20070809"/>
    <tag k="tiger:tlid" v="192404067:192404068:192397503:192391386:192382728:192382732:192382703:192382710"/>
    <tag k="tiger:zip_left" v="94019"/>
    <tag k="tiger:zip_left_1" v="94019"/>
    <tag k="tiger:zip_right" v="94019"/>
  </way>
</osm>
