<?xml version='1.0' encoding='UTF-8'?>
<osm version="0.6" generator="libosmium/2.20.0">
  <way id="38338288" version="2" timestamp="2010-03-28T10:14:17Z" uid="20587" user="balrog-kun" changeset="4254597">
    <nd ref="89832760"/>
    <nd ref="89920278"/>
    <nd ref="89920280"/>
    <nd ref="89920282"/>
    <nd ref="89688027"/>
    <nd ref="89920283"/>
    <nd ref="89920284"/>
    <nd ref="89920286"/>
    <nd ref="89758530"/>
    <nd ref="89920288"/>
    <nd ref="89920290"/>
    <nd ref="89920293"/>
    <nd ref="89917140"/>
    <nd ref="89920295"/>
    <nd ref="89920297"/>
    <nd ref="89836140"/>
    <nd ref="89814359"/>
    <nd ref="89616201"/>
    <tag k="highway" v="tertiary"/>
    <tag k="name" v="Spence Road"/>
    <tag k="tiger:cfcc" v="A41"/>
    <tag k="tiger:county" v="Monterey, CA"/>
    <tag k="tiger:name_base" v="Spence"/>
    <tag k="tiger:name_type" v="Rd"/>
    <tag k="tiger:reviewed" v="no"/>
    <tag k="tiger:separated" v="no"/>
    <tag k="tiger:source" v="tiger_import_dch_v0.6_20070809"/>
    <tag k="tiger:tlid" v="196825218:196825219"/>
  </way>
  <way id="38338328" version="2" timestamp="2010-03-28T10:14:18Z" uid="20587" user="balrog-kun" changeset="4254597">
    <nd ref="65511586"/>
    <nd ref="65511588"/>
    <nd ref="65511589"/>
    <nd ref="263073573"/>
    <tag k="created_by" v="Potlatch 0.10c"/>
    <tag k="highway" v="motorway"/>
    <tag k="name" v="Junipero Serra Freeway"/>
    <tag k="oneway" v="yes"/>
    <tag k="ref" v="I 280"/>
    <tag k="tiger:cfcc" v="A11"/>
    <tag k="tiger:county" v="San Mateo, CA"/>
    <tag k="tiger:name_base_1" v="Junipero Serra"/>
    <tag k="tiger:name_type" v="Fwy"/>
    <tag k="tiger:source" v="tiger_import_dch_v0.6_20070809"/>
    <tag k="tiger:tlid" v="192365835:192401751:192401752:192407820:192363761:192363762:192363706:192363677:192363723:192363359:192363360:192363648:192363650:192362415:192362424:192386232:192386236:192396952:192395372:192383707:192411774:192386204:192386207:192395373:192362436:19241"/>
  </way>
  <way id="38338328" version="3" timestamp="2010-08-26T08:19:52Z" uid="14293" user="dahveed76" changeset="5596822">
    <nd ref="65511586"/>
    <nd ref="65511588"/>
    <nd ref="880306812"/>
    <nd ref="65511589"/>
    <nd ref="263073573"/>
    <tag k="highway" v="motorway"/>
    <tag k="name" v="Junipero Serra Freeway"/>
    <tag k="oneway" v="yes"/>
    <tag k="ref" v="I 280"/>
    <tag k="tiger:cfcc" v="A11"/>
    <tag k="tiger:county" v="San Mateo, CA"/>
    <tag k="tiger:name_base_1" v="Junipero Serra"/>
    <tag k="tiger:name_type" v="Fwy"/>
    <tag k="tiger:source" v="tiger_import_dch_v0.6_20070809"/>
    <tag k="tiger:tlid" v="192365835:192401751:192401752:192407820:192363761:192363762:192363706:192363677:192363723:192363359:192363360:192363648:192363650:192362415:192362424:192386232:192386236:192396952:192395372:192383707:192411774:192386204:192386207:192395373:192362436:19241"/>
  </way>
  <way id="38338328" version="4" timestamp="2010-08-26T08:20:05Z" uid="14293" user="dahveed76" changeset="5596822">
    <nd ref="65511586"/>
    <nd ref="880306815"/>
    <nd ref="880306816"/>
    <nd ref="65511588"/>
    <nd ref="880306812"/>
    <nd ref="65511589"/>
    <nd ref="263073573"/>
    <tag k="highway" v="motorway"/>
    <tag k="name" v="Junipero Serra Freeway"/>
    <tag k="oneway" v="yes"/>
    <tag k="ref" v="I 280"/>
    <tag k="tiger:cfcc" v="A11"/>
    <tag k="tiger:county" v="San Mateo, CA"/>
    <tag k="tiger:name_base_1" v="Junipero Serra"/>
    <tag k="tiger:name_type" v="Fwy"/>
    <tag k="tiger:source" v="tiger_import_dch_v0.6_20070809"/>
    <tag k="tiger:tlid" v="192365835:192401751:192401752:192407820:192363761:192363762:192363706:192363677:192363723:192363359:192363360:192363648:192363650:192362415:192362424:192386232:192386236:192396952:192395372:192383707:192411774:192386204:192386207:192395373:192362436:19241"/>
  </way>
  <way id="38338328" version="5" timestamp="2010-08-26T08:20:25Z" uid="14293" user="dahveed76" changeset="5596822">
    <nd ref="65511586"/>
    <nd ref="880306815"/>
    <nd ref="880306816"/>
    <nd ref="65511588"/>
    <nd ref="880306812"/>
    <nd ref="65511589"/>
    <nd ref="880307152"/>
    <nd ref="263073573"/>
    <tag k="highway" v="motorway"/>
    <tag k="name" v="Junipero Serra Freeway"/>
    <tag k="oneway" v="yes"/>
    <tag k="ref" v="I 280"/>
    <tag k="tiger:cfcc" v="A11"/>
    <tag k="tiger:county" v="San Mateo, CA"/>
    <tag k="tiger:name_base_1" v="Junipero Serra"/>
    <tag k="tiger:name_type" v="Fwy"/>
    <tag k="tiger:source" v="tiger_import_dch_v0.6_20070809"/>
    <tag k="tiger:tlid" v="192365835:192401751:192401752:192407820:192363761:192363762:192363706:192363677:192363723:192363359:192363360:192363648:192363650:192362415:192362424:192386232:192386236:192396952:192395372:192383707:192411774:192386204:192386207:192395373:192362436:19241"/>
  </way>
  <way id="38338328" version="6" timestamp="2010-08-26T08:20:50Z" uid="14293" user="dahveed76" changeset="5596822">
    <nd ref="65511586"/>
    <nd ref="880306815"/>
    <nd ref="880306816"/>
    <nd ref="65511588"/>
    <nd ref="880306812"/>
    <nd ref="65511589"/>
    <nd ref="880307152"/>
    <nd ref="880307718"/>
    <nd ref="880307719"/>
    <nd ref="263073573"/>
    <tag k="highway" v="motorway"/>
    <tag k="name" v="Junipero Serra Freeway"/>
    <tag k="oneway" v="yes"/>
    <tag k="ref" v="I 280"/>
    <tag k="tiger:cfcc" v="A11"/>
    <tag k="tiger:county" v="San Mateo, CA"/>
    <tag k="tiger:name_base_1" v="Junipero Serra"/>
    <tag k="tiger:name_type" v="Fwy"/>
    <tag k="tiger:source" v="tiger_import_dch_v0.6_20070809"/>
    <tag k="tiger:tlid" v="192365835:192401751:192401752:192407820:192363761:192363762:192363706:192363677:192363723:192363359:192363360:192363648:192363650:192362415:192362424:192386232:192386236:192396952:192395372:192383707:192411774:192386204:192386207:192395373:192362436:19241"/>
  </way>
  <way id="38338328" version="7" timestamp="2011-06-27T13:25:44Z" uid="473471" user="NE3" changeset="8562081">
    <nd ref="65511586"/>
    <nd ref="880306815"/>
    <nd ref="880306816"/>
    <nd ref="65511588"/>
    <nd ref="880306812"/>
    <nd ref="65511589"/>
    <nd ref="880307152"/>
    <nd ref="880307718"/>
    <nd ref="880307719"/>
    <nd ref="263073573"/>
    <tag k="highway" v="motorway"/>
    <tag k="lanes" v="4"/>
    <tag k="name" v="Junipero Serra Freeway"/>
    <tag k="oneway" v="yes"/>
    <tag k="ref" v="I 280;SR 35"/>
    <tag k="tiger:cfcc" v="A11"/>
    <tag k="tiger:county" v="San Mateo, CA"/>
    <tag k="tiger:name_base_1" v="Junipero Serra"/>
    <tag k="tiger:name_type" v="Fwy"/>
    <tag k="tiger:source" v="tiger_import_dch_v0.6_20070809"/>
    <tag k="tiger:tlid" v="192365835:192401751:192401752:192407820:192363761:192363762:192363706:192363677:192363723:192363359:192363360:192363648:192363650:192362415:192362424:192386232:192386236:192396952:192395372:192383707:192411774:192386204:192386207:192395373:192362436:19241"/>
  </way>
  <way id="38338328" version="8" timestamp="2011-11-25T14:35:14Z" uid="207745" user="NE2" changeset="9943893">
    <nd ref="65511586"/>
    <nd ref="880306815"/>
    <nd ref="880306816"/>
    <nd ref="65511588"/>
    <nd ref="880306812"/>
    <nd ref="65511589"/>
    <nd ref="880307152"/>
    <nd ref="880307718"/>
    <nd ref="880307719"/>
    <nd ref="263073573"/>
    <tag k="hgv" v="designated"/>
    <tag k="highway" v="motorway"/>
    <tag k="lanes" v="4"/>
    <tag k="name" v="Junipero Serra Freeway"/>
    <tag k="oneway" v="yes"/>
    <tag k="ref" v="I 280;SR 35"/>
    <tag k="tiger:cfcc" v="A11"/>
    <tag k="tiger:county" v="San Mateo, CA"/>
    <tag k="tiger:name_base_1" v="Junipero Serra"/>
    <tag k="tiger:name_type" v="Fwy"/>
    <tag k="tiger:source" v="tiger_import_dch_v0.6_20070809"/>
    <tag k="tiger:tlid" v="192365835:192401751:192401752:192407820:192363761:192363762:192363706:192363677:192363723:192363359:192363360:192363648:192363650:192362415:192362424:192386232:192386236:192396952:192395372:192383707:192411774:192386204:192386207:192395373:192362436:19241"/>
  </way>
  <way id="38338328" version="9" timestamp="2012-01-18T21:59:03Z" uid="25510" user="Apo42" changeset="10432167">
    <nd ref="65511586"/>
    <nd ref="880306815"/>
    <nd ref="880306816"/>
    <nd ref="65511588"/>
    <nd ref="880306812"/>
    <nd ref="65511589"/>
    <nd ref="880307152"/>
    <nd ref="880307718"/>
    <nd ref="880307719"/>
    <nd ref="263073573"/>
    <tag k="hgv" v="designated"/>
    <tag k="highway" v="motorway"/>
    <tag k="lanes" v="4"/>
    <tag k="name" v="Junipero Serra Freeway"/>
    <tag k="oneway" v="yes"/>
    <tag k="ref" v="I 280"/>
    <tag k="tiger:county" v="San Mateo, CA"/>
  </way>
  <way id="38338329" version="2" timestamp="2010-03-28T10:14:18Z" uid="20587" user="balrog-kun" changeset="4254597">
    <nd ref="65415647"/>
    <nd ref="65440018"/>
    <nd ref="65394568"/>
    <nd ref="65511582"/>
    <nd ref="65511583"/>
    <nd ref="65511586"/>
    <tag k="bicycle" v="yes"/>
    <tag k="created_by" v="Potlatch 0.10c"/>
    <tag k="highway" v="motorway"/>
    <tag k="name" v="Junipero Serra Freeway"/>
    <tag k="oneway" v="yes"/>
    <tag k="ref" v="I 280"/>
    <tag k="tiger:cfcc" v="A11"/>
    <tag k="tiger:county" v="San Mateo, CA"/>
    <tag k="tiger:name_base_1" v="Junipero Serra"/>
    <tag k="tiger:name_type" v="Fwy"/>
    <tag k="tiger:source" v="tiger_import_dch_v0.6_20070809"/>
    <tag k="tiger:tlid" v="192365835:192401751:192401752:192407820:192363761:192363762:192363706:192363677:192363723:192363359:192363360:192363648:192363650:192362415:192362424:192386232:192386236:192396952:192395372:192383707:192411774:192386204:192386207:192395373:192362436:19241"/>
  </way>
  <way id="38338329" version="3" timestamp="2010-08-25T13:29:36Z" uid="14293" user="dahveed76" changeset="5589740">
    <nd ref="65415647"/>
    <nd ref="65440018"/>
    <nd ref="878794059"/>
    <nd ref="65394568"/>
    <nd ref="65511582"/>
    <nd ref="65511583"/>
    <nd ref="65511586"/>
    <tag k="bicycle" v="yes"/>
    <tag k="highway" v="motorway"/>
    <tag k="name" v="Junipero Serra Freeway"/>
    <tag k="oneway" v="yes"/>
    <tag k="ref" v="I 280"/>
    <tag k="tiger:cfcc" v="A11"/>
    <tag k="tiger:county" v="San Mateo, CA"/>
    <tag k="tiger:name_base_1" v="Junipero Serra"/>
    <tag k="tiger:name_type" v="Fwy"/>
    <tag k="tiger:source" v="tiger_import_dch_v0.6_20070809"/>
    <tag k="tiger:tlid" v="192365835:192401751:192401752:192407820:192363761:192363762:192363706:192363677:192363723:192363359:192363360:192363648:192363650:192362415:192362424:192386232:192386236:192396952:192395372:192383707:192411774:192386204:192386207:192395373:192362436:19241"/>
  </way>
  <way id="38338329" version="4" timestamp="2010-08-26T02:06:53Z" uid="14293" user="dahveed76" changeset="5595392">
    <nd ref="65415647"/>
    <nd ref="65440018"/>
    <nd ref="878794059"/>
    <nd ref="879931186"/>
    <nd ref="65511582"/>
    <nd ref="65511583"/>
    <nd ref="65511586"/>
    <tag k="bicycle" v="yes"/>
    <tag k="highway" v="motorway"/>
    <tag k="name" v="Junipero Serra Freeway"/>
    <tag k="oneway" v="yes"/>
    <tag k="ref" v="I 280"/>
    <tag k="tiger:cfcc" v="A11"/>
    <tag k="tiger:county" v="San Mateo, CA"/>
    <tag k="tiger:name_base_1" v="Junipero Serra"/>
    <tag k="tiger:name_type" v="Fwy"/>
    <tag k="tiger:source" v="tiger_import_dch_v0.6_20070809"/>
    <tag k="tiger:tlid" v="192365835:192401751:192401752:192407820:192363761:192363762:192363706:192363677:192363723:192363359:192363360:192363648:192363650:192362415:192362424:192386232:192386236:192396952:192395372:192383707:192411774:192386204:192386207:192395373:192362436:19241"/>
  </way>
  <way id="38338329" version="5" timestamp="2010-08-26T02:08:34Z" uid="14293" user="dahveed76" changeset="5595392">
    <nd ref="65415647"/>
    <nd ref="65440018"/>
    <nd ref="878794059"/>
    <nd ref="879931186"/>
    <nd ref="65511582"/>
    <nd ref="879933625"/>
    <nd ref="65511583"/>
    <nd ref="65511586"/>
    <tag k="bicycle" v="yes"/>
    <tag k="highway" v="motorway"/>
    <tag k="name" v="Junipero Serra Freeway"/>
    <tag k="oneway" v="yes"/>
    <tag k="ref" v="I 280"/>
    <tag k="tiger:cfcc" v="A11"/>
    <tag k="tiger:county" v="San Mateo, CA"/>
    <tag k="tiger:name_base_1" v="Junipero Serra"/>
    <tag k="tiger:name_type" v="Fwy"/>
    <tag k="tiger:source" v="tiger_import_dch_v0.6_20070809"/>
    <tag k="tiger:tlid" v="192365835:192401751:192401752:192407820:192363761:192363762:192363706:192363677:192363723:192363359:192363360:192363648:192363650:192362415:192362424:192386232:192386236:192396952:192395372:192383707:192411774:192386204:192386207:192395373:192362436:19241"/>
  </way>
  <way id="38338329" version="6" timestamp="2010-08-26T02:09:03Z" uid="14293" user="dahveed76" changeset="5595392">
    <nd ref="65415647"/>
    <nd ref="65440018"/>
    <nd ref="878794059"/>
    <nd ref="879931186"/>
    <nd ref="879934233"/>
    <nd ref="65511582"/>
    <nd ref="879933625"/>
    <nd ref="65511583"/>
    <nd ref="65511586"/>
    <tag k="bicycle" v="yes"/>
    <tag k="highway" v="motorway"/>
    <tag k="name" v="Junipero Serra Freeway"/>
    <tag k="oneway" v="yes"/>
    <tag k="ref" v="I 280"/>
    <tag k="tiger:cfcc" v="A11"/>
    <tag k="tiger:county" v="San Mateo, CA"/>
    <tag k="tiger:name_base_1" v="Junipero Serra"/>
    <tag k="tiger:name_type" v="Fwy"/>
    <tag k="tiger:source" v="tiger_import_dch_v0.6_20070809"/>
    <tag k="tiger:tlid" v="192365835:192401751:192401752:192407820:192363761:192363762:192363706:192363677:192363723:192363359:192363360:192363648:192363650:192362415:192362424:192386232:192386236:192396952:192395372:192383707:192411774:192386204:192386207:192395373:192362436:19241"/>
  </way>
  <way id="38338329" version="7" timestamp="2010-08-26T02:09:42Z" uid="14293" user="dahveed76" changeset="5595392">
    <nd ref="65415647"/>
    <nd ref="65440018"/>
    <nd ref="879935076"/>
    <nd ref="878794059"/>
    <nd ref="879931186"/>
    <nd ref="879934233"/>
    <nd ref="65511582"/>
    <nd ref="879933625"/>
    <nd ref="65511583"/>
    <nd ref="65511586"/>
    <tag k="bicycle" v="yes"/>
    <tag k="highway" v="motorway"/>
    <tag k="name" v="Junipero Serra Freeway"/>
    <tag k="oneway" v="yes"/>
    <tag k="ref" v="I 280"/>
    <tag k="tiger:cfcc" v="A11"/>
    <tag k="tiger:county" v="San Mateo, CA"/>
    <tag k="tiger:name_base_1" v="Junipero Serra"/>
    <tag k="tiger:name_type" v="Fwy"/>
    <tag k="tiger:source" v="tiger_import_dch_v0.6_20070809"/>
    <tag k="tiger:tlid" v="192365835:192401751:192401752:192407820:192363761:192363762:192363706:192363677:192363723:192363359:192363360:192363648:192363650:192362415:192362424:192386232:192386236:192396952:192395372:192383707:192411774:192386204:192386207:192395373:192362436:19241"/>
  </way>
  <way id="38338329" version="8" timestamp="2010-08-26T02:13:12Z" uid="14293" user="dahveed76" changeset="5595392">
    <nd ref="65415647"/>
    <nd ref="65440018"/>
    <nd ref="879935076"/>
    <nd ref="878794059"/>
    <nd ref="879931186"/>
    <nd ref="879934233"/>
    <nd ref="65511582"/>
    <nd ref="879933625"/>
    <nd ref="879939038"/>
    <nd ref="65511583"/>
    <nd ref="65511586"/>
    <tag k="bicycle" v="yes"/>
    <tag k="highway" v="motorway"/>
    <tag k="name" v="Junipero Serra Freeway"/>
    <tag k="oneway" v="yes"/>
    <tag k="ref" v="I 280"/>
    <tag k="tiger:cfcc" v="A11"/>
    <tag k="tiger:county" v="San Mateo, CA"/>
    <tag k="tiger:name_base_1" v="Junipero Serra"/>
    <tag k="tiger:name_type" v="Fwy"/>
    <tag k="tiger:source" v="tiger_import_dch_v0.6_20070809"/>
    <tag k="tiger:tlid" v="192365835:192401751:192401752:192407820:192363761:192363762:192363706:192363677:192363723:192363359:192363360:192363648:192363650:192362415:192362424:192386232:192386236:192396952:192395372:192383707:192411774:192386204:192386207:192395373:192362436:19241"/>
  </way>
  <way id="38338329" version="9" timestamp="2010-08-26T02:14:04Z" uid="14293" user="dahveed76" changeset="5595392">
    <nd ref="65415647"/>
    <nd ref="65440018"/>
    <nd ref="879935076"/>
    <nd ref="878794059"/>
    <nd ref="879939962"/>
    <nd ref="879931186"/>
    <nd ref="879934233"/>
    <nd ref="65511582"/>
    <nd ref="879933625"/>
    <nd ref="879939038"/>
    <nd ref="65511583"/>
    <nd ref="65511586"/>
    <tag k="bicycle" v="yes"/>
    <tag k="highway" v="motorway"/>
    <tag k="name" v="Junipero Serra Freeway"/>
    <tag k="oneway" v="yes"/>
    <tag k="ref" v="I 280"/>
    <tag k="tiger:cfcc" v="A11"/>
    <tag k="tiger:county" v="San Mateo, CA"/>
    <tag k="tiger:name_base_1" v="Junipero Serra"/>
    <tag k="tiger:name_type" v="Fwy"/>
    <tag k="tiger:source" v="tiger_import_dch_v0.6_20070809"/>
    <tag k="tiger:tlid" v="192365835:192401751:192401752:192407820:192363761:192363762:192363706:192363677:192363723:192363359:192363360:192363648:192363650:192362415:192362424:192386232:192386236:192396952:192395372:192383707:192411774:192386204:192386207:192395373:192362436:19241"/>
  </way>
  <way id="38338329" version="10" timestamp="2010-08-26T08:18:21Z" uid="14293" user="dahveed76" changeset="5596822">
    <nd ref="65415647"/>
    <nd ref="65440018"/>
    <nd ref="879935076"/>
    <nd ref="878794059"/>
    <nd ref="879939962"/>
    <nd ref="879931186"/>
    <nd ref="879934233"/>
    <nd ref="65511582"/>
    <nd ref="879933625"/>
    <nd ref="879939038"/>
    <nd ref="65511583"/>
    <nd ref="880306538"/>
    <nd ref="65511586"/>
    <tag k="bicycle" v="yes"/>
    <tag k="highway" v="motorway"/>
    <tag k="name" v="Junipero Serra Freeway"/>
    <tag k="oneway" v="yes"/>
    <tag k="ref" v="I 280"/>
    <tag k="tiger:cfcc" v="A11"/>
    <tag k="tiger:county" v="San Mateo, CA"/>
    <tag k="tiger:name_base_1" v="Junipero Serra"/>
    <tag k="tiger:name_type" v="Fwy"/>
    <tag k="tiger:source" v="tiger_import_dch_v0.6_20070809"/>
    <tag k="tiger:tlid" v="192365835:192401751:192401752:192407820:192363761:192363762:192363706:192363677:192363723:192363359:192363360:192363648:192363650:192362415:192362424:192386232:192386236:192396952:192395372:192383707:192411774:192386204:192386207:192395373:192362436:19241"/>
  </way>
  <way id="38338329" version="11" timestamp="2010-08-26T08:18:41Z" uid="14293" user="dahveed76" changeset="5596822">
    <nd ref="65415647"/>
    <nd ref="65440018"/>
    <nd ref="879935076"/>
    <nd ref="878794059"/>
    <nd ref="879939962"/>
    <nd ref="879931186"/>
    <nd ref="879934233"/>
    <nd ref="65511582"/>
    <nd ref="879933625"/>
    <nd ref="879939038"/>
    <nd ref="65511586"/>
    <tag k="bicycle" v="yes"/>
    <tag k="highway" v="motorway"/>
    <tag k="name" v="Junipero Serra Freeway"/>
    <tag k="oneway" v="yes"/>
    <tag k="ref" v="I 280"/>
    <tag k="tiger:cfcc" v="A11"/>
    <tag k="tiger:county" v="San Mateo, CA"/>
    <tag k="tiger:name_base_1" v="Junipero Serra"/>
    <tag k="tiger:name_type" v="Fwy"/>
    <tag k="tiger:source" v="tiger_import_dch_v0.6_20070809"/>
    <tag k="tiger:tlid" v="192365835:192401751:192401752:192407820:192363761:192363762:192363706:192363677:192363723:192363359:192363360:192363648:192363650:192362415:192362424:192386232:192386236:192396952:192395372:192383707:192411774:192386204:192386207:192395373:192362436:19241"/>
  </way>
  <way id="38338329" version="12" timestamp="2011-06-27T13:23:42Z" uid="473471" user="NE3" changeset="8562081">
    <nd ref="65415647"/>
    <nd ref="65440018"/>
    <nd ref="879935076"/>
    <nd ref="878794059"/>
    <nd ref="879939962"/>
    <nd ref="879931186"/>
    <nd ref="879934233"/>
    <nd ref="65511582"/>
    <nd ref="879933625"/>
    <nd ref="879939038"/>
    <nd ref="65511586"/>
    <tag k="bicycle" v="yes"/>
    <tag k="highway" v="motorway"/>
    <tag k="lanes" v="4"/>
    <tag k="name" v="Junipero Serra Freeway"/>
    <tag k="oneway" v="yes"/>
    <tag k="ref" v="I 280;SR 35"/>
    <tag k="tiger:cfcc" v="A11"/>
    <tag k="tiger:county" v="San Mateo, CA"/>
    <tag k="tiger:name_base_1" v="Junipero Serra"/>
    <tag k="tiger:name_type" v="Fwy"/>
    <tag k="tiger:source" v="tiger_import_dch_v0.6_20070809"/>
    <tag k="tiger:tlid" v="192365835:192401751:192401752:192407820:192363761:192363762:192363706:192363677:192363723:192363359:192363360:192363648:192363650:192362415:192362424:192386232:192386236:192396952:192395372:192383707:192411774:192386204:192386207:192395373:192362436:19241"/>
  </way>
  <way id="38338329" version="13" timestamp="2011-11-25T14:35:23Z" uid="207745" user="NE2" changeset="9943893">
    <nd ref="65415647"/>
    <nd ref="65440018"/>
    <nd ref="879935076"/>
    <nd ref="878794059"/>
    <nd ref="879939962"/>
    <nd ref="879931186"/>
    <nd ref="879934233"/>
    <nd ref="65511582"/>
    <nd ref="879933625"/>
    <nd ref="879939038"/>
    <nd ref="65511586"/>
    <tag k="bicycle" v="yes"/>
    <tag k="hgv" v="designated"/>
    <tag k="highway" v="motorway"/>
    <tag k="lanes" v="4"/>
    <tag k="name" v="Junipero Serra Freeway"/>
    <tag k="oneway" v="yes"/>
    <tag k="ref" v="I 280;SR 35"/>
    <tag k="tiger:cfcc" v="A11"/>
    <tag k="tiger:county" v="San Mateo, CA"/>
    <tag k="tiger:name_base_1" v="Junipero Serra"/>
    <tag k="tiger:name_type" v="Fwy"/>
    <tag k="tiger:source" v="tiger_import_dch_v0.6_20070809"/>
    <tag k="tiger:tlid" v="192365835:192401751:192401752:192407820:192363761:192363762:192363706:192363677:192363723:192363359:192363360:192363648:192363650:192362415:192362424:192386232:192386236:192396952:192395372:192383707:192411774:192386204:192386207:192395373:192362436:19241"/>
  </way>
  <way id="38338329" version="14" timestamp="2012-01-18T21:59:05Z" uid="25510" user="Apo42" changeset="10432167">
    <nd ref="65415647"/>
    <nd ref="65440018"/>
    <nd ref="879935076"/>
    <nd ref="878794059"/>
    <nd ref="879939962"/>
    <nd ref="879931186"/>
    <nd ref="879934233"/>
    <nd ref="65511582"/>
    <nd ref="879933625"/>
    <nd ref="879939038"/>
    <nd ref="65511586"/>
    <tag k="bicycle" v="yes"/>
    <tag k="hgv" v="designated"/>
    <tag k="highway" v="motorway"/>
    <tag k="lanes" v="4"/>
    <tag k="name" v="Junipero Serra Freeway"/>
    <tag k="oneway" v="yes"/>
    <tag k="ref" v="I 280"/>
    <tag k="tiger:county" v="San Mateo, CA"/>
  </way>
  <way id="38338329" version="15" timestamp="2012-03-29T23:42:53Z" uid="123633" user="stevea" changeset="11145979"/>
  <way id="38338330" version="2" timestamp="2010-03-28T10:14:18Z" uid="20587" user="balrog-kun" changeset="4254597">
    <nd ref="258312414"/>
    <nd ref="250041878"/>
    <nd ref="32927493"/>
    <nd ref="258312412"/>
    <tag k="bicycle" v="yes"/>
    <tag k="created_by" v="Potlatch 0.10e"/>
    <tag k="highway" v="motorway"/>
    <tag k="name" v="Junipero Serra Freeway"/>
    <tag k="oneway" v="yes"/>
    <tag k="ref" v="I 280"/>
  </way>
  <way id="38338330" version="3" timestamp="2010-08-26T02:07:02Z" uid="14293" user="dahveed76" changeset="5595392">
    <nd ref="258312414"/>
    <nd ref="250041878"/>
    <nd ref="32927493"/>
    <nd ref="258312412"/>
    <tag k="bicycle" v="yes"/>
    <tag k="highway" v="motorway"/>
    <tag k="name" v="Junipero Serra Freeway"/>
    <tag k="oneway" v="yes"/>
    <tag k="ref" v="I 280"/>
  </way>
  <way id="38338330" version="4" timestamp="2010-08-26T02:07:34Z" uid="14293" user="dahveed76" changeset="5595392">
    <nd ref="258312414"/>
    <nd ref="250041878"/>
    <nd ref="32927493"/>
    <nd ref="879932162"/>
    <nd ref="258312412"/>
    <tag k="bicycle" v="yes"/>
    <tag k="highway" v="motorway"/>
    <tag k="name" v="Junipero Serra Freeway"/>
    <tag k="oneway" v="yes"/>
    <tag k="ref" v="I 280"/>
  </way>
  <way id="38338330" version="5" timestamp="2010-08-26T02:08:28Z" uid="14293" user="dahveed76" changeset="5595392">
    <nd ref="258312414"/>
    <nd ref="250041878"/>
    <nd ref="879933441"/>
    <nd ref="879933444"/>
    <nd ref="879933446"/>
    <nd ref="32927493"/>
    <nd ref="879932162"/>
    <nd ref="258312412"/>
    <tag k="bicycle" v="yes"/>
    <tag k="highway" v="motorway"/>
    <tag k="name" v="Junipero Serra Freeway"/>
    <tag k="oneway" v="yes"/>
    <tag k="ref" v="I 280"/>
  </way>
  <way id="38338330" version="6" timestamp="2010-08-26T02:14:52Z" uid="14293" user="dahveed76" changeset="5595392">
    <nd ref="258312414"/>
    <nd ref="250041878"/>
    <nd ref="879933441"/>
    <nd ref="879933444"/>
    <nd ref="879933446"/>
    <nd ref="32927493"/>
    <nd ref="258312412"/>
    <tag k="bicycle" v="yes"/>
    <tag k="highway" v="motorway"/>
    <tag k="name" v="Junipero Serra Freeway"/>
    <tag k="oneway" v="yes"/>
    <tag k="ref" v="I 280"/>
  </way>
  <way id="38338330" version="7" timestamp="2010-08-26T08:17:57Z" uid="14293" user="dahveed76" changeset="5596822">
    <nd ref="258312414"/>
    <nd ref="880306504"/>
    <nd ref="250041878"/>
    <nd ref="879933441"/>
    <nd ref="879933444"/>
    <nd ref="879933446"/>
    <nd ref="32927493"/>
    <nd ref="258312412"/>
    <tag k="bicycle" v="yes"/>
    <tag k="highway" v="motorway"/>
    <tag k="name" v="Junipero Serra Freeway"/>
    <tag k="oneway" v="yes"/>
    <tag k="ref" v="I 280"/>
  </way>
  <way id="38338330" version="8" timestamp="2011-06-27T13:28:25Z" uid="473471" user="NE3" changeset="8562081">
    <nd ref="258312414"/>
    <nd ref="880306504"/>
    <nd ref="250041878"/>
    <nd ref="879933441"/>
    <nd ref="879933444"/>
    <nd ref="879933446"/>
    <nd ref="32927493"/>
    <nd ref="258312412"/>
    <tag k="bicycle" v="yes"/>
    <tag k="highway" v="motorway"/>
    <tag k="lanes" v="4"/>
    <tag k="name" v="Junipero Serra Freeway"/>
    <tag k="oneway" v="yes"/>
    <tag k="ref" v="I 280;SR 35"/>
  </way>
  <way id="38338330" version="9" timestamp="2011-11-25T14:37:46Z" uid="207745" user="NE2" changeset="9943893">
    <nd ref="258312414"/>
    <nd ref="880306504"/>
    <nd ref="250041878"/>
    <nd ref="879933441"/>
    <nd ref="879933444"/>
    <nd ref="879933446"/>
    <nd ref="32927493"/>
    <nd ref="258312412"/>
    <tag k="bicycle" v="yes"/>
    <tag k="hgv" v="designated"/>
    <tag k="highway" v="motorway"/>
    <tag k="lanes" v="4"/>
    <tag k="name" v="Junipero Serra Freeway"/>
    <tag k="oneway" v="yes"/>
    <tag k="ref" v="I 280;SR 35"/>
  </way>
  <way id="38338330" version="10" timestamp="2012-01-18T21:59:17Z" uid="25510" user="Apo42" changeset="10432167">
    <nd ref="258312414"/>
    <nd ref="880306504"/>
    <nd ref="250041878"/>
    <nd ref="879933441"/>
    <nd ref="879933444"/>
    <nd ref="879933446"/>
    <nd ref="32927493"/>
    <nd ref="258312412"/>
    <tag k="bicycle" v="yes"/>
    <tag k="hgv" v="designated"/>
    <tag k="highway" v="motorway"/>
    <tag k="lanes" v="4"/>
    <tag k="name" v="Junipero Serra Freeway"/>
    <tag k="oneway" v="yes"/>
    <tag k="ref" v="I 280"/>
  </way>
  <way id="38338331" version="3" timestamp="2010-03-28T10:14:18Z" uid="20587" user="balrog-kun" changeset="4254597">
    <nd ref="258312412"/>
    <nd ref="32927494"/>
    <nd ref="257561398"/>
    <nd ref="32927495"/>
    <nd ref="306805913"/>
    <tag k="highway" v="motorway"/>
    <tag k="name" v="Junipero Serra Freeway"/>
    <tag k="oneway" v="yes"/>
    <tag k="ref" v="I 280"/>
  </way>
  <way id="38338331" version="4" timestamp="2010-08-25T13:19:47Z" uid="14293" user="dahveed76" changeset="5589740">
    <nd ref="258312412"/>
    <nd ref="32927494"/>
    <nd ref="257561398"/>
    <nd ref="32927495"/>
    <nd ref="878787105"/>
    <nd ref="306805913"/>
    <tag k="highway" v="motorway"/>
    <tag k="name" v="Junipero Serra Freeway"/>
    <tag k="oneway" v="yes"/>
    <tag k="ref" v="I 280"/>
  </way>
  <way id="38338331" version="5" timestamp="2010-08-26T02:07:21Z" uid="14293" user="dahveed76" changeset="5595392">
    <nd ref="258312412"/>
    <nd ref="879931850"/>
    <nd ref="32927494"/>
    <nd ref="257561398"/>
    <nd ref="32927495"/>
    <nd ref="878787105"/>
    <nd ref="306805913"/>
    <tag k="highway" v="motorway"/>
    <tag k="name" v="Junipero Serra Freeway"/>
    <tag k="oneway" v="yes"/>
    <tag k="ref" v="I 280"/>
  </way>
  <way id="38338331" version="6" timestamp="2010-08-26T02:10:21Z" uid="14293" user="dahveed76" changeset="5595392">
    <nd ref="258312412"/>
    <nd ref="879931850"/>
    <nd ref="32927494"/>
    <nd ref="257561398"/>
    <nd ref="879935828"/>
    <nd ref="32927495"/>
    <nd ref="878787105"/>
    <nd ref="306805913"/>
    <tag k="highway" v="motorway"/>
    <tag k="name" v="Junipero Serra Freeway"/>
    <tag k="oneway" v="yes"/>
    <tag k="ref" v="I 280"/>
  </way>
  <way id="38338331" version="7" timestamp="2010-08-26T02:10:37Z" uid="14293" user="dahveed76" changeset="5595392">
    <nd ref="258312412"/>
    <nd ref="879931850"/>
    <nd ref="32927494"/>
    <nd ref="879936134"/>
    <nd ref="257561398"/>
    <nd ref="879935828"/>
    <nd ref="32927495"/>
    <nd ref="878787105"/>
    <nd ref="306805913"/>
    <tag k="highway" v="motorway"/>
    <tag k="name" v="Junipero Serra Freeway"/>
    <tag k="oneway" v="yes"/>
    <tag k="ref" v="I 280"/>
  </way>
  <way id="38338331" version="8" timestamp="2010-08-26T02:10:46Z" uid="14293" user="dahveed76" changeset="5595392">
    <nd ref="258312412"/>
    <nd ref="879931850"/>
    <nd ref="879936134"/>
    <nd ref="257561398"/>
    <nd ref="879935828"/>
    <nd ref="32927495"/>
    <nd ref="878787105"/>
    <nd ref="306805913"/>
    <tag k="highway" v="motorway"/>
    <tag k="name" v="Junipero Serra Freeway"/>
    <tag k="oneway" v="yes"/>
    <tag k="ref" v="I 280"/>
  </way>
  <way id="38338331" version="9" timestamp="2010-08-26T02:12:00Z" uid="14293" user="dahveed76" changeset="5595392">
    <nd ref="258312412"/>
    <nd ref="879931850"/>
    <nd ref="879936134"/>
    <nd ref="257561398"/>
    <nd ref="879937677"/>
    <nd ref="879935828"/>
    <nd ref="32927495"/>
    <nd ref="878787105"/>
    <nd ref="306805913"/>
    <tag k="highway" v="motorway"/>
    <tag k="name" v="Junipero Serra Freeway"/>
    <tag k="oneway" v="yes"/>
    <tag k="ref" v="I 280"/>
  </way>
  <way id="38338331" version="10" timestamp="2010-08-26T02:14:59Z" uid="14293" user="dahveed76" changeset="5595392">
    <nd ref="258312412"/>
    <nd ref="879940943"/>
    <nd ref="879931850"/>
    <nd ref="879936134"/>
    <nd ref="257561398"/>
    <nd ref="879937677"/>
    <nd ref="879935828"/>
    <nd ref="32927495"/>
    <nd ref="878787105"/>
    <nd ref="306805913"/>
    <tag k="highway" v="motorway"/>
    <tag k="name" v="Junipero Serra Freeway"/>
    <tag k="oneway" v="yes"/>
    <tag k="ref" v="I 280"/>
  </way>
  <way id="38338331" version="11" timestamp="2011-06-27T13:27:03Z" uid="473471" user="NE3" changeset="8562081">
    <nd ref="258312412"/>
    <nd ref="879940943"/>
    <nd ref="879931850"/>
    <nd ref="879936134"/>
    <nd ref="257561398"/>
    <nd ref="879937677"/>
    <nd ref="879935828"/>
    <nd ref="32927495"/>
    <nd ref="878787105"/>
    <nd ref="306805913"/>
    <tag k="highway" v="motorway"/>
    <tag k="lanes" v="4"/>
    <tag k="name" v="Junipero Serra Freeway"/>
    <tag k="oneway" v="yes"/>
    <tag k="ref" v="I 280;SR 35"/>
  </way>
  <way id="38338331" version="12" timestamp="2011-11-25T14:35:13Z" uid="207745" user="NE2" changeset="9943893">
    <nd ref="258312412"/>
    <nd ref="879940943"/>
    <nd ref="879931850"/>
    <nd ref="879936134"/>
    <nd ref="257561398"/>
    <nd ref="879937677"/>
    <nd ref="879935828"/>
    <nd ref="32927495"/>
    <nd ref="878787105"/>
    <nd ref="306805913"/>
    <tag k="hgv" v="designated"/>
    <tag k="highway" v="motorway"/>
    <tag k="lanes" v="4"/>
    <tag k="name" v="Junipero Serra Freeway"/>
    <tag k="oneway" v="yes"/>
    <tag k="ref" v="I 280;SR 35"/>
  </way>
  <way id="38338331" version="13" timestamp="2012-01-18T21:59:04Z" uid="25510" user="Apo42" changeset="10432167">
    <nd ref="258312412"/>
    <nd ref="879940943"/>
    <nd ref="879931850"/>
    <nd ref="879936134"/>
    <nd ref="257561398"/>
    <nd ref="879937677"/>
    <nd ref="879935828"/>
    <nd ref="32927495"/>
    <nd ref="878787105"/>
    <nd ref="306805913"/>
    <tag k="hgv" v="designated"/>
    <tag k="highway" v="motorway"/>
    <tag k="lanes" v="4"/>
    <tag k="name" v="Junipero Serra Freeway"/>
    <tag k="oneway" v="yes"/>
    <tag k="ref" v="I 280"/>
  </way>
  <way id="38338331" version="14" timestamp="2012-03-29T23:42:53Z" uid="123633" user="stevea" changeset="11145979"/>
  <way id="38338528" version="2" timestamp="2010-03-28T10:14:19Z" uid="20587" user="balrog-kun" changeset="4254597">
    <nd ref="250040690"/>
    <nd ref="257560989"/>
    <tag k="bicycle" v="yes"/>
    <tag k="created_by" v="Potlatch 0.10f"/>
    <tag k="highway" v="motorway"/>
    <tag k="name" v="Junipero Serra Freeway"/>
    <tag k="oneway" v="yes"/>
    <tag k="ref" v="I 280"/>
  </way>
  <way id="38338528" version="3" timestamp="2011-06-27T13:26:00Z" uid="473471" user="NE3" changeset="8562081">
    <nd ref="250040690"/>
    <nd ref="257560989"/>
    <tag k="bicycle" v="yes"/>
    <tag k="highway" v="motorway"/>
    <tag k="lanes" v="4"/>
    <tag k="name" v="Junipero Serra Freeway"/>
    <tag k="oneway" v="yes"/>
    <tag k="ref" v="I 280;SR 35"/>
  </way>
  <way id="38338528" version="4" timestamp="2011-11-25T14:36:06Z" uid="207745" user="NE2" changeset="9943893">
    <nd ref="250040690"/>
    <nd ref="257560989"/>
    <tag k="bicycle" v="yes"/>
    <tag k="hgv" v="designated"/>
    <tag k="highway" v="motorway"/>
    <tag k="lanes" v="4"/>
    <tag k="name" v="Junipero Serra Freeway"/>
    <tag k="oneway" v="yes"/>
    <tag k="ref" v="I 280;SR 35"/>
  </way>
  <way id="38338528" version="5" timestamp="2012-01-18T21:59:11Z" uid="25510" user="Apo42" changeset="10432167">
    <nd ref="250040690"/>
    <nd ref="257560989"/>
    <tag k="bicycle" v="yes"/>
    <tag k="hgv" v="designated"/>
    <tag k="highway" v="motorway"/>
    <tag k="lanes" v="4"/>
    <tag k="name" v="Junipero Serra Freeway"/>
    <tag k="oneway" v="yes"/>
    <tag k="ref" v="I 280"/>
  </way>
  <way id="38338529" version="2" timestamp="2010-03-28T10:14:19Z" uid="20587" user="balrog-kun" changeset="4254597">
    <nd ref="257560989"/>
    <nd ref="32927498"/>
    <nd ref="32927499"/>
    <nd ref="32927500"/>
    <nd ref="32927501"/>
    <nd ref="360896556"/>
    <nd ref="32927502"/>
    <nd ref="32927503"/>
    <nd ref="32927504"/>
    <nd ref="265670280"/>
    <nd ref="32927505"/>
    <nd ref="360983460"/>
    <nd ref="32927506"/>
    <nd ref="265670282"/>
    <tag k="created_by" v="Potlatch 0.10f"/>
    <tag k="highway" v="motorway"/>
    <tag k="name" v="Junipero Serra Freeway"/>
    <tag k="oneway" v="yes"/>
    <tag k="ref" v="I 280"/>
  </way>
  <way id="38338529" version="3" timestamp="2010-08-25T13:26:41Z" uid="14293" user="dahveed76" changeset="5589740">
    <nd ref="257560989"/>
    <nd ref="32927498"/>
    <nd ref="32927499"/>
    <nd ref="32927500"/>
    <nd ref="32927501"/>
    <nd ref="360896556"/>
    <nd ref="32927502"/>
    <nd ref="32927503"/>
    <nd ref="32927504"/>
    <nd ref="265670280"/>
    <nd ref="32927505"/>
    <nd ref="360983460"/>
    <nd ref="32927506"/>
    <nd ref="265670282"/>
    <tag k="highway" v="motorway"/>
    <tag k="name" v="Junipero Serra Freeway"/>
    <tag k="oneway" v="yes"/>
    <tag k="ref" v="I 280"/>
  </way>
  <way id="38338529" version="4" timestamp="2010-08-25T13:26:58Z" uid="14293" user="dahveed76" changeset="5589740">
    <nd ref="257560989"/>
    <nd ref="878792681"/>
    <nd ref="32927498"/>
    <nd ref="32927499"/>
    <nd ref="32927500"/>
    <nd ref="32927501"/>
    <nd ref="360896556"/>
    <nd ref="32927502"/>
    <nd ref="32927503"/>
    <nd ref="32927504"/>
    <nd ref="265670280"/>
    <nd ref="32927505"/>
    <nd ref="360983460"/>
    <nd ref="32927506"/>
    <nd ref="265670282"/>
    <tag k="highway" v="motorway"/>
    <tag k="name" v="Junipero Serra Freeway"/>
    <tag k="oneway" v="yes"/>
    <tag k="ref" v="I 280"/>
  </way>
  <way id="38338529" version="5" timestamp="2010-08-26T03:26:57Z" uid="14293" user="dahveed76" changeset="5595493">
    <nd ref="257560989"/>
    <nd ref="878792681"/>
    <nd ref="32927498"/>
    <nd ref="32927499"/>
    <nd ref="32927500"/>
    <nd ref="32927501"/>
    <nd ref="360896556"/>
    <nd ref="32927502"/>
    <nd ref="32927503"/>
    <nd ref="32927504"/>
    <nd ref="265670280"/>
    <nd ref="880010867"/>
    <nd ref="32927505"/>
    <nd ref="360983460"/>
    <nd ref="32927506"/>
    <nd ref="265670282"/>
    <tag k="highway" v="motorway"/>
    <tag k="name" v="Junipero Serra Freeway"/>
    <tag k="oneway" v="yes"/>
    <tag k="ref" v="I 280"/>
  </way>
  <way id="38338529" version="6" timestamp="2010-08-26T03:27:32Z" uid="14293" user="dahveed76" changeset="5595493">
    <nd ref="257560989"/>
    <nd ref="878792681"/>
    <nd ref="32927498"/>
    <nd ref="32927499"/>
    <nd ref="32927500"/>
    <nd ref="32927501"/>
    <nd ref="360896556"/>
    <nd ref="32927502"/>
    <nd ref="32927503"/>
    <nd ref="32927504"/>
    <nd ref="265670280"/>
    <nd ref="880010867"/>
    <nd ref="32927505"/>
    <nd ref="880011433"/>
    <nd ref="360983460"/>
    <nd ref="880011436"/>
    <nd ref="32927506"/>
    <nd ref="265670282"/>
    <tag k="highway" v="motorway"/>
    <tag k="name" v="Junipero Serra Freeway"/>
    <tag k="oneway" v="yes"/>
    <tag k="ref" v="I 280"/>
  </way>
  <way id="38338529" version="7" timestamp="2010-08-26T07:54:40Z" uid="14293" user="dahveed76" changeset="5596589">
    <nd ref="257560989"/>
    <nd ref="878792681"/>
    <nd ref="32927498"/>
    <nd ref="880275336"/>
    <nd ref="32927499"/>
    <nd ref="32927500"/>
    <nd ref="32927501"/>
    <nd ref="360896556"/>
    <nd ref="32927502"/>
    <nd ref="32927503"/>
    <nd ref="32927504"/>
    <nd ref="265670280"/>
    <nd ref="880010867"/>
    <nd ref="32927505"/>
    <nd ref="880011433"/>
    <nd ref="360983460"/>
    <nd ref="880011436"/>
    <nd ref="32927506"/>
    <nd ref="265670282"/>
    <tag k="highway" v="motorway"/>
    <tag k="name" v="Junipero Serra Freeway"/>
    <tag k="oneway" v="yes"/>
    <tag k="ref" v="I 280"/>
  </way>
  <way id="38338529" version="8" timestamp="2010-08-26T07:55:09Z" uid="14293" user="dahveed76" changeset="5596589">
    <nd ref="257560989"/>
    <nd ref="878792681"/>
    <nd ref="32927498"/>
    <nd ref="880275336"/>
    <nd ref="880276325"/>
    <nd ref="880276329"/>
    <nd ref="880276333"/>
    <nd ref="32927499"/>
    <nd ref="32927500"/>
    <nd ref="32927501"/>
    <nd ref="360896556"/>
    <nd ref="32927502"/>
    <nd ref="32927503"/>
    <nd ref="32927504"/>
    <nd ref="265670280"/>
    <nd ref="880010867"/>
    <nd ref="32927505"/>
    <nd ref="880011433"/>
    <nd ref="360983460"/>
    <nd ref="880011436"/>
    <nd ref="32927506"/>
    <nd ref="265670282"/>
    <tag k="highway" v="motorway"/>
    <tag k="name" v="Junipero Serra Freeway"/>
    <tag k="oneway" v="yes"/>
    <tag k="ref" v="I 280"/>
  </way>
  <way id="38338529" version="9" timestamp="2010-08-26T07:55:36Z" uid="14293" user="dahveed76" changeset="5596589">
    <nd ref="257560989"/>
    <nd ref="878792681"/>
    <nd ref="32927498"/>
    <nd ref="880275336"/>
    <nd ref="880276325"/>
    <nd ref="880276329"/>
    <nd ref="880276333"/>
    <nd ref="32927499"/>
    <nd ref="880277360"/>
    <nd ref="32927500"/>
    <nd ref="32927501"/>
    <nd ref="360896556"/>
    <nd ref="32927502"/>
    <nd ref="32927503"/>
    <nd ref="32927504"/>
    <nd ref="265670280"/>
    <nd ref="880010867"/>
    <nd ref="32927505"/>
    <nd ref="880011433"/>
    <nd ref="360983460"/>
    <nd ref="880011436"/>
    <nd ref="32927506"/>
    <nd ref="265670282"/>
    <tag k="highway" v="motorway"/>
    <tag k="name" v="Junipero Serra Freeway"/>
    <tag k="oneway" v="yes"/>
    <tag k="ref" v="I 280"/>
  </way>
  <way id="38338529" version="10" timestamp="2010-08-26T07:57:49Z" uid="14293" user="dahveed76" changeset="5596589">
    <nd ref="257560989"/>
    <nd ref="878792681"/>
    <nd ref="32927498"/>
    <nd ref="880275336"/>
    <nd ref="880276325"/>
    <nd ref="880276329"/>
    <nd ref="880276333"/>
    <nd ref="32927499"/>
    <nd ref="880277360"/>
    <nd ref="880282476"/>
    <nd ref="880282478"/>
    <nd ref="32927500"/>
    <nd ref="32927501"/>
    <nd ref="360896556"/>
    <nd ref="32927502"/>
    <nd ref="32927503"/>
    <nd ref="32927504"/>
    <nd ref="265670280"/>
    <nd ref="880010867"/>
    <nd ref="32927505"/>
    <nd ref="880011433"/>
    <nd ref="360983460"/>
    <nd ref="880011436"/>
    <nd ref="32927506"/>
    <nd ref="265670282"/>
    <tag k="highway" v="motorway"/>
    <tag k="name" v="Junipero Serra Freeway"/>
    <tag k="oneway" v="yes"/>
    <tag k="ref" v="I 280"/>
  </way>
  <way id="38338529" version="11" timestamp="2010-08-26T07:57:53Z" uid="14293" user="dahveed76" changeset="5596589">
    <nd ref="257560989"/>
    <nd ref="878792681"/>
    <nd ref="32927498"/>
    <nd ref="880275336"/>
    <nd ref="880276325"/>
    <nd ref="880276329"/>
    <nd ref="880276333"/>
    <nd ref="32927499"/>
    <nd ref="880277360"/>
    <nd ref="880282476"/>
    <nd ref="880282478"/>
    <nd ref="880282646"/>
    <nd ref="32927500"/>
    <nd ref="32927501"/>
    <nd ref="360896556"/>
    <nd ref="32927502"/>
    <nd ref="32927503"/>
    <nd ref="32927504"/>
    <nd ref="265670280"/>
    <nd ref="880010867"/>
    <nd ref="32927505"/>
    <nd ref="880011433"/>
    <nd ref="360983460"/>
    <nd ref="880011436"/>
    <nd ref="32927506"/>
    <nd ref="265670282"/>
    <tag k="highway" v="motorway"/>
    <tag k="name" v="Junipero Serra Freeway"/>
    <tag k="oneway" v="yes"/>
    <tag k="ref" v="I 280"/>
  </way>
  <way id="38338529" version="12" timestamp="2010-08-26T07:58:06Z" uid="14293" user="dahveed76" changeset="5596589">
    <nd ref="257560989"/>
    <nd ref="878792681"/>
    <nd ref="32927498"/>
    <nd ref="880275336"/>
    <nd ref="880276325"/>
    <nd ref="880276329"/>
    <nd ref="880276333"/>
    <nd ref="32927499"/>
    <nd ref="880277360"/>
    <nd ref="880282476"/>
    <nd ref="880282478"/>
    <nd ref="880282646"/>
    <nd ref="32927500"/>
    <nd ref="880283080"/>
    <nd ref="32927501"/>
    <nd ref="360896556"/>
    <nd ref="32927502"/>
    <nd ref="32927503"/>
    <nd ref="32927504"/>
    <nd ref="265670280"/>
    <nd ref="880010867"/>
    <nd ref="32927505"/>
    <nd ref="880011433"/>
    <nd ref="360983460"/>
    <nd ref="880011436"/>
    <nd ref="32927506"/>
    <nd ref="265670282"/>
    <tag k="highway" v="motorway"/>
    <tag k="name" v="Junipero Serra Freeway"/>
    <tag k="oneway" v="yes"/>
    <tag k="ref" v="I 280"/>
  </way>
  <way id="38338529" version="13" timestamp="2010-08-26T07:58:16Z" uid="14293" user="dahveed76" changeset="5596589">
    <nd ref="257560989"/>
    <nd ref="878792681"/>
    <nd ref="32927498"/>
    <nd ref="880275336"/>
    <nd ref="880276325"/>
    <nd ref="880276329"/>
    <nd ref="880276333"/>
    <nd ref="32927499"/>
    <nd ref="880277360"/>
    <nd ref="880282476"/>
    <nd ref="880282478"/>
    <nd ref="880282646"/>
    <nd ref="32927500"/>
    <nd ref="880283080"/>
    <nd ref="880283543"/>
    <nd ref="32927501"/>
    <nd ref="360896556"/>
    <nd ref="32927502"/>
    <nd ref="32927503"/>
    <nd ref="32927504"/>
    <nd ref="265670280"/>
    <nd ref="880010867"/>
    <nd ref="32927505"/>
    <nd ref="880011433"/>
    <nd ref="360983460"/>
    <nd ref="880011436"/>
    <nd ref="32927506"/>
    <nd ref="265670282"/>
    <tag k="highway" v="motorway"/>
    <tag k="name" v="Junipero Serra Freeway"/>
    <tag k="oneway" v="yes"/>
    <tag k="ref" v="I 280"/>
  </way>
  <way id="38338529" version="14" timestamp="2010-08-26T07:58:23Z" uid="14293" user="dahveed76" changeset="5596589">
    <nd ref="257560989"/>
    <nd ref="878792681"/>
    <nd ref="32927498"/>
    <nd ref="880275336"/>
    <nd ref="880276325"/>
    <nd ref="880276329"/>
    <nd ref="880276333"/>
    <nd ref="32927499"/>
    <nd ref="880277360"/>
    <nd ref="880282476"/>
    <nd ref="880282478"/>
    <nd ref="880282646"/>
    <nd ref="32927500"/>
    <nd ref="880283080"/>
    <nd ref="880283543"/>
    <nd ref="32927501"/>
    <nd ref="880283836"/>
    <nd ref="360896556"/>
    <nd ref="32927502"/>
    <nd ref="32927503"/>
    <nd ref="32927504"/>
    <nd ref="265670280"/>
    <nd ref="880010867"/>
    <nd ref="32927505"/>
    <nd ref="880011433"/>
    <nd ref="360983460"/>
    <nd ref="880011436"/>
    <nd ref="32927506"/>
    <nd ref="265670282"/>
    <tag k="highway" v="motorway"/>
    <tag k="name" v="Junipero Serra Freeway"/>
    <tag k="oneway" v="yes"/>
    <tag k="ref" v="I 280"/>
  </way>
  <way id="38338529" version="15" timestamp="2010-08-26T07:58:28Z" uid="14293" user="dahveed76" changeset="5596589">
    <nd ref="257560989"/>
    <nd ref="878792681"/>
    <nd ref="32927498"/>
    <nd ref="880275336"/>
    <nd ref="880276325"/>
    <nd ref="880276329"/>
    <nd ref="880276333"/>
    <nd ref="32927499"/>
    <nd ref="880277360"/>
    <nd ref="880282476"/>
    <nd ref="880282478"/>
    <nd ref="880282646"/>
    <nd ref="32927500"/>
    <nd ref="880283080"/>
    <nd ref="880283543"/>
    <nd ref="32927501"/>
    <nd ref="880283836"/>
    <nd ref="360896556"/>
    <nd ref="880284085"/>
    <nd ref="32927502"/>
    <nd ref="32927503"/>
    <nd ref="32927504"/>
    <nd ref="265670280"/>
    <nd ref="880010867"/>
    <nd ref="32927505"/>
    <nd ref="880011433"/>
    <nd ref="360983460"/>
    <nd ref="880011436"/>
    <nd ref="32927506"/>
    <nd ref="265670282"/>
    <tag k="highway" v="motorway"/>
    <tag k="name" v="Junipero Serra Freeway"/>
    <tag k="oneway" v="yes"/>
    <tag k="ref" v="I 280"/>
  </way>
  <way id="38338529" version="16" timestamp="2010-08-26T07:58:48Z" uid="14293" user="dahveed76" changeset="5596589">
    <nd ref="257560989"/>
    <nd ref="878792681"/>
    <nd ref="32927498"/>
    <nd ref="880275336"/>
    <nd ref="880276325"/>
    <nd ref="880276329"/>
    <nd ref="880276333"/>
    <nd ref="32927499"/>
    <nd ref="880277360"/>
    <nd ref="880282476"/>
    <nd ref="880282478"/>
    <nd ref="880282646"/>
    <nd ref="32927500"/>
    <nd ref="880283080"/>
    <nd ref="880283543"/>
    <nd ref="32927501"/>
    <nd ref="880283836"/>
    <nd ref="360896556"/>
    <nd ref="880284085"/>
    <nd ref="880284848"/>
    <nd ref="32927502"/>
    <nd ref="32927503"/>
    <nd ref="32927504"/>
    <nd ref="265670280"/>
    <nd ref="880010867"/>
    <nd ref="32927505"/>
    <nd ref="880011433"/>
    <nd ref="360983460"/>
    <nd ref="880011436"/>
    <nd ref="32927506"/>
    <nd ref="265670282"/>
    <tag k="highway" v="motorway"/>
    <tag k="name" v="Junipero Serra Freeway"/>
    <tag k="oneway" v="yes"/>
    <tag k="ref" v="I 280"/>
  </way>
  <way id="38338529" version="17" timestamp="2010-08-26T07:58:53Z" uid="14293" user="dahveed76" changeset="5596589">
    <nd ref="257560989"/>
    <nd ref="878792681"/>
    <nd ref="32927498"/>
    <nd ref="880275336"/>
    <nd ref="880276325"/>
    <nd ref="880276329"/>
    <nd ref="880276333"/>
    <nd ref="32927499"/>
    <nd ref="880277360"/>
    <nd ref="880282476"/>
    <nd ref="880282478"/>
    <nd ref="880282646"/>
    <nd ref="32927500"/>
    <nd ref="880283080"/>
    <nd ref="880283543"/>
    <nd ref="32927501"/>
    <nd ref="880283836"/>
    <nd ref="360896556"/>
    <nd ref="880284085"/>
    <nd ref="880284848"/>
    <nd ref="32927502"/>
    <nd ref="880284992"/>
    <nd ref="32927503"/>
    <nd ref="32927504"/>
    <nd ref="265670280"/>
    <nd ref="880010867"/>
    <nd ref="32927505"/>
    <nd ref="880011433"/>
    <nd ref="360983460"/>
    <nd ref="880011436"/>
    <nd ref="32927506"/>
    <nd ref="265670282"/>
    <tag k="highway" v="motorway"/>
    <tag k="name" v="Junipero Serra Freeway"/>
    <tag k="oneway" v="yes"/>
    <tag k="ref" v="I 280"/>
  </way>
  <way id="38338529" version="18" timestamp="2010-08-26T07:59:00Z" uid="14293" user="dahveed76" changeset="5596589">
    <nd ref="257560989"/>
    <nd ref="878792681"/>
    <nd ref="32927498"/>
    <nd ref="880275336"/>
    <nd ref="880276325"/>
    <nd ref="880276329"/>
    <nd ref="880276333"/>
    <nd ref="32927499"/>
    <nd ref="880277360"/>
    <nd ref="880282476"/>
    <nd ref="880282478"/>
    <nd ref="880282646"/>
    <nd ref="32927500"/>
    <nd ref="880283080"/>
    <nd ref="880283543"/>
    <nd ref="32927501"/>
    <nd ref="880283836"/>
    <nd ref="360896556"/>
    <nd ref="880284085"/>
    <nd ref="880284848"/>
    <nd ref="32927502"/>
    <nd ref="880284992"/>
    <nd ref="880285347"/>
    <nd ref="32927503"/>
    <nd ref="32927504"/>
    <nd ref="265670280"/>
    <nd ref="880010867"/>
    <nd ref="32927505"/>
    <nd ref="880011433"/>
    <nd ref="360983460"/>
    <nd ref="880011436"/>
    <nd ref="32927506"/>
    <nd ref="265670282"/>
    <tag k="highway" v="motorway"/>
    <tag k="name" v="Junipero Serra Freeway"/>
    <tag k="oneway" v="yes"/>
    <tag k="ref" v="I 280"/>
  </way>
  <way id="38338529" version="19" timestamp="2010-08-26T07:59:16Z" uid="14293" user="dahveed76" changeset="5596589">
    <nd ref="257560989"/>
    <nd ref="878792681"/>
    <nd ref="32927498"/>
    <nd ref="880275336"/>
    <nd ref="880276325"/>
    <nd ref="880276329"/>
    <nd ref="880276333"/>
    <nd ref="32927499"/>
    <nd ref="880277360"/>
    <nd ref="880282476"/>
    <nd ref="880282478"/>
    <nd ref="880282646"/>
    <nd ref="32927500"/>
    <nd ref="880283080"/>
    <nd ref="880283543"/>
    <nd ref="32927501"/>
    <nd ref="880283836"/>
    <nd ref="360896556"/>
    <nd ref="880284085"/>
    <nd ref="880284848"/>
    <nd ref="32927502"/>
    <nd ref="880284992"/>
    <nd ref="880285347"/>
    <nd ref="880285781"/>
    <nd ref="880285784"/>
    <nd ref="32927503"/>
    <nd ref="32927504"/>
    <nd ref="265670280"/>
    <nd ref="880010867"/>
    <nd ref="32927505"/>
    <nd ref="880011433"/>
    <nd ref="360983460"/>
    <nd ref="880011436"/>
    <nd ref="32927506"/>
    <nd ref="265670282"/>
    <tag k="highway" v="motorway"/>
    <tag k="name" v="Junipero Serra Freeway"/>
    <tag k="oneway" v="yes"/>
    <tag k="ref" v="I 280"/>
  </way>
  <way id="38338529" version="20" timestamp="2010-08-26T07:59:23Z" uid="14293" user="dahveed76" changeset="5596589">
    <nd ref="257560989"/>
    <nd ref="878792681"/>
    <nd ref="32927498"/>
    <nd ref="880275336"/>
    <nd ref="880276325"/>
    <nd ref="880276329"/>
    <nd ref="880276333"/>
    <nd ref="32927499"/>
    <nd ref="880277360"/>
    <nd ref="880282476"/>
    <nd ref="880282478"/>
    <nd ref="880282646"/>
    <nd ref="32927500"/>
    <nd ref="880283080"/>
    <nd ref="880283543"/>
    <nd ref="32927501"/>
    <nd ref="880283836"/>
    <nd ref="360896556"/>
    <nd ref="880284085"/>
    <nd ref="880284848"/>
    <nd ref="32927502"/>
    <nd ref="880284992"/>
    <nd ref="880285347"/>
    <nd ref="880285781"/>
    <nd ref="880285784"/>
    <nd ref="32927503"/>
    <nd ref="880285997"/>
    <nd ref="32927504"/>
    <nd ref="265670280"/>
    <nd ref="880010867"/>
    <nd ref="32927505"/>
    <nd ref="880011433"/>
    <nd ref="360983460"/>
    <nd ref="880011436"/>
    <nd ref="32927506"/>
    <nd ref="265670282"/>
    <tag k="highway" v="motorway"/>
    <tag k="name" v="Junipero Serra Freeway"/>
    <tag k="oneway" v="yes"/>
    <tag k="ref" v="I 280"/>
  </way>
  <way id="38338529" version="21" timestamp="2010-08-26T07:59:35Z" uid="14293" user="dahveed76" changeset="5596589">
    <nd ref="257560989"/>
    <nd ref="878792681"/>
    <nd ref="32927498"/>
    <nd ref="880275336"/>
    <nd ref="880276325"/>
    <nd ref="880276329"/>
    <nd ref="880276333"/>
    <nd ref="32927499"/>
    <nd ref="880277360"/>
    <nd ref="880282476"/>
    <nd ref="880282478"/>
    <nd ref="880282646"/>
    <nd ref="32927500"/>
    <nd ref="880283080"/>
    <nd ref="880283543"/>
    <nd ref="32927501"/>
    <nd ref="880283836"/>
    <nd ref="360896556"/>
    <nd ref="880284085"/>
    <nd ref="880284848"/>
    <nd ref="32927502"/>
    <nd ref="880284992"/>
    <nd ref="880285347"/>
    <nd ref="880285781"/>
    <nd ref="880285784"/>
    <nd ref="32927503"/>
    <nd ref="880285997"/>
    <nd ref="880286375"/>
    <nd ref="880286391"/>
    <nd ref="32927504"/>
    <nd ref="265670280"/>
    <nd ref="880010867"/>
    <nd ref="32927505"/>
    <nd ref="880011433"/>
    <nd ref="360983460"/>
    <nd ref="880011436"/>
    <nd ref="32927506"/>
    <nd ref="265670282"/>
    <tag k="highway" v="motorway"/>
    <tag k="name" v="Junipero Serra Freeway"/>
    <tag k="oneway" v="yes"/>
    <tag k="ref" v="I 280"/>
  </way>
  <way id="38338529" version="22" timestamp="2010-08-26T07:59:44Z" uid="14293" user="dahveed76" changeset="5596589">
    <nd ref="257560989"/>
    <nd ref="878792681"/>
    <nd ref="32927498"/>
    <nd ref="880275336"/>
    <nd ref="880276325"/>
    <nd ref="880276329"/>
    <nd ref="880276333"/>
    <nd ref="32927499"/>
    <nd ref="880277360"/>
    <nd ref="880282476"/>
    <nd ref="880282478"/>
    <nd ref="880282646"/>
    <nd ref="32927500"/>
    <nd ref="880283080"/>
    <nd ref="880283543"/>
    <nd ref="32927501"/>
    <nd ref="880283836"/>
    <nd ref="360896556"/>
    <nd ref="880284085"/>
    <nd ref="880284848"/>
    <nd ref="32927502"/>
    <nd ref="880284992"/>
    <nd ref="880285347"/>
    <nd ref="880285781"/>
    <nd ref="880285784"/>
    <nd ref="32927503"/>
    <nd ref="880285997"/>
    <nd ref="880286375"/>
    <nd ref="880286391"/>
    <nd ref="880286694"/>
    <nd ref="32927504"/>
    <nd ref="265670280"/>
    <nd ref="880010867"/>
    <nd ref="32927505"/>
    <nd ref="880011433"/>
    <nd ref="360983460"/>
    <nd ref="880011436"/>
    <nd ref="32927506"/>
    <nd ref="265670282"/>
    <tag k="highway" v="motorway"/>
    <tag k="name" v="Junipero Serra Freeway"/>
    <tag k="oneway" v="yes"/>
    <tag k="ref" v="I 280"/>
  </way>
  <way id="38338529" version="23" timestamp="2010-08-26T07:59:52Z" uid="14293" user="dahveed76" changeset="5596589">
    <nd ref="257560989"/>
    <nd ref="878792681"/>
    <nd ref="32927498"/>
    <nd ref="880275336"/>
    <nd ref="880276325"/>
    <nd ref="880276329"/>
    <nd ref="880276333"/>
    <nd ref="32927499"/>
    <nd ref="880277360"/>
    <nd ref="880282476"/>
    <nd ref="880282478"/>
    <nd ref="880282646"/>
    <nd ref="32927500"/>
    <nd ref="880283080"/>
    <nd ref="880283543"/>
    <nd ref="32927501"/>
    <nd ref="880283836"/>
    <nd ref="360896556"/>
    <nd ref="880284085"/>
    <nd ref="880284848"/>
    <nd ref="32927502"/>
    <nd ref="880284992"/>
    <nd ref="880285347"/>
    <nd ref="880285781"/>
    <nd ref="880285784"/>
    <nd ref="32927503"/>
    <nd ref="880285997"/>
    <nd ref="880286375"/>
    <nd ref="880286391"/>
    <nd ref="880286694"/>
    <nd ref="32927504"/>
    <nd ref="265670280"/>
    <nd ref="880287048"/>
    <nd ref="880010867"/>
    <nd ref="32927505"/>
    <nd ref="880011433"/>
    <nd ref="360983460"/>
    <nd ref="880011436"/>
    <nd ref="32927506"/>
    <nd ref="265670282"/>
    <tag k="highway" v="motorway"/>
    <tag k="name" v="Junipero Serra Freeway"/>
    <tag k="oneway" v="yes"/>
    <tag k="ref" v="I 280"/>
  </way>
  <way id="38338529" version="24" timestamp="2010-08-26T08:00:01Z" uid="14293" user="dahveed76" changeset="5596589">
    <nd ref="257560989"/>
    <nd ref="878792681"/>
    <nd ref="32927498"/>
    <nd ref="880275336"/>
    <nd ref="880276325"/>
    <nd ref="880276329"/>
    <nd ref="880276333"/>
    <nd ref="32927499"/>
    <nd ref="880277360"/>
    <nd ref="880282476"/>
    <nd ref="880282478"/>
    <nd ref="880282646"/>
    <nd ref="32927500"/>
    <nd ref="880283080"/>
    <nd ref="880283543"/>
    <nd ref="32927501"/>
    <nd ref="880283836"/>
    <nd ref="360896556"/>
    <nd ref="880284085"/>
    <nd ref="880284848"/>
    <nd ref="32927502"/>
    <nd ref="880284992"/>
    <nd ref="880285347"/>
    <nd ref="880285781"/>
    <nd ref="880285784"/>
    <nd ref="32927503"/>
    <nd ref="880285997"/>
    <nd ref="880286375"/>
    <nd ref="880286391"/>
    <nd ref="880286694"/>
    <nd ref="32927504"/>
    <nd ref="880287484"/>
    <nd ref="880287490"/>
    <nd ref="265670280"/>
    <nd ref="880287048"/>
    <nd ref="880010867"/>
    <nd ref="32927505"/>
    <nd ref="880011433"/>
    <nd ref="360983460"/>
    <nd ref="880011436"/>
    <nd ref="32927506"/>
    <nd ref="265670282"/>
    <tag k="highway" v="motorway"/>
    <tag k="name" v="Junipero Serra Freeway"/>
    <tag k="oneway" v="yes"/>
    <tag k="ref" v="I 280"/>
  </way>
  <way id="38338529" version="25" timestamp="2010-08-26T08:00:10Z" uid="14293" user="dahveed76" changeset="5596589">
    <nd ref="257560989"/>
    <nd ref="878792681"/>
    <nd ref="32927498"/>
    <nd ref="880275336"/>
    <nd ref="880276325"/>
    <nd ref="880276329"/>
    <nd ref="880276333"/>
    <nd ref="32927499"/>
    <nd ref="880277360"/>
    <nd ref="880282476"/>
    <nd ref="880282478"/>
    <nd ref="880282646"/>
    <nd ref="32927500"/>
    <nd ref="880283080"/>
    <nd ref="880283543"/>
    <nd ref="32927501"/>
    <nd ref="880283836"/>
    <nd ref="360896556"/>
    <nd ref="880284085"/>
    <nd ref="880284848"/>
    <nd ref="32927502"/>
    <nd ref="880284992"/>
    <nd ref="880285347"/>
    <nd ref="880285781"/>
    <nd ref="880285784"/>
    <nd ref="32927503"/>
    <nd ref="880285997"/>
    <nd ref="880286375"/>
    <nd ref="880286391"/>
    <nd ref="880286694"/>
    <nd ref="32927504"/>
    <nd ref="880287828"/>
    <nd ref="880287831"/>
    <nd ref="880287484"/>
    <nd ref="880287490"/>
    <nd ref="265670280"/>
    <nd ref="880287048"/>
    <nd ref="880010867"/>
    <nd ref="32927505"/>
    <nd ref="880011433"/>
    <nd ref="360983460"/>
    <nd ref="880011436"/>
    <nd ref="32927506"/>
    <nd ref="265670282"/>
    <tag k="highway" v="motorway"/>
    <tag k="name" v="Junipero Serra Freeway"/>
    <tag k="oneway" v="yes"/>
    <tag k="ref" v="I 280"/>
  </way>
  <way id="38338529" version="26" timestamp="2010-12-08T22:24:35Z" uid="381448" user="ywu" changeset="6590371">
    <nd ref="257560989"/>
    <nd ref="878792681"/>
    <nd ref="32927498"/>
    <nd ref="880275336"/>
    <nd ref="880276325"/>
    <nd ref="1028782524"/>
    <nd ref="880276329"/>
    <nd ref="880276333"/>
    <nd ref="32927499"/>
    <nd ref="880277360"/>
    <nd ref="880282476"/>
    <nd ref="880282478"/>
    <nd ref="880282646"/>
    <nd ref="32927500"/>
    <nd ref="880283080"/>
    <nd ref="880283543"/>
    <nd ref="32927501"/>
    <nd ref="880283836"/>
    <nd ref="360896556"/>
    <nd ref="880284085"/>
    <nd ref="880284848"/>
    <nd ref="32927502"/>
    <nd ref="880284992"/>
    <nd ref="880285347"/>
    <nd ref="880285781"/>
    <nd ref="880285784"/>
    <nd ref="32927503"/>
    <nd ref="880285997"/>
    <nd ref="880286375"/>
    <nd ref="880286391"/>
    <nd ref="880286694"/>
    <nd ref="32927504"/>
    <nd ref="880287828"/>
    <nd ref="880287831"/>
    <nd ref="880287484"/>
    <nd ref="880287490"/>
    <nd ref="265670280"/>
    <nd ref="880287048"/>
    <nd ref="880010867"/>
    <nd ref="32927505"/>
    <nd ref="880011433"/>
    <nd ref="360983460"/>
    <nd ref="880011436"/>
    <nd ref="32927506"/>
    <nd ref="265670282"/>
    <tag k="highway" v="motorway"/>
    <tag k="name" v="Junipero Serra Freeway"/>
    <tag k="oneway" v="yes"/>
    <tag k="ref" v="I 280"/>
  </way>
  <way id="38338529" version="27" timestamp="2011-06-27T13:24:06Z" uid="473471" user="NE3" changeset="8562081">
    <nd ref="257560989"/>
    <nd ref="878792681"/>
    <nd ref="32927498"/>
    <nd ref="880275336"/>
    <nd ref="880276325"/>
    <nd ref="1028782524"/>
    <nd ref="880276329"/>
    <nd ref="880276333"/>
    <nd ref="32927499"/>
    <nd ref="880277360"/>
    <nd ref="880282476"/>
    <nd ref="880282478"/>
    <nd ref="880282646"/>
    <nd ref="32927500"/>
    <nd ref="880283080"/>
    <nd ref="880283543"/>
    <nd ref="32927501"/>
    <nd ref="880283836"/>
    <nd ref="360896556"/>
    <nd ref="880284085"/>
    <nd ref="880284848"/>
    <nd ref="32927502"/>
    <nd ref="880284992"/>
    <nd ref="880285347"/>
    <nd ref="880285781"/>
    <nd ref="880285784"/>
    <nd ref="32927503"/>
    <nd ref="880285997"/>
    <nd ref="880286375"/>
    <nd ref="880286391"/>
    <nd ref="880286694"/>
    <nd ref="32927504"/>
    <nd ref="880287828"/>
    <nd ref="880287831"/>
    <nd ref="880287484"/>
    <nd ref="880287490"/>
    <nd ref="265670280"/>
    <nd ref="880287048"/>
    <nd ref="880010867"/>
    <nd ref="32927505"/>
    <nd ref="880011433"/>
    <nd ref="360983460"/>
    <nd ref="880011436"/>
    <nd ref="32927506"/>
    <nd ref="265670282"/>
    <tag k="highway" v="motorway"/>
    <tag k="lanes" v="4"/>
    <tag k="name" v="Junipero Serra Freeway"/>
    <tag k="oneway" v="yes"/>
    <tag k="ref" v="I 280"/>
  </way>
  <way id="38338529" version="28" timestamp="2011-11-25T14:37:28Z" uid="207745" user="NE2" changeset="9943893">
    <nd ref="257560989"/>
    <nd ref="878792681"/>
    <nd ref="32927498"/>
    <nd ref="880275336"/>
    <nd ref="880276325"/>
    <nd ref="1028782524"/>
    <nd ref="880276329"/>
    <nd ref="880276333"/>
    <nd ref="32927499"/>
    <nd ref="880277360"/>
    <nd ref="880282476"/>
    <nd ref="880282478"/>
    <nd ref="880282646"/>
    <nd ref="32927500"/>
    <nd ref="880283080"/>
    <nd ref="880283543"/>
    <nd ref="32927501"/>
    <nd ref="880283836"/>
    <nd ref="360896556"/>
    <nd ref="880284085"/>
    <nd ref="880284848"/>
    <nd ref="32927502"/>
    <nd ref="880284992"/>
    <nd ref="880285347"/>
    <nd ref="880285781"/>
    <nd ref="880285784"/>
    <nd ref="32927503"/>
    <nd ref="880285997"/>
    <nd ref="880286375"/>
    <nd ref="880286391"/>
    <nd ref="880286694"/>
    <nd ref="32927504"/>
    <nd ref="880287828"/>
    <nd ref="880287831"/>
    <nd ref="880287484"/>
    <nd ref="880287490"/>
    <nd ref="265670280"/>
    <nd ref="880287048"/>
    <nd ref="880010867"/>
    <nd ref="32927505"/>
    <nd ref="880011433"/>
    <nd ref="360983460"/>
    <nd ref="880011436"/>
    <nd ref="32927506"/>
    <nd ref="265670282"/>
    <tag k="hgv" v="designated"/>
    <tag k="highway" v="motorway"/>
    <tag k="lanes" v="4"/>
    <tag k="name" v="Junipero Serra Freeway"/>
    <tag k="oneway" v="yes"/>
    <tag k="ref" v="I 280"/>
  </way>
  <way id="38338529" version="29" timestamp="2012-03-29T23:50:33Z" uid="123633" user="stevea" changeset="11146019"/>
  <way id="38338997" version="2" timestamp="2010-03-28T10:14:19Z" uid="20587" user="balrog-kun" changeset="4254597">
    <nd ref="89805487"/>
    <nd ref="89805489"/>
    <nd ref="89805491"/>
    <nd ref="89805492"/>
    <nd ref="89805493"/>
    <nd ref="89805494"/>
    <nd ref="89805495"/>
    <nd ref="89805496"/>
    <nd ref="89644426"/>
    <nd ref="89805497"/>
    <nd ref="89805498"/>
    <nd ref="89805499"/>
    <nd ref="89805500"/>
    <nd ref="89805501"/>
    <nd ref="89805502"/>
    <nd ref="89805503"/>
    <nd ref="89805504"/>
    <nd ref="89805505"/>
    <nd ref="89805507"/>
    <nd ref="89805509"/>
    <nd ref="89805511"/>
    <nd ref="89805512"/>
    <nd ref="89805513"/>
    <nd ref="89805514"/>
    <nd ref="89805515"/>
    <nd ref="89805516"/>
    <nd ref="89805517"/>
    <nd ref="89805518"/>
    <nd ref="89805519"/>
    <nd ref="89805521"/>
    <nd ref="89805524"/>
    <nd ref="89805527"/>
    <nd ref="89805529"/>
    <nd ref="89805531"/>
    <nd ref="89805533"/>
    <nd ref="89805535"/>
    <nd ref="89805537"/>
    <nd ref="89805539"/>
    <nd ref="89805541"/>
    <nd ref="89805543"/>
    <nd ref="89805545"/>
    <nd ref="89805548"/>
    <nd ref="89805550"/>
    <nd ref="89805552"/>
    <nd ref="89805553"/>
    <nd ref="89805554"/>
    <nd ref="89805555"/>
    <nd ref="89805556"/>
    <nd ref="89805557"/>
    <nd ref="89805558"/>
    <nd ref="89805561"/>
    <nd ref="89805563"/>
    <nd ref="89805564"/>
    <nd ref="89805566"/>
    <nd ref="89805567"/>
    <nd ref="89805568"/>
    <nd ref="89805570"/>
    <nd ref="89805572"/>
    <nd ref="89805574"/>
    <nd ref="89805575"/>
    <nd ref="89805576"/>
    <nd ref="89805577"/>
    <nd ref="89805579"/>
    <nd ref="89805581"/>
    <nd ref="89805583"/>
    <nd ref="89805585"/>
    <nd ref="89805587"/>
    <nd ref="89805589"/>
    <nd ref="89805591"/>
    <nd ref="89805593"/>
    <nd ref="89805595"/>
    <nd ref="89644309"/>
    <nd ref="89805597"/>
    <nd ref="89805599"/>
    <nd ref="89805601"/>
    <nd ref="89805603"/>
    <nd ref="89805605"/>
    <nd ref="89805608"/>
    <nd ref="89805610"/>
    <nd ref="89805612"/>
    <nd ref="89805614"/>
    <nd ref="89805617"/>
    <nd ref="89805619"/>
    <nd ref="89805621"/>
    <nd ref="89805623"/>
    <nd ref="89805625"/>
    <nd ref="89805627"/>
    <nd ref="89805628"/>
    <nd ref="89805630"/>
    <nd ref="89805632"/>
    <nd ref="89805635"/>
    <nd ref="89805637"/>
    <nd ref="89805639"/>
    <nd ref="89805641"/>
    <nd ref="89805643"/>
    <nd ref="89805645"/>
    <nd ref="89805647"/>
    <nd ref="89805649"/>
    <nd ref="89805651"/>
    <nd ref="89805652"/>
    <nd ref="89805654"/>
    <nd ref="89805656"/>
    <nd ref="89805659"/>
    <nd ref="89805662"/>
    <nd ref="89805664"/>
    <nd ref="89805666"/>
    <nd ref="89805668"/>
    <nd ref="89805670"/>
    <nd ref="89805673"/>
    <nd ref="89805676"/>
    <nd ref="89805678"/>
    <nd ref="89805680"/>
    <nd ref="89805681"/>
    <nd ref="89805683"/>
    <nd ref="89805685"/>
    <nd ref="89805687"/>
    <nd ref="89805688"/>
    <nd ref="89805690"/>
    <tag k="highway" v="track"/>
    <tag k="name" v="Gloria Road"/>
    <tag k="tiger:cfcc" v="A41"/>
    <tag k="tiger:county" v="Monterey, CA"/>
    <tag k="tiger:name_base" v="Gloria"/>
    <tag k="tiger:name_type" v="Rd"/>
    <tag k="tiger:reviewed" v="no"/>
    <tag k="tiger:separated" v="no"/>
    <tag k="tiger:source" v="tiger_import_dch_v0.6_20070809"/>
    <tag k="tiger:tlid" v="196785466:196785829:196785704:196785707:196785710:196785711:196785713:196785714:196851984:196851985:196785694:196833788:196785262:196784980:196784989:196785467:196784991:196799007:196799296:196799015:196833792:196833799"/>
    <tag k="tiger:zip_left" v="93926"/>
    <tag k="tiger:zip_right" v="93926"/>
    <tag k="tracktype" v="grade3"/>
  </way>
  <way id="38338998" version="2" timestamp="2010-03-28T10:14:20Z" uid="20587" user="balrog-kun" changeset="4254597">
    <nd ref="89967322"/>
    <nd ref="89967324"/>
    <nd ref="89967326"/>
    <nd ref="89967328"/>
    <nd ref="89967330"/>
    <nd ref="89967332"/>
    <nd ref="89967334"/>
    <nd ref="89967336"/>
    <nd ref="89967339"/>
    <nd ref="89967341"/>
    <nd ref="89967343"/>
    <nd ref="89967346"/>
    <nd ref="89967349"/>
    <nd ref="89967350"/>
    <nd ref="89967352"/>
    <nd ref="89967355"/>
    <nd ref="89967357"/>
    <nd ref="89967359"/>
    <nd ref="89967361"/>
    <nd ref="89967363"/>
    <nd ref="89967365"/>
    <nd ref="89967367"/>
    <nd ref="89967370"/>
    <nd ref="89967372"/>
    <nd ref="89967373"/>
    <nd ref="89967375"/>
    <nd ref="89967377"/>
    <nd ref="89967379"/>
    <nd ref="89967381"/>
    <nd ref="89655208"/>
    <nd ref="89967382"/>
    <nd ref="89967385"/>
    <nd ref="89967387"/>
    <nd ref="89967389"/>
    <nd ref="89967390"/>
    <nd ref="89967392"/>
    <nd ref="89967394"/>
    <nd ref="89967396"/>
    <nd ref="89967399"/>
    <nd ref="89967401"/>
    <nd ref="89728044"/>
    <nd ref="89967403"/>
    <nd ref="89967405"/>
    <nd ref="89967407"/>
    <nd ref="89967409"/>
    <nd ref="89967412"/>
    <nd ref="89967414"/>
    <nd ref="89967416"/>
    <nd ref="89704402"/>
    <nd ref="89967418"/>
    <nd ref="89967420"/>
    <nd ref="89967423"/>
    <nd ref="89967425"/>
    <nd ref="89967427"/>
    <nd ref="89704304"/>
    <tag k="highway" v="tertiary"/>
    <tag k="name" v="Johnson Canyon Road"/>
    <tag k="name_1" v="5th Street"/>
    <tag k="tiger:cfcc" v="A41"/>
    <tag k="tiger:county" v="Monterey, CA"/>
    <tag k="tiger:name_base" v="Johnson Canyon"/>
    <tag k="tiger:name_base_1" v="5th"/>
    <tag k="tiger:name_type" v="Rd"/>
    <tag k="tiger:name_type_1" v="St"/>
    <tag k="tiger:reviewed" v="no"/>
    <tag k="tiger:separated" v="no"/>
    <tag k="tiger:source" v="tiger_import_dch_v0.6_20070809"/>
    <tag k="tiger:tlid" v="196837405:196837407:196860226:196784517:196784526:196785117:196784530:196784576:196784541"/>
  </way>
  <way id="38338998" version="3" timestamp="2010-12-10T06:03:37Z" uid="55774" user="nmixter" changeset="6602171">
    <nd ref="89967322"/>
    <nd ref="89967324"/>
    <nd ref="89967326"/>
    <nd ref="89967328"/>
    <nd ref="89967330"/>
    <nd ref="89967332"/>
    <nd ref="89967334"/>
    <nd ref="89967336"/>
    <nd ref="89967339"/>
    <nd ref="89967341"/>
    <nd ref="89967343"/>
    <nd ref="89967346"/>
    <nd ref="89967349"/>
    <nd ref="89967350"/>
    <nd ref="89967352"/>
    <nd ref="89967355"/>
    <nd ref="89967357"/>
    <nd ref="89967359"/>
    <nd ref="89967361"/>
    <nd ref="89967363"/>
    <nd ref="89590224"/>
    <nd ref="89967367"/>
    <nd ref="89967370"/>
    <nd ref="89967372"/>
    <nd ref="89967373"/>
    <nd ref="89967375"/>
    <nd ref="89967377"/>
    <nd ref="89967379"/>
    <nd ref="89967381"/>
    <nd ref="89655208"/>
    <nd ref="89967382"/>
    <nd ref="89967385"/>
    <nd ref="89967387"/>
    <nd ref="89967389"/>
    <nd ref="89967390"/>
    <nd ref="89967392"/>
    <nd ref="89967394"/>
    <nd ref="89967396"/>
    <nd ref="89967399"/>
    <nd ref="89967401"/>
    <nd ref="89728044"/>
    <nd ref="89967403"/>
    <nd ref="89967405"/>
    <nd ref="89967407"/>
    <nd ref="89967409"/>
    <nd ref="89967412"/>
    <nd ref="89967414"/>
    <nd ref="89967416"/>
    <nd ref="89704402"/>
    <nd ref="89967418"/>
    <nd ref="89967420"/>
    <nd ref="89967423"/>
    <nd ref="89967425"/>
    <nd ref="89967427"/>
    <nd ref="89704304"/>
    <tag k="highway" v="tertiary"/>
    <tag k="name" v="Johnson Canyon Road"/>
    <tag k="name_1" v="5th Street"/>
    <tag k="tiger:cfcc" v="A41"/>
    <tag k="tiger:county" v="Monterey, CA"/>
    <tag k="tiger:name_base" v="Johnson Canyon"/>
    <tag k="tiger:name_base_1" v="5th"/>
    <tag k="tiger:name_type" v="Rd"/>
    <tag k="tiger:name_type_1" v="St"/>
    <tag k="tiger:reviewed" v="no"/>
    <tag k="tiger:separated" v="no"/>
    <tag k="tiger:source" v="tiger_import_dch_v0.6_20070809"/>
    <tag k="tiger:tlid" v="196837405:196837407:196860226:196784517:196784526:196785117:196784530:196784576:196784541"/>
  </way>
  <way id="38338999" version="2" timestamp="2010-03-28T10:14:21Z" uid="20587" user="balrog-kun" changeset="4254597">
    <nd ref="89704304"/>
    <nd ref="89967429"/>
    <nd ref="89967431"/>
    <nd ref="89967433"/>
    <nd ref="89967435"/>
    <nd ref="89967437"/>
    <nd ref="89967438"/>
    <nd ref="89967440"/>
    <nd ref="89967442"/>
    <nd ref="89704329"/>
    <nd ref="89967445"/>
    <nd ref="89967447"/>
    <nd ref="89967449"/>
    <nd ref="89967451"/>
    <nd ref="89967453"/>
    <nd ref="89967455"/>
    <nd ref="89967456"/>
    <nd ref="89967458"/>
    <nd ref="89967460"/>
    <nd ref="89967462"/>
    <nd ref="89967465"/>
    <nd ref="89967468"/>
    <nd ref="89967470"/>
    <nd ref="89967472"/>
    <nd ref="89967474"/>
    <nd ref="89967476"/>
    <nd ref="89967478"/>
    <nd ref="89967480"/>
    <nd ref="89967482"/>
    <nd ref="89967485"/>
    <nd ref="89967488"/>
    <nd ref="89967490"/>
    <nd ref="89967493"/>
    <nd ref="89967495"/>
    <nd ref="89967498"/>
    <nd ref="89967501"/>
    <nd ref="89967503"/>
    <nd ref="89967504"/>
    <nd ref="89967507"/>
    <nd ref="89967509"/>
    <nd ref="89967510"/>
    <nd ref="89967512"/>
    <nd ref="89967513"/>
    <nd ref="89967515"/>
    <nd ref="89967517"/>
    <nd ref="89967519"/>
    <nd ref="89967520"/>
    <nd ref="89967522"/>
    <nd ref="89967524"/>
    <nd ref="89967526"/>
    <nd ref="89733677"/>
    <tag k="highway" v="residential"/>
    <tag k="name" v="Johnson Canyon Road"/>
    <tag k="name_1" v="5th Street"/>
    <tag k="tiger:cfcc" v="A41"/>
    <tag k="tiger:county" v="Monterey, CA"/>
    <tag k="tiger:name_base" v="Johnson Canyon"/>
    <tag k="tiger:name_base_1" v="5th"/>
    <tag k="tiger:name_type" v="Rd"/>
    <tag k="tiger:name_type_1" v="St"/>
    <tag k="tiger:reviewed" v="no"/>
    <tag k="tiger:separated" v="no"/>
    <tag k="tiger:source" v="tiger_import_dch_v0.6_20070809"/>
    <tag k="tiger:tlid" v="196837405:196837407:196860226:196784517:196784526:196785117:196784530:196784576:196784541"/>
  </way>
</osm>
