<?xml version='1.0' encoding='UTF-8'?>
<osm version="0.6" generator="libosmium/2.20.0">
  <way id="38368413" version="3" timestamp="2010-08-31T13:35:30Z" uid="49111" user="Markus B" changeset="5645570">
    <nd ref="453290654"/>
    <nd ref="453290642"/>
    <nd ref="453290673"/>
    <nd ref="453290663"/>
    <nd ref="453290702"/>
    <nd ref="453290691"/>
    <nd ref="453290725"/>
    <nd ref="453290714"/>
    <nd ref="453290738"/>
    <nd ref="453290733"/>
    <nd ref="453290654"/>
    <tag k="addr:city" v="Neukirchen am Sand"/>
    <tag k="addr:country" v="DE"/>
    <tag k="addr:housenumber" v="9"/>
    <tag k="addr:postcode" v="91233"/>
    <tag k="addr:street" v="Röttenbachgrund"/>
    <tag k="building" v="yes"/>
    <tag k="source" v="Gemeinde Neunkirchen am Sand"/>
  </way>
  <way id="38368413" version="4" timestamp="2010-10-30T15:40:52Z" uid="202858" user="kellerma" changeset="6229695">
    <nd ref="453290654"/>
    <nd ref="453290642"/>
    <nd ref="453290673"/>
    <nd ref="453290663"/>
    <nd ref="453290702"/>
    <nd ref="453290691"/>
    <nd ref="453290725"/>
    <nd ref="453290714"/>
    <nd ref="453290738"/>
    <nd ref="453290733"/>
    <nd ref="453290654"/>
    <tag k="addr:city" v="Neunkirchen a.Sand"/>
    <tag k="addr:country" v="DE"/>
    <tag k="addr:housenumber" v="9"/>
    <tag k="addr:postcode" v="91233"/>
    <tag k="addr:street" v="Röttenbachgrund"/>
    <tag k="building" v="yes"/>
    <tag k="source" v="Gemeinde Neunkirchen am Sand"/>
  </way>
</osm>
