<?xml version='1.0' encoding='UTF-8'?>
<osm version="0.6" generator="libosmium/2.20.0">
  <way id="38373027" version="4" timestamp="2010-08-31T13:35:44Z" uid="49111" user="Markus B" changeset="5645570">
    <nd ref="453299899"/>
    <nd ref="453299895"/>
    <nd ref="453299906"/>
    <nd ref="453299903"/>
    <nd ref="453298948"/>
    <nd ref="453298954"/>
    <nd ref="453298925"/>
    <nd ref="453298939"/>
    <nd ref="453298890"/>
    <nd ref="453298913"/>
    <nd ref="453298854"/>
    <nd ref="453298871"/>
    <nd ref="453298825"/>
    <nd ref="453298846"/>
    <nd ref="453298798"/>
    <nd ref="453298815"/>
    <nd ref="453298783"/>
    <nd ref="453299899"/>
    <tag k="addr:city" v="Neukirchen am Sand"/>
    <tag k="addr:country" v="DE"/>
    <tag k="addr:housenumber" v="7"/>
    <tag k="addr:postcode" v="91233"/>
    <tag k="addr:street" v="Röttenbachgrund"/>
    <tag k="building" v="yes"/>
    <tag k="cuisine" v="greek"/>
    <tag k="name" v="Waldschänke Taverne"/>
    <tag k="opening_hours" v="Di-Sa 17:00.24:00; So 11:00-24:00; Mo off"/>
    <tag k="phone" v="+49 9123 9980190"/>
    <tag k="smoking" v="no"/>
    <tag k="smoking:outside" v="yes"/>
    <tag k="source" v="Gemeinde Neunkirchen am Sand"/>
  </way>
  <way id="38373027" version="5" timestamp="2010-10-30T15:41:06Z" uid="202858" user="kellerma" changeset="6229695">
    <nd ref="453299899"/>
    <nd ref="453299895"/>
    <nd ref="453299906"/>
    <nd ref="453299903"/>
    <nd ref="453298948"/>
    <nd ref="453298954"/>
    <nd ref="453298925"/>
    <nd ref="453298939"/>
    <nd ref="453298890"/>
    <nd ref="453298913"/>
    <nd ref="453298854"/>
    <nd ref="453298871"/>
    <nd ref="453298825"/>
    <nd ref="453298846"/>
    <nd ref="453298798"/>
    <nd ref="453298815"/>
    <nd ref="453298783"/>
    <nd ref="453299899"/>
    <tag k="addr:city" v="Neunkirchen a.Sand"/>
    <tag k="addr:country" v="DE"/>
    <tag k="addr:housenumber" v="7"/>
    <tag k="addr:postcode" v="91233"/>
    <tag k="addr:street" v="Röttenbachgrund"/>
    <tag k="building" v="yes"/>
    <tag k="cuisine" v="greek"/>
    <tag k="name" v="Waldschänke Taverne"/>
    <tag k="opening_hours" v="Di-Sa 17:00.24:00; So 11:00-24:00; Mo off"/>
    <tag k="phone" v="+49 9123 9980190"/>
    <tag k="smoking" v="no"/>
    <tag k="smoking:outside" v="yes"/>
    <tag k="source" v="Gemeinde Neunkirchen am Sand"/>
  </way>
  <way id="38373027" version="6" timestamp="2011-01-17T10:32:31Z" uid="293774" user="Oli-Wan" changeset="6997824">
    <nd ref="453299899"/>
    <nd ref="453299895"/>
    <nd ref="453299906"/>
    <nd ref="453299903"/>
    <nd ref="453298948"/>
    <nd ref="453298954"/>
    <nd ref="453298925"/>
    <nd ref="453298939"/>
    <nd ref="453298890"/>
    <nd ref="453298913"/>
    <nd ref="453298854"/>
    <nd ref="453298871"/>
    <nd ref="453298825"/>
    <nd ref="453298846"/>
    <nd ref="453298798"/>
    <nd ref="453298815"/>
    <nd ref="453298783"/>
    <nd ref="453299899"/>
    <tag k="addr:city" v="Neunkirchen a.Sand"/>
    <tag k="addr:country" v="DE"/>
    <tag k="addr:housenumber" v="7"/>
    <tag k="addr:postcode" v="91233"/>
    <tag k="addr:street" v="Röttenbachgrund"/>
    <tag k="building" v="yes"/>
    <tag k="cuisine" v="greek"/>
    <tag k="name" v="Waldschänke Taverne"/>
    <tag k="opening_hours" v="Tu-Sa 17:00-24:00; Su 11:00-24:00"/>
    <tag k="phone" v="+49 9123 9980190"/>
    <tag k="smoking" v="no"/>
    <tag k="smoking:outside" v="yes"/>
    <tag k="source" v="Gemeinde Neunkirchen am Sand"/>
  </way>
  <way id="38373353" version="3" timestamp="2010-08-31T13:35:36Z" uid="49111" user="Markus B" changeset="5645570">
    <nd ref="453299052"/>
    <nd ref="453299040"/>
    <nd ref="453299030"/>
    <nd ref="453299023"/>
    <nd ref="453299015"/>
    <nd ref="453299004"/>
    <nd ref="453298997"/>
    <nd ref="453298991"/>
    <nd ref="453299052"/>
    <tag k="addr:city" v="Neukirchen am Sand"/>
    <tag k="addr:country" v="DE"/>
    <tag k="addr:housenumber" v="5"/>
    <tag k="addr:postcode" v="91233"/>
    <tag k="addr:street" v="Röttenbachgrund"/>
    <tag k="building" v="yes"/>
    <tag k="source" v="Gemeinde Neunkirchen am Sand"/>
  </way>
  <way id="38373353" version="4" timestamp="2010-10-30T15:41:22Z" uid="202858" user="kellerma" changeset="6229695">
    <nd ref="453299052"/>
    <nd ref="453299040"/>
    <nd ref="453299030"/>
    <nd ref="453299023"/>
    <nd ref="453299015"/>
    <nd ref="453299004"/>
    <nd ref="453298997"/>
    <nd ref="453298991"/>
    <nd ref="453299052"/>
    <tag k="addr:city" v="Neunkirchen a.Sand"/>
    <tag k="addr:country" v="DE"/>
    <tag k="addr:housenumber" v="5"/>
    <tag k="addr:postcode" v="91233"/>
    <tag k="addr:street" v="Röttenbachgrund"/>
    <tag k="building" v="yes"/>
    <tag k="source" v="Gemeinde Neunkirchen am Sand"/>
  </way>
  <way id="38373839" version="2" timestamp="2009-08-28T21:43:14Z" uid="49111" user="Markus B" changeset="2295714">
    <nd ref="453278042"/>
    <nd ref="453278050"/>
    <nd ref="453278056"/>
    <nd ref="453278063"/>
    <nd ref="453277990"/>
    <nd ref="453278000"/>
    <nd ref="453278006"/>
    <nd ref="453278014"/>
    <nd ref="453278018"/>
    <nd ref="453278021"/>
    <nd ref="453278025"/>
    <nd ref="453278042"/>
    <tag k="amenity" v="restaurant"/>
    <tag k="building" v="yes"/>
    <tag k="cuisine" v="greek"/>
    <tag k="name" v="Dimitra"/>
    <tag k="source" v="Gemeinde Neunkirchen am Sand"/>
  </way>
  <way id="38373839" version="3" timestamp="2009-11-07T15:15:33Z" uid="7009" user="giggls" changeset="3056393">
    <nd ref="453278042"/>
    <nd ref="453278050"/>
    <nd ref="453278056"/>
    <nd ref="453278063"/>
    <nd ref="453277990"/>
    <nd ref="453278000"/>
    <nd ref="453278006"/>
    <nd ref="453278014"/>
    <nd ref="453278018"/>
    <nd ref="453278021"/>
    <nd ref="453278025"/>
    <nd ref="453278042"/>
    <tag k="addr:housenumber" v="4"/>
    <tag k="amenity" v="restaurant"/>
    <tag k="building" v="yes"/>
    <tag k="cuisine" v="greek"/>
    <tag k="name" v="Dimitra"/>
    <tag k="source" v="Gemeinde Neunkirchen am Sand"/>
  </way>
  <way id="38373839" version="4" timestamp="2009-11-08T17:49:54Z" uid="7009" user="giggls" changeset="3066377">
    <nd ref="453278042"/>
    <nd ref="453278050"/>
    <nd ref="453278056"/>
    <nd ref="453278063"/>
    <nd ref="453279224"/>
    <nd ref="453278000"/>
    <nd ref="453278006"/>
    <nd ref="453278014"/>
    <nd ref="453278018"/>
    <nd ref="453278021"/>
    <nd ref="453278025"/>
    <nd ref="453278042"/>
    <tag k="addr:housenumber" v="4"/>
    <tag k="amenity" v="restaurant"/>
    <tag k="building" v="yes"/>
    <tag k="cuisine" v="greek"/>
    <tag k="name" v="Dimitra"/>
    <tag k="source" v="Gemeinde Neunkirchen am Sand"/>
  </way>
  <way id="38373839" version="5" timestamp="2010-06-02T12:54:51Z" uid="82877" user="Wankmann" changeset="4883704">
    <nd ref="453278042"/>
    <nd ref="453278050"/>
    <nd ref="453278056"/>
    <nd ref="453278063"/>
    <nd ref="453279224"/>
    <nd ref="453278000"/>
    <nd ref="453278006"/>
    <nd ref="453278014"/>
    <nd ref="453278018"/>
    <nd ref="453278021"/>
    <nd ref="453278025"/>
    <nd ref="453278042"/>
    <tag k="addr:housenumber" v="4"/>
    <tag k="amenity" v="restaurant"/>
    <tag k="building" v="yes"/>
    <tag k="cuisine" v="greek"/>
    <tag k="name" v="Dimitra"/>
    <tag k="smokefree" v="yes"/>
    <tag k="source" v="Gemeinde Neunkirchen am Sand"/>
  </way>
  <way id="38373839" version="6" timestamp="2010-08-22T08:15:34Z" uid="213589" user="herms" changeset="5558583">
    <nd ref="453278042"/>
    <nd ref="453278050"/>
    <nd ref="453278056"/>
    <nd ref="453278063"/>
    <nd ref="453279224"/>
    <nd ref="453278000"/>
    <nd ref="453278006"/>
    <nd ref="453278014"/>
    <nd ref="453278018"/>
    <nd ref="453278021"/>
    <nd ref="453278025"/>
    <nd ref="453278042"/>
    <tag k="addr:housenumber" v="4"/>
    <tag k="building" v="yes"/>
    <tag k="source" v="Gemeinde Neunkirchen am Sand"/>
  </way>
  <way id="38373839" version="7" timestamp="2010-10-30T15:41:43Z" uid="202858" user="kellerma" changeset="6229695">
    <nd ref="453278042"/>
    <nd ref="453278050"/>
    <nd ref="453278056"/>
    <nd ref="453278063"/>
    <nd ref="453279224"/>
    <nd ref="453278000"/>
    <nd ref="453278006"/>
    <nd ref="453278014"/>
    <nd ref="453278018"/>
    <nd ref="453278021"/>
    <nd ref="453278025"/>
    <nd ref="453278042"/>
    <tag k="addr:city" v="Neunkirchen a.Sand"/>
    <tag k="addr:country" v="DE"/>
    <tag k="addr:housenumber" v="4"/>
    <tag k="addr:postcode" v="91233"/>
    <tag k="building" v="yes"/>
    <tag k="source" v="Gemeinde Neunkirchen am Sand"/>
  </way>
  <way id="38373839" version="8" timestamp="2010-10-30T16:20:46Z" uid="202858" user="kellerma" changeset="6230501">
    <nd ref="453278042"/>
    <nd ref="453278050"/>
    <nd ref="453278056"/>
    <nd ref="453278063"/>
    <nd ref="453279224"/>
    <nd ref="453278000"/>
    <nd ref="453278006"/>
    <nd ref="453278014"/>
    <nd ref="453278018"/>
    <nd ref="453278021"/>
    <nd ref="453278025"/>
    <nd ref="453278042"/>
    <tag k="addr:city" v="Neunkirchen a.Sand"/>
    <tag k="addr:country" v="DE"/>
    <tag k="addr:housenumber" v="4"/>
    <tag k="addr:postcode" v="91233"/>
    <tag k="addr:street" v="Hauptstraße"/>
    <tag k="building" v="yes"/>
    <tag k="source" v="Gemeinde Neunkirchen am Sand"/>
  </way>
</osm>
