<?xml version='1.0' encoding='UTF-8'?>
<osm version="0.6" generator="libosmium/2.20.0">
  <way id="38372005" version="3" timestamp="2009-09-30T13:02:49Z" uid="36809" user="pfoten_weg_!_" changeset="2687909">
    <nd ref="453423414"/>
    <nd ref="453423419"/>
    <tag k="layer" v="-1"/>
    <tag k="name" v="Birkenmoosgraben"/>
    <tag k="tunnel" v="yes"/>
    <tag k="waterway" v="stream"/>
  </way>
  <way id="38372415" version="3" timestamp="2010-08-31T13:35:01Z" uid="49111" user="Markus B" changeset="5645570">
    <nd ref="453343211"/>
    <nd ref="453343210"/>
    <nd ref="453343209"/>
    <nd ref="453343208"/>
    <nd ref="453343207"/>
    <nd ref="453343242"/>
    <nd ref="453343243"/>
    <nd ref="453343244"/>
    <nd ref="453343211"/>
    <tag k="addr:city" v="Speikern"/>
    <tag k="addr:country" v="DE"/>
    <tag k="addr:housenumber" v="22"/>
    <tag k="addr:postcode" v="91233"/>
    <tag k="addr:street" v="Hersbrucker Straße"/>
    <tag k="amenity" v="restaurant"/>
    <tag k="building" v="yes"/>
    <tag k="name" v="Gaststätte Brendel"/>
    <tag k="phone" v="+49 9153 7264"/>
    <tag k="shop" v="butcher"/>
    <tag k="smoking" v="no"/>
    <tag k="source" v="Gemeinde Neunkirchen am Sand"/>
  </way>
  <way id="38372415" version="4" timestamp="2010-10-30T10:22:36Z" uid="202858" user="kellerma" changeset="6225289">
    <nd ref="453343211"/>
    <nd ref="453343210"/>
    <nd ref="453343209"/>
    <nd ref="453343208"/>
    <nd ref="453343207"/>
    <nd ref="453343242"/>
    <nd ref="453343243"/>
    <nd ref="453343244"/>
    <nd ref="453343211"/>
    <tag k="addr:city" v="Neunkirchen a. Sand - Speikern"/>
    <tag k="addr:country" v="DE"/>
    <tag k="addr:housenumber" v="22"/>
    <tag k="addr:postcode" v="91233"/>
    <tag k="addr:street" v="Hersbrucker Straße"/>
    <tag k="amenity" v="restaurant"/>
    <tag k="building" v="yes"/>
    <tag k="name" v="Gaststätte Brendel"/>
    <tag k="phone" v="+49 9153 7264"/>
    <tag k="shop" v="butcher"/>
    <tag k="smoking" v="no"/>
    <tag k="source" v="Gemeinde Neunkirchen am Sand"/>
  </way>
  <way id="38372415" version="5" timestamp="2010-11-05T10:42:46Z" uid="202858" user="kellerma" changeset="6294303">
    <nd ref="453343211"/>
    <nd ref="453343210"/>
    <nd ref="453343209"/>
    <nd ref="453343208"/>
    <nd ref="453343207"/>
    <nd ref="453343242"/>
    <nd ref="453343243"/>
    <nd ref="453343244"/>
    <nd ref="453343211"/>
    <tag k="addr:city" v="Neunkirchen a. Sand"/>
    <tag k="addr:country" v="DE"/>
    <tag k="addr:housenumber" v="22"/>
    <tag k="addr:postcode" v="91233"/>
    <tag k="addr:street" v="Hersbrucker Straße"/>
    <tag k="amenity" v="restaurant"/>
    <tag k="building" v="yes"/>
    <tag k="name" v="Gaststätte Brendel"/>
    <tag k="phone" v="+49 9153 7264"/>
    <tag k="shop" v="butcher"/>
    <tag k="smoking" v="no"/>
    <tag k="source" v="Gemeinde Neunkirchen am Sand"/>
  </way>
  <way id="38372415" version="6" timestamp="2011-04-24T18:07:33Z" uid="398764" user="Martin94" changeset="7955328">
    <nd ref="453343211"/>
    <nd ref="453343210"/>
    <nd ref="453343209"/>
    <nd ref="453343208"/>
    <nd ref="453343207"/>
    <nd ref="453343242"/>
    <nd ref="453343243"/>
    <nd ref="453343244"/>
    <nd ref="453343211"/>
    <tag k="addr:city" v="Neunkirchen a. Sand"/>
    <tag k="addr:country" v="DE"/>
    <tag k="addr:housenumber" v="22"/>
    <tag k="addr:postcode" v="91233"/>
    <tag k="addr:street" v="Hersbrucker Straße"/>
    <tag k="amenity" v="pub"/>
    <tag k="building" v="yes"/>
    <tag k="name" v="Gaststätte Brendel"/>
    <tag k="phone" v="+49 9153 7264"/>
    <tag k="shop" v="butcher"/>
    <tag k="smoking" v="no"/>
    <tag k="source" v="Gemeinde Neunkirchen am Sand"/>
  </way>
  <way id="38372415" version="7" timestamp="2011-06-29T10:26:41Z" uid="398764" user="Martin94" changeset="8579631">
    <nd ref="453343211"/>
    <nd ref="453343210"/>
    <nd ref="453343209"/>
    <nd ref="453343208"/>
    <nd ref="453343207"/>
    <nd ref="453343242"/>
    <nd ref="453343243"/>
    <nd ref="453343244"/>
    <nd ref="453343211"/>
    <tag k="addr:city" v="Neunkirchen a. Sand"/>
    <tag k="addr:country" v="DE"/>
    <tag k="addr:housenumber" v="22"/>
    <tag k="addr:postcode" v="91233"/>
    <tag k="addr:street" v="Hersbrucker Straße"/>
    <tag k="amenity" v="restaurant"/>
    <tag k="building" v="yes"/>
    <tag k="cuisine" v="regional"/>
    <tag k="fax" v="091535716"/>
    <tag k="internet_access" v="no"/>
    <tag k="internet_access:fee" v="no"/>
    <tag k="name" v="Gaststätte Brendel"/>
    <tag k="phone" v="+49 9153 7264"/>
    <tag k="shop" v="butcher"/>
    <tag k="smoking" v="no"/>
    <tag k="source" v="Gemeinde Neunkirchen am Sand"/>
    <tag k="wheelchair" v="no"/>
  </way>
  <way id="38372455" version="2" timestamp="2009-08-28T21:43:17Z" uid="49111" user="Markus B" changeset="2295714">
    <nd ref="453277785"/>
    <nd ref="453277770"/>
    <nd ref="453277777"/>
    <nd ref="453277755"/>
    <nd ref="453277764"/>
    <nd ref="453277735"/>
    <nd ref="453277726"/>
    <nd ref="453277743"/>
    <nd ref="453277785"/>
    <tag k="amenity" v="bank"/>
    <tag k="atm" v="yes"/>
    <tag k="building" v="yes"/>
    <tag k="name" v="Sparkasse"/>
    <tag k="source" v="Gemeinde Neunkirchen am Sand"/>
  </way>
  <way id="38372455" version="3" timestamp="2009-11-07T15:15:37Z" uid="7009" user="giggls" changeset="3056393">
    <nd ref="453277785"/>
    <nd ref="453277770"/>
    <nd ref="453277777"/>
    <nd ref="453277755"/>
    <nd ref="453277764"/>
    <nd ref="453277735"/>
    <nd ref="453277726"/>
    <nd ref="453277743"/>
    <nd ref="453277785"/>
    <tag k="addr:housenumber" v="9"/>
    <tag k="amenity" v="bank"/>
    <tag k="atm" v="yes"/>
    <tag k="building" v="yes"/>
    <tag k="name" v="Sparkasse"/>
    <tag k="source" v="Gemeinde Neunkirchen am Sand"/>
  </way>
  <way id="38372455" version="4" timestamp="2010-10-30T15:41:19Z" uid="202858" user="kellerma" changeset="6229695">
    <nd ref="453277785"/>
    <nd ref="453277770"/>
    <nd ref="453277777"/>
    <nd ref="453277755"/>
    <nd ref="453277764"/>
    <nd ref="453277735"/>
    <nd ref="453277726"/>
    <nd ref="453277743"/>
    <nd ref="453277785"/>
    <tag k="addr:city" v="Neunkirchen a.Sand"/>
    <tag k="addr:country" v="DE"/>
    <tag k="addr:housenumber" v="9"/>
    <tag k="addr:postcode" v="91233"/>
    <tag k="amenity" v="bank"/>
    <tag k="atm" v="yes"/>
    <tag k="building" v="yes"/>
    <tag k="name" v="Sparkasse"/>
    <tag k="source" v="Gemeinde Neunkirchen am Sand"/>
  </way>
  <way id="38372455" version="5" timestamp="2010-10-30T16:20:44Z" uid="202858" user="kellerma" changeset="6230501">
    <nd ref="453277785"/>
    <nd ref="453277770"/>
    <nd ref="453277777"/>
    <nd ref="453277755"/>
    <nd ref="453277764"/>
    <nd ref="453277735"/>
    <nd ref="453277726"/>
    <nd ref="453277743"/>
    <nd ref="453277785"/>
    <tag k="addr:city" v="Neunkirchen a.Sand"/>
    <tag k="addr:country" v="DE"/>
    <tag k="addr:housenumber" v="9"/>
    <tag k="addr:postcode" v="91233"/>
    <tag k="addr:street" v="Bahnhofstraße"/>
    <tag k="amenity" v="bank"/>
    <tag k="atm" v="yes"/>
    <tag k="building" v="yes"/>
    <tag k="name" v="Geschäftsstelle Neunkirchen a.Sand"/>
    <tag k="operator" v="Sparkasse Nürnberg"/>
    <tag k="source" v="Gemeinde Neunkirchen am Sand"/>
  </way>
  <way id="38372652" version="2" timestamp="2010-03-28T10:14:28Z" uid="20587" user="balrog-kun" changeset="4254597">
    <nd ref="54716591"/>
    <nd ref="442097362"/>
    <nd ref="442097361"/>
    <nd ref="54691183"/>
    <nd ref="54716593"/>
    <nd ref="54716596"/>
    <nd ref="442097470"/>
    <nd ref="442097472"/>
    <nd ref="54716598"/>
    <tag k="highway" v="residential"/>
    <tag k="name" v="Cielito Street"/>
    <tag k="name_1" v="Cielito Drive"/>
    <tag k="note" v="TIGER and RC say St, signed as Dr at La Dona, St elsewhere"/>
    <tag k="source" v="survey;image;usgs_imagery"/>
    <tag k="source_ref" v="AM909_DSCN4149;AM909_DSCN4150"/>
    <tag k="tiger:cfcc" v="A41"/>
    <tag k="tiger:county" v="San Bernardino, CA"/>
    <tag k="tiger:name_base" v="Cielito"/>
    <tag k="tiger:name_type" v="St"/>
    <tag k="tiger:separated" v="no"/>
    <tag k="tiger:source" v="tiger_import_dch_v0.6_20070809"/>
    <tag k="tiger:tlid" v="144635006:144635010:144635011:144686810:144686817:144686820:144989618"/>
    <tag k="tiger:zip_left" v="91701"/>
    <tag k="tiger:zip_right" v="91701"/>
  </way>
  <way id="38372654" version="2" timestamp="2010-03-28T10:14:28Z" uid="20587" user="balrog-kun" changeset="4254597">
    <nd ref="453423989"/>
    <nd ref="453423990"/>
    <tag k="highway" v="residential"/>
    <tag k="name" v="San Simeon Drive"/>
    <tag k="source" v="survey;image;usgs_imagery"/>
    <tag k="source_ref" v="AM909_DSCN4151"/>
  </way>
  <way id="38372655" version="2" timestamp="2010-03-28T10:14:28Z" uid="20587" user="balrog-kun" changeset="4254597">
    <nd ref="453423991"/>
    <nd ref="453423990"/>
    <tag k="highway" v="residential"/>
    <tag k="name" v="Sausalito Court"/>
    <tag k="source" v="survey;image;usgs_imagery"/>
    <tag k="source_ref" v="AM909_DSCN4152"/>
  </way>
  <way id="38372738" version="3" timestamp="2010-04-13T17:32:39Z" uid="49111" user="Markus B" changeset="4415898">
    <nd ref="453342720"/>
    <nd ref="453342719"/>
    <nd ref="453342718"/>
    <nd ref="453342732"/>
    <nd ref="453342731"/>
    <nd ref="453342730"/>
    <nd ref="453342729"/>
    <nd ref="453342728"/>
    <nd ref="453342720"/>
    <tag k="addr:housenumber" v="14"/>
    <tag k="amenity" v="restaurant"/>
    <tag k="building" v="yes"/>
    <tag k="name" v="Bräustüber&apos;l"/>
    <tag k="source" v="Gemeinde Neunkirchen am Sand"/>
  </way>
  <way id="38372738" version="4" timestamp="2010-06-02T13:16:09Z" uid="82877" user="Wankmann" changeset="4883927">
    <nd ref="453342720"/>
    <nd ref="453342719"/>
    <nd ref="453342718"/>
    <nd ref="453342732"/>
    <nd ref="453342731"/>
    <nd ref="453342730"/>
    <nd ref="453342729"/>
    <nd ref="453342728"/>
    <nd ref="453342720"/>
    <tag k="addr:housenumber" v="14"/>
    <tag k="amenity" v="restaurant"/>
    <tag k="building" v="yes"/>
    <tag k="name" v="Bräustüber&apos;l"/>
    <tag k="source" v="Gemeinde Neunkirchen am Sand"/>
    <tag k="website" v="http://www.wolfshoeher.de"/>
  </way>
  <way id="38372738" version="5" timestamp="2010-08-31T13:35:24Z" uid="49111" user="Markus B" changeset="5645570">
    <nd ref="453342720"/>
    <nd ref="453342719"/>
    <nd ref="453342718"/>
    <nd ref="453342732"/>
    <nd ref="453342731"/>
    <nd ref="453342730"/>
    <nd ref="453342729"/>
    <nd ref="453342728"/>
    <nd ref="453342720"/>
    <tag k="addr:city" v="Neukirchen am Sand"/>
    <tag k="addr:country" v="DE"/>
    <tag k="addr:housenumber" v="14"/>
    <tag k="addr:postcode" v="91233"/>
    <tag k="addr:street" v="Wolfshöhe"/>
    <tag k="amenity" v="restaurant"/>
    <tag k="building" v="yes"/>
    <tag k="name" v="Bräustüber&apos;l"/>
    <tag k="opening_hours" v="Mo off"/>
    <tag k="phone" v="+49 9153 920778"/>
    <tag k="smoking" v="no"/>
    <tag k="smoking:outside" v="yes"/>
    <tag k="source" v="Gemeinde Neunkirchen am Sand"/>
    <tag k="website" v="http://www.wolfshoeher.de/braustindex.html"/>
  </way>
  <way id="38372738" version="6" timestamp="2010-10-20T20:31:36Z" uid="202858" user="kellerma" changeset="6119778">
    <nd ref="453342720"/>
    <nd ref="453342719"/>
    <nd ref="453342718"/>
    <nd ref="453342732"/>
    <nd ref="453342731"/>
    <nd ref="453342730"/>
    <nd ref="453342729"/>
    <nd ref="453342728"/>
    <nd ref="453342720"/>
    <tag k="addr:city" v="Neunkirchen a.Sand"/>
    <tag k="addr:country" v="DE"/>
    <tag k="addr:housenumber" v="14"/>
    <tag k="addr:postcode" v="91233"/>
    <tag k="addr:street" v="Wolfshöhe"/>
    <tag k="amenity" v="restaurant"/>
    <tag k="building" v="yes"/>
    <tag k="name" v="Wolfshöher Bräustüber&apos;l"/>
    <tag k="opening_hours" v="Mo-Su 11:00-24:00"/>
    <tag k="phone" v="+49 9153 920778"/>
    <tag k="smoking" v="no"/>
    <tag k="smoking:outside" v="yes"/>
    <tag k="source" v="Gemeinde Neunkirchen am Sand"/>
    <tag k="website" v="http://www.wolfshoeher.de/"/>
  </way>
  <way id="38372830" version="2" timestamp="2009-08-28T21:43:15Z" uid="49111" user="Markus B" changeset="2295714">
    <nd ref="453281182"/>
    <nd ref="453281187"/>
    <nd ref="453281194"/>
    <nd ref="453281206"/>
    <nd ref="453281221"/>
    <nd ref="453281226"/>
    <nd ref="453281239"/>
    <nd ref="453281133"/>
    <nd ref="453281123"/>
    <nd ref="453281151"/>
    <nd ref="453281141"/>
    <nd ref="453281163"/>
    <nd ref="453281153"/>
    <nd ref="453281179"/>
    <nd ref="453281171"/>
    <nd ref="453281054"/>
    <nd ref="453281042"/>
    <nd ref="453281073"/>
    <nd ref="453281067"/>
    <nd ref="453281097"/>
    <nd ref="453281082"/>
    <nd ref="453281114"/>
    <nd ref="453281107"/>
    <nd ref="453280540"/>
    <nd ref="453281182"/>
    <tag k="amenity" v="place_of_worship"/>
    <tag k="building" v="yes"/>
    <tag k="religion" v="christian"/>
    <tag k="source" v="Gemeinde Neunkirchen am Sand"/>
  </way>
  <way id="38372830" version="3" timestamp="2010-05-12T11:53:08Z" uid="82877" user="Wankmann" changeset="4676543">
    <nd ref="453281182"/>
    <nd ref="453281187"/>
    <nd ref="453281194"/>
    <nd ref="453281206"/>
    <nd ref="453281221"/>
    <nd ref="453281226"/>
    <nd ref="453281239"/>
    <nd ref="453281133"/>
    <nd ref="453281123"/>
    <nd ref="453281151"/>
    <nd ref="453281141"/>
    <nd ref="453281163"/>
    <nd ref="453281153"/>
    <nd ref="453281179"/>
    <nd ref="453281171"/>
    <nd ref="453281054"/>
    <nd ref="453281042"/>
    <nd ref="453281073"/>
    <nd ref="453281067"/>
    <nd ref="453281097"/>
    <nd ref="453281082"/>
    <nd ref="453281114"/>
    <nd ref="453281107"/>
    <nd ref="453280540"/>
    <nd ref="453281182"/>
    <tag k="amenity" v="place_of_worship"/>
    <tag k="building" v="yes"/>
    <tag k="name" v="Maria Himmelfahrt"/>
    <tag k="religion" v="christian"/>
    <tag k="source" v="Gemeinde Neunkirchen am Sand"/>
  </way>
  <way id="38372830" version="4" timestamp="2010-10-30T16:20:40Z" uid="202858" user="kellerma" changeset="6230501">
    <nd ref="453281182"/>
    <nd ref="453281187"/>
    <nd ref="453281194"/>
    <nd ref="453281206"/>
    <nd ref="453281221"/>
    <nd ref="453281226"/>
    <nd ref="453281239"/>
    <nd ref="453281133"/>
    <nd ref="453281123"/>
    <nd ref="453281151"/>
    <nd ref="453281141"/>
    <nd ref="453281163"/>
    <nd ref="453281153"/>
    <nd ref="453281179"/>
    <nd ref="453281171"/>
    <nd ref="453281054"/>
    <nd ref="453281042"/>
    <nd ref="453281073"/>
    <nd ref="453281067"/>
    <nd ref="453281097"/>
    <nd ref="453281082"/>
    <nd ref="453281114"/>
    <nd ref="453281107"/>
    <nd ref="453280540"/>
    <nd ref="453281182"/>
    <tag k="addr:city" v="Neunkirchen a.Sand"/>
    <tag k="addr:country" v="DE"/>
    <tag k="addr:postcode" v="91233"/>
    <tag k="amenity" v="place_of_worship"/>
    <tag k="building" v="yes"/>
    <tag k="denomination" v="catholic"/>
    <tag k="name" v="Mariä Himmelfahrt"/>
    <tag k="religion" v="christian"/>
    <tag k="source" v="Gemeinde Neunkirchen am Sand"/>
    <tag k="website" v="http://www.kirche-neunkirchen-am-sand.de/"/>
  </way>
  <way id="38372830" version="5" timestamp="2011-06-01T18:03:47Z" uid="82877" user="Wankmann" changeset="8312469">
    <nd ref="453281182"/>
    <nd ref="453281187"/>
    <nd ref="453281194"/>
    <nd ref="453281206"/>
    <nd ref="453281221"/>
    <nd ref="453281226"/>
    <nd ref="453281239"/>
    <nd ref="453281133"/>
    <nd ref="453281123"/>
    <nd ref="453281151"/>
    <nd ref="453281141"/>
    <nd ref="453281163"/>
    <nd ref="453281153"/>
    <nd ref="453281179"/>
    <nd ref="453281171"/>
    <nd ref="453281054"/>
    <nd ref="453281042"/>
    <nd ref="453281073"/>
    <nd ref="453281067"/>
    <nd ref="453281097"/>
    <nd ref="453281082"/>
    <nd ref="453281114"/>
    <nd ref="453281107"/>
    <nd ref="453280540"/>
    <nd ref="453281182"/>
    <tag k="addr:city" v="Neunkirchen a.Sand"/>
    <tag k="addr:country" v="DE"/>
    <tag k="addr:postcode" v="91233"/>
    <tag k="amenity" v="place_of_worship"/>
    <tag k="building" v="church"/>
    <tag k="denomination" v="catholic"/>
    <tag k="name" v="Mariä Himmelfahrt"/>
    <tag k="religion" v="christian"/>
    <tag k="source" v="Gemeinde Neunkirchen am Sand"/>
    <tag k="website" v="http://www.kirche-neunkirchen-am-sand.de/"/>
  </way>
  <way id="38372923" version="2" timestamp="2009-08-28T21:43:15Z" uid="49111" user="Markus B" changeset="2295714">
    <nd ref="453277248"/>
    <nd ref="453277256"/>
    <nd ref="453277250"/>
    <nd ref="453277264"/>
    <nd ref="453277260"/>
    <nd ref="453277984"/>
    <nd ref="453277973"/>
    <nd ref="453277966"/>
    <nd ref="453277955"/>
    <nd ref="453277945"/>
    <nd ref="453277937"/>
    <nd ref="453277925"/>
    <nd ref="453277914"/>
    <nd ref="453277907"/>
    <nd ref="453277900"/>
    <nd ref="453277891"/>
    <nd ref="453277886"/>
    <nd ref="453277876"/>
    <nd ref="453277870"/>
    <nd ref="453277862"/>
    <nd ref="453277855"/>
    <nd ref="453277839"/>
    <nd ref="453277845"/>
    <nd ref="453277825"/>
    <nd ref="453277248"/>
    <tag k="building" v="yes"/>
    <tag k="man_made" v="works"/>
    <tag k="name" v="Speck Pumpen"/>
    <tag k="source" v="Gemeinde Neunkirchen am Sand"/>
  </way>
  <way id="38372923" version="3" timestamp="2009-11-08T17:48:56Z" uid="7009" user="giggls" changeset="3066377">
    <nd ref="453277248"/>
    <nd ref="453277256"/>
    <nd ref="453277250"/>
    <nd ref="453277264"/>
    <nd ref="453277260"/>
    <nd ref="453277984"/>
    <nd ref="453277973"/>
    <nd ref="453277966"/>
    <nd ref="453277955"/>
    <nd ref="453277821"/>
    <nd ref="453277814"/>
    <nd ref="453277797"/>
    <nd ref="453277914"/>
    <nd ref="453277907"/>
    <nd ref="453277900"/>
    <nd ref="453277891"/>
    <nd ref="453277886"/>
    <nd ref="453277876"/>
    <nd ref="453277870"/>
    <nd ref="453277862"/>
    <nd ref="453277297"/>
    <nd ref="453277291"/>
    <nd ref="453277280"/>
    <nd ref="453277266"/>
    <nd ref="453277248"/>
    <tag k="building" v="yes"/>
    <tag k="man_made" v="works"/>
    <tag k="name" v="Speck Pumpen"/>
    <tag k="source" v="Gemeinde Neunkirchen am Sand"/>
  </way>
  <way id="38372923" version="4" timestamp="2010-11-01T20:53:48Z" uid="202858" user="kellerma" changeset="6261823">
    <nd ref="453277248"/>
    <nd ref="453277256"/>
    <nd ref="453277250"/>
    <nd ref="453277264"/>
    <nd ref="453277260"/>
    <nd ref="453277984"/>
    <nd ref="453277973"/>
    <nd ref="453277966"/>
    <nd ref="453277955"/>
    <nd ref="453277821"/>
    <nd ref="453277814"/>
    <nd ref="453277797"/>
    <nd ref="453277914"/>
    <nd ref="453277907"/>
    <nd ref="453277900"/>
    <nd ref="453277891"/>
    <nd ref="453277886"/>
    <nd ref="453277876"/>
    <nd ref="453277870"/>
    <nd ref="453277862"/>
    <nd ref="453277297"/>
    <nd ref="453277291"/>
    <nd ref="453277280"/>
    <nd ref="453277266"/>
    <nd ref="453277248"/>
    <tag k="building" v="yes"/>
    <tag k="man_made" v="works"/>
    <tag k="name" v="Speck Pumpen"/>
    <tag k="source" v="Gemeinde Neunkirchen am Sand"/>
    <tag k="website" v="http://www.speck-pumps.com/"/>
  </way>
</osm>
