<?xml version='1.0' encoding='UTF-8'?>
<osm version="0.6" generator="libosmium/2.20.0">
  <way id="38535014" version="3" timestamp="2009-08-21T19:16:07Z" uid="34428" user="usm78-gis" changeset="2227596">
    <nd ref="456028863"/>
    <nd ref="472099148"/>
    <tag k="highway" v="residential"/>
    <tag k="name" v="Зарубинский пер."/>
  </way>
  <way id="38535014" version="4" timestamp="2011-03-22T09:49:10Z" uid="43262" user="KonTur" changeset="7635391">
    <nd ref="456028863"/>
    <nd ref="472099148"/>
    <tag k="highway" v="residential"/>
    <tag k="name" v="Зарубинский переулок"/>
  </way>
  <way id="38535021" version="3" timestamp="2009-08-21T19:15:50Z" uid="34428" user="usm78-gis" changeset="2227596">
    <nd ref="249286067"/>
    <nd ref="456028863"/>
    <tag k="highway" v="residential"/>
    <tag k="name" v="Полевая ул."/>
  </way>
  <way id="38535021" version="4" timestamp="2009-09-05T05:00:27Z" uid="30590" user="KekcuHa" changeset="2376563">
    <nd ref="249286067"/>
    <nd ref="456028863"/>
    <tag k="addr:postcode" v="195043"/>
    <tag k="cladr:code" v="78000000000109500"/>
    <tag k="cladr:name" v="Полевая"/>
    <tag k="cladr:suffix" v="Улица"/>
    <tag k="highway" v="residential"/>
    <tag k="name" v="Полевая ул."/>
  </way>
  <way id="38535021" version="5" timestamp="2010-11-28T16:06:55Z" uid="24305" user="ZCC" changeset="6479511"/>
  <way id="38535030" version="1" timestamp="2009-08-04T13:17:07Z" uid="4467" user="Rosscoe" changeset="2035712">
    <nd ref="456029041"/>
    <nd ref="456029043"/>
    <tag k="bridge" v="yes"/>
    <tag k="highway" v="residential"/>
    <tag k="layer" v="1"/>
    <tag k="name" v="Eltham Drive"/>
    <tag k="oneway" v="yes"/>
    <tag k="source" v="GPS"/>
  </way>
  <way id="38535030" version="3" timestamp="2010-07-08T16:29:22Z" uid="74617" user="JohnSmith" changeset="5167338">
    <nd ref="456029041"/>
    <nd ref="456029043"/>
    <tag k="bridge" v="yes"/>
    <tag k="highway" v="residential"/>
    <tag k="layer" v="1"/>
    <tag k="maxspeed" v="50"/>
    <tag k="maxspeed:source" v="default residential speed limit in Australia"/>
    <tag k="name" v="Eltham Drive"/>
    <tag k="oneway" v="yes"/>
    <tag k="source" v="GPS"/>
    <tag k="surface" v="asphalt"/>
  </way>
  <way id="38535031" version="1" timestamp="2009-08-04T13:17:07Z" uid="4467" user="Rosscoe" changeset="2035712">
    <nd ref="456029043"/>
    <nd ref="331168753"/>
    <nd ref="331170612"/>
    <tag k="highway" v="residential"/>
    <tag k="name" v="Eltham Drive"/>
    <tag k="oneway" v="yes"/>
    <tag k="source" v="GPS"/>
  </way>
  <way id="38535031" version="3" timestamp="2010-07-08T16:30:10Z" uid="74617" user="JohnSmith" changeset="5167338">
    <nd ref="456029043"/>
    <nd ref="331168753"/>
    <nd ref="331170612"/>
    <tag k="highway" v="residential"/>
    <tag k="maxspeed" v="50"/>
    <tag k="maxspeed:source" v="default residential speed limit in Australia"/>
    <tag k="name" v="Eltham Drive"/>
    <tag k="oneway" v="yes"/>
    <tag k="source" v="GPS"/>
    <tag k="surface" v="asphalt"/>
  </way>
  <way id="38535032" version="1" timestamp="2009-08-04T13:17:08Z" uid="4467" user="Rosscoe" changeset="2035712">
    <nd ref="456029042"/>
    <nd ref="456029040"/>
    <tag k="bridge" v="yes"/>
    <tag k="highway" v="residential"/>
    <tag k="layer" v="1"/>
    <tag k="name" v="Eltham Drive"/>
    <tag k="oneway" v="yes"/>
    <tag k="source" v="GPS"/>
  </way>
  <way id="38535032" version="3" timestamp="2010-07-08T16:27:06Z" uid="74617" user="JohnSmith" changeset="5167338">
    <nd ref="456029042"/>
    <nd ref="456029040"/>
    <tag k="bridge" v="yes"/>
    <tag k="highway" v="residential"/>
    <tag k="layer" v="1"/>
    <tag k="maxspeed" v="50"/>
    <tag k="maxspeed:source" v="default residential speed limit in Australia"/>
    <tag k="name" v="Eltham Drive"/>
    <tag k="oneway" v="yes"/>
    <tag k="source" v="GPS"/>
    <tag k="surface" v="asphalt"/>
  </way>
  <way id="38535033" version="1" timestamp="2009-08-04T13:17:08Z" uid="4467" user="Rosscoe" changeset="2035712">
    <nd ref="456029040"/>
    <nd ref="319173931"/>
    <nd ref="331170688"/>
    <nd ref="331170689"/>
    <nd ref="319173930"/>
    <nd ref="331170690"/>
    <nd ref="331170607"/>
    <tag k="highway" v="residential"/>
    <tag k="name" v="Eltham Drive"/>
    <tag k="oneway" v="yes"/>
    <tag k="source" v="GPS"/>
  </way>
  <way id="38535033" version="3" timestamp="2010-07-08T16:27:53Z" uid="74617" user="JohnSmith" changeset="5167338">
    <nd ref="456029040"/>
    <nd ref="319173931"/>
    <nd ref="331170688"/>
    <nd ref="331170689"/>
    <nd ref="319173930"/>
    <nd ref="331170690"/>
    <nd ref="331170607"/>
    <tag k="highway" v="residential"/>
    <tag k="maxspeed" v="50"/>
    <tag k="maxspeed:source" v="default residential speed limit in Australia"/>
    <tag k="name" v="Eltham Drive"/>
    <tag k="oneway" v="yes"/>
    <tag k="source" v="GPS"/>
    <tag k="surface" v="asphalt"/>
  </way>
  <way id="38535083" version="2" timestamp="2010-07-06T10:10:29Z" uid="74617" user="JohnSmith" changeset="5147679">
    <nd ref="128537803"/>
    <nd ref="456029512"/>
    <nd ref="456029514"/>
    <nd ref="128545618"/>
    <tag k="highway" v="residential"/>
    <tag k="maxspeed" v="50"/>
    <tag k="maxspeed:source" v="default residential speed limit in Australia"/>
    <tag k="name" v="D&apos;Arcy Road"/>
  </way>
  <way id="38535083" version="3" timestamp="2010-07-13T09:48:43Z" uid="22094" user="Chadzopkyo" changeset="5206317">
    <nd ref="128545618"/>
    <nd ref="456029514"/>
    <nd ref="814754821"/>
    <nd ref="814754806"/>
    <nd ref="456029512"/>
    <nd ref="128537803"/>
    <tag k="highway" v="residential"/>
    <tag k="maxspeed" v="50"/>
    <tag k="name" v="D&apos;Arcy Road"/>
  </way>
  <way id="38535083" version="4" timestamp="2012-01-19T02:41:29Z" uid="147510" user="woodpeck_fixbot" changeset="10433378">
    <nd ref="128545618"/>
    <nd ref="456029514"/>
    <nd ref="814754821"/>
    <nd ref="814754806"/>
    <nd ref="456029512"/>
    <nd ref="128537803"/>
    <tag k="highway" v="residential"/>
    <tag k="name" v="D&apos;Arcy Road"/>
  </way>
  <way id="38535093" version="2" timestamp="2010-07-06T10:03:17Z" uid="74617" user="JohnSmith" changeset="5147679">
    <nd ref="128551104"/>
    <nd ref="456029654"/>
    <nd ref="107296424"/>
    <tag k="highway" v="residential"/>
    <tag k="maxspeed" v="50"/>
    <tag k="maxspeed:source" v="default residential speed limit in Australia"/>
    <tag k="name" v="Favius Avenue"/>
  </way>
  <way id="38535093" version="3" timestamp="2010-11-20T09:03:49Z" uid="22094" user="Chadzopkyo" changeset="6412465">
    <nd ref="128551093"/>
    <nd ref="995777813"/>
    <nd ref="128551095"/>
    <nd ref="128551097"/>
    <nd ref="995831720"/>
    <nd ref="128551099"/>
    <nd ref="995831737"/>
    <nd ref="128551101"/>
    <nd ref="128551104"/>
    <nd ref="456029654"/>
    <nd ref="107296424"/>
    <tag k="highway" v="residential"/>
    <tag k="maxspeed" v="50"/>
    <tag k="name" v="Salaria Drive"/>
    <tag k="source" v="GPS"/>
    <tag k="surface" v="asphalt"/>
  </way>
  <way id="38535093" version="4" timestamp="2011-12-12T03:21:24Z" uid="22094" user="Chadzopkyo" changeset="10095724">
    <nd ref="128551093"/>
    <nd ref="995777813"/>
    <nd ref="128551095"/>
    <nd ref="128551097"/>
    <nd ref="995831720"/>
    <nd ref="128551099"/>
    <nd ref="128551101"/>
    <nd ref="128551104"/>
    <nd ref="456029654"/>
    <nd ref="1541802228"/>
    <nd ref="107296424"/>
    <tag k="highway" v="residential"/>
    <tag k="maxspeed" v="50"/>
    <tag k="name" v="Salaria Drive"/>
    <tag k="source" v="GPS"/>
    <tag k="surface" v="asphalt"/>
  </way>
  <way id="38535093" version="5" timestamp="2011-12-12T06:50:55Z" uid="22094" user="Chadzopkyo" changeset="10096232">
    <nd ref="128551093"/>
    <nd ref="995777813"/>
    <nd ref="128551095"/>
    <tag k="highway" v="residential"/>
    <tag k="maxspeed" v="50"/>
    <tag k="name" v="Salaria Drive"/>
    <tag k="source" v="GPS"/>
    <tag k="surface" v="asphalt"/>
  </way>
  <way id="38535093" version="6" timestamp="2012-01-19T02:41:30Z" uid="147510" user="woodpeck_fixbot" changeset="10433378">
    <nd ref="128551093"/>
    <nd ref="995777813"/>
    <nd ref="128551095"/>
    <tag k="highway" v="residential"/>
    <tag k="name" v="Salaria Drive"/>
    <tag k="source" v="GPS"/>
    <tag k="surface" v="asphalt"/>
  </way>
  <way id="38535096" version="1" timestamp="2009-08-04T13:19:05Z" uid="4467" user="Rosscoe" changeset="2035727">
    <nd ref="456029842"/>
    <nd ref="331732958"/>
    <tag k="bridge" v="yes"/>
    <tag k="highway" v="unclassified"/>
    <tag k="lanes" v="2"/>
    <tag k="layer" v="1"/>
    <tag k="maxspeed" v="100"/>
    <tag k="name" v="Tatyoon Road"/>
  </way>
  <way id="38535097" version="1" timestamp="2009-08-04T13:19:05Z" uid="4467" user="Rosscoe" changeset="2035727">
    <nd ref="331732958"/>
    <nd ref="246108924"/>
    <nd ref="246108928"/>
    <nd ref="246108932"/>
    <nd ref="246108935"/>
    <nd ref="246108939"/>
    <nd ref="246108943"/>
    <nd ref="246108947"/>
    <nd ref="246108951"/>
    <nd ref="246108954"/>
    <nd ref="331732970"/>
    <nd ref="246108958"/>
    <nd ref="246108962"/>
    <nd ref="246108966"/>
    <nd ref="246108969"/>
    <nd ref="246108973"/>
    <nd ref="246108977"/>
    <nd ref="246108981"/>
    <nd ref="246108985"/>
    <nd ref="246108989"/>
    <nd ref="246108992"/>
    <nd ref="246108996"/>
    <nd ref="246109000"/>
    <nd ref="246109004"/>
    <nd ref="246109007"/>
    <nd ref="246109011"/>
    <nd ref="456029844"/>
    <tag k="highway" v="unclassified"/>
    <tag k="lanes" v="2"/>
    <tag k="maxspeed" v="100"/>
    <tag k="name" v="Tatyoon Road"/>
  </way>
  <way id="38535097" version="2" timestamp="2010-07-11T11:10:28Z" uid="46482" user="Leon K" changeset="5189192">
    <nd ref="331732958"/>
    <nd ref="811256119"/>
    <nd ref="246108924"/>
    <nd ref="246108928"/>
    <nd ref="246108932"/>
    <nd ref="246108935"/>
    <nd ref="246108939"/>
    <nd ref="246108943"/>
    <nd ref="246108947"/>
    <nd ref="246108951"/>
    <nd ref="246108954"/>
    <nd ref="331732970"/>
    <nd ref="246108958"/>
    <nd ref="246108962"/>
    <nd ref="246108966"/>
    <nd ref="246108969"/>
    <nd ref="246108973"/>
    <nd ref="246108977"/>
    <nd ref="246108981"/>
    <nd ref="246108985"/>
    <nd ref="246108989"/>
    <nd ref="246108992"/>
    <nd ref="246108996"/>
    <nd ref="246109000"/>
    <nd ref="246109004"/>
    <nd ref="246109007"/>
    <nd ref="246109011"/>
    <nd ref="456029844"/>
    <tag k="highway" v="unclassified"/>
    <tag k="lanes" v="2"/>
    <tag k="maxspeed" v="100"/>
    <tag k="name" v="Tatyoon Road"/>
  </way>
  <way id="38535097" version="3" timestamp="2010-12-03T09:45:32Z" uid="46482" user="Leon K" changeset="6524064">
    <nd ref="331732958"/>
    <nd ref="811256119"/>
    <nd ref="246108924"/>
    <nd ref="246108928"/>
    <nd ref="246108932"/>
    <nd ref="246108935"/>
    <nd ref="246108939"/>
    <nd ref="246108943"/>
    <nd ref="246108947"/>
    <nd ref="246108951"/>
    <nd ref="246108954"/>
    <nd ref="331732970"/>
    <nd ref="246108958"/>
    <nd ref="246108962"/>
    <nd ref="246108966"/>
    <nd ref="246108969"/>
    <nd ref="246108973"/>
    <nd ref="246108977"/>
    <nd ref="246108981"/>
    <nd ref="246108985"/>
    <nd ref="246108989"/>
    <nd ref="246108992"/>
    <nd ref="1017868252"/>
    <nd ref="246108996"/>
    <nd ref="246109000"/>
    <nd ref="246109004"/>
    <nd ref="246109007"/>
    <nd ref="246109011"/>
    <nd ref="456029844"/>
    <tag k="highway" v="unclassified"/>
    <tag k="lanes" v="2"/>
    <tag k="maxspeed" v="100"/>
    <tag k="name" v="Tatyoon Road"/>
  </way>
  <way id="38535098" version="1" timestamp="2009-08-04T13:19:05Z" uid="4467" user="Rosscoe" changeset="2035727">
    <nd ref="456029844"/>
    <nd ref="331733005"/>
    <tag k="bridge" v="yes"/>
    <tag k="highway" v="unclassified"/>
    <tag k="lanes" v="2"/>
    <tag k="layer" v="1"/>
    <tag k="maxspeed" v="100"/>
    <tag k="name" v="Tatyoon Road"/>
  </way>
  <way id="38535099" version="1" timestamp="2009-08-04T13:19:05Z" uid="4467" user="Rosscoe" changeset="2035727">
    <nd ref="331733005"/>
    <nd ref="246109014"/>
    <nd ref="311755018"/>
    <nd ref="311755020"/>
    <nd ref="331733065"/>
    <tag k="highway" v="unclassified"/>
    <tag k="lanes" v="2"/>
    <tag k="maxspeed" v="100"/>
    <tag k="name" v="Tatyoon Road"/>
  </way>
  <way id="38535418" version="2" timestamp="2009-08-22T06:08:25Z" uid="34428" user="usm78-gis" changeset="2230649">
    <nd ref="412050535"/>
    <nd ref="456031811"/>
    <nd ref="456031812"/>
    <tag k="highway" v="secondary"/>
    <tag k="name" v="Соболевская улица"/>
  </way>
  <way id="38535418" version="3" timestamp="2010-10-16T16:50:23Z" uid="303945" user="Дмитрий Кудряшов" changeset="6059398">
    <nd ref="412050535"/>
    <nd ref="456031811"/>
    <nd ref="951828553"/>
    <nd ref="951828393"/>
    <nd ref="951828499"/>
    <nd ref="951828740"/>
    <nd ref="951828502"/>
    <nd ref="456031812"/>
    <tag k="highway" v="secondary"/>
    <tag k="name" v="Соболевская дорога"/>
  </way>
  <way id="38535418" version="4" timestamp="2010-10-17T19:05:29Z" uid="303945" user="Дмитрий Кудряшов" changeset="6070534">
    <nd ref="412050535"/>
    <nd ref="456031811"/>
    <nd ref="954969326"/>
    <nd ref="954969199"/>
    <nd ref="954969246"/>
    <nd ref="954969317"/>
    <nd ref="951828553"/>
    <nd ref="951828393"/>
    <nd ref="954969292"/>
    <nd ref="951828499"/>
    <nd ref="954969233"/>
    <nd ref="951828740"/>
    <nd ref="951828502"/>
    <nd ref="456031812"/>
    <tag k="highway" v="secondary"/>
    <tag k="name" v="Соболевская дорога"/>
  </way>
  <way id="38535418" version="5" timestamp="2010-10-18T22:20:17Z" uid="303945" user="Дмитрий Кудряшов" changeset="6087519">
    <nd ref="412050535"/>
    <nd ref="956475389"/>
    <nd ref="456031811"/>
    <nd ref="954969326"/>
    <nd ref="954969199"/>
    <nd ref="954969246"/>
    <nd ref="954969317"/>
    <nd ref="951828553"/>
    <nd ref="951828393"/>
    <nd ref="954969292"/>
    <nd ref="951828499"/>
    <nd ref="954969233"/>
    <nd ref="951828740"/>
    <nd ref="956474803"/>
    <nd ref="951828502"/>
    <nd ref="456031812"/>
    <tag k="highway" v="secondary"/>
    <tag k="name" v="Соболевская дорога"/>
  </way>
  <way id="38535418" version="6" timestamp="2010-10-20T21:09:46Z" uid="303945" user="Дмитрий Кудряшов" changeset="6120140">
    <nd ref="412050535"/>
    <nd ref="956475389"/>
    <nd ref="456031811"/>
    <nd ref="954969326"/>
    <nd ref="954969199"/>
    <nd ref="958714420"/>
    <nd ref="954969246"/>
    <nd ref="954969317"/>
    <nd ref="951828553"/>
    <nd ref="951828393"/>
    <nd ref="951828499"/>
    <nd ref="954969233"/>
    <nd ref="951828740"/>
    <nd ref="956474803"/>
    <nd ref="951828502"/>
    <nd ref="456031812"/>
    <tag k="highway" v="secondary"/>
    <tag k="name" v="Соболевская дорога"/>
  </way>
  <way id="38535418" version="7" timestamp="2010-10-31T21:01:55Z" uid="303945" user="Дмитрий Кудряшов" changeset="6246601">
    <nd ref="412050535"/>
    <nd ref="956475389"/>
    <nd ref="456031811"/>
    <nd ref="954969326"/>
    <nd ref="954969199"/>
    <nd ref="972778032"/>
    <nd ref="958714420"/>
    <nd ref="954969246"/>
    <nd ref="954969317"/>
    <nd ref="951828553"/>
    <nd ref="972777985"/>
    <nd ref="951828393"/>
    <nd ref="951828499"/>
    <nd ref="954969233"/>
    <nd ref="951828740"/>
    <nd ref="956474803"/>
    <nd ref="951828502"/>
    <nd ref="456031812"/>
    <tag k="highway" v="secondary"/>
    <tag k="name" v="Соболевская дорога"/>
  </way>
  <way id="38535418" version="8" timestamp="2011-08-26T19:47:33Z" uid="303945" user="Дмитрий Кудряшов" changeset="9132523">
    <nd ref="412050535"/>
    <nd ref="956475389"/>
    <nd ref="456031811"/>
    <nd ref="954969326"/>
    <nd ref="954969199"/>
    <nd ref="972778032"/>
    <nd ref="958714420"/>
    <nd ref="954969246"/>
    <nd ref="954969317"/>
    <nd ref="951828553"/>
    <nd ref="972777985"/>
    <nd ref="951828393"/>
    <nd ref="951828499"/>
    <nd ref="954969233"/>
    <nd ref="951828740"/>
    <nd ref="956474803"/>
    <nd ref="951828502"/>
    <nd ref="456031812"/>
    <tag k="highway" v="secondary"/>
    <tag k="maxspeed" v="60"/>
    <tag k="name" v="Соболевская дорога"/>
  </way>
  <way id="38535418" version="9" timestamp="2011-09-06T19:27:31Z" uid="303945" user="Дмитрий Кудряшов" changeset="9230686">
    <nd ref="412050535"/>
    <nd ref="956475389"/>
    <nd ref="456031811"/>
    <nd ref="954969326"/>
    <nd ref="954969199"/>
    <nd ref="972778032"/>
    <nd ref="958714420"/>
    <nd ref="954969246"/>
    <nd ref="954969317"/>
    <nd ref="951828553"/>
    <nd ref="972777985"/>
    <nd ref="951828393"/>
    <nd ref="951828499"/>
    <nd ref="954969233"/>
    <nd ref="951828740"/>
    <nd ref="956474803"/>
    <nd ref="951828502"/>
    <nd ref="456031812"/>
    <tag k="highway" v="secondary"/>
    <tag k="maxspeed" v="60"/>
    <tag k="name" v="Соболевская дорога"/>
    <tag k="surface" v="asphalt"/>
  </way>
  <way id="38535432" version="2" timestamp="2009-08-21T19:16:17Z" uid="34428" user="usm78-gis" changeset="2227596">
    <nd ref="456028859"/>
    <nd ref="456028858"/>
    <tag k="highway" v="residential"/>
    <tag k="name" v="Дубковский пер."/>
  </way>
  <way id="38535432" version="3" timestamp="2009-08-21T19:16:25Z" uid="34428" user="usm78-gis" changeset="2227596">
    <nd ref="456028858"/>
    <nd ref="472099583"/>
    <tag k="highway" v="residential"/>
    <tag k="name" v="Дубковский пер."/>
  </way>
  <way id="38535432" version="4" timestamp="2010-03-25T05:55:27Z" uid="30590" user="KekcuHa" changeset="4226782">
    <nd ref="456028858"/>
    <nd ref="472099583"/>
    <tag k="addr:postcode" v="197706"/>
    <tag k="cladr:code" v="78000010000002000"/>
    <tag k="cladr:name" v="Дубковский"/>
    <tag k="cladr:suffix" v="Переулок"/>
    <tag k="highway" v="residential"/>
    <tag k="name" v="Дубковский пер."/>
  </way>
  <way id="38535432" version="5" timestamp="2011-04-18T15:50:32Z" uid="133332" user="AMDmi3" changeset="7898227">
    <nd ref="456028858"/>
    <nd ref="472099583"/>
    <tag k="addr:postcode" v="197706"/>
    <tag k="cladr:code" v="78000010000002000"/>
    <tag k="cladr:name" v="Дубковский"/>
    <tag k="cladr:suffix" v="Переулок"/>
    <tag k="highway" v="residential"/>
    <tag k="name" v="Дубковский переулок"/>
  </way>
  <way id="38535432" version="6" timestamp="2011-09-27T21:58:22Z" uid="143266" user="Sergey Astakhov" changeset="9415254">
    <nd ref="456028858"/>
    <nd ref="472099583"/>
    <tag k="addr:postcode" v="197706"/>
    <tag k="highway" v="residential"/>
    <tag k="name" v="Дубковский переулок"/>
  </way>
  <way id="38535445" version="1" timestamp="2009-08-04T13:25:56Z" uid="4467" user="Rosscoe" changeset="2035790">
    <nd ref="456032410"/>
    <nd ref="347555511"/>
    <tag k="bridge" v="yes"/>
    <tag k="highway" v="secondary"/>
    <tag k="layer" v="1"/>
    <tag k="maxspeed" v="80"/>
    <tag k="name" v="Woodside Street"/>
  </way>
  <way id="38535445" version="2" timestamp="2010-04-26T09:57:43Z" uid="83382" user="c-j-b" changeset="4530095">
    <nd ref="456032410"/>
    <nd ref="347555511"/>
    <tag k="bridge" v="yes"/>
    <tag k="highway" v="secondary"/>
    <tag k="layer" v="1"/>
    <tag k="maxspeed" v="80"/>
    <tag k="name" v="Lenaghan&apos;s Drive"/>
  </way>
  <way id="38535445" version="3" timestamp="2010-10-06T23:14:34Z" uid="79475" user="AlexOnTheBus" changeset="5974318">
    <nd ref="456032410"/>
    <nd ref="347555511"/>
    <tag k="bridge" v="yes"/>
    <tag k="highway" v="tertiary"/>
    <tag k="layer" v="1"/>
    <tag k="maxspeed" v="80"/>
    <tag k="name" v="Lenaghan&apos;s Drive"/>
  </way>
  <way id="38535446" version="1" timestamp="2009-08-04T13:25:56Z" uid="4467" user="Rosscoe" changeset="2035790">
    <nd ref="347555511"/>
    <nd ref="428925287"/>
    <nd ref="17087267"/>
    <nd ref="354806779"/>
    <nd ref="347555515"/>
    <nd ref="17087694"/>
    <nd ref="17087944"/>
    <nd ref="17088857"/>
    <nd ref="354806791"/>
    <nd ref="17087332"/>
    <nd ref="341496566"/>
    <nd ref="17087810"/>
    <nd ref="17088690"/>
    <nd ref="354806739"/>
    <nd ref="17088729"/>
    <nd ref="17087560"/>
    <nd ref="17087825"/>
    <nd ref="354806765"/>
    <nd ref="354806768"/>
    <nd ref="17088703"/>
    <nd ref="17088948"/>
    <nd ref="202806193"/>
    <nd ref="202806440"/>
    <nd ref="17087938"/>
    <tag k="highway" v="secondary"/>
    <tag k="maxspeed" v="80"/>
    <tag k="name" v="Woodside Street"/>
  </way>
  <way id="38535446" version="2" timestamp="2010-04-26T07:15:27Z" uid="83382" user="c-j-b" changeset="4528992">
    <nd ref="347555511"/>
    <nd ref="428925287"/>
    <nd ref="17087267"/>
    <nd ref="354806779"/>
    <nd ref="347555515"/>
    <nd ref="17087694"/>
    <nd ref="17087944"/>
    <nd ref="17088857"/>
    <nd ref="354806791"/>
    <nd ref="17087332"/>
    <nd ref="341496566"/>
    <nd ref="17087810"/>
    <nd ref="354806739"/>
    <nd ref="17087560"/>
    <nd ref="17087825"/>
    <tag k="highway" v="secondary"/>
    <tag k="maxspeed" v="80"/>
    <tag k="name" v="Lenaghan&apos;s Drive"/>
  </way>
  <way id="38535446" version="3" timestamp="2010-10-06T23:13:57Z" uid="79475" user="AlexOnTheBus" changeset="5974318">
    <nd ref="347555511"/>
    <nd ref="428925287"/>
    <nd ref="17087267"/>
    <nd ref="354806779"/>
    <nd ref="347555515"/>
    <nd ref="17087694"/>
    <nd ref="17087944"/>
    <nd ref="17088857"/>
    <nd ref="354806791"/>
    <nd ref="17087332"/>
    <nd ref="341496566"/>
    <nd ref="17087810"/>
    <nd ref="354806739"/>
    <nd ref="17087560"/>
    <nd ref="17087825"/>
    <tag k="highway" v="tertiary"/>
    <tag k="maxspeed" v="80"/>
    <tag k="name" v="Lenaghan&apos;s Drive"/>
  </way>
  <way id="38535447" version="1" timestamp="2009-08-04T13:25:56Z" uid="4467" user="Rosscoe" changeset="2035790">
    <nd ref="33069229"/>
    <nd ref="347555532"/>
    <tag k="bridge" v="yes"/>
    <tag k="highway" v="motorway"/>
    <tag k="is_in" v="Australia, NSW, New South Wales"/>
    <tag k="layer" v="1"/>
    <tag k="maxspeed" v="110"/>
    <tag k="name" v="F3 Freeway"/>
    <tag k="oneway" v="yes"/>
    <tag k="ref" v="NH1"/>
    <tag k="source" v="survey"/>
  </way>
  <way id="38535447" version="2" timestamp="2009-08-11T06:26:38Z" uid="4467" user="Rosscoe" changeset="2104833">
    <nd ref="33069229"/>
    <nd ref="347555532"/>
    <tag k="bridge" v="yes"/>
    <tag k="highway" v="motorway"/>
    <tag k="is_in" v="NSW, New South Wales, Australia"/>
    <tag k="layer" v="1"/>
    <tag k="maxspeed" v="110"/>
    <tag k="name" v="F3 Freeway"/>
    <tag k="oneway" v="yes"/>
    <tag k="ref" v="NH1"/>
    <tag k="source" v="survey"/>
  </way>
  <way id="38535447" version="3" timestamp="2010-03-29T13:54:12Z" uid="74617" user="JohnSmith" changeset="4267541">
    <nd ref="33069229"/>
    <nd ref="347555532"/>
    <tag k="bridge" v="yes"/>
    <tag k="highway" v="motorway"/>
    <tag k="layer" v="1"/>
    <tag k="maxspeed" v="110"/>
    <tag k="oneway" v="yes"/>
    <tag k="source" v="survey"/>
  </way>
  <way id="38535447" version="4" timestamp="2010-06-18T00:16:39Z" uid="299678" user="peteramjet" changeset="5013189">
    <nd ref="33069229"/>
    <nd ref="347555532"/>
    <tag k="bridge" v="yes"/>
    <tag k="highway" v="motorway"/>
    <tag k="layer" v="1"/>
    <tag k="maxspeed" v="110"/>
    <tag k="name" v="F3 Freeway"/>
    <tag k="oneway" v="yes"/>
    <tag k="source" v="survey"/>
  </way>
  <way id="38535447" version="5" timestamp="2010-06-19T06:37:44Z" uid="299678" user="peteramjet" changeset="5021120">
    <nd ref="33069229"/>
    <nd ref="347555532"/>
    <tag k="bridge" v="yes"/>
    <tag k="highway" v="motorway"/>
    <tag k="layer" v="1"/>
    <tag k="maxspeed" v="110"/>
    <tag k="name" v="Sydney–Newcastle Freeway"/>
    <tag k="oneway" v="yes"/>
    <tag k="source" v="survey"/>
  </way>
  <way id="38535447" version="6" timestamp="2010-06-30T10:45:09Z" uid="299678" user="peteramjet" changeset="5112473">
    <nd ref="33069229"/>
    <nd ref="347555532"/>
    <tag k="bridge" v="yes"/>
    <tag k="highway" v="motorway"/>
    <tag k="layer" v="1"/>
    <tag k="maxspeed" v="110"/>
    <tag k="name" v="Sydney–Newcastle Freeway"/>
    <tag k="oneway" v="yes"/>
    <tag k="ref" v="NH1"/>
    <tag k="source" v="survey"/>
  </way>
  <way id="38535447" version="7" timestamp="2010-07-06T08:38:39Z" uid="299678" user="peteramjet" changeset="5148343">
    <nd ref="33069229"/>
    <nd ref="347555532"/>
    <tag k="bridge" v="yes"/>
    <tag k="highway" v="motorway"/>
    <tag k="layer" v="1"/>
    <tag k="maxspeed" v="110"/>
    <tag k="name" v="Sydney–Newcastle Freeway"/>
    <tag k="oneway" v="yes"/>
    <tag k="source" v="survey"/>
  </way>
  <way id="38535448" version="1" timestamp="2009-08-04T13:25:57Z" uid="4467" user="Rosscoe" changeset="2035790">
    <nd ref="347555532"/>
    <nd ref="347555518"/>
    <nd ref="33069230"/>
    <nd ref="33069231"/>
    <nd ref="347555521"/>
    <nd ref="33069232"/>
    <nd ref="428671335"/>
    <nd ref="33069233"/>
    <nd ref="428671318"/>
    <nd ref="354806782"/>
    <nd ref="428671342"/>
    <nd ref="17655670"/>
    <tag k="highway" v="motorway"/>
    <tag k="is_in" v="Australia, NSW, New South Wales"/>
    <tag k="maxspeed" v="110"/>
    <tag k="name" v="F3 Freeway"/>
    <tag k="oneway" v="yes"/>
    <tag k="ref" v="NH1"/>
    <tag k="source" v="survey"/>
  </way>
  <way id="38535448" version="2" timestamp="2009-08-11T06:26:37Z" uid="4467" user="Rosscoe" changeset="2104833">
    <nd ref="347555532"/>
    <nd ref="347555518"/>
    <nd ref="33069230"/>
    <nd ref="33069231"/>
    <nd ref="347555521"/>
    <nd ref="33069232"/>
    <nd ref="428671335"/>
    <nd ref="33069233"/>
    <nd ref="428671318"/>
    <nd ref="354806782"/>
    <nd ref="428671342"/>
    <nd ref="17655670"/>
    <tag k="highway" v="motorway"/>
    <tag k="is_in" v="NSW, New South Wales, Australia"/>
    <tag k="maxspeed" v="110"/>
    <tag k="name" v="F3 Freeway"/>
    <tag k="oneway" v="yes"/>
    <tag k="ref" v="NH1"/>
    <tag k="source" v="survey"/>
  </way>
  <way id="38535448" version="3" timestamp="2010-03-29T13:54:12Z" uid="74617" user="JohnSmith" changeset="4267541">
    <nd ref="347555532"/>
    <nd ref="347555518"/>
    <nd ref="33069230"/>
    <nd ref="33069231"/>
    <nd ref="347555521"/>
    <nd ref="33069232"/>
    <nd ref="428671335"/>
    <nd ref="33069233"/>
    <nd ref="428671318"/>
    <nd ref="354806782"/>
    <nd ref="428671342"/>
    <nd ref="17655670"/>
    <tag k="highway" v="motorway"/>
    <tag k="maxspeed" v="110"/>
    <tag k="oneway" v="yes"/>
    <tag k="source" v="survey"/>
  </way>
  <way id="38535448" version="4" timestamp="2010-06-18T00:16:43Z" uid="299678" user="peteramjet" changeset="5013189">
    <nd ref="347555532"/>
    <nd ref="347555518"/>
    <nd ref="33069230"/>
    <nd ref="33069231"/>
    <nd ref="347555521"/>
    <nd ref="33069232"/>
    <nd ref="428671335"/>
    <nd ref="33069233"/>
    <nd ref="428671318"/>
    <nd ref="354806782"/>
    <nd ref="428671342"/>
    <nd ref="17655670"/>
    <tag k="highway" v="motorway"/>
    <tag k="maxspeed" v="110"/>
    <tag k="name" v="F3 Freeway"/>
    <tag k="oneway" v="yes"/>
    <tag k="source" v="survey"/>
  </way>
  <way id="38535448" version="5" timestamp="2010-06-19T06:37:46Z" uid="299678" user="peteramjet" changeset="5021120">
    <nd ref="347555532"/>
    <nd ref="347555518"/>
    <nd ref="33069230"/>
    <nd ref="33069231"/>
    <nd ref="347555521"/>
    <nd ref="33069232"/>
    <nd ref="428671335"/>
    <nd ref="33069233"/>
    <nd ref="428671318"/>
    <nd ref="354806782"/>
    <nd ref="428671342"/>
    <nd ref="17655670"/>
    <tag k="highway" v="motorway"/>
    <tag k="maxspeed" v="110"/>
    <tag k="name" v="Sydney–Newcastle Freeway"/>
    <tag k="oneway" v="yes"/>
    <tag k="source" v="survey"/>
  </way>
  <way id="38535448" version="6" timestamp="2010-06-30T10:45:11Z" uid="299678" user="peteramjet" changeset="5112473">
    <nd ref="347555532"/>
    <nd ref="347555518"/>
    <nd ref="33069230"/>
    <nd ref="33069231"/>
    <nd ref="347555521"/>
    <nd ref="33069232"/>
    <nd ref="428671335"/>
    <nd ref="33069233"/>
    <nd ref="428671318"/>
    <nd ref="354806782"/>
    <nd ref="428671342"/>
    <nd ref="17655670"/>
    <tag k="highway" v="motorway"/>
    <tag k="maxspeed" v="110"/>
    <tag k="name" v="Sydney–Newcastle Freeway"/>
    <tag k="oneway" v="yes"/>
    <tag k="ref" v="NH1"/>
    <tag k="source" v="survey"/>
  </way>
  <way id="38535448" version="7" timestamp="2010-07-06T08:37:38Z" uid="299678" user="peteramjet" changeset="5148343">
    <nd ref="347555532"/>
    <nd ref="347555518"/>
    <nd ref="33069230"/>
    <nd ref="33069231"/>
    <nd ref="347555521"/>
    <nd ref="33069232"/>
    <nd ref="428671335"/>
    <nd ref="33069233"/>
    <nd ref="428671318"/>
    <nd ref="354806782"/>
    <nd ref="428671342"/>
    <nd ref="17655670"/>
    <tag k="highway" v="motorway"/>
    <tag k="maxspeed" v="110"/>
    <tag k="name" v="Sydney–Newcastle Freeway"/>
    <tag k="oneway" v="yes"/>
    <tag k="source" v="survey"/>
  </way>
  <way id="38535448" version="8" timestamp="2011-02-17T00:48:03Z" uid="170282" user="rlewis" changeset="7309163">
    <nd ref="347555532"/>
    <nd ref="347555518"/>
    <nd ref="33069230"/>
    <nd ref="33069231"/>
    <nd ref="347555521"/>
    <nd ref="33069232"/>
    <nd ref="428671335"/>
    <nd ref="33069233"/>
    <nd ref="428671318"/>
    <nd ref="354806782"/>
    <nd ref="428671342"/>
    <nd ref="17655670"/>
    <tag k="highway" v="motorway"/>
    <tag k="maxspeed" v="110"/>
    <tag k="name" v="Sydney - Newcastle Freeway"/>
    <tag k="oneway" v="yes"/>
    <tag k="source" v="survey"/>
  </way>
  <way id="38535449" version="1" timestamp="2009-08-04T13:25:57Z" uid="4467" user="Rosscoe" changeset="2035790">
    <nd ref="347555526"/>
    <nd ref="17656533"/>
    <tag k="bridge" v="yes"/>
    <tag k="highway" v="motorway"/>
    <tag k="is_in" v="Australia, NSW, New South Wales"/>
    <tag k="layer" v="1"/>
    <tag k="maxspeed" v="110"/>
    <tag k="name" v="F3 Freeway"/>
    <tag k="oneway" v="yes"/>
    <tag k="ref" v="NH1"/>
    <tag k="source" v="landsat"/>
  </way>
  <way id="38535449" version="2" timestamp="2009-08-11T06:26:42Z" uid="4467" user="Rosscoe" changeset="2104833">
    <nd ref="347555526"/>
    <nd ref="17656533"/>
    <tag k="bridge" v="yes"/>
    <tag k="highway" v="motorway"/>
    <tag k="is_in" v="NSW, New South Wales, Australia"/>
    <tag k="layer" v="1"/>
    <tag k="maxspeed" v="110"/>
    <tag k="name" v="F3 Freeway"/>
    <tag k="oneway" v="yes"/>
    <tag k="ref" v="NH1"/>
    <tag k="source" v="landsat"/>
  </way>
  <way id="38535449" version="3" timestamp="2010-03-29T13:54:12Z" uid="74617" user="JohnSmith" changeset="4267541">
    <nd ref="347555526"/>
    <nd ref="17656533"/>
    <tag k="bridge" v="yes"/>
    <tag k="highway" v="motorway"/>
    <tag k="layer" v="1"/>
    <tag k="maxspeed" v="110"/>
    <tag k="oneway" v="yes"/>
    <tag k="source" v="landsat"/>
  </way>
  <way id="38535449" version="4" timestamp="2010-06-18T00:16:39Z" uid="299678" user="peteramjet" changeset="5013189">
    <nd ref="347555526"/>
    <nd ref="17656533"/>
    <tag k="bridge" v="yes"/>
    <tag k="highway" v="motorway"/>
    <tag k="layer" v="1"/>
    <tag k="maxspeed" v="110"/>
    <tag k="name" v="F3 Freeway"/>
    <tag k="oneway" v="yes"/>
    <tag k="source" v="landsat"/>
  </way>
  <way id="38535449" version="5" timestamp="2010-06-19T06:37:47Z" uid="299678" user="peteramjet" changeset="5021120">
    <nd ref="347555526"/>
    <nd ref="17656533"/>
    <tag k="bridge" v="yes"/>
    <tag k="highway" v="motorway"/>
    <tag k="layer" v="1"/>
    <tag k="maxspeed" v="110"/>
    <tag k="name" v="Sydney–Newcastle Freeway"/>
    <tag k="oneway" v="yes"/>
    <tag k="source" v="landsat"/>
  </way>
  <way id="38535449" version="6" timestamp="2010-06-30T10:45:08Z" uid="299678" user="peteramjet" changeset="5112473">
    <nd ref="347555526"/>
    <nd ref="17656533"/>
    <tag k="bridge" v="yes"/>
    <tag k="highway" v="motorway"/>
    <tag k="layer" v="1"/>
    <tag k="maxspeed" v="110"/>
    <tag k="name" v="Sydney–Newcastle Freeway"/>
    <tag k="oneway" v="yes"/>
    <tag k="ref" v="NH1"/>
    <tag k="source" v="landsat"/>
  </way>
  <way id="38535449" version="7" timestamp="2010-07-06T08:38:36Z" uid="299678" user="peteramjet" changeset="5148343">
    <nd ref="347555526"/>
    <nd ref="17656533"/>
    <tag k="bridge" v="yes"/>
    <tag k="highway" v="motorway"/>
    <tag k="layer" v="1"/>
    <tag k="maxspeed" v="110"/>
    <tag k="name" v="Sydney–Newcastle Freeway"/>
    <tag k="oneway" v="yes"/>
    <tag k="source" v="landsat"/>
  </way>
  <way id="38535450" version="1" timestamp="2009-08-04T13:25:57Z" uid="4467" user="Rosscoe" changeset="2035790">
    <nd ref="17656533"/>
    <nd ref="354841072"/>
    <nd ref="17656536"/>
    <nd ref="428925290"/>
    <nd ref="17656540"/>
    <nd ref="428925292"/>
    <nd ref="17656541"/>
    <nd ref="428925296"/>
    <nd ref="17656542"/>
    <nd ref="17656543"/>
    <nd ref="347556343"/>
    <nd ref="354841045"/>
    <nd ref="347556341"/>
    <nd ref="347556352"/>
    <nd ref="323135760"/>
    <nd ref="17087436"/>
    <tag k="highway" v="motorway"/>
    <tag k="is_in" v="Australia, NSW, New South Wales"/>
    <tag k="maxspeed" v="110"/>
    <tag k="name" v="F3 Freeway"/>
    <tag k="oneway" v="yes"/>
    <tag k="ref" v="NH1"/>
    <tag k="source" v="landsat"/>
  </way>
  <way id="38535450" version="2" timestamp="2009-08-11T06:26:40Z" uid="4467" user="Rosscoe" changeset="2104833">
    <nd ref="17656533"/>
    <nd ref="354841072"/>
    <nd ref="17656536"/>
    <nd ref="428925290"/>
    <nd ref="17656540"/>
    <nd ref="428925292"/>
    <nd ref="17656541"/>
    <nd ref="428925296"/>
    <nd ref="17656542"/>
    <nd ref="17656543"/>
    <nd ref="347556343"/>
    <nd ref="354841045"/>
    <nd ref="347556341"/>
    <nd ref="347556352"/>
    <nd ref="323135760"/>
    <nd ref="17087436"/>
    <tag k="highway" v="motorway"/>
    <tag k="is_in" v="NSW, New South Wales, Australia"/>
    <tag k="maxspeed" v="110"/>
    <tag k="name" v="F3 Freeway"/>
    <tag k="oneway" v="yes"/>
    <tag k="ref" v="NH1"/>
    <tag k="source" v="landsat"/>
  </way>
  <way id="38535450" version="3" timestamp="2010-03-29T13:54:16Z" uid="74617" user="JohnSmith" changeset="4267541"/>
  <way id="38535671" version="2" timestamp="2009-08-22T06:06:08Z" uid="34428" user="usm78-gis" changeset="2230642">
    <nd ref="456031812"/>
    <nd ref="456034020"/>
    <nd ref="456034021"/>
    <tag k="highway" v="secondary"/>
    <tag k="name" v="Соболевская дорога"/>
  </way>
  <way id="38535671" version="3" timestamp="2009-08-22T06:07:48Z" uid="34428" user="usm78-gis" changeset="2230649">
    <nd ref="456031812"/>
    <nd ref="456034020"/>
    <nd ref="386631267"/>
    <tag k="highway" v="secondary"/>
    <tag k="name" v="Соболевская дорога"/>
  </way>
  <way id="38535671" version="4" timestamp="2010-10-16T16:50:29Z" uid="303945" user="Дмитрий Кудряшов" changeset="6059398">
    <nd ref="456031812"/>
    <nd ref="456034020"/>
    <nd ref="386631267"/>
    <tag k="highway" v="secondary"/>
    <tag k="name" v="Соболевская дорога"/>
  </way>
  <way id="38535671" version="5" timestamp="2011-08-26T19:47:33Z" uid="303945" user="Дмитрий Кудряшов" changeset="9132523">
    <nd ref="456031812"/>
    <nd ref="456034020"/>
    <nd ref="386631267"/>
    <tag k="highway" v="secondary"/>
    <tag k="maxspeed" v="90"/>
    <tag k="name" v="Соболевская дорога"/>
  </way>
  <way id="38535671" version="6" timestamp="2011-09-06T19:27:33Z" uid="303945" user="Дмитрий Кудряшов" changeset="9230686">
    <nd ref="456031812"/>
    <nd ref="456034020"/>
    <nd ref="386631267"/>
    <tag k="highway" v="secondary"/>
    <tag k="maxspeed" v="90"/>
    <tag k="name" v="Соболевская дорога"/>
    <tag k="surface" v="asphalt"/>
  </way>
  <way id="38535678" version="1" timestamp="2009-08-04T13:28:03Z" uid="4467" user="Rosscoe" changeset="2035809">
    <nd ref="456034204"/>
    <nd ref="347561556"/>
    <tag k="access" v="foot"/>
    <tag k="bridge" v="yes"/>
    <tag k="highway" v="footway"/>
    <tag k="layer" v="1"/>
  </way>
  <way id="38535679" version="1" timestamp="2009-08-04T13:28:03Z" uid="4467" user="Rosscoe" changeset="2035809">
    <nd ref="347561556"/>
    <nd ref="347561561"/>
    <nd ref="347561567"/>
    <nd ref="347561541"/>
    <nd ref="347561377"/>
    <nd ref="347561366"/>
    <nd ref="347561361"/>
    <nd ref="456034205"/>
    <tag k="access" v="foot"/>
    <tag k="highway" v="footway"/>
  </way>
  <way id="38535680" version="1" timestamp="2009-08-04T13:28:03Z" uid="4467" user="Rosscoe" changeset="2035809">
    <nd ref="456034205"/>
    <nd ref="347561384"/>
    <tag k="access" v="foot"/>
    <tag k="bridge" v="yes"/>
    <tag k="highway" v="footway"/>
    <tag k="layer" v="1"/>
  </way>
  <way id="38535681" version="1" timestamp="2009-08-04T13:28:03Z" uid="4467" user="Rosscoe" changeset="2035809">
    <nd ref="347561384"/>
    <nd ref="347561353"/>
    <nd ref="347561343"/>
    <nd ref="347561333"/>
    <nd ref="347561326"/>
    <nd ref="347561322"/>
    <nd ref="369168664"/>
    <nd ref="287287113"/>
    <tag k="access" v="foot"/>
    <tag k="highway" v="footway"/>
  </way>
  <way id="38535938" version="2" timestamp="2009-12-09T16:07:02Z" uid="200463" user="harmagedon" changeset="3334003">
    <nd ref="274341013"/>
    <nd ref="281543833"/>
    <tag k="highway" v="unclassified"/>
    <tag k="surface" v="unpaved"/>
  </way>
  <way id="38535014" version="5" timestamp="2012-07-22T21:07:40Z" uid="722137" user="OSMF Redaction Account" changeset="12440359"/>
  <way id="38535030" version="4" timestamp="2012-07-14T14:07:14Z" uid="67896" user="mrpulley" changeset="12217802"/>
  <way id="38535031" version="4" timestamp="2012-07-14T14:07:14Z" uid="67896" user="mrpulley" changeset="12217802"/>
  <way id="38535032" version="4" timestamp="2012-07-14T14:07:14Z" uid="67896" user="mrpulley" changeset="12217802"/>
  <way id="38535033" version="4" timestamp="2012-07-14T14:07:14Z" uid="67896" user="mrpulley" changeset="12217802"/>
  <way id="38535096" version="2" timestamp="2012-07-19T04:22:15Z" uid="722137" user="OSMF Redaction Account" changeset="12307991"/>
  <way id="38535097" version="4" timestamp="2012-07-19T04:22:07Z" uid="722137" user="OSMF Redaction Account" changeset="12307991">
    <nd ref="811256119"/>
    <nd ref="1017868252"/>
  </way>
  <way id="38535098" version="2" timestamp="2012-07-19T04:22:45Z" uid="722137" user="OSMF Redaction Account" changeset="12308012"/>
  <way id="38535099" version="2" timestamp="2012-07-19T04:22:45Z" uid="722137" user="OSMF Redaction Account" changeset="12308012"/>
  <way id="38535418" version="10" timestamp="2012-04-13T20:27:53Z" uid="303945" user="Дмитрий Кудряшов" changeset="11292072">
    <nd ref="412050535"/>
    <nd ref="956475389"/>
    <nd ref="456031811"/>
    <nd ref="954969326"/>
    <nd ref="1715092668"/>
    <nd ref="954969199"/>
    <nd ref="972778032"/>
    <nd ref="958714420"/>
    <nd ref="954969246"/>
    <nd ref="954969317"/>
    <nd ref="951828553"/>
    <nd ref="972777985"/>
    <nd ref="951828393"/>
    <nd ref="951828499"/>
    <nd ref="954969233"/>
    <nd ref="951828740"/>
    <nd ref="956474803"/>
    <nd ref="951828502"/>
    <nd ref="456031812"/>
    <tag k="hgv" v="no"/>
    <tag k="highway" v="secondary"/>
    <tag k="maxspeed" v="60"/>
    <tag k="name" v="Соболевская дорога"/>
    <tag k="surface" v="asphalt"/>
  </way>
  <way id="38535418" version="11" timestamp="2012-07-20T11:19:06Z" uid="722137" user="OSMF Redaction Account" changeset="12372862">
    <nd ref="956475389"/>
    <nd ref="954969326"/>
    <nd ref="1715092668"/>
    <nd ref="954969199"/>
    <nd ref="972778032"/>
    <nd ref="958714420"/>
    <nd ref="954969246"/>
    <nd ref="954969317"/>
    <nd ref="951828553"/>
    <nd ref="972777985"/>
    <nd ref="951828393"/>
    <nd ref="951828499"/>
    <nd ref="954969233"/>
    <nd ref="951828740"/>
    <nd ref="956474803"/>
    <nd ref="951828502"/>
    <tag k="hgv" v="no"/>
    <tag k="maxspeed" v="60"/>
    <tag k="name" v="Соболевская дорога"/>
    <tag k="surface" v="asphalt"/>
  </way>
  <way id="38535418" version="12" timestamp="2012-07-28T19:10:30Z" uid="303945" user="Дмитрий Кудряшов" changeset="12527073">
    <nd ref="951828502"/>
    <nd ref="956474803"/>
    <nd ref="951828740"/>
    <nd ref="954969233"/>
    <nd ref="951828499"/>
    <nd ref="951828393"/>
    <nd ref="972777985"/>
    <nd ref="951828553"/>
    <nd ref="954969317"/>
    <nd ref="954969246"/>
    <nd ref="958714420"/>
    <nd ref="972778032"/>
    <nd ref="954969199"/>
    <nd ref="1715092668"/>
    <nd ref="954969326"/>
    <nd ref="956475389"/>
    <nd ref="412050535"/>
    <tag k="hgv" v="no"/>
    <tag k="highway" v="residential"/>
    <tag k="maxspeed" v="60"/>
    <tag k="name" v="Соболевская дорога"/>
    <tag k="surface" v="asphalt"/>
  </way>
  <way id="38535432" version="7" timestamp="2012-07-22T21:07:40Z" uid="722137" user="OSMF Redaction Account" changeset="12440359"/>
  <way id="38535445" version="4" timestamp="2012-07-09T04:16:52Z" uid="717576" user="samuelrussell" changeset="12157590">
    <nd ref="456032410"/>
    <nd ref="347555511"/>
    <tag k="bridge" v="yes"/>
    <tag k="highway" v="tertiary"/>
    <tag k="layer" v="1"/>
    <tag k="maxspeed" v="80"/>
    <tag k="name" v="Lenaghan&apos;s Drive"/>
    <tag k="rcn" v="yes"/>
  </way>
  <way id="38535445" version="5" timestamp="2012-07-12T05:03:01Z" uid="705018" user="jinkson" changeset="12192203"/>
  <way id="38535446" version="4" timestamp="2012-07-09T04:16:53Z" uid="717576" user="samuelrussell" changeset="12157590">
    <nd ref="347555511"/>
    <nd ref="428925287"/>
    <nd ref="17087267"/>
    <nd ref="354806779"/>
    <nd ref="347555515"/>
    <nd ref="17087694"/>
    <nd ref="17087944"/>
    <nd ref="17088857"/>
    <nd ref="354806791"/>
    <nd ref="17087332"/>
    <nd ref="341496566"/>
    <nd ref="17087810"/>
    <nd ref="354806739"/>
    <nd ref="17087560"/>
    <nd ref="17087825"/>
    <tag k="highway" v="tertiary"/>
    <tag k="maxspeed" v="80"/>
    <tag k="name" v="Lenaghan&apos;s Drive"/>
    <tag k="rcn" v="yes"/>
  </way>
  <way id="38535446" version="5" timestamp="2012-07-12T05:02:28Z" uid="705018" user="jinkson" changeset="12192203"/>
  <way id="38535447" version="8" timestamp="2012-07-09T04:16:52Z" uid="717576" user="samuelrussell" changeset="12157590">
    <nd ref="33069229"/>
    <nd ref="347555532"/>
    <tag k="bridge" v="yes"/>
    <tag k="highway" v="motorway"/>
    <tag k="layer" v="1"/>
    <tag k="maxspeed" v="110"/>
    <tag k="name" v="Sydney–Newcastle Freeway"/>
    <tag k="ncn" v="yes"/>
    <tag k="oneway" v="yes"/>
    <tag k="source" v="survey"/>
  </way>
  <way id="38535447" version="9" timestamp="2012-07-12T05:02:28Z" uid="705018" user="jinkson" changeset="12192203"/>
  <way id="38535448" version="9" timestamp="2012-07-09T04:16:52Z" uid="717576" user="samuelrussell" changeset="12157590">
    <nd ref="347555532"/>
    <nd ref="347555518"/>
    <nd ref="33069230"/>
    <nd ref="33069231"/>
    <nd ref="347555521"/>
    <nd ref="33069232"/>
    <nd ref="428671335"/>
    <nd ref="33069233"/>
    <nd ref="428671318"/>
    <nd ref="354806782"/>
    <nd ref="428671342"/>
    <nd ref="17655670"/>
    <tag k="highway" v="motorway"/>
    <tag k="maxspeed" v="110"/>
    <tag k="name" v="Sydney - Newcastle Freeway"/>
    <tag k="ncn" v="yes"/>
    <tag k="oneway" v="yes"/>
    <tag k="source" v="survey"/>
  </way>
  <way id="38535448" version="10" timestamp="2012-07-12T05:02:28Z" uid="705018" user="jinkson" changeset="12192203"/>
  <way id="38535449" version="8" timestamp="2012-07-09T04:16:52Z" uid="717576" user="samuelrussell" changeset="12157590">
    <nd ref="347555526"/>
    <nd ref="17656533"/>
    <tag k="bridge" v="yes"/>
    <tag k="highway" v="motorway"/>
    <tag k="layer" v="1"/>
    <tag k="maxspeed" v="110"/>
    <tag k="name" v="Sydney–Newcastle Freeway"/>
    <tag k="ncn" v="yes"/>
    <tag k="oneway" v="yes"/>
    <tag k="source" v="landsat"/>
  </way>
  <way id="38535449" version="9" timestamp="2012-07-12T05:02:28Z" uid="705018" user="jinkson" changeset="12192203"/>
  <way id="38535671" version="7" timestamp="2012-04-13T20:27:54Z" uid="303945" user="Дмитрий Кудряшов" changeset="11292072">
    <nd ref="456031812"/>
    <nd ref="456034020"/>
    <nd ref="1715091908"/>
    <nd ref="386631267"/>
    <tag k="hgv" v="no"/>
    <tag k="highway" v="secondary"/>
    <tag k="maxspeed" v="90"/>
    <tag k="name" v="Соболевская дорога"/>
    <tag k="surface" v="asphalt"/>
  </way>
  <way id="38535671" version="8" timestamp="2012-04-17T20:13:10Z" uid="303945" user="Дмитрий Кудряшов" changeset="11337489">
    <nd ref="456031812"/>
    <nd ref="1721050836"/>
    <nd ref="1721050790"/>
    <nd ref="456034020"/>
    <nd ref="1715091908"/>
    <nd ref="386631267"/>
    <tag k="hgv" v="no"/>
    <tag k="highway" v="secondary"/>
    <tag k="maxspeed" v="90"/>
    <tag k="name" v="Соболевская дорога"/>
    <tag k="surface" v="asphalt"/>
  </way>
  <way id="38535671" version="9" timestamp="2012-07-20T11:19:04Z" uid="722137" user="OSMF Redaction Account" changeset="12372862">
    <nd ref="1721050836"/>
    <nd ref="1721050790"/>
    <nd ref="1715091908"/>
    <tag k="hgv" v="no"/>
    <tag k="maxspeed" v="90"/>
    <tag k="surface" v="asphalt"/>
  </way>
  <way id="38535671" version="10" timestamp="2012-07-21T09:27:48Z" uid="623185" user="coho" changeset="12404721">
    <nd ref="1721050836"/>
    <nd ref="1721050790"/>
    <nd ref="1715091908"/>
    <nd ref="386631267"/>
    <tag k="hgv" v="no"/>
    <tag k="highway" v="unclassified"/>
    <tag k="maxspeed" v="90"/>
    <tag k="surface" v="asphalt"/>
  </way>
  <way id="38535671" version="11" timestamp="2012-07-30T15:14:34Z" uid="303945" user="Дмитрий Кудряшов" changeset="12549421">
    <nd ref="1721050836"/>
    <nd ref="1721050790"/>
    <nd ref="1844112971"/>
    <nd ref="1715091908"/>
    <nd ref="386631267"/>
    <tag k="hgv" v="no"/>
    <tag k="highway" v="unclassified"/>
    <tag k="lanes" v="2"/>
    <tag k="lit" v="no"/>
    <tag k="maxspeed" v="90"/>
    <tag k="name" v="Соболевская дорога"/>
    <tag k="surface" v="asphalt"/>
  </way>
  <way id="38535678" version="2" timestamp="2012-07-21T15:11:31Z" uid="722137" user="OSMF Redaction Account" changeset="12412984"/>
  <way id="38535679" version="2" timestamp="2012-07-21T15:11:31Z" uid="722137" user="OSMF Redaction Account" changeset="12412984"/>
  <way id="38535680" version="2" timestamp="2012-07-21T15:11:28Z" uid="722137" user="OSMF Redaction Account" changeset="12412984"/>
  <way id="38535681" version="2" timestamp="2012-07-21T15:11:28Z" uid="722137" user="OSMF Redaction Account" changeset="12412984"/>
  <way id="38535938" version="3" timestamp="2012-05-15T07:25:29Z" uid="436868" user="Waldschwamm" changeset="11602278">
    <nd ref="274341013"/>
    <nd ref="281543833"/>
    <tag k="highway" v="service"/>
    <tag k="name" v="Oberfrauenau"/>
    <tag k="surface" v="gravel"/>
  </way>
</osm>
