<?xml version='1.0' encoding='UTF-8'?>
<osm version="0.6" generator="libosmium/2.20.0">
  <way id="38573171" version="2" timestamp="2010-06-23T06:51:40Z" uid="4467" user="Rosscoe" changeset="5056518">
    <nd ref="456873724"/>
    <nd ref="456873725"/>
    <nd ref="456873726"/>
    <nd ref="140971691"/>
    <nd ref="456873727"/>
    <nd ref="456873728"/>
    <nd ref="456873729"/>
    <nd ref="456873722"/>
    <nd ref="456873724"/>
    <tag k="highway" v="residential"/>
    <tag k="junction" v="roundabout"/>
  </way>
  <way id="38573171" version="3" timestamp="2010-07-09T02:55:28Z" uid="74617" user="JohnSmith" changeset="5170739">
    <nd ref="456873724"/>
    <nd ref="456873725"/>
    <nd ref="456873726"/>
    <nd ref="140971691"/>
    <nd ref="456873727"/>
    <nd ref="456873728"/>
    <nd ref="456873729"/>
    <nd ref="456873722"/>
    <nd ref="456873724"/>
    <tag k="highway" v="residential"/>
    <tag k="junction" v="roundabout"/>
    <tag k="maxspeed" v="50"/>
    <tag k="maxspeed:source" v="default residential speed limit in Australia"/>
  </way>
  <way id="38573171" version="4" timestamp="2010-10-23T22:24:58Z" uid="4467" user="Rosscoe" changeset="6152276">
    <nd ref="456873724"/>
    <nd ref="456873725"/>
    <nd ref="456873726"/>
    <nd ref="140971691"/>
    <nd ref="456873727"/>
    <nd ref="456873728"/>
    <nd ref="456873729"/>
    <nd ref="456873722"/>
    <nd ref="456873724"/>
    <tag k="highway" v="residential"/>
    <tag k="junction" v="roundabout"/>
    <tag k="maxspeed" v="50"/>
    <tag k="source:maxspeed" v="default residential speed limit in Australia"/>
  </way>
  <way id="38573171" version="5" timestamp="2010-10-24T05:45:28Z" uid="4467" user="Rosscoe" changeset="6153373">
    <nd ref="456873724"/>
    <nd ref="456873725"/>
    <nd ref="456873726"/>
    <nd ref="962928634"/>
    <nd ref="140971691"/>
    <nd ref="456873727"/>
    <nd ref="456873728"/>
    <nd ref="962928624"/>
    <nd ref="456873729"/>
    <nd ref="456873722"/>
    <nd ref="962928665"/>
    <nd ref="456873724"/>
    <tag k="highway" v="residential"/>
    <tag k="junction" v="roundabout"/>
    <tag k="maxspeed" v="50"/>
    <tag k="source:maxspeed" v="default residential speed limit in Australia"/>
  </way>
  <way id="38573171" version="6" timestamp="2012-01-19T02:42:58Z" uid="147510" user="woodpeck_fixbot" changeset="10433378">
    <nd ref="456873724"/>
    <nd ref="456873725"/>
    <nd ref="456873726"/>
    <nd ref="962928634"/>
    <nd ref="140971691"/>
    <nd ref="456873727"/>
    <nd ref="456873728"/>
    <nd ref="962928624"/>
    <nd ref="456873729"/>
    <nd ref="456873722"/>
    <nd ref="962928665"/>
    <nd ref="456873724"/>
    <tag k="highway" v="residential"/>
    <tag k="junction" v="roundabout"/>
    <tag k="source:maxspeed" v="default residential speed limit in Australia"/>
  </way>
  <way id="38573172" version="3" timestamp="2010-07-09T02:57:40Z" uid="74617" user="JohnSmith" changeset="5170739">
    <nd ref="439233984"/>
    <nd ref="456876511"/>
    <nd ref="456873722"/>
    <nd ref="456873738"/>
    <nd ref="456873731"/>
    <nd ref="456873732"/>
    <nd ref="456873733"/>
    <nd ref="456873734"/>
    <tag k="highway" v="residential"/>
    <tag k="maxspeed" v="50"/>
    <tag k="maxspeed:source" v="default residential speed limit in Australia"/>
    <tag k="name" v="Park Drive"/>
    <tag k="oneway" v="yes"/>
  </way>
  <way id="38573172" version="4" timestamp="2010-10-23T22:25:04Z" uid="4467" user="Rosscoe" changeset="6152276">
    <nd ref="439233984"/>
    <nd ref="456876511"/>
    <nd ref="456873722"/>
    <nd ref="456873738"/>
    <nd ref="456873731"/>
    <nd ref="456873732"/>
    <nd ref="456873733"/>
    <nd ref="456873734"/>
    <tag k="highway" v="residential"/>
    <tag k="maxspeed" v="50"/>
    <tag k="name" v="Park Drive"/>
    <tag k="oneway" v="yes"/>
    <tag k="source:maxspeed" v="default residential speed limit in Australia"/>
  </way>
  <way id="38573172" version="5" timestamp="2010-10-24T05:45:34Z" uid="4467" user="Rosscoe" changeset="6153373">
    <nd ref="439233984"/>
    <nd ref="456876511"/>
    <nd ref="962928624"/>
    <tag k="highway" v="residential"/>
    <tag k="maxspeed" v="50"/>
    <tag k="name" v="Park Drive"/>
    <tag k="oneway" v="yes"/>
    <tag k="source:maxspeed" v="default residential speed limit in Australia"/>
  </way>
  <way id="38573172" version="6" timestamp="2012-01-19T02:42:59Z" uid="147510" user="woodpeck_fixbot" changeset="10433378">
    <nd ref="439233984"/>
    <nd ref="456876511"/>
    <nd ref="962928624"/>
    <tag k="highway" v="residential"/>
    <tag k="name" v="Park Drive"/>
    <tag k="oneway" v="yes"/>
    <tag k="source:maxspeed" v="default residential speed limit in Australia"/>
  </way>
  <way id="38573393" version="2" timestamp="2010-07-09T03:01:03Z" uid="74617" user="JohnSmith" changeset="5170739">
    <nd ref="140966348"/>
    <nd ref="248372245"/>
    <nd ref="140966370"/>
    <nd ref="439233998"/>
    <tag k="highway" v="residential"/>
    <tag k="maxspeed" v="50"/>
    <tag k="maxspeed:source" v="default residential speed limit in Australia"/>
    <tag k="name" v="Wimble Street"/>
  </way>
  <way id="38573393" version="3" timestamp="2010-10-23T22:24:57Z" uid="4467" user="Rosscoe" changeset="6152276">
    <nd ref="140966348"/>
    <nd ref="248372245"/>
    <nd ref="140966370"/>
    <nd ref="439233998"/>
    <tag k="highway" v="residential"/>
    <tag k="maxspeed" v="50"/>
    <tag k="name" v="Wimble Street"/>
    <tag k="source:maxspeed" v="default residential speed limit in Australia"/>
  </way>
  <way id="38573393" version="4" timestamp="2012-01-19T02:43:01Z" uid="147510" user="woodpeck_fixbot" changeset="10433378">
    <nd ref="140966348"/>
    <nd ref="248372245"/>
    <nd ref="140966370"/>
    <nd ref="439233998"/>
    <tag k="highway" v="residential"/>
    <tag k="name" v="Wimble Street"/>
    <tag k="source:maxspeed" v="default residential speed limit in Australia"/>
  </way>
  <way id="38573394" version="2" timestamp="2010-07-09T03:02:52Z" uid="74617" user="JohnSmith" changeset="5170739">
    <nd ref="456873737"/>
    <nd ref="456876508"/>
    <tag k="highway" v="residential"/>
    <tag k="maxspeed" v="50"/>
    <tag k="maxspeed:source" v="default residential speed limit in Australia"/>
    <tag k="name" v="Park Drive"/>
    <tag k="oneway" v="yes"/>
  </way>
  <way id="38573394" version="3" timestamp="2012-01-19T02:43:02Z" uid="147510" user="woodpeck_fixbot" changeset="10433378">
    <nd ref="456873737"/>
    <nd ref="456876508"/>
    <tag k="highway" v="residential"/>
    <tag k="name" v="Park Drive"/>
    <tag k="oneway" v="yes"/>
  </way>
  <way id="38573395" version="2" timestamp="2010-07-09T02:55:11Z" uid="74617" user="JohnSmith" changeset="5170739">
    <nd ref="439233989"/>
    <nd ref="439234006"/>
    <nd ref="439234012"/>
    <nd ref="439234007"/>
    <nd ref="439234015"/>
    <nd ref="439234008"/>
    <tag k="highway" v="residential"/>
    <tag k="maxspeed" v="50"/>
    <tag k="maxspeed:source" v="default residential speed limit in Australia"/>
    <tag k="name" v="Morrah Street"/>
    <tag k="oneway" v="yes"/>
  </way>
  <way id="38573395" version="3" timestamp="2010-10-23T22:25:16Z" uid="4467" user="Rosscoe" changeset="6152276">
    <nd ref="439233989"/>
    <nd ref="439234006"/>
    <nd ref="439234012"/>
    <nd ref="439234007"/>
    <nd ref="439234015"/>
    <nd ref="439234008"/>
    <tag k="highway" v="residential"/>
    <tag k="maxspeed" v="50"/>
    <tag k="name" v="Morrah Street"/>
    <tag k="oneway" v="yes"/>
    <tag k="source:maxspeed" v="default residential speed limit in Australia"/>
  </way>
  <way id="38573395" version="4" timestamp="2010-10-24T05:45:40Z" uid="4467" user="Rosscoe" changeset="6153373">
    <nd ref="962928648"/>
    <nd ref="439234006"/>
    <nd ref="439234012"/>
    <nd ref="439234015"/>
    <nd ref="439234008"/>
    <tag k="highway" v="residential"/>
    <tag k="maxspeed" v="50"/>
    <tag k="name" v="Morrah Street"/>
    <tag k="oneway" v="yes"/>
    <tag k="source:maxspeed" v="default residential speed limit in Australia"/>
  </way>
  <way id="38573395" version="5" timestamp="2012-01-19T02:43:03Z" uid="147510" user="woodpeck_fixbot" changeset="10433378">
    <nd ref="962928648"/>
    <nd ref="439234006"/>
    <nd ref="439234012"/>
    <nd ref="439234015"/>
    <nd ref="439234008"/>
    <tag k="highway" v="residential"/>
    <tag k="name" v="Morrah Street"/>
    <tag k="oneway" v="yes"/>
    <tag k="source:maxspeed" v="default residential speed limit in Australia"/>
  </way>
  <way id="38573396" version="2" timestamp="2010-07-09T02:57:24Z" uid="74617" user="JohnSmith" changeset="5170739">
    <nd ref="456876511"/>
    <nd ref="245867390"/>
    <tag k="highway" v="residential"/>
    <tag k="maxspeed" v="50"/>
    <tag k="maxspeed:source" v="default residential speed limit in Australia"/>
  </way>
  <way id="38573396" version="3" timestamp="2010-10-23T22:25:23Z" uid="4467" user="Rosscoe" changeset="6152276">
    <nd ref="456876511"/>
    <nd ref="245867390"/>
    <tag k="highway" v="residential"/>
    <tag k="maxspeed" v="50"/>
    <tag k="source:maxspeed" v="default residential speed limit in Australia"/>
  </way>
  <way id="38573396" version="4" timestamp="2012-01-19T02:43:05Z" uid="147510" user="woodpeck_fixbot" changeset="10433378">
    <nd ref="456876511"/>
    <nd ref="245867390"/>
    <tag k="highway" v="residential"/>
    <tag k="source:maxspeed" v="default residential speed limit in Australia"/>
  </way>
  <way id="38573397" version="2" timestamp="2010-07-09T02:59:29Z" uid="74617" user="JohnSmith" changeset="5170739">
    <nd ref="456876513"/>
    <nd ref="456876516"/>
    <nd ref="456876514"/>
    <nd ref="456876512"/>
    <tag k="highway" v="residential"/>
    <tag k="maxspeed" v="50"/>
    <tag k="maxspeed:source" v="default residential speed limit in Australia"/>
    <tag k="name" v="Park Drive"/>
    <tag k="oneway" v="yes"/>
  </way>
  <way id="38573397" version="3" timestamp="2012-01-19T02:43:05Z" uid="147510" user="woodpeck_fixbot" changeset="10433378">
    <nd ref="456876513"/>
    <nd ref="456876516"/>
    <nd ref="456876514"/>
    <nd ref="456876512"/>
    <tag k="highway" v="residential"/>
    <tag k="name" v="Park Drive"/>
    <tag k="oneway" v="yes"/>
  </way>
  <way id="38573722" version="1" timestamp="2009-08-05T12:15:06Z" uid="4467" user="Rosscoe" changeset="2045667">
    <nd ref="276583259"/>
    <nd ref="456882607"/>
    <nd ref="456882610"/>
    <nd ref="456882612"/>
    <nd ref="276583233"/>
    <tag k="highway" v="secondary"/>
    <tag k="name" v="University Drive"/>
    <tag k="oneway" v="yes"/>
    <tag k="source" v="survey"/>
  </way>
  <way id="38573722" version="2" timestamp="2010-10-06T10:59:20Z" uid="79475" user="AlexOnTheBus" changeset="5967977">
    <nd ref="276583259"/>
    <nd ref="456882607"/>
    <nd ref="456882610"/>
    <nd ref="456882612"/>
    <nd ref="276583233"/>
    <tag k="highway" v="primary"/>
    <tag k="name" v="University Drive"/>
    <tag k="oneway" v="yes"/>
    <tag k="source" v="survey"/>
  </way>
  <way id="38573742" version="2" timestamp="2009-08-05T14:46:14Z" uid="58091" user="Andreas M" changeset="2046837">
    <nd ref="456882971"/>
    <nd ref="456882949"/>
    <nd ref="456882950"/>
    <nd ref="456882961"/>
    <nd ref="456882957"/>
    <nd ref="456882953"/>
    <nd ref="456882951"/>
    <nd ref="456963727"/>
    <nd ref="456963757"/>
    <nd ref="456963729"/>
    <nd ref="456963730"/>
    <nd ref="456963732"/>
    <nd ref="456963772"/>
    <nd ref="456963768"/>
    <nd ref="456963795"/>
    <nd ref="456963784"/>
    <nd ref="456963728"/>
    <tag k="highway" v="road"/>
    <tag k="source" v="yahoo imagery"/>
  </way>
  <way id="38573742" version="3" timestamp="2009-08-08T06:27:10Z" uid="13203" user="bahnpirat" changeset="2072110">
    <nd ref="456882971"/>
    <nd ref="456882949"/>
    <nd ref="456882950"/>
    <nd ref="456882961"/>
    <nd ref="456882957"/>
    <nd ref="456882953"/>
    <nd ref="456882951"/>
    <nd ref="456963727"/>
    <nd ref="456963757"/>
    <nd ref="456963729"/>
    <nd ref="456963730"/>
    <nd ref="456963732"/>
    <nd ref="456963772"/>
    <nd ref="456963768"/>
    <nd ref="456963795"/>
    <nd ref="456963784"/>
    <nd ref="456963728"/>
    <tag k="highway" v="residential"/>
    <tag k="source" v="yahoo"/>
  </way>
  <way id="38573857" version="2" timestamp="2010-06-02T14:03:35Z" uid="4467" user="Rosscoe" changeset="4884448">
    <nd ref="456884394"/>
    <nd ref="762255205"/>
    <nd ref="762255218"/>
    <nd ref="271360913"/>
    <tag k="highway" v="primary"/>
    <tag k="name" v="Hepburn Avenue"/>
    <tag k="oneway" v="yes"/>
    <tag k="ref" v="S82"/>
    <tag k="source" v="nearmap"/>
  </way>
  <way id="38573857" version="3" timestamp="2010-11-11T05:26:55Z" uid="294850" user="Q4004" changeset="6341224">
    <nd ref="279276099"/>
    <nd ref="279276100"/>
    <nd ref="984961924"/>
    <nd ref="984961925"/>
    <nd ref="984961926"/>
    <nd ref="984961927"/>
    <nd ref="984961928"/>
    <nd ref="984961929"/>
    <nd ref="984961930"/>
    <nd ref="762255205"/>
    <nd ref="762255218"/>
    <nd ref="271360913"/>
    <tag k="highway" v="primary"/>
    <tag k="name" v="Hepburn Avenue"/>
    <tag k="oneway" v="yes"/>
    <tag k="ref" v="S82"/>
    <tag k="source" v="nearmap"/>
  </way>
  <way id="38573857" version="4" timestamp="2011-04-17T13:10:56Z" uid="134344" user="Andrew Gregory" changeset="7886521">
    <nd ref="715471430"/>
    <nd ref="279276098"/>
    <nd ref="279276099"/>
    <nd ref="279276100"/>
    <nd ref="984961924"/>
    <nd ref="984961925"/>
    <nd ref="1248374640"/>
    <nd ref="984961926"/>
    <nd ref="1248374621"/>
    <nd ref="984961927"/>
    <nd ref="984961928"/>
    <nd ref="984961929"/>
    <nd ref="984961930"/>
    <nd ref="762255205"/>
    <nd ref="762255218"/>
    <nd ref="271360913"/>
    <tag k="highway" v="primary"/>
    <tag k="lanes" v="1"/>
    <tag k="name" v="Hepburn Avenue"/>
    <tag k="oneway" v="yes"/>
    <tag k="ref" v="S82"/>
    <tag k="source" v="survey"/>
  </way>
  <way id="38573859" version="2" timestamp="2010-06-02T14:03:20Z" uid="4467" user="Rosscoe" changeset="4884448">
    <nd ref="271360755"/>
    <nd ref="456884398"/>
    <nd ref="762255260"/>
    <nd ref="762255158"/>
    <nd ref="456884396"/>
    <tag k="highway" v="primary"/>
    <tag k="name" v="Hepburn Avenue"/>
    <tag k="oneway" v="yes"/>
    <tag k="ref" v="S82"/>
    <tag k="source" v="nearmap"/>
  </way>
  <way id="38573859" version="3" timestamp="2010-11-11T05:26:53Z" uid="294850" user="Q4004" changeset="6341224">
    <nd ref="271360755"/>
    <nd ref="456884398"/>
    <nd ref="762255260"/>
    <nd ref="984961917"/>
    <nd ref="984961918"/>
    <nd ref="984961919"/>
    <nd ref="984961920"/>
    <nd ref="984961921"/>
    <nd ref="984961902"/>
    <tag k="highway" v="primary"/>
    <tag k="name" v="Hepburn Avenue"/>
    <tag k="oneway" v="yes"/>
    <tag k="ref" v="S82"/>
    <tag k="source" v="nearmap"/>
  </way>
  <way id="38573859" version="4" timestamp="2011-04-17T13:11:01Z" uid="134344" user="Andrew Gregory" changeset="7886521">
    <nd ref="271360755"/>
    <nd ref="456884398"/>
    <nd ref="762255260"/>
    <nd ref="984961917"/>
    <nd ref="984961918"/>
    <nd ref="984961919"/>
    <nd ref="984961920"/>
    <nd ref="984961921"/>
    <nd ref="984961902"/>
    <tag k="highway" v="primary"/>
    <tag k="name" v="Hepburn Avenue"/>
    <tag k="oneway" v="yes"/>
    <tag k="ref" v="S82"/>
    <tag k="source" v="survey"/>
  </way>
  <way id="38573860" version="2" timestamp="2010-06-02T14:03:24Z" uid="4467" user="Rosscoe" changeset="4884448">
    <nd ref="456884396"/>
    <nd ref="762255226"/>
    <nd ref="762255177"/>
    <nd ref="456884402"/>
    <nd ref="762255196"/>
    <tag k="highway" v="primary"/>
    <tag k="name" v="Hepburn Avenue"/>
    <tag k="oneway" v="yes"/>
    <tag k="ref" v="S82"/>
    <tag k="source" v="nearmap"/>
  </way>
  <way id="38573860" version="3" timestamp="2010-11-11T05:26:56Z" uid="294850" user="Q4004" changeset="6341224">
    <nd ref="984961910"/>
    <nd ref="456884396"/>
    <nd ref="762255226"/>
    <nd ref="762255177"/>
    <nd ref="456884402"/>
    <nd ref="762255196"/>
    <tag k="highway" v="primary"/>
    <tag k="name" v="Hepburn Avenue"/>
    <tag k="oneway" v="yes"/>
    <tag k="ref" v="S82"/>
    <tag k="source" v="nearmap"/>
  </way>
  <way id="38573860" version="4" timestamp="2011-04-17T13:11:00Z" uid="134344" user="Andrew Gregory" changeset="7886521">
    <nd ref="984961910"/>
    <nd ref="456884396"/>
    <nd ref="762255226"/>
    <nd ref="762255177"/>
    <nd ref="456884402"/>
    <nd ref="762255196"/>
    <tag k="highway" v="primary"/>
    <tag k="name" v="Hepburn Avenue"/>
    <tag k="oneway" v="yes"/>
    <tag k="ref" v="S82"/>
    <tag k="source" v="survey"/>
  </way>
  <way id="38573861" version="2" timestamp="2010-06-02T14:03:31Z" uid="4467" user="Rosscoe" changeset="4884448">
    <nd ref="271360912"/>
    <nd ref="762255251"/>
    <nd ref="456884395"/>
    <nd ref="456884394"/>
    <tag k="highway" v="primary"/>
    <tag k="name" v="Hepburn Avenue"/>
    <tag k="oneway" v="yes"/>
    <tag k="ref" v="S82"/>
    <tag k="source" v="nearmap"/>
  </way>
  <way id="38573861" version="3" timestamp="2011-04-17T13:11:03Z" uid="134344" user="Andrew Gregory" changeset="7886521"/>
  <way id="38573862" version="2" timestamp="2010-06-02T14:03:41Z" uid="4467" user="Rosscoe" changeset="4884448">
    <nd ref="271360911"/>
    <nd ref="456884400"/>
    <nd ref="762255141"/>
    <nd ref="276863205"/>
    <tag k="highway" v="tertiary"/>
    <tag k="name" v="Skeit Road"/>
    <tag k="oneway" v="yes"/>
    <tag k="source" v="nearmap"/>
  </way>
  <way id="38573862" version="3" timestamp="2010-11-11T05:23:54Z" uid="294850" user="Q4004" changeset="6341224">
    <nd ref="271360911"/>
    <nd ref="456884400"/>
    <nd ref="762255141"/>
    <nd ref="276863205"/>
    <tag k="highway" v="secondary"/>
    <tag k="name" v="Hartman Drive"/>
    <tag k="oneway" v="yes"/>
    <tag k="source" v="nearmap"/>
  </way>
  <way id="38573862" version="4" timestamp="2011-04-17T13:10:55Z" uid="134344" user="Andrew Gregory" changeset="7886521">
    <nd ref="271360911"/>
    <nd ref="456884400"/>
    <nd ref="762255141"/>
    <nd ref="276863205"/>
    <tag k="highway" v="secondary"/>
    <tag k="name" v="Hartman Drive"/>
    <tag k="oneway" v="yes"/>
    <tag k="source" v="survey"/>
  </way>
  <way id="38573863" version="2" timestamp="2010-06-02T14:03:17Z" uid="4467" user="Rosscoe" changeset="4884448">
    <nd ref="276863205"/>
    <nd ref="456884399"/>
    <nd ref="762255122"/>
    <tag k="highway" v="tertiary"/>
    <tag k="name" v="Skeit Road"/>
    <tag k="oneway" v="yes"/>
    <tag k="source" v="nearmap"/>
  </way>
  <way id="38573863" version="3" timestamp="2010-11-11T05:23:53Z" uid="294850" user="Q4004" changeset="6341224">
    <nd ref="276863205"/>
    <nd ref="456884399"/>
    <nd ref="762255122"/>
    <tag k="highway" v="secondary"/>
    <tag k="name" v="Hartman Drive"/>
    <tag k="oneway" v="yes"/>
    <tag k="source" v="nearmap"/>
  </way>
  <way id="38573863" version="4" timestamp="2011-04-17T13:11:02Z" uid="134344" user="Andrew Gregory" changeset="7886521">
    <nd ref="276863205"/>
    <nd ref="456884399"/>
    <nd ref="762255122"/>
    <tag k="highway" v="secondary"/>
    <tag k="name" v="Hartman Drive"/>
    <tag k="oneway" v="yes"/>
    <tag k="source" v="survey"/>
  </way>
  <way id="38573864" version="2" timestamp="2010-07-09T17:59:23Z" uid="74617" user="JohnSmith" changeset="5175636">
    <nd ref="273125364"/>
    <nd ref="273125365"/>
    <tag k="highway" v="residential"/>
    <tag k="maxspeed" v="50"/>
    <tag k="maxspeed:source" v="default residential speed limit in Australia"/>
    <tag k="name" v="Favell Way"/>
  </way>
  <way id="38573864" version="3" timestamp="2012-01-19T02:43:07Z" uid="147510" user="woodpeck_fixbot" changeset="10433378">
    <nd ref="273125364"/>
    <nd ref="273125365"/>
    <tag k="highway" v="residential"/>
    <tag k="name" v="Favell Way"/>
  </way>
  <way id="38573865" version="3" timestamp="2010-06-21T08:29:35Z" uid="4467" user="Rosscoe" changeset="5040409"/>
  <way id="38573866" version="2" timestamp="2010-07-09T18:32:28Z" uid="74617" user="JohnSmith" changeset="5175636">
    <nd ref="360195769"/>
    <nd ref="360195864"/>
    <nd ref="360195778"/>
    <nd ref="360195781"/>
    <nd ref="360195784"/>
    <nd ref="360195788"/>
    <nd ref="360195791"/>
    <nd ref="360195769"/>
    <tag k="highway" v="residential"/>
    <tag k="maxspeed" v="50"/>
    <tag k="maxspeed:source" v="default residential speed limit in Australia"/>
    <tag k="name" v="Pycombe Way"/>
  </way>
  <way id="38573866" version="3" timestamp="2012-01-19T02:43:08Z" uid="147510" user="woodpeck_fixbot" changeset="10433378">
    <nd ref="360195769"/>
    <nd ref="360195864"/>
    <nd ref="360195778"/>
    <nd ref="360195781"/>
    <nd ref="360195784"/>
    <nd ref="360195788"/>
    <nd ref="360195791"/>
    <nd ref="360195769"/>
    <tag k="highway" v="residential"/>
    <tag k="name" v="Pycombe Way"/>
  </way>
  <way id="38573867" version="2" timestamp="2010-07-09T18:18:58Z" uid="74617" user="JohnSmith" changeset="5175636">
    <nd ref="360195769"/>
    <nd ref="360195794"/>
    <nd ref="360195797"/>
    <nd ref="360195733"/>
    <tag k="highway" v="residential"/>
    <tag k="maxspeed" v="50"/>
    <tag k="maxspeed:source" v="default residential speed limit in Australia"/>
    <tag k="name" v="Pycombe Way"/>
  </way>
  <way id="38573867" version="3" timestamp="2012-01-19T02:43:09Z" uid="147510" user="woodpeck_fixbot" changeset="10433378">
    <nd ref="360195769"/>
    <nd ref="360195794"/>
    <nd ref="360195797"/>
    <nd ref="360195733"/>
    <tag k="highway" v="residential"/>
    <tag k="name" v="Pycombe Way"/>
  </way>
  <way id="38573868" version="2" timestamp="2010-05-10T08:11:44Z" uid="4467" user="Rosscoe" changeset="4656847"/>
  <way id="38573869" version="2" timestamp="2010-07-09T17:56:44Z" uid="74617" user="JohnSmith" changeset="5175636">
    <nd ref="279406099"/>
    <nd ref="279406084"/>
    <nd ref="279406103"/>
    <nd ref="279406101"/>
    <nd ref="279406087"/>
    <nd ref="279406088"/>
    <nd ref="279406089"/>
    <nd ref="279406090"/>
    <nd ref="279406099"/>
    <tag k="highway" v="residential"/>
    <tag k="maxspeed" v="50"/>
    <tag k="maxspeed:source" v="default residential speed limit in Australia"/>
    <tag k="name" v="Morgan Way"/>
  </way>
  <way id="38573869" version="3" timestamp="2012-01-19T02:43:10Z" uid="147510" user="woodpeck_fixbot" changeset="10433378">
    <nd ref="279406099"/>
    <nd ref="279406084"/>
    <nd ref="279406103"/>
    <nd ref="279406101"/>
    <nd ref="279406087"/>
    <nd ref="279406088"/>
    <nd ref="279406089"/>
    <nd ref="279406090"/>
    <nd ref="279406099"/>
    <tag k="highway" v="residential"/>
    <tag k="name" v="Morgan Way"/>
  </way>
  <way id="38573870" version="2" timestamp="2010-07-09T18:03:50Z" uid="74617" user="JohnSmith" changeset="5175636">
    <nd ref="279406099"/>
    <nd ref="279406091"/>
    <tag k="highway" v="residential"/>
    <tag k="maxspeed" v="50"/>
    <tag k="maxspeed:source" v="default residential speed limit in Australia"/>
    <tag k="name" v="Morgan Way"/>
  </way>
  <way id="38573870" version="3" timestamp="2012-01-19T02:43:11Z" uid="147510" user="woodpeck_fixbot" changeset="10433378">
    <nd ref="279406099"/>
    <nd ref="279406091"/>
    <tag k="highway" v="residential"/>
    <tag k="name" v="Morgan Way"/>
  </way>
  <way id="38573871" version="2" timestamp="2010-07-09T18:26:27Z" uid="74617" user="JohnSmith" changeset="5175636">
    <nd ref="443231505"/>
    <nd ref="443231507"/>
    <nd ref="443231510"/>
    <nd ref="443231512"/>
    <nd ref="443231519"/>
    <nd ref="443231522"/>
    <nd ref="443231524"/>
    <tag k="highway" v="residential"/>
    <tag k="maxspeed" v="50"/>
    <tag k="maxspeed:source" v="default residential speed limit in Australia"/>
  </way>
  <way id="38573871" version="3" timestamp="2011-04-16T03:39:08Z" uid="4467" user="Rosscoe" changeset="7875153">
    <nd ref="443231505"/>
    <nd ref="443231507"/>
    <nd ref="443231510"/>
    <nd ref="443231512"/>
    <nd ref="443231519"/>
    <nd ref="443231522"/>
    <nd ref="443231524"/>
    <tag k="highway" v="residential"/>
    <tag k="maxspeed" v="50"/>
    <tag k="source:maxspeed" v="default residential speed limit in Australia"/>
  </way>
  <way id="38573871" version="4" timestamp="2012-01-02T09:05:25Z" uid="134344" user="Andrew Gregory" changeset="10268599">
    <nd ref="443231505"/>
    <nd ref="443231507"/>
    <nd ref="443231510"/>
    <nd ref="443231512"/>
    <nd ref="443231519"/>
    <nd ref="443231522"/>
    <nd ref="443231524"/>
    <tag k="highway" v="residential"/>
    <tag k="maxspeed" v="50"/>
    <tag k="name" v="Housley Street"/>
    <tag k="source" v="survey"/>
    <tag k="source:maxspeed" v="default residential speed limit in Australia"/>
  </way>
  <way id="38573871" version="5" timestamp="2012-01-19T02:43:12Z" uid="147510" user="woodpeck_fixbot" changeset="10433378">
    <nd ref="443231505"/>
    <nd ref="443231507"/>
    <nd ref="443231510"/>
    <nd ref="443231512"/>
    <nd ref="443231519"/>
    <nd ref="443231522"/>
    <nd ref="443231524"/>
    <tag k="highway" v="residential"/>
    <tag k="name" v="Housley Street"/>
    <tag k="source" v="survey"/>
    <tag k="source:maxspeed" v="default residential speed limit in Australia"/>
  </way>
  <way id="38573171" version="7" timestamp="2012-07-19T11:42:58Z" uid="722137" user="OSMF Redaction Account" changeset="12322246">
    <nd ref="456873724"/>
    <nd ref="456873725"/>
    <nd ref="456873726"/>
    <nd ref="140971691"/>
    <nd ref="456873727"/>
    <nd ref="456873728"/>
    <nd ref="456873729"/>
    <nd ref="456873722"/>
    <nd ref="456873724"/>
    <tag k="highway" v="residential"/>
    <tag k="junction" v="roundabout"/>
  </way>
  <way id="38573171" version="8" timestamp="2012-08-28T09:07:26Z" uid="84937" user="Neil Penman" changeset="12889515">
    <nd ref="456873724"/>
    <nd ref="456873725"/>
    <nd ref="1886476527"/>
    <nd ref="456873726"/>
    <nd ref="140971691"/>
    <nd ref="1886476528"/>
    <nd ref="456873727"/>
    <nd ref="456873728"/>
    <nd ref="456873729"/>
    <nd ref="456873722"/>
    <nd ref="456873724"/>
    <tag k="highway" v="residential"/>
    <tag k="junction" v="roundabout"/>
  </way>
  <way id="38573172" version="7" timestamp="2012-07-19T11:42:58Z" uid="722137" user="OSMF Redaction Account" changeset="12322246">
    <nd ref="439233984"/>
    <nd ref="456876511"/>
    <tag k="highway" v="residential"/>
    <tag k="name" v="Park Drive"/>
    <tag k="oneway" v="yes"/>
  </way>
  <way id="38573172" version="8" timestamp="2012-08-28T09:07:25Z" uid="84937" user="Neil Penman" changeset="12889515">
    <nd ref="439233984"/>
    <nd ref="456876511"/>
    <nd ref="456873729"/>
    <tag k="highway" v="residential"/>
    <tag k="name" v="Park Drive"/>
    <tag k="oneway" v="yes"/>
  </way>
  <way id="38573393" version="5" timestamp="2012-07-19T11:50:26Z" uid="722137" user="OSMF Redaction Account" changeset="12322905">
    <nd ref="140966348"/>
    <nd ref="248372245"/>
    <nd ref="140966370"/>
    <nd ref="439233998"/>
    <tag k="highway" v="residential"/>
    <tag k="name" v="Wimble Street"/>
  </way>
  <way id="38573395" version="6" timestamp="2012-07-19T11:43:01Z" uid="722137" user="OSMF Redaction Account" changeset="12322246">
    <nd ref="439234006"/>
    <nd ref="439234012"/>
    <nd ref="439234015"/>
    <nd ref="439234008"/>
    <tag k="highway" v="residential"/>
    <tag k="name" v="Morrah Street"/>
    <tag k="oneway" v="yes"/>
  </way>
  <way id="38573395" version="7" timestamp="2012-08-28T09:07:25Z" uid="84937" user="Neil Penman" changeset="12889515">
    <nd ref="439233989"/>
    <nd ref="1886476539"/>
    <nd ref="439234006"/>
    <nd ref="439234012"/>
    <nd ref="439234015"/>
    <nd ref="439234008"/>
    <tag k="highway" v="residential"/>
    <tag k="name" v="Morrah Street"/>
    <tag k="oneway" v="yes"/>
  </way>
  <way id="38573396" version="5" timestamp="2012-07-19T11:50:31Z" uid="722137" user="OSMF Redaction Account" changeset="12322905">
    <nd ref="456876511"/>
    <nd ref="245867390"/>
    <tag k="highway" v="residential"/>
  </way>
  <way id="38573722" version="3" timestamp="2012-04-27T00:16:51Z" uid="162757" user="floz" changeset="11428692">
    <nd ref="276583259"/>
    <nd ref="456882607"/>
    <nd ref="1732502979"/>
    <nd ref="456882610"/>
    <nd ref="456882612"/>
    <nd ref="276583233"/>
    <tag k="highway" v="primary"/>
    <tag k="name" v="University Drive"/>
    <tag k="oneway" v="yes"/>
    <tag k="source" v="survey"/>
  </way>
  <way id="38573722" version="4" timestamp="2012-07-21T15:29:14Z" uid="722137" user="OSMF Redaction Account" changeset="12413472"/>
  <way id="38573742" version="4" timestamp="2012-05-16T16:08:44Z" uid="668154" user="mffajes" changeset="11615555">
    <nd ref="456963728"/>
    <nd ref="456963784"/>
    <nd ref="456963795"/>
    <nd ref="456963768"/>
    <nd ref="456963772"/>
    <nd ref="456963732"/>
    <nd ref="456963730"/>
    <nd ref="456963729"/>
    <nd ref="456963757"/>
    <nd ref="456963727"/>
    <nd ref="456882951"/>
    <nd ref="456882953"/>
    <nd ref="456882957"/>
    <nd ref="456882961"/>
    <nd ref="456882950"/>
    <nd ref="456882949"/>
    <nd ref="456882971"/>
    <nd ref="456844975"/>
    <nd ref="456844974"/>
    <nd ref="456831031"/>
    <nd ref="456831034"/>
    <nd ref="456831030"/>
    <nd ref="456831028"/>
    <nd ref="456831027"/>
    <nd ref="456831026"/>
    <nd ref="456831025"/>
    <nd ref="456831023"/>
    <nd ref="1754993273"/>
    <nd ref="456831021"/>
    <tag k="highway" v="residential"/>
    <tag k="name" v="Concepción"/>
    <tag k="source" v="yahoo"/>
  </way>
  <way id="38573742" version="5" timestamp="2012-07-18T11:44:36Z" uid="722137" user="OSMF Redaction Account" changeset="12280749">
    <nd ref="456882951"/>
    <nd ref="456882953"/>
    <nd ref="456882957"/>
    <nd ref="456882961"/>
    <nd ref="456882950"/>
    <nd ref="456882949"/>
    <nd ref="456882971"/>
    <nd ref="456844975"/>
    <nd ref="456844974"/>
    <nd ref="456831031"/>
    <nd ref="456831034"/>
    <nd ref="456831030"/>
    <nd ref="456831028"/>
    <nd ref="456831027"/>
    <nd ref="456831026"/>
    <nd ref="456831025"/>
    <nd ref="456831023"/>
    <nd ref="1754993273"/>
    <nd ref="456831021"/>
    <tag k="highway" v="residential"/>
    <tag k="name" v="Concepción"/>
    <tag k="source" v="yahoo"/>
  </way>
  <way id="38573857" version="5" timestamp="2012-07-19T12:00:06Z" uid="722137" user="OSMF Redaction Account" changeset="12323444">
    <nd ref="715471430"/>
    <nd ref="279276098"/>
    <nd ref="279276099"/>
    <nd ref="279276100"/>
    <nd ref="984961924"/>
    <nd ref="984961925"/>
    <nd ref="1248374640"/>
    <nd ref="984961926"/>
    <nd ref="1248374621"/>
    <nd ref="984961927"/>
    <nd ref="984961928"/>
    <nd ref="984961929"/>
    <nd ref="984961930"/>
    <nd ref="271360913"/>
    <tag k="highway" v="primary"/>
    <tag k="lanes" v="1"/>
    <tag k="name" v="Hepburn Avenue"/>
    <tag k="oneway" v="yes"/>
    <tag k="ref" v="S82"/>
    <tag k="source" v="survey"/>
  </way>
  <way id="38573857" version="6" timestamp="2012-08-23T21:34:39Z" uid="418724" user="wintersportler" changeset="12838495">
    <nd ref="1880048429"/>
    <nd ref="279276099"/>
    <nd ref="279276100"/>
    <nd ref="1880048422"/>
    <nd ref="1248374640"/>
    <nd ref="1248374621"/>
    <nd ref="984961930"/>
    <nd ref="1880048425"/>
    <nd ref="271360913"/>
    <tag k="highway" v="primary"/>
    <tag k="lanes" v="1"/>
    <tag k="name" v="Hepburn Avenue"/>
    <tag k="oneway" v="yes"/>
    <tag k="ref" v="S82"/>
    <tag k="source" v="survey"/>
  </way>
  <way id="38573859" version="5" timestamp="2012-07-19T12:00:06Z" uid="722137" user="OSMF Redaction Account" changeset="12323444">
    <nd ref="271360755"/>
    <nd ref="456884398"/>
    <nd ref="984961917"/>
    <nd ref="984961918"/>
    <nd ref="984961919"/>
    <nd ref="984961920"/>
    <nd ref="984961921"/>
    <nd ref="984961902"/>
    <tag k="highway" v="primary"/>
    <tag k="name" v="Hepburn Avenue"/>
    <tag k="oneway" v="yes"/>
    <tag k="ref" v="S82"/>
    <tag k="source" v="survey"/>
  </way>
  <way id="38573860" version="5" timestamp="2012-07-19T12:00:05Z" uid="722137" user="OSMF Redaction Account" changeset="12323444">
    <nd ref="984961910"/>
    <nd ref="456884396"/>
    <nd ref="456884402"/>
    <tag k="highway" v="primary"/>
    <tag k="name" v="Hepburn Avenue"/>
    <tag k="oneway" v="yes"/>
    <tag k="ref" v="S82"/>
    <tag k="source" v="survey"/>
  </way>
  <way id="38573860" version="6" timestamp="2012-08-23T21:34:39Z" uid="418724" user="wintersportler" changeset="12838495">
    <nd ref="984961910"/>
    <nd ref="456884396"/>
    <nd ref="456884402"/>
    <nd ref="1880048401"/>
    <tag k="highway" v="primary"/>
    <tag k="name" v="Hepburn Avenue"/>
    <tag k="oneway" v="yes"/>
    <tag k="ref" v="S82"/>
    <tag k="source" v="survey"/>
  </way>
  <way id="38573862" version="5" timestamp="2012-07-19T12:00:04Z" uid="722137" user="OSMF Redaction Account" changeset="12323444">
    <nd ref="271360911"/>
    <nd ref="456884400"/>
    <nd ref="276863205"/>
    <tag k="highway" v="secondary"/>
    <tag k="name" v="Hartman Drive"/>
    <tag k="oneway" v="yes"/>
    <tag k="source" v="survey"/>
  </way>
  <way id="38573862" version="6" timestamp="2012-08-23T21:34:37Z" uid="418724" user="wintersportler" changeset="12838495">
    <nd ref="271360911"/>
    <nd ref="456884400"/>
    <nd ref="1880048388"/>
    <nd ref="276863205"/>
    <tag k="highway" v="secondary"/>
    <tag k="name" v="Hartman Drive"/>
    <tag k="oneway" v="yes"/>
    <tag k="source" v="survey"/>
  </way>
  <way id="38573863" version="5" timestamp="2012-07-19T12:00:05Z" uid="722137" user="OSMF Redaction Account" changeset="12323444">
    <nd ref="276863205"/>
    <nd ref="456884399"/>
    <tag k="highway" v="secondary"/>
    <tag k="name" v="Hartman Drive"/>
    <tag k="oneway" v="yes"/>
    <tag k="source" v="survey"/>
  </way>
  <way id="38573863" version="6" timestamp="2012-08-23T21:34:37Z" uid="418724" user="wintersportler" changeset="12838495">
    <nd ref="276863205"/>
    <nd ref="1880048389"/>
    <nd ref="456884399"/>
    <nd ref="1880048395"/>
    <tag k="highway" v="secondary"/>
    <tag k="name" v="Hartman Drive"/>
    <tag k="oneway" v="yes"/>
    <tag k="source" v="survey"/>
  </way>
  <way id="38573871" version="6" timestamp="2012-07-19T12:00:44Z" uid="722137" user="OSMF Redaction Account" changeset="12323444">
    <nd ref="443231505"/>
    <nd ref="443231507"/>
    <nd ref="443231510"/>
    <nd ref="443231512"/>
    <nd ref="443231519"/>
    <nd ref="443231522"/>
    <nd ref="443231524"/>
    <tag k="highway" v="residential"/>
    <tag k="name" v="Housley Street"/>
    <tag k="source" v="survey"/>
  </way>
  <way id="38573871" version="7" timestamp="2012-07-20T20:34:32Z" uid="57380" user="JennyH" changeset="12389992">
    <nd ref="1832475779"/>
    <nd ref="443231505"/>
    <nd ref="443231507"/>
    <nd ref="443231510"/>
    <nd ref="443231512"/>
    <nd ref="443231519"/>
    <nd ref="1832475759"/>
    <nd ref="443231522"/>
    <nd ref="443231524"/>
    <tag k="highway" v="residential"/>
    <tag k="name" v="Housley Street"/>
    <tag k="source" v="survey"/>
  </way>
</osm>
