<?xml version='1.0' encoding='UTF-8'?>
<osm version="0.6" generator="libosmium/2.20.0">
  <way id="38828060" version="2" timestamp="2010-04-06T15:33:19Z" uid="20587" user="balrog-kun" changeset="4342727">
    <nd ref="80835961"/>
    <nd ref="80835996"/>
    <tag k="highway" v="secondary"/>
    <tag k="name" v="West Omaha"/>
  </way>
  <way id="38828060" version="3" timestamp="2012-01-05T21:45:45Z" uid="542403" user="SD Mapman" changeset="10305492">
    <nd ref="80835961"/>
    <nd ref="80835996"/>
    <tag k="highway" v="secondary"/>
    <tag k="name" v="West Omaha Street"/>
    <tag k="ref" v="SD 44"/>
  </way>
  <way id="38828060" version="4" timestamp="2012-05-24T15:39:41Z" uid="542403" user="SD Mapman" changeset="11690819">
    <nd ref="80835961"/>
    <nd ref="1764310463"/>
    <nd ref="80835996"/>
    <tag k="highway" v="secondary"/>
    <tag k="name" v="West Omaha Street"/>
    <tag k="ref" v="SD 44"/>
  </way>
  <way id="38828060" version="5" timestamp="2012-06-09T17:55:12Z" uid="455576" user="ngt" changeset="11847391"/>
</osm>
