<?xml version='1.0' encoding='UTF-8'?>
<osm version="0.6" generator="libosmium/2.20.0">
  <way id="38833317" version="4" timestamp="2009-09-23T18:52:53Z" uid="9581" user="Lobelt" changeset="2598934">
    <nd ref="460977600"/>
    <nd ref="96493689"/>
    <nd ref="96493690"/>
    <nd ref="96493691"/>
    <nd ref="506323861"/>
    <nd ref="96493692"/>
    <nd ref="96493693"/>
    <tag k="highway" v="primary"/>
    <tag k="ref" v="B 85"/>
  </way>
  <way id="38833317" version="5" timestamp="2010-07-23T20:50:57Z" uid="192395" user="BBO" changeset="5298817">
    <nd ref="460977600"/>
    <nd ref="96493689"/>
    <nd ref="96493690"/>
    <nd ref="830596081"/>
    <tag k="highway" v="primary"/>
    <tag k="maxspeed" v="30"/>
    <tag k="ref" v="B 85"/>
  </way>
  <way id="38833317" version="6" timestamp="2011-05-07T21:41:33Z" uid="171996" user="pavel43" changeset="8077454">
    <nd ref="460977600"/>
    <nd ref="96493689"/>
    <nd ref="96493690"/>
    <nd ref="830596081"/>
    <tag k="highway" v="primary"/>
    <tag k="maxspeed" v="30"/>
    <tag k="name" v="Marktstraße"/>
    <tag k="ref" v="B 85"/>
  </way>
  <way id="38833317" version="7" timestamp="2012-03-03T20:34:14Z" uid="192395" user="BBO" changeset="10861939"/>
  <way id="38833358" version="3" timestamp="2010-02-22T21:03:22Z" uid="1066" user="pavel" changeset="3947467">
    <nd ref="460994728"/>
    <nd ref="209120641"/>
    <tag k="highway" v="track"/>
    <tag k="kct_yellow" v="major"/>
    <tag k="piste:grooming" v="classic;skating"/>
    <tag k="piste:type" v="nordic"/>
    <tag k="tracktype" v="grade2"/>
  </way>
  <way id="38833358" version="4" timestamp="2010-06-02T14:00:52Z" uid="17615" user="Petr Dlouhý" changeset="4884417">
    <nd ref="460994728"/>
    <nd ref="209120641"/>
    <tag k="highway" v="track"/>
    <tag k="kct_yellow" v="major"/>
    <tag k="osmc:symbol" v="yellow:white:yellow_bar"/>
    <tag k="piste:grooming" v="classic;skating"/>
    <tag k="piste:type" v="nordic"/>
    <tag k="tracktype" v="grade2"/>
  </way>
  <way id="38833358" version="5" timestamp="2010-06-02T14:08:35Z" uid="17615" user="Petr Dlouhý" changeset="4884503">
    <nd ref="460994728"/>
    <nd ref="209120641"/>
    <tag k="highway" v="track"/>
    <tag k="kct_yellow" v="major"/>
    <tag k="piste:grooming" v="classic;skating"/>
    <tag k="piste:type" v="nordic"/>
    <tag k="tracktype" v="grade2"/>
  </way>
  <way id="38833538" version="4" timestamp="2011-01-14T16:44:44Z" uid="115477" user="wowik" changeset="6968851">
    <nd ref="461008976"/>
    <nd ref="1103424335"/>
    <nd ref="461008147"/>
    <nd ref="461009664"/>
    <nd ref="461008396"/>
    <nd ref="461008439"/>
    <nd ref="461008976"/>
    <tag k="building" v="yes"/>
  </way>
  <way id="38833538" version="5" timestamp="2012-03-27T08:14:20Z" uid="481934" user="iWowik" changeset="11113698">
    <nd ref="461008976"/>
    <nd ref="1103424335"/>
    <nd ref="461008147"/>
    <nd ref="461009664"/>
    <nd ref="461008396"/>
    <nd ref="461008439"/>
    <nd ref="461008976"/>
    <tag k="addr:city" v="Зеленоград"/>
    <tag k="addr:country" v="RU"/>
    <tag k="building" v="yes"/>
  </way>
  <way id="38833538" version="6" timestamp="2012-03-27T11:55:07Z" uid="481934" user="iWowik" changeset="11115472">
    <nd ref="461008976"/>
    <nd ref="1103424335"/>
    <nd ref="461008147"/>
    <nd ref="461009664"/>
    <nd ref="461008396"/>
    <nd ref="461008439"/>
    <nd ref="461008976"/>
    <tag k="addr:city" v="Зеленоград"/>
    <tag k="addr:country" v="RU"/>
    <tag k="addr:region" v="Москва"/>
    <tag k="building" v="yes"/>
  </way>
  <way id="38833539" version="3" timestamp="2010-07-09T11:00:18Z" uid="115477" user="wowik" changeset="5172721">
    <nd ref="461009507"/>
    <nd ref="461008505"/>
    <nd ref="461009922"/>
    <nd ref="461008639"/>
    <nd ref="461009507"/>
    <tag k="_building" v="no"/>
    <tag k="addr:city" v="Зеленоград"/>
    <tag k="addr:housenumber" v="851"/>
    <tag k="addr:street" v="8-й Микрорайон"/>
    <tag k="comment" v="Снесли"/>
    <tag k="is_in" v="Russia"/>
  </way>
  <way id="38833539" version="4" timestamp="2010-11-11T06:34:14Z" uid="115477" user="wowik" changeset="6341387"/>
  <way id="38833542" version="3" timestamp="2010-09-10T15:00:35Z" uid="115477" user="wowik" changeset="5741766">
    <nd ref="461008864"/>
    <nd ref="461009148"/>
    <nd ref="461009146"/>
    <nd ref="461008945"/>
    <nd ref="461008864"/>
    <tag k="addr:city" v="Зеленоград"/>
    <tag k="addr:housenumber" v="825"/>
    <tag k="addr:street" v="8-й Микрорайон"/>
    <tag k="comment" v="Запланирован к сносу"/>
    <tag k="is_in" v="Russia"/>
  </way>
  <way id="38833542" version="4" timestamp="2010-11-11T06:34:14Z" uid="115477" user="wowik" changeset="6341387"/>
  <way id="38833543" version="4" timestamp="2011-01-14T16:42:40Z" uid="115477" user="wowik" changeset="6968851">
    <nd ref="461008408"/>
    <nd ref="461008702"/>
    <nd ref="461008964"/>
    <nd ref="461009608"/>
    <nd ref="461009903"/>
    <nd ref="461008592"/>
    <nd ref="1103423663"/>
    <nd ref="1103422912"/>
    <nd ref="1103423637"/>
    <nd ref="1103423113"/>
    <nd ref="461008955"/>
    <nd ref="461009898"/>
    <nd ref="461008657"/>
    <nd ref="461009642"/>
    <nd ref="461009509"/>
    <nd ref="461008408"/>
    <tag k="building" v="yes"/>
  </way>
  <way id="38833543" version="5" timestamp="2011-10-17T10:33:53Z" uid="518169" user="kosatov" changeset="9580402">
    <nd ref="461008408"/>
    <nd ref="461008702"/>
    <nd ref="461008964"/>
    <nd ref="461009608"/>
    <nd ref="461009903"/>
    <nd ref="461008592"/>
    <nd ref="1103423663"/>
    <nd ref="1103422912"/>
    <nd ref="1470673785"/>
    <nd ref="1103423637"/>
    <nd ref="1103423113"/>
    <nd ref="461008955"/>
    <nd ref="461009898"/>
    <nd ref="461008657"/>
    <nd ref="461009642"/>
    <nd ref="461009509"/>
    <nd ref="461008408"/>
    <tag k="building" v="yes"/>
  </way>
  <way id="38833543" version="6" timestamp="2012-03-27T08:10:56Z" uid="481934" user="iWowik" changeset="11113698">
    <nd ref="461008408"/>
    <nd ref="461008702"/>
    <nd ref="461008964"/>
    <nd ref="461009608"/>
    <nd ref="461009903"/>
    <nd ref="461008592"/>
    <nd ref="1103423663"/>
    <nd ref="1103422912"/>
    <nd ref="1470673785"/>
    <nd ref="1103423637"/>
    <nd ref="1103423113"/>
    <nd ref="461008955"/>
    <nd ref="461009898"/>
    <nd ref="461008657"/>
    <nd ref="461009642"/>
    <nd ref="461009509"/>
    <nd ref="461008408"/>
    <tag k="addr:city" v="Зеленоград"/>
    <tag k="addr:country" v="RU"/>
    <tag k="building" v="yes"/>
  </way>
  <way id="38833543" version="7" timestamp="2012-03-27T11:49:18Z" uid="481934" user="iWowik" changeset="11115472">
    <nd ref="461008408"/>
    <nd ref="461008702"/>
    <nd ref="461008964"/>
    <nd ref="461009608"/>
    <nd ref="461009903"/>
    <nd ref="461008592"/>
    <nd ref="1103423663"/>
    <nd ref="1103422912"/>
    <nd ref="1470673785"/>
    <nd ref="1103423637"/>
    <nd ref="1103423113"/>
    <nd ref="461008955"/>
    <nd ref="461009898"/>
    <nd ref="461008657"/>
    <nd ref="461009642"/>
    <nd ref="461009509"/>
    <nd ref="461008408"/>
    <tag k="addr:city" v="Зеленоград"/>
    <tag k="addr:country" v="RU"/>
    <tag k="addr:region" v="Москва"/>
    <tag k="building" v="yes"/>
  </way>
  <way id="38833544" version="3" timestamp="2010-11-11T06:51:58Z" uid="115477" user="wowik" changeset="6341405">
    <nd ref="461009842"/>
    <nd ref="461008531"/>
    <nd ref="461009320"/>
    <nd ref="461009306"/>
    <nd ref="984980006"/>
    <nd ref="984980003"/>
    <nd ref="984980011"/>
    <nd ref="984979999"/>
    <nd ref="461009842"/>
    <tag k="addr:city" v="Зеленоград"/>
    <tag k="addr:housenumber" v="822"/>
    <tag k="addr:street" v="8-й Микрорайон"/>
    <tag k="amenity" v="school"/>
    <tag k="building" v="yes"/>
    <tag k="description" v="Начальная школа №1717"/>
    <tag k="is_in" v="Russia"/>
    <tag k="name" v="Нач.школа №1717"/>
  </way>
  <way id="38833544" version="4" timestamp="2011-01-17T16:52:17Z" uid="115477" user="wowik" changeset="7001307">
    <nd ref="461008531"/>
    <nd ref="461009320"/>
    <nd ref="984980003"/>
    <nd ref="1107762715"/>
    <nd ref="1107763482"/>
    <nd ref="984980011"/>
    <nd ref="461008531"/>
    <tag k="addr:city" v="Зеленоград"/>
    <tag k="addr:housenumber" v="822"/>
    <tag k="addr:street" v="8-й Микрорайон"/>
    <tag k="amenity" v="school"/>
    <tag k="building" v="yes"/>
    <tag k="building:levels" v="3"/>
    <tag k="description" v="Начальная школа №1717"/>
    <tag k="is_in" v="Russia"/>
    <tag k="name" v="Нач.школа №1717"/>
  </way>
  <way id="38833544" version="5" timestamp="2011-06-07T20:46:55Z" uid="133332" user="AMDmi3" changeset="8374030">
    <nd ref="461008531"/>
    <nd ref="461009320"/>
    <nd ref="984980003"/>
    <nd ref="1107762715"/>
    <nd ref="1107763482"/>
    <nd ref="984980011"/>
    <nd ref="461008531"/>
    <tag k="addr:city" v="Зеленоград"/>
    <tag k="addr:housenumber" v="822"/>
    <tag k="addr:street" v="8-й микрорайон"/>
    <tag k="amenity" v="school"/>
    <tag k="building" v="yes"/>
    <tag k="building:levels" v="3"/>
    <tag k="description" v="Начальная школа №1717"/>
    <tag k="is_in" v="Russia"/>
    <tag k="name" v="Нач.школа №1717"/>
  </way>
  <way id="38833544" version="6" timestamp="2011-09-13T10:30:48Z" uid="29320" user="Komяpa" changeset="9288237">
    <nd ref="461008531"/>
    <nd ref="461009320"/>
    <nd ref="984980003"/>
    <nd ref="1107762715"/>
    <nd ref="1107763482"/>
    <nd ref="984980011"/>
    <nd ref="461008531"/>
    <tag k="addr:city" v="Зеленоград"/>
    <tag k="addr:country" v="RU"/>
    <tag k="addr:housenumber" v="822"/>
    <tag k="addr:street" v="8-й микрорайон"/>
    <tag k="amenity" v="school"/>
    <tag k="building" v="yes"/>
    <tag k="building:levels" v="3"/>
    <tag k="description" v="Начальная школа №1717"/>
    <tag k="name" v="Нач.школа №1717"/>
  </way>
  <way id="38833544" version="7" timestamp="2012-03-27T11:47:39Z" uid="481934" user="iWowik" changeset="11115472">
    <nd ref="461008531"/>
    <nd ref="461009320"/>
    <nd ref="984980003"/>
    <nd ref="1107762715"/>
    <nd ref="1107763482"/>
    <nd ref="984980011"/>
    <nd ref="461008531"/>
    <tag k="addr:city" v="Зеленоград"/>
    <tag k="addr:country" v="RU"/>
    <tag k="addr:housenumber" v="822"/>
    <tag k="addr:region" v="Москва"/>
    <tag k="addr:street" v="8-й микрорайон"/>
    <tag k="amenity" v="school"/>
    <tag k="building" v="yes"/>
    <tag k="building:levels" v="3"/>
    <tag k="description" v="Начальная школа №1717"/>
    <tag k="name" v="Нач.школа №1717"/>
  </way>
  <way id="38833545" version="3" timestamp="2010-07-09T10:27:55Z" uid="115477" user="wowik" changeset="5172542">
    <nd ref="461008139"/>
    <nd ref="461008990"/>
    <nd ref="807758383"/>
    <nd ref="461009508"/>
    <nd ref="461009405"/>
    <nd ref="461009915"/>
    <nd ref="461008984"/>
    <nd ref="461009824"/>
    <nd ref="461009827"/>
    <nd ref="807758360"/>
    <nd ref="461009116"/>
    <nd ref="461009484"/>
    <nd ref="461009328"/>
    <nd ref="461008446"/>
    <nd ref="461008139"/>
    <tag k="addr:city" v="Зеленоград"/>
    <tag k="addr:housenumber" v="840"/>
    <tag k="addr:street" v="8-й Микрорайон"/>
    <tag k="building" v="yes"/>
    <tag k="is_in" v="Russia"/>
  </way>
  <way id="38833545" version="4" timestamp="2010-11-11T06:59:43Z" uid="115477" user="wowik" changeset="6341405">
    <nd ref="461008139"/>
    <nd ref="461008990"/>
    <nd ref="807758383"/>
    <nd ref="461009508"/>
    <nd ref="461009405"/>
    <nd ref="461009915"/>
    <nd ref="461008984"/>
    <nd ref="984981419"/>
    <nd ref="461009824"/>
    <nd ref="984981426"/>
    <nd ref="461009827"/>
    <nd ref="807758360"/>
    <nd ref="461009116"/>
    <nd ref="984981422"/>
    <nd ref="461009484"/>
    <nd ref="984981410"/>
    <nd ref="984981416"/>
    <nd ref="984981403"/>
    <nd ref="461009328"/>
    <nd ref="461008446"/>
    <nd ref="461008139"/>
    <tag k="addr:city" v="Зеленоград"/>
    <tag k="addr:housenumber" v="840"/>
    <tag k="addr:street" v="8-й Микрорайон"/>
    <tag k="building" v="yes"/>
    <tag k="is_in" v="Russia"/>
  </way>
  <way id="38833545" version="5" timestamp="2010-11-11T21:33:26Z" uid="241531" user="dik_man" changeset="6347022">
    <nd ref="984981422"/>
    <nd ref="461009484"/>
    <nd ref="984981410"/>
    <nd ref="984981416"/>
    <nd ref="984981403"/>
    <nd ref="461009328"/>
    <nd ref="461008446"/>
    <nd ref="461008139"/>
    <nd ref="461008990"/>
    <nd ref="984981422"/>
    <tag k="building" v="yes"/>
  </way>
  <way id="38833545" version="6" timestamp="2012-03-27T08:14:40Z" uid="481934" user="iWowik" changeset="11113698">
    <nd ref="984981422"/>
    <nd ref="461009484"/>
    <nd ref="984981410"/>
    <nd ref="984981416"/>
    <nd ref="984981403"/>
    <nd ref="461009328"/>
    <nd ref="461008446"/>
    <nd ref="461008139"/>
    <nd ref="461008990"/>
    <nd ref="984981422"/>
    <tag k="addr:city" v="Зеленоград"/>
    <tag k="addr:country" v="RU"/>
    <tag k="building" v="yes"/>
  </way>
  <way id="38833545" version="7" timestamp="2012-03-27T11:56:02Z" uid="481934" user="iWowik" changeset="11115472">
    <nd ref="984981422"/>
    <nd ref="461009484"/>
    <nd ref="984981410"/>
    <nd ref="984981416"/>
    <nd ref="984981403"/>
    <nd ref="461009328"/>
    <nd ref="461008446"/>
    <nd ref="461008139"/>
    <nd ref="461008990"/>
    <nd ref="984981422"/>
    <tag k="addr:city" v="Зеленоград"/>
    <tag k="addr:country" v="RU"/>
    <tag k="addr:region" v="Москва"/>
    <tag k="building" v="yes"/>
  </way>
  <way id="38833546" version="3" timestamp="2011-01-14T16:43:44Z" uid="115477" user="wowik" changeset="6968851">
    <nd ref="461008683"/>
    <nd ref="461008650"/>
    <nd ref="1103423261"/>
    <nd ref="1103423596"/>
    <nd ref="1103424249"/>
    <nd ref="1103423088"/>
    <nd ref="461009746"/>
    <nd ref="461009847"/>
    <nd ref="461008683"/>
    <tag k="addr:city" v="Зеленоград"/>
    <tag k="addr:housenumber" v="833"/>
    <tag k="addr:street" v="8-й Микрорайон"/>
    <tag k="building" v="yes"/>
    <tag k="is_in" v="Russia"/>
  </way>
  <way id="38833546" version="4" timestamp="2011-01-25T16:50:58Z" uid="115477" user="wowik" changeset="7085363">
    <nd ref="461008683"/>
    <nd ref="461008650"/>
    <nd ref="1103423261"/>
    <nd ref="1103423088"/>
    <nd ref="461009746"/>
    <nd ref="461009847"/>
    <nd ref="461008683"/>
    <tag k="addr:city" v="Зеленоград"/>
    <tag k="addr:housenumber" v="833"/>
    <tag k="addr:street" v="8-й Микрорайон"/>
    <tag k="building" v="yes"/>
    <tag k="building:levels" v="9"/>
    <tag k="is_in" v="Russia"/>
  </way>
  <way id="38833546" version="5" timestamp="2011-06-07T20:46:54Z" uid="133332" user="AMDmi3" changeset="8374030">
    <nd ref="461008683"/>
    <nd ref="461008650"/>
    <nd ref="1103423261"/>
    <nd ref="1103423088"/>
    <nd ref="461009746"/>
    <nd ref="461009847"/>
    <nd ref="461008683"/>
    <tag k="addr:city" v="Зеленоград"/>
    <tag k="addr:housenumber" v="833"/>
    <tag k="addr:street" v="8-й микрорайон"/>
    <tag k="building" v="yes"/>
    <tag k="building:levels" v="9"/>
    <tag k="is_in" v="Russia"/>
  </way>
  <way id="38833546" version="6" timestamp="2011-09-13T10:28:54Z" uid="29320" user="Komяpa" changeset="9288237">
    <nd ref="461008683"/>
    <nd ref="461008650"/>
    <nd ref="1103423261"/>
    <nd ref="1103423088"/>
    <nd ref="461009746"/>
    <nd ref="461009847"/>
    <nd ref="461008683"/>
    <tag k="addr:city" v="Зеленоград"/>
    <tag k="addr:country" v="RU"/>
    <tag k="addr:housenumber" v="833"/>
    <tag k="addr:street" v="8-й микрорайон"/>
    <tag k="building" v="yes"/>
    <tag k="building:levels" v="9"/>
  </way>
  <way id="38833546" version="7" timestamp="2012-03-27T11:46:32Z" uid="481934" user="iWowik" changeset="11115472">
    <nd ref="461008683"/>
    <nd ref="461008650"/>
    <nd ref="1103423261"/>
    <nd ref="1103423088"/>
    <nd ref="461009746"/>
    <nd ref="461009847"/>
    <nd ref="461008683"/>
    <tag k="addr:city" v="Зеленоград"/>
    <tag k="addr:country" v="RU"/>
    <tag k="addr:housenumber" v="833"/>
    <tag k="addr:region" v="Москва"/>
    <tag k="addr:street" v="8-й микрорайон"/>
    <tag k="building" v="yes"/>
    <tag k="building:levels" v="9"/>
  </way>
  <way id="38833547" version="3" timestamp="2010-11-13T10:18:01Z" uid="115477" user="wowik" changeset="6356871">
    <nd ref="461009369"/>
    <nd ref="461009675"/>
    <nd ref="461008694"/>
    <nd ref="461009377"/>
    <nd ref="461009369"/>
    <tag k="addr:city" v="Зеленоград"/>
    <tag k="addr:housenumber" v="852"/>
    <tag k="addr:street" v="8-й Микрорайон"/>
    <tag k="amenity" v="kindergarten"/>
    <tag k="building" v="yes"/>
    <tag k="comment" v="Детский сад №444"/>
    <tag k="is_in" v="Russia"/>
    <tag k="name" v="Ддетский сад №444"/>
  </way>
  <way id="38833547" version="4" timestamp="2010-11-13T10:21:56Z" uid="115477" user="wowik" changeset="6356871">
    <nd ref="461009369"/>
    <nd ref="461009675"/>
    <nd ref="461008694"/>
    <nd ref="461009377"/>
    <nd ref="461009369"/>
    <tag k="addr:city" v="Зеленоград"/>
    <tag k="addr:housenumber" v="852"/>
    <tag k="addr:street" v="8-й Микрорайон"/>
    <tag k="amenity" v="kindergarten"/>
    <tag k="building" v="yes"/>
    <tag k="comment" v="Детский сад №444"/>
    <tag k="is_in" v="Russia"/>
    <tag k="name" v="Детский сад №444"/>
  </way>
  <way id="38833547" version="5" timestamp="2011-01-17T19:15:24Z" uid="115477" user="wowik" changeset="7003020">
    <nd ref="461009369"/>
    <nd ref="461009675"/>
    <nd ref="461008694"/>
    <nd ref="461009377"/>
    <nd ref="1107979794"/>
    <nd ref="1107979814"/>
    <nd ref="461009369"/>
    <tag k="addr:city" v="Зеленоград"/>
    <tag k="addr:housenumber" v="852"/>
    <tag k="addr:street" v="8-й Микрорайон"/>
    <tag k="amenity" v="kindergarten"/>
    <tag k="building" v="yes"/>
    <tag k="building:levels" v="3"/>
    <tag k="comment" v="Детский сад №444"/>
    <tag k="is_in" v="Russia"/>
    <tag k="name" v="Детский сад №444"/>
  </way>
  <way id="38833547" version="6" timestamp="2011-06-07T20:46:54Z" uid="133332" user="AMDmi3" changeset="8374030">
    <nd ref="461009369"/>
    <nd ref="461009675"/>
    <nd ref="461008694"/>
    <nd ref="461009377"/>
    <nd ref="1107979794"/>
    <nd ref="1107979814"/>
    <nd ref="461009369"/>
    <tag k="addr:city" v="Зеленоград"/>
    <tag k="addr:housenumber" v="852"/>
    <tag k="addr:street" v="8-й микрорайон"/>
    <tag k="amenity" v="kindergarten"/>
    <tag k="building" v="yes"/>
    <tag k="building:levels" v="3"/>
    <tag k="comment" v="Детский сад №444"/>
    <tag k="is_in" v="Russia"/>
    <tag k="name" v="Детский сад №444"/>
  </way>
  <way id="38833547" version="7" timestamp="2011-09-13T10:30:14Z" uid="29320" user="Komяpa" changeset="9288237">
    <nd ref="461009369"/>
    <nd ref="461009675"/>
    <nd ref="461008694"/>
    <nd ref="461009377"/>
    <nd ref="1107979794"/>
    <nd ref="1107979814"/>
    <nd ref="461009369"/>
    <tag k="addr:city" v="Зеленоград"/>
    <tag k="addr:country" v="RU"/>
    <tag k="addr:housenumber" v="852"/>
    <tag k="addr:street" v="8-й микрорайон"/>
    <tag k="amenity" v="kindergarten"/>
    <tag k="building" v="yes"/>
    <tag k="building:levels" v="3"/>
    <tag k="comment" v="Детский сад №444"/>
    <tag k="name" v="Детский сад №444"/>
  </way>
  <way id="38833547" version="8" timestamp="2012-03-27T11:32:27Z" uid="481934" user="iWowik" changeset="11115472">
    <nd ref="461009369"/>
    <nd ref="461009675"/>
    <nd ref="461008694"/>
    <nd ref="461009377"/>
    <nd ref="1107979794"/>
    <nd ref="1107979814"/>
    <nd ref="461009369"/>
    <tag k="addr:city" v="Зеленоград"/>
    <tag k="addr:country" v="RU"/>
    <tag k="addr:housenumber" v="852"/>
    <tag k="addr:region" v="Москва"/>
    <tag k="addr:street" v="8-й микрорайон"/>
    <tag k="amenity" v="kindergarten"/>
    <tag k="building" v="yes"/>
    <tag k="building:levels" v="3"/>
    <tag k="comment" v="Детский сад №444"/>
    <tag k="name" v="Детский сад №444"/>
  </way>
  <way id="38833548" version="3" timestamp="2010-11-11T06:34:14Z" uid="115477" user="wowik" changeset="6341387"/>
  <way id="38833549" version="3" timestamp="2011-01-25T16:50:59Z" uid="115477" user="wowik" changeset="7085363">
    <nd ref="461009543"/>
    <nd ref="461008495"/>
    <nd ref="461008987"/>
    <nd ref="461008959"/>
    <nd ref="461009543"/>
    <tag k="addr:city" v="Зеленоград"/>
    <tag k="addr:housenumber" v="832"/>
    <tag k="addr:street" v="8-й Микрорайон"/>
    <tag k="building" v="yes"/>
    <tag k="building:levels" v="9"/>
    <tag k="is_in" v="Russia"/>
  </way>
  <way id="38833549" version="4" timestamp="2011-06-07T20:46:54Z" uid="133332" user="AMDmi3" changeset="8374030">
    <nd ref="461009543"/>
    <nd ref="461008495"/>
    <nd ref="461008987"/>
    <nd ref="461008959"/>
    <nd ref="461009543"/>
    <tag k="addr:city" v="Зеленоград"/>
    <tag k="addr:housenumber" v="832"/>
    <tag k="addr:street" v="8-й микрорайон"/>
    <tag k="building" v="yes"/>
    <tag k="building:levels" v="9"/>
    <tag k="is_in" v="Russia"/>
  </way>
  <way id="38833549" version="5" timestamp="2011-09-13T10:28:53Z" uid="29320" user="Komяpa" changeset="9288237">
    <nd ref="461009543"/>
    <nd ref="461008495"/>
    <nd ref="461008987"/>
    <nd ref="461008959"/>
    <nd ref="461009543"/>
    <tag k="addr:city" v="Зеленоград"/>
    <tag k="addr:country" v="RU"/>
    <tag k="addr:housenumber" v="832"/>
    <tag k="addr:street" v="8-й микрорайон"/>
    <tag k="building" v="yes"/>
    <tag k="building:levels" v="9"/>
  </way>
  <way id="38833549" version="6" timestamp="2012-03-27T11:46:32Z" uid="481934" user="iWowik" changeset="11115472">
    <nd ref="461009543"/>
    <nd ref="461008495"/>
    <nd ref="461008987"/>
    <nd ref="461008959"/>
    <nd ref="461009543"/>
    <tag k="addr:city" v="Зеленоград"/>
    <tag k="addr:country" v="RU"/>
    <tag k="addr:housenumber" v="832"/>
    <tag k="addr:region" v="Москва"/>
    <tag k="addr:street" v="8-й микрорайон"/>
    <tag k="building" v="yes"/>
    <tag k="building:levels" v="9"/>
  </way>
  <way id="38833550" version="3" timestamp="2010-11-11T07:01:03Z" uid="115477" user="wowik" changeset="6341405">
    <nd ref="461008432"/>
    <nd ref="461009065"/>
    <nd ref="461009596"/>
    <nd ref="461009308"/>
    <nd ref="984981627"/>
    <nd ref="984981628"/>
    <nd ref="984981632"/>
    <nd ref="984981623"/>
    <nd ref="984981635"/>
    <nd ref="984981636"/>
    <nd ref="984981634"/>
    <nd ref="984981633"/>
    <nd ref="984981629"/>
    <nd ref="984981630"/>
    <nd ref="984981626"/>
    <nd ref="984981625"/>
    <nd ref="461008432"/>
    <tag k="addr:city" v="Зеленоград"/>
    <tag k="addr:housenumber" v="828А"/>
    <tag k="addr:street" v="8-й Микрорайон"/>
    <tag k="building" v="yes"/>
    <tag k="is_in" v="Russia"/>
  </way>
  <way id="38833550" version="4" timestamp="2011-06-07T20:46:54Z" uid="133332" user="AMDmi3" changeset="8374030">
    <nd ref="461008432"/>
    <nd ref="461009065"/>
    <nd ref="461009596"/>
    <nd ref="461009308"/>
    <nd ref="984981627"/>
    <nd ref="984981628"/>
    <nd ref="984981632"/>
    <nd ref="984981623"/>
    <nd ref="984981635"/>
    <nd ref="984981636"/>
    <nd ref="984981634"/>
    <nd ref="984981633"/>
    <nd ref="984981629"/>
    <nd ref="984981630"/>
    <nd ref="984981626"/>
    <nd ref="984981625"/>
    <nd ref="461008432"/>
    <tag k="addr:city" v="Зеленоград"/>
    <tag k="addr:housenumber" v="828А"/>
    <tag k="addr:street" v="8-й микрорайон"/>
    <tag k="building" v="yes"/>
    <tag k="is_in" v="Russia"/>
  </way>
  <way id="38833550" version="5" timestamp="2011-09-13T10:28:51Z" uid="29320" user="Komяpa" changeset="9288237">
    <nd ref="461008432"/>
    <nd ref="461009065"/>
    <nd ref="461009596"/>
    <nd ref="461009308"/>
    <nd ref="984981627"/>
    <nd ref="984981628"/>
    <nd ref="984981632"/>
    <nd ref="984981623"/>
    <nd ref="984981635"/>
    <nd ref="984981636"/>
    <nd ref="984981634"/>
    <nd ref="984981633"/>
    <nd ref="984981629"/>
    <nd ref="984981630"/>
    <nd ref="984981626"/>
    <nd ref="984981625"/>
    <nd ref="461008432"/>
    <tag k="addr:city" v="Зеленоград"/>
    <tag k="addr:country" v="RU"/>
    <tag k="addr:housenumber" v="828А"/>
    <tag k="addr:street" v="8-й микрорайон"/>
    <tag k="building" v="yes"/>
  </way>
  <way id="38833550" version="6" timestamp="2012-03-27T11:46:29Z" uid="481934" user="iWowik" changeset="11115472">
    <nd ref="461008432"/>
    <nd ref="461009065"/>
    <nd ref="461009596"/>
    <nd ref="461009308"/>
    <nd ref="984981627"/>
    <nd ref="984981628"/>
    <nd ref="984981632"/>
    <nd ref="984981623"/>
    <nd ref="984981635"/>
    <nd ref="984981636"/>
    <nd ref="984981634"/>
    <nd ref="984981633"/>
    <nd ref="984981629"/>
    <nd ref="984981630"/>
    <nd ref="984981626"/>
    <nd ref="984981625"/>
    <nd ref="461008432"/>
    <tag k="addr:city" v="Зеленоград"/>
    <tag k="addr:country" v="RU"/>
    <tag k="addr:housenumber" v="828А"/>
    <tag k="addr:region" v="Москва"/>
    <tag k="addr:street" v="8-й микрорайон"/>
    <tag k="building" v="yes"/>
  </way>
  <way id="38833551" version="3" timestamp="2010-11-13T11:20:55Z" uid="115477" user="wowik" changeset="6356871">
    <nd ref="461009465"/>
    <nd ref="461008130"/>
    <nd ref="461008464"/>
    <nd ref="461008269"/>
    <nd ref="461009465"/>
    <tag k="addr:city" v="Зеленоград"/>
    <tag k="addr:street" v="8-й Микрорайон"/>
    <tag k="building" v="yes"/>
    <tag k="description" v="Кондитерский цех"/>
    <tag k="is_in" v="Russia"/>
    <tag k="man_made" v="works"/>
  </way>
  <way id="38833551" version="4" timestamp="2011-01-17T15:14:24Z" uid="115477" user="wowik" changeset="7000395">
    <nd ref="461009465"/>
    <nd ref="461008130"/>
    <nd ref="461008464"/>
    <nd ref="461008269"/>
    <nd ref="461009465"/>
    <tag k="addr:city" v="Зеленоград"/>
    <tag k="addr:housenumber" v="862"/>
    <tag k="addr:street" v="8-й Микрорайон"/>
    <tag k="building" v="yes"/>
    <tag k="description" v="Кондитерский цех"/>
    <tag k="is_in" v="Russia"/>
    <tag k="man_made" v="works"/>
  </way>
  <way id="38833551" version="5" timestamp="2011-06-07T20:46:54Z" uid="133332" user="AMDmi3" changeset="8374030">
    <nd ref="461009465"/>
    <nd ref="461008130"/>
    <nd ref="461008464"/>
    <nd ref="461008269"/>
    <nd ref="461009465"/>
    <tag k="addr:city" v="Зеленоград"/>
    <tag k="addr:housenumber" v="862"/>
    <tag k="addr:street" v="8-й микрорайон"/>
    <tag k="building" v="yes"/>
    <tag k="description" v="Кондитерский цех"/>
    <tag k="is_in" v="Russia"/>
    <tag k="man_made" v="works"/>
  </way>
  <way id="38833551" version="6" timestamp="2011-09-13T10:29:01Z" uid="29320" user="Komяpa" changeset="9288237">
    <nd ref="461009465"/>
    <nd ref="461008130"/>
    <nd ref="461008464"/>
    <nd ref="461008269"/>
    <nd ref="461009465"/>
    <tag k="addr:city" v="Зеленоград"/>
    <tag k="addr:country" v="RU"/>
    <tag k="addr:housenumber" v="862"/>
    <tag k="addr:street" v="8-й микрорайон"/>
    <tag k="building" v="yes"/>
    <tag k="description" v="Кондитерский цех"/>
    <tag k="man_made" v="works"/>
  </way>
  <way id="38833551" version="7" timestamp="2012-03-27T11:46:41Z" uid="481934" user="iWowik" changeset="11115472">
    <nd ref="461009465"/>
    <nd ref="461008130"/>
    <nd ref="461008464"/>
    <nd ref="461008269"/>
    <nd ref="461009465"/>
    <tag k="addr:city" v="Зеленоград"/>
    <tag k="addr:country" v="RU"/>
    <tag k="addr:housenumber" v="862"/>
    <tag k="addr:region" v="Москва"/>
    <tag k="addr:street" v="8-й микрорайон"/>
    <tag k="building" v="yes"/>
    <tag k="description" v="Кондитерский цех"/>
    <tag k="man_made" v="works"/>
  </way>
  <way id="38833554" version="5" timestamp="2011-01-18T13:03:21Z" uid="115477" user="wowik" changeset="7010197">
    <nd ref="461008414"/>
    <nd ref="461008459"/>
    <nd ref="461008716"/>
    <nd ref="461009487"/>
    <nd ref="461008414"/>
    <tag k="addr:city" v="Зеленоград"/>
    <tag k="addr:housenumber" v="812"/>
    <tag k="addr:postcode" v="124527"/>
    <tag k="addr:street" v="8-й Микрорайон"/>
    <tag k="building" v="yes"/>
    <tag k="building:levels" v="9"/>
    <tag k="building:use" v="residential"/>
    <tag k="is_in" v="Russia"/>
  </way>
  <way id="38833554" version="6" timestamp="2011-06-07T20:46:50Z" uid="133332" user="AMDmi3" changeset="8374030">
    <nd ref="461008414"/>
    <nd ref="461008459"/>
    <nd ref="461008716"/>
    <nd ref="461009487"/>
    <nd ref="461008414"/>
    <tag k="addr:city" v="Зеленоград"/>
    <tag k="addr:housenumber" v="812"/>
    <tag k="addr:postcode" v="124527"/>
    <tag k="addr:street" v="8-й микрорайон"/>
    <tag k="building" v="yes"/>
    <tag k="building:levels" v="9"/>
    <tag k="building:use" v="residential"/>
    <tag k="is_in" v="Russia"/>
  </way>
  <way id="38833554" version="7" timestamp="2011-09-13T10:28:44Z" uid="29320" user="Komяpa" changeset="9288237">
    <nd ref="461008414"/>
    <nd ref="461008459"/>
    <nd ref="461008716"/>
    <nd ref="461009487"/>
    <nd ref="461008414"/>
    <tag k="addr:city" v="Зеленоград"/>
    <tag k="addr:country" v="RU"/>
    <tag k="addr:housenumber" v="812"/>
    <tag k="addr:postcode" v="124527"/>
    <tag k="addr:street" v="8-й микрорайон"/>
    <tag k="building" v="yes"/>
    <tag k="building:levels" v="9"/>
    <tag k="building:use" v="residential"/>
  </way>
  <way id="38833554" version="8" timestamp="2012-03-02T12:39:14Z" uid="481934" user="iWowik" changeset="10847859">
    <nd ref="461008414"/>
    <nd ref="461008459"/>
    <nd ref="461008716"/>
    <nd ref="461009487"/>
    <nd ref="461008414"/>
    <tag k="addr:city" v="Зеленоград"/>
    <tag k="addr:country" v="RU"/>
    <tag k="addr:housenumber" v="812"/>
    <tag k="addr:postcode" v="124527"/>
    <tag k="addr:street" v="8-й микрорайон"/>
    <tag k="building" v="apartments"/>
    <tag k="building:levels" v="9"/>
    <tag k="building:use" v="residential"/>
  </way>
  <way id="38833554" version="9" timestamp="2012-03-27T11:46:19Z" uid="481934" user="iWowik" changeset="11115472">
    <nd ref="461008414"/>
    <nd ref="461008459"/>
    <nd ref="461008716"/>
    <nd ref="461009487"/>
    <nd ref="461008414"/>
    <tag k="addr:city" v="Зеленоград"/>
    <tag k="addr:country" v="RU"/>
    <tag k="addr:housenumber" v="812"/>
    <tag k="addr:postcode" v="124527"/>
    <tag k="addr:region" v="Москва"/>
    <tag k="addr:street" v="8-й микрорайон"/>
    <tag k="building" v="apartments"/>
    <tag k="building:levels" v="9"/>
    <tag k="building:use" v="residential"/>
  </way>
  <way id="38833555" version="5" timestamp="2011-01-18T12:20:28Z" uid="115477" user="wowik" changeset="7009789">
    <nd ref="461008561"/>
    <nd ref="461008342"/>
    <nd ref="461009002"/>
    <nd ref="461009684"/>
    <nd ref="461009349"/>
    <nd ref="461009591"/>
    <nd ref="461009468"/>
    <nd ref="461009623"/>
    <nd ref="461009342"/>
    <nd ref="461009269"/>
    <nd ref="461009800"/>
    <nd ref="461008577"/>
    <nd ref="461009113"/>
    <nd ref="461008643"/>
    <nd ref="1108919361"/>
    <nd ref="1108919664"/>
    <nd ref="1108919462"/>
    <nd ref="1108919194"/>
    <nd ref="461008674"/>
    <nd ref="461009235"/>
    <nd ref="461008561"/>
    <tag k="addr:city" v="Зеленоград"/>
    <tag k="addr:housenumber" v="819"/>
    <tag k="addr:street" v="8-й Микрорайон"/>
    <tag k="building" v="yes"/>
    <tag k="comment" v="Детский сад №1264"/>
    <tag k="is_in" v="Russia"/>
  </way>
  <way id="38833555" version="6" timestamp="2011-06-07T20:46:50Z" uid="133332" user="AMDmi3" changeset="8374030">
    <nd ref="461008561"/>
    <nd ref="461008342"/>
    <nd ref="461009002"/>
    <nd ref="461009684"/>
    <nd ref="461009349"/>
    <nd ref="461009591"/>
    <nd ref="461009468"/>
    <nd ref="461009623"/>
    <nd ref="461009342"/>
    <nd ref="461009269"/>
    <nd ref="461009800"/>
    <nd ref="461008577"/>
    <nd ref="461009113"/>
    <nd ref="461008643"/>
    <nd ref="1108919361"/>
    <nd ref="1108919664"/>
    <nd ref="1108919462"/>
    <nd ref="1108919194"/>
    <nd ref="461008674"/>
    <nd ref="461009235"/>
    <nd ref="461008561"/>
    <tag k="addr:city" v="Зеленоград"/>
    <tag k="addr:housenumber" v="819"/>
    <tag k="addr:street" v="8-й микрорайон"/>
    <tag k="building" v="yes"/>
    <tag k="comment" v="Детский сад №1264"/>
    <tag k="is_in" v="Russia"/>
  </way>
  <way id="38833555" version="7" timestamp="2011-09-13T10:28:47Z" uid="29320" user="Komяpa" changeset="9288237">
    <nd ref="461008561"/>
    <nd ref="461008342"/>
    <nd ref="461009002"/>
    <nd ref="461009684"/>
    <nd ref="461009349"/>
    <nd ref="461009591"/>
    <nd ref="461009468"/>
    <nd ref="461009623"/>
    <nd ref="461009342"/>
    <nd ref="461009269"/>
    <nd ref="461009800"/>
    <nd ref="461008577"/>
    <nd ref="461009113"/>
    <nd ref="461008643"/>
    <nd ref="1108919361"/>
    <nd ref="1108919664"/>
    <nd ref="1108919462"/>
    <nd ref="1108919194"/>
    <nd ref="461008674"/>
    <nd ref="461009235"/>
    <nd ref="461008561"/>
    <tag k="addr:city" v="Зеленоград"/>
    <tag k="addr:country" v="RU"/>
    <tag k="addr:housenumber" v="819"/>
    <tag k="addr:street" v="8-й микрорайон"/>
    <tag k="building" v="yes"/>
    <tag k="comment" v="Детский сад №1264"/>
  </way>
  <way id="38833555" version="8" timestamp="2012-03-27T11:46:23Z" uid="481934" user="iWowik" changeset="11115472">
    <nd ref="461008561"/>
    <nd ref="461008342"/>
    <nd ref="461009002"/>
    <nd ref="461009684"/>
    <nd ref="461009349"/>
    <nd ref="461009591"/>
    <nd ref="461009468"/>
    <nd ref="461009623"/>
    <nd ref="461009342"/>
    <nd ref="461009269"/>
    <nd ref="461009800"/>
    <nd ref="461008577"/>
    <nd ref="461009113"/>
    <nd ref="461008643"/>
    <nd ref="1108919361"/>
    <nd ref="1108919664"/>
    <nd ref="1108919462"/>
    <nd ref="1108919194"/>
    <nd ref="461008674"/>
    <nd ref="461009235"/>
    <nd ref="461008561"/>
    <tag k="addr:city" v="Зеленоград"/>
    <tag k="addr:country" v="RU"/>
    <tag k="addr:housenumber" v="819"/>
    <tag k="addr:region" v="Москва"/>
    <tag k="addr:street" v="8-й микрорайон"/>
    <tag k="building" v="yes"/>
    <tag k="comment" v="Детский сад №1264"/>
  </way>
  <way id="38833556" version="3" timestamp="2011-01-25T16:50:59Z" uid="115477" user="wowik" changeset="7085363">
    <nd ref="461009870"/>
    <nd ref="461008937"/>
    <nd ref="461009008"/>
    <nd ref="461009895"/>
    <nd ref="461009870"/>
    <tag k="addr:city" v="Зеленоград"/>
    <tag k="addr:housenumber" v="837"/>
    <tag k="addr:street" v="8-й Микрорайон"/>
    <tag k="building" v="yes"/>
    <tag k="building:levels" v="9"/>
    <tag k="is_in" v="Russia"/>
  </way>
  <way id="38833556" version="4" timestamp="2011-06-07T20:46:50Z" uid="133332" user="AMDmi3" changeset="8374030">
    <nd ref="461009870"/>
    <nd ref="461008937"/>
    <nd ref="461009008"/>
    <nd ref="461009895"/>
    <nd ref="461009870"/>
    <tag k="addr:city" v="Зеленоград"/>
    <tag k="addr:housenumber" v="837"/>
    <tag k="addr:street" v="8-й микрорайон"/>
    <tag k="building" v="yes"/>
    <tag k="building:levels" v="9"/>
    <tag k="is_in" v="Russia"/>
  </way>
  <way id="38833556" version="5" timestamp="2011-09-13T10:28:56Z" uid="29320" user="Komяpa" changeset="9288237">
    <nd ref="461009870"/>
    <nd ref="461008937"/>
    <nd ref="461009008"/>
    <nd ref="461009895"/>
    <nd ref="461009870"/>
    <tag k="addr:city" v="Зеленоград"/>
    <tag k="addr:country" v="RU"/>
    <tag k="addr:housenumber" v="837"/>
    <tag k="addr:street" v="8-й микрорайон"/>
    <tag k="building" v="yes"/>
    <tag k="building:levels" v="9"/>
  </way>
  <way id="38833556" version="6" timestamp="2012-03-27T11:46:35Z" uid="481934" user="iWowik" changeset="11115472">
    <nd ref="461009870"/>
    <nd ref="461008937"/>
    <nd ref="461009008"/>
    <nd ref="461009895"/>
    <nd ref="461009870"/>
    <tag k="addr:city" v="Зеленоград"/>
    <tag k="addr:country" v="RU"/>
    <tag k="addr:housenumber" v="837"/>
    <tag k="addr:region" v="Москва"/>
    <tag k="addr:street" v="8-й микрорайон"/>
    <tag k="building" v="yes"/>
    <tag k="building:levels" v="9"/>
  </way>
  <way id="38833558" version="5" timestamp="2011-01-18T12:23:46Z" uid="115477" user="wowik" changeset="7009789">
    <nd ref="461009496"/>
    <nd ref="461008217"/>
    <nd ref="461008389"/>
    <nd ref="1108920198"/>
    <nd ref="1108919638"/>
    <nd ref="461009887"/>
    <nd ref="461008765"/>
    <nd ref="1108919963"/>
    <nd ref="1108919444"/>
    <nd ref="461009195"/>
    <nd ref="461008485"/>
    <nd ref="461008788"/>
    <nd ref="461009496"/>
    <tag k="addr:city" v="Зеленоград"/>
    <tag k="addr:housenumber" v="805"/>
    <tag k="addr:street" v="8-й Микрорайон"/>
    <tag k="building" v="yes"/>
    <tag k="healthcare" v="clinic"/>
    <tag k="is_in" v="Russia"/>
    <tag k="name" v="Детская поликлиника №105"/>
  </way>
  <way id="38833558" version="6" timestamp="2011-06-07T20:46:49Z" uid="133332" user="AMDmi3" changeset="8374030">
    <nd ref="461009496"/>
    <nd ref="461008217"/>
    <nd ref="461008389"/>
    <nd ref="1108920198"/>
    <nd ref="1108919638"/>
    <nd ref="461009887"/>
    <nd ref="461008765"/>
    <nd ref="1108919963"/>
    <nd ref="1108919444"/>
    <nd ref="461009195"/>
    <nd ref="461008485"/>
    <nd ref="461008788"/>
    <nd ref="461009496"/>
    <tag k="addr:city" v="Зеленоград"/>
    <tag k="addr:housenumber" v="805"/>
    <tag k="addr:street" v="8-й микрорайон"/>
    <tag k="building" v="yes"/>
    <tag k="healthcare" v="clinic"/>
    <tag k="is_in" v="Russia"/>
    <tag k="name" v="Детская поликлиника №105"/>
  </way>
  <way id="38833558" version="7" timestamp="2011-09-13T10:30:00Z" uid="29320" user="Komяpa" changeset="9288237">
    <nd ref="461009496"/>
    <nd ref="461008217"/>
    <nd ref="461008389"/>
    <nd ref="1108920198"/>
    <nd ref="1108919638"/>
    <nd ref="461009887"/>
    <nd ref="461008765"/>
    <nd ref="1108919963"/>
    <nd ref="1108919444"/>
    <nd ref="461009195"/>
    <nd ref="461008485"/>
    <nd ref="461008788"/>
    <nd ref="461009496"/>
    <tag k="addr:city" v="Зеленоград"/>
    <tag k="addr:country" v="RU"/>
    <tag k="addr:housenumber" v="805"/>
    <tag k="addr:street" v="8-й микрорайон"/>
    <tag k="building" v="yes"/>
    <tag k="healthcare" v="clinic"/>
    <tag k="name" v="Детская поликлиника №105"/>
  </way>
  <way id="38833558" version="8" timestamp="2012-03-27T11:32:00Z" uid="481934" user="iWowik" changeset="11115472">
    <nd ref="461009496"/>
    <nd ref="461008217"/>
    <nd ref="461008389"/>
    <nd ref="1108920198"/>
    <nd ref="1108919638"/>
    <nd ref="461009887"/>
    <nd ref="461008765"/>
    <nd ref="1108919963"/>
    <nd ref="1108919444"/>
    <nd ref="461009195"/>
    <nd ref="461008485"/>
    <nd ref="461008788"/>
    <nd ref="461009496"/>
    <tag k="addr:city" v="Зеленоград"/>
    <tag k="addr:country" v="RU"/>
    <tag k="addr:housenumber" v="805"/>
    <tag k="addr:region" v="Москва"/>
    <tag k="addr:street" v="8-й микрорайон"/>
    <tag k="building" v="yes"/>
    <tag k="healthcare" v="clinic"/>
    <tag k="name" v="Детская поликлиника №105"/>
  </way>
  <way id="38833559" version="4" timestamp="2011-01-14T16:44:40Z" uid="115477" user="wowik" changeset="6968851">
    <nd ref="461009498"/>
    <nd ref="461009056"/>
    <nd ref="461009573"/>
    <nd ref="461008913"/>
    <nd ref="461008950"/>
    <nd ref="461008662"/>
    <nd ref="461009498"/>
    <tag k="building" v="yes"/>
  </way>
  <way id="38833559" version="5" timestamp="2012-03-27T08:14:04Z" uid="481934" user="iWowik" changeset="11113698">
    <nd ref="461009498"/>
    <nd ref="461009056"/>
    <nd ref="461009573"/>
    <nd ref="461008913"/>
    <nd ref="461008950"/>
    <nd ref="461008662"/>
    <nd ref="461009498"/>
    <tag k="addr:city" v="Зеленоград"/>
    <tag k="addr:country" v="RU"/>
    <tag k="building" v="yes"/>
  </way>
  <way id="38833559" version="6" timestamp="2012-03-27T11:55:13Z" uid="481934" user="iWowik" changeset="11115472">
    <nd ref="461009498"/>
    <nd ref="461009056"/>
    <nd ref="461009573"/>
    <nd ref="461008913"/>
    <nd ref="461008950"/>
    <nd ref="461008662"/>
    <nd ref="461009498"/>
    <tag k="addr:city" v="Зеленоград"/>
    <tag k="addr:country" v="RU"/>
    <tag k="addr:region" v="Москва"/>
    <tag k="building" v="yes"/>
  </way>
  <way id="38833560" version="3" timestamp="2010-07-09T10:27:54Z" uid="115477" user="wowik" changeset="5172542">
    <nd ref="461009548"/>
    <nd ref="461008361"/>
    <nd ref="461008833"/>
    <nd ref="461009613"/>
    <nd ref="461009346"/>
    <nd ref="807758331"/>
    <nd ref="461008893"/>
    <nd ref="461008720"/>
    <nd ref="461009776"/>
    <nd ref="461009166"/>
    <nd ref="461009837"/>
    <nd ref="461008312"/>
    <nd ref="461009699"/>
    <nd ref="461008966"/>
    <nd ref="461008346"/>
    <nd ref="461008779"/>
    <nd ref="461009806"/>
    <nd ref="461009504"/>
    <nd ref="461008127"/>
    <nd ref="461008670"/>
    <nd ref="807758329"/>
    <nd ref="461009727"/>
    <nd ref="461009548"/>
    <tag k="addr:city" v="Зеленоград"/>
    <tag k="addr:housenumber" v="841"/>
    <tag k="addr:street" v="8-й Микрорайон"/>
    <tag k="building" v="yes"/>
    <tag k="is_in" v="Russia"/>
  </way>
  <way id="38833560" version="4" timestamp="2010-11-11T06:59:46Z" uid="115477" user="wowik" changeset="6341405">
    <nd ref="461009548"/>
    <nd ref="984981431"/>
    <nd ref="461008361"/>
    <nd ref="461008833"/>
    <nd ref="984981414"/>
    <nd ref="984981408"/>
    <nd ref="461009613"/>
    <nd ref="984981421"/>
    <nd ref="461009346"/>
    <nd ref="807758331"/>
    <nd ref="461008893"/>
    <nd ref="984981411"/>
    <nd ref="461008720"/>
    <nd ref="984981417"/>
    <nd ref="461009776"/>
    <nd ref="461009166"/>
    <nd ref="461009837"/>
    <nd ref="984981424"/>
    <nd ref="461008312"/>
    <nd ref="984981433"/>
    <nd ref="461009699"/>
    <nd ref="461008966"/>
    <nd ref="461008346"/>
    <nd ref="461008779"/>
    <nd ref="461009806"/>
    <nd ref="984981428"/>
    <nd ref="984981405"/>
    <nd ref="461009504"/>
    <nd ref="461008127"/>
    <nd ref="461008670"/>
    <nd ref="807758329"/>
    <nd ref="461009727"/>
    <nd ref="984981430"/>
    <nd ref="984981407"/>
    <nd ref="984981404"/>
    <nd ref="984981413"/>
    <nd ref="984981420"/>
    <nd ref="984981427"/>
    <nd ref="461009548"/>
    <tag k="addr:city" v="Зеленоград"/>
    <tag k="addr:housenumber" v="841"/>
    <tag k="addr:street" v="8-й Микрорайон"/>
    <tag k="building" v="yes"/>
    <tag k="is_in" v="Russia"/>
  </way>
  <way id="38833560" version="5" timestamp="2010-11-13T04:37:42Z" uid="241531" user="dik_man" changeset="6355818">
    <nd ref="461009727"/>
    <nd ref="984981430"/>
    <nd ref="984981407"/>
    <nd ref="984981404"/>
    <nd ref="984981413"/>
    <nd ref="984981420"/>
    <nd ref="984981427"/>
    <nd ref="461009548"/>
    <nd ref="984981431"/>
    <nd ref="461008361"/>
    <nd ref="461008833"/>
    <nd ref="984981414"/>
    <nd ref="984981408"/>
    <nd ref="461009613"/>
    <nd ref="984981421"/>
    <nd ref="461009727"/>
    <tag k="building" v="yes"/>
  </way>
  <way id="38833560" version="6" timestamp="2012-03-27T08:10:49Z" uid="481934" user="iWowik" changeset="11113698">
    <nd ref="461009727"/>
    <nd ref="984981430"/>
    <nd ref="984981407"/>
    <nd ref="984981404"/>
    <nd ref="984981413"/>
    <nd ref="984981420"/>
    <nd ref="984981427"/>
    <nd ref="461009548"/>
    <nd ref="984981431"/>
    <nd ref="461008361"/>
    <nd ref="461008833"/>
    <nd ref="984981414"/>
    <nd ref="984981408"/>
    <nd ref="461009613"/>
    <nd ref="984981421"/>
    <nd ref="461009727"/>
    <tag k="addr:city" v="Зеленоград"/>
    <tag k="addr:country" v="RU"/>
    <tag k="building" v="yes"/>
  </way>
  <way id="38833560" version="7" timestamp="2012-03-27T11:49:15Z" uid="481934" user="iWowik" changeset="11115472">
    <nd ref="461009727"/>
    <nd ref="984981430"/>
    <nd ref="984981407"/>
    <nd ref="984981404"/>
    <nd ref="984981413"/>
    <nd ref="984981420"/>
    <nd ref="984981427"/>
    <nd ref="461009548"/>
    <nd ref="984981431"/>
    <nd ref="461008361"/>
    <nd ref="461008833"/>
    <nd ref="984981414"/>
    <nd ref="984981408"/>
    <nd ref="461009613"/>
    <nd ref="984981421"/>
    <nd ref="461009727"/>
    <tag k="addr:city" v="Зеленоград"/>
    <tag k="addr:country" v="RU"/>
    <tag k="addr:region" v="Москва"/>
    <tag k="building" v="yes"/>
  </way>
  <way id="38833561" version="3" timestamp="2010-11-13T11:21:00Z" uid="115477" user="wowik" changeset="6356871">
    <nd ref="461009074"/>
    <nd ref="461008908"/>
    <nd ref="461008818"/>
    <nd ref="461008308"/>
    <nd ref="461008589"/>
    <nd ref="461009925"/>
    <nd ref="461009074"/>
    <tag k="addr:city" v="Зеленоград"/>
    <tag k="addr:housenumber" v="813А"/>
    <tag k="addr:street" v="8-й Микрорайон"/>
    <tag k="building" v="yes"/>
    <tag k="description" v="Универсам &quot;Пятерочка&quot;"/>
    <tag k="is_in" v="Russia"/>
    <tag k="name" v="8-й ТЦ"/>
    <tag k="shop" v="supermarket"/>
  </way>
  <way id="38833561" version="4" timestamp="2011-01-18T12:21:30Z" uid="115477" user="wowik" changeset="7009789">
    <nd ref="461009074"/>
    <nd ref="461008908"/>
    <nd ref="1108920041"/>
    <nd ref="1108919359"/>
    <nd ref="461008818"/>
    <nd ref="461008308"/>
    <nd ref="461008589"/>
    <nd ref="461009925"/>
    <nd ref="461009074"/>
    <tag k="addr:city" v="Зеленоград"/>
    <tag k="addr:housenumber" v="813Ас1"/>
    <tag k="addr:street" v="8-й Микрорайон"/>
    <tag k="building" v="yes"/>
    <tag k="description" v="Универсам &quot;Пятерочка&quot;"/>
    <tag k="is_in" v="Russia"/>
    <tag k="name" v="8-й ТЦ"/>
    <tag k="shop" v="supermarket"/>
  </way>
  <way id="38833561" version="5" timestamp="2011-01-19T18:04:20Z" uid="70696" user="xybot" changeset="7022960">
    <nd ref="461009074"/>
    <nd ref="461008908"/>
    <nd ref="1108920041"/>
    <nd ref="1108919359"/>
    <nd ref="461008818"/>
    <nd ref="461008308"/>
    <nd ref="461008589"/>
    <nd ref="461009925"/>
    <nd ref="461009074"/>
    <tag k="addr:city" v="Зеленоград"/>
    <tag k="addr:housenumber" v="813А с1"/>
    <tag k="addr:street" v="8-й Микрорайон"/>
    <tag k="building" v="yes"/>
    <tag k="description" v="Универсам &quot;Пятерочка&quot;"/>
    <tag k="is_in" v="Russia"/>
    <tag k="name" v="8-й ТЦ"/>
    <tag k="shop" v="supermarket"/>
  </way>
  <way id="38833561" version="6" timestamp="2011-06-07T20:46:52Z" uid="133332" user="AMDmi3" changeset="8374030">
    <nd ref="461009074"/>
    <nd ref="461008908"/>
    <nd ref="1108920041"/>
    <nd ref="1108919359"/>
    <nd ref="461008818"/>
    <nd ref="461008308"/>
    <nd ref="461008589"/>
    <nd ref="461009925"/>
    <nd ref="461009074"/>
    <tag k="addr:city" v="Зеленоград"/>
    <tag k="addr:housenumber" v="813А с1"/>
    <tag k="addr:street" v="8-й микрорайон"/>
    <tag k="building" v="yes"/>
    <tag k="description" v="Универсам &quot;Пятерочка&quot;"/>
    <tag k="is_in" v="Russia"/>
    <tag k="name" v="8-й ТЦ"/>
    <tag k="shop" v="supermarket"/>
  </way>
  <way id="38833561" version="7" timestamp="2011-09-13T10:37:03Z" uid="29320" user="Komяpa" changeset="9288237">
    <nd ref="461009074"/>
    <nd ref="461008908"/>
    <nd ref="1108920041"/>
    <nd ref="1108919359"/>
    <nd ref="461008818"/>
    <nd ref="461008308"/>
    <nd ref="461008589"/>
    <nd ref="461009925"/>
    <nd ref="461009074"/>
    <tag k="addr:city" v="Зеленоград"/>
    <tag k="addr:country" v="RU"/>
    <tag k="addr:housenumber" v="813А с1"/>
    <tag k="addr:street" v="8-й микрорайон"/>
    <tag k="building" v="yes"/>
    <tag k="description" v="Универсам &quot;Пятерочка&quot;"/>
    <tag k="name" v="8-й ТЦ"/>
    <tag k="shop" v="supermarket"/>
  </way>
  <way id="38833561" version="8" timestamp="2011-12-13T07:22:45Z" uid="126304" user="TarzanASG" changeset="10105192">
    <nd ref="461009074"/>
    <nd ref="461008908"/>
    <nd ref="1108920041"/>
    <nd ref="1108919359"/>
    <nd ref="461008818"/>
    <nd ref="461008308"/>
    <nd ref="461008589"/>
    <nd ref="461009925"/>
    <nd ref="461009074"/>
    <tag k="addr:city" v="Зеленоград"/>
    <tag k="addr:country" v="RU"/>
    <tag k="addr:housenumber" v="813А с1"/>
    <tag k="addr:street" v="8-й микрорайон"/>
    <tag k="building" v="retail"/>
    <tag k="description" v="Универсам &quot;Пятерочка&quot;"/>
    <tag k="name" v="8-й ТЦ"/>
    <tag k="shop" v="supermarket"/>
  </way>
  <way id="38833561" version="9" timestamp="2011-12-14T07:25:51Z" uid="143266" user="Sergey Astakhov" changeset="10113313">
    <nd ref="461009074"/>
    <nd ref="461008908"/>
    <nd ref="1108920041"/>
    <nd ref="1108919359"/>
    <nd ref="461008818"/>
    <nd ref="461008308"/>
    <nd ref="461008589"/>
    <nd ref="461009925"/>
    <nd ref="461009074"/>
    <tag k="addr:city" v="Зеленоград"/>
    <tag k="addr:country" v="RU"/>
    <tag k="addr:housenumber" v="813А с1"/>
    <tag k="addr:street" v="8-й микрорайон"/>
    <tag k="building" v="yes"/>
    <tag k="description" v="Универсам &quot;Пятерочка&quot;"/>
    <tag k="name" v="8-й ТЦ"/>
    <tag k="shop" v="supermarket"/>
  </way>
  <way id="38833561" version="10" timestamp="2012-03-27T11:56:44Z" uid="481934" user="iWowik" changeset="11115472">
    <nd ref="461009074"/>
    <nd ref="461008908"/>
    <nd ref="1108920041"/>
    <nd ref="1108919359"/>
    <nd ref="461008818"/>
    <nd ref="461008308"/>
    <nd ref="461008589"/>
    <nd ref="461009925"/>
    <nd ref="461009074"/>
    <tag k="addr:city" v="Зеленоград"/>
    <tag k="addr:country" v="RU"/>
    <tag k="addr:housenumber" v="813А с1"/>
    <tag k="addr:region" v="Москва"/>
    <tag k="addr:street" v="8-й микрорайон"/>
    <tag k="building" v="yes"/>
    <tag k="description" v="Универсам &quot;Пятерочка&quot;"/>
    <tag k="name" v="8-й ТЦ"/>
    <tag k="shop" v="supermarket"/>
  </way>
  <way id="38833562" version="6" timestamp="2011-01-18T12:22:11Z" uid="115477" user="wowik" changeset="7009789">
    <nd ref="461009288"/>
    <nd ref="461009077"/>
    <nd ref="1108920330"/>
    <nd ref="1108919752"/>
    <nd ref="461009185"/>
    <nd ref="461009473"/>
    <nd ref="461009176"/>
    <nd ref="1108919435"/>
    <nd ref="461009288"/>
    <tag k="addr:city" v="Зеленоград"/>
    <tag k="addr:housenumber" v="802"/>
    <tag k="addr:street" v="8-й Микрорайон"/>
    <tag k="building" v="yes"/>
    <tag k="building:levels" v="9"/>
    <tag k="is_in" v="Russia"/>
  </way>
  <way id="38833562" version="7" timestamp="2011-01-18T13:03:15Z" uid="115477" user="wowik" changeset="7010197">
    <nd ref="461009288"/>
    <nd ref="461009077"/>
    <nd ref="1108920330"/>
    <nd ref="1108919752"/>
    <nd ref="461009185"/>
    <nd ref="461009473"/>
    <nd ref="461009176"/>
    <nd ref="1108919435"/>
    <nd ref="461009288"/>
    <tag k="addr:city" v="Зеленоград"/>
    <tag k="addr:housenumber" v="802"/>
    <tag k="addr:street" v="8-й Микрорайон"/>
    <tag k="building" v="yes"/>
    <tag k="building:levels" v="9"/>
    <tag k="building:use" v="residential"/>
    <tag k="is_in" v="Russia"/>
  </way>
  <way id="38833562" version="8" timestamp="2011-06-07T20:46:52Z" uid="133332" user="AMDmi3" changeset="8374030">
    <nd ref="461009288"/>
    <nd ref="461009077"/>
    <nd ref="1108920330"/>
    <nd ref="1108919752"/>
    <nd ref="461009185"/>
    <nd ref="461009473"/>
    <nd ref="461009176"/>
    <nd ref="1108919435"/>
    <nd ref="461009288"/>
    <tag k="addr:city" v="Зеленоград"/>
    <tag k="addr:housenumber" v="802"/>
    <tag k="addr:street" v="8-й микрорайон"/>
    <tag k="building" v="yes"/>
    <tag k="building:levels" v="9"/>
    <tag k="building:use" v="residential"/>
    <tag k="is_in" v="Russia"/>
  </way>
  <way id="38833562" version="9" timestamp="2011-09-13T10:28:39Z" uid="29320" user="Komяpa" changeset="9288237">
    <nd ref="461009288"/>
    <nd ref="461009077"/>
    <nd ref="1108920330"/>
    <nd ref="1108919752"/>
    <nd ref="461009185"/>
    <nd ref="461009473"/>
    <nd ref="461009176"/>
    <nd ref="1108919435"/>
    <nd ref="461009288"/>
    <tag k="addr:city" v="Зеленоград"/>
    <tag k="addr:country" v="RU"/>
    <tag k="addr:housenumber" v="802"/>
    <tag k="addr:street" v="8-й микрорайон"/>
    <tag k="building" v="yes"/>
    <tag k="building:levels" v="9"/>
    <tag k="building:use" v="residential"/>
  </way>
  <way id="38833562" version="10" timestamp="2012-03-27T11:46:14Z" uid="481934" user="iWowik" changeset="11115472">
    <nd ref="461009288"/>
    <nd ref="461009077"/>
    <nd ref="1108920330"/>
    <nd ref="1108919752"/>
    <nd ref="461009185"/>
    <nd ref="461009473"/>
    <nd ref="461009176"/>
    <nd ref="1108919435"/>
    <nd ref="461009288"/>
    <tag k="addr:city" v="Зеленоград"/>
    <tag k="addr:country" v="RU"/>
    <tag k="addr:housenumber" v="802"/>
    <tag k="addr:region" v="Москва"/>
    <tag k="addr:street" v="8-й микрорайон"/>
    <tag k="building" v="yes"/>
    <tag k="building:levels" v="9"/>
    <tag k="building:use" v="residential"/>
  </way>
  <way id="38833564" version="3" timestamp="2010-11-11T07:02:07Z" uid="115477" user="wowik" changeset="6341405">
    <nd ref="461008300"/>
    <nd ref="461009293"/>
    <nd ref="461009361"/>
    <nd ref="461009840"/>
    <nd ref="984981865"/>
    <nd ref="984981864"/>
    <nd ref="984981863"/>
    <nd ref="984981862"/>
    <nd ref="461008300"/>
    <tag k="addr:city" v="Зеленоград"/>
    <tag k="addr:housenumber" v="827"/>
    <tag k="addr:street" v="8-й Микрорайон"/>
    <tag k="amenity" v="kindergarten"/>
    <tag k="building" v="yes"/>
    <tag k="comment" v="Детский сад №513"/>
    <tag k="is_in" v="Russia"/>
    <tag k="name" v="Д/c №513"/>
  </way>
  <way id="38833564" version="4" timestamp="2010-11-13T10:17:59Z" uid="115477" user="wowik" changeset="6356871">
    <nd ref="461008300"/>
    <nd ref="461009293"/>
    <nd ref="461009361"/>
    <nd ref="461009840"/>
    <nd ref="984981865"/>
    <nd ref="984981864"/>
    <nd ref="984981863"/>
    <nd ref="984981862"/>
    <nd ref="461008300"/>
    <tag k="addr:city" v="Зеленоград"/>
    <tag k="addr:housenumber" v="827"/>
    <tag k="addr:street" v="8-й Микрорайон"/>
    <tag k="amenity" v="kindergarten"/>
    <tag k="building" v="yes"/>
    <tag k="comment" v="Детский сад №513"/>
    <tag k="is_in" v="Russia"/>
    <tag k="name" v="Ддетский сад №513"/>
  </way>
  <way id="38833564" version="5" timestamp="2010-11-13T10:21:56Z" uid="115477" user="wowik" changeset="6356871">
    <nd ref="461008300"/>
    <nd ref="461009293"/>
    <nd ref="461009361"/>
    <nd ref="461009840"/>
    <nd ref="984981865"/>
    <nd ref="984981864"/>
    <nd ref="984981863"/>
    <nd ref="984981862"/>
    <nd ref="461008300"/>
    <tag k="addr:city" v="Зеленоград"/>
    <tag k="addr:housenumber" v="827"/>
    <tag k="addr:street" v="8-й Микрорайон"/>
    <tag k="amenity" v="kindergarten"/>
    <tag k="building" v="yes"/>
    <tag k="comment" v="Детский сад №513"/>
    <tag k="is_in" v="Russia"/>
    <tag k="name" v="Детский сад №513"/>
  </way>
  <way id="38833564" version="6" timestamp="2011-06-07T20:46:52Z" uid="133332" user="AMDmi3" changeset="8374030">
    <nd ref="461008300"/>
    <nd ref="461009293"/>
    <nd ref="461009361"/>
    <nd ref="461009840"/>
    <nd ref="984981865"/>
    <nd ref="984981864"/>
    <nd ref="984981863"/>
    <nd ref="984981862"/>
    <nd ref="461008300"/>
    <tag k="addr:city" v="Зеленоград"/>
    <tag k="addr:housenumber" v="827"/>
    <tag k="addr:street" v="8-й микрорайон"/>
    <tag k="amenity" v="kindergarten"/>
    <tag k="building" v="yes"/>
    <tag k="comment" v="Детский сад №513"/>
    <tag k="is_in" v="Russia"/>
    <tag k="name" v="Детский сад №513"/>
  </way>
  <way id="38833564" version="7" timestamp="2011-09-13T10:30:15Z" uid="29320" user="Komяpa" changeset="9288237">
    <nd ref="461008300"/>
    <nd ref="461009293"/>
    <nd ref="461009361"/>
    <nd ref="461009840"/>
    <nd ref="984981865"/>
    <nd ref="984981864"/>
    <nd ref="984981863"/>
    <nd ref="984981862"/>
    <nd ref="461008300"/>
    <tag k="addr:city" v="Зеленоград"/>
    <tag k="addr:country" v="RU"/>
    <tag k="addr:housenumber" v="827"/>
    <tag k="addr:street" v="8-й микрорайон"/>
    <tag k="amenity" v="kindergarten"/>
    <tag k="building" v="yes"/>
    <tag k="comment" v="Детский сад №513"/>
    <tag k="name" v="Детский сад №513"/>
  </way>
  <way id="38833564" version="8" timestamp="2012-03-27T11:32:30Z" uid="481934" user="iWowik" changeset="11115472">
    <nd ref="461008300"/>
    <nd ref="461009293"/>
    <nd ref="461009361"/>
    <nd ref="461009840"/>
    <nd ref="984981865"/>
    <nd ref="984981864"/>
    <nd ref="984981863"/>
    <nd ref="984981862"/>
    <nd ref="461008300"/>
    <tag k="addr:city" v="Зеленоград"/>
    <tag k="addr:country" v="RU"/>
    <tag k="addr:housenumber" v="827"/>
    <tag k="addr:region" v="Москва"/>
    <tag k="addr:street" v="8-й микрорайон"/>
    <tag k="amenity" v="kindergarten"/>
    <tag k="building" v="yes"/>
    <tag k="comment" v="Детский сад №513"/>
    <tag k="name" v="Детский сад №513"/>
  </way>
  <way id="38833565" version="3" timestamp="2010-11-11T06:59:45Z" uid="115477" user="wowik" changeset="6341405">
    <nd ref="461009439"/>
    <nd ref="461008385"/>
    <nd ref="984981429"/>
    <nd ref="984981406"/>
    <nd ref="984981412"/>
    <nd ref="984981418"/>
    <nd ref="984981425"/>
    <nd ref="984981434"/>
    <nd ref="461009856"/>
    <nd ref="461009526"/>
    <nd ref="461009439"/>
    <tag k="addr:city" v="Зеленоград"/>
    <tag k="addr:housenumber" v="843"/>
    <tag k="addr:street" v="8-й Микрорайон"/>
    <tag k="building" v="yes"/>
    <tag k="comment" v="Торговый центр &quot;Солнечный&quot;"/>
    <tag k="is_in" v="Russia"/>
    <tag k="name" v="&quot;Солнечный&quot;"/>
    <tag k="shop" v="supermarket"/>
  </way>
  <way id="38833565" version="4" timestamp="2010-11-13T11:21:02Z" uid="115477" user="wowik" changeset="6356871">
    <nd ref="461009439"/>
    <nd ref="461008385"/>
    <nd ref="984981429"/>
    <nd ref="984981406"/>
    <nd ref="984981412"/>
    <nd ref="984981418"/>
    <nd ref="984981425"/>
    <nd ref="984981434"/>
    <nd ref="461009856"/>
    <nd ref="461009526"/>
    <nd ref="461009439"/>
    <tag k="addr:city" v="Зеленоград"/>
    <tag k="addr:housenumber" v="843"/>
    <tag k="addr:street" v="8-й Микрорайон"/>
    <tag k="building" v="yes"/>
    <tag k="description" v="Торговый центр &quot;Солнечный&quot;"/>
    <tag k="is_in" v="Russia"/>
    <tag k="name" v="&quot;Солнечный&quot;"/>
    <tag k="shop" v="supermarket"/>
  </way>
  <way id="38833565" version="5" timestamp="2011-06-07T20:46:51Z" uid="133332" user="AMDmi3" changeset="8374030">
    <nd ref="461009439"/>
    <nd ref="461008385"/>
    <nd ref="984981429"/>
    <nd ref="984981406"/>
    <nd ref="984981412"/>
    <nd ref="984981418"/>
    <nd ref="984981425"/>
    <nd ref="984981434"/>
    <nd ref="461009856"/>
    <nd ref="461009526"/>
    <nd ref="461009439"/>
    <tag k="addr:city" v="Зеленоград"/>
    <tag k="addr:housenumber" v="843"/>
    <tag k="addr:street" v="8-й микрорайон"/>
    <tag k="building" v="yes"/>
    <tag k="description" v="Торговый центр &quot;Солнечный&quot;"/>
    <tag k="is_in" v="Russia"/>
    <tag k="name" v="&quot;Солнечный&quot;"/>
    <tag k="shop" v="supermarket"/>
  </way>
  <way id="38833565" version="6" timestamp="2011-09-13T10:20:23Z" uid="29320" user="Komяpa" changeset="9288237">
    <nd ref="461009439"/>
    <nd ref="461008385"/>
    <nd ref="984981429"/>
    <nd ref="984981406"/>
    <nd ref="984981412"/>
    <nd ref="984981418"/>
    <nd ref="984981425"/>
    <nd ref="984981434"/>
    <nd ref="461009856"/>
    <nd ref="461009526"/>
    <nd ref="461009439"/>
    <tag k="addr:city" v="Зеленоград"/>
    <tag k="addr:country" v="RU"/>
    <tag k="addr:housenumber" v="843"/>
    <tag k="addr:street" v="8-й микрорайон"/>
    <tag k="building" v="yes"/>
    <tag k="description" v="Торговый центр &quot;Солнечный&quot;"/>
    <tag k="name" v="&quot;Солнечный&quot;"/>
    <tag k="shop" v="supermarket"/>
  </way>
  <way id="38833565" version="7" timestamp="2011-12-12T14:24:20Z" uid="126304" user="TarzanASG" changeset="10099449">
    <nd ref="461009439"/>
    <nd ref="461008385"/>
    <nd ref="984981429"/>
    <nd ref="984981406"/>
    <nd ref="984981412"/>
    <nd ref="984981418"/>
    <nd ref="984981425"/>
    <nd ref="984981434"/>
    <nd ref="461009856"/>
    <nd ref="461009526"/>
    <nd ref="461009439"/>
    <tag k="addr:city" v="Зеленоград"/>
    <tag k="addr:country" v="RU"/>
    <tag k="addr:housenumber" v="843"/>
    <tag k="addr:street" v="8-й микрорайон"/>
    <tag k="building" v="store"/>
    <tag k="description" v="Торговый центр &quot;Солнечный&quot;"/>
    <tag k="name" v="&quot;Солнечный&quot;"/>
    <tag k="shop" v="supermarket"/>
  </way>
  <way id="38833565" version="8" timestamp="2011-12-12T17:16:16Z" uid="126304" user="TarzanASG" changeset="10100388">
    <nd ref="461009439"/>
    <nd ref="461008385"/>
    <nd ref="984981429"/>
    <nd ref="984981406"/>
    <nd ref="984981412"/>
    <nd ref="984981418"/>
    <nd ref="984981425"/>
    <nd ref="984981434"/>
    <nd ref="461009856"/>
    <nd ref="461009526"/>
    <nd ref="461009439"/>
    <tag k="addr:city" v="Зеленоград"/>
    <tag k="addr:country" v="RU"/>
    <tag k="addr:housenumber" v="843"/>
    <tag k="addr:street" v="8-й микрорайон"/>
    <tag k="building" v="retail"/>
    <tag k="description" v="Торговый центр &quot;Солнечный&quot;"/>
    <tag k="name" v="&quot;Солнечный&quot;"/>
    <tag k="shop" v="supermarket"/>
  </way>
  <way id="38833565" version="9" timestamp="2011-12-14T12:48:04Z" uid="143266" user="Sergey Astakhov" changeset="10115724">
    <nd ref="461009439"/>
    <nd ref="461008385"/>
    <nd ref="984981429"/>
    <nd ref="984981406"/>
    <nd ref="984981412"/>
    <nd ref="984981418"/>
    <nd ref="984981425"/>
    <nd ref="984981434"/>
    <nd ref="461009856"/>
    <nd ref="461009526"/>
    <nd ref="461009439"/>
    <tag k="addr:city" v="Зеленоград"/>
    <tag k="addr:country" v="RU"/>
    <tag k="addr:housenumber" v="843"/>
    <tag k="addr:street" v="8-й микрорайон"/>
    <tag k="building" v="store"/>
    <tag k="description" v="Торговый центр &quot;Солнечный&quot;"/>
    <tag k="name" v="&quot;Солнечный&quot;"/>
    <tag k="shop" v="supermarket"/>
  </way>
  <way id="38833565" version="10" timestamp="2011-12-14T13:56:54Z" uid="143266" user="Sergey Astakhov" changeset="10116192">
    <nd ref="461009439"/>
    <nd ref="461008385"/>
    <nd ref="984981429"/>
    <nd ref="984981406"/>
    <nd ref="984981412"/>
    <nd ref="984981418"/>
    <nd ref="984981425"/>
    <nd ref="984981434"/>
    <nd ref="461009856"/>
    <nd ref="461009526"/>
    <nd ref="461009439"/>
    <tag k="addr:city" v="Зеленоград"/>
    <tag k="addr:country" v="RU"/>
    <tag k="addr:housenumber" v="843"/>
    <tag k="addr:street" v="8-й микрорайон"/>
    <tag k="building" v="yes"/>
    <tag k="description" v="Торговый центр &quot;Солнечный&quot;"/>
    <tag k="name" v="&quot;Солнечный&quot;"/>
    <tag k="shop" v="supermarket"/>
  </way>
  <way id="38833565" version="11" timestamp="2012-03-27T11:31:37Z" uid="481934" user="iWowik" changeset="11115472">
    <nd ref="461009439"/>
    <nd ref="461008385"/>
    <nd ref="984981429"/>
    <nd ref="984981406"/>
    <nd ref="984981412"/>
    <nd ref="984981418"/>
    <nd ref="984981425"/>
    <nd ref="984981434"/>
    <nd ref="461009856"/>
    <nd ref="461009526"/>
    <nd ref="461009439"/>
    <tag k="addr:city" v="Зеленоград"/>
    <tag k="addr:country" v="RU"/>
    <tag k="addr:housenumber" v="843"/>
    <tag k="addr:region" v="Москва"/>
    <tag k="addr:street" v="8-й микрорайон"/>
    <tag k="building" v="yes"/>
    <tag k="description" v="Торговый центр &quot;Солнечный&quot;"/>
    <tag k="name" v="&quot;Солнечный&quot;"/>
    <tag k="shop" v="supermarket"/>
  </way>
  <way id="38833566" version="4" timestamp="2011-01-18T13:03:18Z" uid="115477" user="wowik" changeset="7010197">
    <nd ref="461009471"/>
    <nd ref="461009636"/>
    <nd ref="461008412"/>
    <nd ref="461008550"/>
    <nd ref="461009471"/>
    <tag k="addr:city" v="Зеленоград"/>
    <tag k="addr:housenumber" v="810"/>
    <tag k="addr:street" v="8-й Микрорайон"/>
    <tag k="building" v="yes"/>
    <tag k="building:levels" v="9"/>
    <tag k="building:use" v="residential"/>
    <tag k="is_in" v="Russia"/>
  </way>
  <way id="38833566" version="5" timestamp="2011-06-07T20:46:51Z" uid="133332" user="AMDmi3" changeset="8374030">
    <nd ref="461009471"/>
    <nd ref="461009636"/>
    <nd ref="461008412"/>
    <nd ref="461008550"/>
    <nd ref="461009471"/>
    <tag k="addr:city" v="Зеленоград"/>
    <tag k="addr:housenumber" v="810"/>
    <tag k="addr:street" v="8-й микрорайон"/>
    <tag k="building" v="yes"/>
    <tag k="building:levels" v="9"/>
    <tag k="building:use" v="residential"/>
    <tag k="is_in" v="Russia"/>
  </way>
  <way id="38833566" version="6" timestamp="2011-09-13T10:28:43Z" uid="29320" user="Komяpa" changeset="9288237">
    <nd ref="461009471"/>
    <nd ref="461009636"/>
    <nd ref="461008412"/>
    <nd ref="461008550"/>
    <nd ref="461009471"/>
    <tag k="addr:city" v="Зеленоград"/>
    <tag k="addr:country" v="RU"/>
    <tag k="addr:housenumber" v="810"/>
    <tag k="addr:street" v="8-й микрорайон"/>
    <tag k="building" v="yes"/>
    <tag k="building:levels" v="9"/>
    <tag k="building:use" v="residential"/>
  </way>
  <way id="38833566" version="7" timestamp="2012-03-02T12:39:13Z" uid="481934" user="iWowik" changeset="10847859">
    <nd ref="461009471"/>
    <nd ref="461009636"/>
    <nd ref="461008412"/>
    <nd ref="461008550"/>
    <nd ref="461009471"/>
    <tag k="addr:city" v="Зеленоград"/>
    <tag k="addr:country" v="RU"/>
    <tag k="addr:housenumber" v="810"/>
    <tag k="addr:street" v="8-й микрорайон"/>
    <tag k="building" v="apartments"/>
    <tag k="building:levels" v="9"/>
    <tag k="building:use" v="residential"/>
  </way>
  <way id="38833566" version="8" timestamp="2012-03-27T11:46:18Z" uid="481934" user="iWowik" changeset="11115472">
    <nd ref="461009471"/>
    <nd ref="461009636"/>
    <nd ref="461008412"/>
    <nd ref="461008550"/>
    <nd ref="461009471"/>
    <tag k="addr:city" v="Зеленоград"/>
    <tag k="addr:country" v="RU"/>
    <tag k="addr:housenumber" v="810"/>
    <tag k="addr:region" v="Москва"/>
    <tag k="addr:street" v="8-й микрорайон"/>
    <tag k="building" v="apartments"/>
    <tag k="building:levels" v="9"/>
    <tag k="building:use" v="residential"/>
  </way>
  <way id="38833567" version="3" timestamp="2010-07-09T11:00:25Z" uid="115477" user="wowik" changeset="5172721">
    <nd ref="461008678"/>
    <nd ref="461009160"/>
    <nd ref="461008266"/>
    <nd ref="461008981"/>
    <nd ref="461008678"/>
    <tag k="_building" v="no"/>
    <tag k="addr:city" v="Зеленоград"/>
    <tag k="addr:housenumber" v="853"/>
    <tag k="addr:street" v="8-й Микрорайон"/>
    <tag k="comment" v="Снесли"/>
    <tag k="is_in" v="Russia"/>
  </way>
  <way id="38833567" version="4" timestamp="2010-11-11T06:34:14Z" uid="115477" user="wowik" changeset="6341387"/>
  <way id="38833569" version="4" timestamp="2011-01-18T13:03:10Z" uid="115477" user="wowik" changeset="7010197">
    <nd ref="461009163"/>
    <nd ref="461008744"/>
    <nd ref="461009661"/>
    <nd ref="461009716"/>
    <nd ref="461009163"/>
    <tag k="addr:city" v="Зеленоград"/>
    <tag k="addr:housenumber" v="815"/>
    <tag k="addr:street" v="8-й Микрорайон"/>
    <tag k="building" v="yes"/>
    <tag k="building:levels" v="9"/>
    <tag k="building:use" v="residential"/>
    <tag k="is_in" v="Russia"/>
  </way>
  <way id="38833569" version="5" timestamp="2011-06-07T20:46:43Z" uid="133332" user="AMDmi3" changeset="8374030">
    <nd ref="461009163"/>
    <nd ref="461008744"/>
    <nd ref="461009661"/>
    <nd ref="461009716"/>
    <nd ref="461009163"/>
    <tag k="addr:city" v="Зеленоград"/>
    <tag k="addr:housenumber" v="815"/>
    <tag k="addr:street" v="8-й микрорайон"/>
    <tag k="building" v="yes"/>
    <tag k="building:levels" v="9"/>
    <tag k="building:use" v="residential"/>
    <tag k="is_in" v="Russia"/>
  </way>
  <way id="38833569" version="6" timestamp="2011-09-13T10:28:47Z" uid="29320" user="Komяpa" changeset="9288237">
    <nd ref="461009163"/>
    <nd ref="461008744"/>
    <nd ref="461009661"/>
    <nd ref="461009716"/>
    <nd ref="461009163"/>
    <tag k="addr:city" v="Зеленоград"/>
    <tag k="addr:country" v="RU"/>
    <tag k="addr:housenumber" v="815"/>
    <tag k="addr:street" v="8-й микрорайон"/>
    <tag k="building" v="yes"/>
    <tag k="building:levels" v="9"/>
    <tag k="building:use" v="residential"/>
  </way>
  <way id="38833569" version="7" timestamp="2012-03-02T12:39:16Z" uid="481934" user="iWowik" changeset="10847859">
    <nd ref="461009163"/>
    <nd ref="461008744"/>
    <nd ref="461009661"/>
    <nd ref="461009716"/>
    <nd ref="461009163"/>
    <tag k="addr:city" v="Зеленоград"/>
    <tag k="addr:country" v="RU"/>
    <tag k="addr:housenumber" v="815"/>
    <tag k="addr:street" v="8-й микрорайон"/>
    <tag k="building" v="apartments"/>
    <tag k="building:levels" v="9"/>
    <tag k="building:use" v="residential"/>
  </way>
  <way id="38833569" version="8" timestamp="2012-03-27T11:46:21Z" uid="481934" user="iWowik" changeset="11115472">
    <nd ref="461009163"/>
    <nd ref="461008744"/>
    <nd ref="461009661"/>
    <nd ref="461009716"/>
    <nd ref="461009163"/>
    <tag k="addr:city" v="Зеленоград"/>
    <tag k="addr:country" v="RU"/>
    <tag k="addr:housenumber" v="815"/>
    <tag k="addr:region" v="Москва"/>
    <tag k="addr:street" v="8-й микрорайон"/>
    <tag k="building" v="apartments"/>
    <tag k="building:levels" v="9"/>
    <tag k="building:use" v="residential"/>
  </way>
  <way id="38833571" version="3" timestamp="2011-01-17T15:13:50Z" uid="115477" user="wowik" changeset="7000395">
    <nd ref="461009023"/>
    <nd ref="461009632"/>
    <nd ref="461008759"/>
    <nd ref="1107648955"/>
    <nd ref="1107648880"/>
    <nd ref="1107649133"/>
    <nd ref="1107649025"/>
    <nd ref="461009602"/>
    <nd ref="461009023"/>
    <tag k="addr:city" v="Зеленоград"/>
    <tag k="addr:housenumber" v="856"/>
    <tag k="addr:street" v="8-й Микрорайон"/>
    <tag k="building" v="yes"/>
    <tag k="comment" v="Милицейское общежитие"/>
    <tag k="is_in" v="Russia"/>
  </way>
  <way id="38833571" version="4" timestamp="2011-06-07T20:46:44Z" uid="133332" user="AMDmi3" changeset="8374030">
    <nd ref="461009023"/>
    <nd ref="461009632"/>
    <nd ref="461008759"/>
    <nd ref="1107648955"/>
    <nd ref="1107648880"/>
    <nd ref="1107649133"/>
    <nd ref="1107649025"/>
    <nd ref="461009602"/>
    <nd ref="461009023"/>
    <tag k="addr:city" v="Зеленоград"/>
    <tag k="addr:housenumber" v="856"/>
    <tag k="addr:street" v="8-й микрорайон"/>
    <tag k="building" v="yes"/>
    <tag k="comment" v="Милицейское общежитие"/>
    <tag k="is_in" v="Russia"/>
  </way>
  <way id="38833571" version="5" timestamp="2011-09-13T10:29:00Z" uid="29320" user="Komяpa" changeset="9288237">
    <nd ref="461009023"/>
    <nd ref="461009632"/>
    <nd ref="461008759"/>
    <nd ref="1107648955"/>
    <nd ref="1107648880"/>
    <nd ref="1107649133"/>
    <nd ref="1107649025"/>
    <nd ref="461009602"/>
    <nd ref="461009023"/>
    <tag k="addr:city" v="Зеленоград"/>
    <tag k="addr:country" v="RU"/>
    <tag k="addr:housenumber" v="856"/>
    <tag k="addr:street" v="8-й микрорайон"/>
    <tag k="building" v="yes"/>
    <tag k="comment" v="Милицейское общежитие"/>
  </way>
  <way id="38833571" version="6" timestamp="2012-03-27T11:46:39Z" uid="481934" user="iWowik" changeset="11115472">
    <nd ref="461009023"/>
    <nd ref="461009632"/>
    <nd ref="461008759"/>
    <nd ref="1107648955"/>
    <nd ref="1107648880"/>
    <nd ref="1107649133"/>
    <nd ref="1107649025"/>
    <nd ref="461009602"/>
    <nd ref="461009023"/>
    <tag k="addr:city" v="Зеленоград"/>
    <tag k="addr:country" v="RU"/>
    <tag k="addr:housenumber" v="856"/>
    <tag k="addr:region" v="Москва"/>
    <tag k="addr:street" v="8-й микрорайон"/>
    <tag k="building" v="yes"/>
    <tag k="comment" v="Милицейское общежитие"/>
  </way>
  <way id="38833572" version="3" timestamp="2011-01-17T15:14:19Z" uid="115477" user="wowik" changeset="7000395">
    <nd ref="461009443"/>
    <nd ref="461009541"/>
    <nd ref="1107648964"/>
    <nd ref="1107648884"/>
    <nd ref="461008317"/>
    <nd ref="461008263"/>
    <nd ref="1107649006"/>
    <nd ref="1107648908"/>
    <nd ref="461009443"/>
    <tag k="addr:city" v="Зеленоград"/>
    <tag k="addr:housenumber" v="857"/>
    <tag k="addr:street" v="8-й Микрорайон"/>
    <tag k="amenity" v="hospital"/>
    <tag k="building" v="yes"/>
    <tag k="comment" v="Подстанция №27 Станции скорой и неотложной медицинской помощи г. Москвы им. А.С. Пучкова"/>
    <tag k="is_in" v="Russia"/>
    <tag k="name" v="Подстанция скорой помощи №27"/>
  </way>
  <way id="38833572" version="4" timestamp="2011-06-07T20:46:38Z" uid="133332" user="AMDmi3" changeset="8374030">
    <nd ref="461009443"/>
    <nd ref="461009541"/>
    <nd ref="1107648964"/>
    <nd ref="1107648884"/>
    <nd ref="461008317"/>
    <nd ref="461008263"/>
    <nd ref="1107649006"/>
    <nd ref="1107648908"/>
    <nd ref="461009443"/>
    <tag k="addr:city" v="Зеленоград"/>
    <tag k="addr:housenumber" v="857"/>
    <tag k="addr:street" v="8-й микрорайон"/>
    <tag k="amenity" v="hospital"/>
    <tag k="building" v="yes"/>
    <tag k="comment" v="Подстанция №27 Станции скорой и неотложной медицинской помощи г. Москвы им. А.С. Пучкова"/>
    <tag k="is_in" v="Russia"/>
    <tag k="name" v="Подстанция скорой помощи №27"/>
  </way>
  <way id="38833572" version="5" timestamp="2011-09-13T10:30:58Z" uid="29320" user="Komяpa" changeset="9288237">
    <nd ref="461009443"/>
    <nd ref="461009541"/>
    <nd ref="1107648964"/>
    <nd ref="1107648884"/>
    <nd ref="461008317"/>
    <nd ref="461008263"/>
    <nd ref="1107649006"/>
    <nd ref="1107648908"/>
    <nd ref="461009443"/>
    <tag k="addr:city" v="Зеленоград"/>
    <tag k="addr:country" v="RU"/>
    <tag k="addr:housenumber" v="857"/>
    <tag k="addr:street" v="8-й микрорайон"/>
    <tag k="amenity" v="hospital"/>
    <tag k="building" v="yes"/>
    <tag k="comment" v="Подстанция №27 Станции скорой и неотложной медицинской помощи г. Москвы им. А.С. Пучкова"/>
    <tag k="name" v="Подстанция скорой помощи №27"/>
  </way>
  <way id="38833572" version="6" timestamp="2012-03-27T11:47:44Z" uid="481934" user="iWowik" changeset="11115472">
    <nd ref="461009443"/>
    <nd ref="461009541"/>
    <nd ref="1107648964"/>
    <nd ref="1107648884"/>
    <nd ref="461008317"/>
    <nd ref="461008263"/>
    <nd ref="1107649006"/>
    <nd ref="1107648908"/>
    <nd ref="461009443"/>
    <tag k="addr:city" v="Зеленоград"/>
    <tag k="addr:country" v="RU"/>
    <tag k="addr:housenumber" v="857"/>
    <tag k="addr:region" v="Москва"/>
    <tag k="addr:street" v="8-й микрорайон"/>
    <tag k="amenity" v="hospital"/>
    <tag k="building" v="yes"/>
    <tag k="comment" v="Подстанция №27 Станции скорой и неотложной медицинской помощи г. Москвы им. А.С. Пучкова"/>
    <tag k="name" v="Подстанция скорой помощи №27"/>
  </way>
  <way id="38833573" version="3" timestamp="2010-11-13T11:20:58Z" uid="115477" user="wowik" changeset="6356871">
    <nd ref="461009551"/>
    <nd ref="461008581"/>
    <nd ref="461009068"/>
    <nd ref="461009815"/>
    <nd ref="461009558"/>
    <nd ref="461009220"/>
    <nd ref="461009865"/>
    <nd ref="461008450"/>
    <nd ref="461009529"/>
    <nd ref="461009863"/>
    <nd ref="461008585"/>
    <nd ref="461008733"/>
    <nd ref="461008207"/>
    <nd ref="461008774"/>
    <nd ref="461009428"/>
    <nd ref="461008502"/>
    <nd ref="461009081"/>
    <nd ref="461009130"/>
    <nd ref="461009503"/>
    <nd ref="461009035"/>
    <nd ref="461008235"/>
    <nd ref="461008730"/>
    <nd ref="461009186"/>
    <nd ref="461009499"/>
    <nd ref="461008946"/>
    <nd ref="461008159"/>
    <nd ref="461009028"/>
    <nd ref="461009909"/>
    <nd ref="461009396"/>
    <nd ref="461009604"/>
    <nd ref="461008135"/>
    <nd ref="461009133"/>
    <nd ref="461009680"/>
    <nd ref="461008470"/>
    <nd ref="461009859"/>
    <nd ref="461008708"/>
    <nd ref="461008547"/>
    <nd ref="461009436"/>
    <nd ref="461009710"/>
    <nd ref="461009551"/>
    <tag k="addr:city" v="Зеленоград"/>
    <tag k="addr:housenumber" v="864"/>
    <tag k="addr:street" v="8-й Микрорайон"/>
    <tag k="amenity" v="school"/>
    <tag k="building" v="yes"/>
    <tag k="description" v="Школа надомного обучения №367"/>
    <tag k="is_in" v="Russia"/>
    <tag k="name" v="Школа №367"/>
  </way>
  <way id="38833573" version="4" timestamp="2011-01-17T15:13:39Z" uid="115477" user="wowik" changeset="7000395">
    <nd ref="461009551"/>
    <nd ref="1107649014"/>
    <nd ref="1107648890"/>
    <nd ref="461008581"/>
    <nd ref="1107648973"/>
    <nd ref="1107649135"/>
    <nd ref="461009068"/>
    <nd ref="461009815"/>
    <nd ref="461009558"/>
    <nd ref="461009220"/>
    <nd ref="461009865"/>
    <nd ref="461008450"/>
    <nd ref="461009529"/>
    <nd ref="461008585"/>
    <nd ref="461008733"/>
    <nd ref="1107649136"/>
    <nd ref="1107648930"/>
    <nd ref="1107649086"/>
    <nd ref="461008207"/>
    <nd ref="461008774"/>
    <nd ref="1107649050"/>
    <nd ref="461009428"/>
    <nd ref="1107649016"/>
    <nd ref="1107648891"/>
    <nd ref="461008502"/>
    <nd ref="1107648943"/>
    <nd ref="461009503"/>
    <nd ref="461009035"/>
    <nd ref="461008235"/>
    <nd ref="461008730"/>
    <nd ref="461009186"/>
    <nd ref="461009499"/>
    <nd ref="461008946"/>
    <nd ref="461008159"/>
    <nd ref="461009028"/>
    <nd ref="461009909"/>
    <nd ref="461009396"/>
    <nd ref="461009604"/>
    <nd ref="1107648922"/>
    <nd ref="461008135"/>
    <nd ref="461009133"/>
    <nd ref="461009680"/>
    <nd ref="461008470"/>
    <nd ref="1107648865"/>
    <nd ref="1107649120"/>
    <nd ref="1107649003"/>
    <nd ref="1107648924"/>
    <nd ref="1107648962"/>
    <nd ref="1107649075"/>
    <nd ref="461009859"/>
    <nd ref="1107648882"/>
    <nd ref="1107649083"/>
    <nd ref="461008708"/>
    <nd ref="461008547"/>
    <nd ref="461009436"/>
    <nd ref="461009710"/>
    <nd ref="1107649039"/>
    <nd ref="461009551"/>
    <tag k="addr:city" v="Зеленоград"/>
    <tag k="addr:housenumber" v="864"/>
    <tag k="addr:street" v="8-й Микрорайон"/>
    <tag k="amenity" v="school"/>
    <tag k="building" v="yes"/>
    <tag k="description" v="Школа надомного обучения №367"/>
    <tag k="is_in" v="Russia"/>
    <tag k="name" v="Школа №367"/>
  </way>
  <way id="38833573" version="5" timestamp="2011-06-07T20:46:40Z" uid="133332" user="AMDmi3" changeset="8374030">
    <nd ref="461009551"/>
    <nd ref="1107649014"/>
    <nd ref="1107648890"/>
    <nd ref="461008581"/>
    <nd ref="1107648973"/>
    <nd ref="1107649135"/>
    <nd ref="461009068"/>
    <nd ref="461009815"/>
    <nd ref="461009558"/>
    <nd ref="461009220"/>
    <nd ref="461009865"/>
    <nd ref="461008450"/>
    <nd ref="461009529"/>
    <nd ref="461008585"/>
    <nd ref="461008733"/>
    <nd ref="1107649136"/>
    <nd ref="1107648930"/>
    <nd ref="1107649086"/>
    <nd ref="461008207"/>
    <nd ref="461008774"/>
    <nd ref="1107649050"/>
    <nd ref="461009428"/>
    <nd ref="1107649016"/>
    <nd ref="1107648891"/>
    <nd ref="461008502"/>
    <nd ref="1107648943"/>
    <nd ref="461009503"/>
    <nd ref="461009035"/>
    <nd ref="461008235"/>
    <nd ref="461008730"/>
    <nd ref="461009186"/>
    <nd ref="461009499"/>
    <nd ref="461008946"/>
    <nd ref="461008159"/>
    <nd ref="461009028"/>
    <nd ref="461009909"/>
    <nd ref="461009396"/>
    <nd ref="461009604"/>
    <nd ref="1107648922"/>
    <nd ref="461008135"/>
    <nd ref="461009133"/>
    <nd ref="461009680"/>
    <nd ref="461008470"/>
    <nd ref="1107648865"/>
    <nd ref="1107649120"/>
    <nd ref="1107649003"/>
    <nd ref="1107648924"/>
    <nd ref="1107648962"/>
    <nd ref="1107649075"/>
    <nd ref="461009859"/>
    <nd ref="1107648882"/>
    <nd ref="1107649083"/>
    <nd ref="461008708"/>
    <nd ref="461008547"/>
    <nd ref="461009436"/>
    <nd ref="461009710"/>
    <nd ref="1107649039"/>
    <nd ref="461009551"/>
    <tag k="addr:city" v="Зеленоград"/>
    <tag k="addr:housenumber" v="864"/>
    <tag k="addr:street" v="8-й микрорайон"/>
    <tag k="amenity" v="school"/>
    <tag k="building" v="yes"/>
    <tag k="description" v="Школа надомного обучения №367"/>
    <tag k="is_in" v="Russia"/>
    <tag k="name" v="Школа №367"/>
  </way>
  <way id="38833573" version="6" timestamp="2011-09-13T10:31:51Z" uid="29320" user="Komяpa" changeset="9288237">
    <nd ref="461009551"/>
    <nd ref="1107649014"/>
    <nd ref="1107648890"/>
    <nd ref="461008581"/>
    <nd ref="1107648973"/>
    <nd ref="1107649135"/>
    <nd ref="461009068"/>
    <nd ref="461009815"/>
    <nd ref="461009558"/>
    <nd ref="461009220"/>
    <nd ref="461009865"/>
    <nd ref="461008450"/>
    <nd ref="461009529"/>
    <nd ref="461008585"/>
    <nd ref="461008733"/>
    <nd ref="1107649136"/>
    <nd ref="1107648930"/>
    <nd ref="1107649086"/>
    <nd ref="461008207"/>
    <nd ref="461008774"/>
    <nd ref="1107649050"/>
    <nd ref="461009428"/>
    <nd ref="1107649016"/>
    <nd ref="1107648891"/>
    <nd ref="461008502"/>
    <nd ref="1107648943"/>
    <nd ref="461009503"/>
    <nd ref="461009035"/>
    <nd ref="461008235"/>
    <nd ref="461008730"/>
    <nd ref="461009186"/>
    <nd ref="461009499"/>
    <nd ref="461008946"/>
    <nd ref="461008159"/>
    <nd ref="461009028"/>
    <nd ref="461009909"/>
    <nd ref="461009396"/>
    <nd ref="461009604"/>
    <nd ref="1107648922"/>
    <nd ref="461008135"/>
    <nd ref="461009133"/>
    <nd ref="461009680"/>
    <nd ref="461008470"/>
    <nd ref="1107648865"/>
    <nd ref="1107649120"/>
    <nd ref="1107649003"/>
    <nd ref="1107648924"/>
    <nd ref="1107648962"/>
    <nd ref="1107649075"/>
    <nd ref="461009859"/>
    <nd ref="1107648882"/>
    <nd ref="1107649083"/>
    <nd ref="461008708"/>
    <nd ref="461008547"/>
    <nd ref="461009436"/>
    <nd ref="461009710"/>
    <nd ref="1107649039"/>
    <nd ref="461009551"/>
    <tag k="addr:city" v="Зеленоград"/>
    <tag k="addr:country" v="RU"/>
    <tag k="addr:housenumber" v="864"/>
    <tag k="addr:street" v="8-й микрорайон"/>
    <tag k="amenity" v="school"/>
    <tag k="building" v="yes"/>
    <tag k="description" v="Школа надомного обучения №367"/>
    <tag k="name" v="Школа №367"/>
  </way>
  <way id="38833573" version="7" timestamp="2012-03-27T11:48:24Z" uid="481934" user="iWowik" changeset="11115472">
    <nd ref="461009551"/>
    <nd ref="1107649014"/>
    <nd ref="1107648890"/>
    <nd ref="461008581"/>
    <nd ref="1107648973"/>
    <nd ref="1107649135"/>
    <nd ref="461009068"/>
    <nd ref="461009815"/>
    <nd ref="461009558"/>
    <nd ref="461009220"/>
    <nd ref="461009865"/>
    <nd ref="461008450"/>
    <nd ref="461009529"/>
    <nd ref="461008585"/>
    <nd ref="461008733"/>
    <nd ref="1107649136"/>
    <nd ref="1107648930"/>
    <nd ref="1107649086"/>
    <nd ref="461008207"/>
    <nd ref="461008774"/>
    <nd ref="1107649050"/>
    <nd ref="461009428"/>
    <nd ref="1107649016"/>
    <nd ref="1107648891"/>
    <nd ref="461008502"/>
    <nd ref="1107648943"/>
    <nd ref="461009503"/>
    <nd ref="461009035"/>
    <nd ref="461008235"/>
    <nd ref="461008730"/>
    <nd ref="461009186"/>
    <nd ref="461009499"/>
    <nd ref="461008946"/>
    <nd ref="461008159"/>
    <nd ref="461009028"/>
    <nd ref="461009909"/>
    <nd ref="461009396"/>
    <nd ref="461009604"/>
    <nd ref="1107648922"/>
    <nd ref="461008135"/>
    <nd ref="461009133"/>
    <nd ref="461009680"/>
    <nd ref="461008470"/>
    <nd ref="1107648865"/>
    <nd ref="1107649120"/>
    <nd ref="1107649003"/>
    <nd ref="1107648924"/>
    <nd ref="1107648962"/>
    <nd ref="1107649075"/>
    <nd ref="461009859"/>
    <nd ref="1107648882"/>
    <nd ref="1107649083"/>
    <nd ref="461008708"/>
    <nd ref="461008547"/>
    <nd ref="461009436"/>
    <nd ref="461009710"/>
    <nd ref="1107649039"/>
    <nd ref="461009551"/>
    <tag k="addr:city" v="Зеленоград"/>
    <tag k="addr:country" v="RU"/>
    <tag k="addr:housenumber" v="864"/>
    <tag k="addr:region" v="Москва"/>
    <tag k="addr:street" v="8-й микрорайон"/>
    <tag k="amenity" v="school"/>
    <tag k="building" v="yes"/>
    <tag k="description" v="Школа надомного обучения №367"/>
    <tag k="name" v="Школа №367"/>
  </way>
  <way id="38833574" version="4" timestamp="2011-01-18T13:03:16Z" uid="115477" user="wowik" changeset="7010197">
    <nd ref="461009355"/>
    <nd ref="461008511"/>
    <nd ref="461008334"/>
    <nd ref="461009192"/>
    <nd ref="461009355"/>
    <tag k="addr:city" v="Зеленоград"/>
    <tag k="addr:housenumber" v="813"/>
    <tag k="addr:street" v="8-й Микрорайон"/>
    <tag k="building" v="yes"/>
    <tag k="building:levels" v="9"/>
    <tag k="building:use" v="residential"/>
    <tag k="is_in" v="Russia"/>
  </way>
  <way id="38833574" version="5" timestamp="2011-06-07T20:46:41Z" uid="133332" user="AMDmi3" changeset="8374030">
    <nd ref="461009355"/>
    <nd ref="461008511"/>
    <nd ref="461008334"/>
    <nd ref="461009192"/>
    <nd ref="461009355"/>
    <tag k="addr:city" v="Зеленоград"/>
    <tag k="addr:housenumber" v="813"/>
    <tag k="addr:street" v="8-й микрорайон"/>
    <tag k="building" v="yes"/>
    <tag k="building:levels" v="9"/>
    <tag k="building:use" v="residential"/>
    <tag k="is_in" v="Russia"/>
  </way>
  <way id="38833574" version="6" timestamp="2011-09-13T10:28:45Z" uid="29320" user="Komяpa" changeset="9288237">
    <nd ref="461009355"/>
    <nd ref="461008511"/>
    <nd ref="461008334"/>
    <nd ref="461009192"/>
    <nd ref="461009355"/>
    <tag k="addr:city" v="Зеленоград"/>
    <tag k="addr:country" v="RU"/>
    <tag k="addr:housenumber" v="813"/>
    <tag k="addr:street" v="8-й микрорайон"/>
    <tag k="building" v="yes"/>
    <tag k="building:levels" v="9"/>
    <tag k="building:use" v="residential"/>
  </way>
  <way id="38833574" version="7" timestamp="2012-03-02T12:39:14Z" uid="481934" user="iWowik" changeset="10847859">
    <nd ref="461009355"/>
    <nd ref="461008511"/>
    <nd ref="461008334"/>
    <nd ref="461009192"/>
    <nd ref="461009355"/>
    <tag k="addr:city" v="Зеленоград"/>
    <tag k="addr:country" v="RU"/>
    <tag k="addr:housenumber" v="813"/>
    <tag k="addr:street" v="8-й микрорайон"/>
    <tag k="building" v="apartments"/>
    <tag k="building:levels" v="9"/>
    <tag k="building:use" v="residential"/>
  </way>
  <way id="38833574" version="8" timestamp="2012-03-27T11:46:20Z" uid="481934" user="iWowik" changeset="11115472">
    <nd ref="461009355"/>
    <nd ref="461008511"/>
    <nd ref="461008334"/>
    <nd ref="461009192"/>
    <nd ref="461009355"/>
    <tag k="addr:city" v="Зеленоград"/>
    <tag k="addr:country" v="RU"/>
    <tag k="addr:housenumber" v="813"/>
    <tag k="addr:region" v="Москва"/>
    <tag k="addr:street" v="8-й микрорайон"/>
    <tag k="building" v="apartments"/>
    <tag k="building:levels" v="9"/>
    <tag k="building:use" v="residential"/>
  </way>
  <way id="38833575" version="3" timestamp="2010-11-11T06:42:50Z" uid="115477" user="wowik" changeset="6341405">
    <nd ref="461009418"/>
    <nd ref="984976992"/>
    <nd ref="984976982"/>
    <nd ref="984976995"/>
    <nd ref="984976987"/>
    <nd ref="984977018"/>
    <nd ref="984976989"/>
    <nd ref="984977020"/>
    <nd ref="461009638"/>
    <nd ref="984977008"/>
    <nd ref="984977002"/>
    <nd ref="461008691"/>
    <nd ref="461008574"/>
    <nd ref="984977000"/>
    <nd ref="984977017"/>
    <nd ref="984976985"/>
    <nd ref="984977016"/>
    <nd ref="984977006"/>
    <nd ref="984976997"/>
    <nd ref="461008284"/>
    <nd ref="461009337"/>
    <nd ref="984976998"/>
    <nd ref="984976991"/>
    <nd ref="984976996"/>
    <nd ref="984977005"/>
    <nd ref="461009215"/>
    <nd ref="461009364"/>
    <nd ref="984976994"/>
    <nd ref="984977011"/>
    <nd ref="984976988"/>
    <nd ref="984976983"/>
    <nd ref="461008473"/>
    <nd ref="461008290"/>
    <nd ref="984976986"/>
    <nd ref="984977001"/>
    <nd ref="984977010"/>
    <nd ref="984976980"/>
    <nd ref="461008979"/>
    <nd ref="461009418"/>
    <tag k="addr:city" v="Зеленоград"/>
    <tag k="addr:housenumber" v="844"/>
    <tag k="addr:street" v="8-й Микрорайон"/>
    <tag k="amenity" v="school"/>
    <tag k="building" v="yes"/>
    <tag k="is_in" v="Russia"/>
    <tag k="name" v="Школа №897"/>
  </way>
  <way id="38833575" version="4" timestamp="2011-06-07T20:46:41Z" uid="133332" user="AMDmi3" changeset="8374030">
    <nd ref="461009418"/>
    <nd ref="984976992"/>
    <nd ref="984976982"/>
    <nd ref="984976995"/>
    <nd ref="984976987"/>
    <nd ref="984977018"/>
    <nd ref="984976989"/>
    <nd ref="984977020"/>
    <nd ref="461009638"/>
    <nd ref="984977008"/>
    <nd ref="984977002"/>
    <nd ref="461008691"/>
    <nd ref="461008574"/>
    <nd ref="984977000"/>
    <nd ref="984977017"/>
    <nd ref="984976985"/>
    <nd ref="984977016"/>
    <nd ref="984977006"/>
    <nd ref="984976997"/>
    <nd ref="461008284"/>
    <nd ref="461009337"/>
    <nd ref="984976998"/>
    <nd ref="984976991"/>
    <nd ref="984976996"/>
    <nd ref="984977005"/>
    <nd ref="461009215"/>
    <nd ref="461009364"/>
    <nd ref="984976994"/>
    <nd ref="984977011"/>
    <nd ref="984976988"/>
    <nd ref="984976983"/>
    <nd ref="461008473"/>
    <nd ref="461008290"/>
    <nd ref="984976986"/>
    <nd ref="984977001"/>
    <nd ref="984977010"/>
    <nd ref="984976980"/>
    <nd ref="461008979"/>
    <nd ref="461009418"/>
    <tag k="addr:city" v="Зеленоград"/>
    <tag k="addr:housenumber" v="844"/>
    <tag k="addr:street" v="8-й микрорайон"/>
    <tag k="amenity" v="school"/>
    <tag k="building" v="yes"/>
    <tag k="is_in" v="Russia"/>
    <tag k="name" v="Школа №897"/>
  </way>
  <way id="38833575" version="5" timestamp="2011-09-13T10:31:57Z" uid="29320" user="Komяpa" changeset="9288237">
    <nd ref="461009418"/>
    <nd ref="984976992"/>
    <nd ref="984976982"/>
    <nd ref="984976995"/>
    <nd ref="984976987"/>
    <nd ref="984977018"/>
    <nd ref="984976989"/>
    <nd ref="984977020"/>
    <nd ref="461009638"/>
    <nd ref="984977008"/>
    <nd ref="984977002"/>
    <nd ref="461008691"/>
    <nd ref="461008574"/>
    <nd ref="984977000"/>
    <nd ref="984977017"/>
    <nd ref="984976985"/>
    <nd ref="984977016"/>
    <nd ref="984977006"/>
    <nd ref="984976997"/>
    <nd ref="461008284"/>
    <nd ref="461009337"/>
    <nd ref="984976998"/>
    <nd ref="984976991"/>
    <nd ref="984976996"/>
    <nd ref="984977005"/>
    <nd ref="461009215"/>
    <nd ref="461009364"/>
    <nd ref="984976994"/>
    <nd ref="984977011"/>
    <nd ref="984976988"/>
    <nd ref="984976983"/>
    <nd ref="461008473"/>
    <nd ref="461008290"/>
    <nd ref="984976986"/>
    <nd ref="984977001"/>
    <nd ref="984977010"/>
    <nd ref="984976980"/>
    <nd ref="461008979"/>
    <nd ref="461009418"/>
    <tag k="addr:city" v="Зеленоград"/>
    <tag k="addr:country" v="RU"/>
    <tag k="addr:housenumber" v="844"/>
    <tag k="addr:street" v="8-й микрорайон"/>
    <tag k="amenity" v="school"/>
    <tag k="building" v="yes"/>
    <tag k="name" v="Школа №897"/>
  </way>
  <way id="38833575" version="6" timestamp="2012-03-27T11:48:34Z" uid="481934" user="iWowik" changeset="11115472">
    <nd ref="461009418"/>
    <nd ref="984976992"/>
    <nd ref="984976982"/>
    <nd ref="984976995"/>
    <nd ref="984976987"/>
    <nd ref="984977018"/>
    <nd ref="984976989"/>
    <nd ref="984977020"/>
    <nd ref="461009638"/>
    <nd ref="984977008"/>
    <nd ref="984977002"/>
    <nd ref="461008691"/>
    <nd ref="461008574"/>
    <nd ref="984977000"/>
    <nd ref="984977017"/>
    <nd ref="984976985"/>
    <nd ref="984977016"/>
    <nd ref="984977006"/>
    <nd ref="984976997"/>
    <nd ref="461008284"/>
    <nd ref="461009337"/>
    <nd ref="984976998"/>
    <nd ref="984976991"/>
    <nd ref="984976996"/>
    <nd ref="984977005"/>
    <nd ref="461009215"/>
    <nd ref="461009364"/>
    <nd ref="984976994"/>
    <nd ref="984977011"/>
    <nd ref="984976988"/>
    <nd ref="984976983"/>
    <nd ref="461008473"/>
    <nd ref="461008290"/>
    <nd ref="984976986"/>
    <nd ref="984977001"/>
    <nd ref="984977010"/>
    <nd ref="984976980"/>
    <nd ref="461008979"/>
    <nd ref="461009418"/>
    <tag k="addr:city" v="Зеленоград"/>
    <tag k="addr:country" v="RU"/>
    <tag k="addr:housenumber" v="844"/>
    <tag k="addr:region" v="Москва"/>
    <tag k="addr:street" v="8-й микрорайон"/>
    <tag k="amenity" v="school"/>
    <tag k="building" v="yes"/>
    <tag k="name" v="Школа №897"/>
  </way>
  <way id="38833576" version="4" timestamp="2011-01-18T13:03:19Z" uid="115477" user="wowik" changeset="7010197">
    <nd ref="461009324"/>
    <nd ref="461009533"/>
    <nd ref="461008453"/>
    <nd ref="461009513"/>
    <nd ref="461009324"/>
    <tag k="addr:city" v="Зеленоград"/>
    <tag k="addr:housenumber" v="811"/>
    <tag k="addr:street" v="8-й Микрорайон"/>
    <tag k="building" v="yes"/>
    <tag k="building:levels" v="9"/>
    <tag k="building:use" v="residential"/>
    <tag k="is_in" v="Russia"/>
  </way>
  <way id="38833576" version="5" timestamp="2011-06-07T20:46:48Z" uid="133332" user="AMDmi3" changeset="8374030">
    <nd ref="461009324"/>
    <nd ref="461009533"/>
    <nd ref="461008453"/>
    <nd ref="461009513"/>
    <nd ref="461009324"/>
    <tag k="addr:city" v="Зеленоград"/>
    <tag k="addr:housenumber" v="811"/>
    <tag k="addr:street" v="8-й микрорайон"/>
    <tag k="building" v="yes"/>
    <tag k="building:levels" v="9"/>
    <tag k="building:use" v="residential"/>
    <tag k="is_in" v="Russia"/>
  </way>
  <way id="38833576" version="6" timestamp="2011-09-13T10:28:44Z" uid="29320" user="Komяpa" changeset="9288237">
    <nd ref="461009324"/>
    <nd ref="461009533"/>
    <nd ref="461008453"/>
    <nd ref="461009513"/>
    <nd ref="461009324"/>
    <tag k="addr:city" v="Зеленоград"/>
    <tag k="addr:country" v="RU"/>
    <tag k="addr:housenumber" v="811"/>
    <tag k="addr:street" v="8-й микрорайон"/>
    <tag k="building" v="yes"/>
    <tag k="building:levels" v="9"/>
    <tag k="building:use" v="residential"/>
  </way>
  <way id="38833576" version="7" timestamp="2012-03-02T12:39:13Z" uid="481934" user="iWowik" changeset="10847859">
    <nd ref="461009324"/>
    <nd ref="461009533"/>
    <nd ref="461008453"/>
    <nd ref="461009513"/>
    <nd ref="461009324"/>
    <tag k="addr:city" v="Зеленоград"/>
    <tag k="addr:country" v="RU"/>
    <tag k="addr:housenumber" v="811"/>
    <tag k="addr:street" v="8-й микрорайон"/>
    <tag k="building" v="apartments"/>
    <tag k="building:levels" v="9"/>
    <tag k="building:use" v="residential"/>
  </way>
  <way id="38833576" version="8" timestamp="2012-03-27T11:46:18Z" uid="481934" user="iWowik" changeset="11115472">
    <nd ref="461009324"/>
    <nd ref="461009533"/>
    <nd ref="461008453"/>
    <nd ref="461009513"/>
    <nd ref="461009324"/>
    <tag k="addr:city" v="Зеленоград"/>
    <tag k="addr:country" v="RU"/>
    <tag k="addr:housenumber" v="811"/>
    <tag k="addr:region" v="Москва"/>
    <tag k="addr:street" v="8-й микрорайон"/>
    <tag k="building" v="apartments"/>
    <tag k="building:levels" v="9"/>
    <tag k="building:use" v="residential"/>
  </way>
  <way id="38833577" version="3" timestamp="2011-01-18T13:03:24Z" uid="115477" user="wowik" changeset="7010197">
    <nd ref="461008151"/>
    <nd ref="461009213"/>
    <nd ref="461008510"/>
    <nd ref="461008637"/>
    <nd ref="461008355"/>
    <nd ref="461009141"/>
    <nd ref="461009301"/>
    <nd ref="461008294"/>
    <nd ref="461008528"/>
    <nd ref="461009358"/>
    <nd ref="461008541"/>
    <nd ref="461008924"/>
    <nd ref="461008151"/>
    <tag k="addr:city" v="Зеленоград"/>
    <tag k="addr:housenumber" v="807"/>
    <tag k="addr:street" v="8-й Микрорайон"/>
    <tag k="building" v="yes"/>
    <tag k="building:use" v="residential"/>
    <tag k="is_in" v="Russia"/>
  </way>
  <way id="38833577" version="4" timestamp="2011-06-07T20:46:48Z" uid="133332" user="AMDmi3" changeset="8374030">
    <nd ref="461008151"/>
    <nd ref="461009213"/>
    <nd ref="461008510"/>
    <nd ref="461008637"/>
    <nd ref="461008355"/>
    <nd ref="461009141"/>
    <nd ref="461009301"/>
    <nd ref="461008294"/>
    <nd ref="461008528"/>
    <nd ref="461009358"/>
    <nd ref="461008541"/>
    <nd ref="461008924"/>
    <nd ref="461008151"/>
    <tag k="addr:city" v="Зеленоград"/>
    <tag k="addr:housenumber" v="807"/>
    <tag k="addr:street" v="8-й микрорайон"/>
    <tag k="building" v="yes"/>
    <tag k="building:use" v="residential"/>
    <tag k="is_in" v="Russia"/>
  </way>
  <way id="38833577" version="5" timestamp="2011-09-13T10:28:42Z" uid="29320" user="Komяpa" changeset="9288237">
    <nd ref="461008151"/>
    <nd ref="461009213"/>
    <nd ref="461008510"/>
    <nd ref="461008637"/>
    <nd ref="461008355"/>
    <nd ref="461009141"/>
    <nd ref="461009301"/>
    <nd ref="461008294"/>
    <nd ref="461008528"/>
    <nd ref="461009358"/>
    <nd ref="461008541"/>
    <nd ref="461008924"/>
    <nd ref="461008151"/>
    <tag k="addr:city" v="Зеленоград"/>
    <tag k="addr:country" v="RU"/>
    <tag k="addr:housenumber" v="807"/>
    <tag k="addr:street" v="8-й микрорайон"/>
    <tag k="building" v="yes"/>
    <tag k="building:use" v="residential"/>
  </way>
  <way id="38833577" version="6" timestamp="2012-03-27T11:46:17Z" uid="481934" user="iWowik" changeset="11115472">
    <nd ref="461008151"/>
    <nd ref="461009213"/>
    <nd ref="461008510"/>
    <nd ref="461008637"/>
    <nd ref="461008355"/>
    <nd ref="461009141"/>
    <nd ref="461009301"/>
    <nd ref="461008294"/>
    <nd ref="461008528"/>
    <nd ref="461009358"/>
    <nd ref="461008541"/>
    <nd ref="461008924"/>
    <nd ref="461008151"/>
    <tag k="addr:city" v="Зеленоград"/>
    <tag k="addr:country" v="RU"/>
    <tag k="addr:housenumber" v="807"/>
    <tag k="addr:region" v="Москва"/>
    <tag k="addr:street" v="8-й микрорайон"/>
    <tag k="building" v="yes"/>
    <tag k="building:use" v="residential"/>
  </way>
  <way id="38833578" version="6" timestamp="2011-01-18T12:20:55Z" uid="115477" user="wowik" changeset="7009789">
    <nd ref="461009796"/>
    <nd ref="461009555"/>
    <nd ref="1108920168"/>
    <nd ref="1108919604"/>
    <nd ref="461008974"/>
    <nd ref="461008823"/>
    <nd ref="461008879"/>
    <nd ref="1108919777"/>
    <nd ref="461009796"/>
    <tag k="addr:city" v="Зеленоград"/>
    <tag k="addr:housenumber" v="803"/>
    <tag k="addr:street" v="8-й Микрорайон"/>
    <tag k="building" v="yes"/>
    <tag k="building:levels" v="9"/>
    <tag k="is_in" v="Russia"/>
  </way>
  <way id="38833578" version="7" timestamp="2011-01-18T13:03:06Z" uid="115477" user="wowik" changeset="7010197">
    <nd ref="461009796"/>
    <nd ref="461009555"/>
    <nd ref="1108920168"/>
    <nd ref="1108919604"/>
    <nd ref="461008974"/>
    <nd ref="461008823"/>
    <nd ref="461008879"/>
    <nd ref="1108919777"/>
    <nd ref="461009796"/>
    <tag k="addr:city" v="Зеленоград"/>
    <tag k="addr:housenumber" v="803"/>
    <tag k="addr:street" v="8-й Микрорайон"/>
    <tag k="building" v="yes"/>
    <tag k="building:levels" v="9"/>
    <tag k="building:use" v="residential"/>
    <tag k="is_in" v="Russia"/>
  </way>
  <way id="38833578" version="8" timestamp="2011-06-07T20:46:49Z" uid="133332" user="AMDmi3" changeset="8374030">
    <nd ref="461009796"/>
    <nd ref="461009555"/>
    <nd ref="1108920168"/>
    <nd ref="1108919604"/>
    <nd ref="461008974"/>
    <nd ref="461008823"/>
    <nd ref="461008879"/>
    <nd ref="1108919777"/>
    <nd ref="461009796"/>
    <tag k="addr:city" v="Зеленоград"/>
    <tag k="addr:housenumber" v="803"/>
    <tag k="addr:street" v="8-й микрорайон"/>
    <tag k="building" v="yes"/>
    <tag k="building:levels" v="9"/>
    <tag k="building:use" v="residential"/>
    <tag k="is_in" v="Russia"/>
  </way>
  <way id="38833578" version="9" timestamp="2011-09-13T10:28:40Z" uid="29320" user="Komяpa" changeset="9288237">
    <nd ref="461009796"/>
    <nd ref="461009555"/>
    <nd ref="1108920168"/>
    <nd ref="1108919604"/>
    <nd ref="461008974"/>
    <nd ref="461008823"/>
    <nd ref="461008879"/>
    <nd ref="1108919777"/>
    <nd ref="461009796"/>
    <tag k="addr:city" v="Зеленоград"/>
    <tag k="addr:country" v="RU"/>
    <tag k="addr:housenumber" v="803"/>
    <tag k="addr:street" v="8-й микрорайон"/>
    <tag k="building" v="yes"/>
    <tag k="building:levels" v="9"/>
    <tag k="building:use" v="residential"/>
  </way>
  <way id="38833578" version="10" timestamp="2012-03-27T11:46:15Z" uid="481934" user="iWowik" changeset="11115472">
    <nd ref="461009796"/>
    <nd ref="461009555"/>
    <nd ref="1108920168"/>
    <nd ref="1108919604"/>
    <nd ref="461008974"/>
    <nd ref="461008823"/>
    <nd ref="461008879"/>
    <nd ref="1108919777"/>
    <nd ref="461009796"/>
    <tag k="addr:city" v="Зеленоград"/>
    <tag k="addr:country" v="RU"/>
    <tag k="addr:housenumber" v="803"/>
    <tag k="addr:region" v="Москва"/>
    <tag k="addr:street" v="8-й микрорайон"/>
    <tag k="building" v="yes"/>
    <tag k="building:levels" v="9"/>
    <tag k="building:use" v="residential"/>
  </way>
  <way id="38833580" version="3" timestamp="2010-11-11T07:06:55Z" uid="115477" user="wowik" changeset="6341405">
    <nd ref="461009388"/>
    <nd ref="461009564"/>
    <nd ref="461009518"/>
    <nd ref="984982624"/>
    <nd ref="984982626"/>
    <nd ref="461009174"/>
    <nd ref="461008957"/>
    <nd ref="461009522"/>
    <nd ref="984982625"/>
    <nd ref="984982622"/>
    <nd ref="461009630"/>
    <nd ref="461008478"/>
    <nd ref="461008523"/>
    <nd ref="461009388"/>
    <tag k="addr:city" v="Зеленоград"/>
    <tag k="addr:housenumber" v="834Б"/>
    <tag k="addr:street" v="8-й Микрорайон"/>
    <tag k="building" v="yes"/>
    <tag k="is_in" v="Russia"/>
  </way>
  <way id="38833580" version="4" timestamp="2010-11-11T09:21:49Z" uid="115477" user="wowik" changeset="6342038">
    <nd ref="461009522"/>
    <nd ref="985058654"/>
    <nd ref="985058658"/>
    <nd ref="461009388"/>
    <nd ref="461009564"/>
    <nd ref="461009518"/>
    <nd ref="984982624"/>
    <nd ref="984982626"/>
    <nd ref="461009174"/>
    <nd ref="461008957"/>
    <nd ref="461009522"/>
    <tag k="addr:city" v="Зеленоград"/>
    <tag k="addr:housenumber" v="834Б"/>
    <tag k="addr:street" v="8-й Микрорайон"/>
    <tag k="building" v="yes"/>
    <tag k="is_in" v="Russia"/>
  </way>
  <way id="38833580" version="5" timestamp="2011-01-25T16:50:59Z" uid="115477" user="wowik" changeset="7085363">
    <nd ref="461009522"/>
    <nd ref="461009388"/>
    <nd ref="461009564"/>
    <nd ref="984982626"/>
    <nd ref="461009174"/>
    <nd ref="461008957"/>
    <nd ref="461009522"/>
    <tag k="addr:city" v="Зеленоград"/>
    <tag k="addr:housenumber" v="834Б"/>
    <tag k="addr:street" v="8-й Микрорайон"/>
    <tag k="building" v="yes"/>
    <tag k="is_in" v="Russia"/>
  </way>
  <way id="38833580" version="6" timestamp="2011-06-07T20:46:45Z" uid="133332" user="AMDmi3" changeset="8374030">
    <nd ref="461009522"/>
    <nd ref="461009388"/>
    <nd ref="461009564"/>
    <nd ref="984982626"/>
    <nd ref="461009174"/>
    <nd ref="461008957"/>
    <nd ref="461009522"/>
    <tag k="addr:city" v="Зеленоград"/>
    <tag k="addr:housenumber" v="834Б"/>
    <tag k="addr:street" v="8-й микрорайон"/>
    <tag k="building" v="yes"/>
    <tag k="is_in" v="Russia"/>
  </way>
  <way id="38833580" version="7" timestamp="2011-09-13T10:28:55Z" uid="29320" user="Komяpa" changeset="9288237">
    <nd ref="461009522"/>
    <nd ref="461009388"/>
    <nd ref="461009564"/>
    <nd ref="984982626"/>
    <nd ref="461009174"/>
    <nd ref="461008957"/>
    <nd ref="461009522"/>
    <tag k="addr:city" v="Зеленоград"/>
    <tag k="addr:country" v="RU"/>
    <tag k="addr:housenumber" v="834Б"/>
    <tag k="addr:street" v="8-й микрорайон"/>
    <tag k="building" v="yes"/>
  </way>
  <way id="38833580" version="8" timestamp="2012-03-27T11:46:32Z" uid="481934" user="iWowik" changeset="11115472">
    <nd ref="461009522"/>
    <nd ref="461009388"/>
    <nd ref="461009564"/>
    <nd ref="984982626"/>
    <nd ref="461009174"/>
    <nd ref="461008957"/>
    <nd ref="461009522"/>
    <tag k="addr:city" v="Зеленоград"/>
    <tag k="addr:country" v="RU"/>
    <tag k="addr:housenumber" v="834Б"/>
    <tag k="addr:region" v="Москва"/>
    <tag k="addr:street" v="8-й микрорайон"/>
    <tag k="building" v="yes"/>
  </way>
  <way id="38833581" version="3" timestamp="2011-01-17T15:14:13Z" uid="115477" user="wowik" changeset="7000395">
    <nd ref="461009493"/>
    <nd ref="461008598"/>
    <nd ref="461009279"/>
    <nd ref="1107649031"/>
    <nd ref="1107648910"/>
    <nd ref="1107649116"/>
    <nd ref="1107649064"/>
    <nd ref="461009821"/>
    <nd ref="461009083"/>
    <nd ref="461008997"/>
    <nd ref="461008791"/>
    <nd ref="461008555"/>
    <nd ref="461009285"/>
    <nd ref="461008517"/>
    <nd ref="1107648921"/>
    <nd ref="1107648997"/>
    <nd ref="1107648988"/>
    <nd ref="1107649123"/>
    <nd ref="1107649085"/>
    <nd ref="1107649106"/>
    <nd ref="461008558"/>
    <nd ref="461008971"/>
    <nd ref="1107648871"/>
    <nd ref="1107648958"/>
    <nd ref="461009493"/>
    <tag k="addr:city" v="Зеленоград"/>
    <tag k="addr:housenumber" v="855"/>
    <tag k="addr:street" v="8-й Микрорайон"/>
    <tag k="amenity" v="college"/>
    <tag k="building" v="yes"/>
    <tag k="is_in" v="Russia"/>
    <tag k="name" v="Технологический колледж №49"/>
  </way>
  <way id="38833581" version="4" timestamp="2011-06-07T20:46:45Z" uid="133332" user="AMDmi3" changeset="8374030">
    <nd ref="461009493"/>
    <nd ref="461008598"/>
    <nd ref="461009279"/>
    <nd ref="1107649031"/>
    <nd ref="1107648910"/>
    <nd ref="1107649116"/>
    <nd ref="1107649064"/>
    <nd ref="461009821"/>
    <nd ref="461009083"/>
    <nd ref="461008997"/>
    <nd ref="461008791"/>
    <nd ref="461008555"/>
    <nd ref="461009285"/>
    <nd ref="461008517"/>
    <nd ref="1107648921"/>
    <nd ref="1107648997"/>
    <nd ref="1107648988"/>
    <nd ref="1107649123"/>
    <nd ref="1107649085"/>
    <nd ref="1107649106"/>
    <nd ref="461008558"/>
    <nd ref="461008971"/>
    <nd ref="1107648871"/>
    <nd ref="1107648958"/>
    <nd ref="461009493"/>
    <tag k="addr:city" v="Зеленоград"/>
    <tag k="addr:housenumber" v="855"/>
    <tag k="addr:street" v="8-й микрорайон"/>
    <tag k="amenity" v="college"/>
    <tag k="building" v="yes"/>
    <tag k="is_in" v="Russia"/>
    <tag k="name" v="Технологический колледж №49"/>
  </way>
  <way id="38833581" version="5" timestamp="2011-09-13T10:31:28Z" uid="29320" user="Komяpa" changeset="9288237">
    <nd ref="461009493"/>
    <nd ref="461008598"/>
    <nd ref="461009279"/>
    <nd ref="1107649031"/>
    <nd ref="1107648910"/>
    <nd ref="1107649116"/>
    <nd ref="1107649064"/>
    <nd ref="461009821"/>
    <nd ref="461009083"/>
    <nd ref="461008997"/>
    <nd ref="461008791"/>
    <nd ref="461008555"/>
    <nd ref="461009285"/>
    <nd ref="461008517"/>
    <nd ref="1107648921"/>
    <nd ref="1107648997"/>
    <nd ref="1107648988"/>
    <nd ref="1107649123"/>
    <nd ref="1107649085"/>
    <nd ref="1107649106"/>
    <nd ref="461008558"/>
    <nd ref="461008971"/>
    <nd ref="1107648871"/>
    <nd ref="1107648958"/>
    <nd ref="461009493"/>
    <tag k="addr:city" v="Зеленоград"/>
    <tag k="addr:country" v="RU"/>
    <tag k="addr:housenumber" v="855"/>
    <tag k="addr:street" v="8-й микрорайон"/>
    <tag k="amenity" v="college"/>
    <tag k="building" v="yes"/>
    <tag k="name" v="Технологический колледж №49"/>
  </way>
  <way id="38833581" version="6" timestamp="2012-03-27T11:48:03Z" uid="481934" user="iWowik" changeset="11115472">
    <nd ref="461009493"/>
    <nd ref="461008598"/>
    <nd ref="461009279"/>
    <nd ref="1107649031"/>
    <nd ref="1107648910"/>
    <nd ref="1107649116"/>
    <nd ref="1107649064"/>
    <nd ref="461009821"/>
    <nd ref="461009083"/>
    <nd ref="461008997"/>
    <nd ref="461008791"/>
    <nd ref="461008555"/>
    <nd ref="461009285"/>
    <nd ref="461008517"/>
    <nd ref="1107648921"/>
    <nd ref="1107648997"/>
    <nd ref="1107648988"/>
    <nd ref="1107649123"/>
    <nd ref="1107649085"/>
    <nd ref="1107649106"/>
    <nd ref="461008558"/>
    <nd ref="461008971"/>
    <nd ref="1107648871"/>
    <nd ref="1107648958"/>
    <nd ref="461009493"/>
    <tag k="addr:city" v="Зеленоград"/>
    <tag k="addr:country" v="RU"/>
    <tag k="addr:housenumber" v="855"/>
    <tag k="addr:region" v="Москва"/>
    <tag k="addr:street" v="8-й микрорайон"/>
    <tag k="amenity" v="college"/>
    <tag k="building" v="yes"/>
    <tag k="name" v="Технологический колледж №49"/>
  </way>
  <way id="38833582" version="3" timestamp="2011-01-18T12:21:28Z" uid="115477" user="wowik" changeset="7009789">
    <nd ref="461009538"/>
    <nd ref="1108919519"/>
    <nd ref="1108919860"/>
    <nd ref="1108919127"/>
    <nd ref="1108919696"/>
    <nd ref="1108919754"/>
    <nd ref="1108919667"/>
    <nd ref="1108919195"/>
    <nd ref="1108919464"/>
    <nd ref="461009520"/>
    <nd ref="461009019"/>
    <nd ref="461009352"/>
    <nd ref="461008124"/>
    <nd ref="461009475"/>
    <nd ref="461009538"/>
    <tag k="addr:city" v="Зеленоград"/>
    <tag k="addr:housenumber" v="817"/>
    <tag k="addr:street" v="8-й Микрорайон"/>
    <tag k="amenity" v="school"/>
    <tag k="building" v="yes"/>
    <tag k="building:levels" v="3"/>
    <tag k="is_in" v="Russia"/>
    <tag k="name" v="Гимназия №1528"/>
  </way>
  <way id="38833582" version="4" timestamp="2011-06-07T20:46:46Z" uid="133332" user="AMDmi3" changeset="8374030">
    <nd ref="461009538"/>
    <nd ref="1108919519"/>
    <nd ref="1108919860"/>
    <nd ref="1108919127"/>
    <nd ref="1108919696"/>
    <nd ref="1108919754"/>
    <nd ref="1108919667"/>
    <nd ref="1108919195"/>
    <nd ref="1108919464"/>
    <nd ref="461009520"/>
    <nd ref="461009019"/>
    <nd ref="461009352"/>
    <nd ref="461008124"/>
    <nd ref="461009475"/>
    <nd ref="461009538"/>
    <tag k="addr:city" v="Зеленоград"/>
    <tag k="addr:housenumber" v="817"/>
    <tag k="addr:street" v="8-й микрорайон"/>
    <tag k="amenity" v="school"/>
    <tag k="building" v="yes"/>
    <tag k="building:levels" v="3"/>
    <tag k="is_in" v="Russia"/>
    <tag k="name" v="Гимназия №1528"/>
  </way>
  <way id="38833582" version="5" timestamp="2011-09-13T10:29:51Z" uid="29320" user="Komяpa" changeset="9288237">
    <nd ref="461009538"/>
    <nd ref="1108919519"/>
    <nd ref="1108919860"/>
    <nd ref="1108919127"/>
    <nd ref="1108919696"/>
    <nd ref="1108919754"/>
    <nd ref="1108919667"/>
    <nd ref="1108919195"/>
    <nd ref="1108919464"/>
    <nd ref="461009520"/>
    <nd ref="461009019"/>
    <nd ref="461009352"/>
    <nd ref="461008124"/>
    <nd ref="461009475"/>
    <nd ref="461009538"/>
    <tag k="addr:city" v="Зеленоград"/>
    <tag k="addr:country" v="RU"/>
    <tag k="addr:housenumber" v="817"/>
    <tag k="addr:street" v="8-й микрорайон"/>
    <tag k="amenity" v="school"/>
    <tag k="building" v="yes"/>
    <tag k="building:levels" v="3"/>
    <tag k="name" v="Гимназия №1528"/>
  </way>
  <way id="38833582" version="6" timestamp="2012-03-27T11:31:47Z" uid="481934" user="iWowik" changeset="11115472">
    <nd ref="461009538"/>
    <nd ref="1108919519"/>
    <nd ref="1108919860"/>
    <nd ref="1108919127"/>
    <nd ref="1108919696"/>
    <nd ref="1108919754"/>
    <nd ref="1108919667"/>
    <nd ref="1108919195"/>
    <nd ref="1108919464"/>
    <nd ref="461009520"/>
    <nd ref="461009019"/>
    <nd ref="461009352"/>
    <nd ref="461008124"/>
    <nd ref="461009475"/>
    <nd ref="461009538"/>
    <tag k="addr:city" v="Зеленоград"/>
    <tag k="addr:country" v="RU"/>
    <tag k="addr:housenumber" v="817"/>
    <tag k="addr:region" v="Москва"/>
    <tag k="addr:street" v="8-й микрорайон"/>
    <tag k="amenity" v="school"/>
    <tag k="building" v="yes"/>
    <tag k="building:levels" v="3"/>
    <tag k="name" v="Гимназия №1528"/>
  </way>
  <way id="38833583" version="3" timestamp="2011-01-18T12:22:05Z" uid="115477" user="wowik" changeset="7009789">
    <nd ref="461008467"/>
    <nd ref="1108920086"/>
    <nd ref="1108919983"/>
    <nd ref="1108920242"/>
    <nd ref="1108919465"/>
    <nd ref="1108919205"/>
    <nd ref="1108919859"/>
    <nd ref="461008948"/>
    <nd ref="461008544"/>
    <nd ref="461009312"/>
    <nd ref="461009553"/>
    <nd ref="461009671"/>
    <nd ref="1108919974"/>
    <nd ref="1108919648"/>
    <nd ref="461008467"/>
    <tag k="addr:city" v="Зеленоград"/>
    <tag k="addr:housenumber" v="818"/>
    <tag k="addr:street" v="8-й Микрорайон"/>
    <tag k="amenity" v="school"/>
    <tag k="building" v="yes"/>
    <tag k="building:levels" v="3"/>
    <tag k="is_in" v="Russia"/>
    <tag k="name" v="Школа №909"/>
  </way>
  <way id="38833583" version="4" timestamp="2011-06-07T20:46:47Z" uid="133332" user="AMDmi3" changeset="8374030">
    <nd ref="461008467"/>
    <nd ref="1108920086"/>
    <nd ref="1108919983"/>
    <nd ref="1108920242"/>
    <nd ref="1108919465"/>
    <nd ref="1108919205"/>
    <nd ref="1108919859"/>
    <nd ref="461008948"/>
    <nd ref="461008544"/>
    <nd ref="461009312"/>
    <nd ref="461009553"/>
    <nd ref="461009671"/>
    <nd ref="1108919974"/>
    <nd ref="1108919648"/>
    <nd ref="461008467"/>
    <tag k="addr:city" v="Зеленоград"/>
    <tag k="addr:housenumber" v="818"/>
    <tag k="addr:street" v="8-й микрорайон"/>
    <tag k="amenity" v="school"/>
    <tag k="building" v="yes"/>
    <tag k="building:levels" v="3"/>
    <tag k="is_in" v="Russia"/>
    <tag k="name" v="Школа №909"/>
  </way>
  <way id="38833583" version="5" timestamp="2011-09-13T10:31:58Z" uid="29320" user="Komяpa" changeset="9288237">
    <nd ref="461008467"/>
    <nd ref="1108920086"/>
    <nd ref="1108919983"/>
    <nd ref="1108920242"/>
    <nd ref="1108919465"/>
    <nd ref="1108919205"/>
    <nd ref="1108919859"/>
    <nd ref="461008948"/>
    <nd ref="461008544"/>
    <nd ref="461009312"/>
    <nd ref="461009553"/>
    <nd ref="461009671"/>
    <nd ref="1108919974"/>
    <nd ref="1108919648"/>
    <nd ref="461008467"/>
    <tag k="addr:city" v="Зеленоград"/>
    <tag k="addr:country" v="RU"/>
    <tag k="addr:housenumber" v="818"/>
    <tag k="addr:street" v="8-й микрорайон"/>
    <tag k="amenity" v="school"/>
    <tag k="building" v="yes"/>
    <tag k="building:levels" v="3"/>
    <tag k="name" v="Школа №909"/>
  </way>
  <way id="38833583" version="6" timestamp="2012-03-27T11:48:35Z" uid="481934" user="iWowik" changeset="11115472">
    <nd ref="461008467"/>
    <nd ref="1108920086"/>
    <nd ref="1108919983"/>
    <nd ref="1108920242"/>
    <nd ref="1108919465"/>
    <nd ref="1108919205"/>
    <nd ref="1108919859"/>
    <nd ref="461008948"/>
    <nd ref="461008544"/>
    <nd ref="461009312"/>
    <nd ref="461009553"/>
    <nd ref="461009671"/>
    <nd ref="1108919974"/>
    <nd ref="1108919648"/>
    <nd ref="461008467"/>
    <tag k="addr:city" v="Зеленоград"/>
    <tag k="addr:country" v="RU"/>
    <tag k="addr:housenumber" v="818"/>
    <tag k="addr:region" v="Москва"/>
    <tag k="addr:street" v="8-й микрорайон"/>
    <tag k="amenity" v="school"/>
    <tag k="building" v="yes"/>
    <tag k="building:levels" v="3"/>
    <tag k="name" v="Школа №909"/>
  </way>
  <way id="38833585" version="6" timestamp="2011-01-18T12:23:24Z" uid="115477" user="wowik" changeset="7009789">
    <nd ref="461008814"/>
    <nd ref="461009610"/>
    <nd ref="1108919612"/>
    <nd ref="1108920179"/>
    <nd ref="461009656"/>
    <nd ref="461009275"/>
    <nd ref="461008626"/>
    <nd ref="1108919441"/>
    <nd ref="461008814"/>
    <tag k="addr:city" v="Зеленоград"/>
    <tag k="addr:housenumber" v="801"/>
    <tag k="addr:street" v="8-й Микрорайон"/>
    <tag k="building" v="yes"/>
    <tag k="building:levels" v="9"/>
    <tag k="is_in" v="Russia"/>
  </way>
  <way id="38833585" version="7" timestamp="2011-01-18T13:03:21Z" uid="115477" user="wowik" changeset="7010197">
    <nd ref="461008814"/>
    <nd ref="461009610"/>
    <nd ref="1108919612"/>
    <nd ref="1108920179"/>
    <nd ref="461009656"/>
    <nd ref="461009275"/>
    <nd ref="461008626"/>
    <nd ref="1108919441"/>
    <nd ref="461008814"/>
    <tag k="addr:city" v="Зеленоград"/>
    <tag k="addr:housenumber" v="801"/>
    <tag k="addr:street" v="8-й Микрорайон"/>
    <tag k="building" v="yes"/>
    <tag k="building:levels" v="9"/>
    <tag k="building:use" v="residential"/>
    <tag k="is_in" v="Russia"/>
  </way>
  <way id="38833585" version="8" timestamp="2011-06-07T20:46:33Z" uid="133332" user="AMDmi3" changeset="8374030">
    <nd ref="461008814"/>
    <nd ref="461009610"/>
    <nd ref="1108919612"/>
    <nd ref="1108920179"/>
    <nd ref="461009656"/>
    <nd ref="461009275"/>
    <nd ref="461008626"/>
    <nd ref="1108919441"/>
    <nd ref="461008814"/>
    <tag k="addr:city" v="Зеленоград"/>
    <tag k="addr:housenumber" v="801"/>
    <tag k="addr:street" v="8-й микрорайон"/>
    <tag k="building" v="yes"/>
    <tag k="building:levels" v="9"/>
    <tag k="building:use" v="residential"/>
    <tag k="is_in" v="Russia"/>
  </way>
  <way id="38833585" version="9" timestamp="2011-09-13T10:28:39Z" uid="29320" user="Komяpa" changeset="9288237">
    <nd ref="461008814"/>
    <nd ref="461009610"/>
    <nd ref="1108919612"/>
    <nd ref="1108920179"/>
    <nd ref="461009656"/>
    <nd ref="461009275"/>
    <nd ref="461008626"/>
    <nd ref="1108919441"/>
    <nd ref="461008814"/>
    <tag k="addr:city" v="Зеленоград"/>
    <tag k="addr:country" v="RU"/>
    <tag k="addr:housenumber" v="801"/>
    <tag k="addr:street" v="8-й микрорайон"/>
    <tag k="building" v="yes"/>
    <tag k="building:levels" v="9"/>
    <tag k="building:use" v="residential"/>
  </way>
  <way id="38833585" version="10" timestamp="2012-03-27T11:46:13Z" uid="481934" user="iWowik" changeset="11115472">
    <nd ref="461008814"/>
    <nd ref="461009610"/>
    <nd ref="1108919612"/>
    <nd ref="1108920179"/>
    <nd ref="461009656"/>
    <nd ref="461009275"/>
    <nd ref="461008626"/>
    <nd ref="1108919441"/>
    <nd ref="461008814"/>
    <tag k="addr:city" v="Зеленоград"/>
    <tag k="addr:country" v="RU"/>
    <tag k="addr:housenumber" v="801"/>
    <tag k="addr:region" v="Москва"/>
    <tag k="addr:street" v="8-й микрорайон"/>
    <tag k="building" v="yes"/>
    <tag k="building:levels" v="9"/>
    <tag k="building:use" v="residential"/>
  </way>
  <way id="38833586" version="3" timestamp="2011-01-18T13:03:04Z" uid="115477" user="wowik" changeset="7010197">
    <nd ref="461008748"/>
    <nd ref="461009761"/>
    <nd ref="461009334"/>
    <nd ref="461008634"/>
    <nd ref="461009911"/>
    <nd ref="461009569"/>
    <nd ref="461009619"/>
    <nd ref="461008281"/>
    <nd ref="461009152"/>
    <nd ref="461009382"/>
    <nd ref="461009204"/>
    <nd ref="461009107"/>
    <nd ref="461008748"/>
    <tag k="addr:city" v="Зеленоград"/>
    <tag k="addr:housenumber" v="808"/>
    <tag k="addr:street" v="8-й Микрорайон"/>
    <tag k="building" v="yes"/>
    <tag k="building:use" v="residential"/>
    <tag k="is_in" v="Russia"/>
  </way>
  <way id="38833586" version="4" timestamp="2011-06-07T20:46:34Z" uid="133332" user="AMDmi3" changeset="8374030">
    <nd ref="461008748"/>
    <nd ref="461009761"/>
    <nd ref="461009334"/>
    <nd ref="461008634"/>
    <nd ref="461009911"/>
    <nd ref="461009569"/>
    <nd ref="461009619"/>
    <nd ref="461008281"/>
    <nd ref="461009152"/>
    <nd ref="461009382"/>
    <nd ref="461009204"/>
    <nd ref="461009107"/>
    <nd ref="461008748"/>
    <tag k="addr:city" v="Зеленоград"/>
    <tag k="addr:housenumber" v="808"/>
    <tag k="addr:street" v="8-й микрорайон"/>
    <tag k="building" v="yes"/>
    <tag k="building:use" v="residential"/>
    <tag k="is_in" v="Russia"/>
  </way>
  <way id="38833586" version="5" timestamp="2011-09-13T10:28:42Z" uid="29320" user="Komяpa" changeset="9288237">
    <nd ref="461008748"/>
    <nd ref="461009761"/>
    <nd ref="461009334"/>
    <nd ref="461008634"/>
    <nd ref="461009911"/>
    <nd ref="461009569"/>
    <nd ref="461009619"/>
    <nd ref="461008281"/>
    <nd ref="461009152"/>
    <nd ref="461009382"/>
    <nd ref="461009204"/>
    <nd ref="461009107"/>
    <nd ref="461008748"/>
    <tag k="addr:city" v="Зеленоград"/>
    <tag k="addr:country" v="RU"/>
    <tag k="addr:housenumber" v="808"/>
    <tag k="addr:street" v="8-й микрорайон"/>
    <tag k="building" v="yes"/>
    <tag k="building:use" v="residential"/>
  </way>
  <way id="38833586" version="6" timestamp="2012-03-27T11:46:18Z" uid="481934" user="iWowik" changeset="11115472">
    <nd ref="461008748"/>
    <nd ref="461009761"/>
    <nd ref="461009334"/>
    <nd ref="461008634"/>
    <nd ref="461009911"/>
    <nd ref="461009569"/>
    <nd ref="461009619"/>
    <nd ref="461008281"/>
    <nd ref="461009152"/>
    <nd ref="461009382"/>
    <nd ref="461009204"/>
    <nd ref="461009107"/>
    <nd ref="461008748"/>
    <tag k="addr:city" v="Зеленоград"/>
    <tag k="addr:country" v="RU"/>
    <tag k="addr:housenumber" v="808"/>
    <tag k="addr:region" v="Москва"/>
    <tag k="addr:street" v="8-й микрорайон"/>
    <tag k="building" v="yes"/>
    <tag k="building:use" v="residential"/>
  </way>
  <way id="38833587" version="3" timestamp="2010-07-09T10:27:51Z" uid="115477" user="wowik" changeset="5172542">
    <nd ref="461009218"/>
    <nd ref="461008992"/>
    <nd ref="807758377"/>
    <nd ref="461008904"/>
    <nd ref="461008898"/>
    <nd ref="461009721"/>
    <nd ref="461008873"/>
    <nd ref="461008393"/>
    <nd ref="461009478"/>
    <nd ref="807758378"/>
    <nd ref="461008436"/>
    <nd ref="461009525"/>
    <nd ref="461009425"/>
    <nd ref="461009318"/>
    <nd ref="461009218"/>
    <tag k="addr:city" v="Зеленоград"/>
    <tag k="addr:housenumber" v="839"/>
    <tag k="addr:street" v="8-й Микрорайон"/>
    <tag k="building" v="yes"/>
    <tag k="is_in" v="Russia"/>
  </way>
  <way id="38833587" version="4" timestamp="2010-11-11T06:59:45Z" uid="115477" user="wowik" changeset="6341405">
    <nd ref="461009218"/>
    <nd ref="461008992"/>
    <nd ref="807758377"/>
    <nd ref="461008904"/>
    <nd ref="461008898"/>
    <nd ref="461009721"/>
    <nd ref="461008873"/>
    <nd ref="984981409"/>
    <nd ref="461008393"/>
    <nd ref="984981415"/>
    <nd ref="461009478"/>
    <nd ref="807758378"/>
    <nd ref="461008436"/>
    <nd ref="984981423"/>
    <nd ref="461009525"/>
    <nd ref="984981432"/>
    <nd ref="461009425"/>
    <nd ref="461009318"/>
    <nd ref="461009218"/>
    <tag k="addr:city" v="Зеленоград"/>
    <tag k="addr:housenumber" v="839"/>
    <tag k="addr:street" v="8-й Микрорайон"/>
    <tag k="building" v="yes"/>
    <tag k="is_in" v="Russia"/>
  </way>
  <way id="38833587" version="5" timestamp="2010-11-11T21:31:55Z" uid="241531" user="dik_man" changeset="6347022">
    <nd ref="461008992"/>
    <nd ref="984981423"/>
    <nd ref="461009525"/>
    <nd ref="984981432"/>
    <nd ref="461009425"/>
    <nd ref="461009318"/>
    <nd ref="461009218"/>
    <nd ref="461008992"/>
    <tag k="building" v="yes"/>
  </way>
  <way id="38833587" version="6" timestamp="2012-03-27T08:14:27Z" uid="481934" user="iWowik" changeset="11113698">
    <nd ref="461008992"/>
    <nd ref="984981423"/>
    <nd ref="461009525"/>
    <nd ref="984981432"/>
    <nd ref="461009425"/>
    <nd ref="461009318"/>
    <nd ref="461009218"/>
    <nd ref="461008992"/>
    <tag k="addr:city" v="Зеленоград"/>
    <tag k="addr:country" v="RU"/>
    <tag k="building" v="yes"/>
  </way>
  <way id="38833587" version="7" timestamp="2012-03-27T11:55:32Z" uid="481934" user="iWowik" changeset="11115472">
    <nd ref="461008992"/>
    <nd ref="984981423"/>
    <nd ref="461009525"/>
    <nd ref="984981432"/>
    <nd ref="461009425"/>
    <nd ref="461009318"/>
    <nd ref="461009218"/>
    <nd ref="461008992"/>
    <tag k="addr:city" v="Зеленоград"/>
    <tag k="addr:country" v="RU"/>
    <tag k="addr:region" v="Москва"/>
    <tag k="building" v="yes"/>
  </way>
  <way id="38833588" version="3" timestamp="2010-11-13T11:21:01Z" uid="115477" user="wowik" changeset="6356871">
    <nd ref="461008800"/>
    <nd ref="461008199"/>
    <nd ref="461009652"/>
    <nd ref="461009574"/>
    <nd ref="461008800"/>
    <tag k="addr:city" v="Зеленоград"/>
    <tag k="addr:housenumber" v="3с1"/>
    <tag k="addr:street" v="8-й Микрорайон"/>
    <tag k="building" v="yes"/>
    <tag k="is_in" v="Russia"/>
    <tag k="leisure" v="sports_centre"/>
    <tag k="name" v="ФОК"/>
  </way>
  <way id="38833588" version="4" timestamp="2011-01-17T15:13:57Z" uid="115477" user="wowik" changeset="7000395">
    <nd ref="461008800"/>
    <nd ref="461008199"/>
    <nd ref="461009652"/>
    <nd ref="461009574"/>
    <nd ref="461008800"/>
    <tag k="addr:city" v="Зеленоград"/>
    <tag k="addr:housenumber" v="3с1"/>
    <tag k="addr:street" v="Проезд N 774"/>
    <tag k="building" v="yes"/>
    <tag k="is_in" v="Russia"/>
    <tag k="leisure" v="sports_centre"/>
    <tag k="name" v="ФОК"/>
  </way>
  <way id="38833588" version="5" timestamp="2011-01-19T15:51:26Z" uid="70696" user="xybot" changeset="7021015">
    <nd ref="461008800"/>
    <nd ref="461008199"/>
    <nd ref="461009652"/>
    <nd ref="461009574"/>
    <nd ref="461008800"/>
    <tag k="addr:city" v="Зеленоград"/>
    <tag k="addr:housenumber" v="3 с1"/>
    <tag k="addr:street" v="Проезд N 774"/>
    <tag k="building" v="yes"/>
    <tag k="is_in" v="Russia"/>
    <tag k="leisure" v="sports_centre"/>
    <tag k="name" v="ФОК"/>
  </way>
  <way id="38833588" version="6" timestamp="2011-01-30T20:32:07Z" uid="115477" user="wowik" changeset="7139277">
    <nd ref="461008800"/>
    <nd ref="461008199"/>
    <nd ref="461009652"/>
    <nd ref="461009574"/>
    <nd ref="461008800"/>
    <tag k="addr:city" v="Зеленоград"/>
    <tag k="addr:housenumber" v="3 с1"/>
    <tag k="addr:street" v="Проезд N 474"/>
    <tag k="building" v="yes"/>
    <tag k="is_in" v="Russia"/>
    <tag k="leisure" v="sports_centre"/>
    <tag k="name" v="ФОК"/>
  </way>
  <way id="38833588" version="7" timestamp="2011-02-02T20:16:19Z" uid="115477" user="wowik" changeset="7168254">
    <nd ref="461008800"/>
    <nd ref="461008199"/>
    <nd ref="461009652"/>
    <nd ref="461009574"/>
    <nd ref="461008800"/>
    <tag k="addr:city" v="Зеленоград"/>
    <tag k="addr:housenumber" v="6"/>
    <tag k="addr:street" v="Проезд N 474"/>
    <tag k="building" v="yes"/>
    <tag k="is_in" v="Russia"/>
    <tag k="leisure" v="sports_centre"/>
    <tag k="name" v="ФОК"/>
  </way>
  <way id="38833588" version="8" timestamp="2011-09-13T10:31:35Z" uid="29320" user="Komяpa" changeset="9288237">
    <nd ref="461008800"/>
    <nd ref="461008199"/>
    <nd ref="461009652"/>
    <nd ref="461009574"/>
    <nd ref="461008800"/>
    <tag k="addr:city" v="Зеленоград"/>
    <tag k="addr:country" v="RU"/>
    <tag k="addr:housenumber" v="6"/>
    <tag k="addr:street" v="Проезд N 474"/>
    <tag k="building" v="yes"/>
    <tag k="leisure" v="sports_centre"/>
    <tag k="name" v="ФОК"/>
  </way>
  <way id="38833588" version="9" timestamp="2012-03-27T11:48:09Z" uid="481934" user="iWowik" changeset="11115472">
    <nd ref="461008800"/>
    <nd ref="461008199"/>
    <nd ref="461009652"/>
    <nd ref="461009574"/>
    <nd ref="461008800"/>
    <tag k="addr:city" v="Зеленоград"/>
    <tag k="addr:country" v="RU"/>
    <tag k="addr:housenumber" v="6"/>
    <tag k="addr:region" v="Москва"/>
    <tag k="addr:street" v="Проезд N 474"/>
    <tag k="building" v="yes"/>
    <tag k="leisure" v="sports_centre"/>
    <tag k="name" v="ФОК"/>
  </way>
  <way id="38833592" version="3" timestamp="2011-01-25T16:50:58Z" uid="115477" user="wowik" changeset="7085363">
    <nd ref="461009118"/>
    <nd ref="461009560"/>
    <nd ref="461009330"/>
    <nd ref="461009138"/>
    <nd ref="461009118"/>
    <tag k="addr:city" v="Зеленоград"/>
    <tag k="addr:housenumber" v="831"/>
    <tag k="addr:street" v="8-й Микрорайон"/>
    <tag k="building" v="yes"/>
    <tag k="building:levels" v="9"/>
    <tag k="is_in" v="Russia"/>
  </way>
  <way id="38833592" version="4" timestamp="2011-06-07T20:46:36Z" uid="133332" user="AMDmi3" changeset="8374030">
    <nd ref="461009118"/>
    <nd ref="461009560"/>
    <nd ref="461009330"/>
    <nd ref="461009138"/>
    <nd ref="461009118"/>
    <tag k="addr:city" v="Зеленоград"/>
    <tag k="addr:housenumber" v="831"/>
    <tag k="addr:street" v="8-й микрорайон"/>
    <tag k="building" v="yes"/>
    <tag k="building:levels" v="9"/>
    <tag k="is_in" v="Russia"/>
  </way>
  <way id="38833592" version="5" timestamp="2011-09-13T10:28:53Z" uid="29320" user="Komяpa" changeset="9288237">
    <nd ref="461009118"/>
    <nd ref="461009560"/>
    <nd ref="461009330"/>
    <nd ref="461009138"/>
    <nd ref="461009118"/>
    <tag k="addr:city" v="Зеленоград"/>
    <tag k="addr:country" v="RU"/>
    <tag k="addr:housenumber" v="831"/>
    <tag k="addr:street" v="8-й микрорайон"/>
    <tag k="building" v="yes"/>
    <tag k="building:levels" v="9"/>
  </way>
  <way id="38833592" version="6" timestamp="2012-03-27T11:46:31Z" uid="481934" user="iWowik" changeset="11115472">
    <nd ref="461009118"/>
    <nd ref="461009560"/>
    <nd ref="461009330"/>
    <nd ref="461009138"/>
    <nd ref="461009118"/>
    <tag k="addr:city" v="Зеленоград"/>
    <tag k="addr:country" v="RU"/>
    <tag k="addr:housenumber" v="831"/>
    <tag k="addr:region" v="Москва"/>
    <tag k="addr:street" v="8-й микрорайон"/>
    <tag k="building" v="yes"/>
    <tag k="building:levels" v="9"/>
  </way>
  <way id="38833594" version="3" timestamp="2010-09-10T15:00:25Z" uid="115477" user="wowik" changeset="5741766">
    <nd ref="461009625"/>
    <nd ref="461008402"/>
    <nd ref="461008326"/>
    <nd ref="461009432"/>
    <nd ref="461009625"/>
    <tag k="addr:city" v="Зеленоград"/>
    <tag k="addr:housenumber" v="829"/>
    <tag k="addr:street" v="8-й Микрорайон"/>
    <tag k="comment" v="Запланирован к сносу"/>
    <tag k="is_in" v="Russia"/>
  </way>
  <way id="38833594" version="4" timestamp="2010-11-11T06:34:14Z" uid="115477" user="wowik" changeset="6341387"/>
  <way id="38833595" version="4" timestamp="2011-01-17T19:16:37Z" uid="115477" user="wowik" changeset="7003020">
    <nd ref="461009516"/>
    <nd ref="461009071"/>
    <nd ref="461008203"/>
    <nd ref="461008635"/>
    <nd ref="461009649"/>
    <nd ref="461008405"/>
    <nd ref="461009834"/>
    <nd ref="461008521"/>
    <nd ref="461008257"/>
    <nd ref="461009420"/>
    <nd ref="461009224"/>
    <nd ref="461008212"/>
    <nd ref="461009693"/>
    <nd ref="461008706"/>
    <nd ref="1107979787"/>
    <nd ref="1107979811"/>
    <nd ref="1107979791"/>
    <nd ref="1107979851"/>
    <nd ref="461008162"/>
    <nd ref="461009434"/>
    <nd ref="461009516"/>
    <tag k="addr:city" v="Зеленоград"/>
    <tag k="addr:housenumber" v="816"/>
    <tag k="addr:street" v="8-й Микрорайон"/>
    <tag k="amenity" v="kindergarten"/>
    <tag k="building" v="yes"/>
    <tag k="comment" v="Детский сад №1263"/>
    <tag k="is_in" v="Russia"/>
    <tag k="name" v="Детский сад №1264"/>
  </way>
  <way id="38833595" version="5" timestamp="2011-06-07T20:46:37Z" uid="133332" user="AMDmi3" changeset="8374030">
    <nd ref="461009516"/>
    <nd ref="461009071"/>
    <nd ref="461008203"/>
    <nd ref="461008635"/>
    <nd ref="461009649"/>
    <nd ref="461008405"/>
    <nd ref="461009834"/>
    <nd ref="461008521"/>
    <nd ref="461008257"/>
    <nd ref="461009420"/>
    <nd ref="461009224"/>
    <nd ref="461008212"/>
    <nd ref="461009693"/>
    <nd ref="461008706"/>
    <nd ref="1107979787"/>
    <nd ref="1107979811"/>
    <nd ref="1107979791"/>
    <nd ref="1107979851"/>
    <nd ref="461008162"/>
    <nd ref="461009434"/>
    <nd ref="461009516"/>
    <tag k="addr:city" v="Зеленоград"/>
    <tag k="addr:housenumber" v="816"/>
    <tag k="addr:street" v="8-й микрорайон"/>
    <tag k="amenity" v="kindergarten"/>
    <tag k="building" v="yes"/>
    <tag k="comment" v="Детский сад №1263"/>
    <tag k="is_in" v="Russia"/>
    <tag k="name" v="Детский сад №1264"/>
  </way>
  <way id="38833595" version="6" timestamp="2011-09-13T10:30:05Z" uid="29320" user="Komяpa" changeset="9288237">
    <nd ref="461009516"/>
    <nd ref="461009071"/>
    <nd ref="461008203"/>
    <nd ref="461008635"/>
    <nd ref="461009649"/>
    <nd ref="461008405"/>
    <nd ref="461009834"/>
    <nd ref="461008521"/>
    <nd ref="461008257"/>
    <nd ref="461009420"/>
    <nd ref="461009224"/>
    <nd ref="461008212"/>
    <nd ref="461009693"/>
    <nd ref="461008706"/>
    <nd ref="1107979787"/>
    <nd ref="1107979811"/>
    <nd ref="1107979791"/>
    <nd ref="1107979851"/>
    <nd ref="461008162"/>
    <nd ref="461009434"/>
    <nd ref="461009516"/>
    <tag k="addr:city" v="Зеленоград"/>
    <tag k="addr:country" v="RU"/>
    <tag k="addr:housenumber" v="816"/>
    <tag k="addr:street" v="8-й микрорайон"/>
    <tag k="amenity" v="kindergarten"/>
    <tag k="building" v="yes"/>
    <tag k="comment" v="Детский сад №1263"/>
    <tag k="name" v="Детский сад №1264"/>
  </way>
  <way id="38833595" version="7" timestamp="2012-03-27T11:32:10Z" uid="481934" user="iWowik" changeset="11115472">
    <nd ref="461009516"/>
    <nd ref="461009071"/>
    <nd ref="461008203"/>
    <nd ref="461008635"/>
    <nd ref="461009649"/>
    <nd ref="461008405"/>
    <nd ref="461009834"/>
    <nd ref="461008521"/>
    <nd ref="461008257"/>
    <nd ref="461009420"/>
    <nd ref="461009224"/>
    <nd ref="461008212"/>
    <nd ref="461009693"/>
    <nd ref="461008706"/>
    <nd ref="1107979787"/>
    <nd ref="1107979811"/>
    <nd ref="1107979791"/>
    <nd ref="1107979851"/>
    <nd ref="461008162"/>
    <nd ref="461009434"/>
    <nd ref="461009516"/>
    <tag k="addr:city" v="Зеленоград"/>
    <tag k="addr:country" v="RU"/>
    <tag k="addr:housenumber" v="816"/>
    <tag k="addr:region" v="Москва"/>
    <tag k="addr:street" v="8-й микрорайон"/>
    <tag k="amenity" v="kindergarten"/>
    <tag k="building" v="yes"/>
    <tag k="comment" v="Детский сад №1263"/>
    <tag k="name" v="Детский сад №1264"/>
  </way>
  <way id="38833596" version="3" timestamp="2010-11-13T11:20:55Z" uid="115477" user="wowik" changeset="6356871">
    <nd ref="461008754"/>
    <nd ref="461008807"/>
    <nd ref="461009181"/>
    <nd ref="461009873"/>
    <nd ref="461008754"/>
    <tag k="addr:city" v="Зеленоград"/>
    <tag k="addr:housenumber" v="860"/>
    <tag k="addr:street" v="8-й Микрорайон"/>
    <tag k="building" v="yes"/>
    <tag k="description" v="Фитнес-центр &quot;Малино&quot;"/>
    <tag k="is_in" v="Russia"/>
    <tag k="leisure" v="sports_centre"/>
  </way>
  <way id="38833596" version="4" timestamp="2011-06-07T20:46:35Z" uid="133332" user="AMDmi3" changeset="8374030">
    <nd ref="461008754"/>
    <nd ref="461008807"/>
    <nd ref="461009181"/>
    <nd ref="461009873"/>
    <nd ref="461008754"/>
    <tag k="addr:city" v="Зеленоград"/>
    <tag k="addr:housenumber" v="860"/>
    <tag k="addr:street" v="8-й микрорайон"/>
    <tag k="building" v="yes"/>
    <tag k="description" v="Фитнес-центр &quot;Малино&quot;"/>
    <tag k="is_in" v="Russia"/>
    <tag k="leisure" v="sports_centre"/>
  </way>
  <way id="38833596" version="5" timestamp="2011-09-13T10:29:01Z" uid="29320" user="Komяpa" changeset="9288237">
    <nd ref="461008754"/>
    <nd ref="461008807"/>
    <nd ref="461009181"/>
    <nd ref="461009873"/>
    <nd ref="461008754"/>
    <tag k="addr:city" v="Зеленоград"/>
    <tag k="addr:country" v="RU"/>
    <tag k="addr:housenumber" v="860"/>
    <tag k="addr:street" v="8-й микрорайон"/>
    <tag k="building" v="yes"/>
    <tag k="description" v="Фитнес-центр &quot;Малино&quot;"/>
    <tag k="leisure" v="sports_centre"/>
  </way>
  <way id="38833596" version="6" timestamp="2012-03-27T11:46:40Z" uid="481934" user="iWowik" changeset="11115472">
    <nd ref="461008754"/>
    <nd ref="461008807"/>
    <nd ref="461009181"/>
    <nd ref="461009873"/>
    <nd ref="461008754"/>
    <tag k="addr:city" v="Зеленоград"/>
    <tag k="addr:country" v="RU"/>
    <tag k="addr:housenumber" v="860"/>
    <tag k="addr:region" v="Москва"/>
    <tag k="addr:street" v="8-й микрорайон"/>
    <tag k="building" v="yes"/>
    <tag k="description" v="Фитнес-центр &quot;Малино&quot;"/>
    <tag k="leisure" v="sports_centre"/>
  </way>
  <way id="38833597" version="2" timestamp="2011-01-14T16:43:00Z" uid="115477" user="wowik" changeset="6968851">
    <nd ref="461009481"/>
    <nd ref="461009413"/>
    <nd ref="461008654"/>
    <nd ref="461009767"/>
    <nd ref="461009688"/>
    <nd ref="461008399"/>
    <nd ref="461009481"/>
    <tag k="addr:city" v="Зеленоград"/>
    <tag k="addr:housenumber" v="5"/>
    <tag k="addr:street" v="8-й Микрорайон"/>
    <tag k="comment" v="Частные гаражи / private parking"/>
    <tag k="is_in" v="Russia"/>
    <tag k="landuse" v="private"/>
  </way>
  <way id="38833597" version="3" timestamp="2011-01-17T15:13:52Z" uid="115477" user="wowik" changeset="7000395">
    <nd ref="461009481"/>
    <nd ref="461009413"/>
    <nd ref="461008654"/>
    <nd ref="461009767"/>
    <nd ref="461009688"/>
    <nd ref="461008399"/>
    <nd ref="461009481"/>
    <tag k="addr:city" v="Зеленоград"/>
    <tag k="addr:housenumber" v="5"/>
    <tag k="addr:street" v="Проезд N 774"/>
    <tag k="comment" v="Частные гаражи / private parking"/>
    <tag k="is_in" v="Russia"/>
    <tag k="landuse" v="private"/>
  </way>
  <way id="38833597" version="4" timestamp="2011-01-30T20:32:05Z" uid="115477" user="wowik" changeset="7139277">
    <nd ref="461009481"/>
    <nd ref="461009413"/>
    <nd ref="461008654"/>
    <nd ref="461009767"/>
    <nd ref="461009688"/>
    <nd ref="461008399"/>
    <nd ref="461009481"/>
    <tag k="addr:city" v="Зеленоград"/>
    <tag k="addr:housenumber" v="5"/>
    <tag k="addr:street" v="Проезд N 474"/>
    <tag k="comment" v="Частные гаражи / private parking"/>
    <tag k="is_in" v="Russia"/>
    <tag k="landuse" v="private"/>
  </way>
  <way id="38833597" version="5" timestamp="2011-02-01T16:23:41Z" uid="135021" user="andriano" changeset="7156250">
    <nd ref="461009481"/>
    <nd ref="461009413"/>
    <nd ref="461008654"/>
    <nd ref="461009767"/>
    <nd ref="461009688"/>
    <nd ref="461008399"/>
    <nd ref="461009481"/>
    <tag k="access" v="private"/>
    <tag k="addr:city" v="Зеленоград"/>
    <tag k="addr:housenumber" v="5"/>
    <tag k="addr:street" v="Проезд N 474"/>
    <tag k="amenity" v="parking"/>
    <tag k="comment" v="Частные гаражи / private parking"/>
    <tag k="is_in" v="Russia"/>
  </way>
  <way id="38833597" version="6" timestamp="2011-02-02T20:16:18Z" uid="115477" user="wowik" changeset="7168254">
    <nd ref="461009481"/>
    <nd ref="461009413"/>
    <nd ref="461008654"/>
    <nd ref="461009767"/>
    <nd ref="461009688"/>
    <nd ref="461008399"/>
    <nd ref="461009481"/>
    <tag k="access" v="private"/>
    <tag k="addr:city" v="Зеленоград"/>
    <tag k="addr:housenumber" v="5"/>
    <tag k="addr:street" v="Проезд N 474"/>
    <tag k="amenity" v="parking"/>
    <tag k="building" v="yes"/>
    <tag k="comment" v="Частные гаражи / private parking"/>
    <tag k="is_in" v="Russia"/>
  </way>
  <way id="38833597" version="7" timestamp="2011-09-13T10:27:17Z" uid="29320" user="Komяpa" changeset="9288237">
    <nd ref="461009481"/>
    <nd ref="461009413"/>
    <nd ref="461008654"/>
    <nd ref="461009767"/>
    <nd ref="461009688"/>
    <nd ref="461008399"/>
    <nd ref="461009481"/>
    <tag k="access" v="private"/>
    <tag k="addr:city" v="Зеленоград"/>
    <tag k="addr:country" v="RU"/>
    <tag k="addr:housenumber" v="5"/>
    <tag k="addr:street" v="Проезд N 474"/>
    <tag k="amenity" v="parking"/>
    <tag k="building" v="yes"/>
    <tag k="comment" v="Частные гаражи / private parking"/>
  </way>
  <way id="38833597" version="8" timestamp="2012-03-27T11:44:07Z" uid="481934" user="iWowik" changeset="11115472">
    <nd ref="461009481"/>
    <nd ref="461009413"/>
    <nd ref="461008654"/>
    <nd ref="461009767"/>
    <nd ref="461009688"/>
    <nd ref="461008399"/>
    <nd ref="461009481"/>
    <tag k="access" v="private"/>
    <tag k="addr:city" v="Зеленоград"/>
    <tag k="addr:country" v="RU"/>
    <tag k="addr:housenumber" v="5"/>
    <tag k="addr:region" v="Москва"/>
    <tag k="addr:street" v="Проезд N 474"/>
    <tag k="amenity" v="parking"/>
    <tag k="building" v="yes"/>
    <tag k="comment" v="Частные гаражи / private parking"/>
  </way>
  <way id="38833599" version="2" timestamp="2010-11-13T10:03:17Z" uid="115477" user="wowik" changeset="6356871">
    <nd ref="461008118"/>
    <nd ref="461009880"/>
    <nd ref="461008931"/>
    <nd ref="461009830"/>
    <nd ref="461009752"/>
    <nd ref="461009740"/>
    <nd ref="461009812"/>
    <nd ref="461008579"/>
    <nd ref="461008118"/>
    <tag k="addr:city" v="Зеленоград"/>
    <tag k="addr:street" v="8-й Микрорайон"/>
    <tag k="comment" v="Строящееся здание / building under construction"/>
    <tag k="is_in" v="Russia"/>
    <tag k="landuse" v="construction"/>
  </way>
  <way id="38833599" version="3" timestamp="2011-01-14T16:44:25Z" uid="115477" user="wowik" changeset="6968851">
    <nd ref="461008118"/>
    <nd ref="461008931"/>
    <nd ref="461009830"/>
    <nd ref="461009752"/>
    <nd ref="461009740"/>
    <nd ref="461009812"/>
    <nd ref="461008579"/>
    <nd ref="461008118"/>
    <tag k="addr:city" v="Зеленоград"/>
    <tag k="addr:street" v="8-й Микрорайон"/>
    <tag k="comment" v="Строящееся здание / building under construction"/>
    <tag k="is_in" v="Russia"/>
    <tag k="landuse" v="construction"/>
  </way>
  <way id="38833599" version="4" timestamp="2011-06-07T20:46:35Z" uid="133332" user="AMDmi3" changeset="8374030">
    <nd ref="461008118"/>
    <nd ref="461008931"/>
    <nd ref="461009830"/>
    <nd ref="461009752"/>
    <nd ref="461009740"/>
    <nd ref="461009812"/>
    <nd ref="461008579"/>
    <nd ref="461008118"/>
    <tag k="addr:city" v="Зеленоград"/>
    <tag k="addr:street" v="8-й микрорайон"/>
    <tag k="comment" v="Строящееся здание / building under construction"/>
    <tag k="is_in" v="Russia"/>
    <tag k="landuse" v="construction"/>
  </way>
  <way id="38833599" version="5" timestamp="2012-03-27T11:56:10Z" uid="481934" user="iWowik" changeset="11115472">
    <nd ref="461008118"/>
    <nd ref="461008931"/>
    <nd ref="461009830"/>
    <nd ref="461009752"/>
    <nd ref="461009740"/>
    <nd ref="461009812"/>
    <nd ref="461008579"/>
    <nd ref="461008118"/>
    <tag k="addr:city" v="Зеленоград"/>
    <tag k="addr:country" v="RU"/>
    <tag k="addr:region" v="Москва"/>
    <tag k="addr:street" v="8-й микрорайон"/>
    <tag k="comment" v="Строящееся здание / building under construction"/>
    <tag k="is_in" v="Russia"/>
    <tag k="landuse" v="construction"/>
  </way>
  <way id="38833600" version="3" timestamp="2010-11-13T11:20:56Z" uid="115477" user="wowik" changeset="6356871">
    <nd ref="461009616"/>
    <nd ref="461009401"/>
    <nd ref="461009853"/>
    <nd ref="461008533"/>
    <nd ref="461008859"/>
    <nd ref="461009502"/>
    <nd ref="461008228"/>
    <nd ref="461009455"/>
    <nd ref="461009616"/>
    <tag k="addr:city" v="Зеленоград"/>
    <tag k="addr:housenumber" v="836"/>
    <tag k="addr:street" v="8-й Микрорайон"/>
    <tag k="amenity" v="public_building"/>
    <tag k="building" v="yes"/>
    <tag k="description" v="Управление дорожного хозяйства и благоустройства Зеленоградского АО"/>
    <tag k="is_in" v="Russia"/>
    <tag k="name" v="УДХ и Б"/>
  </way>
  <way id="38833600" version="4" timestamp="2011-06-07T20:46:28Z" uid="133332" user="AMDmi3" changeset="8374030">
    <nd ref="461009616"/>
    <nd ref="461009401"/>
    <nd ref="461009853"/>
    <nd ref="461008533"/>
    <nd ref="461008859"/>
    <nd ref="461009502"/>
    <nd ref="461008228"/>
    <nd ref="461009455"/>
    <nd ref="461009616"/>
    <tag k="addr:city" v="Зеленоград"/>
    <tag k="addr:housenumber" v="836"/>
    <tag k="addr:street" v="8-й микрорайон"/>
    <tag k="amenity" v="public_building"/>
    <tag k="building" v="yes"/>
    <tag k="description" v="Управление дорожного хозяйства и благоустройства Зеленоградского АО"/>
    <tag k="is_in" v="Russia"/>
    <tag k="name" v="УДХ и Б"/>
  </way>
  <way id="38833600" version="5" timestamp="2011-09-13T10:31:32Z" uid="29320" user="Komяpa" changeset="9288237">
    <nd ref="461009616"/>
    <nd ref="461009401"/>
    <nd ref="461009853"/>
    <nd ref="461008533"/>
    <nd ref="461008859"/>
    <nd ref="461009502"/>
    <nd ref="461008228"/>
    <nd ref="461009455"/>
    <nd ref="461009616"/>
    <tag k="addr:city" v="Зеленоград"/>
    <tag k="addr:country" v="RU"/>
    <tag k="addr:housenumber" v="836"/>
    <tag k="addr:street" v="8-й микрорайон"/>
    <tag k="amenity" v="public_building"/>
    <tag k="building" v="yes"/>
    <tag k="description" v="Управление дорожного хозяйства и благоустройства Зеленоградского АО"/>
    <tag k="name" v="УДХ и Б"/>
  </way>
  <way id="38833600" version="6" timestamp="2012-03-27T11:48:06Z" uid="481934" user="iWowik" changeset="11115472">
    <nd ref="461009616"/>
    <nd ref="461009401"/>
    <nd ref="461009853"/>
    <nd ref="461008533"/>
    <nd ref="461008859"/>
    <nd ref="461009502"/>
    <nd ref="461008228"/>
    <nd ref="461009455"/>
    <nd ref="461009616"/>
    <tag k="addr:city" v="Зеленоград"/>
    <tag k="addr:country" v="RU"/>
    <tag k="addr:housenumber" v="836"/>
    <tag k="addr:region" v="Москва"/>
    <tag k="addr:street" v="8-й микрорайон"/>
    <tag k="amenity" v="public_building"/>
    <tag k="building" v="yes"/>
    <tag k="description" v="Управление дорожного хозяйства и благоустройства Зеленоградского АО"/>
    <tag k="name" v="УДХ и Б"/>
  </way>
  <way id="38833538" version="7" timestamp="2012-07-20T23:48:20Z" uid="722137" user="OSMF Redaction Account" changeset="12396479">
    <nd ref="461008976"/>
    <nd ref="461008147"/>
    <nd ref="461009664"/>
    <nd ref="461008396"/>
    <nd ref="461008439"/>
    <nd ref="461008976"/>
    <tag k="addr:city" v="Зеленоград"/>
    <tag k="addr:country" v="RU"/>
    <tag k="addr:region" v="Москва"/>
    <tag k="building" v="yes"/>
  </way>
  <way id="38833543" version="8" timestamp="2012-07-20T23:48:13Z" uid="722137" user="OSMF Redaction Account" changeset="12396479">
    <nd ref="461008408"/>
    <nd ref="461008702"/>
    <nd ref="461008964"/>
    <nd ref="461009608"/>
    <nd ref="461009903"/>
    <nd ref="461008592"/>
    <nd ref="1470673785"/>
    <nd ref="461008955"/>
    <nd ref="461009898"/>
    <nd ref="461008657"/>
    <nd ref="461009642"/>
    <nd ref="461009509"/>
    <nd ref="461008408"/>
    <tag k="addr:city" v="Зеленоград"/>
    <tag k="addr:country" v="RU"/>
    <tag k="addr:region" v="Москва"/>
    <tag k="building" v="yes"/>
  </way>
  <way id="38833544" version="8" timestamp="2012-07-20T23:45:55Z" uid="722137" user="OSMF Redaction Account" changeset="12396430">
    <nd ref="461008531"/>
    <nd ref="461009320"/>
    <tag k="addr:city" v="Зеленоград"/>
    <tag k="addr:country" v="RU"/>
    <tag k="addr:housenumber" v="822"/>
    <tag k="addr:region" v="Москва"/>
    <tag k="addr:street" v="8-й микрорайон"/>
    <tag k="amenity" v="school"/>
    <tag k="building" v="yes"/>
    <tag k="comment" v="Начальная школа №1717"/>
    <tag k="name" v="Нач.школа №1717"/>
  </way>
  <way id="38833545" version="8" timestamp="2012-07-20T23:46:02Z" uid="722137" user="OSMF Redaction Account" changeset="12396430">
    <nd ref="461009484"/>
    <nd ref="461009328"/>
    <nd ref="461008446"/>
    <nd ref="461008139"/>
    <nd ref="461008990"/>
    <tag k="addr:city" v="Зеленоград"/>
    <tag k="addr:country" v="RU"/>
    <tag k="addr:region" v="Москва"/>
    <tag k="building" v="yes"/>
  </way>
  <way id="38833546" version="8" timestamp="2012-07-20T23:48:17Z" uid="722137" user="OSMF Redaction Account" changeset="12396479">
    <nd ref="461008683"/>
    <nd ref="461008650"/>
    <nd ref="461009746"/>
    <nd ref="461009847"/>
    <nd ref="461008683"/>
    <tag k="addr:city" v="Зеленоград"/>
    <tag k="addr:country" v="RU"/>
    <tag k="addr:housenumber" v="833"/>
    <tag k="addr:region" v="Москва"/>
    <tag k="addr:street" v="8-й микрорайон"/>
    <tag k="building" v="yes"/>
  </way>
  <way id="38833547" version="9" timestamp="2012-07-20T23:47:51Z" uid="722137" user="OSMF Redaction Account" changeset="12396479">
    <nd ref="461009369"/>
    <nd ref="461009675"/>
    <nd ref="461008694"/>
    <nd ref="461009377"/>
    <nd ref="461009369"/>
    <tag k="addr:city" v="Зеленоград"/>
    <tag k="addr:country" v="RU"/>
    <tag k="addr:housenumber" v="852"/>
    <tag k="addr:region" v="Москва"/>
    <tag k="addr:street" v="8-й микрорайон"/>
    <tag k="amenity" v="kindergarten"/>
    <tag k="building" v="yes"/>
    <tag k="comment" v="Детский сад №444"/>
    <tag k="name" v="Д/c №444"/>
  </way>
  <way id="38833547" version="10" timestamp="2012-09-04T21:22:51Z" uid="336354" user="esaulenka" changeset="12987964">
    <nd ref="1899070391"/>
    <nd ref="1899070394"/>
    <nd ref="1899070393"/>
    <nd ref="461009675"/>
    <nd ref="461008694"/>
    <nd ref="1899070396"/>
    <nd ref="1899070395"/>
    <nd ref="1899070392"/>
    <nd ref="1899070391"/>
    <tag k="addr:city" v="Зеленоград"/>
    <tag k="addr:country" v="RU"/>
    <tag k="addr:housenumber" v="852"/>
    <tag k="addr:region" v="Москва"/>
    <tag k="addr:street" v="8-й микрорайон"/>
    <tag k="amenity" v="kindergarten"/>
    <tag k="building" v="yes"/>
    <tag k="name" v="Детский сад № 444"/>
  </way>
  <way id="38833549" version="7" timestamp="2012-07-20T23:48:19Z" uid="722137" user="OSMF Redaction Account" changeset="12396479">
    <nd ref="461009543"/>
    <nd ref="461008495"/>
    <nd ref="461008987"/>
    <nd ref="461008959"/>
    <nd ref="461009543"/>
    <tag k="addr:city" v="Зеленоград"/>
    <tag k="addr:country" v="RU"/>
    <tag k="addr:housenumber" v="832"/>
    <tag k="addr:region" v="Москва"/>
    <tag k="addr:street" v="8-й микрорайон"/>
    <tag k="building" v="yes"/>
  </way>
  <way id="38833550" version="7" timestamp="2012-07-20T23:45:56Z" uid="722137" user="OSMF Redaction Account" changeset="12396430">
    <nd ref="461008432"/>
    <nd ref="461009065"/>
    <nd ref="461009596"/>
    <nd ref="461009308"/>
    <nd ref="461008432"/>
    <tag k="addr:city" v="Зеленоград"/>
    <tag k="addr:country" v="RU"/>
    <tag k="addr:housenumber" v="828А"/>
    <tag k="addr:region" v="Москва"/>
    <tag k="addr:street" v="8-й микрорайон"/>
    <tag k="building" v="yes"/>
  </way>
  <way id="38833551" version="8" timestamp="2012-07-20T22:08:48Z" uid="722137" user="OSMF Redaction Account" changeset="12394207">
    <nd ref="461009465"/>
    <nd ref="461008130"/>
    <nd ref="461008464"/>
    <nd ref="461008269"/>
    <nd ref="461009465"/>
    <tag k="addr:city" v="Зеленоград"/>
    <tag k="addr:country" v="RU"/>
    <tag k="addr:region" v="Москва"/>
    <tag k="addr:street" v="8-й микрорайон"/>
    <tag k="building" v="yes"/>
    <tag k="comment" v="Кондитерский цех"/>
    <tag k="man_made" v="works"/>
  </way>
  <way id="38833554" version="10" timestamp="2012-07-20T22:08:55Z" uid="722137" user="OSMF Redaction Account" changeset="12394207">
    <nd ref="461008414"/>
    <nd ref="461008459"/>
    <nd ref="461008716"/>
    <nd ref="461009487"/>
    <nd ref="461008414"/>
    <tag k="addr:city" v="Зеленоград"/>
    <tag k="addr:country" v="RU"/>
    <tag k="addr:housenumber" v="812"/>
    <tag k="addr:postcode" v="124527"/>
    <tag k="addr:region" v="Москва"/>
    <tag k="addr:street" v="8-й микрорайон"/>
    <tag k="building" v="apartments"/>
    <tag k="building:levels" v="9"/>
  </way>
  <way id="38833555" version="9" timestamp="2012-07-20T22:08:53Z" uid="722137" user="OSMF Redaction Account" changeset="12394207">
    <nd ref="461008561"/>
    <nd ref="461008342"/>
    <nd ref="461009002"/>
    <nd ref="461009684"/>
    <nd ref="461009349"/>
    <nd ref="461009591"/>
    <nd ref="461009468"/>
    <nd ref="461009623"/>
    <nd ref="461009342"/>
    <nd ref="461009269"/>
    <nd ref="461009800"/>
    <nd ref="461008577"/>
    <nd ref="461009113"/>
    <nd ref="461008643"/>
    <nd ref="461008674"/>
    <nd ref="461009235"/>
    <nd ref="461008561"/>
    <tag k="addr:city" v="Зеленоград"/>
    <tag k="addr:country" v="RU"/>
    <tag k="addr:housenumber" v="819"/>
    <tag k="addr:region" v="Москва"/>
    <tag k="addr:street" v="8-й микрорайон"/>
    <tag k="building" v="yes"/>
    <tag k="comment" v="Детский сад №1264"/>
  </way>
  <way id="38833556" version="7" timestamp="2012-07-20T23:47:57Z" uid="722137" user="OSMF Redaction Account" changeset="12396479">
    <nd ref="461009870"/>
    <nd ref="461008937"/>
    <nd ref="461009008"/>
    <nd ref="461009895"/>
    <nd ref="461009870"/>
    <tag k="addr:city" v="Зеленоград"/>
    <tag k="addr:country" v="RU"/>
    <tag k="addr:housenumber" v="837"/>
    <tag k="addr:region" v="Москва"/>
    <tag k="addr:street" v="8-й микрорайон"/>
    <tag k="building" v="yes"/>
  </way>
  <way id="38833558" version="9" timestamp="2012-06-16T06:10:06Z" uid="241531" user="dik_man" changeset="11911181">
    <nd ref="461009496"/>
    <nd ref="461008217"/>
    <nd ref="461008389"/>
    <nd ref="1108920198"/>
    <nd ref="1108919638"/>
    <nd ref="461009887"/>
    <nd ref="461008765"/>
    <nd ref="1108919963"/>
    <nd ref="1108919444"/>
    <nd ref="461009195"/>
    <nd ref="461008485"/>
    <nd ref="461008788"/>
    <nd ref="1789580118"/>
    <nd ref="1789580117"/>
    <nd ref="1789580116"/>
    <nd ref="1789580119"/>
    <nd ref="461009496"/>
    <tag k="addr:city" v="Зеленоград"/>
    <tag k="addr:country" v="RU"/>
    <tag k="addr:housenumber" v="805"/>
    <tag k="addr:region" v="Москва"/>
    <tag k="addr:street" v="8-й микрорайон"/>
    <tag k="building" v="yes"/>
    <tag k="healthcare" v="clinic"/>
    <tag k="name" v="Детская поликлиника №105"/>
  </way>
  <way id="38833558" version="10" timestamp="2012-07-20T22:08:59Z" uid="722137" user="OSMF Redaction Account" changeset="12394292">
    <nd ref="461009496"/>
    <nd ref="461008217"/>
    <nd ref="461008389"/>
    <nd ref="461009887"/>
    <nd ref="461008765"/>
    <nd ref="461009195"/>
    <nd ref="461008485"/>
    <nd ref="461008788"/>
    <nd ref="1789580118"/>
    <nd ref="1789580117"/>
    <nd ref="1789580116"/>
    <nd ref="1789580119"/>
    <nd ref="461009496"/>
    <tag k="addr:city" v="Зеленоград"/>
    <tag k="addr:country" v="RU"/>
    <tag k="addr:housenumber" v="805"/>
    <tag k="addr:region" v="Москва"/>
    <tag k="addr:street" v="8-й микрорайон"/>
    <tag k="building" v="yes"/>
    <tag k="healthcare" v="clinic"/>
    <tag k="name" v="Детская поликлиника №105"/>
  </way>
  <way id="38833560" version="8" timestamp="2012-07-20T23:46:03Z" uid="722137" user="OSMF Redaction Account" changeset="12396430">
    <nd ref="461009727"/>
    <nd ref="461009548"/>
    <nd ref="461008361"/>
    <nd ref="461008833"/>
    <nd ref="461009613"/>
    <nd ref="461009727"/>
    <tag k="addr:city" v="Зеленоград"/>
    <tag k="addr:country" v="RU"/>
    <tag k="addr:region" v="Москва"/>
    <tag k="building" v="yes"/>
  </way>
  <way id="38833561" version="11" timestamp="2012-07-20T22:09:02Z" uid="722137" user="OSMF Redaction Account" changeset="12394292">
    <nd ref="461009074"/>
    <nd ref="461008908"/>
    <nd ref="461008818"/>
    <nd ref="461008308"/>
    <nd ref="461008589"/>
    <nd ref="461009925"/>
    <nd ref="461009074"/>
    <tag k="addr:city" v="Зеленоград"/>
    <tag k="addr:country" v="RU"/>
    <tag k="addr:housenumber" v="813А"/>
    <tag k="addr:region" v="Москва"/>
    <tag k="addr:street" v="8-й микрорайон"/>
    <tag k="building" v="yes"/>
    <tag k="comment" v="Универсам &quot;Пятерочка&quot;"/>
    <tag k="name" v="8-й ТЦ"/>
    <tag k="shop" v="supermarket"/>
  </way>
  <way id="38833562" version="11" timestamp="2012-07-20T22:08:59Z" uid="722137" user="OSMF Redaction Account" changeset="12394292">
    <nd ref="461009288"/>
    <nd ref="461009077"/>
    <nd ref="461009185"/>
    <nd ref="461009473"/>
    <nd ref="461009176"/>
    <nd ref="461009288"/>
    <tag k="addr:city" v="Зеленоград"/>
    <tag k="addr:country" v="RU"/>
    <tag k="addr:housenumber" v="802"/>
    <tag k="addr:region" v="Москва"/>
    <tag k="addr:street" v="8-й микрорайон"/>
    <tag k="building" v="yes"/>
    <tag k="building:levels" v="9"/>
  </way>
  <way id="38833564" version="9" timestamp="2012-07-20T23:45:52Z" uid="722137" user="OSMF Redaction Account" changeset="12396430">
    <nd ref="461008300"/>
    <nd ref="461009293"/>
    <nd ref="461009361"/>
    <nd ref="461009840"/>
    <nd ref="461008300"/>
    <tag k="addr:city" v="Зеленоград"/>
    <tag k="addr:country" v="RU"/>
    <tag k="addr:housenumber" v="827"/>
    <tag k="addr:region" v="Москва"/>
    <tag k="addr:street" v="8-й микрорайон"/>
    <tag k="amenity" v="kindergarten"/>
    <tag k="building" v="yes"/>
    <tag k="comment" v="Детский сад №513"/>
    <tag k="name" v="Д/c №513"/>
  </way>
  <way id="38833565" version="12" timestamp="2012-07-20T23:45:57Z" uid="722137" user="OSMF Redaction Account" changeset="12396430">
    <nd ref="461009439"/>
    <nd ref="461008385"/>
    <nd ref="461009856"/>
    <nd ref="461009526"/>
    <nd ref="461009439"/>
    <tag k="addr:city" v="Зеленоград"/>
    <tag k="addr:country" v="RU"/>
    <tag k="addr:housenumber" v="843"/>
    <tag k="addr:region" v="Москва"/>
    <tag k="addr:street" v="8-й микрорайон"/>
    <tag k="building" v="yes"/>
    <tag k="comment" v="Торговый центр &quot;Солнечный&quot;"/>
    <tag k="name" v="&quot;Солнечный&quot;"/>
    <tag k="shop" v="supermarket"/>
  </way>
  <way id="38833566" version="9" timestamp="2012-07-20T22:08:54Z" uid="722137" user="OSMF Redaction Account" changeset="12394207">
    <nd ref="461009471"/>
    <nd ref="461009636"/>
    <nd ref="461008412"/>
    <nd ref="461008550"/>
    <nd ref="461009471"/>
    <tag k="addr:city" v="Зеленоград"/>
    <tag k="addr:country" v="RU"/>
    <tag k="addr:housenumber" v="810"/>
    <tag k="addr:region" v="Москва"/>
    <tag k="addr:street" v="8-й микрорайон"/>
    <tag k="building" v="apartments"/>
    <tag k="building:levels" v="9"/>
  </way>
  <way id="38833569" version="9" timestamp="2012-07-20T22:08:50Z" uid="722137" user="OSMF Redaction Account" changeset="12394207">
    <nd ref="461009163"/>
    <nd ref="461008744"/>
    <nd ref="461009661"/>
    <nd ref="461009716"/>
    <nd ref="461009163"/>
    <tag k="addr:city" v="Зеленоград"/>
    <tag k="addr:country" v="RU"/>
    <tag k="addr:housenumber" v="815"/>
    <tag k="addr:region" v="Москва"/>
    <tag k="addr:street" v="8-й микрорайон"/>
    <tag k="building" v="apartments"/>
    <tag k="building:levels" v="9"/>
  </way>
  <way id="38833571" version="7" timestamp="2012-07-20T22:08:49Z" uid="722137" user="OSMF Redaction Account" changeset="12394207">
    <nd ref="461009023"/>
    <nd ref="461009632"/>
    <nd ref="461008759"/>
    <nd ref="461009602"/>
    <nd ref="461009023"/>
    <tag k="addr:city" v="Зеленоград"/>
    <tag k="addr:country" v="RU"/>
    <tag k="addr:housenumber" v="856"/>
    <tag k="addr:region" v="Москва"/>
    <tag k="addr:street" v="8-й микрорайон"/>
    <tag k="building" v="yes"/>
    <tag k="comment" v="Милицейское общежитие"/>
  </way>
  <way id="38833571" version="8" timestamp="2012-08-04T17:22:43Z" uid="109327" user="OverQuantum" changeset="12611880">
    <nd ref="461009023"/>
    <nd ref="461009632"/>
    <nd ref="461008759"/>
    <nd ref="1107648955"/>
    <nd ref="1107648880"/>
    <nd ref="1107649133"/>
    <nd ref="1107649025"/>
    <nd ref="461009602"/>
    <nd ref="461009023"/>
    <tag k="addr:city" v="Зеленоград"/>
    <tag k="addr:country" v="RU"/>
    <tag k="addr:housenumber" v="856"/>
    <tag k="addr:region" v="Москва"/>
    <tag k="addr:street" v="8-й микрорайон"/>
    <tag k="building" v="yes"/>
    <tag k="comment" v="Милицейское общежитие"/>
  </way>
  <way id="38833571" version="9" timestamp="2012-08-31T09:44:06Z" uid="760215" user="pnorman redaction revert" changeset="12928566">
    <nd ref="461009023"/>
    <nd ref="461009632"/>
    <nd ref="461008759"/>
    <nd ref="1107648880"/>
    <nd ref="1107649133"/>
    <nd ref="1107649025"/>
    <nd ref="461009602"/>
    <nd ref="461009023"/>
    <tag k="addr:city" v="Зеленоград"/>
    <tag k="addr:country" v="RU"/>
    <tag k="addr:housenumber" v="856"/>
    <tag k="addr:region" v="Москва"/>
    <tag k="addr:street" v="8-й микрорайон"/>
    <tag k="building" v="yes"/>
    <tag k="comment" v="Милицейское общежитие"/>
  </way>
  <way id="38833571" version="10" timestamp="2012-08-31T18:53:10Z" uid="109327" user="OverQuantum" changeset="12934618">
    <nd ref="461009023"/>
    <nd ref="461009632"/>
    <nd ref="461008759"/>
    <nd ref="1891993924"/>
    <nd ref="1107648880"/>
    <nd ref="1107649133"/>
    <nd ref="1107649025"/>
    <nd ref="461009602"/>
    <nd ref="461009023"/>
    <tag k="addr:city" v="Зеленоград"/>
    <tag k="addr:country" v="RU"/>
    <tag k="addr:housenumber" v="856"/>
    <tag k="addr:region" v="Москва"/>
    <tag k="addr:street" v="8-й микрорайон"/>
    <tag k="building" v="yes"/>
    <tag k="comment" v="Милицейское общежитие"/>
  </way>
  <way id="38833572" version="7" timestamp="2012-07-20T22:08:48Z" uid="722137" user="OSMF Redaction Account" changeset="12394207">
    <nd ref="461009443"/>
    <nd ref="461009541"/>
    <nd ref="461008317"/>
    <nd ref="461008263"/>
    <nd ref="461009443"/>
    <tag k="addr:city" v="Зеленоград"/>
    <tag k="addr:country" v="RU"/>
    <tag k="addr:housenumber" v="857"/>
    <tag k="addr:region" v="Москва"/>
    <tag k="addr:street" v="8-й микрорайон"/>
    <tag k="amenity" v="hospital"/>
    <tag k="building" v="yes"/>
    <tag k="comment" v="Подстанция №27 Станции скорой и неотложной медицинской помощи г. Москвы им. А.С. Пучкова"/>
    <tag k="name" v="Подстанция скорой помощи №27"/>
  </way>
  <way id="38833572" version="8" timestamp="2012-08-04T17:22:46Z" uid="109327" user="OverQuantum" changeset="12611880">
    <nd ref="461009443"/>
    <nd ref="461009541"/>
    <nd ref="1107648964"/>
    <nd ref="1107648884"/>
    <nd ref="461008317"/>
    <nd ref="461008263"/>
    <nd ref="1107649006"/>
    <nd ref="1107648908"/>
    <nd ref="461009443"/>
    <tag k="addr:city" v="Зеленоград"/>
    <tag k="addr:country" v="RU"/>
    <tag k="addr:housenumber" v="857"/>
    <tag k="addr:region" v="Москва"/>
    <tag k="addr:street" v="8-й микрорайон"/>
    <tag k="amenity" v="hospital"/>
    <tag k="building" v="yes"/>
    <tag k="comment" v="Подстанция №27 Станции скорой и неотложной медицинской помощи г. Москвы им. А.С. Пучкова"/>
    <tag k="name" v="Подстанция скорой помощи №27"/>
  </way>
  <way id="38833573" version="8" timestamp="2012-07-20T22:08:47Z" uid="722137" user="OSMF Redaction Account" changeset="12394207">
    <nd ref="461009551"/>
    <nd ref="461008581"/>
    <nd ref="461009068"/>
    <nd ref="461009815"/>
    <nd ref="461009558"/>
    <nd ref="461009220"/>
    <nd ref="461009865"/>
    <nd ref="461008450"/>
    <nd ref="461009529"/>
    <nd ref="461008585"/>
    <nd ref="461008733"/>
    <nd ref="461008207"/>
    <nd ref="461008774"/>
    <nd ref="461009428"/>
    <nd ref="461008502"/>
    <nd ref="461009503"/>
    <nd ref="461009035"/>
    <nd ref="461008235"/>
    <nd ref="461008730"/>
    <nd ref="461009186"/>
    <nd ref="461009499"/>
    <nd ref="461008946"/>
    <nd ref="461008159"/>
    <nd ref="461009028"/>
    <nd ref="461009909"/>
    <nd ref="461009396"/>
    <nd ref="461009604"/>
    <nd ref="461008135"/>
    <nd ref="461009133"/>
    <nd ref="461009680"/>
    <nd ref="461008470"/>
    <nd ref="461009859"/>
    <nd ref="461008708"/>
    <nd ref="461008547"/>
    <nd ref="461009436"/>
    <nd ref="461009710"/>
    <nd ref="461009551"/>
    <tag k="addr:city" v="Зеленоград"/>
    <tag k="addr:country" v="RU"/>
    <tag k="addr:housenumber" v="864"/>
    <tag k="addr:region" v="Москва"/>
    <tag k="addr:street" v="8-й микрорайон"/>
    <tag k="amenity" v="school"/>
    <tag k="building" v="yes"/>
    <tag k="comment" v="Школа надомного обучения №367"/>
    <tag k="name" v="Школа №367"/>
  </way>
  <way id="38833573" version="9" timestamp="2012-08-04T17:22:47Z" uid="109327" user="OverQuantum" changeset="12611880">
    <nd ref="461009551"/>
    <nd ref="1107649014"/>
    <nd ref="1107648890"/>
    <nd ref="461008581"/>
    <nd ref="1107648973"/>
    <nd ref="1107649135"/>
    <nd ref="461009068"/>
    <nd ref="461009815"/>
    <nd ref="461009558"/>
    <nd ref="461009220"/>
    <nd ref="461009865"/>
    <nd ref="461008450"/>
    <nd ref="461009529"/>
    <nd ref="1107649136"/>
    <nd ref="461008585"/>
    <nd ref="461008733"/>
    <nd ref="461008207"/>
    <nd ref="461008774"/>
    <nd ref="1107649050"/>
    <nd ref="461009428"/>
    <nd ref="1107649016"/>
    <nd ref="1107648891"/>
    <nd ref="461008502"/>
    <nd ref="1107648943"/>
    <nd ref="1107648930"/>
    <nd ref="461009503"/>
    <nd ref="461009035"/>
    <nd ref="461008235"/>
    <nd ref="461008730"/>
    <nd ref="461009186"/>
    <nd ref="461009499"/>
    <nd ref="1851776604"/>
    <nd ref="461008946"/>
    <nd ref="1851776601"/>
    <nd ref="461008159"/>
    <nd ref="461009028"/>
    <nd ref="461009909"/>
    <nd ref="461009396"/>
    <nd ref="1851776596"/>
    <nd ref="461009604"/>
    <nd ref="1107648922"/>
    <nd ref="516040310"/>
    <nd ref="461008135"/>
    <nd ref="461009133"/>
    <nd ref="461009680"/>
    <nd ref="1107648865"/>
    <nd ref="1107649120"/>
    <nd ref="461008470"/>
    <nd ref="1107648882"/>
    <nd ref="1107648924"/>
    <nd ref="1107649075"/>
    <nd ref="1107648962"/>
    <nd ref="461009859"/>
    <nd ref="1107649083"/>
    <nd ref="461008708"/>
    <nd ref="461008547"/>
    <nd ref="461009436"/>
    <nd ref="461009710"/>
    <nd ref="1107649086"/>
    <nd ref="461009551"/>
    <tag k="addr:city" v="Зеленоград"/>
    <tag k="addr:country" v="RU"/>
    <tag k="addr:housenumber" v="864"/>
    <tag k="addr:region" v="Москва"/>
    <tag k="addr:street" v="8-й микрорайон"/>
    <tag k="amenity" v="school"/>
    <tag k="building" v="yes"/>
    <tag k="comment" v="Школа надомного обучения №367"/>
    <tag k="name" v="Школа №367"/>
  </way>
  <way id="38833573" version="10" timestamp="2012-08-31T09:44:06Z" uid="760215" user="pnorman redaction revert" changeset="12928566">
    <nd ref="461009551"/>
    <nd ref="1107649014"/>
    <nd ref="1107648890"/>
    <nd ref="461008581"/>
    <nd ref="1107648973"/>
    <nd ref="1107649135"/>
    <nd ref="461009068"/>
    <nd ref="461009815"/>
    <nd ref="461009558"/>
    <nd ref="461009220"/>
    <nd ref="461009865"/>
    <nd ref="461008450"/>
    <nd ref="461009529"/>
    <nd ref="1107649136"/>
    <nd ref="461008585"/>
    <nd ref="461008733"/>
    <nd ref="461008207"/>
    <nd ref="461008774"/>
    <nd ref="1107649050"/>
    <nd ref="461009428"/>
    <nd ref="1107649016"/>
    <nd ref="1107648891"/>
    <nd ref="461008502"/>
    <nd ref="1107648943"/>
    <nd ref="1107648930"/>
    <nd ref="461009503"/>
    <nd ref="461009035"/>
    <nd ref="461008235"/>
    <nd ref="461008730"/>
    <nd ref="461009186"/>
    <nd ref="461009499"/>
    <nd ref="1851776604"/>
    <nd ref="461008946"/>
    <nd ref="1851776601"/>
    <nd ref="461008159"/>
    <nd ref="461009028"/>
    <nd ref="461009909"/>
    <nd ref="461009396"/>
    <nd ref="1851776596"/>
    <nd ref="461009604"/>
    <nd ref="1107648922"/>
    <nd ref="516040310"/>
    <nd ref="461008135"/>
    <nd ref="461009133"/>
    <nd ref="461009680"/>
    <nd ref="1107649120"/>
    <nd ref="461008470"/>
    <nd ref="1107648882"/>
    <nd ref="1107648924"/>
    <nd ref="1107649075"/>
    <nd ref="1107648962"/>
    <nd ref="461009859"/>
    <nd ref="1107649083"/>
    <nd ref="461008708"/>
    <nd ref="461008547"/>
    <nd ref="461009436"/>
    <nd ref="461009710"/>
    <nd ref="1107649086"/>
    <nd ref="461009551"/>
    <tag k="addr:city" v="Зеленоград"/>
    <tag k="addr:country" v="RU"/>
    <tag k="addr:housenumber" v="864"/>
    <tag k="addr:region" v="Москва"/>
    <tag k="addr:street" v="8-й микрорайон"/>
    <tag k="amenity" v="school"/>
    <tag k="building" v="yes"/>
    <tag k="comment" v="Школа надомного обучения №367"/>
    <tag k="name" v="Школа №367"/>
  </way>
  <way id="38833573" version="11" timestamp="2012-08-31T18:53:15Z" uid="109327" user="OverQuantum" changeset="12934618">
    <nd ref="461009551"/>
    <nd ref="1107649014"/>
    <nd ref="1107648890"/>
    <nd ref="461008581"/>
    <nd ref="1107648973"/>
    <nd ref="1107649135"/>
    <nd ref="461009068"/>
    <nd ref="461009815"/>
    <nd ref="461009558"/>
    <nd ref="461009220"/>
    <nd ref="461009865"/>
    <nd ref="461008450"/>
    <nd ref="461009529"/>
    <nd ref="1107649136"/>
    <nd ref="461008585"/>
    <nd ref="461008733"/>
    <nd ref="461008207"/>
    <nd ref="461008774"/>
    <nd ref="1107649050"/>
    <nd ref="461009428"/>
    <nd ref="1107649016"/>
    <nd ref="1107648891"/>
    <nd ref="461008502"/>
    <nd ref="1107648943"/>
    <nd ref="1107648930"/>
    <nd ref="461009503"/>
    <nd ref="461009035"/>
    <nd ref="461008235"/>
    <nd ref="461008730"/>
    <nd ref="461009186"/>
    <nd ref="461009499"/>
    <nd ref="1851776604"/>
    <nd ref="461008946"/>
    <nd ref="1851776601"/>
    <nd ref="461008159"/>
    <nd ref="461009028"/>
    <nd ref="461009909"/>
    <nd ref="461009396"/>
    <nd ref="1851776596"/>
    <nd ref="461009604"/>
    <nd ref="1107648922"/>
    <nd ref="516040310"/>
    <nd ref="461008135"/>
    <nd ref="461009133"/>
    <nd ref="461009680"/>
    <nd ref="1891993922"/>
    <nd ref="1107649120"/>
    <nd ref="461008470"/>
    <nd ref="1107648882"/>
    <nd ref="1107648924"/>
    <nd ref="1107649075"/>
    <nd ref="1107648962"/>
    <nd ref="461009859"/>
    <nd ref="1107649083"/>
    <nd ref="461008708"/>
    <nd ref="461008547"/>
    <nd ref="461009436"/>
    <nd ref="461009710"/>
    <nd ref="1107649086"/>
    <nd ref="461009551"/>
    <tag k="addr:city" v="Зеленоград"/>
    <tag k="addr:country" v="RU"/>
    <tag k="addr:housenumber" v="864"/>
    <tag k="addr:region" v="Москва"/>
    <tag k="addr:street" v="8-й микрорайон"/>
    <tag k="amenity" v="school"/>
    <tag k="building" v="yes"/>
    <tag k="comment" v="Школа надомного обучения №367"/>
    <tag k="name" v="Школа №367"/>
  </way>
  <way id="38833574" version="9" timestamp="2012-07-20T23:47:38Z" uid="722137" user="OSMF Redaction Account" changeset="12396479">
    <nd ref="461009355"/>
    <nd ref="461008511"/>
    <nd ref="461008334"/>
    <nd ref="461009192"/>
    <nd ref="461009355"/>
    <tag k="addr:city" v="Зеленоград"/>
    <tag k="addr:country" v="RU"/>
    <tag k="addr:housenumber" v="813"/>
    <tag k="addr:region" v="Москва"/>
    <tag k="addr:street" v="8-й микрорайон"/>
    <tag k="building" v="apartments"/>
    <tag k="building:levels" v="9"/>
  </way>
  <way id="38833575" version="7" timestamp="2012-07-20T23:45:59Z" uid="722137" user="OSMF Redaction Account" changeset="12396430">
    <nd ref="461009418"/>
    <nd ref="461009638"/>
    <nd ref="461008691"/>
    <nd ref="461008574"/>
    <nd ref="461008284"/>
    <nd ref="461009337"/>
    <nd ref="461009215"/>
    <nd ref="461009364"/>
    <nd ref="461008473"/>
    <nd ref="461008290"/>
    <nd ref="461008979"/>
    <nd ref="461009418"/>
    <tag k="addr:city" v="Зеленоград"/>
    <tag k="addr:country" v="RU"/>
    <tag k="addr:housenumber" v="844"/>
    <tag k="addr:region" v="Москва"/>
    <tag k="addr:street" v="8-й микрорайон"/>
    <tag k="amenity" v="school"/>
    <tag k="building" v="yes"/>
    <tag k="name" v="Школа №897"/>
  </way>
  <way id="38833576" version="9" timestamp="2012-07-20T22:08:54Z" uid="722137" user="OSMF Redaction Account" changeset="12394207">
    <nd ref="461009324"/>
    <nd ref="461009533"/>
    <nd ref="461008453"/>
    <nd ref="461009513"/>
    <nd ref="461009324"/>
    <tag k="addr:city" v="Зеленоград"/>
    <tag k="addr:country" v="RU"/>
    <tag k="addr:housenumber" v="811"/>
    <tag k="addr:region" v="Москва"/>
    <tag k="addr:street" v="8-й микрорайон"/>
    <tag k="building" v="apartments"/>
    <tag k="building:levels" v="9"/>
  </way>
  <way id="38833577" version="7" timestamp="2012-07-20T22:09:01Z" uid="722137" user="OSMF Redaction Account" changeset="12394292">
    <nd ref="461008151"/>
    <nd ref="461009213"/>
    <nd ref="461008510"/>
    <nd ref="461008637"/>
    <nd ref="461008355"/>
    <nd ref="461009141"/>
    <nd ref="461009301"/>
    <nd ref="461008294"/>
    <nd ref="461008528"/>
    <nd ref="461009358"/>
    <nd ref="461008541"/>
    <nd ref="461008924"/>
    <nd ref="461008151"/>
    <tag k="addr:city" v="Зеленоград"/>
    <tag k="addr:country" v="RU"/>
    <tag k="addr:housenumber" v="807"/>
    <tag k="addr:region" v="Москва"/>
    <tag k="addr:street" v="8-й микрорайон"/>
    <tag k="building" v="yes"/>
  </way>
  <way id="38833578" version="11" timestamp="2012-07-20T22:09:00Z" uid="722137" user="OSMF Redaction Account" changeset="12394292">
    <nd ref="461009796"/>
    <nd ref="461009555"/>
    <nd ref="461008974"/>
    <nd ref="461008823"/>
    <nd ref="461008879"/>
    <nd ref="461009796"/>
    <tag k="addr:city" v="Зеленоград"/>
    <tag k="addr:country" v="RU"/>
    <tag k="addr:housenumber" v="803"/>
    <tag k="addr:region" v="Москва"/>
    <tag k="addr:street" v="8-й микрорайон"/>
    <tag k="building" v="yes"/>
    <tag k="building:levels" v="9"/>
  </way>
  <way id="38833580" version="9" timestamp="2012-07-20T23:45:56Z" uid="722137" user="OSMF Redaction Account" changeset="12396430">
    <nd ref="461009522"/>
    <nd ref="461008957"/>
    <nd ref="461009174"/>
    <nd ref="461009564"/>
    <tag k="addr:city" v="Зеленоград"/>
    <tag k="addr:country" v="RU"/>
    <tag k="addr:housenumber" v="834"/>
    <tag k="addr:region" v="Москва"/>
    <tag k="addr:street" v="8-й микрорайон"/>
    <tag k="building" v="yes"/>
  </way>
  <way id="38833581" version="7" timestamp="2012-07-20T22:08:48Z" uid="722137" user="OSMF Redaction Account" changeset="12394207">
    <nd ref="461009083"/>
    <nd ref="461008997"/>
    <nd ref="461008791"/>
    <nd ref="461008555"/>
    <nd ref="461009285"/>
    <nd ref="461008517"/>
    <nd ref="461008558"/>
    <nd ref="461008971"/>
    <nd ref="461009493"/>
    <nd ref="461008598"/>
    <nd ref="461009279"/>
    <nd ref="461009821"/>
    <tag k="addr:city" v="Зеленоград"/>
    <tag k="addr:country" v="RU"/>
    <tag k="addr:housenumber" v="855"/>
    <tag k="addr:region" v="Москва"/>
    <tag k="addr:street" v="8-й микрорайон"/>
    <tag k="amenity" v="college"/>
    <tag k="building" v="yes"/>
    <tag k="name" v="Технологический колледж №49"/>
  </way>
  <way id="38833581" version="8" timestamp="2012-08-04T17:22:46Z" uid="109327" user="OverQuantum" changeset="12611880">
    <nd ref="461009821"/>
    <nd ref="461009083"/>
    <nd ref="461008997"/>
    <nd ref="461008791"/>
    <nd ref="461008555"/>
    <nd ref="461009285"/>
    <nd ref="461008517"/>
    <nd ref="1851776651"/>
    <nd ref="1851776650"/>
    <nd ref="1851776649"/>
    <nd ref="1851776647"/>
    <nd ref="1851776646"/>
    <nd ref="1851776648"/>
    <nd ref="461008558"/>
    <nd ref="461008971"/>
    <nd ref="461009493"/>
    <nd ref="1851776657"/>
    <nd ref="1851776656"/>
    <nd ref="461008598"/>
    <nd ref="461009279"/>
    <nd ref="461009821"/>
    <tag k="addr:city" v="Зеленоград"/>
    <tag k="addr:country" v="RU"/>
    <tag k="addr:housenumber" v="855"/>
    <tag k="addr:region" v="Москва"/>
    <tag k="addr:street" v="8-й микрорайон"/>
    <tag k="amenity" v="college"/>
    <tag k="building" v="yes"/>
    <tag k="name" v="Технологический колледж №49"/>
  </way>
  <way id="38833582" version="7" timestamp="2012-07-20T22:08:50Z" uid="722137" user="OSMF Redaction Account" changeset="12394207">
    <nd ref="461009019"/>
    <nd ref="461009352"/>
    <nd ref="461008124"/>
    <nd ref="461009475"/>
    <nd ref="461009538"/>
    <nd ref="461009520"/>
    <tag k="addr:city" v="Зеленоград"/>
    <tag k="addr:country" v="RU"/>
    <tag k="addr:housenumber" v="817"/>
    <tag k="addr:region" v="Москва"/>
    <tag k="addr:street" v="8-й микрорайон"/>
    <tag k="amenity" v="school"/>
    <tag k="building" v="yes"/>
    <tag k="name" v="Гимназия №1528"/>
  </way>
  <way id="38833583" version="7" timestamp="2012-07-20T22:08:52Z" uid="722137" user="OSMF Redaction Account" changeset="12394207">
    <nd ref="461008948"/>
    <nd ref="461008544"/>
    <nd ref="461009312"/>
    <nd ref="461009553"/>
    <nd ref="461009671"/>
    <nd ref="461008467"/>
    <tag k="addr:city" v="Зеленоград"/>
    <tag k="addr:country" v="RU"/>
    <tag k="addr:housenumber" v="818"/>
    <tag k="addr:region" v="Москва"/>
    <tag k="addr:street" v="8-й микрорайон"/>
    <tag k="amenity" v="school"/>
    <tag k="building" v="yes"/>
    <tag k="name" v="Школа №909"/>
  </way>
  <way id="38833585" version="11" timestamp="2012-07-20T22:08:59Z" uid="722137" user="OSMF Redaction Account" changeset="12394292">
    <nd ref="461008814"/>
    <nd ref="461009610"/>
    <nd ref="461009656"/>
    <nd ref="461009275"/>
    <nd ref="461008626"/>
    <nd ref="461008814"/>
    <tag k="addr:city" v="Зеленоград"/>
    <tag k="addr:country" v="RU"/>
    <tag k="addr:housenumber" v="801"/>
    <tag k="addr:region" v="Москва"/>
    <tag k="addr:street" v="8-й микрорайон"/>
    <tag k="building" v="yes"/>
    <tag k="building:levels" v="9"/>
  </way>
  <way id="38833586" version="7" timestamp="2012-07-20T22:08:58Z" uid="722137" user="OSMF Redaction Account" changeset="12394292">
    <nd ref="461008748"/>
    <nd ref="461009761"/>
    <nd ref="461009334"/>
    <nd ref="461008634"/>
    <nd ref="461009911"/>
    <nd ref="461009569"/>
    <nd ref="461009619"/>
    <nd ref="461008281"/>
    <nd ref="461009152"/>
    <nd ref="461009382"/>
    <nd ref="461009204"/>
    <nd ref="461009107"/>
    <nd ref="461008748"/>
    <tag k="addr:city" v="Зеленоград"/>
    <tag k="addr:country" v="RU"/>
    <tag k="addr:housenumber" v="808"/>
    <tag k="addr:region" v="Москва"/>
    <tag k="addr:street" v="8-й микрорайон"/>
    <tag k="building" v="yes"/>
  </way>
  <way id="38833587" version="8" timestamp="2012-07-20T23:46:00Z" uid="722137" user="OSMF Redaction Account" changeset="12396430">
    <nd ref="461008992"/>
    <nd ref="461009525"/>
    <nd ref="461009425"/>
    <nd ref="461009318"/>
    <nd ref="461009218"/>
    <nd ref="461008992"/>
    <tag k="addr:city" v="Зеленоград"/>
    <tag k="addr:country" v="RU"/>
    <tag k="addr:region" v="Москва"/>
    <tag k="building" v="yes"/>
  </way>
  <way id="38833588" version="10" timestamp="2012-07-20T22:08:50Z" uid="722137" user="OSMF Redaction Account" changeset="12394207">
    <nd ref="461008800"/>
    <nd ref="461008199"/>
    <nd ref="461009652"/>
    <nd ref="461009574"/>
    <nd ref="461008800"/>
    <tag k="addr:city" v="Зеленоград"/>
    <tag k="addr:country" v="RU"/>
    <tag k="addr:housenumber" v="3 с1"/>
    <tag k="addr:region" v="Москва"/>
    <tag k="addr:street" v="8-й Микрорайон"/>
    <tag k="building" v="yes"/>
    <tag k="comment" v="ФОК"/>
    <tag k="leisure" v="sports_centre"/>
  </way>
  <way id="38833588" version="11" timestamp="2012-07-30T20:38:42Z" uid="133332" user="AMDmi3" changeset="12553628">
    <nd ref="461008800"/>
    <nd ref="461008199"/>
    <nd ref="461009652"/>
    <nd ref="461009574"/>
    <nd ref="461008800"/>
    <tag k="addr:city" v="Зеленоград"/>
    <tag k="addr:country" v="RU"/>
    <tag k="addr:housenumber" v="3 с1"/>
    <tag k="addr:region" v="Москва"/>
    <tag k="addr:street" v="8-й микрорайон"/>
    <tag k="building" v="yes"/>
    <tag k="comment" v="ФОК"/>
    <tag k="leisure" v="sports_centre"/>
  </way>
  <way id="38833592" version="7" timestamp="2012-07-20T23:48:24Z" uid="722137" user="OSMF Redaction Account" changeset="12396479">
    <nd ref="461009118"/>
    <nd ref="461009560"/>
    <nd ref="461009330"/>
    <nd ref="461009138"/>
    <nd ref="461009118"/>
    <tag k="addr:city" v="Зеленоград"/>
    <tag k="addr:country" v="RU"/>
    <tag k="addr:housenumber" v="831"/>
    <tag k="addr:region" v="Москва"/>
    <tag k="addr:street" v="8-й микрорайон"/>
    <tag k="building" v="yes"/>
  </way>
  <way id="38833595" version="8" timestamp="2012-04-14T13:37:34Z" uid="314211" user="OldIvantey" changeset="11298726">
    <nd ref="461009516"/>
    <nd ref="461009071"/>
    <nd ref="461008203"/>
    <nd ref="461008635"/>
    <nd ref="461009649"/>
    <nd ref="461008405"/>
    <nd ref="461009834"/>
    <nd ref="461008521"/>
    <nd ref="461008257"/>
    <nd ref="461009420"/>
    <nd ref="461009224"/>
    <nd ref="461008212"/>
    <nd ref="461009693"/>
    <nd ref="461008706"/>
    <nd ref="1107979787"/>
    <nd ref="1107979811"/>
    <nd ref="1107979791"/>
    <nd ref="1107979851"/>
    <nd ref="461008162"/>
    <nd ref="461009434"/>
    <nd ref="461009516"/>
    <tag k="addr:city" v="Зеленоград"/>
    <tag k="addr:country" v="RU"/>
    <tag k="addr:housenumber" v="816"/>
    <tag k="addr:region" v="Москва"/>
    <tag k="addr:street" v="8-й микрорайон"/>
    <tag k="amenity" v="kindergarten"/>
    <tag k="building" v="yes"/>
    <tag k="name" v="Детский сад №1263"/>
  </way>
  <way id="38833595" version="9" timestamp="2012-07-20T22:08:52Z" uid="722137" user="OSMF Redaction Account" changeset="12394207">
    <nd ref="461009516"/>
    <nd ref="461009071"/>
    <nd ref="461008203"/>
    <nd ref="461008635"/>
    <nd ref="461009649"/>
    <nd ref="461008405"/>
    <nd ref="461009834"/>
    <nd ref="461008521"/>
    <nd ref="461008257"/>
    <nd ref="461009420"/>
    <nd ref="461009224"/>
    <nd ref="461008212"/>
    <nd ref="461009693"/>
    <nd ref="461008706"/>
    <nd ref="461008162"/>
    <nd ref="461009434"/>
    <nd ref="461009516"/>
    <tag k="addr:city" v="Зеленоград"/>
    <tag k="addr:country" v="RU"/>
    <tag k="addr:housenumber" v="816"/>
    <tag k="addr:region" v="Москва"/>
    <tag k="addr:street" v="8-й микрорайон"/>
    <tag k="amenity" v="kindergarten"/>
    <tag k="building" v="yes"/>
    <tag k="name" v="Детский сад №1263"/>
  </way>
  <way id="38833596" version="7" timestamp="2012-07-20T22:08:46Z" uid="722137" user="OSMF Redaction Account" changeset="12394207">
    <nd ref="461008754"/>
    <nd ref="461008807"/>
    <nd ref="461009181"/>
    <nd ref="461009873"/>
    <nd ref="461008754"/>
    <tag k="addr:city" v="Зеленоград"/>
    <tag k="addr:country" v="RU"/>
    <tag k="addr:housenumber" v="860"/>
    <tag k="addr:region" v="Москва"/>
    <tag k="addr:street" v="8-й микрорайон"/>
    <tag k="building" v="yes"/>
    <tag k="comment" v="Фитнес-центр &quot;Малино&quot;"/>
    <tag k="leisure" v="sports_centre"/>
  </way>
  <way id="38833597" version="9" timestamp="2012-07-20T22:08:49Z" uid="722137" user="OSMF Redaction Account" changeset="12394207">
    <nd ref="461009481"/>
    <nd ref="461009413"/>
    <nd ref="461008654"/>
    <nd ref="461009767"/>
    <nd ref="461009688"/>
    <nd ref="461008399"/>
    <nd ref="461009481"/>
    <tag k="access" v="private"/>
    <tag k="addr:city" v="Зеленоград"/>
    <tag k="addr:country" v="RU"/>
    <tag k="addr:housenumber" v="5"/>
    <tag k="addr:region" v="Москва"/>
    <tag k="addr:street" v="8-й микрорайон"/>
    <tag k="amenity" v="parking"/>
    <tag k="comment" v="Частные гаражи / private parking"/>
  </way>
  <way id="38833597" version="10" timestamp="2012-08-04T17:22:43Z" uid="109327" user="OverQuantum" changeset="12611880">
    <nd ref="461009481"/>
    <nd ref="461009413"/>
    <nd ref="461008654"/>
    <nd ref="461009767"/>
    <nd ref="461009688"/>
    <nd ref="461008399"/>
    <nd ref="461009481"/>
    <tag k="access" v="private"/>
    <tag k="addr:city" v="Зеленоград"/>
    <tag k="addr:country" v="RU"/>
    <tag k="addr:housenumber" v="5"/>
    <tag k="addr:region" v="Москва"/>
    <tag k="addr:street" v="8-й микрорайон"/>
    <tag k="amenity" v="parking"/>
    <tag k="comment" v="Частные гаражи / private parking"/>
  </way>
  <way id="38833600" version="7" timestamp="2012-07-20T23:48:02Z" uid="722137" user="OSMF Redaction Account" changeset="12396479">
    <nd ref="461009616"/>
    <nd ref="461009401"/>
    <nd ref="461009853"/>
    <nd ref="461008533"/>
    <nd ref="461008859"/>
    <nd ref="461009502"/>
    <nd ref="461008228"/>
    <nd ref="461009455"/>
    <nd ref="461009616"/>
    <tag k="addr:city" v="Зеленоград"/>
    <tag k="addr:country" v="RU"/>
    <tag k="addr:housenumber" v="836"/>
    <tag k="addr:region" v="Москва"/>
    <tag k="addr:street" v="8-й микрорайон"/>
    <tag k="amenity" v="public_building"/>
    <tag k="building" v="yes"/>
    <tag k="comment" v="Управление дорожного хозяйства и благоустройства Зеленоградского АО"/>
    <tag k="name" v="УДХ и Б"/>
  </way>
</osm>
