<?xml version='1.0' encoding='UTF-8'?>
<osm version="0.6" generator="libosmium/2.20.0">
  <way id="38866295" version="2" timestamp="2011-02-08T21:52:38Z" uid="6269" user="Mueck" changeset="7231329">
    <nd ref="461665365"/>
    <nd ref="1142916068"/>
    <nd ref="1142915974"/>
    <nd ref="1142916090"/>
    <nd ref="14911455"/>
    <nd ref="1142916087"/>
    <nd ref="1142916168"/>
    <nd ref="21498301"/>
    <nd ref="1142915932"/>
    <nd ref="1142916075"/>
    <nd ref="344878787"/>
    <tag k="cycleway" v="lane"/>
    <tag k="highway" v="tertiary"/>
    <tag k="name" v="TullastraÃŸe"/>
    <tag k="note" v="im SHP des NVK: III"/>
    <tag k="oneway" v="yes"/>
  </way>
  <way id="38866295" version="3" timestamp="2011-10-24T07:46:02Z" uid="442210" user="dwausr" changeset="9640872"/>
  <way id="38866297" version="6" timestamp="2011-02-08T21:52:39Z" uid="6269" user="Mueck" changeset="7231329">
    <nd ref="256081888"/>
    <nd ref="1142916192"/>
    <nd ref="533841010"/>
    <nd ref="533841013"/>
    <nd ref="533841017"/>
    <nd ref="802168513"/>
    <tag k="bicycle" v="designated"/>
    <tag k="foot" v="designated"/>
    <tag k="highway" v="path"/>
    <tag k="lit" v="yes"/>
    <tag k="segregated" v="yes"/>
  </way>
  <way id="38866297" version="7" timestamp="2011-02-08T22:09:44Z" uid="6269" user="Mueck" changeset="7231329">
    <nd ref="256081888"/>
    <nd ref="1142916192"/>
    <nd ref="1142954877"/>
    <nd ref="533841010"/>
    <nd ref="533841013"/>
    <nd ref="533841017"/>
    <nd ref="802168513"/>
    <tag k="bicycle" v="designated"/>
    <tag k="foot" v="designated"/>
    <tag k="highway" v="path"/>
    <tag k="lit" v="yes"/>
    <tag k="segregated" v="yes"/>
  </way>
  <way id="38866297" version="8" timestamp="2011-10-24T07:45:58Z" uid="442210" user="dwausr" changeset="9640872"/>
  <way id="38866301" version="2" timestamp="2010-07-08T09:21:59Z" uid="74617" user="JohnSmith" changeset="5164427">
    <nd ref="461665132"/>
    <nd ref="461665149"/>
    <nd ref="461665150"/>
    <nd ref="461665138"/>
    <tag k="highway" v="residential"/>
    <tag k="maxspeed" v="50"/>
    <tag k="maxspeed:source" v="default residential speed limit in Australia"/>
    <tag k="name" v="Hewill Drive"/>
  </way>
  <way id="38866301" version="3" timestamp="2012-01-19T03:09:39Z" uid="147510" user="woodpeck_fixbot" changeset="10433650">
    <nd ref="461665132"/>
    <nd ref="461665149"/>
    <nd ref="461665150"/>
    <nd ref="461665138"/>
    <tag k="highway" v="residential"/>
    <tag k="name" v="Hewill Drive"/>
  </way>
  <way id="38866302" version="2" timestamp="2010-07-08T09:18:13Z" uid="74617" user="JohnSmith" changeset="5164427">
    <nd ref="461665144"/>
    <nd ref="461665149"/>
    <tag k="highway" v="residential"/>
    <tag k="maxspeed" v="50"/>
    <tag k="maxspeed:source" v="default residential speed limit in Australia"/>
    <tag k="name" v="Brown Close"/>
  </way>
  <way id="38866302" version="3" timestamp="2012-01-19T03:09:40Z" uid="147510" user="woodpeck_fixbot" changeset="10433650">
    <nd ref="461665144"/>
    <nd ref="461665149"/>
    <tag k="highway" v="residential"/>
    <tag k="name" v="Brown Close"/>
  </way>
  <way id="38866303" version="2" timestamp="2010-07-08T09:24:45Z" uid="74617" user="JohnSmith" changeset="5164427">
    <nd ref="461665150"/>
    <nd ref="461665152"/>
    <nd ref="461665154"/>
    <nd ref="461665155"/>
    <nd ref="461665157"/>
    <nd ref="461665159"/>
    <tag k="highway" v="residential"/>
    <tag k="maxspeed" v="50"/>
    <tag k="maxspeed:source" v="default residential speed limit in Australia"/>
    <tag k="name" v="Latimer Road"/>
  </way>
  <way id="38866303" version="3" timestamp="2012-01-19T03:09:41Z" uid="147510" user="woodpeck_fixbot" changeset="10433650">
    <nd ref="461665150"/>
    <nd ref="461665152"/>
    <nd ref="461665154"/>
    <nd ref="461665155"/>
    <nd ref="461665157"/>
    <nd ref="461665159"/>
    <tag k="highway" v="residential"/>
    <tag k="name" v="Latimer Road"/>
  </way>
  <way id="38866304" version="3" timestamp="2010-07-08T09:20:57Z" uid="74617" user="JohnSmith" changeset="5164427">
    <nd ref="461665160"/>
    <nd ref="461665159"/>
    <nd ref="461665197"/>
    <nd ref="465206449"/>
    <nd ref="461665175"/>
    <nd ref="461665162"/>
    <tag k="highway" v="residential"/>
    <tag k="maxspeed" v="50"/>
    <tag k="maxspeed:source" v="default residential speed limit in Australia"/>
    <tag k="name" v="Stewart Street"/>
  </way>
  <way id="38866304" version="4" timestamp="2012-01-19T03:09:42Z" uid="147510" user="woodpeck_fixbot" changeset="10433650">
    <nd ref="461665160"/>
    <nd ref="461665159"/>
    <nd ref="461665197"/>
    <nd ref="465206449"/>
    <nd ref="461665175"/>
    <nd ref="461665162"/>
    <tag k="highway" v="residential"/>
    <tag k="name" v="Stewart Street"/>
  </way>
  <way id="38866306" version="3" timestamp="2010-07-08T09:23:30Z" uid="74617" user="JohnSmith" changeset="5164427">
    <nd ref="461665174"/>
    <nd ref="461717857"/>
    <tag k="highway" v="residential"/>
    <tag k="maxspeed" v="50"/>
    <tag k="maxspeed:source" v="default residential speed limit in Australia"/>
    <tag k="name" v="Foster Street"/>
  </way>
  <way id="38866306" version="4" timestamp="2012-01-19T03:09:43Z" uid="147510" user="woodpeck_fixbot" changeset="10433650">
    <nd ref="461665174"/>
    <nd ref="461717857"/>
    <tag k="highway" v="residential"/>
    <tag k="name" v="Foster Street"/>
  </way>
  <way id="38866307" version="2" timestamp="2010-07-08T09:21:53Z" uid="74617" user="JohnSmith" changeset="5164427">
    <nd ref="461665177"/>
    <nd ref="461665178"/>
    <tag k="highway" v="residential"/>
    <tag k="maxspeed" v="50"/>
    <tag k="maxspeed:source" v="default residential speed limit in Australia"/>
  </way>
  <way id="38866307" version="3" timestamp="2012-01-19T03:09:45Z" uid="147510" user="woodpeck_fixbot" changeset="10433650">
    <nd ref="461665177"/>
    <nd ref="461665178"/>
    <tag k="highway" v="residential"/>
  </way>
  <way id="38866308" version="2" timestamp="2010-07-08T09:24:16Z" uid="74617" user="JohnSmith" changeset="5164427">
    <nd ref="461665178"/>
    <nd ref="461665181"/>
    <nd ref="461665175"/>
    <tag k="highway" v="residential"/>
    <tag k="maxspeed" v="50"/>
    <tag k="maxspeed:source" v="default residential speed limit in Australia"/>
    <tag k="name" v="Foster Street"/>
  </way>
  <way id="38866308" version="3" timestamp="2012-01-19T03:09:46Z" uid="147510" user="woodpeck_fixbot" changeset="10433650">
    <nd ref="461665178"/>
    <nd ref="461665181"/>
    <nd ref="461665175"/>
    <tag k="highway" v="residential"/>
    <tag k="name" v="Foster Street"/>
  </way>
  <way id="38866309" version="4" timestamp="2010-07-08T09:22:47Z" uid="74617" user="JohnSmith" changeset="5164427">
    <nd ref="461665169"/>
    <nd ref="461665174"/>
    <nd ref="461736299"/>
    <nd ref="461665172"/>
    <nd ref="461665394"/>
    <nd ref="461717884"/>
    <nd ref="461665170"/>
    <tag k="highway" v="residential"/>
    <tag k="maxspeed" v="50"/>
    <tag k="maxspeed:source" v="default residential speed limit in Australia"/>
    <tag k="name" v="Capricorn Street"/>
  </way>
  <way id="38866309" version="5" timestamp="2012-01-19T03:09:47Z" uid="147510" user="woodpeck_fixbot" changeset="10433650">
    <nd ref="461665169"/>
    <nd ref="461665174"/>
    <nd ref="461736299"/>
    <nd ref="461665172"/>
    <nd ref="461665394"/>
    <nd ref="461717884"/>
    <nd ref="461665170"/>
    <tag k="highway" v="residential"/>
    <tag k="name" v="Capricorn Street"/>
  </way>
  <way id="38866313" version="2" timestamp="2010-07-08T09:18:10Z" uid="74617" user="JohnSmith" changeset="5164427">
    <nd ref="461665192"/>
    <nd ref="461665162"/>
    <nd ref="461665164"/>
    <nd ref="461665165"/>
    <nd ref="461665495"/>
    <nd ref="461665166"/>
    <nd ref="461665167"/>
    <nd ref="461665177"/>
    <nd ref="461665168"/>
    <nd ref="461665169"/>
    <tag k="highway" v="residential"/>
    <tag k="maxspeed" v="50"/>
    <tag k="maxspeed:source" v="default residential speed limit in Australia"/>
    <tag k="name" v="Somerset Road"/>
  </way>
  <way id="38866313" version="3" timestamp="2012-01-19T03:09:48Z" uid="147510" user="woodpeck_fixbot" changeset="10433650">
    <nd ref="461665192"/>
    <nd ref="461665162"/>
    <nd ref="461665164"/>
    <nd ref="461665165"/>
    <nd ref="461665495"/>
    <nd ref="461665166"/>
    <nd ref="461665167"/>
    <nd ref="461665177"/>
    <nd ref="461665168"/>
    <nd ref="461665169"/>
    <tag k="highway" v="residential"/>
    <tag k="name" v="Somerset Road"/>
  </way>
  <way id="38866314" version="2" timestamp="2010-07-08T09:21:23Z" uid="74617" user="JohnSmith" changeset="5164427">
    <nd ref="461665189"/>
    <nd ref="461665192"/>
    <tag k="highway" v="residential"/>
    <tag k="maxspeed" v="50"/>
    <tag k="maxspeed:source" v="default residential speed limit in Australia"/>
    <tag k="name" v="Somerset Road"/>
    <tag k="surface" v="unpaved"/>
  </way>
  <way id="38866314" version="3" timestamp="2012-01-19T03:09:49Z" uid="147510" user="woodpeck_fixbot" changeset="10433650">
    <nd ref="461665189"/>
    <nd ref="461665192"/>
    <tag k="highway" v="residential"/>
    <tag k="name" v="Somerset Road"/>
    <tag k="surface" v="unpaved"/>
  </way>
  <way id="38866315" version="3" timestamp="2010-07-08T09:20:34Z" uid="74617" user="JohnSmith" changeset="5164427">
    <nd ref="461665193"/>
    <nd ref="461665144"/>
    <nd ref="461665196"/>
    <tag k="highway" v="residential"/>
    <tag k="maxspeed" v="50"/>
    <tag k="maxspeed:source" v="default residential speed limit in Australia"/>
  </way>
  <way id="38866315" version="4" timestamp="2012-01-19T03:09:50Z" uid="147510" user="woodpeck_fixbot" changeset="10433650">
    <nd ref="461665193"/>
    <nd ref="461665144"/>
    <nd ref="461665196"/>
    <tag k="highway" v="residential"/>
  </way>
  <way id="38866317" version="3" timestamp="2010-07-08T09:20:59Z" uid="74617" user="JohnSmith" changeset="5164427">
    <nd ref="461665201"/>
    <nd ref="461665202"/>
    <tag k="highway" v="residential"/>
    <tag k="maxspeed" v="50"/>
    <tag k="maxspeed:source" v="default residential speed limit in Australia"/>
    <tag k="name" v="McDonald Street"/>
  </way>
  <way id="38866317" version="4" timestamp="2012-01-19T03:09:51Z" uid="147510" user="woodpeck_fixbot" changeset="10433650">
    <nd ref="461665201"/>
    <nd ref="461665202"/>
    <tag k="highway" v="residential"/>
    <tag k="name" v="McDonald Street"/>
  </way>
  <way id="38866318" version="3" timestamp="2010-07-08T09:24:43Z" uid="74617" user="JohnSmith" changeset="5164427">
    <nd ref="461665118"/>
    <nd ref="461665203"/>
    <tag k="highway" v="residential"/>
    <tag k="maxspeed" v="50"/>
    <tag k="maxspeed:source" v="default residential speed limit in Australia"/>
    <tag k="name" v="Beak Street"/>
  </way>
  <way id="38866318" version="4" timestamp="2012-01-19T03:09:52Z" uid="147510" user="woodpeck_fixbot" changeset="10433650">
    <nd ref="461665118"/>
    <nd ref="461665203"/>
    <tag k="highway" v="residential"/>
    <tag k="name" v="Beak Street"/>
  </way>
  <way id="38866319" version="3" timestamp="2010-07-08T09:23:33Z" uid="74617" user="JohnSmith" changeset="5164427">
    <nd ref="461665205"/>
    <nd ref="461665204"/>
    <tag k="highway" v="residential"/>
    <tag k="maxspeed" v="50"/>
    <tag k="maxspeed:source" v="default residential speed limit in Australia"/>
    <tag k="name" v="Brooks Street"/>
    <tag k="source" v="Yahoo"/>
  </way>
  <way id="38866319" version="4" timestamp="2012-01-19T03:09:53Z" uid="147510" user="woodpeck_fixbot" changeset="10433650">
    <nd ref="461665205"/>
    <nd ref="461665204"/>
    <tag k="highway" v="residential"/>
    <tag k="name" v="Brooks Street"/>
    <tag k="source" v="Yahoo"/>
  </way>
  <way id="38866322" version="3" timestamp="2009-08-12T12:54:10Z" uid="4467" user="Rosscoe" changeset="2118516">
    <nd ref="462255062"/>
    <nd ref="461665211"/>
    <nd ref="461665212"/>
    <nd ref="462255061"/>
    <nd ref="462178525"/>
    <nd ref="462255062"/>
    <tag k="amenity" v="parking"/>
  </way>
  <way id="38866323" version="3" timestamp="2010-07-08T09:18:01Z" uid="74617" user="JohnSmith" changeset="5164427">
    <nd ref="430277238"/>
    <nd ref="461665214"/>
    <tag k="highway" v="residential"/>
    <tag k="maxspeed" v="50"/>
    <tag k="maxspeed:source" v="default residential speed limit in Australia"/>
    <tag k="name" v="Roy Place"/>
  </way>
  <way id="38866323" version="4" timestamp="2012-01-19T03:09:54Z" uid="147510" user="woodpeck_fixbot" changeset="10433650">
    <nd ref="430277238"/>
    <nd ref="461665214"/>
    <tag k="highway" v="residential"/>
    <tag k="name" v="Roy Place"/>
  </way>
  <way id="38866324" version="3" timestamp="2010-07-08T09:19:37Z" uid="74617" user="JohnSmith" changeset="5164427">
    <nd ref="461665215"/>
    <nd ref="461665232"/>
    <nd ref="461665216"/>
    <nd ref="461665229"/>
    <nd ref="461665217"/>
    <nd ref="461717868"/>
    <nd ref="461665224"/>
    <nd ref="461665225"/>
    <nd ref="461665226"/>
    <tag k="highway" v="residential"/>
    <tag k="maxspeed" v="50"/>
    <tag k="maxspeed:source" v="default residential speed limit in Australia"/>
    <tag k="name" v="John Oxley Drive"/>
  </way>
  <way id="38866324" version="4" timestamp="2012-01-19T03:09:55Z" uid="147510" user="woodpeck_fixbot" changeset="10433650">
    <nd ref="461665215"/>
    <nd ref="461665232"/>
    <nd ref="461665216"/>
    <nd ref="461665229"/>
    <nd ref="461665217"/>
    <nd ref="461717868"/>
    <nd ref="461665224"/>
    <nd ref="461665225"/>
    <nd ref="461665226"/>
    <tag k="highway" v="residential"/>
    <tag k="name" v="John Oxley Drive"/>
  </way>
  <way id="38866326" version="3" timestamp="2010-07-08T09:21:49Z" uid="74617" user="JohnSmith" changeset="5164427">
    <nd ref="461665225"/>
    <nd ref="461665227"/>
    <nd ref="461665228"/>
    <tag k="highway" v="residential"/>
    <tag k="maxspeed" v="50"/>
    <tag k="maxspeed:source" v="default residential speed limit in Australia"/>
    <tag k="name" v="Burke and Wills Drive"/>
  </way>
  <way id="38866326" version="4" timestamp="2012-01-19T03:09:56Z" uid="147510" user="woodpeck_fixbot" changeset="10433650">
    <nd ref="461665225"/>
    <nd ref="461665227"/>
    <nd ref="461665228"/>
    <tag k="highway" v="residential"/>
    <tag k="name" v="Burke and Wills Drive"/>
  </way>
  <way id="38866327" version="3" timestamp="2010-07-08T09:20:54Z" uid="74617" user="JohnSmith" changeset="5164427">
    <nd ref="461665229"/>
    <nd ref="461665230"/>
    <tag k="highway" v="residential"/>
    <tag k="maxspeed" v="50"/>
    <tag k="maxspeed:source" v="default residential speed limit in Australia"/>
    <tag k="name" v="Mitchell Court"/>
  </way>
  <way id="38866327" version="4" timestamp="2012-01-19T03:09:57Z" uid="147510" user="woodpeck_fixbot" changeset="10433650">
    <nd ref="461665229"/>
    <nd ref="461665230"/>
    <tag k="highway" v="residential"/>
    <tag k="name" v="Mitchell Court"/>
  </way>
  <way id="38866328" version="3" timestamp="2010-07-08T09:22:44Z" uid="74617" user="JohnSmith" changeset="5164427">
    <nd ref="461665231"/>
    <nd ref="461665232"/>
    <tag k="highway" v="residential"/>
    <tag k="maxspeed" v="50"/>
    <tag k="maxspeed:source" v="default residential speed limit in Australia"/>
    <tag k="name" v="Sturt Court"/>
  </way>
  <way id="38866328" version="4" timestamp="2012-01-19T03:09:58Z" uid="147510" user="woodpeck_fixbot" changeset="10433650">
    <nd ref="461665231"/>
    <nd ref="461665232"/>
    <tag k="highway" v="residential"/>
    <tag k="name" v="Sturt Court"/>
  </way>
  <way id="38866329" version="3" timestamp="2010-07-08T09:21:20Z" uid="74617" user="JohnSmith" changeset="5164427">
    <nd ref="461665236"/>
    <nd ref="461665235"/>
    <nd ref="461665233"/>
    <nd ref="461665219"/>
    <nd ref="461665220"/>
    <nd ref="461665221"/>
    <nd ref="461665222"/>
    <nd ref="461665223"/>
    <tag k="highway" v="residential"/>
    <tag k="maxspeed" v="50"/>
    <tag k="maxspeed:source" v="default residential speed limit in Australia"/>
    <tag k="name" v="Leichardt Drive"/>
  </way>
  <way id="38866329" version="4" timestamp="2012-01-19T03:09:59Z" uid="147510" user="woodpeck_fixbot" changeset="10433650">
    <nd ref="461665236"/>
    <nd ref="461665235"/>
    <nd ref="461665233"/>
    <nd ref="461665219"/>
    <nd ref="461665220"/>
    <nd ref="461665221"/>
    <nd ref="461665222"/>
    <nd ref="461665223"/>
    <tag k="highway" v="residential"/>
    <tag k="name" v="Leichardt Drive"/>
  </way>
  <way id="38866330" version="3" timestamp="2010-07-08T09:25:38Z" uid="74617" user="JohnSmith" changeset="5164427">
    <nd ref="461665238"/>
    <nd ref="461665239"/>
    <tag k="highway" v="residential"/>
    <tag k="maxspeed" v="50"/>
    <tag k="maxspeed:source" v="default residential speed limit in Australia"/>
    <tag k="name" v="Cunningham Court"/>
  </way>
  <way id="38866330" version="4" timestamp="2012-01-19T03:10:01Z" uid="147510" user="woodpeck_fixbot" changeset="10433650">
    <nd ref="461665238"/>
    <nd ref="461665239"/>
    <tag k="highway" v="residential"/>
    <tag k="name" v="Cunningham Court"/>
  </way>
  <way id="38866331" version="3" timestamp="2010-07-08T09:24:12Z" uid="74617" user="JohnSmith" changeset="5164427">
    <nd ref="461665240"/>
    <nd ref="461665239"/>
    <nd ref="461665241"/>
    <nd ref="461665254"/>
    <nd ref="461665242"/>
    <nd ref="461665243"/>
    <nd ref="461665244"/>
    <nd ref="461665245"/>
    <nd ref="461665246"/>
    <nd ref="461665247"/>
    <nd ref="461665248"/>
    <tag k="highway" v="residential"/>
    <tag k="maxspeed" v="50"/>
    <tag k="maxspeed:source" v="default residential speed limit in Australia"/>
    <tag k="name" v="John Oxley Drive"/>
  </way>
  <way id="38866331" version="4" timestamp="2012-01-19T03:10:02Z" uid="147510" user="woodpeck_fixbot" changeset="10433650">
    <nd ref="461665240"/>
    <nd ref="461665239"/>
    <nd ref="461665241"/>
    <nd ref="461665254"/>
    <nd ref="461665242"/>
    <nd ref="461665243"/>
    <nd ref="461665244"/>
    <nd ref="461665245"/>
    <nd ref="461665246"/>
    <nd ref="461665247"/>
    <nd ref="461665248"/>
    <tag k="highway" v="residential"/>
    <tag k="name" v="John Oxley Drive"/>
  </way>
  <way id="38866332" version="2" timestamp="2010-07-08T09:18:07Z" uid="74617" user="JohnSmith" changeset="5164427">
    <nd ref="461665249"/>
    <nd ref="461665245"/>
    <tag k="highway" v="residential"/>
    <tag k="maxspeed" v="50"/>
    <tag k="maxspeed:source" v="default residential speed limit in Australia"/>
  </way>
  <way id="38866332" version="3" timestamp="2012-01-19T03:10:03Z" uid="147510" user="woodpeck_fixbot" changeset="10433650">
    <nd ref="461665249"/>
    <nd ref="461665245"/>
    <tag k="highway" v="residential"/>
  </way>
  <way id="38866333" version="2" timestamp="2010-07-08T09:24:42Z" uid="74617" user="JohnSmith" changeset="5164427">
    <nd ref="461665243"/>
    <nd ref="461665250"/>
    <tag k="highway" v="residential"/>
    <tag k="maxspeed" v="50"/>
    <tag k="maxspeed:source" v="default residential speed limit in Australia"/>
  </way>
  <way id="38866333" version="3" timestamp="2012-01-19T03:10:04Z" uid="147510" user="woodpeck_fixbot" changeset="10433650">
    <nd ref="461665243"/>
    <nd ref="461665250"/>
    <tag k="highway" v="residential"/>
  </way>
  <way id="38866334" version="3" timestamp="2010-07-08T09:20:31Z" uid="74617" user="JohnSmith" changeset="5164427">
    <nd ref="461665251"/>
    <nd ref="461665252"/>
    <nd ref="461665253"/>
    <nd ref="461665254"/>
    <tag k="highway" v="residential"/>
    <tag k="maxspeed" v="50"/>
    <tag k="maxspeed:source" v="default residential speed limit in Australia"/>
    <tag k="name" v="Lawson Court"/>
  </way>
  <way id="38866334" version="4" timestamp="2012-01-19T03:10:05Z" uid="147510" user="woodpeck_fixbot" changeset="10433650">
    <nd ref="461665251"/>
    <nd ref="461665252"/>
    <nd ref="461665253"/>
    <nd ref="461665254"/>
    <tag k="highway" v="residential"/>
    <tag k="name" v="Lawson Court"/>
  </way>
  <way id="38866335" version="3" timestamp="2010-07-08T09:19:12Z" uid="74617" user="JohnSmith" changeset="5164427">
    <nd ref="461665261"/>
    <nd ref="461665262"/>
    <tag k="highway" v="residential"/>
    <tag k="maxspeed" v="50"/>
    <tag k="maxspeed:source" v="default residential speed limit in Australia"/>
    <tag k="name" v="Govind Court"/>
  </way>
  <way id="38866335" version="4" timestamp="2012-01-19T03:10:06Z" uid="147510" user="woodpeck_fixbot" changeset="10433650">
    <nd ref="461665261"/>
    <nd ref="461665262"/>
    <tag k="highway" v="residential"/>
    <tag k="name" v="Govind Court"/>
  </way>
  <way id="38866336" version="3" timestamp="2010-07-08T09:20:24Z" uid="74617" user="JohnSmith" changeset="5164427">
    <nd ref="461665265"/>
    <nd ref="461665267"/>
    <nd ref="461665268"/>
    <nd ref="461665269"/>
    <nd ref="461665270"/>
    <nd ref="461665271"/>
    <nd ref="461665272"/>
    <nd ref="461665259"/>
    <tag k="highway" v="residential"/>
    <tag k="maxspeed" v="50"/>
    <tag k="maxspeed:source" v="default residential speed limit in Australia"/>
    <tag k="name" v="Tippet Crescent"/>
  </way>
  <way id="38866336" version="4" timestamp="2012-01-19T03:10:07Z" uid="147510" user="woodpeck_fixbot" changeset="10433650">
    <nd ref="461665265"/>
    <nd ref="461665267"/>
    <nd ref="461665268"/>
    <nd ref="461665269"/>
    <nd ref="461665270"/>
    <nd ref="461665271"/>
    <nd ref="461665272"/>
    <nd ref="461665259"/>
    <tag k="highway" v="residential"/>
    <tag k="name" v="Tippet Crescent"/>
  </way>
  <way id="38866337" version="3" timestamp="2010-07-08T09:19:06Z" uid="74617" user="JohnSmith" changeset="5164427">
    <nd ref="461665257"/>
    <nd ref="461665273"/>
    <nd ref="461665274"/>
    <nd ref="461665275"/>
    <nd ref="461665276"/>
    <nd ref="461665278"/>
    <nd ref="461665279"/>
    <nd ref="461665280"/>
    <nd ref="461665282"/>
    <nd ref="461665283"/>
    <nd ref="461665285"/>
    <nd ref="461665259"/>
    <tag k="highway" v="residential"/>
    <tag k="maxspeed" v="50"/>
    <tag k="maxspeed:source" v="default residential speed limit in Australia"/>
    <tag k="name" v="Jamie Crescent"/>
  </way>
  <way id="38866337" version="4" timestamp="2012-01-19T03:10:09Z" uid="147510" user="woodpeck_fixbot" changeset="10433650">
    <nd ref="461665257"/>
    <nd ref="461665273"/>
    <nd ref="461665274"/>
    <nd ref="461665275"/>
    <nd ref="461665276"/>
    <nd ref="461665278"/>
    <nd ref="461665279"/>
    <nd ref="461665280"/>
    <nd ref="461665282"/>
    <nd ref="461665283"/>
    <nd ref="461665285"/>
    <nd ref="461665259"/>
    <tag k="highway" v="residential"/>
    <tag k="name" v="Jamie Crescent"/>
  </way>
  <way id="38866338" version="3" timestamp="2010-07-08T09:22:32Z" uid="74617" user="JohnSmith" changeset="5164427">
    <nd ref="461665286"/>
    <nd ref="461665287"/>
    <nd ref="461665289"/>
    <nd ref="461665290"/>
    <nd ref="461665295"/>
    <nd ref="461665292"/>
    <nd ref="461665274"/>
    <tag k="highway" v="residential"/>
    <tag k="maxspeed" v="50"/>
    <tag k="maxspeed:source" v="default residential speed limit in Australia"/>
    <tag k="name" v="Thomas Street"/>
  </way>
  <way id="38866338" version="4" timestamp="2012-01-19T03:10:10Z" uid="147510" user="woodpeck_fixbot" changeset="10433650">
    <nd ref="461665286"/>
    <nd ref="461665287"/>
    <nd ref="461665289"/>
    <nd ref="461665290"/>
    <nd ref="461665295"/>
    <nd ref="461665292"/>
    <nd ref="461665274"/>
    <tag k="highway" v="residential"/>
    <tag k="name" v="Thomas Street"/>
  </way>
  <way id="38866339" version="3" timestamp="2010-07-08T09:21:14Z" uid="74617" user="JohnSmith" changeset="5164427">
    <nd ref="461665293"/>
    <nd ref="461665295"/>
    <tag k="highway" v="residential"/>
    <tag k="maxspeed" v="50"/>
    <tag k="maxspeed:source" v="default residential speed limit in Australia"/>
    <tag k="name" v="Bates Court"/>
  </way>
  <way id="38866339" version="4" timestamp="2012-01-19T03:10:12Z" uid="147510" user="woodpeck_fixbot" changeset="10433650">
    <nd ref="461665293"/>
    <nd ref="461665295"/>
    <tag k="highway" v="residential"/>
    <tag k="name" v="Bates Court"/>
  </way>
  <way id="38866340" version="3" timestamp="2010-07-08T09:23:24Z" uid="74617" user="JohnSmith" changeset="5164427">
    <nd ref="461665296"/>
    <nd ref="461665263"/>
    <tag k="highway" v="residential"/>
    <tag k="maxspeed" v="50"/>
    <tag k="maxspeed:source" v="default residential speed limit in Australia"/>
    <tag k="name" v="Woodgate Court"/>
  </way>
  <way id="38866340" version="4" timestamp="2012-01-19T03:10:13Z" uid="147510" user="woodpeck_fixbot" changeset="10433650">
    <nd ref="461665296"/>
    <nd ref="461665263"/>
    <tag k="highway" v="residential"/>
    <tag k="name" v="Woodgate Court"/>
  </way>
  <way id="38866341" version="3" timestamp="2010-07-08T09:21:46Z" uid="74617" user="JohnSmith" changeset="5164427">
    <nd ref="461665298"/>
    <nd ref="461665263"/>
    <tag k="highway" v="residential"/>
    <tag k="maxspeed" v="50"/>
    <tag k="maxspeed:source" v="default residential speed limit in Australia"/>
    <tag k="name" v="Hunter Lane"/>
  </way>
  <way id="38866341" version="4" timestamp="2012-01-19T03:10:14Z" uid="147510" user="woodpeck_fixbot" changeset="10433650">
    <nd ref="461665298"/>
    <nd ref="461665263"/>
    <tag k="highway" v="residential"/>
    <tag k="name" v="Hunter Lane"/>
  </way>
  <way id="38866342" version="3" timestamp="2010-07-08T09:17:55Z" uid="74617" user="JohnSmith" changeset="5164427">
    <nd ref="461665307"/>
    <nd ref="461665308"/>
    <tag k="highway" v="residential"/>
    <tag k="maxspeed" v="50"/>
    <tag k="maxspeed:source" v="default residential speed limit in Australia"/>
    <tag k="name" v="Pamela Court"/>
  </way>
  <way id="38866342" version="4" timestamp="2012-01-19T03:10:15Z" uid="147510" user="woodpeck_fixbot" changeset="10433650">
    <nd ref="461665307"/>
    <nd ref="461665308"/>
    <tag k="highway" v="residential"/>
    <tag k="name" v="Pamela Court"/>
  </way>
  <way id="38866343" version="3" timestamp="2010-07-08T09:24:35Z" uid="74617" user="JohnSmith" changeset="5164427">
    <nd ref="461665321"/>
    <nd ref="461665314"/>
    <tag k="highway" v="residential"/>
    <tag k="maxspeed" v="50"/>
    <tag k="maxspeed:source" v="default residential speed limit in Australia"/>
  </way>
  <way id="38866343" version="4" timestamp="2012-01-19T03:10:16Z" uid="147510" user="woodpeck_fixbot" changeset="10433650">
    <nd ref="461665321"/>
    <nd ref="461665314"/>
    <tag k="highway" v="residential"/>
  </way>
  <way id="38866345" version="2" timestamp="2009-08-12T12:54:12Z" uid="4467" user="Rosscoe" changeset="2118516">
    <nd ref="462255054"/>
    <nd ref="462255052"/>
    <nd ref="462255053"/>
    <nd ref="462255054"/>
    <tag k="leisure" v="garden"/>
  </way>
  <way id="38866346" version="4" timestamp="2010-07-08T09:20:52Z" uid="74617" user="JohnSmith" changeset="5164427">
    <nd ref="465206480"/>
    <nd ref="465206481"/>
    <nd ref="465206479"/>
    <nd ref="430277614"/>
    <nd ref="430277612"/>
    <nd ref="430277611"/>
    <tag k="highway" v="residential"/>
    <tag k="maxspeed" v="50"/>
    <tag k="maxspeed:source" v="default residential speed limit in Australia"/>
    <tag k="name" v="Victoria Street"/>
    <tag k="source" v="survey"/>
  </way>
  <way id="38866346" version="5" timestamp="2012-01-19T03:10:17Z" uid="147510" user="woodpeck_fixbot" changeset="10433650">
    <nd ref="465206480"/>
    <nd ref="465206481"/>
    <nd ref="465206479"/>
    <nd ref="430277614"/>
    <nd ref="430277612"/>
    <nd ref="430277611"/>
    <tag k="highway" v="residential"/>
    <tag k="name" v="Victoria Street"/>
    <tag k="source" v="survey"/>
  </way>
  <way id="38866348" version="3" timestamp="2010-07-08T09:21:17Z" uid="74617" user="JohnSmith" changeset="5164427">
    <nd ref="430277316"/>
    <nd ref="430277294"/>
    <nd ref="430277323"/>
    <nd ref="430277318"/>
    <nd ref="247807990"/>
    <nd ref="430277320"/>
    <tag k="highway" v="residential"/>
    <tag k="maxspeed" v="50"/>
    <tag k="maxspeed:source" v="default residential speed limit in Australia"/>
    <tag k="name" v="Fisher Street"/>
    <tag k="source" v="Yahoo"/>
  </way>
  <way id="38866348" version="4" timestamp="2012-01-19T03:10:18Z" uid="147510" user="woodpeck_fixbot" changeset="10433650">
    <nd ref="430277316"/>
    <nd ref="430277294"/>
    <nd ref="430277323"/>
    <nd ref="430277318"/>
    <nd ref="247807990"/>
    <nd ref="430277320"/>
    <tag k="highway" v="residential"/>
    <tag k="name" v="Fisher Street"/>
    <tag k="source" v="Yahoo"/>
  </way>
  <way id="38866354" version="3" timestamp="2010-07-08T09:18:32Z" uid="74617" user="JohnSmith" changeset="5164427">
    <nd ref="461665352"/>
    <nd ref="461665351"/>
    <nd ref="461665354"/>
    <tag k="highway" v="residential"/>
    <tag k="maxspeed" v="50"/>
    <tag k="maxspeed:source" v="default residential speed limit in Australia"/>
    <tag k="name" v="Salmon Street"/>
  </way>
  <way id="38866354" version="4" timestamp="2012-01-19T03:10:20Z" uid="147510" user="woodpeck_fixbot" changeset="10433650">
    <nd ref="461665352"/>
    <nd ref="461665351"/>
    <nd ref="461665354"/>
    <tag k="highway" v="residential"/>
    <tag k="name" v="Salmon Street"/>
  </way>
  <way id="38866355" version="3" timestamp="2010-07-08T09:25:14Z" uid="74617" user="JohnSmith" changeset="5164427">
    <nd ref="461665354"/>
    <nd ref="461665355"/>
    <tag k="highway" v="residential"/>
    <tag k="maxspeed" v="50"/>
    <tag k="maxspeed:source" v="default residential speed limit in Australia"/>
    <tag k="name" v="Pierce Street"/>
  </way>
  <way id="38866355" version="4" timestamp="2012-01-19T03:10:21Z" uid="147510" user="woodpeck_fixbot" changeset="10433650">
    <nd ref="461665354"/>
    <nd ref="461665355"/>
    <tag k="highway" v="residential"/>
    <tag k="name" v="Pierce Street"/>
  </way>
  <way id="38866356" version="3" timestamp="2010-07-08T09:19:03Z" uid="74617" user="JohnSmith" changeset="5164427">
    <nd ref="461665349"/>
    <nd ref="461665351"/>
    <tag k="highway" v="residential"/>
    <tag k="maxspeed" v="50"/>
    <tag k="maxspeed:source" v="default residential speed limit in Australia"/>
    <tag k="name" v="Beck Street"/>
  </way>
  <way id="38866356" version="4" timestamp="2012-01-19T03:10:22Z" uid="147510" user="woodpeck_fixbot" changeset="10433650">
    <nd ref="461665349"/>
    <nd ref="461665351"/>
    <tag k="highway" v="residential"/>
    <tag k="name" v="Beck Street"/>
  </way>
  <way id="38866357" version="3" timestamp="2010-07-08T09:17:51Z" uid="74617" user="JohnSmith" changeset="5164427">
    <nd ref="461665363"/>
    <nd ref="461665364"/>
    <nd ref="461665367"/>
    <tag k="highway" v="residential"/>
    <tag k="maxspeed" v="50"/>
    <tag k="maxspeed:source" v="default residential speed limit in Australia"/>
    <tag k="name" v="Alexander Court"/>
  </way>
  <way id="38866357" version="4" timestamp="2012-01-19T03:10:23Z" uid="147510" user="woodpeck_fixbot" changeset="10433650">
    <nd ref="461665363"/>
    <nd ref="461665364"/>
    <nd ref="461665367"/>
    <tag k="highway" v="residential"/>
    <tag k="name" v="Alexander Court"/>
  </way>
  <way id="38866359" version="3" timestamp="2010-07-08T09:20:18Z" uid="74617" user="JohnSmith" changeset="5164427">
    <nd ref="461665373"/>
    <nd ref="461665380"/>
    <nd ref="461665375"/>
    <nd ref="461665376"/>
    <nd ref="461665377"/>
    <nd ref="461665379"/>
    <nd ref="461665380"/>
    <tag k="highway" v="residential"/>
    <tag k="maxspeed" v="50"/>
    <tag k="maxspeed:source" v="default residential speed limit in Australia"/>
    <tag k="name" v="Jillian Court"/>
  </way>
  <way id="38866359" version="4" timestamp="2012-01-19T03:10:24Z" uid="147510" user="woodpeck_fixbot" changeset="10433650">
    <nd ref="461665373"/>
    <nd ref="461665380"/>
    <nd ref="461665375"/>
    <nd ref="461665376"/>
    <nd ref="461665377"/>
    <nd ref="461665379"/>
    <nd ref="461665380"/>
    <tag k="highway" v="residential"/>
    <tag k="name" v="Jillian Court"/>
  </way>
  <way id="38866360" version="3" timestamp="2010-07-08T09:21:42Z" uid="74617" user="JohnSmith" changeset="5164427">
    <nd ref="430277660"/>
    <nd ref="430277656"/>
    <nd ref="430277655"/>
    <nd ref="430277676"/>
    <nd ref="430277665"/>
    <nd ref="430277661"/>
    <nd ref="430277664"/>
    <nd ref="430277662"/>
    <tag k="highway" v="residential"/>
    <tag k="maxspeed" v="50"/>
    <tag k="maxspeed:source" v="default residential speed limit in Australia"/>
    <tag k="name" v="McLaughlin Street"/>
    <tag k="source" v="Yahoo"/>
  </way>
  <way id="38866360" version="4" timestamp="2012-01-19T03:10:26Z" uid="147510" user="woodpeck_fixbot" changeset="10433650">
    <nd ref="430277660"/>
    <nd ref="430277656"/>
    <nd ref="430277655"/>
    <nd ref="430277676"/>
    <nd ref="430277665"/>
    <nd ref="430277661"/>
    <nd ref="430277664"/>
    <nd ref="430277662"/>
    <tag k="highway" v="residential"/>
    <tag k="name" v="McLaughlin Street"/>
    <tag k="source" v="Yahoo"/>
  </way>
  <way id="38866361" version="3" timestamp="2010-07-08T09:20:49Z" uid="74617" user="JohnSmith" changeset="5164427">
    <nd ref="461665382"/>
    <nd ref="461665384"/>
    <nd ref="461665390"/>
    <nd ref="461665383"/>
    <tag k="highway" v="residential"/>
    <tag k="maxspeed" v="50"/>
    <tag k="maxspeed:source" v="default residential speed limit in Australia"/>
    <tag k="name" v="Owen Avenue"/>
  </way>
  <way id="38866361" version="4" timestamp="2012-01-19T03:10:27Z" uid="147510" user="woodpeck_fixbot" changeset="10433650">
    <nd ref="461665382"/>
    <nd ref="461665384"/>
    <nd ref="461665390"/>
    <nd ref="461665383"/>
    <tag k="highway" v="residential"/>
    <tag k="name" v="Owen Avenue"/>
  </way>
  <way id="38866362" version="3" timestamp="2010-07-08T09:24:33Z" uid="74617" user="JohnSmith" changeset="5164427">
    <nd ref="461665384"/>
    <nd ref="461665385"/>
    <nd ref="461665386"/>
    <nd ref="461665387"/>
    <nd ref="461665388"/>
    <nd ref="461665390"/>
    <tag k="highway" v="residential"/>
    <tag k="maxspeed" v="50"/>
    <tag k="maxspeed:source" v="default residential speed limit in Australia"/>
    <tag k="name" v="Moree Crescent"/>
  </way>
  <way id="38866362" version="4" timestamp="2012-01-19T03:10:29Z" uid="147510" user="woodpeck_fixbot" changeset="10433650">
    <nd ref="461665384"/>
    <nd ref="461665385"/>
    <nd ref="461665386"/>
    <nd ref="461665387"/>
    <nd ref="461665388"/>
    <nd ref="461665390"/>
    <tag k="highway" v="residential"/>
    <tag k="name" v="Moree Crescent"/>
  </way>
  <way id="38866363" version="3" timestamp="2010-07-08T09:23:21Z" uid="74617" user="JohnSmith" changeset="5164427">
    <nd ref="461665392"/>
    <nd ref="461665394"/>
    <tag k="highway" v="residential"/>
    <tag k="maxspeed" v="50"/>
    <tag k="maxspeed:source" v="default residential speed limit in Australia"/>
    <tag k="name" v="Lister Street"/>
    <tag k="surface" v="unpaved"/>
  </way>
  <way id="38866363" version="4" timestamp="2012-01-19T03:10:30Z" uid="147510" user="woodpeck_fixbot" changeset="10433650">
    <nd ref="461665392"/>
    <nd ref="461665394"/>
    <tag k="highway" v="residential"/>
    <tag k="name" v="Lister Street"/>
    <tag k="surface" v="unpaved"/>
  </way>
  <way id="38866364" version="3" timestamp="2010-07-08T09:25:24Z" uid="74617" user="JohnSmith" changeset="5164427">
    <nd ref="461665395"/>
    <nd ref="461717883"/>
    <nd ref="461665397"/>
    <nd ref="461665414"/>
    <nd ref="461665396"/>
    <tag k="highway" v="residential"/>
    <tag k="maxspeed" v="50"/>
    <tag k="maxspeed:source" v="default residential speed limit in Australia"/>
    <tag k="name" v="Rosella Drive"/>
  </way>
  <way id="38866364" version="4" timestamp="2012-01-19T03:10:31Z" uid="147510" user="woodpeck_fixbot" changeset="10433650">
    <nd ref="461665395"/>
    <nd ref="461717883"/>
    <nd ref="461665397"/>
    <nd ref="461665414"/>
    <nd ref="461665396"/>
    <tag k="highway" v="residential"/>
    <tag k="name" v="Rosella Drive"/>
  </way>
  <way id="38866365" version="3" timestamp="2010-07-08T09:24:02Z" uid="74617" user="JohnSmith" changeset="5164427">
    <nd ref="461665397"/>
    <nd ref="461665398"/>
    <nd ref="461665399"/>
    <nd ref="461665400"/>
    <nd ref="461665402"/>
    <nd ref="461665403"/>
    <nd ref="461665404"/>
    <nd ref="461665396"/>
    <nd ref="461665405"/>
    <nd ref="461665407"/>
    <nd ref="461665417"/>
    <nd ref="461665408"/>
    <nd ref="461665409"/>
    <nd ref="461665410"/>
    <nd ref="461665411"/>
    <nd ref="461665412"/>
    <nd ref="461665397"/>
    <tag k="highway" v="residential"/>
    <tag k="maxspeed" v="50"/>
    <tag k="maxspeed:source" v="default residential speed limit in Australia"/>
    <tag k="name" v="Corella Drive"/>
  </way>
  <way id="38866365" version="4" timestamp="2012-01-19T03:10:32Z" uid="147510" user="woodpeck_fixbot" changeset="10433650">
    <nd ref="461665397"/>
    <nd ref="461665398"/>
    <nd ref="461665399"/>
    <nd ref="461665400"/>
    <nd ref="461665402"/>
    <nd ref="461665403"/>
    <nd ref="461665404"/>
    <nd ref="461665396"/>
    <nd ref="461665405"/>
    <nd ref="461665407"/>
    <nd ref="461665417"/>
    <nd ref="461665408"/>
    <nd ref="461665409"/>
    <nd ref="461665410"/>
    <nd ref="461665411"/>
    <nd ref="461665412"/>
    <nd ref="461665397"/>
    <tag k="highway" v="residential"/>
    <tag k="name" v="Corella Drive"/>
  </way>
  <way id="38866366" version="3" timestamp="2010-07-08T09:19:31Z" uid="74617" user="JohnSmith" changeset="5164427">
    <nd ref="461665413"/>
    <nd ref="461665414"/>
    <tag k="highway" v="residential"/>
    <tag k="maxspeed" v="50"/>
    <tag k="maxspeed:source" v="default residential speed limit in Australia"/>
    <tag k="name" v="Cockatoo Court"/>
  </way>
  <way id="38866366" version="4" timestamp="2012-01-19T03:10:33Z" uid="147510" user="woodpeck_fixbot" changeset="10433650">
    <nd ref="461665413"/>
    <nd ref="461665414"/>
    <tag k="highway" v="residential"/>
    <tag k="name" v="Cockatoo Court"/>
  </way>
  <way id="38866367" version="3" timestamp="2010-07-08T09:18:37Z" uid="74617" user="JohnSmith" changeset="5164427">
    <nd ref="461665415"/>
    <nd ref="461665417"/>
    <tag k="highway" v="residential"/>
    <tag k="maxspeed" v="50"/>
    <tag k="maxspeed:source" v="default residential speed limit in Australia"/>
    <tag k="name" v="Quarrion Court"/>
  </way>
  <way id="38866367" version="4" timestamp="2012-01-19T03:10:34Z" uid="147510" user="woodpeck_fixbot" changeset="10433650">
    <nd ref="461665415"/>
    <nd ref="461665417"/>
    <tag k="highway" v="residential"/>
    <tag k="name" v="Quarrion Court"/>
  </way>
  <way id="38866368" version="3" timestamp="2010-07-08T09:22:28Z" uid="74617" user="JohnSmith" changeset="5164427">
    <nd ref="461665418"/>
    <nd ref="461665419"/>
    <nd ref="461665424"/>
    <nd ref="461717899"/>
    <tag k="highway" v="residential"/>
    <tag k="maxspeed" v="50"/>
    <tag k="maxspeed:source" v="default residential speed limit in Australia"/>
    <tag k="name" v="Abby Drive"/>
  </way>
  <way id="38866368" version="4" timestamp="2012-01-19T03:10:35Z" uid="147510" user="woodpeck_fixbot" changeset="10433650">
    <nd ref="461665418"/>
    <nd ref="461665419"/>
    <nd ref="461665424"/>
    <nd ref="461717899"/>
    <tag k="highway" v="residential"/>
    <tag k="name" v="Abby Drive"/>
  </way>
  <way id="38866369" version="3" timestamp="2010-07-08T09:21:11Z" uid="74617" user="JohnSmith" changeset="5164427">
    <nd ref="461665421"/>
    <nd ref="461665423"/>
    <tag k="highway" v="residential"/>
    <tag k="maxspeed" v="50"/>
    <tag k="maxspeed:source" v="default residential speed limit in Australia"/>
    <tag k="name" v="Abby Drive"/>
  </way>
  <way id="38866369" version="4" timestamp="2012-01-19T03:10:36Z" uid="147510" user="woodpeck_fixbot" changeset="10433650">
    <nd ref="461665421"/>
    <nd ref="461665423"/>
    <tag k="highway" v="residential"/>
    <tag k="name" v="Abby Drive"/>
  </way>
  <way id="38866370" version="3" timestamp="2010-07-08T09:25:11Z" uid="74617" user="JohnSmith" changeset="5164427">
    <nd ref="461665424"/>
    <nd ref="461717908"/>
    <nd ref="461665425"/>
    <nd ref="461665427"/>
    <tag k="highway" v="residential"/>
    <tag k="maxspeed" v="50"/>
    <tag k="maxspeed:source" v="default residential speed limit in Australia"/>
    <tag k="name" v="Emery Street"/>
  </way>
  <way id="38866370" version="4" timestamp="2012-01-19T03:10:37Z" uid="147510" user="woodpeck_fixbot" changeset="10433650">
    <nd ref="461665424"/>
    <nd ref="461717908"/>
    <nd ref="461665425"/>
    <nd ref="461665427"/>
    <tag k="highway" v="residential"/>
    <tag k="name" v="Emery Street"/>
  </way>
  <way id="38866371" version="3" timestamp="2010-07-08T09:23:55Z" uid="74617" user="JohnSmith" changeset="5164427">
    <nd ref="461665432"/>
    <nd ref="461717909"/>
    <nd ref="461717906"/>
    <tag k="highway" v="residential"/>
    <tag k="maxspeed" v="50"/>
    <tag k="maxspeed:source" v="default residential speed limit in Australia"/>
    <tag k="name" v="Audrey Drive"/>
  </way>
  <way id="38866371" version="4" timestamp="2012-01-19T03:10:39Z" uid="147510" user="woodpeck_fixbot" changeset="10433650">
    <nd ref="461665432"/>
    <nd ref="461717909"/>
    <nd ref="461717906"/>
    <tag k="highway" v="residential"/>
    <tag k="name" v="Audrey Drive"/>
  </way>
  <way id="38866372" version="3" timestamp="2010-07-08T09:17:49Z" uid="74617" user="JohnSmith" changeset="5164427">
    <nd ref="461665433"/>
    <nd ref="461665434"/>
    <tag k="highway" v="residential"/>
    <tag k="maxspeed" v="50"/>
    <tag k="maxspeed:source" v="default residential speed limit in Australia"/>
    <tag k="name" v="Kate Street"/>
  </way>
  <way id="38866372" version="4" timestamp="2012-01-19T03:10:39Z" uid="147510" user="woodpeck_fixbot" changeset="10433650">
    <nd ref="461665433"/>
    <nd ref="461665434"/>
    <tag k="highway" v="residential"/>
    <tag k="name" v="Kate Street"/>
  </way>
  <way id="38866373" version="4" timestamp="2010-07-08T09:24:32Z" uid="74617" user="JohnSmith" changeset="5164427">
    <nd ref="461665435"/>
    <nd ref="461665430"/>
    <nd ref="463322075"/>
    <nd ref="463322289"/>
    <nd ref="461665437"/>
    <tag k="highway" v="residential"/>
    <tag k="maxspeed" v="50"/>
    <tag k="maxspeed:source" v="default residential speed limit in Australia"/>
    <tag k="name" v="Lucas Street"/>
  </way>
  <way id="38866373" version="5" timestamp="2012-01-19T03:10:40Z" uid="147510" user="woodpeck_fixbot" changeset="10433650">
    <nd ref="461665435"/>
    <nd ref="461665430"/>
    <nd ref="463322075"/>
    <nd ref="463322289"/>
    <nd ref="461665437"/>
    <tag k="highway" v="residential"/>
    <tag k="name" v="Lucas Street"/>
  </way>
  <way id="38866374" version="3" timestamp="2010-07-08T09:20:15Z" uid="74617" user="JohnSmith" changeset="5164427">
    <nd ref="461665439"/>
    <nd ref="461665441"/>
    <nd ref="461665437"/>
    <nd ref="463322773"/>
    <tag k="highway" v="residential"/>
    <tag k="maxspeed" v="50"/>
    <tag k="maxspeed:source" v="default residential speed limit in Australia"/>
    <tag k="name" v="Allen Road"/>
  </way>
  <way id="38866374" version="4" timestamp="2012-01-19T03:10:42Z" uid="147510" user="woodpeck_fixbot" changeset="10433650">
    <nd ref="461665439"/>
    <nd ref="461665441"/>
    <nd ref="461665437"/>
    <nd ref="463322773"/>
    <tag k="highway" v="residential"/>
    <tag k="name" v="Allen Road"/>
  </way>
  <way id="38866375" version="3" timestamp="2010-07-08T09:19:02Z" uid="74617" user="JohnSmith" changeset="5164427">
    <nd ref="461665444"/>
    <nd ref="461717910"/>
    <nd ref="461665458"/>
    <nd ref="461717913"/>
    <nd ref="461665470"/>
    <nd ref="461665445"/>
    <nd ref="461665447"/>
    <nd ref="461665448"/>
    <tag k="highway" v="residential"/>
    <tag k="maxspeed" v="50"/>
    <tag k="maxspeed:source" v="default residential speed limit in Australia"/>
    <tag k="name" v="Cherryfield Road"/>
  </way>
  <way id="38866375" version="4" timestamp="2012-01-19T03:10:43Z" uid="147510" user="woodpeck_fixbot" changeset="10433650">
    <nd ref="461665444"/>
    <nd ref="461717910"/>
    <nd ref="461665458"/>
    <nd ref="461717913"/>
    <nd ref="461665470"/>
    <nd ref="461665445"/>
    <nd ref="461665447"/>
    <nd ref="461665448"/>
    <tag k="highway" v="residential"/>
    <tag k="name" v="Cherryfield Road"/>
  </way>
  <way id="38866376" version="3" timestamp="2010-07-08T09:20:48Z" uid="74617" user="JohnSmith" changeset="5164427">
    <nd ref="463322769"/>
    <nd ref="463322765"/>
    <nd ref="463322761"/>
    <nd ref="463322814"/>
    <nd ref="461665449"/>
    <nd ref="461665448"/>
    <tag k="highway" v="residential"/>
    <tag k="maxspeed" v="50"/>
    <tag k="maxspeed:source" v="default residential speed limit in Australia"/>
    <tag k="surface" v="unpaved"/>
  </way>
  <way id="38866376" version="4" timestamp="2012-01-19T03:10:44Z" uid="147510" user="woodpeck_fixbot" changeset="10433650">
    <nd ref="463322769"/>
    <nd ref="463322765"/>
    <nd ref="463322761"/>
    <nd ref="463322814"/>
    <nd ref="461665449"/>
    <nd ref="461665448"/>
    <tag k="highway" v="residential"/>
    <tag k="surface" v="unpaved"/>
  </way>
  <way id="38866377" version="3" timestamp="2010-07-08T09:19:30Z" uid="74617" user="JohnSmith" changeset="5164427">
    <nd ref="461665451"/>
    <nd ref="461665452"/>
    <nd ref="461665454"/>
    <nd ref="461665455"/>
    <tag k="highway" v="residential"/>
    <tag k="maxspeed" v="50"/>
    <tag k="maxspeed:source" v="default residential speed limit in Australia"/>
    <tag k="name" v="Robertson Road"/>
  </way>
  <way id="38866377" version="4" timestamp="2012-01-19T03:10:45Z" uid="147510" user="woodpeck_fixbot" changeset="10433650">
    <nd ref="461665451"/>
    <nd ref="461665452"/>
    <nd ref="461665454"/>
    <nd ref="461665455"/>
    <tag k="highway" v="residential"/>
    <tag k="name" v="Robertson Road"/>
  </way>
  <way id="38866378" version="3" timestamp="2010-07-08T09:23:18Z" uid="74617" user="JohnSmith" changeset="5164427">
    <nd ref="461665456"/>
    <nd ref="461665455"/>
    <nd ref="461665459"/>
    <nd ref="461665458"/>
    <tag k="highway" v="residential"/>
    <tag k="maxspeed" v="50"/>
    <tag k="maxspeed:source" v="default residential speed limit in Australia"/>
    <tag k="name" v="Ingram Drive"/>
  </way>
  <way id="38866378" version="4" timestamp="2012-01-19T03:10:46Z" uid="147510" user="woodpeck_fixbot" changeset="10433650">
    <nd ref="461665456"/>
    <nd ref="461665455"/>
    <nd ref="461665459"/>
    <nd ref="461665458"/>
    <tag k="highway" v="residential"/>
    <tag k="name" v="Ingram Drive"/>
  </way>
  <way id="38866379" version="3" timestamp="2010-07-08T09:21:40Z" uid="74617" user="JohnSmith" changeset="5164427">
    <nd ref="461665459"/>
    <nd ref="461665460"/>
    <nd ref="461665462"/>
    <nd ref="461665463"/>
    <nd ref="461665465"/>
    <nd ref="461665471"/>
    <nd ref="461665466"/>
    <tag k="highway" v="residential"/>
    <tag k="maxspeed" v="50"/>
    <tag k="maxspeed:source" v="default residential speed limit in Australia"/>
    <tag k="name" v="Elizabeth Street"/>
  </way>
  <way id="38866379" version="4" timestamp="2012-01-19T03:10:47Z" uid="147510" user="woodpeck_fixbot" changeset="10433650">
    <nd ref="461665459"/>
    <nd ref="461665460"/>
    <nd ref="461665462"/>
    <nd ref="461665463"/>
    <nd ref="461665465"/>
    <nd ref="461665471"/>
    <nd ref="461665466"/>
    <tag k="highway" v="residential"/>
    <tag k="name" v="Elizabeth Street"/>
  </way>
  <way id="38866380" version="3" timestamp="2010-07-08T09:23:59Z" uid="74617" user="JohnSmith" changeset="5164427">
    <nd ref="461665466"/>
    <nd ref="461665468"/>
    <tag k="highway" v="residential"/>
    <tag k="maxspeed" v="50"/>
    <tag k="maxspeed:source" v="default residential speed limit in Australia"/>
    <tag k="name" v="Elizabeth Street"/>
    <tag k="surface" v="unpaved"/>
  </way>
  <way id="38866380" version="4" timestamp="2012-01-19T03:10:48Z" uid="147510" user="woodpeck_fixbot" changeset="10433650">
    <nd ref="461665466"/>
    <nd ref="461665468"/>
    <tag k="highway" v="residential"/>
    <tag k="name" v="Elizabeth Street"/>
    <tag k="surface" v="unpaved"/>
  </way>
  <way id="38866381" version="3" timestamp="2010-07-08T09:22:32Z" uid="74617" user="JohnSmith" changeset="5164427">
    <nd ref="461665470"/>
    <nd ref="461665471"/>
    <tag k="highway" v="residential"/>
    <tag k="maxspeed" v="50"/>
    <tag k="maxspeed:source" v="default residential speed limit in Australia"/>
    <tag k="name" v="Glover Street"/>
  </way>
  <way id="38866381" version="4" timestamp="2012-01-19T03:10:49Z" uid="147510" user="woodpeck_fixbot" changeset="10433650">
    <nd ref="461665470"/>
    <nd ref="461665471"/>
    <tag k="highway" v="residential"/>
    <tag k="name" v="Glover Street"/>
  </way>
  <way id="38866382" version="3" timestamp="2010-07-08T09:18:35Z" uid="74617" user="JohnSmith" changeset="5164427">
    <nd ref="461665473"/>
    <nd ref="461665474"/>
    <nd ref="461665465"/>
    <tag k="highway" v="residential"/>
    <tag k="maxspeed" v="50"/>
    <tag k="maxspeed:source" v="default residential speed limit in Australia"/>
    <tag k="name" v="Freeman Court"/>
  </way>
  <way id="38866382" version="4" timestamp="2012-01-19T03:10:50Z" uid="147510" user="woodpeck_fixbot" changeset="10433650">
    <nd ref="461665473"/>
    <nd ref="461665474"/>
    <nd ref="461665465"/>
    <tag k="highway" v="residential"/>
    <tag k="name" v="Freeman Court"/>
  </way>
  <way id="38866383" version="3" timestamp="2010-07-08T09:25:21Z" uid="74617" user="JohnSmith" changeset="5164427">
    <nd ref="461665476"/>
    <nd ref="461665410"/>
    <tag k="highway" v="residential"/>
    <tag k="maxspeed" v="50"/>
    <tag k="maxspeed:source" v="default residential speed limit in Australia"/>
    <tag k="name" v="Lorikeet Court"/>
  </way>
  <way id="38866383" version="4" timestamp="2012-01-19T03:10:51Z" uid="147510" user="woodpeck_fixbot" changeset="10433650">
    <nd ref="461665476"/>
    <nd ref="461665410"/>
    <tag k="highway" v="residential"/>
    <tag k="name" v="Lorikeet Court"/>
  </way>
  <way id="38866385" version="2" timestamp="2009-08-12T12:54:11Z" uid="4467" user="Rosscoe" changeset="2118516">
    <nd ref="461665481"/>
    <nd ref="461665487"/>
    <tag k="highway" v="service"/>
  </way>
  <way id="38866387" version="2" timestamp="2010-07-08T09:19:24Z" uid="74617" user="JohnSmith" changeset="5164427">
    <nd ref="461665491"/>
    <nd ref="461665493"/>
    <nd ref="461665495"/>
    <tag k="highway" v="residential"/>
    <tag k="maxspeed" v="50"/>
    <tag k="maxspeed:source" v="default residential speed limit in Australia"/>
  </way>
  <way id="38866387" version="3" timestamp="2012-01-19T03:10:52Z" uid="147510" user="woodpeck_fixbot" changeset="10433650">
    <nd ref="461665491"/>
    <nd ref="461665493"/>
    <nd ref="461665495"/>
    <tag k="highway" v="residential"/>
  </way>
  <way id="38866491" version="2" timestamp="2010-07-06T18:37:07Z" uid="74617" user="JohnSmith" changeset="5152225">
    <nd ref="461668838"/>
    <nd ref="461668843"/>
    <nd ref="461668845"/>
    <nd ref="461668847"/>
    <tag k="highway" v="residential"/>
    <tag k="maxspeed" v="50"/>
    <tag k="maxspeed:source" v="default residential speed limit in Australia"/>
    <tag k="name" v="Holmes Road"/>
    <tag k="surface" v="unpaved"/>
  </way>
  <way id="38866491" version="3" timestamp="2012-01-19T03:10:53Z" uid="147510" user="woodpeck_fixbot" changeset="10433650">
    <nd ref="461668838"/>
    <nd ref="461668843"/>
    <nd ref="461668845"/>
    <nd ref="461668847"/>
    <tag k="highway" v="residential"/>
    <tag k="name" v="Holmes Road"/>
    <tag k="surface" v="unpaved"/>
  </way>
  <way id="38866595" version="3" timestamp="2010-08-24T19:23:29Z" uid="8619" user="cetest" changeset="5582958"/>
  <way id="38866699" version="3" timestamp="2010-07-07T07:52:02Z" uid="74617" user="JohnSmith" changeset="5156250">
    <nd ref="461673582"/>
    <nd ref="461673583"/>
    <nd ref="461673584"/>
    <nd ref="461673585"/>
    <tag k="highway" v="residential"/>
    <tag k="maxspeed" v="50"/>
    <tag k="maxspeed:source" v="default residential speed limit in Australia"/>
    <tag k="name" v="Universal Court"/>
    <tag k="source" v="survey"/>
    <tag k="source:name" v="photo"/>
    <tag k="surface" v="paved"/>
  </way>
  <way id="38866699" version="4" timestamp="2012-01-19T03:10:55Z" uid="147510" user="woodpeck_fixbot" changeset="10433650">
    <nd ref="461673582"/>
    <nd ref="461673583"/>
    <nd ref="461673584"/>
    <nd ref="461673585"/>
    <tag k="highway" v="residential"/>
    <tag k="name" v="Universal Court"/>
    <tag k="source" v="survey"/>
    <tag k="source:name" v="photo"/>
    <tag k="surface" v="paved"/>
  </way>
  <way id="38866700" version="2" timestamp="2010-07-07T07:51:57Z" uid="74617" user="JohnSmith" changeset="5156250">
    <nd ref="461673588"/>
    <nd ref="461673589"/>
    <nd ref="461673591"/>
    <nd ref="461673592"/>
    <tag k="highway" v="residential"/>
    <tag k="maxspeed" v="50"/>
    <tag k="maxspeed:source" v="default residential speed limit in Australia"/>
    <tag k="name" v="Black Street"/>
  </way>
  <way id="38866700" version="3" timestamp="2012-01-19T03:10:56Z" uid="147510" user="woodpeck_fixbot" changeset="10433650">
    <nd ref="461673588"/>
    <nd ref="461673589"/>
    <nd ref="461673591"/>
    <nd ref="461673592"/>
    <tag k="highway" v="residential"/>
    <tag k="name" v="Black Street"/>
  </way>
  <way id="38866701" version="3" timestamp="2010-07-07T07:50:21Z" uid="74617" user="JohnSmith" changeset="5156250">
    <nd ref="461673593"/>
    <nd ref="668702854"/>
    <nd ref="668702861"/>
    <nd ref="668702873"/>
    <tag k="highway" v="residential"/>
    <tag k="maxspeed" v="50"/>
    <tag k="maxspeed:source" v="default residential speed limit in Australia"/>
    <tag k="name" v="Ballard Street"/>
  </way>
  <way id="38866701" version="4" timestamp="2012-01-19T03:10:57Z" uid="147510" user="woodpeck_fixbot" changeset="10433650">
    <nd ref="461673593"/>
    <nd ref="668702854"/>
    <nd ref="668702861"/>
    <nd ref="668702873"/>
    <tag k="highway" v="residential"/>
    <tag k="name" v="Ballard Street"/>
  </way>
  <way id="38866702" version="2" timestamp="2010-07-07T07:52:25Z" uid="74617" user="JohnSmith" changeset="5156250">
    <nd ref="461673599"/>
    <nd ref="461673600"/>
    <tag k="highway" v="residential"/>
    <tag k="maxspeed" v="50"/>
    <tag k="maxspeed:source" v="default residential speed limit in Australia"/>
    <tag k="name" v="Grant Court"/>
  </way>
  <way id="38866702" version="3" timestamp="2012-01-19T03:10:58Z" uid="147510" user="woodpeck_fixbot" changeset="10433650">
    <nd ref="461673599"/>
    <nd ref="461673600"/>
    <tag k="highway" v="residential"/>
    <tag k="name" v="Grant Court"/>
  </way>
  <way id="38866703" version="4" timestamp="2010-07-07T07:50:58Z" uid="74617" user="JohnSmith" changeset="5156250">
    <nd ref="460405737"/>
    <nd ref="461673632"/>
    <nd ref="461673634"/>
    <nd ref="461673636"/>
    <nd ref="461673588"/>
    <nd ref="668702873"/>
    <nd ref="461673638"/>
    <nd ref="682732815"/>
    <nd ref="461673607"/>
    <tag k="highway" v="residential"/>
    <tag k="maxspeed" v="50"/>
    <tag k="maxspeed:source" v="default residential speed limit in Australia"/>
    <tag k="name" v="Wornes Drive"/>
    <tag k="source" v="survey"/>
    <tag k="source:name" v="photo"/>
  </way>
  <way id="38866703" version="5" timestamp="2012-01-19T03:10:59Z" uid="147510" user="woodpeck_fixbot" changeset="10433650">
    <nd ref="460405737"/>
    <nd ref="461673632"/>
    <nd ref="461673634"/>
    <nd ref="461673636"/>
    <nd ref="461673588"/>
    <nd ref="668702873"/>
    <nd ref="461673638"/>
    <nd ref="682732815"/>
    <nd ref="461673607"/>
    <tag k="highway" v="residential"/>
    <tag k="name" v="Wornes Drive"/>
    <tag k="source" v="survey"/>
    <tag k="source:name" v="photo"/>
  </way>
  <way id="38866704" version="4" timestamp="2010-07-07T07:52:21Z" uid="74617" user="JohnSmith" changeset="5156250">
    <nd ref="461673632"/>
    <nd ref="461673647"/>
    <nd ref="461673649"/>
    <nd ref="461673654"/>
    <nd ref="461673655"/>
    <nd ref="682732534"/>
    <nd ref="461673657"/>
    <nd ref="461673660"/>
    <nd ref="461673605"/>
    <tag k="highway" v="residential"/>
    <tag k="maxspeed" v="50"/>
    <tag k="maxspeed:source" v="default residential speed limit in Australia"/>
    <tag k="name" v="Anderson Street"/>
    <tag k="source" v="survey"/>
    <tag k="source:name" v="photo"/>
  </way>
  <way id="38866704" version="5" timestamp="2012-01-19T03:11:00Z" uid="147510" user="woodpeck_fixbot" changeset="10433650">
    <nd ref="461673632"/>
    <nd ref="461673647"/>
    <nd ref="461673649"/>
    <nd ref="461673654"/>
    <nd ref="461673655"/>
    <nd ref="682732534"/>
    <nd ref="461673657"/>
    <nd ref="461673660"/>
    <nd ref="461673605"/>
    <tag k="highway" v="residential"/>
    <tag k="name" v="Anderson Street"/>
    <tag k="source" v="survey"/>
    <tag k="source:name" v="photo"/>
  </way>
  <way id="38866827" version="2" timestamp="2011-02-04T00:37:46Z" uid="6269" user="Mueck" changeset="7179414">
    <nd ref="21498803"/>
    <nd ref="14912566"/>
    <nd ref="14912567"/>
    <nd ref="21498797"/>
    <nd ref="31263504"/>
    <tag k="highway" v="secondary"/>
    <tag k="name" v="Karl-Wilhelm-StraÃŸe"/>
    <tag k="note" v="im SHP des NVK: II"/>
  </way>
  <way id="38866827" version="3" timestamp="2011-02-10T00:01:39Z" uid="6269" user="Mueck" changeset="7241697">
    <nd ref="21498803"/>
    <nd ref="14912566"/>
    <nd ref="14912567"/>
    <nd ref="1144841373"/>
    <nd ref="1144841348"/>
    <nd ref="21498797"/>
    <nd ref="1144841365"/>
    <tag k="highway" v="secondary"/>
    <tag k="name" v="Karl-Wilhelm-StraÃŸe"/>
    <tag k="note" v="im SHP des NVK: II"/>
  </way>
  <way id="38866827" version="4" timestamp="2011-10-25T13:43:45Z" uid="442210" user="dwausr" changeset="9652394"/>
  <way id="38866322" version="4" timestamp="2012-07-19T14:05:11Z" uid="722137" user="OSMF Redaction Account" changeset="12330867">
    <nd ref="461665211"/>
    <nd ref="461665212"/>
    <nd ref="462178525"/>
    <tag k="amenity" v="parking"/>
  </way>
  <way id="38866345" version="3" timestamp="2012-07-19T14:05:15Z" uid="722137" user="OSMF Redaction Account" changeset="12330867"/>
  <way id="38866387" version="4" timestamp="2012-04-15T21:41:13Z" uid="3560" user="Firefishy" changeset="11316407">
    <nd ref="461665491"/>
    <nd ref="1718575973"/>
    <nd ref="461665495"/>
    <tag k="highway" v="residential"/>
  </way>
  <way id="38866699" version="5" timestamp="2012-04-06T06:20:46Z" uid="647241" user="PlowKing" changeset="11197141">
    <nd ref="461673582"/>
    <nd ref="461673583"/>
    <nd ref="461673584"/>
    <nd ref="461673585"/>
    <tag k="highway" v="residential"/>
    <tag k="maxspeed" v="50"/>
    <tag k="name" v="Universal Court"/>
    <tag k="source" v="survey"/>
    <tag k="source:name" v="photo"/>
    <tag k="surface" v="paved"/>
  </way>
  <way id="38866699" version="6" timestamp="2012-07-19T06:49:17Z" uid="722137" user="OSMF Redaction Account" changeset="12310748">
    <nd ref="461673582"/>
    <nd ref="461673583"/>
    <nd ref="461673584"/>
    <nd ref="461673585"/>
    <tag k="highway" v="residential"/>
    <tag k="name" v="Universal Court"/>
    <tag k="source" v="survey"/>
    <tag k="source:name" v="photo"/>
    <tag k="surface" v="paved"/>
  </way>
  <way id="38866700" version="4" timestamp="2012-04-06T06:20:40Z" uid="647241" user="PlowKing" changeset="11197141">
    <nd ref="461673588"/>
    <nd ref="461673589"/>
    <nd ref="461673591"/>
    <nd ref="461673592"/>
    <tag k="highway" v="residential"/>
    <tag k="maxspeed" v="50"/>
    <tag k="name" v="Black Street"/>
  </way>
  <way id="38866700" version="5" timestamp="2012-07-19T06:49:12Z" uid="722137" user="OSMF Redaction Account" changeset="12310748">
    <nd ref="461673588"/>
    <nd ref="461673589"/>
    <nd ref="461673591"/>
    <nd ref="461673592"/>
    <tag k="highway" v="residential"/>
    <tag k="name" v="Black Street"/>
  </way>
  <way id="38866701" version="5" timestamp="2012-04-06T06:20:42Z" uid="647241" user="PlowKing" changeset="11197141">
    <nd ref="461673593"/>
    <nd ref="668702854"/>
    <nd ref="668702861"/>
    <nd ref="668702873"/>
    <tag k="highway" v="residential"/>
    <tag k="maxspeed" v="50"/>
    <tag k="name" v="Ballard Street"/>
  </way>
  <way id="38866701" version="6" timestamp="2012-07-19T06:49:10Z" uid="722137" user="OSMF Redaction Account" changeset="12310748">
    <nd ref="461673593"/>
    <nd ref="668702854"/>
    <nd ref="668702861"/>
    <nd ref="668702873"/>
    <tag k="highway" v="residential"/>
    <tag k="name" v="Ballard Street"/>
  </way>
  <way id="38866702" version="4" timestamp="2012-04-06T06:20:42Z" uid="647241" user="PlowKing" changeset="11197141">
    <nd ref="461673599"/>
    <nd ref="461673600"/>
    <tag k="highway" v="residential"/>
    <tag k="maxspeed" v="50"/>
    <tag k="name" v="Grant Court"/>
  </way>
  <way id="38866702" version="5" timestamp="2012-07-19T06:49:09Z" uid="722137" user="OSMF Redaction Account" changeset="12310748">
    <nd ref="461673599"/>
    <nd ref="461673600"/>
    <tag k="highway" v="residential"/>
    <tag k="name" v="Grant Court"/>
  </way>
  <way id="38866703" version="6" timestamp="2012-04-06T06:20:40Z" uid="647241" user="PlowKing" changeset="11197141">
    <nd ref="460405737"/>
    <nd ref="461673632"/>
    <nd ref="461673634"/>
    <nd ref="461673636"/>
    <nd ref="461673588"/>
    <nd ref="668702873"/>
    <nd ref="461673638"/>
    <nd ref="682732815"/>
    <nd ref="461673607"/>
    <tag k="highway" v="residential"/>
    <tag k="maxspeed" v="50"/>
    <tag k="name" v="Wornes Drive"/>
    <tag k="source" v="survey"/>
    <tag k="source:name" v="photo"/>
  </way>
  <way id="38866703" version="7" timestamp="2012-07-19T06:49:11Z" uid="722137" user="OSMF Redaction Account" changeset="12310748">
    <nd ref="460405737"/>
    <nd ref="461673632"/>
    <nd ref="461673634"/>
    <nd ref="461673636"/>
    <nd ref="461673588"/>
    <nd ref="668702873"/>
    <nd ref="461673638"/>
    <nd ref="682732815"/>
    <nd ref="461673607"/>
    <tag k="highway" v="residential"/>
    <tag k="name" v="Wornes Drive"/>
    <tag k="source" v="survey"/>
    <tag k="source:name" v="photo"/>
  </way>
  <way id="38866704" version="6" timestamp="2012-04-06T06:20:40Z" uid="647241" user="PlowKing" changeset="11197141">
    <nd ref="461673632"/>
    <nd ref="461673647"/>
    <nd ref="461673649"/>
    <nd ref="461673654"/>
    <nd ref="461673655"/>
    <nd ref="682732534"/>
    <nd ref="461673657"/>
    <nd ref="461673660"/>
    <nd ref="461673605"/>
    <tag k="highway" v="residential"/>
    <tag k="maxspeed" v="50"/>
    <tag k="name" v="Anderson Street"/>
    <tag k="source" v="survey"/>
    <tag k="source:name" v="photo"/>
  </way>
  <way id="38866704" version="7" timestamp="2012-07-19T06:49:11Z" uid="722137" user="OSMF Redaction Account" changeset="12310748">
    <nd ref="461673632"/>
    <nd ref="461673647"/>
    <nd ref="461673649"/>
    <nd ref="461673654"/>
    <nd ref="461673655"/>
    <nd ref="682732534"/>
    <nd ref="461673657"/>
    <nd ref="461673660"/>
    <nd ref="461673605"/>
    <tag k="highway" v="residential"/>
    <tag k="name" v="Anderson Street"/>
    <tag k="source" v="survey"/>
    <tag k="source:name" v="photo"/>
  </way>
</osm>
