<?xml version='1.0' encoding='UTF-8'?>
<osm version="0.6" generator="libosmium/2.20.0">
  <way id="39011048" version="2" timestamp="2009-11-06T05:04:10Z" uid="103576" user="DiverCTH" changeset="3045587">
    <nd ref="464777228"/>
    <nd ref="464777267"/>
    <nd ref="464777266"/>
    <nd ref="464777234"/>
    <nd ref="464777233"/>
    <nd ref="464777245"/>
    <nd ref="464777246"/>
    <nd ref="464777247"/>
    <nd ref="464777248"/>
    <nd ref="464777249"/>
    <nd ref="464777250"/>
    <nd ref="464777251"/>
    <nd ref="464777252"/>
    <nd ref="464777253"/>
    <nd ref="464777254"/>
    <nd ref="464777292"/>
    <nd ref="464777265"/>
    <nd ref="464777271"/>
    <nd ref="464777270"/>
    <nd ref="464777269"/>
    <nd ref="464777268"/>
    <nd ref="464777275"/>
    <nd ref="464777274"/>
    <nd ref="464777273"/>
    <nd ref="464777272"/>
    <nd ref="464777276"/>
    <nd ref="464777277"/>
    <nd ref="464777284"/>
    <nd ref="464777285"/>
    <nd ref="464777282"/>
    <nd ref="464777283"/>
    <nd ref="464777280"/>
    <nd ref="464777281"/>
    <nd ref="464777278"/>
    <nd ref="464777279"/>
    <nd ref="464777302"/>
    <nd ref="464777301"/>
    <nd ref="464777294"/>
    <nd ref="464777293"/>
    <nd ref="464777296"/>
    <nd ref="464777295"/>
    <nd ref="464777298"/>
    <nd ref="464777297"/>
    <nd ref="464777300"/>
    <nd ref="464777299"/>
    <nd ref="464777311"/>
    <nd ref="464777312"/>
    <nd ref="464777307"/>
    <nd ref="464777308"/>
    <nd ref="464777309"/>
    <nd ref="464777310"/>
    <nd ref="464777303"/>
    <nd ref="464777304"/>
    <nd ref="464777305"/>
    <nd ref="464777306"/>
    <nd ref="464777322"/>
    <nd ref="464777321"/>
    <nd ref="464777320"/>
    <nd ref="203123729"/>
    <nd ref="464777318"/>
    <nd ref="464777317"/>
    <nd ref="464777316"/>
    <nd ref="464777315"/>
    <nd ref="464777314"/>
    <nd ref="464777313"/>
    <nd ref="464777235"/>
    <nd ref="464777236"/>
    <nd ref="464777239"/>
    <nd ref="464777240"/>
    <nd ref="464777237"/>
    <nd ref="464777238"/>
    <nd ref="464777243"/>
    <nd ref="464777244"/>
    <nd ref="464777241"/>
    <nd ref="464777242"/>
    <nd ref="464777256"/>
    <nd ref="464777255"/>
    <nd ref="464777262"/>
    <nd ref="464777261"/>
    <nd ref="464777264"/>
    <nd ref="464777263"/>
    <nd ref="464777258"/>
    <nd ref="464777257"/>
    <nd ref="464777260"/>
    <nd ref="464777259"/>
    <nd ref="464777287"/>
    <nd ref="464777286"/>
    <nd ref="464777291"/>
    <nd ref="464777290"/>
    <nd ref="464777289"/>
    <nd ref="464777288"/>
    <nd ref="464774265"/>
    <tag k="admin_level" v="8"/>
    <tag k="boundary" v="administrative"/>
    <tag k="source" v="TIGER/Line® 2008 Place Shapefiles (http://www.census.gov/geo/www/tiger/)"/>
  </way>
  <way id="39011320" version="2" timestamp="2010-09-08T10:57:38Z" uid="115477" user="wowik" changeset="5715736">
    <nd ref="464781062"/>
    <nd ref="464781065"/>
    <nd ref="464781064"/>
    <nd ref="464781063"/>
    <nd ref="464781062"/>
    <tag k="addr:housenumber" v="3"/>
    <tag k="addr:street" v="площадь Собина"/>
    <tag k="amenity" v="townhall"/>
    <tag k="building" v="yes"/>
    <tag k="name" v="Администрация города"/>
    <tag k="old_name" v="Дом культуры &quot;Вперёд&quot;"/>
  </way>
  <way id="39011320" version="3" timestamp="2010-09-08T10:59:57Z" uid="115477" user="wowik" changeset="5715736">
    <nd ref="464781062"/>
    <nd ref="464781065"/>
    <nd ref="464781064"/>
    <nd ref="464781063"/>
    <nd ref="464781062"/>
    <tag k="addr:housenumber" v="3"/>
    <tag k="addr:street" v="площадь Собина"/>
    <tag k="amenity" v="townhall"/>
    <tag k="building" v="yes"/>
    <tag k="cladr:code" v="50000029000003200"/>
    <tag k="name" v="Администрация города"/>
    <tag k="old_name" v="Дом культуры &quot;Вперёд&quot;"/>
  </way>
  <way id="39011320" version="4" timestamp="2011-01-15T21:44:34Z" uid="206282" user="Amigo" changeset="6982311">
    <nd ref="464781062"/>
    <nd ref="464781065"/>
    <nd ref="464781064"/>
    <nd ref="464781063"/>
    <nd ref="464781062"/>
    <tag k="addr:housenumber" v="3"/>
    <tag k="addr:street" v="площадь Собина"/>
    <tag k="amenity" v="townhall"/>
    <tag k="building" v="yes"/>
    <tag k="cladr:code" v="50000029000003200"/>
    <tag k="name" v="Администрация города Долгопрудный"/>
    <tag k="old_name" v="Дом культуры &quot;Вперёд&quot;"/>
  </way>
  <way id="39011321" version="3" timestamp="2010-09-08T10:59:56Z" uid="115477" user="wowik" changeset="5715736">
    <nd ref="464781066"/>
    <nd ref="464781067"/>
    <nd ref="464781068"/>
    <nd ref="464781069"/>
    <nd ref="464781066"/>
    <tag k="addr:housenumber" v="1"/>
    <tag k="addr:street" v="площадь Собина"/>
    <tag k="amenity" v="college"/>
    <tag k="building" v="yes"/>
    <tag k="cladr:code" v="50000029000003200"/>
    <tag k="name" v="Долгопрудненский Авиационный Техникум 13"/>
  </way>
  <way id="39011321" version="4" timestamp="2010-09-08T11:00:32Z" uid="115477" user="wowik" changeset="5715736">
    <nd ref="464781066"/>
    <nd ref="464781067"/>
    <nd ref="464781068"/>
    <nd ref="464781069"/>
    <nd ref="464781066"/>
    <tag k="addr:housenumber" v="1"/>
    <tag k="addr:street" v="площадь Собина"/>
    <tag k="amenity" v="college"/>
    <tag k="building" v="yes"/>
    <tag k="cladr:code" v="50000029000003200"/>
    <tag k="name" v="Долгопрудненский Авиационный Техникум"/>
  </way>
  <way id="39011343" version="2" timestamp="2010-04-07T13:44:58Z" uid="20587" user="balrog-kun" changeset="4353646">
    <nd ref="464782113"/>
    <nd ref="464782123"/>
    <nd ref="464782124"/>
    <nd ref="464782125"/>
    <nd ref="464782126"/>
    <nd ref="464782129"/>
    <nd ref="464782131"/>
    <nd ref="464782134"/>
    <nd ref="81685005"/>
    <tag k="highway" v="residential"/>
    <tag k="name" v="Cottonwood Valley Parkway"/>
    <tag k="oneway" v="yes"/>
  </way>
  <way id="39011390" version="5" timestamp="2010-05-27T12:20:29Z" uid="115477" user="wowik" changeset="4821483">
    <nd ref="464781358"/>
    <nd ref="464781361"/>
    <nd ref="699810661"/>
    <nd ref="699810641"/>
    <nd ref="699810626"/>
    <nd ref="699810617"/>
    <nd ref="464781360"/>
    <nd ref="464781359"/>
    <nd ref="464781358"/>
    <tag k="addr:housenumber" v="1"/>
    <tag k="addr:street" v="Институтский переулок"/>
    <tag k="amenity" v="school"/>
    <tag k="building" v="yes"/>
    <tag k="cladr:code" v="50000029000000800"/>
    <tag k="name" v="школа №1"/>
  </way>
  <way id="39011390" version="6" timestamp="2011-01-15T21:42:41Z" uid="206282" user="Amigo" changeset="6982311">
    <nd ref="464781358"/>
    <nd ref="464781361"/>
    <nd ref="699810661"/>
    <nd ref="699810641"/>
    <nd ref="699810626"/>
    <nd ref="699810617"/>
    <nd ref="464781360"/>
    <nd ref="464781359"/>
    <nd ref="464781358"/>
    <tag k="addr:housenumber" v="1"/>
    <tag k="addr:street" v="Институтский переулок"/>
    <tag k="amenity" v="school"/>
    <tag k="building" v="yes"/>
    <tag k="cladr:code" v="50000029000000800"/>
    <tag k="name" v="Школа №1"/>
  </way>
  <way id="39011427" version="3" timestamp="2010-05-27T13:27:46Z" uid="115477" user="wowik" changeset="4821962">
    <nd ref="464781610"/>
    <nd ref="464781612"/>
    <nd ref="464781614"/>
    <nd ref="464781631"/>
    <nd ref="464781610"/>
    <tag k="amenity" v="hospital"/>
    <tag k="building" v="yes"/>
    <tag k="building:levels" v="2"/>
    <tag k="name" v="Роддом"/>
  </way>
  <way id="39011427" version="4" timestamp="2011-01-14T15:11:48Z" uid="206282" user="Amigo" changeset="6968011">
    <nd ref="464781610"/>
    <nd ref="464781612"/>
    <nd ref="464781614"/>
    <nd ref="464781631"/>
    <nd ref="464781610"/>
    <tag k="addr:housenumber" v="2"/>
    <tag k="addr:street" v="улица Павлова"/>
    <tag k="amenity" v="hospital"/>
    <tag k="building" v="yes"/>
    <tag k="building:levels" v="2"/>
    <tag k="name" v="Родильный дом"/>
  </way>
  <way id="39011427" version="5" timestamp="2011-02-01T08:59:45Z" uid="206282" user="Amigo" changeset="7152663">
    <nd ref="464781610"/>
    <nd ref="464781612"/>
    <nd ref="464781614"/>
    <nd ref="464781631"/>
    <nd ref="464781610"/>
    <tag k="addr:housenumber" v="2"/>
    <tag k="addr:street" v="улица Павлова"/>
    <tag k="amenity" v="hospital"/>
    <tag k="building" v="yes"/>
    <tag k="building:levels" v="2"/>
    <tag k="name" v="Родильный дом г. Долгопрудный"/>
  </way>
  <way id="39011427" version="6" timestamp="2011-10-10T07:43:58Z" uid="440644" user="markhor" changeset="9519466">
    <nd ref="464781610"/>
    <nd ref="464781612"/>
    <nd ref="464781614"/>
    <nd ref="464781631"/>
    <nd ref="464781610"/>
    <tag k="addr:housenumber" v="2"/>
    <tag k="addr:street" v="улица Павлова"/>
    <tag k="amenity" v="hospital"/>
    <tag k="building" v="yes"/>
    <tag k="building:levels" v="2"/>
    <tag k="name" v="Родильный дом г. Долгопрудный"/>
    <tag k="phone" v="+74955765065"/>
  </way>
  <way id="39011428" version="2" timestamp="2010-05-27T13:29:01Z" uid="115477" user="wowik" changeset="4821962">
    <nd ref="464781632"/>
    <nd ref="464781634"/>
    <nd ref="464781637"/>
    <nd ref="464781639"/>
    <nd ref="464781632"/>
    <tag k="amenity" v="hospital"/>
    <tag k="building" v="yes"/>
    <tag k="building:levels" v="2"/>
    <tag k="name" v="Морг"/>
  </way>
  <way id="39011428" version="3" timestamp="2011-01-14T15:11:45Z" uid="206282" user="Amigo" changeset="6968011">
    <nd ref="464781632"/>
    <nd ref="464781634"/>
    <nd ref="464781637"/>
    <nd ref="464781639"/>
    <nd ref="464781632"/>
    <tag k="building" v="yes"/>
    <tag k="building:levels" v="2"/>
    <tag k="name" v="Морг"/>
  </way>
  <way id="39011428" version="4" timestamp="2011-09-04T09:15:26Z" uid="206282" user="Amigo" changeset="9206778">
    <nd ref="464781632"/>
    <nd ref="464781634"/>
    <nd ref="464781637"/>
    <nd ref="464781639"/>
    <nd ref="464781632"/>
    <tag k="building" v="hospital"/>
    <tag k="building:levels" v="2"/>
    <tag k="name" v="Морг"/>
  </way>
  <way id="39011428" version="5" timestamp="2012-02-03T05:35:36Z" uid="440644" user="markhor" changeset="10573450">
    <nd ref="464781632"/>
    <nd ref="464781634"/>
    <nd ref="464781637"/>
    <nd ref="464781639"/>
    <nd ref="464781632"/>
    <tag k="addr:street" v="улица Павлова"/>
    <tag k="building" v="hospital"/>
    <tag k="building:levels" v="2"/>
    <tag k="name" v="Морг"/>
  </way>
  <way id="39011429" version="2" timestamp="2010-09-08T10:57:39Z" uid="115477" user="wowik" changeset="5715736">
    <nd ref="464781641"/>
    <nd ref="464781643"/>
    <nd ref="464781645"/>
    <nd ref="464781647"/>
    <nd ref="464781641"/>
    <tag k="addr:city" v="Долгопрудный"/>
    <tag k="addr:country" v="RU"/>
    <tag k="addr:housenumber" v="2"/>
    <tag k="addr:street" v="Дирижабельная улица"/>
    <tag k="building" v="yes"/>
    <tag k="cladr:code" v="50000029000000500"/>
  </way>
  <way id="39011560" version="7" timestamp="2010-01-31T15:33:34Z" uid="99207" user="Lar Kiesel" changeset="3760204">
    <nd ref="475872267"/>
    <nd ref="475872094"/>
    <nd ref="475872269"/>
    <nd ref="475872271"/>
    <nd ref="475872272"/>
    <nd ref="475869594"/>
    <nd ref="110094872"/>
    <nd ref="110094893"/>
    <nd ref="464796810"/>
    <nd ref="110094897"/>
    <nd ref="477074731"/>
    <nd ref="464796809"/>
    <nd ref="110094910"/>
    <nd ref="464785207"/>
    <nd ref="464785116"/>
    <nd ref="464785115"/>
    <tag k="highway" v="secondary"/>
    <tag k="name" v="Meeting Street Road"/>
    <tag k="ref" v="US 52"/>
    <tag k="source" v="tiger_import_dch_v0.6_20070829"/>
    <tag k="tiger:county" v="Charleston, SC"/>
    <tag k="tiger:tlid" v="108853834:108853835:108853836;108853829:108805522:108853834:108805691"/>
    <tag k="tiger:upload_uuid" v="bulk_upload.pl-a84cde8d-c928-4183-b3fe-999a7d22dd3f"/>
  </way>
  <way id="39011560" version="8" timestamp="2010-02-28T11:57:02Z" uid="207745" user="NE2" changeset="3997032">
    <nd ref="475872267"/>
    <nd ref="475872094"/>
    <nd ref="475872269"/>
    <nd ref="475872271"/>
    <nd ref="475872272"/>
    <nd ref="475869594"/>
    <nd ref="110094872"/>
    <nd ref="110094893"/>
    <nd ref="464796810"/>
    <nd ref="110094897"/>
    <nd ref="477074731"/>
    <nd ref="464796809"/>
    <nd ref="110094910"/>
    <nd ref="464785207"/>
    <nd ref="464785116"/>
    <nd ref="464785115"/>
    <tag k="highway" v="primary"/>
    <tag k="name" v="Meeting Street Road"/>
    <tag k="ref" v="US 52"/>
    <tag k="source" v="tiger_import_dch_v0.6_20070829"/>
    <tag k="tiger:county" v="Charleston, SC"/>
    <tag k="tiger:tlid" v="108853834:108853835:108853836;108853829:108805522:108853834:108805691"/>
    <tag k="tiger:upload_uuid" v="bulk_upload.pl-a84cde8d-c928-4183-b3fe-999a7d22dd3f"/>
  </way>
  <way id="39011560" version="9" timestamp="2011-07-02T23:00:40Z" uid="473471" user="NE3" changeset="8613409">
    <nd ref="475872267"/>
    <nd ref="475872094"/>
    <nd ref="475872269"/>
    <nd ref="475872271"/>
    <nd ref="475872272"/>
    <nd ref="475869594"/>
    <nd ref="110094872"/>
    <nd ref="110094893"/>
    <nd ref="464796810"/>
    <nd ref="110094897"/>
    <nd ref="477074731"/>
    <nd ref="464796809"/>
    <nd ref="110094910"/>
    <nd ref="464785207"/>
    <nd ref="464785116"/>
    <nd ref="464785115"/>
    <tag k="highway" v="primary"/>
    <tag k="lanes" v="4"/>
    <tag k="name" v="Meeting Street Road"/>
    <tag k="ref" v="US 52"/>
    <tag k="source" v="tiger_import_dch_v0.6_20070829"/>
    <tag k="tiger:county" v="Charleston, SC"/>
    <tag k="tiger:tlid" v="108853834:108853835:108853836;108853829:108805522:108853834:108805691"/>
    <tag k="tiger:upload_uuid" v="bulk_upload.pl-a84cde8d-c928-4183-b3fe-999a7d22dd3f"/>
  </way>
  <way id="39011724" version="2" timestamp="2010-04-07T13:44:59Z" uid="20587" user="balrog-kun" changeset="4353646">
    <nd ref="463049540"/>
    <nd ref="463049502"/>
    <nd ref="81649942"/>
    <nd ref="463049541"/>
    <nd ref="463049496"/>
    <nd ref="82246977"/>
    <nd ref="82246975"/>
    <nd ref="82246974"/>
    <nd ref="82246973"/>
    <nd ref="82246971"/>
    <nd ref="81688316"/>
    <nd ref="82246969"/>
    <nd ref="82246968"/>
    <nd ref="82246967"/>
    <nd ref="82246965"/>
    <nd ref="82246963"/>
    <nd ref="82246961"/>
    <nd ref="82246960"/>
    <nd ref="82246959"/>
    <nd ref="82246957"/>
    <nd ref="82246955"/>
    <nd ref="81827448"/>
    <nd ref="82246952"/>
    <nd ref="82246950"/>
    <nd ref="82246948"/>
    <nd ref="82246947"/>
    <nd ref="82064080"/>
    <nd ref="82246946"/>
    <nd ref="82246943"/>
    <nd ref="82246941"/>
    <nd ref="82246940"/>
    <nd ref="82246939"/>
    <nd ref="81677507"/>
    <nd ref="82246936"/>
    <nd ref="82246934"/>
    <nd ref="82246930"/>
    <nd ref="82246928"/>
    <nd ref="82246925"/>
    <nd ref="82246924"/>
    <nd ref="81573757"/>
    <nd ref="82246923"/>
    <nd ref="82246922"/>
    <nd ref="81754812"/>
    <nd ref="82246919"/>
    <tag k="highway" v="primary"/>
    <tag k="name" v="North Belt Line Road"/>
    <tag k="oneway" v="yes"/>
    <tag k="tiger:cfcc" v="A41"/>
    <tag k="tiger:county" v="Dallas, TX"/>
    <tag k="tiger:name_base" v="Belt Line"/>
    <tag k="tiger:name_direction_prefix" v="N"/>
    <tag k="tiger:name_type" v="Rd"/>
    <tag k="tiger:reviewed" v="no"/>
    <tag k="tiger:separated" v="no"/>
    <tag k="tiger:source" v="tiger_import_dch_v0.6_20070829"/>
    <tag k="tiger:tlid" v="103270186:103240154:103270187:103270188:103240162:103270770:103242355:103270771:103270985:103242357:103242359:103242361:103270987:103271026:103270780:103240166:103245315"/>
  </way>
  <way id="39011724" version="3" timestamp="2011-04-24T03:10:04Z" uid="145781" user="Mara" changeset="7948814">
    <nd ref="463049540"/>
    <nd ref="463049502"/>
    <nd ref="81649942"/>
    <nd ref="463049541"/>
    <nd ref="463049496"/>
    <nd ref="82246977"/>
    <nd ref="82246975"/>
    <nd ref="82246974"/>
    <nd ref="82246973"/>
    <nd ref="82246971"/>
    <nd ref="81688316"/>
    <nd ref="82246969"/>
    <nd ref="82246968"/>
    <nd ref="82246967"/>
    <nd ref="82246965"/>
    <nd ref="82246963"/>
    <nd ref="82246961"/>
    <nd ref="82246960"/>
    <nd ref="82246959"/>
    <nd ref="82246957"/>
    <nd ref="82246955"/>
    <nd ref="81827448"/>
    <nd ref="82246952"/>
    <nd ref="82246950"/>
    <nd ref="82246948"/>
    <nd ref="82246947"/>
    <nd ref="82064080"/>
    <nd ref="82246946"/>
    <nd ref="82246943"/>
    <nd ref="82246941"/>
    <nd ref="82246940"/>
    <nd ref="82246939"/>
    <nd ref="81677507"/>
    <nd ref="82246936"/>
    <nd ref="82246934"/>
    <nd ref="82246930"/>
    <nd ref="82246928"/>
    <nd ref="82246925"/>
    <nd ref="82246924"/>
    <nd ref="81573757"/>
    <nd ref="82246923"/>
    <nd ref="82246922"/>
    <nd ref="81754812"/>
    <nd ref="82246919"/>
    <tag k="highway" v="primary"/>
    <tag k="maxspeed" v="45 mph"/>
    <tag k="name" v="North Belt Line Road"/>
    <tag k="oneway" v="yes"/>
    <tag k="tiger:cfcc" v="A41"/>
    <tag k="tiger:county" v="Dallas, TX"/>
    <tag k="tiger:name_base" v="Belt Line"/>
    <tag k="tiger:name_direction_prefix" v="N"/>
    <tag k="tiger:name_type" v="Rd"/>
    <tag k="tiger:reviewed" v="no"/>
    <tag k="tiger:separated" v="no"/>
    <tag k="tiger:source" v="tiger_import_dch_v0.6_20070829"/>
    <tag k="tiger:tlid" v="103270186:103240154:103270187:103270188:103240162:103270770:103242355:103270771:103270985:103242357:103242359:103242361:103270987:103271026:103270780:103240166:103245315"/>
  </way>
  <way id="39011725" version="2" timestamp="2010-04-07T13:45:00Z" uid="20587" user="balrog-kun" changeset="4353646">
    <nd ref="463049539"/>
    <nd ref="463049540"/>
    <tag k="bridge" v="yes"/>
    <tag k="highway" v="primary"/>
    <tag k="name" v="North Belt Line Road"/>
    <tag k="oneway" v="yes"/>
    <tag k="tiger:cfcc" v="A41"/>
    <tag k="tiger:county" v="Dallas, TX"/>
    <tag k="tiger:name_base" v="Belt Line"/>
    <tag k="tiger:name_direction_prefix" v="N"/>
    <tag k="tiger:name_type" v="Rd"/>
    <tag k="tiger:reviewed" v="no"/>
    <tag k="tiger:separated" v="no"/>
    <tag k="tiger:source" v="tiger_import_dch_v0.6_20070829"/>
    <tag k="tiger:tlid" v="103270186:103240154:103270187:103270188:103240162:103270770:103242355:103270771:103270985:103242357:103242359:103242361:103270987:103271026:103270780:103240166:103245315"/>
  </way>
  <way id="39011725" version="3" timestamp="2011-04-24T03:10:05Z" uid="145781" user="Mara" changeset="7948814">
    <nd ref="463049539"/>
    <nd ref="463049540"/>
    <tag k="bridge" v="yes"/>
    <tag k="highway" v="primary"/>
    <tag k="maxspeed" v="45 mph"/>
    <tag k="name" v="North Belt Line Road"/>
    <tag k="oneway" v="yes"/>
    <tag k="tiger:cfcc" v="A41"/>
    <tag k="tiger:county" v="Dallas, TX"/>
    <tag k="tiger:name_base" v="Belt Line"/>
    <tag k="tiger:name_direction_prefix" v="N"/>
    <tag k="tiger:name_type" v="Rd"/>
    <tag k="tiger:reviewed" v="no"/>
    <tag k="tiger:separated" v="no"/>
    <tag k="tiger:source" v="tiger_import_dch_v0.6_20070829"/>
    <tag k="tiger:tlid" v="103270186:103240154:103270187:103270188:103240162:103270770:103242355:103270771:103270985:103242357:103242359:103242361:103270987:103271026:103270780:103240166:103245315"/>
  </way>
  <way id="39011763" version="4" timestamp="2011-05-07T17:36:08Z" uid="23543" user="jkjk" changeset="8075312"/>
  <way id="39011764" version="4" timestamp="2011-05-07T17:36:07Z" uid="23543" user="jkjk" changeset="8075312">
    <nd ref="307406870"/>
    <nd ref="307406869"/>
    <nd ref="1276061789"/>
    <nd ref="307405547"/>
    <nd ref="307405569"/>
    <nd ref="1276062027"/>
    <nd ref="464788100"/>
    <nd ref="761863978"/>
    <nd ref="464788104"/>
    <nd ref="761864261"/>
    <nd ref="661846940"/>
    <nd ref="660027417"/>
    <tag k="highway" v="footway"/>
  </way>
  <way id="39011764" version="5" timestamp="2011-11-21T22:35:21Z" uid="527259" user="Vratislav Filler" changeset="9902929">
    <nd ref="307406870"/>
    <nd ref="307406869"/>
    <nd ref="1276061789"/>
    <nd ref="307405547"/>
    <nd ref="307405569"/>
    <nd ref="1276062027"/>
    <tag k="highway" v="footway"/>
  </way>
  <way id="39011764" version="6" timestamp="2012-03-18T10:18:21Z" uid="595326" user="viduka" changeset="11016816"/>
  <way id="39011765" version="3" timestamp="2011-05-07T17:36:08Z" uid="23543" user="jkjk" changeset="8075312"/>
  <way id="39011766" version="5" timestamp="2011-05-07T17:35:55Z" uid="23543" user="jkjk" changeset="8075312">
    <nd ref="308907524"/>
    <nd ref="464788102"/>
    <nd ref="464788103"/>
    <nd ref="308907526"/>
    <nd ref="308907525"/>
    <nd ref="761864249"/>
    <nd ref="761863975"/>
    <nd ref="761863972"/>
    <nd ref="761864257"/>
    <nd ref="761863969"/>
    <nd ref="761863973"/>
    <nd ref="761864253"/>
    <nd ref="661846934"/>
    <nd ref="661846932"/>
    <nd ref="761863971"/>
    <nd ref="661846929"/>
    <nd ref="660027844"/>
    <nd ref="660027855"/>
    <nd ref="660027854"/>
    <nd ref="308907524"/>
    <tag k="landuse" v="village_green"/>
  </way>
  <way id="39011766" version="6" timestamp="2011-06-02T00:17:50Z" uid="3516" user="BiIbo" changeset="8314595">
    <nd ref="308907524"/>
    <nd ref="464788102"/>
    <nd ref="464788103"/>
    <nd ref="308907526"/>
    <nd ref="308907525"/>
    <nd ref="761864249"/>
    <nd ref="761863975"/>
    <nd ref="761863972"/>
    <nd ref="761864257"/>
    <nd ref="761863969"/>
    <nd ref="761863973"/>
    <nd ref="761864253"/>
    <nd ref="661846934"/>
    <nd ref="661846932"/>
    <nd ref="1308367210"/>
    <nd ref="761863971"/>
    <nd ref="661846929"/>
    <nd ref="660027844"/>
    <nd ref="660027855"/>
    <nd ref="660027854"/>
    <nd ref="308907524"/>
    <tag k="landuse" v="village_green"/>
  </way>
  <way id="39011776" version="4" timestamp="2011-05-07T17:35:45Z" uid="23543" user="jkjk" changeset="8075312">
    <nd ref="464788754"/>
    <nd ref="464788755"/>
    <nd ref="681595472"/>
    <nd ref="464788753"/>
    <nd ref="464788752"/>
    <tag k="highway" v="unclassified"/>
    <tag k="name" v="V Třešňovce"/>
    <tag k="oneway" v="yes"/>
  </way>
  <way id="39011776" version="5" timestamp="2011-06-02T00:16:54Z" uid="3516" user="BiIbo" changeset="8314595">
    <nd ref="464788754"/>
    <nd ref="464788755"/>
    <nd ref="681595472"/>
    <nd ref="464788753"/>
    <nd ref="464788752"/>
    <tag k="highway" v="residential"/>
    <tag k="name" v="V Třešňovce"/>
    <tag k="oneway" v="yes"/>
  </way>
  <way id="39011776" version="6" timestamp="2011-09-29T22:09:51Z" uid="527259" user="Vratislav Filler" changeset="9431404">
    <nd ref="464788754"/>
    <nd ref="464788755"/>
    <nd ref="681595472"/>
    <nd ref="464788753"/>
    <tag k="highway" v="residential"/>
    <tag k="name" v="V Třešňovce"/>
    <tag k="oneway" v="yes"/>
  </way>
  <way id="39011776" version="7" timestamp="2011-12-21T18:47:29Z" uid="527259" user="Vratislav Filler" changeset="10174260">
    <nd ref="464788754"/>
    <nd ref="681595472"/>
    <nd ref="464788753"/>
    <tag k="highway" v="residential"/>
    <tag k="name" v="V Třešňovce"/>
    <tag k="oneway" v="yes"/>
  </way>
  <way id="39011048" version="3" timestamp="2012-07-18T17:15:14Z" uid="722137" user="OSMF Redaction Account" changeset="12290231">
    <nd ref="464777228"/>
    <nd ref="464777267"/>
    <nd ref="464777266"/>
    <nd ref="464777234"/>
    <nd ref="464777233"/>
    <nd ref="464777245"/>
    <nd ref="464777246"/>
    <nd ref="464777247"/>
    <nd ref="464777248"/>
    <nd ref="464777249"/>
    <nd ref="464777250"/>
    <nd ref="464777251"/>
    <nd ref="464777252"/>
    <nd ref="464777253"/>
    <nd ref="464777254"/>
    <nd ref="464777292"/>
    <nd ref="464777265"/>
    <nd ref="464777271"/>
    <nd ref="464777270"/>
    <nd ref="464777269"/>
    <nd ref="464777268"/>
    <nd ref="464777275"/>
    <nd ref="464777274"/>
    <nd ref="464777273"/>
    <nd ref="464777272"/>
    <nd ref="464777276"/>
    <nd ref="464777277"/>
    <nd ref="464777284"/>
    <nd ref="464777285"/>
    <nd ref="464777282"/>
    <nd ref="464777283"/>
    <nd ref="464777280"/>
    <nd ref="464777281"/>
    <nd ref="464777278"/>
    <nd ref="464777279"/>
    <nd ref="464777302"/>
    <nd ref="464777301"/>
    <nd ref="464777294"/>
    <nd ref="464777293"/>
    <nd ref="464777296"/>
    <nd ref="464777295"/>
    <nd ref="464777298"/>
    <nd ref="464777297"/>
    <nd ref="464777300"/>
    <nd ref="464777299"/>
    <nd ref="464777311"/>
    <nd ref="464777312"/>
    <nd ref="464777307"/>
    <nd ref="464777308"/>
    <nd ref="464777309"/>
    <nd ref="464777310"/>
    <nd ref="464777303"/>
    <nd ref="464777304"/>
    <nd ref="464777305"/>
    <nd ref="464777306"/>
    <nd ref="464777322"/>
    <nd ref="464777321"/>
    <nd ref="464777320"/>
    <nd ref="464777318"/>
    <nd ref="464777317"/>
    <nd ref="464777316"/>
    <nd ref="464777315"/>
    <nd ref="464777314"/>
    <nd ref="464777313"/>
    <nd ref="464777235"/>
    <nd ref="464777236"/>
    <nd ref="464777239"/>
    <nd ref="464777240"/>
    <nd ref="464777237"/>
    <nd ref="464777238"/>
    <nd ref="464777243"/>
    <nd ref="464777244"/>
    <nd ref="464777241"/>
    <nd ref="464777242"/>
    <nd ref="464777256"/>
    <nd ref="464777255"/>
    <nd ref="464777262"/>
    <nd ref="464777261"/>
    <nd ref="464777264"/>
    <nd ref="464777263"/>
    <nd ref="464777258"/>
    <nd ref="464777257"/>
    <nd ref="464777260"/>
    <nd ref="464777259"/>
    <nd ref="464777287"/>
    <nd ref="464777286"/>
    <nd ref="464777291"/>
    <nd ref="464777290"/>
    <nd ref="464777289"/>
    <nd ref="464777288"/>
    <nd ref="464774265"/>
    <tag k="admin_level" v="8"/>
    <tag k="boundary" v="administrative"/>
    <tag k="source" v="TIGER/Line® 2008 Place Shapefiles (http://www.census.gov/geo/www/tiger/)"/>
  </way>
  <way id="39011320" version="5" timestamp="2012-07-20T11:44:58Z" uid="722137" user="OSMF Redaction Account" changeset="12373892">
    <nd ref="464781062"/>
    <nd ref="464781065"/>
    <nd ref="464781064"/>
    <nd ref="464781063"/>
    <nd ref="464781062"/>
    <tag k="building" v="yes"/>
    <tag k="name" v="Администрация города Долгопрудный"/>
  </way>
  <way id="39011321" version="5" timestamp="2012-07-20T11:44:57Z" uid="722137" user="OSMF Redaction Account" changeset="12373892">
    <nd ref="464781066"/>
    <nd ref="464781067"/>
    <nd ref="464781068"/>
    <nd ref="464781069"/>
    <nd ref="464781066"/>
    <tag k="amenity" v="college"/>
    <tag k="building" v="yes"/>
    <tag k="name" v="Долгопрудненский Авиационный Техникум"/>
  </way>
  <way id="39011390" version="7" timestamp="2012-07-20T11:44:57Z" uid="722137" user="OSMF Redaction Account" changeset="12373892">
    <nd ref="464781358"/>
    <nd ref="464781361"/>
    <nd ref="699810661"/>
    <nd ref="699810641"/>
    <nd ref="699810626"/>
    <nd ref="699810617"/>
    <nd ref="464781360"/>
    <nd ref="464781359"/>
    <nd ref="464781358"/>
    <tag k="addr:housenumber" v="1"/>
    <tag k="addr:street" v="Институтский переулок"/>
    <tag k="building" v="yes"/>
    <tag k="cladr:code" v="50000029000000800"/>
    <tag k="name" v="Школа №1"/>
  </way>
  <way id="39011427" version="7" timestamp="2012-07-20T11:44:59Z" uid="722137" user="OSMF Redaction Account" changeset="12373892">
    <nd ref="464781610"/>
    <nd ref="464781612"/>
    <nd ref="464781614"/>
    <nd ref="464781631"/>
    <nd ref="464781610"/>
    <tag k="addr:housenumber" v="2"/>
    <tag k="addr:street" v="улица Павлова"/>
    <tag k="building" v="yes"/>
    <tag k="building:levels" v="2"/>
    <tag k="name" v="Родильный дом г. Долгопрудный"/>
    <tag k="phone" v="+74955765065"/>
  </way>
  <way id="39011428" version="6" timestamp="2012-07-20T11:44:59Z" uid="722137" user="OSMF Redaction Account" changeset="12373892">
    <nd ref="464781632"/>
    <nd ref="464781634"/>
    <nd ref="464781637"/>
    <nd ref="464781639"/>
    <nd ref="464781632"/>
    <tag k="addr:street" v="улица Павлова"/>
    <tag k="building" v="hospital"/>
  </way>
  <way id="39011429" version="3" timestamp="2012-07-20T11:44:58Z" uid="722137" user="OSMF Redaction Account" changeset="12373892">
    <nd ref="464781641"/>
    <nd ref="464781643"/>
    <nd ref="464781645"/>
    <nd ref="464781647"/>
    <nd ref="464781641"/>
    <tag k="building" v="yes"/>
  </way>
  <way id="39011560" version="10" timestamp="2012-07-18T13:31:53Z" uid="722137" user="OSMF Redaction Account" changeset="12283428">
    <nd ref="475872267"/>
    <nd ref="475872094"/>
    <nd ref="475872269"/>
    <nd ref="475872271"/>
    <nd ref="475872272"/>
    <nd ref="475869594"/>
    <nd ref="110094872"/>
    <nd ref="110094893"/>
    <nd ref="464796810"/>
    <nd ref="110094897"/>
    <nd ref="477074731"/>
    <nd ref="464796809"/>
    <nd ref="110094910"/>
    <nd ref="464785207"/>
    <nd ref="464785116"/>
    <nd ref="464785115"/>
    <tag k="highway" v="primary"/>
    <tag k="lanes" v="4"/>
    <tag k="name" v="Meeting Street Road"/>
    <tag k="ref" v="Hwy 52"/>
    <tag k="source" v="tiger_import_dch_v0.6_20070829"/>
    <tag k="tiger:county" v="Charleston, SC"/>
    <tag k="tiger:tlid" v="108853834:108853835:108853836;108853829:108805522:108853834:108805691"/>
    <tag k="tiger:upload_uuid" v="bulk_upload.pl-a84cde8d-c928-4183-b3fe-999a7d22dd3f"/>
  </way>
  <way id="39011560" version="11" timestamp="2012-07-25T13:21:23Z" uid="207745" user="NE2" changeset="12486858">
    <nd ref="475872267"/>
    <nd ref="475872094"/>
    <nd ref="475872269"/>
    <nd ref="475872271"/>
    <nd ref="475872272"/>
    <nd ref="475869594"/>
    <nd ref="110094872"/>
    <nd ref="110094893"/>
    <nd ref="464796810"/>
    <nd ref="110094897"/>
    <nd ref="477074731"/>
    <nd ref="464796809"/>
    <nd ref="110094910"/>
    <nd ref="464785207"/>
    <nd ref="464785116"/>
    <nd ref="464785115"/>
    <tag k="highway" v="primary"/>
    <tag k="lanes" v="4"/>
    <tag k="name" v="Meeting Street Road"/>
    <tag k="ref" v="US 52"/>
    <tag k="source" v="tiger_import_dch_v0.6_20070829"/>
    <tag k="tiger:county" v="Charleston, SC"/>
    <tag k="tiger:tlid" v="108853834:108853835:108853836;108853829:108805522:108853834:108805691"/>
    <tag k="tiger:upload_uuid" v="bulk_upload.pl-a84cde8d-c928-4183-b3fe-999a7d22dd3f"/>
  </way>
  <way id="39011560" version="12" timestamp="2012-08-21T01:27:36Z" uid="414318" user="Munchabunch" changeset="12802909">
    <nd ref="475872267"/>
    <nd ref="475872094"/>
    <nd ref="475872269"/>
    <nd ref="475872271"/>
    <nd ref="475872272"/>
    <nd ref="475869594"/>
    <nd ref="110094872"/>
    <nd ref="110094893"/>
    <nd ref="464796810"/>
    <nd ref="110094897"/>
    <nd ref="477074731"/>
    <nd ref="464796809"/>
    <nd ref="110094910"/>
    <nd ref="464785207"/>
    <nd ref="464785116"/>
    <nd ref="464785115"/>
    <tag k="highway" v="primary"/>
    <tag k="lanes" v="4"/>
    <tag k="name" v="Meeting Street Road"/>
    <tag k="ref" v="US 52"/>
    <tag k="source" v="tiger_import_dch_v0.6_20070829"/>
    <tag k="tiger:county" v="Charleston, SC"/>
    <tag k="tiger:upload_uuid" v="bulk_upload.pl-a84cde8d-c928-4183-b3fe-999a7d22dd3f"/>
  </way>
  <way id="39011766" version="7" timestamp="2012-07-26T11:46:17Z" uid="527259" user="Vratislav Filler" changeset="12498156">
    <nd ref="308907524"/>
    <nd ref="464788102"/>
    <nd ref="1276062407"/>
    <nd ref="1838664925"/>
    <nd ref="1838664916"/>
    <nd ref="464788103"/>
    <nd ref="308907526"/>
    <nd ref="308907525"/>
    <nd ref="761864249"/>
    <nd ref="761863975"/>
    <nd ref="761863972"/>
    <nd ref="761864257"/>
    <nd ref="761863969"/>
    <nd ref="761863973"/>
    <nd ref="761864253"/>
    <nd ref="661846934"/>
    <nd ref="661846932"/>
    <nd ref="761864255"/>
    <nd ref="661846975"/>
    <nd ref="1838664927"/>
    <nd ref="660027844"/>
    <nd ref="1838664932"/>
    <nd ref="1838664948"/>
    <nd ref="660027855"/>
    <nd ref="660027854"/>
    <nd ref="308907524"/>
    <tag k="landuse" v="village_green"/>
  </way>
  <way id="39011776" version="8" timestamp="2012-07-15T11:09:02Z" uid="527259" user="Vratislav Filler" changeset="12226596">
    <nd ref="464788754"/>
    <nd ref="1826150946"/>
    <nd ref="681595472"/>
    <nd ref="464788753"/>
    <tag k="highway" v="residential"/>
    <tag k="name" v="V Třešňovce"/>
    <tag k="oneway" v="yes"/>
  </way>
</osm>
