<?xml version='1.0' encoding='UTF-8'?>
<osm version="0.6" generator="libosmium/2.20.0">
  <way id="39110220" version="2" timestamp="2009-11-09T20:09:02Z" uid="36809" user="pfoten_weg_!_" changeset="3076946">
    <nd ref="467658323"/>
    <nd ref="467658326"/>
    <nd ref="467658328"/>
    <tag k="highway" v="residential"/>
    <tag k="name" v="Moränenweg"/>
  </way>
  <way id="39110220" version="3" timestamp="2009-11-09T20:37:12Z" uid="36809" user="pfoten_weg_!_" changeset="3077264">
    <nd ref="467658323"/>
    <nd ref="467658326"/>
    <nd ref="467658328"/>
    <tag k="highway" v="residential"/>
    <tag k="name" v="Moränenweg"/>
  </way>
  <way id="39110220" version="4" timestamp="2009-12-21T21:51:25Z" uid="64756" user="alegria6208" changeset="3423445">
    <nd ref="467658323"/>
    <nd ref="467658326"/>
    <nd ref="467658328"/>
    <tag k="highway" v="residential"/>
    <tag k="name" v="Moränenweg"/>
    <tag k="oneway" v="no"/>
  </way>
  <way id="39110222" version="2" timestamp="2009-11-09T20:09:03Z" uid="36809" user="pfoten_weg_!_" changeset="3076946">
    <nd ref="467658330"/>
    <nd ref="467658332"/>
    <tag k="highway" v="residential"/>
    <tag k="name" v="Am Anger"/>
  </way>
  <way id="39110222" version="3" timestamp="2009-11-09T20:37:13Z" uid="36809" user="pfoten_weg_!_" changeset="3077264">
    <nd ref="467658330"/>
    <nd ref="467658332"/>
    <tag k="highway" v="residential"/>
    <tag k="name" v="Am Anger"/>
  </way>
  <way id="39110223" version="2" timestamp="2009-11-09T20:09:02Z" uid="36809" user="pfoten_weg_!_" changeset="3076946">
    <nd ref="467658337"/>
    <nd ref="467658338"/>
    <tag k="highway" v="residential"/>
    <tag k="name" v="Zum-Brandler-Bühl"/>
  </way>
  <way id="39110223" version="3" timestamp="2009-11-09T20:37:13Z" uid="36809" user="pfoten_weg_!_" changeset="3077264">
    <nd ref="467658337"/>
    <nd ref="467658338"/>
    <tag k="highway" v="residential"/>
    <tag k="name" v="Zum-Brandler-Bühl"/>
  </way>
  <way id="39110223" version="4" timestamp="2009-12-15T19:10:28Z" uid="64756" user="alegria6208" changeset="3382123">
    <nd ref="467658337"/>
    <nd ref="467658334"/>
    <nd ref="467658338"/>
    <tag k="highway" v="residential"/>
    <tag k="name" v="Zum-Brandler-Bühl"/>
  </way>
  <way id="39110223" version="5" timestamp="2011-02-13T20:47:56Z" uid="72719" user="metaroll" changeset="7280237">
    <nd ref="467658337"/>
    <nd ref="467658334"/>
    <nd ref="467658338"/>
    <tag k="highway" v="residential"/>
    <tag k="name" v="Zum Brandler Bühl"/>
  </way>
  <way id="39110224" version="2" timestamp="2009-11-09T20:09:00Z" uid="36809" user="pfoten_weg_!_" changeset="3076946">
    <nd ref="467658342"/>
    <nd ref="467658346"/>
    <nd ref="467658338"/>
    <tag k="highway" v="residential"/>
    <tag k="name" v="Hirtenweg"/>
  </way>
  <way id="39110224" version="3" timestamp="2009-11-09T20:37:11Z" uid="36809" user="pfoten_weg_!_" changeset="3077264">
    <nd ref="467658342"/>
    <nd ref="467658346"/>
    <nd ref="467658338"/>
    <tag k="highway" v="residential"/>
    <tag k="name" v="Hirtenweg"/>
  </way>
  <way id="39110225" version="2" timestamp="2009-11-09T20:09:01Z" uid="36809" user="pfoten_weg_!_" changeset="3076946">
    <nd ref="467658344"/>
    <nd ref="467658346"/>
    <tag k="highway" v="residential"/>
    <tag k="name" v="Hirtenweg"/>
  </way>
  <way id="39110225" version="3" timestamp="2009-11-09T20:37:12Z" uid="36809" user="pfoten_weg_!_" changeset="3077264">
    <nd ref="467658344"/>
    <nd ref="467658346"/>
    <tag k="highway" v="residential"/>
    <tag k="name" v="Hirtenweg"/>
  </way>
</osm>
