<?xml version='1.0' encoding='UTF-8'?>
<osm version="0.6" generator="libosmium/2.20.0">
  <way id="39118029" version="2" timestamp="2010-04-03T16:05:33Z" uid="85955" user="Gerd Höweler" changeset="4314575">
    <nd ref="259063249"/>
    <nd ref="359665106"/>
    <nd ref="259063251"/>
    <nd ref="259063252"/>
    <tag k="highway" v="secondary"/>
    <tag k="maxspeed" v="50"/>
    <tag k="name" v="Braker Straße"/>
    <tag k="ref" v="L 804"/>
    <tag k="source" v="survey"/>
  </way>
  <way id="39118029" version="3" timestamp="2011-07-27T09:46:13Z" uid="461103" user="nomatrix" changeset="8843322">
    <nd ref="259063249"/>
    <nd ref="359665106"/>
    <nd ref="259063252"/>
    <tag k="highway" v="secondary"/>
    <tag k="maxspeed" v="50"/>
    <tag k="name" v="Braker Straße"/>
    <tag k="ref" v="L 804"/>
    <tag k="source" v="survey"/>
  </way>
  <way id="39118410" version="2" timestamp="2010-03-19T22:04:35Z" uid="9581" user="Lobelt" changeset="4174890">
    <nd ref="467775990"/>
    <nd ref="669989477"/>
    <nd ref="10789789"/>
    <tag k="highway" v="residential"/>
    <tag k="name" v="Marienstraße"/>
  </way>
  <way id="39118410" version="3" timestamp="2012-03-28T20:17:57Z" uid="110838" user="Bernhard W" changeset="11130920">
    <nd ref="467775990"/>
    <nd ref="669989477"/>
    <nd ref="10789789"/>
    <tag k="highway" v="residential"/>
    <tag k="name" v="Marienstraße"/>
    <tag k="odbl" v="clear"/>
  </way>
  <way id="39118410" version="4" timestamp="2012-03-29T00:13:12Z" uid="110838" user="Bernhard W" changeset="11132529">
    <nd ref="467775990"/>
    <nd ref="669989477"/>
    <nd ref="10789789"/>
    <tag k="highway" v="residential"/>
    <tag k="name" v="Marienstraße"/>
    <tag k="odbl" v="clean"/>
  </way>
  <way id="39118410" version="5" timestamp="2012-03-30T23:03:00Z" uid="110838" user="Bernhard W" changeset="11161011">
    <nd ref="467775990"/>
    <nd ref="669989477"/>
    <nd ref="10789789"/>
    <tag k="highway" v="residential"/>
    <tag k="name" v="Marienstraße"/>
  </way>
  <way id="39118516" version="2" timestamp="2010-02-22T21:33:14Z" uid="1066" user="pavel" changeset="3947750">
    <nd ref="248100279"/>
    <nd ref="248100280"/>
    <nd ref="248100281"/>
    <nd ref="248100286"/>
    <nd ref="351144851"/>
    <tag k="highway" v="track"/>
    <tag k="name" v="Vodovodní cesta"/>
    <tag k="piste:grooming" v="classic;skating"/>
    <tag k="piste:type" v="nordic"/>
    <tag k="tracktype" v="grade1"/>
  </way>
  <way id="39118029" version="4" timestamp="2012-07-17T06:44:30Z" uid="722137" user="OSMF Redaction Account" changeset="12258738">
    <nd ref="259063249"/>
    <nd ref="359665106"/>
    <nd ref="259063252"/>
    <tag k="highway" v="secondary"/>
    <tag k="name" v="Braker Straße"/>
    <tag k="ref" v="L 804"/>
    <tag k="source" v="survey"/>
  </way>
  <way id="39118029" version="5" timestamp="2012-08-20T15:01:06Z" uid="461103" user="nomatrix" changeset="12797211">
    <nd ref="259063249"/>
    <nd ref="359665106"/>
    <nd ref="259063252"/>
    <tag k="highway" v="secondary"/>
    <tag k="name" v="Braker Straße"/>
    <tag k="ref" v="L 804"/>
  </way>
  <way id="39118410" version="6" timestamp="2012-04-17T14:12:38Z" uid="136321" user="Teddy73" changeset="11332755">
    <nd ref="467775990"/>
    <nd ref="1720590294"/>
    <nd ref="1720590293"/>
    <nd ref="10789789"/>
    <tag k="highway" v="residential"/>
    <tag k="name" v="Marienstraße"/>
  </way>
  <way id="39118410" version="7" timestamp="2012-05-13T22:08:16Z" uid="110838" user="Bernhard W" changeset="11591227"/>
</osm>
