<?xml version='1.0' encoding='UTF-8'?>
<osm version="0.6" generator="libosmium/2.20.0">
  <way id="39209219" version="2" timestamp="2010-12-20T13:37:29Z" uid="6269" user="Mueck" changeset="6716052">
    <nd ref="310677830"/>
    <nd ref="310918137"/>
    <nd ref="1051580499"/>
    <tag k="bicycle" v="yes"/>
    <tag k="foot" v="yes"/>
    <tag k="highway" v="footway"/>
    <tag k="source" v="i-Blue 747"/>
  </way>
  <way id="39209219" version="3" timestamp="2011-03-26T11:54:33Z" uid="114813" user="Chrisuu" changeset="7674371">
    <nd ref="310677830"/>
    <nd ref="1218864846"/>
    <nd ref="310918137"/>
    <nd ref="1218864842"/>
    <nd ref="1051580499"/>
    <tag k="bicycle" v="yes"/>
    <tag k="foot" v="yes"/>
    <tag k="highway" v="footway"/>
    <tag k="source" v="i-Blue 747"/>
  </way>
  <way id="39209219" version="4" timestamp="2011-03-26T18:40:41Z" uid="114813" user="Chrisuu" changeset="7678730">
    <nd ref="310677830"/>
    <nd ref="1218864846"/>
    <nd ref="310918137"/>
    <nd ref="1219441562"/>
    <nd ref="1218864842"/>
    <nd ref="1051580499"/>
    <tag k="bicycle" v="yes"/>
    <tag k="foot" v="yes"/>
    <tag k="highway" v="footway"/>
    <tag k="source" v="i-Blue 747"/>
  </way>
  <way id="39209421" version="2" timestamp="2010-07-08T17:05:38Z" uid="74617" user="JohnSmith" changeset="5167338">
    <nd ref="329985544"/>
    <nd ref="469681330"/>
    <nd ref="469681332"/>
    <nd ref="469681335"/>
    <tag k="highway" v="residential"/>
    <tag k="maxspeed" v="50"/>
    <tag k="maxspeed:source" v="default residential speed limit in Australia"/>
    <tag k="name" v="Skyline Close"/>
  </way>
  <way id="39209421" version="3" timestamp="2012-01-19T03:23:55Z" uid="147510" user="woodpeck_fixbot" changeset="10433650">
    <nd ref="329985544"/>
    <nd ref="469681330"/>
    <nd ref="469681332"/>
    <nd ref="469681335"/>
    <tag k="highway" v="residential"/>
    <tag k="name" v="Skyline Close"/>
  </way>
  <way id="39209712" version="2" timestamp="2010-07-08T17:06:12Z" uid="74617" user="JohnSmith" changeset="5167338">
    <nd ref="469687719"/>
    <nd ref="469687725"/>
    <tag k="highway" v="residential"/>
    <tag k="maxspeed" v="50"/>
    <tag k="maxspeed:source" v="default residential speed limit in Australia"/>
    <tag k="name" v="Reaby Street"/>
  </way>
  <way id="39209712" version="3" timestamp="2012-01-19T03:23:56Z" uid="147510" user="woodpeck_fixbot" changeset="10433650">
    <nd ref="469687719"/>
    <nd ref="469687725"/>
    <tag k="highway" v="residential"/>
    <tag k="name" v="Reaby Street"/>
  </way>
  <way id="39209716" version="2" timestamp="2010-07-08T17:08:32Z" uid="74617" user="JohnSmith" changeset="5167338">
    <nd ref="469687734"/>
    <nd ref="469687736"/>
    <tag k="highway" v="residential"/>
    <tag k="maxspeed" v="50"/>
    <tag k="maxspeed:source" v="default residential speed limit in Australia"/>
    <tag k="name" v="Alison Street"/>
  </way>
  <way id="39209716" version="3" timestamp="2012-01-19T03:23:57Z" uid="147510" user="woodpeck_fixbot" changeset="10433650">
    <nd ref="469687734"/>
    <nd ref="469687736"/>
    <tag k="highway" v="residential"/>
    <tag k="name" v="Alison Street"/>
  </way>
  <way id="39209719" version="2" timestamp="2010-07-08T17:07:35Z" uid="74617" user="JohnSmith" changeset="5167338">
    <nd ref="469687741"/>
    <nd ref="469687743"/>
    <nd ref="469687745"/>
    <tag k="highway" v="residential"/>
    <tag k="maxspeed" v="50"/>
    <tag k="maxspeed:source" v="default residential speed limit in Australia"/>
    <tag k="name" v="Alexander Court"/>
  </way>
  <way id="39209719" version="3" timestamp="2012-01-19T03:23:59Z" uid="147510" user="woodpeck_fixbot" changeset="10433650">
    <nd ref="469687741"/>
    <nd ref="469687743"/>
    <nd ref="469687745"/>
    <tag k="highway" v="residential"/>
    <tag k="name" v="Alexander Court"/>
  </way>
  <way id="39209723" version="2" timestamp="2010-07-08T17:07:18Z" uid="74617" user="JohnSmith" changeset="5167338">
    <nd ref="469687743"/>
    <nd ref="469687748"/>
    <nd ref="469687755"/>
    <tag k="highway" v="residential"/>
    <tag k="maxspeed" v="50"/>
    <tag k="maxspeed:source" v="default residential speed limit in Australia"/>
    <tag k="name" v="Forsythe Court"/>
  </way>
  <way id="39209723" version="3" timestamp="2011-10-31T15:11:18Z" uid="11111" user="melb_guy" changeset="9704271">
    <nd ref="469687743"/>
    <nd ref="1487391745"/>
    <nd ref="1487391748"/>
    <nd ref="1487391757"/>
    <nd ref="469687748"/>
    <nd ref="1487391740"/>
    <nd ref="1487391681"/>
    <nd ref="1487391715"/>
    <nd ref="469687755"/>
    <tag k="highway" v="residential"/>
    <tag k="maxspeed" v="50"/>
    <tag k="maxspeed:source" v="default residential speed limit in Australia"/>
    <tag k="name" v="Forsythe Court"/>
  </way>
  <way id="39209723" version="4" timestamp="2012-01-19T03:24:00Z" uid="147510" user="woodpeck_fixbot" changeset="10433650">
    <nd ref="469687743"/>
    <nd ref="1487391745"/>
    <nd ref="1487391748"/>
    <nd ref="1487391757"/>
    <nd ref="469687748"/>
    <nd ref="1487391740"/>
    <nd ref="1487391681"/>
    <nd ref="1487391715"/>
    <nd ref="469687755"/>
    <tag k="highway" v="residential"/>
    <tag k="name" v="Forsythe Court"/>
  </way>
  <way id="39209724" version="2" timestamp="2010-07-08T17:07:08Z" uid="74617" user="JohnSmith" changeset="5167338">
    <nd ref="469687748"/>
    <nd ref="469687759"/>
    <nd ref="469687763"/>
    <tag k="highway" v="residential"/>
    <tag k="maxspeed" v="50"/>
    <tag k="maxspeed:source" v="default residential speed limit in Australia"/>
    <tag k="name" v="Keith Court"/>
  </way>
  <way id="39209724" version="3" timestamp="2011-10-31T15:11:19Z" uid="11111" user="melb_guy" changeset="9704271">
    <nd ref="469687748"/>
    <nd ref="1487391671"/>
    <nd ref="469687759"/>
    <nd ref="1487391709"/>
    <nd ref="469687763"/>
    <tag k="highway" v="residential"/>
    <tag k="maxspeed" v="50"/>
    <tag k="maxspeed:source" v="default residential speed limit in Australia"/>
    <tag k="name" v="Keith Court"/>
  </way>
  <way id="39209724" version="4" timestamp="2012-01-19T03:24:01Z" uid="147510" user="woodpeck_fixbot" changeset="10433650">
    <nd ref="469687748"/>
    <nd ref="1487391671"/>
    <nd ref="469687759"/>
    <nd ref="1487391709"/>
    <nd ref="469687763"/>
    <tag k="highway" v="residential"/>
    <tag k="name" v="Keith Court"/>
  </way>
  <way id="39209730" version="2" timestamp="2010-07-08T17:08:13Z" uid="74617" user="JohnSmith" changeset="5167338">
    <nd ref="469687771"/>
    <nd ref="469687772"/>
    <nd ref="469687773"/>
    <nd ref="469687775"/>
    <nd ref="469687776"/>
    <tag k="highway" v="residential"/>
    <tag k="maxspeed" v="50"/>
    <tag k="maxspeed:source" v="default residential speed limit in Australia"/>
    <tag k="name" v="Evandale Avenue"/>
  </way>
  <way id="39209730" version="3" timestamp="2012-01-19T03:24:02Z" uid="147510" user="woodpeck_fixbot" changeset="10433650">
    <nd ref="469687771"/>
    <nd ref="469687772"/>
    <nd ref="469687773"/>
    <nd ref="469687775"/>
    <nd ref="469687776"/>
    <tag k="highway" v="residential"/>
    <tag k="name" v="Evandale Avenue"/>
  </way>
  <way id="39209731" version="2" timestamp="2010-07-08T17:06:46Z" uid="74617" user="JohnSmith" changeset="5167338">
    <nd ref="469687778"/>
    <nd ref="469687781"/>
    <nd ref="469687775"/>
    <tag k="highway" v="residential"/>
    <tag k="maxspeed" v="50"/>
    <tag k="maxspeed:source" v="default residential speed limit in Australia"/>
    <tag k="name" v="Darryl Street"/>
  </way>
  <way id="39209731" version="3" timestamp="2011-09-13T06:34:35Z" uid="78837" user="modellerau" changeset="9286782"/>
  <way id="39209733" version="2" timestamp="2010-07-08T17:08:39Z" uid="74617" user="JohnSmith" changeset="5167338">
    <nd ref="469687772"/>
    <nd ref="469687788"/>
    <tag k="highway" v="residential"/>
    <tag k="maxspeed" v="50"/>
    <tag k="maxspeed:source" v="default residential speed limit in Australia"/>
    <tag k="name" v="Longview Street"/>
  </way>
  <way id="39209733" version="3" timestamp="2012-01-19T03:24:03Z" uid="147510" user="woodpeck_fixbot" changeset="10433650">
    <nd ref="469687772"/>
    <nd ref="469687788"/>
    <tag k="highway" v="residential"/>
    <tag k="name" v="Longview Street"/>
  </way>
  <way id="39209734" version="2" timestamp="2010-07-08T17:07:09Z" uid="74617" user="JohnSmith" changeset="5167338">
    <nd ref="469687793"/>
    <nd ref="469687796"/>
    <nd ref="469687788"/>
    <nd ref="469687798"/>
    <nd ref="469687799"/>
    <tag k="highway" v="residential"/>
    <tag k="maxspeed" v="50"/>
    <tag k="maxspeed:source" v="default residential speed limit in Australia"/>
    <tag k="name" v="Denver Drive"/>
  </way>
  <way id="39209734" version="3" timestamp="2011-09-13T06:34:28Z" uid="78837" user="modellerau" changeset="9286782">
    <nd ref="469687793"/>
    <nd ref="469687796"/>
    <nd ref="469687788"/>
    <nd ref="1431603558"/>
    <nd ref="1431603548"/>
    <nd ref="469687798"/>
    <nd ref="1431603540"/>
    <nd ref="1431603577"/>
    <nd ref="1431603565"/>
    <nd ref="1431603523"/>
    <nd ref="469687799"/>
    <tag k="highway" v="residential"/>
    <tag k="maxspeed" v="50"/>
    <tag k="maxspeed:source" v="default residential speed limit in Australia"/>
    <tag k="name" v="Denver Drive"/>
  </way>
  <way id="39209734" version="4" timestamp="2012-01-19T03:24:04Z" uid="147510" user="woodpeck_fixbot" changeset="10433650">
    <nd ref="469687793"/>
    <nd ref="469687796"/>
    <nd ref="469687788"/>
    <nd ref="1431603558"/>
    <nd ref="1431603548"/>
    <nd ref="469687798"/>
    <nd ref="1431603540"/>
    <nd ref="1431603577"/>
    <nd ref="1431603565"/>
    <nd ref="1431603523"/>
    <nd ref="469687799"/>
    <tag k="highway" v="residential"/>
    <tag k="name" v="Denver Drive"/>
  </way>
  <way id="39209735" version="2" timestamp="2010-07-08T17:05:49Z" uid="74617" user="JohnSmith" changeset="5167338">
    <nd ref="469687796"/>
    <nd ref="469687804"/>
    <tag k="highway" v="residential"/>
    <tag k="maxspeed" v="50"/>
    <tag k="maxspeed:source" v="default residential speed limit in Australia"/>
    <tag k="name" v="Dellwood Drive"/>
  </way>
  <way id="39209735" version="3" timestamp="2012-01-19T03:24:05Z" uid="147510" user="woodpeck_fixbot" changeset="10433650">
    <nd ref="469687796"/>
    <nd ref="469687804"/>
    <tag k="highway" v="residential"/>
    <tag k="name" v="Dellwood Drive"/>
  </way>
  <way id="39209740" version="2" timestamp="2010-07-08T17:08:49Z" uid="74617" user="JohnSmith" changeset="5167338">
    <nd ref="469687816"/>
    <nd ref="469687818"/>
    <nd ref="469687819"/>
    <nd ref="469687820"/>
    <nd ref="469687822"/>
    <nd ref="469687824"/>
    <nd ref="469687827"/>
    <nd ref="469687829"/>
    <nd ref="469687835"/>
    <nd ref="469687837"/>
    <tag k="highway" v="residential"/>
    <tag k="maxspeed" v="50"/>
    <tag k="maxspeed:source" v="default residential speed limit in Australia"/>
    <tag k="name" v="Welfare Street"/>
  </way>
  <way id="39209740" version="3" timestamp="2011-09-13T06:34:34Z" uid="78837" user="modellerau" changeset="9286782">
    <nd ref="469687816"/>
    <nd ref="469687818"/>
    <nd ref="469687819"/>
    <nd ref="469687820"/>
    <nd ref="469687822"/>
    <nd ref="1431603560"/>
    <nd ref="469687824"/>
    <nd ref="469687827"/>
    <nd ref="469687829"/>
    <nd ref="469687835"/>
    <nd ref="1431603538"/>
    <nd ref="469687837"/>
    <tag k="highway" v="residential"/>
    <tag k="maxspeed" v="50"/>
    <tag k="maxspeed:source" v="default residential speed limit in Australia"/>
    <tag k="name" v="Welfare Street"/>
  </way>
  <way id="39209740" version="4" timestamp="2012-01-19T03:24:06Z" uid="147510" user="woodpeck_fixbot" changeset="10433650">
    <nd ref="469687816"/>
    <nd ref="469687818"/>
    <nd ref="469687819"/>
    <nd ref="469687820"/>
    <nd ref="469687822"/>
    <nd ref="1431603560"/>
    <nd ref="469687824"/>
    <nd ref="469687827"/>
    <nd ref="469687829"/>
    <nd ref="469687835"/>
    <nd ref="1431603538"/>
    <nd ref="469687837"/>
    <tag k="highway" v="residential"/>
    <tag k="name" v="Welfare Street"/>
  </way>
  <way id="39209741" version="2" timestamp="2010-07-08T17:07:19Z" uid="74617" user="JohnSmith" changeset="5167338">
    <nd ref="143250546"/>
    <nd ref="469687829"/>
    <tag k="highway" v="residential"/>
    <tag k="maxspeed" v="50"/>
    <tag k="maxspeed:source" v="default residential speed limit in Australia"/>
    <tag k="name" v="Goodwill Street"/>
  </way>
  <way id="39209741" version="3" timestamp="2012-01-19T03:24:07Z" uid="147510" user="woodpeck_fixbot" changeset="10433650">
    <nd ref="143250546"/>
    <nd ref="469687829"/>
    <tag k="highway" v="residential"/>
    <tag k="name" v="Goodwill Street"/>
  </way>
  <way id="39209743" version="2" timestamp="2010-07-08T17:07:51Z" uid="74617" user="JohnSmith" changeset="5167338">
    <nd ref="469687822"/>
    <nd ref="469687844"/>
    <nd ref="469687847"/>
    <nd ref="469687850"/>
    <tag k="highway" v="residential"/>
    <tag k="maxspeed" v="50"/>
    <tag k="maxspeed:source" v="default residential speed limit in Australia"/>
    <tag k="name" v="Traum Street"/>
  </way>
  <way id="39209743" version="3" timestamp="2012-01-19T03:24:08Z" uid="147510" user="woodpeck_fixbot" changeset="10433650">
    <nd ref="469687822"/>
    <nd ref="469687844"/>
    <nd ref="469687847"/>
    <nd ref="469687850"/>
    <tag k="highway" v="residential"/>
    <tag k="name" v="Traum Street"/>
  </way>
  <way id="39209744" version="2" timestamp="2010-07-08T17:06:54Z" uid="74617" user="JohnSmith" changeset="5167338">
    <nd ref="469687857"/>
    <nd ref="469687858"/>
    <nd ref="469687861"/>
    <tag k="highway" v="residential"/>
    <tag k="maxspeed" v="50"/>
    <tag k="maxspeed:source" v="default residential speed limit in Australia"/>
    <tag k="name" v="Lutana Court"/>
  </way>
  <way id="39209744" version="3" timestamp="2012-01-19T03:24:09Z" uid="147510" user="woodpeck_fixbot" changeset="10433650">
    <nd ref="469687857"/>
    <nd ref="469687858"/>
    <nd ref="469687861"/>
    <tag k="highway" v="residential"/>
    <tag k="name" v="Lutana Court"/>
  </way>
  <way id="39209747" version="2" timestamp="2010-07-08T17:06:06Z" uid="74617" user="JohnSmith" changeset="5167338">
    <nd ref="469687864"/>
    <nd ref="469687866"/>
    <nd ref="469687870"/>
    <tag k="highway" v="residential"/>
    <tag k="maxspeed" v="50"/>
    <tag k="maxspeed:source" v="default residential speed limit in Australia"/>
    <tag k="name" v="Morala Court"/>
  </way>
  <way id="39209747" version="3" timestamp="2011-09-13T06:34:24Z" uid="78837" user="modellerau" changeset="9286782">
    <nd ref="1431603546"/>
    <nd ref="469687864"/>
    <nd ref="1431603534"/>
    <nd ref="1431603567"/>
    <nd ref="469687866"/>
    <nd ref="469687870"/>
    <tag k="highway" v="residential"/>
    <tag k="maxspeed" v="50"/>
    <tag k="maxspeed:source" v="default residential speed limit in Australia"/>
    <tag k="name" v="Morala Court"/>
  </way>
  <way id="39209747" version="4" timestamp="2012-01-19T03:24:10Z" uid="147510" user="woodpeck_fixbot" changeset="10433650">
    <nd ref="1431603546"/>
    <nd ref="469687864"/>
    <nd ref="1431603534"/>
    <nd ref="1431603567"/>
    <nd ref="469687866"/>
    <nd ref="469687870"/>
    <tag k="highway" v="residential"/>
    <tag k="name" v="Morala Court"/>
  </way>
  <way id="39209850" version="2" timestamp="2010-12-18T15:21:46Z" uid="6269" user="Mueck" changeset="6696806">
    <nd ref="469690768"/>
    <nd ref="469690770"/>
    <tag k="foot" v="yes"/>
    <tag k="highway" v="path"/>
  </way>
  <way id="39209975" version="4" timestamp="2009-08-26T07:59:27Z" uid="36809" user="pfoten_weg_!_" changeset="2264635">
    <nd ref="469693217"/>
    <nd ref="469693212"/>
    <nd ref="469693214"/>
    <nd ref="469693221"/>
    <nd ref="469693222"/>
    <nd ref="469693218"/>
    <nd ref="469693220"/>
    <nd ref="469693213"/>
    <nd ref="469693211"/>
    <nd ref="469693216"/>
    <nd ref="469693215"/>
    <nd ref="469693219"/>
    <nd ref="469693217"/>
    <tag k="addr:housenumber" v="33,35,37"/>
    <tag k="addr:street" v="Geigenbergerstraße"/>
    <tag k="building" v="yes"/>
    <tag k="source" v="Yahoo,survey"/>
  </way>
  <way id="39209975" version="5" timestamp="2009-10-02T20:43:27Z" uid="86259" user="hasse_osm_korinthenkacker" changeset="2717407"/>
  <way id="39209976" version="4" timestamp="2009-08-26T07:59:26Z" uid="36809" user="pfoten_weg_!_" changeset="2264635">
    <nd ref="469693229"/>
    <nd ref="469693224"/>
    <nd ref="469693226"/>
    <nd ref="469693233"/>
    <nd ref="469693234"/>
    <nd ref="469693230"/>
    <nd ref="469693232"/>
    <nd ref="469693225"/>
    <nd ref="469693223"/>
    <nd ref="469693228"/>
    <nd ref="469693227"/>
    <nd ref="469693231"/>
    <nd ref="469693229"/>
    <tag k="addr:housenumber" v="25,27,29"/>
    <tag k="addr:street" v="Geigenbergerstraße"/>
    <tag k="building" v="yes"/>
    <tag k="source" v="Yahoo,survey"/>
  </way>
  <way id="39209976" version="5" timestamp="2009-10-02T20:43:26Z" uid="86259" user="hasse_osm_korinthenkacker" changeset="2717407"/>
  <way id="39209977" version="4" timestamp="2009-08-26T07:58:41Z" uid="36809" user="pfoten_weg_!_" changeset="2264635">
    <nd ref="469693241"/>
    <nd ref="469693236"/>
    <nd ref="469693238"/>
    <nd ref="469693247"/>
    <nd ref="469693249"/>
    <nd ref="469693242"/>
    <nd ref="469693245"/>
    <nd ref="469693237"/>
    <nd ref="469693235"/>
    <nd ref="469693240"/>
    <nd ref="469693239"/>
    <nd ref="469693244"/>
    <nd ref="469693241"/>
    <tag k="addr:housenumber" v="19,21,23"/>
    <tag k="addr:street" v="Geigenbergerstraße"/>
    <tag k="building" v="yes"/>
    <tag k="source" v="Yahoo,survey"/>
  </way>
  <way id="39209977" version="5" timestamp="2009-10-02T20:43:26Z" uid="86259" user="hasse_osm_korinthenkacker" changeset="2717407"/>
  <way id="39209978" version="4" timestamp="2009-08-26T07:58:40Z" uid="36809" user="pfoten_weg_!_" changeset="2264635">
    <nd ref="469693256"/>
    <nd ref="469693251"/>
    <nd ref="469693253"/>
    <nd ref="469693260"/>
    <nd ref="469693261"/>
    <nd ref="469693257"/>
    <nd ref="469693259"/>
    <nd ref="469693252"/>
    <nd ref="469693250"/>
    <nd ref="469693255"/>
    <nd ref="469693254"/>
    <nd ref="469693258"/>
    <nd ref="469693256"/>
    <tag k="addr:housenumber" v="11,13,15"/>
    <tag k="addr:street" v="Geigenbergerstraße"/>
    <tag k="building" v="yes"/>
    <tag k="source" v="Yahoo,survey"/>
  </way>
  <way id="39209978" version="5" timestamp="2009-10-02T20:43:27Z" uid="86259" user="hasse_osm_korinthenkacker" changeset="2717407"/>
  <way id="39209219" version="5" timestamp="2012-07-17T10:04:23Z" uid="722137" user="OSMF Redaction Account" changeset="12262519">
    <nd ref="310677830"/>
    <nd ref="1218864846"/>
    <nd ref="310918137"/>
    <nd ref="1219441562"/>
    <nd ref="1218864842"/>
    <tag k="bicycle" v="yes"/>
    <tag k="foot" v="yes"/>
    <tag k="highway" v="footway"/>
    <tag k="source" v="i-Blue 747"/>
  </way>
  <way id="39209219" version="6" timestamp="2012-07-28T20:42:56Z" uid="42429" user="42429" changeset="12528103">
    <nd ref="310677830"/>
    <nd ref="1218864846"/>
    <nd ref="310918137"/>
    <nd ref="1219441562"/>
    <nd ref="1218864842"/>
    <nd ref="1841893507"/>
    <tag k="bicycle" v="yes"/>
    <tag k="foot" v="yes"/>
    <tag k="highway" v="footway"/>
    <tag k="source" v="i-Blue 747"/>
  </way>
  <way id="39209850" version="3" timestamp="2012-08-26T12:54:15Z" uid="114813" user="Chrisuu" changeset="12865948">
    <nd ref="1883671996"/>
    <nd ref="469690768"/>
    <nd ref="469690770"/>
    <nd ref="1883671998"/>
    <nd ref="1883671999"/>
    <nd ref="1883671997"/>
    <nd ref="469690772"/>
    <tag k="foot" v="yes"/>
    <tag k="highway" v="path"/>
  </way>
</osm>
