<?xml version='1.0' encoding='UTF-8'?>
<osm version="0.6" generator="libosmium/2.20.0">
  <way id="39297084" version="3" timestamp="2010-07-06T18:36:11Z" uid="74617" user="JohnSmith" changeset="5152225">
    <nd ref="470895232"/>
    <nd ref="510035831"/>
    <nd ref="470895235"/>
    <tag k="highway" v="residential"/>
    <tag k="maxspeed" v="50"/>
    <tag k="maxspeed:source" v="default residential speed limit in Australia"/>
    <tag k="name" v="Gostwick Street"/>
  </way>
  <way id="39297084" version="4" timestamp="2010-08-04T11:09:37Z" uid="62457" user="cybercrypt" changeset="5398002">
    <nd ref="470895232"/>
    <nd ref="510035831"/>
    <nd ref="470895235"/>
    <nd ref="845841272"/>
    <tag k="highway" v="residential"/>
    <tag k="maxspeed" v="50"/>
    <tag k="maxspeed:source" v="default residential speed limit in Australia"/>
    <tag k="name" v="Gostwick Street"/>
  </way>
  <way id="39297084" version="5" timestamp="2011-12-22T09:51:15Z" uid="571600" user="MJames" changeset="10178089">
    <nd ref="470895232"/>
    <nd ref="510035831"/>
    <nd ref="845841272"/>
    <tag k="highway" v="residential"/>
    <tag k="maxspeed" v="50"/>
    <tag k="maxspeed:source" v="default residential speed limit in Australia"/>
    <tag k="name" v="Gostwick Street"/>
  </way>
  <way id="39297084" version="6" timestamp="2012-01-19T03:31:58Z" uid="147510" user="woodpeck_fixbot" changeset="10433650">
    <nd ref="470895232"/>
    <nd ref="510035831"/>
    <nd ref="845841272"/>
    <tag k="highway" v="residential"/>
    <tag k="name" v="Gostwick Street"/>
  </way>
  <way id="39297085" version="3" timestamp="2010-07-06T18:37:33Z" uid="74617" user="JohnSmith" changeset="5152225">
    <nd ref="470895243"/>
    <nd ref="470895247"/>
    <tag k="highway" v="residential"/>
    <tag k="maxspeed" v="50"/>
    <tag k="maxspeed:source" v="default residential speed limit in Australia"/>
    <tag k="name" v="Bristol Street"/>
  </way>
  <way id="39297085" version="4" timestamp="2010-08-04T11:25:52Z" uid="62457" user="cybercrypt" changeset="5398002">
    <nd ref="470895243"/>
    <nd ref="470895247"/>
    <nd ref="845853288"/>
    <tag k="highway" v="residential"/>
    <tag k="maxspeed" v="50"/>
    <tag k="maxspeed:source" v="default residential speed limit in Australia"/>
    <tag k="name" v="Bristol Street"/>
  </way>
  <way id="39297085" version="5" timestamp="2011-12-22T09:51:13Z" uid="571600" user="MJames" changeset="10178089">
    <nd ref="470895243"/>
    <nd ref="845853288"/>
    <tag k="highway" v="residential"/>
    <tag k="maxspeed" v="50"/>
    <tag k="maxspeed:source" v="default residential speed limit in Australia"/>
    <tag k="name" v="Bristol Street"/>
  </way>
  <way id="39297085" version="6" timestamp="2012-01-19T03:31:59Z" uid="147510" user="woodpeck_fixbot" changeset="10433650">
    <nd ref="470895243"/>
    <nd ref="845853288"/>
    <tag k="highway" v="residential"/>
    <tag k="name" v="Bristol Street"/>
  </way>
  <way id="39297087" version="4" timestamp="2010-07-06T18:35:05Z" uid="74617" user="JohnSmith" changeset="5152225">
    <nd ref="470895264"/>
    <nd ref="496889367"/>
    <nd ref="470895269"/>
    <nd ref="470895274"/>
    <tag k="highway" v="residential"/>
    <tag k="maxspeed" v="50"/>
    <tag k="maxspeed:source" v="default residential speed limit in Australia"/>
    <tag k="name" v="Westray Street"/>
  </way>
  <way id="39297087" version="5" timestamp="2012-01-19T03:32:00Z" uid="147510" user="woodpeck_fixbot" changeset="10433650">
    <nd ref="470895264"/>
    <nd ref="496889367"/>
    <nd ref="470895269"/>
    <nd ref="470895274"/>
    <tag k="highway" v="residential"/>
    <tag k="name" v="Westray Street"/>
  </way>
  <way id="39297093" version="2" timestamp="2010-07-06T18:41:03Z" uid="74617" user="JohnSmith" changeset="5152225">
    <nd ref="470895274"/>
    <nd ref="470895280"/>
    <tag k="highway" v="residential"/>
    <tag k="maxspeed" v="50"/>
    <tag k="maxspeed:source" v="default residential speed limit in Australia"/>
    <tag k="name" v="Princess Street"/>
  </way>
  <way id="39297093" version="3" timestamp="2012-01-19T03:32:01Z" uid="147510" user="woodpeck_fixbot" changeset="10433650">
    <nd ref="470895274"/>
    <nd ref="470895280"/>
    <tag k="highway" v="residential"/>
    <tag k="name" v="Princess Street"/>
  </way>
  <way id="39297097" version="3" timestamp="2010-07-06T18:40:08Z" uid="74617" user="JohnSmith" changeset="5152225">
    <nd ref="470895285"/>
    <nd ref="470895269"/>
    <tag k="highway" v="residential"/>
    <tag k="maxspeed" v="50"/>
    <tag k="maxspeed:source" v="default residential speed limit in Australia"/>
    <tag k="name" v="Betty Street"/>
  </way>
  <way id="39297097" version="4" timestamp="2012-01-19T03:32:02Z" uid="147510" user="woodpeck_fixbot" changeset="10433650">
    <nd ref="470895285"/>
    <nd ref="470895269"/>
    <tag k="highway" v="residential"/>
    <tag k="name" v="Betty Street"/>
  </way>
  <way id="39297520" version="1" timestamp="2009-08-19T08:16:02Z" uid="49111" user="Markus B" changeset="2198375">
    <nd ref="470896907"/>
    <nd ref="470896908"/>
    <nd ref="470896909"/>
    <nd ref="470896911"/>
    <nd ref="470896907"/>
    <tag k="building" v="yes"/>
    <tag k="name" v="i-Punkt"/>
    <tag k="tourism" v="information"/>
  </way>
  <way id="39297520" version="2" timestamp="2009-08-19T08:23:10Z" uid="49111" user="Markus B" changeset="2198375">
    <nd ref="470896907"/>
    <nd ref="470896908"/>
    <nd ref="470896909"/>
    <nd ref="470896911"/>
    <nd ref="470896907"/>
    <tag k="addr:city" v="Lauf"/>
    <tag k="addr:housenumber" v="2"/>
    <tag k="addr:postcode" v="91207"/>
    <tag k="addr:street" v="Hellergasse"/>
    <tag k="building" v="yes"/>
    <tag k="name" v="i-Punkt"/>
    <tag k="tourism" v="information"/>
  </way>
  <way id="39297520" version="3" timestamp="2009-12-04T20:06:22Z" uid="63375" user="Divjo" changeset="3291004">
    <nd ref="470896907"/>
    <nd ref="470896908"/>
    <nd ref="581167556"/>
    <nd ref="581167561"/>
    <nd ref="470896909"/>
    <nd ref="470896911"/>
    <nd ref="470896907"/>
    <tag k="addr:city" v="Lauf"/>
    <tag k="addr:housenumber" v="2"/>
    <tag k="addr:postcode" v="91207"/>
    <tag k="addr:street" v="Hellergasse"/>
    <tag k="building" v="yes"/>
    <tag k="name" v="i-Punkt"/>
    <tag k="tourism" v="information"/>
  </way>
  <way id="39297520" version="4" timestamp="2010-08-18T18:23:40Z" uid="70581" user="rsl" changeset="5529146">
    <nd ref="470896907"/>
    <nd ref="470896908"/>
    <nd ref="581167556"/>
    <nd ref="581167561"/>
    <nd ref="470896909"/>
    <nd ref="470896911"/>
    <nd ref="470896907"/>
    <tag k="addr:city" v="Lauf"/>
    <tag k="addr:housenumber" v="2"/>
    <tag k="addr:postcode" v="91207"/>
    <tag k="addr:street" v="Hellergasse"/>
    <tag k="building" v="yes"/>
    <tag k="information" v="office"/>
    <tag k="name" v="i-Punkt"/>
    <tag k="tourism" v="information"/>
  </way>
  <way id="39297520" version="5" timestamp="2010-11-02T18:31:44Z" uid="202858" user="kellerma" changeset="6270117">
    <nd ref="470896907"/>
    <nd ref="470896908"/>
    <nd ref="581167556"/>
    <nd ref="581167561"/>
    <nd ref="470896909"/>
    <nd ref="470896911"/>
    <nd ref="470896907"/>
    <tag k="addr:city" v="Lauf a.d.Pegnitz"/>
    <tag k="addr:country" v="DE"/>
    <tag k="addr:housenumber" v="2"/>
    <tag k="addr:postcode" v="91207"/>
    <tag k="addr:street" v="Hellergasse"/>
    <tag k="building" v="yes"/>
    <tag k="information" v="office"/>
    <tag k="name" v="i-Punkt"/>
    <tag k="tourism" v="information"/>
  </way>
  <way id="39297520" version="6" timestamp="2011-10-20T06:17:21Z" uid="479256" user="geodreieck4711" changeset="9605527">
    <nd ref="470896907"/>
    <nd ref="470896908"/>
    <nd ref="581167556"/>
    <nd ref="581167561"/>
    <nd ref="470896909"/>
    <nd ref="470896911"/>
    <nd ref="470896907"/>
    <tag k="addr:city" v="Lauf a. d. Pegnitz"/>
    <tag k="addr:country" v="DE"/>
    <tag k="addr:housenumber" v="2"/>
    <tag k="addr:postcode" v="91207"/>
    <tag k="addr:street" v="Hellergasse"/>
    <tag k="building" v="yes"/>
    <tag k="information" v="office"/>
    <tag k="name" v="i-Punkt"/>
    <tag k="tourism" v="information"/>
  </way>
  <way id="39297651" version="1" timestamp="2009-08-19T08:26:07Z" uid="99207" user="Lar Kiesel" changeset="2198456">
    <nd ref="470902092"/>
    <nd ref="470902107"/>
    <nd ref="470902112"/>
    <nd ref="470902115"/>
    <nd ref="470902119"/>
    <nd ref="470902120"/>
    <nd ref="470902122"/>
    <nd ref="470902123"/>
    <nd ref="470902092"/>
    <tag k="amenity" v="school"/>
  </way>
  <way id="39297961" version="4" timestamp="2011-01-26T18:38:52Z" uid="49111" user="Markus B" changeset="7096290">
    <nd ref="470918405"/>
    <nd ref="470919005"/>
    <nd ref="683358644"/>
    <nd ref="1122200699"/>
    <nd ref="470919007"/>
    <nd ref="470919009"/>
    <nd ref="470919015"/>
    <nd ref="683358792"/>
    <nd ref="297734590"/>
    <tag k="cycleway" v="opposite_lane"/>
    <tag k="highway" v="residential"/>
    <tag k="maxspeed" v="30"/>
    <tag k="name" v="Bernhard-Jaeggi-Weg"/>
    <tag k="oneway" v="yes"/>
  </way>
  <way id="39297651" version="2" timestamp="2012-07-18T15:54:55Z" uid="722137" user="OSMF Redaction Account" changeset="12287829"/>
</osm>
