<?xml version='1.0' encoding='UTF-8'?>
<osm version="0.6" generator="libosmium/2.20.0">
  <way id="39334020" version="3" timestamp="2010-04-04T01:22:43Z" uid="20587" user="balrog-kun" changeset="4318136">
    <nd ref="471239001"/>
    <nd ref="176287440"/>
    <tag k="bridge" v="yes"/>
    <tag k="highway" v="primary"/>
    <tag k="layer" v="1"/>
    <tag k="name" v="South Parker Road"/>
    <tag k="oneway" v="yes"/>
    <tag k="ref" v="CO 83"/>
  </way>
  <way id="39334020" version="4" timestamp="2011-03-28T19:55:23Z" uid="207745" user="NE2" changeset="7699216">
    <nd ref="471239001"/>
    <nd ref="176287440"/>
    <tag k="bridge" v="yes"/>
    <tag k="highway" v="trunk"/>
    <tag k="layer" v="1"/>
    <tag k="name" v="South Parker Road"/>
    <tag k="oneway" v="yes"/>
    <tag k="ref" v="CO 83"/>
  </way>
  <way id="39334020" version="5" timestamp="2011-06-17T11:41:12Z" uid="207745" user="NE2" changeset="8463816">
    <nd ref="471239001"/>
    <nd ref="176287440"/>
    <tag k="bridge" v="yes"/>
    <tag k="highway" v="trunk"/>
    <tag k="lanes" v="3"/>
    <tag k="layer" v="1"/>
    <tag k="name" v="South Parker Road"/>
    <tag k="oneway" v="yes"/>
    <tag k="ref" v="CO 83"/>
  </way>
  <way id="39334021" version="2" timestamp="2010-04-04T01:22:44Z" uid="20587" user="balrog-kun" changeset="4318136">
    <nd ref="176287440"/>
    <nd ref="176287442"/>
    <nd ref="176287444"/>
    <nd ref="176287445"/>
    <nd ref="176287446"/>
    <nd ref="176155034"/>
    <nd ref="176287448"/>
    <nd ref="176287450"/>
    <tag k="highway" v="primary"/>
    <tag k="name" v="South Parker Road"/>
    <tag k="name_1" v="State Highway 83"/>
    <tag k="oneway" v="yes"/>
    <tag k="ref" v="CO 83"/>
    <tag k="tiger:cfcc" v="A31"/>
    <tag k="tiger:county" v="Arapahoe, CO"/>
    <tag k="tiger:name_base" v="Parker"/>
    <tag k="tiger:name_base_1" v="State Highway 83"/>
    <tag k="tiger:name_direction_prefix" v="S"/>
    <tag k="tiger:name_type" v="Rd"/>
    <tag k="tiger:reviewed" v="yes"/>
    <tag k="tiger:separated" v="no"/>
    <tag k="tiger:source" v="tiger_import_dch_v0.6_20070809"/>
    <tag k="tiger:tlid" v="177360222:177360224:177360210:177561353:177561354:177538870:177359752:177359764:177516243:177516244:177535468:177535469:177363500:177363503:177373140:177560342:177373143:177373146:177535705:177546401:177546402:177535722:177359735:177527581:177363550:17756"/>
    <tag k="tiger:zip_left" v="80016"/>
    <tag k="tiger:zip_right" v="80016"/>
  </way>
  <way id="39334021" version="3" timestamp="2011-03-28T19:56:51Z" uid="207745" user="NE2" changeset="7699216">
    <nd ref="176287440"/>
    <nd ref="176287442"/>
    <nd ref="176287444"/>
    <nd ref="176287445"/>
    <nd ref="176287446"/>
    <nd ref="176155034"/>
    <nd ref="176287448"/>
    <nd ref="176287450"/>
    <tag k="highway" v="trunk"/>
    <tag k="name" v="South Parker Road"/>
    <tag k="oneway" v="yes"/>
    <tag k="ref" v="CO 83"/>
    <tag k="tiger:cfcc" v="A31"/>
    <tag k="tiger:county" v="Arapahoe, CO"/>
    <tag k="tiger:name_base" v="Parker"/>
    <tag k="tiger:name_base_1" v="State Highway 83"/>
    <tag k="tiger:name_direction_prefix" v="S"/>
    <tag k="tiger:name_type" v="Rd"/>
    <tag k="tiger:reviewed" v="yes"/>
    <tag k="tiger:separated" v="no"/>
    <tag k="tiger:source" v="tiger_import_dch_v0.6_20070809"/>
    <tag k="tiger:tlid" v="177360222:177360224:177360210:177561353:177561354:177538870:177359752:177359764:177516243:177516244:177535468:177535469:177363500:177363503:177373140:177560342:177373143:177373146:177535705:177546401:177546402:177535722:177359735:177527581:177363550:17756"/>
    <tag k="tiger:zip_left" v="80016"/>
    <tag k="tiger:zip_right" v="80016"/>
  </way>
  <way id="39334021" version="4" timestamp="2011-06-17T11:34:01Z" uid="207745" user="NE2" changeset="8463816">
    <nd ref="176287440"/>
    <nd ref="176287442"/>
    <nd ref="176287444"/>
    <nd ref="176287445"/>
    <nd ref="176287446"/>
    <nd ref="176155034"/>
    <nd ref="176287448"/>
    <nd ref="176287450"/>
    <tag k="highway" v="trunk"/>
    <tag k="lanes" v="3"/>
    <tag k="name" v="South Parker Road"/>
    <tag k="oneway" v="yes"/>
    <tag k="ref" v="CO 83"/>
    <tag k="tiger:cfcc" v="A31"/>
    <tag k="tiger:county" v="Arapahoe, CO"/>
    <tag k="tiger:name_base" v="Parker"/>
    <tag k="tiger:name_base_1" v="State Highway 83"/>
    <tag k="tiger:name_direction_prefix" v="S"/>
    <tag k="tiger:name_type" v="Rd"/>
    <tag k="tiger:reviewed" v="yes"/>
    <tag k="tiger:separated" v="no"/>
    <tag k="tiger:source" v="tiger_import_dch_v0.6_20070809"/>
    <tag k="tiger:tlid" v="177360222:177360224:177360210:177561353:177561354:177538870:177359752:177359764:177516243:177516244:177535468:177535469:177363500:177363503:177373140:177560342:177373143:177373146:177535705:177546401:177546402:177535722:177359735:177527581:177363550:17756"/>
    <tag k="tiger:zip_left" v="80016"/>
    <tag k="tiger:zip_right" v="80016"/>
  </way>
  <way id="39334021" version="5" timestamp="2011-10-18T22:46:39Z" uid="42429" user="FK270673" changeset="9595836">
    <nd ref="176287440"/>
    <nd ref="176287450"/>
    <tag k="highway" v="trunk"/>
    <tag k="lanes" v="3"/>
    <tag k="name" v="South Parker Road"/>
    <tag k="oneway" v="yes"/>
    <tag k="ref" v="CO 83"/>
    <tag k="tiger:cfcc" v="A31"/>
    <tag k="tiger:county" v="Arapahoe, CO"/>
    <tag k="tiger:name_base" v="Parker"/>
    <tag k="tiger:name_base_1" v="State Highway 83"/>
    <tag k="tiger:name_direction_prefix" v="S"/>
    <tag k="tiger:name_type" v="Rd"/>
    <tag k="tiger:reviewed" v="yes"/>
    <tag k="tiger:separated" v="no"/>
    <tag k="tiger:source" v="tiger_import_dch_v0.6_20070809"/>
    <tag k="tiger:tlid" v="177360222:177360224:177360210:177561353:177561354:177538870:177359752:177359764:177516243:177516244:177535468:177535469:177363500:177363503:177373140:177560342:177373143:177373146:177535705:177546401:177546402:177535722:177359735:177527581:177363550:17756"/>
    <tag k="tiger:zip_left" v="80016"/>
    <tag k="tiger:zip_right" v="80016"/>
  </way>
  <way id="39334053" version="5" timestamp="2010-07-06T10:53:43Z" uid="74617" user="JohnSmith" changeset="5147679">
    <nd ref="222196701"/>
    <nd ref="471239924"/>
    <nd ref="471239926"/>
    <nd ref="471239928"/>
    <nd ref="471239929"/>
    <nd ref="471239932"/>
    <nd ref="471239935"/>
    <nd ref="471239937"/>
    <nd ref="471239939"/>
    <nd ref="471239940"/>
    <nd ref="471239942"/>
    <nd ref="257692682"/>
    <tag k="highway" v="residential"/>
    <tag k="maxspeed" v="50"/>
    <tag k="maxspeed:source" v="default residential speed limit in Australia"/>
    <tag k="oneway" v="yes"/>
  </way>
  <way id="39334053" version="6" timestamp="2011-03-24T15:11:33Z" uid="4467" user="Rosscoe" changeset="7656708">
    <nd ref="222196701"/>
    <nd ref="471239924"/>
    <nd ref="471239926"/>
    <nd ref="471239928"/>
    <nd ref="471239929"/>
    <nd ref="471239932"/>
    <nd ref="471239935"/>
    <nd ref="471239937"/>
    <nd ref="471239939"/>
    <nd ref="471239940"/>
    <nd ref="471239942"/>
    <nd ref="257692682"/>
    <tag k="highway" v="residential"/>
    <tag k="maxspeed" v="50"/>
    <tag k="oneway" v="yes"/>
    <tag k="source:maxspeed" v="default residential speed limit in Australia"/>
  </way>
  <way id="39334053" version="7" timestamp="2011-05-13T10:15:14Z" uid="22094" user="Chadzopkyo" changeset="8130233">
    <nd ref="222196701"/>
    <nd ref="471239924"/>
    <nd ref="471239926"/>
    <nd ref="471239928"/>
    <nd ref="471239929"/>
    <nd ref="471239932"/>
    <nd ref="471239937"/>
    <nd ref="471239942"/>
    <nd ref="257692682"/>
    <tag k="highway" v="residential"/>
    <tag k="maxspeed" v="50"/>
    <tag k="oneway" v="yes"/>
    <tag k="source:maxspeed" v="default residential speed limit in Australia"/>
  </way>
  <way id="39334053" version="8" timestamp="2011-05-13T11:04:27Z" uid="22094" user="Chadzopkyo" changeset="8130604">
    <nd ref="222196701"/>
    <nd ref="471239924"/>
    <nd ref="471239926"/>
    <nd ref="471239928"/>
    <nd ref="471239929"/>
    <nd ref="471239932"/>
    <nd ref="471239937"/>
    <nd ref="471239942"/>
    <nd ref="257692682"/>
    <tag k="highway" v="unclassified"/>
    <tag k="maxspeed" v="50"/>
    <tag k="oneway" v="yes"/>
    <tag k="source:maxspeed" v="default residential speed limit in Australia"/>
  </way>
  <way id="39334053" version="9" timestamp="2011-05-18T06:46:15Z" uid="22094" user="Chadzopkyo" changeset="8178203">
    <nd ref="222196701"/>
    <nd ref="471239924"/>
    <nd ref="471239926"/>
    <nd ref="471239928"/>
    <nd ref="471239929"/>
    <nd ref="471239932"/>
    <nd ref="471239937"/>
    <nd ref="1289903391"/>
    <nd ref="471239942"/>
    <nd ref="1289903393"/>
    <tag k="highway" v="unclassified"/>
    <tag k="oneway" v="yes"/>
  </way>
  <way id="39334089" version="2" timestamp="2009-09-18T11:39:51Z" uid="20587" user="balrog-kun" changeset="2523165">
    <nd ref="471240626"/>
    <nd ref="500058905"/>
    <nd ref="500058903"/>
    <nd ref="500058889"/>
    <nd ref="500058895"/>
    <nd ref="60944644"/>
    <nd ref="361426603"/>
    <nd ref="27167255"/>
    <nd ref="31219162"/>
    <nd ref="88888032"/>
    <nd ref="441768008"/>
    <nd ref="361047372"/>
    <nd ref="441768007"/>
    <nd ref="60758620"/>
    <nd ref="60758618"/>
    <nd ref="361047801"/>
    <nd ref="361047802"/>
    <nd ref="348012578"/>
    <tag k="highway" v="primary"/>
    <tag k="int_ref" v="E 30"/>
    <tag k="ref" v="2"/>
  </way>
  <way id="39334089" version="3" timestamp="2010-01-04T23:30:04Z" uid="163896" user="Zbigniew Czernik" changeset="3542043">
    <nd ref="471240626"/>
    <nd ref="500058905"/>
    <nd ref="500058903"/>
    <nd ref="500058889"/>
    <nd ref="500058895"/>
    <nd ref="60944644"/>
    <nd ref="361426603"/>
    <nd ref="27167255"/>
    <tag k="highway" v="primary"/>
    <tag k="int_ref" v="E 30"/>
    <tag k="ref" v="2"/>
  </way>
  <way id="39334089" version="4" timestamp="2010-03-27T16:29:55Z" uid="30632" user="antblant" changeset="4248162">
    <nd ref="471240626"/>
    <nd ref="500058905"/>
    <nd ref="500058903"/>
    <nd ref="500058889"/>
    <nd ref="676029621"/>
    <nd ref="676029617"/>
    <nd ref="500058895"/>
    <nd ref="60944644"/>
    <nd ref="361426603"/>
    <nd ref="27167255"/>
    <tag k="highway" v="primary"/>
    <tag k="int_ref" v="E 30"/>
    <tag k="ref" v="2"/>
  </way>
  <way id="39334092" version="2" timestamp="2009-09-18T11:45:50Z" uid="20587" user="balrog-kun" changeset="2523165"/>
  <way id="39334097" version="7" timestamp="2010-04-07T13:46:03Z" uid="20587" user="balrog-kun" changeset="4353646">
    <nd ref="471240941"/>
    <nd ref="471226980"/>
    <nd ref="471226981"/>
    <nd ref="471226983"/>
    <nd ref="471240951"/>
    <tag k="highway" v="residential"/>
    <tag k="name" v="Crestmont Drive"/>
    <tag k="tiger:cfcc" v="A41"/>
    <tag k="tiger:county" v="Johnson, TX"/>
    <tag k="tiger:name_base" v="Crestmont"/>
    <tag k="tiger:name_type" v="Dr"/>
    <tag k="tiger:separated" v="no"/>
    <tag k="tiger:zip_left" v="76028"/>
  </way>
  <way id="39334159" version="4" timestamp="2009-12-28T02:07:26Z" uid="74617" user="JohnSmith" changeset="3468490"/>
  <way id="39334160" version="3" timestamp="2009-12-28T02:07:24Z" uid="74617" user="JohnSmith" changeset="3468490">
    <nd ref="471242112"/>
    <nd ref="179997590"/>
    <tag k="bridge" v="yes"/>
    <tag k="highway" v="primary"/>
    <tag k="layer" v="1"/>
    <tag k="oneway" v="yes"/>
  </way>
  <way id="39334160" version="4" timestamp="2012-01-04T12:26:39Z" uid="67896" user="mrpulley" changeset="10290267">
    <nd ref="471242112"/>
    <nd ref="179997590"/>
    <tag k="bridge" v="yes"/>
    <tag k="highway" v="primary"/>
    <tag k="layer" v="1"/>
    <tag k="name" v="Beaudesert Road"/>
    <tag k="oneway" v="yes"/>
    <tag k="ref" v="NR13"/>
  </way>
  <way id="39334161" version="3" timestamp="2010-06-02T12:56:46Z" uid="4467" user="Rosscoe" changeset="4883640">
    <nd ref="471242302"/>
    <nd ref="471239911"/>
    <tag k="highway" v="primary_link"/>
    <tag k="name" v="Mount Lindesay Highway"/>
    <tag k="oneway" v="yes"/>
    <tag k="ref" v="NR13"/>
  </way>
  <way id="39334929" version="2" timestamp="2010-04-04T01:22:44Z" uid="20587" user="balrog-kun" changeset="4318136">
    <nd ref="176287421"/>
    <nd ref="176287423"/>
    <tag k="bridge" v="yes"/>
    <tag k="highway" v="primary"/>
    <tag k="layer" v="1"/>
    <tag k="name" v="South Parker Road"/>
    <tag k="name_1" v="State Highway 83"/>
    <tag k="oneway" v="yes"/>
    <tag k="ref" v="CO 83"/>
    <tag k="tiger:cfcc" v="A31"/>
    <tag k="tiger:county" v="Arapahoe, CO"/>
    <tag k="tiger:name_base" v="Parker"/>
    <tag k="tiger:name_base_1" v="State Highway 83"/>
    <tag k="tiger:name_direction_prefix" v="S"/>
    <tag k="tiger:name_type" v="Rd"/>
    <tag k="tiger:reviewed" v="yes"/>
    <tag k="tiger:separated" v="no"/>
    <tag k="tiger:source" v="tiger_import_dch_v0.6_20070809"/>
    <tag k="tiger:tlid" v="177360222:177360224:177360210:177561353:177561354:177538870:177359752:177359764:177516243:177516244:177535468:177535469:177363500:177363503:177373140:177560342:177373143:177373146:177535705:177546401:177546402:177535722:177359735:177527581:177363550:17756"/>
    <tag k="tiger:zip_left" v="80016"/>
    <tag k="tiger:zip_right" v="80016"/>
  </way>
  <way id="39334929" version="3" timestamp="2011-03-28T19:56:52Z" uid="207745" user="NE2" changeset="7699216">
    <nd ref="176287421"/>
    <nd ref="176287423"/>
    <tag k="bridge" v="yes"/>
    <tag k="highway" v="trunk"/>
    <tag k="layer" v="1"/>
    <tag k="name" v="South Parker Road"/>
    <tag k="oneway" v="yes"/>
    <tag k="ref" v="CO 83"/>
    <tag k="tiger:cfcc" v="A31"/>
    <tag k="tiger:county" v="Arapahoe, CO"/>
    <tag k="tiger:name_base" v="Parker"/>
    <tag k="tiger:name_base_1" v="State Highway 83"/>
    <tag k="tiger:name_direction_prefix" v="S"/>
    <tag k="tiger:name_type" v="Rd"/>
    <tag k="tiger:reviewed" v="yes"/>
    <tag k="tiger:separated" v="no"/>
    <tag k="tiger:source" v="tiger_import_dch_v0.6_20070809"/>
    <tag k="tiger:tlid" v="177360222:177360224:177360210:177561353:177561354:177538870:177359752:177359764:177516243:177516244:177535468:177535469:177363500:177363503:177373140:177560342:177373143:177373146:177535705:177546401:177546402:177535722:177359735:177527581:177363550:17756"/>
    <tag k="tiger:zip_left" v="80016"/>
    <tag k="tiger:zip_right" v="80016"/>
  </way>
  <way id="39334929" version="4" timestamp="2011-06-17T11:39:39Z" uid="207745" user="NE2" changeset="8463816">
    <nd ref="176287421"/>
    <nd ref="176287423"/>
    <tag k="bridge" v="yes"/>
    <tag k="highway" v="trunk"/>
    <tag k="lanes" v="3"/>
    <tag k="layer" v="1"/>
    <tag k="name" v="South Parker Road"/>
    <tag k="oneway" v="yes"/>
    <tag k="ref" v="CO 83"/>
    <tag k="tiger:cfcc" v="A31"/>
    <tag k="tiger:county" v="Arapahoe, CO"/>
    <tag k="tiger:name_base" v="Parker"/>
    <tag k="tiger:name_base_1" v="State Highway 83"/>
    <tag k="tiger:name_direction_prefix" v="S"/>
    <tag k="tiger:name_type" v="Rd"/>
    <tag k="tiger:reviewed" v="yes"/>
    <tag k="tiger:separated" v="no"/>
    <tag k="tiger:source" v="tiger_import_dch_v0.6_20070809"/>
    <tag k="tiger:tlid" v="177360222:177360224:177360210:177561353:177561354:177538870:177359752:177359764:177516243:177516244:177535468:177535469:177363500:177363503:177373140:177560342:177373143:177373146:177535705:177546401:177546402:177535722:177359735:177527581:177363550:17756"/>
    <tag k="tiger:zip_left" v="80016"/>
    <tag k="tiger:zip_right" v="80016"/>
  </way>
  <way id="39334936" version="3" timestamp="2010-04-04T01:22:44Z" uid="20587" user="balrog-kun" changeset="4318136">
    <nd ref="176287423"/>
    <nd ref="176287424"/>
    <nd ref="176287425"/>
    <nd ref="176287426"/>
    <nd ref="176287427"/>
    <nd ref="176287429"/>
    <nd ref="176287431"/>
    <nd ref="176287433"/>
    <nd ref="176287436"/>
    <nd ref="176287438"/>
    <nd ref="471239001"/>
    <tag k="highway" v="primary"/>
    <tag k="name" v="South Parker Road"/>
    <tag k="oneway" v="yes"/>
    <tag k="ref" v="CO 83"/>
    <tag k="tiger:county" v="Arapahoe, CO"/>
  </way>
  <way id="39334936" version="4" timestamp="2011-03-28T19:56:23Z" uid="207745" user="NE2" changeset="7699216">
    <nd ref="176287423"/>
    <nd ref="176287424"/>
    <nd ref="176287425"/>
    <nd ref="176287426"/>
    <nd ref="176287427"/>
    <nd ref="176287429"/>
    <nd ref="176287431"/>
    <nd ref="176287433"/>
    <nd ref="176287436"/>
    <nd ref="176287438"/>
    <nd ref="471239001"/>
    <tag k="highway" v="trunk"/>
    <tag k="name" v="South Parker Road"/>
    <tag k="oneway" v="yes"/>
    <tag k="ref" v="CO 83"/>
    <tag k="tiger:county" v="Arapahoe, CO"/>
  </way>
  <way id="39334936" version="5" timestamp="2011-06-17T11:33:55Z" uid="207745" user="NE2" changeset="8463816">
    <nd ref="176287423"/>
    <nd ref="176287424"/>
    <nd ref="176287425"/>
    <nd ref="176287426"/>
    <nd ref="176287427"/>
    <nd ref="176287429"/>
    <nd ref="176287431"/>
    <nd ref="176287433"/>
    <nd ref="176287436"/>
    <nd ref="176287438"/>
    <nd ref="471239001"/>
    <tag k="highway" v="trunk"/>
    <tag k="lanes" v="3"/>
    <tag k="name" v="South Parker Road"/>
    <tag k="oneway" v="yes"/>
    <tag k="ref" v="CO 83"/>
    <tag k="tiger:county" v="Arapahoe, CO"/>
  </way>
  <way id="39334936" version="6" timestamp="2011-10-18T22:22:53Z" uid="42429" user="FK270673" changeset="9595734">
    <nd ref="176287423"/>
    <nd ref="176287424"/>
    <nd ref="176287425"/>
    <nd ref="176287426"/>
    <nd ref="176287427"/>
    <nd ref="176287429"/>
    <nd ref="176287431"/>
    <nd ref="1472536084"/>
    <tag k="highway" v="trunk"/>
    <tag k="lanes" v="3"/>
    <tag k="name" v="South Parker Road"/>
    <tag k="oneway" v="yes"/>
    <tag k="ref" v="CO 83"/>
    <tag k="tiger:county" v="Arapahoe, CO"/>
  </way>
  <way id="39334978" version="5" timestamp="2010-04-04T01:22:44Z" uid="20587" user="balrog-kun" changeset="4318136">
    <nd ref="471248785"/>
    <nd ref="471248710"/>
    <tag k="bridge" v="yes"/>
    <tag k="highway" v="primary"/>
    <tag k="layer" v="1"/>
    <tag k="name" v="South Parker Road"/>
    <tag k="name_1" v="State Highway 83"/>
    <tag k="oneway" v="yes"/>
    <tag k="ref" v="CO 83"/>
    <tag k="tiger:cfcc" v="A31"/>
    <tag k="tiger:county" v="Arapahoe, CO"/>
    <tag k="tiger:name_base" v="Parker"/>
    <tag k="tiger:name_base_1" v="State Highway 83"/>
    <tag k="tiger:name_direction_prefix" v="S"/>
    <tag k="tiger:name_type" v="Rd"/>
    <tag k="tiger:reviewed" v="yes"/>
    <tag k="tiger:separated" v="no"/>
    <tag k="tiger:source" v="tiger_import_dch_v0.6_20070809"/>
    <tag k="tiger:tlid" v="177360222:177360224:177360210:177561353:177561354:177538870:177359752:177359764:177516243:177516244:177535468:177535469:177363500:177363503:177373140:177560342:177373143:177373146:177535705:177546401:177546402:177535722:177359735:177527581:177363550:17756"/>
    <tag k="tiger:zip_left" v="80016"/>
    <tag k="tiger:zip_right" v="80016"/>
  </way>
  <way id="39334978" version="6" timestamp="2011-03-28T19:56:39Z" uid="207745" user="NE2" changeset="7699216">
    <nd ref="471248785"/>
    <nd ref="471248710"/>
    <tag k="bridge" v="yes"/>
    <tag k="highway" v="trunk"/>
    <tag k="layer" v="1"/>
    <tag k="name" v="South Parker Road"/>
    <tag k="oneway" v="yes"/>
    <tag k="ref" v="CO 83"/>
    <tag k="tiger:cfcc" v="A31"/>
    <tag k="tiger:county" v="Arapahoe, CO"/>
    <tag k="tiger:name_base" v="Parker"/>
    <tag k="tiger:name_base_1" v="State Highway 83"/>
    <tag k="tiger:name_direction_prefix" v="S"/>
    <tag k="tiger:name_type" v="Rd"/>
    <tag k="tiger:reviewed" v="yes"/>
    <tag k="tiger:separated" v="no"/>
    <tag k="tiger:source" v="tiger_import_dch_v0.6_20070809"/>
    <tag k="tiger:tlid" v="177360222:177360224:177360210:177561353:177561354:177538870:177359752:177359764:177516243:177516244:177535468:177535469:177363500:177363503:177373140:177560342:177373143:177373146:177535705:177546401:177546402:177535722:177359735:177527581:177363550:17756"/>
    <tag k="tiger:zip_left" v="80016"/>
    <tag k="tiger:zip_right" v="80016"/>
  </way>
  <way id="39334978" version="7" timestamp="2011-06-17T11:37:31Z" uid="207745" user="NE2" changeset="8463816">
    <nd ref="471248785"/>
    <nd ref="471248710"/>
    <tag k="bridge" v="yes"/>
    <tag k="highway" v="trunk"/>
    <tag k="lanes" v="3"/>
    <tag k="layer" v="1"/>
    <tag k="name" v="South Parker Road"/>
    <tag k="oneway" v="yes"/>
    <tag k="ref" v="CO 83"/>
    <tag k="tiger:cfcc" v="A31"/>
    <tag k="tiger:county" v="Arapahoe, CO"/>
    <tag k="tiger:name_base" v="Parker"/>
    <tag k="tiger:name_base_1" v="State Highway 83"/>
    <tag k="tiger:name_direction_prefix" v="S"/>
    <tag k="tiger:name_type" v="Rd"/>
    <tag k="tiger:reviewed" v="yes"/>
    <tag k="tiger:separated" v="no"/>
    <tag k="tiger:source" v="tiger_import_dch_v0.6_20070809"/>
    <tag k="tiger:tlid" v="177360222:177360224:177360210:177561353:177561354:177538870:177359752:177359764:177516243:177516244:177535468:177535469:177363500:177363503:177373140:177560342:177373143:177373146:177535705:177546401:177546402:177535722:177359735:177527581:177363550:17756"/>
    <tag k="tiger:zip_left" v="80016"/>
    <tag k="tiger:zip_right" v="80016"/>
  </way>
  <way id="39334979" version="3" timestamp="2010-04-04T01:22:45Z" uid="20587" user="balrog-kun" changeset="4318136">
    <nd ref="471239213"/>
    <nd ref="471248787"/>
    <nd ref="471248788"/>
    <nd ref="471248789"/>
    <nd ref="471248790"/>
    <nd ref="471248791"/>
    <nd ref="471248792"/>
    <nd ref="471248794"/>
    <nd ref="471248795"/>
    <nd ref="471248796"/>
    <nd ref="471248785"/>
    <tag k="highway" v="primary"/>
    <tag k="name" v="South Parker Road"/>
    <tag k="name_1" v="State Highway 83"/>
    <tag k="oneway" v="yes"/>
    <tag k="ref" v="CO 83"/>
    <tag k="tiger:cfcc" v="A31"/>
    <tag k="tiger:county" v="Arapahoe, CO"/>
    <tag k="tiger:name_base" v="Parker"/>
    <tag k="tiger:name_base_1" v="State Highway 83"/>
    <tag k="tiger:name_direction_prefix" v="S"/>
    <tag k="tiger:name_type" v="Rd"/>
    <tag k="tiger:reviewed" v="yes"/>
    <tag k="tiger:separated" v="no"/>
    <tag k="tiger:source" v="tiger_import_dch_v0.6_20070809"/>
    <tag k="tiger:tlid" v="177360222:177360224:177360210:177561353:177561354:177538870:177359752:177359764:177516243:177516244:177535468:177535469:177363500:177363503:177373140:177560342:177373143:177373146:177535705:177546401:177546402:177535722:177359735:177527581:177363550:17756"/>
    <tag k="tiger:zip_left" v="80016"/>
    <tag k="tiger:zip_right" v="80016"/>
  </way>
  <way id="39334979" version="4" timestamp="2011-03-28T19:57:49Z" uid="207745" user="NE2" changeset="7699216">
    <nd ref="471239213"/>
    <nd ref="471248787"/>
    <nd ref="471248788"/>
    <nd ref="471248789"/>
    <nd ref="471248790"/>
    <nd ref="471248791"/>
    <nd ref="471248792"/>
    <nd ref="471248794"/>
    <nd ref="471248795"/>
    <nd ref="471248796"/>
    <nd ref="471248785"/>
    <tag k="highway" v="trunk"/>
    <tag k="name" v="South Parker Road"/>
    <tag k="oneway" v="yes"/>
    <tag k="ref" v="CO 83"/>
    <tag k="tiger:cfcc" v="A31"/>
    <tag k="tiger:county" v="Arapahoe, CO"/>
    <tag k="tiger:name_base" v="Parker"/>
    <tag k="tiger:name_base_1" v="State Highway 83"/>
    <tag k="tiger:name_direction_prefix" v="S"/>
    <tag k="tiger:name_type" v="Rd"/>
    <tag k="tiger:reviewed" v="yes"/>
    <tag k="tiger:separated" v="no"/>
    <tag k="tiger:source" v="tiger_import_dch_v0.6_20070809"/>
    <tag k="tiger:tlid" v="177360222:177360224:177360210:177561353:177561354:177538870:177359752:177359764:177516243:177516244:177535468:177535469:177363500:177363503:177373140:177560342:177373143:177373146:177535705:177546401:177546402:177535722:177359735:177527581:177363550:17756"/>
    <tag k="tiger:zip_left" v="80016"/>
    <tag k="tiger:zip_right" v="80016"/>
  </way>
  <way id="39334979" version="5" timestamp="2011-06-17T11:39:06Z" uid="207745" user="NE2" changeset="8463816">
    <nd ref="471239213"/>
    <nd ref="471248787"/>
    <nd ref="471248788"/>
    <nd ref="471248789"/>
    <nd ref="471248790"/>
    <nd ref="471248791"/>
    <nd ref="471248792"/>
    <nd ref="471248794"/>
    <nd ref="471248795"/>
    <nd ref="471248796"/>
    <nd ref="471248785"/>
    <tag k="highway" v="trunk"/>
    <tag k="lanes" v="3"/>
    <tag k="name" v="South Parker Road"/>
    <tag k="oneway" v="yes"/>
    <tag k="ref" v="CO 83"/>
    <tag k="tiger:cfcc" v="A31"/>
    <tag k="tiger:county" v="Arapahoe, CO"/>
    <tag k="tiger:name_base" v="Parker"/>
    <tag k="tiger:name_base_1" v="State Highway 83"/>
    <tag k="tiger:name_direction_prefix" v="S"/>
    <tag k="tiger:name_type" v="Rd"/>
    <tag k="tiger:reviewed" v="yes"/>
    <tag k="tiger:separated" v="no"/>
    <tag k="tiger:source" v="tiger_import_dch_v0.6_20070809"/>
    <tag k="tiger:tlid" v="177360222:177360224:177360210:177561353:177561354:177538870:177359752:177359764:177516243:177516244:177535468:177535469:177363500:177363503:177373140:177560342:177373143:177373146:177535705:177546401:177546402:177535722:177359735:177527581:177363550:17756"/>
    <tag k="tiger:zip_left" v="80016"/>
    <tag k="tiger:zip_right" v="80016"/>
  </way>
  <way id="39334980" version="3" timestamp="2010-04-04T01:22:45Z" uid="20587" user="balrog-kun" changeset="4318136">
    <nd ref="471237234"/>
    <nd ref="471239213"/>
    <tag k="bridge" v="yes"/>
    <tag k="highway" v="primary"/>
    <tag k="layer" v="1"/>
    <tag k="name" v="South Parker Road"/>
    <tag k="oneway" v="yes"/>
    <tag k="ref" v="CO 83"/>
  </way>
  <way id="39334980" version="4" timestamp="2011-03-28T19:58:18Z" uid="207745" user="NE2" changeset="7699216">
    <nd ref="471237234"/>
    <nd ref="471239213"/>
    <tag k="bridge" v="yes"/>
    <tag k="highway" v="trunk"/>
    <tag k="layer" v="1"/>
    <tag k="name" v="South Parker Road"/>
    <tag k="oneway" v="yes"/>
    <tag k="ref" v="CO 83"/>
  </way>
  <way id="39334980" version="5" timestamp="2011-06-17T11:36:07Z" uid="207745" user="NE2" changeset="8463816">
    <nd ref="471237234"/>
    <nd ref="471239213"/>
    <tag k="bridge" v="yes"/>
    <tag k="highway" v="trunk"/>
    <tag k="lanes" v="3"/>
    <tag k="layer" v="1"/>
    <tag k="name" v="South Parker Road"/>
    <tag k="oneway" v="yes"/>
    <tag k="ref" v="CO 83"/>
  </way>
  <way id="39334089" version="5" timestamp="2012-06-07T19:49:48Z" uid="186174" user="michal_f" changeset="11829026">
    <nd ref="471240626"/>
    <nd ref="500058905"/>
    <nd ref="500058903"/>
    <nd ref="500058889"/>
    <nd ref="676029621"/>
    <nd ref="676029617"/>
    <nd ref="1779627538"/>
    <nd ref="500058895"/>
    <nd ref="60944644"/>
    <nd ref="361426603"/>
    <nd ref="27167255"/>
    <tag k="highway" v="primary"/>
    <tag k="int_ref" v="E 30"/>
    <tag k="ref" v="2"/>
  </way>
  <way id="39334089" version="6" timestamp="2012-06-22T16:04:28Z" uid="99386" user="masti" changeset="11980824">
    <nd ref="471240626"/>
    <nd ref="500058905"/>
    <nd ref="500058903"/>
    <nd ref="500058889"/>
    <nd ref="676029621"/>
    <nd ref="676029617"/>
    <nd ref="1779627538"/>
    <nd ref="500058895"/>
    <nd ref="60944644"/>
    <nd ref="361426603"/>
    <nd ref="1798399603"/>
    <nd ref="1798399602"/>
    <nd ref="27167255"/>
    <tag k="highway" v="primary"/>
    <tag k="int_ref" v="E 30"/>
    <tag k="ref" v="2"/>
  </way>
  <way id="39334089" version="7" timestamp="2012-06-22T16:11:51Z" uid="99386" user="masti" changeset="11980889">
    <nd ref="471240626"/>
    <nd ref="500058905"/>
    <nd ref="500058903"/>
    <nd ref="500058889"/>
    <nd ref="676029621"/>
    <nd ref="676029617"/>
    <nd ref="1779627538"/>
    <nd ref="500058895"/>
    <nd ref="60944644"/>
    <nd ref="361426603"/>
    <nd ref="1798407724"/>
    <nd ref="1798399603"/>
    <nd ref="1798399602"/>
    <nd ref="27167255"/>
    <tag k="highway" v="primary"/>
    <tag k="int_ref" v="E 30"/>
    <tag k="ref" v="2"/>
  </way>
  <way id="39334089" version="8" timestamp="2012-06-26T16:25:28Z" uid="88909" user="miko101" changeset="12028103">
    <nd ref="471240626"/>
    <nd ref="500058905"/>
    <nd ref="500058903"/>
    <nd ref="500058889"/>
    <nd ref="676029621"/>
    <nd ref="676029617"/>
    <nd ref="1779627538"/>
    <nd ref="500058895"/>
    <nd ref="60944644"/>
    <nd ref="361426603"/>
    <nd ref="1798407724"/>
    <nd ref="1798399603"/>
    <nd ref="1798399602"/>
    <nd ref="27167255"/>
    <tag k="highway" v="primary"/>
    <tag k="ref" v="92"/>
  </way>
  <way id="39334089" version="9" timestamp="2012-07-29T11:46:20Z" uid="98542" user="wajak" changeset="12533924">
    <nd ref="471240626"/>
    <nd ref="500058905"/>
    <nd ref="500058903"/>
    <nd ref="1842621156"/>
    <nd ref="500058889"/>
    <nd ref="676029621"/>
    <nd ref="676029617"/>
    <nd ref="1779627538"/>
    <nd ref="500058895"/>
    <nd ref="60944644"/>
    <nd ref="361426603"/>
    <nd ref="1798407724"/>
    <nd ref="1798399603"/>
    <nd ref="1798399602"/>
    <nd ref="27167255"/>
    <tag k="highway" v="primary"/>
    <tag k="ref" v="92"/>
  </way>
  <way id="39334097" version="8" timestamp="2012-07-18T13:52:35Z" uid="722137" user="OSMF Redaction Account" changeset="12284015"/>
  <way id="39334160" version="5" timestamp="2012-07-31T11:19:22Z" uid="349913" user="Peter W34" changeset="12559847">
    <nd ref="471242112"/>
    <nd ref="179997590"/>
    <tag k="bridge" v="yes"/>
    <tag k="highway" v="primary"/>
    <tag k="layer" v="1"/>
    <tag k="name" v="Beaudesert Road"/>
    <tag k="oneway" v="yes"/>
    <tag k="ref" v="NR13"/>
  </way>
  <way id="39334160" version="6" timestamp="2012-08-25T12:49:58Z" uid="67896" user="mrpulley" changeset="12854922">
    <nd ref="471242112"/>
    <nd ref="179997590"/>
    <tag k="bridge" v="yes"/>
    <tag k="highway" v="primary"/>
    <tag k="layer" v="1"/>
    <tag k="name" v="Beaudesert Road"/>
    <tag k="network" v="NR"/>
    <tag k="oneway" v="yes"/>
    <tag k="ref" v="13"/>
  </way>
</osm>
