<?xml version='1.0' encoding='UTF-8'?>
<osm version="0.6" generator="libosmium/2.20.0">
  <way id="39344052" version="1" timestamp="2009-08-20T08:57:05Z" uid="99207" user="Lar Kiesel" changeset="2209685">
    <nd ref="113936865"/>
    <nd ref="113936867"/>
    <nd ref="393775664"/>
    <nd ref="415288497"/>
    <nd ref="393528140"/>
    <nd ref="393527798"/>
    <tag k="highway" v="motorway_link"/>
    <tag k="oneway" v="yes"/>
    <tag k="tiger:cfcc" v="A63"/>
    <tag k="tiger:county" v="Richland, SC"/>
    <tag k="tiger:reviewed" v="no"/>
    <tag k="tiger:source" v="tiger_import_dch_v0.6_20070829"/>
    <tag k="tiger:tlid" v="71817627:71817590:71817592"/>
    <tag k="tiger:upload_uuid" v="bulk_upload.pl-0250b25a-3ed9-45b1-b84e-45e4a188563e"/>
  </way>
  <way id="39344052" version="2" timestamp="2010-05-02T00:57:01Z" uid="99207" user="Lar Kiesel" changeset="4580700">
    <nd ref="113936865"/>
    <nd ref="113936867"/>
    <nd ref="393775664"/>
    <nd ref="415288497"/>
    <nd ref="393528140"/>
    <nd ref="716015663"/>
    <nd ref="716015664"/>
    <nd ref="716015665"/>
    <nd ref="393527798"/>
    <tag k="highway" v="motorway_link"/>
    <tag k="oneway" v="yes"/>
    <tag k="tiger:cfcc" v="A63"/>
    <tag k="tiger:county" v="Richland, SC"/>
    <tag k="tiger:reviewed" v="no"/>
    <tag k="tiger:source" v="tiger_import_dch_v0.6_20070829"/>
    <tag k="tiger:tlid" v="71817627:71817590:71817592"/>
    <tag k="tiger:upload_uuid" v="bulk_upload.pl-0250b25a-3ed9-45b1-b84e-45e4a188563e"/>
  </way>
  <way id="39344052" version="3" timestamp="2010-08-11T01:51:43Z" uid="99207" user="Lar Kiesel" changeset="5459058">
    <nd ref="113936865"/>
    <nd ref="113936867"/>
    <nd ref="393775664"/>
    <nd ref="415288497"/>
    <nd ref="393528140"/>
    <nd ref="854076909"/>
    <nd ref="716015663"/>
    <nd ref="716015664"/>
    <nd ref="716015665"/>
    <nd ref="393527798"/>
    <tag k="highway" v="motorway_link"/>
    <tag k="oneway" v="yes"/>
    <tag k="tiger:cfcc" v="A63"/>
    <tag k="tiger:county" v="Richland, SC"/>
    <tag k="tiger:reviewed" v="no"/>
    <tag k="tiger:source" v="tiger_import_dch_v0.6_20070829"/>
    <tag k="tiger:tlid" v="71817627:71817590:71817592"/>
    <tag k="tiger:upload_uuid" v="bulk_upload.pl-0250b25a-3ed9-45b1-b84e-45e4a188563e"/>
  </way>
  <way id="39344269" version="2" timestamp="2010-06-17T23:39:07Z" uid="66036" user="h4v" changeset="5013171">
    <nd ref="334367358"/>
    <nd ref="471347904"/>
    <nd ref="471347906"/>
    <nd ref="471347907"/>
    <tag k="highway" v="residential"/>
    <tag k="name" v="Jachtowa"/>
  </way>
  <way id="39344269" version="3" timestamp="2011-03-24T09:21:00Z" uid="338611" user="marek kleciak" changeset="7653993"/>
  <way id="39344272" version="2" timestamp="2009-09-27T14:06:05Z" uid="66036" user="h4v" changeset="2653154">
    <nd ref="471347928"/>
    <nd ref="510605584"/>
    <nd ref="510605585"/>
    <nd ref="471347911"/>
    <nd ref="471347934"/>
    <nd ref="471347936"/>
    <tag k="highway" v="residential"/>
    <tag k="name" v="Sympatyczna"/>
  </way>
  <way id="39344272" version="3" timestamp="2011-03-13T21:34:17Z" uid="338611" user="marek kleciak" changeset="7550769">
    <nd ref="471347928"/>
    <nd ref="1200821440"/>
    <nd ref="1200821811"/>
    <nd ref="510605585"/>
    <nd ref="471347911"/>
    <nd ref="471347934"/>
    <nd ref="471347936"/>
    <tag k="highway" v="residential"/>
    <tag k="name" v="Sympatyczna"/>
  </way>
  <way id="39344272" version="4" timestamp="2011-03-17T12:45:48Z" uid="338611" user="marek kleciak" changeset="7584910">
    <nd ref="471347928"/>
    <nd ref="1200821440"/>
    <nd ref="1200821811"/>
    <nd ref="510605585"/>
    <nd ref="1205617407"/>
    <nd ref="471347911"/>
    <nd ref="471347934"/>
    <nd ref="471347936"/>
    <tag k="highway" v="residential"/>
    <tag k="name" v="Sympatyczna"/>
  </way>
  <way id="39344272" version="5" timestamp="2011-12-09T12:28:00Z" uid="338611" user="marek kleciak" changeset="10072624">
    <nd ref="471347928"/>
    <nd ref="1200821440"/>
    <nd ref="1200821811"/>
    <nd ref="510605585"/>
    <nd ref="1205617407"/>
    <nd ref="471347911"/>
    <nd ref="471347934"/>
    <nd ref="1538074242"/>
    <nd ref="1538074322"/>
    <nd ref="471347936"/>
    <tag k="highway" v="residential"/>
    <tag k="name" v="Sympatyczna"/>
  </way>
  <way id="39344275" version="2" timestamp="2009-09-27T14:06:06Z" uid="66036" user="h4v" changeset="2653154">
    <nd ref="471347987"/>
    <nd ref="469709797"/>
    <tag k="highway" v="residential"/>
    <tag k="name" v="Batalionów Chłopskich"/>
  </way>
  <way id="39344275" version="3" timestamp="2010-02-17T19:12:06Z" uid="233637" user="marioosz" changeset="3903393">
    <nd ref="471347987"/>
    <nd ref="643614543"/>
    <nd ref="469709797"/>
    <tag k="highway" v="residential"/>
    <tag k="name" v="Batalionów Chłopskich"/>
  </way>
  <way id="39344275" version="4" timestamp="2011-12-09T12:27:59Z" uid="338611" user="marek kleciak" changeset="10072624">
    <nd ref="471347987"/>
    <nd ref="1538074283"/>
    <nd ref="643614543"/>
    <nd ref="469709797"/>
    <tag k="highway" v="residential"/>
    <tag k="name" v="Batalionów Chłopskich"/>
  </way>
  <way id="39344276" version="2" timestamp="2009-09-27T14:06:05Z" uid="66036" user="h4v" changeset="2653154">
    <nd ref="471348014"/>
    <nd ref="471348024"/>
    <nd ref="471348046"/>
    <nd ref="471348052"/>
    <tag k="highway" v="residential"/>
    <tag k="name" v="Tomaszewicza"/>
  </way>
  <way id="39344276" version="3" timestamp="2011-12-05T13:56:12Z" uid="338611" user="marek kleciak" changeset="10042105">
    <nd ref="471348014"/>
    <nd ref="1532750206"/>
    <nd ref="471348024"/>
    <nd ref="1532750204"/>
    <nd ref="471348046"/>
    <nd ref="471348052"/>
    <tag k="highway" v="residential"/>
    <tag k="name" v="Tomaszewicza"/>
  </way>
  <way id="39344276" version="4" timestamp="2011-12-05T14:33:49Z" uid="338611" user="marek kleciak" changeset="10042105">
    <nd ref="471348014"/>
    <nd ref="1532750206"/>
    <nd ref="1532780881"/>
    <nd ref="471348024"/>
    <nd ref="1532780904"/>
    <nd ref="1532780908"/>
    <nd ref="1532750204"/>
    <nd ref="471348046"/>
    <nd ref="471348052"/>
    <tag k="highway" v="residential"/>
    <tag k="name" v="Tomaszewicza"/>
  </way>
  <way id="39344276" version="5" timestamp="2011-12-20T09:30:33Z" uid="338611" user="marek kleciak" changeset="10161902">
    <nd ref="471348014"/>
    <nd ref="1532750206"/>
    <nd ref="1532780881"/>
    <nd ref="471348024"/>
    <nd ref="1532780904"/>
    <nd ref="1532780908"/>
    <nd ref="1555341936"/>
    <nd ref="1555341910"/>
    <nd ref="1532750204"/>
    <nd ref="471348046"/>
    <nd ref="471348052"/>
    <tag k="highway" v="residential"/>
    <tag k="name" v="Tomaszewicza"/>
  </way>
  <way id="39344276" version="6" timestamp="2012-02-09T20:44:29Z" uid="601791" user="AdamLuk" changeset="10638029">
    <nd ref="471348014"/>
    <nd ref="1532750206"/>
    <nd ref="1532780881"/>
    <nd ref="471348024"/>
    <nd ref="1532780904"/>
    <nd ref="1625841322"/>
    <nd ref="1532780908"/>
    <nd ref="1555341936"/>
    <nd ref="1555341910"/>
    <nd ref="1532750204"/>
    <nd ref="471348046"/>
    <nd ref="471348052"/>
    <tag k="highway" v="residential"/>
    <tag k="name" v="Tomaszewicza"/>
  </way>
  <way id="39344279" version="2" timestamp="2009-09-27T14:06:06Z" uid="66036" user="h4v" changeset="2653154">
    <nd ref="471348145"/>
    <nd ref="471348151"/>
    <nd ref="334367355"/>
    <tag k="highway" v="residential"/>
    <tag k="name" v="Hubala"/>
  </way>
  <way id="39344279" version="4" timestamp="2010-06-14T23:56:51Z" uid="66036" user="h4v" changeset="4992553">
    <nd ref="471348145"/>
    <nd ref="773012694"/>
    <nd ref="512132248"/>
    <nd ref="471348151"/>
    <nd ref="334367355"/>
    <tag k="highway" v="residential"/>
    <tag k="name" v="Hubala"/>
  </way>
  <way id="39344279" version="5" timestamp="2011-03-24T09:20:58Z" uid="338611" user="marek kleciak" changeset="7653993">
    <nd ref="471348145"/>
    <nd ref="773012694"/>
    <nd ref="512132248"/>
    <nd ref="334367355"/>
    <tag k="highway" v="residential"/>
    <tag k="name" v="Hubala"/>
  </way>
  <way id="39344281" version="2" timestamp="2009-09-27T14:06:03Z" uid="66036" user="h4v" changeset="2653154">
    <nd ref="471348178"/>
    <nd ref="510605581"/>
    <nd ref="510605583"/>
    <nd ref="471348181"/>
    <nd ref="471347907"/>
    <nd ref="469709798"/>
    <tag k="highway" v="residential"/>
    <tag k="name" v="Zagrodniki"/>
  </way>
  <way id="39344281" version="3" timestamp="2011-03-13T21:34:18Z" uid="338611" user="marek kleciak" changeset="7550769">
    <nd ref="471348178"/>
    <nd ref="1200821709"/>
    <nd ref="510605581"/>
    <nd ref="1200821484"/>
    <nd ref="471348181"/>
    <nd ref="471347907"/>
    <nd ref="469709798"/>
    <tag k="highway" v="residential"/>
    <tag k="name" v="Zagrodniki"/>
  </way>
  <way id="39344281" version="4" timestamp="2011-05-31T11:10:55Z" uid="66036" user="h4v" changeset="8300462">
    <nd ref="471348178"/>
    <nd ref="1200821709"/>
    <nd ref="510605581"/>
    <nd ref="1200821484"/>
    <nd ref="1306625227"/>
    <nd ref="471348181"/>
    <nd ref="471347907"/>
    <nd ref="469709798"/>
    <tag k="highway" v="residential"/>
    <tag k="name" v="Zagrodniki"/>
  </way>
  <way id="39344281" version="5" timestamp="2011-12-09T12:28:00Z" uid="338611" user="marek kleciak" changeset="10072624">
    <nd ref="471348178"/>
    <nd ref="1200821709"/>
    <nd ref="510605581"/>
    <nd ref="1200821484"/>
    <nd ref="1306625227"/>
    <nd ref="471348181"/>
    <nd ref="471347907"/>
    <nd ref="1538074294"/>
    <nd ref="1538074164"/>
    <nd ref="469709798"/>
    <tag k="highway" v="residential"/>
    <tag k="name" v="Zagrodniki"/>
  </way>
  <way id="39344306" version="2" timestamp="2009-12-25T12:31:27Z" uid="58091" user="Andreas M" changeset="3447762"/>
  <way id="39344406" version="2" timestamp="2010-12-12T16:33:48Z" uid="6269" user="Mueck" changeset="6638258">
    <nd ref="471352268"/>
    <nd ref="310673442"/>
    <nd ref="471352270"/>
    <nd ref="471352272"/>
    <nd ref="471352274"/>
    <nd ref="471352276"/>
    <nd ref="471352279"/>
    <nd ref="471352281"/>
    <nd ref="471352283"/>
    <nd ref="471352285"/>
    <nd ref="471352287"/>
    <nd ref="471352288"/>
    <nd ref="471352291"/>
    <nd ref="471352294"/>
    <nd ref="1035914666"/>
    <nd ref="471352296"/>
    <nd ref="471352297"/>
    <nd ref="471352299"/>
    <nd ref="310672686"/>
    <nd ref="471352301"/>
    <nd ref="310672513"/>
    <nd ref="471352303"/>
    <nd ref="310671690"/>
    <nd ref="471352307"/>
    <nd ref="310671704"/>
    <nd ref="471352268"/>
    <tag k="landuse" v="residential"/>
  </way>
  <way id="39344406" version="3" timestamp="2011-04-13T19:46:11Z" uid="114813" user="Chrisuu" changeset="7855204"/>
  <way id="39344831" version="1" timestamp="2009-08-20T09:18:58Z" uid="99207" user="Lar Kiesel" changeset="2209685">
    <nd ref="395048483"/>
    <nd ref="395048482"/>
    <nd ref="395048481"/>
    <nd ref="395048491"/>
    <nd ref="395048480"/>
    <nd ref="395048479"/>
    <nd ref="395048478"/>
    <nd ref="395048477"/>
    <nd ref="395048476"/>
    <tag k="highway" v="motorway_link"/>
    <tag k="oneway" v="yes"/>
  </way>
  <way id="39344867" version="1" timestamp="2009-08-20T09:19:37Z" uid="36809" user="pfoten_weg_!_" changeset="2209903">
    <nd ref="60958770"/>
    <nd ref="471108389"/>
    <tag k="highway" v="secondary"/>
    <tag k="layer" v="-1"/>
    <tag k="ref" v="Sp65"/>
    <tag k="tunnel" v="yes"/>
  </way>
  <way id="39344867" version="2" timestamp="2009-08-20T22:50:29Z" uid="36809" user="pfoten_weg_!_" changeset="2217877">
    <nd ref="60958770"/>
    <nd ref="471716523"/>
    <nd ref="471108389"/>
    <nd ref="471356156"/>
    <tag k="highway" v="secondary"/>
    <tag k="layer" v="-1"/>
    <tag k="ref" v="Sp65"/>
    <tag k="tunnel" v="yes"/>
  </way>
  <way id="39344867" version="3" timestamp="2009-08-25T23:13:14Z" uid="36809" user="pfoten_weg_!_" changeset="2262568">
    <nd ref="60958770"/>
    <nd ref="471716523"/>
    <nd ref="471108389"/>
    <nd ref="471356156"/>
    <tag k="discovered_by" v="RambaZamba"/>
    <tag k="highway" v="secondary"/>
    <tag k="layer" v="-1"/>
    <tag k="name" v="Località Novale Presule"/>
    <tag k="ref" v="Sp65"/>
    <tag k="source" v="survey"/>
    <tag k="tunnel" v="yes"/>
  </way>
  <way id="39344867" version="4" timestamp="2009-08-30T09:41:18Z" uid="156995" user="HampelZamba" changeset="2310659">
    <nd ref="60958770"/>
    <nd ref="471716523"/>
    <nd ref="471108389"/>
    <nd ref="471356156"/>
    <tag k="highway" v="secondary"/>
    <tag k="layer" v="-1"/>
    <tag k="name" v="Località Novale Presule"/>
    <tag k="ref" v="Sp65"/>
    <tag k="source" v="survey"/>
    <tag k="tunnel" v="yes"/>
  </way>
  <way id="39344867" version="5" timestamp="2009-08-30T10:02:05Z" uid="36809" user="pfoten_weg_!_" changeset="2311149">
    <nd ref="60958770"/>
    <nd ref="471716523"/>
    <nd ref="471108389"/>
    <nd ref="471356156"/>
    <tag k="discovered_by" v="RambaZamba"/>
    <tag k="highway" v="secondary"/>
    <tag k="layer" v="-1"/>
    <tag k="name" v="Località Novale Presule"/>
    <tag k="ref" v="Sp65"/>
    <tag k="source" v="survey"/>
    <tag k="tunnel" v="yes"/>
  </way>
  <way id="39344867" version="6" timestamp="2009-08-30T10:07:23Z" uid="156995" user="HampelZamba" changeset="2311254">
    <nd ref="60958770"/>
    <nd ref="471716523"/>
    <nd ref="471108389"/>
    <nd ref="471356156"/>
    <tag k="highway" v="secondary"/>
    <tag k="layer" v="-1"/>
    <tag k="name" v="Località Novale Presule"/>
    <tag k="ref" v="Sp65"/>
    <tag k="source" v="survey"/>
    <tag k="tunnel" v="yes"/>
  </way>
  <way id="39344867" version="7" timestamp="2009-08-30T10:21:51Z" uid="36809" user="pfoten_weg_!_" changeset="2311385">
    <nd ref="60958770"/>
    <nd ref="471716523"/>
    <nd ref="471108389"/>
    <nd ref="471356156"/>
    <tag k="highway" v="secondary"/>
    <tag k="layer" v="-1"/>
    <tag k="name" v="Località Novale Presule"/>
    <tag k="ref" v="Sp65"/>
    <tag k="source" v="survey by RambaZamba"/>
    <tag k="tunnel" v="yes"/>
  </way>
  <way id="39344867" version="8" timestamp="2009-08-30T10:25:13Z" uid="156995" user="HampelZamba" changeset="2311254">
    <nd ref="60958770"/>
    <nd ref="471716523"/>
    <nd ref="471108389"/>
    <nd ref="471356156"/>
    <tag k="highway" v="secondary"/>
    <tag k="layer" v="-1"/>
    <tag k="name" v="Località Novale Presule"/>
    <tag k="ref" v="Sp65"/>
    <tag k="source" v="survey"/>
    <tag k="tunnel" v="yes"/>
  </way>
  <way id="39344867" version="9" timestamp="2009-08-30T10:39:29Z" uid="36809" user="pfoten_weg_!_" changeset="2311615">
    <nd ref="60958770"/>
    <nd ref="471716523"/>
    <nd ref="471108389"/>
    <nd ref="471356156"/>
    <tag k="highway" v="secondary"/>
    <tag k="layer" v="-1"/>
    <tag k="name" v="Località Novale Presule"/>
    <tag k="ref" v="Sp65"/>
    <tag k="source" v="survey"/>
    <tag k="tunnel" v="yes"/>
  </way>
  <way id="39344867" version="10" timestamp="2009-09-25T14:18:46Z" uid="36809" user="pfoten_weg_!_" changeset="2620359">
    <nd ref="60958770"/>
    <nd ref="507118483"/>
    <nd ref="471716523"/>
    <nd ref="471108389"/>
    <nd ref="507118486"/>
    <nd ref="471356156"/>
    <tag k="highway" v="secondary"/>
    <tag k="layer" v="-1"/>
    <tag k="name" v="Località Novale Presule"/>
    <tag k="ref" v="Sp65"/>
    <tag k="source" v="survey"/>
    <tag k="tunnel" v="yes"/>
  </way>
  <way id="39344867" version="11" timestamp="2009-09-25T18:21:43Z" uid="36809" user="pfoten_weg_!_" changeset="2624961">
    <nd ref="60958770"/>
    <nd ref="507118483"/>
    <nd ref="471716523"/>
    <nd ref="471108389"/>
    <nd ref="507118486"/>
    <nd ref="471356156"/>
    <tag k="highway" v="secondary"/>
    <tag k="layer" v="-1"/>
    <tag k="name" v="Località Novale Presule"/>
    <tag k="ref" v="Sp65"/>
    <tag k="ref:de" v="LS65"/>
    <tag k="source" v="survey"/>
    <tag k="tunnel" v="yes"/>
  </way>
  <way id="39344867" version="12" timestamp="2009-09-30T10:59:44Z" uid="36809" user="pfoten_weg_!_" changeset="2686844">
    <nd ref="60958770"/>
    <nd ref="507118483"/>
    <nd ref="471716523"/>
    <nd ref="471108389"/>
    <nd ref="507118486"/>
    <nd ref="471356156"/>
    <tag k="highway" v="secondary"/>
    <tag k="layer" v="-1"/>
    <tag k="name" v="Località Novale Presule"/>
    <tag k="ref" v="Sp65"/>
    <tag k="ref:de" v="LS65"/>
    <tag k="tunnel" v="yes"/>
  </way>
  <way id="39344867" version="13" timestamp="2009-09-30T11:07:32Z" uid="36809" user="pfoten_weg_!_" changeset="2686844">
    <nd ref="60958770"/>
    <nd ref="507118483"/>
    <nd ref="471716523"/>
    <nd ref="471108389"/>
    <nd ref="507118486"/>
    <nd ref="471356156"/>
    <tag k="highway" v="secondary"/>
    <tag k="layer" v="-1"/>
    <tag k="name" v="Località Novale Presule"/>
    <tag k="ref" v="Sp65"/>
    <tag k="ref:de" v="LS65"/>
    <tag k="tunnel" v="yes"/>
  </way>
  <way id="39344867" version="14" timestamp="2010-06-12T16:17:20Z" uid="7596" user="ck3d" changeset="4971698">
    <nd ref="60958770"/>
    <nd ref="507118483"/>
    <nd ref="471716523"/>
    <nd ref="471108389"/>
    <nd ref="507118486"/>
    <nd ref="471356156"/>
    <tag k="highway" v="secondary"/>
    <tag k="layer" v="-1"/>
    <tag k="name" v="Località Novale Presule"/>
    <tag k="ref" v="SP65"/>
    <tag k="tunnel" v="yes"/>
  </way>
  <way id="39344868" version="1" timestamp="2009-08-20T09:19:38Z" uid="36809" user="pfoten_weg_!_" changeset="2209903">
    <nd ref="471108389"/>
    <nd ref="471356156"/>
    <nd ref="471356153"/>
    <nd ref="60958773"/>
    <nd ref="471108395"/>
    <nd ref="471356154"/>
    <nd ref="60958776"/>
    <nd ref="471108402"/>
    <nd ref="471356155"/>
    <nd ref="60958778"/>
    <nd ref="60958781"/>
    <nd ref="471108410"/>
    <nd ref="60958784"/>
    <nd ref="60958787"/>
    <nd ref="471108423"/>
    <nd ref="60958790"/>
    <nd ref="60958793"/>
    <nd ref="471108429"/>
    <nd ref="471108432"/>
    <nd ref="471108435"/>
    <nd ref="60958796"/>
    <nd ref="60958799"/>
    <nd ref="471108445"/>
    <nd ref="60958801"/>
    <nd ref="60958804"/>
    <nd ref="471108456"/>
    <nd ref="60958808"/>
    <nd ref="60958811"/>
    <nd ref="60958814"/>
    <nd ref="471108473"/>
    <nd ref="60958817"/>
    <nd ref="471108478"/>
    <nd ref="60958822"/>
    <nd ref="471108491"/>
    <nd ref="60958825"/>
    <nd ref="470158981"/>
    <nd ref="470105416"/>
    <nd ref="470097735"/>
    <nd ref="364064254"/>
    <nd ref="470091709"/>
    <nd ref="60958831"/>
    <nd ref="470091714"/>
    <nd ref="60958833"/>
    <nd ref="470105405"/>
    <nd ref="60958835"/>
    <nd ref="60958837"/>
    <nd ref="470105432"/>
    <nd ref="470105439"/>
    <nd ref="60958839"/>
    <nd ref="470105446"/>
    <nd ref="60958841"/>
    <nd ref="60958843"/>
    <nd ref="471108550"/>
    <nd ref="471108563"/>
    <nd ref="60958847"/>
    <nd ref="60958849"/>
    <nd ref="60958852"/>
    <nd ref="60958854"/>
    <nd ref="60958856"/>
    <nd ref="60958858"/>
    <nd ref="60958860"/>
    <nd ref="60958862"/>
    <nd ref="470105458"/>
    <nd ref="60958864"/>
    <nd ref="470105474"/>
    <nd ref="262982541"/>
    <nd ref="60958867"/>
    <nd ref="60958870"/>
    <nd ref="60958871"/>
    <nd ref="470105488"/>
    <nd ref="60958873"/>
    <nd ref="60958876"/>
    <nd ref="60958877"/>
    <nd ref="470105502"/>
    <nd ref="361445079"/>
    <nd ref="60958879"/>
    <nd ref="60958881"/>
    <nd ref="470105548"/>
    <nd ref="60958883"/>
    <nd ref="470105549"/>
    <nd ref="60958885"/>
    <nd ref="470105550"/>
    <nd ref="60958887"/>
    <nd ref="470105551"/>
    <nd ref="60958889"/>
    <nd ref="429663771"/>
    <nd ref="470105552"/>
    <nd ref="60958891"/>
    <nd ref="429663772"/>
    <nd ref="60958893"/>
    <nd ref="429663773"/>
    <nd ref="60958896"/>
    <nd ref="429663774"/>
    <nd ref="60958898"/>
    <nd ref="60958900"/>
    <nd ref="429663775"/>
    <nd ref="60958902"/>
    <nd ref="429663776"/>
    <nd ref="60958904"/>
    <nd ref="60958906"/>
    <nd ref="429663777"/>
    <nd ref="60958908"/>
    <nd ref="429663778"/>
    <nd ref="429663779"/>
    <nd ref="60958913"/>
    <nd ref="429663780"/>
    <nd ref="60958918"/>
    <nd ref="60958920"/>
    <nd ref="429663781"/>
    <nd ref="60958922"/>
    <nd ref="60958924"/>
    <nd ref="429663782"/>
    <nd ref="60958926"/>
    <nd ref="429663783"/>
    <tag k="highway" v="secondary"/>
    <tag k="ref" v="Sp65"/>
  </way>
  <way id="39344868" version="2" timestamp="2009-08-20T22:50:30Z" uid="36809" user="pfoten_weg_!_" changeset="2217877"/>
  <way id="39344905" version="1" timestamp="2009-08-20T09:22:37Z" uid="99207" user="Lar Kiesel" changeset="2209685">
    <nd ref="113971034"/>
    <nd ref="113971033"/>
    <nd ref="113971031"/>
    <nd ref="113971030"/>
    <nd ref="113971028"/>
    <nd ref="113971026"/>
    <nd ref="113971024"/>
    <nd ref="415685782"/>
    <tag k="highway" v="motorway_link"/>
    <tag k="oneway" v="yes"/>
    <tag k="tiger:cfcc" v="A63"/>
    <tag k="tiger:county" v="Richland, SC"/>
    <tag k="tiger:reviewed" v="no"/>
    <tag k="tiger:source" v="tiger_import_dch_v0.6_20070829"/>
    <tag k="tiger:tlid" v="71827022:71827027"/>
    <tag k="tiger:upload_uuid" v="bulk_upload.pl-0250b25a-3ed9-45b1-b84e-45e4a188563e"/>
  </way>
  <way id="39344905" version="2" timestamp="2009-10-12T18:48:43Z" uid="99207" user="Lar Kiesel" changeset="2829459">
    <nd ref="113971034"/>
    <nd ref="113971033"/>
    <nd ref="113971031"/>
    <nd ref="113971030"/>
    <nd ref="113971028"/>
    <nd ref="529652359"/>
    <nd ref="113971026"/>
    <nd ref="113971024"/>
    <nd ref="415685782"/>
    <tag k="highway" v="motorway_link"/>
    <tag k="oneway" v="yes"/>
    <tag k="tiger:cfcc" v="A63"/>
    <tag k="tiger:county" v="Richland, SC"/>
    <tag k="tiger:reviewed" v="no"/>
    <tag k="tiger:source" v="tiger_import_dch_v0.6_20070829"/>
    <tag k="tiger:tlid" v="71827022:71827027"/>
    <tag k="tiger:upload_uuid" v="bulk_upload.pl-0250b25a-3ed9-45b1-b84e-45e4a188563e"/>
  </way>
  <way id="39344911" version="2" timestamp="2011-01-04T22:38:22Z" uid="6269" user="Mueck" changeset="6866319">
    <nd ref="20974186"/>
    <nd ref="1082912968"/>
    <nd ref="21722985"/>
    <nd ref="1082912957"/>
    <nd ref="179670691"/>
    <nd ref="21722986"/>
    <nd ref="1082912969"/>
    <nd ref="21720211"/>
    <nd ref="21720210"/>
    <tag k="highway" v="residential"/>
    <tag k="mapping_status" v="incomplete"/>
    <tag k="name" v="Entenmoorweg"/>
  </way>
  <way id="39344912" version="2" timestamp="2011-01-04T21:47:36Z" uid="6269" user="Mueck" changeset="6866319">
    <nd ref="252248336"/>
    <nd ref="1082865430"/>
    <nd ref="468400176"/>
    <tag k="highway" v="residential"/>
    <tag k="maxspeed" v="30"/>
    <tag k="name" v="Krahnshörenweg"/>
    <tag k="surface" v="paved"/>
  </way>
  <way id="39344912" version="3" timestamp="2011-04-09T07:47:55Z" uid="114813" user="Chrisuu" changeset="7810412">
    <nd ref="252248336"/>
    <nd ref="1238209139"/>
    <nd ref="1082865430"/>
    <nd ref="468400176"/>
    <tag k="highway" v="residential"/>
    <tag k="maxspeed" v="30"/>
    <tag k="name" v="Krahnshörenweg"/>
    <tag k="surface" v="paved"/>
  </way>
  <way id="39344912" version="4" timestamp="2012-03-23T15:11:39Z" uid="45882" user="smarties" changeset="11074854">
    <nd ref="252248336"/>
    <nd ref="1238209139"/>
    <nd ref="1082865430"/>
    <nd ref="1687324784"/>
    <tag k="highway" v="residential"/>
    <tag k="maxspeed" v="30"/>
    <tag k="name" v="Krahnshörenweg"/>
    <tag k="surface" v="paved"/>
  </way>
  <way id="39344930" version="2" timestamp="2011-03-09T20:44:09Z" uid="66036" user="h4v" changeset="7508397">
    <nd ref="471358754"/>
    <nd ref="1194553128"/>
    <nd ref="471358755"/>
    <tag k="highway" v="residential"/>
    <tag k="name" v="Koniczynowa"/>
  </way>
  <way id="39344931" version="2" timestamp="2011-03-09T20:44:13Z" uid="66036" user="h4v" changeset="7508397">
    <nd ref="471358756"/>
    <nd ref="1194553043"/>
    <nd ref="1194553128"/>
    <nd ref="30093017"/>
    <tag k="highway" v="residential"/>
    <tag k="name" v="Turzycowa"/>
  </way>
  <way id="39344931" version="3" timestamp="2011-12-09T19:57:30Z" uid="338611" user="marek kleciak" changeset="10075690">
    <nd ref="471358756"/>
    <nd ref="1194553043"/>
    <nd ref="1194553128"/>
    <nd ref="302241540"/>
    <tag k="highway" v="residential"/>
    <tag k="name" v="Turzycowa"/>
  </way>
  <way id="39344933" version="2" timestamp="2011-05-02T22:13:31Z" uid="66036" user="h4v" changeset="8035274">
    <nd ref="471358759"/>
    <nd ref="471358760"/>
    <nd ref="401354254"/>
    <tag k="fixme" v="check"/>
    <tag k="highway" v="residential"/>
    <tag k="name" v="Prawa"/>
  </way>
  <way id="39344935" version="3" timestamp="2011-03-25T16:38:35Z" uid="66036" user="h4v" changeset="7667109">
    <nd ref="1217707996"/>
    <nd ref="471358762"/>
    <nd ref="471358763"/>
    <nd ref="491002764"/>
    <tag k="highway" v="residential"/>
    <tag k="name" v="Rajska"/>
  </way>
  <way id="39344936" version="7" timestamp="2011-05-02T22:13:34Z" uid="66036" user="h4v" changeset="8035274">
    <nd ref="482695076"/>
    <nd ref="1189186271"/>
    <nd ref="1189186308"/>
    <nd ref="1189186290"/>
    <nd ref="1189186270"/>
    <nd ref="1189186310"/>
    <nd ref="1189055665"/>
    <nd ref="482695074"/>
    <tag k="highway" v="residential"/>
    <tag k="name" v="Macierzanki"/>
  </way>
  <way id="39344936" version="8" timestamp="2011-05-30T00:33:02Z" uid="66036" user="h4v" changeset="8287490">
    <nd ref="482695076"/>
    <nd ref="1189186271"/>
    <nd ref="1189186290"/>
    <nd ref="1189055359"/>
    <nd ref="1189186270"/>
    <nd ref="1189186310"/>
    <nd ref="1188857613"/>
    <nd ref="1189055665"/>
    <nd ref="482695074"/>
    <tag k="highway" v="residential"/>
    <tag k="name" v="Macierzanki"/>
  </way>
  <way id="39344272" version="6" timestamp="2012-07-05T09:35:58Z" uid="717069" user="Ventlan" changeset="12118433"/>
  <way id="39344275" version="5" timestamp="2012-07-24T15:13:35Z" uid="722137" user="OSMF Redaction Account" changeset="12468839">
    <nd ref="471347987"/>
    <nd ref="1538074283"/>
    <nd ref="469709797"/>
    <tag k="highway" v="residential"/>
    <tag k="name" v="Batalionów Chłopskich"/>
  </way>
  <way id="39344276" version="7" timestamp="2012-05-05T10:31:36Z" uid="203436" user="rewelator" changeset="11506210">
    <nd ref="471348014"/>
    <nd ref="1532750206"/>
    <nd ref="1532780881"/>
    <nd ref="471348024"/>
    <nd ref="1532780904"/>
    <nd ref="1625841322"/>
    <nd ref="1532780908"/>
    <nd ref="1555341936"/>
    <nd ref="1741241461"/>
    <nd ref="1741241462"/>
    <nd ref="1555341910"/>
    <nd ref="1532750204"/>
    <nd ref="471348046"/>
    <nd ref="471348052"/>
    <nd ref="1741241464"/>
    <tag k="highway" v="residential"/>
    <tag k="name" v="Tomaszewicza"/>
  </way>
  <way id="39344276" version="8" timestamp="2012-08-11T14:09:34Z" uid="707169" user="damndog" changeset="12691742">
    <nd ref="471348014"/>
    <nd ref="1532750206"/>
    <nd ref="1532780881"/>
    <nd ref="471348024"/>
    <nd ref="1532780904"/>
    <nd ref="1625841322"/>
    <nd ref="1532780908"/>
    <nd ref="1555341936"/>
    <tag k="highway" v="residential"/>
    <tag k="name" v="Wincentego Tomaszewicza"/>
  </way>
  <way id="39344279" version="6" timestamp="2012-07-24T15:13:50Z" uid="722137" user="OSMF Redaction Account" changeset="12468839">
    <nd ref="471348145"/>
    <nd ref="512132248"/>
    <nd ref="334367355"/>
    <tag k="highway" v="residential"/>
    <tag k="name" v="Hubala"/>
  </way>
  <way id="39344279" version="7" timestamp="2012-09-08T14:15:08Z" uid="707169" user="damndog" changeset="13034060">
    <nd ref="471348145"/>
    <nd ref="512132248"/>
    <nd ref="334367355"/>
    <tag k="highway" v="residential"/>
    <tag k="name" v="majora Hubala"/>
  </way>
  <way id="39344281" version="6" timestamp="2012-07-24T15:12:57Z" uid="722137" user="OSMF Redaction Account" changeset="12468839">
    <nd ref="471348178"/>
    <nd ref="1200821709"/>
    <nd ref="1200821484"/>
    <nd ref="471348181"/>
    <nd ref="471347907"/>
    <nd ref="1538074294"/>
    <nd ref="1538074164"/>
    <nd ref="469709798"/>
    <tag k="highway" v="residential"/>
    <tag k="name" v="Zagrodniki"/>
  </way>
  <way id="39344281" version="7" timestamp="2012-09-06T06:58:19Z" uid="446071" user="Piotr_MS" changeset="13005963">
    <nd ref="1849721826"/>
    <nd ref="1200821709"/>
    <nd ref="1200821484"/>
    <nd ref="471348181"/>
    <nd ref="471347907"/>
    <nd ref="1538074294"/>
    <nd ref="1538074164"/>
    <nd ref="469709798"/>
    <tag k="highway" v="residential"/>
    <tag k="name" v="Zagrodniki"/>
  </way>
  <way id="39344831" version="2" timestamp="2012-04-06T00:50:33Z" uid="169004" user="oldtopos" changeset="11196041"/>
  <way id="39344867" version="15" timestamp="2012-05-21T22:21:48Z" uid="596973" user="korinthenfresser" changeset="11666966"/>
  <way id="39344905" version="3" timestamp="2012-04-05T03:06:36Z" uid="169004" user="oldtopos" changeset="11184203"/>
  <way id="39344911" version="3" timestamp="2012-07-17T09:40:22Z" uid="722137" user="OSMF Redaction Account" changeset="12261995">
    <nd ref="20974186"/>
    <nd ref="21722985"/>
    <nd ref="179670691"/>
    <nd ref="21722986"/>
    <nd ref="21720211"/>
    <nd ref="21720210"/>
    <tag k="highway" v="residential"/>
    <tag k="mapping_status" v="incomplete"/>
    <tag k="name" v="Entenmoorweg"/>
  </way>
  <way id="39344912" version="5" timestamp="2012-07-17T09:40:14Z" uid="722137" user="OSMF Redaction Account" changeset="12261995">
    <nd ref="252248336"/>
    <nd ref="1238209139"/>
    <nd ref="1687324784"/>
    <tag k="highway" v="residential"/>
    <tag k="maxspeed" v="30"/>
    <tag k="name" v="Krahnshörenweg"/>
    <tag k="surface" v="paved"/>
  </way>
  <way id="39344930" version="3" timestamp="2012-07-24T14:11:37Z" uid="722137" user="OSMF Redaction Account" changeset="12467476">
    <nd ref="471358754"/>
    <nd ref="471358755"/>
    <tag k="highway" v="residential"/>
    <tag k="name" v="Koniczynowa"/>
  </way>
  <way id="39344931" version="4" timestamp="2012-07-24T14:11:37Z" uid="722137" user="OSMF Redaction Account" changeset="12467476">
    <nd ref="471358756"/>
    <nd ref="302241540"/>
    <tag k="highway" v="residential"/>
    <tag k="name" v="Turzycowa"/>
  </way>
  <way id="39344931" version="5" timestamp="2012-08-12T06:55:28Z" uid="203436" user="rewelator" changeset="12698120">
    <nd ref="471358756"/>
    <nd ref="1862611390"/>
    <nd ref="302241540"/>
    <tag k="highway" v="residential"/>
    <tag k="name" v="Turzycowa"/>
  </way>
  <way id="39344933" version="3" timestamp="2012-07-24T14:11:37Z" uid="722137" user="OSMF Redaction Account" changeset="12467476">
    <nd ref="471358759"/>
    <nd ref="471358760"/>
    <nd ref="401354254"/>
    <tag k="highway" v="residential"/>
    <tag k="name" v="Prawa"/>
  </way>
  <way id="39344933" version="4" timestamp="2012-08-06T19:58:28Z" uid="338611" user="marek kleciak" changeset="12637459">
    <nd ref="471358759"/>
    <nd ref="471358760"/>
    <nd ref="401354254"/>
    <nd ref="1854801132"/>
    <tag k="highway" v="residential"/>
    <tag k="name" v="Prawa"/>
  </way>
  <way id="39344935" version="4" timestamp="2012-07-06T18:24:10Z" uid="607553" user="Duke83" changeset="12133251">
    <nd ref="1217707996"/>
    <nd ref="471358762"/>
    <nd ref="471358763"/>
    <nd ref="491002764"/>
    <tag k="highway" v="track"/>
    <tag k="name" v="Rajska"/>
    <tag k="note:pl" v="trylinka"/>
    <tag k="tracktype" v="grade1"/>
  </way>
  <way id="39344935" version="5" timestamp="2012-07-24T14:09:00Z" uid="722137" user="OSMF Redaction Account" changeset="12467414">
    <nd ref="471358762"/>
    <nd ref="471358763"/>
    <nd ref="491002764"/>
    <tag k="highway" v="track"/>
    <tag k="name" v="Rajska"/>
    <tag k="note:pl" v="trylinka"/>
    <tag k="tracktype" v="grade1"/>
  </way>
  <way id="39344935" version="6" timestamp="2012-08-25T20:48:11Z" uid="203436" user="rewelator" changeset="12860118">
    <nd ref="1883088692"/>
    <nd ref="1883088669"/>
    <nd ref="1883088615"/>
    <nd ref="1883088613"/>
    <nd ref="1883088601"/>
    <nd ref="1883088594"/>
    <nd ref="471358762"/>
    <nd ref="471358763"/>
    <nd ref="1883088583"/>
    <nd ref="491002764"/>
    <tag k="concrete:plates" v="trylinka"/>
    <tag k="highway" v="residential"/>
    <tag k="name" v="Rajska"/>
    <tag k="note:pl" v="trylinka"/>
    <tag k="surface" v="concrete:plates"/>
  </way>
  <way id="39344935" version="7" timestamp="2012-08-25T22:11:02Z" uid="203436" user="rewelator" changeset="12860799">
    <nd ref="1883088692"/>
    <nd ref="1883088669"/>
    <nd ref="1883088615"/>
    <nd ref="1883088613"/>
    <nd ref="1883088601"/>
    <nd ref="1883088594"/>
    <nd ref="471358762"/>
    <nd ref="471358763"/>
    <nd ref="1883088583"/>
    <nd ref="1883185114"/>
    <nd ref="1883185100"/>
    <nd ref="1883185086"/>
    <nd ref="1883185061"/>
    <nd ref="491002764"/>
    <tag k="concrete:plates" v="trylinka"/>
    <tag k="goods" v="delivery"/>
    <tag k="highway" v="residential"/>
    <tag k="name" v="Rajska"/>
    <tag k="note:pl" v="trylinka"/>
    <tag k="surface" v="concrete:plates"/>
  </way>
  <way id="39344936" version="9" timestamp="2012-07-24T14:11:38Z" uid="722137" user="OSMF Redaction Account" changeset="12467476">
    <nd ref="482695076"/>
    <nd ref="1189186271"/>
    <nd ref="1189186290"/>
    <nd ref="1189186270"/>
    <nd ref="1189186310"/>
    <nd ref="482695074"/>
    <tag k="highway" v="residential"/>
    <tag k="name" v="Macierzanki"/>
  </way>
</osm>
