<?xml version='1.0' encoding='UTF-8'?>
<osm version="0.6" generator="libosmium/2.20.0">
  <way id="39413014" version="2" timestamp="2010-03-28T10:16:52Z" uid="20587" user="balrog-kun" changeset="4254597">
    <nd ref="86495084"/>
    <nd ref="86495086"/>
    <nd ref="86495088"/>
    <nd ref="86495090"/>
    <tag k="highway" v="residential"/>
    <tag k="name" v="Hobart Street"/>
    <tag k="tiger:cfcc" v="A41"/>
    <tag k="tiger:county" v="Butte, CA"/>
    <tag k="tiger:name_base" v="Hobart"/>
    <tag k="tiger:name_type" v="St"/>
    <tag k="tiger:reviewed" v="no"/>
    <tag k="tiger:separated" v="no"/>
    <tag k="tiger:source" v="tiger_import_dch_v0.6_20070809"/>
    <tag k="tiger:tlid" v="68426859:68426869:68426927:68426916"/>
    <tag k="tiger:zip_left" v="95926"/>
    <tag k="tiger:zip_right" v="95926"/>
  </way>
  <way id="39413735" version="3" timestamp="2009-09-15T20:16:13Z" uid="8931" user="bluepup" changeset="2496737">
    <nd ref="472210461"/>
    <nd ref="472210462"/>
    <nd ref="472210464"/>
    <nd ref="472210465"/>
    <nd ref="24959824"/>
    <tag k="highway" v="residential"/>
    <tag k="name" v="Am Solmerge"/>
  </way>
  <way id="39413735" version="4" timestamp="2010-05-25T20:05:16Z" uid="21756" user="Torfnase" changeset="4807546">
    <nd ref="748276807"/>
    <nd ref="748276670"/>
    <nd ref="748276716"/>
    <nd ref="748276859"/>
    <nd ref="748276709"/>
    <nd ref="748276782"/>
    <nd ref="748276758"/>
    <tag k="foot" v="designated"/>
    <tag k="highway" v="path"/>
  </way>
  <way id="39413735" version="5" timestamp="2010-06-03T18:32:37Z" uid="21756" user="Torfnase" changeset="4894953">
    <nd ref="748276807"/>
    <nd ref="748276670"/>
    <nd ref="748276716"/>
    <nd ref="748276859"/>
    <nd ref="748276709"/>
    <nd ref="763475241"/>
    <nd ref="748276782"/>
    <nd ref="748276758"/>
    <tag k="foot" v="designated"/>
    <tag k="highway" v="path"/>
  </way>
  <way id="39413828" version="3" timestamp="2010-03-26T01:26:34Z" uid="163746" user="anti_bot-nonsense" changeset="4234492">
    <nd ref="289771691"/>
    <nd ref="289771692"/>
    <nd ref="289771693"/>
    <nd ref="289771694"/>
    <nd ref="289771695"/>
    <nd ref="289771696"/>
    <nd ref="289771697"/>
    <nd ref="289771698"/>
    <nd ref="289771699"/>
    <nd ref="289771700"/>
    <nd ref="289771701"/>
    <nd ref="289773342"/>
    <nd ref="289771862"/>
    <nd ref="289771801"/>
    <nd ref="289771802"/>
    <nd ref="289771803"/>
    <nd ref="289771804"/>
    <nd ref="289771805"/>
    <nd ref="289771806"/>
    <nd ref="289771864"/>
    <nd ref="289771712"/>
    <tag k="cutting" v="yes"/>
    <tag k="highway" v="motorway_link"/>
    <tag k="oneway" v="yes"/>
  </way>
  <way id="39413828" version="4" timestamp="2011-02-20T11:45:59Z" uid="88909" user="miko101" changeset="7341234">
    <nd ref="289771691"/>
    <nd ref="289771692"/>
    <nd ref="289771693"/>
    <nd ref="289771694"/>
    <nd ref="289771695"/>
    <nd ref="289771696"/>
    <nd ref="289771697"/>
    <nd ref="289771698"/>
    <nd ref="289771699"/>
    <nd ref="289771700"/>
    <nd ref="289771701"/>
    <nd ref="289773342"/>
    <nd ref="289771862"/>
    <nd ref="289771801"/>
    <nd ref="289771802"/>
    <nd ref="289771803"/>
    <nd ref="289771804"/>
    <nd ref="289771805"/>
    <nd ref="289771806"/>
    <nd ref="289771864"/>
    <nd ref="289771712"/>
    <tag k="cutting" v="yes"/>
    <tag k="highway" v="motorway_link"/>
    <tag k="maxspeed" v="80"/>
    <tag k="name" v="[5] -&gt; [A2] Warszawa (E)"/>
    <tag k="oneway" v="yes"/>
  </way>
  <way id="39413828" version="5" timestamp="2012-01-26T20:04:22Z" uid="88909" user="miko101" changeset="10506648">
    <nd ref="289771691"/>
    <nd ref="1606845241"/>
    <nd ref="1606845358"/>
    <nd ref="1606845240"/>
    <nd ref="1606845244"/>
    <nd ref="1606845232"/>
    <nd ref="1606845361"/>
    <nd ref="1606845324"/>
    <nd ref="1606845472"/>
    <nd ref="1606845307"/>
    <nd ref="1606845334"/>
    <nd ref="1606845327"/>
    <nd ref="1606845344"/>
    <nd ref="1606845329"/>
    <nd ref="289771699"/>
    <nd ref="289771700"/>
    <nd ref="289771701"/>
    <nd ref="289773342"/>
    <nd ref="1606845428"/>
    <nd ref="1606845318"/>
    <nd ref="1606845473"/>
    <nd ref="1606845426"/>
    <nd ref="1606845224"/>
    <nd ref="1606845470"/>
    <nd ref="1606845233"/>
    <nd ref="1606845443"/>
    <nd ref="1606845510"/>
    <nd ref="1606845464"/>
    <nd ref="1606845236"/>
    <nd ref="1606845226"/>
    <nd ref="1606845496"/>
    <nd ref="1606845492"/>
    <nd ref="1606845486"/>
    <nd ref="1606845336"/>
    <nd ref="1606845321"/>
    <nd ref="1606845409"/>
    <tag k="cutting" v="yes"/>
    <tag k="highway" v="motorway_link"/>
    <tag k="maxspeed" v="80"/>
    <tag k="name" v="[5] -&gt; [A2] Warszawa (E)"/>
    <tag k="oneway" v="yes"/>
  </way>
  <way id="39413895" version="2" timestamp="2010-03-26T01:26:16Z" uid="163746" user="anti_bot-nonsense" changeset="4234492">
    <nd ref="27163228"/>
    <nd ref="264154934"/>
    <nd ref="27163231"/>
    <nd ref="272702541"/>
    <tag k="cutting" v="yes"/>
    <tag k="highway" v="motorway"/>
    <tag k="int_ref" v="E 30"/>
    <tag k="oneway" v="yes"/>
    <tag k="ref" v="A2"/>
    <tag k="toll" v="no"/>
  </way>
  <way id="39413895" version="3" timestamp="2011-12-20T17:57:04Z" uid="88909" user="miko101" changeset="10165513">
    <nd ref="27163228"/>
    <nd ref="264154934"/>
    <nd ref="27163231"/>
    <nd ref="272702541"/>
    <tag k="cutting" v="yes"/>
    <tag k="highway" v="motorway"/>
    <tag k="int_ref" v="E 30"/>
    <tag k="maxspeed" v="140"/>
    <tag k="name" v="Południowa Obwodnica Poznania"/>
    <tag k="oneway" v="yes"/>
    <tag k="ref" v="A2"/>
    <tag k="toll" v="no"/>
  </way>
  <way id="39413895" version="4" timestamp="2012-01-26T20:04:22Z" uid="88909" user="miko101" changeset="10506648">
    <nd ref="27163228"/>
    <nd ref="1606845493"/>
    <nd ref="264154934"/>
    <nd ref="27163231"/>
    <nd ref="272702541"/>
    <tag k="cutting" v="yes"/>
    <tag k="highway" v="motorway"/>
    <tag k="int_ref" v="E 30"/>
    <tag k="maxspeed" v="140"/>
    <tag k="name" v="Południowa Obwodnica Poznania"/>
    <tag k="oneway" v="yes"/>
    <tag k="ref" v="A2"/>
    <tag k="toll" v="no"/>
  </way>
  <way id="39413895" version="5" timestamp="2012-03-21T00:03:18Z" uid="631683" user="nbmx" changeset="11047288">
    <nd ref="27163228"/>
    <nd ref="1606845493"/>
    <nd ref="264154934"/>
    <nd ref="27163231"/>
    <nd ref="272702541"/>
    <tag k="bicycle" v="no"/>
    <tag k="cutting" v="yes"/>
    <tag k="cycleway" v="no"/>
    <tag k="foot" v="no"/>
    <tag k="highway" v="motorway"/>
    <tag k="int_ref" v="E 30"/>
    <tag k="lanes" v="2"/>
    <tag k="maxspeed" v="140"/>
    <tag k="name" v="Południowa Obwodnica Poznania"/>
    <tag k="oneway" v="yes"/>
    <tag k="ref" v="A2"/>
    <tag k="toll" v="no"/>
  </way>
  <way id="39413962" version="2" timestamp="2010-03-31T21:31:03Z" uid="163746" user="anti_bot-nonsense" changeset="4289355">
    <nd ref="146967328"/>
    <nd ref="148056450"/>
    <nd ref="29944071"/>
    <nd ref="29944072"/>
    <nd ref="29944074"/>
    <tag k="cutting" v="yes"/>
    <tag k="highway" v="motorway"/>
    <tag k="int_ref" v="E 30"/>
    <tag k="oneway" v="yes"/>
    <tag k="ref" v="A2"/>
  </way>
  <way id="39413962" version="3" timestamp="2011-12-20T17:57:07Z" uid="88909" user="miko101" changeset="10165513">
    <nd ref="146967328"/>
    <nd ref="148056450"/>
    <nd ref="29944071"/>
    <nd ref="29944072"/>
    <nd ref="29944074"/>
    <tag k="cutting" v="yes"/>
    <tag k="highway" v="motorway"/>
    <tag k="int_ref" v="E 30"/>
    <tag k="maxspeed" v="140"/>
    <tag k="name" v="Południowa Obwodnica Poznania"/>
    <tag k="oneway" v="yes"/>
    <tag k="ref" v="A2"/>
  </way>
  <way id="39413962" version="4" timestamp="2012-03-17T23:51:48Z" uid="631683" user="nbmx" changeset="11013899">
    <nd ref="146967328"/>
    <nd ref="148056450"/>
    <nd ref="29944071"/>
    <nd ref="29944072"/>
    <nd ref="29944074"/>
    <tag k="cutting" v="yes"/>
    <tag k="highway" v="motorway"/>
    <tag k="int_ref" v="E 30"/>
    <tag k="lanes" v="2"/>
    <tag k="maxspeed" v="140"/>
    <tag k="name" v="Południowa Obwodnica Poznania"/>
    <tag k="oneway" v="yes"/>
    <tag k="ref" v="A2"/>
  </way>
  <way id="39413962" version="5" timestamp="2012-03-21T00:03:19Z" uid="631683" user="nbmx" changeset="11047288">
    <nd ref="146967328"/>
    <nd ref="148056450"/>
    <nd ref="29944071"/>
    <nd ref="29944072"/>
    <nd ref="29944074"/>
    <tag k="bicycle" v="no"/>
    <tag k="cutting" v="yes"/>
    <tag k="cycleway" v="no"/>
    <tag k="foot" v="no"/>
    <tag k="highway" v="motorway"/>
    <tag k="int_ref" v="E 30"/>
    <tag k="lanes" v="2"/>
    <tag k="maxspeed" v="140"/>
    <tag k="name" v="Południowa Obwodnica Poznania"/>
    <tag k="oneway" v="yes"/>
    <tag k="ref" v="A2"/>
  </way>
  <way id="39413828" version="6" timestamp="2012-04-27T14:26:55Z" uid="88909" user="miko101" changeset="11433141">
    <nd ref="289771691"/>
    <nd ref="1606845241"/>
    <nd ref="1606845358"/>
    <nd ref="1606845240"/>
    <nd ref="1606845244"/>
    <nd ref="1606845232"/>
    <nd ref="1606845361"/>
    <nd ref="1606845324"/>
    <nd ref="1606845472"/>
    <nd ref="1606845307"/>
    <nd ref="1606845334"/>
    <nd ref="1606845327"/>
    <nd ref="1606845344"/>
    <nd ref="1606845329"/>
    <nd ref="289771699"/>
    <nd ref="289771700"/>
    <nd ref="289771701"/>
    <nd ref="289773342"/>
    <nd ref="1606845428"/>
    <nd ref="1606845318"/>
    <nd ref="1606845473"/>
    <nd ref="1606845426"/>
    <nd ref="1606845224"/>
    <nd ref="1606845470"/>
    <nd ref="1606845233"/>
    <nd ref="1606845443"/>
    <nd ref="1606845510"/>
    <nd ref="1606845464"/>
    <nd ref="1606845236"/>
    <nd ref="1606845226"/>
    <nd ref="1606845496"/>
    <nd ref="1606845492"/>
    <nd ref="1606845486"/>
    <nd ref="1606845336"/>
    <nd ref="1606845321"/>
    <nd ref="1606845409"/>
    <tag k="cutting" v="yes"/>
    <tag k="highway" v="motorway_link"/>
    <tag k="lit" v="yes"/>
    <tag k="maxspeed" v="80"/>
    <tag k="name" v="[5] -&gt; [A2] Warszawa"/>
    <tag k="oneway" v="yes"/>
  </way>
  <way id="39413828" version="7" timestamp="2012-06-04T14:57:18Z" uid="88909" user="miko101" changeset="11797462">
    <nd ref="289771691"/>
    <nd ref="1606845241"/>
    <nd ref="1606845358"/>
    <nd ref="1606845240"/>
    <nd ref="1606845244"/>
    <nd ref="1606845232"/>
    <nd ref="1606845361"/>
    <nd ref="1606845324"/>
    <nd ref="1606845472"/>
    <nd ref="1606845307"/>
    <nd ref="1606845334"/>
    <nd ref="1606845327"/>
    <nd ref="1606845344"/>
    <nd ref="1606845329"/>
    <nd ref="289771699"/>
    <nd ref="289771700"/>
    <nd ref="289771701"/>
    <nd ref="289773342"/>
    <nd ref="1606845428"/>
    <nd ref="1606845318"/>
    <nd ref="1606845473"/>
    <nd ref="1606845426"/>
    <nd ref="1606845224"/>
    <nd ref="1606845470"/>
    <nd ref="1606845233"/>
    <nd ref="1606845443"/>
    <nd ref="1606845510"/>
    <nd ref="1606845464"/>
    <nd ref="1606845236"/>
    <nd ref="1606845226"/>
    <nd ref="1606845496"/>
    <nd ref="1606845492"/>
    <nd ref="1606845486"/>
    <nd ref="1606845336"/>
    <nd ref="1606845321"/>
    <nd ref="1606845409"/>
    <tag k="cutting" v="yes"/>
    <tag k="highway" v="motorway_link"/>
    <tag k="lit" v="yes"/>
    <tag k="maxspeed" v="80"/>
    <tag k="name" v="-&gt; [A2] Warszawa, [5] Bydgoszcz"/>
    <tag k="oneway" v="yes"/>
    <tag k="ref" v="5"/>
  </way>
  <way id="39413828" version="8" timestamp="2012-06-04T16:03:29Z" uid="88909" user="miko101" changeset="11797939">
    <nd ref="289771691"/>
    <nd ref="1606845241"/>
    <nd ref="1606845358"/>
    <nd ref="1606845240"/>
    <nd ref="1606845244"/>
    <nd ref="1606845232"/>
    <nd ref="1606845361"/>
    <nd ref="1606845324"/>
    <nd ref="1606845472"/>
    <nd ref="1606845307"/>
    <nd ref="1606845334"/>
    <nd ref="1606845327"/>
    <nd ref="1606845344"/>
    <nd ref="1606845329"/>
    <nd ref="289771699"/>
    <nd ref="289771700"/>
    <nd ref="289771701"/>
    <nd ref="289773342"/>
    <nd ref="1606845428"/>
    <nd ref="1606845318"/>
    <nd ref="1606845473"/>
    <nd ref="1606845426"/>
    <nd ref="1606845224"/>
    <nd ref="1606845470"/>
    <nd ref="1606845233"/>
    <nd ref="1606845443"/>
    <nd ref="1606845510"/>
    <nd ref="1606845464"/>
    <nd ref="1606845236"/>
    <nd ref="1606845226"/>
    <nd ref="1606845496"/>
    <nd ref="1606845492"/>
    <nd ref="1606845486"/>
    <nd ref="1606845336"/>
    <nd ref="1606845321"/>
    <nd ref="1606845409"/>
    <tag k="cutting" v="yes"/>
    <tag k="highway" v="motorway_link"/>
    <tag k="int_ref" v="E 261"/>
    <tag k="lit" v="yes"/>
    <tag k="maxspeed" v="80"/>
    <tag k="name" v="-&gt; [A2] Warszawa, [5] Bydgoszcz"/>
    <tag k="oneway" v="yes"/>
    <tag k="ref" v="5"/>
  </way>
  <way id="39413895" version="6" timestamp="2012-04-27T14:27:14Z" uid="88909" user="miko101" changeset="11433141">
    <nd ref="27163228"/>
    <nd ref="1606845493"/>
    <nd ref="264154934"/>
    <nd ref="27163231"/>
    <nd ref="272702541"/>
    <tag k="bicycle" v="no"/>
    <tag k="cutting" v="yes"/>
    <tag k="cycleway" v="no"/>
    <tag k="foot" v="no"/>
    <tag k="highway" v="motorway"/>
    <tag k="int_ref" v="E 30"/>
    <tag k="lanes" v="2"/>
    <tag k="lit" v="yes"/>
    <tag k="maxspeed" v="140"/>
    <tag k="name" v="Południowa Obwodnica Poznania"/>
    <tag k="oneway" v="yes"/>
    <tag k="ref" v="A2"/>
    <tag k="toll" v="no"/>
  </way>
  <way id="39413895" version="7" timestamp="2012-06-03T20:35:10Z" uid="318486" user="tomaszko90" changeset="11790773">
    <nd ref="27163228"/>
    <nd ref="1606845493"/>
    <nd ref="264154934"/>
    <nd ref="27163231"/>
    <nd ref="272702541"/>
    <nd ref="1775370844"/>
    <nd ref="1606845399"/>
    <tag k="bicycle" v="no"/>
    <tag k="cutting" v="yes"/>
    <tag k="cycleway" v="no"/>
    <tag k="foot" v="no"/>
    <tag k="highway" v="motorway"/>
    <tag k="int_ref" v="E 30"/>
    <tag k="lanes" v="2"/>
    <tag k="lit" v="yes"/>
    <tag k="maxspeed" v="140"/>
    <tag k="name" v="Południowa Obwodnica Poznania"/>
    <tag k="oneway" v="yes"/>
    <tag k="ref" v="A2"/>
    <tag k="toll" v="no"/>
  </way>
  <way id="39413895" version="8" timestamp="2012-08-11T13:36:56Z" uid="113415" user="tomek-k" changeset="12691422">
    <nd ref="27163228"/>
    <nd ref="1606845493"/>
    <nd ref="264154934"/>
    <nd ref="27163231"/>
    <nd ref="272702541"/>
    <nd ref="1775370844"/>
    <nd ref="1606845399"/>
    <tag k="bicycle" v="no"/>
    <tag k="cutting" v="yes"/>
    <tag k="cycleway" v="no"/>
    <tag k="foot" v="no"/>
    <tag k="highway" v="motorway"/>
    <tag k="int_ref" v="E 30"/>
    <tag k="lanes" v="2"/>
    <tag k="lit" v="yes"/>
    <tag k="maxspeed" v="140"/>
    <tag k="name" v="Południowa Obwodnica Poznania"/>
    <tag k="oneway" v="yes"/>
    <tag k="ref" v="A2; S11"/>
    <tag k="toll" v="no"/>
  </way>
  <way id="39413962" version="6" timestamp="2012-04-27T14:27:03Z" uid="88909" user="miko101" changeset="11433141">
    <nd ref="146967328"/>
    <nd ref="148056450"/>
    <nd ref="29944071"/>
    <nd ref="29944072"/>
    <nd ref="29944074"/>
    <tag k="bicycle" v="no"/>
    <tag k="cutting" v="yes"/>
    <tag k="cycleway" v="no"/>
    <tag k="foot" v="no"/>
    <tag k="highway" v="motorway"/>
    <tag k="int_ref" v="E 30"/>
    <tag k="lanes" v="2"/>
    <tag k="lit" v="yes"/>
    <tag k="maxspeed" v="140"/>
    <tag k="name" v="Południowa Obwodnica Poznania"/>
    <tag k="oneway" v="yes"/>
    <tag k="ref" v="A2"/>
  </way>
  <way id="39413962" version="7" timestamp="2012-06-04T14:33:50Z" uid="318486" user="tomaszko90" changeset="11797192">
    <nd ref="146967328"/>
    <nd ref="148056450"/>
    <nd ref="29944071"/>
    <nd ref="29944072"/>
    <nd ref="29944074"/>
    <tag k="bicycle" v="no"/>
    <tag k="cutting" v="yes"/>
    <tag k="cycleway" v="no"/>
    <tag k="foot" v="no"/>
    <tag k="highway" v="motorway"/>
    <tag k="int_ref" v="E 30"/>
    <tag k="lanes" v="2"/>
    <tag k="lit" v="yes"/>
    <tag k="maxspeed" v="140"/>
    <tag k="name" v="Południowa Obwodnica Poznania"/>
    <tag k="oneway" v="yes"/>
    <tag k="ref" v="A2; 5"/>
  </way>
  <way id="39413962" version="8" timestamp="2012-06-04T16:03:25Z" uid="88909" user="miko101" changeset="11797939">
    <nd ref="146967328"/>
    <nd ref="148056450"/>
    <nd ref="29944071"/>
    <nd ref="29944072"/>
    <nd ref="29944074"/>
    <tag k="bicycle" v="no"/>
    <tag k="cutting" v="yes"/>
    <tag k="cycleway" v="no"/>
    <tag k="foot" v="no"/>
    <tag k="highway" v="motorway"/>
    <tag k="int_ref" v="E 30; E 261"/>
    <tag k="lanes" v="2"/>
    <tag k="lit" v="yes"/>
    <tag k="maxspeed" v="140"/>
    <tag k="name" v="Południowa Obwodnica Poznania"/>
    <tag k="oneway" v="yes"/>
    <tag k="ref" v="A2; 5"/>
  </way>
  <way id="39413962" version="9" timestamp="2012-08-11T13:36:57Z" uid="113415" user="tomek-k" changeset="12691422">
    <nd ref="146967328"/>
    <nd ref="148056450"/>
    <nd ref="29944071"/>
    <nd ref="29944072"/>
    <nd ref="29944074"/>
    <tag k="bicycle" v="no"/>
    <tag k="cutting" v="yes"/>
    <tag k="cycleway" v="no"/>
    <tag k="foot" v="no"/>
    <tag k="highway" v="motorway"/>
    <tag k="int_ref" v="E 30; E 261"/>
    <tag k="lanes" v="2"/>
    <tag k="lit" v="yes"/>
    <tag k="maxspeed" v="140"/>
    <tag k="name" v="Południowa Obwodnica Poznania"/>
    <tag k="oneway" v="yes"/>
    <tag k="ref" v="A2; 5; S11"/>
  </way>
  <way id="39413962" version="10" timestamp="2012-08-15T20:34:09Z" uid="88909" user="miko101" changeset="12743960">
    <nd ref="146967328"/>
    <nd ref="148056450"/>
    <nd ref="29944071"/>
    <nd ref="29944072"/>
    <nd ref="29944074"/>
    <tag k="bicycle" v="no"/>
    <tag k="cutting" v="no"/>
    <tag k="cycleway" v="no"/>
    <tag k="foot" v="no"/>
    <tag k="highway" v="motorway"/>
    <tag k="int_ref" v="E 30; E 261"/>
    <tag k="lanes" v="2"/>
    <tag k="lit" v="yes"/>
    <tag k="maxspeed" v="140"/>
    <tag k="name" v="Południowa Obwodnica Poznania"/>
    <tag k="oneway" v="yes"/>
    <tag k="ref" v="A2;5;S11"/>
  </way>
</osm>
