<?xml version='1.0' encoding='UTF-8'?>
<osm version="0.6" generator="libosmium/2.20.0">
  <way id="39634365" version="2" timestamp="2011-03-31T16:51:05Z" uid="23543" user="jkjk" changeset="7727674">
    <nd ref="475092272"/>
    <nd ref="475092276"/>
    <nd ref="475092277"/>
    <nd ref="475092280"/>
    <nd ref="475092284"/>
    <nd ref="475092288"/>
    <nd ref="1226840899"/>
    <nd ref="1226841127"/>
    <nd ref="1226841114"/>
    <nd ref="1226841348"/>
    <nd ref="1226840652"/>
    <nd ref="1226840891"/>
    <nd ref="1226841623"/>
    <nd ref="1226841039"/>
    <nd ref="1226840265"/>
    <nd ref="1226840580"/>
    <tag k="highway" v="unclassified"/>
  </way>
  <way id="39634609" version="1" timestamp="2009-08-27T14:12:34Z" uid="115477" user="wowik" changeset="2278564">
    <nd ref="272580343"/>
    <nd ref="272580352"/>
  </way>
  <way id="39634609" version="2" timestamp="2009-08-27T14:12:40Z" uid="115477" user="wowik" changeset="2278564">
    <nd ref="272580343"/>
    <nd ref="272580352"/>
    <tag k="waterway" v="stream"/>
  </way>
  <way id="39634609" version="3" timestamp="2009-09-02T06:58:24Z" uid="115477" user="wowik" changeset="2345515">
    <nd ref="272580343"/>
    <nd ref="272580352"/>
    <tag k="alt_name" v="Ульянка"/>
    <tag k="name" v="Улла"/>
    <tag k="waterway" v="river"/>
  </way>
  <way id="39634609" version="4" timestamp="2010-02-11T00:15:03Z" uid="86479" user="osm-belarus" changeset="3844910">
    <nd ref="273280023"/>
    <nd ref="272580352"/>
    <tag k="alt_name" v="Ульянка"/>
    <tag k="name" v="Улла"/>
    <tag k="waterway" v="river"/>
  </way>
  <way id="39634609" version="5" timestamp="2010-10-05T08:47:06Z" uid="115477" user="wowik" changeset="5959509">
    <nd ref="273280023"/>
    <nd ref="938286920"/>
    <nd ref="272580352"/>
    <tag k="alt_name" v="Ульянка"/>
    <tag k="name" v="Улла"/>
    <tag k="waterway" v="river"/>
  </way>
  <way id="39634609" version="6" timestamp="2011-11-27T20:13:36Z" uid="86479" user="osm-belarus" changeset="9969899">
    <nd ref="273280023"/>
    <nd ref="938286920"/>
    <nd ref="272580352"/>
    <tag k="alt_name" v="Ульянка"/>
    <tag k="name" v="Улла"/>
    <tag k="name:ru" v="Улла"/>
    <tag k="waterway" v="river"/>
  </way>
  <way id="39634609" version="7" timestamp="2011-12-14T13:09:00Z" uid="29320" user="Komяpa" changeset="10115654">
    <nd ref="273280023"/>
    <nd ref="938286920"/>
    <nd ref="272580352"/>
    <tag k="alt_name" v="Ульянка"/>
    <tag k="int_name" v="Ula"/>
    <tag k="name" v="Улла"/>
    <tag k="name:be" v="Ула"/>
    <tag k="name:ru" v="Улла"/>
    <tag k="waterway" v="river"/>
  </way>
  <way id="39634661" version="2" timestamp="2010-04-07T13:47:56Z" uid="20587" user="balrog-kun" changeset="4353646">
    <nd ref="146513105"/>
    <nd ref="146501657"/>
    <nd ref="146513112"/>
    <nd ref="146500570"/>
    <nd ref="146479795"/>
    <nd ref="146464863"/>
    <nd ref="146480458"/>
    <nd ref="146464805"/>
    <nd ref="146485713"/>
    <nd ref="146513115"/>
    <nd ref="146488304"/>
    <nd ref="146495613"/>
    <nd ref="146443997"/>
    <nd ref="146443894"/>
    <nd ref="146418370"/>
    <nd ref="146454261"/>
    <nd ref="146513122"/>
    <nd ref="146513129"/>
    <tag k="highway" v="residential"/>
    <tag k="name" v="West Avenue I"/>
    <tag k="name_1" v="County Road 178"/>
    <tag k="tiger:cfcc" v="A41"/>
    <tag k="tiger:county" v="Le Flore, OK"/>
    <tag k="tiger:name_base" v="Avenue I"/>
    <tag k="tiger:name_base_1" v="County Road 178"/>
    <tag k="tiger:name_direction_prefix" v="W"/>
    <tag k="tiger:reviewed" v="no"/>
    <tag k="tiger:separated" v="no"/>
    <tag k="tiger:source" v="tiger_import_dch_v0.6_20070829"/>
    <tag k="tiger:tlid" v="79911708:79907706:79912074:79917788:79883867:79905028:79903802:79883876:79911720:79916568:79916569:79905032"/>
  </way>
  <way id="39634365" version="3" timestamp="2012-07-20T02:19:37Z" uid="722137" user="OSMF Redaction Account" changeset="12357940">
    <nd ref="475092272"/>
    <nd ref="475092276"/>
    <nd ref="475092277"/>
    <nd ref="475092280"/>
    <nd ref="475092284"/>
    <nd ref="475092288"/>
    <tag k="highway" v="unclassified"/>
  </way>
  <way id="39634609" version="8" timestamp="2012-07-18T10:38:28Z" uid="722137" user="OSMF Redaction Account" changeset="12278550"/>
</osm>
