<?xml version='1.0' encoding='UTF-8'?>
<osm version="0.6" generator="libosmium/2.20.0">
  <way id="39637248" version="6" timestamp="2010-03-23T11:46:31Z" uid="4467" user="Rosscoe" changeset="4211337">
    <nd ref="436208086"/>
    <nd ref="655120361"/>
    <nd ref="436208090"/>
    <nd ref="672691050"/>
    <nd ref="672691049"/>
    <nd ref="362398310"/>
    <nd ref="672691051"/>
    <nd ref="655120355"/>
    <nd ref="655120356"/>
    <nd ref="364000300"/>
    <tag k="highway" v="secondary"/>
    <tag k="name" v="Barkly Street"/>
    <tag k="ref" v="C298"/>
  </way>
  <way id="39637248" version="7" timestamp="2010-10-11T22:57:35Z" uid="320632" user="Zulu99" changeset="6016863">
    <nd ref="436208086"/>
    <nd ref="945478362"/>
    <tag k="highway" v="secondary"/>
    <tag k="name" v="Barkly Street"/>
    <tag k="ref" v="C298"/>
  </way>
  <way id="39637248" version="8" timestamp="2011-02-07T11:59:30Z" uid="4467" user="Rosscoe" changeset="7215161">
    <nd ref="1140747336"/>
    <nd ref="945478362"/>
    <tag k="highway" v="secondary"/>
    <tag k="name" v="Barkly Street"/>
    <tag k="ref" v="C298"/>
  </way>
  <way id="39637248" version="9" timestamp="2012-07-19T08:18:19Z" uid="722137" user="OSMF Redaction Account" changeset="12313555"/>
</osm>
