<?xml version='1.0' encoding='UTF-8'?>
<osm version="0.6" generator="libosmium/2.20.0">
  <way id="39748031" version="1" timestamp="2009-08-29T12:22:04Z" uid="43967" user="railsnail" changeset="2300327">
    <nd ref="476503147"/>
    <nd ref="476503148"/>
    <tag k="boat" v="no"/>
    <tag k="waterway" v="stream"/>
  </way>
  <way id="39748247" version="3" timestamp="2009-11-10T11:08:10Z" uid="171838" user="argrath" changeset="3081254">
    <nd ref="333701044"/>
    <nd ref="560377009"/>
    <nd ref="560377010"/>
    <nd ref="476503251"/>
    <nd ref="258765200"/>
    <tag k="highway" v="tertiary"/>
    <tag k="source" v="MLIT Japan"/>
    <tag k="source:ja" v="国土画像情報（オルソ化空中写真）国土交通省"/>
  </way>
  <way id="39748247" version="4" timestamp="2011-08-18T14:02:40Z" uid="151227" user="MaryHiroshige" changeset="9057225">
    <nd ref="333701044"/>
    <nd ref="560377009"/>
    <nd ref="560377010"/>
    <nd ref="476503251"/>
    <nd ref="258765200"/>
    <nd ref="1403346807"/>
    <tag k="highway" v="tertiary"/>
    <tag k="source" v="MLIT Japan"/>
    <tag k="source:ja" v="国土画像情報（オルソ化空中写真）国土交通省"/>
  </way>
  <way id="39748247" version="5" timestamp="2011-08-29T16:28:09Z" uid="151227" user="MaryHiroshige" changeset="9159274">
    <nd ref="333701044"/>
    <nd ref="560377009"/>
    <nd ref="560377010"/>
    <nd ref="476503251"/>
    <tag k="highway" v="unclassified"/>
    <tag k="oneway" v="yes"/>
    <tag k="source" v="MLIT Japan"/>
    <tag k="source:ja" v="国土画像情報（オルソ化空中写真）国土交通省"/>
  </way>
  <way id="39748247" version="6" timestamp="2012-02-04T02:18:17Z" uid="151227" user="MaryHiroshige" changeset="10580878"/>
  <way id="39748517" version="2" timestamp="2010-01-06T10:14:22Z" uid="64977" user="CLoeser" changeset="3552056">
    <nd ref="448380652"/>
    <nd ref="606353747"/>
    <tag k="waterway" v="drain"/>
  </way>
  <way id="39748517" version="3" timestamp="2010-01-07T16:18:02Z" uid="64977" user="CLoeser" changeset="3563196">
    <nd ref="606353747"/>
    <nd ref="448380652"/>
    <tag k="waterway" v="drain"/>
  </way>
  <way id="39748733" version="6" timestamp="2010-07-08T18:04:51Z" uid="74617" user="JohnSmith" changeset="5167338">
    <nd ref="476507091"/>
    <nd ref="476507092"/>
    <nd ref="476507093"/>
    <nd ref="482302802"/>
    <nd ref="476507185"/>
    <nd ref="476507187"/>
    <nd ref="476507202"/>
    <nd ref="476507183"/>
    <nd ref="476507200"/>
    <nd ref="476507094"/>
    <nd ref="476507181"/>
    <nd ref="476507179"/>
    <nd ref="484293779"/>
    <nd ref="482302947"/>
    <nd ref="476507177"/>
    <nd ref="482302759"/>
    <nd ref="476507095"/>
    <nd ref="476507129"/>
    <nd ref="476507131"/>
    <nd ref="476507096"/>
    <nd ref="476507097"/>
    <tag k="highway" v="residential"/>
    <tag k="maxspeed" v="50"/>
    <tag k="maxspeed:source" v="default residential speed limit in Australia"/>
    <tag k="name" v="Dromana Parade"/>
  </way>
  <way id="39748733" version="7" timestamp="2011-03-05T03:19:45Z" uid="11111" user="lakeyboy" changeset="7459683">
    <nd ref="476507091"/>
    <nd ref="476507092"/>
    <nd ref="1186776875"/>
    <nd ref="1186776846"/>
    <nd ref="1186776887"/>
    <tag k="highway" v="residential"/>
    <tag k="maxspeed" v="50"/>
    <tag k="name" v="Dromana Parade"/>
    <tag k="oneway" v="yes"/>
    <tag k="source" v="nearmap"/>
    <tag k="source:maxspeed" v="default residential speed limit in Australia"/>
    <tag k="surface" v="asphalt"/>
  </way>
  <way id="39748733" version="8" timestamp="2012-01-19T04:04:12Z" uid="147510" user="woodpeck_fixbot" changeset="10433650">
    <nd ref="476507091"/>
    <nd ref="476507092"/>
    <nd ref="1186776875"/>
    <nd ref="1186776846"/>
    <nd ref="1186776887"/>
    <tag k="highway" v="residential"/>
    <tag k="name" v="Dromana Parade"/>
    <tag k="oneway" v="yes"/>
    <tag k="source" v="nearmap"/>
    <tag k="source:maxspeed" v="default residential speed limit in Australia"/>
    <tag k="surface" v="asphalt"/>
  </way>
  <way id="39748734" version="3" timestamp="2010-07-08T18:09:59Z" uid="74617" user="JohnSmith" changeset="5167338">
    <nd ref="476507101"/>
    <nd ref="476507100"/>
    <tag k="highway" v="residential"/>
    <tag k="maxspeed" v="50"/>
    <tag k="maxspeed:source" v="default residential speed limit in Australia"/>
    <tag k="name" v="Evans Street"/>
  </way>
  <way id="39748734" version="4" timestamp="2011-03-05T02:18:17Z" uid="11111" user="lakeyboy" changeset="7459683">
    <nd ref="476507101"/>
    <nd ref="1186759583"/>
    <nd ref="1186759585"/>
    <nd ref="1186759577"/>
    <nd ref="476507100"/>
    <tag k="highway" v="residential"/>
    <tag k="maxspeed" v="50"/>
    <tag k="name" v="Evans Street"/>
    <tag k="source:maxspeed" v="default residential speed limit in Australia"/>
  </way>
  <way id="39748734" version="5" timestamp="2012-01-19T04:04:13Z" uid="147510" user="woodpeck_fixbot" changeset="10433650">
    <nd ref="476507101"/>
    <nd ref="1186759583"/>
    <nd ref="1186759585"/>
    <nd ref="1186759577"/>
    <nd ref="476507100"/>
    <tag k="highway" v="residential"/>
    <tag k="name" v="Evans Street"/>
    <tag k="source:maxspeed" v="default residential speed limit in Australia"/>
  </way>
  <way id="39748735" version="6" timestamp="2010-07-08T18:09:02Z" uid="74617" user="JohnSmith" changeset="5167338">
    <nd ref="482389479"/>
    <nd ref="476507102"/>
    <nd ref="476507103"/>
    <tag k="highway" v="residential"/>
    <tag k="maxspeed" v="50"/>
    <tag k="maxspeed:source" v="default residential speed limit in Australia"/>
  </way>
  <way id="39748735" version="7" timestamp="2012-01-19T04:04:14Z" uid="147510" user="woodpeck_fixbot" changeset="10433650">
    <nd ref="482389479"/>
    <nd ref="476507102"/>
    <nd ref="476507103"/>
    <tag k="highway" v="residential"/>
  </way>
  <way id="39748736" version="3" timestamp="2010-07-08T18:04:10Z" uid="74617" user="JohnSmith" changeset="5167338">
    <nd ref="476507104"/>
    <nd ref="476507098"/>
    <tag k="highway" v="residential"/>
    <tag k="maxspeed" v="50"/>
    <tag k="maxspeed:source" v="default residential speed limit in Australia"/>
    <tag k="name" v="Osborne Street"/>
  </way>
  <way id="39748736" version="4" timestamp="2012-01-19T04:04:15Z" uid="147510" user="woodpeck_fixbot" changeset="10433650">
    <nd ref="476507104"/>
    <nd ref="476507098"/>
    <tag k="highway" v="residential"/>
    <tag k="name" v="Osborne Street"/>
  </way>
  <way id="39748737" version="4" timestamp="2010-07-08T18:09:32Z" uid="74617" user="JohnSmith" changeset="5167338">
    <nd ref="476507108"/>
    <nd ref="477229733"/>
    <tag k="highway" v="residential"/>
    <tag k="maxspeed" v="50"/>
    <tag k="maxspeed:source" v="default residential speed limit in Australia"/>
    <tag k="name" v="Victoria Street"/>
  </way>
  <way id="39748737" version="5" timestamp="2011-03-05T02:18:17Z" uid="11111" user="lakeyboy" changeset="7459683">
    <nd ref="476507108"/>
    <nd ref="1186759513"/>
    <nd ref="477229733"/>
    <tag k="highway" v="residential"/>
    <tag k="maxspeed" v="50"/>
    <tag k="maxspeed:source" v="default residential speed limit in Australia"/>
    <tag k="name" v="Victoria Street"/>
  </way>
  <way id="39748737" version="6" timestamp="2012-01-19T04:04:17Z" uid="147510" user="woodpeck_fixbot" changeset="10433650">
    <nd ref="476507108"/>
    <nd ref="1186759513"/>
    <nd ref="477229733"/>
    <tag k="highway" v="residential"/>
    <tag k="name" v="Victoria Street"/>
  </way>
  <way id="39748738" version="3" timestamp="2010-07-08T18:08:09Z" uid="74617" user="JohnSmith" changeset="5167338">
    <nd ref="476507118"/>
    <nd ref="476507119"/>
    <tag k="highway" v="residential"/>
    <tag k="maxspeed" v="50"/>
    <tag k="maxspeed:source" v="default residential speed limit in Australia"/>
    <tag k="name" v="Sunrise Close"/>
  </way>
  <way id="39748738" version="4" timestamp="2012-01-19T04:04:17Z" uid="147510" user="woodpeck_fixbot" changeset="10433650">
    <nd ref="476507118"/>
    <nd ref="476507119"/>
    <tag k="highway" v="residential"/>
    <tag k="name" v="Sunrise Close"/>
  </way>
  <way id="39748739" version="3" timestamp="2010-07-08T18:06:43Z" uid="74617" user="JohnSmith" changeset="5167338">
    <nd ref="477229731"/>
    <nd ref="476507120"/>
    <nd ref="476507121"/>
    <tag k="highway" v="residential"/>
    <tag k="maxspeed" v="50"/>
    <tag k="maxspeed:source" v="default residential speed limit in Australia"/>
    <tag k="name" v="Maggie Mews"/>
  </way>
  <way id="39748739" version="4" timestamp="2012-01-19T04:04:19Z" uid="147510" user="woodpeck_fixbot" changeset="10433650">
    <nd ref="477229731"/>
    <nd ref="476507120"/>
    <nd ref="476507121"/>
    <tag k="highway" v="residential"/>
    <tag k="name" v="Maggie Mews"/>
  </way>
  <way id="39748740" version="3" timestamp="2010-07-08T18:09:48Z" uid="74617" user="JohnSmith" changeset="5167338">
    <nd ref="476507122"/>
    <nd ref="476507123"/>
    <nd ref="476507124"/>
    <tag k="highway" v="residential"/>
    <tag k="maxspeed" v="50"/>
    <tag k="maxspeed:source" v="default residential speed limit in Australia"/>
    <tag k="name" v="Seaspray Close"/>
  </way>
  <way id="39748740" version="4" timestamp="2011-03-05T02:18:21Z" uid="11111" user="lakeyboy" changeset="7459683"/>
  <way id="39748741" version="6" timestamp="2010-07-08T18:08:39Z" uid="74617" user="JohnSmith" changeset="5167338">
    <nd ref="476507125"/>
    <nd ref="476507126"/>
    <nd ref="482389486"/>
    <nd ref="482302727"/>
    <nd ref="482302736"/>
    <nd ref="482389482"/>
    <nd ref="482302742"/>
    <nd ref="482302744"/>
    <nd ref="482302748"/>
    <nd ref="482389475"/>
    <nd ref="477206320"/>
    <nd ref="476507134"/>
    <nd ref="476507135"/>
    <nd ref="476507127"/>
    <tag k="highway" v="residential"/>
    <tag k="maxspeed" v="50"/>
    <tag k="maxspeed:source" v="default residential speed limit in Australia"/>
    <tag k="name" v="Rymer Avenue"/>
  </way>
  <way id="39748741" version="7" timestamp="2012-01-19T04:04:20Z" uid="147510" user="woodpeck_fixbot" changeset="10433650">
    <nd ref="476507125"/>
    <nd ref="476507126"/>
    <nd ref="482389486"/>
    <nd ref="482302727"/>
    <nd ref="482302736"/>
    <nd ref="482389482"/>
    <nd ref="482302742"/>
    <nd ref="482302744"/>
    <nd ref="482302748"/>
    <nd ref="482389475"/>
    <nd ref="477206320"/>
    <nd ref="476507134"/>
    <nd ref="476507135"/>
    <nd ref="476507127"/>
    <tag k="highway" v="residential"/>
    <tag k="name" v="Rymer Avenue"/>
  </way>
  <way id="39748742" version="3" timestamp="2010-07-08T18:07:13Z" uid="74617" user="JohnSmith" changeset="5167338">
    <nd ref="476507126"/>
    <nd ref="476507128"/>
    <tag k="highway" v="residential"/>
    <tag k="maxspeed" v="50"/>
    <tag k="maxspeed:source" v="default residential speed limit in Australia"/>
    <tag k="name" v="Buckley Street"/>
  </way>
  <way id="39748742" version="4" timestamp="2012-01-19T04:04:22Z" uid="147510" user="woodpeck_fixbot" changeset="10433650">
    <nd ref="476507126"/>
    <nd ref="476507128"/>
    <tag k="highway" v="residential"/>
    <tag k="name" v="Buckley Street"/>
  </way>
  <way id="39748743" version="3" timestamp="2010-07-08T18:05:35Z" uid="74617" user="JohnSmith" changeset="5167338">
    <nd ref="476507129"/>
    <nd ref="476507130"/>
    <tag k="highway" v="residential"/>
    <tag k="maxspeed" v="50"/>
    <tag k="maxspeed:source" v="default residential speed limit in Australia"/>
    <tag k="name" v="Tonkin Street"/>
  </way>
  <way id="39748743" version="4" timestamp="2012-01-19T04:04:23Z" uid="147510" user="woodpeck_fixbot" changeset="10433650">
    <nd ref="476507129"/>
    <nd ref="476507130"/>
    <tag k="highway" v="residential"/>
    <tag k="name" v="Tonkin Street"/>
  </way>
  <way id="39748744" version="4" timestamp="2010-07-08T18:06:20Z" uid="74617" user="JohnSmith" changeset="5167338">
    <nd ref="476507131"/>
    <nd ref="476507132"/>
    <nd ref="476507133"/>
    <nd ref="482476020"/>
    <nd ref="482476017"/>
    <nd ref="482476023"/>
    <nd ref="482476014"/>
    <nd ref="482476027"/>
    <nd ref="482476031"/>
    <nd ref="482476034"/>
    <nd ref="477225547"/>
    <tag k="highway" v="residential"/>
    <tag k="maxspeed" v="50"/>
    <tag k="maxspeed:source" v="default residential speed limit in Australia"/>
    <tag k="name" v="Tonkin Street"/>
  </way>
  <way id="39748744" version="5" timestamp="2012-01-19T04:04:24Z" uid="147510" user="woodpeck_fixbot" changeset="10433650">
    <nd ref="476507131"/>
    <nd ref="476507132"/>
    <nd ref="476507133"/>
    <nd ref="482476020"/>
    <nd ref="482476017"/>
    <nd ref="482476023"/>
    <nd ref="482476014"/>
    <nd ref="482476027"/>
    <nd ref="482476031"/>
    <nd ref="482476034"/>
    <nd ref="477225547"/>
    <tag k="highway" v="residential"/>
    <tag k="name" v="Tonkin Street"/>
  </way>
  <way id="39748745" version="5" timestamp="2010-07-08T18:04:46Z" uid="74617" user="JohnSmith" changeset="5167338">
    <nd ref="476507135"/>
    <nd ref="476507136"/>
    <nd ref="484293692"/>
    <tag k="highway" v="residential"/>
    <tag k="maxspeed" v="50"/>
    <tag k="maxspeed:source" v="default residential speed limit in Australia"/>
    <tag k="name" v="Coveside Avenue"/>
  </way>
  <way id="39748745" version="6" timestamp="2012-01-19T04:04:25Z" uid="147510" user="woodpeck_fixbot" changeset="10433650">
    <nd ref="476507135"/>
    <nd ref="476507136"/>
    <nd ref="484293692"/>
    <tag k="highway" v="residential"/>
    <tag k="name" v="Coveside Avenue"/>
  </way>
  <way id="39748746" version="6" timestamp="2010-07-08T18:09:57Z" uid="74617" user="JohnSmith" changeset="5167338">
    <nd ref="476507137"/>
    <nd ref="477206319"/>
    <nd ref="484394588"/>
    <nd ref="476507155"/>
    <tag k="highway" v="residential"/>
    <tag k="maxspeed" v="50"/>
    <tag k="maxspeed:source" v="default residential speed limit in Australia"/>
    <tag k="name" v="Clipper Quay"/>
  </way>
  <way id="39748746" version="7" timestamp="2012-01-19T04:04:26Z" uid="147510" user="woodpeck_fixbot" changeset="10433650">
    <nd ref="476507137"/>
    <nd ref="477206319"/>
    <nd ref="484394588"/>
    <nd ref="476507155"/>
    <tag k="highway" v="residential"/>
    <tag k="name" v="Clipper Quay"/>
  </way>
  <way id="39748747" version="3" timestamp="2010-07-08T18:08:59Z" uid="74617" user="JohnSmith" changeset="5167338">
    <nd ref="476507158"/>
    <nd ref="476507168"/>
    <nd ref="476507166"/>
    <nd ref="476507159"/>
    <nd ref="476507160"/>
    <nd ref="476507161"/>
    <nd ref="476507162"/>
    <nd ref="477206323"/>
    <nd ref="477206321"/>
    <nd ref="476507163"/>
    <nd ref="476507145"/>
    <tag k="highway" v="residential"/>
    <tag k="maxspeed" v="50"/>
    <tag k="maxspeed:source" v="default residential speed limit in Australia"/>
    <tag k="name" v="Oceanic Drive"/>
  </way>
  <way id="39748747" version="4" timestamp="2012-01-19T04:04:27Z" uid="147510" user="woodpeck_fixbot" changeset="10433650">
    <nd ref="476507158"/>
    <nd ref="476507168"/>
    <nd ref="476507166"/>
    <nd ref="476507159"/>
    <nd ref="476507160"/>
    <nd ref="476507161"/>
    <nd ref="476507162"/>
    <nd ref="477206323"/>
    <nd ref="477206321"/>
    <nd ref="476507163"/>
    <nd ref="476507145"/>
    <tag k="highway" v="residential"/>
    <tag k="name" v="Oceanic Drive"/>
  </way>
  <way id="39748748" version="3" timestamp="2010-07-08T18:05:10Z" uid="74617" user="JohnSmith" changeset="5167338">
    <nd ref="476507163"/>
    <nd ref="476507164"/>
    <tag k="highway" v="residential"/>
    <tag k="maxspeed" v="50"/>
    <tag k="maxspeed:source" v="default residential speed limit in Australia"/>
    <tag k="name" v="Pacific Place"/>
  </way>
  <way id="39748748" version="4" timestamp="2012-01-19T04:04:29Z" uid="147510" user="woodpeck_fixbot" changeset="10433650">
    <nd ref="476507163"/>
    <nd ref="476507164"/>
    <tag k="highway" v="residential"/>
    <tag k="name" v="Pacific Place"/>
  </way>
  <way id="39748749" version="3" timestamp="2010-07-08T18:03:44Z" uid="74617" user="JohnSmith" changeset="5167338">
    <nd ref="476507165"/>
    <nd ref="476507166"/>
    <tag k="highway" v="residential"/>
    <tag k="maxspeed" v="50"/>
    <tag k="maxspeed:source" v="default residential speed limit in Australia"/>
    <tag k="name" v="Portside Way"/>
  </way>
  <way id="39748749" version="4" timestamp="2012-01-19T04:04:29Z" uid="147510" user="woodpeck_fixbot" changeset="10433650">
    <nd ref="476507165"/>
    <nd ref="476507166"/>
    <tag k="highway" v="residential"/>
    <tag k="name" v="Portside Way"/>
  </way>
  <way id="39748750" version="3" timestamp="2010-07-08T18:09:16Z" uid="74617" user="JohnSmith" changeset="5167338">
    <nd ref="476507167"/>
    <nd ref="476507168"/>
    <tag k="highway" v="residential"/>
    <tag k="maxspeed" v="50"/>
    <tag k="maxspeed:source" v="default residential speed limit in Australia"/>
    <tag k="name" v="Seahaven Way"/>
  </way>
  <way id="39748750" version="4" timestamp="2012-01-19T04:04:30Z" uid="147510" user="woodpeck_fixbot" changeset="10433650">
    <nd ref="476507167"/>
    <nd ref="476507168"/>
    <tag k="highway" v="residential"/>
    <tag k="name" v="Seahaven Way"/>
  </way>
  <way id="39748751" version="5" timestamp="2010-07-08T18:07:41Z" uid="74617" user="JohnSmith" changeset="5167338">
    <nd ref="484293802"/>
    <nd ref="484293800"/>
    <nd ref="484293798"/>
    <tag k="highway" v="residential"/>
    <tag k="maxspeed" v="50"/>
    <tag k="maxspeed:source" v="default residential speed limit in Australia"/>
    <tag k="name" v="Island Drive"/>
    <tag k="oneway" v="yes"/>
  </way>
  <way id="39748751" version="6" timestamp="2012-01-19T04:04:32Z" uid="147510" user="woodpeck_fixbot" changeset="10433650">
    <nd ref="484293802"/>
    <nd ref="484293800"/>
    <nd ref="484293798"/>
    <tag k="highway" v="residential"/>
    <tag k="name" v="Island Drive"/>
    <tag k="oneway" v="yes"/>
  </way>
  <way id="39748752" version="3" timestamp="2010-07-08T18:06:54Z" uid="74617" user="JohnSmith" changeset="5167338">
    <nd ref="476507177"/>
    <nd ref="476507178"/>
    <tag k="highway" v="residential"/>
    <tag k="maxspeed" v="50"/>
    <tag k="maxspeed:source" v="default residential speed limit in Australia"/>
    <tag k="name" v="Link Drive"/>
  </way>
  <way id="39748752" version="4" timestamp="2012-01-19T04:04:33Z" uid="147510" user="woodpeck_fixbot" changeset="10433650">
    <nd ref="476507177"/>
    <nd ref="476507178"/>
    <tag k="highway" v="residential"/>
    <tag k="name" v="Link Drive"/>
  </way>
  <way id="39748753" version="3" timestamp="2010-07-08T18:05:22Z" uid="74617" user="JohnSmith" changeset="5167338">
    <nd ref="476507196"/>
    <nd ref="476507195"/>
    <tag k="highway" v="residential"/>
    <tag k="maxspeed" v="50"/>
    <tag k="maxspeed:source" v="default residential speed limit in Australia"/>
    <tag k="name" v="Dale Avenue"/>
  </way>
  <way id="39748753" version="4" timestamp="2010-08-28T08:52:24Z" uid="158515" user="SimonWalduck" changeset="5614043">
    <nd ref="476507196"/>
    <nd ref="476507195"/>
    <nd ref="884208933"/>
    <tag k="highway" v="residential"/>
    <tag k="maxspeed" v="50"/>
    <tag k="maxspeed:source" v="default residential speed limit in Australia"/>
    <tag k="name" v="Dale Avenue"/>
  </way>
  <way id="39748753" version="5" timestamp="2012-01-19T04:04:34Z" uid="147510" user="woodpeck_fixbot" changeset="10433650">
    <nd ref="476507196"/>
    <nd ref="476507195"/>
    <nd ref="884208933"/>
    <tag k="highway" v="residential"/>
    <tag k="name" v="Dale Avenue"/>
  </way>
  <way id="39748754" version="4" timestamp="2010-07-08T18:03:56Z" uid="74617" user="JohnSmith" changeset="5167338">
    <nd ref="476507181"/>
    <nd ref="476507182"/>
    <tag k="highway" v="residential"/>
    <tag k="maxspeed" v="50"/>
    <tag k="maxspeed:source" v="default residential speed limit in Australia"/>
    <tag k="name" v="Morgon Court"/>
  </way>
  <way id="39748754" version="5" timestamp="2012-01-19T04:04:35Z" uid="147510" user="woodpeck_fixbot" changeset="10433650">
    <nd ref="476507181"/>
    <nd ref="476507182"/>
    <tag k="highway" v="residential"/>
    <tag k="name" v="Morgon Court"/>
  </way>
  <way id="39748755" version="3" timestamp="2010-07-08T18:09:23Z" uid="74617" user="JohnSmith" changeset="5167338">
    <nd ref="476507183"/>
    <nd ref="476507184"/>
    <tag k="highway" v="residential"/>
    <tag k="maxspeed" v="50"/>
    <tag k="maxspeed:source" v="default residential speed limit in Australia"/>
    <tag k="name" v="Balmoral Avenue"/>
  </way>
  <way id="39748755" version="4" timestamp="2012-01-19T04:04:36Z" uid="147510" user="woodpeck_fixbot" changeset="10433650">
    <nd ref="476507183"/>
    <nd ref="476507184"/>
    <tag k="highway" v="residential"/>
    <tag k="name" v="Balmoral Avenue"/>
  </way>
  <way id="39748756" version="3" timestamp="2010-07-08T18:05:49Z" uid="74617" user="JohnSmith" changeset="5167338">
    <nd ref="476507185"/>
    <nd ref="476507186"/>
    <tag k="highway" v="residential"/>
    <tag k="maxspeed" v="50"/>
    <tag k="maxspeed:source" v="default residential speed limit in Australia"/>
    <tag k="name" v="Mason Avenue"/>
  </way>
  <way id="39748756" version="4" timestamp="2011-03-05T03:22:05Z" uid="11111" user="lakeyboy" changeset="7459683">
    <nd ref="476507185"/>
    <nd ref="1186779391"/>
    <nd ref="476507186"/>
    <tag k="highway" v="residential"/>
    <tag k="maxspeed" v="50"/>
    <tag k="maxspeed:source" v="default residential speed limit in Australia"/>
    <tag k="name" v="Mason Avenue"/>
  </way>
  <way id="39748756" version="5" timestamp="2012-01-19T04:04:37Z" uid="147510" user="woodpeck_fixbot" changeset="10433650">
    <nd ref="476507185"/>
    <nd ref="1186779391"/>
    <nd ref="476507186"/>
    <tag k="highway" v="residential"/>
    <tag k="name" v="Mason Avenue"/>
  </way>
  <way id="39748757" version="3" timestamp="2010-07-08T18:04:18Z" uid="74617" user="JohnSmith" changeset="5167338">
    <nd ref="476507187"/>
    <nd ref="476507188"/>
    <nd ref="476507189"/>
    <tag k="highway" v="residential"/>
    <tag k="maxspeed" v="50"/>
    <tag k="maxspeed:source" v="default residential speed limit in Australia"/>
    <tag k="name" v="Frank Street"/>
  </way>
  <way id="39748757" version="4" timestamp="2012-01-19T04:04:38Z" uid="147510" user="woodpeck_fixbot" changeset="10433650">
    <nd ref="476507187"/>
    <nd ref="476507188"/>
    <nd ref="476507189"/>
    <tag k="highway" v="residential"/>
    <tag k="name" v="Frank Street"/>
  </way>
  <way id="39748758" version="3" timestamp="2010-07-08T18:09:39Z" uid="74617" user="JohnSmith" changeset="5167338">
    <nd ref="476507197"/>
    <nd ref="476507190"/>
    <nd ref="476507196"/>
    <nd ref="476507198"/>
    <tag k="highway" v="residential"/>
    <tag k="maxspeed" v="50"/>
    <tag k="maxspeed:source" v="default residential speed limit in Australia"/>
    <tag k="name" v="Brian Street"/>
  </way>
  <way id="39748758" version="4" timestamp="2012-01-19T04:04:40Z" uid="147510" user="woodpeck_fixbot" changeset="10433650">
    <nd ref="476507197"/>
    <nd ref="476507190"/>
    <nd ref="476507196"/>
    <nd ref="476507198"/>
    <tag k="highway" v="residential"/>
    <tag k="name" v="Brian Street"/>
  </way>
  <way id="39748759" version="4" timestamp="2010-07-08T18:08:17Z" uid="74617" user="JohnSmith" changeset="5167338">
    <nd ref="476507202"/>
    <nd ref="476507203"/>
    <nd ref="476507204"/>
    <nd ref="476507205"/>
    <nd ref="476507206"/>
    <nd ref="476507207"/>
    <nd ref="484482881"/>
    <nd ref="476507208"/>
    <nd ref="476507209"/>
    <nd ref="476507210"/>
    <nd ref="476507211"/>
    <nd ref="476507212"/>
    <nd ref="476507213"/>
    <nd ref="476507214"/>
    <nd ref="476507215"/>
    <nd ref="476507216"/>
    <nd ref="476507217"/>
    <nd ref="476507218"/>
    <nd ref="476507219"/>
    <nd ref="476507220"/>
    <nd ref="476507221"/>
    <nd ref="476507222"/>
    <nd ref="476507223"/>
    <tag k="highway" v="residential"/>
    <tag k="maxspeed" v="50"/>
    <tag k="maxspeed:source" v="default residential speed limit in Australia"/>
    <tag k="name" v="Woodlands Grove"/>
  </way>
  <way id="39748759" version="5" timestamp="2012-01-19T04:04:41Z" uid="147510" user="woodpeck_fixbot" changeset="10433650">
    <nd ref="476507202"/>
    <nd ref="476507203"/>
    <nd ref="476507204"/>
    <nd ref="476507205"/>
    <nd ref="476507206"/>
    <nd ref="476507207"/>
    <nd ref="484482881"/>
    <nd ref="476507208"/>
    <nd ref="476507209"/>
    <nd ref="476507210"/>
    <nd ref="476507211"/>
    <nd ref="476507212"/>
    <nd ref="476507213"/>
    <nd ref="476507214"/>
    <nd ref="476507215"/>
    <nd ref="476507216"/>
    <nd ref="476507217"/>
    <nd ref="476507218"/>
    <nd ref="476507219"/>
    <nd ref="476507220"/>
    <nd ref="476507221"/>
    <nd ref="476507222"/>
    <nd ref="476507223"/>
    <tag k="highway" v="residential"/>
    <tag k="name" v="Woodlands Grove"/>
  </way>
  <way id="39748760" version="3" timestamp="2010-07-08T18:09:07Z" uid="74617" user="JohnSmith" changeset="5167338">
    <nd ref="476507206"/>
    <nd ref="476507224"/>
    <nd ref="476507225"/>
    <nd ref="476507226"/>
    <nd ref="476507227"/>
    <nd ref="476507228"/>
    <nd ref="476507229"/>
    <nd ref="476507230"/>
    <nd ref="476507231"/>
    <nd ref="476507232"/>
    <nd ref="476507233"/>
    <nd ref="476507234"/>
    <nd ref="476507235"/>
    <nd ref="476507236"/>
    <nd ref="476507237"/>
    <nd ref="476507223"/>
    <tag k="highway" v="residential"/>
    <tag k="maxspeed" v="50"/>
    <tag k="maxspeed:source" v="default residential speed limit in Australia"/>
    <tag k="name" v="Victoria Court"/>
  </way>
  <way id="39748760" version="4" timestamp="2012-01-19T04:04:42Z" uid="147510" user="woodpeck_fixbot" changeset="10433650">
    <nd ref="476507206"/>
    <nd ref="476507224"/>
    <nd ref="476507225"/>
    <nd ref="476507226"/>
    <nd ref="476507227"/>
    <nd ref="476507228"/>
    <nd ref="476507229"/>
    <nd ref="476507230"/>
    <nd ref="476507231"/>
    <nd ref="476507232"/>
    <nd ref="476507233"/>
    <nd ref="476507234"/>
    <nd ref="476507235"/>
    <nd ref="476507236"/>
    <nd ref="476507237"/>
    <nd ref="476507223"/>
    <tag k="highway" v="residential"/>
    <tag k="name" v="Victoria Court"/>
  </way>
  <way id="39748876" version="3" timestamp="2009-09-04T17:09:57Z" uid="49111" user="Markus B" changeset="2372003">
    <nd ref="262312394"/>
    <nd ref="476508083"/>
    <nd ref="476508085"/>
    <nd ref="21737946"/>
    <tag k="highway" v="residential"/>
  </way>
  <way id="39748876" version="4" timestamp="2011-01-25T08:34:43Z" uid="51230" user="gerzap" changeset="7081279">
    <nd ref="262312394"/>
    <nd ref="476508083"/>
    <nd ref="1119694473"/>
    <nd ref="476508085"/>
    <tag k="highway" v="residential"/>
  </way>
  <way id="39748877" version="3" timestamp="2009-09-04T17:09:58Z" uid="49111" user="Markus B" changeset="2372003">
    <nd ref="21737946"/>
    <nd ref="476508087"/>
    <nd ref="476508088"/>
    <tag k="highway" v="residential"/>
  </way>
  <way id="39748031" version="2" timestamp="2012-07-16T13:41:37Z" uid="722137" user="OSMF Redaction Account" changeset="12245257"/>
  <way id="39748517" version="4" timestamp="2012-07-19T01:10:25Z" uid="722137" user="OSMF Redaction Account" changeset="12303389"/>
</osm>
