<?xml version='1.0' encoding='UTF-8'?>
<osm version="0.6" generator="libosmium/2.20.0">
  <way id="39975361" version="2" timestamp="2009-12-07T00:13:15Z" uid="200463" user="harmagedon" changeset="3311752">
    <nd ref="480283801"/>
    <nd ref="327776741"/>
    <tag k="access" v="destination"/>
    <tag k="addr:postcode" v="4910"/>
    <tag k="at:maxspeed" v="Ortsgebiet"/>
    <tag k="fixme" v="check import"/>
    <tag k="highway" v="steps"/>
    <tag k="is_in" v="...,Bezirk Ried im Innkreis,Oberösterreich,Österreich,Europa"/>
    <tag k="name" v="Schloßberg"/>
    <tag k="note" v="imported from plan.at; (C)=CC-by-sa or oDBL; feel free to change if necessary"/>
    <tag k="plan_at:acad_id" v="ri5B2"/>
    <tag k="source" v="plan.at 2009"/>
  </way>
  <way id="39975361" version="3" timestamp="2011-04-12T17:08:42Z" uid="45347" user="eriosw" changeset="7844547">
    <nd ref="480283801"/>
    <nd ref="327776741"/>
    <tag k="access" v="destination"/>
    <tag k="addr:postcode" v="4910"/>
    <tag k="at:maxspeed" v="Ortsgebiet"/>
    <tag k="fixme" v="check import"/>
    <tag k="highway" v="steps"/>
    <tag k="is_in" v="Ried im Innkreis,Ried im Innkreis,Oberösterreich,Österreich,Europe"/>
    <tag k="name" v="Schloßberg"/>
    <tag k="note" v="imported from plan.at; (C)=CC-by-sa or oDBL; feel free to change if necessary"/>
    <tag k="plan_at:acad_id" v="ri5B2"/>
    <tag k="source" v="plan.at 2009"/>
  </way>
  <way id="39975361" version="4" timestamp="2011-05-03T20:17:37Z" uid="234764" user="m5st" changeset="8043423">
    <nd ref="480283801"/>
    <nd ref="327776741"/>
    <tag k="access" v="destination"/>
    <tag k="addr:postcode" v="4910"/>
    <tag k="highway" v="steps"/>
    <tag k="is_in" v="Ried im Innkreis,Ried im Innkreis,Oberösterreich,Österreich,Europe"/>
    <tag k="name" v="Schloßberg"/>
    <tag k="source" v="plan.at 2009"/>
  </way>
  <way id="39975361" version="5" timestamp="2011-07-28T06:15:56Z" uid="491845" user="data_at" changeset="8851221">
    <nd ref="480283801"/>
    <nd ref="327776741"/>
    <tag k="access" v="destination"/>
    <tag k="highway" v="steps"/>
    <tag k="is_in" v="Ried im Innkreis,Ried im Innkreis,Oberösterreich,Österreich,Europe"/>
    <tag k="name" v="Schloßberg"/>
    <tag k="source" v="plan.at 2009"/>
  </way>
  <way id="39975361" version="6" timestamp="2012-02-02T14:46:11Z" uid="35673" user="gzin" changeset="10568003"/>
  <way id="39975956" version="2" timestamp="2009-09-26T05:45:48Z" uid="33382" user="de_muur" changeset="2634272">
    <nd ref="265593848"/>
    <nd ref="265593858"/>
    <nd ref="265593871"/>
    <nd ref="480285538"/>
    <nd ref="265593897"/>
    <nd ref="265593913"/>
    <nd ref="265593740"/>
    <nd ref="267835796"/>
    <nd ref="265593749"/>
    <nd ref="265593759"/>
    <tag k="highway" v="tertiary"/>
    <tag k="maxspeed" v="50"/>
    <tag k="name" v="Dorfstraße"/>
    <tag k="ref" v="K 35"/>
    <tag k="surface" v="asphalt"/>
  </way>
  <way id="39975956" version="3" timestamp="2010-05-06T10:51:17Z" uid="63107" user="brogo" changeset="4620427">
    <nd ref="265593848"/>
    <nd ref="265593858"/>
    <nd ref="265593871"/>
    <nd ref="480285538"/>
    <nd ref="265593897"/>
    <nd ref="265593913"/>
    <nd ref="265593740"/>
    <nd ref="267835796"/>
    <nd ref="265593749"/>
    <nd ref="265593759"/>
    <tag k="highway" v="tertiary"/>
    <tag k="maxspeed" v="50"/>
    <tag k="name" v="Dorfstraße"/>
    <tag k="ref" v="K 35"/>
    <tag k="source:maxspeed" v="DE:urban"/>
    <tag k="surface" v="asphalt"/>
  </way>
  <way id="39975956" version="4" timestamp="2010-09-13T17:16:26Z" uid="104779" user="ABRob" changeset="5768179">
    <nd ref="265593848"/>
    <nd ref="265593858"/>
    <nd ref="265593871"/>
    <nd ref="480285538"/>
    <nd ref="265593897"/>
    <nd ref="265593913"/>
    <nd ref="265593740"/>
    <nd ref="267835796"/>
    <nd ref="265593749"/>
    <nd ref="265593759"/>
    <tag k="highway" v="tertiary"/>
    <tag k="maxspeed" v="50"/>
    <tag k="name" v="Dorfstraße"/>
    <tag k="ref" v="K 35"/>
    <tag k="source:maxspeed" v="DE:urban"/>
    <tag k="surface" v="asphalt"/>
    <tag k="zone:traffic" v="DE:urban"/>
  </way>
  <way id="39975956" version="5" timestamp="2010-11-06T12:13:13Z" uid="33382" user="de_muur" changeset="6301860">
    <nd ref="265593848"/>
    <nd ref="265593858"/>
    <nd ref="265593871"/>
    <nd ref="480285538"/>
    <nd ref="265593897"/>
    <nd ref="265593913"/>
    <nd ref="265593740"/>
    <tag k="highway" v="tertiary"/>
    <tag k="maxspeed" v="50"/>
    <tag k="name" v="Dorfstraße"/>
    <tag k="ref" v="K 35"/>
    <tag k="source:maxspeed" v="DE:urban"/>
    <tag k="surface" v="asphalt"/>
    <tag k="zone:traffic" v="DE:urban"/>
  </way>
  <way id="39975956" version="6" timestamp="2012-02-20T13:26:10Z" uid="55462" user="Lübeck" changeset="10740499">
    <nd ref="265593848"/>
    <nd ref="265593871"/>
    <nd ref="480285538"/>
    <nd ref="265593897"/>
    <nd ref="1640450449"/>
    <nd ref="265593740"/>
    <tag k="highway" v="tertiary"/>
    <tag k="maxspeed" v="50"/>
    <tag k="name" v="Dorfstraße"/>
    <tag k="ref" v="K 35"/>
    <tag k="source:maxspeed" v="DE:urban"/>
    <tag k="surface" v="asphalt"/>
    <tag k="zone:traffic" v="DE:urban"/>
  </way>
  <way id="39975956" version="7" timestamp="2012-03-06T19:50:39Z" uid="63107" user="brogo" changeset="10893761"/>
  <way id="39975960" version="3" timestamp="2010-04-04T19:38:21Z" uid="33382" user="de_muur" changeset="4326381"/>
</osm>
