<?xml version='1.0' encoding='UTF-8'?>
<osm version="0.6" generator="libosmium/2.20.0">
  <way id="40008789" version="2" timestamp="2009-11-28T01:20:16Z" uid="9581" user="Lobelt" changeset="3233101">
    <nd ref="75149494"/>
    <nd ref="572711708"/>
    <nd ref="480800784"/>
    <tag k="highway" v="residential"/>
  </way>
  <way id="40008789" version="3" timestamp="2010-07-08T15:36:30Z" uid="37445" user="kfw" changeset="5167174">
    <nd ref="75149494"/>
    <nd ref="572711708"/>
    <nd ref="480800784"/>
    <tag k="highway" v="residential"/>
    <tag k="maxspeed" v="50"/>
    <tag k="name" v="Gothaer Straße"/>
  </way>
  <way id="40008789" version="4" timestamp="2010-09-03T14:36:05Z" uid="184838" user="kg340" changeset="5671217">
    <nd ref="75149494"/>
    <nd ref="572711708"/>
    <nd ref="480800784"/>
    <nd ref="894223894"/>
    <nd ref="894223895"/>
    <nd ref="894223903"/>
    <nd ref="894223905"/>
    <nd ref="879374533"/>
    <tag k="highway" v="residential"/>
    <tag k="maxspeed" v="50"/>
    <tag k="name" v="Gothaer Straße"/>
  </way>
  <way id="40008789" version="5" timestamp="2011-03-09T11:55:56Z" uid="323054" user="Abendsegler" changeset="7503173">
    <nd ref="75149494"/>
    <nd ref="572711708"/>
    <nd ref="480800784"/>
    <tag k="highway" v="residential"/>
    <tag k="maxspeed" v="50"/>
    <tag k="name" v="Gothaer Straße"/>
  </way>
  <way id="40008789" version="6" timestamp="2011-10-06T14:19:35Z" uid="37445" user="kfw" changeset="9485986">
    <nd ref="75149494"/>
    <nd ref="572711708"/>
    <nd ref="480800784"/>
    <nd ref="1456835458"/>
    <nd ref="1456835459"/>
    <tag k="highway" v="residential"/>
    <tag k="maxspeed" v="50"/>
    <tag k="name" v="Gothaer Straße"/>
  </way>
  <way id="40008976" version="4" timestamp="2010-04-02T17:43:30Z" uid="20587" user="balrog-kun" changeset="4304500">
    <nd ref="51055385"/>
    <nd ref="499588028"/>
    <nd ref="50944096"/>
    <tag k="highway" v="residential"/>
    <tag k="name" v="North Cincinnati Street"/>
  </way>
  <way id="40008789" version="7" timestamp="2012-07-19T04:24:51Z" uid="722137" user="OSMF Redaction Account" changeset="12308020">
    <nd ref="75149494"/>
    <nd ref="480800784"/>
    <nd ref="1456835458"/>
    <nd ref="1456835459"/>
    <tag k="highway" v="residential"/>
    <tag k="maxspeed" v="50"/>
    <tag k="name" v="Gothaer Straße"/>
  </way>
  <way id="40008789" version="8" timestamp="2012-08-21T19:20:46Z" uid="40492" user="thomas17" changeset="12812363">
    <nd ref="75149494"/>
    <nd ref="1876571885"/>
    <nd ref="480800784"/>
    <tag k="highway" v="residential"/>
    <tag k="maxspeed" v="50"/>
    <tag k="name" v="Gothaer Straße"/>
  </way>
  <way id="40008789" version="9" timestamp="2012-08-21T19:20:59Z" uid="40492" user="thomas17" changeset="12812363">
    <nd ref="75149494"/>
    <nd ref="1876572196"/>
    <nd ref="1876571885"/>
    <nd ref="480800784"/>
    <tag k="highway" v="residential"/>
    <tag k="maxspeed" v="50"/>
    <tag k="name" v="Gothaer Straße"/>
  </way>
</osm>
