<?xml version='1.0' encoding='UTF-8'?>
<osm version="0.6" generator="libosmium/2.20.0">
  <way id="40007127" version="2" timestamp="2010-06-29T19:08:38Z" uid="74617" user="JohnSmith" changeset="5108182">
    <nd ref="480772710"/>
    <nd ref="480772711"/>
    <nd ref="480772712"/>
    <nd ref="480772714"/>
    <nd ref="480772710"/>
    <tag k="fixme" v="sport=football is ambiguous, see http://wiki.osm.org/wiki/Football for more details"/>
    <tag k="leisure" v="stadium"/>
    <tag k="name" v="Stadion"/>
    <tag k="sport" v="football"/>
  </way>
  <way id="40007127" version="3" timestamp="2010-11-23T22:46:46Z" uid="365360" user="David Hrivna" changeset="6443360">
    <nd ref="480772710"/>
    <nd ref="480772711"/>
    <nd ref="480772712"/>
    <nd ref="480772714"/>
    <nd ref="480772710"/>
    <tag k="leisure" v="stadium"/>
    <tag k="name" v="Stadion"/>
    <tag k="sport" v="soccer"/>
  </way>
  <way id="40007791" version="2" timestamp="2010-07-08T18:54:52Z" uid="74617" user="JohnSmith" changeset="5167338">
    <nd ref="480779757"/>
    <nd ref="480779759"/>
    <tag k="highway" v="residential"/>
    <tag k="maxspeed" v="50"/>
    <tag k="maxspeed:source" v="default residential speed limit in Australia"/>
    <tag k="name" v="Bruce Court"/>
  </way>
  <way id="40007791" version="3" timestamp="2012-01-19T04:15:50Z" uid="147510" user="woodpeck_fixbot" changeset="10433650">
    <nd ref="480779757"/>
    <nd ref="480779759"/>
    <tag k="highway" v="residential"/>
    <tag k="name" v="Bruce Court"/>
  </way>
  <way id="40007792" version="2" timestamp="2010-07-08T19:06:00Z" uid="74617" user="JohnSmith" changeset="5167338">
    <nd ref="480779764"/>
    <nd ref="480779773"/>
    <nd ref="480779775"/>
    <nd ref="480779778"/>
    <nd ref="480779780"/>
    <nd ref="480779782"/>
    <nd ref="480779784"/>
    <tag k="highway" v="residential"/>
    <tag k="maxspeed" v="50"/>
    <tag k="maxspeed:source" v="default residential speed limit in Australia"/>
    <tag k="name" v="Edan Court"/>
  </way>
  <way id="40007792" version="3" timestamp="2012-01-19T04:15:51Z" uid="147510" user="woodpeck_fixbot" changeset="10433650">
    <nd ref="480779764"/>
    <nd ref="480779773"/>
    <nd ref="480779775"/>
    <nd ref="480779778"/>
    <nd ref="480779780"/>
    <nd ref="480779782"/>
    <nd ref="480779784"/>
    <tag k="highway" v="residential"/>
    <tag k="name" v="Edan Court"/>
  </way>
  <way id="40007793" version="2" timestamp="2010-07-08T19:03:25Z" uid="74617" user="JohnSmith" changeset="5167338">
    <nd ref="480779786"/>
    <nd ref="480779789"/>
    <tag k="highway" v="residential"/>
    <tag k="maxspeed" v="50"/>
    <tag k="maxspeed:source" v="default residential speed limit in Australia"/>
    <tag k="name" v="The Ridgeway"/>
  </way>
  <way id="40007793" version="3" timestamp="2012-01-18T11:25:51Z" uid="98267" user="Plover" changeset="10426441">
    <nd ref="480779786"/>
    <nd ref="1596083301"/>
    <nd ref="480779789"/>
    <tag k="highway" v="residential"/>
    <tag k="maxspeed" v="50"/>
    <tag k="maxspeed:source" v="default residential speed limit in Australia"/>
    <tag k="name" v="The Ridgeway"/>
  </way>
  <way id="40007793" version="4" timestamp="2012-01-19T04:15:52Z" uid="147510" user="woodpeck_fixbot" changeset="10433650">
    <nd ref="480779786"/>
    <nd ref="1596083301"/>
    <nd ref="480779789"/>
    <tag k="highway" v="residential"/>
    <tag k="name" v="The Ridgeway"/>
  </way>
  <way id="40007794" version="2" timestamp="2010-05-01T06:32:18Z" uid="4467" user="Rosscoe" changeset="4571815">
    <nd ref="714794868"/>
    <nd ref="480779791"/>
    <nd ref="480779793"/>
    <nd ref="480779795"/>
    <nd ref="480779802"/>
    <nd ref="480779798"/>
    <nd ref="480779800"/>
    <tag k="highway" v="residential"/>
    <tag k="name" v="Allan Close"/>
  </way>
  <way id="40007794" version="3" timestamp="2010-07-08T18:59:45Z" uid="74617" user="JohnSmith" changeset="5167338">
    <nd ref="714794868"/>
    <nd ref="480779791"/>
    <nd ref="480779793"/>
    <nd ref="480779795"/>
    <nd ref="480779802"/>
    <nd ref="480779798"/>
    <nd ref="480779800"/>
    <tag k="highway" v="residential"/>
    <tag k="maxspeed" v="50"/>
    <tag k="maxspeed:source" v="default residential speed limit in Australia"/>
    <tag k="name" v="Allan Close"/>
  </way>
  <way id="40007794" version="4" timestamp="2012-01-19T04:15:54Z" uid="147510" user="woodpeck_fixbot" changeset="10433650">
    <nd ref="714794868"/>
    <nd ref="480779791"/>
    <nd ref="480779793"/>
    <nd ref="480779795"/>
    <nd ref="480779802"/>
    <nd ref="480779798"/>
    <nd ref="480779800"/>
    <tag k="highway" v="residential"/>
    <tag k="name" v="Allan Close"/>
  </way>
  <way id="40007795" version="2" timestamp="2010-07-08T18:57:23Z" uid="74617" user="JohnSmith" changeset="5167338">
    <nd ref="480779802"/>
    <nd ref="480779804"/>
    <nd ref="480779806"/>
    <tag k="highway" v="residential"/>
    <tag k="maxspeed" v="50"/>
    <tag k="maxspeed:source" v="default residential speed limit in Australia"/>
    <tag k="name" v="Pownceby Court"/>
  </way>
  <way id="40007795" version="3" timestamp="2012-01-19T04:15:56Z" uid="147510" user="woodpeck_fixbot" changeset="10433650">
    <nd ref="480779802"/>
    <nd ref="480779804"/>
    <nd ref="480779806"/>
    <tag k="highway" v="residential"/>
    <tag k="name" v="Pownceby Court"/>
  </way>
  <way id="40007794" version="5" timestamp="2012-07-19T07:37:24Z" uid="722137" user="OSMF Redaction Account" changeset="12312264">
    <nd ref="480779791"/>
    <nd ref="480779793"/>
    <nd ref="480779795"/>
    <nd ref="480779802"/>
    <nd ref="480779798"/>
    <nd ref="480779800"/>
    <tag k="highway" v="residential"/>
    <tag k="name" v="Allan Close"/>
  </way>
</osm>
