<?xml version='1.0' encoding='UTF-8'?>
<osm version="0.6" generator="libosmium/2.20.0">
  <way id="40064144" version="2" timestamp="2009-09-06T15:54:40Z" uid="33382" user="de_muur" changeset="2392756">
    <nd ref="482112548"/>
    <nd ref="482112549"/>
    <nd ref="482112550"/>
    <nd ref="482112551"/>
    <nd ref="482112552"/>
    <nd ref="482112553"/>
    <nd ref="30075289"/>
    <tag k="highway" v="unclassified"/>
    <tag k="maxspeed" v="30"/>
    <tag k="name" v="Herrlichkeit"/>
    <tag k="surface" v="asphalt"/>
  </way>
  <way id="40064148" version="2" timestamp="2009-09-06T15:54:37Z" uid="33382" user="de_muur" changeset="2392756">
    <nd ref="482112561"/>
    <nd ref="482112562"/>
    <nd ref="482112563"/>
    <nd ref="482112572"/>
    <nd ref="482112578"/>
    <nd ref="482112582"/>
    <nd ref="482112583"/>
    <nd ref="30075290"/>
    <tag k="highway" v="residential"/>
    <tag k="maxspeed" v="30"/>
    <tag k="name" v="An der Kirche"/>
  </way>
  <way id="40064153" version="2" timestamp="2009-09-06T15:54:38Z" uid="33382" user="de_muur" changeset="2392756">
    <nd ref="482112578"/>
    <nd ref="482112584"/>
    <nd ref="482112585"/>
    <nd ref="482112587"/>
    <tag k="highway" v="residential"/>
    <tag k="maxspeed" v="30"/>
    <tag k="name" v="Forellenweg"/>
  </way>
  <way id="40064157" version="2" timestamp="2009-09-06T15:54:39Z" uid="33382" user="de_muur" changeset="2392756">
    <nd ref="482112585"/>
    <nd ref="482112548"/>
    <tag k="highway" v="residential"/>
    <tag k="maxspeed" v="30"/>
    <tag k="name" v="Forellenweg"/>
  </way>
  <way id="40064161" version="2" timestamp="2009-09-06T15:54:38Z" uid="33382" user="de_muur" changeset="2392756">
    <nd ref="482112548"/>
    <nd ref="482112591"/>
    <nd ref="482112592"/>
    <nd ref="482112593"/>
    <nd ref="482112594"/>
    <nd ref="30075286"/>
    <tag k="highway" v="residential"/>
    <tag k="maxspeed" v="30"/>
    <tag k="name" v="RolandstraÃŸe"/>
  </way>
  <way id="40064166" version="2" timestamp="2009-09-06T15:54:39Z" uid="33382" user="de_muur" changeset="2392756">
    <nd ref="482112591"/>
    <nd ref="482112595"/>
    <tag k="highway" v="residential"/>
    <tag k="maxspeed" v="30"/>
    <tag k="name" v="An der Schule"/>
  </way>
  <way id="40064166" version="3" timestamp="2009-09-12T16:46:40Z" uid="148668" user="mroewer" changeset="2460039">
    <nd ref="482112591"/>
    <nd ref="494299823"/>
    <nd ref="482112595"/>
    <tag k="highway" v="residential"/>
    <tag k="maxspeed" v="30"/>
    <tag k="name" v="An der Schule"/>
  </way>
  <way id="40064166" version="4" timestamp="2009-10-06T20:22:12Z" uid="148668" user="mroewer" changeset="2765395">
    <nd ref="482112591"/>
    <nd ref="523338072"/>
    <tag k="highway" v="residential"/>
    <tag k="maxspeed" v="30"/>
    <tag k="name" v="An der Schule"/>
  </way>
  <way id="40064266" version="2" timestamp="2009-09-06T15:54:38Z" uid="33382" user="de_muur" changeset="2392756">
    <nd ref="482112898"/>
    <nd ref="482112906"/>
    <nd ref="482112914"/>
    <nd ref="482112920"/>
    <nd ref="482112926"/>
    <tag k="highway" v="residential"/>
    <tag k="maxspeed" v="30"/>
  </way>
  <way id="40064292" version="2" timestamp="2009-09-06T15:54:39Z" uid="33382" user="de_muur" changeset="2392756">
    <nd ref="482112943"/>
    <nd ref="482112944"/>
    <nd ref="482112945"/>
    <nd ref="482112946"/>
    <nd ref="482112947"/>
    <nd ref="482112948"/>
    <nd ref="482112949"/>
    <nd ref="482112950"/>
    <nd ref="482112951"/>
    <nd ref="482112969"/>
    <nd ref="482112953"/>
    <nd ref="482112956"/>
    <tag k="highway" v="unclassified"/>
    <tag k="maxspeed" v="30"/>
    <tag k="name" v="Am Hombach"/>
  </way>
  <way id="40064292" version="3" timestamp="2009-09-12T16:46:40Z" uid="148668" user="mroewer" changeset="2460039">
    <nd ref="482112943"/>
    <nd ref="482112944"/>
    <nd ref="482112945"/>
    <nd ref="482112946"/>
    <nd ref="482112947"/>
    <nd ref="482112948"/>
    <nd ref="482112949"/>
    <nd ref="482112950"/>
    <nd ref="482112951"/>
    <nd ref="482112969"/>
    <nd ref="482112953"/>
    <nd ref="482112956"/>
    <nd ref="494300038"/>
    <nd ref="494300067"/>
    <nd ref="494299936"/>
    <tag k="highway" v="unclassified"/>
    <tag k="maxspeed" v="30"/>
    <tag k="name" v="Am Hombach"/>
  </way>
</osm>
