<?xml version='1.0' encoding='UTF-8'?>
<osm version="0.6" generator="libosmium/2.20.0">
  <way id="40155282" version="4" timestamp="2010-08-04T17:48:09Z" uid="9581" user="Lobelt" changeset="5401263">
    <nd ref="412681299"/>
    <nd ref="412681303"/>
    <nd ref="412681304"/>
    <nd ref="412681306"/>
    <nd ref="412681308"/>
    <nd ref="412681310"/>
    <nd ref="412681312"/>
    <nd ref="412681313"/>
    <tag k="cables" v="4"/>
    <tag k="frequency" v="16.7"/>
    <tag k="name" v="Niedersedlitz - Riesa;Riesa - Muldenstein"/>
    <tag k="operator" v="DB_Energie"/>
    <tag k="power" v="line"/>
    <tag k="voltage" v="110000"/>
    <tag k="wires" v="single"/>
  </way>
  <way id="40155282" version="5" timestamp="2012-03-11T15:40:53Z" uid="92274" user="adjuva" changeset="10943744">
    <nd ref="1670490970"/>
    <nd ref="1670490990"/>
    <nd ref="1670491021"/>
    <nd ref="1670491027"/>
    <nd ref="1670491034"/>
    <nd ref="1670491040"/>
    <nd ref="1670491044"/>
    <nd ref="412681313"/>
    <tag k="cables" v="4"/>
    <tag k="frequency" v="16.7"/>
    <tag k="name" v="Niedersedlitz - Riesa;Riesa - Muldenstein"/>
    <tag k="operator" v="DB_Energie"/>
    <tag k="power" v="line"/>
    <tag k="voltage" v="110000"/>
    <tag k="wires" v="single"/>
  </way>
  <way id="40155636" version="2" timestamp="2010-04-03T13:54:10Z" uid="20587" user="balrog-kun" changeset="4312927">
    <nd ref="84412459"/>
    <nd ref="84403430"/>
    <tag k="highway" v="residential"/>
    <tag k="name" v="Kiesel Avenue"/>
    <tag k="name_1" v="Ogden City Mal"/>
    <tag k="tiger:cfcc" v="A41"/>
    <tag k="tiger:county" v="Weber, UT"/>
    <tag k="tiger:name_base" v="Kiesel"/>
    <tag k="tiger:name_base_1" v="Ogden City"/>
    <tag k="tiger:name_type" v="Ave"/>
    <tag k="tiger:name_type_1" v="Mal"/>
    <tag k="tiger:reviewed" v="no"/>
    <tag k="tiger:separated" v="no"/>
    <tag k="tiger:source" v="tiger_import_dch_v0.6_20070830"/>
    <tag k="tiger:tlid" v="155697151:155697152:155697171:155697173:155697182:155690924"/>
    <tag k="tiger:zip_left" v="84401"/>
    <tag k="tiger:zip_right" v="84401"/>
  </way>
  <way id="40155654" version="2" timestamp="2010-04-03T13:54:10Z" uid="20587" user="balrog-kun" changeset="4312927">
    <nd ref="483503132"/>
    <nd ref="84404690"/>
    <nd ref="84404691"/>
    <nd ref="84404693"/>
    <tag k="highway" v="residential"/>
    <tag k="name" v="Ogden Avenue"/>
    <tag k="tiger:cfcc" v="A41"/>
    <tag k="tiger:county" v="Weber, UT"/>
    <tag k="tiger:name_base" v="Ogden"/>
    <tag k="tiger:name_type" v="Ave"/>
    <tag k="tiger:reviewed" v="no"/>
    <tag k="tiger:separated" v="no"/>
    <tag k="tiger:source" v="tiger_import_dch_v0.6_20070830"/>
    <tag k="tiger:tlid" v="155697155:155697157:155697089:155697091"/>
    <tag k="tiger:zip_left" v="84401"/>
    <tag k="tiger:zip_right" v="84401"/>
  </way>
</osm>
