<?xml version='1.0' encoding='UTF-8'?>
<osm version="0.6" generator="libosmium/2.20.0">
  <way id="4017161" version="16" timestamp="2008-03-30T19:30:17Z" uid="16922" user="amai" changeset="426625">
    <nd ref="616522"/>
    <nd ref="248808081"/>
    <nd ref="616531"/>
    <nd ref="532489"/>
    <nd ref="532488"/>
    <nd ref="7289093"/>
    <nd ref="532462"/>
    <nd ref="532463"/>
    <nd ref="532372"/>
    <nd ref="532466"/>
    <nd ref="254592272"/>
    <nd ref="532468"/>
    <nd ref="532454"/>
    <nd ref="24924439"/>
    <nd ref="532447"/>
    <nd ref="127515180"/>
    <nd ref="251549726"/>
    <nd ref="243169803"/>
    <nd ref="532452"/>
    <tag k="created_by" v="Potlatch 0.8a"/>
    <tag k="highway" v="primary"/>
    <tag k="name" v="Landgraf-Georg-Straße"/>
    <tag k="ref" v="B26"/>
  </way>
  <way id="4017161" version="17" timestamp="2008-03-30T19:31:07Z" uid="16922" user="amai" changeset="426625">
    <nd ref="616522"/>
    <nd ref="248808081"/>
    <nd ref="616531"/>
    <nd ref="532489"/>
    <nd ref="532488"/>
    <nd ref="7289093"/>
    <nd ref="532462"/>
    <nd ref="532463"/>
    <nd ref="532372"/>
    <nd ref="532466"/>
    <nd ref="254592272"/>
    <nd ref="532468"/>
    <nd ref="532454"/>
    <nd ref="24924439"/>
    <nd ref="532447"/>
    <nd ref="127515180"/>
    <nd ref="251549726"/>
    <nd ref="243169803"/>
    <nd ref="532452"/>
    <tag k="created_by" v="Potlatch 0.8a"/>
    <tag k="highway" v="primary"/>
    <tag k="name" v="Landgraf-Georg-Straße"/>
    <tag k="ref" v="B26"/>
  </way>
  <way id="4017161" version="18" timestamp="2008-03-30T19:31:35Z" uid="16922" user="amai" changeset="426625">
    <nd ref="616522"/>
    <nd ref="248808081"/>
    <nd ref="616531"/>
    <nd ref="532489"/>
    <nd ref="532488"/>
    <nd ref="7289093"/>
    <nd ref="532462"/>
    <nd ref="532463"/>
    <nd ref="532372"/>
    <nd ref="532466"/>
    <nd ref="254592272"/>
    <nd ref="532468"/>
    <nd ref="532454"/>
    <nd ref="24924439"/>
    <nd ref="532447"/>
    <nd ref="127515180"/>
    <nd ref="251549726"/>
    <nd ref="243169803"/>
    <nd ref="532452"/>
    <tag k="created_by" v="Potlatch 0.8a"/>
    <tag k="highway" v="primary"/>
    <tag k="name" v="Landgraf-Georg-Straße"/>
    <tag k="ref" v="B26"/>
  </way>
  <way id="4017161" version="19" timestamp="2008-05-06T22:32:41Z" uid="23785" user="Simon Kokolakis" changeset="353453">
    <nd ref="616522"/>
    <nd ref="248808081"/>
    <nd ref="616531"/>
    <nd ref="532489"/>
    <nd ref="532488"/>
    <nd ref="7289093"/>
    <nd ref="532462"/>
    <nd ref="532463"/>
    <nd ref="532372"/>
    <nd ref="532466"/>
    <nd ref="254592272"/>
    <nd ref="532468"/>
    <nd ref="532454"/>
    <nd ref="24924439"/>
    <nd ref="532447"/>
    <nd ref="127515180"/>
    <nd ref="251549726"/>
    <nd ref="243169803"/>
    <nd ref="532452"/>
    <tag k="created_by" v="Potlatch 0.8c"/>
    <tag k="highway" v="primary"/>
    <tag k="name" v="Landgraf-Georg-Straße"/>
    <tag k="ref" v="B26"/>
  </way>
  <way id="4017161" version="20" timestamp="2008-05-06T22:33:08Z" uid="23785" user="Simon Kokolakis" changeset="353453">
    <nd ref="616522"/>
    <nd ref="248808081"/>
    <nd ref="616531"/>
    <nd ref="532489"/>
    <nd ref="262564560"/>
    <nd ref="532488"/>
    <nd ref="7289093"/>
    <nd ref="532462"/>
    <nd ref="532463"/>
    <nd ref="532372"/>
    <nd ref="532466"/>
    <nd ref="254592272"/>
    <nd ref="532468"/>
    <nd ref="532454"/>
    <nd ref="24924439"/>
    <nd ref="532447"/>
    <nd ref="127515180"/>
    <nd ref="251549726"/>
    <nd ref="243169803"/>
    <nd ref="532452"/>
    <tag k="created_by" v="Potlatch 0.8c"/>
    <tag k="highway" v="primary"/>
    <tag k="name" v="Landgraf-Georg-Straße"/>
    <tag k="ref" v="B26"/>
  </way>
  <way id="4017161" version="21" timestamp="2008-05-07T10:02:33Z" uid="23785" user="Simon Kokolakis" changeset="355179">
    <nd ref="616522"/>
    <nd ref="248808081"/>
    <nd ref="616531"/>
    <nd ref="532489"/>
    <nd ref="262564560"/>
    <nd ref="532488"/>
    <nd ref="7289093"/>
    <nd ref="532462"/>
    <nd ref="532463"/>
    <nd ref="532372"/>
    <nd ref="532466"/>
    <nd ref="254592272"/>
    <nd ref="532468"/>
    <nd ref="532454"/>
    <nd ref="24924439"/>
    <nd ref="532447"/>
    <nd ref="127515180"/>
    <nd ref="251549726"/>
    <nd ref="243169803"/>
    <nd ref="532452"/>
    <tag k="created_by" v="Potlatch 0.8c"/>
    <tag k="highway" v="primary"/>
    <tag k="name" v="Landgraf-Georg-Straße"/>
    <tag k="ref" v="B26"/>
  </way>
  <way id="4017161" version="22" timestamp="2008-06-07T23:04:58Z" uid="24920" user="Schusch" changeset="93571">
    <nd ref="616522"/>
    <nd ref="248808081"/>
    <nd ref="616531"/>
    <nd ref="532489"/>
    <nd ref="262564560"/>
    <nd ref="532488"/>
    <nd ref="7289093"/>
    <nd ref="532462"/>
    <nd ref="532463"/>
    <nd ref="532372"/>
    <nd ref="532466"/>
    <nd ref="254592272"/>
    <nd ref="532468"/>
    <nd ref="532454"/>
    <nd ref="24924439"/>
    <nd ref="532447"/>
    <nd ref="127515180"/>
    <nd ref="251549726"/>
    <nd ref="243169803"/>
    <nd ref="532452"/>
    <tag k="created_by" v="Potlatch 0.9c"/>
    <tag k="highway" v="primary"/>
    <tag k="name" v="Landgraf-Georg-Straße"/>
    <tag k="ref" v="B 26"/>
  </way>
  <way id="4017161" version="23" timestamp="2008-09-08T15:15:40Z" uid="61927" user="AlexPleiner" changeset="579186">
    <nd ref="616522"/>
    <nd ref="248808081"/>
    <nd ref="616531"/>
    <nd ref="532489"/>
    <nd ref="262564560"/>
    <nd ref="532488"/>
    <nd ref="7289093"/>
    <nd ref="532462"/>
    <nd ref="532463"/>
    <nd ref="532372"/>
    <nd ref="532466"/>
    <nd ref="295076996"/>
    <tag k="created_by" v="Potlatch 0.9c"/>
    <tag k="highway" v="primary"/>
    <tag k="name" v="Landgraf-Georg-Straße"/>
    <tag k="ref" v="B 26"/>
  </way>
  <way id="4017161" version="24" timestamp="2008-11-17T17:03:33Z" uid="70621" user="BikeMap" changeset="760050">
    <nd ref="616522"/>
    <nd ref="248808081"/>
    <nd ref="616531"/>
    <nd ref="532489"/>
    <nd ref="262564560"/>
    <nd ref="532488"/>
    <nd ref="7289093"/>
    <nd ref="532462"/>
    <nd ref="532463"/>
    <nd ref="532372"/>
    <nd ref="295076996"/>
    <tag k="created_by" v="Potlatch 0.9c"/>
    <tag k="highway" v="primary"/>
    <tag k="name" v="Landgraf-Georg-Straße"/>
    <tag k="ref" v="B 26"/>
  </way>
  <way id="4017161" version="25" timestamp="2009-02-16T11:49:56Z" uid="23785" user="Simon Kokolakis" changeset="482516">
    <nd ref="616522"/>
    <nd ref="248808081"/>
    <nd ref="616531"/>
    <nd ref="532489"/>
    <nd ref="262564560"/>
    <nd ref="532488"/>
    <nd ref="7289093"/>
    <nd ref="532462"/>
    <nd ref="532463"/>
    <nd ref="532372"/>
    <nd ref="295076996"/>
    <tag k="created_by" v="Potlatch 0.10f"/>
    <tag k="highway" v="primary"/>
    <tag k="name" v="Landgraf-Georg-Straße"/>
    <tag k="ref" v="B 26"/>
  </way>
  <way id="4017161" version="26" timestamp="2009-04-24T03:33:34Z" uid="118047" user="Kraftfahrstraßen" changeset="922548">
    <nd ref="616522"/>
    <nd ref="248808081"/>
    <nd ref="382857874"/>
    <nd ref="616531"/>
    <nd ref="532489"/>
    <nd ref="262564560"/>
    <nd ref="532488"/>
    <nd ref="7289093"/>
    <nd ref="532462"/>
    <nd ref="532463"/>
    <nd ref="532372"/>
    <nd ref="295076996"/>
    <tag k="created_by" v="Potlatch 0.10f"/>
    <tag k="highway" v="primary"/>
    <tag k="name" v="Landgraf-Georg-Straße"/>
    <tag k="ref" v="B 26"/>
  </way>
  <way id="4017161" version="27" timestamp="2009-04-24T07:23:20Z" uid="22369" user="aylex" changeset="923834">
    <nd ref="616522"/>
    <nd ref="248808081"/>
    <nd ref="382857874"/>
    <nd ref="616531"/>
    <tag k="created_by" v="Potlatch 0.10f"/>
    <tag k="highway" v="primary"/>
    <tag k="name" v="Landgraf-Georg-Straße"/>
    <tag k="ref" v="B 26"/>
  </way>
  <way id="4017161" version="28" timestamp="2009-10-27T13:33:24Z" uid="179103" user="pabrabbin" changeset="2965196">
    <nd ref="616522"/>
    <nd ref="248808081"/>
    <nd ref="382857874"/>
    <nd ref="616531"/>
    <tag k="highway" v="primary"/>
    <tag k="name" v="Landgraf-Georg-Straße"/>
    <tag k="ref" v="B 26"/>
  </way>
  <way id="4017161" version="29" timestamp="2010-02-16T23:07:15Z" uid="77348" user="chrissibo" changeset="3897241">
    <nd ref="616522"/>
    <nd ref="248808081"/>
    <nd ref="642458746"/>
    <nd ref="382857874"/>
    <nd ref="616531"/>
    <tag k="highway" v="primary"/>
    <tag k="name" v="Landgraf-Georg-Straße"/>
    <tag k="ref" v="B 26"/>
  </way>
  <way id="4017161" version="30" timestamp="2010-03-24T14:44:23Z" uid="77348" user="chrissibo" changeset="4221691">
    <nd ref="616522"/>
    <nd ref="673423410"/>
    <tag k="highway" v="primary"/>
    <tag k="name" v="Landgraf-Georg-Straße"/>
    <tag k="ref" v="B 26"/>
  </way>
  <way id="4017161" version="31" timestamp="2010-04-23T23:43:04Z" uid="263596" user="Oberförster" changeset="4508510">
    <nd ref="616522"/>
    <nd ref="673423410"/>
    <tag k="highway" v="primary"/>
    <tag k="layer" v="-1"/>
    <tag k="name" v="Landgraf-Georg-Straße"/>
    <tag k="ref" v="B 26"/>
  </way>
  <way id="4017161" version="32" timestamp="2010-04-26T08:16:44Z" uid="61927" user="AlexPleiner" changeset="4529361">
    <nd ref="616522"/>
    <nd ref="673423410"/>
    <tag k="highway" v="primary"/>
    <tag k="name" v="Landgraf-Georg-Straße"/>
    <tag k="ref" v="B 26"/>
  </way>
  <way id="4017161" version="33" timestamp="2010-07-25T12:53:23Z" uid="77348" user="chrissibo" changeset="5311602">
    <nd ref="616522"/>
    <nd ref="673423410"/>
    <tag k="highway" v="primary"/>
    <tag k="maxspeed" v="50"/>
    <tag k="name" v="Landgraf-Georg-Straße"/>
    <tag k="ref" v="B 26"/>
  </way>
  <way id="4017161" version="34" timestamp="2012-02-12T14:06:46Z" uid="55687" user="dschuwa" changeset="10663263"/>
  <way id="4017182" version="3" timestamp="2008-10-15T12:06:46Z" uid="27600" user="Islanit" changeset="345807">
    <nd ref="21264387"/>
    <nd ref="304765729"/>
    <nd ref="21288912"/>
    <tag k="created_by" v="Potlatch 0.10e"/>
    <tag k="highway" v="residential"/>
    <tag k="name" v="Richterstraße"/>
  </way>
  <way id="4017182" version="4" timestamp="2008-10-15T12:06:51Z" uid="27600" user="Islanit" changeset="345807">
    <nd ref="21264387"/>
    <nd ref="304765729"/>
    <nd ref="304765730"/>
    <nd ref="21288912"/>
    <tag k="created_by" v="Potlatch 0.10e"/>
    <tag k="highway" v="residential"/>
    <tag k="name" v="Richterstraße"/>
  </way>
  <way id="4017182" version="5" timestamp="2011-01-08T17:02:11Z" uid="26492" user="phobie" changeset="6906198">
    <nd ref="21264387"/>
    <nd ref="304765729"/>
    <nd ref="304765730"/>
    <nd ref="21288912"/>
    <tag k="highway" v="residential"/>
    <tag k="name" v="Richterstraße"/>
  </way>
  <way id="4017182" version="6" timestamp="2011-11-05T18:48:22Z" uid="156896" user="lebsanbe" changeset="9749268">
    <nd ref="21264387"/>
    <nd ref="1492613603"/>
    <nd ref="1492613602"/>
    <nd ref="1492613605"/>
    <nd ref="304765729"/>
    <nd ref="304765730"/>
    <nd ref="21288912"/>
    <tag k="highway" v="residential"/>
    <tag k="name" v="Richterstraße"/>
  </way>
  <way id="4017183" version="3" timestamp="2008-10-15T12:06:45Z" uid="27600" user="Islanit" changeset="345807">
    <nd ref="21288913"/>
    <nd ref="304765729"/>
    <nd ref="21288916"/>
    <tag k="created_by" v="Potlatch 0.10e"/>
    <tag k="highway" v="residential"/>
    <tag k="name" v="Hayssenstraße"/>
  </way>
  <way id="4017183" version="4" timestamp="2011-01-08T17:02:09Z" uid="26492" user="phobie" changeset="6906198">
    <nd ref="21288913"/>
    <nd ref="304765729"/>
    <nd ref="21288916"/>
    <tag k="highway" v="residential"/>
    <tag k="name" v="Hayssenstraße"/>
  </way>
  <way id="4017183" version="5" timestamp="2011-11-06T07:38:39Z" uid="156896" user="lebsanbe" changeset="9752822">
    <nd ref="21288913"/>
    <nd ref="304765729"/>
    <nd ref="1493017727"/>
    <nd ref="21288916"/>
    <tag k="highway" v="residential"/>
    <tag k="name" v="Hayssenstraße"/>
  </way>
  <way id="4017183" version="6" timestamp="2012-01-14T14:34:16Z" uid="157939" user="0x5d62" changeset="10388239">
    <nd ref="21288913"/>
    <nd ref="304765729"/>
    <nd ref="1493017727"/>
    <nd ref="21288916"/>
    <tag k="highway" v="residential"/>
    <tag k="name" v="Hayßenstraße"/>
  </way>
  <way id="4017184" version="4" timestamp="2008-10-15T12:06:50Z" uid="27600" user="Islanit" changeset="345807">
    <nd ref="21288914"/>
    <nd ref="304765730"/>
    <nd ref="21288915"/>
    <tag k="created_by" v="Potlatch 0.10e"/>
    <tag k="highway" v="residential"/>
    <tag k="name" v="Lütjohannstraße"/>
  </way>
  <way id="4017184" version="5" timestamp="2011-01-08T17:02:07Z" uid="26492" user="phobie" changeset="6906198">
    <nd ref="21288914"/>
    <nd ref="304765730"/>
    <nd ref="21288915"/>
    <tag k="highway" v="residential"/>
    <tag k="name" v="Lütjohannstraße"/>
  </way>
  <way id="4017256" version="2" timestamp="2008-03-20T15:27:31Z" uid="16922" user="amai" changeset="355923">
    <nd ref="2388447"/>
    <nd ref="2388448"/>
    <nd ref="2388450"/>
    <nd ref="2388451"/>
    <nd ref="2388452"/>
    <nd ref="2388453"/>
    <nd ref="2388454"/>
    <nd ref="2388455"/>
    <nd ref="2388456"/>
    <nd ref="2388457"/>
    <nd ref="2388458"/>
    <nd ref="2388459"/>
    <nd ref="2388460"/>
    <nd ref="2388462"/>
    <nd ref="2388463"/>
    <nd ref="2388485"/>
    <nd ref="2388486"/>
    <nd ref="2388487"/>
    <nd ref="2388488"/>
    <nd ref="2388489"/>
    <nd ref="2388490"/>
    <nd ref="2388491"/>
    <nd ref="2388492"/>
    <nd ref="2388493"/>
    <nd ref="2388494"/>
    <nd ref="2388495"/>
    <nd ref="2388496"/>
    <nd ref="2388497"/>
    <nd ref="2388498"/>
    <nd ref="2388499"/>
    <nd ref="2388500"/>
    <nd ref="2388501"/>
    <nd ref="2388502"/>
    <nd ref="2388503"/>
    <tag k="created_by" v="Potlatch 0.7b"/>
    <tag k="highway" v="secondary"/>
    <tag k="layer" v="1"/>
    <tag k="name" v="Aschaffenburger Straße"/>
  </way>
  <way id="4017256" version="3" timestamp="2008-03-22T19:08:33Z" uid="30867" user="mrewald" changeset="373986">
    <nd ref="2388447"/>
    <nd ref="2388448"/>
    <nd ref="2388450"/>
    <nd ref="2388451"/>
    <nd ref="2388452"/>
    <nd ref="253386897"/>
    <nd ref="2388453"/>
    <nd ref="2388454"/>
    <nd ref="2388455"/>
    <nd ref="2388456"/>
    <nd ref="2388457"/>
    <nd ref="2388458"/>
    <nd ref="2388459"/>
    <nd ref="2388460"/>
    <nd ref="2388462"/>
    <nd ref="2388463"/>
    <nd ref="2388485"/>
    <nd ref="2388486"/>
    <nd ref="2388487"/>
    <nd ref="2388488"/>
    <nd ref="2388489"/>
    <nd ref="2388490"/>
    <nd ref="2388491"/>
    <nd ref="2388492"/>
    <nd ref="2388493"/>
    <nd ref="2388494"/>
    <nd ref="2388495"/>
    <nd ref="2388496"/>
    <nd ref="2388497"/>
    <nd ref="2388498"/>
    <nd ref="2388499"/>
    <nd ref="2388500"/>
    <nd ref="2388501"/>
    <nd ref="2388502"/>
    <nd ref="2388503"/>
    <tag k="created_by" v="Potlatch 0.7b"/>
    <tag k="highway" v="secondary"/>
    <tag k="layer" v="1"/>
    <tag k="name" v="Aschaffenburger Straße"/>
  </way>
  <way id="4017256" version="4" timestamp="2008-03-30T00:00:08Z" uid="4515" user="Elrond" changeset="422650">
    <nd ref="253386897"/>
    <nd ref="2388453"/>
    <nd ref="2388454"/>
    <nd ref="2388455"/>
    <nd ref="2388456"/>
    <nd ref="2388457"/>
    <nd ref="2388458"/>
    <nd ref="2388459"/>
    <nd ref="2388460"/>
    <nd ref="2388462"/>
    <nd ref="2388463"/>
    <nd ref="2388485"/>
    <nd ref="2388486"/>
    <nd ref="2388487"/>
    <nd ref="2388488"/>
    <nd ref="2388489"/>
    <nd ref="2388490"/>
    <nd ref="2388491"/>
    <nd ref="2388492"/>
    <nd ref="2388493"/>
    <nd ref="2388494"/>
    <nd ref="2388495"/>
    <nd ref="2388496"/>
    <nd ref="2388497"/>
    <nd ref="2388498"/>
    <nd ref="2388499"/>
    <nd ref="2388500"/>
    <nd ref="2388501"/>
    <nd ref="2388502"/>
    <nd ref="2388503"/>
    <tag k="created_by" v="Potlatch 0.7b"/>
    <tag k="highway" v="secondary"/>
    <tag k="layer" v="1"/>
    <tag k="name" v="Aschaffenburger Straße"/>
  </way>
  <way id="4017256" version="5" timestamp="2008-03-30T00:08:03Z" uid="4515" user="Elrond" changeset="422650">
    <nd ref="2388485"/>
    <nd ref="2388486"/>
    <nd ref="2388487"/>
    <nd ref="2388488"/>
    <nd ref="2388489"/>
    <nd ref="2388490"/>
    <nd ref="2388491"/>
    <nd ref="2388492"/>
    <nd ref="2388493"/>
    <nd ref="2388494"/>
    <nd ref="2388495"/>
    <nd ref="2388496"/>
    <nd ref="2388497"/>
    <nd ref="2388498"/>
    <nd ref="2388499"/>
    <nd ref="2388500"/>
    <nd ref="2388501"/>
    <nd ref="2388502"/>
    <nd ref="2388503"/>
    <tag k="created_by" v="Potlatch 0.7b"/>
    <tag k="highway" v="secondary"/>
    <tag k="layer" v="1"/>
    <tag k="name" v="Aschaffenburger Straße"/>
  </way>
  <way id="4017256" version="6" timestamp="2008-03-30T19:09:28Z" uid="16922" user="amai" changeset="426625">
    <nd ref="2388485"/>
    <nd ref="2388486"/>
    <nd ref="2388487"/>
    <tag k="created_by" v="Potlatch 0.8a"/>
    <tag k="highway" v="secondary"/>
    <tag k="layer" v="1"/>
    <tag k="name" v="Aschaffenburger Straße"/>
  </way>
  <way id="4017256" version="7" timestamp="2008-03-30T19:09:38Z" uid="16922" user="amai" changeset="426625">
    <nd ref="2388485"/>
    <nd ref="2388486"/>
    <nd ref="2388487"/>
    <tag k="bridge" v="yes"/>
    <tag k="created_by" v="Potlatch 0.8a"/>
    <tag k="highway" v="secondary"/>
    <tag k="layer" v="1"/>
    <tag k="name" v="Aschaffenburger Straße"/>
  </way>
  <way id="4017256" version="8" timestamp="2009-10-19T08:34:36Z" uid="11008" user="spacer1971" changeset="2891928">
    <nd ref="2388485"/>
    <nd ref="2388487"/>
    <tag k="bridge" v="yes"/>
    <tag k="highway" v="secondary"/>
    <tag k="layer" v="1"/>
    <tag k="name" v="Aschaffenburger Straße"/>
  </way>
  <way id="4017256" version="9" timestamp="2010-02-25T16:08:13Z" uid="39240" user="Seehundeführer" changeset="3972845">
    <nd ref="2388485"/>
    <nd ref="2388487"/>
    <tag k="bridge" v="yes"/>
    <tag k="highway" v="secondary"/>
    <tag k="layer" v="1"/>
    <tag k="name" v="Aschaffenburger Straße"/>
  </way>
  <way id="4017256" version="10" timestamp="2011-03-06T19:03:55Z" uid="21038" user="Joachim Schneider" changeset="7477174">
    <nd ref="2388485"/>
    <nd ref="1189764232"/>
    <nd ref="2388487"/>
    <tag k="bridge" v="yes"/>
    <tag k="highway" v="secondary"/>
    <tag k="layer" v="1"/>
    <tag k="name" v="Aschaffenburger Straße"/>
  </way>
  <way id="4017409" version="4" timestamp="2008-03-30T19:11:12Z" uid="16922" user="amai" changeset="426625">
    <nd ref="616511"/>
    <nd ref="616512"/>
    <nd ref="616513"/>
    <nd ref="616514"/>
    <nd ref="616515"/>
    <nd ref="2448007"/>
    <tag k="created_by" v="Potlatch 0.8a"/>
    <tag k="highway" v="primary"/>
    <tag k="loc_ref" v="Hanauer Straße"/>
    <tag k="name" v="B26"/>
  </way>
  <way id="4017409" version="5" timestamp="2008-05-04T20:30:08Z" uid="4515" user="Elrond" changeset="332182">
    <nd ref="616511"/>
    <nd ref="616512"/>
    <nd ref="616513"/>
    <nd ref="616514"/>
    <tag k="created_by" v="Potlatch 0.8a"/>
    <tag k="highway" v="primary"/>
    <tag k="loc_ref" v="Hanauer Straße"/>
    <tag k="name" v="B26"/>
  </way>
  <way id="4017409" version="6" timestamp="2008-05-28T23:02:08Z" uid="23785" user="Simon Kokolakis" changeset="544223">
    <nd ref="616511"/>
    <nd ref="267290098"/>
    <nd ref="616512"/>
    <nd ref="616513"/>
    <nd ref="616514"/>
    <tag k="created_by" v="Potlatch 0.9b"/>
    <tag k="highway" v="primary"/>
    <tag k="loc_ref" v="Hanauer Straße"/>
    <tag k="name" v="B26"/>
  </way>
  <way id="4017409" version="7" timestamp="2008-06-19T01:23:50Z" uid="24920" user="Schusch" changeset="220303">
    <nd ref="616511"/>
    <nd ref="267290098"/>
    <nd ref="616512"/>
    <nd ref="616513"/>
    <nd ref="616514"/>
    <tag k="created_by" v="Potlatch 0.9c"/>
    <tag k="highway" v="primary"/>
    <tag k="name" v="Hanauer Straße"/>
    <tag k="ref" v="B 26"/>
  </way>
  <way id="4017409" version="8" timestamp="2009-02-16T11:51:12Z" uid="23785" user="Simon Kokolakis" changeset="482516">
    <nd ref="616511"/>
    <nd ref="267290098"/>
    <nd ref="616512"/>
    <nd ref="616513"/>
    <nd ref="616514"/>
    <tag k="created_by" v="Potlatch 0.10f"/>
    <tag k="highway" v="primary"/>
    <tag k="name" v="Hanauer Straße"/>
    <tag k="ref" v="B 26"/>
  </way>
  <way id="4017409" version="9" timestamp="2009-02-16T12:06:37Z" uid="23785" user="Simon Kokolakis" changeset="482516">
    <nd ref="616511"/>
    <nd ref="267290098"/>
    <nd ref="616512"/>
    <nd ref="616513"/>
    <nd ref="616514"/>
    <tag k="created_by" v="Potlatch 0.10f"/>
    <tag k="highway" v="primary"/>
    <tag k="name" v="Hanauer Straße"/>
    <tag k="ref" v="B 26"/>
  </way>
  <way id="4017409" version="10" timestamp="2009-02-16T12:07:23Z" uid="23785" user="Simon Kokolakis" changeset="482516">
    <nd ref="616511"/>
    <nd ref="267290098"/>
    <nd ref="616512"/>
    <nd ref="616513"/>
    <nd ref="616514"/>
    <tag k="created_by" v="Potlatch 0.10f"/>
    <tag k="highway" v="primary"/>
    <tag k="name" v="Hanauer Straße"/>
    <tag k="ref" v="B 26"/>
  </way>
  <way id="4017409" version="11" timestamp="2009-04-22T02:09:00Z" uid="118047" user="Kraftfahrstraßen" changeset="891013">
    <nd ref="616511"/>
    <nd ref="267290098"/>
    <nd ref="616512"/>
    <nd ref="616513"/>
    <nd ref="616514"/>
    <tag k="created_by" v="Potlatch 0.10f"/>
    <tag k="highway" v="trunk"/>
    <tag k="name" v="Hanauer Straße"/>
    <tag k="ref" v="B 26"/>
  </way>
  <way id="4017409" version="12" timestamp="2009-05-25T10:58:35Z" uid="23785" user="Simon Kokolakis" changeset="1315352">
    <nd ref="616511"/>
    <nd ref="267290098"/>
    <nd ref="616512"/>
    <nd ref="616513"/>
    <nd ref="616514"/>
    <tag k="created_by" v="Potlatch 0.10f"/>
    <tag k="highway" v="primary"/>
    <tag k="name" v="Hanauer Straße"/>
    <tag k="ref" v="B 26"/>
  </way>
  <way id="4017409" version="13" timestamp="2009-06-05T21:34:42Z" uid="118047" user="Kraftfahrstraßen" changeset="1433378">
    <nd ref="616511"/>
    <nd ref="267290098"/>
    <nd ref="616512"/>
    <nd ref="616513"/>
    <nd ref="616514"/>
    <tag k="created_by" v="Potlatch 0.10f"/>
    <tag k="highway" v="trunk"/>
    <tag k="name" v="Hanauer Straße"/>
    <tag k="ref" v="B 26"/>
  </way>
  <way id="4017409" version="14" timestamp="2009-06-07T22:40:01Z" uid="24920" user="Schusch" changeset="1454339">
    <nd ref="616511"/>
    <nd ref="267290098"/>
    <nd ref="616512"/>
    <nd ref="616513"/>
    <nd ref="616514"/>
    <tag k="highway" v="primary"/>
    <tag k="name" v="Hanauer Straße"/>
    <tag k="ref" v="B 26"/>
  </way>
  <way id="4017409" version="15" timestamp="2009-08-18T05:14:35Z" uid="154917" user="forstwald" changeset="2185320">
    <nd ref="616511"/>
    <nd ref="267290098"/>
    <nd ref="616512"/>
    <nd ref="616513"/>
    <nd ref="616514"/>
    <tag k="highway" v="primary"/>
    <tag k="motorroad" v="yes"/>
    <tag k="name" v="Hanauer Straße"/>
    <tag k="ref" v="B 26"/>
  </way>
  <way id="4017409" version="16" timestamp="2010-01-27T09:53:00Z" uid="61927" user="AlexPleiner" changeset="3726341">
    <nd ref="616511"/>
    <nd ref="267290098"/>
    <nd ref="616512"/>
    <nd ref="616513"/>
    <nd ref="616514"/>
    <tag k="foot" v="no"/>
    <tag k="highway" v="primary"/>
    <tag k="motorroad" v="yes"/>
    <tag k="name" v="Hanauer Straße"/>
    <tag k="ref" v="B 26"/>
  </way>
  <way id="4017409" version="17" timestamp="2010-02-01T19:17:58Z" uid="16922" user="amai" changeset="3770380">
    <nd ref="616511"/>
    <nd ref="267290098"/>
    <nd ref="616512"/>
    <nd ref="616513"/>
    <nd ref="616514"/>
    <tag k="foot" v="no"/>
    <tag k="highway" v="primary"/>
    <tag k="maxspeed" v="70"/>
    <tag k="motorroad" v="yes"/>
    <tag k="name" v="Hanauer Straße"/>
    <tag k="ref" v="B 26"/>
  </way>
  <way id="4017409" version="18" timestamp="2012-03-17T14:16:33Z" uid="55687" user="dschuwa" changeset="11008343"/>
  <way id="4017413" version="2" timestamp="2008-12-11T08:01:01Z" uid="42564" user="Max sonnelid" changeset="321209">
    <nd ref="18021138"/>
    <nd ref="18021123"/>
    <nd ref="317901494"/>
    <nd ref="18021121"/>
    <nd ref="27126140"/>
    <nd ref="18021120"/>
    <nd ref="18021119"/>
    <nd ref="18021118"/>
    <nd ref="18021117"/>
    <nd ref="18021116"/>
    <nd ref="18021115"/>
    <nd ref="18021113"/>
    <nd ref="18021112"/>
    <nd ref="18021111"/>
    <nd ref="18021110"/>
    <nd ref="18021108"/>
    <nd ref="18021107"/>
    <nd ref="18021106"/>
    <nd ref="18021105"/>
    <nd ref="18021103"/>
    <nd ref="18021102"/>
    <nd ref="18021101"/>
    <nd ref="18021100"/>
    <nd ref="18021098"/>
    <nd ref="18021097"/>
    <nd ref="18021095"/>
    <nd ref="18021094"/>
    <nd ref="27252154"/>
    <nd ref="18021092"/>
    <nd ref="18021091"/>
    <nd ref="18021090"/>
    <nd ref="18021089"/>
    <nd ref="18021087"/>
    <nd ref="18021086"/>
    <nd ref="18021084"/>
    <nd ref="18021083"/>
    <nd ref="18021081"/>
    <nd ref="18021080"/>
    <nd ref="18021079"/>
    <nd ref="18021078"/>
    <nd ref="18021077"/>
    <nd ref="18021076"/>
    <nd ref="18021075"/>
    <nd ref="18021074"/>
    <nd ref="18021073"/>
    <nd ref="18021072"/>
    <nd ref="18021071"/>
    <nd ref="18021070"/>
    <nd ref="18021069"/>
    <nd ref="18021068"/>
    <nd ref="18021067"/>
    <nd ref="18021066"/>
    <nd ref="18021065"/>
    <nd ref="18021064"/>
    <nd ref="18021063"/>
    <nd ref="18021062"/>
    <nd ref="18021061"/>
    <nd ref="18021060"/>
    <nd ref="18021059"/>
    <nd ref="18021058"/>
    <nd ref="18021057"/>
    <nd ref="18021056"/>
    <nd ref="18021055"/>
    <nd ref="18021054"/>
    <nd ref="18021053"/>
    <nd ref="18021052"/>
    <nd ref="18021051"/>
    <nd ref="18021050"/>
    <nd ref="18021049"/>
    <nd ref="18021048"/>
    <nd ref="18021047"/>
    <nd ref="18021046"/>
    <nd ref="18021045"/>
    <nd ref="18021044"/>
    <nd ref="18021043"/>
    <nd ref="18021042"/>
    <nd ref="18021041"/>
    <nd ref="18021040"/>
    <nd ref="18021039"/>
    <nd ref="18021038"/>
    <nd ref="18021037"/>
    <nd ref="18021036"/>
    <nd ref="18021035"/>
    <nd ref="18021034"/>
    <nd ref="18021033"/>
    <nd ref="18021032"/>
    <nd ref="18021031"/>
    <nd ref="18021030"/>
    <nd ref="18021029"/>
    <nd ref="18021028"/>
    <nd ref="18021027"/>
    <nd ref="18021026"/>
    <nd ref="18021025"/>
    <nd ref="18021024"/>
    <nd ref="18021023"/>
    <nd ref="18021022"/>
    <nd ref="18021021"/>
    <nd ref="18021020"/>
    <nd ref="18021019"/>
    <nd ref="12373798"/>
    <tag k="created_by" v="Potlatch 0.10f"/>
    <tag k="highway" v="primary"/>
    <tag k="name" v="Riksväg 63"/>
    <tag k="ref" v="63"/>
  </way>
  <way id="4017413" version="3" timestamp="2009-02-03T22:27:26Z" uid="33169" user="MickeL" changeset="116369">
    <nd ref="18021138"/>
    <nd ref="18021123"/>
    <nd ref="317901494"/>
    <nd ref="18021121"/>
    <nd ref="27126140"/>
    <nd ref="18021120"/>
    <nd ref="18021119"/>
    <nd ref="18021118"/>
    <nd ref="18021117"/>
    <nd ref="18021116"/>
    <nd ref="18021115"/>
    <nd ref="18021113"/>
    <nd ref="18021112"/>
    <nd ref="18021111"/>
    <nd ref="18021110"/>
    <nd ref="18021108"/>
    <nd ref="18021107"/>
    <nd ref="18021106"/>
    <nd ref="18021105"/>
    <nd ref="18021103"/>
    <nd ref="18021102"/>
    <nd ref="18021101"/>
    <nd ref="18021100"/>
    <nd ref="18021098"/>
    <nd ref="18021097"/>
    <nd ref="18021095"/>
    <nd ref="18021094"/>
    <nd ref="27252154"/>
    <nd ref="18021092"/>
    <nd ref="18021091"/>
    <nd ref="18021090"/>
    <nd ref="18021089"/>
    <nd ref="18021087"/>
    <nd ref="18021086"/>
    <nd ref="18021084"/>
    <nd ref="18021083"/>
    <nd ref="18021081"/>
    <nd ref="18021080"/>
    <nd ref="18021079"/>
    <nd ref="18021078"/>
    <nd ref="18021077"/>
    <nd ref="18021076"/>
    <nd ref="18021075"/>
    <nd ref="18021074"/>
    <nd ref="18021073"/>
    <nd ref="18021072"/>
    <nd ref="18021071"/>
    <nd ref="18021070"/>
    <nd ref="18021069"/>
    <nd ref="18021068"/>
    <nd ref="18021067"/>
    <nd ref="18021066"/>
    <nd ref="18021065"/>
    <nd ref="18021064"/>
    <nd ref="18021063"/>
    <nd ref="18021062"/>
    <nd ref="18021061"/>
    <nd ref="18021060"/>
    <nd ref="18021059"/>
    <nd ref="18021058"/>
    <nd ref="18021057"/>
    <nd ref="18021056"/>
    <nd ref="18021055"/>
    <nd ref="18021054"/>
    <nd ref="18021053"/>
    <nd ref="18021052"/>
    <nd ref="18021051"/>
    <nd ref="18021050"/>
    <nd ref="18021049"/>
    <nd ref="18021048"/>
    <nd ref="18021047"/>
    <nd ref="18021046"/>
    <nd ref="18021045"/>
    <nd ref="18021044"/>
    <nd ref="18021043"/>
    <nd ref="18021042"/>
    <nd ref="18021041"/>
    <nd ref="18021040"/>
    <nd ref="18021039"/>
    <nd ref="18021038"/>
    <nd ref="18021037"/>
    <nd ref="18021036"/>
    <nd ref="18021035"/>
    <nd ref="18021034"/>
    <nd ref="18021033"/>
    <nd ref="18021032"/>
    <nd ref="18021031"/>
    <nd ref="18021030"/>
    <nd ref="340301447"/>
    <nd ref="340301448"/>
    <nd ref="18021029"/>
    <nd ref="340301446"/>
    <nd ref="18021028"/>
    <nd ref="340301445"/>
    <nd ref="18021027"/>
    <nd ref="340301444"/>
    <nd ref="18021026"/>
    <nd ref="340301443"/>
    <nd ref="18021025"/>
    <nd ref="340301442"/>
    <nd ref="340301441"/>
    <nd ref="18021024"/>
    <nd ref="340301440"/>
    <nd ref="340301439"/>
    <nd ref="340301438"/>
    <nd ref="340301437"/>
    <nd ref="340301436"/>
    <nd ref="18021023"/>
    <nd ref="340301433"/>
    <nd ref="340301434"/>
    <nd ref="340301435"/>
    <nd ref="18021022"/>
    <nd ref="340301432"/>
    <nd ref="18021021"/>
    <nd ref="340301430"/>
    <nd ref="340301429"/>
    <nd ref="18021020"/>
    <nd ref="340301431"/>
    <nd ref="18021019"/>
    <nd ref="340301427"/>
    <nd ref="340301426"/>
    <nd ref="12373798"/>
    <tag k="created_by" v="Potlatch 0.10f"/>
    <tag k="highway" v="primary"/>
    <tag k="name" v="Riksväg 63"/>
    <tag k="ref" v="63"/>
  </way>
  <way id="4017413" version="4" timestamp="2009-02-03T22:36:28Z" uid="33169" user="MickeL" changeset="116369">
    <nd ref="18021138"/>
    <nd ref="18021123"/>
    <nd ref="317901494"/>
    <nd ref="18021121"/>
    <nd ref="27126140"/>
    <nd ref="18021120"/>
    <nd ref="18021119"/>
    <nd ref="18021118"/>
    <nd ref="18021117"/>
    <nd ref="18021116"/>
    <nd ref="18021115"/>
    <nd ref="18021113"/>
    <nd ref="18021112"/>
    <nd ref="18021111"/>
    <nd ref="18021110"/>
    <nd ref="18021108"/>
    <nd ref="18021107"/>
    <nd ref="18021106"/>
    <nd ref="18021105"/>
    <nd ref="18021103"/>
    <nd ref="18021102"/>
    <nd ref="18021101"/>
    <nd ref="18021100"/>
    <nd ref="18021098"/>
    <nd ref="18021097"/>
    <nd ref="18021095"/>
    <nd ref="18021094"/>
    <nd ref="27252154"/>
    <nd ref="18021092"/>
    <nd ref="18021091"/>
    <nd ref="18021090"/>
    <nd ref="18021089"/>
    <nd ref="18021087"/>
    <nd ref="18021086"/>
    <nd ref="18021084"/>
    <nd ref="18021083"/>
    <nd ref="18021081"/>
    <nd ref="18021080"/>
    <nd ref="18021079"/>
    <nd ref="18021078"/>
    <nd ref="18021077"/>
    <nd ref="18021076"/>
    <nd ref="18021075"/>
    <nd ref="18021074"/>
    <nd ref="18021073"/>
    <nd ref="18021072"/>
    <nd ref="18021071"/>
    <nd ref="18021070"/>
    <nd ref="18021069"/>
    <nd ref="18021068"/>
    <nd ref="18021067"/>
    <nd ref="18021066"/>
    <nd ref="18021065"/>
    <nd ref="18021064"/>
    <nd ref="18021063"/>
    <nd ref="18021062"/>
    <nd ref="18021061"/>
    <nd ref="18021060"/>
    <nd ref="18021059"/>
    <nd ref="18021058"/>
    <nd ref="18021057"/>
    <nd ref="18021056"/>
    <nd ref="18021055"/>
    <nd ref="18021054"/>
    <nd ref="18021053"/>
    <nd ref="18021052"/>
    <nd ref="340302913"/>
    <nd ref="18021051"/>
    <nd ref="340302915"/>
    <nd ref="340302911"/>
    <nd ref="18021050"/>
    <nd ref="340302908"/>
    <nd ref="18021049"/>
    <nd ref="340302906"/>
    <nd ref="18021048"/>
    <nd ref="340302897"/>
    <nd ref="18021047"/>
    <nd ref="340302900"/>
    <nd ref="18021046"/>
    <nd ref="340302902"/>
    <nd ref="340302904"/>
    <nd ref="18021045"/>
    <nd ref="18021044"/>
    <nd ref="18021043"/>
    <nd ref="340302892"/>
    <nd ref="340302895"/>
    <nd ref="18021042"/>
    <nd ref="18021041"/>
    <nd ref="18021040"/>
    <nd ref="340302885"/>
    <nd ref="18021039"/>
    <nd ref="340302888"/>
    <nd ref="18021038"/>
    <nd ref="340302881"/>
    <nd ref="18021037"/>
    <nd ref="18021036"/>
    <nd ref="340302876"/>
    <nd ref="18021035"/>
    <nd ref="18021034"/>
    <nd ref="340302874"/>
    <nd ref="18021033"/>
    <nd ref="340302865"/>
    <nd ref="18021032"/>
    <nd ref="340302870"/>
    <nd ref="18021031"/>
    <nd ref="18021030"/>
    <nd ref="340301447"/>
    <nd ref="340301448"/>
    <nd ref="18021029"/>
    <nd ref="340301446"/>
    <nd ref="18021028"/>
    <nd ref="340301445"/>
    <nd ref="18021027"/>
    <nd ref="340301444"/>
    <nd ref="18021026"/>
    <nd ref="340301443"/>
    <nd ref="18021025"/>
    <nd ref="340301442"/>
    <nd ref="340301441"/>
    <nd ref="18021024"/>
    <nd ref="340301440"/>
    <nd ref="340301439"/>
    <nd ref="340301438"/>
    <nd ref="340301437"/>
    <nd ref="340301436"/>
    <nd ref="18021023"/>
    <nd ref="340301433"/>
    <nd ref="340301434"/>
    <nd ref="340301435"/>
    <nd ref="18021022"/>
    <nd ref="340301432"/>
    <nd ref="18021021"/>
    <nd ref="340301430"/>
    <nd ref="340301429"/>
    <nd ref="18021020"/>
    <nd ref="340301431"/>
    <nd ref="18021019"/>
    <nd ref="340301427"/>
    <nd ref="340301426"/>
    <nd ref="12373798"/>
    <tag k="created_by" v="Potlatch 0.10f"/>
    <tag k="highway" v="primary"/>
    <tag k="name" v="Riksväg 63"/>
    <tag k="ref" v="63"/>
  </way>
  <way id="4017413" version="5" timestamp="2009-05-11T21:41:47Z" uid="33169" user="MickeL" changeset="1158977">
    <nd ref="18021138"/>
    <nd ref="18021123"/>
    <nd ref="317901494"/>
    <nd ref="317901578"/>
    <nd ref="18021121"/>
    <nd ref="27126140"/>
    <nd ref="18021120"/>
    <nd ref="18021119"/>
    <nd ref="18021118"/>
    <nd ref="18021117"/>
    <nd ref="18021116"/>
    <nd ref="18021115"/>
    <nd ref="18021113"/>
    <nd ref="18021112"/>
    <nd ref="18021111"/>
    <nd ref="18021110"/>
    <nd ref="18021108"/>
    <nd ref="18021107"/>
    <nd ref="18021106"/>
    <nd ref="18021105"/>
    <nd ref="18021103"/>
    <nd ref="18021102"/>
    <nd ref="18021101"/>
    <nd ref="18021100"/>
    <nd ref="18021098"/>
    <nd ref="18021097"/>
    <nd ref="18021095"/>
    <nd ref="18021094"/>
    <nd ref="27252154"/>
    <nd ref="18021092"/>
    <nd ref="18021091"/>
    <nd ref="18021090"/>
    <nd ref="18021089"/>
    <nd ref="18021087"/>
    <nd ref="18021086"/>
    <nd ref="18021084"/>
    <nd ref="18021083"/>
    <nd ref="18021081"/>
    <nd ref="18021080"/>
    <nd ref="18021079"/>
    <nd ref="18021078"/>
    <nd ref="18021077"/>
    <nd ref="18021076"/>
    <nd ref="18021075"/>
    <nd ref="18021074"/>
    <nd ref="18021073"/>
    <nd ref="18021072"/>
    <nd ref="18021071"/>
    <nd ref="18021070"/>
    <nd ref="18021069"/>
    <nd ref="18021068"/>
    <nd ref="18021067"/>
    <nd ref="18021066"/>
    <nd ref="18021065"/>
    <nd ref="18021064"/>
    <nd ref="18021063"/>
    <nd ref="18021062"/>
    <nd ref="18021061"/>
    <nd ref="18021060"/>
    <nd ref="18021059"/>
    <nd ref="18021058"/>
    <nd ref="18021057"/>
    <nd ref="18021056"/>
    <nd ref="18021055"/>
    <nd ref="18021054"/>
    <nd ref="18021053"/>
    <nd ref="18021052"/>
    <nd ref="340302913"/>
    <nd ref="18021051"/>
    <nd ref="340302915"/>
    <nd ref="340302911"/>
    <nd ref="18021050"/>
    <nd ref="340302908"/>
    <nd ref="18021049"/>
    <nd ref="340302906"/>
    <nd ref="18021048"/>
    <nd ref="340302897"/>
    <nd ref="18021047"/>
    <nd ref="340302900"/>
    <nd ref="18021046"/>
    <nd ref="340302902"/>
    <nd ref="340302904"/>
    <nd ref="18021045"/>
    <nd ref="18021044"/>
    <nd ref="18021043"/>
    <nd ref="340302892"/>
    <nd ref="340302895"/>
    <nd ref="18021042"/>
    <nd ref="18021041"/>
    <nd ref="18021040"/>
    <nd ref="340302885"/>
    <nd ref="18021039"/>
    <nd ref="340302888"/>
    <nd ref="18021038"/>
    <nd ref="340302881"/>
    <nd ref="18021037"/>
    <nd ref="18021036"/>
    <nd ref="340302876"/>
    <nd ref="18021035"/>
    <nd ref="18021034"/>
    <nd ref="340302874"/>
    <nd ref="18021033"/>
    <nd ref="340302865"/>
    <nd ref="18021032"/>
    <nd ref="340302870"/>
    <nd ref="18021031"/>
    <nd ref="18021030"/>
    <nd ref="340301447"/>
    <nd ref="340301448"/>
    <nd ref="18021029"/>
    <nd ref="340301446"/>
    <nd ref="18021028"/>
    <nd ref="340301445"/>
    <nd ref="18021027"/>
    <nd ref="340301444"/>
    <nd ref="18021026"/>
    <nd ref="340301443"/>
    <nd ref="18021025"/>
    <nd ref="340301442"/>
    <nd ref="340301441"/>
    <nd ref="18021024"/>
    <nd ref="340301440"/>
    <nd ref="340301439"/>
    <nd ref="340301438"/>
    <nd ref="340301437"/>
    <nd ref="340301436"/>
    <nd ref="18021023"/>
    <nd ref="340301433"/>
    <nd ref="340301434"/>
    <nd ref="340301435"/>
    <nd ref="18021022"/>
    <nd ref="340301432"/>
    <nd ref="18021021"/>
    <nd ref="340301430"/>
    <nd ref="340301429"/>
    <nd ref="18021020"/>
    <nd ref="340301431"/>
    <nd ref="18021019"/>
    <nd ref="340301427"/>
    <nd ref="340301426"/>
    <nd ref="12373798"/>
    <tag k="created_by" v="Potlatch 0.10f"/>
    <tag k="highway" v="primary"/>
    <tag k="name" v="Riksväg 63"/>
    <tag k="ref" v="63"/>
  </way>
  <way id="4017413" version="6" timestamp="2009-06-13T21:56:57Z" uid="33169" user="MickeL" changeset="1509193">
    <nd ref="18021138"/>
    <nd ref="18021123"/>
    <nd ref="317901494"/>
    <nd ref="317901578"/>
    <nd ref="18021121"/>
    <nd ref="27126140"/>
    <nd ref="18021120"/>
    <nd ref="18021119"/>
    <nd ref="18021118"/>
    <nd ref="18021117"/>
    <nd ref="18021116"/>
    <nd ref="18021115"/>
    <nd ref="18021113"/>
    <nd ref="18021112"/>
    <nd ref="18021111"/>
    <nd ref="18021110"/>
    <nd ref="18021108"/>
    <nd ref="18021107"/>
    <nd ref="18021106"/>
    <nd ref="18021105"/>
    <nd ref="18021103"/>
    <nd ref="18021102"/>
    <nd ref="18021101"/>
    <nd ref="18021100"/>
    <nd ref="18021098"/>
    <nd ref="18021097"/>
    <nd ref="18021095"/>
    <nd ref="18021094"/>
    <nd ref="27252154"/>
    <nd ref="18021092"/>
    <nd ref="18021091"/>
    <nd ref="18021090"/>
    <nd ref="18021089"/>
    <nd ref="18021087"/>
    <nd ref="18021086"/>
    <nd ref="18021084"/>
    <nd ref="18021083"/>
    <nd ref="18021081"/>
    <nd ref="18021080"/>
    <nd ref="18021079"/>
    <nd ref="18021078"/>
    <nd ref="18021077"/>
    <nd ref="18021076"/>
    <nd ref="18021075"/>
    <nd ref="18021074"/>
    <nd ref="18021073"/>
    <nd ref="18021072"/>
    <nd ref="18021071"/>
    <nd ref="18021070"/>
    <nd ref="18021069"/>
    <nd ref="18021068"/>
    <nd ref="18021067"/>
    <nd ref="18021066"/>
    <nd ref="18021065"/>
    <nd ref="18021064"/>
    <nd ref="18021063"/>
    <nd ref="18021062"/>
    <nd ref="18021061"/>
    <nd ref="18021060"/>
    <nd ref="18021059"/>
    <nd ref="18021058"/>
    <nd ref="18021057"/>
    <nd ref="18021056"/>
    <nd ref="18021055"/>
    <nd ref="18021054"/>
    <nd ref="18021053"/>
    <nd ref="18021052"/>
    <nd ref="340302913"/>
    <nd ref="18021051"/>
    <nd ref="340302915"/>
    <nd ref="340302911"/>
    <nd ref="18021050"/>
    <nd ref="340302908"/>
    <nd ref="18021049"/>
    <nd ref="340302906"/>
    <nd ref="18021048"/>
    <nd ref="340302897"/>
    <nd ref="18021047"/>
    <nd ref="340302900"/>
    <nd ref="18021046"/>
    <nd ref="340302902"/>
    <nd ref="340302904"/>
    <nd ref="18021045"/>
    <nd ref="18021044"/>
    <nd ref="18021043"/>
    <nd ref="340302892"/>
    <nd ref="340302895"/>
    <nd ref="18021042"/>
    <nd ref="18021041"/>
    <nd ref="419945948"/>
    <nd ref="18021040"/>
    <nd ref="340302885"/>
    <nd ref="18021039"/>
    <nd ref="340302888"/>
    <nd ref="419945947"/>
    <nd ref="18021038"/>
    <nd ref="340302881"/>
    <nd ref="18021037"/>
    <nd ref="419945941"/>
    <nd ref="419945944"/>
    <nd ref="18021036"/>
    <nd ref="340302876"/>
    <nd ref="419945938"/>
    <nd ref="18021035"/>
    <nd ref="419945935"/>
    <nd ref="18021034"/>
    <nd ref="340302874"/>
    <nd ref="18021033"/>
    <nd ref="340302865"/>
    <nd ref="419945933"/>
    <nd ref="18021032"/>
    <nd ref="340302870"/>
    <nd ref="18021031"/>
    <nd ref="419945930"/>
    <nd ref="18021030"/>
    <nd ref="419945927"/>
    <nd ref="340301447"/>
    <nd ref="340301448"/>
    <nd ref="18021029"/>
    <nd ref="340301446"/>
    <nd ref="18021028"/>
    <nd ref="340301445"/>
    <nd ref="18021027"/>
    <nd ref="340301444"/>
    <nd ref="18021026"/>
    <nd ref="419945920"/>
    <nd ref="419945922"/>
    <nd ref="419945924"/>
    <nd ref="340301443"/>
    <nd ref="18021025"/>
    <nd ref="340301442"/>
    <nd ref="340301441"/>
    <nd ref="18021024"/>
    <nd ref="340301440"/>
    <nd ref="340301439"/>
    <nd ref="340301438"/>
    <nd ref="340301437"/>
    <nd ref="419945914"/>
    <nd ref="340301436"/>
    <nd ref="18021023"/>
    <nd ref="340301433"/>
    <nd ref="340301434"/>
    <nd ref="419945912"/>
    <nd ref="340301435"/>
    <nd ref="18021022"/>
    <nd ref="419945904"/>
    <nd ref="419945905"/>
    <nd ref="419945907"/>
    <nd ref="419945908"/>
    <nd ref="340301432"/>
    <nd ref="18021021"/>
    <nd ref="340301430"/>
    <nd ref="340301429"/>
    <nd ref="419945901"/>
    <nd ref="419945902"/>
    <nd ref="18021020"/>
    <nd ref="419945897"/>
    <nd ref="419945899"/>
    <nd ref="340301431"/>
    <nd ref="419945896"/>
    <nd ref="18021019"/>
    <nd ref="340301427"/>
    <nd ref="419945890"/>
    <nd ref="419945892"/>
    <nd ref="419945894"/>
    <nd ref="340301426"/>
    <nd ref="12373798"/>
    <tag k="created_by" v="Potlatch 0.10f"/>
    <tag k="highway" v="primary"/>
    <tag k="name" v="Riksväg 63"/>
    <tag k="ref" v="63"/>
  </way>
  <way id="4017413" version="7" timestamp="2009-06-13T22:23:50Z" uid="33169" user="MickeL" changeset="1509325">
    <nd ref="18021138"/>
    <nd ref="18021123"/>
    <nd ref="317901494"/>
    <nd ref="317901578"/>
    <nd ref="18021121"/>
    <nd ref="317900287"/>
    <nd ref="419982163"/>
    <tag k="highway" v="primary"/>
    <tag k="name" v="Riksväg 63"/>
    <tag k="ref" v="63"/>
  </way>
  <way id="4017413" version="8" timestamp="2010-03-09T20:09:35Z" uid="33169" user="MickeL" changeset="4084069">
    <nd ref="18021138"/>
    <nd ref="18021123"/>
    <nd ref="317901494"/>
    <nd ref="317901578"/>
    <nd ref="18021121"/>
    <nd ref="317900287"/>
    <nd ref="663395622"/>
    <nd ref="663395624"/>
    <nd ref="419982163"/>
    <tag k="highway" v="primary"/>
    <tag k="name" v="Riksväg 63"/>
    <tag k="ref" v="63"/>
  </way>
  <way id="4017413" version="9" timestamp="2010-08-26T21:11:25Z" uid="303693" user="LeSve" changeset="5602902">
    <nd ref="18021138"/>
    <nd ref="18021123"/>
    <nd ref="317901494"/>
    <nd ref="881347318"/>
    <tag k="highway" v="primary"/>
    <tag k="name" v="Riksväg 63"/>
    <tag k="ref" v="63"/>
  </way>
  <way id="4017413" version="10" timestamp="2010-12-08T13:08:34Z" uid="33169" user="MickeL" changeset="6584985">
    <nd ref="18021138"/>
    <nd ref="18021123"/>
    <nd ref="317901494"/>
    <nd ref="1027996080"/>
    <nd ref="881347318"/>
    <tag k="highway" v="primary"/>
    <tag k="name" v="Riksväg 63"/>
    <tag k="ref" v="63"/>
  </way>
  <way id="4017413" version="11" timestamp="2011-08-01T12:30:22Z" uid="158153" user="jetthe" changeset="8890325">
    <nd ref="18021138"/>
    <nd ref="18021123"/>
    <nd ref="317901494"/>
    <nd ref="1027996080"/>
    <nd ref="881347318"/>
    <tag k="highway" v="primary"/>
    <tag k="maxspeed" v="90"/>
    <tag k="name" v="Riksväg 63"/>
    <tag k="ref" v="63"/>
  </way>
  <way id="4017413" version="12" timestamp="2012-03-19T00:55:36Z" uid="28775" user="StellanL" changeset="11025649"/>
  <way id="4017417" version="5" timestamp="2009-07-11T12:39:10Z" uid="4467" user="Rosscoe" changeset="1796821">
    <nd ref="21277706"/>
    <nd ref="440114614"/>
    <nd ref="21292399"/>
    <tag k="created_by" v="Potlatch 0.10f"/>
    <tag k="highway" v="unclassified"/>
  </way>
  <way id="4017483" version="3" timestamp="2008-07-05T14:24:29Z" uid="6975" user="ulfl" changeset="398437">
    <nd ref="21293252"/>
    <nd ref="21293249"/>
    <nd ref="21293250"/>
    <nd ref="21293251"/>
    <nd ref="21293252"/>
    <tag k="note" v="..."/>
    <tag k="tourism" v="museum"/>
  </way>
  <way id="4017483" version="4" timestamp="2009-01-07T19:57:18Z" uid="2274" user="Ben" changeset="752035">
    <nd ref="21293252"/>
    <nd ref="21293249"/>
    <nd ref="21293250"/>
    <nd ref="21293251"/>
    <nd ref="21293252"/>
    <tag k="building" v="museum"/>
  </way>
  <way id="4017488" version="29" timestamp="2009-07-09T08:35:49Z" uid="4467" user="Rosscoe" changeset="1778945">
    <nd ref="21293310"/>
    <nd ref="298300572"/>
    <nd ref="364055083"/>
    <nd ref="364055031"/>
    <nd ref="364055032"/>
    <nd ref="367804943"/>
    <nd ref="367804944"/>
    <tag k="created_by" v="Potlatch 0.10f"/>
    <tag k="highway" v="residential"/>
    <tag k="is_in" v="Australia, QLD, Queensland, Dalby"/>
    <tag k="name" v="Sydney Street"/>
  </way>
  <way id="4017488" version="30" timestamp="2009-08-10T04:45:31Z" uid="4467" user="Rosscoe" changeset="2092813">
    <nd ref="21293310"/>
    <nd ref="298300572"/>
    <nd ref="364055083"/>
    <nd ref="364055031"/>
    <nd ref="364055032"/>
    <nd ref="367804943"/>
    <nd ref="367804944"/>
    <tag k="highway" v="residential"/>
    <tag k="is_in" v="Dalby, QLD, Queensland, Australia"/>
    <tag k="name" v="Sydney Street"/>
  </way>
  <way id="4017489" version="4" timestamp="2009-08-10T04:45:43Z" uid="4467" user="Rosscoe" changeset="2092813">
    <nd ref="21293318"/>
    <nd ref="364305321"/>
    <nd ref="458709368"/>
    <tag k="highway" v="unclassified"/>
    <tag k="is_in" v="Dalby, QLD, Queensland, Australia"/>
    <tag k="name" v="Carberry&apos;s Lane"/>
    <tag k="oneway" v="yes"/>
  </way>
  <way id="4017489" version="5" timestamp="2009-09-15T10:03:19Z" uid="62457" user="cybercrypt" changeset="2490559">
    <nd ref="21293318"/>
    <nd ref="364305321"/>
    <tag k="highway" v="unclassified"/>
    <tag k="is_in" v="Dalby, QLD, Queensland, Australia"/>
    <tag k="name" v="Carberry&apos;s Lane"/>
    <tag k="oneway" v="yes"/>
  </way>
  <way id="4017490" version="8" timestamp="2009-07-09T08:35:49Z" uid="4467" user="Rosscoe" changeset="1778945">
    <nd ref="21293330"/>
    <nd ref="299408233"/>
    <nd ref="299408194"/>
    <nd ref="318537437"/>
    <tag k="created_by" v="Potlatch 0.10f"/>
    <tag k="highway" v="unclassified"/>
    <tag k="is_in" v="Australia, QLD, Queensland, Dalby"/>
    <tag k="name" v="Ewings Lane"/>
    <tag k="oneway" v="yes"/>
  </way>
  <way id="4017490" version="9" timestamp="2009-07-09T08:56:32Z" uid="4467" user="Rosscoe" changeset="1779076">
    <nd ref="21293330"/>
    <nd ref="299408233"/>
    <nd ref="299408194"/>
    <nd ref="318537437"/>
    <tag k="created_by" v="Potlatch 0.10f"/>
    <tag k="highway" v="unclassified"/>
    <tag k="is_in" v="Australia, QLD, Queensland, Dalby"/>
    <tag k="name" v="Ewings Lane"/>
    <tag k="oneway" v="yes"/>
  </way>
  <way id="4017490" version="10" timestamp="2009-08-10T04:45:36Z" uid="4467" user="Rosscoe" changeset="2092813">
    <nd ref="21293330"/>
    <nd ref="299408233"/>
    <nd ref="299408194"/>
    <nd ref="318537437"/>
    <tag k="highway" v="unclassified"/>
    <tag k="is_in" v="Dalby, QLD, Queensland, Australia"/>
    <tag k="name" v="Ewings Lane"/>
    <tag k="oneway" v="yes"/>
  </way>
  <way id="4017522" version="8" timestamp="2008-11-20T16:04:40Z" uid="26515" user="Simon Ward" changeset="773061">
    <nd ref="3416266"/>
    <nd ref="278772645"/>
    <nd ref="21293958"/>
    <nd ref="21293960"/>
    <nd ref="21293959"/>
    <nd ref="21293961"/>
    <nd ref="26084685"/>
    <nd ref="3416265"/>
    <nd ref="313335373"/>
    <nd ref="312630050"/>
    <nd ref="312630052"/>
    <nd ref="313335368"/>
    <nd ref="26124097"/>
    <nd ref="312630168"/>
    <nd ref="3416261"/>
    <nd ref="312883294"/>
    <tag k="created_by" v="Potlatch 0.6a"/>
    <tag k="highway" v="primary"/>
    <tag k="ref" v="A4184"/>
  </way>
  <way id="4017522" version="9" timestamp="2009-03-11T12:22:06Z" uid="105736" user="scarymonkey" changeset="786724">
    <nd ref="3416266"/>
    <nd ref="278772645"/>
    <nd ref="21293958"/>
    <nd ref="21293960"/>
    <nd ref="21293959"/>
    <nd ref="21293961"/>
    <nd ref="26084685"/>
    <nd ref="3416265"/>
    <nd ref="313335373"/>
    <nd ref="312630050"/>
    <nd ref="312630052"/>
    <nd ref="313335368"/>
    <nd ref="26124097"/>
    <nd ref="312630168"/>
    <nd ref="3416261"/>
    <nd ref="312883294"/>
    <tag k="created_by" v="Potlatch 0.10f"/>
    <tag k="highway" v="primary"/>
    <tag k="name" v="High Street"/>
    <tag k="ref" v="A4184"/>
  </way>
  <way id="4017522" version="10" timestamp="2009-07-24T14:23:07Z" uid="69211" user="Jenuk1985" changeset="1925718">
    <nd ref="3416266"/>
    <nd ref="278772645"/>
    <nd ref="21293958"/>
    <nd ref="21293960"/>
    <nd ref="21293959"/>
    <nd ref="21293961"/>
    <nd ref="26084685"/>
    <tag k="created_by" v="Potlatch 0.10f"/>
    <tag k="highway" v="primary"/>
    <tag k="name" v="High Street"/>
    <tag k="ref" v="A4184"/>
  </way>
  <way id="4017522" version="11" timestamp="2009-07-26T21:12:00Z" uid="69211" user="Jenuk1985" changeset="1949757">
    <nd ref="3416266"/>
    <nd ref="278772645"/>
    <tag k="created_by" v="Potlatch 0.10f"/>
    <tag k="highway" v="primary"/>
    <tag k="name" v="High Street"/>
    <tag k="ref" v="A4184"/>
  </way>
  <way id="4017522" version="12" timestamp="2011-09-29T20:14:54Z" uid="9065" user="brianboru" changeset="9430530">
    <nd ref="3416266"/>
    <nd ref="278772645"/>
    <tag k="highway" v="primary"/>
    <tag k="maxspeed" v="30 mph"/>
    <tag k="name" v="High Street"/>
    <tag k="ref" v="A4184"/>
    <tag k="source:maxspeed" v="survey"/>
  </way>
  <way id="4017524" version="7" timestamp="2009-08-10T04:45:32Z" uid="4467" user="Rosscoe" changeset="2092813">
    <nd ref="21294236"/>
    <nd ref="318536855"/>
    <tag k="highway" v="unclassified"/>
    <tag k="is_in" v="Dalby, QLD, Queensland, Australia"/>
    <tag k="name" v="Groom Lane"/>
  </way>
  <way id="4017524" version="8" timestamp="2010-05-16T12:23:11Z" uid="62457" user="cybercrypt" changeset="4716413"/>
  <way id="4017526" version="5" timestamp="2008-11-20T15:59:43Z" uid="26515" user="Simon Ward" changeset="773061">
    <nd ref="7548303"/>
    <nd ref="313333978"/>
    <nd ref="21293962"/>
    <nd ref="313333983"/>
    <nd ref="312883296"/>
    <nd ref="313334011"/>
    <nd ref="21293963"/>
    <nd ref="21293964"/>
    <nd ref="312883297"/>
    <nd ref="21293965"/>
    <nd ref="313334036"/>
    <nd ref="313334054"/>
    <nd ref="21293966"/>
    <nd ref="313334063"/>
    <nd ref="313334066"/>
    <nd ref="21293967"/>
    <nd ref="312883299"/>
    <nd ref="313334080"/>
    <nd ref="312883300"/>
    <nd ref="313334108"/>
    <nd ref="21293968"/>
    <nd ref="312883301"/>
    <nd ref="313334145"/>
    <nd ref="21293970"/>
    <nd ref="312883309"/>
    <tag k="created_by" v="JOSM"/>
    <tag k="highway" v="primary"/>
    <tag k="name" v="Greenhill"/>
    <tag k="ref" v="A4184"/>
  </way>
  <way id="4017526" version="6" timestamp="2008-11-20T16:55:28Z" uid="26515" user="Simon Ward" changeset="773061">
    <nd ref="7548303"/>
    <nd ref="313333978"/>
    <nd ref="21293962"/>
    <nd ref="313333983"/>
    <nd ref="312883296"/>
    <nd ref="313334011"/>
    <nd ref="21293963"/>
    <nd ref="21293964"/>
    <nd ref="312883297"/>
    <nd ref="21293965"/>
    <nd ref="313334036"/>
    <nd ref="313343698"/>
    <nd ref="313334054"/>
    <nd ref="21293966"/>
    <nd ref="313334063"/>
    <nd ref="313334066"/>
    <nd ref="21293967"/>
    <nd ref="312883299"/>
    <nd ref="313334080"/>
    <nd ref="312883300"/>
    <nd ref="313334108"/>
    <nd ref="21293968"/>
    <nd ref="312883301"/>
    <nd ref="313334145"/>
    <nd ref="21293970"/>
    <nd ref="312883309"/>
    <tag k="created_by" v="JOSM"/>
    <tag k="highway" v="primary"/>
    <tag k="name" v="Greenhill"/>
    <tag k="ref" v="A4184"/>
  </way>
  <way id="4017526" version="7" timestamp="2010-10-19T17:09:25Z" uid="213451" user="Richard Phillips" changeset="6101239">
    <nd ref="7548303"/>
    <nd ref="313333978"/>
    <nd ref="21293962"/>
    <nd ref="313333983"/>
    <nd ref="957184524"/>
    <nd ref="312883296"/>
    <nd ref="957184526"/>
    <nd ref="313334011"/>
    <nd ref="21293963"/>
    <nd ref="21293964"/>
    <nd ref="312883297"/>
    <nd ref="21293965"/>
    <nd ref="313334036"/>
    <nd ref="313343698"/>
    <nd ref="313334054"/>
    <nd ref="21293966"/>
    <nd ref="313334063"/>
    <nd ref="313334066"/>
    <nd ref="21293967"/>
    <nd ref="312883299"/>
    <nd ref="313334080"/>
    <nd ref="312883300"/>
    <nd ref="313334108"/>
    <nd ref="21293968"/>
    <nd ref="312883301"/>
    <nd ref="313334145"/>
    <nd ref="21293970"/>
    <nd ref="312883309"/>
    <tag k="highway" v="primary"/>
    <tag k="name" v="Greenhill"/>
    <tag k="ref" v="A4184"/>
  </way>
  <way id="4017526" version="8" timestamp="2011-09-29T20:13:36Z" uid="9065" user="brianboru" changeset="9430517">
    <nd ref="7548303"/>
    <nd ref="313333978"/>
    <nd ref="21293962"/>
    <nd ref="313333983"/>
    <nd ref="957184524"/>
    <nd ref="312883296"/>
    <nd ref="957184526"/>
    <nd ref="313334011"/>
    <nd ref="21293963"/>
    <nd ref="21293964"/>
    <nd ref="312883297"/>
    <nd ref="21293965"/>
    <tag k="highway" v="primary"/>
    <tag k="maxspeed" v="30 mph"/>
    <tag k="name" v="Greenhill"/>
    <tag k="ref" v="A4184"/>
    <tag k="source" v="survey"/>
    <tag k="source:maxspeed" v="survey"/>
  </way>
  <way id="4017526" version="9" timestamp="2012-01-11T22:31:39Z" uid="64" user="lsces" changeset="10365196"/>
  <way id="4017535" version="6" timestamp="2009-08-10T04:45:36Z" uid="4467" user="Rosscoe" changeset="2092813">
    <nd ref="21292399"/>
    <nd ref="401417900"/>
    <nd ref="21294353"/>
    <tag k="highway" v="unclassified"/>
    <tag k="is_in" v="Dalby, QLD, Queensland, Australia"/>
  </way>
  <way id="4017536" version="6" timestamp="2009-07-09T09:01:08Z" uid="4467" user="Rosscoe" changeset="1779111">
    <nd ref="21294354"/>
    <nd ref="21279661"/>
    <tag k="created_by" v="Potlatch 0.10f"/>
    <tag k="highway" v="unclassified"/>
    <tag k="name" v="Longs Lane"/>
    <tag k="oneway" v="yes"/>
  </way>
  <way id="4017536" version="7" timestamp="2009-08-08T03:06:00Z" uid="62457" user="cybercrypt" changeset="2071478">
    <nd ref="21294354"/>
    <nd ref="458664619"/>
    <tag k="created_by" v="Potlatch 0.10f"/>
    <tag k="highway" v="unclassified"/>
    <tag k="name" v="Longs Lane"/>
    <tag k="oneway" v="yes"/>
  </way>
  <way id="4017536" version="8" timestamp="2009-08-08T03:06:48Z" uid="62457" user="cybercrypt" changeset="2071478">
    <nd ref="458664619"/>
    <nd ref="21294354"/>
    <tag k="created_by" v="Potlatch 0.10f"/>
    <tag k="highway" v="unclassified"/>
    <tag k="name" v="Longs Lane"/>
    <tag k="oneway" v="yes"/>
  </way>
  <way id="4017536" version="9" timestamp="2009-08-08T06:26:14Z" uid="62457" user="cybercrypt" changeset="2072036">
    <nd ref="458664619"/>
    <nd ref="21294354"/>
    <tag k="created_by" v="Potlatch 0.10f"/>
    <tag k="highway" v="unclassified"/>
    <tag k="name" v="Longs Lane"/>
  </way>
  <way id="4017538" version="9" timestamp="2009-07-09T08:35:46Z" uid="4467" user="Rosscoe" changeset="1778945">
    <nd ref="21294364"/>
    <nd ref="291483562"/>
    <nd ref="291483562"/>
    <tag k="created_by" v="Potlatch 0.10f"/>
    <tag k="highway" v="unclassified"/>
    <tag k="is_in" v="Australia, QLD, Queensland, Dalby"/>
    <tag k="name" v="Roche Street"/>
  </way>
  <way id="4017538" version="10" timestamp="2009-07-09T08:39:45Z" uid="4467" user="Rosscoe" changeset="1778975">
    <nd ref="21294364"/>
    <nd ref="291483562"/>
    <tag k="created_by" v="Potlatch 0.10f"/>
    <tag k="highway" v="unclassified"/>
    <tag k="is_in" v="Australia, QLD, Queensland, Dalby"/>
    <tag k="name" v="Roche Street"/>
  </way>
  <way id="4017538" version="11" timestamp="2009-07-11T11:55:08Z" uid="4467" user="Rosscoe" changeset="1796397"/>
  <way id="4017547" version="22" timestamp="2009-07-11T12:06:54Z" uid="4467" user="Rosscoe" changeset="1796507">
    <nd ref="297834777"/>
    <nd ref="297840027"/>
    <nd ref="297840026"/>
    <nd ref="297840024"/>
    <nd ref="21279519"/>
    <nd ref="21294445"/>
    <nd ref="297629832"/>
    <nd ref="297629793"/>
    <nd ref="21294444"/>
    <nd ref="297629846"/>
    <nd ref="345528077"/>
    <nd ref="297629789"/>
    <nd ref="412726892"/>
    <nd ref="297629870"/>
    <nd ref="297846605"/>
    <nd ref="297846606"/>
    <tag k="created_by" v="Potlatch 0.10f"/>
    <tag k="highway" v="unclassified"/>
    <tag k="is_in" v="Australia, QLD, Queensland, Dalby"/>
    <tag k="name" v="Matheson"/>
  </way>
  <way id="4017547" version="23" timestamp="2009-07-11T12:32:23Z" uid="4467" user="Rosscoe" changeset="1796755">
    <nd ref="297834777"/>
    <nd ref="297840027"/>
    <nd ref="297840026"/>
    <nd ref="297840024"/>
    <nd ref="21279519"/>
    <nd ref="21294445"/>
    <nd ref="297629832"/>
    <nd ref="297629793"/>
    <nd ref="21294444"/>
    <nd ref="297629846"/>
    <nd ref="345528077"/>
    <nd ref="297629789"/>
    <nd ref="412726892"/>
    <nd ref="297629870"/>
    <nd ref="297846605"/>
    <nd ref="297846606"/>
    <tag k="created_by" v="Potlatch 0.10f"/>
    <tag k="highway" v="unclassified"/>
    <tag k="is_in" v="Australia, QLD, Queensland, Dalby"/>
    <tag k="name" v="Matheson Street"/>
  </way>
  <way id="4017547" version="24" timestamp="2009-08-10T04:45:36Z" uid="4467" user="Rosscoe" changeset="2092813">
    <nd ref="297834777"/>
    <nd ref="297840027"/>
    <nd ref="297840026"/>
    <nd ref="297840024"/>
    <nd ref="21279519"/>
    <nd ref="21294445"/>
    <nd ref="297629832"/>
    <nd ref="297629793"/>
    <nd ref="21294444"/>
    <nd ref="297629846"/>
    <nd ref="345528077"/>
    <nd ref="297629789"/>
    <nd ref="412726892"/>
    <nd ref="297629870"/>
    <nd ref="297846605"/>
    <nd ref="297846606"/>
    <tag k="highway" v="unclassified"/>
    <tag k="is_in" v="Dalby, QLD, Queensland, Australia"/>
    <tag k="name" v="Matheson Street"/>
  </way>
  <way id="4017547" version="25" timestamp="2009-08-13T12:13:02Z" uid="62457" user="cybercrypt" changeset="2130644">
    <nd ref="297834777"/>
    <nd ref="297840027"/>
    <nd ref="297840026"/>
    <nd ref="297840024"/>
    <nd ref="21279519"/>
    <nd ref="21294445"/>
    <nd ref="297629832"/>
    <nd ref="297629793"/>
    <nd ref="21294444"/>
    <tag k="highway" v="unclassified"/>
    <tag k="is_in" v="Dalby, QLD, Queensland, Australia"/>
    <tag k="name" v="Matheson Street"/>
  </way>
  <way id="4017580" version="2" timestamp="2009-02-28T15:47:54Z" uid="10712" user="Kraeml" changeset="699813">
    <nd ref="21294492"/>
    <nd ref="25759033"/>
    <nd ref="21294534"/>
    <nd ref="353832202"/>
    <nd ref="353832198"/>
    <nd ref="21294478"/>
    <tag k="created_by" v="JOSM"/>
    <tag k="highway" v="residential"/>
    <tag k="name" v="Fischergasse"/>
  </way>
  <way id="4017580" version="3" timestamp="2009-07-19T15:22:10Z" uid="122242" user="pa17" changeset="1874706">
    <nd ref="21294492"/>
    <nd ref="25759033"/>
    <nd ref="21294534"/>
    <nd ref="353832202"/>
    <nd ref="353832198"/>
    <nd ref="21294478"/>
    <nd ref="443767649"/>
    <tag k="highway" v="residential"/>
    <tag k="name" v="Fischergasse"/>
  </way>
  <way id="4017636" version="8" timestamp="2008-04-12T13:51:04Z" uid="26515" user="Simon Ward" changeset="124087">
    <nd ref="21295163"/>
    <nd ref="251397265"/>
    <nd ref="21295162"/>
    <nd ref="21295161"/>
    <nd ref="92700567"/>
    <nd ref="21295160"/>
    <nd ref="21295159"/>
    <nd ref="121942133"/>
    <nd ref="21295158"/>
    <nd ref="121927028"/>
    <nd ref="21295157"/>
    <nd ref="223740787"/>
    <nd ref="21295156"/>
    <nd ref="21295155"/>
    <nd ref="21295154"/>
    <nd ref="257063276"/>
    <nd ref="223749603"/>
    <nd ref="21295153"/>
    <tag k="created_by" v="Potlatch 0.7b"/>
    <tag k="highway" v="primary"/>
    <tag k="name" v="Alcester Road South"/>
    <tag k="ref" v="A435"/>
  </way>
  <way id="4017636" version="9" timestamp="2008-04-14T11:31:56Z" uid="735" user="blackadder" changeset="143711">
    <nd ref="21295163"/>
    <nd ref="251397265"/>
    <nd ref="21295162"/>
    <nd ref="21295161"/>
    <nd ref="92700567"/>
    <nd ref="21295160"/>
    <nd ref="21295159"/>
    <nd ref="121942133"/>
    <nd ref="21295158"/>
    <nd ref="121927028"/>
    <nd ref="21295157"/>
    <nd ref="223740787"/>
    <nd ref="21295156"/>
    <nd ref="21295155"/>
    <nd ref="257533477"/>
    <nd ref="21295154"/>
    <nd ref="257063276"/>
    <nd ref="223749603"/>
    <nd ref="21295153"/>
    <tag k="created_by" v="Potlatch 0.7b"/>
    <tag k="highway" v="primary"/>
    <tag k="name" v="Alcester Road South"/>
    <tag k="ref" v="A435"/>
  </way>
  <way id="4017636" version="10" timestamp="2008-04-14T12:08:55Z" uid="735" user="blackadder" changeset="143711">
    <nd ref="21295163"/>
    <nd ref="251397265"/>
    <nd ref="21295162"/>
    <nd ref="21295161"/>
    <nd ref="92700567"/>
    <nd ref="21295160"/>
    <nd ref="21295159"/>
    <nd ref="121942133"/>
    <nd ref="21295158"/>
    <nd ref="121927028"/>
    <nd ref="21295157"/>
    <nd ref="223740787"/>
    <nd ref="21295156"/>
    <nd ref="21295155"/>
    <nd ref="257533477"/>
    <nd ref="21295154"/>
    <nd ref="257063276"/>
    <nd ref="223749603"/>
    <nd ref="21295153"/>
    <tag k="created_by" v="Potlatch 0.7b"/>
    <tag k="highway" v="primary"/>
    <tag k="name" v="Alcester Road South"/>
    <tag k="postal_code" v="B14"/>
    <tag k="ref" v="A435"/>
  </way>
  <way id="4017636" version="11" timestamp="2009-02-25T07:01:55Z" uid="69211" user="Jenuk1985" changeset="668337">
    <nd ref="21295163"/>
    <nd ref="251397265"/>
    <nd ref="21295162"/>
    <nd ref="21295161"/>
    <nd ref="92700567"/>
    <nd ref="21295160"/>
    <nd ref="21295159"/>
    <nd ref="121942133"/>
    <nd ref="21295158"/>
    <nd ref="121927028"/>
    <nd ref="21295157"/>
    <nd ref="223740787"/>
    <nd ref="21295156"/>
    <nd ref="21295155"/>
    <nd ref="257533477"/>
    <nd ref="21295154"/>
    <nd ref="257063276"/>
    <nd ref="223749603"/>
    <nd ref="21295153"/>
    <tag k="created_by" v="Potlatch 0.10f"/>
    <tag k="highway" v="trunk"/>
    <tag k="name" v="Alcester Road South"/>
    <tag k="postal_code" v="B14"/>
    <tag k="ref" v="A435"/>
  </way>
  <way id="4017636" version="12" timestamp="2009-05-24T19:51:21Z" uid="9065" user="brianboru" changeset="1310588">
    <nd ref="21295163"/>
    <nd ref="251397265"/>
    <nd ref="21295162"/>
    <nd ref="21295161"/>
    <nd ref="92700567"/>
    <nd ref="21295160"/>
    <nd ref="21295159"/>
    <nd ref="121942133"/>
    <nd ref="21295158"/>
    <nd ref="121927028"/>
    <tag k="created_by" v="Potlatch 0.10f"/>
    <tag k="highway" v="trunk"/>
    <tag k="name" v="Alcester Road South"/>
    <tag k="postal_code" v="B14"/>
    <tag k="ref" v="A435"/>
  </way>
  <way id="4017636" version="13" timestamp="2010-01-15T07:52:09Z" uid="9065" user="brianboru" changeset="3622426">
    <nd ref="21295163"/>
    <nd ref="251397265"/>
    <nd ref="21295162"/>
    <nd ref="21295161"/>
    <nd ref="92700567"/>
    <nd ref="21295160"/>
    <nd ref="21295159"/>
    <nd ref="121942133"/>
    <nd ref="21295158"/>
    <nd ref="121927028"/>
    <tag k="gritting" v="priority_1"/>
    <tag k="highway" v="trunk"/>
    <tag k="maintenance" v="gritting"/>
    <tag k="name" v="Alcester Road South"/>
    <tag k="postal_code" v="B14"/>
    <tag k="ref" v="A435"/>
  </way>
  <way id="4017636" version="14" timestamp="2010-03-27T17:15:35Z" uid="9065" user="brianboru" changeset="4248667">
    <nd ref="21295163"/>
    <nd ref="676050709"/>
    <nd ref="251397265"/>
    <nd ref="21295162"/>
    <nd ref="21295161"/>
    <nd ref="92700567"/>
    <nd ref="21295160"/>
    <nd ref="21295159"/>
    <nd ref="121942133"/>
    <nd ref="21295158"/>
    <nd ref="121927028"/>
    <tag k="gritting" v="priority_1"/>
    <tag k="highway" v="trunk"/>
    <tag k="maintenance" v="gritting"/>
    <tag k="name" v="Alcester Road South"/>
    <tag k="postal_code" v="B14"/>
    <tag k="ref" v="A435"/>
  </way>
  <way id="4017636" version="15" timestamp="2010-06-16T20:33:31Z" uid="9065" user="brianboru" changeset="5004121">
    <nd ref="21295163"/>
    <nd ref="676050709"/>
    <nd ref="251397265"/>
    <nd ref="773994875"/>
    <nd ref="21295162"/>
    <nd ref="773994883"/>
    <nd ref="21295161"/>
    <nd ref="773994900"/>
    <nd ref="92700567"/>
    <nd ref="21295160"/>
    <nd ref="21295159"/>
    <nd ref="121942133"/>
    <nd ref="21295158"/>
    <nd ref="121927028"/>
    <tag k="gritting" v="priority_1"/>
    <tag k="highway" v="trunk"/>
    <tag k="maintenance" v="gritting"/>
    <tag k="name" v="Alcester Road South"/>
    <tag k="postal_code" v="B14"/>
    <tag k="ref" v="A435"/>
  </way>
  <way id="4017636" version="16" timestamp="2010-11-17T07:08:24Z" uid="9065" user="brianboru" changeset="6390490">
    <nd ref="21295163"/>
    <nd ref="676050709"/>
    <nd ref="251397265"/>
    <nd ref="773994875"/>
    <nd ref="21295162"/>
    <nd ref="773994883"/>
    <nd ref="773994900"/>
    <nd ref="92700567"/>
    <nd ref="21295160"/>
    <nd ref="21295159"/>
    <nd ref="121942133"/>
    <nd ref="21295158"/>
    <nd ref="121927028"/>
    <tag k="gritting" v="priority_1"/>
    <tag k="highway" v="trunk"/>
    <tag k="maintenance" v="gritting"/>
    <tag k="name" v="Alcester Road South"/>
    <tag k="postal_code" v="B14"/>
    <tag k="ref" v="A435"/>
  </way>
  <way id="4017636" version="17" timestamp="2011-04-07T15:45:22Z" uid="9065" user="brianboru" changeset="7795697">
    <nd ref="21295163"/>
    <nd ref="676050709"/>
    <nd ref="251397265"/>
    <nd ref="773994875"/>
    <nd ref="21295162"/>
    <nd ref="773994883"/>
    <nd ref="773994900"/>
    <nd ref="1236198224"/>
    <nd ref="92700567"/>
    <nd ref="1236198143"/>
    <nd ref="21295160"/>
    <nd ref="21295159"/>
    <nd ref="121942133"/>
    <nd ref="1236198175"/>
    <nd ref="21295158"/>
    <nd ref="121927028"/>
    <tag k="gritting" v="priority_1"/>
    <tag k="highway" v="trunk"/>
    <tag k="maintenance" v="gritting"/>
    <tag k="name" v="Alcester Road South"/>
    <tag k="postal_code" v="B14"/>
    <tag k="ref" v="A435"/>
  </way>
  <way id="4017636" version="18" timestamp="2011-05-22T18:27:42Z" uid="9065" user="brianboru" changeset="8219440">
    <nd ref="21295163"/>
    <nd ref="676050709"/>
    <nd ref="251397265"/>
    <nd ref="773994875"/>
    <nd ref="21295162"/>
    <nd ref="773994883"/>
    <nd ref="773994900"/>
    <nd ref="1236198224"/>
    <nd ref="92700567"/>
    <nd ref="1236198143"/>
    <nd ref="21295160"/>
    <nd ref="21295159"/>
    <nd ref="121942133"/>
    <nd ref="1236198175"/>
    <nd ref="21295158"/>
    <nd ref="121927028"/>
    <tag k="gritting" v="priority_1"/>
    <tag k="highway" v="trunk"/>
    <tag k="maintenance" v="gritting"/>
    <tag k="maxspeed" v="30 mph"/>
    <tag k="name" v="Alcester Road South"/>
    <tag k="postal_code" v="B14"/>
    <tag k="ref" v="A435"/>
    <tag k="source" v="survey"/>
    <tag k="source:maxspeed" v="survey"/>
  </way>
  <way id="4017636" version="19" timestamp="2011-12-23T10:51:56Z" uid="9065" user="brianboru" changeset="10186099">
    <nd ref="21295163"/>
    <nd ref="676050709"/>
    <nd ref="1559137012"/>
    <nd ref="251397265"/>
    <nd ref="773994875"/>
    <nd ref="21295162"/>
    <nd ref="773994883"/>
    <nd ref="773994900"/>
    <nd ref="1236198224"/>
    <nd ref="92700567"/>
    <nd ref="1236198143"/>
    <nd ref="21295160"/>
    <nd ref="21295159"/>
    <nd ref="121942133"/>
    <nd ref="1236198175"/>
    <nd ref="21295158"/>
    <nd ref="121927028"/>
    <tag k="gritting" v="priority_1"/>
    <tag k="highway" v="trunk"/>
    <tag k="maintenance" v="gritting"/>
    <tag k="maxspeed" v="30 mph"/>
    <tag k="name" v="Alcester Road South"/>
    <tag k="postal_code" v="B14"/>
    <tag k="ref" v="A435"/>
    <tag k="source" v="survey"/>
    <tag k="source:maxspeed" v="survey"/>
  </way>
  <way id="4017743" version="19" timestamp="2008-03-17T06:59:02Z" uid="10712" user="Kraeml" changeset="341231">
    <nd ref="21296910"/>
    <nd ref="21296911"/>
    <nd ref="21297104"/>
    <nd ref="21297105"/>
    <nd ref="21297106"/>
    <nd ref="21297107"/>
    <nd ref="21297108"/>
    <nd ref="21297109"/>
    <nd ref="21297110"/>
    <nd ref="21297111"/>
    <nd ref="252542716"/>
    <nd ref="252542717"/>
    <nd ref="21297112"/>
    <nd ref="21297113"/>
    <nd ref="21297114"/>
    <nd ref="21297115"/>
    <nd ref="83675565"/>
    <nd ref="21297116"/>
    <nd ref="83675598"/>
    <nd ref="21297117"/>
    <nd ref="21297118"/>
    <nd ref="83675582"/>
    <nd ref="21297119"/>
    <nd ref="21297120"/>
    <nd ref="21297121"/>
    <nd ref="21297122"/>
    <nd ref="21297123"/>
    <nd ref="21297124"/>
    <nd ref="21297125"/>
    <nd ref="21297126"/>
    <nd ref="83673536"/>
    <nd ref="21297127"/>
    <nd ref="83670794"/>
    <nd ref="21297128"/>
    <nd ref="76475733"/>
    <nd ref="76475773"/>
    <nd ref="21297129"/>
    <nd ref="82730373"/>
    <nd ref="21297130"/>
    <nd ref="82731821"/>
    <nd ref="21297131"/>
    <nd ref="21297132"/>
    <nd ref="21297133"/>
    <nd ref="21297134"/>
    <nd ref="21297135"/>
    <nd ref="82731823"/>
    <nd ref="21297136"/>
    <nd ref="21297137"/>
    <nd ref="82731824"/>
    <nd ref="21297138"/>
    <nd ref="21297139"/>
    <nd ref="21297140"/>
    <nd ref="21297141"/>
    <nd ref="21297142"/>
    <nd ref="82731827"/>
    <nd ref="21297143"/>
    <nd ref="82731829"/>
    <nd ref="21297144"/>
    <nd ref="21297145"/>
    <nd ref="21297146"/>
    <nd ref="21297147"/>
    <nd ref="21297148"/>
    <nd ref="21297149"/>
    <nd ref="21297150"/>
    <nd ref="21297151"/>
    <nd ref="21297152"/>
    <nd ref="87298872"/>
    <nd ref="66405259"/>
    <nd ref="21297153"/>
    <nd ref="83678349"/>
    <nd ref="21297154"/>
    <nd ref="21297155"/>
    <nd ref="21297156"/>
    <nd ref="83506911"/>
    <nd ref="21297157"/>
    <nd ref="21297158"/>
    <nd ref="21297159"/>
    <nd ref="21297160"/>
    <nd ref="21297161"/>
    <nd ref="21297162"/>
    <tag k="created_by" v="fixbot"/>
    <tag k="highway" v="motorway"/>
    <tag k="int_ref" v="E56"/>
    <tag k="oneway" v="yes"/>
    <tag k="ref" v="A3"/>
  </way>
  <way id="4017743" version="20" timestamp="2008-03-17T07:21:58Z" uid="10712" user="Kraeml" changeset="341231">
    <nd ref="21296910"/>
    <nd ref="21296911"/>
    <nd ref="21297104"/>
    <nd ref="21297105"/>
    <nd ref="21297106"/>
    <nd ref="21297107"/>
    <nd ref="21297108"/>
    <nd ref="21297109"/>
    <nd ref="21297110"/>
    <nd ref="21297111"/>
    <nd ref="252542716"/>
    <tag k="created_by" v="fixbot"/>
    <tag k="highway" v="motorway"/>
    <tag k="int_ref" v="E56"/>
    <tag k="oneway" v="yes"/>
    <tag k="ref" v="A3"/>
  </way>
  <way id="4017743" version="21" timestamp="2008-05-22T20:28:25Z" uid="28378" user="PHerison" changeset="502230">
    <nd ref="21296910"/>
    <nd ref="21296911"/>
    <nd ref="21297104"/>
    <nd ref="21297105"/>
    <nd ref="21297106"/>
    <nd ref="21297107"/>
    <nd ref="21297108"/>
    <nd ref="21297109"/>
    <nd ref="21297110"/>
    <nd ref="21297111"/>
    <nd ref="252542716"/>
    <tag k="created_by" v="Potlatch 0.9a"/>
    <tag k="highway" v="motorway"/>
    <tag k="int_ref" v="E56"/>
    <tag k="oneway" v="yes"/>
    <tag k="ref" v="A 3"/>
  </way>
  <way id="4017743" version="22" timestamp="2008-09-18T09:32:34Z" uid="24920" user="Schusch" changeset="660128">
    <nd ref="21296910"/>
    <nd ref="21296911"/>
    <nd ref="21297104"/>
    <nd ref="21297105"/>
    <nd ref="21297106"/>
    <nd ref="21297107"/>
    <nd ref="21297108"/>
    <nd ref="21297109"/>
    <nd ref="21297110"/>
    <nd ref="21297111"/>
    <nd ref="252542716"/>
    <tag k="created_by" v="Potlatch 0.9a"/>
    <tag k="highway" v="motorway"/>
    <tag k="int_ref" v="E 56"/>
    <tag k="oneway" v="yes"/>
    <tag k="ref" v="A 3"/>
  </way>
  <way id="4017743" version="23" timestamp="2008-12-16T07:44:48Z" uid="41431" user="Rosty" changeset="410667">
    <nd ref="21296910"/>
    <nd ref="21296911"/>
    <nd ref="21297104"/>
    <nd ref="21297105"/>
    <nd ref="21297106"/>
    <nd ref="21297107"/>
    <nd ref="21297108"/>
    <nd ref="21297109"/>
    <nd ref="21297110"/>
    <nd ref="21297111"/>
    <nd ref="319143219"/>
    <nd ref="252542716"/>
    <tag k="created_by" v="Potlatch 0.9a"/>
    <tag k="highway" v="motorway"/>
    <tag k="int_ref" v="E 56"/>
    <tag k="oneway" v="yes"/>
    <tag k="ref" v="A 3"/>
  </way>
  <way id="4017743" version="24" timestamp="2009-01-01T21:44:15Z" uid="37976" user="R2D2_C3PO" changeset="701602">
    <nd ref="21296910"/>
    <nd ref="21296911"/>
    <nd ref="21297104"/>
    <nd ref="324401446"/>
    <nd ref="21297105"/>
    <nd ref="324401442"/>
    <nd ref="21297106"/>
    <nd ref="324401426"/>
    <nd ref="21297107"/>
    <nd ref="324401412"/>
    <nd ref="21297108"/>
    <nd ref="324401406"/>
    <nd ref="324401398"/>
    <nd ref="21297109"/>
    <nd ref="324401370"/>
    <nd ref="324401353"/>
    <nd ref="21297110"/>
    <nd ref="21297111"/>
    <nd ref="319143219"/>
    <nd ref="252542716"/>
    <tag k="created_by" v="Potlatch 0.9a"/>
    <tag k="highway" v="motorway"/>
    <tag k="int_ref" v="E 56"/>
    <tag k="oneway" v="yes"/>
    <tag k="ref" v="A 3"/>
  </way>
  <way id="4017743" version="25" timestamp="2009-01-03T19:00:34Z" uid="81431" user="Ruffi" changeset="725993">
    <nd ref="21296910"/>
    <nd ref="21296911"/>
    <nd ref="325193563"/>
    <nd ref="21297104"/>
    <nd ref="324401446"/>
    <nd ref="21297105"/>
    <nd ref="325193553"/>
    <nd ref="324401442"/>
    <nd ref="21297106"/>
    <nd ref="324401426"/>
    <nd ref="21297107"/>
    <nd ref="324401412"/>
    <nd ref="21297108"/>
    <nd ref="324401406"/>
    <nd ref="324401398"/>
    <nd ref="21297109"/>
    <nd ref="324401370"/>
    <nd ref="324401353"/>
    <nd ref="21297110"/>
    <nd ref="21297111"/>
    <nd ref="319143219"/>
    <nd ref="252542716"/>
    <tag k="created_by" v="Potlatch 0.9a"/>
    <tag k="highway" v="motorway"/>
    <tag k="int_ref" v="E 56"/>
    <tag k="oneway" v="yes"/>
    <tag k="ref" v="A 3"/>
  </way>
  <way id="4017743" version="26" timestamp="2009-02-07T13:21:07Z" uid="42393" user="mawi42" changeset="226067">
    <nd ref="21296910"/>
    <nd ref="21296911"/>
    <nd ref="325193563"/>
    <nd ref="21297104"/>
    <nd ref="324401446"/>
    <nd ref="21297105"/>
    <nd ref="325193553"/>
    <nd ref="324401442"/>
    <nd ref="342986558"/>
    <nd ref="21297106"/>
    <nd ref="324401426"/>
    <nd ref="21297107"/>
    <nd ref="324401412"/>
    <nd ref="21297108"/>
    <nd ref="324401406"/>
    <nd ref="324401398"/>
    <nd ref="21297109"/>
    <nd ref="324401370"/>
    <nd ref="324401353"/>
    <nd ref="21297110"/>
    <nd ref="21297111"/>
    <nd ref="319143219"/>
    <nd ref="252542716"/>
    <tag k="created_by" v="Potlatch 0.10f"/>
    <tag k="highway" v="motorway"/>
    <tag k="int_ref" v="E 56"/>
    <tag k="oneway" v="yes"/>
    <tag k="ref" v="A 3"/>
  </way>
  <way id="4017743" version="27" timestamp="2009-11-12T15:38:28Z" uid="42123" user="Ropino" changeset="3099105">
    <nd ref="21296910"/>
    <nd ref="561207561"/>
    <nd ref="21296911"/>
    <nd ref="325193563"/>
    <nd ref="21297104"/>
    <nd ref="324401446"/>
    <nd ref="21297105"/>
    <nd ref="325193553"/>
    <nd ref="324401442"/>
    <nd ref="342986558"/>
    <nd ref="21297106"/>
    <nd ref="561207550"/>
    <nd ref="324401426"/>
    <nd ref="21297107"/>
    <nd ref="561207546"/>
    <nd ref="324401412"/>
    <nd ref="21297108"/>
    <nd ref="561207525"/>
    <nd ref="324401406"/>
    <nd ref="324401398"/>
    <nd ref="21297109"/>
    <nd ref="324401370"/>
    <nd ref="324401353"/>
    <nd ref="561207555"/>
    <nd ref="21297110"/>
    <nd ref="561207560"/>
    <nd ref="21297111"/>
    <nd ref="319143219"/>
    <nd ref="252542716"/>
    <tag k="highway" v="motorway"/>
    <tag k="int_ref" v="E 56"/>
    <tag k="oneway" v="yes"/>
    <tag k="ref" v="A 3"/>
  </way>
  <way id="4017743" version="28" timestamp="2010-09-16T15:13:17Z" uid="96069" user="theophrastos" changeset="5796534">
    <nd ref="21296910"/>
    <nd ref="561207561"/>
    <nd ref="21296911"/>
    <nd ref="325193563"/>
    <nd ref="21297104"/>
    <nd ref="324401446"/>
    <nd ref="21297105"/>
    <tag k="highway" v="motorway"/>
    <tag k="incline" v="4%"/>
    <tag k="int_ref" v="E 56"/>
    <tag k="maxspeed" v="120"/>
    <tag k="oneway" v="yes"/>
    <tag k="ref" v="A 3"/>
  </way>
  <way id="4017743" version="29" timestamp="2010-12-29T14:31:23Z" uid="89943" user="Bengatzer" changeset="6799260">
    <nd ref="21296910"/>
    <nd ref="561207561"/>
    <nd ref="21296911"/>
    <nd ref="325193563"/>
    <nd ref="21297104"/>
    <nd ref="1070830403"/>
    <nd ref="324401446"/>
    <nd ref="1070830434"/>
    <tag k="highway" v="motorway"/>
    <tag k="incline" v="4%"/>
    <tag k="int_ref" v="E 56"/>
    <tag k="maxspeed" v="120"/>
    <tag k="oneway" v="yes"/>
    <tag k="ref" v="A 3"/>
  </way>
  <way id="4017743" version="30" timestamp="2012-01-03T13:08:20Z" uid="386131" user="zhongguo" changeset="10281073"/>
  <way id="4017811" version="3" timestamp="2008-02-25T20:40:11Z" uid="6975" user="ulfl" changeset="208586">
    <nd ref="21299059"/>
    <nd ref="15936807"/>
    <nd ref="5910542"/>
    <nd ref="5910527"/>
    <nd ref="5910529"/>
    <nd ref="5910543"/>
    <nd ref="5910530"/>
    <nd ref="5910544"/>
    <nd ref="5910531"/>
    <nd ref="5910545"/>
    <nd ref="5910533"/>
    <nd ref="5910564"/>
    <nd ref="5910547"/>
    <nd ref="5910563"/>
    <nd ref="5910549"/>
    <nd ref="5910534"/>
    <nd ref="5910550"/>
    <nd ref="5910535"/>
    <nd ref="5910562"/>
    <nd ref="5910551"/>
    <nd ref="5910560"/>
    <nd ref="5910537"/>
    <nd ref="5910555"/>
    <nd ref="5910553"/>
    <nd ref="5910539"/>
    <nd ref="5910540"/>
    <nd ref="249310610"/>
    <tag k="created_by" v="JOSM"/>
    <tag k="highway" v="motorway"/>
    <tag k="oneway" v="true"/>
    <tag k="ref" v="A6"/>
  </way>
  <way id="4017811" version="4" timestamp="2008-03-24T21:31:05Z" uid="15748" user="bigbug21" changeset="387131">
    <nd ref="21299059"/>
    <nd ref="15936807"/>
    <nd ref="5910542"/>
    <nd ref="5910527"/>
    <nd ref="5910529"/>
    <nd ref="5910543"/>
    <nd ref="5910530"/>
    <nd ref="5910544"/>
    <nd ref="5910531"/>
    <nd ref="5910545"/>
    <nd ref="5910533"/>
    <nd ref="5910564"/>
    <nd ref="5910547"/>
    <nd ref="5910563"/>
    <nd ref="5910549"/>
    <nd ref="5910534"/>
    <nd ref="5910550"/>
    <nd ref="5910535"/>
    <nd ref="5910562"/>
    <nd ref="5910551"/>
    <nd ref="5910560"/>
    <nd ref="5910537"/>
    <nd ref="5910555"/>
    <nd ref="5910553"/>
    <nd ref="5910539"/>
    <nd ref="5910540"/>
    <nd ref="249310610"/>
    <tag k="created_by" v="JOSM"/>
    <tag k="highway" v="motorway"/>
    <tag k="oneway" v="true"/>
    <tag k="ref" v="A6"/>
  </way>
  <way id="4017811" version="5" timestamp="2008-03-25T10:57:26Z" uid="17099" user="matmai" changeset="390086">
    <nd ref="21299059"/>
    <nd ref="253902519"/>
    <tag k="created_by" v="JOSM"/>
    <tag k="highway" v="motorway"/>
    <tag k="oneway" v="true"/>
    <tag k="ref" v="A6"/>
  </way>
  <way id="4017811" version="6" timestamp="2008-05-31T19:54:57Z" uid="28378" user="PHerison" changeset="563151">
    <nd ref="21299059"/>
    <nd ref="253902519"/>
    <tag k="created_by" v="Potlatch 0.9c"/>
    <tag k="highway" v="motorway"/>
    <tag k="int_ref" v="E50"/>
    <tag k="oneway" v="yes"/>
    <tag k="ref" v="A 6"/>
  </way>
  <way id="4017811" version="7" timestamp="2008-05-31T19:55:22Z" uid="28378" user="PHerison" changeset="563151">
    <nd ref="253902629"/>
    <nd ref="21300290"/>
    <nd ref="21299059"/>
    <nd ref="253902519"/>
    <tag k="created_by" v="Potlatch 0.9c"/>
    <tag k="highway" v="motorway"/>
    <tag k="int_ref" v="E50"/>
    <tag k="oneway" v="yes"/>
    <tag k="ref" v="A 6"/>
  </way>
  <way id="4017811" version="8" timestamp="2008-06-22T18:10:09Z" uid="24920" user="Schusch" changeset="258812">
    <nd ref="253902629"/>
    <nd ref="21300290"/>
    <nd ref="21299059"/>
    <nd ref="253902519"/>
    <tag k="created_by" v="Potlatch 0.9c"/>
    <tag k="highway" v="motorway"/>
    <tag k="int_ref" v="E 50"/>
    <tag k="oneway" v="yes"/>
    <tag k="ref" v="A 6"/>
  </way>
  <way id="4017811" version="9" timestamp="2009-07-08T09:22:25Z" uid="83876" user="BurnyB" changeset="1770544">
    <nd ref="253902629"/>
    <nd ref="21300290"/>
    <tag k="highway" v="motorway"/>
    <tag k="int_ref" v="E 50"/>
    <tag k="oneway" v="yes"/>
    <tag k="ref" v="A 6"/>
  </way>
  <way id="4017811" version="10" timestamp="2009-10-02T15:34:46Z" uid="83876" user="BurnyB" changeset="2714104">
    <nd ref="253902629"/>
    <nd ref="21300290"/>
    <tag k="highway" v="motorway"/>
    <tag k="int_ref" v="E 50"/>
    <tag k="lanes" v="2"/>
    <tag k="oneway" v="yes"/>
    <tag k="ref" v="A 6"/>
  </way>
  <way id="4017811" version="11" timestamp="2010-11-28T19:16:06Z" uid="30077" user="ChristianW" changeset="6481235">
    <nd ref="253902629"/>
    <nd ref="21300290"/>
    <tag k="highway" v="motorway"/>
    <tag k="int_ref" v="E 50"/>
    <tag k="lanes" v="2"/>
    <tag k="oneway" v="yes"/>
    <tag k="ref" v="A 6"/>
    <tag k="reg_name" v="Via Carolina"/>
    <tag k="wikipedia:reg_name" v="de:Via Carolina"/>
  </way>
  <way id="4017811" version="12" timestamp="2010-11-29T16:23:43Z" uid="30077" user="ChristianW" changeset="6487695">
    <nd ref="253902629"/>
    <nd ref="21300290"/>
    <tag k="highway" v="motorway"/>
    <tag k="int_ref" v="E 50"/>
    <tag k="lanes" v="2"/>
    <tag k="note:name" v="Der reg_name, sowie ggf. der loc_name sind dem zugehörigen Wikipediaartikel entnommen."/>
    <tag k="oneway" v="yes"/>
    <tag k="ref" v="A 6"/>
    <tag k="reg_name" v="Via Carolina"/>
    <tag k="wikipedia:reg_name" v="de:Via Carolina"/>
  </way>
  <way id="4017811" version="13" timestamp="2012-01-02T13:20:17Z" uid="82877" user="Wankmann" changeset="10270492"/>
  <way id="4017872" version="1" timestamp="2007-07-12T21:27:55Z" uid="8328" user="benpre" changeset="141988">
    <nd ref="21298388"/>
    <nd ref="21298384"/>
    <nd ref="21298383"/>
    <tag k="created_by" v="JOSM"/>
    <tag k="highway" v="unclassified"/>
    <tag k="maxspeed" v="50"/>
    <tag k="name" v="Alzaia Naviglio Grande"/>
  </way>
  <way id="4017872" version="2" timestamp="2008-01-16T21:05:54Z" uid="22145" user="bh3u4m" changeset="647957">
    <nd ref="21298368"/>
    <nd ref="21389404"/>
    <nd ref="21298388"/>
    <nd ref="21298384"/>
    <nd ref="21389407"/>
    <tag k="created_by" v="Potlatch 0.6b"/>
    <tag k="highway" v="unclassified"/>
    <tag k="maxspeed" v="50"/>
    <tag k="name" v="Alzaia Naviglio Grande"/>
    <tag k="oneway" v="true"/>
  </way>
  <way id="4017872" version="3" timestamp="2008-06-14T10:51:45Z" uid="45684" user="Niouta" changeset="165816">
    <nd ref="21298368"/>
    <nd ref="21389404"/>
    <nd ref="21298388"/>
    <nd ref="21298384"/>
    <nd ref="21389407"/>
    <tag k="created_by" v="Potlatch 0.9c"/>
    <tag k="highway" v="unclassified"/>
    <tag k="maxspeed" v="50"/>
    <tag k="name" v="Alzaia Naviglio Grande"/>
    <tag k="oneway" v="true"/>
  </way>
  <way id="4017872" version="4" timestamp="2008-10-26T19:39:06Z" uid="45684" user="Niouta" changeset="582209">
    <nd ref="21298368"/>
    <nd ref="21389404"/>
    <nd ref="21298388"/>
    <nd ref="21298384"/>
    <nd ref="21389407"/>
    <tag k="created_by" v="Potlatch 0.10e"/>
    <tag k="highway" v="unclassified"/>
    <tag k="maxspeed" v="50"/>
    <tag k="name" v="Alzaia Naviglio Grande"/>
    <tag k="oneway" v="true"/>
  </way>
  <way id="4017872" version="5" timestamp="2008-11-19T20:24:10Z" uid="80088" user="FedericoCozzi" changeset="770405">
    <nd ref="21298368"/>
    <nd ref="21389404"/>
    <nd ref="21298388"/>
    <nd ref="21298384"/>
    <tag k="created_by" v="Potlatch 0.10e"/>
    <tag k="highway" v="unclassified"/>
    <tag k="maxspeed" v="50"/>
    <tag k="name" v="Alzaia Naviglio Grande"/>
    <tag k="oneway" v="true"/>
  </way>
  <way id="4017872" version="6" timestamp="2008-12-24T14:57:14Z" uid="80088" user="FedericoCozzi" changeset="583624">
    <nd ref="21298368"/>
    <nd ref="21389404"/>
    <nd ref="21298388"/>
    <nd ref="21298384"/>
    <tag k="created_by" v="Potlatch 0.10f"/>
    <tag k="highway" v="residential"/>
    <tag k="maxspeed" v="50"/>
    <tag k="name" v="Alzaia Naviglio Grande"/>
    <tag k="oneway" v="true"/>
  </way>
  <way id="4017872" version="7" timestamp="2008-12-24T14:57:43Z" uid="80088" user="FedericoCozzi" changeset="583624">
    <nd ref="21298368"/>
    <nd ref="21389404"/>
    <nd ref="21298388"/>
    <tag k="created_by" v="Potlatch 0.10f"/>
    <tag k="highway" v="residential"/>
    <tag k="maxspeed" v="50"/>
    <tag k="name" v="Alzaia Naviglio Grande"/>
    <tag k="oneway" v="true"/>
  </way>
  <way id="4017872" version="8" timestamp="2008-12-24T15:00:11Z" uid="80088" user="FedericoCozzi" changeset="583624">
    <nd ref="21298368"/>
    <nd ref="21389404"/>
    <nd ref="21298388"/>
    <tag k="created_by" v="Potlatch 0.10f"/>
    <tag k="cycleway" v="opposite_lane"/>
    <tag k="highway" v="residential"/>
    <tag k="maxspeed" v="50"/>
    <tag k="name" v="Alzaia Naviglio Grande"/>
    <tag k="oneway" v="true"/>
  </way>
  <way id="4017872" version="9" timestamp="2009-01-28T22:12:02Z" uid="80088" user="FedericoCozzi" changeset="849532">
    <nd ref="21298368"/>
    <nd ref="338806028"/>
    <nd ref="21389404"/>
    <nd ref="21298388"/>
    <tag k="created_by" v="Potlatch 0.10f"/>
    <tag k="cycleway" v="opposite_lane"/>
    <tag k="highway" v="residential"/>
    <tag k="maxspeed" v="50"/>
    <tag k="name" v="Alzaia Naviglio Grande"/>
    <tag k="oneway" v="true"/>
  </way>
  <way id="4017872" version="10" timestamp="2009-02-08T18:46:38Z" uid="80088" user="FedericoCozzi" changeset="269731">
    <nd ref="21298368"/>
    <nd ref="338806028"/>
    <nd ref="21389404"/>
    <nd ref="21298388"/>
    <tag k="created_by" v="Potlatch 0.10f"/>
    <tag k="cycleway" v="opposite_lane"/>
    <tag k="highway" v="residential"/>
    <tag k="maxspeed" v="50"/>
    <tag k="name" v="Alzaia Naviglio Grande"/>
    <tag k="oneway" v="yes"/>
  </way>
  <way id="4017872" version="11" timestamp="2009-06-12T11:03:37Z" uid="45684" user="Niouta" changeset="1495386">
    <nd ref="21298368"/>
    <nd ref="338806028"/>
    <nd ref="419119688"/>
    <nd ref="21389404"/>
    <nd ref="21298388"/>
    <tag k="created_by" v="Potlatch 0.10f"/>
    <tag k="cycleway" v="opposite_lane"/>
    <tag k="highway" v="residential"/>
    <tag k="maxspeed" v="50"/>
    <tag k="name" v="Alzaia Naviglio Grande"/>
    <tag k="oneway" v="yes"/>
  </way>
  <way id="4017872" version="12" timestamp="2009-06-17T08:46:28Z" uid="45684" user="Niouta" changeset="1543034">
    <nd ref="21298368"/>
    <nd ref="422585304"/>
    <nd ref="338806028"/>
    <nd ref="419119688"/>
    <nd ref="21389404"/>
    <nd ref="21298388"/>
    <tag k="created_by" v="Potlatch 0.10f"/>
    <tag k="cycleway" v="opposite_lane"/>
    <tag k="highway" v="residential"/>
    <tag k="maxspeed" v="50"/>
    <tag k="name" v="Alzaia Naviglio Grande"/>
    <tag k="oneway" v="yes"/>
  </way>
  <way id="4017872" version="13" timestamp="2009-11-14T19:03:22Z" uid="45684" user="Niouta" changeset="3115982">
    <nd ref="21298368"/>
    <nd ref="422585304"/>
    <nd ref="338806028"/>
    <nd ref="419119688"/>
    <nd ref="21389404"/>
    <nd ref="21298388"/>
    <tag k="cycleway" v="opposite_lane"/>
    <tag k="highway" v="residential"/>
    <tag k="maxspeed" v="30"/>
    <tag k="name" v="Alzaia Naviglio Grande"/>
    <tag k="oneway" v="yes"/>
  </way>
  <way id="4017872" version="14" timestamp="2010-04-02T16:48:41Z" uid="45684" user="Niouta" changeset="4305484">
    <nd ref="21298368"/>
    <nd ref="422585304"/>
    <nd ref="338806028"/>
    <nd ref="419119688"/>
    <nd ref="21389404"/>
    <nd ref="681722028"/>
    <nd ref="21298388"/>
    <tag k="cycleway" v="opposite_lane"/>
    <tag k="highway" v="residential"/>
    <tag k="maxspeed" v="30"/>
    <tag k="name" v="Alzaia Naviglio Grande"/>
    <tag k="oneway" v="yes"/>
  </way>
  <way id="4017872" version="15" timestamp="2010-11-21T22:34:01Z" uid="230707" user="stanton" changeset="6427599">
    <nd ref="21298368"/>
    <nd ref="422585304"/>
    <nd ref="338806028"/>
    <nd ref="419119688"/>
    <nd ref="21389404"/>
    <nd ref="998760010"/>
    <nd ref="681722028"/>
    <nd ref="21298388"/>
    <tag k="cycleway" v="opposite_lane"/>
    <tag k="highway" v="residential"/>
    <tag k="maxspeed" v="30"/>
    <tag k="name" v="Alzaia Naviglio Grande"/>
    <tag k="oneway" v="yes"/>
  </way>
  <way id="4017872" version="16" timestamp="2011-06-24T23:00:00Z" uid="80088" user="FedericoCozzi" changeset="8537977">
    <nd ref="21298368"/>
    <nd ref="422585304"/>
    <nd ref="338806028"/>
    <nd ref="419119688"/>
    <tag k="cycleway" v="opposite_lane"/>
    <tag k="highway" v="residential"/>
    <tag k="maxspeed" v="30"/>
    <tag k="name" v="Alzaia Naviglio Grande"/>
    <tag k="oneway" v="yes"/>
  </way>
  <way id="4017872" version="17" timestamp="2011-11-08T09:02:05Z" uid="22110" user="ilrobi" changeset="9771492">
    <nd ref="21298368"/>
    <nd ref="422585304"/>
    <nd ref="1495158643"/>
    <nd ref="338806028"/>
    <nd ref="419119688"/>
    <tag k="cycleway" v="opposite_lane"/>
    <tag k="highway" v="residential"/>
    <tag k="maxspeed" v="30"/>
    <tag k="name" v="Alzaia Naviglio Grande"/>
    <tag k="oneway" v="yes"/>
  </way>
  <way id="4017950" version="3" timestamp="2008-02-25T20:40:10Z" uid="6975" user="ulfl" changeset="208586">
    <nd ref="21298202"/>
    <nd ref="249310612"/>
    <tag k="created_by" v="JOSM"/>
    <tag k="highway" v="motorway"/>
    <tag k="oneway" v="true"/>
    <tag k="ref" v="A6"/>
  </way>
  <way id="4017950" version="4" timestamp="2008-05-31T19:47:46Z" uid="28378" user="PHerison" changeset="563151">
    <nd ref="15934129"/>
    <nd ref="21298202"/>
    <nd ref="249310612"/>
    <tag k="created_by" v="Potlatch 0.9c"/>
    <tag k="highway" v="motorway"/>
    <tag k="int_ref" v="E50"/>
    <tag k="oneway" v="yes"/>
    <tag k="ref" v="A 6"/>
  </way>
  <way id="4017950" version="5" timestamp="2008-05-31T19:48:19Z" uid="28378" user="PHerison" changeset="563151">
    <nd ref="15934129"/>
    <nd ref="21298202"/>
    <nd ref="249310612"/>
    <tag k="created_by" v="Potlatch 0.9c"/>
    <tag k="highway" v="motorway"/>
    <tag k="int_ref" v="E50"/>
    <tag k="oneway" v="yes"/>
    <tag k="ref" v="A 6"/>
  </way>
  <way id="4017950" version="6" timestamp="2008-05-31T19:50:19Z" uid="28378" user="PHerison" changeset="563151"/>
  <way id="4017182" version="7" timestamp="2012-07-15T00:30:58Z" uid="52495" user="seawolff" changeset="12223058">
    <nd ref="21264387"/>
    <nd ref="1492613603"/>
    <nd ref="1492613602"/>
    <nd ref="1492613605"/>
    <nd ref="304765729"/>
    <nd ref="304765730"/>
    <nd ref="21288912"/>
    <tag k="highway" v="residential"/>
    <tag k="maxspeed" v="30"/>
    <tag k="name" v="Richterstraße"/>
  </way>
  <way id="4017182" version="8" timestamp="2012-07-18T11:11:47Z" uid="722137" user="OSMF Redaction Account" changeset="12279701">
    <nd ref="21264387"/>
    <nd ref="1492613603"/>
    <nd ref="1492613602"/>
    <nd ref="1492613605"/>
    <nd ref="21288912"/>
    <tag k="highway" v="residential"/>
    <tag k="maxspeed" v="30"/>
    <tag k="name" v="Richterstraße"/>
  </way>
  <way id="4017183" version="7" timestamp="2012-07-18T11:11:47Z" uid="722137" user="OSMF Redaction Account" changeset="12279701">
    <nd ref="21288913"/>
    <nd ref="1493017727"/>
    <nd ref="21288916"/>
    <tag k="highway" v="residential"/>
    <tag k="name" v="Hayßenstraße"/>
  </way>
  <way id="4017184" version="6" timestamp="2012-07-18T11:11:47Z" uid="722137" user="OSMF Redaction Account" changeset="12279701">
    <nd ref="21288914"/>
    <nd ref="21288915"/>
    <tag k="highway" v="residential"/>
    <tag k="name" v="Lütjohannstraße"/>
  </way>
  <way id="4017256" version="11" timestamp="2012-07-17T00:37:52Z" uid="722137" user="OSMF Redaction Account" changeset="12254280">
    <nd ref="2388485"/>
    <nd ref="1189764232"/>
    <nd ref="2388487"/>
    <tag k="highway" v="secondary"/>
    <tag k="layer" v="1"/>
  </way>
  <way id="4017417" version="6" timestamp="2012-07-19T15:22:08Z" uid="722137" user="OSMF Redaction Account" changeset="12334285">
    <nd ref="21277706"/>
    <nd ref="21292399"/>
    <tag k="highway" v="unclassified"/>
  </way>
  <way id="4017417" version="7" timestamp="2012-07-25T14:52:41Z" uid="308" user="MichaelCollinson" changeset="12488029">
    <nd ref="21277706"/>
    <nd ref="440114614"/>
    <nd ref="21292399"/>
    <tag k="highway" v="unclassified"/>
  </way>
  <way id="4017488" version="31" timestamp="2012-07-19T15:22:05Z" uid="722137" user="OSMF Redaction Account" changeset="12334285">
    <nd ref="21293310"/>
    <nd ref="298300572"/>
    <nd ref="364055083"/>
    <nd ref="364055031"/>
    <nd ref="364055032"/>
    <nd ref="367804943"/>
    <nd ref="367804944"/>
    <tag k="highway" v="residential"/>
    <tag k="is_in" v="Australia, QLD, Queensland, Dalby"/>
    <tag k="name" v="Sydney Street"/>
  </way>
  <way id="4017489" version="6" timestamp="2012-07-19T15:22:09Z" uid="722137" user="OSMF Redaction Account" changeset="12334285">
    <nd ref="21293318"/>
    <nd ref="364305321"/>
    <tag k="highway" v="unclassified"/>
    <tag k="is_in" v="Australia, QLD, Queensland, Dalby"/>
    <tag k="name" v="Carberry&apos;s Lane"/>
    <tag k="oneway" v="yes"/>
  </way>
  <way id="4017490" version="11" timestamp="2012-07-19T15:22:08Z" uid="722137" user="OSMF Redaction Account" changeset="12334285">
    <nd ref="21293330"/>
    <nd ref="299408233"/>
    <nd ref="299408194"/>
    <nd ref="318537437"/>
    <tag k="highway" v="unclassified"/>
    <tag k="is_in" v="Australia, QLD, Queensland, Dalby"/>
    <tag k="name" v="Ewings Lane"/>
    <tag k="oneway" v="yes"/>
  </way>
  <way id="4017535" version="7" timestamp="2012-07-19T15:22:06Z" uid="722137" user="OSMF Redaction Account" changeset="12334285">
    <nd ref="21292399"/>
    <nd ref="401417900"/>
    <nd ref="21294353"/>
    <tag k="highway" v="unclassified"/>
    <tag k="is_in" v="Australia, QLD, Queensland, Dalby"/>
  </way>
  <way id="4017547" version="26" timestamp="2012-07-19T15:22:09Z" uid="722137" user="OSMF Redaction Account" changeset="12334285">
    <nd ref="297834777"/>
    <nd ref="297840027"/>
    <nd ref="297840026"/>
    <nd ref="297840024"/>
    <nd ref="21279519"/>
    <nd ref="21294445"/>
    <nd ref="297629832"/>
    <nd ref="297629793"/>
    <nd ref="21294444"/>
    <tag k="highway" v="unclassified"/>
    <tag k="is_in" v="Australia, QLD, Queensland, Dalby"/>
    <tag k="name" v="Matheson"/>
  </way>
  <way id="4017547" version="27" timestamp="2012-07-25T15:48:46Z" uid="308" user="MichaelCollinson" changeset="12488029">
    <nd ref="297834777"/>
    <nd ref="297840027"/>
    <nd ref="297840026"/>
    <nd ref="297840024"/>
    <nd ref="21279519"/>
    <nd ref="21294445"/>
    <nd ref="297629832"/>
    <nd ref="1837791447"/>
    <nd ref="1837791451"/>
    <nd ref="297629793"/>
    <nd ref="21294444"/>
    <tag k="highway" v="unclassified"/>
    <tag k="is_in" v="Australia, QLD, Queensland, Dalby"/>
    <tag k="name" v="Matheson"/>
  </way>
  <way id="4017547" version="28" timestamp="2012-07-25T16:03:28Z" uid="308" user="MichaelCollinson" changeset="12488029">
    <nd ref="297834777"/>
    <nd ref="297840027"/>
    <nd ref="297840026"/>
    <nd ref="297840024"/>
    <nd ref="297629832"/>
    <nd ref="1837791447"/>
    <nd ref="1837791451"/>
    <nd ref="297629793"/>
    <nd ref="21294444"/>
    <tag k="highway" v="unclassified"/>
    <tag k="is_in" v="Australia, QLD, Queensland, Dalby"/>
    <tag k="name" v="Matheson"/>
  </way>
  <way id="4017580" version="4" timestamp="2012-04-14T20:44:45Z" uid="89943" user="Bengatzer" changeset="11303679">
    <nd ref="21294492"/>
    <nd ref="25759033"/>
    <nd ref="1716818744"/>
    <nd ref="1716818748"/>
    <nd ref="21294534"/>
    <nd ref="353832202"/>
    <nd ref="353832198"/>
    <nd ref="21294478"/>
    <nd ref="443767649"/>
    <tag k="highway" v="residential"/>
    <tag k="name" v="Fischergasse"/>
  </way>
  <way id="4017580" version="5" timestamp="2012-07-19T02:55:09Z" uid="722137" user="OSMF Redaction Account" changeset="12305848">
    <nd ref="21294492"/>
    <nd ref="25759033"/>
    <nd ref="1716818744"/>
    <nd ref="1716818748"/>
    <nd ref="21294534"/>
    <nd ref="21294478"/>
    <nd ref="443767649"/>
    <tag k="highway" v="residential"/>
    <tag k="name" v="Fischergasse"/>
  </way>
  <way id="4017580" version="6" timestamp="2012-08-31T14:44:03Z" uid="172734" user="bernds" changeset="12931843">
    <nd ref="21294492"/>
    <nd ref="25759033"/>
    <nd ref="1716818744"/>
    <nd ref="1716818748"/>
    <nd ref="21294534"/>
    <nd ref="21294478"/>
    <nd ref="443767649"/>
    <tag k="highway" v="residential"/>
    <tag k="name" v="Fischergasse"/>
    <tag k="oneway" v="yes"/>
  </way>
  <way id="4017872" version="18" timestamp="2012-05-19T17:03:59Z" uid="69717" user="kaitu" changeset="11644397"/>
</osm>
