<?xml version='1.0' encoding='UTF-8'?>
<osm version="0.6" generator="libosmium/2.20.0">
  <way id="40338737" version="2" timestamp="2010-11-16T01:43:33Z" uid="17602" user="B10xyz" changeset="6382237">
    <nd ref="469523072"/>
    <nd ref="486876231"/>
    <tag k="highway" v="residential"/>
    <tag k="name" v="Backhausstraße"/>
    <tag k="surface" v="asphalt"/>
  </way>
  <way id="40338799" version="2" timestamp="2010-07-25T22:50:15Z" uid="4467" user="Rosscoe" changeset="5317371">
    <nd ref="412113250"/>
    <nd ref="486876885"/>
    <tag k="bridge" v="yes"/>
    <tag k="highway" v="unclassified"/>
    <tag k="layer" v="1"/>
    <tag k="name" v="Park Street"/>
  </way>
  <way id="40338810" version="2" timestamp="2010-04-02T17:44:02Z" uid="20587" user="balrog-kun" changeset="4304500">
    <nd ref="486876942"/>
    <nd ref="486876950"/>
    <nd ref="486876951"/>
    <nd ref="486876952"/>
    <nd ref="486876953"/>
    <nd ref="486876954"/>
    <nd ref="486876955"/>
    <nd ref="486876949"/>
    <tag k="highway" v="residential"/>
    <tag k="name" v="J Street Southeast"/>
    <tag k="oneway" v="no"/>
    <tag k="source" v="survey"/>
  </way>
  <way id="40338810" version="3" timestamp="2010-11-21T15:37:19Z" uid="11131" user="ChucklinMonkey" changeset="6423626">
    <nd ref="486876942"/>
    <nd ref="486876950"/>
    <nd ref="486876951"/>
    <nd ref="486876952"/>
    <nd ref="997982120"/>
    <nd ref="997982107"/>
    <nd ref="997982132"/>
    <nd ref="486876953"/>
    <nd ref="997982123"/>
    <nd ref="997982100"/>
    <nd ref="486876954"/>
    <nd ref="486876955"/>
    <nd ref="486876949"/>
    <tag k="highway" v="residential"/>
    <tag k="name" v="J Street Southeast"/>
    <tag k="oneway" v="no"/>
    <tag k="source" v="survey"/>
  </way>
  <way id="40338737" version="3" timestamp="2012-06-09T14:57:51Z" uid="212553" user="ARWIE" changeset="11845753">
    <nd ref="469523072"/>
    <nd ref="1781653511"/>
    <nd ref="1781653190"/>
    <nd ref="486876231"/>
    <tag k="highway" v="residential"/>
    <tag k="name" v="Backhausstraße"/>
    <tag k="surface" v="asphalt"/>
  </way>
  <way id="40338799" version="3" timestamp="2012-07-19T07:57:31Z" uid="722137" user="OSMF Redaction Account" changeset="12312896">
    <nd ref="412113250"/>
    <nd ref="486876885"/>
    <tag k="bridge" v="yes"/>
    <tag k="highway" v="unclassified"/>
    <tag k="name" v="Park Street"/>
  </way>
</osm>
