<?xml version='1.0' encoding='UTF-8'?>
<osm version="0.6" generator="libosmium/2.20.0">
  <way id="40420016" version="2" timestamp="2010-04-07T13:52:12Z" uid="20587" user="balrog-kun" changeset="4353646">
    <nd ref="489172561"/>
    <nd ref="489172564"/>
    <tag k="highway" v="residential"/>
    <tag k="name" v="Sisson Street"/>
  </way>
  <way id="40420024" version="4" timestamp="2010-04-07T13:52:12Z" uid="20587" user="balrog-kun" changeset="4353646">
    <nd ref="227513942"/>
    <nd ref="227513945"/>
    <nd ref="227513948"/>
    <nd ref="227513950"/>
    <nd ref="227511966"/>
    <nd ref="227513954"/>
    <nd ref="227513959"/>
    <nd ref="227513963"/>
    <nd ref="305640171"/>
    <nd ref="227513967"/>
    <nd ref="227487800"/>
    <nd ref="227513971"/>
    <nd ref="227513975"/>
    <nd ref="227513976"/>
    <nd ref="227499235"/>
    <nd ref="227509145"/>
    <nd ref="227513980"/>
    <nd ref="227513985"/>
    <nd ref="227513988"/>
    <nd ref="227513990"/>
    <nd ref="227495393"/>
    <nd ref="489172806"/>
    <nd ref="227513995"/>
    <nd ref="305635052"/>
    <nd ref="305635051"/>
    <tag k="highway" v="residential"/>
    <tag k="name" v="North Chaparral Street"/>
    <tag k="oneway" v="yes"/>
    <tag k="tiger:cfcc" v="A41"/>
    <tag k="tiger:county" v="Nueces, TX"/>
    <tag k="tiger:name_base" v="Chaparral"/>
    <tag k="tiger:name_direction_prefix" v="N"/>
    <tag k="tiger:name_type" v="St"/>
    <tag k="tiger:separated" v="no"/>
    <tag k="tiger:source" v="tiger_import_dch_v0.6_20070830"/>
    <tag k="tiger:tlid" v="178534697:178534227:178514265:178514267:178514541:178514543:178514561:178514563:178514567:178514569:178516976:178516977:178514309:178516984:178516998:178517006:178517048:178517050:178517012:178516986"/>
    <tag k="tiger:zip_left" v="78401"/>
    <tag k="tiger:zip_right" v="78401"/>
  </way>
  <way id="40420024" version="5" timestamp="2011-08-21T02:11:55Z" uid="119881" user="Clorox" changeset="9080248">
    <nd ref="227513942"/>
    <nd ref="227513945"/>
    <nd ref="227513948"/>
    <nd ref="227513950"/>
    <nd ref="227511966"/>
    <nd ref="227513954"/>
    <nd ref="227513959"/>
    <nd ref="227513963"/>
    <nd ref="305640171"/>
    <nd ref="227513967"/>
    <nd ref="227487800"/>
    <nd ref="227513971"/>
    <tag k="highway" v="residential"/>
    <tag k="name" v="North Chaparral Street"/>
    <tag k="oneway" v="yes"/>
    <tag k="tiger:cfcc" v="A41"/>
    <tag k="tiger:county" v="Nueces, TX"/>
    <tag k="tiger:name_base" v="Chaparral"/>
    <tag k="tiger:name_direction_prefix" v="N"/>
    <tag k="tiger:name_type" v="St"/>
    <tag k="tiger:separated" v="no"/>
    <tag k="tiger:source" v="tiger_import_dch_v0.6_20070830"/>
    <tag k="tiger:tlid" v="178534697:178534227:178514265:178514267:178514541:178514543:178514561:178514563:178514567:178514569:178516976:178516977:178514309:178516984:178516998:178517006:178517048:178517050:178517012:178516986"/>
    <tag k="tiger:zip_left" v="78401"/>
    <tag k="tiger:zip_right" v="78401"/>
  </way>
  <way id="40420024" version="6" timestamp="2011-08-21T06:20:48Z" uid="119881" user="Clorox" changeset="9080923">
    <nd ref="227513942"/>
    <nd ref="227513945"/>
    <nd ref="227513948"/>
    <nd ref="227513950"/>
    <nd ref="227511966"/>
    <nd ref="227513954"/>
    <nd ref="227513959"/>
    <nd ref="227513963"/>
    <nd ref="305640171"/>
    <nd ref="227513967"/>
    <nd ref="227487800"/>
    <nd ref="227513971"/>
    <tag k="highway" v="secondary"/>
    <tag k="name" v="North Chaparral Street"/>
    <tag k="oneway" v="yes"/>
    <tag k="tiger:cfcc" v="A41"/>
    <tag k="tiger:county" v="Nueces, TX"/>
    <tag k="tiger:name_base" v="Chaparral"/>
    <tag k="tiger:name_direction_prefix" v="N"/>
    <tag k="tiger:name_type" v="St"/>
    <tag k="tiger:separated" v="no"/>
    <tag k="tiger:source" v="tiger_import_dch_v0.6_20070830"/>
    <tag k="tiger:tlid" v="178534697:178534227:178514265:178514267:178514541:178514543:178514561:178514563:178514567:178514569:178516976:178516977:178514309:178516984:178516998:178517006:178517048:178517050:178517012:178516986"/>
    <tag k="tiger:zip_left" v="78401"/>
    <tag k="tiger:zip_right" v="78401"/>
  </way>
  <way id="40420024" version="7" timestamp="2012-01-03T03:04:15Z" uid="207745" user="NE2" changeset="10278142">
    <nd ref="227513942"/>
    <nd ref="227513945"/>
    <tag k="highway" v="secondary"/>
    <tag k="name" v="North Chaparral Street"/>
    <tag k="old_ref" v="SH 44 Business (old Loop 443 (old SH 44))"/>
    <tag k="oneway" v="yes"/>
    <tag k="tiger:cfcc" v="A41"/>
    <tag k="tiger:county" v="Nueces, TX"/>
    <tag k="tiger:name_base" v="Chaparral"/>
    <tag k="tiger:name_direction_prefix" v="N"/>
    <tag k="tiger:name_type" v="St"/>
    <tag k="tiger:separated" v="no"/>
    <tag k="tiger:source" v="tiger_import_dch_v0.6_20070830"/>
    <tag k="tiger:tlid" v="178534697:178534227:178514265:178514267:178514541:178514543:178514561:178514563:178514567:178514569:178516976:178516977:178514309:178516984:178516998:178517006:178517048:178517050:178517012:178516986"/>
    <tag k="tiger:zip_left" v="78401"/>
    <tag k="tiger:zip_right" v="78401"/>
  </way>
  <way id="40420041" version="2" timestamp="2010-04-24T07:31:26Z" uid="74617" user="JohnSmith" changeset="4509385">
    <nd ref="489181295"/>
    <nd ref="489181296"/>
    <nd ref="489181297"/>
    <nd ref="705010245"/>
    <nd ref="489181298"/>
    <nd ref="489181306"/>
    <nd ref="489181309"/>
    <tag k="highway" v="residential"/>
    <tag k="maxspeed" v="50"/>
    <tag k="name" v="Derrimut Road"/>
    <tag k="source" v="nearmap"/>
  </way>
  <way id="40420041" version="3" timestamp="2011-04-21T11:45:43Z" uid="4467" user="Rosscoe" changeset="7924737">
    <nd ref="1253925848"/>
    <nd ref="489181295"/>
    <nd ref="489181296"/>
    <nd ref="489181297"/>
    <nd ref="705010245"/>
    <nd ref="489181298"/>
    <nd ref="489181306"/>
    <nd ref="489181309"/>
    <tag k="highway" v="residential"/>
    <tag k="maxspeed" v="50"/>
    <tag k="name" v="Derrimut Road"/>
    <tag k="source" v="nearmap"/>
  </way>
  <way id="40420041" version="4" timestamp="2012-01-19T04:27:22Z" uid="147510" user="woodpeck_fixbot" changeset="10433650">
    <nd ref="1253925848"/>
    <nd ref="489181295"/>
    <nd ref="489181296"/>
    <nd ref="489181297"/>
    <nd ref="705010245"/>
    <nd ref="489181298"/>
    <nd ref="489181306"/>
    <nd ref="489181309"/>
    <tag k="highway" v="residential"/>
    <tag k="name" v="Derrimut Road"/>
    <tag k="source" v="nearmap"/>
  </way>
  <way id="40420042" version="2" timestamp="2010-04-24T07:31:24Z" uid="74617" user="JohnSmith" changeset="4509385">
    <nd ref="489181306"/>
    <nd ref="489181316"/>
    <tag k="highway" v="residential"/>
    <tag k="maxspeed" v="50"/>
    <tag k="name" v="Walter Monti Court"/>
    <tag k="source" v="nearmap"/>
  </way>
  <way id="40420042" version="3" timestamp="2012-01-19T04:27:23Z" uid="147510" user="woodpeck_fixbot" changeset="10433650">
    <nd ref="489181306"/>
    <nd ref="489181316"/>
    <tag k="highway" v="residential"/>
    <tag k="name" v="Walter Monti Court"/>
    <tag k="source" v="nearmap"/>
  </way>
  <way id="40420043" version="2" timestamp="2010-04-24T07:31:21Z" uid="74617" user="JohnSmith" changeset="4509385">
    <nd ref="489181309"/>
    <nd ref="489181317"/>
    <nd ref="489181318"/>
    <nd ref="489181320"/>
    <nd ref="489181321"/>
    <nd ref="489181322"/>
    <tag k="highway" v="residential"/>
    <tag k="maxspeed" v="50"/>
    <tag k="name" v="Burvale Court"/>
    <tag k="source" v="nearmap"/>
  </way>
  <way id="40420043" version="3" timestamp="2012-01-19T04:27:25Z" uid="147510" user="woodpeck_fixbot" changeset="10433650">
    <nd ref="489181309"/>
    <nd ref="489181317"/>
    <nd ref="489181318"/>
    <nd ref="489181320"/>
    <nd ref="489181321"/>
    <nd ref="489181322"/>
    <tag k="highway" v="residential"/>
    <tag k="name" v="Burvale Court"/>
    <tag k="source" v="nearmap"/>
  </way>
  <way id="40420044" version="2" timestamp="2010-04-24T07:31:25Z" uid="74617" user="JohnSmith" changeset="4509385">
    <nd ref="489181309"/>
    <nd ref="489181324"/>
    <tag k="highway" v="residential"/>
    <tag k="maxspeed" v="50"/>
    <tag k="name" v="Stamford Street"/>
    <tag k="source" v="nearmap"/>
  </way>
  <way id="40420044" version="3" timestamp="2012-01-19T04:27:26Z" uid="147510" user="woodpeck_fixbot" changeset="10433650">
    <nd ref="489181309"/>
    <nd ref="489181324"/>
    <tag k="highway" v="residential"/>
    <tag k="name" v="Stamford Street"/>
    <tag k="source" v="nearmap"/>
  </way>
  <way id="40420045" version="2" timestamp="2010-04-24T07:31:23Z" uid="74617" user="JohnSmith" changeset="4509385">
    <nd ref="489181326"/>
    <nd ref="489181324"/>
    <nd ref="489181327"/>
    <tag k="highway" v="residential"/>
    <tag k="maxspeed" v="50"/>
    <tag k="name" v="Dundas Street"/>
    <tag k="source" v="nearmap"/>
  </way>
  <way id="40420045" version="3" timestamp="2012-01-19T04:27:27Z" uid="147510" user="woodpeck_fixbot" changeset="10433650">
    <nd ref="489181326"/>
    <nd ref="489181324"/>
    <nd ref="489181327"/>
    <tag k="highway" v="residential"/>
    <tag k="name" v="Dundas Street"/>
    <tag k="source" v="nearmap"/>
  </way>
  <way id="40420071" version="3" timestamp="2010-04-27T02:50:33Z" uid="74617" user="JohnSmith" changeset="4537635">
    <nd ref="489188058"/>
    <nd ref="489188061"/>
    <nd ref="489188064"/>
    <nd ref="489188067"/>
    <tag k="highway" v="residential"/>
    <tag k="maxspeed" v="50"/>
    <tag k="name" v="Grace Street"/>
    <tag k="source" v="nearmap"/>
  </way>
  <way id="40420071" version="4" timestamp="2011-04-21T11:45:32Z" uid="4467" user="Rosscoe" changeset="7924737">
    <nd ref="489188058"/>
    <nd ref="1253925864"/>
    <nd ref="489188061"/>
    <nd ref="489188064"/>
    <nd ref="489188067"/>
    <tag k="highway" v="residential"/>
    <tag k="maxspeed" v="50"/>
    <tag k="name" v="Grace Street"/>
    <tag k="source" v="nearmap"/>
  </way>
  <way id="40420071" version="5" timestamp="2012-01-19T04:27:28Z" uid="147510" user="woodpeck_fixbot" changeset="10433650">
    <nd ref="489188058"/>
    <nd ref="1253925864"/>
    <nd ref="489188061"/>
    <nd ref="489188064"/>
    <nd ref="489188067"/>
    <tag k="highway" v="residential"/>
    <tag k="name" v="Grace Street"/>
    <tag k="source" v="nearmap"/>
  </way>
  <way id="40420072" version="3" timestamp="2010-04-27T02:50:36Z" uid="74617" user="JohnSmith" changeset="4537635">
    <nd ref="489188064"/>
    <nd ref="489188079"/>
    <tag k="highway" v="residential"/>
    <tag k="maxspeed" v="50"/>
    <tag k="name" v="Wiltshire Drive"/>
    <tag k="source" v="nearmap"/>
  </way>
  <way id="40420072" version="4" timestamp="2012-01-19T04:27:29Z" uid="147510" user="woodpeck_fixbot" changeset="10433650">
    <nd ref="489188064"/>
    <nd ref="489188079"/>
    <tag k="highway" v="residential"/>
    <tag k="name" v="Wiltshire Drive"/>
    <tag k="source" v="nearmap"/>
  </way>
  <way id="40420073" version="3" timestamp="2010-04-27T02:50:34Z" uid="74617" user="JohnSmith" changeset="4537635">
    <nd ref="489188086"/>
    <nd ref="489188079"/>
    <nd ref="489188089"/>
    <tag k="highway" v="residential"/>
    <tag k="maxspeed" v="50"/>
    <tag k="name" v="Nottingham Court"/>
    <tag k="source" v="nearmap"/>
  </way>
  <way id="40420073" version="4" timestamp="2012-01-19T04:27:30Z" uid="147510" user="woodpeck_fixbot" changeset="10433650">
    <nd ref="489188086"/>
    <nd ref="489188079"/>
    <nd ref="489188089"/>
    <tag k="highway" v="residential"/>
    <tag k="name" v="Nottingham Court"/>
    <tag k="source" v="nearmap"/>
  </way>
  <way id="40420074" version="3" timestamp="2010-04-24T05:43:08Z" uid="74617" user="JohnSmith" changeset="4508950">
    <nd ref="489188061"/>
    <nd ref="489188097"/>
    <nd ref="489188099"/>
    <nd ref="704997782"/>
    <nd ref="489188103"/>
    <nd ref="489188104"/>
    <tag k="fixme" v="needs to be surveyed/checked"/>
    <tag k="highway" v="residential"/>
    <tag k="name" v="Montgomery Crescent"/>
    <tag k="source" v="orienteering map"/>
  </way>
  <way id="40420074" version="4" timestamp="2010-04-27T02:50:38Z" uid="74617" user="JohnSmith" changeset="4537635">
    <nd ref="489188061"/>
    <nd ref="489188097"/>
    <nd ref="489188099"/>
    <nd ref="704997782"/>
    <nd ref="489188103"/>
    <nd ref="489188104"/>
    <tag k="highway" v="residential"/>
    <tag k="maxspeed" v="50"/>
    <tag k="name" v="Montgomery Crescent"/>
    <tag k="source" v="nearmap"/>
  </way>
  <way id="40420074" version="5" timestamp="2012-01-19T04:27:31Z" uid="147510" user="woodpeck_fixbot" changeset="10433650">
    <nd ref="489188061"/>
    <nd ref="489188097"/>
    <nd ref="489188099"/>
    <nd ref="704997782"/>
    <nd ref="489188103"/>
    <nd ref="489188104"/>
    <tag k="highway" v="residential"/>
    <tag k="name" v="Montgomery Crescent"/>
    <tag k="source" v="nearmap"/>
  </way>
  <way id="40420075" version="3" timestamp="2010-04-27T02:50:34Z" uid="74617" user="JohnSmith" changeset="4537635">
    <nd ref="489188097"/>
    <nd ref="489188106"/>
    <tag k="highway" v="residential"/>
    <tag k="maxspeed" v="50"/>
    <tag k="name" v="Morshead Court"/>
    <tag k="source" v="nearmap"/>
  </way>
  <way id="40420075" version="4" timestamp="2012-01-19T04:27:32Z" uid="147510" user="woodpeck_fixbot" changeset="10433650">
    <nd ref="489188097"/>
    <nd ref="489188106"/>
    <tag k="highway" v="residential"/>
    <tag k="name" v="Morshead Court"/>
    <tag k="source" v="nearmap"/>
  </way>
  <way id="40420814" version="3" timestamp="2009-11-13T08:49:05Z" uid="4467" user="Rosscoe" changeset="3104251">
    <nd ref="34232335"/>
    <nd ref="489201790"/>
    <nd ref="489201791"/>
    <nd ref="489201792"/>
    <nd ref="489201794"/>
    <nd ref="489201795"/>
    <nd ref="489201796"/>
    <nd ref="489201797"/>
    <nd ref="489201798"/>
    <tag k="highway" v="unclassified"/>
    <tag k="name" v="Ewings Road"/>
  </way>
  <way id="40420814" version="4" timestamp="2009-11-13T10:25:39Z" uid="10906" user="Derringer" changeset="3104735">
    <nd ref="34232335"/>
    <nd ref="489201790"/>
    <nd ref="489201791"/>
    <nd ref="489201792"/>
    <nd ref="489201794"/>
    <nd ref="489201795"/>
    <nd ref="489201796"/>
    <nd ref="489201797"/>
    <nd ref="489201798"/>
    <tag k="highway" v="unclassified"/>
    <tag k="name" v="Ewings Road"/>
  </way>
  <way id="40420814" version="5" timestamp="2009-11-22T09:58:06Z" uid="10906" user="Derringer" changeset="3183763">
    <nd ref="34232335"/>
    <nd ref="489201790"/>
    <nd ref="489201791"/>
    <nd ref="489201792"/>
    <nd ref="489201794"/>
    <nd ref="489201795"/>
    <nd ref="489201796"/>
    <nd ref="489201797"/>
    <nd ref="489201798"/>
    <tag k="highway" v="unclassified"/>
    <tag k="name" v="Ewings Road"/>
  </way>
  <way id="40420974" version="2" timestamp="2010-03-28T10:19:40Z" uid="20587" user="balrog-kun" changeset="4254597">
    <nd ref="87292074"/>
    <nd ref="87292076"/>
    <nd ref="87292078"/>
    <nd ref="87292079"/>
    <nd ref="87292082"/>
    <nd ref="87292084"/>
    <nd ref="87292086"/>
    <nd ref="87292087"/>
    <nd ref="87292088"/>
    <nd ref="87292090"/>
    <nd ref="87292092"/>
    <nd ref="87292094"/>
    <nd ref="87292097"/>
    <nd ref="87292099"/>
    <nd ref="87292100"/>
    <nd ref="87292101"/>
    <nd ref="87292102"/>
    <nd ref="87292105"/>
    <nd ref="86426784"/>
    <tag k="highway" v="residential"/>
    <tag k="name" v="West Lake Mendocino Drive"/>
    <tag k="name_1" v="Frontage Road A"/>
    <tag k="tiger:cfcc" v="A41"/>
    <tag k="tiger:county" v="Mendocino, CA"/>
    <tag k="tiger:name_base" v="Lake Mendocino"/>
    <tag k="tiger:name_base_1" v="Frontage Road A"/>
    <tag k="tiger:name_direction_prefix" v="W"/>
    <tag k="tiger:name_type" v="Dr"/>
    <tag k="tiger:reviewed" v="no"/>
    <tag k="tiger:separated" v="no"/>
    <tag k="tiger:source" v="tiger_import_dch_v0.6_20070809"/>
    <tag k="tiger:tlid" v="67266701:67266688"/>
    <tag k="tiger:zip_left" v="95482"/>
  </way>
  <way id="40420980" version="2" timestamp="2009-11-13T08:43:22Z" uid="4467" user="Rosscoe" changeset="3104225">
    <nd ref="489206267"/>
    <nd ref="489206268"/>
    <nd ref="489206270"/>
    <nd ref="489206271"/>
    <nd ref="489206272"/>
    <nd ref="489206273"/>
    <tag k="highway" v="residential"/>
    <tag k="name" v="Queen Street"/>
  </way>
  <way id="40420980" version="3" timestamp="2009-11-13T10:25:39Z" uid="10906" user="Derringer" changeset="3104735">
    <nd ref="489206267"/>
    <nd ref="489206268"/>
    <nd ref="489206270"/>
    <nd ref="489206271"/>
    <nd ref="489206272"/>
    <nd ref="489206273"/>
    <tag k="highway" v="residential"/>
    <tag k="name" v="Queen Street"/>
  </way>
  <way id="40420980" version="4" timestamp="2009-11-22T09:58:06Z" uid="10906" user="Derringer" changeset="3183763">
    <nd ref="489206267"/>
    <nd ref="489206268"/>
    <nd ref="489206270"/>
    <nd ref="489206271"/>
    <nd ref="489206272"/>
    <nd ref="489206273"/>
    <tag k="highway" v="residential"/>
    <tag k="name" v="Queen Street"/>
  </way>
  <way id="40420981" version="2" timestamp="2009-11-13T09:02:50Z" uid="4467" user="Rosscoe" changeset="3104296">
    <nd ref="489206273"/>
    <nd ref="489206274"/>
    <nd ref="489206275"/>
    <nd ref="489206276"/>
    <nd ref="489206277"/>
    <tag k="highway" v="residential"/>
    <tag k="name" v="Pinninger Street"/>
  </way>
  <way id="40420981" version="3" timestamp="2009-11-13T10:25:39Z" uid="10906" user="Derringer" changeset="3104735">
    <nd ref="489206273"/>
    <nd ref="489206274"/>
    <nd ref="489206275"/>
    <nd ref="489206276"/>
    <nd ref="489206277"/>
    <tag k="highway" v="residential"/>
    <tag k="name" v="Pinninger Street"/>
  </way>
  <way id="40420981" version="4" timestamp="2009-11-22T09:58:06Z" uid="10906" user="Derringer" changeset="3183763">
    <nd ref="489206273"/>
    <nd ref="489206274"/>
    <nd ref="489206275"/>
    <nd ref="489206276"/>
    <nd ref="489206277"/>
    <tag k="highway" v="residential"/>
    <tag k="name" v="Pinninger Street"/>
  </way>
  <way id="40420982" version="2" timestamp="2009-11-13T08:43:22Z" uid="4467" user="Rosscoe" changeset="3104225">
    <nd ref="489206267"/>
    <nd ref="34232341"/>
    <tag k="highway" v="residential"/>
    <tag k="name" v="Queen Street"/>
  </way>
  <way id="40420982" version="3" timestamp="2009-11-13T10:25:39Z" uid="10906" user="Derringer" changeset="3104735">
    <nd ref="489206267"/>
    <nd ref="34232341"/>
    <tag k="highway" v="residential"/>
    <tag k="name" v="Queen Street"/>
  </way>
  <way id="40420982" version="4" timestamp="2009-11-22T09:58:05Z" uid="10906" user="Derringer" changeset="3183763">
    <nd ref="489206267"/>
    <nd ref="34232341"/>
    <tag k="highway" v="residential"/>
    <tag k="name" v="Queen Street"/>
  </way>
  <way id="40420983" version="2" timestamp="2009-11-13T09:02:50Z" uid="4467" user="Rosscoe" changeset="3104296">
    <nd ref="489206280"/>
    <nd ref="489206281"/>
    <nd ref="489206282"/>
    <nd ref="489206283"/>
    <nd ref="489206284"/>
    <nd ref="489206286"/>
    <tag k="highway" v="residential"/>
    <tag k="name" v="Planck Street"/>
  </way>
  <way id="40420983" version="3" timestamp="2009-11-13T10:25:40Z" uid="10906" user="Derringer" changeset="3104735">
    <nd ref="489206280"/>
    <nd ref="489206281"/>
    <nd ref="489206282"/>
    <nd ref="489206283"/>
    <nd ref="489206284"/>
    <nd ref="489206286"/>
    <tag k="highway" v="residential"/>
    <tag k="name" v="Planck Street"/>
  </way>
  <way id="40420983" version="4" timestamp="2009-11-22T09:58:07Z" uid="10906" user="Derringer" changeset="3183763">
    <nd ref="489206280"/>
    <nd ref="489206281"/>
    <nd ref="489206282"/>
    <nd ref="489206283"/>
    <nd ref="489206284"/>
    <nd ref="489206286"/>
    <tag k="highway" v="residential"/>
    <tag k="name" v="Planck Street"/>
  </way>
  <way id="40420986" version="2" timestamp="2009-11-13T09:02:51Z" uid="4467" user="Rosscoe" changeset="3104296">
    <nd ref="489201798"/>
    <nd ref="489206301"/>
    <nd ref="489206302"/>
    <nd ref="489206303"/>
    <nd ref="489206304"/>
    <nd ref="489206305"/>
    <nd ref="489206306"/>
    <nd ref="489206307"/>
    <nd ref="489206309"/>
    <tag k="highway" v="residential"/>
    <tag k="name" v="Scarlett Street"/>
  </way>
  <way id="40420986" version="3" timestamp="2009-11-13T10:25:40Z" uid="10906" user="Derringer" changeset="3104735">
    <nd ref="489201798"/>
    <nd ref="489206301"/>
    <nd ref="489206302"/>
    <nd ref="489206303"/>
    <nd ref="489206304"/>
    <nd ref="489206305"/>
    <nd ref="489206306"/>
    <nd ref="489206307"/>
    <nd ref="489206309"/>
    <tag k="highway" v="residential"/>
    <tag k="name" v="Scarlett Street"/>
  </way>
  <way id="40420986" version="4" timestamp="2009-11-22T09:58:06Z" uid="10906" user="Derringer" changeset="3183763">
    <nd ref="489201798"/>
    <nd ref="489206301"/>
    <nd ref="489206302"/>
    <nd ref="489206303"/>
    <nd ref="489206304"/>
    <nd ref="489206305"/>
    <nd ref="489206306"/>
    <nd ref="489206307"/>
    <nd ref="489206309"/>
    <tag k="highway" v="residential"/>
    <tag k="name" v="Scarlett Street"/>
  </way>
  <way id="40420987" version="4" timestamp="2009-11-13T09:02:51Z" uid="4467" user="Rosscoe" changeset="3104296">
    <nd ref="489201791"/>
    <nd ref="489206310"/>
    <nd ref="489206311"/>
    <nd ref="496818462"/>
    <nd ref="493146895"/>
    <tag k="highway" v="residential"/>
    <tag k="name" v="Anderson Street"/>
  </way>
  <way id="40420987" version="5" timestamp="2009-11-13T10:25:40Z" uid="10906" user="Derringer" changeset="3104735">
    <nd ref="489201791"/>
    <nd ref="489206310"/>
    <nd ref="489206311"/>
    <nd ref="496818462"/>
    <nd ref="493146895"/>
    <tag k="highway" v="residential"/>
    <tag k="name" v="Anderson Street"/>
  </way>
  <way id="40420987" version="6" timestamp="2009-11-22T09:58:06Z" uid="10906" user="Derringer" changeset="3183763">
    <nd ref="489201791"/>
    <nd ref="489206310"/>
    <nd ref="489206311"/>
    <nd ref="496818462"/>
    <nd ref="493146895"/>
    <tag k="highway" v="residential"/>
    <tag k="name" v="Anderson Street"/>
  </way>
  <way id="40420988" version="4" timestamp="2010-06-01T02:47:16Z" uid="4467" user="Rosscoe" changeset="4871088">
    <nd ref="489206313"/>
    <nd ref="489206315"/>
    <nd ref="489206316"/>
    <nd ref="489206317"/>
    <nd ref="489206318"/>
    <nd ref="489206319"/>
    <nd ref="489206320"/>
    <nd ref="489206321"/>
    <nd ref="489206267"/>
    <tag k="highway" v="residential"/>
    <tag k="name" v="Jubilee Crescent"/>
  </way>
  <way id="40420989" version="2" timestamp="2009-11-13T09:02:50Z" uid="4467" user="Rosscoe" changeset="3104296">
    <nd ref="489206317"/>
    <nd ref="489206323"/>
    <nd ref="489206324"/>
    <nd ref="489206325"/>
    <nd ref="489206326"/>
    <nd ref="489206277"/>
    <tag k="highway" v="residential"/>
    <tag k="name" v="Shelton Street"/>
  </way>
  <way id="40420989" version="3" timestamp="2009-11-13T10:25:39Z" uid="10906" user="Derringer" changeset="3104735">
    <nd ref="489206317"/>
    <nd ref="489206323"/>
    <nd ref="489206324"/>
    <nd ref="489206325"/>
    <nd ref="489206326"/>
    <nd ref="489206277"/>
    <tag k="highway" v="residential"/>
    <tag k="name" v="Shelton Street"/>
  </way>
  <way id="40420989" version="4" timestamp="2009-11-22T09:58:06Z" uid="10906" user="Derringer" changeset="3183763">
    <nd ref="489206317"/>
    <nd ref="489206323"/>
    <nd ref="489206324"/>
    <nd ref="489206325"/>
    <nd ref="489206326"/>
    <nd ref="489206277"/>
    <tag k="highway" v="residential"/>
    <tag k="name" v="Shelton Street"/>
  </way>
  <way id="40420041" version="5" timestamp="2012-07-19T06:08:33Z" uid="722137" user="OSMF Redaction Account" changeset="12310014">
    <nd ref="489181295"/>
    <nd ref="489181296"/>
    <nd ref="489181297"/>
    <nd ref="489181298"/>
    <nd ref="489181306"/>
    <nd ref="489181309"/>
    <tag k="highway" v="residential"/>
    <tag k="name" v="Derrimut Road"/>
  </way>
  <way id="40420041" version="6" timestamp="2012-08-06T09:45:46Z" uid="84937" user="Neil Penman" changeset="12630831">
    <nd ref="1854013573"/>
    <nd ref="489181295"/>
    <nd ref="489181296"/>
    <nd ref="489181297"/>
    <nd ref="489181298"/>
    <nd ref="489181306"/>
    <nd ref="489181309"/>
    <tag k="highway" v="residential"/>
    <tag k="name" v="Derrimut Road"/>
  </way>
  <way id="40420042" version="4" timestamp="2012-07-19T06:08:36Z" uid="722137" user="OSMF Redaction Account" changeset="12310014">
    <nd ref="489181306"/>
    <nd ref="489181316"/>
    <tag k="highway" v="residential"/>
    <tag k="name" v="Walter Monti Court"/>
  </way>
  <way id="40420043" version="4" timestamp="2012-07-19T06:08:36Z" uid="722137" user="OSMF Redaction Account" changeset="12310014">
    <nd ref="489181309"/>
    <nd ref="489181317"/>
    <nd ref="489181318"/>
    <nd ref="489181320"/>
    <nd ref="489181321"/>
    <nd ref="489181322"/>
    <tag k="highway" v="residential"/>
    <tag k="name" v="Burvale Court"/>
  </way>
  <way id="40420044" version="4" timestamp="2012-07-19T06:08:36Z" uid="722137" user="OSMF Redaction Account" changeset="12310014">
    <nd ref="489181309"/>
    <nd ref="489181324"/>
    <tag k="highway" v="residential"/>
    <tag k="name" v="Stamford Street"/>
  </way>
  <way id="40420045" version="4" timestamp="2012-07-19T06:08:36Z" uid="722137" user="OSMF Redaction Account" changeset="12310014">
    <nd ref="489181326"/>
    <nd ref="489181324"/>
    <nd ref="489181327"/>
    <tag k="highway" v="residential"/>
    <tag k="name" v="Dundas Street"/>
  </way>
  <way id="40420071" version="6" timestamp="2012-07-19T06:14:27Z" uid="722137" user="OSMF Redaction Account" changeset="12310095">
    <nd ref="489188058"/>
    <nd ref="489188061"/>
    <nd ref="489188064"/>
    <nd ref="489188067"/>
    <tag k="highway" v="residential"/>
    <tag k="name" v="Grace Street"/>
  </way>
  <way id="40420071" version="7" timestamp="2012-07-19T13:23:28Z" uid="84937" user="Neil Penman" changeset="12328940">
    <nd ref="489188058"/>
    <nd ref="1830873923"/>
    <nd ref="489188061"/>
    <nd ref="489188064"/>
    <nd ref="489188067"/>
    <tag k="highway" v="residential"/>
    <tag k="name" v="Grace Street"/>
  </way>
  <way id="40420071" version="8" timestamp="2012-07-28T09:58:24Z" uid="10906" user="Derringer" changeset="12521106">
    <nd ref="1841063379"/>
    <nd ref="489188058"/>
    <nd ref="1830873923"/>
    <nd ref="489188061"/>
    <nd ref="489188064"/>
    <nd ref="489188067"/>
    <tag k="highway" v="residential"/>
    <tag k="name" v="Grace Street"/>
  </way>
  <way id="40420072" version="5" timestamp="2012-07-19T06:14:48Z" uid="722137" user="OSMF Redaction Account" changeset="12310095">
    <nd ref="489188064"/>
    <nd ref="489188079"/>
    <tag k="highway" v="residential"/>
    <tag k="name" v="Wiltshire Drive"/>
  </way>
  <way id="40420073" version="5" timestamp="2012-07-19T06:14:48Z" uid="722137" user="OSMF Redaction Account" changeset="12310095">
    <nd ref="489188086"/>
    <nd ref="489188079"/>
    <nd ref="489188089"/>
    <tag k="highway" v="residential"/>
    <tag k="name" v="Nottingham Court"/>
  </way>
  <way id="40420074" version="6" timestamp="2012-07-19T06:14:27Z" uid="722137" user="OSMF Redaction Account" changeset="12310095">
    <nd ref="489188061"/>
    <nd ref="489188097"/>
    <nd ref="489188099"/>
    <nd ref="489188103"/>
    <nd ref="489188104"/>
    <tag k="highway" v="residential"/>
    <tag k="name" v="Montgomery Crescent"/>
  </way>
  <way id="40420075" version="5" timestamp="2012-07-19T06:14:48Z" uid="722137" user="OSMF Redaction Account" changeset="12310095">
    <nd ref="489188097"/>
    <nd ref="489188106"/>
    <tag k="highway" v="residential"/>
    <tag k="name" v="Morshead Court"/>
  </way>
  <way id="40420982" version="5" timestamp="2012-07-19T09:56:22Z" uid="722137" user="OSMF Redaction Account" changeset="12317130"/>
</osm>
