<?xml version='1.0' encoding='UTF-8'?>
<osm version="0.6" generator="libosmium/2.20.0">
  <way id="40445011" version="4" timestamp="2010-01-31T15:11:12Z" uid="99207" user="Lar Kiesel" changeset="3759950">
    <nd ref="489784042"/>
    <nd ref="489784106"/>
    <nd ref="489784109"/>
    <nd ref="489784112"/>
    <nd ref="489784117"/>
    <nd ref="489784120"/>
    <nd ref="489784130"/>
    <nd ref="489784134"/>
    <tag k="highway" v="motorway_link"/>
    <tag k="name" v="West Montague Avenue Offramp"/>
    <tag k="oneway" v="yes"/>
    <tag k="ref" v="213B"/>
  </way>
  <way id="40445026" version="2" timestamp="2009-10-30T19:19:48Z" uid="43863" user="Rundling" changeset="2991861"/>
  <way id="40445027" version="2" timestamp="2009-10-30T14:25:05Z" uid="43863" user="Rundling" changeset="2989487">
    <nd ref="489784706"/>
    <nd ref="489784707"/>
    <tag k="bridge" v="yes"/>
    <tag k="electrified" v="no"/>
    <tag k="layer" v="1"/>
    <tag k="lines" v="R31"/>
    <tag k="name" v="Wendlandbahn (R31)"/>
    <tag k="network" v="HVV"/>
    <tag k="railway" v="rail"/>
  </way>
  <way id="40445027" version="3" timestamp="2011-11-11T10:17:34Z" uid="42429" user="FK270673" changeset="9795053">
    <nd ref="489784706"/>
    <nd ref="489784707"/>
    <tag k="bridge" v="yes"/>
    <tag k="electrified" v="no"/>
    <tag k="gauge" v="1435"/>
    <tag k="layer" v="1"/>
    <tag k="lines" v="R31"/>
    <tag k="name" v="Wendlandbahn (R31)"/>
    <tag k="network" v="HVV"/>
    <tag k="railway" v="rail"/>
  </way>
  <way id="40445030" version="2" timestamp="2009-10-30T14:25:04Z" uid="43863" user="Rundling" changeset="2989487">
    <nd ref="489784708"/>
    <nd ref="489784710"/>
    <tag k="waterway" v="stream"/>
  </way>
  <way id="40445030" version="3" timestamp="2010-08-20T05:05:02Z" uid="231013" user="Guitarmaen" changeset="5540730"/>
  <way id="40445011" version="5" timestamp="2012-07-18T13:37:31Z" uid="722137" user="OSMF Redaction Account" changeset="12283583">
    <nd ref="489784042"/>
    <nd ref="489784106"/>
    <nd ref="489784109"/>
    <nd ref="489784112"/>
    <nd ref="489784117"/>
    <nd ref="489784120"/>
    <nd ref="489784130"/>
    <nd ref="489784134"/>
    <tag k="highway" v="motorway_link"/>
    <tag k="name" v="West Montague Avenue Offramp"/>
    <tag k="oneway" v="yes"/>
  </way>
  <way id="40445027" version="4" timestamp="2012-05-23T12:17:41Z" uid="51045" user="Geogast" changeset="11680397"/>
</osm>
