<?xml version='1.0' encoding='UTF-8'?>
<osm version="0.6" generator="libosmium/2.20.0">
  <way id="40500307" version="1" timestamp="2009-09-09T12:47:33Z" uid="64977" user="CLoeser" changeset="2424952">
    <nd ref="490958424"/>
    <nd ref="422829595"/>
    <tag k="source" v="survey (gpx 508318)"/>
    <tag k="tunnel" v="yes"/>
    <tag k="waterway" v="drain"/>
  </way>
  <way id="40500709" version="3" timestamp="2010-04-02T17:44:18Z" uid="20587" user="balrog-kun" changeset="4304500">
    <nd ref="490997677"/>
    <nd ref="490997770"/>
    <nd ref="546846781"/>
    <nd ref="50940102"/>
    <nd ref="490997789"/>
    <nd ref="546856465"/>
    <nd ref="50940105"/>
    <nd ref="50940107"/>
    <nd ref="546856474"/>
    <nd ref="546856482"/>
    <nd ref="546856494"/>
    <nd ref="546856502"/>
    <nd ref="546856511"/>
    <nd ref="546856518"/>
    <nd ref="50940111"/>
    <nd ref="50940113"/>
    <nd ref="50940115"/>
    <nd ref="50940119"/>
    <nd ref="50940115"/>
    <nd ref="50940113"/>
    <nd ref="50940111"/>
    <tag k="highway" v="residential"/>
    <tag k="name" v="East Birkdale Lane"/>
    <tag k="tiger:cfcc" v="A41"/>
    <tag k="tiger:county" v="Spokane, WA"/>
    <tag k="tiger:name_base" v="Birkdale"/>
    <tag k="tiger:name_direction_prefix" v="E"/>
    <tag k="tiger:name_type" v="Ln"/>
    <tag k="tiger:reviewed" v="no"/>
    <tag k="tiger:separated" v="no"/>
    <tag k="tiger:source" v="tiger_import_dch_v0.6_20070830"/>
    <tag k="tiger:tlid" v="189905262:189905258:189905266:189905267"/>
    <tag k="tiger:zip_left" v="99223"/>
    <tag k="tiger:zip_right" v="99223"/>
  </way>
  <way id="40500933" version="2" timestamp="2010-04-30T19:02:26Z" uid="9581" user="Lobelt" changeset="4568941">
    <nd ref="33377740"/>
    <nd ref="713786242"/>
    <nd ref="269026630"/>
    <tag k="highway" v="tertiary"/>
    <tag k="ref" v="K 183"/>
  </way>
  <way id="40500933" version="3" timestamp="2010-05-29T13:53:59Z" uid="39240" user="Seehundeführer" changeset="4842680">
    <nd ref="33377740"/>
    <nd ref="713786242"/>
    <nd ref="756448648"/>
    <nd ref="269026630"/>
    <tag k="highway" v="tertiary"/>
    <tag k="ref" v="K 183"/>
  </way>
  <way id="40500933" version="4" timestamp="2011-05-10T11:16:45Z" uid="83876" user="BurnyB" changeset="8101220">
    <nd ref="1279134105"/>
    <nd ref="713786242"/>
    <nd ref="756448648"/>
    <nd ref="269026630"/>
    <tag k="highway" v="tertiary"/>
    <tag k="ref" v="K 183"/>
  </way>
  <way id="40500934" version="2" timestamp="2010-04-30T19:02:26Z" uid="9581" user="Lobelt" changeset="4568941">
    <nd ref="472547925"/>
    <nd ref="266678641"/>
    <nd ref="266678642"/>
    <nd ref="713786044"/>
    <tag k="highway" v="tertiary"/>
    <tag k="name" v="Hergershäuser Straße"/>
    <tag k="ref" v="K 183"/>
  </way>
  <way id="40500934" version="3" timestamp="2012-02-14T07:54:38Z" uid="131968" user="changchun_1" changeset="10680388"/>
  <way id="40500307" version="2" timestamp="2012-07-18T14:05:33Z" uid="722137" user="OSMF Redaction Account" changeset="12284380"/>
  <way id="40500933" version="5" timestamp="2012-07-16T21:27:08Z" uid="722137" user="OSMF Redaction Account" changeset="12252076">
    <nd ref="1279134105"/>
    <nd ref="756448648"/>
    <nd ref="269026630"/>
    <tag k="highway" v="tertiary"/>
    <tag k="ref" v="K 183"/>
  </way>
</osm>
