<?xml version='1.0' encoding='UTF-8'?>
<osm version="0.6" generator="libosmium/2.20.0">
  <way id="40597469" version="3" timestamp="2009-12-07T00:13:58Z" uid="200463" user="harmagedon" changeset="3311752">
    <nd ref="327780357"/>
    <nd ref="327779962"/>
    <tag k="addr:postcode" v="4910"/>
    <tag k="at:maxspeed" v="Ortsgebiet"/>
    <tag k="fixme" v="check import"/>
    <tag k="highway" v="residential"/>
    <tag k="is_in" v="...,Bezirk Ried im Innkreis,Oberösterreich,Österreich,Europa"/>
    <tag k="name" v="Am Stadion"/>
    <tag k="note" v="imported from plan.at; (C)=CC-by-sa or oDBL; feel free to change if necessary"/>
    <tag k="plan_at:acad_id" v="ri4F4"/>
    <tag k="source" v="plan.at 2009"/>
  </way>
  <way id="40597469" version="4" timestamp="2011-04-12T17:08:34Z" uid="45347" user="eriosw" changeset="7844547">
    <nd ref="327780357"/>
    <nd ref="327779962"/>
    <tag k="addr:postcode" v="4910"/>
    <tag k="at:maxspeed" v="Ortsgebiet"/>
    <tag k="fixme" v="check import"/>
    <tag k="highway" v="residential"/>
    <tag k="is_in" v="Ried im Innkreis,Ried im Innkreis,Oberösterreich,Österreich,Europe"/>
    <tag k="name" v="Am Stadion"/>
    <tag k="note" v="imported from plan.at; (C)=CC-by-sa or oDBL; feel free to change if necessary"/>
    <tag k="plan_at:acad_id" v="ri4F4"/>
    <tag k="source" v="plan.at 2009"/>
  </way>
  <way id="40597469" version="5" timestamp="2011-05-03T15:18:45Z" uid="234764" user="m5st" changeset="8040507">
    <nd ref="327780357"/>
    <nd ref="327779962"/>
    <tag k="addr:postcode" v="4910"/>
    <tag k="highway" v="residential"/>
    <tag k="is_in" v="Ried im Innkreis,Ried im Innkreis,Oberösterreich,Österreich,Europe"/>
    <tag k="name" v="Am Stadion"/>
    <tag k="source" v="plan.at 2009"/>
  </way>
  <way id="40597469" version="6" timestamp="2011-07-28T06:05:25Z" uid="491845" user="data_at" changeset="8851221">
    <nd ref="327780357"/>
    <nd ref="327779962"/>
    <tag k="highway" v="residential"/>
    <tag k="is_in" v="Ried im Innkreis,Ried im Innkreis,Oberösterreich,Österreich,Europe"/>
    <tag k="name" v="Am Stadion"/>
    <tag k="source" v="plan.at 2009"/>
  </way>
  <way id="40597469" version="7" timestamp="2012-02-02T08:44:45Z" uid="35673" user="gzin" changeset="10565384"/>
  <way id="40597470" version="2" timestamp="2009-12-07T00:13:58Z" uid="200463" user="harmagedon" changeset="3311752">
    <nd ref="289816445"/>
    <nd ref="327780357"/>
    <tag k="addr:postcode" v="4910"/>
    <tag k="at:maxspeed" v="Ortsgebiet"/>
    <tag k="fixme" v="check import"/>
    <tag k="highway" v="residential"/>
    <tag k="is_in" v="...,Bezirk Ried im Innkreis,Oberösterreich,Österreich,Europa"/>
    <tag k="name" v="Am Stadion"/>
    <tag k="note" v="imported from plan.at; (C)=CC-by-sa or oDBL; feel free to change if necessary"/>
    <tag k="plan_at:acad_id" v="ri4F4"/>
    <tag k="source" v="plan.at 2009"/>
  </way>
  <way id="40597470" version="3" timestamp="2011-04-12T17:08:46Z" uid="45347" user="eriosw" changeset="7844547">
    <nd ref="289816445"/>
    <nd ref="327780357"/>
    <tag k="addr:postcode" v="4910"/>
    <tag k="at:maxspeed" v="Ortsgebiet"/>
    <tag k="fixme" v="check import"/>
    <tag k="highway" v="residential"/>
    <tag k="is_in" v="Ried im Innkreis,Ried im Innkreis,Oberösterreich,Österreich,Europe"/>
    <tag k="name" v="Am Stadion"/>
    <tag k="note" v="imported from plan.at; (C)=CC-by-sa or oDBL; feel free to change if necessary"/>
    <tag k="plan_at:acad_id" v="ri4F4"/>
    <tag k="source" v="plan.at 2009"/>
  </way>
  <way id="40597470" version="4" timestamp="2011-05-03T15:19:00Z" uid="234764" user="m5st" changeset="8040507">
    <nd ref="289816445"/>
    <nd ref="327780357"/>
    <tag k="addr:postcode" v="4910"/>
    <tag k="highway" v="residential"/>
    <tag k="is_in" v="Ried im Innkreis,Ried im Innkreis,Oberösterreich,Österreich,Europe"/>
    <tag k="name" v="Am Stadion"/>
    <tag k="source" v="plan.at 2009"/>
  </way>
  <way id="40597470" version="5" timestamp="2011-07-28T06:05:25Z" uid="491845" user="data_at" changeset="8851221">
    <nd ref="289816445"/>
    <nd ref="327780357"/>
    <tag k="highway" v="residential"/>
    <tag k="is_in" v="Ried im Innkreis,Ried im Innkreis,Oberösterreich,Österreich,Europe"/>
    <tag k="name" v="Am Stadion"/>
    <tag k="source" v="plan.at 2009"/>
  </way>
  <way id="40597470" version="6" timestamp="2012-02-02T08:44:45Z" uid="35673" user="gzin" changeset="10565384"/>
  <way id="40597471" version="3" timestamp="2009-12-07T00:12:54Z" uid="200463" user="harmagedon" changeset="3311752">
    <nd ref="327789098"/>
    <nd ref="327789221"/>
    <nd ref="327789224"/>
    <nd ref="257937196"/>
    <nd ref="327789226"/>
    <nd ref="327776157"/>
    <nd ref="327789231"/>
    <nd ref="257937192"/>
    <nd ref="327789236"/>
    <nd ref="327789238"/>
    <nd ref="257937191"/>
    <nd ref="257937261"/>
    <tag k="addr:postcode" v="4910"/>
    <tag k="at:maxspeed" v="Ortsgebiet"/>
    <tag k="highway" v="residential"/>
    <tag k="is_in" v="...,Bezirk Ried im Innkreis,Oberösterreich,Österreich,Europa"/>
    <tag k="name" v="Gonetsreith"/>
    <tag k="note" v="imported from plan.at; (C)=CC-by-sa or oDBL; feel free to change if necessary"/>
    <tag k="plan_at:acad_id" v="ri2FA"/>
    <tag k="source" v="plan.at 2009"/>
  </way>
  <way id="40597471" version="4" timestamp="2010-02-18T11:13:08Z" uid="45347" user="eriosw" changeset="3907976">
    <nd ref="327789098"/>
    <nd ref="327789221"/>
    <tag k="addr:postcode" v="4910"/>
    <tag k="at:maxspeed" v="Ortsgebiet"/>
    <tag k="highway" v="residential"/>
    <tag k="is_in" v="...,Bezirk Ried im Innkreis,Oberösterreich,Österreich,Europa"/>
    <tag k="name" v="Gonetsreith"/>
    <tag k="note" v="imported from plan.at; (C)=CC-by-sa or oDBL; feel free to change if necessary"/>
    <tag k="plan_at:acad_id" v="ri2FA"/>
    <tag k="source" v="plan.at 2009"/>
  </way>
  <way id="40597471" version="5" timestamp="2011-03-01T17:11:46Z" uid="47064" user="7503146" changeset="7430915">
    <nd ref="327789098"/>
    <nd ref="327789221"/>
    <tag k="addr:postcode" v="4910"/>
    <tag k="highway" v="residential"/>
    <tag k="is_in" v="...,Bezirk Ried im Innkreis,Oberösterreich,Österreich,Europa"/>
    <tag k="name" v="Gonetsreith"/>
    <tag k="note" v="imported from plan.at; (C)=CC-by-sa or oDBL; feel free to change if necessary"/>
    <tag k="source" v="plan.at 2009"/>
  </way>
  <way id="40597471" version="6" timestamp="2011-04-12T17:09:01Z" uid="45347" user="eriosw" changeset="7844547">
    <nd ref="327789098"/>
    <nd ref="327789221"/>
    <tag k="addr:postcode" v="4910"/>
    <tag k="highway" v="residential"/>
    <tag k="is_in" v="Hohenzell,Ried im Innkreis,Oberösterreich,Österreich,Europe"/>
    <tag k="name" v="Gonetsreith"/>
    <tag k="note" v="imported from plan.at; (C)=CC-by-sa or oDBL; feel free to change if necessary"/>
    <tag k="source" v="plan.at 2009"/>
  </way>
  <way id="40597471" version="7" timestamp="2011-05-03T15:28:22Z" uid="234764" user="m5st" changeset="8040570">
    <nd ref="327789098"/>
    <nd ref="327789221"/>
    <tag k="addr:postcode" v="4910"/>
    <tag k="highway" v="residential"/>
    <tag k="is_in" v="Hohenzell,Ried im Innkreis,Oberösterreich,Österreich,Europe"/>
    <tag k="name" v="Gonetsreith"/>
    <tag k="source" v="plan.at 2009"/>
  </way>
  <way id="40597471" version="8" timestamp="2011-07-28T07:32:12Z" uid="491845" user="data_at" changeset="8851698">
    <nd ref="327789098"/>
    <nd ref="327789221"/>
    <tag k="highway" v="residential"/>
    <tag k="is_in" v="Hohenzell,Ried im Innkreis,Oberösterreich,Österreich,Europe"/>
    <tag k="name" v="Gonetsreith"/>
    <tag k="source" v="plan.at 2009"/>
  </way>
  <way id="40597471" version="9" timestamp="2012-01-30T22:30:37Z" uid="35673" user="gzin" changeset="10544734"/>
  <way id="40597472" version="2" timestamp="2009-12-07T00:13:04Z" uid="200463" user="harmagedon" changeset="3311752">
    <nd ref="327779079"/>
    <nd ref="327789124"/>
    <nd ref="327789125"/>
    <nd ref="327788857"/>
    <nd ref="327789126"/>
    <nd ref="327789127"/>
    <nd ref="327789128"/>
    <nd ref="327789132"/>
    <nd ref="327789135"/>
    <nd ref="327789138"/>
    <nd ref="327789143"/>
    <nd ref="327789145"/>
    <nd ref="327789151"/>
    <nd ref="327789152"/>
    <nd ref="327789155"/>
    <nd ref="327776353"/>
    <tag k="addr:postcode" v="4910"/>
    <tag k="at:maxspeed" v="Ortsgebiet"/>
    <tag k="fixme" v="check import"/>
    <tag k="highway" v="residential"/>
    <tag k="is_in" v="...,Bezirk Ried im Innkreis,Oberösterreich,Österreich,Europa"/>
    <tag k="name" v="Schwimmbadstraße"/>
    <tag k="note" v="imported from plan.at; (C)=CC-by-sa or oDBL; feel free to change if necessary"/>
    <tag k="plan_at:acad_id" v="ri2FC"/>
    <tag k="source" v="plan.at 2009"/>
  </way>
  <way id="40597472" version="3" timestamp="2011-03-01T17:11:55Z" uid="47064" user="7503146" changeset="7430915">
    <nd ref="327779079"/>
    <nd ref="327789124"/>
    <nd ref="327789125"/>
    <nd ref="327788857"/>
    <nd ref="327789126"/>
    <nd ref="327789127"/>
    <nd ref="327789128"/>
    <nd ref="327789132"/>
    <nd ref="327789135"/>
    <nd ref="327789138"/>
    <nd ref="327789143"/>
    <nd ref="327789145"/>
    <nd ref="327789151"/>
    <nd ref="327789152"/>
    <nd ref="327789155"/>
    <nd ref="327776353"/>
    <tag k="addr:postcode" v="4910"/>
    <tag k="fixme" v="check import"/>
    <tag k="highway" v="residential"/>
    <tag k="is_in" v="...,Bezirk Ried im Innkreis,Oberösterreich,Österreich,Europa"/>
    <tag k="name" v="Schwimmbadstraße"/>
    <tag k="note" v="imported from plan.at; (C)=CC-by-sa or oDBL; feel free to change if necessary"/>
    <tag k="source" v="plan.at 2009"/>
  </way>
  <way id="40597472" version="4" timestamp="2011-04-13T16:22:01Z" uid="45347" user="eriosw" changeset="7853299">
    <nd ref="327779079"/>
    <nd ref="327789124"/>
    <nd ref="327789125"/>
    <nd ref="327788857"/>
    <nd ref="327789126"/>
    <nd ref="327789127"/>
    <nd ref="327789128"/>
    <nd ref="327789132"/>
    <nd ref="327789135"/>
    <nd ref="327789138"/>
    <nd ref="327789143"/>
    <nd ref="327789145"/>
    <nd ref="327789151"/>
    <nd ref="327789152"/>
    <nd ref="327789155"/>
    <nd ref="327776353"/>
    <tag k="addr:postcode" v="4910"/>
    <tag k="fixme" v="check import"/>
    <tag k="highway" v="residential"/>
    <tag k="is_in" v="Ried im Innkreis,Ried im Innkreis,Oberösterreich,Österreich,Europe"/>
    <tag k="name" v="Schwimmbadstraße"/>
    <tag k="note" v="imported from plan.at; (C)=CC-by-sa or oDBL; feel free to change if necessary"/>
    <tag k="source" v="plan.at 2009"/>
  </way>
  <way id="40597472" version="5" timestamp="2011-05-03T20:18:12Z" uid="234764" user="m5st" changeset="8043423">
    <nd ref="327779079"/>
    <nd ref="327789124"/>
    <nd ref="327789125"/>
    <nd ref="327788857"/>
    <nd ref="327789126"/>
    <nd ref="327789127"/>
    <nd ref="327789128"/>
    <nd ref="327789132"/>
    <nd ref="327789135"/>
    <nd ref="327789138"/>
    <nd ref="327789143"/>
    <nd ref="327789145"/>
    <nd ref="327789151"/>
    <nd ref="327789152"/>
    <nd ref="327789155"/>
    <nd ref="327776353"/>
    <tag k="addr:postcode" v="4910"/>
    <tag k="highway" v="residential"/>
    <tag k="is_in" v="Ried im Innkreis,Ried im Innkreis,Oberösterreich,Österreich,Europe"/>
    <tag k="name" v="Schwimmbadstraße"/>
    <tag k="source" v="plan.at 2009"/>
  </way>
  <way id="40597472" version="6" timestamp="2011-07-28T06:16:14Z" uid="491845" user="data_at" changeset="8851221">
    <nd ref="327779079"/>
    <nd ref="327789124"/>
    <nd ref="327789125"/>
    <nd ref="327788857"/>
    <nd ref="327789126"/>
    <nd ref="327789127"/>
    <nd ref="327789128"/>
    <nd ref="327789132"/>
    <nd ref="327789135"/>
    <nd ref="327789138"/>
    <nd ref="327789143"/>
    <nd ref="327789145"/>
    <nd ref="327789151"/>
    <nd ref="327789152"/>
    <nd ref="327789155"/>
    <nd ref="327776353"/>
    <tag k="highway" v="residential"/>
    <tag k="is_in" v="Ried im Innkreis,Ried im Innkreis,Oberösterreich,Österreich,Europe"/>
    <tag k="name" v="Schwimmbadstraße"/>
    <tag k="source" v="plan.at 2009"/>
  </way>
  <way id="40597472" version="7" timestamp="2012-02-02T13:04:58Z" uid="35673" user="gzin" changeset="10567259"/>
  <way id="40597473" version="2" timestamp="2009-12-07T00:13:43Z" uid="200463" user="harmagedon" changeset="3311752">
    <nd ref="327776744"/>
    <nd ref="327776746"/>
    <tag k="access" v="destination"/>
    <tag k="fixme" v="check import"/>
    <tag k="highway" v="unclassified"/>
    <tag k="is_in" v="...,Bezirk Ried im Innkreis,Oberösterreich,Österreich,Europa"/>
    <tag k="note" v="imported from plan.at; (C)=CC-by-sa or oDBL; feel free to change if necessary"/>
    <tag k="plan_at:acad_id" v="ri82C"/>
    <tag k="source" v="plan.at 2009"/>
  </way>
  <way id="40597473" version="3" timestamp="2010-02-14T11:29:03Z" uid="78656" user="Walter Schlögl" changeset="3872561">
    <nd ref="327776744"/>
    <nd ref="327776746"/>
    <tag k="access" v="destination"/>
    <tag k="fixme" v="check import"/>
    <tag k="highway" v="residential"/>
    <tag k="is_in" v="...,Bezirk Ried im Innkreis,Oberösterreich,Österreich,Europa"/>
    <tag k="note" v="imported from plan.at; (C)=CC-by-sa or oDBL; feel free to change if necessary"/>
    <tag k="plan_at:acad_id" v="ri82C"/>
    <tag k="source" v="plan.at 2009"/>
  </way>
  <way id="40597473" version="4" timestamp="2011-04-12T17:08:38Z" uid="45347" user="eriosw" changeset="7844547">
    <nd ref="327776744"/>
    <nd ref="327776746"/>
    <tag k="access" v="destination"/>
    <tag k="fixme" v="check import"/>
    <tag k="highway" v="residential"/>
    <tag k="is_in" v="Ried im Innkreis,Ried im Innkreis,Oberösterreich,Österreich,Europe"/>
    <tag k="note" v="imported from plan.at; (C)=CC-by-sa or oDBL; feel free to change if necessary"/>
    <tag k="plan_at:acad_id" v="ri82C"/>
    <tag k="source" v="plan.at 2009"/>
  </way>
  <way id="40597473" version="5" timestamp="2011-05-03T20:17:22Z" uid="234764" user="m5st" changeset="8043423">
    <nd ref="327776744"/>
    <nd ref="327776746"/>
    <tag k="access" v="destination"/>
    <tag k="highway" v="residential"/>
    <tag k="is_in" v="Ried im Innkreis,Ried im Innkreis,Oberösterreich,Österreich,Europe"/>
    <tag k="source" v="plan.at 2009"/>
  </way>
  <way id="40597473" version="6" timestamp="2012-01-09T18:15:46Z" uid="40444" user="curmet" changeset="10344313">
    <nd ref="327776744"/>
    <nd ref="1583906981"/>
    <nd ref="327776746"/>
    <tag k="access" v="destination"/>
    <tag k="highway" v="residential"/>
    <tag k="is_in" v="Ried im Innkreis,Ried im Innkreis,Oberösterreich,Österreich,Europe"/>
    <tag k="source" v="plan.at 2009"/>
  </way>
  <way id="40597473" version="7" timestamp="2012-02-02T12:47:12Z" uid="35673" user="gzin" changeset="10567134"/>
  <way id="40597475" version="2" timestamp="2009-12-07T00:15:28Z" uid="200463" user="harmagedon" changeset="3311752">
    <nd ref="327787568"/>
    <nd ref="327787580"/>
    <tag k="addr:postcode" v="4921"/>
    <tag k="at:maxspeed" v="Ortsgebiet"/>
    <tag k="fixme" v="check import"/>
    <tag k="highway" v="track"/>
    <tag k="is_in" v="...,Bezirk Ried im Innkreis,Oberösterreich,Österreich,Europa"/>
    <tag k="name" v="Aching"/>
    <tag k="note" v="imported from plan.at; (C)=CC-by-sa or oDBL; feel free to change if necessary"/>
    <tag k="plan_at:acad_id" v="ri33C"/>
    <tag k="source" v="plan.at 2009"/>
  </way>
  <way id="40597475" version="3" timestamp="2010-10-08T08:26:40Z" uid="45347" user="eriosw" changeset="5984050">
    <nd ref="327787568"/>
    <nd ref="327787580"/>
    <tag k="fixme" v="check import"/>
    <tag k="highway" v="track"/>
    <tag k="note" v="imported from plan.at; (C)=CC-by-sa or oDBL; feel free to change if necessary"/>
    <tag k="plan_at:acad_id" v="ri33C"/>
    <tag k="source" v="plan.at 2009"/>
  </way>
  <way id="40597475" version="4" timestamp="2011-05-03T20:16:55Z" uid="234764" user="m5st" changeset="8043423">
    <nd ref="327787568"/>
    <nd ref="327787580"/>
    <tag k="highway" v="track"/>
    <tag k="source" v="plan.at 2009"/>
  </way>
  <way id="40597476" version="3" timestamp="2009-12-07T00:13:10Z" uid="200463" user="harmagedon" changeset="3311752">
    <nd ref="257937203"/>
    <nd ref="257937202"/>
    <nd ref="327789206"/>
    <nd ref="327789211"/>
    <nd ref="327789216"/>
    <nd ref="327789098"/>
    <tag k="addr:postcode" v="4910"/>
    <tag k="at:maxspeed" v="Ortsgebiet"/>
    <tag k="highway" v="residential"/>
    <tag k="is_in" v="...,Bezirk Ried im Innkreis,Oberösterreich,Österreich,Europa"/>
    <tag k="name" v="Gonetsreith"/>
    <tag k="note" v="imported from plan.at; (C)=CC-by-sa or oDBL; feel free to change if necessary"/>
    <tag k="plan_at:acad_id" v="ri2FA"/>
    <tag k="source" v="plan.at 2009"/>
  </way>
  <way id="40597476" version="4" timestamp="2011-03-01T17:11:51Z" uid="47064" user="7503146" changeset="7430915">
    <nd ref="257937203"/>
    <nd ref="257937202"/>
    <nd ref="327789206"/>
    <nd ref="327789211"/>
    <nd ref="327789216"/>
    <nd ref="327789098"/>
    <tag k="addr:postcode" v="4910"/>
    <tag k="highway" v="residential"/>
    <tag k="is_in" v="...,Bezirk Ried im Innkreis,Oberösterreich,Österreich,Europa"/>
    <tag k="name" v="Gonetsreith"/>
    <tag k="note" v="imported from plan.at; (C)=CC-by-sa or oDBL; feel free to change if necessary"/>
    <tag k="source" v="plan.at 2009"/>
  </way>
  <way id="40597476" version="5" timestamp="2011-04-12T17:08:58Z" uid="45347" user="eriosw" changeset="7844547">
    <nd ref="257937203"/>
    <nd ref="257937202"/>
    <nd ref="327789206"/>
    <nd ref="327789211"/>
    <nd ref="327789216"/>
    <nd ref="327789098"/>
    <tag k="addr:postcode" v="4910"/>
    <tag k="highway" v="residential"/>
    <tag k="is_in" v="Hohenzell,Ried im Innkreis,Oberösterreich,Österreich,Europe"/>
    <tag k="name" v="Gonetsreith"/>
    <tag k="note" v="imported from plan.at; (C)=CC-by-sa or oDBL; feel free to change if necessary"/>
    <tag k="source" v="plan.at 2009"/>
  </way>
  <way id="40597476" version="6" timestamp="2011-05-03T15:28:30Z" uid="234764" user="m5st" changeset="8040570">
    <nd ref="257937203"/>
    <nd ref="257937202"/>
    <nd ref="327789206"/>
    <nd ref="327789211"/>
    <nd ref="327789216"/>
    <nd ref="327789098"/>
    <tag k="addr:postcode" v="4910"/>
    <tag k="highway" v="residential"/>
    <tag k="is_in" v="Hohenzell,Ried im Innkreis,Oberösterreich,Österreich,Europe"/>
    <tag k="name" v="Gonetsreith"/>
    <tag k="source" v="plan.at 2009"/>
  </way>
  <way id="40597476" version="7" timestamp="2011-07-28T07:32:13Z" uid="491845" user="data_at" changeset="8851698">
    <nd ref="257937203"/>
    <nd ref="257937202"/>
    <nd ref="327789206"/>
    <nd ref="327789211"/>
    <nd ref="327789216"/>
    <nd ref="327789098"/>
    <tag k="highway" v="residential"/>
    <tag k="is_in" v="Hohenzell,Ried im Innkreis,Oberösterreich,Österreich,Europe"/>
    <tag k="name" v="Gonetsreith"/>
    <tag k="source" v="plan.at 2009"/>
  </way>
  <way id="40597476" version="8" timestamp="2012-01-30T22:30:02Z" uid="35673" user="gzin" changeset="10544734">
    <nd ref="257937203"/>
    <nd ref="257937202"/>
    <nd ref="327789206"/>
    <nd ref="327789211"/>
    <nd ref="327789216"/>
    <nd ref="1612349284"/>
    <tag k="highway" v="residential"/>
    <tag k="is_in" v="Hohenzell,Ried im Innkreis,Oberösterreich,Österreich,Europe"/>
    <tag k="name" v="Gonetsreith"/>
    <tag k="source" v="plan.at 2009"/>
  </way>
  <way id="40597476" version="9" timestamp="2012-02-02T11:48:46Z" uid="35673" user="gzin" changeset="10566669"/>
</osm>
