<?xml version='1.0' encoding='UTF-8'?>
<osm version="0.6" generator="libosmium/2.20.0">
  <way id="4080212" version="9" timestamp="2010-07-09T04:54:30Z" uid="74617" user="JohnSmith" changeset="5170972">
    <nd ref="21643811"/>
    <nd ref="514120766"/>
    <nd ref="514121206"/>
    <nd ref="21643787"/>
    <nd ref="21643706"/>
    <nd ref="21643673"/>
    <nd ref="21643718"/>
    <nd ref="21643659"/>
    <nd ref="21643713"/>
    <nd ref="514121928"/>
    <nd ref="21643685"/>
    <tag k="highway" v="residential"/>
    <tag k="maxspeed" v="50"/>
    <tag k="maxspeed:source" v="default residential speed limit in Australia"/>
    <tag k="name" v="Wakefield Street"/>
  </way>
  <way id="4080212" version="10" timestamp="2010-10-20T23:20:43Z" uid="201505" user="talexbikes" changeset="6120834">
    <nd ref="21643811"/>
    <nd ref="514120766"/>
    <nd ref="514121206"/>
    <nd ref="21643787"/>
    <nd ref="21643706"/>
    <nd ref="21643673"/>
    <nd ref="958879742"/>
    <nd ref="21643718"/>
    <nd ref="21643659"/>
    <nd ref="21643713"/>
    <nd ref="514121928"/>
    <nd ref="21643685"/>
    <tag k="highway" v="residential"/>
    <tag k="maxspeed" v="50"/>
    <tag k="maxspeed:source" v="default residential speed limit in Australia"/>
    <tag k="name" v="Wakefield Street"/>
  </way>
  <way id="4080212" version="11" timestamp="2010-12-28T06:34:14Z" uid="11111" user="lakeyboy" changeset="6784870">
    <nd ref="21643811"/>
    <nd ref="514120766"/>
    <nd ref="514121206"/>
    <nd ref="21643787"/>
    <nd ref="21643706"/>
    <nd ref="21643673"/>
    <nd ref="958879742"/>
    <nd ref="21643718"/>
    <nd ref="21643659"/>
    <nd ref="21643713"/>
    <nd ref="514121928"/>
    <nd ref="1068774858"/>
    <nd ref="1068774859"/>
    <nd ref="21643685"/>
    <tag k="highway" v="residential"/>
    <tag k="maxspeed" v="50"/>
    <tag k="maxspeed:source" v="default residential speed limit in Australia"/>
    <tag k="name" v="Wakefield Street"/>
  </way>
  <way id="4080212" version="12" timestamp="2011-08-18T00:35:31Z" uid="201505" user="talexbikes" changeset="9053102">
    <nd ref="21643811"/>
    <nd ref="514120766"/>
    <nd ref="514121206"/>
    <tag k="highway" v="residential"/>
    <tag k="maxspeed" v="50"/>
    <tag k="maxspeed:source" v="default residential speed limit in Australia"/>
    <tag k="name" v="Wakefield Street"/>
  </way>
  <way id="4080212" version="13" timestamp="2012-01-08T02:39:41Z" uid="147510" user="woodpeck_fixbot" changeset="10327743">
    <nd ref="21643811"/>
    <nd ref="514120766"/>
    <nd ref="514121206"/>
    <tag k="highway" v="residential"/>
    <tag k="name" v="Wakefield Street"/>
  </way>
  <way id="4080213" version="17" timestamp="2010-07-09T04:56:38Z" uid="74617" user="JohnSmith" changeset="5170972">
    <nd ref="21643682"/>
    <nd ref="514121706"/>
    <nd ref="350902412"/>
    <nd ref="514122647"/>
    <nd ref="21643685"/>
    <nd ref="730614628"/>
    <nd ref="730613647"/>
    <nd ref="730615284"/>
    <nd ref="304715000"/>
    <nd ref="730615470"/>
    <nd ref="246707481"/>
    <nd ref="246707306"/>
    <tag k="highway" v="residential"/>
    <tag k="maxspeed" v="50"/>
    <tag k="maxspeed:source" v="default residential speed limit in Australia"/>
    <tag k="name" v="William Street"/>
    <tag k="source" v="unknown,nearmap"/>
  </way>
  <way id="4080213" version="18" timestamp="2010-09-07T03:34:24Z" uid="201505" user="talexbikes" changeset="5704143">
    <nd ref="21643682"/>
    <nd ref="514121706"/>
    <nd ref="350902412"/>
    <nd ref="900132066"/>
    <nd ref="514122647"/>
    <nd ref="21643685"/>
    <nd ref="730614628"/>
    <nd ref="730613647"/>
    <nd ref="730615284"/>
    <nd ref="304715000"/>
    <nd ref="730615470"/>
    <nd ref="246707481"/>
    <nd ref="246707306"/>
    <tag k="highway" v="residential"/>
    <tag k="maxspeed" v="50"/>
    <tag k="maxspeed:source" v="default residential speed limit in Australia"/>
    <tag k="name" v="William Street"/>
    <tag k="source" v="unknown,nearmap"/>
  </way>
  <way id="4080213" version="19" timestamp="2010-10-09T04:01:37Z" uid="354905" user="wbuchner" changeset="5990784">
    <nd ref="21643682"/>
    <nd ref="514121706"/>
    <nd ref="350902412"/>
    <nd ref="900132066"/>
    <nd ref="514122647"/>
    <nd ref="21643685"/>
    <nd ref="730614628"/>
    <nd ref="942221530"/>
    <nd ref="730613647"/>
    <nd ref="942221529"/>
    <nd ref="730615284"/>
    <nd ref="304715000"/>
    <nd ref="730615470"/>
    <nd ref="246707481"/>
    <nd ref="246707306"/>
    <tag k="highway" v="residential"/>
    <tag k="maxspeed" v="50"/>
    <tag k="maxspeed:source" v="default residential speed limit in Australia"/>
    <tag k="name" v="William Street"/>
    <tag k="source" v="unknown,nearmap"/>
  </way>
  <way id="4080213" version="20" timestamp="2010-12-28T06:34:13Z" uid="11111" user="lakeyboy" changeset="6784870">
    <nd ref="21643682"/>
    <nd ref="514121706"/>
    <nd ref="1068774863"/>
    <nd ref="1068774864"/>
    <nd ref="350902412"/>
    <nd ref="900132066"/>
    <nd ref="514122647"/>
    <nd ref="1068774861"/>
    <nd ref="1068774860"/>
    <nd ref="1068774862"/>
    <nd ref="21643685"/>
    <nd ref="730614628"/>
    <nd ref="942221530"/>
    <nd ref="730613647"/>
    <nd ref="942221529"/>
    <nd ref="730615284"/>
    <nd ref="304715000"/>
    <nd ref="730615470"/>
    <nd ref="246707481"/>
    <nd ref="246707306"/>
    <tag k="highway" v="residential"/>
    <tag k="maxspeed" v="50"/>
    <tag k="maxspeed:source" v="default residential speed limit in Australia"/>
    <tag k="name" v="William Street"/>
    <tag k="source" v="unknown,nearmap"/>
  </way>
  <way id="4080213" version="21" timestamp="2011-08-18T00:35:31Z" uid="201505" user="talexbikes" changeset="9053102">
    <nd ref="21643682"/>
    <nd ref="514121706"/>
    <nd ref="1068774863"/>
    <nd ref="1068774864"/>
    <nd ref="350902412"/>
    <nd ref="900132066"/>
    <nd ref="514122647"/>
    <nd ref="1068774861"/>
    <nd ref="1068774860"/>
    <nd ref="21643685"/>
    <nd ref="730614628"/>
    <nd ref="942221530"/>
    <nd ref="730613647"/>
    <nd ref="942221529"/>
    <nd ref="730615284"/>
    <nd ref="304715000"/>
    <nd ref="730615470"/>
    <nd ref="246707481"/>
    <nd ref="246707306"/>
    <tag k="highway" v="residential"/>
    <tag k="maxspeed" v="50"/>
    <tag k="maxspeed:source" v="default residential speed limit in Australia"/>
    <tag k="name" v="William Street"/>
    <tag k="source" v="unknown,nearmap"/>
  </way>
  <way id="4080213" version="22" timestamp="2012-01-08T02:39:43Z" uid="147510" user="woodpeck_fixbot" changeset="10327743">
    <nd ref="21643682"/>
    <nd ref="514121706"/>
    <nd ref="1068774863"/>
    <nd ref="1068774864"/>
    <nd ref="350902412"/>
    <nd ref="900132066"/>
    <nd ref="514122647"/>
    <nd ref="1068774861"/>
    <nd ref="1068774860"/>
    <nd ref="21643685"/>
    <nd ref="730614628"/>
    <nd ref="942221530"/>
    <nd ref="730613647"/>
    <nd ref="942221529"/>
    <nd ref="730615284"/>
    <nd ref="304715000"/>
    <nd ref="730615470"/>
    <nd ref="246707481"/>
    <nd ref="246707306"/>
    <tag k="highway" v="residential"/>
    <tag k="name" v="William Street"/>
    <tag k="source" v="unknown,nearmap"/>
  </way>
  <way id="4080217" version="10" timestamp="2010-04-26T23:27:54Z" uid="4467" user="Rosscoe" changeset="4537270">
    <nd ref="21643695"/>
    <nd ref="346142731"/>
    <nd ref="708267959"/>
    <tag k="highway" v="tertiary"/>
    <tag k="name" v="Harold Street"/>
  </way>
  <way id="4080217" version="11" timestamp="2010-06-13T05:26:07Z" uid="1679" user="andrewpmk" changeset="4975559">
    <nd ref="21643695"/>
    <nd ref="346142731"/>
    <nd ref="708267959"/>
    <tag k="highway" v="tertiary"/>
    <tag k="lanes" v="2"/>
    <tag k="name" v="Harold Street"/>
    <tag k="surface" v="paved"/>
  </way>
  <way id="4080392" version="13" timestamp="2009-02-14T01:19:00Z" uid="36809" user="pfoten_weg_!_" changeset="423851">
    <nd ref="19371337"/>
    <nd ref="1956058"/>
    <tag k="created_by" v="RambaZamba"/>
    <tag k="cycleway" v="track"/>
    <tag k="highway" v="primary"/>
    <tag k="name" v="Situlistraße"/>
    <tag k="ref" v="B 11"/>
    <tag k="source" v="survey"/>
  </way>
  <way id="4080392" version="14" timestamp="2009-09-12T21:10:00Z" uid="156995" user="HampelZamba" changeset="2462871">
    <nd ref="19371337"/>
    <nd ref="1956058"/>
    <tag k="cycleway" v="track"/>
    <tag k="highway" v="primary"/>
    <tag k="name" v="Situlistraße"/>
    <tag k="ref" v="B 11"/>
    <tag k="source" v="survey"/>
  </way>
  <way id="4080392" version="15" timestamp="2010-02-18T23:28:46Z" uid="6270" user="mikes" changeset="3913067">
    <nd ref="19371337"/>
    <nd ref="645733152"/>
    <nd ref="1956058"/>
    <tag k="cycleway" v="track"/>
    <tag k="highway" v="primary"/>
    <tag k="name" v="Situlistraße"/>
    <tag k="ref" v="B 11"/>
    <tag k="source" v="survey"/>
  </way>
  <way id="4080392" version="16" timestamp="2010-07-27T20:29:13Z" uid="118197" user="JosmJo" changeset="5333241">
    <nd ref="19371337"/>
    <nd ref="645733152"/>
    <nd ref="1956058"/>
    <tag k="highway" v="primary"/>
    <tag k="name" v="Situlistraße"/>
    <tag k="ref" v="B 11"/>
    <tag k="source" v="survey"/>
  </way>
  <way id="4080392" version="17" timestamp="2012-01-05T16:45:40Z" uid="344721" user="stumpi80" changeset="10302860">
    <nd ref="19371337"/>
    <nd ref="645733152"/>
    <nd ref="1956058"/>
    <tag k="highway" v="primary"/>
    <tag k="maxspeed" v="50"/>
    <tag k="name" v="Situlistraße"/>
    <tag k="ref" v="B 11"/>
    <tag k="source" v="survey"/>
    <tag k="surface" v="asphalt"/>
  </way>
  <way id="4080392" version="18" timestamp="2012-02-19T17:37:29Z" uid="224490" user="Geo-Tobi" changeset="10732617">
    <nd ref="19371337"/>
    <nd ref="645733152"/>
    <nd ref="1956058"/>
    <tag k="hgv" v="delivery"/>
    <tag k="highway" v="primary"/>
    <tag k="maxspeed" v="50"/>
    <tag k="name" v="Situlistraße"/>
    <tag k="ref" v="B 11"/>
    <tag k="source" v="survey"/>
    <tag k="surface" v="asphalt"/>
  </way>
  <way id="4080392" version="19" timestamp="2012-03-01T00:26:44Z" uid="2675" user="Eckhart Wörner" changeset="10833613">
    <nd ref="1956058"/>
    <nd ref="645733152"/>
    <nd ref="19371337"/>
    <tag k="highway" v="primary"/>
    <tag k="maxspeed" v="50"/>
    <tag k="name" v="Situlistraße"/>
    <tag k="oneway" v="yes"/>
    <tag k="ref" v="B 11"/>
    <tag k="source" v="survey"/>
    <tag k="surface" v="asphalt"/>
  </way>
  <way id="4080565" version="1" timestamp="2006-12-19T22:44:09Z" uid="4667" user="MapZ" changeset="170513">
    <nd ref="20978875"/>
    <nd ref="20977707"/>
    <nd ref="20977714"/>
    <nd ref="20977716"/>
    <nd ref="20977720"/>
    <nd ref="20977726"/>
    <nd ref="20977732"/>
    <nd ref="20977738"/>
    <nd ref="20977744"/>
    <nd ref="20977750"/>
    <tag k="created_by" v="JOSM"/>
    <tag k="highway" v="secondary"/>
  </way>
  <way id="4080565" version="2" timestamp="2007-12-08T01:22:28Z" uid="18720" user="severus" changeset="190070">
    <nd ref="20978875"/>
    <nd ref="20977707"/>
    <nd ref="20977714"/>
    <nd ref="20977716"/>
    <nd ref="20977720"/>
    <nd ref="20977726"/>
    <nd ref="20977732"/>
    <nd ref="20977738"/>
    <nd ref="20977744"/>
    <nd ref="20977750"/>
    <tag k="created_by" v="Potlatch 0.5d"/>
    <tag k="highway" v="secondary"/>
    <tag k="ref" v="L597"/>
  </way>
  <way id="4080565" version="3" timestamp="2008-04-26T21:10:07Z" uid="24920" user="Schusch" changeset="265337">
    <nd ref="20978875"/>
    <nd ref="20977707"/>
    <nd ref="20977714"/>
    <nd ref="20977716"/>
    <nd ref="20977720"/>
    <nd ref="20977726"/>
    <nd ref="20977732"/>
    <nd ref="20977738"/>
    <nd ref="20977744"/>
    <nd ref="20977750"/>
    <tag k="created_by" v="Potlatch 0.5d"/>
    <tag k="highway" v="secondary"/>
    <tag k="ref" v="L 597"/>
  </way>
  <way id="4080565" version="4" timestamp="2008-06-16T12:01:12Z" uid="7562" user="LosHawlos" changeset="184955">
    <nd ref="20977702"/>
    <nd ref="20977707"/>
    <nd ref="20977714"/>
    <nd ref="20977716"/>
    <nd ref="20977720"/>
    <nd ref="20977726"/>
    <nd ref="20977732"/>
    <nd ref="20977738"/>
    <nd ref="20977744"/>
    <nd ref="20977750"/>
    <tag k="created_by" v="Potlatch 0.5d"/>
    <tag k="highway" v="secondary"/>
    <tag k="ref" v="L 597"/>
  </way>
  <way id="4080565" version="5" timestamp="2010-01-16T12:08:57Z" uid="9581" user="Lobelt" changeset="3630837">
    <nd ref="20977702"/>
    <nd ref="20977707"/>
    <nd ref="20977714"/>
    <nd ref="20977716"/>
    <nd ref="20977720"/>
    <nd ref="614602642"/>
    <nd ref="20977726"/>
    <nd ref="20977732"/>
    <nd ref="20977738"/>
    <nd ref="20977744"/>
    <nd ref="20977750"/>
    <tag k="highway" v="secondary"/>
    <tag k="ref" v="L 597"/>
  </way>
  <way id="4080565" version="6" timestamp="2010-12-03T15:59:47Z" uid="227290" user="andam66" changeset="6527843">
    <nd ref="20977702"/>
    <nd ref="20977707"/>
    <nd ref="20977714"/>
    <nd ref="20977716"/>
    <tag k="highway" v="secondary"/>
    <tag k="maxspeed" v="70"/>
    <tag k="ref" v="L 597"/>
  </way>
  <way id="4080565" version="7" timestamp="2011-09-04T12:22:18Z" uid="110838" user="Bernhard W" changeset="9208314">
    <nd ref="20977702"/>
    <nd ref="20977707"/>
    <nd ref="20977714"/>
    <nd ref="20977716"/>
    <tag k="access" v="yes"/>
    <tag k="bicycle" v="no"/>
    <tag k="cycleway" v="no"/>
    <tag k="foot" v="no"/>
    <tag k="highway" v="secondary"/>
    <tag k="maxspeed" v="70"/>
    <tag k="motor_vehicle" v="yes"/>
    <tag k="oneway" v="no"/>
    <tag k="ref" v="L 597"/>
    <tag k="surface" v="asphalt"/>
  </way>
  <way id="4080565" version="8" timestamp="2011-09-04T12:52:33Z" uid="110838" user="Bernhard W" changeset="9208413">
    <nd ref="20977702"/>
    <nd ref="20977707"/>
    <nd ref="20977714"/>
    <nd ref="20977716"/>
    <tag k="access" v="yes"/>
    <tag k="bicycle" v="no"/>
    <tag k="cycleway" v="no"/>
    <tag k="foot" v="no"/>
    <tag k="highway" v="secondary"/>
    <tag k="lanes" v="3"/>
    <tag k="maxspeed" v="70"/>
    <tag k="motor_vehicle" v="yes"/>
    <tag k="oneway" v="no"/>
    <tag k="ref" v="L 597"/>
    <tag k="surface" v="asphalt"/>
  </way>
  <way id="4080565" version="9" timestamp="2012-01-27T19:28:21Z" uid="110838" user="Bernhard W" changeset="10515372">
    <nd ref="20977702"/>
    <nd ref="20977707"/>
    <nd ref="20977714"/>
    <nd ref="20977716"/>
    <tag k="bicycle" v="no"/>
    <tag k="cycleway" v="no"/>
    <tag k="foot" v="no"/>
    <tag k="highway" v="secondary"/>
    <tag k="lanes" v="3"/>
    <tag k="maxspeed" v="70"/>
    <tag k="motor_vehicle" v="yes"/>
    <tag k="oneway" v="no"/>
    <tag k="ref" v="L 597"/>
    <tag k="surface" v="asphalt"/>
  </way>
  <way id="4080565" version="10" timestamp="2012-03-29T18:33:22Z" uid="110838" user="Bernhard W" changeset="11142026">
    <nd ref="20977702"/>
    <nd ref="20977707"/>
    <nd ref="20977714"/>
    <nd ref="20977716"/>
    <tag k="bicycle" v="no"/>
    <tag k="cycleway" v="no"/>
    <tag k="foot" v="no"/>
    <tag k="highway" v="secondary"/>
    <tag k="lanes" v="3"/>
    <tag k="maxspeed" v="70"/>
    <tag k="motor_vehicle" v="yes"/>
    <tag k="odbl" v="clean"/>
    <tag k="oneway" v="no"/>
    <tag k="ref" v="L 597"/>
    <tag k="surface" v="asphalt"/>
  </way>
  <way id="4080565" version="11" timestamp="2012-03-30T19:46:28Z" uid="110838" user="Bernhard W" changeset="11159209">
    <nd ref="20977702"/>
    <nd ref="20977707"/>
    <nd ref="20977714"/>
    <nd ref="20977716"/>
    <tag k="bicycle" v="no"/>
    <tag k="cycleway" v="no"/>
    <tag k="foot" v="no"/>
    <tag k="highway" v="secondary"/>
    <tag k="lanes" v="3"/>
    <tag k="maxspeed" v="70"/>
    <tag k="motor_vehicle" v="yes"/>
    <tag k="oneway" v="no"/>
    <tag k="ref" v="L 597"/>
    <tag k="surface" v="asphalt"/>
  </way>
  <way id="4080671" version="1" timestamp="2007-07-11T22:30:08Z" uid="8328" user="benpre" changeset="141044">
    <nd ref="536672"/>
    <nd ref="536671"/>
    <nd ref="14293277"/>
    <tag k="bicycle" v="yes"/>
    <tag k="created_by" v="JOSM"/>
    <tag k="foot" v="yes"/>
    <tag k="highway" v="secondary"/>
    <tag k="motorcar" v="yes"/>
    <tag k="name" v="Hamburger Straße"/>
  </way>
  <way id="4080671" version="2" timestamp="2007-11-20T23:16:55Z" uid="5065" user="ThomasKlosa" changeset="587197">
    <nd ref="536672"/>
    <nd ref="536671"/>
    <nd ref="14293277"/>
    <tag k="bicycle" v="yes"/>
    <tag k="created_by" v="JOSM"/>
    <tag k="foot" v="yes"/>
    <tag k="highway" v="secondary"/>
    <tag k="motorcar" v="yes"/>
    <tag k="name" v="Hamburger Straße"/>
    <tag k="railway" v="tram"/>
  </way>
  <way id="4080671" version="3" timestamp="2008-02-08T20:38:42Z" uid="3112" user="HDietze" changeset="72956">
    <nd ref="536672"/>
    <nd ref="536671"/>
    <nd ref="14293277"/>
    <tag k="created_by" v="JOSM"/>
    <tag k="highway" v="secondary"/>
    <tag k="maxspeed" v="60"/>
    <tag k="name" v="Hamburger Straße"/>
    <tag k="railway" v="tram"/>
  </way>
  <way id="4080671" version="4" timestamp="2008-06-05T12:36:48Z" uid="34449" user="kug" changeset="54814">
    <nd ref="536672"/>
    <nd ref="536671"/>
    <nd ref="14293277"/>
    <tag k="created_by" v="Potlatch 0.9c"/>
    <tag k="cycleway" v="track"/>
    <tag k="highway" v="secondary"/>
    <tag k="maxspeed" v="60"/>
    <tag k="name" v="Hamburger Straße"/>
    <tag k="railway" v="tram"/>
  </way>
  <way id="4080671" version="5" timestamp="2008-10-31T10:57:03Z" uid="34449" user="kug" changeset="642643">
    <nd ref="536672"/>
    <nd ref="536671"/>
    <nd ref="308893229"/>
    <nd ref="14293277"/>
    <tag k="created_by" v="Potlatch 0.10f"/>
    <tag k="cycleway" v="track"/>
    <tag k="highway" v="secondary"/>
    <tag k="maxspeed" v="60"/>
    <tag k="name" v="Hamburger Straße"/>
    <tag k="railway" v="tram"/>
  </way>
  <way id="4080671" version="6" timestamp="2008-10-31T10:57:31Z" uid="34449" user="kug" changeset="642643">
    <nd ref="536672"/>
    <nd ref="536671"/>
    <nd ref="308893229"/>
    <nd ref="14293277"/>
    <tag k="created_by" v="Potlatch 0.10f"/>
    <tag k="cycleway" v="track"/>
    <tag k="highway" v="secondary"/>
    <tag k="maxspeed" v="60"/>
    <tag k="name" v="Hamburger Straße"/>
    <tag k="railway" v="tram"/>
  </way>
  <way id="4080671" version="7" timestamp="2008-10-31T10:57:45Z" uid="34449" user="kug" changeset="642643">
    <nd ref="536672"/>
    <nd ref="536671"/>
    <nd ref="308893229"/>
    <nd ref="14293277"/>
    <tag k="created_by" v="Potlatch 0.10f"/>
    <tag k="cycleway" v="track"/>
    <tag k="highway" v="secondary"/>
    <tag k="maxspeed" v="60"/>
    <tag k="name" v="Hamburger Straße"/>
    <tag k="railway" v="tram"/>
  </way>
  <way id="4080671" version="8" timestamp="2008-10-31T10:59:53Z" uid="34449" user="kug" changeset="642643">
    <nd ref="536672"/>
    <nd ref="308894041"/>
    <nd ref="308894042"/>
    <nd ref="536671"/>
    <nd ref="308893229"/>
    <nd ref="14293277"/>
    <tag k="created_by" v="Potlatch 0.10f"/>
    <tag k="cycleway" v="track"/>
    <tag k="highway" v="secondary"/>
    <tag k="maxspeed" v="60"/>
    <tag k="name" v="Hamburger Straße"/>
    <tag k="railway" v="tram"/>
  </way>
  <way id="4080671" version="9" timestamp="2008-11-03T09:24:33Z" uid="34449" user="kug" changeset="669182">
    <nd ref="536672"/>
    <nd ref="308894041"/>
    <nd ref="308894042"/>
    <nd ref="536671"/>
    <nd ref="308893229"/>
    <nd ref="14293277"/>
    <tag k="created_by" v="Potlatch 0.10f"/>
    <tag k="cycleway" v="track"/>
    <tag k="highway" v="secondary"/>
    <tag k="maxspeed" v="60"/>
    <tag k="name" v="Hamburger Straße"/>
    <tag k="railway" v="tram"/>
  </way>
  <way id="4080671" version="10" timestamp="2008-11-14T09:54:42Z" uid="34449" user="kug" changeset="747849">
    <nd ref="536672"/>
    <nd ref="308894041"/>
    <nd ref="308894042"/>
    <nd ref="536671"/>
    <nd ref="311941206"/>
    <nd ref="308893229"/>
    <nd ref="14293277"/>
    <tag k="created_by" v="Potlatch 0.10f"/>
    <tag k="cycleway" v="track"/>
    <tag k="highway" v="secondary"/>
    <tag k="maxspeed" v="60"/>
    <tag k="name" v="Hamburger Straße"/>
    <tag k="railway" v="tram"/>
  </way>
  <way id="4080671" version="11" timestamp="2008-11-14T09:55:22Z" uid="34449" user="kug" changeset="747849">
    <nd ref="536672"/>
    <nd ref="308894041"/>
    <nd ref="308894042"/>
    <nd ref="536671"/>
    <nd ref="311941206"/>
    <tag k="created_by" v="Potlatch 0.10f"/>
    <tag k="cycleway" v="track"/>
    <tag k="highway" v="secondary"/>
    <tag k="maxspeed" v="60"/>
    <tag k="name" v="Hamburger Straße"/>
    <tag k="railway" v="tram"/>
  </way>
  <way id="4080671" version="12" timestamp="2008-11-14T09:55:56Z" uid="34449" user="kug" changeset="747849">
    <nd ref="536672"/>
    <nd ref="308894041"/>
    <nd ref="308894042"/>
    <nd ref="536671"/>
    <nd ref="311941206"/>
    <nd ref="311941512"/>
    <nd ref="311941514"/>
    <nd ref="21647061"/>
    <tag k="created_by" v="Potlatch 0.10f"/>
    <tag k="cycleway" v="track"/>
    <tag k="highway" v="secondary"/>
    <tag k="maxspeed" v="60"/>
    <tag k="name" v="Hamburger Straße"/>
    <tag k="railway" v="tram"/>
  </way>
  <way id="4080671" version="13" timestamp="2008-11-14T09:57:43Z" uid="34449" user="kug" changeset="747849">
    <nd ref="536672"/>
    <nd ref="308894041"/>
    <nd ref="308894042"/>
    <nd ref="536671"/>
    <nd ref="311941206"/>
    <tag k="created_by" v="Potlatch 0.10f"/>
    <tag k="cycleway" v="track"/>
    <tag k="highway" v="secondary"/>
    <tag k="maxspeed" v="60"/>
    <tag k="name" v="Hamburger Straße"/>
    <tag k="railway" v="tram"/>
  </way>
  <way id="4080671" version="14" timestamp="2008-11-14T09:58:01Z" uid="34449" user="kug" changeset="747849">
    <nd ref="536672"/>
    <nd ref="308894041"/>
    <nd ref="308894042"/>
    <nd ref="536671"/>
    <nd ref="311941206"/>
    <nd ref="311941976"/>
    <nd ref="311941598"/>
    <tag k="created_by" v="Potlatch 0.10f"/>
    <tag k="cycleway" v="track"/>
    <tag k="highway" v="secondary"/>
    <tag k="maxspeed" v="50"/>
    <tag k="name" v="Hamburger Straße"/>
    <tag k="railway" v="tram"/>
  </way>
  <way id="4080671" version="15" timestamp="2008-11-14T09:58:20Z" uid="34449" user="kug" changeset="747849">
    <nd ref="536672"/>
    <nd ref="308894041"/>
    <nd ref="308894042"/>
    <nd ref="536671"/>
    <nd ref="311941206"/>
    <nd ref="311941976"/>
    <nd ref="311941598"/>
    <tag k="created_by" v="Potlatch 0.10f"/>
    <tag k="cycleway" v="track"/>
    <tag k="highway" v="secondary"/>
    <tag k="maxspeed" v="50"/>
    <tag k="name" v="Hamburger Straße"/>
    <tag k="oneway" v="yes"/>
  </way>
  <way id="4080671" version="16" timestamp="2008-11-14T09:58:38Z" uid="34449" user="kug" changeset="747849">
    <nd ref="536672"/>
    <nd ref="308894041"/>
    <nd ref="308894042"/>
    <nd ref="536671"/>
    <nd ref="311941206"/>
    <nd ref="311941976"/>
    <tag k="created_by" v="Potlatch 0.10f"/>
    <tag k="cycleway" v="track"/>
    <tag k="highway" v="secondary"/>
    <tag k="maxspeed" v="60"/>
    <tag k="name" v="Hamburger Straße"/>
    <tag k="railway" v="tram"/>
  </way>
  <way id="4080671" version="17" timestamp="2008-11-14T09:58:58Z" uid="34449" user="kug" changeset="747849">
    <nd ref="536672"/>
    <nd ref="308894041"/>
    <nd ref="308894042"/>
    <nd ref="536671"/>
    <nd ref="311941206"/>
    <tag k="created_by" v="Potlatch 0.10f"/>
    <tag k="cycleway" v="track"/>
    <tag k="highway" v="secondary"/>
    <tag k="maxspeed" v="60"/>
    <tag k="name" v="Hamburger Straße"/>
    <tag k="railway" v="tram"/>
  </way>
  <way id="4080671" version="18" timestamp="2008-12-09T12:51:07Z" uid="42123" user="Ropino" changeset="276298">
    <nd ref="536672"/>
    <nd ref="317556692"/>
    <nd ref="308894041"/>
    <nd ref="308894042"/>
    <nd ref="536671"/>
    <nd ref="311941206"/>
    <tag k="created_by" v="Potlatch 0.10f"/>
    <tag k="cycleway" v="track"/>
    <tag k="highway" v="secondary"/>
    <tag k="maxspeed" v="60"/>
    <tag k="name" v="Hamburger Straße"/>
    <tag k="railway" v="tram"/>
  </way>
  <way id="4080671" version="19" timestamp="2008-12-29T20:07:00Z" uid="66881" user="Earth" changeset="664966">
    <nd ref="536672"/>
    <nd ref="317556692"/>
    <nd ref="322890987"/>
    <nd ref="308894041"/>
    <nd ref="308894042"/>
    <nd ref="536671"/>
    <nd ref="311941206"/>
    <tag k="created_by" v="Potlatch 0.10f"/>
    <tag k="cycleway" v="track"/>
    <tag k="highway" v="secondary"/>
    <tag k="maxspeed" v="60"/>
    <tag k="name" v="Hamburger Straße"/>
    <tag k="railway" v="tram"/>
  </way>
  <way id="4080671" version="20" timestamp="2009-01-26T21:59:22Z" uid="42123" user="Ropino" changeset="840896">
    <nd ref="536672"/>
    <nd ref="317556692"/>
    <nd ref="322890987"/>
    <nd ref="308894041"/>
    <nd ref="308894042"/>
    <nd ref="536671"/>
    <nd ref="311941206"/>
    <tag k="created_by" v="Potlatch 0.10f"/>
    <tag k="cycleway" v="track"/>
    <tag k="electrified" v="contact_line"/>
    <tag k="highway" v="secondary"/>
    <tag k="maxspeed" v="60"/>
    <tag k="name" v="Hamburger Straße"/>
    <tag k="railway" v="tram"/>
  </way>
  <way id="4080671" version="21" timestamp="2010-03-31T04:32:40Z" uid="168210" user="iknopf" changeset="4282428">
    <nd ref="536672"/>
    <nd ref="317556692"/>
    <nd ref="322890987"/>
    <nd ref="308894041"/>
    <nd ref="308894042"/>
    <nd ref="536671"/>
    <nd ref="311941206"/>
    <tag k="cycleway" v="track"/>
    <tag k="electrified" v="contact_line"/>
    <tag k="highway" v="secondary"/>
    <tag k="maxspeed" v="60"/>
    <tag k="name" v="Hamburger Straße"/>
    <tag k="railway" v="tram"/>
    <tag k="ref" v="S 73"/>
  </way>
  <way id="4080671" version="22" timestamp="2010-04-13T15:48:45Z" uid="168210" user="iknopf" changeset="4415019">
    <nd ref="536672"/>
    <nd ref="317556692"/>
    <nd ref="322890987"/>
    <nd ref="308894041"/>
    <nd ref="308894042"/>
    <nd ref="536671"/>
    <nd ref="311941206"/>
    <tag k="cycleway" v="track"/>
    <tag k="electrified" v="contact_line"/>
    <tag k="highway" v="secondary"/>
    <tag k="maxspeed" v="60"/>
    <tag k="name" v="Hamburger Straße"/>
    <tag k="railway" v="tram"/>
    <tag k="ref" v="S 73"/>
    <tag k="surface" v="asphalt"/>
  </way>
  <way id="4080671" version="23" timestamp="2010-07-09T22:19:28Z" uid="5065" user="ThomasKlosa" changeset="5177643">
    <nd ref="536672"/>
    <nd ref="317556692"/>
    <nd ref="322890987"/>
    <nd ref="808798766"/>
    <nd ref="808798772"/>
    <nd ref="308894041"/>
    <nd ref="308894042"/>
    <nd ref="808798831"/>
    <nd ref="808798744"/>
    <nd ref="536671"/>
    <nd ref="311941206"/>
    <tag k="cycleway" v="track"/>
    <tag k="electrified" v="contact_line"/>
    <tag k="highway" v="secondary"/>
    <tag k="maxspeed" v="60"/>
    <tag k="name" v="Hamburger Straße"/>
    <tag k="railway" v="tram"/>
    <tag k="ref" v="S 73"/>
    <tag k="surface" v="asphalt"/>
  </way>
  <way id="4080671" version="24" timestamp="2010-07-09T22:45:54Z" uid="5065" user="ThomasKlosa" changeset="5177784">
    <nd ref="536672"/>
    <nd ref="317556692"/>
    <nd ref="322890987"/>
    <nd ref="808798766"/>
    <nd ref="808798772"/>
    <nd ref="308894041"/>
    <nd ref="308894042"/>
    <nd ref="808798831"/>
    <nd ref="808798744"/>
    <nd ref="536671"/>
    <nd ref="808833591"/>
    <nd ref="808833567"/>
    <nd ref="808833569"/>
    <nd ref="311941206"/>
    <tag k="cycleway" v="track"/>
    <tag k="electrified" v="contact_line"/>
    <tag k="highway" v="secondary"/>
    <tag k="maxspeed" v="60"/>
    <tag k="name" v="Hamburger Straße"/>
    <tag k="railway" v="tram"/>
    <tag k="ref" v="S 73"/>
    <tag k="surface" v="asphalt"/>
  </way>
  <way id="4080671" version="25" timestamp="2010-07-09T22:56:07Z" uid="5065" user="ThomasKlosa" changeset="5177840">
    <nd ref="536672"/>
    <nd ref="317556692"/>
    <nd ref="322890987"/>
    <nd ref="808798766"/>
    <nd ref="808798772"/>
    <nd ref="308894041"/>
    <nd ref="308894042"/>
    <nd ref="808798831"/>
    <nd ref="808798744"/>
    <nd ref="536671"/>
    <nd ref="808833591"/>
    <nd ref="808847954"/>
    <nd ref="808833567"/>
    <nd ref="808833569"/>
    <nd ref="808847944"/>
    <nd ref="311941206"/>
    <tag k="cycleway" v="track"/>
    <tag k="electrified" v="contact_line"/>
    <tag k="highway" v="secondary"/>
    <tag k="maxspeed" v="60"/>
    <tag k="name" v="Hamburger Straße"/>
    <tag k="railway" v="tram"/>
    <tag k="ref" v="S 73"/>
    <tag k="surface" v="asphalt"/>
  </way>
  <way id="4080671" version="26" timestamp="2011-07-08T18:05:33Z" uid="51045" user="Geogast" changeset="8668269">
    <nd ref="536672"/>
    <nd ref="317556692"/>
    <nd ref="322890987"/>
    <nd ref="808798766"/>
    <nd ref="808798772"/>
    <nd ref="308894041"/>
    <nd ref="308894042"/>
    <nd ref="808798831"/>
    <nd ref="808798744"/>
    <nd ref="536671"/>
    <nd ref="808833591"/>
    <nd ref="808847954"/>
    <nd ref="808833567"/>
    <nd ref="808833569"/>
    <nd ref="808847944"/>
    <nd ref="311941206"/>
    <tag k="cycleway" v="track"/>
    <tag k="electrified" v="contact_line"/>
    <tag k="gauge" v="1450"/>
    <tag k="highway" v="secondary"/>
    <tag k="maxspeed" v="60"/>
    <tag k="name" v="Hamburger Straße"/>
    <tag k="railway" v="tram"/>
    <tag k="ref" v="S 73"/>
    <tag k="surface" v="asphalt"/>
  </way>
  <way id="4080671" version="27" timestamp="2011-10-09T05:40:39Z" uid="102899" user="stw1701" changeset="9508682">
    <nd ref="1459472885"/>
    <nd ref="317556692"/>
    <nd ref="322890987"/>
    <nd ref="808798766"/>
    <nd ref="808798772"/>
    <nd ref="308894041"/>
    <nd ref="308894042"/>
    <nd ref="808798831"/>
    <nd ref="808798744"/>
    <nd ref="536671"/>
    <nd ref="808833591"/>
    <nd ref="808847954"/>
    <nd ref="808833567"/>
    <nd ref="808833569"/>
    <nd ref="808847944"/>
    <nd ref="311941206"/>
    <tag k="cycleway" v="track"/>
    <tag k="electrified" v="contact_line"/>
    <tag k="gauge" v="1450"/>
    <tag k="highway" v="secondary"/>
    <tag k="maxspeed" v="60"/>
    <tag k="name" v="Hamburger Straße"/>
    <tag k="railway" v="tram"/>
    <tag k="ref" v="S 73"/>
    <tag k="surface" v="asphalt"/>
  </way>
  <way id="4080671" version="28" timestamp="2012-01-30T21:38:36Z" uid="37608" user="micha_k" changeset="10544171">
    <nd ref="1459472885"/>
    <nd ref="317556692"/>
    <nd ref="322890987"/>
    <nd ref="808798766"/>
    <nd ref="808798772"/>
    <nd ref="308894041"/>
    <nd ref="308894042"/>
    <nd ref="808798831"/>
    <nd ref="808798744"/>
    <nd ref="536671"/>
    <nd ref="808833591"/>
    <nd ref="808847954"/>
    <nd ref="808833567"/>
    <nd ref="808833569"/>
    <nd ref="808847944"/>
    <nd ref="311941206"/>
    <tag k="cycleway" v="track"/>
    <tag k="electrified" v="contact_line"/>
    <tag k="frequency" v="0"/>
    <tag k="gauge" v="1450"/>
    <tag k="highway" v="secondary"/>
    <tag k="maxspeed" v="60"/>
    <tag k="name" v="Hamburger Straße"/>
    <tag k="railway" v="tram"/>
    <tag k="ref" v="S 73"/>
    <tag k="surface" v="asphalt"/>
  </way>
  <way id="4080671" version="29" timestamp="2012-02-12T16:49:53Z" uid="102899" user="stw1701" changeset="10664987"/>
  <way id="4080878" version="4" timestamp="2009-03-29T09:07:38Z" uid="111804" user="Ammar Merzah" changeset="869020">
    <nd ref="21629940"/>
    <nd ref="21650542"/>
    <nd ref="21650543"/>
    <tag k="bridge" v="yes"/>
    <tag k="created_by" v="Potlatch 0.10f"/>
    <tag k="layer" v="1"/>
    <tag k="name" v="الجمهورية"/>
  </way>
  <way id="4080878" version="5" timestamp="2009-10-22T18:05:19Z" uid="165869" user="chdr" changeset="2923810">
    <nd ref="21629940"/>
    <nd ref="21650542"/>
    <nd ref="21650543"/>
    <tag k="bridge" v="yes"/>
    <tag k="layer" v="1"/>
    <tag k="name" v="الجمهورية (Al Jumhuriya Bridge)"/>
    <tag k="name:en" v="Al Jumhuriya Bridge"/>
  </way>
  <way id="4080878" version="6" timestamp="2009-10-28T10:15:12Z" uid="101130" user="tameem47" changeset="2972127">
    <nd ref="21629940"/>
    <nd ref="21650542"/>
    <nd ref="21650543"/>
    <tag k="bridge" v="yes"/>
    <tag k="name" v="الجمهورية (Al Jumhuriya Bridge)"/>
    <tag k="name:en" v="Al Jumhuriya Bridge"/>
  </way>
  <way id="4080878" version="7" timestamp="2009-10-28T10:18:51Z" uid="101130" user="tameem47" changeset="2972127">
    <nd ref="21629940"/>
    <nd ref="21650542"/>
    <nd ref="21650543"/>
    <tag k="bridge" v="yes"/>
    <tag k="highway" v="tertiary"/>
    <tag k="name" v="الجمهورية (Al Jumhuriya Bridge)"/>
    <tag k="name:en" v="Al Jumhuriya Bridge"/>
  </way>
  <way id="4080939" version="25" timestamp="2010-05-26T04:29:28Z" uid="4467" user="Rosscoe" changeset="4809656">
    <nd ref="21650912"/>
    <nd ref="662734792"/>
    <nd ref="21650909"/>
    <nd ref="311436293"/>
    <nd ref="255023659"/>
    <tag k="highway" v="tertiary"/>
    <tag k="name" v="Prospect Hill Road"/>
    <tag k="source" v="nearmap"/>
  </way>
  <way id="4080939" version="26" timestamp="2010-06-13T05:27:14Z" uid="1679" user="andrewpmk" changeset="4975559">
    <nd ref="21650912"/>
    <nd ref="662734792"/>
    <nd ref="21650909"/>
    <nd ref="311436293"/>
    <nd ref="255023659"/>
    <tag k="highway" v="tertiary"/>
    <tag k="lanes" v="2"/>
    <tag k="name" v="Prospect Hill Road"/>
    <tag k="source" v="nearmap"/>
    <tag k="surface" v="paved"/>
  </way>
  <way id="4080939" version="27" timestamp="2011-09-11T01:31:21Z" uid="46482" user="Leon K" changeset="9267136">
    <nd ref="21650912"/>
    <nd ref="1429494942"/>
    <nd ref="662734792"/>
    <nd ref="21650909"/>
    <nd ref="311436293"/>
    <nd ref="255023659"/>
    <tag k="highway" v="tertiary"/>
    <tag k="lanes" v="2"/>
    <tag k="name" v="Prospect Hill Road"/>
    <tag k="source" v="nearmap"/>
    <tag k="surface" v="paved"/>
  </way>
  <way id="4080941" version="5" timestamp="2010-03-27T07:41:06Z" uid="20587" user="balrog-kun" changeset="4244079">
    <nd ref="21650941"/>
    <nd ref="21650942"/>
    <nd ref="123079333"/>
    <nd ref="21650943"/>
    <nd ref="123079339"/>
    <nd ref="72402794"/>
    <nd ref="18453030"/>
    <tag k="highway" v="residential"/>
    <tag k="name" v="Thomas Street"/>
    <tag k="source" v="survey;image;usgs_imagery"/>
    <tag k="source_ref" v="AM909_DSCR9642"/>
  </way>
  <way id="4080943" version="4" timestamp="2010-03-27T07:41:06Z" uid="20587" user="balrog-kun" changeset="4244079">
    <nd ref="21650951"/>
    <nd ref="21650952"/>
    <nd ref="614226041"/>
    <nd ref="614226042"/>
    <nd ref="614226040"/>
    <nd ref="21650953"/>
    <nd ref="72448967"/>
    <nd ref="72448952"/>
    <nd ref="614226017"/>
    <nd ref="21650954"/>
    <nd ref="21650955"/>
    <tag k="highway" v="residential"/>
    <tag k="name" v="Prewit Street"/>
  </way>
  <way id="4080945" version="2" timestamp="2010-03-27T07:41:06Z" uid="20587" user="balrog-kun" changeset="4244079">
    <nd ref="21650974"/>
    <nd ref="21650975"/>
    <tag k="created_by" v="JOSM"/>
    <tag k="highway" v="residential"/>
    <tag k="name" v="Avenue 27"/>
  </way>
  <way id="4080947" version="7" timestamp="2010-03-27T07:41:06Z" uid="20587" user="balrog-kun" changeset="4244079">
    <nd ref="364612185"/>
    <nd ref="27292008"/>
    <nd ref="21650977"/>
    <tag k="created_by" v="Potlatch 0.10f"/>
    <tag k="highway" v="residential"/>
    <tag k="name" v="Avenue 38"/>
  </way>
  <way id="4080947" version="8" timestamp="2010-07-08T14:24:11Z" uid="82317" user="AM909" changeset="5166671">
    <nd ref="364612185"/>
    <nd ref="27292008"/>
    <nd ref="21650977"/>
    <tag k="highway" v="residential"/>
    <tag k="name" v="Avenue 38"/>
    <tag k="source" v="usgs_imagery;survey;image"/>
    <tag k="source_ref" v="AM909_DSCV1638"/>
  </way>
  <way id="4080948" version="3" timestamp="2010-03-27T07:41:06Z" uid="20587" user="balrog-kun" changeset="4244079">
    <nd ref="21507181"/>
    <nd ref="21650981"/>
    <nd ref="21650982"/>
    <nd ref="21650983"/>
    <nd ref="21650980"/>
    <nd ref="567247248"/>
    <nd ref="21650984"/>
    <nd ref="567247249"/>
    <nd ref="21650985"/>
    <nd ref="21507182"/>
    <tag k="highway" v="residential"/>
    <tag k="name" v="Hayes Avenue"/>
  </way>
  <way id="4080948" version="4" timestamp="2010-04-19T20:07:06Z" uid="167417" user="osm-sputnik" changeset="4471510">
    <nd ref="21507181"/>
    <nd ref="21650981"/>
    <nd ref="21650982"/>
    <nd ref="702234793"/>
    <nd ref="702234794"/>
    <nd ref="21650983"/>
    <nd ref="21650980"/>
    <nd ref="567247248"/>
    <nd ref="21650984"/>
    <nd ref="567247249"/>
    <nd ref="21650985"/>
    <nd ref="21507182"/>
    <tag k="highway" v="residential"/>
    <tag k="name" v="Hayes Avenue"/>
  </way>
  <way id="4080949" version="6" timestamp="2010-03-27T07:41:06Z" uid="20587" user="balrog-kun" changeset="4244079">
    <nd ref="18364118"/>
    <nd ref="18364115"/>
    <nd ref="111964671"/>
    <nd ref="19809018"/>
    <nd ref="21650987"/>
    <nd ref="123185480"/>
    <nd ref="123185483"/>
    <nd ref="21650988"/>
    <tag k="highway" v="residential"/>
    <tag k="name" v="Avenue 59"/>
  </way>
  <way id="4080949" version="7" timestamp="2010-04-19T19:58:10Z" uid="167417" user="osm-sputnik" changeset="4471510">
    <nd ref="18364118"/>
    <nd ref="702230867"/>
    <nd ref="18364115"/>
    <nd ref="111964671"/>
    <nd ref="19809018"/>
    <nd ref="21650987"/>
    <nd ref="123185480"/>
    <nd ref="123185483"/>
    <nd ref="21650988"/>
    <tag k="highway" v="residential"/>
    <tag k="name" v="Avenue 59"/>
  </way>
  <way id="4080950" version="4" timestamp="2010-03-27T07:41:06Z" uid="20587" user="balrog-kun" changeset="4244079">
    <nd ref="21650991"/>
    <nd ref="21650992"/>
    <nd ref="21650993"/>
    <nd ref="18075316"/>
    <nd ref="21650994"/>
    <nd ref="21650995"/>
    <nd ref="21650996"/>
    <nd ref="21650997"/>
    <nd ref="21650998"/>
    <nd ref="24396761"/>
    <nd ref="25583602"/>
    <tag k="created_by" v="JOSM"/>
    <tag k="highway" v="residential"/>
    <tag k="name" v="Avenue 57"/>
  </way>
  <way id="4080951" version="4" timestamp="2010-03-27T07:41:07Z" uid="20587" user="balrog-kun" changeset="4244079">
    <nd ref="21651001"/>
    <nd ref="503827098"/>
    <nd ref="503824810"/>
    <nd ref="18410619"/>
    <tag k="highway" v="residential"/>
    <tag k="name" v="Munsen Avenue"/>
  </way>
  <way id="4080964" version="6" timestamp="2009-08-31T21:38:04Z" uid="36809" user="pfoten_weg_!_" changeset="2331946">
    <nd ref="10258385"/>
    <nd ref="420299548"/>
    <nd ref="21646593"/>
    <nd ref="21646592"/>
    <tag k="bicycle" v="no"/>
    <tag k="highway" v="footway"/>
  </way>
  <way id="4080964" version="7" timestamp="2010-07-08T20:18:14Z" uid="18015" user="chan" changeset="5169175">
    <nd ref="10258385"/>
    <nd ref="420299548"/>
    <nd ref="807099717"/>
    <nd ref="21646593"/>
    <nd ref="21646592"/>
    <tag k="bicycle" v="no"/>
    <tag k="highway" v="footway"/>
  </way>
  <way id="4080964" version="8" timestamp="2011-01-20T12:41:25Z" uid="381750" user="andreaslrchr" changeset="7030086">
    <nd ref="10258385"/>
    <nd ref="420299548"/>
    <nd ref="21646593"/>
    <nd ref="21646592"/>
    <tag k="bicycle" v="no"/>
    <tag k="highway" v="footway"/>
  </way>
  <way id="4080212" version="14" timestamp="2012-07-20T00:23:25Z" uid="722137" user="OSMF Redaction Account" changeset="12352151">
    <nd ref="514120766"/>
    <nd ref="514121206"/>
    <tag k="highway" v="residential"/>
  </way>
  <way id="4080213" version="23" timestamp="2012-07-20T00:23:24Z" uid="722137" user="OSMF Redaction Account" changeset="12352151">
    <nd ref="514121706"/>
    <nd ref="1068774863"/>
    <nd ref="1068774864"/>
    <nd ref="350902412"/>
    <nd ref="900132066"/>
    <nd ref="514122647"/>
    <nd ref="1068774861"/>
    <nd ref="1068774860"/>
    <nd ref="730614628"/>
    <nd ref="942221530"/>
    <nd ref="730613647"/>
    <nd ref="942221529"/>
    <nd ref="730615284"/>
    <nd ref="304715000"/>
    <nd ref="730615470"/>
    <tag k="highway" v="residential"/>
    <tag k="source" v="unknown,nearmap"/>
  </way>
  <way id="4080213" version="24" timestamp="2012-08-02T02:18:50Z" uid="201505" user="talexbikes" changeset="12580776">
    <nd ref="21643682"/>
    <nd ref="514121706"/>
    <nd ref="1068774863"/>
    <nd ref="1068774864"/>
    <nd ref="350902412"/>
    <nd ref="900132066"/>
    <nd ref="514122647"/>
    <nd ref="1068774861"/>
    <nd ref="1068774860"/>
    <nd ref="730614628"/>
    <nd ref="942221530"/>
    <nd ref="730613647"/>
    <nd ref="942221529"/>
    <nd ref="730615284"/>
    <nd ref="304715000"/>
    <nd ref="730615470"/>
    <tag k="highway" v="residential"/>
    <tag k="name" v="William St"/>
    <tag k="source" v="unknown,nearmap"/>
    <tag k="surface" v="asphalt"/>
  </way>
  <way id="4080213" version="25" timestamp="2012-08-22T04:00:19Z" uid="95583" user="Geodes" changeset="12815917">
    <nd ref="21643682"/>
    <nd ref="514121706"/>
    <nd ref="1068774863"/>
    <nd ref="1068774864"/>
    <nd ref="350902412"/>
    <nd ref="900132066"/>
    <nd ref="514122647"/>
    <nd ref="1068774861"/>
    <nd ref="1068774860"/>
    <nd ref="730614628"/>
    <nd ref="942221530"/>
    <nd ref="730613647"/>
    <nd ref="942221529"/>
    <nd ref="730615284"/>
    <nd ref="304715000"/>
    <nd ref="730615470"/>
    <nd ref="246707481"/>
    <nd ref="246707306"/>
    <tag k="highway" v="residential"/>
    <tag k="name" v="William Street"/>
    <tag k="source" v="unknown,nearmap"/>
    <tag k="surface" v="asphalt"/>
  </way>
  <way id="4080217" version="12" timestamp="2012-07-20T00:22:08Z" uid="722137" user="OSMF Redaction Account" changeset="12352151">
    <nd ref="21643695"/>
    <nd ref="346142731"/>
    <tag k="highway" v="tertiary"/>
    <tag k="lanes" v="2"/>
    <tag k="name" v="Harold Street"/>
    <tag k="surface" v="paved"/>
  </way>
  <way id="4080217" version="13" timestamp="2012-07-25T08:29:03Z" uid="211804" user="KenS" changeset="12483222">
    <nd ref="21643695"/>
    <nd ref="346142731"/>
    <nd ref="1837370530"/>
    <tag k="highway" v="tertiary"/>
    <tag k="lanes" v="2"/>
    <tag k="name" v="Harold Street"/>
    <tag k="surface" v="paved"/>
  </way>
  <way id="4080392" version="20" timestamp="2012-07-17T18:29:01Z" uid="722137" user="OSMF Redaction Account" changeset="12270238">
    <nd ref="1956058"/>
    <nd ref="645733152"/>
    <nd ref="19371337"/>
    <tag k="highway" v="primary"/>
    <tag k="maxspeed" v="50"/>
    <tag k="name" v="Situlistraße"/>
    <tag k="oneway" v="yes"/>
    <tag k="ref" v="B 11"/>
    <tag k="surface" v="asphalt"/>
  </way>
  <way id="4080565" version="12" timestamp="2012-04-12T17:32:44Z" uid="315015" user="WernerP" changeset="11278882"/>
  <way id="4080939" version="28" timestamp="2012-07-20T00:23:20Z" uid="722137" user="OSMF Redaction Account" changeset="12352151">
    <nd ref="21650912"/>
    <nd ref="1429494942"/>
    <nd ref="662734792"/>
    <nd ref="21650909"/>
    <nd ref="311436293"/>
    <nd ref="255023659"/>
    <tag k="highway" v="tertiary"/>
    <tag k="lanes" v="2"/>
    <tag k="name" v="Prospect Hill Road"/>
    <tag k="surface" v="paved"/>
  </way>
  <way id="4080941" version="6" timestamp="2012-04-27T01:08:40Z" uid="82317" user="AM909" changeset="11429157">
    <nd ref="21650941"/>
    <nd ref="21650942"/>
    <nd ref="123079333"/>
    <nd ref="21650943"/>
    <nd ref="123079339"/>
    <nd ref="72402794"/>
    <nd ref="18453030"/>
    <tag k="highway" v="residential"/>
    <tag k="name" v="Thomas Street"/>
    <tag k="odbl" v="clean"/>
    <tag k="source" v="survey;image;usgs_imagery"/>
    <tag k="source_ref" v="AM909_DSCR9642"/>
  </way>
  <way id="4080943" version="5" timestamp="2012-07-19T07:13:39Z" uid="722137" user="OSMF Redaction Account" changeset="12311153">
    <nd ref="614226041"/>
    <nd ref="614226042"/>
    <nd ref="614226040"/>
    <nd ref="614226017"/>
  </way>
  <way id="4080943" version="6" timestamp="2012-07-29T00:52:34Z" uid="351693" user="ctr112280" changeset="12529573"/>
  <way id="4080945" version="3" timestamp="2012-07-19T07:14:59Z" uid="722137" user="OSMF Redaction Account" changeset="12311415"/>
  <way id="4080947" version="9" timestamp="2012-04-27T01:06:43Z" uid="82317" user="AM909" changeset="11429157">
    <nd ref="364612185"/>
    <nd ref="27292008"/>
    <nd ref="21650977"/>
    <tag k="highway" v="residential"/>
    <tag k="name" v="Avenue 38"/>
    <tag k="odbl" v="clean"/>
    <tag k="source" v="usgs_imagery;survey;image"/>
    <tag k="source_ref" v="AM909_DSCV1638"/>
  </way>
  <way id="4080947" version="10" timestamp="2012-06-11T23:23:30Z" uid="104962" user="techlady" changeset="11868997"/>
  <way id="4080948" version="5" timestamp="2012-07-19T06:23:30Z" uid="722137" user="OSMF Redaction Account" changeset="12310291">
    <nd ref="702234793"/>
    <nd ref="702234794"/>
    <nd ref="567247248"/>
    <nd ref="567247249"/>
  </way>
  <way id="4080948" version="6" timestamp="2012-07-29T02:55:39Z" uid="50743" user="dima" changeset="12530155">
    <nd ref="1842153514"/>
    <nd ref="21650981"/>
    <nd ref="702234793"/>
    <nd ref="702234794"/>
    <nd ref="567247248"/>
    <nd ref="567247249"/>
    <tag k="highway" v="residential"/>
  </way>
  <way id="4080948" version="7" timestamp="2012-08-05T01:04:10Z" uid="50743" user="dima" changeset="12615797"/>
  <way id="4080949" version="8" timestamp="2012-07-19T07:15:06Z" uid="722137" user="OSMF Redaction Account" changeset="12311415"/>
  <way id="4080950" version="5" timestamp="2012-06-11T18:25:04Z" uid="104962" user="techlady" changeset="11867078"/>
  <way id="4080951" version="5" timestamp="2012-06-11T22:13:00Z" uid="104962" user="techlady" changeset="11868997"/>
  <way id="4080964" version="9" timestamp="2012-04-16T21:23:19Z" uid="72235" user="Basstoelpel" changeset="11327430"/>
</osm>
