<?xml version='1.0' encoding='UTF-8'?>
<osm version="0.6" generator="libosmium/2.20.0">
  <way id="40988434" version="2" timestamp="2009-12-30T12:51:54Z" uid="20587" user="balrog-kun" changeset="3489553">
    <nd ref="499538275"/>
    <nd ref="499538282"/>
    <nd ref="499538279"/>
    <nd ref="499538277"/>
    <nd ref="499538275"/>
    <tag k="amenity" v="public_building"/>
    <tag k="building" v="yes"/>
  </way>
  <way id="40988702" version="6" timestamp="2009-12-24T02:03:58Z" uid="6975" user="ulfl" changeset="3439532">
    <nd ref="499549167"/>
    <nd ref="499549186"/>
    <nd ref="499549194"/>
    <nd ref="499549204"/>
    <nd ref="499549167"/>
    <tag k="addr:street" v="Avenue de Pérouges"/>
    <tag k="building" v="yes"/>
    <tag k="name" v="Bugey"/>
  </way>
  <way id="40988702" version="7" timestamp="2010-10-26T08:28:51Z" uid="159777" user="antoinef" changeset="6180074">
    <nd ref="499549167"/>
    <nd ref="499549186"/>
    <nd ref="499549194"/>
    <nd ref="499549204"/>
    <nd ref="499549167"/>
    <tag k="addr:housenumber" v="40"/>
    <tag k="addr:street" v="Avenue de Pérouges"/>
    <tag k="building" v="yes"/>
    <tag k="name" v="Bugey"/>
  </way>
  <way id="40988702" version="8" timestamp="2012-06-11T07:58:37Z" uid="200426" user="gottferdom" changeset="11862302">
    <nd ref="529792850"/>
    <nd ref="529792851"/>
    <nd ref="499549194"/>
    <nd ref="499549204"/>
    <nd ref="529792850"/>
    <tag k="addr:housenumber" v="40"/>
    <tag k="addr:street" v="Avenue de Pérouges"/>
    <tag k="building" v="yes"/>
    <tag k="name" v="Bugey"/>
  </way>
</osm>
