<?xml version='1.0' encoding='UTF-8'?>
<osm version="0.6" generator="libosmium/2.20.0">
  <way id="4121460" version="1" timestamp="2007-06-27T19:49:26Z" uid="8328" user="benpre" changeset="117279">
    <nd ref="368541"/>
    <nd ref="368540"/>
    <nd ref="359638"/>
    <tag k="created_by" v="JOSM"/>
  </way>
  <way id="4121460" version="2" timestamp="2008-03-17T16:26:18Z" uid="10172" user="Sebastian Frei" changeset="341187">
    <nd ref="368541"/>
    <nd ref="368540"/>
    <nd ref="359638"/>
    <tag k="created_by" v="JOSM"/>
    <tag k="highway" v="residential"/>
    <tag k="name" v="Otto-Fischer-Straße"/>
  </way>
  <way id="4121460" version="3" timestamp="2008-09-30T15:20:18Z" uid="56565" user="amellema" changeset="723601">
    <nd ref="368541"/>
    <nd ref="368540"/>
    <tag k="created_by" v="JOSM"/>
    <tag k="highway" v="residential"/>
    <tag k="name" v="Otto-Fischer-Straße"/>
  </way>
  <way id="4121460" version="4" timestamp="2009-09-28T15:25:56Z" uid="6390" user="grenzdebil_bonn" changeset="2666122">
    <nd ref="368541"/>
    <nd ref="368540"/>
    <tag k="highway" v="residential"/>
    <tag k="maxspeed" v="50"/>
    <tag k="name" v="Otto-Fischer-Straße"/>
  </way>
  <way id="4121460" version="5" timestamp="2010-01-16T22:52:19Z" uid="6390" user="grenzdebil_bonn" changeset="3636577">
    <nd ref="368541"/>
    <nd ref="615027658"/>
    <nd ref="463299987"/>
    <nd ref="368540"/>
    <tag k="highway" v="residential"/>
    <tag k="maxspeed" v="50"/>
    <tag k="name" v="Otto-Fischer-Straße"/>
  </way>
  <way id="4121460" version="6" timestamp="2012-02-12T12:51:32Z" uid="6390" user="grenzdebil_bonn" changeset="10662339"/>
  <way id="4121466" version="1" timestamp="2007-06-27T19:49:29Z" uid="8328" user="benpre" changeset="117279">
    <nd ref="368545"/>
    <nd ref="368557"/>
    <nd ref="368559"/>
    <nd ref="368567"/>
    <nd ref="368560"/>
    <tag k="created_by" v="JOSM"/>
  </way>
  <way id="4121466" version="2" timestamp="2008-05-19T11:53:00Z" uid="38415" user="evtg" changeset="483230">
    <nd ref="368545"/>
    <nd ref="368557"/>
    <nd ref="368559"/>
    <nd ref="265727751"/>
    <nd ref="265727750"/>
    <nd ref="265727742"/>
    <nd ref="368567"/>
    <nd ref="368560"/>
    <tag k="created_by" v="JOSM"/>
    <tag k="highway" v="residential"/>
    <tag k="name" v="Rudolph-Amelux Straße"/>
  </way>
  <way id="4121466" version="3" timestamp="2008-07-14T20:18:04Z" uid="31059" user="DaBear" changeset="490524">
    <nd ref="368545"/>
    <nd ref="368557"/>
    <nd ref="368559"/>
    <nd ref="265727751"/>
    <nd ref="265727750"/>
    <nd ref="265727742"/>
    <nd ref="368567"/>
    <nd ref="368560"/>
    <tag k="created_by" v="JOSM"/>
    <tag k="highway" v="residential"/>
    <tag k="name" v="Rudolph-Amelux-Straße"/>
  </way>
  <way id="4121466" version="4" timestamp="2008-07-30T06:26:17Z" uid="9781" user="RoToRa" changeset="629047">
    <nd ref="368545"/>
    <nd ref="368557"/>
    <nd ref="368559"/>
    <nd ref="265727751"/>
    <nd ref="265727750"/>
    <nd ref="282155106"/>
    <nd ref="265727742"/>
    <nd ref="368567"/>
    <nd ref="368560"/>
    <tag k="created_by" v="JOSM"/>
    <tag k="highway" v="residential"/>
    <tag k="name" v="Rudolf-Amelunxen-Straße"/>
  </way>
  <way id="4121466" version="5" timestamp="2008-08-09T20:33:08Z" uid="1222" user="rsopp" changeset="153449">
    <nd ref="368545"/>
    <nd ref="286566115"/>
    <nd ref="368557"/>
    <nd ref="368559"/>
    <nd ref="265727751"/>
    <nd ref="265727750"/>
    <nd ref="282155106"/>
    <nd ref="265727742"/>
    <nd ref="368567"/>
    <nd ref="368560"/>
    <tag k="created_by" v="JOSM"/>
    <tag k="highway" v="residential"/>
    <tag k="name" v="Rudolf-Amelunxen-Straße"/>
  </way>
  <way id="4121466" version="6" timestamp="2009-03-29T14:37:53Z" uid="15766" user="ToB" changeset="867361">
    <nd ref="368545"/>
    <nd ref="286566115"/>
    <nd ref="368557"/>
    <tag k="created_by" v="JOSM"/>
    <tag k="highway" v="residential"/>
    <tag k="name" v="Rudolf-Amelunxen-Straße"/>
  </way>
  <way id="4121466" version="7" timestamp="2009-06-26T15:27:36Z" uid="6390" user="grenzdebil_bonn" changeset="1642041">
    <nd ref="368545"/>
    <nd ref="286566115"/>
    <nd ref="368557"/>
    <tag k="highway" v="tertiary"/>
    <tag k="maxspeed" v="50"/>
    <tag k="name" v="Rudolf-Amelunxen-Straße"/>
  </way>
  <way id="4121466" version="8" timestamp="2010-05-10T22:12:35Z" uid="6390" user="grenzdebil_bonn" changeset="4664334">
    <nd ref="368545"/>
    <nd ref="667495046"/>
    <nd ref="286566115"/>
    <nd ref="368557"/>
    <tag k="highway" v="tertiary"/>
    <tag k="maxspeed" v="50"/>
    <tag k="name" v="Rudolf-Amelunxen-Straße"/>
  </way>
  <way id="4121466" version="9" timestamp="2010-12-04T17:17:50Z" uid="6390" user="grenzdebil_bonn" changeset="6540533">
    <nd ref="368545"/>
    <nd ref="667495046"/>
    <nd ref="1020384477"/>
    <nd ref="286566115"/>
    <nd ref="368557"/>
    <tag k="highway" v="tertiary"/>
    <tag k="maxspeed" v="50"/>
    <tag k="name" v="Rudolf-Amelunxen-Straße"/>
  </way>
  <way id="4121466" version="10" timestamp="2012-02-12T12:51:34Z" uid="6390" user="grenzdebil_bonn" changeset="10662339"/>
</osm>
