<?xml version='1.0' encoding='UTF-8'?>
<osm version="0.6" generator="libosmium/2.20.0">
  <way id="41352511" version="2" timestamp="2009-10-02T11:21:02Z" uid="86259" user="hasse_osm_korinthenkacker" changeset="2711165">
    <nd ref="505797610"/>
    <nd ref="376048464"/>
    <nd ref="376048452"/>
    <tag k="highway" v="residential"/>
    <tag k="layer" v="0"/>
    <tag k="name" v="Am Fuchssteig"/>
    <tag k="surface" v="paved"/>
    <tag k="width" v="5"/>
  </way>
  <way id="41352511" version="3" timestamp="2009-10-02T11:27:59Z" uid="86259" user="hasse_osm_korinthenkacker" changeset="2711249">
    <nd ref="505797610"/>
    <nd ref="376048464"/>
    <nd ref="376048452"/>
    <tag k="highway" v="residential"/>
    <tag k="layer" v="0"/>
    <tag k="name" v="Am Fuchssteig"/>
    <tag k="surface" v="paved"/>
    <tag k="width" v="5"/>
  </way>
  <way id="41352511" version="4" timestamp="2012-06-14T05:26:43Z" uid="290723" user="sulagaloh" changeset="11891385">
    <nd ref="1786936758"/>
    <nd ref="1786936753"/>
    <nd ref="376048464"/>
    <nd ref="376048452"/>
    <tag k="highway" v="residential"/>
    <tag k="layer" v="0"/>
    <tag k="name" v="Am Fuchssteig"/>
    <tag k="surface" v="paved"/>
    <tag k="width" v="5"/>
  </way>
  <way id="41352511" version="5" timestamp="2012-06-15T05:01:44Z" uid="13832" user="Peter14" changeset="11901191">
    <nd ref="1786936758"/>
    <nd ref="1786936753"/>
    <nd ref="376048464"/>
    <nd ref="1786935221"/>
    <tag k="highway" v="residential"/>
    <tag k="layer" v="0"/>
    <tag k="name" v="Am Fuchssteig"/>
    <tag k="surface" v="paved"/>
    <tag k="width" v="5"/>
  </way>
</osm>
