<?xml version='1.0' encoding='UTF-8'?>
<osm version="0.6" generator="libosmium/2.20.0">
  <way id="4136000" version="2" timestamp="2008-07-19T14:32:33Z" uid="4667" user="MapZ" changeset="539737">
    <nd ref="23040843"/>
    <nd ref="23040854"/>
    <tag k="created_by" v="JOSM"/>
    <tag k="highway" v="residential"/>
    <tag k="maxspeed" v="30"/>
    <tag k="name" v="Eichendorffstraße"/>
    <tag k="postal_code" v="69469"/>
  </way>
  <way id="4136000" version="3" timestamp="2008-07-19T14:44:00Z" uid="4667" user="MapZ" changeset="539737">
    <nd ref="23040843"/>
    <nd ref="23040854"/>
    <tag k="created_by" v="JOSM"/>
    <tag k="highway" v="residential"/>
    <tag k="maxspeed" v="30"/>
    <tag k="name" v="Eichendorffstraße"/>
    <tag k="postal_code" v="69493"/>
  </way>
  <way id="4136000" version="4" timestamp="2010-03-23T22:11:23Z" uid="9581" user="Lobelt" changeset="4216873">
    <nd ref="23040843"/>
    <nd ref="23040854"/>
    <tag k="highway" v="residential"/>
    <tag k="maxspeed" v="30"/>
    <tag k="name" v="Eichendorffstraße"/>
    <tag k="postal_code" v="69493"/>
  </way>
  <way id="4136001" version="2" timestamp="2008-07-19T14:32:34Z" uid="4667" user="MapZ" changeset="539737">
    <nd ref="23040901"/>
    <nd ref="23040933"/>
    <tag k="created_by" v="JOSM"/>
    <tag k="highway" v="residential"/>
    <tag k="maxspeed" v="30"/>
    <tag k="name" v="Hermann-Löns-Straße"/>
    <tag k="postal_code" v="69469"/>
  </way>
  <way id="4136001" version="3" timestamp="2008-07-19T14:44:00Z" uid="4667" user="MapZ" changeset="539737">
    <nd ref="23040901"/>
    <nd ref="23040933"/>
    <tag k="created_by" v="JOSM"/>
    <tag k="highway" v="residential"/>
    <tag k="maxspeed" v="30"/>
    <tag k="name" v="Hermann-Löns-Straße"/>
    <tag k="postal_code" v="69493"/>
  </way>
  <way id="4136001" version="4" timestamp="2010-03-03T00:33:51Z" uid="9581" user="Lobelt" changeset="4021691">
    <nd ref="23040901"/>
    <nd ref="659621460"/>
    <nd ref="659621461"/>
    <nd ref="23040933"/>
    <tag k="highway" v="residential"/>
    <tag k="maxspeed" v="30"/>
    <tag k="name" v="Hermann-Löns-Straße"/>
    <tag k="postal_code" v="69493"/>
  </way>
  <way id="4136001" version="5" timestamp="2010-03-25T21:28:49Z" uid="9581" user="Lobelt" changeset="4233399">
    <nd ref="23040901"/>
    <nd ref="659621460"/>
    <nd ref="659621461"/>
    <nd ref="674371984"/>
    <tag k="highway" v="residential"/>
    <tag k="maxspeed" v="30"/>
    <tag k="name" v="Hermann-Löns-Straße"/>
    <tag k="postal_code" v="69493"/>
  </way>
  <way id="4136002" version="2" timestamp="2008-07-19T14:32:32Z" uid="4667" user="MapZ" changeset="539737">
    <nd ref="23040962"/>
    <nd ref="23041070"/>
    <nd ref="23041085"/>
    <nd ref="23040933"/>
    <tag k="created_by" v="JOSM"/>
    <tag k="highway" v="residential"/>
    <tag k="maxspeed" v="30"/>
    <tag k="name" v="Adalbert-Stifter-Ring"/>
    <tag k="postal_code" v="69469"/>
  </way>
  <way id="4136002" version="3" timestamp="2008-07-19T14:44:00Z" uid="4667" user="MapZ" changeset="539737">
    <nd ref="23040962"/>
    <nd ref="23041070"/>
    <nd ref="23041085"/>
    <nd ref="23040933"/>
    <tag k="created_by" v="JOSM"/>
    <tag k="highway" v="residential"/>
    <tag k="maxspeed" v="30"/>
    <tag k="name" v="Adalbert-Stifter-Ring"/>
    <tag k="postal_code" v="69493"/>
  </way>
  <way id="4136002" version="4" timestamp="2010-03-25T21:28:50Z" uid="9581" user="Lobelt" changeset="4233399">
    <nd ref="23040962"/>
    <nd ref="23041070"/>
    <nd ref="23041085"/>
    <nd ref="674371983"/>
    <tag k="highway" v="residential"/>
    <tag k="maxspeed" v="30"/>
    <tag k="name" v="Adalbert-Stifter-Ring"/>
    <tag k="postal_code" v="69493"/>
  </way>
  <way id="4136003" version="2" timestamp="2008-07-19T14:32:33Z" uid="4667" user="MapZ" changeset="539737">
    <nd ref="23041614"/>
    <nd ref="23041618"/>
    <nd ref="23041623"/>
    <tag k="created_by" v="JOSM"/>
    <tag k="highway" v="residential"/>
    <tag k="maxspeed" v="30"/>
    <tag k="name" v="Hebelstraße"/>
    <tag k="postal_code" v="69469"/>
  </way>
  <way id="4136003" version="3" timestamp="2008-07-19T14:44:00Z" uid="4667" user="MapZ" changeset="539737">
    <nd ref="23041614"/>
    <nd ref="23041618"/>
    <nd ref="23041623"/>
    <tag k="created_by" v="JOSM"/>
    <tag k="highway" v="residential"/>
    <tag k="maxspeed" v="30"/>
    <tag k="name" v="Hebelstraße"/>
    <tag k="postal_code" v="69493"/>
  </way>
  <way id="4136003" version="4" timestamp="2011-10-23T15:24:25Z" uid="475266" user="Lobelt_2" changeset="9634216">
    <nd ref="23041614"/>
    <nd ref="23041618"/>
    <nd ref="23041623"/>
    <tag k="highway" v="residential"/>
    <tag k="maxspeed" v="30"/>
    <tag k="name" v="Hebelstraße"/>
    <tag k="postal_code" v="69493"/>
  </way>
  <way id="4136003" version="5" timestamp="2012-01-11T09:22:40Z" uid="442210" user="dwausr" changeset="10358781"/>
  <way id="4136003" version="6" timestamp="2012-03-28T07:40:25Z" uid="442210" user="dwausr" changeset="11123485">
    <nd ref="23041614"/>
    <nd ref="23041618"/>
    <nd ref="23041623"/>
    <tag k="highway" v="residential"/>
    <tag k="maxspeed" v="30"/>
    <tag k="name" v="Hebelstraße"/>
    <tag k="postal_code" v="69493"/>
  </way>
  <way id="4136004" version="2" timestamp="2008-07-19T14:32:31Z" uid="4667" user="MapZ" changeset="539737">
    <nd ref="22358888"/>
    <nd ref="23041614"/>
    <nd ref="23041609"/>
    <tag k="created_by" v="JOSM"/>
    <tag k="highway" v="residential"/>
    <tag k="maxspeed" v="30"/>
    <tag k="name" v="Beinpfad"/>
    <tag k="postal_code" v="69469"/>
  </way>
  <way id="4136004" version="3" timestamp="2008-07-19T14:43:59Z" uid="4667" user="MapZ" changeset="539737">
    <nd ref="22358888"/>
    <nd ref="23041614"/>
    <nd ref="23041609"/>
    <tag k="created_by" v="JOSM"/>
    <tag k="highway" v="residential"/>
    <tag k="maxspeed" v="30"/>
    <tag k="name" v="Beinpfad"/>
    <tag k="postal_code" v="69493"/>
  </way>
  <way id="4136004" version="4" timestamp="2011-10-23T15:24:41Z" uid="475266" user="Lobelt_2" changeset="9634216">
    <nd ref="22358888"/>
    <nd ref="23041614"/>
    <nd ref="23041609"/>
    <tag k="highway" v="residential"/>
    <tag k="maxspeed" v="30"/>
    <tag k="name" v="Beinpfad"/>
    <tag k="postal_code" v="69493"/>
  </way>
  <way id="4136004" version="5" timestamp="2012-01-11T09:22:24Z" uid="442210" user="dwausr" changeset="10358781"/>
  <way id="4136004" version="6" timestamp="2012-03-28T07:17:39Z" uid="442210" user="dwausr" changeset="11123485">
    <nd ref="22358888"/>
    <nd ref="23041614"/>
    <nd ref="23041609"/>
    <tag k="highway" v="residential"/>
    <tag k="maxspeed" v="30"/>
    <tag k="name" v="Beinpfad"/>
    <tag k="postal_code" v="69493"/>
  </way>
  <way id="4136005" version="2" timestamp="2008-07-19T14:32:32Z" uid="4667" user="MapZ" changeset="539737">
    <nd ref="23041606"/>
    <nd ref="22358794"/>
    <tag k="created_by" v="JOSM"/>
    <tag k="highway" v="residential"/>
    <tag k="maxspeed" v="30"/>
    <tag k="name" v="Beinweg"/>
    <tag k="postal_code" v="69469"/>
  </way>
  <way id="4136005" version="3" timestamp="2008-07-19T14:43:59Z" uid="4667" user="MapZ" changeset="539737">
    <nd ref="23041606"/>
    <nd ref="22358794"/>
    <tag k="created_by" v="JOSM"/>
    <tag k="highway" v="residential"/>
    <tag k="maxspeed" v="30"/>
    <tag k="name" v="Beinweg"/>
    <tag k="postal_code" v="69493"/>
  </way>
  <way id="4136005" version="4" timestamp="2010-03-03T00:33:51Z" uid="9581" user="Lobelt" changeset="4021691">
    <nd ref="23041606"/>
    <nd ref="659621453"/>
    <nd ref="659621456"/>
    <nd ref="659621454"/>
    <nd ref="22358794"/>
    <tag k="highway" v="residential"/>
    <tag k="maxspeed" v="30"/>
    <tag k="name" v="Beinweg"/>
    <tag k="postal_code" v="69493"/>
  </way>
  <way id="4136005" version="5" timestamp="2012-01-11T09:22:24Z" uid="442210" user="dwausr" changeset="10358781"/>
  <way id="4136005" version="6" timestamp="2012-03-28T07:17:40Z" uid="442210" user="dwausr" changeset="11123485">
    <nd ref="23041606"/>
    <nd ref="659621453"/>
    <nd ref="659621456"/>
    <nd ref="659621454"/>
    <nd ref="22358794"/>
    <tag k="highway" v="residential"/>
    <tag k="maxspeed" v="30"/>
    <tag k="name" v="Beinweg"/>
    <tag k="postal_code" v="69493"/>
  </way>
  <way id="4136511" version="2" timestamp="2008-07-19T14:33:15Z" uid="4667" user="MapZ" changeset="539737">
    <nd ref="22358783"/>
    <nd ref="23082932"/>
    <nd ref="22358794"/>
    <nd ref="22358797"/>
    <nd ref="22358804"/>
    <tag k="created_by" v="JOSM"/>
    <tag k="highway" v="residential"/>
    <tag k="maxspeed" v="30"/>
    <tag k="name" v="Burgweg"/>
    <tag k="postal_code" v="69469"/>
  </way>
  <way id="4136511" version="3" timestamp="2008-07-19T14:44:40Z" uid="4667" user="MapZ" changeset="539737">
    <nd ref="22358783"/>
    <nd ref="23082932"/>
    <nd ref="22358794"/>
    <nd ref="22358797"/>
    <nd ref="22358804"/>
    <tag k="created_by" v="JOSM"/>
    <tag k="highway" v="residential"/>
    <tag k="maxspeed" v="30"/>
    <tag k="name" v="Burgweg"/>
    <tag k="postal_code" v="69493"/>
  </way>
  <way id="4136511" version="4" timestamp="2010-03-16T17:51:56Z" uid="9581" user="Lobelt" changeset="4145196">
    <nd ref="22358783"/>
    <nd ref="23082932"/>
    <nd ref="22358794"/>
    <nd ref="22358797"/>
    <nd ref="667400163"/>
    <tag k="highway" v="residential"/>
    <tag k="maxspeed" v="30"/>
    <tag k="name" v="Burgweg"/>
    <tag k="postal_code" v="69493"/>
  </way>
  <way id="4136511" version="5" timestamp="2011-04-07T19:22:36Z" uid="140064" user="debfreak" changeset="7797699">
    <nd ref="22358783"/>
    <nd ref="23082932"/>
    <nd ref="22358794"/>
    <nd ref="22358797"/>
    <nd ref="1236468481"/>
    <nd ref="1236468484"/>
    <nd ref="667400163"/>
    <tag k="highway" v="residential"/>
    <tag k="maxspeed" v="30"/>
    <tag k="name" v="Burgweg"/>
    <tag k="postal_code" v="69493"/>
  </way>
  <way id="4136511" version="6" timestamp="2012-01-11T09:22:25Z" uid="442210" user="dwausr" changeset="10358781"/>
  <way id="4136511" version="7" timestamp="2012-03-28T07:17:45Z" uid="442210" user="dwausr" changeset="11123485">
    <nd ref="22358783"/>
    <nd ref="23082932"/>
    <nd ref="22358794"/>
    <nd ref="22358797"/>
    <nd ref="1236468481"/>
    <nd ref="1236468484"/>
    <nd ref="667400163"/>
    <tag k="highway" v="residential"/>
    <tag k="maxspeed" v="30"/>
    <tag k="name" v="Burgweg"/>
    <tag k="postal_code" v="69493"/>
  </way>
  <way id="4136512" version="2" timestamp="2008-07-19T14:33:25Z" uid="4667" user="MapZ" changeset="539737">
    <nd ref="23028808"/>
    <nd ref="23041584"/>
    <nd ref="23041589"/>
    <nd ref="23041595"/>
    <nd ref="23041599"/>
    <nd ref="23041602"/>
    <nd ref="22358804"/>
    <tag k="created_by" v="JOSM"/>
    <tag k="highway" v="residential"/>
    <tag k="maxspeed" v="30"/>
    <tag k="name" v="Martin-Stöhr-Straße"/>
    <tag k="postal_code" v="69469"/>
  </way>
  <way id="4136512" version="3" timestamp="2008-07-19T14:44:51Z" uid="4667" user="MapZ" changeset="539737">
    <nd ref="23028808"/>
    <nd ref="23041584"/>
    <nd ref="23041589"/>
    <nd ref="23041595"/>
    <nd ref="23041599"/>
    <nd ref="23041602"/>
    <nd ref="22358804"/>
    <tag k="created_by" v="JOSM"/>
    <tag k="highway" v="residential"/>
    <tag k="maxspeed" v="30"/>
    <tag k="name" v="Martin-Stöhr-Straße"/>
    <tag k="postal_code" v="69493"/>
  </way>
  <way id="4136512" version="4" timestamp="2010-03-16T17:51:55Z" uid="9581" user="Lobelt" changeset="4145196">
    <nd ref="23028808"/>
    <nd ref="23041584"/>
    <nd ref="23041589"/>
    <nd ref="23041595"/>
    <nd ref="23041599"/>
    <nd ref="23041602"/>
    <nd ref="667400164"/>
    <nd ref="667400163"/>
    <tag k="highway" v="residential"/>
    <tag k="maxspeed" v="30"/>
    <tag k="name" v="Martin-Stöhr-Straße"/>
    <tag k="postal_code" v="69493"/>
  </way>
  <way id="4136512" version="5" timestamp="2011-04-07T19:22:36Z" uid="140064" user="debfreak" changeset="7797699">
    <nd ref="23028808"/>
    <nd ref="23041584"/>
    <nd ref="23041589"/>
    <nd ref="23041595"/>
    <nd ref="23041599"/>
    <nd ref="23041602"/>
    <nd ref="667400164"/>
    <nd ref="1236468485"/>
    <nd ref="667400163"/>
    <tag k="highway" v="residential"/>
    <tag k="maxspeed" v="30"/>
    <tag k="name" v="Martin-Stöhr-Straße"/>
    <tag k="postal_code" v="69493"/>
  </way>
  <way id="4136512" version="6" timestamp="2012-01-12T07:43:35Z" uid="442210" user="dwausr" changeset="10367185"/>
  <way id="4136512" version="7" timestamp="2012-03-28T08:07:27Z" uid="442210" user="dwausr" changeset="11123485">
    <nd ref="23028808"/>
    <nd ref="23041584"/>
    <nd ref="23041589"/>
    <nd ref="23041595"/>
    <nd ref="23041599"/>
    <nd ref="23041602"/>
    <nd ref="667400164"/>
    <nd ref="1236468485"/>
    <nd ref="667400163"/>
    <tag k="highway" v="residential"/>
    <tag k="maxspeed" v="30"/>
    <tag k="name" v="Martin-Stöhr-Straße"/>
    <tag k="postal_code" v="69493"/>
  </way>
  <way id="4136513" version="2" timestamp="2008-07-19T14:33:25Z" uid="4667" user="MapZ" changeset="539737">
    <nd ref="23041584"/>
    <nd ref="23041583"/>
    <nd ref="23041582"/>
    <nd ref="22358832"/>
    <tag k="created_by" v="JOSM"/>
    <tag k="highway" v="residential"/>
    <tag k="maxspeed" v="30"/>
    <tag k="name" v="Kreuzgasse"/>
    <tag k="postal_code" v="69469"/>
  </way>
  <way id="4136513" version="3" timestamp="2008-07-19T14:44:51Z" uid="4667" user="MapZ" changeset="539737">
    <nd ref="23041584"/>
    <nd ref="23041583"/>
    <nd ref="23041582"/>
    <nd ref="22358832"/>
    <tag k="created_by" v="JOSM"/>
    <tag k="highway" v="residential"/>
    <tag k="maxspeed" v="30"/>
    <tag k="name" v="Kreuzgasse"/>
    <tag k="postal_code" v="69493"/>
  </way>
  <way id="4136513" version="4" timestamp="2011-10-23T15:24:34Z" uid="475266" user="Lobelt_2" changeset="9634216">
    <nd ref="23041584"/>
    <nd ref="23041583"/>
    <nd ref="23041582"/>
    <nd ref="22358832"/>
    <tag k="highway" v="residential"/>
    <tag k="maxspeed" v="30"/>
    <tag k="name" v="Kreuzgasse"/>
    <tag k="postal_code" v="69493"/>
  </way>
  <way id="4136513" version="5" timestamp="2012-01-12T07:43:35Z" uid="442210" user="dwausr" changeset="10367185"/>
  <way id="4136513" version="6" timestamp="2012-03-28T07:40:46Z" uid="442210" user="dwausr" changeset="11123485">
    <nd ref="23041584"/>
    <nd ref="23041583"/>
    <nd ref="23041582"/>
    <nd ref="22358832"/>
    <tag k="highway" v="residential"/>
    <tag k="maxspeed" v="30"/>
    <tag k="name" v="Kreuzgasse"/>
    <tag k="postal_code" v="69493"/>
  </way>
  <way id="4136514" version="3" timestamp="2008-07-19T14:33:24Z" uid="4667" user="MapZ" changeset="539737">
    <nd ref="23041585"/>
    <nd ref="23041582"/>
    <tag k="created_by" v="JOSM"/>
    <tag k="highway" v="residential"/>
    <tag k="maxspeed" v="30"/>
    <tag k="name" v="Mittelgasse"/>
    <tag k="postal_code" v="69469"/>
  </way>
  <way id="4136514" version="4" timestamp="2008-07-19T14:44:49Z" uid="4667" user="MapZ" changeset="539737">
    <nd ref="23041585"/>
    <nd ref="23041582"/>
    <tag k="created_by" v="JOSM"/>
    <tag k="highway" v="residential"/>
    <tag k="maxspeed" v="30"/>
    <tag k="name" v="Mittelgasse"/>
    <tag k="postal_code" v="69493"/>
  </way>
  <way id="4136514" version="5" timestamp="2010-03-16T17:51:56Z" uid="9581" user="Lobelt" changeset="4145196">
    <nd ref="23041585"/>
    <nd ref="667400179"/>
    <nd ref="23041582"/>
    <tag k="highway" v="residential"/>
    <tag k="maxspeed" v="30"/>
    <tag k="name" v="Mittelgasse"/>
    <tag k="postal_code" v="69493"/>
  </way>
  <way id="4136515" version="2" timestamp="2008-07-19T14:33:24Z" uid="4667" user="MapZ" changeset="539737">
    <nd ref="23041583"/>
    <nd ref="22358809"/>
    <tag k="created_by" v="JOSM"/>
    <tag k="highway" v="residential"/>
    <tag k="maxspeed" v="30"/>
    <tag k="name" v="Mittelgasse"/>
    <tag k="postal_code" v="69469"/>
  </way>
  <way id="4136515" version="3" timestamp="2008-07-19T14:44:49Z" uid="4667" user="MapZ" changeset="539737">
    <nd ref="23041583"/>
    <nd ref="22358809"/>
    <tag k="created_by" v="JOSM"/>
    <tag k="highway" v="residential"/>
    <tag k="maxspeed" v="30"/>
    <tag k="name" v="Mittelgasse"/>
    <tag k="postal_code" v="69493"/>
  </way>
  <way id="4136515" version="4" timestamp="2011-10-23T15:22:43Z" uid="475266" user="Lobelt_2" changeset="9634216">
    <nd ref="23041583"/>
    <nd ref="22358809"/>
    <tag k="highway" v="residential"/>
    <tag k="maxspeed" v="30"/>
    <tag k="name" v="Mittelgasse"/>
    <tag k="postal_code" v="69493"/>
  </way>
  <way id="4136516" version="3" timestamp="2008-07-19T14:33:26Z" uid="4667" user="MapZ" changeset="539737">
    <nd ref="22358832"/>
    <nd ref="252646660"/>
    <tag k="created_by" v="JOSM"/>
    <tag k="highway" v="residential"/>
    <tag k="maxspeed" v="30"/>
    <tag k="name" v="Dohlweg"/>
    <tag k="postal_code" v="69469"/>
  </way>
  <way id="4136516" version="4" timestamp="2008-07-19T14:44:51Z" uid="4667" user="MapZ" changeset="539737">
    <nd ref="22358832"/>
    <nd ref="252646660"/>
    <tag k="created_by" v="JOSM"/>
    <tag k="highway" v="residential"/>
    <tag k="maxspeed" v="30"/>
    <tag k="name" v="Dohlweg"/>
    <tag k="postal_code" v="69493"/>
  </way>
  <way id="4136516" version="5" timestamp="2011-10-23T15:23:00Z" uid="475266" user="Lobelt_2" changeset="9634216">
    <nd ref="22358832"/>
    <nd ref="252646660"/>
    <tag k="highway" v="residential"/>
    <tag k="maxspeed" v="30"/>
    <tag k="name" v="Dohlweg"/>
    <tag k="postal_code" v="69493"/>
  </way>
  <way id="4136517" version="2" timestamp="2008-07-19T14:33:26Z" uid="4667" user="MapZ" changeset="539737">
    <nd ref="23041580"/>
    <nd ref="23041554"/>
    <tag k="created_by" v="JOSM"/>
    <tag k="highway" v="residential"/>
    <tag k="maxspeed" v="30"/>
    <tag k="name" v="Schloßgasse"/>
    <tag k="postal_code" v="69469"/>
  </way>
  <way id="4136517" version="3" timestamp="2008-07-19T14:44:52Z" uid="4667" user="MapZ" changeset="539737">
    <nd ref="23041580"/>
    <nd ref="23041554"/>
    <tag k="created_by" v="JOSM"/>
    <tag k="highway" v="residential"/>
    <tag k="maxspeed" v="30"/>
    <tag k="name" v="Schloßgasse"/>
    <tag k="postal_code" v="69493"/>
  </way>
  <way id="4136517" version="4" timestamp="2011-10-23T15:24:00Z" uid="475266" user="Lobelt_2" changeset="9634216">
    <nd ref="23041580"/>
    <nd ref="23041554"/>
    <tag k="highway" v="residential"/>
    <tag k="maxspeed" v="30"/>
    <tag k="name" v="Schloßgasse"/>
    <tag k="postal_code" v="69493"/>
  </way>
  <way id="4136519" version="2" timestamp="2008-07-19T14:33:26Z" uid="4667" user="MapZ" changeset="539737">
    <nd ref="22358843"/>
    <nd ref="23041562"/>
    <tag k="created_by" v="JOSM"/>
    <tag k="highway" v="residential"/>
    <tag k="name" v="Im Eck"/>
    <tag k="postal_code" v="69469"/>
  </way>
  <way id="4136519" version="3" timestamp="2008-07-19T14:44:51Z" uid="4667" user="MapZ" changeset="539737">
    <nd ref="22358843"/>
    <nd ref="23041562"/>
    <tag k="created_by" v="JOSM"/>
    <tag k="highway" v="residential"/>
    <tag k="name" v="Im Eck"/>
    <tag k="postal_code" v="69493"/>
  </way>
  <way id="4136519" version="4" timestamp="2011-10-23T15:24:16Z" uid="475266" user="Lobelt_2" changeset="9634216">
    <nd ref="22358843"/>
    <nd ref="23041562"/>
    <tag k="highway" v="residential"/>
    <tag k="name" v="Im Eck"/>
    <tag k="postal_code" v="69493"/>
  </way>
  <way id="4136520" version="2" timestamp="2008-07-19T14:33:29Z" uid="4667" user="MapZ" changeset="539737">
    <nd ref="22358840"/>
    <nd ref="23041581"/>
    <tag k="created_by" v="JOSM"/>
    <tag k="highway" v="residential"/>
    <tag k="postal_code" v="69469"/>
  </way>
  <way id="4136520" version="3" timestamp="2008-07-19T14:44:54Z" uid="4667" user="MapZ" changeset="539737">
    <nd ref="22358840"/>
    <nd ref="23041581"/>
    <tag k="created_by" v="JOSM"/>
    <tag k="highway" v="residential"/>
    <tag k="postal_code" v="69493"/>
  </way>
  <way id="4136520" version="4" timestamp="2011-10-23T15:24:28Z" uid="475266" user="Lobelt_2" changeset="9634216">
    <nd ref="22358840"/>
    <nd ref="23041581"/>
    <tag k="highway" v="residential"/>
    <tag k="postal_code" v="69493"/>
  </way>
  <way id="4136521" version="2" timestamp="2008-07-19T14:33:30Z" uid="4667" user="MapZ" changeset="539737">
    <nd ref="22358804"/>
    <nd ref="23057195"/>
    <nd ref="22358809"/>
    <nd ref="22358814"/>
    <tag k="created_by" v="JOSM"/>
    <tag k="highway" v="residential"/>
    <tag k="maxspeed" v="30"/>
    <tag k="name" v="Obergasse"/>
    <tag k="postal_code" v="69469"/>
  </way>
  <way id="4136521" version="3" timestamp="2008-07-19T14:44:54Z" uid="4667" user="MapZ" changeset="539737">
    <nd ref="22358804"/>
    <nd ref="23057195"/>
    <nd ref="22358809"/>
    <nd ref="22358814"/>
    <tag k="created_by" v="JOSM"/>
    <tag k="highway" v="residential"/>
    <tag k="maxspeed" v="30"/>
    <tag k="name" v="Obergasse"/>
    <tag k="postal_code" v="69493"/>
  </way>
  <way id="4136521" version="4" timestamp="2010-03-16T17:51:55Z" uid="9581" user="Lobelt" changeset="4145196">
    <nd ref="667400163"/>
    <nd ref="667400165"/>
    <nd ref="23057195"/>
    <nd ref="22358809"/>
    <nd ref="22358814"/>
    <tag k="highway" v="residential"/>
    <tag k="maxspeed" v="30"/>
    <tag k="name" v="Obergasse"/>
    <tag k="postal_code" v="69493"/>
  </way>
  <way id="4136521" version="5" timestamp="2010-10-23T17:35:37Z" uid="9581" user="Lobelt" changeset="6148952">
    <nd ref="667400163"/>
    <nd ref="667400165"/>
    <nd ref="23057195"/>
    <nd ref="961873903"/>
    <nd ref="22358809"/>
    <nd ref="22358814"/>
    <tag k="highway" v="residential"/>
    <tag k="maxspeed" v="30"/>
    <tag k="name" v="Obergasse"/>
    <tag k="postal_code" v="69493"/>
  </way>
  <way id="4136522" version="2" timestamp="2008-07-05T13:11:14Z" uid="4667" user="MapZ" changeset="399518">
    <nd ref="23057163"/>
    <nd ref="23057191"/>
    <nd ref="23057195"/>
    <tag k="created_by" v="JOSM"/>
    <tag k="highway" v="service"/>
    <tag k="name" v="Landwehrhagener Platz"/>
  </way>
  <way id="4136522" version="3" timestamp="2008-07-19T14:33:27Z" uid="4667" user="MapZ" changeset="539737">
    <nd ref="23057163"/>
    <nd ref="23057191"/>
    <nd ref="23057195"/>
    <tag k="created_by" v="JOSM"/>
    <tag k="highway" v="service"/>
    <tag k="name" v="Landwehrhagener Platz"/>
    <tag k="postal_code" v="69469"/>
  </way>
  <way id="4136522" version="4" timestamp="2008-07-19T14:44:52Z" uid="4667" user="MapZ" changeset="539737">
    <nd ref="23057163"/>
    <nd ref="23057191"/>
    <nd ref="23057195"/>
    <tag k="created_by" v="JOSM"/>
    <tag k="highway" v="service"/>
    <tag k="name" v="Landwehrhagener Platz"/>
    <tag k="postal_code" v="69493"/>
  </way>
  <way id="4136522" version="5" timestamp="2010-03-16T17:51:57Z" uid="9581" user="Lobelt" changeset="4145196">
    <nd ref="667400193"/>
    <nd ref="23057163"/>
    <nd ref="23057191"/>
    <nd ref="667400196"/>
    <nd ref="23057195"/>
    <tag k="highway" v="service"/>
    <tag k="name" v="Landwehrhagener Platz"/>
    <tag k="postal_code" v="69493"/>
  </way>
  <way id="4136523" version="4" timestamp="2008-07-19T14:33:28Z" uid="4667" user="MapZ" changeset="539737">
    <nd ref="22358804"/>
    <nd ref="23041635"/>
    <nd ref="23041647"/>
    <nd ref="252654077"/>
    <tag k="created_by" v="JOSM"/>
    <tag k="highway" v="residential"/>
    <tag k="maxspeed" v="30"/>
    <tag k="name" v="Steig"/>
    <tag k="postal_code" v="69469"/>
  </way>
  <way id="4136523" version="5" timestamp="2008-07-19T14:44:53Z" uid="4667" user="MapZ" changeset="539737">
    <nd ref="22358804"/>
    <nd ref="23041635"/>
    <nd ref="23041647"/>
    <nd ref="252654077"/>
    <tag k="created_by" v="JOSM"/>
    <tag k="highway" v="residential"/>
    <tag k="maxspeed" v="30"/>
    <tag k="name" v="Steig"/>
    <tag k="postal_code" v="69493"/>
  </way>
  <way id="4136523" version="6" timestamp="2009-04-25T13:53:51Z" uid="4667" user="MapZ" changeset="950791">
    <nd ref="22358804"/>
    <nd ref="384755739"/>
    <nd ref="23041635"/>
    <nd ref="23041647"/>
    <nd ref="252654077"/>
    <tag k="created_by" v="JOSM"/>
    <tag k="highway" v="residential"/>
    <tag k="maxspeed" v="30"/>
    <tag k="name" v="Steig"/>
    <tag k="postal_code" v="69493"/>
  </way>
  <way id="4136523" version="7" timestamp="2009-10-10T13:38:41Z" uid="7562" user="LosHawlos" changeset="2803902">
    <nd ref="22358804"/>
    <nd ref="384755739"/>
    <nd ref="23041635"/>
    <tag k="highway" v="residential"/>
    <tag k="maxspeed" v="30"/>
    <tag k="name" v="Steig"/>
    <tag k="postal_code" v="69493"/>
  </way>
  <way id="4136523" version="8" timestamp="2010-03-16T17:51:56Z" uid="9581" user="Lobelt" changeset="4145196">
    <nd ref="667400163"/>
    <nd ref="384755739"/>
    <nd ref="23041635"/>
    <tag k="highway" v="residential"/>
    <tag k="maxspeed" v="30"/>
    <tag k="name" v="Steig"/>
    <tag k="postal_code" v="69493"/>
  </way>
  <way id="4136523" version="9" timestamp="2010-10-23T17:34:52Z" uid="9581" user="Lobelt" changeset="6148952">
    <nd ref="667400163"/>
    <nd ref="384755739"/>
    <nd ref="23041635"/>
    <tag k="highway" v="residential"/>
    <tag k="maxspeed" v="30"/>
    <tag k="name" v="Steig"/>
  </way>
  <way id="4136524" version="2" timestamp="2008-07-19T14:33:31Z" uid="4667" user="MapZ" changeset="539737">
    <nd ref="23041635"/>
    <nd ref="23041651"/>
    <tag k="created_by" v="JOSM"/>
    <tag k="highway" v="residential"/>
    <tag k="name" v="Bergweg"/>
    <tag k="postal_code" v="69469"/>
  </way>
  <way id="4136524" version="3" timestamp="2008-07-19T14:44:56Z" uid="4667" user="MapZ" changeset="539737">
    <nd ref="23041635"/>
    <nd ref="23041651"/>
    <tag k="created_by" v="JOSM"/>
    <tag k="highway" v="residential"/>
    <tag k="name" v="Bergweg"/>
    <tag k="postal_code" v="69493"/>
  </way>
  <way id="4136524" version="4" timestamp="2011-03-24T16:08:31Z" uid="140064" user="debfreak" changeset="7657217">
    <nd ref="23041635"/>
    <nd ref="23041651"/>
    <tag k="highway" v="residential"/>
    <tag k="maxspeed" v="30"/>
    <tag k="name" v="Bergweg"/>
    <tag k="postal_code" v="69493"/>
  </way>
  <way id="4136525" version="2" timestamp="2008-07-19T14:33:32Z" uid="4667" user="MapZ" changeset="539737">
    <nd ref="23041651"/>
    <nd ref="23041658"/>
    <nd ref="23041672"/>
    <nd ref="23041689"/>
    <nd ref="23041698"/>
    <tag k="created_by" v="JOSM"/>
    <tag k="highway" v="residential"/>
    <tag k="maxspeed" v="30"/>
    <tag k="name" v="In der Hühl"/>
    <tag k="postal_code" v="69469"/>
  </way>
  <way id="4136525" version="3" timestamp="2008-07-19T14:44:57Z" uid="4667" user="MapZ" changeset="539737">
    <nd ref="23041651"/>
    <nd ref="23041658"/>
    <nd ref="23041672"/>
    <nd ref="23041689"/>
    <nd ref="23041698"/>
    <tag k="created_by" v="JOSM"/>
    <tag k="highway" v="residential"/>
    <tag k="maxspeed" v="30"/>
    <tag k="name" v="In der Hühl"/>
    <tag k="postal_code" v="69493"/>
  </way>
  <way id="4136525" version="4" timestamp="2011-10-23T15:24:43Z" uid="475266" user="Lobelt_2" changeset="9634216">
    <nd ref="23041651"/>
    <nd ref="23041658"/>
    <nd ref="23041672"/>
    <nd ref="23041689"/>
    <nd ref="23041698"/>
    <tag k="highway" v="residential"/>
    <tag k="maxspeed" v="30"/>
    <tag k="name" v="In der Hühl"/>
    <tag k="postal_code" v="69493"/>
  </way>
  <way id="4136526" version="3" timestamp="2008-07-19T14:33:30Z" uid="4667" user="MapZ" changeset="539737">
    <nd ref="23041651"/>
    <nd ref="23041703"/>
    <nd ref="23041707"/>
    <nd ref="252653944"/>
    <tag k="created_by" v="JOSM"/>
    <tag k="highway" v="residential"/>
    <tag k="postal_code" v="69469"/>
  </way>
  <way id="4136526" version="4" timestamp="2008-07-19T14:44:55Z" uid="4667" user="MapZ" changeset="539737">
    <nd ref="23041651"/>
    <nd ref="23041703"/>
    <nd ref="23041707"/>
    <nd ref="252653944"/>
    <tag k="created_by" v="JOSM"/>
    <tag k="highway" v="residential"/>
    <tag k="postal_code" v="69493"/>
  </way>
  <way id="4136526" version="5" timestamp="2009-08-24T11:07:13Z" uid="4667" user="MapZ" changeset="2242715">
    <nd ref="23041651"/>
    <nd ref="23041703"/>
    <nd ref="23041707"/>
    <nd ref="252653944"/>
    <tag k="highway" v="residential"/>
    <tag k="name" v="Bergweg"/>
    <tag k="postal_code" v="69493"/>
  </way>
  <way id="4136526" version="6" timestamp="2010-11-07T14:33:19Z" uid="9581" user="Lobelt" changeset="6311890">
    <nd ref="23041651"/>
    <nd ref="23041703"/>
    <nd ref="980863909"/>
    <nd ref="23041707"/>
    <nd ref="252653944"/>
    <tag k="highway" v="residential"/>
    <tag k="name" v="Bergweg"/>
    <tag k="postal_code" v="69493"/>
  </way>
  <way id="4136526" version="7" timestamp="2011-03-24T16:08:31Z" uid="140064" user="debfreak" changeset="7657217">
    <nd ref="23041651"/>
    <nd ref="23041703"/>
    <nd ref="980863909"/>
    <nd ref="23041707"/>
    <nd ref="252653944"/>
    <tag k="highway" v="residential"/>
    <tag k="maxspeed" v="30"/>
    <tag k="name" v="Bergweg"/>
    <tag k="postal_code" v="69493"/>
  </way>
  <way id="4136526" version="8" timestamp="2011-04-07T19:30:32Z" uid="140064" user="debfreak" changeset="7797783">
    <nd ref="23041651"/>
    <nd ref="1236479272"/>
    <nd ref="23041703"/>
    <nd ref="980863909"/>
    <nd ref="23041707"/>
    <nd ref="252653944"/>
    <tag k="highway" v="residential"/>
    <tag k="maxspeed" v="30"/>
    <tag k="name" v="Bergweg"/>
    <tag k="postal_code" v="69493"/>
  </way>
  <way id="4136527" version="4" timestamp="2008-04-20T15:38:23Z" uid="4667" user="MapZ" changeset="203689">
    <nd ref="252653944"/>
    <nd ref="23041710"/>
    <nd ref="23041714"/>
    <nd ref="23041717"/>
    <nd ref="23041721"/>
    <nd ref="23041724"/>
    <nd ref="23041728"/>
    <nd ref="23041732"/>
    <nd ref="23041735"/>
    <nd ref="23041739"/>
    <nd ref="23041740"/>
    <nd ref="23041744"/>
    <nd ref="23041748"/>
    <nd ref="23041751"/>
    <nd ref="23041754"/>
    <nd ref="252653947"/>
    <nd ref="252655732"/>
    <nd ref="23041761"/>
    <nd ref="23041764"/>
    <nd ref="23041768"/>
    <nd ref="23041772"/>
    <nd ref="23041776"/>
    <nd ref="23041781"/>
    <nd ref="23041785"/>
    <nd ref="23041788"/>
    <tag k=" tracktype" v="grade1"/>
    <tag k="created_by" v="JOSM"/>
    <tag k="highway" v="track"/>
  </way>
  <way id="4136527" version="5" timestamp="2008-04-26T15:25:02Z" uid="4667" user="MapZ" changeset="260245">
    <nd ref="252653944"/>
    <nd ref="23041710"/>
    <nd ref="23041714"/>
    <nd ref="23041717"/>
    <nd ref="23041721"/>
    <nd ref="23041724"/>
    <nd ref="23041728"/>
    <nd ref="23041732"/>
    <nd ref="23041735"/>
    <nd ref="23041739"/>
    <nd ref="23041740"/>
    <nd ref="23041744"/>
    <nd ref="23041748"/>
    <nd ref="23041751"/>
    <nd ref="23041754"/>
    <nd ref="252653947"/>
    <nd ref="252655732"/>
    <nd ref="23041761"/>
    <nd ref="23041764"/>
    <nd ref="23041768"/>
    <nd ref="23041772"/>
    <nd ref="23041776"/>
    <nd ref="23041781"/>
    <nd ref="23041785"/>
    <nd ref="23041788"/>
    <tag k="created_by" v="JOSM"/>
    <tag k="highway" v="track"/>
  </way>
  <way id="4136527" version="6" timestamp="2008-07-19T14:33:31Z" uid="4667" user="MapZ" changeset="539737">
    <nd ref="252653944"/>
    <nd ref="23041710"/>
    <nd ref="23041714"/>
    <nd ref="23041717"/>
    <nd ref="23041721"/>
    <nd ref="23041724"/>
    <nd ref="23041728"/>
    <nd ref="23041732"/>
    <nd ref="23041735"/>
    <nd ref="23041739"/>
    <nd ref="23041740"/>
    <nd ref="23041744"/>
    <nd ref="23041748"/>
    <nd ref="23041751"/>
    <nd ref="23041754"/>
    <nd ref="252653947"/>
    <nd ref="252655732"/>
    <nd ref="23041761"/>
    <nd ref="23041764"/>
    <nd ref="23041768"/>
    <nd ref="23041772"/>
    <nd ref="23041776"/>
    <nd ref="23041781"/>
    <nd ref="23041785"/>
    <nd ref="23041788"/>
    <tag k="created_by" v="JOSM"/>
    <tag k="highway" v="track"/>
    <tag k="postal_code" v="69469"/>
  </way>
  <way id="4136527" version="7" timestamp="2008-07-19T14:44:55Z" uid="4667" user="MapZ" changeset="539737">
    <nd ref="252653944"/>
    <nd ref="23041710"/>
    <nd ref="23041714"/>
    <nd ref="23041717"/>
    <nd ref="23041721"/>
    <nd ref="23041724"/>
    <nd ref="23041728"/>
    <nd ref="23041732"/>
    <nd ref="23041735"/>
    <nd ref="23041739"/>
    <nd ref="23041740"/>
    <nd ref="23041744"/>
    <nd ref="23041748"/>
    <nd ref="23041751"/>
    <nd ref="23041754"/>
    <nd ref="252653947"/>
    <nd ref="252655732"/>
    <nd ref="23041761"/>
    <nd ref="23041764"/>
    <nd ref="23041768"/>
    <nd ref="23041772"/>
    <nd ref="23041776"/>
    <nd ref="23041781"/>
    <nd ref="23041785"/>
    <nd ref="23041788"/>
    <tag k="created_by" v="JOSM"/>
    <tag k="highway" v="track"/>
    <tag k="postal_code" v="69493"/>
  </way>
  <way id="4136527" version="8" timestamp="2008-09-02T14:36:59Z" uid="36785" user="PWolf" changeset="502913">
    <nd ref="252653944"/>
    <nd ref="23041710"/>
    <nd ref="23041714"/>
    <nd ref="23041717"/>
    <nd ref="23041721"/>
    <nd ref="23041724"/>
    <nd ref="23041728"/>
    <nd ref="23041732"/>
    <nd ref="23041735"/>
    <nd ref="23041739"/>
    <nd ref="23041740"/>
    <nd ref="23041744"/>
    <nd ref="23041748"/>
    <nd ref="23041751"/>
    <nd ref="23041754"/>
    <nd ref="252653947"/>
    <nd ref="252655732"/>
    <nd ref="23041761"/>
    <nd ref="23041764"/>
    <nd ref="23041768"/>
    <nd ref="23041772"/>
    <nd ref="23041776"/>
    <nd ref="23041781"/>
    <nd ref="293164557"/>
    <nd ref="293164561"/>
    <nd ref="293164562"/>
    <nd ref="293164563"/>
    <nd ref="293164558"/>
    <nd ref="23041785"/>
    <tag k="created_by" v="JOSM"/>
    <tag k="highway" v="track"/>
    <tag k="postal_code" v="69493"/>
    <tag k="tracktype" v="grade1"/>
  </way>
  <way id="4136527" version="9" timestamp="2009-01-05T16:05:25Z" changeset="738742">
    <nd ref="252653944"/>
    <nd ref="23041710"/>
    <nd ref="23041714"/>
    <nd ref="23041717"/>
    <nd ref="23041721"/>
    <nd ref="23041724"/>
    <nd ref="23041728"/>
    <nd ref="23041732"/>
    <nd ref="23041735"/>
    <nd ref="23041739"/>
    <nd ref="23041740"/>
    <nd ref="23041744"/>
    <nd ref="23041748"/>
    <nd ref="23041751"/>
    <nd ref="23041754"/>
    <nd ref="252653947"/>
    <nd ref="252655732"/>
    <nd ref="23041761"/>
    <nd ref="23041764"/>
    <nd ref="23041768"/>
    <nd ref="23041772"/>
    <nd ref="23041776"/>
    <nd ref="23041781"/>
    <nd ref="293164557"/>
    <nd ref="293164561"/>
    <nd ref="293164562"/>
    <nd ref="293164563"/>
    <nd ref="293164558"/>
    <nd ref="23041785"/>
    <tag k="created_by" v="JOSM"/>
    <tag k="highway" v="track"/>
    <tag k="tracktype" v="grade1"/>
  </way>
  <way id="4136527" version="10" timestamp="2009-10-10T13:38:41Z" uid="7562" user="LosHawlos" changeset="2803902">
    <nd ref="252653944"/>
    <nd ref="23041710"/>
    <nd ref="23041714"/>
    <nd ref="23041717"/>
    <nd ref="23041721"/>
    <nd ref="23041724"/>
    <nd ref="23041728"/>
    <nd ref="23041732"/>
    <nd ref="23041735"/>
    <nd ref="23041739"/>
    <nd ref="23041740"/>
    <nd ref="23041744"/>
    <nd ref="23041748"/>
    <nd ref="23041751"/>
    <nd ref="23041754"/>
    <nd ref="252653947"/>
    <nd ref="252655732"/>
    <nd ref="23041761"/>
    <nd ref="23041764"/>
    <nd ref="23041768"/>
    <nd ref="23041772"/>
    <nd ref="23041776"/>
    <nd ref="23041781"/>
    <nd ref="293164557"/>
    <nd ref="293164561"/>
    <nd ref="293164562"/>
    <nd ref="293164563"/>
    <nd ref="293164558"/>
    <nd ref="23041785"/>
    <tag k="highway" v="service"/>
  </way>
  <way id="4136527" version="11" timestamp="2011-04-07T19:30:33Z" uid="140064" user="debfreak" changeset="7797783">
    <nd ref="252653944"/>
    <nd ref="23041710"/>
    <nd ref="1236479276"/>
    <nd ref="23041714"/>
    <nd ref="1236479264"/>
    <nd ref="23041717"/>
    <nd ref="1236479262"/>
    <nd ref="23041721"/>
    <nd ref="1236479278"/>
    <nd ref="23041724"/>
    <nd ref="23041728"/>
    <nd ref="1236479258"/>
    <nd ref="23041732"/>
    <nd ref="23041735"/>
    <nd ref="23041739"/>
    <nd ref="23041740"/>
    <nd ref="23041744"/>
    <nd ref="23041748"/>
    <nd ref="23041751"/>
    <nd ref="1236479255"/>
    <nd ref="1236479274"/>
    <nd ref="23041754"/>
    <nd ref="252653947"/>
    <nd ref="252655732"/>
    <nd ref="23041761"/>
    <nd ref="23041764"/>
    <nd ref="1236479280"/>
    <nd ref="23041768"/>
    <nd ref="23041772"/>
    <nd ref="23041776"/>
    <nd ref="1236479259"/>
    <nd ref="23041781"/>
    <nd ref="293164557"/>
    <nd ref="293164561"/>
    <nd ref="293164562"/>
    <nd ref="293164563"/>
    <nd ref="293164558"/>
    <nd ref="23041785"/>
    <tag k="highway" v="service"/>
  </way>
  <way id="4136528" version="2" timestamp="2008-06-28T21:10:25Z" uid="4667" user="MapZ" changeset="323888">
    <nd ref="274355701"/>
    <nd ref="23057203"/>
    <tag k="created_by" v="JOSM"/>
    <tag k="highway" v="minor"/>
    <tag k="name" v="Schlittweg"/>
  </way>
  <way id="4136528" version="3" timestamp="2008-07-19T14:33:20Z" uid="4667" user="MapZ" changeset="539737">
    <nd ref="274355701"/>
    <nd ref="23057203"/>
    <tag k="created_by" v="JOSM"/>
    <tag k="highway" v="minor"/>
    <tag k="name" v="Schlittweg"/>
    <tag k="postal_code" v="69469"/>
  </way>
  <way id="4136528" version="4" timestamp="2008-07-19T14:44:45Z" uid="4667" user="MapZ" changeset="539737">
    <nd ref="274355701"/>
    <nd ref="23057203"/>
    <tag k="created_by" v="JOSM"/>
    <tag k="highway" v="minor"/>
    <tag k="name" v="Schlittweg"/>
    <tag k="postal_code" v="69493"/>
  </way>
  <way id="4136528" version="5" timestamp="2008-09-16T12:58:42Z" uid="8732" user="xylome2" changeset="648249">
    <nd ref="274355701"/>
    <nd ref="23057203"/>
    <tag k="created_by" v="fixbot"/>
    <tag k="highway" v="unclassified"/>
    <tag k="name" v="Schlittweg"/>
    <tag k="postal_code" v="69493"/>
  </way>
  <way id="4136528" version="6" timestamp="2008-09-16T14:59:16Z" changeset="647216">
    <nd ref="274355701"/>
    <nd ref="23057203"/>
    <tag k="created_by" v="fixbot"/>
    <tag k="highway" v="unclassified"/>
    <tag k="name" v="Schlittweg"/>
  </way>
  <way id="4136528" version="7" timestamp="2008-10-10T17:21:26Z" uid="67574" user="andikt" changeset="236679">
    <nd ref="274355701"/>
    <nd ref="23057203"/>
    <tag k="created_by" v="Potlatch 0.10d"/>
    <tag k="highway" v="unclassified"/>
    <tag k="name" v="Schlittweg"/>
  </way>
  <way id="4136528" version="8" timestamp="2008-10-10T17:28:49Z" uid="67574" user="andikt" changeset="236679">
    <nd ref="274355701"/>
    <nd ref="303596366"/>
    <nd ref="23057203"/>
    <tag k="created_by" v="Potlatch 0.10d"/>
    <tag k="highway" v="unclassified"/>
    <tag k="name" v="Schlittweg"/>
  </way>
  <way id="4136528" version="9" timestamp="2009-01-05T15:58:41Z" changeset="738742">
    <nd ref="252651721"/>
    <nd ref="303596366"/>
    <nd ref="23057203"/>
    <tag k="created_by" v="Potlatch 0.10d"/>
    <tag k="highway" v="unclassified"/>
    <tag k="name" v="Schlittweg"/>
  </way>
  <way id="4136528" version="10" timestamp="2011-10-23T15:24:10Z" uid="475266" user="Lobelt_2" changeset="9634216">
    <nd ref="252651721"/>
    <nd ref="303596366"/>
    <nd ref="23057203"/>
    <tag k="highway" v="unclassified"/>
    <tag k="name" v="Schlittweg"/>
  </way>
  <way id="4136529" version="2" timestamp="2008-07-19T14:33:20Z" uid="4667" user="MapZ" changeset="539737">
    <nd ref="20972240"/>
    <nd ref="23041105"/>
    <tag k="created_by" v="JOSM"/>
    <tag k="highway" v="residential"/>
    <tag k="maxspeed" v="30"/>
    <tag k="name" v="Kirschbaumweg"/>
    <tag k="postal_code" v="69469"/>
  </way>
  <way id="4136529" version="3" timestamp="2008-07-19T14:44:45Z" uid="4667" user="MapZ" changeset="539737">
    <nd ref="20972240"/>
    <nd ref="23041105"/>
    <tag k="created_by" v="JOSM"/>
    <tag k="highway" v="residential"/>
    <tag k="maxspeed" v="30"/>
    <tag k="name" v="Kirschbaumweg"/>
    <tag k="postal_code" v="69493"/>
  </way>
  <way id="4136529" version="4" timestamp="2011-10-23T15:22:50Z" uid="475266" user="Lobelt_2" changeset="9634216">
    <nd ref="20972240"/>
    <nd ref="23041105"/>
    <tag k="highway" v="residential"/>
    <tag k="maxspeed" v="30"/>
    <tag k="name" v="Kirschbaumweg"/>
    <tag k="postal_code" v="69493"/>
  </way>
  <way id="4136530" version="2" timestamp="2008-07-19T14:33:19Z" uid="4667" user="MapZ" changeset="539737">
    <nd ref="23041118"/>
    <nd ref="23041098"/>
    <nd ref="23041102"/>
    <tag k="created_by" v="JOSM"/>
    <tag k="highway" v="residential"/>
    <tag k="maxspeed" v="30"/>
    <tag k="name" v="Kastanienweg"/>
    <tag k="postal_code" v="69469"/>
  </way>
  <way id="4136530" version="3" timestamp="2008-07-19T14:44:45Z" uid="4667" user="MapZ" changeset="539737">
    <nd ref="23041118"/>
    <nd ref="23041098"/>
    <nd ref="23041102"/>
    <tag k="created_by" v="JOSM"/>
    <tag k="highway" v="residential"/>
    <tag k="maxspeed" v="30"/>
    <tag k="name" v="Kastanienweg"/>
    <tag k="postal_code" v="69493"/>
  </way>
  <way id="4136530" version="4" timestamp="2011-10-23T15:24:27Z" uid="475266" user="Lobelt_2" changeset="9634216">
    <nd ref="23041118"/>
    <nd ref="23041098"/>
    <nd ref="23041102"/>
    <tag k="highway" v="residential"/>
    <tag k="maxspeed" v="30"/>
    <tag k="name" v="Kastanienweg"/>
    <tag k="postal_code" v="69493"/>
  </way>
  <way id="4136532" version="2" timestamp="2008-07-19T14:33:21Z" uid="4667" user="MapZ" changeset="539737">
    <nd ref="22359001"/>
    <nd ref="23041098"/>
    <nd ref="23041114"/>
    <nd ref="23041178"/>
    <nd ref="23041190"/>
    <nd ref="23041244"/>
    <nd ref="23041277"/>
    <nd ref="23041296"/>
    <nd ref="23041306"/>
    <nd ref="23041321"/>
    <nd ref="23041347"/>
    <nd ref="23041373"/>
    <nd ref="23041453"/>
    <tag k="created_by" v="JOSM"/>
    <tag k="highway" v="residential"/>
    <tag k="maxspeed" v="30"/>
    <tag k="name" v="Platanenstraße"/>
    <tag k="postal_code" v="69469"/>
  </way>
  <way id="4136532" version="3" timestamp="2008-07-19T14:44:47Z" uid="4667" user="MapZ" changeset="539737">
    <nd ref="22359001"/>
    <nd ref="23041098"/>
    <nd ref="23041114"/>
    <nd ref="23041178"/>
    <nd ref="23041190"/>
    <nd ref="23041244"/>
    <nd ref="23041277"/>
    <nd ref="23041296"/>
    <nd ref="23041306"/>
    <nd ref="23041321"/>
    <nd ref="23041347"/>
    <nd ref="23041373"/>
    <nd ref="23041453"/>
    <tag k="created_by" v="JOSM"/>
    <tag k="highway" v="residential"/>
    <tag k="maxspeed" v="30"/>
    <tag k="name" v="Platanenstraße"/>
    <tag k="postal_code" v="69493"/>
  </way>
  <way id="4136532" version="4" timestamp="2011-10-23T15:23:37Z" uid="475266" user="Lobelt_2" changeset="9634216">
    <nd ref="22359001"/>
    <nd ref="23041098"/>
    <nd ref="23041114"/>
    <nd ref="23041178"/>
    <nd ref="23041190"/>
    <nd ref="23041244"/>
    <nd ref="23041277"/>
    <nd ref="23041296"/>
    <nd ref="23041306"/>
    <nd ref="23041321"/>
    <nd ref="23041347"/>
    <nd ref="23041373"/>
    <nd ref="23041453"/>
    <tag k="highway" v="residential"/>
    <tag k="maxspeed" v="30"/>
    <tag k="name" v="Platanenstraße"/>
    <tag k="postal_code" v="69493"/>
  </way>
  <way id="4136532" version="5" timestamp="2011-10-27T19:52:06Z" uid="475266" user="Lobelt_2" changeset="9671489">
    <nd ref="22359001"/>
    <nd ref="23041098"/>
    <nd ref="23041114"/>
    <nd ref="23041178"/>
    <nd ref="23041190"/>
    <nd ref="23041244"/>
    <nd ref="23041277"/>
    <nd ref="23041296"/>
    <nd ref="23041306"/>
    <nd ref="23041321"/>
    <nd ref="23041347"/>
    <nd ref="1482683679"/>
    <nd ref="23041373"/>
    <nd ref="23041453"/>
    <tag k="highway" v="residential"/>
    <tag k="maxspeed" v="30"/>
    <tag k="name" v="Platanenstraße"/>
    <tag k="postal_code" v="69493"/>
  </way>
  <way id="4136533" version="2" timestamp="2008-07-19T14:33:21Z" uid="4667" user="MapZ" changeset="539737">
    <nd ref="22358992"/>
    <nd ref="23041118"/>
    <nd ref="23041123"/>
    <nd ref="23041139"/>
    <nd ref="23041154"/>
    <tag k="created_by" v="JOSM"/>
    <tag k="highway" v="residential"/>
    <tag k="maxspeed" v="30"/>
    <tag k="name" v="Kapellenweg"/>
    <tag k="postal_code" v="69469"/>
  </way>
  <way id="4136533" version="3" timestamp="2008-07-19T14:44:46Z" uid="4667" user="MapZ" changeset="539737">
    <nd ref="22358992"/>
    <nd ref="23041118"/>
    <nd ref="23041123"/>
    <nd ref="23041139"/>
    <nd ref="23041154"/>
    <tag k="created_by" v="JOSM"/>
    <tag k="highway" v="residential"/>
    <tag k="maxspeed" v="30"/>
    <tag k="name" v="Kapellenweg"/>
    <tag k="postal_code" v="69493"/>
  </way>
  <way id="4136533" version="4" timestamp="2010-03-03T00:33:51Z" uid="9581" user="Lobelt" changeset="4021691">
    <nd ref="22358992"/>
    <nd ref="23041118"/>
    <nd ref="659621509"/>
    <nd ref="23041123"/>
    <nd ref="23041139"/>
    <nd ref="23041154"/>
    <tag k="highway" v="residential"/>
    <tag k="maxspeed" v="30"/>
    <tag k="name" v="Kapellenweg"/>
    <tag k="postal_code" v="69493"/>
  </way>
  <way id="4136534" version="2" timestamp="2008-07-19T14:33:20Z" uid="4667" user="MapZ" changeset="539737">
    <nd ref="23041123"/>
    <nd ref="23041114"/>
    <nd ref="23041110"/>
    <nd ref="23041105"/>
    <nd ref="23041351"/>
    <tag k="created_by" v="JOSM"/>
    <tag k="highway" v="residential"/>
    <tag k="maxspeed" v="30"/>
    <tag k="name" v="Im Hefen"/>
    <tag k="postal_code" v="69469"/>
  </way>
  <way id="4136534" version="3" timestamp="2008-07-19T14:44:46Z" uid="4667" user="MapZ" changeset="539737">
    <nd ref="23041123"/>
    <nd ref="23041114"/>
    <nd ref="23041110"/>
    <nd ref="23041105"/>
    <nd ref="23041351"/>
    <tag k="created_by" v="JOSM"/>
    <tag k="highway" v="residential"/>
    <tag k="maxspeed" v="30"/>
    <tag k="name" v="Im Hefen"/>
    <tag k="postal_code" v="69493"/>
  </way>
  <way id="4136534" version="4" timestamp="2011-10-23T15:23:53Z" uid="475266" user="Lobelt_2" changeset="9634216">
    <nd ref="23041123"/>
    <nd ref="23041114"/>
    <nd ref="23041110"/>
    <nd ref="23041105"/>
    <nd ref="23041351"/>
    <tag k="highway" v="residential"/>
    <tag k="maxspeed" v="30"/>
    <tag k="name" v="Im Hefen"/>
    <tag k="postal_code" v="69493"/>
  </way>
  <way id="4136535" version="2" timestamp="2008-07-19T14:33:20Z" uid="4667" user="MapZ" changeset="539737">
    <nd ref="23041139"/>
    <nd ref="23041178"/>
    <tag k="created_by" v="JOSM"/>
    <tag k="highway" v="residential"/>
    <tag k="maxspeed" v="30"/>
    <tag k="name" v="Brombeerweg"/>
    <tag k="postal_code" v="69469"/>
  </way>
  <way id="4136535" version="3" timestamp="2008-07-19T14:44:45Z" uid="4667" user="MapZ" changeset="539737">
    <nd ref="23041139"/>
    <nd ref="23041178"/>
    <tag k="created_by" v="JOSM"/>
    <tag k="highway" v="residential"/>
    <tag k="maxspeed" v="30"/>
    <tag k="name" v="Brombeerweg"/>
    <tag k="postal_code" v="69493"/>
  </way>
  <way id="4136535" version="4" timestamp="2011-10-23T15:24:42Z" uid="475266" user="Lobelt_2" changeset="9634216">
    <nd ref="23041139"/>
    <nd ref="23041178"/>
    <tag k="highway" v="residential"/>
    <tag k="maxspeed" v="30"/>
    <tag k="name" v="Brombeerweg"/>
    <tag k="postal_code" v="69493"/>
  </way>
  <way id="4136536" version="2" timestamp="2008-07-19T14:33:22Z" uid="4667" user="MapZ" changeset="539737">
    <nd ref="23041190"/>
    <nd ref="23041213"/>
    <tag k="created_by" v="JOSM"/>
    <tag k="highway" v="residential"/>
    <tag k="maxspeed" v="30"/>
    <tag k="name" v="Platanenstraße"/>
    <tag k="postal_code" v="69469"/>
  </way>
  <way id="4136536" version="3" timestamp="2008-07-19T14:44:48Z" uid="4667" user="MapZ" changeset="539737">
    <nd ref="23041190"/>
    <nd ref="23041213"/>
    <tag k="created_by" v="JOSM"/>
    <tag k="highway" v="residential"/>
    <tag k="maxspeed" v="30"/>
    <tag k="name" v="Platanenstraße"/>
    <tag k="postal_code" v="69493"/>
  </way>
  <way id="4136536" version="4" timestamp="2011-10-23T15:22:46Z" uid="475266" user="Lobelt_2" changeset="9634216">
    <nd ref="23041190"/>
    <nd ref="23041213"/>
    <tag k="highway" v="residential"/>
    <tag k="maxspeed" v="30"/>
    <tag k="name" v="Platanenstraße"/>
    <tag k="postal_code" v="69493"/>
  </way>
  <way id="4136537" version="2" timestamp="2008-07-19T14:33:22Z" uid="4667" user="MapZ" changeset="539737">
    <nd ref="23041237"/>
    <nd ref="23041213"/>
    <nd ref="23041240"/>
    <tag k="created_by" v="JOSM"/>
    <tag k="highway" v="residential"/>
    <tag k="maxspeed" v="30"/>
    <tag k="name" v="Platanenstraße"/>
    <tag k="postal_code" v="69469"/>
  </way>
  <way id="4136537" version="3" timestamp="2008-07-19T14:44:47Z" uid="4667" user="MapZ" changeset="539737">
    <nd ref="23041237"/>
    <nd ref="23041213"/>
    <nd ref="23041240"/>
    <tag k="created_by" v="JOSM"/>
    <tag k="highway" v="residential"/>
    <tag k="maxspeed" v="30"/>
    <tag k="name" v="Platanenstraße"/>
    <tag k="postal_code" v="69493"/>
  </way>
  <way id="4136537" version="4" timestamp="2011-10-23T15:23:50Z" uid="475266" user="Lobelt_2" changeset="9634216">
    <nd ref="23041237"/>
    <nd ref="23041213"/>
    <nd ref="23041240"/>
    <tag k="highway" v="residential"/>
    <tag k="maxspeed" v="30"/>
    <tag k="name" v="Platanenstraße"/>
    <tag k="postal_code" v="69493"/>
  </way>
  <way id="4136538" version="2" timestamp="2008-07-19T14:33:22Z" uid="4667" user="MapZ" changeset="539737">
    <nd ref="23041296"/>
    <nd ref="23041300"/>
    <tag k="created_by" v="JOSM"/>
    <tag k="highway" v="residential"/>
    <tag k="maxspeed" v="30"/>
    <tag k="name" v="Platanenstraße"/>
    <tag k="postal_code" v="69469"/>
  </way>
  <way id="4136538" version="3" timestamp="2008-07-19T14:44:47Z" uid="4667" user="MapZ" changeset="539737">
    <nd ref="23041296"/>
    <nd ref="23041300"/>
    <tag k="created_by" v="JOSM"/>
    <tag k="highway" v="residential"/>
    <tag k="maxspeed" v="30"/>
    <tag k="name" v="Platanenstraße"/>
    <tag k="postal_code" v="69493"/>
  </way>
  <way id="4136538" version="4" timestamp="2011-10-23T15:23:16Z" uid="475266" user="Lobelt_2" changeset="9634216">
    <nd ref="23041296"/>
    <nd ref="23041300"/>
    <tag k="highway" v="residential"/>
    <tag k="maxspeed" v="30"/>
    <tag k="name" v="Platanenstraße"/>
    <tag k="postal_code" v="69493"/>
  </way>
  <way id="4136539" version="2" timestamp="2008-07-19T14:33:21Z" uid="4667" user="MapZ" changeset="539737">
    <nd ref="23041347"/>
    <nd ref="23041336"/>
    <nd ref="23041328"/>
    <tag k="created_by" v="JOSM"/>
    <tag k="highway" v="residential"/>
    <tag k="maxspeed" v="30"/>
    <tag k="name" v="Platanenstraße"/>
    <tag k="postal_code" v="69469"/>
  </way>
  <way id="4136539" version="3" timestamp="2008-07-19T14:44:47Z" uid="4667" user="MapZ" changeset="539737">
    <nd ref="23041347"/>
    <nd ref="23041336"/>
    <nd ref="23041328"/>
    <tag k="created_by" v="JOSM"/>
    <tag k="highway" v="residential"/>
    <tag k="maxspeed" v="30"/>
    <tag k="name" v="Platanenstraße"/>
    <tag k="postal_code" v="69493"/>
  </way>
  <way id="4136539" version="4" timestamp="2011-10-23T15:24:06Z" uid="475266" user="Lobelt_2" changeset="9634216">
    <nd ref="23041347"/>
    <nd ref="23041336"/>
    <nd ref="23041328"/>
    <tag k="highway" v="residential"/>
    <tag k="maxspeed" v="30"/>
    <tag k="name" v="Platanenstraße"/>
    <tag k="postal_code" v="69493"/>
  </way>
  <way id="4136540" version="2" timestamp="2008-07-19T14:33:23Z" uid="4667" user="MapZ" changeset="539737">
    <nd ref="23041336"/>
    <nd ref="23041339"/>
    <tag k="created_by" v="JOSM"/>
    <tag k="highway" v="residential"/>
    <tag k="maxspeed" v="30"/>
    <tag k="name" v="Platanenstraße"/>
    <tag k="postal_code" v="69469"/>
  </way>
  <way id="4136540" version="3" timestamp="2008-07-19T14:44:49Z" uid="4667" user="MapZ" changeset="539737">
    <nd ref="23041336"/>
    <nd ref="23041339"/>
    <tag k="created_by" v="JOSM"/>
    <tag k="highway" v="residential"/>
    <tag k="maxspeed" v="30"/>
    <tag k="name" v="Platanenstraße"/>
    <tag k="postal_code" v="69493"/>
  </way>
  <way id="4136540" version="4" timestamp="2011-10-23T15:24:18Z" uid="475266" user="Lobelt_2" changeset="9634216">
    <nd ref="23041336"/>
    <nd ref="23041339"/>
    <tag k="highway" v="residential"/>
    <tag k="maxspeed" v="30"/>
    <tag k="name" v="Platanenstraße"/>
    <tag k="postal_code" v="69493"/>
  </way>
  <way id="4136541" version="2" timestamp="2008-07-19T14:33:23Z" uid="4667" user="MapZ" changeset="539737">
    <nd ref="23041248"/>
    <nd ref="23041244"/>
    <tag k="created_by" v="JOSM"/>
    <tag k="highway" v="residential"/>
    <tag k="maxspeed" v="30"/>
    <tag k="name" v="Akazienweg"/>
    <tag k="postal_code" v="69469"/>
  </way>
  <way id="4136541" version="3" timestamp="2008-07-19T14:44:48Z" uid="4667" user="MapZ" changeset="539737">
    <nd ref="23041248"/>
    <nd ref="23041244"/>
    <tag k="created_by" v="JOSM"/>
    <tag k="highway" v="residential"/>
    <tag k="maxspeed" v="30"/>
    <tag k="name" v="Akazienweg"/>
    <tag k="postal_code" v="69493"/>
  </way>
  <way id="4136541" version="4" timestamp="2011-10-23T15:23:13Z" uid="475266" user="Lobelt_2" changeset="9634216">
    <nd ref="23041248"/>
    <nd ref="23041244"/>
    <tag k="highway" v="residential"/>
    <tag k="maxspeed" v="30"/>
    <tag k="name" v="Akazienweg"/>
    <tag k="postal_code" v="69493"/>
  </way>
  <way id="4136542" version="2" timestamp="2008-07-19T14:33:23Z" uid="4667" user="MapZ" changeset="539737">
    <nd ref="23041261"/>
    <nd ref="23041277"/>
    <tag k="created_by" v="JOSM"/>
    <tag k="highway" v="residential"/>
    <tag k="maxspeed" v="30"/>
    <tag k="name" v="Fliederweg"/>
    <tag k="postal_code" v="69469"/>
  </way>
  <way id="4136542" version="3" timestamp="2008-07-19T14:44:48Z" uid="4667" user="MapZ" changeset="539737">
    <nd ref="23041261"/>
    <nd ref="23041277"/>
    <tag k="created_by" v="JOSM"/>
    <tag k="highway" v="residential"/>
    <tag k="maxspeed" v="30"/>
    <tag k="name" v="Fliederweg"/>
    <tag k="postal_code" v="69493"/>
  </way>
  <way id="4136542" version="4" timestamp="2011-10-23T15:24:38Z" uid="475266" user="Lobelt_2" changeset="9634216">
    <nd ref="23041261"/>
    <nd ref="23041277"/>
    <tag k="highway" v="residential"/>
    <tag k="maxspeed" v="30"/>
    <tag k="name" v="Fliederweg"/>
    <tag k="postal_code" v="69493"/>
  </way>
  <way id="4136543" version="2" timestamp="2008-07-19T14:33:22Z" uid="4667" user="MapZ" changeset="539737">
    <nd ref="23041248"/>
    <nd ref="23041261"/>
    <tag k="created_by" v="JOSM"/>
    <tag k="highway" v="residential"/>
    <tag k="postal_code" v="69469"/>
  </way>
  <way id="4136543" version="3" timestamp="2008-07-19T14:44:48Z" uid="4667" user="MapZ" changeset="539737">
    <nd ref="23041248"/>
    <nd ref="23041261"/>
    <tag k="created_by" v="JOSM"/>
    <tag k="highway" v="residential"/>
    <tag k="postal_code" v="69493"/>
  </way>
  <way id="4136543" version="4" timestamp="2011-10-23T15:23:32Z" uid="475266" user="Lobelt_2" changeset="9634216">
    <nd ref="23041248"/>
    <nd ref="23041261"/>
    <tag k="highway" v="residential"/>
    <tag k="postal_code" v="69493"/>
  </way>
  <way id="4136545" version="2" timestamp="2008-07-19T14:33:33Z" uid="4667" user="MapZ" changeset="539737">
    <nd ref="23041312"/>
    <nd ref="23041306"/>
    <tag k="created_by" v="JOSM"/>
    <tag k="highway" v="residential"/>
    <tag k="maxspeed" v="30"/>
    <tag k="name" v="Schlehdornweg"/>
    <tag k="postal_code" v="69469"/>
  </way>
  <way id="4136545" version="3" timestamp="2008-07-19T14:44:58Z" uid="4667" user="MapZ" changeset="539737">
    <nd ref="23041312"/>
    <nd ref="23041306"/>
    <tag k="created_by" v="JOSM"/>
    <tag k="highway" v="residential"/>
    <tag k="maxspeed" v="30"/>
    <tag k="name" v="Schlehdornweg"/>
    <tag k="postal_code" v="69493"/>
  </way>
  <way id="4136545" version="4" timestamp="2011-10-23T15:23:42Z" uid="475266" user="Lobelt_2" changeset="9634216">
    <nd ref="23041312"/>
    <nd ref="23041306"/>
    <tag k="highway" v="residential"/>
    <tag k="maxspeed" v="30"/>
    <tag k="name" v="Schlehdornweg"/>
    <tag k="postal_code" v="69493"/>
  </way>
  <way id="4136546" version="2" timestamp="2008-07-19T14:33:33Z" uid="4667" user="MapZ" changeset="539737">
    <nd ref="23041315"/>
    <nd ref="23041321"/>
    <tag k="created_by" v="JOSM"/>
    <tag k="highway" v="residential"/>
    <tag k="maxspeed" v="30"/>
    <tag k="name" v="Holunderweg"/>
    <tag k="postal_code" v="69469"/>
  </way>
  <way id="4136546" version="3" timestamp="2008-07-19T14:44:58Z" uid="4667" user="MapZ" changeset="539737">
    <nd ref="23041315"/>
    <nd ref="23041321"/>
    <tag k="created_by" v="JOSM"/>
    <tag k="highway" v="residential"/>
    <tag k="maxspeed" v="30"/>
    <tag k="name" v="Holunderweg"/>
    <tag k="postal_code" v="69493"/>
  </way>
  <way id="4136546" version="4" timestamp="2011-10-23T15:23:01Z" uid="475266" user="Lobelt_2" changeset="9634216">
    <nd ref="23041315"/>
    <nd ref="23041321"/>
    <tag k="highway" v="residential"/>
    <tag k="maxspeed" v="30"/>
    <tag k="name" v="Holunderweg"/>
    <tag k="postal_code" v="69493"/>
  </way>
  <way id="4136547" version="2" timestamp="2008-07-19T14:33:33Z" uid="4667" user="MapZ" changeset="539737">
    <nd ref="23041312"/>
    <nd ref="23041315"/>
    <tag k="created_by" v="JOSM"/>
    <tag k="highway" v="residential"/>
    <tag k="maxspeed" v="30"/>
    <tag k="postal_code" v="69469"/>
  </way>
  <way id="4136547" version="3" timestamp="2008-07-19T14:44:58Z" uid="4667" user="MapZ" changeset="539737">
    <nd ref="23041312"/>
    <nd ref="23041315"/>
    <tag k="created_by" v="JOSM"/>
    <tag k="highway" v="residential"/>
    <tag k="maxspeed" v="30"/>
    <tag k="postal_code" v="69493"/>
  </way>
  <way id="4136547" version="4" timestamp="2011-10-23T15:24:00Z" uid="475266" user="Lobelt_2" changeset="9634216">
    <nd ref="23041312"/>
    <nd ref="23041315"/>
    <tag k="highway" v="residential"/>
    <tag k="maxspeed" v="30"/>
    <tag k="postal_code" v="69493"/>
  </way>
  <way id="4136548" version="2" timestamp="2008-07-19T14:33:34Z" uid="4667" user="MapZ" changeset="539737">
    <nd ref="23057216"/>
    <nd ref="23041369"/>
    <tag k="created_by" v="JOSM"/>
    <tag k="highway" v="residential"/>
    <tag k="maxspeed" v="30"/>
    <tag k="name" v="Am Schloßgarten"/>
    <tag k="postal_code" v="69469"/>
  </way>
  <way id="4136548" version="3" timestamp="2008-07-19T14:44:59Z" uid="4667" user="MapZ" changeset="539737">
    <nd ref="23057216"/>
    <nd ref="23041369"/>
    <tag k="created_by" v="JOSM"/>
    <tag k="highway" v="residential"/>
    <tag k="maxspeed" v="30"/>
    <tag k="name" v="Am Schloßgarten"/>
    <tag k="postal_code" v="69493"/>
  </way>
  <way id="4136548" version="4" timestamp="2011-10-23T15:24:11Z" uid="475266" user="Lobelt_2" changeset="9634216">
    <nd ref="23057216"/>
    <nd ref="23041369"/>
    <tag k="highway" v="residential"/>
    <tag k="maxspeed" v="30"/>
    <tag k="name" v="Am Schloßgarten"/>
    <tag k="postal_code" v="69493"/>
  </way>
  <way id="4136549" version="3" timestamp="2008-07-19T14:33:34Z" uid="4667" user="MapZ" changeset="539737">
    <nd ref="252648642"/>
    <nd ref="23041390"/>
    <nd ref="23041379"/>
    <nd ref="23041399"/>
    <tag k="created_by" v="JOSM"/>
    <tag k="highway" v="residential"/>
    <tag k="maxspeed" v="30"/>
    <tag k="name" v="Am Schloßgarten"/>
    <tag k="postal_code" v="69469"/>
  </way>
  <way id="4136549" version="4" timestamp="2008-07-19T14:44:59Z" uid="4667" user="MapZ" changeset="539737">
    <nd ref="252648642"/>
    <nd ref="23041390"/>
    <nd ref="23041379"/>
    <nd ref="23041399"/>
    <tag k="created_by" v="JOSM"/>
    <tag k="highway" v="residential"/>
    <tag k="maxspeed" v="30"/>
    <tag k="name" v="Am Schloßgarten"/>
    <tag k="postal_code" v="69493"/>
  </way>
  <way id="4136549" version="5" timestamp="2011-10-23T15:22:54Z" uid="475266" user="Lobelt_2" changeset="9634216">
    <nd ref="252648642"/>
    <nd ref="23041390"/>
    <nd ref="23041379"/>
    <nd ref="23041399"/>
    <tag k="highway" v="residential"/>
    <tag k="maxspeed" v="30"/>
    <tag k="name" v="Am Schloßgarten"/>
    <tag k="postal_code" v="69493"/>
  </way>
  <way id="4136549" version="6" timestamp="2012-01-26T11:13:31Z" uid="442210" user="dwausr" changeset="10501965"/>
  <way id="4136549" version="7" timestamp="2012-03-28T07:17:35Z" uid="442210" user="dwausr" changeset="11123485">
    <nd ref="252648642"/>
    <nd ref="23041390"/>
    <nd ref="23041379"/>
    <nd ref="23041399"/>
    <tag k="highway" v="residential"/>
    <tag k="maxspeed" v="30"/>
    <tag k="name" v="Am Schloßgarten"/>
    <tag k="postal_code" v="69493"/>
  </way>
  <way id="4136550" version="2" timestamp="2008-07-19T14:33:34Z" uid="4667" user="MapZ" changeset="539737">
    <nd ref="23041399"/>
    <nd ref="23041369"/>
    <nd ref="23041373"/>
    <tag k="created_by" v="JOSM"/>
    <tag k="highway" v="residential"/>
    <tag k="name" v="Unterer Häuselbergweg"/>
    <tag k="postal_code" v="69469"/>
  </way>
  <way id="4136550" version="3" timestamp="2008-07-19T14:44:59Z" uid="4667" user="MapZ" changeset="539737">
    <nd ref="23041399"/>
    <nd ref="23041369"/>
    <nd ref="23041373"/>
    <tag k="created_by" v="JOSM"/>
    <tag k="highway" v="residential"/>
    <tag k="name" v="Unterer Häuselbergweg"/>
    <tag k="postal_code" v="69493"/>
  </way>
  <way id="4136550" version="4" timestamp="2010-03-03T00:33:51Z" uid="9581" user="Lobelt" changeset="4021691">
    <nd ref="23041399"/>
    <nd ref="659621512"/>
    <nd ref="23041369"/>
    <nd ref="23041373"/>
    <tag k="highway" v="residential"/>
    <tag k="name" v="Unterer Häuselbergweg"/>
    <tag k="postal_code" v="69493"/>
  </way>
  <way id="4136550" version="5" timestamp="2012-01-26T11:14:08Z" uid="442210" user="dwausr" changeset="10501965"/>
  <way id="4136550" version="6" timestamp="2012-03-28T08:08:35Z" uid="442210" user="dwausr" changeset="11123485">
    <nd ref="23041399"/>
    <nd ref="659621512"/>
    <nd ref="23041369"/>
    <nd ref="23041373"/>
    <tag k="highway" v="residential"/>
    <tag k="name" v="Unterer Häuselbergweg"/>
    <tag k="postal_code" v="69493"/>
  </way>
  <way id="4136551" version="4" timestamp="2008-07-19T14:33:35Z" uid="4667" user="MapZ" changeset="539737">
    <nd ref="23041506"/>
    <nd ref="23041536"/>
    <nd ref="23041526"/>
    <nd ref="23041520"/>
    <nd ref="252653029"/>
    <nd ref="23041540"/>
    <nd ref="23041544"/>
    <nd ref="23041547"/>
    <nd ref="23041402"/>
    <tag k="created_by" v="JOSM"/>
    <tag k="highway" v="residential"/>
    <tag k="maxspeed" v="30"/>
    <tag k="name" v="Am Lindenbrunnen"/>
    <tag k="postal_code" v="69469"/>
  </way>
  <way id="4136551" version="5" timestamp="2008-07-19T14:45:00Z" uid="4667" user="MapZ" changeset="539737">
    <nd ref="23041506"/>
    <nd ref="23041536"/>
    <nd ref="23041526"/>
    <nd ref="23041520"/>
    <nd ref="252653029"/>
    <nd ref="23041540"/>
    <nd ref="23041544"/>
    <nd ref="23041547"/>
    <nd ref="23041402"/>
    <tag k="created_by" v="JOSM"/>
    <tag k="highway" v="residential"/>
    <tag k="maxspeed" v="30"/>
    <tag k="name" v="Am Lindenbrunnen"/>
    <tag k="postal_code" v="69493"/>
  </way>
  <way id="4136551" version="6" timestamp="2009-05-03T14:22:25Z" uid="4667" user="MapZ" changeset="1061981">
    <nd ref="23041506"/>
    <nd ref="23041536"/>
    <nd ref="23041526"/>
    <nd ref="23041520"/>
    <nd ref="252653029"/>
    <nd ref="389682371"/>
    <nd ref="23041540"/>
    <nd ref="389682372"/>
    <nd ref="23041544"/>
    <nd ref="23041547"/>
    <nd ref="23041402"/>
    <tag k="created_by" v="JOSM"/>
    <tag k="highway" v="residential"/>
    <tag k="maxspeed" v="30"/>
    <tag k="name" v="Am Lindenbrunnen"/>
    <tag k="postal_code" v="69493"/>
  </way>
  <way id="4136551" version="7" timestamp="2009-10-10T13:38:41Z" uid="7562" user="LosHawlos" changeset="2803902">
    <nd ref="23041506"/>
    <nd ref="23041536"/>
    <nd ref="23041526"/>
    <nd ref="23041520"/>
    <tag k="highway" v="residential"/>
    <tag k="maxspeed" v="30"/>
    <tag k="name" v="Am Lindenbrunnen"/>
    <tag k="postal_code" v="69493"/>
  </way>
  <way id="4136551" version="8" timestamp="2010-10-23T17:34:08Z" uid="9581" user="Lobelt" changeset="6148952">
    <nd ref="23041506"/>
    <nd ref="23041536"/>
    <nd ref="961873832"/>
    <nd ref="23041526"/>
    <nd ref="23041520"/>
    <tag k="highway" v="residential"/>
    <tag k="maxspeed" v="30"/>
    <tag k="name" v="Am Lindenbrunnen"/>
    <tag k="postal_code" v="69493"/>
  </way>
  <way id="4136552" version="2" timestamp="2008-07-19T14:33:35Z" uid="4667" user="MapZ" changeset="539737">
    <nd ref="23041406"/>
    <nd ref="23041415"/>
    <nd ref="23041427"/>
    <tag k="created_by" v="JOSM"/>
    <tag k="highway" v="residential"/>
    <tag k="maxspeed" v="30"/>
    <tag k="name" v="Oberer Häuselbergweg"/>
    <tag k="postal_code" v="69469"/>
  </way>
  <way id="4136552" version="3" timestamp="2008-07-19T14:45:00Z" uid="4667" user="MapZ" changeset="539737">
    <nd ref="23041406"/>
    <nd ref="23041415"/>
    <nd ref="23041427"/>
    <tag k="created_by" v="JOSM"/>
    <tag k="highway" v="residential"/>
    <tag k="maxspeed" v="30"/>
    <tag k="name" v="Oberer Häuselbergweg"/>
    <tag k="postal_code" v="69493"/>
  </way>
  <way id="4136552" version="4" timestamp="2009-05-03T14:22:25Z" uid="4667" user="MapZ" changeset="1061981">
    <nd ref="23041406"/>
    <nd ref="23041415"/>
    <nd ref="23041427"/>
    <tag k="created_by" v="JOSM"/>
    <tag k="highway" v="residential"/>
    <tag k="maxspeed" v="30"/>
    <tag k="name" v="Oberer Häuselbergweg"/>
    <tag k="postal_code" v="69493"/>
  </way>
  <way id="4136552" version="5" timestamp="2011-10-23T15:23:39Z" uid="475266" user="Lobelt_2" changeset="9634216">
    <nd ref="23041406"/>
    <nd ref="23041415"/>
    <nd ref="23041427"/>
    <tag k="highway" v="residential"/>
    <tag k="maxspeed" v="30"/>
    <tag k="name" v="Oberer Häuselbergweg"/>
    <tag k="postal_code" v="69493"/>
  </way>
  <way id="4136553" version="2" timestamp="2008-07-19T14:33:36Z" uid="4667" user="MapZ" changeset="539737">
    <nd ref="23041422"/>
    <nd ref="23041418"/>
    <nd ref="23041415"/>
    <tag k="created_by" v="JOSM"/>
    <tag k="highway" v="residential"/>
    <tag k="maxspeed" v="30"/>
    <tag k="name" v="Oberer Häuselbergweg"/>
    <tag k="postal_code" v="69469"/>
  </way>
  <way id="4136553" version="3" timestamp="2008-07-19T14:45:01Z" uid="4667" user="MapZ" changeset="539737">
    <nd ref="23041422"/>
    <nd ref="23041418"/>
    <nd ref="23041415"/>
    <tag k="created_by" v="JOSM"/>
    <tag k="highway" v="residential"/>
    <tag k="maxspeed" v="30"/>
    <tag k="name" v="Oberer Häuselbergweg"/>
    <tag k="postal_code" v="69493"/>
  </way>
  <way id="4136553" version="4" timestamp="2011-10-23T15:24:24Z" uid="475266" user="Lobelt_2" changeset="9634216">
    <nd ref="23041422"/>
    <nd ref="23041418"/>
    <nd ref="23041415"/>
    <tag k="highway" v="residential"/>
    <tag k="maxspeed" v="30"/>
    <tag k="name" v="Oberer Häuselbergweg"/>
    <tag k="postal_code" v="69493"/>
  </way>
  <way id="4136000" version="5" timestamp="2012-07-17T02:16:21Z" uid="722137" user="OSMF Redaction Account" changeset="12255249">
    <nd ref="23040843"/>
    <nd ref="23040854"/>
    <tag k="highway" v="residential"/>
    <tag k="maxspeed" v="30"/>
    <tag k="name" v="Eichendorffstraße"/>
  </way>
  <way id="4136001" version="6" timestamp="2012-04-27T22:37:20Z" uid="328555" user="peb12345" changeset="11436941">
    <nd ref="23040901"/>
    <nd ref="1733584440"/>
    <nd ref="1733584442"/>
    <nd ref="1733584445"/>
    <tag k="highway" v="residential"/>
    <tag k="maxspeed" v="30"/>
    <tag k="name" v="Hermann-Löns-Straße"/>
    <tag k="postal_code" v="69493"/>
  </way>
  <way id="4136001" version="7" timestamp="2012-07-17T02:16:22Z" uid="722137" user="OSMF Redaction Account" changeset="12255249">
    <nd ref="23040901"/>
    <nd ref="1733584440"/>
    <nd ref="1733584442"/>
    <nd ref="1733584445"/>
    <tag k="highway" v="residential"/>
    <tag k="maxspeed" v="30"/>
    <tag k="name" v="Hermann-Löns-Straße"/>
  </way>
  <way id="4136002" version="5" timestamp="2012-04-27T22:37:20Z" uid="328555" user="peb12345" changeset="11436941">
    <nd ref="23040962"/>
    <nd ref="1733584449"/>
    <nd ref="1733584451"/>
    <nd ref="1733584447"/>
    <tag k="highway" v="residential"/>
    <tag k="maxspeed" v="30"/>
    <tag k="name" v="Adalbert-Stifter-Ring"/>
    <tag k="postal_code" v="69493"/>
  </way>
  <way id="4136002" version="6" timestamp="2012-07-17T02:16:24Z" uid="722137" user="OSMF Redaction Account" changeset="12255249">
    <nd ref="23040962"/>
    <nd ref="1733584449"/>
    <nd ref="1733584451"/>
    <nd ref="1733584447"/>
    <tag k="highway" v="residential"/>
    <tag k="maxspeed" v="30"/>
    <tag k="name" v="Adalbert-Stifter-Ring"/>
  </way>
  <way id="4136003" version="7" timestamp="2012-04-06T06:29:49Z" uid="31231" user="Andre68" changeset="11197000"/>
  <way id="4136004" version="7" timestamp="2012-04-06T06:29:47Z" uid="31231" user="Andre68" changeset="11197000"/>
  <way id="4136005" version="7" timestamp="2012-04-06T07:19:14Z" uid="31231" user="Andre68" changeset="11197000"/>
  <way id="4136511" version="8" timestamp="2012-04-06T06:38:43Z" uid="31231" user="Andre68" changeset="11197000"/>
  <way id="4136512" version="8" timestamp="2012-04-06T07:19:14Z" uid="31231" user="Andre68" changeset="11197000"/>
  <way id="4136513" version="7" timestamp="2012-04-06T07:19:14Z" uid="31231" user="Andre68" changeset="11197000"/>
  <way id="4136514" version="6" timestamp="2012-07-17T02:16:19Z" uid="722137" user="OSMF Redaction Account" changeset="12255249">
    <nd ref="23041585"/>
    <nd ref="23041582"/>
    <tag k="highway" v="residential"/>
    <tag k="maxspeed" v="30"/>
    <tag k="name" v="Mittelgasse"/>
  </way>
  <way id="4136515" version="5" timestamp="2012-07-17T05:25:37Z" uid="722137" user="OSMF Redaction Account" changeset="12257655">
    <nd ref="23041583"/>
    <nd ref="22358809"/>
    <tag k="highway" v="residential"/>
    <tag k="maxspeed" v="30"/>
    <tag k="name" v="Mittelgasse"/>
  </way>
  <way id="4136516" version="6" timestamp="2012-07-17T02:16:20Z" uid="722137" user="OSMF Redaction Account" changeset="12255249">
    <nd ref="22358832"/>
    <nd ref="252646660"/>
    <tag k="highway" v="residential"/>
    <tag k="maxspeed" v="30"/>
    <tag k="name" v="Dohlweg"/>
  </way>
  <way id="4136517" version="5" timestamp="2012-07-17T02:16:20Z" uid="722137" user="OSMF Redaction Account" changeset="12255249">
    <nd ref="23041580"/>
    <nd ref="23041554"/>
    <tag k="highway" v="residential"/>
    <tag k="maxspeed" v="30"/>
    <tag k="name" v="Schloßgasse"/>
  </way>
  <way id="4136519" version="5" timestamp="2012-07-17T02:16:21Z" uid="722137" user="OSMF Redaction Account" changeset="12255249">
    <nd ref="22358843"/>
    <nd ref="23041562"/>
    <tag k="highway" v="residential"/>
    <tag k="name" v="Im Eck"/>
  </way>
  <way id="4136519" version="6" timestamp="2012-08-31T10:10:15Z" uid="556498" user="tungstentt" changeset="12928888">
    <nd ref="22358843"/>
    <nd ref="23041562"/>
    <tag k="highway" v="residential"/>
    <tag k="maxspeed" v="30"/>
    <tag k="name" v="Im Eck"/>
  </way>
  <way id="4136520" version="5" timestamp="2012-07-17T02:16:21Z" uid="722137" user="OSMF Redaction Account" changeset="12255249">
    <nd ref="22358840"/>
    <nd ref="23041581"/>
    <tag k="highway" v="residential"/>
  </way>
  <way id="4136520" version="6" timestamp="2012-08-31T10:10:21Z" uid="556498" user="tungstentt" changeset="12928888">
    <nd ref="22358840"/>
    <nd ref="23041581"/>
    <tag k="highway" v="service"/>
    <tag k="maxspeed" v="30"/>
    <tag k="service" v="alley"/>
  </way>
  <way id="4136521" version="6" timestamp="2012-04-25T18:14:14Z" uid="328555" user="peb12345" changeset="11417616">
    <nd ref="667400163"/>
    <nd ref="667400165"/>
    <nd ref="23057195"/>
    <nd ref="961873903"/>
    <nd ref="22358809"/>
    <nd ref="1730951187"/>
    <tag k="highway" v="residential"/>
    <tag k="maxspeed" v="30"/>
    <tag k="name" v="Obergasse"/>
    <tag k="postal_code" v="69493"/>
  </way>
  <way id="4136521" version="7" timestamp="2012-07-17T05:24:01Z" uid="722137" user="OSMF Redaction Account" changeset="12257655">
    <nd ref="23057195"/>
    <nd ref="22358809"/>
    <nd ref="1730951187"/>
    <tag k="highway" v="residential"/>
    <tag k="maxspeed" v="30"/>
    <tag k="name" v="Obergasse"/>
  </way>
  <way id="4136522" version="6" timestamp="2012-07-17T05:24:01Z" uid="722137" user="OSMF Redaction Account" changeset="12257655">
    <nd ref="23057163"/>
    <nd ref="23057191"/>
    <nd ref="23057195"/>
    <tag k="name" v="Landwehrhagener Platz"/>
  </way>
  <way id="4136522" version="7" timestamp="2012-08-02T14:57:23Z" uid="42918" user="sco" changeset="12586916">
    <nd ref="23057163"/>
    <nd ref="23057191"/>
    <nd ref="23057195"/>
    <tag k="highway" v="residential"/>
    <tag k="name" v="Landwehrhagener Platz"/>
  </way>
  <way id="4136523" version="10" timestamp="2012-07-17T05:27:43Z" uid="722137" user="OSMF Redaction Account" changeset="12257735"/>
  <way id="4136524" version="5" timestamp="2012-07-17T05:25:35Z" uid="722137" user="OSMF Redaction Account" changeset="12257655">
    <nd ref="23041635"/>
    <nd ref="23041651"/>
    <tag k="highway" v="residential"/>
    <tag k="maxspeed" v="30"/>
    <tag k="name" v="Bergweg"/>
  </way>
  <way id="4136524" version="6" timestamp="2012-08-06T13:46:44Z" uid="6390" user="grenzdebil_bonn" changeset="12633291">
    <nd ref="23041635"/>
    <nd ref="1854300903"/>
    <nd ref="23041651"/>
    <tag k="highway" v="residential"/>
    <tag k="maxspeed" v="30"/>
    <tag k="name" v="Bergweg"/>
  </way>
  <way id="4136525" version="5" timestamp="2012-07-17T05:25:35Z" uid="722137" user="OSMF Redaction Account" changeset="12257655">
    <nd ref="23041651"/>
    <nd ref="23041658"/>
    <nd ref="23041672"/>
    <nd ref="23041689"/>
    <nd ref="23041698"/>
    <tag k="highway" v="residential"/>
    <tag k="maxspeed" v="30"/>
    <tag k="name" v="In der Hühl"/>
  </way>
  <way id="4136526" version="9" timestamp="2012-07-17T05:24:01Z" uid="722137" user="OSMF Redaction Account" changeset="12257655">
    <nd ref="23041651"/>
    <nd ref="1236479272"/>
    <nd ref="23041703"/>
    <nd ref="23041707"/>
    <nd ref="252653944"/>
    <tag k="highway" v="residential"/>
    <tag k="maxspeed" v="30"/>
  </way>
  <way id="4136526" version="10" timestamp="2012-08-31T10:07:08Z" uid="556498" user="tungstentt" changeset="12928888">
    <nd ref="23041651"/>
    <nd ref="1236479272"/>
    <nd ref="23041703"/>
    <nd ref="23041707"/>
    <nd ref="252653944"/>
    <tag k="highway" v="residential"/>
    <tag k="maxspeed" v="30"/>
    <tag k="name" v="Bergweg"/>
  </way>
  <way id="4136527" version="12" timestamp="2012-07-20T13:06:13Z" uid="6390" user="grenzdebil_bonn" changeset="12371441">
    <nd ref="252653944"/>
    <nd ref="23041710"/>
    <nd ref="1236479276"/>
    <nd ref="23041714"/>
    <nd ref="1236479264"/>
    <nd ref="23041717"/>
    <nd ref="1236479262"/>
    <nd ref="23041721"/>
    <nd ref="1236479278"/>
    <nd ref="23041724"/>
    <nd ref="23041728"/>
    <nd ref="1236479258"/>
    <nd ref="23041732"/>
    <nd ref="23041735"/>
    <nd ref="23041739"/>
    <nd ref="23041740"/>
    <nd ref="23041744"/>
    <nd ref="23041748"/>
    <nd ref="23041751"/>
    <nd ref="1236479255"/>
    <nd ref="1236479274"/>
    <nd ref="23041754"/>
    <nd ref="252653947"/>
    <nd ref="252655732"/>
    <nd ref="23041761"/>
    <nd ref="23041764"/>
    <nd ref="1236479280"/>
    <nd ref="23041768"/>
    <nd ref="23041772"/>
    <nd ref="23041776"/>
    <nd ref="23041781"/>
    <nd ref="293164557"/>
    <nd ref="293164561"/>
    <nd ref="293164562"/>
    <nd ref="293164563"/>
    <nd ref="293164558"/>
    <nd ref="23041785"/>
    <nd ref="258850075"/>
    <nd ref="258850077"/>
    <nd ref="258850082"/>
    <nd ref="258850086"/>
    <nd ref="1832020780"/>
    <nd ref="552817798"/>
    <nd ref="258850091"/>
    <nd ref="258850093"/>
    <tag k="highway" v="service"/>
  </way>
  <way id="4136527" version="13" timestamp="2012-08-30T20:10:58Z" uid="6390" user="grenzdebil_bonn" changeset="12921416">
    <nd ref="252653944"/>
    <nd ref="23041710"/>
    <nd ref="1236479276"/>
    <nd ref="23041714"/>
    <nd ref="1236479264"/>
    <nd ref="23041717"/>
    <nd ref="1236479262"/>
    <nd ref="23041721"/>
    <nd ref="1236479278"/>
    <nd ref="23041724"/>
    <nd ref="23041728"/>
    <nd ref="1236479258"/>
    <nd ref="23041732"/>
    <nd ref="23041735"/>
    <nd ref="23041739"/>
    <nd ref="23041740"/>
    <nd ref="23041744"/>
    <nd ref="23041748"/>
    <nd ref="23041751"/>
    <nd ref="1236479255"/>
    <nd ref="1236479274"/>
    <nd ref="23041754"/>
    <nd ref="252653947"/>
    <nd ref="252655732"/>
    <nd ref="23041761"/>
    <nd ref="23041764"/>
    <nd ref="1236479280"/>
    <nd ref="23041768"/>
    <nd ref="23041772"/>
    <nd ref="23041776"/>
    <nd ref="1890513995"/>
    <nd ref="23041781"/>
    <nd ref="293164557"/>
    <nd ref="293164561"/>
    <nd ref="293164562"/>
    <nd ref="293164563"/>
    <nd ref="293164558"/>
    <nd ref="23041785"/>
    <nd ref="258850075"/>
    <nd ref="258850077"/>
    <nd ref="258850082"/>
    <nd ref="258850086"/>
    <nd ref="1832020780"/>
    <nd ref="552817798"/>
    <nd ref="258850091"/>
    <nd ref="258850093"/>
    <tag k="highway" v="service"/>
  </way>
  <way id="4136528" version="11" timestamp="2012-07-17T02:16:28Z" uid="722137" user="OSMF Redaction Account" changeset="12255249">
    <nd ref="252651721"/>
    <nd ref="303596366"/>
    <nd ref="23057203"/>
    <tag k="highway" v="unclassified"/>
    <tag k="name" v="Fesselspfad"/>
  </way>
  <way id="4136529" version="5" timestamp="2012-07-17T02:16:27Z" uid="722137" user="OSMF Redaction Account" changeset="12255249">
    <nd ref="20972240"/>
    <nd ref="23041105"/>
    <tag k="highway" v="residential"/>
    <tag k="maxspeed" v="30"/>
    <tag k="name" v="Kirschbaumweg"/>
  </way>
  <way id="4136530" version="5" timestamp="2012-07-17T02:16:23Z" uid="722137" user="OSMF Redaction Account" changeset="12255249">
    <nd ref="23041118"/>
    <nd ref="23041098"/>
    <nd ref="23041102"/>
    <tag k="highway" v="residential"/>
    <tag k="maxspeed" v="30"/>
    <tag k="name" v="Kastanienweg"/>
  </way>
  <way id="4136532" version="6" timestamp="2012-07-17T02:16:25Z" uid="722137" user="OSMF Redaction Account" changeset="12255249">
    <nd ref="22359001"/>
    <nd ref="23041098"/>
    <nd ref="23041114"/>
    <nd ref="23041178"/>
    <nd ref="23041190"/>
    <nd ref="23041244"/>
    <nd ref="23041277"/>
    <nd ref="23041296"/>
    <nd ref="23041306"/>
    <nd ref="23041321"/>
    <nd ref="23041347"/>
    <nd ref="1482683679"/>
    <nd ref="23041373"/>
    <nd ref="23041453"/>
    <tag k="highway" v="residential"/>
    <tag k="maxspeed" v="30"/>
    <tag k="name" v="Platanenstraße"/>
  </way>
  <way id="4136532" version="7" timestamp="2012-08-31T10:10:19Z" uid="556498" user="tungstentt" changeset="12928888">
    <nd ref="22359001"/>
    <nd ref="23041098"/>
    <nd ref="23041114"/>
    <nd ref="23041178"/>
    <nd ref="23041190"/>
    <nd ref="23041244"/>
    <nd ref="23041277"/>
    <nd ref="23041296"/>
    <nd ref="23041306"/>
    <nd ref="23041321"/>
    <nd ref="23041347"/>
    <nd ref="1482683679"/>
    <nd ref="23041373"/>
    <nd ref="23041453"/>
    <nd ref="23041427"/>
    <tag k="highway" v="residential"/>
    <tag k="maxspeed" v="30"/>
    <tag k="name" v="Platanenstraße"/>
  </way>
  <way id="4136533" version="5" timestamp="2012-07-17T02:16:13Z" uid="722137" user="OSMF Redaction Account" changeset="12255249">
    <nd ref="22358992"/>
    <nd ref="23041118"/>
    <nd ref="23041123"/>
    <nd ref="23041139"/>
    <nd ref="23041154"/>
    <tag k="highway" v="residential"/>
    <tag k="maxspeed" v="30"/>
    <tag k="name" v="Kapellenweg"/>
  </way>
  <way id="4136534" version="5" timestamp="2012-07-17T02:16:23Z" uid="722137" user="OSMF Redaction Account" changeset="12255249">
    <nd ref="23041123"/>
    <nd ref="23041114"/>
    <nd ref="23041110"/>
    <nd ref="23041105"/>
    <nd ref="23041351"/>
    <tag k="highway" v="residential"/>
    <tag k="maxspeed" v="30"/>
    <tag k="name" v="Im Hefen"/>
  </way>
  <way id="4136535" version="5" timestamp="2012-07-17T02:16:23Z" uid="722137" user="OSMF Redaction Account" changeset="12255249">
    <nd ref="23041139"/>
    <nd ref="23041178"/>
    <tag k="highway" v="residential"/>
    <tag k="maxspeed" v="30"/>
    <tag k="name" v="Brombeerweg"/>
  </way>
  <way id="4136536" version="5" timestamp="2012-07-17T02:16:26Z" uid="722137" user="OSMF Redaction Account" changeset="12255249">
    <nd ref="23041190"/>
    <nd ref="23041213"/>
    <tag k="highway" v="residential"/>
    <tag k="maxspeed" v="30"/>
    <tag k="name" v="Platanenstraße"/>
  </way>
  <way id="4136537" version="5" timestamp="2012-07-17T02:16:27Z" uid="722137" user="OSMF Redaction Account" changeset="12255249">
    <nd ref="23041237"/>
    <nd ref="23041213"/>
    <nd ref="23041240"/>
    <tag k="highway" v="residential"/>
    <tag k="maxspeed" v="30"/>
    <tag k="name" v="Platanenstraße"/>
  </way>
  <way id="4136538" version="5" timestamp="2012-07-17T02:16:26Z" uid="722137" user="OSMF Redaction Account" changeset="12255249">
    <nd ref="23041296"/>
    <nd ref="23041300"/>
    <tag k="highway" v="residential"/>
    <tag k="maxspeed" v="30"/>
    <tag k="name" v="Platanenstraße"/>
  </way>
  <way id="4136539" version="5" timestamp="2012-07-17T02:16:26Z" uid="722137" user="OSMF Redaction Account" changeset="12255249">
    <nd ref="23041347"/>
    <nd ref="23041336"/>
    <nd ref="23041328"/>
    <tag k="highway" v="residential"/>
    <tag k="maxspeed" v="30"/>
    <tag k="name" v="Platanenstraße"/>
  </way>
  <way id="4136540" version="5" timestamp="2012-07-17T02:16:26Z" uid="722137" user="OSMF Redaction Account" changeset="12255249">
    <nd ref="23041336"/>
    <nd ref="23041339"/>
    <tag k="highway" v="residential"/>
    <tag k="maxspeed" v="30"/>
    <tag k="name" v="Platanenstraße"/>
  </way>
  <way id="4136541" version="5" timestamp="2012-07-17T02:16:25Z" uid="722137" user="OSMF Redaction Account" changeset="12255249">
    <nd ref="23041248"/>
    <nd ref="23041244"/>
    <tag k="highway" v="residential"/>
    <tag k="maxspeed" v="30"/>
    <tag k="name" v="Akazienweg"/>
  </way>
  <way id="4136542" version="5" timestamp="2012-07-17T02:16:24Z" uid="722137" user="OSMF Redaction Account" changeset="12255249">
    <nd ref="23041261"/>
    <nd ref="23041277"/>
    <tag k="highway" v="residential"/>
    <tag k="maxspeed" v="30"/>
    <tag k="name" v="Fliederweg"/>
  </way>
  <way id="4136542" version="6" timestamp="2012-08-31T10:07:10Z" uid="556498" user="tungstentt" changeset="12928888">
    <nd ref="23041248"/>
    <nd ref="23041261"/>
    <nd ref="23041277"/>
    <tag k="highway" v="residential"/>
    <tag k="maxspeed" v="30"/>
    <tag k="name" v="Fliederweg"/>
  </way>
  <way id="4136543" version="5" timestamp="2012-07-17T02:16:25Z" uid="722137" user="OSMF Redaction Account" changeset="12255249">
    <nd ref="23041248"/>
    <nd ref="23041261"/>
    <tag k="highway" v="residential"/>
  </way>
  <way id="4136543" version="6" timestamp="2012-08-31T10:14:13Z" uid="556498" user="tungstentt" changeset="12928888"/>
  <way id="4136545" version="5" timestamp="2012-07-17T02:16:24Z" uid="722137" user="OSMF Redaction Account" changeset="12255249">
    <nd ref="23041312"/>
    <nd ref="23041306"/>
    <tag k="highway" v="residential"/>
    <tag k="maxspeed" v="30"/>
    <tag k="name" v="Schlehdornweg"/>
  </way>
  <way id="4136546" version="5" timestamp="2012-07-17T02:16:24Z" uid="722137" user="OSMF Redaction Account" changeset="12255249">
    <nd ref="23041315"/>
    <nd ref="23041321"/>
    <tag k="highway" v="residential"/>
    <tag k="maxspeed" v="30"/>
    <tag k="name" v="Holunderweg"/>
  </way>
  <way id="4136546" version="6" timestamp="2012-08-31T10:10:15Z" uid="556498" user="tungstentt" changeset="12928888">
    <nd ref="23041312"/>
    <nd ref="23041315"/>
    <nd ref="23041321"/>
    <tag k="highway" v="residential"/>
    <tag k="maxspeed" v="30"/>
    <tag k="name" v="Holunderweg"/>
  </way>
  <way id="4136547" version="5" timestamp="2012-07-17T02:16:25Z" uid="722137" user="OSMF Redaction Account" changeset="12255249">
    <nd ref="23041312"/>
    <nd ref="23041315"/>
    <tag k="highway" v="residential"/>
    <tag k="maxspeed" v="30"/>
  </way>
  <way id="4136547" version="6" timestamp="2012-08-31T10:14:12Z" uid="556498" user="tungstentt" changeset="12928888"/>
  <way id="4136548" version="5" timestamp="2012-07-17T02:16:24Z" uid="722137" user="OSMF Redaction Account" changeset="12255249">
    <nd ref="23057216"/>
    <nd ref="23041369"/>
    <tag k="highway" v="residential"/>
    <tag k="maxspeed" v="30"/>
    <tag k="name" v="Am Schloßgarten"/>
  </way>
  <way id="4136548" version="6" timestamp="2012-07-20T12:27:43Z" uid="52239" user="ipofanes" changeset="12375950">
    <nd ref="23041315"/>
    <nd ref="23057216"/>
    <nd ref="23041369"/>
    <tag k="highway" v="residential"/>
    <tag k="maxspeed" v="30"/>
    <tag k="name" v="Am Schloßgarten"/>
  </way>
  <way id="4136548" version="7" timestamp="2012-08-31T10:14:12Z" uid="556498" user="tungstentt" changeset="12928888"/>
  <way id="4136549" version="8" timestamp="2012-04-06T06:38:42Z" uid="31231" user="Andre68" changeset="11197000"/>
  <way id="4136550" version="7" timestamp="2012-04-06T06:38:43Z" uid="31231" user="Andre68" changeset="11197000"/>
  <way id="4136551" version="9" timestamp="2012-07-17T02:16:18Z" uid="722137" user="OSMF Redaction Account" changeset="12255249">
    <nd ref="23041506"/>
    <nd ref="23041536"/>
    <nd ref="23041526"/>
    <nd ref="23041520"/>
    <tag k="highway" v="residential"/>
    <tag k="maxspeed" v="30"/>
    <tag k="name" v="Am Lindenbrunnen"/>
  </way>
  <way id="4136551" version="10" timestamp="2012-08-31T10:07:06Z" uid="556498" user="tungstentt" changeset="12928888">
    <nd ref="1891272590"/>
    <nd ref="23041536"/>
    <nd ref="23041526"/>
    <nd ref="23041520"/>
    <tag k="highway" v="residential"/>
    <tag k="maxspeed" v="30"/>
    <tag k="name" v="Am Lindenbrunnen"/>
  </way>
  <way id="4136552" version="6" timestamp="2012-07-17T02:16:22Z" uid="722137" user="OSMF Redaction Account" changeset="12255249">
    <nd ref="23041406"/>
    <nd ref="23041415"/>
    <nd ref="23041427"/>
    <tag k="highway" v="residential"/>
    <tag k="maxspeed" v="30"/>
    <tag k="name" v="Oberer Häuselbergweg"/>
  </way>
  <way id="4136553" version="5" timestamp="2012-07-17T02:16:23Z" uid="722137" user="OSMF Redaction Account" changeset="12255249">
    <nd ref="23041422"/>
    <nd ref="23041418"/>
    <nd ref="23041415"/>
    <tag k="highway" v="residential"/>
    <tag k="maxspeed" v="30"/>
    <tag k="name" v="Oberer Häuselbergweg"/>
  </way>
</osm>
