<?xml version='1.0' encoding='UTF-8'?>
<osm version="0.6" generator="libosmium/2.20.0">
  <way id="41468044" version="3" timestamp="2010-06-29T19:04:34Z" uid="74617" user="JohnSmith" changeset="5108182">
    <nd ref="507348410"/>
    <nd ref="507348426"/>
    <nd ref="507348439"/>
    <nd ref="507348474"/>
    <nd ref="507348483"/>
    <nd ref="507348494"/>
    <nd ref="507348410"/>
    <tag k="fixme" v="sport=football is ambiguous, see http://wiki.osm.org/wiki/Football for more details"/>
    <tag k="leisure" v="sports_centre"/>
    <tag k="sport" v="football"/>
  </way>
  <way id="41468044" version="4" timestamp="2011-11-10T15:39:24Z" uid="163480" user="Eric V" changeset="9789426">
    <nd ref="507348410"/>
    <nd ref="507348426"/>
    <nd ref="507348439"/>
    <nd ref="507348474"/>
    <nd ref="507348483"/>
    <nd ref="507348494"/>
    <nd ref="507348410"/>
    <tag k="leisure" v="pitch"/>
    <tag k="sport" v="soccer"/>
  </way>
  <way id="41468065" version="1" timestamp="2009-09-25T16:18:19Z" uid="33382" user="de_muur" changeset="2622526">
    <nd ref="282279870"/>
    <nd ref="282279871"/>
    <nd ref="282279872"/>
    <nd ref="469127378"/>
    <nd ref="471617573"/>
    <nd ref="253490503"/>
    <nd ref="265593519"/>
    <nd ref="265593516"/>
    <nd ref="471617567"/>
    <nd ref="265593601"/>
    <nd ref="265593561"/>
    <nd ref="507349225"/>
    <tag k="highway" v="tertiary"/>
    <tag k="maxspeed" v="50"/>
    <tag k="name" v="Dorfstraße"/>
    <tag k="ref" v="K 26"/>
    <tag k="surface" v="paved"/>
  </way>
  <way id="41468065" version="2" timestamp="2010-04-21T13:17:29Z" uid="63375" user="Divjo" changeset="4486376">
    <nd ref="282279870"/>
    <nd ref="282279871"/>
    <nd ref="282279872"/>
    <nd ref="700749331"/>
    <nd ref="469127378"/>
    <nd ref="471617573"/>
    <nd ref="700748624"/>
    <nd ref="253490503"/>
    <nd ref="265593519"/>
    <nd ref="265593516"/>
    <nd ref="471617567"/>
    <nd ref="265593601"/>
    <nd ref="265593561"/>
    <nd ref="507349225"/>
    <tag k="highway" v="tertiary"/>
    <tag k="maxspeed" v="50"/>
    <tag k="name" v="Dorfstraße"/>
    <tag k="ref" v="K 26"/>
    <tag k="surface" v="paved"/>
  </way>
  <way id="41468065" version="3" timestamp="2011-04-11T15:49:02Z" uid="33382" user="de_muur" changeset="7834339">
    <nd ref="282279870"/>
    <nd ref="282279871"/>
    <nd ref="282279872"/>
    <nd ref="469127378"/>
    <nd ref="471617572"/>
    <nd ref="700748624"/>
    <nd ref="253490503"/>
    <nd ref="265593519"/>
    <nd ref="265593516"/>
    <nd ref="471617566"/>
    <nd ref="265593601"/>
    <nd ref="265593561"/>
    <nd ref="507349225"/>
    <tag k="highway" v="tertiary"/>
    <tag k="maxspeed" v="50"/>
    <tag k="name" v="Dorfstraße"/>
    <tag k="ref" v="K 26"/>
    <tag k="surface" v="paved"/>
  </way>
  <way id="41468065" version="4" timestamp="2011-04-11T16:15:28Z" uid="33382" user="de_muur" changeset="7834577">
    <nd ref="282279870"/>
    <nd ref="282279871"/>
    <nd ref="282279872"/>
    <nd ref="469127378"/>
    <nd ref="471617572"/>
    <nd ref="700748624"/>
    <nd ref="253490503"/>
    <tag k="highway" v="tertiary"/>
    <tag k="maxspeed" v="50"/>
    <tag k="name" v="Dorfstraße"/>
    <tag k="ref" v="K 26"/>
    <tag k="surface" v="paved"/>
  </way>
  <way id="41468065" version="5" timestamp="2011-08-29T15:41:31Z" uid="166598" user="Moonwalker" changeset="9158795">
    <nd ref="282279870"/>
    <nd ref="1417255915"/>
    <nd ref="282279872"/>
    <nd ref="469127378"/>
    <nd ref="471617572"/>
    <nd ref="700748624"/>
    <nd ref="253490503"/>
    <tag k="highway" v="tertiary"/>
    <tag k="maxspeed" v="50"/>
    <tag k="name" v="Dorfstraße"/>
    <tag k="ref" v="K 26"/>
    <tag k="surface" v="paved"/>
  </way>
  <way id="41468065" version="6" timestamp="2011-11-15T22:17:39Z" uid="134914" user="max60watt" changeset="9839114">
    <nd ref="282279870"/>
    <nd ref="282279871"/>
    <nd ref="282279872"/>
    <nd ref="469127378"/>
    <nd ref="471617572"/>
    <nd ref="700748624"/>
    <nd ref="253490503"/>
    <tag k="highway" v="tertiary"/>
    <tag k="maxspeed" v="50"/>
    <tag k="name" v="Dorfstraße"/>
    <tag k="ref" v="K 26"/>
    <tag k="surface" v="paved"/>
  </way>
  <way id="41468066" version="1" timestamp="2009-09-25T16:18:20Z" uid="33382" user="de_muur" changeset="2622526">
    <nd ref="507349242"/>
    <nd ref="417993354"/>
    <nd ref="21722228"/>
    <nd ref="21722226"/>
    <nd ref="417994862"/>
    <nd ref="21722224"/>
    <nd ref="417994864"/>
    <nd ref="417994865"/>
    <nd ref="21722223"/>
    <nd ref="21722221"/>
    <nd ref="21722219"/>
    <nd ref="21722217"/>
    <tag k="highway" v="secondary"/>
    <tag k="name" v="Klingenberg"/>
    <tag k="ref" v="L 220"/>
    <tag k="surface" v="paved"/>
  </way>
  <way id="41468066" version="2" timestamp="2010-04-25T07:06:04Z" uid="158830" user="asherah" changeset="4518172">
    <nd ref="507349242"/>
    <nd ref="417993354"/>
    <nd ref="21722228"/>
    <nd ref="21722226"/>
    <nd ref="417994862"/>
    <nd ref="21722224"/>
    <nd ref="417994864"/>
    <nd ref="417994865"/>
    <nd ref="21722223"/>
    <nd ref="21722221"/>
    <nd ref="21722219"/>
    <nd ref="21722217"/>
    <tag k="bicycle" v="designated"/>
    <tag k="cycleway" v="opposite_track"/>
    <tag k="highway" v="secondary"/>
    <tag k="name" v="Klingenberg"/>
    <tag k="ref" v="L 220"/>
    <tag k="surface" v="paved"/>
  </way>
  <way id="41468066" version="3" timestamp="2011-01-16T17:00:53Z" uid="129054" user="Sauerx" changeset="6990264">
    <nd ref="507349242"/>
    <nd ref="417993354"/>
    <nd ref="21722228"/>
    <nd ref="21722226"/>
    <nd ref="417994862"/>
    <nd ref="21722224"/>
    <nd ref="417994864"/>
    <nd ref="417994865"/>
    <nd ref="21722223"/>
    <nd ref="21722221"/>
    <nd ref="1106367247"/>
    <nd ref="21722219"/>
    <nd ref="21722217"/>
    <tag k="bicycle" v="designated"/>
    <tag k="cycleway" v="opposite_track"/>
    <tag k="highway" v="secondary"/>
    <tag k="name" v="Klingenberg"/>
    <tag k="ref" v="L 220"/>
    <tag k="surface" v="paved"/>
  </way>
  <way id="41468066" version="4" timestamp="2011-04-12T15:19:53Z" uid="33382" user="de_muur" changeset="7843614">
    <nd ref="507349242"/>
    <nd ref="417993354"/>
    <nd ref="21722228"/>
    <nd ref="21722226"/>
    <nd ref="417994862"/>
    <nd ref="21722224"/>
    <nd ref="417994864"/>
    <nd ref="417994865"/>
    <nd ref="21722223"/>
    <nd ref="21722221"/>
    <nd ref="1106367247"/>
    <nd ref="21722219"/>
    <nd ref="21722217"/>
    <tag k="bicycle" v="designated"/>
    <tag k="cycleway" v="track"/>
    <tag k="highway" v="secondary"/>
    <tag k="name" v="Klingenberg"/>
    <tag k="ref" v="L 220"/>
    <tag k="surface" v="paved"/>
  </way>
  <way id="41468066" version="5" timestamp="2011-12-28T10:37:24Z" uid="165229" user="Nokiter" changeset="10224165">
    <nd ref="507349242"/>
    <nd ref="417993354"/>
    <nd ref="21722228"/>
    <nd ref="21722226"/>
    <nd ref="417994862"/>
    <nd ref="21722224"/>
    <nd ref="417994864"/>
    <nd ref="417994865"/>
    <nd ref="21722223"/>
    <nd ref="1565000451"/>
    <nd ref="21722221"/>
    <nd ref="1565000471"/>
    <nd ref="1106367247"/>
    <nd ref="21722219"/>
    <nd ref="21722217"/>
    <tag k="bicycle" v="designated"/>
    <tag k="cycleway" v="track"/>
    <tag k="highway" v="secondary"/>
    <tag k="name" v="Klingenberg"/>
    <tag k="ref" v="L 220"/>
    <tag k="surface" v="paved"/>
  </way>
  <way id="41468066" version="6" timestamp="2012-03-08T11:08:07Z" uid="63107" user="brogo" changeset="10908079"/>
  <way id="41468931" version="2" timestamp="2010-04-03T04:18:49Z" uid="20587" user="balrog-kun" changeset="4309442">
    <nd ref="507374268"/>
    <nd ref="507374272"/>
    <tag k="highway" v="residential"/>
    <tag k="name" v="South 167th Lane"/>
  </way>
  <way id="41468935" version="2" timestamp="2010-04-03T04:18:49Z" uid="20587" user="balrog-kun" changeset="4309442">
    <nd ref="507374272"/>
    <nd ref="507374290"/>
    <nd ref="507374296"/>
    <nd ref="507374300"/>
    <nd ref="507374304"/>
    <nd ref="507374309"/>
    <nd ref="507374313"/>
    <nd ref="506497315"/>
    <tag k="highway" v="residential"/>
    <tag k="name" v="West Sherman Street"/>
  </way>
  <way id="41468939" version="2" timestamp="2010-04-03T04:18:49Z" uid="20587" user="balrog-kun" changeset="4309442">
    <nd ref="507374296"/>
    <nd ref="507374347"/>
    <nd ref="507374352"/>
    <nd ref="507374357"/>
    <nd ref="507374362"/>
    <nd ref="507374368"/>
    <nd ref="507374371"/>
    <tag k="highway" v="residential"/>
    <tag k="name" v="South 167th Lane"/>
  </way>
  <way id="41468943" version="2" timestamp="2010-04-03T04:18:49Z" uid="20587" user="balrog-kun" changeset="4309442">
    <nd ref="507374357"/>
    <nd ref="507374386"/>
    <nd ref="507374392"/>
    <tag k="highway" v="residential"/>
    <tag k="name" v="West Lincoln Street"/>
  </way>
  <way id="41468946" version="2" timestamp="2010-04-03T04:18:49Z" uid="20587" user="balrog-kun" changeset="4309442">
    <nd ref="507374362"/>
    <nd ref="507374406"/>
    <nd ref="507374409"/>
    <nd ref="507374414"/>
    <nd ref="507374419"/>
    <nd ref="507374313"/>
    <tag k="highway" v="residential"/>
    <tag k="name" v="South 167th Drive"/>
  </way>
  <way id="41468954" version="2" timestamp="2010-04-03T04:18:49Z" uid="20587" user="balrog-kun" changeset="4309442">
    <nd ref="507374446"/>
    <nd ref="507374449"/>
    <nd ref="507374454"/>
    <nd ref="507374458"/>
    <nd ref="507374476"/>
    <nd ref="507374481"/>
    <nd ref="506497253"/>
    <tag k="highway" v="residential"/>
    <tag k="name" v="West Jefferson Street"/>
  </way>
  <way id="41468956" version="2" timestamp="2010-04-03T04:18:49Z" uid="20587" user="balrog-kun" changeset="4309442">
    <nd ref="506497311"/>
    <nd ref="507374503"/>
    <tag k="highway" v="residential"/>
    <tag k="name" v="West Maricopa Street"/>
  </way>
  <way id="41468959" version="2" timestamp="2010-04-03T04:18:49Z" uid="20587" user="balrog-kun" changeset="4309442">
    <nd ref="507374503"/>
    <nd ref="507374514"/>
    <nd ref="507374518"/>
    <nd ref="507374523"/>
    <tag k="highway" v="residential"/>
    <tag k="name" v="South 167th Lane"/>
  </way>
  <way id="41468962" version="2" timestamp="2010-04-03T04:18:49Z" uid="20587" user="balrog-kun" changeset="4309442">
    <nd ref="507374514"/>
    <nd ref="507374534"/>
    <nd ref="507374540"/>
    <nd ref="507374545"/>
    <tag k="highway" v="residential"/>
    <tag k="name" v="South 167th Drive"/>
  </way>
  <way id="41468966" version="2" timestamp="2010-04-03T04:18:49Z" uid="20587" user="balrog-kun" changeset="4309442">
    <nd ref="507374545"/>
    <nd ref="507374558"/>
    <nd ref="507374562"/>
    <nd ref="507374567"/>
    <nd ref="507374268"/>
    <tag k="highway" v="residential"/>
    <tag k="name" v="South Hadley Street"/>
  </way>
  <way id="41468972" version="2" timestamp="2010-04-03T04:18:50Z" uid="20587" user="balrog-kun" changeset="4309442">
    <nd ref="317351407"/>
    <nd ref="507374597"/>
    <nd ref="507374602"/>
    <nd ref="507374610"/>
    <nd ref="507374615"/>
    <nd ref="507374619"/>
    <nd ref="507374624"/>
    <nd ref="507374628"/>
    <nd ref="507374633"/>
    <nd ref="507374637"/>
    <tag k="highway" v="residential"/>
    <tag k="name" v="South 158th Avenue"/>
  </way>
  <way id="41468974" version="3" timestamp="2010-04-03T04:18:50Z" uid="20587" user="balrog-kun" changeset="4309442">
    <nd ref="507374637"/>
    <nd ref="507374659"/>
    <nd ref="507374663"/>
    <tag k="highway" v="secondary"/>
    <tag k="name" v="W. Roosevelt Street"/>
  </way>
  <way id="41468974" version="4" timestamp="2010-12-22T03:39:00Z" uid="275335" user="TheArguer" changeset="6732086">
    <nd ref="507374637"/>
    <nd ref="507374659"/>
    <tag k="highway" v="secondary"/>
    <tag k="name" v="West Roosevelt Street"/>
    <tag k="oneway" v="no"/>
  </way>
  <way id="41468975" version="3" timestamp="2010-04-03T04:18:50Z" uid="20587" user="balrog-kun" changeset="4309442">
    <nd ref="507374659"/>
    <nd ref="507374675"/>
    <nd ref="317351396"/>
    <tag k="highway" v="secondary"/>
    <tag k="name" v="W. Roosevelt Street"/>
  </way>
  <way id="41468975" version="4" timestamp="2010-12-22T03:39:00Z" uid="275335" user="TheArguer" changeset="6732086">
    <nd ref="507374659"/>
    <nd ref="507374675"/>
    <nd ref="317351396"/>
    <tag k="highway" v="secondary"/>
    <tag k="name" v="W. Roosevelt Street"/>
    <tag k="oneway" v="yes"/>
  </way>
  <way id="41468981" version="2" timestamp="2010-04-03T04:18:50Z" uid="20587" user="balrog-kun" changeset="4309442">
    <nd ref="507374637"/>
    <nd ref="507374687"/>
    <nd ref="507374692"/>
    <nd ref="507374696"/>
    <nd ref="507374713"/>
    <nd ref="507374718"/>
    <nd ref="507374722"/>
    <nd ref="507374726"/>
    <nd ref="507374731"/>
    <nd ref="507374736"/>
    <nd ref="507374740"/>
    <nd ref="507374746"/>
    <nd ref="507374752"/>
    <nd ref="507374755"/>
    <nd ref="507374759"/>
    <nd ref="507374772"/>
    <nd ref="507374777"/>
    <nd ref="507374780"/>
    <nd ref="507374784"/>
    <nd ref="507374791"/>
    <nd ref="317311221"/>
    <tag k="highway" v="residential"/>
    <tag k="name" v="West Portland Street"/>
  </way>
  <way id="41468984" version="2" timestamp="2010-04-03T04:18:50Z" uid="20587" user="balrog-kun" changeset="4309442">
    <nd ref="507374808"/>
    <nd ref="507374446"/>
    <tag k="highway" v="residential"/>
    <tag k="name" v="South 168th Drive"/>
  </way>
  <way id="41468065" version="7" timestamp="2012-04-16T06:55:51Z" uid="63107" user="brogo" changeset="11318545"/>
  <way id="41468975" version="5" timestamp="2012-07-27T04:40:01Z" uid="292665" user="Dr Kludge" changeset="12506676"/>
</osm>
