<?xml version='1.0' encoding='UTF-8'?>
<osm version="0.6" generator="libosmium/2.20.0">
  <way id="41614598" version="5" timestamp="2010-06-29T20:50:09Z" uid="74617" user="JohnSmith" changeset="5109183">
    <nd ref="510928151"/>
    <nd ref="510928205"/>
    <nd ref="510928197"/>
    <nd ref="510928162"/>
    <nd ref="510928151"/>
    <tag k="barrier" v="fence"/>
    <tag k="fixme" v="sport=rugby is ambiguous, see http://wiki.osm.org/wiki/Tag:sport%3Drugby for more details"/>
    <tag k="leisure" v="pitch"/>
    <tag k="name" v="NTV 09 Hannover"/>
    <tag k="sport" v="rugby"/>
    <tag k="surface" v="grass"/>
  </way>
  <way id="41614917" version="5" timestamp="2011-03-29T00:08:30Z" uid="6269" user="Mueck" changeset="7702703">
    <nd ref="25182996"/>
    <nd ref="25183010"/>
    <nd ref="25183227"/>
    <nd ref="25191366"/>
    <nd ref="25183098"/>
    <nd ref="1223832151"/>
    <nd ref="25182932"/>
    <tag k="highway" v="residential"/>
    <tag k="maxspeed" v="30"/>
    <tag k="name" v="Isoldestraße"/>
    <tag k="postal_code" v="76185"/>
  </way>
  <way id="41614598" version="6" timestamp="2012-06-13T11:44:54Z" uid="24572" user="sly" changeset="11883989">
    <nd ref="510928151"/>
    <nd ref="510928205"/>
    <nd ref="510928197"/>
    <nd ref="510928162"/>
    <nd ref="510928151"/>
    <tag k="barrier" v="fence"/>
    <tag k="leisure" v="pitch"/>
    <tag k="name" v="NTV 09 Hannover"/>
    <tag k="sport" v="rugby"/>
    <tag k="surface" v="grass"/>
  </way>
  <way id="41614598" version="7" timestamp="2012-06-13T15:55:02Z" uid="8235" user="chriscf" changeset="11886459">
    <nd ref="510928151"/>
    <nd ref="510928205"/>
    <nd ref="510928197"/>
    <nd ref="510928162"/>
    <nd ref="510928151"/>
    <tag k="barrier" v="fence"/>
    <tag k="fixme" v="sport=rugby is ambiguous, see http://wiki.osm.org/wiki/Tag:sport%3Drugby for more details"/>
    <tag k="leisure" v="pitch"/>
    <tag k="name" v="NTV 09 Hannover"/>
    <tag k="sport" v="rugby"/>
    <tag k="surface" v="grass"/>
  </way>
  <way id="41614598" version="8" timestamp="2012-07-18T11:08:50Z" uid="722137" user="OSMF Redaction Account" changeset="12279599">
    <nd ref="510928151"/>
    <nd ref="510928205"/>
    <nd ref="510928197"/>
    <nd ref="510928162"/>
    <nd ref="510928151"/>
    <tag k="barrier" v="fence"/>
    <tag k="leisure" v="pitch"/>
    <tag k="name" v="NTV 09 Hannover"/>
    <tag k="sport" v="rugby"/>
    <tag k="surface" v="grass"/>
  </way>
  <way id="41614917" version="6" timestamp="2012-07-17T14:50:35Z" uid="722137" user="OSMF Redaction Account" changeset="12267710">
    <nd ref="25182996"/>
    <nd ref="25183010"/>
    <nd ref="25183227"/>
    <nd ref="25191366"/>
    <nd ref="25183098"/>
    <nd ref="25182932"/>
    <tag k="highway" v="residential"/>
    <tag k="maxspeed" v="30"/>
    <tag k="name" v="Isoldestraße"/>
    <tag k="postal_code" v="76185"/>
  </way>
</osm>
