<?xml version='1.0' encoding='UTF-8'?>
<osm version="0.6" generator="libosmium/2.20.0">
  <way id="41647156" version="1" timestamp="2009-09-27T22:15:39Z" uid="49785" user="mike67" changeset="2659094">
    <nd ref="285170487"/>
    <nd ref="285173757"/>
    <nd ref="291904462"/>
    <nd ref="285170493"/>
    <nd ref="291896871"/>
    <nd ref="285646867"/>
    <tag k="highway" v="pedestrian"/>
    <tag k="name" v="Strandstraße"/>
    <tag k="source" v="survey"/>
  </way>
  <way id="41647156" version="2" timestamp="2009-10-03T08:40:05Z" uid="179968" user="Ich_hasse_doitsche_OSM-Korinthenkacker" changeset="2720861">
    <nd ref="285170487"/>
    <nd ref="285173757"/>
    <nd ref="291904462"/>
    <nd ref="285170493"/>
    <nd ref="291896871"/>
    <nd ref="285646867"/>
    <tag k="highway" v="pedestrian"/>
    <tag k="name" v="Strandstraße"/>
  </way>
  <way id="41647156" version="3" timestamp="2010-10-10T10:08:36Z" uid="6808" user="wwwFrank" changeset="6000328">
    <nd ref="285170487"/>
    <nd ref="285173757"/>
    <nd ref="291904462"/>
    <nd ref="285170493"/>
    <nd ref="291896871"/>
    <nd ref="285646867"/>
    <tag k="highway" v="pedestrian"/>
    <tag k="name" v="Strandstraße"/>
  </way>
  <way id="41647156" version="4" timestamp="2011-10-09T10:24:35Z" uid="406370" user="maptin" changeset="9510438"/>
  <way id="41647654" version="2" timestamp="2011-02-22T08:45:29Z" uid="20587" user="balrog-kun" changeset="7361212">
    <nd ref="31901804"/>
    <nd ref="31901737"/>
    <nd ref="1166225520"/>
    <nd ref="31901720"/>
    <tag k="highway" v="secondary"/>
    <tag k="oneway" v="yes"/>
  </way>
  <way id="41647654" version="3" timestamp="2011-04-27T06:22:55Z" uid="134872" user="Crux4" changeset="7981752">
    <nd ref="31901804"/>
    <nd ref="31901737"/>
    <nd ref="1166225520"/>
    <nd ref="31901720"/>
    <tag k="highway" v="secondary"/>
    <tag k="name" v="Lincoln Road"/>
    <tag k="oneway" v="yes"/>
  </way>
  <way id="41647654" version="4" timestamp="2011-07-06T22:41:20Z" uid="341519" user="lcmortensen" changeset="8653073">
    <nd ref="31901804"/>
    <nd ref="31901737"/>
    <nd ref="1166225520"/>
    <nd ref="31901720"/>
    <tag k="highway" v="secondary"/>
    <tag k="lanes" v="2"/>
    <tag k="name" v="Lincoln Road"/>
    <tag k="oneway" v="yes"/>
  </way>
  <way id="41647655" version="2" timestamp="2011-02-22T08:45:16Z" uid="20587" user="balrog-kun" changeset="7361212">
    <nd ref="31901803"/>
    <nd ref="1166225639"/>
    <nd ref="133154587"/>
    <nd ref="133152327"/>
    <nd ref="133154585"/>
    <nd ref="133154583"/>
    <tag k="highway" v="secondary"/>
    <tag k="name" v="Lincoln Road"/>
    <tag k="oneway" v="yes"/>
  </way>
  <way id="41647655" version="3" timestamp="2011-07-06T22:41:21Z" uid="341519" user="lcmortensen" changeset="8653073">
    <nd ref="31901803"/>
    <nd ref="1166225639"/>
    <nd ref="133154587"/>
    <nd ref="133152327"/>
    <nd ref="133154585"/>
    <nd ref="133154583"/>
    <nd ref="133145259"/>
    <tag k="highway" v="secondary"/>
    <tag k="lanes" v="2"/>
    <tag k="name" v="Lincoln Road"/>
    <tag k="oneway" v="yes"/>
  </way>
  <way id="41647655" version="4" timestamp="2011-12-05T20:55:29Z" uid="341519" user="lcmortensen" changeset="10045512">
    <nd ref="31247020"/>
    <nd ref="31901803"/>
    <nd ref="1166225639"/>
    <nd ref="133154587"/>
    <nd ref="133152327"/>
    <nd ref="133154585"/>
    <nd ref="133154583"/>
    <nd ref="133145259"/>
    <tag k="highway" v="secondary"/>
    <tag k="lanes" v="2"/>
    <tag k="name" v="Lincoln Road"/>
    <tag k="oneway" v="yes"/>
  </way>
  <way id="41647657" version="2" timestamp="2011-02-22T08:45:21Z" uid="20587" user="balrog-kun" changeset="7361212">
    <nd ref="392642021"/>
    <nd ref="133151043"/>
    <nd ref="133152328"/>
    <nd ref="133153119"/>
    <nd ref="1166224958"/>
    <nd ref="31901804"/>
    <tag k="highway" v="secondary"/>
    <tag k="oneway" v="yes"/>
  </way>
  <way id="41647657" version="3" timestamp="2011-04-27T06:22:55Z" uid="134872" user="Crux4" changeset="7981752">
    <nd ref="392642021"/>
    <nd ref="133151043"/>
    <nd ref="133152328"/>
    <nd ref="133153119"/>
    <nd ref="1166224958"/>
    <nd ref="31901804"/>
    <tag k="highway" v="secondary"/>
    <tag k="name" v="Lincoln Road"/>
    <tag k="oneway" v="yes"/>
  </way>
  <way id="41647657" version="4" timestamp="2011-07-06T22:41:21Z" uid="341519" user="lcmortensen" changeset="8653073">
    <nd ref="133145259"/>
    <nd ref="392642021"/>
    <nd ref="133151043"/>
    <nd ref="133152328"/>
    <nd ref="133153119"/>
    <nd ref="1166224958"/>
    <nd ref="31901804"/>
    <tag k="highway" v="secondary"/>
    <tag k="lanes" v="2"/>
    <tag k="name" v="Lincoln Road"/>
    <tag k="oneway" v="yes"/>
  </way>
  <way id="41647824" version="3" timestamp="2010-04-03T13:55:23Z" uid="20587" user="balrog-kun" changeset="4312927">
    <nd ref="511394538"/>
    <nd ref="511394544"/>
    <nd ref="511394555"/>
    <tag k="highway" v="residential"/>
    <tag k="name" v="East 5700 South"/>
  </way>
  <way id="41647824" version="4" timestamp="2010-07-08T06:01:48Z" uid="65769" user="Val" changeset="5163600">
    <nd ref="511463207"/>
    <nd ref="511463196"/>
    <nd ref="511463187"/>
    <nd ref="806287967"/>
    <nd ref="806288043"/>
    <nd ref="511459883"/>
    <nd ref="511459899"/>
    <nd ref="511459912"/>
    <nd ref="511394538"/>
    <nd ref="511394544"/>
    <nd ref="511394555"/>
    <tag k="highway" v="residential"/>
    <tag k="name" v="East 5700 South"/>
  </way>
  <way id="41647863" version="3" timestamp="2011-02-22T10:22:53Z" uid="20587" user="balrog-kun" changeset="7361985">
    <nd ref="31814356"/>
    <nd ref="251517695"/>
    <nd ref="31064675"/>
    <nd ref="1166294690"/>
    <nd ref="251382142"/>
    <tag k="highway" v="secondary"/>
    <tag k="name" v="Moorhouse Avenue"/>
    <tag k="oneway" v="yes"/>
  </way>
  <way id="41647863" version="4" timestamp="2011-03-04T08:21:33Z" uid="24452" user="Speight" changeset="7452435">
    <nd ref="31814356"/>
    <nd ref="251517695"/>
    <nd ref="31064675"/>
    <nd ref="1166294690"/>
    <nd ref="251382142"/>
    <tag k="highway" v="secondary"/>
    <tag k="name" v="Moorhouse Avenue"/>
  </way>
  <way id="41647863" version="5" timestamp="2011-07-07T03:59:16Z" uid="341519" user="lcmortensen" changeset="8653893">
    <nd ref="1352144357"/>
    <nd ref="251517695"/>
    <nd ref="31064675"/>
    <nd ref="1166294690"/>
    <nd ref="251382142"/>
    <tag k="highway" v="secondary"/>
    <tag k="lanes" v="3"/>
    <tag k="name" v="Moorhouse Avenue"/>
  </way>
  <way id="41647863" version="6" timestamp="2012-01-12T03:05:21Z" uid="341519" user="lcmortensen" changeset="10366370"/>
  <way id="41647920" version="6" timestamp="2011-02-22T08:45:01Z" uid="20587" user="balrog-kun" changeset="7361212">
    <nd ref="31796223"/>
    <nd ref="1166225918"/>
    <nd ref="1093722421"/>
    <nd ref="1166225217"/>
    <nd ref="31796224"/>
    <nd ref="31796225"/>
    <nd ref="38453779"/>
    <nd ref="31796226"/>
    <nd ref="38453501"/>
    <nd ref="609911023"/>
    <nd ref="31796227"/>
    <nd ref="31149435"/>
    <nd ref="31796228"/>
    <nd ref="31149437"/>
    <nd ref="38454835"/>
    <nd ref="31796229"/>
    <nd ref="31796230"/>
    <nd ref="31796231"/>
    <nd ref="31796232"/>
    <tag k="highway" v="secondary"/>
    <tag k="name" v="Bealey Ave"/>
    <tag k="oneway" v="yes"/>
  </way>
  <way id="41647920" version="7" timestamp="2011-05-23T04:43:38Z" uid="341519" user="lcmortensen" changeset="8222927">
    <nd ref="31796223"/>
    <nd ref="1166225918"/>
    <nd ref="1093722421"/>
    <nd ref="1166225217"/>
    <nd ref="31796224"/>
    <nd ref="31796225"/>
    <nd ref="38453779"/>
    <nd ref="31796226"/>
    <tag k="highway" v="secondary"/>
    <tag k="name" v="Bealey Ave"/>
    <tag k="oneway" v="yes"/>
  </way>
  <way id="41647920" version="8" timestamp="2011-05-24T06:39:38Z" uid="341519" user="lcmortensen" changeset="8232391">
    <nd ref="31796223"/>
    <nd ref="1166225918"/>
    <nd ref="1093722421"/>
    <nd ref="1166225217"/>
    <nd ref="31796224"/>
    <nd ref="31796225"/>
    <tag k="highway" v="secondary"/>
    <tag k="name" v="Bealey Ave"/>
    <tag k="oneway" v="yes"/>
  </way>
  <way id="41647920" version="9" timestamp="2011-06-04T11:49:40Z" uid="341519" user="lcmortensen" changeset="8338356">
    <nd ref="31796223"/>
    <nd ref="1166225918"/>
    <nd ref="1093722421"/>
    <tag k="highway" v="secondary"/>
    <tag k="name" v="Bealey Ave"/>
    <tag k="oneway" v="yes"/>
  </way>
  <way id="41647920" version="10" timestamp="2011-06-15T00:56:25Z" uid="341519" user="lcmortensen" changeset="8443361">
    <nd ref="31796223"/>
    <nd ref="1166225918"/>
    <nd ref="1093722421"/>
    <tag k="highway" v="secondary"/>
    <tag k="name" v="Bealey Ave"/>
    <tag k="oneway" v="yes"/>
  </way>
  <way id="41647920" version="11" timestamp="2011-06-23T01:56:12Z" uid="341519" user="lcmortensen" changeset="8520244">
    <nd ref="31796223"/>
    <nd ref="1166225918"/>
    <nd ref="1093722421"/>
    <tag k="highway" v="secondary"/>
    <tag k="name" v="Bealey Ave"/>
    <tag k="oneway" v="yes"/>
  </way>
  <way id="41647920" version="12" timestamp="2011-06-28T02:05:34Z" uid="341519" user="lcmortensen" changeset="8567783">
    <nd ref="31796223"/>
    <nd ref="1166225918"/>
    <nd ref="1093722421"/>
    <tag k="highway" v="primary"/>
    <tag k="name" v="Bealey Ave"/>
    <tag k="oneway" v="yes"/>
  </way>
  <way id="41647920" version="13" timestamp="2011-07-03T02:28:43Z" uid="341519" user="lcmortensen" changeset="8614128">
    <nd ref="31796223"/>
    <nd ref="1166225918"/>
    <nd ref="1093722421"/>
    <tag k="highway" v="primary"/>
    <tag k="lanes" v="3"/>
    <tag k="name" v="Bealey Ave"/>
    <tag k="oneway" v="yes"/>
  </way>
  <way id="41647920" version="14" timestamp="2012-03-27T03:00:36Z" uid="341519" user="lcmortensen" changeset="11112311">
    <nd ref="31796223"/>
    <nd ref="1166225918"/>
    <nd ref="1093722421"/>
    <tag k="highway" v="primary"/>
    <tag k="lanes" v="3"/>
    <tag k="maxspeed" v="50"/>
    <tag k="name" v="Bealey Ave"/>
    <tag k="oneway" v="yes"/>
  </way>
</osm>
