<?xml version='1.0' encoding='UTF-8'?>
<osm version="0.6" generator="libosmium/2.20.0">
  <way id="41697059" version="2" timestamp="2010-07-09T05:04:12Z" uid="74617" user="JohnSmith" changeset="5170972">
    <nd ref="246377987"/>
    <nd ref="513050680"/>
    <tag k="highway" v="residential"/>
    <tag k="maxspeed" v="50"/>
    <tag k="maxspeed:source" v="default residential speed limit in Australia"/>
    <tag k="name" v="Berenice Terrace"/>
    <tag k="source" v="Yahoo"/>
    <tag k="source:name" v="photo"/>
  </way>
  <way id="41697059" version="3" timestamp="2012-01-19T05:14:25Z" uid="147510" user="woodpeck_fixbot" changeset="10433866">
    <nd ref="246377987"/>
    <nd ref="513050680"/>
    <tag k="highway" v="residential"/>
    <tag k="name" v="Berenice Terrace"/>
    <tag k="source" v="Yahoo"/>
    <tag k="source:name" v="photo"/>
  </way>
  <way id="41697060" version="2" timestamp="2010-07-09T04:58:39Z" uid="74617" user="JohnSmith" changeset="5170972">
    <nd ref="246376496"/>
    <nd ref="513050684"/>
    <tag k="highway" v="residential"/>
    <tag k="maxspeed" v="50"/>
    <tag k="maxspeed:source" v="default residential speed limit in Australia"/>
    <tag k="name" v="Wallace Avenue"/>
  </way>
  <way id="41697060" version="3" timestamp="2011-04-15T06:34:31Z" uid="288568" user="nickbarker" changeset="7866985">
    <nd ref="246376496"/>
    <nd ref="513050684"/>
    <tag k="highway" v="residential"/>
    <tag k="maxspeed" v="50"/>
    <tag k="maxspeed:source" v="default residential speed limit in Australia"/>
    <tag k="name" v="Wallace Avenue"/>
    <tag k="surface" v="asphalt"/>
  </way>
  <way id="41697060" version="4" timestamp="2012-01-19T05:14:26Z" uid="147510" user="woodpeck_fixbot" changeset="10433866">
    <nd ref="246376496"/>
    <nd ref="513050684"/>
    <tag k="highway" v="residential"/>
    <tag k="name" v="Wallace Avenue"/>
    <tag k="surface" v="asphalt"/>
  </way>
  <way id="41697061" version="2" timestamp="2010-07-09T05:01:25Z" uid="74617" user="JohnSmith" changeset="5170972">
    <nd ref="246376515"/>
    <nd ref="246376509"/>
    <tag k="highway" v="residential"/>
    <tag k="maxspeed" v="50"/>
    <tag k="maxspeed:source" v="default residential speed limit in Australia"/>
    <tag k="name" v="Washington Street"/>
  </way>
  <way id="41697061" version="3" timestamp="2011-03-14T15:26:36Z" uid="4467" user="Rosscoe" changeset="7557457">
    <nd ref="246376515"/>
    <nd ref="1201689354"/>
    <tag k="highway" v="residential"/>
    <tag k="maxspeed" v="50"/>
    <tag k="maxspeed:source" v="default residential speed limit in Australia"/>
    <tag k="name" v="Washington Street"/>
  </way>
  <way id="41697061" version="4" timestamp="2011-04-15T06:34:35Z" uid="288568" user="nickbarker" changeset="7866985">
    <nd ref="246376515"/>
    <nd ref="1201689354"/>
    <tag k="highway" v="residential"/>
    <tag k="maxspeed" v="50"/>
    <tag k="maxspeed:source" v="default residential speed limit in Australia"/>
    <tag k="name" v="Washington Street"/>
    <tag k="surface" v="asphalt"/>
  </way>
  <way id="41697061" version="5" timestamp="2011-08-16T05:09:28Z" uid="288568" user="nickbarker" changeset="9033208">
    <nd ref="246376515"/>
    <nd ref="1201689354"/>
    <tag k="highway" v="residential"/>
    <tag k="maxspeed" v="50"/>
    <tag k="maxspeed:source" v="default residential speed limit in Australia"/>
    <tag k="name" v="Washington Street"/>
    <tag k="oneway" v="no"/>
    <tag k="surface" v="asphalt"/>
  </way>
  <way id="41697061" version="6" timestamp="2012-01-19T05:14:28Z" uid="147510" user="woodpeck_fixbot" changeset="10433866">
    <nd ref="246376515"/>
    <nd ref="1201689354"/>
    <tag k="highway" v="residential"/>
    <tag k="name" v="Washington Street"/>
    <tag k="oneway" v="no"/>
    <tag k="surface" v="asphalt"/>
  </way>
  <way id="41697064" version="2" timestamp="2010-07-09T04:53:51Z" uid="74617" user="JohnSmith" changeset="5170972">
    <nd ref="513050692"/>
    <nd ref="513050694"/>
    <nd ref="513050696"/>
    <nd ref="513050697"/>
    <nd ref="513050699"/>
    <nd ref="513050700"/>
    <nd ref="513050702"/>
    <nd ref="513050705"/>
    <nd ref="513050707"/>
    <nd ref="513050711"/>
    <nd ref="513050684"/>
    <nd ref="513050713"/>
    <nd ref="513050716"/>
    <nd ref="513050717"/>
    <nd ref="246376515"/>
    <nd ref="513050718"/>
    <nd ref="513050721"/>
    <nd ref="513050722"/>
    <nd ref="513050692"/>
    <tag k="highway" v="residential"/>
    <tag k="junction" v="roundabout"/>
    <tag k="maxspeed" v="50"/>
    <tag k="maxspeed:source" v="default residential speed limit in Australia"/>
  </way>
  <way id="41697064" version="3" timestamp="2011-04-15T06:34:32Z" uid="288568" user="nickbarker" changeset="7866985">
    <nd ref="513050692"/>
    <nd ref="513050694"/>
    <nd ref="513050696"/>
    <nd ref="513050697"/>
    <nd ref="513050699"/>
    <nd ref="513050700"/>
    <nd ref="513050702"/>
    <nd ref="513050705"/>
    <nd ref="513050707"/>
    <nd ref="513050711"/>
    <nd ref="513050684"/>
    <nd ref="513050713"/>
    <nd ref="513050716"/>
    <nd ref="513050717"/>
    <nd ref="246376515"/>
    <nd ref="513050718"/>
    <nd ref="513050721"/>
    <nd ref="513050722"/>
    <nd ref="513050692"/>
    <tag k="highway" v="residential"/>
    <tag k="junction" v="roundabout"/>
    <tag k="maxspeed" v="50"/>
    <tag k="maxspeed:source" v="default residential speed limit in Australia"/>
    <tag k="surface" v="asphalt"/>
  </way>
  <way id="41697064" version="4" timestamp="2012-01-19T05:14:29Z" uid="147510" user="woodpeck_fixbot" changeset="10433866">
    <nd ref="513050692"/>
    <nd ref="513050694"/>
    <nd ref="513050696"/>
    <nd ref="513050697"/>
    <nd ref="513050699"/>
    <nd ref="513050700"/>
    <nd ref="513050702"/>
    <nd ref="513050705"/>
    <nd ref="513050707"/>
    <nd ref="513050711"/>
    <nd ref="513050684"/>
    <nd ref="513050713"/>
    <nd ref="513050716"/>
    <nd ref="513050717"/>
    <nd ref="246376515"/>
    <nd ref="513050718"/>
    <nd ref="513050721"/>
    <nd ref="513050722"/>
    <nd ref="513050692"/>
    <tag k="highway" v="residential"/>
    <tag k="junction" v="roundabout"/>
    <tag k="surface" v="asphalt"/>
  </way>
  <way id="41697066" version="2" timestamp="2010-07-09T04:58:15Z" uid="74617" user="JohnSmith" changeset="5170972">
    <nd ref="513050754"/>
    <nd ref="513050756"/>
    <nd ref="246378044"/>
    <nd ref="513050760"/>
    <nd ref="513050762"/>
    <tag k="highway" v="residential"/>
    <tag k="maxspeed" v="50"/>
    <tag k="maxspeed:source" v="default residential speed limit in Australia"/>
    <tag k="name" v="Canberra Road"/>
    <tag k="oneway" v="yes"/>
    <tag k="source" v="Yahoo"/>
    <tag k="source:name" v="photo"/>
  </way>
  <way id="41697066" version="3" timestamp="2011-04-15T06:34:29Z" uid="288568" user="nickbarker" changeset="7866985">
    <nd ref="513050754"/>
    <nd ref="513050756"/>
    <nd ref="246378044"/>
    <nd ref="513050760"/>
    <nd ref="513050762"/>
    <tag k="highway" v="residential"/>
    <tag k="maxspeed" v="50"/>
    <tag k="maxspeed:source" v="default residential speed limit in Australia"/>
    <tag k="name" v="Canberra Road"/>
    <tag k="oneway" v="yes"/>
    <tag k="source" v="Yahoo"/>
    <tag k="source:name" v="photo"/>
    <tag k="surface" v="asphalt"/>
  </way>
  <way id="41697066" version="4" timestamp="2012-01-19T05:14:30Z" uid="147510" user="woodpeck_fixbot" changeset="10433866">
    <nd ref="513050754"/>
    <nd ref="513050756"/>
    <nd ref="246378044"/>
    <nd ref="513050760"/>
    <nd ref="513050762"/>
    <tag k="highway" v="residential"/>
    <tag k="name" v="Canberra Road"/>
    <tag k="oneway" v="yes"/>
    <tag k="source" v="Yahoo"/>
    <tag k="source:name" v="photo"/>
    <tag k="surface" v="asphalt"/>
  </way>
  <way id="41697067" version="2" timestamp="2010-07-09T05:00:54Z" uid="74617" user="JohnSmith" changeset="5170972">
    <nd ref="513050762"/>
    <nd ref="246378032"/>
    <tag k="highway" v="residential"/>
    <tag k="maxspeed" v="50"/>
    <tag k="maxspeed:source" v="default residential speed limit in Australia"/>
    <tag k="name" v="Canberra Road"/>
    <tag k="source" v="Yahoo"/>
    <tag k="source:name" v="photo"/>
  </way>
  <way id="41697067" version="3" timestamp="2012-01-19T05:14:32Z" uid="147510" user="woodpeck_fixbot" changeset="10433866">
    <nd ref="513050762"/>
    <nd ref="246378032"/>
    <tag k="highway" v="residential"/>
    <tag k="name" v="Canberra Road"/>
    <tag k="source" v="Yahoo"/>
    <tag k="source:name" v="photo"/>
  </way>
  <way id="41697068" version="2" timestamp="2010-07-09T04:55:53Z" uid="74617" user="JohnSmith" changeset="5170972">
    <nd ref="513050762"/>
    <nd ref="513050769"/>
    <nd ref="513050772"/>
    <nd ref="513050754"/>
    <tag k="highway" v="residential"/>
    <tag k="maxspeed" v="50"/>
    <tag k="maxspeed:source" v="default residential speed limit in Australia"/>
    <tag k="name" v="Canberra Road"/>
    <tag k="oneway" v="yes"/>
    <tag k="source" v="Yahoo"/>
    <tag k="source:name" v="photo"/>
  </way>
  <way id="41697068" version="3" timestamp="2011-04-15T06:34:30Z" uid="288568" user="nickbarker" changeset="7866985">
    <nd ref="513050762"/>
    <nd ref="513050769"/>
    <nd ref="513050772"/>
    <nd ref="513050754"/>
    <tag k="highway" v="residential"/>
    <tag k="maxspeed" v="50"/>
    <tag k="maxspeed:source" v="default residential speed limit in Australia"/>
    <tag k="name" v="Canberra Road"/>
    <tag k="oneway" v="yes"/>
    <tag k="source" v="Yahoo"/>
    <tag k="source:name" v="photo"/>
    <tag k="surface" v="asphalt"/>
  </way>
  <way id="41697068" version="4" timestamp="2012-01-19T05:14:33Z" uid="147510" user="woodpeck_fixbot" changeset="10433866">
    <nd ref="513050762"/>
    <nd ref="513050769"/>
    <nd ref="513050772"/>
    <nd ref="513050754"/>
    <tag k="highway" v="residential"/>
    <tag k="name" v="Canberra Road"/>
    <tag k="oneway" v="yes"/>
    <tag k="source" v="Yahoo"/>
    <tag k="source:name" v="photo"/>
    <tag k="surface" v="asphalt"/>
  </way>
  <way id="41697070" version="3" timestamp="2011-03-14T15:25:59Z" uid="4467" user="Rosscoe" changeset="7557457">
    <nd ref="513050789"/>
    <nd ref="513050792"/>
    <nd ref="513050794"/>
    <nd ref="513050796"/>
    <nd ref="513050798"/>
    <nd ref="1201689242"/>
    <nd ref="513050799"/>
    <nd ref="1053535248"/>
    <nd ref="513050800"/>
    <nd ref="513050803"/>
    <nd ref="513050805"/>
    <nd ref="513050807"/>
    <nd ref="513050809"/>
    <nd ref="513050811"/>
    <nd ref="513050789"/>
    <tag k="leisure" v="park"/>
    <tag k="name" v="Winifred Crescent Reserve"/>
  </way>
  <way id="41697092" version="1" timestamp="2009-09-29T05:15:51Z" uid="172440" user="glen20" changeset="2672910">
    <nd ref="513051292"/>
    <nd ref="513051293"/>
    <nd ref="513051294"/>
    <nd ref="513051295"/>
    <nd ref="513051296"/>
    <nd ref="513051297"/>
    <nd ref="513051298"/>
    <nd ref="513051299"/>
    <nd ref="513051300"/>
    <nd ref="513051301"/>
    <nd ref="513051302"/>
    <nd ref="513051303"/>
    <nd ref="513051304"/>
    <nd ref="513051305"/>
    <nd ref="513051306"/>
    <nd ref="513051307"/>
    <nd ref="513051308"/>
    <nd ref="513051309"/>
    <nd ref="513051310"/>
    <nd ref="513051311"/>
    <nd ref="513051312"/>
    <nd ref="513051313"/>
    <nd ref="513051314"/>
    <nd ref="513051315"/>
    <nd ref="513051316"/>
    <nd ref="513051317"/>
    <nd ref="513051318"/>
    <nd ref="513051319"/>
    <nd ref="513051320"/>
    <nd ref="513051321"/>
    <nd ref="513051322"/>
    <nd ref="513051323"/>
    <nd ref="513051324"/>
    <nd ref="513051325"/>
    <nd ref="513051326"/>
    <nd ref="513051327"/>
    <nd ref="513051328"/>
    <nd ref="513051329"/>
    <nd ref="513051330"/>
    <nd ref="513051331"/>
    <nd ref="513051332"/>
    <nd ref="513051333"/>
    <nd ref="513051334"/>
    <nd ref="513051335"/>
    <nd ref="513051336"/>
    <nd ref="513051337"/>
    <nd ref="513051338"/>
    <nd ref="513051339"/>
    <nd ref="513051329"/>
    <tag k="highway" v="road"/>
    <tag k="name" v="beach access"/>
  </way>
  <way id="41697092" version="2" timestamp="2009-12-13T00:59:48Z" uid="79144" user="John H" changeset="3359973">
    <nd ref="513051292"/>
    <nd ref="513051293"/>
    <nd ref="513051294"/>
    <nd ref="513051295"/>
    <nd ref="513051296"/>
    <nd ref="513051297"/>
    <nd ref="513051298"/>
    <nd ref="513051299"/>
    <nd ref="513051300"/>
    <nd ref="513051301"/>
    <nd ref="513051302"/>
    <nd ref="513051303"/>
    <nd ref="513051304"/>
    <nd ref="513051305"/>
    <nd ref="513051306"/>
    <nd ref="513051307"/>
    <nd ref="513051308"/>
    <nd ref="513051309"/>
    <nd ref="513051310"/>
    <nd ref="513051311"/>
    <nd ref="513051312"/>
    <nd ref="513051313"/>
    <nd ref="513051314"/>
    <nd ref="513051315"/>
    <nd ref="513051316"/>
    <nd ref="513051317"/>
    <nd ref="513051318"/>
    <nd ref="513051319"/>
    <nd ref="513051320"/>
    <nd ref="513051321"/>
    <nd ref="513051322"/>
    <nd ref="513051323"/>
    <nd ref="513051324"/>
    <nd ref="513051325"/>
    <nd ref="513051326"/>
    <nd ref="513051327"/>
    <nd ref="513051328"/>
    <nd ref="513051329"/>
    <tag k="highway" v="service"/>
  </way>
  <way id="41697092" version="3" timestamp="2011-12-04T10:31:11Z" uid="338866" user="tiger" changeset="10030986">
    <nd ref="513051292"/>
    <nd ref="513051293"/>
    <nd ref="513051298"/>
    <nd ref="513051300"/>
    <nd ref="513051306"/>
    <nd ref="513051307"/>
    <nd ref="513051311"/>
    <nd ref="513051313"/>
    <nd ref="513051314"/>
    <nd ref="513051315"/>
    <nd ref="513051319"/>
    <nd ref="513051321"/>
    <nd ref="513051323"/>
    <nd ref="513051327"/>
    <nd ref="513051329"/>
    <tag k="highway" v="service"/>
  </way>
  <way id="41697093" version="9" timestamp="2010-03-28T10:56:46Z" uid="20587" user="balrog-kun" changeset="4254597">
    <nd ref="54541220"/>
    <nd ref="513051343"/>
    <nd ref="513051344"/>
    <nd ref="513051345"/>
    <nd ref="513051362"/>
    <tag k="hgv" v="yes"/>
    <tag k="highway" v="primary"/>
    <tag k="lanes" v="3"/>
    <tag k="maxspeed" v="88"/>
    <tag k="name" v="Sierra Avenue"/>
    <tag k="oneway" v="yes"/>
    <tag k="source" v="survey;image;yahoo_imagry"/>
    <tag k="source_ref" v="AM909_DSCP9006"/>
    <tag k="tiger:cfcc" v="A41"/>
    <tag k="tiger:county" v="San Bernardino, CA"/>
    <tag k="tiger:name_base" v="Sierra"/>
    <tag k="tiger:name_type" v="Ave"/>
    <tag k="tiger:separated" v="no"/>
    <tag k="tiger:source" v="tiger_import_dch_v0.6_20070809"/>
    <tag k="tiger:tlid" v="144645601:144645607:144684359:144967385:145230679:145230680:144969324:144969326:144969327:144714144:144714145:144717928:144986765:144986766"/>
    <tag k="tiger:zip_left" v="92335"/>
    <tag k="tiger:zip_right" v="92337"/>
  </way>
  <way id="41697093" version="10" timestamp="2010-07-15T01:03:48Z" uid="82317" user="AM909" changeset="5223033">
    <nd ref="54541220"/>
    <nd ref="513051343"/>
    <nd ref="513051344"/>
    <nd ref="513051345"/>
    <nd ref="513051362"/>
    <tag k="hgv" v="yes"/>
    <tag k="highway" v="primary"/>
    <tag k="lanes" v="3"/>
    <tag k="maxspeed" v="55 mph"/>
    <tag k="name" v="Sierra Avenue"/>
    <tag k="oneway" v="yes"/>
    <tag k="source" v="survey;image;yahoo_imagry"/>
    <tag k="source_ref" v="AM909_DSCP9006"/>
    <tag k="tiger:cfcc" v="A41"/>
    <tag k="tiger:county" v="San Bernardino, CA"/>
    <tag k="tiger:name_base" v="Sierra"/>
    <tag k="tiger:name_type" v="Ave"/>
    <tag k="tiger:separated" v="no"/>
    <tag k="tiger:source" v="tiger_import_dch_v0.6_20070809"/>
    <tag k="tiger:tlid" v="144645601:144645607:144684359:144967385:145230679:145230680:144969324:144969326:144969327:144714144:144714145:144717928:144986765:144986766"/>
    <tag k="tiger:zip_left" v="92335"/>
    <tag k="tiger:zip_right" v="92337"/>
  </way>
  <way id="41697093" version="11" timestamp="2011-10-19T07:16:56Z" uid="82317" user="AM909" changeset="9597120">
    <nd ref="54541220"/>
    <nd ref="513051343"/>
    <nd ref="1472888146"/>
    <nd ref="54541225"/>
    <nd ref="1472888077"/>
    <nd ref="1472887143"/>
    <nd ref="54541232"/>
    <nd ref="1472887969"/>
    <nd ref="513051362"/>
    <tag k="hgv" v="yes"/>
    <tag k="highway" v="primary"/>
    <tag k="lanes" v="3"/>
    <tag k="maxspeed" v="55 mph"/>
    <tag k="name" v="Sierra Avenue"/>
    <tag k="oneway" v="yes"/>
    <tag k="source" v="survey;image;yahoo_imagry"/>
    <tag k="source:maxspeed" v="survey;image"/>
    <tag k="source_ref" v="AM909_DSCP9006"/>
    <tag k="source_ref:maxspeed" v="AM909_DSCY2299"/>
    <tag k="tiger:cfcc" v="A41"/>
    <tag k="tiger:county" v="San Bernardino, CA"/>
    <tag k="tiger:name_base" v="Sierra"/>
    <tag k="tiger:name_type" v="Ave"/>
    <tag k="tiger:separated" v="no"/>
    <tag k="tiger:source" v="tiger_import_dch_v0.6_20070809"/>
    <tag k="tiger:tlid" v="144645601:144645607:144684359:144967385:145230679:145230680:144969324:144969326:144969327:144714144:144714145:144717928:144986765:144986766"/>
    <tag k="tiger:zip_left" v="92335"/>
    <tag k="tiger:zip_right" v="92337"/>
  </way>
  <way id="41697097" version="5" timestamp="2010-03-28T10:56:46Z" uid="20587" user="balrog-kun" changeset="4254597">
    <nd ref="54541250"/>
    <nd ref="54541255"/>
    <nd ref="54541257"/>
    <nd ref="54541259"/>
    <nd ref="449822199"/>
    <nd ref="54541261"/>
    <nd ref="448954951"/>
    <nd ref="54541264"/>
    <nd ref="54541266"/>
    <nd ref="54541268"/>
    <nd ref="54541269"/>
    <nd ref="54541271"/>
    <nd ref="54541274"/>
    <nd ref="54541275"/>
    <nd ref="54541277"/>
    <nd ref="54541279"/>
    <nd ref="54541281"/>
    <nd ref="54541284"/>
    <nd ref="54541286"/>
    <nd ref="54541288"/>
    <nd ref="54541290"/>
    <nd ref="54541292"/>
    <nd ref="54541294"/>
    <nd ref="54541297"/>
    <nd ref="54541298"/>
    <nd ref="54526343"/>
    <nd ref="54541301"/>
    <nd ref="54541304"/>
    <nd ref="670793137"/>
    <nd ref="54541308"/>
    <nd ref="54541311"/>
    <nd ref="54541314"/>
    <nd ref="54541318"/>
    <nd ref="54541320"/>
    <nd ref="54481507"/>
    <nd ref="54541324"/>
    <nd ref="54541327"/>
    <nd ref="54541330"/>
    <nd ref="54541333"/>
    <nd ref="54541336"/>
    <nd ref="54541338"/>
    <nd ref="54345136"/>
    <nd ref="526772129"/>
    <tag k="highway" v="primary"/>
    <tag k="name" v="Sierra Avenue"/>
    <tag k="tiger:cfcc" v="A41"/>
    <tag k="tiger:county" v="San Bernardino, CA"/>
    <tag k="tiger:name_base" v="Sierra"/>
    <tag k="tiger:name_type" v="Ave"/>
    <tag k="tiger:separated" v="no"/>
    <tag k="tiger:source" v="tiger_import_dch_v0.6_20070809"/>
    <tag k="tiger:tlid" v="144645601:144645607:144684359:144967385:145230679:145230680:144969324:144969326:144969327:144714144:144714145:144717928:144986765:144986766"/>
    <tag k="tiger:zip_left" v="92335"/>
    <tag k="tiger:zip_right" v="92337"/>
  </way>
  <way id="41697097" version="6" timestamp="2011-01-04T13:57:04Z" uid="82317" user="AM909" changeset="6860813">
    <nd ref="54541250"/>
    <nd ref="54541255"/>
    <nd ref="54541257"/>
    <nd ref="54541259"/>
    <nd ref="449822199"/>
    <nd ref="54541261"/>
    <nd ref="448954951"/>
    <nd ref="54541264"/>
    <nd ref="54541266"/>
    <nd ref="54541268"/>
    <nd ref="54541269"/>
    <nd ref="54541271"/>
    <nd ref="54541274"/>
    <nd ref="54541275"/>
    <nd ref="54541277"/>
    <nd ref="54541279"/>
    <nd ref="54541281"/>
    <nd ref="54541284"/>
    <nd ref="54541286"/>
    <nd ref="54541288"/>
    <nd ref="54541290"/>
    <nd ref="54541292"/>
    <nd ref="54541294"/>
    <nd ref="54541297"/>
    <nd ref="54541298"/>
    <nd ref="54526343"/>
    <nd ref="54541301"/>
    <nd ref="54541304"/>
    <nd ref="670793137"/>
    <nd ref="54541308"/>
    <nd ref="54541311"/>
    <nd ref="54541314"/>
    <nd ref="54541318"/>
    <nd ref="54541320"/>
    <nd ref="54481507"/>
    <nd ref="54541324"/>
    <nd ref="54541327"/>
    <nd ref="54541330"/>
    <nd ref="54541333"/>
    <nd ref="54541336"/>
    <tag k="highway" v="primary"/>
    <tag k="name" v="Sierra Avenue"/>
    <tag k="source" v="bing_imagery_0.06m_200706"/>
    <tag k="tiger:cfcc" v="A41"/>
    <tag k="tiger:county" v="San Bernardino, CA"/>
    <tag k="tiger:name_base" v="Sierra"/>
    <tag k="tiger:name_type" v="Ave"/>
    <tag k="tiger:separated" v="no"/>
    <tag k="tiger:source" v="tiger_import_dch_v0.6_20070809"/>
    <tag k="tiger:tlid" v="144645601:144645607:144684359:144967385:145230679:145230680:144969324:144969326:144969327:144714144:144714145:144717928:144986765:144986766"/>
    <tag k="tiger:zip_left" v="92335"/>
    <tag k="tiger:zip_right" v="92337"/>
  </way>
  <way id="41697097" version="7" timestamp="2011-01-09T04:06:26Z" uid="12434" user="nm7s9" changeset="6911673">
    <nd ref="54541250"/>
    <nd ref="54541255"/>
    <nd ref="1093156195"/>
    <nd ref="54541257"/>
    <nd ref="54541259"/>
    <nd ref="449822199"/>
    <nd ref="54541261"/>
    <nd ref="448954951"/>
    <nd ref="54541264"/>
    <nd ref="54541266"/>
    <nd ref="54541268"/>
    <nd ref="54541269"/>
    <nd ref="54541271"/>
    <nd ref="54541274"/>
    <nd ref="54541275"/>
    <nd ref="54541277"/>
    <nd ref="54541279"/>
    <nd ref="54541281"/>
    <nd ref="54541284"/>
    <nd ref="54541286"/>
    <nd ref="54541288"/>
    <nd ref="54541290"/>
    <nd ref="54541292"/>
    <nd ref="54541294"/>
    <nd ref="54541297"/>
    <nd ref="54541298"/>
    <nd ref="54526343"/>
    <nd ref="54541301"/>
    <nd ref="54541304"/>
    <nd ref="670793137"/>
    <nd ref="54541308"/>
    <nd ref="54541311"/>
    <nd ref="54541314"/>
    <nd ref="54541318"/>
    <nd ref="54541320"/>
    <nd ref="54481507"/>
    <nd ref="54541324"/>
    <nd ref="54541327"/>
    <nd ref="54541330"/>
    <nd ref="54541333"/>
    <nd ref="54541336"/>
    <tag k="highway" v="primary"/>
    <tag k="name" v="Sierra Avenue"/>
    <tag k="source" v="bing_imagery_0.06m_200706"/>
    <tag k="tiger:cfcc" v="A41"/>
    <tag k="tiger:county" v="San Bernardino, CA"/>
    <tag k="tiger:name_base" v="Sierra"/>
    <tag k="tiger:name_type" v="Ave"/>
    <tag k="tiger:separated" v="no"/>
    <tag k="tiger:source" v="tiger_import_dch_v0.6_20070809"/>
    <tag k="tiger:tlid" v="144645601:144645607:144684359:144967385:145230679:145230680:144969324:144969326:144969327:144714144:144714145:144717928:144986765:144986766"/>
    <tag k="tiger:zip_left" v="92335"/>
    <tag k="tiger:zip_right" v="92337"/>
  </way>
  <way id="41697097" version="8" timestamp="2012-01-08T06:18:34Z" uid="92286" user="Paul Johnson" changeset="10328251">
    <nd ref="54541250"/>
    <nd ref="54541255"/>
    <nd ref="1093156195"/>
    <nd ref="54541257"/>
    <nd ref="54541259"/>
    <nd ref="449822199"/>
    <nd ref="54541261"/>
    <nd ref="448954951"/>
    <nd ref="54541264"/>
    <nd ref="54541266"/>
    <nd ref="54541268"/>
    <nd ref="54541269"/>
    <nd ref="54541271"/>
    <nd ref="54541274"/>
    <nd ref="54541275"/>
    <nd ref="54541277"/>
    <nd ref="54541279"/>
    <nd ref="54541281"/>
    <nd ref="54541284"/>
    <nd ref="54541286"/>
    <nd ref="54541288"/>
    <nd ref="54541290"/>
    <nd ref="54541292"/>
    <nd ref="1582172688"/>
    <nd ref="54541297"/>
    <nd ref="54541298"/>
    <nd ref="54526343"/>
    <nd ref="54541301"/>
    <nd ref="54541304"/>
    <nd ref="670793137"/>
    <nd ref="54541308"/>
    <nd ref="54541311"/>
    <nd ref="54541314"/>
    <nd ref="54541318"/>
    <nd ref="54541320"/>
    <nd ref="54481507"/>
    <nd ref="54541324"/>
    <nd ref="54541327"/>
    <nd ref="54541330"/>
    <nd ref="54541333"/>
    <nd ref="54541336"/>
    <tag k="highway" v="primary"/>
    <tag k="name" v="Sierra Avenue"/>
    <tag k="source" v="bing_imagery_0.06m_200706"/>
    <tag k="tiger:cfcc" v="A41"/>
    <tag k="tiger:county" v="San Bernardino, CA"/>
    <tag k="tiger:name_base" v="Sierra"/>
    <tag k="tiger:name_type" v="Ave"/>
    <tag k="tiger:separated" v="no"/>
    <tag k="tiger:source" v="tiger_import_dch_v0.6_20070809"/>
    <tag k="tiger:tlid" v="144645601:144645607:144684359:144967385:145230679:145230680:144969324:144969326:144969327:144714144:144714145:144717928:144986765:144986766"/>
    <tag k="tiger:zip_left" v="92335"/>
    <tag k="tiger:zip_right" v="92337"/>
  </way>
  <way id="41697099" version="5" timestamp="2010-03-28T10:56:47Z" uid="20587" user="balrog-kun" changeset="4254597">
    <nd ref="54541250"/>
    <nd ref="513051274"/>
    <nd ref="54541241"/>
    <nd ref="513052064"/>
    <nd ref="513050915"/>
    <nd ref="513051342"/>
    <tag k="highway" v="primary"/>
    <tag k="name" v="Sierra Avenue"/>
    <tag k="oneway" v="yes"/>
    <tag k="tiger:cfcc" v="A41"/>
    <tag k="tiger:county" v="San Bernardino, CA"/>
    <tag k="tiger:name_base" v="Sierra"/>
    <tag k="tiger:name_type" v="Ave"/>
    <tag k="tiger:separated" v="no"/>
    <tag k="tiger:source" v="tiger_import_dch_v0.6_20070809"/>
    <tag k="tiger:tlid" v="144645601:144645607:144684359:144967385:145230679:145230680:144969324:144969326:144969327:144714144:144714145:144717928:144986765:144986766"/>
    <tag k="tiger:zip_left" v="92335"/>
    <tag k="tiger:zip_right" v="92337"/>
  </way>
  <way id="41697101" version="4" timestamp="2010-03-28T10:56:47Z" uid="20587" user="balrog-kun" changeset="4254597">
    <nd ref="513051341"/>
    <nd ref="513051273"/>
    <nd ref="54541232"/>
    <nd ref="54541230"/>
    <nd ref="54541225"/>
    <nd ref="54541223"/>
    <nd ref="513051340"/>
    <nd ref="54541220"/>
    <tag k="hgv" v="yes"/>
    <tag k="highway" v="primary"/>
    <tag k="lanes" v="3"/>
    <tag k="maxspeed" v="88"/>
    <tag k="name" v="Sierra Avenue"/>
    <tag k="oneway" v="yes"/>
    <tag k="source" v="survey;image;yahoo_imagry"/>
    <tag k="source_ref" v="AM909_DSCP9006"/>
    <tag k="tiger:cfcc" v="A41"/>
    <tag k="tiger:county" v="San Bernardino, CA"/>
    <tag k="tiger:name_base" v="Sierra"/>
    <tag k="tiger:name_type" v="Ave"/>
    <tag k="tiger:separated" v="no"/>
    <tag k="tiger:source" v="tiger_import_dch_v0.6_20070809"/>
    <tag k="tiger:tlid" v="144645601:144645607:144684359:144967385:145230679:145230680:144969324:144969326:144969327:144714144:144714145:144717928:144986765:144986766"/>
    <tag k="tiger:zip_left" v="92335"/>
    <tag k="tiger:zip_right" v="92337"/>
  </way>
  <way id="41697101" version="5" timestamp="2010-07-15T01:05:36Z" uid="82317" user="AM909" changeset="5223033">
    <nd ref="513051341"/>
    <nd ref="513051273"/>
    <nd ref="54541232"/>
    <nd ref="54541230"/>
    <nd ref="54541225"/>
    <nd ref="54541223"/>
    <nd ref="513051340"/>
    <nd ref="54541220"/>
    <tag k="hgv" v="yes"/>
    <tag k="highway" v="primary"/>
    <tag k="lanes" v="3"/>
    <tag k="maxspeed" v="55 mph"/>
    <tag k="name" v="Sierra Avenue"/>
    <tag k="oneway" v="yes"/>
    <tag k="source" v="survey;image;yahoo_imagry"/>
    <tag k="source_ref" v="AM909_DSCP9006"/>
    <tag k="tiger:cfcc" v="A41"/>
    <tag k="tiger:county" v="San Bernardino, CA"/>
    <tag k="tiger:name_base" v="Sierra"/>
    <tag k="tiger:name_type" v="Ave"/>
    <tag k="tiger:separated" v="no"/>
    <tag k="tiger:source" v="tiger_import_dch_v0.6_20070809"/>
    <tag k="tiger:tlid" v="144645601:144645607:144684359:144967385:145230679:145230680:144969324:144969326:144969327:144714144:144714145:144717928:144986765:144986766"/>
    <tag k="tiger:zip_left" v="92335"/>
    <tag k="tiger:zip_right" v="92337"/>
  </way>
  <way id="41697101" version="6" timestamp="2011-10-19T07:17:42Z" uid="82317" user="AM909" changeset="9597120">
    <nd ref="513051341"/>
    <nd ref="513051273"/>
    <nd ref="1472889145"/>
    <nd ref="54541232"/>
    <nd ref="1472886518"/>
    <nd ref="54541230"/>
    <nd ref="1472888469"/>
    <nd ref="54541225"/>
    <nd ref="1472886358"/>
    <nd ref="54541223"/>
    <nd ref="1472887914"/>
    <nd ref="513051340"/>
    <nd ref="54541220"/>
    <tag k="hgv" v="yes"/>
    <tag k="highway" v="primary"/>
    <tag k="lanes" v="3"/>
    <tag k="maxspeed" v="55 mph"/>
    <tag k="name" v="Sierra Avenue"/>
    <tag k="oneway" v="yes"/>
    <tag k="source" v="survey;image;yahoo_imagry"/>
    <tag k="source_ref" v="AM909_DSCP9006"/>
    <tag k="tiger:cfcc" v="A41"/>
    <tag k="tiger:county" v="San Bernardino, CA"/>
    <tag k="tiger:name_base" v="Sierra"/>
    <tag k="tiger:name_type" v="Ave"/>
    <tag k="tiger:separated" v="no"/>
    <tag k="tiger:source" v="tiger_import_dch_v0.6_20070809"/>
    <tag k="tiger:tlid" v="144645601:144645607:144684359:144967385:145230679:145230680:144969324:144969326:144969327:144714144:144714145:144717928:144986765:144986766"/>
    <tag k="tiger:zip_left" v="92335"/>
    <tag k="tiger:zip_right" v="92337"/>
  </way>
  <way id="41697102" version="4" timestamp="2010-03-28T10:56:48Z" uid="20587" user="balrog-kun" changeset="4254597">
    <nd ref="513051342"/>
    <nd ref="513051407"/>
    <nd ref="513051341"/>
    <tag k="bridge" v="yes"/>
    <tag k="highway" v="primary"/>
    <tag k="layer" v="1"/>
    <tag k="name" v="Sierra Avenue"/>
    <tag k="oneway" v="yes"/>
    <tag k="tiger:cfcc" v="A41"/>
    <tag k="tiger:county" v="San Bernardino, CA"/>
    <tag k="tiger:name_base" v="Sierra"/>
    <tag k="tiger:name_type" v="Ave"/>
    <tag k="tiger:separated" v="no"/>
    <tag k="tiger:source" v="tiger_import_dch_v0.6_20070809"/>
    <tag k="tiger:tlid" v="144645601:144645607:144684359:144967385:145230679:145230680:144969324:144969326:144969327:144714144:144714145:144717928:144986765:144986766"/>
    <tag k="tiger:zip_left" v="92335"/>
    <tag k="tiger:zip_right" v="92337"/>
  </way>
  <way id="41697104" version="5" timestamp="2010-03-28T10:56:48Z" uid="20587" user="balrog-kun" changeset="4254597">
    <nd ref="513051347"/>
    <nd ref="513051834"/>
    <nd ref="513051348"/>
    <tag k="bridge" v="yes"/>
    <tag k="highway" v="primary"/>
    <tag k="layer" v="1"/>
    <tag k="name" v="Sierra Avenue"/>
    <tag k="oneway" v="yes"/>
    <tag k="tiger:cfcc" v="A41"/>
    <tag k="tiger:county" v="San Bernardino, CA"/>
    <tag k="tiger:name_base" v="Sierra"/>
    <tag k="tiger:name_type" v="Ave"/>
    <tag k="tiger:separated" v="no"/>
    <tag k="tiger:source" v="tiger_import_dch_v0.6_20070809"/>
    <tag k="tiger:tlid" v="144645601:144645607:144684359:144967385:145230679:145230680:144969324:144969326:144969327:144714144:144714145:144717928:144986765:144986766"/>
    <tag k="tiger:zip_left" v="92335"/>
    <tag k="tiger:zip_right" v="92337"/>
  </way>
  <way id="41697105" version="2" timestamp="2010-03-28T10:56:49Z" uid="20587" user="balrog-kun" changeset="4254597">
    <nd ref="513051348"/>
    <nd ref="513051349"/>
    <nd ref="513051350"/>
    <nd ref="513051351"/>
    <nd ref="54541250"/>
    <tag k="highway" v="primary"/>
    <tag k="name" v="Sierra Avenue"/>
    <tag k="oneway" v="yes"/>
    <tag k="tiger:cfcc" v="A41"/>
    <tag k="tiger:county" v="San Bernardino, CA"/>
    <tag k="tiger:name_base" v="Sierra"/>
    <tag k="tiger:name_type" v="Ave"/>
    <tag k="tiger:separated" v="no"/>
    <tag k="tiger:source" v="tiger_import_dch_v0.6_20070809"/>
    <tag k="tiger:tlid" v="144645601:144645607:144684359:144967385:145230679:145230680:144969324:144969326:144969327:144714144:144714145:144717928:144986765:144986766"/>
    <tag k="tiger:zip_left" v="92335"/>
    <tag k="tiger:zip_right" v="92337"/>
  </way>
  <way id="41697128" version="3" timestamp="2010-06-02T00:52:01Z" uid="4467" user="Rosscoe" changeset="4879901">
    <nd ref="513051541"/>
    <nd ref="513051545"/>
    <nd ref="513051546"/>
    <tag k="highway" v="residential"/>
    <tag k="name" v="Eddy Street"/>
  </way>
  <way id="41697128" version="4" timestamp="2011-04-14T06:01:35Z" uid="22094" user="Chadzopkyo" changeset="7857755"/>
  <way id="41697132" version="4" timestamp="2010-06-02T01:50:48Z" uid="4467" user="Rosscoe" changeset="4880040">
    <nd ref="665690716"/>
    <nd ref="513051610"/>
    <nd ref="513051611"/>
    <nd ref="513051612"/>
    <nd ref="513051613"/>
    <nd ref="513051614"/>
    <nd ref="513051615"/>
    <nd ref="513051616"/>
    <nd ref="513051617"/>
    <nd ref="513051618"/>
    <nd ref="513051619"/>
    <nd ref="513051620"/>
    <nd ref="513051621"/>
    <nd ref="513051622"/>
    <nd ref="513051623"/>
    <nd ref="513051624"/>
    <nd ref="513051625"/>
    <nd ref="513051627"/>
    <nd ref="513051628"/>
    <nd ref="513051629"/>
    <nd ref="513051630"/>
    <nd ref="513051631"/>
    <nd ref="513051632"/>
    <nd ref="513051633"/>
    <nd ref="513051634"/>
    <nd ref="513051635"/>
    <nd ref="513051636"/>
    <tag k="highway" v="unclassified"/>
    <tag k="name" v="Rainbow Yaapeet Road"/>
  </way>
  <way id="41697188" version="1" timestamp="2009-09-29T05:25:24Z" uid="172440" user="glen20" changeset="2672910">
    <nd ref="513052251"/>
    <nd ref="513052253"/>
    <nd ref="513052255"/>
    <nd ref="513052256"/>
    <nd ref="513052257"/>
    <nd ref="513052258"/>
    <nd ref="513052259"/>
    <nd ref="513052260"/>
    <nd ref="513052261"/>
    <nd ref="513052262"/>
    <nd ref="513052263"/>
    <nd ref="513052264"/>
    <nd ref="513052265"/>
    <nd ref="513052266"/>
    <nd ref="513052267"/>
    <nd ref="513052268"/>
    <nd ref="513052269"/>
    <nd ref="513052270"/>
    <nd ref="513052271"/>
    <nd ref="513051292"/>
    <tag k="highway" v="residential"/>
    <tag k="name" v="Lawson Street"/>
  </way>
  <way id="41697188" version="2" timestamp="2009-10-02T01:45:47Z" uid="103574" user="Fairfield" changeset="2707387">
    <nd ref="513052251"/>
    <nd ref="513052253"/>
    <nd ref="513052255"/>
    <nd ref="513052256"/>
    <nd ref="513052259"/>
    <nd ref="513052260"/>
    <nd ref="513052261"/>
    <nd ref="513052262"/>
    <nd ref="513052263"/>
    <nd ref="513052264"/>
    <nd ref="513052265"/>
    <nd ref="513052266"/>
    <nd ref="513052267"/>
    <nd ref="513052268"/>
    <nd ref="513052269"/>
    <nd ref="513052270"/>
    <nd ref="513052271"/>
    <nd ref="513051292"/>
    <tag k="highway" v="residential"/>
    <tag k="name" v="Lawson Street"/>
  </way>
  <way id="41697188" version="3" timestamp="2009-10-02T01:47:55Z" uid="103574" user="Fairfield" changeset="2707387">
    <nd ref="513052253"/>
    <nd ref="513052255"/>
    <nd ref="513052256"/>
    <nd ref="513052259"/>
    <nd ref="513052260"/>
    <nd ref="513052261"/>
    <nd ref="513052262"/>
    <nd ref="513052263"/>
    <nd ref="513052264"/>
    <nd ref="513052265"/>
    <nd ref="513052266"/>
    <nd ref="513052267"/>
    <nd ref="513052268"/>
    <nd ref="513052269"/>
    <nd ref="513052270"/>
    <nd ref="513052271"/>
    <nd ref="513051292"/>
    <tag k="highway" v="residential"/>
    <tag k="name" v="Lawson Street"/>
  </way>
  <way id="41697188" version="4" timestamp="2009-11-06T00:48:20Z" uid="24459" user="RRover" changeset="3045035">
    <nd ref="513052253"/>
    <nd ref="557371010"/>
    <nd ref="513052255"/>
    <nd ref="513052256"/>
    <nd ref="513052259"/>
    <nd ref="513052260"/>
    <nd ref="513052261"/>
    <nd ref="513052262"/>
    <nd ref="513052263"/>
    <nd ref="513052264"/>
    <nd ref="513052265"/>
    <nd ref="513052266"/>
    <nd ref="513052267"/>
    <nd ref="513052268"/>
    <nd ref="513052269"/>
    <nd ref="513052270"/>
    <nd ref="513052271"/>
    <nd ref="513051292"/>
    <tag k="highway" v="residential"/>
    <tag k="name" v="Lawson Street"/>
  </way>
  <way id="41697198" version="4" timestamp="2010-07-09T05:01:27Z" uid="74617" user="JohnSmith" changeset="5170972">
    <nd ref="246372955"/>
    <nd ref="529837934"/>
    <nd ref="529836164"/>
    <nd ref="246372455"/>
    <nd ref="529836158"/>
    <nd ref="246372960"/>
    <tag k="highway" v="residential"/>
    <tag k="maxspeed" v="50"/>
    <tag k="maxspeed:source" v="default residential speed limit in Australia"/>
    <tag k="name" v="Tivoli Road"/>
  </way>
  <way id="41697198" version="5" timestamp="2012-01-19T05:14:34Z" uid="147510" user="woodpeck_fixbot" changeset="10433866">
    <nd ref="246372955"/>
    <nd ref="529837934"/>
    <nd ref="529836164"/>
    <nd ref="246372455"/>
    <nd ref="529836158"/>
    <nd ref="246372960"/>
    <tag k="highway" v="residential"/>
    <tag k="name" v="Tivoli Road"/>
  </way>
  <way id="41697199" version="3" timestamp="2010-07-09T05:03:21Z" uid="74617" user="JohnSmith" changeset="5170972">
    <nd ref="513052307"/>
    <nd ref="577456417"/>
    <nd ref="577456416"/>
    <nd ref="513052308"/>
    <nd ref="513052309"/>
    <tag k="highway" v="residential"/>
    <tag k="maxspeed" v="50"/>
    <tag k="maxspeed:source" v="default residential speed limit in Australia"/>
    <tag k="name" v="Forster Street"/>
  </way>
  <way id="41697199" version="4" timestamp="2011-09-05T03:31:57Z" uid="288568" user="nickbarker" changeset="9214099">
    <nd ref="513052307"/>
    <nd ref="577456417"/>
    <nd ref="577456416"/>
    <nd ref="513052308"/>
    <nd ref="1423628263"/>
    <nd ref="513052309"/>
    <tag k="highway" v="residential"/>
    <tag k="maxspeed" v="50"/>
    <tag k="maxspeed:source" v="default residential speed limit in Australia"/>
    <tag k="name" v="Forster Street"/>
  </way>
  <way id="41697199" version="5" timestamp="2012-01-19T05:14:36Z" uid="147510" user="woodpeck_fixbot" changeset="10433866">
    <nd ref="513052307"/>
    <nd ref="577456417"/>
    <nd ref="577456416"/>
    <nd ref="513052308"/>
    <nd ref="1423628263"/>
    <nd ref="513052309"/>
    <tag k="highway" v="residential"/>
    <tag k="name" v="Forster Street"/>
  </way>
  <way id="41697200" version="4" timestamp="2010-07-09T04:54:06Z" uid="74617" user="JohnSmith" changeset="5170972">
    <nd ref="246850909"/>
    <nd ref="577456433"/>
    <nd ref="577456432"/>
    <nd ref="246850908"/>
    <nd ref="577456431"/>
    <nd ref="246371118"/>
    <tag k="highway" v="residential"/>
    <tag k="maxspeed" v="50"/>
    <tag k="maxspeed:source" v="default residential speed limit in Australia"/>
    <tag k="name" v="Surrey Road North"/>
    <tag k="oneway" v="yes"/>
  </way>
  <way id="41697200" version="5" timestamp="2011-09-05T03:31:58Z" uid="288568" user="nickbarker" changeset="9214099">
    <nd ref="246850909"/>
    <nd ref="1423628256"/>
    <nd ref="577456433"/>
    <nd ref="577456432"/>
    <nd ref="246850908"/>
    <nd ref="577456431"/>
    <nd ref="246371118"/>
    <tag k="highway" v="residential"/>
    <tag k="maxspeed" v="50"/>
    <tag k="maxspeed:source" v="default residential speed limit in Australia"/>
    <tag k="name" v="Surrey Road North"/>
    <tag k="oneway" v="yes"/>
  </way>
  <way id="41697200" version="6" timestamp="2012-01-19T05:14:37Z" uid="147510" user="woodpeck_fixbot" changeset="10433866">
    <nd ref="246850909"/>
    <nd ref="1423628256"/>
    <nd ref="577456433"/>
    <nd ref="577456432"/>
    <nd ref="246850908"/>
    <nd ref="577456431"/>
    <nd ref="246371118"/>
    <tag k="highway" v="residential"/>
    <tag k="name" v="Surrey Road North"/>
    <tag k="oneway" v="yes"/>
  </way>
  <way id="41697207" version="7" timestamp="2010-03-28T10:56:49Z" uid="20587" user="balrog-kun" changeset="4254597">
    <nd ref="299207430"/>
    <nd ref="513053136"/>
    <tag k="highway" v="motorway"/>
    <tag k="lanes" v="4"/>
    <tag k="layer" v="1"/>
    <tag k="maxspeed" v="105"/>
    <tag k="name" v="Congressman George E. Brown, Jr. Mem. Highway"/>
    <tag k="name_1" v="Foothill Freeway"/>
    <tag k="oneway" v="yes"/>
    <tag k="ref" v="CA 210"/>
    <tag k="source" v="yahoo_imagery;CDOT"/>
  </way>
  <way id="41697207" version="8" timestamp="2010-07-15T01:06:47Z" uid="82317" user="AM909" changeset="5223033">
    <nd ref="299207430"/>
    <nd ref="513053136"/>
    <tag k="highway" v="motorway"/>
    <tag k="lanes" v="4"/>
    <tag k="layer" v="1"/>
    <tag k="maxspeed" v="65 mph"/>
    <tag k="name" v="Congressman George E. Brown, Jr. Mem. Highway"/>
    <tag k="name_1" v="Foothill Freeway"/>
    <tag k="oneway" v="yes"/>
    <tag k="ref" v="CA 210"/>
    <tag k="source" v="yahoo_imagery;CDOT"/>
  </way>
  <way id="41697207" version="9" timestamp="2011-06-27T05:45:11Z" uid="351693" user="ctr112280" changeset="8558517">
    <nd ref="299207430"/>
    <nd ref="1340806132"/>
    <nd ref="513053136"/>
    <tag k="highway" v="motorway"/>
    <tag k="lanes" v="4"/>
    <tag k="layer" v="1"/>
    <tag k="maxspeed" v="65 mph"/>
    <tag k="name" v="Congressman George E. Brown, Jr. Mem. Highway"/>
    <tag k="name_1" v="Foothill Freeway"/>
    <tag k="oneway" v="yes"/>
    <tag k="ref" v="CA 210"/>
    <tag k="source" v="yahoo_imagery;CDOT"/>
  </way>
  <way id="41697207" version="10" timestamp="2011-07-03T22:07:03Z" uid="4951" user="PeterIto" changeset="8624573">
    <nd ref="299207430"/>
    <nd ref="1340806132"/>
    <nd ref="513053136"/>
    <tag k="highway" v="motorway"/>
    <tag k="lanes" v="4"/>
    <tag k="maxspeed" v="65 mph"/>
    <tag k="name" v="Congressman George E. Brown, Jr. Mem. Highway"/>
    <tag k="name_1" v="Foothill Freeway"/>
    <tag k="oneway" v="yes"/>
    <tag k="ref" v="CA 210"/>
    <tag k="source" v="yahoo_imagery;CDOT"/>
  </way>
  <way id="41697207" version="11" timestamp="2011-07-29T14:31:04Z" uid="207745" user="NE2" changeset="8863873">
    <nd ref="299207430"/>
    <nd ref="1340806132"/>
    <nd ref="513053136"/>
    <tag k="highway" v="motorway"/>
    <tag k="hov" v="lane"/>
    <tag k="lanes" v="4"/>
    <tag k="maxspeed" v="65 mph"/>
    <tag k="name" v="Congressman George E. Brown, Jr. Mem. Highway"/>
    <tag k="name_1" v="Foothill Freeway"/>
    <tag k="note:lanes" v="left lane is hov"/>
    <tag k="oneway" v="yes"/>
    <tag k="ref" v="CA 210"/>
    <tag k="source" v="yahoo_imagery;CDOT"/>
  </way>
  <way id="41697207" version="12" timestamp="2011-12-01T02:10:25Z" uid="92286" user="Paul Johnson" changeset="10004810">
    <nd ref="299207430"/>
    <nd ref="1340806132"/>
    <nd ref="513053136"/>
    <tag k="highway" v="motorway"/>
    <tag k="hov" v="lane"/>
    <tag k="lanes" v="4"/>
    <tag k="maxspeed" v="65 mph"/>
    <tag k="name" v="Congressman George Edward Brown, Junior Mememorial Highway"/>
    <tag k="name_1" v="Foothill Freeway"/>
    <tag k="note:lanes" v="left lane is hov"/>
    <tag k="oneway" v="yes"/>
    <tag k="ref" v="CA 210"/>
    <tag k="source" v="yahoo_imagery;CDOT"/>
  </way>
  <way id="41697208" version="5" timestamp="2010-03-28T10:56:49Z" uid="20587" user="balrog-kun" changeset="4254597">
    <nd ref="299207429"/>
    <nd ref="299207430"/>
    <tag k="bridge" v="yes"/>
    <tag k="highway" v="motorway"/>
    <tag k="lanes" v="4"/>
    <tag k="layer" v="1"/>
    <tag k="maxspeed" v="105"/>
    <tag k="name" v="Congressman George E. Brown, Jr. Mem. Highway"/>
    <tag k="name_1" v="Foothill Freeway"/>
    <tag k="oneway" v="yes"/>
    <tag k="ref" v="CA 210"/>
    <tag k="source" v="yahoo_imagery;CDOT"/>
  </way>
  <way id="41697208" version="6" timestamp="2010-07-15T01:03:08Z" uid="82317" user="AM909" changeset="5223033">
    <nd ref="299207429"/>
    <nd ref="299207430"/>
    <tag k="bridge" v="yes"/>
    <tag k="highway" v="motorway"/>
    <tag k="lanes" v="4"/>
    <tag k="layer" v="1"/>
    <tag k="maxspeed" v="65 mph"/>
    <tag k="name" v="Congressman George E. Brown, Jr. Mem. Highway"/>
    <tag k="name_1" v="Foothill Freeway"/>
    <tag k="oneway" v="yes"/>
    <tag k="ref" v="CA 210"/>
    <tag k="source" v="yahoo_imagery;CDOT"/>
  </way>
  <way id="41697208" version="7" timestamp="2011-07-29T14:30:55Z" uid="207745" user="NE2" changeset="8863873">
    <nd ref="299207429"/>
    <nd ref="299207430"/>
    <tag k="bridge" v="yes"/>
    <tag k="highway" v="motorway"/>
    <tag k="hov" v="lane"/>
    <tag k="lanes" v="4"/>
    <tag k="layer" v="1"/>
    <tag k="maxspeed" v="65 mph"/>
    <tag k="name" v="Congressman George E. Brown, Jr. Mem. Highway"/>
    <tag k="name_1" v="Foothill Freeway"/>
    <tag k="note:lanes" v="left lane is hov"/>
    <tag k="oneway" v="yes"/>
    <tag k="ref" v="CA 210"/>
    <tag k="source" v="yahoo_imagery;CDOT"/>
  </way>
  <way id="41697208" version="8" timestamp="2011-12-01T02:09:56Z" uid="92286" user="Paul Johnson" changeset="10004810">
    <nd ref="299207429"/>
    <nd ref="299207430"/>
    <tag k="bridge" v="yes"/>
    <tag k="highway" v="motorway"/>
    <tag k="hov" v="lane"/>
    <tag k="lanes" v="4"/>
    <tag k="layer" v="1"/>
    <tag k="maxspeed" v="65 mph"/>
    <tag k="name" v="Congressman George Edward Brown, Junior Mememorial Highway"/>
    <tag k="name_1" v="Foothill Freeway"/>
    <tag k="note:lanes" v="left lane is hov"/>
    <tag k="oneway" v="yes"/>
    <tag k="ref" v="CA 210"/>
    <tag k="source" v="yahoo_imagery;CDOT"/>
  </way>
  <way id="41697224" version="4" timestamp="2010-03-28T10:56:49Z" uid="20587" user="balrog-kun" changeset="4254597">
    <nd ref="299206408"/>
    <nd ref="299206410"/>
    <nd ref="299206411"/>
    <nd ref="418624791"/>
    <tag k="highway" v="motorway"/>
    <tag k="lanes" v="4"/>
    <tag k="layer" v="1"/>
    <tag k="maxspeed" v="105"/>
    <tag k="name" v="Congressman George E. Brown, Jr. Mem. Highway"/>
    <tag k="name_1" v="Foothill Freeway"/>
    <tag k="oneway" v="yes"/>
    <tag k="ref" v="CA 210"/>
    <tag k="source" v="yahoo_imagery;CDOT"/>
  </way>
  <way id="41697224" version="5" timestamp="2010-07-15T01:02:54Z" uid="82317" user="AM909" changeset="5223033">
    <nd ref="299206408"/>
    <nd ref="299206410"/>
    <nd ref="299206411"/>
    <nd ref="418624791"/>
    <tag k="highway" v="motorway"/>
    <tag k="lanes" v="4"/>
    <tag k="layer" v="1"/>
    <tag k="maxspeed" v="65 mph"/>
    <tag k="name" v="Congressman George E. Brown, Jr. Mem. Highway"/>
    <tag k="name_1" v="Foothill Freeway"/>
    <tag k="oneway" v="yes"/>
    <tag k="ref" v="CA 210"/>
    <tag k="source" v="yahoo_imagery;CDOT"/>
  </way>
  <way id="41697224" version="6" timestamp="2010-12-24T15:37:28Z" uid="82317" user="AM909" changeset="6755444">
    <nd ref="299206408"/>
    <nd ref="299206410"/>
    <nd ref="418624791"/>
    <tag k="highway" v="motorway"/>
    <tag k="lanes" v="4"/>
    <tag k="layer" v="1"/>
    <tag k="maxspeed" v="65 mph"/>
    <tag k="name" v="Congressman George E. Brown, Jr. Mem. Highway"/>
    <tag k="name_1" v="Foothill Freeway"/>
    <tag k="oneway" v="yes"/>
    <tag k="ref" v="CA 210"/>
    <tag k="source" v="yahoo_imagery;CDOT"/>
  </way>
  <way id="41697224" version="7" timestamp="2011-06-27T05:45:11Z" uid="351693" user="ctr112280" changeset="8558517">
    <nd ref="299206408"/>
    <nd ref="299206410"/>
    <nd ref="1340806173"/>
    <nd ref="418624791"/>
    <tag k="highway" v="motorway"/>
    <tag k="lanes" v="4"/>
    <tag k="layer" v="1"/>
    <tag k="maxspeed" v="65 mph"/>
    <tag k="name" v="Congressman George E. Brown, Jr. Mem. Highway"/>
    <tag k="name_1" v="Foothill Freeway"/>
    <tag k="oneway" v="yes"/>
    <tag k="ref" v="CA 210"/>
    <tag k="source" v="yahoo_imagery;CDOT"/>
  </way>
  <way id="41697224" version="8" timestamp="2011-07-03T22:07:03Z" uid="4951" user="PeterIto" changeset="8624573">
    <nd ref="299206408"/>
    <nd ref="299206410"/>
    <nd ref="1340806173"/>
    <nd ref="418624791"/>
    <tag k="highway" v="motorway"/>
    <tag k="lanes" v="4"/>
    <tag k="maxspeed" v="65 mph"/>
    <tag k="name" v="Congressman George E. Brown, Jr. Mem. Highway"/>
    <tag k="name_1" v="Foothill Freeway"/>
    <tag k="oneway" v="yes"/>
    <tag k="ref" v="CA 210"/>
    <tag k="source" v="yahoo_imagery;CDOT"/>
  </way>
  <way id="41697224" version="9" timestamp="2011-07-29T14:31:09Z" uid="207745" user="NE2" changeset="8863873">
    <nd ref="299206408"/>
    <nd ref="299206410"/>
    <nd ref="1340806173"/>
    <nd ref="418624791"/>
    <tag k="highway" v="motorway"/>
    <tag k="hov" v="lane"/>
    <tag k="lanes" v="4"/>
    <tag k="maxspeed" v="65 mph"/>
    <tag k="name" v="Congressman George E. Brown, Jr. Mem. Highway"/>
    <tag k="name_1" v="Foothill Freeway"/>
    <tag k="note:lanes" v="left lane is hov"/>
    <tag k="oneway" v="yes"/>
    <tag k="ref" v="CA 210"/>
    <tag k="source" v="yahoo_imagery;CDOT"/>
  </way>
  <way id="41697224" version="10" timestamp="2011-12-01T02:10:30Z" uid="92286" user="Paul Johnson" changeset="10004810">
    <nd ref="299206408"/>
    <nd ref="299206410"/>
    <nd ref="1340806173"/>
    <nd ref="418624791"/>
    <tag k="highway" v="motorway"/>
    <tag k="hov" v="lane"/>
    <tag k="lanes" v="4"/>
    <tag k="maxspeed" v="65 mph"/>
    <tag k="name" v="Congressman George Edward Brown, Junior Mememorial Highway"/>
    <tag k="name_1" v="Foothill Freeway"/>
    <tag k="note:lanes" v="left lane is hov"/>
    <tag k="oneway" v="yes"/>
    <tag k="ref" v="CA 210"/>
    <tag k="source" v="yahoo_imagery;CDOT"/>
  </way>
  <way id="41697229" version="5" timestamp="2010-03-28T10:56:50Z" uid="20587" user="balrog-kun" changeset="4254597">
    <nd ref="299206407"/>
    <nd ref="299206408"/>
    <tag k="bridge" v="yes"/>
    <tag k="highway" v="motorway"/>
    <tag k="lanes" v="4"/>
    <tag k="layer" v="1"/>
    <tag k="maxspeed" v="105"/>
    <tag k="name" v="Congressman George E. Brown, Jr. Mem. Highway"/>
    <tag k="name_1" v="Foothill Freeway"/>
    <tag k="oneway" v="yes"/>
    <tag k="ref" v="CA 210"/>
    <tag k="source" v="yahoo_imagery;CDOT"/>
  </way>
  <way id="41697229" version="6" timestamp="2010-07-15T01:05:04Z" uid="82317" user="AM909" changeset="5223033">
    <nd ref="299206407"/>
    <nd ref="299206408"/>
    <tag k="bridge" v="yes"/>
    <tag k="highway" v="motorway"/>
    <tag k="lanes" v="4"/>
    <tag k="layer" v="1"/>
    <tag k="maxspeed" v="65 mph"/>
    <tag k="name" v="Congressman George E. Brown, Jr. Mem. Highway"/>
    <tag k="name_1" v="Foothill Freeway"/>
    <tag k="oneway" v="yes"/>
    <tag k="ref" v="CA 210"/>
    <tag k="source" v="yahoo_imagery;CDOT"/>
  </way>
  <way id="41697229" version="7" timestamp="2011-07-29T14:30:50Z" uid="207745" user="NE2" changeset="8863873">
    <nd ref="299206407"/>
    <nd ref="299206408"/>
    <tag k="bridge" v="yes"/>
    <tag k="highway" v="motorway"/>
    <tag k="hov" v="lane"/>
    <tag k="lanes" v="4"/>
    <tag k="layer" v="1"/>
    <tag k="maxspeed" v="65 mph"/>
    <tag k="name" v="Congressman George E. Brown, Jr. Mem. Highway"/>
    <tag k="name_1" v="Foothill Freeway"/>
    <tag k="note:lanes" v="left lane is hov"/>
    <tag k="oneway" v="yes"/>
    <tag k="ref" v="CA 210"/>
    <tag k="source" v="yahoo_imagery;CDOT"/>
  </way>
  <way id="41697229" version="8" timestamp="2011-12-01T02:10:01Z" uid="92286" user="Paul Johnson" changeset="10004810">
    <nd ref="299206407"/>
    <nd ref="299206408"/>
    <tag k="bridge" v="yes"/>
    <tag k="highway" v="motorway"/>
    <tag k="hov" v="lane"/>
    <tag k="lanes" v="4"/>
    <tag k="layer" v="1"/>
    <tag k="maxspeed" v="65 mph"/>
    <tag k="name" v="Congressman George Edward Brown, Junior Mememorial Highway"/>
    <tag k="name_1" v="Foothill Freeway"/>
    <tag k="note:lanes" v="left lane is hov"/>
    <tag k="oneway" v="yes"/>
    <tag k="ref" v="CA 210"/>
    <tag k="source" v="yahoo_imagery;CDOT"/>
  </way>
  <way id="41697279" version="1" timestamp="2009-09-29T05:28:52Z" uid="172440" user="glen20" changeset="2672910">
    <nd ref="513053208"/>
    <nd ref="513053209"/>
    <nd ref="513053211"/>
    <nd ref="513053213"/>
    <nd ref="513053215"/>
    <nd ref="513053217"/>
    <nd ref="513053219"/>
    <nd ref="513053220"/>
    <tag k="highway" v="residential"/>
    <tag k="name" v="Park Street"/>
  </way>
  <way id="41697279" version="2" timestamp="2009-09-29T07:19:01Z" uid="172440" user="glen20" changeset="2673549">
    <nd ref="513053208"/>
    <nd ref="513053209"/>
    <nd ref="513053211"/>
    <nd ref="513095815"/>
    <nd ref="513053213"/>
    <nd ref="513053215"/>
    <nd ref="513053217"/>
    <nd ref="513053219"/>
    <nd ref="513053220"/>
    <tag k="highway" v="residential"/>
    <tag k="name" v="Park Street"/>
  </way>
  <way id="41697279" version="3" timestamp="2009-11-06T00:30:08Z" uid="24459" user="RRover" changeset="3044972">
    <nd ref="513052270"/>
    <nd ref="513053208"/>
    <nd ref="513053209"/>
    <nd ref="513053211"/>
    <nd ref="513095815"/>
    <nd ref="513053213"/>
    <nd ref="513053215"/>
    <nd ref="513053217"/>
    <nd ref="513053219"/>
    <nd ref="513053220"/>
    <tag k="highway" v="residential"/>
    <tag k="name" v="Park Street"/>
  </way>
  <way id="41697289" version="7" timestamp="2010-03-28T10:56:50Z" uid="20587" user="balrog-kun" changeset="4254597">
    <nd ref="59664359"/>
    <nd ref="392519208"/>
    <tag k="bridge" v="yes"/>
    <tag k="highway" v="motorway"/>
    <tag k="lanes" v="4"/>
    <tag k="layer" v="1"/>
    <tag k="maxspeed" v="105"/>
    <tag k="name" v="Congressman George E. Brown, Jr. Mem. Highway"/>
    <tag k="name_1" v="Foothill Freeway"/>
    <tag k="oneway" v="yes"/>
    <tag k="ref" v="CA 210"/>
    <tag k="source" v="yahoo_imagery;CDOT"/>
  </way>
  <way id="41697289" version="8" timestamp="2010-07-15T01:05:45Z" uid="82317" user="AM909" changeset="5223033">
    <nd ref="59664359"/>
    <nd ref="392519208"/>
    <tag k="bridge" v="yes"/>
    <tag k="highway" v="motorway"/>
    <tag k="lanes" v="4"/>
    <tag k="layer" v="1"/>
    <tag k="maxspeed" v="65 mph"/>
    <tag k="name" v="Congressman George E. Brown, Jr. Mem. Highway"/>
    <tag k="name_1" v="Foothill Freeway"/>
    <tag k="oneway" v="yes"/>
    <tag k="ref" v="CA 210"/>
    <tag k="source" v="yahoo_imagery;CDOT"/>
  </way>
  <way id="41697289" version="9" timestamp="2011-07-29T14:30:48Z" uid="207745" user="NE2" changeset="8863873">
    <nd ref="59664359"/>
    <nd ref="392519208"/>
    <tag k="bridge" v="yes"/>
    <tag k="highway" v="motorway"/>
    <tag k="hov" v="lane"/>
    <tag k="lanes" v="4"/>
    <tag k="layer" v="1"/>
    <tag k="maxspeed" v="65 mph"/>
    <tag k="name" v="Congressman George E. Brown, Jr. Mem. Highway"/>
    <tag k="name_1" v="Foothill Freeway"/>
    <tag k="note:lanes" v="left lane is hov"/>
    <tag k="oneway" v="yes"/>
    <tag k="ref" v="CA 210"/>
    <tag k="source" v="yahoo_imagery;CDOT"/>
  </way>
  <way id="41697289" version="10" timestamp="2011-12-01T02:10:04Z" uid="92286" user="Paul Johnson" changeset="10004810">
    <nd ref="59664359"/>
    <nd ref="392519208"/>
    <tag k="bridge" v="yes"/>
    <tag k="highway" v="motorway"/>
    <tag k="hov" v="lane"/>
    <tag k="lanes" v="4"/>
    <tag k="layer" v="1"/>
    <tag k="maxspeed" v="65 mph"/>
    <tag k="name" v="Congressman George Edward Brown, Junior Mememorial Highway"/>
    <tag k="name_1" v="Foothill Freeway"/>
    <tag k="note:lanes" v="left lane is hov"/>
    <tag k="oneway" v="yes"/>
    <tag k="ref" v="CA 210"/>
    <tag k="source" v="yahoo_imagery;CDOT"/>
  </way>
  <way id="41697290" version="4" timestamp="2010-03-28T10:56:50Z" uid="20587" user="balrog-kun" changeset="4254597">
    <nd ref="392519208"/>
    <nd ref="299206406"/>
    <nd ref="299206407"/>
    <tag k="highway" v="motorway"/>
    <tag k="lanes" v="4"/>
    <tag k="layer" v="1"/>
    <tag k="maxspeed" v="105"/>
    <tag k="name" v="Congressman George E. Brown, Jr. Mem. Highway"/>
    <tag k="name_1" v="Foothill Freeway"/>
    <tag k="oneway" v="yes"/>
    <tag k="ref" v="CA 210"/>
    <tag k="source" v="yahoo_imagery;CDOT"/>
  </way>
  <way id="41697290" version="5" timestamp="2010-07-15T01:07:31Z" uid="82317" user="AM909" changeset="5223033">
    <nd ref="392519208"/>
    <nd ref="299206406"/>
    <nd ref="299206407"/>
    <tag k="highway" v="motorway"/>
    <tag k="lanes" v="4"/>
    <tag k="layer" v="1"/>
    <tag k="maxspeed" v="65 mph"/>
    <tag k="name" v="Congressman George E. Brown, Jr. Mem. Highway"/>
    <tag k="name_1" v="Foothill Freeway"/>
    <tag k="oneway" v="yes"/>
    <tag k="ref" v="CA 210"/>
    <tag k="source" v="yahoo_imagery;CDOT"/>
  </way>
  <way id="41697290" version="6" timestamp="2011-06-27T05:45:10Z" uid="351693" user="ctr112280" changeset="8558517">
    <nd ref="392519208"/>
    <nd ref="1340806161"/>
    <nd ref="299206406"/>
    <nd ref="299206407"/>
    <tag k="highway" v="motorway"/>
    <tag k="lanes" v="4"/>
    <tag k="layer" v="1"/>
    <tag k="maxspeed" v="65 mph"/>
    <tag k="name" v="Congressman George E. Brown, Jr. Mem. Highway"/>
    <tag k="name_1" v="Foothill Freeway"/>
    <tag k="oneway" v="yes"/>
    <tag k="ref" v="CA 210"/>
    <tag k="source" v="yahoo_imagery;CDOT"/>
  </way>
  <way id="41697290" version="7" timestamp="2011-07-03T22:06:53Z" uid="4951" user="PeterIto" changeset="8624573">
    <nd ref="392519208"/>
    <nd ref="1340806161"/>
    <nd ref="299206406"/>
    <nd ref="299206407"/>
    <tag k="highway" v="motorway"/>
    <tag k="lanes" v="4"/>
    <tag k="maxspeed" v="65 mph"/>
    <tag k="name" v="Congressman George E. Brown, Jr. Mem. Highway"/>
    <tag k="name_1" v="Foothill Freeway"/>
    <tag k="oneway" v="yes"/>
    <tag k="ref" v="CA 210"/>
    <tag k="source" v="yahoo_imagery;CDOT"/>
  </way>
  <way id="41697290" version="8" timestamp="2011-07-29T14:31:10Z" uid="207745" user="NE2" changeset="8863873">
    <nd ref="392519208"/>
    <nd ref="1340806161"/>
    <nd ref="299206406"/>
    <nd ref="299206407"/>
    <tag k="highway" v="motorway"/>
    <tag k="hov" v="lane"/>
    <tag k="lanes" v="4"/>
    <tag k="maxspeed" v="65 mph"/>
    <tag k="name" v="Congressman George E. Brown, Jr. Mem. Highway"/>
    <tag k="name_1" v="Foothill Freeway"/>
    <tag k="note:lanes" v="left lane is hov"/>
    <tag k="oneway" v="yes"/>
    <tag k="ref" v="CA 210"/>
    <tag k="source" v="yahoo_imagery;CDOT"/>
  </way>
  <way id="41697290" version="9" timestamp="2011-12-01T02:10:36Z" uid="92286" user="Paul Johnson" changeset="10004810">
    <nd ref="392519208"/>
    <nd ref="1340806161"/>
    <nd ref="299206406"/>
    <nd ref="299206407"/>
    <tag k="highway" v="motorway"/>
    <tag k="hov" v="lane"/>
    <tag k="lanes" v="4"/>
    <tag k="maxspeed" v="65 mph"/>
    <tag k="name" v="Congressman George Edward Brown, Junior Mememorial Highway"/>
    <tag k="name_1" v="Foothill Freeway"/>
    <tag k="note:lanes" v="left lane is hov"/>
    <tag k="oneway" v="yes"/>
    <tag k="ref" v="CA 210"/>
    <tag k="source" v="yahoo_imagery;CDOT"/>
  </way>
  <way id="41697301" version="8" timestamp="2010-03-28T10:56:50Z" uid="20587" user="balrog-kun" changeset="4254597">
    <nd ref="513053137"/>
    <nd ref="299207827"/>
    <nd ref="299207432"/>
    <nd ref="299207828"/>
    <tag k="highway" v="motorway"/>
    <tag k="lanes" v="4"/>
    <tag k="layer" v="1"/>
    <tag k="maxspeed" v="65 mph"/>
    <tag k="name" v="Congressman George E. Brown, Jr. Mem. Highway"/>
    <tag k="name_1" v="Foothill Freeway"/>
    <tag k="oneway" v="yes"/>
    <tag k="ref" v="CA 210"/>
    <tag k="source" v="yahoo_imagery;CDOT"/>
  </way>
  <way id="41697301" version="9" timestamp="2011-07-03T22:06:54Z" uid="4951" user="PeterIto" changeset="8624573">
    <nd ref="513053137"/>
    <nd ref="299207827"/>
    <nd ref="299207432"/>
    <nd ref="299207828"/>
    <tag k="highway" v="motorway"/>
    <tag k="lanes" v="4"/>
    <tag k="maxspeed" v="65 mph"/>
    <tag k="name" v="Congressman George E. Brown, Jr. Mem. Highway"/>
    <tag k="name_1" v="Foothill Freeway"/>
    <tag k="oneway" v="yes"/>
    <tag k="ref" v="CA 210"/>
    <tag k="source" v="yahoo_imagery;CDOT"/>
  </way>
  <way id="41697301" version="10" timestamp="2011-07-29T14:31:10Z" uid="207745" user="NE2" changeset="8863873">
    <nd ref="513053137"/>
    <nd ref="299207827"/>
    <nd ref="299207432"/>
    <nd ref="299207828"/>
    <tag k="highway" v="motorway"/>
    <tag k="hov" v="lane"/>
    <tag k="lanes" v="4"/>
    <tag k="maxspeed" v="65 mph"/>
    <tag k="name" v="Congressman George E. Brown, Jr. Mem. Highway"/>
    <tag k="name_1" v="Foothill Freeway"/>
    <tag k="note:lanes" v="left lane is hov"/>
    <tag k="oneway" v="yes"/>
    <tag k="ref" v="CA 210"/>
    <tag k="source" v="yahoo_imagery;CDOT"/>
  </way>
  <way id="41697301" version="11" timestamp="2011-12-01T02:10:33Z" uid="92286" user="Paul Johnson" changeset="10004810">
    <nd ref="513053137"/>
    <nd ref="299207827"/>
    <nd ref="299207432"/>
    <nd ref="299207828"/>
    <tag k="highway" v="motorway"/>
    <tag k="hov" v="lane"/>
    <tag k="lanes" v="4"/>
    <tag k="maxspeed" v="65 mph"/>
    <tag k="name" v="Congressman George Edward Brown, Junior Mememorial Highway"/>
    <tag k="name_1" v="Foothill Freeway"/>
    <tag k="note:lanes" v="left lane is hov"/>
    <tag k="oneway" v="yes"/>
    <tag k="ref" v="CA 210"/>
    <tag k="source" v="yahoo_imagery;CDOT"/>
  </way>
  <way id="41697303" version="5" timestamp="2010-03-28T10:56:50Z" uid="20587" user="balrog-kun" changeset="4254597">
    <nd ref="513053136"/>
    <nd ref="513053137"/>
    <tag k="bridge" v="yes"/>
    <tag k="highway" v="motorway"/>
    <tag k="lanes" v="4"/>
    <tag k="layer" v="1"/>
    <tag k="maxspeed" v="105"/>
    <tag k="name" v="Congressman George E. Brown, Jr. Mem. Highway"/>
    <tag k="name_1" v="Foothill Freeway"/>
    <tag k="oneway" v="yes"/>
    <tag k="ref" v="CA 210"/>
    <tag k="source" v="yahoo_imagery;CDOT"/>
  </way>
  <way id="41697303" version="6" timestamp="2010-07-15T01:04:32Z" uid="82317" user="AM909" changeset="5223033">
    <nd ref="513053136"/>
    <nd ref="513053137"/>
    <tag k="bridge" v="yes"/>
    <tag k="highway" v="motorway"/>
    <tag k="lanes" v="4"/>
    <tag k="layer" v="1"/>
    <tag k="maxspeed" v="65 mph"/>
    <tag k="name" v="Congressman George E. Brown, Jr. Mem. Highway"/>
    <tag k="name_1" v="Foothill Freeway"/>
    <tag k="oneway" v="yes"/>
    <tag k="ref" v="CA 210"/>
    <tag k="source" v="yahoo_imagery;CDOT"/>
  </way>
  <way id="41697303" version="7" timestamp="2011-07-29T14:30:53Z" uid="207745" user="NE2" changeset="8863873">
    <nd ref="513053136"/>
    <nd ref="513053137"/>
    <tag k="bridge" v="yes"/>
    <tag k="highway" v="motorway"/>
    <tag k="hov" v="lane"/>
    <tag k="lanes" v="4"/>
    <tag k="layer" v="1"/>
    <tag k="maxspeed" v="65 mph"/>
    <tag k="name" v="Congressman George E. Brown, Jr. Mem. Highway"/>
    <tag k="name_1" v="Foothill Freeway"/>
    <tag k="note:lanes" v="left lane is hov"/>
    <tag k="oneway" v="yes"/>
    <tag k="ref" v="CA 210"/>
    <tag k="source" v="yahoo_imagery;CDOT"/>
  </way>
  <way id="41697303" version="8" timestamp="2011-12-01T02:10:10Z" uid="92286" user="Paul Johnson" changeset="10004810">
    <nd ref="513053136"/>
    <nd ref="513053137"/>
    <tag k="bridge" v="yes"/>
    <tag k="highway" v="motorway"/>
    <tag k="hov" v="lane"/>
    <tag k="lanes" v="4"/>
    <tag k="layer" v="1"/>
    <tag k="maxspeed" v="65 mph"/>
    <tag k="name" v="Congressman George Edward Brown, Junior Mememorial Highway"/>
    <tag k="name_1" v="Foothill Freeway"/>
    <tag k="note:lanes" v="left lane is hov"/>
    <tag k="oneway" v="yes"/>
    <tag k="ref" v="CA 210"/>
    <tag k="source" v="yahoo_imagery;CDOT"/>
  </way>
  <way id="41697344" version="7" timestamp="2010-03-28T10:56:51Z" uid="20587" user="balrog-kun" changeset="4254597">
    <nd ref="513053859"/>
    <nd ref="513053860"/>
    <tag k="bridge" v="yes"/>
    <tag k="highway" v="motorway"/>
    <tag k="lanes" v="4"/>
    <tag k="layer" v="1"/>
    <tag k="maxspeed" v="65 mph"/>
    <tag k="name" v="Congressman George E. Brown, Jr. Mem. Highway"/>
    <tag k="name_1" v="Foothill Freeway"/>
    <tag k="oneway" v="yes"/>
    <tag k="ref" v="CA 210"/>
    <tag k="source" v="yahoo_imagery;CDOT"/>
  </way>
  <way id="41697344" version="8" timestamp="2011-07-29T14:30:46Z" uid="207745" user="NE2" changeset="8863873">
    <nd ref="513053859"/>
    <nd ref="513053860"/>
    <tag k="bridge" v="yes"/>
    <tag k="highway" v="motorway"/>
    <tag k="hov" v="lane"/>
    <tag k="lanes" v="4"/>
    <tag k="layer" v="1"/>
    <tag k="maxspeed" v="65 mph"/>
    <tag k="name" v="Congressman George E. Brown, Jr. Mem. Highway"/>
    <tag k="name_1" v="Foothill Freeway"/>
    <tag k="note:lanes" v="left lane is hov"/>
    <tag k="oneway" v="yes"/>
    <tag k="ref" v="CA 210"/>
    <tag k="source" v="yahoo_imagery;CDOT"/>
  </way>
  <way id="41697344" version="9" timestamp="2011-12-01T02:10:07Z" uid="92286" user="Paul Johnson" changeset="10004810">
    <nd ref="513053859"/>
    <nd ref="513053860"/>
    <tag k="bridge" v="yes"/>
    <tag k="highway" v="motorway"/>
    <tag k="hov" v="lane"/>
    <tag k="lanes" v="4"/>
    <tag k="layer" v="1"/>
    <tag k="maxspeed" v="65 mph"/>
    <tag k="name" v="Congressman George Edward Brown, Junior Mememorial Highway"/>
    <tag k="name_1" v="Foothill Freeway"/>
    <tag k="note:lanes" v="left lane is hov"/>
    <tag k="oneway" v="yes"/>
    <tag k="ref" v="CA 210"/>
    <tag k="source" v="yahoo_imagery;CDOT"/>
  </way>
  <way id="41697345" version="5" timestamp="2010-03-28T10:56:51Z" uid="20587" user="balrog-kun" changeset="4254597">
    <nd ref="513053860"/>
    <nd ref="392520024"/>
    <nd ref="59664359"/>
    <tag k="highway" v="motorway"/>
    <tag k="lanes" v="4"/>
    <tag k="layer" v="1"/>
    <tag k="maxspeed" v="65 mph"/>
    <tag k="name" v="Congressman George E. Brown, Jr. Mem. Highway"/>
    <tag k="name_1" v="Foothill Freeway"/>
    <tag k="oneway" v="yes"/>
    <tag k="ref" v="CA 210"/>
    <tag k="source" v="yahoo_imagery;CDOT"/>
  </way>
  <way id="41697345" version="6" timestamp="2010-12-24T15:37:05Z" uid="82317" user="AM909" changeset="6755444">
    <nd ref="513053860"/>
    <nd ref="392520024"/>
    <nd ref="1062157600"/>
    <nd ref="59664359"/>
    <tag k="highway" v="motorway"/>
    <tag k="lanes" v="4"/>
    <tag k="layer" v="1"/>
    <tag k="maxspeed" v="65 mph"/>
    <tag k="name" v="Congressman George E. Brown, Jr. Mem. Highway"/>
    <tag k="name_1" v="Foothill Freeway"/>
    <tag k="oneway" v="yes"/>
    <tag k="ref" v="CA 210"/>
    <tag k="source" v="yahoo_imagery;CDOT"/>
  </way>
  <way id="41697345" version="7" timestamp="2011-07-03T22:06:54Z" uid="4951" user="PeterIto" changeset="8624573">
    <nd ref="513053860"/>
    <nd ref="392520024"/>
    <nd ref="1062157600"/>
    <nd ref="59664359"/>
    <tag k="highway" v="motorway"/>
    <tag k="lanes" v="4"/>
    <tag k="maxspeed" v="65 mph"/>
    <tag k="name" v="Congressman George E. Brown, Jr. Mem. Highway"/>
    <tag k="name_1" v="Foothill Freeway"/>
    <tag k="oneway" v="yes"/>
    <tag k="ref" v="CA 210"/>
    <tag k="source" v="yahoo_imagery;CDOT"/>
  </way>
  <way id="41697345" version="8" timestamp="2011-07-29T14:31:10Z" uid="207745" user="NE2" changeset="8863873">
    <nd ref="513053860"/>
    <nd ref="392520024"/>
    <nd ref="1062157600"/>
    <nd ref="59664359"/>
    <tag k="highway" v="motorway"/>
    <tag k="hov" v="lane"/>
    <tag k="lanes" v="4"/>
    <tag k="maxspeed" v="65 mph"/>
    <tag k="name" v="Congressman George E. Brown, Jr. Mem. Highway"/>
    <tag k="name_1" v="Foothill Freeway"/>
    <tag k="note:lanes" v="left lane is hov"/>
    <tag k="oneway" v="yes"/>
    <tag k="ref" v="CA 210"/>
    <tag k="source" v="yahoo_imagery;CDOT"/>
  </way>
  <way id="41697345" version="9" timestamp="2011-12-01T02:10:30Z" uid="92286" user="Paul Johnson" changeset="10004810">
    <nd ref="513053860"/>
    <nd ref="392520024"/>
    <nd ref="1062157600"/>
    <nd ref="59664359"/>
    <tag k="highway" v="motorway"/>
    <tag k="hov" v="lane"/>
    <tag k="lanes" v="4"/>
    <tag k="maxspeed" v="65 mph"/>
    <tag k="name" v="Congressman George Edward Brown, Junior Mememorial Highway"/>
    <tag k="name_1" v="Foothill Freeway"/>
    <tag k="note:lanes" v="left lane is hov"/>
    <tag k="oneway" v="yes"/>
    <tag k="ref" v="CA 210"/>
    <tag k="source" v="yahoo_imagery;CDOT"/>
  </way>
  <way id="41697346" version="6" timestamp="2010-03-28T10:56:51Z" uid="20587" user="balrog-kun" changeset="4254597">
    <nd ref="513053850"/>
    <nd ref="299207829"/>
    <nd ref="392519966"/>
    <tag k="highway" v="motorway"/>
    <tag k="lanes" v="4"/>
    <tag k="layer" v="1"/>
    <tag k="maxspeed" v="65 mph"/>
    <tag k="name" v="Congressman George E. Brown, Jr. Mem. Highway"/>
    <tag k="name_1" v="Foothill Freeway"/>
    <tag k="oneway" v="yes"/>
    <tag k="ref" v="CA 210"/>
    <tag k="source" v="yahoo_imagery;CDOT"/>
  </way>
  <way id="41697346" version="7" timestamp="2010-12-24T15:37:40Z" uid="82317" user="AM909" changeset="6755444">
    <nd ref="513053850"/>
    <nd ref="299207829"/>
    <nd ref="1062157580"/>
    <nd ref="392519966"/>
    <tag k="highway" v="motorway"/>
    <tag k="lanes" v="4"/>
    <tag k="layer" v="1"/>
    <tag k="maxspeed" v="65 mph"/>
    <tag k="name" v="Congressman George E. Brown, Jr. Mem. Highway"/>
    <tag k="name_1" v="Foothill Freeway"/>
    <tag k="oneway" v="yes"/>
    <tag k="ref" v="CA 210"/>
    <tag k="source" v="yahoo_imagery;CDOT"/>
  </way>
  <way id="41697346" version="8" timestamp="2011-07-03T22:06:55Z" uid="4951" user="PeterIto" changeset="8624573">
    <nd ref="513053850"/>
    <nd ref="299207829"/>
    <nd ref="1062157580"/>
    <nd ref="392519966"/>
    <tag k="highway" v="motorway"/>
    <tag k="lanes" v="4"/>
    <tag k="maxspeed" v="65 mph"/>
    <tag k="name" v="Congressman George E. Brown, Jr. Mem. Highway"/>
    <tag k="name_1" v="Foothill Freeway"/>
    <tag k="oneway" v="yes"/>
    <tag k="ref" v="CA 210"/>
    <tag k="source" v="yahoo_imagery;CDOT"/>
  </way>
  <way id="41697346" version="9" timestamp="2011-07-29T14:31:09Z" uid="207745" user="NE2" changeset="8863873">
    <nd ref="513053850"/>
    <nd ref="299207829"/>
    <nd ref="1062157580"/>
    <nd ref="392519966"/>
    <tag k="highway" v="motorway"/>
    <tag k="hov" v="lane"/>
    <tag k="lanes" v="4"/>
    <tag k="maxspeed" v="65 mph"/>
    <tag k="name" v="Congressman George E. Brown, Jr. Mem. Highway"/>
    <tag k="name_1" v="Foothill Freeway"/>
    <tag k="note:lanes" v="left lane is hov"/>
    <tag k="oneway" v="yes"/>
    <tag k="ref" v="CA 210"/>
    <tag k="source" v="yahoo_imagery;CDOT"/>
  </way>
  <way id="41697346" version="10" timestamp="2011-12-01T02:10:35Z" uid="92286" user="Paul Johnson" changeset="10004810">
    <nd ref="513053850"/>
    <nd ref="299207829"/>
    <nd ref="1062157580"/>
    <nd ref="392519966"/>
    <tag k="highway" v="motorway"/>
    <tag k="hov" v="lane"/>
    <tag k="lanes" v="4"/>
    <tag k="maxspeed" v="65 mph"/>
    <tag k="name" v="Congressman George Edward Brown, Junior Mememorial Highway"/>
    <tag k="name_1" v="Foothill Freeway"/>
    <tag k="note:lanes" v="left lane is hov"/>
    <tag k="oneway" v="yes"/>
    <tag k="ref" v="CA 210"/>
    <tag k="source" v="yahoo_imagery;CDOT"/>
  </way>
  <way id="41697347" version="6" timestamp="2010-03-28T10:56:51Z" uid="20587" user="balrog-kun" changeset="4254597">
    <nd ref="299207828"/>
    <nd ref="513053850"/>
    <tag k="bridge" v="yes"/>
    <tag k="highway" v="motorway"/>
    <tag k="lanes" v="4"/>
    <tag k="layer" v="1"/>
    <tag k="maxspeed" v="65 mph"/>
    <tag k="name" v="Congressman George E. Brown, Jr. Mem. Highway"/>
    <tag k="name_1" v="Foothill Freeway"/>
    <tag k="oneway" v="yes"/>
    <tag k="ref" v="CA 210"/>
    <tag k="source" v="yahoo_imagery;CDOT"/>
  </way>
  <way id="41697347" version="7" timestamp="2011-07-29T14:30:53Z" uid="207745" user="NE2" changeset="8863873">
    <nd ref="299207828"/>
    <nd ref="513053850"/>
    <tag k="bridge" v="yes"/>
    <tag k="highway" v="motorway"/>
    <tag k="hov" v="lane"/>
    <tag k="lanes" v="4"/>
    <tag k="layer" v="1"/>
    <tag k="maxspeed" v="65 mph"/>
    <tag k="name" v="Congressman George E. Brown, Jr. Mem. Highway"/>
    <tag k="name_1" v="Foothill Freeway"/>
    <tag k="note:lanes" v="left lane is hov"/>
    <tag k="oneway" v="yes"/>
    <tag k="ref" v="CA 210"/>
    <tag k="source" v="yahoo_imagery;CDOT"/>
  </way>
  <way id="41697347" version="8" timestamp="2011-12-01T02:09:58Z" uid="92286" user="Paul Johnson" changeset="10004810">
    <nd ref="299207828"/>
    <nd ref="513053850"/>
    <tag k="bridge" v="yes"/>
    <tag k="highway" v="motorway"/>
    <tag k="hov" v="lane"/>
    <tag k="lanes" v="4"/>
    <tag k="layer" v="1"/>
    <tag k="maxspeed" v="65 mph"/>
    <tag k="name" v="Congressman George Edward Brown, Junior Mememorial Highway"/>
    <tag k="name_1" v="Foothill Freeway"/>
    <tag k="note:lanes" v="left lane is hov"/>
    <tag k="oneway" v="yes"/>
    <tag k="ref" v="CA 210"/>
    <tag k="source" v="yahoo_imagery;CDOT"/>
  </way>
  <way id="41697372" version="5" timestamp="2010-03-28T10:56:51Z" uid="20587" user="balrog-kun" changeset="4254597">
    <nd ref="513054041"/>
    <nd ref="513054042"/>
    <nd ref="513054043"/>
    <nd ref="513054044"/>
    <nd ref="513054059"/>
    <nd ref="513054060"/>
    <nd ref="513054061"/>
    <nd ref="513054062"/>
    <nd ref="513054063"/>
    <nd ref="513054064"/>
    <nd ref="513054065"/>
    <nd ref="513054066"/>
    <nd ref="513054067"/>
    <nd ref="513054068"/>
    <nd ref="513054071"/>
    <nd ref="513054072"/>
    <tag k="highway" v="tertiary"/>
    <tag k="lanes" v="2"/>
    <tag k="maxspeed" v="45 mph"/>
    <tag k="maxspeed:hgv" v="30 mph"/>
    <tag k="name" v="Shinn Road"/>
    <tag k="source" v="survey;image;yahoo_imagry"/>
    <tag k="source_ref" v="AM909_DSCP0683;AM909_DSCP0685"/>
    <tag k="tiger:cfcc" v="A41"/>
    <tag k="tiger:county" v="San Bernardino, CA"/>
    <tag k="tiger:name_base" v="Mountain"/>
    <tag k="tiger:name_direction_prefix" v="N"/>
    <tag k="tiger:name_type" v="Ave"/>
    <tag k="tiger:separated" v="no"/>
    <tag k="tiger:source" v="tiger_import_dch_v0.6_20070809"/>
    <tag k="tiger:tlid" v="144668936:144668958:144669001:144669014:144669017:144669025:144669034:144669035:144669036:144685615:144989716:144989717"/>
    <tag k="tiger:zip_left" v="91784"/>
    <tag k="tiger:zip_right" v="91784"/>
  </way>
  <way id="41697373" version="3" timestamp="2010-03-28T10:56:52Z" uid="20587" user="balrog-kun" changeset="4254597">
    <nd ref="54873127"/>
    <nd ref="513054548"/>
    <nd ref="513054547"/>
    <nd ref="513054549"/>
    <nd ref="513054546"/>
    <nd ref="513054545"/>
    <nd ref="513054544"/>
    <nd ref="513054543"/>
    <nd ref="54873128"/>
    <nd ref="54873130"/>
    <nd ref="513054560"/>
    <nd ref="513054581"/>
    <nd ref="513054580"/>
    <nd ref="513054579"/>
    <nd ref="513054578"/>
    <nd ref="513054577"/>
    <nd ref="54873131"/>
    <nd ref="513054576"/>
    <nd ref="513054575"/>
    <nd ref="513054574"/>
    <nd ref="54873134"/>
    <nd ref="54873136"/>
    <nd ref="54873137"/>
    <nd ref="513054584"/>
    <nd ref="513054585"/>
    <nd ref="513054586"/>
    <nd ref="513054589"/>
    <nd ref="513054588"/>
    <nd ref="513054587"/>
    <nd ref="513054583"/>
    <nd ref="513054582"/>
    <nd ref="513054590"/>
    <nd ref="513054591"/>
    <nd ref="513054592"/>
    <nd ref="513054593"/>
    <nd ref="513054594"/>
    <nd ref="513054595"/>
    <nd ref="513054596"/>
    <nd ref="513054597"/>
    <nd ref="513054598"/>
    <nd ref="54873139"/>
    <nd ref="513054599"/>
    <nd ref="54873141"/>
    <nd ref="513054600"/>
    <nd ref="513054601"/>
    <nd ref="54873143"/>
    <nd ref="54873144"/>
    <nd ref="513054602"/>
    <nd ref="513054603"/>
    <nd ref="54873145"/>
    <nd ref="513054609"/>
    <nd ref="513054610"/>
    <nd ref="513054611"/>
    <nd ref="513054612"/>
    <nd ref="513054613"/>
    <nd ref="513054614"/>
    <nd ref="513054615"/>
    <nd ref="54873147"/>
    <nd ref="54873149"/>
    <nd ref="513054604"/>
    <nd ref="513054605"/>
    <nd ref="513054606"/>
    <nd ref="54873151"/>
    <nd ref="513054607"/>
    <nd ref="513054608"/>
    <nd ref="513054616"/>
    <nd ref="513054617"/>
    <nd ref="513054618"/>
    <nd ref="54873153"/>
    <nd ref="513054619"/>
    <nd ref="513054620"/>
    <nd ref="513054621"/>
    <nd ref="513054622"/>
    <nd ref="513054623"/>
    <nd ref="513054624"/>
    <nd ref="513054625"/>
    <nd ref="513054626"/>
    <nd ref="513054627"/>
    <nd ref="54873155"/>
    <nd ref="54873158"/>
    <nd ref="54873160"/>
    <nd ref="54873162"/>
    <nd ref="54873164"/>
    <nd ref="54873166"/>
    <nd ref="54873168"/>
    <nd ref="513054628"/>
    <nd ref="513054629"/>
    <nd ref="513054630"/>
    <nd ref="513967422"/>
    <nd ref="513967423"/>
    <nd ref="513967424"/>
    <nd ref="54873170"/>
    <nd ref="513967425"/>
    <nd ref="513967426"/>
    <nd ref="54873172"/>
    <nd ref="513967428"/>
    <nd ref="513967430"/>
    <nd ref="513967432"/>
    <nd ref="513967434"/>
    <nd ref="54873006"/>
    <tag k="highway" v="track"/>
    <tag k="name" v="West Cucamonga Truck Trail"/>
    <tag k="tiger:cfcc" v="A41"/>
    <tag k="tiger:county" v="San Bernardino, CA"/>
    <tag k="tiger:name_base" v="Cucamonga Truck Trail"/>
    <tag k="tiger:name_direction_prefix" v="W"/>
    <tag k="tiger:separated" v="no"/>
    <tag k="tiger:source" v="tiger_import_dch_v0.6_20070809"/>
    <tag k="tiger:tlid" v="144698193:144724192:144698149:144698150:144732870:144732871"/>
  </way>
  <way id="41697386" version="2" timestamp="2010-07-09T04:57:15Z" uid="74617" user="JohnSmith" changeset="5170972">
    <nd ref="246371135"/>
    <nd ref="246371138"/>
    <nd ref="246371141"/>
    <nd ref="246371144"/>
    <tag k="highway" v="residential"/>
    <tag k="maxspeed" v="50"/>
    <tag k="maxspeed:source" v="default residential speed limit in Australia"/>
    <tag k="name" v="Cromwell Crescent"/>
    <tag k="source" v="MMBW"/>
  </way>
  <way id="41697386" version="3" timestamp="2012-01-19T05:14:39Z" uid="147510" user="woodpeck_fixbot" changeset="10433866">
    <nd ref="246371135"/>
    <nd ref="246371138"/>
    <nd ref="246371141"/>
    <nd ref="246371144"/>
    <tag k="highway" v="residential"/>
    <tag k="name" v="Cromwell Crescent"/>
    <tag k="source" v="MMBW"/>
  </way>
  <way id="41697387" version="2" timestamp="2010-07-09T04:59:21Z" uid="74617" user="JohnSmith" changeset="5170972">
    <nd ref="513055038"/>
    <nd ref="513055039"/>
    <nd ref="513055040"/>
    <nd ref="513055041"/>
    <tag k="highway" v="residential"/>
    <tag k="maxspeed" v="50"/>
    <tag k="maxspeed:source" v="default residential speed limit in Australia"/>
    <tag k="name" v="Stanhope Court"/>
  </way>
  <way id="41697387" version="3" timestamp="2012-01-19T05:14:40Z" uid="147510" user="woodpeck_fixbot" changeset="10433866">
    <nd ref="513055038"/>
    <nd ref="513055039"/>
    <nd ref="513055040"/>
    <nd ref="513055041"/>
    <tag k="highway" v="residential"/>
    <tag k="name" v="Stanhope Court"/>
  </way>
  <way id="41697513" version="6" timestamp="2010-03-28T10:56:52Z" uid="20587" user="balrog-kun" changeset="4254597">
    <nd ref="54516838"/>
    <nd ref="513057060"/>
    <nd ref="299202677"/>
    <nd ref="567516802"/>
    <nd ref="54361288"/>
    <nd ref="54516840"/>
    <tag k="highway" v="primary"/>
    <tag k="name" v="North Ayala Drive"/>
    <tag k="tiger:cfcc" v="A41"/>
    <tag k="tiger:county" v="San Bernardino, CA"/>
    <tag k="tiger:name_base" v="Ayala"/>
    <tag k="tiger:name_direction_prefix" v="N"/>
    <tag k="tiger:name_type" v="Dr"/>
    <tag k="tiger:separated" v="no"/>
    <tag k="tiger:source" v="tiger_import_dch_v0.6_20070809"/>
    <tag k="tiger:tlid" v="144965406:144985541:144985542"/>
    <tag k="tiger:zip_left" v="92376"/>
    <tag k="tiger:zip_right" v="92376"/>
  </way>
  <way id="41697513" version="7" timestamp="2011-10-21T17:40:23Z" uid="82317" user="AM909" changeset="9618134">
    <nd ref="54516838"/>
    <nd ref="513057060"/>
    <nd ref="1475158994"/>
    <nd ref="299202677"/>
    <nd ref="567516802"/>
    <nd ref="54361288"/>
    <nd ref="54516840"/>
    <tag k="highway" v="primary"/>
    <tag k="name" v="North Ayala Drive"/>
    <tag k="tiger:cfcc" v="A41"/>
    <tag k="tiger:county" v="San Bernardino, CA"/>
    <tag k="tiger:name_base" v="Ayala"/>
    <tag k="tiger:name_direction_prefix" v="N"/>
    <tag k="tiger:name_type" v="Dr"/>
    <tag k="tiger:separated" v="no"/>
    <tag k="tiger:source" v="tiger_import_dch_v0.6_20070809"/>
    <tag k="tiger:tlid" v="144965406:144985541:144985542"/>
    <tag k="tiger:zip_left" v="92376"/>
    <tag k="tiger:zip_right" v="92376"/>
  </way>
  <way id="41697534" version="2" timestamp="2009-12-26T09:39:06Z" uid="74027" user="katzlbt" changeset="3453058">
    <nd ref="47123551"/>
    <nd ref="513056902"/>
    <nd ref="513056903"/>
    <nd ref="513056904"/>
    <nd ref="513056905"/>
    <nd ref="513056906"/>
    <nd ref="513056907"/>
    <nd ref="513056908"/>
    <nd ref="513056909"/>
    <nd ref="513056911"/>
    <nd ref="513056912"/>
    <nd ref="513056913"/>
    <nd ref="513056914"/>
    <nd ref="513056915"/>
    <nd ref="513056916"/>
    <nd ref="513056917"/>
    <nd ref="513056918"/>
    <nd ref="513056919"/>
    <nd ref="513056920"/>
    <nd ref="513056921"/>
    <nd ref="513056922"/>
    <nd ref="513056923"/>
    <nd ref="513056924"/>
    <nd ref="513056991"/>
    <nd ref="513056992"/>
    <nd ref="513056993"/>
    <nd ref="513056994"/>
    <nd ref="513056995"/>
    <nd ref="513056996"/>
    <nd ref="513056997"/>
    <nd ref="513056998"/>
    <nd ref="513056999"/>
    <nd ref="513057000"/>
    <nd ref="513057001"/>
    <nd ref="513057002"/>
    <nd ref="513057003"/>
    <nd ref="513057004"/>
    <nd ref="513057005"/>
    <nd ref="513057006"/>
    <nd ref="513057007"/>
    <nd ref="513057008"/>
    <tag k="fixme" v="please verify if piste is ON residential road"/>
    <tag k="highway" v="residential"/>
    <tag k="piste:type" v="sled"/>
    <tag k="source" v="piste marked by http://www.winterbergbahnen.at/3dwinter/KMZ/33_Brand.kmz"/>
  </way>
  <way id="41697534" version="3" timestamp="2011-09-06T20:19:34Z" uid="123364" user="Tronikon" changeset="9231212">
    <nd ref="47123551"/>
    <nd ref="513056902"/>
    <nd ref="513056903"/>
    <nd ref="513056904"/>
    <nd ref="513056905"/>
    <nd ref="513056906"/>
    <nd ref="513056907"/>
    <nd ref="513056908"/>
    <nd ref="513056909"/>
    <nd ref="513056911"/>
    <nd ref="513056912"/>
    <nd ref="513056913"/>
    <nd ref="513056914"/>
    <nd ref="513056915"/>
    <nd ref="513056916"/>
    <nd ref="513056917"/>
    <nd ref="513056918"/>
    <nd ref="513056919"/>
    <nd ref="513056920"/>
    <nd ref="1425511905"/>
    <nd ref="1425511922"/>
    <nd ref="513056921"/>
    <nd ref="513056922"/>
    <nd ref="513056923"/>
    <nd ref="513056924"/>
    <nd ref="513056991"/>
    <nd ref="513056992"/>
    <nd ref="513056993"/>
    <nd ref="513056994"/>
    <nd ref="513056995"/>
    <nd ref="513056996"/>
    <nd ref="513056997"/>
    <nd ref="513056998"/>
    <nd ref="513056999"/>
    <nd ref="513057000"/>
    <nd ref="513057001"/>
    <nd ref="513057002"/>
    <nd ref="513057003"/>
    <nd ref="513057004"/>
    <nd ref="513057005"/>
    <nd ref="513057006"/>
    <nd ref="513057007"/>
    <nd ref="513057008"/>
    <tag k="fixme" v="please verify if piste is ON residential road"/>
    <tag k="highway" v="residential"/>
    <tag k="piste:type" v="sled"/>
    <tag k="source" v="piste marked by http://www.winterbergbahnen.at/3dwinter/KMZ/33_Brand.kmz"/>
  </way>
  <way id="41697534" version="4" timestamp="2012-01-31T12:49:06Z" uid="29177" user="Gozgo" changeset="10548958">
    <nd ref="47123551"/>
    <nd ref="513056902"/>
    <nd ref="513056903"/>
    <nd ref="513056904"/>
    <nd ref="513056905"/>
    <nd ref="513056906"/>
    <nd ref="513056907"/>
    <nd ref="513056908"/>
    <nd ref="513056909"/>
    <nd ref="513056911"/>
    <nd ref="513056912"/>
    <nd ref="513056913"/>
    <nd ref="513056914"/>
    <nd ref="513056915"/>
    <nd ref="513056916"/>
    <nd ref="513056917"/>
    <nd ref="513056918"/>
    <nd ref="513056919"/>
    <nd ref="513056920"/>
    <nd ref="1425511905"/>
    <nd ref="1425511922"/>
    <nd ref="513056921"/>
    <nd ref="513056922"/>
    <nd ref="513056923"/>
    <nd ref="513056924"/>
    <nd ref="513056991"/>
    <nd ref="513056992"/>
    <nd ref="513056993"/>
    <nd ref="513056994"/>
    <nd ref="513056995"/>
    <nd ref="513056996"/>
    <nd ref="513056997"/>
    <nd ref="513056998"/>
    <nd ref="513056999"/>
    <nd ref="513057000"/>
    <nd ref="513057001"/>
    <nd ref="513057002"/>
    <nd ref="513057003"/>
    <nd ref="513057004"/>
    <nd ref="513057005"/>
    <nd ref="1613035995"/>
    <nd ref="513057006"/>
    <nd ref="513057007"/>
    <nd ref="513057008"/>
    <tag k="fixme" v="please verify if piste is ON residential road"/>
    <tag k="highway" v="residential"/>
    <tag k="piste:type" v="sled"/>
    <tag k="source" v="piste marked by http://www.winterbergbahnen.at/3dwinter/KMZ/33_Brand.kmz"/>
  </way>
  <way id="41697534" version="5" timestamp="2012-03-18T18:42:10Z" uid="178186" user="mdk" changeset="11022410"/>
  <way id="41697535" version="2" timestamp="2009-12-26T09:39:03Z" uid="74027" user="katzlbt" changeset="3453058">
    <nd ref="599512997"/>
    <nd ref="599512999"/>
    <nd ref="599513000"/>
    <nd ref="599513001"/>
    <nd ref="599513002"/>
    <nd ref="599513003"/>
    <nd ref="333205621"/>
    <nd ref="599513004"/>
    <nd ref="599513005"/>
    <nd ref="599513006"/>
    <nd ref="599513007"/>
    <nd ref="599512990"/>
    <nd ref="599513008"/>
    <nd ref="599513009"/>
    <nd ref="599513010"/>
    <nd ref="513056925"/>
    <nd ref="513056921"/>
    <tag k="highway" v="residential"/>
  </way>
  <way id="41697535" version="3" timestamp="2011-08-30T12:25:44Z" uid="29177" user="Gozgo" changeset="9166693">
    <nd ref="599512997"/>
    <nd ref="1417989996"/>
    <nd ref="1417989997"/>
    <nd ref="1417989993"/>
    <nd ref="599512999"/>
    <nd ref="599513000"/>
    <nd ref="599513001"/>
    <nd ref="599513002"/>
    <nd ref="599513003"/>
    <nd ref="333205621"/>
    <nd ref="599513004"/>
    <nd ref="1417989981"/>
    <nd ref="599513005"/>
    <nd ref="1417989979"/>
    <nd ref="599513006"/>
    <nd ref="599513007"/>
    <nd ref="599512990"/>
    <nd ref="599513008"/>
    <nd ref="599513009"/>
    <nd ref="599513010"/>
    <nd ref="513056925"/>
    <nd ref="513056921"/>
    <tag k="highway" v="residential"/>
  </way>
  <way id="41697535" version="4" timestamp="2011-09-06T20:19:34Z" uid="123364" user="Tronikon" changeset="9231212">
    <nd ref="599512997"/>
    <nd ref="1425513092"/>
    <nd ref="1417989996"/>
    <nd ref="1417989997"/>
    <nd ref="1425513089"/>
    <nd ref="1425513063"/>
    <nd ref="1417989993"/>
    <nd ref="1425513015"/>
    <nd ref="599512999"/>
    <nd ref="1425512947"/>
    <nd ref="599513000"/>
    <nd ref="599513001"/>
    <nd ref="1425512921"/>
    <nd ref="599513002"/>
    <nd ref="599513003"/>
    <nd ref="1425512807"/>
    <nd ref="333205621"/>
    <nd ref="599513004"/>
    <nd ref="1417989981"/>
    <nd ref="599513005"/>
    <nd ref="1417989979"/>
    <nd ref="599513006"/>
    <nd ref="599513007"/>
    <nd ref="599512990"/>
    <nd ref="599513008"/>
    <tag k="highway" v="residential"/>
  </way>
  <way id="41697535" version="5" timestamp="2012-03-18T18:42:12Z" uid="178186" user="mdk" changeset="11022410"/>
  <way id="41697537" version="2" timestamp="2009-12-26T09:39:07Z" uid="74027" user="katzlbt" changeset="3453058">
    <nd ref="47161567"/>
    <nd ref="599512987"/>
    <nd ref="47161573"/>
    <nd ref="47161579"/>
    <nd ref="47161582"/>
    <nd ref="47161585"/>
    <nd ref="47161590"/>
    <nd ref="513056910"/>
    <nd ref="47161596"/>
    <nd ref="47161600"/>
    <nd ref="47161604"/>
    <nd ref="47161611"/>
    <nd ref="47161616"/>
    <nd ref="47161621"/>
    <nd ref="513056901"/>
    <nd ref="47123574"/>
    <tag k="bicycle" v="yes"/>
    <tag k="foot" v="yes"/>
    <tag k="highway" v="unclassified"/>
    <tag k="motorcar" v="yes"/>
    <tag k="motorcycle" v="yes"/>
    <tag k="name" v="Tschengla"/>
  </way>
  <way id="41697537" version="3" timestamp="2011-08-22T10:09:58Z" uid="347288" user="chweber" changeset="9092501">
    <nd ref="599512987"/>
    <nd ref="47161573"/>
    <nd ref="47161579"/>
    <nd ref="47161582"/>
    <nd ref="47161585"/>
    <nd ref="47161590"/>
    <nd ref="513056910"/>
    <nd ref="47161596"/>
    <nd ref="47161600"/>
    <nd ref="47161604"/>
    <nd ref="47161611"/>
    <nd ref="47161616"/>
    <nd ref="47161621"/>
    <nd ref="513056901"/>
    <nd ref="47123574"/>
    <tag k="bicycle" v="yes"/>
    <tag k="foot" v="yes"/>
    <tag k="highway" v="unclassified"/>
    <tag k="motorcar" v="yes"/>
    <tag k="motorcycle" v="yes"/>
    <tag k="name" v="Tschengla"/>
  </way>
  <way id="41697537" version="4" timestamp="2011-09-06T20:19:36Z" uid="123364" user="Tronikon" changeset="9231212">
    <nd ref="47161560"/>
    <nd ref="1408265068"/>
    <nd ref="599512987"/>
    <nd ref="47161573"/>
    <nd ref="47161579"/>
    <nd ref="47161582"/>
    <nd ref="47161585"/>
    <nd ref="47161590"/>
    <nd ref="513056910"/>
    <nd ref="47161596"/>
    <nd ref="47161600"/>
    <nd ref="47161604"/>
    <nd ref="47161611"/>
    <nd ref="47161616"/>
    <nd ref="47161621"/>
    <nd ref="513056901"/>
    <nd ref="47123574"/>
    <tag k="bicycle" v="yes"/>
    <tag k="foot" v="yes"/>
    <tag k="highway" v="unclassified"/>
    <tag k="motorcar" v="yes"/>
    <tag k="motorcycle" v="yes"/>
    <tag k="name" v="Tschengla"/>
  </way>
  <way id="41697537" version="5" timestamp="2012-03-18T18:41:59Z" uid="178186" user="mdk" changeset="11022410"/>
  <way id="41697541" version="2" timestamp="2010-01-01T14:49:27Z" uid="74027" user="katzlbt" changeset="3508658">
    <nd ref="602534424"/>
    <nd ref="602534384"/>
    <nd ref="513056983"/>
    <nd ref="513056982"/>
    <nd ref="513056981"/>
    <nd ref="513056986"/>
    <nd ref="513056980"/>
    <nd ref="513056965"/>
    <nd ref="513056964"/>
    <nd ref="513056963"/>
    <nd ref="513056962"/>
    <nd ref="513056961"/>
    <nd ref="513056960"/>
    <nd ref="513056959"/>
    <nd ref="513056958"/>
    <nd ref="513056957"/>
    <nd ref="513056956"/>
    <nd ref="513056955"/>
    <nd ref="513056970"/>
    <nd ref="513056969"/>
    <nd ref="513056975"/>
    <nd ref="513056973"/>
    <nd ref="513056972"/>
    <nd ref="513056971"/>
    <nd ref="513056990"/>
    <nd ref="513056989"/>
    <nd ref="513056988"/>
    <nd ref="513056987"/>
    <tag k="addr:postcode" v="6700"/>
    <tag k="at:maxspeed" v="Ortsgebiet"/>
    <tag k="fixme" v="check import"/>
    <tag k="highway" v="residential"/>
    <tag k="highway:plan.at:bz" v="residential"/>
    <tag k="is_in" v="...,Bezirk Bludenz,Vorarlberg,sterreich,Europa"/>
    <tag k="name" v="Brserberg"/>
    <tag k="note" v="imported from plan.at; (C)=CC-by-sa or oDBL; feel free to change if necessary"/>
    <tag k="plan_at:acad_id" v="bz2FA"/>
    <tag k="source" v="plan.at 2009"/>
    <tag k="uploaded_by" v="Wolfgang W. Wasserburger"/>
  </way>
  <way id="41697541" version="3" timestamp="2010-07-18T08:15:00Z" uid="141420" user="Tznischd" changeset="5248684">
    <nd ref="602534424"/>
    <nd ref="602534384"/>
    <nd ref="822532271"/>
    <nd ref="822532272"/>
    <nd ref="513056983"/>
    <nd ref="513056982"/>
    <nd ref="513056981"/>
    <nd ref="513056986"/>
    <nd ref="513056980"/>
    <nd ref="513056965"/>
    <nd ref="513056964"/>
    <nd ref="513056963"/>
    <nd ref="513056962"/>
    <nd ref="513056961"/>
    <nd ref="513056960"/>
    <nd ref="513056959"/>
    <nd ref="513056958"/>
    <nd ref="513056957"/>
    <nd ref="513056956"/>
    <nd ref="513056955"/>
    <nd ref="513056970"/>
    <nd ref="513056969"/>
    <nd ref="513056975"/>
    <nd ref="513056973"/>
    <nd ref="513056972"/>
    <nd ref="513056971"/>
    <nd ref="513056990"/>
    <nd ref="513056989"/>
    <nd ref="513056988"/>
    <nd ref="513056987"/>
    <tag k="addr:postcode" v="6700"/>
    <tag k="at:maxspeed" v="Ortsgebiet"/>
    <tag k="fixme" v="check import"/>
    <tag k="highway" v="residential"/>
    <tag k="highway:plan.at:bz" v="residential"/>
    <tag k="is_in" v="...,Bezirk Bludenz,Vorarlberg,sterreich,Europa"/>
    <tag k="name" v="Brserberg"/>
    <tag k="note" v="imported from plan.at; (C)=CC-by-sa or oDBL; feel free to change if necessary"/>
    <tag k="plan_at:acad_id" v="bz2FA"/>
    <tag k="source" v="plan.at 2009"/>
    <tag k="uploaded_by" v="Wolfgang W. Wasserburger"/>
  </way>
  <way id="41697541" version="4" timestamp="2011-04-05T10:29:58Z" uid="99800" user="wolfbert" changeset="7773475">
    <nd ref="602534424"/>
    <nd ref="602534384"/>
    <nd ref="822532271"/>
    <nd ref="822532272"/>
    <nd ref="513056983"/>
    <nd ref="513056982"/>
    <nd ref="513056981"/>
    <nd ref="513056986"/>
    <nd ref="513056980"/>
    <nd ref="513056965"/>
    <nd ref="513056964"/>
    <nd ref="513056963"/>
    <nd ref="513056962"/>
    <nd ref="513056961"/>
    <nd ref="513056960"/>
    <nd ref="513056959"/>
    <nd ref="513056958"/>
    <nd ref="513056957"/>
    <nd ref="513056956"/>
    <nd ref="513056955"/>
    <nd ref="513056970"/>
    <nd ref="513056969"/>
    <nd ref="513056975"/>
    <nd ref="513056973"/>
    <nd ref="513056972"/>
    <nd ref="513056971"/>
    <nd ref="513056990"/>
    <nd ref="513056989"/>
    <nd ref="513056988"/>
    <nd ref="513056987"/>
    <tag k="addr:postcode" v="6700"/>
    <tag k="fixme" v="check import"/>
    <tag k="highway" v="residential"/>
    <tag k="is_in" v="...,Bezirk Bludenz,Vorarlberg,sterreich,Europa"/>
    <tag k="name" v="Brserberg"/>
    <tag k="note" v="imported from plan.at; (C)=CC-by-sa or oDBL; feel free to change if necessary"/>
    <tag k="plan_at:acad_id" v="bz2FA"/>
    <tag k="source" v="plan.at 2009"/>
    <tag k="uploaded_by" v="Wolfgang W. Wasserburger"/>
  </way>
  <way id="41697541" version="5" timestamp="2011-07-16T09:06:07Z" uid="45347" user="eriosw" changeset="8737757">
    <nd ref="602534424"/>
    <nd ref="602534384"/>
    <nd ref="822532271"/>
    <nd ref="822532272"/>
    <nd ref="513056983"/>
    <nd ref="513056982"/>
    <nd ref="513056981"/>
    <nd ref="513056986"/>
    <nd ref="513056980"/>
    <nd ref="513056965"/>
    <nd ref="513056964"/>
    <nd ref="513056963"/>
    <nd ref="513056962"/>
    <nd ref="513056961"/>
    <nd ref="513056960"/>
    <nd ref="513056959"/>
    <nd ref="513056958"/>
    <nd ref="513056957"/>
    <nd ref="513056956"/>
    <nd ref="513056955"/>
    <nd ref="513056970"/>
    <nd ref="513056969"/>
    <nd ref="513056975"/>
    <nd ref="513056973"/>
    <nd ref="513056972"/>
    <nd ref="513056971"/>
    <nd ref="513056990"/>
    <nd ref="513056989"/>
    <nd ref="513056988"/>
    <nd ref="513056987"/>
    <tag k="addr:postcode" v="6700"/>
    <tag k="fixme" v="check import"/>
    <tag k="highway" v="residential"/>
    <tag k="is_in" v="Brserberg,Bludenz,Vorarlberg,sterreich,Europe"/>
    <tag k="name" v="Brserberg"/>
    <tag k="source" v="plan.at 2009"/>
    <tag k="uploaded_by" v="Wolfgang W. Wasserburger"/>
  </way>
  <way id="41697541" version="6" timestamp="2011-07-22T06:43:21Z" uid="491845" user="data_at" changeset="8794895">
    <nd ref="602534424"/>
    <nd ref="602534384"/>
    <nd ref="822532271"/>
    <nd ref="822532272"/>
    <nd ref="513056983"/>
    <nd ref="513056982"/>
    <nd ref="513056981"/>
    <nd ref="513056986"/>
    <nd ref="513056980"/>
    <nd ref="513056965"/>
    <nd ref="513056964"/>
    <nd ref="513056963"/>
    <nd ref="513056962"/>
    <nd ref="513056961"/>
    <nd ref="513056960"/>
    <nd ref="513056959"/>
    <nd ref="513056958"/>
    <nd ref="513056957"/>
    <nd ref="513056956"/>
    <nd ref="513056955"/>
    <nd ref="513056970"/>
    <nd ref="513056969"/>
    <nd ref="513056975"/>
    <nd ref="513056973"/>
    <nd ref="513056972"/>
    <nd ref="513056971"/>
    <nd ref="513056990"/>
    <nd ref="513056989"/>
    <nd ref="513056988"/>
    <nd ref="513056987"/>
    <tag k="fixme" v="check import"/>
    <tag k="highway" v="residential"/>
    <tag k="is_in" v="Brserberg,Bludenz,Vorarlberg,sterreich,Europe"/>
    <tag k="name" v="Brserberg"/>
    <tag k="source" v="plan.at 2009"/>
  </way>
  <way id="41697541" version="7" timestamp="2012-01-31T12:49:09Z" uid="29177" user="Gozgo" changeset="10548958">
    <nd ref="602534424"/>
    <nd ref="602534384"/>
    <nd ref="822532271"/>
    <nd ref="822532272"/>
    <nd ref="513056983"/>
    <nd ref="513056982"/>
    <nd ref="513056981"/>
    <nd ref="513056986"/>
    <nd ref="513056980"/>
    <nd ref="513056965"/>
    <nd ref="513056964"/>
    <nd ref="513056963"/>
    <nd ref="513056962"/>
    <nd ref="513056961"/>
    <nd ref="513056960"/>
    <nd ref="513056959"/>
    <nd ref="513056958"/>
    <nd ref="513056957"/>
    <nd ref="513056956"/>
    <nd ref="513056955"/>
    <nd ref="513056970"/>
    <nd ref="513056969"/>
    <nd ref="513056975"/>
    <nd ref="513056973"/>
    <nd ref="513056972"/>
    <nd ref="513056971"/>
    <nd ref="513056990"/>
    <nd ref="513056989"/>
    <nd ref="513056988"/>
    <nd ref="513056987"/>
    <tag k="fixme" v="check import"/>
    <tag k="highway" v="unclassified"/>
    <tag k="is_in" v="Brserberg,Bludenz,Vorarlberg,sterreich,Europe"/>
    <tag k="name" v="Brserberg"/>
    <tag k="source" v="plan.at 2009"/>
  </way>
  <way id="41697541" version="8" timestamp="2012-01-31T13:00:49Z" uid="29177" user="Gozgo" changeset="10548958"/>
  <way id="41697872" version="1" timestamp="2009-09-29T06:07:56Z" uid="172440" user="glen20" changeset="2672910">
    <nd ref="513059749"/>
    <nd ref="513059750"/>
    <nd ref="513059751"/>
    <nd ref="513059752"/>
    <nd ref="513059753"/>
    <nd ref="513059754"/>
    <nd ref="513059755"/>
    <nd ref="513059756"/>
    <nd ref="513059757"/>
    <nd ref="513059758"/>
    <nd ref="513059759"/>
    <tag k="highway" v="To Boat Ramp"/>
  </way>
  <way id="41697872" version="2" timestamp="2009-09-29T09:39:27Z" uid="172440" user="glen20" changeset="2674846">
    <nd ref="513059749"/>
    <nd ref="513059750"/>
    <nd ref="513059751"/>
    <nd ref="513059752"/>
    <nd ref="513059753"/>
    <nd ref="513059754"/>
    <nd ref="513059755"/>
    <nd ref="513059756"/>
    <nd ref="513059757"/>
    <nd ref="513059758"/>
    <nd ref="513059759"/>
    <tag k="highway" v="service"/>
  </way>
  <way id="41697873" version="1" timestamp="2009-09-29T06:07:57Z" uid="172440" user="glen20" changeset="2672910">
    <nd ref="513059760"/>
    <nd ref="513059761"/>
    <nd ref="513059762"/>
    <nd ref="513059763"/>
    <nd ref="513059764"/>
    <nd ref="513059765"/>
    <nd ref="513059766"/>
    <nd ref="513059767"/>
    <nd ref="513059768"/>
    <nd ref="513059769"/>
    <nd ref="513059770"/>
    <nd ref="513059771"/>
    <nd ref="513059772"/>
    <nd ref="513059757"/>
  </way>
  <way id="41697873" version="2" timestamp="2009-09-29T12:06:58Z" uid="172440" user="glen20" changeset="2676284">
    <nd ref="513059760"/>
    <nd ref="513059761"/>
    <nd ref="513059762"/>
    <nd ref="513059763"/>
    <nd ref="513059764"/>
    <nd ref="513059765"/>
    <nd ref="513059766"/>
    <nd ref="513059767"/>
    <nd ref="513059768"/>
    <nd ref="513059769"/>
    <nd ref="513059770"/>
    <nd ref="513059771"/>
    <nd ref="513059772"/>
    <nd ref="513059757"/>
    <tag k="highway" v="service"/>
  </way>
  <way id="41697873" version="3" timestamp="2009-10-02T01:47:25Z" uid="103574" user="Fairfield" changeset="2707387">
    <nd ref="513059758"/>
    <nd ref="513059761"/>
    <nd ref="513059762"/>
    <nd ref="513059763"/>
    <nd ref="513059764"/>
    <nd ref="513059765"/>
    <nd ref="513059766"/>
    <nd ref="513059767"/>
    <nd ref="513059768"/>
    <nd ref="513059769"/>
    <nd ref="513059770"/>
    <nd ref="513059771"/>
    <nd ref="513059772"/>
    <nd ref="513059757"/>
    <tag k="highway" v="service"/>
  </way>
  <way id="41697874" version="1" timestamp="2009-09-29T06:07:59Z" uid="172440" user="glen20" changeset="2672910">
    <nd ref="513059773"/>
    <nd ref="513059774"/>
    <nd ref="513059776"/>
    <nd ref="513059778"/>
    <nd ref="513059779"/>
    <tag k="access" v="unknown"/>
    <tag k="foot" v="yes"/>
    <tag k="highway" v="unclassified"/>
  </way>
  <way id="41697874" version="2" timestamp="2009-11-06T00:23:55Z" uid="24459" user="RRover" changeset="3044943">
    <nd ref="513059773"/>
    <nd ref="513059774"/>
    <nd ref="513059776"/>
    <nd ref="513059778"/>
    <nd ref="513059779"/>
    <tag k="access" v="unknown"/>
    <tag k="foot" v="yes"/>
    <tag k="highway" v="footway"/>
  </way>
  <way id="41697874" version="3" timestamp="2009-11-06T00:24:31Z" uid="24459" user="RRover" changeset="3044943">
    <nd ref="513059773"/>
    <nd ref="513059774"/>
    <nd ref="513059776"/>
    <nd ref="513059778"/>
    <nd ref="513059779"/>
    <tag k="access" v="unknown"/>
    <tag k="foot" v="yes"/>
    <tag k="highway" v="path"/>
  </way>
  <way id="41697874" version="4" timestamp="2009-11-06T00:25:49Z" uid="24459" user="RRover" changeset="3044943">
    <nd ref="513051334"/>
    <nd ref="513059773"/>
    <nd ref="513059774"/>
    <nd ref="513059776"/>
    <nd ref="513059778"/>
    <nd ref="513059779"/>
    <tag k="access" v="unknown"/>
    <tag k="foot" v="yes"/>
    <tag k="highway" v="path"/>
  </way>
  <way id="41697874" version="5" timestamp="2009-12-13T00:12:51Z" uid="79144" user="John H" changeset="3359774">
    <nd ref="513051334"/>
    <nd ref="513059773"/>
    <nd ref="513059774"/>
    <nd ref="513059776"/>
    <nd ref="513059778"/>
    <nd ref="513059779"/>
    <tag k="highway" v="footway"/>
    <tag k="width" v="1.2"/>
  </way>
  <way id="41697875" version="1" timestamp="2009-09-29T06:08:00Z" uid="172440" user="glen20" changeset="2672910">
    <nd ref="513059780"/>
    <nd ref="513059781"/>
    <nd ref="513059782"/>
    <nd ref="513059783"/>
    <nd ref="513059784"/>
    <nd ref="513059785"/>
    <nd ref="513059786"/>
    <tag k="foot" v="yes"/>
  </way>
  <way id="41697875" version="2" timestamp="2009-09-29T09:43:43Z" uid="172440" user="glen20" changeset="2674846">
    <nd ref="513059780"/>
    <nd ref="513059781"/>
    <nd ref="513059782"/>
    <nd ref="513059783"/>
    <nd ref="513059784"/>
    <nd ref="513059785"/>
    <nd ref="513059786"/>
    <tag k="foot" v="yes"/>
    <tag k="highway" v="path down"/>
  </way>
  <way id="41697875" version="3" timestamp="2009-11-06T00:22:34Z" uid="24459" user="RRover" changeset="3044943">
    <nd ref="513059780"/>
    <nd ref="513059781"/>
    <nd ref="513059782"/>
    <nd ref="513059783"/>
    <nd ref="513059784"/>
    <nd ref="513059785"/>
    <nd ref="513059786"/>
    <tag k="foot" v="yes"/>
    <tag k="highway" v="track"/>
  </way>
  <way id="41697875" version="4" timestamp="2009-11-06T00:23:38Z" uid="24459" user="RRover" changeset="3044943">
    <nd ref="513059780"/>
    <nd ref="513059781"/>
    <nd ref="513059782"/>
    <nd ref="513059783"/>
    <nd ref="513059784"/>
    <nd ref="513059785"/>
    <nd ref="513059786"/>
    <tag k="foot" v="yes"/>
    <tag k="highway" v="footway"/>
  </way>
  <way id="41697875" version="5" timestamp="2009-11-06T00:24:16Z" uid="24459" user="RRover" changeset="3044943">
    <nd ref="513059780"/>
    <nd ref="513059781"/>
    <nd ref="513059782"/>
    <nd ref="513059783"/>
    <nd ref="513059784"/>
    <nd ref="513059785"/>
    <nd ref="513059786"/>
    <tag k="foot" v="yes"/>
    <tag k="highway" v="path"/>
  </way>
  <way id="41697875" version="6" timestamp="2009-11-06T00:25:41Z" uid="24459" user="RRover" changeset="3044943">
    <nd ref="513051337"/>
    <nd ref="513059780"/>
    <nd ref="513059781"/>
    <nd ref="513059782"/>
    <nd ref="513059783"/>
    <nd ref="513059784"/>
    <nd ref="513059785"/>
    <nd ref="513059786"/>
    <tag k="foot" v="yes"/>
    <tag k="highway" v="path"/>
  </way>
  <way id="41697875" version="7" timestamp="2009-12-12T23:12:03Z" uid="79144" user="John H" changeset="3359528">
    <nd ref="513051337"/>
    <nd ref="513059780"/>
    <nd ref="513059781"/>
    <nd ref="513059782"/>
    <nd ref="513059783"/>
    <nd ref="513059784"/>
    <nd ref="513059785"/>
    <nd ref="513059786"/>
    <tag k="foot" v="yes"/>
    <tag k="highway" v="path"/>
    <tag k="width" v="1.5"/>
  </way>
  <way id="41697875" version="8" timestamp="2009-12-13T00:59:48Z" uid="79144" user="John H" changeset="3359973">
    <nd ref="513051337"/>
    <nd ref="513059780"/>
    <nd ref="513059781"/>
    <nd ref="513059782"/>
    <nd ref="513059783"/>
    <nd ref="513059784"/>
    <nd ref="513059785"/>
    <nd ref="513059786"/>
    <tag k="highway" v="footway"/>
    <tag k="width" v="1.5"/>
  </way>
  <way id="41697876" version="1" timestamp="2009-09-29T06:08:00Z" uid="172440" user="glen20" changeset="2672910">
    <nd ref="513059787"/>
    <nd ref="513059788"/>
    <tag k="foot" v="yes"/>
  </way>
  <way id="41697876" version="2" timestamp="2009-09-29T09:44:34Z" uid="172440" user="glen20" changeset="2674846">
    <nd ref="513059787"/>
    <nd ref="513059788"/>
    <tag k="foot" v="yes"/>
    <tag k="highway" v="steps"/>
  </way>
  <way id="41697876" version="3" timestamp="2009-11-06T00:25:28Z" uid="24459" user="RRover" changeset="3044943">
    <nd ref="513059787"/>
    <nd ref="513059788"/>
    <tag k="foot" v="yes"/>
    <tag k="highway" v="path"/>
  </way>
  <way id="41697876" version="4" timestamp="2009-11-06T00:25:58Z" uid="24459" user="RRover" changeset="3044943">
    <nd ref="513059784"/>
    <nd ref="513059787"/>
    <nd ref="513059788"/>
    <tag k="foot" v="yes"/>
    <tag k="highway" v="path"/>
  </way>
  <way id="41697876" version="5" timestamp="2009-11-06T00:26:42Z" uid="24459" user="RRover" changeset="3044943">
    <nd ref="513059784"/>
    <nd ref="513059787"/>
    <nd ref="513059788"/>
    <tag k="foot" v="yes"/>
    <tag k="highway" v="steps"/>
  </way>
  <way id="41697923" version="1" timestamp="2009-09-29T06:11:35Z" uid="176107" user="Badapple" changeset="2673209">
    <nd ref="513061232"/>
    <nd ref="513061241"/>
    <nd ref="513061244"/>
    <nd ref="513061247"/>
    <nd ref="513061232"/>
    <tag k="building" v="School"/>
  </way>
  <way id="41697923" version="2" timestamp="2010-12-08T17:51:09Z" uid="96069" user="theophrastos" changeset="6587593">
    <nd ref="513061232"/>
    <nd ref="513061241"/>
    <nd ref="513061244"/>
    <nd ref="513061247"/>
    <nd ref="513061232"/>
    <tag k="building" v="school"/>
  </way>
  <way id="41697923" version="3" timestamp="2011-02-05T14:02:37Z" uid="112728" user="Emanuel" changeset="7192666">
    <nd ref="513061232"/>
    <nd ref="513061241"/>
    <nd ref="513061244"/>
    <nd ref="513061247"/>
    <nd ref="513061232"/>
    <tag k="building" v="yes"/>
  </way>
  <way id="41697061" version="7" timestamp="2012-07-20T00:24:38Z" uid="722137" user="OSMF Redaction Account" changeset="12352189"/>
  <way id="41697070" version="4" timestamp="2012-07-20T00:22:13Z" uid="722137" user="OSMF Redaction Account" changeset="12352151">
    <nd ref="513050789"/>
    <nd ref="513050792"/>
    <nd ref="513050794"/>
    <nd ref="513050796"/>
    <nd ref="513050798"/>
    <nd ref="513050799"/>
    <nd ref="1053535248"/>
    <nd ref="513050800"/>
    <nd ref="513050803"/>
    <nd ref="513050805"/>
    <nd ref="513050807"/>
    <nd ref="513050809"/>
    <nd ref="513050811"/>
    <nd ref="513050789"/>
    <tag k="leisure" v="park"/>
    <tag k="name" v="Winifred Crescent Reserve"/>
  </way>
  <way id="41697092" version="4" timestamp="2012-07-19T12:29:02Z" uid="722137" user="OSMF Redaction Account" changeset="12325026"/>
  <way id="41697132" version="5" timestamp="2012-05-24T00:02:58Z" uid="3560" user="Firefishy" changeset="11685832">
    <nd ref="665690716"/>
    <nd ref="513051610"/>
    <nd ref="513051611"/>
    <nd ref="513051612"/>
    <nd ref="513051613"/>
    <nd ref="513051614"/>
    <nd ref="513051615"/>
    <nd ref="513051616"/>
    <nd ref="513051617"/>
    <nd ref="513051618"/>
    <nd ref="513051619"/>
    <nd ref="513051620"/>
    <nd ref="513051621"/>
    <nd ref="513051622"/>
    <nd ref="1763735663"/>
    <nd ref="1763735662"/>
    <nd ref="513051623"/>
    <nd ref="1763735661"/>
    <nd ref="1763735660"/>
    <nd ref="1763735659"/>
    <nd ref="513051624"/>
    <nd ref="513051625"/>
    <nd ref="1763735656"/>
    <nd ref="1763735655"/>
    <nd ref="513051627"/>
    <nd ref="1763735654"/>
    <nd ref="513051628"/>
    <nd ref="513051629"/>
    <nd ref="1763735653"/>
    <nd ref="1763735652"/>
    <nd ref="1763735651"/>
    <nd ref="513051630"/>
    <nd ref="513051631"/>
    <nd ref="513051632"/>
    <nd ref="513051633"/>
    <nd ref="513051634"/>
    <nd ref="513051635"/>
    <nd ref="513051636"/>
    <tag k="highway" v="unclassified"/>
    <tag k="name" v="Rainbow Yaapeet Road"/>
  </way>
  <way id="41697132" version="6" timestamp="2012-05-25T14:06:06Z" uid="168136" user="goldfishxyz" changeset="11698707">
    <nd ref="665690716"/>
    <nd ref="513051610"/>
    <nd ref="513051611"/>
    <nd ref="513051612"/>
    <nd ref="513051613"/>
    <nd ref="513051614"/>
    <nd ref="513051615"/>
    <nd ref="513051616"/>
    <nd ref="513051617"/>
    <nd ref="513051618"/>
    <nd ref="513051619"/>
    <nd ref="513051620"/>
    <nd ref="513051621"/>
    <nd ref="513051622"/>
    <nd ref="1763735663"/>
    <nd ref="1763735662"/>
    <nd ref="513051623"/>
    <nd ref="1763735661"/>
    <nd ref="1763735660"/>
    <nd ref="1763735659"/>
    <nd ref="513051624"/>
    <nd ref="513051625"/>
    <nd ref="1763735656"/>
    <nd ref="1763735655"/>
    <nd ref="513051627"/>
    <nd ref="1763735654"/>
    <nd ref="513051628"/>
    <nd ref="513051629"/>
    <nd ref="1763735653"/>
    <nd ref="1763735652"/>
    <nd ref="1763735651"/>
    <nd ref="513051630"/>
    <nd ref="1765277002"/>
    <nd ref="513051631"/>
    <nd ref="513051632"/>
    <nd ref="1765277001"/>
    <nd ref="513051633"/>
    <nd ref="513051634"/>
    <nd ref="513051635"/>
    <nd ref="513051636"/>
    <tag k="highway" v="unclassified"/>
    <tag k="name" v="Rainbow Yaapeet Road"/>
  </way>
  <way id="41697188" version="5" timestamp="2012-07-19T12:29:02Z" uid="722137" user="OSMF Redaction Account" changeset="12325026"/>
  <way id="41697198" version="6" timestamp="2012-07-19T23:14:01Z" uid="288568" user="nickbarker" changeset="12351397">
    <nd ref="246372955"/>
    <nd ref="529837934"/>
    <nd ref="529836164"/>
    <nd ref="246372455"/>
    <nd ref="529836158"/>
    <nd ref="246372960"/>
    <tag k="highway" v="residential"/>
    <tag k="maxspeed" v="50"/>
    <tag k="name" v="Tivoli Road"/>
  </way>
  <way id="41697200" version="7" timestamp="2012-07-19T23:14:01Z" uid="288568" user="nickbarker" changeset="12351397">
    <nd ref="246850909"/>
    <nd ref="1423628256"/>
    <nd ref="577456433"/>
    <nd ref="577456432"/>
    <nd ref="246850908"/>
    <nd ref="577456431"/>
    <nd ref="246371118"/>
    <tag k="highway" v="residential"/>
    <tag k="maxspeed" v="50"/>
    <tag k="name" v="Surrey Road North"/>
    <tag k="oneway" v="yes"/>
  </way>
  <way id="41697207" version="13" timestamp="2012-08-05T03:55:45Z" uid="587790" user="JaggedMind" changeset="12616328">
    <nd ref="299207430"/>
    <nd ref="1340806132"/>
    <nd ref="513053136"/>
    <tag k="alt_name" v="Foothill Freeway"/>
    <tag k="highway" v="motorway"/>
    <tag k="hov" v="lane"/>
    <tag k="lanes" v="4"/>
    <tag k="maxspeed" v="65 mph"/>
    <tag k="name" v="Congressman George Edward Brown, Junior Memorial Highway"/>
    <tag k="note:lanes" v="left lane is hov"/>
    <tag k="oneway" v="yes"/>
    <tag k="ref" v="CA 210"/>
    <tag k="source" v="yahoo_imagery;CDOT"/>
  </way>
  <way id="41697207" version="14" timestamp="2012-09-01T07:03:05Z" uid="207745" user="NE2" changeset="12939017">
    <nd ref="299207430"/>
    <nd ref="1340806132"/>
    <nd ref="513053136"/>
    <tag k="alt_name" v="Foothill Freeway"/>
    <tag k="bicycle" v="no"/>
    <tag k="highway" v="motorway"/>
    <tag k="hov" v="lane"/>
    <tag k="lanes" v="4"/>
    <tag k="maxspeed" v="65 mph"/>
    <tag k="name" v="Congressman George Edward Brown, Junior Memorial Highway"/>
    <tag k="note:lanes" v="left lane is hov"/>
    <tag k="oneway" v="yes"/>
    <tag k="ref" v="CA 210"/>
    <tag k="source" v="yahoo_imagery;CDOT"/>
  </way>
  <way id="41697208" version="9" timestamp="2012-08-05T03:55:28Z" uid="587790" user="JaggedMind" changeset="12616328">
    <nd ref="299207429"/>
    <nd ref="299207430"/>
    <tag k="alt_name" v="Foothill Freeway"/>
    <tag k="bridge" v="yes"/>
    <tag k="highway" v="motorway"/>
    <tag k="hov" v="lane"/>
    <tag k="lanes" v="4"/>
    <tag k="layer" v="1"/>
    <tag k="maxspeed" v="65 mph"/>
    <tag k="name" v="Congressman George Edward Brown, Junior Memorial Highway"/>
    <tag k="note:lanes" v="left lane is hov"/>
    <tag k="oneway" v="yes"/>
    <tag k="ref" v="CA 210"/>
    <tag k="source" v="yahoo_imagery;CDOT"/>
  </way>
  <way id="41697208" version="10" timestamp="2012-09-01T07:02:37Z" uid="207745" user="NE2" changeset="12939017">
    <nd ref="299207429"/>
    <nd ref="299207430"/>
    <tag k="alt_name" v="Foothill Freeway"/>
    <tag k="bicycle" v="no"/>
    <tag k="bridge" v="yes"/>
    <tag k="highway" v="motorway"/>
    <tag k="hov" v="lane"/>
    <tag k="lanes" v="4"/>
    <tag k="layer" v="1"/>
    <tag k="maxspeed" v="65 mph"/>
    <tag k="name" v="Congressman George Edward Brown, Junior Memorial Highway"/>
    <tag k="note:lanes" v="left lane is hov"/>
    <tag k="oneway" v="yes"/>
    <tag k="ref" v="CA 210"/>
    <tag k="source" v="yahoo_imagery;CDOT"/>
  </way>
  <way id="41697224" version="11" timestamp="2012-08-05T03:55:49Z" uid="587790" user="JaggedMind" changeset="12616328">
    <nd ref="299206408"/>
    <nd ref="299206410"/>
    <nd ref="1340806173"/>
    <nd ref="418624791"/>
    <tag k="alt_name" v="Foothill Freeway"/>
    <tag k="highway" v="motorway"/>
    <tag k="hov" v="lane"/>
    <tag k="lanes" v="4"/>
    <tag k="maxspeed" v="65 mph"/>
    <tag k="name" v="Congressman George Edward Brown, Junior Memorial Highway"/>
    <tag k="note:lanes" v="left lane is hov"/>
    <tag k="oneway" v="yes"/>
    <tag k="ref" v="CA 210"/>
    <tag k="source" v="yahoo_imagery;CDOT"/>
  </way>
  <way id="41697224" version="12" timestamp="2012-09-01T07:03:07Z" uid="207745" user="NE2" changeset="12939017">
    <nd ref="299206408"/>
    <nd ref="299206410"/>
    <nd ref="1340806173"/>
    <nd ref="418624791"/>
    <tag k="alt_name" v="Foothill Freeway"/>
    <tag k="bicycle" v="no"/>
    <tag k="highway" v="motorway"/>
    <tag k="hov" v="lane"/>
    <tag k="lanes" v="4"/>
    <tag k="maxspeed" v="65 mph"/>
    <tag k="name" v="Congressman George Edward Brown, Junior Memorial Highway"/>
    <tag k="note:lanes" v="left lane is hov"/>
    <tag k="oneway" v="yes"/>
    <tag k="ref" v="CA 210"/>
    <tag k="source" v="yahoo_imagery;CDOT"/>
  </way>
  <way id="41697229" version="9" timestamp="2012-08-05T03:55:27Z" uid="587790" user="JaggedMind" changeset="12616328">
    <nd ref="299206407"/>
    <nd ref="299206408"/>
    <tag k="alt_name" v="Foothill Freeway"/>
    <tag k="bridge" v="yes"/>
    <tag k="highway" v="motorway"/>
    <tag k="hov" v="lane"/>
    <tag k="lanes" v="4"/>
    <tag k="layer" v="1"/>
    <tag k="maxspeed" v="65 mph"/>
    <tag k="name" v="Congressman George Edward Brown, Junior Memorial Highway"/>
    <tag k="note:lanes" v="left lane is hov"/>
    <tag k="oneway" v="yes"/>
    <tag k="ref" v="CA 210"/>
    <tag k="source" v="yahoo_imagery;CDOT"/>
  </way>
  <way id="41697229" version="10" timestamp="2012-09-01T07:02:42Z" uid="207745" user="NE2" changeset="12939017">
    <nd ref="299206407"/>
    <nd ref="299206408"/>
    <tag k="alt_name" v="Foothill Freeway"/>
    <tag k="bicycle" v="no"/>
    <tag k="bridge" v="yes"/>
    <tag k="highway" v="motorway"/>
    <tag k="hov" v="lane"/>
    <tag k="lanes" v="4"/>
    <tag k="layer" v="1"/>
    <tag k="maxspeed" v="65 mph"/>
    <tag k="name" v="Congressman George Edward Brown, Junior Memorial Highway"/>
    <tag k="note:lanes" v="left lane is hov"/>
    <tag k="oneway" v="yes"/>
    <tag k="ref" v="CA 210"/>
    <tag k="source" v="yahoo_imagery;CDOT"/>
  </way>
  <way id="41697279" version="4" timestamp="2012-07-19T12:29:02Z" uid="722137" user="OSMF Redaction Account" changeset="12325026"/>
  <way id="41697289" version="11" timestamp="2012-08-05T03:55:41Z" uid="587790" user="JaggedMind" changeset="12616328">
    <nd ref="59664359"/>
    <nd ref="392519208"/>
    <tag k="alt_name" v="Foothill Freeway"/>
    <tag k="bridge" v="yes"/>
    <tag k="highway" v="motorway"/>
    <tag k="hov" v="lane"/>
    <tag k="lanes" v="4"/>
    <tag k="layer" v="1"/>
    <tag k="maxspeed" v="65 mph"/>
    <tag k="name" v="Congressman George Edward Brown, Junior Memorial Highway"/>
    <tag k="note:lanes" v="left lane is hov"/>
    <tag k="oneway" v="yes"/>
    <tag k="ref" v="CA 210"/>
    <tag k="source" v="yahoo_imagery;CDOT"/>
  </way>
  <way id="41697289" version="12" timestamp="2012-09-01T07:02:49Z" uid="207745" user="NE2" changeset="12939017">
    <nd ref="59664359"/>
    <nd ref="392519208"/>
    <tag k="alt_name" v="Foothill Freeway"/>
    <tag k="bicycle" v="no"/>
    <tag k="bridge" v="yes"/>
    <tag k="highway" v="motorway"/>
    <tag k="hov" v="lane"/>
    <tag k="lanes" v="4"/>
    <tag k="layer" v="1"/>
    <tag k="maxspeed" v="65 mph"/>
    <tag k="name" v="Congressman George Edward Brown, Junior Memorial Highway"/>
    <tag k="note:lanes" v="left lane is hov"/>
    <tag k="oneway" v="yes"/>
    <tag k="ref" v="CA 210"/>
    <tag k="source" v="yahoo_imagery;CDOT"/>
  </way>
  <way id="41697290" version="10" timestamp="2012-08-05T03:55:53Z" uid="587790" user="JaggedMind" changeset="12616328">
    <nd ref="392519208"/>
    <nd ref="1340806161"/>
    <nd ref="299206406"/>
    <nd ref="299206407"/>
    <tag k="alt_name" v="Foothill Freeway"/>
    <tag k="highway" v="motorway"/>
    <tag k="hov" v="lane"/>
    <tag k="lanes" v="4"/>
    <tag k="maxspeed" v="65 mph"/>
    <tag k="name" v="Congressman George Edward Brown, Junior Memorial Highway"/>
    <tag k="note:lanes" v="left lane is hov"/>
    <tag k="oneway" v="yes"/>
    <tag k="ref" v="CA 210"/>
    <tag k="source" v="yahoo_imagery;CDOT"/>
  </way>
  <way id="41697290" version="11" timestamp="2012-09-01T07:03:11Z" uid="207745" user="NE2" changeset="12939017">
    <nd ref="392519208"/>
    <nd ref="1340806161"/>
    <nd ref="299206406"/>
    <nd ref="299206407"/>
    <tag k="alt_name" v="Foothill Freeway"/>
    <tag k="bicycle" v="no"/>
    <tag k="highway" v="motorway"/>
    <tag k="hov" v="lane"/>
    <tag k="lanes" v="4"/>
    <tag k="maxspeed" v="65 mph"/>
    <tag k="name" v="Congressman George Edward Brown, Junior Memorial Highway"/>
    <tag k="note:lanes" v="left lane is hov"/>
    <tag k="oneway" v="yes"/>
    <tag k="ref" v="CA 210"/>
    <tag k="source" v="yahoo_imagery;CDOT"/>
  </way>
  <way id="41697301" version="12" timestamp="2012-08-05T03:55:53Z" uid="587790" user="JaggedMind" changeset="12616328">
    <nd ref="513053137"/>
    <nd ref="299207827"/>
    <nd ref="299207432"/>
    <nd ref="299207828"/>
    <tag k="alt_name" v="Foothill Freeway"/>
    <tag k="highway" v="motorway"/>
    <tag k="hov" v="lane"/>
    <tag k="lanes" v="4"/>
    <tag k="maxspeed" v="65 mph"/>
    <tag k="name" v="Congressman George Edward Brown, Junior Memorial Highway"/>
    <tag k="note:lanes" v="left lane is hov"/>
    <tag k="oneway" v="yes"/>
    <tag k="ref" v="CA 210"/>
    <tag k="source" v="yahoo_imagery;CDOT"/>
  </way>
  <way id="41697301" version="13" timestamp="2012-09-01T07:03:08Z" uid="207745" user="NE2" changeset="12939017">
    <nd ref="513053137"/>
    <nd ref="299207827"/>
    <nd ref="299207432"/>
    <nd ref="299207828"/>
    <tag k="alt_name" v="Foothill Freeway"/>
    <tag k="bicycle" v="no"/>
    <tag k="highway" v="motorway"/>
    <tag k="hov" v="lane"/>
    <tag k="lanes" v="4"/>
    <tag k="maxspeed" v="65 mph"/>
    <tag k="name" v="Congressman George Edward Brown, Junior Memorial Highway"/>
    <tag k="note:lanes" v="left lane is hov"/>
    <tag k="oneway" v="yes"/>
    <tag k="ref" v="CA 210"/>
    <tag k="source" v="yahoo_imagery;CDOT"/>
  </way>
  <way id="41697303" version="9" timestamp="2012-08-05T03:55:33Z" uid="587790" user="JaggedMind" changeset="12616328">
    <nd ref="513053136"/>
    <nd ref="513053137"/>
    <tag k="alt_name" v="Foothill Freeway"/>
    <tag k="bridge" v="yes"/>
    <tag k="highway" v="motorway"/>
    <tag k="hov" v="lane"/>
    <tag k="lanes" v="4"/>
    <tag k="layer" v="1"/>
    <tag k="maxspeed" v="65 mph"/>
    <tag k="name" v="Congressman George Edward Brown, Junior Memorial Highway"/>
    <tag k="note:lanes" v="left lane is hov"/>
    <tag k="oneway" v="yes"/>
    <tag k="ref" v="CA 210"/>
    <tag k="source" v="yahoo_imagery;CDOT"/>
  </way>
  <way id="41697303" version="10" timestamp="2012-09-01T07:02:35Z" uid="207745" user="NE2" changeset="12939017">
    <nd ref="513053136"/>
    <nd ref="513053137"/>
    <tag k="alt_name" v="Foothill Freeway"/>
    <tag k="bicycle" v="no"/>
    <tag k="bridge" v="yes"/>
    <tag k="highway" v="motorway"/>
    <tag k="hov" v="lane"/>
    <tag k="lanes" v="4"/>
    <tag k="layer" v="1"/>
    <tag k="maxspeed" v="65 mph"/>
    <tag k="name" v="Congressman George Edward Brown, Junior Memorial Highway"/>
    <tag k="note:lanes" v="left lane is hov"/>
    <tag k="oneway" v="yes"/>
    <tag k="ref" v="CA 210"/>
    <tag k="source" v="yahoo_imagery;CDOT"/>
  </way>
  <way id="41697344" version="10" timestamp="2012-08-05T03:55:37Z" uid="587790" user="JaggedMind" changeset="12616328">
    <nd ref="513053859"/>
    <nd ref="513053860"/>
    <tag k="alt_name" v="Foothill Freeway"/>
    <tag k="bridge" v="yes"/>
    <tag k="highway" v="motorway"/>
    <tag k="hov" v="lane"/>
    <tag k="lanes" v="4"/>
    <tag k="layer" v="1"/>
    <tag k="maxspeed" v="65 mph"/>
    <tag k="name" v="Congressman George Edward Brown, Junior Memorial Highway"/>
    <tag k="note:lanes" v="left lane is hov"/>
    <tag k="oneway" v="yes"/>
    <tag k="ref" v="CA 210"/>
    <tag k="source" v="yahoo_imagery;CDOT"/>
  </way>
  <way id="41697344" version="11" timestamp="2012-09-01T07:02:39Z" uid="207745" user="NE2" changeset="12939017">
    <nd ref="513053859"/>
    <nd ref="513053860"/>
    <tag k="alt_name" v="Foothill Freeway"/>
    <tag k="bicycle" v="no"/>
    <tag k="bridge" v="yes"/>
    <tag k="highway" v="motorway"/>
    <tag k="hov" v="lane"/>
    <tag k="lanes" v="4"/>
    <tag k="layer" v="1"/>
    <tag k="maxspeed" v="65 mph"/>
    <tag k="name" v="Congressman George Edward Brown, Junior Memorial Highway"/>
    <tag k="note:lanes" v="left lane is hov"/>
    <tag k="oneway" v="yes"/>
    <tag k="ref" v="CA 210"/>
    <tag k="source" v="yahoo_imagery;CDOT"/>
  </way>
  <way id="41697345" version="10" timestamp="2012-08-05T03:55:53Z" uid="587790" user="JaggedMind" changeset="12616328">
    <nd ref="513053860"/>
    <nd ref="392520024"/>
    <nd ref="1062157600"/>
    <nd ref="59664359"/>
    <tag k="alt_name" v="Foothill Freeway"/>
    <tag k="highway" v="motorway"/>
    <tag k="hov" v="lane"/>
    <tag k="lanes" v="4"/>
    <tag k="maxspeed" v="65 mph"/>
    <tag k="name" v="Congressman George Edward Brown, Junior Memorial Highway"/>
    <tag k="note:lanes" v="left lane is hov"/>
    <tag k="oneway" v="yes"/>
    <tag k="ref" v="CA 210"/>
    <tag k="source" v="yahoo_imagery;CDOT"/>
  </way>
  <way id="41697345" version="11" timestamp="2012-09-01T07:03:07Z" uid="207745" user="NE2" changeset="12939017">
    <nd ref="513053860"/>
    <nd ref="392520024"/>
    <nd ref="1062157600"/>
    <nd ref="59664359"/>
    <tag k="alt_name" v="Foothill Freeway"/>
    <tag k="bicycle" v="no"/>
    <tag k="highway" v="motorway"/>
    <tag k="hov" v="lane"/>
    <tag k="lanes" v="4"/>
    <tag k="maxspeed" v="65 mph"/>
    <tag k="name" v="Congressman George Edward Brown, Junior Memorial Highway"/>
    <tag k="note:lanes" v="left lane is hov"/>
    <tag k="oneway" v="yes"/>
    <tag k="ref" v="CA 210"/>
    <tag k="source" v="yahoo_imagery;CDOT"/>
  </way>
  <way id="41697346" version="11" timestamp="2012-08-05T03:55:53Z" uid="587790" user="JaggedMind" changeset="12616328">
    <nd ref="513053850"/>
    <nd ref="299207829"/>
    <nd ref="1062157580"/>
    <nd ref="392519966"/>
    <tag k="alt_name" v="Foothill Freeway"/>
    <tag k="highway" v="motorway"/>
    <tag k="hov" v="lane"/>
    <tag k="lanes" v="4"/>
    <tag k="maxspeed" v="65 mph"/>
    <tag k="name" v="Congressman George Edward Brown, Junior Memorial Highway"/>
    <tag k="note:lanes" v="left lane is hov"/>
    <tag k="oneway" v="yes"/>
    <tag k="ref" v="CA 210"/>
    <tag k="source" v="yahoo_imagery;CDOT"/>
  </way>
  <way id="41697346" version="12" timestamp="2012-09-01T07:03:08Z" uid="207745" user="NE2" changeset="12939017">
    <nd ref="513053850"/>
    <nd ref="299207829"/>
    <nd ref="1062157580"/>
    <nd ref="392519966"/>
    <tag k="alt_name" v="Foothill Freeway"/>
    <tag k="bicycle" v="no"/>
    <tag k="highway" v="motorway"/>
    <tag k="hov" v="lane"/>
    <tag k="lanes" v="4"/>
    <tag k="maxspeed" v="65 mph"/>
    <tag k="name" v="Congressman George Edward Brown, Junior Memorial Highway"/>
    <tag k="note:lanes" v="left lane is hov"/>
    <tag k="oneway" v="yes"/>
    <tag k="ref" v="CA 210"/>
    <tag k="source" v="yahoo_imagery;CDOT"/>
  </way>
  <way id="41697347" version="9" timestamp="2012-08-05T03:55:32Z" uid="587790" user="JaggedMind" changeset="12616328">
    <nd ref="299207828"/>
    <nd ref="513053850"/>
    <tag k="alt_name" v="Foothill Freeway"/>
    <tag k="bridge" v="yes"/>
    <tag k="highway" v="motorway"/>
    <tag k="hov" v="lane"/>
    <tag k="lanes" v="4"/>
    <tag k="layer" v="1"/>
    <tag k="maxspeed" v="65 mph"/>
    <tag k="name" v="Congressman George Edward Brown, Junior Memorial Highway"/>
    <tag k="note:lanes" v="left lane is hov"/>
    <tag k="oneway" v="yes"/>
    <tag k="ref" v="CA 210"/>
    <tag k="source" v="yahoo_imagery;CDOT"/>
  </way>
  <way id="41697347" version="10" timestamp="2012-09-01T07:02:55Z" uid="207745" user="NE2" changeset="12939017">
    <nd ref="299207828"/>
    <nd ref="513053850"/>
    <tag k="alt_name" v="Foothill Freeway"/>
    <tag k="bicycle" v="no"/>
    <tag k="bridge" v="yes"/>
    <tag k="highway" v="motorway"/>
    <tag k="hov" v="lane"/>
    <tag k="lanes" v="4"/>
    <tag k="layer" v="1"/>
    <tag k="maxspeed" v="65 mph"/>
    <tag k="name" v="Congressman George Edward Brown, Junior Memorial Highway"/>
    <tag k="note:lanes" v="left lane is hov"/>
    <tag k="oneway" v="yes"/>
    <tag k="ref" v="CA 210"/>
    <tag k="source" v="yahoo_imagery;CDOT"/>
  </way>
  <way id="41697372" version="6" timestamp="2012-08-19T00:50:16Z" uid="50743" user="dima" changeset="12778725">
    <nd ref="513054041"/>
    <nd ref="513054042"/>
    <nd ref="513054043"/>
    <nd ref="513054044"/>
    <nd ref="513054059"/>
    <nd ref="513054060"/>
    <nd ref="513054061"/>
    <nd ref="513054062"/>
    <nd ref="513054063"/>
    <nd ref="513054064"/>
    <nd ref="513054065"/>
    <nd ref="513054066"/>
    <nd ref="513054067"/>
    <nd ref="513054068"/>
    <nd ref="513054071"/>
    <nd ref="513054072"/>
    <tag k="highway" v="primary"/>
    <tag k="lanes" v="2"/>
    <tag k="maxspeed" v="45 mph"/>
    <tag k="maxspeed:hgv" v="30 mph"/>
    <tag k="name" v="Shinn Road"/>
    <tag k="source" v="survey;image;yahoo_imagry"/>
    <tag k="source_ref" v="AM909_DSCP0683;AM909_DSCP0685"/>
    <tag k="tiger:cfcc" v="A41"/>
    <tag k="tiger:county" v="San Bernardino, CA"/>
    <tag k="tiger:name_base" v="Mountain"/>
    <tag k="tiger:name_direction_prefix" v="N"/>
    <tag k="tiger:name_type" v="Ave"/>
    <tag k="tiger:separated" v="no"/>
    <tag k="tiger:source" v="tiger_import_dch_v0.6_20070809"/>
    <tag k="tiger:tlid" v="144668936:144668958:144669001:144669014:144669017:144669025:144669034:144669035:144669036:144685615:144989716:144989717"/>
    <tag k="tiger:zip_left" v="91784"/>
    <tag k="tiger:zip_right" v="91784"/>
  </way>
  <way id="41697387" version="4" timestamp="2012-07-19T23:13:58Z" uid="288568" user="nickbarker" changeset="12351397">
    <nd ref="513055038"/>
    <nd ref="513055039"/>
    <nd ref="513055040"/>
    <nd ref="513055041"/>
    <tag k="highway" v="residential"/>
    <tag k="maxspeed" v="50"/>
    <tag k="name" v="Stanhope Court"/>
  </way>
  <way id="41697387" version="5" timestamp="2012-07-20T00:23:14Z" uid="722137" user="OSMF Redaction Account" changeset="12352151">
    <nd ref="513055038"/>
    <nd ref="513055039"/>
    <nd ref="513055040"/>
    <nd ref="513055041"/>
    <tag k="highway" v="residential"/>
    <tag k="name" v="Stanhope Court"/>
  </way>
  <way id="41697872" version="3" timestamp="2012-07-19T12:29:02Z" uid="722137" user="OSMF Redaction Account" changeset="12325026"/>
  <way id="41697873" version="4" timestamp="2012-07-19T12:29:03Z" uid="722137" user="OSMF Redaction Account" changeset="12325026"/>
  <way id="41697874" version="6" timestamp="2012-07-19T12:29:03Z" uid="722137" user="OSMF Redaction Account" changeset="12325026"/>
  <way id="41697875" version="9" timestamp="2012-07-19T12:29:03Z" uid="722137" user="OSMF Redaction Account" changeset="12325026"/>
  <way id="41697876" version="6" timestamp="2012-07-19T12:29:03Z" uid="722137" user="OSMF Redaction Account" changeset="12325026"/>
  <way id="41697923" version="4" timestamp="2012-07-20T08:01:52Z" uid="722137" user="OSMF Redaction Account" changeset="12367283"/>
</osm>
