<?xml version='1.0' encoding='UTF-8'?>
<osm version="0.6" generator="libosmium/2.20.0">
  <way id="41847003" version="3" timestamp="2010-07-23T06:55:44Z" uid="143719" user="DarkoS" changeset="5292949"/>
  <way id="41847006" version="4" timestamp="2010-07-23T06:55:43Z" uid="143719" user="DarkoS" changeset="5292949">
    <nd ref="292205263"/>
    <nd ref="520086803"/>
    <nd ref="341967917"/>
    <nd ref="60968003"/>
    <nd ref="520368348"/>
    <nd ref="60968004"/>
    <nd ref="60968005"/>
    <nd ref="60968006"/>
    <tag k="highway" v="residential"/>
    <tag k="name" v="brdo"/>
  </way>
  <way id="41847006" version="5" timestamp="2010-08-16T14:38:21Z" uid="143719" user="DarkoS" changeset="5509800">
    <nd ref="292205263"/>
    <nd ref="520086803"/>
    <nd ref="341967917"/>
    <nd ref="60968003"/>
    <nd ref="520368348"/>
    <nd ref="60968004"/>
    <nd ref="60968005"/>
    <nd ref="60968006"/>
    <tag k="highway" v="residential"/>
    <tag k="name" v="Brdo"/>
  </way>
  <way id="41847006" version="6" timestamp="2011-01-01T18:52:31Z" uid="88492" user="9a4gl" changeset="6830998">
    <nd ref="292205263"/>
    <nd ref="520086803"/>
    <nd ref="341967917"/>
    <nd ref="60968003"/>
    <nd ref="520368348"/>
    <nd ref="60968004"/>
    <nd ref="60968005"/>
    <nd ref="60968006"/>
    <tag k="highway" v="secondary"/>
    <tag k="name" v="Brdo"/>
    <tag k="ref" v="5054"/>
  </way>
  <way id="41847006" version="7" timestamp="2012-01-11T00:26:01Z" uid="176920" user="SilverSpace" changeset="10357001"/>
  <way id="41847007" version="4" timestamp="2010-07-23T06:55:44Z" uid="143719" user="DarkoS" changeset="5292949"/>
  <way id="41847008" version="7" timestamp="2010-07-23T06:55:39Z" uid="143719" user="DarkoS" changeset="5292949">
    <nd ref="60968014"/>
    <nd ref="60968015"/>
    <nd ref="60968016"/>
    <nd ref="60968017"/>
    <nd ref="615019523"/>
    <nd ref="60968018"/>
    <nd ref="60968019"/>
    <nd ref="60968020"/>
    <nd ref="60968021"/>
    <nd ref="520080693"/>
    <nd ref="520080690"/>
    <nd ref="60968022"/>
    <nd ref="616040348"/>
    <nd ref="616040346"/>
    <nd ref="60968023"/>
    <tag k="highway" v="residential"/>
    <tag k="name" v="Radnička"/>
  </way>
  <way id="41847008" version="8" timestamp="2011-01-01T18:52:30Z" uid="88492" user="9a4gl" changeset="6830998">
    <nd ref="60968014"/>
    <nd ref="60968015"/>
    <nd ref="60968016"/>
    <nd ref="60968017"/>
    <nd ref="615019523"/>
    <nd ref="60968018"/>
    <nd ref="60968019"/>
    <nd ref="60968020"/>
    <nd ref="60968021"/>
    <nd ref="520080693"/>
    <nd ref="520080690"/>
    <nd ref="60968022"/>
    <tag k="highway" v="secondary"/>
    <tag k="name" v="Radnička"/>
    <tag k="ref" v="5054"/>
  </way>
  <way id="41847008" version="9" timestamp="2012-01-09T12:47:53Z" uid="176920" user="SilverSpace" changeset="10341429"/>
  <way id="41847404" version="3" timestamp="2010-03-28T10:57:30Z" uid="20587" user="balrog-kun" changeset="4254597">
    <nd ref="517227099"/>
    <nd ref="517328635"/>
    <tag k="highway" v="residential"/>
    <tag k="name" v="Alvarado Lane"/>
    <tag k="note" v="FIXME: Stub only. Position inaccurate."/>
    <tag k="source" v="survey;image;yahoo_imagry"/>
    <tag k="source_ref" v="AM909_DSCP1323"/>
  </way>
  <way id="41847404" version="4" timestamp="2011-03-24T17:00:39Z" uid="82317" user="AM909" changeset="7657593">
    <nd ref="517227099"/>
    <nd ref="517328635"/>
    <tag k="highway" v="residential"/>
    <tag k="name" v="Alvarado Lane"/>
    <tag k="source" v="bing_imagery_0.25m_201005;survey;image"/>
    <tag k="source_ref" v="AM909_DSCP1323"/>
  </way>
  <way id="41847421" version="2" timestamp="2010-05-01T20:18:45Z" uid="151899" user="Bikeman2000" changeset="4579010">
    <nd ref="193207639"/>
    <nd ref="715849108"/>
    <nd ref="193207414"/>
    <nd ref="715849109"/>
    <nd ref="193209593"/>
    <nd ref="715849110"/>
    <nd ref="193208952"/>
    <tag k="bicycle" v="yes"/>
    <tag k="highway" v="residential"/>
    <tag k="junction" v="roundabout"/>
    <tag k="oneway" v="yes"/>
  </way>
  <way id="41847421" version="3" timestamp="2011-01-16T17:34:23Z" uid="378954" user="FrankXF" changeset="6990772">
    <nd ref="193207639"/>
    <nd ref="715849108"/>
    <nd ref="193207414"/>
    <tag k="bicycle" v="yes"/>
    <tag k="highway" v="residential"/>
    <tag k="junction" v="roundabout"/>
    <tag k="oneway" v="yes"/>
  </way>
  <way id="41847421" version="4" timestamp="2011-01-16T18:57:11Z" uid="378954" user="FrankXF" changeset="6991991">
    <nd ref="193207639"/>
    <nd ref="715849108"/>
    <nd ref="193207414"/>
    <tag k="bicycle" v="yes"/>
    <tag k="highway" v="residential"/>
    <tag k="junction" v="roundabout"/>
    <tag k="name" v="Himmelgeister Straße"/>
    <tag k="oneway" v="yes"/>
  </way>
  <way id="41847421" version="5" timestamp="2011-12-28T12:22:07Z" uid="12614" user="rabenkind" changeset="10225252"/>
  <way id="41847422" version="2" timestamp="2010-05-01T20:18:39Z" uid="151899" user="Bikeman2000" changeset="4579010">
    <nd ref="253786699"/>
    <nd ref="715849080"/>
    <nd ref="193207634"/>
    <nd ref="715849081"/>
    <nd ref="281323435"/>
    <nd ref="715849082"/>
    <nd ref="193210154"/>
    <tag k="bicycle" v="yes"/>
    <tag k="highway" v="residential"/>
    <tag k="junction" v="roundabout"/>
    <tag k="oneway" v="yes"/>
  </way>
  <way id="41847422" version="3" timestamp="2011-01-16T17:33:52Z" uid="378954" user="FrankXF" changeset="6990772">
    <nd ref="253786699"/>
    <nd ref="715849080"/>
    <nd ref="193207634"/>
    <tag k="bicycle" v="yes"/>
    <tag k="highway" v="residential"/>
    <tag k="junction" v="roundabout"/>
    <tag k="oneway" v="yes"/>
  </way>
  <way id="41847422" version="4" timestamp="2011-01-16T18:57:10Z" uid="378954" user="FrankXF" changeset="6991991">
    <nd ref="253786699"/>
    <nd ref="715849080"/>
    <nd ref="193207634"/>
    <tag k="bicycle" v="yes"/>
    <tag k="highway" v="residential"/>
    <tag k="junction" v="roundabout"/>
    <tag k="name" v="Himmelgeister Straße"/>
    <tag k="oneway" v="yes"/>
  </way>
  <way id="41847422" version="5" timestamp="2012-02-15T19:45:32Z" uid="173844" user="Antikalk" changeset="10695671"/>
  <way id="41847821" version="4" timestamp="2010-07-24T01:06:01Z" uid="20587" user="balrog-kun" changeset="5300182">
    <nd ref="517336433"/>
    <nd ref="539517485"/>
    <tag k="alt_name" v="Poznański Szybki Tramwaj (PST)"/>
    <tag k="loc_name" v="Poznański Szybki Tramwaj; Pestka"/>
    <tag k="name" v="12 - 14 - 15 - 16 - 26 - N21"/>
    <tag k="railway" v="light_rail"/>
  </way>
  <way id="41847821" version="5" timestamp="2011-12-16T00:38:03Z" uid="88909" user="miko101" changeset="10128232"/>
  <way id="41847826" version="3" timestamp="2010-07-24T01:06:00Z" uid="20587" user="balrog-kun" changeset="5300182">
    <nd ref="517336526"/>
    <nd ref="27308452"/>
    <nd ref="355992994"/>
    <nd ref="355992995"/>
    <nd ref="355992996"/>
    <nd ref="517336433"/>
    <tag k="alt_name" v="Poznański Szybki Tramwaj (PST)"/>
    <tag k="cutting" v="yes"/>
    <tag k="loc_name" v="Poznański Szybki Tramwaj; Pestka"/>
    <tag k="name" v="12 - 14 - 15 - 16 - 26 - N21"/>
    <tag k="railway" v="light_rail"/>
  </way>
  <way id="41847826" version="4" timestamp="2011-12-16T00:38:03Z" uid="88909" user="miko101" changeset="10128232"/>
</osm>
