<?xml version='1.0' encoding='UTF-8'?>
<osm version="0.6" generator="libosmium/2.20.0">
  <way id="41880431" version="2" timestamp="2010-04-07T13:55:55Z" uid="20587" user="balrog-kun" changeset="4353646">
    <nd ref="518096168"/>
    <nd ref="518096187"/>
    <nd ref="518096190"/>
    <nd ref="518096193"/>
    <nd ref="518096203"/>
    <nd ref="518096208"/>
    <nd ref="518096217"/>
    <nd ref="518096227"/>
    <nd ref="518096233"/>
    <nd ref="514069779"/>
    <tag k="highway" v="residential"/>
    <tag k="name" v="Eaton Glen Lane"/>
  </way>
  <way id="41880431" version="3" timestamp="2012-02-06T19:16:46Z" uid="496606" user="scottyc" changeset="10605991">
    <nd ref="518096168"/>
    <nd ref="518096217"/>
    <nd ref="518096233"/>
    <nd ref="514069779"/>
    <tag k="highway" v="residential"/>
    <tag k="name" v="Eaton Glen Lane"/>
  </way>
  <way id="41880947" version="1" timestamp="2009-10-02T20:43:07Z" uid="86259" user="hasse_osm_korinthenkacker" changeset="2717407">
    <nd ref="518113990"/>
    <nd ref="518113939"/>
    <nd ref="518113946"/>
    <nd ref="518113998"/>
    <nd ref="518113990"/>
    <tag k="addr:housenumber" v="16"/>
    <tag k="addr:street" v="Breitschwertstraße"/>
    <tag k="building" v="yes"/>
    <tag k="source" v="Yahoo;survey"/>
  </way>
  <way id="41880947" version="2" timestamp="2009-10-03T17:44:05Z" uid="179968" user="Ich_hasse_doitsche_OSM-Korinthenkacker" changeset="2727120">
    <nd ref="518113990"/>
    <nd ref="518113939"/>
    <nd ref="518113946"/>
    <nd ref="518113998"/>
    <nd ref="518113990"/>
    <tag k="addr:housenumber" v="16"/>
    <tag k="addr:street" v="Breitschwertstraße"/>
    <tag k="building" v="yes"/>
  </way>
  <way id="41880947" version="3" timestamp="2010-05-08T20:58:30Z" uid="36809" user="pfoten_weg_!_" changeset="4643009"/>
  <way id="41880947" version="4" timestamp="2010-05-09T08:53:12Z" uid="145231" user="woodpeck_repair" changeset="4645739">
    <nd ref="518113990"/>
    <nd ref="518113939"/>
    <nd ref="518113946"/>
    <nd ref="518113998"/>
    <nd ref="518113990"/>
    <tag k="addr:housenumber" v="16"/>
    <tag k="addr:street" v="Breitschwertstraße"/>
    <tag k="building" v="yes"/>
  </way>
  <way id="41880947" version="5" timestamp="2010-06-01T13:22:51Z" uid="30579" user="Tiramisu" changeset="4874529">
    <nd ref="518113990"/>
    <nd ref="518113939"/>
    <nd ref="518113946"/>
    <nd ref="518113998"/>
    <nd ref="518113990"/>
    <tag k="addr:city" v="München"/>
    <tag k="addr:country" v="DE"/>
    <tag k="addr:housenumber" v="16"/>
    <tag k="addr:postcode" v="81477"/>
    <tag k="addr:street" v="Breitschwertstraße"/>
    <tag k="building" v="yes"/>
  </way>
  <way id="41880947" version="6" timestamp="2010-06-01T14:39:59Z" uid="30579" user="Tiramisu" changeset="4875140">
    <nd ref="518113990"/>
    <nd ref="518113939"/>
    <nd ref="518113946"/>
    <nd ref="518113998"/>
    <nd ref="518113990"/>
    <tag k="addr:city" v="München"/>
    <tag k="addr:country" v="DE"/>
    <tag k="addr:housenumber" v="16"/>
    <tag k="addr:postcode" v="81479"/>
    <tag k="addr:street" v="Breitschwertstraße"/>
    <tag k="building" v="yes"/>
  </way>
  <way id="41880948" version="1" timestamp="2009-10-02T20:43:07Z" uid="86259" user="hasse_osm_korinthenkacker" changeset="2717407">
    <nd ref="518113944"/>
    <nd ref="518113957"/>
    <nd ref="518113954"/>
    <nd ref="518113952"/>
    <nd ref="518113949"/>
    <nd ref="518114003"/>
    <nd ref="518113991"/>
    <nd ref="518113941"/>
    <nd ref="518113944"/>
    <tag k="addr:housenumber" v="35"/>
    <tag k="addr:street" v="Grünbauerstraße"/>
    <tag k="building" v="yes"/>
    <tag k="source" v="Yahoo;survey"/>
  </way>
  <way id="41880948" version="2" timestamp="2009-10-03T17:44:05Z" uid="179968" user="Ich_hasse_doitsche_OSM-Korinthenkacker" changeset="2727120">
    <nd ref="518113944"/>
    <nd ref="518113957"/>
    <nd ref="518113954"/>
    <nd ref="518113952"/>
    <nd ref="518113949"/>
    <nd ref="518114003"/>
    <nd ref="518113991"/>
    <nd ref="518113941"/>
    <nd ref="518113944"/>
    <tag k="addr:housenumber" v="35"/>
    <tag k="addr:street" v="Grünbauerstraße"/>
    <tag k="building" v="yes"/>
  </way>
  <way id="41880948" version="3" timestamp="2010-05-08T20:58:31Z" uid="36809" user="pfoten_weg_!_" changeset="4643009"/>
  <way id="41880948" version="4" timestamp="2010-05-09T08:53:12Z" uid="145231" user="woodpeck_repair" changeset="4645739">
    <nd ref="518113944"/>
    <nd ref="518113957"/>
    <nd ref="518113954"/>
    <nd ref="518113952"/>
    <nd ref="518113949"/>
    <nd ref="518114003"/>
    <nd ref="518113991"/>
    <nd ref="518113941"/>
    <nd ref="518113944"/>
    <tag k="addr:housenumber" v="35"/>
    <tag k="addr:street" v="Grünbauerstraße"/>
    <tag k="building" v="yes"/>
  </way>
  <way id="41880948" version="5" timestamp="2010-06-01T13:22:51Z" uid="30579" user="Tiramisu" changeset="4874529">
    <nd ref="518113944"/>
    <nd ref="518113957"/>
    <nd ref="518113954"/>
    <nd ref="518113952"/>
    <nd ref="518113949"/>
    <nd ref="518114003"/>
    <nd ref="518113991"/>
    <nd ref="518113941"/>
    <nd ref="518113944"/>
    <tag k="addr:city" v="München"/>
    <tag k="addr:country" v="DE"/>
    <tag k="addr:housenumber" v="35"/>
    <tag k="addr:postcode" v="81477"/>
    <tag k="addr:street" v="Grünbauerstraße"/>
    <tag k="building" v="yes"/>
  </way>
  <way id="41880948" version="6" timestamp="2010-06-01T14:40:00Z" uid="30579" user="Tiramisu" changeset="4875140">
    <nd ref="518113944"/>
    <nd ref="518113957"/>
    <nd ref="518113954"/>
    <nd ref="518113952"/>
    <nd ref="518113949"/>
    <nd ref="518114003"/>
    <nd ref="518113991"/>
    <nd ref="518113941"/>
    <nd ref="518113944"/>
    <tag k="addr:city" v="München"/>
    <tag k="addr:country" v="DE"/>
    <tag k="addr:housenumber" v="35"/>
    <tag k="addr:postcode" v="81479"/>
    <tag k="addr:street" v="Grünbauerstraße"/>
    <tag k="building" v="yes"/>
  </way>
  <way id="41880948" version="7" timestamp="2011-06-18T09:19:59Z" uid="11374" user="q_un_go" changeset="8471305">
    <nd ref="518113944"/>
    <nd ref="1329404215"/>
    <nd ref="518113957"/>
    <nd ref="518113954"/>
    <nd ref="518113952"/>
    <nd ref="518113949"/>
    <nd ref="518114003"/>
    <nd ref="1329404828"/>
    <nd ref="518113991"/>
    <nd ref="518113941"/>
    <nd ref="1329404017"/>
    <nd ref="1329404326"/>
    <nd ref="518113944"/>
    <tag k="addr:city" v="München"/>
    <tag k="addr:country" v="DE"/>
    <tag k="addr:housenumber" v="35"/>
    <tag k="addr:postcode" v="81479"/>
    <tag k="addr:street" v="Grünbauerstraße"/>
    <tag k="building" v="yes"/>
  </way>
  <way id="41880949" version="1" timestamp="2009-10-02T20:43:07Z" uid="86259" user="hasse_osm_korinthenkacker" changeset="2717407">
    <nd ref="518113995"/>
    <nd ref="518113993"/>
    <nd ref="518114013"/>
    <nd ref="518114011"/>
    <nd ref="518113995"/>
    <tag k="addr:housenumber" v="37"/>
    <tag k="addr:street" v="Grünbauerstraße"/>
    <tag k="building" v="yes"/>
    <tag k="source" v="Yahoo;survey"/>
  </way>
  <way id="41880949" version="2" timestamp="2009-10-03T17:44:05Z" uid="179968" user="Ich_hasse_doitsche_OSM-Korinthenkacker" changeset="2727120">
    <nd ref="518113995"/>
    <nd ref="518113993"/>
    <nd ref="518114013"/>
    <nd ref="518114011"/>
    <nd ref="518113995"/>
    <tag k="addr:housenumber" v="37"/>
    <tag k="addr:street" v="Grünbauerstraße"/>
    <tag k="building" v="yes"/>
  </way>
  <way id="41880949" version="3" timestamp="2010-05-08T20:58:31Z" uid="36809" user="pfoten_weg_!_" changeset="4643009"/>
  <way id="41880949" version="4" timestamp="2010-05-09T08:53:11Z" uid="145231" user="woodpeck_repair" changeset="4645739">
    <nd ref="518113995"/>
    <nd ref="518113993"/>
    <nd ref="518114013"/>
    <nd ref="518114011"/>
    <nd ref="518113995"/>
    <tag k="addr:housenumber" v="37"/>
    <tag k="addr:street" v="Grünbauerstraße"/>
    <tag k="building" v="yes"/>
  </way>
  <way id="41880949" version="5" timestamp="2010-06-01T13:22:55Z" uid="30579" user="Tiramisu" changeset="4874529">
    <nd ref="518113995"/>
    <nd ref="518113993"/>
    <nd ref="518114013"/>
    <nd ref="518114011"/>
    <nd ref="518113995"/>
    <tag k="addr:city" v="München"/>
    <tag k="addr:country" v="DE"/>
    <tag k="addr:housenumber" v="37"/>
    <tag k="addr:postcode" v="81477"/>
    <tag k="addr:street" v="Grünbauerstraße"/>
    <tag k="building" v="yes"/>
  </way>
  <way id="41880949" version="6" timestamp="2010-06-01T14:40:03Z" uid="30579" user="Tiramisu" changeset="4875140">
    <nd ref="518113995"/>
    <nd ref="518113993"/>
    <nd ref="518114013"/>
    <nd ref="518114011"/>
    <nd ref="518113995"/>
    <tag k="addr:city" v="München"/>
    <tag k="addr:country" v="DE"/>
    <tag k="addr:housenumber" v="37"/>
    <tag k="addr:postcode" v="81479"/>
    <tag k="addr:street" v="Grünbauerstraße"/>
    <tag k="building" v="yes"/>
  </way>
  <way id="41880949" version="7" timestamp="2011-06-18T09:20:04Z" uid="11374" user="q_un_go" changeset="8471305">
    <nd ref="518113995"/>
    <nd ref="518113993"/>
    <nd ref="1329404493"/>
    <nd ref="1329404080"/>
    <nd ref="518114013"/>
    <nd ref="518114011"/>
    <nd ref="518113995"/>
    <tag k="addr:city" v="München"/>
    <tag k="addr:country" v="DE"/>
    <tag k="addr:housenumber" v="37"/>
    <tag k="addr:postcode" v="81479"/>
    <tag k="addr:street" v="Grünbauerstraße"/>
    <tag k="building" v="yes"/>
  </way>
  <way id="41880950" version="1" timestamp="2009-10-02T20:43:07Z" uid="86259" user="hasse_osm_korinthenkacker" changeset="2717407">
    <nd ref="518113989"/>
    <nd ref="518114008"/>
    <nd ref="518114006"/>
    <nd ref="518114000"/>
    <nd ref="518113989"/>
    <tag k="addr:housenumber" v="39"/>
    <tag k="addr:street" v="Grünbauerstraße"/>
    <tag k="building" v="yes"/>
    <tag k="source" v="Yahoo;survey"/>
  </way>
  <way id="41880950" version="2" timestamp="2009-10-03T17:44:05Z" uid="179968" user="Ich_hasse_doitsche_OSM-Korinthenkacker" changeset="2727120">
    <nd ref="518113989"/>
    <nd ref="518114008"/>
    <nd ref="518114006"/>
    <nd ref="518114000"/>
    <nd ref="518113989"/>
    <tag k="addr:housenumber" v="39"/>
    <tag k="addr:street" v="Grünbauerstraße"/>
    <tag k="building" v="yes"/>
  </way>
  <way id="41880950" version="3" timestamp="2010-05-08T20:58:30Z" uid="36809" user="pfoten_weg_!_" changeset="4643009"/>
  <way id="41880950" version="4" timestamp="2010-05-09T08:53:10Z" uid="145231" user="woodpeck_repair" changeset="4645739">
    <nd ref="518113989"/>
    <nd ref="518114008"/>
    <nd ref="518114006"/>
    <nd ref="518114000"/>
    <nd ref="518113989"/>
    <tag k="addr:housenumber" v="39"/>
    <tag k="addr:street" v="Grünbauerstraße"/>
    <tag k="building" v="yes"/>
  </way>
  <way id="41880950" version="5" timestamp="2010-06-01T13:22:49Z" uid="30579" user="Tiramisu" changeset="4874529">
    <nd ref="518113989"/>
    <nd ref="518114008"/>
    <nd ref="518114006"/>
    <nd ref="518114000"/>
    <nd ref="518113989"/>
    <tag k="addr:city" v="München"/>
    <tag k="addr:country" v="DE"/>
    <tag k="addr:housenumber" v="39"/>
    <tag k="addr:postcode" v="81477"/>
    <tag k="addr:street" v="Grünbauerstraße"/>
    <tag k="building" v="yes"/>
  </way>
  <way id="41880950" version="6" timestamp="2010-06-01T14:39:59Z" uid="30579" user="Tiramisu" changeset="4875140">
    <nd ref="518113989"/>
    <nd ref="518114008"/>
    <nd ref="518114006"/>
    <nd ref="518114000"/>
    <nd ref="518113989"/>
    <tag k="addr:city" v="München"/>
    <tag k="addr:country" v="DE"/>
    <tag k="addr:housenumber" v="39"/>
    <tag k="addr:postcode" v="81479"/>
    <tag k="addr:street" v="Grünbauerstraße"/>
    <tag k="building" v="yes"/>
  </way>
  <way id="41880951" version="1" timestamp="2009-10-02T20:43:07Z" uid="86259" user="hasse_osm_korinthenkacker" changeset="2717407">
    <nd ref="518113972"/>
    <nd ref="518113917"/>
    <nd ref="518113960"/>
    <nd ref="518113967"/>
    <nd ref="518113969"/>
    <nd ref="518113965"/>
    <nd ref="518113972"/>
    <tag k="addr:housenumber" v="20"/>
    <tag k="addr:street" v="Breitschwertstraße"/>
    <tag k="building" v="yes"/>
    <tag k="source" v="Yahoo;survey"/>
  </way>
  <way id="41880951" version="2" timestamp="2009-10-03T17:44:05Z" uid="179968" user="Ich_hasse_doitsche_OSM-Korinthenkacker" changeset="2727120">
    <nd ref="518113972"/>
    <nd ref="518113917"/>
    <nd ref="518113960"/>
    <nd ref="518113967"/>
    <nd ref="518113969"/>
    <nd ref="518113965"/>
    <nd ref="518113972"/>
    <tag k="addr:housenumber" v="20"/>
    <tag k="addr:street" v="Breitschwertstraße"/>
    <tag k="building" v="yes"/>
  </way>
  <way id="41880951" version="3" timestamp="2010-05-08T20:58:30Z" uid="36809" user="pfoten_weg_!_" changeset="4643009"/>
  <way id="41880951" version="4" timestamp="2010-05-09T08:53:10Z" uid="145231" user="woodpeck_repair" changeset="4645739">
    <nd ref="518113972"/>
    <nd ref="518113917"/>
    <nd ref="518113960"/>
    <nd ref="518113967"/>
    <nd ref="518113969"/>
    <nd ref="518113965"/>
    <nd ref="518113972"/>
    <tag k="addr:housenumber" v="20"/>
    <tag k="addr:street" v="Breitschwertstraße"/>
    <tag k="building" v="yes"/>
  </way>
  <way id="41880951" version="5" timestamp="2010-06-01T13:22:54Z" uid="30579" user="Tiramisu" changeset="4874529">
    <nd ref="518113972"/>
    <nd ref="518113917"/>
    <nd ref="518113960"/>
    <nd ref="518113967"/>
    <nd ref="518113969"/>
    <nd ref="518113965"/>
    <nd ref="518113972"/>
    <tag k="addr:city" v="München"/>
    <tag k="addr:country" v="DE"/>
    <tag k="addr:housenumber" v="20"/>
    <tag k="addr:postcode" v="81477"/>
    <tag k="addr:street" v="Breitschwertstraße"/>
    <tag k="building" v="yes"/>
  </way>
  <way id="41880951" version="6" timestamp="2010-06-01T14:40:02Z" uid="30579" user="Tiramisu" changeset="4875140">
    <nd ref="518113972"/>
    <nd ref="518113917"/>
    <nd ref="518113960"/>
    <nd ref="518113967"/>
    <nd ref="518113969"/>
    <nd ref="518113965"/>
    <nd ref="518113972"/>
    <tag k="addr:city" v="München"/>
    <tag k="addr:country" v="DE"/>
    <tag k="addr:housenumber" v="20"/>
    <tag k="addr:postcode" v="81479"/>
    <tag k="addr:street" v="Breitschwertstraße"/>
    <tag k="building" v="yes"/>
  </way>
  <way id="41880952" version="1" timestamp="2009-10-02T20:43:07Z" uid="86259" user="hasse_osm_korinthenkacker" changeset="2717407">
    <nd ref="518113974"/>
    <nd ref="518113987"/>
    <nd ref="518113982"/>
    <nd ref="518113979"/>
    <nd ref="518113974"/>
    <tag k="addr:housenumber" v="18"/>
    <tag k="addr:street" v="Breitschwertstraße"/>
    <tag k="building" v="yes"/>
    <tag k="source" v="Yahoo;survey"/>
  </way>
  <way id="41880952" version="2" timestamp="2009-10-03T17:44:03Z" uid="179968" user="Ich_hasse_doitsche_OSM-Korinthenkacker" changeset="2727120">
    <nd ref="518113974"/>
    <nd ref="518113987"/>
    <nd ref="518113982"/>
    <nd ref="518113979"/>
    <nd ref="518113974"/>
    <tag k="addr:housenumber" v="18"/>
    <tag k="addr:street" v="Breitschwertstraße"/>
    <tag k="building" v="yes"/>
  </way>
  <way id="41880952" version="3" timestamp="2010-05-08T20:58:32Z" uid="36809" user="pfoten_weg_!_" changeset="4643009"/>
  <way id="41880952" version="4" timestamp="2010-05-09T08:53:10Z" uid="145231" user="woodpeck_repair" changeset="4645739">
    <nd ref="518113974"/>
    <nd ref="518113987"/>
    <nd ref="518113982"/>
    <nd ref="518113979"/>
    <nd ref="518113974"/>
    <tag k="addr:housenumber" v="18"/>
    <tag k="addr:street" v="Breitschwertstraße"/>
    <tag k="building" v="yes"/>
  </way>
  <way id="41880952" version="5" timestamp="2010-06-01T13:22:55Z" uid="30579" user="Tiramisu" changeset="4874529">
    <nd ref="518113974"/>
    <nd ref="518113987"/>
    <nd ref="518113982"/>
    <nd ref="518113979"/>
    <nd ref="518113974"/>
    <tag k="addr:city" v="München"/>
    <tag k="addr:country" v="DE"/>
    <tag k="addr:housenumber" v="18"/>
    <tag k="addr:postcode" v="81477"/>
    <tag k="addr:street" v="Breitschwertstraße"/>
    <tag k="building" v="yes"/>
  </way>
  <way id="41880952" version="6" timestamp="2010-06-01T14:40:02Z" uid="30579" user="Tiramisu" changeset="4875140">
    <nd ref="518113974"/>
    <nd ref="518113987"/>
    <nd ref="518113982"/>
    <nd ref="518113979"/>
    <nd ref="518113974"/>
    <tag k="addr:city" v="München"/>
    <tag k="addr:country" v="DE"/>
    <tag k="addr:housenumber" v="18"/>
    <tag k="addr:postcode" v="81479"/>
    <tag k="addr:street" v="Breitschwertstraße"/>
    <tag k="building" v="yes"/>
  </way>
  <way id="41880953" version="1" timestamp="2009-10-02T20:43:07Z" uid="86259" user="hasse_osm_korinthenkacker" changeset="2717407">
    <nd ref="518114381"/>
    <nd ref="518114385"/>
    <nd ref="518114389"/>
    <nd ref="518114392"/>
    <nd ref="518114381"/>
    <tag k="addr:housenumber" v="63"/>
    <tag k="addr:street" v="Grünbauerstraße"/>
    <tag k="building" v="yes"/>
    <tag k="source" v="Yahoo;survey"/>
  </way>
  <way id="41880953" version="2" timestamp="2009-10-03T17:44:04Z" uid="179968" user="Ich_hasse_doitsche_OSM-Korinthenkacker" changeset="2727120">
    <nd ref="518114381"/>
    <nd ref="518114385"/>
    <nd ref="518114389"/>
    <nd ref="518114392"/>
    <nd ref="518114381"/>
    <tag k="addr:housenumber" v="63"/>
    <tag k="addr:street" v="Grünbauerstraße"/>
    <tag k="building" v="yes"/>
  </way>
  <way id="41880953" version="3" timestamp="2010-05-08T20:58:30Z" uid="36809" user="pfoten_weg_!_" changeset="4643009"/>
  <way id="41880953" version="4" timestamp="2010-05-09T08:53:09Z" uid="145231" user="woodpeck_repair" changeset="4645739">
    <nd ref="518114381"/>
    <nd ref="518114385"/>
    <nd ref="518114389"/>
    <nd ref="518114392"/>
    <nd ref="518114381"/>
    <tag k="addr:housenumber" v="63"/>
    <tag k="addr:street" v="Grünbauerstraße"/>
    <tag k="building" v="yes"/>
  </way>
  <way id="41880953" version="5" timestamp="2010-06-01T13:22:53Z" uid="30579" user="Tiramisu" changeset="4874529">
    <nd ref="518114381"/>
    <nd ref="518114385"/>
    <nd ref="518114389"/>
    <nd ref="518114392"/>
    <nd ref="518114381"/>
    <tag k="addr:city" v="München"/>
    <tag k="addr:country" v="DE"/>
    <tag k="addr:housenumber" v="63"/>
    <tag k="addr:postcode" v="81477"/>
    <tag k="addr:street" v="Grünbauerstraße"/>
    <tag k="building" v="yes"/>
  </way>
  <way id="41880953" version="6" timestamp="2010-06-01T14:35:44Z" uid="30579" user="Tiramisu" changeset="4875095">
    <nd ref="518114381"/>
    <nd ref="518114385"/>
    <nd ref="518114389"/>
    <nd ref="518114392"/>
    <nd ref="518114381"/>
    <tag k="addr:city" v="München"/>
    <tag k="addr:country" v="DE"/>
    <tag k="addr:housenumber" v="63"/>
    <tag k="addr:postcode" v="81479"/>
    <tag k="addr:street" v="Grünbauerstraße"/>
    <tag k="amenity" v="kindergarten"/>
    <tag k="building" v="yes"/>
    <tag k="name" v="Villa Kunterbunt"/>
  </way>
  <way id="41880953" version="7" timestamp="2010-07-16T11:53:05Z" uid="16840" user="Vral" changeset="5234206">
    <nd ref="518114381"/>
    <nd ref="518114385"/>
    <nd ref="518114389"/>
    <nd ref="518114392"/>
    <nd ref="518114381"/>
    <tag k="addr:city" v="München"/>
    <tag k="addr:country" v="DE"/>
    <tag k="addr:housenumber" v="63"/>
    <tag k="addr:postcode" v="81479"/>
    <tag k="addr:street" v="Grünbauerstraße"/>
    <tag k="amenity" v="kindergarten"/>
    <tag k="building" v="yes"/>
    <tag k="name" v="Villa Kinderbunt"/>
  </way>
  <way id="41880954" version="1" timestamp="2009-10-02T20:43:08Z" uid="86259" user="hasse_osm_korinthenkacker" changeset="2717407">
    <nd ref="518113673"/>
    <nd ref="518113709"/>
    <nd ref="518113686"/>
    <nd ref="518113689"/>
    <nd ref="518113691"/>
    <nd ref="518113678"/>
    <nd ref="518113684"/>
    <nd ref="518113680"/>
    <nd ref="518113682"/>
    <nd ref="518113674"/>
    <nd ref="518113676"/>
    <nd ref="518113685"/>
    <nd ref="518113666"/>
    <nd ref="518113673"/>
    <tag k="addr:city" v="München"/>
    <tag k="addr:country" v="DE"/>
    <tag k="addr:housenumber" v="16"/>
    <tag k="addr:postcode" v="81477"/>
    <tag k="addr:street" v="Stäblistraße"/>
    <tag k="amenity" v="restaurant"/>
    <tag k="building" v="yes"/>
    <tag k="layer" v="1"/>
    <tag k="name" v="McDonalds, McDrive"/>
    <tag k="source" v="survey"/>
  </way>
  <way id="41880954" version="2" timestamp="2009-10-13T23:14:26Z" uid="36809" user="pfoten_weg_!_" changeset="2841175">
    <nd ref="518113673"/>
    <nd ref="518113709"/>
    <nd ref="518113686"/>
    <nd ref="518113689"/>
    <nd ref="518113691"/>
    <nd ref="518113678"/>
    <nd ref="518113684"/>
    <nd ref="518113680"/>
    <nd ref="518113682"/>
    <nd ref="518113674"/>
    <nd ref="518113676"/>
    <nd ref="518113685"/>
    <nd ref="518113666"/>
    <nd ref="518113673"/>
    <tag k="addr:city" v="München"/>
    <tag k="addr:country" v="DE"/>
    <tag k="addr:housenumber" v="16"/>
    <tag k="addr:postcode" v="81477"/>
    <tag k="addr:street" v="Stäblistraße"/>
    <tag k="amenity" v="restaurant"/>
    <tag k="building" v="yes"/>
    <tag k="layer" v="1"/>
    <tag k="name" v="McDonalds, McDrive"/>
  </way>
  <way id="41880954" version="3" timestamp="2010-05-08T20:52:45Z" uid="36809" user="pfoten_weg_!_" changeset="4642954"/>
  <way id="41880954" version="4" timestamp="2010-05-09T08:53:08Z" uid="145231" user="woodpeck_repair" changeset="4645739">
    <nd ref="518113673"/>
    <nd ref="518113709"/>
    <nd ref="518113686"/>
    <nd ref="518113689"/>
    <nd ref="518113691"/>
    <nd ref="518113678"/>
    <nd ref="518113684"/>
    <nd ref="518113680"/>
    <nd ref="518113682"/>
    <nd ref="518113674"/>
    <nd ref="518113676"/>
    <nd ref="518113685"/>
    <nd ref="518113666"/>
    <nd ref="518113673"/>
    <tag k="addr:city" v="München"/>
    <tag k="addr:country" v="DE"/>
    <tag k="addr:housenumber" v="16"/>
    <tag k="addr:postcode" v="81477"/>
    <tag k="addr:street" v="Stäblistraße"/>
    <tag k="amenity" v="restaurant"/>
    <tag k="building" v="yes"/>
    <tag k="layer" v="1"/>
    <tag k="name" v="McDonalds, McDrive"/>
    <tag k="source" v="survey"/>
  </way>
  <way id="41880954" version="5" timestamp="2010-12-28T13:15:25Z" uid="31075" user="wieland" changeset="6788055">
    <nd ref="518113673"/>
    <nd ref="518113709"/>
    <nd ref="518113686"/>
    <nd ref="518113689"/>
    <nd ref="518113691"/>
    <nd ref="518113678"/>
    <nd ref="518113684"/>
    <nd ref="518113680"/>
    <nd ref="518113682"/>
    <nd ref="518113674"/>
    <nd ref="518113676"/>
    <nd ref="518113685"/>
    <nd ref="518113666"/>
    <nd ref="518113673"/>
    <tag k="addr:city" v="München"/>
    <tag k="addr:country" v="DE"/>
    <tag k="addr:housenumber" v="16"/>
    <tag k="addr:postcode" v="81477"/>
    <tag k="addr:street" v="Stäblistraße"/>
    <tag k="amenity" v="fast_food"/>
    <tag k="building" v="yes"/>
    <tag k="layer" v="1"/>
    <tag k="name" v="McDonalds, McDrive"/>
    <tag k="source" v="survey"/>
  </way>
  <way id="41880955" version="1" timestamp="2009-10-02T20:43:08Z" uid="86259" user="hasse_osm_korinthenkacker" changeset="2717407">
    <nd ref="518114366"/>
    <nd ref="518114355"/>
    <nd ref="518114352"/>
    <nd ref="518114364"/>
    <nd ref="518114366"/>
    <tag k="addr:housenumber" v="5,7"/>
    <tag k="addr:street" v="Plattlinger Straße"/>
    <tag k="building" v="yes"/>
    <tag k="source" v="Yahoo;survey"/>
  </way>
  <way id="41880955" version="2" timestamp="2009-10-03T17:44:04Z" uid="179968" user="Ich_hasse_doitsche_OSM-Korinthenkacker" changeset="2727120">
    <nd ref="518114366"/>
    <nd ref="518114355"/>
    <nd ref="518114352"/>
    <nd ref="518114364"/>
    <nd ref="518114366"/>
    <tag k="addr:housenumber" v="5,7"/>
    <tag k="addr:street" v="Plattlinger Straße"/>
    <tag k="building" v="yes"/>
  </way>
  <way id="41880955" version="3" timestamp="2010-05-08T20:58:31Z" uid="36809" user="pfoten_weg_!_" changeset="4643009"/>
  <way id="41880955" version="4" timestamp="2010-05-09T08:53:07Z" uid="145231" user="woodpeck_repair" changeset="4645739">
    <nd ref="518114366"/>
    <nd ref="518114355"/>
    <nd ref="518114352"/>
    <nd ref="518114364"/>
    <nd ref="518114366"/>
    <tag k="addr:housenumber" v="5,7"/>
    <tag k="addr:street" v="Plattlinger Straße"/>
    <tag k="building" v="yes"/>
  </way>
  <way id="41880955" version="5" timestamp="2010-06-01T13:22:52Z" uid="30579" user="Tiramisu" changeset="4874529">
    <nd ref="518114366"/>
    <nd ref="518114355"/>
    <nd ref="518114352"/>
    <nd ref="518114364"/>
    <nd ref="518114366"/>
    <tag k="addr:city" v="München"/>
    <tag k="addr:country" v="DE"/>
    <tag k="addr:housenumber" v="5,7"/>
    <tag k="addr:postcode" v="81477"/>
    <tag k="addr:street" v="Plattlinger Straße"/>
    <tag k="building" v="yes"/>
  </way>
  <way id="41880955" version="6" timestamp="2010-06-01T14:40:00Z" uid="30579" user="Tiramisu" changeset="4875140">
    <nd ref="518114366"/>
    <nd ref="518114355"/>
    <nd ref="518114352"/>
    <nd ref="518114364"/>
    <nd ref="518114366"/>
    <tag k="addr:city" v="München"/>
    <tag k="addr:country" v="DE"/>
    <tag k="addr:housenumber" v="5,7"/>
    <tag k="addr:postcode" v="81479"/>
    <tag k="addr:street" v="Plattlinger Straße"/>
    <tag k="building" v="yes"/>
  </way>
  <way id="41880956" version="1" timestamp="2009-10-02T20:43:08Z" uid="86259" user="hasse_osm_korinthenkacker" changeset="2717407">
    <nd ref="518113693"/>
    <nd ref="518113698"/>
    <nd ref="518113695"/>
    <nd ref="518113700"/>
    <nd ref="518113714"/>
    <nd ref="518113715"/>
    <nd ref="518113711"/>
    <nd ref="518113704"/>
    <nd ref="518113706"/>
    <nd ref="518113702"/>
    <nd ref="518113693"/>
    <tag k="addr:city" v="München"/>
    <tag k="addr:country" v="DE"/>
    <tag k="addr:housenumber" v="45"/>
    <tag k="addr:postcode" v="81477"/>
    <tag k="addr:street" v="Drygalski-Allee"/>
    <tag k="building" v="yes"/>
    <tag k="layer" v="1"/>
    <tag k="name" v="ANZAG"/>
    <tag k="source" v="survey"/>
  </way>
  <way id="41880956" version="2" timestamp="2009-10-13T23:14:45Z" uid="36809" user="pfoten_weg_!_" changeset="2841175">
    <nd ref="518113693"/>
    <nd ref="518113698"/>
    <nd ref="518113695"/>
    <nd ref="518113700"/>
    <nd ref="518113714"/>
    <nd ref="518113715"/>
    <nd ref="518113711"/>
    <nd ref="518113704"/>
    <nd ref="518113706"/>
    <nd ref="518113702"/>
    <nd ref="518113693"/>
    <tag k="addr:city" v="München"/>
    <tag k="addr:country" v="DE"/>
    <tag k="addr:housenumber" v="45"/>
    <tag k="addr:postcode" v="81477"/>
    <tag k="addr:street" v="Drygalski-Allee"/>
    <tag k="building" v="yes"/>
    <tag k="layer" v="1"/>
    <tag k="name" v="ANZAG"/>
  </way>
  <way id="41880956" version="3" timestamp="2010-05-08T20:52:45Z" uid="36809" user="pfoten_weg_!_" changeset="4642954"/>
  <way id="41880956" version="4" timestamp="2010-05-09T08:53:06Z" uid="145231" user="woodpeck_repair" changeset="4645739">
    <nd ref="518113693"/>
    <nd ref="518113698"/>
    <nd ref="518113695"/>
    <nd ref="518113700"/>
    <nd ref="518113714"/>
    <nd ref="518113715"/>
    <nd ref="518113711"/>
    <nd ref="518113704"/>
    <nd ref="518113706"/>
    <nd ref="518113702"/>
    <nd ref="518113693"/>
    <tag k="addr:city" v="München"/>
    <tag k="addr:country" v="DE"/>
    <tag k="addr:housenumber" v="45"/>
    <tag k="addr:postcode" v="81477"/>
    <tag k="addr:street" v="Drygalski-Allee"/>
    <tag k="building" v="yes"/>
    <tag k="layer" v="1"/>
    <tag k="name" v="ANZAG"/>
    <tag k="source" v="survey"/>
  </way>
  <way id="41880957" version="1" timestamp="2009-10-02T20:43:08Z" uid="86259" user="hasse_osm_korinthenkacker" changeset="2717407">
    <nd ref="518114152"/>
    <nd ref="518114148"/>
    <nd ref="518114146"/>
    <nd ref="518114154"/>
    <nd ref="518114152"/>
    <tag k="addr:housenumber" v="13,15"/>
    <tag k="addr:street" v="Plattlinger Straße"/>
    <tag k="building" v="yes"/>
    <tag k="source" v="Yahoo;survey"/>
  </way>
  <way id="41880957" version="2" timestamp="2009-10-03T17:44:04Z" uid="179968" user="Ich_hasse_doitsche_OSM-Korinthenkacker" changeset="2727120">
    <nd ref="518114152"/>
    <nd ref="518114148"/>
    <nd ref="518114146"/>
    <nd ref="518114154"/>
    <nd ref="518114152"/>
    <tag k="addr:housenumber" v="13,15"/>
    <tag k="addr:street" v="Plattlinger Straße"/>
    <tag k="building" v="yes"/>
  </way>
  <way id="41880957" version="3" timestamp="2010-05-08T20:58:30Z" uid="36809" user="pfoten_weg_!_" changeset="4643009"/>
  <way id="41880957" version="4" timestamp="2010-05-09T08:53:06Z" uid="145231" user="woodpeck_repair" changeset="4645739">
    <nd ref="518114152"/>
    <nd ref="518114148"/>
    <nd ref="518114146"/>
    <nd ref="518114154"/>
    <nd ref="518114152"/>
    <tag k="addr:housenumber" v="13,15"/>
    <tag k="addr:street" v="Plattlinger Straße"/>
    <tag k="building" v="yes"/>
  </way>
  <way id="41880957" version="5" timestamp="2010-06-01T13:22:56Z" uid="30579" user="Tiramisu" changeset="4874529">
    <nd ref="518114152"/>
    <nd ref="518114148"/>
    <nd ref="518114146"/>
    <nd ref="518114154"/>
    <nd ref="518114152"/>
    <tag k="addr:city" v="München"/>
    <tag k="addr:country" v="DE"/>
    <tag k="addr:housenumber" v="13,15"/>
    <tag k="addr:postcode" v="81477"/>
    <tag k="addr:street" v="Plattlinger Straße"/>
    <tag k="building" v="yes"/>
  </way>
  <way id="41880957" version="6" timestamp="2010-06-01T14:39:58Z" uid="30579" user="Tiramisu" changeset="4875140">
    <nd ref="518114152"/>
    <nd ref="518114148"/>
    <nd ref="518114146"/>
    <nd ref="518114154"/>
    <nd ref="518114152"/>
    <tag k="addr:city" v="München"/>
    <tag k="addr:country" v="DE"/>
    <tag k="addr:housenumber" v="13,15"/>
    <tag k="addr:postcode" v="81479"/>
    <tag k="addr:street" v="Plattlinger Straße"/>
    <tag k="building" v="yes"/>
  </way>
  <way id="41880958" version="1" timestamp="2009-10-02T20:43:08Z" uid="86259" user="hasse_osm_korinthenkacker" changeset="2717407">
    <nd ref="518114358"/>
    <nd ref="518114151"/>
    <nd ref="518114349"/>
    <nd ref="518114361"/>
    <nd ref="518114358"/>
    <tag k="addr:housenumber" v="9,11"/>
    <tag k="addr:street" v="Plattlinger Straße"/>
    <tag k="building" v="yes"/>
    <tag k="source" v="Yahoo;survey"/>
  </way>
  <way id="41880958" version="2" timestamp="2009-10-03T17:44:04Z" uid="179968" user="Ich_hasse_doitsche_OSM-Korinthenkacker" changeset="2727120">
    <nd ref="518114358"/>
    <nd ref="518114151"/>
    <nd ref="518114349"/>
    <nd ref="518114361"/>
    <nd ref="518114358"/>
    <tag k="addr:housenumber" v="9,11"/>
    <tag k="addr:street" v="Plattlinger Straße"/>
    <tag k="building" v="yes"/>
  </way>
  <way id="41880958" version="3" timestamp="2010-05-08T20:58:30Z" uid="36809" user="pfoten_weg_!_" changeset="4643009"/>
  <way id="41880958" version="4" timestamp="2010-05-09T08:53:05Z" uid="145231" user="woodpeck_repair" changeset="4645739">
    <nd ref="518114358"/>
    <nd ref="518114151"/>
    <nd ref="518114349"/>
    <nd ref="518114361"/>
    <nd ref="518114358"/>
    <tag k="addr:housenumber" v="9,11"/>
    <tag k="addr:street" v="Plattlinger Straße"/>
    <tag k="building" v="yes"/>
  </way>
  <way id="41880958" version="5" timestamp="2010-06-01T13:22:50Z" uid="30579" user="Tiramisu" changeset="4874529">
    <nd ref="518114358"/>
    <nd ref="518114151"/>
    <nd ref="518114349"/>
    <nd ref="518114361"/>
    <nd ref="518114358"/>
    <tag k="addr:city" v="München"/>
    <tag k="addr:country" v="DE"/>
    <tag k="addr:housenumber" v="9,11"/>
    <tag k="addr:postcode" v="81477"/>
    <tag k="addr:street" v="Plattlinger Straße"/>
    <tag k="building" v="yes"/>
  </way>
  <way id="41880958" version="6" timestamp="2010-06-01T14:39:59Z" uid="30579" user="Tiramisu" changeset="4875140">
    <nd ref="518114358"/>
    <nd ref="518114151"/>
    <nd ref="518114349"/>
    <nd ref="518114361"/>
    <nd ref="518114358"/>
    <tag k="addr:city" v="München"/>
    <tag k="addr:country" v="DE"/>
    <tag k="addr:housenumber" v="9,11"/>
    <tag k="addr:postcode" v="81479"/>
    <tag k="addr:street" v="Plattlinger Straße"/>
    <tag k="building" v="yes"/>
  </way>
  <way id="41880959" version="1" timestamp="2009-10-02T20:43:08Z" uid="86259" user="hasse_osm_korinthenkacker" changeset="2717407">
    <nd ref="518113661"/>
    <nd ref="518113672"/>
    <nd ref="518113670"/>
    <nd ref="518113668"/>
    <nd ref="518113656"/>
    <nd ref="518113652"/>
    <nd ref="518113654"/>
    <nd ref="518113649"/>
    <nd ref="518113645"/>
    <nd ref="518113648"/>
    <nd ref="518113646"/>
    <nd ref="518113659"/>
    <nd ref="518113660"/>
    <nd ref="518113661"/>
    <tag k="abutters" v="commercial"/>
    <tag k="addr:city" v="München"/>
    <tag k="addr:country" v="DE"/>
    <tag k="addr:housenumber" v="51"/>
    <tag k="addr:postcode" v="81477"/>
    <tag k="addr:street" v="Drygalski-Allee"/>
    <tag k="amenity" v="public_building"/>
    <tag k="area" v="yes"/>
    <tag k="building" v="yes"/>
    <tag k="layer" v="1"/>
    <tag k="name" v="McDonald&apos;s Deutschland Inc."/>
    <tag k="source" v="survey"/>
  </way>
  <way id="41880959" version="2" timestamp="2009-10-13T23:14:39Z" uid="36809" user="pfoten_weg_!_" changeset="2841175">
    <nd ref="518113661"/>
    <nd ref="518113672"/>
    <nd ref="518113670"/>
    <nd ref="518113668"/>
    <nd ref="518113656"/>
    <nd ref="518113652"/>
    <nd ref="518113654"/>
    <nd ref="518113649"/>
    <nd ref="518113645"/>
    <nd ref="518113648"/>
    <nd ref="518113646"/>
    <nd ref="518113659"/>
    <nd ref="518113660"/>
    <nd ref="518113661"/>
    <tag k="abutters" v="commercial"/>
    <tag k="addr:city" v="München"/>
    <tag k="addr:country" v="DE"/>
    <tag k="addr:housenumber" v="51"/>
    <tag k="addr:postcode" v="81477"/>
    <tag k="addr:street" v="Drygalski-Allee"/>
    <tag k="amenity" v="public_building"/>
    <tag k="area" v="yes"/>
    <tag k="building" v="yes"/>
    <tag k="layer" v="1"/>
    <tag k="name" v="McDonald&apos;s Deutschland Inc."/>
  </way>
  <way id="41880959" version="3" timestamp="2010-05-08T20:52:45Z" uid="36809" user="pfoten_weg_!_" changeset="4642954"/>
  <way id="41880959" version="4" timestamp="2010-05-09T08:53:04Z" uid="145231" user="woodpeck_repair" changeset="4645739">
    <nd ref="518113661"/>
    <nd ref="518113672"/>
    <nd ref="518113670"/>
    <nd ref="518113668"/>
    <nd ref="518113656"/>
    <nd ref="518113652"/>
    <nd ref="518113654"/>
    <nd ref="518113649"/>
    <nd ref="518113645"/>
    <nd ref="518113648"/>
    <nd ref="518113646"/>
    <nd ref="518113659"/>
    <nd ref="518113660"/>
    <nd ref="518113661"/>
    <tag k="abutters" v="commercial"/>
    <tag k="addr:city" v="München"/>
    <tag k="addr:country" v="DE"/>
    <tag k="addr:housenumber" v="51"/>
    <tag k="addr:postcode" v="81477"/>
    <tag k="addr:street" v="Drygalski-Allee"/>
    <tag k="amenity" v="public_building"/>
    <tag k="area" v="yes"/>
    <tag k="building" v="yes"/>
    <tag k="layer" v="1"/>
    <tag k="name" v="McDonald&apos;s Deutschland Inc."/>
    <tag k="source" v="survey"/>
  </way>
  <way id="41880959" version="5" timestamp="2011-08-28T13:45:30Z" uid="8703" user="rolandg" changeset="9147405">
    <nd ref="518113661"/>
    <nd ref="518113672"/>
    <nd ref="518113670"/>
    <nd ref="518113668"/>
    <nd ref="518113656"/>
    <nd ref="518113652"/>
    <nd ref="518113654"/>
    <nd ref="518113649"/>
    <nd ref="518113645"/>
    <nd ref="518113648"/>
    <nd ref="518113646"/>
    <nd ref="518113659"/>
    <nd ref="1416078890"/>
    <nd ref="1416078817"/>
    <nd ref="518113660"/>
    <nd ref="518113661"/>
    <tag k="abutters" v="commercial"/>
    <tag k="addr:city" v="München"/>
    <tag k="addr:country" v="DE"/>
    <tag k="addr:housenumber" v="51"/>
    <tag k="addr:postcode" v="81477"/>
    <tag k="addr:street" v="Drygalski-Allee"/>
    <tag k="amenity" v="public_building"/>
    <tag k="area" v="yes"/>
    <tag k="building" v="yes"/>
    <tag k="layer" v="1"/>
    <tag k="name" v="McDonald&apos;s Deutschland Inc."/>
    <tag k="source" v="survey"/>
  </way>
  <way id="41880960" version="1" timestamp="2009-10-02T20:43:08Z" uid="86259" user="hasse_osm_korinthenkacker" changeset="2717407">
    <nd ref="518114142"/>
    <nd ref="518113963"/>
    <nd ref="518113985"/>
    <nd ref="518114145"/>
    <nd ref="518114142"/>
    <tag k="addr:housenumber" v="17,19,21"/>
    <tag k="addr:street" v="Plattlinger Straße"/>
    <tag k="building" v="yes"/>
    <tag k="source" v="Yahoo;survey"/>
  </way>
  <way id="41880960" version="2" timestamp="2009-10-03T17:44:14Z" uid="179968" user="Ich_hasse_doitsche_OSM-Korinthenkacker" changeset="2727120">
    <nd ref="518114142"/>
    <nd ref="518113963"/>
    <nd ref="518113985"/>
    <nd ref="518114145"/>
    <nd ref="518114142"/>
    <tag k="addr:housenumber" v="17,19,21"/>
    <tag k="addr:street" v="Plattlinger Straße"/>
    <tag k="building" v="yes"/>
  </way>
  <way id="41880960" version="3" timestamp="2010-05-08T20:58:30Z" uid="36809" user="pfoten_weg_!_" changeset="4643009"/>
  <way id="41880960" version="4" timestamp="2010-05-09T08:53:02Z" uid="145231" user="woodpeck_repair" changeset="4645739">
    <nd ref="518114142"/>
    <nd ref="518113963"/>
    <nd ref="518113985"/>
    <nd ref="518114145"/>
    <nd ref="518114142"/>
    <tag k="addr:housenumber" v="17,19,21"/>
    <tag k="addr:street" v="Plattlinger Straße"/>
    <tag k="building" v="yes"/>
  </way>
  <way id="41880960" version="5" timestamp="2010-06-01T13:22:49Z" uid="30579" user="Tiramisu" changeset="4874529">
    <nd ref="518114142"/>
    <nd ref="518113963"/>
    <nd ref="518113985"/>
    <nd ref="518114145"/>
    <nd ref="518114142"/>
    <tag k="addr:city" v="München"/>
    <tag k="addr:country" v="DE"/>
    <tag k="addr:housenumber" v="17,19,21"/>
    <tag k="addr:postcode" v="81477"/>
    <tag k="addr:street" v="Plattlinger Straße"/>
    <tag k="building" v="yes"/>
  </way>
  <way id="41880960" version="6" timestamp="2010-06-01T14:40:03Z" uid="30579" user="Tiramisu" changeset="4875140">
    <nd ref="518114142"/>
    <nd ref="518113963"/>
    <nd ref="518113985"/>
    <nd ref="518114145"/>
    <nd ref="518114142"/>
    <tag k="addr:city" v="München"/>
    <tag k="addr:country" v="DE"/>
    <tag k="addr:housenumber" v="17,19,21"/>
    <tag k="addr:postcode" v="81479"/>
    <tag k="addr:street" v="Plattlinger Straße"/>
    <tag k="building" v="yes"/>
  </way>
  <way id="41880960" version="7" timestamp="2011-06-18T09:20:04Z" uid="11374" user="q_un_go" changeset="8471305">
    <nd ref="518114142"/>
    <nd ref="1329403976"/>
    <nd ref="518113963"/>
    <nd ref="518113985"/>
    <nd ref="1329404288"/>
    <nd ref="1329404938"/>
    <nd ref="1329404477"/>
    <nd ref="518114145"/>
    <nd ref="518114142"/>
    <tag k="addr:city" v="München"/>
    <tag k="addr:country" v="DE"/>
    <tag k="addr:housenumber" v="17,19,21"/>
    <tag k="addr:postcode" v="81479"/>
    <tag k="addr:street" v="Plattlinger Straße"/>
    <tag k="building" v="yes"/>
  </way>
  <way id="41880961" version="1" timestamp="2009-10-02T20:43:09Z" uid="86259" user="hasse_osm_korinthenkacker" changeset="2717407">
    <nd ref="518113100"/>
    <nd ref="518113102"/>
    <nd ref="518113104"/>
    <nd ref="518113122"/>
    <nd ref="518113120"/>
    <nd ref="518113118"/>
    <nd ref="518113124"/>
    <nd ref="518113114"/>
    <nd ref="518113100"/>
    <tag k="addr:housenumber" v="73"/>
    <tag k="addr:street" v="Weltistraße"/>
    <tag k="building" v="yes"/>
    <tag k="source" v="Yahoo,survey"/>
  </way>
  <way id="41880961" version="2" timestamp="2009-10-03T17:44:14Z" uid="179968" user="Ich_hasse_doitsche_OSM-Korinthenkacker" changeset="2727120">
    <nd ref="518113100"/>
    <nd ref="518113102"/>
    <nd ref="518113104"/>
    <nd ref="518113122"/>
    <nd ref="518113120"/>
    <nd ref="518113118"/>
    <nd ref="518113124"/>
    <nd ref="518113114"/>
    <nd ref="518113100"/>
    <tag k="addr:housenumber" v="73"/>
    <tag k="addr:street" v="Weltistraße"/>
    <tag k="building" v="yes"/>
  </way>
  <way id="41880961" version="3" timestamp="2010-05-08T20:58:31Z" uid="36809" user="pfoten_weg_!_" changeset="4643009"/>
  <way id="41880961" version="4" timestamp="2010-05-09T08:53:01Z" uid="145231" user="woodpeck_repair" changeset="4645739">
    <nd ref="518113100"/>
    <nd ref="518113102"/>
    <nd ref="518113104"/>
    <nd ref="518113122"/>
    <nd ref="518113120"/>
    <nd ref="518113118"/>
    <nd ref="518113124"/>
    <nd ref="518113114"/>
    <nd ref="518113100"/>
    <tag k="addr:housenumber" v="73"/>
    <tag k="addr:street" v="Weltistraße"/>
    <tag k="building" v="yes"/>
  </way>
  <way id="41880961" version="5" timestamp="2010-06-01T14:23:30Z" uid="30579" user="Tiramisu" changeset="4874979">
    <nd ref="518113100"/>
    <nd ref="518113102"/>
    <nd ref="518113104"/>
    <nd ref="518113122"/>
    <nd ref="518113120"/>
    <nd ref="518113118"/>
    <nd ref="518113124"/>
    <nd ref="518113114"/>
    <nd ref="518113100"/>
    <tag k="addr:city" v="München"/>
    <tag k="addr:country" v="DE"/>
    <tag k="addr:housenumber" v="73"/>
    <tag k="addr:postcode" v="81477"/>
    <tag k="addr:street" v="Weltistraße"/>
    <tag k="building" v="yes"/>
  </way>
  <way id="41880961" version="6" timestamp="2011-07-02T20:18:54Z" uid="11374" user="q_un_go" changeset="8611952">
    <nd ref="518113100"/>
    <nd ref="518113102"/>
    <nd ref="518113104"/>
    <nd ref="1347265893"/>
    <nd ref="1347265751"/>
    <nd ref="518113122"/>
    <nd ref="518113120"/>
    <nd ref="518113118"/>
    <nd ref="518113124"/>
    <nd ref="518113114"/>
    <nd ref="518113100"/>
    <tag k="addr:city" v="München"/>
    <tag k="addr:country" v="DE"/>
    <tag k="addr:housenumber" v="73"/>
    <tag k="addr:postcode" v="81477"/>
    <tag k="addr:street" v="Weltistraße"/>
    <tag k="building" v="yes"/>
  </way>
  <way id="41880962" version="1" timestamp="2009-10-02T20:43:09Z" uid="86259" user="hasse_osm_korinthenkacker" changeset="2717407">
    <nd ref="518114235"/>
    <nd ref="518114288"/>
    <nd ref="518114285"/>
    <nd ref="518114260"/>
    <nd ref="518114235"/>
    <tag k="addr:housenumber" v="1"/>
    <tag k="addr:street" v="Geigenbergerstraße"/>
    <tag k="building" v="yes"/>
    <tag k="source" v="Yahoo,survey"/>
  </way>
  <way id="41880962" version="2" timestamp="2009-10-03T17:44:13Z" uid="179968" user="Ich_hasse_doitsche_OSM-Korinthenkacker" changeset="2727120">
    <nd ref="518114235"/>
    <nd ref="518114288"/>
    <nd ref="518114285"/>
    <nd ref="518114260"/>
    <nd ref="518114235"/>
    <tag k="addr:housenumber" v="1"/>
    <tag k="addr:street" v="Geigenbergerstraße"/>
    <tag k="building" v="yes"/>
  </way>
  <way id="41880962" version="3" timestamp="2010-05-08T20:58:31Z" uid="36809" user="pfoten_weg_!_" changeset="4643009"/>
  <way id="41880962" version="4" timestamp="2010-05-09T08:52:59Z" uid="145231" user="woodpeck_repair" changeset="4645739">
    <nd ref="518114235"/>
    <nd ref="518114288"/>
    <nd ref="518114285"/>
    <nd ref="518114260"/>
    <nd ref="518114235"/>
    <tag k="addr:housenumber" v="1"/>
    <tag k="addr:street" v="Geigenbergerstraße"/>
    <tag k="building" v="yes"/>
  </way>
  <way id="41880962" version="5" timestamp="2010-06-01T14:23:31Z" uid="30579" user="Tiramisu" changeset="4874979">
    <nd ref="518114235"/>
    <nd ref="518114288"/>
    <nd ref="518114285"/>
    <nd ref="518114260"/>
    <nd ref="518114235"/>
    <tag k="addr:city" v="München"/>
    <tag k="addr:country" v="DE"/>
    <tag k="addr:housenumber" v="1"/>
    <tag k="addr:postcode" v="81477"/>
    <tag k="addr:street" v="Geigenbergerstraße"/>
    <tag k="building" v="yes"/>
  </way>
  <way id="41880962" version="6" timestamp="2011-07-03T18:35:54Z" uid="11374" user="q_un_go" changeset="8622270">
    <nd ref="518114235"/>
    <nd ref="518114288"/>
    <nd ref="1348326105"/>
    <nd ref="518114285"/>
    <nd ref="1348325913"/>
    <nd ref="1348325987"/>
    <nd ref="518114260"/>
    <nd ref="1348326059"/>
    <nd ref="518114235"/>
    <tag k="addr:city" v="München"/>
    <tag k="addr:country" v="DE"/>
    <tag k="addr:housenumber" v="1"/>
    <tag k="addr:postcode" v="81477"/>
    <tag k="addr:street" v="Geigenbergerstraße"/>
    <tag k="building" v="yes"/>
  </way>
  <way id="41880963" version="1" timestamp="2009-10-02T20:43:09Z" uid="86259" user="hasse_osm_korinthenkacker" changeset="2717407">
    <nd ref="518114207"/>
    <nd ref="518114231"/>
    <nd ref="518114203"/>
    <nd ref="518114201"/>
    <nd ref="518114207"/>
    <tag k="addr:housenumber" v="3,3a"/>
    <tag k="addr:street" v="Geigenbergerstraße"/>
    <tag k="building" v="yes"/>
    <tag k="source" v="Yahoo,survey"/>
  </way>
  <way id="41880963" version="2" timestamp="2009-10-03T17:44:14Z" uid="179968" user="Ich_hasse_doitsche_OSM-Korinthenkacker" changeset="2727120">
    <nd ref="518114207"/>
    <nd ref="518114231"/>
    <nd ref="518114203"/>
    <nd ref="518114201"/>
    <nd ref="518114207"/>
    <tag k="addr:housenumber" v="3,3a"/>
    <tag k="addr:street" v="Geigenbergerstraße"/>
    <tag k="building" v="yes"/>
  </way>
  <way id="41880963" version="3" timestamp="2010-05-08T20:58:32Z" uid="36809" user="pfoten_weg_!_" changeset="4643009"/>
  <way id="41880963" version="4" timestamp="2010-05-09T08:52:58Z" uid="145231" user="woodpeck_repair" changeset="4645739">
    <nd ref="518114207"/>
    <nd ref="518114231"/>
    <nd ref="518114203"/>
    <nd ref="518114201"/>
    <nd ref="518114207"/>
    <tag k="addr:housenumber" v="3,3a"/>
    <tag k="addr:street" v="Geigenbergerstraße"/>
    <tag k="building" v="yes"/>
  </way>
  <way id="41880963" version="5" timestamp="2010-06-01T14:23:28Z" uid="30579" user="Tiramisu" changeset="4874979">
    <nd ref="518114207"/>
    <nd ref="518114231"/>
    <nd ref="518114203"/>
    <nd ref="518114201"/>
    <nd ref="518114207"/>
    <tag k="addr:city" v="München"/>
    <tag k="addr:country" v="DE"/>
    <tag k="addr:housenumber" v="3,3a"/>
    <tag k="addr:postcode" v="81477"/>
    <tag k="addr:street" v="Geigenbergerstraße"/>
    <tag k="building" v="yes"/>
  </way>
  <way id="41880964" version="1" timestamp="2009-10-02T20:43:09Z" uid="86259" user="hasse_osm_korinthenkacker" changeset="2717407">
    <nd ref="518114217"/>
    <nd ref="518114221"/>
    <nd ref="518114368"/>
    <nd ref="518114204"/>
    <nd ref="518114370"/>
    <nd ref="518114373"/>
    <nd ref="518114217"/>
    <tag k="addr:housenumber" v="4"/>
    <tag k="addr:street" v="Plattlinger Straße"/>
    <tag k="building" v="yes"/>
    <tag k="source" v="Yahoo,survey"/>
  </way>
  <way id="41880964" version="2" timestamp="2009-10-03T17:44:13Z" uid="179968" user="Ich_hasse_doitsche_OSM-Korinthenkacker" changeset="2727120">
    <nd ref="518114217"/>
    <nd ref="518114221"/>
    <nd ref="518114368"/>
    <nd ref="518114204"/>
    <nd ref="518114370"/>
    <nd ref="518114373"/>
    <nd ref="518114217"/>
    <tag k="addr:housenumber" v="4"/>
    <tag k="addr:street" v="Plattlinger Straße"/>
    <tag k="building" v="yes"/>
  </way>
  <way id="41880964" version="3" timestamp="2010-05-08T20:58:30Z" uid="36809" user="pfoten_weg_!_" changeset="4643009"/>
  <way id="41880964" version="4" timestamp="2010-05-09T08:52:58Z" uid="145231" user="woodpeck_repair" changeset="4645739">
    <nd ref="518114217"/>
    <nd ref="518114221"/>
    <nd ref="518114368"/>
    <nd ref="518114204"/>
    <nd ref="518114370"/>
    <nd ref="518114373"/>
    <nd ref="518114217"/>
    <tag k="addr:housenumber" v="4"/>
    <tag k="addr:street" v="Plattlinger Straße"/>
    <tag k="building" v="yes"/>
  </way>
  <way id="41880964" version="5" timestamp="2010-06-01T14:23:30Z" uid="30579" user="Tiramisu" changeset="4874979">
    <nd ref="518114217"/>
    <nd ref="518114221"/>
    <nd ref="518114368"/>
    <nd ref="518114204"/>
    <nd ref="518114370"/>
    <nd ref="518114373"/>
    <nd ref="518114217"/>
    <tag k="addr:city" v="München"/>
    <tag k="addr:country" v="DE"/>
    <tag k="addr:housenumber" v="4"/>
    <tag k="addr:postcode" v="81477"/>
    <tag k="addr:street" v="Plattlinger Straße"/>
    <tag k="building" v="yes"/>
  </way>
  <way id="41880964" version="6" timestamp="2011-06-18T09:46:19Z" uid="11374" user="q_un_go" changeset="8471528">
    <nd ref="518114217"/>
    <nd ref="518114221"/>
    <nd ref="518114368"/>
    <nd ref="1329424188"/>
    <nd ref="1329424026"/>
    <nd ref="518114204"/>
    <nd ref="1329424248"/>
    <nd ref="518114370"/>
    <nd ref="518114373"/>
    <nd ref="518114217"/>
    <tag k="addr:city" v="München"/>
    <tag k="addr:country" v="DE"/>
    <tag k="addr:housenumber" v="4"/>
    <tag k="addr:postcode" v="81477"/>
    <tag k="addr:street" v="Plattlinger Straße"/>
    <tag k="building" v="yes"/>
  </way>
  <way id="41880965" version="1" timestamp="2009-10-02T20:43:09Z" uid="86259" user="hasse_osm_korinthenkacker" changeset="2717407">
    <nd ref="518114292"/>
    <nd ref="518114319"/>
    <nd ref="518114323"/>
    <nd ref="518114344"/>
    <nd ref="518114292"/>
    <tag k="addr:housenumber" v="57,55a"/>
    <tag k="addr:street" v="Hofbrunnstraße"/>
    <tag k="building" v="yes"/>
    <tag k="source" v="Yahoo,survey"/>
  </way>
  <way id="41880965" version="2" timestamp="2009-10-03T17:44:13Z" uid="179968" user="Ich_hasse_doitsche_OSM-Korinthenkacker" changeset="2727120">
    <nd ref="518114292"/>
    <nd ref="518114319"/>
    <nd ref="518114323"/>
    <nd ref="518114344"/>
    <nd ref="518114292"/>
    <tag k="addr:housenumber" v="57,55a"/>
    <tag k="addr:street" v="Hofbrunnstraße"/>
    <tag k="building" v="yes"/>
  </way>
  <way id="41880965" version="3" timestamp="2010-05-08T20:58:30Z" uid="36809" user="pfoten_weg_!_" changeset="4643009"/>
  <way id="41880965" version="4" timestamp="2010-05-09T08:52:57Z" uid="145231" user="woodpeck_repair" changeset="4645739">
    <nd ref="518114292"/>
    <nd ref="518114319"/>
    <nd ref="518114323"/>
    <nd ref="518114344"/>
    <nd ref="518114292"/>
    <tag k="addr:housenumber" v="57,55a"/>
    <tag k="addr:street" v="Hofbrunnstraße"/>
    <tag k="building" v="yes"/>
  </way>
  <way id="41880965" version="5" timestamp="2010-06-01T14:23:22Z" uid="30579" user="Tiramisu" changeset="4874979">
    <nd ref="518114292"/>
    <nd ref="518114319"/>
    <nd ref="518114323"/>
    <nd ref="518114344"/>
    <nd ref="518114292"/>
    <tag k="addr:city" v="München"/>
    <tag k="addr:country" v="DE"/>
    <tag k="addr:housenumber" v="57,55a"/>
    <tag k="addr:postcode" v="81477"/>
    <tag k="addr:street" v="Hofbrunnstraße"/>
    <tag k="building" v="yes"/>
  </way>
  <way id="41880965" version="6" timestamp="2011-06-27T21:36:45Z" uid="11374" user="q_un_go" changeset="8566741">
    <nd ref="518114292"/>
    <nd ref="518114319"/>
    <nd ref="1341714552"/>
    <nd ref="1341714806"/>
    <nd ref="1341715095"/>
    <nd ref="1341715173"/>
    <nd ref="518114323"/>
    <nd ref="518114344"/>
    <nd ref="518114292"/>
    <tag k="addr:city" v="München"/>
    <tag k="addr:country" v="DE"/>
    <tag k="addr:housenumber" v="57,55a"/>
    <tag k="addr:postcode" v="81477"/>
    <tag k="addr:street" v="Hofbrunnstraße"/>
    <tag k="building" v="yes"/>
  </way>
  <way id="41880967" version="1" timestamp="2009-10-02T20:43:10Z" uid="86259" user="hasse_osm_korinthenkacker" changeset="2717407">
    <nd ref="518114224"/>
    <nd ref="518114227"/>
    <nd ref="518114213"/>
    <nd ref="518114377"/>
    <nd ref="518114224"/>
    <tag k="addr:housenumber" v="53"/>
    <tag k="addr:street" v="Hofbrunnstraße"/>
    <tag k="building" v="yes"/>
    <tag k="source" v="Yahoo,survey"/>
  </way>
  <way id="41880967" version="2" timestamp="2009-10-03T17:44:13Z" uid="179968" user="Ich_hasse_doitsche_OSM-Korinthenkacker" changeset="2727120">
    <nd ref="518114224"/>
    <nd ref="518114227"/>
    <nd ref="518114213"/>
    <nd ref="518114377"/>
    <nd ref="518114224"/>
    <tag k="addr:housenumber" v="53"/>
    <tag k="addr:street" v="Hofbrunnstraße"/>
    <tag k="building" v="yes"/>
  </way>
  <way id="41880967" version="3" timestamp="2010-05-08T20:58:31Z" uid="36809" user="pfoten_weg_!_" changeset="4643009"/>
  <way id="41880967" version="4" timestamp="2010-05-09T08:52:56Z" uid="145231" user="woodpeck_repair" changeset="4645739">
    <nd ref="518114224"/>
    <nd ref="518114227"/>
    <nd ref="518114213"/>
    <nd ref="518114377"/>
    <nd ref="518114224"/>
    <tag k="addr:housenumber" v="53"/>
    <tag k="addr:street" v="Hofbrunnstraße"/>
    <tag k="building" v="yes"/>
  </way>
  <way id="41880967" version="5" timestamp="2010-06-01T14:23:33Z" uid="30579" user="Tiramisu" changeset="4874979">
    <nd ref="518114224"/>
    <nd ref="518114227"/>
    <nd ref="518114213"/>
    <nd ref="518114377"/>
    <nd ref="518114224"/>
    <tag k="addr:city" v="München"/>
    <tag k="addr:country" v="DE"/>
    <tag k="addr:housenumber" v="53"/>
    <tag k="addr:postcode" v="81477"/>
    <tag k="addr:street" v="Hofbrunnstraße"/>
    <tag k="building" v="yes"/>
  </way>
  <way id="41880968" version="1" timestamp="2009-10-02T20:43:10Z" uid="86259" user="hasse_osm_korinthenkacker" changeset="2717407">
    <nd ref="518114329"/>
    <nd ref="518114333"/>
    <nd ref="518114338"/>
    <nd ref="518114341"/>
    <nd ref="518114329"/>
    <tag k="addr:housenumber" v="55"/>
    <tag k="addr:street" v="Hofbrunnstraße"/>
    <tag k="building" v="yes"/>
    <tag k="source" v="Yahoo,survey"/>
  </way>
  <way id="41880968" version="2" timestamp="2009-10-03T17:44:15Z" uid="179968" user="Ich_hasse_doitsche_OSM-Korinthenkacker" changeset="2727120">
    <nd ref="518114329"/>
    <nd ref="518114333"/>
    <nd ref="518114338"/>
    <nd ref="518114341"/>
    <nd ref="518114329"/>
    <tag k="addr:housenumber" v="55"/>
    <tag k="addr:street" v="Hofbrunnstraße"/>
    <tag k="building" v="yes"/>
  </way>
  <way id="41880968" version="3" timestamp="2010-05-08T20:58:31Z" uid="36809" user="pfoten_weg_!_" changeset="4643009"/>
  <way id="41880968" version="4" timestamp="2010-05-09T08:52:55Z" uid="145231" user="woodpeck_repair" changeset="4645739">
    <nd ref="518114329"/>
    <nd ref="518114333"/>
    <nd ref="518114338"/>
    <nd ref="518114341"/>
    <nd ref="518114329"/>
    <tag k="addr:housenumber" v="55"/>
    <tag k="addr:street" v="Hofbrunnstraße"/>
    <tag k="building" v="yes"/>
  </way>
  <way id="41880968" version="5" timestamp="2010-06-01T14:23:32Z" uid="30579" user="Tiramisu" changeset="4874979">
    <nd ref="518114329"/>
    <nd ref="518114333"/>
    <nd ref="518114338"/>
    <nd ref="518114341"/>
    <nd ref="518114329"/>
    <tag k="addr:city" v="München"/>
    <tag k="addr:country" v="DE"/>
    <tag k="addr:housenumber" v="55"/>
    <tag k="addr:postcode" v="81477"/>
    <tag k="addr:street" v="Hofbrunnstraße"/>
    <tag k="building" v="yes"/>
  </way>
  <way id="41880969" version="1" timestamp="2009-10-02T20:43:10Z" uid="86259" user="hasse_osm_korinthenkacker" changeset="2717407">
    <nd ref="518113884"/>
    <nd ref="518113876"/>
    <nd ref="518113873"/>
    <nd ref="518113878"/>
    <nd ref="518113240"/>
    <nd ref="518113248"/>
    <nd ref="518113246"/>
    <nd ref="518113236"/>
    <nd ref="518113238"/>
    <nd ref="518113242"/>
    <nd ref="518113875"/>
    <nd ref="518113886"/>
    <nd ref="518113884"/>
    <tag k="addr:housenumber" v="33,35,37"/>
    <tag k="addr:street" v="Geigenbergerstraße"/>
    <tag k="building" v="yes"/>
    <tag k="source" v="Yahoo,survey"/>
  </way>
  <way id="41880969" version="2" timestamp="2009-10-03T17:44:15Z" uid="179968" user="Ich_hasse_doitsche_OSM-Korinthenkacker" changeset="2727120">
    <nd ref="518113884"/>
    <nd ref="518113876"/>
    <nd ref="518113873"/>
    <nd ref="518113878"/>
    <nd ref="518113240"/>
    <nd ref="518113248"/>
    <nd ref="518113246"/>
    <nd ref="518113236"/>
    <nd ref="518113238"/>
    <nd ref="518113242"/>
    <nd ref="518113875"/>
    <nd ref="518113886"/>
    <nd ref="518113884"/>
    <tag k="addr:housenumber" v="33,35,37"/>
    <tag k="addr:street" v="Geigenbergerstraße"/>
    <tag k="building" v="yes"/>
  </way>
  <way id="41880969" version="3" timestamp="2010-05-08T20:58:31Z" uid="36809" user="pfoten_weg_!_" changeset="4643009"/>
  <way id="41880969" version="4" timestamp="2010-05-09T08:52:54Z" uid="145231" user="woodpeck_repair" changeset="4645739">
    <nd ref="518113884"/>
    <nd ref="518113876"/>
    <nd ref="518113873"/>
    <nd ref="518113878"/>
    <nd ref="518113240"/>
    <nd ref="518113248"/>
    <nd ref="518113246"/>
    <nd ref="518113236"/>
    <nd ref="518113238"/>
    <nd ref="518113242"/>
    <nd ref="518113875"/>
    <nd ref="518113886"/>
    <nd ref="518113884"/>
    <tag k="addr:housenumber" v="33,35,37"/>
    <tag k="addr:street" v="Geigenbergerstraße"/>
    <tag k="building" v="yes"/>
  </way>
  <way id="41880969" version="5" timestamp="2010-06-01T14:23:29Z" uid="30579" user="Tiramisu" changeset="4874979">
    <nd ref="518113884"/>
    <nd ref="518113876"/>
    <nd ref="518113873"/>
    <nd ref="518113878"/>
    <nd ref="518113240"/>
    <nd ref="518113248"/>
    <nd ref="518113246"/>
    <nd ref="518113236"/>
    <nd ref="518113238"/>
    <nd ref="518113242"/>
    <nd ref="518113875"/>
    <nd ref="518113886"/>
    <nd ref="518113884"/>
    <tag k="addr:city" v="München"/>
    <tag k="addr:country" v="DE"/>
    <tag k="addr:housenumber" v="33,35,37"/>
    <tag k="addr:postcode" v="81477"/>
    <tag k="addr:street" v="Geigenbergerstraße"/>
    <tag k="building" v="yes"/>
  </way>
  <way id="41880969" version="6" timestamp="2010-06-06T19:34:15Z" uid="30579" user="Tiramisu" changeset="4921634">
    <nd ref="518113884"/>
    <nd ref="518113876"/>
    <nd ref="518113873"/>
    <nd ref="518113878"/>
    <nd ref="518113240"/>
    <nd ref="518113248"/>
    <nd ref="518113246"/>
    <nd ref="518113236"/>
    <nd ref="518113238"/>
    <nd ref="518113242"/>
    <nd ref="518113875"/>
    <nd ref="518113886"/>
    <nd ref="518113884"/>
    <tag k="building" v="yes"/>
  </way>
  <way id="41880970" version="1" timestamp="2009-10-02T20:43:10Z" uid="86259" user="hasse_osm_korinthenkacker" changeset="2717407">
    <nd ref="518107902"/>
    <nd ref="518107905"/>
    <nd ref="518107907"/>
    <nd ref="518107909"/>
    <nd ref="518107902"/>
    <tag k="addr:housenumber" v="1"/>
    <tag k="addr:street" v="Warnberg"/>
    <tag k="building" v="yes"/>
    <tag k="layer" v="1"/>
    <tag k="source" v="survey"/>
  </way>
  <way id="41880970" version="2" timestamp="2009-10-03T17:44:14Z" uid="179968" user="Ich_hasse_doitsche_OSM-Korinthenkacker" changeset="2727120">
    <nd ref="518107902"/>
    <nd ref="518107905"/>
    <nd ref="518107907"/>
    <nd ref="518107909"/>
    <nd ref="518107902"/>
    <tag k="addr:housenumber" v="1"/>
    <tag k="addr:street" v="Warnberg"/>
    <tag k="building" v="yes"/>
    <tag k="layer" v="1"/>
  </way>
  <way id="41880970" version="3" timestamp="2010-05-08T20:39:38Z" uid="36809" user="pfoten_weg_!_" changeset="4642840"/>
  <way id="41880970" version="4" timestamp="2010-05-09T08:52:53Z" uid="145231" user="woodpeck_repair" changeset="4645739">
    <nd ref="518107902"/>
    <nd ref="518107905"/>
    <nd ref="518107907"/>
    <nd ref="518107909"/>
    <nd ref="518107902"/>
    <tag k="addr:housenumber" v="1"/>
    <tag k="addr:street" v="Warnberg"/>
    <tag k="building" v="yes"/>
    <tag k="layer" v="1"/>
  </way>
  <way id="41880971" version="1" timestamp="2009-10-02T20:43:10Z" uid="86259" user="hasse_osm_korinthenkacker" changeset="2717407">
    <nd ref="518114127"/>
    <nd ref="518114132"/>
    <nd ref="518114140"/>
    <nd ref="518114129"/>
    <nd ref="518114095"/>
    <nd ref="518114120"/>
    <nd ref="518114116"/>
    <nd ref="518114104"/>
    <nd ref="518114100"/>
    <nd ref="518114102"/>
    <nd ref="518114135"/>
    <nd ref="518114124"/>
    <nd ref="518114127"/>
    <tag k="addr:housenumber" v="11,13,15"/>
    <tag k="addr:street" v="Geigenbergerstraße"/>
    <tag k="building" v="yes"/>
    <tag k="source" v="Yahoo,survey"/>
  </way>
  <way id="41880971" version="2" timestamp="2009-10-03T17:44:15Z" uid="179968" user="Ich_hasse_doitsche_OSM-Korinthenkacker" changeset="2727120">
    <nd ref="518114127"/>
    <nd ref="518114132"/>
    <nd ref="518114140"/>
    <nd ref="518114129"/>
    <nd ref="518114095"/>
    <nd ref="518114120"/>
    <nd ref="518114116"/>
    <nd ref="518114104"/>
    <nd ref="518114100"/>
    <nd ref="518114102"/>
    <nd ref="518114135"/>
    <nd ref="518114124"/>
    <nd ref="518114127"/>
    <tag k="addr:housenumber" v="11,13,15"/>
    <tag k="addr:street" v="Geigenbergerstraße"/>
    <tag k="building" v="yes"/>
  </way>
  <way id="41880971" version="3" timestamp="2010-05-08T20:58:30Z" uid="36809" user="pfoten_weg_!_" changeset="4643009"/>
  <way id="41880971" version="4" timestamp="2010-05-09T08:52:51Z" uid="145231" user="woodpeck_repair" changeset="4645739">
    <nd ref="518114127"/>
    <nd ref="518114132"/>
    <nd ref="518114140"/>
    <nd ref="518114129"/>
    <nd ref="518114095"/>
    <nd ref="518114120"/>
    <nd ref="518114116"/>
    <nd ref="518114104"/>
    <nd ref="518114100"/>
    <nd ref="518114102"/>
    <nd ref="518114135"/>
    <nd ref="518114124"/>
    <nd ref="518114127"/>
    <tag k="addr:housenumber" v="11,13,15"/>
    <tag k="addr:street" v="Geigenbergerstraße"/>
    <tag k="building" v="yes"/>
  </way>
  <way id="41880971" version="5" timestamp="2010-06-01T14:23:22Z" uid="30579" user="Tiramisu" changeset="4874979">
    <nd ref="518114127"/>
    <nd ref="518114132"/>
    <nd ref="518114140"/>
    <nd ref="518114129"/>
    <nd ref="518114095"/>
    <nd ref="518114120"/>
    <nd ref="518114116"/>
    <nd ref="518114104"/>
    <nd ref="518114100"/>
    <nd ref="518114102"/>
    <nd ref="518114135"/>
    <nd ref="518114124"/>
    <nd ref="518114127"/>
    <tag k="addr:city" v="München"/>
    <tag k="addr:country" v="DE"/>
    <tag k="addr:housenumber" v="11,13,15"/>
    <tag k="addr:postcode" v="81477"/>
    <tag k="addr:street" v="Geigenbergerstraße"/>
    <tag k="building" v="yes"/>
  </way>
  <way id="41880971" version="6" timestamp="2010-06-06T19:34:16Z" uid="30579" user="Tiramisu" changeset="4921634">
    <nd ref="518114127"/>
    <nd ref="518114132"/>
    <nd ref="518114140"/>
    <nd ref="518114129"/>
    <nd ref="518114095"/>
    <nd ref="518114120"/>
    <nd ref="518114116"/>
    <nd ref="518114104"/>
    <nd ref="518114100"/>
    <nd ref="518114102"/>
    <nd ref="518114135"/>
    <nd ref="518114124"/>
    <nd ref="518114127"/>
    <tag k="building" v="yes"/>
  </way>
  <way id="41880972" version="1" timestamp="2009-10-02T20:43:10Z" uid="86259" user="hasse_osm_korinthenkacker" changeset="2717407">
    <nd ref="518113919"/>
    <nd ref="518114072"/>
    <nd ref="518114074"/>
    <nd ref="518114071"/>
    <nd ref="518114081"/>
    <nd ref="518114091"/>
    <nd ref="518114066"/>
    <nd ref="518114035"/>
    <nd ref="518114052"/>
    <nd ref="518114033"/>
    <nd ref="518114078"/>
    <nd ref="518113918"/>
    <nd ref="518113919"/>
    <tag k="addr:housenumber" v="19,21,23"/>
    <tag k="addr:street" v="Geigenbergerstraße"/>
    <tag k="building" v="yes"/>
    <tag k="source" v="Yahoo,survey"/>
  </way>
  <way id="41880972" version="2" timestamp="2009-10-03T17:44:14Z" uid="179968" user="Ich_hasse_doitsche_OSM-Korinthenkacker" changeset="2727120">
    <nd ref="518113919"/>
    <nd ref="518114072"/>
    <nd ref="518114074"/>
    <nd ref="518114071"/>
    <nd ref="518114081"/>
    <nd ref="518114091"/>
    <nd ref="518114066"/>
    <nd ref="518114035"/>
    <nd ref="518114052"/>
    <nd ref="518114033"/>
    <nd ref="518114078"/>
    <nd ref="518113918"/>
    <nd ref="518113919"/>
    <tag k="addr:housenumber" v="19,21,23"/>
    <tag k="addr:street" v="Geigenbergerstraße"/>
    <tag k="building" v="yes"/>
  </way>
  <way id="41880972" version="3" timestamp="2010-05-08T20:58:30Z" uid="36809" user="pfoten_weg_!_" changeset="4643009"/>
  <way id="41880972" version="4" timestamp="2010-05-09T08:52:50Z" uid="145231" user="woodpeck_repair" changeset="4645739">
    <nd ref="518113919"/>
    <nd ref="518114072"/>
    <nd ref="518114074"/>
    <nd ref="518114071"/>
    <nd ref="518114081"/>
    <nd ref="518114091"/>
    <nd ref="518114066"/>
    <nd ref="518114035"/>
    <nd ref="518114052"/>
    <nd ref="518114033"/>
    <nd ref="518114078"/>
    <nd ref="518113918"/>
    <nd ref="518113919"/>
    <tag k="addr:housenumber" v="19,21,23"/>
    <tag k="addr:street" v="Geigenbergerstraße"/>
    <tag k="building" v="yes"/>
  </way>
  <way id="41880972" version="5" timestamp="2010-06-01T14:23:29Z" uid="30579" user="Tiramisu" changeset="4874979">
    <nd ref="518113919"/>
    <nd ref="518114072"/>
    <nd ref="518114074"/>
    <nd ref="518114071"/>
    <nd ref="518114081"/>
    <nd ref="518114091"/>
    <nd ref="518114066"/>
    <nd ref="518114035"/>
    <nd ref="518114052"/>
    <nd ref="518114033"/>
    <nd ref="518114078"/>
    <nd ref="518113918"/>
    <nd ref="518113919"/>
    <tag k="addr:city" v="München"/>
    <tag k="addr:country" v="DE"/>
    <tag k="addr:housenumber" v="19,21,23"/>
    <tag k="addr:postcode" v="81477"/>
    <tag k="addr:street" v="Geigenbergerstraße"/>
    <tag k="building" v="yes"/>
  </way>
  <way id="41880972" version="6" timestamp="2010-06-06T19:34:15Z" uid="30579" user="Tiramisu" changeset="4921634">
    <nd ref="518113919"/>
    <nd ref="518114072"/>
    <nd ref="518114074"/>
    <nd ref="518114071"/>
    <nd ref="518114081"/>
    <nd ref="518114091"/>
    <nd ref="518114066"/>
    <nd ref="518114035"/>
    <nd ref="518114052"/>
    <nd ref="518114033"/>
    <nd ref="518114078"/>
    <nd ref="518113918"/>
    <nd ref="518113919"/>
    <tag k="building" v="yes"/>
  </way>
  <way id="41880973" version="1" timestamp="2009-10-02T20:43:10Z" uid="86259" user="hasse_osm_korinthenkacker" changeset="2717407">
    <nd ref="518113916"/>
    <nd ref="518113920"/>
    <nd ref="518113912"/>
    <nd ref="518113906"/>
    <nd ref="518113908"/>
    <nd ref="518113910"/>
    <nd ref="518113257"/>
    <nd ref="518113259"/>
    <nd ref="518113914"/>
    <nd ref="518113902"/>
    <nd ref="518113904"/>
    <nd ref="518113903"/>
    <nd ref="518113916"/>
    <tag k="addr:housenumber" v="25,27,29"/>
    <tag k="addr:street" v="Geigenbergerstraße"/>
    <tag k="building" v="yes"/>
    <tag k="source" v="Yahoo,survey"/>
  </way>
  <way id="41880973" version="2" timestamp="2009-10-03T17:44:14Z" uid="179968" user="Ich_hasse_doitsche_OSM-Korinthenkacker" changeset="2727120">
    <nd ref="518113916"/>
    <nd ref="518113920"/>
    <nd ref="518113912"/>
    <nd ref="518113906"/>
    <nd ref="518113908"/>
    <nd ref="518113910"/>
    <nd ref="518113257"/>
    <nd ref="518113259"/>
    <nd ref="518113914"/>
    <nd ref="518113902"/>
    <nd ref="518113904"/>
    <nd ref="518113903"/>
    <nd ref="518113916"/>
    <tag k="addr:housenumber" v="25,27,29"/>
    <tag k="addr:street" v="Geigenbergerstraße"/>
    <tag k="building" v="yes"/>
  </way>
  <way id="41880973" version="3" timestamp="2010-05-08T20:58:31Z" uid="36809" user="pfoten_weg_!_" changeset="4643009"/>
  <way id="41880973" version="4" timestamp="2010-05-09T08:52:47Z" uid="145231" user="woodpeck_repair" changeset="4645739">
    <nd ref="518113916"/>
    <nd ref="518113920"/>
    <nd ref="518113912"/>
    <nd ref="518113906"/>
    <nd ref="518113908"/>
    <nd ref="518113910"/>
    <nd ref="518113257"/>
    <nd ref="518113259"/>
    <nd ref="518113914"/>
    <nd ref="518113902"/>
    <nd ref="518113904"/>
    <nd ref="518113903"/>
    <nd ref="518113916"/>
    <tag k="addr:housenumber" v="25,27,29"/>
    <tag k="addr:street" v="Geigenbergerstraße"/>
    <tag k="building" v="yes"/>
  </way>
  <way id="41880973" version="5" timestamp="2010-06-01T14:23:12Z" uid="30579" user="Tiramisu" changeset="4874979">
    <nd ref="518113916"/>
    <nd ref="518113920"/>
    <nd ref="518113912"/>
    <nd ref="518113906"/>
    <nd ref="518113908"/>
    <nd ref="518113910"/>
    <nd ref="518113257"/>
    <nd ref="518113259"/>
    <nd ref="518113914"/>
    <nd ref="518113902"/>
    <nd ref="518113904"/>
    <nd ref="518113903"/>
    <nd ref="518113916"/>
    <tag k="addr:city" v="München"/>
    <tag k="addr:country" v="DE"/>
    <tag k="addr:housenumber" v="25,27,29"/>
    <tag k="addr:postcode" v="81477"/>
    <tag k="addr:street" v="Geigenbergerstraße"/>
    <tag k="building" v="yes"/>
  </way>
  <way id="41880973" version="6" timestamp="2010-06-06T19:34:16Z" uid="30579" user="Tiramisu" changeset="4921634">
    <nd ref="518113916"/>
    <nd ref="518113920"/>
    <nd ref="518113912"/>
    <nd ref="518113906"/>
    <nd ref="518113908"/>
    <nd ref="518113910"/>
    <nd ref="518113257"/>
    <nd ref="518113259"/>
    <nd ref="518113914"/>
    <nd ref="518113902"/>
    <nd ref="518113904"/>
    <nd ref="518113903"/>
    <nd ref="518113916"/>
    <tag k="building" v="yes"/>
  </way>
  <way id="41880974" version="1" timestamp="2009-10-02T20:43:11Z" uid="86259" user="hasse_osm_korinthenkacker" changeset="2717407">
    <nd ref="518113780"/>
    <nd ref="518113784"/>
    <nd ref="518113782"/>
    <nd ref="518113764"/>
    <nd ref="518113773"/>
    <nd ref="518113775"/>
    <nd ref="518113776"/>
    <nd ref="518113778"/>
    <nd ref="518113780"/>
    <tag k="addr:housenumber" v="1"/>
    <tag k="addr:street" v="Halbreiterstraße"/>
    <tag k="building" v="yes"/>
    <tag k="source" v="Yahoo;survey"/>
  </way>
  <way id="41880974" version="2" timestamp="2009-10-03T17:44:14Z" uid="179968" user="Ich_hasse_doitsche_OSM-Korinthenkacker" changeset="2727120">
    <nd ref="518113780"/>
    <nd ref="518113784"/>
    <nd ref="518113782"/>
    <nd ref="518113764"/>
    <nd ref="518113773"/>
    <nd ref="518113775"/>
    <nd ref="518113776"/>
    <nd ref="518113778"/>
    <nd ref="518113780"/>
    <tag k="addr:housenumber" v="1"/>
    <tag k="addr:street" v="Halbreiterstraße"/>
    <tag k="building" v="yes"/>
  </way>
  <way id="41880974" version="3" timestamp="2010-05-08T20:58:31Z" uid="36809" user="pfoten_weg_!_" changeset="4643009"/>
  <way id="41880974" version="4" timestamp="2010-05-09T08:52:45Z" uid="145231" user="woodpeck_repair" changeset="4645739">
    <nd ref="518113780"/>
    <nd ref="518113784"/>
    <nd ref="518113782"/>
    <nd ref="518113764"/>
    <nd ref="518113773"/>
    <nd ref="518113775"/>
    <nd ref="518113776"/>
    <nd ref="518113778"/>
    <nd ref="518113780"/>
    <tag k="addr:housenumber" v="1"/>
    <tag k="addr:street" v="Halbreiterstraße"/>
    <tag k="building" v="yes"/>
  </way>
  <way id="41880974" version="5" timestamp="2010-06-01T13:22:52Z" uid="30579" user="Tiramisu" changeset="4874529">
    <nd ref="518113780"/>
    <nd ref="518113784"/>
    <nd ref="518113782"/>
    <nd ref="518113764"/>
    <nd ref="518113773"/>
    <nd ref="518113775"/>
    <nd ref="518113776"/>
    <nd ref="518113778"/>
    <nd ref="518113780"/>
    <tag k="addr:city" v="München"/>
    <tag k="addr:country" v="DE"/>
    <tag k="addr:housenumber" v="1"/>
    <tag k="addr:postcode" v="81477"/>
    <tag k="addr:street" v="Halbreiterstraße"/>
    <tag k="building" v="yes"/>
  </way>
  <way id="41880974" version="6" timestamp="2010-06-01T14:40:01Z" uid="30579" user="Tiramisu" changeset="4875140">
    <nd ref="518113780"/>
    <nd ref="518113784"/>
    <nd ref="518113782"/>
    <nd ref="518113764"/>
    <nd ref="518113773"/>
    <nd ref="518113775"/>
    <nd ref="518113776"/>
    <nd ref="518113778"/>
    <nd ref="518113780"/>
    <tag k="addr:city" v="München"/>
    <tag k="addr:country" v="DE"/>
    <tag k="addr:housenumber" v="1"/>
    <tag k="addr:postcode" v="81479"/>
    <tag k="addr:street" v="Halbreiterstraße"/>
    <tag k="building" v="yes"/>
  </way>
  <way id="41880975" version="1" timestamp="2009-10-02T20:43:11Z" uid="86259" user="hasse_osm_korinthenkacker" changeset="2717407">
    <nd ref="518113826"/>
    <nd ref="518113014"/>
    <nd ref="518113017"/>
    <nd ref="518113825"/>
    <nd ref="518113826"/>
    <tag k="addr:housenumber" v="57,59,61,63"/>
    <tag k="addr:street" v="Plattlinger Straße"/>
    <tag k="building" v="yes"/>
    <tag k="source" v="Yahoo;survey"/>
  </way>
  <way id="41880975" version="2" timestamp="2009-10-03T17:44:14Z" uid="179968" user="Ich_hasse_doitsche_OSM-Korinthenkacker" changeset="2727120">
    <nd ref="518113826"/>
    <nd ref="518113014"/>
    <nd ref="518113017"/>
    <nd ref="518113825"/>
    <nd ref="518113826"/>
    <tag k="addr:housenumber" v="57,59,61,63"/>
    <tag k="addr:street" v="Plattlinger Straße"/>
    <tag k="building" v="yes"/>
  </way>
  <way id="41880975" version="3" timestamp="2010-05-08T20:58:29Z" uid="36809" user="pfoten_weg_!_" changeset="4643009"/>
  <way id="41880975" version="4" timestamp="2010-05-09T08:52:44Z" uid="145231" user="woodpeck_repair" changeset="4645739">
    <nd ref="518113826"/>
    <nd ref="518113014"/>
    <nd ref="518113017"/>
    <nd ref="518113825"/>
    <nd ref="518113826"/>
    <tag k="addr:housenumber" v="57,59,61,63"/>
    <tag k="addr:street" v="Plattlinger Straße"/>
    <tag k="building" v="yes"/>
  </way>
  <way id="41880975" version="5" timestamp="2010-06-01T13:22:56Z" uid="30579" user="Tiramisu" changeset="4874529">
    <nd ref="518113826"/>
    <nd ref="518113014"/>
    <nd ref="518113017"/>
    <nd ref="518113825"/>
    <nd ref="518113826"/>
    <tag k="addr:city" v="München"/>
    <tag k="addr:country" v="DE"/>
    <tag k="addr:housenumber" v="57,59,61,63"/>
    <tag k="addr:postcode" v="81477"/>
    <tag k="addr:street" v="Plattlinger Straße"/>
    <tag k="building" v="yes"/>
  </way>
  <way id="41880975" version="6" timestamp="2010-06-01T14:39:58Z" uid="30579" user="Tiramisu" changeset="4875140">
    <nd ref="518113826"/>
    <nd ref="518113014"/>
    <nd ref="518113017"/>
    <nd ref="518113825"/>
    <nd ref="518113826"/>
    <tag k="addr:city" v="München"/>
    <tag k="addr:country" v="DE"/>
    <tag k="addr:housenumber" v="57,59,61,63"/>
    <tag k="addr:postcode" v="81479"/>
    <tag k="addr:street" v="Plattlinger Straße"/>
    <tag k="building" v="yes"/>
  </way>
  <way id="41880976" version="1" timestamp="2009-10-02T20:43:11Z" uid="86259" user="hasse_osm_korinthenkacker" changeset="2717407">
    <nd ref="518113792"/>
    <nd ref="518113790"/>
    <nd ref="518113798"/>
    <nd ref="518113794"/>
    <nd ref="518113792"/>
    <tag k="addr:housenumber" v="5"/>
    <tag k="addr:street" v="Halbreiterstraße"/>
    <tag k="building" v="yes"/>
    <tag k="source" v="Yahoo;survey"/>
  </way>
  <way id="41880976" version="2" timestamp="2009-10-03T17:44:16Z" uid="179968" user="Ich_hasse_doitsche_OSM-Korinthenkacker" changeset="2727120">
    <nd ref="518113792"/>
    <nd ref="518113790"/>
    <nd ref="518113798"/>
    <nd ref="518113794"/>
    <nd ref="518113792"/>
    <tag k="addr:housenumber" v="5"/>
    <tag k="addr:street" v="Halbreiterstraße"/>
    <tag k="building" v="yes"/>
  </way>
  <way id="41880976" version="3" timestamp="2010-05-08T20:58:31Z" uid="36809" user="pfoten_weg_!_" changeset="4643009"/>
  <way id="41880976" version="4" timestamp="2010-05-09T08:52:43Z" uid="145231" user="woodpeck_repair" changeset="4645739">
    <nd ref="518113792"/>
    <nd ref="518113790"/>
    <nd ref="518113798"/>
    <nd ref="518113794"/>
    <nd ref="518113792"/>
    <tag k="addr:housenumber" v="5"/>
    <tag k="addr:street" v="Halbreiterstraße"/>
    <tag k="building" v="yes"/>
  </way>
  <way id="41880976" version="5" timestamp="2010-06-01T13:22:55Z" uid="30579" user="Tiramisu" changeset="4874529">
    <nd ref="518113792"/>
    <nd ref="518113790"/>
    <nd ref="518113798"/>
    <nd ref="518113794"/>
    <nd ref="518113792"/>
    <tag k="addr:city" v="München"/>
    <tag k="addr:country" v="DE"/>
    <tag k="addr:housenumber" v="5"/>
    <tag k="addr:postcode" v="81477"/>
    <tag k="addr:street" v="Halbreiterstraße"/>
    <tag k="building" v="yes"/>
  </way>
  <way id="41880976" version="6" timestamp="2010-06-01T14:39:59Z" uid="30579" user="Tiramisu" changeset="4875140">
    <nd ref="518113792"/>
    <nd ref="518113790"/>
    <nd ref="518113798"/>
    <nd ref="518113794"/>
    <nd ref="518113792"/>
    <tag k="addr:city" v="München"/>
    <tag k="addr:country" v="DE"/>
    <tag k="addr:housenumber" v="5"/>
    <tag k="addr:postcode" v="81479"/>
    <tag k="addr:street" v="Halbreiterstraße"/>
    <tag k="building" v="yes"/>
  </way>
  <way id="41880976" version="7" timestamp="2011-06-18T09:20:03Z" uid="11374" user="q_un_go" changeset="8471305">
    <nd ref="518113792"/>
    <nd ref="518113790"/>
    <nd ref="518113798"/>
    <nd ref="518113794"/>
    <nd ref="1329404564"/>
    <nd ref="1329403986"/>
    <nd ref="518113792"/>
    <tag k="addr:city" v="München"/>
    <tag k="addr:country" v="DE"/>
    <tag k="addr:housenumber" v="5"/>
    <tag k="addr:postcode" v="81479"/>
    <tag k="addr:street" v="Halbreiterstraße"/>
    <tag k="building" v="yes"/>
  </way>
  <way id="41880977" version="1" timestamp="2009-10-02T20:43:11Z" uid="86259" user="hasse_osm_korinthenkacker" changeset="2717407">
    <nd ref="518113787"/>
    <nd ref="518113796"/>
    <nd ref="518113786"/>
    <nd ref="518113788"/>
    <nd ref="518113787"/>
    <tag k="addr:housenumber" v="3"/>
    <tag k="addr:street" v="Halbreiterstraße"/>
    <tag k="building" v="yes"/>
    <tag k="source" v="Yahoo;survey"/>
  </way>
  <way id="41880977" version="2" timestamp="2009-10-03T17:44:16Z" uid="179968" user="Ich_hasse_doitsche_OSM-Korinthenkacker" changeset="2727120">
    <nd ref="518113787"/>
    <nd ref="518113796"/>
    <nd ref="518113786"/>
    <nd ref="518113788"/>
    <nd ref="518113787"/>
    <tag k="addr:housenumber" v="3"/>
    <tag k="addr:street" v="Halbreiterstraße"/>
    <tag k="building" v="yes"/>
  </way>
  <way id="41880977" version="3" timestamp="2010-05-08T20:58:31Z" uid="36809" user="pfoten_weg_!_" changeset="4643009"/>
  <way id="41880977" version="4" timestamp="2010-05-09T08:52:42Z" uid="145231" user="woodpeck_repair" changeset="4645739">
    <nd ref="518113787"/>
    <nd ref="518113796"/>
    <nd ref="518113786"/>
    <nd ref="518113788"/>
    <nd ref="518113787"/>
    <tag k="addr:housenumber" v="3"/>
    <tag k="addr:street" v="Halbreiterstraße"/>
    <tag k="building" v="yes"/>
  </way>
  <way id="41880977" version="5" timestamp="2010-06-01T13:22:53Z" uid="30579" user="Tiramisu" changeset="4874529">
    <nd ref="518113787"/>
    <nd ref="518113796"/>
    <nd ref="518113786"/>
    <nd ref="518113788"/>
    <nd ref="518113787"/>
    <tag k="addr:city" v="München"/>
    <tag k="addr:country" v="DE"/>
    <tag k="addr:housenumber" v="3"/>
    <tag k="addr:postcode" v="81477"/>
    <tag k="addr:street" v="Halbreiterstraße"/>
    <tag k="building" v="yes"/>
  </way>
  <way id="41880977" version="6" timestamp="2010-06-01T14:40:02Z" uid="30579" user="Tiramisu" changeset="4875140">
    <nd ref="518113787"/>
    <nd ref="518113796"/>
    <nd ref="518113786"/>
    <nd ref="518113788"/>
    <nd ref="518113787"/>
    <tag k="addr:city" v="München"/>
    <tag k="addr:country" v="DE"/>
    <tag k="addr:housenumber" v="3"/>
    <tag k="addr:postcode" v="81479"/>
    <tag k="addr:street" v="Halbreiterstraße"/>
    <tag k="building" v="yes"/>
  </way>
  <way id="41880977" version="7" timestamp="2011-06-18T09:19:51Z" uid="11374" user="q_un_go" changeset="8471305">
    <nd ref="518113787"/>
    <nd ref="1329404112"/>
    <nd ref="518113796"/>
    <nd ref="518113786"/>
    <nd ref="518113788"/>
    <nd ref="518113787"/>
    <tag k="addr:city" v="München"/>
    <tag k="addr:country" v="DE"/>
    <tag k="addr:housenumber" v="3"/>
    <tag k="addr:postcode" v="81479"/>
    <tag k="addr:street" v="Halbreiterstraße"/>
    <tag k="building" v="yes"/>
  </way>
  <way id="41880978" version="1" timestamp="2009-10-02T20:43:11Z" uid="86259" user="hasse_osm_korinthenkacker" changeset="2717407">
    <nd ref="518113844"/>
    <nd ref="518113836"/>
    <nd ref="518113831"/>
    <nd ref="518113843"/>
    <nd ref="518113844"/>
    <tag k="addr:housenumber" v="9"/>
    <tag k="addr:street" v="Halbreiterstraße"/>
    <tag k="building" v="yes"/>
    <tag k="source" v="Yahoo;survey"/>
  </way>
  <way id="41880978" version="2" timestamp="2009-10-03T17:44:15Z" uid="179968" user="Ich_hasse_doitsche_OSM-Korinthenkacker" changeset="2727120">
    <nd ref="518113844"/>
    <nd ref="518113836"/>
    <nd ref="518113831"/>
    <nd ref="518113843"/>
    <nd ref="518113844"/>
    <tag k="addr:housenumber" v="9"/>
    <tag k="addr:street" v="Halbreiterstraße"/>
    <tag k="building" v="yes"/>
  </way>
  <way id="41880978" version="3" timestamp="2010-05-08T20:58:30Z" uid="36809" user="pfoten_weg_!_" changeset="4643009"/>
  <way id="41880978" version="4" timestamp="2010-05-09T08:52:40Z" uid="145231" user="woodpeck_repair" changeset="4645739">
    <nd ref="518113844"/>
    <nd ref="518113836"/>
    <nd ref="518113831"/>
    <nd ref="518113843"/>
    <nd ref="518113844"/>
    <tag k="addr:housenumber" v="9"/>
    <tag k="addr:street" v="Halbreiterstraße"/>
    <tag k="building" v="yes"/>
  </way>
  <way id="41880978" version="5" timestamp="2010-06-01T13:22:54Z" uid="30579" user="Tiramisu" changeset="4874529">
    <nd ref="518113844"/>
    <nd ref="518113836"/>
    <nd ref="518113831"/>
    <nd ref="518113843"/>
    <nd ref="518113844"/>
    <tag k="addr:city" v="München"/>
    <tag k="addr:country" v="DE"/>
    <tag k="addr:housenumber" v="9"/>
    <tag k="addr:postcode" v="81477"/>
    <tag k="addr:street" v="Halbreiterstraße"/>
    <tag k="building" v="yes"/>
  </way>
  <way id="41880978" version="6" timestamp="2010-06-01T14:40:03Z" uid="30579" user="Tiramisu" changeset="4875140">
    <nd ref="518113844"/>
    <nd ref="518113836"/>
    <nd ref="518113831"/>
    <nd ref="518113843"/>
    <nd ref="518113844"/>
    <tag k="addr:city" v="München"/>
    <tag k="addr:country" v="DE"/>
    <tag k="addr:housenumber" v="9"/>
    <tag k="addr:postcode" v="81479"/>
    <tag k="addr:street" v="Halbreiterstraße"/>
    <tag k="building" v="yes"/>
  </way>
  <way id="41880978" version="7" timestamp="2011-06-18T09:19:53Z" uid="11374" user="q_un_go" changeset="8471305">
    <nd ref="518113844"/>
    <nd ref="518113836"/>
    <nd ref="1329404275"/>
    <nd ref="1329403959"/>
    <nd ref="518113831"/>
    <nd ref="518113843"/>
    <nd ref="518113844"/>
    <tag k="addr:city" v="München"/>
    <tag k="addr:country" v="DE"/>
    <tag k="addr:housenumber" v="9"/>
    <tag k="addr:postcode" v="81479"/>
    <tag k="addr:street" v="Halbreiterstraße"/>
    <tag k="building" v="yes"/>
  </way>
  <way id="41880979" version="1" timestamp="2009-10-02T20:43:11Z" uid="86259" user="hasse_osm_korinthenkacker" changeset="2717407">
    <nd ref="518113824"/>
    <nd ref="518113821"/>
    <nd ref="518113833"/>
    <nd ref="518113837"/>
    <nd ref="518113824"/>
    <tag k="addr:housenumber" v="7"/>
    <tag k="addr:street" v="Halbreiterstraße"/>
    <tag k="building" v="yes"/>
    <tag k="source" v="Yahoo;survey"/>
  </way>
  <way id="41880979" version="2" timestamp="2009-10-03T17:44:15Z" uid="179968" user="Ich_hasse_doitsche_OSM-Korinthenkacker" changeset="2727120">
    <nd ref="518113824"/>
    <nd ref="518113821"/>
    <nd ref="518113833"/>
    <nd ref="518113837"/>
    <nd ref="518113824"/>
    <tag k="addr:housenumber" v="7"/>
    <tag k="addr:street" v="Halbreiterstraße"/>
    <tag k="building" v="yes"/>
  </way>
  <way id="41880979" version="3" timestamp="2010-05-08T20:58:30Z" uid="36809" user="pfoten_weg_!_" changeset="4643009"/>
  <way id="41880979" version="4" timestamp="2010-05-09T08:52:39Z" uid="145231" user="woodpeck_repair" changeset="4645739">
    <nd ref="518113824"/>
    <nd ref="518113821"/>
    <nd ref="518113833"/>
    <nd ref="518113837"/>
    <nd ref="518113824"/>
    <tag k="addr:housenumber" v="7"/>
    <tag k="addr:street" v="Halbreiterstraße"/>
    <tag k="building" v="yes"/>
  </way>
  <way id="41880979" version="5" timestamp="2010-06-01T13:22:51Z" uid="30579" user="Tiramisu" changeset="4874529">
    <nd ref="518113824"/>
    <nd ref="518113821"/>
    <nd ref="518113833"/>
    <nd ref="518113837"/>
    <nd ref="518113824"/>
    <tag k="addr:city" v="München"/>
    <tag k="addr:country" v="DE"/>
    <tag k="addr:housenumber" v="7"/>
    <tag k="addr:postcode" v="81477"/>
    <tag k="addr:street" v="Halbreiterstraße"/>
    <tag k="building" v="yes"/>
  </way>
  <way id="41880979" version="6" timestamp="2010-06-01T14:40:01Z" uid="30579" user="Tiramisu" changeset="4875140">
    <nd ref="518113824"/>
    <nd ref="518113821"/>
    <nd ref="518113833"/>
    <nd ref="518113837"/>
    <nd ref="518113824"/>
    <tag k="addr:city" v="München"/>
    <tag k="addr:country" v="DE"/>
    <tag k="addr:housenumber" v="7"/>
    <tag k="addr:postcode" v="81479"/>
    <tag k="addr:street" v="Halbreiterstraße"/>
    <tag k="building" v="yes"/>
  </way>
  <way id="41880979" version="7" timestamp="2011-06-18T09:19:57Z" uid="11374" user="q_un_go" changeset="8471305">
    <nd ref="518113824"/>
    <nd ref="518113821"/>
    <nd ref="518113833"/>
    <nd ref="518113837"/>
    <nd ref="1329404909"/>
    <nd ref="1329404052"/>
    <nd ref="518113824"/>
    <tag k="addr:city" v="München"/>
    <tag k="addr:country" v="DE"/>
    <tag k="addr:housenumber" v="7"/>
    <tag k="addr:postcode" v="81479"/>
    <tag k="addr:street" v="Halbreiterstraße"/>
    <tag k="building" v="yes"/>
  </way>
  <way id="41880980" version="1" timestamp="2009-10-02T20:43:11Z" uid="86259" user="hasse_osm_korinthenkacker" changeset="2717407">
    <nd ref="518113865"/>
    <nd ref="518113863"/>
    <nd ref="518113870"/>
    <nd ref="518113871"/>
    <nd ref="518113865"/>
    <tag k="addr:housenumber" v="17"/>
    <tag k="addr:street" v="Halbreiterstraße"/>
    <tag k="building" v="yes"/>
    <tag k="source" v="Yahoo;survey"/>
  </way>
  <way id="41880980" version="2" timestamp="2009-10-03T17:44:15Z" uid="179968" user="Ich_hasse_doitsche_OSM-Korinthenkacker" changeset="2727120">
    <nd ref="518113865"/>
    <nd ref="518113863"/>
    <nd ref="518113870"/>
    <nd ref="518113871"/>
    <nd ref="518113865"/>
    <tag k="addr:housenumber" v="17"/>
    <tag k="addr:street" v="Halbreiterstraße"/>
    <tag k="building" v="yes"/>
  </way>
  <way id="41880980" version="3" timestamp="2010-01-09T23:06:55Z" uid="78613" user="heilbron" changeset="3583311">
    <nd ref="518113865"/>
    <nd ref="518113863"/>
    <nd ref="518113870"/>
    <nd ref="518113871"/>
    <nd ref="518113865"/>
    <tag k="addr:housenumber" v="17"/>
    <tag k="addr:street" v="Halbreiterstraße"/>
    <tag k="building" v="yes"/>
    <tag k="highway" v="primary"/>
  </way>
  <way id="41880980" version="4" timestamp="2010-01-09T23:07:50Z" uid="78613" user="heilbron" changeset="3583311">
    <nd ref="518113865"/>
    <nd ref="518113863"/>
    <nd ref="518113870"/>
    <nd ref="518113871"/>
    <nd ref="518113865"/>
    <tag k="addr:housenumber" v="17"/>
    <tag k="addr:street" v="Halbreiterstraße"/>
    <tag k="building" v="yes"/>
    <tag k="fenced" v="yes"/>
    <tag k="highway" v="primary"/>
  </way>
  <way id="41880980" version="5" timestamp="2010-02-08T14:59:47Z" uid="11374" user="q_un_go" changeset="3823938">
    <nd ref="518113865"/>
    <nd ref="518113863"/>
    <nd ref="518113870"/>
    <nd ref="518113871"/>
    <nd ref="518113865"/>
    <tag k="addr:housenumber" v="17"/>
    <tag k="addr:street" v="Halbreiterstraße"/>
    <tag k="building" v="yes"/>
    <tag k="fenced" v="yes"/>
  </way>
  <way id="41880980" version="6" timestamp="2010-05-08T20:58:31Z" uid="36809" user="pfoten_weg_!_" changeset="4643009"/>
  <way id="41880980" version="7" timestamp="2010-05-09T08:52:38Z" uid="145231" user="woodpeck_repair" changeset="4645739">
    <nd ref="518113865"/>
    <nd ref="518113863"/>
    <nd ref="518113870"/>
    <nd ref="518113871"/>
    <nd ref="518113865"/>
    <tag k="addr:housenumber" v="17"/>
    <tag k="addr:street" v="Halbreiterstraße"/>
    <tag k="building" v="yes"/>
    <tag k="fenced" v="yes"/>
  </way>
  <way id="41880980" version="8" timestamp="2010-06-01T13:22:51Z" uid="30579" user="Tiramisu" changeset="4874529">
    <nd ref="518113865"/>
    <nd ref="518113863"/>
    <nd ref="518113870"/>
    <nd ref="518113871"/>
    <nd ref="518113865"/>
    <tag k="addr:city" v="München"/>
    <tag k="addr:country" v="DE"/>
    <tag k="addr:housenumber" v="17"/>
    <tag k="addr:postcode" v="81477"/>
    <tag k="addr:street" v="Halbreiterstraße"/>
    <tag k="building" v="yes"/>
    <tag k="fenced" v="yes"/>
  </way>
  <way id="41880980" version="9" timestamp="2010-06-01T14:40:02Z" uid="30579" user="Tiramisu" changeset="4875140">
    <nd ref="518113865"/>
    <nd ref="518113863"/>
    <nd ref="518113870"/>
    <nd ref="518113871"/>
    <nd ref="518113865"/>
    <tag k="addr:city" v="München"/>
    <tag k="addr:country" v="DE"/>
    <tag k="addr:housenumber" v="17"/>
    <tag k="addr:postcode" v="81479"/>
    <tag k="addr:street" v="Halbreiterstraße"/>
    <tag k="building" v="yes"/>
    <tag k="fenced" v="yes"/>
  </way>
  <way id="41880981" version="1" timestamp="2009-10-02T20:43:11Z" uid="86259" user="hasse_osm_korinthenkacker" changeset="2717407">
    <nd ref="518113862"/>
    <nd ref="518113858"/>
    <nd ref="518113856"/>
    <nd ref="518113860"/>
    <nd ref="518113862"/>
    <tag k="addr:housenumber" v="13"/>
    <tag k="addr:street" v="Halbreiterstraße"/>
    <tag k="building" v="yes"/>
    <tag k="source" v="Yahoo;survey"/>
  </way>
  <way id="41880981" version="2" timestamp="2009-10-03T17:44:15Z" uid="179968" user="Ich_hasse_doitsche_OSM-Korinthenkacker" changeset="2727120">
    <nd ref="518113862"/>
    <nd ref="518113858"/>
    <nd ref="518113856"/>
    <nd ref="518113860"/>
    <nd ref="518113862"/>
    <tag k="addr:housenumber" v="13"/>
    <tag k="addr:street" v="Halbreiterstraße"/>
    <tag k="building" v="yes"/>
  </way>
  <way id="41880981" version="3" timestamp="2010-05-08T20:58:31Z" uid="36809" user="pfoten_weg_!_" changeset="4643009"/>
  <way id="41880981" version="4" timestamp="2010-05-09T08:52:37Z" uid="145231" user="woodpeck_repair" changeset="4645739">
    <nd ref="518113862"/>
    <nd ref="518113858"/>
    <nd ref="518113856"/>
    <nd ref="518113860"/>
    <nd ref="518113862"/>
    <tag k="addr:housenumber" v="13"/>
    <tag k="addr:street" v="Halbreiterstraße"/>
    <tag k="building" v="yes"/>
  </way>
  <way id="41880981" version="5" timestamp="2010-05-25T21:17:38Z" uid="78613" user="heilbron" changeset="4808365">
    <nd ref="518113862"/>
    <nd ref="518113858"/>
    <nd ref="518113856"/>
    <nd ref="518113860"/>
    <nd ref="518113862"/>
    <tag k="addr:housenumber" v="13"/>
    <tag k="addr:street" v="Halbreiterstraße"/>
    <tag k="building" v="yes"/>
    <tag k="fenced" v="yes"/>
  </way>
  <way id="41880981" version="6" timestamp="2010-06-01T13:22:55Z" uid="30579" user="Tiramisu" changeset="4874529">
    <nd ref="518113862"/>
    <nd ref="518113858"/>
    <nd ref="518113856"/>
    <nd ref="518113860"/>
    <nd ref="518113862"/>
    <tag k="addr:city" v="München"/>
    <tag k="addr:country" v="DE"/>
    <tag k="addr:housenumber" v="13"/>
    <tag k="addr:postcode" v="81477"/>
    <tag k="addr:street" v="Halbreiterstraße"/>
    <tag k="building" v="yes"/>
    <tag k="fenced" v="yes"/>
  </way>
  <way id="41880981" version="7" timestamp="2010-06-01T14:40:00Z" uid="30579" user="Tiramisu" changeset="4875140">
    <nd ref="518113862"/>
    <nd ref="518113858"/>
    <nd ref="518113856"/>
    <nd ref="518113860"/>
    <nd ref="518113862"/>
    <tag k="addr:city" v="München"/>
    <tag k="addr:country" v="DE"/>
    <tag k="addr:housenumber" v="13"/>
    <tag k="addr:postcode" v="81479"/>
    <tag k="addr:street" v="Halbreiterstraße"/>
    <tag k="building" v="yes"/>
    <tag k="fenced" v="yes"/>
  </way>
  <way id="41880982" version="1" timestamp="2009-10-02T20:43:12Z" uid="86259" user="hasse_osm_korinthenkacker" changeset="2717407">
    <nd ref="518113866"/>
    <nd ref="518113853"/>
    <nd ref="518113854"/>
    <nd ref="518113864"/>
    <nd ref="518113866"/>
    <tag k="addr:housenumber" v="15"/>
    <tag k="addr:street" v="Halbreiterstraße"/>
    <tag k="building" v="yes"/>
    <tag k="source" v="Yahoo;survey"/>
  </way>
  <way id="41880982" version="2" timestamp="2009-10-03T17:44:15Z" uid="179968" user="Ich_hasse_doitsche_OSM-Korinthenkacker" changeset="2727120">
    <nd ref="518113866"/>
    <nd ref="518113853"/>
    <nd ref="518113854"/>
    <nd ref="518113864"/>
    <nd ref="518113866"/>
    <tag k="addr:housenumber" v="15"/>
    <tag k="addr:street" v="Halbreiterstraße"/>
    <tag k="building" v="yes"/>
  </way>
  <way id="41880982" version="3" timestamp="2010-01-08T20:49:14Z" uid="78613" user="heilbron" changeset="3573477">
    <nd ref="518113866"/>
    <nd ref="518113853"/>
    <nd ref="518113854"/>
    <nd ref="518113864"/>
    <nd ref="518113866"/>
    <tag k="addr:housenumber" v="15"/>
    <tag k="addr:street" v="Halbreiterstraße"/>
    <tag k="building" v="yes"/>
    <tag k="highway" v="primary"/>
    <tag k="internet_access" v="wlan"/>
    <tag k="internet_access:operator" v="FON"/>
  </way>
  <way id="41880982" version="4" timestamp="2010-01-09T23:07:49Z" uid="78613" user="heilbron" changeset="3583311">
    <nd ref="518113866"/>
    <nd ref="518113853"/>
    <nd ref="518113854"/>
    <nd ref="518113864"/>
    <nd ref="518113866"/>
    <tag k="addr:housenumber" v="15"/>
    <tag k="addr:street" v="Halbreiterstraße"/>
    <tag k="building" v="yes"/>
    <tag k="fenced" v="yes"/>
    <tag k="highway" v="primary"/>
    <tag k="internet_access" v="wlan"/>
    <tag k="internet_access:operator" v="FON"/>
  </way>
  <way id="41880982" version="5" timestamp="2010-02-08T14:59:41Z" uid="11374" user="q_un_go" changeset="3823938">
    <nd ref="518113866"/>
    <nd ref="518113853"/>
    <nd ref="518113854"/>
    <nd ref="518113864"/>
    <nd ref="518113866"/>
    <tag k="addr:housenumber" v="15"/>
    <tag k="addr:street" v="Halbreiterstraße"/>
    <tag k="building" v="yes"/>
    <tag k="fenced" v="yes"/>
    <tag k="internet_access" v="wlan"/>
    <tag k="internet_access:operator" v="FON"/>
  </way>
  <way id="41880982" version="6" timestamp="2010-05-08T20:58:29Z" uid="36809" user="pfoten_weg_!_" changeset="4643009"/>
  <way id="41880982" version="7" timestamp="2010-05-09T08:52:36Z" uid="145231" user="woodpeck_repair" changeset="4645739">
    <nd ref="518113866"/>
    <nd ref="518113853"/>
    <nd ref="518113854"/>
    <nd ref="518113864"/>
    <nd ref="518113866"/>
    <tag k="addr:housenumber" v="15"/>
    <tag k="addr:street" v="Halbreiterstraße"/>
    <tag k="building" v="yes"/>
    <tag k="fenced" v="yes"/>
    <tag k="internet_access" v="wlan"/>
    <tag k="internet_access:operator" v="FON"/>
  </way>
  <way id="41880982" version="8" timestamp="2010-06-01T13:22:50Z" uid="30579" user="Tiramisu" changeset="4874529">
    <nd ref="518113866"/>
    <nd ref="518113853"/>
    <nd ref="518113854"/>
    <nd ref="518113864"/>
    <nd ref="518113866"/>
    <tag k="addr:city" v="München"/>
    <tag k="addr:country" v="DE"/>
    <tag k="addr:housenumber" v="15"/>
    <tag k="addr:postcode" v="81477"/>
    <tag k="addr:street" v="Halbreiterstraße"/>
    <tag k="building" v="yes"/>
    <tag k="fenced" v="yes"/>
    <tag k="internet_access" v="wlan"/>
    <tag k="internet_access:operator" v="FON"/>
  </way>
  <way id="41880982" version="9" timestamp="2010-06-01T14:40:01Z" uid="30579" user="Tiramisu" changeset="4875140">
    <nd ref="518113866"/>
    <nd ref="518113853"/>
    <nd ref="518113854"/>
    <nd ref="518113864"/>
    <nd ref="518113866"/>
    <tag k="addr:city" v="München"/>
    <tag k="addr:country" v="DE"/>
    <tag k="addr:housenumber" v="15"/>
    <tag k="addr:postcode" v="81479"/>
    <tag k="addr:street" v="Halbreiterstraße"/>
    <tag k="building" v="yes"/>
    <tag k="fenced" v="yes"/>
    <tag k="internet_access" v="wlan"/>
    <tag k="internet_access:operator" v="FON"/>
  </way>
  <way id="41880983" version="1" timestamp="2009-10-02T20:43:12Z" uid="86259" user="hasse_osm_korinthenkacker" changeset="2717407">
    <nd ref="518113851"/>
    <nd ref="518113848"/>
    <nd ref="518113847"/>
    <nd ref="518113868"/>
    <nd ref="518113851"/>
    <tag k="addr:housenumber" v="49,51"/>
    <tag k="addr:street" v="Plattlinger Straße"/>
    <tag k="building" v="yes"/>
    <tag k="source" v="Yahoo;survey"/>
  </way>
  <way id="41880983" version="2" timestamp="2009-10-03T17:44:15Z" uid="179968" user="Ich_hasse_doitsche_OSM-Korinthenkacker" changeset="2727120">
    <nd ref="518113851"/>
    <nd ref="518113848"/>
    <nd ref="518113847"/>
    <nd ref="518113868"/>
    <nd ref="518113851"/>
    <tag k="addr:housenumber" v="49,51"/>
    <tag k="addr:street" v="Plattlinger Straße"/>
    <tag k="building" v="yes"/>
  </way>
  <way id="41880983" version="3" timestamp="2010-05-08T20:58:30Z" uid="36809" user="pfoten_weg_!_" changeset="4643009"/>
  <way id="41880983" version="4" timestamp="2010-05-09T08:52:35Z" uid="145231" user="woodpeck_repair" changeset="4645739">
    <nd ref="518113851"/>
    <nd ref="518113848"/>
    <nd ref="518113847"/>
    <nd ref="518113868"/>
    <nd ref="518113851"/>
    <tag k="addr:housenumber" v="49,51"/>
    <tag k="addr:street" v="Plattlinger Straße"/>
    <tag k="building" v="yes"/>
  </way>
  <way id="41880983" version="5" timestamp="2010-06-01T13:22:54Z" uid="30579" user="Tiramisu" changeset="4874529">
    <nd ref="518113851"/>
    <nd ref="518113848"/>
    <nd ref="518113847"/>
    <nd ref="518113868"/>
    <nd ref="518113851"/>
    <tag k="addr:city" v="München"/>
    <tag k="addr:country" v="DE"/>
    <tag k="addr:housenumber" v="49,51"/>
    <tag k="addr:postcode" v="81477"/>
    <tag k="addr:street" v="Plattlinger Straße"/>
    <tag k="building" v="yes"/>
  </way>
  <way id="41880983" version="6" timestamp="2010-06-01T14:39:59Z" uid="30579" user="Tiramisu" changeset="4875140">
    <nd ref="518113851"/>
    <nd ref="518113848"/>
    <nd ref="518113847"/>
    <nd ref="518113868"/>
    <nd ref="518113851"/>
    <tag k="addr:city" v="München"/>
    <tag k="addr:country" v="DE"/>
    <tag k="addr:housenumber" v="49,51"/>
    <tag k="addr:postcode" v="81479"/>
    <tag k="addr:street" v="Plattlinger Straße"/>
    <tag k="building" v="yes"/>
  </way>
  <way id="41880984" version="1" timestamp="2009-10-02T20:43:12Z" uid="86259" user="hasse_osm_korinthenkacker" changeset="2717407">
    <nd ref="518113891"/>
    <nd ref="518113850"/>
    <nd ref="518113867"/>
    <nd ref="518113890"/>
    <nd ref="518113891"/>
    <tag k="addr:housenumber" v="45,47"/>
    <tag k="addr:street" v="Plattlinger Straße"/>
    <tag k="building" v="yes"/>
    <tag k="source" v="Yahoo;survey"/>
  </way>
  <way id="41880984" version="2" timestamp="2009-10-03T17:44:16Z" uid="179968" user="Ich_hasse_doitsche_OSM-Korinthenkacker" changeset="2727120">
    <nd ref="518113891"/>
    <nd ref="518113850"/>
    <nd ref="518113867"/>
    <nd ref="518113890"/>
    <nd ref="518113891"/>
    <tag k="addr:housenumber" v="45,47"/>
    <tag k="addr:street" v="Plattlinger Straße"/>
    <tag k="building" v="yes"/>
  </way>
  <way id="41880984" version="3" timestamp="2010-05-08T20:58:31Z" uid="36809" user="pfoten_weg_!_" changeset="4643009"/>
  <way id="41880984" version="4" timestamp="2010-05-09T08:52:34Z" uid="145231" user="woodpeck_repair" changeset="4645739">
    <nd ref="518113891"/>
    <nd ref="518113850"/>
    <nd ref="518113867"/>
    <nd ref="518113890"/>
    <nd ref="518113891"/>
    <tag k="addr:housenumber" v="45,47"/>
    <tag k="addr:street" v="Plattlinger Straße"/>
    <tag k="building" v="yes"/>
  </way>
  <way id="41880984" version="5" timestamp="2010-06-01T13:22:56Z" uid="30579" user="Tiramisu" changeset="4874529">
    <nd ref="518113891"/>
    <nd ref="518113850"/>
    <nd ref="518113867"/>
    <nd ref="518113890"/>
    <nd ref="518113891"/>
    <tag k="addr:city" v="München"/>
    <tag k="addr:country" v="DE"/>
    <tag k="addr:housenumber" v="45,47"/>
    <tag k="addr:postcode" v="81477"/>
    <tag k="addr:street" v="Plattlinger Straße"/>
    <tag k="building" v="yes"/>
  </way>
  <way id="41880984" version="6" timestamp="2010-06-01T14:40:00Z" uid="30579" user="Tiramisu" changeset="4875140">
    <nd ref="518113891"/>
    <nd ref="518113850"/>
    <nd ref="518113867"/>
    <nd ref="518113890"/>
    <nd ref="518113891"/>
    <tag k="addr:city" v="München"/>
    <tag k="addr:country" v="DE"/>
    <tag k="addr:housenumber" v="45,47"/>
    <tag k="addr:postcode" v="81479"/>
    <tag k="addr:street" v="Plattlinger Straße"/>
    <tag k="building" v="yes"/>
  </way>
  <way id="41880985" version="1" timestamp="2009-10-02T20:43:12Z" uid="86259" user="hasse_osm_korinthenkacker" changeset="2717407">
    <nd ref="518113842"/>
    <nd ref="518113840"/>
    <nd ref="518113841"/>
    <nd ref="518113838"/>
    <nd ref="518113842"/>
    <tag k="addr:housenumber" v="11a,11b,11c,11d"/>
    <tag k="addr:street" v="Halbreiterstraße"/>
    <tag k="building" v="yes"/>
    <tag k="source" v="Yahoo;survey"/>
  </way>
  <way id="41880985" version="2" timestamp="2009-10-03T17:44:16Z" uid="179968" user="Ich_hasse_doitsche_OSM-Korinthenkacker" changeset="2727120">
    <nd ref="518113842"/>
    <nd ref="518113840"/>
    <nd ref="518113841"/>
    <nd ref="518113838"/>
    <nd ref="518113842"/>
    <tag k="addr:housenumber" v="11a,11b,11c,11d"/>
    <tag k="addr:street" v="Halbreiterstraße"/>
    <tag k="building" v="yes"/>
  </way>
  <way id="41880985" version="3" timestamp="2010-05-08T20:58:30Z" uid="36809" user="pfoten_weg_!_" changeset="4643009"/>
  <way id="41880985" version="4" timestamp="2010-05-09T08:52:33Z" uid="145231" user="woodpeck_repair" changeset="4645739">
    <nd ref="518113842"/>
    <nd ref="518113840"/>
    <nd ref="518113841"/>
    <nd ref="518113838"/>
    <nd ref="518113842"/>
    <tag k="addr:housenumber" v="11a,11b,11c,11d"/>
    <tag k="addr:street" v="Halbreiterstraße"/>
    <tag k="building" v="yes"/>
  </way>
  <way id="41880985" version="5" timestamp="2010-06-01T13:22:54Z" uid="30579" user="Tiramisu" changeset="4874529">
    <nd ref="518113842"/>
    <nd ref="518113840"/>
    <nd ref="518113841"/>
    <nd ref="518113838"/>
    <nd ref="518113842"/>
    <tag k="addr:city" v="München"/>
    <tag k="addr:country" v="DE"/>
    <tag k="addr:housenumber" v="11a,11b,11c,11d"/>
    <tag k="addr:postcode" v="81477"/>
    <tag k="addr:street" v="Halbreiterstraße"/>
    <tag k="building" v="yes"/>
  </way>
  <way id="41880985" version="6" timestamp="2010-06-01T14:40:02Z" uid="30579" user="Tiramisu" changeset="4875140">
    <nd ref="518113842"/>
    <nd ref="518113840"/>
    <nd ref="518113841"/>
    <nd ref="518113838"/>
    <nd ref="518113842"/>
    <tag k="addr:city" v="München"/>
    <tag k="addr:country" v="DE"/>
    <tag k="addr:housenumber" v="11a,11b,11c,11d"/>
    <tag k="addr:postcode" v="81479"/>
    <tag k="addr:street" v="Halbreiterstraße"/>
    <tag k="building" v="yes"/>
  </way>
  <way id="41880985" version="7" timestamp="2011-06-18T09:19:59Z" uid="11374" user="q_un_go" changeset="8471305">
    <nd ref="518113842"/>
    <nd ref="518113840"/>
    <nd ref="1329404424"/>
    <nd ref="1329404900"/>
    <nd ref="518113841"/>
    <nd ref="518113838"/>
    <nd ref="1329404772"/>
    <nd ref="1329404089"/>
    <nd ref="518113842"/>
    <tag k="addr:city" v="München"/>
    <tag k="addr:country" v="DE"/>
    <tag k="addr:housenumber" v="11a,11b,11c,11d"/>
    <tag k="addr:postcode" v="81479"/>
    <tag k="addr:street" v="Halbreiterstraße"/>
    <tag k="building" v="yes"/>
  </way>
  <way id="41880986" version="1" timestamp="2009-10-02T20:43:12Z" uid="86259" user="hasse_osm_korinthenkacker" changeset="2717407">
    <nd ref="518113845"/>
    <nd ref="518113829"/>
    <nd ref="518113827"/>
    <nd ref="518113846"/>
    <nd ref="518113845"/>
    <tag k="addr:housenumber" v="53,55"/>
    <tag k="addr:street" v="Plattlinger Straße"/>
    <tag k="building" v="yes"/>
    <tag k="source" v="Yahoo;survey"/>
  </way>
  <way id="41880986" version="2" timestamp="2009-10-03T17:44:16Z" uid="179968" user="Ich_hasse_doitsche_OSM-Korinthenkacker" changeset="2727120">
    <nd ref="518113845"/>
    <nd ref="518113829"/>
    <nd ref="518113827"/>
    <nd ref="518113846"/>
    <nd ref="518113845"/>
    <tag k="addr:housenumber" v="53,55"/>
    <tag k="addr:street" v="Plattlinger Straße"/>
    <tag k="building" v="yes"/>
  </way>
  <way id="41880986" version="3" timestamp="2010-05-08T20:58:30Z" uid="36809" user="pfoten_weg_!_" changeset="4643009"/>
  <way id="41880986" version="4" timestamp="2010-05-09T08:52:32Z" uid="145231" user="woodpeck_repair" changeset="4645739">
    <nd ref="518113845"/>
    <nd ref="518113829"/>
    <nd ref="518113827"/>
    <nd ref="518113846"/>
    <nd ref="518113845"/>
    <tag k="addr:housenumber" v="53,55"/>
    <tag k="addr:street" v="Plattlinger Straße"/>
    <tag k="building" v="yes"/>
  </way>
  <way id="41880986" version="5" timestamp="2010-06-01T13:22:54Z" uid="30579" user="Tiramisu" changeset="4874529">
    <nd ref="518113845"/>
    <nd ref="518113829"/>
    <nd ref="518113827"/>
    <nd ref="518113846"/>
    <nd ref="518113845"/>
    <tag k="addr:city" v="München"/>
    <tag k="addr:country" v="DE"/>
    <tag k="addr:housenumber" v="53,55"/>
    <tag k="addr:postcode" v="81477"/>
    <tag k="addr:street" v="Plattlinger Straße"/>
    <tag k="building" v="yes"/>
  </way>
  <way id="41880986" version="6" timestamp="2010-06-01T14:39:59Z" uid="30579" user="Tiramisu" changeset="4875140">
    <nd ref="518113845"/>
    <nd ref="518113829"/>
    <nd ref="518113827"/>
    <nd ref="518113846"/>
    <nd ref="518113845"/>
    <tag k="addr:city" v="München"/>
    <tag k="addr:country" v="DE"/>
    <tag k="addr:housenumber" v="53,55"/>
    <tag k="addr:postcode" v="81479"/>
    <tag k="addr:street" v="Plattlinger Straße"/>
    <tag k="building" v="yes"/>
  </way>
  <way id="41880987" version="1" timestamp="2009-10-02T20:43:12Z" uid="86259" user="hasse_osm_korinthenkacker" changeset="2717407">
    <nd ref="518113915"/>
    <nd ref="518113900"/>
    <nd ref="518113929"/>
    <nd ref="518113934"/>
    <nd ref="518113915"/>
    <tag k="addr:housenumber" v="17,15"/>
    <tag k="addr:street" v="Breitschwertstraße"/>
    <tag k="building" v="yes"/>
    <tag k="source" v="Yahoo;survey"/>
  </way>
  <way id="41880987" version="2" timestamp="2009-10-03T17:44:16Z" uid="179968" user="Ich_hasse_doitsche_OSM-Korinthenkacker" changeset="2727120">
    <nd ref="518113915"/>
    <nd ref="518113900"/>
    <nd ref="518113929"/>
    <nd ref="518113934"/>
    <nd ref="518113915"/>
    <tag k="addr:housenumber" v="17,15"/>
    <tag k="addr:street" v="Breitschwertstraße"/>
    <tag k="building" v="yes"/>
  </way>
  <way id="41880987" version="3" timestamp="2010-05-08T20:58:31Z" uid="36809" user="pfoten_weg_!_" changeset="4643009"/>
  <way id="41880987" version="4" timestamp="2010-05-09T08:52:31Z" uid="145231" user="woodpeck_repair" changeset="4645739">
    <nd ref="518113915"/>
    <nd ref="518113900"/>
    <nd ref="518113929"/>
    <nd ref="518113934"/>
    <nd ref="518113915"/>
    <tag k="addr:housenumber" v="17,15"/>
    <tag k="addr:street" v="Breitschwertstraße"/>
    <tag k="building" v="yes"/>
  </way>
  <way id="41880987" version="5" timestamp="2010-06-01T13:22:52Z" uid="30579" user="Tiramisu" changeset="4874529">
    <nd ref="518113915"/>
    <nd ref="518113900"/>
    <nd ref="518113929"/>
    <nd ref="518113934"/>
    <nd ref="518113915"/>
    <tag k="addr:city" v="München"/>
    <tag k="addr:country" v="DE"/>
    <tag k="addr:housenumber" v="17,15"/>
    <tag k="addr:postcode" v="81477"/>
    <tag k="addr:street" v="Breitschwertstraße"/>
    <tag k="building" v="yes"/>
  </way>
  <way id="41880987" version="6" timestamp="2010-06-01T14:40:02Z" uid="30579" user="Tiramisu" changeset="4875140">
    <nd ref="518113915"/>
    <nd ref="518113900"/>
    <nd ref="518113929"/>
    <nd ref="518113934"/>
    <nd ref="518113915"/>
    <tag k="addr:city" v="München"/>
    <tag k="addr:country" v="DE"/>
    <tag k="addr:housenumber" v="17,15"/>
    <tag k="addr:postcode" v="81479"/>
    <tag k="addr:street" v="Breitschwertstraße"/>
    <tag k="building" v="yes"/>
  </way>
  <way id="41880988" version="1" timestamp="2009-10-02T20:43:12Z" uid="86259" user="hasse_osm_korinthenkacker" changeset="2717407">
    <nd ref="518113898"/>
    <nd ref="518113896"/>
    <nd ref="518113892"/>
    <nd ref="518113894"/>
    <nd ref="518113898"/>
    <tag k="addr:housenumber" v="41,43"/>
    <tag k="addr:street" v="Plattlinger Straße"/>
    <tag k="building" v="yes"/>
    <tag k="source" v="Yahoo;survey"/>
  </way>
  <way id="41880988" version="2" timestamp="2009-10-03T17:44:16Z" uid="179968" user="Ich_hasse_doitsche_OSM-Korinthenkacker" changeset="2727120">
    <nd ref="518113898"/>
    <nd ref="518113896"/>
    <nd ref="518113892"/>
    <nd ref="518113894"/>
    <nd ref="518113898"/>
    <tag k="addr:housenumber" v="41,43"/>
    <tag k="addr:street" v="Plattlinger Straße"/>
    <tag k="building" v="yes"/>
  </way>
  <way id="41880988" version="3" timestamp="2010-05-08T20:58:31Z" uid="36809" user="pfoten_weg_!_" changeset="4643009"/>
  <way id="41880988" version="4" timestamp="2010-05-09T08:52:29Z" uid="145231" user="woodpeck_repair" changeset="4645739">
    <nd ref="518113898"/>
    <nd ref="518113896"/>
    <nd ref="518113892"/>
    <nd ref="518113894"/>
    <nd ref="518113898"/>
    <tag k="addr:housenumber" v="41,43"/>
    <tag k="addr:street" v="Plattlinger Straße"/>
    <tag k="building" v="yes"/>
  </way>
  <way id="41880988" version="5" timestamp="2010-06-01T13:22:52Z" uid="30579" user="Tiramisu" changeset="4874529">
    <nd ref="518113898"/>
    <nd ref="518113896"/>
    <nd ref="518113892"/>
    <nd ref="518113894"/>
    <nd ref="518113898"/>
    <tag k="addr:city" v="München"/>
    <tag k="addr:country" v="DE"/>
    <tag k="addr:housenumber" v="41,43"/>
    <tag k="addr:postcode" v="81477"/>
    <tag k="addr:street" v="Plattlinger Straße"/>
    <tag k="building" v="yes"/>
  </way>
  <way id="41880988" version="6" timestamp="2010-06-01T14:40:02Z" uid="30579" user="Tiramisu" changeset="4875140">
    <nd ref="518113898"/>
    <nd ref="518113896"/>
    <nd ref="518113892"/>
    <nd ref="518113894"/>
    <nd ref="518113898"/>
    <tag k="addr:city" v="München"/>
    <tag k="addr:country" v="DE"/>
    <tag k="addr:housenumber" v="41,43"/>
    <tag k="addr:postcode" v="81479"/>
    <tag k="addr:street" v="Plattlinger Straße"/>
    <tag k="building" v="yes"/>
  </way>
  <way id="41880988" version="7" timestamp="2011-06-18T09:19:50Z" uid="11374" user="q_un_go" changeset="8471305">
    <nd ref="518113898"/>
    <nd ref="518113896"/>
    <nd ref="518113892"/>
    <nd ref="518113894"/>
    <nd ref="1329404786"/>
    <nd ref="518113898"/>
    <tag k="addr:city" v="München"/>
    <tag k="addr:country" v="DE"/>
    <tag k="addr:housenumber" v="41,43"/>
    <tag k="addr:postcode" v="81479"/>
    <tag k="addr:street" v="Plattlinger Straße"/>
    <tag k="building" v="yes"/>
  </way>
  <way id="41880990" version="1" timestamp="2009-10-02T20:43:12Z" uid="86259" user="hasse_osm_korinthenkacker" changeset="2717407">
    <nd ref="518113937"/>
    <nd ref="518113933"/>
    <nd ref="518113931"/>
    <nd ref="518113935"/>
    <nd ref="518113937"/>
    <tag k="addr:housenumber" v="13,13a"/>
    <tag k="addr:street" v="Breitschwertstraße"/>
    <tag k="building" v="yes"/>
    <tag k="source" v="Yahoo;survey"/>
  </way>
  <way id="41880990" version="2" timestamp="2009-10-03T17:44:16Z" uid="179968" user="Ich_hasse_doitsche_OSM-Korinthenkacker" changeset="2727120">
    <nd ref="518113937"/>
    <nd ref="518113933"/>
    <nd ref="518113931"/>
    <nd ref="518113935"/>
    <nd ref="518113937"/>
    <tag k="addr:housenumber" v="13,13a"/>
    <tag k="addr:street" v="Breitschwertstraße"/>
    <tag k="building" v="yes"/>
  </way>
  <way id="41880990" version="3" timestamp="2010-05-08T20:58:30Z" uid="36809" user="pfoten_weg_!_" changeset="4643009"/>
  <way id="41880990" version="4" timestamp="2010-05-09T08:52:29Z" uid="145231" user="woodpeck_repair" changeset="4645739">
    <nd ref="518113937"/>
    <nd ref="518113933"/>
    <nd ref="518113931"/>
    <nd ref="518113935"/>
    <nd ref="518113937"/>
    <tag k="addr:housenumber" v="13,13a"/>
    <tag k="addr:street" v="Breitschwertstraße"/>
    <tag k="building" v="yes"/>
  </way>
  <way id="41880990" version="5" timestamp="2010-06-01T13:22:50Z" uid="30579" user="Tiramisu" changeset="4874529">
    <nd ref="518113937"/>
    <nd ref="518113933"/>
    <nd ref="518113931"/>
    <nd ref="518113935"/>
    <nd ref="518113937"/>
    <tag k="addr:city" v="München"/>
    <tag k="addr:country" v="DE"/>
    <tag k="addr:housenumber" v="13,13a"/>
    <tag k="addr:postcode" v="81477"/>
    <tag k="addr:street" v="Breitschwertstraße"/>
    <tag k="building" v="yes"/>
  </way>
  <way id="41880990" version="6" timestamp="2010-06-01T14:40:01Z" uid="30579" user="Tiramisu" changeset="4875140">
    <nd ref="518113937"/>
    <nd ref="518113933"/>
    <nd ref="518113931"/>
    <nd ref="518113935"/>
    <nd ref="518113937"/>
    <tag k="addr:city" v="München"/>
    <tag k="addr:country" v="DE"/>
    <tag k="addr:housenumber" v="13,13a"/>
    <tag k="addr:postcode" v="81479"/>
    <tag k="addr:street" v="Breitschwertstraße"/>
    <tag k="building" v="yes"/>
  </way>
  <way id="41880990" version="7" timestamp="2011-06-18T09:19:56Z" uid="11374" user="q_un_go" changeset="8471305">
    <nd ref="518113937"/>
    <nd ref="1329404245"/>
    <nd ref="518113933"/>
    <nd ref="518113931"/>
    <nd ref="518113935"/>
    <nd ref="518113937"/>
    <tag k="addr:city" v="München"/>
    <tag k="addr:country" v="DE"/>
    <tag k="addr:housenumber" v="13,13a"/>
    <tag k="addr:postcode" v="81479"/>
    <tag k="addr:street" v="Breitschwertstraße"/>
    <tag k="building" v="yes"/>
  </way>
  <way id="41880991" version="1" timestamp="2009-10-02T20:43:12Z" uid="86259" user="hasse_osm_korinthenkacker" changeset="2717407">
    <nd ref="518113925"/>
    <nd ref="518113888"/>
    <nd ref="518113869"/>
    <nd ref="518113924"/>
    <nd ref="518113925"/>
    <tag k="addr:housenumber" v="19"/>
    <tag k="addr:street" v="Halbreiterstraße"/>
    <tag k="building" v="yes"/>
    <tag k="source" v="Yahoo;survey"/>
  </way>
  <way id="41880991" version="2" timestamp="2009-10-03T17:44:16Z" uid="179968" user="Ich_hasse_doitsche_OSM-Korinthenkacker" changeset="2727120">
    <nd ref="518113925"/>
    <nd ref="518113888"/>
    <nd ref="518113869"/>
    <nd ref="518113924"/>
    <nd ref="518113925"/>
    <tag k="addr:housenumber" v="19"/>
    <tag k="addr:street" v="Halbreiterstraße"/>
    <tag k="building" v="yes"/>
  </way>
  <way id="41880991" version="3" timestamp="2010-05-08T20:58:31Z" uid="36809" user="pfoten_weg_!_" changeset="4643009"/>
  <way id="41880991" version="4" timestamp="2010-05-09T08:52:28Z" uid="145231" user="woodpeck_repair" changeset="4645739">
    <nd ref="518113925"/>
    <nd ref="518113888"/>
    <nd ref="518113869"/>
    <nd ref="518113924"/>
    <nd ref="518113925"/>
    <tag k="addr:housenumber" v="19"/>
    <tag k="addr:street" v="Halbreiterstraße"/>
    <tag k="building" v="yes"/>
  </way>
  <way id="41880991" version="5" timestamp="2010-06-01T13:22:55Z" uid="30579" user="Tiramisu" changeset="4874529">
    <nd ref="518113925"/>
    <nd ref="518113888"/>
    <nd ref="518113869"/>
    <nd ref="518113924"/>
    <nd ref="518113925"/>
    <tag k="addr:city" v="München"/>
    <tag k="addr:country" v="DE"/>
    <tag k="addr:housenumber" v="19"/>
    <tag k="addr:postcode" v="81477"/>
    <tag k="addr:street" v="Halbreiterstraße"/>
    <tag k="building" v="yes"/>
  </way>
  <way id="41880991" version="6" timestamp="2010-06-01T14:40:00Z" uid="30579" user="Tiramisu" changeset="4875140">
    <nd ref="518113925"/>
    <nd ref="518113888"/>
    <nd ref="518113869"/>
    <nd ref="518113924"/>
    <nd ref="518113925"/>
    <tag k="addr:city" v="München"/>
    <tag k="addr:country" v="DE"/>
    <tag k="addr:housenumber" v="19"/>
    <tag k="addr:postcode" v="81479"/>
    <tag k="addr:street" v="Halbreiterstraße"/>
    <tag k="building" v="yes"/>
  </way>
  <way id="41880992" version="1" timestamp="2009-10-02T20:43:13Z" uid="86259" user="hasse_osm_korinthenkacker" changeset="2717407">
    <nd ref="518108441"/>
    <nd ref="518108442"/>
    <nd ref="518108434"/>
    <nd ref="518108436"/>
    <nd ref="518108435"/>
    <nd ref="518108439"/>
    <nd ref="518108438"/>
    <nd ref="518108437"/>
    <nd ref="518108433"/>
    <nd ref="518108440"/>
    <nd ref="518108441"/>
    <tag k="addr:housenumber" v="45"/>
    <tag k="addr:street" v="Hans-Keis-Straße"/>
    <tag k="amenity" v="kindergarten"/>
    <tag k="building" v="yes"/>
    <tag k="layer" v="1"/>
    <tag k="name" v="Kindergarten Isarspatzen"/>
    <tag k="source" v="landsat"/>
  </way>
  <way id="41880992" version="2" timestamp="2009-10-02T20:53:35Z" uid="86259" user="hasse_osm_korinthenkacker" changeset="2717552"/>
  <way id="41880993" version="1" timestamp="2009-10-02T20:43:13Z" uid="86259" user="hasse_osm_korinthenkacker" changeset="2717407">
    <nd ref="518113921"/>
    <nd ref="518113922"/>
    <nd ref="518113923"/>
    <nd ref="518113927"/>
    <nd ref="518113921"/>
    <tag k="addr:housenumber" v="21"/>
    <tag k="addr:street" v="Halbreiterstraße"/>
    <tag k="building" v="yes"/>
    <tag k="source" v="Yahoo;survey"/>
  </way>
  <way id="41880993" version="2" timestamp="2009-10-03T17:44:08Z" uid="179968" user="Ich_hasse_doitsche_OSM-Korinthenkacker" changeset="2727120">
    <nd ref="518113921"/>
    <nd ref="518113922"/>
    <nd ref="518113923"/>
    <nd ref="518113927"/>
    <nd ref="518113921"/>
    <tag k="addr:housenumber" v="21"/>
    <tag k="addr:street" v="Halbreiterstraße"/>
    <tag k="building" v="yes"/>
  </way>
  <way id="41880993" version="3" timestamp="2010-05-08T20:58:30Z" uid="36809" user="pfoten_weg_!_" changeset="4643009"/>
  <way id="41880993" version="4" timestamp="2010-05-09T08:52:27Z" uid="145231" user="woodpeck_repair" changeset="4645739">
    <nd ref="518113921"/>
    <nd ref="518113922"/>
    <nd ref="518113923"/>
    <nd ref="518113927"/>
    <nd ref="518113921"/>
    <tag k="addr:housenumber" v="21"/>
    <tag k="addr:street" v="Halbreiterstraße"/>
    <tag k="building" v="yes"/>
  </way>
  <way id="41880993" version="5" timestamp="2010-06-01T13:22:51Z" uid="30579" user="Tiramisu" changeset="4874529">
    <nd ref="518113921"/>
    <nd ref="518113922"/>
    <nd ref="518113923"/>
    <nd ref="518113927"/>
    <nd ref="518113921"/>
    <tag k="addr:city" v="München"/>
    <tag k="addr:country" v="DE"/>
    <tag k="addr:housenumber" v="21"/>
    <tag k="addr:postcode" v="81477"/>
    <tag k="addr:street" v="Halbreiterstraße"/>
    <tag k="building" v="yes"/>
  </way>
  <way id="41880993" version="6" timestamp="2010-06-01T14:40:03Z" uid="30579" user="Tiramisu" changeset="4875140">
    <nd ref="518113921"/>
    <nd ref="518113922"/>
    <nd ref="518113923"/>
    <nd ref="518113927"/>
    <nd ref="518113921"/>
    <tag k="addr:city" v="München"/>
    <tag k="addr:country" v="DE"/>
    <tag k="addr:housenumber" v="21"/>
    <tag k="addr:postcode" v="81479"/>
    <tag k="addr:street" v="Halbreiterstraße"/>
    <tag k="building" v="yes"/>
  </way>
  <way id="41880994" version="1" timestamp="2009-10-02T20:43:13Z" uid="86259" user="hasse_osm_korinthenkacker" changeset="2717407">
    <nd ref="518113182"/>
    <nd ref="518113184"/>
    <nd ref="518113186"/>
    <nd ref="518113190"/>
    <nd ref="518113166"/>
    <nd ref="518113167"/>
    <nd ref="518113168"/>
    <nd ref="518113170"/>
    <nd ref="518113171"/>
    <nd ref="518113173"/>
    <nd ref="518113164"/>
    <nd ref="518113177"/>
    <nd ref="518113176"/>
    <nd ref="518113180"/>
    <nd ref="518113182"/>
    <tag k="addr:housenumber" v="45,47,49"/>
    <tag k="addr:street" v="Geigenbergerstraße"/>
    <tag k="building" v="yes"/>
    <tag k="source" v="Yahoo,survey"/>
  </way>
  <way id="41880994" version="2" timestamp="2009-10-03T17:44:08Z" uid="179968" user="Ich_hasse_doitsche_OSM-Korinthenkacker" changeset="2727120">
    <nd ref="518113182"/>
    <nd ref="518113184"/>
    <nd ref="518113186"/>
    <nd ref="518113190"/>
    <nd ref="518113166"/>
    <nd ref="518113167"/>
    <nd ref="518113168"/>
    <nd ref="518113170"/>
    <nd ref="518113171"/>
    <nd ref="518113173"/>
    <nd ref="518113164"/>
    <nd ref="518113177"/>
    <nd ref="518113176"/>
    <nd ref="518113180"/>
    <nd ref="518113182"/>
    <tag k="addr:housenumber" v="45,47,49"/>
    <tag k="addr:street" v="Geigenbergerstraße"/>
    <tag k="building" v="yes"/>
  </way>
  <way id="41880994" version="3" timestamp="2009-10-13T22:49:26Z" uid="36809" user="pfoten_weg_!_" changeset="2841156"/>
  <way id="41880995" version="1" timestamp="2009-10-02T20:43:13Z" uid="86259" user="hasse_osm_korinthenkacker" changeset="2717407">
    <nd ref="518113159"/>
    <nd ref="518113165"/>
    <nd ref="518113170"/>
    <nd ref="518113171"/>
    <nd ref="518113173"/>
    <nd ref="518113164"/>
    <nd ref="518113177"/>
    <nd ref="518113176"/>
    <nd ref="518113163"/>
    <nd ref="518113160"/>
    <nd ref="518113159"/>
    <tag k="addr:housenumber" v="51"/>
    <tag k="addr:street" v="Geigenbergerstraße"/>
    <tag k="building" v="yes"/>
    <tag k="source" v="Yahoo,survey"/>
  </way>
  <way id="41880995" version="2" timestamp="2009-10-03T17:44:08Z" uid="179968" user="Ich_hasse_doitsche_OSM-Korinthenkacker" changeset="2727120">
    <nd ref="518113159"/>
    <nd ref="518113165"/>
    <nd ref="518113170"/>
    <nd ref="518113171"/>
    <nd ref="518113173"/>
    <nd ref="518113164"/>
    <nd ref="518113177"/>
    <nd ref="518113176"/>
    <nd ref="518113163"/>
    <nd ref="518113160"/>
    <nd ref="518113159"/>
    <tag k="addr:housenumber" v="51"/>
    <tag k="addr:street" v="Geigenbergerstraße"/>
    <tag k="building" v="yes"/>
  </way>
  <way id="41880995" version="3" timestamp="2009-10-13T22:49:27Z" uid="36809" user="pfoten_weg_!_" changeset="2841156"/>
  <way id="41880996" version="1" timestamp="2009-10-02T20:43:13Z" uid="86259" user="hasse_osm_korinthenkacker" changeset="2717407">
    <nd ref="518113269"/>
    <nd ref="518113266"/>
    <nd ref="518113262"/>
    <nd ref="518113264"/>
    <nd ref="518113269"/>
    <tag k="addr:housenumber" v="118"/>
    <tag k="addr:street" v="Drygalski-Allee"/>
    <tag k="building" v="yes"/>
    <tag k="name" v="DEBA-Hochhaus"/>
    <tag k="source" v="survey"/>
  </way>
  <way id="41880996" version="2" timestamp="2009-10-12T22:09:20Z" uid="36809" user="pfoten_weg_!_" changeset="2831291">
    <nd ref="518113269"/>
    <nd ref="518113266"/>
    <nd ref="518113262"/>
    <nd ref="518113264"/>
    <nd ref="518113269"/>
    <tag k="addr:housenumber" v="118"/>
    <tag k="addr:street" v="Drygalski-Allee"/>
    <tag k="building" v="yes"/>
    <tag k="name" v="DEBA-Hochhaus"/>
  </way>
  <way id="41880996" version="3" timestamp="2009-10-15T21:53:53Z" uid="36809" user="pfoten_weg_!_" changeset="2859935"/>
  <way id="41880997" version="1" timestamp="2009-10-02T20:43:13Z" uid="86259" user="hasse_osm_korinthenkacker" changeset="2717407">
    <nd ref="518114158"/>
    <nd ref="518114112"/>
    <nd ref="518114108"/>
    <nd ref="518114156"/>
    <nd ref="518114158"/>
    <tag k="addr:housenumber" v="7,7a"/>
    <tag k="addr:street" v="Geigenbergerstraße"/>
    <tag k="building" v="yes"/>
    <tag k="source" v="Yahoo,survey"/>
  </way>
  <way id="41880997" version="2" timestamp="2009-10-03T17:44:07Z" uid="179968" user="Ich_hasse_doitsche_OSM-Korinthenkacker" changeset="2727120">
    <nd ref="518114158"/>
    <nd ref="518114112"/>
    <nd ref="518114108"/>
    <nd ref="518114156"/>
    <nd ref="518114158"/>
    <tag k="addr:housenumber" v="7,7a"/>
    <tag k="addr:street" v="Geigenbergerstraße"/>
    <tag k="building" v="yes"/>
  </way>
  <way id="41880997" version="3" timestamp="2010-05-08T20:58:30Z" uid="36809" user="pfoten_weg_!_" changeset="4643009"/>
  <way id="41880997" version="4" timestamp="2010-05-09T08:52:26Z" uid="145231" user="woodpeck_repair" changeset="4645739">
    <nd ref="518114158"/>
    <nd ref="518114112"/>
    <nd ref="518114108"/>
    <nd ref="518114156"/>
    <nd ref="518114158"/>
    <tag k="addr:housenumber" v="7,7a"/>
    <tag k="addr:street" v="Geigenbergerstraße"/>
    <tag k="building" v="yes"/>
  </way>
  <way id="41880997" version="5" timestamp="2010-06-01T14:23:31Z" uid="30579" user="Tiramisu" changeset="4874979">
    <nd ref="518114158"/>
    <nd ref="518114112"/>
    <nd ref="518114108"/>
    <nd ref="518114156"/>
    <nd ref="518114158"/>
    <tag k="addr:city" v="München"/>
    <tag k="addr:country" v="DE"/>
    <tag k="addr:housenumber" v="7,7a"/>
    <tag k="addr:postcode" v="81477"/>
    <tag k="addr:street" v="Geigenbergerstraße"/>
    <tag k="building" v="yes"/>
  </way>
  <way id="41880997" version="6" timestamp="2011-06-18T09:19:52Z" uid="11374" user="q_un_go" changeset="8471305">
    <nd ref="518114158"/>
    <nd ref="518114112"/>
    <nd ref="518114108"/>
    <nd ref="1329404347"/>
    <nd ref="1329404044"/>
    <nd ref="1329404179"/>
    <nd ref="1329404881"/>
    <nd ref="518114156"/>
    <nd ref="518114158"/>
    <tag k="addr:city" v="München"/>
    <tag k="addr:country" v="DE"/>
    <tag k="addr:housenumber" v="7,7a"/>
    <tag k="addr:postcode" v="81477"/>
    <tag k="addr:street" v="Geigenbergerstraße"/>
    <tag k="building" v="yes"/>
  </way>
  <way id="41880998" version="1" timestamp="2009-10-02T20:43:13Z" uid="86259" user="hasse_osm_korinthenkacker" changeset="2717407">
    <nd ref="518114196"/>
    <nd ref="518114199"/>
    <nd ref="518114162"/>
    <nd ref="518114193"/>
    <nd ref="518114196"/>
    <tag k="addr:housenumber" v="5,5a"/>
    <tag k="addr:street" v="Geigenbergerstraße"/>
    <tag k="building" v="yes"/>
  </way>
  <way id="41880998" version="2" timestamp="2010-05-08T20:58:31Z" uid="36809" user="pfoten_weg_!_" changeset="4643009"/>
  <way id="41880998" version="3" timestamp="2010-05-09T08:52:25Z" uid="145231" user="woodpeck_repair" changeset="4645739">
    <nd ref="518114196"/>
    <nd ref="518114199"/>
    <nd ref="518114162"/>
    <nd ref="518114193"/>
    <nd ref="518114196"/>
    <tag k="addr:housenumber" v="5,5a"/>
    <tag k="addr:street" v="Geigenbergerstraße"/>
    <tag k="building" v="yes"/>
  </way>
  <way id="41880998" version="4" timestamp="2010-06-01T14:23:32Z" uid="30579" user="Tiramisu" changeset="4874979">
    <nd ref="518114196"/>
    <nd ref="518114199"/>
    <nd ref="518114162"/>
    <nd ref="518114193"/>
    <nd ref="518114196"/>
    <tag k="addr:city" v="München"/>
    <tag k="addr:country" v="DE"/>
    <tag k="addr:housenumber" v="5,5a"/>
    <tag k="addr:postcode" v="81477"/>
    <tag k="addr:street" v="Geigenbergerstraße"/>
    <tag k="building" v="yes"/>
  </way>
  <way id="41880999" version="1" timestamp="2009-10-02T20:43:13Z" uid="86259" user="hasse_osm_korinthenkacker" changeset="2717407">
    <nd ref="518114210"/>
    <nd ref="518114167"/>
    <nd ref="518114164"/>
    <nd ref="518114160"/>
    <nd ref="518114210"/>
    <tag k="addr:housenumber" v="9,9a,9b"/>
    <tag k="addr:street" v="Geigenbergerstraße"/>
    <tag k="building" v="yes"/>
    <tag k="source" v="Yahoo,survey"/>
  </way>
  <way id="41880999" version="2" timestamp="2009-10-03T17:44:07Z" uid="179968" user="Ich_hasse_doitsche_OSM-Korinthenkacker" changeset="2727120">
    <nd ref="518114210"/>
    <nd ref="518114167"/>
    <nd ref="518114164"/>
    <nd ref="518114160"/>
    <nd ref="518114210"/>
    <tag k="addr:housenumber" v="9,9a,9b"/>
    <tag k="addr:street" v="Geigenbergerstraße"/>
    <tag k="building" v="yes"/>
  </way>
  <way id="41880999" version="3" timestamp="2010-05-08T20:58:31Z" uid="36809" user="pfoten_weg_!_" changeset="4643009"/>
  <way id="41880999" version="4" timestamp="2010-05-09T08:52:24Z" uid="145231" user="woodpeck_repair" changeset="4645739">
    <nd ref="518114210"/>
    <nd ref="518114167"/>
    <nd ref="518114164"/>
    <nd ref="518114160"/>
    <nd ref="518114210"/>
    <tag k="addr:housenumber" v="9,9a,9b"/>
    <tag k="addr:street" v="Geigenbergerstraße"/>
    <tag k="building" v="yes"/>
  </way>
  <way id="41880999" version="5" timestamp="2010-06-01T14:23:30Z" uid="30579" user="Tiramisu" changeset="4874979">
    <nd ref="518114210"/>
    <nd ref="518114167"/>
    <nd ref="518114164"/>
    <nd ref="518114160"/>
    <nd ref="518114210"/>
    <tag k="addr:city" v="München"/>
    <tag k="addr:country" v="DE"/>
    <tag k="addr:housenumber" v="9,9a,9b"/>
    <tag k="addr:postcode" v="81477"/>
    <tag k="addr:street" v="Geigenbergerstraße"/>
    <tag k="building" v="yes"/>
  </way>
  <way id="41880947" version="7" timestamp="2012-04-29T07:08:37Z" uid="290723" user="sulagaloh" changeset="11446798"/>
  <way id="41880948" version="8" timestamp="2012-04-29T07:08:37Z" uid="290723" user="sulagaloh" changeset="11446798"/>
  <way id="41880949" version="8" timestamp="2012-04-29T07:08:37Z" uid="290723" user="sulagaloh" changeset="11446798"/>
  <way id="41880950" version="7" timestamp="2012-04-29T07:22:44Z" uid="290723" user="sulagaloh" changeset="11446798"/>
  <way id="41880951" version="7" timestamp="2012-04-29T07:03:17Z" uid="290723" user="sulagaloh" changeset="11446798"/>
  <way id="41880952" version="7" timestamp="2012-04-29T07:08:37Z" uid="290723" user="sulagaloh" changeset="11446798"/>
  <way id="41880953" version="8" timestamp="2012-04-29T07:42:38Z" uid="290723" user="sulagaloh" changeset="11446798"/>
  <way id="41880954" version="6" timestamp="2012-04-11T18:43:00Z" uid="8748" user="ToniE" changeset="11268572">
    <nd ref="518113673"/>
    <nd ref="518113709"/>
    <nd ref="518113686"/>
    <nd ref="518113689"/>
    <nd ref="518113691"/>
    <nd ref="518113678"/>
    <nd ref="518113684"/>
    <nd ref="518113680"/>
    <nd ref="518113682"/>
    <nd ref="518113674"/>
    <nd ref="518113676"/>
    <nd ref="518113685"/>
    <nd ref="518113666"/>
    <nd ref="518113673"/>
    <tag k="addr:city" v="München"/>
    <tag k="addr:country" v="DE"/>
    <tag k="addr:housenumber" v="16"/>
    <tag k="addr:postcode" v="81477"/>
    <tag k="addr:street" v="Stäblistraße"/>
    <tag k="amenity" v="fast_food"/>
    <tag k="building" v="yes"/>
    <tag k="layer" v="1"/>
    <tag k="name" v="McDonalds, McDrive"/>
    <tag k="odbl" v="clean"/>
    <tag k="source" v="survey"/>
  </way>
  <way id="41880955" version="7" timestamp="2012-04-29T07:26:32Z" uid="290723" user="sulagaloh" changeset="11446798"/>
  <way id="41880956" version="5" timestamp="2012-06-03T11:20:31Z" uid="8703" user="rolandg" changeset="11785272"/>
  <way id="41880957" version="7" timestamp="2012-04-29T07:26:32Z" uid="290723" user="sulagaloh" changeset="11446798"/>
  <way id="41880958" version="7" timestamp="2012-04-29T07:26:32Z" uid="290723" user="sulagaloh" changeset="11446798"/>
  <way id="41880959" version="6" timestamp="2012-04-11T18:43:00Z" uid="8748" user="ToniE" changeset="11268572">
    <nd ref="518113661"/>
    <nd ref="518113672"/>
    <nd ref="705038167"/>
    <nd ref="518113670"/>
    <nd ref="518113668"/>
    <nd ref="518113656"/>
    <nd ref="518113652"/>
    <nd ref="518113654"/>
    <nd ref="518113649"/>
    <nd ref="518113645"/>
    <nd ref="518113648"/>
    <nd ref="518113646"/>
    <nd ref="518113659"/>
    <nd ref="1416078890"/>
    <nd ref="1416078817"/>
    <nd ref="518113660"/>
    <nd ref="518113661"/>
    <tag k="abutters" v="commercial"/>
    <tag k="addr:city" v="München"/>
    <tag k="addr:country" v="DE"/>
    <tag k="addr:housenumber" v="51"/>
    <tag k="addr:postcode" v="81477"/>
    <tag k="addr:street" v="Drygalski-Allee"/>
    <tag k="amenity" v="public_building"/>
    <tag k="area" v="yes"/>
    <tag k="building" v="yes"/>
    <tag k="layer" v="1"/>
    <tag k="name" v="McDonald&apos;s Deutschland Inc."/>
    <tag k="odbl" v="clean"/>
    <tag k="source" v="survey"/>
  </way>
  <way id="41880960" version="8" timestamp="2012-04-29T07:26:32Z" uid="290723" user="sulagaloh" changeset="11446798"/>
  <way id="41880961" version="7" timestamp="2012-04-27T21:31:53Z" uid="290723" user="sulagaloh" changeset="11436507"/>
  <way id="41880962" version="7" timestamp="2012-04-29T07:33:22Z" uid="290723" user="sulagaloh" changeset="11446798"/>
  <way id="41880963" version="6" timestamp="2012-04-29T07:33:22Z" uid="290723" user="sulagaloh" changeset="11446798"/>
  <way id="41880964" version="7" timestamp="2012-04-29T07:32:07Z" uid="290723" user="sulagaloh" changeset="11446798"/>
  <way id="41880965" version="7" timestamp="2012-04-29T07:34:44Z" uid="290723" user="sulagaloh" changeset="11446798"/>
  <way id="41880967" version="6" timestamp="2012-04-29T07:34:44Z" uid="290723" user="sulagaloh" changeset="11446798"/>
  <way id="41880968" version="6" timestamp="2012-04-29T07:34:45Z" uid="290723" user="sulagaloh" changeset="11446798"/>
  <way id="41880969" version="7" timestamp="2012-04-27T21:29:57Z" uid="290723" user="sulagaloh" changeset="11436507"/>
  <way id="41880970" version="5" timestamp="2012-04-24T14:51:00Z" uid="290723" user="sulagaloh" changeset="11406000"/>
  <way id="41880971" version="7" timestamp="2012-04-27T21:26:07Z" uid="290723" user="sulagaloh" changeset="11436507"/>
  <way id="41880972" version="7" timestamp="2012-04-27T21:26:06Z" uid="290723" user="sulagaloh" changeset="11436507"/>
  <way id="41880973" version="7" timestamp="2012-04-27T21:26:07Z" uid="290723" user="sulagaloh" changeset="11436507"/>
  <way id="41880974" version="7" timestamp="2012-04-29T09:40:55Z" uid="290723" user="sulagaloh" changeset="11447604"/>
  <way id="41880975" version="7" timestamp="2012-04-29T15:25:04Z" uid="290723" user="sulagaloh" changeset="11450931"/>
  <way id="41880976" version="8" timestamp="2012-04-30T06:13:11Z" uid="290723" user="sulagaloh" changeset="11456472"/>
  <way id="41880977" version="8" timestamp="2012-04-30T06:13:11Z" uid="290723" user="sulagaloh" changeset="11456472"/>
  <way id="41880978" version="8" timestamp="2012-04-30T06:13:11Z" uid="290723" user="sulagaloh" changeset="11456472"/>
  <way id="41880979" version="8" timestamp="2012-04-30T06:13:11Z" uid="290723" user="sulagaloh" changeset="11456472"/>
  <way id="41880980" version="10" timestamp="2012-04-30T06:16:09Z" uid="290723" user="sulagaloh" changeset="11456472"/>
  <way id="41880981" version="8" timestamp="2012-04-30T06:16:09Z" uid="290723" user="sulagaloh" changeset="11456472"/>
  <way id="41880982" version="10" timestamp="2012-04-30T06:16:09Z" uid="290723" user="sulagaloh" changeset="11456472"/>
  <way id="41880983" version="7" timestamp="2012-04-29T15:25:04Z" uid="290723" user="sulagaloh" changeset="11450931"/>
  <way id="41880984" version="7" timestamp="2012-04-29T15:25:04Z" uid="290723" user="sulagaloh" changeset="11450931"/>
  <way id="41880985" version="8" timestamp="2012-04-30T06:16:10Z" uid="290723" user="sulagaloh" changeset="11456472"/>
  <way id="41880986" version="7" timestamp="2012-04-29T15:25:04Z" uid="290723" user="sulagaloh" changeset="11450931"/>
  <way id="41880987" version="7" timestamp="2012-04-29T15:25:05Z" uid="290723" user="sulagaloh" changeset="11450931"/>
  <way id="41880988" version="8" timestamp="2012-04-29T15:25:05Z" uid="290723" user="sulagaloh" changeset="11450931"/>
  <way id="41880990" version="8" timestamp="2012-04-29T15:27:01Z" uid="290723" user="sulagaloh" changeset="11450931"/>
  <way id="41880991" version="7" timestamp="2012-04-30T06:16:10Z" uid="290723" user="sulagaloh" changeset="11456472"/>
  <way id="41880993" version="7" timestamp="2012-04-29T15:27:01Z" uid="290723" user="sulagaloh" changeset="11450931"/>
  <way id="41880997" version="7" timestamp="2012-04-27T21:26:07Z" uid="290723" user="sulagaloh" changeset="11436507"/>
  <way id="41880998" version="5" timestamp="2012-04-29T07:32:07Z" uid="290723" user="sulagaloh" changeset="11446798"/>
  <way id="41880999" version="6" timestamp="2012-04-29T07:32:07Z" uid="290723" user="sulagaloh" changeset="11446798"/>
</osm>
