<?xml version='1.0' encoding='UTF-8'?>
<osm version="0.6" generator="libosmium/2.20.0">
  <way id="41902017" version="2" timestamp="2010-07-08T17:10:31Z" uid="74617" user="JohnSmith" changeset="5167338">
    <nd ref="518638320"/>
    <nd ref="518638346"/>
    <tag k="highway" v="residential"/>
    <tag k="maxspeed" v="50"/>
    <tag k="maxspeed:source" v="default residential speed limit in Australia"/>
  </way>
  <way id="41902017" version="3" timestamp="2010-07-13T13:21:13Z" uid="178145" user="petphi" changeset="5207900">
    <nd ref="518638320"/>
    <nd ref="518638346"/>
    <tag k="highway" v="residential"/>
    <tag k="maxspeed" v="50"/>
    <tag k="maxspeed:source" v="default residential speed limit in Australia"/>
    <tag k="name" v="Pride Street"/>
  </way>
  <way id="41902017" version="4" timestamp="2012-01-19T05:25:04Z" uid="147510" user="woodpeck_fixbot" changeset="10433866">
    <nd ref="518638320"/>
    <nd ref="518638346"/>
    <tag k="highway" v="residential"/>
    <tag k="name" v="Pride Street"/>
  </way>
  <way id="41902022" version="2" timestamp="2010-07-08T17:10:55Z" uid="74617" user="JohnSmith" changeset="5167338">
    <nd ref="518638236"/>
    <nd ref="518638262"/>
    <tag k="highway" v="residential"/>
    <tag k="maxspeed" v="50"/>
    <tag k="maxspeed:source" v="default residential speed limit in Australia"/>
  </way>
  <way id="41902022" version="3" timestamp="2010-07-13T13:21:47Z" uid="178145" user="petphi" changeset="5207900">
    <nd ref="518638236"/>
    <nd ref="518638262"/>
    <tag k="highway" v="residential"/>
    <tag k="maxspeed" v="50"/>
    <tag k="maxspeed:source" v="default residential speed limit in Australia"/>
    <tag k="name" v="Pride Street"/>
  </way>
  <way id="41902022" version="4" timestamp="2012-01-19T05:25:06Z" uid="147510" user="woodpeck_fixbot" changeset="10433866">
    <nd ref="518638236"/>
    <nd ref="518638262"/>
    <tag k="highway" v="residential"/>
    <tag k="name" v="Pride Street"/>
  </way>
  <way id="41902023" version="2" timestamp="2009-12-16T08:32:02Z" uid="4467" user="Rosscoe" changeset="3385067">
    <nd ref="512286896"/>
    <nd ref="518639213"/>
    <nd ref="518639187"/>
    <tag k="bicycle" v="designated"/>
    <tag k="foot" v="designated"/>
    <tag k="highway" v="path"/>
    <tag k="surface" v="unpaved"/>
  </way>
  <way id="41902025" version="3" timestamp="2011-03-14T02:27:31Z" uid="4467" user="Rosscoe" changeset="7552465">
    <nd ref="1201166839"/>
    <nd ref="518641694"/>
    <nd ref="518641651"/>
    <nd ref="518641626"/>
    <nd ref="1201166839"/>
    <tag k="amenity" v="parking"/>
    <tag k="source" v="nearmap"/>
  </way>
  <way id="41902030" version="2" timestamp="2010-07-08T17:11:48Z" uid="74617" user="JohnSmith" changeset="5167338">
    <nd ref="510171671"/>
    <nd ref="510171683"/>
    <tag k="highway" v="residential"/>
    <tag k="maxspeed" v="50"/>
    <tag k="maxspeed:source" v="default residential speed limit in Australia"/>
    <tag k="name" v="Bristol Road"/>
    <tag k="oneway" v="yes"/>
  </way>
  <way id="41902030" version="3" timestamp="2010-08-05T04:09:48Z" uid="178145" user="petphi" changeset="5404621">
    <nd ref="510171671"/>
    <nd ref="846538554"/>
    <nd ref="846538736"/>
    <nd ref="846538870"/>
    <nd ref="510171683"/>
    <tag k="highway" v="residential"/>
    <tag k="maxspeed" v="50"/>
    <tag k="maxspeed:source" v="default residential speed limit in Australia"/>
    <tag k="name" v="Bristol Road"/>
    <tag k="oneway" v="yes"/>
  </way>
  <way id="41902030" version="4" timestamp="2011-03-14T02:27:28Z" uid="4467" user="Rosscoe" changeset="7552465">
    <nd ref="510171671"/>
    <nd ref="846538554"/>
    <nd ref="846538736"/>
    <nd ref="846538870"/>
    <nd ref="510171683"/>
    <tag k="highway" v="residential"/>
    <tag k="maxspeed" v="50"/>
    <tag k="name" v="Bristol Road"/>
    <tag k="oneway" v="yes"/>
    <tag k="source:maxspeed" v="default residential speed limit in Australia"/>
  </way>
  <way id="41902030" version="5" timestamp="2011-06-12T11:19:35Z" uid="206929" user="Supt_of_Printing" changeset="8414102"/>
  <way id="41902032" version="2" timestamp="2010-07-08T17:10:48Z" uid="74617" user="JohnSmith" changeset="5167338">
    <nd ref="510171684"/>
    <nd ref="518638042"/>
    <nd ref="510171674"/>
    <nd ref="510171683"/>
    <tag k="highway" v="residential"/>
    <tag k="maxspeed" v="50"/>
    <tag k="maxspeed:source" v="default residential speed limit in Australia"/>
    <tag k="name" v="Bristol Road"/>
  </way>
  <way id="41902032" version="3" timestamp="2011-03-14T02:27:27Z" uid="4467" user="Rosscoe" changeset="7552465">
    <nd ref="510171684"/>
    <nd ref="518638042"/>
    <nd ref="510171674"/>
    <nd ref="510171683"/>
    <tag k="highway" v="residential"/>
    <tag k="maxspeed" v="50"/>
    <tag k="name" v="Bristol Road"/>
    <tag k="source:maxspeed" v="default residential speed limit in Australia"/>
  </way>
  <way id="41902032" version="4" timestamp="2012-01-19T05:25:07Z" uid="147510" user="woodpeck_fixbot" changeset="10433866">
    <nd ref="510171684"/>
    <nd ref="518638042"/>
    <nd ref="510171674"/>
    <nd ref="510171683"/>
    <tag k="highway" v="residential"/>
    <tag k="name" v="Bristol Road"/>
    <tag k="source:maxspeed" v="default residential speed limit in Australia"/>
  </way>
  <way id="41902072" version="1" timestamp="2009-10-03T10:39:02Z" uid="18775" user="drlizau" changeset="2722011">
    <nd ref="518644341"/>
    <nd ref="518644326"/>
    <tag k="highway" v="residential"/>
  </way>
  <way id="41902074" version="1" timestamp="2009-10-03T10:39:03Z" uid="18775" user="drlizau" changeset="2722011">
    <nd ref="518644326"/>
    <nd ref="518644344"/>
    <nd ref="518644347"/>
    <nd ref="518644349"/>
    <nd ref="518644352"/>
    <nd ref="518644355"/>
    <nd ref="518644358"/>
    <nd ref="518644361"/>
    <nd ref="518644363"/>
    <nd ref="518644365"/>
    <nd ref="518644367"/>
    <nd ref="518644326"/>
    <tag k="highway" v="residential"/>
    <tag k="oneway" v="yes"/>
  </way>
  <way id="41902382" version="5" timestamp="2010-03-29T13:42:58Z" uid="74617" user="JohnSmith" changeset="4267458"/>
  <way id="41902817" version="2" timestamp="2009-10-26T21:11:22Z" uid="9581" user="Lobelt" changeset="2960529">
    <nd ref="518667777"/>
    <nd ref="541007909"/>
    <nd ref="541007910"/>
    <nd ref="26086530"/>
    <nd ref="541007911"/>
    <nd ref="541007912"/>
    <nd ref="541007913"/>
    <nd ref="541007916"/>
    <nd ref="541007915"/>
    <nd ref="26086531"/>
    <nd ref="541007918"/>
    <nd ref="541007917"/>
    <nd ref="541007919"/>
    <nd ref="541007920"/>
    <nd ref="541007921"/>
    <nd ref="26086532"/>
    <nd ref="541007922"/>
    <nd ref="541007923"/>
    <nd ref="541007924"/>
    <nd ref="541007925"/>
    <nd ref="541007926"/>
    <nd ref="541007927"/>
    <nd ref="541007929"/>
    <nd ref="541007930"/>
    <tag k="railway" v="rail"/>
  </way>
  <way id="41902817" version="3" timestamp="2010-04-11T18:22:18Z" uid="9176" user="Maarten Deen" changeset="4397068">
    <nd ref="518667777"/>
    <nd ref="541007909"/>
    <nd ref="541007910"/>
    <nd ref="26086530"/>
    <nd ref="541007911"/>
    <nd ref="541007912"/>
    <nd ref="541007913"/>
    <nd ref="541007916"/>
    <nd ref="541007915"/>
    <nd ref="26086531"/>
    <nd ref="541007918"/>
    <nd ref="541007917"/>
    <nd ref="541007919"/>
    <nd ref="541007920"/>
    <nd ref="541007921"/>
    <nd ref="26086532"/>
    <nd ref="541007922"/>
    <nd ref="541007923"/>
    <nd ref="541007924"/>
    <nd ref="541007925"/>
    <nd ref="541007926"/>
    <nd ref="541007927"/>
    <nd ref="541007929"/>
    <nd ref="541007930"/>
    <tag k="electrified" v="contact_line"/>
    <tag k="frequency" v="16.7"/>
    <tag k="railway" v="rail"/>
    <tag k="voltage" v="15000"/>
  </way>
  <way id="41902817" version="4" timestamp="2011-08-07T16:45:57Z" uid="46893" user="silverlion" changeset="8949200">
    <nd ref="518667777"/>
    <nd ref="1389910437"/>
    <nd ref="541007909"/>
    <nd ref="541007910"/>
    <nd ref="26086530"/>
    <nd ref="541007911"/>
    <nd ref="541007912"/>
    <nd ref="541007913"/>
    <nd ref="541007916"/>
    <nd ref="541007915"/>
    <nd ref="26086531"/>
    <nd ref="541007918"/>
    <nd ref="541007917"/>
    <nd ref="541007919"/>
    <nd ref="541007920"/>
    <nd ref="541007921"/>
    <nd ref="26086532"/>
    <nd ref="541007922"/>
    <nd ref="541007923"/>
    <nd ref="541007924"/>
    <nd ref="541007925"/>
    <nd ref="541007926"/>
    <nd ref="541007927"/>
    <nd ref="541007929"/>
    <nd ref="541007930"/>
    <tag k="electrified" v="contact_line"/>
    <tag k="frequency" v="16.7"/>
    <tag k="railway" v="rail"/>
    <tag k="voltage" v="15000"/>
  </way>
  <way id="41902817" version="5" timestamp="2011-11-02T16:37:19Z" uid="42429" user="FK270673" changeset="9723356">
    <nd ref="518667777"/>
    <nd ref="1389910437"/>
    <nd ref="541007909"/>
    <nd ref="541007910"/>
    <nd ref="26086530"/>
    <nd ref="541007911"/>
    <nd ref="541007912"/>
    <nd ref="541007913"/>
    <nd ref="541007916"/>
    <nd ref="541007915"/>
    <nd ref="26086531"/>
    <nd ref="541007918"/>
    <nd ref="541007917"/>
    <nd ref="541007919"/>
    <nd ref="541007920"/>
    <nd ref="541007921"/>
    <nd ref="26086532"/>
    <nd ref="541007922"/>
    <nd ref="541007923"/>
    <nd ref="541007924"/>
    <nd ref="541007925"/>
    <nd ref="541007926"/>
    <nd ref="541007927"/>
    <nd ref="541007929"/>
    <nd ref="541007930"/>
    <tag k="electrified" v="contact_line"/>
    <tag k="frequency" v="16.7"/>
    <tag k="gauge" v="1435"/>
    <tag k="railway" v="rail"/>
    <tag k="voltage" v="15000"/>
  </way>
  <way id="41902911" version="2" timestamp="2009-11-06T19:51:41Z" uid="64756" user="alegria6208" changeset="3051188">
    <nd ref="518671347"/>
    <nd ref="518671348"/>
    <nd ref="518671349"/>
    <nd ref="518671351"/>
    <nd ref="518671352"/>
    <nd ref="518671355"/>
    <nd ref="518671358"/>
    <nd ref="518671347"/>
    <tag k="addr:city" v="Penzberg"/>
    <tag k="addr:country" v="DE"/>
    <tag k="addr:housenumber" v="47"/>
    <tag k="addr:postcode" v="82377"/>
    <tag k="addr:street" v="Bahnhofstraße"/>
    <tag k="building" v="yes"/>
    <tag k="name" v="Stadthotel Berggeist"/>
    <tag k="tourism" v="hotel"/>
  </way>
  <way id="41902911" version="3" timestamp="2009-11-08T03:14:26Z" uid="36809" user="pfoten_weg_!_" changeset="3060646">
    <nd ref="518671347"/>
    <nd ref="518671348"/>
    <nd ref="518671349"/>
    <nd ref="518671351"/>
    <nd ref="518671352"/>
    <nd ref="518671355"/>
    <nd ref="518671358"/>
    <nd ref="518671347"/>
    <tag k="addr:city" v="Penzberg"/>
    <tag k="addr:country" v="DE"/>
    <tag k="addr:housenumber" v="47"/>
    <tag k="addr:postcode" v="82377"/>
    <tag k="addr:street" v="Bahnhofstraße"/>
    <tag k="building" v="yes"/>
    <tag k="name" v="Stadthotel Berggeist"/>
    <tag k="tourism" v="hotel"/>
  </way>
  <way id="41902911" version="4" timestamp="2012-02-08T08:37:48Z" uid="290680" user="wheelmap_visitor" changeset="10621136">
    <nd ref="518671347"/>
    <nd ref="518671348"/>
    <nd ref="518671349"/>
    <nd ref="518671351"/>
    <nd ref="518671352"/>
    <nd ref="518671355"/>
    <nd ref="518671358"/>
    <nd ref="518671347"/>
    <tag k="addr:city" v="Penzberg"/>
    <tag k="addr:country" v="DE"/>
    <tag k="addr:housenumber" v="47"/>
    <tag k="addr:postcode" v="82377"/>
    <tag k="addr:street" v="Bahnhofstraße"/>
    <tag k="building" v="yes"/>
    <tag k="name" v="Stadthotel Berggeist"/>
    <tag k="tourism" v="hotel"/>
    <tag k="wheelchair" v="limited"/>
  </way>
  <way id="41902023" version="3" timestamp="2012-07-19T04:58:47Z" uid="722137" user="OSMF Redaction Account" changeset="12308708">
    <nd ref="512286896"/>
    <nd ref="518639213"/>
    <nd ref="518639187"/>
  </way>
  <way id="41902025" version="4" timestamp="2012-07-19T04:58:39Z" uid="722137" user="OSMF Redaction Account" changeset="12308708">
    <nd ref="518641694"/>
    <nd ref="518641651"/>
    <nd ref="518641626"/>
    <tag k="amenity" v="parking"/>
    <tag k="source" v="nearmap"/>
  </way>
  <way id="41902032" version="5" timestamp="2012-07-19T04:58:45Z" uid="722137" user="OSMF Redaction Account" changeset="12308708">
    <nd ref="510171684"/>
    <nd ref="518638042"/>
    <nd ref="510171674"/>
    <nd ref="510171683"/>
    <tag k="highway" v="residential"/>
    <tag k="name" v="Bristol Road"/>
  </way>
  <way id="41902072" version="2" timestamp="2012-04-08T09:16:20Z" uid="69319" user="Rhubarb" changeset="11222688"/>
  <way id="41902074" version="2" timestamp="2012-04-08T09:16:20Z" uid="69319" user="Rhubarb" changeset="11222688"/>
  <way id="41902817" version="6" timestamp="2012-07-19T06:09:00Z" uid="722137" user="OSMF Redaction Account" changeset="12310017">
    <nd ref="518667777"/>
    <nd ref="1389910437"/>
    <nd ref="26086530"/>
    <nd ref="26086531"/>
    <nd ref="26086532"/>
    <tag k="electrified" v="contact_line"/>
    <tag k="frequency" v="16.7"/>
    <tag k="gauge" v="1435"/>
    <tag k="railway" v="rail"/>
    <tag k="voltage" v="15000"/>
  </way>
  <way id="41902817" version="7" timestamp="2012-07-22T18:54:24Z" uid="48010" user="partim" changeset="12438056">
    <nd ref="518667777"/>
    <nd ref="1389910437"/>
    <nd ref="1834514804"/>
    <nd ref="26086530"/>
    <nd ref="1834514810"/>
    <nd ref="1834514813"/>
    <nd ref="1834514828"/>
    <nd ref="1834514830"/>
    <nd ref="26086531"/>
    <nd ref="1834514833"/>
    <nd ref="1834514835"/>
    <nd ref="1834514838"/>
    <nd ref="26086532"/>
    <nd ref="1834514844"/>
    <nd ref="1834514847"/>
    <nd ref="1834514851"/>
    <nd ref="1834514855"/>
    <nd ref="1834514867"/>
    <nd ref="1834514869"/>
    <nd ref="1834514871"/>
    <nd ref="1834514873"/>
    <nd ref="1834514875"/>
    <nd ref="1834514879"/>
    <tag k="electrified" v="contact_line"/>
    <tag k="frequency" v="16.7"/>
    <tag k="gauge" v="1435"/>
    <tag k="railway" v="rail"/>
    <tag k="voltage" v="15000"/>
  </way>
</osm>
