<?xml version='1.0' encoding='UTF-8'?>
<osm version="0.6" generator="libosmium/2.20.0">
  <way id="41937007" version="1" timestamp="2009-10-04T00:27:26Z" uid="74617" user="JohnSmith" changeset="2730771">
    <nd ref="519545490"/>
    <nd ref="519545491"/>
    <tag k="attribution" v="Based on data from State of Queensland (Department of Environment and Resource Management) 2009"/>
    <tag k="highway" v="residential"/>
    <tag k="source" v="au.qld.dcdb_lite"/>
  </way>
  <way id="41937007" version="2" timestamp="2010-07-07T07:55:02Z" uid="74617" user="JohnSmith" changeset="5156250">
    <nd ref="519545490"/>
    <nd ref="519545491"/>
    <tag k="attribution" v="Based on data from State of Queensland (Department of Environment and Resource Management) 2009"/>
    <tag k="highway" v="residential"/>
    <tag k="maxspeed" v="50"/>
    <tag k="maxspeed:source" v="default residential speed limit in Australia"/>
    <tag k="source" v="au.qld.dcdb_lite"/>
  </way>
  <way id="41937022" version="1" timestamp="2009-10-04T00:34:02Z" uid="74617" user="JohnSmith" changeset="2730792">
    <nd ref="339282356"/>
    <nd ref="339282357"/>
    <tag k="highway" v="residential"/>
    <tag k="source" v="survey"/>
  </way>
  <way id="41937022" version="2" timestamp="2010-07-07T07:55:13Z" uid="74617" user="JohnSmith" changeset="5156250">
    <nd ref="339282356"/>
    <nd ref="339282357"/>
    <tag k="highway" v="residential"/>
    <tag k="maxspeed" v="50"/>
    <tag k="maxspeed:source" v="default residential speed limit in Australia"/>
    <tag k="source" v="survey"/>
  </way>
  <way id="41937022" version="3" timestamp="2011-05-08T11:46:09Z" uid="74617" user="JohnSmith" changeset="8081719">
    <nd ref="339282356"/>
    <nd ref="1276932667"/>
    <nd ref="339282357"/>
    <tag k="highway" v="residential"/>
    <tag k="maxspeed" v="50"/>
    <tag k="maxspeed:source" v="default residential speed limit in Australia"/>
    <tag k="source" v="survey"/>
  </way>
  <way id="41937022" version="4" timestamp="2011-09-18T09:32:34Z" uid="349913" user="Peter W34" changeset="9330638">
    <nd ref="339282356"/>
    <nd ref="1276932667"/>
    <nd ref="339282357"/>
    <tag k="highway" v="residential"/>
    <tag k="maxspeed" v="50"/>
    <tag k="maxspeed:source" v="default residential speed limit in Australia"/>
    <tag k="name" v="Marshall Street"/>
    <tag k="source" v="survey"/>
  </way>
  <way id="41937045" version="1" timestamp="2009-10-04T00:36:43Z" uid="74617" user="JohnSmith" changeset="2730801">
    <nd ref="339282366"/>
    <nd ref="339282367"/>
    <nd ref="426882630"/>
    <nd ref="339282356"/>
    <tag k="highway" v="primary"/>
    <tag k="source" v="survey"/>
  </way>
  <way id="41937045" version="2" timestamp="2010-09-10T05:39:34Z" uid="22094" user="Chadzopkyo" changeset="5738319">
    <nd ref="339282366"/>
    <nd ref="339282367"/>
    <nd ref="426882630"/>
    <nd ref="339282356"/>
    <tag k="highway" v="primary"/>
    <tag k="name" v="Albert Street"/>
    <tag k="source" v="survey"/>
  </way>
  <way id="41937045" version="3" timestamp="2011-05-08T11:46:11Z" uid="74617" user="JohnSmith" changeset="8081719">
    <nd ref="339282366"/>
    <nd ref="339282367"/>
    <nd ref="426882630"/>
    <nd ref="1276932661"/>
    <nd ref="1276932653"/>
    <nd ref="339282356"/>
    <tag k="highway" v="primary"/>
    <tag k="name" v="Albert Street"/>
    <tag k="source" v="survey"/>
  </way>
  <way id="41937045" version="4" timestamp="2011-05-09T11:22:12Z" uid="74617" user="JohnSmith" changeset="8091843"/>
  <way id="41937186" version="1" timestamp="2009-10-04T00:59:51Z" uid="20587" user="balrog-kun" changeset="2730860">
    <nd ref="27166899"/>
    <nd ref="307524488"/>
    <nd ref="27166898"/>
    <tag k="construction" v="primary"/>
    <tag k="highway" v="construction"/>
    <tag k="name" v="Grochowska"/>
    <tag k="old_name" v="Trakt Brzeski;Trakt Moskiewski;Ostenstrasse"/>
    <tag k="oneway" v="yes"/>
    <tag k="ref" v="637"/>
    <tag k="wikipedia" v="pl:Ulica Grochowska w Warszawie"/>
  </way>
  <way id="41937186" version="2" timestamp="2009-11-01T11:49:47Z" uid="20587" user="balrog-kun" changeset="3005429">
    <nd ref="27166899"/>
    <nd ref="307524488"/>
    <nd ref="27166898"/>
    <tag k="construction" v="primary"/>
    <tag k="highway" v="construction"/>
    <tag k="name" v="Grochowska"/>
    <tag k="old_name" v="Trakt Brzeski;Trakt Moskiewski;Ostenstrasse"/>
    <tag k="oneway" v="yes"/>
    <tag k="ref" v="637"/>
    <tag k="wikipedia" v="pl:Ulica Grochowska w Warszawie"/>
  </way>
  <way id="41937186" version="3" timestamp="2010-11-06T20:24:14Z" uid="20587" user="balrog-kun" changeset="6305958">
    <nd ref="27166899"/>
    <nd ref="307524488"/>
    <nd ref="27166898"/>
    <tag k="highway" v="primary"/>
    <tag k="name" v="Grochowska"/>
    <tag k="old_name" v="Trakt Brzeski;Trakt Moskiewski;Ostenstrasse"/>
    <tag k="oneway" v="yes"/>
    <tag k="ref" v="637"/>
    <tag k="wikipedia" v="pl:Ulica Grochowska w Warszawie"/>
  </way>
  <way id="41937186" version="4" timestamp="2010-12-18T00:13:20Z" uid="165509" user="koszatek" changeset="6692159">
    <nd ref="27166899"/>
    <nd ref="307524488"/>
    <nd ref="27166898"/>
    <tag k="highway" v="secondary"/>
    <tag k="name" v="Grochowska"/>
    <tag k="old_name" v="Trakt Brzeski;Trakt Moskiewski;Ostenstrasse"/>
    <tag k="oneway" v="yes"/>
    <tag k="ref" v="637"/>
    <tag k="wikipedia" v="pl:Ulica Grochowska w Warszawie"/>
  </way>
  <way id="41937186" version="5" timestamp="2011-01-05T01:53:22Z" uid="165509" user="koszatek" changeset="6867922">
    <nd ref="27166899"/>
    <nd ref="307524488"/>
    <nd ref="1083015070"/>
    <nd ref="1083015062"/>
    <nd ref="1083015092"/>
    <tag k="highway" v="secondary"/>
    <tag k="name" v="Grochowska"/>
    <tag k="old_name" v="Trakt Brzeski;Trakt Moskiewski;Ostenstrasse"/>
    <tag k="oneway" v="yes"/>
    <tag k="ref" v="637"/>
    <tag k="wikipedia" v="pl:Ulica Grochowska w Warszawie"/>
  </way>
  <way id="41937186" version="6" timestamp="2011-01-11T22:03:55Z" uid="165509" user="koszatek" changeset="6942229">
    <nd ref="27166899"/>
    <nd ref="1098688963"/>
    <nd ref="307524488"/>
    <nd ref="1098689612"/>
    <nd ref="1083015070"/>
    <nd ref="1083015062"/>
    <nd ref="1083015092"/>
    <tag k="highway" v="secondary"/>
    <tag k="name" v="Grochowska"/>
    <tag k="old_name" v="Trakt Brzeski;Trakt Moskiewski;Ostenstrasse"/>
    <tag k="oneway" v="yes"/>
    <tag k="ref" v="637"/>
    <tag k="wikipedia" v="pl:Ulica Grochowska w Warszawie"/>
  </way>
  <way id="41937186" version="7" timestamp="2011-02-07T15:53:58Z" uid="165509" user="koszatek" changeset="7217435">
    <nd ref="27166899"/>
    <nd ref="1098688963"/>
    <nd ref="307524488"/>
    <nd ref="1098689612"/>
    <nd ref="1083015070"/>
    <nd ref="1083015062"/>
    <nd ref="1083015092"/>
    <tag k="highway" v="secondary"/>
    <tag k="name" v="Grochowska"/>
    <tag k="old_name" v="Trakt Brzeski;Trakt Moskiewski;Ostenstrasse"/>
    <tag k="oneway" v="yes"/>
    <tag k="ref" v="631;637"/>
    <tag k="wikipedia" v="pl:Ulica Grochowska w Warszawie"/>
  </way>
  <way id="41937187" version="1" timestamp="2009-10-04T00:59:51Z" uid="20587" user="balrog-kun" changeset="2730860">
    <nd ref="27166899"/>
    <nd ref="254532612"/>
    <tag k="highway" v="service"/>
  </way>
  <way id="41937187" version="2" timestamp="2010-12-18T00:13:51Z" uid="165509" user="koszatek" changeset="6692159"/>
  <way id="41937188" version="1" timestamp="2009-10-04T00:59:51Z" uid="20587" user="balrog-kun" changeset="2730860">
    <nd ref="254532612"/>
    <nd ref="254532618"/>
    <nd ref="59978722"/>
    <nd ref="349303150"/>
    <nd ref="59978721"/>
    <nd ref="59978720"/>
    <nd ref="262889042"/>
    <nd ref="262889041"/>
    <nd ref="310889946"/>
    <nd ref="412906829"/>
    <nd ref="59978719"/>
    <nd ref="59978717"/>
    <nd ref="279237908"/>
    <nd ref="321391630"/>
    <nd ref="211203611"/>
    <nd ref="321391613"/>
    <nd ref="59978707"/>
    <nd ref="286835761"/>
    <nd ref="59978714"/>
    <nd ref="286835758"/>
    <nd ref="255443862"/>
    <nd ref="59978712"/>
    <nd ref="254518018"/>
    <nd ref="301422242"/>
    <nd ref="59978710"/>
    <nd ref="59978708"/>
    <nd ref="301422250"/>
    <nd ref="34465650"/>
    <tag k="highway" v="primary"/>
    <tag k="name" v="Grochowska"/>
    <tag k="old_name" v="Trakt Brzeski;Trakt Moskiewski;Ostenstrasse"/>
    <tag k="oneway" v="yes"/>
    <tag k="ref" v="637"/>
    <tag k="wikipedia" v="pl:Ulica Grochowska w Warszawie"/>
  </way>
  <way id="41937188" version="2" timestamp="2009-11-01T11:49:39Z" uid="20587" user="balrog-kun" changeset="3005429">
    <nd ref="254532612"/>
    <nd ref="254532618"/>
    <nd ref="59978722"/>
    <nd ref="349303150"/>
    <nd ref="59978721"/>
    <nd ref="59978720"/>
    <nd ref="262889042"/>
    <nd ref="262889041"/>
    <nd ref="310889946"/>
    <nd ref="412906829"/>
    <nd ref="59978719"/>
    <nd ref="59978717"/>
    <nd ref="279237908"/>
    <nd ref="321391630"/>
    <nd ref="211203611"/>
    <nd ref="321391613"/>
    <nd ref="59978707"/>
    <nd ref="286835761"/>
    <nd ref="59978714"/>
    <nd ref="286835758"/>
    <nd ref="255443862"/>
    <nd ref="59978712"/>
    <nd ref="254518018"/>
    <nd ref="301422242"/>
    <nd ref="59978710"/>
    <nd ref="59978708"/>
    <nd ref="301422250"/>
    <nd ref="34465650"/>
    <tag k="highway" v="primary"/>
    <tag k="name" v="Grochowska"/>
    <tag k="old_name" v="Trakt Brzeski;Trakt Moskiewski;Ostenstrasse"/>
    <tag k="oneway" v="yes"/>
    <tag k="ref" v="637"/>
    <tag k="wikipedia" v="pl:Ulica Grochowska w Warszawie"/>
  </way>
  <way id="41937188" version="3" timestamp="2009-12-01T23:15:01Z" uid="20587" user="balrog-kun" changeset="3268533">
    <nd ref="254532612"/>
    <nd ref="254532618"/>
    <nd ref="577398385"/>
    <nd ref="577398384"/>
    <nd ref="59978722"/>
    <nd ref="349303150"/>
    <nd ref="59978721"/>
    <nd ref="59978720"/>
    <nd ref="262889042"/>
    <nd ref="262889041"/>
    <nd ref="310889946"/>
    <nd ref="412906829"/>
    <nd ref="59978719"/>
    <nd ref="59978717"/>
    <nd ref="279237908"/>
    <nd ref="321391630"/>
    <nd ref="211203611"/>
    <nd ref="321391613"/>
    <nd ref="59978707"/>
    <nd ref="286835761"/>
    <nd ref="59978714"/>
    <nd ref="286835758"/>
    <nd ref="255443862"/>
    <nd ref="59978712"/>
    <nd ref="254518018"/>
    <nd ref="301422242"/>
    <nd ref="59978710"/>
    <nd ref="59978708"/>
    <nd ref="301422250"/>
    <nd ref="34465650"/>
    <tag k="highway" v="primary"/>
    <tag k="name" v="Grochowska"/>
    <tag k="old_name" v="Trakt Brzeski;Trakt Moskiewski;Ostenstrasse"/>
    <tag k="oneway" v="yes"/>
    <tag k="ref" v="637"/>
    <tag k="wikipedia" v="pl:Ulica Grochowska w Warszawie"/>
  </way>
  <way id="41937188" version="4" timestamp="2010-01-15T23:11:19Z" uid="20587" user="balrog-kun" changeset="3628241">
    <nd ref="254532612"/>
    <nd ref="254532618"/>
    <nd ref="577398385"/>
    <nd ref="577398384"/>
    <nd ref="59978722"/>
    <nd ref="349303150"/>
    <nd ref="59978721"/>
    <nd ref="59978720"/>
    <nd ref="262889042"/>
    <nd ref="262889041"/>
    <nd ref="310889946"/>
    <nd ref="412906829"/>
    <nd ref="59978719"/>
    <nd ref="59978717"/>
    <nd ref="279237908"/>
    <nd ref="321391630"/>
    <nd ref="211203611"/>
    <nd ref="321391613"/>
    <nd ref="59978707"/>
    <nd ref="286835761"/>
    <nd ref="59978714"/>
    <nd ref="286835758"/>
    <nd ref="255443862"/>
    <nd ref="59978712"/>
    <nd ref="614465436"/>
    <nd ref="254518018"/>
    <nd ref="301422242"/>
    <nd ref="59978710"/>
    <nd ref="59978708"/>
    <nd ref="301422250"/>
    <nd ref="34465650"/>
    <tag k="highway" v="primary"/>
    <tag k="name" v="Grochowska"/>
    <tag k="old_name" v="Trakt Brzeski;Trakt Moskiewski;Ostenstrasse"/>
    <tag k="oneway" v="yes"/>
    <tag k="ref" v="637"/>
    <tag k="wikipedia" v="pl:Ulica Grochowska w Warszawie"/>
  </way>
  <way id="41937188" version="5" timestamp="2010-02-26T12:27:38Z" uid="20587" user="balrog-kun" changeset="3979731">
    <nd ref="254532612"/>
    <nd ref="254532618"/>
    <nd ref="577398385"/>
    <nd ref="577398384"/>
    <nd ref="59978722"/>
    <nd ref="349303150"/>
    <nd ref="59978721"/>
    <nd ref="59978720"/>
    <nd ref="262889042"/>
    <nd ref="262889041"/>
    <nd ref="310889946"/>
    <nd ref="412906829"/>
    <nd ref="59978719"/>
    <nd ref="59978717"/>
    <nd ref="279237908"/>
    <nd ref="321391630"/>
    <nd ref="211203611"/>
    <nd ref="321391613"/>
    <nd ref="59978707"/>
    <nd ref="286835761"/>
    <nd ref="59978714"/>
    <nd ref="286835758"/>
    <nd ref="255443862"/>
    <nd ref="59978712"/>
    <nd ref="614465436"/>
    <nd ref="254518018"/>
    <nd ref="301422242"/>
    <nd ref="59978710"/>
    <nd ref="59978708"/>
    <nd ref="301422250"/>
    <nd ref="34465650"/>
    <tag k="highway" v="primary"/>
    <tag k="maxheight" v="3.5"/>
    <tag k="name" v="Grochowska"/>
    <tag k="old_name" v="Trakt Brzeski;Trakt Moskiewski;Ostenstrasse"/>
    <tag k="oneway" v="yes"/>
    <tag k="ref" v="637"/>
    <tag k="wikipedia" v="pl:Ulica Grochowska w Warszawie"/>
  </way>
  <way id="41937188" version="6" timestamp="2010-05-01T17:19:48Z" uid="20587" user="balrog-kun" changeset="4577369">
    <nd ref="254532612"/>
    <nd ref="254532618"/>
    <nd ref="577398385"/>
    <nd ref="577398384"/>
    <nd ref="59978722"/>
    <nd ref="349303150"/>
    <nd ref="59978721"/>
    <nd ref="59978720"/>
    <nd ref="262889042"/>
    <nd ref="262889041"/>
    <nd ref="310889946"/>
    <nd ref="412906829"/>
    <nd ref="59978719"/>
    <nd ref="59978717"/>
    <nd ref="279237908"/>
    <nd ref="321391630"/>
    <nd ref="211203611"/>
    <nd ref="321391613"/>
    <nd ref="59978707"/>
    <nd ref="286835761"/>
    <nd ref="59978714"/>
    <nd ref="286835758"/>
    <nd ref="255443862"/>
    <nd ref="59978712"/>
    <nd ref="614465436"/>
    <nd ref="254518018"/>
    <nd ref="301422242"/>
    <nd ref="59978710"/>
    <nd ref="59978708"/>
    <nd ref="301422250"/>
    <nd ref="34465650"/>
    <tag k="highway" v="primary"/>
    <tag k="lanes" v="3"/>
    <tag k="maxheight" v="3.5"/>
    <tag k="name" v="Grochowska"/>
    <tag k="old_name" v="Trakt Brzeski;Trakt Moskiewski;Ostenstrasse"/>
    <tag k="oneway" v="yes"/>
    <tag k="ref" v="637"/>
    <tag k="wikipedia" v="pl:Ulica Grochowska w Warszawie"/>
  </way>
  <way id="41937188" version="7" timestamp="2010-07-25T17:24:22Z" uid="20587" user="balrog-kun" changeset="5314114">
    <nd ref="254532612"/>
    <nd ref="254532618"/>
    <nd ref="577398385"/>
    <nd ref="577398384"/>
    <nd ref="59978722"/>
    <nd ref="349303150"/>
    <nd ref="59978721"/>
    <nd ref="59978720"/>
    <nd ref="262889042"/>
    <nd ref="262889041"/>
    <nd ref="310889946"/>
    <nd ref="412906829"/>
    <nd ref="59978719"/>
    <nd ref="59978717"/>
    <nd ref="833161392"/>
    <nd ref="279237908"/>
    <nd ref="321391630"/>
    <nd ref="211203611"/>
    <nd ref="321391613"/>
    <nd ref="59978707"/>
    <nd ref="286835761"/>
    <nd ref="59978714"/>
    <nd ref="286835758"/>
    <nd ref="255443862"/>
    <nd ref="59978712"/>
    <nd ref="614465436"/>
    <nd ref="254518018"/>
    <nd ref="301422242"/>
    <nd ref="59978710"/>
    <nd ref="59978708"/>
    <nd ref="301422250"/>
    <nd ref="34465650"/>
    <tag k="highway" v="primary"/>
    <tag k="lanes" v="3"/>
    <tag k="maxheight" v="3.5"/>
    <tag k="name" v="Grochowska"/>
    <tag k="old_name" v="Trakt Brzeski;Trakt Moskiewski;Ostenstrasse"/>
    <tag k="oneway" v="yes"/>
    <tag k="ref" v="637"/>
    <tag k="wikipedia" v="pl:Ulica Grochowska w Warszawie"/>
  </way>
  <way id="41937188" version="8" timestamp="2010-11-19T17:25:27Z" uid="20587" user="balrog-kun" changeset="6408673">
    <nd ref="254532612"/>
    <nd ref="254532618"/>
    <nd ref="577398385"/>
    <nd ref="577398384"/>
    <nd ref="59978722"/>
    <nd ref="349303150"/>
    <nd ref="59978721"/>
    <nd ref="59978720"/>
    <nd ref="262889042"/>
    <nd ref="262889041"/>
    <nd ref="310889946"/>
    <nd ref="412906829"/>
    <nd ref="59978719"/>
    <nd ref="59978717"/>
    <nd ref="833161392"/>
    <nd ref="279237908"/>
    <nd ref="321391630"/>
    <nd ref="211203611"/>
    <nd ref="321391613"/>
    <nd ref="59978707"/>
    <nd ref="286835761"/>
    <nd ref="59978714"/>
    <nd ref="286835758"/>
    <nd ref="255443862"/>
    <nd ref="59978712"/>
    <nd ref="614465436"/>
    <nd ref="254518018"/>
    <nd ref="301422242"/>
    <nd ref="59978710"/>
    <nd ref="59978708"/>
    <nd ref="301422250"/>
    <nd ref="34465650"/>
    <tag k="agricultural" v="no"/>
    <tag k="highway" v="primary"/>
    <tag k="lanes" v="3"/>
    <tag k="maxheight" v="3.5"/>
    <tag k="name" v="Grochowska"/>
    <tag k="old_name" v="Trakt Brzeski;Trakt Moskiewski;Ostenstrasse"/>
    <tag k="oneway" v="yes"/>
    <tag k="ref" v="637"/>
    <tag k="wikipedia" v="pl:Ulica Grochowska w Warszawie"/>
  </way>
  <way id="41937188" version="9" timestamp="2010-12-18T00:13:28Z" uid="165509" user="koszatek" changeset="6692159">
    <nd ref="254532612"/>
    <nd ref="254532618"/>
    <nd ref="577398385"/>
    <nd ref="577398384"/>
    <nd ref="59978722"/>
    <nd ref="349303150"/>
    <nd ref="59978721"/>
    <nd ref="59978720"/>
    <nd ref="262889042"/>
    <nd ref="262889041"/>
    <nd ref="310889946"/>
    <nd ref="412906829"/>
    <nd ref="59978719"/>
    <nd ref="59978717"/>
    <nd ref="833161392"/>
    <nd ref="279237908"/>
    <nd ref="321391630"/>
    <nd ref="211203611"/>
    <nd ref="321391613"/>
    <nd ref="59978707"/>
    <nd ref="286835761"/>
    <nd ref="59978714"/>
    <nd ref="286835758"/>
    <nd ref="255443862"/>
    <nd ref="59978712"/>
    <nd ref="614465436"/>
    <nd ref="254518018"/>
    <nd ref="301422242"/>
    <nd ref="59978710"/>
    <nd ref="59978708"/>
    <nd ref="301422250"/>
    <nd ref="34465650"/>
    <tag k="agricultural" v="no"/>
    <tag k="highway" v="secondary"/>
    <tag k="lanes" v="3"/>
    <tag k="maxheight" v="3.5"/>
    <tag k="name" v="Grochowska"/>
    <tag k="old_name" v="Trakt Brzeski;Trakt Moskiewski;Ostenstrasse"/>
    <tag k="oneway" v="yes"/>
    <tag k="ref" v="637"/>
    <tag k="wikipedia" v="pl:Ulica Grochowska w Warszawie"/>
  </way>
  <way id="41937188" version="10" timestamp="2011-01-05T01:53:06Z" uid="165509" user="koszatek" changeset="6867922">
    <nd ref="254532612"/>
    <nd ref="1083015088"/>
    <nd ref="254532618"/>
    <nd ref="577398385"/>
    <nd ref="577398384"/>
    <nd ref="59978722"/>
    <nd ref="349303150"/>
    <nd ref="59978721"/>
    <nd ref="59978720"/>
    <nd ref="262889042"/>
    <nd ref="262889041"/>
    <nd ref="310889946"/>
    <nd ref="412906829"/>
    <nd ref="59978719"/>
    <nd ref="59978717"/>
    <nd ref="833161392"/>
    <nd ref="279237908"/>
    <nd ref="321391630"/>
    <nd ref="211203611"/>
    <nd ref="321391613"/>
    <nd ref="59978707"/>
    <nd ref="286835761"/>
    <nd ref="59978714"/>
    <nd ref="286835758"/>
    <nd ref="255443862"/>
    <nd ref="59978712"/>
    <nd ref="614465436"/>
    <nd ref="254518018"/>
    <nd ref="301422242"/>
    <nd ref="59978710"/>
    <nd ref="59978708"/>
    <nd ref="301422250"/>
    <nd ref="34465650"/>
    <tag k="agricultural" v="no"/>
    <tag k="highway" v="secondary"/>
    <tag k="lanes" v="3"/>
    <tag k="maxheight" v="3.5"/>
    <tag k="name" v="Grochowska"/>
    <tag k="old_name" v="Trakt Brzeski;Trakt Moskiewski;Ostenstrasse"/>
    <tag k="oneway" v="yes"/>
    <tag k="ref" v="637"/>
    <tag k="wikipedia" v="pl:Ulica Grochowska w Warszawie"/>
  </way>
  <way id="41937188" version="11" timestamp="2011-02-07T15:53:50Z" uid="165509" user="koszatek" changeset="7217435">
    <nd ref="254532612"/>
    <nd ref="1083015088"/>
    <nd ref="254532618"/>
    <nd ref="577398385"/>
    <nd ref="577398384"/>
    <nd ref="59978722"/>
    <nd ref="349303150"/>
    <nd ref="59978721"/>
    <nd ref="59978720"/>
    <nd ref="262889042"/>
    <nd ref="262889041"/>
    <nd ref="310889946"/>
    <nd ref="412906829"/>
    <nd ref="59978719"/>
    <nd ref="59978717"/>
    <nd ref="833161392"/>
    <nd ref="279237908"/>
    <nd ref="321391630"/>
    <nd ref="211203611"/>
    <nd ref="321391613"/>
    <nd ref="59978707"/>
    <nd ref="286835761"/>
    <nd ref="59978714"/>
    <nd ref="286835758"/>
    <nd ref="255443862"/>
    <nd ref="59978712"/>
    <nd ref="614465436"/>
    <nd ref="254518018"/>
    <nd ref="301422242"/>
    <nd ref="59978710"/>
    <nd ref="59978708"/>
    <nd ref="301422250"/>
    <nd ref="34465650"/>
    <tag k="agricultural" v="no"/>
    <tag k="highway" v="secondary"/>
    <tag k="lanes" v="3"/>
    <tag k="maxheight" v="3.5"/>
    <tag k="name" v="Grochowska"/>
    <tag k="old_name" v="Trakt Brzeski;Trakt Moskiewski;Ostenstrasse"/>
    <tag k="oneway" v="yes"/>
    <tag k="ref" v="631;637"/>
    <tag k="wikipedia" v="pl:Ulica Grochowska w Warszawie"/>
  </way>
  <way id="41937188" version="12" timestamp="2011-08-05T14:27:34Z" uid="501496" user="sp5uhe" changeset="8929544">
    <nd ref="254532612"/>
    <nd ref="1083015088"/>
    <nd ref="254532618"/>
    <nd ref="577398385"/>
    <nd ref="577398384"/>
    <nd ref="59978722"/>
    <nd ref="349303150"/>
    <nd ref="59978721"/>
    <nd ref="59978720"/>
    <nd ref="262889042"/>
    <nd ref="262889041"/>
    <nd ref="310889946"/>
    <nd ref="412906829"/>
    <nd ref="59978719"/>
    <nd ref="59978717"/>
    <nd ref="833161392"/>
    <nd ref="279237908"/>
    <nd ref="321391630"/>
    <nd ref="211203611"/>
    <nd ref="321391613"/>
    <nd ref="59978707"/>
    <nd ref="286835761"/>
    <nd ref="59978714"/>
    <nd ref="286835758"/>
    <nd ref="255443862"/>
    <nd ref="59978712"/>
    <nd ref="614465436"/>
    <nd ref="254518018"/>
    <nd ref="301422242"/>
    <nd ref="59978710"/>
    <nd ref="1387541541"/>
    <nd ref="1387541553"/>
    <nd ref="59978708"/>
    <nd ref="301422250"/>
    <nd ref="34465650"/>
    <tag k="agricultural" v="no"/>
    <tag k="highway" v="secondary"/>
    <tag k="lanes" v="3"/>
    <tag k="maxheight" v="3.5"/>
    <tag k="name" v="Grochowska"/>
    <tag k="old_name" v="Trakt Brzeski;Trakt Moskiewski;Ostenstrasse"/>
    <tag k="oneway" v="yes"/>
    <tag k="ref" v="631;637"/>
    <tag k="wikipedia" v="pl:Ulica Grochowska w Warszawie"/>
  </way>
  <way id="41937189" version="1" timestamp="2009-10-04T00:59:52Z" uid="20587" user="balrog-kun" changeset="2730860">
    <nd ref="34461458"/>
    <nd ref="302389499"/>
    <nd ref="34461460"/>
    <nd ref="302389724"/>
    <nd ref="34461468"/>
    <tag k="highway" v="secondary"/>
    <tag k="name" v="Marsa"/>
    <tag k="oneway" v="yes"/>
    <tag k="ref" v="629;637"/>
    <tag k="wikipedia" v="pl:Ulica Marsa w Warszawie"/>
  </way>
  <way id="41937189" version="2" timestamp="2009-11-01T11:49:48Z" uid="20587" user="balrog-kun" changeset="3005429">
    <nd ref="34461458"/>
    <nd ref="302389499"/>
    <nd ref="34461460"/>
    <nd ref="302389724"/>
    <nd ref="34461468"/>
    <tag k="highway" v="secondary"/>
    <tag k="name" v="Marsa"/>
    <tag k="oneway" v="yes"/>
    <tag k="ref" v="629;637"/>
    <tag k="wikipedia" v="pl:Ulica Marsa w Warszawie"/>
  </way>
  <way id="41937189" version="3" timestamp="2011-01-05T01:53:03Z" uid="165509" user="koszatek" changeset="6867922">
    <nd ref="34461458"/>
    <nd ref="302389499"/>
    <nd ref="1083015082"/>
    <nd ref="302389607"/>
    <nd ref="34461460"/>
    <nd ref="302389655"/>
    <nd ref="302389724"/>
    <nd ref="34461468"/>
    <tag k="highway" v="secondary"/>
    <tag k="name" v="Marsa"/>
    <tag k="oneway" v="yes"/>
    <tag k="ref" v="629;637"/>
    <tag k="wikipedia" v="pl:Ulica Marsa w Warszawie"/>
  </way>
  <way id="41937189" version="4" timestamp="2011-02-07T15:53:56Z" uid="165509" user="koszatek" changeset="7217435">
    <nd ref="34461458"/>
    <nd ref="302389499"/>
    <nd ref="1083015082"/>
    <nd ref="302389607"/>
    <nd ref="34461460"/>
    <nd ref="302389655"/>
    <nd ref="302389724"/>
    <nd ref="34461468"/>
    <tag k="highway" v="secondary"/>
    <tag k="name" v="Marsa"/>
    <tag k="oneway" v="yes"/>
    <tag k="ref" v="631;637"/>
    <tag k="wikipedia" v="pl:Ulica Marsa w Warszawie"/>
  </way>
  <way id="41937190" version="1" timestamp="2009-10-04T00:59:52Z" uid="20587" user="balrog-kun" changeset="2730860">
    <nd ref="34461517"/>
    <nd ref="34461458"/>
    <tag k="highway" v="service"/>
  </way>
  <way id="41937190" version="2" timestamp="2010-11-06T20:24:17Z" uid="20587" user="balrog-kun" changeset="6305958"/>
  <way id="41937317" version="2" timestamp="2010-05-16T14:14:18Z" uid="4467" user="Rosscoe" changeset="4717562">
    <nd ref="477128823"/>
    <nd ref="519548510"/>
    <nd ref="477128824"/>
    <tag k="highway" v="secondary"/>
    <tag k="name" v="The Entrance Road"/>
    <tag k="oneway" v="yes"/>
    <tag k="source" v="nearmap"/>
  </way>
  <way id="41937317" version="3" timestamp="2010-10-07T11:32:27Z" uid="79475" user="AlexOnTheBus" changeset="5977328">
    <nd ref="477128823"/>
    <nd ref="519548510"/>
    <nd ref="477128824"/>
    <tag k="highway" v="trunk"/>
    <tag k="name" v="The Entrance Road"/>
    <tag k="oneway" v="yes"/>
    <tag k="source" v="nearmap"/>
  </way>
  <way id="41937318" version="2" timestamp="2010-05-16T14:14:14Z" uid="4467" user="Rosscoe" changeset="4717562">
    <nd ref="477128830"/>
    <nd ref="519548512"/>
    <nd ref="477128823"/>
    <tag k="highway" v="secondary"/>
    <tag k="name" v="The Entrance Road"/>
    <tag k="oneway" v="yes"/>
    <tag k="source" v="nearmap"/>
  </way>
  <way id="41937318" version="3" timestamp="2010-10-07T11:32:36Z" uid="79475" user="AlexOnTheBus" changeset="5977328">
    <nd ref="477128830"/>
    <nd ref="519548512"/>
    <nd ref="477128823"/>
    <tag k="highway" v="trunk"/>
    <tag k="name" v="The Entrance Road"/>
    <tag k="oneway" v="yes"/>
    <tag k="source" v="nearmap"/>
  </way>
  <way id="41937358" version="3" timestamp="2010-05-16T13:54:50Z" uid="4467" user="Rosscoe" changeset="4717339">
    <nd ref="736495100"/>
    <nd ref="519548761"/>
    <nd ref="519548762"/>
    <nd ref="519548763"/>
    <nd ref="571415328"/>
    <nd ref="571415322"/>
    <tag k="highway" v="secondary"/>
    <tag k="name" v="The Entrance Road"/>
    <tag k="oneway" v="yes"/>
  </way>
  <way id="41937358" version="4" timestamp="2010-05-16T14:14:11Z" uid="4467" user="Rosscoe" changeset="4717562">
    <nd ref="736495100"/>
    <nd ref="519548761"/>
    <nd ref="519548762"/>
    <nd ref="736516637"/>
    <nd ref="736516659"/>
    <tag k="highway" v="secondary"/>
    <tag k="name" v="The Entrance Road"/>
    <tag k="oneway" v="yes"/>
  </way>
  <way id="41937358" version="5" timestamp="2010-10-07T11:31:33Z" uid="79475" user="AlexOnTheBus" changeset="5977328">
    <nd ref="736495100"/>
    <nd ref="519548761"/>
    <nd ref="519548762"/>
    <nd ref="736516637"/>
    <nd ref="736516659"/>
    <tag k="highway" v="trunk"/>
    <tag k="name" v="The Entrance Road"/>
    <tag k="oneway" v="yes"/>
  </way>
  <way id="41937359" version="2" timestamp="2010-05-16T14:14:18Z" uid="4467" user="Rosscoe" changeset="4717562">
    <nd ref="241806819"/>
    <nd ref="59733937"/>
    <tag k="highway" v="primary"/>
    <tag k="name" v="The Entrance Road"/>
    <tag k="source" v="nearmap"/>
  </way>
  <way id="41937359" version="3" timestamp="2010-10-07T11:30:12Z" uid="79475" user="AlexOnTheBus" changeset="5977328">
    <nd ref="241806819"/>
    <nd ref="59733937"/>
    <tag k="highway" v="trunk"/>
    <tag k="name" v="The Entrance Road"/>
    <tag k="source" v="nearmap"/>
  </way>
  <way id="41937436" version="1" timestamp="2009-10-04T01:36:15Z" uid="20587" user="balrog-kun" changeset="2730932">
    <nd ref="519549547"/>
    <nd ref="519549541"/>
    <nd ref="519549542"/>
    <nd ref="519549548"/>
    <nd ref="519549547"/>
    <tag k="addr:housenumber" v="1"/>
    <tag k="addr:street" v="Chełmżyńska"/>
    <tag k="amenity" v="public_building"/>
    <tag k="building" v="offices"/>
    <tag k="name" v="Wojskowa Agencja Mieszkaniowa"/>
  </way>
  <way id="41937436" version="2" timestamp="2010-08-07T04:12:05Z" uid="20587" user="balrog-kun" changeset="5421907">
    <nd ref="519549547"/>
    <nd ref="519549541"/>
    <nd ref="519549542"/>
    <nd ref="519549548"/>
    <nd ref="519549547"/>
    <tag k="addr:housenumber" v="1"/>
    <tag k="addr:street" v="Chełmżyńska"/>
    <tag k="amenity" v="public_building"/>
    <tag k="building" v="offices"/>
    <tag k="name" v="Wojskowa Agencja Mieszkaniowa oddział regionalny &quot;Mazowsze&quot;"/>
  </way>
  <way id="41937437" version="1" timestamp="2009-10-04T01:36:15Z" uid="20587" user="balrog-kun" changeset="2730932">
    <nd ref="519549543"/>
    <nd ref="519549545"/>
    <nd ref="519549546"/>
    <nd ref="519549544"/>
    <nd ref="519549543"/>
    <tag k="building" v="yes"/>
  </way>
  <way id="41937437" version="2" timestamp="2010-08-07T04:11:45Z" uid="20587" user="balrog-kun" changeset="5421907">
    <nd ref="519549543"/>
    <nd ref="519549545"/>
    <nd ref="519549546"/>
    <nd ref="519549544"/>
    <nd ref="519549543"/>
    <tag k="addr:housenumber" v="5"/>
    <tag k="building" v="yes"/>
  </way>
  <way id="41937438" version="1" timestamp="2009-10-04T01:36:15Z" uid="20587" user="balrog-kun" changeset="2730932">
    <nd ref="519549535"/>
    <nd ref="519549536"/>
    <nd ref="519549529"/>
    <nd ref="519549530"/>
    <nd ref="519549531"/>
    <tag k="highway" v="track"/>
  </way>
  <way id="41937438" version="2" timestamp="2011-05-26T15:00:21Z" uid="460837" user="sirdemon2" changeset="8254267">
    <nd ref="519549535"/>
    <nd ref="519549536"/>
    <nd ref="519549529"/>
    <nd ref="519549530"/>
    <nd ref="519549531"/>
    <tag k="highway" v="unclassified"/>
  </way>
  <way id="41937438" version="3" timestamp="2011-12-01T10:21:42Z" uid="441027" user="muzzy" changeset="10006719">
    <nd ref="519549535"/>
    <nd ref="519549536"/>
    <nd ref="519549529"/>
    <nd ref="519549530"/>
    <nd ref="519549531"/>
    <tag k="highway" v="unclassified"/>
  </way>
  <way id="41937439" version="1" timestamp="2009-10-04T01:36:15Z" uid="20587" user="balrog-kun" changeset="2730932">
    <nd ref="519549532"/>
    <nd ref="519549538"/>
    <nd ref="519549539"/>
    <nd ref="519549540"/>
    <tag k="highway" v="footway"/>
  </way>
  <way id="41937439" version="2" timestamp="2011-05-26T15:00:21Z" uid="460837" user="sirdemon2" changeset="8254267">
    <nd ref="519549538"/>
    <nd ref="519549539"/>
    <nd ref="519549540"/>
    <tag k="highway" v="residential"/>
    <tag k="name" v="Optyczna"/>
  </way>
  <way id="41937440" version="1" timestamp="2009-10-04T01:36:15Z" uid="20587" user="balrog-kun" changeset="2730932">
    <nd ref="275055494"/>
    <nd ref="519549572"/>
    <tag k="highway" v="track"/>
  </way>
  <way id="41937440" version="2" timestamp="2010-11-27T20:09:42Z" uid="20587" user="balrog-kun" changeset="6472803">
    <nd ref="275055494"/>
    <nd ref="1008702997"/>
    <nd ref="519549572"/>
    <nd ref="1008709560"/>
    <nd ref="1008706546"/>
    <nd ref="1008702331"/>
    <nd ref="1008708969"/>
    <tag k="highway" v="track"/>
  </way>
  <way id="41937441" version="1" timestamp="2009-10-04T01:36:15Z" uid="20587" user="balrog-kun" changeset="2730932">
    <nd ref="519549573"/>
    <nd ref="519549574"/>
    <tag k="highway" v="service"/>
  </way>
  <way id="41937442" version="1" timestamp="2009-10-04T01:36:15Z" uid="20587" user="balrog-kun" changeset="2730932">
    <nd ref="270200454"/>
    <nd ref="519549575"/>
    <nd ref="519549576"/>
    <nd ref="519549577"/>
    <nd ref="519549578"/>
    <tag k="highway" v="service"/>
  </way>
  <way id="41937514" version="1" timestamp="2009-10-04T01:54:40Z" uid="74617" user="JohnSmith" changeset="2730961">
    <nd ref="519549930"/>
    <nd ref="519549931"/>
    <nd ref="519549932"/>
    <nd ref="519549927"/>
    <nd ref="519549928"/>
    <nd ref="519549933"/>
    <nd ref="519549929"/>
    <nd ref="519549923"/>
    <nd ref="519549924"/>
    <nd ref="519549925"/>
    <nd ref="519549926"/>
    <nd ref="519549920"/>
    <nd ref="519549921"/>
    <nd ref="519549922"/>
    <nd ref="519549907"/>
    <nd ref="519549908"/>
    <nd ref="519549913"/>
    <nd ref="519549914"/>
    <nd ref="519549915"/>
    <nd ref="519549916"/>
    <nd ref="519549906"/>
    <nd ref="519549905"/>
    <nd ref="519549904"/>
    <nd ref="519549903"/>
    <nd ref="519549899"/>
    <nd ref="519549900"/>
    <nd ref="519549901"/>
    <nd ref="519549897"/>
    <nd ref="519549898"/>
    <nd ref="519549896"/>
    <nd ref="519549895"/>
    <tag k="attribution" v="Based on data from State of Queensland (Department of Environment and Resource Management) 2009"/>
    <tag k="highway" v="unclassified"/>
    <tag k="source" v="au.qld.dcdb_lite"/>
  </way>
  <way id="41937514" version="2" timestamp="2010-06-22T04:34:50Z" uid="74617" user="JohnSmith" changeset="5047984">
    <nd ref="519549930"/>
    <nd ref="519549931"/>
    <nd ref="519549932"/>
    <nd ref="519549927"/>
    <nd ref="519549928"/>
    <nd ref="519549933"/>
    <nd ref="519549929"/>
    <nd ref="519549923"/>
    <nd ref="519549924"/>
    <nd ref="519549925"/>
    <nd ref="519549926"/>
    <nd ref="519549920"/>
    <nd ref="519549921"/>
    <nd ref="519549922"/>
    <nd ref="519549907"/>
    <nd ref="519549908"/>
    <nd ref="519549913"/>
    <nd ref="519549914"/>
    <nd ref="519549915"/>
    <nd ref="519549916"/>
    <nd ref="519549906"/>
    <nd ref="519549905"/>
    <nd ref="519549904"/>
    <nd ref="519549903"/>
    <nd ref="780943002"/>
    <tag k="attribution" v="Based on data from State of Queensland (Department of Environment and Resource Management) 2009"/>
    <tag k="highway" v="unclassified"/>
    <tag k="source" v="au.qld.dcdb_lite"/>
  </way>
  <way id="41937514" version="3" timestamp="2011-09-19T11:12:34Z" uid="349913" user="Peter W34" changeset="9341543">
    <nd ref="519549930"/>
    <nd ref="519549931"/>
    <nd ref="519549932"/>
    <nd ref="519549927"/>
    <nd ref="519549928"/>
    <nd ref="519549933"/>
    <nd ref="519549929"/>
    <nd ref="519549923"/>
    <nd ref="519549924"/>
    <nd ref="519549925"/>
    <nd ref="519549926"/>
    <nd ref="519549920"/>
    <nd ref="519549921"/>
    <nd ref="519549922"/>
    <nd ref="519549907"/>
    <nd ref="519549908"/>
    <nd ref="519549913"/>
    <nd ref="519549914"/>
    <nd ref="519549915"/>
    <nd ref="519549916"/>
    <nd ref="519549906"/>
    <nd ref="519549905"/>
    <nd ref="519549904"/>
    <nd ref="519549903"/>
    <nd ref="780943002"/>
    <tag k="attribution" v="Based on data from State of Queensland (Department of Environment and Resource Management) 2009"/>
    <tag k="highway" v="unclassified"/>
    <tag k="source" v="au.qld.dcdb_lite"/>
    <tag k="surface" v="unpaved"/>
  </way>
  <way id="41937586" version="2" timestamp="2010-08-08T14:04:31Z" uid="9581" user="Lobelt" changeset="5433446">
    <nd ref="439866830"/>
    <nd ref="439866832"/>
    <nd ref="439866834"/>
    <nd ref="439866836"/>
    <nd ref="439866839"/>
    <nd ref="439866841"/>
    <nd ref="439866843"/>
    <nd ref="439866845"/>
    <tag k="highway" v="primary"/>
    <tag k="ref" v="RN7"/>
  </way>
  <way id="41937586" version="3" timestamp="2010-12-25T15:41:17Z" uid="373221" user="madmen3" changeset="6761686">
    <nd ref="439866830"/>
    <nd ref="439866832"/>
    <nd ref="439866834"/>
    <nd ref="439866836"/>
    <nd ref="439866839"/>
    <nd ref="439866841"/>
    <nd ref="1064217623"/>
    <nd ref="439866843"/>
    <nd ref="439866845"/>
    <tag k="highway" v="primary"/>
    <tag k="ref" v="RN7"/>
  </way>
  <way id="41937591" version="2" timestamp="2010-08-08T14:04:35Z" uid="9581" user="Lobelt" changeset="5433446">
    <nd ref="424044967"/>
    <nd ref="424044970"/>
    <nd ref="424044972"/>
    <nd ref="424044974"/>
    <nd ref="424044977"/>
    <nd ref="424044979"/>
    <nd ref="424044981"/>
    <nd ref="424044984"/>
    <nd ref="424044986"/>
    <nd ref="424044990"/>
    <nd ref="424044992"/>
    <nd ref="424044995"/>
    <tag k="highway" v="trunk"/>
    <tag k="oneway" v="yes"/>
    <tag k="ref" v="RN22"/>
  </way>
  <way id="41937591" version="3" timestamp="2010-12-30T00:21:52Z" uid="56658" user="Sandervalya" changeset="6805009">
    <nd ref="424044967"/>
    <nd ref="424044970"/>
    <nd ref="424044972"/>
    <nd ref="424044974"/>
    <nd ref="424044977"/>
    <nd ref="424044979"/>
    <nd ref="424044981"/>
    <nd ref="424044984"/>
    <nd ref="424044986"/>
    <nd ref="424044990"/>
    <nd ref="424044992"/>
    <nd ref="424044995"/>
    <tag k="highway" v="trunk"/>
    <tag k="oneway" v="yes"/>
    <tag k="ref" v="RN22C"/>
  </way>
  <way id="41937617" version="1" timestamp="2009-10-04T02:10:14Z" uid="20587" user="balrog-kun" changeset="2730981">
    <nd ref="283764263"/>
    <nd ref="283764270"/>
    <nd ref="283764272"/>
    <nd ref="283764276"/>
    <tag k="highway" v="secondary"/>
    <tag k="name" v="Szkolna"/>
    <tag k="ref" v="541"/>
  </way>
  <way id="41937623" version="1" timestamp="2009-10-04T02:12:06Z" uid="74617" user="JohnSmith" changeset="2730982">
    <nd ref="519550693"/>
    <nd ref="519550700"/>
    <nd ref="519550701"/>
    <tag k="attribution" v="Based on data from State of Queensland (Department of Environment and Resource Management) 2009"/>
    <tag k="highway" v="service"/>
    <tag k="source" v="au.qld.dcdb_lite"/>
  </way>
  <way id="41937623" version="2" timestamp="2010-04-26T11:19:38Z" uid="139874" user="Chris Donges" changeset="4530769">
    <nd ref="519550693"/>
    <nd ref="519550700"/>
    <nd ref="519550701"/>
    <tag k="attribution" v="Based on data from State of Queensland (Department of Environment and Resource Management) 2009"/>
    <tag k="highway" v="service"/>
    <tag k="name" v="Queen Lane"/>
    <tag k="source" v="au.qld.dcdb_lite"/>
  </way>
  <way id="41937624" version="1" timestamp="2009-10-04T02:12:06Z" uid="74617" user="JohnSmith" changeset="2730982">
    <nd ref="519550694"/>
    <nd ref="519550702"/>
    <nd ref="519550703"/>
    <tag k="attribution" v="Based on data from State of Queensland (Department of Environment and Resource Management) 2009"/>
    <tag k="highway" v="service"/>
    <tag k="source" v="au.qld.dcdb_lite"/>
  </way>
  <way id="41937624" version="2" timestamp="2010-04-26T11:19:39Z" uid="139874" user="Chris Donges" changeset="4530769">
    <nd ref="519550694"/>
    <nd ref="519550702"/>
    <nd ref="519550703"/>
    <tag k="attribution" v="Based on data from State of Queensland (Department of Environment and Resource Management) 2009"/>
    <tag k="highway" v="service"/>
    <tag k="name" v="Regent Lane"/>
    <tag k="source" v="au.qld.dcdb_lite"/>
  </way>
  <way id="41937625" version="1" timestamp="2009-10-04T02:12:06Z" uid="74617" user="JohnSmith" changeset="2730982">
    <nd ref="519550695"/>
    <nd ref="519550696"/>
    <nd ref="519550697"/>
    <nd ref="519550704"/>
    <nd ref="519550707"/>
    <tag k="attribution" v="Based on data from State of Queensland (Department of Environment and Resource Management) 2009"/>
    <tag k="highway" v="service"/>
    <tag k="source" v="au.qld.dcdb_lite"/>
  </way>
  <way id="41937625" version="2" timestamp="2010-04-26T11:19:39Z" uid="139874" user="Chris Donges" changeset="4530769">
    <nd ref="519550695"/>
    <nd ref="519550696"/>
    <nd ref="519550697"/>
    <nd ref="519550704"/>
    <nd ref="519550707"/>
    <tag k="attribution" v="Based on data from State of Queensland (Department of Environment and Resource Management) 2009"/>
    <tag k="highway" v="service"/>
    <tag k="name" v="Albert Lane"/>
    <tag k="source" v="au.qld.dcdb_lite"/>
  </way>
  <way id="41937626" version="1" timestamp="2009-10-04T02:12:06Z" uid="74617" user="JohnSmith" changeset="2730982">
    <nd ref="519550698"/>
    <nd ref="519550699"/>
    <nd ref="519550705"/>
    <nd ref="519550706"/>
    <nd ref="519550698"/>
    <tag k="amenity" v="school"/>
    <tag k="attribution" v="Based on data from State of Queensland (Department of Environment and Resource Management) 2009"/>
    <tag k="name" v="Ingelwood State School"/>
    <tag k="source" v="au.qld.dcdb_lite"/>
  </way>
  <way id="41937647" version="1" timestamp="2009-10-04T02:21:02Z" uid="74617" user="JohnSmith" changeset="2730996">
    <nd ref="519550792"/>
    <nd ref="519550786"/>
    <tag k="attribution" v="Based on data from State of Queensland (Department of Environment and Resource Management) 2009"/>
    <tag k="highway" v="residential"/>
    <tag k="source" v="au.qld.dcdb_lite"/>
  </way>
  <way id="41937647" version="2" timestamp="2010-07-07T07:05:49Z" uid="74617" user="JohnSmith" changeset="5156250">
    <nd ref="519550792"/>
    <nd ref="519550786"/>
    <tag k="attribution" v="Based on data from State of Queensland (Department of Environment and Resource Management) 2009"/>
    <tag k="highway" v="residential"/>
    <tag k="maxspeed" v="50"/>
    <tag k="maxspeed:source" v="default residential speed limit in Australia"/>
    <tag k="source" v="au.qld.dcdb_lite"/>
  </way>
  <way id="41937648" version="1" timestamp="2009-10-04T02:21:02Z" uid="74617" user="JohnSmith" changeset="2730996">
    <nd ref="519550787"/>
    <nd ref="519550786"/>
    <nd ref="519550788"/>
    <tag k="attribution" v="Based on data from State of Queensland (Department of Environment and Resource Management) 2009"/>
    <tag k="highway" v="residential"/>
    <tag k="source" v="au.qld.dcdb_lite"/>
  </way>
  <way id="41937648" version="2" timestamp="2010-07-07T07:05:55Z" uid="74617" user="JohnSmith" changeset="5156250">
    <nd ref="519550787"/>
    <nd ref="519550786"/>
    <nd ref="519550788"/>
    <tag k="attribution" v="Based on data from State of Queensland (Department of Environment and Resource Management) 2009"/>
    <tag k="highway" v="residential"/>
    <tag k="maxspeed" v="50"/>
    <tag k="maxspeed:source" v="default residential speed limit in Australia"/>
    <tag k="source" v="au.qld.dcdb_lite"/>
  </way>
  <way id="41937771" version="2" timestamp="2010-09-25T10:18:12Z" uid="16922" user="amai" changeset="5869479">
    <nd ref="510100429"/>
    <nd ref="350388465"/>
    <nd ref="925221959"/>
    <nd ref="519551883"/>
    <tag k="highway" v="residential"/>
  </way>
  <way id="41937771" version="3" timestamp="2011-02-21T18:32:46Z" uid="16922" user="amai" changeset="7356605">
    <nd ref="510100429"/>
    <nd ref="1165504288"/>
    <nd ref="1165504261"/>
    <nd ref="350388465"/>
    <nd ref="1165504241"/>
    <nd ref="925221959"/>
    <nd ref="519551883"/>
    <tag k="highway" v="residential"/>
  </way>
  <way id="41937771" version="4" timestamp="2012-03-21T00:13:42Z" uid="61891" user="stephankn" changeset="11047344"/>
  <way id="41937772" version="2" timestamp="2011-02-21T18:32:02Z" uid="16922" user="amai" changeset="7356605">
    <nd ref="510100459"/>
    <nd ref="1165504024"/>
    <nd ref="1165504041"/>
    <nd ref="1165504109"/>
    <nd ref="519551890"/>
    <nd ref="519551886"/>
    <tag k="highway" v="residential"/>
  </way>
  <way id="41937772" version="3" timestamp="2012-03-21T00:13:32Z" uid="61891" user="stephankn" changeset="11047344">
    <nd ref="510100459"/>
    <nd ref="519551890"/>
    <nd ref="519551886"/>
    <tag k="highway" v="residential"/>
  </way>
  <way id="41937772" version="4" timestamp="2012-03-21T01:19:45Z" uid="61891" user="stephankn" changeset="11047603"/>
  <way id="41937773" version="2" timestamp="2011-02-21T18:32:00Z" uid="16922" user="amai" changeset="7356605">
    <nd ref="1165504152"/>
    <nd ref="1165504156"/>
    <nd ref="1165504160"/>
    <nd ref="519551888"/>
    <nd ref="519551891"/>
    <nd ref="519551892"/>
    <nd ref="510100456"/>
    <tag k="highway" v="residential"/>
  </way>
  <way id="41937773" version="3" timestamp="2012-03-21T01:19:45Z" uid="61891" user="stephankn" changeset="11047603"/>
  <way id="41937775" version="1" timestamp="2009-10-04T02:54:29Z" uid="20587" user="balrog-kun" changeset="2731046">
    <nd ref="519551934"/>
    <nd ref="519551935"/>
    <nd ref="519551937"/>
    <nd ref="519551939"/>
    <nd ref="519551940"/>
    <nd ref="519551934"/>
    <tag k="natural" v="scrub"/>
  </way>
  <way id="41937776" version="1" timestamp="2009-10-04T02:54:29Z" uid="20587" user="balrog-kun" changeset="2731046">
    <nd ref="519551937"/>
    <nd ref="519551938"/>
    <nd ref="519551941"/>
    <nd ref="519551939"/>
    <nd ref="519551937"/>
    <tag k="building" v="residential"/>
  </way>
  <way id="41937777" version="1" timestamp="2009-10-04T02:54:29Z" uid="20587" user="balrog-kun" changeset="2731046">
    <nd ref="519551943"/>
    <nd ref="519551928"/>
    <nd ref="519551929"/>
    <nd ref="519551944"/>
    <nd ref="519551943"/>
    <tag k="leisure" v="pitch"/>
    <tag k="sport" v="tennis"/>
  </way>
  <way id="41937778" version="1" timestamp="2009-10-04T02:54:29Z" uid="20587" user="balrog-kun" changeset="2731046">
    <nd ref="519551926"/>
    <nd ref="519551933"/>
    <nd ref="270830362"/>
    <nd ref="256349121"/>
    <nd ref="256349120"/>
    <nd ref="256349119"/>
    <nd ref="519551923"/>
    <nd ref="209167495"/>
    <nd ref="207561660"/>
    <nd ref="519551926"/>
    <tag k="leisure" v="common"/>
  </way>
  <way id="41937794" version="2" timestamp="2011-02-02T22:53:34Z" uid="16922" user="amai" changeset="7169813">
    <nd ref="519554829"/>
    <nd ref="519554831"/>
    <nd ref="519554811"/>
    <nd ref="1133032716"/>
    <nd ref="519554834"/>
    <nd ref="519554810"/>
    <nd ref="519554836"/>
    <nd ref="519554839"/>
    <nd ref="519554829"/>
    <tag k="name" v="Safari World"/>
    <tag k="tourism" v="attraction"/>
  </way>
  <way id="41937865" version="1" timestamp="2009-10-04T03:08:18Z" uid="20587" user="balrog-kun" changeset="2731066">
    <nd ref="519555892"/>
    <nd ref="519555893"/>
    <nd ref="519555894"/>
    <nd ref="519555895"/>
    <nd ref="519555892"/>
    <tag k="landuse" v="railway"/>
  </way>
  <way id="41937866" version="1" timestamp="2009-10-04T03:08:18Z" uid="20587" user="balrog-kun" changeset="2731066">
    <nd ref="33210593"/>
    <nd ref="519555890"/>
    <tag k="highway" v="steps"/>
  </way>
  <way id="41937867" version="1" timestamp="2009-10-04T03:08:18Z" uid="20587" user="balrog-kun" changeset="2731066">
    <nd ref="253044168"/>
    <nd ref="519555863"/>
    <nd ref="519555876"/>
    <nd ref="519555875"/>
    <nd ref="519555879"/>
    <nd ref="519555878"/>
    <nd ref="348958187"/>
    <nd ref="519555865"/>
    <nd ref="519555866"/>
    <nd ref="519555884"/>
    <nd ref="519555885"/>
    <nd ref="348959057"/>
    <nd ref="519555891"/>
    <nd ref="348959080"/>
    <nd ref="519555880"/>
    <nd ref="348959128"/>
    <nd ref="519555857"/>
    <nd ref="253044168"/>
    <tag k="amenity" v="parking"/>
  </way>
  <way id="41937867" version="2" timestamp="2012-02-14T21:56:55Z" uid="489358" user="poktam" changeset="10687769">
    <nd ref="1633250100"/>
    <nd ref="519555863"/>
    <nd ref="519555876"/>
    <nd ref="519555875"/>
    <nd ref="519555879"/>
    <nd ref="519555878"/>
    <nd ref="348958187"/>
    <nd ref="519555865"/>
    <nd ref="519555866"/>
    <nd ref="519555884"/>
    <nd ref="519555885"/>
    <nd ref="348959057"/>
    <nd ref="519555891"/>
    <nd ref="348959080"/>
    <nd ref="519555880"/>
    <nd ref="348959128"/>
    <nd ref="519555857"/>
    <nd ref="1633250100"/>
    <tag k="amenity" v="parking"/>
  </way>
  <way id="41937868" version="1" timestamp="2009-10-04T03:08:18Z" uid="20587" user="balrog-kun" changeset="2731066">
    <nd ref="519555859"/>
    <nd ref="519555860"/>
    <nd ref="519555862"/>
    <nd ref="519555861"/>
    <nd ref="519555859"/>
    <tag k="amenity" v="parking"/>
  </way>
  <way id="41937869" version="1" timestamp="2009-10-04T03:08:18Z" uid="20587" user="balrog-kun" changeset="2731066">
    <nd ref="519555880"/>
    <nd ref="519555881"/>
    <nd ref="519555863"/>
    <nd ref="519555864"/>
    <nd ref="519555849"/>
    <nd ref="519555850"/>
    <tag k="highway" v="service"/>
    <tag k="oneway" v="yes"/>
  </way>
  <way id="41937870" version="1" timestamp="2009-10-04T03:08:18Z" uid="20587" user="balrog-kun" changeset="2731066">
    <nd ref="519555851"/>
    <nd ref="519555852"/>
    <nd ref="519555850"/>
    <nd ref="519555853"/>
    <nd ref="519555854"/>
    <nd ref="519555867"/>
    <nd ref="519555865"/>
    <nd ref="519555866"/>
    <nd ref="519555884"/>
    <nd ref="519555886"/>
    <nd ref="519555887"/>
    <tag k="highway" v="service"/>
    <tag k="oneway" v="yes"/>
  </way>
  <way id="41937870" version="2" timestamp="2010-08-07T04:11:52Z" uid="20587" user="balrog-kun" changeset="5421907">
    <nd ref="519555851"/>
    <nd ref="519555852"/>
    <nd ref="519555850"/>
    <nd ref="519555853"/>
    <nd ref="519555854"/>
    <nd ref="519555867"/>
    <nd ref="519555865"/>
    <nd ref="519555866"/>
    <nd ref="519555884"/>
    <nd ref="519555886"/>
    <nd ref="519555887"/>
    <tag k="highway" v="service"/>
    <tag k="maxweight" v="3.5"/>
    <tag k="oneway" v="yes"/>
  </way>
  <way id="41937870" version="3" timestamp="2011-08-11T13:33:02Z" uid="373244" user="Tomaszg" changeset="8985621">
    <nd ref="519555851"/>
    <nd ref="519555852"/>
    <nd ref="519555850"/>
    <nd ref="519555853"/>
    <nd ref="519555854"/>
    <nd ref="519555867"/>
    <nd ref="519555865"/>
    <nd ref="519555866"/>
    <nd ref="519555884"/>
    <nd ref="519555886"/>
    <nd ref="1394904893"/>
    <nd ref="519555887"/>
    <tag k="highway" v="service"/>
    <tag k="maxweight" v="3.5"/>
    <tag k="oneway" v="yes"/>
  </way>
  <way id="41937871" version="1" timestamp="2009-10-04T03:08:18Z" uid="20587" user="balrog-kun" changeset="2731066">
    <nd ref="519555855"/>
    <nd ref="519555848"/>
    <nd ref="519555841"/>
    <nd ref="519555842"/>
    <nd ref="519555843"/>
    <nd ref="519555844"/>
    <nd ref="519555847"/>
    <nd ref="519555869"/>
    <nd ref="519555888"/>
    <nd ref="519555870"/>
    <nd ref="519555871"/>
    <nd ref="519555872"/>
    <nd ref="519555873"/>
    <nd ref="519555874"/>
    <nd ref="519555856"/>
    <nd ref="519555855"/>
    <tag k="landuse" v="industrial"/>
  </way>
  <way id="41937871" version="2" timestamp="2009-10-04T03:36:45Z" uid="20587" user="balrog-kun" changeset="2731112">
    <nd ref="519555855"/>
    <nd ref="519555848"/>
    <nd ref="519555841"/>
    <nd ref="519555842"/>
    <nd ref="519557335"/>
    <nd ref="519555843"/>
    <nd ref="519555844"/>
    <nd ref="519555847"/>
    <nd ref="519555869"/>
    <nd ref="519555888"/>
    <nd ref="519555870"/>
    <nd ref="519555871"/>
    <nd ref="519555872"/>
    <nd ref="519555873"/>
    <nd ref="519555874"/>
    <nd ref="519555856"/>
    <nd ref="519555855"/>
    <tag k="landuse" v="industrial"/>
  </way>
  <way id="41937931" version="2" timestamp="2010-07-25T22:51:55Z" uid="4467" user="Rosscoe" changeset="5317371">
    <nd ref="519556110"/>
    <nd ref="519556111"/>
    <tag k="bridge" v="yes"/>
    <tag k="highway" v="footway"/>
    <tag k="layer" v="1"/>
  </way>
  <way id="41937934" version="2" timestamp="2010-07-25T22:51:57Z" uid="4467" user="Rosscoe" changeset="5317371">
    <nd ref="519556119"/>
    <nd ref="519556120"/>
    <tag k="bridge" v="yes"/>
    <tag k="highway" v="footway"/>
    <tag k="layer" v="1"/>
  </way>
  <way id="41937007" version="3" timestamp="2012-05-23T05:36:22Z" uid="349913" user="Peter W34" changeset="11677741"/>
  <way id="41937022" version="5" timestamp="2012-05-23T05:36:22Z" uid="349913" user="Peter W34" changeset="11677741"/>
  <way id="41937317" version="4" timestamp="2012-07-19T13:40:49Z" uid="722137" user="OSMF Redaction Account" changeset="12329853">
    <nd ref="477128823"/>
    <nd ref="519548510"/>
    <nd ref="477128824"/>
    <tag k="highway" v="trunk"/>
    <tag k="name" v="The Entrance Road"/>
    <tag k="oneway" v="yes"/>
  </way>
  <way id="41937318" version="4" timestamp="2012-07-19T13:40:48Z" uid="722137" user="OSMF Redaction Account" changeset="12329853">
    <nd ref="477128830"/>
    <nd ref="519548512"/>
    <nd ref="477128823"/>
    <tag k="highway" v="trunk"/>
    <tag k="name" v="The Entrance Road"/>
    <tag k="oneway" v="yes"/>
  </way>
  <way id="41937358" version="6" timestamp="2012-07-19T13:40:23Z" uid="722137" user="OSMF Redaction Account" changeset="12329853">
    <nd ref="519548761"/>
    <nd ref="519548762"/>
    <tag k="highway" v="trunk"/>
    <tag k="name" v="The Entrance Road"/>
    <tag k="oneway" v="yes"/>
  </way>
  <way id="41937358" version="7" timestamp="2012-07-23T11:47:42Z" uid="57884" user="EdLoach" changeset="12449185">
    <nd ref="519548761"/>
    <nd ref="519548762"/>
    <nd ref="1835256429"/>
    <nd ref="1835256410"/>
    <nd ref="1835247484"/>
    <tag k="highway" v="trunk"/>
    <tag k="name" v="The Entrance Road"/>
    <tag k="oneway" v="yes"/>
  </way>
  <way id="41937359" version="4" timestamp="2012-07-19T13:10:16Z" uid="722137" user="OSMF Redaction Account" changeset="12328189">
    <nd ref="241806819"/>
    <nd ref="59733937"/>
    <tag k="highway" v="trunk"/>
    <tag k="name" v="The Entrance Road"/>
  </way>
  <way id="41937359" version="5" timestamp="2012-07-23T11:35:29Z" uid="57884" user="EdLoach" changeset="12448997">
    <nd ref="638910841"/>
    <nd ref="357862797"/>
    <nd ref="519548768"/>
    <nd ref="241806819"/>
    <nd ref="59733937"/>
    <tag k="highway" v="trunk"/>
    <tag k="name" v="The Entrance Road"/>
  </way>
  <way id="41937514" version="4" timestamp="2012-05-22T05:31:15Z" uid="349913" user="Peter W34" changeset="11668228">
    <nd ref="519549930"/>
    <nd ref="519549931"/>
    <nd ref="519549932"/>
    <nd ref="519549927"/>
    <nd ref="519549928"/>
    <nd ref="1761867831"/>
    <nd ref="519549933"/>
    <nd ref="519549929"/>
    <nd ref="519549923"/>
    <nd ref="519549924"/>
    <nd ref="519549925"/>
    <nd ref="519549926"/>
    <nd ref="519549920"/>
    <nd ref="519549921"/>
    <nd ref="519549922"/>
    <nd ref="519549907"/>
    <nd ref="519549908"/>
    <nd ref="519549913"/>
    <nd ref="519549914"/>
    <nd ref="519549915"/>
    <nd ref="519549916"/>
    <nd ref="519549906"/>
    <nd ref="519549905"/>
    <nd ref="519549904"/>
    <nd ref="519549903"/>
    <nd ref="780943002"/>
    <tag k="attribution" v="Based on data from State of Queensland (Department of Environment and Resource Management) 2009"/>
    <tag k="highway" v="unclassified"/>
    <tag k="source" v="au.qld.dcdb_lite"/>
    <tag k="surface" v="unpaved"/>
  </way>
  <way id="41937514" version="5" timestamp="2012-07-19T13:38:05Z" uid="722137" user="OSMF Redaction Account" changeset="12329721"/>
  <way id="41937586" version="4" timestamp="2012-07-17T23:45:20Z" uid="56658" user="Sandervalya" changeset="12273612">
    <nd ref="439866830"/>
    <nd ref="439866832"/>
    <nd ref="439866834"/>
    <nd ref="439866836"/>
    <nd ref="439866839"/>
    <nd ref="1829263410"/>
    <nd ref="1064217623"/>
    <nd ref="1829263548"/>
    <nd ref="1829263214"/>
    <nd ref="1829263070"/>
    <nd ref="1829263602"/>
    <nd ref="1829263267"/>
    <nd ref="1829263154"/>
    <nd ref="1829263484"/>
    <nd ref="1829263220"/>
    <nd ref="1829263376"/>
    <nd ref="1829263638"/>
    <nd ref="1829263625"/>
    <nd ref="1829263044"/>
    <nd ref="1829263038"/>
    <nd ref="1829263265"/>
    <nd ref="1829263018"/>
    <nd ref="1829263559"/>
    <nd ref="1829263645"/>
    <nd ref="1829263537"/>
    <nd ref="1829262990"/>
    <nd ref="1829263027"/>
    <nd ref="1829263005"/>
    <nd ref="1829263504"/>
    <nd ref="1829263711"/>
    <nd ref="439866903"/>
    <nd ref="439866905"/>
    <nd ref="439866906"/>
    <nd ref="1829263455"/>
    <nd ref="1829263337"/>
    <nd ref="1829263138"/>
    <nd ref="1829263442"/>
    <nd ref="1829263446"/>
    <nd ref="439866921"/>
    <nd ref="1829263331"/>
    <nd ref="1829263592"/>
    <nd ref="1829263377"/>
    <nd ref="1829263369"/>
    <nd ref="1829263039"/>
    <nd ref="1829263444"/>
    <nd ref="1829262840"/>
    <nd ref="1829262870"/>
    <nd ref="439866943"/>
    <nd ref="1829263125"/>
    <nd ref="1829263129"/>
    <nd ref="1829263382"/>
    <nd ref="1829263417"/>
    <nd ref="439866957"/>
    <nd ref="1829263416"/>
    <nd ref="1829263208"/>
    <nd ref="1829263064"/>
    <nd ref="1829263606"/>
    <nd ref="1829263343"/>
    <nd ref="1829262835"/>
    <nd ref="1829263611"/>
    <nd ref="1829263217"/>
    <nd ref="1829263380"/>
    <nd ref="1829263390"/>
    <nd ref="1829262837"/>
    <nd ref="1829263693"/>
    <nd ref="1829262928"/>
    <nd ref="1829262913"/>
    <nd ref="1829263020"/>
    <nd ref="1829263191"/>
    <nd ref="1829263302"/>
    <nd ref="1829263282"/>
    <nd ref="1829263000"/>
    <nd ref="1829262994"/>
    <nd ref="1829262991"/>
    <nd ref="1829263523"/>
    <nd ref="1829263142"/>
    <nd ref="1829263429"/>
    <nd ref="1829262973"/>
    <nd ref="1829263325"/>
    <nd ref="1829263543"/>
    <nd ref="1829263326"/>
    <nd ref="1829262910"/>
    <nd ref="1829262926"/>
    <nd ref="1829263124"/>
    <nd ref="1829263700"/>
    <nd ref="1829263114"/>
    <nd ref="1829263712"/>
    <nd ref="1829263053"/>
    <nd ref="1829263461"/>
    <nd ref="1829263459"/>
    <nd ref="1829263059"/>
    <nd ref="1829263423"/>
    <nd ref="1829263384"/>
    <nd ref="1829263186"/>
    <nd ref="1829263157"/>
    <nd ref="1829263363"/>
    <nd ref="1829263425"/>
    <nd ref="1829263176"/>
    <nd ref="1829262890"/>
    <nd ref="1829262919"/>
    <nd ref="1829262916"/>
    <nd ref="1829263023"/>
    <nd ref="1829263245"/>
    <nd ref="1829263515"/>
    <nd ref="1829263668"/>
    <nd ref="1829263173"/>
    <nd ref="1829263368"/>
    <nd ref="1829263323"/>
    <nd ref="1829263373"/>
    <nd ref="1829263134"/>
    <nd ref="1829263190"/>
    <nd ref="1829263254"/>
    <nd ref="1829263636"/>
    <nd ref="1829263575"/>
    <nd ref="1829263285"/>
    <nd ref="1829263283"/>
    <nd ref="1829263427"/>
    <nd ref="1829263263"/>
    <nd ref="1829263426"/>
    <nd ref="1829263624"/>
    <nd ref="1829263035"/>
    <nd ref="1829262858"/>
    <nd ref="1829262859"/>
    <nd ref="1829262847"/>
    <nd ref="1829263110"/>
    <nd ref="1829263677"/>
    <nd ref="1829263280"/>
    <nd ref="1829262945"/>
    <nd ref="1829263395"/>
    <nd ref="1829263251"/>
    <nd ref="1829262869"/>
    <nd ref="1829262918"/>
    <nd ref="1829263389"/>
    <nd ref="1829263270"/>
    <nd ref="1829263685"/>
    <nd ref="1829263139"/>
    <nd ref="1829263197"/>
    <nd ref="1829263133"/>
    <nd ref="439867193"/>
    <nd ref="1829263508"/>
    <tag k="highway" v="primary"/>
    <tag k="ref" v="RN7"/>
  </way>
  <way id="41937623" version="3" timestamp="2012-07-19T13:25:20Z" uid="722137" user="OSMF Redaction Account" changeset="12329072"/>
  <way id="41937624" version="3" timestamp="2012-07-19T13:25:21Z" uid="722137" user="OSMF Redaction Account" changeset="12329072"/>
  <way id="41937625" version="3" timestamp="2012-07-19T13:25:21Z" uid="722137" user="OSMF Redaction Account" changeset="12329072"/>
  <way id="41937626" version="2" timestamp="2012-07-19T13:25:21Z" uid="722137" user="OSMF Redaction Account" changeset="12329072"/>
  <way id="41937647" version="3" timestamp="2012-07-19T13:25:20Z" uid="722137" user="OSMF Redaction Account" changeset="12329072"/>
  <way id="41937648" version="3" timestamp="2012-07-19T13:25:20Z" uid="722137" user="OSMF Redaction Account" changeset="12329072"/>
  <way id="41937794" version="3" timestamp="2012-04-22T06:54:37Z" uid="61891" user="stephankn" changeset="11380518">
    <nd ref="519554829"/>
    <nd ref="519554831"/>
    <nd ref="519554811"/>
    <nd ref="519554834"/>
    <nd ref="519554810"/>
    <nd ref="519554836"/>
    <nd ref="519554839"/>
    <nd ref="519554829"/>
    <tag k="name" v="Safari World"/>
    <tag k="tourism" v="attraction"/>
  </way>
  <way id="41937931" version="3" timestamp="2012-07-19T08:37:37Z" uid="722137" user="OSMF Redaction Account" changeset="12314176">
    <nd ref="519556110"/>
    <nd ref="519556111"/>
    <tag k="bridge" v="yes"/>
    <tag k="highway" v="footway"/>
  </way>
  <way id="41937934" version="3" timestamp="2012-07-19T08:37:33Z" uid="722137" user="OSMF Redaction Account" changeset="12314176">
    <nd ref="519556119"/>
    <nd ref="519556120"/>
    <tag k="bridge" v="yes"/>
    <tag k="highway" v="footway"/>
  </way>
</osm>
