<?xml version='1.0' encoding='UTF-8'?>
<osm version="0.6" generator="libosmium/2.20.0">
  <way id="41960120" version="4" timestamp="2009-12-03T20:29:46Z" uid="23543" user="jkjk" changeset="3283809">
    <nd ref="519958357"/>
    <nd ref="519960407"/>
    <tag k="highway" v="residential"/>
    <tag k="name" v="Husovo náměstí"/>
  </way>
  <way id="41960120" version="5" timestamp="2009-12-03T20:37:06Z" uid="23543" user="jkjk" changeset="3283809">
    <nd ref="519958357"/>
    <nd ref="519960407"/>
    <tag k="highway" v="residential"/>
    <tag k="name" v="Husovo náměstí"/>
  </way>
  <way id="41960120" version="6" timestamp="2011-05-16T01:45:19Z" uid="366674" user="Ashdo" changeset="8158446">
    <nd ref="344272472"/>
    <nd ref="344272445"/>
    <nd ref="478223600"/>
    <nd ref="519973018"/>
    <nd ref="519958357"/>
    <nd ref="519960407"/>
    <nd ref="519960420"/>
    <nd ref="519960437"/>
    <nd ref="519960453"/>
    <nd ref="519960376"/>
    <tag k="highway" v="residential"/>
    <tag k="kct_red" v="major"/>
    <tag k="name" v="Husovo náměstí"/>
    <tag k="oneway" v="yes"/>
    <tag k="source" v="cuzk:km;uhul:ortofoto"/>
  </way>
  <way id="41960120" version="7" timestamp="2011-05-16T02:53:50Z" uid="366674" user="Ashdo" changeset="8158604">
    <nd ref="344272472"/>
    <nd ref="344272445"/>
    <nd ref="478223600"/>
    <nd ref="519973018"/>
    <tag k="highway" v="residential"/>
    <tag k="kct_red" v="major"/>
    <tag k="name" v="Husovo náměstí"/>
    <tag k="oneway" v="yes"/>
    <tag k="source" v="cuzk:km;uhul:ortofoto"/>
  </way>
  <way id="41960120" version="8" timestamp="2011-05-16T02:54:27Z" uid="366674" user="Ashdo" changeset="8158604">
    <nd ref="344272472"/>
    <nd ref="344272445"/>
    <nd ref="478223600"/>
    <nd ref="519973018"/>
    <tag k="highway" v="residential"/>
    <tag k="kct_red" v="major"/>
    <tag k="oneway" v="yes"/>
    <tag k="source" v="cuzk:km;uhul:ortofoto"/>
  </way>
  <way id="41960285" version="3" timestamp="2009-12-03T20:29:45Z" uid="23543" user="jkjk" changeset="3283809">
    <nd ref="519960407"/>
    <nd ref="519964927"/>
    <nd ref="519965937"/>
    <nd ref="519964946"/>
    <nd ref="519965004"/>
    <nd ref="344272481"/>
    <tag k="highway" v="residential"/>
    <tag k="name" v="Seydlovo náměstí"/>
  </way>
  <way id="41960285" version="4" timestamp="2009-12-03T20:37:04Z" uid="23543" user="jkjk" changeset="3283809">
    <nd ref="519960407"/>
    <nd ref="519964927"/>
    <nd ref="519965937"/>
    <nd ref="519964946"/>
    <nd ref="519965004"/>
    <nd ref="344272481"/>
    <tag k="highway" v="residential"/>
    <tag k="name" v="Seydlovo náměstí"/>
  </way>
  <way id="41960285" version="5" timestamp="2010-10-31T02:57:26Z" uid="3516" user="BiIbo" changeset="6234733">
    <nd ref="519960407"/>
    <nd ref="519964927"/>
    <nd ref="971447351"/>
    <nd ref="519965937"/>
    <nd ref="519964946"/>
    <nd ref="519965004"/>
    <nd ref="344272481"/>
    <tag k="highway" v="residential"/>
    <tag k="name" v="Seydlovo náměstí"/>
  </way>
  <way id="41960285" version="6" timestamp="2011-11-07T11:50:42Z" uid="190711" user="Zulu" changeset="9763947">
    <nd ref="519960407"/>
    <nd ref="519964927"/>
    <nd ref="519964946"/>
    <tag k="highway" v="residential"/>
    <tag k="name" v="Seydlovo náměstí"/>
  </way>
  <way id="41960419" version="4" timestamp="2010-07-09T07:26:24Z" uid="74617" user="JohnSmith" changeset="5171412">
    <nd ref="518833504"/>
    <nd ref="337820004"/>
    <nd ref="337816505"/>
    <tag k="highway" v="residential"/>
    <tag k="maxspeed" v="50"/>
    <tag k="maxspeed:source" v="default residential speed limit in Australia"/>
    <tag k="name" v="Buchanan Road"/>
  </way>
  <way id="41960419" version="5" timestamp="2012-01-19T05:28:46Z" uid="147510" user="woodpeck_fixbot" changeset="10433866">
    <nd ref="518833504"/>
    <nd ref="337820004"/>
    <nd ref="337816505"/>
    <tag k="highway" v="residential"/>
    <tag k="name" v="Buchanan Road"/>
  </way>
  <way id="41960431" version="2" timestamp="2009-12-03T20:29:44Z" uid="23543" user="jkjk" changeset="3283809">
    <nd ref="519964927"/>
    <nd ref="519967196"/>
    <nd ref="519967212"/>
    <nd ref="519967228"/>
    <nd ref="519965004"/>
    <tag k="highway" v="residential"/>
    <tag k="name" v="Seydlovo náměstí"/>
  </way>
  <way id="41960431" version="3" timestamp="2009-12-03T20:37:03Z" uid="23543" user="jkjk" changeset="3283809">
    <nd ref="519964927"/>
    <nd ref="519967196"/>
    <nd ref="519967212"/>
    <nd ref="519967228"/>
    <nd ref="519965004"/>
    <tag k="highway" v="residential"/>
    <tag k="name" v="Seydlovo náměstí"/>
  </way>
  <way id="41960431" version="4" timestamp="2010-10-31T02:57:27Z" uid="3516" user="BiIbo" changeset="6234733">
    <nd ref="519964927"/>
    <nd ref="971447345"/>
    <nd ref="519967196"/>
    <nd ref="519967212"/>
    <nd ref="519967228"/>
    <nd ref="519965004"/>
    <tag k="highway" v="residential"/>
    <tag k="name" v="Seydlovo náměstí"/>
  </way>
  <way id="41960431" version="5" timestamp="2011-11-07T11:50:42Z" uid="190711" user="Zulu" changeset="9763947">
    <nd ref="519965004"/>
    <nd ref="519967228"/>
    <tag k="highway" v="residential"/>
    <tag k="name" v="Seydlovo náměstí"/>
  </way>
  <way id="41960484" version="2" timestamp="2009-12-03T20:29:45Z" uid="23543" user="jkjk" changeset="3283809">
    <nd ref="344272480"/>
    <nd ref="519967228"/>
    <tag k="highway" v="residential"/>
    <tag k="name" v="Seydlovo náměstí"/>
  </way>
  <way id="41960484" version="3" timestamp="2009-12-03T20:37:04Z" uid="23543" user="jkjk" changeset="3283809">
    <nd ref="344272480"/>
    <nd ref="519967228"/>
    <tag k="highway" v="residential"/>
    <tag k="name" v="Seydlovo náměstí"/>
  </way>
  <way id="41960498" version="3" timestamp="2009-10-11T06:09:43Z" uid="74617" user="JohnSmith" changeset="2810283">
    <nd ref="528563455"/>
    <nd ref="528563456"/>
    <nd ref="519968695"/>
    <nd ref="519968739"/>
    <tag k="highway" v="residential"/>
    <tag k="name" v="Day Street"/>
    <tag k="source" v="survey"/>
  </way>
  <way id="41960498" version="4" timestamp="2009-10-17T02:53:01Z" uid="62457" user="cybercrypt" changeset="2870176">
    <nd ref="528563455"/>
    <nd ref="528563456"/>
    <nd ref="519968695"/>
    <tag k="highway" v="residential"/>
    <tag k="name" v="Day Street"/>
    <tag k="source" v="survey"/>
  </way>
  <way id="41960498" version="5" timestamp="2009-10-17T02:53:39Z" uid="62457" user="cybercrypt" changeset="2870176">
    <nd ref="528563455"/>
    <nd ref="528563456"/>
    <nd ref="519968695"/>
    <tag k="highway" v="service"/>
    <tag k="source" v="survey"/>
  </way>
  <way id="41960498" version="6" timestamp="2009-10-17T02:53:59Z" uid="62457" user="cybercrypt" changeset="2870176">
    <nd ref="528563455"/>
    <nd ref="528563456"/>
    <nd ref="519968695"/>
    <tag k="highway" v="path"/>
  </way>
  <way id="41960611" version="3" timestamp="2010-03-28T10:57:57Z" uid="20587" user="balrog-kun" changeset="4254597">
    <nd ref="519970615"/>
    <nd ref="519970618"/>
    <tag k="bridge" v="yes"/>
    <tag k="highway" v="motorway"/>
    <tag k="layer" v="1"/>
    <tag k="name" v="Ontario Freeway"/>
    <tag k="oneway" v="yes"/>
    <tag k="ref" v="I 15"/>
    <tag k="tiger:cfcc" v="A15"/>
    <tag k="tiger:county" v="Riverside, CA"/>
    <tag k="tiger:name_base" v="I-15"/>
    <tag k="tiger:name_base_1" v="Ontario"/>
    <tag k="tiger:name_type_1" v="Fwy"/>
    <tag k="tiger:separated" v="yes"/>
    <tag k="tiger:source" v="tiger_import_dch_v0.6_20070809"/>
    <tag k="tiger:tlid" v="194799265:194799268:194799271:194799274:194799277:194799279:195085483:194799283:195085486:194816914:194800930:194800931:194800936:194816929:194800798:194800799:194816931:194814028:194800849:194800850:195085428:194800836:194800837:194732361:194732364:19473"/>
  </way>
  <way id="41960611" version="4" timestamp="2011-07-31T15:22:54Z" uid="207745" user="NE2" changeset="8881942">
    <nd ref="519970615"/>
    <nd ref="519970618"/>
    <tag k="bridge" v="yes"/>
    <tag k="highway" v="motorway"/>
    <tag k="lanes" v="3"/>
    <tag k="layer" v="1"/>
    <tag k="name" v="Ontario Freeway"/>
    <tag k="oneway" v="yes"/>
    <tag k="ref" v="I 15"/>
    <tag k="tiger:cfcc" v="A15"/>
    <tag k="tiger:county" v="Riverside, CA"/>
    <tag k="tiger:name_base" v="I-15"/>
    <tag k="tiger:name_base_1" v="Ontario"/>
    <tag k="tiger:name_type_1" v="Fwy"/>
    <tag k="tiger:separated" v="yes"/>
    <tag k="tiger:source" v="tiger_import_dch_v0.6_20070809"/>
    <tag k="tiger:tlid" v="194799265:194799268:194799271:194799274:194799277:194799279:195085483:194799283:195085486:194816914:194800930:194800931:194800936:194816929:194800798:194800799:194816931:194814028:194800849:194800850:195085428:194800836:194800837:194732361:194732364:19473"/>
  </way>
  <way id="41960611" version="5" timestamp="2011-11-25T14:45:47Z" uid="207745" user="NE2" changeset="9943893">
    <nd ref="519970615"/>
    <nd ref="519970618"/>
    <tag k="bridge" v="yes"/>
    <tag k="hgv" v="designated"/>
    <tag k="highway" v="motorway"/>
    <tag k="lanes" v="3"/>
    <tag k="layer" v="1"/>
    <tag k="name" v="Ontario Freeway"/>
    <tag k="oneway" v="yes"/>
    <tag k="ref" v="I 15"/>
    <tag k="tiger:cfcc" v="A15"/>
    <tag k="tiger:county" v="Riverside, CA"/>
    <tag k="tiger:name_base" v="I-15"/>
    <tag k="tiger:name_base_1" v="Ontario"/>
    <tag k="tiger:name_type_1" v="Fwy"/>
    <tag k="tiger:separated" v="yes"/>
    <tag k="tiger:source" v="tiger_import_dch_v0.6_20070809"/>
    <tag k="tiger:tlid" v="194799265:194799268:194799271:194799274:194799277:194799279:195085483:194799283:195085486:194816914:194800930:194800931:194800936:194816929:194800798:194800799:194816931:194814028:194800849:194800850:195085428:194800836:194800837:194732361:194732364:19473"/>
  </way>
  <way id="41960612" version="3" timestamp="2010-03-28T10:57:57Z" uid="20587" user="balrog-kun" changeset="4254597">
    <nd ref="519970618"/>
    <nd ref="411616151"/>
    <tag k="highway" v="motorway"/>
    <tag k="name" v="Ontario Freeway"/>
    <tag k="oneway" v="yes"/>
    <tag k="ref" v="I 15"/>
    <tag k="tiger:cfcc" v="A15"/>
    <tag k="tiger:county" v="Riverside, CA"/>
    <tag k="tiger:name_base" v="I-15"/>
    <tag k="tiger:name_base_1" v="Ontario"/>
    <tag k="tiger:name_type_1" v="Fwy"/>
    <tag k="tiger:separated" v="yes"/>
    <tag k="tiger:source" v="tiger_import_dch_v0.6_20070809"/>
    <tag k="tiger:tlid" v="194799265:194799268:194799271:194799274:194799277:194799279:195085483:194799283:195085486:194816914:194800930:194800931:194800936:194816929:194800798:194800799:194816931:194814028:194800849:194800850:195085428:194800836:194800837:194732361:194732364:19473"/>
  </way>
  <way id="41960612" version="4" timestamp="2011-07-31T15:22:52Z" uid="207745" user="NE2" changeset="8881942">
    <nd ref="519970618"/>
    <nd ref="411616151"/>
    <tag k="highway" v="motorway"/>
    <tag k="lanes" v="3"/>
    <tag k="name" v="Ontario Freeway"/>
    <tag k="oneway" v="yes"/>
    <tag k="ref" v="I 15"/>
    <tag k="tiger:cfcc" v="A15"/>
    <tag k="tiger:county" v="Riverside, CA"/>
    <tag k="tiger:name_base" v="I-15"/>
    <tag k="tiger:name_base_1" v="Ontario"/>
    <tag k="tiger:name_type_1" v="Fwy"/>
    <tag k="tiger:separated" v="yes"/>
    <tag k="tiger:source" v="tiger_import_dch_v0.6_20070809"/>
    <tag k="tiger:tlid" v="194799265:194799268:194799271:194799274:194799277:194799279:195085483:194799283:195085486:194816914:194800930:194800931:194800936:194816929:194800798:194800799:194816931:194814028:194800849:194800850:195085428:194800836:194800837:194732361:194732364:19473"/>
  </way>
  <way id="41960612" version="5" timestamp="2011-11-25T14:46:01Z" uid="207745" user="NE2" changeset="9943893">
    <nd ref="519970618"/>
    <nd ref="411616151"/>
    <tag k="hgv" v="designated"/>
    <tag k="highway" v="motorway"/>
    <tag k="lanes" v="3"/>
    <tag k="name" v="Ontario Freeway"/>
    <tag k="oneway" v="yes"/>
    <tag k="ref" v="I 15"/>
    <tag k="tiger:cfcc" v="A15"/>
    <tag k="tiger:county" v="Riverside, CA"/>
    <tag k="tiger:name_base" v="I-15"/>
    <tag k="tiger:name_base_1" v="Ontario"/>
    <tag k="tiger:name_type_1" v="Fwy"/>
    <tag k="tiger:separated" v="yes"/>
    <tag k="tiger:source" v="tiger_import_dch_v0.6_20070809"/>
    <tag k="tiger:tlid" v="194799265:194799268:194799271:194799274:194799277:194799279:195085483:194799283:195085486:194816914:194800930:194800931:194800936:194816929:194800798:194800799:194816931:194814028:194800849:194800850:195085428:194800836:194800837:194732361:194732364:19473"/>
  </way>
  <way id="41960613" version="3" timestamp="2010-03-28T10:57:57Z" uid="20587" user="balrog-kun" changeset="4254597">
    <nd ref="411627987"/>
    <nd ref="57819369"/>
    <tag k="bridge" v="yes"/>
    <tag k="highway" v="motorway"/>
    <tag k="layer" v="1"/>
    <tag k="name" v="Ontario Freeway"/>
    <tag k="oneway" v="yes"/>
    <tag k="ref" v="I 15"/>
    <tag k="source" v="yahoo_imagry"/>
  </way>
  <way id="41960613" version="4" timestamp="2011-07-31T15:22:38Z" uid="207745" user="NE2" changeset="8881942">
    <nd ref="411627987"/>
    <nd ref="57819369"/>
    <tag k="bridge" v="yes"/>
    <tag k="highway" v="motorway"/>
    <tag k="lanes" v="3"/>
    <tag k="layer" v="1"/>
    <tag k="name" v="Ontario Freeway"/>
    <tag k="oneway" v="yes"/>
    <tag k="ref" v="I 15"/>
    <tag k="source" v="yahoo_imagry"/>
  </way>
  <way id="41960613" version="5" timestamp="2011-11-25T14:46:14Z" uid="207745" user="NE2" changeset="9943893">
    <nd ref="411627987"/>
    <nd ref="57819369"/>
    <tag k="bridge" v="yes"/>
    <tag k="hgv" v="designated"/>
    <tag k="highway" v="motorway"/>
    <tag k="lanes" v="3"/>
    <tag k="layer" v="1"/>
    <tag k="name" v="Ontario Freeway"/>
    <tag k="oneway" v="yes"/>
    <tag k="ref" v="I 15"/>
    <tag k="source" v="yahoo_imagry"/>
  </way>
  <way id="41960615" version="3" timestamp="2010-03-28T10:57:58Z" uid="20587" user="balrog-kun" changeset="4254597">
    <nd ref="57819369"/>
    <nd ref="57819375"/>
    <nd ref="57819134"/>
    <nd ref="54195432"/>
    <tag k="highway" v="motorway"/>
    <tag k="name" v="Ontario Freeway"/>
    <tag k="oneway" v="yes"/>
    <tag k="ref" v="I 15"/>
    <tag k="source" v="yahoo_imagry"/>
  </way>
  <way id="41960615" version="4" timestamp="2011-07-31T15:23:03Z" uid="207745" user="NE2" changeset="8881942">
    <nd ref="57819369"/>
    <nd ref="57819375"/>
    <nd ref="57819134"/>
    <tag k="highway" v="motorway"/>
    <tag k="lanes" v="3"/>
    <tag k="name" v="Ontario Freeway"/>
    <tag k="oneway" v="yes"/>
    <tag k="ref" v="I 15"/>
    <tag k="source" v="yahoo_imagry"/>
  </way>
  <way id="41960615" version="5" timestamp="2011-11-25T14:46:30Z" uid="207745" user="NE2" changeset="9943893">
    <nd ref="57819369"/>
    <nd ref="57819375"/>
    <nd ref="57819134"/>
    <tag k="hgv" v="designated"/>
    <tag k="highway" v="motorway"/>
    <tag k="lanes" v="3"/>
    <tag k="name" v="Ontario Freeway"/>
    <tag k="oneway" v="yes"/>
    <tag k="ref" v="I 15"/>
    <tag k="source" v="yahoo_imagry"/>
  </way>
  <way id="41960120" version="9" timestamp="2012-07-26T10:18:07Z" uid="17615" user="Petr Dlouhý" changeset="12497159">
    <nd ref="344272472"/>
    <nd ref="344272445"/>
    <nd ref="478223600"/>
    <nd ref="519973018"/>
    <tag k="highway" v="residential"/>
    <tag k="oneway" v="yes"/>
    <tag k="source" v="cuzk:km;uhul:ortofoto"/>
  </way>
  <way id="41960285" version="7" timestamp="2012-07-17T01:43:22Z" uid="722137" user="OSMF Redaction Account" changeset="12254910">
    <nd ref="519960407"/>
    <nd ref="519964927"/>
    <nd ref="519964946"/>
    <tag k="highway" v="residential"/>
  </way>
  <way id="41960419" version="6" timestamp="2012-07-19T14:11:34Z" uid="722137" user="OSMF Redaction Account" changeset="12330990">
    <nd ref="518833504"/>
    <nd ref="337820004"/>
    <nd ref="337816505"/>
    <tag k="highway" v="residential"/>
  </way>
  <way id="41960419" version="7" timestamp="2012-08-23T00:36:42Z" uid="418724" user="wintersportler" changeset="12827412">
    <nd ref="518833504"/>
    <nd ref="337820004"/>
    <nd ref="337816505"/>
    <tag k="fixme" v="name"/>
    <tag k="highway" v="residential"/>
  </way>
  <way id="41960431" version="6" timestamp="2012-07-17T01:43:22Z" uid="722137" user="OSMF Redaction Account" changeset="12254910">
    <nd ref="519965004"/>
    <nd ref="519967228"/>
    <tag k="highway" v="residential"/>
  </way>
  <way id="41960484" version="4" timestamp="2012-07-17T01:43:22Z" uid="722137" user="OSMF Redaction Account" changeset="12254910">
    <nd ref="344272480"/>
    <nd ref="519967228"/>
    <tag k="highway" v="residential"/>
  </way>
  <way id="41960498" version="7" timestamp="2012-05-29T03:31:48Z" uid="349913" user="Peter W34" changeset="11733387">
    <nd ref="528563455"/>
    <nd ref="519968695"/>
    <tag k="highway" v="path"/>
  </way>
  <way id="41960498" version="8" timestamp="2012-07-19T12:42:14Z" uid="722137" user="OSMF Redaction Account" changeset="12326188"/>
  <way id="41960611" version="6" timestamp="2012-08-05T20:47:56Z" uid="587790" user="JaggedMind" changeset="12626023">
    <nd ref="519970615"/>
    <nd ref="519970618"/>
    <tag k="bridge" v="yes"/>
    <tag k="hgv" v="designated"/>
    <tag k="highway" v="motorway"/>
    <tag k="lanes" v="3"/>
    <tag k="layer" v="1"/>
    <tag k="name" v="Ontario Freeway"/>
    <tag k="oneway" v="yes"/>
    <tag k="ref" v="I 15"/>
    <tag k="tiger:cfcc" v="A15"/>
    <tag k="tiger:county" v="Riverside, CA"/>
    <tag k="tiger:name_base" v="I-15"/>
    <tag k="tiger:name_base_1" v="Ontario"/>
    <tag k="tiger:name_type_1" v="Fwy"/>
  </way>
  <way id="41960611" version="7" timestamp="2012-08-31T07:20:24Z" uid="207745" user="NE2" changeset="12927072">
    <nd ref="519970615"/>
    <nd ref="519970618"/>
    <tag k="bicycle" v="no"/>
    <tag k="bridge" v="yes"/>
    <tag k="hgv" v="designated"/>
    <tag k="highway" v="motorway"/>
    <tag k="lanes" v="3"/>
    <tag k="layer" v="1"/>
    <tag k="name" v="Ontario Freeway"/>
    <tag k="oneway" v="yes"/>
    <tag k="ref" v="I 15"/>
    <tag k="tiger:cfcc" v="A15"/>
    <tag k="tiger:county" v="Riverside, CA"/>
    <tag k="tiger:name_base" v="I-15"/>
    <tag k="tiger:name_base_1" v="Ontario"/>
    <tag k="tiger:name_type_1" v="Fwy"/>
  </way>
  <way id="41960612" version="6" timestamp="2012-08-05T20:48:22Z" uid="587790" user="JaggedMind" changeset="12626023">
    <nd ref="519970618"/>
    <nd ref="411616151"/>
    <tag k="hgv" v="designated"/>
    <tag k="highway" v="motorway"/>
    <tag k="lanes" v="3"/>
    <tag k="name" v="Ontario Freeway"/>
    <tag k="oneway" v="yes"/>
    <tag k="ref" v="I 15"/>
    <tag k="tiger:cfcc" v="A15"/>
    <tag k="tiger:county" v="Riverside, CA"/>
    <tag k="tiger:name_base" v="I-15"/>
    <tag k="tiger:name_base_1" v="Ontario"/>
    <tag k="tiger:name_type_1" v="Fwy"/>
  </way>
  <way id="41960612" version="7" timestamp="2012-08-31T07:20:23Z" uid="207745" user="NE2" changeset="12927072">
    <nd ref="519970618"/>
    <nd ref="411616151"/>
    <tag k="bicycle" v="no"/>
    <tag k="hgv" v="designated"/>
    <tag k="highway" v="motorway"/>
    <tag k="lanes" v="3"/>
    <tag k="name" v="Ontario Freeway"/>
    <tag k="oneway" v="yes"/>
    <tag k="ref" v="I 15"/>
    <tag k="tiger:cfcc" v="A15"/>
    <tag k="tiger:county" v="Riverside, CA"/>
    <tag k="tiger:name_base" v="I-15"/>
    <tag k="tiger:name_base_1" v="Ontario"/>
    <tag k="tiger:name_type_1" v="Fwy"/>
  </way>
  <way id="41960613" version="6" timestamp="2012-08-31T07:20:34Z" uid="207745" user="NE2" changeset="12927072">
    <nd ref="411627987"/>
    <nd ref="57819369"/>
    <tag k="bicycle" v="no"/>
    <tag k="bridge" v="yes"/>
    <tag k="hgv" v="designated"/>
    <tag k="highway" v="motorway"/>
    <tag k="lanes" v="3"/>
    <tag k="layer" v="1"/>
    <tag k="name" v="Ontario Freeway"/>
    <tag k="oneway" v="yes"/>
    <tag k="ref" v="I 15"/>
    <tag k="source" v="yahoo_imagry"/>
  </way>
  <way id="41960615" version="6" timestamp="2012-07-19T14:59:20Z" uid="722137" user="OSMF Redaction Account" changeset="12332574">
    <nd ref="57819369"/>
    <nd ref="57819134"/>
    <tag k="hgv" v="designated"/>
    <tag k="highway" v="motorway"/>
    <tag k="lanes" v="3"/>
    <tag k="name" v="Ontario Freeway"/>
    <tag k="oneway" v="yes"/>
    <tag k="ref" v="I 15"/>
    <tag k="source" v="yahoo_imagry"/>
  </way>
  <way id="41960615" version="7" timestamp="2012-08-31T07:20:15Z" uid="207745" user="NE2" changeset="12927072">
    <nd ref="57819369"/>
    <nd ref="57819134"/>
    <tag k="bicycle" v="no"/>
    <tag k="hgv" v="designated"/>
    <tag k="highway" v="motorway"/>
    <tag k="lanes" v="3"/>
    <tag k="name" v="Ontario Freeway"/>
    <tag k="oneway" v="yes"/>
    <tag k="ref" v="I 15"/>
    <tag k="source" v="yahoo_imagry"/>
  </way>
</osm>
