<?xml version='1.0' encoding='UTF-8'?>
<osm version="0.6" generator="libosmium/2.20.0">
  <way id="42022046" version="4" timestamp="2010-04-27T06:39:13Z" uid="4467" user="Rosscoe" changeset="4538302">
    <nd ref="362985435"/>
    <nd ref="362985458"/>
    <nd ref="362985461"/>
    <nd ref="362985462"/>
    <nd ref="361344626"/>
    <nd ref="361344625"/>
    <nd ref="361344623"/>
    <nd ref="361344622"/>
    <nd ref="361344620"/>
    <nd ref="361344619"/>
    <nd ref="361344617"/>
    <nd ref="361344616"/>
    <nd ref="361344295"/>
    <tag k="highway" v="residential"/>
    <tag k="name" v="Dorrien Avenue"/>
  </way>
  <way id="42022046" version="5" timestamp="2010-06-07T15:05:24Z" uid="80766" user="Steve Robin" changeset="4928978">
    <nd ref="362985435"/>
    <nd ref="766721576"/>
    <nd ref="362985458"/>
    <nd ref="362985461"/>
    <nd ref="362985462"/>
    <nd ref="361344626"/>
    <nd ref="361344625"/>
    <nd ref="361344623"/>
    <nd ref="361344622"/>
    <nd ref="361344620"/>
    <nd ref="361344619"/>
    <nd ref="361344617"/>
    <nd ref="361344616"/>
    <nd ref="361344295"/>
    <tag k="highway" v="residential"/>
    <tag k="name" v="Dorrien Avenue"/>
  </way>
  <way id="42022046" version="6" timestamp="2010-07-09T06:10:28Z" uid="74617" user="JohnSmith" changeset="5171134">
    <nd ref="362985435"/>
    <nd ref="766721576"/>
    <nd ref="362985458"/>
    <nd ref="362985461"/>
    <nd ref="362985462"/>
    <nd ref="361344626"/>
    <nd ref="361344625"/>
    <nd ref="361344623"/>
    <nd ref="361344622"/>
    <nd ref="361344620"/>
    <nd ref="361344619"/>
    <nd ref="361344617"/>
    <nd ref="361344616"/>
    <nd ref="361344295"/>
    <tag k="highway" v="residential"/>
    <tag k="maxspeed" v="50"/>
    <tag k="maxspeed:source" v="default residential speed limit in Australia"/>
    <tag k="name" v="Dorrien Avenue"/>
  </way>
  <way id="42022046" version="7" timestamp="2012-01-19T05:34:59Z" uid="147510" user="woodpeck_fixbot" changeset="10433866">
    <nd ref="362985435"/>
    <nd ref="766721576"/>
    <nd ref="362985458"/>
    <nd ref="362985461"/>
    <nd ref="362985462"/>
    <nd ref="361344626"/>
    <nd ref="361344625"/>
    <nd ref="361344623"/>
    <nd ref="361344622"/>
    <nd ref="361344620"/>
    <nd ref="361344619"/>
    <nd ref="361344617"/>
    <nd ref="361344616"/>
    <nd ref="361344295"/>
    <tag k="highway" v="residential"/>
    <tag k="name" v="Dorrien Avenue"/>
  </way>
  <way id="42022349" version="6" timestamp="2010-04-02T17:49:11Z" uid="20587" user="balrog-kun" changeset="4304500">
    <nd ref="50936600"/>
    <nd ref="50936602"/>
    <nd ref="521362160"/>
    <nd ref="521362115"/>
    <nd ref="50936607"/>
    <nd ref="50936611"/>
    <nd ref="50936612"/>
    <nd ref="50936614"/>
    <nd ref="50936617"/>
    <nd ref="50936619"/>
    <nd ref="50936621"/>
    <tag k="highway" v="trunk"/>
    <tag k="name" v="North Division Street"/>
    <tag k="name_1" v="North Highway 395"/>
    <tag k="ref" v="US 2;US 395"/>
    <tag k="tiger:cfcc" v="A21"/>
    <tag k="tiger:county" v="Spokane, WA"/>
    <tag k="tiger:name_base" v="Division"/>
    <tag k="tiger:name_base_1" v="Highway 395"/>
    <tag k="tiger:name_direction_prefix" v="N"/>
    <tag k="tiger:name_direction_prefix_1" v="N"/>
    <tag k="tiger:name_type" v="St"/>
    <tag k="tiger:reviewed" v="no"/>
    <tag k="tiger:separated" v="no"/>
    <tag k="tiger:source" v="tiger_import_dch_v0.6_20070830"/>
    <tag k="tiger:tlid" v="189867871:189867872"/>
    <tag k="tiger:zip_left" v="99218"/>
    <tag k="tiger:zip_right" v="99218"/>
  </way>
  <way id="42022349" version="7" timestamp="2010-09-18T01:53:14Z" uid="282329" user="compdude" changeset="5808542">
    <nd ref="50936600"/>
    <nd ref="50936602"/>
    <nd ref="521362160"/>
    <nd ref="521362115"/>
    <nd ref="50936607"/>
    <nd ref="50936611"/>
    <nd ref="50936612"/>
    <nd ref="50936614"/>
    <nd ref="50936617"/>
    <nd ref="50936619"/>
    <nd ref="50936621"/>
    <tag k="highway" v="primary"/>
    <tag k="name" v="North Division Street"/>
    <tag k="name_1" v="North Highway 395"/>
    <tag k="ref" v="US 2;US 395"/>
    <tag k="tiger:cfcc" v="A21"/>
    <tag k="tiger:county" v="Spokane, WA"/>
    <tag k="tiger:name_base" v="Division"/>
    <tag k="tiger:name_base_1" v="Highway 395"/>
    <tag k="tiger:name_direction_prefix" v="N"/>
    <tag k="tiger:name_direction_prefix_1" v="N"/>
    <tag k="tiger:name_type" v="St"/>
    <tag k="tiger:reviewed" v="no"/>
    <tag k="tiger:separated" v="no"/>
    <tag k="tiger:source" v="tiger_import_dch_v0.6_20070830"/>
    <tag k="tiger:tlid" v="189867871:189867872"/>
    <tag k="tiger:zip_left" v="99218"/>
    <tag k="tiger:zip_right" v="99218"/>
  </way>
  <way id="42022349" version="8" timestamp="2010-12-13T19:41:37Z" uid="207745" user="NE2" changeset="6651277">
    <nd ref="50936600"/>
    <nd ref="50936602"/>
    <nd ref="521362160"/>
    <nd ref="521362115"/>
    <nd ref="50936607"/>
    <nd ref="50936611"/>
    <nd ref="50936612"/>
    <nd ref="50936614"/>
    <nd ref="50936617"/>
    <nd ref="50936619"/>
    <nd ref="50936621"/>
    <tag k="highway" v="trunk"/>
    <tag k="name" v="North Division Street"/>
    <tag k="name_1" v="North Highway 395"/>
    <tag k="ref" v="US 2;US 395"/>
    <tag k="tiger:cfcc" v="A21"/>
    <tag k="tiger:county" v="Spokane, WA"/>
    <tag k="tiger:name_base" v="Division"/>
    <tag k="tiger:name_base_1" v="Highway 395"/>
    <tag k="tiger:name_direction_prefix" v="N"/>
    <tag k="tiger:name_direction_prefix_1" v="N"/>
    <tag k="tiger:name_type" v="St"/>
    <tag k="tiger:reviewed" v="no"/>
    <tag k="tiger:separated" v="no"/>
    <tag k="tiger:source" v="tiger_import_dch_v0.6_20070830"/>
    <tag k="tiger:tlid" v="189867871:189867872"/>
    <tag k="tiger:zip_left" v="99218"/>
    <tag k="tiger:zip_right" v="99218"/>
  </way>
  <way id="42022349" version="9" timestamp="2011-05-24T15:28:38Z" uid="282329" user="compdude" changeset="8236544">
    <nd ref="50936600"/>
    <nd ref="50936602"/>
    <nd ref="521362160"/>
    <nd ref="521362115"/>
    <nd ref="50936607"/>
    <nd ref="50936611"/>
    <nd ref="50936612"/>
    <nd ref="50936614"/>
    <nd ref="50936617"/>
    <nd ref="50936619"/>
    <nd ref="50936621"/>
    <tag k="highway" v="primary"/>
    <tag k="name" v="North Division Street"/>
    <tag k="name_1" v="North Highway 395"/>
    <tag k="ref" v="US 2;US 395"/>
    <tag k="tiger:cfcc" v="A21"/>
    <tag k="tiger:county" v="Spokane, WA"/>
    <tag k="tiger:name_base" v="Division"/>
    <tag k="tiger:name_base_1" v="Highway 395"/>
    <tag k="tiger:name_direction_prefix" v="N"/>
    <tag k="tiger:name_direction_prefix_1" v="N"/>
    <tag k="tiger:name_type" v="St"/>
    <tag k="tiger:separated" v="no"/>
    <tag k="tiger:source" v="tiger_import_dch_v0.6_20070830"/>
    <tag k="tiger:tlid" v="189867871:189867872"/>
    <tag k="tiger:zip_left" v="99218"/>
    <tag k="tiger:zip_right" v="99218"/>
  </way>
  <way id="42022349" version="10" timestamp="2011-06-12T10:14:31Z" uid="207745" user="NE2" changeset="8413596">
    <nd ref="50936600"/>
    <nd ref="50936602"/>
    <nd ref="521362160"/>
    <nd ref="521362115"/>
    <nd ref="50936607"/>
    <nd ref="50936611"/>
    <nd ref="50936612"/>
    <nd ref="50936614"/>
    <nd ref="50936617"/>
    <nd ref="50936619"/>
    <nd ref="50936621"/>
    <tag k="highway" v="trunk"/>
    <tag k="lanes" v="6"/>
    <tag k="name" v="North Division Street"/>
    <tag k="ref" v="US 2;US 395"/>
    <tag k="tiger:cfcc" v="A21"/>
    <tag k="tiger:county" v="Spokane, WA"/>
    <tag k="tiger:name_base" v="Division"/>
    <tag k="tiger:name_base_1" v="Highway 395"/>
    <tag k="tiger:name_direction_prefix" v="N"/>
    <tag k="tiger:name_direction_prefix_1" v="N"/>
    <tag k="tiger:name_type" v="St"/>
    <tag k="tiger:separated" v="no"/>
    <tag k="tiger:source" v="tiger_import_dch_v0.6_20070830"/>
    <tag k="tiger:tlid" v="189867871:189867872"/>
    <tag k="tiger:zip_left" v="99218"/>
    <tag k="tiger:zip_right" v="99218"/>
  </way>
  <way id="42022349" version="11" timestamp="2011-07-06T23:19:20Z" uid="473471" user="NE3" changeset="8653193">
    <nd ref="50936600"/>
    <nd ref="50936602"/>
    <nd ref="521362160"/>
    <nd ref="521362115"/>
    <nd ref="50936607"/>
    <nd ref="50936611"/>
    <nd ref="50936612"/>
    <nd ref="50936614"/>
    <nd ref="50936617"/>
    <nd ref="50936619"/>
    <nd ref="50936621"/>
    <tag k="NHS" v="yes"/>
    <tag k="highway" v="trunk"/>
    <tag k="lanes" v="6"/>
    <tag k="name" v="North Division Street"/>
    <tag k="ref" v="US 2;US 395"/>
    <tag k="tiger:cfcc" v="A21"/>
    <tag k="tiger:county" v="Spokane, WA"/>
    <tag k="tiger:name_base" v="Division"/>
    <tag k="tiger:name_base_1" v="Highway 395"/>
    <tag k="tiger:name_direction_prefix" v="N"/>
    <tag k="tiger:name_direction_prefix_1" v="N"/>
    <tag k="tiger:name_type" v="St"/>
    <tag k="tiger:separated" v="no"/>
    <tag k="tiger:source" v="tiger_import_dch_v0.6_20070830"/>
    <tag k="tiger:tlid" v="189867871:189867872"/>
    <tag k="tiger:zip_left" v="99218"/>
    <tag k="tiger:zip_right" v="99218"/>
  </way>
  <way id="42022349" version="12" timestamp="2011-07-08T20:53:30Z" uid="239998" user="Sundance" changeset="8669194"/>
  <way id="42022475" version="6" timestamp="2010-04-02T17:49:11Z" uid="20587" user="balrog-kun" changeset="4304500">
    <nd ref="50936621"/>
    <nd ref="50936623"/>
    <nd ref="50936627"/>
    <nd ref="50936628"/>
    <nd ref="50936629"/>
    <nd ref="50936630"/>
    <nd ref="50936632"/>
    <nd ref="50936633"/>
    <nd ref="50936636"/>
    <nd ref="50936638"/>
    <nd ref="50936641"/>
    <nd ref="50936643"/>
    <nd ref="50936645"/>
    <nd ref="50936647"/>
    <nd ref="50936649"/>
    <tag k="highway" v="trunk"/>
    <tag k="name" v="North Division Street"/>
    <tag k="name_1" v="North Highway 395"/>
    <tag k="ref" v="US 2;US 395"/>
    <tag k="tiger:cfcc" v="A21"/>
    <tag k="tiger:county" v="Spokane, WA"/>
    <tag k="tiger:name_base" v="Division"/>
    <tag k="tiger:name_base_1" v="Highway 395"/>
    <tag k="tiger:name_direction_prefix" v="N"/>
    <tag k="tiger:name_direction_prefix_1" v="N"/>
    <tag k="tiger:name_type" v="St"/>
    <tag k="tiger:reviewed" v="no"/>
    <tag k="tiger:separated" v="no"/>
    <tag k="tiger:source" v="tiger_import_dch_v0.6_20070830"/>
    <tag k="tiger:tlid" v="189867871:189867872"/>
    <tag k="tiger:zip_left" v="99218"/>
    <tag k="tiger:zip_right" v="99218"/>
  </way>
  <way id="42022475" version="7" timestamp="2010-09-18T01:53:15Z" uid="282329" user="compdude" changeset="5808542">
    <nd ref="50936621"/>
    <nd ref="50936623"/>
    <nd ref="50936627"/>
    <nd ref="50936628"/>
    <nd ref="50936629"/>
    <nd ref="50936630"/>
    <nd ref="50936632"/>
    <nd ref="50936633"/>
    <nd ref="50936636"/>
    <nd ref="50936638"/>
    <nd ref="50936641"/>
    <nd ref="50936643"/>
    <nd ref="50936645"/>
    <nd ref="50936647"/>
    <nd ref="50936649"/>
    <tag k="highway" v="primary"/>
    <tag k="name" v="North Division Street"/>
    <tag k="name_1" v="North Highway 395"/>
    <tag k="ref" v="US 2;US 395"/>
    <tag k="tiger:cfcc" v="A21"/>
    <tag k="tiger:county" v="Spokane, WA"/>
    <tag k="tiger:name_base" v="Division"/>
    <tag k="tiger:name_base_1" v="Highway 395"/>
    <tag k="tiger:name_direction_prefix" v="N"/>
    <tag k="tiger:name_direction_prefix_1" v="N"/>
    <tag k="tiger:name_type" v="St"/>
    <tag k="tiger:reviewed" v="no"/>
    <tag k="tiger:separated" v="no"/>
    <tag k="tiger:source" v="tiger_import_dch_v0.6_20070830"/>
    <tag k="tiger:tlid" v="189867871:189867872"/>
    <tag k="tiger:zip_left" v="99218"/>
    <tag k="tiger:zip_right" v="99218"/>
  </way>
  <way id="42022475" version="8" timestamp="2010-12-13T19:42:06Z" uid="207745" user="NE2" changeset="6651277">
    <nd ref="50936621"/>
    <nd ref="50936623"/>
    <nd ref="50936627"/>
    <nd ref="50936628"/>
    <nd ref="50936629"/>
    <nd ref="50936630"/>
    <nd ref="50936632"/>
    <nd ref="50936633"/>
    <nd ref="50936636"/>
    <nd ref="50936638"/>
    <nd ref="50936641"/>
    <nd ref="50936643"/>
    <nd ref="50936645"/>
    <nd ref="50936647"/>
    <nd ref="50936649"/>
    <tag k="highway" v="trunk"/>
    <tag k="name" v="North Division Street"/>
    <tag k="name_1" v="North Highway 395"/>
    <tag k="ref" v="US 2;US 395"/>
    <tag k="tiger:cfcc" v="A21"/>
    <tag k="tiger:county" v="Spokane, WA"/>
    <tag k="tiger:name_base" v="Division"/>
    <tag k="tiger:name_base_1" v="Highway 395"/>
    <tag k="tiger:name_direction_prefix" v="N"/>
    <tag k="tiger:name_direction_prefix_1" v="N"/>
    <tag k="tiger:name_type" v="St"/>
    <tag k="tiger:reviewed" v="no"/>
    <tag k="tiger:separated" v="no"/>
    <tag k="tiger:source" v="tiger_import_dch_v0.6_20070830"/>
    <tag k="tiger:tlid" v="189867871:189867872"/>
    <tag k="tiger:zip_left" v="99218"/>
    <tag k="tiger:zip_right" v="99218"/>
  </way>
  <way id="42022475" version="9" timestamp="2011-05-24T15:28:38Z" uid="282329" user="compdude" changeset="8236544">
    <nd ref="50936621"/>
    <nd ref="50936623"/>
    <nd ref="50936627"/>
    <nd ref="50936628"/>
    <nd ref="50936629"/>
    <nd ref="50936630"/>
    <nd ref="50936632"/>
    <nd ref="50936633"/>
    <nd ref="50936636"/>
    <nd ref="50936638"/>
    <nd ref="50936641"/>
    <nd ref="50936643"/>
    <nd ref="50936645"/>
    <nd ref="50936647"/>
    <nd ref="50936649"/>
    <tag k="highway" v="primary"/>
    <tag k="name" v="North Division Street"/>
    <tag k="name_1" v="North Highway 395"/>
    <tag k="ref" v="US 2;US 395"/>
    <tag k="tiger:cfcc" v="A21"/>
    <tag k="tiger:county" v="Spokane, WA"/>
    <tag k="tiger:name_base" v="Division"/>
    <tag k="tiger:name_base_1" v="Highway 395"/>
    <tag k="tiger:name_direction_prefix" v="N"/>
    <tag k="tiger:name_direction_prefix_1" v="N"/>
    <tag k="tiger:name_type" v="St"/>
    <tag k="tiger:separated" v="no"/>
    <tag k="tiger:source" v="tiger_import_dch_v0.6_20070830"/>
    <tag k="tiger:tlid" v="189867871:189867872"/>
    <tag k="tiger:zip_left" v="99218"/>
    <tag k="tiger:zip_right" v="99218"/>
  </way>
  <way id="42022475" version="10" timestamp="2011-06-12T10:14:34Z" uid="207745" user="NE2" changeset="8413596">
    <nd ref="50936621"/>
    <nd ref="50936623"/>
    <nd ref="50936627"/>
    <nd ref="50936628"/>
    <nd ref="50936629"/>
    <nd ref="50936630"/>
    <nd ref="50936632"/>
    <nd ref="50936633"/>
    <nd ref="50936636"/>
    <nd ref="50936638"/>
    <nd ref="50936641"/>
    <nd ref="50936643"/>
    <nd ref="50936645"/>
    <nd ref="50936647"/>
    <nd ref="50936649"/>
    <tag k="highway" v="trunk"/>
    <tag k="lanes" v="6"/>
    <tag k="name" v="North Division Street"/>
    <tag k="ref" v="US 2;US 395"/>
    <tag k="tiger:cfcc" v="A21"/>
    <tag k="tiger:county" v="Spokane, WA"/>
    <tag k="tiger:name_base" v="Division"/>
    <tag k="tiger:name_base_1" v="Highway 395"/>
    <tag k="tiger:name_direction_prefix" v="N"/>
    <tag k="tiger:name_direction_prefix_1" v="N"/>
    <tag k="tiger:name_type" v="St"/>
    <tag k="tiger:separated" v="no"/>
    <tag k="tiger:source" v="tiger_import_dch_v0.6_20070830"/>
    <tag k="tiger:tlid" v="189867871:189867872"/>
    <tag k="tiger:zip_left" v="99218"/>
    <tag k="tiger:zip_right" v="99218"/>
  </way>
  <way id="42022475" version="11" timestamp="2011-07-06T23:19:22Z" uid="473471" user="NE3" changeset="8653193">
    <nd ref="50936621"/>
    <nd ref="50936623"/>
    <nd ref="50936627"/>
    <nd ref="50936628"/>
    <nd ref="50936629"/>
    <nd ref="50936630"/>
    <nd ref="50936632"/>
    <nd ref="50936633"/>
    <nd ref="50936636"/>
    <nd ref="50936638"/>
    <nd ref="50936641"/>
    <nd ref="50936643"/>
    <nd ref="50936645"/>
    <nd ref="50936647"/>
    <nd ref="50936649"/>
    <tag k="NHS" v="yes"/>
    <tag k="highway" v="trunk"/>
    <tag k="lanes" v="6"/>
    <tag k="name" v="North Division Street"/>
    <tag k="ref" v="US 2;US 395"/>
    <tag k="tiger:cfcc" v="A21"/>
    <tag k="tiger:county" v="Spokane, WA"/>
    <tag k="tiger:name_base" v="Division"/>
    <tag k="tiger:name_base_1" v="Highway 395"/>
    <tag k="tiger:name_direction_prefix" v="N"/>
    <tag k="tiger:name_direction_prefix_1" v="N"/>
    <tag k="tiger:name_type" v="St"/>
    <tag k="tiger:separated" v="no"/>
    <tag k="tiger:source" v="tiger_import_dch_v0.6_20070830"/>
    <tag k="tiger:tlid" v="189867871:189867872"/>
    <tag k="tiger:zip_left" v="99218"/>
    <tag k="tiger:zip_right" v="99218"/>
  </way>
  <way id="42022475" version="12" timestamp="2011-07-08T20:08:45Z" uid="239998" user="Sundance" changeset="8669194">
    <nd ref="50936621"/>
    <nd ref="50936623"/>
    <nd ref="50936627"/>
    <nd ref="50936628"/>
    <nd ref="50936629"/>
    <nd ref="50936630"/>
    <nd ref="50936632"/>
    <nd ref="50936633"/>
    <nd ref="50936636"/>
    <nd ref="50936638"/>
    <nd ref="50936641"/>
    <nd ref="50936643"/>
    <nd ref="50936645"/>
    <nd ref="50936647"/>
    <nd ref="50936649"/>
    <tag k="NHS" v="yes"/>
    <tag k="addr:postcode" v="99218"/>
    <tag k="highway" v="trunk"/>
    <tag k="is_in" v="Spokane, WA"/>
    <tag k="lanes" v="6"/>
    <tag k="name" v="North Division Street"/>
    <tag k="nat_name_1" v="United States Route 2"/>
    <tag k="nat_name_2" v="United States Route 395"/>
    <tag k="oneway" v="yes"/>
    <tag k="ref" v="US 2;US 395"/>
    <tag k="tiger:source" v="tiger_import_dch_v0.6_20070830"/>
    <tag k="tiger:tlid" v="189867871:189867872"/>
  </way>
  <way id="42022475" version="13" timestamp="2011-07-08T20:20:25Z" uid="239998" user="Sundance" changeset="8669194">
    <nd ref="50936621"/>
    <nd ref="50936623"/>
    <nd ref="50936627"/>
    <nd ref="50936628"/>
    <nd ref="50936629"/>
    <nd ref="50936630"/>
    <nd ref="50936632"/>
    <nd ref="50936633"/>
    <nd ref="50936636"/>
    <nd ref="50936638"/>
    <nd ref="50936641"/>
    <nd ref="50936643"/>
    <nd ref="1354152820"/>
    <nd ref="50936645"/>
    <nd ref="1354152866"/>
    <nd ref="50936647"/>
    <nd ref="50936649"/>
    <tag k="NHS" v="yes"/>
    <tag k="addr:postcode" v="99218"/>
    <tag k="highway" v="trunk"/>
    <tag k="is_in" v="Spokane, WA"/>
    <tag k="lanes" v="6"/>
    <tag k="name" v="North Division Street"/>
    <tag k="nat_name_1" v="United States Route 2"/>
    <tag k="nat_name_2" v="United States Route 395"/>
    <tag k="oneway" v="yes"/>
    <tag k="ref" v="US 2;US 395"/>
    <tag k="tiger:source" v="tiger_import_dch_v0.6_20070830"/>
    <tag k="tiger:tlid" v="189867871:189867872"/>
  </way>
  <way id="42022475" version="14" timestamp="2011-07-08T20:53:30Z" uid="239998" user="Sundance" changeset="8669194"/>
  <way id="42022620" version="8" timestamp="2010-04-02T17:49:12Z" uid="20587" user="balrog-kun" changeset="4304500">
    <nd ref="50936649"/>
    <nd ref="50936651"/>
    <nd ref="50936653"/>
    <nd ref="50936656"/>
    <nd ref="50936658"/>
    <nd ref="50936660"/>
    <nd ref="50936662"/>
    <nd ref="50936664"/>
    <nd ref="618354119"/>
    <nd ref="50936667"/>
    <nd ref="50936669"/>
    <nd ref="50936671"/>
    <nd ref="50936673"/>
    <tag k="highway" v="trunk"/>
    <tag k="name" v="North Division Street"/>
    <tag k="name_1" v="North Highway 395"/>
    <tag k="ref" v="US 2;US 395"/>
    <tag k="tiger:cfcc" v="A21"/>
    <tag k="tiger:county" v="Spokane, WA"/>
    <tag k="tiger:name_base" v="Division"/>
    <tag k="tiger:name_base_1" v="Highway 395"/>
    <tag k="tiger:name_direction_prefix" v="N"/>
    <tag k="tiger:name_direction_prefix_1" v="N"/>
    <tag k="tiger:name_type" v="St"/>
    <tag k="tiger:reviewed" v="no"/>
    <tag k="tiger:separated" v="no"/>
    <tag k="tiger:source" v="tiger_import_dch_v0.6_20070830"/>
    <tag k="tiger:tlid" v="189867871:189867872"/>
    <tag k="tiger:zip_left" v="99218"/>
    <tag k="tiger:zip_right" v="99218"/>
  </way>
  <way id="42022620" version="9" timestamp="2010-08-20T23:43:17Z" uid="239998" user="Sundance" changeset="5548387">
    <nd ref="50936649"/>
    <nd ref="50936651"/>
    <nd ref="50936653"/>
    <nd ref="50936656"/>
    <nd ref="50936658"/>
    <nd ref="50936660"/>
    <nd ref="50936662"/>
    <nd ref="50936664"/>
    <nd ref="618354119"/>
    <nd ref="50936667"/>
    <nd ref="50936669"/>
    <nd ref="50936671"/>
    <nd ref="50936673"/>
    <tag k="addr:postcode" v="99218"/>
    <tag k="highway" v="trunk"/>
    <tag k="is_in" v="Spokane, WA"/>
    <tag k="name" v="North Division Street"/>
    <tag k="nat_name_1" v="United States Route 2"/>
    <tag k="nat_name_2" v="United States Route 395"/>
    <tag k="ref" v="US 2;US 395"/>
    <tag k="tiger:source" v="tiger_import_dch_v0.6_20070830"/>
    <tag k="tiger:tlid" v="189867871:189867872"/>
  </way>
  <way id="42022620" version="10" timestamp="2010-09-18T01:53:16Z" uid="282329" user="compdude" changeset="5808542">
    <nd ref="50936649"/>
    <nd ref="50936651"/>
    <nd ref="50936653"/>
    <nd ref="50936656"/>
    <nd ref="50936658"/>
    <nd ref="50936660"/>
    <nd ref="50936662"/>
    <nd ref="50936664"/>
    <nd ref="618354119"/>
    <nd ref="50936667"/>
    <nd ref="50936669"/>
    <nd ref="50936671"/>
    <nd ref="50936673"/>
    <tag k="addr:postcode" v="99218"/>
    <tag k="highway" v="primary"/>
    <tag k="is_in" v="Spokane, WA"/>
    <tag k="name" v="North Division Street"/>
    <tag k="nat_name_1" v="United States Route 2"/>
    <tag k="nat_name_2" v="United States Route 395"/>
    <tag k="ref" v="US 2;US 395"/>
    <tag k="tiger:source" v="tiger_import_dch_v0.6_20070830"/>
    <tag k="tiger:tlid" v="189867871:189867872"/>
  </way>
  <way id="42022620" version="11" timestamp="2010-12-13T19:41:33Z" uid="207745" user="NE2" changeset="6651277">
    <nd ref="50936649"/>
    <nd ref="50936651"/>
    <nd ref="50936653"/>
    <nd ref="50936656"/>
    <nd ref="50936658"/>
    <nd ref="50936660"/>
    <nd ref="50936662"/>
    <nd ref="50936664"/>
    <nd ref="618354119"/>
    <nd ref="50936667"/>
    <nd ref="50936669"/>
    <nd ref="50936671"/>
    <nd ref="50936673"/>
    <tag k="addr:postcode" v="99218"/>
    <tag k="highway" v="trunk"/>
    <tag k="is_in" v="Spokane, WA"/>
    <tag k="name" v="North Division Street"/>
    <tag k="nat_name_1" v="United States Route 2"/>
    <tag k="nat_name_2" v="United States Route 395"/>
    <tag k="ref" v="US 2;US 395"/>
    <tag k="tiger:source" v="tiger_import_dch_v0.6_20070830"/>
    <tag k="tiger:tlid" v="189867871:189867872"/>
  </way>
  <way id="42022620" version="12" timestamp="2011-05-24T15:28:39Z" uid="282329" user="compdude" changeset="8236544">
    <nd ref="50936649"/>
    <nd ref="50936651"/>
    <nd ref="50936653"/>
    <nd ref="50936656"/>
    <nd ref="50936658"/>
    <nd ref="50936660"/>
    <nd ref="50936662"/>
    <nd ref="50936664"/>
    <nd ref="618354119"/>
    <nd ref="50936667"/>
    <nd ref="50936669"/>
    <nd ref="50936671"/>
    <nd ref="50936673"/>
    <tag k="addr:postcode" v="99218"/>
    <tag k="highway" v="primary"/>
    <tag k="is_in" v="Spokane, WA"/>
    <tag k="name" v="North Division Street"/>
    <tag k="nat_name_1" v="United States Route 2"/>
    <tag k="nat_name_2" v="United States Route 395"/>
    <tag k="ref" v="US 2;US 395"/>
    <tag k="tiger:source" v="tiger_import_dch_v0.6_20070830"/>
    <tag k="tiger:tlid" v="189867871:189867872"/>
  </way>
  <way id="42022620" version="13" timestamp="2011-06-10T01:10:33Z" uid="207745" user="NE2" changeset="8393549">
    <nd ref="50936649"/>
    <nd ref="50936651"/>
    <nd ref="50936653"/>
    <nd ref="50936656"/>
    <nd ref="50936658"/>
    <nd ref="50936660"/>
    <nd ref="50936662"/>
    <nd ref="50936664"/>
    <nd ref="618354119"/>
    <nd ref="50936667"/>
    <nd ref="50936669"/>
    <nd ref="50936671"/>
    <nd ref="50936673"/>
    <tag k="addr:postcode" v="99218"/>
    <tag k="highway" v="primary"/>
    <tag k="is_in" v="Spokane, WA"/>
    <tag k="name" v="North Division Street"/>
    <tag k="ref" v="US 2;US 395"/>
    <tag k="tiger:source" v="tiger_import_dch_v0.6_20070830"/>
    <tag k="tiger:tlid" v="189867871:189867872"/>
  </way>
  <way id="42022620" version="14" timestamp="2011-06-12T10:18:52Z" uid="207745" user="NE2" changeset="8413596">
    <nd ref="50936649"/>
    <nd ref="50936651"/>
    <nd ref="50936653"/>
    <nd ref="50936656"/>
    <nd ref="50936658"/>
    <nd ref="50936660"/>
    <nd ref="50936662"/>
    <nd ref="50936664"/>
    <nd ref="618354119"/>
    <nd ref="50936667"/>
    <nd ref="50936669"/>
    <nd ref="50936671"/>
    <nd ref="50936673"/>
    <tag k="addr:postcode" v="99218"/>
    <tag k="highway" v="trunk"/>
    <tag k="is_in" v="Spokane, WA"/>
    <tag k="lanes" v="6"/>
    <tag k="name" v="North Division Street"/>
    <tag k="ref" v="US 2;US 395"/>
    <tag k="tiger:source" v="tiger_import_dch_v0.6_20070830"/>
    <tag k="tiger:tlid" v="189867871:189867872"/>
  </way>
  <way id="42022620" version="15" timestamp="2011-07-06T23:19:22Z" uid="473471" user="NE3" changeset="8653193">
    <nd ref="50936649"/>
    <nd ref="50936651"/>
    <nd ref="50936653"/>
    <nd ref="50936656"/>
    <nd ref="50936658"/>
    <nd ref="50936660"/>
    <nd ref="50936662"/>
    <nd ref="50936664"/>
    <nd ref="618354119"/>
    <nd ref="50936667"/>
    <nd ref="50936669"/>
    <nd ref="50936671"/>
    <nd ref="50936673"/>
    <tag k="NHS" v="yes"/>
    <tag k="addr:postcode" v="99218"/>
    <tag k="highway" v="trunk"/>
    <tag k="is_in" v="Spokane, WA"/>
    <tag k="lanes" v="6"/>
    <tag k="name" v="North Division Street"/>
    <tag k="ref" v="US 2;US 395"/>
    <tag k="tiger:source" v="tiger_import_dch_v0.6_20070830"/>
    <tag k="tiger:tlid" v="189867871:189867872"/>
  </way>
  <way id="42022620" version="16" timestamp="2011-07-08T20:08:46Z" uid="239998" user="Sundance" changeset="8669194">
    <nd ref="50936649"/>
    <nd ref="1354144412"/>
    <nd ref="50936651"/>
    <nd ref="1354144247"/>
    <nd ref="1354144410"/>
    <nd ref="50936653"/>
    <nd ref="50936656"/>
    <nd ref="50936658"/>
    <nd ref="50936660"/>
    <nd ref="50936662"/>
    <nd ref="50936664"/>
    <nd ref="618354119"/>
    <nd ref="50936667"/>
    <nd ref="50936669"/>
    <nd ref="50936671"/>
    <nd ref="50936673"/>
    <nd ref="50936675"/>
    <tag k="NHS" v="yes"/>
    <tag k="addr:postcode" v="99218"/>
    <tag k="highway" v="trunk"/>
    <tag k="is_in" v="Spokane, WA"/>
    <tag k="lanes" v="3"/>
    <tag k="name" v="North Division Street"/>
    <tag k="oneway" v="yes"/>
    <tag k="ref" v="US 2;US 395"/>
    <tag k="source" v="Yahoo,TIGER"/>
    <tag k="tiger:source" v="tiger_import_dch_v0.6_20070830"/>
    <tag k="tiger:tlid" v="189867871:189867872"/>
  </way>
  <way id="42022620" version="17" timestamp="2011-07-08T22:01:15Z" uid="239998" user="Sundance" changeset="8670161">
    <nd ref="50936649"/>
    <nd ref="1354144412"/>
    <nd ref="50936651"/>
    <nd ref="1354144247"/>
    <nd ref="1354144410"/>
    <nd ref="50936653"/>
    <nd ref="1354226112"/>
    <nd ref="50936656"/>
    <nd ref="1354225758"/>
    <nd ref="50936658"/>
    <nd ref="50936660"/>
    <nd ref="50936662"/>
    <nd ref="50936664"/>
    <nd ref="618354119"/>
    <nd ref="50936667"/>
    <nd ref="50936669"/>
    <nd ref="50936671"/>
    <nd ref="50936673"/>
    <nd ref="50936675"/>
    <tag k="NHS" v="yes"/>
    <tag k="addr:postcode" v="99218"/>
    <tag k="highway" v="trunk"/>
    <tag k="is_in" v="Spokane, WA"/>
    <tag k="lanes" v="3"/>
    <tag k="name" v="North Division Street"/>
    <tag k="oneway" v="yes"/>
    <tag k="ref" v="US 2;US 395"/>
    <tag k="source" v="Yahoo,TIGER"/>
    <tag k="tiger:source" v="tiger_import_dch_v0.6_20070830"/>
    <tag k="tiger:tlid" v="189867871:189867872"/>
  </way>
  <way id="42022620" version="18" timestamp="2011-10-15T18:11:57Z" uid="207745" user="NE2" changeset="9565655">
    <nd ref="50936649"/>
    <nd ref="1354144412"/>
    <nd ref="50936651"/>
    <nd ref="1354144247"/>
    <nd ref="1354144410"/>
    <nd ref="50936653"/>
    <nd ref="1354226112"/>
    <nd ref="50936656"/>
    <nd ref="1354225758"/>
    <nd ref="50936658"/>
    <nd ref="50936660"/>
    <nd ref="50936662"/>
    <nd ref="50936664"/>
    <nd ref="618354119"/>
    <nd ref="50936667"/>
    <nd ref="50936669"/>
    <nd ref="50936671"/>
    <nd ref="50936673"/>
    <nd ref="50936675"/>
    <tag k="NHS" v="yes"/>
    <tag k="addr:postcode" v="99218"/>
    <tag k="bicycle" v="no"/>
    <tag k="highway" v="trunk"/>
    <tag k="is_in" v="Spokane, WA"/>
    <tag k="lanes" v="3"/>
    <tag k="name" v="North Division Street"/>
    <tag k="oneway" v="yes"/>
    <tag k="ref" v="US 2;US 395"/>
    <tag k="source" v="Yahoo,TIGER"/>
    <tag k="tiger:source" v="tiger_import_dch_v0.6_20070830"/>
    <tag k="tiger:tlid" v="189867871:189867872"/>
  </way>
  <way id="42022620" version="19" timestamp="2011-11-30T16:36:55Z" uid="207745" user="NE2" changeset="10000043">
    <nd ref="50936649"/>
    <nd ref="1354144412"/>
    <nd ref="50936651"/>
    <nd ref="1354144247"/>
    <nd ref="1354144410"/>
    <nd ref="50936653"/>
    <nd ref="1354226112"/>
    <nd ref="50936656"/>
    <nd ref="1354225758"/>
    <nd ref="50936658"/>
    <nd ref="50936660"/>
    <nd ref="50936662"/>
    <nd ref="50936664"/>
    <nd ref="618354119"/>
    <nd ref="50936667"/>
    <nd ref="50936669"/>
    <nd ref="50936671"/>
    <nd ref="50936673"/>
    <nd ref="50936675"/>
    <tag k="NHS" v="yes"/>
    <tag k="addr:postcode" v="99218"/>
    <tag k="bicycle" v="no"/>
    <tag k="hgv" v="designated"/>
    <tag k="hgv:national_network" v="yes"/>
    <tag k="highway" v="trunk"/>
    <tag k="is_in" v="Spokane, WA"/>
    <tag k="lanes" v="3"/>
    <tag k="name" v="North Division Street"/>
    <tag k="oneway" v="yes"/>
    <tag k="ref" v="US 2;US 395"/>
    <tag k="source" v="Yahoo,TIGER"/>
    <tag k="tiger:source" v="tiger_import_dch_v0.6_20070830"/>
    <tag k="tiger:tlid" v="189867871:189867872"/>
  </way>
  <way id="42022642" version="3" timestamp="2011-04-05T23:03:01Z" uid="6269" user="Mueck" changeset="7780144">
    <nd ref="28144543"/>
    <nd ref="1234212302"/>
    <nd ref="1234212276"/>
    <nd ref="521374144"/>
    <nd ref="1234212287"/>
    <nd ref="28144547"/>
    <nd ref="1234212301"/>
    <nd ref="1234212271"/>
    <nd ref="521374134"/>
    <nd ref="1234212254"/>
    <nd ref="1234212268"/>
    <nd ref="28144545"/>
    <nd ref="1234212284"/>
    <nd ref="521374137"/>
    <nd ref="1234212289"/>
    <nd ref="28144549"/>
    <nd ref="1234212286"/>
    <nd ref="1234212277"/>
    <nd ref="521374141"/>
    <nd ref="1234212290"/>
    <nd ref="1234212303"/>
    <nd ref="1234212269"/>
    <nd ref="28144543"/>
    <tag k="bicycle" v="yes"/>
    <tag k="highway" v="footway"/>
  </way>
  <way id="42022704" version="2" timestamp="2009-12-17T22:39:05Z" uid="30201" user="rrankin" changeset="3397356">
    <nd ref="521377272"/>
    <nd ref="60753988"/>
    <nd ref="60753989"/>
    <nd ref="60753990"/>
    <nd ref="60753991"/>
    <nd ref="60753992"/>
    <nd ref="60753995"/>
    <nd ref="60753996"/>
    <nd ref="60753997"/>
    <nd ref="474389448"/>
    <nd ref="60753998"/>
    <nd ref="60753999"/>
    <nd ref="60754000"/>
    <nd ref="60754001"/>
    <nd ref="60754002"/>
    <nd ref="246481426"/>
    <nd ref="60754007"/>
    <nd ref="521377294"/>
    <tag k="highway" v="secondary"/>
    <tag k="name" v="Green Road"/>
  </way>
  <way id="42022704" version="3" timestamp="2009-12-26T06:22:24Z" uid="61114" user="Trav" changeset="3452335">
    <nd ref="521377272"/>
    <nd ref="60753988"/>
    <nd ref="60753989"/>
    <nd ref="60753990"/>
    <nd ref="60753991"/>
    <nd ref="60753992"/>
    <nd ref="60753995"/>
    <nd ref="60753996"/>
    <nd ref="599481019"/>
    <nd ref="60753997"/>
    <nd ref="474389448"/>
    <nd ref="60753998"/>
    <nd ref="60753999"/>
    <nd ref="60754000"/>
    <nd ref="60754001"/>
    <nd ref="60754002"/>
    <nd ref="246481426"/>
    <nd ref="599481377"/>
    <nd ref="60754007"/>
    <nd ref="521377294"/>
    <tag k="highway" v="secondary"/>
    <tag k="name" v="Green Road"/>
  </way>
  <way id="42022704" version="4" timestamp="2009-12-30T15:05:10Z" uid="12203" user="brainwad" changeset="3490623"/>
  <way id="42022705" version="3" timestamp="2009-12-17T22:39:03Z" uid="30201" user="rrankin" changeset="3397356">
    <nd ref="521377255"/>
    <nd ref="521377272"/>
    <nd ref="521377258"/>
    <nd ref="521377260"/>
    <nd ref="521377277"/>
    <nd ref="521377268"/>
    <nd ref="521377250"/>
    <nd ref="521377263"/>
    <nd ref="521377278"/>
    <nd ref="246484317"/>
    <nd ref="521377265"/>
    <nd ref="521377266"/>
    <nd ref="521377275"/>
    <nd ref="521377270"/>
    <nd ref="521377253"/>
    <nd ref="521377255"/>
    <tag k="highway" v="secondary"/>
    <tag k="junction" v="roundabout"/>
    <tag k="name" v="Green Road"/>
    <tag k="source" v="survey"/>
  </way>
  <way id="42022705" version="4" timestamp="2009-12-24T06:13:35Z" uid="7617" user="Franc" changeset="3440125">
    <nd ref="521377255"/>
    <nd ref="521377272"/>
    <nd ref="521377258"/>
    <nd ref="598793222"/>
    <nd ref="521377260"/>
    <nd ref="521377277"/>
    <nd ref="521377268"/>
    <nd ref="521377250"/>
    <nd ref="598793223"/>
    <nd ref="521377263"/>
    <nd ref="521377278"/>
    <nd ref="246484317"/>
    <nd ref="521377265"/>
    <nd ref="521377266"/>
    <nd ref="521377275"/>
    <nd ref="521377270"/>
    <nd ref="521377253"/>
    <nd ref="598793224"/>
    <nd ref="521377255"/>
    <tag k="highway" v="secondary"/>
    <tag k="junction" v="roundabout"/>
    <tag k="source" v="survey"/>
  </way>
  <way id="42022705" version="5" timestamp="2009-12-30T15:05:10Z" uid="12203" user="brainwad" changeset="3490623"/>
  <way id="42022706" version="4" timestamp="2010-01-11T08:27:32Z" uid="7617" user="Franc" changeset="3594095">
    <nd ref="521377282"/>
    <nd ref="601480083"/>
    <nd ref="601480078"/>
    <nd ref="601480079"/>
    <nd ref="601480080"/>
    <nd ref="601480081"/>
    <nd ref="521377284"/>
    <nd ref="601480072"/>
    <nd ref="601480073"/>
    <nd ref="601480082"/>
    <nd ref="601480095"/>
    <nd ref="601480096"/>
    <nd ref="601480097"/>
    <nd ref="601480085"/>
    <nd ref="601480086"/>
    <nd ref="601480084"/>
    <nd ref="521377282"/>
    <tag k="highway" v="secondary"/>
    <tag k="junction" v="roundabout"/>
    <tag k="lanes" v="2"/>
    <tag k="source" v="nearmap"/>
  </way>
  <way id="42022707" version="2" timestamp="2009-12-28T01:59:26Z" uid="30201" user="rrankin" changeset="3468467">
    <nd ref="521377296"/>
    <nd ref="60754009"/>
    <nd ref="60754016"/>
    <nd ref="31928084"/>
    <tag k="highway" v="secondary"/>
    <tag k="name" v="Green Road"/>
  </way>
  <way id="42022707" version="3" timestamp="2009-12-28T10:19:39Z" uid="12203" user="brainwad" changeset="3469979">
    <nd ref="521377296"/>
    <nd ref="60754009"/>
    <nd ref="60754016"/>
    <nd ref="31928084"/>
    <tag k="fixme" v="needs duplication"/>
    <tag k="highway" v="secondary"/>
    <tag k="maxspeed" v="60"/>
    <tag k="name" v="Green Road"/>
  </way>
  <way id="42022707" version="4" timestamp="2009-12-30T15:05:10Z" uid="12203" user="brainwad" changeset="3490623"/>
  <way id="42022046" version="8" timestamp="2012-07-19T09:10:39Z" uid="722137" user="OSMF Redaction Account" changeset="12315382"/>
  <way id="42022620" version="20" timestamp="2012-07-24T09:13:37Z" uid="207745" user="NE2" changeset="12462259">
    <nd ref="50936649"/>
    <nd ref="1354144412"/>
    <nd ref="50936651"/>
    <nd ref="1354144247"/>
    <nd ref="1354144410"/>
    <nd ref="50936653"/>
    <nd ref="1354226112"/>
    <nd ref="50936656"/>
    <nd ref="1354225758"/>
    <nd ref="50936658"/>
    <nd ref="50936660"/>
    <nd ref="50936662"/>
    <nd ref="50936664"/>
    <nd ref="618354119"/>
    <nd ref="50936667"/>
    <nd ref="50936669"/>
    <nd ref="50936671"/>
    <nd ref="50936673"/>
    <nd ref="50936675"/>
    <tag k="addr:postcode" v="99218"/>
    <tag k="bicycle" v="no"/>
    <tag k="hgv" v="designated"/>
    <tag k="hgv:national_network" v="yes"/>
    <tag k="highway" v="trunk"/>
    <tag k="lanes" v="3"/>
    <tag k="name" v="North Division Street"/>
    <tag k="NHS" v="yes"/>
    <tag k="oneway" v="yes"/>
    <tag k="ref" v="US 2;US 395"/>
    <tag k="source" v="Yahoo,TIGER"/>
    <tag k="tiger:source" v="tiger_import_dch_v0.6_20070830"/>
    <tag k="tiger:tlid" v="189867871:189867872"/>
  </way>
  <way id="42022642" version="4" timestamp="2012-04-09T13:08:47Z" uid="442210" user="dwausr" changeset="11238233"/>
  <way id="42022706" version="5" timestamp="2012-07-21T22:16:45Z" uid="722137" user="OSMF Redaction Account" changeset="12421542">
    <nd ref="521377282"/>
    <nd ref="601480083"/>
    <nd ref="601480078"/>
    <nd ref="601480079"/>
    <nd ref="601480080"/>
    <nd ref="601480081"/>
    <nd ref="521377284"/>
    <nd ref="601480072"/>
    <nd ref="601480073"/>
    <nd ref="601480082"/>
    <nd ref="601480095"/>
    <nd ref="601480096"/>
    <nd ref="601480097"/>
    <nd ref="601480085"/>
    <nd ref="601480086"/>
    <nd ref="601480084"/>
    <nd ref="521377282"/>
    <tag k="highway" v="secondary"/>
    <tag k="junction" v="roundabout"/>
    <tag k="lanes" v="2"/>
    <tag k="source" v="neamap"/>
  </way>
</osm>
