<?xml version='1.0' encoding='UTF-8'?>
<osm version="0.6" generator="libosmium/2.20.0">
  <way id="42020029" version="1" timestamp="2009-10-05T08:41:01Z" uid="115477" user="wowik" changeset="2746978">
    <nd ref="521271460"/>
    <nd ref="521271466"/>
    <nd ref="521271447"/>
    <tag k="highway" v="service"/>
    <tag k="service" v="parking_aisle"/>
  </way>
  <way id="42020030" version="1" timestamp="2009-10-05T08:41:01Z" uid="115477" user="wowik" changeset="2746978">
    <nd ref="521271473"/>
    <nd ref="451701260"/>
    <tag k="highway" v="service"/>
    <tag k="service" v="parking_aisle"/>
  </way>
  <way id="42020031" version="1" timestamp="2009-10-05T08:41:02Z" uid="115477" user="wowik" changeset="2746978">
    <nd ref="521271477"/>
    <nd ref="521271480"/>
    <nd ref="521271483"/>
    <nd ref="521271484"/>
    <nd ref="521271477"/>
    <tag k="building" v="yes"/>
  </way>
  <way id="42020031" version="2" timestamp="2009-10-09T04:41:12Z" uid="115477" user="wowik" changeset="2789713">
    <nd ref="521271477"/>
    <nd ref="521271480"/>
    <nd ref="521271483"/>
    <nd ref="521271484"/>
    <nd ref="521271477"/>
    <tag k="addr:city" v="Зеленоград"/>
    <tag k="addr:street" v="Березовая аллея"/>
    <tag k="building" v="yes"/>
    <tag k="is_in" v="Russia"/>
    <tag k="landuse" v="service"/>
  </way>
  <way id="42020031" version="3" timestamp="2009-11-20T19:41:07Z" uid="11132" user="liosha" changeset="3171082">
    <nd ref="521271477"/>
    <nd ref="521271480"/>
    <nd ref="521271483"/>
    <nd ref="521271484"/>
    <nd ref="521271477"/>
    <tag k="addr:city" v="Зеленоград"/>
    <tag k="addr:street" v="Берёзовая аллея"/>
    <tag k="building" v="yes"/>
    <tag k="is_in" v="Russia"/>
    <tag k="landuse" v="service"/>
  </way>
  <way id="42020031" version="4" timestamp="2010-01-20T07:50:51Z" uid="70202" user="physiocrat" changeset="3664602">
    <nd ref="521271477"/>
    <nd ref="521271480"/>
    <nd ref="521271483"/>
    <nd ref="521271484"/>
    <nd ref="521271477"/>
    <tag k="addr:city" v="Зеленоград"/>
    <tag k="addr:street" v="Берёзовая аллея"/>
    <tag k="building" v="yes"/>
    <tag k="cladr:code" v="77000002000084500"/>
    <tag k="is_in" v="Russia"/>
    <tag k="landuse" v="service"/>
  </way>
  <way id="42020031" version="5" timestamp="2010-04-15T17:40:54Z" uid="115477" user="wowik" changeset="4432733">
    <nd ref="521271477"/>
    <nd ref="521271480"/>
    <nd ref="521271483"/>
    <nd ref="521271484"/>
    <nd ref="521271477"/>
    <tag k="addr:city" v="Зеленоград"/>
    <tag k="addr:housenumber" v="6Aс1"/>
    <tag k="addr:street" v="Берёзовая аллея"/>
    <tag k="building" v="yes"/>
    <tag k="cladr:code" v="77000002000084500"/>
    <tag k="is_in" v="Russia"/>
    <tag k="landuse" v="service"/>
  </way>
  <way id="42020031" version="6" timestamp="2010-10-13T17:30:30Z" uid="115477" user="wowik" changeset="6031203">
    <nd ref="521271477"/>
    <nd ref="521271480"/>
    <nd ref="521271483"/>
    <nd ref="521271484"/>
    <nd ref="521271477"/>
    <tag k="addr:city" v="Зеленоград"/>
    <tag k="addr:housenumber" v="6Ас1"/>
    <tag k="addr:street" v="Берёзовая аллея"/>
    <tag k="building" v="yes"/>
    <tag k="building:levels" v="1"/>
    <tag k="cladr:code" v="77000002000084500"/>
    <tag k="is_in" v="Russia"/>
    <tag k="landuse" v="service"/>
  </way>
  <way id="42020031" version="7" timestamp="2011-01-19T18:04:30Z" uid="70696" user="xybot" changeset="7022960">
    <nd ref="521271477"/>
    <nd ref="521271480"/>
    <nd ref="521271483"/>
    <nd ref="521271484"/>
    <nd ref="521271477"/>
    <tag k="addr:city" v="Зеленоград"/>
    <tag k="addr:housenumber" v="6А с1"/>
    <tag k="addr:street" v="Берёзовая аллея"/>
    <tag k="building" v="yes"/>
    <tag k="building:levels" v="1"/>
    <tag k="cladr:code" v="77000002000084500"/>
    <tag k="is_in" v="Russia"/>
    <tag k="landuse" v="service"/>
  </way>
  <way id="42020031" version="8" timestamp="2011-09-13T10:28:12Z" uid="29320" user="Komяpa" changeset="9288237">
    <nd ref="521271477"/>
    <nd ref="521271480"/>
    <nd ref="521271483"/>
    <nd ref="521271484"/>
    <nd ref="521271477"/>
    <tag k="addr:city" v="Зеленоград"/>
    <tag k="addr:country" v="RU"/>
    <tag k="addr:housenumber" v="6А с1"/>
    <tag k="addr:street" v="Берёзовая аллея"/>
    <tag k="building" v="service"/>
    <tag k="building:levels" v="1"/>
    <tag k="cladr:code" v="77000002000084500"/>
  </way>
  <way id="42020031" version="9" timestamp="2011-10-13T06:01:39Z" uid="481934" user="iWowik" changeset="9544394">
    <nd ref="521271477"/>
    <nd ref="521271480"/>
    <nd ref="521271483"/>
    <nd ref="521271484"/>
    <nd ref="521271477"/>
    <tag k="addr:city" v="Зеленоград"/>
    <tag k="addr:country" v="RU"/>
    <tag k="addr:housenumber" v="6А с1"/>
    <tag k="addr:street" v="Берёзовая аллея"/>
    <tag k="building" v="service"/>
    <tag k="building:levels" v="1"/>
    <tag k="cladr:code" v="77000002000084500"/>
    <tag k="power" v="sub_station"/>
  </way>
  <way id="42020031" version="10" timestamp="2012-03-27T11:45:46Z" uid="481934" user="iWowik" changeset="11115472">
    <nd ref="521271477"/>
    <nd ref="521271480"/>
    <nd ref="521271483"/>
    <nd ref="521271484"/>
    <nd ref="521271477"/>
    <tag k="addr:city" v="Зеленоград"/>
    <tag k="addr:country" v="RU"/>
    <tag k="addr:housenumber" v="6А с1"/>
    <tag k="addr:region" v="Москва"/>
    <tag k="addr:street" v="Берёзовая аллея"/>
    <tag k="building" v="service"/>
    <tag k="building:levels" v="1"/>
    <tag k="cladr:code" v="77000002000084500"/>
    <tag k="power" v="sub_station"/>
  </way>
  <way id="42020114" version="3" timestamp="2009-11-17T11:44:33Z" uid="20587" user="balrog-kun" changeset="3139611">
    <nd ref="521274156"/>
    <nd ref="521274162"/>
    <nd ref="521274165"/>
    <nd ref="521274167"/>
    <nd ref="521274170"/>
    <nd ref="521274173"/>
    <nd ref="521517856"/>
    <nd ref="521274186"/>
    <nd ref="521274194"/>
    <nd ref="521274200"/>
    <nd ref="521274206"/>
    <nd ref="521274211"/>
    <nd ref="521274214"/>
    <nd ref="521274218"/>
    <nd ref="521274224"/>
    <nd ref="521256841"/>
    <nd ref="521274229"/>
    <nd ref="521274234"/>
    <nd ref="521274240"/>
    <nd ref="371098395"/>
    <tag k="highway" v="residential"/>
    <tag k="name" v="Lazurowa"/>
  </way>
  <way id="42020114" version="4" timestamp="2011-02-27T18:34:53Z" uid="98542" user="wajak" changeset="7413925">
    <nd ref="521274156"/>
    <nd ref="521274162"/>
    <nd ref="521274165"/>
    <nd ref="521274167"/>
    <nd ref="521274170"/>
    <nd ref="521274173"/>
    <nd ref="521517856"/>
    <nd ref="521274186"/>
    <nd ref="521274194"/>
    <nd ref="521274200"/>
    <nd ref="521274206"/>
    <nd ref="521274211"/>
    <nd ref="521274214"/>
    <nd ref="521274224"/>
    <nd ref="521256841"/>
    <nd ref="521274229"/>
    <nd ref="521274234"/>
    <nd ref="521274240"/>
    <nd ref="371098395"/>
    <tag k="highway" v="residential"/>
    <tag k="name" v="Lazurowa"/>
  </way>
  <way id="42020116" version="2" timestamp="2009-11-17T11:44:33Z" uid="20587" user="balrog-kun" changeset="3139611">
    <nd ref="521274304"/>
    <nd ref="521274310"/>
    <tag k="highway" v="residential"/>
    <tag k="name" v="Olszowa"/>
  </way>
  <way id="42020125" version="1" timestamp="2009-10-05T08:44:16Z" uid="115477" user="wowik" changeset="2746978">
    <nd ref="521275066"/>
    <nd ref="521275070"/>
    <nd ref="521275074"/>
    <nd ref="521275077"/>
    <nd ref="521275066"/>
    <tag k="leisure" v="playground"/>
  </way>
  <way id="42020125" version="2" timestamp="2009-10-09T04:38:27Z" uid="115477" user="wowik" changeset="2789703">
    <nd ref="521275066"/>
    <nd ref="521275070"/>
    <nd ref="526679800"/>
    <nd ref="521275074"/>
    <nd ref="521275077"/>
    <nd ref="521275066"/>
    <tag k="leisure" v="playground"/>
  </way>
  <way id="42020126" version="1" timestamp="2009-10-05T08:44:17Z" uid="115477" user="wowik" changeset="2746978">
    <nd ref="521275055"/>
    <nd ref="521275086"/>
    <nd ref="521275090"/>
    <tag k="bicycle" v="no"/>
    <tag k="foot" v="yes"/>
    <tag k="highway" v="path"/>
    <tag k="motorcar" v="no"/>
    <tag k="surface" v="paved"/>
  </way>
  <way id="42020126" version="2" timestamp="2009-10-09T04:38:27Z" uid="115477" user="wowik" changeset="2789703">
    <nd ref="521275055"/>
    <nd ref="526679803"/>
    <nd ref="521275086"/>
    <nd ref="526679797"/>
    <nd ref="521275090"/>
    <tag k="bicycle" v="no"/>
    <tag k="foot" v="yes"/>
    <tag k="highway" v="path"/>
    <tag k="motorcar" v="no"/>
    <tag k="surface" v="paved"/>
  </way>
  <way id="42020126" version="3" timestamp="2011-02-02T12:19:28Z" uid="115477" user="wowik" changeset="7164040">
    <nd ref="521275055"/>
    <nd ref="526679803"/>
    <nd ref="521275086"/>
    <nd ref="526679797"/>
    <nd ref="1132288579"/>
    <nd ref="521275090"/>
    <tag k="bicycle" v="no"/>
    <tag k="foot" v="yes"/>
    <tag k="highway" v="path"/>
    <tag k="motorcar" v="no"/>
    <tag k="surface" v="paved"/>
  </way>
  <way id="42020127" version="1" timestamp="2009-10-05T08:44:17Z" uid="115477" user="wowik" changeset="2746978">
    <nd ref="521275100"/>
    <nd ref="521275086"/>
    <nd ref="521275051"/>
    <tag k="bicycle" v="no"/>
    <tag k="foot" v="yes"/>
    <tag k="highway" v="path"/>
    <tag k="motorcar" v="no"/>
    <tag k="surface" v="paved"/>
  </way>
  <way id="42020127" version="2" timestamp="2009-10-06T08:24:35Z" uid="115477" user="wowik" changeset="2758264">
    <nd ref="522502945"/>
    <nd ref="521275086"/>
    <nd ref="521275051"/>
    <tag k="bicycle" v="no"/>
    <tag k="foot" v="yes"/>
    <tag k="highway" v="path"/>
    <tag k="motorcar" v="no"/>
    <tag k="surface" v="paved"/>
  </way>
  <way id="42020127" version="3" timestamp="2009-10-09T04:38:27Z" uid="115477" user="wowik" changeset="2789703">
    <nd ref="522502945"/>
    <nd ref="526679818"/>
    <nd ref="526679799"/>
    <nd ref="521275086"/>
    <nd ref="526679801"/>
    <nd ref="521275051"/>
    <tag k="bicycle" v="no"/>
    <tag k="foot" v="yes"/>
    <tag k="highway" v="path"/>
    <tag k="motorcar" v="no"/>
    <tag k="surface" v="paved"/>
  </way>
  <way id="42020128" version="1" timestamp="2009-10-05T08:44:18Z" uid="115477" user="wowik" changeset="2746978">
    <nd ref="521275105"/>
    <nd ref="521275111"/>
    <nd ref="521275113"/>
    <nd ref="451707355"/>
    <tag k="bicycle" v="no"/>
    <tag k="foot" v="yes"/>
    <tag k="highway" v="path"/>
    <tag k="motorcar" v="no"/>
    <tag k="surface" v="paved"/>
  </way>
  <way id="42020128" version="2" timestamp="2009-10-05T10:38:06Z" uid="115477" user="wowik" changeset="2748291">
    <nd ref="521404119"/>
    <nd ref="521275105"/>
    <nd ref="521275111"/>
    <nd ref="521275113"/>
    <nd ref="451707355"/>
    <tag k="bicycle" v="yes"/>
    <tag k="foot" v="yes"/>
    <tag k="highway" v="path"/>
    <tag k="motorcar" v="no"/>
    <tag k="surface" v="paved"/>
  </way>
  <way id="42020128" version="3" timestamp="2009-10-07T11:46:24Z" uid="115477" user="wowik" changeset="2770621">
    <nd ref="521404119"/>
    <nd ref="521275105"/>
    <nd ref="521275111"/>
    <nd ref="521275113"/>
    <nd ref="451707355"/>
    <tag k="bicycle" v="yes"/>
    <tag k="foot" v="yes"/>
    <tag k="highway" v="footway"/>
    <tag k="motorcar" v="no"/>
    <tag k="surface" v="paved"/>
  </way>
  <way id="42020128" version="4" timestamp="2009-10-07T11:46:40Z" uid="115477" user="wowik" changeset="2770621">
    <nd ref="521404119"/>
    <nd ref="521275105"/>
    <nd ref="521275111"/>
    <nd ref="524074161"/>
    <nd ref="521275113"/>
    <nd ref="451707355"/>
    <tag k="bicycle" v="yes"/>
    <tag k="foot" v="yes"/>
    <tag k="highway" v="footway"/>
    <tag k="motorcar" v="no"/>
    <tag k="surface" v="paved"/>
  </way>
  <way id="42020128" version="5" timestamp="2009-10-09T04:38:25Z" uid="115477" user="wowik" changeset="2789703">
    <nd ref="521404119"/>
    <nd ref="521275105"/>
    <nd ref="521275111"/>
    <nd ref="524074161"/>
    <nd ref="526679815"/>
    <nd ref="521275113"/>
    <nd ref="451707355"/>
    <tag k="bicycle" v="yes"/>
    <tag k="foot" v="yes"/>
    <tag k="highway" v="footway"/>
    <tag k="motorcar" v="no"/>
    <tag k="surface" v="paved"/>
  </way>
  <way id="42020128" version="6" timestamp="2009-10-09T08:37:04Z" uid="70742" user="Ezhick" changeset="2791215">
    <nd ref="521404119"/>
    <nd ref="521275105"/>
    <nd ref="521275111"/>
    <nd ref="524074161"/>
    <nd ref="526679815"/>
    <nd ref="526824422"/>
    <nd ref="521275113"/>
    <nd ref="451707355"/>
    <tag k="bicycle" v="yes"/>
    <tag k="foot" v="yes"/>
    <tag k="highway" v="footway"/>
    <tag k="motorcar" v="no"/>
    <tag k="surface" v="paved"/>
  </way>
  <way id="42020128" version="7" timestamp="2011-01-14T11:07:08Z" uid="115477" user="wowik" changeset="6966068">
    <nd ref="521404119"/>
    <nd ref="1103089651"/>
    <tag k="bicycle" v="yes"/>
    <tag k="foot" v="yes"/>
    <tag k="highway" v="footway"/>
    <tag k="motorcar" v="no"/>
    <tag k="surface" v="paved"/>
  </way>
  <way id="42020128" version="8" timestamp="2011-09-11T19:19:18Z" uid="518169" user="kosatov" changeset="9274152">
    <nd ref="521404119"/>
    <nd ref="1103089651"/>
    <tag k="foot" v="yes"/>
    <tag k="highway" v="footway"/>
    <tag k="motorcar" v="no"/>
    <tag k="surface" v="paved"/>
  </way>
  <way id="42020188" version="2" timestamp="2010-03-28T11:00:01Z" uid="20587" user="balrog-kun" changeset="4254597">
    <nd ref="65462357"/>
    <nd ref="521276848"/>
    <nd ref="521276853"/>
    <nd ref="521276859"/>
    <nd ref="521276863"/>
    <nd ref="65462359"/>
    <nd ref="521276873"/>
    <nd ref="521276877"/>
    <nd ref="65447089"/>
    <nd ref="521276880"/>
    <nd ref="521276883"/>
    <nd ref="521276884"/>
    <nd ref="521276885"/>
    <nd ref="521276886"/>
    <nd ref="521276889"/>
    <nd ref="521276891"/>
    <nd ref="521276894"/>
    <nd ref="521276895"/>
    <nd ref="521276896"/>
    <nd ref="521276897"/>
    <nd ref="521276898"/>
    <nd ref="521276899"/>
    <tag k="highway" v="residential"/>
    <tag k="name" v="Ravine Road"/>
    <tag k="tiger:cfcc" v="A41"/>
    <tag k="tiger:county" v="Santa Clara, CA"/>
    <tag k="tiger:name_base" v="Ravine"/>
    <tag k="tiger:name_type" v="Rd"/>
    <tag k="tiger:reviewed" v="no"/>
    <tag k="tiger:separated" v="no"/>
    <tag k="tiger:source" v="tiger_import_dch_v0.6_20070809"/>
    <tag k="tiger:tlid" v="123021541:123001788:122943397"/>
    <tag k="tiger:zip_left" v="95030"/>
    <tag k="tiger:zip_right" v="95030"/>
  </way>
  <way id="42020227" version="2" timestamp="2010-05-03T04:23:44Z" uid="4467" user="Rosscoe" changeset="4591659">
    <nd ref="521273031"/>
    <nd ref="521278768"/>
    <nd ref="521278772"/>
    <tag k="4wd_only" v="yes"/>
    <tag k="highway" v="unclassified"/>
    <tag k="name" v="Pioneer Track"/>
  </way>
  <way id="42020832" version="2" timestamp="2010-03-28T11:00:01Z" uid="20587" user="balrog-kun" changeset="4254597">
    <nd ref="521304877"/>
    <nd ref="521304882"/>
    <nd ref="521304887"/>
    <nd ref="521304890"/>
    <tag k="FIXME" v="Wildcat Rd or Madrone Hill Rd?"/>
    <tag k="highway" v="residential"/>
    <tag k="name" v="Wildcat Rd; Madrone Hill Road"/>
    <tag k="tiger:cfcc" v="A41"/>
    <tag k="tiger:county" v="Santa Clara, CA"/>
    <tag k="tiger:name_base" v="Wildcat; Madrone Hill"/>
    <tag k="tiger:name_type" v="Rd"/>
    <tag k="tiger:reviewed" v="no"/>
    <tag k="tiger:separated" v="no"/>
    <tag k="tiger:source" v="tiger_import_dch_v0.6_20070809"/>
    <tag k="tiger:tlid" v="123181006:122943067; 122943069"/>
    <tag k="tiger:zip_left" v="95070"/>
    <tag k="tiger:zip_right" v="95070"/>
  </way>
  <way id="42020909" version="2" timestamp="2009-11-16T17:08:17Z" uid="20587" user="balrog-kun" changeset="3133664">
    <nd ref="521307314"/>
    <nd ref="521307297"/>
    <tag k="highway" v="residential"/>
    <tag k="name" v="Armii Polskiej"/>
  </way>
  <way id="42020909" version="3" timestamp="2009-11-17T10:50:02Z" uid="20587" user="balrog-kun" changeset="3139611">
    <nd ref="521307314"/>
    <nd ref="521307297"/>
    <tag k="highway" v="residential"/>
    <tag k="name" v="Armii Polskiej"/>
  </way>
  <way id="42020029" version="2" timestamp="2012-07-20T22:17:31Z" uid="722137" user="OSMF Redaction Account" changeset="12394539"/>
  <way id="42020030" version="2" timestamp="2012-07-20T22:17:32Z" uid="722137" user="OSMF Redaction Account" changeset="12394539"/>
  <way id="42020031" version="11" timestamp="2012-07-20T22:17:58Z" uid="722137" user="OSMF Redaction Account" changeset="12394559"/>
  <way id="42020114" version="5" timestamp="2012-07-30T16:48:54Z" uid="186174" user="michal_f" changeset="12550515">
    <nd ref="1259626256"/>
    <nd ref="521274156"/>
    <nd ref="521274162"/>
    <nd ref="521274165"/>
    <nd ref="521274167"/>
    <nd ref="521274170"/>
    <nd ref="521274173"/>
    <nd ref="521517856"/>
    <nd ref="521274186"/>
    <nd ref="521274194"/>
    <nd ref="521274200"/>
    <nd ref="521274206"/>
    <nd ref="521274211"/>
    <nd ref="521274214"/>
    <nd ref="521274224"/>
    <nd ref="521256841"/>
    <nd ref="521274229"/>
    <nd ref="521274234"/>
    <nd ref="521274240"/>
    <nd ref="371098395"/>
    <tag k="highway" v="residential"/>
    <tag k="name" v="Lazurowa"/>
  </way>
  <way id="42020114" version="6" timestamp="2012-08-01T20:41:22Z" uid="186174" user="michal_f" changeset="12578678">
    <nd ref="1259626256"/>
    <nd ref="1847347935"/>
    <nd ref="521274162"/>
    <nd ref="521274165"/>
    <nd ref="521274170"/>
    <nd ref="1847347950"/>
    <nd ref="521274173"/>
    <nd ref="521517856"/>
    <nd ref="521274186"/>
    <nd ref="521274194"/>
    <nd ref="521274200"/>
    <nd ref="521274206"/>
    <nd ref="521274211"/>
    <nd ref="521274214"/>
    <nd ref="521274224"/>
    <nd ref="521256841"/>
    <nd ref="521274229"/>
    <nd ref="521274234"/>
    <nd ref="521274240"/>
    <nd ref="371098395"/>
    <tag k="highway" v="residential"/>
    <tag k="name" v="Lazurowa"/>
  </way>
  <way id="42020114" version="7" timestamp="2012-08-15T15:39:25Z" uid="98542" user="wajak" changeset="12740529">
    <nd ref="1259626256"/>
    <nd ref="1847347935"/>
    <nd ref="521274162"/>
    <nd ref="521274165"/>
    <nd ref="521274170"/>
    <nd ref="1847347950"/>
    <nd ref="521274173"/>
    <nd ref="521517856"/>
    <nd ref="521274186"/>
    <nd ref="521274194"/>
    <nd ref="521274200"/>
    <nd ref="521274206"/>
    <nd ref="521274211"/>
    <nd ref="1867496520"/>
    <nd ref="521274214"/>
    <nd ref="521274224"/>
    <nd ref="521256841"/>
    <nd ref="521274240"/>
    <nd ref="1867496522"/>
    <nd ref="371098395"/>
    <tag k="highway" v="residential"/>
    <tag k="name" v="Lazurowa"/>
  </way>
  <way id="42020125" version="3" timestamp="2012-07-20T22:18:14Z" uid="722137" user="OSMF Redaction Account" changeset="12394559"/>
  <way id="42020126" version="4" timestamp="2012-07-20T22:18:15Z" uid="722137" user="OSMF Redaction Account" changeset="12394559"/>
  <way id="42020127" version="4" timestamp="2012-07-20T22:18:09Z" uid="722137" user="OSMF Redaction Account" changeset="12394559"/>
  <way id="42020128" version="9" timestamp="2012-07-20T22:18:19Z" uid="722137" user="OSMF Redaction Account" changeset="12394559"/>
  <way id="42020227" version="3" timestamp="2012-07-19T08:49:07Z" uid="722137" user="OSMF Redaction Account" changeset="12314596">
    <nd ref="521273031"/>
    <nd ref="521278768"/>
    <nd ref="521278772"/>
    <tag k="highway" v="unclassified"/>
    <tag k="name" v="Pioneer Track"/>
  </way>
</osm>
