<?xml version='1.0' encoding='UTF-8'?>
<osm version="0.6" generator="libosmium/2.20.0">
  <way id="42030000" version="1" timestamp="2009-10-05T13:33:13Z" uid="43967" user="railsnail" changeset="2750032">
    <nd ref="521593128"/>
    <nd ref="521593127"/>
    <tag k="waterway" v="stream"/>
  </way>
  <way id="42030000" version="2" timestamp="2010-07-01T09:30:53Z" uid="54806" user="_al" changeset="5119104">
    <nd ref="797989953"/>
    <nd ref="797989963"/>
    <nd ref="521593128"/>
    <nd ref="521470950"/>
    <tag k="admin_level" v="8"/>
    <tag k="boundary" v="administrative"/>
    <tag k="waterway" v="stream"/>
  </way>
  <way id="42030000" version="3" timestamp="2011-01-04T11:03:01Z" uid="380464" user="Gipfelstuermerin" changeset="6859138">
    <nd ref="797989953"/>
    <nd ref="797989963"/>
    <nd ref="521593128"/>
    <tag k="admin_level" v="8"/>
    <tag k="boundary" v="administrative"/>
    <tag k="waterway" v="stream"/>
  </way>
  <way id="42030000" version="4" timestamp="2011-01-04T12:11:31Z" uid="380464" user="Gipfelstuermerin" changeset="6859524">
    <nd ref="797989953"/>
    <nd ref="797989963"/>
    <nd ref="521593128"/>
    <tag k="admin_level" v="8"/>
    <tag k="boundary" v="administrative"/>
  </way>
  <way id="42030000" version="5" timestamp="2012-03-22T22:38:14Z" uid="45481" user="borisC" changeset="11068690"/>
  <way id="42030836" version="4" timestamp="2011-03-06T14:05:29Z" uid="171838" user="argrath" changeset="7473528">
    <nd ref="521627416"/>
    <nd ref="521627625"/>
    <nd ref="521617101"/>
    <nd ref="521617102"/>
    <nd ref="521617103"/>
    <nd ref="521617104"/>
    <nd ref="521617105"/>
    <tag k="highway" v="trunk"/>
    <tag k="name" v="能勢街道 (Nose Kaido)"/>
    <tag k="oneway" v="yes"/>
    <tag k="ref" v="173"/>
    <tag k="source" v="Bing"/>
  </way>
  <way id="42030836" version="5" timestamp="2011-08-18T01:05:23Z" uid="495067" user="osapon" changeset="9053152">
    <nd ref="521627416"/>
    <nd ref="1402841781"/>
    <nd ref="521627625"/>
    <nd ref="521617101"/>
    <nd ref="521617102"/>
    <nd ref="521617103"/>
    <nd ref="521617104"/>
    <nd ref="521617105"/>
    <tag k="highway" v="trunk"/>
    <tag k="name" v="能勢街道 (Nose Kaido)"/>
    <tag k="oneway" v="yes"/>
    <tag k="ref" v="173"/>
    <tag k="source" v="Bing"/>
  </way>
  <way id="42030836" version="6" timestamp="2012-04-06T12:55:23Z" uid="495067" user="osapon" changeset="11201337">
    <nd ref="521627416"/>
    <nd ref="1402841781"/>
    <nd ref="521627625"/>
    <nd ref="521617101"/>
    <nd ref="521617102"/>
    <nd ref="521617103"/>
    <nd ref="521617104"/>
    <tag k="highway" v="trunk"/>
    <tag k="lanes" v="1"/>
    <tag k="maxspeed" v="40"/>
    <tag k="name" v="能勢街道 (Nose Kaido)"/>
    <tag k="oneway" v="yes"/>
    <tag k="ref" v="173"/>
    <tag k="source" v="Bing"/>
  </way>
  <way id="42030836" version="7" timestamp="2012-07-21T10:04:52Z" uid="722137" user="OSMF Redaction Account" changeset="12405453">
    <nd ref="1402841781"/>
    <nd ref="521627625"/>
    <nd ref="521617101"/>
    <nd ref="521617102"/>
    <nd ref="521617103"/>
    <nd ref="521617104"/>
    <tag k="highway" v="trunk"/>
    <tag k="lanes" v="1"/>
    <tag k="maxspeed" v="40"/>
    <tag k="name" v="能勢街道 (Nose Kaido)"/>
    <tag k="oneway" v="yes"/>
    <tag k="ref" v="173"/>
  </way>
  <way id="42030836" version="8" timestamp="2012-08-11T14:30:56Z" uid="495067" user="osapon" changeset="12691935"/>
</osm>
