<?xml version='1.0' encoding='UTF-8'?>
<osm version="0.6" generator="libosmium/2.20.0">
  <way id="4205145" version="5" timestamp="2008-08-30T11:10:46Z" uid="6269" user="Mueck" changeset="462414">
    <nd ref="24859645"/>
    <nd ref="14959803"/>
    <nd ref="25967662"/>
    <tag k="created_by" v="Potlatch 0.10b"/>
    <tag k="highway" v="service"/>
    <tag k="name" v="Grabener Allee"/>
  </way>
  <way id="4205145" version="6" timestamp="2009-04-09T21:01:40Z" uid="97563" user="Unmapped" changeset="391103">
    <nd ref="24859645"/>
    <nd ref="14959803"/>
    <nd ref="25967662"/>
    <tag k="bicycle" v="yes"/>
    <tag k="created_by" v="Potlatch 0.10f"/>
    <tag k="foot" v="yes"/>
    <tag k="highway" v="service"/>
    <tag k="name" v="Grabener Allee"/>
  </way>
  <way id="4205145" version="7" timestamp="2009-04-22T19:19:22Z" uid="6269" user="Mueck" changeset="904745">
    <nd ref="14954717"/>
    <nd ref="310356152"/>
    <nd ref="381079553"/>
    <nd ref="258538735"/>
    <nd ref="24859645"/>
    <nd ref="14959803"/>
    <nd ref="25967662"/>
    <tag k="bicycle" v="yes"/>
    <tag k="created_by" v="Potlatch 0.10f; Potlatch 0.10b"/>
    <tag k="foot" v="yes"/>
    <tag k="highway" v="service"/>
    <tag k="motor_vehicle" v="destination"/>
    <tag k="name" v="Grabener Allee"/>
  </way>
  <way id="4205145" version="8" timestamp="2009-04-22T19:20:14Z" uid="6269" user="Mueck" changeset="904745">
    <nd ref="14954717"/>
    <nd ref="310356152"/>
    <nd ref="381079553"/>
    <nd ref="258538735"/>
    <nd ref="24859645"/>
    <nd ref="14959803"/>
    <nd ref="25967662"/>
    <tag k="bicycle" v="yes"/>
    <tag k="created_by" v="Potlatch 0.10f; Potlatch 0.10b"/>
    <tag k="foot" v="yes"/>
    <tag k="highway" v="service"/>
    <tag k="motor_vehicle" v="destination"/>
    <tag k="name" v="Grabener Allee"/>
    <tag k="smoothness" v="good"/>
    <tag k="surface" v="asphalt"/>
  </way>
  <way id="4205145" version="9" timestamp="2009-06-19T13:01:49Z" uid="85761" user="klausis" changeset="1564619">
    <nd ref="14954717"/>
    <nd ref="310356152"/>
    <nd ref="381079553"/>
    <nd ref="258538735"/>
    <nd ref="24859645"/>
    <nd ref="14959803"/>
    <nd ref="25967662"/>
    <tag k="bicycle" v="yes"/>
    <tag k="foot" v="yes"/>
    <tag k="highway" v="service"/>
    <tag k="motor_vehicle" v="destination"/>
    <tag k="name" v="Grabener Allee"/>
    <tag k="smoothness" v="good"/>
    <tag k="surface" v="asphalt"/>
  </way>
  <way id="4205145" version="10" timestamp="2009-12-28T01:29:33Z" uid="176080" user="s4l0m0n" changeset="3468381"/>
  <way id="4205146" version="3" timestamp="2008-08-30T11:12:39Z" uid="6269" user="Mueck" changeset="462414">
    <nd ref="24859648"/>
    <nd ref="14954717"/>
    <tag k="created_by" v="Potlatch 0.10b"/>
    <tag k="highway" v="service"/>
    <tag k="name" v="Grabener Allee"/>
  </way>
  <way id="4205146" version="4" timestamp="2008-08-30T11:12:43Z" uid="6269" user="Mueck" changeset="462414">
    <nd ref="14954718"/>
    <nd ref="24951993"/>
    <nd ref="24859648"/>
    <nd ref="14954717"/>
    <tag k="created_by" v="Potlatch 0.10b"/>
    <tag k="highway" v="service"/>
    <tag k="name" v="Grabener Allee"/>
  </way>
  <way id="4205146" version="5" timestamp="2008-08-30T11:19:44Z" uid="6269" user="Mueck" changeset="462414">
    <nd ref="14954718"/>
    <nd ref="24951993"/>
    <nd ref="24859648"/>
    <nd ref="14954717"/>
    <tag k="created_by" v="Potlatch 0.10b"/>
    <tag k="highway" v="track"/>
    <tag k="name" v="Grabener Allee"/>
    <tag k="tracktype" v="grade1"/>
  </way>
  <way id="4205146" version="6" timestamp="2008-11-07T09:40:50Z" uid="16330" user="aluka" changeset="701923">
    <nd ref="14954718"/>
    <nd ref="24951993"/>
    <nd ref="24859648"/>
    <nd ref="310355174"/>
    <nd ref="14954717"/>
    <tag k="created_by" v="Potlatch 0.10b"/>
    <tag k="highway" v="track"/>
    <tag k="name" v="Grabener Allee"/>
    <tag k="tracktype" v="grade1"/>
  </way>
  <way id="4205146" version="7" timestamp="2009-04-09T21:20:26Z" uid="97563" user="Unmapped" changeset="391103">
    <nd ref="14954718"/>
    <nd ref="24951993"/>
    <nd ref="24859648"/>
    <nd ref="310355174"/>
    <nd ref="14954717"/>
    <tag k="bicycle" v="yes"/>
    <tag k="created_by" v="Potlatch 0.10f"/>
    <tag k="foot" v="yes"/>
    <tag k="highway" v="track"/>
    <tag k="name" v="Grabener Allee"/>
    <tag k="tracktype" v="grade1"/>
  </way>
  <way id="4205146" version="8" timestamp="2009-06-19T13:01:48Z" uid="85761" user="klausis" changeset="1564619">
    <nd ref="14954718"/>
    <nd ref="24951993"/>
    <nd ref="24859648"/>
    <nd ref="310355174"/>
    <nd ref="14954717"/>
    <tag k="bicycle" v="yes"/>
    <tag k="foot" v="yes"/>
    <tag k="highway" v="track"/>
    <tag k="name" v="Grabener Allee"/>
    <tag k="tracktype" v="grade1"/>
  </way>
  <way id="4205146" version="9" timestamp="2009-12-28T01:29:32Z" uid="176080" user="s4l0m0n" changeset="3468381">
    <nd ref="14954718"/>
    <nd ref="24951993"/>
    <nd ref="24859648"/>
    <nd ref="310355174"/>
    <nd ref="14954717"/>
    <nd ref="310356152"/>
    <nd ref="381079553"/>
    <nd ref="258538735"/>
    <nd ref="24859645"/>
    <nd ref="14959803"/>
    <nd ref="25967662"/>
    <tag k="bicycle" v="yes"/>
    <tag k="foot" v="yes"/>
    <tag k="highway" v="track;service"/>
    <tag k="motor_vehicle" v="destination"/>
    <tag k="name" v="Grabener Allee"/>
    <tag k="smoothness" v="good"/>
    <tag k="surface" v="asphalt"/>
    <tag k="tracktype" v="grade1"/>
  </way>
  <way id="4205146" version="10" timestamp="2010-01-01T18:05:27Z" uid="6269" user="Mueck" changeset="3512398">
    <nd ref="14954718"/>
    <nd ref="24951993"/>
    <nd ref="24859648"/>
    <nd ref="310355174"/>
    <nd ref="14954717"/>
    <tag k="bicycle" v="yes"/>
    <tag k="foot" v="yes"/>
    <tag k="highway" v="track;service"/>
    <tag k="motor_vehicle" v="destination"/>
    <tag k="name" v="Grabener Allee"/>
    <tag k="smoothness" v="good"/>
    <tag k="surface" v="asphalt"/>
    <tag k="tracktype" v="grade1"/>
  </way>
  <way id="4205146" version="11" timestamp="2010-01-01T18:06:16Z" uid="6269" user="Mueck" changeset="3512398">
    <nd ref="14954718"/>
    <nd ref="24951993"/>
    <nd ref="24859648"/>
    <nd ref="310355174"/>
    <nd ref="14954717"/>
    <tag k="bicycle" v="yes"/>
    <tag k="foot" v="yes"/>
    <tag k="highway" v="service"/>
    <tag k="motor_vehicle" v="destination"/>
    <tag k="name" v="Grabener Allee"/>
    <tag k="smoothness" v="good"/>
    <tag k="surface" v="asphalt"/>
    <tag k="tracktype" v="grade1"/>
  </way>
  <way id="4205146" version="12" timestamp="2010-01-01T18:07:00Z" uid="6269" user="Mueck" changeset="3512398"/>
</osm>
