<?xml version='1.0' encoding='UTF-8'?>
<osm version="0.6" generator="libosmium/2.20.0">
  <way id="42139162" version="1" timestamp="2009-10-07T13:34:22Z" uid="115477" user="wowik" changeset="2771590">
    <nd ref="524187336"/>
    <nd ref="524187339"/>
    <nd ref="524187340"/>
    <nd ref="524187341"/>
    <nd ref="524187348"/>
    <nd ref="524187349"/>
    <nd ref="524187336"/>
    <tag k="leisure" v="playground"/>
  </way>
  <way id="42139163" version="1" timestamp="2009-10-07T13:34:22Z" uid="115477" user="wowik" changeset="2771590">
    <nd ref="524187352"/>
    <nd ref="524187355"/>
    <tag k="highway" v="service"/>
    <tag k="living_street" v="yes"/>
    <tag k="service" v="parking_aisle"/>
  </way>
  <way id="42139164" version="1" timestamp="2009-10-07T13:34:23Z" uid="115477" user="wowik" changeset="2771590">
    <nd ref="524187357"/>
    <nd ref="524187359"/>
    <nd ref="524187365"/>
    <nd ref="524187366"/>
    <nd ref="524187357"/>
    <tag k="leisure" v="playground"/>
  </way>
  <way id="42139165" version="1" timestamp="2009-10-07T13:34:23Z" uid="115477" user="wowik" changeset="2771590">
    <nd ref="524187369"/>
    <nd ref="524187371"/>
    <nd ref="524187373"/>
    <nd ref="524187375"/>
    <nd ref="524187369"/>
    <tag k="leisure" v="playground"/>
  </way>
  <way id="42139166" version="1" timestamp="2009-10-07T13:34:24Z" uid="115477" user="wowik" changeset="2771590">
    <nd ref="524187378"/>
    <nd ref="524187388"/>
    <nd ref="524187390"/>
    <nd ref="524187394"/>
    <nd ref="524187378"/>
    <tag k="leisure" v="sports_centre"/>
  </way>
  <way id="42139166" version="2" timestamp="2009-10-08T16:16:02Z" uid="115477" user="wowik" changeset="2784738">
    <nd ref="524187378"/>
    <nd ref="524187388"/>
    <nd ref="524187390"/>
    <nd ref="524187394"/>
    <nd ref="524187378"/>
    <tag k="leisure" v="playground"/>
  </way>
  <way id="42139167" version="1" timestamp="2009-10-07T13:34:25Z" uid="115477" user="wowik" changeset="2771590">
    <nd ref="524187411"/>
    <nd ref="524187415"/>
    <nd ref="524187419"/>
    <nd ref="524187421"/>
    <nd ref="524187411"/>
    <tag k="leisure" v="sports_centre"/>
  </way>
  <way id="42139167" version="2" timestamp="2009-10-09T05:13:39Z" uid="115477" user="wowik" changeset="2789814">
    <nd ref="524187411"/>
    <nd ref="524187415"/>
    <nd ref="524187419"/>
    <nd ref="524187421"/>
    <nd ref="524187411"/>
    <tag k="leisure" v="pitch"/>
  </way>
  <way id="42139168" version="1" timestamp="2009-10-07T13:34:26Z" uid="115477" user="wowik" changeset="2771590">
    <nd ref="524187428"/>
    <nd ref="524187430"/>
    <nd ref="524187438"/>
    <nd ref="524187439"/>
    <nd ref="524187444"/>
    <nd ref="524187446"/>
    <nd ref="524187428"/>
    <tag k="leisure" v="playground"/>
  </way>
  <way id="42139169" version="1" timestamp="2009-10-07T13:34:27Z" uid="115477" user="wowik" changeset="2771590">
    <nd ref="524187458"/>
    <nd ref="524187470"/>
    <nd ref="524187476"/>
    <nd ref="524187484"/>
    <nd ref="524187458"/>
    <tag k="addr:city" v="Зеленоград"/>
    <tag k="addr:street" v="3-й микрорайон"/>
    <tag k="building" v="yes"/>
    <tag k="is_in" v="Russia"/>
    <tag k="landuse" v="service"/>
  </way>
  <way id="42139169" version="2" timestamp="2009-11-21T05:33:49Z" uid="11132" user="liosha" changeset="3173482">
    <nd ref="524187458"/>
    <nd ref="524187470"/>
    <nd ref="524187476"/>
    <nd ref="524187484"/>
    <nd ref="524187458"/>
    <tag k="addr:city" v="Зеленоград"/>
    <tag k="addr:street" v="3-й Микрорайон"/>
    <tag k="building" v="yes"/>
    <tag k="is_in" v="Russia"/>
    <tag k="landuse" v="service"/>
  </way>
  <way id="42139169" version="3" timestamp="2010-12-20T15:31:26Z" uid="115477" user="wowik" changeset="6716973">
    <nd ref="524187458"/>
    <nd ref="524187470"/>
    <nd ref="524187476"/>
    <nd ref="524187484"/>
    <nd ref="524187458"/>
    <tag k="addr:city" v="Зеленоград"/>
    <tag k="addr:street" v="3-й Микрорайон"/>
    <tag k="building" v="yes"/>
    <tag k="building:levels" v="1"/>
    <tag k="is_in" v="Russia"/>
    <tag k="landuse" v="service"/>
  </way>
  <way id="42139169" version="4" timestamp="2011-01-12T16:45:10Z" uid="115477" user="wowik" changeset="6948926">
    <nd ref="524187458"/>
    <nd ref="524187470"/>
    <nd ref="524187476"/>
    <nd ref="524187484"/>
    <nd ref="524187458"/>
    <tag k="addr:city" v="Зеленоград"/>
    <tag k="addr:postcode" v="124482"/>
    <tag k="addr:street" v="3-й Микрорайон"/>
    <tag k="building" v="yes"/>
    <tag k="building:levels" v="1"/>
    <tag k="is_in" v="Russia"/>
    <tag k="landuse" v="service"/>
  </way>
  <way id="42139169" version="5" timestamp="2011-06-07T20:49:36Z" uid="133332" user="AMDmi3" changeset="8374030">
    <nd ref="524187458"/>
    <nd ref="524187470"/>
    <nd ref="524187476"/>
    <nd ref="524187484"/>
    <nd ref="524187458"/>
    <tag k="addr:city" v="Зеленоград"/>
    <tag k="addr:postcode" v="124482"/>
    <tag k="addr:street" v="3-й микрорайон"/>
    <tag k="building" v="yes"/>
    <tag k="building:levels" v="1"/>
    <tag k="is_in" v="Russia"/>
    <tag k="landuse" v="service"/>
  </way>
  <way id="42139169" version="6" timestamp="2011-09-13T10:35:49Z" uid="29320" user="Komяpa" changeset="9288237">
    <nd ref="524187458"/>
    <nd ref="524187470"/>
    <nd ref="524187476"/>
    <nd ref="524187484"/>
    <nd ref="524187458"/>
    <tag k="addr:city" v="Зеленоград"/>
    <tag k="addr:country" v="RU"/>
    <tag k="addr:postcode" v="124482"/>
    <tag k="addr:street" v="3-й микрорайон"/>
    <tag k="building" v="service"/>
    <tag k="building:levels" v="1"/>
  </way>
  <way id="42139169" version="7" timestamp="2011-10-28T10:30:24Z" uid="481934" user="iWowik" changeset="9675133">
    <nd ref="524187458"/>
    <nd ref="524187470"/>
    <nd ref="524187476"/>
    <nd ref="524187484"/>
    <nd ref="524187458"/>
    <tag k="addr:city" v="Зеленоград"/>
    <tag k="addr:country" v="RU"/>
    <tag k="addr:postcode" v="124482"/>
    <tag k="addr:street" v="3-й Микрорайон"/>
    <tag k="building" v="service"/>
    <tag k="building:levels" v="1"/>
  </way>
  <way id="42139169" version="8" timestamp="2011-11-14T20:35:50Z" uid="133332" user="AMDmi3" changeset="9828527">
    <nd ref="524187458"/>
    <nd ref="524187470"/>
    <nd ref="524187476"/>
    <nd ref="524187484"/>
    <nd ref="524187458"/>
    <tag k="addr:city" v="Зеленоград"/>
    <tag k="addr:country" v="RU"/>
    <tag k="addr:postcode" v="124482"/>
    <tag k="addr:street" v="3-й микрорайон"/>
    <tag k="building" v="service"/>
    <tag k="building:levels" v="1"/>
  </way>
  <way id="42139169" version="9" timestamp="2012-03-27T11:50:10Z" uid="481934" user="iWowik" changeset="11115472">
    <nd ref="524187458"/>
    <nd ref="524187470"/>
    <nd ref="524187476"/>
    <nd ref="524187484"/>
    <nd ref="524187458"/>
    <tag k="addr:city" v="Зеленоград"/>
    <tag k="addr:country" v="RU"/>
    <tag k="addr:postcode" v="124482"/>
    <tag k="addr:region" v="Москва"/>
    <tag k="addr:street" v="3-й микрорайон"/>
    <tag k="building" v="service"/>
    <tag k="building:levels" v="1"/>
  </way>
  <way id="42139179" version="1" timestamp="2009-10-07T13:34:28Z" uid="115477" user="wowik" changeset="2771590">
    <nd ref="524187498"/>
    <nd ref="524187502"/>
    <nd ref="524187505"/>
    <nd ref="524187508"/>
    <nd ref="524187510"/>
    <nd ref="524187511"/>
    <nd ref="524187512"/>
    <nd ref="524187514"/>
    <nd ref="524187498"/>
    <tag k="leisure" v="playground"/>
  </way>
  <way id="42139179" version="2" timestamp="2009-10-30T12:40:55Z" uid="115477" user="wowik" changeset="2988799">
    <nd ref="524187498"/>
    <nd ref="546231335"/>
    <nd ref="524187502"/>
    <nd ref="546231354"/>
    <nd ref="524187505"/>
    <nd ref="546231366"/>
    <nd ref="546231373"/>
    <nd ref="524187508"/>
    <nd ref="546231387"/>
    <nd ref="524187510"/>
    <nd ref="546231402"/>
    <nd ref="524187511"/>
    <nd ref="546231416"/>
    <nd ref="524187512"/>
    <nd ref="546231428"/>
    <nd ref="524187514"/>
    <nd ref="546231453"/>
    <nd ref="524187498"/>
    <tag k="leisure" v="playground"/>
  </way>
  <way id="42139180" version="1" timestamp="2009-10-07T13:34:30Z" uid="115477" user="wowik" changeset="2771590">
    <nd ref="524187520"/>
    <nd ref="524187524"/>
    <nd ref="524187527"/>
    <nd ref="524187528"/>
    <nd ref="524187520"/>
    <tag k="leisure" v="playground"/>
  </way>
  <way id="42139181" version="1" timestamp="2009-10-07T13:34:30Z" uid="115477" user="wowik" changeset="2771590">
    <nd ref="524187537"/>
    <nd ref="524187539"/>
    <nd ref="524187542"/>
    <nd ref="524187543"/>
    <nd ref="524187537"/>
    <tag k="leisure" v="playground"/>
  </way>
  <way id="42139181" version="2" timestamp="2011-11-18T15:05:22Z" uid="481934" user="iWowik" changeset="9863926">
    <nd ref="524187537"/>
    <nd ref="524187539"/>
    <nd ref="1507411083"/>
    <nd ref="524187542"/>
    <nd ref="1507411088"/>
    <nd ref="524187543"/>
    <nd ref="524187537"/>
    <tag k="leisure" v="playground"/>
  </way>
  <way id="42139190" version="1" timestamp="2009-10-07T13:35:03Z" uid="115477" user="wowik" changeset="2771590">
    <nd ref="524187876"/>
    <nd ref="524187877"/>
    <nd ref="524187878"/>
    <nd ref="524187879"/>
    <nd ref="524187880"/>
    <nd ref="524187881"/>
    <nd ref="524187876"/>
    <tag k="leisure" v="playground"/>
  </way>
  <way id="42139680" version="2" timestamp="2010-04-06T15:36:01Z" uid="20587" user="balrog-kun" changeset="4342727">
    <nd ref="524208613"/>
    <nd ref="79084821"/>
    <tag k="highway" v="residential"/>
    <tag k="name" v="170th Street"/>
    <tag k="tiger:cfcc" v="A41"/>
    <tag k="tiger:county" v="Codington, SD"/>
    <tag k="tiger:name_base" v="170th"/>
    <tag k="tiger:name_type" v="St"/>
    <tag k="tiger:reviewed" v="no"/>
    <tag k="tiger:separated" v="no"/>
    <tag k="tiger:source" v="tiger_import_dch_v0.6_20070829"/>
    <tag k="tiger:tlid" v="200736193:200730876"/>
  </way>
  <way id="42139681" version="3" timestamp="2010-04-06T15:36:01Z" uid="20587" user="balrog-kun" changeset="4342727">
    <nd ref="524208625"/>
    <nd ref="524208624"/>
    <tag k="bridge" v="yes"/>
    <tag k="highway" v="primary"/>
    <tag k="layer" v="1"/>
    <tag k="name" v="County Road 10 4/10"/>
    <tag k="name_1" v="169th Street"/>
    <tag k="ref" v="US 81"/>
  </way>
  <way id="42139681" version="4" timestamp="2011-06-24T20:31:12Z" uid="473471" user="NE3" changeset="8536672">
    <nd ref="524208625"/>
    <nd ref="524208624"/>
    <tag k="bridge" v="yes"/>
    <tag k="highway" v="primary"/>
    <tag k="lanes" v="2"/>
    <tag k="layer" v="1"/>
    <tag k="name" v="County Road 10 4/10"/>
    <tag k="name_1" v="169th Street"/>
    <tag k="ref" v="US 81"/>
  </way>
  <way id="42139879" version="2" timestamp="2010-04-06T15:36:01Z" uid="20587" user="balrog-kun" changeset="4342727">
    <nd ref="524217347"/>
    <nd ref="79094844"/>
    <tag k="bridge" v="yes"/>
    <tag k="highway" v="residential"/>
    <tag k="name" v="161st Street"/>
    <tag k="name_1" v="County Road 4 6/10"/>
    <tag k="source" v="yahoo"/>
  </way>
  <way id="42139880" version="2" timestamp="2010-04-06T15:36:02Z" uid="20587" user="balrog-kun" changeset="4342727">
    <nd ref="79094844"/>
    <nd ref="79094847"/>
    <nd ref="79094849"/>
    <nd ref="79094851"/>
    <nd ref="79089619"/>
    <nd ref="79094853"/>
    <nd ref="79094855"/>
    <nd ref="79094857"/>
    <nd ref="79094859"/>
    <nd ref="79094861"/>
    <nd ref="79079114"/>
    <nd ref="79094863"/>
    <nd ref="79094866"/>
    <nd ref="79094868"/>
    <nd ref="79094870"/>
    <nd ref="79081405"/>
    <tag k="highway" v="residential"/>
    <tag k="name" v="161st Street"/>
    <tag k="name_1" v="County Road 4 6/10"/>
    <tag k="tiger:cfcc" v="A41"/>
    <tag k="tiger:county" v="Codington, SD"/>
    <tag k="tiger:name_base" v="161st"/>
    <tag k="tiger:name_base_1" v="County Road 4 6/10"/>
    <tag k="tiger:name_type" v="St"/>
    <tag k="tiger:reviewed" v="no"/>
    <tag k="tiger:separated" v="no"/>
    <tag k="tiger:source" v="tiger_import_dch_v0.6_20070829"/>
    <tag k="tiger:tlid" v="200745288:200735028:200734757:200734591"/>
    <tag k="tiger:zip_left" v="57201"/>
    <tag k="tiger:zip_right" v="57201"/>
  </way>
  <way id="42139881" version="2" timestamp="2010-04-06T15:36:02Z" uid="20587" user="balrog-kun" changeset="4342727">
    <nd ref="524217361"/>
    <nd ref="524217359"/>
    <tag k="bridge" v="yes"/>
    <tag k="highway" v="secondary"/>
    <tag k="layer" v="1"/>
    <tag k="name" v="157th Street"/>
    <tag k="name_1" v="State Highway 20"/>
    <tag k="source" v="yahoo"/>
  </way>
  <way id="42139882" version="2" timestamp="2010-04-06T15:36:02Z" uid="20587" user="balrog-kun" changeset="4342727">
    <nd ref="524217359"/>
    <nd ref="79081956"/>
    <nd ref="79082680"/>
    <nd ref="79082682"/>
    <nd ref="79082684"/>
    <nd ref="79082686"/>
    <nd ref="79082688"/>
    <nd ref="79082690"/>
    <nd ref="79079105"/>
    <nd ref="79082692"/>
    <nd ref="79082694"/>
    <nd ref="79082696"/>
    <nd ref="79082698"/>
    <nd ref="79082700"/>
    <tag k="highway" v="secondary"/>
    <tag k="name" v="157th Street"/>
    <tag k="name_1" v="State Highway 20"/>
    <tag k="tiger:cfcc" v="A31"/>
    <tag k="tiger:county" v="Codington, SD"/>
    <tag k="tiger:name_base" v="157th"/>
    <tag k="tiger:name_base_1" v="State Highway 20"/>
    <tag k="tiger:name_type" v="St"/>
    <tag k="tiger:reviewed" v="no"/>
    <tag k="tiger:separated" v="no"/>
    <tag k="tiger:source" v="tiger_import_dch_v0.6_20070829"/>
    <tag k="tiger:tlid" v="200735178:200734690:200734686:200734874:200727197:200727372:200727209:200727224:200727226:200745691:200727554"/>
    <tag k="tiger:zip_left" v="57263"/>
    <tag k="tiger:zip_right" v="57263"/>
  </way>
  <way id="42139162" version="2" timestamp="2012-07-20T22:18:04Z" uid="722137" user="OSMF Redaction Account" changeset="12394559"/>
  <way id="42139163" version="2" timestamp="2012-07-20T22:18:04Z" uid="722137" user="OSMF Redaction Account" changeset="12394559"/>
  <way id="42139164" version="2" timestamp="2012-07-20T22:18:13Z" uid="722137" user="OSMF Redaction Account" changeset="12394559"/>
  <way id="42139165" version="2" timestamp="2012-07-20T15:48:35Z" uid="722137" user="OSMF Redaction Account" changeset="12381795"/>
  <way id="42139166" version="3" timestamp="2012-07-20T15:48:37Z" uid="722137" user="OSMF Redaction Account" changeset="12381812"/>
  <way id="42139167" version="3" timestamp="2012-07-20T22:18:16Z" uid="722137" user="OSMF Redaction Account" changeset="12394559"/>
  <way id="42139168" version="2" timestamp="2012-07-20T22:17:58Z" uid="722137" user="OSMF Redaction Account" changeset="12394559"/>
  <way id="42139169" version="10" timestamp="2012-07-20T22:17:59Z" uid="722137" user="OSMF Redaction Account" changeset="12394559"/>
  <way id="42139179" version="3" timestamp="2012-07-20T22:18:18Z" uid="722137" user="OSMF Redaction Account" changeset="12394559"/>
  <way id="42139180" version="2" timestamp="2012-07-20T15:48:35Z" uid="722137" user="OSMF Redaction Account" changeset="12381795"/>
  <way id="42139181" version="3" timestamp="2012-07-20T15:46:25Z" uid="722137" user="OSMF Redaction Account" changeset="12381662">
    <nd ref="1507411083"/>
    <nd ref="1507411088"/>
  </way>
  <way id="42139181" version="4" timestamp="2012-08-11T21:19:03Z" uid="109327" user="OverQuantum" changeset="12696005">
    <nd ref="1507411083"/>
    <nd ref="524187542"/>
    <nd ref="1507411088"/>
    <nd ref="524187543"/>
    <nd ref="524187537"/>
    <nd ref="524187539"/>
    <nd ref="1507411083"/>
    <tag k="leisure" v="playground"/>
    <tag k="source" v="bing + nodes"/>
  </way>
  <way id="42139190" version="2" timestamp="2012-07-20T22:18:20Z" uid="722137" user="OSMF Redaction Account" changeset="12394559"/>
  <way id="42139681" version="5" timestamp="2012-07-24T01:48:14Z" uid="207745" user="NE2" changeset="12459374">
    <nd ref="524208624"/>
    <nd ref="524208625"/>
    <tag k="bridge" v="yes"/>
    <tag k="highway" v="primary"/>
    <tag k="lanes" v="2"/>
    <tag k="layer" v="1"/>
    <tag k="name" v="County Road 10 4/10"/>
    <tag k="name_1" v="169th Street"/>
    <tag k="ref" v="US 81"/>
  </way>
  <way id="42139881" version="3" timestamp="2012-05-23T16:40:16Z" uid="542403" user="SD Mapman" changeset="11682235">
    <nd ref="524217361"/>
    <nd ref="524217359"/>
    <tag k="bridge" v="yes"/>
    <tag k="highway" v="secondary"/>
    <tag k="layer" v="1"/>
    <tag k="name" v="157th Street"/>
    <tag k="name_1" v="State Highway 20"/>
    <tag k="ref" v="SD 20"/>
    <tag k="source" v="yahoo"/>
  </way>
  <way id="42139882" version="3" timestamp="2012-05-23T16:40:16Z" uid="542403" user="SD Mapman" changeset="11682235">
    <nd ref="524217359"/>
    <nd ref="79081956"/>
    <nd ref="79082680"/>
    <nd ref="79082682"/>
    <nd ref="79082684"/>
    <nd ref="79082686"/>
    <nd ref="79082688"/>
    <nd ref="79082690"/>
    <nd ref="79079105"/>
    <tag k="highway" v="secondary"/>
    <tag k="name" v="157th Street"/>
    <tag k="name_1" v="State Highway 20"/>
    <tag k="ref" v="SD 20"/>
    <tag k="tiger:cfcc" v="A31"/>
    <tag k="tiger:county" v="Codington, SD"/>
    <tag k="tiger:name_base" v="157th"/>
    <tag k="tiger:name_base_1" v="State Highway 20"/>
    <tag k="tiger:name_type" v="St"/>
    <tag k="tiger:reviewed" v="no"/>
    <tag k="tiger:separated" v="no"/>
    <tag k="tiger:source" v="tiger_import_dch_v0.6_20070829"/>
    <tag k="tiger:tlid" v="200735178:200734690:200734686:200734874:200727197:200727372:200727209:200727224:200727226:200745691:200727554"/>
    <tag k="tiger:zip_left" v="57263"/>
    <tag k="tiger:zip_right" v="57263"/>
  </way>
</osm>
