<?xml version='1.0' encoding='UTF-8'?>
<osm version="0.6" generator="libosmium/2.20.0">
  <way id="42190001" version="1" timestamp="2009-10-08T08:50:44Z" uid="55774" user="nmixter" changeset="2776826">
    <nd ref="524755635"/>
    <nd ref="524755594"/>
    <nd ref="524755561"/>
    <nd ref="524755533"/>
    <nd ref="524755508"/>
    <nd ref="524755682"/>
    <nd ref="524755660"/>
    <nd ref="524755695"/>
    <nd ref="524755635"/>
    <tag k="DriveID" v="0"/>
    <tag k="addr:housenumber" v="0"/>
    <tag k="attribution" v="Mono County GIS"/>
    <tag k="building" v="yes"/>
    <tag k="ele" v="7991.655"/>
    <tag k="stories" v="0.0"/>
  </way>
  <way id="42190001" version="2" timestamp="2009-10-10T08:05:40Z" uid="20587" user="balrog-kun" changeset="2800884">
    <nd ref="524755635"/>
    <nd ref="524755594"/>
    <nd ref="524755561"/>
    <nd ref="524755533"/>
    <nd ref="524755508"/>
    <nd ref="524755682"/>
    <nd ref="524755660"/>
    <nd ref="524755695"/>
    <nd ref="524755635"/>
    <tag k="attribution" v="Mono County GIS"/>
    <tag k="building" v="yes"/>
    <tag k="ele" v="7991.655"/>
  </way>
  <way id="42190008" version="1" timestamp="2009-10-08T08:50:45Z" uid="55774" user="nmixter" changeset="2776826">
    <nd ref="524738917"/>
    <nd ref="524738903"/>
    <nd ref="524738887"/>
    <nd ref="524738861"/>
    <nd ref="524738917"/>
    <tag k="DriveID" v="0"/>
    <tag k="addr:housenumber" v="0"/>
    <tag k="attribution" v="Mono County GIS"/>
    <tag k="building" v="yes"/>
    <tag k="ele" v="8019.842"/>
    <tag k="stories" v="0.0"/>
  </way>
  <way id="42190008" version="2" timestamp="2009-10-10T08:05:41Z" uid="20587" user="balrog-kun" changeset="2800884">
    <nd ref="524738917"/>
    <nd ref="524738903"/>
    <nd ref="524738887"/>
    <nd ref="524738861"/>
    <nd ref="524738917"/>
    <tag k="attribution" v="Mono County GIS"/>
    <tag k="building" v="yes"/>
    <tag k="ele" v="8019.842"/>
  </way>
  <way id="42190019" version="1" timestamp="2009-10-08T08:50:48Z" uid="55774" user="nmixter" changeset="2776826">
    <nd ref="524759190"/>
    <nd ref="524759695"/>
    <nd ref="524759631"/>
    <nd ref="524759078"/>
    <nd ref="524759190"/>
    <tag k="DriveID" v="0"/>
    <tag k="addr:housenumber" v="0"/>
    <tag k="attribution" v="Mono County GIS"/>
    <tag k="building" v="yes"/>
    <tag k="ele" v="7986.902"/>
    <tag k="stories" v="0.0"/>
  </way>
  <way id="42190019" version="2" timestamp="2009-10-10T08:05:42Z" uid="20587" user="balrog-kun" changeset="2800884">
    <nd ref="524759190"/>
    <nd ref="524759695"/>
    <nd ref="524759631"/>
    <nd ref="524759078"/>
    <nd ref="524759190"/>
    <tag k="attribution" v="Mono County GIS"/>
    <tag k="building" v="yes"/>
    <tag k="ele" v="7986.902"/>
  </way>
  <way id="42190025" version="1" timestamp="2009-10-08T08:50:49Z" uid="55774" user="nmixter" changeset="2776826">
    <nd ref="525163079"/>
    <nd ref="525163078"/>
    <nd ref="525163081"/>
    <nd ref="525163080"/>
    <nd ref="525163079"/>
    <tag k="DriveID" v="6955"/>
    <tag k="addr:city" v="Mammoth Lakes City"/>
    <tag k="addr:housenumber" v="259"/>
    <tag k="addr:street" v="Lupin"/>
    <tag k="attribution" v="Mono County GIS"/>
    <tag k="building" v="yes"/>
    <tag k="ele" v="7904.479"/>
    <tag k="stories" v="0.0"/>
  </way>
  <way id="42190025" version="2" timestamp="2009-10-10T08:39:37Z" uid="20587" user="balrog-kun" changeset="2801098">
    <nd ref="525163079"/>
    <nd ref="525163078"/>
    <nd ref="525163081"/>
    <nd ref="525163080"/>
    <nd ref="525163079"/>
    <tag k="DriveID" v="6955"/>
    <tag k="addr:city" v="Mammoth Lakes City"/>
    <tag k="addr:housenumber" v="259"/>
    <tag k="addr:street" v="Lupin"/>
    <tag k="attribution" v="Mono County GIS"/>
    <tag k="building" v="yes"/>
    <tag k="ele" v="7904.479"/>
  </way>
  <way id="42190039" version="1" timestamp="2009-10-08T08:50:53Z" uid="55774" user="nmixter" changeset="2776826">
    <nd ref="525161008"/>
    <nd ref="525161007"/>
    <nd ref="525161006"/>
    <nd ref="525161005"/>
    <nd ref="525161004"/>
    <nd ref="525161009"/>
    <nd ref="525161010"/>
    <nd ref="525161003"/>
    <nd ref="525161008"/>
    <tag k="DriveID" v="6955"/>
    <tag k="addr:city" v="Mammoth Lakes City"/>
    <tag k="addr:housenumber" v="259"/>
    <tag k="addr:street" v="Lupin"/>
    <tag k="attribution" v="Mono County GIS"/>
    <tag k="building" v="yes"/>
    <tag k="ele" v="7905.928"/>
    <tag k="stories" v="0.0"/>
  </way>
  <way id="42190039" version="2" timestamp="2009-10-10T08:39:38Z" uid="20587" user="balrog-kun" changeset="2801098">
    <nd ref="525161008"/>
    <nd ref="525161007"/>
    <nd ref="525161006"/>
    <nd ref="525161005"/>
    <nd ref="525161004"/>
    <nd ref="525161009"/>
    <nd ref="525161010"/>
    <nd ref="525161003"/>
    <nd ref="525161008"/>
    <tag k="DriveID" v="6955"/>
    <tag k="addr:city" v="Mammoth Lakes City"/>
    <tag k="addr:housenumber" v="259"/>
    <tag k="addr:street" v="Lupin"/>
    <tag k="attribution" v="Mono County GIS"/>
    <tag k="building" v="yes"/>
    <tag k="ele" v="7905.928"/>
  </way>
  <way id="42190046" version="1" timestamp="2009-10-08T08:50:55Z" uid="55774" user="nmixter" changeset="2776826">
    <nd ref="525161736"/>
    <nd ref="525161735"/>
    <nd ref="525157573"/>
    <nd ref="525157555"/>
    <nd ref="525161736"/>
    <tag k="DriveID" v="0"/>
    <tag k="addr:housenumber" v="0"/>
    <tag k="attribution" v="Mono County GIS"/>
    <tag k="building" v="yes"/>
    <tag k="ele" v="7901.832"/>
    <tag k="stories" v="0.0"/>
  </way>
  <way id="42190046" version="2" timestamp="2009-10-10T08:39:39Z" uid="20587" user="balrog-kun" changeset="2801098">
    <nd ref="525161736"/>
    <nd ref="525161735"/>
    <nd ref="525157573"/>
    <nd ref="525157555"/>
    <nd ref="525161736"/>
    <tag k="attribution" v="Mono County GIS"/>
    <tag k="building" v="yes"/>
    <tag k="ele" v="7901.832"/>
  </way>
  <way id="42190056" version="1" timestamp="2009-10-08T08:50:56Z" uid="55774" user="nmixter" changeset="2776826">
    <nd ref="525157643"/>
    <nd ref="525157616"/>
    <nd ref="525157734"/>
    <nd ref="525157753"/>
    <nd ref="525157643"/>
    <tag k="DriveID" v="4656"/>
    <tag k="addr:city" v="Mammoth Lakes City"/>
    <tag k="addr:housenumber" v="281"/>
    <tag k="addr:street" v="Joaquin"/>
    <tag k="attribution" v="Mono County GIS"/>
    <tag k="building" v="yes"/>
    <tag k="ele" v="7922.209"/>
    <tag k="stories" v="0.0"/>
  </way>
  <way id="42190056" version="2" timestamp="2009-10-10T08:39:39Z" uid="20587" user="balrog-kun" changeset="2801098">
    <nd ref="525157643"/>
    <nd ref="525157616"/>
    <nd ref="525157734"/>
    <nd ref="525157753"/>
    <nd ref="525157643"/>
    <tag k="DriveID" v="4656"/>
    <tag k="addr:city" v="Mammoth Lakes City"/>
    <tag k="addr:housenumber" v="281"/>
    <tag k="addr:street" v="Joaquin"/>
    <tag k="attribution" v="Mono County GIS"/>
    <tag k="building" v="yes"/>
    <tag k="ele" v="7922.209"/>
  </way>
  <way id="42190062" version="1" timestamp="2009-10-08T08:50:58Z" uid="55774" user="nmixter" changeset="2776826">
    <nd ref="525157767"/>
    <nd ref="525157662"/>
    <nd ref="525157704"/>
    <nd ref="525157682"/>
    <nd ref="525157611"/>
    <nd ref="525157590"/>
    <nd ref="525157767"/>
    <tag k="DriveID" v="4656"/>
    <tag k="addr:city" v="Mammoth Lakes City"/>
    <tag k="addr:housenumber" v="281"/>
    <tag k="addr:street" v="Joaquin"/>
    <tag k="attribution" v="Mono County GIS"/>
    <tag k="building" v="yes"/>
    <tag k="ele" v="7913.319"/>
    <tag k="stories" v="0.0"/>
  </way>
  <way id="42190062" version="2" timestamp="2009-10-10T08:39:39Z" uid="20587" user="balrog-kun" changeset="2801098">
    <nd ref="525157767"/>
    <nd ref="525157662"/>
    <nd ref="525157704"/>
    <nd ref="525157682"/>
    <nd ref="525157611"/>
    <nd ref="525157590"/>
    <nd ref="525157767"/>
    <tag k="DriveID" v="4656"/>
    <tag k="addr:city" v="Mammoth Lakes City"/>
    <tag k="addr:housenumber" v="281"/>
    <tag k="addr:street" v="Joaquin"/>
    <tag k="attribution" v="Mono County GIS"/>
    <tag k="building" v="yes"/>
    <tag k="ele" v="7913.319"/>
  </way>
  <way id="42190070" version="1" timestamp="2009-10-08T08:50:59Z" uid="55774" user="nmixter" changeset="2776826">
    <nd ref="525160987"/>
    <nd ref="525160990"/>
    <nd ref="525160991"/>
    <nd ref="525160992"/>
    <nd ref="525160987"/>
    <tag k="DriveID" v="6954"/>
    <tag k="addr:city" v="Mammoth Lakes City"/>
    <tag k="addr:housenumber" v="130"/>
    <tag k="addr:street" v="Dorrance"/>
    <tag k="attribution" v="Mono County GIS"/>
    <tag k="building" v="yes"/>
    <tag k="ele" v="7914.368"/>
    <tag k="stories" v="0.0"/>
  </way>
  <way id="42190070" version="2" timestamp="2009-10-10T08:39:39Z" uid="20587" user="balrog-kun" changeset="2801098">
    <nd ref="525160987"/>
    <nd ref="525160990"/>
    <nd ref="525160991"/>
    <nd ref="525160992"/>
    <nd ref="525160987"/>
    <tag k="DriveID" v="6954"/>
    <tag k="addr:city" v="Mammoth Lakes City"/>
    <tag k="addr:housenumber" v="130"/>
    <tag k="addr:street" v="Dorrance"/>
    <tag k="attribution" v="Mono County GIS"/>
    <tag k="building" v="yes"/>
    <tag k="ele" v="7914.368"/>
  </way>
  <way id="42190077" version="1" timestamp="2009-10-08T08:51:01Z" uid="55774" user="nmixter" changeset="2776826">
    <nd ref="525160989"/>
    <nd ref="525160985"/>
    <nd ref="525160984"/>
    <nd ref="525160988"/>
    <nd ref="525160989"/>
    <tag k="DriveID" v="6954"/>
    <tag k="addr:city" v="Mammoth Lakes City"/>
    <tag k="addr:housenumber" v="130"/>
    <tag k="addr:street" v="Dorrance"/>
    <tag k="attribution" v="Mono County GIS"/>
    <tag k="building" v="yes"/>
    <tag k="ele" v="7916.016"/>
    <tag k="stories" v="0.0"/>
  </way>
  <way id="42190077" version="2" timestamp="2009-10-10T08:39:40Z" uid="20587" user="balrog-kun" changeset="2801098">
    <nd ref="525160989"/>
    <nd ref="525160985"/>
    <nd ref="525160984"/>
    <nd ref="525160988"/>
    <nd ref="525160989"/>
    <tag k="DriveID" v="6954"/>
    <tag k="addr:city" v="Mammoth Lakes City"/>
    <tag k="addr:housenumber" v="130"/>
    <tag k="addr:street" v="Dorrance"/>
    <tag k="attribution" v="Mono County GIS"/>
    <tag k="building" v="yes"/>
    <tag k="ele" v="7916.016"/>
  </way>
  <way id="42190082" version="1" timestamp="2009-10-08T08:51:03Z" uid="55774" user="nmixter" changeset="2776826">
    <nd ref="525161035"/>
    <nd ref="525161036"/>
    <nd ref="525161034"/>
    <nd ref="525161033"/>
    <nd ref="525161035"/>
    <tag k="DriveID" v="0"/>
    <tag k="addr:housenumber" v="0"/>
    <tag k="attribution" v="Mono County GIS"/>
    <tag k="building" v="yes"/>
    <tag k="ele" v="7891.544"/>
    <tag k="stories" v="0.0"/>
  </way>
  <way id="42190082" version="2" timestamp="2009-10-10T08:39:25Z" uid="20587" user="balrog-kun" changeset="2801098">
    <nd ref="525161035"/>
    <nd ref="525161036"/>
    <nd ref="525161034"/>
    <nd ref="525161033"/>
    <nd ref="525161035"/>
    <tag k="attribution" v="Mono County GIS"/>
    <tag k="building" v="yes"/>
    <tag k="ele" v="7891.544"/>
  </way>
  <way id="42190089" version="1" timestamp="2009-10-08T08:51:04Z" uid="55774" user="nmixter" changeset="2776826">
    <nd ref="525215819"/>
    <nd ref="525215727"/>
    <nd ref="525215705"/>
    <nd ref="525215874"/>
    <nd ref="525215819"/>
    <tag k="DriveID" v="0"/>
    <tag k="addr:housenumber" v="0"/>
    <tag k="attribution" v="Mono County GIS"/>
    <tag k="building" v="yes"/>
    <tag k="ele" v="7910.87"/>
    <tag k="stories" v="0.0"/>
  </way>
  <way id="42190089" version="2" timestamp="2009-10-10T08:39:25Z" uid="20587" user="balrog-kun" changeset="2801098">
    <nd ref="525215819"/>
    <nd ref="525215727"/>
    <nd ref="525215705"/>
    <nd ref="525215874"/>
    <nd ref="525215819"/>
    <tag k="attribution" v="Mono County GIS"/>
    <tag k="building" v="yes"/>
    <tag k="ele" v="7910.87"/>
  </way>
  <way id="42190097" version="1" timestamp="2009-10-08T08:51:06Z" uid="55774" user="nmixter" changeset="2776826">
    <nd ref="525210666"/>
    <nd ref="525210651"/>
    <nd ref="525210737"/>
    <nd ref="525210721"/>
    <nd ref="525210666"/>
    <tag k="DriveID" v="0"/>
    <tag k="addr:housenumber" v="0"/>
    <tag k="attribution" v="Mono County GIS"/>
    <tag k="building" v="yes"/>
    <tag k="ele" v="7925.483"/>
    <tag k="stories" v="0.0"/>
  </way>
  <way id="42190097" version="2" timestamp="2009-10-10T08:39:25Z" uid="20587" user="balrog-kun" changeset="2801098">
    <nd ref="525210666"/>
    <nd ref="525210651"/>
    <nd ref="525210737"/>
    <nd ref="525210721"/>
    <nd ref="525210666"/>
    <tag k="attribution" v="Mono County GIS"/>
    <tag k="building" v="yes"/>
    <tag k="ele" v="7925.483"/>
  </way>
  <way id="42190106" version="1" timestamp="2009-10-08T08:51:08Z" uid="55774" user="nmixter" changeset="2776826">
    <nd ref="525215797"/>
    <nd ref="525213566"/>
    <nd ref="525213621"/>
    <nd ref="525213595"/>
    <nd ref="525215797"/>
    <tag k="DriveID" v="0"/>
    <tag k="addr:housenumber" v="0"/>
    <tag k="attribution" v="Mono County GIS"/>
    <tag k="building" v="yes"/>
    <tag k="ele" v="7902.886"/>
    <tag k="stories" v="0.0"/>
  </way>
  <way id="42190106" version="2" timestamp="2009-10-10T08:39:25Z" uid="20587" user="balrog-kun" changeset="2801098">
    <nd ref="525215797"/>
    <nd ref="525213566"/>
    <nd ref="525213621"/>
    <nd ref="525213595"/>
    <nd ref="525215797"/>
    <tag k="attribution" v="Mono County GIS"/>
    <tag k="building" v="yes"/>
    <tag k="ele" v="7902.886"/>
  </way>
  <way id="42190112" version="1" timestamp="2009-10-08T08:51:09Z" uid="55774" user="nmixter" changeset="2776826">
    <nd ref="525218739"/>
    <nd ref="525218748"/>
    <nd ref="525218156"/>
    <nd ref="525218653"/>
    <nd ref="525218739"/>
    <tag k="DriveID" v="0"/>
    <tag k="addr:housenumber" v="0"/>
    <tag k="attribution" v="Mono County GIS"/>
    <tag k="building" v="yes"/>
    <tag k="ele" v="7904.494"/>
    <tag k="stories" v="0.0"/>
  </way>
  <way id="42190112" version="2" timestamp="2009-10-10T08:39:26Z" uid="20587" user="balrog-kun" changeset="2801098">
    <nd ref="525218739"/>
    <nd ref="525218748"/>
    <nd ref="525218156"/>
    <nd ref="525218653"/>
    <nd ref="525218739"/>
    <tag k="attribution" v="Mono County GIS"/>
    <tag k="building" v="yes"/>
    <tag k="ele" v="7904.494"/>
  </way>
  <way id="42190121" version="1" timestamp="2009-10-08T08:51:11Z" uid="55774" user="nmixter" changeset="2776826">
    <nd ref="525213854"/>
    <nd ref="525213672"/>
    <nd ref="525213438"/>
    <nd ref="525213795"/>
    <nd ref="525213854"/>
    <tag k="DriveID" v="0"/>
    <tag k="addr:housenumber" v="0"/>
    <tag k="attribution" v="Mono County GIS"/>
    <tag k="building" v="yes"/>
    <tag k="ele" v="7906.887"/>
    <tag k="stories" v="0.0"/>
  </way>
  <way id="42190121" version="2" timestamp="2009-10-10T08:39:26Z" uid="20587" user="balrog-kun" changeset="2801098">
    <nd ref="525213854"/>
    <nd ref="525213672"/>
    <nd ref="525213438"/>
    <nd ref="525213795"/>
    <nd ref="525213854"/>
    <tag k="attribution" v="Mono County GIS"/>
    <tag k="building" v="yes"/>
    <tag k="ele" v="7906.887"/>
  </way>
  <way id="42190129" version="1" timestamp="2009-10-08T08:51:13Z" uid="55774" user="nmixter" changeset="2776826">
    <nd ref="525209765"/>
    <nd ref="525209749"/>
    <nd ref="525209605"/>
    <nd ref="525209606"/>
    <nd ref="525209615"/>
    <nd ref="525209547"/>
    <nd ref="525209586"/>
    <nd ref="525209571"/>
    <nd ref="525209587"/>
    <nd ref="525209765"/>
    <tag k="DriveID" v="0"/>
    <tag k="addr:housenumber" v="0"/>
    <tag k="attribution" v="Mono County GIS"/>
    <tag k="building" v="yes"/>
    <tag k="ele" v="7937.032"/>
    <tag k="stories" v="0.0"/>
  </way>
  <way id="42190129" version="2" timestamp="2009-10-10T08:39:25Z" uid="20587" user="balrog-kun" changeset="2801098">
    <nd ref="525209765"/>
    <nd ref="525209749"/>
    <nd ref="525209605"/>
    <nd ref="525209606"/>
    <nd ref="525209615"/>
    <nd ref="525209547"/>
    <nd ref="525209586"/>
    <nd ref="525209571"/>
    <nd ref="525209587"/>
    <nd ref="525209765"/>
    <tag k="attribution" v="Mono County GIS"/>
    <tag k="building" v="yes"/>
    <tag k="ele" v="7937.032"/>
  </way>
  <way id="42190133" version="1" timestamp="2009-10-08T08:51:14Z" uid="55774" user="nmixter" changeset="2776826">
    <nd ref="525219386"/>
    <nd ref="525219417"/>
    <nd ref="525219405"/>
    <nd ref="525219434"/>
    <nd ref="525219300"/>
    <nd ref="525219320"/>
    <nd ref="525219386"/>
    <tag k="DriveID" v="0"/>
    <tag k="addr:housenumber" v="0"/>
    <tag k="attribution" v="Mono County GIS"/>
    <tag k="building" v="yes"/>
    <tag k="ele" v="7906.007"/>
    <tag k="stories" v="0.0"/>
  </way>
  <way id="42190133" version="2" timestamp="2009-10-10T08:39:25Z" uid="20587" user="balrog-kun" changeset="2801098">
    <nd ref="525219386"/>
    <nd ref="525219417"/>
    <nd ref="525219405"/>
    <nd ref="525219434"/>
    <nd ref="525219300"/>
    <nd ref="525219320"/>
    <nd ref="525219386"/>
    <tag k="attribution" v="Mono County GIS"/>
    <tag k="building" v="yes"/>
    <tag k="ele" v="7906.007"/>
  </way>
  <way id="42190140" version="1" timestamp="2009-10-08T08:51:16Z" uid="55774" user="nmixter" changeset="2776826">
    <nd ref="525212958"/>
    <nd ref="525212717"/>
    <nd ref="525212852"/>
    <nd ref="525212808"/>
    <nd ref="525212770"/>
    <nd ref="525212736"/>
    <nd ref="525212913"/>
    <nd ref="525212873"/>
    <nd ref="525212958"/>
    <tag k="DriveID" v="0"/>
    <tag k="addr:housenumber" v="0"/>
    <tag k="attribution" v="Mono County GIS"/>
    <tag k="building" v="yes"/>
    <tag k="ele" v="7933.13"/>
    <tag k="stories" v="0.0"/>
  </way>
  <way id="42190140" version="2" timestamp="2009-10-10T08:39:25Z" uid="20587" user="balrog-kun" changeset="2801098">
    <nd ref="525212958"/>
    <nd ref="525212717"/>
    <nd ref="525212852"/>
    <nd ref="525212808"/>
    <nd ref="525212770"/>
    <nd ref="525212736"/>
    <nd ref="525212913"/>
    <nd ref="525212873"/>
    <nd ref="525212958"/>
    <tag k="attribution" v="Mono County GIS"/>
    <tag k="building" v="yes"/>
    <tag k="ele" v="7933.13"/>
  </way>
  <way id="42190148" version="1" timestamp="2009-10-08T08:51:18Z" uid="55774" user="nmixter" changeset="2776826">
    <nd ref="525159715"/>
    <nd ref="525159921"/>
    <nd ref="525159893"/>
    <nd ref="525159716"/>
    <nd ref="525159715"/>
    <tag k="DriveID" v="4509"/>
    <tag k="addr:city" v="Mammoth Lakes City"/>
    <tag k="addr:housenumber" v="482"/>
    <tag k="addr:street" v="Mono"/>
    <tag k="attribution" v="Mono County GIS"/>
    <tag k="building" v="yes"/>
    <tag k="ele" v="7925.306"/>
    <tag k="stories" v="0.0"/>
  </way>
  <way id="42190148" version="2" timestamp="2009-10-10T08:39:27Z" uid="20587" user="balrog-kun" changeset="2801098">
    <nd ref="525159715"/>
    <nd ref="525159921"/>
    <nd ref="525159893"/>
    <nd ref="525159716"/>
    <nd ref="525159715"/>
    <tag k="DriveID" v="4509"/>
    <tag k="addr:city" v="Mammoth Lakes City"/>
    <tag k="addr:housenumber" v="482"/>
    <tag k="addr:street" v="Mono"/>
    <tag k="attribution" v="Mono County GIS"/>
    <tag k="building" v="yes"/>
    <tag k="ele" v="7925.306"/>
  </way>
  <way id="42190156" version="1" timestamp="2009-10-08T08:51:20Z" uid="55774" user="nmixter" changeset="2776826">
    <nd ref="525159972"/>
    <nd ref="525159969"/>
    <nd ref="525159960"/>
    <nd ref="525159963"/>
    <nd ref="525159964"/>
    <nd ref="525159973"/>
    <nd ref="525159972"/>
    <tag k="DriveID" v="943"/>
    <tag k="addr:city" v="Mammoth Lakes City"/>
    <tag k="addr:housenumber" v="468"/>
    <tag k="addr:street" v="Manzanita"/>
    <tag k="attribution" v="Mono County GIS"/>
    <tag k="building" v="yes"/>
    <tag k="ele" v="7920.162"/>
    <tag k="stories" v="0.0"/>
  </way>
  <way id="42190156" version="2" timestamp="2009-10-10T08:39:26Z" uid="20587" user="balrog-kun" changeset="2801098">
    <nd ref="525159972"/>
    <nd ref="525159969"/>
    <nd ref="525159960"/>
    <nd ref="525159963"/>
    <nd ref="525159964"/>
    <nd ref="525159973"/>
    <nd ref="525159972"/>
    <tag k="DriveID" v="943"/>
    <tag k="addr:city" v="Mammoth Lakes City"/>
    <tag k="addr:housenumber" v="468"/>
    <tag k="addr:street" v="Manzanita"/>
    <tag k="attribution" v="Mono County GIS"/>
    <tag k="building" v="yes"/>
    <tag k="ele" v="7920.162"/>
  </way>
  <way id="42190178" version="1" timestamp="2009-10-08T08:51:26Z" uid="55774" user="nmixter" changeset="2776826">
    <nd ref="525235284"/>
    <nd ref="525235251"/>
    <nd ref="525235221"/>
    <nd ref="525235205"/>
    <nd ref="525235284"/>
    <tag k="DriveID" v="0"/>
    <tag k="addr:housenumber" v="0"/>
    <tag k="attribution" v="Mono County GIS"/>
    <tag k="building" v="yes"/>
    <tag k="ele" v="7713.4"/>
    <tag k="stories" v="1.0"/>
  </way>
  <way id="42190178" version="2" timestamp="2009-10-10T08:46:39Z" uid="20587" user="balrog-kun" changeset="2801202">
    <nd ref="525235284"/>
    <nd ref="525235251"/>
    <nd ref="525235221"/>
    <nd ref="525235205"/>
    <nd ref="525235284"/>
    <tag k="attribution" v="Mono County GIS"/>
    <tag k="building" v="yes"/>
    <tag k="ele" v="7713.4"/>
    <tag k="stories" v="1.0"/>
  </way>
  <way id="42190183" version="1" timestamp="2009-10-08T08:51:27Z" uid="55774" user="nmixter" changeset="2776826">
    <nd ref="525235188"/>
    <nd ref="525235136"/>
    <nd ref="525235169"/>
    <nd ref="525235180"/>
    <nd ref="525235188"/>
    <tag k="DriveID" v="0"/>
    <tag k="addr:housenumber" v="0"/>
    <tag k="attribution" v="Mono County GIS"/>
    <tag k="building" v="yes"/>
    <tag k="ele" v="7714.377"/>
    <tag k="stories" v="1.0"/>
  </way>
  <way id="42190183" version="2" timestamp="2009-10-10T08:46:39Z" uid="20587" user="balrog-kun" changeset="2801202">
    <nd ref="525235188"/>
    <nd ref="525235136"/>
    <nd ref="525235169"/>
    <nd ref="525235180"/>
    <nd ref="525235188"/>
    <tag k="attribution" v="Mono County GIS"/>
    <tag k="building" v="yes"/>
    <tag k="ele" v="7714.377"/>
    <tag k="stories" v="1.0"/>
  </way>
  <way id="42190189" version="1" timestamp="2009-10-08T08:51:29Z" uid="55774" user="nmixter" changeset="2776826">
    <nd ref="525178657"/>
    <nd ref="525178670"/>
    <nd ref="525178713"/>
    <nd ref="525178692"/>
    <nd ref="525178657"/>
    <tag k="DriveID" v="0"/>
    <tag k="addr:housenumber" v="0"/>
    <tag k="attribution" v="Mono County GIS"/>
    <tag k="building" v="yes"/>
    <tag k="ele" v="7840.543"/>
    <tag k="stories" v="0.0"/>
  </way>
  <way id="42190189" version="2" timestamp="2009-10-10T08:39:27Z" uid="20587" user="balrog-kun" changeset="2801098">
    <nd ref="525178657"/>
    <nd ref="525178670"/>
    <nd ref="525178713"/>
    <nd ref="525178692"/>
    <nd ref="525178657"/>
    <tag k="attribution" v="Mono County GIS"/>
    <tag k="building" v="yes"/>
    <tag k="ele" v="7840.543"/>
  </way>
  <way id="42190194" version="1" timestamp="2009-10-08T08:51:30Z" uid="55774" user="nmixter" changeset="2776826">
    <nd ref="525218210"/>
    <nd ref="525218177"/>
    <nd ref="525218242"/>
    <nd ref="525218268"/>
    <nd ref="525218279"/>
    <nd ref="525218336"/>
    <nd ref="525218351"/>
    <nd ref="525218314"/>
    <nd ref="525218210"/>
    <tag k="DriveID" v="0"/>
    <tag k="addr:housenumber" v="0"/>
    <tag k="attribution" v="Mono County GIS"/>
    <tag k="building" v="yes"/>
    <tag k="ele" v="7898.291"/>
    <tag k="stories" v="0.0"/>
  </way>
  <way id="42190194" version="2" timestamp="2009-10-10T08:39:27Z" uid="20587" user="balrog-kun" changeset="2801098">
    <nd ref="525218210"/>
    <nd ref="525218177"/>
    <nd ref="525218242"/>
    <nd ref="525218268"/>
    <nd ref="525218279"/>
    <nd ref="525218336"/>
    <nd ref="525218351"/>
    <nd ref="525218314"/>
    <nd ref="525218210"/>
    <tag k="attribution" v="Mono County GIS"/>
    <tag k="building" v="yes"/>
    <tag k="ele" v="7898.291"/>
  </way>
  <way id="42190247" version="1" timestamp="2009-10-08T08:51:44Z" uid="55774" user="nmixter" changeset="2776826">
    <nd ref="525159717"/>
    <nd ref="525159894"/>
    <nd ref="525159891"/>
    <nd ref="525159890"/>
    <nd ref="525159889"/>
    <nd ref="525159887"/>
    <nd ref="525159888"/>
    <nd ref="525159696"/>
    <nd ref="525159717"/>
    <tag k="DriveID" v="4508"/>
    <tag k="addr:city" v="Mammoth Lakes City"/>
    <tag k="addr:housenumber" v="492"/>
    <tag k="addr:street" v="Mono"/>
    <tag k="attribution" v="Mono County GIS"/>
    <tag k="building" v="yes"/>
    <tag k="ele" v="7919.562"/>
    <tag k="stories" v="0.0"/>
  </way>
  <way id="42190247" version="2" timestamp="2009-10-10T08:39:27Z" uid="20587" user="balrog-kun" changeset="2801098">
    <nd ref="525159717"/>
    <nd ref="525159894"/>
    <nd ref="525159891"/>
    <nd ref="525159890"/>
    <nd ref="525159889"/>
    <nd ref="525159887"/>
    <nd ref="525159888"/>
    <nd ref="525159696"/>
    <nd ref="525159717"/>
    <tag k="DriveID" v="4508"/>
    <tag k="addr:city" v="Mammoth Lakes City"/>
    <tag k="addr:housenumber" v="492"/>
    <tag k="addr:street" v="Mono"/>
    <tag k="attribution" v="Mono County GIS"/>
    <tag k="building" v="yes"/>
    <tag k="ele" v="7919.562"/>
  </way>
  <way id="42190252" version="1" timestamp="2009-10-08T08:51:45Z" uid="55774" user="nmixter" changeset="2776826">
    <nd ref="525203294"/>
    <nd ref="525203326"/>
    <nd ref="525203222"/>
    <nd ref="525203261"/>
    <nd ref="525203294"/>
    <tag k="DriveID" v="0"/>
    <tag k="addr:housenumber" v="0"/>
    <tag k="attribution" v="Mono County GIS"/>
    <tag k="building" v="yes"/>
    <tag k="ele" v="8047.494"/>
    <tag k="stories" v="0.0"/>
  </way>
  <way id="42190252" version="2" timestamp="2009-10-10T08:39:28Z" uid="20587" user="balrog-kun" changeset="2801098">
    <nd ref="525203294"/>
    <nd ref="525203326"/>
    <nd ref="525203222"/>
    <nd ref="525203261"/>
    <nd ref="525203294"/>
    <tag k="attribution" v="Mono County GIS"/>
    <tag k="building" v="yes"/>
    <tag k="ele" v="8047.494"/>
  </way>
  <way id="42190255" version="2" timestamp="2010-07-08T05:02:56Z" uid="74617" user="JohnSmith" changeset="5163091">
    <nd ref="525399397"/>
    <nd ref="525399396"/>
    <tag k="highway" v="residential"/>
    <tag k="maxspeed" v="50"/>
    <tag k="maxspeed:source" v="default residential speed limit in Australia"/>
    <tag k="name" v="McClean Street"/>
    <tag k="surface" v="paved"/>
  </way>
  <way id="42190255" version="3" timestamp="2010-07-31T00:27:11Z" uid="222205" user="phillipsart" changeset="5359134">
    <nd ref="839455626"/>
    <nd ref="525399397"/>
    <nd ref="525399396"/>
    <tag k="highway" v="residential"/>
    <tag k="maxspeed" v="50"/>
    <tag k="maxspeed:source" v="default residential speed limit in Australia"/>
    <tag k="name" v="McClean Street"/>
    <tag k="surface" v="paved"/>
  </way>
  <way id="42190255" version="4" timestamp="2010-08-04T05:40:28Z" uid="222205" user="phillipsart" changeset="5395698">
    <nd ref="839455626"/>
    <nd ref="525399397"/>
    <nd ref="845570449"/>
    <nd ref="845570481"/>
    <nd ref="525399396"/>
    <tag k="highway" v="residential"/>
    <tag k="maxspeed" v="50"/>
    <tag k="maxspeed:source" v="default residential speed limit in Australia"/>
    <tag k="name" v="McClean Street"/>
    <tag k="surface" v="paved"/>
  </way>
  <way id="42190255" version="5" timestamp="2012-01-19T05:38:44Z" uid="147510" user="woodpeck_fixbot" changeset="10433866">
    <nd ref="839455626"/>
    <nd ref="525399397"/>
    <nd ref="845570449"/>
    <nd ref="845570481"/>
    <nd ref="525399396"/>
    <tag k="highway" v="residential"/>
    <tag k="name" v="McClean Street"/>
    <tag k="surface" v="paved"/>
  </way>
  <way id="42190257" version="2" timestamp="2010-07-08T05:02:55Z" uid="74617" user="JohnSmith" changeset="5163091">
    <nd ref="430728554"/>
    <nd ref="525399396"/>
    <tag k="highway" v="residential"/>
    <tag k="maxspeed" v="50"/>
    <tag k="maxspeed:source" v="default residential speed limit in Australia"/>
    <tag k="name" v="Woongarra Street"/>
    <tag k="surface" v="paved"/>
  </way>
  <way id="42190257" version="3" timestamp="2012-01-19T05:38:45Z" uid="147510" user="woodpeck_fixbot" changeset="10433866">
    <nd ref="430728554"/>
    <nd ref="525399396"/>
    <tag k="highway" v="residential"/>
    <tag k="name" v="Woongarra Street"/>
    <tag k="surface" v="paved"/>
  </way>
  <way id="42190258" version="1" timestamp="2009-10-08T08:51:46Z" uid="55774" user="nmixter" changeset="2776826">
    <nd ref="525199814"/>
    <nd ref="525199710"/>
    <nd ref="525199675"/>
    <nd ref="525199693"/>
    <nd ref="525199647"/>
    <nd ref="525199657"/>
    <nd ref="525199631"/>
    <nd ref="525152717"/>
    <nd ref="525152739"/>
    <nd ref="525199814"/>
    <tag k="DriveID" v="0"/>
    <tag k="addr:housenumber" v="0"/>
    <tag k="attribution" v="Mono County GIS"/>
    <tag k="building" v="yes"/>
    <tag k="ele" v="8085.224"/>
    <tag k="stories" v="0.0"/>
  </way>
  <way id="42190258" version="2" timestamp="2009-10-10T08:39:27Z" uid="20587" user="balrog-kun" changeset="2801098">
    <nd ref="525199814"/>
    <nd ref="525199710"/>
    <nd ref="525199675"/>
    <nd ref="525199693"/>
    <nd ref="525199647"/>
    <nd ref="525199657"/>
    <nd ref="525199631"/>
    <nd ref="525152717"/>
    <nd ref="525152739"/>
    <nd ref="525199814"/>
    <tag k="attribution" v="Mono County GIS"/>
    <tag k="building" v="yes"/>
    <tag k="ele" v="8085.224"/>
  </way>
  <way id="42190262" version="1" timestamp="2009-10-08T08:51:47Z" uid="55774" user="nmixter" changeset="2776826">
    <nd ref="525200238"/>
    <nd ref="525202265"/>
    <nd ref="525202207"/>
    <nd ref="525200207"/>
    <nd ref="525200216"/>
    <nd ref="525200197"/>
    <nd ref="525200238"/>
    <tag k="DriveID" v="0"/>
    <tag k="addr:housenumber" v="0"/>
    <tag k="attribution" v="Mono County GIS"/>
    <tag k="building" v="yes"/>
    <tag k="ele" v="8060.916"/>
    <tag k="stories" v="0.0"/>
  </way>
  <way id="42190262" version="2" timestamp="2009-10-10T08:39:27Z" uid="20587" user="balrog-kun" changeset="2801098">
    <nd ref="525200238"/>
    <nd ref="525202265"/>
    <nd ref="525202207"/>
    <nd ref="525200207"/>
    <nd ref="525200216"/>
    <nd ref="525200197"/>
    <nd ref="525200238"/>
    <tag k="attribution" v="Mono County GIS"/>
    <tag k="building" v="yes"/>
    <tag k="ele" v="8060.916"/>
  </way>
  <way id="42190271" version="1" timestamp="2009-10-08T08:51:49Z" uid="55774" user="nmixter" changeset="2776826">
    <nd ref="525200311"/>
    <nd ref="525200328"/>
    <nd ref="525200259"/>
    <nd ref="525200278"/>
    <nd ref="525200288"/>
    <nd ref="525200291"/>
    <nd ref="525200311"/>
    <tag k="DriveID" v="0"/>
    <tag k="addr:housenumber" v="0"/>
    <tag k="attribution" v="Mono County GIS"/>
    <tag k="building" v="yes"/>
    <tag k="ele" v="8068.876"/>
    <tag k="stories" v="0.0"/>
  </way>
  <way id="42190271" version="2" timestamp="2009-10-10T08:39:27Z" uid="20587" user="balrog-kun" changeset="2801098">
    <nd ref="525200311"/>
    <nd ref="525200328"/>
    <nd ref="525200259"/>
    <nd ref="525200278"/>
    <nd ref="525200288"/>
    <nd ref="525200291"/>
    <nd ref="525200311"/>
    <tag k="attribution" v="Mono County GIS"/>
    <tag k="building" v="yes"/>
    <tag k="ele" v="8068.876"/>
  </way>
  <way id="42190276" version="1" timestamp="2009-10-08T08:51:50Z" uid="55774" user="nmixter" changeset="2776826">
    <nd ref="525200778"/>
    <nd ref="525200806"/>
    <nd ref="525200790"/>
    <nd ref="525201527"/>
    <nd ref="525201470"/>
    <nd ref="525201425"/>
    <nd ref="525201603"/>
    <nd ref="525200837"/>
    <nd ref="525200821"/>
    <nd ref="525201572"/>
    <nd ref="525200458"/>
    <nd ref="525200501"/>
    <nd ref="525200472"/>
    <nd ref="525200170"/>
    <nd ref="525200147"/>
    <nd ref="525200179"/>
    <nd ref="525200849"/>
    <nd ref="525200871"/>
    <nd ref="525200778"/>
    <tag k="DriveID" v="0"/>
    <tag k="addr:housenumber" v="0"/>
    <tag k="attribution" v="Mono County GIS"/>
    <tag k="building" v="yes"/>
    <tag k="ele" v="8070.202"/>
    <tag k="stories" v="0.0"/>
  </way>
  <way id="42190276" version="2" timestamp="2009-10-10T08:39:28Z" uid="20587" user="balrog-kun" changeset="2801098">
    <nd ref="525200778"/>
    <nd ref="525200806"/>
    <nd ref="525200790"/>
    <nd ref="525201527"/>
    <nd ref="525201470"/>
    <nd ref="525201425"/>
    <nd ref="525201603"/>
    <nd ref="525200837"/>
    <nd ref="525200821"/>
    <nd ref="525201572"/>
    <nd ref="525200458"/>
    <nd ref="525200501"/>
    <nd ref="525200472"/>
    <nd ref="525200170"/>
    <nd ref="525200147"/>
    <nd ref="525200179"/>
    <nd ref="525200849"/>
    <nd ref="525200871"/>
    <nd ref="525200778"/>
    <tag k="attribution" v="Mono County GIS"/>
    <tag k="building" v="yes"/>
    <tag k="ele" v="8070.202"/>
  </way>
  <way id="42190285" version="1" timestamp="2009-10-08T08:51:51Z" uid="55774" user="nmixter" changeset="2776826">
    <nd ref="525202470"/>
    <nd ref="525202570"/>
    <nd ref="525202600"/>
    <nd ref="525202505"/>
    <nd ref="525202320"/>
    <nd ref="525202360"/>
    <nd ref="525202392"/>
    <nd ref="525202422"/>
    <nd ref="525202239"/>
    <nd ref="525202295"/>
    <nd ref="525202622"/>
    <nd ref="525202654"/>
    <nd ref="525202671"/>
    <nd ref="525202470"/>
    <tag k="DriveID" v="0"/>
    <tag k="addr:housenumber" v="0"/>
    <tag k="attribution" v="Mono County GIS"/>
    <tag k="building" v="yes"/>
    <tag k="ele" v="8053.58"/>
    <tag k="stories" v="0.0"/>
  </way>
  <way id="42190285" version="2" timestamp="2009-10-10T08:39:28Z" uid="20587" user="balrog-kun" changeset="2801098">
    <nd ref="525202470"/>
    <nd ref="525202570"/>
    <nd ref="525202600"/>
    <nd ref="525202505"/>
    <nd ref="525202320"/>
    <nd ref="525202360"/>
    <nd ref="525202392"/>
    <nd ref="525202422"/>
    <nd ref="525202239"/>
    <nd ref="525202295"/>
    <nd ref="525202622"/>
    <nd ref="525202654"/>
    <nd ref="525202671"/>
    <nd ref="525202470"/>
    <tag k="attribution" v="Mono County GIS"/>
    <tag k="building" v="yes"/>
    <tag k="ele" v="8053.58"/>
  </way>
  <way id="42190297" version="1" timestamp="2009-10-08T08:51:53Z" uid="55774" user="nmixter" changeset="2776826">
    <nd ref="525164923"/>
    <nd ref="525164922"/>
    <nd ref="525164921"/>
    <nd ref="525164920"/>
    <nd ref="525164926"/>
    <nd ref="525164925"/>
    <nd ref="525164924"/>
    <nd ref="525164927"/>
    <nd ref="525164923"/>
    <tag k="DriveID" v="0"/>
    <tag k="addr:city" v="Mammoth Lakes City"/>
    <tag k="addr:housenumber" v="2113"/>
    <tag k="addr:street" v="Meridian"/>
    <tag k="attribution" v="Mono County GIS"/>
    <tag k="building" v="yes"/>
    <tag k="ele" v="7886.131"/>
    <tag k="name" v="Horizons 4 No. 1"/>
    <tag k="stories" v="1.0"/>
  </way>
  <way id="42190297" version="2" timestamp="2009-10-10T08:39:28Z" uid="20587" user="balrog-kun" changeset="2801098">
    <nd ref="525164923"/>
    <nd ref="525164922"/>
    <nd ref="525164921"/>
    <nd ref="525164920"/>
    <nd ref="525164926"/>
    <nd ref="525164925"/>
    <nd ref="525164924"/>
    <nd ref="525164927"/>
    <nd ref="525164923"/>
    <tag k="addr:city" v="Mammoth Lakes City"/>
    <tag k="addr:housenumber" v="2113"/>
    <tag k="addr:street" v="Meridian"/>
    <tag k="attribution" v="Mono County GIS"/>
    <tag k="building" v="yes"/>
    <tag k="ele" v="7886.131"/>
    <tag k="name" v="Horizons 4 No. 1"/>
    <tag k="stories" v="1.0"/>
  </way>
  <way id="42190304" version="1" timestamp="2009-10-08T08:51:56Z" uid="55774" user="nmixter" changeset="2776826">
    <nd ref="525201636"/>
    <nd ref="525201696"/>
    <nd ref="525200516"/>
    <nd ref="525200450"/>
    <nd ref="525200426"/>
    <nd ref="525200405"/>
    <nd ref="525201636"/>
    <tag k="DriveID" v="0"/>
    <tag k="addr:housenumber" v="0"/>
    <tag k="attribution" v="Mono County GIS"/>
    <tag k="building" v="yes"/>
    <tag k="ele" v="8069.032"/>
    <tag k="stories" v="0.0"/>
  </way>
  <way id="42190304" version="2" timestamp="2009-10-10T08:39:29Z" uid="20587" user="balrog-kun" changeset="2801098">
    <nd ref="525201636"/>
    <nd ref="525201696"/>
    <nd ref="525200516"/>
    <nd ref="525200450"/>
    <nd ref="525200426"/>
    <nd ref="525200405"/>
    <nd ref="525201636"/>
    <tag k="attribution" v="Mono County GIS"/>
    <tag k="building" v="yes"/>
    <tag k="ele" v="8069.032"/>
  </way>
  <way id="42190322" version="1" timestamp="2009-10-08T08:51:59Z" uid="55774" user="nmixter" changeset="2776826">
    <nd ref="525160804"/>
    <nd ref="525160805"/>
    <nd ref="525160874"/>
    <nd ref="525160873"/>
    <nd ref="525160804"/>
    <tag k="DriveID" v="4513"/>
    <tag k="addr:city" v="Mammoth Lakes City"/>
    <tag k="addr:housenumber" v="394"/>
    <tag k="addr:street" v="Mono"/>
    <tag k="attribution" v="Mono County GIS"/>
    <tag k="building" v="yes"/>
    <tag k="ele" v="7911.771"/>
    <tag k="stories" v="0.0"/>
  </way>
  <way id="42190322" version="2" timestamp="2009-10-10T08:39:28Z" uid="20587" user="balrog-kun" changeset="2801098">
    <nd ref="525160804"/>
    <nd ref="525160805"/>
    <nd ref="525160874"/>
    <nd ref="525160873"/>
    <nd ref="525160804"/>
    <tag k="DriveID" v="4513"/>
    <tag k="addr:city" v="Mammoth Lakes City"/>
    <tag k="addr:housenumber" v="394"/>
    <tag k="addr:street" v="Mono"/>
    <tag k="attribution" v="Mono County GIS"/>
    <tag k="building" v="yes"/>
    <tag k="ele" v="7911.771"/>
  </way>
  <way id="42190330" version="1" timestamp="2009-10-08T08:52:01Z" uid="55774" user="nmixter" changeset="2776826">
    <nd ref="525190240"/>
    <nd ref="525190260"/>
    <nd ref="525190385"/>
    <nd ref="525190399"/>
    <nd ref="525190417"/>
    <nd ref="525190435"/>
    <nd ref="525190240"/>
    <tag k="DriveID" v="0"/>
    <tag k="addr:housenumber" v="0"/>
    <tag k="attribution" v="Mono County GIS"/>
    <tag k="building" v="yes"/>
    <tag k="ele" v="7881.711"/>
    <tag k="stories" v="0.0"/>
  </way>
  <way id="42190330" version="2" timestamp="2009-10-10T08:39:28Z" uid="20587" user="balrog-kun" changeset="2801098">
    <nd ref="525190240"/>
    <nd ref="525190260"/>
    <nd ref="525190385"/>
    <nd ref="525190399"/>
    <nd ref="525190417"/>
    <nd ref="525190435"/>
    <nd ref="525190240"/>
    <tag k="attribution" v="Mono County GIS"/>
    <tag k="building" v="yes"/>
    <tag k="ele" v="7881.711"/>
  </way>
  <way id="42190334" version="1" timestamp="2009-10-08T08:52:03Z" uid="55774" user="nmixter" changeset="2776826">
    <nd ref="525164819"/>
    <nd ref="525164820"/>
    <nd ref="525164821"/>
    <nd ref="525164824"/>
    <nd ref="525164822"/>
    <nd ref="525164823"/>
    <nd ref="525164819"/>
    <tag k="DriveID" v="0"/>
    <tag k="addr:housenumber" v="0"/>
    <tag k="attribution" v="Mono County GIS"/>
    <tag k="building" v="yes"/>
    <tag k="ele" v="7902.312"/>
    <tag k="stories" v="0.0"/>
  </way>
  <way id="42190334" version="2" timestamp="2009-10-10T08:39:28Z" uid="20587" user="balrog-kun" changeset="2801098">
    <nd ref="525164819"/>
    <nd ref="525164820"/>
    <nd ref="525164821"/>
    <nd ref="525164824"/>
    <nd ref="525164822"/>
    <nd ref="525164823"/>
    <nd ref="525164819"/>
    <tag k="attribution" v="Mono County GIS"/>
    <tag k="building" v="yes"/>
    <tag k="ele" v="7902.312"/>
  </way>
  <way id="42190345" version="1" timestamp="2009-10-08T08:52:05Z" uid="55774" user="nmixter" changeset="2776826">
    <nd ref="525191525"/>
    <nd ref="525191185"/>
    <nd ref="525191261"/>
    <nd ref="525191276"/>
    <nd ref="525191196"/>
    <nd ref="525191234"/>
    <nd ref="525191435"/>
    <nd ref="525191494"/>
    <nd ref="525191372"/>
    <nd ref="525191396"/>
    <nd ref="525191337"/>
    <nd ref="525191604"/>
    <nd ref="525191525"/>
    <tag k="DriveID" v="0"/>
    <tag k="addr:housenumber" v="0"/>
    <tag k="attribution" v="Mono County GIS"/>
    <tag k="building" v="yes"/>
    <tag k="ele" v="7881.348"/>
    <tag k="stories" v="0.0"/>
  </way>
  <way id="42190345" version="2" timestamp="2009-10-10T08:39:46Z" uid="20587" user="balrog-kun" changeset="2801098">
    <nd ref="525191525"/>
    <nd ref="525191185"/>
    <nd ref="525191261"/>
    <nd ref="525191276"/>
    <nd ref="525191196"/>
    <nd ref="525191234"/>
    <nd ref="525191435"/>
    <nd ref="525191494"/>
    <nd ref="525191372"/>
    <nd ref="525191396"/>
    <nd ref="525191337"/>
    <nd ref="525191604"/>
    <nd ref="525191525"/>
    <tag k="attribution" v="Mono County GIS"/>
    <tag k="building" v="yes"/>
    <tag k="ele" v="7881.348"/>
  </way>
  <way id="42190354" version="1" timestamp="2009-10-08T08:52:07Z" uid="55774" user="nmixter" changeset="2776826">
    <nd ref="525171052"/>
    <nd ref="525171050"/>
    <nd ref="525171082"/>
    <nd ref="525171078"/>
    <nd ref="525171088"/>
    <nd ref="525171085"/>
    <nd ref="525171093"/>
    <nd ref="525171090"/>
    <nd ref="525171118"/>
    <nd ref="525171113"/>
    <nd ref="525171111"/>
    <nd ref="525171105"/>
    <nd ref="525171103"/>
    <nd ref="525171099"/>
    <nd ref="525171096"/>
    <nd ref="525171108"/>
    <nd ref="525171052"/>
    <tag k="DriveID" v="0"/>
    <tag k="addr:housenumber" v="0"/>
    <tag k="attribution" v="Mono County GIS"/>
    <tag k="building" v="yes"/>
    <tag k="ele" v="7886.07"/>
    <tag k="stories" v="0.0"/>
  </way>
  <way id="42190354" version="2" timestamp="2009-10-10T08:39:46Z" uid="20587" user="balrog-kun" changeset="2801098">
    <nd ref="525171052"/>
    <nd ref="525171050"/>
    <nd ref="525171082"/>
    <nd ref="525171078"/>
    <nd ref="525171088"/>
    <nd ref="525171085"/>
    <nd ref="525171093"/>
    <nd ref="525171090"/>
    <nd ref="525171118"/>
    <nd ref="525171113"/>
    <nd ref="525171111"/>
    <nd ref="525171105"/>
    <nd ref="525171103"/>
    <nd ref="525171099"/>
    <nd ref="525171096"/>
    <nd ref="525171108"/>
    <nd ref="525171052"/>
    <tag k="attribution" v="Mono County GIS"/>
    <tag k="building" v="yes"/>
    <tag k="ele" v="7886.07"/>
  </way>
  <way id="42190369" version="1" timestamp="2009-10-08T08:52:11Z" uid="55774" user="nmixter" changeset="2776826">
    <nd ref="525160891"/>
    <nd ref="525160892"/>
    <nd ref="525160890"/>
    <nd ref="525160910"/>
    <nd ref="525160909"/>
    <nd ref="525160862"/>
    <nd ref="525160889"/>
    <nd ref="525160859"/>
    <nd ref="525160891"/>
    <tag k="DriveID" v="930"/>
    <tag k="addr:city" v="Mammoth Lakes City"/>
    <tag k="addr:housenumber" v="395"/>
    <tag k="addr:street" v="Manzanita"/>
    <tag k="attribution" v="Mono County GIS"/>
    <tag k="building" v="yes"/>
    <tag k="ele" v="7900.234"/>
    <tag k="stories" v="0.0"/>
  </way>
  <way id="42190369" version="2" timestamp="2009-10-10T08:39:45Z" uid="20587" user="balrog-kun" changeset="2801098">
    <nd ref="525160891"/>
    <nd ref="525160892"/>
    <nd ref="525160890"/>
    <nd ref="525160910"/>
    <nd ref="525160909"/>
    <nd ref="525160862"/>
    <nd ref="525160889"/>
    <nd ref="525160859"/>
    <nd ref="525160891"/>
    <tag k="DriveID" v="930"/>
    <tag k="addr:city" v="Mammoth Lakes City"/>
    <tag k="addr:housenumber" v="395"/>
    <tag k="addr:street" v="Manzanita"/>
    <tag k="attribution" v="Mono County GIS"/>
    <tag k="building" v="yes"/>
    <tag k="ele" v="7900.234"/>
  </way>
  <way id="42190372" version="1" timestamp="2009-10-08T08:52:12Z" uid="55774" user="nmixter" changeset="2776826">
    <nd ref="525160860"/>
    <nd ref="525160861"/>
    <nd ref="525160908"/>
    <nd ref="525160907"/>
    <nd ref="525160860"/>
    <tag k="DriveID" v="930"/>
    <tag k="addr:city" v="Mammoth Lakes City"/>
    <tag k="addr:housenumber" v="395"/>
    <tag k="addr:street" v="Manzanita"/>
    <tag k="attribution" v="Mono County GIS"/>
    <tag k="building" v="yes"/>
    <tag k="ele" v="7911.222"/>
    <tag k="stories" v="0.0"/>
  </way>
  <way id="42190372" version="2" timestamp="2009-10-10T08:39:45Z" uid="20587" user="balrog-kun" changeset="2801098">
    <nd ref="525160860"/>
    <nd ref="525160861"/>
    <nd ref="525160908"/>
    <nd ref="525160907"/>
    <nd ref="525160860"/>
    <tag k="DriveID" v="930"/>
    <tag k="addr:city" v="Mammoth Lakes City"/>
    <tag k="addr:housenumber" v="395"/>
    <tag k="addr:street" v="Manzanita"/>
    <tag k="attribution" v="Mono County GIS"/>
    <tag k="building" v="yes"/>
    <tag k="ele" v="7911.222"/>
  </way>
  <way id="42190379" version="1" timestamp="2009-10-08T08:52:14Z" uid="55774" user="nmixter" changeset="2776826">
    <nd ref="525168462"/>
    <nd ref="525168458"/>
    <nd ref="525168450"/>
    <nd ref="525168453"/>
    <nd ref="525168444"/>
    <nd ref="525168447"/>
    <nd ref="525168414"/>
    <nd ref="525168417"/>
    <nd ref="525168408"/>
    <nd ref="525168411"/>
    <nd ref="525168403"/>
    <nd ref="525168405"/>
    <nd ref="525168426"/>
    <nd ref="525168423"/>
    <nd ref="525168418"/>
    <nd ref="525168420"/>
    <nd ref="525168428"/>
    <nd ref="525168431"/>
    <nd ref="525168465"/>
    <nd ref="525168485"/>
    <nd ref="525168501"/>
    <nd ref="525168462"/>
    <tag k="DriveID" v="0"/>
    <tag k="addr:housenumber" v="0"/>
    <tag k="attribution" v="Mono County GIS"/>
    <tag k="building" v="yes"/>
    <tag k="ele" v="7886.234"/>
    <tag k="stories" v="0.0"/>
  </way>
  <way id="42190379" version="2" timestamp="2009-10-10T08:39:45Z" uid="20587" user="balrog-kun" changeset="2801098">
    <nd ref="525168462"/>
    <nd ref="525168458"/>
    <nd ref="525168450"/>
    <nd ref="525168453"/>
    <nd ref="525168444"/>
    <nd ref="525168447"/>
    <nd ref="525168414"/>
    <nd ref="525168417"/>
    <nd ref="525168408"/>
    <nd ref="525168411"/>
    <nd ref="525168403"/>
    <nd ref="525168405"/>
    <nd ref="525168426"/>
    <nd ref="525168423"/>
    <nd ref="525168418"/>
    <nd ref="525168420"/>
    <nd ref="525168428"/>
    <nd ref="525168431"/>
    <nd ref="525168465"/>
    <nd ref="525168485"/>
    <nd ref="525168501"/>
    <nd ref="525168462"/>
    <tag k="attribution" v="Mono County GIS"/>
    <tag k="building" v="yes"/>
    <tag k="ele" v="7886.234"/>
  </way>
  <way id="42190389" version="1" timestamp="2009-10-08T08:52:17Z" uid="55774" user="nmixter" changeset="2776826">
    <nd ref="525162011"/>
    <nd ref="525162013"/>
    <nd ref="525161995"/>
    <nd ref="525161994"/>
    <nd ref="525161993"/>
    <nd ref="525162581"/>
    <nd ref="525162580"/>
    <nd ref="525162012"/>
    <nd ref="525162011"/>
    <tag k="DriveID" v="0"/>
    <tag k="addr:housenumber" v="0"/>
    <tag k="attribution" v="Mono County GIS"/>
    <tag k="building" v="yes"/>
    <tag k="ele" v="7917.285"/>
    <tag k="stories" v="0.0"/>
  </way>
  <way id="42190389" version="2" timestamp="2009-10-10T08:39:46Z" uid="20587" user="balrog-kun" changeset="2801098">
    <nd ref="525162011"/>
    <nd ref="525162013"/>
    <nd ref="525161995"/>
    <nd ref="525161994"/>
    <nd ref="525161993"/>
    <nd ref="525162581"/>
    <nd ref="525162580"/>
    <nd ref="525162012"/>
    <nd ref="525162011"/>
    <tag k="attribution" v="Mono County GIS"/>
    <tag k="building" v="yes"/>
    <tag k="ele" v="7917.285"/>
  </way>
  <way id="42190393" version="1" timestamp="2009-10-08T08:52:18Z" uid="55774" user="nmixter" changeset="2776826">
    <nd ref="525160746"/>
    <nd ref="525160745"/>
    <nd ref="525160727"/>
    <nd ref="525160726"/>
    <nd ref="525160746"/>
    <tag k="DriveID" v="4512"/>
    <tag k="addr:city" v="Mammoth Lakes City"/>
    <tag k="addr:housenumber" v="432"/>
    <tag k="addr:street" v="Mono"/>
    <tag k="attribution" v="Mono County GIS"/>
    <tag k="building" v="yes"/>
    <tag k="ele" v="7911.321"/>
    <tag k="stories" v="0.0"/>
  </way>
  <way id="42190393" version="2" timestamp="2009-10-10T08:39:45Z" uid="20587" user="balrog-kun" changeset="2801098">
    <nd ref="525160746"/>
    <nd ref="525160745"/>
    <nd ref="525160727"/>
    <nd ref="525160726"/>
    <nd ref="525160746"/>
    <tag k="DriveID" v="4512"/>
    <tag k="addr:city" v="Mammoth Lakes City"/>
    <tag k="addr:housenumber" v="432"/>
    <tag k="addr:street" v="Mono"/>
    <tag k="attribution" v="Mono County GIS"/>
    <tag k="building" v="yes"/>
    <tag k="ele" v="7911.321"/>
  </way>
  <way id="42190399" version="1" timestamp="2009-10-08T08:52:20Z" uid="55774" user="nmixter" changeset="2776826">
    <nd ref="525160716"/>
    <nd ref="525160826"/>
    <nd ref="525159929"/>
    <nd ref="525159933"/>
    <nd ref="525159934"/>
    <nd ref="525159792"/>
    <nd ref="525160716"/>
    <tag k="DriveID" v="4511"/>
    <tag k="addr:city" v="Mammoth Lakes City"/>
    <tag k="addr:housenumber" v="452"/>
    <tag k="addr:street" v="Mono"/>
    <tag k="attribution" v="Mono County GIS"/>
    <tag k="building" v="yes"/>
    <tag k="ele" v="7912.57"/>
    <tag k="stories" v="0.0"/>
  </way>
  <way id="42190399" version="2" timestamp="2009-10-10T08:39:46Z" uid="20587" user="balrog-kun" changeset="2801098">
    <nd ref="525160716"/>
    <nd ref="525160826"/>
    <nd ref="525159929"/>
    <nd ref="525159933"/>
    <nd ref="525159934"/>
    <nd ref="525159792"/>
    <nd ref="525160716"/>
    <tag k="DriveID" v="4511"/>
    <tag k="addr:city" v="Mammoth Lakes City"/>
    <tag k="addr:housenumber" v="452"/>
    <tag k="addr:street" v="Mono"/>
    <tag k="attribution" v="Mono County GIS"/>
    <tag k="building" v="yes"/>
    <tag k="ele" v="7912.57"/>
  </way>
  <way id="42190402" version="1" timestamp="2009-10-08T08:52:20Z" uid="55774" user="nmixter" changeset="2776826">
    <nd ref="525159785"/>
    <nd ref="525159791"/>
    <nd ref="525159767"/>
    <nd ref="525159755"/>
    <nd ref="525159747"/>
    <nd ref="525159744"/>
    <nd ref="525159774"/>
    <nd ref="525159776"/>
    <nd ref="525159785"/>
    <tag k="DriveID" v="4510"/>
    <tag k="addr:city" v="Mammoth Lakes City"/>
    <tag k="addr:housenumber" v="470"/>
    <tag k="addr:street" v="Mono"/>
    <tag k="attribution" v="Mono County GIS"/>
    <tag k="building" v="yes"/>
    <tag k="ele" v="7922.409"/>
    <tag k="stories" v="0.0"/>
  </way>
  <way id="42190402" version="2" timestamp="2009-10-10T08:39:47Z" uid="20587" user="balrog-kun" changeset="2801098">
    <nd ref="525159785"/>
    <nd ref="525159791"/>
    <nd ref="525159767"/>
    <nd ref="525159755"/>
    <nd ref="525159747"/>
    <nd ref="525159744"/>
    <nd ref="525159774"/>
    <nd ref="525159776"/>
    <nd ref="525159785"/>
    <tag k="DriveID" v="4510"/>
    <tag k="addr:city" v="Mammoth Lakes City"/>
    <tag k="addr:housenumber" v="470"/>
    <tag k="addr:street" v="Mono"/>
    <tag k="attribution" v="Mono County GIS"/>
    <tag k="building" v="yes"/>
    <tag k="ele" v="7922.409"/>
  </way>
  <way id="42190406" version="1" timestamp="2009-10-08T08:52:22Z" uid="55774" user="nmixter" changeset="2776826">
    <nd ref="525218731"/>
    <nd ref="525218706"/>
    <nd ref="525218718"/>
    <nd ref="525218701"/>
    <nd ref="525218731"/>
    <tag k="DriveID" v="0"/>
    <tag k="addr:housenumber" v="0"/>
    <tag k="attribution" v="Mono County GIS"/>
    <tag k="building" v="yes"/>
    <tag k="ele" v="7902.963"/>
    <tag k="stories" v="0.0"/>
  </way>
  <way id="42190406" version="2" timestamp="2009-10-10T08:39:47Z" uid="20587" user="balrog-kun" changeset="2801098">
    <nd ref="525218731"/>
    <nd ref="525218706"/>
    <nd ref="525218718"/>
    <nd ref="525218701"/>
    <nd ref="525218731"/>
    <tag k="attribution" v="Mono County GIS"/>
    <tag k="building" v="yes"/>
    <tag k="ele" v="7902.963"/>
  </way>
  <way id="42190410" version="1" timestamp="2009-10-08T08:52:22Z" uid="55774" user="nmixter" changeset="2776826">
    <nd ref="525161057"/>
    <nd ref="525161056"/>
    <nd ref="525161058"/>
    <nd ref="525161048"/>
    <nd ref="525161057"/>
    <tag k="DriveID" v="0"/>
    <tag k="addr:housenumber" v="0"/>
    <tag k="attribution" v="Mono County GIS"/>
    <tag k="building" v="yes"/>
    <tag k="ele" v="7897.637"/>
    <tag k="stories" v="0.0"/>
  </way>
  <way id="42190410" version="2" timestamp="2009-10-10T08:39:47Z" uid="20587" user="balrog-kun" changeset="2801098">
    <nd ref="525161057"/>
    <nd ref="525161056"/>
    <nd ref="525161058"/>
    <nd ref="525161048"/>
    <nd ref="525161057"/>
    <tag k="attribution" v="Mono County GIS"/>
    <tag k="building" v="yes"/>
    <tag k="ele" v="7897.637"/>
  </way>
  <way id="42190413" version="1" timestamp="2009-10-08T08:52:23Z" uid="55774" user="nmixter" changeset="2776826">
    <nd ref="525160842"/>
    <nd ref="525160841"/>
    <nd ref="525160844"/>
    <nd ref="525160843"/>
    <nd ref="525160842"/>
    <tag k="DriveID" v="0"/>
    <tag k="addr:housenumber" v="0"/>
    <tag k="attribution" v="Mono County GIS"/>
    <tag k="building" v="yes"/>
    <tag k="ele" v="7910.722"/>
    <tag k="stories" v="0.0"/>
  </way>
  <way id="42190413" version="2" timestamp="2009-10-10T08:39:47Z" uid="20587" user="balrog-kun" changeset="2801098">
    <nd ref="525160842"/>
    <nd ref="525160841"/>
    <nd ref="525160844"/>
    <nd ref="525160843"/>
    <nd ref="525160842"/>
    <tag k="attribution" v="Mono County GIS"/>
    <tag k="building" v="yes"/>
    <tag k="ele" v="7910.722"/>
  </way>
  <way id="42190420" version="1" timestamp="2009-10-08T08:52:25Z" uid="55774" user="nmixter" changeset="2776826">
    <nd ref="525160828"/>
    <nd ref="525160832"/>
    <nd ref="525160831"/>
    <nd ref="525160830"/>
    <nd ref="525160828"/>
    <tag k="DriveID" v="4512"/>
    <tag k="addr:city" v="Mammoth Lakes City"/>
    <tag k="addr:housenumber" v="432"/>
    <tag k="addr:street" v="Mono"/>
    <tag k="attribution" v="Mono County GIS"/>
    <tag k="building" v="yes"/>
    <tag k="ele" v="7918.813"/>
    <tag k="stories" v="0.0"/>
  </way>
  <way id="42190420" version="2" timestamp="2009-10-10T08:39:48Z" uid="20587" user="balrog-kun" changeset="2801098">
    <nd ref="525160828"/>
    <nd ref="525160832"/>
    <nd ref="525160831"/>
    <nd ref="525160830"/>
    <nd ref="525160828"/>
    <tag k="DriveID" v="4512"/>
    <tag k="addr:city" v="Mammoth Lakes City"/>
    <tag k="addr:housenumber" v="432"/>
    <tag k="addr:street" v="Mono"/>
    <tag k="attribution" v="Mono County GIS"/>
    <tag k="building" v="yes"/>
    <tag k="ele" v="7918.813"/>
  </way>
  <way id="42190424" version="1" timestamp="2009-10-08T08:52:26Z" uid="55774" user="nmixter" changeset="2776826">
    <nd ref="525160835"/>
    <nd ref="525160836"/>
    <nd ref="525160829"/>
    <nd ref="525160827"/>
    <nd ref="525160835"/>
    <tag k="DriveID" v="4512"/>
    <tag k="addr:city" v="Mammoth Lakes City"/>
    <tag k="addr:housenumber" v="432"/>
    <tag k="addr:street" v="Mono"/>
    <tag k="attribution" v="Mono County GIS"/>
    <tag k="building" v="yes"/>
    <tag k="ele" v="7907.326"/>
    <tag k="stories" v="0.0"/>
  </way>
  <way id="42190424" version="2" timestamp="2009-10-10T08:39:48Z" uid="20587" user="balrog-kun" changeset="2801098">
    <nd ref="525160835"/>
    <nd ref="525160836"/>
    <nd ref="525160829"/>
    <nd ref="525160827"/>
    <nd ref="525160835"/>
    <tag k="DriveID" v="4512"/>
    <tag k="addr:city" v="Mammoth Lakes City"/>
    <tag k="addr:housenumber" v="432"/>
    <tag k="addr:street" v="Mono"/>
    <tag k="attribution" v="Mono County GIS"/>
    <tag k="building" v="yes"/>
    <tag k="ele" v="7907.326"/>
  </way>
  <way id="42190426" version="1" timestamp="2009-10-08T08:52:27Z" uid="55774" user="nmixter" changeset="2776826">
    <nd ref="525209673"/>
    <nd ref="525209784"/>
    <nd ref="525209814"/>
    <nd ref="525209833"/>
    <nd ref="525209860"/>
    <nd ref="525209648"/>
    <nd ref="525209709"/>
    <nd ref="525209632"/>
    <nd ref="525209673"/>
    <tag k="DriveID" v="0"/>
    <tag k="addr:housenumber" v="0"/>
    <tag k="attribution" v="Mono County GIS"/>
    <tag k="building" v="yes"/>
    <tag k="ele" v="7944.563"/>
    <tag k="stories" v="0.0"/>
  </way>
  <way id="42190426" version="2" timestamp="2009-10-10T08:39:48Z" uid="20587" user="balrog-kun" changeset="2801098">
    <nd ref="525209673"/>
    <nd ref="525209784"/>
    <nd ref="525209814"/>
    <nd ref="525209833"/>
    <nd ref="525209860"/>
    <nd ref="525209648"/>
    <nd ref="525209709"/>
    <nd ref="525209632"/>
    <nd ref="525209673"/>
    <tag k="attribution" v="Mono County GIS"/>
    <tag k="building" v="yes"/>
    <tag k="ele" v="7944.563"/>
  </way>
  <way id="42190431" version="1" timestamp="2009-10-08T08:52:28Z" uid="55774" user="nmixter" changeset="2776826">
    <nd ref="525217072"/>
    <nd ref="525217089"/>
    <nd ref="525216988"/>
    <nd ref="525217001"/>
    <nd ref="525217026"/>
    <nd ref="525217050"/>
    <nd ref="525216933"/>
    <nd ref="525216973"/>
    <nd ref="525216270"/>
    <nd ref="525216287"/>
    <nd ref="525216312"/>
    <nd ref="525216689"/>
    <nd ref="525216718"/>
    <nd ref="525216649"/>
    <nd ref="525217072"/>
    <tag k="DriveID" v="0"/>
    <tag k="addr:housenumber" v="0"/>
    <tag k="attribution" v="Mono County GIS"/>
    <tag k="building" v="yes"/>
    <tag k="ele" v="7898.942"/>
    <tag k="stories" v="0.0"/>
  </way>
  <way id="42190431" version="2" timestamp="2009-10-10T08:39:47Z" uid="20587" user="balrog-kun" changeset="2801098">
    <nd ref="525217072"/>
    <nd ref="525217089"/>
    <nd ref="525216988"/>
    <nd ref="525217001"/>
    <nd ref="525217026"/>
    <nd ref="525217050"/>
    <nd ref="525216933"/>
    <nd ref="525216973"/>
    <nd ref="525216270"/>
    <nd ref="525216287"/>
    <nd ref="525216312"/>
    <nd ref="525216689"/>
    <nd ref="525216718"/>
    <nd ref="525216649"/>
    <nd ref="525217072"/>
    <tag k="attribution" v="Mono County GIS"/>
    <tag k="building" v="yes"/>
    <tag k="ele" v="7898.942"/>
  </way>
  <way id="42190438" version="1" timestamp="2009-10-08T08:52:30Z" uid="55774" user="nmixter" changeset="2776826">
    <nd ref="525210709"/>
    <nd ref="525210799"/>
    <nd ref="525210806"/>
    <nd ref="525210756"/>
    <nd ref="525210776"/>
    <nd ref="525210698"/>
    <nd ref="525210719"/>
    <nd ref="525210720"/>
    <nd ref="525210709"/>
    <tag k="DriveID" v="0"/>
    <tag k="addr:housenumber" v="0"/>
    <tag k="attribution" v="Mono County GIS"/>
    <tag k="building" v="yes"/>
    <tag k="ele" v="7929.892"/>
    <tag k="stories" v="0.0"/>
  </way>
  <way id="42190438" version="2" timestamp="2009-10-10T08:39:47Z" uid="20587" user="balrog-kun" changeset="2801098">
    <nd ref="525210709"/>
    <nd ref="525210799"/>
    <nd ref="525210806"/>
    <nd ref="525210756"/>
    <nd ref="525210776"/>
    <nd ref="525210698"/>
    <nd ref="525210719"/>
    <nd ref="525210720"/>
    <nd ref="525210709"/>
    <tag k="attribution" v="Mono County GIS"/>
    <tag k="building" v="yes"/>
    <tag k="ele" v="7929.892"/>
  </way>
  <way id="42190444" version="1" timestamp="2009-10-08T08:52:31Z" uid="55774" user="nmixter" changeset="2776826">
    <nd ref="525218139"/>
    <nd ref="525218621"/>
    <nd ref="525218578"/>
    <nd ref="525218536"/>
    <nd ref="525218551"/>
    <nd ref="525218506"/>
    <nd ref="525218139"/>
    <tag k="DriveID" v="0"/>
    <tag k="addr:housenumber" v="0"/>
    <tag k="attribution" v="Mono County GIS"/>
    <tag k="building" v="yes"/>
    <tag k="ele" v="7898.368"/>
    <tag k="stories" v="0.0"/>
  </way>
  <way id="42190444" version="2" timestamp="2009-10-10T08:39:46Z" uid="20587" user="balrog-kun" changeset="2801098">
    <nd ref="525218139"/>
    <nd ref="525218621"/>
    <nd ref="525218578"/>
    <nd ref="525218536"/>
    <nd ref="525218551"/>
    <nd ref="525218506"/>
    <nd ref="525218139"/>
    <tag k="attribution" v="Mono County GIS"/>
    <tag k="building" v="yes"/>
    <tag k="ele" v="7898.368"/>
  </way>
  <way id="42190451" version="1" timestamp="2009-10-08T08:52:32Z" uid="55774" user="nmixter" changeset="2776826">
    <nd ref="525199125"/>
    <nd ref="525199105"/>
    <nd ref="525199084"/>
    <nd ref="525199063"/>
    <nd ref="525199125"/>
    <tag k="DriveID" v="0"/>
    <tag k="addr:housenumber" v="0"/>
    <tag k="attribution" v="Mono County GIS"/>
    <tag k="building" v="yes"/>
    <tag k="ele" v="8001.569"/>
    <tag k="stories" v="0.0"/>
  </way>
  <way id="42190451" version="2" timestamp="2009-10-10T08:39:47Z" uid="20587" user="balrog-kun" changeset="2801098">
    <nd ref="525199125"/>
    <nd ref="525199105"/>
    <nd ref="525199084"/>
    <nd ref="525199063"/>
    <nd ref="525199125"/>
    <tag k="attribution" v="Mono County GIS"/>
    <tag k="building" v="yes"/>
    <tag k="ele" v="8001.569"/>
  </way>
  <way id="42190452" version="1" timestamp="2009-10-08T08:52:34Z" uid="55774" user="nmixter" changeset="2776826">
    <nd ref="525210912"/>
    <nd ref="525211287"/>
    <nd ref="525211329"/>
    <nd ref="525210928"/>
    <nd ref="525210912"/>
    <tag k="DriveID" v="0"/>
    <tag k="addr:housenumber" v="0"/>
    <tag k="attribution" v="Mono County GIS"/>
    <tag k="building" v="yes"/>
    <tag k="ele" v="7923.18"/>
    <tag k="stories" v="0.0"/>
  </way>
  <way id="42190452" version="2" timestamp="2009-10-10T08:39:47Z" uid="20587" user="balrog-kun" changeset="2801098">
    <nd ref="525210912"/>
    <nd ref="525211287"/>
    <nd ref="525211329"/>
    <nd ref="525210928"/>
    <nd ref="525210912"/>
    <tag k="attribution" v="Mono County GIS"/>
    <tag k="building" v="yes"/>
    <tag k="ele" v="7923.18"/>
  </way>
  <way id="42190459" version="1" timestamp="2009-10-08T08:52:35Z" uid="55774" user="nmixter" changeset="2776826">
    <nd ref="525209687"/>
    <nd ref="525209233"/>
    <nd ref="525209245"/>
    <nd ref="525209730"/>
    <nd ref="525209687"/>
    <tag k="DriveID" v="0"/>
    <tag k="addr:housenumber" v="0"/>
    <tag k="attribution" v="Mono County GIS"/>
    <tag k="building" v="yes"/>
    <tag k="ele" v="7968.434"/>
    <tag k="stories" v="0.0"/>
  </way>
  <way id="42190459" version="2" timestamp="2009-10-10T08:39:47Z" uid="20587" user="balrog-kun" changeset="2801098">
    <nd ref="525209687"/>
    <nd ref="525209233"/>
    <nd ref="525209245"/>
    <nd ref="525209730"/>
    <nd ref="525209687"/>
    <tag k="attribution" v="Mono County GIS"/>
    <tag k="building" v="yes"/>
    <tag k="ele" v="7968.434"/>
  </way>
  <way id="42190464" version="1" timestamp="2009-10-08T08:52:36Z" uid="55774" user="nmixter" changeset="2776826">
    <nd ref="525211203"/>
    <nd ref="525211232"/>
    <nd ref="525211259"/>
    <nd ref="525211174"/>
    <nd ref="525211203"/>
    <tag k="DriveID" v="0"/>
    <tag k="addr:housenumber" v="0"/>
    <tag k="attribution" v="Mono County GIS"/>
    <tag k="building" v="yes"/>
    <tag k="ele" v="7924.507"/>
    <tag k="stories" v="0.0"/>
  </way>
  <way id="42190464" version="2" timestamp="2009-10-10T08:39:49Z" uid="20587" user="balrog-kun" changeset="2801098">
    <nd ref="525211203"/>
    <nd ref="525211232"/>
    <nd ref="525211259"/>
    <nd ref="525211174"/>
    <nd ref="525211203"/>
    <tag k="attribution" v="Mono County GIS"/>
    <tag k="building" v="yes"/>
    <tag k="ele" v="7924.507"/>
  </way>
  <way id="42190474" version="1" timestamp="2009-10-08T08:52:38Z" uid="55774" user="nmixter" changeset="2776826">
    <nd ref="525068033"/>
    <nd ref="525068062"/>
    <nd ref="525067694"/>
    <nd ref="525068044"/>
    <nd ref="525068106"/>
    <nd ref="525068090"/>
    <nd ref="525068033"/>
    <tag k="DriveID" v="0"/>
    <tag k="addr:housenumber" v="0"/>
    <tag k="attribution" v="Mono County GIS"/>
    <tag k="building" v="yes"/>
    <tag k="ele" v="8152.287"/>
    <tag k="stories" v="0.0"/>
  </way>
  <way id="42190474" version="2" timestamp="2009-10-10T08:39:49Z" uid="20587" user="balrog-kun" changeset="2801098">
    <nd ref="525068033"/>
    <nd ref="525068062"/>
    <nd ref="525067694"/>
    <nd ref="525068044"/>
    <nd ref="525068106"/>
    <nd ref="525068090"/>
    <nd ref="525068033"/>
    <tag k="attribution" v="Mono County GIS"/>
    <tag k="building" v="yes"/>
    <tag k="ele" v="8152.287"/>
  </way>
  <way id="42190478" version="1" timestamp="2009-10-08T08:52:39Z" uid="55774" user="nmixter" changeset="2776826">
    <nd ref="525068071"/>
    <nd ref="525069560"/>
    <nd ref="525069607"/>
    <nd ref="525069651"/>
    <nd ref="525069573"/>
    <nd ref="525069449"/>
    <nd ref="525069425"/>
    <nd ref="525069459"/>
    <nd ref="525069450"/>
    <nd ref="525069474"/>
    <nd ref="525068071"/>
    <tag k="DriveID" v="0"/>
    <tag k="addr:housenumber" v="0"/>
    <tag k="attribution" v="Mono County GIS"/>
    <tag k="building" v="yes"/>
    <tag k="ele" v="8149.961"/>
    <tag k="stories" v="0.0"/>
  </way>
  <way id="42190478" version="2" timestamp="2009-10-10T08:39:50Z" uid="20587" user="balrog-kun" changeset="2801098">
    <nd ref="525068071"/>
    <nd ref="525069560"/>
    <nd ref="525069607"/>
    <nd ref="525069651"/>
    <nd ref="525069573"/>
    <nd ref="525069449"/>
    <nd ref="525069425"/>
    <nd ref="525069459"/>
    <nd ref="525069450"/>
    <nd ref="525069474"/>
    <nd ref="525068071"/>
    <tag k="attribution" v="Mono County GIS"/>
    <tag k="building" v="yes"/>
    <tag k="ele" v="8149.961"/>
  </way>
  <way id="42190479" version="1" timestamp="2009-10-08T08:52:41Z" uid="55774" user="nmixter" changeset="2776826">
    <nd ref="525069460"/>
    <nd ref="525069528"/>
    <nd ref="525069510"/>
    <nd ref="525069540"/>
    <nd ref="525069460"/>
    <tag k="DriveID" v="0"/>
    <tag k="addr:housenumber" v="0"/>
    <tag k="attribution" v="Mono County GIS"/>
    <tag k="building" v="yes"/>
    <tag k="ele" v="8149.272"/>
    <tag k="stories" v="0.0"/>
  </way>
  <way id="42190479" version="2" timestamp="2009-10-10T08:39:50Z" uid="20587" user="balrog-kun" changeset="2801098">
    <nd ref="525069460"/>
    <nd ref="525069528"/>
    <nd ref="525069510"/>
    <nd ref="525069540"/>
    <nd ref="525069460"/>
    <tag k="attribution" v="Mono County GIS"/>
    <tag k="building" v="yes"/>
    <tag k="ele" v="8149.272"/>
  </way>
  <way id="42190483" version="1" timestamp="2009-10-08T08:52:42Z" uid="55774" user="nmixter" changeset="2776826">
    <nd ref="525108114"/>
    <nd ref="525108080"/>
    <nd ref="525108061"/>
    <nd ref="525108035"/>
    <nd ref="525108114"/>
    <tag k="DriveID" v="0"/>
    <tag k="addr:housenumber" v="0"/>
    <tag k="attribution" v="Mono County GIS"/>
    <tag k="building" v="yes"/>
    <tag k="ele" v="8140.301"/>
    <tag k="stories" v="0.0"/>
  </way>
  <way id="42190483" version="2" timestamp="2009-10-10T08:39:50Z" uid="20587" user="balrog-kun" changeset="2801098">
    <nd ref="525108114"/>
    <nd ref="525108080"/>
    <nd ref="525108061"/>
    <nd ref="525108035"/>
    <nd ref="525108114"/>
    <tag k="attribution" v="Mono County GIS"/>
    <tag k="building" v="yes"/>
    <tag k="ele" v="8140.301"/>
  </way>
  <way id="42190487" version="1" timestamp="2009-10-08T08:52:43Z" uid="55774" user="nmixter" changeset="2776826">
    <nd ref="525047803"/>
    <nd ref="525047880"/>
    <nd ref="525047818"/>
    <nd ref="525047933"/>
    <nd ref="525047952"/>
    <nd ref="525047803"/>
    <tag k="DriveID" v="0"/>
    <tag k="addr:housenumber" v="0"/>
    <tag k="attribution" v="Mono County GIS"/>
    <tag k="building" v="yes"/>
    <tag k="ele" v="8233.025"/>
    <tag k="stories" v="0.0"/>
  </way>
  <way id="42190487" version="2" timestamp="2009-10-10T08:39:50Z" uid="20587" user="balrog-kun" changeset="2801098">
    <nd ref="525047803"/>
    <nd ref="525047880"/>
    <nd ref="525047818"/>
    <nd ref="525047933"/>
    <nd ref="525047952"/>
    <nd ref="525047803"/>
    <tag k="attribution" v="Mono County GIS"/>
    <tag k="building" v="yes"/>
    <tag k="ele" v="8233.025"/>
  </way>
  <way id="42190493" version="1" timestamp="2009-10-08T08:52:45Z" uid="55774" user="nmixter" changeset="2776826">
    <nd ref="525103968"/>
    <nd ref="525103785"/>
    <nd ref="525103808"/>
    <nd ref="525103986"/>
    <nd ref="525103968"/>
    <tag k="DriveID" v="0"/>
    <tag k="addr:housenumber" v="0"/>
    <tag k="attribution" v="Mono County GIS"/>
    <tag k="building" v="yes"/>
    <tag k="ele" v="8178.111"/>
    <tag k="stories" v="0.0"/>
  </way>
  <way id="42190493" version="2" timestamp="2009-10-10T08:39:50Z" uid="20587" user="balrog-kun" changeset="2801098">
    <nd ref="525103968"/>
    <nd ref="525103785"/>
    <nd ref="525103808"/>
    <nd ref="525103986"/>
    <nd ref="525103968"/>
    <tag k="attribution" v="Mono County GIS"/>
    <tag k="building" v="yes"/>
    <tag k="ele" v="8178.111"/>
  </way>
  <way id="42190497" version="1" timestamp="2009-10-08T08:52:47Z" uid="55774" user="nmixter" changeset="2776826">
    <nd ref="525108438"/>
    <nd ref="525108425"/>
    <nd ref="525108468"/>
    <nd ref="525108502"/>
    <nd ref="525108522"/>
    <nd ref="525108546"/>
    <nd ref="525108438"/>
    <tag k="DriveID" v="0"/>
    <tag k="addr:housenumber" v="0"/>
    <tag k="attribution" v="Mono County GIS"/>
    <tag k="building" v="yes"/>
    <tag k="ele" v="8145.102"/>
    <tag k="stories" v="0.0"/>
  </way>
  <way id="42190497" version="2" timestamp="2009-10-10T08:39:48Z" uid="20587" user="balrog-kun" changeset="2801098">
    <nd ref="525108438"/>
    <nd ref="525108425"/>
    <nd ref="525108468"/>
    <nd ref="525108502"/>
    <nd ref="525108522"/>
    <nd ref="525108546"/>
    <nd ref="525108438"/>
    <tag k="attribution" v="Mono County GIS"/>
    <tag k="building" v="yes"/>
    <tag k="ele" v="8145.102"/>
  </way>
  <way id="42190498" version="1" timestamp="2009-10-08T08:52:48Z" uid="55774" user="nmixter" changeset="2776826">
    <nd ref="525048273"/>
    <nd ref="525048261"/>
    <nd ref="525048292"/>
    <nd ref="525048309"/>
    <nd ref="525045783"/>
    <nd ref="525048280"/>
    <nd ref="525045429"/>
    <nd ref="525047907"/>
    <nd ref="525048333"/>
    <nd ref="525048351"/>
    <nd ref="525048273"/>
    <tag k="DriveID" v="0"/>
    <tag k="addr:housenumber" v="0"/>
    <tag k="attribution" v="Mono County GIS"/>
    <tag k="building" v="yes"/>
    <tag k="ele" v="8227.04"/>
    <tag k="stories" v="0.0"/>
  </way>
  <way id="42190498" version="2" timestamp="2009-10-10T08:39:48Z" uid="20587" user="balrog-kun" changeset="2801098">
    <nd ref="525048273"/>
    <nd ref="525048261"/>
    <nd ref="525048292"/>
    <nd ref="525048309"/>
    <nd ref="525045783"/>
    <nd ref="525048280"/>
    <nd ref="525045429"/>
    <nd ref="525047907"/>
    <nd ref="525048333"/>
    <nd ref="525048351"/>
    <nd ref="525048273"/>
    <tag k="attribution" v="Mono County GIS"/>
    <tag k="building" v="yes"/>
    <tag k="ele" v="8227.04"/>
  </way>
  <way id="42190505" version="1" timestamp="2009-10-08T08:52:50Z" uid="55774" user="nmixter" changeset="2776826">
    <nd ref="525047832"/>
    <nd ref="525047842"/>
    <nd ref="525047864"/>
    <nd ref="525047762"/>
    <nd ref="525047832"/>
    <tag k="DriveID" v="0"/>
    <tag k="addr:housenumber" v="0"/>
    <tag k="attribution" v="Mono County GIS"/>
    <tag k="building" v="yes"/>
    <tag k="ele" v="8225.395"/>
    <tag k="stories" v="0.0"/>
  </way>
  <way id="42190505" version="2" timestamp="2009-10-10T08:39:48Z" uid="20587" user="balrog-kun" changeset="2801098">
    <nd ref="525047832"/>
    <nd ref="525047842"/>
    <nd ref="525047864"/>
    <nd ref="525047762"/>
    <nd ref="525047832"/>
    <tag k="attribution" v="Mono County GIS"/>
    <tag k="building" v="yes"/>
    <tag k="ele" v="8225.395"/>
  </way>
  <way id="42190510" version="1" timestamp="2009-10-08T08:52:51Z" uid="55774" user="nmixter" changeset="2776826">
    <nd ref="525047734"/>
    <nd ref="525047790"/>
    <nd ref="525047777"/>
    <nd ref="525047720"/>
    <nd ref="525047734"/>
    <tag k="DriveID" v="0"/>
    <tag k="addr:housenumber" v="0"/>
    <tag k="attribution" v="Mono County GIS"/>
    <tag k="building" v="yes"/>
    <tag k="ele" v="8231.868"/>
    <tag k="stories" v="0.0"/>
  </way>
  <way id="42190510" version="2" timestamp="2009-10-10T08:39:49Z" uid="20587" user="balrog-kun" changeset="2801098">
    <nd ref="525047734"/>
    <nd ref="525047790"/>
    <nd ref="525047777"/>
    <nd ref="525047720"/>
    <nd ref="525047734"/>
    <tag k="attribution" v="Mono County GIS"/>
    <tag k="building" v="yes"/>
    <tag k="ele" v="8231.868"/>
  </way>
  <way id="42190516" version="1" timestamp="2009-10-08T08:52:53Z" uid="55774" user="nmixter" changeset="2776826">
    <nd ref="525101433"/>
    <nd ref="525101451"/>
    <nd ref="525101511"/>
    <nd ref="525101528"/>
    <nd ref="525101478"/>
    <nd ref="525101503"/>
    <nd ref="525101433"/>
    <tag k="DriveID" v="0"/>
    <tag k="addr:housenumber" v="0"/>
    <tag k="attribution" v="Mono County GIS"/>
    <tag k="building" v="yes"/>
    <tag k="ele" v="8176.825"/>
    <tag k="stories" v="0.0"/>
  </way>
  <way id="42190516" version="2" timestamp="2009-10-10T08:39:49Z" uid="20587" user="balrog-kun" changeset="2801098">
    <nd ref="525101433"/>
    <nd ref="525101451"/>
    <nd ref="525101511"/>
    <nd ref="525101528"/>
    <nd ref="525101478"/>
    <nd ref="525101503"/>
    <nd ref="525101433"/>
    <tag k="attribution" v="Mono County GIS"/>
    <tag k="building" v="yes"/>
    <tag k="ele" v="8176.825"/>
  </way>
  <way id="42190519" version="1" timestamp="2009-10-08T08:52:54Z" uid="55774" user="nmixter" changeset="2776826">
    <nd ref="525099938"/>
    <nd ref="525099939"/>
    <nd ref="525101548"/>
    <nd ref="525099937"/>
    <nd ref="525099919"/>
    <nd ref="525099936"/>
    <nd ref="525099938"/>
    <tag k="DriveID" v="0"/>
    <tag k="addr:housenumber" v="0"/>
    <tag k="attribution" v="Mono County GIS"/>
    <tag k="building" v="yes"/>
    <tag k="ele" v="8175.582"/>
    <tag k="stories" v="0.0"/>
  </way>
  <way id="42190519" version="2" timestamp="2009-10-10T08:39:49Z" uid="20587" user="balrog-kun" changeset="2801098">
    <nd ref="525099938"/>
    <nd ref="525099939"/>
    <nd ref="525101548"/>
    <nd ref="525099937"/>
    <nd ref="525099919"/>
    <nd ref="525099936"/>
    <nd ref="525099938"/>
    <tag k="attribution" v="Mono County GIS"/>
    <tag k="building" v="yes"/>
    <tag k="ele" v="8175.582"/>
  </way>
  <way id="42190524" version="1" timestamp="2009-10-08T08:52:56Z" uid="55774" user="nmixter" changeset="2776826">
    <nd ref="525106648"/>
    <nd ref="525106669"/>
    <nd ref="525106614"/>
    <nd ref="525106627"/>
    <nd ref="525106573"/>
    <nd ref="525106593"/>
    <nd ref="525106648"/>
    <tag k="DriveID" v="0"/>
    <tag k="addr:housenumber" v="0"/>
    <tag k="attribution" v="Mono County GIS"/>
    <tag k="building" v="yes"/>
    <tag k="ele" v="8150.975"/>
    <tag k="stories" v="0.0"/>
  </way>
  <way id="42190524" version="2" timestamp="2009-10-10T08:39:49Z" uid="20587" user="balrog-kun" changeset="2801098">
    <nd ref="525106648"/>
    <nd ref="525106669"/>
    <nd ref="525106614"/>
    <nd ref="525106627"/>
    <nd ref="525106573"/>
    <nd ref="525106593"/>
    <nd ref="525106648"/>
    <tag k="attribution" v="Mono County GIS"/>
    <tag k="building" v="yes"/>
    <tag k="ele" v="8150.975"/>
  </way>
  <way id="42190528" version="1" timestamp="2009-10-08T08:52:56Z" uid="55774" user="nmixter" changeset="2776826">
    <nd ref="525045866"/>
    <nd ref="525045877"/>
    <nd ref="525045829"/>
    <nd ref="525045846"/>
    <nd ref="525045802"/>
    <nd ref="525045818"/>
    <nd ref="525048491"/>
    <nd ref="525045878"/>
    <nd ref="525048449"/>
    <nd ref="525045782"/>
    <nd ref="525048468"/>
    <nd ref="525048487"/>
    <nd ref="525045866"/>
    <tag k="DriveID" v="0"/>
    <tag k="addr:housenumber" v="0"/>
    <tag k="attribution" v="Mono County GIS"/>
    <tag k="building" v="yes"/>
    <tag k="ele" v="8221.579"/>
    <tag k="stories" v="0.0"/>
  </way>
  <way id="42190528" version="2" timestamp="2009-10-10T08:39:51Z" uid="20587" user="balrog-kun" changeset="2801098">
    <nd ref="525045866"/>
    <nd ref="525045877"/>
    <nd ref="525045829"/>
    <nd ref="525045846"/>
    <nd ref="525045802"/>
    <nd ref="525045818"/>
    <nd ref="525048491"/>
    <nd ref="525045878"/>
    <nd ref="525048449"/>
    <nd ref="525045782"/>
    <nd ref="525048468"/>
    <nd ref="525048487"/>
    <nd ref="525045866"/>
    <tag k="attribution" v="Mono County GIS"/>
    <tag k="building" v="yes"/>
    <tag k="ele" v="8221.579"/>
  </way>
  <way id="42190534" version="1" timestamp="2009-10-08T08:52:58Z" uid="55774" user="nmixter" changeset="2776826">
    <nd ref="525047893"/>
    <nd ref="525045348"/>
    <nd ref="525045360"/>
    <nd ref="525045388"/>
    <nd ref="525045407"/>
    <nd ref="525045428"/>
    <nd ref="525047893"/>
    <tag k="DriveID" v="0"/>
    <tag k="addr:housenumber" v="0"/>
    <tag k="attribution" v="Mono County GIS"/>
    <tag k="building" v="yes"/>
    <tag k="ele" v="8233.754"/>
    <tag k="stories" v="0.0"/>
  </way>
  <way id="42190534" version="2" timestamp="2009-10-10T08:39:51Z" uid="20587" user="balrog-kun" changeset="2801098">
    <nd ref="525047893"/>
    <nd ref="525045348"/>
    <nd ref="525045360"/>
    <nd ref="525045388"/>
    <nd ref="525045407"/>
    <nd ref="525045428"/>
    <nd ref="525047893"/>
    <tag k="attribution" v="Mono County GIS"/>
    <tag k="building" v="yes"/>
    <tag k="ele" v="8233.754"/>
  </way>
  <way id="42190542" version="1" timestamp="2009-10-08T08:53:00Z" uid="55774" user="nmixter" changeset="2776826">
    <nd ref="525100008"/>
    <nd ref="525099952"/>
    <nd ref="525099970"/>
    <nd ref="525099989"/>
    <nd ref="525100008"/>
    <tag k="DriveID" v="0"/>
    <tag k="addr:housenumber" v="0"/>
    <tag k="attribution" v="Mono County GIS"/>
    <tag k="building" v="yes"/>
    <tag k="ele" v="8158.349"/>
    <tag k="stories" v="0.0"/>
  </way>
  <way id="42190542" version="2" timestamp="2009-10-10T08:39:51Z" uid="20587" user="balrog-kun" changeset="2801098">
    <nd ref="525100008"/>
    <nd ref="525099952"/>
    <nd ref="525099970"/>
    <nd ref="525099989"/>
    <nd ref="525100008"/>
    <tag k="attribution" v="Mono County GIS"/>
    <tag k="building" v="yes"/>
    <tag k="ele" v="8158.349"/>
  </way>
  <way id="42190545" version="1" timestamp="2009-10-08T08:53:01Z" uid="55774" user="nmixter" changeset="2776826">
    <nd ref="525101313"/>
    <nd ref="525101295"/>
    <nd ref="525101244"/>
    <nd ref="525101273"/>
    <nd ref="525101216"/>
    <nd ref="525101225"/>
    <nd ref="525101119"/>
    <nd ref="525101126"/>
    <nd ref="525101125"/>
    <nd ref="525101160"/>
    <nd ref="525101132"/>
    <nd ref="525101191"/>
    <nd ref="525101313"/>
    <tag k="DriveID" v="0"/>
    <tag k="addr:housenumber" v="0"/>
    <tag k="attribution" v="Mono County GIS"/>
    <tag k="building" v="yes"/>
    <tag k="ele" v="8154.233"/>
    <tag k="stories" v="0.0"/>
  </way>
  <way id="42190545" version="2" timestamp="2009-10-10T08:39:52Z" uid="20587" user="balrog-kun" changeset="2801098">
    <nd ref="525101313"/>
    <nd ref="525101295"/>
    <nd ref="525101244"/>
    <nd ref="525101273"/>
    <nd ref="525101216"/>
    <nd ref="525101225"/>
    <nd ref="525101119"/>
    <nd ref="525101126"/>
    <nd ref="525101125"/>
    <nd ref="525101160"/>
    <nd ref="525101132"/>
    <nd ref="525101191"/>
    <nd ref="525101313"/>
    <tag k="attribution" v="Mono County GIS"/>
    <tag k="building" v="yes"/>
    <tag k="ele" v="8154.233"/>
  </way>
  <way id="42190551" version="1" timestamp="2009-10-08T08:53:02Z" uid="55774" user="nmixter" changeset="2776826">
    <nd ref="525045342"/>
    <nd ref="525045347"/>
    <nd ref="525045214"/>
    <nd ref="525045297"/>
    <nd ref="525045268"/>
    <nd ref="525045441"/>
    <nd ref="525045320"/>
    <nd ref="525045440"/>
    <nd ref="525045235"/>
    <nd ref="525045252"/>
    <nd ref="525045086"/>
    <nd ref="525045189"/>
    <nd ref="525045342"/>
    <tag k="DriveID" v="0"/>
    <tag k="addr:housenumber" v="0"/>
    <tag k="attribution" v="Mono County GIS"/>
    <tag k="building" v="yes"/>
    <tag k="ele" v="8235.726"/>
    <tag k="stories" v="0.0"/>
  </way>
  <way id="42190551" version="2" timestamp="2009-10-10T08:39:51Z" uid="20587" user="balrog-kun" changeset="2801098">
    <nd ref="525045342"/>
    <nd ref="525045347"/>
    <nd ref="525045214"/>
    <nd ref="525045297"/>
    <nd ref="525045268"/>
    <nd ref="525045441"/>
    <nd ref="525045320"/>
    <nd ref="525045440"/>
    <nd ref="525045235"/>
    <nd ref="525045252"/>
    <nd ref="525045086"/>
    <nd ref="525045189"/>
    <nd ref="525045342"/>
    <tag k="attribution" v="Mono County GIS"/>
    <tag k="building" v="yes"/>
    <tag k="ele" v="8235.726"/>
  </way>
  <way id="42190560" version="1" timestamp="2009-10-08T08:53:04Z" uid="55774" user="nmixter" changeset="2776826">
    <nd ref="525043857"/>
    <nd ref="525043926"/>
    <nd ref="525043915"/>
    <nd ref="525043894"/>
    <nd ref="525043804"/>
    <nd ref="525043838"/>
    <nd ref="525043821"/>
    <nd ref="525043810"/>
    <nd ref="525043857"/>
    <tag k="DriveID" v="0"/>
    <tag k="addr:housenumber" v="0"/>
    <tag k="attribution" v="Mono County GIS"/>
    <tag k="building" v="yes"/>
    <tag k="ele" v="8218.707"/>
    <tag k="stories" v="0.0"/>
  </way>
  <way id="42190560" version="2" timestamp="2009-10-10T08:39:51Z" uid="20587" user="balrog-kun" changeset="2801098">
    <nd ref="525043857"/>
    <nd ref="525043926"/>
    <nd ref="525043915"/>
    <nd ref="525043894"/>
    <nd ref="525043804"/>
    <nd ref="525043838"/>
    <nd ref="525043821"/>
    <nd ref="525043810"/>
    <nd ref="525043857"/>
    <tag k="attribution" v="Mono County GIS"/>
    <tag k="building" v="yes"/>
    <tag k="ele" v="8218.707"/>
  </way>
  <way id="42190565" version="1" timestamp="2009-10-08T08:53:06Z" uid="55774" user="nmixter" changeset="2776826">
    <nd ref="525164867"/>
    <nd ref="525164869"/>
    <nd ref="525164868"/>
    <nd ref="525164871"/>
    <nd ref="525164870"/>
    <nd ref="525164872"/>
    <nd ref="525164867"/>
    <tag k="DriveID" v="0"/>
    <tag k="addr:housenumber" v="0"/>
    <tag k="attribution" v="Mono County GIS"/>
    <tag k="building" v="yes"/>
    <tag k="ele" v="7909.032"/>
    <tag k="stories" v="0.0"/>
  </way>
  <way id="42190565" version="2" timestamp="2009-10-10T08:39:51Z" uid="20587" user="balrog-kun" changeset="2801098">
    <nd ref="525164867"/>
    <nd ref="525164869"/>
    <nd ref="525164868"/>
    <nd ref="525164871"/>
    <nd ref="525164870"/>
    <nd ref="525164872"/>
    <nd ref="525164867"/>
    <tag k="attribution" v="Mono County GIS"/>
    <tag k="building" v="yes"/>
    <tag k="ele" v="7909.032"/>
  </way>
  <way id="42190566" version="1" timestamp="2009-10-08T08:53:07Z" uid="55774" user="nmixter" changeset="2776826">
    <nd ref="525193076"/>
    <nd ref="525193105"/>
    <nd ref="525193124"/>
    <nd ref="525193145"/>
    <nd ref="525193076"/>
    <tag k="DriveID" v="0"/>
    <tag k="addr:housenumber" v="0"/>
    <tag k="attribution" v="Mono County GIS"/>
    <tag k="building" v="yes"/>
    <tag k="ele" v="7866.567"/>
    <tag k="stories" v="0.0"/>
  </way>
  <way id="42190566" version="2" timestamp="2009-10-10T08:39:50Z" uid="20587" user="balrog-kun" changeset="2801098">
    <nd ref="525193076"/>
    <nd ref="525193105"/>
    <nd ref="525193124"/>
    <nd ref="525193145"/>
    <nd ref="525193076"/>
    <tag k="attribution" v="Mono County GIS"/>
    <tag k="building" v="yes"/>
    <tag k="ele" v="7866.567"/>
  </way>
  <way id="42190567" version="1" timestamp="2009-10-08T08:53:08Z" uid="55774" user="nmixter" changeset="2776826">
    <nd ref="525099941"/>
    <nd ref="525099940"/>
    <nd ref="525099943"/>
    <nd ref="525099942"/>
    <nd ref="525099941"/>
    <tag k="DriveID" v="0"/>
    <tag k="addr:housenumber" v="0"/>
    <tag k="attribution" v="Mono County GIS"/>
    <tag k="building" v="yes"/>
    <tag k="ele" v="8198.388"/>
    <tag k="stories" v="0.0"/>
  </way>
  <way id="42190567" version="2" timestamp="2009-10-10T08:39:50Z" uid="20587" user="balrog-kun" changeset="2801098">
    <nd ref="525099941"/>
    <nd ref="525099940"/>
    <nd ref="525099943"/>
    <nd ref="525099942"/>
    <nd ref="525099941"/>
    <tag k="attribution" v="Mono County GIS"/>
    <tag k="building" v="yes"/>
    <tag k="ele" v="8198.388"/>
  </way>
  <way id="42190573" version="1" timestamp="2009-10-08T08:53:09Z" uid="55774" user="nmixter" changeset="2776826">
    <nd ref="525190810"/>
    <nd ref="525190827"/>
    <nd ref="525190873"/>
    <nd ref="525190885"/>
    <nd ref="525190850"/>
    <nd ref="525164880"/>
    <nd ref="525164881"/>
    <nd ref="525190922"/>
    <nd ref="525190978"/>
    <nd ref="525190902"/>
    <nd ref="525190949"/>
    <nd ref="525190810"/>
    <tag k="DriveID" v="0"/>
    <tag k="addr:housenumber" v="0"/>
    <tag k="attribution" v="Mono County GIS"/>
    <tag k="building" v="yes"/>
    <tag k="ele" v="7897.908"/>
    <tag k="stories" v="0.0"/>
  </way>
  <way id="42190573" version="2" timestamp="2009-10-10T08:39:51Z" uid="20587" user="balrog-kun" changeset="2801098">
    <nd ref="525190810"/>
    <nd ref="525190827"/>
    <nd ref="525190873"/>
    <nd ref="525190885"/>
    <nd ref="525190850"/>
    <nd ref="525164880"/>
    <nd ref="525164881"/>
    <nd ref="525190922"/>
    <nd ref="525190978"/>
    <nd ref="525190902"/>
    <nd ref="525190949"/>
    <nd ref="525190810"/>
    <tag k="attribution" v="Mono County GIS"/>
    <tag k="building" v="yes"/>
    <tag k="ele" v="7897.908"/>
  </way>
  <way id="42190584" version="1" timestamp="2009-10-08T08:53:11Z" uid="55774" user="nmixter" changeset="2776826">
    <nd ref="525191292"/>
    <nd ref="525191665"/>
    <nd ref="525191655"/>
    <nd ref="525191691"/>
    <nd ref="525191292"/>
    <tag k="DriveID" v="0"/>
    <tag k="addr:housenumber" v="0"/>
    <tag k="attribution" v="Mono County GIS"/>
    <tag k="building" v="yes"/>
    <tag k="ele" v="7891.59"/>
    <tag k="stories" v="0.0"/>
  </way>
  <way id="42190584" version="2" timestamp="2009-10-10T08:39:51Z" uid="20587" user="balrog-kun" changeset="2801098">
    <nd ref="525191292"/>
    <nd ref="525191665"/>
    <nd ref="525191655"/>
    <nd ref="525191691"/>
    <nd ref="525191292"/>
    <tag k="attribution" v="Mono County GIS"/>
    <tag k="building" v="yes"/>
    <tag k="ele" v="7891.59"/>
  </way>
  <way id="42190587" version="1" timestamp="2009-10-08T08:53:12Z" uid="55774" user="nmixter" changeset="2776826">
    <nd ref="525191549"/>
    <nd ref="525191600"/>
    <nd ref="525191592"/>
    <nd ref="525191630"/>
    <nd ref="525191549"/>
    <tag k="DriveID" v="0"/>
    <tag k="addr:housenumber" v="0"/>
    <tag k="attribution" v="Mono County GIS"/>
    <tag k="building" v="yes"/>
    <tag k="ele" v="7882.822"/>
    <tag k="stories" v="0.0"/>
  </way>
  <way id="42190587" version="2" timestamp="2009-10-10T08:39:51Z" uid="20587" user="balrog-kun" changeset="2801098">
    <nd ref="525191549"/>
    <nd ref="525191600"/>
    <nd ref="525191592"/>
    <nd ref="525191630"/>
    <nd ref="525191549"/>
    <tag k="attribution" v="Mono County GIS"/>
    <tag k="building" v="yes"/>
    <tag k="ele" v="7882.822"/>
  </way>
  <way id="42190598" version="1" timestamp="2009-10-08T08:53:14Z" uid="55774" user="nmixter" changeset="2776826">
    <nd ref="525164815"/>
    <nd ref="525164814"/>
    <nd ref="525164810"/>
    <nd ref="525164813"/>
    <nd ref="525164815"/>
    <tag k="DriveID" v="0"/>
    <tag k="addr:housenumber" v="0"/>
    <tag k="attribution" v="Mono County GIS"/>
    <tag k="building" v="yes"/>
    <tag k="ele" v="7902.961"/>
    <tag k="stories" v="0.0"/>
  </way>
  <way id="42190598" version="2" timestamp="2009-10-10T08:39:40Z" uid="20587" user="balrog-kun" changeset="2801098">
    <nd ref="525164815"/>
    <nd ref="525164814"/>
    <nd ref="525164810"/>
    <nd ref="525164813"/>
    <nd ref="525164815"/>
    <tag k="attribution" v="Mono County GIS"/>
    <tag k="building" v="yes"/>
    <tag k="ele" v="7902.961"/>
  </way>
  <way id="42190604" version="1" timestamp="2009-10-08T08:53:15Z" uid="55774" user="nmixter" changeset="2776826">
    <nd ref="525164811"/>
    <nd ref="525164812"/>
    <nd ref="525164817"/>
    <nd ref="525164816"/>
    <nd ref="525164811"/>
    <tag k="DriveID" v="0"/>
    <tag k="addr:housenumber" v="0"/>
    <tag k="attribution" v="Mono County GIS"/>
    <tag k="building" v="yes"/>
    <tag k="ele" v="7903.782"/>
    <tag k="stories" v="0.0"/>
  </way>
  <way id="42190604" version="2" timestamp="2009-10-10T08:39:40Z" uid="20587" user="balrog-kun" changeset="2801098">
    <nd ref="525164811"/>
    <nd ref="525164812"/>
    <nd ref="525164817"/>
    <nd ref="525164816"/>
    <nd ref="525164811"/>
    <tag k="attribution" v="Mono County GIS"/>
    <tag k="building" v="yes"/>
    <tag k="ele" v="7903.782"/>
  </way>
  <way id="42190609" version="1" timestamp="2009-10-08T08:53:16Z" uid="55774" user="nmixter" changeset="2776826">
    <nd ref="525192726"/>
    <nd ref="525192739"/>
    <nd ref="525191609"/>
    <nd ref="525192705"/>
    <nd ref="525192726"/>
    <tag k="DriveID" v="0"/>
    <tag k="addr:housenumber" v="0"/>
    <tag k="attribution" v="Mono County GIS"/>
    <tag k="building" v="yes"/>
    <tag k="ele" v="7890.154"/>
    <tag k="stories" v="0.0"/>
  </way>
  <way id="42190609" version="2" timestamp="2009-10-10T08:39:40Z" uid="20587" user="balrog-kun" changeset="2801098">
    <nd ref="525192726"/>
    <nd ref="525192739"/>
    <nd ref="525191609"/>
    <nd ref="525192705"/>
    <nd ref="525192726"/>
    <tag k="attribution" v="Mono County GIS"/>
    <tag k="building" v="yes"/>
    <tag k="ele" v="7890.154"/>
  </way>
  <way id="42190613" version="1" timestamp="2009-10-08T08:53:17Z" uid="55774" user="nmixter" changeset="2776826">
    <nd ref="525192753"/>
    <nd ref="525192755"/>
    <nd ref="525192744"/>
    <nd ref="525192770"/>
    <nd ref="525192753"/>
    <tag k="DriveID" v="0"/>
    <tag k="addr:housenumber" v="0"/>
    <tag k="attribution" v="Mono County GIS"/>
    <tag k="building" v="yes"/>
    <tag k="ele" v="7875.125"/>
    <tag k="stories" v="0.0"/>
  </way>
  <way id="42190613" version="2" timestamp="2009-10-10T08:39:40Z" uid="20587" user="balrog-kun" changeset="2801098">
    <nd ref="525192753"/>
    <nd ref="525192755"/>
    <nd ref="525192744"/>
    <nd ref="525192770"/>
    <nd ref="525192753"/>
    <tag k="attribution" v="Mono County GIS"/>
    <tag k="building" v="yes"/>
    <tag k="ele" v="7875.125"/>
  </way>
  <way id="42190616" version="1" timestamp="2009-10-08T08:53:18Z" uid="55774" user="nmixter" changeset="2776826">
    <nd ref="525190346"/>
    <nd ref="525190363"/>
    <nd ref="525190967"/>
    <nd ref="525191021"/>
    <nd ref="525191001"/>
    <nd ref="525190982"/>
    <nd ref="525190515"/>
    <nd ref="525190537"/>
    <nd ref="525190346"/>
    <tag k="DriveID" v="0"/>
    <tag k="addr:housenumber" v="0"/>
    <tag k="attribution" v="Mono County GIS"/>
    <tag k="building" v="yes"/>
    <tag k="ele" v="7885.962"/>
    <tag k="stories" v="0.0"/>
  </way>
  <way id="42190616" version="2" timestamp="2009-10-10T08:39:40Z" uid="20587" user="balrog-kun" changeset="2801098">
    <nd ref="525190346"/>
    <nd ref="525190363"/>
    <nd ref="525190967"/>
    <nd ref="525191021"/>
    <nd ref="525191001"/>
    <nd ref="525190982"/>
    <nd ref="525190515"/>
    <nd ref="525190537"/>
    <nd ref="525190346"/>
    <tag k="attribution" v="Mono County GIS"/>
    <tag k="building" v="yes"/>
    <tag k="ele" v="7885.962"/>
  </way>
  <way id="42190619" version="1" timestamp="2009-10-08T08:53:19Z" uid="55774" user="nmixter" changeset="2776826">
    <nd ref="525164878"/>
    <nd ref="525164879"/>
    <nd ref="525164877"/>
    <nd ref="525164882"/>
    <nd ref="525164878"/>
    <tag k="DriveID" v="0"/>
    <tag k="addr:housenumber" v="0"/>
    <tag k="attribution" v="Mono County GIS"/>
    <tag k="building" v="yes"/>
    <tag k="ele" v="7899.593"/>
    <tag k="stories" v="0.0"/>
  </way>
  <way id="42190619" version="2" timestamp="2009-10-10T08:39:40Z" uid="20587" user="balrog-kun" changeset="2801098">
    <nd ref="525164878"/>
    <nd ref="525164879"/>
    <nd ref="525164877"/>
    <nd ref="525164882"/>
    <nd ref="525164878"/>
    <tag k="attribution" v="Mono County GIS"/>
    <tag k="building" v="yes"/>
    <tag k="ele" v="7899.593"/>
  </way>
  <way id="42190679" version="1" timestamp="2009-10-08T08:53:35Z" uid="55774" user="nmixter" changeset="2776826">
    <nd ref="525161651"/>
    <nd ref="525161652"/>
    <nd ref="525161658"/>
    <nd ref="525161657"/>
    <nd ref="525161651"/>
    <tag k="DriveID" v="0"/>
    <tag k="addr:housenumber" v="0"/>
    <tag k="attribution" v="Mono County GIS"/>
    <tag k="building" v="yes"/>
    <tag k="ele" v="7898.686"/>
    <tag k="stories" v="0.0"/>
  </way>
  <way id="42190679" version="2" timestamp="2009-10-10T08:39:41Z" uid="20587" user="balrog-kun" changeset="2801098">
    <nd ref="525161651"/>
    <nd ref="525161652"/>
    <nd ref="525161658"/>
    <nd ref="525161657"/>
    <nd ref="525161651"/>
    <tag k="attribution" v="Mono County GIS"/>
    <tag k="building" v="yes"/>
    <tag k="ele" v="7898.686"/>
  </way>
  <way id="42190682" version="1" timestamp="2009-10-08T08:53:36Z" uid="55774" user="nmixter" changeset="2776826">
    <nd ref="525161655"/>
    <nd ref="525161656"/>
    <nd ref="525161653"/>
    <nd ref="525161654"/>
    <nd ref="525161655"/>
    <tag k="DriveID" v="0"/>
    <tag k="addr:housenumber" v="0"/>
    <tag k="attribution" v="Mono County GIS"/>
    <tag k="building" v="yes"/>
    <tag k="ele" v="7888.597"/>
    <tag k="stories" v="0.0"/>
  </way>
  <way id="42190682" version="2" timestamp="2009-10-10T08:39:41Z" uid="20587" user="balrog-kun" changeset="2801098">
    <nd ref="525161655"/>
    <nd ref="525161656"/>
    <nd ref="525161653"/>
    <nd ref="525161654"/>
    <nd ref="525161655"/>
    <tag k="attribution" v="Mono County GIS"/>
    <tag k="building" v="yes"/>
    <tag k="ele" v="7888.597"/>
  </way>
  <way id="42190689" version="1" timestamp="2009-10-08T08:53:38Z" uid="55774" user="nmixter" changeset="2776826">
    <nd ref="524868257"/>
    <nd ref="524868243"/>
    <nd ref="524868242"/>
    <nd ref="524868241"/>
    <nd ref="524868287"/>
    <nd ref="524868268"/>
    <nd ref="524866240"/>
    <nd ref="524866250"/>
    <nd ref="524868257"/>
    <tag k="DriveID" v="0"/>
    <tag k="addr:city" v="Mammoth Lakes City"/>
    <tag k="addr:housenumber" v="130"/>
    <tag k="addr:street" v="Ski"/>
    <tag k="attribution" v="Mono County GIS"/>
    <tag k="building" v="yes"/>
    <tag k="ele" v="7917.348"/>
    <tag k="name" v="Ski Trail MH Park"/>
    <tag k="stories" v="1.0"/>
  </way>
  <way id="42190689" version="2" timestamp="2009-10-10T08:05:49Z" uid="20587" user="balrog-kun" changeset="2800884">
    <nd ref="524868257"/>
    <nd ref="524868243"/>
    <nd ref="524868242"/>
    <nd ref="524868241"/>
    <nd ref="524868287"/>
    <nd ref="524868268"/>
    <nd ref="524866240"/>
    <nd ref="524866250"/>
    <nd ref="524868257"/>
    <tag k="addr:city" v="Mammoth Lakes City"/>
    <tag k="addr:housenumber" v="130"/>
    <tag k="addr:street" v="Ski"/>
    <tag k="attribution" v="Mono County GIS"/>
    <tag k="building" v="yes"/>
    <tag k="ele" v="7917.348"/>
    <tag k="name" v="Ski Trail MH Park"/>
    <tag k="stories" v="1.0"/>
  </way>
  <way id="42190694" version="1" timestamp="2009-10-08T08:53:39Z" uid="55774" user="nmixter" changeset="2776826">
    <nd ref="524865537"/>
    <nd ref="524865515"/>
    <nd ref="524863590"/>
    <nd ref="524863600"/>
    <nd ref="524865537"/>
    <tag k="DriveID" v="0"/>
    <tag k="addr:city" v="Mammoth Lakes City"/>
    <tag k="addr:housenumber" v="130"/>
    <tag k="addr:street" v="Ski"/>
    <tag k="attribution" v="Mono County GIS"/>
    <tag k="building" v="yes"/>
    <tag k="ele" v="7903.194"/>
    <tag k="name" v="Ski Trail MH Park"/>
    <tag k="stories" v="1.0"/>
  </way>
  <way id="42190694" version="2" timestamp="2009-10-10T08:05:49Z" uid="20587" user="balrog-kun" changeset="2800884">
    <nd ref="524865537"/>
    <nd ref="524865515"/>
    <nd ref="524863590"/>
    <nd ref="524863600"/>
    <nd ref="524865537"/>
    <tag k="addr:city" v="Mammoth Lakes City"/>
    <tag k="addr:housenumber" v="130"/>
    <tag k="addr:street" v="Ski"/>
    <tag k="attribution" v="Mono County GIS"/>
    <tag k="building" v="yes"/>
    <tag k="ele" v="7903.194"/>
    <tag k="name" v="Ski Trail MH Park"/>
    <tag k="stories" v="1.0"/>
  </way>
  <way id="42190701" version="1" timestamp="2009-10-08T08:53:40Z" uid="55774" user="nmixter" changeset="2776826">
    <nd ref="524888799"/>
    <nd ref="524868950"/>
    <nd ref="524868942"/>
    <nd ref="524868935"/>
    <nd ref="524888799"/>
    <tag k="DriveID" v="0"/>
    <tag k="addr:housenumber" v="0"/>
    <tag k="attribution" v="Mono County GIS"/>
    <tag k="building" v="yes"/>
    <tag k="ele" v="7904.579"/>
    <tag k="stories" v="0.0"/>
  </way>
  <way id="42190701" version="2" timestamp="2009-10-10T08:05:48Z" uid="20587" user="balrog-kun" changeset="2800884">
    <nd ref="524888799"/>
    <nd ref="524868950"/>
    <nd ref="524868942"/>
    <nd ref="524868935"/>
    <nd ref="524888799"/>
    <tag k="attribution" v="Mono County GIS"/>
    <tag k="building" v="yes"/>
    <tag k="ele" v="7904.579"/>
  </way>
  <way id="42190706" version="1" timestamp="2009-10-08T08:53:41Z" uid="55774" user="nmixter" changeset="2776826">
    <nd ref="524888828"/>
    <nd ref="524888819"/>
    <nd ref="524888836"/>
    <nd ref="524888829"/>
    <nd ref="524888858"/>
    <nd ref="524888845"/>
    <nd ref="524888828"/>
    <tag k="DriveID" v="0"/>
    <tag k="addr:housenumber" v="0"/>
    <tag k="attribution" v="Mono County GIS"/>
    <tag k="building" v="yes"/>
    <tag k="ele" v="7918.373"/>
    <tag k="stories" v="0.0"/>
  </way>
  <way id="42190706" version="2" timestamp="2009-10-10T08:05:48Z" uid="20587" user="balrog-kun" changeset="2800884">
    <nd ref="524888828"/>
    <nd ref="524888819"/>
    <nd ref="524888836"/>
    <nd ref="524888829"/>
    <nd ref="524888858"/>
    <nd ref="524888845"/>
    <nd ref="524888828"/>
    <tag k="attribution" v="Mono County GIS"/>
    <tag k="building" v="yes"/>
    <tag k="ele" v="7918.373"/>
  </way>
  <way id="42190712" version="1" timestamp="2009-10-08T08:53:42Z" uid="55774" user="nmixter" changeset="2776826">
    <nd ref="525162651"/>
    <nd ref="525162861"/>
    <nd ref="525162641"/>
    <nd ref="525162636"/>
    <nd ref="525162634"/>
    <nd ref="525162644"/>
    <nd ref="525162622"/>
    <nd ref="525162852"/>
    <nd ref="525162651"/>
    <tag k="DriveID" v="4681"/>
    <tag k="addr:city" v="Mammoth Lakes City"/>
    <tag k="addr:housenumber" v="25"/>
    <tag k="addr:street" v="Joaquin"/>
    <tag k="attribution" v="Mono County GIS"/>
    <tag k="building" v="yes"/>
    <tag k="ele" v="7934.892"/>
    <tag k="stories" v="0.0"/>
  </way>
  <way id="42190712" version="2" timestamp="2009-10-10T08:39:41Z" uid="20587" user="balrog-kun" changeset="2801098">
    <nd ref="525162651"/>
    <nd ref="525162861"/>
    <nd ref="525162641"/>
    <nd ref="525162636"/>
    <nd ref="525162634"/>
    <nd ref="525162644"/>
    <nd ref="525162622"/>
    <nd ref="525162852"/>
    <nd ref="525162651"/>
    <tag k="DriveID" v="4681"/>
    <tag k="addr:city" v="Mammoth Lakes City"/>
    <tag k="addr:housenumber" v="25"/>
    <tag k="addr:street" v="Joaquin"/>
    <tag k="attribution" v="Mono County GIS"/>
    <tag k="building" v="yes"/>
    <tag k="ele" v="7934.892"/>
  </way>
  <way id="42190717" version="1" timestamp="2009-10-08T08:53:43Z" uid="55774" user="nmixter" changeset="2776826">
    <nd ref="525164086"/>
    <nd ref="525164085"/>
    <nd ref="525164080"/>
    <nd ref="525164077"/>
    <nd ref="525164086"/>
    <tag k="DriveID" v="4728"/>
    <tag k="addr:city" v="Mammoth Lakes City"/>
    <tag k="addr:housenumber" v="29"/>
    <tag k="addr:street" v="Lupin"/>
    <tag k="attribution" v="Mono County GIS"/>
    <tag k="building" v="yes"/>
    <tag k="ele" v="7913.796"/>
    <tag k="stories" v="0.0"/>
  </way>
  <way id="42190717" version="2" timestamp="2009-10-10T08:39:40Z" uid="20587" user="balrog-kun" changeset="2801098">
    <nd ref="525164086"/>
    <nd ref="525164085"/>
    <nd ref="525164080"/>
    <nd ref="525164077"/>
    <nd ref="525164086"/>
    <tag k="DriveID" v="4728"/>
    <tag k="addr:city" v="Mammoth Lakes City"/>
    <tag k="addr:housenumber" v="29"/>
    <tag k="addr:street" v="Lupin"/>
    <tag k="attribution" v="Mono County GIS"/>
    <tag k="building" v="yes"/>
    <tag k="ele" v="7913.796"/>
  </way>
  <way id="42190724" version="1" timestamp="2009-10-08T08:53:45Z" uid="55774" user="nmixter" changeset="2776826">
    <nd ref="525164090"/>
    <nd ref="525164089"/>
    <nd ref="525164091"/>
    <nd ref="525164092"/>
    <nd ref="525164088"/>
    <nd ref="525164087"/>
    <nd ref="525164084"/>
    <nd ref="525164083"/>
    <nd ref="525164090"/>
    <tag k="DriveID" v="4728"/>
    <tag k="addr:city" v="Mammoth Lakes City"/>
    <tag k="addr:housenumber" v="29"/>
    <tag k="addr:street" v="Lupin"/>
    <tag k="attribution" v="Mono County GIS"/>
    <tag k="building" v="yes"/>
    <tag k="ele" v="7895.245"/>
    <tag k="stories" v="0.0"/>
  </way>
  <way id="42190724" version="2" timestamp="2009-10-10T08:39:43Z" uid="20587" user="balrog-kun" changeset="2801098">
    <nd ref="525164090"/>
    <nd ref="525164089"/>
    <nd ref="525164091"/>
    <nd ref="525164092"/>
    <nd ref="525164088"/>
    <nd ref="525164087"/>
    <nd ref="525164084"/>
    <nd ref="525164083"/>
    <nd ref="525164090"/>
    <tag k="DriveID" v="4728"/>
    <tag k="addr:city" v="Mammoth Lakes City"/>
    <tag k="addr:housenumber" v="29"/>
    <tag k="addr:street" v="Lupin"/>
    <tag k="attribution" v="Mono County GIS"/>
    <tag k="building" v="yes"/>
    <tag k="ele" v="7895.245"/>
  </way>
  <way id="42190731" version="1" timestamp="2009-10-08T08:53:46Z" uid="55774" user="nmixter" changeset="2776826">
    <nd ref="525164131"/>
    <nd ref="525164148"/>
    <nd ref="525164149"/>
    <nd ref="525164132"/>
    <nd ref="525164131"/>
    <tag k="DriveID" v="0"/>
    <tag k="addr:housenumber" v="0"/>
    <tag k="attribution" v="Mono County GIS"/>
    <tag k="building" v="yes"/>
    <tag k="ele" v="7890.409"/>
    <tag k="stories" v="0.0"/>
  </way>
  <way id="42190731" version="2" timestamp="2009-10-10T08:39:43Z" uid="20587" user="balrog-kun" changeset="2801098">
    <nd ref="525164131"/>
    <nd ref="525164148"/>
    <nd ref="525164149"/>
    <nd ref="525164132"/>
    <nd ref="525164131"/>
    <tag k="attribution" v="Mono County GIS"/>
    <tag k="building" v="yes"/>
    <tag k="ele" v="7890.409"/>
  </way>
  <way id="42190737" version="1" timestamp="2009-10-08T08:53:47Z" uid="55774" user="nmixter" changeset="2776826">
    <nd ref="525162405"/>
    <nd ref="525162391"/>
    <nd ref="525162395"/>
    <nd ref="525162384"/>
    <nd ref="525162383"/>
    <nd ref="525162382"/>
    <nd ref="525162381"/>
    <nd ref="525162379"/>
    <nd ref="525162405"/>
    <tag k="DriveID" v="0"/>
    <tag k="addr:housenumber" v="0"/>
    <tag k="attribution" v="Mono County GIS"/>
    <tag k="building" v="yes"/>
    <tag k="ele" v="7934.851"/>
    <tag k="stories" v="0.0"/>
  </way>
  <way id="42190737" version="2" timestamp="2009-10-10T08:39:42Z" uid="20587" user="balrog-kun" changeset="2801098">
    <nd ref="525162405"/>
    <nd ref="525162391"/>
    <nd ref="525162395"/>
    <nd ref="525162384"/>
    <nd ref="525162383"/>
    <nd ref="525162382"/>
    <nd ref="525162381"/>
    <nd ref="525162379"/>
    <nd ref="525162405"/>
    <tag k="attribution" v="Mono County GIS"/>
    <tag k="building" v="yes"/>
    <tag k="ele" v="7934.851"/>
  </way>
  <way id="42190745" version="1" timestamp="2009-10-08T08:53:49Z" uid="55774" user="nmixter" changeset="2776826">
    <nd ref="525164548"/>
    <nd ref="525164536"/>
    <nd ref="525164543"/>
    <nd ref="525164553"/>
    <nd ref="525164548"/>
    <tag k="DriveID" v="4820"/>
    <tag k="addr:city" v="Mammoth Lakes City"/>
    <tag k="addr:housenumber" v="41"/>
    <tag k="addr:street" v="Manzanita"/>
    <tag k="attribution" v="Mono County GIS"/>
    <tag k="building" v="yes"/>
    <tag k="ele" v="7881.168"/>
    <tag k="stories" v="0.0"/>
  </way>
  <way id="42190745" version="2" timestamp="2009-10-10T08:39:42Z" uid="20587" user="balrog-kun" changeset="2801098">
    <nd ref="525164548"/>
    <nd ref="525164536"/>
    <nd ref="525164543"/>
    <nd ref="525164553"/>
    <nd ref="525164548"/>
    <tag k="DriveID" v="4820"/>
    <tag k="addr:city" v="Mammoth Lakes City"/>
    <tag k="addr:housenumber" v="41"/>
    <tag k="addr:street" v="Manzanita"/>
    <tag k="attribution" v="Mono County GIS"/>
    <tag k="building" v="yes"/>
    <tag k="ele" v="7881.168"/>
  </way>
  <way id="42190753" version="1" timestamp="2009-10-08T08:53:50Z" uid="55774" user="nmixter" changeset="2776826">
    <nd ref="525164069"/>
    <nd ref="525164070"/>
    <nd ref="525164066"/>
    <nd ref="525164065"/>
    <nd ref="525164068"/>
    <nd ref="525164067"/>
    <nd ref="525164069"/>
    <tag k="DriveID" v="0"/>
    <tag k="addr:housenumber" v="0"/>
    <tag k="attribution" v="Mono County GIS"/>
    <tag k="building" v="yes"/>
    <tag k="ele" v="7903.043"/>
    <tag k="stories" v="0.0"/>
  </way>
  <way id="42190753" version="2" timestamp="2009-10-10T08:39:41Z" uid="20587" user="balrog-kun" changeset="2801098">
    <nd ref="525164069"/>
    <nd ref="525164070"/>
    <nd ref="525164066"/>
    <nd ref="525164065"/>
    <nd ref="525164068"/>
    <nd ref="525164067"/>
    <nd ref="525164069"/>
    <tag k="attribution" v="Mono County GIS"/>
    <tag k="building" v="yes"/>
    <tag k="ele" v="7903.043"/>
  </way>
  <way id="42190761" version="1" timestamp="2009-10-08T08:53:52Z" uid="55774" user="nmixter" changeset="2776826">
    <nd ref="525163712"/>
    <nd ref="525163710"/>
    <nd ref="525163711"/>
    <nd ref="525163709"/>
    <nd ref="525163708"/>
    <nd ref="525163707"/>
    <nd ref="525163706"/>
    <nd ref="525163705"/>
    <nd ref="525163683"/>
    <nd ref="525163684"/>
    <nd ref="525163685"/>
    <nd ref="525163686"/>
    <nd ref="525163712"/>
    <tag k="DriveID" v="0"/>
    <tag k="addr:housenumber" v="0"/>
    <tag k="attribution" v="Mono County GIS"/>
    <tag k="building" v="yes"/>
    <tag k="ele" v="7900.006"/>
    <tag k="stories" v="0.0"/>
  </way>
  <way id="42190761" version="2" timestamp="2009-10-10T08:39:42Z" uid="20587" user="balrog-kun" changeset="2801098">
    <nd ref="525163712"/>
    <nd ref="525163710"/>
    <nd ref="525163711"/>
    <nd ref="525163709"/>
    <nd ref="525163708"/>
    <nd ref="525163707"/>
    <nd ref="525163706"/>
    <nd ref="525163705"/>
    <nd ref="525163683"/>
    <nd ref="525163684"/>
    <nd ref="525163685"/>
    <nd ref="525163686"/>
    <nd ref="525163712"/>
    <tag k="attribution" v="Mono County GIS"/>
    <tag k="building" v="yes"/>
    <tag k="ele" v="7900.006"/>
  </way>
  <way id="42190767" version="1" timestamp="2009-10-08T08:53:53Z" uid="55774" user="nmixter" changeset="2776826">
    <nd ref="525163958"/>
    <nd ref="525163957"/>
    <nd ref="525163960"/>
    <nd ref="525163959"/>
    <nd ref="525163956"/>
    <nd ref="525163949"/>
    <nd ref="525163962"/>
    <nd ref="525163961"/>
    <nd ref="525163958"/>
    <tag k="DriveID" v="903"/>
    <tag k="addr:city" v="Mammoth Lakes City"/>
    <tag k="addr:housenumber" v="101"/>
    <tag k="addr:street" v="Manzanita"/>
    <tag k="attribution" v="Mono County GIS"/>
    <tag k="building" v="yes"/>
    <tag k="ele" v="7881.742"/>
    <tag k="stories" v="0.0"/>
  </way>
  <way id="42190767" version="2" timestamp="2009-10-10T08:39:42Z" uid="20587" user="balrog-kun" changeset="2801098">
    <nd ref="525163958"/>
    <nd ref="525163957"/>
    <nd ref="525163960"/>
    <nd ref="525163959"/>
    <nd ref="525163956"/>
    <nd ref="525163949"/>
    <nd ref="525163962"/>
    <nd ref="525163961"/>
    <nd ref="525163958"/>
    <tag k="DriveID" v="903"/>
    <tag k="addr:city" v="Mammoth Lakes City"/>
    <tag k="addr:housenumber" v="101"/>
    <tag k="addr:street" v="Manzanita"/>
    <tag k="attribution" v="Mono County GIS"/>
    <tag k="building" v="yes"/>
    <tag k="ele" v="7881.742"/>
  </way>
  <way id="42190774" version="1" timestamp="2009-10-08T08:53:55Z" uid="55774" user="nmixter" changeset="2776826">
    <nd ref="525161962"/>
    <nd ref="525161961"/>
    <nd ref="525161963"/>
    <nd ref="525161964"/>
    <nd ref="525161965"/>
    <nd ref="525161967"/>
    <nd ref="525161962"/>
    <tag k="DriveID" v="0"/>
    <tag k="addr:housenumber" v="0"/>
    <tag k="attribution" v="Mono County GIS"/>
    <tag k="building" v="yes"/>
    <tag k="ele" v="7918.023"/>
    <tag k="stories" v="0.0"/>
  </way>
  <way id="42190774" version="2" timestamp="2009-10-10T08:39:41Z" uid="20587" user="balrog-kun" changeset="2801098">
    <nd ref="525161962"/>
    <nd ref="525161961"/>
    <nd ref="525161963"/>
    <nd ref="525161964"/>
    <nd ref="525161965"/>
    <nd ref="525161967"/>
    <nd ref="525161962"/>
    <tag k="attribution" v="Mono County GIS"/>
    <tag k="building" v="yes"/>
    <tag k="ele" v="7918.023"/>
  </way>
  <way id="42190780" version="1" timestamp="2009-10-08T08:53:56Z" uid="55774" user="nmixter" changeset="2776826">
    <nd ref="525163578"/>
    <nd ref="525163579"/>
    <nd ref="525163606"/>
    <nd ref="525163603"/>
    <nd ref="525163599"/>
    <nd ref="525163589"/>
    <nd ref="525163593"/>
    <nd ref="525163582"/>
    <nd ref="525163585"/>
    <nd ref="525163594"/>
    <nd ref="525163578"/>
    <tag k="DriveID" v="0"/>
    <tag k="addr:housenumber" v="0"/>
    <tag k="attribution" v="Mono County GIS"/>
    <tag k="building" v="yes"/>
    <tag k="ele" v="7898.487"/>
    <tag k="stories" v="0.0"/>
  </way>
  <way id="42190780" version="2" timestamp="2009-10-10T08:39:41Z" uid="20587" user="balrog-kun" changeset="2801098">
    <nd ref="525163578"/>
    <nd ref="525163579"/>
    <nd ref="525163606"/>
    <nd ref="525163603"/>
    <nd ref="525163599"/>
    <nd ref="525163589"/>
    <nd ref="525163593"/>
    <nd ref="525163582"/>
    <nd ref="525163585"/>
    <nd ref="525163594"/>
    <nd ref="525163578"/>
    <tag k="attribution" v="Mono County GIS"/>
    <tag k="building" v="yes"/>
    <tag k="ele" v="7898.487"/>
  </way>
  <way id="42190784" version="1" timestamp="2009-10-08T08:53:57Z" uid="55774" user="nmixter" changeset="2776826">
    <nd ref="525163471"/>
    <nd ref="525163472"/>
    <nd ref="525163473"/>
    <nd ref="525163474"/>
    <nd ref="525163471"/>
    <tag k="DriveID" v="0"/>
    <tag k="addr:housenumber" v="0"/>
    <tag k="attribution" v="Mono County GIS"/>
    <tag k="building" v="yes"/>
    <tag k="ele" v="7880.634"/>
    <tag k="stories" v="0.0"/>
  </way>
  <way id="42190784" version="2" timestamp="2009-10-10T08:39:44Z" uid="20587" user="balrog-kun" changeset="2801098">
    <nd ref="525163471"/>
    <nd ref="525163472"/>
    <nd ref="525163473"/>
    <nd ref="525163474"/>
    <nd ref="525163471"/>
    <tag k="attribution" v="Mono County GIS"/>
    <tag k="building" v="yes"/>
    <tag k="ele" v="7880.634"/>
  </way>
  <way id="42190789" version="1" timestamp="2009-10-08T08:53:58Z" uid="55774" user="nmixter" changeset="2776826">
    <nd ref="525161827"/>
    <nd ref="525161825"/>
    <nd ref="525161826"/>
    <nd ref="525161835"/>
    <nd ref="525161836"/>
    <nd ref="525161833"/>
    <nd ref="525161834"/>
    <nd ref="525161824"/>
    <nd ref="525161832"/>
    <nd ref="525161823"/>
    <nd ref="525161831"/>
    <nd ref="525161830"/>
    <nd ref="525161828"/>
    <nd ref="525161829"/>
    <nd ref="525161827"/>
    <tag k="DriveID" v="0"/>
    <tag k="addr:housenumber" v="0"/>
    <tag k="attribution" v="Mono County GIS"/>
    <tag k="building" v="yes"/>
    <tag k="ele" v="7902.386"/>
    <tag k="stories" v="0.0"/>
  </way>
  <way id="42190789" version="2" timestamp="2009-10-10T08:39:44Z" uid="20587" user="balrog-kun" changeset="2801098">
    <nd ref="525161827"/>
    <nd ref="525161825"/>
    <nd ref="525161826"/>
    <nd ref="525161835"/>
    <nd ref="525161836"/>
    <nd ref="525161833"/>
    <nd ref="525161834"/>
    <nd ref="525161824"/>
    <nd ref="525161832"/>
    <nd ref="525161823"/>
    <nd ref="525161831"/>
    <nd ref="525161830"/>
    <nd ref="525161828"/>
    <nd ref="525161829"/>
    <nd ref="525161827"/>
    <tag k="attribution" v="Mono County GIS"/>
    <tag k="building" v="yes"/>
    <tag k="ele" v="7902.386"/>
  </way>
  <way id="42190794" version="1" timestamp="2009-10-08T08:53:59Z" uid="55774" user="nmixter" changeset="2776826">
    <nd ref="525078027"/>
    <nd ref="525078017"/>
    <nd ref="525076433"/>
    <nd ref="525076417"/>
    <nd ref="525076486"/>
    <nd ref="525076471"/>
    <nd ref="525076502"/>
    <nd ref="525076518"/>
    <nd ref="525076547"/>
    <nd ref="525076567"/>
    <nd ref="525078130"/>
    <nd ref="525078065"/>
    <nd ref="525078091"/>
    <nd ref="525078111"/>
    <nd ref="525078123"/>
    <nd ref="525078046"/>
    <nd ref="525078056"/>
    <nd ref="525078027"/>
    <tag k="DriveID" v="7"/>
    <tag k="addr:city" v="Mammoth Lakes City"/>
    <tag k="addr:housenumber" v="1629"/>
    <tag k="addr:street" v="Majestic Pines"/>
    <tag k="attribution" v="Mono County GIS"/>
    <tag k="building" v="yes"/>
    <tag k="ele" v="8065.839"/>
    <tag k="name" v="Bigwood (Woodstock)"/>
    <tag k="stories" v="0.0"/>
  </way>
  <way id="42190794" version="2" timestamp="2009-10-10T08:39:44Z" uid="20587" user="balrog-kun" changeset="2801098">
    <nd ref="525078027"/>
    <nd ref="525078017"/>
    <nd ref="525076433"/>
    <nd ref="525076417"/>
    <nd ref="525076486"/>
    <nd ref="525076471"/>
    <nd ref="525076502"/>
    <nd ref="525076518"/>
    <nd ref="525076547"/>
    <nd ref="525076567"/>
    <nd ref="525078130"/>
    <nd ref="525078065"/>
    <nd ref="525078091"/>
    <nd ref="525078111"/>
    <nd ref="525078123"/>
    <nd ref="525078046"/>
    <nd ref="525078056"/>
    <nd ref="525078027"/>
    <tag k="DriveID" v="7"/>
    <tag k="addr:city" v="Mammoth Lakes City"/>
    <tag k="addr:housenumber" v="1629"/>
    <tag k="addr:street" v="Majestic Pines"/>
    <tag k="attribution" v="Mono County GIS"/>
    <tag k="building" v="yes"/>
    <tag k="ele" v="8065.839"/>
    <tag k="name" v="Bigwood (Woodstock)"/>
  </way>
  <way id="42190801" version="1" timestamp="2009-10-08T08:54:02Z" uid="55774" user="nmixter" changeset="2776826">
    <nd ref="525009371"/>
    <nd ref="525009400"/>
    <nd ref="525009259"/>
    <nd ref="525009244"/>
    <nd ref="525009371"/>
    <tag k="DriveID" v="0"/>
    <tag k="addr:housenumber" v="0"/>
    <tag k="attribution" v="Mono County GIS"/>
    <tag k="building" v="yes"/>
    <tag k="ele" v="8252.574"/>
    <tag k="stories" v="0.0"/>
  </way>
  <way id="42190801" version="2" timestamp="2009-10-10T08:39:44Z" uid="20587" user="balrog-kun" changeset="2801098">
    <nd ref="525009371"/>
    <nd ref="525009400"/>
    <nd ref="525009259"/>
    <nd ref="525009244"/>
    <nd ref="525009371"/>
    <tag k="attribution" v="Mono County GIS"/>
    <tag k="building" v="yes"/>
    <tag k="ele" v="8252.574"/>
  </way>
  <way id="42190803" version="1" timestamp="2009-10-08T08:54:03Z" uid="55774" user="nmixter" changeset="2776826">
    <nd ref="525160821"/>
    <nd ref="525160819"/>
    <nd ref="525160820"/>
    <nd ref="525160818"/>
    <nd ref="525160821"/>
    <tag k="DriveID" v="4524"/>
    <tag k="addr:city" v="Mammoth Lakes City"/>
    <tag k="addr:housenumber" v="379"/>
    <tag k="addr:street" v="Lupin"/>
    <tag k="attribution" v="Mono County GIS"/>
    <tag k="building" v="yes"/>
    <tag k="ele" v="7895.789"/>
    <tag k="stories" v="0.0"/>
  </way>
  <way id="42190803" version="2" timestamp="2009-10-10T08:39:44Z" uid="20587" user="balrog-kun" changeset="2801098">
    <nd ref="525160821"/>
    <nd ref="525160819"/>
    <nd ref="525160820"/>
    <nd ref="525160818"/>
    <nd ref="525160821"/>
    <tag k="DriveID" v="4524"/>
    <tag k="addr:city" v="Mammoth Lakes City"/>
    <tag k="addr:housenumber" v="379"/>
    <tag k="addr:street" v="Lupin"/>
    <tag k="attribution" v="Mono County GIS"/>
    <tag k="building" v="yes"/>
    <tag k="ele" v="7895.789"/>
  </way>
  <way id="42190807" version="1" timestamp="2009-10-08T08:54:04Z" uid="55774" user="nmixter" changeset="2776826">
    <nd ref="525157291"/>
    <nd ref="525160942"/>
    <nd ref="525160941"/>
    <nd ref="525157290"/>
    <nd ref="525157291"/>
    <tag k="DriveID" v="4543"/>
    <tag k="addr:city" v="Mammoth Lakes City"/>
    <tag k="addr:housenumber" v="340"/>
    <tag k="addr:street" v="Joaquin"/>
    <tag k="attribution" v="Mono County GIS"/>
    <tag k="building" v="yes"/>
    <tag k="ele" v="7920.561"/>
    <tag k="stories" v="0.0"/>
  </way>
  <way id="42190807" version="2" timestamp="2009-10-10T08:39:43Z" uid="20587" user="balrog-kun" changeset="2801098">
    <nd ref="525157291"/>
    <nd ref="525160942"/>
    <nd ref="525160941"/>
    <nd ref="525157290"/>
    <nd ref="525157291"/>
    <tag k="DriveID" v="4543"/>
    <tag k="addr:city" v="Mammoth Lakes City"/>
    <tag k="addr:housenumber" v="340"/>
    <tag k="addr:street" v="Joaquin"/>
    <tag k="attribution" v="Mono County GIS"/>
    <tag k="building" v="yes"/>
    <tag k="ele" v="7920.561"/>
  </way>
  <way id="42190809" version="1" timestamp="2009-10-08T08:54:04Z" uid="55774" user="nmixter" changeset="2776826">
    <nd ref="525160794"/>
    <nd ref="525160816"/>
    <nd ref="525160796"/>
    <nd ref="525160795"/>
    <nd ref="525160794"/>
    <tag k="DriveID" v="4524"/>
    <tag k="addr:city" v="Mammoth Lakes City"/>
    <tag k="addr:housenumber" v="379"/>
    <tag k="addr:street" v="Lupin"/>
    <tag k="attribution" v="Mono County GIS"/>
    <tag k="building" v="yes"/>
    <tag k="ele" v="7896.988"/>
    <tag k="stories" v="0.0"/>
  </way>
  <way id="42190809" version="2" timestamp="2009-10-10T08:39:44Z" uid="20587" user="balrog-kun" changeset="2801098">
    <nd ref="525160794"/>
    <nd ref="525160816"/>
    <nd ref="525160796"/>
    <nd ref="525160795"/>
    <nd ref="525160794"/>
    <tag k="DriveID" v="4524"/>
    <tag k="addr:city" v="Mammoth Lakes City"/>
    <tag k="addr:housenumber" v="379"/>
    <tag k="addr:street" v="Lupin"/>
    <tag k="attribution" v="Mono County GIS"/>
    <tag k="building" v="yes"/>
    <tag k="ele" v="7896.988"/>
  </way>
  <way id="42190811" version="1" timestamp="2009-10-08T08:54:05Z" uid="55774" user="nmixter" changeset="2776826">
    <nd ref="525160806"/>
    <nd ref="525160817"/>
    <nd ref="525160808"/>
    <nd ref="525160807"/>
    <nd ref="525160806"/>
    <tag k="DriveID" v="4524"/>
    <tag k="addr:city" v="Mammoth Lakes City"/>
    <tag k="addr:housenumber" v="379"/>
    <tag k="addr:street" v="Lupin"/>
    <tag k="attribution" v="Mono County GIS"/>
    <tag k="building" v="yes"/>
    <tag k="ele" v="7894.291"/>
    <tag k="stories" v="0.0"/>
  </way>
  <way id="42190811" version="2" timestamp="2009-10-10T08:39:44Z" uid="20587" user="balrog-kun" changeset="2801098">
    <nd ref="525160806"/>
    <nd ref="525160817"/>
    <nd ref="525160808"/>
    <nd ref="525160807"/>
    <nd ref="525160806"/>
    <tag k="DriveID" v="4524"/>
    <tag k="addr:city" v="Mammoth Lakes City"/>
    <tag k="addr:housenumber" v="379"/>
    <tag k="addr:street" v="Lupin"/>
    <tag k="attribution" v="Mono County GIS"/>
    <tag k="building" v="yes"/>
    <tag k="ele" v="7894.291"/>
  </way>
  <way id="42190821" version="1" timestamp="2009-10-08T08:54:07Z" uid="55774" user="nmixter" changeset="2776826">
    <nd ref="525157286"/>
    <nd ref="525157284"/>
    <nd ref="525157285"/>
    <nd ref="525160938"/>
    <nd ref="525157286"/>
    <tag k="DriveID" v="4541"/>
    <tag k="addr:city" v="Mammoth Lakes City"/>
    <tag k="addr:housenumber" v="373"/>
    <tag k="addr:street" v="Joaquin"/>
    <tag k="attribution" v="Mono County GIS"/>
    <tag k="building" v="yes"/>
    <tag k="ele" v="7904.279"/>
    <tag k="stories" v="0.0"/>
  </way>
  <way id="42190821" version="2" timestamp="2009-10-10T08:39:43Z" uid="20587" user="balrog-kun" changeset="2801098">
    <nd ref="525157286"/>
    <nd ref="525157284"/>
    <nd ref="525157285"/>
    <nd ref="525160938"/>
    <nd ref="525157286"/>
    <tag k="DriveID" v="4541"/>
    <tag k="addr:city" v="Mammoth Lakes City"/>
    <tag k="addr:housenumber" v="373"/>
    <tag k="addr:street" v="Joaquin"/>
    <tag k="attribution" v="Mono County GIS"/>
    <tag k="building" v="yes"/>
    <tag k="ele" v="7904.279"/>
  </way>
  <way id="42190829" version="1" timestamp="2009-10-08T08:54:08Z" uid="55774" user="nmixter" changeset="2776826">
    <nd ref="525160884"/>
    <nd ref="525160885"/>
    <nd ref="525160882"/>
    <nd ref="525160883"/>
    <nd ref="525160884"/>
    <tag k="DriveID" v="4506"/>
    <tag k="addr:city" v="Mammoth Lakes City"/>
    <tag k="addr:housenumber" v="371"/>
    <tag k="addr:street" v="Mono"/>
    <tag k="attribution" v="Mono County GIS"/>
    <tag k="building" v="yes"/>
    <tag k="ele" v="7907.376"/>
    <tag k="stories" v="0.0"/>
  </way>
  <way id="42190829" version="2" timestamp="2009-10-10T08:39:43Z" uid="20587" user="balrog-kun" changeset="2801098">
    <nd ref="525160884"/>
    <nd ref="525160885"/>
    <nd ref="525160882"/>
    <nd ref="525160883"/>
    <nd ref="525160884"/>
    <tag k="DriveID" v="4506"/>
    <tag k="addr:city" v="Mammoth Lakes City"/>
    <tag k="addr:housenumber" v="371"/>
    <tag k="addr:street" v="Mono"/>
    <tag k="attribution" v="Mono County GIS"/>
    <tag k="building" v="yes"/>
    <tag k="ele" v="7907.376"/>
  </way>
  <way id="42190833" version="1" timestamp="2009-10-08T08:54:10Z" uid="55774" user="nmixter" changeset="2776826">
    <nd ref="525160955"/>
    <nd ref="525160956"/>
    <nd ref="525160957"/>
    <nd ref="525160811"/>
    <nd ref="525160955"/>
    <tag k="DriveID" v="4525"/>
    <tag k="addr:city" v="Mammoth Lakes City"/>
    <tag k="addr:housenumber" v="359"/>
    <tag k="addr:street" v="Lupin"/>
    <tag k="attribution" v="Mono County GIS"/>
    <tag k="building" v="yes"/>
    <tag k="ele" v="7893.841"/>
    <tag k="stories" v="0.0"/>
  </way>
  <way id="42190833" version="2" timestamp="2009-10-10T08:39:43Z" uid="20587" user="balrog-kun" changeset="2801098">
    <nd ref="525160955"/>
    <nd ref="525160956"/>
    <nd ref="525160957"/>
    <nd ref="525160811"/>
    <nd ref="525160955"/>
    <tag k="DriveID" v="4525"/>
    <tag k="addr:city" v="Mammoth Lakes City"/>
    <tag k="addr:housenumber" v="359"/>
    <tag k="addr:street" v="Lupin"/>
    <tag k="attribution" v="Mono County GIS"/>
    <tag k="building" v="yes"/>
    <tag k="ele" v="7893.841"/>
  </way>
  <way id="42190838" version="1" timestamp="2009-10-08T08:54:11Z" uid="55774" user="nmixter" changeset="2776826">
    <nd ref="525160771"/>
    <nd ref="525160936"/>
    <nd ref="525160937"/>
    <nd ref="525160770"/>
    <nd ref="525160771"/>
    <tag k="DriveID" v="4541"/>
    <tag k="addr:city" v="Mammoth Lakes City"/>
    <tag k="addr:housenumber" v="373"/>
    <tag k="addr:street" v="Joaquin"/>
    <tag k="attribution" v="Mono County GIS"/>
    <tag k="building" v="yes"/>
    <tag k="ele" v="7902.681"/>
    <tag k="stories" v="0.0"/>
  </way>
  <way id="42190838" version="2" timestamp="2009-10-10T08:39:43Z" uid="20587" user="balrog-kun" changeset="2801098">
    <nd ref="525160771"/>
    <nd ref="525160936"/>
    <nd ref="525160937"/>
    <nd ref="525160770"/>
    <nd ref="525160771"/>
    <tag k="DriveID" v="4541"/>
    <tag k="addr:city" v="Mammoth Lakes City"/>
    <tag k="addr:housenumber" v="373"/>
    <tag k="addr:street" v="Joaquin"/>
    <tag k="attribution" v="Mono County GIS"/>
    <tag k="building" v="yes"/>
    <tag k="ele" v="7902.681"/>
  </way>
  <way id="42190845" version="1" timestamp="2009-10-08T08:54:12Z" uid="55774" user="nmixter" changeset="2776826">
    <nd ref="525161053"/>
    <nd ref="525161054"/>
    <nd ref="525161050"/>
    <nd ref="525161049"/>
    <nd ref="525161022"/>
    <nd ref="525161052"/>
    <nd ref="525161053"/>
    <tag k="DriveID" v="4507"/>
    <tag k="addr:city" v="Mammoth Lakes City"/>
    <tag k="addr:housenumber" v="357"/>
    <tag k="addr:street" v="Mono"/>
    <tag k="attribution" v="Mono County GIS"/>
    <tag k="building" v="yes"/>
    <tag k="ele" v="7907.975"/>
    <tag k="stories" v="0.0"/>
  </way>
  <way id="42190845" version="2" timestamp="2009-10-10T08:39:43Z" uid="20587" user="balrog-kun" changeset="2801098">
    <nd ref="525161053"/>
    <nd ref="525161054"/>
    <nd ref="525161050"/>
    <nd ref="525161049"/>
    <nd ref="525161022"/>
    <nd ref="525161052"/>
    <nd ref="525161053"/>
    <tag k="DriveID" v="4507"/>
    <tag k="addr:city" v="Mammoth Lakes City"/>
    <tag k="addr:housenumber" v="357"/>
    <tag k="addr:street" v="Mono"/>
    <tag k="attribution" v="Mono County GIS"/>
    <tag k="building" v="yes"/>
    <tag k="ele" v="7907.975"/>
  </way>
  <way id="42190850" version="1" timestamp="2009-10-08T08:54:14Z" uid="55774" user="nmixter" changeset="2776826">
    <nd ref="525160812"/>
    <nd ref="525160813"/>
    <nd ref="525160814"/>
    <nd ref="525160815"/>
    <nd ref="525160812"/>
    <tag k="DriveID" v="4525"/>
    <tag k="addr:city" v="Mammoth Lakes City"/>
    <tag k="addr:housenumber" v="359"/>
    <tag k="addr:street" v="Lupin"/>
    <tag k="attribution" v="Mono County GIS"/>
    <tag k="building" v="yes"/>
    <tag k="ele" v="7895.19"/>
    <tag k="stories" v="0.0"/>
  </way>
  <way id="42190850" version="2" timestamp="2009-10-10T08:39:56Z" uid="20587" user="balrog-kun" changeset="2801098">
    <nd ref="525160812"/>
    <nd ref="525160813"/>
    <nd ref="525160814"/>
    <nd ref="525160815"/>
    <nd ref="525160812"/>
    <tag k="DriveID" v="4525"/>
    <tag k="addr:city" v="Mammoth Lakes City"/>
    <tag k="addr:housenumber" v="359"/>
    <tag k="addr:street" v="Lupin"/>
    <tag k="attribution" v="Mono County GIS"/>
    <tag k="building" v="yes"/>
    <tag k="ele" v="7895.19"/>
  </way>
  <way id="42190855" version="1" timestamp="2009-10-08T08:54:15Z" uid="55774" user="nmixter" changeset="2776826">
    <nd ref="525160932"/>
    <nd ref="525157282"/>
    <nd ref="525157283"/>
    <nd ref="525160933"/>
    <nd ref="525160934"/>
    <nd ref="525160935"/>
    <nd ref="525160932"/>
    <tag k="DriveID" v="4542"/>
    <tag k="addr:city" v="Mammoth Lakes City"/>
    <tag k="addr:housenumber" v="361"/>
    <tag k="addr:street" v="Joaquin"/>
    <tag k="attribution" v="Mono County GIS"/>
    <tag k="building" v="yes"/>
    <tag k="ele" v="7921.061"/>
    <tag k="stories" v="0.0"/>
  </way>
  <way id="42190855" version="2" timestamp="2009-10-10T08:39:56Z" uid="20587" user="balrog-kun" changeset="2801098">
    <nd ref="525160932"/>
    <nd ref="525157282"/>
    <nd ref="525157283"/>
    <nd ref="525160933"/>
    <nd ref="525160934"/>
    <nd ref="525160935"/>
    <nd ref="525160932"/>
    <tag k="DriveID" v="4542"/>
    <tag k="addr:city" v="Mammoth Lakes City"/>
    <tag k="addr:housenumber" v="361"/>
    <tag k="addr:street" v="Joaquin"/>
    <tag k="attribution" v="Mono County GIS"/>
    <tag k="building" v="yes"/>
    <tag k="ele" v="7921.061"/>
  </way>
  <way id="42190864" version="1" timestamp="2009-10-08T08:54:16Z" uid="55774" user="nmixter" changeset="2776826">
    <nd ref="525161023"/>
    <nd ref="525161051"/>
    <nd ref="525160926"/>
    <nd ref="525160924"/>
    <nd ref="525160925"/>
    <nd ref="525160881"/>
    <nd ref="525161023"/>
    <tag k="DriveID" v="4507"/>
    <tag k="addr:city" v="Mammoth Lakes City"/>
    <tag k="addr:housenumber" v="357"/>
    <tag k="addr:street" v="Mono"/>
    <tag k="attribution" v="Mono County GIS"/>
    <tag k="building" v="yes"/>
    <tag k="ele" v="7891.644"/>
    <tag k="stories" v="0.0"/>
  </way>
  <way id="42190864" version="2" timestamp="2009-10-10T08:39:56Z" uid="20587" user="balrog-kun" changeset="2801098">
    <nd ref="525161023"/>
    <nd ref="525161051"/>
    <nd ref="525160926"/>
    <nd ref="525160924"/>
    <nd ref="525160925"/>
    <nd ref="525160881"/>
    <nd ref="525161023"/>
    <tag k="DriveID" v="4507"/>
    <tag k="addr:city" v="Mammoth Lakes City"/>
    <tag k="addr:housenumber" v="357"/>
    <tag k="addr:street" v="Mono"/>
    <tag k="attribution" v="Mono County GIS"/>
    <tag k="building" v="yes"/>
    <tag k="ele" v="7891.644"/>
  </way>
  <way id="42190871" version="1" timestamp="2009-10-08T08:54:17Z" uid="55774" user="nmixter" changeset="2776826">
    <nd ref="525161635"/>
    <nd ref="525161636"/>
    <nd ref="525161638"/>
    <nd ref="525161637"/>
    <nd ref="525161635"/>
    <tag k="DriveID" v="923"/>
    <tag k="addr:city" v="Mammoth Lakes City"/>
    <tag k="addr:housenumber" v="227"/>
    <tag k="addr:street" v="Manzanita"/>
    <tag k="attribution" v="Mono County GIS"/>
    <tag k="building" v="yes"/>
    <tag k="ele" v="7899.485"/>
    <tag k="stories" v="0.0"/>
  </way>
  <way id="42190871" version="2" timestamp="2009-10-10T08:39:55Z" uid="20587" user="balrog-kun" changeset="2801098">
    <nd ref="525161635"/>
    <nd ref="525161636"/>
    <nd ref="525161638"/>
    <nd ref="525161637"/>
    <nd ref="525161635"/>
    <tag k="DriveID" v="923"/>
    <tag k="addr:city" v="Mammoth Lakes City"/>
    <tag k="addr:housenumber" v="227"/>
    <tag k="addr:street" v="Manzanita"/>
    <tag k="attribution" v="Mono County GIS"/>
    <tag k="building" v="yes"/>
    <tag k="ele" v="7899.485"/>
  </way>
  <way id="42190878" version="1" timestamp="2009-10-08T08:54:18Z" uid="55774" user="nmixter" changeset="2776826">
    <nd ref="525161101"/>
    <nd ref="525161102"/>
    <nd ref="525161099"/>
    <nd ref="525161100"/>
    <nd ref="525161101"/>
    <tag k="DriveID" v="0"/>
    <tag k="addr:housenumber" v="0"/>
    <tag k="attribution" v="Mono County GIS"/>
    <tag k="building" v="yes"/>
    <tag k="ele" v="7906.227"/>
    <tag k="stories" v="0.0"/>
  </way>
  <way id="42190878" version="2" timestamp="2009-10-10T08:39:56Z" uid="20587" user="balrog-kun" changeset="2801098">
    <nd ref="525161101"/>
    <nd ref="525161102"/>
    <nd ref="525161099"/>
    <nd ref="525161100"/>
    <nd ref="525161101"/>
    <tag k="attribution" v="Mono County GIS"/>
    <tag k="building" v="yes"/>
    <tag k="ele" v="7906.227"/>
  </way>
  <way id="42190885" version="1" timestamp="2009-10-08T08:54:20Z" uid="55774" user="nmixter" changeset="2776826">
    <nd ref="525163879"/>
    <nd ref="525163878"/>
    <nd ref="525161646"/>
    <nd ref="525161645"/>
    <nd ref="525163879"/>
    <tag k="DriveID" v="4800"/>
    <tag k="addr:city" v="Mammoth Lakes City"/>
    <tag k="addr:housenumber" v="257"/>
    <tag k="addr:street" v="Manzanita"/>
    <tag k="attribution" v="Mono County GIS"/>
    <tag k="building" v="yes"/>
    <tag k="ele" v="7897.587"/>
    <tag k="stories" v="0.0"/>
  </way>
  <way id="42190885" version="2" timestamp="2009-10-10T08:39:56Z" uid="20587" user="balrog-kun" changeset="2801098">
    <nd ref="525163879"/>
    <nd ref="525163878"/>
    <nd ref="525161646"/>
    <nd ref="525161645"/>
    <nd ref="525163879"/>
    <tag k="DriveID" v="4800"/>
    <tag k="addr:city" v="Mammoth Lakes City"/>
    <tag k="addr:housenumber" v="257"/>
    <tag k="addr:street" v="Manzanita"/>
    <tag k="attribution" v="Mono County GIS"/>
    <tag k="building" v="yes"/>
    <tag k="ele" v="7897.587"/>
  </way>
  <way id="42190891" version="1" timestamp="2009-10-08T08:54:22Z" uid="55774" user="nmixter" changeset="2776826">
    <nd ref="525161115"/>
    <nd ref="525161114"/>
    <nd ref="525161113"/>
    <nd ref="525161112"/>
    <nd ref="525161115"/>
    <tag k="DriveID" v="4758"/>
    <tag k="addr:city" v="Mammoth Lakes City"/>
    <tag k="addr:housenumber" v="281"/>
    <tag k="addr:street" v="Mono"/>
    <tag k="attribution" v="Mono County GIS"/>
    <tag k="building" v="yes"/>
    <tag k="ele" v="7904.879"/>
    <tag k="stories" v="0.0"/>
  </way>
  <way id="42190891" version="2" timestamp="2009-10-10T08:39:56Z" uid="20587" user="balrog-kun" changeset="2801098">
    <nd ref="525161115"/>
    <nd ref="525161114"/>
    <nd ref="525161113"/>
    <nd ref="525161112"/>
    <nd ref="525161115"/>
    <tag k="DriveID" v="4758"/>
    <tag k="addr:city" v="Mammoth Lakes City"/>
    <tag k="addr:housenumber" v="281"/>
    <tag k="addr:street" v="Mono"/>
    <tag k="attribution" v="Mono County GIS"/>
    <tag k="building" v="yes"/>
    <tag k="ele" v="7904.879"/>
  </way>
  <way id="42190897" version="1" timestamp="2009-10-08T08:54:23Z" uid="55774" user="nmixter" changeset="2776826">
    <nd ref="525174983"/>
    <nd ref="525174991"/>
    <nd ref="525175012"/>
    <nd ref="525174903"/>
    <nd ref="525174915"/>
    <nd ref="525175027"/>
    <nd ref="525175143"/>
    <nd ref="525175159"/>
    <nd ref="525175188"/>
    <nd ref="525174935"/>
    <nd ref="525174962"/>
    <nd ref="525174900"/>
    <nd ref="525174887"/>
    <nd ref="525174878"/>
    <nd ref="525174845"/>
    <nd ref="525174858"/>
    <nd ref="525174983"/>
    <tag k="DriveID" v="0"/>
    <tag k="addr:housenumber" v="0"/>
    <tag k="attribution" v="Mono County GIS"/>
    <tag k="building" v="yes"/>
    <tag k="ele" v="7851.755"/>
    <tag k="stories" v="1.6"/>
  </way>
  <way id="42190897" version="2" timestamp="2009-10-10T08:39:56Z" uid="20587" user="balrog-kun" changeset="2801098">
    <nd ref="525174983"/>
    <nd ref="525174991"/>
    <nd ref="525175012"/>
    <nd ref="525174903"/>
    <nd ref="525174915"/>
    <nd ref="525175027"/>
    <nd ref="525175143"/>
    <nd ref="525175159"/>
    <nd ref="525175188"/>
    <nd ref="525174935"/>
    <nd ref="525174962"/>
    <nd ref="525174900"/>
    <nd ref="525174887"/>
    <nd ref="525174878"/>
    <nd ref="525174845"/>
    <nd ref="525174858"/>
    <nd ref="525174983"/>
    <tag k="attribution" v="Mono County GIS"/>
    <tag k="building" v="yes"/>
    <tag k="ele" v="7851.755"/>
    <tag k="stories" v="1.6"/>
  </way>
  <way id="42190901" version="1" timestamp="2009-10-08T08:54:24Z" uid="55774" user="nmixter" changeset="2776826">
    <nd ref="525237949"/>
    <nd ref="525237976"/>
    <nd ref="525238018"/>
    <nd ref="525238042"/>
    <nd ref="525237949"/>
    <tag k="DriveID" v="0"/>
    <tag k="addr:housenumber" v="0"/>
    <tag k="attribution" v="Mono County GIS"/>
    <tag k="building" v="yes"/>
    <tag k="ele" v="7721.0"/>
    <tag k="stories" v="0.0"/>
  </way>
  <way id="42190901" version="2" timestamp="2009-10-10T08:46:58Z" uid="20587" user="balrog-kun" changeset="2801202">
    <nd ref="525237949"/>
    <nd ref="525237976"/>
    <nd ref="525238018"/>
    <nd ref="525238042"/>
    <nd ref="525237949"/>
    <tag k="attribution" v="Mono County GIS"/>
    <tag k="building" v="yes"/>
    <tag k="ele" v="7721.0"/>
  </way>
  <way id="42190907" version="1" timestamp="2009-10-08T08:54:25Z" uid="55774" user="nmixter" changeset="2776826">
    <nd ref="525238419"/>
    <nd ref="525238200"/>
    <nd ref="525238171"/>
    <nd ref="525238438"/>
    <nd ref="525238482"/>
    <nd ref="525229786"/>
    <nd ref="525238419"/>
    <tag k="DriveID" v="0"/>
    <tag k="addr:housenumber" v="0"/>
    <tag k="attribution" v="Mono County GIS"/>
    <tag k="building" v="yes"/>
    <tag k="ele" v="7769.595"/>
    <tag k="stories" v="1.3"/>
  </way>
  <way id="42190907" version="2" timestamp="2009-10-10T08:46:59Z" uid="20587" user="balrog-kun" changeset="2801202">
    <nd ref="525238419"/>
    <nd ref="525238200"/>
    <nd ref="525238171"/>
    <nd ref="525238438"/>
    <nd ref="525238482"/>
    <nd ref="525229786"/>
    <nd ref="525238419"/>
    <tag k="attribution" v="Mono County GIS"/>
    <tag k="building" v="yes"/>
    <tag k="ele" v="7769.595"/>
    <tag k="stories" v="1.3"/>
  </way>
  <way id="42190911" version="1" timestamp="2009-10-08T08:54:26Z" uid="55774" user="nmixter" changeset="2776826">
    <nd ref="525229800"/>
    <nd ref="525228754"/>
    <nd ref="525228768"/>
    <nd ref="525229764"/>
    <nd ref="525229800"/>
    <tag k="DriveID" v="0"/>
    <tag k="addr:housenumber" v="0"/>
    <tag k="attribution" v="Mono County GIS"/>
    <tag k="building" v="yes"/>
    <tag k="ele" v="7763.676"/>
    <tag k="stories" v="1.0"/>
  </way>
  <way id="42190911" version="2" timestamp="2009-10-10T08:46:59Z" uid="20587" user="balrog-kun" changeset="2801202">
    <nd ref="525229800"/>
    <nd ref="525228754"/>
    <nd ref="525228768"/>
    <nd ref="525229764"/>
    <nd ref="525229800"/>
    <tag k="attribution" v="Mono County GIS"/>
    <tag k="building" v="yes"/>
    <tag k="ele" v="7763.676"/>
    <tag k="stories" v="1.0"/>
  </way>
  <way id="42190919" version="1" timestamp="2009-10-08T08:54:28Z" uid="55774" user="nmixter" changeset="2776826">
    <nd ref="525238899"/>
    <nd ref="525238862"/>
    <nd ref="525237339"/>
    <nd ref="525237297"/>
    <nd ref="525238899"/>
    <tag k="DriveID" v="0"/>
    <tag k="addr:housenumber" v="0"/>
    <tag k="attribution" v="Mono County GIS"/>
    <tag k="building" v="yes"/>
    <tag k="ele" v="7763.627"/>
    <tag k="stories" v="1.3"/>
  </way>
  <way id="42190919" version="2" timestamp="2009-10-10T08:46:56Z" uid="20587" user="balrog-kun" changeset="2801202">
    <nd ref="525238899"/>
    <nd ref="525238862"/>
    <nd ref="525237339"/>
    <nd ref="525237297"/>
    <nd ref="525238899"/>
    <tag k="attribution" v="Mono County GIS"/>
    <tag k="building" v="yes"/>
    <tag k="ele" v="7763.627"/>
    <tag k="stories" v="1.3"/>
  </way>
  <way id="42190925" version="1" timestamp="2009-10-08T08:54:29Z" uid="55774" user="nmixter" changeset="2776826">
    <nd ref="525236256"/>
    <nd ref="525236287"/>
    <nd ref="525236150"/>
    <nd ref="525236169"/>
    <nd ref="525236177"/>
    <nd ref="525236219"/>
    <nd ref="525236256"/>
    <tag k="DriveID" v="0"/>
    <tag k="addr:housenumber" v="0"/>
    <tag k="attribution" v="Mono County GIS"/>
    <tag k="building" v="yes"/>
    <tag k="ele" v="7759.216"/>
    <tag k="stories" v="1.0"/>
  </way>
  <way id="42190925" version="2" timestamp="2009-10-10T08:46:56Z" uid="20587" user="balrog-kun" changeset="2801202">
    <nd ref="525236256"/>
    <nd ref="525236287"/>
    <nd ref="525236150"/>
    <nd ref="525236169"/>
    <nd ref="525236177"/>
    <nd ref="525236219"/>
    <nd ref="525236256"/>
    <tag k="attribution" v="Mono County GIS"/>
    <tag k="building" v="yes"/>
    <tag k="ele" v="7759.216"/>
    <tag k="stories" v="1.0"/>
  </way>
  <way id="42190931" version="1" timestamp="2009-10-08T08:54:30Z" uid="55774" user="nmixter" changeset="2776826">
    <nd ref="524983665"/>
    <nd ref="524983674"/>
    <nd ref="524983691"/>
    <nd ref="524983648"/>
    <nd ref="524983665"/>
    <tag k="DriveID" v="0"/>
    <tag k="addr:housenumber" v="0"/>
    <tag k="attribution" v="Mono County GIS"/>
    <tag k="building" v="yes"/>
    <tag k="ele" v="7854.934"/>
    <tag k="stories" v="3.0"/>
  </way>
  <way id="42190931" version="2" timestamp="2009-10-10T08:39:55Z" uid="20587" user="balrog-kun" changeset="2801098">
    <nd ref="524983665"/>
    <nd ref="524983674"/>
    <nd ref="524983691"/>
    <nd ref="524983648"/>
    <nd ref="524983665"/>
    <tag k="attribution" v="Mono County GIS"/>
    <tag k="building" v="yes"/>
    <tag k="ele" v="7854.934"/>
    <tag k="stories" v="3.0"/>
  </way>
  <way id="42190934" version="1" timestamp="2009-10-08T08:54:30Z" uid="55774" user="nmixter" changeset="2776826">
    <nd ref="525165602"/>
    <nd ref="525165605"/>
    <nd ref="525165604"/>
    <nd ref="525165606"/>
    <nd ref="525165602"/>
    <tag k="DriveID" v="0"/>
    <tag k="addr:housenumber" v="0"/>
    <tag k="attribution" v="Mono County GIS"/>
    <tag k="building" v="yes"/>
    <tag k="ele" v="7855.524"/>
    <tag k="stories" v="3.0"/>
  </way>
  <way id="42190934" version="2" timestamp="2009-10-10T08:39:55Z" uid="20587" user="balrog-kun" changeset="2801098">
    <nd ref="525165602"/>
    <nd ref="525165605"/>
    <nd ref="525165604"/>
    <nd ref="525165606"/>
    <nd ref="525165602"/>
    <tag k="attribution" v="Mono County GIS"/>
    <tag k="building" v="yes"/>
    <tag k="ele" v="7855.524"/>
    <tag k="stories" v="3.0"/>
  </way>
  <way id="42190937" version="1" timestamp="2009-10-08T08:54:31Z" uid="55774" user="nmixter" changeset="2776826">
    <nd ref="525009302"/>
    <nd ref="525009337"/>
    <nd ref="525009320"/>
    <nd ref="525009362"/>
    <nd ref="525009555"/>
    <nd ref="525009481"/>
    <nd ref="525009549"/>
    <nd ref="525009532"/>
    <nd ref="525009510"/>
    <nd ref="525009493"/>
    <nd ref="525009293"/>
    <nd ref="525009279"/>
    <nd ref="525009302"/>
    <tag k="DriveID" v="0"/>
    <tag k="addr:housenumber" v="0"/>
    <tag k="attribution" v="Mono County GIS"/>
    <tag k="building" v="yes"/>
    <tag k="ele" v="8256.567"/>
    <tag k="stories" v="0.0"/>
  </way>
  <way id="42190937" version="2" timestamp="2009-10-10T08:39:55Z" uid="20587" user="balrog-kun" changeset="2801098">
    <nd ref="525009302"/>
    <nd ref="525009337"/>
    <nd ref="525009320"/>
    <nd ref="525009362"/>
    <nd ref="525009555"/>
    <nd ref="525009481"/>
    <nd ref="525009549"/>
    <nd ref="525009532"/>
    <nd ref="525009510"/>
    <nd ref="525009493"/>
    <nd ref="525009293"/>
    <nd ref="525009279"/>
    <nd ref="525009302"/>
    <tag k="attribution" v="Mono County GIS"/>
    <tag k="building" v="yes"/>
    <tag k="ele" v="8256.567"/>
  </way>
  <way id="42190957" version="1" timestamp="2009-10-08T08:54:35Z" uid="55774" user="nmixter" changeset="2776826">
    <nd ref="525161563"/>
    <nd ref="525161581"/>
    <nd ref="525161580"/>
    <nd ref="525161579"/>
    <nd ref="525161583"/>
    <nd ref="525161582"/>
    <nd ref="525161570"/>
    <nd ref="525161561"/>
    <nd ref="525161563"/>
    <tag k="DriveID" v="0"/>
    <tag k="addr:housenumber" v="0"/>
    <tag k="attribution" v="Mono County GIS"/>
    <tag k="building" v="yes"/>
    <tag k="ele" v="7894.091"/>
    <tag k="stories" v="0.0"/>
  </way>
  <way id="42190957" version="2" timestamp="2009-10-10T08:39:55Z" uid="20587" user="balrog-kun" changeset="2801098">
    <nd ref="525161563"/>
    <nd ref="525161581"/>
    <nd ref="525161580"/>
    <nd ref="525161579"/>
    <nd ref="525161583"/>
    <nd ref="525161582"/>
    <nd ref="525161570"/>
    <nd ref="525161561"/>
    <nd ref="525161563"/>
    <tag k="attribution" v="Mono County GIS"/>
    <tag k="building" v="yes"/>
    <tag k="ele" v="7894.091"/>
  </way>
  <way id="42190960" version="1" timestamp="2009-10-08T08:54:36Z" uid="55774" user="nmixter" changeset="2776826">
    <nd ref="525157363"/>
    <nd ref="525157341"/>
    <nd ref="525160983"/>
    <nd ref="525160982"/>
    <nd ref="525157363"/>
    <tag k="DriveID" v="4544"/>
    <tag k="addr:city" v="Mammoth Lakes City"/>
    <tag k="addr:housenumber" v="325"/>
    <tag k="addr:street" v="Joaquin"/>
    <tag k="attribution" v="Mono County GIS"/>
    <tag k="building" v="yes"/>
    <tag k="ele" v="7921.21"/>
    <tag k="stories" v="0.0"/>
  </way>
  <way id="42190960" version="2" timestamp="2009-10-10T08:39:55Z" uid="20587" user="balrog-kun" changeset="2801098">
    <nd ref="525157363"/>
    <nd ref="525157341"/>
    <nd ref="525160983"/>
    <nd ref="525160982"/>
    <nd ref="525157363"/>
    <tag k="DriveID" v="4544"/>
    <tag k="addr:city" v="Mammoth Lakes City"/>
    <tag k="addr:housenumber" v="325"/>
    <tag k="addr:street" v="Joaquin"/>
    <tag k="attribution" v="Mono County GIS"/>
    <tag k="building" v="yes"/>
    <tag k="ele" v="7921.21"/>
  </way>
  <way id="42190969" version="1" timestamp="2009-10-08T08:54:38Z" uid="55774" user="nmixter" changeset="2776826">
    <nd ref="525157292"/>
    <nd ref="525160943"/>
    <nd ref="525160944"/>
    <nd ref="525157293"/>
    <nd ref="525157292"/>
    <tag k="DriveID" v="4544"/>
    <tag k="addr:city" v="Mammoth Lakes City"/>
    <tag k="addr:housenumber" v="325"/>
    <tag k="addr:street" v="Joaquin"/>
    <tag k="attribution" v="Mono County GIS"/>
    <tag k="building" v="yes"/>
    <tag k="ele" v="7924.656"/>
    <tag k="stories" v="0.0"/>
  </way>
  <way id="42190969" version="2" timestamp="2009-10-10T08:39:55Z" uid="20587" user="balrog-kun" changeset="2801098">
    <nd ref="525157292"/>
    <nd ref="525160943"/>
    <nd ref="525160944"/>
    <nd ref="525157293"/>
    <nd ref="525157292"/>
    <tag k="DriveID" v="4544"/>
    <tag k="addr:city" v="Mammoth Lakes City"/>
    <tag k="addr:housenumber" v="325"/>
    <tag k="addr:street" v="Joaquin"/>
    <tag k="attribution" v="Mono County GIS"/>
    <tag k="building" v="yes"/>
    <tag k="ele" v="7924.656"/>
  </way>
  <way id="42190977" version="1" timestamp="2009-10-08T08:54:39Z" uid="55774" user="nmixter" changeset="2776826">
    <nd ref="525164073"/>
    <nd ref="525164071"/>
    <nd ref="525163720"/>
    <nd ref="525163719"/>
    <nd ref="525164073"/>
    <tag k="DriveID" v="0"/>
    <tag k="addr:housenumber" v="0"/>
    <tag k="attribution" v="Mono County GIS"/>
    <tag k="building" v="yes"/>
    <tag k="ele" v="7900.334"/>
    <tag k="stories" v="0.0"/>
  </way>
  <way id="42190977" version="2" timestamp="2009-10-10T08:39:55Z" uid="20587" user="balrog-kun" changeset="2801098">
    <nd ref="525164073"/>
    <nd ref="525164071"/>
    <nd ref="525163720"/>
    <nd ref="525163719"/>
    <nd ref="525164073"/>
    <tag k="attribution" v="Mono County GIS"/>
    <tag k="building" v="yes"/>
    <tag k="ele" v="7900.334"/>
  </way>
  <way id="42190982" version="1" timestamp="2009-10-08T08:54:40Z" uid="55774" user="nmixter" changeset="2776826">
    <nd ref="525160798"/>
    <nd ref="525160797"/>
    <nd ref="525160790"/>
    <nd ref="525160791"/>
    <nd ref="525160798"/>
    <tag k="DriveID" v="4523"/>
    <tag k="addr:city" v="Mammoth Lakes City"/>
    <tag k="addr:housenumber" v="397"/>
    <tag k="addr:street" v="Lupin"/>
    <tag k="attribution" v="Mono County GIS"/>
    <tag k="building" v="yes"/>
    <tag k="ele" v="7894.191"/>
    <tag k="stories" v="0.0"/>
  </way>
  <way id="42190982" version="2" timestamp="2009-10-10T08:39:54Z" uid="20587" user="balrog-kun" changeset="2801098">
    <nd ref="525160798"/>
    <nd ref="525160797"/>
    <nd ref="525160790"/>
    <nd ref="525160791"/>
    <nd ref="525160798"/>
    <tag k="DriveID" v="4523"/>
    <tag k="addr:city" v="Mammoth Lakes City"/>
    <tag k="addr:housenumber" v="397"/>
    <tag k="addr:street" v="Lupin"/>
    <tag k="attribution" v="Mono County GIS"/>
    <tag k="building" v="yes"/>
    <tag k="ele" v="7894.191"/>
  </way>
  <way id="42190986" version="1" timestamp="2009-10-08T08:54:42Z" uid="55774" user="nmixter" changeset="2776826">
    <nd ref="525160792"/>
    <nd ref="525160793"/>
    <nd ref="525160789"/>
    <nd ref="525160788"/>
    <nd ref="525160792"/>
    <tag k="DriveID" v="4523"/>
    <tag k="addr:city" v="Mammoth Lakes City"/>
    <tag k="addr:housenumber" v="397"/>
    <tag k="addr:street" v="Lupin"/>
    <tag k="attribution" v="Mono County GIS"/>
    <tag k="building" v="yes"/>
    <tag k="ele" v="7895.539"/>
    <tag k="stories" v="0.0"/>
  </way>
  <way id="42190986" version="2" timestamp="2009-10-10T08:39:54Z" uid="20587" user="balrog-kun" changeset="2801098">
    <nd ref="525160792"/>
    <nd ref="525160793"/>
    <nd ref="525160789"/>
    <nd ref="525160788"/>
    <nd ref="525160792"/>
    <tag k="DriveID" v="4523"/>
    <tag k="addr:city" v="Mammoth Lakes City"/>
    <tag k="addr:housenumber" v="397"/>
    <tag k="addr:street" v="Lupin"/>
    <tag k="attribution" v="Mono County GIS"/>
    <tag k="building" v="yes"/>
    <tag k="ele" v="7895.539"/>
  </way>
  <way id="42190255" version="6" timestamp="2012-07-30T10:30:49Z" uid="10414" user="Dooghan" changeset="12545988">
    <nd ref="839455626"/>
    <nd ref="525399397"/>
    <nd ref="845570449"/>
    <nd ref="845570481"/>
    <nd ref="525399396"/>
    <tag k="highway" v="residential"/>
    <tag k="name" v="McClean Street"/>
    <tag k="source" v="survey"/>
  </way>
</osm>
