<?xml version='1.0' encoding='UTF-8'?>
<osm version="0.6" generator="libosmium/2.20.0">
  <way id="4220520" version="8" timestamp="2008-07-04T08:46:37Z" uid="6975" user="ulfl" changeset="389415">
    <nd ref="100256513"/>
    <nd ref="270475026"/>
    <nd ref="270334827"/>
    <tag k="access" v="private"/>
    <tag k="highway" v="track"/>
    <tag k="source" v="gpx"/>
    <tag k="tracktype" v="grade1"/>
  </way>
  <way id="4220520" version="9" timestamp="2012-02-06T13:38:51Z" uid="57884" user="EdLoach" changeset="10602908"/>
  <way id="4220524" version="4" timestamp="2008-03-25T13:43:20Z" uid="16922" user="amai" changeset="390170">
    <nd ref="236319858"/>
    <nd ref="16782836"/>
    <nd ref="207641718"/>
    <nd ref="21698353"/>
    <nd ref="533173"/>
    <tag k="created_by" v="Potlatch 0.8"/>
    <tag k="highway" v="residential"/>
    <tag k="name" v="Kiesstraße"/>
  </way>
  <way id="4220524" version="5" timestamp="2008-10-24T22:55:04Z" uid="52824" user="tex001" changeset="560447">
    <nd ref="236319858"/>
    <nd ref="16782836"/>
    <nd ref="207641718"/>
    <nd ref="21698353"/>
    <nd ref="533173"/>
    <tag k="created_by" v="Potlatch 0.8"/>
    <tag k="footway" v="both"/>
    <tag k="highway" v="residential"/>
    <tag k="name" v="Kiesstraße"/>
  </way>
  <way id="4220524" version="6" timestamp="2008-11-06T16:44:01Z" uid="61927" user="AlexPleiner" changeset="694215">
    <nd ref="236319858"/>
    <nd ref="16782836"/>
    <nd ref="207641718"/>
    <nd ref="21698353"/>
    <nd ref="243365107"/>
    <tag k="created_by" v="Potlatch 0.8"/>
    <tag k="footway" v="both"/>
    <tag k="highway" v="residential"/>
    <tag k="name" v="Kiesstraße"/>
  </way>
  <way id="4220524" version="7" timestamp="2009-02-03T03:09:48Z" uid="23785" user="Simon Kokolakis" changeset="90229">
    <nd ref="236319858"/>
    <nd ref="16782836"/>
    <nd ref="207641718"/>
    <nd ref="21698353"/>
    <nd ref="340147851"/>
    <nd ref="243365107"/>
    <tag k="created_by" v="Potlatch 0.10f"/>
    <tag k="footway" v="both"/>
    <tag k="highway" v="residential"/>
    <tag k="name" v="Kiesstraße"/>
  </way>
  <way id="4220524" version="8" timestamp="2010-05-11T23:43:18Z" uid="24920" user="Schusch" changeset="4673651">
    <nd ref="236319858"/>
    <nd ref="16782836"/>
    <nd ref="207641718"/>
    <nd ref="21698353"/>
    <nd ref="340147851"/>
    <nd ref="243365107"/>
    <tag k="footway" v="both"/>
    <tag k="highway" v="residential"/>
    <tag k="name" v="Kiesstraße"/>
  </way>
  <way id="4220524" version="9" timestamp="2010-06-01T11:58:07Z" uid="23785" user="Simon Kokolakis" changeset="4873878">
    <nd ref="236319858"/>
    <nd ref="16782836"/>
    <tag k="footway" v="both"/>
    <tag k="highway" v="residential"/>
    <tag k="name" v="Kiesstraße"/>
  </way>
  <way id="4220524" version="10" timestamp="2012-02-05T17:09:03Z" uid="55687" user="dschuwa" changeset="10595697"/>
  <way id="4220546" version="7" timestamp="2008-07-04T08:47:45Z" uid="6975" user="ulfl" changeset="389415">
    <nd ref="270334812"/>
    <nd ref="25053596"/>
    <tag k="access" v="private"/>
    <tag k="bridge" v="yes"/>
    <tag k="highway" v="track"/>
    <tag k="layer" v="1"/>
    <tag k="ncn_ref" v="(1)"/>
    <tag k="note" v="Suggested route until NCN1 built."/>
    <tag k="source" v="gpx"/>
    <tag k="tracktype" v="grade1"/>
  </way>
  <way id="4220546" version="8" timestamp="2008-08-31T12:43:45Z" uid="12527" user="GercoKees" changeset="470620">
    <nd ref="270334812"/>
    <nd ref="25053596"/>
    <tag k="access" v="private"/>
    <tag k="bridge" v="yes"/>
    <tag k="highway" v="track"/>
    <tag k="layer" v="1"/>
    <tag k="ncn_ref" v="(1)"/>
    <tag k="note" v="Suggested route until NCN1 built."/>
    <tag k="source" v="gpx"/>
    <tag k="tracktype" v="grade1"/>
  </way>
  <way id="4220546" version="9" timestamp="2009-07-28T16:43:10Z" uid="10785" user="Ollie" changeset="1967084">
    <nd ref="270334812"/>
    <nd ref="25053596"/>
    <tag k="access" v="private"/>
    <tag k="bridge" v="yes"/>
    <tag k="highway" v="track"/>
    <tag k="layer" v="1"/>
    <tag k="source" v="gpx"/>
    <tag k="tracktype" v="grade1"/>
  </way>
  <way id="4220546" version="10" timestamp="2012-02-06T13:38:51Z" uid="57884" user="EdLoach" changeset="10602908"/>
  <way id="4220547" version="8" timestamp="2008-07-04T08:47:43Z" uid="6975" user="ulfl" changeset="389415">
    <nd ref="25053596"/>
    <nd ref="270334820"/>
    <nd ref="270475024"/>
    <nd ref="270334821"/>
    <nd ref="270475022"/>
    <nd ref="25077581"/>
    <tag k="access" v="private"/>
    <tag k="highway" v="track"/>
    <tag k="ncn_ref" v="(1)"/>
    <tag k="note" v="Suggested route until NCN1 built."/>
    <tag k="source" v="gpx"/>
    <tag k="tracktype" v="grade1"/>
  </way>
  <way id="4220547" version="9" timestamp="2008-08-31T12:43:46Z" uid="12527" user="GercoKees" changeset="470620">
    <nd ref="25053596"/>
    <nd ref="270334820"/>
    <nd ref="270475024"/>
    <nd ref="270334821"/>
    <nd ref="270475022"/>
    <nd ref="25077581"/>
    <tag k="access" v="private"/>
    <tag k="highway" v="track"/>
    <tag k="ncn_ref" v="(1)"/>
    <tag k="note" v="Suggested route until NCN1 built."/>
    <tag k="source" v="gpx"/>
    <tag k="tracktype" v="grade1"/>
  </way>
  <way id="4220547" version="10" timestamp="2009-07-28T16:43:17Z" uid="10785" user="Ollie" changeset="1967084">
    <nd ref="25053596"/>
    <nd ref="270334820"/>
    <nd ref="270475024"/>
    <nd ref="270334821"/>
    <nd ref="270475022"/>
    <nd ref="25077581"/>
    <tag k="access" v="private"/>
    <tag k="highway" v="track"/>
    <tag k="source" v="gpx"/>
    <tag k="tracktype" v="grade1"/>
  </way>
  <way id="4220547" version="11" timestamp="2012-02-06T13:38:52Z" uid="57884" user="EdLoach" changeset="10602908"/>
  <way id="4220579" version="1" timestamp="2007-07-11T22:30:33Z" uid="8328" user="benpre" changeset="141044">
    <nd ref="21454517"/>
    <nd ref="21660952"/>
    <nd ref="21454518"/>
    <tag k="bicycle" v="yes"/>
    <tag k="created_by" v="JOSM"/>
    <tag k="foot" v="yes"/>
    <tag k="highway" v="primary"/>
    <tag k="horse" v="yes"/>
    <tag k="motorcar" v="yes"/>
    <tag k="name" v="Washingtonstraße"/>
    <tag k="oneway" v="yes"/>
  </way>
  <way id="4220579" version="2" timestamp="2007-11-11T17:03:42Z" uid="5065" user="ThomasKlosa" changeset="473278">
    <nd ref="21454517"/>
    <nd ref="21660952"/>
    <nd ref="107693366"/>
    <nd ref="21454518"/>
    <tag k="bicycle" v="yes"/>
    <tag k="created_by" v="Potlatch 0.5"/>
    <tag k="foot" v="yes"/>
    <tag k="highway" v="primary"/>
    <tag k="horse" v="yes"/>
    <tag k="motorcar" v="yes"/>
    <tag k="name" v="Washingtonstraße"/>
    <tag k="oneway" v="yes"/>
  </way>
  <way id="4220579" version="3" timestamp="2007-12-01T20:52:51Z" uid="3112" user="HDietze" changeset="20865">
    <nd ref="21454517"/>
    <nd ref="21660952"/>
    <nd ref="107693351"/>
    <nd ref="21454518"/>
    <tag k="bicycle" v="yes"/>
    <tag k="created_by" v="Potlatch 0.5"/>
    <tag k="foot" v="yes"/>
    <tag k="highway" v="primary"/>
    <tag k="horse" v="yes"/>
    <tag k="motorcar" v="yes"/>
    <tag k="name" v="Washingtonstraße"/>
    <tag k="oneway" v="yes"/>
  </way>
  <way id="4220579" version="4" timestamp="2008-03-14T08:53:52Z" uid="3112" user="HDietze" changeset="320013">
    <nd ref="21454517"/>
    <nd ref="21660952"/>
    <nd ref="107693351"/>
    <nd ref="21454518"/>
    <tag k="bicycle" v="yes"/>
    <tag k="created_by" v="Potlatch 0.7b"/>
    <tag k="foot" v="yes"/>
    <tag k="highway" v="primary"/>
    <tag k="horse" v="yes"/>
    <tag k="lanes" v="2"/>
    <tag k="motorcar" v="yes"/>
    <tag k="name" v="Washingtonstraße"/>
    <tag k="oneway" v="yes"/>
  </way>
  <way id="4220579" version="5" timestamp="2008-05-07T15:20:02Z" uid="16241" user="Astrofreak85" changeset="358689">
    <nd ref="21454517"/>
    <nd ref="21660952"/>
    <nd ref="107693351"/>
    <nd ref="21454518"/>
    <tag k="bicycle" v="yes"/>
    <tag k="created_by" v="Potlatch 0.8c"/>
    <tag k="foot" v="yes"/>
    <tag k="highway" v="secondary"/>
    <tag k="horse" v="yes"/>
    <tag k="lanes" v="2"/>
    <tag k="motorcar" v="yes"/>
    <tag k="name" v="Washingtonstraße"/>
    <tag k="oneway" v="yes"/>
  </way>
  <way id="4220579" version="6" timestamp="2008-07-06T21:44:24Z" uid="3112" user="HDietze" changeset="416857">
    <nd ref="21454517"/>
    <nd ref="21660952"/>
    <nd ref="107693351"/>
    <nd ref="30330419"/>
    <tag k="created_by" v="Potlatch 0.8c"/>
    <tag k="cycleway" v="track"/>
    <tag k="highway" v="secondary"/>
    <tag k="lanes" v="2"/>
    <tag k="name" v="Washingtonstraße"/>
    <tag k="oneway" v="yes"/>
  </way>
  <way id="4220579" version="7" timestamp="2008-12-19T19:55:56Z" uid="3112" user="HDietze" changeset="476697">
    <nd ref="21454517"/>
    <nd ref="21660952"/>
    <nd ref="107693351"/>
    <nd ref="30330419"/>
    <tag k="created_by" v="Potlatch 0.8c"/>
    <tag k="cycleway" v="track"/>
    <tag k="highway" v="secondary"/>
    <tag k="lanes" v="2"/>
    <tag k="maxspeed" v="60"/>
    <tag k="name" v="Washingtonstraße"/>
    <tag k="oneway" v="yes"/>
  </way>
  <way id="4220579" version="8" timestamp="2009-02-06T14:08:04Z" uid="3112" user="HDietze" changeset="195307">
    <nd ref="21454517"/>
    <nd ref="107693351"/>
    <nd ref="30330419"/>
    <tag k="created_by" v="Potlatch 0.10f"/>
    <tag k="cycleway" v="track"/>
    <tag k="highway" v="secondary"/>
    <tag k="lanes" v="2"/>
    <tag k="maxspeed" v="60"/>
    <tag k="name" v="Washingtonstraße"/>
    <tag k="oneway" v="yes"/>
  </way>
  <way id="4220579" version="9" timestamp="2010-03-29T12:36:35Z" uid="168210" user="iknopf" changeset="4266973">
    <nd ref="21454517"/>
    <nd ref="107693351"/>
    <nd ref="30330419"/>
    <tag k="cycleway" v="track"/>
    <tag k="highway" v="secondary"/>
    <tag k="lanes" v="2"/>
    <tag k="maxspeed" v="60"/>
    <tag k="name" v="Washingtonstraße"/>
    <tag k="oneway" v="yes"/>
    <tag k="ref" v="S 73"/>
  </way>
  <way id="4220579" version="10" timestamp="2011-12-30T18:40:48Z" uid="86504" user="Thomas8122" changeset="10248334"/>
  <way id="4220580" version="1" timestamp="2007-07-11T22:30:32Z" uid="8328" user="benpre" changeset="141044">
    <nd ref="536669"/>
    <nd ref="21660953"/>
    <nd ref="21660954"/>
    <nd ref="2297662"/>
    <tag k="bicycle" v="yes"/>
    <tag k="created_by" v="JOSM"/>
    <tag k="foot" v="yes"/>
    <tag k="highway" v="primary"/>
    <tag k="horse" v="yes"/>
    <tag k="motorcar" v="yes"/>
    <tag k="name" v="Washingtonstraße"/>
    <tag k="oneway" v="yes"/>
  </way>
  <way id="4220580" version="2" timestamp="2007-11-11T17:03:41Z" uid="5065" user="ThomasKlosa" changeset="473278">
    <nd ref="536669"/>
    <nd ref="107693358"/>
    <nd ref="21660953"/>
    <nd ref="21660954"/>
    <nd ref="2297662"/>
    <tag k="bicycle" v="yes"/>
    <tag k="created_by" v="Potlatch 0.5"/>
    <tag k="foot" v="yes"/>
    <tag k="highway" v="primary"/>
    <tag k="horse" v="yes"/>
    <tag k="motorcar" v="yes"/>
    <tag k="name" v="Washingtonstraße"/>
    <tag k="oneway" v="yes"/>
  </way>
  <way id="4220580" version="3" timestamp="2007-12-01T20:52:51Z" uid="3112" user="HDietze" changeset="20865">
    <nd ref="536669"/>
    <nd ref="107693353"/>
    <nd ref="21660953"/>
    <nd ref="21660954"/>
    <nd ref="2297662"/>
    <tag k="bicycle" v="yes"/>
    <tag k="created_by" v="Potlatch 0.5"/>
    <tag k="foot" v="yes"/>
    <tag k="highway" v="primary"/>
    <tag k="horse" v="yes"/>
    <tag k="motorcar" v="yes"/>
    <tag k="name" v="Washingtonstraße"/>
    <tag k="oneway" v="yes"/>
  </way>
  <way id="4220580" version="4" timestamp="2008-01-04T09:53:20Z" uid="7989" user="saftl" changeset="538967">
    <nd ref="536669"/>
    <nd ref="107693353"/>
    <nd ref="21660953"/>
    <nd ref="206101103"/>
    <nd ref="21660954"/>
    <nd ref="2297662"/>
    <tag k="bicycle" v="yes"/>
    <tag k="created_by" v="Potlatch 0.5"/>
    <tag k="foot" v="yes"/>
    <tag k="highway" v="primary"/>
    <tag k="horse" v="yes"/>
    <tag k="motorcar" v="yes"/>
    <tag k="name" v="Washingtonstraße"/>
    <tag k="oneway" v="yes"/>
  </way>
  <way id="4220580" version="5" timestamp="2008-03-14T08:54:01Z" uid="3112" user="HDietze" changeset="320013">
    <nd ref="536669"/>
    <nd ref="107693353"/>
    <nd ref="21660953"/>
    <nd ref="206101103"/>
    <nd ref="21660954"/>
    <nd ref="2297662"/>
    <tag k="bicycle" v="yes"/>
    <tag k="created_by" v="Potlatch 0.7b"/>
    <tag k="foot" v="yes"/>
    <tag k="highway" v="primary"/>
    <tag k="horse" v="yes"/>
    <tag k="lanes" v="2"/>
    <tag k="motorcar" v="yes"/>
    <tag k="name" v="Washingtonstraße"/>
    <tag k="oneway" v="yes"/>
  </way>
  <way id="4220580" version="6" timestamp="2008-05-07T15:20:05Z" uid="16241" user="Astrofreak85" changeset="358689">
    <nd ref="536669"/>
    <nd ref="107693353"/>
    <nd ref="21660953"/>
    <nd ref="206101103"/>
    <nd ref="21660954"/>
    <nd ref="2297662"/>
    <tag k="bicycle" v="yes"/>
    <tag k="created_by" v="Potlatch 0.8c"/>
    <tag k="foot" v="yes"/>
    <tag k="highway" v="secondary"/>
    <tag k="horse" v="yes"/>
    <tag k="lanes" v="2"/>
    <tag k="motorcar" v="yes"/>
    <tag k="name" v="Washingtonstraße"/>
    <tag k="oneway" v="yes"/>
  </way>
  <way id="4220580" version="7" timestamp="2008-07-06T21:44:23Z" uid="3112" user="HDietze" changeset="416857">
    <nd ref="536669"/>
    <nd ref="107693353"/>
    <nd ref="21660953"/>
    <nd ref="206101103"/>
    <nd ref="21660954"/>
    <nd ref="2297662"/>
    <tag k="created_by" v="Potlatch 0.8c"/>
    <tag k="cycleway" v="track"/>
    <tag k="highway" v="secondary"/>
    <tag k="lanes" v="2"/>
    <tag k="name" v="Washingtonstraße"/>
    <tag k="oneway" v="yes"/>
  </way>
  <way id="4220580" version="8" timestamp="2008-12-19T19:55:55Z" uid="3112" user="HDietze" changeset="476697">
    <nd ref="536669"/>
    <nd ref="107693353"/>
    <nd ref="21660953"/>
    <nd ref="206101103"/>
    <nd ref="21660954"/>
    <nd ref="2297662"/>
    <tag k="created_by" v="Potlatch 0.8c"/>
    <tag k="cycleway" v="track"/>
    <tag k="highway" v="secondary"/>
    <tag k="lanes" v="2"/>
    <tag k="maxspeed" v="60"/>
    <tag k="name" v="Washingtonstraße"/>
    <tag k="oneway" v="yes"/>
  </way>
  <way id="4220580" version="9" timestamp="2009-02-06T14:07:58Z" uid="3112" user="HDietze" changeset="195307">
    <nd ref="536669"/>
    <nd ref="107693353"/>
    <nd ref="21660953"/>
    <nd ref="206101103"/>
    <nd ref="21660954"/>
    <nd ref="2297662"/>
    <tag k="created_by" v="Potlatch 0.10f"/>
    <tag k="cycleway" v="track"/>
    <tag k="highway" v="secondary"/>
    <tag k="lanes" v="3"/>
    <tag k="maxspeed" v="60"/>
    <tag k="name" v="Washingtonstraße"/>
    <tag k="oneway" v="yes"/>
  </way>
  <way id="4220580" version="10" timestamp="2009-02-06T14:08:16Z" uid="3112" user="HDietze" changeset="195307">
    <nd ref="536669"/>
    <nd ref="107693353"/>
    <nd ref="206101103"/>
    <nd ref="21660954"/>
    <nd ref="2297662"/>
    <tag k="created_by" v="Potlatch 0.10f"/>
    <tag k="cycleway" v="track"/>
    <tag k="highway" v="secondary"/>
    <tag k="lanes" v="3"/>
    <tag k="maxspeed" v="60"/>
    <tag k="name" v="Washingtonstraße"/>
    <tag k="oneway" v="yes"/>
  </way>
  <way id="4220580" version="11" timestamp="2010-03-29T12:36:35Z" uid="168210" user="iknopf" changeset="4266973">
    <nd ref="536669"/>
    <nd ref="107693353"/>
    <nd ref="206101103"/>
    <nd ref="21660954"/>
    <nd ref="2297662"/>
    <tag k="cycleway" v="track"/>
    <tag k="highway" v="secondary"/>
    <tag k="lanes" v="3"/>
    <tag k="maxspeed" v="60"/>
    <tag k="name" v="Washingtonstraße"/>
    <tag k="oneway" v="yes"/>
    <tag k="ref" v="S 73"/>
  </way>
  <way id="4220580" version="12" timestamp="2011-12-29T11:52:19Z" uid="86504" user="Thomas8122" changeset="10234436">
    <nd ref="536669"/>
    <nd ref="107693353"/>
    <nd ref="206101103"/>
    <nd ref="1567039757"/>
    <nd ref="2297662"/>
    <tag k="cycleway" v="track"/>
    <tag k="highway" v="secondary"/>
    <tag k="lanes" v="3"/>
    <tag k="maxspeed" v="60"/>
    <tag k="name" v="Washingtonstraße"/>
    <tag k="oneway" v="yes"/>
    <tag k="ref" v="S 73"/>
  </way>
  <way id="4220580" version="13" timestamp="2011-12-30T18:40:48Z" uid="86504" user="Thomas8122" changeset="10248334"/>
  <way id="4220581" version="1" timestamp="2007-07-11T22:30:31Z" uid="8328" user="benpre" changeset="141044">
    <nd ref="21660954"/>
    <nd ref="21660955"/>
    <tag k="bicycle" v="yes"/>
    <tag k="created_by" v="JOSM"/>
    <tag k="foot" v="yes"/>
    <tag k="highway" v="primary_link"/>
    <tag k="horse" v="yes"/>
    <tag k="motorcar" v="yes"/>
    <tag k="name" v="Washingtonstraße"/>
    <tag k="oneway" v="yes"/>
  </way>
  <way id="4220581" version="2" timestamp="2008-01-07T11:22:12Z" uid="7989" user="saftl" changeset="567467">
    <nd ref="21660954"/>
    <nd ref="21660955"/>
    <tag k="bicycle" v="yes"/>
    <tag k="created_by" v="JOSM"/>
    <tag k="foot" v="yes"/>
    <tag k="highway" v="primary_link"/>
    <tag k="horse" v="yes"/>
    <tag k="motorcar" v="yes"/>
    <tag k="oneway" v="yes"/>
  </way>
  <way id="4220581" version="3" timestamp="2008-05-13T17:32:51Z" uid="16241" user="Astrofreak85" changeset="437141">
    <nd ref="21660954"/>
    <nd ref="21660955"/>
    <tag k="bicycle" v="yes"/>
    <tag k="created_by" v="Potlatch 0.9a"/>
    <tag k="foot" v="yes"/>
    <tag k="highway" v="unclassified"/>
    <tag k="horse" v="yes"/>
    <tag k="motorcar" v="yes"/>
    <tag k="oneway" v="yes"/>
  </way>
  <way id="4220581" version="4" timestamp="2011-12-29T11:52:20Z" uid="86504" user="Thomas8122" changeset="10234436"/>
  <way id="4220582" version="1" timestamp="2007-07-11T22:30:33Z" uid="8328" user="benpre" changeset="141044">
    <nd ref="2297662"/>
    <nd ref="21454517"/>
    <tag k="bicycle" v="yes"/>
    <tag k="created_by" v="JOSM"/>
    <tag k="foot" v="yes"/>
    <tag k="highway" v="secondary"/>
    <tag k="motorcar" v="yes"/>
    <tag k="name" v="Werftstraße"/>
  </way>
  <way id="4220582" version="2" timestamp="2007-10-18T19:30:23Z" uid="16147" user="henristosch" changeset="244463">
    <nd ref="2297662"/>
    <nd ref="21454517"/>
    <tag k="bicycle" v="yes"/>
    <tag k="created_by" v="Potlatch alpha"/>
    <tag k="foot" v="yes"/>
    <tag k="highway" v="residential"/>
    <tag k="motorcar" v="yes"/>
    <tag k="name" v="Werftstraße"/>
  </way>
  <way id="4220582" version="3" timestamp="2011-12-30T18:40:48Z" uid="86504" user="Thomas8122" changeset="10248334"/>
  <way id="4220746" version="3" timestamp="2007-12-25T10:12:03Z" uid="4667" user="MapZ" changeset="422242">
    <nd ref="21686475"/>
    <nd ref="36134740"/>
    <nd ref="188476583"/>
    <nd ref="25100874"/>
    <tag k="created_by" v="JOSM"/>
    <tag k="highway" v="primary"/>
    <tag k="lanes" v="2"/>
    <tag k="name" v="Kaiserring"/>
    <tag k="oneway" v="yes"/>
  </way>
  <way id="4220746" version="4" timestamp="2008-02-20T16:10:39Z" uid="6893" user="[HEK]the_other" changeset="165293">
    <nd ref="21686475"/>
    <nd ref="36134740"/>
    <nd ref="188476583"/>
    <nd ref="248539907"/>
    <nd ref="25100874"/>
    <tag k="created_by" v="JOSM"/>
    <tag k="highway" v="primary"/>
    <tag k="lanes" v="2"/>
    <tag k="name" v="Kaiserring"/>
    <tag k="oneway" v="yes"/>
  </way>
  <way id="4220746" version="5" timestamp="2008-06-18T07:27:35Z" uid="44329" user="aikon" changeset="216633">
    <nd ref="21686475"/>
    <nd ref="36134740"/>
    <nd ref="271083317"/>
    <nd ref="188476583"/>
    <nd ref="248539907"/>
    <nd ref="25100874"/>
    <tag k="created_by" v="JOSM"/>
    <tag k="highway" v="primary"/>
    <tag k="lanes" v="2"/>
    <tag k="name" v="Kaiserring"/>
    <tag k="oneway" v="yes"/>
  </way>
  <way id="4220746" version="6" timestamp="2008-07-17T06:28:21Z" uid="35560" user="HeikoE" changeset="514559">
    <nd ref="21686475"/>
    <nd ref="36134740"/>
    <nd ref="271083317"/>
    <nd ref="188476583"/>
    <nd ref="248539907"/>
    <nd ref="25100874"/>
    <tag k="created_by" v="Potlatch 0.9c"/>
    <tag k="highway" v="primary"/>
    <tag k="lanes" v="2"/>
    <tag k="name" v="Kaiserring"/>
    <tag k="oneway" v="yes"/>
    <tag k="ref" v="B 38"/>
  </way>
  <way id="4220746" version="7" timestamp="2009-11-28T02:07:05Z" uid="24748" user="mabapla" changeset="3233206">
    <nd ref="21686475"/>
    <nd ref="36134740"/>
    <nd ref="271083317"/>
    <nd ref="188476583"/>
    <nd ref="248539907"/>
    <nd ref="25100874"/>
    <tag k="highway" v="primary"/>
    <tag k="lanes" v="2"/>
    <tag k="maxspeed" v="50"/>
    <tag k="name" v="Kaiserring"/>
    <tag k="oneway" v="yes"/>
    <tag k="ref" v="B 38"/>
  </way>
  <way id="4220746" version="8" timestamp="2011-03-13T06:36:10Z" uid="410505" user="Udini" changeset="7541135">
    <nd ref="21686475"/>
    <nd ref="36134740"/>
    <nd ref="1199743111"/>
    <nd ref="271083317"/>
    <nd ref="188476583"/>
    <nd ref="248539907"/>
    <nd ref="25100874"/>
    <tag k="highway" v="primary"/>
    <tag k="lanes" v="2"/>
    <tag k="maxspeed" v="50"/>
    <tag k="name" v="Kaiserring"/>
    <tag k="oneway" v="yes"/>
    <tag k="ref" v="B 38"/>
  </way>
  <way id="4220746" version="9" timestamp="2011-05-24T16:09:56Z" uid="245137" user="maurice2010" changeset="8236868">
    <nd ref="21686475"/>
    <nd ref="36134740"/>
    <nd ref="1199743111"/>
    <nd ref="271083317"/>
    <nd ref="1298546228"/>
    <nd ref="188476583"/>
    <nd ref="248539907"/>
    <nd ref="1298546209"/>
    <nd ref="25100874"/>
    <tag k="highway" v="primary"/>
    <tag k="lanes" v="2"/>
    <tag k="maxspeed" v="50"/>
    <tag k="name" v="Kaiserring"/>
    <tag k="oneway" v="yes"/>
    <tag k="ref" v="B 38"/>
  </way>
  <way id="4220746" version="10" timestamp="2011-10-01T09:51:04Z" uid="165061" user="keinname" changeset="9441279">
    <nd ref="21686475"/>
    <nd ref="36134740"/>
    <nd ref="1199743111"/>
    <nd ref="271083317"/>
    <nd ref="1298546228"/>
    <nd ref="188476583"/>
    <nd ref="1450517013"/>
    <nd ref="248539907"/>
    <nd ref="1298546209"/>
    <nd ref="1450516869"/>
    <nd ref="25100874"/>
    <tag k="highway" v="primary"/>
    <tag k="lanes" v="2"/>
    <tag k="maxspeed" v="50"/>
    <tag k="name" v="Kaiserring"/>
    <tag k="oneway" v="yes"/>
    <tag k="ref" v="B 38"/>
  </way>
  <way id="4220746" version="11" timestamp="2011-12-04T12:23:17Z" uid="202726" user="whb" changeset="10032506">
    <nd ref="21686475"/>
    <nd ref="36134740"/>
    <nd ref="1199743111"/>
    <nd ref="271083317"/>
    <nd ref="1298546228"/>
    <nd ref="188476583"/>
    <nd ref="1450517013"/>
    <nd ref="248539907"/>
    <nd ref="1298546209"/>
    <nd ref="1450516869"/>
    <nd ref="1531035450"/>
    <tag k="highway" v="primary"/>
    <tag k="lanes" v="2"/>
    <tag k="maxspeed" v="50"/>
    <tag k="name" v="Kaiserring"/>
    <tag k="oneway" v="yes"/>
    <tag k="ref" v="B 38"/>
  </way>
  <way id="4220746" version="12" timestamp="2012-02-11T14:17:05Z" uid="110838" user="Bernhard W" changeset="10653029">
    <nd ref="21686475"/>
    <nd ref="36134740"/>
    <nd ref="1199743111"/>
    <nd ref="1298546228"/>
    <nd ref="188476583"/>
    <nd ref="1450517013"/>
    <nd ref="248539907"/>
    <nd ref="1298546209"/>
    <nd ref="1450516869"/>
    <nd ref="1531035450"/>
    <tag k="highway" v="primary"/>
    <tag k="lanes" v="2"/>
    <tag k="maxspeed" v="50"/>
    <tag k="name" v="Kaiserring"/>
    <tag k="oneway" v="yes"/>
    <tag k="ref" v="B 38"/>
  </way>
  <way id="4220746" version="13" timestamp="2012-02-11T14:33:08Z" uid="110838" user="Bernhard W" changeset="10653266">
    <nd ref="21686475"/>
    <nd ref="1628350655"/>
    <nd ref="36134740"/>
    <nd ref="1199743111"/>
    <nd ref="1298546228"/>
    <nd ref="188476583"/>
    <nd ref="1450517013"/>
    <nd ref="248539907"/>
    <nd ref="1298546209"/>
    <nd ref="1450516869"/>
    <nd ref="1531035450"/>
    <tag k="highway" v="primary"/>
    <tag k="lanes" v="2"/>
    <tag k="maxspeed" v="50"/>
    <tag k="name" v="Kaiserring"/>
    <tag k="oneway" v="yes"/>
    <tag k="ref" v="B 38"/>
  </way>
  <way id="4220746" version="14" timestamp="2012-02-11T14:39:16Z" uid="110838" user="Bernhard W" changeset="10653266">
    <nd ref="21686475"/>
    <nd ref="1628350655"/>
    <nd ref="36134740"/>
    <nd ref="1199743111"/>
    <nd ref="1628359358"/>
    <nd ref="1298546228"/>
    <nd ref="188476583"/>
    <nd ref="1450517013"/>
    <nd ref="248539907"/>
    <nd ref="1298546209"/>
    <nd ref="1450516869"/>
    <nd ref="1531035450"/>
    <tag k="highway" v="primary"/>
    <tag k="lanes" v="2"/>
    <tag k="maxspeed" v="50"/>
    <tag k="name" v="Kaiserring"/>
    <tag k="oneway" v="yes"/>
    <tag k="ref" v="B 38"/>
  </way>
  <way id="4220746" version="15" timestamp="2012-02-11T14:44:58Z" uid="110838" user="Bernhard W" changeset="10653266">
    <nd ref="21686475"/>
    <nd ref="1628350655"/>
    <nd ref="36134740"/>
    <nd ref="1628369104"/>
    <nd ref="1628359358"/>
    <nd ref="1298546228"/>
    <nd ref="188476583"/>
    <nd ref="1450517013"/>
    <nd ref="248539907"/>
    <nd ref="1298546209"/>
    <nd ref="1450516869"/>
    <nd ref="1531035450"/>
    <tag k="highway" v="primary"/>
    <tag k="lanes" v="2"/>
    <tag k="maxspeed" v="50"/>
    <tag k="name" v="Kaiserring"/>
    <tag k="oneway" v="yes"/>
    <tag k="ref" v="B 38"/>
  </way>
  <way id="4220746" version="16" timestamp="2012-02-11T14:48:51Z" uid="110838" user="Bernhard W" changeset="10653266">
    <nd ref="21686475"/>
    <nd ref="1628350655"/>
    <nd ref="36134740"/>
    <tag k="highway" v="primary"/>
    <tag k="lanes" v="2"/>
    <tag k="maxspeed" v="50"/>
    <tag k="name" v="Kaiserring"/>
    <tag k="oneway" v="yes"/>
    <tag k="ref" v="B 38"/>
  </way>
  <way id="4220882" version="5" timestamp="2008-07-04T08:47:40Z" uid="6975" user="ulfl" changeset="389415">
    <nd ref="270334798"/>
    <nd ref="25067416"/>
    <nd ref="270334790"/>
    <tag k="access" v="private"/>
    <tag k="highway" v="track"/>
    <tag k="source" v="yahoo + gpx"/>
    <tag k="tracktype" v="grade1"/>
  </way>
  <way id="4220882" version="6" timestamp="2009-10-27T22:31:16Z" uid="31257" user="Ed Avis" changeset="2969781">
    <nd ref="270334798"/>
    <nd ref="25067416"/>
    <tag k="access" v="private"/>
    <tag k="highway" v="track"/>
    <tag k="source" v="yahoo + gpx"/>
    <tag k="tracktype" v="grade1"/>
  </way>
  <way id="4220882" version="7" timestamp="2012-02-06T13:38:52Z" uid="57884" user="EdLoach" changeset="10602908"/>
  <way id="4220903" version="2" timestamp="2010-04-06T11:38:45Z" uid="20587" user="balrog-kun" changeset="4342994">
    <nd ref="25103648"/>
    <nd ref="25103681"/>
    <nd ref="26427654"/>
    <nd ref="26427714"/>
    <nd ref="26427653"/>
    <nd ref="25103948"/>
    <nd ref="24692678"/>
    <tag k="created_by" v="BlueNinja"/>
    <tag k="highway" v="residential"/>
    <tag k="name" v="Southwest Willow Ave."/>
    <tag k="oneway" v="yes"/>
    <tag k="osmarender:nameDirection" v="-1"/>
  </way>
  <way id="4220903" version="3" timestamp="2010-06-10T17:26:43Z" uid="213956" user="route56" changeset="4955893"/>
  <way id="4220904" version="2" timestamp="2007-10-30T20:58:14Z" uid="4667" user="MapZ" changeset="362108">
    <nd ref="25103066"/>
    <nd ref="26936909"/>
    <nd ref="25422067"/>
    <nd ref="25422068"/>
    <nd ref="92898422"/>
    <nd ref="92898411"/>
    <nd ref="25103370"/>
    <tag k="created_by" v="JOSM"/>
    <tag k="highway" v="residential"/>
    <tag k="oneway" v="yes"/>
  </way>
  <way id="4220904" version="3" timestamp="2008-01-01T13:30:01Z" uid="13035" user="eddivonderalm" changeset="505908">
    <nd ref="25103066"/>
    <nd ref="26936909"/>
    <nd ref="25422067"/>
    <nd ref="25422068"/>
    <nd ref="92898422"/>
    <nd ref="92898411"/>
    <nd ref="201161691"/>
    <nd ref="201161711"/>
    <nd ref="201161715"/>
    <nd ref="25103370"/>
    <tag k="created_by" v="JOSM"/>
    <tag k="highway" v="residential"/>
    <tag k="oneway" v="yes"/>
  </way>
  <way id="4220904" version="4" timestamp="2008-02-20T16:10:36Z" uid="6893" user="[HEK]the_other" changeset="165293">
    <nd ref="25103066"/>
    <nd ref="26936909"/>
    <nd ref="25422067"/>
    <nd ref="25422068"/>
    <nd ref="92898422"/>
    <nd ref="92898411"/>
    <nd ref="201161691"/>
    <nd ref="201161711"/>
    <nd ref="201161715"/>
    <nd ref="25103370"/>
    <nd ref="248539914"/>
    <nd ref="248539915"/>
    <tag k="created_by" v="JOSM"/>
    <tag k="highway" v="residential"/>
    <tag k="oneway" v="yes"/>
  </way>
  <way id="4220904" version="5" timestamp="2008-10-21T20:39:55Z" uid="67601" user="jens123" changeset="495592">
    <nd ref="25103066"/>
    <nd ref="25422067"/>
    <nd ref="25422068"/>
    <nd ref="92898422"/>
    <nd ref="92898411"/>
    <nd ref="201161691"/>
    <nd ref="201161711"/>
    <nd ref="201161715"/>
    <nd ref="25103370"/>
    <nd ref="248539914"/>
    <nd ref="248539915"/>
    <tag k="created_by" v="JOSM"/>
    <tag k="highway" v="residential"/>
    <tag k="oneway" v="yes"/>
  </way>
  <way id="4220904" version="6" timestamp="2008-10-22T18:38:53Z" uid="67601" user="jens123" changeset="516750">
    <nd ref="25103066"/>
    <nd ref="25422067"/>
    <nd ref="25422068"/>
    <nd ref="92898422"/>
    <nd ref="92898411"/>
    <nd ref="201161691"/>
    <nd ref="201161711"/>
    <nd ref="201161715"/>
    <nd ref="25103370"/>
    <nd ref="248539914"/>
    <nd ref="248539915"/>
    <tag k="created_by" v="JOSM"/>
    <tag k="highway" v="residential"/>
    <tag k="oneway" v="yes"/>
  </way>
  <way id="4220904" version="7" timestamp="2010-07-18T17:07:06Z" uid="245137" user="maurice2010" changeset="5253227">
    <nd ref="25103066"/>
    <nd ref="25422067"/>
    <nd ref="25422068"/>
    <nd ref="92898422"/>
    <nd ref="92898411"/>
    <nd ref="201161691"/>
    <nd ref="201161711"/>
    <nd ref="201161715"/>
    <nd ref="25103370"/>
    <nd ref="248539915"/>
    <tag k="highway" v="residential"/>
    <tag k="oneway" v="yes"/>
  </way>
  <way id="4220904" version="8" timestamp="2010-11-14T14:00:32Z" uid="165061" user="keinname" changeset="6366832">
    <nd ref="25103066"/>
    <nd ref="25422067"/>
    <nd ref="25422068"/>
    <nd ref="92898422"/>
    <nd ref="92898411"/>
    <nd ref="201161691"/>
    <nd ref="201161711"/>
    <nd ref="201161715"/>
    <nd ref="25103370"/>
    <nd ref="988747934"/>
    <nd ref="248539913"/>
    <tag k="highway" v="residential"/>
    <tag k="oneway" v="yes"/>
  </way>
  <way id="4220904" version="9" timestamp="2011-03-03T15:46:25Z" uid="410505" user="Udini" changeset="7446809">
    <nd ref="25103066"/>
    <nd ref="25422067"/>
    <nd ref="25422068"/>
    <nd ref="92898422"/>
    <nd ref="92898411"/>
    <nd ref="201161691"/>
    <nd ref="1184512510"/>
    <nd ref="1184512515"/>
    <nd ref="1184512493"/>
    <nd ref="25103370"/>
    <nd ref="1184512521"/>
    <nd ref="1184512495"/>
    <nd ref="1184512506"/>
    <nd ref="1184512491"/>
    <tag k="highway" v="residential"/>
    <tag k="oneway" v="yes"/>
  </way>
  <way id="4220904" version="10" timestamp="2011-03-03T15:49:29Z" uid="410505" user="Udini" changeset="7446837">
    <nd ref="25103066"/>
    <nd ref="25422067"/>
    <nd ref="25422068"/>
    <nd ref="92898422"/>
    <nd ref="92898411"/>
    <nd ref="201161691"/>
    <nd ref="1184512510"/>
    <nd ref="1184512515"/>
    <nd ref="1184512493"/>
    <nd ref="1184515450"/>
    <nd ref="1184512521"/>
    <nd ref="1184512495"/>
    <nd ref="1184512506"/>
    <nd ref="1184515451"/>
    <nd ref="1184512491"/>
    <tag k="highway" v="residential"/>
    <tag k="oneway" v="yes"/>
  </way>
  <way id="4220904" version="11" timestamp="2011-05-13T18:00:21Z" uid="245137" user="maurice2010" changeset="8133748">
    <nd ref="25103066"/>
    <nd ref="25422067"/>
    <nd ref="25422068"/>
    <nd ref="92898422"/>
    <nd ref="92898411"/>
    <nd ref="201161691"/>
    <nd ref="1184512510"/>
    <nd ref="1184512515"/>
    <nd ref="1184512493"/>
    <nd ref="1184515450"/>
    <nd ref="1184512521"/>
    <nd ref="1184512495"/>
    <nd ref="1184512506"/>
    <nd ref="1283078705"/>
    <nd ref="1283078687"/>
    <nd ref="1283078699"/>
    <nd ref="1283078740"/>
    <nd ref="1283078773"/>
    <nd ref="1283078801"/>
    <nd ref="1184515451"/>
    <nd ref="1184512491"/>
    <tag k="highway" v="residential"/>
    <tag k="oneway" v="yes"/>
  </way>
  <way id="4220904" version="12" timestamp="2011-07-15T11:04:52Z" uid="6326" user="mike_hd" changeset="8730135">
    <nd ref="25103066"/>
    <nd ref="25422067"/>
    <nd ref="25422068"/>
    <nd ref="92898422"/>
    <nd ref="92898411"/>
    <nd ref="201161691"/>
    <nd ref="1184512510"/>
    <nd ref="1184512515"/>
    <nd ref="1184512493"/>
    <nd ref="1184512521"/>
    <nd ref="1184512506"/>
    <nd ref="1283078705"/>
    <nd ref="1283078687"/>
    <nd ref="1283078699"/>
    <nd ref="1283078740"/>
    <nd ref="1283078773"/>
    <nd ref="1283078801"/>
    <nd ref="1184515451"/>
    <nd ref="1184512491"/>
    <tag k="highway" v="residential"/>
    <tag k="oneway" v="yes"/>
  </way>
  <way id="4220904" version="13" timestamp="2011-12-21T12:33:25Z" uid="226994" user="Wegabschneider" changeset="10171114">
    <nd ref="25103066"/>
    <nd ref="25422067"/>
    <nd ref="25422068"/>
    <nd ref="92898422"/>
    <nd ref="92898411"/>
    <nd ref="201161691"/>
    <nd ref="1184512510"/>
    <nd ref="1557084049"/>
    <nd ref="1184512515"/>
    <nd ref="1184512493"/>
    <nd ref="1184512521"/>
    <nd ref="1184512506"/>
    <nd ref="1283078705"/>
    <nd ref="1283078687"/>
    <nd ref="1283078699"/>
    <nd ref="1283078740"/>
    <nd ref="1283078773"/>
    <nd ref="1283078801"/>
    <nd ref="1184515451"/>
    <nd ref="1184512491"/>
    <tag k="highway" v="residential"/>
    <tag k="oneway" v="yes"/>
  </way>
  <way id="4220904" version="14" timestamp="2011-12-21T12:39:14Z" uid="226994" user="Wegabschneider" changeset="10171155">
    <nd ref="25103066"/>
    <nd ref="25422067"/>
    <nd ref="25422068"/>
    <nd ref="92898422"/>
    <nd ref="92898411"/>
    <nd ref="201161691"/>
    <nd ref="1184512510"/>
    <nd ref="1557091188"/>
    <nd ref="1557091190"/>
    <nd ref="1557084049"/>
    <nd ref="1184512515"/>
    <nd ref="1184512493"/>
    <nd ref="1184512521"/>
    <nd ref="1184512506"/>
    <nd ref="1283078705"/>
    <nd ref="1283078687"/>
    <nd ref="1283078699"/>
    <nd ref="1283078740"/>
    <nd ref="1283078773"/>
    <nd ref="1283078801"/>
    <nd ref="1184515451"/>
    <nd ref="1184512491"/>
    <tag k="highway" v="residential"/>
    <tag k="oneway" v="yes"/>
  </way>
  <way id="4220904" version="15" timestamp="2012-02-15T20:41:48Z" uid="136321" user="Teddy73" changeset="10695235"/>
  <way id="4220906" version="3" timestamp="2007-10-16T22:43:13Z" uid="4667" user="MapZ" changeset="223456">
    <nd ref="25100890"/>
    <nd ref="25102959"/>
    <nd ref="25102987"/>
    <tag k="created_by" v="MapZ"/>
    <tag k="highway" v="residential"/>
    <tag k="loc_name" v="Breite Straße"/>
    <tag k="name" v="Kurpfalzstraße"/>
    <tag k="oneway" v="yes"/>
  </way>
  <way id="4220906" version="4" timestamp="2007-10-23T22:16:12Z" uid="4667" user="MapZ" changeset="304670">
    <nd ref="25100890"/>
    <nd ref="25102959"/>
    <nd ref="25102987"/>
    <tag k="created_by" v="JOSM"/>
    <tag k="highway" v="residential"/>
    <tag k="loc_name" v="Breite Straße"/>
    <tag k="name" v="Kurpfalzstraße"/>
    <tag k="oneway" v="yes"/>
  </way>
  <way id="4220906" version="5" timestamp="2008-02-20T16:10:38Z" uid="6893" user="[HEK]the_other" changeset="165293">
    <nd ref="25100890"/>
    <nd ref="248539902"/>
    <nd ref="25102959"/>
    <nd ref="25102987"/>
    <tag k="created_by" v="JOSM"/>
    <tag k="highway" v="residential"/>
    <tag k="loc_name" v="Breite Straße"/>
    <tag k="name" v="Kurpfalzstraße"/>
    <tag k="oneway" v="yes"/>
  </way>
  <way id="4220906" version="6" timestamp="2008-06-19T13:07:18Z" uid="46088" user="xander" changeset="227644">
    <nd ref="271324767"/>
    <nd ref="25100890"/>
    <nd ref="248539902"/>
    <nd ref="25102959"/>
    <nd ref="25102987"/>
    <tag k="created_by" v="Potlatch 0.9c"/>
    <tag k="highway" v="residential"/>
    <tag k="loc_name" v="Breite Straße"/>
    <tag k="name" v="Kurpfalzstraße"/>
    <tag k="oneway" v="yes"/>
  </way>
  <way id="4220906" version="7" timestamp="2008-06-19T13:08:10Z" uid="46088" user="xander" changeset="227644">
    <nd ref="271324767"/>
    <nd ref="271324870"/>
    <nd ref="271324871"/>
    <nd ref="271324872"/>
    <nd ref="25100890"/>
    <nd ref="248539902"/>
    <nd ref="25102959"/>
    <nd ref="25102987"/>
    <tag k="created_by" v="Potlatch 0.9c"/>
    <tag k="highway" v="residential"/>
    <tag k="loc_name" v="Breite Straße"/>
    <tag k="name" v="Kurpfalzstraße"/>
    <tag k="oneway" v="yes"/>
  </way>
  <way id="4220906" version="8" timestamp="2008-08-19T09:10:31Z" uid="44329" user="aikon" changeset="319680">
    <nd ref="271324767"/>
    <nd ref="271324870"/>
    <nd ref="289323584"/>
    <nd ref="271324871"/>
    <nd ref="271324872"/>
    <nd ref="25100890"/>
    <nd ref="248539902"/>
    <nd ref="25102959"/>
    <nd ref="25102987"/>
    <tag k="created_by" v="Potlatch 0.9c"/>
    <tag k="highway" v="residential"/>
    <tag k="loc_name" v="Breite Straße"/>
    <tag k="name" v="Kurpfalzstraße"/>
    <tag k="oneway" v="yes"/>
  </way>
  <way id="4220906" version="9" timestamp="2008-10-21T20:40:30Z" uid="67601" user="jens123" changeset="495592"/>
  <way id="4220907" version="3" timestamp="2007-10-16T22:43:10Z" uid="4667" user="MapZ" changeset="223456">
    <nd ref="25103002"/>
    <nd ref="25102954"/>
    <nd ref="25102902"/>
    <tag k="created_by" v="MapZ"/>
    <tag k="highway" v="residential"/>
    <tag k="loc_name" v="Breite Straße"/>
    <tag k="name" v="Kurpfalzstraße"/>
    <tag k="oneway" v="yes"/>
  </way>
  <way id="4220907" version="4" timestamp="2007-10-23T22:16:04Z" uid="4667" user="MapZ" changeset="304670">
    <nd ref="25103002"/>
    <nd ref="25102954"/>
    <nd ref="25102902"/>
    <tag k="created_by" v="JOSM"/>
    <tag k="highway" v="residential"/>
    <tag k="loc_name" v="Breite Straße"/>
    <tag k="name" v="Kurpfalzstraße"/>
    <tag k="oneway" v="yes"/>
  </way>
  <way id="4220907" version="5" timestamp="2008-02-20T16:10:37Z" uid="6893" user="[HEK]the_other" changeset="165293">
    <nd ref="25103002"/>
    <nd ref="25102954"/>
    <nd ref="248539900"/>
    <nd ref="25102902"/>
    <tag k="created_by" v="JOSM"/>
    <tag k="highway" v="residential"/>
    <tag k="loc_name" v="Breite Straße"/>
    <tag k="name" v="Kurpfalzstraße"/>
    <tag k="oneway" v="yes"/>
  </way>
  <way id="4220907" version="6" timestamp="2008-10-21T20:39:52Z" uid="67601" user="jens123" changeset="495592">
    <nd ref="25103002"/>
    <nd ref="36133884"/>
    <nd ref="306258827"/>
    <nd ref="248539900"/>
    <nd ref="25102902"/>
    <nd ref="271324767"/>
    <tag k="created_by" v="JOSM"/>
    <tag k="highway" v="residential"/>
    <tag k="loc_name" v="Breite Straße"/>
    <tag k="name" v="Kurpfalzstraße"/>
    <tag k="oneway" v="yes"/>
  </way>
  <way id="4220907" version="7" timestamp="2008-10-22T18:38:51Z" uid="67601" user="jens123" changeset="516750">
    <nd ref="25103002"/>
    <nd ref="36133884"/>
    <nd ref="306472239"/>
    <nd ref="248539900"/>
    <nd ref="25102902"/>
    <tag k="created_by" v="JOSM"/>
    <tag k="highway" v="residential"/>
    <tag k="loc_name" v="Breite Straße"/>
    <tag k="name" v="Kurpfalzstraße"/>
    <tag k="oneway" v="yes"/>
  </way>
  <way id="4220907" version="8" timestamp="2008-10-22T18:43:49Z" uid="67601" user="jens123" changeset="516750">
    <nd ref="25103002"/>
    <nd ref="36133884"/>
    <nd ref="306472239"/>
    <nd ref="248539900"/>
    <nd ref="25102902"/>
    <nd ref="271324767"/>
    <tag k="created_by" v="JOSM"/>
    <tag k="highway" v="residential"/>
    <tag k="loc_name" v="Breite Straße"/>
    <tag k="name" v="Kurpfalzstraße"/>
    <tag k="oneway" v="yes"/>
  </way>
  <way id="4220907" version="9" timestamp="2009-05-28T11:00:37Z" uid="46088" user="xander" changeset="1341662">
    <nd ref="25103002"/>
    <nd ref="36133884"/>
    <nd ref="306472239"/>
    <nd ref="248539900"/>
    <nd ref="412123597"/>
    <nd ref="412123598"/>
    <nd ref="25102902"/>
    <nd ref="412123602"/>
    <nd ref="412123603"/>
    <nd ref="25105655"/>
    <tag k="created_by" v="JOSM"/>
    <tag k="highway" v="residential"/>
    <tag k="loc_name" v="Breite Straße"/>
    <tag k="name" v="Kurpfalzstraße"/>
    <tag k="oneway" v="yes"/>
  </way>
  <way id="4220907" version="10" timestamp="2009-05-28T14:28:31Z" uid="46088" user="xander" changeset="1343225">
    <nd ref="25103002"/>
    <nd ref="36133884"/>
    <nd ref="306472239"/>
    <nd ref="248539900"/>
    <nd ref="412123597"/>
    <nd ref="412181179"/>
    <nd ref="412123598"/>
    <nd ref="412181178"/>
    <nd ref="412123602"/>
    <nd ref="412123603"/>
    <nd ref="412181177"/>
    <nd ref="412181185"/>
    <tag k="created_by" v="JOSM"/>
    <tag k="highway" v="residential"/>
    <tag k="loc_name" v="Breite Straße"/>
    <tag k="name" v="Kurpfalzstraße"/>
    <tag k="oneway" v="yes"/>
  </way>
  <way id="4220907" version="11" timestamp="2009-09-09T18:34:13Z" uid="26299" user="uboot" changeset="2428498">
    <nd ref="25103002"/>
    <nd ref="36133884"/>
    <nd ref="306472239"/>
    <nd ref="248539900"/>
    <nd ref="412123597"/>
    <nd ref="412181179"/>
    <nd ref="412123598"/>
    <nd ref="412181178"/>
    <nd ref="412123602"/>
    <nd ref="491489396"/>
    <nd ref="412123603"/>
    <nd ref="412181177"/>
    <nd ref="412181185"/>
    <tag k="highway" v="residential"/>
    <tag k="loc_name" v="Breite Straße"/>
    <tag k="name" v="Kurpfalzstraße"/>
    <tag k="oneway" v="yes"/>
  </way>
  <way id="4220907" version="12" timestamp="2010-05-21T14:35:07Z" uid="6893" user="[HEK]the_other" changeset="4766443"/>
  <way id="4220939" version="1" timestamp="2007-07-03T22:06:35Z" uid="8328" user="benpre" changeset="125690">
    <nd ref="25104106"/>
    <nd ref="25104115"/>
    <tag k="created_by" v="JOSM"/>
    <tag k="highway" v="residential"/>
    <tag k="name" v="Fleischlenstraße"/>
  </way>
  <way id="4220939" version="2" timestamp="2009-04-01T08:57:33Z" uid="5079" user="friedel_hn" changeset="14136">
    <nd ref="25104106"/>
    <nd ref="25104115"/>
    <tag k="created_by" v="JOSM"/>
    <tag k="highway" v="residential"/>
    <tag k="name" v="Flaischlenstraße"/>
  </way>
  <way id="4220939" version="3" timestamp="2009-06-25T16:59:54Z" uid="85761" user="klausis" changeset="1624568">
    <nd ref="25104106"/>
    <nd ref="25104115"/>
    <tag k="highway" v="residential"/>
    <tag k="name" v="Flaischlenstraße"/>
  </way>
  <way id="4220939" version="4" timestamp="2010-10-11T06:01:29Z" uid="131968" user="changchun_1" changeset="6008697">
    <nd ref="25104106"/>
    <nd ref="25104115"/>
    <tag k="highway" v="residential"/>
    <tag k="maxspeed" v="30"/>
    <tag k="name" v="Flaischlenstraße"/>
  </way>
  <way id="4220939" version="5" timestamp="2011-12-16T20:46:57Z" uid="5079" user="friedel_hn" changeset="10134088"/>
  <way id="4220956" version="1" timestamp="2007-07-03T22:06:29Z" uid="8328" user="benpre" changeset="125690">
    <nd ref="25104119"/>
    <nd ref="25104115"/>
    <nd ref="25104170"/>
    <nd ref="25104129"/>
    <nd ref="21740408"/>
    <nd ref="25104125"/>
    <tag k="created_by" v="JOSM"/>
    <tag k="highway" v="minor"/>
    <tag k="name" v="Keilstraße"/>
  </way>
  <way id="4220956" version="2" timestamp="2008-02-01T22:29:50Z" uid="5079" user="friedel_hn" changeset="6550">
    <nd ref="25104119"/>
    <nd ref="25104115"/>
    <nd ref="25104170"/>
    <nd ref="25104129"/>
    <nd ref="21740408"/>
    <nd ref="25104125"/>
    <tag k="created_by" v="JOSM"/>
    <tag k="highway" v="minor"/>
    <tag k="name" v="Keilstraße"/>
  </way>
  <way id="4220956" version="3" timestamp="2008-04-22T20:57:01Z" uid="5079" user="friedel_hn" changeset="224590">
    <nd ref="25104119"/>
    <nd ref="25104115"/>
    <nd ref="25104170"/>
    <nd ref="25104129"/>
    <nd ref="21740408"/>
    <nd ref="25104125"/>
    <tag k="created_by" v="JOSM"/>
    <tag k="highway" v="residential"/>
    <tag k="name" v="Keilstraße"/>
  </way>
  <way id="4220956" version="4" timestamp="2009-06-25T16:59:51Z" uid="85761" user="klausis" changeset="1624568">
    <nd ref="25104119"/>
    <nd ref="25104115"/>
    <nd ref="25104170"/>
    <nd ref="25104129"/>
    <nd ref="21740408"/>
    <nd ref="25104125"/>
    <tag k="highway" v="residential"/>
    <tag k="name" v="Keilstraße"/>
  </way>
  <way id="4220956" version="5" timestamp="2009-09-01T19:38:08Z" uid="5079" user="friedel_hn" changeset="2342101">
    <nd ref="25104119"/>
    <nd ref="25104115"/>
    <nd ref="25104170"/>
    <nd ref="25104129"/>
    <nd ref="21740408"/>
    <nd ref="25104125"/>
    <tag k="highway" v="residential"/>
    <tag k="name" v="Keilstraße"/>
  </way>
  <way id="4220956" version="6" timestamp="2009-11-01T18:59:24Z" uid="5079" user="friedel_hn" changeset="3009827">
    <nd ref="25104119"/>
    <nd ref="25104115"/>
    <nd ref="25104170"/>
    <nd ref="25104129"/>
    <nd ref="21740408"/>
    <nd ref="550359339"/>
    <nd ref="25104125"/>
    <tag k="highway" v="residential"/>
    <tag k="name" v="Keilstraße"/>
  </way>
  <way id="4220956" version="7" timestamp="2010-04-26T19:45:29Z" uid="5079" user="friedel_hn" changeset="4535390">
    <nd ref="25104119"/>
    <nd ref="25104115"/>
    <nd ref="25104170"/>
    <nd ref="25104129"/>
    <nd ref="708022829"/>
    <nd ref="21740408"/>
    <nd ref="550359339"/>
    <nd ref="25104125"/>
    <tag k="highway" v="residential"/>
    <tag k="name" v="Keilstraße"/>
  </way>
  <way id="4220956" version="8" timestamp="2010-04-26T20:14:32Z" uid="5079" user="friedel_hn" changeset="4535760">
    <nd ref="25104119"/>
    <nd ref="25104115"/>
    <nd ref="25104170"/>
    <nd ref="708085264"/>
    <nd ref="708085263"/>
    <nd ref="25104129"/>
    <nd ref="708022829"/>
    <nd ref="21740408"/>
    <nd ref="550359339"/>
    <nd ref="25104125"/>
    <tag k="highway" v="residential"/>
    <tag k="name" v="Keilstraße"/>
  </way>
  <way id="4220956" version="9" timestamp="2010-10-10T17:45:47Z" uid="131968" user="changchun_1" changeset="6004627">
    <nd ref="25104119"/>
    <nd ref="25104115"/>
    <nd ref="25104170"/>
    <nd ref="708085264"/>
    <nd ref="708085263"/>
    <nd ref="25104129"/>
    <nd ref="708022829"/>
    <nd ref="944318303"/>
    <nd ref="21740408"/>
    <nd ref="550359339"/>
    <nd ref="25104125"/>
    <tag k="highway" v="residential"/>
    <tag k="name" v="Keilstraße"/>
  </way>
  <way id="4220956" version="10" timestamp="2010-10-11T06:01:27Z" uid="131968" user="changchun_1" changeset="6008697">
    <nd ref="25104119"/>
    <nd ref="25104115"/>
    <nd ref="25104170"/>
    <nd ref="708085264"/>
    <nd ref="708085263"/>
    <nd ref="25104129"/>
    <nd ref="708022829"/>
    <nd ref="944318303"/>
    <nd ref="21740408"/>
    <nd ref="550359339"/>
    <nd ref="25104125"/>
    <tag k="highway" v="residential"/>
    <tag k="maxspeed" v="30"/>
    <tag k="name" v="Keilstraße"/>
  </way>
  <way id="4220956" version="11" timestamp="2011-12-16T20:46:57Z" uid="5079" user="friedel_hn" changeset="10134088"/>
  <way id="4220964" version="1" timestamp="2007-07-03T22:07:37Z" uid="8328" user="benpre" changeset="125690">
    <nd ref="25104062"/>
    <nd ref="25104069"/>
    <nd ref="26752827"/>
    <nd ref="25104076"/>
    <nd ref="25104080"/>
    <nd ref="25104089"/>
    <nd ref="21756359"/>
    <tag k="created_by" v="JOSM"/>
    <tag k="highway" v="minor"/>
    <tag k="name" v="Großgartacher Straße"/>
  </way>
  <way id="4220964" version="2" timestamp="2007-12-03T20:24:45Z" uid="5079" user="friedel_hn" changeset="56742">
    <nd ref="25104062"/>
    <nd ref="25104069"/>
    <nd ref="26752827"/>
    <nd ref="25104076"/>
    <nd ref="25104080"/>
    <nd ref="25104089"/>
    <nd ref="21756359"/>
    <tag k="created_by" v="JOSM"/>
    <tag k="highway" v="minor"/>
    <tag k="name" v="Großgartacher Straße"/>
  </way>
  <way id="4220964" version="3" timestamp="2008-02-19T20:37:23Z" uid="5079" user="friedel_hn" changeset="158301">
    <nd ref="25104062"/>
    <nd ref="25104069"/>
    <nd ref="26752827"/>
    <nd ref="25104076"/>
    <nd ref="25104080"/>
    <nd ref="25104089"/>
    <nd ref="21756359"/>
    <tag k="created_by" v="JOSM"/>
    <tag k="highway" v="residential"/>
    <tag k="name" v="Großgartacher Straße"/>
  </way>
  <way id="4220964" version="4" timestamp="2008-02-19T20:38:59Z" uid="5079" user="friedel_hn" changeset="158301">
    <nd ref="21756375"/>
    <nd ref="25104044"/>
    <nd ref="25104055"/>
    <nd ref="25104062"/>
    <nd ref="25104069"/>
    <nd ref="26752827"/>
    <nd ref="25104076"/>
    <nd ref="25104080"/>
    <nd ref="25104089"/>
    <nd ref="21756359"/>
    <tag k="created_by" v="JOSM"/>
    <tag k="highway" v="residential"/>
    <tag k="name" v="Großgartacher Straße"/>
  </way>
  <way id="4220964" version="5" timestamp="2008-05-24T16:09:59Z" uid="5079" user="friedel_hn" changeset="509863">
    <nd ref="21756375"/>
    <nd ref="266647703"/>
    <nd ref="25104044"/>
    <nd ref="25104055"/>
    <nd ref="25104062"/>
    <nd ref="25104069"/>
    <nd ref="26752827"/>
    <nd ref="25104076"/>
    <nd ref="25104080"/>
    <nd ref="25104089"/>
    <nd ref="21756359"/>
    <tag k="created_by" v="JOSM"/>
    <tag k="highway" v="residential"/>
    <tag k="name" v="Großgartacher Straße"/>
  </way>
  <way id="4220964" version="6" timestamp="2009-06-25T17:00:13Z" uid="85761" user="klausis" changeset="1624568">
    <nd ref="21756375"/>
    <nd ref="266647703"/>
    <nd ref="25104044"/>
    <nd ref="25104055"/>
    <nd ref="25104062"/>
    <nd ref="25104069"/>
    <nd ref="26752827"/>
    <nd ref="25104076"/>
    <nd ref="25104080"/>
    <nd ref="25104089"/>
    <nd ref="21756359"/>
    <tag k="highway" v="residential"/>
    <tag k="name" v="Großgartacher Straße"/>
  </way>
  <way id="4220964" version="7" timestamp="2009-07-20T18:17:04Z" uid="115042" user="anonym HN" changeset="1887848">
    <nd ref="21756359"/>
    <nd ref="25104089"/>
    <nd ref="25104080"/>
    <nd ref="25104076"/>
    <nd ref="26752827"/>
    <nd ref="25104069"/>
    <nd ref="25104062"/>
    <nd ref="25104055"/>
    <nd ref="25104044"/>
    <nd ref="266647703"/>
    <nd ref="21756375"/>
    <tag k="highway" v="residential"/>
    <tag k="name" v="Großgartacher Straße"/>
    <tag k="oneway" v="yes"/>
  </way>
  <way id="4220964" version="8" timestamp="2009-10-20T18:09:31Z" uid="5079" user="friedel_hn" changeset="2905850">
    <nd ref="21756359"/>
    <nd ref="25104089"/>
    <nd ref="25104080"/>
    <nd ref="25104076"/>
    <nd ref="26752827"/>
    <nd ref="25104069"/>
    <nd ref="25104062"/>
    <nd ref="25104055"/>
    <nd ref="25104044"/>
    <nd ref="266647703"/>
    <nd ref="21756375"/>
    <tag k="highway" v="residential"/>
    <tag k="name" v="Großgartacher Straße"/>
  </way>
  <way id="4220964" version="9" timestamp="2010-01-24T11:54:33Z" uid="131968" user="changchun_1" changeset="3700033">
    <nd ref="21756359"/>
    <nd ref="25104089"/>
    <nd ref="25104080"/>
    <nd ref="25104076"/>
    <nd ref="26752827"/>
    <nd ref="25104069"/>
    <nd ref="25104062"/>
    <nd ref="25104055"/>
    <nd ref="25104044"/>
    <nd ref="266647703"/>
    <nd ref="21756375"/>
    <tag k="highway" v="residential"/>
    <tag k="maxspeed" v="30"/>
    <tag k="name" v="Großgartacher Straße"/>
  </way>
  <way id="4220964" version="10" timestamp="2010-06-14T21:37:38Z" uid="131968" user="changchun_1" changeset="4991825">
    <nd ref="21756359"/>
    <nd ref="25104089"/>
    <nd ref="25104080"/>
    <tag k="highway" v="residential"/>
    <tag k="maxspeed" v="30"/>
    <tag k="name" v="Hans-Mulscher-Straße"/>
  </way>
  <way id="4220964" version="11" timestamp="2011-12-18T10:40:00Z" uid="131968" user="changchun_1" changeset="10145125"/>
  <way id="4220967" version="1" timestamp="2007-07-03T22:07:38Z" uid="8328" user="benpre" changeset="125690">
    <nd ref="21756363"/>
    <nd ref="21756364"/>
    <nd ref="21756365"/>
    <nd ref="21756366"/>
    <nd ref="21756367"/>
    <nd ref="21756368"/>
    <nd ref="21756370"/>
    <nd ref="21756371"/>
    <tag k="created_by" v="JOSM"/>
    <tag k="highway" v="primary"/>
  </way>
  <way id="4220967" version="2" timestamp="2007-11-01T17:52:55Z" uid="5079" user="friedel_hn" changeset="385329">
    <nd ref="21756363"/>
    <nd ref="21756364"/>
    <nd ref="21756365"/>
    <nd ref="21756366"/>
    <nd ref="21756367"/>
    <nd ref="21756368"/>
    <nd ref="21756370"/>
    <nd ref="21756371"/>
    <tag k="created_by" v="JOSM"/>
    <tag k="highway" v="primary"/>
    <tag k="name" v="Wilhelm-Leuschner-Straße"/>
  </way>
  <way id="4220967" version="3" timestamp="2007-11-19T21:19:32Z" uid="5079" user="friedel_hn" changeset="568345">
    <nd ref="21756363"/>
    <nd ref="21756365"/>
    <nd ref="21756367"/>
    <nd ref="21756368"/>
    <nd ref="21756370"/>
    <nd ref="21756371"/>
    <tag k="created_by" v="JOSM"/>
    <tag k="highway" v="primary"/>
    <tag k="name" v="Wilhelm-Leuschner-Straße"/>
  </way>
  <way id="4220967" version="4" timestamp="2007-12-10T23:11:12Z" uid="5079" user="friedel_hn" changeset="252067">
    <nd ref="21756363"/>
    <nd ref="21756365"/>
    <nd ref="21756367"/>
    <nd ref="21756368"/>
    <nd ref="21756370"/>
    <nd ref="21756371"/>
    <tag k="created_by" v="JOSM"/>
    <tag k="highway" v="primary"/>
    <tag k="name" v="Wilhelm-Leuschner-Straße"/>
    <tag k="osmarender:renderName" v="no"/>
  </way>
  <way id="4220967" version="5" timestamp="2008-02-11T21:54:30Z" uid="5079" user="friedel_hn" changeset="100783">
    <nd ref="21756363"/>
    <nd ref="21756365"/>
    <nd ref="21756367"/>
    <nd ref="21756368"/>
    <nd ref="21756370"/>
    <nd ref="21756371"/>
    <tag k="created_by" v="JOSM"/>
    <tag k="highway" v="primary"/>
    <tag k="name" v="Wilhelm-Leuschner-Straße"/>
    <tag k="osmarender:renderName" v="no"/>
    <tag k="ref" v="B239"/>
  </way>
  <way id="4220967" version="6" timestamp="2008-06-11T08:26:33Z" uid="5079" user="friedel_hn" changeset="131196">
    <nd ref="21756363"/>
    <nd ref="21756365"/>
    <nd ref="21756367"/>
    <nd ref="21756368"/>
    <nd ref="21756370"/>
    <nd ref="21756371"/>
    <tag k="created_by" v="JOSM"/>
    <tag k="highway" v="primary"/>
    <tag k="name" v="Wilhelm-Leuschner-Straße"/>
    <tag k="osmarender:renderName" v="no"/>
    <tag k="osmarender:renderRef" v="no"/>
    <tag k="ref" v="B293"/>
  </way>
  <way id="4220967" version="7" timestamp="2008-07-14T20:38:52Z" uid="24920" user="Schusch" changeset="490169">
    <nd ref="21756363"/>
    <nd ref="21756365"/>
    <nd ref="21756367"/>
    <nd ref="21756368"/>
    <nd ref="21756370"/>
    <nd ref="21756371"/>
    <tag k="created_by" v="Potlatch 0.9c"/>
    <tag k="highway" v="primary"/>
    <tag k="name" v="Wilhelm-Leuschner-Straße"/>
    <tag k="osmarender:renderName" v="no"/>
    <tag k="osmarender:renderRef" v="no"/>
    <tag k="ref" v="B 293"/>
  </way>
  <way id="4220967" version="8" timestamp="2009-06-25T17:00:14Z" uid="85761" user="klausis" changeset="1624568">
    <nd ref="21756363"/>
    <nd ref="21756365"/>
    <nd ref="21756367"/>
    <nd ref="21756368"/>
    <nd ref="21756370"/>
    <nd ref="21756371"/>
    <tag k="highway" v="primary"/>
    <tag k="name" v="Wilhelm-Leuschner-Straße"/>
    <tag k="osmarender:renderName" v="no"/>
    <tag k="osmarender:renderRef" v="no"/>
    <tag k="ref" v="B 293"/>
  </way>
  <way id="4220967" version="9" timestamp="2009-12-30T17:58:42Z" uid="131968" user="changchun_1" changeset="3492148">
    <nd ref="21756363"/>
    <nd ref="21756365"/>
    <nd ref="21756367"/>
    <nd ref="21756368"/>
    <nd ref="21756370"/>
    <nd ref="21756371"/>
    <tag k="highway" v="primary"/>
    <tag k="maxspeed" v="50"/>
    <tag k="name" v="Wilhelm-Leuschner-Straße"/>
    <tag k="osmarender:renderName" v="no"/>
    <tag k="osmarender:renderRef" v="no"/>
    <tag k="ref" v="B 293"/>
  </way>
  <way id="4220967" version="10" timestamp="2010-04-27T20:25:08Z" uid="5079" user="friedel_hn" changeset="4544688">
    <nd ref="21756363"/>
    <nd ref="21756365"/>
    <nd ref="709065152"/>
    <nd ref="21756368"/>
    <nd ref="21756367"/>
    <nd ref="21756370"/>
    <nd ref="21756371"/>
    <tag k="highway" v="primary"/>
    <tag k="maxspeed" v="50"/>
    <tag k="name" v="Wilhelm-Leuschner-Straße"/>
    <tag k="osmarender:renderName" v="no"/>
    <tag k="osmarender:renderRef" v="no"/>
    <tag k="ref" v="B 293"/>
  </way>
  <way id="4220967" version="11" timestamp="2010-04-27T20:51:54Z" uid="5079" user="friedel_hn" changeset="4544975">
    <nd ref="21756363"/>
    <nd ref="21756365"/>
    <nd ref="709065152"/>
    <nd ref="21756368"/>
    <nd ref="21756367"/>
    <nd ref="21756370"/>
    <nd ref="21756371"/>
    <tag k="highway" v="primary"/>
    <tag k="maxspeed" v="50"/>
    <tag k="name" v="Wilhelm-Leuschner-Straße"/>
    <tag k="oneway" v="yes"/>
    <tag k="osmarender:renderName" v="no"/>
    <tag k="osmarender:renderRef" v="no"/>
    <tag k="ref" v="B 293"/>
  </way>
  <way id="4220967" version="12" timestamp="2011-09-01T02:46:17Z" uid="207745" user="NE2" changeset="9181205">
    <nd ref="21756363"/>
    <nd ref="21756365"/>
    <nd ref="709065152"/>
    <nd ref="21756368"/>
    <nd ref="21756367"/>
    <nd ref="21756370"/>
    <nd ref="21756371"/>
    <tag k="highway" v="primary"/>
    <tag k="maxspeed" v="50"/>
    <tag k="name" v="Wilhelm-Leuschner-Straße"/>
    <tag k="oneway" v="yes"/>
    <tag k="ref" v="B 293"/>
  </way>
  <way id="4220967" version="13" timestamp="2011-12-18T10:40:00Z" uid="131968" user="changchun_1" changeset="10145125"/>
  <way id="4220969" version="1" timestamp="2007-07-03T22:07:13Z" uid="8328" user="benpre" changeset="125690">
    <nd ref="21756375"/>
    <nd ref="25104011"/>
    <nd ref="21756376"/>
    <nd ref="21756377"/>
    <nd ref="21756378"/>
    <nd ref="21756379"/>
    <nd ref="21756380"/>
    <nd ref="21756381"/>
    <nd ref="21756382"/>
    <nd ref="21756383"/>
    <nd ref="21756385"/>
    <tag k="created_by" v="JOSM"/>
    <tag k="highway" v="primary"/>
    <tag k="name" v="Wilhelm-Leuschner-Straße"/>
  </way>
  <way id="4220969" version="2" timestamp="2007-11-20T18:29:38Z" uid="5079" user="friedel_hn" changeset="576370">
    <nd ref="21756375"/>
    <nd ref="25104011"/>
    <nd ref="21756376"/>
    <nd ref="21756377"/>
    <nd ref="21756378"/>
    <nd ref="21756379"/>
    <nd ref="21756380"/>
    <nd ref="21756381"/>
    <nd ref="21756382"/>
    <nd ref="21756383"/>
    <nd ref="21756385"/>
    <tag k="created_by" v="JOSM"/>
    <tag k="highway" v="primary"/>
    <tag k="name" v="Wilhelm-Leuschner-Straße"/>
  </way>
  <way id="4220969" version="3" timestamp="2007-12-10T23:11:13Z" uid="5079" user="friedel_hn" changeset="252067"/>
  <way id="4220971" version="1" timestamp="2007-07-03T22:07:14Z" uid="8328" user="benpre" changeset="125690">
    <nd ref="21756375"/>
    <nd ref="25104028"/>
    <nd ref="25104033"/>
    <nd ref="25104037"/>
    <nd ref="26752816"/>
    <nd ref="26752804"/>
    <nd ref="26752802"/>
    <tag k="created_by" v="JOSM"/>
    <tag k="highway" v="minor"/>
    <tag k="name" v="Kastellstraße"/>
  </way>
  <way id="4220971" version="2" timestamp="2007-11-20T18:29:39Z" uid="5079" user="friedel_hn" changeset="576370">
    <nd ref="21756375"/>
    <nd ref="25104028"/>
    <nd ref="25104033"/>
    <nd ref="34484300"/>
    <nd ref="26752804"/>
    <nd ref="26752802"/>
    <tag k="created_by" v="JOSM"/>
    <tag k="highway" v="minor"/>
    <tag k="name" v="Kastellstraße"/>
  </way>
  <way id="4220971" version="3" timestamp="2008-02-19T20:37:22Z" uid="5079" user="friedel_hn" changeset="158301">
    <nd ref="21756375"/>
    <nd ref="25104028"/>
    <nd ref="25104033"/>
    <nd ref="34484300"/>
    <nd ref="26752804"/>
    <nd ref="26752802"/>
    <tag k="created_by" v="JOSM"/>
    <tag k="highway" v="residential"/>
    <tag k="name" v="Kastellstraße"/>
  </way>
  <way id="4220971" version="4" timestamp="2009-06-25T17:00:08Z" uid="85761" user="klausis" changeset="1624568">
    <nd ref="21756375"/>
    <nd ref="25104028"/>
    <nd ref="25104033"/>
    <nd ref="34484300"/>
    <nd ref="26752804"/>
    <nd ref="26752802"/>
    <tag k="highway" v="residential"/>
    <tag k="name" v="Kastellstraße"/>
  </way>
  <way id="4220971" version="5" timestamp="2010-01-01T08:00:05Z" uid="131968" user="changchun_1" changeset="3505595">
    <nd ref="21756375"/>
    <nd ref="25104028"/>
    <nd ref="25104033"/>
    <nd ref="34484300"/>
    <nd ref="26752804"/>
    <nd ref="26752802"/>
    <tag k="highway" v="residential"/>
    <tag k="maxspeed" v="30"/>
    <tag k="name" v="Kastellstraße"/>
  </way>
  <way id="4220971" version="6" timestamp="2011-01-10T10:43:37Z" uid="131968" user="changchun_1" changeset="6924869">
    <nd ref="21756375"/>
    <nd ref="25104028"/>
    <nd ref="25104033"/>
    <nd ref="1096149801"/>
    <nd ref="1096148542"/>
    <nd ref="34484300"/>
    <nd ref="1096148813"/>
    <nd ref="1096150048"/>
    <nd ref="26752804"/>
    <nd ref="26752802"/>
    <tag k="highway" v="residential"/>
    <tag k="maxspeed" v="30"/>
    <tag k="name" v="Kastellstraße"/>
  </way>
  <way id="4220971" version="7" timestamp="2011-12-18T10:49:23Z" uid="131968" user="changchun_1" changeset="10145188"/>
  <way id="4220977" version="1" timestamp="2007-07-03T22:06:29Z" uid="8328" user="benpre" changeset="125690">
    <nd ref="21756319"/>
    <nd ref="21756320"/>
    <nd ref="29091714"/>
    <nd ref="21756322"/>
    <nd ref="21756324"/>
    <nd ref="21756326"/>
    <nd ref="21756327"/>
    <nd ref="31139630"/>
    <nd ref="31139669"/>
    <nd ref="31137316"/>
    <nd ref="21756353"/>
    <tag k="created_by" v="JOSM"/>
    <tag k="highway" v="primary"/>
    <tag k="name" v="Großgartacher Straße"/>
  </way>
  <way id="4220977" version="2" timestamp="2007-12-09T16:17:28Z" uid="5079" user="friedel_hn" changeset="201451">
    <nd ref="21756319"/>
    <nd ref="21756320"/>
    <nd ref="29091714"/>
    <nd ref="21756322"/>
    <nd ref="21756324"/>
    <nd ref="21756326"/>
    <nd ref="21756327"/>
    <nd ref="31139630"/>
    <nd ref="31139669"/>
    <nd ref="31137316"/>
    <nd ref="158694972"/>
    <nd ref="21756353"/>
    <tag k="created_by" v="JOSM"/>
    <tag k="highway" v="primary"/>
    <tag k="name" v="Großgartacher Straße"/>
  </way>
  <way id="4220977" version="3" timestamp="2007-12-09T16:24:10Z" uid="5079" user="friedel_hn" changeset="201451">
    <nd ref="21756319"/>
    <nd ref="21756320"/>
    <nd ref="29091714"/>
    <nd ref="21756322"/>
    <nd ref="21756324"/>
    <nd ref="21756326"/>
    <nd ref="21756327"/>
    <nd ref="158696700"/>
    <nd ref="31139630"/>
    <nd ref="31139669"/>
    <nd ref="31137316"/>
    <nd ref="158694972"/>
    <nd ref="21756353"/>
    <tag k="created_by" v="JOSM"/>
    <tag k="highway" v="primary"/>
    <tag k="name" v="Großgartacher Straße"/>
  </way>
  <way id="4220977" version="4" timestamp="2007-12-09T16:31:53Z" uid="5079" user="friedel_hn" changeset="201451">
    <nd ref="21756319"/>
    <nd ref="21756320"/>
    <nd ref="29091714"/>
    <nd ref="21756322"/>
    <nd ref="21756324"/>
    <nd ref="21756326"/>
    <nd ref="21756327"/>
    <nd ref="158698711"/>
    <nd ref="158696700"/>
    <nd ref="31139630"/>
    <nd ref="31139669"/>
    <nd ref="31137316"/>
    <nd ref="158694972"/>
    <nd ref="21756353"/>
    <tag k="created_by" v="JOSM"/>
    <tag k="highway" v="primary"/>
    <tag k="name" v="Großgartacher Straße"/>
  </way>
  <way id="4220977" version="5" timestamp="2008-02-01T22:29:51Z" uid="5079" user="friedel_hn" changeset="6550">
    <nd ref="21756319"/>
    <nd ref="21756320"/>
    <nd ref="29091714"/>
    <nd ref="21756322"/>
    <nd ref="21756326"/>
    <nd ref="244621669"/>
    <nd ref="244621661"/>
    <nd ref="158698711"/>
    <nd ref="158696700"/>
    <nd ref="31139630"/>
    <nd ref="31139669"/>
    <nd ref="31137316"/>
    <nd ref="158694972"/>
    <nd ref="21756353"/>
    <tag k="created_by" v="JOSM"/>
    <tag k="highway" v="primary"/>
    <tag k="name" v="Großgartacher Straße"/>
  </way>
  <way id="4220977" version="6" timestamp="2008-02-11T21:49:58Z" uid="5079" user="friedel_hn" changeset="100783">
    <nd ref="21756319"/>
    <nd ref="21756320"/>
    <nd ref="29091714"/>
    <nd ref="21756322"/>
    <nd ref="21756326"/>
    <nd ref="244621669"/>
    <nd ref="244621661"/>
    <nd ref="158698711"/>
    <nd ref="158696700"/>
    <nd ref="31139630"/>
    <nd ref="31139669"/>
    <nd ref="31137316"/>
    <nd ref="158694972"/>
    <nd ref="21756353"/>
    <tag k="created_by" v="JOSM"/>
    <tag k="highway" v="primary"/>
    <tag k="name" v="Großgartacher Straße"/>
    <tag k="ref" v="B239"/>
  </way>
  <way id="4220977" version="7" timestamp="2008-02-11T21:54:29Z" uid="5079" user="friedel_hn" changeset="100783">
    <nd ref="21756319"/>
    <nd ref="21756320"/>
    <nd ref="29091714"/>
    <nd ref="21756322"/>
    <nd ref="21756326"/>
    <nd ref="244621669"/>
    <nd ref="244621661"/>
    <nd ref="158698711"/>
    <nd ref="158696700"/>
    <nd ref="31139630"/>
    <nd ref="31139669"/>
    <nd ref="31137316"/>
    <nd ref="158694972"/>
    <nd ref="21756353"/>
    <tag k="created_by" v="JOSM"/>
    <tag k="highway" v="primary"/>
    <tag k="name" v="Großgartacher Straße"/>
    <tag k="ref" v="B239"/>
  </way>
  <way id="4220977" version="8" timestamp="2008-03-09T17:03:08Z" uid="5079" user="friedel_hn" changeset="292340">
    <nd ref="21756319"/>
    <nd ref="21756320"/>
    <nd ref="29091714"/>
    <nd ref="21756322"/>
    <nd ref="21756326"/>
    <nd ref="244621669"/>
    <nd ref="251360347"/>
    <nd ref="244621661"/>
    <nd ref="158698711"/>
    <nd ref="158696700"/>
    <nd ref="31139630"/>
    <nd ref="31139669"/>
    <nd ref="31137316"/>
    <nd ref="158694972"/>
    <nd ref="21756353"/>
    <tag k="created_by" v="JOSM"/>
    <tag k="highway" v="primary"/>
    <tag k="name" v="Großgartacher Straße"/>
    <tag k="ref" v="B239"/>
  </way>
  <way id="4220977" version="9" timestamp="2008-06-08T21:35:11Z" uid="5079" user="friedel_hn" changeset="98618">
    <nd ref="21756319"/>
    <nd ref="21756320"/>
    <nd ref="29091714"/>
    <nd ref="21756322"/>
    <nd ref="21756326"/>
    <nd ref="244621669"/>
    <nd ref="251360347"/>
    <nd ref="244621661"/>
    <nd ref="158698711"/>
    <nd ref="158696700"/>
    <nd ref="31139630"/>
    <nd ref="31139669"/>
    <nd ref="31137316"/>
    <nd ref="158694972"/>
    <nd ref="21756353"/>
    <tag k="created_by" v="JOSM"/>
    <tag k="highway" v="primary"/>
    <tag k="name" v="Großgartacher Straße"/>
    <tag k="osmarender:renderName" v="no"/>
    <tag k="ref" v="B239"/>
  </way>
  <way id="4220977" version="10" timestamp="2008-06-11T08:26:31Z" uid="5079" user="friedel_hn" changeset="131196">
    <nd ref="21756319"/>
    <nd ref="21756320"/>
    <nd ref="29091714"/>
    <nd ref="21756322"/>
    <nd ref="21756326"/>
    <nd ref="244621669"/>
    <nd ref="251360347"/>
    <nd ref="244621661"/>
    <nd ref="158698711"/>
    <nd ref="158696700"/>
    <nd ref="31139630"/>
    <nd ref="31139669"/>
    <nd ref="31137316"/>
    <nd ref="158694972"/>
    <nd ref="21756353"/>
    <tag k="created_by" v="JOSM"/>
    <tag k="highway" v="primary"/>
    <tag k="name" v="Großgartacher Straße"/>
    <tag k="osmarender:renderName" v="no"/>
    <tag k="ref" v="B293"/>
  </way>
  <way id="4220977" version="11" timestamp="2008-07-14T20:38:06Z" uid="24920" user="Schusch" changeset="490169">
    <nd ref="21756319"/>
    <nd ref="21756320"/>
    <nd ref="29091714"/>
    <nd ref="21756322"/>
    <nd ref="21756326"/>
    <nd ref="244621669"/>
    <nd ref="251360347"/>
    <nd ref="244621661"/>
    <nd ref="158698711"/>
    <nd ref="158696700"/>
    <nd ref="31139630"/>
    <nd ref="31139669"/>
    <nd ref="31137316"/>
    <nd ref="158694972"/>
    <nd ref="21756353"/>
    <tag k="created_by" v="Potlatch 0.9c"/>
    <tag k="highway" v="primary"/>
    <tag k="name" v="Großgartacher Straße"/>
    <tag k="osmarender:renderName" v="no"/>
    <tag k="ref" v="B 293"/>
  </way>
  <way id="4220977" version="12" timestamp="2009-02-15T20:52:56Z" uid="48923" user="mapdiger" changeset="466126">
    <nd ref="21756319"/>
    <nd ref="21756320"/>
    <nd ref="345810897"/>
    <tag k="created_by" v="Potlatch 0.10f"/>
    <tag k="highway" v="primary"/>
    <tag k="name" v="Großgartacher Straße"/>
    <tag k="osmarender:renderName" v="no"/>
    <tag k="ref" v="B 293"/>
  </way>
  <way id="4220977" version="13" timestamp="2009-05-07T09:06:59Z" uid="36745" user="Gluko" changeset="1104879">
    <nd ref="21756319"/>
    <nd ref="21756320"/>
    <nd ref="345810897"/>
    <tag k="created_by" v="Potlatch 0.10f"/>
    <tag k="highway" v="primary"/>
    <tag k="name" v="Großgartacher Straße"/>
    <tag k="ref" v="B 293"/>
  </way>
  <way id="4220977" version="14" timestamp="2010-10-17T12:13:21Z" uid="131968" user="changchun_1" changeset="6066267">
    <nd ref="21756319"/>
    <nd ref="21756320"/>
    <nd ref="345810897"/>
    <tag k="highway" v="primary"/>
    <tag k="maxspeed" v="70"/>
    <tag k="name" v="Großgartacher Straße"/>
    <tag k="ref" v="B 293"/>
  </way>
  <way id="4220977" version="15" timestamp="2010-10-17T12:32:18Z" uid="131968" user="changchun_1" changeset="6066472">
    <nd ref="21756319"/>
    <nd ref="21756320"/>
    <nd ref="954542188"/>
    <nd ref="345810897"/>
    <tag k="highway" v="primary"/>
    <tag k="maxspeed" v="70"/>
    <tag k="name" v="Großgartacher Straße"/>
    <tag k="ref" v="B 293"/>
  </way>
  <way id="4220977" version="16" timestamp="2011-12-19T16:57:55Z" uid="131968" user="changchun_1" changeset="10157190"/>
  <way id="4220746" version="17" timestamp="2012-06-21T22:05:35Z" uid="110838" user="Bernhard W" changeset="11973593">
    <nd ref="21686475"/>
    <nd ref="1628350655"/>
    <nd ref="36134740"/>
    <tag k="highway" v="primary"/>
    <tag k="lanes" v="2"/>
    <tag k="lit" v="yes"/>
    <tag k="maxspeed" v="50"/>
    <tag k="name" v="Kaiserring"/>
    <tag k="oneway" v="yes"/>
    <tag k="ref" v="B 38"/>
  </way>
</osm>
