<?xml version='1.0' encoding='UTF-8'?>
<osm version="0.6" generator="libosmium/2.20.0">
  <way id="42235206" version="2" timestamp="2009-11-26T04:15:08Z" uid="23543" user="jkjk" changeset="3217721">
    <nd ref="318065805"/>
    <nd ref="318065808"/>
    <nd ref="318065810"/>
    <nd ref="571337099"/>
    <nd ref="318066078"/>
    <tag k="highway" v="motorway"/>
    <tag k="oneway" v="yes"/>
    <tag k="ref" v="D1"/>
  </way>
  <way id="42235206" version="3" timestamp="2010-09-11T13:50:27Z" uid="197174" user="datin-senior" changeset="5750076">
    <nd ref="318065805"/>
    <nd ref="318065808"/>
    <nd ref="318065810"/>
    <tag k="highway" v="motorway"/>
    <tag k="maxspeed" v="130"/>
    <tag k="oneway" v="yes"/>
    <tag k="ref" v="D1"/>
    <tag k="toll" v="yes"/>
  </way>
  <way id="42235206" version="4" timestamp="2010-11-29T17:07:39Z" uid="171133" user="xLocutus" changeset="6488082">
    <nd ref="318065805"/>
    <nd ref="318065808"/>
    <nd ref="318065810"/>
    <tag k="highway" v="motorway"/>
    <tag k="maxspeed" v="130"/>
    <tag k="oneway" v="yes"/>
    <tag k="ref" v="D1"/>
    <tag k="toll" v="yes"/>
  </way>
  <way id="42235206" version="5" timestamp="2011-01-21T21:35:57Z" uid="115815" user="Datin" changeset="7044932">
    <nd ref="318065805"/>
    <nd ref="318065808"/>
    <nd ref="318065810"/>
    <tag k="highway" v="motorway"/>
    <tag k="maxspeed" v="60"/>
    <tag k="oneway" v="yes"/>
    <tag k="ref" v="D1"/>
    <tag k="toll" v="yes"/>
  </way>
  <way id="42235206" version="6" timestamp="2011-08-11T21:57:49Z" uid="25867" user="adamos" changeset="8990361"/>
</osm>
