<?xml version='1.0' encoding='UTF-8'?>
<osm version="0.6" generator="libosmium/2.20.0">
  <way id="42251402" version="4" timestamp="2010-04-07T13:56:54Z" uid="20587" user="balrog-kun" changeset="4353646">
    <nd ref="152153828"/>
    <nd ref="152153852"/>
    <tag k="highway" v="primary"/>
    <tag k="name" v="East Sabine St; United States Highway 79"/>
    <tag k="ref" v="US 79"/>
    <tag k="tiger:cfcc" v="A21"/>
    <tag k="tiger:county" v="Panola, TX"/>
    <tag k="tiger:name_base" v="Sabine"/>
    <tag k="tiger:name_base_1" v="United States Highway 79"/>
    <tag k="tiger:name_direction_prefix" v="E"/>
    <tag k="tiger:name_type" v="St"/>
    <tag k="tiger:separated" v="no"/>
    <tag k="tiger:source" v="tiger_import_dch_v0.6_20070830"/>
    <tag k="tiger:tlid" v="67834437:67834438:67826073:67826077:67826033:67825953"/>
    <tag k="tiger:zip_left" v="75633"/>
    <tag k="tiger:zip_right" v="75633"/>
  </way>
  <way id="42251402" version="5" timestamp="2011-06-15T05:46:50Z" uid="207745" user="NE2" changeset="8443930">
    <nd ref="152153828"/>
    <nd ref="152153852"/>
    <tag k="highway" v="primary"/>
    <tag k="name" v="East Sabine St"/>
    <tag k="ref" v="US 79"/>
    <tag k="tiger:cfcc" v="A21"/>
    <tag k="tiger:county" v="Panola, TX"/>
    <tag k="tiger:name_base" v="Sabine"/>
    <tag k="tiger:name_base_1" v="United States Highway 79"/>
    <tag k="tiger:name_direction_prefix" v="E"/>
    <tag k="tiger:name_type" v="St"/>
    <tag k="tiger:separated" v="no"/>
    <tag k="tiger:source" v="tiger_import_dch_v0.6_20070830"/>
    <tag k="tiger:tlid" v="67834437:67834438:67826073:67826077:67826033:67825953"/>
    <tag k="tiger:zip_left" v="75633"/>
    <tag k="tiger:zip_right" v="75633"/>
  </way>
  <way id="42251402" version="6" timestamp="2011-06-18T14:50:42Z" uid="207745" user="NE2" changeset="8474084">
    <nd ref="152153828"/>
    <nd ref="152153852"/>
    <tag k="highway" v="trunk"/>
    <tag k="lanes" v="4"/>
    <tag k="name" v="East Sabine St"/>
    <tag k="ref" v="US 79"/>
    <tag k="tiger:cfcc" v="A21"/>
    <tag k="tiger:county" v="Panola, TX"/>
    <tag k="tiger:name_base" v="Sabine"/>
    <tag k="tiger:name_base_1" v="United States Highway 79"/>
    <tag k="tiger:name_direction_prefix" v="E"/>
    <tag k="tiger:name_type" v="St"/>
    <tag k="tiger:separated" v="no"/>
    <tag k="tiger:source" v="tiger_import_dch_v0.6_20070830"/>
    <tag k="tiger:tlid" v="67834437:67834438:67826073:67826077:67826033:67825953"/>
    <tag k="tiger:zip_left" v="75633"/>
    <tag k="tiger:zip_right" v="75633"/>
  </way>
  <way id="42251402" version="7" timestamp="2011-07-06T20:44:28Z" uid="473471" user="NE3" changeset="8652165">
    <nd ref="152153828"/>
    <nd ref="152153852"/>
    <tag k="NHS" v="yes"/>
    <tag k="highway" v="trunk"/>
    <tag k="lanes" v="4"/>
    <tag k="name" v="East Sabine St"/>
    <tag k="ref" v="US 79"/>
    <tag k="tiger:cfcc" v="A21"/>
    <tag k="tiger:county" v="Panola, TX"/>
    <tag k="tiger:name_base" v="Sabine"/>
    <tag k="tiger:name_base_1" v="United States Highway 79"/>
    <tag k="tiger:name_direction_prefix" v="E"/>
    <tag k="tiger:name_type" v="St"/>
    <tag k="tiger:separated" v="no"/>
    <tag k="tiger:source" v="tiger_import_dch_v0.6_20070830"/>
    <tag k="tiger:tlid" v="67834437:67834438:67826073:67826077:67826033:67825953"/>
    <tag k="tiger:zip_left" v="75633"/>
    <tag k="tiger:zip_right" v="75633"/>
  </way>
  <way id="42251402" version="8" timestamp="2011-12-27T09:16:25Z" uid="119881" user="Clorox" changeset="10213774">
    <nd ref="152153828"/>
    <nd ref="152153852"/>
    <tag k="NHS" v="yes"/>
    <tag k="highway" v="trunk"/>
    <tag k="lanes" v="4"/>
    <tag k="motorroad" v="yes"/>
    <tag k="name" v="East Sabine St"/>
    <tag k="ref" v="US 79"/>
    <tag k="tiger:cfcc" v="A21"/>
    <tag k="tiger:county" v="Panola, TX"/>
    <tag k="tiger:name_base" v="Sabine"/>
    <tag k="tiger:name_base_1" v="United States Highway 79"/>
    <tag k="tiger:name_direction_prefix" v="E"/>
    <tag k="tiger:name_type" v="St"/>
    <tag k="tiger:separated" v="no"/>
    <tag k="tiger:source" v="tiger_import_dch_v0.6_20070830"/>
    <tag k="tiger:tlid" v="67834437:67834438:67826073:67826077:67826033:67825953"/>
    <tag k="tiger:zip_left" v="75633"/>
    <tag k="tiger:zip_right" v="75633"/>
  </way>
  <way id="42251402" version="9" timestamp="2012-01-02T16:29:57Z" uid="119881" user="Clorox" changeset="10272356">
    <nd ref="152153828"/>
    <nd ref="152153852"/>
    <tag k="NHS" v="yes"/>
    <tag k="expressway" v="yes"/>
    <tag k="highway" v="trunk"/>
    <tag k="lanes" v="4"/>
    <tag k="name" v="East Sabine St"/>
    <tag k="ref" v="US 79"/>
    <tag k="tiger:cfcc" v="A21"/>
    <tag k="tiger:county" v="Panola, TX"/>
    <tag k="tiger:name_base" v="Sabine"/>
    <tag k="tiger:name_base_1" v="United States Highway 79"/>
    <tag k="tiger:name_direction_prefix" v="E"/>
    <tag k="tiger:name_type" v="St"/>
    <tag k="tiger:separated" v="no"/>
    <tag k="tiger:source" v="tiger_import_dch_v0.6_20070830"/>
    <tag k="tiger:tlid" v="67834437:67834438:67826073:67826077:67826033:67825953"/>
    <tag k="tiger:zip_left" v="75633"/>
    <tag k="tiger:zip_right" v="75633"/>
  </way>
  <way id="42251413" version="2" timestamp="2010-03-07T20:30:11Z" uid="115477" user="wowik" changeset="4065940">
    <nd ref="526811504"/>
    <nd ref="526811503"/>
    <tag k="highway" v="service"/>
    <tag k="living_street" v="yes"/>
    <tag k="tunnel" v="yes"/>
  </way>
  <way id="42251414" version="2" timestamp="2010-03-07T20:30:04Z" uid="115477" user="wowik" changeset="4065940">
    <nd ref="526811503"/>
    <nd ref="428886095"/>
    <tag k="highway" v="service"/>
    <tag k="living_street" v="yes"/>
  </way>
  <way id="42251414" version="3" timestamp="2010-03-07T20:41:26Z" uid="115477" user="wowik" changeset="4065940">
    <nd ref="526811503"/>
    <nd ref="428886095"/>
    <nd ref="428886092"/>
    <tag k="highway" v="service"/>
    <tag k="living_street" v="yes"/>
  </way>
  <way id="42251414" version="4" timestamp="2010-07-30T07:52:27Z" uid="241531" user="dik_man" changeset="5352197">
    <nd ref="526811503"/>
    <nd ref="428886095"/>
    <nd ref="838396604"/>
    <nd ref="428886092"/>
    <tag k="highway" v="service"/>
    <tag k="living_street" v="yes"/>
  </way>
  <way id="42251414" version="5" timestamp="2010-07-30T08:19:51Z" uid="241531" user="dik_man" changeset="5352197">
    <nd ref="526811503"/>
    <nd ref="428886095"/>
    <nd ref="838396604"/>
    <tag k="highway" v="service"/>
    <tag k="living_street" v="yes"/>
  </way>
  <way id="42251414" version="6" timestamp="2011-01-06T08:31:22Z" uid="65083" user="deep125" changeset="6879386">
    <nd ref="526811503"/>
    <nd ref="428886095"/>
    <nd ref="1085302843"/>
    <nd ref="838396604"/>
    <tag k="highway" v="service"/>
    <tag k="living_street" v="yes"/>
  </way>
  <way id="42251414" version="7" timestamp="2011-06-09T15:57:23Z" uid="241531" user="dik_man" changeset="8389682">
    <nd ref="526811503"/>
    <nd ref="428886095"/>
    <nd ref="1085302843"/>
    <nd ref="838396604"/>
    <tag k="highway" v="service"/>
    <tag k="living_street" v="yes"/>
    <tag k="service" v="alley"/>
  </way>
  <way id="42251967" version="2" timestamp="2009-11-21T17:13:28Z" uid="6975" user="ulfl" changeset="3177907">
    <nd ref="275118846"/>
    <nd ref="275118849"/>
    <nd ref="275118852"/>
    <nd ref="567972954"/>
    <nd ref="275118855"/>
    <nd ref="275118857"/>
    <nd ref="321178339"/>
    <nd ref="275955763"/>
    <nd ref="275118863"/>
    <nd ref="321179709"/>
    <nd ref="321180980"/>
    <nd ref="259093998"/>
    <nd ref="321180786"/>
    <nd ref="254948452"/>
    <tag k="highway" v="secondary"/>
    <tag k="ref" v="St 2163"/>
    <tag k="source" v="gps-track"/>
  </way>
  <way id="42251967" version="3" timestamp="2009-11-21T17:51:42Z" uid="6975" user="ulfl" changeset="3178304">
    <nd ref="275118846"/>
    <nd ref="275118849"/>
    <nd ref="275118852"/>
    <nd ref="567972954"/>
    <nd ref="275118855"/>
    <nd ref="275118857"/>
    <nd ref="321178339"/>
    <nd ref="275955763"/>
    <nd ref="275118863"/>
    <nd ref="568002901"/>
    <nd ref="321179709"/>
    <nd ref="321180980"/>
    <nd ref="259093998"/>
    <nd ref="321180786"/>
    <nd ref="254948452"/>
    <tag k="highway" v="secondary"/>
    <tag k="ref" v="St 2163"/>
    <tag k="source" v="gps-track"/>
  </way>
  <way id="42251967" version="4" timestamp="2009-11-21T18:18:51Z" uid="6975" user="ulfl" changeset="3178551">
    <nd ref="275118846"/>
    <nd ref="275118849"/>
    <nd ref="275118852"/>
    <nd ref="567972954"/>
    <nd ref="275118855"/>
    <nd ref="275118857"/>
    <nd ref="321178339"/>
    <nd ref="275955763"/>
    <nd ref="275118863"/>
    <nd ref="568002901"/>
    <nd ref="321179709"/>
    <nd ref="321180980"/>
    <nd ref="259093998"/>
    <nd ref="568017181"/>
    <nd ref="321180786"/>
    <nd ref="254948452"/>
    <tag k="highway" v="secondary"/>
    <tag k="ref" v="St 2163"/>
    <tag k="source" v="gps-track"/>
  </way>
  <way id="42251967" version="5" timestamp="2009-11-22T03:05:20Z" uid="6975" user="ulfl" changeset="3182350">
    <nd ref="275118846"/>
    <nd ref="275118849"/>
    <nd ref="275118852"/>
    <nd ref="567972954"/>
    <nd ref="275118855"/>
    <nd ref="275118857"/>
    <nd ref="321178339"/>
    <nd ref="275955763"/>
    <nd ref="275118863"/>
    <nd ref="568002901"/>
    <nd ref="321179709"/>
    <nd ref="321180980"/>
    <nd ref="259093998"/>
    <nd ref="568017181"/>
    <nd ref="321180786"/>
    <nd ref="254948452"/>
    <tag k="highway" v="secondary"/>
    <tag k="name" v="Hauptstraße"/>
    <tag k="ref" v="St 2163"/>
    <tag k="source" v="gps-track"/>
  </way>
  <way id="42251967" version="6" timestamp="2009-11-22T18:05:11Z" uid="6975" user="ulfl" changeset="3188956">
    <nd ref="275118846"/>
    <nd ref="275118849"/>
    <nd ref="275118852"/>
    <nd ref="567972954"/>
    <nd ref="275118855"/>
    <nd ref="275118857"/>
    <nd ref="321178339"/>
    <nd ref="275955763"/>
    <nd ref="275118863"/>
    <nd ref="568002901"/>
    <nd ref="321179709"/>
    <nd ref="321180980"/>
    <nd ref="259093998"/>
    <nd ref="568017181"/>
    <nd ref="568531083"/>
    <nd ref="321180786"/>
    <nd ref="254948452"/>
    <tag k="highway" v="secondary"/>
    <tag k="name" v="Hauptstraße"/>
    <tag k="ref" v="St 2163"/>
    <tag k="source" v="gps-track"/>
  </way>
  <way id="42251967" version="7" timestamp="2010-09-20T15:39:57Z" uid="41113" user="cycling_zno" changeset="5830089">
    <nd ref="275118846"/>
    <nd ref="275118849"/>
    <nd ref="275118852"/>
    <nd ref="567972954"/>
    <nd ref="275118855"/>
    <nd ref="275118857"/>
    <nd ref="321178339"/>
    <nd ref="275955763"/>
    <nd ref="275118863"/>
    <nd ref="568002901"/>
    <nd ref="321179709"/>
    <nd ref="321180980"/>
    <nd ref="259093998"/>
    <nd ref="568017181"/>
    <nd ref="568531083"/>
    <nd ref="919622345"/>
    <nd ref="321180786"/>
    <nd ref="254948452"/>
    <tag k="highway" v="secondary"/>
    <tag k="name" v="Hauptstraße"/>
    <tag k="ref" v="St 2163"/>
    <tag k="source" v="gps-track"/>
  </way>
  <way id="42251967" version="8" timestamp="2010-09-21T18:02:23Z" uid="41113" user="cycling_zno" changeset="5839068">
    <nd ref="275118846"/>
    <nd ref="275118849"/>
    <nd ref="275118852"/>
    <nd ref="567972954"/>
    <nd ref="275118855"/>
    <nd ref="275118857"/>
    <nd ref="321178339"/>
    <nd ref="275955763"/>
    <nd ref="275118863"/>
    <nd ref="568002901"/>
    <nd ref="321179709"/>
    <nd ref="321180980"/>
    <nd ref="259093998"/>
    <nd ref="568017181"/>
    <nd ref="568531083"/>
    <nd ref="919622345"/>
    <tag k="highway" v="secondary"/>
    <tag k="name" v="Hauptstraße"/>
    <tag k="ref" v="St 2163"/>
    <tag k="source" v="gps-track"/>
  </way>
  <way id="42251967" version="9" timestamp="2010-11-07T13:17:18Z" uid="37693" user="Heinz" changeset="6311198">
    <nd ref="275118846"/>
    <nd ref="275118849"/>
    <nd ref="275118852"/>
    <nd ref="567972954"/>
    <nd ref="275118855"/>
    <nd ref="275118857"/>
    <nd ref="321178339"/>
    <nd ref="275955763"/>
    <nd ref="275118863"/>
    <nd ref="568002901"/>
    <nd ref="321179709"/>
    <nd ref="321180980"/>
    <nd ref="259093998"/>
    <nd ref="568017181"/>
    <nd ref="980671269"/>
    <nd ref="568531083"/>
    <nd ref="919622345"/>
    <tag k="highway" v="secondary"/>
    <tag k="name" v="Hauptstraße"/>
    <tag k="ref" v="St 2163"/>
    <tag k="source" v="gps-track"/>
  </way>
  <way id="42251967" version="10" timestamp="2011-02-08T10:14:47Z" uid="51230" user="gerzap" changeset="7224984">
    <nd ref="275118846"/>
    <nd ref="275118849"/>
    <nd ref="275118852"/>
    <nd ref="567972954"/>
    <nd ref="275118855"/>
    <nd ref="275118857"/>
    <nd ref="321178339"/>
    <nd ref="275955763"/>
    <nd ref="275118863"/>
    <nd ref="568002901"/>
    <nd ref="321179709"/>
    <nd ref="259093998"/>
    <nd ref="568017181"/>
    <nd ref="980671269"/>
    <nd ref="568531083"/>
    <nd ref="919622345"/>
    <tag k="highway" v="secondary"/>
    <tag k="name" v="Hauptstraße"/>
    <tag k="ref" v="St 2163"/>
    <tag k="source" v="gps-track"/>
  </way>
  <way id="42251967" version="11" timestamp="2011-05-22T13:19:11Z" uid="76791" user="luh" changeset="8216168">
    <nd ref="275118846"/>
    <nd ref="275118849"/>
    <nd ref="275118852"/>
    <nd ref="567972954"/>
    <nd ref="275118855"/>
    <nd ref="275118857"/>
    <nd ref="321178339"/>
    <tag k="highway" v="secondary"/>
    <tag k="name" v="Hauptstraße"/>
    <tag k="ref" v="St 2163"/>
    <tag k="source" v="gps-track"/>
  </way>
  <way id="42251967" version="12" timestamp="2012-01-03T22:21:39Z" uid="82877" user="Wankmann" changeset="10286592"/>
  <way id="42251413" version="3" timestamp="2012-07-20T23:48:38Z" uid="722137" user="OSMF Redaction Account" changeset="12396479">
    <nd ref="526811504"/>
    <nd ref="526811503"/>
    <tag k="highway" v="service"/>
    <tag k="tunnel" v="yes"/>
  </way>
  <way id="42251414" version="8" timestamp="2012-07-20T23:48:40Z" uid="722137" user="OSMF Redaction Account" changeset="12396479">
    <nd ref="526811503"/>
    <nd ref="428886095"/>
    <nd ref="1085302843"/>
    <nd ref="838396604"/>
    <tag k="highway" v="service"/>
    <tag k="service" v="alley"/>
  </way>
</osm>
