<?xml version='1.0' encoding='UTF-8'?>
<osm version="0.6" generator="libosmium/2.20.0">
  <way id="4234004" version="4" timestamp="2008-08-11T11:06:13Z" uid="6269" user="Mueck" changeset="188275">
    <nd ref="247942323"/>
    <nd ref="247942322"/>
    <nd ref="247942321"/>
    <nd ref="24955644"/>
    <nd ref="24955648"/>
    <nd ref="24955653"/>
    <nd ref="24955748"/>
    <nd ref="24955657"/>
    <nd ref="255857378"/>
    <nd ref="24955662"/>
    <nd ref="24955666"/>
    <nd ref="24955670"/>
    <nd ref="24955675"/>
    <nd ref="24955679"/>
    <nd ref="24955685"/>
    <nd ref="24955732"/>
    <nd ref="24955736"/>
    <nd ref="24955751"/>
    <nd ref="24955742"/>
    <tag k="bridge" v="true"/>
    <tag k="created_by" v="Potlatch 0.10b"/>
    <tag k="highway" v="secondary"/>
    <tag k="layer" v="1"/>
  </way>
  <way id="4234004" version="5" timestamp="2009-01-12T07:33:19Z" uid="16330" user="aluka" changeset="778969">
    <nd ref="247942323"/>
    <nd ref="247942322"/>
    <nd ref="247942321"/>
    <nd ref="24955644"/>
    <nd ref="24955648"/>
    <nd ref="24955653"/>
    <nd ref="24955748"/>
    <nd ref="24955657"/>
    <nd ref="255857378"/>
    <nd ref="24955662"/>
    <nd ref="24955666"/>
    <nd ref="24955670"/>
    <nd ref="24955675"/>
    <nd ref="24955679"/>
    <nd ref="24955685"/>
    <nd ref="24955732"/>
    <nd ref="24955736"/>
    <nd ref="24955751"/>
    <nd ref="24955742"/>
    <tag k="bridge" v="yes"/>
    <tag k="created_by" v="Potlatch 0.10b"/>
    <tag k="highway" v="secondary"/>
    <tag k="layer" v="1"/>
  </way>
  <way id="4234004" version="6" timestamp="2009-05-31T14:14:39Z" uid="128858" user="heiner1" changeset="1369424">
    <nd ref="247942323"/>
    <nd ref="247942322"/>
    <nd ref="247942321"/>
    <nd ref="24955644"/>
    <nd ref="24955648"/>
    <nd ref="24955653"/>
    <nd ref="24955748"/>
    <nd ref="24955657"/>
    <nd ref="255857378"/>
    <nd ref="24955662"/>
    <nd ref="24955666"/>
    <nd ref="24955670"/>
    <nd ref="24955675"/>
    <nd ref="24955679"/>
    <nd ref="24955685"/>
    <nd ref="24955732"/>
    <nd ref="24955736"/>
    <nd ref="24955751"/>
    <nd ref="24955742"/>
    <tag k="bridge" v="yes"/>
    <tag k="created_by" v="Potlatch 0.10b"/>
    <tag k="highway" v="secondary"/>
    <tag k="layer" v="1"/>
    <tag k="maxspeed" v="50"/>
  </way>
  <way id="4234004" version="7" timestamp="2009-06-20T21:07:59Z" uid="85761" user="klausis" changeset="1578334">
    <nd ref="247942323"/>
    <nd ref="247942322"/>
    <nd ref="247942321"/>
    <nd ref="24955644"/>
    <nd ref="24955648"/>
    <nd ref="24955653"/>
    <nd ref="24955748"/>
    <nd ref="24955657"/>
    <nd ref="255857378"/>
    <nd ref="24955662"/>
    <nd ref="24955666"/>
    <nd ref="24955670"/>
    <nd ref="24955675"/>
    <nd ref="24955679"/>
    <nd ref="24955685"/>
    <nd ref="24955732"/>
    <nd ref="24955736"/>
    <nd ref="24955751"/>
    <nd ref="24955742"/>
    <tag k="bridge" v="yes"/>
    <tag k="highway" v="secondary"/>
    <tag k="layer" v="1"/>
    <tag k="maxspeed" v="50"/>
  </way>
  <way id="4234004" version="8" timestamp="2009-06-27T20:15:18Z" uid="6269" user="Mueck" changeset="1653671">
    <nd ref="247942323"/>
    <nd ref="247942322"/>
    <nd ref="247942321"/>
    <nd ref="24955644"/>
    <nd ref="24955648"/>
    <nd ref="24955653"/>
    <nd ref="24955748"/>
    <nd ref="24955657"/>
    <nd ref="255857378"/>
    <nd ref="24955662"/>
    <nd ref="24955666"/>
    <nd ref="24955670"/>
    <nd ref="24955675"/>
    <nd ref="24955679"/>
    <nd ref="24955685"/>
    <nd ref="24955732"/>
    <nd ref="24955736"/>
    <nd ref="24955751"/>
    <nd ref="24955742"/>
    <tag k="bridge" v="yes"/>
    <tag k="foot" v="no"/>
    <tag k="highway" v="secondary"/>
    <tag k="layer" v="1"/>
    <tag k="maxspeed" v="50"/>
  </way>
  <way id="4234004" version="9" timestamp="2010-04-13T11:11:41Z" uid="6893" user="[HEK]the_other" changeset="4412657">
    <nd ref="247942323"/>
    <nd ref="247942322"/>
    <nd ref="247942321"/>
    <nd ref="24955644"/>
    <nd ref="24955648"/>
    <nd ref="24955653"/>
    <nd ref="24955748"/>
    <nd ref="24955657"/>
    <nd ref="255857378"/>
    <nd ref="24955662"/>
    <nd ref="24955666"/>
    <nd ref="24955670"/>
    <nd ref="24955675"/>
    <nd ref="24955679"/>
    <nd ref="24955685"/>
    <nd ref="695156015"/>
    <nd ref="24955732"/>
    <nd ref="24955736"/>
    <nd ref="24955751"/>
    <nd ref="24955742"/>
    <tag k="bridge" v="yes"/>
    <tag k="foot" v="no"/>
    <tag k="highway" v="secondary"/>
    <tag k="layer" v="1"/>
    <tag k="maxspeed" v="50"/>
  </way>
  <way id="4234004" version="10" timestamp="2010-06-07T22:16:31Z" uid="118352" user="kamarc" changeset="4933140"/>
  <way id="4234069" version="4" timestamp="2009-01-20T10:31:09Z" uid="6269" user="Mueck" changeset="815859">
    <nd ref="25250247"/>
    <nd ref="30153062"/>
    <nd ref="25250243"/>
    <nd ref="31092799"/>
    <nd ref="25250244"/>
    <nd ref="25395545"/>
    <tag k="bicycle" v="no"/>
    <tag k="created_by" v="Potlatch 0.10f"/>
    <tag k="highway" v="trunk"/>
    <tag k="maxspeed" v="80"/>
    <tag k="name" v="Südtangente"/>
    <tag k="oneway" v="yes"/>
  </way>
  <way id="4234069" version="5" timestamp="2009-01-27T01:55:40Z" uid="6269" user="Mueck" changeset="842608">
    <nd ref="25250247"/>
    <nd ref="30153062"/>
    <nd ref="25250243"/>
    <nd ref="31092799"/>
    <nd ref="25250244"/>
    <nd ref="25395545"/>
    <tag k="bicycle" v="no"/>
    <tag k="created_by" v="Potlatch 0.10f"/>
    <tag k="highway" v="trunk"/>
    <tag k="maxspeed" v="80"/>
    <tag k="motorroad" v="yes"/>
    <tag k="name" v="Südtangente"/>
    <tag k="oneway" v="yes"/>
  </way>
  <way id="4234069" version="6" timestamp="2009-05-08T23:31:18Z" uid="6269" user="Mueck" changeset="1122795">
    <nd ref="25250247"/>
    <nd ref="30153062"/>
    <nd ref="25250243"/>
    <nd ref="31092799"/>
    <nd ref="25250244"/>
    <nd ref="25395545"/>
    <tag k="bicycle" v="no"/>
    <tag k="created_by" v="Potlatch 0.10f"/>
    <tag k="highway" v="trunk"/>
    <tag k="maxspeed" v="80"/>
    <tag k="motorroad" v="yes"/>
    <tag k="name" v="Südtangente"/>
    <tag k="oneway" v="yes"/>
    <tag k="ref" v="K9652"/>
  </way>
  <way id="4234069" version="7" timestamp="2009-06-07T22:22:09Z" uid="24920" user="Schusch" changeset="1454289">
    <nd ref="25250247"/>
    <nd ref="30153062"/>
    <nd ref="25250243"/>
    <nd ref="31092799"/>
    <nd ref="25250244"/>
    <nd ref="25395545"/>
    <tag k="bicycle" v="no"/>
    <tag k="created_by" v="Potlatch 0.10f"/>
    <tag k="highway" v="trunk"/>
    <tag k="maxspeed" v="80"/>
    <tag k="motorroad" v="yes"/>
    <tag k="name" v="Südtangente"/>
    <tag k="oneway" v="yes"/>
    <tag k="ref" v="K 9652"/>
  </way>
  <way id="4234069" version="8" timestamp="2009-08-09T18:42:31Z" uid="109925" user="WanMil" changeset="2089460">
    <nd ref="25250247"/>
    <nd ref="30153062"/>
    <nd ref="25250243"/>
    <nd ref="31092799"/>
    <nd ref="25250244"/>
    <nd ref="25395545"/>
    <tag k="bicycle" v="no"/>
    <tag k="highway" v="trunk"/>
    <tag k="maxspeed" v="80"/>
    <tag k="motorroad" v="yes"/>
    <tag k="name" v="Südtangente"/>
    <tag k="oneway" v="yes"/>
    <tag k="ref" v="K 9652"/>
  </way>
  <way id="4234069" version="9" timestamp="2010-06-08T13:58:55Z" uid="152744" user="skyper" changeset="4937349">
    <nd ref="30153062"/>
    <nd ref="25250243"/>
    <nd ref="31092799"/>
    <nd ref="25250244"/>
    <nd ref="25395545"/>
    <tag k="highway" v="trunk"/>
    <tag k="maxspeed" v="80"/>
    <tag k="motorroad" v="yes"/>
    <tag k="name" v="Südtangente"/>
    <tag k="oneway" v="yes"/>
    <tag k="ref" v="K 9652"/>
  </way>
  <way id="4234069" version="10" timestamp="2011-01-28T16:14:23Z" uid="163673" user="Free_Jan" changeset="7114335">
    <nd ref="30153062"/>
    <nd ref="1124989736"/>
    <nd ref="25250243"/>
    <nd ref="1124989926"/>
    <nd ref="1124989753"/>
    <nd ref="31092799"/>
    <nd ref="1124989855"/>
    <nd ref="25250244"/>
    <nd ref="25395545"/>
    <tag k="highway" v="trunk"/>
    <tag k="maxspeed" v="80"/>
    <tag k="motorroad" v="yes"/>
    <tag k="name" v="Südtangente"/>
    <tag k="oneway" v="yes"/>
    <tag k="ref" v="K 9652"/>
  </way>
  <way id="4234069" version="11" timestamp="2011-10-04T14:37:22Z" uid="4499" user="Jochen Topf" changeset="9469948">
    <nd ref="30153062"/>
    <nd ref="1124989736"/>
    <nd ref="25250243"/>
    <nd ref="1124989926"/>
    <nd ref="1124989753"/>
    <nd ref="31092799"/>
    <nd ref="1124989855"/>
    <nd ref="25250244"/>
    <nd ref="25395545"/>
    <tag k="highway" v="trunk"/>
    <tag k="maxspeed" v="80"/>
    <tag k="motorroad" v="yes"/>
    <tag k="name" v="Südtangente"/>
    <tag k="oneway" v="yes"/>
    <tag k="ref" v="K 9652"/>
    <tag k="tmc" v="DE:30884+54873"/>
  </way>
  <way id="4234069" version="12" timestamp="2011-10-12T10:45:14Z" uid="165061" user="keinname" changeset="9537439">
    <nd ref="30153062"/>
    <nd ref="1124989736"/>
    <nd ref="25250243"/>
    <nd ref="1124989926"/>
    <nd ref="1124989753"/>
    <nd ref="31092799"/>
    <nd ref="1124989855"/>
    <nd ref="25250244"/>
    <nd ref="25395545"/>
    <tag k="highway" v="trunk"/>
    <tag k="lanes" v="3"/>
    <tag k="lanes:through" v="2"/>
    <tag k="lanes:turnright" v="1"/>
    <tag k="maxspeed" v="80"/>
    <tag k="motorroad" v="yes"/>
    <tag k="name" v="Südtangente"/>
    <tag k="oneway" v="yes"/>
    <tag k="ref" v="K 9652"/>
    <tag k="tmc" v="DE:30884+54873"/>
  </way>
  <way id="4234069" version="13" timestamp="2011-10-14T09:01:29Z" uid="4499" user="Jochen Topf" changeset="9553698">
    <nd ref="30153062"/>
    <nd ref="1124989736"/>
    <nd ref="25250243"/>
    <nd ref="1124989926"/>
    <nd ref="1124989753"/>
    <nd ref="31092799"/>
    <nd ref="1124989855"/>
    <nd ref="25250244"/>
    <nd ref="25395545"/>
    <tag k="highway" v="trunk"/>
    <tag k="lanes" v="3"/>
    <tag k="lanes:through" v="2"/>
    <tag k="lanes:turnright" v="1"/>
    <tag k="maxspeed" v="80"/>
    <tag k="motorroad" v="yes"/>
    <tag k="name" v="Südtangente"/>
    <tag k="oneway" v="yes"/>
    <tag k="ref" v="K 9652"/>
    <tag k="tmc" v="DE:54873-30884"/>
  </way>
  <way id="4234094" version="6" timestamp="2008-12-01T17:41:23Z" uid="33382" user="de_muur" changeset="21992">
    <nd ref="25268439"/>
    <nd ref="316078357"/>
    <nd ref="251541091"/>
    <tag k="VzG" v="1740"/>
    <tag k="gauge" v="1435"/>
    <tag k="name" v="Bremerhaven-Wunstorf"/>
    <tag k="railway" v="rail"/>
    <tag k="source" v="Landsat/Yahoo/GPS-Track"/>
  </way>
  <way id="4234094" version="7" timestamp="2008-12-11T10:27:32Z" uid="13203" user="bahnpirat" changeset="318967">
    <nd ref="25268439"/>
    <nd ref="316078357"/>
    <nd ref="251541091"/>
    <tag k="VzG" v="1740"/>
    <tag k="created_by" v="Potlatch 0.10f"/>
    <tag k="electrified" v="contact_line"/>
    <tag k="gauge" v="1435"/>
    <tag k="name" v="Bremerhaven-Wunstorf"/>
    <tag k="railway" v="rail"/>
    <tag k="source" v="Landsat/Yahoo/GPS-Track"/>
  </way>
  <way id="4234094" version="8" timestamp="2010-04-01T21:05:20Z" uid="9176" user="Maarten Deen" changeset="4298117">
    <nd ref="25268439"/>
    <nd ref="316078357"/>
    <nd ref="251541091"/>
    <tag k="VzG" v="1740"/>
    <tag k="electrified" v="contact_line"/>
    <tag k="frequency" v="16.67"/>
    <tag k="gauge" v="1435"/>
    <tag k="name" v="Bremerhaven-Wunstorf"/>
    <tag k="railway" v="rail"/>
    <tag k="source" v="Landsat/Yahoo/GPS-Track"/>
    <tag k="voltage" v="15000"/>
  </way>
  <way id="4234094" version="9" timestamp="2010-04-11T15:12:33Z" uid="9176" user="Maarten Deen" changeset="4394751">
    <nd ref="25268439"/>
    <nd ref="316078357"/>
    <nd ref="251541091"/>
    <tag k="VzG" v="1740"/>
    <tag k="electrified" v="contact_line"/>
    <tag k="frequency" v="16.7"/>
    <tag k="gauge" v="1435"/>
    <tag k="name" v="Bremerhaven-Wunstorf"/>
    <tag k="railway" v="rail"/>
    <tag k="source" v="Landsat/Yahoo/GPS-Track"/>
    <tag k="voltage" v="15000"/>
  </way>
  <way id="4234248" version="2" timestamp="2010-03-27T07:41:28Z" uid="20587" user="balrog-kun" changeset="4244079">
    <nd ref="25936356"/>
    <nd ref="25274508"/>
    <nd ref="26068271"/>
    <nd ref="25274509"/>
    <nd ref="25274510"/>
    <nd ref="26068286"/>
    <nd ref="25274511"/>
    <nd ref="25583755"/>
    <nd ref="25274512"/>
    <tag k="created_by" v="JOSM"/>
    <tag k="highway" v="residential"/>
    <tag k="name" v="Atwater Avenue"/>
  </way>
  <way id="4234248" version="3" timestamp="2010-12-16T15:30:12Z" uid="36489" user="jerjozwik" changeset="6677784">
    <nd ref="25936356"/>
    <nd ref="25274508"/>
    <nd ref="26068271"/>
    <nd ref="25274509"/>
    <nd ref="25274510"/>
    <nd ref="26068286"/>
    <nd ref="25583755"/>
    <nd ref="25274512"/>
    <tag k="highway" v="residential"/>
    <tag k="name" v="Atwater Avenue"/>
  </way>
  <way id="4234248" version="4" timestamp="2010-12-16T15:47:52Z" uid="36489" user="jerjozwik" changeset="6677784">
    <nd ref="25936356"/>
    <nd ref="25274508"/>
    <nd ref="26068271"/>
    <nd ref="1041280175"/>
    <nd ref="25274510"/>
    <nd ref="26068286"/>
    <nd ref="25583755"/>
    <nd ref="25274512"/>
    <tag k="highway" v="residential"/>
    <tag k="name" v="Atwater Avenue"/>
  </way>
  <way id="4234253" version="4" timestamp="2010-03-27T07:41:28Z" uid="20587" user="balrog-kun" changeset="4244079">
    <nd ref="18153994"/>
    <nd ref="365787785"/>
    <nd ref="365787786"/>
    <nd ref="25274530"/>
    <tag k="created_by" v="Potlatch 0.10f"/>
    <tag k="highway" v="motorway_link"/>
    <tag k="name" v="Barnham Boulevard"/>
    <tag k="oneway" v="yes"/>
  </way>
  <way id="4234258" version="3" timestamp="2010-03-27T07:41:28Z" uid="20587" user="balrog-kun" changeset="4244079">
    <nd ref="25274556"/>
    <nd ref="25274555"/>
    <nd ref="29545511"/>
    <tag k="highway" v="residential"/>
    <tag k="name" v="Forney Street"/>
  </way>
  <way id="4234258" version="4" timestamp="2012-02-03T16:34:22Z" uid="12434" user="nm7s9" changeset="10576961"/>
  <way id="4234259" version="3" timestamp="2010-03-27T07:41:28Z" uid="20587" user="balrog-kun" changeset="4244079">
    <nd ref="25274557"/>
    <nd ref="574007417"/>
    <nd ref="574007418"/>
    <nd ref="25274558"/>
    <tag k="highway" v="residential"/>
    <tag k="name" v="Blimp Street"/>
  </way>
  <way id="4234259" version="4" timestamp="2012-02-03T16:39:31Z" uid="12434" user="nm7s9" changeset="10576999"/>
  <way id="4234260" version="3" timestamp="2010-03-27T07:41:28Z" uid="20587" user="balrog-kun" changeset="4244079">
    <nd ref="25274558"/>
    <nd ref="574007435"/>
    <nd ref="574007436"/>
    <nd ref="26280631"/>
    <nd ref="26280632"/>
    <nd ref="574007409"/>
    <nd ref="25274559"/>
    <tag k="highway" v="residential"/>
    <tag k="name" v="Lowe Street"/>
  </way>
  <way id="4234260" version="4" timestamp="2012-02-03T16:39:30Z" uid="12434" user="nm7s9" changeset="10576999">
    <nd ref="1616822751"/>
    <nd ref="574007435"/>
    <nd ref="574007436"/>
    <nd ref="1616822757"/>
    <nd ref="26280632"/>
    <nd ref="574007409"/>
    <nd ref="25274559"/>
    <tag k="highway" v="residential"/>
    <tag k="name" v="Lowe Street"/>
  </way>
  <way id="4234260" version="5" timestamp="2012-02-03T16:43:50Z" uid="12434" user="nm7s9" changeset="10577037">
    <nd ref="1616822751"/>
    <nd ref="574007435"/>
    <nd ref="574007436"/>
    <nd ref="1616822757"/>
    <nd ref="1616827178"/>
    <nd ref="1616827180"/>
    <nd ref="574007409"/>
    <nd ref="25274559"/>
    <tag k="highway" v="residential"/>
    <tag k="name" v="Lowe Street"/>
  </way>
  <way id="4234260" version="6" timestamp="2012-02-03T16:55:32Z" uid="12434" user="nm7s9" changeset="10577131">
    <nd ref="1616822751"/>
    <nd ref="574007435"/>
    <nd ref="574007436"/>
    <nd ref="1616822757"/>
    <nd ref="1616827178"/>
    <nd ref="1616827180"/>
    <nd ref="574007409"/>
    <nd ref="1616833252"/>
    <tag k="highway" v="residential"/>
    <tag k="name" v="Lowe Street"/>
  </way>
  <way id="4234260" version="7" timestamp="2012-02-05T12:24:54Z" uid="12434" user="nm7s9" changeset="10592928"/>
  <way id="4234261" version="3" timestamp="2010-03-27T07:41:28Z" uid="20587" user="balrog-kun" changeset="4244079">
    <nd ref="25274559"/>
    <nd ref="574007410"/>
    <nd ref="26280629"/>
    <nd ref="574007406"/>
    <nd ref="25274560"/>
    <tag k="highway" v="residential"/>
    <tag k="name" v="Queen Street"/>
  </way>
  <way id="4234261" version="4" timestamp="2012-02-03T16:51:24Z" uid="12434" user="nm7s9" changeset="10577098"/>
  <way id="4234262" version="3" timestamp="2010-03-27T07:41:28Z" uid="20587" user="balrog-kun" changeset="4244079">
    <nd ref="25274561"/>
    <nd ref="25936335"/>
    <nd ref="25274562"/>
    <nd ref="574007437"/>
    <nd ref="574007438"/>
    <nd ref="574007439"/>
    <tag k="highway" v="residential"/>
    <tag k="name" v="Benedict Street"/>
  </way>
  <way id="4234262" version="4" timestamp="2012-02-03T16:51:24Z" uid="12434" user="nm7s9" changeset="10577098"/>
  <way id="4234263" version="3" timestamp="2010-03-27T07:41:28Z" uid="20587" user="balrog-kun" changeset="4244079">
    <nd ref="25936348"/>
    <nd ref="25274566"/>
    <nd ref="25274568"/>
    <tag k="created_by" v="Potlatch 0.10f"/>
    <tag k="highway" v="residential"/>
    <tag k="name" v="Glenview Avenue"/>
  </way>
  <way id="4234263" version="4" timestamp="2012-02-05T20:48:02Z" uid="12434" user="nm7s9" changeset="10598090">
    <nd ref="25936348"/>
    <nd ref="1619399771"/>
    <nd ref="25274568"/>
    <tag k="highway" v="residential"/>
    <tag k="name" v="Glenview Avenue"/>
  </way>
  <way id="4234263" version="5" timestamp="2012-02-05T20:56:23Z" uid="12434" user="nm7s9" changeset="10598162"/>
  <way id="4234264" version="2" timestamp="2010-03-27T07:41:28Z" uid="20587" user="balrog-kun" changeset="4244079">
    <nd ref="15855218"/>
    <nd ref="25274569"/>
    <tag k="created_by" v="JOSM"/>
    <tag k="highway" v="residential"/>
    <tag k="name" v="Larga Avenue"/>
  </way>
  <way id="4234265" version="2" timestamp="2010-03-27T07:41:29Z" uid="20587" user="balrog-kun" changeset="4244079">
    <nd ref="25274569"/>
    <nd ref="25274570"/>
    <nd ref="25936356"/>
    <nd ref="25936357"/>
    <nd ref="25936359"/>
    <nd ref="25274571"/>
    <tag k="created_by" v="JOSM"/>
    <tag k="highway" v="residential"/>
    <tag k="name" v="Carlton Street"/>
  </way>
  <way id="4234265" version="3" timestamp="2010-12-16T15:47:47Z" uid="36489" user="jerjozwik" changeset="6677784">
    <nd ref="25274569"/>
    <nd ref="25274570"/>
    <nd ref="25936356"/>
    <nd ref="25936357"/>
    <nd ref="25936359"/>
    <nd ref="25274571"/>
    <tag k="highway" v="residential"/>
    <tag k="name" v="Carlton Street"/>
  </way>
  <way id="4234266" version="4" timestamp="2010-03-27T07:41:29Z" uid="20587" user="balrog-kun" changeset="4244079">
    <nd ref="25274573"/>
    <nd ref="25274572"/>
    <nd ref="25274571"/>
    <nd ref="25274574"/>
    <tag k="created_by" v="JOSM"/>
    <tag k="highway" v="residential"/>
    <tag k="name" v="Casitas Avenue"/>
  </way>
  <way id="4234266" version="5" timestamp="2010-12-16T15:47:45Z" uid="36489" user="jerjozwik" changeset="6677784">
    <nd ref="25274573"/>
    <nd ref="1041280058"/>
    <nd ref="1041280059"/>
    <nd ref="1041280060"/>
    <nd ref="1041280061"/>
    <nd ref="1041280062"/>
    <nd ref="1041280063"/>
    <nd ref="1041280064"/>
    <nd ref="1041280065"/>
    <nd ref="25274571"/>
    <nd ref="25274574"/>
    <tag k="highway" v="residential"/>
    <tag k="name" v="Casitas Avenue"/>
  </way>
  <way id="4234268" version="4" timestamp="2010-03-27T07:41:29Z" uid="20587" user="balrog-kun" changeset="4244079">
    <nd ref="25274577"/>
    <nd ref="25274578"/>
    <nd ref="25583747"/>
    <nd ref="25583748"/>
    <nd ref="25583749"/>
    <nd ref="25583750"/>
    <nd ref="25583751"/>
    <tag k="created_by" v="JOSM"/>
    <tag k="highway" v="residential"/>
    <tag k="name" v="Casitas Avenue"/>
  </way>
  <way id="4234268" version="5" timestamp="2010-12-16T15:47:53Z" uid="36489" user="jerjozwik" changeset="6677784">
    <nd ref="25274577"/>
    <nd ref="1041280187"/>
    <nd ref="25274578"/>
    <nd ref="25583747"/>
    <nd ref="25583748"/>
    <nd ref="25583749"/>
    <nd ref="25583750"/>
    <nd ref="25583751"/>
    <tag k="highway" v="residential"/>
    <tag k="name" v="Casitas Avenue"/>
  </way>
  <way id="4234269" version="2" timestamp="2010-03-27T07:41:29Z" uid="20587" user="balrog-kun" changeset="4244079">
    <nd ref="26068270"/>
    <nd ref="26068271"/>
    <nd ref="26068272"/>
    <nd ref="25274579"/>
    <nd ref="25274578"/>
    <tag k="created_by" v="JOSM"/>
    <tag k="highway" v="residential"/>
    <tag k="name" v="Miniapolis Street"/>
  </way>
  <way id="4234269" version="3" timestamp="2010-12-02T05:20:45Z" uid="63936" user="MojaveNC" changeset="6511174">
    <nd ref="26068270"/>
    <nd ref="26068271"/>
    <nd ref="26068272"/>
    <nd ref="25274579"/>
    <nd ref="25274578"/>
    <tag k="highway" v="residential"/>
    <tag k="name" v="Minneapolis Street"/>
  </way>
  <way id="4234270" version="3" timestamp="2010-03-27T07:41:29Z" uid="20587" user="balrog-kun" changeset="4244079">
    <nd ref="25936359"/>
    <nd ref="25583745"/>
    <nd ref="25274580"/>
    <nd ref="25583746"/>
    <nd ref="25274579"/>
    <nd ref="25295837"/>
    <nd ref="25583753"/>
    <nd ref="25583752"/>
    <nd ref="17596237"/>
    <tag k="highway" v="residential"/>
    <tag k="name" v="La Clede Avenue"/>
  </way>
  <way id="4234498" version="2" timestamp="2007-10-25T20:52:25Z" uid="6454" user="B10xxx" changeset="314259">
    <nd ref="25276393"/>
    <nd ref="154657"/>
    <nd ref="154656"/>
    <nd ref="154655"/>
    <nd ref="154654"/>
    <nd ref="154653"/>
    <nd ref="154652"/>
    <nd ref="154651"/>
    <tag k="created_by" v="JOSM"/>
    <tag k="highway" v="tertiary"/>
  </way>
  <way id="4234498" version="3" timestamp="2008-05-29T16:24:30Z" uid="2488" user="Alban" changeset="545021">
    <nd ref="154658"/>
    <nd ref="25276393"/>
    <nd ref="154657"/>
    <nd ref="154656"/>
    <nd ref="154655"/>
    <nd ref="154654"/>
    <nd ref="154653"/>
    <nd ref="154652"/>
    <nd ref="154651"/>
    <tag k="created_by" v="Editop"/>
    <tag k="highway" v="unclassified"/>
  </way>
  <way id="4234498" version="4" timestamp="2012-03-13T00:59:56Z" uid="99151" user="quicky" changeset="10962298"/>
  <way id="4234537" version="2" timestamp="2007-10-25T20:52:24Z" uid="6454" user="B10xxx" changeset="314259">
    <nd ref="154651"/>
    <nd ref="154650"/>
    <nd ref="25276394"/>
    <nd ref="154649"/>
    <nd ref="154648"/>
    <nd ref="154647"/>
    <nd ref="154646"/>
    <nd ref="154645"/>
    <nd ref="154644"/>
    <nd ref="154635"/>
    <nd ref="25276748"/>
    <nd ref="25276749"/>
    <nd ref="25276750"/>
    <nd ref="21617679"/>
    <tag k="created_by" v="JOSM"/>
    <tag k="highway" v="tertiary"/>
  </way>
  <way id="4234537" version="3" timestamp="2008-05-29T16:24:29Z" uid="2488" user="Alban" changeset="545021">
    <nd ref="154651"/>
    <nd ref="154650"/>
    <nd ref="25276394"/>
    <nd ref="154649"/>
    <nd ref="154648"/>
    <nd ref="154647"/>
    <nd ref="154646"/>
    <nd ref="154645"/>
    <nd ref="154644"/>
    <nd ref="154635"/>
    <nd ref="25276748"/>
    <nd ref="25276749"/>
    <nd ref="25276750"/>
    <nd ref="21617679"/>
    <tag k="created_by" v="JOSM"/>
    <tag k="highway" v="unclassified"/>
  </way>
  <way id="4234537" version="4" timestamp="2011-10-31T17:56:08Z" uid="16038" user="krysst" changeset="9705871">
    <nd ref="154651"/>
    <nd ref="154650"/>
    <nd ref="25276394"/>
    <nd ref="154649"/>
    <nd ref="154648"/>
    <nd ref="154647"/>
    <nd ref="154646"/>
    <nd ref="154645"/>
    <nd ref="154644"/>
    <nd ref="154635"/>
    <nd ref="25276748"/>
    <nd ref="25276749"/>
    <nd ref="25276750"/>
    <nd ref="1487571360"/>
    <nd ref="1487571337"/>
    <tag k="highway" v="unclassified"/>
  </way>
  <way id="4234537" version="5" timestamp="2012-03-13T00:59:52Z" uid="99151" user="quicky" changeset="10962298">
    <nd ref="1672862509"/>
    <nd ref="1672862506"/>
    <tag k="highway" v="unclassified"/>
  </way>
  <way id="4234627" version="3" timestamp="2008-02-13T00:50:19Z" uid="6269" user="Mueck" changeset="111430">
    <nd ref="25277778"/>
    <nd ref="25277777"/>
    <nd ref="247393668"/>
    <nd ref="247393669"/>
    <nd ref="247393670"/>
    <nd ref="247393671"/>
    <nd ref="25277776"/>
    <nd ref="25277779"/>
    <nd ref="25277778"/>
    <tag k="area" v="yes"/>
    <tag k="created_by" v="Potlatch 0.7a"/>
    <tag k="highway" v="pedestrian"/>
    <tag k="layer" v="-1"/>
    <tag k="name" v="Marktplatz"/>
  </way>
  <way id="4234627" version="4" timestamp="2008-02-20T23:13:50Z" uid="6269" user="Mueck" changeset="168690">
    <nd ref="25277778"/>
    <nd ref="25277777"/>
    <nd ref="247393668"/>
    <nd ref="247393669"/>
    <nd ref="247393670"/>
    <nd ref="247393671"/>
    <nd ref="25277776"/>
    <nd ref="25277779"/>
    <nd ref="25277778"/>
    <tag k="area" v="yes"/>
    <tag k="created_by" v="Potlatch 0.7b"/>
    <tag k="highway" v="pedestrian"/>
    <tag k="layer" v="-1"/>
    <tag k="name" v="Marktplatz"/>
  </way>
  <way id="4234627" version="5" timestamp="2008-02-20T23:14:23Z" uid="6269" user="Mueck" changeset="168690">
    <nd ref="25277778"/>
    <nd ref="25277777"/>
    <nd ref="247393668"/>
    <nd ref="247393669"/>
    <nd ref="247393670"/>
    <nd ref="247393671"/>
    <nd ref="25277776"/>
    <nd ref="25277779"/>
    <nd ref="25277778"/>
    <tag k="area" v="yes"/>
    <tag k="created_by" v="Potlatch 0.7b"/>
    <tag k="highway" v="pedestrian"/>
    <tag k="layer" v="-1"/>
    <tag k="name" v="Marktplatz"/>
  </way>
  <way id="4234627" version="6" timestamp="2008-02-20T23:14:46Z" uid="6269" user="Mueck" changeset="168690">
    <nd ref="25277778"/>
    <nd ref="25277777"/>
    <nd ref="247393668"/>
    <nd ref="247393669"/>
    <nd ref="247393670"/>
    <nd ref="247393671"/>
    <nd ref="25277776"/>
    <nd ref="25277779"/>
    <nd ref="25277778"/>
    <tag k="area" v="yes"/>
    <tag k="created_by" v="Potlatch 0.7b"/>
    <tag k="highway" v="pedestrian"/>
    <tag k="layer" v="-1"/>
    <tag k="name" v="Marktplatz"/>
  </way>
  <way id="4234627" version="7" timestamp="2008-03-19T14:21:00Z" uid="6269" user="Mueck" changeset="352316">
    <nd ref="25277778"/>
    <nd ref="25277777"/>
    <nd ref="247393668"/>
    <nd ref="247393669"/>
    <nd ref="247393670"/>
    <nd ref="247393671"/>
    <nd ref="25277776"/>
    <nd ref="25277779"/>
    <nd ref="25277778"/>
    <tag k="area" v="yes"/>
    <tag k="created_by" v="Potlatch 0.7b"/>
    <tag k="highway" v="pedestrian"/>
    <tag k="layer" v="-1"/>
    <tag k="name" v="Marktplatz"/>
  </way>
  <way id="4234627" version="8" timestamp="2008-04-05T10:51:59Z" uid="3585" user="SlowRider" changeset="51519">
    <nd ref="25277778"/>
    <nd ref="25277777"/>
    <nd ref="247393668"/>
    <nd ref="247393669"/>
    <nd ref="247393670"/>
    <nd ref="247393671"/>
    <nd ref="25277776"/>
    <nd ref="25277779"/>
    <nd ref="25277778"/>
    <tag k="area" v="yes"/>
    <tag k="created_by" v="Potlatch 0.7b"/>
    <tag k="landuse" v="plaza"/>
    <tag k="layer" v="-1"/>
    <tag k="name" v="Marktplatz"/>
  </way>
  <way id="4234627" version="9" timestamp="2008-04-06T10:29:33Z" uid="3585" user="SlowRider" changeset="60258">
    <nd ref="25277778"/>
    <nd ref="25277777"/>
    <nd ref="247393668"/>
    <nd ref="247393669"/>
    <nd ref="247393670"/>
    <nd ref="247393671"/>
    <nd ref="25277776"/>
    <nd ref="25277779"/>
    <nd ref="25277778"/>
    <tag k="area" v="yes"/>
    <tag k="created_by" v="Potlatch 0.7b"/>
    <tag k="highway" v="pedestrian"/>
    <tag k="landuse" v="plaza"/>
    <tag k="layer" v="-1"/>
    <tag k="name" v="Marktplatz"/>
  </way>
  <way id="4234627" version="10" timestamp="2008-04-06T14:52:44Z" uid="3585" user="SlowRider" changeset="65407">
    <nd ref="25277778"/>
    <nd ref="25277777"/>
    <nd ref="247393668"/>
    <nd ref="256076396"/>
    <nd ref="256076397"/>
    <nd ref="256076398"/>
    <nd ref="256076390"/>
    <nd ref="247393669"/>
    <nd ref="247393670"/>
    <nd ref="247393671"/>
    <nd ref="25277776"/>
    <nd ref="25277779"/>
    <nd ref="25277778"/>
    <tag k="area" v="yes"/>
    <tag k="created_by" v="Potlatch 0.7b"/>
    <tag k="highway" v="pedestrian"/>
    <tag k="landuse" v="plaza"/>
    <tag k="layer" v="-1"/>
    <tag k="name" v="Marktplatz"/>
  </way>
  <way id="4234627" version="11" timestamp="2008-04-09T21:45:04Z" uid="3585" user="SlowRider" changeset="94993">
    <nd ref="25277778"/>
    <nd ref="25277777"/>
    <nd ref="247393668"/>
    <nd ref="256076396"/>
    <nd ref="256076397"/>
    <nd ref="256076398"/>
    <nd ref="256076390"/>
    <nd ref="247393669"/>
    <nd ref="247393670"/>
    <nd ref="247393671"/>
    <nd ref="25277776"/>
    <nd ref="25277779"/>
    <nd ref="25277778"/>
    <tag k="area" v="yes"/>
    <tag k="created_by" v="Potlatch 0.7b"/>
    <tag k="highway" v="pedestrian"/>
    <tag k="layer" v="-1"/>
    <tag k="name" v="Marktplatz"/>
  </way>
  <way id="4234627" version="12" timestamp="2008-06-14T17:36:18Z" uid="6269" user="Mueck" changeset="159610">
    <nd ref="25277778"/>
    <nd ref="25277777"/>
    <nd ref="247393668"/>
    <nd ref="256076396"/>
    <nd ref="256076397"/>
    <nd ref="256076398"/>
    <nd ref="256076390"/>
    <nd ref="247393669"/>
    <nd ref="247393670"/>
    <nd ref="247393671"/>
    <nd ref="25277776"/>
    <nd ref="25277779"/>
    <nd ref="25277778"/>
    <tag k="area" v="yes"/>
    <tag k="created_by" v="Potlatch 0.9c"/>
    <tag k="highway" v="pedestrian"/>
    <tag k="layer" v="-1"/>
    <tag k="name" v="Marktplatz"/>
  </way>
  <way id="4234627" version="13" timestamp="2008-06-14T17:37:57Z" uid="6269" user="Mueck" changeset="159610">
    <nd ref="25277778"/>
    <nd ref="25277777"/>
    <nd ref="247393668"/>
    <nd ref="256076396"/>
    <nd ref="256076397"/>
    <nd ref="256076398"/>
    <nd ref="256076390"/>
    <nd ref="247393669"/>
    <nd ref="247393670"/>
    <nd ref="247393671"/>
    <nd ref="25277776"/>
    <nd ref="25277779"/>
    <nd ref="25277778"/>
    <tag k="area" v="yes"/>
    <tag k="created_by" v="Potlatch 0.9c"/>
    <tag k="highway" v="pedestrian"/>
    <tag k="layer" v="-1"/>
    <tag k="name" v="Marktplatz"/>
  </way>
  <way id="4234627" version="14" timestamp="2008-06-14T17:38:36Z" uid="6269" user="Mueck" changeset="159610">
    <nd ref="25277778"/>
    <nd ref="25277777"/>
    <nd ref="247393668"/>
    <nd ref="256076396"/>
    <nd ref="256076397"/>
    <nd ref="256076398"/>
    <nd ref="256076390"/>
    <nd ref="247393669"/>
    <nd ref="247393670"/>
    <nd ref="247393671"/>
    <nd ref="25277776"/>
    <nd ref="25277779"/>
    <nd ref="25277778"/>
    <tag k="area" v="yes"/>
    <tag k="created_by" v="Potlatch 0.9c"/>
    <tag k="highway" v="pedestrian"/>
    <tag k="layer" v="-1"/>
    <tag k="name" v="Marktplatz"/>
  </way>
  <way id="4234627" version="15" timestamp="2008-06-14T17:39:14Z" uid="6269" user="Mueck" changeset="159610">
    <nd ref="25277778"/>
    <nd ref="25277777"/>
    <nd ref="247393668"/>
    <nd ref="256076396"/>
    <nd ref="256076397"/>
    <nd ref="256076398"/>
    <nd ref="256076390"/>
    <nd ref="247393669"/>
    <nd ref="247393670"/>
    <nd ref="247393671"/>
    <nd ref="25277776"/>
    <nd ref="25277779"/>
    <nd ref="25277778"/>
    <tag k="area" v="yes"/>
    <tag k="created_by" v="Potlatch 0.9c"/>
    <tag k="highway" v="pedestrian"/>
    <tag k="layer" v="-1"/>
    <tag k="name" v="Marktplatz"/>
  </way>
  <way id="4234627" version="16" timestamp="2008-06-14T17:40:54Z" uid="6269" user="Mueck" changeset="159610">
    <nd ref="25277778"/>
    <nd ref="25277777"/>
    <nd ref="247393668"/>
    <nd ref="256076396"/>
    <nd ref="256076397"/>
    <nd ref="256076398"/>
    <nd ref="256076390"/>
    <nd ref="247393669"/>
    <nd ref="247393670"/>
    <nd ref="247393671"/>
    <nd ref="25277776"/>
    <nd ref="25277779"/>
    <nd ref="25277778"/>
    <tag k="area" v="yes"/>
    <tag k="created_by" v="Potlatch 0.9c"/>
    <tag k="highway" v="pedestrian"/>
    <tag k="name" v="Marktplatz"/>
  </way>
  <way id="4234627" version="17" timestamp="2009-06-19T13:02:07Z" uid="85761" user="klausis" changeset="1564619">
    <nd ref="25277778"/>
    <nd ref="25277777"/>
    <nd ref="247393668"/>
    <nd ref="256076396"/>
    <nd ref="256076397"/>
    <nd ref="256076398"/>
    <nd ref="256076390"/>
    <nd ref="247393669"/>
    <nd ref="247393670"/>
    <nd ref="247393671"/>
    <nd ref="25277776"/>
    <nd ref="25277779"/>
    <nd ref="25277778"/>
    <tag k="area" v="yes"/>
    <tag k="highway" v="pedestrian"/>
    <tag k="name" v="Marktplatz"/>
  </way>
  <way id="4234627" version="18" timestamp="2009-10-11T14:14:21Z" uid="149205" user="Anubis" changeset="2814913">
    <nd ref="25277778"/>
    <nd ref="528870303"/>
    <nd ref="528870300"/>
    <nd ref="25277777"/>
    <nd ref="247393668"/>
    <nd ref="256076396"/>
    <nd ref="256076397"/>
    <nd ref="256076398"/>
    <nd ref="256076390"/>
    <nd ref="247393669"/>
    <nd ref="528870298"/>
    <nd ref="247393670"/>
    <nd ref="247393671"/>
    <nd ref="25277776"/>
    <nd ref="528870299"/>
    <nd ref="528870302"/>
    <nd ref="25277779"/>
    <nd ref="528870305"/>
    <nd ref="25277778"/>
    <tag k="area" v="yes"/>
    <tag k="highway" v="pedestrian"/>
    <tag k="name" v="Marktplatz"/>
  </way>
  <way id="4234627" version="19" timestamp="2010-06-06T21:29:57Z" uid="6269" user="Mueck" changeset="4922855">
    <nd ref="25277778"/>
    <nd ref="528870303"/>
    <nd ref="528870300"/>
    <nd ref="25277777"/>
    <tag k="area" v="yes"/>
    <tag k="highway" v="pedestrian"/>
    <tag k="name" v="Marktplatz"/>
  </way>
  <way id="4234627" version="20" timestamp="2010-06-06T21:30:01Z" uid="6269" user="Mueck" changeset="4922855">
    <nd ref="25277778"/>
    <nd ref="528870303"/>
    <nd ref="528870300"/>
    <tag k="area" v="yes"/>
    <tag k="highway" v="pedestrian"/>
    <tag k="name" v="Marktplatz"/>
  </way>
  <way id="4234627" version="21" timestamp="2010-06-06T21:30:39Z" uid="6269" user="Mueck" changeset="4922855">
    <nd ref="528870300"/>
    <nd ref="766079087"/>
    <nd ref="256076396"/>
    <nd ref="256076397"/>
    <nd ref="256076398"/>
    <nd ref="256076390"/>
    <nd ref="247393669"/>
    <nd ref="528870298"/>
    <nd ref="247393670"/>
    <nd ref="247393671"/>
    <nd ref="25277776"/>
    <nd ref="528870299"/>
    <nd ref="528870302"/>
    <nd ref="25277779"/>
    <nd ref="528870305"/>
    <nd ref="25277778"/>
    <nd ref="528870303"/>
    <nd ref="528870300"/>
    <tag k="area" v="yes"/>
    <tag k="highway" v="pedestrian"/>
    <tag k="name" v="Marktplatz"/>
  </way>
  <way id="4234627" version="22" timestamp="2010-06-06T21:30:45Z" uid="6269" user="Mueck" changeset="4922855">
    <nd ref="528870300"/>
    <nd ref="766079087"/>
    <nd ref="256076396"/>
    <nd ref="256076397"/>
    <nd ref="256076398"/>
    <nd ref="256076390"/>
    <nd ref="247393669"/>
    <nd ref="528870298"/>
    <nd ref="247393670"/>
    <nd ref="247393671"/>
    <nd ref="25277776"/>
    <tag k="area" v="yes"/>
    <tag k="highway" v="pedestrian"/>
    <tag k="name" v="Marktplatz"/>
  </way>
  <way id="4234627" version="23" timestamp="2010-06-06T21:31:05Z" uid="6269" user="Mueck" changeset="4922855">
    <nd ref="528870300"/>
    <nd ref="766079087"/>
    <nd ref="256076396"/>
    <nd ref="256076397"/>
    <nd ref="256076398"/>
    <nd ref="256076390"/>
    <nd ref="247393669"/>
    <nd ref="528870298"/>
    <nd ref="247393670"/>
    <nd ref="766079243"/>
    <nd ref="766079252"/>
    <tag k="area" v="yes"/>
    <tag k="highway" v="pedestrian"/>
    <tag k="name" v="Marktplatz"/>
  </way>
  <way id="4234627" version="24" timestamp="2010-06-06T21:31:24Z" uid="6269" user="Mueck" changeset="4922855">
    <nd ref="528870300"/>
    <nd ref="766079087"/>
    <nd ref="256076396"/>
    <nd ref="256076397"/>
    <nd ref="256076398"/>
    <nd ref="256076390"/>
    <nd ref="247393669"/>
    <nd ref="528870298"/>
    <nd ref="247393670"/>
    <nd ref="766079243"/>
    <nd ref="766079280"/>
    <tag k="area" v="yes"/>
    <tag k="highway" v="pedestrian"/>
    <tag k="name" v="Marktplatz"/>
  </way>
  <way id="4234627" version="25" timestamp="2010-06-06T21:31:44Z" uid="6269" user="Mueck" changeset="4922855"/>
  <way id="4234633" version="5" timestamp="2011-03-20T21:03:59Z" uid="6269" user="Mueck" changeset="7621548">
    <nd ref="25278246"/>
    <nd ref="25278242"/>
    <tag k="bridge" v="yes"/>
    <tag k="highway" v="steps"/>
    <tag k="layer" v="1"/>
  </way>
  <way id="4234636" version="4" timestamp="2011-03-20T20:41:57Z" uid="6269" user="Mueck" changeset="7621548">
    <nd ref="25278247"/>
    <nd ref="25278240"/>
    <nd ref="1211047398"/>
    <nd ref="1211047370"/>
    <nd ref="25278244"/>
    <tag k="highway" v="footway"/>
  </way>
  <way id="4234636" version="5" timestamp="2011-03-20T21:04:00Z" uid="6269" user="Mueck" changeset="7621548">
    <nd ref="25278247"/>
    <nd ref="1211070420"/>
    <tag k="highway" v="steps"/>
  </way>
  <way id="4234636" version="6" timestamp="2012-03-16T14:43:21Z" uid="165061" user="mapper999" changeset="10998234"/>
  <way id="4234729" version="3" timestamp="2008-05-23T20:04:07Z" uid="33382" user="de_muur" changeset="506828">
    <nd ref="21296329"/>
    <nd ref="266558114"/>
    <tag k="created_by" v="Potlatch 0.5d"/>
    <tag k="highway" v="tertiary"/>
    <tag k="maxspeed" v="50"/>
    <tag k="name" v="Lauenburger Straße"/>
  </way>
  <way id="4234729" version="4" timestamp="2008-05-31T09:38:17Z" uid="29017" user="FrankT" changeset="560890">
    <nd ref="21296329"/>
    <nd ref="266558114"/>
    <tag k="created_by" v="Potlatch 0.9c"/>
    <tag k="highway" v="secondary"/>
    <tag k="maxspeed" v="50"/>
    <tag k="name" v="Lauenburger Straße"/>
  </way>
  <way id="4234729" version="5" timestamp="2008-05-31T09:39:22Z" uid="29017" user="FrankT" changeset="560890">
    <nd ref="21296329"/>
    <nd ref="266558114"/>
    <tag k="created_by" v="Potlatch 0.9c"/>
    <tag k="highway" v="secondary"/>
    <tag k="maxspeed" v="50"/>
    <tag k="name" v="Lauenburger Straße"/>
    <tag k="ref" v="L208"/>
  </way>
  <way id="4234729" version="6" timestamp="2008-06-03T08:59:30Z" uid="41051" user="Ennox" changeset="29128">
    <nd ref="21296329"/>
    <nd ref="266558114"/>
    <tag k="created_by" v="Potlatch 0.9c"/>
    <tag k="highway" v="secondary"/>
    <tag k="maxspeed" v="50"/>
    <tag k="name" v="Lauenburger Straße"/>
    <tag k="ref" v="L208"/>
  </way>
  <way id="4234729" version="7" timestamp="2008-06-04T21:45:20Z" uid="17933" user="abunai" changeset="48544">
    <nd ref="21296329"/>
    <nd ref="266558114"/>
    <tag k="created_by" v="Potlatch 0.9c"/>
    <tag k="highway" v="secondary"/>
    <tag k="maxspeed" v="50"/>
    <tag k="name" v="Lauenburger Straße"/>
    <tag k="ref" v="L208"/>
  </way>
  <way id="4234729" version="8" timestamp="2008-07-11T13:00:02Z" uid="29017" user="FrankT" changeset="462139">
    <nd ref="21296329"/>
    <nd ref="266558114"/>
    <tag k="created_by" v="Potlatch 0.9c"/>
    <tag k="highway" v="secondary"/>
    <tag k="maxspeed" v="50"/>
    <tag k="name" v="Lauenburger Straße"/>
    <tag k="ref" v="L 208"/>
  </way>
  <way id="4234729" version="9" timestamp="2008-11-08T09:40:45Z" uid="33382" user="de_muur" changeset="712842">
    <nd ref="21296329"/>
    <nd ref="310514272"/>
    <nd ref="266558114"/>
    <tag k="created_by" v="Potlatch 0.9c"/>
    <tag k="highway" v="secondary"/>
    <tag k="maxspeed" v="50"/>
    <tag k="name" v="Lauenburger Straße"/>
    <tag k="ref" v="L 208"/>
  </way>
  <way id="4234729" version="10" timestamp="2008-11-16T06:42:16Z" uid="33382" user="de_muur" changeset="755296"/>
  <way id="4234762" version="1" timestamp="2007-09-14T19:00:45Z" uid="8328" user="benpre" changeset="428989">
    <nd ref="25279912"/>
    <nd ref="25279916"/>
    <nd ref="25279917"/>
    <nd ref="25279918"/>
    <tag k="city" v="Leipzig"/>
    <tag k="created_by" v="JOSM"/>
    <tag k="highway" v="residential"/>
    <tag k="maxspeed" v="30km/h"/>
    <tag k="name" v="Kästnerbogen"/>
  </way>
  <way id="4234762" version="2" timestamp="2007-10-20T20:33:01Z" uid="4426" user="portitzer" changeset="266252">
    <nd ref="25279912"/>
    <nd ref="25279916"/>
    <nd ref="25279917"/>
    <nd ref="25279918"/>
    <tag k="city" v="Leipzig"/>
    <tag k="created_by" v="Potlatch alpha"/>
    <tag k="highway" v="residential"/>
    <tag k="maxspeed" v="30km/h"/>
    <tag k="name" v="Kästnerbogen"/>
  </way>
  <way id="4234762" version="3" timestamp="2008-08-20T09:34:22Z" uid="13203" user="bahnpirat" changeset="334090">
    <nd ref="25279912"/>
    <nd ref="25279916"/>
    <nd ref="25279917"/>
    <nd ref="25279918"/>
    <tag k="city" v="Leipzig"/>
    <tag k="created_by" v="Potlatch 0.10b"/>
    <tag k="highway" v="residential"/>
    <tag k="maxspeed" v="30"/>
    <tag k="name" v="Kästnerbogen"/>
  </way>
  <way id="4234762" version="4" timestamp="2009-04-30T07:55:19Z" uid="40527" user="fschmidt" changeset="1023798">
    <nd ref="25279912"/>
    <nd ref="25279916"/>
    <nd ref="25279917"/>
    <nd ref="25279918"/>
    <tag k="created_by" v="Potlatch 0.10b"/>
    <tag k="highway" v="residential"/>
    <tag k="is_in" v="Leipzig"/>
    <tag k="maxspeed" v="30"/>
    <tag k="name" v="Kästnerbogen"/>
  </way>
  <way id="4234762" version="5" timestamp="2011-04-16T17:02:03Z" uid="162788" user="somehow_different" changeset="7879981">
    <nd ref="25279912"/>
    <nd ref="25279917"/>
    <nd ref="1247212349"/>
    <nd ref="25279918"/>
    <tag k="highway" v="residential"/>
    <tag k="is_in" v="Leipzig"/>
    <tag k="maxspeed" v="30"/>
    <tag k="name" v="Kästnerbogen"/>
  </way>
  <way id="4234769" version="2" timestamp="2007-10-16T22:34:15Z" uid="4667" user="MapZ" changeset="223456">
    <nd ref="21686858"/>
    <nd ref="25279931"/>
    <nd ref="25279932"/>
    <nd ref="25279933"/>
    <nd ref="25279934"/>
    <nd ref="25279935"/>
    <nd ref="25279937"/>
    <nd ref="25279944"/>
    <nd ref="25279945"/>
    <tag k="created_by" v="MapZ"/>
    <tag k="highway" v="secondary"/>
  </way>
  <way id="4234769" version="3" timestamp="2007-10-16T22:50:11Z" uid="4667" user="MapZ" changeset="223456">
    <nd ref="21686858"/>
    <nd ref="25279931"/>
    <nd ref="25279932"/>
    <nd ref="25279933"/>
    <nd ref="25279934"/>
    <nd ref="25279935"/>
    <nd ref="25279937"/>
    <nd ref="25279944"/>
    <nd ref="25279945"/>
    <tag k="created_by" v="MapZ"/>
    <tag k="highway" v="secondary"/>
  </way>
  <way id="4234769" version="4" timestamp="2008-10-25T13:10:49Z" uid="65929" user="KptKaos" changeset="573385">
    <nd ref="21686858"/>
    <nd ref="25279931"/>
    <nd ref="25279932"/>
    <nd ref="307414365"/>
    <nd ref="25279933"/>
    <nd ref="25279934"/>
    <nd ref="25279935"/>
    <nd ref="25279937"/>
    <nd ref="25279944"/>
    <nd ref="25279945"/>
    <tag k="created_by" v="Merkaartor 0.12"/>
    <tag k="highway" v="secondary"/>
  </way>
  <way id="4234769" version="5" timestamp="2008-11-06T23:43:53Z" uid="77125" user="Kohte" changeset="705011">
    <nd ref="21686858"/>
    <nd ref="25279931"/>
    <nd ref="25279932"/>
    <nd ref="307414365"/>
    <nd ref="25279933"/>
    <nd ref="25279934"/>
    <nd ref="25279935"/>
    <nd ref="25279937"/>
    <tag k="created_by" v="Merkaartor 0.12"/>
    <tag k="highway" v="secondary"/>
    <tag k="name" v="Ilvesheimer Straße"/>
  </way>
  <way id="4234769" version="6" timestamp="2008-11-18T23:09:55Z" uid="77125" user="Kohte" changeset="768012">
    <nd ref="21686858"/>
    <nd ref="25279931"/>
    <nd ref="25279932"/>
    <nd ref="307414365"/>
    <nd ref="25279933"/>
    <nd ref="25279934"/>
    <nd ref="313085401"/>
    <nd ref="25279935"/>
    <nd ref="25279937"/>
    <tag k="created_by" v="Merkaartor 0.12"/>
    <tag k="highway" v="secondary"/>
    <tag k="name" v="Ilvesheimer Straße"/>
  </way>
  <way id="4234769" version="7" timestamp="2008-11-20T20:17:03Z" uid="77125" user="Kohte" changeset="774750">
    <nd ref="21686858"/>
    <nd ref="25279931"/>
    <nd ref="313378489"/>
    <nd ref="25279932"/>
    <nd ref="307414365"/>
    <nd ref="25279933"/>
    <nd ref="25279934"/>
    <nd ref="313085401"/>
    <nd ref="25279935"/>
    <nd ref="25279937"/>
    <tag k="created_by" v="Merkaartor 0.12"/>
    <tag k="highway" v="secondary"/>
    <tag k="name" v="Ilvesheimer Straße"/>
  </way>
  <way id="4234769" version="8" timestamp="2008-11-26T20:56:20Z" uid="77125" user="Kohte" changeset="798869">
    <nd ref="21686858"/>
    <nd ref="25279931"/>
    <nd ref="313378489"/>
    <nd ref="25279932"/>
    <nd ref="307414365"/>
    <nd ref="25279933"/>
    <nd ref="314980630"/>
    <nd ref="25279934"/>
    <nd ref="313085401"/>
    <nd ref="25279935"/>
    <nd ref="25279937"/>
    <tag k="created_by" v="Merkaartor 0.12"/>
    <tag k="highway" v="secondary"/>
    <tag k="name" v="Ilvesheimer Straße"/>
  </way>
  <way id="4234769" version="9" timestamp="2009-03-18T17:15:55Z" uid="18049" user="Stefan Weil (Ladenburg)" changeset="828107">
    <nd ref="21686858"/>
    <nd ref="25279931"/>
    <nd ref="313378489"/>
    <nd ref="25279932"/>
    <nd ref="307414365"/>
    <nd ref="25279933"/>
    <nd ref="314980630"/>
    <nd ref="25279934"/>
    <nd ref="313085401"/>
    <nd ref="25279935"/>
    <nd ref="25279937"/>
    <tag k="created_by" v="Merkaartor 0.12"/>
    <tag k="highway" v="secondary"/>
    <tag k="maxspeed" v="30"/>
    <tag k="name" v="Ilvesheimer Straße"/>
  </way>
  <way id="4234769" version="10" timestamp="2009-04-10T15:05:52Z" changeset="376994">
    <nd ref="21686858"/>
    <nd ref="25279931"/>
    <nd ref="313378489"/>
    <nd ref="25279932"/>
    <nd ref="307414365"/>
    <nd ref="25279933"/>
    <nd ref="314980630"/>
    <nd ref="25279934"/>
    <nd ref="313085401"/>
    <nd ref="25279935"/>
    <nd ref="25279937"/>
    <tag k="created_by" v="Merkaartor 0.14"/>
    <tag k="highway" v="secondary"/>
    <tag k="maxspeed" v="30"/>
    <tag k="name" v="Ilvesheimer Straße"/>
  </way>
  <way id="4234769" version="11" timestamp="2009-08-24T09:02:18Z" uid="55945" user="xeen" changeset="2241366">
    <nd ref="21686858"/>
    <nd ref="472637237"/>
    <nd ref="25279931"/>
    <nd ref="313378489"/>
    <nd ref="25279932"/>
    <nd ref="307414365"/>
    <nd ref="25279933"/>
    <nd ref="314980630"/>
    <nd ref="25279934"/>
    <nd ref="313085401"/>
    <nd ref="25279935"/>
    <nd ref="25279937"/>
    <tag k="highway" v="secondary"/>
    <tag k="maxspeed" v="30"/>
    <tag k="name" v="Ilvesheimer Straße"/>
  </way>
  <way id="4234769" version="12" timestamp="2009-09-26T18:38:40Z" uid="7562" user="LosHawlos" changeset="2644898">
    <nd ref="21686858"/>
    <nd ref="472637237"/>
    <nd ref="25279931"/>
    <nd ref="313378489"/>
    <nd ref="25279932"/>
    <nd ref="307414365"/>
    <nd ref="25279933"/>
    <nd ref="314980630"/>
    <nd ref="25279934"/>
    <nd ref="313085401"/>
    <nd ref="25279935"/>
    <nd ref="509218063"/>
    <tag k="highway" v="secondary"/>
    <tag k="maxspeed" v="30"/>
    <tag k="name" v="Ilvesheimer Straße"/>
  </way>
  <way id="4234769" version="13" timestamp="2010-03-15T21:59:23Z" uid="31231" user="Andre68" changeset="4139155">
    <nd ref="21686860"/>
    <nd ref="667144641"/>
    <nd ref="472637237"/>
    <nd ref="25279931"/>
    <nd ref="313378489"/>
    <nd ref="25279932"/>
    <nd ref="307414365"/>
    <nd ref="25279933"/>
    <nd ref="314980630"/>
    <nd ref="25279934"/>
    <nd ref="313085401"/>
    <nd ref="25279935"/>
    <nd ref="509218063"/>
    <tag k="highway" v="secondary"/>
    <tag k="maxspeed" v="30"/>
    <tag k="name" v="Ilvesheimer Straße"/>
  </way>
  <way id="4234769" version="14" timestamp="2010-03-16T21:01:20Z" uid="31231" user="Andre68" changeset="4146580">
    <nd ref="21686860"/>
    <nd ref="667144641"/>
    <nd ref="472637237"/>
    <nd ref="25279931"/>
    <nd ref="313378489"/>
    <nd ref="307414365"/>
    <nd ref="25279933"/>
    <nd ref="314980630"/>
    <nd ref="25279934"/>
    <nd ref="313085401"/>
    <nd ref="25279935"/>
    <nd ref="509218063"/>
    <tag k="highway" v="secondary"/>
    <tag k="maxspeed" v="30"/>
    <tag k="name" v="Ilvesheimer Straße"/>
  </way>
  <way id="4234769" version="15" timestamp="2011-06-26T21:04:31Z" uid="6326" user="mike_hd" changeset="8556515">
    <nd ref="25279931"/>
    <nd ref="1340397652"/>
    <nd ref="472637237"/>
    <nd ref="667144641"/>
    <nd ref="21686860"/>
    <tag k="highway" v="secondary"/>
    <tag k="maxspeed" v="30"/>
    <tag k="name" v="Ilvesheimer Straße"/>
    <tag k="oneway" v="yes"/>
  </way>
  <way id="4234769" version="16" timestamp="2011-07-30T19:47:10Z" uid="6326" user="mike_hd" changeset="8875234">
    <nd ref="25279931"/>
    <nd ref="1340397652"/>
    <nd ref="472637237"/>
    <nd ref="667144641"/>
    <nd ref="21686860"/>
    <nd ref="1379247330"/>
    <tag k="highway" v="secondary"/>
    <tag k="maxspeed" v="30"/>
    <tag k="oneway" v="yes"/>
  </way>
  <way id="4234770" version="2" timestamp="2007-10-16T22:34:14Z" uid="4667" user="MapZ" changeset="223456">
    <nd ref="25875527"/>
    <nd ref="25875523"/>
    <nd ref="25875688"/>
    <nd ref="25875539"/>
    <nd ref="25875709"/>
    <nd ref="25875544"/>
    <nd ref="25875719"/>
    <nd ref="25875556"/>
    <nd ref="25875729"/>
    <nd ref="25875562"/>
    <nd ref="25875629"/>
    <nd ref="25875577"/>
    <nd ref="25875508"/>
    <nd ref="25875707"/>
    <nd ref="25875483"/>
    <nd ref="25875496"/>
    <nd ref="25875650"/>
    <nd ref="25279945"/>
    <nd ref="25279947"/>
    <nd ref="25279948"/>
    <nd ref="25279949"/>
    <nd ref="25279950"/>
    <nd ref="25279951"/>
    <nd ref="25279952"/>
    <tag k="created_by" v="MapZ"/>
    <tag k="highway" v="secondary"/>
  </way>
  <way id="4234770" version="3" timestamp="2007-10-16T22:50:11Z" uid="4667" user="MapZ" changeset="223456">
    <nd ref="25875527"/>
    <nd ref="25875523"/>
    <nd ref="25875688"/>
    <nd ref="25875539"/>
    <nd ref="25875709"/>
    <nd ref="25875544"/>
    <nd ref="25875719"/>
    <nd ref="25875556"/>
    <nd ref="25875729"/>
    <nd ref="25875562"/>
    <nd ref="25875629"/>
    <nd ref="25875577"/>
    <nd ref="25875508"/>
    <nd ref="25875707"/>
    <nd ref="25875483"/>
    <nd ref="25875496"/>
    <nd ref="25875650"/>
    <nd ref="25279945"/>
    <nd ref="25279947"/>
    <nd ref="25279948"/>
    <nd ref="25279949"/>
    <nd ref="25279950"/>
    <nd ref="25279951"/>
    <nd ref="25279952"/>
    <tag k="created_by" v="MapZ"/>
    <tag k="highway" v="secondary"/>
  </way>
  <way id="4234770" version="4" timestamp="2007-11-02T21:19:01Z" uid="18049" user="Stefan Weil (Ladenburg)" changeset="389288">
    <nd ref="25875527"/>
    <nd ref="25875523"/>
    <nd ref="25875688"/>
    <nd ref="25875539"/>
    <nd ref="25875709"/>
    <nd ref="25875544"/>
    <nd ref="25875719"/>
    <nd ref="25875556"/>
    <nd ref="25875729"/>
    <nd ref="25875562"/>
    <nd ref="25875629"/>
    <nd ref="25875577"/>
    <nd ref="25875508"/>
    <nd ref="25875707"/>
    <nd ref="25875483"/>
    <nd ref="25875496"/>
    <nd ref="25875650"/>
    <nd ref="25279945"/>
    <nd ref="96050915"/>
    <nd ref="25279947"/>
    <nd ref="25279948"/>
    <nd ref="25279949"/>
    <nd ref="25279950"/>
    <nd ref="25279951"/>
    <nd ref="25279952"/>
    <tag k="created_by" v="Potlatch 0.4c"/>
    <tag k="highway" v="secondary"/>
  </way>
  <way id="4234770" version="5" timestamp="2007-11-03T21:01:48Z" uid="18049" user="Stefan Weil (Ladenburg)" changeset="397494">
    <nd ref="25875527"/>
    <nd ref="25875523"/>
    <nd ref="25875688"/>
    <nd ref="25875539"/>
    <nd ref="25875709"/>
    <nd ref="25875544"/>
    <nd ref="25875719"/>
    <nd ref="25875556"/>
    <nd ref="25875729"/>
    <nd ref="25875562"/>
    <nd ref="25875629"/>
    <nd ref="25875577"/>
    <nd ref="25875508"/>
    <nd ref="25875707"/>
    <nd ref="25875483"/>
    <nd ref="25875496"/>
    <nd ref="25875650"/>
    <nd ref="25279945"/>
    <nd ref="96050915"/>
    <nd ref="25279947"/>
    <nd ref="25279948"/>
    <nd ref="25279949"/>
    <nd ref="25279950"/>
    <nd ref="25279951"/>
    <nd ref="25279952"/>
    <tag k="created_by" v="Potlatch 0.4c"/>
    <tag k="highway" v="secondary"/>
    <tag k="name" v="Neckarstraße"/>
  </way>
  <way id="4234770" version="6" timestamp="2007-12-02T15:09:45Z" uid="4515" user="Elrond" changeset="43139">
    <nd ref="25875527"/>
    <nd ref="25875523"/>
    <nd ref="25875688"/>
    <nd ref="25875539"/>
    <nd ref="25875709"/>
    <nd ref="25875544"/>
    <nd ref="25875719"/>
    <nd ref="25875556"/>
    <nd ref="25875729"/>
    <nd ref="25875562"/>
    <nd ref="25875629"/>
    <nd ref="25875577"/>
    <nd ref="25875508"/>
    <nd ref="25875707"/>
    <nd ref="25875483"/>
    <nd ref="25875496"/>
    <nd ref="25875650"/>
    <nd ref="148197883"/>
    <nd ref="25279945"/>
    <nd ref="96050915"/>
    <nd ref="25279947"/>
    <nd ref="25279948"/>
    <nd ref="25279949"/>
    <nd ref="25279950"/>
    <nd ref="25279951"/>
    <nd ref="25279952"/>
    <tag k="created_by" v="Potlatch 0.4c"/>
    <tag k="highway" v="secondary"/>
    <tag k="name" v="Neckarstraße"/>
  </way>
  <way id="4234770" version="7" timestamp="2008-03-18T07:55:14Z" uid="4667" user="MapZ" changeset="345133">
    <nd ref="25875527"/>
    <nd ref="25875523"/>
    <nd ref="25875688"/>
    <nd ref="25875539"/>
    <nd ref="25875709"/>
    <nd ref="25875544"/>
    <nd ref="25875719"/>
    <nd ref="25875556"/>
    <nd ref="25875729"/>
    <nd ref="25875562"/>
    <nd ref="25875629"/>
    <nd ref="25875577"/>
    <nd ref="25875508"/>
    <nd ref="25875707"/>
    <nd ref="25875483"/>
    <nd ref="25875496"/>
    <nd ref="25875650"/>
    <nd ref="252686284"/>
    <nd ref="148197883"/>
    <nd ref="25279945"/>
    <nd ref="96050915"/>
    <nd ref="25279947"/>
    <nd ref="25279948"/>
    <nd ref="25279949"/>
    <nd ref="25279950"/>
    <nd ref="25279951"/>
    <nd ref="25279952"/>
    <tag k="created_by" v="Potlatch 0.4c"/>
    <tag k="highway" v="secondary"/>
    <tag k="name" v="Neckarstraße"/>
  </way>
  <way id="4234770" version="8" timestamp="2008-06-22T10:41:24Z" uid="44329" user="aikon" changeset="255788">
    <nd ref="25875527"/>
    <nd ref="25875523"/>
    <nd ref="25875688"/>
    <nd ref="25875539"/>
    <nd ref="25875709"/>
    <nd ref="25875544"/>
    <nd ref="25875719"/>
    <nd ref="271882787"/>
    <nd ref="25875556"/>
    <nd ref="25875729"/>
    <nd ref="25875562"/>
    <nd ref="25875629"/>
    <nd ref="25875577"/>
    <nd ref="25875508"/>
    <nd ref="25875707"/>
    <nd ref="25875483"/>
    <nd ref="25875496"/>
    <nd ref="25875650"/>
    <nd ref="252686284"/>
    <nd ref="148197883"/>
    <nd ref="25279945"/>
    <nd ref="96050915"/>
    <nd ref="25279947"/>
    <nd ref="25279948"/>
    <nd ref="25279949"/>
    <nd ref="25279950"/>
    <nd ref="25279951"/>
    <nd ref="25279952"/>
    <tag k="created_by" v="Potlatch 0.4c"/>
    <tag k="highway" v="secondary"/>
    <tag k="name" v="Neckarstraße"/>
  </way>
  <way id="4234770" version="9" timestamp="2008-08-24T07:54:21Z" uid="52882" user="Danalf" changeset="394402">
    <nd ref="25875527"/>
    <nd ref="25875523"/>
    <nd ref="25875688"/>
    <nd ref="25875539"/>
    <nd ref="25875709"/>
    <nd ref="25875544"/>
    <nd ref="25875719"/>
    <nd ref="271882787"/>
    <nd ref="25875556"/>
    <nd ref="25875729"/>
    <nd ref="25875562"/>
    <nd ref="25875629"/>
    <nd ref="290599080"/>
    <nd ref="25875577"/>
    <nd ref="25875508"/>
    <nd ref="25875707"/>
    <nd ref="25875483"/>
    <nd ref="25875496"/>
    <nd ref="25875650"/>
    <nd ref="252686284"/>
    <nd ref="148197883"/>
    <nd ref="25279945"/>
    <nd ref="96050915"/>
    <nd ref="25279947"/>
    <nd ref="25279948"/>
    <nd ref="25279949"/>
    <nd ref="25279950"/>
    <nd ref="25279951"/>
    <nd ref="25279952"/>
    <tag k="created_by" v="Potlatch 0.10b"/>
    <tag k="highway" v="secondary"/>
    <tag k="name" v="Neckarstraße"/>
  </way>
  <way id="4234770" version="10" timestamp="2008-08-24T07:54:28Z" uid="52882" user="Danalf" changeset="394402">
    <nd ref="25875527"/>
    <nd ref="25875523"/>
    <nd ref="25875688"/>
    <nd ref="25875539"/>
    <nd ref="25875709"/>
    <nd ref="25875544"/>
    <nd ref="25875719"/>
    <nd ref="271882787"/>
    <nd ref="25875556"/>
    <nd ref="25875729"/>
    <nd ref="25875562"/>
    <nd ref="25875629"/>
    <nd ref="290599080"/>
    <tag k="created_by" v="Potlatch 0.10b"/>
    <tag k="highway" v="secondary"/>
    <tag k="name" v="Neckarstraße"/>
  </way>
  <way id="4234770" version="11" timestamp="2008-08-24T07:55:24Z" uid="52882" user="Danalf" changeset="394402">
    <nd ref="25875527"/>
    <nd ref="25875523"/>
    <tag k="created_by" v="Potlatch 0.10b"/>
    <tag k="highway" v="secondary"/>
    <tag k="name" v="Neckarstraße"/>
  </way>
  <way id="4234770" version="12" timestamp="2009-08-01T07:35:12Z" uid="41927" user="Werner L" changeset="2000887">
    <nd ref="25875527"/>
    <nd ref="452925943"/>
    <nd ref="25875523"/>
    <tag k="created_by" v="Potlatch 0.10b"/>
    <tag k="highway" v="secondary"/>
    <tag k="name" v="Neckarstraße"/>
  </way>
  <way id="4234770" version="13" timestamp="2009-10-08T20:25:44Z" uid="142422" user="BIGTH" changeset="2787525">
    <nd ref="25875527"/>
    <nd ref="452925943"/>
    <nd ref="526229439"/>
    <nd ref="25875523"/>
    <tag k="highway" v="secondary"/>
    <tag k="name" v="Neckarstraße"/>
  </way>
  <way id="4234770" version="14" timestamp="2011-04-11T17:07:24Z" uid="29639" user="bielebog" changeset="7835068">
    <nd ref="25875527"/>
    <nd ref="452925943"/>
    <nd ref="1241084925"/>
    <nd ref="526229439"/>
    <nd ref="25875523"/>
    <tag k="highway" v="secondary"/>
    <tag k="maxspeed" v="30"/>
    <tag k="name" v="Neckarstraße"/>
  </way>
  <way id="4234771" version="2" timestamp="2007-10-16T22:34:23Z" uid="4667" user="MapZ" changeset="223456">
    <nd ref="25279952"/>
    <nd ref="25279953"/>
    <nd ref="25279954"/>
    <nd ref="25279958"/>
    <nd ref="25279959"/>
    <nd ref="25279960"/>
    <nd ref="25279961"/>
    <nd ref="25279962"/>
    <nd ref="25279964"/>
    <tag k="created_by" v="MapZ"/>
    <tag k="highway" v="residential"/>
  </way>
  <way id="4234771" version="3" timestamp="2007-10-16T22:50:12Z" uid="4667" user="MapZ" changeset="223456">
    <nd ref="25279952"/>
    <nd ref="25279953"/>
    <nd ref="25279954"/>
    <nd ref="25279958"/>
    <nd ref="25279959"/>
    <nd ref="25279960"/>
    <nd ref="25279961"/>
    <nd ref="25279962"/>
    <nd ref="25279964"/>
    <tag k="created_by" v="MapZ"/>
    <tag k="highway" v="residential"/>
  </way>
  <way id="4234771" version="4" timestamp="2007-11-03T21:01:49Z" uid="18049" user="Stefan Weil (Ladenburg)" changeset="397494">
    <nd ref="25279952"/>
    <nd ref="25279953"/>
    <nd ref="25279954"/>
    <nd ref="25279958"/>
    <nd ref="25279959"/>
    <nd ref="25279960"/>
    <nd ref="25279961"/>
    <nd ref="25279962"/>
    <nd ref="25279964"/>
    <tag k="created_by" v="MapZ"/>
    <tag k="highway" v="residential"/>
    <tag k="name" v="Neue Anlage"/>
  </way>
  <way id="4234771" version="5" timestamp="2008-05-23T09:26:34Z" uid="36981" user="akr75" changeset="507241">
    <nd ref="25279952"/>
    <nd ref="25279953"/>
    <nd ref="266475690"/>
    <nd ref="25279954"/>
    <nd ref="25279958"/>
    <nd ref="25279959"/>
    <nd ref="25279960"/>
    <nd ref="25279961"/>
    <nd ref="25279962"/>
    <nd ref="25279964"/>
    <tag k="created_by" v="Potlatch 0.9a"/>
    <tag k="highway" v="residential"/>
    <tag k="name" v="Neue Anlage"/>
  </way>
  <way id="4234771" version="6" timestamp="2008-11-06T23:43:53Z" uid="77125" user="Kohte" changeset="705011">
    <nd ref="25279952"/>
    <nd ref="25279953"/>
    <nd ref="266475690"/>
    <nd ref="25279954"/>
    <nd ref="25279958"/>
    <nd ref="25279959"/>
    <nd ref="25279960"/>
    <nd ref="25279961"/>
    <nd ref="310306160"/>
    <nd ref="25279962"/>
    <nd ref="25279964"/>
    <tag k="created_by" v="Potlatch 0.9a"/>
    <tag k="highway" v="residential"/>
    <tag k="name" v="Neue Anlage"/>
  </way>
  <way id="4234771" version="7" timestamp="2008-11-26T20:56:21Z" uid="77125" user="Kohte" changeset="798869">
    <nd ref="25279952"/>
    <nd ref="25279953"/>
    <nd ref="266475690"/>
    <nd ref="25279954"/>
    <nd ref="314980620"/>
    <nd ref="25279958"/>
    <nd ref="314980622"/>
    <nd ref="25279959"/>
    <nd ref="25279960"/>
    <nd ref="25279961"/>
    <nd ref="310306160"/>
    <nd ref="25279962"/>
    <nd ref="25279964"/>
    <tag k="created_by" v="Potlatch 0.9a"/>
    <tag k="highway" v="residential"/>
    <tag k="name" v="Neue Anlage"/>
  </way>
  <way id="4234771" version="8" timestamp="2009-01-07T09:55:41Z" uid="31231" user="Andre68" changeset="750546">
    <nd ref="25279952"/>
    <nd ref="25279953"/>
    <nd ref="266475690"/>
    <nd ref="25279954"/>
    <nd ref="314980620"/>
    <nd ref="25279958"/>
    <nd ref="314980622"/>
    <nd ref="25279959"/>
    <nd ref="25279960"/>
    <nd ref="310306160"/>
    <nd ref="25279964"/>
    <tag k="created_by" v="Potlatch 0.9a"/>
    <tag k="highway" v="residential"/>
    <tag k="name" v="Neue Anlage"/>
  </way>
  <way id="4234771" version="9" timestamp="2009-04-09T21:01:20Z" changeset="349708">
    <nd ref="25279952"/>
    <nd ref="25279953"/>
    <nd ref="266475690"/>
    <nd ref="25279954"/>
    <nd ref="314980620"/>
    <nd ref="25279958"/>
    <nd ref="314980622"/>
    <nd ref="25279959"/>
    <nd ref="25279960"/>
    <nd ref="310306160"/>
    <nd ref="25279964"/>
    <tag k="created_by" v="Merkaartor 0.14"/>
    <tag k="highway" v="residential"/>
    <tag k="maxspeed" v="30"/>
    <tag k="name" v="Neue Anlage"/>
  </way>
  <way id="4234771" version="10" timestamp="2009-04-11T23:33:26Z" changeset="447149">
    <nd ref="25279952"/>
    <nd ref="25279953"/>
    <nd ref="266475690"/>
    <nd ref="372977316"/>
    <nd ref="25279954"/>
    <nd ref="314980620"/>
    <nd ref="25279958"/>
    <nd ref="314980622"/>
    <nd ref="25279959"/>
    <nd ref="25279960"/>
    <nd ref="310306160"/>
    <nd ref="25279964"/>
    <tag k="created_by" v="Merkaartor 0.14"/>
    <tag k="highway" v="residential"/>
    <tag k="maxspeed" v="30"/>
    <tag k="name" v="Neue Anlage"/>
  </way>
  <way id="4234771" version="11" timestamp="2009-08-14T21:28:24Z" uid="140064" user="debfreak" changeset="2148227">
    <nd ref="25279952"/>
    <nd ref="466483776"/>
    <nd ref="25279953"/>
    <nd ref="372977316"/>
    <nd ref="25279954"/>
    <nd ref="314980620"/>
    <nd ref="25279958"/>
    <nd ref="314980622"/>
    <nd ref="25279959"/>
    <nd ref="25279960"/>
    <nd ref="310306160"/>
    <nd ref="25279964"/>
    <tag k="created_by" v="Merkaartor 0.14"/>
    <tag k="highway" v="residential"/>
    <tag k="maxspeed" v="30"/>
    <tag k="name" v="Neue Anlage"/>
  </way>
  <way id="4234771" version="12" timestamp="2009-08-24T09:02:12Z" uid="55945" user="xeen" changeset="2241366">
    <nd ref="25279952"/>
    <nd ref="472637248"/>
    <nd ref="466483776"/>
    <nd ref="25279953"/>
    <nd ref="372977316"/>
    <nd ref="25279954"/>
    <nd ref="314980620"/>
    <nd ref="25279958"/>
    <nd ref="314980622"/>
    <nd ref="25279959"/>
    <nd ref="25279960"/>
    <nd ref="310306160"/>
    <nd ref="25279964"/>
    <tag k="highway" v="residential"/>
    <tag k="maxspeed" v="30"/>
    <tag k="name" v="Neue Anlage"/>
  </way>
  <way id="4234771" version="13" timestamp="2010-07-05T16:31:51Z" uid="140064" user="debfreak" changeset="5143375">
    <nd ref="25279954"/>
    <nd ref="372977316"/>
    <nd ref="25279953"/>
    <nd ref="466483776"/>
    <nd ref="472637248"/>
    <nd ref="25279952"/>
    <nd ref="60700772"/>
    <nd ref="60700773"/>
    <nd ref="60700774"/>
    <nd ref="310306153"/>
    <nd ref="60700775"/>
    <nd ref="60700776"/>
    <nd ref="60700777"/>
    <nd ref="60700778"/>
    <tag k="highway" v="residential"/>
    <tag k="maxspeed" v="30"/>
    <tag k="name" v="Jahnstraße"/>
  </way>
  <way id="4234814" version="2" timestamp="2008-06-09T15:11:36Z" uid="33382" user="de_muur" changeset="106859">
    <nd ref="24911559"/>
    <nd ref="269361419"/>
    <nd ref="24933952"/>
    <nd ref="24933945"/>
    <nd ref="24933940"/>
    <nd ref="269361571"/>
    <nd ref="24933954"/>
    <nd ref="24933961"/>
    <nd ref="24933965"/>
    <nd ref="24933997"/>
    <nd ref="24933999"/>
    <nd ref="24934008"/>
    <nd ref="24934011"/>
    <nd ref="24934015"/>
    <nd ref="24934022"/>
    <nd ref="24934030"/>
    <nd ref="24934035"/>
    <tag k="created_by" v="JOSM"/>
    <tag k="highway" v="secondary"/>
    <tag k="lit" v="no"/>
    <tag k="name" v="Trittauerfeld"/>
  </way>
  <way id="4234814" version="3" timestamp="2008-07-23T20:56:19Z" uid="17933" user="abunai" changeset="581531">
    <nd ref="24911564"/>
    <nd ref="24911563"/>
    <nd ref="24911562"/>
    <nd ref="104157804"/>
    <nd ref="24911561"/>
    <nd ref="24911560"/>
    <nd ref="24911559"/>
    <nd ref="269361419"/>
    <nd ref="24933952"/>
    <nd ref="24933945"/>
    <nd ref="24933940"/>
    <nd ref="269361571"/>
    <nd ref="24933954"/>
    <nd ref="24933961"/>
    <nd ref="24933965"/>
    <nd ref="24933997"/>
    <nd ref="24933999"/>
    <nd ref="24934008"/>
    <nd ref="24934011"/>
    <nd ref="24934015"/>
    <nd ref="24934022"/>
    <nd ref="24934030"/>
    <nd ref="24934035"/>
    <tag k="created_by" v="JOSM"/>
    <tag k="highway" v="secondary"/>
    <tag k="lit" v="no"/>
    <tag k="maxspeed" v="60"/>
    <tag k="name" v="Trittauerfeld"/>
  </way>
  <way id="4234814" version="4" timestamp="2008-08-27T16:35:34Z" uid="33382" user="de_muur" changeset="430610">
    <nd ref="24911564"/>
    <nd ref="24911563"/>
    <nd ref="24911562"/>
    <nd ref="104157804"/>
    <nd ref="24911561"/>
    <nd ref="24911560"/>
    <nd ref="24911559"/>
    <nd ref="269361419"/>
    <nd ref="24933952"/>
    <nd ref="24933945"/>
    <nd ref="24933940"/>
    <nd ref="269361571"/>
    <nd ref="24933954"/>
    <nd ref="24933961"/>
    <nd ref="24933965"/>
    <nd ref="24933997"/>
    <nd ref="24933999"/>
    <nd ref="24934008"/>
    <nd ref="24934011"/>
    <nd ref="24934015"/>
    <nd ref="24934022"/>
    <nd ref="24934030"/>
    <nd ref="24934035"/>
    <tag k="created_by" v="JOSM"/>
    <tag k="highway" v="secondary"/>
    <tag k="lit" v="no"/>
    <tag k="maxspeed" v="60"/>
    <tag k="name" v="Trittauerfeld"/>
    <tag k="ref" v="L 93"/>
  </way>
  <way id="4234814" version="5" timestamp="2009-04-14T15:50:21Z" uid="17933" user="abunai" changeset="526776">
    <nd ref="24911564"/>
    <nd ref="24911563"/>
    <nd ref="24911562"/>
    <nd ref="104157804"/>
    <nd ref="24911561"/>
    <nd ref="24911560"/>
    <nd ref="24911559"/>
    <nd ref="269361419"/>
    <nd ref="24933952"/>
    <nd ref="24933945"/>
    <nd ref="24933940"/>
    <nd ref="269361571"/>
    <nd ref="24933954"/>
    <nd ref="24933961"/>
    <nd ref="24933965"/>
    <nd ref="24933999"/>
    <nd ref="24934008"/>
    <nd ref="24934011"/>
    <nd ref="24934015"/>
    <nd ref="24934022"/>
    <nd ref="24934030"/>
    <nd ref="24934035"/>
    <tag k="created_by" v="JOSM"/>
    <tag k="highway" v="secondary"/>
    <tag k="lit" v="no"/>
    <tag k="maxspeed" v="60"/>
    <tag k="name" v="Trittauerfeld"/>
    <tag k="ref" v="L 93"/>
  </way>
  <way id="4234814" version="6" timestamp="2012-03-13T09:44:04Z" uid="626901" user="smielich" changeset="10964622">
    <nd ref="24911564"/>
    <nd ref="24911563"/>
    <nd ref="24911562"/>
    <nd ref="104157804"/>
    <nd ref="24911561"/>
    <nd ref="24911560"/>
    <nd ref="24911559"/>
    <nd ref="269361419"/>
    <nd ref="24933952"/>
    <nd ref="24933945"/>
    <nd ref="24933940"/>
    <nd ref="269361571"/>
    <nd ref="24933954"/>
    <tag k="highway" v="secondary"/>
    <tag k="lit" v="no"/>
    <tag k="maxspeed" v="60"/>
    <tag k="name" v="Trittauerfeld"/>
    <tag k="ref" v="L 93"/>
  </way>
  <way id="4234814" version="7" timestamp="2012-03-26T19:31:20Z" uid="349191" user="Glühwürmchen" changeset="11109456"/>
  <way id="4234815" version="2" timestamp="2008-05-14T13:02:36Z" uid="27600" user="Islanit" changeset="444039">
    <nd ref="24934035"/>
    <nd ref="24934040"/>
    <nd ref="24934044"/>
    <nd ref="24933935"/>
    <nd ref="24933931"/>
    <nd ref="24933926"/>
    <nd ref="24933918"/>
    <nd ref="24933914"/>
    <nd ref="24933909"/>
    <nd ref="24933905"/>
    <nd ref="24933886"/>
    <nd ref="264495979"/>
    <nd ref="24933879"/>
    <nd ref="24933871"/>
    <nd ref="24933866"/>
    <nd ref="24933862"/>
    <nd ref="24933859"/>
    <nd ref="24933853"/>
    <nd ref="24933851"/>
    <nd ref="24933845"/>
    <nd ref="24933841"/>
    <tag k="created_by" v="Potlatch 0.9a"/>
    <tag k="highway" v="secondary"/>
    <tag k="name" v="Trittauer Straße"/>
  </way>
  <way id="4234815" version="3" timestamp="2008-06-02T14:44:18Z" uid="41051" user="Ennox" changeset="20796">
    <nd ref="24934035"/>
    <nd ref="24934040"/>
    <nd ref="24934044"/>
    <nd ref="24933935"/>
    <nd ref="24933931"/>
    <nd ref="24933926"/>
    <nd ref="24933918"/>
    <nd ref="24933914"/>
    <nd ref="24933909"/>
    <nd ref="24933905"/>
    <nd ref="24933886"/>
    <nd ref="264495979"/>
    <nd ref="24933879"/>
    <nd ref="24933871"/>
    <nd ref="24933866"/>
    <nd ref="24933862"/>
    <nd ref="24933859"/>
    <nd ref="24933853"/>
    <nd ref="24933851"/>
    <nd ref="24933845"/>
    <nd ref="24933841"/>
    <tag k="created_by" v="Potlatch 0.9c"/>
    <tag k="highway" v="secondary"/>
    <tag k="name" v="Trittauer Straße"/>
    <tag k="ref" v="L93"/>
  </way>
  <way id="4234815" version="4" timestamp="2008-06-02T14:44:42Z" uid="41051" user="Ennox" changeset="20796">
    <nd ref="24934035"/>
    <nd ref="24934040"/>
    <nd ref="24934044"/>
    <nd ref="24933935"/>
    <nd ref="24933931"/>
    <nd ref="24933926"/>
    <nd ref="24933918"/>
    <nd ref="24933914"/>
    <nd ref="24933909"/>
    <nd ref="24933905"/>
    <nd ref="24933886"/>
    <nd ref="264495979"/>
    <nd ref="24933879"/>
    <nd ref="24933871"/>
    <nd ref="24933866"/>
    <nd ref="24933862"/>
    <nd ref="24933859"/>
    <nd ref="268083220"/>
    <nd ref="24933853"/>
    <nd ref="24933851"/>
    <nd ref="24933845"/>
    <nd ref="24933841"/>
    <tag k="created_by" v="Potlatch 0.9c"/>
    <tag k="highway" v="secondary"/>
    <tag k="name" v="Trittauer Straße"/>
    <tag k="ref" v="L93"/>
  </way>
  <way id="4234815" version="5" timestamp="2008-06-03T09:31:58Z" uid="41051" user="Ennox" changeset="29128">
    <nd ref="24934035"/>
    <nd ref="24934040"/>
    <nd ref="24934044"/>
    <nd ref="24933935"/>
    <nd ref="24933931"/>
    <nd ref="24933926"/>
    <nd ref="24933918"/>
    <nd ref="24933914"/>
    <nd ref="24933909"/>
    <nd ref="24933905"/>
    <nd ref="24933886"/>
    <nd ref="264495979"/>
    <nd ref="24933879"/>
    <nd ref="24933871"/>
    <nd ref="24933866"/>
    <nd ref="24933862"/>
    <nd ref="24933859"/>
    <nd ref="268083220"/>
    <nd ref="24933853"/>
    <nd ref="24933851"/>
    <nd ref="24933845"/>
    <nd ref="24933841"/>
    <tag k="created_by" v="Potlatch 0.9c"/>
    <tag k="highway" v="secondary"/>
    <tag k="name" v="Trittauer Straße"/>
    <tag k="ref" v="L93"/>
  </way>
  <way id="4234815" version="6" timestamp="2008-06-09T15:11:35Z" uid="33382" user="de_muur" changeset="106859">
    <nd ref="24934035"/>
    <nd ref="24934040"/>
    <nd ref="269361428"/>
    <nd ref="24934044"/>
    <nd ref="24933935"/>
    <nd ref="24933931"/>
    <nd ref="24933926"/>
    <nd ref="24933918"/>
    <nd ref="24933914"/>
    <nd ref="24933909"/>
    <nd ref="24933905"/>
    <nd ref="24933886"/>
    <nd ref="264495979"/>
    <nd ref="24933879"/>
    <nd ref="24933871"/>
    <nd ref="24933866"/>
    <nd ref="24933862"/>
    <nd ref="24933859"/>
    <nd ref="268083220"/>
    <nd ref="24933853"/>
    <nd ref="24933851"/>
    <nd ref="24933845"/>
    <nd ref="24933841"/>
    <tag k="created_by" v="Potlatch 0.9c"/>
    <tag k="highway" v="secondary"/>
    <tag k="name" v="Trittauer Straße"/>
    <tag k="ref" v="L93"/>
  </way>
  <way id="4234815" version="7" timestamp="2008-07-22T22:56:26Z" uid="23448" user="SvenR" changeset="577402">
    <nd ref="24934035"/>
    <nd ref="24934040"/>
    <nd ref="269361428"/>
    <nd ref="24934044"/>
    <nd ref="24933935"/>
    <nd ref="24933931"/>
    <nd ref="24933926"/>
    <nd ref="24933918"/>
    <nd ref="24933914"/>
    <nd ref="24933909"/>
    <nd ref="24933905"/>
    <nd ref="264495979"/>
    <nd ref="24933879"/>
    <nd ref="24933871"/>
    <nd ref="24933866"/>
    <nd ref="24933862"/>
    <nd ref="24933859"/>
    <nd ref="268083220"/>
    <nd ref="24933853"/>
    <nd ref="24933851"/>
    <nd ref="24933845"/>
    <nd ref="24933841"/>
    <tag k="created_by" v="Potlatch 0.10"/>
    <tag k="highway" v="secondary"/>
    <tag k="name" v="Trittauer Straße"/>
    <tag k="ref" v="L93"/>
  </way>
  <way id="4234815" version="8" timestamp="2008-07-22T23:12:17Z" uid="23448" user="SvenR" changeset="577402">
    <nd ref="24934035"/>
    <nd ref="24934040"/>
    <nd ref="269361428"/>
    <nd ref="24934044"/>
    <nd ref="24933935"/>
    <nd ref="24933931"/>
    <nd ref="24933926"/>
    <nd ref="24933918"/>
    <nd ref="24933914"/>
    <nd ref="24933909"/>
    <nd ref="24933905"/>
    <nd ref="264495979"/>
    <nd ref="24933879"/>
    <nd ref="24933871"/>
    <nd ref="24933866"/>
    <nd ref="280367981"/>
    <nd ref="24933862"/>
    <nd ref="24933859"/>
    <nd ref="268083220"/>
    <nd ref="24933853"/>
    <nd ref="24933851"/>
    <nd ref="24933845"/>
    <nd ref="24933841"/>
    <tag k="created_by" v="Potlatch 0.10"/>
    <tag k="highway" v="secondary"/>
    <tag k="name" v="Trittauer Straße"/>
    <tag k="ref" v="L93"/>
  </way>
  <way id="4234815" version="9" timestamp="2008-08-24T15:11:51Z" uid="24920" user="Schusch" changeset="389419">
    <nd ref="24934035"/>
    <nd ref="24934040"/>
    <nd ref="269361428"/>
    <nd ref="24934044"/>
    <nd ref="24933935"/>
    <nd ref="24933931"/>
    <nd ref="24933926"/>
    <nd ref="24933918"/>
    <nd ref="24933914"/>
    <nd ref="24933909"/>
    <nd ref="24933905"/>
    <nd ref="264495979"/>
    <nd ref="24933879"/>
    <nd ref="24933871"/>
    <nd ref="24933866"/>
    <nd ref="280367981"/>
    <nd ref="24933862"/>
    <nd ref="24933859"/>
    <nd ref="268083220"/>
    <nd ref="24933853"/>
    <nd ref="24933851"/>
    <nd ref="24933845"/>
    <nd ref="24933841"/>
    <tag k="created_by" v="Potlatch 0.10"/>
    <tag k="highway" v="secondary"/>
    <tag k="name" v="Trittauer Straße"/>
    <tag k="ref" v="L 93"/>
  </way>
  <way id="4234815" version="10" timestamp="2008-09-13T16:09:26Z" uid="23448" user="SvenR" changeset="622010">
    <nd ref="24934035"/>
    <nd ref="24934040"/>
    <nd ref="269361428"/>
    <nd ref="24934044"/>
    <nd ref="24933935"/>
    <nd ref="24933931"/>
    <nd ref="24933926"/>
    <nd ref="24933918"/>
    <nd ref="24933914"/>
    <nd ref="24933909"/>
    <nd ref="24933905"/>
    <nd ref="264495979"/>
    <nd ref="24933879"/>
    <nd ref="24933871"/>
    <nd ref="24933866"/>
    <nd ref="280367981"/>
    <nd ref="24933862"/>
    <nd ref="24933859"/>
    <nd ref="268083220"/>
    <nd ref="24933853"/>
    <nd ref="24933851"/>
    <nd ref="24933845"/>
    <nd ref="296400822"/>
    <nd ref="24933841"/>
    <tag k="created_by" v="Potlatch 0.10b"/>
    <tag k="highway" v="secondary"/>
    <tag k="name" v="Trittauer Straße"/>
    <tag k="ref" v="L 93"/>
  </way>
  <way id="4234815" version="11" timestamp="2009-05-19T10:35:23Z" uid="64255" user="look4book" changeset="1247134">
    <nd ref="24934035"/>
    <nd ref="24934040"/>
    <nd ref="269361428"/>
    <nd ref="24934044"/>
    <nd ref="24933935"/>
    <nd ref="24933931"/>
    <nd ref="24933926"/>
    <nd ref="24933918"/>
    <nd ref="24933914"/>
    <nd ref="24933909"/>
    <nd ref="24933905"/>
    <nd ref="264495979"/>
    <tag k="created_by" v="Potlatch 0.10b"/>
    <tag k="highway" v="secondary"/>
    <tag k="name" v="Trittauer Straße"/>
    <tag k="ref" v="L 93"/>
  </way>
  <way id="4234815" version="12" timestamp="2009-05-19T10:35:27Z" uid="64255" user="look4book" changeset="1247134">
    <nd ref="24934035"/>
    <nd ref="24934040"/>
    <nd ref="269361428"/>
    <nd ref="24934044"/>
    <nd ref="24933935"/>
    <nd ref="24933931"/>
    <tag k="created_by" v="Potlatch 0.10b"/>
    <tag k="highway" v="secondary"/>
    <tag k="name" v="Trittauer Straße"/>
    <tag k="ref" v="L 93"/>
  </way>
  <way id="4234815" version="13" timestamp="2012-03-13T13:50:47Z" uid="626901" user="smielich" changeset="10966826">
    <nd ref="24934035"/>
    <nd ref="24934040"/>
    <nd ref="269361428"/>
    <nd ref="24934044"/>
    <nd ref="24933935"/>
    <nd ref="24933931"/>
    <tag k="bicycle" v="yes"/>
    <tag k="cycleway" v="track"/>
    <tag k="highway" v="secondary"/>
    <tag k="maxspeed" v="50"/>
    <tag k="name" v="Trittauer Straße"/>
    <tag k="ref" v="L 93"/>
  </way>
  <way id="4234815" version="14" timestamp="2012-03-26T19:41:12Z" uid="349191" user="Glühwürmchen" changeset="11109456"/>
  <way id="4234816" version="5" timestamp="2008-05-14T13:03:51Z" uid="27600" user="Islanit" changeset="444039">
    <nd ref="24933841"/>
    <nd ref="24933839"/>
    <nd ref="24933836"/>
    <nd ref="24933833"/>
    <nd ref="24933831"/>
    <nd ref="264496042"/>
    <nd ref="24933829"/>
    <nd ref="24933819"/>
    <nd ref="21426616"/>
    <nd ref="21426617"/>
    <nd ref="21426619"/>
    <nd ref="21426620"/>
    <nd ref="21426621"/>
    <nd ref="21426622"/>
    <nd ref="21426623"/>
    <nd ref="21426626"/>
    <tag k="created_by" v="Potlatch 0.9a"/>
    <tag k="highway" v="secondary"/>
    <tag k="lit" v="no"/>
    <tag k="maxspeed" v="50"/>
    <tag k="name" v="Lütjenseer Straße; Sieker Landstraße"/>
  </way>
  <way id="4234816" version="6" timestamp="2008-06-02T14:40:18Z" uid="41051" user="Ennox" changeset="20796">
    <nd ref="24933841"/>
    <nd ref="24933839"/>
    <nd ref="24933836"/>
    <nd ref="24933833"/>
    <nd ref="24933831"/>
    <nd ref="264496042"/>
    <nd ref="24933829"/>
    <nd ref="24933819"/>
    <nd ref="21426616"/>
    <nd ref="21426617"/>
    <nd ref="21426619"/>
    <nd ref="21426620"/>
    <nd ref="21426621"/>
    <nd ref="268082918"/>
    <nd ref="21426622"/>
    <nd ref="268082919"/>
    <nd ref="21426623"/>
    <nd ref="21426626"/>
    <tag k="created_by" v="Potlatch 0.9c"/>
    <tag k="highway" v="secondary"/>
    <tag k="lit" v="no"/>
    <tag k="maxspeed" v="50"/>
    <tag k="name" v="Lütjenseer Straße; Sieker Landstraße"/>
  </way>
  <way id="4234816" version="7" timestamp="2008-06-02T14:43:34Z" uid="41051" user="Ennox" changeset="20796">
    <nd ref="24933841"/>
    <nd ref="24933839"/>
    <nd ref="24933836"/>
    <nd ref="24933833"/>
    <nd ref="24933831"/>
    <nd ref="264496042"/>
    <nd ref="24933829"/>
    <nd ref="24933819"/>
    <nd ref="21426616"/>
    <tag k="created_by" v="Potlatch 0.9c"/>
    <tag k="highway" v="secondary"/>
    <tag k="lit" v="no"/>
    <tag k="maxspeed" v="50"/>
    <tag k="name" v="Lütjenseer Straße; Sieker Landstraße"/>
  </way>
  <way id="4234816" version="8" timestamp="2008-06-02T14:44:19Z" uid="41051" user="Ennox" changeset="20796">
    <nd ref="24933841"/>
    <nd ref="24933839"/>
    <nd ref="24933836"/>
    <nd ref="24933833"/>
    <nd ref="24933831"/>
    <nd ref="264496042"/>
    <nd ref="24933829"/>
    <nd ref="24933819"/>
    <nd ref="21426616"/>
    <tag k="created_by" v="Potlatch 0.9c"/>
    <tag k="highway" v="secondary"/>
    <tag k="lit" v="no"/>
    <tag k="maxspeed" v="50"/>
    <tag k="name" v="Lütjenseer Straße; Sieker Landstraße"/>
    <tag k="ref" v="L92"/>
  </way>
  <way id="4234816" version="9" timestamp="2008-06-03T09:32:43Z" uid="41051" user="Ennox" changeset="29128">
    <nd ref="24933841"/>
    <nd ref="268201314"/>
    <nd ref="24933839"/>
    <nd ref="24933836"/>
    <nd ref="24933833"/>
    <nd ref="24933831"/>
    <nd ref="264496042"/>
    <nd ref="24933829"/>
    <nd ref="24933819"/>
    <nd ref="21426616"/>
    <tag k="created_by" v="Potlatch 0.9c"/>
    <tag k="highway" v="secondary"/>
    <tag k="lit" v="no"/>
    <tag k="maxspeed" v="50"/>
    <tag k="name" v="Lütjenseer Straße; Sieker Landstraße"/>
    <tag k="ref" v="L92"/>
  </way>
  <way id="4234816" version="10" timestamp="2008-06-03T09:33:52Z" uid="41051" user="Ennox" changeset="29128">
    <nd ref="24933841"/>
    <nd ref="268201314"/>
    <nd ref="24933839"/>
    <nd ref="24933836"/>
    <nd ref="24933833"/>
    <nd ref="268201343"/>
    <nd ref="24933831"/>
    <nd ref="264496042"/>
    <nd ref="24933829"/>
    <nd ref="24933819"/>
    <nd ref="21426616"/>
    <tag k="created_by" v="Potlatch 0.9c"/>
    <tag k="highway" v="secondary"/>
    <tag k="lit" v="no"/>
    <tag k="maxspeed" v="50"/>
    <tag k="name" v="Lütjenseer Straße; Sieker Landstraße"/>
    <tag k="ref" v="L92"/>
  </way>
  <way id="4234816" version="11" timestamp="2008-08-24T15:12:01Z" uid="24920" user="Schusch" changeset="389419">
    <nd ref="24933841"/>
    <nd ref="268201314"/>
    <nd ref="24933839"/>
    <nd ref="24933836"/>
    <nd ref="24933833"/>
    <nd ref="268201343"/>
    <nd ref="24933831"/>
    <nd ref="264496042"/>
    <nd ref="24933829"/>
    <nd ref="24933819"/>
    <nd ref="21426616"/>
    <tag k="created_by" v="Potlatch 0.9c"/>
    <tag k="highway" v="secondary"/>
    <tag k="lit" v="no"/>
    <tag k="maxspeed" v="50"/>
    <tag k="name" v="Lütjenseer Straße; Sieker Landstraße"/>
    <tag k="ref" v="L 92"/>
  </way>
  <way id="4234816" version="12" timestamp="2008-09-13T16:09:36Z" uid="23448" user="SvenR" changeset="622010">
    <nd ref="24933841"/>
    <nd ref="296400872"/>
    <nd ref="268201314"/>
    <nd ref="24933839"/>
    <nd ref="24933836"/>
    <nd ref="24933833"/>
    <nd ref="268201343"/>
    <nd ref="24933831"/>
    <nd ref="264496042"/>
    <nd ref="24933829"/>
    <nd ref="24933819"/>
    <nd ref="21426616"/>
    <tag k="created_by" v="Potlatch 0.10b"/>
    <tag k="highway" v="secondary"/>
    <tag k="lit" v="no"/>
    <tag k="maxspeed" v="50"/>
    <tag k="name" v="Lütjenseer Straße; Sieker Landstraße"/>
    <tag k="ref" v="L 92"/>
  </way>
  <way id="4234816" version="13" timestamp="2008-09-13T16:10:51Z" uid="23448" user="SvenR" changeset="622010">
    <nd ref="24933841"/>
    <nd ref="296400872"/>
    <nd ref="268201314"/>
    <nd ref="24933839"/>
    <nd ref="24933836"/>
    <nd ref="24933833"/>
    <nd ref="268201343"/>
    <nd ref="24933831"/>
    <nd ref="264496042"/>
    <nd ref="24933829"/>
    <nd ref="24933819"/>
    <nd ref="21426616"/>
    <tag k="created_by" v="Potlatch 0.10b"/>
    <tag k="highway" v="secondary"/>
    <tag k="lit" v="no"/>
    <tag k="maxspeed" v="50"/>
    <tag k="name" v="Lütjenseer Straße"/>
    <tag k="ref" v="L 92"/>
  </way>
  <way id="4234816" version="14" timestamp="2008-09-13T16:13:54Z" uid="23448" user="SvenR" changeset="622010">
    <nd ref="24933841"/>
    <nd ref="296400872"/>
    <nd ref="268201314"/>
    <nd ref="24933839"/>
    <nd ref="24933836"/>
    <nd ref="296402910"/>
    <nd ref="24933833"/>
    <nd ref="268201343"/>
    <nd ref="24933831"/>
    <nd ref="264496042"/>
    <nd ref="24933829"/>
    <nd ref="24933819"/>
    <nd ref="21426616"/>
    <tag k="created_by" v="Potlatch 0.10b"/>
    <tag k="highway" v="secondary"/>
    <tag k="lit" v="no"/>
    <tag k="maxspeed" v="50"/>
    <tag k="name" v="Lütjenseer Straße"/>
    <tag k="ref" v="L 92"/>
  </way>
  <way id="4234816" version="15" timestamp="2008-09-13T16:14:05Z" uid="23448" user="SvenR" changeset="622010">
    <nd ref="24933841"/>
    <nd ref="296400872"/>
    <nd ref="268201314"/>
    <nd ref="24933839"/>
    <nd ref="24933836"/>
    <nd ref="296403046"/>
    <nd ref="24933833"/>
    <nd ref="268201343"/>
    <nd ref="24933831"/>
    <nd ref="264496042"/>
    <nd ref="24933829"/>
    <nd ref="24933819"/>
    <nd ref="21426616"/>
    <tag k="created_by" v="Potlatch 0.10b"/>
    <tag k="highway" v="secondary"/>
    <tag k="lit" v="no"/>
    <tag k="maxspeed" v="50"/>
    <tag k="name" v="Lütjenseer Straße"/>
    <tag k="ref" v="L 92"/>
  </way>
  <way id="4234816" version="16" timestamp="2009-08-20T10:35:37Z" uid="33382" user="de_muur" changeset="2210653">
    <nd ref="24933841"/>
    <nd ref="296400872"/>
    <nd ref="268201314"/>
    <nd ref="24933839"/>
    <nd ref="24933836"/>
    <nd ref="296403046"/>
    <nd ref="24933833"/>
    <nd ref="268201343"/>
    <nd ref="24933831"/>
    <nd ref="264496042"/>
    <nd ref="24933829"/>
    <nd ref="24933819"/>
    <nd ref="471407877"/>
    <nd ref="21426616"/>
    <tag k="created_by" v="Potlatch 0.10b"/>
    <tag k="highway" v="secondary"/>
    <tag k="lit" v="no"/>
    <tag k="maxspeed" v="50"/>
    <tag k="name" v="Lütjenseer Straße"/>
    <tag k="ref" v="L 92"/>
  </way>
  <way id="4234816" version="17" timestamp="2009-09-22T16:51:51Z" uid="4902" user="mbuege" changeset="2573641">
    <nd ref="24933841"/>
    <nd ref="296400872"/>
    <nd ref="268201314"/>
    <nd ref="24933839"/>
    <nd ref="24933836"/>
    <nd ref="296403046"/>
    <nd ref="24933833"/>
    <nd ref="268201343"/>
    <nd ref="24933831"/>
    <nd ref="264496042"/>
    <nd ref="24933829"/>
    <nd ref="505400929"/>
    <nd ref="24933819"/>
    <tag k="highway" v="secondary"/>
    <tag k="lit" v="no"/>
    <tag k="maxspeed" v="50"/>
    <tag k="name" v="Lütjenseer Straße"/>
    <tag k="ref" v="L 92"/>
  </way>
  <way id="4234816" version="18" timestamp="2009-09-25T15:39:51Z" uid="33382" user="de_muur" changeset="2621799">
    <nd ref="24933841"/>
    <nd ref="296400872"/>
    <nd ref="268201314"/>
    <nd ref="24933839"/>
    <nd ref="24933836"/>
    <nd ref="296403046"/>
    <nd ref="24933833"/>
    <nd ref="268201343"/>
    <nd ref="24933831"/>
    <nd ref="264496042"/>
    <nd ref="24933829"/>
    <nd ref="505400929"/>
    <nd ref="24933819"/>
    <tag k="highway" v="secondary"/>
    <tag k="lit" v="no"/>
    <tag k="maxspeed" v="50"/>
    <tag k="name" v="Lütjenseer Straße"/>
    <tag k="ref" v="L 92"/>
    <tag k="surface" v="paved"/>
  </way>
  <way id="4234816" version="19" timestamp="2010-09-13T11:28:51Z" uid="73358" user="Bindeking" changeset="5768622">
    <nd ref="24933841"/>
    <nd ref="296400872"/>
    <nd ref="268201314"/>
    <tag k="highway" v="secondary"/>
    <tag k="lit" v="no"/>
    <tag k="maxspeed" v="50"/>
    <tag k="name" v="Lütjenseer Straße"/>
    <tag k="ref" v="L 92"/>
    <tag k="surface" v="paved"/>
  </way>
  <way id="4234817" version="10" timestamp="2009-09-25T15:39:51Z" uid="33382" user="de_muur" changeset="2621799">
    <nd ref="21426599"/>
    <nd ref="268072677"/>
    <nd ref="21720825"/>
    <nd ref="267356308"/>
    <nd ref="21720833"/>
    <nd ref="21720834"/>
    <nd ref="21720835"/>
    <nd ref="21720836"/>
    <nd ref="21720838"/>
    <tag k="cycleway" v="track"/>
    <tag k="foot" v="yes"/>
    <tag k="highway" v="secondary"/>
    <tag k="horse" v="no"/>
    <tag k="layer" v="1"/>
    <tag k="lcn" v="yes"/>
    <tag k="maxspeed" v="50"/>
    <tag k="name" v="Großenseer Straße"/>
    <tag k="ref" v="L 92"/>
  </way>
  <way id="4234817" version="11" timestamp="2010-08-24T07:09:37Z" uid="33382" user="de_muur" changeset="5577573">
    <nd ref="838731254"/>
    <nd ref="268072677"/>
    <nd ref="21720825"/>
    <nd ref="267356308"/>
    <nd ref="21720833"/>
    <nd ref="21720834"/>
    <nd ref="21720835"/>
    <nd ref="21720836"/>
    <nd ref="21720838"/>
    <tag k="cycleway" v="track"/>
    <tag k="foot" v="yes"/>
    <tag k="highway" v="secondary"/>
    <tag k="horse" v="no"/>
    <tag k="layer" v="1"/>
    <tag k="lcn" v="yes"/>
    <tag k="maxspeed" v="50"/>
    <tag k="name" v="Großenseer Straße"/>
    <tag k="ref" v="L 92"/>
  </way>
  <way id="4234817" version="12" timestamp="2012-03-26T17:46:05Z" uid="349191" user="Glühwürmchen" changeset="11108243"/>
  <way id="4234820" version="11" timestamp="2009-09-25T15:39:51Z" uid="33382" user="de_muur" changeset="2621799">
    <nd ref="21426616"/>
    <nd ref="505400922"/>
    <nd ref="296403831"/>
    <nd ref="296403832"/>
    <nd ref="248185610"/>
    <nd ref="21426614"/>
    <nd ref="505400931"/>
    <nd ref="21426613"/>
    <nd ref="505400932"/>
    <nd ref="21426612"/>
    <nd ref="504656353"/>
    <nd ref="21426611"/>
    <nd ref="21426610"/>
    <nd ref="21426609"/>
    <nd ref="21426608"/>
    <nd ref="504656357"/>
    <tag k="highway" v="secondary"/>
    <tag k="lit" v="no"/>
    <tag k="maxspeed" v="70"/>
    <tag k="name" v="Pfefferberg"/>
    <tag k="ref" v="L 92"/>
    <tag k="surface" v="paved"/>
  </way>
  <way id="4234820" version="12" timestamp="2010-01-13T14:16:12Z" uid="72151" user="GeorgFausB" changeset="3610220">
    <nd ref="21426616"/>
    <nd ref="505400922"/>
    <nd ref="296403831"/>
    <nd ref="296403832"/>
    <tag k="highway" v="secondary"/>
    <tag k="lit" v="no"/>
    <tag k="maxspeed" v="70"/>
    <tag k="name" v="Pfefferberg"/>
    <tag k="ref" v="L 92"/>
    <tag k="surface" v="paved"/>
  </way>
  <way id="4234820" version="13" timestamp="2012-03-22T21:07:26Z" uid="423438" user="streele" changeset="11067867">
    <nd ref="505400922"/>
    <nd ref="296403831"/>
    <nd ref="296403832"/>
    <tag k="highway" v="secondary"/>
    <tag k="lit" v="no"/>
    <tag k="maxspeed" v="70"/>
    <tag k="name" v="Pfefferberg"/>
    <tag k="ref" v="L 92"/>
    <tag k="surface" v="paved"/>
  </way>
  <way id="4234825" version="2" timestamp="2008-08-24T17:39:46Z" uid="33382" user="de_muur" changeset="388515">
    <nd ref="21426626"/>
    <nd ref="21426627"/>
    <nd ref="21426628"/>
    <nd ref="21426629"/>
    <nd ref="21426630"/>
    <nd ref="21426624"/>
    <nd ref="21426625"/>
    <nd ref="21426626"/>
    <tag k="created_by" v="JOSM"/>
    <tag k="highway" v="secondary"/>
    <tag k="junction" v="roundabout"/>
    <tag k="lit" v="yes"/>
  </way>
  <way id="4234825" version="3" timestamp="2008-09-14T00:47:54Z" uid="23448" user="SvenR" changeset="629954">
    <nd ref="21426626"/>
    <nd ref="21426627"/>
    <nd ref="21426628"/>
    <nd ref="21426629"/>
    <nd ref="21426630"/>
    <nd ref="21426624"/>
    <nd ref="21426625"/>
    <nd ref="21426626"/>
    <tag k="created_by" v="Potlatch 0.10b"/>
    <tag k="highway" v="secondary"/>
    <tag k="junction" v="roundabout"/>
    <tag k="lit" v="yes"/>
  </way>
  <way id="4234825" version="4" timestamp="2008-09-14T00:48:36Z" uid="23448" user="SvenR" changeset="629954">
    <nd ref="21426626"/>
    <nd ref="296695705"/>
    <nd ref="21426627"/>
    <nd ref="21426628"/>
    <nd ref="21426629"/>
    <nd ref="296695708"/>
    <nd ref="21426630"/>
    <nd ref="21426625"/>
    <nd ref="21426626"/>
    <tag k="created_by" v="Potlatch 0.10b"/>
    <tag k="highway" v="secondary"/>
    <tag k="junction" v="roundabout"/>
    <tag k="lit" v="yes"/>
  </way>
  <way id="4234825" version="5" timestamp="2008-09-14T00:49:02Z" uid="23448" user="SvenR" changeset="629954">
    <nd ref="21426626"/>
    <nd ref="296695705"/>
    <nd ref="21426627"/>
    <nd ref="21426628"/>
    <nd ref="21426629"/>
    <nd ref="296695950"/>
    <nd ref="21426630"/>
    <nd ref="21426625"/>
    <nd ref="21426626"/>
    <tag k="created_by" v="Potlatch 0.10b"/>
    <tag k="highway" v="secondary"/>
    <tag k="junction" v="roundabout"/>
    <tag k="lit" v="yes"/>
  </way>
  <way id="4234825" version="6" timestamp="2009-07-28T04:46:02Z" uid="4902" user="mbuege" changeset="1961346">
    <nd ref="21426616"/>
    <nd ref="296404197"/>
    <nd ref="296404199"/>
    <nd ref="21426617"/>
    <nd ref="305501199"/>
    <nd ref="296404202"/>
    <nd ref="21426619"/>
    <nd ref="410700070"/>
    <nd ref="21426620"/>
    <nd ref="21426621"/>
    <nd ref="268082918"/>
    <nd ref="21426622"/>
    <nd ref="268082919"/>
    <nd ref="21426626"/>
    <nd ref="296695705"/>
    <nd ref="21426627"/>
    <nd ref="21426628"/>
    <nd ref="21426629"/>
    <tag k="highway" v="secondary"/>
    <tag k="junction" v="roundabout"/>
    <tag k="lit" v="no"/>
    <tag k="maxspeed" v="50"/>
    <tag k="name" v="Sieker Landstraße"/>
    <tag k="ref" v="L 224"/>
  </way>
  <way id="4234825" version="7" timestamp="2009-08-15T19:17:12Z" uid="33382" user="de_muur" changeset="2157556">
    <nd ref="21426616"/>
    <nd ref="296404197"/>
    <nd ref="296404199"/>
    <nd ref="21426617"/>
    <nd ref="305501199"/>
    <nd ref="296404202"/>
    <nd ref="21426619"/>
    <nd ref="410700070"/>
    <nd ref="21426620"/>
    <nd ref="21426621"/>
    <nd ref="268082918"/>
    <nd ref="21426622"/>
    <nd ref="268082919"/>
    <nd ref="21426626"/>
    <tag k="highway" v="secondary"/>
    <tag k="lit" v="no"/>
    <tag k="maxspeed" v="50"/>
    <tag k="name" v="Sieker Landstraße"/>
    <tag k="ref" v="L 224"/>
  </way>
  <way id="4234825" version="8" timestamp="2009-09-22T16:51:50Z" uid="4902" user="mbuege" changeset="2573641">
    <nd ref="24933819"/>
    <nd ref="471407877"/>
    <nd ref="21426616"/>
    <nd ref="296404197"/>
    <nd ref="296404199"/>
    <nd ref="21426617"/>
    <nd ref="305501199"/>
    <nd ref="296404202"/>
    <nd ref="21426619"/>
    <nd ref="410700070"/>
    <nd ref="21426620"/>
    <nd ref="21426621"/>
    <nd ref="268082918"/>
    <nd ref="21426622"/>
    <nd ref="268082919"/>
    <nd ref="21426626"/>
    <tag k="highway" v="secondary"/>
    <tag k="lit" v="no"/>
    <tag k="maxspeed" v="50"/>
    <tag k="name" v="Sieker Landstraße"/>
    <tag k="ref" v="L 224"/>
  </way>
  <way id="4234825" version="9" timestamp="2009-09-25T15:39:53Z" uid="33382" user="de_muur" changeset="2621799">
    <nd ref="24933819"/>
    <nd ref="471407877"/>
    <tag k="highway" v="secondary"/>
    <tag k="lit" v="no"/>
    <tag k="maxspeed" v="50"/>
    <tag k="name" v="Sieker Landstraße"/>
    <tag k="ref" v="L 224"/>
    <tag k="surface" v="paved"/>
  </way>
  <way id="4234069" version="14" timestamp="2012-05-26T11:52:23Z" uid="5632" user="matt_gnu" changeset="11705832">
    <nd ref="30153062"/>
    <nd ref="1124989736"/>
    <nd ref="25250243"/>
    <nd ref="1124989926"/>
    <nd ref="1124989753"/>
    <nd ref="31092799"/>
    <nd ref="1124989855"/>
    <nd ref="25250244"/>
    <nd ref="25395545"/>
    <tag k="highway" v="trunk"/>
    <tag k="lanes" v="3"/>
    <tag k="lanes:through" v="2"/>
    <tag k="lanes:turnright" v="1"/>
    <tag k="maxspeed" v="70"/>
    <tag k="motorroad" v="yes"/>
    <tag k="name" v="Südtangente"/>
    <tag k="oneway" v="yes"/>
    <tag k="ref" v="K 9652"/>
    <tag k="tmc" v="DE:54873-30884"/>
  </way>
  <way id="4234069" version="15" timestamp="2012-07-19T18:52:56Z" uid="722137" user="OSMF Redaction Account" changeset="12343833">
    <nd ref="30153062"/>
    <nd ref="1124989736"/>
    <nd ref="25250243"/>
    <nd ref="1124989926"/>
    <nd ref="1124989753"/>
    <nd ref="31092799"/>
    <nd ref="1124989855"/>
    <nd ref="25250244"/>
    <nd ref="25395545"/>
    <tag k="highway" v="trunk"/>
    <tag k="lanes" v="3"/>
    <tag k="lanes:through" v="2"/>
    <tag k="lanes:turnright" v="1"/>
    <tag k="maxspeed" v="70"/>
    <tag k="name" v="Südtangente"/>
    <tag k="oneway" v="yes"/>
    <tag k="tmc" v="DE:54873-30884"/>
  </way>
  <way id="4234069" version="16" timestamp="2012-07-21T22:03:25Z" uid="165061" user="mapper999" changeset="12421189">
    <nd ref="30153062"/>
    <nd ref="1124989736"/>
    <nd ref="25250243"/>
    <nd ref="1124989926"/>
    <nd ref="1124989753"/>
    <nd ref="31092799"/>
    <nd ref="1124989855"/>
    <nd ref="25250244"/>
    <nd ref="25395545"/>
    <tag k="highway" v="trunk"/>
    <tag k="lanes" v="3"/>
    <tag k="lanes:through" v="2"/>
    <tag k="lanes:turnright" v="1"/>
    <tag k="maxspeed" v="70"/>
    <tag k="motorroad" v="yes"/>
    <tag k="name" v="Südtangente"/>
    <tag k="oneway" v="yes"/>
    <tag k="tmc" v="DE:54873-30884"/>
  </way>
  <way id="4234094" version="10" timestamp="2012-07-17T11:28:38Z" uid="722137" user="OSMF Redaction Account" changeset="12264157">
    <nd ref="25268439"/>
    <nd ref="251541091"/>
    <tag k="electrified" v="contact_line"/>
    <tag k="frequency" v="16.7"/>
    <tag k="gauge" v="1435"/>
    <tag k="name" v="Bremerhaven-Wunstorf"/>
    <tag k="railway" v="rail"/>
    <tag k="source" v="Landsat/Yahoo/GPS-Track"/>
    <tag k="voltage" v="15000"/>
    <tag k="VzG" v="1740"/>
  </way>
  <way id="4234248" version="5" timestamp="2012-05-01T15:00:19Z" uid="104962" user="techlady" changeset="11470174">
    <nd ref="25936356"/>
    <nd ref="25274508"/>
    <nd ref="1737360818"/>
    <tag k="highway" v="residential"/>
    <tag k="name" v="Atwater Avenue"/>
  </way>
  <way id="4234248" version="6" timestamp="2012-06-17T18:34:51Z" uid="104962" user="techlady" changeset="11928295"/>
  <way id="4234253" version="5" timestamp="2012-07-19T10:41:17Z" uid="722137" user="OSMF Redaction Account" changeset="12318977">
    <nd ref="18153994"/>
    <nd ref="365787785"/>
    <nd ref="365787786"/>
    <tag k="oneway" v="yes"/>
  </way>
  <way id="4234253" version="6" timestamp="2012-07-25T10:18:43Z" uid="351693" user="ctr112280" changeset="12484748">
    <nd ref="18153994"/>
    <nd ref="365787785"/>
    <nd ref="365787786"/>
    <nd ref="1837462656"/>
    <nd ref="1837462645"/>
    <nd ref="1837462654"/>
    <tag k="highway" v="motorway_link"/>
    <tag k="oneway" v="yes"/>
  </way>
  <way id="4234264" version="3" timestamp="2012-06-17T18:34:51Z" uid="104962" user="techlady" changeset="11928295"/>
  <way id="4234265" version="4" timestamp="2012-05-01T15:00:19Z" uid="104962" user="techlady" changeset="11470174">
    <nd ref="25274569"/>
    <nd ref="25274570"/>
    <tag k="highway" v="residential"/>
    <tag k="name" v="Carlton Street"/>
  </way>
  <way id="4234265" version="5" timestamp="2012-06-17T18:34:51Z" uid="104962" user="techlady" changeset="11928295"/>
  <way id="4234266" version="6" timestamp="2012-05-01T15:00:19Z" uid="104962" user="techlady" changeset="11470174">
    <nd ref="25274573"/>
    <nd ref="1041280058"/>
    <nd ref="1041280059"/>
    <nd ref="1041280060"/>
    <tag k="highway" v="residential"/>
    <tag k="name" v="Casitas Avenue"/>
  </way>
  <way id="4234266" version="7" timestamp="2012-06-17T18:34:51Z" uid="104962" user="techlady" changeset="11928295"/>
  <way id="4234268" version="6" timestamp="2012-05-01T15:00:19Z" uid="104962" user="techlady" changeset="11470174">
    <nd ref="25274577"/>
    <nd ref="1041280187"/>
    <tag k="highway" v="residential"/>
    <tag k="name" v="Casitas Avenue"/>
  </way>
  <way id="4234268" version="7" timestamp="2012-06-17T18:34:51Z" uid="104962" user="techlady" changeset="11928295"/>
  <way id="4234269" version="4" timestamp="2012-05-01T15:00:18Z" uid="104962" user="techlady" changeset="11470174">
    <nd ref="26068270"/>
    <nd ref="26068271"/>
    <tag k="highway" v="residential"/>
    <tag k="name" v="Minneapolis Street"/>
  </way>
  <way id="4234269" version="5" timestamp="2012-06-17T18:34:51Z" uid="104962" user="techlady" changeset="11928295"/>
  <way id="4234270" version="4" timestamp="2012-05-01T15:00:18Z" uid="104962" user="techlady" changeset="11470174">
    <nd ref="25936359"/>
    <nd ref="25583745"/>
    <nd ref="25274580"/>
    <nd ref="25583746"/>
    <tag k="highway" v="residential"/>
    <tag k="name" v="La Clede Avenue"/>
  </way>
  <way id="4234270" version="5" timestamp="2012-06-17T18:34:51Z" uid="104962" user="techlady" changeset="11928295"/>
  <way id="4234633" version="6" timestamp="2012-07-17T13:31:20Z" uid="722137" user="OSMF Redaction Account" changeset="12266545">
    <nd ref="25278246"/>
    <nd ref="25278242"/>
    <tag k="bridge" v="yes"/>
    <tag k="highway" v="footway"/>
    <tag k="layer" v="1"/>
  </way>
  <way id="4234762" version="6" timestamp="2012-07-19T11:29:41Z" uid="722137" user="OSMF Redaction Account" changeset="12321704"/>
  <way id="4234769" version="17" timestamp="2012-07-17T07:16:48Z" uid="722137" user="OSMF Redaction Account" changeset="12259265">
    <nd ref="25279931"/>
    <nd ref="1340397652"/>
    <nd ref="472637237"/>
    <nd ref="667144641"/>
    <nd ref="21686860"/>
    <nd ref="1379247330"/>
    <tag k="highway" v="secondary"/>
    <tag k="oneway" v="yes"/>
  </way>
  <way id="4234770" version="15" timestamp="2012-07-17T07:16:16Z" uid="722137" user="OSMF Redaction Account" changeset="12259265">
    <nd ref="25875527"/>
    <nd ref="452925943"/>
    <nd ref="1241084925"/>
    <nd ref="526229439"/>
    <nd ref="25875523"/>
    <tag k="highway" v="secondary"/>
    <tag k="maxspeed" v="30"/>
  </way>
  <way id="4234770" version="16" timestamp="2012-07-19T19:20:08Z" uid="110838" user="Bernhard W" changeset="12344671"/>
  <way id="4234771" version="14" timestamp="2012-05-05T15:25:33Z" uid="328555" user="peb12345" changeset="11509045">
    <nd ref="25279954"/>
    <nd ref="25279953"/>
    <nd ref="466483776"/>
    <nd ref="472637248"/>
    <nd ref="25279952"/>
    <nd ref="60700772"/>
    <nd ref="60700773"/>
    <nd ref="60700774"/>
    <nd ref="310306153"/>
    <nd ref="60700775"/>
    <nd ref="60700776"/>
    <nd ref="60700777"/>
    <nd ref="60700778"/>
    <tag k="highway" v="residential"/>
    <tag k="maxspeed" v="30"/>
    <tag k="name" v="Jahnstraße"/>
  </way>
  <way id="4234771" version="15" timestamp="2012-07-17T07:16:48Z" uid="722137" user="OSMF Redaction Account" changeset="12259265">
    <nd ref="25279954"/>
    <nd ref="25279953"/>
    <nd ref="466483776"/>
    <nd ref="472637248"/>
    <nd ref="25279952"/>
    <nd ref="60700772"/>
    <nd ref="60700773"/>
    <nd ref="60700774"/>
    <nd ref="310306153"/>
    <nd ref="60700775"/>
    <nd ref="60700776"/>
    <nd ref="60700777"/>
    <nd ref="60700778"/>
    <tag k="highway" v="residential"/>
    <tag k="name" v="Jahnstraße"/>
  </way>
  <way id="4234771" version="16" timestamp="2012-08-04T20:52:39Z" uid="140064" user="debfreak" changeset="12614327">
    <nd ref="25279954"/>
    <nd ref="25279953"/>
    <nd ref="466483776"/>
    <nd ref="472637248"/>
    <nd ref="25279952"/>
    <tag k="highway" v="residential"/>
    <tag k="maxspeed" v="50"/>
    <tag k="name" v="Jahnstraße"/>
  </way>
  <way id="4234771" version="17" timestamp="2012-08-05T16:37:37Z" uid="140064" user="debfreak" changeset="12622989">
    <nd ref="25279954"/>
    <nd ref="25279953"/>
    <nd ref="466483776"/>
    <nd ref="472637248"/>
    <nd ref="25279952"/>
    <tag k="highway" v="residential"/>
    <tag k="maxspeed" v="30"/>
    <tag k="name" v="Jahnstraße"/>
  </way>
  <way id="4234816" version="20" timestamp="2012-04-13T11:19:51Z" uid="63107" user="brogo" changeset="11286432"/>
  <way id="4234820" version="14" timestamp="2012-04-12T14:14:47Z" uid="63107" user="brogo" changeset="11276940"/>
  <way id="4234825" version="10" timestamp="2012-04-12T14:14:48Z" uid="63107" user="brogo" changeset="11276940"/>
</osm>
