<?xml version='1.0' encoding='UTF-8'?>
<osm version="0.6" generator="libosmium/2.20.0">
  <way id="42357152" version="3" timestamp="2010-07-24T03:01:10Z" uid="9581" user="Lobelt" changeset="5300503">
    <nd ref="528845316"/>
    <nd ref="528845317"/>
    <nd ref="528845318"/>
    <nd ref="528845319"/>
    <nd ref="528845320"/>
    <nd ref="830808127"/>
    <nd ref="528845321"/>
    <nd ref="528845322"/>
    <nd ref="528845323"/>
    <tag k="highway" v="path"/>
    <tag k="surface" v="dirt"/>
  </way>
  <way id="42357152" version="4" timestamp="2010-12-19T15:36:58Z" uid="9581" user="Lobelt" changeset="6707130">
    <nd ref="349060359"/>
    <nd ref="528845317"/>
    <nd ref="528845318"/>
    <nd ref="528845319"/>
    <nd ref="528845320"/>
    <nd ref="830808127"/>
    <nd ref="528845321"/>
    <nd ref="528845322"/>
    <nd ref="528845323"/>
    <tag k="highway" v="path"/>
    <tag k="surface" v="dirt"/>
  </way>
  <way id="42357152" version="5" timestamp="2011-02-06T21:35:49Z" uid="7562" user="LosHawlos" changeset="7210213"/>
  <way id="42357853" version="1" timestamp="2009-10-11T13:15:16Z" uid="20587" user="balrog-kun" changeset="2814111">
    <nd ref="528535545"/>
    <nd ref="528535585"/>
    <nd ref="528535586"/>
    <tag k="addr:city" v="Nowe Skalmierzyce"/>
    <tag k="highway" v="primary"/>
    <tag k="name" v="Kaliska"/>
    <tag k="source" v="http://ump.waw.pl/ retrieved 18:45:18 09/30/09 (UMP-Kalisz/src/inne.drogi.txt)"/>
  </way>
  <way id="42357853" version="2" timestamp="2009-11-21T13:57:18Z" uid="197184" user="szymkalisz" changeset="3176054">
    <nd ref="528535545"/>
    <nd ref="567889246"/>
    <nd ref="528535585"/>
    <nd ref="528535586"/>
    <tag k="addr:city" v="Nowe Skalmierzyce"/>
    <tag k="highway" v="primary"/>
    <tag k="name" v="Kaliska"/>
    <tag k="source" v="http://ump.waw.pl/ retrieved 18:45:18 09/30/09 (UMP-Kalisz/src/inne.drogi.txt)"/>
  </way>
  <way id="42357853" version="3" timestamp="2009-11-22T19:12:17Z" uid="197184" user="szymkalisz" changeset="3189702">
    <nd ref="528535545"/>
    <nd ref="567889246"/>
    <nd ref="568591450"/>
    <tag k="addr:city" v="Nowe Skalmierzyce"/>
    <tag k="highway" v="trunk"/>
    <tag k="name" v="Kaliska"/>
    <tag k="source" v="http://ump.waw.pl/ retrieved 18:45:18 09/30/09 (UMP-Kalisz/src/inne.drogi.txt)"/>
  </way>
  <way id="42357855" version="1" timestamp="2009-10-11T13:15:16Z" uid="20587" user="balrog-kun" changeset="2814111">
    <nd ref="528535138"/>
    <nd ref="528535137"/>
    <nd ref="528535136"/>
    <nd ref="528535097"/>
    <nd ref="528535143"/>
    <nd ref="528535144"/>
    <nd ref="528532052"/>
    <tag k="highway" v="primary"/>
    <tag k="name" v="Wojska Polskiego"/>
    <tag k="oneway" v="yes"/>
    <tag k="ref" v="25"/>
    <tag k="source" v="http://ump.waw.pl/ retrieved 18:45:18 09/30/09 (UMP-Kalisz/src/KALISZ.ulice.txt)"/>
  </way>
  <way id="42357855" version="2" timestamp="2009-11-20T19:16:52Z" uid="197184" user="szymkalisz" changeset="3170910">
    <nd ref="528535138"/>
    <nd ref="528535137"/>
    <nd ref="528535136"/>
    <nd ref="528535097"/>
    <nd ref="528535143"/>
    <nd ref="528535144"/>
    <nd ref="528532052"/>
    <tag k="highway" v="primary"/>
    <tag k="name" v="aleja Wojska Polskiego"/>
    <tag k="oneway" v="yes"/>
    <tag k="ref" v="25"/>
    <tag k="source" v="http://ump.waw.pl/ retrieved 18:45:18 09/30/09 (UMP-Kalisz/src/KALISZ.ulice.txt)"/>
  </way>
  <way id="42357855" version="3" timestamp="2009-11-20T20:39:13Z" uid="197184" user="szymkalisz" changeset="3171328">
    <nd ref="567546989"/>
    <nd ref="567547017"/>
    <tag k="highway" v="service"/>
    <tag k="oneway" v="yes"/>
    <tag k="source" v="http://ump.waw.pl/ retrieved 18:45:18 09/30/09 (UMP-Kalisz/src/KALISZ.ulice.txt)"/>
  </way>
  <way id="42357855" version="4" timestamp="2010-12-12T14:38:34Z" uid="296398" user="dangi" changeset="6636556"/>
  <way id="42357857" version="1" timestamp="2009-10-11T13:15:17Z" uid="20587" user="balrog-kun" changeset="2814111">
    <nd ref="528535130"/>
    <nd ref="528535131"/>
    <nd ref="528535133"/>
    <nd ref="528535132"/>
    <nd ref="528535134"/>
    <nd ref="528535135"/>
    <tag k="highway" v="primary"/>
    <tag k="name" v="Wojska Polskiego"/>
    <tag k="oneway" v="yes"/>
    <tag k="ref" v="25"/>
    <tag k="source" v="http://ump.waw.pl/ retrieved 18:45:18 09/30/09 (UMP-Kalisz/src/KALISZ.ulice.txt)"/>
  </way>
  <way id="42357857" version="2" timestamp="2009-11-15T13:27:27Z" uid="197184" user="szymkalisz" changeset="3121747">
    <nd ref="528535131"/>
    <nd ref="528535133"/>
    <nd ref="528535132"/>
    <nd ref="528535134"/>
    <nd ref="528535135"/>
    <tag k="highway" v="primary"/>
    <tag k="name" v="Wojska Polskiego"/>
    <tag k="oneway" v="yes"/>
    <tag k="ref" v="25"/>
    <tag k="source" v="http://ump.waw.pl/ retrieved 18:45:18 09/30/09 (UMP-Kalisz/src/KALISZ.ulice.txt)"/>
  </way>
  <way id="42357857" version="3" timestamp="2009-11-20T20:39:12Z" uid="197184" user="szymkalisz" changeset="3171328">
    <nd ref="567547024"/>
    <nd ref="567547051"/>
    <nd ref="567547052"/>
    <nd ref="567547053"/>
    <nd ref="567541650"/>
    <nd ref="528535133"/>
    <nd ref="528535132"/>
    <nd ref="528535134"/>
    <nd ref="567547054"/>
    <nd ref="567547055"/>
    <nd ref="567547056"/>
    <nd ref="567547057"/>
    <nd ref="567547058"/>
    <nd ref="528535135"/>
    <tag k="highway" v="secondary"/>
    <tag k="name" v="Wojska Polskiego"/>
    <tag k="oneway" v="yes"/>
    <tag k="ref" v="25"/>
    <tag k="source" v="http://ump.waw.pl/ retrieved 18:45:18 09/30/09 (UMP-Kalisz/src/KALISZ.ulice.txt)"/>
  </way>
  <way id="42357857" version="4" timestamp="2009-11-21T16:49:37Z" uid="197184" user="szymkalisz" changeset="3177629">
    <nd ref="567547024"/>
    <nd ref="567547051"/>
    <nd ref="567547052"/>
    <nd ref="567547053"/>
    <nd ref="567541650"/>
    <nd ref="528535133"/>
    <nd ref="528535132"/>
    <nd ref="528535134"/>
    <nd ref="567547054"/>
    <nd ref="567547055"/>
    <nd ref="567949640"/>
    <nd ref="567949436"/>
    <tag k="highway" v="secondary"/>
    <tag k="name" v="Wojska Polskiego"/>
    <tag k="oneway" v="yes"/>
    <tag k="source" v="http://ump.waw.pl/ retrieved 18:45:18 09/30/09 (UMP-Kalisz/src/KALISZ.ulice.txt)"/>
  </way>
  <way id="42357857" version="5" timestamp="2010-12-12T14:38:14Z" uid="296398" user="dangi" changeset="6636556">
    <nd ref="567547024"/>
    <nd ref="567547052"/>
    <nd ref="567547053"/>
    <nd ref="567541650"/>
    <nd ref="528535133"/>
    <nd ref="528535132"/>
    <nd ref="528535134"/>
    <nd ref="567547054"/>
    <nd ref="567547055"/>
    <nd ref="567949640"/>
    <nd ref="567949436"/>
    <tag k="highway" v="secondary"/>
    <tag k="name" v="Wojska Polskiego"/>
    <tag k="oneway" v="yes"/>
    <tag k="source" v="http://ump.waw.pl/ retrieved 18:45:18 09/30/09 (UMP-Kalisz/src/KALISZ.ulice.txt)"/>
  </way>
  <way id="42357857" version="6" timestamp="2010-12-12T15:07:04Z" uid="296398" user="dangi" changeset="6637127">
    <nd ref="567547024"/>
    <nd ref="567547053"/>
    <nd ref="528535132"/>
    <nd ref="528535134"/>
    <nd ref="567547054"/>
    <nd ref="567547055"/>
    <nd ref="567949640"/>
    <nd ref="567949436"/>
    <tag k="highway" v="secondary"/>
    <tag k="name" v="Wojska Polskiego"/>
    <tag k="oneway" v="yes"/>
    <tag k="source" v="http://ump.waw.pl/ retrieved 18:45:18 09/30/09 (UMP-Kalisz/src/KALISZ.ulice.txt)"/>
  </way>
  <way id="42357857" version="7" timestamp="2011-05-11T09:49:30Z" uid="452778" user="shrekolo" changeset="8110502">
    <nd ref="567547024"/>
    <nd ref="567547053"/>
    <nd ref="528535132"/>
    <nd ref="1280141025"/>
    <nd ref="528535134"/>
    <nd ref="567547054"/>
    <nd ref="567547055"/>
    <nd ref="567949640"/>
    <nd ref="567949436"/>
    <tag k="highway" v="secondary"/>
    <tag k="name" v="Wojska Polskiego"/>
    <tag k="oneway" v="yes"/>
    <tag k="source" v="http://ump.waw.pl/ retrieved 18:45:18 09/30/09 (UMP-Kalisz/src/KALISZ.ulice.txt)"/>
  </way>
  <way id="42357853" version="4" timestamp="2012-06-14T10:45:39Z" uid="703058" user="Kaliszanin" changeset="11893660">
    <nd ref="528535545"/>
    <nd ref="567889246"/>
    <nd ref="568591450"/>
    <tag k="addr:city" v="Nowe Skalmierzyce"/>
    <tag k="highway" v="primary"/>
    <tag k="name" v="Kaliska"/>
    <tag k="source" v="http://ump.waw.pl/ retrieved 18:45:18 09/30/09 (UMP-Kalisz/src/inne.drogi.txt)"/>
  </way>
  <way id="42357853" version="5" timestamp="2012-07-15T16:49:59Z" uid="728901" user="Szymiii" changeset="12232337">
    <nd ref="528535545"/>
    <nd ref="567889246"/>
    <tag k="addr:city" v="Nowe Skalmierzyce"/>
    <tag k="highway" v="primary"/>
    <tag k="name" v="Kaliska"/>
    <tag k="source" v="http://ump.waw.pl/ retrieved 18:45:18 09/30/09 (UMP-Kalisz/src/inne.drogi.txt)"/>
  </way>
  <way id="42357853" version="6" timestamp="2012-07-17T12:16:45Z" uid="722137" user="OSMF Redaction Account" changeset="12264975"/>
  <way id="42357857" version="8" timestamp="2012-06-13T12:38:26Z" uid="703058" user="Kaliszanin" changeset="11884534">
    <nd ref="567547024"/>
    <nd ref="567547053"/>
    <nd ref="528535132"/>
    <nd ref="1280141025"/>
    <nd ref="567547054"/>
    <nd ref="567547055"/>
    <nd ref="567949436"/>
    <tag k="highway" v="secondary"/>
    <tag k="lanes" v="2"/>
    <tag k="name" v="Aleja Wojska Polskiego"/>
    <tag k="oneway" v="yes"/>
    <tag k="source" v="http://ump.waw.pl/ retrieved 18:45:18 09/30/09 (UMP-Kalisz/src/KALISZ.ulice.txt)"/>
  </way>
  <way id="42357857" version="9" timestamp="2012-06-13T19:19:17Z" uid="703058" user="Kaliszanin" changeset="11888308">
    <nd ref="567547024"/>
    <nd ref="567547053"/>
    <nd ref="528535132"/>
    <nd ref="1280141025"/>
    <nd ref="567547054"/>
    <nd ref="567547055"/>
    <nd ref="567949436"/>
    <tag k="highway" v="secondary"/>
    <tag k="lanes" v="2"/>
    <tag k="oneway" v="yes"/>
    <tag k="source" v="http://ump.waw.pl/ retrieved 18:45:18 09/30/09 (UMP-Kalisz/src/KALISZ.ulice.txt)"/>
  </way>
  <way id="42357857" version="10" timestamp="2012-06-13T20:08:58Z" uid="703058" user="Kaliszanin" changeset="11888308">
    <nd ref="567547024"/>
    <nd ref="567547053"/>
    <nd ref="528535132"/>
    <nd ref="1786537629"/>
    <nd ref="1280141025"/>
    <nd ref="567547054"/>
    <nd ref="567547055"/>
    <nd ref="567949436"/>
    <tag k="highway" v="secondary"/>
    <tag k="lanes" v="2"/>
    <tag k="oneway" v="yes"/>
    <tag k="source" v="http://ump.waw.pl/ retrieved 18:45:18 09/30/09 (UMP-Kalisz/src/KALISZ.ulice.txt)"/>
  </way>
  <way id="42357857" version="11" timestamp="2012-06-22T20:18:28Z" uid="703058" user="Kaliszanin" changeset="11983014">
    <nd ref="567547024"/>
    <nd ref="1798693586"/>
    <nd ref="567547053"/>
    <nd ref="528535132"/>
    <nd ref="1786537629"/>
    <nd ref="1280141025"/>
    <nd ref="567547054"/>
    <nd ref="567547055"/>
    <nd ref="567949436"/>
    <tag k="highway" v="secondary"/>
    <tag k="lanes" v="2"/>
    <tag k="oneway" v="yes"/>
    <tag k="source" v="http://ump.waw.pl/ retrieved 18:45:18 09/30/09 (UMP-Kalisz/src/KALISZ.ulice.txt)"/>
  </way>
  <way id="42357857" version="12" timestamp="2012-06-26T19:33:58Z" uid="703058" user="Kaliszanin" changeset="12029905">
    <nd ref="567547024"/>
    <nd ref="1798693586"/>
    <nd ref="567547053"/>
    <nd ref="528535132"/>
    <nd ref="1786537629"/>
    <nd ref="1280141025"/>
    <nd ref="567547054"/>
    <nd ref="1803147040"/>
    <nd ref="567547055"/>
    <nd ref="567949436"/>
    <tag k="highway" v="secondary"/>
    <tag k="lanes" v="2"/>
    <tag k="oneway" v="yes"/>
    <tag k="source" v="http://ump.waw.pl/ retrieved 18:45:18 09/30/09 (UMP-Kalisz/src/KALISZ.ulice.txt)"/>
  </way>
  <way id="42357857" version="13" timestamp="2012-07-15T16:49:59Z" uid="728901" user="Szymiii" changeset="12232337">
    <nd ref="567547024"/>
    <nd ref="1798693586"/>
    <nd ref="567547053"/>
    <tag k="highway" v="secondary"/>
    <tag k="lanes" v="2"/>
    <tag k="oneway" v="yes"/>
    <tag k="source" v="http://ump.waw.pl/ retrieved 18:45:18 09/30/09 (UMP-Kalisz/src/KALISZ.ulice.txt)"/>
  </way>
  <way id="42357857" version="14" timestamp="2012-07-17T12:04:38Z" uid="722137" user="OSMF Redaction Account" changeset="12264766"/>
</osm>
