<?xml version='1.0' encoding='UTF-8'?>
<osm version="0.6" generator="libosmium/2.20.0">
  <way id="42582754" version="5" timestamp="2010-03-07T10:35:37Z" uid="58091" user="Andreas M" changeset="4059302">
    <nd ref="31899327"/>
    <nd ref="31899329"/>
    <nd ref="31899331"/>
    <nd ref="31899341"/>
    <nd ref="31899525"/>
    <nd ref="31899523"/>
    <nd ref="531989431"/>
    <tag k="highway" v="secondary"/>
    <tag k="is_in:city" v="Zistersdorf"/>
    <tag k="is_in:country_code" v="AT"/>
    <tag k="maxspeed" v="50"/>
    <tag k="name" v="Bahnstraße"/>
    <tag k="postal_code" v="2225"/>
    <tag k="ref" v="L 16"/>
  </way>
  <way id="42582754" version="6" timestamp="2010-10-25T18:39:23Z" uid="45756" user="magellan" changeset="6176177">
    <nd ref="531989431"/>
    <nd ref="31899523"/>
    <nd ref="31899525"/>
    <nd ref="31899341"/>
    <nd ref="31899331"/>
    <nd ref="31899329"/>
    <nd ref="31899327"/>
    <tag k="addr:city" v="Zistersdorf"/>
    <tag k="addr:country" v="AT"/>
    <tag k="addr:postcode" v="2225"/>
    <tag k="highway" v="secondary"/>
    <tag k="maxspeed" v="50"/>
    <tag k="name" v="Bahnstraße"/>
    <tag k="ref" v="L16"/>
  </way>
  <way id="42582754" version="7" timestamp="2010-12-22T14:37:34Z" uid="53306" user="Wolfgang B" changeset="6736207">
    <nd ref="531989431"/>
    <nd ref="31899525"/>
    <nd ref="31899341"/>
    <nd ref="31899331"/>
    <nd ref="31899329"/>
    <nd ref="31899327"/>
    <tag k="addr:city" v="Zistersdorf"/>
    <tag k="addr:country" v="AT"/>
    <tag k="addr:postcode" v="2225"/>
    <tag k="highway" v="secondary"/>
    <tag k="maxspeed" v="50"/>
    <tag k="name" v="Bahnstraße"/>
    <tag k="ref" v="L16"/>
  </way>
  <way id="42582754" version="8" timestamp="2010-12-22T23:16:59Z" uid="53306" user="Wolfgang B" changeset="6741182">
    <nd ref="531989431"/>
    <nd ref="31899525"/>
    <nd ref="31899341"/>
    <nd ref="31899331"/>
    <nd ref="1057852343"/>
    <nd ref="31899329"/>
    <nd ref="31899327"/>
    <tag k="addr:city" v="Zistersdorf"/>
    <tag k="addr:country" v="AT"/>
    <tag k="addr:postcode" v="2225"/>
    <tag k="highway" v="secondary"/>
    <tag k="maxspeed" v="50"/>
    <tag k="name" v="Bahnstraße"/>
    <tag k="ref" v="L16"/>
  </way>
  <way id="42582754" version="9" timestamp="2010-12-25T16:58:35Z" uid="74896" user="tevake" changeset="6762270">
    <nd ref="531989431"/>
    <nd ref="31899525"/>
    <nd ref="31899341"/>
    <nd ref="31899331"/>
    <nd ref="1057852343"/>
    <nd ref="1064297864"/>
    <nd ref="31899327"/>
    <tag k="addr:city" v="Zistersdorf"/>
    <tag k="addr:country" v="AT"/>
    <tag k="addr:postcode" v="2225"/>
    <tag k="highway" v="secondary"/>
    <tag k="maxspeed" v="50"/>
    <tag k="name" v="Bahnstraße"/>
    <tag k="ref" v="L16"/>
  </way>
  <way id="42582754" version="10" timestamp="2010-12-28T08:27:06Z" uid="53306" user="Wolfgang B" changeset="6785446">
    <nd ref="531989431"/>
    <nd ref="31899525"/>
    <nd ref="31899341"/>
    <nd ref="1068813674"/>
    <nd ref="31899331"/>
    <nd ref="1057852343"/>
    <nd ref="1064297864"/>
    <nd ref="31899327"/>
    <tag k="addr:city" v="Zistersdorf"/>
    <tag k="addr:country" v="AT"/>
    <tag k="addr:postcode" v="2225"/>
    <tag k="highway" v="secondary"/>
    <tag k="maxspeed" v="50"/>
    <tag k="name" v="Bahnstraße"/>
    <tag k="ref" v="L16"/>
  </way>
  <way id="42582754" version="11" timestamp="2011-07-28T12:36:47Z" uid="491845" user="data_at" changeset="8854216">
    <nd ref="531989431"/>
    <nd ref="31899525"/>
    <nd ref="31899341"/>
    <nd ref="1068813674"/>
    <nd ref="31899331"/>
    <nd ref="1057852343"/>
    <nd ref="1064297864"/>
    <nd ref="31899327"/>
    <tag k="highway" v="secondary"/>
    <tag k="maxspeed" v="50"/>
    <tag k="name" v="Bahnstraße"/>
    <tag k="ref" v="L16"/>
  </way>
  <way id="42582818" version="1" timestamp="2009-10-15T16:31:50Z" uid="64977" user="CLoeser" changeset="2856541">
    <nd ref="532004998"/>
    <nd ref="366086182"/>
    <tag k="highway" v="track"/>
    <tag k="tracktype" v="grade1"/>
  </way>
  <way id="42582823" version="1" timestamp="2009-10-15T16:31:51Z" uid="64977" user="CLoeser" changeset="2856541">
    <nd ref="366085547"/>
    <nd ref="532005053"/>
    <tag k="highway" v="track"/>
    <tag k="tracktype" v="grade1"/>
  </way>
  <way id="42582826" version="1" timestamp="2009-10-15T16:31:52Z" uid="64977" user="CLoeser" changeset="2856541">
    <nd ref="385216681"/>
    <nd ref="532005107"/>
    <tag k="highway" v="track"/>
    <tag k="tracktype" v="grade1"/>
  </way>
  <way id="42582827" version="1" timestamp="2009-10-15T16:31:52Z" uid="64977" user="CLoeser" changeset="2856541">
    <nd ref="385216678"/>
    <nd ref="366085460"/>
    <tag k="highway" v="track"/>
    <tag k="tracktype" v="grade1"/>
  </way>
  <way id="42582830" version="1" timestamp="2009-10-15T16:31:54Z" uid="64977" user="CLoeser" changeset="2856541">
    <nd ref="532005137"/>
    <nd ref="532005145"/>
    <nd ref="532005174"/>
    <nd ref="532005184"/>
    <nd ref="532005137"/>
    <tag k="landuse" v="farmyard"/>
  </way>
  <way id="42582834" version="1" timestamp="2009-10-15T16:31:55Z" uid="64977" user="CLoeser" changeset="2856541">
    <nd ref="532005212"/>
    <nd ref="532005218"/>
    <nd ref="532005228"/>
    <nd ref="532005238"/>
    <nd ref="532005212"/>
    <tag k="landuse" v="farm"/>
  </way>
  <way id="42582834" version="2" timestamp="2011-07-20T16:37:50Z" uid="161619" user="FvGordon" changeset="8780319">
    <nd ref="532005212"/>
    <nd ref="532005218"/>
    <nd ref="532005228"/>
    <nd ref="532005238"/>
    <nd ref="532005212"/>
    <tag k="landuse" v="farmland"/>
  </way>
  <way id="42582842" version="1" timestamp="2009-10-15T16:31:56Z" uid="64977" user="CLoeser" changeset="2856541">
    <nd ref="532005285"/>
    <nd ref="532005296"/>
    <nd ref="532005303"/>
    <nd ref="532005311"/>
    <nd ref="532005319"/>
    <nd ref="532005285"/>
    <tag k="landuse" v="cemetery"/>
    <tag k="name" v="Friedhof Eldena"/>
  </way>
  <way id="42582847" version="1" timestamp="2009-10-15T16:31:58Z" uid="64977" user="CLoeser" changeset="2856541">
    <nd ref="532005338"/>
    <nd ref="532005343"/>
    <nd ref="532005350"/>
    <nd ref="532005368"/>
    <nd ref="532005372"/>
    <nd ref="532005377"/>
    <nd ref="532005380"/>
    <nd ref="532005386"/>
    <nd ref="532005391"/>
    <nd ref="532005396"/>
    <nd ref="532005401"/>
    <nd ref="532005405"/>
    <nd ref="532005338"/>
    <tag k="landuse" v="residential"/>
  </way>
  <way id="42582854" version="1" timestamp="2009-10-15T16:32:00Z" uid="64977" user="CLoeser" changeset="2856541">
    <nd ref="532005426"/>
    <nd ref="532005429"/>
    <nd ref="532005435"/>
    <nd ref="532005441"/>
    <nd ref="532005443"/>
    <nd ref="532005451"/>
    <nd ref="532005461"/>
    <nd ref="532005479"/>
    <nd ref="532005484"/>
    <nd ref="532005491"/>
    <nd ref="532005497"/>
    <nd ref="532005503"/>
    <nd ref="532005509"/>
    <nd ref="532005426"/>
    <tag k="landuse" v="allotments"/>
  </way>
  <way id="42582754" version="12" timestamp="2012-07-16T20:35:04Z" uid="722137" user="OSMF Redaction Account" changeset="12251367">
    <nd ref="531989431"/>
    <nd ref="31899525"/>
    <nd ref="31899341"/>
    <nd ref="1068813674"/>
    <nd ref="31899331"/>
    <nd ref="1057852343"/>
    <nd ref="1064297864"/>
    <nd ref="31899327"/>
    <tag k="addr:street" v="Bahnstraße"/>
    <tag k="highway" v="secondary"/>
    <tag k="maxspeed" v="50"/>
    <tag k="ref" v="L16"/>
  </way>
  <way id="42582818" version="2" timestamp="2012-07-18T13:49:35Z" uid="722137" user="OSMF Redaction Account" changeset="12283882"/>
  <way id="42582823" version="2" timestamp="2012-07-18T13:49:34Z" uid="722137" user="OSMF Redaction Account" changeset="12283882"/>
  <way id="42582826" version="2" timestamp="2012-07-18T13:49:35Z" uid="722137" user="OSMF Redaction Account" changeset="12283882"/>
  <way id="42582827" version="2" timestamp="2012-07-18T13:49:35Z" uid="722137" user="OSMF Redaction Account" changeset="12283882"/>
  <way id="42582830" version="2" timestamp="2012-07-18T13:49:37Z" uid="722137" user="OSMF Redaction Account" changeset="12283882"/>
  <way id="42582834" version="3" timestamp="2012-07-18T13:49:35Z" uid="722137" user="OSMF Redaction Account" changeset="12283882"/>
  <way id="42582842" version="2" timestamp="2012-07-18T13:49:37Z" uid="722137" user="OSMF Redaction Account" changeset="12283882"/>
  <way id="42582847" version="2" timestamp="2012-07-18T13:49:36Z" uid="722137" user="OSMF Redaction Account" changeset="12283882"/>
  <way id="42582854" version="2" timestamp="2012-07-18T13:49:33Z" uid="722137" user="OSMF Redaction Account" changeset="12283882"/>
</osm>
