<?xml version='1.0' encoding='UTF-8'?>
<osm version="0.6" generator="libosmium/2.20.0">
  <way id="42650738" version="3" timestamp="2010-07-09T06:20:34Z" uid="74617" user="JohnSmith" changeset="5171134">
    <nd ref="533379982"/>
    <nd ref="533391360"/>
    <nd ref="533379992"/>
    <tag k="highway" v="residential"/>
    <tag k="maxspeed" v="50"/>
    <tag k="maxspeed:source" v="default residential speed limit in Australia"/>
    <tag k="name" v="Romsey Grove"/>
  </way>
  <way id="42650738" version="4" timestamp="2012-01-19T06:09:16Z" uid="147510" user="woodpeck_fixbot" changeset="10433866">
    <nd ref="533379982"/>
    <nd ref="533391360"/>
    <nd ref="533379992"/>
    <tag k="highway" v="residential"/>
    <tag k="name" v="Romsey Grove"/>
  </way>
  <way id="42650750" version="2" timestamp="2009-12-24T01:50:55Z" uid="6975" user="ulfl" changeset="3439488">
    <nd ref="533383583"/>
    <nd ref="533383622"/>
    <nd ref="533383650"/>
    <nd ref="533383682"/>
    <nd ref="533383713"/>
    <nd ref="533383743"/>
    <nd ref="533383583"/>
    <tag k="amenity" v="fuel"/>
    <tag k="building" v="yes"/>
    <tag k="name" v="Sino Oil"/>
  </way>
  <way id="42650760" version="2" timestamp="2010-07-09T06:21:39Z" uid="74617" user="JohnSmith" changeset="5171134">
    <nd ref="533379992"/>
    <nd ref="533384875"/>
    <nd ref="250071046"/>
    <tag k="highway" v="residential"/>
    <tag k="maxspeed" v="50"/>
    <tag k="maxspeed:source" v="default residential speed limit in Australia"/>
    <tag k="name" v="Regent Street"/>
  </way>
  <way id="42650760" version="3" timestamp="2011-03-18T12:20:54Z" uid="4467" user="Rosscoe" changeset="7594760"/>
  <way id="42650812" version="2" timestamp="2009-12-24T01:50:54Z" uid="6975" user="ulfl" changeset="3439488">
    <nd ref="533391463"/>
    <nd ref="533391498"/>
    <nd ref="533391580"/>
    <nd ref="533391619"/>
    <nd ref="533391463"/>
    <tag k="amenity" v="pharmacy"/>
    <tag k="building" v="yes"/>
  </way>
  <way id="42650847" version="2" timestamp="2010-07-09T06:21:41Z" uid="74617" user="JohnSmith" changeset="5171134">
    <nd ref="506477868"/>
    <nd ref="533384875"/>
    <tag k="highway" v="residential"/>
    <tag k="maxspeed" v="50"/>
    <tag k="maxspeed:source" v="default residential speed limit in Australia"/>
    <tag k="name" v="Brett Street"/>
  </way>
  <way id="42650847" version="3" timestamp="2011-03-18T15:41:39Z" uid="4467" user="Rosscoe" changeset="7596453">
    <nd ref="506477868"/>
    <nd ref="533384875"/>
    <tag k="highway" v="residential"/>
    <tag k="maxspeed" v="50"/>
    <tag k="name" v="Brett Street"/>
    <tag k="source:maxspeed" v="default residential speed limit in Australia"/>
  </way>
  <way id="42650847" version="4" timestamp="2012-01-19T06:09:17Z" uid="147510" user="woodpeck_fixbot" changeset="10433866">
    <nd ref="506477868"/>
    <nd ref="533384875"/>
    <tag k="highway" v="residential"/>
    <tag k="name" v="Brett Street"/>
    <tag k="source:maxspeed" v="default residential speed limit in Australia"/>
  </way>
  <way id="42650858" version="2" timestamp="2010-07-09T06:20:28Z" uid="74617" user="JohnSmith" changeset="5171134">
    <nd ref="533398225"/>
    <nd ref="533398230"/>
    <tag k="highway" v="residential"/>
    <tag k="maxspeed" v="50"/>
    <tag k="maxspeed:source" v="default residential speed limit in Australia"/>
    <tag k="name" v="Martha Court"/>
  </way>
  <way id="42650858" version="3" timestamp="2011-03-18T15:42:30Z" uid="4467" user="Rosscoe" changeset="7596453">
    <nd ref="533398225"/>
    <nd ref="533398230"/>
    <tag k="highway" v="residential"/>
    <tag k="maxspeed" v="50"/>
    <tag k="name" v="Martha Court"/>
    <tag k="source:maxspeed" v="default residential speed limit in Australia"/>
  </way>
  <way id="42650858" version="4" timestamp="2012-01-19T06:09:18Z" uid="147510" user="woodpeck_fixbot" changeset="10433866">
    <nd ref="533398225"/>
    <nd ref="533398230"/>
    <tag k="highway" v="residential"/>
    <tag k="name" v="Martha Court"/>
    <tag k="source:maxspeed" v="default residential speed limit in Australia"/>
  </way>
  <way id="42650899" version="2" timestamp="2009-12-24T01:50:55Z" uid="6975" user="ulfl" changeset="3439488">
    <nd ref="533403918"/>
    <nd ref="533403954"/>
    <nd ref="533403993"/>
    <nd ref="533404024"/>
    <nd ref="533403918"/>
    <tag k="amenity" v="theatre"/>
    <tag k="building" v="yes"/>
    <tag k="name" v="Театр им. Ауэзова"/>
  </way>
  <way id="42650750" version="3" timestamp="2012-04-10T04:06:14Z" uid="363515" user="ggood" changeset="11247482">
    <nd ref="533383583"/>
    <nd ref="533383622"/>
    <nd ref="533383650"/>
    <nd ref="533383682"/>
    <nd ref="533383713"/>
    <nd ref="533383743"/>
    <nd ref="533383583"/>
    <tag k="amenity" v="fuel"/>
    <tag k="building" v="yes"/>
    <tag k="name" v="Sino Oil"/>
    <tag k="operator" v="Sinooil"/>
  </way>
  <way id="42650847" version="5" timestamp="2012-07-19T22:51:24Z" uid="722137" user="OSMF Redaction Account" changeset="12351002">
    <nd ref="506477868"/>
    <nd ref="533384875"/>
    <tag k="highway" v="residential"/>
    <tag k="name" v="Brett Street"/>
  </way>
  <way id="42650858" version="5" timestamp="2012-07-19T22:51:23Z" uid="722137" user="OSMF Redaction Account" changeset="12351002">
    <nd ref="533398225"/>
    <nd ref="533398230"/>
    <tag k="highway" v="residential"/>
    <tag k="name" v="Martha Court"/>
  </way>
  <way id="42650899" version="3" timestamp="2012-04-18T05:14:07Z" uid="363515" user="ggood" changeset="11340161">
    <nd ref="533403918"/>
    <nd ref="533403954"/>
    <nd ref="533403993"/>
    <nd ref="533404024"/>
    <nd ref="533403918"/>
    <tag k="addr:housenumber" v="103"/>
    <tag k="addr:street" v="ул. Абая"/>
    <tag k="amenity" v="theatre"/>
    <tag k="building" v="civic"/>
    <tag k="int_name" v="Auezov Kazakh Drama Theatre"/>
    <tag k="name" v="Казахский государственный академический театр драмы им. М.Ауэзова"/>
    <tag k="name:kk" v="Қазақтың Мемлекеттік М.Әуезов атындағы академиялық драма театры"/>
    <tag k="name:ru" v="Казахский государственный академический театр драмы им. М.Ауэзова"/>
  </way>
</osm>
