<?xml version='1.0' encoding='UTF-8'?>
<osm version="0.6" generator="libosmium/2.20.0">
  <way id="42869154" version="2" timestamp="2009-11-17T11:44:33Z" uid="20587" user="balrog-kun" changeset="3139611">
    <nd ref="536633982"/>
    <nd ref="536634024"/>
    <nd ref="536634023"/>
    <nd ref="536634022"/>
    <nd ref="536634021"/>
    <nd ref="536634019"/>
    <nd ref="536634016"/>
    <nd ref="536634005"/>
    <nd ref="536634001"/>
    <nd ref="536633997"/>
    <nd ref="536633993"/>
    <nd ref="536633988"/>
    <nd ref="536633982"/>
    <tag k="addr:city" v="Grodzisk Mazowiecki"/>
    <tag k="addr:country" v="PL"/>
    <tag k="addr:housenumber" v="31"/>
    <tag k="addr:postcode" v="05-825"/>
    <tag k="addr:street" v="Sportowa"/>
    <tag k="amenity" v="school"/>
    <tag k="building" v="yes"/>
    <tag k="name" v="Szkoła Podstawowa nr 6 imienia Szarych Szeregów"/>
  </way>
  <way id="42869379" version="2" timestamp="2009-12-09T13:08:52Z" uid="20587" user="balrog-kun" changeset="3333382"/>
</osm>
