<?xml version='1.0' encoding='UTF-8'?>
<osm version="0.6" generator="libosmium/2.20.0">
  <way id="42977566" version="2" timestamp="2010-07-25T22:52:46Z" uid="4467" user="Rosscoe" changeset="5317371">
    <nd ref="538283339"/>
    <nd ref="538283349"/>
    <tag k="bridge" v="yes"/>
    <tag k="highway" v="unclassified"/>
    <tag k="lanes" v="1"/>
    <tag k="layer" v="1"/>
    <tag k="name" v="Cow Flat Road"/>
    <tag k="source" v="GPS"/>
    <tag k="surface" v="concrete"/>
  </way>
  <way id="42977566" version="3" timestamp="2012-07-19T14:22:28Z" uid="722137" user="OSMF Redaction Account" changeset="12331256">
    <nd ref="538283339"/>
    <nd ref="538283349"/>
    <tag k="bridge" v="yes"/>
    <tag k="highway" v="unclassified"/>
    <tag k="lanes" v="1"/>
    <tag k="name" v="Cow Flat Road"/>
    <tag k="source" v="GPS"/>
    <tag k="surface" v="concrete"/>
  </way>
  <way id="42977566" version="4" timestamp="2012-08-15T13:19:08Z" uid="67896" user="mrpulley" changeset="12738963">
    <nd ref="538283339"/>
    <nd ref="538283349"/>
    <tag k="bridge" v="yes"/>
    <tag k="highway" v="unclassified"/>
    <tag k="lanes" v="1"/>
    <tag k="layer" v="1"/>
    <tag k="name" v="Cow Flat Road"/>
    <tag k="source" v="GPS"/>
    <tag k="surface" v="concrete"/>
  </way>
</osm>
