<?xml version='1.0' encoding='UTF-8'?>
<osm version="0.6" generator="libosmium/2.20.0">
  <way id="43047313" version="2" timestamp="2010-04-03T17:16:33Z" uid="20587" user="balrog-kun" changeset="4313610">
    <nd ref="539271852"/>
    <nd ref="539271853"/>
    <tag k="highway" v="residential"/>
    <tag k="name" v="Camelback Road Northwest"/>
    <tag k="source" v="Yahoo"/>
  </way>
  <way id="43047314" version="2" timestamp="2010-04-03T17:16:33Z" uid="20587" user="balrog-kun" changeset="4313610">
    <nd ref="539271862"/>
    <nd ref="539271856"/>
    <tag k="highway" v="residential"/>
    <tag k="name" v="Telluride Court Northwest"/>
    <tag k="source" v="Yahoo"/>
  </way>
  <way id="43047315" version="2" timestamp="2010-04-03T17:16:33Z" uid="20587" user="balrog-kun" changeset="4313610">
    <nd ref="539271853"/>
    <nd ref="539271854"/>
    <nd ref="539271855"/>
    <tag k="highway" v="residential"/>
    <tag k="name" v="Pagosa Drive Northwest"/>
    <tag k="source" v="Yahoo"/>
  </way>
  <way id="43047316" version="2" timestamp="2010-04-03T17:16:33Z" uid="20587" user="balrog-kun" changeset="4313610">
    <nd ref="539271855"/>
    <nd ref="539271856"/>
    <nd ref="539271857"/>
    <nd ref="539271859"/>
    <tag k="highway" v="residential"/>
    <tag k="name" v="Saddleback Road Northwest"/>
    <tag k="source" v="Yahoo"/>
  </way>
  <way id="43047317" version="2" timestamp="2010-04-03T17:16:33Z" uid="20587" user="balrog-kun" changeset="4313610">
    <nd ref="539271859"/>
    <nd ref="539271850"/>
    <nd ref="539271860"/>
    <nd ref="539271861"/>
    <nd ref="539271852"/>
    <tag k="highway" v="residential"/>
    <tag k="name" v="Catamount Drive Northwest"/>
    <tag k="source" v="Yahoo"/>
  </way>
  <way id="43047318" version="2" timestamp="2010-04-03T17:16:33Z" uid="20587" user="balrog-kun" changeset="4313610">
    <nd ref="140864973"/>
    <nd ref="539271849"/>
    <nd ref="539271850"/>
    <nd ref="539271851"/>
    <nd ref="140864973"/>
    <tag k="highway" v="residential"/>
    <tag k="name" v="Leno Road Northwest"/>
    <tag k="oneway" v="yes"/>
    <tag k="tiger:cfcc" v="A41"/>
    <tag k="tiger:county" v="Bernalillo, NM"/>
    <tag k="tiger:name_base" v="Leno"/>
    <tag k="tiger:name_direction_suffix" v="NW"/>
    <tag k="tiger:name_type" v="Rd"/>
    <tag k="tiger:separated" v="no"/>
    <tag k="tiger:source" v="tiger_import_dch_v0.6_20070828"/>
    <tag k="tiger:tlid" v="206743781"/>
  </way>
  <way id="43047738" version="1" timestamp="2009-10-24T01:14:07Z" uid="99207" user="Lar Kiesel" changeset="2934224">
    <nd ref="113618515"/>
    <nd ref="113408079"/>
    <tag k="highway" v="residential"/>
    <tag k="name" v="Panorama Dr"/>
    <tag k="tiger:cfcc" v="A41"/>
    <tag k="tiger:county" v="Lexington, SC"/>
    <tag k="tiger:name_base" v="Panorama"/>
    <tag k="tiger:name_type" v="Dr"/>
    <tag k="tiger:separated" v="no"/>
    <tag k="tiger:source" v="tiger_import_dch_v0.6_20070829"/>
    <tag k="tiger:tlid" v="70047471"/>
    <tag k="tiger:upload_uuid" v="bulk_upload.pl-fe67c1cb-bcd5-4753-ae32-5a2256c432dc"/>
  </way>
  <way id="43047739" version="1" timestamp="2009-10-24T01:14:08Z" uid="99207" user="Lar Kiesel" changeset="2934224">
    <nd ref="539278326"/>
    <nd ref="539278328"/>
    <nd ref="539278329"/>
    <nd ref="539278330"/>
    <nd ref="539278331"/>
    <tag k="highway" v="residential"/>
    <tag k="name" v="Sunny Cove Court"/>
  </way>
  <way id="43047740" version="1" timestamp="2009-10-24T01:14:08Z" uid="99207" user="Lar Kiesel" changeset="2934224">
    <nd ref="539278340"/>
    <nd ref="539278336"/>
    <nd ref="539278337"/>
    <nd ref="539278339"/>
    <nd ref="113408076"/>
    <tag k="highway" v="residential"/>
    <tag k="name" v="Panorama Point"/>
  </way>
  <way id="43047738" version="2" timestamp="2012-07-18T17:42:43Z" uid="722137" user="OSMF Redaction Account" changeset="12290971"/>
  <way id="43047739" version="2" timestamp="2012-07-18T17:42:43Z" uid="722137" user="OSMF Redaction Account" changeset="12290971"/>
  <way id="43047740" version="2" timestamp="2012-07-18T17:42:44Z" uid="722137" user="OSMF Redaction Account" changeset="12290971"/>
</osm>
