<?xml version='1.0' encoding='UTF-8'?>
<osm version="0.6" generator="libosmium/2.20.0">
  <way id="43042462" version="1" timestamp="2009-10-23T21:48:41Z" uid="36809" user="pfoten_weg_!_" changeset="2933640">
    <nd ref="442597657"/>
    <nd ref="299379060"/>
    <nd ref="539194734"/>
    <nd ref="539194732"/>
    <nd ref="539194731"/>
    <tag k="highway" v="primary"/>
    <tag k="is_in" v="München"/>
    <tag k="name" v="Wolfratshauser Straße"/>
    <tag k="ref" v="B 11"/>
  </way>
  <way id="43042462" version="2" timestamp="2010-04-13T20:32:38Z" uid="224490" user="Geo-Tobi" changeset="4417567">
    <nd ref="442597657"/>
    <nd ref="299379060"/>
    <nd ref="539194734"/>
    <nd ref="539194732"/>
    <nd ref="539194731"/>
    <tag k="highway" v="primary"/>
    <tag k="is_in" v="München"/>
    <tag k="maxspeed" v="DE:urban"/>
    <tag k="name" v="Wolfratshauser Straße"/>
    <tag k="ref" v="B 11"/>
  </way>
  <way id="43042462" version="3" timestamp="2010-09-13T10:55:02Z" uid="104779" user="ABRob" changeset="5768179">
    <nd ref="442597657"/>
    <nd ref="299379060"/>
    <nd ref="539194734"/>
    <nd ref="539194732"/>
    <nd ref="539194731"/>
    <tag k="highway" v="primary"/>
    <tag k="is_in" v="München"/>
    <tag k="maxspeed" v="50"/>
    <tag k="name" v="Wolfratshauser Straße"/>
    <tag k="ref" v="B 11"/>
    <tag k="zone:maxspeed" v="DE:urban"/>
    <tag k="zone:traffic" v="DE:urban"/>
  </way>
  <way id="43042462" version="4" timestamp="2011-05-11T17:58:15Z" uid="345715" user="USSEraser" changeset="8114639">
    <nd ref="442597657"/>
    <nd ref="299379060"/>
    <nd ref="539194734"/>
    <nd ref="1280464876"/>
    <nd ref="539194732"/>
    <nd ref="539194731"/>
    <tag k="highway" v="primary"/>
    <tag k="is_in" v="München"/>
    <tag k="maxspeed" v="50"/>
    <tag k="name" v="Wolfratshauser Straße"/>
    <tag k="ref" v="B 11"/>
    <tag k="zone:maxspeed" v="DE:urban"/>
    <tag k="zone:traffic" v="DE:urban"/>
  </way>
  <way id="43042462" version="5" timestamp="2012-03-03T14:08:43Z" uid="13832" user="Peter14" changeset="10858063"/>
  <way id="43042463" version="1" timestamp="2009-10-23T21:48:42Z" uid="36809" user="pfoten_weg_!_" changeset="2933640">
    <nd ref="299248916"/>
    <nd ref="539194737"/>
    <nd ref="539194736"/>
    <nd ref="539194735"/>
    <nd ref="539194733"/>
    <nd ref="416678724"/>
    <tag k="bicycle" v="yes"/>
    <tag k="cycleway" v="track"/>
    <tag k="highway" v="footway"/>
    <tag k="surface" v="paved"/>
    <tag k="width" v="1.5"/>
  </way>
  <way id="43042463" version="2" timestamp="2011-06-02T07:54:44Z" uid="137711" user="avus" changeset="8316994">
    <nd ref="299248916"/>
    <nd ref="539194737"/>
    <nd ref="539194736"/>
    <nd ref="539194735"/>
    <nd ref="539194733"/>
    <nd ref="416678724"/>
    <tag k="bicycle" v="designated"/>
    <tag k="foot" v="designated"/>
    <tag k="highway" v="cycleway"/>
    <tag k="surface" v="asphalt"/>
    <tag k="width" v="1.5"/>
  </way>
  <way id="43042464" version="1" timestamp="2009-10-23T21:48:42Z" uid="36809" user="pfoten_weg_!_" changeset="2933640">
    <nd ref="539194731"/>
    <nd ref="32571114"/>
    <tag k="highway" v="primary"/>
    <tag k="is_in" v="Pullach i. Isartal"/>
    <tag k="name" v="Wolfratshauser Straße"/>
    <tag k="ref" v="B 11"/>
  </way>
  <way id="43042464" version="2" timestamp="2010-04-13T20:32:39Z" uid="224490" user="Geo-Tobi" changeset="4417567">
    <nd ref="539194731"/>
    <nd ref="32571114"/>
    <tag k="highway" v="primary"/>
    <tag k="is_in" v="Pullach i. Isartal"/>
    <tag k="maxspeed" v="60"/>
    <tag k="name" v="Wolfratshauser Straße"/>
    <tag k="ref" v="B 11"/>
  </way>
  <way id="43042464" version="3" timestamp="2010-04-20T20:45:06Z" uid="224490" user="Geo-Tobi" changeset="4481628">
    <nd ref="539194731"/>
    <nd ref="32571114"/>
    <tag k="highway" v="primary"/>
    <tag k="is_in" v="Pullach i. Isartal"/>
    <tag k="maxspeed" v="60"/>
    <tag k="name" v="Wolfratshauser Straße"/>
    <tag k="ref" v="B 11"/>
  </way>
  <way id="43042464" version="4" timestamp="2010-12-15T04:45:36Z" uid="140803" user="ThomasStr" changeset="6664555">
    <nd ref="539194731"/>
    <nd ref="32571114"/>
    <nd ref="518123545"/>
    <nd ref="544176277"/>
    <nd ref="544176275"/>
    <nd ref="32571887"/>
    <nd ref="249246577"/>
    <nd ref="544176272"/>
    <nd ref="544176268"/>
    <nd ref="695816479"/>
    <nd ref="286373138"/>
    <nd ref="544176266"/>
    <nd ref="286373110"/>
    <nd ref="286373130"/>
    <nd ref="544176260"/>
    <tag k="highway" v="primary"/>
    <tag k="maxspeed" v="60"/>
    <tag k="name" v="Wolfratshauser Straße"/>
    <tag k="ref" v="B 11"/>
  </way>
  <way id="43042464" version="5" timestamp="2012-03-02T22:23:40Z" uid="13832" user="Peter14" changeset="10853069"/>
  <way id="43042676" version="1" timestamp="2009-10-23T21:59:14Z" uid="30632" user="antblant" changeset="2933687">
    <nd ref="254723137"/>
    <nd ref="539196127"/>
    <nd ref="539196128"/>
    <nd ref="539196129"/>
    <tag k="highway" v="service"/>
    <tag k="name" v="Morwowa"/>
  </way>
  <way id="43042676" version="2" timestamp="2011-07-04T19:38:57Z" uid="419869" user="salcio" changeset="8632949"/>
  <way id="43042677" version="1" timestamp="2009-10-23T21:59:14Z" uid="30632" user="antblant" changeset="2933687">
    <nd ref="539196128"/>
    <nd ref="539196122"/>
    <nd ref="539196123"/>
    <nd ref="539196124"/>
    <nd ref="539196125"/>
    <tag k="highway" v="service"/>
    <tag k="name" v="Morwowa"/>
  </way>
  <way id="43042677" version="2" timestamp="2011-07-04T19:38:57Z" uid="419869" user="salcio" changeset="8632949"/>
  <way id="43042811" version="3" timestamp="2010-04-08T19:54:38Z" uid="74617" user="JohnSmith" changeset="4366395"/>
  <way id="43042463" version="3" timestamp="2012-04-16T12:14:52Z" uid="290723" user="sulagaloh" changeset="11321289"/>
</osm>
