<?xml version='1.0' encoding='UTF-8'?>
<osm version="0.6" generator="libosmium/2.20.0">
  <way id="43114361" version="1" timestamp="2009-10-25T13:47:13Z" uid="164966" user="linuss1" changeset="2946363">
    <nd ref="540169453"/>
    <nd ref="540169455"/>
    <tag k="highway" v="residential"/>
    <tag k="name" v="Amselstieg"/>
  </way>
  <way id="43114361" version="2" timestamp="2009-10-25T18:14:20Z" uid="164966" user="linuss1" changeset="2949147">
    <nd ref="540169453"/>
    <nd ref="540169455"/>
    <tag k="highway" v="service"/>
    <tag k="name" v="Amselstieg"/>
  </way>
  <way id="43114362" version="1" timestamp="2009-10-25T13:47:13Z" uid="164966" user="linuss1" changeset="2946363">
    <nd ref="540169458"/>
    <nd ref="540169447"/>
    <tag k="highway" v="residential"/>
    <tag k="name" v="Amselstieg"/>
  </way>
  <way id="43114362" version="2" timestamp="2009-10-25T18:14:21Z" uid="164966" user="linuss1" changeset="2949147">
    <nd ref="540169458"/>
    <nd ref="540169447"/>
    <tag k="highway" v="service"/>
    <tag k="name" v="Amselstieg"/>
  </way>
  <way id="43114363" version="1" timestamp="2009-10-25T13:47:13Z" uid="164966" user="linuss1" changeset="2946363">
    <nd ref="540169460"/>
    <nd ref="540169449"/>
    <tag k="highway" v="residential"/>
    <tag k="name" v="Amselstieg"/>
  </way>
  <way id="43114363" version="2" timestamp="2009-10-25T18:14:20Z" uid="164966" user="linuss1" changeset="2949147">
    <nd ref="540169460"/>
    <nd ref="540169449"/>
    <tag k="highway" v="service"/>
    <tag k="name" v="Amselstieg"/>
  </way>
  <way id="43114364" version="1" timestamp="2009-10-25T13:47:13Z" uid="164966" user="linuss1" changeset="2946363">
    <nd ref="540169466"/>
    <nd ref="540169462"/>
    <nd ref="540169464"/>
    <tag k="highway" v="residential"/>
    <tag k="name" v="Amselstieg"/>
  </way>
  <way id="43114364" version="2" timestamp="2009-10-25T18:14:20Z" uid="164966" user="linuss1" changeset="2949147">
    <nd ref="540169466"/>
    <nd ref="540169462"/>
    <nd ref="540169464"/>
    <tag k="highway" v="service"/>
    <tag k="name" v="Amselstieg"/>
  </way>
  <way id="43114371" version="2" timestamp="2010-07-29T14:50:45Z" uid="4467" user="Rosscoe" changeset="5347387">
    <nd ref="540169583"/>
    <nd ref="540169599"/>
    <nd ref="540169606"/>
    <nd ref="837589482"/>
    <tag k="highway" v="track"/>
    <tag k="surface" v="dirt"/>
  </way>
  <way id="43114371" version="3" timestamp="2010-09-05T12:12:13Z" uid="232912" user="Jack Kirby" changeset="5687027">
    <nd ref="540169583"/>
    <nd ref="540169599"/>
    <nd ref="540169606"/>
    <nd ref="837589482"/>
    <nd ref="897211337"/>
    <tag k="highway" v="track"/>
    <tag k="surface" v="dirt"/>
  </way>
  <way id="43114979" version="2" timestamp="2010-04-02T17:52:06Z" uid="20587" user="balrog-kun" changeset="4304500">
    <nd ref="540175075"/>
    <nd ref="540175073"/>
    <nd ref="540175076"/>
    <nd ref="540175077"/>
    <nd ref="540175078"/>
    <nd ref="540175079"/>
    <nd ref="540175075"/>
    <tag k="amenity" v="parking"/>
    <tag k="capacity" v="1021"/>
    <tag k="fee" v="yes"/>
    <tag k="name" v="5th Avenue Garage"/>
    <tag k="parking" v="underground"/>
  </way>
  <way id="43114979" version="3" timestamp="2011-11-15T20:44:29Z" uid="23762" user="Heptazane" changeset="9838797">
    <nd ref="540175075"/>
    <nd ref="540175073"/>
    <nd ref="540175076"/>
    <nd ref="540175077"/>
    <nd ref="1504405249"/>
    <nd ref="1504405180"/>
    <nd ref="540175078"/>
    <nd ref="540175079"/>
    <nd ref="1504405222"/>
    <nd ref="1504405120"/>
    <nd ref="540175075"/>
    <tag k="amenity" v="parking"/>
    <tag k="capacity" v="1021"/>
    <tag k="fee" v="yes"/>
    <tag k="name" v="5th Avenue Garage"/>
    <tag k="parking" v="underground"/>
  </way>
  <way id="43114371" version="4" timestamp="2012-07-19T09:50:35Z" uid="722137" user="OSMF Redaction Account" changeset="12316886">
    <nd ref="540169583"/>
    <nd ref="540169599"/>
    <nd ref="540169606"/>
    <nd ref="897211337"/>
    <tag k="highway" v="track"/>
    <tag k="surface" v="dirt"/>
  </way>
  <way id="43114979" version="4" timestamp="2012-08-06T22:36:42Z" uid="53479" user="bdp" changeset="12639853">
    <nd ref="540175075"/>
    <nd ref="540175073"/>
    <nd ref="540175076"/>
    <nd ref="540175077"/>
    <nd ref="1504405249"/>
    <nd ref="1504405180"/>
    <nd ref="540175078"/>
    <nd ref="540175079"/>
    <nd ref="1504405222"/>
    <nd ref="1504405120"/>
    <nd ref="540175075"/>
    <tag k="amenity" v="parking"/>
    <tag k="building" v="yes"/>
    <tag k="capacity" v="1021"/>
    <tag k="fee" v="yes"/>
    <tag k="name" v="5th Avenue Garage"/>
    <tag k="parking" v="underground"/>
  </way>
</osm>
