<?xml version='1.0' encoding='UTF-8'?>
<osm version="0.6" generator="libosmium/2.20.0">
  <way id="43136050" version="2" timestamp="2010-03-28T11:07:25Z" uid="20587" user="balrog-kun" changeset="4254597">
    <nd ref="540397623"/>
    <nd ref="540397624"/>
    <nd ref="540397626"/>
    <tag k="highway" v="residential"/>
    <tag k="name" v="Stockbridge Road"/>
  </way>
  <way id="43136057" version="3" timestamp="2010-03-28T11:07:25Z" uid="20587" user="balrog-kun" changeset="4254597">
    <nd ref="540397636"/>
    <nd ref="540397637"/>
    <tag k="highway" v="residential"/>
    <tag k="name" v="Antietam Road"/>
  </way>
  <way id="43136064" version="4" timestamp="2010-03-28T11:07:25Z" uid="20587" user="balrog-kun" changeset="4254597">
    <nd ref="540397638"/>
    <nd ref="540397639"/>
    <nd ref="540397641"/>
    <nd ref="540397642"/>
    <nd ref="540397643"/>
    <tag k="highway" v="tertiary"/>
    <tag k="name" v="Zaslavsky Place"/>
  </way>
  <way id="43136064" version="5" timestamp="2012-03-18T05:05:27Z" uid="48060" user="Sat" changeset="11014891">
    <nd ref="540397638"/>
    <nd ref="540397639"/>
    <nd ref="540397641"/>
    <nd ref="1679221719"/>
    <nd ref="540397642"/>
    <nd ref="540397643"/>
    <tag k="highway" v="tertiary"/>
    <tag k="name" v="Zaslavsky Place"/>
  </way>
  <way id="43136064" version="6" timestamp="2012-03-18T05:11:50Z" uid="48060" user="Sat" changeset="11014912">
    <nd ref="540397638"/>
    <nd ref="540397639"/>
    <nd ref="1679225937"/>
    <nd ref="1679225944"/>
    <tag k="highway" v="tertiary"/>
    <tag k="name" v="Zaslavsky Place"/>
  </way>
  <way id="43136078" version="2" timestamp="2010-03-28T11:07:25Z" uid="20587" user="balrog-kun" changeset="4254597">
    <nd ref="540397702"/>
    <nd ref="540397703"/>
    <nd ref="540397706"/>
    <tag k="highway" v="residential"/>
    <tag k="name" v="Manassas Street"/>
  </way>
  <way id="43136082" version="2" timestamp="2010-03-28T11:07:25Z" uid="20587" user="balrog-kun" changeset="4254597">
    <nd ref="536316699"/>
    <nd ref="540397710"/>
    <tag k="highway" v="residential"/>
    <tag k="name" v="Falcon Bluff Court"/>
  </way>
  <way id="43136083" version="5" timestamp="2010-04-07T13:59:33Z" uid="20587" user="balrog-kun" changeset="4353646">
    <nd ref="147501627"/>
    <nd ref="540398055"/>
    <nd ref="540397978"/>
    <nd ref="540397982"/>
    <nd ref="540397983"/>
    <nd ref="540397986"/>
    <nd ref="147502024"/>
    <tag k="highway" v="track"/>
    <tag k="name" v="Blackjack Road"/>
    <tag k="name_1" v="Black Jack Road"/>
    <tag k="tiger:cfcc" v="A74; A41"/>
    <tag k="tiger:county" v="Oklahoma, OK"/>
    <tag k="tiger:name_base" v="Blackjack"/>
    <tag k="tiger:name_base_1" v="Black Jack"/>
    <tag k="tiger:name_type" v="Rd"/>
    <tag k="tiger:name_type_1" v="Rd"/>
    <tag k="tiger:reviewed" v="no"/>
    <tag k="tiger:separated" v="no"/>
    <tag k="tiger:source" v="tiger_import_dch_v0.6_20070829"/>
    <tag k="tiger:tlid" v="100447419; 100437891"/>
    <tag k="tiger:zip_left" v="73054"/>
    <tag k="tiger:zip_right" v="73054"/>
  </way>
  <way id="43136086" version="2" timestamp="2010-03-28T11:07:25Z" uid="20587" user="balrog-kun" changeset="4254597">
    <nd ref="536316715"/>
    <nd ref="540397635"/>
    <nd ref="536316716"/>
    <nd ref="536316718"/>
    <nd ref="540397718"/>
    <nd ref="536316719"/>
    <nd ref="536316721"/>
    <nd ref="540397636"/>
    <nd ref="536316722"/>
    <nd ref="540397624"/>
    <nd ref="536316636"/>
    <tag k="highway" v="residential"/>
    <tag k="name" v="Honeybrook Avenue"/>
  </way>
  <way id="43136086" version="3" timestamp="2012-03-18T04:53:48Z" uid="48060" user="Sat" changeset="11014864">
    <nd ref="536316715"/>
    <nd ref="540397635"/>
    <nd ref="536316716"/>
    <nd ref="536316718"/>
    <nd ref="540397718"/>
    <nd ref="536316719"/>
    <nd ref="536316721"/>
    <nd ref="540397636"/>
    <nd ref="536316722"/>
    <nd ref="540397624"/>
    <nd ref="1679220040"/>
    <nd ref="536316636"/>
    <tag k="highway" v="residential"/>
    <tag k="name" v="Honeybrook Avenue"/>
  </way>
  <way id="43136102" version="4" timestamp="2010-03-28T11:07:25Z" uid="20587" user="balrog-kun" changeset="4254597">
    <nd ref="536278068"/>
    <nd ref="536278070"/>
    <tag k="highway" v="tertiary"/>
    <tag k="name" v="4S Ranch Parkway"/>
  </way>
  <way id="43136109" version="3" timestamp="2010-03-28T11:07:26Z" uid="20587" user="balrog-kun" changeset="4254597">
    <nd ref="540397766"/>
    <nd ref="540397768"/>
    <tag k="highway" v="residential"/>
    <tag k="name" v="Plumeria Lane"/>
  </way>
  <way id="43136112" version="3" timestamp="2010-03-28T11:07:26Z" uid="20587" user="balrog-kun" changeset="4254597">
    <nd ref="540397772"/>
    <nd ref="540397773"/>
    <tag k="highway" v="residential"/>
    <tag k="name" v="Paradisio Place"/>
  </way>
  <way id="43136114" version="2" timestamp="2010-03-28T11:07:26Z" uid="20587" user="balrog-kun" changeset="4254597">
    <nd ref="540397774"/>
    <nd ref="540397776"/>
    <tag k="highway" v="residential"/>
    <tag k="name" v="Bixby Street"/>
  </way>
  <way id="43136119" version="2" timestamp="2010-03-28T11:07:26Z" uid="20587" user="balrog-kun" changeset="4254597">
    <nd ref="540397781"/>
    <nd ref="536316857"/>
    <nd ref="540397784"/>
    <tag k="highway" v="residential"/>
    <tag k="name" v="Hutchins Landing"/>
  </way>
  <way id="43136127" version="3" timestamp="2010-03-28T11:07:26Z" uid="20587" user="balrog-kun" changeset="4254597">
    <nd ref="540397789"/>
    <nd ref="540397790"/>
    <tag k="highway" v="residential"/>
    <tag k="name" v="Yellow Rose Lane"/>
  </way>
  <way id="43136130" version="3" timestamp="2010-03-28T11:07:26Z" uid="20587" user="balrog-kun" changeset="4254597">
    <nd ref="540397797"/>
    <nd ref="540397798"/>
    <tag k="highway" v="residential"/>
    <tag k="name" v="White Rose Lane"/>
  </way>
  <way id="43136132" version="3" timestamp="2010-03-28T11:07:26Z" uid="20587" user="balrog-kun" changeset="4254597">
    <nd ref="540397800"/>
    <nd ref="540397802"/>
    <tag k="highway" v="residential"/>
    <tag k="name" v="Red Rose Lane"/>
  </way>
  <way id="43136138" version="3" timestamp="2010-03-28T11:07:26Z" uid="20587" user="balrog-kun" changeset="4254597">
    <nd ref="540397807"/>
    <nd ref="540397808"/>
    <nd ref="540397809"/>
    <tag k="highway" v="residential"/>
    <tag k="name" v="Garden Walk Court"/>
  </way>
  <way id="43136249" version="2" timestamp="2011-03-24T11:14:03Z" uid="43863" user="Rundling" changeset="7654906">
    <nd ref="276200716"/>
    <nd ref="1215829158"/>
    <nd ref="1215829146"/>
    <nd ref="1215829143"/>
    <nd ref="375755923"/>
    <nd ref="21430822"/>
    <tag k="highway" v="primary_link"/>
    <tag k="lanes" v="1"/>
    <tag k="name" v="Nordallee"/>
    <tag k="oneway" v="yes"/>
  </way>
  <way id="43136251" version="2" timestamp="2011-02-06T16:52:14Z" uid="43863" user="Rundling" changeset="7206113">
    <nd ref="433884775"/>
    <nd ref="433884780"/>
    <nd ref="1139402022"/>
    <nd ref="433884781"/>
    <nd ref="433884784"/>
    <tag k="highway" v="primary"/>
    <tag k="name" v="Uhlenring"/>
    <tag k="oneway" v="yes"/>
    <tag k="ref" v="B 4"/>
  </way>
  <way id="43136251" version="3" timestamp="2011-07-18T12:16:20Z" uid="30077" user="ChristianW" changeset="8757771">
    <nd ref="433884775"/>
    <nd ref="433884780"/>
    <nd ref="1139402022"/>
    <nd ref="433884781"/>
    <nd ref="433884784"/>
    <tag k="highway" v="primary"/>
    <tag k="lit" v="no"/>
    <tag k="name" v="Uhlenring"/>
    <tag k="oneway" v="yes"/>
    <tag k="ref" v="B 4"/>
  </way>
  <way id="43136251" version="4" timestamp="2011-07-18T12:17:54Z" uid="30077" user="ChristianW" changeset="8757814">
    <nd ref="433884775"/>
    <nd ref="433884780"/>
    <nd ref="1139402022"/>
    <nd ref="433884781"/>
    <nd ref="433884784"/>
    <tag k="highway" v="primary"/>
    <tag k="lit" v="no"/>
    <tag k="name" v="Uhlenring"/>
    <tag k="oneway" v="yes"/>
    <tag k="ref" v="B 4"/>
    <tag k="surface" v="asphalt"/>
  </way>
  <way id="43136252" version="2" timestamp="2011-03-24T11:14:06Z" uid="43863" user="Rundling" changeset="7654906"/>
  <way id="43136392" version="3" timestamp="2010-09-25T07:57:49Z" uid="33382" user="de_muur" changeset="5868653">
    <nd ref="540399089"/>
    <nd ref="540399090"/>
    <nd ref="540399091"/>
    <tag k="highway" v="track"/>
    <tag k="surface" v="unpaved"/>
    <tag k="tracktype" v="grade2"/>
  </way>
  <way id="43136392" version="4" timestamp="2010-09-25T15:18:17Z" uid="33382" user="de_muur" changeset="5871807">
    <nd ref="540399089"/>
    <nd ref="540399090"/>
    <nd ref="357460952"/>
    <tag k="highway" v="track"/>
    <tag k="surface" v="unpaved"/>
    <tag k="tracktype" v="grade2"/>
  </way>
  <way id="43136393" version="3" timestamp="2010-09-25T15:18:10Z" uid="33382" user="de_muur" changeset="5871807">
    <nd ref="357459350"/>
    <nd ref="540399089"/>
    <tag k="highway" v="residential"/>
    <tag k="maxspeed" v="30"/>
    <tag k="surface" v="paved"/>
  </way>
  <way id="43136515" version="5" timestamp="2009-12-24T02:49:35Z" uid="6975" user="ulfl" changeset="3439655">
    <nd ref="470125475"/>
    <nd ref="540399941"/>
    <tag k="bridge" v="yes"/>
    <tag k="highway" v="path"/>
    <tag k="motorcycle" v="yes"/>
  </way>
  <way id="43136515" version="6" timestamp="2011-12-01T18:13:31Z" uid="509465" user="Dymo12" changeset="10010427">
    <nd ref="470125475"/>
    <nd ref="540399941"/>
    <tag k="bridge" v="yes"/>
    <tag k="highway" v="path"/>
    <tag k="layer" v="1"/>
    <tag k="motorcycle" v="yes"/>
  </way>
  <way id="43136515" version="7" timestamp="2012-01-10T05:41:14Z" uid="509465" user="Dymo12" changeset="10348451"/>
  <way id="43136666" version="5" timestamp="2009-12-24T02:49:36Z" uid="6975" user="ulfl" changeset="3439655">
    <nd ref="540400116"/>
    <nd ref="540400431"/>
    <tag k="bridge" v="yes"/>
    <tag k="car" v="no"/>
    <tag k="highway" v="service"/>
    <tag k="motorcycle" v="yes"/>
  </way>
  <way id="43136666" version="6" timestamp="2011-12-01T18:13:37Z" uid="509465" user="Dymo12" changeset="10010427">
    <nd ref="540400116"/>
    <nd ref="540400431"/>
    <tag k="bridge" v="yes"/>
    <tag k="car" v="no"/>
    <tag k="highway" v="service"/>
    <tag k="layer" v="1"/>
    <tag k="motorcycle" v="yes"/>
  </way>
  <way id="43136666" version="7" timestamp="2012-01-10T05:41:15Z" uid="509465" user="Dymo12" changeset="10348451"/>
  <way id="43136761" version="1" timestamp="2009-10-25T20:37:07Z" uid="157412" user="Leopold" changeset="2950805">
    <nd ref="540401053"/>
    <nd ref="540401054"/>
    <nd ref="540401055"/>
    <nd ref="540401056"/>
    <nd ref="540401057"/>
    <nd ref="540401059"/>
    <nd ref="540401062"/>
    <nd ref="540401064"/>
    <tag k="highway" v="track"/>
    <tag k="surface" v="gravel"/>
  </way>
  <way id="43136761" version="2" timestamp="2012-03-06T17:26:51Z" uid="11374" user="q_un_go" changeset="10892316"/>
  <way id="43136762" version="1" timestamp="2009-10-25T20:37:10Z" uid="157412" user="Leopold" changeset="2950805">
    <nd ref="540401069"/>
    <nd ref="540401071"/>
    <nd ref="540401072"/>
    <nd ref="540401074"/>
    <tag k="highway" v="track"/>
    <tag k="surface" v="gravel"/>
  </way>
  <way id="43136762" version="2" timestamp="2012-03-06T17:26:52Z" uid="11374" user="q_un_go" changeset="10892316"/>
  <way id="43136766" version="1" timestamp="2009-10-25T20:37:14Z" uid="157412" user="Leopold" changeset="2950805">
    <nd ref="540401079"/>
    <nd ref="540401082"/>
    <nd ref="540401085"/>
    <nd ref="540401089"/>
    <nd ref="540401092"/>
    <nd ref="540401095"/>
    <nd ref="540401097"/>
    <nd ref="540401099"/>
    <tag k="highway" v="track"/>
    <tag k="surface" v="gravel"/>
  </way>
  <way id="43136766" version="2" timestamp="2012-03-06T17:26:51Z" uid="11374" user="q_un_go" changeset="10892316"/>
  <way id="43136957" version="3" timestamp="2010-03-22T21:47:33Z" uid="34428" user="usm78-gis" changeset="4207394">
    <nd ref="411817966"/>
    <nd ref="672462958"/>
    <nd ref="540402493"/>
    <tag k="highway" v="residential"/>
    <tag k="name" v="Бобыльская дорога"/>
    <tag k="surface" v="ground"/>
  </way>
  <way id="43136957" version="4" timestamp="2010-06-24T10:57:24Z" uid="303950" user="mikhail" changeset="5065192">
    <nd ref="411817966"/>
    <nd ref="786905328"/>
    <nd ref="672462958"/>
    <nd ref="540402493"/>
    <nd ref="659977104"/>
    <nd ref="659977103"/>
    <nd ref="659977089"/>
    <tag k="highway" v="residential"/>
    <tag k="name" v="Бобыльская дорога"/>
    <tag k="surface" v="ground"/>
  </way>
  <way id="43136957" version="5" timestamp="2010-09-18T11:49:44Z" uid="143266" user="Sergey Astakhov" changeset="5810861">
    <nd ref="411817966"/>
    <nd ref="786905328"/>
    <nd ref="672462958"/>
    <nd ref="540402493"/>
    <nd ref="659977104"/>
    <nd ref="659977103"/>
    <nd ref="659977089"/>
    <tag k="highway" v="residential"/>
    <tag k="name" v="Бобыльская дорога"/>
    <tag k="surface" v="asphalt"/>
  </way>
  <way id="43136957" version="6" timestamp="2010-11-16T20:57:54Z" uid="143266" user="Sergey Astakhov" changeset="6388343">
    <nd ref="411817966"/>
    <nd ref="786905328"/>
    <nd ref="672462958"/>
    <nd ref="540402493"/>
    <nd ref="659977104"/>
    <nd ref="659977103"/>
    <nd ref="659977089"/>
    <tag k="highway" v="residential"/>
    <tag k="lit" v="no"/>
    <tag k="name" v="Бобыльская дорога"/>
    <tag k="surface" v="asphalt"/>
  </way>
  <way id="43136957" version="7" timestamp="2011-01-25T19:38:06Z" uid="143266" user="Sergey Astakhov" changeset="7087052">
    <nd ref="411817966"/>
    <nd ref="786905328"/>
    <nd ref="672462958"/>
    <nd ref="540402493"/>
    <nd ref="659977104"/>
    <nd ref="659977103"/>
    <nd ref="1120215780"/>
    <nd ref="659977089"/>
    <tag k="highway" v="residential"/>
    <tag k="lit" v="no"/>
    <tag k="name" v="Бобыльская дорога"/>
    <tag k="surface" v="asphalt"/>
  </way>
  <way id="43136957" version="8" timestamp="2012-02-04T16:23:57Z" uid="39040" user="Dinamik" changeset="10585871">
    <nd ref="411817966"/>
    <nd ref="786905328"/>
    <nd ref="672462958"/>
    <tag k="highway" v="residential"/>
    <tag k="lit" v="no"/>
    <tag k="name" v="Бобыльская дорога"/>
    <tag k="surface" v="asphalt"/>
  </way>
  <way id="43136964" version="1" timestamp="2009-10-25T20:40:14Z" uid="9581" user="Lobelt" changeset="2950850">
    <nd ref="540401899"/>
    <nd ref="540401901"/>
    <nd ref="540401905"/>
    <nd ref="540401902"/>
    <nd ref="540401900"/>
    <nd ref="540401899"/>
    <tag k="addr:housenumber" v="1"/>
    <tag k="addr:street" v="Ringweg"/>
    <tag k="building" v="yes"/>
  </way>
  <way id="43136965" version="1" timestamp="2009-10-25T20:40:14Z" uid="9581" user="Lobelt" changeset="2950850">
    <nd ref="540401901"/>
    <nd ref="540401903"/>
    <nd ref="540401904"/>
    <nd ref="540401905"/>
    <nd ref="540401901"/>
    <tag k="building" v="yes"/>
  </way>
  <way id="43136966" version="1" timestamp="2009-10-25T20:40:14Z" uid="9581" user="Lobelt" changeset="2950850">
    <nd ref="540401906"/>
    <nd ref="540401899"/>
    <nd ref="540401900"/>
    <nd ref="540401907"/>
    <nd ref="540401908"/>
    <nd ref="540401906"/>
    <tag k="addr:housenumber" v="1/1"/>
    <tag k="addr:street" v="Ringweg"/>
    <tag k="building" v="yes"/>
  </way>
  <way id="43136967" version="1" timestamp="2009-10-25T20:40:14Z" uid="9581" user="Lobelt" changeset="2950850">
    <nd ref="540401912"/>
    <nd ref="540401906"/>
    <nd ref="540401908"/>
    <nd ref="540401917"/>
    <nd ref="540401912"/>
    <tag k="building" v="yes"/>
  </way>
  <way id="43136968" version="1" timestamp="2009-10-25T20:40:14Z" uid="9581" user="Lobelt" changeset="2950850">
    <nd ref="540401915"/>
    <nd ref="540401909"/>
    <nd ref="540401911"/>
    <nd ref="540401918"/>
    <nd ref="540401916"/>
    <nd ref="540401915"/>
    <tag k="addr:housenumber" v="3/1"/>
    <tag k="addr:street" v="Ringweg"/>
    <tag k="building" v="yes"/>
  </way>
  <way id="43136969" version="1" timestamp="2009-10-25T20:40:14Z" uid="9581" user="Lobelt" changeset="2950850">
    <nd ref="540401909"/>
    <nd ref="540401910"/>
    <nd ref="540401919"/>
    <nd ref="540401914"/>
    <nd ref="540401911"/>
    <nd ref="540401909"/>
    <tag k="addr:housenumber" v="3"/>
    <tag k="addr:street" v="Ringweg"/>
    <tag k="building" v="yes"/>
  </way>
  <way id="43136970" version="1" timestamp="2009-10-25T20:40:14Z" uid="9581" user="Lobelt" changeset="2950850">
    <nd ref="540401920"/>
    <nd ref="540401915"/>
    <nd ref="540401916"/>
    <nd ref="540401913"/>
    <nd ref="540401920"/>
    <tag k="building" v="yes"/>
  </way>
  <way id="43136971" version="1" timestamp="2009-10-25T20:40:14Z" uid="9581" user="Lobelt" changeset="2950850">
    <nd ref="540401910"/>
    <nd ref="540401912"/>
    <nd ref="540401917"/>
    <nd ref="540401919"/>
    <nd ref="540401910"/>
    <tag k="building" v="yes"/>
  </way>
  <way id="43136974" version="1" timestamp="2009-10-25T20:40:14Z" uid="9581" user="Lobelt" changeset="2950850">
    <nd ref="540401921"/>
    <nd ref="540401923"/>
    <nd ref="540401927"/>
    <nd ref="540401924"/>
    <nd ref="540401932"/>
    <nd ref="540401922"/>
    <nd ref="540401921"/>
    <tag k="addr:housenumber" v="7"/>
    <tag k="addr:street" v="Ringweg"/>
    <tag k="building" v="yes"/>
  </way>
  <way id="43136976" version="1" timestamp="2009-10-25T20:40:15Z" uid="9581" user="Lobelt" changeset="2950850">
    <nd ref="540401925"/>
    <nd ref="540401934"/>
    <nd ref="540401922"/>
    <nd ref="540401921"/>
    <nd ref="540401926"/>
    <nd ref="540401937"/>
    <nd ref="540401925"/>
    <tag k="addr:housenumber" v="7/1"/>
    <tag k="addr:street" v="Ringweg"/>
    <tag k="building" v="yes"/>
  </way>
  <way id="43136980" version="1" timestamp="2009-10-25T20:40:15Z" uid="9581" user="Lobelt" changeset="2950850">
    <nd ref="540401927"/>
    <nd ref="540401928"/>
    <nd ref="540401929"/>
    <nd ref="540401923"/>
    <nd ref="540401927"/>
    <tag k="building" v="yes"/>
  </way>
  <way id="43136982" version="1" timestamp="2009-10-25T20:40:15Z" uid="9581" user="Lobelt" changeset="2950850">
    <nd ref="540401922"/>
    <nd ref="540401930"/>
    <nd ref="540401931"/>
    <nd ref="540401932"/>
    <nd ref="540401922"/>
    <tag k="building" v="yes"/>
  </way>
  <way id="43136985" version="1" timestamp="2009-10-25T20:40:15Z" uid="9581" user="Lobelt" changeset="2950850">
    <nd ref="540401933"/>
    <nd ref="540401930"/>
    <nd ref="540401922"/>
    <nd ref="540401934"/>
    <nd ref="540401933"/>
    <tag k="building" v="yes"/>
  </way>
  <way id="43136987" version="1" timestamp="2009-10-25T20:40:15Z" uid="9581" user="Lobelt" changeset="2950850">
    <nd ref="540401926"/>
    <nd ref="540401935"/>
    <nd ref="540401938"/>
    <nd ref="540401936"/>
    <nd ref="540401937"/>
    <nd ref="540401926"/>
    <tag k="building" v="yes"/>
  </way>
  <way id="43136990" version="1" timestamp="2009-10-25T20:40:15Z" uid="9581" user="Lobelt" changeset="2950850">
    <nd ref="540401938"/>
    <nd ref="540401939"/>
    <nd ref="540401940"/>
    <nd ref="540401941"/>
    <nd ref="540401936"/>
    <nd ref="540401938"/>
    <tag k="building" v="yes"/>
  </way>
  <way id="43136992" version="1" timestamp="2009-10-25T20:40:15Z" uid="9581" user="Lobelt" changeset="2950850">
    <nd ref="540401942"/>
    <nd ref="540401944"/>
    <nd ref="540401946"/>
    <nd ref="540401949"/>
    <nd ref="540401950"/>
    <nd ref="540401948"/>
    <nd ref="540401945"/>
    <nd ref="540401943"/>
    <nd ref="540401942"/>
    <tag k="addr:housenumber" v="9"/>
    <tag k="addr:street" v="Ringweg"/>
    <tag k="building" v="yes"/>
  </way>
  <way id="43136993" version="1" timestamp="2009-10-25T20:40:15Z" uid="9581" user="Lobelt" changeset="2950850">
    <nd ref="540401951"/>
    <nd ref="540401952"/>
    <nd ref="540401954"/>
    <nd ref="540401955"/>
    <nd ref="540401956"/>
    <nd ref="540401962"/>
    <nd ref="540401957"/>
    <nd ref="540401958"/>
    <nd ref="540401959"/>
    <nd ref="540401951"/>
    <tag k="addr:housenumber" v="2"/>
    <tag k="addr:street" v="Ringweg"/>
    <tag k="building" v="yes"/>
  </way>
  <way id="43136996" version="1" timestamp="2009-10-25T20:40:15Z" uid="9581" user="Lobelt" changeset="2950850">
    <nd ref="540401960"/>
    <nd ref="540401961"/>
    <nd ref="540401957"/>
    <nd ref="540401962"/>
    <nd ref="540401963"/>
    <nd ref="540401960"/>
    <tag k="building" v="yes"/>
  </way>
  <way id="43136998" version="1" timestamp="2009-10-25T20:40:15Z" uid="9581" user="Lobelt" changeset="2950850">
    <nd ref="540401965"/>
    <nd ref="540401966"/>
    <nd ref="540401975"/>
    <nd ref="540401967"/>
    <nd ref="540401968"/>
    <nd ref="540401969"/>
    <nd ref="540401970"/>
    <nd ref="540401971"/>
    <nd ref="540401972"/>
    <nd ref="540401965"/>
    <tag k="addr:housenumber" v="4"/>
    <tag k="addr:street" v="Ringweg"/>
    <tag k="building" v="yes"/>
  </way>
  <way id="43136102" version="5" timestamp="2012-07-12T23:50:11Z" uid="3392" user="SimMoonXP" changeset="12201850">
    <nd ref="536278068"/>
    <nd ref="1823529197"/>
    <nd ref="536278070"/>
    <tag k="highway" v="tertiary"/>
    <tag k="name" v="4S Ranch Parkway"/>
  </way>
  <way id="43136249" version="3" timestamp="2012-04-06T20:21:23Z" uid="161619" user="FvGordon" changeset="11206580"/>
  <way id="43136251" version="5" timestamp="2012-04-06T20:21:27Z" uid="161619" user="FvGordon" changeset="11206580"/>
  <way id="43136392" version="5" timestamp="2012-07-19T02:14:30Z" uid="722137" user="OSMF Redaction Account" changeset="12304844">
    <nd ref="540399089"/>
    <nd ref="540399090"/>
    <tag k="highway" v="track"/>
    <tag k="tracktype" v="grade2"/>
  </way>
  <way id="43136392" version="6" timestamp="2012-07-31T10:09:34Z" uid="423438" user="streele" changeset="12559074">
    <nd ref="540399089"/>
    <nd ref="357460952"/>
    <tag k="highway" v="track"/>
    <tag k="tracktype" v="grade2"/>
  </way>
  <way id="43136393" version="4" timestamp="2012-07-19T02:14:30Z" uid="722137" user="OSMF Redaction Account" changeset="12304844">
    <nd ref="357459350"/>
    <nd ref="540399089"/>
    <tag k="highway" v="residential"/>
  </way>
  <way id="43136393" version="5" timestamp="2012-07-31T10:09:34Z" uid="423438" user="streele" changeset="12559074">
    <nd ref="357459331"/>
    <nd ref="357459350"/>
    <nd ref="540399089"/>
    <tag k="highway" v="residential"/>
  </way>
  <way id="43136957" version="9" timestamp="2012-07-20T06:26:32Z" uid="722137" user="OSMF Redaction Account" changeset="12363822">
    <nd ref="411817966"/>
    <nd ref="786905328"/>
    <tag k="highway" v="residential"/>
    <tag k="lit" v="no"/>
    <tag k="name" v="Бобыльская дорога"/>
    <tag k="surface" v="asphalt"/>
  </way>
  <way id="43136957" version="10" timestamp="2012-07-20T09:47:00Z" uid="39040" user="Dinamik" changeset="12370225">
    <nd ref="411817966"/>
    <nd ref="786905328"/>
    <nd ref="672462958"/>
    <tag k="highway" v="residential"/>
    <tag k="lit" v="no"/>
    <tag k="name" v="Бобыльская дорога"/>
    <tag k="surface" v="asphalt"/>
  </way>
  <way id="43136964" version="2" timestamp="2012-07-17T02:21:10Z" uid="722137" user="OSMF Redaction Account" changeset="12255319"/>
  <way id="43136965" version="2" timestamp="2012-07-17T02:21:10Z" uid="722137" user="OSMF Redaction Account" changeset="12255319"/>
  <way id="43136966" version="2" timestamp="2012-07-17T02:21:12Z" uid="722137" user="OSMF Redaction Account" changeset="12255319"/>
  <way id="43136967" version="2" timestamp="2012-07-17T02:21:13Z" uid="722137" user="OSMF Redaction Account" changeset="12255319"/>
  <way id="43136968" version="2" timestamp="2012-07-17T02:21:15Z" uid="722137" user="OSMF Redaction Account" changeset="12255319"/>
  <way id="43136969" version="2" timestamp="2012-07-17T02:21:14Z" uid="722137" user="OSMF Redaction Account" changeset="12255319"/>
  <way id="43136970" version="2" timestamp="2012-07-17T02:21:15Z" uid="722137" user="OSMF Redaction Account" changeset="12255319"/>
  <way id="43136971" version="2" timestamp="2012-07-17T02:21:13Z" uid="722137" user="OSMF Redaction Account" changeset="12255319"/>
  <way id="43136974" version="2" timestamp="2012-07-17T02:21:19Z" uid="722137" user="OSMF Redaction Account" changeset="12255319"/>
  <way id="43136976" version="2" timestamp="2012-07-17T02:21:20Z" uid="722137" user="OSMF Redaction Account" changeset="12255319"/>
  <way id="43136980" version="2" timestamp="2012-07-17T02:21:18Z" uid="722137" user="OSMF Redaction Account" changeset="12255319"/>
  <way id="43136982" version="2" timestamp="2012-07-17T02:21:19Z" uid="722137" user="OSMF Redaction Account" changeset="12255319"/>
  <way id="43136985" version="2" timestamp="2012-07-17T02:21:20Z" uid="722137" user="OSMF Redaction Account" changeset="12255319"/>
  <way id="43136987" version="2" timestamp="2012-07-17T02:21:20Z" uid="722137" user="OSMF Redaction Account" changeset="12255319"/>
  <way id="43136990" version="2" timestamp="2012-07-17T02:21:21Z" uid="722137" user="OSMF Redaction Account" changeset="12255319"/>
  <way id="43136992" version="2" timestamp="2012-07-17T02:21:21Z" uid="722137" user="OSMF Redaction Account" changeset="12255319"/>
  <way id="43136993" version="2" timestamp="2012-07-17T02:21:11Z" uid="722137" user="OSMF Redaction Account" changeset="12255319"/>
  <way id="43136996" version="2" timestamp="2012-07-17T02:21:13Z" uid="722137" user="OSMF Redaction Account" changeset="12255319"/>
  <way id="43136998" version="2" timestamp="2012-07-17T02:21:13Z" uid="722137" user="OSMF Redaction Account" changeset="12255319"/>
</osm>
