<?xml version='1.0' encoding='UTF-8'?>
<osm version="0.6" generator="libosmium/2.20.0">
  <way id="43414042" version="1" timestamp="2009-10-31T00:55:28Z" uid="20587" user="balrog-kun" changeset="2994433">
    <nd ref="255521653"/>
    <nd ref="547416151"/>
    <nd ref="547416154"/>
    <nd ref="547416161"/>
    <tag k="highway" v="footway"/>
  </way>
  <way id="43414042" version="2" timestamp="2010-01-30T01:27:23Z" uid="20587" user="balrog-kun" changeset="3747952">
    <nd ref="255521653"/>
    <nd ref="547416151"/>
    <tag k="highway" v="footway"/>
  </way>
  <way id="43414043" version="1" timestamp="2009-10-31T00:55:28Z" uid="20587" user="balrog-kun" changeset="2994433">
    <nd ref="547416161"/>
    <nd ref="547416155"/>
    <tag k="highway" v="footway"/>
    <tag k="layer" v="-1"/>
    <tag k="tunnel" v="yes"/>
  </way>
  <way id="43414044" version="1" timestamp="2009-10-31T00:55:28Z" uid="20587" user="balrog-kun" changeset="2994433">
    <nd ref="547416155"/>
    <nd ref="547416156"/>
    <tag k="highway" v="footway"/>
  </way>
  <way id="43414045" version="1" timestamp="2009-10-31T00:55:28Z" uid="20587" user="balrog-kun" changeset="2994433">
    <nd ref="547416177"/>
    <nd ref="547416216"/>
    <nd ref="547416183"/>
    <nd ref="547416182"/>
    <nd ref="547416177"/>
    <tag k="access" v="private"/>
    <tag k="sport" v="swimming"/>
  </way>
  <way id="43414046" version="1" timestamp="2009-10-31T00:55:28Z" uid="20587" user="balrog-kun" changeset="2994433">
    <nd ref="547416218"/>
    <nd ref="547416186"/>
    <nd ref="547416225"/>
    <nd ref="547416223"/>
    <nd ref="547416218"/>
    <tag k="addr:housenumber" v="3"/>
    <tag k="addr:postcode" v="28011"/>
    <tag k="addr:street" v="Calle de Sanchorreja"/>
    <tag k="building" v="residential"/>
    <tag k="building:levels" v="8"/>
  </way>
  <way id="43414046" version="2" timestamp="2010-01-30T01:35:19Z" uid="20587" user="balrog-kun" changeset="3747963">
    <nd ref="622726448"/>
    <nd ref="547416218"/>
    <nd ref="547416186"/>
    <nd ref="622726449"/>
    <nd ref="622726448"/>
    <tag k="addr:housenumber" v="3"/>
    <tag k="addr:postcode" v="28011"/>
    <tag k="addr:street" v="Calle de Sanchorreja"/>
    <tag k="building" v="residential"/>
    <tag k="building:levels" v="8"/>
  </way>
  <way id="43414047" version="1" timestamp="2009-10-31T00:55:28Z" uid="20587" user="balrog-kun" changeset="2994433">
    <nd ref="547416189"/>
    <nd ref="547416191"/>
    <nd ref="547416209"/>
    <nd ref="547416207"/>
    <nd ref="547416189"/>
    <tag k="addr:housenumber" v="1"/>
    <tag k="addr:postcode" v="28011"/>
    <tag k="addr:street" v="Calle de Sanchorreja"/>
    <tag k="building" v="residential"/>
    <tag k="building:levels" v="8"/>
  </way>
  <way id="43414047" version="2" timestamp="2010-01-30T01:35:19Z" uid="20587" user="balrog-kun" changeset="3747963">
    <nd ref="547416189"/>
    <nd ref="547416191"/>
    <nd ref="547416209"/>
    <nd ref="547416207"/>
    <nd ref="547416189"/>
    <tag k="addr:housenumber" v="1b"/>
    <tag k="addr:postcode" v="28011"/>
    <tag k="addr:street" v="Calle de Sanchorreja"/>
    <tag k="building" v="residential"/>
    <tag k="building:levels" v="8"/>
  </way>
  <way id="43414044" version="2" timestamp="2012-06-19T21:13:42Z" uid="491515" user="robertogeb" changeset="11952919"/>
</osm>
