<?xml version='1.0' encoding='UTF-8'?>
<osm version="0.6" generator="libosmium/2.20.0">
  <way id="43502183" version="1" timestamp="2009-10-31T18:25:30Z" uid="30632" user="antblant" changeset="2999949">
    <nd ref="549195100"/>
    <nd ref="549195114"/>
    <nd ref="549195116"/>
    <nd ref="549195120"/>
    <nd ref="549195109"/>
    <nd ref="549195105"/>
    <nd ref="549195103"/>
    <nd ref="549195085"/>
    <nd ref="549195100"/>
    <tag k="landuse" v="forest"/>
  </way>
  <way id="43502183" version="2" timestamp="2010-05-13T15:05:38Z" uid="91056" user="Yarl" changeset="4686898"/>
  <way id="43502501" version="2" timestamp="2011-02-15T23:20:52Z" uid="49111" user="Markus B" changeset="7300146">
    <nd ref="549197074"/>
    <nd ref="549197060"/>
    <nd ref="549197064"/>
    <nd ref="293128869"/>
    <nd ref="549197040"/>
    <nd ref="293128870"/>
    <nd ref="549197023"/>
    <nd ref="293128871"/>
    <nd ref="1155478683"/>
    <nd ref="293128872"/>
    <nd ref="293128873"/>
    <nd ref="1155478799"/>
    <nd ref="293128874"/>
    <tag k="highway" v="residential"/>
    <tag k="maxspeed" v="30"/>
    <tag k="name" v="Ellenberger Straße"/>
  </way>
  <way id="43502613" version="1" timestamp="2009-10-31T18:26:47Z" uid="186548" user="fojhtirf" changeset="3000091">
    <nd ref="540304044"/>
    <nd ref="549198040"/>
    <nd ref="549198051"/>
    <nd ref="549198044"/>
    <nd ref="549198047"/>
    <nd ref="549198054"/>
    <tag k="highway" v="residential"/>
    <tag k="name" v="Schulstraße"/>
    <tag k="oneway" v="yes"/>
    <tag k="surface" v="copplestone"/>
  </way>
  <way id="43502613" version="2" timestamp="2009-11-27T20:49:18Z" uid="184628" user="MiLk" changeset="3231588">
    <nd ref="540304044"/>
    <nd ref="549198040"/>
    <nd ref="549198051"/>
    <nd ref="549198044"/>
    <nd ref="549198047"/>
    <nd ref="549198054"/>
    <tag k="highway" v="residential"/>
    <tag k="name" v="Am Schulort"/>
    <tag k="oneway" v="yes"/>
    <tag k="surface" v="copplestone"/>
  </way>
  <way id="43502613" version="3" timestamp="2010-10-06T20:46:53Z" uid="26299" user="uboot" changeset="5973431">
    <nd ref="540304044"/>
    <nd ref="549198040"/>
    <nd ref="549198051"/>
    <nd ref="549198044"/>
    <nd ref="549198047"/>
    <nd ref="549198054"/>
    <tag k="highway" v="residential"/>
    <tag k="name" v="Am Schulort"/>
    <tag k="oneway" v="yes"/>
    <tag k="surface" v="cobblestone"/>
  </way>
  <way id="43502613" version="4" timestamp="2011-01-07T19:03:28Z" uid="104779" user="ABRob" changeset="6896157">
    <nd ref="540304044"/>
    <nd ref="549198040"/>
    <nd ref="549198051"/>
    <nd ref="549198044"/>
    <nd ref="549198047"/>
    <nd ref="549198054"/>
    <tag k="highway" v="residential"/>
    <tag k="name" v="Am Schulort"/>
    <tag k="oneway" v="yes"/>
    <tag k="postal_code" v="32351"/>
    <tag k="surface" v="cobblestone"/>
  </way>
  <way id="43502613" version="5" timestamp="2012-02-07T11:03:59Z" uid="184628" user="MiLk" changeset="10610999"/>
  <way id="43502614" version="1" timestamp="2009-10-31T18:26:47Z" uid="186548" user="fojhtirf" changeset="3000091">
    <nd ref="549198051"/>
    <nd ref="549198058"/>
    <tag k="highway" v="residential"/>
    <tag k="name" v="Schulstraße"/>
    <tag k="oneway" v="yes"/>
    <tag k="surface" v="copplestone"/>
  </way>
  <way id="43502614" version="2" timestamp="2009-11-27T20:49:10Z" uid="184628" user="MiLk" changeset="3231588">
    <nd ref="549198051"/>
    <nd ref="549198058"/>
    <tag k="highway" v="residential"/>
    <tag k="name" v="Am Schulort"/>
    <tag k="oneway" v="yes"/>
    <tag k="surface" v="copplestone"/>
  </way>
  <way id="43502614" version="3" timestamp="2010-10-06T20:46:56Z" uid="26299" user="uboot" changeset="5973431">
    <nd ref="549198051"/>
    <nd ref="549198058"/>
    <tag k="highway" v="residential"/>
    <tag k="name" v="Am Schulort"/>
    <tag k="oneway" v="yes"/>
    <tag k="surface" v="cobblestone"/>
  </way>
  <way id="43502614" version="4" timestamp="2011-01-07T19:58:45Z" uid="104779" user="ABRob" changeset="6896157">
    <nd ref="549198051"/>
    <nd ref="549198058"/>
    <tag k="highway" v="residential"/>
    <tag k="name" v="Am Schulort"/>
    <tag k="oneway" v="yes"/>
    <tag k="postal_code" v="32351"/>
    <tag k="surface" v="cobblestone"/>
  </way>
  <way id="43502614" version="5" timestamp="2012-02-07T11:03:59Z" uid="184628" user="MiLk" changeset="10610999"/>
</osm>
