<?xml version='1.0' encoding='UTF-8'?>
<osm version="0.6" generator="libosmium/2.20.0">
  <way id="43517321" version="3" timestamp="2010-04-07T14:00:33Z" uid="20587" user="balrog-kun" changeset="4353646">
    <nd ref="549243395"/>
    <nd ref="548675541"/>
    <tag k="highway" v="tertiary"/>
    <tag k="name" v="Federal Road"/>
    <tag k="tiger:cfcc" v="A45"/>
    <tag k="tiger:county" v="Harris, TX"/>
    <tag k="tiger:name_base" v="Federal"/>
    <tag k="tiger:name_type" v="Rd"/>
    <tag k="tiger:separated" v="yes"/>
    <tag k="tiger:source" v="tiger_import_dch_v0.6_20070830"/>
    <tag k="tiger:tlid" v="96097452:96621885"/>
    <tag k="tiger:zip_left" v="77015"/>
  </way>
  <way id="43517321" version="4" timestamp="2011-02-08T02:09:01Z" uid="119881" user="Clorox" changeset="7222953">
    <nd ref="549243395"/>
    <nd ref="548675541"/>
    <tag k="highway" v="secondary"/>
    <tag k="name" v="Federal Road"/>
    <tag k="oneway" v="yes"/>
    <tag k="tiger:cfcc" v="A45"/>
    <tag k="tiger:county" v="Harris, TX"/>
    <tag k="tiger:name_base" v="Federal"/>
    <tag k="tiger:name_type" v="Rd"/>
    <tag k="tiger:separated" v="yes"/>
    <tag k="tiger:source" v="tiger_import_dch_v0.6_20070830"/>
    <tag k="tiger:tlid" v="96097452:96621885"/>
    <tag k="tiger:zip_left" v="77015"/>
  </way>
  <way id="43517332" version="3" timestamp="2010-04-07T14:00:34Z" uid="20587" user="balrog-kun" changeset="4353646">
    <nd ref="549243446"/>
    <nd ref="549243447"/>
    <nd ref="549243395"/>
    <tag k="bridge" v="yes"/>
    <tag k="highway" v="tertiary"/>
    <tag k="layer" v="1"/>
    <tag k="name" v="Federal Road"/>
    <tag k="oneway" v="yes"/>
    <tag k="tiger:cfcc" v="A45"/>
    <tag k="tiger:county" v="Harris, TX"/>
    <tag k="tiger:name_base" v="Federal"/>
    <tag k="tiger:name_type" v="Rd"/>
    <tag k="tiger:separated" v="yes"/>
    <tag k="tiger:source" v="tiger_import_dch_v0.6_20070830"/>
    <tag k="tiger:tlid" v="96097452:96621885"/>
    <tag k="tiger:zip_left" v="77015"/>
  </way>
  <way id="43517332" version="4" timestamp="2011-02-08T02:09:00Z" uid="119881" user="Clorox" changeset="7222953">
    <nd ref="549243446"/>
    <nd ref="549243447"/>
    <nd ref="549243395"/>
    <tag k="bridge" v="yes"/>
    <tag k="highway" v="secondary"/>
    <tag k="layer" v="1"/>
    <tag k="name" v="Federal Road"/>
    <tag k="oneway" v="yes"/>
    <tag k="tiger:cfcc" v="A45"/>
    <tag k="tiger:county" v="Harris, TX"/>
    <tag k="tiger:name_base" v="Federal"/>
    <tag k="tiger:name_type" v="Rd"/>
    <tag k="tiger:separated" v="yes"/>
    <tag k="tiger:source" v="tiger_import_dch_v0.6_20070830"/>
    <tag k="tiger:tlid" v="96097452:96621885"/>
    <tag k="tiger:zip_left" v="77015"/>
  </way>
  <way id="43517399" version="1" timestamp="2009-10-31T19:48:55Z" uid="30632" user="antblant" changeset="3000825">
    <nd ref="254067054"/>
    <nd ref="254067018"/>
    <tag k="highway" v="residential"/>
    <tag k="name" v="Stoisława"/>
    <tag k="source" v="UMP-PL, ./UMP-Szczecin/src/SZCZECIN.ulice.txt"/>
  </way>
  <way id="43517399" version="2" timestamp="2012-05-10T11:03:16Z" uid="338611" user="marek kleciak" changeset="11557493">
    <nd ref="254067054"/>
    <nd ref="1747473489"/>
    <nd ref="254067018"/>
    <tag k="highway" v="residential"/>
    <tag k="name" v="Stoisława"/>
    <tag k="source" v="UMP-PL, ./UMP-Szczecin/src/SZCZECIN.ulice.txt"/>
  </way>
  <way id="43517399" version="3" timestamp="2012-07-03T21:04:15Z" uid="338611" user="marek kleciak" changeset="12104656">
    <nd ref="254067054"/>
    <nd ref="1811780638"/>
    <nd ref="1747473489"/>
    <nd ref="254067018"/>
    <tag k="highway" v="residential"/>
    <tag k="name" v="Stoisława"/>
    <tag k="source" v="UMP-PL, ./UMP-Szczecin/src/SZCZECIN.ulice.txt"/>
  </way>
  <way id="43517399" version="4" timestamp="2012-07-26T11:43:52Z" uid="759123" user="Michael König" changeset="12496993">
    <nd ref="254067054"/>
    <nd ref="1811780638"/>
    <nd ref="1747473489"/>
    <nd ref="254067018"/>
    <tag k="highway" v="residential"/>
    <tag k="name" v="Stoisława"/>
    <tag k="old_name" v="Johannisstraße"/>
    <tag k="source" v="UMP-PL, ./UMP-Szczecin/src/SZCZECIN.ulice.txt"/>
  </way>
</osm>
