<?xml version='1.0' encoding='UTF-8'?>
<osm version="0.6" generator="libosmium/2.20.0">
  <way id="43522128" version="2" timestamp="2010-04-07T14:00:35Z" uid="20587" user="balrog-kun" changeset="4353646">
    <nd ref="549310570"/>
    <nd ref="82555167"/>
    <nd ref="82555168"/>
    <nd ref="82555169"/>
    <nd ref="82555170"/>
    <nd ref="82555171"/>
    <nd ref="82555172"/>
    <nd ref="82555173"/>
    <nd ref="82555174"/>
    <nd ref="82555175"/>
    <tag k="highway" v="residential"/>
    <tag k="name" v="Arch Adams Street"/>
    <tag k="tiger:cfcc" v="A41"/>
    <tag k="tiger:county" v="Tarrant, TX"/>
    <tag k="tiger:name_base" v="Arch Adams"/>
    <tag k="tiger:name_type" v="St"/>
    <tag k="tiger:reviewed" v="no"/>
    <tag k="tiger:separated" v="no"/>
    <tag k="tiger:source" v="tiger_import_dch_v0.6_20070830"/>
    <tag k="tiger:tlid" v="101883828:101883830:102137937:101883739:101883845:102136400:102136401:102136402:101883862:101883847:102136399:102159329"/>
    <tag k="tiger:zip_left" v="76107"/>
    <tag k="tiger:zip_right" v="76107"/>
  </way>
  <way id="43522136" version="3" timestamp="2010-04-03T17:16:50Z" uid="20587" user="balrog-kun" changeset="4313610">
    <nd ref="549311304"/>
    <nd ref="549311387"/>
    <nd ref="549311309"/>
    <nd ref="549311312"/>
    <nd ref="549311383"/>
    <nd ref="549311379"/>
    <nd ref="549311315"/>
    <nd ref="549311377"/>
    <nd ref="549311318"/>
    <tag k="highway" v="residential"/>
    <tag k="name" v="Miravista Place Southeast"/>
    <tag k="source" v="Yahoo"/>
  </way>
  <way id="43522137" version="3" timestamp="2010-04-03T17:16:50Z" uid="20587" user="balrog-kun" changeset="4313610">
    <nd ref="549311321"/>
    <nd ref="549311325"/>
    <nd ref="549311328"/>
    <nd ref="549311332"/>
    <nd ref="549311385"/>
    <nd ref="549311336"/>
    <nd ref="549311381"/>
    <nd ref="549311341"/>
    <nd ref="549311375"/>
    <nd ref="549311345"/>
    <tag k="highway" v="residential"/>
    <tag k="name" v="Vistazo Place Southeast"/>
    <tag k="source" v="Yahoo"/>
  </way>
  <way id="43522138" version="3" timestamp="2010-04-03T17:16:51Z" uid="20587" user="balrog-kun" changeset="4313610">
    <nd ref="549311365"/>
    <nd ref="549311362"/>
    <nd ref="549311368"/>
    <tag k="highway" v="residential"/>
    <tag k="name" v="Terra Bella Lane Southeast"/>
    <tag k="source" v="Yahoo"/>
  </way>
  <way id="43522139" version="3" timestamp="2010-04-03T17:16:51Z" uid="20587" user="balrog-kun" changeset="4313610">
    <nd ref="549311370"/>
    <nd ref="549311368"/>
    <nd ref="549311373"/>
    <tag k="highway" v="residential"/>
    <tag k="name" v="Terra Vista Trellis Southeast"/>
    <tag k="source" v="Yahoo"/>
  </way>
  <way id="43522140" version="3" timestamp="2010-04-03T17:16:51Z" uid="20587" user="balrog-kun" changeset="4313610">
    <nd ref="549311375"/>
    <nd ref="549311377"/>
    <tag k="highway" v="residential"/>
    <tag k="name" v="Via Vista Street Southeast"/>
    <tag k="source" v="Yahoo"/>
  </way>
  <way id="43522141" version="3" timestamp="2010-04-03T17:16:51Z" uid="20587" user="balrog-kun" changeset="4313610">
    <nd ref="549311379"/>
    <nd ref="549311381"/>
    <nd ref="140911464"/>
    <tag k="highway" v="residential"/>
    <tag k="name" v="Cuadro Street Southeast"/>
    <tag k="source" v="Yahoo"/>
  </way>
  <way id="43522143" version="3" timestamp="2010-04-03T17:16:51Z" uid="20587" user="balrog-kun" changeset="4313610">
    <nd ref="549311383"/>
    <nd ref="549311385"/>
    <tag k="highway" v="residential"/>
    <tag k="name" v="Escena Street Southeast"/>
    <tag k="source" v="Yahoo"/>
  </way>
  <way id="43522146" version="3" timestamp="2010-04-03T17:16:51Z" uid="20587" user="balrog-kun" changeset="4313610">
    <nd ref="549311391"/>
    <nd ref="549311395"/>
    <nd ref="549311398"/>
    <nd ref="549311354"/>
    <tag k="highway" v="residential"/>
    <tag k="name" v="Terracita Lane Southeast"/>
    <tag k="source" v="Yahoo"/>
  </way>
  <way id="43522250" version="3" timestamp="2010-08-04T20:26:52Z" uid="9581" user="Lobelt" changeset="5402883">
    <nd ref="716431644"/>
    <nd ref="549313141"/>
    <nd ref="549313358"/>
    <nd ref="549313360"/>
    <nd ref="549313361"/>
    <nd ref="549313363"/>
    <nd ref="549313364"/>
    <nd ref="549313365"/>
    <nd ref="549313367"/>
    <nd ref="549313368"/>
    <nd ref="549313370"/>
    <nd ref="549313323"/>
    <nd ref="846299180"/>
    <nd ref="846298838"/>
    <nd ref="846298509"/>
    <nd ref="846299273"/>
    <nd ref="262538133"/>
    <tag k="highway" v="track"/>
    <tag k="name" v="Blau Gelb"/>
    <tag k="surface" v="dirt"/>
  </way>
  <way id="43522128" version="3" timestamp="2012-07-18T13:50:56Z" uid="722137" user="OSMF Redaction Account" changeset="12283959"/>
  <way id="43522136" version="4" timestamp="2012-06-28T04:38:29Z" uid="704548" user="jackbus" changeset="12042763">
    <nd ref="1804679313"/>
    <nd ref="549311304"/>
    <nd ref="549311387"/>
    <nd ref="549311309"/>
    <nd ref="549311312"/>
    <nd ref="549311383"/>
    <nd ref="549311379"/>
    <nd ref="549311315"/>
    <nd ref="549311377"/>
    <nd ref="549311318"/>
    <tag k="highway" v="residential"/>
    <tag k="name" v="Miravista Place Southeast"/>
    <tag k="source" v="Yahoo"/>
  </way>
  <way id="43522141" version="4" timestamp="2012-09-07T02:40:39Z" uid="103107" user="EdHillsman" changeset="13018044">
    <nd ref="549311379"/>
    <nd ref="549311381"/>
    <nd ref="1903432666"/>
    <nd ref="140911464"/>
    <tag k="highway" v="residential"/>
    <tag k="name" v="Cuadro Street Southeast"/>
    <tag k="source" v="Yahoo"/>
  </way>
  <way id="43522143" version="4" timestamp="2012-06-28T04:13:02Z" uid="704548" user="jackbus" changeset="12042763">
    <nd ref="549311383"/>
    <nd ref="549311385"/>
    <tag k="highway" v="residential"/>
    <tag k="name" v="Escena St"/>
    <tag k="source" v="Yahoo"/>
  </way>
  <way id="43522250" version="4" timestamp="2012-07-18T18:04:10Z" uid="722137" user="OSMF Redaction Account" changeset="12291508">
    <nd ref="716431644"/>
    <nd ref="549313141"/>
    <nd ref="549313358"/>
    <nd ref="549313360"/>
    <nd ref="549313361"/>
    <nd ref="549313363"/>
    <nd ref="549313364"/>
    <nd ref="549313365"/>
    <nd ref="549313367"/>
    <nd ref="549313368"/>
    <nd ref="549313370"/>
    <nd ref="549313323"/>
    <tag k="highway" v="track"/>
    <tag k="name" v="Blau Gelb"/>
    <tag k="surface" v="dirt"/>
  </way>
</osm>
