<?xml version='1.0' encoding='UTF-8'?>
<osm version="0.6" generator="libosmium/2.20.0">
  <way id="43537090" version="1" timestamp="2009-11-01T03:15:16Z" uid="20587" user="balrog-kun" changeset="3003408">
    <nd ref="308117245"/>
    <nd ref="549650988"/>
    <nd ref="549650991"/>
    <nd ref="549650992"/>
    <nd ref="549650993"/>
    <nd ref="549651003"/>
    <nd ref="549651001"/>
    <nd ref="549651005"/>
    <nd ref="308117239"/>
    <tag k="oneway" v="yes"/>
    <tag k="railway" v="tram"/>
  </way>
  <way id="43537090" version="2" timestamp="2011-07-09T11:40:32Z" uid="477744" user="hormel" changeset="8673799">
    <nd ref="308117245"/>
    <nd ref="549650988"/>
    <nd ref="549650991"/>
    <nd ref="549650992"/>
    <nd ref="549650993"/>
    <nd ref="549651003"/>
    <nd ref="549651001"/>
    <tag k="oneway" v="yes"/>
    <tag k="railway" v="tram"/>
  </way>
  <way id="43537093" version="1" timestamp="2009-11-01T03:15:16Z" uid="20587" user="balrog-kun" changeset="3003408">
    <nd ref="308117246"/>
    <nd ref="549650995"/>
    <nd ref="549650996"/>
    <nd ref="549651000"/>
    <nd ref="549651002"/>
    <nd ref="549651008"/>
    <nd ref="549651006"/>
    <nd ref="549651007"/>
    <nd ref="308117269"/>
    <tag k="name" v="32"/>
    <tag k="oneway" v="yes"/>
    <tag k="railway" v="tram"/>
  </way>
  <way id="43537093" version="2" timestamp="2011-07-09T11:40:33Z" uid="477744" user="hormel" changeset="8673799">
    <nd ref="308117246"/>
    <nd ref="549650995"/>
    <nd ref="549650996"/>
    <nd ref="549651000"/>
    <nd ref="549651002"/>
    <nd ref="549651008"/>
    <nd ref="549651006"/>
    <tag k="name" v="32"/>
    <tag k="oneway" v="yes"/>
    <tag k="railway" v="tram"/>
  </way>
  <way id="43537093" version="3" timestamp="2011-10-05T23:49:11Z" uid="477744" user="hormel" changeset="9482421">
    <nd ref="308117246"/>
    <nd ref="549650995"/>
    <nd ref="549650996"/>
    <nd ref="549651000"/>
    <nd ref="549651002"/>
    <nd ref="549651008"/>
    <nd ref="549651006"/>
    <tag k="oneway" v="yes"/>
    <tag k="railway" v="tram"/>
  </way>
  <way id="43537093" version="4" timestamp="2012-02-05T17:43:56Z" uid="550476" user="fishcrosser" changeset="10596139">
    <nd ref="308117246"/>
    <nd ref="549650995"/>
    <nd ref="549650996"/>
    <nd ref="549651000"/>
    <nd ref="549651002"/>
    <nd ref="549651008"/>
    <nd ref="1619167011"/>
    <nd ref="549651006"/>
    <tag k="oneway" v="yes"/>
    <tag k="railway" v="tram"/>
  </way>
  <way id="43537094" version="1" timestamp="2009-11-01T03:15:17Z" uid="20587" user="balrog-kun" changeset="3003408">
    <nd ref="549651015"/>
    <nd ref="549651012"/>
    <nd ref="549651013"/>
    <nd ref="549651014"/>
    <nd ref="549651015"/>
    <tag k="landuse" v="construction"/>
  </way>
  <way id="43537094" version="2" timestamp="2009-11-24T02:11:35Z" uid="20587" user="balrog-kun" changeset="3201348"/>
  <way id="43537722" version="1" timestamp="2009-11-01T03:19:59Z" uid="61114" user="Trav" changeset="3003414">
    <nd ref="549651834"/>
    <nd ref="549651838"/>
    <nd ref="549651841"/>
    <nd ref="549651844"/>
    <nd ref="549651846"/>
    <nd ref="549651849"/>
    <tag k="highway" v="service"/>
    <tag k="source" v="yahoo_imagery"/>
  </way>
  <way id="43537722" version="2" timestamp="2010-01-20T23:23:34Z" uid="218917" user="Andrew S" changeset="3671463">
    <nd ref="549651834"/>
    <nd ref="617404666"/>
    <nd ref="549651838"/>
    <nd ref="549651841"/>
    <nd ref="549651844"/>
    <nd ref="549651846"/>
    <nd ref="549651849"/>
    <tag k="highway" v="service"/>
    <tag k="source" v="yahoo_imagery"/>
  </way>
  <way id="43537722" version="3" timestamp="2011-02-26T11:23:29Z" uid="7617" user="Franc" changeset="7398740">
    <nd ref="549651834"/>
    <nd ref="549651838"/>
    <nd ref="549651844"/>
    <nd ref="549651846"/>
    <nd ref="549651849"/>
    <tag k="highway" v="service"/>
    <tag k="source" v="yahoo_imagery"/>
  </way>
  <way id="43537724" version="1" timestamp="2009-11-01T03:20:06Z" uid="61114" user="Trav" changeset="3003414">
    <nd ref="549651854"/>
    <nd ref="549651857"/>
    <nd ref="549651858"/>
    <nd ref="549651862"/>
    <nd ref="549651867"/>
    <nd ref="549651869"/>
    <nd ref="549651872"/>
    <nd ref="549651874"/>
    <nd ref="549651875"/>
    <nd ref="549651878"/>
    <nd ref="549651880"/>
    <nd ref="549651854"/>
    <tag k="leisure" v="park"/>
    <tag k="source" v="yahoo_imagery"/>
  </way>
  <way id="43537724" version="2" timestamp="2010-01-20T23:23:33Z" uid="218917" user="Andrew S" changeset="3671463">
    <nd ref="549651854"/>
    <nd ref="549651857"/>
    <nd ref="549651858"/>
    <nd ref="549651862"/>
    <nd ref="549651867"/>
    <nd ref="549651869"/>
    <nd ref="549651872"/>
    <nd ref="549651874"/>
    <nd ref="549651875"/>
    <nd ref="549651878"/>
    <nd ref="549651880"/>
    <nd ref="549651854"/>
    <tag k="leisure" v="park"/>
    <tag k="name" v="McBurney Reserve"/>
    <tag k="source" v="yahoo_imagery"/>
  </way>
  <way id="43537724" version="3" timestamp="2011-02-26T11:23:25Z" uid="7617" user="Franc" changeset="7398740">
    <nd ref="1174406142"/>
    <nd ref="549651857"/>
    <nd ref="549651858"/>
    <nd ref="549651862"/>
    <nd ref="549651867"/>
    <nd ref="549651869"/>
    <nd ref="549651874"/>
    <nd ref="549651875"/>
    <nd ref="549651878"/>
    <nd ref="549651880"/>
    <nd ref="1174406152"/>
    <nd ref="1174406142"/>
    <tag k="leisure" v="park"/>
    <tag k="name" v="McBurney Reserve"/>
    <tag k="source" v="yahoo_imagery"/>
  </way>
  <way id="43537770" version="2" timestamp="2010-07-08T20:17:45Z" uid="74617" user="JohnSmith" changeset="5168730">
    <nd ref="241807196"/>
    <nd ref="241807398"/>
    <nd ref="547587095"/>
    <nd ref="241807182"/>
    <tag k="highway" v="residential"/>
    <tag k="maxspeed" v="50"/>
    <tag k="maxspeed:source" v="default residential speed limit in Australia"/>
    <tag k="name" v="Gipps Street"/>
  </way>
  <way id="43537770" version="3" timestamp="2012-01-19T07:41:31Z" uid="147510" user="woodpeck_fixbot" changeset="10434386">
    <nd ref="241807196"/>
    <nd ref="241807398"/>
    <nd ref="547587095"/>
    <nd ref="241807182"/>
    <tag k="highway" v="residential"/>
    <tag k="name" v="Gipps Street"/>
  </way>
  <way id="43537771" version="2" timestamp="2010-07-08T20:18:51Z" uid="74617" user="JohnSmith" changeset="5168730">
    <nd ref="370749868"/>
    <nd ref="370751614"/>
    <tag k="highway" v="residential"/>
    <tag k="maxspeed" v="50"/>
    <tag k="maxspeed:source" v="default residential speed limit in Australia"/>
    <tag k="name" v="Powlett Street"/>
    <tag k="oneway" v="yes"/>
  </way>
  <way id="43537771" version="3" timestamp="2012-01-19T07:41:33Z" uid="147510" user="woodpeck_fixbot" changeset="10434386">
    <nd ref="370749868"/>
    <nd ref="370751614"/>
    <tag k="highway" v="residential"/>
    <tag k="name" v="Powlett Street"/>
    <tag k="oneway" v="yes"/>
  </way>
  <way id="43537773" version="2" timestamp="2010-07-08T20:14:19Z" uid="74617" user="JohnSmith" changeset="5168730">
    <nd ref="241807395"/>
    <nd ref="241807397"/>
    <tag k="highway" v="residential"/>
    <tag k="maxspeed" v="50"/>
    <tag k="maxspeed:source" v="default residential speed limit in Australia"/>
    <tag k="name" v="Powlett Street"/>
    <tag k="oneway" v="yes"/>
  </way>
  <way id="43537773" version="3" timestamp="2012-01-19T07:41:34Z" uid="147510" user="woodpeck_fixbot" changeset="10434386">
    <nd ref="241807395"/>
    <nd ref="241807397"/>
    <tag k="highway" v="residential"/>
    <tag k="name" v="Powlett Street"/>
    <tag k="oneway" v="yes"/>
  </way>
  <way id="43537775" version="2" timestamp="2010-07-08T20:18:07Z" uid="74617" user="JohnSmith" changeset="5168730">
    <nd ref="370750698"/>
    <nd ref="547573220"/>
    <nd ref="241807198"/>
    <tag k="highway" v="residential"/>
    <tag k="maxspeed" v="50"/>
    <tag k="maxspeed:source" v="default residential speed limit in Australia"/>
    <tag k="name" v="Simpson Street"/>
    <tag k="oneway" v="yes"/>
  </way>
  <way id="43537775" version="3" timestamp="2012-01-19T07:41:35Z" uid="147510" user="woodpeck_fixbot" changeset="10434386">
    <nd ref="370750698"/>
    <nd ref="547573220"/>
    <nd ref="241807198"/>
    <tag k="highway" v="residential"/>
    <tag k="name" v="Simpson Street"/>
    <tag k="oneway" v="yes"/>
  </way>
  <way id="43537776" version="2" timestamp="2010-07-08T20:18:24Z" uid="74617" user="JohnSmith" changeset="5168730">
    <nd ref="370750747"/>
    <nd ref="370750701"/>
    <tag k="highway" v="residential"/>
    <tag k="maxspeed" v="50"/>
    <tag k="maxspeed:source" v="default residential speed limit in Australia"/>
    <tag k="name" v="Simpson Street"/>
    <tag k="oneway" v="yes"/>
  </way>
  <way id="43537776" version="3" timestamp="2012-01-19T07:41:37Z" uid="147510" user="woodpeck_fixbot" changeset="10434386">
    <nd ref="370750747"/>
    <nd ref="370750701"/>
    <tag k="highway" v="residential"/>
    <tag k="name" v="Simpson Street"/>
    <tag k="oneway" v="yes"/>
  </way>
  <way id="43537777" version="2" timestamp="2010-07-08T20:19:19Z" uid="74617" user="JohnSmith" changeset="5168730">
    <nd ref="370749958"/>
    <nd ref="370751789"/>
    <tag k="highway" v="residential"/>
    <tag k="maxspeed" v="50"/>
    <tag k="maxspeed:source" v="default residential speed limit in Australia"/>
    <tag k="name" v="George Street"/>
  </way>
  <way id="43537777" version="3" timestamp="2011-09-30T04:46:36Z" uid="11111" user="melb_guy" changeset="9432202">
    <nd ref="1449289339"/>
    <nd ref="370751789"/>
    <tag k="highway" v="residential"/>
    <tag k="maxspeed" v="50"/>
    <tag k="maxspeed:source" v="default residential speed limit in Australia"/>
    <tag k="name" v="George Street"/>
  </way>
  <way id="43537777" version="4" timestamp="2012-01-19T07:41:38Z" uid="147510" user="woodpeck_fixbot" changeset="10434386">
    <nd ref="1449289339"/>
    <nd ref="370751789"/>
    <tag k="highway" v="residential"/>
    <tag k="name" v="George Street"/>
  </way>
  <way id="43537778" version="2" timestamp="2010-07-08T20:16:13Z" uid="74617" user="JohnSmith" changeset="5168730">
    <nd ref="370751788"/>
    <nd ref="547568872"/>
    <nd ref="241807189"/>
    <tag k="highway" v="residential"/>
    <tag k="maxspeed" v="50"/>
    <tag k="maxspeed:source" v="default residential speed limit in Australia"/>
    <tag k="name" v="George Street"/>
  </way>
  <way id="43537778" version="3" timestamp="2012-01-19T07:41:39Z" uid="147510" user="woodpeck_fixbot" changeset="10434386">
    <nd ref="370751788"/>
    <nd ref="547568872"/>
    <nd ref="241807189"/>
    <tag k="highway" v="residential"/>
    <tag k="name" v="George Street"/>
  </way>
  <way id="43537779" version="2" timestamp="2010-07-08T20:17:16Z" uid="74617" user="JohnSmith" changeset="5168730">
    <nd ref="370751499"/>
    <nd ref="370752605"/>
    <nd ref="370752343"/>
    <nd ref="547586920"/>
    <nd ref="370750526"/>
    <tag k="highway" v="residential"/>
    <tag k="maxspeed" v="50"/>
    <tag k="maxspeed:source" v="default residential speed limit in Australia"/>
    <tag k="name" v="Gipps Street"/>
  </way>
  <way id="43537779" version="3" timestamp="2012-01-19T07:41:40Z" uid="147510" user="woodpeck_fixbot" changeset="10434386">
    <nd ref="370751499"/>
    <nd ref="370752605"/>
    <nd ref="370752343"/>
    <nd ref="547586920"/>
    <nd ref="370750526"/>
    <tag k="highway" v="residential"/>
    <tag k="name" v="Gipps Street"/>
  </way>
  <way id="43537780" version="2" timestamp="2010-07-08T20:17:28Z" uid="74617" user="JohnSmith" changeset="5168730">
    <nd ref="370750708"/>
    <nd ref="547568822"/>
    <nd ref="547568785"/>
    <nd ref="370750714"/>
    <tag k="highway" v="residential"/>
    <tag k="maxspeed" v="50"/>
    <tag k="maxspeed:source" v="default residential speed limit in Australia"/>
    <tag k="name" v="Simpson Street"/>
    <tag k="oneway" v="yes"/>
  </way>
  <way id="43537780" version="3" timestamp="2012-01-19T07:41:41Z" uid="147510" user="woodpeck_fixbot" changeset="10434386">
    <nd ref="370750708"/>
    <nd ref="547568822"/>
    <nd ref="547568785"/>
    <nd ref="370750714"/>
    <tag k="highway" v="residential"/>
    <tag k="name" v="Simpson Street"/>
    <tag k="oneway" v="yes"/>
  </way>
  <way id="43537781" version="2" timestamp="2010-07-08T20:18:39Z" uid="74617" user="JohnSmith" changeset="5168730">
    <nd ref="370750529"/>
    <nd ref="370750696"/>
    <tag k="highway" v="residential"/>
    <tag k="maxspeed" v="50"/>
    <tag k="maxspeed:source" v="default residential speed limit in Australia"/>
    <tag k="name" v="Simpson Street"/>
    <tag k="oneway" v="yes"/>
  </way>
  <way id="43537781" version="3" timestamp="2012-01-19T07:41:42Z" uid="147510" user="woodpeck_fixbot" changeset="10434386">
    <nd ref="370750529"/>
    <nd ref="370750696"/>
    <tag k="highway" v="residential"/>
    <tag k="name" v="Simpson Street"/>
    <tag k="oneway" v="yes"/>
  </way>
  <way id="43537782" version="2" timestamp="2010-07-08T20:14:40Z" uid="74617" user="JohnSmith" changeset="5168730">
    <nd ref="370751778"/>
    <nd ref="370750446"/>
    <tag k="highway" v="residential"/>
    <tag k="maxspeed" v="50"/>
    <tag k="maxspeed:source" v="default residential speed limit in Australia"/>
    <tag k="name" v="Simpson Street"/>
    <tag k="oneway" v="yes"/>
  </way>
  <way id="43537782" version="3" timestamp="2012-01-19T07:41:43Z" uid="147510" user="woodpeck_fixbot" changeset="10434386">
    <nd ref="370751778"/>
    <nd ref="370750446"/>
    <tag k="highway" v="residential"/>
    <tag k="name" v="Simpson Street"/>
    <tag k="oneway" v="yes"/>
  </way>
  <way id="43537783" version="2" timestamp="2010-07-08T20:16:32Z" uid="74617" user="JohnSmith" changeset="5168730">
    <nd ref="370751779"/>
    <nd ref="547588442"/>
    <nd ref="241807190"/>
    <tag k="highway" v="residential"/>
    <tag k="maxspeed" v="50"/>
    <tag k="maxspeed:source" v="default residential speed limit in Australia"/>
    <tag k="name" v="Simpson Street"/>
    <tag k="oneway" v="yes"/>
  </way>
  <way id="43537783" version="3" timestamp="2011-09-30T06:05:02Z" uid="11111" user="melb_guy" changeset="9432202">
    <nd ref="370751779"/>
    <nd ref="547588442"/>
    <nd ref="1449308543"/>
    <nd ref="1449308544"/>
    <nd ref="1449308539"/>
    <nd ref="1449308516"/>
    <nd ref="1449308565"/>
    <nd ref="1449308550"/>
    <nd ref="241807190"/>
    <tag k="highway" v="residential"/>
    <tag k="maxspeed" v="50"/>
    <tag k="maxspeed:source" v="default residential speed limit in Australia"/>
    <tag k="name" v="Simpson Street"/>
    <tag k="oneway" v="yes"/>
  </way>
  <way id="43537783" version="4" timestamp="2012-01-19T07:41:45Z" uid="147510" user="woodpeck_fixbot" changeset="10434386">
    <nd ref="370751779"/>
    <nd ref="547588442"/>
    <nd ref="1449308543"/>
    <nd ref="1449308544"/>
    <nd ref="1449308539"/>
    <nd ref="1449308516"/>
    <nd ref="1449308565"/>
    <nd ref="1449308550"/>
    <nd ref="241807190"/>
    <tag k="highway" v="residential"/>
    <tag k="name" v="Simpson Street"/>
    <tag k="oneway" v="yes"/>
  </way>
  <way id="43537784" version="2" timestamp="2010-07-08T20:16:47Z" uid="74617" user="JohnSmith" changeset="5168730">
    <nd ref="370750324"/>
    <nd ref="370751780"/>
    <tag k="highway" v="residential"/>
    <tag k="maxspeed" v="50"/>
    <tag k="maxspeed:source" v="default residential speed limit in Australia"/>
    <tag k="name" v="Simpson Street"/>
    <tag k="oneway" v="yes"/>
  </way>
  <way id="43537784" version="3" timestamp="2012-01-19T07:41:46Z" uid="147510" user="woodpeck_fixbot" changeset="10434386">
    <nd ref="370750324"/>
    <nd ref="370751780"/>
    <tag k="highway" v="residential"/>
    <tag k="name" v="Simpson Street"/>
    <tag k="oneway" v="yes"/>
  </way>
  <way id="43537785" version="2" timestamp="2010-07-08T20:17:56Z" uid="74617" user="JohnSmith" changeset="5168730">
    <nd ref="370751686"/>
    <nd ref="547586431"/>
    <nd ref="370751656"/>
    <nd ref="370751653"/>
    <tag k="highway" v="residential"/>
    <tag k="maxspeed" v="50"/>
    <tag k="maxspeed:source" v="default residential speed limit in Australia"/>
    <tag k="name" v="Grey Street"/>
    <tag k="oneway" v="yes"/>
  </way>
  <way id="43537785" version="3" timestamp="2012-01-19T07:41:47Z" uid="147510" user="woodpeck_fixbot" changeset="10434386">
    <nd ref="370751686"/>
    <nd ref="547586431"/>
    <nd ref="370751656"/>
    <nd ref="370751653"/>
    <tag k="highway" v="residential"/>
    <tag k="name" v="Grey Street"/>
    <tag k="oneway" v="yes"/>
  </way>
  <way id="43537786" version="2" timestamp="2010-07-08T20:13:52Z" uid="74617" user="JohnSmith" changeset="5168730">
    <nd ref="370750991"/>
    <nd ref="370752408"/>
    <nd ref="370751687"/>
    <tag k="highway" v="residential"/>
    <tag k="maxspeed" v="50"/>
    <tag k="maxspeed:source" v="default residential speed limit in Australia"/>
    <tag k="name" v="Grey Street"/>
    <tag k="oneway" v="yes"/>
  </way>
  <way id="43537786" version="3" timestamp="2012-01-19T07:41:49Z" uid="147510" user="woodpeck_fixbot" changeset="10434386">
    <nd ref="370750991"/>
    <nd ref="370752408"/>
    <nd ref="370751687"/>
    <tag k="highway" v="residential"/>
    <tag k="name" v="Grey Street"/>
    <tag k="oneway" v="yes"/>
  </way>
  <way id="43537787" version="2" timestamp="2010-07-08T20:15:12Z" uid="74617" user="JohnSmith" changeset="5168730">
    <nd ref="370749848"/>
    <nd ref="370750748"/>
    <tag k="highway" v="residential"/>
    <tag k="maxspeed" v="50"/>
    <tag k="maxspeed:source" v="default residential speed limit in Australia"/>
    <tag k="name" v="Grey Street"/>
    <tag k="oneway" v="yes"/>
  </way>
  <way id="43537787" version="3" timestamp="2012-01-19T07:41:51Z" uid="147510" user="woodpeck_fixbot" changeset="10434386">
    <nd ref="370749848"/>
    <nd ref="370750748"/>
    <tag k="highway" v="residential"/>
    <tag k="name" v="Grey Street"/>
    <tag k="oneway" v="yes"/>
  </way>
  <way id="43537788" version="3" timestamp="2010-07-08T20:15:48Z" uid="74617" user="JohnSmith" changeset="5168730">
    <nd ref="241807195"/>
    <nd ref="241807400"/>
    <nd ref="660546015"/>
    <nd ref="241807180"/>
    <tag k="highway" v="residential"/>
    <tag k="maxspeed" v="50"/>
    <tag k="maxspeed:source" v="default residential speed limit in Australia"/>
    <tag k="name" v="Grey Street"/>
    <tag k="oneway" v="yes"/>
  </way>
  <way id="43537788" version="4" timestamp="2012-01-19T07:41:53Z" uid="147510" user="woodpeck_fixbot" changeset="10434386">
    <nd ref="241807195"/>
    <nd ref="241807400"/>
    <nd ref="660546015"/>
    <nd ref="241807180"/>
    <tag k="highway" v="residential"/>
    <tag k="name" v="Grey Street"/>
    <tag k="oneway" v="yes"/>
  </way>
  <way id="43537789" version="2" timestamp="2010-07-08T20:17:02Z" uid="74617" user="JohnSmith" changeset="5168730">
    <nd ref="370751070"/>
    <nd ref="370751058"/>
    <tag k="highway" v="residential"/>
    <tag k="maxspeed" v="50"/>
    <tag k="maxspeed:source" v="default residential speed limit in Australia"/>
    <tag k="name" v="Simpson Street"/>
    <tag k="oneway" v="yes"/>
  </way>
  <way id="43537789" version="3" timestamp="2012-01-19T07:41:54Z" uid="147510" user="woodpeck_fixbot" changeset="10434386">
    <nd ref="370751070"/>
    <nd ref="370751058"/>
    <tag k="highway" v="residential"/>
    <tag k="name" v="Simpson Street"/>
    <tag k="oneway" v="yes"/>
  </way>
  <way id="43537790" version="2" timestamp="2010-07-08T20:18:57Z" uid="74617" user="JohnSmith" changeset="5168730">
    <nd ref="370750315"/>
    <nd ref="370752171"/>
    <nd ref="370750312"/>
    <nd ref="370750310"/>
    <tag k="highway" v="residential"/>
    <tag k="maxspeed" v="50"/>
    <tag k="maxspeed:source" v="default residential speed limit in Australia"/>
    <tag k="name" v="Hotham Street"/>
    <tag k="oneway" v="yes"/>
  </way>
  <way id="43537790" version="3" timestamp="2012-01-19T07:41:56Z" uid="147510" user="woodpeck_fixbot" changeset="10434386">
    <nd ref="370750315"/>
    <nd ref="370752171"/>
    <nd ref="370750312"/>
    <nd ref="370750310"/>
    <tag k="highway" v="residential"/>
    <tag k="name" v="Hotham Street"/>
    <tag k="oneway" v="yes"/>
  </way>
  <way id="43537791" version="2" timestamp="2010-07-08T20:14:09Z" uid="74617" user="JohnSmith" changeset="5168730">
    <nd ref="370750418"/>
    <nd ref="370750323"/>
    <tag k="highway" v="residential"/>
    <tag k="maxspeed" v="50"/>
    <tag k="maxspeed:source" v="default residential speed limit in Australia"/>
    <tag k="name" v="Hotham Street"/>
    <tag k="oneway" v="yes"/>
  </way>
  <way id="43537791" version="3" timestamp="2012-01-19T07:41:57Z" uid="147510" user="woodpeck_fixbot" changeset="10434386">
    <nd ref="370750418"/>
    <nd ref="370750323"/>
    <tag k="highway" v="residential"/>
    <tag k="name" v="Hotham Street"/>
    <tag k="oneway" v="yes"/>
  </way>
  <way id="43537792" version="2" timestamp="2010-07-08T20:19:15Z" uid="74617" user="JohnSmith" changeset="5168730">
    <nd ref="370750440"/>
    <nd ref="241807186"/>
    <tag k="highway" v="residential"/>
    <tag k="maxspeed" v="50"/>
    <tag k="maxspeed:source" v="default residential speed limit in Australia"/>
    <tag k="name" v="Hotham Street"/>
    <tag k="oneway" v="yes"/>
  </way>
  <way id="43537792" version="3" timestamp="2012-01-19T07:41:58Z" uid="147510" user="woodpeck_fixbot" changeset="10434386">
    <nd ref="370750440"/>
    <nd ref="241807186"/>
    <tag k="highway" v="residential"/>
    <tag k="name" v="Hotham Street"/>
    <tag k="oneway" v="yes"/>
  </way>
  <way id="43537794" version="2" timestamp="2010-07-08T20:17:09Z" uid="74617" user="JohnSmith" changeset="5168730">
    <nd ref="370749842"/>
    <nd ref="370752533"/>
    <nd ref="370750442"/>
    <tag k="highway" v="residential"/>
    <tag k="maxspeed" v="50"/>
    <tag k="maxspeed:source" v="default residential speed limit in Australia"/>
    <tag k="name" v="Hotham Street"/>
    <tag k="oneway" v="yes"/>
  </way>
  <way id="43537794" version="3" timestamp="2012-01-19T07:41:59Z" uid="147510" user="woodpeck_fixbot" changeset="10434386">
    <nd ref="370749842"/>
    <nd ref="370752533"/>
    <nd ref="370750442"/>
    <tag k="highway" v="residential"/>
    <tag k="name" v="Hotham Street"/>
    <tag k="oneway" v="yes"/>
  </way>
  <way id="43537795" version="2" timestamp="2010-07-25T22:53:13Z" uid="4467" user="Rosscoe" changeset="5317371">
    <nd ref="549652769"/>
    <nd ref="549652770"/>
    <tag k="bridge" v="yes"/>
    <tag k="foot" v="yes"/>
    <tag k="highway" v="footway"/>
    <tag k="layer" v="1"/>
  </way>
  <way id="43537795" version="3" timestamp="2011-03-07T03:04:05Z" uid="4467" user="Rosscoe" changeset="7480521">
    <nd ref="549652769"/>
    <nd ref="1190349893"/>
    <tag k="foot" v="yes"/>
    <tag k="highway" v="footway"/>
  </way>
  <way id="43537909" version="1" timestamp="2009-11-01T03:28:02Z" uid="99207" user="Lar Kiesel" changeset="3003427">
    <nd ref="549653653"/>
    <nd ref="549653655"/>
    <nd ref="549653656"/>
    <nd ref="549653657"/>
    <nd ref="549653659"/>
    <nd ref="549653661"/>
    <nd ref="549653662"/>
    <nd ref="428992215"/>
    <nd ref="549653663"/>
    <nd ref="549653664"/>
    <nd ref="549653666"/>
    <nd ref="549653667"/>
    <nd ref="549653668"/>
    <nd ref="549653669"/>
    <nd ref="549653670"/>
    <nd ref="549653673"/>
    <tag k="highway" v="service"/>
  </way>
  <way id="43537910" version="1" timestamp="2009-11-01T03:28:03Z" uid="99207" user="Lar Kiesel" changeset="3003427">
    <nd ref="549653655"/>
    <nd ref="549653674"/>
    <nd ref="549653675"/>
    <nd ref="549653664"/>
    <tag k="highway" v="service"/>
  </way>
  <way id="43537722" version="4" timestamp="2012-07-20T07:19:32Z" uid="722137" user="OSMF Redaction Account" changeset="12365910"/>
  <way id="43537724" version="4" timestamp="2012-07-20T07:19:32Z" uid="722137" user="OSMF Redaction Account" changeset="12365910"/>
  <way id="43537771" version="4" timestamp="2012-04-12T23:04:43Z" uid="211804" user="KenS" changeset="11282319"/>
  <way id="43537773" version="4" timestamp="2012-04-12T23:04:27Z" uid="211804" user="KenS" changeset="11282319">
    <nd ref="241807394"/>
    <nd ref="1713449450"/>
    <nd ref="241807395"/>
    <nd ref="241807397"/>
    <tag k="highway" v="residential"/>
    <tag k="name" v="Powlett Street"/>
    <tag k="oneway" v="yes"/>
  </way>
  <way id="43537795" version="4" timestamp="2012-07-19T11:32:46Z" uid="722137" user="OSMF Redaction Account" changeset="12321869"/>
  <way id="43537909" version="2" timestamp="2012-07-18T15:28:01Z" uid="722137" user="OSMF Redaction Account" changeset="12286937"/>
  <way id="43537910" version="2" timestamp="2012-07-18T15:28:00Z" uid="722137" user="OSMF Redaction Account" changeset="12286937"/>
</osm>
