<?xml version='1.0' encoding='UTF-8'?>
<osm version="0.6" generator="libosmium/2.20.0">
  <way id="43674487" version="3" timestamp="2010-04-02T04:29:19Z" uid="74617" user="JohnSmith" changeset="4299895">
    <nd ref="32296665"/>
    <nd ref="32296669"/>
    <nd ref="35096206"/>
    <nd ref="35096198"/>
    <nd ref="35096203"/>
    <nd ref="32296673"/>
    <tag k="highway" v="trunk"/>
    <tag k="maxspeed" v="80"/>
    <tag k="name" v="Kings Highway"/>
    <tag k="oneway" v="yes"/>
  </way>
  <way id="43674487" version="4" timestamp="2010-09-01T11:01:04Z" uid="79475" user="AlexOnTheBus" changeset="5652906">
    <nd ref="32296665"/>
    <nd ref="32296669"/>
    <nd ref="35096206"/>
    <nd ref="35096198"/>
    <nd ref="35096203"/>
    <nd ref="32296673"/>
    <tag k="highway" v="primary"/>
    <tag k="maxspeed" v="80"/>
    <tag k="name" v="Kings Highway"/>
    <tag k="oneway" v="yes"/>
  </way>
  <way id="43674488" version="3" timestamp="2010-04-02T04:29:19Z" uid="74617" user="JohnSmith" changeset="4299895">
    <nd ref="32296673"/>
    <nd ref="552597415"/>
    <tag k="highway" v="trunk"/>
    <tag k="maxspeed" v="80"/>
    <tag k="name" v="Kings Highway"/>
  </way>
  <way id="43674488" version="4" timestamp="2010-09-01T11:00:20Z" uid="79475" user="AlexOnTheBus" changeset="5652906">
    <nd ref="32296673"/>
    <nd ref="552597415"/>
    <tag k="highway" v="primary"/>
    <tag k="maxspeed" v="80"/>
    <tag k="name" v="Kings Highway"/>
  </way>
  <way id="43674916" version="2" timestamp="2010-03-22T07:34:47Z" uid="20587" user="balrog-kun" changeset="4199043">
    <nd ref="39344821"/>
    <nd ref="39344823"/>
    <nd ref="39344826"/>
    <nd ref="39344829"/>
    <tag k="highway" v="secondary"/>
    <tag k="name" v="Southeast Stephens Street"/>
    <tag k="name_1" v="State Highway 99"/>
    <tag k="ref" v="OR 99"/>
    <tag k="tiger:cfcc" v="A31"/>
    <tag k="tiger:county" v="Douglas, OR"/>
    <tag k="tiger:name_base" v="Stephens"/>
    <tag k="tiger:name_base_1" v="State Highway 99"/>
    <tag k="tiger:name_direction_prefix" v="SE"/>
    <tag k="tiger:name_type" v="St"/>
    <tag k="tiger:reviewed" v="no"/>
    <tag k="tiger:separated" v="no"/>
    <tag k="tiger:source" v="tiger_import_dch_v0.6_20070808"/>
    <tag k="tiger:tlid" v="137186953"/>
  </way>
  <way id="43674916" version="3" timestamp="2011-01-07T23:40:47Z" uid="373763" user="ylekot" changeset="6898937">
    <nd ref="39344821"/>
    <nd ref="39344823"/>
    <nd ref="39344826"/>
    <nd ref="39344829"/>
    <tag k="highway" v="tertiary"/>
    <tag k="name" v="Southeast Stephens Street"/>
    <tag k="name_1" v="State Highway 99"/>
    <tag k="old_name" v="Oakland-Shady Highway #234; Pacific Highway"/>
    <tag k="old_ref" v="US 99"/>
    <tag k="ref" v="OR 99"/>
    <tag k="tiger:cfcc" v="A31"/>
    <tag k="tiger:county" v="Douglas, OR"/>
    <tag k="tiger:name_base" v="Stephens"/>
    <tag k="tiger:name_base_1" v="State Highway 99"/>
    <tag k="tiger:name_direction_prefix" v="SE"/>
    <tag k="tiger:name_type" v="St"/>
    <tag k="tiger:reviewed" v="no"/>
    <tag k="tiger:separated" v="no"/>
    <tag k="tiger:source" v="tiger_import_dch_v0.6_20070808"/>
    <tag k="tiger:tlid" v="137186953"/>
  </way>
  <way id="43674916" version="4" timestamp="2011-11-25T17:30:24Z" uid="207745" user="NE2" changeset="9945867">
    <nd ref="39344821"/>
    <nd ref="39344823"/>
    <nd ref="39344826"/>
    <nd ref="39344829"/>
    <tag k="highway" v="primary"/>
    <tag k="name" v="Southeast Stephens Street"/>
    <tag k="name_1" v="State Highway 99"/>
    <tag k="old_name" v="Oakland-Shady Highway #234; Pacific Highway"/>
    <tag k="old_ref" v="US 99"/>
    <tag k="ref" v="OR 99"/>
    <tag k="tiger:cfcc" v="A31"/>
    <tag k="tiger:county" v="Douglas, OR"/>
    <tag k="tiger:name_base" v="Stephens"/>
    <tag k="tiger:name_base_1" v="State Highway 99"/>
    <tag k="tiger:name_direction_prefix" v="SE"/>
    <tag k="tiger:name_type" v="St"/>
    <tag k="tiger:reviewed" v="no"/>
    <tag k="tiger:separated" v="no"/>
    <tag k="tiger:source" v="tiger_import_dch_v0.6_20070808"/>
    <tag k="tiger:tlid" v="137186953"/>
  </way>
  <way id="43674917" version="2" timestamp="2010-03-22T07:34:47Z" uid="20587" user="balrog-kun" changeset="4199043">
    <nd ref="39344814"/>
    <nd ref="39344819"/>
    <nd ref="552545888"/>
    <nd ref="39344821"/>
    <tag k="highway" v="secondary"/>
    <tag k="name" v="Southeast Stephens Street"/>
    <tag k="name_1" v="State Highway 99"/>
    <tag k="ref" v="OR 99;OR 138"/>
    <tag k="tiger:cfcc" v="A31"/>
    <tag k="tiger:county" v="Douglas, OR"/>
    <tag k="tiger:name_base" v="Stephens"/>
    <tag k="tiger:name_base_1" v="State Highway 99"/>
    <tag k="tiger:name_direction_prefix" v="SE"/>
    <tag k="tiger:name_type" v="St"/>
    <tag k="tiger:separated" v="no"/>
    <tag k="tiger:source" v="tiger_import_dch_v0.6_20070808"/>
    <tag k="tiger:tlid" v="137186953"/>
  </way>
  <way id="43674917" version="3" timestamp="2010-12-15T02:35:54Z" uid="373763" user="ylekot" changeset="6664337">
    <nd ref="39344814"/>
    <nd ref="39344819"/>
    <nd ref="552545888"/>
    <nd ref="39344821"/>
    <tag k="highway" v="primary"/>
    <tag k="name" v="Southeast Stephens Street"/>
    <tag k="name_1" v="State Highway 99"/>
    <tag k="ref" v="OR 99;OR 138"/>
    <tag k="tiger:cfcc" v="A31"/>
    <tag k="tiger:county" v="Douglas, OR"/>
    <tag k="tiger:name_base" v="Stephens"/>
    <tag k="tiger:name_base_1" v="State Highway 99"/>
    <tag k="tiger:name_direction_prefix" v="SE"/>
    <tag k="tiger:name_type" v="St"/>
    <tag k="tiger:separated" v="no"/>
    <tag k="tiger:source" v="tiger_import_dch_v0.6_20070808"/>
    <tag k="tiger:tlid" v="137186953"/>
  </way>
  <way id="43674917" version="4" timestamp="2010-12-22T03:14:40Z" uid="373763" user="ylekot" changeset="6732043">
    <nd ref="39344814"/>
    <nd ref="39344819"/>
    <nd ref="552545888"/>
    <nd ref="39344821"/>
    <tag k="highway" v="primary"/>
    <tag k="name" v="Southeast Stephens Street"/>
    <tag k="name_1" v="State Highway 99"/>
    <tag k="ref" v="OR99-138"/>
    <tag k="tiger:cfcc" v="A31"/>
    <tag k="tiger:county" v="Douglas, OR"/>
    <tag k="tiger:name_base" v="Stephens"/>
    <tag k="tiger:name_base_1" v="State Highway 99"/>
    <tag k="tiger:name_direction_prefix" v="SE"/>
    <tag k="tiger:name_type" v="St"/>
    <tag k="tiger:separated" v="no"/>
    <tag k="tiger:source" v="tiger_import_dch_v0.6_20070808"/>
    <tag k="tiger:tlid" v="137186953"/>
  </way>
  <way id="43674917" version="5" timestamp="2011-01-08T00:07:15Z" uid="373763" user="ylekot" changeset="6899077">
    <nd ref="39344814"/>
    <nd ref="39344819"/>
    <nd ref="552545888"/>
    <nd ref="39344821"/>
    <tag k="alt_name" v="North Umpqua Highway #138"/>
    <tag k="highway" v="primary"/>
    <tag k="name" v="Southeast Stephens Street"/>
    <tag k="name_1" v="State Highway 99"/>
    <tag k="old_name" v="Oakland-Shady Highway #234; Pacific Highway"/>
    <tag k="ref" v="OR99-138"/>
    <tag k="tiger:cfcc" v="A31"/>
    <tag k="tiger:county" v="Douglas, OR"/>
    <tag k="tiger:name_base" v="Stephens"/>
    <tag k="tiger:name_base_1" v="State Highway 99"/>
    <tag k="tiger:name_direction_prefix" v="SE"/>
    <tag k="tiger:name_type" v="St"/>
    <tag k="tiger:separated" v="no"/>
    <tag k="tiger:source" v="tiger_import_dch_v0.6_20070808"/>
    <tag k="tiger:tlid" v="137186953"/>
  </way>
  <way id="43674917" version="6" timestamp="2011-11-25T17:30:24Z" uid="207745" user="NE2" changeset="9945867">
    <nd ref="39344814"/>
    <nd ref="39344819"/>
    <nd ref="552545888"/>
    <nd ref="39344821"/>
    <tag k="alt_name" v="North Umpqua Highway #138"/>
    <tag k="highway" v="primary"/>
    <tag k="name" v="Southeast Stephens Street"/>
    <tag k="name_1" v="State Highway 99"/>
    <tag k="old_name" v="Oakland-Shady Highway #234; Pacific Highway"/>
    <tag k="ref" v="OR 99;OR 138"/>
    <tag k="tiger:cfcc" v="A31"/>
    <tag k="tiger:county" v="Douglas, OR"/>
    <tag k="tiger:name_base" v="Stephens"/>
    <tag k="tiger:name_base_1" v="State Highway 99"/>
    <tag k="tiger:name_direction_prefix" v="SE"/>
    <tag k="tiger:name_type" v="St"/>
    <tag k="tiger:separated" v="no"/>
    <tag k="tiger:source" v="tiger_import_dch_v0.6_20070808"/>
    <tag k="tiger:tlid" v="137186953"/>
  </way>
  <way id="43674918" version="2" timestamp="2010-03-20T09:31:04Z" uid="20587" user="balrog-kun" changeset="4177542">
    <nd ref="39124442"/>
    <nd ref="552545884"/>
    <nd ref="39140326"/>
    <nd ref="39344784"/>
    <nd ref="39297435"/>
    <nd ref="39297441"/>
    <nd ref="552545885"/>
    <nd ref="39271055"/>
    <nd ref="39344789"/>
    <nd ref="39324013"/>
    <nd ref="39344792"/>
    <nd ref="39268397"/>
    <nd ref="39340453"/>
    <nd ref="39332198"/>
    <nd ref="39344795"/>
    <nd ref="39344800"/>
    <nd ref="39289612"/>
    <nd ref="39344803"/>
    <nd ref="670255300"/>
    <nd ref="39344806"/>
    <nd ref="39344809"/>
    <tag k="highway" v="secondary"/>
    <tag k="name" v="SE Stephens St"/>
    <tag k="name_1" v="State Highway 99"/>
    <tag k="oneway" v="yes"/>
    <tag k="ref" v="OR 99"/>
    <tag k="tiger:cfcc" v="A31"/>
    <tag k="tiger:county" v="Douglas, OR"/>
    <tag k="tiger:name_base" v="Stephens"/>
    <tag k="tiger:name_base_1" v="State Highway 99"/>
    <tag k="tiger:name_direction_prefix" v="SE"/>
    <tag k="tiger:name_type" v="St"/>
    <tag k="tiger:separated" v="no"/>
    <tag k="tiger:source" v="tiger_import_dch_v0.6_20070808"/>
    <tag k="tiger:tlid" v="137186953"/>
    <tag k="tiger:upload_uuid" v="bulk_upload.pl-d4b09191-1a80-43d0-b392-18dc171b51a6"/>
  </way>
  <way id="43674918" version="3" timestamp="2010-03-20T19:48:41Z" uid="20587" user="balrog-kun" changeset="4184062">
    <nd ref="39124442"/>
    <nd ref="552545884"/>
    <nd ref="39140326"/>
    <nd ref="39344784"/>
    <nd ref="39297435"/>
    <nd ref="39297441"/>
    <nd ref="552545885"/>
    <nd ref="39271055"/>
    <nd ref="39344789"/>
    <nd ref="39324013"/>
    <nd ref="39344792"/>
    <nd ref="39268397"/>
    <nd ref="39340453"/>
    <nd ref="39332198"/>
    <nd ref="39344795"/>
    <nd ref="39344800"/>
    <nd ref="39289612"/>
    <nd ref="670751830"/>
    <nd ref="39344803"/>
    <nd ref="670751832"/>
    <nd ref="670751836"/>
    <nd ref="39344806"/>
    <nd ref="670751838"/>
    <nd ref="39344809"/>
    <tag k="highway" v="secondary"/>
    <tag k="name" v="SE Stephens St"/>
    <tag k="name_1" v="State Highway 99"/>
    <tag k="oneway" v="yes"/>
    <tag k="ref" v="OR 99"/>
    <tag k="tiger:cfcc" v="A31"/>
    <tag k="tiger:county" v="Douglas, OR"/>
    <tag k="tiger:name_base" v="Stephens"/>
    <tag k="tiger:name_base_1" v="State Highway 99"/>
    <tag k="tiger:name_direction_prefix" v="SE"/>
    <tag k="tiger:name_type" v="St"/>
    <tag k="tiger:separated" v="no"/>
    <tag k="tiger:source" v="tiger_import_dch_v0.6_20070808"/>
    <tag k="tiger:tlid" v="137186953"/>
    <tag k="tiger:upload_uuid" v="bulk_upload.pl-d4b09191-1a80-43d0-b392-18dc171b51a6"/>
  </way>
  <way id="43674918" version="4" timestamp="2010-03-26T17:48:11Z" uid="20587" user="balrog-kun" changeset="4238822">
    <nd ref="39124442"/>
    <nd ref="552545884"/>
    <nd ref="39140326"/>
    <nd ref="39344784"/>
    <nd ref="39297435"/>
    <nd ref="39297441"/>
    <nd ref="552545885"/>
    <nd ref="39271055"/>
    <nd ref="39344789"/>
    <nd ref="39324013"/>
    <nd ref="39344792"/>
    <nd ref="39268397"/>
    <nd ref="39340453"/>
    <nd ref="39332198"/>
    <nd ref="39344795"/>
    <nd ref="39344800"/>
    <nd ref="39289612"/>
    <nd ref="670751830"/>
    <nd ref="39344803"/>
    <nd ref="670751832"/>
    <nd ref="670751836"/>
    <nd ref="39344806"/>
    <nd ref="670751838"/>
    <nd ref="39344809"/>
    <tag k="highway" v="secondary"/>
    <tag k="name" v="Southeast Stephens Street"/>
    <tag k="name_1" v="State Highway 99"/>
    <tag k="oneway" v="yes"/>
    <tag k="ref" v="OR 99"/>
    <tag k="tiger:cfcc" v="A31"/>
    <tag k="tiger:county" v="Douglas, OR"/>
    <tag k="tiger:name_base" v="Stephens"/>
    <tag k="tiger:name_base_1" v="State Highway 99"/>
    <tag k="tiger:name_direction_prefix" v="SE"/>
    <tag k="tiger:name_type" v="St"/>
    <tag k="tiger:separated" v="no"/>
    <tag k="tiger:source" v="tiger_import_dch_v0.6_20070808"/>
    <tag k="tiger:tlid" v="137186953"/>
  </way>
  <way id="43674918" version="5" timestamp="2011-01-07T23:40:48Z" uid="373763" user="ylekot" changeset="6898937">
    <nd ref="39124442"/>
    <nd ref="552545884"/>
    <nd ref="39140326"/>
    <nd ref="39344784"/>
    <nd ref="39297435"/>
    <nd ref="39297441"/>
    <nd ref="552545885"/>
    <nd ref="39271055"/>
    <nd ref="39344789"/>
    <nd ref="39324013"/>
    <nd ref="39344792"/>
    <nd ref="39268397"/>
    <nd ref="39340453"/>
    <nd ref="39332198"/>
    <nd ref="39344795"/>
    <nd ref="39344800"/>
    <nd ref="39289612"/>
    <nd ref="670751830"/>
    <nd ref="39344803"/>
    <nd ref="670751832"/>
    <nd ref="670751836"/>
    <nd ref="39344806"/>
    <nd ref="670751838"/>
    <nd ref="39344809"/>
    <tag k="highway" v="tertiary"/>
    <tag k="name" v="Southeast Stephens Street"/>
    <tag k="name_1" v="State Highway 99"/>
    <tag k="old_name" v="Oakland-Shady Highway #234; Pacific Highway"/>
    <tag k="old_ref" v="US 99"/>
    <tag k="oneway" v="yes"/>
    <tag k="ref" v="OR 99"/>
    <tag k="tiger:cfcc" v="A31"/>
    <tag k="tiger:county" v="Douglas, OR"/>
    <tag k="tiger:name_base" v="Stephens"/>
    <tag k="tiger:name_base_1" v="State Highway 99"/>
    <tag k="tiger:name_direction_prefix" v="SE"/>
    <tag k="tiger:name_type" v="St"/>
    <tag k="tiger:separated" v="no"/>
    <tag k="tiger:source" v="tiger_import_dch_v0.6_20070808"/>
    <tag k="tiger:tlid" v="137186953"/>
  </way>
  <way id="43674919" version="2" timestamp="2010-03-22T07:34:47Z" uid="20587" user="balrog-kun" changeset="4199043">
    <nd ref="39381118"/>
    <nd ref="552545887"/>
    <nd ref="39381116"/>
    <nd ref="39381115"/>
    <nd ref="39381114"/>
    <nd ref="39381113"/>
    <nd ref="39289614"/>
    <nd ref="39381111"/>
    <nd ref="39332201"/>
    <nd ref="39268395"/>
    <nd ref="39324014"/>
    <nd ref="39271057"/>
    <nd ref="39297443"/>
    <nd ref="39381101"/>
    <nd ref="552545883"/>
    <nd ref="39140314"/>
    <nd ref="39381097"/>
    <nd ref="39124442"/>
    <tag k="highway" v="secondary"/>
    <tag k="name" v="Southeast Pine Street"/>
    <tag k="name_1" v="State Highway 99"/>
    <tag k="name_2" v="Oakland-Shady Highway"/>
    <tag k="oneway" v="yes"/>
    <tag k="ref" v="OR 99"/>
    <tag k="tiger:cfcc" v="A35"/>
    <tag k="tiger:county" v="Douglas, OR"/>
    <tag k="tiger:name_base" v="Pine"/>
    <tag k="tiger:name_base_1" v="State Highway 99"/>
    <tag k="tiger:name_base_2" v="Oakland-Shady"/>
    <tag k="tiger:name_direction_prefix" v="SE"/>
    <tag k="tiger:name_type" v="St"/>
    <tag k="tiger:name_type_2" v="Hwy"/>
    <tag k="tiger:separated" v="yes"/>
    <tag k="tiger:source" v="tiger_import_dch_v0.6_20070808"/>
    <tag k="tiger:tlid" v="137187871:137187872:137187680:137187685"/>
  </way>
  <way id="43674919" version="3" timestamp="2011-01-07T23:40:46Z" uid="373763" user="ylekot" changeset="6898937">
    <nd ref="39381118"/>
    <nd ref="552545887"/>
    <nd ref="39381116"/>
    <nd ref="39381115"/>
    <nd ref="39381114"/>
    <nd ref="39381113"/>
    <nd ref="39289614"/>
    <nd ref="39381111"/>
    <nd ref="39332201"/>
    <nd ref="39268395"/>
    <nd ref="39324014"/>
    <nd ref="39271057"/>
    <nd ref="39297443"/>
    <nd ref="39381101"/>
    <nd ref="552545883"/>
    <nd ref="39140314"/>
    <nd ref="39381097"/>
    <nd ref="39124442"/>
    <tag k="highway" v="tertiary"/>
    <tag k="name" v="Southeast Pine Street"/>
    <tag k="name_1" v="State Highway 99"/>
    <tag k="name_2" v="Oakland-Shady Highway"/>
    <tag k="old_name" v="Oakland-Shady Highway #234; Pacific Highway"/>
    <tag k="old_ref" v="US 99"/>
    <tag k="oneway" v="yes"/>
    <tag k="ref" v="OR 99"/>
    <tag k="tiger:cfcc" v="A35"/>
    <tag k="tiger:county" v="Douglas, OR"/>
    <tag k="tiger:name_base" v="Pine"/>
    <tag k="tiger:name_base_1" v="State Highway 99"/>
    <tag k="tiger:name_base_2" v="Oakland-Shady"/>
    <tag k="tiger:name_direction_prefix" v="SE"/>
    <tag k="tiger:name_type" v="St"/>
    <tag k="tiger:name_type_2" v="Hwy"/>
    <tag k="tiger:separated" v="yes"/>
    <tag k="tiger:source" v="tiger_import_dch_v0.6_20070808"/>
    <tag k="tiger:tlid" v="137187871:137187872:137187680:137187685"/>
  </way>
  <way id="43674920" version="2" timestamp="2010-03-20T19:48:45Z" uid="20587" user="balrog-kun" changeset="4184062">
    <nd ref="39391924"/>
    <nd ref="39392935"/>
    <nd ref="39290351"/>
    <nd ref="39392932"/>
    <nd ref="39392928"/>
    <nd ref="39392926"/>
    <nd ref="39381115"/>
    <nd ref="670751848"/>
    <nd ref="39344809"/>
    <tag k="highway" v="secondary"/>
    <tag k="name" v="SE Oak Ave"/>
    <tag k="name_1" v="State Highway 138"/>
    <tag k="oneway" v="yes"/>
    <tag k="ref" v="OR 138"/>
    <tag k="tiger:cfcc" v="A35"/>
    <tag k="tiger:county" v="Douglas, OR"/>
    <tag k="tiger:name_base" v="Oak"/>
    <tag k="tiger:name_base_1" v="State Highway 138"/>
    <tag k="tiger:name_direction_prefix" v="SE"/>
    <tag k="tiger:name_type" v="Ave"/>
    <tag k="tiger:separated" v="yes"/>
    <tag k="tiger:source" v="tiger_import_dch_v0.6_20070808"/>
    <tag k="tiger:tlid" v="137187873:137187874:137186261"/>
    <tag k="tiger:upload_uuid" v="bulk_upload.pl-d4b09191-1a80-43d0-b392-18dc171b51a6"/>
  </way>
  <way id="43674920" version="3" timestamp="2010-03-26T17:48:12Z" uid="20587" user="balrog-kun" changeset="4238822">
    <nd ref="39391924"/>
    <nd ref="39392935"/>
    <nd ref="39290351"/>
    <nd ref="39392932"/>
    <nd ref="39392928"/>
    <nd ref="39392926"/>
    <nd ref="39381115"/>
    <nd ref="670751848"/>
    <nd ref="39344809"/>
    <tag k="highway" v="secondary"/>
    <tag k="name" v="Southeast Oak Avenue"/>
    <tag k="name_1" v="State Highway 138"/>
    <tag k="oneway" v="yes"/>
    <tag k="ref" v="OR 138"/>
    <tag k="tiger:cfcc" v="A35"/>
    <tag k="tiger:county" v="Douglas, OR"/>
    <tag k="tiger:name_base" v="Oak"/>
    <tag k="tiger:name_base_1" v="State Highway 138"/>
    <tag k="tiger:name_direction_prefix" v="SE"/>
    <tag k="tiger:name_type" v="Ave"/>
    <tag k="tiger:separated" v="yes"/>
    <tag k="tiger:source" v="tiger_import_dch_v0.6_20070808"/>
    <tag k="tiger:tlid" v="137187873:137187874:137186261"/>
  </way>
  <way id="43674920" version="4" timestamp="2010-12-15T02:35:55Z" uid="373763" user="ylekot" changeset="6664337">
    <nd ref="39391924"/>
    <nd ref="39392935"/>
    <nd ref="39290351"/>
    <nd ref="39392932"/>
    <nd ref="39392928"/>
    <nd ref="39392926"/>
    <nd ref="39381115"/>
    <nd ref="670751848"/>
    <nd ref="39344809"/>
    <tag k="highway" v="primary"/>
    <tag k="name" v="Southeast Oak Avenue"/>
    <tag k="name_1" v="State Highway 138"/>
    <tag k="oneway" v="yes"/>
    <tag k="ref" v="OR 138"/>
    <tag k="tiger:cfcc" v="A35"/>
    <tag k="tiger:county" v="Douglas, OR"/>
    <tag k="tiger:name_base" v="Oak"/>
    <tag k="tiger:name_base_1" v="State Highway 138"/>
    <tag k="tiger:name_direction_prefix" v="SE"/>
    <tag k="tiger:name_type" v="Ave"/>
    <tag k="tiger:separated" v="yes"/>
    <tag k="tiger:source" v="tiger_import_dch_v0.6_20070808"/>
    <tag k="tiger:tlid" v="137187873:137187874:137186261"/>
  </way>
  <way id="43674920" version="5" timestamp="2011-01-08T00:07:16Z" uid="373763" user="ylekot" changeset="6899077">
    <nd ref="39391924"/>
    <nd ref="39392935"/>
    <nd ref="39290351"/>
    <nd ref="39392932"/>
    <nd ref="39392928"/>
    <nd ref="39392926"/>
    <nd ref="39381115"/>
    <nd ref="670751848"/>
    <nd ref="39344809"/>
    <tag k="alt_name" v="North Umpqua Highway #138"/>
    <tag k="highway" v="primary"/>
    <tag k="name" v="Southeast Oak Avenue"/>
    <tag k="name_1" v="State Highway 138"/>
    <tag k="oneway" v="yes"/>
    <tag k="ref" v="OR 138"/>
    <tag k="tiger:cfcc" v="A35"/>
    <tag k="tiger:county" v="Douglas, OR"/>
    <tag k="tiger:name_base" v="Oak"/>
    <tag k="tiger:name_base_1" v="State Highway 138"/>
    <tag k="tiger:name_direction_prefix" v="SE"/>
    <tag k="tiger:name_type" v="Ave"/>
    <tag k="tiger:separated" v="yes"/>
    <tag k="tiger:source" v="tiger_import_dch_v0.6_20070808"/>
    <tag k="tiger:tlid" v="137187873:137187874:137186261"/>
  </way>
  <way id="43674921" version="2" timestamp="2010-03-22T07:34:48Z" uid="20587" user="balrog-kun" changeset="4199043">
    <nd ref="39344809"/>
    <nd ref="39344812"/>
    <nd ref="39344814"/>
    <tag k="highway" v="secondary"/>
    <tag k="name" v="Southeast Stephens Street"/>
    <tag k="name_1" v="State Highway 99"/>
    <tag k="oneway" v="yes"/>
    <tag k="ref" v="OR 99;OR 138"/>
    <tag k="tiger:cfcc" v="A31"/>
    <tag k="tiger:county" v="Douglas, OR"/>
    <tag k="tiger:name_base" v="Stephens"/>
    <tag k="tiger:name_base_1" v="State Highway 99"/>
    <tag k="tiger:name_direction_prefix" v="SE"/>
    <tag k="tiger:name_type" v="St"/>
    <tag k="tiger:separated" v="no"/>
    <tag k="tiger:source" v="tiger_import_dch_v0.6_20070808"/>
    <tag k="tiger:tlid" v="137186953"/>
  </way>
  <way id="43674921" version="3" timestamp="2010-12-15T02:35:53Z" uid="373763" user="ylekot" changeset="6664337">
    <nd ref="39344809"/>
    <nd ref="39344812"/>
    <nd ref="39344814"/>
    <tag k="highway" v="primary"/>
    <tag k="name" v="Southeast Stephens Street"/>
    <tag k="name_1" v="State Highway 99"/>
    <tag k="oneway" v="yes"/>
    <tag k="ref" v="OR 99;OR 138"/>
    <tag k="tiger:cfcc" v="A31"/>
    <tag k="tiger:county" v="Douglas, OR"/>
    <tag k="tiger:name_base" v="Stephens"/>
    <tag k="tiger:name_base_1" v="State Highway 99"/>
    <tag k="tiger:name_direction_prefix" v="SE"/>
    <tag k="tiger:name_type" v="St"/>
    <tag k="tiger:separated" v="no"/>
    <tag k="tiger:source" v="tiger_import_dch_v0.6_20070808"/>
    <tag k="tiger:tlid" v="137186953"/>
  </way>
  <way id="43674921" version="4" timestamp="2010-12-22T03:14:40Z" uid="373763" user="ylekot" changeset="6732043">
    <nd ref="39344809"/>
    <nd ref="39344812"/>
    <nd ref="39344814"/>
    <tag k="highway" v="primary"/>
    <tag k="name" v="Southeast Stephens Street"/>
    <tag k="name_1" v="State Highway 99"/>
    <tag k="oneway" v="yes"/>
    <tag k="ref" v="OR99-138"/>
    <tag k="tiger:cfcc" v="A31"/>
    <tag k="tiger:county" v="Douglas, OR"/>
    <tag k="tiger:name_base" v="Stephens"/>
    <tag k="tiger:name_base_1" v="State Highway 99"/>
    <tag k="tiger:name_direction_prefix" v="SE"/>
    <tag k="tiger:name_type" v="St"/>
    <tag k="tiger:separated" v="no"/>
    <tag k="tiger:source" v="tiger_import_dch_v0.6_20070808"/>
    <tag k="tiger:tlid" v="137186953"/>
  </way>
  <way id="43674921" version="5" timestamp="2011-01-08T00:07:16Z" uid="373763" user="ylekot" changeset="6899077">
    <nd ref="39344809"/>
    <nd ref="39344812"/>
    <nd ref="39344814"/>
    <tag k="highway" v="primary"/>
    <tag k="name" v="Southeast Stephens Street"/>
    <tag k="name_1" v="State Highway 99"/>
    <tag k="old_name" v="Oakland-Shady Highway #234; Pacific Highway"/>
    <tag k="oneway" v="yes"/>
    <tag k="ref" v="OR99-138"/>
    <tag k="tiger:cfcc" v="A31"/>
    <tag k="tiger:county" v="Douglas, OR"/>
    <tag k="tiger:name_base" v="Stephens"/>
    <tag k="tiger:name_base_1" v="State Highway 99"/>
    <tag k="tiger:name_direction_prefix" v="SE"/>
    <tag k="tiger:name_type" v="St"/>
    <tag k="tiger:separated" v="no"/>
    <tag k="tiger:source" v="tiger_import_dch_v0.6_20070808"/>
    <tag k="tiger:tlid" v="137186953"/>
  </way>
  <way id="43674921" version="6" timestamp="2011-11-25T17:30:23Z" uid="207745" user="NE2" changeset="9945867">
    <nd ref="39344809"/>
    <nd ref="39344812"/>
    <nd ref="39344814"/>
    <tag k="highway" v="primary"/>
    <tag k="name" v="Southeast Stephens Street"/>
    <tag k="name_1" v="State Highway 99"/>
    <tag k="old_name" v="Oakland-Shady Highway #234; Pacific Highway"/>
    <tag k="oneway" v="yes"/>
    <tag k="ref" v="OR 99;OR 138"/>
    <tag k="tiger:cfcc" v="A31"/>
    <tag k="tiger:county" v="Douglas, OR"/>
    <tag k="tiger:name_base" v="Stephens"/>
    <tag k="tiger:name_base_1" v="State Highway 99"/>
    <tag k="tiger:name_direction_prefix" v="SE"/>
    <tag k="tiger:name_type" v="St"/>
    <tag k="tiger:separated" v="no"/>
    <tag k="tiger:source" v="tiger_import_dch_v0.6_20070808"/>
    <tag k="tiger:tlid" v="137186953"/>
  </way>
  <way id="43674922" version="2" timestamp="2010-03-22T07:34:48Z" uid="20587" user="balrog-kun" changeset="4199043">
    <nd ref="39387369"/>
    <nd ref="39391931"/>
    <nd ref="39391927"/>
    <tag k="highway" v="secondary"/>
    <tag k="name" v="Southwest Oak Avenue"/>
    <tag k="name_1" v="State Highway 138"/>
    <tag k="oneway" v="yes"/>
    <tag k="ref" v="OR 138"/>
    <tag k="tiger:cfcc" v="A35"/>
    <tag k="tiger:county" v="Douglas, OR"/>
    <tag k="tiger:name_base" v="Oak"/>
    <tag k="tiger:name_base_1" v="State Highway 138"/>
    <tag k="tiger:name_direction_prefix" v="SW"/>
    <tag k="tiger:name_type" v="Ave"/>
    <tag k="tiger:separated" v="yes"/>
    <tag k="tiger:source" v="tiger_import_dch_v0.6_20070808"/>
    <tag k="tiger:tlid" v="137247787:137187441:137247450"/>
  </way>
  <way id="43674922" version="3" timestamp="2010-12-15T02:35:54Z" uid="373763" user="ylekot" changeset="6664337">
    <nd ref="39387369"/>
    <nd ref="39391931"/>
    <nd ref="39391927"/>
    <tag k="highway" v="primary"/>
    <tag k="name" v="Southwest Oak Avenue"/>
    <tag k="name_1" v="State Highway 138"/>
    <tag k="oneway" v="yes"/>
    <tag k="ref" v="OR 138"/>
    <tag k="tiger:cfcc" v="A35"/>
    <tag k="tiger:county" v="Douglas, OR"/>
    <tag k="tiger:name_base" v="Oak"/>
    <tag k="tiger:name_base_1" v="State Highway 138"/>
    <tag k="tiger:name_direction_prefix" v="SW"/>
    <tag k="tiger:name_type" v="Ave"/>
    <tag k="tiger:separated" v="yes"/>
    <tag k="tiger:source" v="tiger_import_dch_v0.6_20070808"/>
    <tag k="tiger:tlid" v="137247787:137187441:137247450"/>
  </way>
  <way id="43674922" version="4" timestamp="2011-01-08T00:07:17Z" uid="373763" user="ylekot" changeset="6899077">
    <nd ref="39387369"/>
    <nd ref="39391931"/>
    <nd ref="39391927"/>
    <tag k="alt_name" v="North Umpqua Highway #138"/>
    <tag k="highway" v="primary"/>
    <tag k="name" v="Southwest Oak Avenue"/>
    <tag k="name_1" v="State Highway 138"/>
    <tag k="oneway" v="yes"/>
    <tag k="ref" v="OR 138"/>
    <tag k="tiger:cfcc" v="A35"/>
    <tag k="tiger:county" v="Douglas, OR"/>
    <tag k="tiger:name_base" v="Oak"/>
    <tag k="tiger:name_base_1" v="State Highway 138"/>
    <tag k="tiger:name_direction_prefix" v="SW"/>
    <tag k="tiger:name_type" v="Ave"/>
    <tag k="tiger:separated" v="yes"/>
    <tag k="tiger:source" v="tiger_import_dch_v0.6_20070808"/>
    <tag k="tiger:tlid" v="137247787:137187441:137247450"/>
  </way>
  <way id="43674923" version="2" timestamp="2010-03-22T07:34:48Z" uid="20587" user="balrog-kun" changeset="4199043">
    <nd ref="39402105"/>
    <nd ref="39402099"/>
    <tag k="bridge" v="yes"/>
    <tag k="highway" v="secondary"/>
    <tag k="layer" v="1"/>
    <tag k="name" v="Southeast Washington Avenue"/>
    <tag k="name_1" v="State Highway 138"/>
    <tag k="oneway" v="yes"/>
    <tag k="ref" v="OR 138"/>
    <tag k="tiger:cfcc" v="A35"/>
    <tag k="tiger:county" v="Douglas, OR"/>
    <tag k="tiger:name_base" v="Washington"/>
    <tag k="tiger:name_base_1" v="State Highway 138"/>
    <tag k="tiger:name_direction_prefix" v="SE"/>
    <tag k="tiger:name_type" v="Ave"/>
    <tag k="tiger:separated" v="yes"/>
    <tag k="tiger:source" v="tiger_import_dch_v0.6_20070808"/>
    <tag k="tiger:tlid" v="137247788:137187442:137187050:137187875:137187870:137186945"/>
  </way>
  <way id="43674923" version="3" timestamp="2010-12-15T02:35:54Z" uid="373763" user="ylekot" changeset="6664337">
    <nd ref="39402105"/>
    <nd ref="39402099"/>
    <tag k="bridge" v="yes"/>
    <tag k="highway" v="primary"/>
    <tag k="layer" v="1"/>
    <tag k="name" v="Southeast Washington Avenue"/>
    <tag k="name_1" v="State Highway 138"/>
    <tag k="oneway" v="yes"/>
    <tag k="ref" v="OR 138"/>
    <tag k="tiger:cfcc" v="A35"/>
    <tag k="tiger:county" v="Douglas, OR"/>
    <tag k="tiger:name_base" v="Washington"/>
    <tag k="tiger:name_base_1" v="State Highway 138"/>
    <tag k="tiger:name_direction_prefix" v="SE"/>
    <tag k="tiger:name_type" v="Ave"/>
    <tag k="tiger:separated" v="yes"/>
    <tag k="tiger:source" v="tiger_import_dch_v0.6_20070808"/>
    <tag k="tiger:tlid" v="137247788:137187442:137187050:137187875:137187870:137186945"/>
  </way>
  <way id="43674923" version="4" timestamp="2011-01-08T00:07:17Z" uid="373763" user="ylekot" changeset="6899077">
    <nd ref="39402105"/>
    <nd ref="39402099"/>
    <tag k="alt_name" v="North Umpqua Highway #138"/>
    <tag k="bridge" v="yes"/>
    <tag k="highway" v="primary"/>
    <tag k="layer" v="1"/>
    <tag k="name" v="Southeast Washington Avenue"/>
    <tag k="name_1" v="State Highway 138"/>
    <tag k="oneway" v="yes"/>
    <tag k="ref" v="OR 138"/>
    <tag k="tiger:cfcc" v="A35"/>
    <tag k="tiger:county" v="Douglas, OR"/>
    <tag k="tiger:name_base" v="Washington"/>
    <tag k="tiger:name_base_1" v="State Highway 138"/>
    <tag k="tiger:name_direction_prefix" v="SE"/>
    <tag k="tiger:name_type" v="Ave"/>
    <tag k="tiger:separated" v="yes"/>
    <tag k="tiger:source" v="tiger_import_dch_v0.6_20070808"/>
    <tag k="tiger:tlid" v="137247788:137187442:137187050:137187875:137187870:137186945"/>
  </way>
  <way id="43674924" version="2" timestamp="2010-03-22T07:34:48Z" uid="20587" user="balrog-kun" changeset="4199043">
    <nd ref="39402099"/>
    <nd ref="39402096"/>
    <nd ref="39387369"/>
    <tag k="highway" v="secondary"/>
    <tag k="name" v="Southeast Washington Avenue"/>
    <tag k="name_1" v="State Highway 138"/>
    <tag k="oneway" v="yes"/>
    <tag k="ref" v="OR 138"/>
    <tag k="tiger:cfcc" v="A35"/>
    <tag k="tiger:county" v="Douglas, OR"/>
    <tag k="tiger:name_base" v="Washington"/>
    <tag k="tiger:name_base_1" v="State Highway 138"/>
    <tag k="tiger:name_direction_prefix" v="SE"/>
    <tag k="tiger:name_type" v="Ave"/>
    <tag k="tiger:separated" v="yes"/>
    <tag k="tiger:source" v="tiger_import_dch_v0.6_20070808"/>
    <tag k="tiger:tlid" v="137247788:137187442:137187050:137187875:137187870:137186945"/>
  </way>
  <way id="43674924" version="3" timestamp="2010-12-15T02:35:54Z" uid="373763" user="ylekot" changeset="6664337">
    <nd ref="39402099"/>
    <nd ref="39402096"/>
    <nd ref="39387369"/>
    <tag k="highway" v="primary"/>
    <tag k="name" v="Southeast Washington Avenue"/>
    <tag k="name_1" v="State Highway 138"/>
    <tag k="oneway" v="yes"/>
    <tag k="ref" v="OR 138"/>
    <tag k="tiger:cfcc" v="A35"/>
    <tag k="tiger:county" v="Douglas, OR"/>
    <tag k="tiger:name_base" v="Washington"/>
    <tag k="tiger:name_base_1" v="State Highway 138"/>
    <tag k="tiger:name_direction_prefix" v="SE"/>
    <tag k="tiger:name_type" v="Ave"/>
    <tag k="tiger:separated" v="yes"/>
    <tag k="tiger:source" v="tiger_import_dch_v0.6_20070808"/>
    <tag k="tiger:tlid" v="137247788:137187442:137187050:137187875:137187870:137186945"/>
  </way>
  <way id="43674924" version="4" timestamp="2011-01-08T00:07:18Z" uid="373763" user="ylekot" changeset="6899077">
    <nd ref="39402099"/>
    <nd ref="39402096"/>
    <nd ref="39387369"/>
    <tag k="alt_name" v="North Umpqua Highway #138"/>
    <tag k="highway" v="primary"/>
    <tag k="name" v="Southeast Washington Avenue"/>
    <tag k="name_1" v="State Highway 138"/>
    <tag k="oneway" v="yes"/>
    <tag k="ref" v="OR 138"/>
    <tag k="tiger:cfcc" v="A35"/>
    <tag k="tiger:county" v="Douglas, OR"/>
    <tag k="tiger:name_base" v="Washington"/>
    <tag k="tiger:name_base_1" v="State Highway 138"/>
    <tag k="tiger:name_direction_prefix" v="SE"/>
    <tag k="tiger:name_type" v="Ave"/>
    <tag k="tiger:separated" v="yes"/>
    <tag k="tiger:source" v="tiger_import_dch_v0.6_20070808"/>
    <tag k="tiger:tlid" v="137247788:137187442:137187050:137187875:137187870:137186945"/>
  </way>
  <way id="43674925" version="2" timestamp="2010-03-22T07:34:49Z" uid="20587" user="balrog-kun" changeset="4199043">
    <nd ref="39381118"/>
    <nd ref="39402115"/>
    <nd ref="39402113"/>
    <nd ref="39402105"/>
    <tag k="highway" v="secondary"/>
    <tag k="name" v="Southeast Washington Avenue"/>
    <tag k="name_1" v="State Highway 138"/>
    <tag k="oneway" v="yes"/>
    <tag k="ref" v="OR 138"/>
    <tag k="tiger:cfcc" v="A35"/>
    <tag k="tiger:county" v="Douglas, OR"/>
    <tag k="tiger:name_base" v="Washington"/>
    <tag k="tiger:name_base_1" v="State Highway 138"/>
    <tag k="tiger:name_direction_prefix" v="SE"/>
    <tag k="tiger:name_type" v="Ave"/>
    <tag k="tiger:separated" v="yes"/>
    <tag k="tiger:source" v="tiger_import_dch_v0.6_20070808"/>
    <tag k="tiger:tlid" v="137247788:137187442:137187050:137187875:137187870:137186945"/>
  </way>
  <way id="43674925" version="3" timestamp="2010-12-15T02:35:55Z" uid="373763" user="ylekot" changeset="6664337">
    <nd ref="39381118"/>
    <nd ref="39402115"/>
    <nd ref="39402113"/>
    <nd ref="39402105"/>
    <tag k="highway" v="primary"/>
    <tag k="name" v="Southeast Washington Avenue"/>
    <tag k="name_1" v="State Highway 138"/>
    <tag k="oneway" v="yes"/>
    <tag k="ref" v="OR 138"/>
    <tag k="tiger:cfcc" v="A35"/>
    <tag k="tiger:county" v="Douglas, OR"/>
    <tag k="tiger:name_base" v="Washington"/>
    <tag k="tiger:name_base_1" v="State Highway 138"/>
    <tag k="tiger:name_direction_prefix" v="SE"/>
    <tag k="tiger:name_type" v="Ave"/>
    <tag k="tiger:separated" v="yes"/>
    <tag k="tiger:source" v="tiger_import_dch_v0.6_20070808"/>
    <tag k="tiger:tlid" v="137247788:137187442:137187050:137187875:137187870:137186945"/>
  </way>
  <way id="43674925" version="4" timestamp="2011-01-08T00:07:18Z" uid="373763" user="ylekot" changeset="6899077">
    <nd ref="39381118"/>
    <nd ref="39402115"/>
    <nd ref="39402113"/>
    <nd ref="39402105"/>
    <tag k="alt_name" v="North Umpqua Highway #138"/>
    <tag k="highway" v="primary"/>
    <tag k="name" v="Southeast Washington Avenue"/>
    <tag k="name_1" v="State Highway 138"/>
    <tag k="oneway" v="yes"/>
    <tag k="ref" v="OR 138"/>
    <tag k="tiger:cfcc" v="A35"/>
    <tag k="tiger:county" v="Douglas, OR"/>
    <tag k="tiger:name_base" v="Washington"/>
    <tag k="tiger:name_base_1" v="State Highway 138"/>
    <tag k="tiger:name_direction_prefix" v="SE"/>
    <tag k="tiger:name_type" v="Ave"/>
    <tag k="tiger:separated" v="yes"/>
    <tag k="tiger:source" v="tiger_import_dch_v0.6_20070808"/>
    <tag k="tiger:tlid" v="137247788:137187442:137187050:137187875:137187870:137186945"/>
  </way>
  <way id="43674926" version="2" timestamp="2010-03-22T07:34:49Z" uid="20587" user="balrog-kun" changeset="4199043">
    <nd ref="39297295"/>
    <nd ref="39623189"/>
    <nd ref="39387369"/>
    <tag k="highway" v="secondary"/>
    <tag k="name" v="Southwest Freeway Avenue"/>
    <tag k="name_1" v="State Highway 138"/>
    <tag k="ref" v="OR 138"/>
    <tag k="tiger:cfcc" v="A31"/>
    <tag k="tiger:county" v="Douglas, OR"/>
    <tag k="tiger:name_base" v="Freeway"/>
    <tag k="tiger:name_base_1" v="State Highway 138"/>
    <tag k="tiger:name_direction_prefix" v="SW"/>
    <tag k="tiger:name_type" v="Ave"/>
    <tag k="tiger:separated" v="no"/>
    <tag k="tiger:source" v="tiger_import_dch_v0.6_20070808"/>
    <tag k="tiger:tlid" v="137187467"/>
  </way>
  <way id="43674926" version="3" timestamp="2010-12-15T02:35:56Z" uid="373763" user="ylekot" changeset="6664337">
    <nd ref="39297295"/>
    <nd ref="39623189"/>
    <nd ref="39387369"/>
    <tag k="highway" v="primary"/>
    <tag k="name" v="Southwest Freeway Avenue"/>
    <tag k="name_1" v="State Highway 138"/>
    <tag k="ref" v="OR 138"/>
    <tag k="tiger:cfcc" v="A31"/>
    <tag k="tiger:county" v="Douglas, OR"/>
    <tag k="tiger:name_base" v="Freeway"/>
    <tag k="tiger:name_base_1" v="State Highway 138"/>
    <tag k="tiger:name_direction_prefix" v="SW"/>
    <tag k="tiger:name_type" v="Ave"/>
    <tag k="tiger:separated" v="no"/>
    <tag k="tiger:source" v="tiger_import_dch_v0.6_20070808"/>
    <tag k="tiger:tlid" v="137187467"/>
  </way>
  <way id="43674926" version="4" timestamp="2011-01-08T00:07:18Z" uid="373763" user="ylekot" changeset="6899077">
    <nd ref="39297295"/>
    <nd ref="39623189"/>
    <nd ref="39387369"/>
    <tag k="alt_name" v="North Umpqua Highway #138"/>
    <tag k="highway" v="primary"/>
    <tag k="name" v="Southwest Freeway Avenue"/>
    <tag k="name_1" v="State Highway 138"/>
    <tag k="ref" v="OR 138"/>
    <tag k="tiger:cfcc" v="A31"/>
    <tag k="tiger:county" v="Douglas, OR"/>
    <tag k="tiger:name_base" v="Freeway"/>
    <tag k="tiger:name_base_1" v="State Highway 138"/>
    <tag k="tiger:name_direction_prefix" v="SW"/>
    <tag k="tiger:name_type" v="Ave"/>
    <tag k="tiger:separated" v="no"/>
    <tag k="tiger:source" v="tiger_import_dch_v0.6_20070808"/>
    <tag k="tiger:tlid" v="137187467"/>
  </way>
  <way id="43674928" version="2" timestamp="2010-03-22T07:34:49Z" uid="20587" user="balrog-kun" changeset="4199043">
    <nd ref="39297377"/>
    <nd ref="404508227"/>
    <nd ref="39297280"/>
    <nd ref="39297283"/>
    <nd ref="39297286"/>
    <nd ref="39297289"/>
    <nd ref="39297291"/>
    <nd ref="39014099"/>
    <nd ref="39297295"/>
    <tag k="highway" v="secondary"/>
    <tag k="name" v="East Harvard Avenue"/>
    <tag k="name_1" v="State Highway 138"/>
    <tag k="name_2" v="Northeast Willow Street"/>
    <tag k="ref" v="OR 138"/>
    <tag k="tiger:cfcc" v="A31"/>
    <tag k="tiger:county" v="Douglas, OR"/>
    <tag k="tiger:name_base" v="Harvard"/>
    <tag k="tiger:name_base_1" v="State Highway 138"/>
    <tag k="tiger:name_base_2" v="Willow"/>
    <tag k="tiger:name_direction_prefix" v="W"/>
    <tag k="tiger:name_direction_prefix_2" v="NE"/>
    <tag k="tiger:name_type" v="Ave"/>
    <tag k="tiger:name_type_2" v="St"/>
    <tag k="tiger:separated" v="no"/>
    <tag k="tiger:source" v="tiger_import_dch_v0.6_20070808"/>
    <tag k="tiger:tlid" v="137246307:137243972:137187436:137187440"/>
  </way>
  <way id="43674928" version="3" timestamp="2010-03-26T17:48:12Z" uid="20587" user="balrog-kun" changeset="4238822">
    <nd ref="39297377"/>
    <nd ref="404508227"/>
    <nd ref="39297280"/>
    <nd ref="39297283"/>
    <nd ref="39297286"/>
    <nd ref="39297289"/>
    <nd ref="39297291"/>
    <nd ref="39014099"/>
    <nd ref="39297295"/>
    <tag k="highway" v="secondary"/>
    <tag k="name" v="West Harvard Avenue"/>
    <tag k="name_1" v="State Highway 138"/>
    <tag k="name_2" v="Northeast Willow Street"/>
    <tag k="ref" v="OR 138"/>
    <tag k="tiger:cfcc" v="A31"/>
    <tag k="tiger:county" v="Douglas, OR"/>
    <tag k="tiger:name_base" v="Harvard"/>
    <tag k="tiger:name_base_1" v="State Highway 138"/>
    <tag k="tiger:name_base_2" v="Willow"/>
    <tag k="tiger:name_direction_prefix" v="W"/>
    <tag k="tiger:name_direction_prefix_2" v="NE"/>
    <tag k="tiger:name_type" v="Ave"/>
    <tag k="tiger:name_type_2" v="St"/>
    <tag k="tiger:separated" v="no"/>
    <tag k="tiger:source" v="tiger_import_dch_v0.6_20070808"/>
    <tag k="tiger:tlid" v="137246307:137243972:137187436:137187440"/>
  </way>
  <way id="43674928" version="4" timestamp="2010-12-15T02:35:55Z" uid="373763" user="ylekot" changeset="6664337">
    <nd ref="39297377"/>
    <nd ref="404508227"/>
    <nd ref="39297280"/>
    <nd ref="39297283"/>
    <nd ref="39297286"/>
    <nd ref="39297289"/>
    <nd ref="39297291"/>
    <nd ref="39014099"/>
    <nd ref="39297295"/>
    <tag k="highway" v="primary"/>
    <tag k="name" v="West Harvard Avenue"/>
    <tag k="name_1" v="State Highway 138"/>
    <tag k="name_2" v="Northeast Willow Street"/>
    <tag k="ref" v="OR 138"/>
    <tag k="tiger:cfcc" v="A31"/>
    <tag k="tiger:county" v="Douglas, OR"/>
    <tag k="tiger:name_base" v="Harvard"/>
    <tag k="tiger:name_base_1" v="State Highway 138"/>
    <tag k="tiger:name_base_2" v="Willow"/>
    <tag k="tiger:name_direction_prefix" v="W"/>
    <tag k="tiger:name_direction_prefix_2" v="NE"/>
    <tag k="tiger:name_type" v="Ave"/>
    <tag k="tiger:name_type_2" v="St"/>
    <tag k="tiger:separated" v="no"/>
    <tag k="tiger:source" v="tiger_import_dch_v0.6_20070808"/>
    <tag k="tiger:tlid" v="137246307:137243972:137187436:137187440"/>
  </way>
  <way id="43674928" version="5" timestamp="2011-01-08T00:07:19Z" uid="373763" user="ylekot" changeset="6899077">
    <nd ref="39297377"/>
    <nd ref="404508227"/>
    <nd ref="39297280"/>
    <nd ref="39297283"/>
    <nd ref="39297286"/>
    <nd ref="39297289"/>
    <nd ref="39297291"/>
    <nd ref="39014099"/>
    <nd ref="39297295"/>
    <tag k="alt_name" v="North Umpqua Highway #138"/>
    <tag k="highway" v="primary"/>
    <tag k="name" v="West Harvard Avenue"/>
    <tag k="name_1" v="State Highway 138"/>
    <tag k="name_2" v="Northeast Willow Street"/>
    <tag k="ref" v="OR 138"/>
    <tag k="tiger:cfcc" v="A31"/>
    <tag k="tiger:county" v="Douglas, OR"/>
    <tag k="tiger:name_base" v="Harvard"/>
    <tag k="tiger:name_base_1" v="State Highway 138"/>
    <tag k="tiger:name_base_2" v="Willow"/>
    <tag k="tiger:name_direction_prefix" v="W"/>
    <tag k="tiger:name_direction_prefix_2" v="NE"/>
    <tag k="tiger:name_type" v="Ave"/>
    <tag k="tiger:name_type_2" v="St"/>
    <tag k="tiger:separated" v="no"/>
    <tag k="tiger:source" v="tiger_import_dch_v0.6_20070808"/>
    <tag k="tiger:tlid" v="137246307:137243972:137187436:137187440"/>
  </way>
  <way id="43674928" version="6" timestamp="2011-11-25T17:47:05Z" uid="207745" user="NE2" changeset="9945867">
    <nd ref="39297377"/>
    <nd ref="404508227"/>
    <nd ref="39297280"/>
    <tag k="alt_name" v="North Umpqua Highway #138"/>
    <tag k="highway" v="primary"/>
    <tag k="name" v="West Harvard Avenue"/>
    <tag k="name_1" v="State Highway 138"/>
    <tag k="name_2" v="Northeast Willow Street"/>
    <tag k="ref" v="OR 138"/>
    <tag k="tiger:cfcc" v="A31"/>
    <tag k="tiger:county" v="Douglas, OR"/>
    <tag k="tiger:name_base" v="Harvard"/>
    <tag k="tiger:name_base_1" v="State Highway 138"/>
    <tag k="tiger:name_base_2" v="Willow"/>
    <tag k="tiger:name_direction_prefix" v="W"/>
    <tag k="tiger:name_direction_prefix_2" v="NE"/>
    <tag k="tiger:name_type" v="Ave"/>
    <tag k="tiger:name_type_2" v="St"/>
    <tag k="tiger:separated" v="no"/>
    <tag k="tiger:source" v="tiger_import_dch_v0.6_20070808"/>
    <tag k="tiger:tlid" v="137246307:137243972:137187436:137187440"/>
  </way>
  <way id="43674487" version="5" timestamp="2012-08-10T13:51:47Z" uid="67896" user="mrpulley" changeset="12680357">
    <nd ref="32296665"/>
    <nd ref="32296669"/>
    <nd ref="35096206"/>
    <nd ref="35096198"/>
    <nd ref="35096203"/>
    <nd ref="32296673"/>
    <tag k="highway" v="primary"/>
    <tag k="maxspeed" v="80"/>
    <tag k="name" v="Kings Highway"/>
    <tag k="network" v="NR"/>
    <tag k="oneway" v="yes"/>
    <tag k="ref" v="52"/>
  </way>
  <way id="43674488" version="5" timestamp="2012-08-10T13:51:15Z" uid="67896" user="mrpulley" changeset="12680357">
    <nd ref="32296673"/>
    <nd ref="552597415"/>
    <tag k="highway" v="primary"/>
    <tag k="maxspeed" v="80"/>
    <tag k="name" v="Kings Highway"/>
    <tag k="network" v="NR"/>
    <tag k="ref" v="52"/>
  </way>
  <way id="43674916" version="5" timestamp="2012-07-18T20:59:44Z" uid="722137" user="OSMF Redaction Account" changeset="12298281"/>
  <way id="43674917" version="7" timestamp="2012-07-18T20:59:43Z" uid="722137" user="OSMF Redaction Account" changeset="12298281"/>
  <way id="43674918" version="6" timestamp="2012-07-18T20:59:18Z" uid="722137" user="OSMF Redaction Account" changeset="12298281">
    <nd ref="670751830"/>
    <nd ref="670751832"/>
    <nd ref="670751836"/>
    <nd ref="670751838"/>
    <tag k="highway" v="tertiary"/>
    <tag k="old_name" v="Oakland-Shady Highway #234; Pacific Highway"/>
    <tag k="old_ref" v="US 99"/>
  </way>
  <way id="43674918" version="7" timestamp="2012-08-15T05:04:57Z" uid="28145" user="amillar" changeset="12734493">
    <nd ref="670751830"/>
    <nd ref="670751832"/>
    <nd ref="670751836"/>
    <nd ref="39344806"/>
    <nd ref="670751838"/>
    <tag k="highway" v="tertiary"/>
    <tag k="old_name" v="Oakland-Shady Highway #234; Pacific Highway"/>
    <tag k="old_ref" v="US 99"/>
  </way>
  <way id="43674919" version="4" timestamp="2012-07-18T20:59:43Z" uid="722137" user="OSMF Redaction Account" changeset="12298281"/>
  <way id="43674920" version="6" timestamp="2012-07-18T20:59:43Z" uid="722137" user="OSMF Redaction Account" changeset="12298281"/>
  <way id="43674921" version="7" timestamp="2012-07-18T20:59:43Z" uid="722137" user="OSMF Redaction Account" changeset="12298281"/>
  <way id="43674922" version="5" timestamp="2012-07-18T20:59:44Z" uid="722137" user="OSMF Redaction Account" changeset="12298281"/>
  <way id="43674923" version="5" timestamp="2012-07-18T20:59:43Z" uid="722137" user="OSMF Redaction Account" changeset="12298281"/>
  <way id="43674924" version="5" timestamp="2012-07-18T20:59:43Z" uid="722137" user="OSMF Redaction Account" changeset="12298281"/>
  <way id="43674925" version="5" timestamp="2012-07-18T20:59:43Z" uid="722137" user="OSMF Redaction Account" changeset="12298281"/>
  <way id="43674926" version="5" timestamp="2012-07-18T20:59:43Z" uid="722137" user="OSMF Redaction Account" changeset="12298281"/>
  <way id="43674928" version="7" timestamp="2012-07-18T20:59:44Z" uid="722137" user="OSMF Redaction Account" changeset="12298281"/>
</osm>
