<?xml version='1.0' encoding='UTF-8'?>
<osm version="0.6" generator="libosmium/2.20.0">
  <way id="43676340" version="3" timestamp="2010-04-07T14:01:09Z" uid="20587" user="balrog-kun" changeset="4353646">
    <nd ref="552588958"/>
    <nd ref="552588959"/>
    <nd ref="552588960"/>
    <nd ref="552588961"/>
    <nd ref="552588962"/>
    <nd ref="552588963"/>
    <nd ref="552588964"/>
    <nd ref="552588965"/>
    <nd ref="552588966"/>
    <nd ref="552588967"/>
    <nd ref="552588968"/>
    <nd ref="552588969"/>
    <nd ref="552588970"/>
    <nd ref="552588971"/>
    <nd ref="552588957"/>
    <tag k="addr:city" v="Kerrville, Tx"/>
    <tag k="addr:country" v="US"/>
    <tag k="addr:postcode" v="78028"/>
    <tag k="addr:street" v="Carefree Trail N"/>
    <tag k="highway" v="residential"/>
    <tag k="name" v="Carefree Trail North"/>
  </way>
  <way id="43676364" version="2" timestamp="2010-03-28T11:09:34Z" uid="20587" user="balrog-kun" changeset="4254597">
    <nd ref="65501700"/>
    <nd ref="65501693"/>
    <nd ref="65501702"/>
    <nd ref="340647503"/>
    <nd ref="65501693"/>
    <tag k="highway" v="residential"/>
    <tag k="name" v="Sandpiper Court"/>
    <tag k="tiger:cfcc" v="A41"/>
    <tag k="tiger:county" v="San Mateo, CA"/>
    <tag k="tiger:name_base" v="Sandpiper"/>
    <tag k="tiger:name_type" v="Ct"/>
    <tag k="tiger:reviewed" v="no"/>
    <tag k="tiger:separated" v="no"/>
    <tag k="tiger:source" v="tiger_import_dch_v0.6_20070809"/>
    <tag k="tiger:tlid" v="192384356:192384360"/>
    <tag k="tiger:zip_left" v="94404"/>
    <tag k="tiger:zip_right" v="94404"/>
  </way>
</osm>
