<?xml version='1.0' encoding='UTF-8'?>
<osm version="0.6" generator="libosmium/2.20.0">
  <way id="43795142" version="2" timestamp="2010-03-22T07:34:51Z" uid="20587" user="balrog-kun" changeset="4199043">
    <nd ref="428646880"/>
    <nd ref="39500201"/>
    <tag k="bridge" v="yes"/>
    <tag k="highway" v="secondary"/>
    <tag k="layer" v="1"/>
    <tag k="name" v="Williams Highway"/>
    <tag k="name_1" v="State Highway 238"/>
    <tag k="tiger:cfcc" v="A31"/>
    <tag k="tiger:county" v="Josephine, OR"/>
    <tag k="tiger:name_base" v="Williams"/>
    <tag k="tiger:name_base_1" v="State Highway 238"/>
    <tag k="tiger:name_type" v="Hwy"/>
    <tag k="tiger:reviewed" v="no"/>
    <tag k="tiger:separated" v="no"/>
    <tag k="tiger:source" v="tiger_import_dch_v0.6_20070808"/>
    <tag k="tiger:tlid" v="156593308:156593309:156573116"/>
  </way>
  <way id="43795142" version="3" timestamp="2010-12-11T06:20:45Z" uid="373763" user="ylekot" changeset="6619423">
    <nd ref="428646880"/>
    <nd ref="39500201"/>
    <tag k="bridge" v="yes"/>
    <tag k="highway" v="secondary"/>
    <tag k="layer" v="1"/>
    <tag k="name" v="Williams Highway"/>
    <tag k="name_1" v="State Highway 238"/>
    <tag k="ref" v="OR 238"/>
    <tag k="tiger:cfcc" v="A31"/>
    <tag k="tiger:county" v="Josephine, OR"/>
    <tag k="tiger:name_base" v="Williams"/>
    <tag k="tiger:name_base_1" v="State Highway 238"/>
    <tag k="tiger:name_type" v="Hwy"/>
    <tag k="tiger:reviewed" v="no"/>
    <tag k="tiger:separated" v="no"/>
    <tag k="tiger:source" v="tiger_import_dch_v0.6_20070808"/>
    <tag k="tiger:tlid" v="156593308:156593309:156573116"/>
  </way>
  <way id="43795142" version="4" timestamp="2011-01-03T00:26:58Z" uid="373763" user="ylekot" changeset="6845365">
    <nd ref="428646880"/>
    <nd ref="39500201"/>
    <tag k="alt_name" v="Jacksonville Highway #272"/>
    <tag k="bridge" v="yes"/>
    <tag k="highway" v="secondary"/>
    <tag k="layer" v="1"/>
    <tag k="name" v="Williams Highway"/>
    <tag k="name_1" v="State Highway 238"/>
    <tag k="ref" v="OR 238"/>
    <tag k="tiger:cfcc" v="A31"/>
    <tag k="tiger:county" v="Josephine, OR"/>
    <tag k="tiger:name_base" v="Williams"/>
    <tag k="tiger:name_base_1" v="State Highway 238"/>
    <tag k="tiger:name_type" v="Hwy"/>
    <tag k="tiger:reviewed" v="no"/>
    <tag k="tiger:separated" v="no"/>
    <tag k="tiger:source" v="tiger_import_dch_v0.6_20070808"/>
    <tag k="tiger:tlid" v="156593308:156593309:156573116"/>
  </way>
  <way id="43795144" version="2" timestamp="2010-03-22T07:34:51Z" uid="20587" user="balrog-kun" changeset="4199043">
    <nd ref="39500201"/>
    <nd ref="555050065"/>
    <nd ref="39599221"/>
    <tag k="highway" v="secondary"/>
    <tag k="name" v="Williams Highway"/>
    <tag k="name_1" v="State Highway 238"/>
    <tag k="tiger:cfcc" v="A31"/>
    <tag k="tiger:county" v="Josephine, OR"/>
    <tag k="tiger:name_base" v="Williams"/>
    <tag k="tiger:name_base_1" v="State Highway 238"/>
    <tag k="tiger:name_type" v="Hwy"/>
    <tag k="tiger:reviewed" v="no"/>
    <tag k="tiger:separated" v="no"/>
    <tag k="tiger:source" v="tiger_import_dch_v0.6_20070808"/>
    <tag k="tiger:tlid" v="156593308:156593309:156573116"/>
  </way>
  <way id="43795144" version="3" timestamp="2010-12-11T06:20:45Z" uid="373763" user="ylekot" changeset="6619423">
    <nd ref="39500201"/>
    <nd ref="555050065"/>
    <nd ref="39599221"/>
    <tag k="highway" v="secondary"/>
    <tag k="name" v="Williams Highway"/>
    <tag k="name_1" v="State Highway 238"/>
    <tag k="ref" v="OR 238"/>
    <tag k="tiger:cfcc" v="A31"/>
    <tag k="tiger:county" v="Josephine, OR"/>
    <tag k="tiger:name_base" v="Williams"/>
    <tag k="tiger:name_base_1" v="State Highway 238"/>
    <tag k="tiger:name_type" v="Hwy"/>
    <tag k="tiger:reviewed" v="no"/>
    <tag k="tiger:separated" v="no"/>
    <tag k="tiger:source" v="tiger_import_dch_v0.6_20070808"/>
    <tag k="tiger:tlid" v="156593308:156593309:156573116"/>
  </way>
  <way id="43795144" version="4" timestamp="2011-04-26T04:35:36Z" uid="97431" user="Dion Dock" changeset="7970756">
    <nd ref="39500201"/>
    <nd ref="555050065"/>
    <nd ref="1079938896"/>
    <nd ref="39599221"/>
    <tag k="highway" v="secondary"/>
    <tag k="name" v="Williams Highway"/>
    <tag k="name_1" v="State Highway 238"/>
    <tag k="ref" v="OR 238"/>
    <tag k="tiger:cfcc" v="A31"/>
    <tag k="tiger:county" v="Josephine, OR"/>
    <tag k="tiger:name_base" v="Williams"/>
    <tag k="tiger:name_base_1" v="State Highway 238"/>
    <tag k="tiger:name_type" v="Hwy"/>
    <tag k="tiger:reviewed" v="no"/>
    <tag k="tiger:separated" v="no"/>
    <tag k="tiger:source" v="tiger_import_dch_v0.6_20070808"/>
    <tag k="tiger:tlid" v="156593308:156593309:156573116"/>
  </way>
  <way id="43795181" version="2" timestamp="2010-04-02T17:52:50Z" uid="20587" user="balrog-kun" changeset="4304500">
    <nd ref="50644132"/>
    <nd ref="50649004"/>
    <nd ref="288578136"/>
    <nd ref="288578131"/>
    <tag k="highway" v="secondary"/>
    <tag k="name" v="State Highway 9  Southeast"/>
    <tag k="ref" v="WA 9"/>
    <tag k="tiger:cfcc" v="A31"/>
    <tag k="tiger:county" v="Snohomish, WA"/>
    <tag k="tiger:name_base" v="State Highway 9"/>
    <tag k="tiger:name_direction_suffix" v="SE"/>
    <tag k="tiger:reviewed" v="no"/>
    <tag k="tiger:separated" v="no"/>
    <tag k="tiger:source" v="tiger_import_dch_v0.6_20070830"/>
    <tag k="tiger:tlid" v="187749522:187772107:187749590:187786426:187750087:187820175:187750093:187750095:187823806:187823807:187823892:187750251:187750097:187801467:187801468:187823785:187823786:187810885:187824344:187824345:187749593:187763671:187763682:187763684:187758307:18776"/>
  </way>
  <way id="43795181" version="3" timestamp="2010-04-11T17:44:04Z" uid="7247" user="goldfndr" changeset="4396641">
    <nd ref="50644132"/>
    <nd ref="50649004"/>
    <nd ref="288578136"/>
    <tag k="highway" v="secondary"/>
    <tag k="name" v="State Highway 9  Southeast"/>
    <tag k="ref" v="WA 9"/>
    <tag k="tiger:cfcc" v="A31"/>
    <tag k="tiger:county" v="Snohomish, WA"/>
    <tag k="tiger:name_base" v="State Highway 9"/>
    <tag k="tiger:name_direction_suffix" v="SE"/>
    <tag k="tiger:reviewed" v="no"/>
    <tag k="tiger:separated" v="no"/>
    <tag k="tiger:source" v="tiger_import_dch_v0.6_20070830"/>
    <tag k="tiger:tlid" v="187749522:187772107:187749590:187786426:187750087:187820175:187750093:187750095:187823806:187823807:187823892:187750251:187750097:187801467:187801468:187823785:187823786:187810885:187824344:187824345:187749593:187763671:187763682:187763684:187758307:18776"/>
  </way>
  <way id="43795181" version="4" timestamp="2010-06-19T19:41:08Z" uid="282329" user="compdude" changeset="5027220">
    <nd ref="50644132"/>
    <nd ref="50649004"/>
    <nd ref="288578136"/>
    <tag k="highway" v="primary"/>
    <tag k="name" v="State Highway 9  Southeast"/>
    <tag k="ref" v="WA 9"/>
    <tag k="tiger:cfcc" v="A31"/>
    <tag k="tiger:county" v="Snohomish, WA"/>
    <tag k="tiger:name_base" v="State Highway 9"/>
    <tag k="tiger:name_direction_suffix" v="SE"/>
    <tag k="tiger:reviewed" v="no"/>
    <tag k="tiger:separated" v="no"/>
    <tag k="tiger:source" v="tiger_import_dch_v0.6_20070830"/>
    <tag k="tiger:tlid" v="187749522:187772107:187749590:187786426:187750087:187820175:187750093:187750095:187823806:187823807:187823892:187750251:187750097:187801467:187801468:187823785:187823786:187810885:187824344:187824345:187749593:187763671:187763682:187763684:187758307:18776"/>
  </way>
  <way id="43795183" version="2" timestamp="2010-04-02T17:52:51Z" uid="20587" user="balrog-kun" changeset="4304500">
    <nd ref="555052202"/>
    <nd ref="50644132"/>
    <tag k="bridge" v="yes"/>
    <tag k="highway" v="secondary"/>
    <tag k="layer" v="1"/>
    <tag k="name" v="State Highway 9  Southeast"/>
    <tag k="ref" v="WA 9"/>
    <tag k="tiger:cfcc" v="A31"/>
    <tag k="tiger:county" v="Snohomish, WA"/>
    <tag k="tiger:name_base" v="State Highway 9"/>
    <tag k="tiger:name_direction_suffix" v="SE"/>
    <tag k="tiger:reviewed" v="no"/>
    <tag k="tiger:separated" v="no"/>
    <tag k="tiger:source" v="tiger_import_dch_v0.6_20070830"/>
    <tag k="tiger:tlid" v="187749522:187772107:187749590:187786426:187750087:187820175:187750093:187750095:187823806:187823807:187823892:187750251:187750097:187801467:187801468:187823785:187823786:187810885:187824344:187824345:187749593:187763671:187763682:187763684:187758307:18776"/>
  </way>
  <way id="43795183" version="3" timestamp="2010-06-19T19:41:13Z" uid="282329" user="compdude" changeset="5027220">
    <nd ref="555052202"/>
    <nd ref="50644132"/>
    <tag k="bridge" v="yes"/>
    <tag k="highway" v="primary"/>
    <tag k="layer" v="1"/>
    <tag k="name" v="State Highway 9  Southeast"/>
    <tag k="ref" v="WA 9"/>
    <tag k="tiger:cfcc" v="A31"/>
    <tag k="tiger:county" v="Snohomish, WA"/>
    <tag k="tiger:name_base" v="State Highway 9"/>
    <tag k="tiger:name_direction_suffix" v="SE"/>
    <tag k="tiger:reviewed" v="no"/>
    <tag k="tiger:separated" v="no"/>
    <tag k="tiger:source" v="tiger_import_dch_v0.6_20070830"/>
    <tag k="tiger:tlid" v="187749522:187772107:187749590:187786426:187750087:187820175:187750093:187750095:187823806:187823807:187823892:187750251:187750097:187801467:187801468:187823785:187823786:187810885:187824344:187824345:187749593:187763671:187763682:187763684:187758307:18776"/>
  </way>
  <way id="43795183" version="4" timestamp="2011-05-12T01:01:14Z" uid="439489" user="gt5" changeset="8117809">
    <nd ref="555052202"/>
    <nd ref="1280868070"/>
    <nd ref="50644132"/>
    <tag k="bridge" v="yes"/>
    <tag k="highway" v="primary"/>
    <tag k="layer" v="1"/>
    <tag k="name" v="State Highway 9  Southeast"/>
    <tag k="ref" v="WA 9"/>
    <tag k="tiger:cfcc" v="A31"/>
    <tag k="tiger:county" v="Snohomish, WA"/>
    <tag k="tiger:name_base" v="State Highway 9"/>
    <tag k="tiger:name_direction_suffix" v="SE"/>
    <tag k="tiger:reviewed" v="no"/>
    <tag k="tiger:separated" v="no"/>
    <tag k="tiger:source" v="tiger_import_dch_v0.6_20070830"/>
    <tag k="tiger:tlid" v="187749522:187772107:187749590:187786426:187750087:187820175:187750093:187750095:187823806:187823807:187823892:187750251:187750097:187801467:187801468:187823785:187823786:187810885:187824344:187824345:187749593:187763671:187763682:187763684:187758307:18776"/>
  </way>
  <way id="43795246" version="2" timestamp="2010-12-26T22:32:52Z" uid="6269" user="Mueck" changeset="6773102">
    <nd ref="516487351"/>
    <nd ref="555057204"/>
    <nd ref="96925585"/>
    <tag k="bicycle" v="yes"/>
    <tag k="highway" v="footway"/>
  </way>
  <way id="43795246" version="3" timestamp="2012-03-18T21:52:14Z" uid="45882" user="smarties" changeset="11024557"/>
  <way id="43795247" version="4" timestamp="2010-12-12T14:24:54Z" uid="6269" user="Mueck" changeset="6635804">
    <nd ref="1035705884"/>
    <nd ref="555057208"/>
    <nd ref="555057211"/>
    <nd ref="555057213"/>
    <nd ref="636915167"/>
    <nd ref="706773012"/>
    <nd ref="555057192"/>
    <nd ref="555057196"/>
    <tag k="highway" v="footway"/>
  </way>
  <way id="43795247" version="5" timestamp="2010-12-12T15:10:48Z" uid="6269" user="Mueck" changeset="6635804"/>
  <way id="43795699" version="5" timestamp="2010-03-07T10:52:43Z" uid="58091" user="Andreas M" changeset="4059516">
    <nd ref="92399959"/>
    <nd ref="637487896"/>
    <nd ref="92399958"/>
    <nd ref="139468951"/>
    <nd ref="247531650"/>
    <nd ref="92399956"/>
    <nd ref="339147041"/>
    <nd ref="247531693"/>
    <nd ref="339147039"/>
    <tag k="highway" v="secondary"/>
    <tag k="is_in:city" v="Markgrafneusiedl"/>
    <tag k="is_in:country_code" v="AT"/>
    <tag k="name" v="Wagramer Straße"/>
    <tag k="postal_code" v="2282"/>
    <tag k="ref" v="L 6"/>
  </way>
  <way id="43795699" version="6" timestamp="2010-04-20T20:51:26Z" uid="86147" user="wolfi1220" changeset="4481682">
    <nd ref="92399959"/>
    <nd ref="637487896"/>
    <nd ref="92399958"/>
    <nd ref="139468951"/>
    <nd ref="247531650"/>
    <nd ref="92399956"/>
    <nd ref="339147041"/>
    <nd ref="247531693"/>
    <nd ref="339147039"/>
    <tag k="highway" v="secondary"/>
    <tag k="is_in:city" v="Markgrafneusiedl"/>
    <tag k="is_in:country_code" v="AT"/>
    <tag k="name" v="Wagramer Straße"/>
    <tag k="postal_code" v="2282"/>
    <tag k="ref" v="L6"/>
  </way>
  <way id="43795699" version="7" timestamp="2010-09-05T18:36:59Z" uid="12295" user="mapper_07" changeset="5690997">
    <nd ref="92399959"/>
    <nd ref="637487896"/>
    <nd ref="92399958"/>
    <nd ref="139468951"/>
    <nd ref="247531650"/>
    <nd ref="92399956"/>
    <nd ref="339147041"/>
    <nd ref="247531693"/>
    <nd ref="339147039"/>
    <tag k="highway" v="secondary"/>
    <tag k="is_in:city" v="Markgrafneusiedl"/>
    <tag k="is_in:country_code" v="AT"/>
    <tag k="maxspeed" v="50"/>
    <tag k="name" v="Wagramer Straße"/>
    <tag k="postal_code" v="2282"/>
    <tag k="ref" v="L6"/>
  </way>
  <way id="43795699" version="8" timestamp="2012-01-14T11:30:23Z" uid="74896" user="tevake" changeset="10385955">
    <nd ref="92399959"/>
    <nd ref="637487896"/>
    <nd ref="92399958"/>
    <nd ref="139468951"/>
    <nd ref="247531650"/>
    <nd ref="92399956"/>
    <nd ref="339147041"/>
    <nd ref="247531693"/>
    <tag k="highway" v="secondary"/>
    <tag k="is_in:city" v="Markgrafneusiedl"/>
    <tag k="is_in:country_code" v="AT"/>
    <tag k="maxspeed" v="50"/>
    <tag k="name" v="Wagramer Straße"/>
    <tag k="postal_code" v="2282"/>
    <tag k="ref" v="L6"/>
  </way>
  <way id="43795699" version="9" timestamp="2012-02-22T18:23:22Z" uid="602358" user="urbanexplorer-at" changeset="10761643">
    <nd ref="92399959"/>
    <nd ref="92399958"/>
    <nd ref="139468951"/>
    <nd ref="247531650"/>
    <nd ref="92399956"/>
    <nd ref="339147041"/>
    <nd ref="247531693"/>
    <tag k="highway" v="secondary"/>
    <tag k="is_in:city" v="Markgrafneusiedl"/>
    <tag k="is_in:country_code" v="AT"/>
    <tag k="maxspeed" v="50"/>
    <tag k="name" v="Wagramer Straße"/>
    <tag k="postal_code" v="2282"/>
    <tag k="ref" v="L6"/>
  </way>
  <way id="43795700" version="1" timestamp="2009-11-04T21:30:13Z" uid="137033" user="lubomir" changeset="3036514">
    <nd ref="353275059"/>
    <nd ref="353275057"/>
    <nd ref="353275055"/>
    <nd ref="353275054"/>
    <nd ref="353275052"/>
    <nd ref="353275051"/>
    <nd ref="353275047"/>
    <tag k="highway" v="track"/>
  </way>
  <way id="43795700" version="2" timestamp="2010-04-19T01:35:17Z" uid="137033" user="lubomir" changeset="4464355">
    <nd ref="353275059"/>
    <nd ref="353275057"/>
    <nd ref="353275055"/>
    <nd ref="353275054"/>
    <nd ref="353275052"/>
    <nd ref="353275051"/>
    <nd ref="353275047"/>
    <nd ref="701657594"/>
    <nd ref="701657595"/>
    <nd ref="701657592"/>
    <nd ref="701657593"/>
    <tag k="highway" v="track"/>
  </way>
  <way id="43795700" version="3" timestamp="2011-05-05T18:05:01Z" uid="137033" user="lubomir" changeset="8059416">
    <nd ref="353275059"/>
    <nd ref="353275057"/>
    <nd ref="353275055"/>
    <nd ref="353275054"/>
    <nd ref="1273341199"/>
    <nd ref="353275052"/>
    <nd ref="353275051"/>
    <nd ref="353275047"/>
    <nd ref="701657594"/>
    <nd ref="701657595"/>
    <nd ref="701657592"/>
    <nd ref="701657593"/>
    <tag k="highway" v="track"/>
  </way>
  <way id="43795701" version="1" timestamp="2009-11-04T21:30:13Z" uid="137033" user="lubomir" changeset="3036514">
    <nd ref="353275041"/>
    <nd ref="353275087"/>
    <nd ref="353275031"/>
    <tag k="highway" v="residential"/>
    <tag k="is_in" v="Šaľa"/>
  </way>
  <way id="43795701" version="2" timestamp="2010-03-06T12:09:26Z" uid="137033" user="lubomir" changeset="4049387">
    <nd ref="353275041"/>
    <nd ref="353275087"/>
    <nd ref="353275031"/>
    <tag k="highway" v="residential"/>
    <tag k="is_in" v="Šaľa"/>
    <tag k="name" v="Pažitná"/>
  </way>
  <way id="43795703" version="1" timestamp="2009-11-04T21:30:13Z" uid="137033" user="lubomir" changeset="3036514">
    <nd ref="555066084"/>
    <nd ref="555066086"/>
    <nd ref="555066059"/>
    <nd ref="555066062"/>
    <nd ref="555066064"/>
    <nd ref="555066065"/>
    <nd ref="555066067"/>
    <nd ref="555066069"/>
    <nd ref="555066084"/>
    <tag k="landuse" v="allotments"/>
  </way>
  <way id="43795704" version="1" timestamp="2009-11-04T21:30:13Z" uid="137033" user="lubomir" changeset="3036514">
    <nd ref="555066131"/>
    <nd ref="555066133"/>
    <nd ref="555066087"/>
    <nd ref="555066090"/>
    <nd ref="555066131"/>
    <tag k="building" v="yes"/>
  </way>
  <way id="43795705" version="1" timestamp="2009-11-04T21:30:14Z" uid="137033" user="lubomir" changeset="3036514">
    <nd ref="555066091"/>
    <nd ref="555066093"/>
    <nd ref="555066073"/>
    <nd ref="555066071"/>
    <nd ref="555066091"/>
    <tag k="building" v="yes"/>
  </way>
  <way id="43795706" version="1" timestamp="2009-11-04T21:30:14Z" uid="137033" user="lubomir" changeset="3036514">
    <nd ref="555066097"/>
    <nd ref="555066130"/>
    <nd ref="555066128"/>
    <nd ref="555066098"/>
    <nd ref="555066097"/>
    <tag k="building" v="yes"/>
  </way>
  <way id="43795707" version="1" timestamp="2009-11-04T21:30:14Z" uid="137033" user="lubomir" changeset="3036514">
    <nd ref="555066116"/>
    <nd ref="555066118"/>
    <nd ref="555066120"/>
    <nd ref="555066094"/>
    <nd ref="555066116"/>
    <tag k="building" v="yes"/>
  </way>
  <way id="43795708" version="1" timestamp="2009-11-04T21:30:14Z" uid="137033" user="lubomir" changeset="3036514">
    <nd ref="555066105"/>
    <nd ref="555066101"/>
    <nd ref="555066100"/>
    <nd ref="555066104"/>
    <nd ref="555066105"/>
    <tag k="building" v="yes"/>
  </way>
  <way id="43795709" version="1" timestamp="2009-11-04T21:30:14Z" uid="137033" user="lubomir" changeset="3036514">
    <nd ref="555066122"/>
    <nd ref="555066124"/>
    <nd ref="555066126"/>
    <nd ref="555066127"/>
    <nd ref="555066122"/>
    <tag k="building" v="yes"/>
  </way>
  <way id="43795710" version="1" timestamp="2009-11-04T21:30:15Z" uid="137033" user="lubomir" changeset="3036514">
    <nd ref="555066108"/>
    <nd ref="555066111"/>
    <nd ref="555066112"/>
    <nd ref="555066096"/>
    <nd ref="555066108"/>
    <tag k="building" v="yes"/>
  </way>
  <way id="43795711" version="1" timestamp="2009-11-04T21:30:15Z" uid="137033" user="lubomir" changeset="3036514">
    <nd ref="555066113"/>
    <nd ref="555066115"/>
    <nd ref="555066075"/>
    <nd ref="555066076"/>
    <nd ref="555066113"/>
    <tag k="building" v="yes"/>
  </way>
  <way id="43795712" version="1" timestamp="2009-11-04T21:30:15Z" uid="137033" user="lubomir" changeset="3036514">
    <nd ref="555066077"/>
    <nd ref="555066080"/>
    <nd ref="555066081"/>
    <nd ref="555066083"/>
    <nd ref="555066077"/>
    <tag k="building" v="yes"/>
  </way>
  <way id="43795142" version="5" timestamp="2012-07-18T19:59:49Z" uid="722137" user="OSMF Redaction Account" changeset="12296075"/>
  <way id="43795144" version="5" timestamp="2012-07-18T19:59:49Z" uid="722137" user="OSMF Redaction Account" changeset="12296075"/>
  <way id="43795699" version="10" timestamp="2012-07-16T21:46:01Z" uid="722137" user="OSMF Redaction Account" changeset="12252306">
    <nd ref="92399959"/>
    <nd ref="92399958"/>
    <nd ref="139468951"/>
    <nd ref="247531650"/>
    <nd ref="92399956"/>
    <nd ref="339147041"/>
    <nd ref="247531693"/>
    <tag k="addr:city" v="Markgrafneusiedl"/>
    <tag k="addr:country" v="AT"/>
    <tag k="addr:postcode" v="2282"/>
    <tag k="addr:street" v="Wagramer Straße"/>
    <tag k="highway" v="secondary"/>
    <tag k="maxspeed" v="50"/>
    <tag k="ref" v="L6"/>
  </way>
  <way id="43795699" version="11" timestamp="2012-07-24T22:36:55Z" uid="302363" user="fkv" changeset="12477961">
    <nd ref="92399959"/>
    <nd ref="92399958"/>
    <nd ref="139468951"/>
    <nd ref="247531650"/>
    <nd ref="92399956"/>
    <nd ref="339147041"/>
    <nd ref="247531693"/>
    <tag k="addr:city" v="Markgrafneusiedl"/>
    <tag k="addr:country" v="AT"/>
    <tag k="addr:postcode" v="2282"/>
    <tag k="addr:street" v="Wagramer Straße"/>
    <tag k="highway" v="secondary"/>
    <tag k="maxspeed" v="50"/>
    <tag k="ref" v="L6"/>
    <tag k="source:maxpeed" v="AT:urban"/>
  </way>
  <way id="43795699" version="12" timestamp="2012-08-01T13:48:36Z" uid="602358" user="urbanexplorer-at" changeset="12574683">
    <nd ref="92399959"/>
    <nd ref="92399958"/>
    <nd ref="139468951"/>
    <nd ref="247531650"/>
    <nd ref="92399956"/>
    <nd ref="339147041"/>
    <nd ref="247531693"/>
    <tag k="addr:city" v="Markgrafneusiedl"/>
    <tag k="addr:country" v="AT"/>
    <tag k="addr:postcode" v="2282"/>
    <tag k="addr:street" v="Wagramer Straße"/>
    <tag k="highway" v="secondary"/>
    <tag k="maxspeed" v="50"/>
    <tag k="name" v="Wagramer Straße"/>
    <tag k="ref" v="L6"/>
    <tag k="source:maxpeed" v="AT:urban"/>
  </way>
  <way id="43795699" version="13" timestamp="2012-08-17T19:07:32Z" uid="302363" user="fkv" changeset="12765949">
    <nd ref="92399959"/>
    <nd ref="92399958"/>
    <nd ref="139468951"/>
    <nd ref="247531650"/>
    <nd ref="92399956"/>
    <nd ref="339147041"/>
    <nd ref="247531693"/>
    <tag k="addr:city" v="Markgrafneusiedl"/>
    <tag k="addr:country" v="AT"/>
    <tag k="addr:postcode" v="2282"/>
    <tag k="addr:street" v="Wagramer Straße"/>
    <tag k="highway" v="secondary"/>
    <tag k="maxspeed" v="50"/>
    <tag k="name" v="Wagramer Straße"/>
    <tag k="ref" v="L6"/>
    <tag k="source:maxspeed" v="AT:urban"/>
  </way>
  <way id="43795700" version="4" timestamp="2012-07-17T03:38:38Z" uid="722137" user="OSMF Redaction Account" changeset="12256253"/>
  <way id="43795701" version="3" timestamp="2012-07-17T03:38:41Z" uid="722137" user="OSMF Redaction Account" changeset="12256253"/>
  <way id="43795703" version="2" timestamp="2012-07-17T03:38:38Z" uid="722137" user="OSMF Redaction Account" changeset="12256253"/>
  <way id="43795704" version="2" timestamp="2012-07-17T03:38:38Z" uid="722137" user="OSMF Redaction Account" changeset="12256253"/>
  <way id="43795705" version="2" timestamp="2012-07-17T03:38:38Z" uid="722137" user="OSMF Redaction Account" changeset="12256253"/>
  <way id="43795706" version="2" timestamp="2012-07-17T03:38:39Z" uid="722137" user="OSMF Redaction Account" changeset="12256253"/>
  <way id="43795707" version="2" timestamp="2012-07-17T03:38:39Z" uid="722137" user="OSMF Redaction Account" changeset="12256253"/>
  <way id="43795708" version="2" timestamp="2012-07-17T03:38:39Z" uid="722137" user="OSMF Redaction Account" changeset="12256253"/>
  <way id="43795709" version="2" timestamp="2012-07-17T03:38:40Z" uid="722137" user="OSMF Redaction Account" changeset="12256253"/>
  <way id="43795710" version="2" timestamp="2012-07-17T03:38:39Z" uid="722137" user="OSMF Redaction Account" changeset="12256253"/>
  <way id="43795711" version="2" timestamp="2012-07-17T03:38:39Z" uid="722137" user="OSMF Redaction Account" changeset="12256253"/>
  <way id="43795712" version="2" timestamp="2012-07-17T03:38:39Z" uid="722137" user="OSMF Redaction Account" changeset="12256253"/>
</osm>
