<?xml version='1.0' encoding='UTF-8'?>
<osm version="0.6" generator="libosmium/2.20.0">
  <way id="43877425" version="2" timestamp="2010-07-08T09:41:25Z" uid="74617" user="JohnSmith" changeset="5164427">
    <nd ref="316869989"/>
    <nd ref="557393658"/>
    <nd ref="557393675"/>
    <nd ref="557393686"/>
    <nd ref="557393698"/>
    <nd ref="557393709"/>
    <nd ref="557393739"/>
    <nd ref="316869796"/>
    <tag k="highway" v="residential"/>
    <tag k="maxspeed" v="50"/>
    <tag k="maxspeed:source" v="default residential speed limit in Australia"/>
    <tag k="name" v="Britomart Street"/>
  </way>
  <way id="43877425" version="3" timestamp="2012-01-19T08:07:43Z" uid="147510" user="woodpeck_fixbot" changeset="10434386">
    <nd ref="316869989"/>
    <nd ref="557393658"/>
    <nd ref="557393675"/>
    <nd ref="557393686"/>
    <nd ref="557393698"/>
    <nd ref="557393709"/>
    <nd ref="557393739"/>
    <nd ref="316869796"/>
    <tag k="highway" v="residential"/>
    <tag k="name" v="Britomart Street"/>
  </way>
  <way id="43877426" version="2" timestamp="2010-07-08T09:45:34Z" uid="74617" user="JohnSmith" changeset="5164427">
    <nd ref="557393789"/>
    <nd ref="557393797"/>
    <nd ref="557393814"/>
    <nd ref="557393827"/>
    <tag k="highway" v="residential"/>
    <tag k="maxspeed" v="50"/>
    <tag k="maxspeed:source" v="default residential speed limit in Australia"/>
    <tag k="name" v="Baxendell Place"/>
  </way>
  <way id="43877426" version="3" timestamp="2012-01-19T08:07:44Z" uid="147510" user="woodpeck_fixbot" changeset="10434386">
    <nd ref="557393789"/>
    <nd ref="557393797"/>
    <nd ref="557393814"/>
    <nd ref="557393827"/>
    <tag k="highway" v="residential"/>
    <tag k="name" v="Baxendell Place"/>
  </way>
  <way id="43877427" version="2" timestamp="2010-07-08T09:42:17Z" uid="74617" user="JohnSmith" changeset="5164427">
    <nd ref="557393875"/>
    <nd ref="557393797"/>
    <nd ref="557393893"/>
    <tag k="highway" v="residential"/>
    <tag k="maxspeed" v="50"/>
    <tag k="maxspeed:source" v="default residential speed limit in Australia"/>
  </way>
  <way id="43877427" version="3" timestamp="2012-01-19T08:07:45Z" uid="147510" user="woodpeck_fixbot" changeset="10434386">
    <nd ref="557393875"/>
    <nd ref="557393797"/>
    <nd ref="557393893"/>
    <tag k="highway" v="residential"/>
  </way>
  <way id="43877428" version="2" timestamp="2010-07-08T09:43:00Z" uid="74617" user="JohnSmith" changeset="5164427">
    <nd ref="557393958"/>
    <nd ref="557393875"/>
    <nd ref="557393974"/>
    <nd ref="557393986"/>
    <nd ref="557394001"/>
    <nd ref="557394002"/>
    <tag k="highway" v="residential"/>
    <tag k="maxspeed" v="50"/>
    <tag k="maxspeed:source" v="default residential speed limit in Australia"/>
    <tag k="name" v="Minstrel Court"/>
  </way>
  <way id="43877428" version="3" timestamp="2012-01-19T08:07:46Z" uid="147510" user="woodpeck_fixbot" changeset="10434386">
    <nd ref="557393958"/>
    <nd ref="557393875"/>
    <nd ref="557393974"/>
    <nd ref="557393986"/>
    <nd ref="557394001"/>
    <nd ref="557394002"/>
    <tag k="highway" v="residential"/>
    <tag k="name" v="Minstrel Court"/>
  </way>
  <way id="43877432" version="2" timestamp="2010-07-08T09:41:14Z" uid="74617" user="JohnSmith" changeset="5164427">
    <nd ref="557393893"/>
    <nd ref="557394005"/>
    <tag k="highway" v="residential"/>
    <tag k="maxspeed" v="50"/>
    <tag k="maxspeed:source" v="default residential speed limit in Australia"/>
    <tag k="name" v="Genesta Court"/>
  </way>
  <way id="43877432" version="3" timestamp="2012-01-19T08:07:47Z" uid="147510" user="woodpeck_fixbot" changeset="10434386">
    <nd ref="557393893"/>
    <nd ref="557394005"/>
    <tag k="highway" v="residential"/>
    <tag k="name" v="Genesta Court"/>
  </way>
  <way id="43877477" version="2" timestamp="2010-07-08T09:44:47Z" uid="74617" user="JohnSmith" changeset="5164427">
    <nd ref="557401566"/>
    <nd ref="557401579"/>
    <nd ref="557401594"/>
    <tag k="highway" v="residential"/>
    <tag k="maxspeed" v="50"/>
    <tag k="maxspeed:source" v="default residential speed limit in Australia"/>
    <tag k="name" v="Keswick Street"/>
  </way>
  <way id="43877477" version="3" timestamp="2012-01-19T08:07:49Z" uid="147510" user="woodpeck_fixbot" changeset="10434386">
    <nd ref="557401566"/>
    <nd ref="557401579"/>
    <nd ref="557401594"/>
    <tag k="highway" v="residential"/>
    <tag k="name" v="Keswick Street"/>
  </way>
  <way id="43877479" version="2" timestamp="2010-07-08T09:45:30Z" uid="74617" user="JohnSmith" changeset="5164427">
    <nd ref="557401632"/>
    <nd ref="557401646"/>
    <nd ref="557401670"/>
    <nd ref="557401682"/>
    <nd ref="557401697"/>
    <tag k="highway" v="residential"/>
    <tag k="maxspeed" v="50"/>
    <tag k="maxspeed:source" v="default residential speed limit in Australia"/>
    <tag k="name" v="Hempel Street"/>
  </way>
  <way id="43877479" version="3" timestamp="2012-01-19T08:07:51Z" uid="147510" user="woodpeck_fixbot" changeset="10434386">
    <nd ref="557401632"/>
    <nd ref="557401646"/>
    <nd ref="557401670"/>
    <nd ref="557401682"/>
    <nd ref="557401697"/>
    <tag k="highway" v="residential"/>
    <tag k="name" v="Hempel Street"/>
  </way>
  <way id="43877481" version="2" timestamp="2010-07-08T09:42:55Z" uid="74617" user="JohnSmith" changeset="5164427">
    <nd ref="557401767"/>
    <nd ref="557401780"/>
    <nd ref="557401792"/>
    <nd ref="557401682"/>
    <tag k="highway" v="residential"/>
    <tag k="maxspeed" v="50"/>
    <tag k="maxspeed:source" v="default residential speed limit in Australia"/>
  </way>
  <way id="43877481" version="3" timestamp="2012-01-19T08:07:52Z" uid="147510" user="woodpeck_fixbot" changeset="10434386">
    <nd ref="557401767"/>
    <nd ref="557401780"/>
    <nd ref="557401792"/>
    <nd ref="557401682"/>
    <tag k="highway" v="residential"/>
  </way>
  <way id="43877482" version="2" timestamp="2010-07-08T09:41:21Z" uid="74617" user="JohnSmith" changeset="5164427">
    <nd ref="316870288"/>
    <nd ref="316870289"/>
    <nd ref="316870290"/>
    <nd ref="316870167"/>
    <tag k="highway" v="residential"/>
    <tag k="maxspeed" v="50"/>
    <tag k="maxspeed:source" v="default residential speed limit in Australia"/>
  </way>
  <way id="43877482" version="3" timestamp="2012-01-19T08:07:53Z" uid="147510" user="woodpeck_fixbot" changeset="10434386">
    <nd ref="316870288"/>
    <nd ref="316870289"/>
    <nd ref="316870290"/>
    <nd ref="316870167"/>
    <tag k="highway" v="residential"/>
  </way>
  <way id="43877484" version="3" timestamp="2010-07-08T09:44:36Z" uid="74617" user="JohnSmith" changeset="5164427">
    <nd ref="557401856"/>
    <nd ref="557401862"/>
    <nd ref="557401870"/>
    <nd ref="557401880"/>
    <nd ref="557401893"/>
    <nd ref="557401906"/>
    <nd ref="557401948"/>
    <tag k="highway" v="residential"/>
    <tag k="maxspeed" v="50"/>
    <tag k="maxspeed:source" v="default residential speed limit in Australia"/>
    <tag k="name" v="Shoalmarra Drive"/>
  </way>
  <way id="43877484" version="4" timestamp="2012-01-19T08:07:54Z" uid="147510" user="woodpeck_fixbot" changeset="10434386">
    <nd ref="557401856"/>
    <nd ref="557401862"/>
    <nd ref="557401870"/>
    <nd ref="557401880"/>
    <nd ref="557401893"/>
    <nd ref="557401906"/>
    <nd ref="557401948"/>
    <tag k="highway" v="residential"/>
    <tag k="name" v="Shoalmarra Drive"/>
  </way>
  <way id="43877485" version="2" timestamp="2010-07-08T09:41:12Z" uid="74617" user="JohnSmith" changeset="5164427">
    <nd ref="555937864"/>
    <nd ref="557402098"/>
    <tag k="highway" v="residential"/>
    <tag k="maxspeed" v="50"/>
    <tag k="maxspeed:source" v="default residential speed limit in Australia"/>
  </way>
  <way id="43877485" version="3" timestamp="2012-01-19T08:07:56Z" uid="147510" user="woodpeck_fixbot" changeset="10434386">
    <nd ref="555937864"/>
    <nd ref="557402098"/>
    <tag k="highway" v="residential"/>
  </way>
  <way id="43877486" version="2" timestamp="2010-07-08T09:45:21Z" uid="74617" user="JohnSmith" changeset="5164427">
    <nd ref="557402119"/>
    <nd ref="557402130"/>
    <nd ref="557402140"/>
    <nd ref="557401697"/>
    <nd ref="557402152"/>
    <nd ref="557402164"/>
    <nd ref="557401594"/>
    <nd ref="557402179"/>
    <nd ref="557402191"/>
    <nd ref="557402196"/>
    <nd ref="557402210"/>
    <nd ref="557401566"/>
    <nd ref="557402258"/>
    <nd ref="557402272"/>
    <nd ref="557402280"/>
    <nd ref="557402292"/>
    <nd ref="557401632"/>
    <nd ref="557402304"/>
    <nd ref="557401767"/>
    <nd ref="557402320"/>
    <nd ref="557402130"/>
    <tag k="highway" v="residential"/>
    <tag k="maxspeed" v="50"/>
    <tag k="maxspeed:source" v="default residential speed limit in Australia"/>
    <tag k="name" v="Shutehaven Circuit"/>
  </way>
  <way id="43877486" version="3" timestamp="2011-11-18T17:45:36Z" uid="338866" user="tiger" changeset="9866108">
    <nd ref="557402119"/>
    <nd ref="557402130"/>
    <nd ref="557402140"/>
    <nd ref="557401697"/>
    <nd ref="557402152"/>
    <nd ref="557402098"/>
    <nd ref="557401594"/>
    <nd ref="557402179"/>
    <nd ref="557402191"/>
    <nd ref="557402196"/>
    <nd ref="557402210"/>
    <nd ref="557401566"/>
    <nd ref="557402258"/>
    <nd ref="557402272"/>
    <nd ref="557402280"/>
    <nd ref="557402292"/>
    <nd ref="557401632"/>
    <nd ref="557402304"/>
    <nd ref="557401767"/>
    <nd ref="557402320"/>
    <nd ref="557402130"/>
    <tag k="highway" v="residential"/>
    <tag k="maxspeed" v="50"/>
    <tag k="maxspeed:source" v="default residential speed limit in Australia"/>
    <tag k="name" v="Shutehaven Circuit"/>
  </way>
  <way id="43877486" version="4" timestamp="2012-01-19T08:07:57Z" uid="147510" user="woodpeck_fixbot" changeset="10434386">
    <nd ref="557402119"/>
    <nd ref="557402130"/>
    <nd ref="557402140"/>
    <nd ref="557401697"/>
    <nd ref="557402152"/>
    <nd ref="557402098"/>
    <nd ref="557401594"/>
    <nd ref="557402179"/>
    <nd ref="557402191"/>
    <nd ref="557402196"/>
    <nd ref="557402210"/>
    <nd ref="557401566"/>
    <nd ref="557402258"/>
    <nd ref="557402272"/>
    <nd ref="557402280"/>
    <nd ref="557402292"/>
    <nd ref="557401632"/>
    <nd ref="557402304"/>
    <nd ref="557401767"/>
    <nd ref="557402320"/>
    <nd ref="557402130"/>
    <tag k="highway" v="residential"/>
    <tag k="name" v="Shutehaven Circuit"/>
  </way>
  <way id="43877487" version="2" timestamp="2010-07-08T09:42:02Z" uid="74617" user="JohnSmith" changeset="5164427">
    <nd ref="557402280"/>
    <nd ref="557402152"/>
    <tag k="highway" v="residential"/>
    <tag k="maxspeed" v="50"/>
    <tag k="maxspeed:source" v="default residential speed limit in Australia"/>
    <tag k="name" v="Helvellyn Street"/>
  </way>
  <way id="43877487" version="3" timestamp="2012-01-19T08:07:59Z" uid="147510" user="woodpeck_fixbot" changeset="10434386">
    <nd ref="557402280"/>
    <nd ref="557402152"/>
    <tag k="highway" v="residential"/>
    <tag k="name" v="Helvellyn Street"/>
  </way>
  <way id="43877495" version="2" timestamp="2010-07-08T09:41:10Z" uid="74617" user="JohnSmith" changeset="5164427">
    <nd ref="557401893"/>
    <nd ref="557404015"/>
    <nd ref="557404028"/>
    <nd ref="557404040"/>
    <nd ref="557404054"/>
    <tag k="highway" v="residential"/>
    <tag k="maxspeed" v="50"/>
    <tag k="maxspeed:source" v="default residential speed limit in Australia"/>
    <tag k="name" v="Wongabel Court"/>
  </way>
  <way id="43877495" version="3" timestamp="2012-01-19T08:08:00Z" uid="147510" user="woodpeck_fixbot" changeset="10434386">
    <nd ref="557401893"/>
    <nd ref="557404015"/>
    <nd ref="557404028"/>
    <nd ref="557404040"/>
    <nd ref="557404054"/>
    <tag k="highway" v="residential"/>
    <tag k="name" v="Wongabel Court"/>
  </way>
  <way id="43877496" version="2" timestamp="2010-07-08T09:41:47Z" uid="74617" user="JohnSmith" changeset="5164427">
    <nd ref="557404106"/>
    <nd ref="557404015"/>
    <tag k="highway" v="residential"/>
    <tag k="maxspeed" v="50"/>
    <tag k="maxspeed:source" v="default residential speed limit in Australia"/>
    <tag k="name" v="Midyim Court"/>
  </way>
  <way id="43877496" version="3" timestamp="2012-01-19T08:08:01Z" uid="147510" user="woodpeck_fixbot" changeset="10434386">
    <nd ref="557404106"/>
    <nd ref="557404015"/>
    <tag k="highway" v="residential"/>
    <tag k="name" v="Midyim Court"/>
  </way>
  <way id="43877516" version="2" timestamp="2010-07-08T09:42:24Z" uid="74617" user="JohnSmith" changeset="5164427">
    <nd ref="557410546"/>
    <nd ref="557410547"/>
    <nd ref="557410548"/>
    <tag k="highway" v="residential"/>
    <tag k="maxspeed" v="50"/>
    <tag k="maxspeed:source" v="default residential speed limit in Australia"/>
    <tag k="name" v="Kregor Street"/>
  </way>
  <way id="43877516" version="3" timestamp="2012-01-19T08:08:03Z" uid="147510" user="woodpeck_fixbot" changeset="10434386">
    <nd ref="557410546"/>
    <nd ref="557410547"/>
    <nd ref="557410548"/>
    <tag k="highway" v="residential"/>
    <tag k="name" v="Kregor Street"/>
  </way>
  <way id="43877517" version="2" timestamp="2010-07-08T09:44:56Z" uid="74617" user="JohnSmith" changeset="5164427">
    <nd ref="557410550"/>
    <nd ref="557410552"/>
    <tag k="highway" v="residential"/>
    <tag k="maxspeed" v="50"/>
    <tag k="maxspeed:source" v="default residential speed limit in Australia"/>
    <tag k="name" v="Mowbray Court"/>
  </way>
  <way id="43877517" version="3" timestamp="2012-01-19T08:08:04Z" uid="147510" user="woodpeck_fixbot" changeset="10434386">
    <nd ref="557410550"/>
    <nd ref="557410552"/>
    <tag k="highway" v="residential"/>
    <tag k="name" v="Mowbray Court"/>
  </way>
  <way id="43877518" version="2" timestamp="2010-07-08T09:43:23Z" uid="74617" user="JohnSmith" changeset="5164427">
    <nd ref="557410571"/>
    <nd ref="557410577"/>
    <tag k="highway" v="residential"/>
    <tag k="maxspeed" v="50"/>
    <tag k="maxspeed:source" v="default residential speed limit in Australia"/>
    <tag k="name" v="Newell Court"/>
  </way>
  <way id="43877518" version="3" timestamp="2012-01-19T08:08:05Z" uid="147510" user="woodpeck_fixbot" changeset="10434386">
    <nd ref="557410571"/>
    <nd ref="557410577"/>
    <tag k="highway" v="residential"/>
    <tag k="name" v="Newell Court"/>
  </way>
  <way id="43877519" version="2" timestamp="2010-07-08T09:40:07Z" uid="74617" user="JohnSmith" changeset="5164427">
    <nd ref="557410653"/>
    <nd ref="557410659"/>
    <tag k="highway" v="residential"/>
    <tag k="maxspeed" v="50"/>
    <tag k="maxspeed:source" v="default residential speed limit in Australia"/>
    <tag k="name" v="Stenhouse Court"/>
  </way>
  <way id="43877519" version="3" timestamp="2012-01-19T08:08:06Z" uid="147510" user="woodpeck_fixbot" changeset="10434386">
    <nd ref="557410653"/>
    <nd ref="557410659"/>
    <tag k="highway" v="residential"/>
    <tag k="name" v="Stenhouse Court"/>
  </way>
  <way id="43877520" version="2" timestamp="2010-07-08T09:43:19Z" uid="74617" user="JohnSmith" changeset="5164427">
    <nd ref="557410552"/>
    <nd ref="557410546"/>
    <nd ref="557410659"/>
    <nd ref="557410571"/>
    <tag k="highway" v="residential"/>
    <tag k="maxspeed" v="50"/>
    <tag k="maxspeed:source" v="default residential speed limit in Australia"/>
    <tag k="name" v="Irvinebank Road"/>
  </way>
  <way id="43877520" version="3" timestamp="2012-01-19T08:08:09Z" uid="147510" user="woodpeck_fixbot" changeset="10434386">
    <nd ref="557410552"/>
    <nd ref="557410546"/>
    <nd ref="557410659"/>
    <nd ref="557410571"/>
    <tag k="highway" v="residential"/>
    <tag k="name" v="Irvinebank Road"/>
  </way>
  <way id="43877522" version="2" timestamp="2010-07-08T09:44:19Z" uid="74617" user="JohnSmith" changeset="5164427">
    <nd ref="316870641"/>
    <nd ref="557410753"/>
    <nd ref="557410766"/>
    <tag k="highway" v="residential"/>
    <tag k="maxspeed" v="50"/>
    <tag k="maxspeed:source" v="default residential speed limit in Australia"/>
    <tag k="name" v="Equardo Road"/>
  </way>
  <way id="43877522" version="3" timestamp="2012-01-19T08:08:10Z" uid="147510" user="woodpeck_fixbot" changeset="10434386">
    <nd ref="316870641"/>
    <nd ref="557410753"/>
    <nd ref="557410766"/>
    <tag k="highway" v="residential"/>
    <tag k="name" v="Equardo Road"/>
  </way>
  <way id="43877523" version="2" timestamp="2010-07-08T09:40:57Z" uid="74617" user="JohnSmith" changeset="5164427">
    <nd ref="557410804"/>
    <nd ref="557410846"/>
    <nd ref="557410856"/>
    <nd ref="557410753"/>
    <nd ref="557410873"/>
    <tag k="highway" v="residential"/>
    <tag k="maxspeed" v="50"/>
    <tag k="maxspeed:source" v="default residential speed limit in Australia"/>
    <tag k="name" v="Haverwood Drive"/>
  </way>
  <way id="43877523" version="3" timestamp="2012-01-19T08:08:11Z" uid="147510" user="woodpeck_fixbot" changeset="10434386">
    <nd ref="557410804"/>
    <nd ref="557410846"/>
    <nd ref="557410856"/>
    <nd ref="557410753"/>
    <nd ref="557410873"/>
    <tag k="highway" v="residential"/>
    <tag k="name" v="Haverwood Drive"/>
  </way>
  <way id="43877524" version="2" timestamp="2010-07-08T09:41:30Z" uid="74617" user="JohnSmith" changeset="5164427">
    <nd ref="316870647"/>
    <nd ref="557410904"/>
    <nd ref="557410548"/>
    <tag k="highway" v="residential"/>
    <tag k="maxspeed" v="50"/>
    <tag k="maxspeed:source" v="default residential speed limit in Australia"/>
    <tag k="name" v="Bonnett Road"/>
  </way>
  <way id="43877524" version="3" timestamp="2011-11-22T14:14:13Z" uid="338866" user="tiger" changeset="9909454">
    <nd ref="316870647"/>
    <nd ref="557410804"/>
    <nd ref="557410904"/>
    <nd ref="557410548"/>
    <tag k="highway" v="residential"/>
    <tag k="maxspeed" v="50"/>
    <tag k="maxspeed:source" v="default residential speed limit in Australia"/>
    <tag k="name" v="Bonnett Road"/>
  </way>
  <way id="43877524" version="4" timestamp="2012-01-19T08:08:12Z" uid="147510" user="woodpeck_fixbot" changeset="10434386">
    <nd ref="316870647"/>
    <nd ref="557410804"/>
    <nd ref="557410904"/>
    <nd ref="557410548"/>
    <tag k="highway" v="residential"/>
    <tag k="name" v="Bonnett Road"/>
  </way>
  <way id="43877525" version="2" timestamp="2010-07-08T09:44:07Z" uid="74617" user="JohnSmith" changeset="5164427">
    <nd ref="557410932"/>
    <nd ref="557410944"/>
    <nd ref="557410960"/>
    <nd ref="557410904"/>
    <tag k="highway" v="residential"/>
    <tag k="maxspeed" v="50"/>
    <tag k="maxspeed:source" v="default residential speed limit in Australia"/>
    <tag k="name" v="Loriston Road"/>
  </way>
  <way id="43877525" version="3" timestamp="2012-01-19T08:08:14Z" uid="147510" user="woodpeck_fixbot" changeset="10434386">
    <nd ref="557410932"/>
    <nd ref="557410944"/>
    <nd ref="557410960"/>
    <nd ref="557410904"/>
    <tag k="highway" v="residential"/>
    <tag k="name" v="Loriston Road"/>
  </way>
  <way id="43877526" version="2" timestamp="2010-07-08T09:42:21Z" uid="74617" user="JohnSmith" changeset="5164427">
    <nd ref="557410960"/>
    <nd ref="557410547"/>
    <tag k="highway" v="residential"/>
    <tag k="maxspeed" v="50"/>
    <tag k="maxspeed:source" v="default residential speed limit in Australia"/>
    <tag k="name" v="Duroy Street"/>
  </way>
  <way id="43877526" version="3" timestamp="2012-01-19T08:08:15Z" uid="147510" user="woodpeck_fixbot" changeset="10434386">
    <nd ref="557410960"/>
    <nd ref="557410547"/>
    <tag k="highway" v="residential"/>
    <tag k="name" v="Duroy Street"/>
  </way>
  <way id="43877700" version="2" timestamp="2010-07-08T09:41:55Z" uid="74617" user="JohnSmith" changeset="5164427">
    <nd ref="557418223"/>
    <nd ref="557418224"/>
    <nd ref="557418225"/>
    <nd ref="557418226"/>
    <nd ref="557418228"/>
    <nd ref="557418232"/>
    <nd ref="557418233"/>
    <nd ref="557418234"/>
    <nd ref="557418235"/>
    <tag k="highway" v="residential"/>
    <tag k="maxspeed" v="50"/>
    <tag k="maxspeed:source" v="default residential speed limit in Australia"/>
    <tag k="name" v="Kilcora Street"/>
  </way>
  <way id="43877700" version="3" timestamp="2012-01-19T08:08:16Z" uid="147510" user="woodpeck_fixbot" changeset="10434386">
    <nd ref="557418223"/>
    <nd ref="557418224"/>
    <nd ref="557418225"/>
    <nd ref="557418226"/>
    <nd ref="557418228"/>
    <nd ref="557418232"/>
    <nd ref="557418233"/>
    <nd ref="557418234"/>
    <nd ref="557418235"/>
    <tag k="highway" v="residential"/>
    <tag k="name" v="Kilcora Street"/>
  </way>
  <way id="43877703" version="2" timestamp="2010-07-08T09:45:15Z" uid="74617" user="JohnSmith" changeset="5164427">
    <nd ref="557418237"/>
    <nd ref="557418238"/>
    <nd ref="557418239"/>
    <nd ref="557418240"/>
    <nd ref="557418242"/>
    <nd ref="557418244"/>
    <nd ref="557418245"/>
    <tag k="highway" v="residential"/>
    <tag k="maxspeed" v="50"/>
    <tag k="maxspeed:source" v="default residential speed limit in Australia"/>
    <tag k="name" v="Minsky Court"/>
  </way>
  <way id="43877703" version="3" timestamp="2012-01-19T08:08:17Z" uid="147510" user="woodpeck_fixbot" changeset="10434386">
    <nd ref="557418237"/>
    <nd ref="557418238"/>
    <nd ref="557418239"/>
    <nd ref="557418240"/>
    <nd ref="557418242"/>
    <nd ref="557418244"/>
    <nd ref="557418245"/>
    <tag k="highway" v="residential"/>
    <tag k="name" v="Minsky Court"/>
  </way>
  <way id="43877705" version="2" timestamp="2010-07-08T09:42:33Z" uid="74617" user="JohnSmith" changeset="5164427">
    <nd ref="557418246"/>
    <nd ref="557418247"/>
    <nd ref="557418257"/>
    <tag k="highway" v="residential"/>
    <tag k="maxspeed" v="50"/>
    <tag k="maxspeed:source" v="default residential speed limit in Australia"/>
    <tag k="name" v="Cali Street"/>
  </way>
  <way id="43877705" version="3" timestamp="2012-01-19T08:08:19Z" uid="147510" user="woodpeck_fixbot" changeset="10434386">
    <nd ref="557418246"/>
    <nd ref="557418247"/>
    <nd ref="557418257"/>
    <tag k="highway" v="residential"/>
    <tag k="name" v="Cali Street"/>
  </way>
  <way id="43877722" version="2" timestamp="2010-07-08T09:42:19Z" uid="74617" user="JohnSmith" changeset="5164427">
    <nd ref="557418297"/>
    <nd ref="557418313"/>
    <nd ref="557418235"/>
    <nd ref="557418328"/>
    <nd ref="557418335"/>
    <tag k="highway" v="residential"/>
    <tag k="maxspeed" v="50"/>
    <tag k="maxspeed:source" v="default residential speed limit in Australia"/>
    <tag k="name" v="Bahama Court"/>
  </way>
  <way id="43877722" version="3" timestamp="2012-01-19T08:08:20Z" uid="147510" user="woodpeck_fixbot" changeset="10434386">
    <nd ref="557418297"/>
    <nd ref="557418313"/>
    <nd ref="557418235"/>
    <nd ref="557418328"/>
    <nd ref="557418335"/>
    <tag k="highway" v="residential"/>
    <tag k="name" v="Bahama Court"/>
  </way>
  <way id="43877768" version="2" timestamp="2010-07-08T09:40:50Z" uid="74617" user="JohnSmith" changeset="5164427">
    <nd ref="557418336"/>
    <nd ref="557418337"/>
    <nd ref="557418338"/>
    <nd ref="557418339"/>
    <nd ref="557418340"/>
    <nd ref="557418313"/>
    <tag k="highway" v="residential"/>
    <tag k="maxspeed" v="50"/>
    <tag k="maxspeed:source" v="default residential speed limit in Australia"/>
    <tag k="name" v="Rhain Street"/>
  </way>
  <way id="43877768" version="3" timestamp="2012-01-19T08:08:21Z" uid="147510" user="woodpeck_fixbot" changeset="10434386">
    <nd ref="557418336"/>
    <nd ref="557418337"/>
    <nd ref="557418338"/>
    <nd ref="557418339"/>
    <nd ref="557418340"/>
    <nd ref="557418313"/>
    <tag k="highway" v="residential"/>
    <tag k="name" v="Rhain Street"/>
  </way>
  <way id="43877777" version="2" timestamp="2010-07-08T09:42:11Z" uid="74617" user="JohnSmith" changeset="5164427">
    <nd ref="557418342"/>
    <nd ref="557418345"/>
    <tag k="highway" v="residential"/>
    <tag k="maxspeed" v="50"/>
    <tag k="maxspeed:source" v="default residential speed limit in Australia"/>
    <tag k="name" v="Batten Road"/>
  </way>
  <way id="43877777" version="3" timestamp="2012-01-19T08:08:22Z" uid="147510" user="woodpeck_fixbot" changeset="10434386">
    <nd ref="557418342"/>
    <nd ref="557418345"/>
    <tag k="highway" v="residential"/>
    <tag k="name" v="Batten Road"/>
  </way>
  <way id="43877788" version="2" timestamp="2010-07-08T09:40:22Z" uid="74617" user="JohnSmith" changeset="5164427">
    <nd ref="557418341"/>
    <nd ref="557418257"/>
    <nd ref="557418245"/>
    <nd ref="557418346"/>
    <nd ref="557418228"/>
    <tag k="highway" v="residential"/>
    <tag k="maxspeed" v="50"/>
    <tag k="maxspeed:source" v="default residential speed limit in Australia"/>
    <tag k="name" v="Frendon Parade"/>
  </way>
  <way id="43877788" version="3" timestamp="2012-01-19T08:08:23Z" uid="147510" user="woodpeck_fixbot" changeset="10434386">
    <nd ref="557418341"/>
    <nd ref="557418257"/>
    <nd ref="557418245"/>
    <nd ref="557418346"/>
    <nd ref="557418228"/>
    <tag k="highway" v="residential"/>
    <tag k="name" v="Frendon Parade"/>
  </way>
</osm>
