<?xml version='1.0' encoding='UTF-8'?>
<osm version="0.6" generator="libosmium/2.20.0">
  <way id="43880125" version="5" timestamp="2010-07-09T07:52:44Z" uid="74617" user="JohnSmith" changeset="5171569">
    <nd ref="557508896"/>
    <nd ref="557509722"/>
    <nd ref="557509734"/>
    <nd ref="557509747"/>
    <nd ref="557509760"/>
    <nd ref="557509848"/>
    <nd ref="557509877"/>
    <nd ref="557509905"/>
    <nd ref="557509920"/>
    <tag k="highway" v="residential"/>
    <tag k="maxspeed" v="50"/>
    <tag k="maxspeed:source" v="default residential speed limit in Australia"/>
    <tag k="name" v="Atma Way"/>
    <tag k="source" v="survey"/>
  </way>
  <way id="43880125" version="6" timestamp="2012-01-19T08:09:28Z" uid="147510" user="woodpeck_fixbot" changeset="10434386">
    <nd ref="557508896"/>
    <nd ref="557509722"/>
    <nd ref="557509734"/>
    <nd ref="557509747"/>
    <nd ref="557509760"/>
    <nd ref="557509848"/>
    <nd ref="557509877"/>
    <nd ref="557509905"/>
    <nd ref="557509920"/>
    <tag k="highway" v="residential"/>
    <tag k="name" v="Atma Way"/>
    <tag k="source" v="survey"/>
  </way>
  <way id="43880128" version="2" timestamp="2011-03-04T11:19:32Z" uid="4467" user="Rosscoe" changeset="7453509">
    <nd ref="557510649"/>
    <nd ref="557510647"/>
    <nd ref="557510651"/>
    <nd ref="557510644"/>
    <nd ref="557510642"/>
    <tag k="highway" v="service"/>
  </way>
  <way id="43880131" version="2" timestamp="2011-03-04T11:21:41Z" uid="4467" user="Rosscoe" changeset="7453525">
    <nd ref="557510713"/>
    <nd ref="557510714"/>
    <tag k="highway" v="track"/>
  </way>
  <way id="43880354" version="6" timestamp="2010-07-09T07:52:31Z" uid="74617" user="JohnSmith" changeset="5171569">
    <nd ref="557515346"/>
    <nd ref="557515451"/>
    <tag k="highway" v="residential"/>
    <tag k="maxspeed" v="50"/>
    <tag k="maxspeed:source" v="default residential speed limit in Australia"/>
    <tag k="name" v="Cooya Pass"/>
    <tag k="source" v="survey"/>
  </way>
  <way id="43880354" version="7" timestamp="2012-01-19T08:09:31Z" uid="147510" user="woodpeck_fixbot" changeset="10434386">
    <nd ref="557515346"/>
    <nd ref="557515451"/>
    <tag k="highway" v="residential"/>
    <tag k="name" v="Cooya Pass"/>
    <tag k="source" v="survey"/>
  </way>
  <way id="43880596" version="5" timestamp="2010-06-23T05:00:33Z" uid="4467" user="Rosscoe" changeset="5056189">
    <nd ref="557526594"/>
    <nd ref="557526937"/>
    <nd ref="557526940"/>
    <nd ref="557526941"/>
    <nd ref="557526942"/>
    <nd ref="557526595"/>
    <nd ref="557526943"/>
    <nd ref="557526944"/>
    <nd ref="557526945"/>
    <nd ref="557526947"/>
    <nd ref="557526596"/>
    <nd ref="557526979"/>
    <nd ref="557526993"/>
    <nd ref="557527011"/>
    <nd ref="557527013"/>
    <nd ref="557526597"/>
    <nd ref="557527083"/>
    <nd ref="557527103"/>
    <nd ref="557527118"/>
    <nd ref="557526594"/>
    <tag k="highway" v="trunk"/>
    <tag k="junction" v="roundabout"/>
    <tag k="name" v="Marmion Avenue"/>
    <tag k="ref" v="S71"/>
  </way>
  <way id="43880883" version="6" timestamp="2010-03-22T07:34:51Z" uid="20587" user="balrog-kun" changeset="4199043">
    <nd ref="36204475"/>
    <nd ref="34589682"/>
    <tag k="bridge" v="yes"/>
    <tag k="highway" v="motorway"/>
    <tag k="name" v="Columbia River Freeway"/>
    <tag k="name_1" v="Columbia River Highway"/>
    <tag k="name_2" v="United States Highway 30"/>
    <tag k="oneway" v="yes"/>
    <tag k="ref" v="I 84;US 30"/>
    <tag k="tiger:cfcc" v="A15"/>
    <tag k="tiger:name_base" v="I-84"/>
    <tag k="tiger:name_base_1" v="Columbia River"/>
    <tag k="tiger:name_base_2" v="United States Highway 30"/>
    <tag k="tiger:name_type_1" v="Hwy"/>
    <tag k="tiger:separated" v="yes"/>
    <tag k="tiger:source" v="tiger_import_dch_v0.6_20070825"/>
    <tag k="tiger:tlid" v="175531529:175531498:175554855"/>
  </way>
  <way id="43880883" version="7" timestamp="2010-08-04T22:55:37Z" uid="121241" user="zephyr" changeset="5403982">
    <nd ref="36204475"/>
    <nd ref="846437063"/>
    <nd ref="34589682"/>
    <tag k="bridge" v="yes"/>
    <tag k="highway" v="motorway"/>
    <tag k="layer" v="1"/>
    <tag k="name" v="Columbia River Freeway"/>
    <tag k="name_1" v="Columbia River Highway"/>
    <tag k="name_2" v="United States Highway 30"/>
    <tag k="oneway" v="yes"/>
    <tag k="ref" v="I 84;US 30"/>
    <tag k="tiger:cfcc" v="A15"/>
    <tag k="tiger:name_base" v="I-84"/>
    <tag k="tiger:name_base_1" v="Columbia River"/>
    <tag k="tiger:name_base_2" v="United States Highway 30"/>
    <tag k="tiger:name_type_1" v="Hwy"/>
    <tag k="tiger:separated" v="yes"/>
    <tag k="tiger:source" v="tiger_import_dch_v0.6_20070825"/>
    <tag k="tiger:tlid" v="175531529:175531498:175554855"/>
  </way>
  <way id="43880883" version="8" timestamp="2010-08-07T03:41:00Z" uid="92286" user="Paul Johnson" changeset="5421860">
    <nd ref="36204475"/>
    <nd ref="846437063"/>
    <nd ref="34589682"/>
    <tag k="bridge" v="yes"/>
    <tag k="highway" v="motorway"/>
    <tag k="layer" v="1"/>
    <tag k="name" v="Columbia River Freeway"/>
    <tag k="name_1" v="Columbia River Highway"/>
    <tag k="name_2" v="United States Highway 30"/>
    <tag k="oneway" v="yes"/>
    <tag k="ref" v="I 84; US 30"/>
    <tag k="tiger:cfcc" v="A15"/>
    <tag k="tiger:name_base" v="I-84"/>
    <tag k="tiger:name_base_1" v="Columbia River"/>
    <tag k="tiger:name_base_2" v="United States Highway 30"/>
    <tag k="tiger:name_type_1" v="Hwy"/>
    <tag k="tiger:separated" v="yes"/>
    <tag k="tiger:source" v="tiger_import_dch_v0.6_20070825"/>
    <tag k="tiger:tlid" v="175531529:175531498:175554855"/>
  </way>
  <way id="43880883" version="9" timestamp="2010-12-23T03:17:02Z" uid="373763" user="ylekot" changeset="6742012">
    <nd ref="36204475"/>
    <nd ref="846437063"/>
    <nd ref="34589682"/>
    <tag k="bridge" v="yes"/>
    <tag k="highway" v="motorway"/>
    <tag k="layer" v="1"/>
    <tag k="name" v="Columbia River Freeway"/>
    <tag k="name_1" v="Columbia River Highway"/>
    <tag k="name_2" v="United States Highway 30"/>
    <tag k="oneway" v="yes"/>
    <tag k="ref" v="I 84"/>
    <tag k="tiger:cfcc" v="A15"/>
    <tag k="tiger:name_base" v="I-84"/>
    <tag k="tiger:name_base_1" v="Columbia River"/>
    <tag k="tiger:name_base_2" v="United States Highway 30"/>
    <tag k="tiger:name_type_1" v="Hwy"/>
    <tag k="tiger:separated" v="yes"/>
    <tag k="tiger:source" v="tiger_import_dch_v0.6_20070825"/>
    <tag k="tiger:tlid" v="175531529:175531498:175554855"/>
  </way>
  <way id="43880883" version="10" timestamp="2010-12-23T19:58:19Z" uid="373763" user="ylekot" changeset="6749139">
    <nd ref="36204475"/>
    <nd ref="846437063"/>
    <nd ref="34589682"/>
    <tag k="bridge" v="yes"/>
    <tag k="highway" v="motorway"/>
    <tag k="layer" v="1"/>
    <tag k="name" v="Columbia River Freeway"/>
    <tag k="name_1" v="Columbia River Highway"/>
    <tag k="name_2" v="United States Highway 30"/>
    <tag k="oneway" v="yes"/>
    <tag k="ref" v="I84-US30"/>
    <tag k="tiger:cfcc" v="A15"/>
    <tag k="tiger:name_base" v="I-84"/>
    <tag k="tiger:name_base_1" v="Columbia River"/>
    <tag k="tiger:name_base_2" v="United States Highway 30"/>
    <tag k="tiger:name_type_1" v="Hwy"/>
    <tag k="tiger:separated" v="yes"/>
    <tag k="tiger:source" v="tiger_import_dch_v0.6_20070825"/>
    <tag k="tiger:tlid" v="175531529:175531498:175554855"/>
  </way>
  <way id="43880883" version="11" timestamp="2011-01-19T22:16:38Z" uid="207745" user="NE2" changeset="7025536">
    <nd ref="36204475"/>
    <nd ref="846437063"/>
    <nd ref="34589682"/>
    <tag k="bridge" v="yes"/>
    <tag k="highway" v="motorway"/>
    <tag k="layer" v="1"/>
    <tag k="name" v="Columbia River Freeway"/>
    <tag k="name_1" v="Columbia River Highway"/>
    <tag k="name_2" v="United States Highway 30"/>
    <tag k="oneway" v="yes"/>
    <tag k="ref" v="I 84;US 30"/>
    <tag k="tiger:cfcc" v="A15"/>
    <tag k="tiger:name_base" v="I-84"/>
    <tag k="tiger:name_base_1" v="Columbia River"/>
    <tag k="tiger:name_base_2" v="United States Highway 30"/>
    <tag k="tiger:name_type_1" v="Hwy"/>
    <tag k="tiger:separated" v="yes"/>
    <tag k="tiger:source" v="tiger_import_dch_v0.6_20070825"/>
    <tag k="tiger:tlid" v="175531529:175531498:175554855"/>
  </way>
  <way id="43880883" version="12" timestamp="2011-03-26T00:12:08Z" uid="92286" user="Paul Johnson" changeset="7670923">
    <nd ref="36204475"/>
    <nd ref="846437063"/>
    <nd ref="34589682"/>
    <tag k="bicycle" v="yes"/>
    <tag k="bridge" v="yes"/>
    <tag k="highway" v="motorway"/>
    <tag k="layer" v="1"/>
    <tag k="name" v="Columbia River Freeway"/>
    <tag k="name_1" v="Columbia River Highway"/>
    <tag k="name_2" v="United States Highway 30"/>
    <tag k="oneway" v="yes"/>
    <tag k="ref" v="I 84;US 30"/>
    <tag k="tiger:cfcc" v="A15"/>
    <tag k="tiger:name_base" v="I-84"/>
    <tag k="tiger:name_base_1" v="Columbia River"/>
    <tag k="tiger:name_base_2" v="United States Highway 30"/>
    <tag k="tiger:name_type_1" v="Hwy"/>
    <tag k="tiger:separated" v="yes"/>
    <tag k="tiger:source" v="tiger_import_dch_v0.6_20070825"/>
    <tag k="tiger:tlid" v="175531529:175531498:175554855"/>
  </way>
  <way id="43880883" version="13" timestamp="2011-06-13T06:17:58Z" uid="207745" user="NE2" changeset="8422147">
    <nd ref="36204475"/>
    <nd ref="846437063"/>
    <nd ref="34589682"/>
    <tag k="bicycle" v="yes"/>
    <tag k="bridge" v="yes"/>
    <tag k="highway" v="motorway"/>
    <tag k="layer" v="1"/>
    <tag k="name" v="Columbia River Freeway"/>
    <tag k="name_1" v="Columbia River Highway"/>
    <tag k="oneway" v="yes"/>
    <tag k="ref" v="I 84;US 30"/>
    <tag k="tiger:cfcc" v="A15"/>
    <tag k="tiger:name_base" v="I-84"/>
    <tag k="tiger:name_base_1" v="Columbia River"/>
    <tag k="tiger:name_base_2" v="United States Highway 30"/>
    <tag k="tiger:name_type_1" v="Hwy"/>
    <tag k="tiger:separated" v="yes"/>
    <tag k="tiger:source" v="tiger_import_dch_v0.6_20070825"/>
    <tag k="tiger:tlid" v="175531529:175531498:175554855"/>
  </way>
  <way id="43880883" version="14" timestamp="2011-06-26T03:20:48Z" uid="473471" user="NE3" changeset="8548309">
    <nd ref="36204475"/>
    <nd ref="846437063"/>
    <nd ref="34589682"/>
    <tag k="bicycle" v="yes"/>
    <tag k="bridge" v="yes"/>
    <tag k="highway" v="motorway"/>
    <tag k="lanes" v="2"/>
    <tag k="layer" v="1"/>
    <tag k="name" v="Columbia River Freeway"/>
    <tag k="name_1" v="Columbia River Highway"/>
    <tag k="oneway" v="yes"/>
    <tag k="ref" v="I 84;US 30"/>
    <tag k="tiger:cfcc" v="A15"/>
    <tag k="tiger:name_base" v="I-84"/>
    <tag k="tiger:name_base_1" v="Columbia River"/>
    <tag k="tiger:name_base_2" v="United States Highway 30"/>
    <tag k="tiger:name_type_1" v="Hwy"/>
    <tag k="tiger:separated" v="yes"/>
    <tag k="tiger:source" v="tiger_import_dch_v0.6_20070825"/>
    <tag k="tiger:tlid" v="175531529:175531498:175554855"/>
  </way>
  <way id="43880883" version="15" timestamp="2011-11-25T16:32:09Z" uid="207745" user="NE2" changeset="9945867">
    <nd ref="36204475"/>
    <nd ref="846437063"/>
    <nd ref="34589682"/>
    <tag k="bicycle" v="yes"/>
    <tag k="bridge" v="yes"/>
    <tag k="hgv" v="designated"/>
    <tag k="highway" v="motorway"/>
    <tag k="lanes" v="2"/>
    <tag k="layer" v="1"/>
    <tag k="name" v="Columbia River Freeway"/>
    <tag k="name_1" v="Columbia River Highway"/>
    <tag k="oneway" v="yes"/>
    <tag k="ref" v="I 84;US 30"/>
    <tag k="tiger:cfcc" v="A15"/>
    <tag k="tiger:name_base" v="I-84"/>
    <tag k="tiger:name_base_1" v="Columbia River"/>
    <tag k="tiger:name_base_2" v="United States Highway 30"/>
    <tag k="tiger:name_type_1" v="Hwy"/>
    <tag k="tiger:separated" v="yes"/>
    <tag k="tiger:source" v="tiger_import_dch_v0.6_20070825"/>
    <tag k="tiger:tlid" v="175531529:175531498:175554855"/>
  </way>
  <way id="43880128" version="3" timestamp="2012-07-19T20:38:18Z" uid="722137" user="OSMF Redaction Account" changeset="12346575">
    <nd ref="557510642"/>
    <nd ref="557510644"/>
    <nd ref="557510651"/>
    <nd ref="557510647"/>
    <nd ref="557510649"/>
  </way>
  <way id="43880131" version="3" timestamp="2012-07-19T20:38:19Z" uid="722137" user="OSMF Redaction Account" changeset="12346575">
    <nd ref="557510713"/>
    <nd ref="557510714"/>
  </way>
  <way id="43880596" version="6" timestamp="2012-08-28T22:25:14Z" uid="418724" user="wintersportler" changeset="12899004">
    <nd ref="557526594"/>
    <nd ref="1887584312"/>
    <nd ref="557526940"/>
    <nd ref="557526941"/>
    <nd ref="557526595"/>
    <nd ref="1887584314"/>
    <nd ref="1887584316"/>
    <nd ref="557526943"/>
    <nd ref="557526944"/>
    <nd ref="557526945"/>
    <nd ref="557526947"/>
    <nd ref="1887584324"/>
    <nd ref="557526596"/>
    <nd ref="557526979"/>
    <nd ref="557526993"/>
    <nd ref="557527011"/>
    <nd ref="557526597"/>
    <nd ref="1887584323"/>
    <nd ref="557527083"/>
    <nd ref="1887584321"/>
    <nd ref="557527103"/>
    <nd ref="557527118"/>
    <nd ref="1887584315"/>
    <nd ref="1887584313"/>
    <nd ref="557526594"/>
    <tag k="highway" v="trunk"/>
    <tag k="junction" v="roundabout"/>
    <tag k="name" v="Marmion Avenue"/>
    <tag k="Note" v="Please do not connect ingoing and outgoing ways into a single node because it&apos;s bad for routing"/>
    <tag k="ref" v="S71"/>
  </way>
</osm>
