<?xml version='1.0' encoding='UTF-8'?>
<osm version="0.6" generator="libosmium/2.20.0">
  <way id="43978804" version="2" timestamp="2010-03-28T11:14:21Z" uid="20587" user="balrog-kun" changeset="4254597">
    <nd ref="559277739"/>
    <nd ref="559269836"/>
    <tag k="abutters" v="residential"/>
    <tag k="highway" v="service"/>
    <tag k="name" v="Cloverfield Court"/>
    <tag k="service" v="alley"/>
    <tag k="source" v="Yahoo"/>
  </way>
  <way id="43978805" version="2" timestamp="2010-03-28T11:14:21Z" uid="20587" user="balrog-kun" changeset="4254597">
    <nd ref="559277740"/>
    <nd ref="559277741"/>
    <tag k="abutters" v="residential"/>
    <tag k="highway" v="service"/>
    <tag k="name" v="24th Court"/>
    <tag k="service" v="alley"/>
    <tag k="source" v="Yahoo"/>
  </way>
  <way id="43978806" version="2" timestamp="2010-03-28T11:14:21Z" uid="20587" user="balrog-kun" changeset="4254597">
    <nd ref="559277743"/>
    <nd ref="559277744"/>
    <tag k="abutters" v="residential"/>
    <tag k="highway" v="service"/>
    <tag k="name" v="25th Court"/>
    <tag k="service" v="alley"/>
    <tag k="source" v="Yahoo"/>
  </way>
  <way id="43978807" version="2" timestamp="2010-03-28T11:14:21Z" uid="20587" user="balrog-kun" changeset="4254597">
    <nd ref="559277746"/>
    <nd ref="559277747"/>
    <tag k="abutters" v="residential"/>
    <tag k="highway" v="service"/>
    <tag k="name" v="26th Court"/>
    <tag k="service" v="alley"/>
    <tag k="source" v="Yahoo"/>
  </way>
  <way id="43978809" version="2" timestamp="2010-03-28T11:14:21Z" uid="20587" user="balrog-kun" changeset="4254597">
    <nd ref="559277750"/>
    <nd ref="559277756"/>
    <tag k="abutters" v="residential"/>
    <tag k="highway" v="service"/>
    <tag k="name" v="20th Court"/>
    <tag k="service" v="alley"/>
    <tag k="source" v="Yahoo"/>
  </way>
  <way id="43978810" version="2" timestamp="2010-03-28T11:14:21Z" uid="20587" user="balrog-kun" changeset="4254597">
    <nd ref="559277751"/>
    <nd ref="559277758"/>
    <tag k="abutters" v="residential"/>
    <tag k="highway" v="service"/>
    <tag k="name" v="21st Court"/>
    <tag k="service" v="alley"/>
    <tag k="source" v="Yahoo"/>
  </way>
  <way id="43978811" version="2" timestamp="2010-03-28T11:14:21Z" uid="20587" user="balrog-kun" changeset="4254597">
    <nd ref="559277753"/>
    <nd ref="559277759"/>
    <tag k="abutters" v="residential"/>
    <tag k="highway" v="service"/>
    <tag k="name" v="22nd Court"/>
    <tag k="service" v="alley"/>
    <tag k="source" v="Yahoo"/>
  </way>
  <way id="43978812" version="2" timestamp="2010-03-28T11:14:21Z" uid="20587" user="balrog-kun" changeset="4254597">
    <nd ref="559277754"/>
    <nd ref="559277761"/>
    <tag k="abutters" v="residential"/>
    <tag k="highway" v="service"/>
    <tag k="name" v="23rd Court"/>
    <tag k="service" v="alley"/>
    <tag k="source" v="Yahoo"/>
  </way>
  <way id="43978895" version="2" timestamp="2010-03-28T11:14:22Z" uid="20587" user="balrog-kun" changeset="4254597">
    <nd ref="559278950"/>
    <nd ref="559278953"/>
    <nd ref="122683129"/>
    <nd ref="122683130"/>
    <tag k="highway" v="residential"/>
    <tag k="name" v="30th Street"/>
    <tag k="tiger:cfcc" v="A41"/>
    <tag k="tiger:county" v="Los Angeles, CA"/>
    <tag k="tiger:name_base" v="30th"/>
    <tag k="tiger:name_type" v="St"/>
    <tag k="tiger:separated" v="no"/>
    <tag k="tiger:source" v="tiger_import_dch_v0.6_20070809"/>
    <tag k="tiger:tlid" v="141568630:141568632"/>
    <tag k="tiger:zip_left" v="90405"/>
    <tag k="tiger:zip_right" v="90405"/>
  </way>
  <way id="43978967" version="2" timestamp="2010-03-28T11:14:22Z" uid="20587" user="balrog-kun" changeset="4254597">
    <nd ref="333178757"/>
    <nd ref="559279709"/>
    <nd ref="559279710"/>
    <nd ref="559279711"/>
    <tag k="abutters" v="retail"/>
    <tag k="highway" v="service"/>
    <tag k="name" v="Pico Place North"/>
    <tag k="service" v="alley"/>
    <tag k="source" v="Yahoo"/>
  </way>
  <way id="43978977" version="2" timestamp="2010-03-28T11:14:22Z" uid="20587" user="balrog-kun" changeset="4254597">
    <nd ref="123293640"/>
    <nd ref="559280152"/>
    <nd ref="123293642"/>
    <nd ref="122935460"/>
    <tag k="highway" v="residential"/>
    <tag k="name" v="Wellesley Avenue"/>
    <tag k="tiger:cfcc" v="A41"/>
    <tag k="tiger:county" v="Los Angeles, CA"/>
    <tag k="tiger:name_base" v="Wellesley"/>
    <tag k="tiger:name_type" v="Ave"/>
    <tag k="tiger:separated" v="no"/>
    <tag k="tiger:source" v="tiger_import_dch_v0.6_20070809"/>
    <tag k="tiger:tlid" v="141569700:141569689"/>
    <tag k="tiger:zip_left" v="90064"/>
    <tag k="tiger:zip_right" v="90064"/>
  </way>
  <way id="43978977" version="3" timestamp="2010-04-24T07:29:13Z" uid="202256" user="Telecas" changeset="4509258">
    <nd ref="123293640"/>
    <nd ref="559280152"/>
    <nd ref="123293642"/>
    <nd ref="705010033"/>
    <nd ref="122935460"/>
    <tag k="highway" v="residential"/>
    <tag k="name" v="Wellesley Avenue"/>
    <tag k="tiger:cfcc" v="A41"/>
    <tag k="tiger:county" v="Los Angeles, CA"/>
    <tag k="tiger:name_base" v="Wellesley"/>
    <tag k="tiger:name_type" v="Ave"/>
    <tag k="tiger:separated" v="no"/>
    <tag k="tiger:source" v="tiger_import_dch_v0.6_20070809"/>
    <tag k="tiger:tlid" v="141569700:141569689"/>
    <tag k="tiger:zip_left" v="90064"/>
    <tag k="tiger:zip_right" v="90064"/>
  </way>
  <way id="43978804" version="3" timestamp="2012-04-09T15:23:43Z" uid="104962" user="techlady" changeset="11239147">
    <nd ref="559277739"/>
    <nd ref="1708685406"/>
    <nd ref="559269836"/>
    <tag k="abutters" v="residential"/>
    <tag k="highway" v="service"/>
    <tag k="name" v="Cloverfield Court"/>
    <tag k="service" v="alley"/>
    <tag k="source" v="Yahoo"/>
  </way>
  <way id="43978895" version="3" timestamp="2012-04-09T15:23:45Z" uid="104962" user="techlady" changeset="11239147">
    <nd ref="1708685270"/>
    <nd ref="559278950"/>
    <nd ref="559278953"/>
    <nd ref="122683129"/>
    <nd ref="122683130"/>
    <tag k="highway" v="residential"/>
    <tag k="name" v="30th Street"/>
    <tag k="tiger:cfcc" v="A41"/>
    <tag k="tiger:county" v="Los Angeles, CA"/>
    <tag k="tiger:name_base" v="30th"/>
    <tag k="tiger:name_type" v="St"/>
    <tag k="tiger:separated" v="no"/>
    <tag k="tiger:source" v="tiger_import_dch_v0.6_20070809"/>
    <tag k="tiger:tlid" v="141568630:141568632"/>
    <tag k="tiger:zip_left" v="90405"/>
    <tag k="tiger:zip_right" v="90405"/>
  </way>
  <way id="43978895" version="4" timestamp="2012-04-09T19:41:54Z" uid="104962" user="techlady" changeset="11243660">
    <nd ref="1708685270"/>
    <nd ref="559278950"/>
    <nd ref="559278953"/>
    <nd ref="122683129"/>
    <nd ref="1709109421"/>
    <tag k="highway" v="residential"/>
    <tag k="name" v="30th Street"/>
    <tag k="tiger:cfcc" v="A41"/>
    <tag k="tiger:county" v="Los Angeles, CA"/>
    <tag k="tiger:name_base" v="30th"/>
    <tag k="tiger:name_type" v="St"/>
    <tag k="tiger:separated" v="no"/>
    <tag k="tiger:source" v="tiger_import_dch_v0.6_20070809"/>
    <tag k="tiger:tlid" v="141568630:141568632"/>
    <tag k="tiger:zip_left" v="90405"/>
    <tag k="tiger:zip_right" v="90405"/>
  </way>
</osm>
