<?xml version='1.0' encoding='UTF-8'?>
<osm version="0.6" generator="libosmium/2.20.0">
  <way id="44002419" version="7" timestamp="2010-04-03T17:17:04Z" uid="20587" user="balrog-kun" changeset="4313610">
    <nd ref="298042485"/>
    <nd ref="559504144"/>
    <nd ref="298042486"/>
    <nd ref="298042487"/>
    <nd ref="559506245"/>
    <nd ref="298042488"/>
    <tag k="highway" v="motorway"/>
    <tag k="name" v="Artcraft Road"/>
    <tag k="oneway" v="yes"/>
    <tag k="ref" v="178"/>
  </way>
  <way id="44002419" version="8" timestamp="2011-06-12T14:41:09Z" uid="207745" user="NE2" changeset="8415993">
    <nd ref="298042485"/>
    <nd ref="559504144"/>
    <nd ref="298042486"/>
    <nd ref="298042487"/>
    <nd ref="559506245"/>
    <nd ref="298042488"/>
    <tag k="highway" v="motorway"/>
    <tag k="lanes" v="3"/>
    <tag k="name" v="Artcraft Road"/>
    <tag k="oneway" v="yes"/>
    <tag k="ref" v="178"/>
  </way>
  <way id="44002419" version="9" timestamp="2011-06-22T21:25:44Z" uid="6424" user="Lambertus" changeset="8518580">
    <nd ref="298042485"/>
    <nd ref="559504144"/>
    <nd ref="298042487"/>
    <nd ref="559506245"/>
    <nd ref="298042488"/>
    <tag k="highway" v="motorway"/>
    <tag k="lanes" v="3"/>
    <tag k="name" v="Artcraft Road"/>
    <tag k="oneway" v="yes"/>
    <tag k="ref" v="178"/>
  </way>
  <way id="44002419" version="10" timestamp="2011-11-30T19:39:32Z" uid="207745" user="NE2" changeset="10002171">
    <nd ref="298042485"/>
    <nd ref="559504144"/>
    <nd ref="298042487"/>
    <nd ref="559506245"/>
    <nd ref="298042488"/>
    <tag k="hgv" v="yes"/>
    <tag k="highway" v="motorway"/>
    <tag k="lanes" v="3"/>
    <tag k="name" v="Artcraft Road"/>
    <tag k="oneway" v="yes"/>
    <tag k="ref" v="178"/>
  </way>
  <way id="44002419" version="11" timestamp="2012-01-08T05:19:25Z" uid="207745" user="NE2" changeset="10328142">
    <nd ref="298042485"/>
    <nd ref="559504144"/>
    <nd ref="298042487"/>
    <nd ref="559506245"/>
    <nd ref="298042488"/>
    <tag k="hgv" v="yes"/>
    <tag k="highway" v="motorway"/>
    <tag k="lanes" v="3"/>
    <tag k="name" v="Artcraft Road"/>
    <tag k="oneway" v="yes"/>
    <tag k="ref" v="SH 178"/>
  </way>
  <way id="44002437" version="5" timestamp="2010-04-03T17:17:05Z" uid="20587" user="balrog-kun" changeset="4313610">
    <nd ref="559502919"/>
    <nd ref="298042485"/>
    <tag k="bridge" v="yes"/>
    <tag k="highway" v="motorway"/>
    <tag k="layer" v="1"/>
    <tag k="name" v="Artcraft Road"/>
    <tag k="oneway" v="yes"/>
    <tag k="ref" v="178"/>
    <tag k="source" v="Yahoo"/>
  </way>
  <way id="44002437" version="6" timestamp="2010-08-15T20:28:25Z" uid="37392" user="25or6to4" changeset="5504108">
    <nd ref="559502919"/>
    <nd ref="298042485"/>
    <tag k="bridge" v="yes"/>
    <tag k="highway" v="trunk"/>
    <tag k="layer" v="1"/>
    <tag k="name" v="Artcraft Road"/>
    <tag k="oneway" v="yes"/>
    <tag k="ref" v="TX 178"/>
    <tag k="source" v="Yahoo"/>
  </way>
  <way id="44002437" version="7" timestamp="2010-12-25T10:48:02Z" uid="207745" user="NE2" changeset="6759882">
    <nd ref="559502919"/>
    <nd ref="298042485"/>
    <tag k="bridge" v="yes"/>
    <tag k="highway" v="motorway"/>
    <tag k="layer" v="1"/>
    <tag k="name" v="Artcraft Road"/>
    <tag k="oneway" v="yes"/>
    <tag k="ref" v="TX 178"/>
    <tag k="source" v="Yahoo"/>
  </way>
  <way id="44002437" version="8" timestamp="2011-06-12T14:36:01Z" uid="207745" user="NE2" changeset="8415993">
    <nd ref="559502919"/>
    <nd ref="1321957125"/>
    <tag k="bridge" v="yes"/>
    <tag k="highway" v="motorway"/>
    <tag k="lanes" v="2"/>
    <tag k="layer" v="1"/>
    <tag k="name" v="Artcraft Road"/>
    <tag k="oneway" v="yes"/>
    <tag k="ref" v="TX 178"/>
    <tag k="source" v="Yahoo"/>
  </way>
  <way id="44002437" version="9" timestamp="2011-11-30T19:39:25Z" uid="207745" user="NE2" changeset="10002171">
    <nd ref="559502919"/>
    <nd ref="1321957125"/>
    <tag k="bridge" v="yes"/>
    <tag k="hgv" v="yes"/>
    <tag k="highway" v="motorway"/>
    <tag k="lanes" v="2"/>
    <tag k="layer" v="1"/>
    <tag k="name" v="Artcraft Road"/>
    <tag k="oneway" v="yes"/>
    <tag k="ref" v="TX 178"/>
    <tag k="source" v="Yahoo"/>
  </way>
  <way id="44002453" version="7" timestamp="2010-04-03T17:17:05Z" uid="20587" user="balrog-kun" changeset="4313610">
    <nd ref="179412254"/>
    <nd ref="179412252"/>
    <nd ref="179412251"/>
    <nd ref="559505062"/>
    <nd ref="559504769"/>
    <nd ref="179412250"/>
    <nd ref="179412248"/>
    <nd ref="179412247"/>
    <nd ref="179412245"/>
    <nd ref="559496681"/>
    <tag k="highway" v="motorway"/>
    <tag k="name" v="Artcraft Road"/>
    <tag k="oneway" v="yes"/>
    <tag k="ref" v="178"/>
    <tag k="source" v="Yahoo"/>
    <tag k="tiger:cfcc" v="A41"/>
    <tag k="tiger:county" v="El Paso, TX"/>
    <tag k="tiger:name_base" v="Artcraft"/>
    <tag k="tiger:name_type" v="Rd"/>
    <tag k="tiger:separated" v="no"/>
    <tag k="tiger:source" v="tiger_import_dch_v0.6_20070829"/>
    <tag k="tiger:tlid" v="189373777:189425465:189425466:189425467:189425469:189425495"/>
    <tag k="tiger:zip_left" v="79932"/>
    <tag k="tiger:zip_right" v="79932"/>
  </way>
  <way id="44002453" version="8" timestamp="2010-08-15T20:28:40Z" uid="37392" user="25or6to4" changeset="5504108">
    <nd ref="179412254"/>
    <nd ref="179412252"/>
    <nd ref="179412251"/>
    <nd ref="559505062"/>
    <nd ref="559504769"/>
    <nd ref="179412250"/>
    <nd ref="179412248"/>
    <nd ref="179412247"/>
    <nd ref="179412245"/>
    <nd ref="559496681"/>
    <tag k="highway" v="trunk"/>
    <tag k="name" v="Artcraft Road"/>
    <tag k="oneway" v="yes"/>
    <tag k="ref" v="TX 178"/>
    <tag k="source" v="Yahoo"/>
    <tag k="tiger:cfcc" v="A41"/>
    <tag k="tiger:county" v="El Paso, TX"/>
    <tag k="tiger:name_base" v="Artcraft"/>
    <tag k="tiger:name_type" v="Rd"/>
    <tag k="tiger:separated" v="no"/>
    <tag k="tiger:source" v="tiger_import_dch_v0.6_20070829"/>
    <tag k="tiger:tlid" v="189373777:189425465:189425466:189425467:189425469:189425495"/>
    <tag k="tiger:zip_left" v="79932"/>
    <tag k="tiger:zip_right" v="79932"/>
  </way>
  <way id="44002453" version="9" timestamp="2010-12-25T10:48:04Z" uid="207745" user="NE2" changeset="6759882">
    <nd ref="179412254"/>
    <nd ref="179412252"/>
    <nd ref="179412251"/>
    <nd ref="559505062"/>
    <nd ref="559504769"/>
    <nd ref="179412250"/>
    <nd ref="179412248"/>
    <nd ref="179412247"/>
    <nd ref="179412245"/>
    <nd ref="559496681"/>
    <tag k="highway" v="motorway"/>
    <tag k="name" v="Artcraft Road"/>
    <tag k="oneway" v="yes"/>
    <tag k="ref" v="TX 178"/>
    <tag k="source" v="Yahoo"/>
    <tag k="tiger:cfcc" v="A41"/>
    <tag k="tiger:county" v="El Paso, TX"/>
    <tag k="tiger:name_base" v="Artcraft"/>
    <tag k="tiger:name_type" v="Rd"/>
    <tag k="tiger:separated" v="no"/>
    <tag k="tiger:source" v="tiger_import_dch_v0.6_20070829"/>
    <tag k="tiger:tlid" v="189373777:189425465:189425466:189425467:189425469:189425495"/>
    <tag k="tiger:zip_left" v="79932"/>
    <tag k="tiger:zip_right" v="79932"/>
  </way>
  <way id="44002453" version="10" timestamp="2011-06-12T14:41:08Z" uid="207745" user="NE2" changeset="8415993">
    <nd ref="179412254"/>
    <nd ref="179412252"/>
    <nd ref="179412251"/>
    <nd ref="559505062"/>
    <nd ref="559504769"/>
    <nd ref="179412250"/>
    <nd ref="179412248"/>
    <nd ref="179412247"/>
    <nd ref="179412245"/>
    <nd ref="559496681"/>
    <tag k="highway" v="motorway"/>
    <tag k="lanes" v="2"/>
    <tag k="name" v="Artcraft Road"/>
    <tag k="oneway" v="yes"/>
    <tag k="ref" v="TX 178"/>
    <tag k="source" v="Yahoo"/>
    <tag k="tiger:cfcc" v="A41"/>
    <tag k="tiger:county" v="El Paso, TX"/>
    <tag k="tiger:name_base" v="Artcraft"/>
    <tag k="tiger:name_type" v="Rd"/>
    <tag k="tiger:separated" v="no"/>
    <tag k="tiger:source" v="tiger_import_dch_v0.6_20070829"/>
    <tag k="tiger:tlid" v="189373777:189425465:189425466:189425467:189425469:189425495"/>
    <tag k="tiger:zip_left" v="79932"/>
    <tag k="tiger:zip_right" v="79932"/>
  </way>
  <way id="44002453" version="11" timestamp="2011-11-30T19:39:20Z" uid="207745" user="NE2" changeset="10002171">
    <nd ref="179412254"/>
    <nd ref="179412252"/>
    <nd ref="179412251"/>
    <nd ref="559505062"/>
    <nd ref="559504769"/>
    <nd ref="179412250"/>
    <nd ref="179412248"/>
    <nd ref="179412247"/>
    <nd ref="179412245"/>
    <nd ref="559496681"/>
    <tag k="hgv" v="yes"/>
    <tag k="highway" v="motorway"/>
    <tag k="lanes" v="2"/>
    <tag k="name" v="Artcraft Road"/>
    <tag k="oneway" v="yes"/>
    <tag k="ref" v="TX 178"/>
    <tag k="source" v="Yahoo"/>
    <tag k="tiger:cfcc" v="A41"/>
    <tag k="tiger:county" v="El Paso, TX"/>
    <tag k="tiger:name_base" v="Artcraft"/>
    <tag k="tiger:name_type" v="Rd"/>
    <tag k="tiger:separated" v="no"/>
    <tag k="tiger:source" v="tiger_import_dch_v0.6_20070829"/>
    <tag k="tiger:tlid" v="189373777:189425465:189425466:189425467:189425469:189425495"/>
    <tag k="tiger:zip_left" v="79932"/>
    <tag k="tiger:zip_right" v="79932"/>
  </way>
  <way id="44002474" version="5" timestamp="2010-04-03T17:17:05Z" uid="20587" user="balrog-kun" changeset="4313610">
    <nd ref="179412261"/>
    <nd ref="179412254"/>
    <tag k="bridge" v="yes"/>
    <tag k="highway" v="motorway"/>
    <tag k="layer" v="1"/>
    <tag k="name" v="Artcraft Road"/>
    <tag k="oneway" v="yes"/>
    <tag k="ref" v="178"/>
    <tag k="source" v="Yahoo"/>
    <tag k="tiger:cfcc" v="A41"/>
    <tag k="tiger:county" v="El Paso, TX"/>
    <tag k="tiger:name_base" v="Artcraft"/>
    <tag k="tiger:name_type" v="Rd"/>
    <tag k="tiger:separated" v="no"/>
    <tag k="tiger:source" v="tiger_import_dch_v0.6_20070829"/>
    <tag k="tiger:tlid" v="189373777:189425465:189425466:189425467:189425469:189425495"/>
    <tag k="tiger:zip_left" v="79932"/>
    <tag k="tiger:zip_right" v="79932"/>
  </way>
  <way id="44002474" version="6" timestamp="2010-08-15T20:28:30Z" uid="37392" user="25or6to4" changeset="5504108">
    <nd ref="179412261"/>
    <nd ref="179412254"/>
    <tag k="bridge" v="yes"/>
    <tag k="highway" v="trunk"/>
    <tag k="layer" v="1"/>
    <tag k="name" v="Artcraft Road"/>
    <tag k="oneway" v="yes"/>
    <tag k="ref" v="TX 178"/>
    <tag k="source" v="Yahoo"/>
    <tag k="tiger:cfcc" v="A41"/>
    <tag k="tiger:county" v="El Paso, TX"/>
    <tag k="tiger:name_base" v="Artcraft"/>
    <tag k="tiger:name_type" v="Rd"/>
    <tag k="tiger:separated" v="no"/>
    <tag k="tiger:source" v="tiger_import_dch_v0.6_20070829"/>
    <tag k="tiger:tlid" v="189373777:189425465:189425466:189425467:189425469:189425495"/>
    <tag k="tiger:zip_left" v="79932"/>
    <tag k="tiger:zip_right" v="79932"/>
  </way>
  <way id="44002474" version="7" timestamp="2010-12-25T10:48:02Z" uid="207745" user="NE2" changeset="6759882">
    <nd ref="179412261"/>
    <nd ref="179412254"/>
    <tag k="bridge" v="yes"/>
    <tag k="highway" v="motorway"/>
    <tag k="layer" v="1"/>
    <tag k="name" v="Artcraft Road"/>
    <tag k="oneway" v="yes"/>
    <tag k="ref" v="TX 178"/>
    <tag k="source" v="Yahoo"/>
    <tag k="tiger:cfcc" v="A41"/>
    <tag k="tiger:county" v="El Paso, TX"/>
    <tag k="tiger:name_base" v="Artcraft"/>
    <tag k="tiger:name_type" v="Rd"/>
    <tag k="tiger:separated" v="no"/>
    <tag k="tiger:source" v="tiger_import_dch_v0.6_20070829"/>
    <tag k="tiger:tlid" v="189373777:189425465:189425466:189425467:189425469:189425495"/>
    <tag k="tiger:zip_left" v="79932"/>
    <tag k="tiger:zip_right" v="79932"/>
  </way>
  <way id="44002474" version="8" timestamp="2011-06-12T14:36:58Z" uid="207745" user="NE2" changeset="8415993">
    <nd ref="179412261"/>
    <nd ref="1321957112"/>
    <tag k="bridge" v="yes"/>
    <tag k="highway" v="motorway"/>
    <tag k="lanes" v="3"/>
    <tag k="layer" v="1"/>
    <tag k="name" v="Artcraft Road"/>
    <tag k="oneway" v="yes"/>
    <tag k="ref" v="TX 178"/>
    <tag k="source" v="Yahoo"/>
    <tag k="tiger:cfcc" v="A41"/>
    <tag k="tiger:county" v="El Paso, TX"/>
    <tag k="tiger:name_base" v="Artcraft"/>
    <tag k="tiger:name_type" v="Rd"/>
    <tag k="tiger:separated" v="no"/>
    <tag k="tiger:source" v="tiger_import_dch_v0.6_20070829"/>
    <tag k="tiger:tlid" v="189373777:189425465:189425466:189425467:189425469:189425495"/>
    <tag k="tiger:zip_left" v="79932"/>
    <tag k="tiger:zip_right" v="79932"/>
  </way>
  <way id="44002474" version="9" timestamp="2011-11-30T19:39:22Z" uid="207745" user="NE2" changeset="10002171">
    <nd ref="179412261"/>
    <nd ref="1321957112"/>
    <tag k="bridge" v="yes"/>
    <tag k="hgv" v="yes"/>
    <tag k="highway" v="motorway"/>
    <tag k="lanes" v="3"/>
    <tag k="layer" v="1"/>
    <tag k="name" v="Artcraft Road"/>
    <tag k="oneway" v="yes"/>
    <tag k="ref" v="TX 178"/>
    <tag k="source" v="Yahoo"/>
    <tag k="tiger:cfcc" v="A41"/>
    <tag k="tiger:county" v="El Paso, TX"/>
    <tag k="tiger:name_base" v="Artcraft"/>
    <tag k="tiger:name_type" v="Rd"/>
    <tag k="tiger:separated" v="no"/>
    <tag k="tiger:source" v="tiger_import_dch_v0.6_20070829"/>
    <tag k="tiger:tlid" v="189373777:189425465:189425466:189425467:189425469:189425495"/>
    <tag k="tiger:zip_left" v="79932"/>
    <tag k="tiger:zip_right" v="79932"/>
  </way>
  <way id="44002730" version="5" timestamp="2010-04-03T17:17:05Z" uid="20587" user="balrog-kun" changeset="4313610">
    <nd ref="559507431"/>
    <nd ref="559507440"/>
    <tag k="bridge" v="yes"/>
    <tag k="highway" v="motorway"/>
    <tag k="layer" v="1"/>
    <tag k="name" v="Artcraft Road"/>
    <tag k="oneway" v="yes"/>
    <tag k="ref" v="178"/>
    <tag k="source" v="Yahoo"/>
  </way>
  <way id="44002730" version="6" timestamp="2010-08-15T20:28:29Z" uid="37392" user="25or6to4" changeset="5504108">
    <nd ref="559507431"/>
    <nd ref="559507440"/>
    <tag k="bridge" v="yes"/>
    <tag k="highway" v="trunk"/>
    <tag k="layer" v="1"/>
    <tag k="name" v="Artcraft Road"/>
    <tag k="oneway" v="yes"/>
    <tag k="ref" v="TX 178"/>
    <tag k="source" v="Yahoo"/>
  </way>
  <way id="44002730" version="7" timestamp="2010-12-25T10:47:53Z" uid="207745" user="NE2" changeset="6759882">
    <nd ref="559507431"/>
    <nd ref="559507440"/>
    <tag k="bridge" v="yes"/>
    <tag k="highway" v="motorway"/>
    <tag k="layer" v="1"/>
    <tag k="name" v="Artcraft Road"/>
    <tag k="oneway" v="yes"/>
    <tag k="ref" v="TX 178"/>
    <tag k="source" v="Yahoo"/>
  </way>
  <way id="44002730" version="8" timestamp="2011-06-12T14:40:54Z" uid="207745" user="NE2" changeset="8415993">
    <nd ref="559507431"/>
    <nd ref="559507440"/>
    <tag k="bridge" v="yes"/>
    <tag k="highway" v="motorway"/>
    <tag k="lanes" v="2"/>
    <tag k="layer" v="1"/>
    <tag k="name" v="Artcraft Road"/>
    <tag k="oneway" v="yes"/>
    <tag k="ref" v="TX 178"/>
    <tag k="source" v="Yahoo"/>
  </way>
  <way id="44002730" version="9" timestamp="2011-11-30T19:39:26Z" uid="207745" user="NE2" changeset="10002171">
    <nd ref="559507431"/>
    <nd ref="559507440"/>
    <tag k="bridge" v="yes"/>
    <tag k="hgv" v="yes"/>
    <tag k="highway" v="motorway"/>
    <tag k="lanes" v="2"/>
    <tag k="layer" v="1"/>
    <tag k="name" v="Artcraft Road"/>
    <tag k="oneway" v="yes"/>
    <tag k="ref" v="TX 178"/>
    <tag k="source" v="Yahoo"/>
  </way>
  <way id="44002733" version="4" timestamp="2010-04-03T17:17:05Z" uid="20587" user="balrog-kun" changeset="4313610">
    <nd ref="559507598"/>
    <nd ref="298042467"/>
    <nd ref="179412235"/>
    <nd ref="179412233"/>
    <nd ref="640278180"/>
    <tag k="highway" v="motorway"/>
    <tag k="name" v="Artcraft Road"/>
    <tag k="oneway" v="yes"/>
    <tag k="ref" v="178"/>
    <tag k="tiger:cfcc" v="A41"/>
    <tag k="tiger:county" v="El Paso, TX"/>
    <tag k="tiger:name_base" v="Artcraft"/>
    <tag k="tiger:name_type" v="Rd"/>
    <tag k="tiger:reviewed" v="no"/>
    <tag k="tiger:separated" v="no"/>
    <tag k="tiger:source" v="tiger_import_dch_v0.6_20070829"/>
    <tag k="tiger:tlid" v="189373777:189425465:189425466:189425467:189425469:189425495"/>
    <tag k="tiger:zip_left" v="79932"/>
    <tag k="tiger:zip_right" v="79932"/>
  </way>
  <way id="44002733" version="5" timestamp="2010-08-15T20:28:35Z" uid="37392" user="25or6to4" changeset="5504108">
    <nd ref="559507598"/>
    <nd ref="298042467"/>
    <nd ref="179412235"/>
    <nd ref="179412233"/>
    <nd ref="640278180"/>
    <tag k="highway" v="trunk"/>
    <tag k="name" v="Artcraft Road"/>
    <tag k="oneway" v="yes"/>
    <tag k="ref" v="TX 178"/>
    <tag k="tiger:cfcc" v="A41"/>
    <tag k="tiger:county" v="El Paso, TX"/>
    <tag k="tiger:name_base" v="Artcraft"/>
    <tag k="tiger:name_type" v="Rd"/>
    <tag k="tiger:separated" v="no"/>
    <tag k="tiger:source" v="tiger_import_dch_v0.6_20070829"/>
    <tag k="tiger:tlid" v="189373777:189425465:189425466:189425467:189425469:189425495"/>
    <tag k="tiger:zip_left" v="79932"/>
    <tag k="tiger:zip_right" v="79932"/>
  </way>
  <way id="44002733" version="6" timestamp="2010-12-25T10:47:57Z" uid="207745" user="NE2" changeset="6759882">
    <nd ref="559507598"/>
    <nd ref="298042467"/>
    <nd ref="179412235"/>
    <nd ref="179412233"/>
    <nd ref="640278180"/>
    <tag k="highway" v="motorway"/>
    <tag k="name" v="Artcraft Road"/>
    <tag k="oneway" v="yes"/>
    <tag k="ref" v="TX 178"/>
    <tag k="tiger:cfcc" v="A41"/>
    <tag k="tiger:county" v="El Paso, TX"/>
    <tag k="tiger:name_base" v="Artcraft"/>
    <tag k="tiger:name_type" v="Rd"/>
    <tag k="tiger:separated" v="no"/>
    <tag k="tiger:source" v="tiger_import_dch_v0.6_20070829"/>
    <tag k="tiger:tlid" v="189373777:189425465:189425466:189425467:189425469:189425495"/>
    <tag k="tiger:zip_left" v="79932"/>
    <tag k="tiger:zip_right" v="79932"/>
  </way>
  <way id="44002733" version="7" timestamp="2011-06-12T14:39:00Z" uid="207745" user="NE2" changeset="8415993">
    <nd ref="559507598"/>
    <nd ref="298042467"/>
    <nd ref="179412235"/>
    <nd ref="179412233"/>
    <nd ref="640278180"/>
    <tag k="highway" v="motorway"/>
    <tag k="lanes" v="2"/>
    <tag k="name" v="Artcraft Road"/>
    <tag k="oneway" v="yes"/>
    <tag k="ref" v="TX 178"/>
    <tag k="tiger:cfcc" v="A41"/>
    <tag k="tiger:county" v="El Paso, TX"/>
    <tag k="tiger:name_base" v="Artcraft"/>
    <tag k="tiger:name_type" v="Rd"/>
    <tag k="tiger:separated" v="no"/>
    <tag k="tiger:source" v="tiger_import_dch_v0.6_20070829"/>
    <tag k="tiger:tlid" v="189373777:189425465:189425466:189425467:189425469:189425495"/>
    <tag k="tiger:zip_left" v="79932"/>
    <tag k="tiger:zip_right" v="79932"/>
  </way>
  <way id="44002733" version="8" timestamp="2011-11-30T19:39:33Z" uid="207745" user="NE2" changeset="10002171">
    <nd ref="559507598"/>
    <nd ref="298042467"/>
    <nd ref="179412235"/>
    <nd ref="179412233"/>
    <nd ref="640278180"/>
    <tag k="hgv" v="yes"/>
    <tag k="highway" v="motorway"/>
    <tag k="lanes" v="2"/>
    <tag k="name" v="Artcraft Road"/>
    <tag k="oneway" v="yes"/>
    <tag k="ref" v="TX 178"/>
    <tag k="tiger:cfcc" v="A41"/>
    <tag k="tiger:county" v="El Paso, TX"/>
    <tag k="tiger:name_base" v="Artcraft"/>
    <tag k="tiger:name_type" v="Rd"/>
    <tag k="tiger:separated" v="no"/>
    <tag k="tiger:source" v="tiger_import_dch_v0.6_20070829"/>
    <tag k="tiger:tlid" v="189373777:189425465:189425466:189425467:189425469:189425495"/>
    <tag k="tiger:zip_left" v="79932"/>
    <tag k="tiger:zip_right" v="79932"/>
  </way>
  <way id="44002735" version="3" timestamp="2010-04-03T17:17:05Z" uid="20587" user="balrog-kun" changeset="4313610">
    <nd ref="559507440"/>
    <nd ref="559500195"/>
    <nd ref="559496707"/>
    <tag k="highway" v="motorway"/>
    <tag k="name" v="Artcraft Road"/>
    <tag k="oneway" v="yes"/>
    <tag k="ref" v="178"/>
  </way>
  <way id="44002735" version="4" timestamp="2010-08-15T20:28:28Z" uid="37392" user="25or6to4" changeset="5504108">
    <nd ref="559507440"/>
    <nd ref="559500195"/>
    <nd ref="559496707"/>
    <tag k="highway" v="trunk"/>
    <tag k="name" v="Artcraft Road"/>
    <tag k="oneway" v="yes"/>
    <tag k="ref" v="TX 178"/>
  </way>
  <way id="44002735" version="5" timestamp="2010-12-25T10:47:56Z" uid="207745" user="NE2" changeset="6759882">
    <nd ref="559507440"/>
    <nd ref="559500195"/>
    <nd ref="559496707"/>
    <tag k="highway" v="motorway"/>
    <tag k="name" v="Artcraft Road"/>
    <tag k="oneway" v="yes"/>
    <tag k="ref" v="TX 178"/>
  </way>
  <way id="44002735" version="6" timestamp="2011-06-12T14:40:00Z" uid="207745" user="NE2" changeset="8415993">
    <nd ref="559507440"/>
    <nd ref="559500195"/>
    <nd ref="559496707"/>
    <tag k="highway" v="motorway"/>
    <tag k="lanes" v="2"/>
    <tag k="name" v="Artcraft Road"/>
    <tag k="oneway" v="yes"/>
    <tag k="ref" v="TX 178"/>
  </way>
  <way id="44002735" version="7" timestamp="2011-11-30T19:39:28Z" uid="207745" user="NE2" changeset="10002171">
    <nd ref="559507440"/>
    <nd ref="559500195"/>
    <nd ref="559496707"/>
    <tag k="hgv" v="yes"/>
    <tag k="highway" v="motorway"/>
    <tag k="lanes" v="2"/>
    <tag k="name" v="Artcraft Road"/>
    <tag k="oneway" v="yes"/>
    <tag k="ref" v="TX 178"/>
  </way>
  <way id="44002736" version="4" timestamp="2010-04-03T17:17:06Z" uid="20587" user="balrog-kun" changeset="4313610">
    <nd ref="559507688"/>
    <nd ref="559507598"/>
    <tag k="bridge" v="yes"/>
    <tag k="highway" v="motorway"/>
    <tag k="layer" v="1"/>
    <tag k="name" v="Artcraft Road"/>
    <tag k="oneway" v="yes"/>
    <tag k="ref" v="178"/>
    <tag k="source" v="Yahoo"/>
    <tag k="tiger:cfcc" v="A41"/>
    <tag k="tiger:county" v="El Paso, TX"/>
    <tag k="tiger:name_base" v="Artcraft"/>
    <tag k="tiger:name_type" v="Rd"/>
    <tag k="tiger:reviewed" v="no"/>
    <tag k="tiger:separated" v="no"/>
    <tag k="tiger:source" v="tiger_import_dch_v0.6_20070829"/>
    <tag k="tiger:tlid" v="189373777:189425465:189425466:189425467:189425469:189425495"/>
    <tag k="tiger:zip_left" v="79932"/>
    <tag k="tiger:zip_right" v="79932"/>
  </way>
  <way id="44002736" version="5" timestamp="2010-08-15T20:28:29Z" uid="37392" user="25or6to4" changeset="5504108">
    <nd ref="559507688"/>
    <nd ref="559507598"/>
    <tag k="bridge" v="yes"/>
    <tag k="highway" v="trunk"/>
    <tag k="layer" v="1"/>
    <tag k="name" v="Artcraft Road"/>
    <tag k="oneway" v="yes"/>
    <tag k="ref" v="178"/>
    <tag k="source" v="Yahoo"/>
    <tag k="tiger:cfcc" v="A41"/>
    <tag k="tiger:county" v="El Paso, TX"/>
    <tag k="tiger:name_base" v="Artcraft"/>
    <tag k="tiger:name_type" v="Rd"/>
    <tag k="tiger:separated" v="no"/>
    <tag k="tiger:source" v="tiger_import_dch_v0.6_20070829"/>
    <tag k="tiger:tlid" v="189373777:189425465:189425466:189425467:189425469:189425495"/>
    <tag k="tiger:zip_left" v="79932"/>
    <tag k="tiger:zip_right" v="79932"/>
  </way>
  <way id="44002736" version="6" timestamp="2010-12-25T10:47:53Z" uid="207745" user="NE2" changeset="6759882">
    <nd ref="559507688"/>
    <nd ref="559507598"/>
    <tag k="bridge" v="yes"/>
    <tag k="highway" v="motorway"/>
    <tag k="layer" v="1"/>
    <tag k="name" v="Artcraft Road"/>
    <tag k="oneway" v="yes"/>
    <tag k="ref" v="178"/>
    <tag k="source" v="Yahoo"/>
    <tag k="tiger:cfcc" v="A41"/>
    <tag k="tiger:county" v="El Paso, TX"/>
    <tag k="tiger:name_base" v="Artcraft"/>
    <tag k="tiger:name_type" v="Rd"/>
    <tag k="tiger:separated" v="no"/>
    <tag k="tiger:source" v="tiger_import_dch_v0.6_20070829"/>
    <tag k="tiger:tlid" v="189373777:189425465:189425466:189425467:189425469:189425495"/>
    <tag k="tiger:zip_left" v="79932"/>
    <tag k="tiger:zip_right" v="79932"/>
  </way>
  <way id="44002736" version="7" timestamp="2011-06-12T14:35:42Z" uid="207745" user="NE2" changeset="8415993">
    <nd ref="559507688"/>
    <nd ref="559507598"/>
    <tag k="bridge" v="yes"/>
    <tag k="highway" v="motorway"/>
    <tag k="lanes" v="2"/>
    <tag k="layer" v="1"/>
    <tag k="name" v="Artcraft Road"/>
    <tag k="oneway" v="yes"/>
    <tag k="ref" v="178"/>
    <tag k="source" v="Yahoo"/>
    <tag k="tiger:cfcc" v="A41"/>
    <tag k="tiger:county" v="El Paso, TX"/>
    <tag k="tiger:name_base" v="Artcraft"/>
    <tag k="tiger:name_type" v="Rd"/>
    <tag k="tiger:separated" v="no"/>
    <tag k="tiger:source" v="tiger_import_dch_v0.6_20070829"/>
    <tag k="tiger:tlid" v="189373777:189425465:189425466:189425467:189425469:189425495"/>
    <tag k="tiger:zip_left" v="79932"/>
    <tag k="tiger:zip_right" v="79932"/>
  </way>
  <way id="44002736" version="8" timestamp="2011-11-30T19:39:23Z" uid="207745" user="NE2" changeset="10002171">
    <nd ref="559507688"/>
    <nd ref="559507598"/>
    <tag k="bridge" v="yes"/>
    <tag k="hgv" v="yes"/>
    <tag k="highway" v="motorway"/>
    <tag k="lanes" v="2"/>
    <tag k="layer" v="1"/>
    <tag k="name" v="Artcraft Road"/>
    <tag k="oneway" v="yes"/>
    <tag k="ref" v="178"/>
    <tag k="source" v="Yahoo"/>
    <tag k="tiger:cfcc" v="A41"/>
    <tag k="tiger:county" v="El Paso, TX"/>
    <tag k="tiger:name_base" v="Artcraft"/>
    <tag k="tiger:name_type" v="Rd"/>
    <tag k="tiger:separated" v="no"/>
    <tag k="tiger:source" v="tiger_import_dch_v0.6_20070829"/>
    <tag k="tiger:tlid" v="189373777:189425465:189425466:189425467:189425469:189425495"/>
    <tag k="tiger:zip_left" v="79932"/>
    <tag k="tiger:zip_right" v="79932"/>
  </way>
  <way id="44002736" version="9" timestamp="2012-01-08T05:19:25Z" uid="207745" user="NE2" changeset="10328142">
    <nd ref="559507688"/>
    <nd ref="559507598"/>
    <tag k="bridge" v="yes"/>
    <tag k="hgv" v="yes"/>
    <tag k="highway" v="motorway"/>
    <tag k="lanes" v="2"/>
    <tag k="layer" v="1"/>
    <tag k="name" v="Artcraft Road"/>
    <tag k="oneway" v="yes"/>
    <tag k="ref" v="SH 178"/>
    <tag k="source" v="Yahoo"/>
    <tag k="tiger:cfcc" v="A41"/>
    <tag k="tiger:county" v="El Paso, TX"/>
    <tag k="tiger:name_base" v="Artcraft"/>
    <tag k="tiger:name_type" v="Rd"/>
    <tag k="tiger:separated" v="no"/>
    <tag k="tiger:source" v="tiger_import_dch_v0.6_20070829"/>
    <tag k="tiger:tlid" v="189373777:189425465:189425466:189425467:189425469:189425495"/>
    <tag k="tiger:zip_left" v="79932"/>
    <tag k="tiger:zip_right" v="79932"/>
  </way>
  <way id="44002795" version="4" timestamp="2010-04-03T17:17:06Z" uid="20587" user="balrog-kun" changeset="4313610">
    <nd ref="179445595"/>
    <nd ref="179445597"/>
    <tag k="bridge" v="yes"/>
    <tag k="highway" v="residential"/>
    <tag k="layer" v="1"/>
    <tag k="name" v="West Borderland Road"/>
    <tag k="source" v="Yahoo"/>
    <tag k="tiger:cfcc" v="A41"/>
    <tag k="tiger:county" v="El Paso, TX"/>
    <tag k="tiger:name_base" v="Borderland"/>
    <tag k="tiger:name_direction_prefix" v="W"/>
    <tag k="tiger:name_type" v="Rd"/>
    <tag k="tiger:separated" v="no"/>
    <tag k="tiger:source" v="tiger_import_dch_v0.6_20070829"/>
    <tag k="tiger:tlid" v="189333939:189333941:189333371:189333373:189413461"/>
  </way>
  <way id="44002801" version="2" timestamp="2010-04-03T17:17:06Z" uid="20587" user="balrog-kun" changeset="4313610">
    <nd ref="179445597"/>
    <nd ref="179263007"/>
    <nd ref="179445601"/>
    <nd ref="179445604"/>
    <nd ref="179445607"/>
    <nd ref="179445609"/>
    <tag k="highway" v="residential"/>
    <tag k="name" v="West Borderland Road"/>
    <tag k="tiger:cfcc" v="A41"/>
    <tag k="tiger:county" v="El Paso, TX"/>
    <tag k="tiger:name_base" v="Borderland"/>
    <tag k="tiger:name_direction_prefix" v="W"/>
    <tag k="tiger:name_type" v="Rd"/>
    <tag k="tiger:reviewed" v="no"/>
    <tag k="tiger:separated" v="no"/>
    <tag k="tiger:source" v="tiger_import_dch_v0.6_20070829"/>
    <tag k="tiger:tlid" v="189333939:189333941:189333371:189333373:189413461"/>
  </way>
  <way id="44002802" version="3" timestamp="2010-06-29T19:03:22Z" uid="74617" user="JohnSmith" changeset="5108182">
    <nd ref="559510151"/>
    <nd ref="559510152"/>
    <nd ref="559510154"/>
    <nd ref="559510155"/>
    <nd ref="559510156"/>
    <nd ref="559510157"/>
    <nd ref="559510158"/>
    <nd ref="559510160"/>
    <nd ref="559510161"/>
    <nd ref="559510162"/>
    <nd ref="559510164"/>
    <nd ref="559510165"/>
    <nd ref="559510166"/>
    <nd ref="559510168"/>
    <nd ref="559510170"/>
    <nd ref="559510173"/>
    <nd ref="559510177"/>
    <nd ref="559510179"/>
    <nd ref="559510182"/>
    <nd ref="559510184"/>
    <nd ref="559510188"/>
    <nd ref="559510191"/>
    <nd ref="559510194"/>
    <nd ref="559510199"/>
    <nd ref="559510151"/>
    <tag k="fixme" v="sport=football is ambiguous, see http://wiki.osm.org/wiki/Football for more details"/>
    <tag k="sport" v="football"/>
  </way>
  <way id="44002802" version="4" timestamp="2011-01-21T20:46:39Z" uid="204685" user="Flaviu" changeset="7044366">
    <nd ref="559510151"/>
    <nd ref="559510152"/>
    <nd ref="559510154"/>
    <nd ref="559510155"/>
    <nd ref="559510156"/>
    <nd ref="559510157"/>
    <nd ref="559510158"/>
    <nd ref="559510160"/>
    <nd ref="559510161"/>
    <nd ref="559510162"/>
    <nd ref="559510164"/>
    <nd ref="559510165"/>
    <nd ref="559510166"/>
    <nd ref="559510168"/>
    <nd ref="559510170"/>
    <nd ref="559510173"/>
    <nd ref="559510177"/>
    <nd ref="559510179"/>
    <nd ref="559510182"/>
    <nd ref="559510184"/>
    <nd ref="559510188"/>
    <nd ref="559510191"/>
    <nd ref="559510194"/>
    <nd ref="559510199"/>
    <nd ref="559510151"/>
    <tag k="fixme" v="sport=football is ambiguous, see http://wiki.osm.org/wiki/Football for more details"/>
    <tag k="is_in:city" v="București"/>
    <tag k="sport" v="football"/>
  </way>
  <way id="44002997" version="4" timestamp="2010-04-03T17:17:06Z" uid="20587" user="balrog-kun" changeset="4313610">
    <nd ref="179483354"/>
    <nd ref="179483356"/>
    <tag k="bridge" v="yes"/>
    <tag k="highway" v="residential"/>
    <tag k="layer" v="1"/>
    <tag k="name" v="Canutillo la Union Avenue"/>
    <tag k="name_1" v="Farm-to-Market Road 259"/>
    <tag k="source" v="Yahoo"/>
    <tag k="tiger:cfcc" v="A41"/>
    <tag k="tiger:county" v="El Paso, TX"/>
    <tag k="tiger:name_base" v="Canutillo la Union"/>
    <tag k="tiger:name_base_1" v="Farm-to-Market Road 259"/>
    <tag k="tiger:name_type" v="Ave"/>
    <tag k="tiger:separated" v="no"/>
    <tag k="tiger:source" v="tiger_import_dch_v0.6_20070829"/>
    <tag k="tiger:tlid" v="189333240"/>
  </way>
  <way id="44002997" version="5" timestamp="2011-03-19T00:23:43Z" uid="207745" user="NE2" changeset="7600724">
    <nd ref="179483354"/>
    <nd ref="179483356"/>
    <tag k="bridge" v="yes"/>
    <tag k="highway" v="secondary"/>
    <tag k="layer" v="1"/>
    <tag k="name" v="Canutillo la Union Avenue"/>
    <tag k="name_1" v="Farm-to-Market Road 259"/>
    <tag k="ref" v="FM 259"/>
    <tag k="source" v="Yahoo"/>
    <tag k="tiger:cfcc" v="A41"/>
    <tag k="tiger:county" v="El Paso, TX"/>
    <tag k="tiger:name_base" v="Canutillo la Union"/>
    <tag k="tiger:name_base_1" v="Farm-to-Market Road 259"/>
    <tag k="tiger:name_type" v="Ave"/>
    <tag k="tiger:separated" v="no"/>
    <tag k="tiger:source" v="tiger_import_dch_v0.6_20070829"/>
    <tag k="tiger:tlid" v="189333240"/>
  </way>
  <way id="44002997" version="6" timestamp="2012-01-14T09:40:47Z" uid="207745" user="NE2" changeset="10385678">
    <nd ref="179483354"/>
    <nd ref="179483356"/>
    <tag k="bridge" v="yes"/>
    <tag k="highway" v="secondary"/>
    <tag k="layer" v="1"/>
    <tag k="name" v="Canutillo la Union Avenue"/>
    <tag k="ref" v="FM 259"/>
    <tag k="source" v="Yahoo"/>
    <tag k="tiger:cfcc" v="A41"/>
    <tag k="tiger:county" v="El Paso, TX"/>
    <tag k="tiger:name_base" v="Canutillo la Union"/>
    <tag k="tiger:name_base_1" v="Farm-to-Market Road 259"/>
    <tag k="tiger:name_type" v="Ave"/>
    <tag k="tiger:separated" v="no"/>
    <tag k="tiger:source" v="tiger_import_dch_v0.6_20070829"/>
    <tag k="tiger:tlid" v="189333240"/>
  </way>
  <way id="44002998" version="2" timestamp="2010-04-03T17:17:06Z" uid="20587" user="balrog-kun" changeset="4313610">
    <nd ref="179483356"/>
    <nd ref="179483357"/>
    <nd ref="179299639"/>
    <nd ref="179483358"/>
    <tag k="highway" v="residential"/>
    <tag k="name" v="Canutillo la Union Avenue"/>
    <tag k="name_1" v="Farm-to-Market Road 259"/>
    <tag k="tiger:cfcc" v="A41"/>
    <tag k="tiger:county" v="El Paso, TX"/>
    <tag k="tiger:name_base" v="Canutillo la Union"/>
    <tag k="tiger:name_base_1" v="Farm-to-Market Road 259"/>
    <tag k="tiger:name_type" v="Ave"/>
    <tag k="tiger:reviewed" v="no"/>
    <tag k="tiger:separated" v="no"/>
    <tag k="tiger:source" v="tiger_import_dch_v0.6_20070829"/>
    <tag k="tiger:tlid" v="189333240"/>
  </way>
  <way id="44002998" version="3" timestamp="2011-03-19T00:21:52Z" uid="207745" user="NE2" changeset="7600724">
    <nd ref="179483356"/>
    <nd ref="179483357"/>
    <nd ref="179299639"/>
    <nd ref="179483358"/>
    <tag k="highway" v="secondary"/>
    <tag k="name" v="Canutillo la Union Avenue"/>
    <tag k="name_1" v="Farm-to-Market Road 259"/>
    <tag k="ref" v="FM 259"/>
    <tag k="tiger:cfcc" v="A41"/>
    <tag k="tiger:county" v="El Paso, TX"/>
    <tag k="tiger:name_base" v="Canutillo la Union"/>
    <tag k="tiger:name_base_1" v="Farm-to-Market Road 259"/>
    <tag k="tiger:name_type" v="Ave"/>
    <tag k="tiger:reviewed" v="no"/>
    <tag k="tiger:separated" v="no"/>
    <tag k="tiger:source" v="tiger_import_dch_v0.6_20070829"/>
    <tag k="tiger:tlid" v="189333240"/>
  </way>
  <way id="44002998" version="4" timestamp="2011-11-19T11:28:27Z" uid="554826" user="25or6to4_upload" changeset="9872227">
    <nd ref="179483356"/>
    <nd ref="179483357"/>
    <nd ref="179299639"/>
    <nd ref="179483358"/>
    <tag k="highway" v="secondary"/>
    <tag k="name" v="Canutillo la Union Avenue"/>
    <tag k="name_1" v="Farm-to-Market Road 259"/>
    <tag k="ref" v="FM 259"/>
    <tag k="tiger:cfcc" v="A41"/>
    <tag k="tiger:county" v="El Paso, TX"/>
    <tag k="tiger:name_base" v="Canutillo la Union"/>
    <tag k="tiger:name_base_1" v="Farm-to-Market Road 259"/>
    <tag k="tiger:name_type" v="Ave"/>
    <tag k="tiger:separated" v="no"/>
    <tag k="tiger:source" v="tiger_import_dch_v0.6_20070829"/>
    <tag k="tiger:tlid" v="189333240"/>
  </way>
  <way id="44002998" version="5" timestamp="2012-01-14T09:40:49Z" uid="207745" user="NE2" changeset="10385678">
    <nd ref="179483356"/>
    <nd ref="179483357"/>
    <nd ref="179299639"/>
    <nd ref="179483358"/>
    <tag k="highway" v="secondary"/>
    <tag k="name" v="Canutillo la Union Avenue"/>
    <tag k="ref" v="FM 259"/>
    <tag k="tiger:cfcc" v="A41"/>
    <tag k="tiger:county" v="El Paso, TX"/>
    <tag k="tiger:name_base" v="Canutillo la Union"/>
    <tag k="tiger:name_base_1" v="Farm-to-Market Road 259"/>
    <tag k="tiger:name_type" v="Ave"/>
    <tag k="tiger:separated" v="no"/>
    <tag k="tiger:source" v="tiger_import_dch_v0.6_20070829"/>
    <tag k="tiger:tlid" v="189333240"/>
  </way>
  <way id="44002802" version="5" timestamp="2012-07-20T05:06:05Z" uid="722137" user="OSMF Redaction Account" changeset="12361327">
    <nd ref="559510151"/>
    <nd ref="559510152"/>
    <nd ref="559510154"/>
    <nd ref="559510155"/>
    <nd ref="559510156"/>
    <nd ref="559510157"/>
    <nd ref="559510158"/>
    <nd ref="559510160"/>
    <nd ref="559510161"/>
    <nd ref="559510162"/>
    <nd ref="559510164"/>
    <nd ref="559510165"/>
    <nd ref="559510166"/>
    <nd ref="559510168"/>
    <nd ref="559510170"/>
    <nd ref="559510173"/>
    <nd ref="559510177"/>
    <nd ref="559510179"/>
    <nd ref="559510182"/>
    <nd ref="559510184"/>
    <nd ref="559510188"/>
    <nd ref="559510191"/>
    <nd ref="559510194"/>
    <nd ref="559510199"/>
    <nd ref="559510151"/>
    <tag k="is_in:city" v="București"/>
    <tag k="sport" v="football"/>
  </way>
  <way id="44002997" version="7" timestamp="2012-04-09T10:34:33Z" uid="199837" user="happy5214" changeset="11236290">
    <nd ref="179483354"/>
    <nd ref="179483356"/>
    <tag k="bridge" v="yes"/>
    <tag k="highway" v="secondary"/>
    <tag k="lanes" v="2"/>
    <tag k="layer" v="1"/>
    <tag k="name" v="Canutillo la Union Avenue"/>
    <tag k="ref" v="FM 259"/>
    <tag k="source" v="Yahoo"/>
    <tag k="tiger:cfcc" v="A41"/>
    <tag k="tiger:county" v="El Paso, TX"/>
    <tag k="tiger:name_base" v="Canutillo la Union"/>
    <tag k="tiger:name_base_1" v="Farm-to-Market Road 259"/>
    <tag k="tiger:name_type" v="Ave"/>
    <tag k="tiger:separated" v="no"/>
    <tag k="tiger:source" v="tiger_import_dch_v0.6_20070829"/>
    <tag k="tiger:tlid" v="189333240"/>
  </way>
  <way id="44002998" version="6" timestamp="2012-04-09T10:34:36Z" uid="199837" user="happy5214" changeset="11236290">
    <nd ref="179483356"/>
    <nd ref="179483357"/>
    <nd ref="179299639"/>
    <nd ref="179483358"/>
    <tag k="highway" v="secondary"/>
    <tag k="lanes" v="2"/>
    <tag k="name" v="Canutillo la Union Avenue"/>
    <tag k="ref" v="FM 259"/>
    <tag k="tiger:cfcc" v="A41"/>
    <tag k="tiger:county" v="El Paso, TX"/>
    <tag k="tiger:name_base" v="Canutillo la Union"/>
    <tag k="tiger:name_base_1" v="Farm-to-Market Road 259"/>
    <tag k="tiger:name_type" v="Ave"/>
    <tag k="tiger:separated" v="no"/>
    <tag k="tiger:source" v="tiger_import_dch_v0.6_20070829"/>
    <tag k="tiger:tlid" v="189333240"/>
  </way>
</osm>
