<?xml version='1.0' encoding='UTF-8'?>
<osm version="0.6" generator="libosmium/2.20.0">
  <way id="44039166" version="6" timestamp="2010-08-31T02:37:53Z" uid="4467" user="Rosscoe" changeset="5641891">
    <nd ref="559903519"/>
    <nd ref="559903522"/>
    <nd ref="559903526"/>
    <nd ref="559903529"/>
    <nd ref="559903519"/>
    <tag k="addr:city" v="West Perth"/>
    <tag k="addr:country" v="AU"/>
    <tag k="addr:housenumber" v="10"/>
    <tag k="addr:postcode" v="6005"/>
    <tag k="addr:state" v="WA"/>
    <tag k="addr:street" v="Ord Street"/>
    <tag k="attribution" v="West Perth Business Map www.mineraldata.com.au"/>
    <tag k="building" v="yes"/>
  </way>
  <way id="44039588" version="1" timestamp="2009-11-09T08:53:49Z" uid="4467" user="Rosscoe" changeset="3071495">
    <nd ref="257872201"/>
    <nd ref="257872203"/>
    <tag k="highway" v="residential"/>
  </way>
  <way id="44039588" version="2" timestamp="2010-07-09T05:42:45Z" uid="74617" user="JohnSmith" changeset="5170972">
    <nd ref="257872201"/>
    <nd ref="257872203"/>
    <tag k="highway" v="residential"/>
    <tag k="maxspeed" v="50"/>
    <tag k="maxspeed:source" v="default residential speed limit in Australia"/>
  </way>
  <way id="44039588" version="3" timestamp="2011-05-05T05:09:19Z" uid="6513" user="Glen" changeset="8054199"/>
  <way id="44039589" version="1" timestamp="2009-11-09T08:53:49Z" uid="4467" user="Rosscoe" changeset="3071495">
    <nd ref="257872202"/>
    <nd ref="257872201"/>
    <tag k="highway" v="residential"/>
  </way>
  <way id="44039589" version="2" timestamp="2010-07-09T05:42:36Z" uid="74617" user="JohnSmith" changeset="5170972">
    <nd ref="257872202"/>
    <nd ref="257872201"/>
    <tag k="highway" v="residential"/>
    <tag k="maxspeed" v="50"/>
    <tag k="maxspeed:source" v="default residential speed limit in Australia"/>
  </way>
  <way id="44039589" version="3" timestamp="2011-05-05T05:09:19Z" uid="6513" user="Glen" changeset="8054199"/>
  <way id="44039590" version="1" timestamp="2009-11-09T08:53:49Z" uid="4467" user="Rosscoe" changeset="3071495">
    <nd ref="176250497"/>
    <nd ref="176250511"/>
    <tag k="highway" v="residential"/>
  </way>
  <way id="44039590" version="2" timestamp="2010-05-06T11:42:03Z" uid="1649" user="Chuq" changeset="4620452">
    <nd ref="176250497"/>
    <nd ref="176250511"/>
    <nd ref="176250490"/>
    <nd ref="176250482"/>
    <nd ref="176250417"/>
    <tag k="highway" v="residential"/>
    <tag k="name" v="Beaumont Road"/>
  </way>
  <way id="44039590" version="3" timestamp="2010-07-09T05:27:43Z" uid="74617" user="JohnSmith" changeset="5170972">
    <nd ref="176250497"/>
    <nd ref="176250511"/>
    <nd ref="176250490"/>
    <nd ref="176250482"/>
    <nd ref="176250417"/>
    <tag k="highway" v="residential"/>
    <tag k="maxspeed" v="50"/>
    <tag k="maxspeed:source" v="default residential speed limit in Australia"/>
    <tag k="name" v="Beaumont Road"/>
  </way>
  <way id="44039590" version="4" timestamp="2010-07-09T05:35:34Z" uid="74617" user="JohnSmith" changeset="5170972">
    <nd ref="176250497"/>
    <nd ref="176250511"/>
    <nd ref="176250490"/>
    <nd ref="176250482"/>
    <nd ref="176250417"/>
    <tag k="highway" v="residential"/>
    <tag k="maxspeed" v="50"/>
    <tag k="maxspeed:source" v="default residential speed limit in Australia"/>
    <tag k="name" v="Beaumont Road"/>
  </way>
  <way id="44039591" version="1" timestamp="2009-11-09T08:53:49Z" uid="4467" user="Rosscoe" changeset="3071495">
    <nd ref="249757843"/>
    <nd ref="249757845"/>
    <nd ref="249757846"/>
    <nd ref="249757847"/>
    <nd ref="249757848"/>
    <nd ref="249757849"/>
    <nd ref="249757843"/>
    <tag k="highway" v="residential"/>
  </way>
  <way id="44039591" version="2" timestamp="2010-07-09T05:30:20Z" uid="74617" user="JohnSmith" changeset="5170972">
    <nd ref="249757843"/>
    <nd ref="249757845"/>
    <nd ref="249757846"/>
    <nd ref="249757847"/>
    <nd ref="249757848"/>
    <nd ref="249757849"/>
    <nd ref="249757843"/>
    <tag k="highway" v="residential"/>
    <tag k="maxspeed" v="50"/>
    <tag k="maxspeed:source" v="default residential speed limit in Australia"/>
  </way>
  <way id="44039591" version="3" timestamp="2010-07-09T05:37:55Z" uid="74617" user="JohnSmith" changeset="5170972">
    <nd ref="249757843"/>
    <nd ref="249757845"/>
    <nd ref="249757846"/>
    <nd ref="249757847"/>
    <nd ref="249757848"/>
    <nd ref="249757849"/>
    <nd ref="249757843"/>
    <tag k="highway" v="residential"/>
    <tag k="maxspeed" v="50"/>
    <tag k="maxspeed:source" v="default residential speed limit in Australia"/>
  </way>
  <way id="44039592" version="1" timestamp="2009-11-09T08:53:49Z" uid="4467" user="Rosscoe" changeset="3071495">
    <nd ref="418992895"/>
    <nd ref="257846464"/>
    <tag k="highway" v="residential"/>
  </way>
  <way id="44039592" version="2" timestamp="2010-07-09T05:29:10Z" uid="74617" user="JohnSmith" changeset="5170972">
    <nd ref="418992895"/>
    <nd ref="257846464"/>
    <tag k="highway" v="residential"/>
    <tag k="maxspeed" v="50"/>
    <tag k="maxspeed:source" v="default residential speed limit in Australia"/>
  </way>
  <way id="44039592" version="3" timestamp="2010-07-09T05:36:50Z" uid="74617" user="JohnSmith" changeset="5170972">
    <nd ref="418992895"/>
    <nd ref="257846464"/>
    <tag k="highway" v="residential"/>
    <tag k="maxspeed" v="50"/>
    <tag k="maxspeed:source" v="default residential speed limit in Australia"/>
  </way>
  <way id="44039593" version="1" timestamp="2009-11-09T08:53:49Z" uid="4467" user="Rosscoe" changeset="3071495">
    <nd ref="476031367"/>
    <nd ref="476031379"/>
    <nd ref="476031383"/>
    <nd ref="476031387"/>
    <nd ref="476031390"/>
    <tag k="highway" v="residential"/>
  </way>
  <way id="44039593" version="2" timestamp="2010-04-16T04:40:26Z" uid="164650" user="doofguru" changeset="4435911">
    <nd ref="257497140"/>
    <nd ref="476031367"/>
    <nd ref="476031379"/>
    <nd ref="476031383"/>
    <nd ref="476031387"/>
    <nd ref="476031390"/>
    <tag k="highway" v="residential"/>
    <tag k="name" v="Oliver Ave"/>
  </way>
  <way id="44039593" version="3" timestamp="2010-06-01T08:08:44Z" uid="4467" user="Rosscoe" changeset="4872520">
    <nd ref="257497140"/>
    <nd ref="476031367"/>
    <nd ref="476031379"/>
    <nd ref="476031383"/>
    <nd ref="476031387"/>
    <nd ref="476031390"/>
    <tag k="highway" v="residential"/>
    <tag k="name" v="Oliver Avenue"/>
  </way>
  <way id="44039593" version="4" timestamp="2010-07-09T05:31:30Z" uid="74617" user="JohnSmith" changeset="5170972">
    <nd ref="257497140"/>
    <nd ref="476031367"/>
    <nd ref="476031379"/>
    <nd ref="476031383"/>
    <nd ref="476031387"/>
    <nd ref="476031390"/>
    <tag k="highway" v="residential"/>
    <tag k="maxspeed" v="50"/>
    <tag k="maxspeed:source" v="default residential speed limit in Australia"/>
    <tag k="name" v="Oliver Avenue"/>
  </way>
  <way id="44039593" version="5" timestamp="2010-07-09T05:39:03Z" uid="74617" user="JohnSmith" changeset="5170972">
    <nd ref="257497140"/>
    <nd ref="476031367"/>
    <nd ref="476031379"/>
    <nd ref="476031383"/>
    <nd ref="476031387"/>
    <nd ref="476031390"/>
    <tag k="highway" v="residential"/>
    <tag k="maxspeed" v="50"/>
    <tag k="maxspeed:source" v="default residential speed limit in Australia"/>
    <tag k="name" v="Oliver Avenue"/>
  </way>
  <way id="44039166" version="7" timestamp="2012-07-19T12:38:59Z" uid="722137" user="OSMF Redaction Account" changeset="12325642">
    <nd ref="559903519"/>
    <nd ref="559903522"/>
    <nd ref="559903526"/>
    <nd ref="559903529"/>
    <nd ref="559903519"/>
    <tag k="addr:city" v="West Perth"/>
    <tag k="addr:country" v="AU"/>
    <tag k="addr:housename" v="10"/>
    <tag k="addr:postcode" v="6005"/>
    <tag k="addr:state" v="WA"/>
    <tag k="addr:street" v="Ord Street"/>
    <tag k="attribution" v="West Perth Business Map www.mineraldata.com.au"/>
    <tag k="building" v="yes"/>
  </way>
  <way id="44039590" version="5" timestamp="2012-07-19T13:14:23Z" uid="722137" user="OSMF Redaction Account" changeset="12328354">
    <nd ref="176250490"/>
    <nd ref="176250482"/>
    <nd ref="176250417"/>
    <tag k="name" v="Beaumont Road"/>
  </way>
  <way id="44039590" version="6" timestamp="2012-08-07T07:26:24Z" uid="1649" user="Chuq" changeset="12641884">
    <nd ref="176250497"/>
    <nd ref="176250511"/>
    <nd ref="176250490"/>
    <nd ref="176250482"/>
    <nd ref="176250417"/>
    <tag k="highway" v="residential"/>
    <tag k="name" v="Beaumont Road"/>
  </way>
  <way id="44039591" version="4" timestamp="2012-07-19T13:14:48Z" uid="722137" user="OSMF Redaction Account" changeset="12328354"/>
  <way id="44039592" version="4" timestamp="2012-07-19T13:04:09Z" uid="722137" user="OSMF Redaction Account" changeset="12327870"/>
  <way id="44039593" version="6" timestamp="2012-07-19T13:04:16Z" uid="722137" user="OSMF Redaction Account" changeset="12327870"/>
</osm>
