<?xml version='1.0' encoding='UTF-8'?>
<osm version="0.6" generator="libosmium/2.20.0">
  <way id="44162389" version="1" timestamp="2009-11-12T02:06:19Z" uid="4467" user="Rosscoe" changeset="3095194">
    <nd ref="561017673"/>
    <nd ref="159171210"/>
    <tag k="highway" v="primary"/>
    <tag k="ref" v="60"/>
  </way>
  <way id="44162389" version="2" timestamp="2011-06-21T00:07:23Z" uid="349913" user="Peter W34" changeset="8500428">
    <nd ref="561017673"/>
    <nd ref="1332877399"/>
    <tag k="alt_name" v="Dawson Highway"/>
    <tag k="highway" v="primary"/>
    <tag k="name" v="Warrijo Street"/>
    <tag k="ref" v="S60"/>
    <tag k="source" v="survey"/>
  </way>
  <way id="44162389" version="3" timestamp="2011-06-21T01:42:17Z" uid="349913" user="Peter W34" changeset="8500789">
    <nd ref="561017673"/>
    <nd ref="1332877399"/>
    <tag k="alt_name" v="Dawson Highway"/>
    <tag k="highway" v="primary"/>
    <tag k="maxspeed" v="50"/>
    <tag k="name" v="Warrijo Street"/>
    <tag k="ref" v="S60"/>
    <tag k="source" v="survey"/>
  </way>
  <way id="44162390" version="1" timestamp="2009-11-12T02:06:19Z" uid="4467" user="Rosscoe" changeset="3095194">
    <nd ref="530516944"/>
    <nd ref="561017675"/>
    <nd ref="460402001"/>
    <nd ref="530516873"/>
    <nd ref="460402000"/>
    <nd ref="561017673"/>
    <tag k="highway" v="primary"/>
    <tag k="oneway" v="yes"/>
    <tag k="ref" v="60"/>
  </way>
  <way id="44162390" version="2" timestamp="2011-06-21T00:07:24Z" uid="349913" user="Peter W34" changeset="8500428">
    <nd ref="530516944"/>
    <nd ref="561017675"/>
    <nd ref="460402001"/>
    <tag k="highway" v="primary"/>
    <tag k="oneway" v="yes"/>
    <tag k="ref" v="60"/>
  </way>
  <way id="44162390" version="3" timestamp="2011-06-21T01:42:18Z" uid="349913" user="Peter W34" changeset="8500789">
    <nd ref="530516944"/>
    <nd ref="561017675"/>
    <nd ref="460402001"/>
    <tag k="highway" v="primary"/>
    <tag k="maxspeed" v="60"/>
    <tag k="name" v="Dawson Highway"/>
    <tag k="oneway" v="yes"/>
    <tag k="ref" v="S60"/>
    <tag k="source" v="survey"/>
  </way>
  <way id="44162391" version="1" timestamp="2009-11-12T02:06:19Z" uid="4467" user="Rosscoe" changeset="3095194">
    <nd ref="561017673"/>
    <nd ref="561017674"/>
    <nd ref="561017676"/>
    <nd ref="561017677"/>
    <nd ref="561017678"/>
    <nd ref="561017679"/>
    <nd ref="530516944"/>
    <tag k="highway" v="primary"/>
    <tag k="oneway" v="yes"/>
    <tag k="ref" v="60"/>
  </way>
  <way id="44162391" version="2" timestamp="2009-11-12T02:22:44Z" uid="4467" user="Rosscoe" changeset="3095223">
    <nd ref="561017673"/>
    <nd ref="561017674"/>
    <nd ref="561017676"/>
    <nd ref="561017677"/>
    <nd ref="561020720"/>
    <nd ref="561017678"/>
    <nd ref="561017679"/>
    <nd ref="530516944"/>
    <tag k="highway" v="primary"/>
    <tag k="oneway" v="yes"/>
    <tag k="ref" v="60"/>
  </way>
  <way id="44162391" version="3" timestamp="2011-01-17T03:03:58Z" uid="4467" user="Rosscoe" changeset="6995848">
    <nd ref="561017673"/>
    <nd ref="561017674"/>
    <nd ref="561017676"/>
    <nd ref="561017677"/>
    <nd ref="561020720"/>
    <nd ref="561017679"/>
    <nd ref="530516944"/>
    <tag k="highway" v="primary"/>
    <tag k="oneway" v="yes"/>
    <tag k="ref" v="60"/>
  </way>
  <way id="44162391" version="4" timestamp="2011-06-21T00:07:24Z" uid="349913" user="Peter W34" changeset="8500428">
    <nd ref="561017673"/>
    <nd ref="561017674"/>
    <nd ref="561017676"/>
    <nd ref="561017677"/>
    <tag k="alt_name" v="Dawson Highway"/>
    <tag k="highway" v="primary"/>
    <tag k="name" v="Warrijo Street"/>
    <tag k="oneway" v="yes"/>
    <tag k="ref" v="S60"/>
    <tag k="source" v="survey"/>
  </way>
  <way id="44162391" version="5" timestamp="2011-06-21T01:42:18Z" uid="349913" user="Peter W34" changeset="8500789">
    <nd ref="561017673"/>
    <nd ref="561017674"/>
    <nd ref="561017676"/>
    <nd ref="561017677"/>
    <tag k="alt_name" v="Dawson Highway"/>
    <tag k="highway" v="primary"/>
    <tag k="maxspeed" v="50"/>
    <tag k="name" v="Warrijo Street"/>
    <tag k="oneway" v="yes"/>
    <tag k="ref" v="S60"/>
    <tag k="source" v="survey"/>
  </way>
  <way id="44162392" version="3" timestamp="2010-04-07T16:49:06Z" uid="20587" user="balrog-kun" changeset="4355544">
    <nd ref="65205053"/>
    <nd ref="65232533"/>
    <nd ref="65275152"/>
    <tag k="highway" v="residential"/>
    <tag k="name" v="Airport Heights Drive"/>
    <tag k="tiger:cfcc" v="A41"/>
    <tag k="tiger:county" v="Anchorage, AK"/>
    <tag k="tiger:name_base" v="Airport Heights"/>
    <tag k="tiger:name_type" v="Dr"/>
    <tag k="tiger:reviewed" v="no"/>
    <tag k="tiger:separated" v="no"/>
    <tag k="tiger:source" v="tiger_import_dch_v0.6_20070809"/>
    <tag k="tiger:tlid" v="190799321:190827029:190799319:190799552:190799379"/>
    <tag k="tiger:zip_left" v="99508"/>
    <tag k="tiger:zip_right" v="99508"/>
  </way>
  <way id="44162402" version="2" timestamp="2010-03-28T11:18:22Z" uid="20587" user="balrog-kun" changeset="4254597">
    <nd ref="561017773"/>
    <nd ref="122647743"/>
    <tag k="highway" v="residential"/>
    <tag k="name" v="Colville Street"/>
    <tag k="tiger:cfcc" v="A41"/>
    <tag k="tiger:county" v="Orange, CA"/>
    <tag k="tiger:name_base" v="Colville"/>
    <tag k="tiger:name_type" v="St"/>
    <tag k="tiger:reviewed" v="no"/>
    <tag k="tiger:separated" v="no"/>
    <tag k="tiger:source" v="tiger_import_dch_v0.6_20070809"/>
    <tag k="tiger:tlid" v="144019205:144019243"/>
    <tag k="tiger:zip_left" v="92708"/>
    <tag k="tiger:zip_right" v="92708"/>
  </way>
  <way id="44162896" version="3" timestamp="2010-03-28T11:18:22Z" uid="20587" user="balrog-kun" changeset="4254597">
    <nd ref="123043848"/>
    <nd ref="267995468"/>
    <nd ref="267995469"/>
    <nd ref="123108642"/>
    <nd ref="122806388"/>
    <nd ref="122592036"/>
    <nd ref="123108649"/>
    <nd ref="123073375"/>
    <nd ref="123108652"/>
    <nd ref="673974965"/>
    <nd ref="122941680"/>
    <tag k="highway" v="primary"/>
    <tag k="name" v="Brookhurst Street"/>
    <tag k="tiger:cfcc" v="A41"/>
    <tag k="tiger:county" v="Orange, CA"/>
    <tag k="tiger:name_base" v="Brookhurst"/>
    <tag k="tiger:name_type" v="St"/>
    <tag k="tiger:separated" v="no"/>
    <tag k="tiger:source" v="tiger_import_dch_v0.6_20070809"/>
    <tag k="tiger:tlid" v="144046436:144046440:144046442:144085415:144085417:144085419:144085411:144045385:144045392:144045408:144252446:144252447:144045141:144045205:144045206:144045207:144045210:144045218:144085346:144085348:144045116:144045119:144045129:144085312:144044763:14404"/>
    <tag k="tiger:zip_left" v="92646"/>
    <tag k="tiger:zip_right" v="92646"/>
  </way>
  <way id="44162897" version="4" timestamp="2010-04-07T16:49:06Z" uid="20587" user="balrog-kun" changeset="4355544">
    <nd ref="555907509"/>
    <nd ref="555907517"/>
    <nd ref="555907527"/>
    <nd ref="314054524"/>
    <nd ref="314054948"/>
    <nd ref="555916984"/>
    <nd ref="555916986"/>
    <nd ref="314056475"/>
    <nd ref="314056509"/>
    <nd ref="555917493"/>
    <nd ref="314056527"/>
    <nd ref="31329435"/>
    <nd ref="314002613"/>
    <nd ref="314002559"/>
    <nd ref="65192967"/>
    <nd ref="31329437"/>
    <nd ref="65192964"/>
    <nd ref="314000727"/>
    <nd ref="314000728"/>
    <nd ref="560663091"/>
    <nd ref="65169473"/>
    <tag k="highway" v="secondary"/>
    <tag k="name" v="A Street"/>
    <tag k="oneway" v="yes"/>
  </way>
  <way id="44162897" version="5" timestamp="2010-11-26T21:29:17Z" uid="119031" user="rsarwas" changeset="6465441">
    <nd ref="555907509"/>
    <nd ref="1006028547"/>
    <nd ref="1006028551"/>
    <nd ref="555907517"/>
    <nd ref="1006028555"/>
    <nd ref="555907527"/>
    <nd ref="314054524"/>
    <nd ref="314054948"/>
    <nd ref="555916984"/>
    <nd ref="555916986"/>
    <nd ref="314056475"/>
    <nd ref="314056509"/>
    <nd ref="555917493"/>
    <nd ref="314056527"/>
    <nd ref="31329435"/>
    <nd ref="314002613"/>
    <nd ref="314002559"/>
    <nd ref="65192967"/>
    <nd ref="31329437"/>
    <nd ref="65192964"/>
    <nd ref="314000727"/>
    <nd ref="314000728"/>
    <nd ref="560663091"/>
    <nd ref="65169473"/>
    <tag k="highway" v="secondary"/>
    <tag k="name" v="A Street"/>
    <tag k="oneway" v="yes"/>
  </way>
  <way id="44162897" version="6" timestamp="2011-05-16T09:16:31Z" uid="316868" user="LexIgnatov" changeset="8160512">
    <nd ref="555907509"/>
    <nd ref="1006028547"/>
    <nd ref="1006028551"/>
    <nd ref="555907517"/>
    <nd ref="1006028555"/>
    <nd ref="555907527"/>
    <nd ref="314054524"/>
    <nd ref="314054948"/>
    <nd ref="555916984"/>
    <nd ref="555916986"/>
    <nd ref="314056475"/>
    <nd ref="314056509"/>
    <nd ref="555917493"/>
    <nd ref="314056527"/>
    <nd ref="31329435"/>
    <nd ref="314002613"/>
    <nd ref="314002559"/>
    <nd ref="65192967"/>
    <nd ref="31329437"/>
    <nd ref="65192964"/>
    <nd ref="314000727"/>
    <nd ref="1287563437"/>
    <nd ref="314000728"/>
    <nd ref="1287563296"/>
    <nd ref="560663091"/>
    <nd ref="1287563201"/>
    <nd ref="65169473"/>
    <tag k="highway" v="secondary"/>
    <tag k="name" v="A Street"/>
    <tag k="oneway" v="yes"/>
  </way>
  <way id="44162389" version="4" timestamp="2012-07-18T09:04:40Z" uid="349913" user="Peter W34" changeset="12276243"/>
  <way id="44162390" version="4" timestamp="2012-07-18T09:04:40Z" uid="349913" user="Peter W34" changeset="12276243"/>
  <way id="44162391" version="6" timestamp="2012-07-18T09:04:40Z" uid="349913" user="Peter W34" changeset="12276243"/>
  <way id="44162896" version="4" timestamp="2012-07-19T03:36:35Z" uid="722137" user="OSMF Redaction Account" changeset="12306928">
    <nd ref="123043848"/>
    <nd ref="123108642"/>
    <nd ref="122806388"/>
    <nd ref="122592036"/>
    <nd ref="123108649"/>
    <nd ref="123073375"/>
    <nd ref="123108652"/>
    <nd ref="673974965"/>
    <nd ref="122941680"/>
    <tag k="highway" v="primary"/>
    <tag k="name" v="Brookhurst Street"/>
    <tag k="tiger:cfcc" v="A41"/>
    <tag k="tiger:county" v="Orange, CA"/>
    <tag k="tiger:name_base" v="Brookhurst"/>
    <tag k="tiger:name_type" v="St"/>
    <tag k="tiger:separated" v="no"/>
    <tag k="tiger:source" v="tiger_import_dch_v0.6_20070809"/>
    <tag k="tiger:tlid" v="144046436:144046440:144046442:144085415:144085417:144085419:144085411:144045385:144045392:144045408:144252446:144252447:144045141:144045205:144045206:144045207:144045210:144045218:144085346:144085348:144045116:144045119:144045129:144085312:144044763:14404"/>
    <tag k="tiger:zip_left" v="92646"/>
    <tag k="tiger:zip_right" v="92646"/>
  </way>
  <way id="44162896" version="5" timestamp="2012-07-26T07:03:05Z" uid="725620" user="Rockear" changeset="12494589">
    <nd ref="123043848"/>
    <nd ref="1838432346"/>
    <nd ref="123108642"/>
    <nd ref="122806388"/>
    <nd ref="122592036"/>
    <nd ref="123108649"/>
    <nd ref="123073375"/>
    <nd ref="123108652"/>
    <nd ref="673974965"/>
    <nd ref="122941680"/>
    <tag k="highway" v="primary"/>
    <tag k="name" v="Brookhurst Street"/>
    <tag k="tiger:cfcc" v="A41"/>
    <tag k="tiger:county" v="Orange, CA"/>
    <tag k="tiger:name_base" v="Brookhurst"/>
    <tag k="tiger:name_type" v="St"/>
    <tag k="tiger:separated" v="no"/>
    <tag k="tiger:source" v="tiger_import_dch_v0.6_20070809"/>
    <tag k="tiger:tlid" v="144046436:144046440:144046442:144085415:144085417:144085419:144085411:144045385:144045392:144045408:144252446:144252447:144045141:144045205:144045206:144045207:144045210:144045218:144085346:144085348:144045116:144045119:144045129:144085312:144044763:14404"/>
    <tag k="tiger:zip_left" v="92646"/>
    <tag k="tiger:zip_right" v="92646"/>
  </way>
  <way id="44162897" version="7" timestamp="2012-08-25T22:57:52Z" uid="451048" user="bbmiller" changeset="12861056">
    <nd ref="555907509"/>
    <nd ref="1006028547"/>
    <nd ref="1006028551"/>
    <nd ref="555907517"/>
    <nd ref="1006028555"/>
    <nd ref="555907527"/>
    <nd ref="314054524"/>
    <nd ref="314054948"/>
    <nd ref="555916984"/>
    <nd ref="555916986"/>
    <nd ref="314056475"/>
    <nd ref="314056509"/>
    <nd ref="1883219294"/>
    <nd ref="555917493"/>
    <nd ref="314056527"/>
    <nd ref="1883219291"/>
    <nd ref="31329435"/>
    <nd ref="314002613"/>
    <nd ref="314002559"/>
    <nd ref="65192967"/>
    <nd ref="31329437"/>
    <nd ref="65192964"/>
    <nd ref="314000727"/>
    <nd ref="1287563437"/>
    <nd ref="314000728"/>
    <nd ref="1287563296"/>
    <nd ref="560663091"/>
    <nd ref="1287563201"/>
    <nd ref="65169473"/>
    <tag k="highway" v="secondary"/>
    <tag k="name" v="A Street"/>
    <tag k="oneway" v="yes"/>
  </way>
  <way id="44162897" version="8" timestamp="2012-08-25T23:01:10Z" uid="451048" user="bbmiller" changeset="12861056">
    <nd ref="555907509"/>
    <nd ref="1006028547"/>
    <nd ref="1006028551"/>
    <nd ref="555907517"/>
    <nd ref="1006028555"/>
    <nd ref="555907527"/>
    <nd ref="314054524"/>
    <nd ref="314054948"/>
    <nd ref="555916984"/>
    <nd ref="555916986"/>
    <nd ref="314056475"/>
    <nd ref="314056509"/>
    <nd ref="1883219294"/>
    <nd ref="555917493"/>
    <nd ref="314056527"/>
    <nd ref="1883219291"/>
    <nd ref="1883221081"/>
    <nd ref="314002613"/>
    <nd ref="314002559"/>
    <nd ref="65192967"/>
    <nd ref="31329437"/>
    <nd ref="65192964"/>
    <nd ref="314000727"/>
    <nd ref="1287563437"/>
    <nd ref="314000728"/>
    <nd ref="1287563296"/>
    <nd ref="560663091"/>
    <nd ref="1287563201"/>
    <nd ref="65169473"/>
    <tag k="highway" v="secondary"/>
    <tag k="name" v="A Street"/>
    <tag k="oneway" v="yes"/>
  </way>
</osm>
