<?xml version='1.0' encoding='UTF-8'?>
<osm version="0.6" generator="libosmium/2.20.0">
  <way id="44160025" version="1" timestamp="2009-11-12T01:25:35Z" uid="103576" user="DiverCTH" changeset="3095070">
    <nd ref="561005185"/>
    <nd ref="561005180"/>
    <nd ref="561005178"/>
    <nd ref="561005182"/>
    <nd ref="561005185"/>
    <tag k="addr:city" v="Atlanta"/>
    <tag k="addr:country" v="US"/>
    <tag k="addr:housenumber" v="1215"/>
    <tag k="addr:phone" v="+1-404-378-0064"/>
    <tag k="addr:postcode" v="30306"/>
    <tag k="addr:street" v="Ponce De Leon Avenue Northeast"/>
    <tag k="amenity" v="school"/>
    <tag k="name" v="The Atlanta Boy Choir"/>
  </way>
  <way id="44160025" version="2" timestamp="2010-05-01T05:35:45Z" uid="110639" user="aighes" changeset="4571675">
    <nd ref="561005185"/>
    <nd ref="561005180"/>
    <nd ref="561005178"/>
    <nd ref="561005182"/>
    <nd ref="561005185"/>
    <tag k="addr:city" v="Atlanta"/>
    <tag k="addr:country" v="US"/>
    <tag k="addr:housenumber" v="1215"/>
    <tag k="addr:postcode" v="30306"/>
    <tag k="addr:street" v="Ponce De Leon Avenue Northeast"/>
    <tag k="amenity" v="school"/>
    <tag k="name" v="The Atlanta Boy Choir"/>
    <tag k="phone" v="+1-404-378-0064"/>
  </way>
  <way id="44160074" version="3" timestamp="2011-03-05T00:19:17Z" uid="4467" user="Rosscoe" changeset="7459426">
    <nd ref="561010426"/>
    <nd ref="561014517"/>
    <nd ref="561010430"/>
    <nd ref="561010432"/>
    <nd ref="561010435"/>
    <nd ref="561010436"/>
    <nd ref="561010445"/>
    <nd ref="561010447"/>
    <nd ref="561010449"/>
    <nd ref="561010451"/>
    <nd ref="561010454"/>
    <nd ref="561010458"/>
    <nd ref="561010460"/>
    <nd ref="561010426"/>
    <tag k="amenity" v="parking"/>
  </way>
  <way id="44160074" version="4" timestamp="2011-04-08T02:15:44Z" uid="11111" user="melb_guy" changeset="7800204">
    <nd ref="561010426"/>
    <nd ref="1236847485"/>
    <nd ref="1236847487"/>
    <nd ref="1236847479"/>
    <nd ref="561010430"/>
    <nd ref="561010432"/>
    <nd ref="561010435"/>
    <nd ref="561010436"/>
    <nd ref="561010445"/>
    <nd ref="561010447"/>
    <nd ref="561010449"/>
    <nd ref="561010451"/>
    <nd ref="561010454"/>
    <nd ref="561010458"/>
    <nd ref="561010460"/>
    <nd ref="561010426"/>
    <tag k="amenity" v="parking"/>
  </way>
  <way id="44160120" version="7" timestamp="2010-04-07T16:49:03Z" uid="20587" user="balrog-kun" changeset="4355544">
    <nd ref="561010884"/>
    <nd ref="561010877"/>
    <tag k="bridge" v="yes"/>
    <tag k="highway" v="secondary"/>
    <tag k="layer" v="1"/>
    <tag k="name" v="South Bragaw Street"/>
    <tag k="oneway" v="yes"/>
    <tag k="tiger:cfcc" v="A41"/>
    <tag k="tiger:county" v="Anchorage, AK"/>
    <tag k="tiger:name_base" v="Bragaw"/>
    <tag k="tiger:name_direction_prefix" v="S"/>
    <tag k="tiger:name_type" v="St"/>
    <tag k="tiger:source" v="tiger_import_dch_v0.6_20070809"/>
    <tag k="tiger:tlid" v="190801800:190801790:190820533:190820534:190820510:190820511:190820519:190820527:190801784:190801786:190801788:190823191:190823192:190801550:190801552:190823475:190823476:190801549:190801560:190801565"/>
    <tag k="tiger:zip_left" v="99508"/>
    <tag k="tiger:zip_right" v="99508"/>
  </way>
  <way id="44160153" version="4" timestamp="2010-04-07T16:49:03Z" uid="20587" user="balrog-kun" changeset="4355544">
    <nd ref="65209677"/>
    <nd ref="65209676"/>
    <nd ref="65209675"/>
    <nd ref="65209673"/>
    <nd ref="65186694"/>
    <nd ref="65209669"/>
    <nd ref="65157819"/>
    <nd ref="65157784"/>
    <nd ref="65166612"/>
    <nd ref="65209668"/>
    <nd ref="65157670"/>
    <nd ref="65205089"/>
    <nd ref="65175575"/>
    <nd ref="65209664"/>
    <nd ref="65209661"/>
    <nd ref="65209658"/>
    <nd ref="65172118"/>
    <nd ref="65209656"/>
    <nd ref="65209653"/>
    <nd ref="65169044"/>
    <nd ref="65188570"/>
    <nd ref="561012015"/>
    <nd ref="561010884"/>
    <tag k="highway" v="secondary"/>
    <tag k="name" v="South Bragaw Street"/>
    <tag k="oneway" v="yes"/>
    <tag k="tiger:cfcc" v="A41"/>
    <tag k="tiger:county" v="Anchorage, AK"/>
    <tag k="tiger:name_base" v="Bragaw"/>
    <tag k="tiger:name_direction_prefix" v="S"/>
    <tag k="tiger:name_type" v="St"/>
    <tag k="tiger:reviewed" v="no"/>
    <tag k="tiger:separated" v="no"/>
    <tag k="tiger:source" v="tiger_import_dch_v0.6_20070809"/>
    <tag k="tiger:tlid" v="190801800:190801790:190820533:190820534:190820510:190820511:190820519:190820527:190801784:190801786:190801788:190823191:190823192:190801550:190801552:190823475:190823476:190801549:190801560:190801565"/>
    <tag k="tiger:zip_left" v="99508"/>
    <tag k="tiger:zip_right" v="99508"/>
  </way>
  <way id="44160153" version="5" timestamp="2010-08-08T23:13:02Z" uid="119031" user="rsarwas" changeset="5438976">
    <nd ref="561010884"/>
    <nd ref="561012015"/>
    <nd ref="65188570"/>
    <nd ref="65169044"/>
    <nd ref="65209653"/>
    <nd ref="65209656"/>
    <nd ref="65172118"/>
    <nd ref="65209658"/>
    <nd ref="65209661"/>
    <nd ref="65209664"/>
    <nd ref="65175575"/>
    <nd ref="65205089"/>
    <nd ref="65157670"/>
    <nd ref="65209668"/>
    <nd ref="65166612"/>
    <nd ref="65157784"/>
    <nd ref="65157819"/>
    <nd ref="65209669"/>
    <nd ref="65186694"/>
    <nd ref="65209673"/>
    <nd ref="65209675"/>
    <nd ref="65209676"/>
    <nd ref="850194101"/>
    <nd ref="65209677"/>
    <tag k="highway" v="secondary"/>
    <tag k="name" v="South Bragaw Street"/>
    <tag k="oneway" v="yes"/>
    <tag k="tiger:cfcc" v="A41"/>
    <tag k="tiger:county" v="Anchorage, AK"/>
    <tag k="tiger:name_base" v="Bragaw"/>
    <tag k="tiger:name_direction_prefix" v="S"/>
    <tag k="tiger:name_type" v="St"/>
    <tag k="tiger:reviewed" v="no"/>
    <tag k="tiger:separated" v="no"/>
    <tag k="tiger:source" v="tiger_import_dch_v0.6_20070809"/>
    <tag k="tiger:tlid" v="190801800:190801790:190820533:190820534:190820510:190820511:190820519:190820527:190801784:190801786:190801788:190823191:190823192:190801550:190801552:190823475:190823476:190801549:190801560:190801565"/>
    <tag k="tiger:zip_left" v="99508"/>
    <tag k="tiger:zip_right" v="99508"/>
  </way>
  <way id="44160268" version="5" timestamp="2010-04-07T16:49:04Z" uid="20587" user="balrog-kun" changeset="4355544">
    <nd ref="561007913"/>
    <nd ref="561010280"/>
    <tag k="highway" v="secondary"/>
    <tag k="name" v="South Bragaw Street"/>
    <tag k="oneway" v="yes"/>
    <tag k="tiger:cfcc" v="A41"/>
    <tag k="tiger:county" v="Anchorage, AK"/>
    <tag k="tiger:name_base" v="Bragaw"/>
    <tag k="tiger:name_direction_prefix" v="S"/>
    <tag k="tiger:name_type" v="St"/>
    <tag k="tiger:source" v="tiger_import_dch_v0.6_20070809"/>
    <tag k="tiger:tlid" v="190801800:190801790:190820533:190820534:190820510:190820511:190820519:190820527:190801784:190801786:190801788:190823191:190823192:190801550:190801552:190823475:190823476:190801549:190801560:190801565"/>
    <tag k="tiger:zip_left" v="99508"/>
    <tag k="tiger:zip_right" v="99508"/>
  </way>
  <way id="44160280" version="5" timestamp="2010-04-07T16:49:04Z" uid="20587" user="balrog-kun" changeset="4355544">
    <nd ref="561010280"/>
    <nd ref="561010439"/>
    <tag k="bridge" v="yes"/>
    <tag k="highway" v="secondary"/>
    <tag k="layer" v="1"/>
    <tag k="name" v="South Bragaw Street"/>
    <tag k="oneway" v="yes"/>
    <tag k="tiger:cfcc" v="A41"/>
    <tag k="tiger:county" v="Anchorage, AK"/>
    <tag k="tiger:name_base" v="Bragaw"/>
    <tag k="tiger:name_direction_prefix" v="S"/>
    <tag k="tiger:name_type" v="St"/>
    <tag k="tiger:source" v="tiger_import_dch_v0.6_20070809"/>
    <tag k="tiger:tlid" v="190801800:190801790:190820533:190820534:190820510:190820511:190820519:190820527:190801784:190801786:190801788:190823191:190823192:190801550:190801552:190823475:190823476:190801549:190801560:190801565"/>
    <tag k="tiger:zip_left" v="99508"/>
    <tag k="tiger:zip_right" v="99508"/>
  </way>
  <way id="44160928" version="2" timestamp="2010-03-28T11:18:17Z" uid="20587" user="balrog-kun" changeset="4254597">
    <nd ref="122776841"/>
    <nd ref="122776848"/>
    <nd ref="122776849"/>
    <nd ref="122719843"/>
    <nd ref="122776851"/>
    <nd ref="122776855"/>
    <nd ref="122776858"/>
    <nd ref="122776860"/>
    <nd ref="122776863"/>
    <tag k="highway" v="residential"/>
    <tag k="name" v="Florida Street"/>
    <tag k="tiger:cfcc" v="A41"/>
    <tag k="tiger:county" v="Orange, CA"/>
    <tag k="tiger:name_base" v="Florida"/>
    <tag k="tiger:name_type" v="St"/>
    <tag k="tiger:reviewed" v="no"/>
    <tag k="tiger:separated" v="no"/>
    <tag k="tiger:source" v="tiger_import_dch_v0.6_20070809"/>
    <tag k="tiger:tlid" v="144020199:144262370:144262371:144018745:144020204:144020206:144020208:144020210"/>
    <tag k="tiger:zip_left" v="92648"/>
  </way>
  <way id="44160941" version="3" timestamp="2010-03-28T11:18:17Z" uid="20587" user="balrog-kun" changeset="4254597">
    <nd ref="419402209"/>
    <nd ref="419402292"/>
    <nd ref="561012731"/>
    <nd ref="419402361"/>
    <nd ref="560815322"/>
    <nd ref="419402365"/>
    <nd ref="335356137"/>
    <nd ref="19345139"/>
    <nd ref="335356155"/>
    <nd ref="122640186"/>
    <nd ref="122647678"/>
    <nd ref="335355181"/>
    <tag k="highway" v="primary"/>
    <tag k="name" v="Beach Boulevard"/>
    <tag k="ref" v="CA 39"/>
  </way>
  <way id="44160941" version="4" timestamp="2010-06-14T16:30:35Z" uid="239998" user="Sundance" changeset="4988972"/>
  <way id="44160974" version="3" timestamp="2010-03-28T11:18:17Z" uid="20587" user="balrog-kun" changeset="4254597">
    <nd ref="335355181"/>
    <nd ref="561017808"/>
    <nd ref="335353524"/>
    <nd ref="28937935"/>
    <nd ref="122998038"/>
    <nd ref="122978308"/>
    <nd ref="122974560"/>
    <nd ref="122766888"/>
    <nd ref="122950755"/>
    <nd ref="122894852"/>
    <nd ref="561011900"/>
    <nd ref="123067414"/>
    <nd ref="122637242"/>
    <nd ref="60410267"/>
    <nd ref="122956324"/>
    <nd ref="332101512"/>
    <nd ref="122918561"/>
    <nd ref="122810990"/>
    <nd ref="122823897"/>
    <nd ref="122811801"/>
    <nd ref="122728691"/>
    <nd ref="122777432"/>
    <nd ref="123003120"/>
    <nd ref="123039332"/>
    <nd ref="122708752"/>
    <nd ref="19345147"/>
    <nd ref="34670907"/>
    <nd ref="34670908"/>
    <nd ref="19345150"/>
    <tag k="highway" v="primary"/>
    <tag k="name" v="Beach Boulevard"/>
    <tag k="ref" v="CA 39"/>
  </way>
  <way id="44160974" version="4" timestamp="2010-06-14T16:30:02Z" uid="239998" user="Sundance" changeset="4988972">
    <nd ref="19345150"/>
    <nd ref="34670908"/>
    <nd ref="34670907"/>
    <nd ref="19345147"/>
    <nd ref="122708752"/>
    <nd ref="123039332"/>
    <nd ref="123003120"/>
    <nd ref="122777432"/>
    <nd ref="122728691"/>
    <nd ref="122811801"/>
    <nd ref="122823897"/>
    <nd ref="122810990"/>
    <nd ref="122918561"/>
    <nd ref="332101512"/>
    <nd ref="122956324"/>
    <nd ref="60410267"/>
    <nd ref="122637242"/>
    <nd ref="123067414"/>
    <nd ref="561011900"/>
    <nd ref="122894852"/>
    <nd ref="122950755"/>
    <nd ref="122766888"/>
    <nd ref="122974560"/>
    <nd ref="122978308"/>
    <nd ref="122998038"/>
    <nd ref="28937935"/>
    <nd ref="335353524"/>
    <nd ref="772792947"/>
    <nd ref="561017808"/>
    <nd ref="335355181"/>
    <nd ref="122647678"/>
    <tag k="highway" v="primary"/>
    <tag k="name" v="Beach Boulevard"/>
    <tag k="name_1" v="State Route 39"/>
    <tag k="oneway" v="yes"/>
    <tag k="ref" v="CA 39"/>
  </way>
  <way id="44160974" version="5" timestamp="2011-03-03T23:13:44Z" uid="101657" user="ponzu" changeset="7450764">
    <nd ref="19345150"/>
    <nd ref="34670908"/>
    <nd ref="34670907"/>
    <tag k="highway" v="primary"/>
    <tag k="name" v="Beach Boulevard"/>
    <tag k="name_1" v="State Route 39"/>
    <tag k="oneway" v="yes"/>
    <tag k="ref" v="CA 39"/>
  </way>
  <way id="44160974" version="6" timestamp="2011-08-07T11:06:55Z" uid="207745" user="NE2" changeset="8945765">
    <nd ref="19345150"/>
    <nd ref="34670908"/>
    <nd ref="34670907"/>
    <tag k="highway" v="primary"/>
    <tag k="name" v="Beach Boulevard"/>
    <tag k="oneway" v="yes"/>
    <tag k="ref" v="CA 39"/>
  </way>
  <way id="44160025" version="3" timestamp="2012-07-18T14:08:58Z" uid="722137" user="OSMF Redaction Account" changeset="12284483"/>
  <way id="44160153" version="6" timestamp="2012-08-31T16:07:51Z" uid="451048" user="bbmiller" changeset="12932062">
    <nd ref="1891793735"/>
    <nd ref="65186694"/>
    <nd ref="65209673"/>
    <nd ref="65209676"/>
    <nd ref="850194101"/>
    <nd ref="65209677"/>
    <tag k="highway" v="secondary"/>
    <tag k="name" v="South Bragaw Street"/>
    <tag k="oneway" v="yes"/>
    <tag k="tiger:cfcc" v="A41"/>
    <tag k="tiger:county" v="Anchorage, AK"/>
    <tag k="tiger:name_base" v="Bragaw"/>
    <tag k="tiger:name_direction_prefix" v="S"/>
    <tag k="tiger:name_type" v="St"/>
    <tag k="tiger:reviewed" v="no"/>
    <tag k="tiger:separated" v="no"/>
    <tag k="tiger:source" v="tiger_import_dch_v0.6_20070809"/>
    <tag k="tiger:tlid" v="190801800:190801790:190820533:190820534:190820510:190820511:190820519:190820527:190801784:190801786:190801788:190823191:190823192:190801550:190801552:190823475:190823476:190801549:190801560:190801565"/>
    <tag k="tiger:zip_left" v="99508"/>
    <tag k="tiger:zip_right" v="99508"/>
  </way>
</osm>
