<?xml version='1.0' encoding='UTF-8'?>
<osm version="0.6" generator="libosmium/2.20.0">
  <way id="44221231" version="2" timestamp="2011-03-09T22:17:18Z" uid="66036" user="h4v" changeset="7509377">
    <nd ref="561610447"/>
    <nd ref="561611734"/>
    <nd ref="561613218"/>
    <nd ref="561608778"/>
    <tag k="highway" v="residential"/>
    <tag k="name" v="Akademicka"/>
  </way>
  <way id="44221241" version="2" timestamp="2011-03-09T22:17:01Z" uid="66036" user="h4v" changeset="7509377">
    <nd ref="561611734"/>
    <nd ref="304693914"/>
    <tag k="highway" v="residential"/>
    <tag k="name" v="Jodowa"/>
  </way>
  <way id="44221280" version="2" timestamp="2011-03-09T22:17:11Z" uid="66036" user="h4v" changeset="7509377">
    <nd ref="561615281"/>
    <nd ref="1194694780"/>
    <nd ref="561613225"/>
    <tag k="highway" v="residential"/>
    <tag k="name" v="Mosiężna"/>
  </way>
  <way id="44221282" version="2" timestamp="2011-03-09T22:17:17Z" uid="66036" user="h4v" changeset="7509377">
    <nd ref="561617933"/>
    <nd ref="1194694820"/>
    <nd ref="561617939"/>
    <tag k="highway" v="residential"/>
    <tag k="name" v="Metalowa"/>
  </way>
  <way id="44221357" version="2" timestamp="2011-03-09T22:17:19Z" uid="66036" user="h4v" changeset="7509377"/>
  <way id="44221358" version="2" timestamp="2011-03-09T22:17:18Z" uid="66036" user="h4v" changeset="7509377">
    <nd ref="561610447"/>
    <nd ref="1194694757"/>
    <nd ref="1194694708"/>
    <nd ref="561631992"/>
    <tag k="highway" v="residential"/>
    <tag k="name" v="Słowicza"/>
  </way>
  <way id="44221367" version="2" timestamp="2011-03-09T22:17:10Z" uid="66036" user="h4v" changeset="7509377">
    <nd ref="561631992"/>
    <nd ref="561633305"/>
    <nd ref="561633309"/>
    <tag k="highway" v="residential"/>
    <tag k="name" v="Dojazdowa"/>
  </way>
  <way id="44221397" version="3" timestamp="2011-03-09T22:16:53Z" uid="66036" user="h4v" changeset="7509377">
    <nd ref="561631992"/>
    <nd ref="561636729"/>
    <tag k="highway" v="residential"/>
    <tag k="name" v="Teodora Tomasza Jeża"/>
  </way>
  <way id="44221403" version="2" timestamp="2011-03-09T22:16:48Z" uid="66036" user="h4v" changeset="7509377">
    <nd ref="561638051"/>
    <nd ref="561638744"/>
    <nd ref="561631992"/>
    <tag k="highway" v="residential"/>
    <tag k="name" v="Dojazdowa"/>
  </way>
  <way id="44221409" version="3" timestamp="2011-03-09T22:17:15Z" uid="66036" user="h4v" changeset="7509377">
    <nd ref="561639211"/>
    <nd ref="561638744"/>
    <tag k="highway" v="residential"/>
    <tag k="name" v="Szpacza"/>
  </way>
  <way id="44221415" version="5" timestamp="2010-01-11T09:37:17Z" uid="61114" user="Trav" changeset="3594449">
    <nd ref="561639478"/>
    <nd ref="604277888"/>
    <nd ref="561639485"/>
    <nd ref="561639494"/>
    <nd ref="604277886"/>
    <nd ref="604277885"/>
    <nd ref="561639497"/>
    <nd ref="611598518"/>
    <nd ref="561639501"/>
    <nd ref="611598524"/>
    <nd ref="561639504"/>
    <nd ref="604277887"/>
    <nd ref="561639478"/>
    <tag k="addr:city" v="Artarmon"/>
    <tag k="addr:country" v="AU"/>
    <tag k="addr:housenumber" v="71"/>
    <tag k="addr:postcode" v="2064"/>
    <tag k="addr:state" v="NSW"/>
    <tag k="addr:street" v="Reserve Road"/>
    <tag k="building" v="yes"/>
    <tag k="name" v="Bunnings"/>
    <tag k="shop" v="doityourself"/>
    <tag k="source" v="nearmap"/>
    <tag k="website" v="http://www.bunnings.com.au/"/>
  </way>
  <way id="44221415" version="6" timestamp="2010-03-27T05:52:17Z" uid="61114" user="Trav" changeset="4243728">
    <nd ref="561639478"/>
    <nd ref="604277888"/>
    <nd ref="561639485"/>
    <nd ref="561639494"/>
    <nd ref="604277886"/>
    <nd ref="604277885"/>
    <nd ref="561639497"/>
    <nd ref="611598518"/>
    <nd ref="561639501"/>
    <nd ref="611598524"/>
    <nd ref="561639504"/>
    <nd ref="604277887"/>
    <nd ref="561639478"/>
    <tag k="addr:city" v="Artarmon"/>
    <tag k="addr:country" v="AU"/>
    <tag k="addr:housenumber" v="71"/>
    <tag k="addr:postcode" v="2064"/>
    <tag k="addr:state" v="NSW"/>
    <tag k="addr:street" v="Reserve Road"/>
    <tag k="amenity:parking" v="customer"/>
    <tag k="building" v="yes"/>
    <tag k="name" v="Bunnings"/>
    <tag k="shop" v="doityourself"/>
    <tag k="source" v="nearmap"/>
    <tag k="website" v="http://www.bunnings.com.au/"/>
  </way>
  <way id="44221415" version="7" timestamp="2012-03-12T05:21:29Z" uid="7523" user="inas" changeset="10950679"/>
  <way id="44221231" version="3" timestamp="2012-07-24T13:35:09Z" uid="722137" user="OSMF Redaction Account" changeset="12466789"/>
  <way id="44221241" version="3" timestamp="2012-07-24T13:35:09Z" uid="722137" user="OSMF Redaction Account" changeset="12466789"/>
  <way id="44221280" version="3" timestamp="2012-07-24T13:35:10Z" uid="722137" user="OSMF Redaction Account" changeset="12466789"/>
  <way id="44221282" version="3" timestamp="2012-07-24T13:35:09Z" uid="722137" user="OSMF Redaction Account" changeset="12466789"/>
  <way id="44221358" version="3" timestamp="2012-07-24T13:35:09Z" uid="722137" user="OSMF Redaction Account" changeset="12466789"/>
  <way id="44221367" version="3" timestamp="2012-07-24T13:35:10Z" uid="722137" user="OSMF Redaction Account" changeset="12466789"/>
  <way id="44221397" version="4" timestamp="2012-07-24T13:35:10Z" uid="722137" user="OSMF Redaction Account" changeset="12466789"/>
  <way id="44221403" version="3" timestamp="2012-07-24T13:35:10Z" uid="722137" user="OSMF Redaction Account" changeset="12466789"/>
  <way id="44221409" version="4" timestamp="2012-07-24T13:35:11Z" uid="722137" user="OSMF Redaction Account" changeset="12466789"/>
</osm>
