<?xml version='1.0' encoding='UTF-8'?>
<osm version="0.6" generator="libosmium/2.20.0">
  <way id="44296115" version="2" timestamp="2010-03-28T11:19:31Z" uid="20587" user="balrog-kun" changeset="4254597">
    <nd ref="562648940"/>
    <nd ref="562648941"/>
    <nd ref="562648943"/>
    <nd ref="562648951"/>
    <nd ref="122707717"/>
    <tag k="highway" v="secondary"/>
    <tag k="name" v="Citrus Street"/>
    <tag k="note" v="Land records and signs say St. TIGER says Ave."/>
    <tag k="oneway" v="yes"/>
    <tag k="source" v="usgs_imagery"/>
  </way>
  <way id="44296116" version="2" timestamp="2010-03-28T11:19:31Z" uid="20587" user="balrog-kun" changeset="4254597">
    <nd ref="122480287"/>
    <nd ref="562648921"/>
    <nd ref="562648923"/>
    <nd ref="562648917"/>
    <nd ref="562648886"/>
    <nd ref="562648887"/>
    <nd ref="417995005"/>
    <nd ref="562648885"/>
    <nd ref="122810660"/>
    <tag k="highway" v="secondary"/>
    <tag k="layer" v="-1"/>
    <tag k="name" v="Citrus Street"/>
    <tag k="note" v="Land records and signs say St. TIGER says Ave."/>
    <tag k="oneway" v="yes"/>
    <tag k="source" v="usgs_imagery"/>
  </way>
  <way id="44296116" version="3" timestamp="2010-04-30T05:26:00Z" uid="207745" user="NE2" changeset="4563211">
    <nd ref="122480287"/>
    <nd ref="562648921"/>
    <nd ref="562648923"/>
    <nd ref="562648917"/>
    <nd ref="562648886"/>
    <nd ref="562648887"/>
    <nd ref="417995005"/>
    <nd ref="562648885"/>
    <nd ref="122810660"/>
    <tag k="highway" v="secondary"/>
    <tag k="name" v="Citrus Street"/>
    <tag k="note" v="Land records and signs say St. TIGER says Ave."/>
    <tag k="oneway" v="yes"/>
    <tag k="source" v="usgs_imagery"/>
  </way>
  <way id="44296117" version="4" timestamp="2010-03-28T11:19:32Z" uid="20587" user="balrog-kun" changeset="4254597">
    <nd ref="122741093"/>
    <nd ref="123432760"/>
    <nd ref="123091730"/>
    <nd ref="122534682"/>
    <nd ref="123578216"/>
    <nd ref="123578218"/>
    <nd ref="123578222"/>
    <nd ref="636567301"/>
    <nd ref="373526857"/>
    <nd ref="472532238"/>
    <nd ref="373526847"/>
    <nd ref="123231741"/>
    <nd ref="122646753"/>
    <nd ref="123085762"/>
    <nd ref="123578233"/>
    <nd ref="122634641"/>
    <nd ref="123231443"/>
    <nd ref="122559148"/>
    <nd ref="123039768"/>
    <nd ref="122952276"/>
    <nd ref="123578235"/>
    <nd ref="123578238"/>
    <nd ref="122794571"/>
    <nd ref="123578248"/>
    <nd ref="122639278"/>
    <tag k="highway" v="primary"/>
    <tag k="name" v="North Azusa Avenue"/>
    <tag k="ref" v="CA 39"/>
    <tag k="tiger:cfcc" v="A31"/>
    <tag k="tiger:county" v="Los Angeles, CA"/>
    <tag k="tiger:name_base" v="Azusa"/>
    <tag k="tiger:name_base_1" v="State Highway 39"/>
    <tag k="tiger:name_direction_prefix" v="N"/>
    <tag k="tiger:name_type" v="Ave"/>
    <tag k="tiger:separated" v="no"/>
    <tag k="tiger:source" v="tiger_import_dch_v0.6_20070809"/>
    <tag k="tiger:tlid" v="141709515:141709539:141709542:141714883:141714884:142238704:142238705:141714911:141714912:141714914:141714918:141714886:142675002"/>
  </way>
  <way id="44296117" version="5" timestamp="2010-11-22T04:52:22Z" uid="194231" user="Chris Bell in California" changeset="6428825">
    <nd ref="122741093"/>
    <nd ref="123432760"/>
    <nd ref="123091730"/>
    <nd ref="122534682"/>
    <nd ref="123578216"/>
    <nd ref="123578218"/>
    <nd ref="123578222"/>
    <nd ref="636567301"/>
    <nd ref="373526857"/>
    <nd ref="472532238"/>
    <nd ref="373526847"/>
    <nd ref="123231741"/>
    <nd ref="122646753"/>
    <nd ref="123085762"/>
    <nd ref="123578233"/>
    <nd ref="122634641"/>
    <nd ref="123231443"/>
    <nd ref="122559148"/>
    <nd ref="123039768"/>
    <nd ref="122952276"/>
    <nd ref="123578235"/>
    <nd ref="999042341"/>
    <tag k="highway" v="primary"/>
    <tag k="name" v="North Azusa Avenue"/>
    <tag k="ref" v="CA 39"/>
    <tag k="tiger:cfcc" v="A31"/>
    <tag k="tiger:county" v="Los Angeles, CA"/>
    <tag k="tiger:name_base" v="Azusa"/>
    <tag k="tiger:name_base_1" v="State Highway 39"/>
    <tag k="tiger:name_direction_prefix" v="N"/>
    <tag k="tiger:name_type" v="Ave"/>
    <tag k="tiger:separated" v="no"/>
    <tag k="tiger:source" v="tiger_import_dch_v0.6_20070809"/>
    <tag k="tiger:tlid" v="141709515:141709539:141709542:141714883:141714884:142238704:142238705:141714911:141714912:141714914:141714918:141714886:142675002"/>
  </way>
  <way id="44296117" version="6" timestamp="2011-06-27T14:51:17Z" uid="473471" user="NE3" changeset="8562928">
    <nd ref="122741093"/>
    <nd ref="123432760"/>
    <nd ref="123091730"/>
    <nd ref="122534682"/>
    <nd ref="123578216"/>
    <nd ref="123578218"/>
    <nd ref="123578222"/>
    <nd ref="636567301"/>
    <nd ref="373526857"/>
    <nd ref="472532238"/>
    <nd ref="373526847"/>
    <nd ref="123231741"/>
    <nd ref="122646753"/>
    <nd ref="123085762"/>
    <nd ref="123578233"/>
    <nd ref="122634641"/>
    <nd ref="123231443"/>
    <nd ref="122559148"/>
    <nd ref="123039768"/>
    <nd ref="122952276"/>
    <nd ref="123578235"/>
    <nd ref="999042341"/>
    <tag k="FIXME" v="dual carriageway"/>
    <tag k="highway" v="primary"/>
    <tag k="lanes" v="4"/>
    <tag k="name" v="North Azusa Avenue"/>
    <tag k="ref" v="CA 39"/>
    <tag k="tiger:cfcc" v="A31"/>
    <tag k="tiger:county" v="Los Angeles, CA"/>
    <tag k="tiger:name_base" v="Azusa"/>
    <tag k="tiger:name_base_1" v="State Highway 39"/>
    <tag k="tiger:name_direction_prefix" v="N"/>
    <tag k="tiger:name_type" v="Ave"/>
    <tag k="tiger:separated" v="no"/>
    <tag k="tiger:source" v="tiger_import_dch_v0.6_20070809"/>
    <tag k="tiger:tlid" v="141709515:141709539:141709542:141714883:141714884:142238704:142238705:141714911:141714912:141714914:141714918:141714886:142675002"/>
  </way>
  <way id="44296119" version="2" timestamp="2010-03-28T11:19:32Z" uid="20587" user="balrog-kun" changeset="4254597">
    <nd ref="122662354"/>
    <nd ref="562826753"/>
    <nd ref="122510076"/>
    <nd ref="417988849"/>
    <tag k="highway" v="primary"/>
    <tag k="name" v="South Azusa Avenue"/>
    <tag k="oneway" v="yes"/>
    <tag k="ref" v="CA 39"/>
    <tag k="tiger:cfcc" v="A41"/>
    <tag k="tiger:county" v="Los Angeles, CA"/>
    <tag k="tiger:name_base" v="Azusa"/>
    <tag k="tiger:name_direction_prefix" v="S"/>
    <tag k="tiger:name_type" v="Ave"/>
    <tag k="tiger:separated" v="no"/>
    <tag k="tiger:source" v="tiger_import_dch_v0.6_20070809"/>
    <tag k="tiger:tlid" v="141770322:141716416:141716423:141813673:141819564:142667502:142667503"/>
    <tag k="tiger:zip_left" v="91791"/>
    <tag k="tiger:zip_right" v="91791"/>
  </way>
  <way id="44296119" version="3" timestamp="2011-06-27T14:50:39Z" uid="473471" user="NE3" changeset="8562928">
    <nd ref="122662354"/>
    <nd ref="562826753"/>
    <nd ref="122510076"/>
    <nd ref="417988849"/>
    <tag k="highway" v="primary"/>
    <tag k="lanes" v="3"/>
    <tag k="name" v="South Azusa Avenue"/>
    <tag k="oneway" v="yes"/>
    <tag k="ref" v="CA 39"/>
    <tag k="tiger:cfcc" v="A41"/>
    <tag k="tiger:county" v="Los Angeles, CA"/>
    <tag k="tiger:name_base" v="Azusa"/>
    <tag k="tiger:name_direction_prefix" v="S"/>
    <tag k="tiger:name_type" v="Ave"/>
    <tag k="tiger:separated" v="no"/>
    <tag k="tiger:source" v="tiger_import_dch_v0.6_20070809"/>
    <tag k="tiger:tlid" v="141770322:141716416:141716423:141813673:141819564:142667502:142667503"/>
    <tag k="tiger:zip_left" v="91791"/>
    <tag k="tiger:zip_right" v="91791"/>
  </way>
  <way id="44296119" version="4" timestamp="2011-08-08T23:05:01Z" uid="207745" user="NE2" changeset="8962612">
    <nd ref="122662354"/>
    <nd ref="562826753"/>
    <nd ref="122510076"/>
    <nd ref="417988849"/>
    <tag k="highway" v="primary"/>
    <tag k="lanes" v="3"/>
    <tag k="name" v="South Azusa Avenue"/>
    <tag k="oneway" v="yes"/>
    <tag k="tiger:cfcc" v="A41"/>
    <tag k="tiger:county" v="Los Angeles, CA"/>
    <tag k="tiger:name_base" v="Azusa"/>
    <tag k="tiger:name_direction_prefix" v="S"/>
    <tag k="tiger:name_type" v="Ave"/>
    <tag k="tiger:separated" v="no"/>
    <tag k="tiger:source" v="tiger_import_dch_v0.6_20070809"/>
    <tag k="tiger:tlid" v="141770322:141716416:141716423:141813673:141819564:142667502:142667503"/>
    <tag k="tiger:zip_left" v="91791"/>
    <tag k="tiger:zip_right" v="91791"/>
  </way>
  <way id="44296120" version="2" timestamp="2010-03-28T11:19:33Z" uid="20587" user="balrog-kun" changeset="4254597">
    <nd ref="122741093"/>
    <nd ref="562826812"/>
    <nd ref="562826806"/>
    <nd ref="562826805"/>
    <nd ref="562826804"/>
    <nd ref="562826796"/>
    <tag k="highway" v="primary"/>
    <tag k="name" v="Azusa Avenue"/>
    <tag k="oneway" v="yes"/>
    <tag k="ref" v="CA 39"/>
  </way>
  <way id="44296120" version="3" timestamp="2011-06-27T14:53:33Z" uid="473471" user="NE3" changeset="8562928">
    <nd ref="122741093"/>
    <nd ref="562826812"/>
    <nd ref="562826806"/>
    <nd ref="562826805"/>
    <nd ref="562826804"/>
    <nd ref="562826796"/>
    <tag k="highway" v="primary"/>
    <tag k="lanes" v="3"/>
    <tag k="name" v="Azusa Avenue"/>
    <tag k="oneway" v="yes"/>
    <tag k="ref" v="CA 39"/>
  </way>
  <way id="44296125" version="2" timestamp="2010-03-28T11:19:33Z" uid="20587" user="balrog-kun" changeset="4254597">
    <nd ref="562826782"/>
    <nd ref="562826776"/>
    <nd ref="562826760"/>
    <tag k="highway" v="primary"/>
    <tag k="layer" v="-1"/>
    <tag k="name" v="Azusa Avenue"/>
    <tag k="oneway" v="yes"/>
    <tag k="ref" v="CA 39"/>
  </way>
  <way id="44296125" version="3" timestamp="2010-04-30T05:32:42Z" uid="207745" user="NE2" changeset="4563211">
    <nd ref="562826782"/>
    <nd ref="562826776"/>
    <nd ref="562826760"/>
    <tag k="highway" v="primary"/>
    <tag k="name" v="Azusa Avenue"/>
    <tag k="oneway" v="yes"/>
    <tag k="ref" v="CA 39"/>
  </way>
  <way id="44296125" version="4" timestamp="2011-06-27T14:54:16Z" uid="473471" user="NE3" changeset="8562928">
    <nd ref="562826782"/>
    <nd ref="562826776"/>
    <nd ref="562826760"/>
    <tag k="highway" v="primary"/>
    <tag k="lanes" v="3"/>
    <tag k="name" v="Azusa Avenue"/>
    <tag k="oneway" v="yes"/>
    <tag k="ref" v="CA 39"/>
  </way>
  <way id="44296125" version="5" timestamp="2011-08-08T23:04:06Z" uid="207745" user="NE2" changeset="8962612">
    <nd ref="562826782"/>
    <nd ref="562826776"/>
    <tag k="highway" v="primary"/>
    <tag k="lanes" v="3"/>
    <tag k="name" v="Azusa Avenue"/>
    <tag k="oneway" v="yes"/>
    <tag k="ref" v="CA 39"/>
  </way>
  <way id="44296127" version="2" timestamp="2010-03-28T11:19:33Z" uid="20587" user="balrog-kun" changeset="4254597">
    <nd ref="562826796"/>
    <nd ref="562826784"/>
    <nd ref="562826782"/>
    <tag k="highway" v="primary"/>
    <tag k="layer" v="-1"/>
    <tag k="name" v="Azusa Avenue"/>
    <tag k="oneway" v="yes"/>
    <tag k="ref" v="CA 39"/>
  </way>
  <way id="44296127" version="3" timestamp="2010-04-30T05:31:35Z" uid="207745" user="NE2" changeset="4563211">
    <nd ref="562826796"/>
    <nd ref="562826784"/>
    <nd ref="562826782"/>
    <tag k="highway" v="primary"/>
    <tag k="name" v="Azusa Avenue"/>
    <tag k="oneway" v="yes"/>
    <tag k="ref" v="CA 39"/>
  </way>
  <way id="44296127" version="4" timestamp="2011-06-27T14:53:27Z" uid="473471" user="NE3" changeset="8562928">
    <nd ref="562826796"/>
    <nd ref="562826784"/>
    <nd ref="562826782"/>
    <tag k="highway" v="primary"/>
    <tag k="lanes" v="3"/>
    <tag k="name" v="Azusa Avenue"/>
    <tag k="oneway" v="yes"/>
    <tag k="ref" v="CA 39"/>
  </way>
  <way id="44296128" version="2" timestamp="2010-03-28T11:19:33Z" uid="20587" user="balrog-kun" changeset="4254597">
    <nd ref="123578212"/>
    <nd ref="562826797"/>
    <nd ref="122460126"/>
    <nd ref="123578214"/>
    <nd ref="562826811"/>
    <nd ref="122741093"/>
    <tag k="highway" v="primary"/>
    <tag k="name" v="North Azusa Avenue"/>
    <tag k="ref" v="CA 39"/>
    <tag k="tiger:cfcc" v="A31"/>
    <tag k="tiger:county" v="Los Angeles, CA"/>
    <tag k="tiger:name_base" v="Azusa"/>
    <tag k="tiger:name_base_1" v="State Highway 39"/>
    <tag k="tiger:name_direction_prefix" v="N"/>
    <tag k="tiger:name_type" v="Ave"/>
    <tag k="tiger:separated" v="no"/>
    <tag k="tiger:source" v="tiger_import_dch_v0.6_20070809"/>
    <tag k="tiger:tlid" v="141709515:141709539:141709542:141714883:141714884:142238704:142238705:141714911:141714912:141714914:141714918:141714886:142675002"/>
  </way>
  <way id="44296128" version="3" timestamp="2011-06-27T14:54:22Z" uid="473471" user="NE3" changeset="8562928">
    <nd ref="123578212"/>
    <nd ref="1341205985"/>
    <tag k="highway" v="primary"/>
    <tag k="lanes" v="3"/>
    <tag k="name" v="North Azusa Avenue"/>
    <tag k="oneway" v="yes"/>
    <tag k="ref" v="CA 39"/>
    <tag k="tiger:cfcc" v="A31"/>
    <tag k="tiger:county" v="Los Angeles, CA"/>
    <tag k="tiger:name_base" v="Azusa"/>
    <tag k="tiger:name_base_1" v="State Highway 39"/>
    <tag k="tiger:name_direction_prefix" v="N"/>
    <tag k="tiger:name_type" v="Ave"/>
    <tag k="tiger:separated" v="no"/>
    <tag k="tiger:source" v="tiger_import_dch_v0.6_20070809"/>
    <tag k="tiger:tlid" v="141709515:141709539:141709542:141714883:141714884:142238704:142238705:141714911:141714912:141714914:141714918:141714886:142675002"/>
  </way>
  <way id="44296129" version="2" timestamp="2010-03-28T11:19:33Z" uid="20587" user="balrog-kun" changeset="4254597">
    <nd ref="562826760"/>
    <nd ref="562826754"/>
    <nd ref="562826755"/>
    <nd ref="122662354"/>
    <tag k="highway" v="primary"/>
    <tag k="name" v="Azusa Avenue"/>
    <tag k="oneway" v="yes"/>
    <tag k="ref" v="CA 39"/>
  </way>
  <way id="44296129" version="3" timestamp="2011-06-27T14:51:36Z" uid="473471" user="NE3" changeset="8562928">
    <nd ref="562826760"/>
    <nd ref="562826754"/>
    <nd ref="562826755"/>
    <nd ref="122662354"/>
    <tag k="highway" v="primary"/>
    <tag k="lanes" v="3"/>
    <tag k="name" v="Azusa Avenue"/>
    <tag k="oneway" v="yes"/>
    <tag k="ref" v="CA 39"/>
  </way>
  <way id="44296129" version="4" timestamp="2011-08-08T23:04:07Z" uid="207745" user="NE2" changeset="8962612">
    <nd ref="562826760"/>
    <nd ref="562826754"/>
    <nd ref="562826755"/>
    <nd ref="122662354"/>
    <tag k="highway" v="primary"/>
    <tag k="lanes" v="3"/>
    <tag k="name" v="Azusa Avenue"/>
    <tag k="oneway" v="yes"/>
  </way>
  <way id="44296130" version="2" timestamp="2010-03-28T11:19:33Z" uid="20587" user="balrog-kun" changeset="4254597">
    <nd ref="417988849"/>
    <nd ref="417988850"/>
    <nd ref="122453078"/>
    <tag k="highway" v="primary"/>
    <tag k="layer" v="-1"/>
    <tag k="name" v="South Azusa Avenue"/>
    <tag k="oneway" v="yes"/>
    <tag k="ref" v="CA 39"/>
    <tag k="tiger:cfcc" v="A41"/>
    <tag k="tiger:county" v="Los Angeles, CA"/>
    <tag k="tiger:name_base" v="Azusa"/>
    <tag k="tiger:name_direction_prefix" v="S"/>
    <tag k="tiger:name_type" v="Ave"/>
    <tag k="tiger:separated" v="no"/>
    <tag k="tiger:source" v="tiger_import_dch_v0.6_20070809"/>
    <tag k="tiger:tlid" v="141770322:141716416:141716423:141813673:141819564:142667502:142667503"/>
    <tag k="tiger:zip_left" v="91791"/>
    <tag k="tiger:zip_right" v="91791"/>
  </way>
  <way id="44296130" version="3" timestamp="2010-04-30T05:28:26Z" uid="207745" user="NE2" changeset="4563211">
    <nd ref="417988849"/>
    <nd ref="417988850"/>
    <nd ref="122453078"/>
    <tag k="highway" v="primary"/>
    <tag k="name" v="South Azusa Avenue"/>
    <tag k="oneway" v="yes"/>
    <tag k="ref" v="CA 39"/>
    <tag k="tiger:cfcc" v="A41"/>
    <tag k="tiger:county" v="Los Angeles, CA"/>
    <tag k="tiger:name_base" v="Azusa"/>
    <tag k="tiger:name_direction_prefix" v="S"/>
    <tag k="tiger:name_type" v="Ave"/>
    <tag k="tiger:separated" v="no"/>
    <tag k="tiger:source" v="tiger_import_dch_v0.6_20070809"/>
    <tag k="tiger:tlid" v="141770322:141716416:141716423:141813673:141819564:142667502:142667503"/>
    <tag k="tiger:zip_left" v="91791"/>
    <tag k="tiger:zip_right" v="91791"/>
  </way>
  <way id="44296130" version="4" timestamp="2011-06-27T14:53:33Z" uid="473471" user="NE3" changeset="8562928">
    <nd ref="417988849"/>
    <nd ref="417988850"/>
    <nd ref="122453078"/>
    <tag k="highway" v="primary"/>
    <tag k="lanes" v="3"/>
    <tag k="name" v="South Azusa Avenue"/>
    <tag k="oneway" v="yes"/>
    <tag k="ref" v="CA 39"/>
    <tag k="tiger:cfcc" v="A41"/>
    <tag k="tiger:county" v="Los Angeles, CA"/>
    <tag k="tiger:name_base" v="Azusa"/>
    <tag k="tiger:name_direction_prefix" v="S"/>
    <tag k="tiger:name_type" v="Ave"/>
    <tag k="tiger:separated" v="no"/>
    <tag k="tiger:source" v="tiger_import_dch_v0.6_20070809"/>
    <tag k="tiger:tlid" v="141770322:141716416:141716423:141813673:141819564:142667502:142667503"/>
    <tag k="tiger:zip_left" v="91791"/>
    <tag k="tiger:zip_right" v="91791"/>
  </way>
  <way id="44296283" version="5" timestamp="2010-05-23T23:50:59Z" uid="4467" user="Rosscoe" changeset="4789068">
    <nd ref="558673498"/>
    <nd ref="562827111"/>
    <nd ref="562827112"/>
    <nd ref="713428784"/>
    <nd ref="562827114"/>
    <nd ref="562827109"/>
    <nd ref="562827108"/>
    <nd ref="562827115"/>
    <nd ref="689770550"/>
    <nd ref="562827116"/>
    <nd ref="562827110"/>
    <nd ref="746878228"/>
    <nd ref="562827117"/>
    <nd ref="562827118"/>
    <nd ref="746878246"/>
    <nd ref="562827119"/>
    <nd ref="562827121"/>
    <nd ref="562827124"/>
    <tag k="cycleway" v="lane"/>
    <tag k="highway" v="secondary"/>
    <tag k="name" v="Shenton Avenue"/>
    <tag k="oneway" v="yes"/>
    <tag k="source" v="nearmap"/>
  </way>
  <way id="44296355" version="2" timestamp="2010-05-23T23:50:45Z" uid="4467" user="Rosscoe" changeset="4789068">
    <nd ref="32012597"/>
    <nd ref="562827151"/>
    <nd ref="562827147"/>
    <tag k="highway" v="primary_link"/>
    <tag k="oneway" v="yes"/>
    <tag k="source" v="nearmap"/>
  </way>
  <way id="44296534" version="3" timestamp="2010-07-09T07:43:22Z" uid="74617" user="JohnSmith" changeset="5171569">
    <nd ref="311738564"/>
    <nd ref="562827195"/>
    <nd ref="311738565"/>
    <nd ref="562827196"/>
    <nd ref="562827197"/>
    <tag k="highway" v="residential"/>
    <tag k="maxspeed" v="50"/>
    <tag k="maxspeed:source" v="default residential speed limit in Australia"/>
    <tag k="name" v="Drovers Place"/>
    <tag k="oneway" v="yes"/>
    <tag k="source" v="nearmap"/>
  </way>
  <way id="44296534" version="4" timestamp="2012-01-19T09:08:37Z" uid="147510" user="woodpeck_fixbot" changeset="10434386">
    <nd ref="311738564"/>
    <nd ref="562827195"/>
    <nd ref="311738565"/>
    <nd ref="562827196"/>
    <nd ref="562827197"/>
    <tag k="highway" v="residential"/>
    <tag k="name" v="Drovers Place"/>
    <tag k="oneway" v="yes"/>
    <tag k="source" v="nearmap"/>
  </way>
  <way id="44296697" version="2" timestamp="2010-05-23T23:51:16Z" uid="4467" user="Rosscoe" changeset="4789068">
    <nd ref="311738519"/>
    <nd ref="562827285"/>
    <nd ref="746878263"/>
    <nd ref="746878274"/>
    <nd ref="562827287"/>
    <tag k="highway" v="footway"/>
    <tag k="source" v="nearmap"/>
  </way>
  <way id="44296697" version="3" timestamp="2010-09-23T07:53:52Z" uid="134344" user="Andrew Gregory" changeset="5851820">
    <nd ref="311738519"/>
    <nd ref="562827285"/>
    <nd ref="922296686"/>
    <nd ref="746878263"/>
    <nd ref="746878274"/>
    <nd ref="562827287"/>
    <tag k="foot" v="yes"/>
    <tag k="highway" v="cycleway"/>
    <tag k="source" v="survey"/>
  </way>
  <way id="44296119" version="5" timestamp="2012-08-26T23:47:28Z" uid="207745" user="NE2" changeset="12873214">
    <nd ref="122662354"/>
    <nd ref="562826753"/>
    <nd ref="122510076"/>
    <nd ref="417988849"/>
    <tag k="highway" v="primary"/>
    <tag k="lanes" v="3"/>
    <tag k="name" v="South Azusa Avenue"/>
    <tag k="oneway" v="yes"/>
    <tag k="ref" v="CR N8"/>
    <tag k="tiger:cfcc" v="A41"/>
    <tag k="tiger:county" v="Los Angeles, CA"/>
    <tag k="tiger:name_base" v="Azusa"/>
    <tag k="tiger:name_direction_prefix" v="S"/>
    <tag k="tiger:name_type" v="Ave"/>
    <tag k="tiger:separated" v="no"/>
    <tag k="tiger:source" v="tiger_import_dch_v0.6_20070809"/>
    <tag k="tiger:tlid" v="141770322:141716416:141716423:141813673:141819564:142667502:142667503"/>
    <tag k="tiger:zip_left" v="91791"/>
    <tag k="tiger:zip_right" v="91791"/>
  </way>
  <way id="44296129" version="5" timestamp="2012-08-26T23:28:47Z" uid="207745" user="NE2" changeset="12873214">
    <nd ref="562826760"/>
    <nd ref="562826754"/>
    <nd ref="562826755"/>
    <nd ref="122662354"/>
    <tag k="highway" v="primary"/>
    <tag k="lanes" v="3"/>
    <tag k="name" v="Azusa Avenue"/>
    <tag k="oneway" v="yes"/>
    <tag k="ref" v="CR N8"/>
  </way>
  <way id="44296283" version="6" timestamp="2012-07-19T10:43:10Z" uid="722137" user="OSMF Redaction Account" changeset="12319244">
    <nd ref="558673498"/>
    <nd ref="562827111"/>
    <nd ref="562827112"/>
    <nd ref="713428784"/>
    <nd ref="562827114"/>
    <nd ref="562827109"/>
    <nd ref="562827108"/>
    <nd ref="562827115"/>
    <nd ref="689770550"/>
    <nd ref="562827116"/>
    <nd ref="562827110"/>
    <nd ref="562827117"/>
    <nd ref="562827118"/>
    <nd ref="562827119"/>
    <nd ref="562827121"/>
    <nd ref="562827124"/>
    <tag k="cycleway" v="lane"/>
    <tag k="highway" v="secondary"/>
    <tag k="name" v="Shenton Avenue"/>
    <tag k="oneway" v="yes"/>
    <tag k="source" v="nearmap"/>
  </way>
  <way id="44296697" version="4" timestamp="2012-07-19T10:43:07Z" uid="722137" user="OSMF Redaction Account" changeset="12319244">
    <nd ref="311738519"/>
    <nd ref="562827285"/>
    <nd ref="922296686"/>
    <nd ref="562827287"/>
    <tag k="foot" v="yes"/>
    <tag k="highway" v="cycleway"/>
    <tag k="source" v="survey"/>
  </way>
</osm>
