<?xml version='1.0' encoding='UTF-8'?>
<osm version="0.6" generator="libosmium/2.20.0">
  <way id="44291213" version="2" timestamp="2010-06-10T08:05:32Z" uid="66036" user="h4v" changeset="4951958">
    <nd ref="31940702"/>
    <nd ref="31940692"/>
    <nd ref="31941024"/>
    <nd ref="31940993"/>
    <nd ref="31940946"/>
    <nd ref="31940913"/>
    <nd ref="491026521"/>
    <nd ref="31940881"/>
    <nd ref="477201087"/>
    <nd ref="31940848"/>
    <nd ref="477201049"/>
    <nd ref="477201082"/>
    <nd ref="31940808"/>
    <nd ref="477201015"/>
    <nd ref="31940750"/>
    <tag k="highway" v="primary"/>
    <tag k="name" v="Pabianicka"/>
    <tag k="oneway" v="yes"/>
    <tag k="ref" v="14"/>
  </way>
  <way id="44291213" version="3" timestamp="2010-11-06T21:42:43Z" uid="73912" user="Jack_lodz" changeset="6306728">
    <nd ref="31940702"/>
    <nd ref="31940692"/>
    <nd ref="31941024"/>
    <nd ref="31940993"/>
    <nd ref="31940946"/>
    <nd ref="31940913"/>
    <nd ref="491026521"/>
    <nd ref="31940881"/>
    <nd ref="477201087"/>
    <nd ref="31940848"/>
    <nd ref="477201049"/>
    <nd ref="477201082"/>
    <nd ref="31940808"/>
    <nd ref="477201015"/>
    <tag k="highway" v="primary"/>
    <tag k="name" v="Pabianicka"/>
    <tag k="oneway" v="yes"/>
    <tag k="ref" v="14"/>
  </way>
  <way id="44291213" version="4" timestamp="2011-02-22T09:27:01Z" uid="86504" user="Thomas8122" changeset="7361507">
    <nd ref="31940702"/>
    <nd ref="31940692"/>
    <nd ref="31941024"/>
    <nd ref="31940993"/>
    <nd ref="1166249981"/>
    <nd ref="31940946"/>
    <nd ref="31940913"/>
    <nd ref="491026521"/>
    <nd ref="31940881"/>
    <nd ref="477201087"/>
    <nd ref="31940848"/>
    <nd ref="477201049"/>
    <nd ref="477201082"/>
    <nd ref="31940808"/>
    <nd ref="477201015"/>
    <tag k="highway" v="primary"/>
    <tag k="name" v="Pabianicka"/>
    <tag k="oneway" v="yes"/>
    <tag k="ref" v="14"/>
  </way>
  <way id="44291213" version="5" timestamp="2011-03-11T10:32:25Z" uid="338611" user="marek kleciak" changeset="7522018">
    <nd ref="31940702"/>
    <nd ref="31940692"/>
    <nd ref="31941024"/>
    <nd ref="1196641209"/>
    <nd ref="1196641246"/>
    <nd ref="1196641324"/>
    <nd ref="1196641283"/>
    <nd ref="31940993"/>
    <nd ref="1166249981"/>
    <nd ref="31940946"/>
    <nd ref="31940913"/>
    <nd ref="491026521"/>
    <nd ref="31940881"/>
    <nd ref="477201087"/>
    <nd ref="31940848"/>
    <nd ref="477201049"/>
    <nd ref="477201082"/>
    <nd ref="31940808"/>
    <nd ref="477201015"/>
    <tag k="highway" v="primary"/>
    <tag k="name" v="Pabianicka"/>
    <tag k="oneway" v="yes"/>
    <tag k="ref" v="14"/>
  </way>
  <way id="44291213" version="6" timestamp="2011-03-11T11:41:36Z" uid="338611" user="marek kleciak" changeset="7522474">
    <nd ref="31940702"/>
    <nd ref="31940692"/>
    <nd ref="31941024"/>
    <nd ref="1196641209"/>
    <nd ref="1196679321"/>
    <nd ref="1196641246"/>
    <nd ref="1196641324"/>
    <nd ref="1196641283"/>
    <nd ref="31940993"/>
    <nd ref="1166249981"/>
    <nd ref="31940946"/>
    <nd ref="31940913"/>
    <nd ref="491026521"/>
    <nd ref="31940881"/>
    <nd ref="477201087"/>
    <nd ref="31940848"/>
    <nd ref="477201049"/>
    <nd ref="477201082"/>
    <nd ref="31940808"/>
    <nd ref="477201015"/>
    <tag k="highway" v="primary"/>
    <tag k="name" v="Pabianicka"/>
    <tag k="oneway" v="yes"/>
    <tag k="ref" v="14"/>
  </way>
  <way id="44291213" version="7" timestamp="2011-04-11T18:08:33Z" uid="338611" user="marek kleciak" changeset="7835635">
    <nd ref="31940702"/>
    <nd ref="31940692"/>
    <nd ref="31941024"/>
    <nd ref="1196641209"/>
    <nd ref="1196679321"/>
    <nd ref="1196641246"/>
    <nd ref="1196641324"/>
    <nd ref="1196641283"/>
    <nd ref="31940993"/>
    <nd ref="1166249981"/>
    <nd ref="31940946"/>
    <nd ref="31940913"/>
    <nd ref="491026521"/>
    <nd ref="31940881"/>
    <nd ref="477201087"/>
    <nd ref="477201049"/>
    <nd ref="477201082"/>
    <nd ref="31940808"/>
    <nd ref="477201015"/>
    <tag k="highway" v="primary"/>
    <tag k="name" v="Pabianicka"/>
    <tag k="oneway" v="yes"/>
    <tag k="ref" v="14"/>
  </way>
  <way id="44291213" version="8" timestamp="2011-04-13T09:18:00Z" uid="338611" user="marek kleciak" changeset="7849970">
    <nd ref="31940702"/>
    <nd ref="31940692"/>
    <nd ref="31941024"/>
    <nd ref="1196641209"/>
    <nd ref="1196679321"/>
    <nd ref="1196641246"/>
    <nd ref="1196641324"/>
    <nd ref="1196641283"/>
    <nd ref="31940993"/>
    <nd ref="1166249981"/>
    <nd ref="1242984545"/>
    <nd ref="31940946"/>
    <nd ref="31940913"/>
    <nd ref="491026521"/>
    <nd ref="31940881"/>
    <nd ref="477201087"/>
    <nd ref="477201049"/>
    <nd ref="477201082"/>
    <nd ref="31940808"/>
    <nd ref="477201015"/>
    <tag k="highway" v="primary"/>
    <tag k="name" v="Pabianicka"/>
    <tag k="oneway" v="yes"/>
    <tag k="ref" v="14"/>
  </way>
  <way id="44291213" version="9" timestamp="2012-02-06T14:44:21Z" uid="73912" user="Jacek_lodz" changeset="10603488">
    <nd ref="31940702"/>
    <nd ref="31940692"/>
    <nd ref="31941024"/>
    <nd ref="1196641209"/>
    <nd ref="1196679321"/>
    <nd ref="1196641246"/>
    <nd ref="1196641324"/>
    <nd ref="1196641283"/>
    <nd ref="31940993"/>
    <nd ref="1166249981"/>
    <nd ref="1242984545"/>
    <nd ref="31940946"/>
    <nd ref="31940913"/>
    <nd ref="491026521"/>
    <nd ref="31940881"/>
    <nd ref="477201087"/>
    <nd ref="477201082"/>
    <nd ref="31940808"/>
    <nd ref="477201015"/>
    <tag k="highway" v="primary"/>
    <tag k="name" v="Pabianicka"/>
    <tag k="oneway" v="yes"/>
    <tag k="ref" v="14"/>
  </way>
  <way id="44291213" version="10" timestamp="2012-03-17T09:10:36Z" uid="607553" user="Duke83" changeset="11005757">
    <nd ref="31940702"/>
    <nd ref="31940692"/>
    <nd ref="31941024"/>
    <nd ref="1196641209"/>
    <nd ref="1196679321"/>
    <nd ref="1196641246"/>
    <nd ref="1196641324"/>
    <nd ref="1196641283"/>
    <nd ref="31940993"/>
    <nd ref="1166249981"/>
    <nd ref="1242984545"/>
    <nd ref="31940946"/>
    <nd ref="31940913"/>
    <nd ref="491026521"/>
    <nd ref="31940881"/>
    <nd ref="477201087"/>
    <nd ref="477201082"/>
    <nd ref="31940808"/>
    <nd ref="477201015"/>
    <tag k="highway" v="primary"/>
    <tag k="name" v="Pabianicka"/>
    <tag k="oneway" v="yes"/>
    <tag k="ref" v="14"/>
    <tag k="surface" v="asphalt"/>
  </way>
  <way id="44291213" version="11" timestamp="2012-05-19T13:31:20Z" uid="203293" user="mard91" changeset="11642604">
    <nd ref="31940702"/>
    <nd ref="31940692"/>
    <nd ref="31941024"/>
    <nd ref="1196641209"/>
    <nd ref="1196679321"/>
    <nd ref="1196641246"/>
    <nd ref="1196641324"/>
    <nd ref="1196641283"/>
    <nd ref="31940993"/>
    <nd ref="1166249981"/>
    <nd ref="1242984545"/>
    <tag k="highway" v="primary"/>
    <tag k="name" v="Pabianicka"/>
    <tag k="oneway" v="yes"/>
    <tag k="ref" v="14"/>
    <tag k="surface" v="asphalt"/>
  </way>
  <way id="44291213" version="12" timestamp="2012-07-25T13:15:35Z" uid="607553" user="Duke83" changeset="12486802">
    <nd ref="31940702"/>
    <nd ref="31940692"/>
    <nd ref="31941024"/>
    <nd ref="1196641209"/>
    <nd ref="1196679321"/>
    <nd ref="1196641246"/>
    <nd ref="1196641324"/>
    <nd ref="1196641283"/>
    <nd ref="31940993"/>
    <nd ref="1166249981"/>
    <nd ref="1242984545"/>
    <tag k="highway" v="primary"/>
    <tag k="lanes" v="3"/>
    <tag k="name" v="Pabianicka"/>
    <tag k="oneway" v="yes"/>
    <tag k="ref" v="14"/>
    <tag k="source" v="GPS, survey"/>
    <tag k="surface" v="asphalt"/>
  </way>
  <way id="44291213" version="13" timestamp="2012-07-25T13:16:49Z" uid="607553" user="Duke83" changeset="12486802">
    <nd ref="31940702"/>
    <nd ref="31940692"/>
    <nd ref="31941024"/>
    <nd ref="1196641209"/>
    <nd ref="1196679321"/>
    <nd ref="1196641246"/>
    <nd ref="1196641324"/>
    <nd ref="1196641283"/>
    <nd ref="1166249981"/>
    <nd ref="1242984545"/>
    <tag k="highway" v="primary"/>
    <tag k="lanes" v="3"/>
    <tag k="name" v="Pabianicka"/>
    <tag k="oneway" v="yes"/>
    <tag k="ref" v="14"/>
    <tag k="source" v="GPS, survey"/>
    <tag k="surface" v="asphalt"/>
  </way>
  <way id="44291213" version="14" timestamp="2012-08-11T14:30:09Z" uid="707169" user="damndog" changeset="12691929">
    <nd ref="31940702"/>
    <nd ref="31940692"/>
    <nd ref="31941024"/>
    <nd ref="1196641209"/>
    <nd ref="1196679321"/>
    <nd ref="1861601580"/>
    <nd ref="1196641246"/>
    <nd ref="1196641324"/>
    <nd ref="1196641283"/>
    <nd ref="1166249981"/>
    <nd ref="1242984545"/>
    <tag k="highway" v="primary"/>
    <tag k="lanes" v="3"/>
    <tag k="name" v="Pabianicka"/>
    <tag k="oneway" v="yes"/>
    <tag k="ref" v="14"/>
    <tag k="source" v="GPS, survey"/>
    <tag k="surface" v="asphalt"/>
  </way>
</osm>
