<?xml version='1.0' encoding='UTF-8'?>
<osm version="0.6" generator="libosmium/2.20.0">
  <way id="44387158" version="5" timestamp="2010-09-16T12:52:08Z" uid="115477" user="wowik" changeset="5795138">
    <nd ref="282539309"/>
    <nd ref="914440634"/>
    <tag k="addr:postcode" v="236039"/>
    <tag k="cladr:code" v="39000001000059300"/>
    <tag k="cladr:name" v="Октябрьская"/>
    <tag k="cladr:suffix" v="Улица"/>
    <tag k="highway" v="secondary"/>
    <tag k="lanes" v="2"/>
    <tag k="name" v="Октябрьская улица"/>
  </way>
  <way id="44387158" version="6" timestamp="2010-12-23T16:15:33Z" uid="176819" user="akashihi" changeset="6746928">
    <nd ref="282539309"/>
    <nd ref="914440634"/>
    <tag k="addr:postcode" v="236039"/>
    <tag k="cladr:code" v="39000001000059300"/>
    <tag k="cladr:name" v="Октябрьская"/>
    <tag k="cladr:suffix" v="Улица"/>
    <tag k="highway" v="secondary"/>
    <tag k="lanes" v="2"/>
    <tag k="name" v="Октябрьская улица"/>
    <tag k="railway" v="tram"/>
  </way>
  <way id="44387158" version="7" timestamp="2011-09-26T20:01:16Z" uid="383137" user="ErshKUS" changeset="9405301">
    <nd ref="282539309"/>
    <nd ref="914440634"/>
    <tag k="addr:postcode" v="236039"/>
    <tag k="cladr:code" v="39000001000059300"/>
    <tag k="highway" v="secondary"/>
    <tag k="lanes" v="2"/>
    <tag k="name" v="Октябрьская улица"/>
    <tag k="railway" v="tram"/>
  </way>
  <way id="44387398" version="2" timestamp="2010-07-09T18:25:12Z" uid="74617" user="JohnSmith" changeset="5175636">
    <nd ref="564152001"/>
    <nd ref="564152003"/>
    <nd ref="564152005"/>
    <tag k="highway" v="residential"/>
    <tag k="maxspeed" v="50"/>
    <tag k="maxspeed:source" v="default residential speed limit in Australia"/>
  </way>
  <way id="44387398" version="3" timestamp="2010-08-08T13:06:24Z" uid="134344" user="Andrew Gregory" changeset="5432899">
    <nd ref="564152001"/>
    <nd ref="564152003"/>
    <nd ref="564152005"/>
    <tag k="highway" v="residential"/>
    <tag k="maxspeed" v="50"/>
    <tag k="maxspeed:source" v="default residential speed limit in Australia"/>
    <tag k="name" v="Coleman Way"/>
  </way>
  <way id="44387398" version="4" timestamp="2012-01-19T09:15:04Z" uid="147510" user="woodpeck_fixbot" changeset="10434386">
    <nd ref="564152001"/>
    <nd ref="564152003"/>
    <nd ref="564152005"/>
    <tag k="highway" v="residential"/>
    <tag k="name" v="Coleman Way"/>
  </way>
  <way id="44387870" version="2" timestamp="2009-11-26T18:19:09Z" uid="20587" user="balrog-kun" changeset="3222155">
    <nd ref="244002008"/>
    <nd ref="244002009"/>
    <nd ref="244002010"/>
    <nd ref="299939019"/>
    <nd ref="299938997"/>
    <tag k="highway" v="secondary"/>
    <tag k="ref" v="196"/>
  </way>
  <way id="44387870" version="3" timestamp="2011-01-09T16:55:01Z" uid="309867" user="Damian_Lisu" changeset="6917507">
    <nd ref="244002008"/>
    <nd ref="244002009"/>
    <nd ref="1094607350"/>
    <nd ref="244002010"/>
    <nd ref="299939019"/>
    <nd ref="299938997"/>
    <tag k="highway" v="secondary"/>
    <tag k="ref" v="196"/>
  </way>
  <way id="44387158" version="8" timestamp="2012-07-24T18:28:59Z" uid="722137" user="OSMF Redaction Account" changeset="12473241"/>
  <way id="44387870" version="4" timestamp="2012-07-22T22:16:42Z" uid="576108" user="m@rio" changeset="12441361">
    <nd ref="244002008"/>
    <nd ref="244002009"/>
    <nd ref="1094607350"/>
    <nd ref="244002010"/>
    <nd ref="299939019"/>
    <nd ref="299938997"/>
    <tag k="bicycle" v="yes"/>
    <tag k="foot" v="yes"/>
    <tag k="highway" v="secondary"/>
    <tag k="name" v="Bydgoska"/>
    <tag k="oneway" v="no"/>
    <tag k="ref" v="196"/>
    <tag k="surface" v="asphalt"/>
  </way>
</osm>
