<?xml version='1.0' encoding='UTF-8'?>
<osm version="0.6" generator="libosmium/2.20.0">
  <way id="44473051" version="3" timestamp="2010-12-14T19:36:50Z" uid="8619" user="cetest" changeset="6661589">
    <nd ref="565173675"/>
    <nd ref="565173676"/>
    <nd ref="565173677"/>
    <nd ref="565173678"/>
    <nd ref="839363336"/>
    <nd ref="1038538743"/>
    <nd ref="565173680"/>
    <nd ref="839363339"/>
    <nd ref="565173681"/>
    <nd ref="565173682"/>
    <nd ref="839363341"/>
    <nd ref="565173683"/>
    <nd ref="565173675"/>
    <tag k="amenity" v="parking"/>
    <tag k="name" v="Golfbaan Delfland"/>
  </way>
  <way id="44473051" version="4" timestamp="2011-11-17T21:59:17Z" uid="36080" user="polderrunner" changeset="9858527"/>
  <way id="44473129" version="2" timestamp="2010-04-07T16:49:18Z" uid="20587" user="balrog-kun" changeset="4355544">
    <nd ref="65241013"/>
    <nd ref="65195840"/>
    <nd ref="65244879"/>
    <nd ref="65244882"/>
    <nd ref="65244885"/>
    <tag k="highway" v="residential"/>
    <tag k="name" v="West 34th Avenue"/>
    <tag k="tiger:cfcc" v="A41"/>
    <tag k="tiger:county" v="Anchorage, AK"/>
    <tag k="tiger:name_base" v="34th"/>
    <tag k="tiger:name_direction_prefix" v="W"/>
    <tag k="tiger:name_type" v="Ave"/>
    <tag k="tiger:reviewed" v="no"/>
    <tag k="tiger:separated" v="no"/>
    <tag k="tiger:source" v="tiger_import_dch_v0.6_20070809"/>
    <tag k="tiger:tlid" v="190814568:190805876:190819815"/>
    <tag k="tiger:zip_left" v="99503"/>
  </way>
  <way id="44473212" version="2" timestamp="2010-04-07T20:53:05Z" uid="20587" user="balrog-kun" changeset="4355840">
    <nd ref="565181412"/>
    <nd ref="565181416"/>
    <nd ref="565181418"/>
    <nd ref="565181422"/>
    <tag k="highway" v="residential"/>
    <tag k="lanes" v="2"/>
    <tag k="name" v="Highway 336"/>
    <tag k="name_1" v="70th Street South"/>
    <tag k="name_2" v="County Highway 11"/>
    <tag k="name_3" v="State Highway 336"/>
    <tag k="oneway" v="yes"/>
    <tag k="tiger:cfcc" v="A41"/>
    <tag k="tiger:county" v="Clay, MN"/>
    <tag k="tiger:name_base" v="Highway 336"/>
    <tag k="tiger:name_base_1" v="70th"/>
    <tag k="tiger:name_base_2" v="County Highway 11"/>
    <tag k="tiger:name_base_3" v="State Highway 336"/>
    <tag k="tiger:name_direction_suffix_1" v="S"/>
    <tag k="tiger:name_type_1" v="St"/>
    <tag k="tiger:separated" v="no"/>
    <tag k="tiger:source" v="tiger_import_dch_v0.6_20070813"/>
    <tag k="tiger:tlid" v="168031214:168031215:168031218"/>
    <tag k="tiger:zip_left" v="56547"/>
    <tag k="tiger:zip_right" v="56547"/>
  </way>
  <way id="44473212" version="3" timestamp="2011-02-07T11:53:27Z" uid="284622" user="Owumbata" changeset="7215111">
    <nd ref="565181412"/>
    <nd ref="565181416"/>
    <nd ref="565181418"/>
    <nd ref="565181422"/>
    <tag k="highway" v="secondary"/>
    <tag k="lanes" v="2"/>
    <tag k="name" v="Highway 336"/>
    <tag k="name_1" v="70th Street South"/>
    <tag k="name_3" v="State Highway 336"/>
    <tag k="oneway" v="yes"/>
    <tag k="ref" v="MN 336"/>
    <tag k="tiger:cfcc" v="A41"/>
    <tag k="tiger:county" v="Clay, MN"/>
    <tag k="tiger:name_base" v="Highway 336"/>
    <tag k="tiger:name_base_1" v="70th"/>
    <tag k="tiger:name_base_3" v="State Highway 336"/>
    <tag k="tiger:name_direction_suffix_1" v="S"/>
    <tag k="tiger:name_type_1" v="St"/>
    <tag k="tiger:separated" v="no"/>
    <tag k="tiger:source" v="tiger_import_dch_v0.6_20070813"/>
    <tag k="tiger:tlid" v="168031214:168031215:168031218"/>
    <tag k="tiger:zip_left" v="56547"/>
    <tag k="tiger:zip_right" v="56547"/>
  </way>
  <way id="44473212" version="4" timestamp="2011-06-11T01:07:26Z" uid="207745" user="NE2" changeset="8402187">
    <nd ref="565181412"/>
    <nd ref="565181416"/>
    <nd ref="565181418"/>
    <nd ref="565181422"/>
    <tag k="highway" v="trunk"/>
    <tag k="lanes" v="2"/>
    <tag k="name" v="70th Street South"/>
    <tag k="oneway" v="yes"/>
    <tag k="ref" v="MN 336"/>
    <tag k="tiger:cfcc" v="A41"/>
    <tag k="tiger:county" v="Clay, MN"/>
    <tag k="tiger:name_base" v="Highway 336"/>
    <tag k="tiger:name_base_1" v="70th"/>
    <tag k="tiger:name_base_3" v="State Highway 336"/>
    <tag k="tiger:name_direction_suffix_1" v="S"/>
    <tag k="tiger:name_type_1" v="St"/>
    <tag k="tiger:separated" v="no"/>
    <tag k="tiger:source" v="tiger_import_dch_v0.6_20070813"/>
    <tag k="tiger:tlid" v="168031214:168031215:168031218"/>
    <tag k="tiger:zip_left" v="56547"/>
    <tag k="tiger:zip_right" v="56547"/>
  </way>
  <way id="44473213" version="2" timestamp="2010-04-07T20:53:06Z" uid="20587" user="balrog-kun" changeset="4355840">
    <nd ref="565181438"/>
    <nd ref="565181441"/>
    <tag k="bridge" v="yes"/>
    <tag k="highway" v="residential"/>
    <tag k="lanes" v="2"/>
    <tag k="name" v="Highway 336"/>
    <tag k="name_1" v="70th Street South"/>
    <tag k="name_2" v="County Highway 11"/>
    <tag k="name_3" v="State Highway 336"/>
    <tag k="oneway" v="yes"/>
  </way>
  <way id="44473213" version="3" timestamp="2011-02-07T11:53:29Z" uid="284622" user="Owumbata" changeset="7215111">
    <nd ref="565181438"/>
    <nd ref="565181441"/>
    <tag k="bridge" v="yes"/>
    <tag k="highway" v="secondary"/>
    <tag k="lanes" v="2"/>
    <tag k="name" v="Highway 336"/>
    <tag k="name_1" v="70th Street South"/>
    <tag k="name_3" v="State Highway 336"/>
    <tag k="oneway" v="yes"/>
    <tag k="ref" v="MN 336"/>
  </way>
  <way id="44473213" version="4" timestamp="2011-06-11T01:09:00Z" uid="207745" user="NE2" changeset="8402187">
    <nd ref="565181438"/>
    <nd ref="565181441"/>
    <tag k="bridge" v="yes"/>
    <tag k="highway" v="trunk"/>
    <tag k="lanes" v="2"/>
    <tag k="name" v="70th Street South"/>
    <tag k="oneway" v="yes"/>
    <tag k="ref" v="MN 336"/>
  </way>
  <way id="44473213" version="5" timestamp="2011-12-08T17:24:10Z" uid="502142" user="Mulad" changeset="10066811">
    <nd ref="565181438"/>
    <nd ref="565181441"/>
    <tag k="bridge" v="yes"/>
    <tag k="highway" v="trunk"/>
    <tag k="lanes" v="2"/>
    <tag k="name" v="70th Street South"/>
    <tag k="oneway" v="yes"/>
    <tag k="ref" v="MN 336"/>
  </way>
  <way id="44473214" version="2" timestamp="2010-04-07T20:53:06Z" uid="20587" user="balrog-kun" changeset="4355840">
    <nd ref="565181441"/>
    <nd ref="565181450"/>
    <nd ref="565181453"/>
    <nd ref="565181455"/>
    <tag k="highway" v="residential"/>
    <tag k="lanes" v="2"/>
    <tag k="name" v="Highway 336"/>
    <tag k="name_1" v="70th Street South"/>
    <tag k="name_2" v="County Highway 11"/>
    <tag k="name_3" v="State Highway 336"/>
    <tag k="oneway" v="yes"/>
  </way>
  <way id="44473214" version="3" timestamp="2011-02-07T11:53:29Z" uid="284622" user="Owumbata" changeset="7215111">
    <nd ref="565181441"/>
    <nd ref="565181450"/>
    <nd ref="565181453"/>
    <nd ref="565181455"/>
    <tag k="highway" v="secondary"/>
    <tag k="lanes" v="2"/>
    <tag k="name" v="Highway 336"/>
    <tag k="name_1" v="70th Street South"/>
    <tag k="name_3" v="State Highway 336"/>
    <tag k="oneway" v="yes"/>
    <tag k="ref" v="MN 336"/>
  </way>
  <way id="44473214" version="4" timestamp="2011-06-11T01:08:11Z" uid="207745" user="NE2" changeset="8402187">
    <nd ref="565181441"/>
    <nd ref="565181450"/>
    <nd ref="565181453"/>
    <tag k="highway" v="trunk"/>
    <tag k="lanes" v="2"/>
    <tag k="name" v="70th Street South"/>
    <tag k="oneway" v="yes"/>
    <tag k="ref" v="MN 336"/>
  </way>
  <way id="44473215" version="2" timestamp="2010-04-07T20:53:06Z" uid="20587" user="balrog-kun" changeset="4355840">
    <nd ref="565181422"/>
    <nd ref="565181463"/>
    <tag k="bridge" v="yes"/>
    <tag k="highway" v="residential"/>
    <tag k="lanes" v="2"/>
    <tag k="name" v="Highway 336"/>
    <tag k="name_1" v="70th Street South"/>
    <tag k="name_2" v="County Highway 11"/>
    <tag k="name_3" v="State Highway 336"/>
    <tag k="oneway" v="yes"/>
    <tag k="tiger:cfcc" v="A41"/>
    <tag k="tiger:county" v="Clay, MN"/>
    <tag k="tiger:name_base" v="Highway 336"/>
    <tag k="tiger:name_base_1" v="70th"/>
    <tag k="tiger:name_base_2" v="County Highway 11"/>
    <tag k="tiger:name_base_3" v="State Highway 336"/>
    <tag k="tiger:name_direction_suffix_1" v="S"/>
    <tag k="tiger:name_type_1" v="St"/>
    <tag k="tiger:separated" v="no"/>
    <tag k="tiger:source" v="tiger_import_dch_v0.6_20070813"/>
    <tag k="tiger:tlid" v="168031214:168031215:168031218"/>
    <tag k="tiger:zip_left" v="56547"/>
    <tag k="tiger:zip_right" v="56547"/>
  </way>
  <way id="44473215" version="3" timestamp="2011-02-07T11:53:28Z" uid="284622" user="Owumbata" changeset="7215111">
    <nd ref="565181422"/>
    <nd ref="565181463"/>
    <tag k="bridge" v="yes"/>
    <tag k="highway" v="secondary"/>
    <tag k="lanes" v="2"/>
    <tag k="name" v="Highway 336"/>
    <tag k="name_1" v="70th Street South"/>
    <tag k="name_3" v="State Highway 336"/>
    <tag k="oneway" v="yes"/>
    <tag k="ref" v="MN 336"/>
    <tag k="tiger:cfcc" v="A41"/>
    <tag k="tiger:county" v="Clay, MN"/>
    <tag k="tiger:name_base" v="Highway 336"/>
    <tag k="tiger:name_base_1" v="70th"/>
    <tag k="tiger:name_base_3" v="State Highway 336"/>
    <tag k="tiger:name_direction_suffix_1" v="S"/>
    <tag k="tiger:name_type_1" v="St"/>
    <tag k="tiger:separated" v="no"/>
    <tag k="tiger:source" v="tiger_import_dch_v0.6_20070813"/>
    <tag k="tiger:tlid" v="168031214:168031215:168031218"/>
    <tag k="tiger:zip_left" v="56547"/>
    <tag k="tiger:zip_right" v="56547"/>
  </way>
  <way id="44473215" version="4" timestamp="2011-06-11T01:09:44Z" uid="207745" user="NE2" changeset="8402187">
    <nd ref="565181422"/>
    <nd ref="565181463"/>
    <tag k="bridge" v="yes"/>
    <tag k="highway" v="trunk"/>
    <tag k="lanes" v="2"/>
    <tag k="name" v="70th Street South"/>
    <tag k="oneway" v="yes"/>
    <tag k="ref" v="MN 336"/>
    <tag k="tiger:cfcc" v="A41"/>
    <tag k="tiger:county" v="Clay, MN"/>
    <tag k="tiger:name_base" v="Highway 336"/>
    <tag k="tiger:name_base_1" v="70th"/>
    <tag k="tiger:name_base_3" v="State Highway 336"/>
    <tag k="tiger:name_direction_suffix_1" v="S"/>
    <tag k="tiger:name_type_1" v="St"/>
    <tag k="tiger:separated" v="no"/>
    <tag k="tiger:source" v="tiger_import_dch_v0.6_20070813"/>
    <tag k="tiger:tlid" v="168031214:168031215:168031218"/>
    <tag k="tiger:zip_left" v="56547"/>
    <tag k="tiger:zip_right" v="56547"/>
  </way>
  <way id="44473215" version="5" timestamp="2011-08-29T22:50:49Z" uid="239998" user="Sundance" changeset="9162941">
    <nd ref="565181422"/>
    <nd ref="565181463"/>
    <tag k="addr:postcode" v="56547"/>
    <tag k="bridge" v="yes"/>
    <tag k="highway" v="trunk"/>
    <tag k="is_in" v="Clay, MN"/>
    <tag k="lanes" v="2"/>
    <tag k="layer" v="1"/>
    <tag k="name" v="70th Street South"/>
    <tag k="oneway" v="yes"/>
    <tag k="ref" v="MN 336"/>
    <tag k="reg_name" v="Highway 336"/>
    <tag k="tiger:source" v="tiger_import_dch_v0.6_20070813"/>
    <tag k="tiger:tlid" v="168031214:168031215:168031218"/>
  </way>
  <way id="44473215" version="6" timestamp="2011-12-31T10:11:16Z" uid="207745" user="NE2" changeset="10252766">
    <nd ref="565181422"/>
    <nd ref="565181463"/>
    <tag k="addr:postcode" v="56547"/>
    <tag k="bridge" v="yes"/>
    <tag k="highway" v="trunk"/>
    <tag k="is_in" v="Clay, MN"/>
    <tag k="lanes" v="2"/>
    <tag k="layer" v="1"/>
    <tag k="name" v="70th Street South"/>
    <tag k="oneway" v="yes"/>
    <tag k="ref" v="MN 336"/>
    <tag k="tiger:source" v="tiger_import_dch_v0.6_20070813"/>
    <tag k="tiger:tlid" v="168031214:168031215:168031218"/>
  </way>
  <way id="44473216" version="2" timestamp="2010-04-07T20:53:07Z" uid="20587" user="balrog-kun" changeset="4355840">
    <nd ref="565181463"/>
    <nd ref="565181486"/>
    <nd ref="565181490"/>
    <nd ref="565181493"/>
    <nd ref="565181497"/>
    <nd ref="565181501"/>
    <nd ref="565181504"/>
    <nd ref="186593059"/>
    <tag k="highway" v="residential"/>
    <tag k="lanes" v="2"/>
    <tag k="name" v="Highway 336"/>
    <tag k="name_1" v="70th Street South"/>
    <tag k="name_2" v="County Highway 11"/>
    <tag k="name_3" v="State Highway 336"/>
    <tag k="oneway" v="yes"/>
    <tag k="tiger:cfcc" v="A41"/>
    <tag k="tiger:county" v="Clay, MN"/>
    <tag k="tiger:name_base" v="Highway 336"/>
    <tag k="tiger:name_base_1" v="70th"/>
    <tag k="tiger:name_base_2" v="County Highway 11"/>
    <tag k="tiger:name_base_3" v="State Highway 336"/>
    <tag k="tiger:name_direction_suffix_1" v="S"/>
    <tag k="tiger:name_type_1" v="St"/>
    <tag k="tiger:separated" v="no"/>
    <tag k="tiger:source" v="tiger_import_dch_v0.6_20070813"/>
    <tag k="tiger:tlid" v="168031214:168031215:168031218"/>
    <tag k="tiger:zip_left" v="56547"/>
    <tag k="tiger:zip_right" v="56547"/>
  </way>
  <way id="44473216" version="3" timestamp="2011-02-07T11:53:25Z" uid="284622" user="Owumbata" changeset="7215111">
    <nd ref="565181463"/>
    <nd ref="565181486"/>
    <nd ref="565181490"/>
    <nd ref="565181493"/>
    <nd ref="565181497"/>
    <nd ref="565181501"/>
    <nd ref="565181504"/>
    <nd ref="186593059"/>
    <tag k="highway" v="secondary"/>
    <tag k="lanes" v="2"/>
    <tag k="name" v="Highway 336"/>
    <tag k="name_1" v="70th Street South"/>
    <tag k="name_3" v="State Highway 336"/>
    <tag k="oneway" v="yes"/>
    <tag k="ref" v="MN 336"/>
    <tag k="tiger:cfcc" v="A41"/>
    <tag k="tiger:county" v="Clay, MN"/>
    <tag k="tiger:name_base" v="Highway 336"/>
    <tag k="tiger:name_base_1" v="70th"/>
    <tag k="tiger:name_base_3" v="State Highway 336"/>
    <tag k="tiger:name_direction_suffix_1" v="S"/>
    <tag k="tiger:name_type_1" v="St"/>
    <tag k="tiger:separated" v="no"/>
    <tag k="tiger:source" v="tiger_import_dch_v0.6_20070813"/>
    <tag k="tiger:tlid" v="168031214:168031215:168031218"/>
    <tag k="tiger:zip_left" v="56547"/>
    <tag k="tiger:zip_right" v="56547"/>
  </way>
  <way id="44473216" version="4" timestamp="2011-06-11T01:08:05Z" uid="207745" user="NE2" changeset="8402187">
    <nd ref="565181463"/>
    <nd ref="565181486"/>
    <nd ref="565181490"/>
    <nd ref="565181493"/>
    <nd ref="565181497"/>
    <nd ref="565181501"/>
    <nd ref="565181504"/>
    <nd ref="186593059"/>
    <tag k="highway" v="trunk"/>
    <tag k="lanes" v="2"/>
    <tag k="name" v="70th Street South"/>
    <tag k="oneway" v="yes"/>
    <tag k="ref" v="MN 336"/>
    <tag k="tiger:cfcc" v="A41"/>
    <tag k="tiger:county" v="Clay, MN"/>
    <tag k="tiger:name_base" v="Highway 336"/>
    <tag k="tiger:name_base_1" v="70th"/>
    <tag k="tiger:name_base_3" v="State Highway 336"/>
    <tag k="tiger:name_direction_suffix_1" v="S"/>
    <tag k="tiger:name_type_1" v="St"/>
    <tag k="tiger:separated" v="no"/>
    <tag k="tiger:source" v="tiger_import_dch_v0.6_20070813"/>
    <tag k="tiger:tlid" v="168031214:168031215:168031218"/>
    <tag k="tiger:zip_left" v="56547"/>
    <tag k="tiger:zip_right" v="56547"/>
  </way>
  <way id="44473216" version="5" timestamp="2011-08-29T22:50:49Z" uid="239998" user="Sundance" changeset="9162941">
    <nd ref="565181463"/>
    <nd ref="1417645570"/>
    <nd ref="1417645520"/>
    <nd ref="1417645526"/>
    <nd ref="1417645568"/>
    <nd ref="565181486"/>
    <nd ref="565181490"/>
    <nd ref="565181493"/>
    <nd ref="565181497"/>
    <nd ref="565181501"/>
    <nd ref="565181504"/>
    <nd ref="186593059"/>
    <tag k="addr:postcode" v="56547"/>
    <tag k="highway" v="trunk"/>
    <tag k="is_in" v="Clay, MN"/>
    <tag k="lanes" v="2"/>
    <tag k="name" v="70th Street South"/>
    <tag k="oneway" v="yes"/>
    <tag k="ref" v="MN 336"/>
    <tag k="reg_name" v="Highway 336"/>
    <tag k="tiger:source" v="tiger_import_dch_v0.6_20070813"/>
    <tag k="tiger:tlid" v="168031214:168031215:168031218"/>
  </way>
  <way id="44473216" version="6" timestamp="2011-12-31T10:11:15Z" uid="207745" user="NE2" changeset="10252766">
    <nd ref="565181463"/>
    <nd ref="1417645570"/>
    <nd ref="1417645520"/>
    <nd ref="1417645526"/>
    <nd ref="1417645568"/>
    <nd ref="565181486"/>
    <nd ref="565181490"/>
    <nd ref="565181493"/>
    <nd ref="565181497"/>
    <nd ref="565181501"/>
    <nd ref="565181504"/>
    <nd ref="186593059"/>
    <tag k="addr:postcode" v="56547"/>
    <tag k="highway" v="trunk"/>
    <tag k="is_in" v="Clay, MN"/>
    <tag k="lanes" v="2"/>
    <tag k="name" v="70th Street South"/>
    <tag k="oneway" v="yes"/>
    <tag k="ref" v="MN 336"/>
    <tag k="tiger:source" v="tiger_import_dch_v0.6_20070813"/>
    <tag k="tiger:tlid" v="168031214:168031215:168031218"/>
  </way>
  <way id="44473219" version="2" timestamp="2010-04-07T20:53:08Z" uid="20587" user="balrog-kun" changeset="4355840">
    <nd ref="565181455"/>
    <nd ref="565181562"/>
    <tag k="bridge" v="yes"/>
    <tag k="highway" v="residential"/>
    <tag k="lanes" v="2"/>
    <tag k="name" v="Highway 336"/>
    <tag k="name_1" v="70th Street South"/>
    <tag k="name_2" v="County Highway 11"/>
    <tag k="name_3" v="State Highway 336"/>
    <tag k="oneway" v="yes"/>
  </way>
  <way id="44473219" version="3" timestamp="2011-02-07T11:53:31Z" uid="284622" user="Owumbata" changeset="7215111">
    <nd ref="565181455"/>
    <nd ref="565181562"/>
    <tag k="bridge" v="yes"/>
    <tag k="highway" v="secondary"/>
    <tag k="lanes" v="2"/>
    <tag k="name" v="Highway 336"/>
    <tag k="name_1" v="70th Street South"/>
    <tag k="name_3" v="State Highway 336"/>
    <tag k="oneway" v="yes"/>
    <tag k="ref" v="MN 336"/>
  </way>
  <way id="44473219" version="4" timestamp="2011-06-11T01:06:28Z" uid="207745" user="NE2" changeset="8402187">
    <nd ref="565181455"/>
    <nd ref="565181562"/>
    <tag k="bridge" v="yes"/>
    <tag k="highway" v="trunk"/>
    <tag k="lanes" v="1"/>
    <tag k="name" v="70th Street South"/>
    <tag k="oneway" v="yes"/>
    <tag k="ref" v="MN 336"/>
  </way>
  <way id="44473219" version="5" timestamp="2011-08-29T22:50:50Z" uid="239998" user="Sundance" changeset="9162941">
    <nd ref="565181455"/>
    <nd ref="565181562"/>
    <tag k="bridge" v="yes"/>
    <tag k="highway" v="trunk"/>
    <tag k="lanes" v="1"/>
    <tag k="layer" v="1"/>
    <tag k="name" v="70th Street South"/>
    <tag k="oneway" v="yes"/>
    <tag k="ref" v="MN 336"/>
  </way>
  <way id="44473220" version="2" timestamp="2010-04-07T20:53:08Z" uid="20587" user="balrog-kun" changeset="4355840">
    <nd ref="565181562"/>
    <nd ref="565181569"/>
    <nd ref="565181571"/>
    <tag k="highway" v="residential"/>
    <tag k="lanes" v="2"/>
    <tag k="name" v="Highway 336"/>
    <tag k="name_1" v="70th Street South"/>
    <tag k="name_2" v="County Highway 11"/>
    <tag k="name_3" v="State Highway 336"/>
    <tag k="oneway" v="yes"/>
  </way>
  <way id="44473220" version="3" timestamp="2011-02-07T21:36:57Z" uid="284622" user="Owumbata" changeset="7221297">
    <nd ref="565181562"/>
    <nd ref="565181569"/>
    <nd ref="565181571"/>
    <tag k="highway" v="tertiary"/>
    <tag k="lanes" v="2"/>
    <tag k="name" v="Highway 11"/>
    <tag k="name_1" v="70th Street South"/>
    <tag k="name_2" v="County Highway 11"/>
    <tag k="oneway" v="yes"/>
    <tag k="ref" v="CR 11"/>
  </way>
  <way id="44473220" version="4" timestamp="2011-06-11T01:10:36Z" uid="207745" user="NE2" changeset="8402187"/>
  <way id="44473221" version="2" timestamp="2010-04-07T20:53:08Z" uid="20587" user="balrog-kun" changeset="4355840">
    <nd ref="565181578"/>
    <nd ref="565181412"/>
    <tag k="bridge" v="yes"/>
    <tag k="highway" v="residential"/>
    <tag k="lanes" v="2"/>
    <tag k="name" v="Highway 336"/>
    <tag k="name_1" v="70th Street South"/>
    <tag k="name_2" v="County Highway 11"/>
    <tag k="name_3" v="State Highway 336"/>
    <tag k="oneway" v="yes"/>
    <tag k="tiger:cfcc" v="A41"/>
    <tag k="tiger:county" v="Clay, MN"/>
    <tag k="tiger:name_base" v="Highway 336"/>
    <tag k="tiger:name_base_1" v="70th"/>
    <tag k="tiger:name_base_2" v="County Highway 11"/>
    <tag k="tiger:name_base_3" v="State Highway 336"/>
    <tag k="tiger:name_direction_suffix_1" v="S"/>
    <tag k="tiger:name_type_1" v="St"/>
    <tag k="tiger:separated" v="no"/>
    <tag k="tiger:source" v="tiger_import_dch_v0.6_20070813"/>
    <tag k="tiger:tlid" v="168031214:168031215:168031218"/>
    <tag k="tiger:zip_left" v="56547"/>
    <tag k="tiger:zip_right" v="56547"/>
  </way>
  <way id="44473221" version="3" timestamp="2011-02-07T11:53:31Z" uid="284622" user="Owumbata" changeset="7215111">
    <nd ref="565181578"/>
    <nd ref="565181412"/>
    <tag k="bridge" v="yes"/>
    <tag k="highway" v="secondary"/>
    <tag k="lanes" v="2"/>
    <tag k="name" v="Highway 336"/>
    <tag k="name_1" v="70th Street South"/>
    <tag k="name_3" v="State Highway 336"/>
    <tag k="oneway" v="yes"/>
    <tag k="ref" v="MN 336"/>
    <tag k="tiger:cfcc" v="A41"/>
    <tag k="tiger:county" v="Clay, MN"/>
    <tag k="tiger:name_base" v="Highway 336"/>
    <tag k="tiger:name_base_1" v="70th"/>
    <tag k="tiger:name_base_3" v="State Highway 336"/>
    <tag k="tiger:name_direction_suffix_1" v="S"/>
    <tag k="tiger:name_type_1" v="St"/>
    <tag k="tiger:separated" v="no"/>
    <tag k="tiger:source" v="tiger_import_dch_v0.6_20070813"/>
    <tag k="tiger:tlid" v="168031214:168031215:168031218"/>
    <tag k="tiger:zip_left" v="56547"/>
    <tag k="tiger:zip_right" v="56547"/>
  </way>
  <way id="44473221" version="4" timestamp="2011-06-11T01:07:26Z" uid="207745" user="NE2" changeset="8402187">
    <nd ref="565181578"/>
    <nd ref="565181412"/>
    <tag k="bridge" v="yes"/>
    <tag k="highway" v="trunk"/>
    <tag k="lanes" v="2"/>
    <tag k="name" v="70th Street South"/>
    <tag k="oneway" v="yes"/>
    <tag k="ref" v="MN 336"/>
    <tag k="tiger:cfcc" v="A41"/>
    <tag k="tiger:county" v="Clay, MN"/>
    <tag k="tiger:name_base" v="Highway 336"/>
    <tag k="tiger:name_base_1" v="70th"/>
    <tag k="tiger:name_base_3" v="State Highway 336"/>
    <tag k="tiger:name_direction_suffix_1" v="S"/>
    <tag k="tiger:name_type_1" v="St"/>
    <tag k="tiger:separated" v="no"/>
    <tag k="tiger:source" v="tiger_import_dch_v0.6_20070813"/>
    <tag k="tiger:tlid" v="168031214:168031215:168031218"/>
    <tag k="tiger:zip_left" v="56547"/>
    <tag k="tiger:zip_right" v="56547"/>
  </way>
  <way id="44473221" version="5" timestamp="2011-08-29T22:50:49Z" uid="239998" user="Sundance" changeset="9162941">
    <nd ref="565181578"/>
    <nd ref="1417645519"/>
    <nd ref="565181412"/>
    <tag k="addr:postcode" v="56547"/>
    <tag k="bridge" v="yes"/>
    <tag k="highway" v="trunk"/>
    <tag k="is_in" v="Clay, MN"/>
    <tag k="lanes" v="2"/>
    <tag k="layer" v="1"/>
    <tag k="name" v="70th Street South"/>
    <tag k="oneway" v="yes"/>
    <tag k="ref" v="MN 336"/>
    <tag k="reg_name" v="Highway 336"/>
    <tag k="tiger:source" v="tiger_import_dch_v0.6_20070813"/>
    <tag k="tiger:tlid" v="168031214:168031215:168031218"/>
  </way>
  <way id="44473221" version="6" timestamp="2011-12-31T10:11:17Z" uid="207745" user="NE2" changeset="10252766">
    <nd ref="565181578"/>
    <nd ref="1417645519"/>
    <nd ref="565181412"/>
    <tag k="addr:postcode" v="56547"/>
    <tag k="bridge" v="yes"/>
    <tag k="highway" v="trunk"/>
    <tag k="is_in" v="Clay, MN"/>
    <tag k="lanes" v="2"/>
    <tag k="layer" v="1"/>
    <tag k="name" v="70th Street South"/>
    <tag k="oneway" v="yes"/>
    <tag k="ref" v="MN 336"/>
    <tag k="tiger:source" v="tiger_import_dch_v0.6_20070813"/>
    <tag k="tiger:tlid" v="168031214:168031215:168031218"/>
  </way>
  <way id="44473227" version="2" timestamp="2010-04-07T20:53:09Z" uid="20587" user="balrog-kun" changeset="4355840">
    <nd ref="565181797"/>
    <nd ref="565181803"/>
    <tag k="bridge" v="yes"/>
    <tag k="highway" v="residential"/>
    <tag k="lanes" v="2"/>
    <tag k="name" v="Highway 336"/>
    <tag k="name_1" v="70th Street South"/>
    <tag k="name_2" v="County Highway 11"/>
    <tag k="name_3" v="State Highway 336"/>
    <tag k="oneway" v="yes"/>
  </way>
  <way id="44473227" version="3" timestamp="2010-09-22T02:07:55Z" uid="120468" user="Nakor" changeset="5842079">
    <nd ref="565181797"/>
    <nd ref="565181803"/>
    <tag k="bridge" v="yes"/>
    <tag k="highway" v="residential"/>
    <tag k="lanes" v="2"/>
    <tag k="layer" v="1"/>
    <tag k="name" v="Highway 336"/>
    <tag k="name_1" v="70th Street South"/>
    <tag k="name_2" v="County Highway 11"/>
    <tag k="name_3" v="State Highway 336"/>
    <tag k="oneway" v="yes"/>
  </way>
  <way id="44473227" version="4" timestamp="2011-02-07T11:53:25Z" uid="284622" user="Owumbata" changeset="7215111">
    <nd ref="565181797"/>
    <nd ref="565181803"/>
    <tag k="bridge" v="yes"/>
    <tag k="highway" v="secondary"/>
    <tag k="lanes" v="2"/>
    <tag k="layer" v="1"/>
    <tag k="name" v="Highway 336"/>
    <tag k="name_1" v="70th Street South"/>
    <tag k="name_3" v="State Highway 336"/>
    <tag k="oneway" v="yes"/>
    <tag k="ref" v="MN 336"/>
  </way>
  <way id="44473227" version="5" timestamp="2011-06-11T01:07:10Z" uid="207745" user="NE2" changeset="8402187">
    <nd ref="565185472"/>
    <nd ref="565181797"/>
    <tag k="highway" v="trunk"/>
    <tag k="lanes" v="2"/>
    <tag k="name" v="70th Street South"/>
    <tag k="oneway" v="yes"/>
    <tag k="ref" v="MN 336"/>
  </way>
  <way id="44473228" version="2" timestamp="2010-04-07T20:53:09Z" uid="20587" user="balrog-kun" changeset="4355840">
    <nd ref="565181803"/>
    <nd ref="565181819"/>
    <nd ref="565181823"/>
    <nd ref="565181828"/>
    <nd ref="565181845"/>
    <nd ref="565181853"/>
    <nd ref="565181857"/>
    <nd ref="565181860"/>
    <nd ref="565181862"/>
    <nd ref="565181865"/>
    <nd ref="565181867"/>
    <nd ref="565181870"/>
    <nd ref="565181873"/>
    <nd ref="565181875"/>
    <nd ref="565181879"/>
    <nd ref="565181438"/>
    <tag k="highway" v="residential"/>
    <tag k="lanes" v="2"/>
    <tag k="name" v="Highway 336"/>
    <tag k="name_1" v="70th Street South"/>
    <tag k="name_2" v="County Highway 11"/>
    <tag k="name_3" v="State Highway 336"/>
    <tag k="oneway" v="yes"/>
  </way>
  <way id="44473228" version="3" timestamp="2011-02-07T11:53:27Z" uid="284622" user="Owumbata" changeset="7215111">
    <nd ref="565181803"/>
    <nd ref="565181819"/>
    <nd ref="565181823"/>
    <nd ref="565181828"/>
    <nd ref="565181845"/>
    <nd ref="565181853"/>
    <nd ref="565181857"/>
    <nd ref="565181860"/>
    <nd ref="565181862"/>
    <nd ref="565181865"/>
    <nd ref="565181867"/>
    <nd ref="565181870"/>
    <nd ref="565181873"/>
    <nd ref="565181875"/>
    <nd ref="565181879"/>
    <nd ref="565181438"/>
    <tag k="highway" v="secondary"/>
    <tag k="lanes" v="2"/>
    <tag k="name" v="Highway 336"/>
    <tag k="name_1" v="70th Street South"/>
    <tag k="name_3" v="State Highway 336"/>
    <tag k="oneway" v="yes"/>
    <tag k="ref" v="MN 336"/>
  </way>
  <way id="44473228" version="4" timestamp="2011-06-11T01:06:22Z" uid="207745" user="NE2" changeset="8402187">
    <nd ref="565181803"/>
    <nd ref="565181819"/>
    <nd ref="565181823"/>
    <nd ref="565181828"/>
    <nd ref="565181845"/>
    <nd ref="565181853"/>
    <nd ref="565181857"/>
    <nd ref="565181860"/>
    <nd ref="565181862"/>
    <nd ref="565181865"/>
    <nd ref="565181867"/>
    <nd ref="565181870"/>
    <nd ref="565181873"/>
    <nd ref="565181875"/>
    <nd ref="565181879"/>
    <nd ref="565181438"/>
    <tag k="highway" v="trunk"/>
    <tag k="lanes" v="2"/>
    <tag k="name" v="70th Street South"/>
    <tag k="oneway" v="yes"/>
    <tag k="ref" v="MN 336"/>
  </way>
  <way id="44473228" version="5" timestamp="2011-08-29T22:50:50Z" uid="239998" user="Sundance" changeset="9162941">
    <nd ref="565181803"/>
    <nd ref="565181819"/>
    <nd ref="565181823"/>
    <nd ref="565181828"/>
    <nd ref="565181845"/>
    <nd ref="565181853"/>
    <nd ref="565181857"/>
    <nd ref="565181860"/>
    <nd ref="565181862"/>
    <nd ref="565181865"/>
    <nd ref="565181867"/>
    <nd ref="565181870"/>
    <nd ref="565181873"/>
    <nd ref="565181875"/>
    <nd ref="565181879"/>
    <nd ref="1417645559"/>
    <nd ref="1417645542"/>
    <nd ref="1417645593"/>
    <nd ref="1417645518"/>
    <nd ref="1417645528"/>
    <nd ref="565181438"/>
    <tag k="highway" v="trunk"/>
    <tag k="lanes" v="2"/>
    <tag k="name" v="70th Street South"/>
    <tag k="oneway" v="yes"/>
    <tag k="ref" v="MN 336"/>
    <tag k="reg_name" v="Highway 336"/>
  </way>
  <way id="44473228" version="6" timestamp="2011-12-31T10:11:16Z" uid="207745" user="NE2" changeset="10252766">
    <nd ref="565181803"/>
    <nd ref="565181819"/>
    <nd ref="565181823"/>
    <nd ref="565181828"/>
    <nd ref="565181845"/>
    <nd ref="565181853"/>
    <nd ref="565181857"/>
    <nd ref="565181860"/>
    <nd ref="565181862"/>
    <nd ref="565181865"/>
    <nd ref="565181867"/>
    <nd ref="565181870"/>
    <nd ref="565181873"/>
    <nd ref="565181875"/>
    <nd ref="565181879"/>
    <nd ref="1417645559"/>
    <nd ref="1417645542"/>
    <nd ref="1417645593"/>
    <nd ref="1417645518"/>
    <nd ref="1417645528"/>
    <nd ref="565181438"/>
    <tag k="highway" v="trunk"/>
    <tag k="lanes" v="2"/>
    <tag k="name" v="70th Street South"/>
    <tag k="oneway" v="yes"/>
    <tag k="ref" v="MN 336"/>
  </way>
  <way id="44473232" version="3" timestamp="2010-04-07T20:53:09Z" uid="20587" user="balrog-kun" changeset="4355840">
    <nd ref="565182000"/>
    <nd ref="565182006"/>
    <nd ref="565182011"/>
    <nd ref="565182015"/>
    <nd ref="565185472"/>
    <nd ref="565181797"/>
    <tag k="highway" v="residential"/>
    <tag k="lanes" v="2"/>
    <tag k="name" v="Highway 336"/>
    <tag k="name_1" v="70th Street South"/>
    <tag k="name_2" v="County Highway 11"/>
    <tag k="name_3" v="State Highway 336"/>
    <tag k="oneway" v="yes"/>
  </way>
  <way id="44473232" version="4" timestamp="2011-02-07T21:36:59Z" uid="284622" user="Owumbata" changeset="7221297">
    <nd ref="565182000"/>
    <nd ref="565182006"/>
    <nd ref="565182011"/>
    <nd ref="565182015"/>
    <nd ref="565185472"/>
    <nd ref="565181797"/>
    <tag k="highway" v="tertiary"/>
    <tag k="lanes" v="2"/>
    <tag k="name_1" v="70th Street South"/>
    <tag k="name_2" v="County Highway 11"/>
    <tag k="oneway" v="yes"/>
    <tag k="ref" v="CR 11"/>
  </way>
  <way id="44473232" version="5" timestamp="2011-06-11T01:09:22Z" uid="207745" user="NE2" changeset="8402187">
    <nd ref="565182000"/>
    <nd ref="565182006"/>
    <nd ref="565182011"/>
    <nd ref="565182015"/>
    <nd ref="565185472"/>
    <tag k="highway" v="tertiary"/>
    <tag k="lanes" v="1"/>
    <tag k="name_1" v="70th Street South"/>
    <tag k="name_2" v="County Highway 11"/>
    <tag k="oneway" v="yes"/>
    <tag k="ref" v="CR 11"/>
  </way>
  <way id="44473234" version="2" timestamp="2010-04-07T20:53:09Z" uid="20587" user="balrog-kun" changeset="4355840">
    <nd ref="186584834"/>
    <nd ref="333127822"/>
    <nd ref="186584836"/>
    <nd ref="186584837"/>
    <nd ref="186584839"/>
    <tag k="name" v="60th Street South"/>
    <tag k="name_1" v="Ditch No 41"/>
    <tag k="note" v="marked highway in TIGER, butmight be a ditch?"/>
    <tag k="tiger:cfcc" v="A41"/>
    <tag k="tiger:county" v="Clay, MN"/>
    <tag k="tiger:name_base" v="60th"/>
    <tag k="tiger:name_base_1" v="Ditch No 41"/>
    <tag k="tiger:name_direction_suffix" v="S"/>
    <tag k="tiger:name_type" v="St"/>
    <tag k="tiger:reviewed" v="no"/>
    <tag k="tiger:separated" v="no"/>
    <tag k="tiger:source" v="tiger_import_dch_v0.6_20070813"/>
    <tag k="tiger:tlid" v="168033253:168033254:168037838:168036082:168036083:168038041:168031131:168031132:168031067"/>
  </way>
  <way id="44473234" version="3" timestamp="2012-02-07T06:53:33Z" uid="102411" user="Jeff Ollie" changeset="10609431">
    <nd ref="186584834"/>
    <nd ref="333127822"/>
    <nd ref="186584836"/>
    <tag k="name" v="60th Street South"/>
    <tag k="name_1" v="Ditch No 41"/>
    <tag k="note" v="marked highway in TIGER, butmight be a ditch?"/>
    <tag k="tiger:cfcc" v="A41"/>
    <tag k="tiger:county" v="Clay, MN"/>
    <tag k="tiger:name_base" v="60th"/>
    <tag k="tiger:name_base_1" v="Ditch No 41"/>
    <tag k="tiger:name_direction_suffix" v="S"/>
    <tag k="tiger:name_type" v="St"/>
    <tag k="tiger:reviewed" v="no"/>
    <tag k="tiger:separated" v="no"/>
    <tag k="tiger:source" v="tiger_import_dch_v0.6_20070813"/>
    <tag k="tiger:tlid" v="168033253:168033254:168037838:168036082:168036083:168038041:168031131:168031132:168031067"/>
  </way>
  <way id="44473235" version="2" timestamp="2010-04-07T20:53:10Z" uid="20587" user="balrog-kun" changeset="4355840">
    <nd ref="565181571"/>
    <nd ref="565182167"/>
    <nd ref="565182172"/>
    <nd ref="565182177"/>
    <nd ref="565181600"/>
    <nd ref="565182182"/>
    <nd ref="565182189"/>
    <nd ref="565182194"/>
    <nd ref="565182198"/>
    <tag k="highway" v="residential"/>
    <tag k="name" v="Highway 336"/>
    <tag k="name_1" v="70th Street South"/>
    <tag k="name_2" v="County Highway 11"/>
    <tag k="name_3" v="State Highway 336"/>
  </way>
  <way id="44473235" version="3" timestamp="2011-02-07T21:36:58Z" uid="284622" user="Owumbata" changeset="7221297">
    <nd ref="565181571"/>
    <nd ref="565182167"/>
    <nd ref="565182172"/>
    <nd ref="565182177"/>
    <nd ref="565181600"/>
    <nd ref="565182182"/>
    <nd ref="565182189"/>
    <nd ref="565182194"/>
    <nd ref="565182198"/>
    <tag k="highway" v="tertiary"/>
    <tag k="name_1" v="70th Street South"/>
    <tag k="name_2" v="County Highway 11"/>
    <tag k="ref" v="CR 11"/>
  </way>
  <way id="44473235" version="4" timestamp="2011-08-29T22:50:52Z" uid="239998" user="Sundance" changeset="9162941">
    <nd ref="1319623627"/>
    <nd ref="1417645561"/>
    <nd ref="565181571"/>
    <nd ref="1417645556"/>
    <nd ref="565182167"/>
    <nd ref="1417645558"/>
    <nd ref="1417645506"/>
    <nd ref="1417645544"/>
    <nd ref="565182172"/>
    <nd ref="1417645508"/>
    <tag k="highway" v="tertiary"/>
    <tag k="lanes" v="1"/>
    <tag k="name" v="70th Street South"/>
    <tag k="name_2" v="County Highway 11"/>
    <tag k="oneway" v="yes"/>
    <tag k="ref" v="CR 11"/>
  </way>
  <way id="44473236" version="2" timestamp="2010-04-07T20:53:10Z" uid="20587" user="balrog-kun" changeset="4355840">
    <nd ref="528395395"/>
    <nd ref="565182214"/>
    <nd ref="186579013"/>
    <nd ref="186583839"/>
    <nd ref="565182000"/>
    <tag k="highway" v="residential"/>
    <tag k="lanes" v="2"/>
    <tag k="name" v="70th Street South"/>
    <tag k="name_1" v="State Highway 336"/>
    <tag k="name_2" v="County Highway 11"/>
    <tag k="name_3" v="Highway 336"/>
    <tag k="oneway" v="yes"/>
    <tag k="tiger:cfcc" v="A41"/>
    <tag k="tiger:county" v="Clay, MN"/>
    <tag k="tiger:name_base" v="70th"/>
    <tag k="tiger:name_base_1" v="State Highway 336"/>
    <tag k="tiger:name_base_2" v="County Highway 11"/>
    <tag k="tiger:name_base_3" v="Highway 336"/>
    <tag k="tiger:name_direction_suffix" v="S"/>
    <tag k="tiger:name_type" v="St"/>
    <tag k="tiger:reviewed" v="no"/>
    <tag k="tiger:separated" v="no"/>
    <tag k="tiger:source" v="tiger_import_dch_v0.6_20070813"/>
    <tag k="tiger:tlid" v="168031220"/>
  </way>
  <way id="44473236" version="3" timestamp="2011-02-07T21:36:59Z" uid="284622" user="Owumbata" changeset="7221297">
    <nd ref="528395395"/>
    <nd ref="565182214"/>
    <nd ref="186579013"/>
    <nd ref="186583839"/>
    <nd ref="565182000"/>
    <tag k="highway" v="tertiary"/>
    <tag k="lanes" v="2"/>
    <tag k="name" v="70th Street South"/>
    <tag k="name_2" v="County Highway 11"/>
    <tag k="oneway" v="yes"/>
    <tag k="ref" v="CR 11"/>
    <tag k="tiger:cfcc" v="A41"/>
    <tag k="tiger:county" v="Clay, MN"/>
    <tag k="tiger:name_base" v="70th"/>
    <tag k="tiger:name_base_2" v="County Highway 11"/>
    <tag k="tiger:name_direction_suffix" v="S"/>
    <tag k="tiger:name_type" v="St"/>
    <tag k="tiger:reviewed" v="no"/>
    <tag k="tiger:separated" v="no"/>
    <tag k="tiger:source" v="tiger_import_dch_v0.6_20070813"/>
    <tag k="tiger:tlid" v="168031220"/>
  </way>
  <way id="44473236" version="4" timestamp="2011-06-11T01:10:36Z" uid="207745" user="NE2" changeset="8402187"/>
  <way id="44473232" version="6" timestamp="2012-07-29T21:46:04Z" uid="168517" user="Milo" changeset="12541172">
    <nd ref="565182000"/>
    <nd ref="565182006"/>
    <nd ref="565182011"/>
    <tag k="highway" v="tertiary"/>
    <tag k="lanes" v="1"/>
    <tag k="name_1" v="70th Street South"/>
    <tag k="name_2" v="County Highway 11"/>
    <tag k="oneway" v="yes"/>
    <tag k="ref" v="CR 11"/>
  </way>
  <way id="44473232" version="7" timestamp="2012-08-29T19:22:41Z" uid="207745" user="NE2" changeset="12909337"/>
</osm>
