<?xml version='1.0' encoding='UTF-8'?>
<osm version="0.6" generator="libosmium/2.20.0">
  <way id="44542368" version="2" timestamp="2010-03-28T11:23:57Z" uid="20587" user="balrog-kun" changeset="4254597">
    <nd ref="565784355"/>
    <nd ref="25266716"/>
    <tag k="bridge" v="yes"/>
    <tag k="highway" v="motorway"/>
    <tag k="layer" v="1"/>
    <tag k="name" v="San Bernardino Freeway"/>
    <tag k="oneway" v="yes"/>
    <tag k="ref" v="I 10"/>
  </way>
  <way id="44542368" version="3" timestamp="2011-08-02T08:05:45Z" uid="207745" user="NE2" changeset="8898279">
    <nd ref="565784355"/>
    <nd ref="25266716"/>
    <tag k="bridge" v="yes"/>
    <tag k="highway" v="motorway"/>
    <tag k="hov" v="lane"/>
    <tag k="lanes" v="5"/>
    <tag k="layer" v="1"/>
    <tag k="name" v="San Bernardino Freeway"/>
    <tag k="note:lanes" v="left lane is hov"/>
    <tag k="oneway" v="yes"/>
    <tag k="ref" v="I 10"/>
    <tag k="x" v="x"/>
  </way>
  <way id="44542368" version="4" timestamp="2011-08-07T19:53:18Z" uid="207745" user="NE2" changeset="8951104">
    <nd ref="565784355"/>
    <nd ref="25266716"/>
    <tag k="bridge" v="yes"/>
    <tag k="highway" v="motorway"/>
    <tag k="hov" v="lane"/>
    <tag k="lanes" v="5"/>
    <tag k="layer" v="1"/>
    <tag k="name" v="San Bernardino Freeway"/>
    <tag k="note:lanes" v="left lane is hov"/>
    <tag k="oneway" v="yes"/>
    <tag k="ref" v="I 10"/>
  </way>
  <way id="44542368" version="5" timestamp="2011-11-25T15:00:46Z" uid="207745" user="NE2" changeset="9943893">
    <nd ref="565784355"/>
    <nd ref="25266716"/>
    <tag k="bridge" v="yes"/>
    <tag k="hgv" v="designated"/>
    <tag k="highway" v="motorway"/>
    <tag k="hov" v="lane"/>
    <tag k="lanes" v="5"/>
    <tag k="layer" v="1"/>
    <tag k="name" v="San Bernardino Freeway"/>
    <tag k="note:lanes" v="left lane is hov"/>
    <tag k="oneway" v="yes"/>
    <tag k="ref" v="I 10"/>
  </way>
  <way id="44542369" version="2" timestamp="2010-03-28T11:23:57Z" uid="20587" user="balrog-kun" changeset="4254597">
    <nd ref="25266716"/>
    <nd ref="28456566"/>
    <nd ref="529401601"/>
    <nd ref="529401599"/>
    <nd ref="25266717"/>
    <nd ref="28456564"/>
    <nd ref="310502081"/>
    <tag k="highway" v="motorway"/>
    <tag k="layer" v="1"/>
    <tag k="name" v="San Bernardino Freeway"/>
    <tag k="oneway" v="yes"/>
    <tag k="ref" v="I 10"/>
  </way>
  <way id="44542369" version="3" timestamp="2011-01-17T04:36:27Z" uid="82317" user="AM909" changeset="6996057">
    <nd ref="25266716"/>
    <nd ref="28456566"/>
    <nd ref="529401599"/>
    <nd ref="25266717"/>
    <nd ref="28456564"/>
    <nd ref="310502081"/>
    <tag k="highway" v="motorway"/>
    <tag k="layer" v="1"/>
    <tag k="name" v="San Bernardino Freeway"/>
    <tag k="oneway" v="yes"/>
    <tag k="ref" v="I 10"/>
  </way>
  <way id="44542369" version="4" timestamp="2011-06-28T19:25:16Z" uid="4951" user="PeterIto" changeset="8574487">
    <nd ref="25266716"/>
    <nd ref="28456566"/>
    <nd ref="529401599"/>
    <nd ref="25266717"/>
    <nd ref="28456564"/>
    <nd ref="310502081"/>
    <tag k="highway" v="motorway"/>
    <tag k="name" v="San Bernardino Freeway"/>
    <tag k="oneway" v="yes"/>
    <tag k="ref" v="I 10"/>
  </way>
  <way id="44542369" version="5" timestamp="2011-08-02T08:07:04Z" uid="207745" user="NE2" changeset="8898279">
    <nd ref="25266716"/>
    <nd ref="28456566"/>
    <nd ref="529401599"/>
    <nd ref="25266717"/>
    <nd ref="28456564"/>
    <nd ref="310502081"/>
    <tag k="highway" v="motorway"/>
    <tag k="hov" v="lane"/>
    <tag k="lanes" v="5"/>
    <tag k="name" v="San Bernardino Freeway"/>
    <tag k="note:lanes" v="left lane is hov"/>
    <tag k="oneway" v="yes"/>
    <tag k="ref" v="I 10"/>
    <tag k="x" v="x"/>
  </way>
  <way id="44542369" version="6" timestamp="2011-08-07T19:53:43Z" uid="207745" user="NE2" changeset="8951104">
    <nd ref="25266716"/>
    <nd ref="28456566"/>
    <nd ref="529401599"/>
    <nd ref="25266717"/>
    <nd ref="28456564"/>
    <nd ref="310502081"/>
    <tag k="highway" v="motorway"/>
    <tag k="hov" v="lane"/>
    <tag k="lanes" v="5"/>
    <tag k="name" v="San Bernardino Freeway"/>
    <tag k="note:lanes" v="left lane is hov"/>
    <tag k="oneway" v="yes"/>
    <tag k="ref" v="I 10"/>
  </way>
  <way id="44542369" version="7" timestamp="2011-11-25T15:03:36Z" uid="207745" user="NE2" changeset="9943893">
    <nd ref="25266716"/>
    <nd ref="28456566"/>
    <nd ref="529401599"/>
    <nd ref="25266717"/>
    <nd ref="28456564"/>
    <nd ref="310502081"/>
    <tag k="hgv" v="designated"/>
    <tag k="highway" v="motorway"/>
    <tag k="hov" v="lane"/>
    <tag k="lanes" v="5"/>
    <tag k="name" v="San Bernardino Freeway"/>
    <tag k="note:lanes" v="left lane is hov"/>
    <tag k="oneway" v="yes"/>
    <tag k="ref" v="I 10"/>
  </way>
  <way id="44542369" version="8" timestamp="2012-02-07T09:30:35Z" uid="207745" user="NE2" changeset="10610324">
    <nd ref="25266716"/>
    <nd ref="28456566"/>
    <nd ref="1621320988"/>
    <nd ref="529401599"/>
    <nd ref="25266717"/>
    <nd ref="28456564"/>
    <nd ref="310502081"/>
    <tag k="hgv" v="designated"/>
    <tag k="highway" v="motorway"/>
    <tag k="hov" v="lane"/>
    <tag k="lanes" v="5"/>
    <tag k="name" v="San Bernardino Freeway"/>
    <tag k="note:lanes" v="left lane is hov"/>
    <tag k="oneway" v="yes"/>
    <tag k="ref" v="I 10"/>
  </way>
  <way id="44542368" version="6" timestamp="2012-09-01T01:05:19Z" uid="207745" user="NE2" changeset="12937943">
    <nd ref="565784355"/>
    <nd ref="25266716"/>
    <tag k="bicycle" v="no"/>
    <tag k="bridge" v="yes"/>
    <tag k="hgv" v="designated"/>
    <tag k="highway" v="motorway"/>
    <tag k="hov" v="lane"/>
    <tag k="lanes" v="5"/>
    <tag k="layer" v="1"/>
    <tag k="name" v="San Bernardino Freeway"/>
    <tag k="note:lanes" v="left lane is hov"/>
    <tag k="oneway" v="yes"/>
    <tag k="ref" v="I 10"/>
  </way>
  <way id="44542369" version="9" timestamp="2012-07-22T12:44:53Z" uid="28775" user="StellanL" changeset="12430322">
    <nd ref="25266716"/>
    <nd ref="28456566"/>
    <nd ref="1621320988"/>
    <nd ref="529401599"/>
    <nd ref="25266717"/>
    <nd ref="310502081"/>
    <tag k="hgv" v="designated"/>
    <tag k="highway" v="motorway"/>
    <tag k="hov" v="lane"/>
    <tag k="lanes" v="5"/>
    <tag k="name" v="San Bernardino Freeway"/>
    <tag k="note:lanes" v="left lane is hov"/>
    <tag k="oneway" v="yes"/>
    <tag k="ref" v="I 10"/>
  </way>
  <way id="44542369" version="10" timestamp="2012-09-01T01:06:50Z" uid="207745" user="NE2" changeset="12937943">
    <nd ref="25266716"/>
    <nd ref="28456566"/>
    <nd ref="1621320988"/>
    <nd ref="529401599"/>
    <nd ref="25266717"/>
    <nd ref="310502081"/>
    <tag k="bicycle" v="no"/>
    <tag k="hgv" v="designated"/>
    <tag k="highway" v="motorway"/>
    <tag k="hov" v="lane"/>
    <tag k="lanes" v="5"/>
    <tag k="name" v="San Bernardino Freeway"/>
    <tag k="note:lanes" v="left lane is hov"/>
    <tag k="oneway" v="yes"/>
    <tag k="ref" v="I 10"/>
  </way>
</osm>
