<?xml version='1.0' encoding='UTF-8'?>
<osm version="0.6" generator="libosmium/2.20.0">
  <way id="44646002" version="6" timestamp="2010-05-31T07:55:59Z" uid="286040" user="Balster_neb" changeset="4860542"/>
  <way id="44646003" version="6" timestamp="2010-05-31T07:56:08Z" uid="286040" user="Balster_neb" changeset="4860542"/>
  <way id="44646004" version="6" timestamp="2010-05-31T07:56:10Z" uid="286040" user="Balster_neb" changeset="4860542"/>
  <way id="44646005" version="8" timestamp="2010-05-31T07:56:13Z" uid="286040" user="Balster_neb" changeset="4860542"/>
  <way id="44646960" version="1" timestamp="2009-11-18T19:37:33Z" uid="85955" user="Gerd Höweler" changeset="3154033">
    <nd ref="566716632"/>
    <nd ref="566716631"/>
    <tag k="bridge" v="yes"/>
    <tag k="highway" v="secondary"/>
    <tag k="layer" v="1"/>
    <tag k="name" v="Milser Straße"/>
    <tag k="ref" v="L 779"/>
  </way>
  <way id="44646961" version="1" timestamp="2009-11-18T19:37:33Z" uid="85955" user="Gerd Höweler" changeset="3154033">
    <nd ref="566716631"/>
    <nd ref="528935842"/>
    <tag k="highway" v="secondary"/>
    <tag k="name" v="Milser Straße"/>
    <tag k="ref" v="L 779"/>
  </way>
  <way id="44646961" version="2" timestamp="2011-01-31T16:12:47Z" uid="248787" user="NmdoEVMt" changeset="7146319">
    <nd ref="566716631"/>
    <nd ref="1129530058"/>
    <nd ref="528935842"/>
    <tag k="highway" v="secondary"/>
    <tag k="name" v="Milser Straße"/>
    <tag k="ref" v="L 779"/>
  </way>
  <way id="44646961" version="3" timestamp="2011-12-21T23:21:26Z" uid="60824" user="Carsten Güse" changeset="10176240">
    <nd ref="566716631"/>
    <nd ref="1129530058"/>
    <nd ref="1557683276"/>
    <tag k="highway" v="secondary"/>
    <tag k="name" v="Milser Straße"/>
    <tag k="ref" v="L 779"/>
  </way>
  <way id="44646960" version="2" timestamp="2012-04-10T12:39:31Z" uid="12448" user="Hartmut Holzgraefe" changeset="11251820">
    <nd ref="566716632"/>
    <nd ref="566716631"/>
    <tag k="bridge" v="yes"/>
    <tag k="highway" v="secondary"/>
    <tag k="layer" v="1"/>
    <tag k="name" v="Milser Straße"/>
    <tag k="odbl" v="clean"/>
    <tag k="odbl:reason" v="split of previously clean way"/>
    <tag k="ref" v="L 779"/>
  </way>
  <way id="44646960" version="3" timestamp="2012-07-30T01:50:01Z" uid="461103" user="nomatrix" changeset="12542546">
    <nd ref="566716632"/>
    <nd ref="566716631"/>
    <tag k="bridge" v="yes"/>
    <tag k="highway" v="secondary"/>
    <tag k="layer" v="1"/>
    <tag k="name" v="Milser Straße"/>
    <tag k="ref" v="L 779"/>
  </way>
  <way id="44646961" version="4" timestamp="2012-04-10T12:39:33Z" uid="12448" user="Hartmut Holzgraefe" changeset="11251820">
    <nd ref="566716631"/>
    <nd ref="1129530058"/>
    <nd ref="1557683276"/>
    <tag k="highway" v="secondary"/>
    <tag k="name" v="Milser Straße"/>
    <tag k="odbl" v="clean"/>
    <tag k="odbl:reason" v="split of previously clean way"/>
    <tag k="ref" v="L 779"/>
  </way>
  <way id="44646961" version="5" timestamp="2012-07-30T01:50:01Z" uid="461103" user="nomatrix" changeset="12542546">
    <nd ref="566716631"/>
    <nd ref="1129530058"/>
    <nd ref="1557683276"/>
    <tag k="highway" v="secondary"/>
    <tag k="name" v="Milser Straße"/>
    <tag k="ref" v="L 779"/>
  </way>
</osm>
