<?xml version='1.0' encoding='UTF-8'?>
<osm version="0.6" generator="libosmium/2.20.0">
  <way id="44743647" version="3" timestamp="2010-03-28T11:25:46Z" uid="20587" user="balrog-kun" changeset="4254597">
    <nd ref="567568120"/>
    <nd ref="32581280"/>
    <nd ref="122790545"/>
    <nd ref="122937460"/>
    <nd ref="122857455"/>
    <nd ref="601842453"/>
    <nd ref="16218739"/>
    <tag k="highway" v="primary"/>
    <tag k="name" v="Colorado Boulevard"/>
  </way>
  <way id="44743647" version="4" timestamp="2011-03-16T08:23:08Z" uid="207745" user="NE2" changeset="7573254">
    <nd ref="567568120"/>
    <nd ref="32581280"/>
    <nd ref="122790545"/>
    <nd ref="122937460"/>
    <nd ref="122857455"/>
    <nd ref="601842453"/>
    <nd ref="16218739"/>
    <nd ref="122575436"/>
    <nd ref="122899891"/>
    <tag k="highway" v="primary"/>
    <tag k="name" v="Colorado Boulevard"/>
    <tag k="old_ref" v="US 66 Alternate"/>
    <tag k="source" v="usgs_imagery;survey;image"/>
    <tag k="source_ref" v="AM909_DSCV2863"/>
  </way>
  <way id="44743648" version="2" timestamp="2010-03-28T11:25:46Z" uid="20587" user="balrog-kun" changeset="4254597">
    <nd ref="567568119"/>
    <nd ref="567568120"/>
    <tag k="bridge" v="yes"/>
    <tag k="highway" v="primary"/>
    <tag k="name" v="Colorado Boulevard"/>
  </way>
  <way id="44743648" version="3" timestamp="2011-03-16T08:24:51Z" uid="207745" user="NE2" changeset="7573254">
    <nd ref="567568119"/>
    <nd ref="567568120"/>
    <tag k="bridge" v="yes"/>
    <tag k="highway" v="primary"/>
    <tag k="name" v="Colorado Boulevard"/>
    <tag k="old_ref" v="US 66 Alternate"/>
  </way>
  <way id="44743648" version="4" timestamp="2011-06-26T22:43:20Z" uid="4951" user="PeterIto" changeset="8557191">
    <nd ref="567568119"/>
    <nd ref="567568120"/>
    <tag k="bridge" v="yes"/>
    <tag k="highway" v="primary"/>
    <tag k="layer" v="1"/>
    <tag k="name" v="Colorado Boulevard"/>
    <tag k="old_ref" v="US 66 Alternate"/>
  </way>
  <way id="44743698" version="3" timestamp="2010-03-28T11:25:46Z" uid="20587" user="balrog-kun" changeset="4254597">
    <nd ref="567569417"/>
    <nd ref="122389642"/>
    <tag k="highway" v="residential"/>
    <tag k="name" v="West Union Street"/>
    <tag k="oneway" v="yes"/>
    <tag k="tiger:cfcc" v="A41"/>
    <tag k="tiger:county" v="Los Angeles, CA"/>
    <tag k="tiger:name_base" v="Union"/>
    <tag k="tiger:name_direction_prefix" v="W"/>
    <tag k="tiger:name_type" v="St"/>
    <tag k="tiger:separated" v="no"/>
    <tag k="tiger:source" v="tiger_import_dch_v0.6_20070809"/>
    <tag k="tiger:tlid" v="141629398:141629402"/>
  </way>
  <way id="44743700" version="2" timestamp="2010-03-28T11:25:47Z" uid="20587" user="balrog-kun" changeset="4254597">
    <nd ref="567569409"/>
    <nd ref="567569437"/>
    <tag k="bridge" v="yes"/>
    <tag k="highway" v="tertiary"/>
    <tag k="name" v="St John Avenue"/>
    <tag k="oneway" v="yes"/>
  </way>
  <way id="44743700" version="3" timestamp="2010-04-05T12:35:39Z" uid="20587" user="balrog-kun" changeset="4332433">
    <nd ref="567569409"/>
    <nd ref="567569437"/>
    <tag k="bridge" v="yes"/>
    <tag k="highway" v="tertiary"/>
    <tag k="name" v="Saint John Avenue"/>
    <tag k="oneway" v="yes"/>
  </way>
  <way id="44743700" version="4" timestamp="2011-09-11T03:06:34Z" uid="128470" user="vkungys" changeset="9267306">
    <nd ref="567569409"/>
    <nd ref="567569437"/>
    <tag k="bridge" v="yes"/>
    <tag k="cycleway" v="lane"/>
    <tag k="highway" v="tertiary"/>
    <tag k="name" v="Saint John Avenue"/>
    <tag k="oneway" v="yes"/>
  </way>
  <way id="44743701" version="2" timestamp="2010-03-28T11:25:47Z" uid="20587" user="balrog-kun" changeset="4254597">
    <nd ref="567569437"/>
    <nd ref="122389642"/>
    <nd ref="20827816"/>
    <nd ref="20827761"/>
    <tag k="highway" v="tertiary"/>
    <tag k="name" v="St John Avenue"/>
    <tag k="oneway" v="yes"/>
  </way>
  <way id="44743701" version="3" timestamp="2010-04-05T12:35:39Z" uid="20587" user="balrog-kun" changeset="4332433">
    <nd ref="567569437"/>
    <nd ref="122389642"/>
    <nd ref="20827816"/>
    <nd ref="20827761"/>
    <tag k="highway" v="tertiary"/>
    <tag k="name" v="Saint John Avenue"/>
    <tag k="oneway" v="yes"/>
  </way>
  <way id="44743701" version="4" timestamp="2012-07-19T05:37:12Z" uid="722137" user="OSMF Redaction Account" changeset="12309348">
    <nd ref="567569437"/>
    <nd ref="122389642"/>
    <nd ref="20827761"/>
    <tag k="highway" v="tertiary"/>
    <tag k="name" v="Saint John Avenue"/>
    <tag k="oneway" v="yes"/>
  </way>
</osm>
