<?xml version='1.0' encoding='UTF-8'?>
<osm version="0.6" generator="libosmium/2.20.0">
  <way id="44865244" version="2" timestamp="2010-04-03T04:19:10Z" uid="20587" user="balrog-kun" changeset="4309442">
    <nd ref="41531300"/>
    <nd ref="42320079"/>
    <nd ref="42320083"/>
    <nd ref="41993419"/>
    <nd ref="41992994"/>
    <nd ref="41813622"/>
    <tag k="highway" v="residential"/>
    <tag k="name" v="North 22nd Street"/>
    <tag k="tiger:cfcc" v="A41"/>
    <tag k="tiger:county" v="Maricopa, AZ"/>
    <tag k="tiger:name_base" v="22nd"/>
    <tag k="tiger:name_direction_prefix" v="N"/>
    <tag k="tiger:name_type" v="St"/>
    <tag k="tiger:reviewed" v="no"/>
    <tag k="tiger:separated" v="no"/>
    <tag k="tiger:source" v="tiger_import_dch_v0.6_20070809"/>
    <tag k="tiger:tlid" v="128244799:128244801:128244816:128244817:128244818:128244820:128244821:128244831:128244833:128244835:128246215:128244829"/>
    <tag k="tiger:zip_left" v="85213"/>
    <tag k="tiger:zip_right" v="85213"/>
  </way>
  <way id="44865244" version="3" timestamp="2010-07-26T05:40:08Z" uid="4111" user="adenium" changeset="5318249">
    <nd ref="41531300"/>
    <nd ref="42320079"/>
    <nd ref="42320083"/>
    <nd ref="41993419"/>
    <nd ref="833665735"/>
    <nd ref="41992994"/>
    <nd ref="41813622"/>
    <tag k="highway" v="residential"/>
    <tag k="name" v="North 22nd Street"/>
    <tag k="tiger:cfcc" v="A41"/>
    <tag k="tiger:county" v="Maricopa, AZ"/>
    <tag k="tiger:name_base" v="22nd"/>
    <tag k="tiger:name_direction_prefix" v="N"/>
    <tag k="tiger:name_type" v="St"/>
    <tag k="tiger:reviewed" v="no"/>
    <tag k="tiger:separated" v="no"/>
    <tag k="tiger:source" v="tiger_import_dch_v0.6_20070809"/>
    <tag k="tiger:tlid" v="128244799:128244801:128244816:128244817:128244818:128244820:128244821:128244831:128244833:128244835:128246215:128244829"/>
    <tag k="tiger:zip_left" v="85213"/>
    <tag k="tiger:zip_right" v="85213"/>
  </way>
  <way id="44865500" version="2" timestamp="2010-03-28T11:26:22Z" uid="20587" user="balrog-kun" changeset="4254597">
    <nd ref="123158864"/>
    <nd ref="123158867"/>
    <nd ref="123158870"/>
    <nd ref="123158873"/>
    <nd ref="123158875"/>
    <nd ref="123158884"/>
    <nd ref="123158888"/>
    <nd ref="123158890"/>
    <nd ref="123158892"/>
    <nd ref="123158894"/>
    <nd ref="123158896"/>
    <nd ref="123158898"/>
    <nd ref="123158904"/>
    <nd ref="123158907"/>
    <nd ref="122384943"/>
    <nd ref="281638612"/>
    <tag k="highway" v="track"/>
    <tag k="name" v="Courson Ranch Road"/>
    <tag k="tiger:cfcc" v="A41"/>
    <tag k="tiger:county" v="Los Angeles, CA"/>
    <tag k="tiger:name_base" v="Courson Ranch"/>
    <tag k="tiger:name_type" v="Rd"/>
    <tag k="tiger:separated" v="no"/>
    <tag k="tiger:source" v="tiger_import_dch_v0.6_20070809"/>
    <tag k="tiger:tlid" v="141530071:141530072:141530021"/>
  </way>
  <way id="44865502" version="2" timestamp="2010-03-28T11:26:23Z" uid="20587" user="balrog-kun" changeset="4254597">
    <nd ref="123158858"/>
    <nd ref="123158864"/>
    <tag k="highway" v="track"/>
    <tag k="layer" v="-1"/>
    <tag k="name" v="Courson Ranch Road"/>
    <tag k="tiger:cfcc" v="A41"/>
    <tag k="tiger:county" v="Los Angeles, CA"/>
    <tag k="tiger:name_base" v="Courson Ranch"/>
    <tag k="tiger:name_type" v="Rd"/>
    <tag k="tiger:separated" v="no"/>
    <tag k="tiger:source" v="tiger_import_dch_v0.6_20070809"/>
    <tag k="tiger:tlid" v="141530071:141530072:141530021"/>
    <tag k="tunnel" v="yes"/>
  </way>
  <way id="44865600" version="2" timestamp="2010-04-04T01:41:13Z" uid="20587" user="balrog-kun" changeset="4318136">
    <nd ref="568805964"/>
    <nd ref="176139342"/>
    <nd ref="176140764"/>
    <tag k="highway" v="residential"/>
    <tag k="name" v="East Long Avenue"/>
    <tag k="tiger:cfcc" v="A41"/>
    <tag k="tiger:county" v="Arapahoe, CO"/>
    <tag k="tiger:name_base" v="Long"/>
    <tag k="tiger:name_direction_prefix" v="E"/>
    <tag k="tiger:name_type" v="Ave"/>
    <tag k="tiger:separated" v="no"/>
    <tag k="tiger:source" v="tiger_import_dch_v0.6_20070809"/>
    <tag k="tiger:tlid" v="177346301"/>
  </way>
  <way id="44865617" version="2" timestamp="2010-04-04T01:41:13Z" uid="20587" user="balrog-kun" changeset="4318136">
    <nd ref="568805964"/>
    <nd ref="568806002"/>
    <nd ref="568806003"/>
    <nd ref="568806004"/>
    <nd ref="568805848"/>
    <tag k="highway" v="residential"/>
    <tag k="name" v="East Long Avenue"/>
    <tag k="oneway" v="yes"/>
    <tag k="tiger:cfcc" v="A41"/>
    <tag k="tiger:county" v="Arapahoe, CO"/>
    <tag k="tiger:name_base" v="Long"/>
    <tag k="tiger:name_direction_prefix" v="E"/>
    <tag k="tiger:name_type" v="Ave"/>
    <tag k="tiger:separated" v="no"/>
    <tag k="tiger:source" v="tiger_import_dch_v0.6_20070809"/>
    <tag k="tiger:tlid" v="177346301"/>
  </way>
  <way id="44865912" version="1" timestamp="2009-11-22T22:28:19Z" uid="20587" user="balrog-kun" changeset="3191630">
    <nd ref="537214866"/>
    <nd ref="537214864"/>
    <nd ref="537214862"/>
    <nd ref="537214858"/>
    <tag k="highway" v="living_street"/>
    <tag k="note" v="Filip - no, nie tylko ulice"/>
    <tag k="source" v="http://ump.waw.pl/ retrieved 17:43:01 10/18/09 (UMP-Warszawa/src/GRODZISK.drogi.txt)"/>
  </way>
  <way id="44865912" version="2" timestamp="2011-09-07T09:06:31Z" uid="210515" user="Janek" changeset="9234779">
    <nd ref="537214866"/>
    <nd ref="1425983067"/>
    <nd ref="537214864"/>
    <nd ref="1425983080"/>
    <nd ref="537214862"/>
    <nd ref="537214858"/>
    <tag k="highway" v="living_street"/>
    <tag k="note" v="Filip - no, nie tylko ulice"/>
    <tag k="source" v="http://ump.waw.pl/ retrieved 17:43:01 10/18/09 (UMP-Warszawa/src/GRODZISK.drogi.txt)"/>
  </way>
  <way id="44865912" version="3" timestamp="2011-12-14T11:29:58Z" uid="44414" user="marimil" changeset="10114788"/>
  <way id="44865913" version="1" timestamp="2009-11-22T22:28:20Z" uid="20587" user="balrog-kun" changeset="3191630">
    <nd ref="537259963"/>
    <nd ref="537259967"/>
    <nd ref="537259966"/>
    <nd ref="537259965"/>
    <nd ref="537259964"/>
    <nd ref="537259968"/>
    <nd ref="537259969"/>
    <nd ref="537259970"/>
    <nd ref="537259971"/>
    <nd ref="537259972"/>
    <nd ref="537259973"/>
    <nd ref="537259974"/>
    <nd ref="537259975"/>
    <nd ref="537259976"/>
    <nd ref="537259977"/>
    <tag k="highway" v="path"/>
    <tag k="marked_trail_yellow" v="yes"/>
    <tag k="name" v="zolty"/>
    <tag k="note" v="z szlaki_mazowsza.mp (zweryfikowany)"/>
    <tag k="ref" v="Żółty szlak"/>
    <tag k="source" v="http://ump.waw.pl/ retrieved 17:43:01 10/18/09 (UMP-Warszawa/src/WARSZAWA.szlaki.topo.txt)"/>
  </way>
  <way id="44865913" version="2" timestamp="2009-11-23T01:39:47Z" uid="20587" user="balrog-kun" changeset="3192263">
    <nd ref="537259963"/>
    <nd ref="537259967"/>
    <nd ref="537259966"/>
    <nd ref="537259965"/>
    <nd ref="537259964"/>
    <nd ref="537259968"/>
    <nd ref="537259969"/>
    <nd ref="537259970"/>
    <nd ref="537259971"/>
    <nd ref="537259972"/>
    <nd ref="537259973"/>
    <nd ref="537259974"/>
    <nd ref="537259975"/>
    <nd ref="537259976"/>
    <nd ref="537259977"/>
    <tag k="highway" v="path"/>
    <tag k="note" v="z szlaki_mazowsza.mp (zweryfikowany)"/>
    <tag k="source" v="http://ump.waw.pl/ retrieved 17:43:01 10/18/09 (UMP-Warszawa/src/WARSZAWA.szlaki.topo.txt)"/>
  </way>
  <way id="44865913" version="3" timestamp="2011-04-25T15:07:09Z" uid="98542" user="wajak" changeset="7964598">
    <nd ref="537259963"/>
    <nd ref="537259967"/>
    <nd ref="537259966"/>
    <nd ref="537259965"/>
    <nd ref="537259964"/>
    <nd ref="537259968"/>
    <tag k="highway" v="path"/>
    <tag k="note" v="z szlaki_mazowsza.mp (zweryfikowany)"/>
  </way>
  <way id="44865914" version="1" timestamp="2009-11-22T22:28:20Z" uid="20587" user="balrog-kun" changeset="3191630">
    <nd ref="537215244"/>
    <nd ref="537215330"/>
    <nd ref="537215153"/>
    <tag k="addr:city" v="Grzegorzewice"/>
    <tag k="highway" v="tertiary"/>
    <tag k="name" v="Pałacowa"/>
    <tag k="source" v="http://ump.waw.pl/ retrieved 17:43:01 10/18/09 (UMP-Warszawa/src/GRODZISK.drogi.txt)"/>
  </way>
  <way id="44865914" version="2" timestamp="2010-01-06T18:07:42Z" uid="163896" user="Zbigniew Czernik" changeset="3555859">
    <nd ref="537215244"/>
    <nd ref="537215330"/>
    <nd ref="537215153"/>
    <tag k="addr:city" v="Grzegorzewice"/>
    <tag k="highway" v="residential"/>
    <tag k="name" v="Pałacowa"/>
    <tag k="source" v="http://ump.waw.pl/ retrieved 17:43:01 10/18/09 (UMP-Warszawa/src/GRODZISK.drogi.txt)"/>
  </way>
  <way id="44865914" version="3" timestamp="2010-11-28T18:58:11Z" uid="165509" user="koszatek" changeset="6481107">
    <nd ref="537215244"/>
    <nd ref="537215330"/>
    <nd ref="537215153"/>
    <nd ref="1011408928"/>
    <nd ref="1011408428"/>
    <tag k="addr:city" v="Grzegorzewice"/>
    <tag k="highway" v="track"/>
    <tag k="name" v="Pałacowa"/>
    <tag k="tracktype" v="grade1"/>
  </way>
  <way id="44865915" version="1" timestamp="2009-11-22T22:28:20Z" uid="20587" user="balrog-kun" changeset="3191630">
    <nd ref="537259963"/>
    <nd ref="537215577"/>
    <nd ref="537215578"/>
    <nd ref="537215580"/>
    <nd ref="537215582"/>
    <tag k="highway" v="track"/>
    <tag k="source" v="http://ump.waw.pl/ retrieved 17:43:01 10/18/09 (UMP-Warszawa/src/GRODZISK.drogi.txt)"/>
  </way>
  <way id="44865915" version="2" timestamp="2011-04-30T18:05:23Z" uid="98542" user="wajak" changeset="8014213">
    <nd ref="537259963"/>
    <nd ref="1267777480"/>
    <nd ref="537215577"/>
    <nd ref="1267777645"/>
    <nd ref="537215578"/>
    <tag k="highway" v="track"/>
    <tag k="tracktype" v="grade2"/>
  </way>
  <way id="44865915" version="3" timestamp="2011-05-18T09:59:32Z" uid="98542" user="wajak" changeset="8179500">
    <nd ref="537259963"/>
    <nd ref="1267777480"/>
    <nd ref="537215577"/>
    <nd ref="1267777645"/>
    <nd ref="537215578"/>
    <tag k="highway" v="track"/>
    <tag k="name" v="Aleja Lipowa"/>
    <tag k="tracktype" v="grade2"/>
  </way>
  <way id="44865916" version="1" timestamp="2009-11-22T22:28:20Z" uid="20587" user="balrog-kun" changeset="3191630">
    <nd ref="537259977"/>
    <nd ref="537260364"/>
    <nd ref="537260365"/>
    <nd ref="537259861"/>
    <tag k="highway" v="footway"/>
    <tag k="source" v="http://ump.waw.pl/ retrieved 17:43:01 10/18/09 (UMP-Warszawa/src/GRODZISK.drogi.txt)"/>
  </way>
  <way id="44865916" version="2" timestamp="2011-04-25T15:07:28Z" uid="98542" user="wajak" changeset="7964598">
    <nd ref="537259977"/>
    <nd ref="537260364"/>
    <nd ref="537260365"/>
    <nd ref="1259626388"/>
    <nd ref="537259861"/>
    <tag k="highway" v="track"/>
    <tag k="tracktype" v="grade3"/>
  </way>
  <way id="44865918" version="1" timestamp="2009-11-22T22:28:20Z" uid="20587" user="balrog-kun" changeset="3191630">
    <nd ref="537259944"/>
    <nd ref="537259946"/>
    <nd ref="537259947"/>
    <nd ref="568808365"/>
    <tag k="highway" v="path"/>
    <tag k="note" v="z szlaki_mazowsza.mp (zweryfikowany)"/>
    <tag k="source" v="http://ump.waw.pl/ retrieved 17:43:01 10/18/09 (UMP-Warszawa/src/WARSZAWA.szlaki.topo.txt)"/>
  </way>
  <way id="44865918" version="2" timestamp="2011-04-26T18:19:43Z" uid="98542" user="wajak" changeset="7977851">
    <nd ref="537259944"/>
    <nd ref="537259946"/>
    <nd ref="1261071402"/>
    <nd ref="1261071408"/>
    <nd ref="537259947"/>
    <nd ref="568808365"/>
    <tag k="highway" v="path"/>
    <tag k="note" v="z szlaki_mazowsza.mp (zweryfikowany)"/>
    <tag k="source" v="http://ump.waw.pl/ retrieved 17:43:01 10/18/09 (UMP-Warszawa/src/WARSZAWA.szlaki.topo.txt)"/>
  </way>
  <way id="44865919" version="1" timestamp="2009-11-22T22:28:20Z" uid="20587" user="balrog-kun" changeset="3191630">
    <nd ref="568808365"/>
    <nd ref="27283184"/>
    <tag k="highway" v="residential"/>
    <tag k="source" v="http://ump.waw.pl/ retrieved 17:43:01 10/18/09 (UMP-Warszawa/src/GRODZISK.drogi.txt)"/>
  </way>
  <way id="44865920" version="1" timestamp="2009-11-22T22:28:20Z" uid="20587" user="balrog-kun" changeset="3191630">
    <nd ref="537215582"/>
    <nd ref="537259927"/>
    <nd ref="537259926"/>
    <nd ref="568808365"/>
    <tag k="highway" v="residential"/>
    <tag k="source" v="http://ump.waw.pl/ retrieved 17:43:01 10/18/09 (UMP-Warszawa/src/GRODZISK.drogi.txt)"/>
  </way>
  <way id="44865920" version="2" timestamp="2011-04-30T18:05:23Z" uid="98542" user="wajak" changeset="8014213">
    <nd ref="537215582"/>
    <nd ref="537259927"/>
    <nd ref="537259926"/>
    <nd ref="568808365"/>
    <tag k="highway" v="unclassified"/>
    <tag k="surface" v="asphalt"/>
  </way>
  <way id="44865921" version="1" timestamp="2009-11-22T22:28:20Z" uid="20587" user="balrog-kun" changeset="3191630">
    <nd ref="537201554"/>
    <nd ref="537201546"/>
    <nd ref="537201552"/>
    <nd ref="537201551"/>
    <tag k="addr:city" v="Kuklówka"/>
    <tag k="highway" v="secondary"/>
    <tag k="name" v="Grodziska"/>
    <tag k="ref" v="579"/>
    <tag k="source" v="http://ump.waw.pl/ retrieved 17:43:01 10/18/09 (UMP-Warszawa/src/ZYRARDOW.drogi.txt)"/>
  </way>
  <way id="44865921" version="2" timestamp="2011-01-28T20:57:20Z" uid="98542" user="wajak" changeset="7116987">
    <nd ref="537201554"/>
    <nd ref="1125395496"/>
    <tag k="addr:city" v="Kuklówka"/>
    <tag k="highway" v="secondary"/>
    <tag k="name" v="Grodziska"/>
    <tag k="ref" v="579"/>
    <tag k="source" v="http://ump.waw.pl/ retrieved 17:43:01 10/18/09 (UMP-Warszawa/src/ZYRARDOW.drogi.txt)"/>
  </way>
  <way id="44865922" version="1" timestamp="2009-11-22T22:28:21Z" uid="20587" user="balrog-kun" changeset="3191630">
    <nd ref="537201551"/>
    <nd ref="537201542"/>
    <nd ref="537201520"/>
    <tag k="addr:city" v="Kuklówka"/>
    <tag k="highway" v="secondary"/>
    <tag k="name" v="Grodziska"/>
    <tag k="ref" v="579"/>
    <tag k="source" v="http://ump.waw.pl/ retrieved 17:43:01 10/18/09 (UMP-Warszawa/src/ZYRARDOW.drogi.txt)"/>
  </way>
  <way id="44865922" version="2" timestamp="2011-01-28T21:01:36Z" uid="98542" user="wajak" changeset="7117034">
    <nd ref="537201551"/>
    <nd ref="1125398291"/>
    <nd ref="537201542"/>
    <nd ref="537201520"/>
    <tag k="addr:city" v="Kuklówka"/>
    <tag k="highway" v="secondary"/>
    <tag k="name" v="Grodziska"/>
    <tag k="ref" v="579"/>
    <tag k="source" v="http://ump.waw.pl/ retrieved 17:43:01 10/18/09 (UMP-Warszawa/src/ZYRARDOW.drogi.txt)"/>
  </way>
  <way id="44865985" version="5" timestamp="2011-02-21T18:54:19Z" uid="49111" user="Markus B" changeset="7356787">
    <nd ref="51165029"/>
    <nd ref="1165526232"/>
    <nd ref="1165526170"/>
    <nd ref="1165531132"/>
    <nd ref="1165530872"/>
    <nd ref="51165045"/>
    <nd ref="1165528339"/>
    <nd ref="1165528899"/>
    <nd ref="1165529953"/>
    <nd ref="1165530545"/>
    <nd ref="1165530999"/>
    <nd ref="51165018"/>
    <nd ref="1165528494"/>
    <nd ref="51165021"/>
    <nd ref="51165013"/>
    <nd ref="51165016"/>
    <nd ref="1165526451"/>
    <nd ref="1165526751"/>
    <nd ref="568809324"/>
    <nd ref="1165529761"/>
    <nd ref="1165526581"/>
    <nd ref="568809332"/>
    <nd ref="1165529662"/>
    <nd ref="568809320"/>
    <nd ref="51164960"/>
    <nd ref="51164956"/>
    <nd ref="568809330"/>
    <nd ref="1165530175"/>
    <nd ref="1165530665"/>
    <nd ref="568809328"/>
    <nd ref="568809327"/>
  </way>
  <way id="44865985" version="6" timestamp="2012-01-20T11:37:58Z" uid="496827" user="Cesarbcg" changeset="10444622">
    <nd ref="51165029"/>
    <nd ref="1165526232"/>
    <nd ref="1165526170"/>
    <nd ref="1165531132"/>
    <nd ref="1165530872"/>
    <nd ref="51165045"/>
    <nd ref="1165528339"/>
    <nd ref="1165528899"/>
    <nd ref="1165529953"/>
    <nd ref="1165530545"/>
    <nd ref="1165530999"/>
    <nd ref="51165018"/>
    <nd ref="1165528494"/>
    <nd ref="51165021"/>
    <nd ref="51165013"/>
    <nd ref="51165016"/>
    <nd ref="1165526451"/>
    <nd ref="1165526751"/>
    <nd ref="568809324"/>
    <nd ref="1165529761"/>
    <nd ref="1165526581"/>
    <nd ref="568809332"/>
    <nd ref="1165529662"/>
    <nd ref="568809320"/>
    <nd ref="51164960"/>
    <nd ref="1598822126"/>
    <nd ref="1598822125"/>
    <nd ref="51164956"/>
    <nd ref="568809330"/>
    <nd ref="1165530175"/>
    <nd ref="1165530665"/>
    <nd ref="568809328"/>
    <nd ref="568809327"/>
  </way>
  <way id="44865985" version="7" timestamp="2012-03-06T23:47:24Z" uid="514939" user="Trubshaw" changeset="10895708"/>
  <way id="44865500" version="3" timestamp="2012-07-19T04:10:04Z" uid="722137" user="OSMF Redaction Account" changeset="12307701">
    <nd ref="123158864"/>
    <nd ref="123158867"/>
    <nd ref="123158870"/>
    <nd ref="123158873"/>
    <nd ref="123158875"/>
    <nd ref="123158884"/>
    <nd ref="123158888"/>
    <nd ref="123158890"/>
    <nd ref="123158892"/>
    <nd ref="123158894"/>
    <nd ref="123158896"/>
    <nd ref="123158898"/>
    <nd ref="123158904"/>
    <nd ref="123158907"/>
    <nd ref="122384943"/>
    <tag k="highway" v="track"/>
    <tag k="name" v="Courson Ranch Road"/>
    <tag k="tiger:cfcc" v="A41"/>
    <tag k="tiger:county" v="Los Angeles, CA"/>
    <tag k="tiger:name_base" v="Courson Ranch"/>
    <tag k="tiger:name_type" v="Rd"/>
    <tag k="tiger:separated" v="no"/>
    <tag k="tiger:source" v="tiger_import_dch_v0.6_20070809"/>
    <tag k="tiger:tlid" v="141530071:141530072:141530021"/>
  </way>
  <way id="44865913" version="4" timestamp="2012-07-24T22:55:22Z" uid="722137" user="OSMF Redaction Account" changeset="12478190">
    <nd ref="537259963"/>
    <nd ref="537259967"/>
    <nd ref="537259966"/>
    <nd ref="537259965"/>
    <nd ref="537259968"/>
    <tag k="highway" v="path"/>
    <tag k="note" v="z szlaki_mazowsza.mp (zweryfikowany)"/>
  </way>
  <way id="44865914" version="4" timestamp="2012-07-24T00:24:45Z" uid="165509" user="koszatek" changeset="12458947">
    <nd ref="537215244"/>
    <nd ref="537215330"/>
    <nd ref="537215153"/>
    <nd ref="1011408928"/>
    <nd ref="1011408428"/>
    <tag k="addr:city" v="Grzegorzewice"/>
    <tag k="highway" v="track"/>
    <tag k="name" v="Pałacowa"/>
    <tag k="odbl" v="clean"/>
    <tag k="tracktype" v="grade1"/>
  </way>
  <way id="44865914" version="5" timestamp="2012-07-25T04:57:13Z" uid="722137" user="OSMF Redaction Account" changeset="12480862">
    <nd ref="537215330"/>
    <nd ref="537215153"/>
    <nd ref="1011408928"/>
    <nd ref="1011408428"/>
    <tag k="addr:city" v="Grzegorzewice"/>
    <tag k="highway" v="track"/>
    <tag k="name" v="Pałacowa"/>
    <tag k="odbl" v="clean"/>
    <tag k="tracktype" v="grade1"/>
  </way>
  <way id="44865914" version="6" timestamp="2012-08-13T15:11:27Z" uid="165509" user="koszatek" changeset="12715254">
    <nd ref="1864396899"/>
    <nd ref="1864396901"/>
    <nd ref="537215330"/>
    <nd ref="537215153"/>
    <nd ref="1011408928"/>
    <nd ref="1011408428"/>
    <tag k="addr:city" v="Grzegorzewice"/>
    <tag k="highway" v="track"/>
    <tag k="name" v="Pałacowa"/>
    <tag k="odbl" v="clean"/>
    <tag k="tracktype" v="grade2"/>
  </way>
  <way id="44865915" version="4" timestamp="2012-07-24T22:55:21Z" uid="722137" user="OSMF Redaction Account" changeset="12478190">
    <nd ref="537259963"/>
    <nd ref="1267777480"/>
    <nd ref="1267777645"/>
    <tag k="highway" v="track"/>
    <tag k="name" v="Aleja Lipowa"/>
    <tag k="tracktype" v="grade2"/>
  </way>
  <way id="44865916" version="3" timestamp="2012-07-24T22:55:22Z" uid="722137" user="OSMF Redaction Account" changeset="12478190">
    <nd ref="1259626388"/>
    <nd ref="537259861"/>
    <tag k="highway" v="track"/>
    <tag k="tracktype" v="grade3"/>
  </way>
  <way id="44865920" version="3" timestamp="2012-07-24T22:55:20Z" uid="722137" user="OSMF Redaction Account" changeset="12478190">
    <nd ref="537215582"/>
    <nd ref="568808365"/>
    <tag k="highway" v="unclassified"/>
    <tag k="surface" v="asphalt"/>
  </way>
  <way id="44865921" version="3" timestamp="2012-04-08T07:27:19Z" uid="98542" user="wajak" changeset="11221583">
    <nd ref="537201554"/>
    <nd ref="1125395496"/>
    <tag k="highway" v="secondary"/>
    <tag k="name" v="Grodziska"/>
    <tag k="ref" v="579"/>
  </way>
  <way id="44865921" version="4" timestamp="2012-07-26T12:51:53Z" uid="98542" user="wajak" changeset="12498901">
    <nd ref="537201579"/>
    <nd ref="537202261"/>
    <nd ref="1838711035"/>
    <nd ref="1838711034"/>
    <nd ref="1838711041"/>
    <nd ref="537201554"/>
    <nd ref="1125395496"/>
    <tag k="highway" v="secondary"/>
    <tag k="name" v="Grodziska"/>
    <tag k="ref" v="579"/>
  </way>
  <way id="44865921" version="5" timestamp="2012-08-12T01:03:28Z" uid="277387" user="rogal" changeset="12697153">
    <nd ref="537201579"/>
    <nd ref="537202261"/>
    <nd ref="1862384469"/>
    <nd ref="1838711035"/>
    <nd ref="1838711034"/>
    <nd ref="1838711041"/>
    <nd ref="537201554"/>
    <nd ref="1862384517"/>
    <nd ref="1862384519"/>
    <nd ref="1125395496"/>
    <tag k="highway" v="secondary"/>
    <tag k="name" v="Grodziska"/>
    <tag k="ref" v="579"/>
  </way>
  <way id="44865921" version="6" timestamp="2012-08-15T18:58:00Z" uid="98542" user="wajak" changeset="12742612">
    <nd ref="537201579"/>
    <nd ref="537202261"/>
    <nd ref="1862384469"/>
    <nd ref="1838711035"/>
    <nd ref="1838711034"/>
    <nd ref="1838711041"/>
    <nd ref="1867707372"/>
    <nd ref="537201554"/>
    <nd ref="1862384517"/>
    <nd ref="1862384519"/>
    <nd ref="1125395496"/>
    <tag k="highway" v="secondary"/>
    <tag k="name" v="Grodziska"/>
    <tag k="ref" v="579"/>
  </way>
  <way id="44865922" version="3" timestamp="2012-04-08T07:27:20Z" uid="98542" user="wajak" changeset="11221583">
    <nd ref="537201551"/>
    <nd ref="1125398291"/>
    <nd ref="537201542"/>
    <nd ref="537201520"/>
    <tag k="highway" v="secondary"/>
    <tag k="name" v="Grodziska"/>
    <tag k="ref" v="579"/>
  </way>
  <way id="44865922" version="4" timestamp="2012-07-24T23:03:16Z" uid="722137" user="OSMF Redaction Account" changeset="12478294">
    <nd ref="537201551"/>
    <nd ref="1125398291"/>
    <tag k="highway" v="secondary"/>
    <tag k="name" v="Grodziska"/>
    <tag k="ref" v="579"/>
  </way>
</osm>
