<?xml version='1.0' encoding='UTF-8'?>
<osm version="0.6" generator="libosmium/2.20.0">
  <way id="44983129" version="2" timestamp="2010-04-04T01:41:53Z" uid="20587" user="balrog-kun" changeset="4318136">
    <nd ref="570296191"/>
    <nd ref="570296194"/>
    <tag k="bicycle" v="yes"/>
    <tag k="bridge" v="yes"/>
    <tag k="foot" v="yes"/>
    <tag k="highway" v="path"/>
    <tag k="name" v="136th OS path South"/>
    <tag k="surface" v="paved"/>
    <tag k="width" v="3"/>
  </way>
  <way id="44983436" version="3" timestamp="2010-04-04T01:41:54Z" uid="20587" user="balrog-kun" changeset="4318136">
    <nd ref="570296289"/>
    <nd ref="570296290"/>
    <nd ref="570296292"/>
    <nd ref="570296293"/>
    <nd ref="570296294"/>
    <nd ref="570296298"/>
    <nd ref="570296299"/>
    <nd ref="570296209"/>
    <nd ref="570296301"/>
    <nd ref="570296302"/>
    <nd ref="570296304"/>
    <nd ref="570296306"/>
    <nd ref="570296307"/>
    <nd ref="570296309"/>
    <nd ref="570296310"/>
    <nd ref="570296312"/>
    <nd ref="570296204"/>
    <nd ref="570296313"/>
    <nd ref="570296315"/>
    <nd ref="570296316"/>
    <nd ref="570296317"/>
    <nd ref="570296220"/>
    <nd ref="570296319"/>
    <nd ref="570296320"/>
    <nd ref="570296323"/>
    <nd ref="570296191"/>
    <tag k="bicycle" v="yes"/>
    <tag k="foot" v="yes"/>
    <tag k="highway" v="path"/>
    <tag k="name" v="Trail Winds OS path South"/>
    <tag k="surface" v="paved"/>
    <tag k="width" v="3"/>
  </way>
  <way id="44983957" version="5" timestamp="2010-07-08T04:41:29Z" uid="30201" user="rrankin" changeset="5163349">
    <nd ref="244128711"/>
    <nd ref="60715644"/>
    <tag k="cycleway" v="shared footpath"/>
    <tag k="highway" v="primary"/>
    <tag k="lcn" v="yes"/>
    <tag k="maxspeed" v="60"/>
    <tag k="name" v="Victoria Road"/>
    <tag k="oneway" v="yes"/>
  </way>
  <way id="44983957" version="6" timestamp="2010-09-07T06:28:44Z" uid="320632" user="Zulu99" changeset="5704640">
    <nd ref="244128711"/>
    <nd ref="60715644"/>
    <tag k="highway" v="primary"/>
    <tag k="lcn" v="yes"/>
    <tag k="maxspeed" v="60"/>
    <tag k="name" v="Victoria Road"/>
    <tag k="oneway" v="yes"/>
  </way>
  <way id="44983957" version="7" timestamp="2012-02-02T02:15:07Z" uid="54784" user="Tom Hollander" changeset="10564163">
    <nd ref="244128711"/>
    <nd ref="60715644"/>
    <tag k="highway" v="primary"/>
    <tag k="lcn" v="yes"/>
    <tag k="maxspeed" v="60"/>
    <tag k="name" v="Victoria Road"/>
    <tag k="oneway" v="yes"/>
    <tag k="ref" v="SH40"/>
  </way>
  <way id="44983961" version="2" timestamp="2010-04-01T17:59:55Z" uid="74617" user="JohnSmith" changeset="4296292">
    <nd ref="244128699"/>
    <nd ref="244128711"/>
    <tag k="cycleway" v="shared footpath"/>
    <tag k="highway" v="primary"/>
    <tag k="lcn" v="yes"/>
    <tag k="name" v="Victoria Road"/>
    <tag k="oneway" v="yes"/>
  </way>
  <way id="44983961" version="3" timestamp="2010-07-01T01:57:10Z" uid="299678" user="peteramjet" changeset="5117670">
    <nd ref="244128699"/>
    <nd ref="244128711"/>
    <tag k="cycleway" v="shared footpath"/>
    <tag k="highway" v="primary"/>
    <tag k="lcn" v="yes"/>
    <tag k="name" v="Victoria Road"/>
    <tag k="oneway" v="yes"/>
    <tag k="ref" v="S40"/>
  </way>
  <way id="44983961" version="4" timestamp="2010-07-05T05:34:09Z" uid="299678" user="peteramjet" changeset="5138846">
    <nd ref="244128699"/>
    <nd ref="244128711"/>
    <tag k="cycleway" v="shared footpath"/>
    <tag k="highway" v="primary"/>
    <tag k="lcn" v="yes"/>
    <tag k="name" v="Victoria Road"/>
    <tag k="oneway" v="yes"/>
  </way>
  <way id="44983961" version="5" timestamp="2010-07-08T04:41:28Z" uid="30201" user="rrankin" changeset="5163349">
    <nd ref="244128699"/>
    <nd ref="244128711"/>
    <tag k="cycleway" v="shared footpath"/>
    <tag k="highway" v="primary"/>
    <tag k="lcn" v="yes"/>
    <tag k="maxspeed" v="60"/>
    <tag k="name" v="Victoria Road"/>
    <tag k="oneway" v="yes"/>
  </way>
  <way id="44983961" version="6" timestamp="2010-09-07T06:28:44Z" uid="320632" user="Zulu99" changeset="5704640">
    <nd ref="244128699"/>
    <nd ref="244128711"/>
    <tag k="highway" v="primary"/>
    <tag k="lcn" v="yes"/>
    <tag k="maxspeed" v="60"/>
    <tag k="name" v="Victoria Road"/>
    <tag k="oneway" v="yes"/>
  </way>
  <way id="44983961" version="7" timestamp="2012-02-02T02:15:07Z" uid="54784" user="Tom Hollander" changeset="10564163">
    <nd ref="244128699"/>
    <nd ref="244128711"/>
    <tag k="highway" v="primary"/>
    <tag k="lcn" v="yes"/>
    <tag k="maxspeed" v="60"/>
    <tag k="name" v="Victoria Road"/>
    <tag k="oneway" v="yes"/>
    <tag k="ref" v="SH40"/>
  </way>
  <way id="44983957" version="8" timestamp="2012-07-19T23:09:04Z" uid="722137" user="OSMF Redaction Account" changeset="12351313">
    <nd ref="244128711"/>
    <nd ref="60715644"/>
    <tag k="highway" v="primary"/>
    <tag k="lcn" v="yes"/>
    <tag k="name" v="Victoria Road"/>
    <tag k="oneway" v="yes"/>
    <tag k="ref" v="SH40"/>
  </way>
  <way id="44983961" version="8" timestamp="2012-07-19T23:09:05Z" uid="722137" user="OSMF Redaction Account" changeset="12351313">
    <nd ref="244128699"/>
    <nd ref="244128711"/>
    <tag k="highway" v="primary"/>
    <tag k="lcn" v="yes"/>
    <tag k="name" v="Victoria Road"/>
    <tag k="oneway" v="yes"/>
    <tag k="ref" v="SH40"/>
  </way>
  <way id="44983961" version="9" timestamp="2012-07-20T20:45:35Z" uid="105255" user="Sven L" changeset="12391017">
    <nd ref="8965603"/>
    <nd ref="1832490625"/>
    <nd ref="1832490577"/>
    <nd ref="244128699"/>
    <nd ref="244128711"/>
    <tag k="highway" v="primary"/>
    <tag k="lcn" v="yes"/>
    <tag k="name" v="Victoria Road"/>
    <tag k="oneway" v="yes"/>
    <tag k="ref" v="SH40"/>
  </way>
</osm>
