<?xml version='1.0' encoding='UTF-8'?>
<osm version="0.6" generator="libosmium/2.20.0">
  <way id="45127503" version="2" timestamp="2011-01-02T08:46:07Z" uid="20587" user="balrog-kun" changeset="6835962">
    <nd ref="572316503"/>
    <nd ref="572316505"/>
    <tag k="aeroway" v="runway"/>
    <tag k="name" v="09/27"/>
    <tag k="source" v="landsat"/>
  </way>
  <way id="45127545" version="3" timestamp="2010-07-09T02:49:15Z" uid="74617" user="JohnSmith" changeset="5170713">
    <nd ref="27289035"/>
    <nd ref="610702247"/>
    <nd ref="27289034"/>
    <nd ref="610702249"/>
    <nd ref="27289032"/>
    <nd ref="610702250"/>
    <nd ref="610702251"/>
    <nd ref="27289031"/>
    <tag k="highway" v="residential"/>
    <tag k="maxspeed" v="50"/>
    <tag k="maxspeed:source" v="default residential speed limit in Australia"/>
    <tag k="name" v="Sherwood Road"/>
    <tag k="oneway" v="yes"/>
  </way>
  <way id="45127545" version="4" timestamp="2010-08-19T07:09:20Z" uid="4467" user="Rosscoe" changeset="5532934">
    <nd ref="27289035"/>
    <nd ref="610702247"/>
    <nd ref="27289034"/>
    <nd ref="610702249"/>
    <nd ref="27289032"/>
    <nd ref="610702250"/>
    <nd ref="610702251"/>
    <nd ref="27289031"/>
    <tag k="highway" v="residential"/>
    <tag k="maxspeed" v="50"/>
    <tag k="name" v="Sherwood Road"/>
    <tag k="oneway" v="yes"/>
    <tag k="source:maxspeed" v="default residential speed limit in Australia"/>
  </way>
  <way id="45127545" version="5" timestamp="2012-01-19T11:14:26Z" uid="147510" user="woodpeck_fixbot" changeset="10436041">
    <nd ref="27289035"/>
    <nd ref="610702247"/>
    <nd ref="27289034"/>
    <nd ref="610702249"/>
    <nd ref="27289032"/>
    <nd ref="610702250"/>
    <nd ref="610702251"/>
    <nd ref="27289031"/>
    <tag k="highway" v="residential"/>
    <tag k="name" v="Sherwood Road"/>
    <tag k="oneway" v="yes"/>
    <tag k="source:maxspeed" v="default residential speed limit in Australia"/>
  </way>
  <way id="45127547" version="3" timestamp="2010-07-09T02:44:19Z" uid="74617" user="JohnSmith" changeset="5170713">
    <nd ref="27289031"/>
    <nd ref="671205419"/>
    <tag k="highway" v="residential"/>
    <tag k="maxspeed" v="50"/>
    <tag k="maxspeed:source" v="default residential speed limit in Australia"/>
    <tag k="name" v="Sherwood Road"/>
  </way>
  <way id="45127547" version="4" timestamp="2010-08-19T07:08:54Z" uid="4467" user="Rosscoe" changeset="5532934">
    <nd ref="27289031"/>
    <nd ref="671205419"/>
    <tag k="highway" v="residential"/>
    <tag k="maxspeed" v="50"/>
    <tag k="name" v="Sherwood Road"/>
    <tag k="source:maxspeed" v="default residential speed limit in Australia"/>
  </way>
  <way id="45127547" version="5" timestamp="2012-01-19T11:14:27Z" uid="147510" user="woodpeck_fixbot" changeset="10436041">
    <nd ref="27289031"/>
    <nd ref="671205419"/>
    <tag k="highway" v="residential"/>
    <tag k="name" v="Sherwood Road"/>
    <tag k="source:maxspeed" v="default residential speed limit in Australia"/>
  </way>
  <way id="45127547" version="6" timestamp="2012-03-05T00:42:13Z" uid="201443" user="stevage" changeset="10875514">
    <nd ref="27289031"/>
    <nd ref="1659885748"/>
    <tag k="highway" v="residential"/>
    <tag k="name" v="Sherwood Road"/>
    <tag k="source:maxspeed" v="default residential speed limit in Australia"/>
  </way>
  <way id="45127932" version="1" timestamp="2009-11-27T19:24:39Z" uid="23543" user="jkjk" changeset="3230876">
    <nd ref="312868875"/>
    <nd ref="312868895"/>
    <tag k="power" v="line"/>
  </way>
  <way id="45127932" version="2" timestamp="2011-06-26T23:21:18Z" uid="248441" user="Jandrs" changeset="8557469"/>
  <way id="45127545" version="6" timestamp="2012-07-19T23:41:42Z" uid="722137" user="OSMF Redaction Account" changeset="12351699">
    <nd ref="27289035"/>
    <nd ref="610702247"/>
    <nd ref="27289034"/>
    <nd ref="610702249"/>
    <nd ref="27289032"/>
    <nd ref="610702250"/>
    <nd ref="610702251"/>
    <nd ref="27289031"/>
    <tag k="highway" v="residential"/>
    <tag k="name" v="Sherwood Road"/>
    <tag k="oneway" v="yes"/>
  </way>
  <way id="45127547" version="7" timestamp="2012-07-19T23:41:42Z" uid="722137" user="OSMF Redaction Account" changeset="12351699">
    <nd ref="27289031"/>
    <nd ref="1659885748"/>
    <tag k="highway" v="residential"/>
    <tag k="name" v="Sherwood Road"/>
  </way>
</osm>
