<?xml version='1.0' encoding='UTF-8'?>
<osm version="0.6" generator="libosmium/2.20.0">
  <way id="45311006" version="2" timestamp="2010-03-28T11:28:06Z" uid="20587" user="balrog-kun" changeset="4254597">
    <nd ref="53006952"/>
    <nd ref="53104462"/>
    <nd ref="575613151"/>
    <nd ref="52995351"/>
    <nd ref="53035968"/>
    <nd ref="53104464"/>
    <nd ref="53060485"/>
    <nd ref="53028460"/>
    <nd ref="53104465"/>
    <nd ref="53047704"/>
    <nd ref="53070350"/>
    <nd ref="53090739"/>
    <nd ref="53104467"/>
    <nd ref="53104469"/>
    <nd ref="53104470"/>
    <nd ref="53054748"/>
    <nd ref="53104473"/>
    <nd ref="53032160"/>
    <nd ref="53055293"/>
    <nd ref="53063986"/>
    <nd ref="53034917"/>
    <nd ref="401389968"/>
    <nd ref="53048064"/>
    <nd ref="53028141"/>
    <nd ref="419918706"/>
    <nd ref="52978700"/>
    <nd ref="53046286"/>
    <nd ref="53067444"/>
    <nd ref="52983428"/>
    <nd ref="419907882"/>
    <nd ref="52983435"/>
    <nd ref="419903884"/>
    <nd ref="419903886"/>
    <nd ref="53050528"/>
    <tag k="highway" v="primary"/>
    <tag k="name" v="Castro Valley Boulevard"/>
    <tag k="oneway" v="yes"/>
    <tag k="tiger:cfcc" v="A41"/>
    <tag k="tiger:county" v="Alameda, CA"/>
    <tag k="tiger:name_base" v="Castro Valley"/>
    <tag k="tiger:name_type" v="Blvd"/>
    <tag k="tiger:separated" v="no"/>
    <tag k="tiger:source" v="tiger_import_dch_v0.6_20070809"/>
    <tag k="tiger:tlid" v="125015654:125015657:125050220:125015558:125015363:125015364:125015366:125015381:125015382:125015388:125015576:125015578:125015580:125015300:125015301:125015302:125015304:125015316:125015318:125015319:125015321:125015632:125015634:125014903:125043952:12501"/>
    <tag k="tiger:zip_left" v="94546"/>
    <tag k="tiger:zip_right" v="94546"/>
  </way>
  <way id="45311006" version="3" timestamp="2011-06-29T10:13:40Z" uid="14293" user="JuxTPosition" changeset="8579493">
    <nd ref="53006952"/>
    <nd ref="1343067870"/>
    <nd ref="1343067742"/>
    <nd ref="1343067885"/>
    <nd ref="1343067937"/>
    <nd ref="1343067839"/>
    <nd ref="1343067719"/>
    <nd ref="1343067848"/>
    <nd ref="1343067797"/>
    <nd ref="1343067746"/>
    <nd ref="53104462"/>
    <nd ref="1343067860"/>
    <nd ref="575613151"/>
    <nd ref="1343067955"/>
    <nd ref="52995351"/>
    <nd ref="1343067930"/>
    <nd ref="1343067820"/>
    <nd ref="1343067737"/>
    <nd ref="53035968"/>
    <nd ref="53104464"/>
    <nd ref="53060485"/>
    <nd ref="53028460"/>
    <nd ref="53104465"/>
    <nd ref="53047704"/>
    <nd ref="53070350"/>
    <nd ref="53090739"/>
    <nd ref="53104467"/>
    <nd ref="53104469"/>
    <nd ref="53104470"/>
    <nd ref="53054748"/>
    <nd ref="53104473"/>
    <nd ref="53032160"/>
    <nd ref="53055293"/>
    <nd ref="53063986"/>
    <nd ref="53034917"/>
    <nd ref="401389968"/>
    <nd ref="53048064"/>
    <nd ref="53028141"/>
    <nd ref="419918706"/>
    <nd ref="52978700"/>
    <nd ref="53046286"/>
    <nd ref="53067444"/>
    <nd ref="52983428"/>
    <nd ref="419907882"/>
    <nd ref="52983435"/>
    <nd ref="419903884"/>
    <nd ref="419903886"/>
    <nd ref="53050528"/>
    <tag k="highway" v="primary"/>
    <tag k="name" v="Castro Valley Boulevard"/>
    <tag k="oneway" v="yes"/>
    <tag k="tiger:cfcc" v="A41"/>
    <tag k="tiger:county" v="Alameda, CA"/>
    <tag k="tiger:name_base" v="Castro Valley"/>
    <tag k="tiger:name_type" v="Blvd"/>
    <tag k="tiger:separated" v="no"/>
    <tag k="tiger:source" v="tiger_import_dch_v0.6_20070809"/>
    <tag k="tiger:tlid" v="125015654:125015657:125050220:125015558:125015363:125015364:125015366:125015381:125015382:125015388:125015576:125015578:125015580:125015300:125015301:125015302:125015304:125015316:125015318:125015319:125015321:125015632:125015634:125014903:125043952:12501"/>
    <tag k="tiger:zip_left" v="94546"/>
    <tag k="tiger:zip_right" v="94546"/>
  </way>
  <way id="45311006" version="4" timestamp="2011-08-16T07:46:09Z" uid="14293" user="JuxTPosition" changeset="9034092">
    <nd ref="53006952"/>
    <nd ref="1343067870"/>
    <nd ref="1343067742"/>
    <nd ref="1343067885"/>
    <nd ref="1343067937"/>
    <nd ref="1343067839"/>
    <nd ref="1343067719"/>
    <nd ref="1343067848"/>
    <nd ref="1343067797"/>
    <nd ref="1343067746"/>
    <nd ref="53104462"/>
    <nd ref="1343067860"/>
    <nd ref="575613151"/>
    <nd ref="1343067955"/>
    <nd ref="52995351"/>
    <nd ref="1343067930"/>
    <nd ref="1343067820"/>
    <nd ref="1343067737"/>
    <nd ref="53035968"/>
    <nd ref="53104464"/>
    <nd ref="1400725444"/>
    <nd ref="1400725435"/>
    <nd ref="1400725392"/>
    <nd ref="53060485"/>
    <nd ref="1400725413"/>
    <nd ref="1400725416"/>
    <nd ref="1400725301"/>
    <nd ref="53028460"/>
    <nd ref="1400725483"/>
    <nd ref="1400725620"/>
    <nd ref="1400725304"/>
    <nd ref="1400725619"/>
    <nd ref="1400725395"/>
    <nd ref="1400725579"/>
    <nd ref="53104465"/>
    <nd ref="53047704"/>
    <nd ref="53070350"/>
    <nd ref="1400725630"/>
    <nd ref="1400725426"/>
    <nd ref="53090739"/>
    <nd ref="1400725455"/>
    <nd ref="1400725467"/>
    <nd ref="1400725607"/>
    <nd ref="53104467"/>
    <nd ref="1400725616"/>
    <nd ref="1400725489"/>
    <nd ref="1400725405"/>
    <nd ref="1400725473"/>
    <nd ref="53104469"/>
    <nd ref="53104470"/>
    <nd ref="1400725316"/>
    <nd ref="53054748"/>
    <nd ref="53104473"/>
    <nd ref="53032160"/>
    <nd ref="53055293"/>
    <nd ref="53063986"/>
    <nd ref="1400725564"/>
    <nd ref="1400725498"/>
    <nd ref="1400725484"/>
    <nd ref="1400725410"/>
    <nd ref="53034917"/>
    <nd ref="1400725560"/>
    <nd ref="1400725577"/>
    <nd ref="1400725346"/>
    <nd ref="1400725433"/>
    <nd ref="401389968"/>
    <nd ref="1400725644"/>
    <nd ref="53048064"/>
    <nd ref="53028141"/>
    <nd ref="419918706"/>
    <nd ref="52978700"/>
    <nd ref="53046286"/>
    <nd ref="53067444"/>
    <nd ref="52983428"/>
    <nd ref="419907882"/>
    <nd ref="52983435"/>
    <nd ref="419903884"/>
    <nd ref="419903886"/>
    <nd ref="53050528"/>
    <tag k="highway" v="primary"/>
    <tag k="name" v="Castro Valley Boulevard"/>
    <tag k="oneway" v="yes"/>
    <tag k="tiger:cfcc" v="A41"/>
    <tag k="tiger:county" v="Alameda, CA"/>
    <tag k="tiger:name_base" v="Castro Valley"/>
    <tag k="tiger:name_type" v="Blvd"/>
    <tag k="tiger:separated" v="no"/>
    <tag k="tiger:source" v="tiger_import_dch_v0.6_20070809"/>
    <tag k="tiger:tlid" v="125015654:125015657:125050220:125015558:125015363:125015364:125015366:125015381:125015382:125015388:125015576:125015578:125015580:125015300:125015301:125015302:125015304:125015316:125015318:125015319:125015321:125015632:125015634:125014903:125043952:12501"/>
    <tag k="tiger:zip_left" v="94546"/>
    <tag k="tiger:zip_right" v="94546"/>
  </way>
  <way id="45311012" version="2" timestamp="2010-03-28T11:28:07Z" uid="20587" user="balrog-kun" changeset="4254597">
    <nd ref="575613142"/>
    <nd ref="242864569"/>
    <nd ref="29891422"/>
    <nd ref="32967549"/>
    <tag k="highway" v="motorway"/>
    <tag k="name" v="Castro Valley Freeway"/>
    <tag k="oneway" v="yes"/>
    <tag k="ref" v="I 238"/>
  </way>
  <way id="45311012" version="3" timestamp="2011-07-31T11:39:08Z" uid="207745" user="NE2" changeset="8880034">
    <nd ref="575613142"/>
    <nd ref="242864569"/>
    <nd ref="29891422"/>
    <nd ref="32967549"/>
    <tag k="highway" v="motorway"/>
    <tag k="lanes" v="3"/>
    <tag k="name" v="Castro Valley Freeway"/>
    <tag k="oneway" v="yes"/>
    <tag k="ref" v="I 238"/>
  </way>
  <way id="45311012" version="4" timestamp="2011-11-21T15:59:32Z" uid="207745" user="NE2" changeset="9898570">
    <nd ref="575613142"/>
    <nd ref="242864569"/>
    <nd ref="29891422"/>
    <nd ref="32967549"/>
    <tag k="hgv" v="designated"/>
    <tag k="highway" v="motorway"/>
    <tag k="lanes" v="3"/>
    <tag k="name" v="Castro Valley Freeway"/>
    <tag k="oneway" v="yes"/>
    <tag k="ref" v="I 238"/>
  </way>
  <way id="45311012" version="5" timestamp="2012-03-10T20:18:51Z" uid="482916" user="bill42" changeset="10936318">
    <nd ref="575613142"/>
    <nd ref="242864569"/>
    <nd ref="29891422"/>
    <nd ref="1669173590"/>
    <nd ref="32967549"/>
    <tag k="hgv" v="designated"/>
    <tag k="highway" v="motorway"/>
    <tag k="lanes" v="3"/>
    <tag k="name" v="Castro Valley Freeway"/>
    <tag k="oneway" v="yes"/>
    <tag k="ref" v="I 238"/>
  </way>
  <way id="45311017" version="2" timestamp="2010-03-28T11:28:07Z" uid="20587" user="balrog-kun" changeset="4254597">
    <nd ref="575613147"/>
    <nd ref="242864684"/>
    <nd ref="242864685"/>
    <nd ref="242864686"/>
    <nd ref="242864687"/>
    <tag k="highway" v="motorway"/>
    <tag k="name" v="Castro Valley Freeway"/>
    <tag k="name_1" v="State Highway 238"/>
    <tag k="oneway" v="yes"/>
    <tag k="ref" v="I 238"/>
    <tag k="tiger:cfcc" v="A11"/>
    <tag k="tiger:county" v="Alameda, CA"/>
    <tag k="tiger:name_base" v="Castro Valley"/>
    <tag k="tiger:name_base_1" v="State Highway 238"/>
    <tag k="tiger:tlid" v="125013813:125013779:125013823:125013844:125014121:125014123:125038733:125014533:125014106:125014615:125038736:125014610:125038738:125014803:125014805:125014799:125014540:125080817:125013825"/>
  </way>
  <way id="45311017" version="3" timestamp="2011-07-31T11:39:09Z" uid="207745" user="NE2" changeset="8880034">
    <nd ref="575613147"/>
    <nd ref="242864684"/>
    <nd ref="242864685"/>
    <nd ref="242864686"/>
    <nd ref="242864688"/>
    <tag k="highway" v="motorway"/>
    <tag k="lanes" v="3"/>
    <tag k="name" v="Castro Valley Freeway"/>
    <tag k="oneway" v="yes"/>
    <tag k="ref" v="I 238"/>
    <tag k="tiger:cfcc" v="A11"/>
    <tag k="tiger:county" v="Alameda, CA"/>
    <tag k="tiger:name_base" v="Castro Valley"/>
    <tag k="tiger:name_base_1" v="State Highway 238"/>
    <tag k="tiger:tlid" v="125013813:125013779:125013823:125013844:125014121:125014123:125038733:125014533:125014106:125014615:125038736:125014610:125038738:125014803:125014805:125014799:125014540:125080817:125013825"/>
  </way>
  <way id="45311017" version="4" timestamp="2011-11-21T15:59:35Z" uid="207745" user="NE2" changeset="9898570">
    <nd ref="575613147"/>
    <nd ref="242864684"/>
    <nd ref="242864685"/>
    <nd ref="242864686"/>
    <nd ref="242864688"/>
    <tag k="hgv" v="designated"/>
    <tag k="highway" v="motorway"/>
    <tag k="lanes" v="3"/>
    <tag k="name" v="Castro Valley Freeway"/>
    <tag k="oneway" v="yes"/>
    <tag k="ref" v="I 238"/>
    <tag k="tiger:cfcc" v="A11"/>
    <tag k="tiger:county" v="Alameda, CA"/>
    <tag k="tiger:name_base" v="Castro Valley"/>
    <tag k="tiger:name_base_1" v="State Highway 238"/>
    <tag k="tiger:tlid" v="125013813:125013779:125013823:125013844:125014121:125014123:125038733:125014533:125014106:125014615:125038736:125014610:125038738:125014803:125014805:125014799:125014540:125080817:125013825"/>
  </way>
  <way id="45311019" version="2" timestamp="2010-03-28T11:28:08Z" uid="20587" user="balrog-kun" changeset="4254597">
    <nd ref="242864920"/>
    <nd ref="358400226"/>
    <nd ref="242858476"/>
    <nd ref="358399788"/>
    <nd ref="242860807"/>
    <tag k="highway" v="primary"/>
    <tag k="name" v="Castro Valley Boulevard"/>
    <tag k="oneway" v="yes"/>
  </way>
  <way id="45311019" version="3" timestamp="2010-08-05T00:21:40Z" uid="28775" user="StellanL" changeset="5404098">
    <nd ref="242864920"/>
    <nd ref="358400226"/>
    <nd ref="242858476"/>
    <nd ref="358399788"/>
    <tag k="highway" v="primary"/>
    <tag k="name" v="Castro Valley Boulevard"/>
    <tag k="oneway" v="yes"/>
  </way>
  <way id="45311019" version="4" timestamp="2011-06-29T10:13:44Z" uid="14293" user="JuxTPosition" changeset="8579493">
    <nd ref="242864920"/>
    <nd ref="1343067732"/>
    <nd ref="1343067749"/>
    <nd ref="1343067743"/>
    <nd ref="358400226"/>
    <nd ref="242858476"/>
    <nd ref="358399788"/>
    <tag k="highway" v="primary"/>
    <tag k="name" v="Castro Valley Boulevard"/>
    <tag k="oneway" v="yes"/>
  </way>
  <way id="45311019" version="5" timestamp="2012-01-30T07:01:21Z" uid="462373" user="Davidazus" changeset="10537079">
    <nd ref="242864920"/>
    <nd ref="1343067732"/>
    <nd ref="1343067749"/>
    <nd ref="1343067743"/>
    <nd ref="358400226"/>
    <nd ref="1611390280"/>
    <nd ref="358399788"/>
    <tag k="highway" v="primary"/>
    <tag k="name" v="Castro Valley Boulevard"/>
    <tag k="oneway" v="yes"/>
  </way>
  <way id="45311019" version="6" timestamp="2012-03-10T20:18:58Z" uid="482916" user="bill42" changeset="10936318">
    <nd ref="242864920"/>
    <nd ref="1343067732"/>
    <nd ref="1343067749"/>
    <nd ref="1343067743"/>
    <nd ref="358400226"/>
    <nd ref="358399788"/>
    <tag k="highway" v="primary"/>
    <tag k="name" v="Castro Valley Boulevard"/>
    <tag k="oneway" v="yes"/>
  </way>
  <way id="45311020" version="2" timestamp="2010-03-28T11:28:08Z" uid="20587" user="balrog-kun" changeset="4254597">
    <nd ref="242865315"/>
    <nd ref="575613142"/>
    <tag k="bridge" v="yes"/>
    <tag k="highway" v="motorway"/>
    <tag k="layer" v="0"/>
    <tag k="name" v="Castro Valley Freeway"/>
    <tag k="oneway" v="yes"/>
    <tag k="ref" v="I 238"/>
  </way>
  <way id="45311020" version="3" timestamp="2010-05-30T14:22:59Z" uid="72235" user="Basstoelpel" changeset="4852500">
    <nd ref="242865315"/>
    <nd ref="575613142"/>
    <tag k="bridge" v="yes"/>
    <tag k="highway" v="motorway"/>
    <tag k="name" v="Castro Valley Freeway"/>
    <tag k="oneway" v="yes"/>
    <tag k="ref" v="I 238"/>
  </way>
  <way id="45311020" version="4" timestamp="2011-07-31T11:39:05Z" uid="207745" user="NE2" changeset="8880034">
    <nd ref="242865315"/>
    <nd ref="575613142"/>
    <tag k="bridge" v="yes"/>
    <tag k="highway" v="motorway"/>
    <tag k="lanes" v="3"/>
    <tag k="name" v="Castro Valley Freeway"/>
    <tag k="oneway" v="yes"/>
    <tag k="ref" v="I 238"/>
  </way>
  <way id="45311020" version="5" timestamp="2011-11-21T15:59:23Z" uid="207745" user="NE2" changeset="9898570">
    <nd ref="242865315"/>
    <nd ref="575613142"/>
    <tag k="bridge" v="yes"/>
    <tag k="hgv" v="designated"/>
    <tag k="highway" v="motorway"/>
    <tag k="lanes" v="3"/>
    <tag k="name" v="Castro Valley Freeway"/>
    <tag k="oneway" v="yes"/>
    <tag k="ref" v="I 238"/>
  </way>
  <way id="45311023" version="3" timestamp="2010-03-28T11:28:08Z" uid="20587" user="balrog-kun" changeset="4254597">
    <nd ref="242864681"/>
    <nd ref="651301959"/>
    <nd ref="242864682"/>
    <tag k="bridge" v="yes"/>
    <tag k="highway" v="motorway"/>
    <tag k="layer" v="0"/>
    <tag k="name" v="Castro Valley Freeway"/>
    <tag k="name_1" v="State Highway 238"/>
    <tag k="oneway" v="yes"/>
    <tag k="ref" v="I 238"/>
    <tag k="tiger:cfcc" v="A11"/>
    <tag k="tiger:county" v="Alameda, CA"/>
    <tag k="tiger:name_base" v="Castro Valley"/>
    <tag k="tiger:name_base_1" v="State Highway 238"/>
    <tag k="tiger:tlid" v="125013813:125013779:125013823:125013844:125014121:125014123:125038733:125014533:125014106:125014615:125038736:125014610:125038738:125014803:125014805:125014799:125014540:125080817:125013825"/>
  </way>
  <way id="45311023" version="4" timestamp="2010-05-30T14:23:00Z" uid="72235" user="Basstoelpel" changeset="4852500">
    <nd ref="242864681"/>
    <nd ref="651301959"/>
    <nd ref="242864682"/>
    <tag k="bridge" v="yes"/>
    <tag k="highway" v="motorway"/>
    <tag k="name" v="Castro Valley Freeway"/>
    <tag k="name_1" v="State Highway 238"/>
    <tag k="oneway" v="yes"/>
    <tag k="ref" v="I 238"/>
    <tag k="tiger:cfcc" v="A11"/>
    <tag k="tiger:county" v="Alameda, CA"/>
    <tag k="tiger:name_base" v="Castro Valley"/>
    <tag k="tiger:name_base_1" v="State Highway 238"/>
    <tag k="tiger:tlid" v="125013813:125013779:125013823:125013844:125014121:125014123:125038733:125014533:125014106:125014615:125038736:125014610:125038738:125014803:125014805:125014799:125014540:125080817:125013825"/>
  </way>
  <way id="45311023" version="5" timestamp="2011-07-31T11:39:07Z" uid="207745" user="NE2" changeset="8880034">
    <nd ref="242864681"/>
    <nd ref="651301959"/>
    <nd ref="242864682"/>
    <tag k="bridge" v="yes"/>
    <tag k="highway" v="motorway"/>
    <tag k="lanes" v="3"/>
    <tag k="name" v="Castro Valley Freeway"/>
    <tag k="oneway" v="yes"/>
    <tag k="ref" v="I 238"/>
    <tag k="tiger:cfcc" v="A11"/>
    <tag k="tiger:county" v="Alameda, CA"/>
    <tag k="tiger:name_base" v="Castro Valley"/>
    <tag k="tiger:name_base_1" v="State Highway 238"/>
    <tag k="tiger:tlid" v="125013813:125013779:125013823:125013844:125014121:125014123:125038733:125014533:125014106:125014615:125038736:125014610:125038738:125014803:125014805:125014799:125014540:125080817:125013825"/>
  </way>
  <way id="45311023" version="6" timestamp="2011-11-21T15:59:29Z" uid="207745" user="NE2" changeset="9898570">
    <nd ref="242864681"/>
    <nd ref="651301959"/>
    <nd ref="242864682"/>
    <tag k="bridge" v="yes"/>
    <tag k="hgv" v="designated"/>
    <tag k="highway" v="motorway"/>
    <tag k="lanes" v="3"/>
    <tag k="name" v="Castro Valley Freeway"/>
    <tag k="oneway" v="yes"/>
    <tag k="ref" v="I 238"/>
    <tag k="tiger:cfcc" v="A11"/>
    <tag k="tiger:county" v="Alameda, CA"/>
    <tag k="tiger:name_base" v="Castro Valley"/>
    <tag k="tiger:name_base_1" v="State Highway 238"/>
    <tag k="tiger:tlid" v="125013813:125013779:125013823:125013844:125014121:125014123:125038733:125014533:125014106:125014615:125038736:125014610:125038738:125014803:125014805:125014799:125014540:125080817:125013825"/>
  </way>
  <way id="45311025" version="2" timestamp="2010-03-28T11:28:08Z" uid="20587" user="balrog-kun" changeset="4254597">
    <nd ref="575613149"/>
    <nd ref="575613146"/>
    <tag k="bridge" v="yes"/>
    <tag k="highway" v="motorway"/>
    <tag k="name" v="Castro Valley Freeway"/>
    <tag k="oneway" v="yes"/>
    <tag k="ref" v="I 238"/>
  </way>
  <way id="45311025" version="3" timestamp="2011-06-29T10:13:43Z" uid="14293" user="JuxTPosition" changeset="8579493">
    <nd ref="575613149"/>
    <nd ref="575613146"/>
    <tag k="bridge" v="yes"/>
    <tag k="highway" v="motorway"/>
    <tag k="layer" v="1"/>
    <tag k="name" v="Castro Valley Freeway"/>
    <tag k="oneway" v="yes"/>
    <tag k="ref" v="I 238"/>
  </way>
  <way id="45311025" version="4" timestamp="2011-07-31T11:39:04Z" uid="207745" user="NE2" changeset="8880034">
    <nd ref="575613149"/>
    <nd ref="575613146"/>
    <tag k="bridge" v="yes"/>
    <tag k="highway" v="motorway"/>
    <tag k="lanes" v="3"/>
    <tag k="layer" v="1"/>
    <tag k="name" v="Castro Valley Freeway"/>
    <tag k="oneway" v="yes"/>
    <tag k="ref" v="I 238"/>
  </way>
  <way id="45311025" version="5" timestamp="2011-11-21T15:59:23Z" uid="207745" user="NE2" changeset="9898570">
    <nd ref="575613149"/>
    <nd ref="575613146"/>
    <tag k="bridge" v="yes"/>
    <tag k="hgv" v="designated"/>
    <tag k="highway" v="motorway"/>
    <tag k="lanes" v="3"/>
    <tag k="layer" v="1"/>
    <tag k="name" v="Castro Valley Freeway"/>
    <tag k="oneway" v="yes"/>
    <tag k="ref" v="I 238"/>
  </way>
  <way id="45311026" version="2" timestamp="2010-03-28T11:28:08Z" uid="20587" user="balrog-kun" changeset="4254597">
    <nd ref="575613146"/>
    <nd ref="30029499"/>
    <nd ref="242865315"/>
    <tag k="highway" v="motorway"/>
    <tag k="name" v="Castro Valley Freeway"/>
    <tag k="oneway" v="yes"/>
    <tag k="ref" v="I 238"/>
  </way>
  <way id="45311026" version="3" timestamp="2011-07-31T11:39:07Z" uid="207745" user="NE2" changeset="8880034">
    <nd ref="575613146"/>
    <nd ref="30029499"/>
    <nd ref="242865315"/>
    <tag k="highway" v="motorway"/>
    <tag k="lanes" v="3"/>
    <tag k="name" v="Castro Valley Freeway"/>
    <tag k="oneway" v="yes"/>
    <tag k="ref" v="I 238"/>
  </way>
  <way id="45311026" version="4" timestamp="2011-11-21T15:59:31Z" uid="207745" user="NE2" changeset="9898570">
    <nd ref="575613146"/>
    <nd ref="30029499"/>
    <nd ref="242865315"/>
    <tag k="hgv" v="designated"/>
    <tag k="highway" v="motorway"/>
    <tag k="lanes" v="3"/>
    <tag k="name" v="Castro Valley Freeway"/>
    <tag k="oneway" v="yes"/>
    <tag k="ref" v="I 238"/>
  </way>
  <way id="45311027" version="2" timestamp="2010-03-28T11:28:09Z" uid="20587" user="balrog-kun" changeset="4254597">
    <nd ref="242864682"/>
    <nd ref="242864683"/>
    <tag k="highway" v="motorway"/>
    <tag k="name" v="Castro Valley Freeway"/>
    <tag k="name_1" v="State Highway 238"/>
    <tag k="oneway" v="yes"/>
    <tag k="ref" v="I 238"/>
    <tag k="tiger:cfcc" v="A11"/>
    <tag k="tiger:county" v="Alameda, CA"/>
    <tag k="tiger:name_base" v="Castro Valley"/>
    <tag k="tiger:name_base_1" v="State Highway 238"/>
    <tag k="tiger:tlid" v="125013813:125013779:125013823:125013844:125014121:125014123:125038733:125014533:125014106:125014615:125038736:125014610:125038738:125014803:125014805:125014799:125014540:125080817:125013825"/>
  </way>
  <way id="45311027" version="3" timestamp="2011-07-31T11:39:03Z" uid="207745" user="NE2" changeset="8880034">
    <nd ref="242864682"/>
    <nd ref="242864683"/>
    <tag k="highway" v="motorway"/>
    <tag k="lanes" v="3"/>
    <tag k="name" v="Castro Valley Freeway"/>
    <tag k="oneway" v="yes"/>
    <tag k="ref" v="I 238"/>
    <tag k="tiger:cfcc" v="A11"/>
    <tag k="tiger:county" v="Alameda, CA"/>
    <tag k="tiger:name_base" v="Castro Valley"/>
    <tag k="tiger:name_base_1" v="State Highway 238"/>
    <tag k="tiger:tlid" v="125013813:125013779:125013823:125013844:125014121:125014123:125038733:125014533:125014106:125014615:125038736:125014610:125038738:125014803:125014805:125014799:125014540:125080817:125013825"/>
  </way>
  <way id="45311027" version="4" timestamp="2011-11-21T15:59:26Z" uid="207745" user="NE2" changeset="9898570">
    <nd ref="242864682"/>
    <nd ref="242864683"/>
    <tag k="hgv" v="designated"/>
    <tag k="highway" v="motorway"/>
    <tag k="lanes" v="3"/>
    <tag k="name" v="Castro Valley Freeway"/>
    <tag k="oneway" v="yes"/>
    <tag k="ref" v="I 238"/>
    <tag k="tiger:cfcc" v="A11"/>
    <tag k="tiger:county" v="Alameda, CA"/>
    <tag k="tiger:name_base" v="Castro Valley"/>
    <tag k="tiger:name_base_1" v="State Highway 238"/>
    <tag k="tiger:tlid" v="125013813:125013779:125013823:125013844:125014121:125014123:125038733:125014533:125014106:125014615:125038736:125014610:125038738:125014803:125014805:125014799:125014540:125080817:125013825"/>
  </way>
  <way id="45311028" version="2" timestamp="2010-03-28T11:28:09Z" uid="20587" user="balrog-kun" changeset="4254597">
    <nd ref="242864683"/>
    <nd ref="575613147"/>
    <tag k="bridge" v="yes"/>
    <tag k="highway" v="motorway"/>
    <tag k="name" v="Castro Valley Freeway"/>
    <tag k="name_1" v="State Highway 238"/>
    <tag k="oneway" v="yes"/>
    <tag k="ref" v="I 238"/>
    <tag k="tiger:cfcc" v="A11"/>
    <tag k="tiger:county" v="Alameda, CA"/>
    <tag k="tiger:name_base" v="Castro Valley"/>
    <tag k="tiger:name_base_1" v="State Highway 238"/>
    <tag k="tiger:tlid" v="125013813:125013779:125013823:125013844:125014121:125014123:125038733:125014533:125014106:125014615:125038736:125014610:125038738:125014803:125014805:125014799:125014540:125080817:125013825"/>
  </way>
  <way id="45311028" version="3" timestamp="2011-06-29T10:13:43Z" uid="14293" user="JuxTPosition" changeset="8579493">
    <nd ref="242864683"/>
    <nd ref="575613147"/>
    <tag k="bridge" v="yes"/>
    <tag k="highway" v="motorway"/>
    <tag k="layer" v="1"/>
    <tag k="name" v="Castro Valley Freeway"/>
    <tag k="name_1" v="State Highway 238"/>
    <tag k="oneway" v="yes"/>
    <tag k="ref" v="I 238"/>
    <tag k="tiger:cfcc" v="A11"/>
    <tag k="tiger:county" v="Alameda, CA"/>
    <tag k="tiger:name_base" v="Castro Valley"/>
    <tag k="tiger:name_base_1" v="State Highway 238"/>
    <tag k="tiger:tlid" v="125013813:125013779:125013823:125013844:125014121:125014123:125038733:125014533:125014106:125014615:125038736:125014610:125038738:125014803:125014805:125014799:125014540:125080817:125013825"/>
  </way>
  <way id="45311028" version="4" timestamp="2011-07-31T11:39:06Z" uid="207745" user="NE2" changeset="8880034">
    <nd ref="242864683"/>
    <nd ref="575613147"/>
    <tag k="bridge" v="yes"/>
    <tag k="highway" v="motorway"/>
    <tag k="lanes" v="3"/>
    <tag k="layer" v="1"/>
    <tag k="name" v="Castro Valley Freeway"/>
    <tag k="oneway" v="yes"/>
    <tag k="ref" v="I 238"/>
    <tag k="tiger:cfcc" v="A11"/>
    <tag k="tiger:county" v="Alameda, CA"/>
    <tag k="tiger:name_base" v="Castro Valley"/>
    <tag k="tiger:name_base_1" v="State Highway 238"/>
    <tag k="tiger:tlid" v="125013813:125013779:125013823:125013844:125014121:125014123:125038733:125014533:125014106:125014615:125038736:125014610:125038738:125014803:125014805:125014799:125014540:125080817:125013825"/>
  </way>
  <way id="45311028" version="5" timestamp="2011-11-21T15:59:26Z" uid="207745" user="NE2" changeset="9898570">
    <nd ref="242864683"/>
    <nd ref="575613147"/>
    <tag k="bridge" v="yes"/>
    <tag k="hgv" v="designated"/>
    <tag k="highway" v="motorway"/>
    <tag k="lanes" v="3"/>
    <tag k="layer" v="1"/>
    <tag k="name" v="Castro Valley Freeway"/>
    <tag k="oneway" v="yes"/>
    <tag k="ref" v="I 238"/>
    <tag k="tiger:cfcc" v="A11"/>
    <tag k="tiger:county" v="Alameda, CA"/>
    <tag k="tiger:name_base" v="Castro Valley"/>
    <tag k="tiger:name_base_1" v="State Highway 238"/>
    <tag k="tiger:tlid" v="125013813:125013779:125013823:125013844:125014121:125014123:125038733:125014533:125014106:125014615:125038736:125014610:125038738:125014803:125014805:125014799:125014540:125080817:125013825"/>
  </way>
  <way id="45311029" version="2" timestamp="2010-03-28T11:28:09Z" uid="20587" user="balrog-kun" changeset="4254597">
    <nd ref="575613144"/>
    <nd ref="53006952"/>
    <tag k="bridge" v="yes"/>
    <tag k="highway" v="primary"/>
    <tag k="name" v="Castro Valley Boulevard"/>
    <tag k="oneway" v="yes"/>
    <tag k="tiger:cfcc" v="A41"/>
    <tag k="tiger:county" v="Alameda, CA"/>
    <tag k="tiger:name_base" v="Castro Valley"/>
    <tag k="tiger:name_type" v="Blvd"/>
    <tag k="tiger:separated" v="no"/>
    <tag k="tiger:source" v="tiger_import_dch_v0.6_20070809"/>
    <tag k="tiger:tlid" v="125015654:125015657:125050220:125015558:125015363:125015364:125015366:125015381:125015382:125015388:125015576:125015578:125015580:125015300:125015301:125015302:125015304:125015316:125015318:125015319:125015321:125015632:125015634:125014903:125043952:12501"/>
    <tag k="tiger:zip_left" v="94546"/>
    <tag k="tiger:zip_right" v="94546"/>
  </way>
  <way id="45311029" version="3" timestamp="2011-06-29T10:13:43Z" uid="14293" user="JuxTPosition" changeset="8579493">
    <nd ref="575613144"/>
    <nd ref="53006952"/>
    <tag k="bridge" v="yes"/>
    <tag k="highway" v="primary"/>
    <tag k="layer" v="1"/>
    <tag k="name" v="Castro Valley Boulevard"/>
    <tag k="oneway" v="yes"/>
    <tag k="tiger:cfcc" v="A41"/>
    <tag k="tiger:county" v="Alameda, CA"/>
    <tag k="tiger:name_base" v="Castro Valley"/>
    <tag k="tiger:name_type" v="Blvd"/>
    <tag k="tiger:separated" v="no"/>
    <tag k="tiger:source" v="tiger_import_dch_v0.6_20070809"/>
    <tag k="tiger:tlid" v="125015654:125015657:125050220:125015558:125015363:125015364:125015366:125015381:125015382:125015388:125015576:125015578:125015580:125015300:125015301:125015302:125015304:125015316:125015318:125015319:125015321:125015632:125015634:125014903:125043952:12501"/>
    <tag k="tiger:zip_left" v="94546"/>
    <tag k="tiger:zip_right" v="94546"/>
  </way>
  <way id="45311030" version="2" timestamp="2010-03-28T11:28:09Z" uid="20587" user="balrog-kun" changeset="4254597">
    <nd ref="575613145"/>
    <nd ref="242864920"/>
    <tag k="bridge" v="yes"/>
    <tag k="highway" v="primary"/>
    <tag k="name" v="Castro Valley Boulevard"/>
    <tag k="oneway" v="yes"/>
  </way>
  <way id="45311030" version="3" timestamp="2011-06-29T10:13:44Z" uid="14293" user="JuxTPosition" changeset="8579493">
    <nd ref="575613145"/>
    <nd ref="242864920"/>
    <tag k="bridge" v="yes"/>
    <tag k="highway" v="primary"/>
    <tag k="layer" v="1"/>
    <tag k="name" v="Castro Valley Boulevard"/>
    <tag k="oneway" v="yes"/>
  </way>
  <way id="45311033" version="2" timestamp="2010-03-28T11:28:09Z" uid="20587" user="balrog-kun" changeset="4254597">
    <nd ref="242864687"/>
    <nd ref="575613155"/>
    <tag k="bridge" v="yes"/>
    <tag k="highway" v="motorway"/>
    <tag k="name" v="Castro Valley Freeway"/>
    <tag k="name_1" v="State Highway 238"/>
    <tag k="oneway" v="yes"/>
    <tag k="ref" v="I 238"/>
    <tag k="tiger:cfcc" v="A11"/>
    <tag k="tiger:county" v="Alameda, CA"/>
    <tag k="tiger:name_base" v="Castro Valley"/>
    <tag k="tiger:name_base_1" v="State Highway 238"/>
    <tag k="tiger:tlid" v="125013813:125013779:125013823:125013844:125014121:125014123:125038733:125014533:125014106:125014615:125038736:125014610:125038738:125014803:125014805:125014799:125014540:125080817:125013825"/>
  </way>
  <way id="45311033" version="3" timestamp="2011-07-31T11:46:59Z" uid="207745" user="NE2" changeset="8880034"/>
  <way id="45311034" version="2" timestamp="2010-03-28T11:28:09Z" uid="20587" user="balrog-kun" changeset="4254597">
    <nd ref="575613155"/>
    <nd ref="242864688"/>
    <tag k="highway" v="motorway"/>
    <tag k="name" v="Castro Valley Freeway"/>
    <tag k="name_1" v="State Highway 238"/>
    <tag k="oneway" v="yes"/>
    <tag k="ref" v="I 238"/>
    <tag k="tiger:cfcc" v="A11"/>
    <tag k="tiger:county" v="Alameda, CA"/>
    <tag k="tiger:name_base" v="Castro Valley"/>
    <tag k="tiger:name_base_1" v="State Highway 238"/>
    <tag k="tiger:tlid" v="125013813:125013779:125013823:125013844:125014121:125014123:125038733:125014533:125014106:125014615:125038736:125014610:125038738:125014803:125014805:125014799:125014540:125080817:125013825"/>
  </way>
  <way id="45311034" version="3" timestamp="2011-07-31T11:46:59Z" uid="207745" user="NE2" changeset="8880034"/>
  <way id="45311882" version="3" timestamp="2011-03-10T12:37:15Z" uid="4467" user="Rosscoe" changeset="7513656">
    <nd ref="575632276"/>
    <nd ref="575632295"/>
    <nd ref="1195307837"/>
    <tag k="bicycle" v="yes"/>
    <tag k="highway" v="footway"/>
    <tag k="source" v="nearmap"/>
  </way>
  <way id="45311883" version="4" timestamp="2011-03-10T12:37:02Z" uid="4467" user="Rosscoe" changeset="7513656">
    <nd ref="571324758"/>
    <nd ref="575632144"/>
    <nd ref="575632176"/>
    <nd ref="571112751"/>
    <nd ref="571112750"/>
    <nd ref="1195307868"/>
    <nd ref="571112749"/>
    <nd ref="575632072"/>
    <nd ref="575632090"/>
    <nd ref="575632107"/>
    <nd ref="575632545"/>
    <nd ref="575632563"/>
    <nd ref="575632582"/>
    <nd ref="575632600"/>
    <nd ref="575631803"/>
    <nd ref="575631820"/>
    <nd ref="575631835"/>
    <nd ref="571094198"/>
    <nd ref="571094194"/>
    <nd ref="571094191"/>
    <nd ref="571779120"/>
    <nd ref="571094188"/>
    <nd ref="571094187"/>
    <nd ref="571094179"/>
    <nd ref="571094175"/>
    <nd ref="571090672"/>
    <nd ref="571324758"/>
    <tag k="leisure" v="park"/>
    <tag k="source" v="nearmap"/>
  </way>
  <way id="45311025" version="6" timestamp="2012-07-19T19:46:27Z" uid="28775" user="StellanL" changeset="12345356">
    <nd ref="575613150"/>
    <nd ref="575613146"/>
    <tag k="bridge" v="yes"/>
    <tag k="hgv" v="designated"/>
    <tag k="highway" v="motorway"/>
    <tag k="lanes" v="3"/>
    <tag k="layer" v="1"/>
    <tag k="name" v="Castro Valley Freeway"/>
    <tag k="oneway" v="yes"/>
    <tag k="ref" v="I 238"/>
  </way>
  <way id="45311882" version="4" timestamp="2012-07-19T11:45:31Z" uid="722137" user="OSMF Redaction Account" changeset="12322502">
    <nd ref="575632276"/>
    <nd ref="575632295"/>
    <tag k="bicycle" v="yes"/>
    <tag k="highway" v="footway"/>
    <tag k="source" v="nearmap"/>
  </way>
  <way id="45311882" version="5" timestamp="2012-08-28T16:17:47Z" uid="423330" user="Larifari77" changeset="12894589">
    <nd ref="575632276"/>
    <nd ref="575632295"/>
    <nd ref="1886900861"/>
    <tag k="bicycle" v="yes"/>
    <tag k="highway" v="footway"/>
    <tag k="source" v="nearmap"/>
  </way>
  <way id="45311883" version="5" timestamp="2012-07-19T11:45:30Z" uid="722137" user="OSMF Redaction Account" changeset="12322502">
    <nd ref="571324758"/>
    <nd ref="575632144"/>
    <nd ref="575632176"/>
    <nd ref="571112751"/>
    <nd ref="571112750"/>
    <nd ref="571112749"/>
    <nd ref="575632072"/>
    <nd ref="575632090"/>
    <nd ref="575632107"/>
    <nd ref="575632545"/>
    <nd ref="575632563"/>
    <nd ref="575632582"/>
    <nd ref="575632600"/>
    <nd ref="575631803"/>
    <nd ref="575631820"/>
    <nd ref="575631835"/>
    <nd ref="571094198"/>
    <nd ref="571094194"/>
    <nd ref="571094191"/>
    <nd ref="571779120"/>
    <nd ref="571094188"/>
    <nd ref="571094187"/>
    <nd ref="571094179"/>
    <nd ref="571094175"/>
    <nd ref="571090672"/>
    <nd ref="571324758"/>
    <tag k="leisure" v="park"/>
    <tag k="source" v="nearmap"/>
  </way>
</osm>
