<?xml version='1.0' encoding='UTF-8'?>
<osm version="0.6" generator="libosmium/2.20.0">
  <way id="45569007" version="2" timestamp="2010-06-29T19:13:36Z" uid="74617" user="JohnSmith" changeset="5108182">
    <nd ref="581061693"/>
    <nd ref="581061696"/>
    <nd ref="581061700"/>
    <nd ref="581061703"/>
    <nd ref="581061706"/>
    <nd ref="581061709"/>
    <nd ref="581061712"/>
    <nd ref="581061714"/>
    <nd ref="581061717"/>
    <nd ref="581061719"/>
    <nd ref="581061723"/>
    <nd ref="581061725"/>
    <nd ref="581061728"/>
    <nd ref="581061730"/>
    <nd ref="581061731"/>
    <nd ref="581061732"/>
    <nd ref="581061733"/>
    <nd ref="581061693"/>
    <tag k="fixme" v="sport=football is ambiguous, see http://wiki.osm.org/wiki/Football for more details"/>
    <tag k="leisure" v="sports_centre"/>
    <tag k="sport" v="football"/>
  </way>
  <way id="45569546" version="6" timestamp="2010-03-07T10:58:35Z" uid="58091" user="Andreas M" changeset="4059582">
    <nd ref="581065207"/>
    <nd ref="581065208"/>
    <tag k="bridge" v="yes"/>
    <tag k="fixme" v="check import"/>
    <tag k="highway" v="residential"/>
    <tag k="is_in:city" v="Unterretzbach"/>
    <tag k="is_in:country_code" v="AT"/>
    <tag k="layer" v="1"/>
    <tag k="name" v="Dorfstraße"/>
    <tag k="postal_code" v="2074"/>
    <tag k="source" v="plan.at 2009"/>
  </way>
  <way id="45569546" version="7" timestamp="2010-12-30T15:14:16Z" uid="342419" user="hzim" changeset="6810494">
    <nd ref="581065207"/>
    <nd ref="581065208"/>
    <tag k="bridge" v="yes"/>
    <tag k="highway" v="residential"/>
    <tag k="is_in:city" v="Unterretzbach"/>
    <tag k="layer" v="1"/>
    <tag k="name" v="Dorfstraße"/>
    <tag k="postal_code" v="2074"/>
    <tag k="source" v="plan.at 2009"/>
  </way>
  <way id="45569547" version="6" timestamp="2010-03-07T10:58:35Z" uid="58091" user="Andreas M" changeset="4059582">
    <nd ref="581065209"/>
    <nd ref="334326717"/>
    <tag k="fixme" v="check import"/>
    <tag k="highway" v="tertiary"/>
    <tag k="is_in:city" v="Unterretzbach"/>
    <tag k="is_in:country_code" v="AT"/>
    <tag k="name" v="Bahnstraße"/>
    <tag k="postal_code" v="2074"/>
    <tag k="ref" v="L1032"/>
    <tag k="source" v="plan.at 2009"/>
  </way>
  <way id="45569547" version="7" timestamp="2011-12-31T09:17:09Z" uid="474183" user="ratrun" changeset="10252642">
    <nd ref="581065209"/>
    <nd ref="334326717"/>
    <tag k="highway" v="tertiary"/>
    <tag k="is_in:city" v="Unterretzbach"/>
    <tag k="is_in:country_code" v="AT"/>
    <tag k="name" v="Bahnstraße"/>
    <tag k="ref" v="L1032"/>
    <tag k="source" v="plan.at 2009,geoimage.at"/>
  </way>
  <way id="45569548" version="6" timestamp="2010-03-07T10:58:35Z" uid="58091" user="Andreas M" changeset="4059582">
    <nd ref="581065212"/>
    <nd ref="581065209"/>
    <tag k="bridge" v="yes"/>
    <tag k="fixme" v="check import"/>
    <tag k="highway" v="tertiary"/>
    <tag k="is_in:city" v="Unterretzbach"/>
    <tag k="is_in:country_code" v="AT"/>
    <tag k="layer" v="1"/>
    <tag k="name" v="Bahnstraße"/>
    <tag k="postal_code" v="2074"/>
    <tag k="ref" v="L1032"/>
    <tag k="source" v="plan.at 2009"/>
  </way>
  <way id="45569548" version="7" timestamp="2011-12-31T09:17:08Z" uid="474183" user="ratrun" changeset="10252642">
    <nd ref="581065212"/>
    <nd ref="581065209"/>
    <tag k="bridge" v="yes"/>
    <tag k="highway" v="tertiary"/>
    <tag k="is_in:city" v="Unterretzbach"/>
    <tag k="is_in:country_code" v="AT"/>
    <tag k="layer" v="1"/>
    <tag k="name" v="Bahnstraße"/>
    <tag k="ref" v="L1032"/>
    <tag k="source" v="plan.at 2009,geoimage.at"/>
  </way>
  <way id="45569555" version="6" timestamp="2010-03-07T10:58:34Z" uid="58091" user="Andreas M" changeset="4059582">
    <nd ref="581065208"/>
    <nd ref="334321391"/>
    <tag k="fixme" v="check import"/>
    <tag k="highway" v="residential"/>
    <tag k="is_in:city" v="Unterretzbach"/>
    <tag k="is_in:country_code" v="AT"/>
    <tag k="name" v="Dorfstraße"/>
    <tag k="postal_code" v="2074"/>
    <tag k="source" v="plan.at 2009"/>
  </way>
  <way id="45569555" version="7" timestamp="2010-12-30T15:14:08Z" uid="342419" user="hzim" changeset="6810494">
    <nd ref="581065208"/>
    <nd ref="1073032252"/>
    <nd ref="334321391"/>
    <tag k="highway" v="residential"/>
    <tag k="is_in:city" v="Unterretzbach"/>
    <tag k="name" v="Dorfstraße"/>
    <tag k="postal_code" v="2074"/>
    <tag k="source" v="plan.at 2009"/>
  </way>
  <way id="45569872" version="2" timestamp="2010-03-28T11:29:26Z" uid="20587" user="balrog-kun" changeset="4254597">
    <nd ref="165459737"/>
    <nd ref="165459739"/>
    <nd ref="165459741"/>
    <nd ref="165459743"/>
    <nd ref="165459745"/>
    <nd ref="165459747"/>
    <nd ref="165459749"/>
    <nd ref="165459751"/>
    <nd ref="165459752"/>
    <nd ref="165459753"/>
    <nd ref="165459754"/>
    <nd ref="165459756"/>
    <nd ref="165459757"/>
    <nd ref="165459758"/>
    <nd ref="165459759"/>
    <nd ref="165459760"/>
    <nd ref="165459761"/>
    <nd ref="165459762"/>
    <nd ref="165445946"/>
    <nd ref="165459763"/>
    <nd ref="165459764"/>
    <nd ref="165459765"/>
    <nd ref="165459766"/>
    <nd ref="165459767"/>
    <nd ref="165459768"/>
    <nd ref="165459769"/>
    <nd ref="165459770"/>
    <nd ref="165459771"/>
    <nd ref="165459772"/>
    <nd ref="165459773"/>
    <nd ref="165459774"/>
    <nd ref="165459775"/>
    <nd ref="165459776"/>
    <nd ref="165459777"/>
    <nd ref="165459778"/>
    <nd ref="165459779"/>
    <nd ref="165459780"/>
    <nd ref="165459781"/>
    <nd ref="165459782"/>
    <nd ref="165459784"/>
    <nd ref="165459786"/>
    <nd ref="165459789"/>
    <nd ref="165459791"/>
    <nd ref="165459793"/>
    <nd ref="165459795"/>
    <tag k="highway" v="secondary"/>
    <tag k="name" v="Toro Canyon Road"/>
    <tag k="name_1" v="Foothill Road"/>
    <tag k="name_2" v="State Route 192"/>
    <tag k="ref" v="CA 192"/>
    <tag k="tiger:cfcc" v="A31"/>
    <tag k="tiger:county" v="Santa Barbara, CA"/>
    <tag k="tiger:name_base" v="Toro Canyon"/>
    <tag k="tiger:name_base_1" v="Foothill"/>
    <tag k="tiger:name_base_2" v="State Route 192"/>
    <tag k="tiger:name_type" v="Rd"/>
    <tag k="tiger:name_type_1" v="Rd"/>
    <tag k="tiger:reviewed" v="no"/>
    <tag k="tiger:separated" v="no"/>
    <tag k="tiger:source" v="tiger_import_dch_v0.6_20070809"/>
    <tag k="tiger:tlid" v="108607692:108694257:108607675"/>
    <tag k="tiger:zip_left" v="93013"/>
    <tag k="tiger:zip_left_1" v="93013"/>
    <tag k="tiger:zip_right" v="93013"/>
    <tag k="tiger:zip_right_1" v="93013"/>
  </way>
  <way id="45569872" version="3" timestamp="2011-08-07T11:52:21Z" uid="207745" user="NE2" changeset="8945765">
    <nd ref="165459737"/>
    <nd ref="165459739"/>
    <nd ref="165459741"/>
    <nd ref="165459743"/>
    <nd ref="165459745"/>
    <nd ref="165459747"/>
    <nd ref="165459749"/>
    <nd ref="165459751"/>
    <nd ref="165459752"/>
    <nd ref="165459753"/>
    <nd ref="165459754"/>
    <nd ref="165459756"/>
    <nd ref="165459757"/>
    <nd ref="165459758"/>
    <nd ref="165459759"/>
    <nd ref="165459760"/>
    <nd ref="165459761"/>
    <nd ref="165459762"/>
    <nd ref="165445946"/>
    <nd ref="165459763"/>
    <nd ref="165459764"/>
    <nd ref="165459765"/>
    <nd ref="165459766"/>
    <nd ref="165459767"/>
    <nd ref="165459768"/>
    <nd ref="165459769"/>
    <nd ref="165459770"/>
    <nd ref="165459771"/>
    <nd ref="165459772"/>
    <nd ref="165459773"/>
    <nd ref="165459774"/>
    <nd ref="165459775"/>
    <nd ref="165459776"/>
    <nd ref="165459777"/>
    <nd ref="165459778"/>
    <nd ref="165459779"/>
    <nd ref="165459780"/>
    <nd ref="165459781"/>
    <nd ref="165459782"/>
    <nd ref="165459784"/>
    <nd ref="165459786"/>
    <nd ref="165459789"/>
    <nd ref="165459791"/>
    <nd ref="165459793"/>
    <nd ref="165459795"/>
    <tag k="highway" v="secondary"/>
    <tag k="name" v="Toro Canyon Road"/>
    <tag k="name_1" v="Foothill Road"/>
    <tag k="ref" v="CA 192"/>
    <tag k="tiger:cfcc" v="A31"/>
    <tag k="tiger:county" v="Santa Barbara, CA"/>
    <tag k="tiger:name_base" v="Toro Canyon"/>
    <tag k="tiger:name_base_1" v="Foothill"/>
    <tag k="tiger:name_base_2" v="State Route 192"/>
    <tag k="tiger:name_type" v="Rd"/>
    <tag k="tiger:name_type_1" v="Rd"/>
    <tag k="tiger:reviewed" v="no"/>
    <tag k="tiger:separated" v="no"/>
    <tag k="tiger:source" v="tiger_import_dch_v0.6_20070809"/>
    <tag k="tiger:tlid" v="108607692:108694257:108607675"/>
    <tag k="tiger:zip_left" v="93013"/>
    <tag k="tiger:zip_left_1" v="93013"/>
    <tag k="tiger:zip_right" v="93013"/>
    <tag k="tiger:zip_right_1" v="93013"/>
  </way>
  <way id="45569007" version="3" timestamp="2012-07-18T18:59:51Z" uid="722137" user="OSMF Redaction Account" changeset="12293730">
    <nd ref="581061693"/>
    <nd ref="581061696"/>
    <nd ref="581061700"/>
    <nd ref="581061703"/>
    <nd ref="581061706"/>
    <nd ref="581061709"/>
    <nd ref="581061712"/>
    <nd ref="581061714"/>
    <nd ref="581061717"/>
    <nd ref="581061719"/>
    <nd ref="581061723"/>
    <nd ref="581061725"/>
    <nd ref="581061728"/>
    <nd ref="581061730"/>
    <nd ref="581061731"/>
    <nd ref="581061732"/>
    <nd ref="581061733"/>
    <nd ref="581061693"/>
    <tag k="leisure" v="sports_centre"/>
    <tag k="sport" v="football"/>
  </way>
  <way id="45569546" version="8" timestamp="2012-07-16T22:20:12Z" uid="722137" user="OSMF Redaction Account" changeset="12252690">
    <nd ref="581065207"/>
    <nd ref="581065208"/>
    <tag k="addr:city" v="Unterretzbach"/>
    <tag k="addr:country" v="AT"/>
    <tag k="addr:postcode" v="2074"/>
    <tag k="addr:street" v="Dorfstraße"/>
    <tag k="bridge" v="yes"/>
    <tag k="highway" v="residential"/>
    <tag k="layer" v="1"/>
    <tag k="source" v="plan.at 2009"/>
  </way>
  <way id="45569547" version="8" timestamp="2012-06-14T16:46:28Z" uid="53306" user="Wolfgang B" changeset="11896888">
    <nd ref="581065209"/>
    <nd ref="334326717"/>
    <tag k="highway" v="tertiary"/>
    <tag k="maxspeed" v="50"/>
    <tag k="name" v="Bahnstraße"/>
    <tag k="ref" v="L 1032"/>
  </way>
  <way id="45569547" version="9" timestamp="2012-07-16T22:20:13Z" uid="722137" user="OSMF Redaction Account" changeset="12252690">
    <nd ref="581065209"/>
    <nd ref="334326717"/>
    <tag k="addr:city" v="Unterretzbach"/>
    <tag k="addr:country" v="AT"/>
    <tag k="addr:postcode" v="2074"/>
    <tag k="addr:street" v="Bahnstraße"/>
    <tag k="highway" v="tertiary"/>
    <tag k="maxspeed" v="50"/>
    <tag k="ref" v="L 1032"/>
  </way>
  <way id="45569547" version="10" timestamp="2012-08-04T13:33:43Z" uid="334334" user="m4rtink" changeset="12609457">
    <nd ref="581065209"/>
    <nd ref="1851505752"/>
    <nd ref="334326717"/>
    <tag k="addr:city" v="Unterretzbach"/>
    <tag k="addr:country" v="AT"/>
    <tag k="addr:postcode" v="2074"/>
    <tag k="addr:street" v="Bahnstraße"/>
    <tag k="highway" v="tertiary"/>
    <tag k="maxspeed" v="50"/>
    <tag k="ref" v="L 1032"/>
  </way>
  <way id="45569547" version="11" timestamp="2012-08-13T13:55:42Z" uid="623329" user="Norret" changeset="12714195">
    <nd ref="646743935"/>
    <nd ref="332891677"/>
    <nd ref="1787503422"/>
    <nd ref="1787503477"/>
    <nd ref="498459965"/>
    <nd ref="1787503606"/>
    <nd ref="332891683"/>
    <nd ref="332891684"/>
    <nd ref="1787503385"/>
    <nd ref="332891685"/>
    <nd ref="581065212"/>
    <nd ref="581065209"/>
    <nd ref="1851505752"/>
    <nd ref="334326717"/>
    <tag k="addr:city" v="Unterretzbach"/>
    <tag k="addr:country" v="AT"/>
    <tag k="addr:postcode" v="2074"/>
    <tag k="addr:street" v="Bahnstraße"/>
    <tag k="bridge" v="yes"/>
    <tag k="highway" v="tertiary"/>
    <tag k="layer" v="1"/>
    <tag k="maxspeed" v="50"/>
    <tag k="name" v="Bahnstraße"/>
    <tag k="ref" v="L1032"/>
  </way>
  <way id="45569548" version="8" timestamp="2012-06-14T16:46:29Z" uid="53306" user="Wolfgang B" changeset="11896888">
    <nd ref="581065212"/>
    <nd ref="581065209"/>
    <tag k="bridge" v="yes"/>
    <tag k="highway" v="tertiary"/>
    <tag k="layer" v="1"/>
    <tag k="maxspeed" v="50"/>
    <tag k="name" v="Bahnstraße"/>
    <tag k="ref" v="L1032"/>
  </way>
  <way id="45569548" version="9" timestamp="2012-07-16T22:20:13Z" uid="722137" user="OSMF Redaction Account" changeset="12252690">
    <nd ref="581065212"/>
    <nd ref="581065209"/>
    <tag k="addr:city" v="Unterretzbach"/>
    <tag k="addr:country" v="AT"/>
    <tag k="addr:postcode" v="2074"/>
    <tag k="addr:street" v="Bahnstraße"/>
    <tag k="bridge" v="yes"/>
    <tag k="highway" v="tertiary"/>
    <tag k="layer" v="1"/>
    <tag k="maxspeed" v="50"/>
    <tag k="ref" v="L1032"/>
  </way>
  <way id="45569548" version="10" timestamp="2012-08-13T13:55:46Z" uid="623329" user="Norret" changeset="12714195"/>
  <way id="45569555" version="8" timestamp="2012-06-14T16:46:29Z" uid="53306" user="Wolfgang B" changeset="11896888">
    <nd ref="581065208"/>
    <nd ref="1787503463"/>
    <nd ref="1073032252"/>
    <nd ref="334321391"/>
    <tag k="highway" v="residential"/>
    <tag k="is_in:city" v="Unterretzbach"/>
    <tag k="name" v="Dorfstraße"/>
    <tag k="postal_code" v="2074"/>
    <tag k="source" v="plan.at 2009"/>
  </way>
  <way id="45569555" version="9" timestamp="2012-07-16T22:20:13Z" uid="722137" user="OSMF Redaction Account" changeset="12252690">
    <nd ref="581065208"/>
    <nd ref="1787503463"/>
    <nd ref="1073032252"/>
    <nd ref="334321391"/>
    <tag k="addr:city" v="Unterretzbach"/>
    <tag k="addr:country" v="AT"/>
    <tag k="addr:postcode" v="2074"/>
    <tag k="addr:street" v="Dorfstraße"/>
    <tag k="highway" v="residential"/>
    <tag k="source" v="plan.at 2009"/>
  </way>
  <way id="45569555" version="10" timestamp="2012-08-13T13:55:43Z" uid="623329" user="Norret" changeset="12714195">
    <nd ref="581065208"/>
    <nd ref="1787503463"/>
    <nd ref="1073032252"/>
    <nd ref="334321391"/>
    <tag k="addr:city" v="Unterretzbach"/>
    <tag k="addr:country" v="AT"/>
    <tag k="addr:postcode" v="2074"/>
    <tag k="addr:street" v="Dorfstraße"/>
    <tag k="highway" v="residential"/>
    <tag k="name" v="Zoignergasse"/>
    <tag k="source" v="plan.at 2009"/>
  </way>
  <way id="45569872" version="4" timestamp="2012-07-18T20:18:53Z" uid="722137" user="OSMF Redaction Account" changeset="12296790"/>
</osm>
