<?xml version='1.0' encoding='UTF-8'?>
<osm version="0.6" generator="libosmium/2.20.0">
  <way id="45592035" version="5" timestamp="2010-04-03T16:52:51Z" uid="20587" user="balrog-kun" changeset="4312936">
    <nd ref="41153413"/>
    <nd ref="41153422"/>
    <tag k="bridge" v="yes"/>
    <tag k="highway" v="secondary"/>
    <tag k="is_in" v="Glacier, MT"/>
    <tag k="name" v="Going to the Sun Highway"/>
    <tag k="name_1" v="Glacier Route One"/>
  </way>
  <way id="45592035" version="6" timestamp="2012-03-02T03:23:22Z" uid="147510" user="woodpeck_fixbot" changeset="10842511"/>
  <way id="45592035" version="7" timestamp="2012-03-13T04:28:12Z" uid="147510" user="woodpeck_fixbot" changeset="10960757">
    <nd ref="41153413"/>
    <nd ref="41153422"/>
    <tag k="bridge" v="yes"/>
    <tag k="highway" v="secondary"/>
    <tag k="is_in" v="Glacier, MT"/>
    <tag k="name" v="Going to the Sun Highway"/>
    <tag k="name_1" v="Glacier Route One"/>
  </way>
  <way id="45592036" version="7" timestamp="2010-04-03T16:52:51Z" uid="20587" user="balrog-kun" changeset="4312936">
    <nd ref="41153422"/>
    <nd ref="41153425"/>
    <nd ref="41052104"/>
    <tag k="highway" v="secondary"/>
    <tag k="is_in" v="Glacier, MT"/>
    <tag k="name" v="Going to the Sun Highway"/>
    <tag k="name_1" v="Glacier Route One"/>
  </way>
  <way id="45592036" version="8" timestamp="2012-03-02T03:23:23Z" uid="147510" user="woodpeck_fixbot" changeset="10842511"/>
  <way id="45592036" version="9" timestamp="2012-03-13T04:28:13Z" uid="147510" user="woodpeck_fixbot" changeset="10960757">
    <nd ref="41153422"/>
    <nd ref="41153425"/>
    <nd ref="41052104"/>
    <tag k="highway" v="secondary"/>
    <tag k="is_in" v="Glacier, MT"/>
    <tag k="name" v="Going to the Sun Highway"/>
    <tag k="name_1" v="Glacier Route One"/>
  </way>
  <way id="45592819" version="4" timestamp="2010-07-25T22:26:09Z" uid="4467" user="Rosscoe" changeset="5317245">
    <nd ref="581351882"/>
    <nd ref="581351886"/>
    <tag k="bridge" v="yes"/>
    <tag k="layer" v="1"/>
    <tag k="name" v="Sydenham Line"/>
    <tag k="oneway" v="yes"/>
    <tag k="railway" v="rail"/>
    <tag k="source" v="nearmap"/>
  </way>
  <way id="45592819" version="5" timestamp="2011-11-02T09:40:54Z" uid="42429" user="FK270673" changeset="9720083">
    <nd ref="581351882"/>
    <nd ref="581351886"/>
    <tag k="bridge" v="yes"/>
    <tag k="electrified" v="contact_line"/>
    <tag k="frequency" v="0"/>
    <tag k="gauge" v="1600"/>
    <tag k="layer" v="1"/>
    <tag k="name" v="Sydenham Line"/>
    <tag k="oneway" v="yes"/>
    <tag k="railway" v="rail"/>
    <tag k="source" v="nearmap"/>
    <tag k="voltage" v="1500"/>
  </way>
  <way id="45592868" version="2" timestamp="2009-12-24T03:29:46Z" uid="6975" user="ulfl" changeset="3439738">
    <nd ref="581354984"/>
    <nd ref="581354985"/>
    <tag k="highway" v="tertiary"/>
    <tag k="tunnel" v="yes"/>
  </way>
  <way id="45592916" version="2" timestamp="2010-06-29T19:15:57Z" uid="74617" user="JohnSmith" changeset="5108182">
    <nd ref="581355660"/>
    <nd ref="581355662"/>
    <nd ref="581355665"/>
    <nd ref="581355667"/>
    <nd ref="581355660"/>
    <tag k="fixme" v="sport=football is ambiguous, see http://wiki.osm.org/wiki/Football for more details"/>
    <tag k="leisure" v="pitch"/>
    <tag k="source" v="uhul:wms"/>
    <tag k="sport" v="football"/>
  </way>
  <way id="45592916" version="3" timestamp="2010-11-04T10:08:05Z" uid="19173" user="wopixe" changeset="6286965">
    <nd ref="581355660"/>
    <nd ref="581355662"/>
    <nd ref="581355665"/>
    <nd ref="581355667"/>
    <nd ref="581355660"/>
    <tag k="leisure" v="pitch"/>
    <tag k="source" v="uhul:wms"/>
    <tag k="sport" v="soccer"/>
  </way>
  <way id="45592918" version="5" timestamp="2010-04-03T21:09:43Z" uid="20587" user="balrog-kun" changeset="4315899">
    <nd ref="41153442"/>
    <nd ref="41111348"/>
    <nd ref="41111365"/>
    <nd ref="41153437"/>
    <nd ref="41153432"/>
    <nd ref="41052104"/>
    <tag k="highway" v="secondary"/>
    <tag k="is_in" v="Glacier, MT"/>
    <tag k="name" v="Going to the Sun Highway"/>
    <tag k="name_1" v="Glacier Route One"/>
    <tag k="oneway" v="yes"/>
  </way>
  <way id="45592918" version="6" timestamp="2012-03-02T03:23:29Z" uid="147510" user="woodpeck_fixbot" changeset="10842511"/>
  <way id="45592918" version="7" timestamp="2012-03-13T04:28:20Z" uid="147510" user="woodpeck_fixbot" changeset="10960757">
    <nd ref="41153442"/>
    <nd ref="41111348"/>
    <nd ref="41111365"/>
    <nd ref="41153437"/>
    <nd ref="41153432"/>
    <nd ref="41052104"/>
    <tag k="highway" v="secondary"/>
    <tag k="is_in" v="Glacier, MT"/>
    <tag k="name" v="Going to the Sun Highway"/>
    <tag k="name_1" v="Glacier Route One"/>
    <tag k="oneway" v="yes"/>
  </way>
  <way id="45592919" version="4" timestamp="2010-04-03T21:09:43Z" uid="20587" user="balrog-kun" changeset="4315899">
    <nd ref="41153442"/>
    <nd ref="41082120"/>
    <nd ref="41153453"/>
    <nd ref="41153457"/>
    <nd ref="41153461"/>
    <tag k="highway" v="secondary"/>
    <tag k="is_in" v="Glacier, MT"/>
    <tag k="name" v="Going to the Sun Highway"/>
    <tag k="name_1" v="Glacier Route One"/>
  </way>
  <way id="45592919" version="5" timestamp="2010-10-22T01:51:25Z" uid="120468" user="Nakor" changeset="6132571">
    <nd ref="41153442"/>
    <nd ref="960037252"/>
    <nd ref="41082120"/>
    <nd ref="41153457"/>
    <nd ref="41153461"/>
    <tag k="highway" v="secondary"/>
    <tag k="is_in" v="Glacier, MT"/>
    <tag k="name" v="Going to the Sun Highway"/>
    <tag k="name_1" v="Glacier Route One"/>
  </way>
  <way id="45592919" version="6" timestamp="2012-03-02T03:23:30Z" uid="147510" user="woodpeck_fixbot" changeset="10842511"/>
  <way id="45592919" version="7" timestamp="2012-03-13T04:28:21Z" uid="147510" user="woodpeck_fixbot" changeset="10960757">
    <nd ref="41153442"/>
    <nd ref="960037252"/>
    <nd ref="41082120"/>
    <nd ref="41153457"/>
    <nd ref="41153461"/>
    <tag k="highway" v="secondary"/>
    <tag k="is_in" v="Glacier, MT"/>
    <tag k="name" v="Going to the Sun Highway"/>
    <tag k="name_1" v="Glacier Route One"/>
  </way>
  <way id="45592035" version="8" timestamp="2012-07-18T22:54:06Z" uid="722137" user="OSMF Redaction Account" changeset="12301090">
    <nd ref="41153413"/>
    <nd ref="41153422"/>
    <tag k="name" v="Going to the Sun Highway"/>
  </way>
  <way id="45592035" version="9" timestamp="2012-07-20T21:05:22Z" uid="28237" user="lyx" changeset="12391771">
    <nd ref="41153413"/>
    <nd ref="41153422"/>
    <tag k="bridge" v="yes"/>
    <tag k="highway" v="secondary"/>
    <tag k="layer" v="1"/>
    <tag k="name" v="Going to the Sun Highway"/>
  </way>
  <way id="45592036" version="10" timestamp="2012-07-18T22:54:06Z" uid="722137" user="OSMF Redaction Account" changeset="12301090">
    <nd ref="41153422"/>
    <nd ref="41153425"/>
    <nd ref="41052104"/>
    <tag k="name" v="Going to the Sun Highway"/>
  </way>
  <way id="45592036" version="11" timestamp="2012-07-20T21:05:22Z" uid="28237" user="lyx" changeset="12391771">
    <nd ref="41153422"/>
    <nd ref="41052104"/>
    <tag k="highway" v="secondary"/>
    <tag k="name" v="Going to the Sun Highway"/>
  </way>
  <way id="45592819" version="6" timestamp="2012-07-19T11:22:18Z" uid="722137" user="OSMF Redaction Account" changeset="12321281">
    <nd ref="581351882"/>
    <nd ref="581351886"/>
    <tag k="bridge" v="yes"/>
    <tag k="electrified" v="contact_line"/>
    <tag k="frequency" v="0"/>
    <tag k="gauge" v="1600"/>
    <tag k="name" v="Sydenham Line"/>
    <tag k="oneway" v="yes"/>
    <tag k="railway" v="rail"/>
    <tag k="source" v="nearmap"/>
    <tag k="voltage" v="1500"/>
  </way>
  <way id="45592868" version="3" timestamp="2012-07-20T05:30:40Z" uid="722137" user="OSMF Redaction Account" changeset="12362105"/>
  <way id="45592918" version="8" timestamp="2012-07-18T22:54:06Z" uid="722137" user="OSMF Redaction Account" changeset="12301090">
    <nd ref="41153442"/>
    <nd ref="41111348"/>
    <nd ref="41111365"/>
    <nd ref="41153437"/>
    <nd ref="41153432"/>
    <nd ref="41052104"/>
    <tag k="name" v="Going to the Sun Highway"/>
  </way>
  <way id="45592918" version="9" timestamp="2012-07-20T21:05:23Z" uid="28237" user="lyx" changeset="12391771">
    <nd ref="41153442"/>
    <nd ref="41111348"/>
    <nd ref="41111365"/>
    <nd ref="41153437"/>
    <nd ref="1832514582"/>
    <nd ref="41153432"/>
    <nd ref="41052104"/>
    <tag k="highway" v="secondary"/>
    <tag k="name" v="Going to the Sun Highway"/>
  </way>
  <way id="45592919" version="8" timestamp="2012-07-18T22:54:05Z" uid="722137" user="OSMF Redaction Account" changeset="12301090">
    <nd ref="41153442"/>
    <nd ref="960037252"/>
    <nd ref="41082120"/>
    <nd ref="41153457"/>
    <nd ref="41153461"/>
    <tag k="name" v="Going to the Sun Highway"/>
  </way>
  <way id="45592919" version="9" timestamp="2012-07-20T21:05:22Z" uid="28237" user="lyx" changeset="12391771">
    <nd ref="41153442"/>
    <nd ref="960037252"/>
    <nd ref="41082120"/>
    <nd ref="41153457"/>
    <tag k="highway" v="secondary"/>
    <tag k="name" v="Going to the Sun Highway"/>
  </way>
</osm>
