<?xml version='1.0' encoding='UTF-8'?>
<osm version="0.6" generator="libosmium/2.20.0">
  <way id="45649777" version="1" timestamp="2009-12-05T10:07:10Z" uid="19626" user="Swamp" changeset="3293963">
    <nd ref="129706396"/>
    <nd ref="206200170"/>
    <nd ref="206200195"/>
    <nd ref="129706440"/>
    <nd ref="250069988"/>
    <nd ref="129706460"/>
    <nd ref="129706480"/>
    <nd ref="574262852"/>
    <nd ref="129706494"/>
    <nd ref="304913497"/>
    <nd ref="129706509"/>
    <tag k="highway" v="primary"/>
    <tag k="name" v="Mallee Highway"/>
    <tag k="ref" v="B12"/>
    <tag k="source" v="survey"/>
  </way>
  <way id="45649777" version="2" timestamp="2011-07-16T03:48:30Z" uid="46482" user="Leon K" changeset="8736174">
    <nd ref="129706396"/>
    <nd ref="206200170"/>
    <nd ref="206200195"/>
    <nd ref="1363204209"/>
    <nd ref="129706440"/>
    <nd ref="250069988"/>
    <nd ref="129706460"/>
    <nd ref="129706480"/>
    <nd ref="574262852"/>
    <nd ref="129706494"/>
    <nd ref="304913497"/>
    <nd ref="129706509"/>
    <tag k="highway" v="primary"/>
    <tag k="name" v="Mallee Highway"/>
    <tag k="ref" v="B12"/>
    <tag k="source" v="survey"/>
  </way>
  <way id="45649777" version="3" timestamp="2011-08-22T08:06:07Z" uid="11111" user="melb_guy" changeset="9091645">
    <nd ref="129706396"/>
    <nd ref="206200170"/>
    <nd ref="206200195"/>
    <nd ref="1363204209"/>
    <nd ref="129706440"/>
    <nd ref="250069988"/>
    <nd ref="129706460"/>
    <nd ref="129706480"/>
    <nd ref="574262852"/>
    <nd ref="129706494"/>
    <nd ref="304913497"/>
    <nd ref="129706509"/>
    <tag k="alt_name" v="Mallee Highway"/>
    <tag k="highway" v="primary"/>
    <tag k="lanes" v="2"/>
    <tag k="maxspeed" v="60"/>
    <tag k="name" v="Gregory Street"/>
    <tag k="source" v="survey"/>
    <tag k="surface" v="asphalt"/>
  </way>
  <way id="45649779" version="1" timestamp="2009-12-05T10:07:11Z" uid="19626" user="Swamp" changeset="3293963">
    <nd ref="581811884"/>
    <nd ref="581811885"/>
    <nd ref="581811886"/>
    <nd ref="581811887"/>
    <nd ref="581811888"/>
    <nd ref="581811889"/>
    <nd ref="581811890"/>
    <nd ref="581811891"/>
    <nd ref="581811892"/>
    <nd ref="581811893"/>
    <nd ref="581811894"/>
    <nd ref="581811895"/>
    <nd ref="581811896"/>
    <tag k="highway" v="pedestrian"/>
  </way>
  <way id="45649779" version="2" timestamp="2009-12-08T06:44:01Z" uid="19626" user="Swamp" changeset="3322145">
    <nd ref="581811884"/>
    <nd ref="581811885"/>
    <nd ref="581811886"/>
    <nd ref="581811887"/>
    <nd ref="581811888"/>
    <nd ref="581811889"/>
    <nd ref="581811890"/>
    <nd ref="581811891"/>
    <nd ref="581811892"/>
    <nd ref="581811893"/>
    <nd ref="581811894"/>
    <nd ref="581811895"/>
    <nd ref="581811896"/>
    <tag k="highway" v="pedestrian"/>
    <tag k="source" v="survey"/>
  </way>
  <way id="45649779" version="3" timestamp="2011-12-02T19:54:54Z" uid="338866" user="tiger" changeset="10019585">
    <nd ref="581811884"/>
    <nd ref="581811885"/>
    <nd ref="581811886"/>
    <nd ref="581811887"/>
    <nd ref="581811888"/>
    <nd ref="581811889"/>
    <nd ref="581811890"/>
    <nd ref="581811891"/>
    <nd ref="581811892"/>
    <nd ref="581811893"/>
    <nd ref="581811894"/>
    <nd ref="581811895"/>
    <nd ref="581811896"/>
    <tag k="highway" v="pedestrian"/>
    <tag k="source" v="survey"/>
  </way>
  <way id="45649783" version="1" timestamp="2009-12-05T10:07:11Z" uid="19626" user="Swamp" changeset="3293963">
    <nd ref="129705543"/>
    <nd ref="581811898"/>
    <nd ref="249235292"/>
    <nd ref="135686330"/>
    <tag k="highway" v="primary"/>
    <tag k="maxspeed" v="60"/>
    <tag k="name" v="Mallee Highway"/>
    <tag k="ref" v="B12"/>
    <tag k="source" v="survey"/>
  </way>
  <way id="45649783" version="2" timestamp="2009-12-05T10:19:05Z" uid="19626" user="Swamp" changeset="3294024">
    <nd ref="129705543"/>
    <nd ref="581811898"/>
    <nd ref="249235292"/>
    <nd ref="135686330"/>
    <tag k="highway" v="primary"/>
    <tag k="maxspeed" v="60"/>
    <tag k="name" v="Mallee Highway;Cregan Street"/>
    <tag k="ref" v="B12"/>
    <tag k="source" v="survey"/>
  </way>
  <way id="45649783" version="3" timestamp="2011-05-21T12:15:58Z" uid="213829" user="Emmertex" changeset="8206179">
    <nd ref="129705543"/>
    <nd ref="1294711409"/>
    <nd ref="581811898"/>
    <nd ref="1294711322"/>
    <nd ref="249235292"/>
    <nd ref="1294711366"/>
    <nd ref="135686330"/>
    <tag k="highway" v="primary"/>
    <tag k="maxspeed" v="60"/>
    <tag k="name" v="Mallee Highway;Cregan Street"/>
    <tag k="ref" v="B12"/>
    <tag k="source" v="survey"/>
  </way>
  <way id="45649783" version="4" timestamp="2011-08-22T08:25:33Z" uid="11111" user="melb_guy" changeset="9091793"/>
  <way id="45649777" version="4" timestamp="2012-07-19T07:24:46Z" uid="722137" user="OSMF Redaction Account" changeset="12311834">
    <nd ref="129706396"/>
    <nd ref="206200170"/>
    <nd ref="206200195"/>
    <nd ref="1363204209"/>
    <nd ref="129706440"/>
    <nd ref="250069988"/>
    <nd ref="129706494"/>
    <nd ref="304913497"/>
    <nd ref="129706509"/>
    <tag k="alt_name" v="Mallee Highway"/>
    <tag k="highway" v="primary"/>
    <tag k="lanes" v="2"/>
    <tag k="maxspeed" v="60"/>
    <tag k="name" v="Gregory Street"/>
    <tag k="source" v="survey"/>
    <tag k="surface" v="asphalt"/>
  </way>
  <way id="45649777" version="5" timestamp="2012-07-19T07:25:23Z" uid="722137" user="OSMF Redaction Account" changeset="12311852"/>
  <way id="45649779" version="4" timestamp="2012-07-19T07:26:41Z" uid="722137" user="OSMF Redaction Account" changeset="12311892"/>
</osm>
