<?xml version='1.0' encoding='UTF-8'?>
<osm version="0.6" generator="libosmium/2.20.0">
  <way id="45657013" version="2" timestamp="2009-12-12T02:01:38Z" uid="4467" user="Rosscoe" changeset="3353425">
    <nd ref="581872400"/>
    <nd ref="581872405"/>
    <nd ref="581872411"/>
    <tag k="highway" v="residential"/>
    <tag k="source" v="nearmap"/>
  </way>
  <way id="45657013" version="3" timestamp="2010-02-06T10:53:13Z" uid="84937" user="Neil Penman" changeset="3803946">
    <nd ref="581872400"/>
    <nd ref="581872405"/>
    <nd ref="581872411"/>
    <tag k="highway" v="residential"/>
    <tag k="name" v="Abinger Court"/>
    <tag k="source" v="nearmap"/>
  </way>
  <way id="45657013" version="4" timestamp="2010-07-09T03:16:40Z" uid="74617" user="JohnSmith" changeset="5170739">
    <nd ref="581872400"/>
    <nd ref="581872405"/>
    <nd ref="581872411"/>
    <tag k="highway" v="residential"/>
    <tag k="maxspeed" v="50"/>
    <tag k="maxspeed:source" v="default residential speed limit in Australia"/>
    <tag k="name" v="Abinger Court"/>
    <tag k="source" v="nearmap"/>
  </way>
  <way id="45657013" version="5" timestamp="2011-02-01T22:28:11Z" uid="84937" user="Neil Penman" changeset="7160197">
    <nd ref="581872400"/>
    <nd ref="581872405"/>
    <nd ref="581872411"/>
    <tag k="highway" v="residential"/>
    <tag k="maxspeed" v="50"/>
    <tag k="maxspeed:source" v="default residential speed limit in Australia"/>
    <tag k="name" v="Abinger Court"/>
    <tag k="source" v="bing"/>
  </way>
  <way id="45657013" version="6" timestamp="2012-01-19T12:30:00Z" uid="147510" user="woodpeck_fixbot" changeset="10436041">
    <nd ref="581872400"/>
    <nd ref="581872405"/>
    <nd ref="581872411"/>
    <tag k="highway" v="residential"/>
    <tag k="name" v="Abinger Court"/>
    <tag k="source" v="bing"/>
  </way>
  <way id="45657013" version="7" timestamp="2012-03-21T08:20:43Z" uid="84937" user="Neil Penman" changeset="11049402">
    <nd ref="1684363748"/>
    <nd ref="1684363763"/>
    <nd ref="1684363764"/>
    <nd ref="581872411"/>
    <tag k="highway" v="residential"/>
    <tag k="name" v="Abinger Court"/>
    <tag k="source" v="bing"/>
  </way>
  <way id="45657016" version="2" timestamp="2009-12-12T02:01:38Z" uid="4467" user="Rosscoe" changeset="3353425">
    <nd ref="581872418"/>
    <nd ref="581872423"/>
    <nd ref="581872426"/>
    <nd ref="581872431"/>
    <tag k="highway" v="residential"/>
    <tag k="source" v="nearmap"/>
  </way>
  <way id="45657016" version="3" timestamp="2010-07-09T03:09:49Z" uid="74617" user="JohnSmith" changeset="5170739">
    <nd ref="581872418"/>
    <nd ref="581872423"/>
    <nd ref="581872426"/>
    <nd ref="581872431"/>
    <tag k="highway" v="residential"/>
    <tag k="maxspeed" v="50"/>
    <tag k="maxspeed:source" v="default residential speed limit in Australia"/>
    <tag k="source" v="nearmap"/>
  </way>
  <way id="45657016" version="4" timestamp="2011-02-01T22:28:12Z" uid="84937" user="Neil Penman" changeset="7160197">
    <nd ref="581872418"/>
    <nd ref="581872423"/>
    <nd ref="581872426"/>
    <nd ref="581872431"/>
    <tag k="highway" v="residential"/>
    <tag k="maxspeed" v="50"/>
    <tag k="maxspeed:source" v="default residential speed limit in Australia"/>
    <tag k="source" v="bing"/>
  </way>
  <way id="45657016" version="5" timestamp="2012-01-19T12:30:01Z" uid="147510" user="woodpeck_fixbot" changeset="10436041">
    <nd ref="581872418"/>
    <nd ref="581872423"/>
    <nd ref="581872426"/>
    <nd ref="581872431"/>
    <tag k="highway" v="residential"/>
    <tag k="source" v="bing"/>
  </way>
  <way id="45657017" version="3" timestamp="2010-07-09T03:13:51Z" uid="74617" user="JohnSmith" changeset="5170739">
    <nd ref="581872441"/>
    <nd ref="581872443"/>
    <nd ref="581872444"/>
    <nd ref="581872446"/>
    <tag k="highway" v="residential"/>
    <tag k="maxspeed" v="50"/>
    <tag k="maxspeed:source" v="default residential speed limit in Australia"/>
    <tag k="name" v="Spruce Court"/>
  </way>
  <way id="45657017" version="4" timestamp="2012-01-19T12:30:06Z" uid="147510" user="woodpeck_fixbot" changeset="10436041">
    <nd ref="581872441"/>
    <nd ref="581872443"/>
    <nd ref="581872444"/>
    <nd ref="581872446"/>
    <tag k="highway" v="residential"/>
    <tag k="name" v="Spruce Court"/>
  </way>
  <way id="45657017" version="5" timestamp="2012-03-21T07:56:59Z" uid="84937" user="Neil Penman" changeset="11049233">
    <nd ref="1684332912"/>
    <nd ref="581872443"/>
    <nd ref="581872444"/>
    <nd ref="581872446"/>
    <tag k="highway" v="residential"/>
    <tag k="name" v="Spruce Court"/>
  </way>
  <way id="45657019" version="2" timestamp="2009-12-12T01:41:02Z" uid="4467" user="Rosscoe" changeset="3353390">
    <nd ref="581872455"/>
    <nd ref="581872459"/>
    <nd ref="581872463"/>
    <nd ref="581872468"/>
    <nd ref="581872474"/>
    <tag k="highway" v="residential"/>
    <tag k="source" v="nearmap"/>
  </way>
  <way id="45657019" version="3" timestamp="2010-02-06T10:53:13Z" uid="84937" user="Neil Penman" changeset="3803946">
    <nd ref="581872455"/>
    <nd ref="581872459"/>
    <nd ref="581872463"/>
    <nd ref="581872468"/>
    <nd ref="581872474"/>
    <tag k="highway" v="residential"/>
    <tag k="name" v="Baxter Close"/>
  </way>
  <way id="45657019" version="4" timestamp="2010-07-09T03:12:14Z" uid="74617" user="JohnSmith" changeset="5170739">
    <nd ref="581872455"/>
    <nd ref="581872459"/>
    <nd ref="581872463"/>
    <nd ref="581872468"/>
    <nd ref="581872474"/>
    <tag k="highway" v="residential"/>
    <tag k="maxspeed" v="50"/>
    <tag k="maxspeed:source" v="default residential speed limit in Australia"/>
    <tag k="name" v="Baxter Close"/>
  </way>
  <way id="45657019" version="5" timestamp="2012-01-19T12:30:11Z" uid="147510" user="woodpeck_fixbot" changeset="10436041">
    <nd ref="581872455"/>
    <nd ref="581872459"/>
    <nd ref="581872463"/>
    <nd ref="581872468"/>
    <nd ref="581872474"/>
    <tag k="highway" v="residential"/>
    <tag k="name" v="Baxter Close"/>
  </way>
  <way id="45657019" version="6" timestamp="2012-03-21T08:07:05Z" uid="84937" user="Neil Penman" changeset="11049298">
    <nd ref="1684342383"/>
    <nd ref="581872459"/>
    <nd ref="581872463"/>
    <nd ref="581872468"/>
    <nd ref="581872474"/>
    <tag k="highway" v="residential"/>
    <tag k="name" v="Baxter Close"/>
  </way>
  <way id="45657023" version="2" timestamp="2009-12-12T00:47:53Z" uid="4467" user="Rosscoe" changeset="3353268">
    <nd ref="581872479"/>
    <nd ref="581872481"/>
    <nd ref="581872482"/>
    <nd ref="581872484"/>
    <tag k="highway" v="residential"/>
    <tag k="source" v="nearmap"/>
  </way>
  <way id="45657023" version="3" timestamp="2010-02-06T10:53:12Z" uid="84937" user="Neil Penman" changeset="3803946">
    <nd ref="581872479"/>
    <nd ref="581872481"/>
    <nd ref="581872482"/>
    <nd ref="581872484"/>
    <tag k="highway" v="residential"/>
    <tag k="name" v="Mickleham Road"/>
    <tag k="source" v="nearmap"/>
  </way>
  <way id="45657023" version="4" timestamp="2010-07-09T03:09:29Z" uid="74617" user="JohnSmith" changeset="5170739">
    <nd ref="581872479"/>
    <nd ref="581872481"/>
    <nd ref="581872482"/>
    <nd ref="581872484"/>
    <tag k="highway" v="residential"/>
    <tag k="maxspeed" v="50"/>
    <tag k="maxspeed:source" v="default residential speed limit in Australia"/>
    <tag k="name" v="Mickleham Road"/>
    <tag k="source" v="nearmap"/>
  </way>
  <way id="45657023" version="5" timestamp="2010-08-26T07:52:24Z" uid="11111" user="lakeyboy" changeset="5596342">
    <nd ref="581872479"/>
    <nd ref="581872481"/>
    <nd ref="581872482"/>
    <nd ref="581872484"/>
    <tag k="highway" v="residential"/>
    <tag k="maxspeed" v="50"/>
    <tag k="name" v="Mickleham Road Service Road"/>
    <tag k="source" v="nearmap"/>
    <tag k="source:maxspeed" v="default residential speed limit in Australia"/>
  </way>
  <way id="45657023" version="6" timestamp="2010-08-26T07:52:41Z" uid="11111" user="lakeyboy" changeset="5596342">
    <nd ref="581872479"/>
    <nd ref="880271866"/>
    <nd ref="880271868"/>
    <nd ref="880271870"/>
    <nd ref="581872481"/>
    <nd ref="880271874"/>
    <nd ref="581872482"/>
    <nd ref="880271877"/>
    <nd ref="880271880"/>
    <nd ref="581872484"/>
    <tag k="highway" v="residential"/>
    <tag k="maxspeed" v="50"/>
    <tag k="name" v="Mickleham Road Service Road"/>
    <tag k="source" v="nearmap"/>
    <tag k="source:maxspeed" v="default residential speed limit in Australia"/>
  </way>
  <way id="45657023" version="7" timestamp="2012-01-19T12:30:14Z" uid="147510" user="woodpeck_fixbot" changeset="10436041">
    <nd ref="581872479"/>
    <nd ref="880271866"/>
    <nd ref="880271868"/>
    <nd ref="880271870"/>
    <nd ref="581872481"/>
    <nd ref="880271874"/>
    <nd ref="581872482"/>
    <nd ref="880271877"/>
    <nd ref="880271880"/>
    <nd ref="581872484"/>
    <tag k="highway" v="residential"/>
    <tag k="name" v="Mickleham Road Service Road"/>
    <tag k="source" v="nearmap"/>
    <tag k="source:maxspeed" v="default residential speed limit in Australia"/>
  </way>
  <way id="45657034" version="3" timestamp="2010-07-09T03:12:13Z" uid="74617" user="JohnSmith" changeset="5170739">
    <nd ref="581872510"/>
    <nd ref="581872512"/>
    <nd ref="581872514"/>
    <tag k="highway" v="residential"/>
    <tag k="maxspeed" v="50"/>
    <tag k="maxspeed:source" v="default residential speed limit in Australia"/>
    <tag k="name" v="Warriss Court"/>
  </way>
  <way id="45657034" version="4" timestamp="2012-01-19T12:30:18Z" uid="147510" user="woodpeck_fixbot" changeset="10436041">
    <nd ref="581872510"/>
    <nd ref="581872512"/>
    <nd ref="581872514"/>
    <tag k="highway" v="residential"/>
    <tag k="name" v="Warriss Court"/>
  </way>
  <way id="45657035" version="3" timestamp="2010-07-09T03:16:18Z" uid="74617" user="JohnSmith" changeset="5170739">
    <nd ref="581872519"/>
    <nd ref="581872522"/>
    <nd ref="581872523"/>
    <nd ref="581872526"/>
    <nd ref="581872528"/>
    <tag k="highway" v="residential"/>
    <tag k="maxspeed" v="50"/>
    <tag k="maxspeed:source" v="default residential speed limit in Australia"/>
    <tag k="name" v="Waverley Court"/>
  </way>
  <way id="45657035" version="4" timestamp="2012-01-19T12:30:20Z" uid="147510" user="woodpeck_fixbot" changeset="10436041">
    <nd ref="581872519"/>
    <nd ref="581872522"/>
    <nd ref="581872523"/>
    <nd ref="581872526"/>
    <nd ref="581872528"/>
    <tag k="highway" v="residential"/>
    <tag k="name" v="Waverley Court"/>
  </way>
  <way id="45657036" version="3" timestamp="2010-07-09T03:10:47Z" uid="74617" user="JohnSmith" changeset="5170739">
    <nd ref="581872533"/>
    <nd ref="581872535"/>
    <nd ref="581872537"/>
    <tag k="highway" v="residential"/>
    <tag k="maxspeed" v="50"/>
    <tag k="maxspeed:source" v="default residential speed limit in Australia"/>
    <tag k="name" v="Roper Court"/>
  </way>
  <way id="45657036" version="4" timestamp="2012-01-19T12:30:24Z" uid="147510" user="woodpeck_fixbot" changeset="10436041">
    <nd ref="581872533"/>
    <nd ref="581872535"/>
    <nd ref="581872537"/>
    <tag k="highway" v="residential"/>
    <tag k="name" v="Roper Court"/>
  </way>
  <way id="45657037" version="3" timestamp="2010-07-09T03:14:54Z" uid="74617" user="JohnSmith" changeset="5170739">
    <nd ref="581872540"/>
    <nd ref="581872544"/>
    <tag k="highway" v="residential"/>
    <tag k="maxspeed" v="50"/>
    <tag k="maxspeed:source" v="default residential speed limit in Australia"/>
    <tag k="name" v="Alison Close"/>
  </way>
  <way id="45657037" version="4" timestamp="2012-01-19T12:30:27Z" uid="147510" user="woodpeck_fixbot" changeset="10436041">
    <nd ref="581872540"/>
    <nd ref="581872544"/>
    <tag k="highway" v="residential"/>
    <tag k="name" v="Alison Close"/>
  </way>
  <way id="45657037" version="5" timestamp="2012-03-21T07:56:53Z" uid="84937" user="Neil Penman" changeset="11049233">
    <nd ref="1684332872"/>
    <nd ref="1684332866"/>
    <nd ref="581872544"/>
    <tag k="highway" v="residential"/>
    <tag k="name" v="Alison Close"/>
  </way>
  <way id="45657038" version="2" timestamp="2009-12-12T02:01:38Z" uid="4467" user="Rosscoe" changeset="3353425">
    <nd ref="581872548"/>
    <nd ref="581872550"/>
    <nd ref="581872552"/>
    <nd ref="581872555"/>
    <nd ref="581872557"/>
    <tag k="highway" v="residential"/>
    <tag k="source" v="nearmap"/>
  </way>
  <way id="45657038" version="3" timestamp="2010-02-06T10:53:15Z" uid="84937" user="Neil Penman" changeset="3803946">
    <nd ref="581872548"/>
    <nd ref="581872550"/>
    <nd ref="581872552"/>
    <nd ref="581872555"/>
    <nd ref="581872557"/>
    <tag k="highway" v="residential"/>
    <tag k="name" v="Burgess Close"/>
    <tag k="source" v="nearmap"/>
  </way>
  <way id="45657038" version="4" timestamp="2010-07-09T03:09:28Z" uid="74617" user="JohnSmith" changeset="5170739">
    <nd ref="581872548"/>
    <nd ref="581872550"/>
    <nd ref="581872552"/>
    <nd ref="581872555"/>
    <nd ref="581872557"/>
    <tag k="highway" v="residential"/>
    <tag k="maxspeed" v="50"/>
    <tag k="maxspeed:source" v="default residential speed limit in Australia"/>
    <tag k="name" v="Burgess Close"/>
    <tag k="source" v="nearmap"/>
  </way>
  <way id="45657038" version="5" timestamp="2011-02-01T22:28:24Z" uid="84937" user="Neil Penman" changeset="7160197">
    <nd ref="581872548"/>
    <nd ref="581872550"/>
    <nd ref="581872552"/>
    <nd ref="581872555"/>
    <nd ref="581872557"/>
    <tag k="highway" v="residential"/>
    <tag k="maxspeed" v="50"/>
    <tag k="maxspeed:source" v="default residential speed limit in Australia"/>
    <tag k="name" v="Burgess Close"/>
    <tag k="source" v="bing"/>
  </way>
  <way id="45657038" version="6" timestamp="2012-01-19T12:30:28Z" uid="147510" user="woodpeck_fixbot" changeset="10436041">
    <nd ref="581872548"/>
    <nd ref="581872550"/>
    <nd ref="581872552"/>
    <nd ref="581872555"/>
    <nd ref="581872557"/>
    <tag k="highway" v="residential"/>
    <tag k="name" v="Burgess Close"/>
    <tag k="source" v="bing"/>
  </way>
  <way id="45657041" version="3" timestamp="2010-07-09T03:16:13Z" uid="74617" user="JohnSmith" changeset="5170739">
    <nd ref="581872686"/>
    <nd ref="581872689"/>
    <nd ref="581872692"/>
    <nd ref="581872695"/>
    <nd ref="581872698"/>
    <nd ref="581872700"/>
    <tag k="highway" v="residential"/>
    <tag k="maxspeed" v="50"/>
    <tag k="maxspeed:source" v="default residential speed limit in Australia"/>
    <tag k="name" v="Cornwall close"/>
  </way>
  <way id="45657041" version="4" timestamp="2012-01-19T12:30:31Z" uid="147510" user="woodpeck_fixbot" changeset="10436041">
    <nd ref="581872686"/>
    <nd ref="581872689"/>
    <nd ref="581872692"/>
    <nd ref="581872695"/>
    <nd ref="581872698"/>
    <nd ref="581872700"/>
    <tag k="highway" v="residential"/>
    <tag k="name" v="Cornwall close"/>
  </way>
  <way id="45657042" version="3" timestamp="2010-07-09T03:10:41Z" uid="74617" user="JohnSmith" changeset="5170739">
    <nd ref="581872704"/>
    <nd ref="581872706"/>
    <nd ref="581872707"/>
    <nd ref="581872711"/>
    <nd ref="581872713"/>
    <tag k="highway" v="residential"/>
    <tag k="maxspeed" v="50"/>
    <tag k="maxspeed:source" v="default residential speed limit in Australia"/>
    <tag k="name" v="Cousen Place"/>
  </way>
  <way id="45657042" version="4" timestamp="2012-01-19T12:30:34Z" uid="147510" user="woodpeck_fixbot" changeset="10436041">
    <nd ref="581872704"/>
    <nd ref="581872706"/>
    <nd ref="581872707"/>
    <nd ref="581872711"/>
    <nd ref="581872713"/>
    <tag k="highway" v="residential"/>
    <tag k="name" v="Cousen Place"/>
  </way>
  <way id="45657043" version="3" timestamp="2010-07-09T03:14:49Z" uid="74617" user="JohnSmith" changeset="5170739">
    <nd ref="581872718"/>
    <nd ref="581872720"/>
    <tag k="highway" v="residential"/>
    <tag k="maxspeed" v="50"/>
    <tag k="maxspeed:source" v="default residential speed limit in Australia"/>
    <tag k="name" v="Rodda Court"/>
  </way>
  <way id="45657043" version="4" timestamp="2012-01-19T12:30:36Z" uid="147510" user="woodpeck_fixbot" changeset="10436041">
    <nd ref="581872718"/>
    <nd ref="581872720"/>
    <tag k="highway" v="residential"/>
    <tag k="name" v="Rodda Court"/>
  </way>
  <way id="45657044" version="3" timestamp="2010-07-09T03:09:25Z" uid="74617" user="JohnSmith" changeset="5170739">
    <nd ref="581872724"/>
    <nd ref="581872728"/>
    <nd ref="581872729"/>
    <nd ref="581872730"/>
    <nd ref="581872731"/>
    <nd ref="581872733"/>
    <tag k="highway" v="residential"/>
    <tag k="maxspeed" v="50"/>
    <tag k="maxspeed:source" v="default residential speed limit in Australia"/>
    <tag k="name" v="Townsend Avenue"/>
  </way>
  <way id="45657044" version="4" timestamp="2012-01-19T12:30:38Z" uid="147510" user="woodpeck_fixbot" changeset="10436041">
    <nd ref="581872724"/>
    <nd ref="581872728"/>
    <nd ref="581872729"/>
    <nd ref="581872730"/>
    <nd ref="581872731"/>
    <nd ref="581872733"/>
    <tag k="highway" v="residential"/>
    <tag k="name" v="Townsend Avenue"/>
  </way>
  <way id="45657045" version="3" timestamp="2010-07-09T03:13:19Z" uid="74617" user="JohnSmith" changeset="5170739">
    <nd ref="581872729"/>
    <nd ref="581872738"/>
    <nd ref="581872740"/>
    <tag k="highway" v="residential"/>
    <tag k="maxspeed" v="50"/>
    <tag k="maxspeed:source" v="default residential speed limit in Australia"/>
    <tag k="name" v="Hoctor Close"/>
  </way>
  <way id="45657045" version="4" timestamp="2012-01-19T12:30:40Z" uid="147510" user="woodpeck_fixbot" changeset="10436041">
    <nd ref="581872729"/>
    <nd ref="581872738"/>
    <nd ref="581872740"/>
    <tag k="highway" v="residential"/>
    <tag k="name" v="Hoctor Close"/>
  </way>
  <way id="45657046" version="3" timestamp="2010-07-09T03:17:21Z" uid="74617" user="JohnSmith" changeset="5170739">
    <nd ref="581872756"/>
    <nd ref="581872758"/>
    <nd ref="581872519"/>
    <nd ref="581872759"/>
    <nd ref="581872761"/>
    <nd ref="581872763"/>
    <nd ref="581872765"/>
    <nd ref="581872767"/>
    <nd ref="581872769"/>
    <nd ref="581872510"/>
    <nd ref="581872771"/>
    <nd ref="581872772"/>
    <nd ref="581872774"/>
    <tag k="highway" v="residential"/>
    <tag k="maxspeed" v="50"/>
    <tag k="maxspeed:source" v="default residential speed limit in Australia"/>
    <tag k="name" v="Wiltshire Road"/>
  </way>
  <way id="45657046" version="4" timestamp="2012-01-19T12:30:42Z" uid="147510" user="woodpeck_fixbot" changeset="10436041">
    <nd ref="581872756"/>
    <nd ref="581872758"/>
    <nd ref="581872519"/>
    <nd ref="581872759"/>
    <nd ref="581872761"/>
    <nd ref="581872763"/>
    <nd ref="581872765"/>
    <nd ref="581872767"/>
    <nd ref="581872769"/>
    <nd ref="581872510"/>
    <nd ref="581872771"/>
    <nd ref="581872772"/>
    <nd ref="581872774"/>
    <tag k="highway" v="residential"/>
    <tag k="name" v="Wiltshire Road"/>
  </way>
  <way id="45657047" version="3" timestamp="2010-07-09T03:11:50Z" uid="74617" user="JohnSmith" changeset="5170739">
    <nd ref="581872765"/>
    <nd ref="581872778"/>
    <tag k="highway" v="residential"/>
    <tag k="maxspeed" v="50"/>
    <tag k="maxspeed:source" v="default residential speed limit in Australia"/>
    <tag k="name" v="Wylye Close"/>
  </way>
  <way id="45657047" version="4" timestamp="2012-01-19T12:30:44Z" uid="147510" user="woodpeck_fixbot" changeset="10436041">
    <nd ref="581872765"/>
    <nd ref="581872778"/>
    <tag k="highway" v="residential"/>
    <tag k="name" v="Wylye Close"/>
  </way>
  <way id="45657048" version="3" timestamp="2010-07-09T03:15:55Z" uid="74617" user="JohnSmith" changeset="5170739">
    <nd ref="269660624"/>
    <nd ref="581872781"/>
    <nd ref="581872783"/>
    <tag k="highway" v="residential"/>
    <tag k="maxspeed" v="50"/>
    <tag k="maxspeed:source" v="default residential speed limit in Australia"/>
    <tag k="name" v="Glendale Place"/>
  </way>
  <way id="45657048" version="4" timestamp="2012-01-19T12:30:47Z" uid="147510" user="woodpeck_fixbot" changeset="10436041">
    <nd ref="269660624"/>
    <nd ref="581872781"/>
    <nd ref="581872783"/>
    <tag k="highway" v="residential"/>
    <tag k="name" v="Glendale Place"/>
  </way>
  <way id="45657049" version="3" timestamp="2010-07-09T03:10:22Z" uid="74617" user="JohnSmith" changeset="5170739">
    <nd ref="581872792"/>
    <nd ref="581872795"/>
    <nd ref="581872800"/>
    <tag k="highway" v="residential"/>
    <tag k="maxspeed" v="50"/>
    <tag k="maxspeed:source" v="default residential speed limit in Australia"/>
    <tag k="name" v="Bede Court"/>
  </way>
  <way id="45657049" version="4" timestamp="2012-01-19T12:30:49Z" uid="147510" user="woodpeck_fixbot" changeset="10436041">
    <nd ref="581872792"/>
    <nd ref="581872795"/>
    <nd ref="581872800"/>
    <tag k="highway" v="residential"/>
    <tag k="name" v="Bede Court"/>
  </way>
  <way id="45657050" version="3" timestamp="2010-07-09T03:14:32Z" uid="74617" user="JohnSmith" changeset="5170739">
    <nd ref="269660627"/>
    <nd ref="581872808"/>
    <nd ref="581872811"/>
    <nd ref="581872814"/>
    <nd ref="581872817"/>
    <nd ref="581872820"/>
    <tag k="highway" v="residential"/>
    <tag k="maxspeed" v="50"/>
    <tag k="maxspeed:source" v="default residential speed limit in Australia"/>
    <tag k="name" v="Castleton Court"/>
  </way>
  <way id="45657050" version="4" timestamp="2012-01-19T12:30:50Z" uid="147510" user="woodpeck_fixbot" changeset="10436041">
    <nd ref="269660627"/>
    <nd ref="581872808"/>
    <nd ref="581872811"/>
    <nd ref="581872814"/>
    <nd ref="581872817"/>
    <nd ref="581872820"/>
    <tag k="highway" v="residential"/>
    <tag k="name" v="Castleton Court"/>
  </way>
  <way id="45657051" version="3" timestamp="2010-07-09T03:09:08Z" uid="74617" user="JohnSmith" changeset="5170739">
    <nd ref="581872906"/>
    <nd ref="581872909"/>
    <nd ref="581872912"/>
    <nd ref="581872916"/>
    <nd ref="581872920"/>
    <nd ref="581872923"/>
    <tag k="highway" v="residential"/>
    <tag k="maxspeed" v="50"/>
    <tag k="maxspeed:source" v="default residential speed limit in Australia"/>
    <tag k="name" v="Highcliffe Close"/>
  </way>
  <way id="45657051" version="4" timestamp="2012-01-19T12:30:52Z" uid="147510" user="woodpeck_fixbot" changeset="10436041">
    <nd ref="581872906"/>
    <nd ref="581872909"/>
    <nd ref="581872912"/>
    <nd ref="581872916"/>
    <nd ref="581872920"/>
    <nd ref="581872923"/>
    <tag k="highway" v="residential"/>
    <tag k="name" v="Highcliffe Close"/>
  </way>
  <way id="45657058" version="2" timestamp="2009-12-12T00:13:13Z" uid="4467" user="Rosscoe" changeset="3353172">
    <nd ref="581872931"/>
    <nd ref="581872933"/>
    <nd ref="581872935"/>
    <nd ref="581872938"/>
    <tag k="highway" v="residential"/>
    <tag k="source" v="nearmap"/>
  </way>
  <way id="45657058" version="3" timestamp="2010-02-06T10:53:14Z" uid="84937" user="Neil Penman" changeset="3803946">
    <nd ref="581872931"/>
    <nd ref="581872933"/>
    <nd ref="581872935"/>
    <nd ref="581872938"/>
    <tag k="highway" v="residential"/>
    <tag k="name" v="Bladen Place"/>
    <tag k="source" v="nearmap"/>
  </way>
  <way id="45657058" version="4" timestamp="2010-07-09T03:12:55Z" uid="74617" user="JohnSmith" changeset="5170739">
    <nd ref="581872931"/>
    <nd ref="581872933"/>
    <nd ref="581872935"/>
    <nd ref="581872938"/>
    <tag k="highway" v="residential"/>
    <tag k="maxspeed" v="50"/>
    <tag k="maxspeed:source" v="default residential speed limit in Australia"/>
    <tag k="name" v="Bladen Place"/>
    <tag k="source" v="nearmap"/>
  </way>
  <way id="45657058" version="5" timestamp="2011-02-01T22:28:25Z" uid="84937" user="Neil Penman" changeset="7160197">
    <nd ref="581872931"/>
    <nd ref="581872933"/>
    <nd ref="581872935"/>
    <nd ref="581872938"/>
    <tag k="highway" v="residential"/>
    <tag k="maxspeed" v="50"/>
    <tag k="maxspeed:source" v="default residential speed limit in Australia"/>
    <tag k="name" v="Bladen Place"/>
    <tag k="source" v="survey:bing"/>
  </way>
  <way id="45657058" version="6" timestamp="2012-01-19T12:30:54Z" uid="147510" user="woodpeck_fixbot" changeset="10436041">
    <nd ref="581872931"/>
    <nd ref="581872933"/>
    <nd ref="581872935"/>
    <nd ref="581872938"/>
    <tag k="highway" v="residential"/>
    <tag k="name" v="Bladen Place"/>
    <tag k="source" v="survey:bing"/>
  </way>
  <way id="45657065" version="2" timestamp="2009-12-12T00:13:13Z" uid="4467" user="Rosscoe" changeset="3353172">
    <nd ref="581872944"/>
    <nd ref="581872946"/>
    <nd ref="581872950"/>
    <tag k="highway" v="residential"/>
    <tag k="source" v="nearmap"/>
  </way>
  <way id="45657065" version="3" timestamp="2010-02-06T10:53:14Z" uid="84937" user="Neil Penman" changeset="3803946">
    <nd ref="581872944"/>
    <nd ref="581872946"/>
    <nd ref="581872950"/>
    <tag k="highway" v="residential"/>
    <tag k="name" v="Oakhurst Court"/>
    <tag k="source" v="nearmap"/>
  </way>
  <way id="45657065" version="4" timestamp="2010-07-09T03:12:31Z" uid="74617" user="JohnSmith" changeset="5170739">
    <nd ref="581872944"/>
    <nd ref="581872946"/>
    <nd ref="581872950"/>
    <tag k="highway" v="residential"/>
    <tag k="maxspeed" v="50"/>
    <tag k="maxspeed:source" v="default residential speed limit in Australia"/>
    <tag k="name" v="Oakhurst Court"/>
    <tag k="source" v="nearmap"/>
  </way>
  <way id="45657065" version="5" timestamp="2011-02-01T22:28:07Z" uid="84937" user="Neil Penman" changeset="7160197">
    <nd ref="581872944"/>
    <nd ref="581872946"/>
    <nd ref="581872950"/>
    <tag k="highway" v="residential"/>
    <tag k="maxspeed" v="50"/>
    <tag k="maxspeed:source" v="default residential speed limit in Australia"/>
    <tag k="name" v="Oakhurst Court"/>
    <tag k="source" v="survey:bing"/>
  </way>
  <way id="45657065" version="6" timestamp="2012-01-19T12:30:58Z" uid="147510" user="woodpeck_fixbot" changeset="10436041">
    <nd ref="581872944"/>
    <nd ref="581872946"/>
    <nd ref="581872950"/>
    <tag k="highway" v="residential"/>
    <tag k="name" v="Oakhurst Court"/>
    <tag k="source" v="survey:bing"/>
  </way>
  <way id="45657069" version="2" timestamp="2009-12-12T00:13:13Z" uid="4467" user="Rosscoe" changeset="3353172">
    <nd ref="581872954"/>
    <nd ref="581872958"/>
    <tag k="highway" v="residential"/>
    <tag k="source" v="nearmap"/>
  </way>
  <way id="45657069" version="3" timestamp="2010-02-06T10:53:14Z" uid="84937" user="Neil Penman" changeset="3803946">
    <nd ref="581872954"/>
    <nd ref="581872958"/>
    <tag k="highway" v="residential"/>
    <tag k="name" v="Adrian Court"/>
    <tag k="source" v="nearmap"/>
  </way>
  <way id="45657069" version="4" timestamp="2010-07-09T03:09:43Z" uid="74617" user="JohnSmith" changeset="5170739">
    <nd ref="581872954"/>
    <nd ref="581872958"/>
    <tag k="highway" v="residential"/>
    <tag k="maxspeed" v="50"/>
    <tag k="maxspeed:source" v="default residential speed limit in Australia"/>
    <tag k="name" v="Adrian Court"/>
    <tag k="source" v="nearmap"/>
  </way>
  <way id="45657069" version="5" timestamp="2011-02-01T22:28:13Z" uid="84937" user="Neil Penman" changeset="7160197">
    <nd ref="581872954"/>
    <nd ref="581872958"/>
    <tag k="highway" v="residential"/>
    <tag k="maxspeed" v="50"/>
    <tag k="maxspeed:source" v="default residential speed limit in Australia"/>
    <tag k="name" v="Adrian Court"/>
    <tag k="source" v="survey:bing"/>
  </way>
  <way id="45657069" version="6" timestamp="2012-01-19T12:31:01Z" uid="147510" user="woodpeck_fixbot" changeset="10436041">
    <nd ref="581872954"/>
    <nd ref="581872958"/>
    <tag k="highway" v="residential"/>
    <tag k="name" v="Adrian Court"/>
    <tag k="source" v="survey:bing"/>
  </way>
  <way id="45657070" version="2" timestamp="2009-12-12T00:13:13Z" uid="4467" user="Rosscoe" changeset="3353172">
    <nd ref="269659939"/>
    <nd ref="581872963"/>
    <nd ref="581872965"/>
    <nd ref="581872967"/>
    <nd ref="581872969"/>
    <nd ref="581872971"/>
    <tag k="highway" v="residential"/>
    <tag k="source" v="nearmap"/>
  </way>
  <way id="45657070" version="3" timestamp="2010-02-06T10:53:14Z" uid="84937" user="Neil Penman" changeset="3803946">
    <nd ref="269659939"/>
    <nd ref="581872963"/>
    <nd ref="581872965"/>
    <nd ref="581872967"/>
    <nd ref="581872969"/>
    <nd ref="581872971"/>
    <tag k="highway" v="residential"/>
    <tag k="name" v="Barclay Close"/>
    <tag k="source" v="nearmap"/>
  </way>
  <way id="45657070" version="4" timestamp="2010-07-09T03:13:45Z" uid="74617" user="JohnSmith" changeset="5170739">
    <nd ref="269659939"/>
    <nd ref="581872963"/>
    <nd ref="581872965"/>
    <nd ref="581872967"/>
    <nd ref="581872969"/>
    <nd ref="581872971"/>
    <tag k="highway" v="residential"/>
    <tag k="maxspeed" v="50"/>
    <tag k="maxspeed:source" v="default residential speed limit in Australia"/>
    <tag k="name" v="Barclay Close"/>
    <tag k="source" v="nearmap"/>
  </way>
  <way id="45657070" version="5" timestamp="2011-02-01T22:28:17Z" uid="84937" user="Neil Penman" changeset="7160197">
    <nd ref="269659939"/>
    <nd ref="581872963"/>
    <nd ref="581872965"/>
    <nd ref="581872967"/>
    <nd ref="581872969"/>
    <nd ref="581872971"/>
    <tag k="highway" v="residential"/>
    <tag k="maxspeed" v="50"/>
    <tag k="maxspeed:source" v="default residential speed limit in Australia"/>
    <tag k="name" v="Barclay Close"/>
    <tag k="source" v="survey:bing"/>
  </way>
  <way id="45657070" version="6" timestamp="2012-01-19T12:31:03Z" uid="147510" user="woodpeck_fixbot" changeset="10436041">
    <nd ref="269659939"/>
    <nd ref="581872963"/>
    <nd ref="581872965"/>
    <nd ref="581872967"/>
    <nd ref="581872969"/>
    <nd ref="581872971"/>
    <tag k="highway" v="residential"/>
    <tag k="name" v="Barclay Close"/>
    <tag k="source" v="survey:bing"/>
  </way>
  <way id="45657071" version="3" timestamp="2010-07-09T03:17:39Z" uid="74617" user="JohnSmith" changeset="5170739">
    <nd ref="581872996"/>
    <nd ref="581872998"/>
    <nd ref="581873000"/>
    <nd ref="581873002"/>
    <nd ref="581873004"/>
    <tag k="highway" v="residential"/>
    <tag k="maxspeed" v="50"/>
    <tag k="maxspeed:source" v="default residential speed limit in Australia"/>
    <tag k="name" v="Kingsmere Close"/>
  </way>
  <way id="45657071" version="4" timestamp="2012-01-19T12:31:04Z" uid="147510" user="woodpeck_fixbot" changeset="10436041">
    <nd ref="581872996"/>
    <nd ref="581872998"/>
    <nd ref="581873000"/>
    <nd ref="581873002"/>
    <nd ref="581873004"/>
    <tag k="highway" v="residential"/>
    <tag k="name" v="Kingsmere Close"/>
  </way>
  <way id="45657072" version="3" timestamp="2010-07-09T03:16:26Z" uid="74617" user="JohnSmith" changeset="5170739">
    <nd ref="581873008"/>
    <nd ref="581873009"/>
    <nd ref="581873011"/>
    <nd ref="581873013"/>
    <tag k="highway" v="residential"/>
    <tag k="maxspeed" v="50"/>
    <tag k="maxspeed:source" v="default residential speed limit in Australia"/>
    <tag k="name" v="Woodleigh Place"/>
  </way>
  <way id="45657072" version="4" timestamp="2012-01-19T12:31:06Z" uid="147510" user="woodpeck_fixbot" changeset="10436041">
    <nd ref="581873008"/>
    <nd ref="581873009"/>
    <nd ref="581873011"/>
    <nd ref="581873013"/>
    <tag k="highway" v="residential"/>
    <tag k="name" v="Woodleigh Place"/>
  </way>
  <way id="45657075" version="3" timestamp="2010-07-09T03:09:39Z" uid="74617" user="JohnSmith" changeset="5170739">
    <nd ref="581873036"/>
    <nd ref="581873037"/>
    <nd ref="581873039"/>
    <nd ref="581873040"/>
    <nd ref="581873042"/>
    <nd ref="581873044"/>
    <nd ref="581873046"/>
    <tag k="highway" v="residential"/>
    <tag k="maxspeed" v="50"/>
    <tag k="maxspeed:source" v="default residential speed limit in Australia"/>
    <tag k="name" v="Inglewood Court"/>
  </way>
  <way id="45657075" version="4" timestamp="2012-01-19T12:31:07Z" uid="147510" user="woodpeck_fixbot" changeset="10436041">
    <nd ref="581873036"/>
    <nd ref="581873037"/>
    <nd ref="581873039"/>
    <nd ref="581873040"/>
    <nd ref="581873042"/>
    <nd ref="581873044"/>
    <nd ref="581873046"/>
    <tag k="highway" v="residential"/>
    <tag k="name" v="Inglewood Court"/>
  </way>
  <way id="45657076" version="2" timestamp="2009-12-12T00:13:14Z" uid="4467" user="Rosscoe" changeset="3353172">
    <nd ref="581873057"/>
    <nd ref="581873062"/>
    <nd ref="581873064"/>
    <nd ref="581873067"/>
    <tag k="highway" v="residential"/>
    <tag k="source" v="nearmap"/>
  </way>
  <way id="45657076" version="3" timestamp="2010-02-06T10:53:14Z" uid="84937" user="Neil Penman" changeset="3803946">
    <nd ref="581873057"/>
    <nd ref="581873062"/>
    <nd ref="581873064"/>
    <nd ref="581873067"/>
    <tag k="highway" v="residential"/>
    <tag k="name" v="Galway Crescent"/>
    <tag k="source" v="nearmap"/>
  </way>
  <way id="45657076" version="4" timestamp="2010-07-09T03:13:37Z" uid="74617" user="JohnSmith" changeset="5170739">
    <nd ref="581873057"/>
    <nd ref="581873062"/>
    <nd ref="581873064"/>
    <nd ref="581873067"/>
    <tag k="highway" v="residential"/>
    <tag k="maxspeed" v="50"/>
    <tag k="maxspeed:source" v="default residential speed limit in Australia"/>
    <tag k="name" v="Galway Crescent"/>
    <tag k="source" v="nearmap"/>
  </way>
  <way id="45657076" version="5" timestamp="2011-02-01T22:28:15Z" uid="84937" user="Neil Penman" changeset="7160197">
    <nd ref="581873057"/>
    <nd ref="581873062"/>
    <nd ref="581873064"/>
    <nd ref="581873067"/>
    <tag k="highway" v="residential"/>
    <tag k="maxspeed" v="50"/>
    <tag k="maxspeed:source" v="default residential speed limit in Australia"/>
    <tag k="name" v="Galway Crescent"/>
    <tag k="source" v="bing"/>
  </way>
  <way id="45657076" version="6" timestamp="2012-01-19T12:31:09Z" uid="147510" user="woodpeck_fixbot" changeset="10436041">
    <nd ref="581873057"/>
    <nd ref="581873062"/>
    <nd ref="581873064"/>
    <nd ref="581873067"/>
    <tag k="highway" v="residential"/>
    <tag k="name" v="Galway Crescent"/>
    <tag k="source" v="bing"/>
  </way>
  <way id="45657077" version="2" timestamp="2009-12-12T00:13:13Z" uid="4467" user="Rosscoe" changeset="3353172">
    <nd ref="581873073"/>
    <nd ref="581873079"/>
    <tag k="highway" v="residential"/>
    <tag k="source" v="nearmap"/>
  </way>
  <way id="45657077" version="3" timestamp="2010-02-06T10:53:14Z" uid="84937" user="Neil Penman" changeset="3803946">
    <nd ref="581873073"/>
    <nd ref="581873079"/>
    <tag k="highway" v="residential"/>
    <tag k="name" v="Booth Court"/>
    <tag k="source" v="nearmap"/>
  </way>
  <way id="45657077" version="4" timestamp="2010-07-09T03:17:33Z" uid="74617" user="JohnSmith" changeset="5170739">
    <nd ref="581873073"/>
    <nd ref="581873079"/>
    <tag k="highway" v="residential"/>
    <tag k="maxspeed" v="50"/>
    <tag k="maxspeed:source" v="default residential speed limit in Australia"/>
    <tag k="name" v="Booth Court"/>
    <tag k="source" v="nearmap"/>
  </way>
  <way id="45657077" version="5" timestamp="2011-02-01T22:28:27Z" uid="84937" user="Neil Penman" changeset="7160197">
    <nd ref="581873073"/>
    <nd ref="581873079"/>
    <tag k="highway" v="residential"/>
    <tag k="maxspeed" v="50"/>
    <tag k="maxspeed:source" v="default residential speed limit in Australia"/>
    <tag k="name" v="Booth Court"/>
    <tag k="source" v="survey:bing"/>
  </way>
  <way id="45657077" version="6" timestamp="2012-01-19T12:31:10Z" uid="147510" user="woodpeck_fixbot" changeset="10436041">
    <nd ref="581873073"/>
    <nd ref="581873079"/>
    <tag k="highway" v="residential"/>
    <tag k="name" v="Booth Court"/>
    <tag k="source" v="survey:bing"/>
  </way>
  <way id="45657078" version="2" timestamp="2009-12-12T00:13:14Z" uid="4467" user="Rosscoe" changeset="3353172">
    <nd ref="581873083"/>
    <nd ref="581873086"/>
    <nd ref="581873096"/>
    <tag k="highway" v="residential"/>
    <tag k="source" v="nearmap"/>
  </way>
  <way id="45657078" version="3" timestamp="2010-02-06T10:53:14Z" uid="84937" user="Neil Penman" changeset="3803946">
    <nd ref="581873083"/>
    <nd ref="581873086"/>
    <nd ref="581873096"/>
    <tag k="highway" v="residential"/>
    <tag k="name" v="Byfield Close"/>
    <tag k="source" v="nearmap"/>
  </way>
  <way id="45657078" version="4" timestamp="2010-07-09T03:12:01Z" uid="74617" user="JohnSmith" changeset="5170739">
    <nd ref="581873083"/>
    <nd ref="581873086"/>
    <nd ref="581873096"/>
    <tag k="highway" v="residential"/>
    <tag k="maxspeed" v="50"/>
    <tag k="maxspeed:source" v="default residential speed limit in Australia"/>
    <tag k="name" v="Byfield Close"/>
    <tag k="source" v="nearmap"/>
  </way>
  <way id="45657078" version="5" timestamp="2011-02-01T22:28:30Z" uid="84937" user="Neil Penman" changeset="7160197">
    <nd ref="581873083"/>
    <nd ref="581873086"/>
    <nd ref="1131614665"/>
    <nd ref="581873096"/>
    <tag k="highway" v="residential"/>
    <tag k="maxspeed" v="50"/>
    <tag k="maxspeed:source" v="default residential speed limit in Australia"/>
    <tag k="name" v="Byfield Close"/>
    <tag k="source" v="bing"/>
  </way>
  <way id="45657078" version="6" timestamp="2012-01-19T12:31:12Z" uid="147510" user="woodpeck_fixbot" changeset="10436041">
    <nd ref="581873083"/>
    <nd ref="581873086"/>
    <nd ref="1131614665"/>
    <nd ref="581873096"/>
    <tag k="highway" v="residential"/>
    <tag k="name" v="Byfield Close"/>
    <tag k="source" v="bing"/>
  </way>
  <way id="45657079" version="3" timestamp="2010-07-09T03:16:08Z" uid="74617" user="JohnSmith" changeset="5170739">
    <nd ref="581873104"/>
    <nd ref="581873106"/>
    <nd ref="581873107"/>
    <tag k="highway" v="residential"/>
    <tag k="maxspeed" v="50"/>
    <tag k="maxspeed:source" v="default residential speed limit in Australia"/>
    <tag k="name" v="Dalton Place"/>
  </way>
  <way id="45657079" version="4" timestamp="2012-01-19T12:31:13Z" uid="147510" user="woodpeck_fixbot" changeset="10436041">
    <nd ref="581873104"/>
    <nd ref="581873106"/>
    <nd ref="581873107"/>
    <tag k="highway" v="residential"/>
    <tag k="name" v="Dalton Place"/>
  </way>
  <way id="45657079" version="5" timestamp="2012-03-20T08:02:09Z" uid="84937" user="Neil Penman" changeset="11038580">
    <nd ref="1682909904"/>
    <nd ref="581873106"/>
    <nd ref="1682909903"/>
    <tag k="highway" v="residential"/>
    <tag k="name" v="Dalton Place"/>
  </way>
  <way id="45657080" version="3" timestamp="2010-07-09T03:10:34Z" uid="74617" user="JohnSmith" changeset="5170739">
    <nd ref="581873113"/>
    <nd ref="581873116"/>
    <nd ref="581873120"/>
    <tag k="highway" v="residential"/>
    <tag k="maxspeed" v="50"/>
    <tag k="maxspeed:source" v="default residential speed limit in Australia"/>
    <tag k="name" v="Forest Court"/>
  </way>
  <way id="45657080" version="4" timestamp="2012-01-19T12:31:16Z" uid="147510" user="woodpeck_fixbot" changeset="10436041">
    <nd ref="581873113"/>
    <nd ref="581873116"/>
    <nd ref="581873120"/>
    <tag k="highway" v="residential"/>
    <tag k="name" v="Forest Court"/>
  </way>
  <way id="45657081" version="2" timestamp="2009-12-12T00:47:49Z" uid="4467" user="Rosscoe" changeset="3353268">
    <nd ref="581873178"/>
    <nd ref="581873182"/>
    <nd ref="581873185"/>
    <nd ref="581873187"/>
    <tag k="highway" v="residential"/>
    <tag k="source" v="nearmap"/>
  </way>
  <way id="45657081" version="3" timestamp="2010-02-06T10:53:10Z" uid="84937" user="Neil Penman" changeset="3803946">
    <nd ref="581873178"/>
    <nd ref="581873182"/>
    <nd ref="581873185"/>
    <nd ref="581873187"/>
    <tag k="highway" v="residential"/>
    <tag k="name" v="Chisholm Close"/>
    <tag k="source" v="nearmap"/>
  </way>
  <way id="45657081" version="4" timestamp="2010-07-09T03:14:44Z" uid="74617" user="JohnSmith" changeset="5170739">
    <nd ref="581873178"/>
    <nd ref="581873182"/>
    <nd ref="581873185"/>
    <nd ref="581873187"/>
    <tag k="highway" v="residential"/>
    <tag k="maxspeed" v="50"/>
    <tag k="maxspeed:source" v="default residential speed limit in Australia"/>
    <tag k="name" v="Chisholm Close"/>
    <tag k="source" v="nearmap"/>
  </way>
  <way id="45657081" version="5" timestamp="2011-02-01T22:28:01Z" uid="84937" user="Neil Penman" changeset="7160197">
    <nd ref="581873178"/>
    <nd ref="581873182"/>
    <nd ref="581873185"/>
    <nd ref="581873187"/>
    <tag k="highway" v="residential"/>
    <tag k="maxspeed" v="50"/>
    <tag k="maxspeed:source" v="default residential speed limit in Australia"/>
    <tag k="name" v="Chisholm Close"/>
    <tag k="source" v="bing"/>
  </way>
  <way id="45657081" version="6" timestamp="2012-01-19T12:31:18Z" uid="147510" user="woodpeck_fixbot" changeset="10436041">
    <nd ref="581873178"/>
    <nd ref="581873182"/>
    <nd ref="581873185"/>
    <nd ref="581873187"/>
    <tag k="highway" v="residential"/>
    <tag k="name" v="Chisholm Close"/>
    <tag k="source" v="bing"/>
  </way>
  <way id="45657081" version="7" timestamp="2012-03-20T08:02:08Z" uid="84937" user="Neil Penman" changeset="11038580">
    <nd ref="1682909895"/>
    <nd ref="581873182"/>
    <nd ref="581873185"/>
    <nd ref="581873187"/>
    <tag k="highway" v="residential"/>
    <tag k="name" v="Chisholm Close"/>
    <tag k="source" v="bing"/>
  </way>
  <way id="45657082" version="2" timestamp="2009-12-12T00:47:53Z" uid="4467" user="Rosscoe" changeset="3353268">
    <nd ref="581873193"/>
    <nd ref="581873196"/>
    <nd ref="581873197"/>
    <nd ref="581873212"/>
    <tag k="highway" v="residential"/>
    <tag k="source" v="nearmap"/>
  </way>
  <way id="45657082" version="3" timestamp="2010-02-06T10:53:12Z" uid="84937" user="Neil Penman" changeset="3803946">
    <nd ref="581873193"/>
    <nd ref="581873196"/>
    <nd ref="581873197"/>
    <nd ref="581873212"/>
    <tag k="highway" v="residential"/>
    <tag k="name" v="Trollaby Close"/>
    <tag k="source" v="nearmap"/>
  </way>
  <way id="45657082" version="4" timestamp="2010-07-09T03:09:20Z" uid="74617" user="JohnSmith" changeset="5170739">
    <nd ref="581873193"/>
    <nd ref="581873196"/>
    <nd ref="581873197"/>
    <nd ref="581873212"/>
    <tag k="highway" v="residential"/>
    <tag k="maxspeed" v="50"/>
    <tag k="maxspeed:source" v="default residential speed limit in Australia"/>
    <tag k="name" v="Trollaby Close"/>
    <tag k="source" v="nearmap"/>
  </way>
  <way id="45657082" version="5" timestamp="2011-02-01T22:28:06Z" uid="84937" user="Neil Penman" changeset="7160197">
    <nd ref="581873193"/>
    <nd ref="581873196"/>
    <nd ref="581873197"/>
    <nd ref="581873212"/>
    <tag k="highway" v="residential"/>
    <tag k="maxspeed" v="50"/>
    <tag k="maxspeed:source" v="default residential speed limit in Australia"/>
    <tag k="name" v="Trollaby Close"/>
    <tag k="source" v="bing"/>
  </way>
  <way id="45657082" version="6" timestamp="2012-01-19T12:31:20Z" uid="147510" user="woodpeck_fixbot" changeset="10436041">
    <nd ref="581873193"/>
    <nd ref="581873196"/>
    <nd ref="581873197"/>
    <nd ref="581873212"/>
    <tag k="highway" v="residential"/>
    <tag k="name" v="Trollaby Close"/>
    <tag k="source" v="bing"/>
  </way>
  <way id="45657083" version="3" timestamp="2010-07-09T03:13:13Z" uid="74617" user="JohnSmith" changeset="5170739">
    <nd ref="581873224"/>
    <nd ref="581873226"/>
    <nd ref="581873228"/>
    <tag k="highway" v="residential"/>
    <tag k="maxspeed" v="50"/>
    <tag k="maxspeed:source" v="default residential speed limit in Australia"/>
    <tag k="name" v="Mooar Court"/>
  </way>
  <way id="45657083" version="4" timestamp="2012-01-19T12:31:22Z" uid="147510" user="woodpeck_fixbot" changeset="10436041">
    <nd ref="581873224"/>
    <nd ref="581873226"/>
    <nd ref="581873228"/>
    <tag k="highway" v="residential"/>
    <tag k="name" v="Mooar Court"/>
  </way>
  <way id="45657083" version="5" timestamp="2012-03-20T08:02:13Z" uid="84937" user="Neil Penman" changeset="11038580">
    <nd ref="1682909902"/>
    <nd ref="581873226"/>
    <nd ref="1682909901"/>
    <tag k="highway" v="residential"/>
    <tag k="name" v="Mooar Court"/>
  </way>
  <way id="45657023" version="8" timestamp="2012-07-19T10:35:12Z" uid="722137" user="OSMF Redaction Account" changeset="12318878">
    <nd ref="581872479"/>
    <nd ref="880271866"/>
    <nd ref="880271868"/>
    <nd ref="880271870"/>
    <nd ref="581872481"/>
    <nd ref="880271874"/>
    <nd ref="581872482"/>
    <nd ref="880271877"/>
    <nd ref="880271880"/>
    <nd ref="581872484"/>
    <tag k="highway" v="residential"/>
    <tag k="name" v="Mickleham Road Service Road"/>
    <tag k="source:maxspeed" v="default residential speed limit in Australia"/>
  </way>
</osm>
