<?xml version='1.0' encoding='UTF-8'?>
<osm version="0.6" generator="libosmium/2.20.0">
  <way id="45663610" version="2" timestamp="2010-03-01T11:54:35Z" uid="7617" user="Franc" changeset="4007908">
    <nd ref="36812345"/>
    <nd ref="251132480"/>
    <nd ref="658064080"/>
    <nd ref="21703322"/>
    <nd ref="159608224"/>
    <nd ref="658064077"/>
    <nd ref="297397282"/>
    <tag k="highway" v="primary"/>
    <tag k="layer" v="1"/>
    <tag k="name" v="Victoria Road"/>
    <tag k="oneway" v="yes"/>
    <tag k="source" v="yahoo"/>
  </way>
  <way id="45663633" version="4" timestamp="2010-11-13T12:02:28Z" uid="30632" user="antblant" changeset="6357650">
    <nd ref="584453604"/>
    <nd ref="581912850"/>
    <nd ref="581912778"/>
    <nd ref="581912780"/>
    <nd ref="581912765"/>
    <nd ref="581912743"/>
    <nd ref="581912728"/>
    <tag k="highway" v="primary"/>
    <tag k="oneway" v="yes"/>
    <tag k="ref" v="4"/>
  </way>
  <way id="45663634" version="4" timestamp="2010-11-13T12:02:28Z" uid="30632" user="antblant" changeset="6357650">
    <nd ref="581912728"/>
    <nd ref="581912719"/>
    <nd ref="581912764"/>
    <nd ref="581912774"/>
    <nd ref="581912779"/>
    <nd ref="581912782"/>
    <nd ref="581912851"/>
    <nd ref="584453606"/>
    <tag k="highway" v="primary"/>
    <tag k="oneway" v="yes"/>
    <tag k="ref" v="4"/>
  </way>
  <way id="45663842" version="2" timestamp="2010-03-28T11:29:56Z" uid="20587" user="balrog-kun" changeset="4254597">
    <nd ref="581916602"/>
    <nd ref="122562720"/>
    <tag k="highway" v="residential"/>
    <tag k="name" v="South Cerritos Avenue"/>
    <tag k="tiger:cfcc" v="A41"/>
    <tag k="tiger:county" v="Los Angeles, CA"/>
    <tag k="tiger:name_base" v="Cerritos"/>
    <tag k="tiger:name_direction_prefix" v="S"/>
    <tag k="tiger:name_type" v="Ave"/>
    <tag k="tiger:reviewed" v="no"/>
    <tag k="tiger:separated" v="no"/>
    <tag k="tiger:source" v="tiger_import_dch_v0.6_20070809"/>
    <tag k="tiger:tlid" v="141709625:141709619:141709623:141709583:141769787:141769789:141769791:141769793"/>
    <tag k="tiger:zip_left" v="91702"/>
    <tag k="tiger:zip_right" v="91702"/>
  </way>
  <way id="45663843" version="3" timestamp="2010-03-28T11:29:56Z" uid="20587" user="balrog-kun" changeset="4254597">
    <nd ref="123689555"/>
    <nd ref="581916602"/>
    <tag k="bridge" v="yes"/>
    <tag k="bridge_name" v="Cerritos Ave OC"/>
    <tag k="bridge_ref" v="210/LA/53-2023"/>
    <tag k="highway" v="residential"/>
    <tag k="is_in:state_code" v="CA"/>
    <tag k="layer" v="1"/>
    <tag k="milepost:county" v="R40.07"/>
    <tag k="name" v="South Cerritos Avenue"/>
    <tag k="source:bridge" v="survey;image;usgs_imagery;CDOT"/>
    <tag k="source_ref:bridge" v="AM909_DSCS9730"/>
    <tag k="tiger:cfcc" v="A41"/>
    <tag k="tiger:county" v="Los Angeles, CA"/>
    <tag k="tiger:name_base" v="Cerritos"/>
    <tag k="tiger:name_direction_prefix" v="S"/>
    <tag k="tiger:name_type" v="Ave"/>
    <tag k="tiger:separated" v="no"/>
    <tag k="tiger:source" v="tiger_import_dch_v0.6_20070809"/>
    <tag k="tiger:tlid" v="141709625:141709619:141709623:141709583:141769787:141769789:141769791:141769793"/>
    <tag k="tiger:zip_left" v="91702"/>
    <tag k="tiger:zip_right" v="91702"/>
  </way>
  <way id="45663610" version="3" timestamp="2012-04-07T06:33:17Z" uid="54784" user="Tom Hollander" changeset="11209838">
    <nd ref="36812345"/>
    <nd ref="251132480"/>
    <nd ref="658064080"/>
    <nd ref="21703322"/>
    <nd ref="159608224"/>
    <nd ref="658064077"/>
    <nd ref="297397282"/>
    <tag k="highway" v="primary"/>
    <tag k="layer" v="1"/>
    <tag k="name" v="Victoria Road"/>
    <tag k="oneway" v="yes"/>
    <tag k="ref" v="40"/>
    <tag k="source" v="yahoo"/>
  </way>
  <way id="45663610" version="4" timestamp="2012-04-14T16:48:41Z" uid="659347" user="Myfakename" changeset="11301032">
    <nd ref="36812345"/>
    <nd ref="251132480"/>
    <nd ref="658064080"/>
    <nd ref="21703322"/>
    <nd ref="159608224"/>
    <nd ref="658064077"/>
    <nd ref="297397282"/>
    <tag k="highway" v="primary"/>
    <tag k="layer" v="1"/>
    <tag k="maxspeed" v="60"/>
    <tag k="name" v="Victoria Road"/>
    <tag k="oneway" v="yes"/>
    <tag k="ref" v="40"/>
    <tag k="source" v="yahoo"/>
  </way>
  <way id="45663610" version="5" timestamp="2012-04-15T09:08:25Z" uid="659347" user="Myfakename" changeset="11307508">
    <nd ref="36812345"/>
    <nd ref="251132480"/>
    <nd ref="658064080"/>
    <nd ref="21703322"/>
    <nd ref="159608224"/>
    <nd ref="658064077"/>
    <nd ref="297397282"/>
    <tag k="highway" v="primary"/>
    <tag k="lanes" v="2"/>
    <tag k="layer" v="1"/>
    <tag k="maxspeed" v="60"/>
    <tag k="name" v="Victoria Road"/>
    <tag k="oneway" v="yes"/>
    <tag k="ref" v="40"/>
    <tag k="source" v="yahoo"/>
  </way>
  <way id="45663610" version="6" timestamp="2012-05-24T00:03:42Z" uid="7523" user="inas" changeset="11685833">
    <nd ref="36812345"/>
    <nd ref="251132480"/>
    <nd ref="658064080"/>
    <nd ref="21703322"/>
    <nd ref="159608224"/>
    <tag k="highway" v="primary"/>
    <tag k="lanes" v="2"/>
    <tag k="layer" v="1"/>
    <tag k="maxspeed" v="60"/>
    <tag k="name" v="Victoria Road"/>
    <tag k="oneway" v="yes"/>
    <tag k="ref" v="40"/>
    <tag k="source" v="yahoo"/>
  </way>
  <way id="45663610" version="7" timestamp="2012-05-25T22:08:34Z" uid="7523" user="inas" changeset="11702474">
    <nd ref="36812345"/>
    <nd ref="251132480"/>
    <nd ref="658064080"/>
    <nd ref="1765625939"/>
    <nd ref="159608224"/>
    <tag k="highway" v="primary"/>
    <tag k="lanes" v="2"/>
    <tag k="layer" v="1"/>
    <tag k="maxspeed" v="60"/>
    <tag k="name" v="Victoria Road"/>
    <tag k="oneway" v="yes"/>
    <tag k="ref" v="40"/>
    <tag k="source" v="yahoo"/>
  </way>
  <way id="45663610" version="8" timestamp="2012-05-25T22:17:06Z" uid="7523" user="inas" changeset="11702518">
    <nd ref="36812345"/>
    <nd ref="1765629437"/>
    <nd ref="658064080"/>
    <nd ref="1765625939"/>
    <nd ref="159608224"/>
    <tag k="highway" v="primary"/>
    <tag k="lanes" v="2"/>
    <tag k="layer" v="1"/>
    <tag k="maxspeed" v="60"/>
    <tag k="name" v="Victoria Road"/>
    <tag k="oneway" v="yes"/>
    <tag k="ref" v="40"/>
    <tag k="source" v="yahoo"/>
  </way>
  <way id="45663610" version="9" timestamp="2012-07-20T07:11:59Z" uid="722137" user="OSMF Redaction Account" changeset="12365528">
    <nd ref="36812345"/>
    <nd ref="1765629437"/>
    <nd ref="1765625939"/>
    <nd ref="159608224"/>
    <tag k="highway" v="primary"/>
    <tag k="lanes" v="2"/>
    <tag k="layer" v="1"/>
    <tag k="maxspeed" v="60"/>
    <tag k="name" v="Victoria Road"/>
    <tag k="oneway" v="yes"/>
    <tag k="ref" v="40"/>
    <tag k="source" v="yahoo"/>
  </way>
  <way id="45663633" version="5" timestamp="2012-07-25T04:26:33Z" uid="722137" user="OSMF Redaction Account" changeset="12480675">
    <nd ref="584453604"/>
    <nd ref="581912850"/>
    <nd ref="581912778"/>
    <nd ref="581912765"/>
    <nd ref="581912743"/>
    <nd ref="581912728"/>
    <tag k="highway" v="primary"/>
    <tag k="oneway" v="yes"/>
    <tag k="ref" v="4"/>
  </way>
  <way id="45663634" version="5" timestamp="2012-07-25T18:29:53Z" uid="335496" user="NightRaven76" changeset="12490192">
    <nd ref="581912728"/>
    <nd ref="581912719"/>
    <nd ref="581912764"/>
    <nd ref="581912774"/>
    <nd ref="581912782"/>
    <nd ref="581912851"/>
    <nd ref="584453606"/>
    <tag k="highway" v="primary"/>
    <tag k="oneway" v="yes"/>
    <tag k="ref" v="4"/>
  </way>
</osm>
