<?xml version='1.0' encoding='UTF-8'?>
<osm version="0.6" generator="libosmium/2.20.0">
  <way id="45755149" version="2" timestamp="2010-07-25T22:26:40Z" uid="4467" user="Rosscoe" changeset="5317245">
    <nd ref="98301268"/>
    <nd ref="98301269"/>
    <tag k="bridge" v="yes"/>
    <tag k="highway" v="unclassified"/>
    <tag k="layer" v="1"/>
    <tag k="name" v="Little River Road"/>
    <tag k="surface" v="unpaved"/>
  </way>
  <way id="45755635" version="2" timestamp="2010-04-07T14:07:50Z" uid="20587" user="balrog-kun" changeset="4353646">
    <nd ref="582742917"/>
    <nd ref="582742916"/>
    <nd ref="151863043"/>
    <tag k="highway" v="residential"/>
    <tag k="name" v="Wharton Road"/>
    <tag k="name_base" v="Wharton"/>
    <tag k="name_type" v="Road"/>
  </way>
  <way id="45755149" version="3" timestamp="2012-07-19T17:22:42Z" uid="722137" user="OSMF Redaction Account" changeset="12341633">
    <nd ref="98301268"/>
    <nd ref="98301269"/>
    <tag k="bridge" v="yes"/>
    <tag k="highway" v="unclassified"/>
    <tag k="name" v="Little River Road"/>
    <tag k="surface" v="unpaved"/>
  </way>
</osm>
