<?xml version='1.0' encoding='UTF-8'?>
<osm version="0.6" generator="libosmium/2.20.0">
  <way id="45825012" version="1" timestamp="2009-12-08T14:32:00Z" uid="20587" user="balrog-kun" changeset="3325173">
    <nd ref="577000982"/>
    <nd ref="528523350"/>
    <nd ref="528523357"/>
    <nd ref="528523349"/>
    <nd ref="528523356"/>
    <nd ref="528523362"/>
    <nd ref="528523364"/>
    <nd ref="528523359"/>
    <nd ref="529893843"/>
    <nd ref="529893844"/>
    <nd ref="528523358"/>
    <nd ref="529893842"/>
    <nd ref="529893841"/>
    <nd ref="583278959"/>
    <nd ref="577001031"/>
    <tag k="admin_level" v="8"/>
    <tag k="boundary" v="administrative"/>
  </way>
  <way id="45825636" version="5" timestamp="2010-04-03T12:48:56Z" uid="20587" user="balrog-kun" changeset="4312260">
    <nd ref="583283272"/>
    <nd ref="583615145"/>
    <nd ref="583615148"/>
    <nd ref="583283335"/>
    <nd ref="583283339"/>
    <nd ref="583283343"/>
    <nd ref="583283345"/>
    <nd ref="583283347"/>
    <nd ref="583283349"/>
    <nd ref="583283353"/>
    <nd ref="583283358"/>
    <nd ref="583283364"/>
    <nd ref="583283369"/>
    <nd ref="583283374"/>
    <nd ref="683185754"/>
    <nd ref="583614116"/>
    <nd ref="583613709"/>
    <nd ref="583614121"/>
    <nd ref="583614124"/>
    <nd ref="583283377"/>
    <nd ref="583613508"/>
    <nd ref="583283381"/>
    <nd ref="583283384"/>
    <nd ref="583283386"/>
    <nd ref="583613515"/>
    <nd ref="583283388"/>
    <nd ref="583613519"/>
    <nd ref="583283391"/>
    <nd ref="457061655"/>
    <tag k="highway" v="secondary"/>
  </way>
  <way id="45825636" version="6" timestamp="2011-06-05T22:11:17Z" uid="163896" user="Zbigniew Czernik" changeset="8355044"/>
  <way id="45825639" version="2" timestamp="2010-09-28T07:43:32Z" uid="49111" user="Markus B" changeset="5901313">
    <nd ref="928919793"/>
    <nd ref="928919786"/>
    <nd ref="583283571"/>
    <nd ref="583283572"/>
    <nd ref="928919793"/>
    <tag k="addr:city" v="Lauf a.d. Pegnitz"/>
    <tag k="addr:country" v="DE"/>
    <tag k="addr:housenumber" v="40"/>
    <tag k="addr:postcode" v="91207"/>
    <tag k="addr:street" v="Altdorfer Straße"/>
    <tag k="amenity" v="restaurant"/>
    <tag k="building" v="yes"/>
    <tag k="cuisine" v="greek"/>
    <tag k="email" v="info@apollon-lauf.de"/>
    <tag k="fax" v="+49 9123 990174 "/>
    <tag k="internet_access" v="wlan"/>
    <tag k="internet_access:fee" v="no"/>
    <tag k="name" v="Apollon"/>
    <tag k="opening_hours" v="Mo-So 11:00-14:30;Mo-So 17:00-24:00"/>
    <tag k="phone" v="+49 9123 13745 "/>
    <tag k="smoking" v="no"/>
    <tag k="source" v="Luftbilder Stadt Lauf"/>
    <tag k="website" v="http://apollon-lauf.de/"/>
  </way>
  <way id="45825639" version="3" timestamp="2010-09-28T19:36:42Z" uid="70696" user="xybot" changeset="5906559">
    <nd ref="928919793"/>
    <nd ref="928919786"/>
    <nd ref="583283571"/>
    <nd ref="583283572"/>
    <nd ref="928919793"/>
    <tag k="addr:city" v="Lauf a.d. Pegnitz"/>
    <tag k="addr:country" v="DE"/>
    <tag k="addr:housenumber" v="40"/>
    <tag k="addr:postcode" v="91207"/>
    <tag k="addr:street" v="Altdorfer Straße"/>
    <tag k="amenity" v="restaurant"/>
    <tag k="building" v="yes"/>
    <tag k="cuisine" v="greek"/>
    <tag k="email" v="info@apollon-lauf.de"/>
    <tag k="fax" v="+49 9123 990174"/>
    <tag k="internet_access" v="wlan"/>
    <tag k="internet_access:fee" v="no"/>
    <tag k="name" v="Apollon"/>
    <tag k="opening_hours" v="Mo-So 11:00-14:30;Mo-So 17:00-24:00"/>
    <tag k="phone" v="+49 9123 13745"/>
    <tag k="smoking" v="no"/>
    <tag k="source" v="Luftbilder Stadt Lauf"/>
    <tag k="website" v="http://apollon-lauf.de/"/>
  </way>
  <way id="45825639" version="4" timestamp="2010-11-02T18:25:56Z" uid="202858" user="kellerma" changeset="6270074">
    <nd ref="928919793"/>
    <nd ref="928919786"/>
    <nd ref="583283571"/>
    <nd ref="583283572"/>
    <nd ref="928919793"/>
    <tag k="addr:city" v="Lauf a.d.Pegnitz"/>
    <tag k="addr:country" v="DE"/>
    <tag k="addr:housenumber" v="40"/>
    <tag k="addr:postcode" v="91207"/>
    <tag k="addr:street" v="Altdorfer Straße"/>
    <tag k="amenity" v="restaurant"/>
    <tag k="building" v="yes"/>
    <tag k="cuisine" v="greek"/>
    <tag k="email" v="info@apollon-lauf.de"/>
    <tag k="fax" v="+49 9123 990174"/>
    <tag k="internet_access" v="wlan"/>
    <tag k="internet_access:fee" v="no"/>
    <tag k="name" v="Apollon"/>
    <tag k="opening_hours" v="Mo-So 11:00-14:30;Mo-So 17:00-24:00"/>
    <tag k="phone" v="+49 9123 13745"/>
    <tag k="smoking" v="no"/>
    <tag k="source" v="Luftbilder Stadt Lauf"/>
    <tag k="website" v="http://apollon-lauf.de/"/>
  </way>
  <way id="45825639" version="5" timestamp="2011-03-11T20:42:24Z" uid="89943" user="Bengatzer" changeset="7527334">
    <nd ref="928919793"/>
    <nd ref="928919786"/>
    <nd ref="583283571"/>
    <nd ref="583283572"/>
    <nd ref="928919793"/>
    <tag k="addr:city" v="Lauf a.d.Pegnitz"/>
    <tag k="addr:country" v="DE"/>
    <tag k="addr:housenumber" v="40"/>
    <tag k="addr:postcode" v="91207"/>
    <tag k="addr:street" v="Altdorfer Straße"/>
    <tag k="amenity" v="restaurant"/>
    <tag k="building" v="yes"/>
    <tag k="cuisine" v="greek"/>
    <tag k="email" v="info@apollon-lauf.de"/>
    <tag k="fax" v="+49 9123 990174"/>
    <tag k="internet_access" v="wlan"/>
    <tag k="internet_access:fee" v="no"/>
    <tag k="name" v="Apollon"/>
    <tag k="opening_hours" v="Mo-Su 11:00-14:30, 17:00-24:00"/>
    <tag k="phone" v="+49 9123 13745"/>
    <tag k="smoking" v="no"/>
    <tag k="source" v="Luftbilder Stadt Lauf"/>
    <tag k="website" v="http://apollon-lauf.de/"/>
  </way>
</osm>
