<?xml version='1.0' encoding='UTF-8'?>
<osm version="0.6" generator="libosmium/2.20.0">
  <way id="45820376" version="2" timestamp="2010-01-12T05:05:09Z" uid="30201" user="rrankin" changeset="3600899">
    <nd ref="294233353"/>
    <nd ref="294233351"/>
    <nd ref="294233283"/>
    <nd ref="294232784"/>
    <nd ref="294232571"/>
    <nd ref="294233526"/>
    <nd ref="288797780"/>
    <nd ref="288795048"/>
    <nd ref="288794516"/>
    <nd ref="288794392"/>
    <nd ref="288794113"/>
    <nd ref="288794832"/>
    <nd ref="288794763"/>
    <nd ref="288794764"/>
    <nd ref="612012951"/>
    <nd ref="288794765"/>
    <nd ref="288794161"/>
    <nd ref="288794766"/>
    <nd ref="288794767"/>
    <nd ref="288794785"/>
    <nd ref="288795050"/>
    <nd ref="288794787"/>
    <nd ref="288797783"/>
    <nd ref="288794789"/>
    <nd ref="288794773"/>
    <tag k="highway" v="residential"/>
    <tag k="name" v="Townson Avenue"/>
    <tag k="source" v="yahoo_imagery"/>
  </way>
  <way id="45820376" version="3" timestamp="2010-02-04T15:46:57Z" uid="1679" user="andrewpmk" changeset="3791149">
    <nd ref="294233353"/>
    <nd ref="294233351"/>
    <nd ref="294233283"/>
    <nd ref="294232784"/>
    <nd ref="294232571"/>
    <nd ref="294233526"/>
    <tag k="highway" v="residential"/>
    <tag k="name" v="Townson Avenue"/>
    <tag k="source" v="yahoo_imagery"/>
  </way>
  <way id="45820376" version="4" timestamp="2010-04-30T00:49:27Z" uid="4467" user="Rosscoe" changeset="4562651">
    <nd ref="294233353"/>
    <nd ref="294233351"/>
    <nd ref="294233283"/>
    <nd ref="294232784"/>
    <nd ref="294232571"/>
    <nd ref="712786853"/>
    <tag k="highway" v="residential"/>
    <tag k="name" v="Townson Avenue"/>
    <tag k="source" v="yahoo_imagery"/>
  </way>
  <way id="45820376" version="5" timestamp="2010-07-07T20:32:14Z" uid="74617" user="JohnSmith" changeset="5161069">
    <nd ref="294233353"/>
    <nd ref="294233351"/>
    <nd ref="294233283"/>
    <nd ref="294232784"/>
    <nd ref="294232571"/>
    <nd ref="712786853"/>
    <tag k="highway" v="residential"/>
    <tag k="maxspeed" v="50"/>
    <tag k="maxspeed:source" v="default residential speed limit in Australia"/>
    <tag k="name" v="Townson Avenue"/>
    <tag k="source" v="yahoo_imagery"/>
  </way>
  <way id="45820376" version="6" timestamp="2012-01-19T13:08:00Z" uid="147510" user="woodpeck_fixbot" changeset="10436041">
    <nd ref="294233353"/>
    <nd ref="294233351"/>
    <nd ref="294233283"/>
    <nd ref="294232784"/>
    <nd ref="294232571"/>
    <nd ref="712786853"/>
    <tag k="highway" v="residential"/>
    <tag k="name" v="Townson Avenue"/>
    <tag k="source" v="yahoo_imagery"/>
  </way>
  <way id="45820377" version="3" timestamp="2010-07-07T20:37:00Z" uid="74617" user="JohnSmith" changeset="5161069">
    <nd ref="477307824"/>
    <nd ref="294233358"/>
    <nd ref="294233355"/>
    <nd ref="696697281"/>
    <nd ref="294233289"/>
    <tag k="highway" v="residential"/>
    <tag k="maxspeed" v="50"/>
    <tag k="maxspeed:source" v="default residential speed limit in Australia"/>
    <tag k="name" v="Narrabeen Road"/>
    <tag k="source" v="yahoo_imagery"/>
  </way>
  <way id="45820377" version="4" timestamp="2012-01-19T13:08:02Z" uid="147510" user="woodpeck_fixbot" changeset="10436041">
    <nd ref="477307824"/>
    <nd ref="294233358"/>
    <nd ref="294233355"/>
    <nd ref="696697281"/>
    <nd ref="294233289"/>
    <tag k="highway" v="residential"/>
    <tag k="name" v="Narrabeen Road"/>
    <tag k="source" v="yahoo_imagery"/>
  </way>
  <way id="45820378" version="2" timestamp="2010-07-07T20:30:42Z" uid="74617" user="JohnSmith" changeset="5161069">
    <nd ref="294233289"/>
    <nd ref="294233353"/>
    <tag k="highway" v="residential"/>
    <tag k="maxspeed" v="50"/>
    <tag k="maxspeed:source" v="default residential speed limit in Australia"/>
    <tag k="name" v="TThirlmere Place"/>
    <tag k="source" v="yahoo_imagery"/>
  </way>
  <way id="45820378" version="3" timestamp="2012-01-19T13:08:10Z" uid="147510" user="woodpeck_fixbot" changeset="10436041">
    <nd ref="294233289"/>
    <nd ref="294233353"/>
    <tag k="highway" v="residential"/>
    <tag k="name" v="TThirlmere Place"/>
    <tag k="source" v="yahoo_imagery"/>
  </way>
  <way id="45820381" version="2" timestamp="2010-05-22T14:02:24Z" uid="7617" user="Franc" changeset="4774647">
    <nd ref="294234974"/>
    <nd ref="294234975"/>
    <nd ref="294234976"/>
    <nd ref="294234977"/>
    <nd ref="294234978"/>
    <nd ref="294234980"/>
    <nd ref="745493659"/>
    <nd ref="294234981"/>
    <nd ref="294234982"/>
    <nd ref="745493625"/>
    <tag k="highway" v="residential"/>
    <tag k="name" v="Leicester Street"/>
    <tag k="source" v="yahoo_imagery"/>
  </way>
  <way id="45820381" version="3" timestamp="2010-07-07T20:31:08Z" uid="74617" user="JohnSmith" changeset="5161069">
    <nd ref="294234974"/>
    <nd ref="294234975"/>
    <nd ref="294234976"/>
    <nd ref="294234977"/>
    <nd ref="294234978"/>
    <nd ref="294234980"/>
    <nd ref="745493659"/>
    <nd ref="294234981"/>
    <nd ref="294234982"/>
    <nd ref="745493625"/>
    <tag k="highway" v="residential"/>
    <tag k="maxspeed" v="50"/>
    <tag k="maxspeed:source" v="default residential speed limit in Australia"/>
    <tag k="name" v="Leicester Street"/>
    <tag k="source" v="yahoo_imagery"/>
  </way>
  <way id="45820381" version="4" timestamp="2012-01-19T13:08:24Z" uid="147510" user="woodpeck_fixbot" changeset="10436041">
    <nd ref="294234974"/>
    <nd ref="294234975"/>
    <nd ref="294234976"/>
    <nd ref="294234977"/>
    <nd ref="294234978"/>
    <nd ref="294234980"/>
    <nd ref="745493659"/>
    <nd ref="294234981"/>
    <nd ref="294234982"/>
    <nd ref="745493625"/>
    <tag k="highway" v="residential"/>
    <tag k="name" v="Leicester Street"/>
    <tag k="source" v="yahoo_imagery"/>
  </way>
  <way id="45820382" version="3" timestamp="2010-07-07T20:33:42Z" uid="74617" user="JohnSmith" changeset="5161069">
    <nd ref="294235845"/>
    <nd ref="696697005"/>
    <nd ref="294235253"/>
    <nd ref="294235617"/>
    <tag k="highway" v="residential"/>
    <tag k="maxspeed" v="50"/>
    <tag k="maxspeed:source" v="default residential speed limit in Australia"/>
    <tag k="name" v="Brewster Place"/>
    <tag k="source" v="yahoo_imagery"/>
  </way>
  <way id="45820382" version="4" timestamp="2012-01-19T13:08:35Z" uid="147510" user="woodpeck_fixbot" changeset="10436041">
    <nd ref="294235845"/>
    <nd ref="696697005"/>
    <nd ref="294235253"/>
    <nd ref="294235617"/>
    <tag k="highway" v="residential"/>
    <tag k="name" v="Brewster Place"/>
    <tag k="source" v="yahoo_imagery"/>
  </way>
  <way id="45820386" version="2" timestamp="2010-07-07T20:29:56Z" uid="74617" user="JohnSmith" changeset="5161069">
    <nd ref="294236989"/>
    <nd ref="294236990"/>
    <nd ref="294236949"/>
    <nd ref="294236992"/>
    <nd ref="294236987"/>
    <nd ref="294236951"/>
    <nd ref="294236952"/>
    <nd ref="294236953"/>
    <nd ref="294236945"/>
    <tag k="highway" v="residential"/>
    <tag k="maxspeed" v="50"/>
    <tag k="maxspeed:source" v="default residential speed limit in Australia"/>
    <tag k="name" v="Illawarra Road"/>
    <tag k="source" v="yahoo_imagery"/>
  </way>
  <way id="45820386" version="3" timestamp="2012-01-19T13:08:38Z" uid="147510" user="woodpeck_fixbot" changeset="10436041">
    <nd ref="294236989"/>
    <nd ref="294236990"/>
    <nd ref="294236949"/>
    <nd ref="294236992"/>
    <nd ref="294236987"/>
    <nd ref="294236951"/>
    <nd ref="294236952"/>
    <nd ref="294236953"/>
    <nd ref="294236945"/>
    <tag k="highway" v="residential"/>
    <tag k="name" v="Illawarra Road"/>
    <tag k="source" v="yahoo_imagery"/>
  </way>
  <way id="45820388" version="2" timestamp="2010-01-12T05:05:25Z" uid="30201" user="rrankin" changeset="3600899"/>
  <way id="45820389" version="2" timestamp="2010-07-07T20:30:22Z" uid="74617" user="JohnSmith" changeset="5161069">
    <nd ref="294235924"/>
    <nd ref="294235925"/>
    <nd ref="294235926"/>
    <nd ref="294234987"/>
    <tag k="highway" v="residential"/>
    <tag k="maxspeed" v="50"/>
    <tag k="maxspeed:source" v="default residential speed limit in Australia"/>
    <tag k="name" v="Burrinjuck Street"/>
    <tag k="source" v="yahoo_imagery"/>
  </way>
  <way id="45820389" version="3" timestamp="2011-03-28T11:57:12Z" uid="7617" user="Franc" changeset="7695884">
    <nd ref="294235924"/>
    <nd ref="294235925"/>
    <nd ref="294235926"/>
    <nd ref="1223066534"/>
    <nd ref="294234987"/>
    <tag k="highway" v="residential"/>
    <tag k="maxspeed" v="50"/>
    <tag k="maxspeed:source" v="default residential speed limit in Australia"/>
    <tag k="name" v="Burrinjuck Street"/>
    <tag k="source" v="yahoo_imagery"/>
  </way>
  <way id="45820389" version="4" timestamp="2012-01-19T13:08:43Z" uid="147510" user="woodpeck_fixbot" changeset="10436041">
    <nd ref="294235924"/>
    <nd ref="294235925"/>
    <nd ref="294235926"/>
    <nd ref="1223066534"/>
    <nd ref="294234987"/>
    <tag k="highway" v="residential"/>
    <tag k="name" v="Burrinjuck Street"/>
    <tag k="source" v="yahoo_imagery"/>
  </way>
  <way id="45820402" version="2" timestamp="2011-03-12T09:43:40Z" uid="4467" user="Rosscoe" changeset="7531185"/>
  <way id="45820405" version="2" timestamp="2010-07-07T20:32:44Z" uid="74617" user="JohnSmith" changeset="5161069">
    <nd ref="583234883"/>
    <nd ref="294260898"/>
    <tag k="highway" v="residential"/>
    <tag k="maxspeed" v="50"/>
    <tag k="maxspeed:source" v="default residential speed limit in Australia"/>
    <tag k="name" v="Nymboida Crescent"/>
  </way>
  <way id="45820405" version="3" timestamp="2011-03-12T09:43:40Z" uid="4467" user="Rosscoe" changeset="7531185"/>
  <way id="45820409" version="2" timestamp="2010-07-07T20:33:28Z" uid="74617" user="JohnSmith" changeset="5161069">
    <nd ref="583234908"/>
    <nd ref="294236614"/>
    <tag k="highway" v="residential"/>
    <tag k="maxspeed" v="50"/>
    <tag k="maxspeed:source" v="default residential speed limit in Australia"/>
    <tag k="name" v="Avon Place"/>
  </way>
  <way id="45820409" version="3" timestamp="2012-01-19T13:08:47Z" uid="147510" user="woodpeck_fixbot" changeset="10436041">
    <nd ref="583234908"/>
    <nd ref="294236614"/>
    <tag k="highway" v="residential"/>
    <tag k="name" v="Avon Place"/>
  </way>
  <way id="45820410" version="2" timestamp="2010-07-07T20:35:40Z" uid="74617" user="JohnSmith" changeset="5161069">
    <nd ref="583234909"/>
    <nd ref="583234445"/>
    <tag k="highway" v="residential"/>
    <tag k="maxspeed" v="50"/>
    <tag k="maxspeed:source" v="default residential speed limit in Australia"/>
    <tag k="name" v="Cotter Place"/>
  </way>
  <way id="45820410" version="3" timestamp="2012-01-19T13:08:50Z" uid="147510" user="woodpeck_fixbot" changeset="10436041">
    <nd ref="583234909"/>
    <nd ref="583234445"/>
    <tag k="highway" v="residential"/>
    <tag k="name" v="Cotter Place"/>
  </way>
  <way id="45820411" version="2" timestamp="2010-07-07T20:31:59Z" uid="74617" user="JohnSmith" changeset="5161069">
    <nd ref="583234910"/>
    <nd ref="583234447"/>
    <tag k="highway" v="residential"/>
    <tag k="maxspeed" v="50"/>
    <tag k="maxspeed:source" v="default residential speed limit in Australia"/>
    <tag k="name" v="Glenbawn Place"/>
  </way>
  <way id="45820411" version="3" timestamp="2012-01-19T13:08:52Z" uid="147510" user="woodpeck_fixbot" changeset="10436041">
    <nd ref="583234910"/>
    <nd ref="583234447"/>
    <tag k="highway" v="residential"/>
    <tag k="name" v="Glenbawn Place"/>
  </way>
  <way id="45820412" version="3" timestamp="2010-07-07T20:30:50Z" uid="74617" user="JohnSmith" changeset="5161069">
    <nd ref="583234911"/>
    <nd ref="583234912"/>
    <nd ref="583234913"/>
    <nd ref="696696955"/>
    <nd ref="583234914"/>
    <nd ref="583234911"/>
    <nd ref="294236594"/>
    <tag k="highway" v="residential"/>
    <tag k="maxspeed" v="50"/>
    <tag k="maxspeed:source" v="default residential speed limit in Australia"/>
    <tag k="name" v="Lostock Place"/>
  </way>
  <way id="45820412" version="4" timestamp="2011-12-10T22:21:56Z" uid="338866" user="tiger" changeset="10085305">
    <nd ref="583234911"/>
    <nd ref="583234912"/>
    <nd ref="696696821"/>
    <nd ref="583234913"/>
    <nd ref="696696955"/>
    <nd ref="583234914"/>
    <nd ref="583234911"/>
    <nd ref="294236594"/>
    <tag k="highway" v="residential"/>
    <tag k="maxspeed" v="50"/>
    <tag k="maxspeed:source" v="default residential speed limit in Australia"/>
    <tag k="name" v="Lostock Place"/>
  </way>
  <way id="45820412" version="5" timestamp="2012-01-19T13:08:53Z" uid="147510" user="woodpeck_fixbot" changeset="10436041">
    <nd ref="583234911"/>
    <nd ref="583234912"/>
    <nd ref="696696821"/>
    <nd ref="583234913"/>
    <nd ref="696696955"/>
    <nd ref="583234914"/>
    <nd ref="583234911"/>
    <nd ref="294236594"/>
    <tag k="highway" v="residential"/>
    <tag k="name" v="Lostock Place"/>
  </way>
  <way id="45820426" version="2" timestamp="2010-07-06T18:34:53Z" uid="74617" user="JohnSmith" changeset="5152225">
    <nd ref="583234984"/>
    <nd ref="583234985"/>
    <nd ref="583234986"/>
    <nd ref="583234987"/>
    <nd ref="583234988"/>
    <tag k="highway" v="residential"/>
    <tag k="maxspeed" v="50"/>
    <tag k="maxspeed:source" v="default residential speed limit in Australia"/>
    <tag k="name" v="Prowse Street"/>
  </way>
  <way id="45820426" version="3" timestamp="2010-08-02T01:09:01Z" uid="62457" user="cybercrypt" changeset="5375606">
    <nd ref="583234984"/>
    <nd ref="583234985"/>
    <nd ref="583234986"/>
    <nd ref="583234987"/>
    <nd ref="842838277"/>
    <nd ref="583234988"/>
    <tag k="highway" v="residential"/>
    <tag k="maxspeed" v="50"/>
    <tag k="maxspeed:source" v="default residential speed limit in Australia"/>
    <tag k="name" v="Prowse Street"/>
  </way>
  <way id="45820426" version="4" timestamp="2010-08-02T01:09:26Z" uid="62457" user="cybercrypt" changeset="5375606">
    <nd ref="583234984"/>
    <nd ref="583234985"/>
    <nd ref="583234986"/>
    <nd ref="583234987"/>
    <nd ref="842838277"/>
    <nd ref="842838304"/>
    <nd ref="583234988"/>
    <tag k="highway" v="residential"/>
    <tag k="maxspeed" v="50"/>
    <tag k="maxspeed:source" v="default residential speed limit in Australia"/>
    <tag k="name" v="Prowse Street"/>
  </way>
  <way id="45820426" version="5" timestamp="2010-08-02T01:10:04Z" uid="62457" user="cybercrypt" changeset="5375606">
    <nd ref="583234984"/>
    <nd ref="583234985"/>
    <nd ref="583234986"/>
    <nd ref="842838306"/>
    <nd ref="583234987"/>
    <nd ref="842838277"/>
    <nd ref="842838304"/>
    <nd ref="583234988"/>
    <tag k="highway" v="residential"/>
    <tag k="maxspeed" v="50"/>
    <tag k="maxspeed:source" v="default residential speed limit in Australia"/>
    <tag k="name" v="Prowse Street"/>
  </way>
  <way id="45820426" version="6" timestamp="2010-08-02T01:10:25Z" uid="62457" user="cybercrypt" changeset="5375606">
    <nd ref="583234984"/>
    <nd ref="583234985"/>
    <nd ref="842838327"/>
    <nd ref="842838306"/>
    <nd ref="583234987"/>
    <nd ref="842838277"/>
    <nd ref="842838304"/>
    <nd ref="583234988"/>
    <tag k="highway" v="residential"/>
    <tag k="maxspeed" v="50"/>
    <tag k="maxspeed:source" v="default residential speed limit in Australia"/>
    <tag k="name" v="Prowse Street"/>
  </way>
  <way id="45820426" version="7" timestamp="2010-08-02T01:13:43Z" uid="62457" user="cybercrypt" changeset="5375606">
    <nd ref="583234984"/>
    <nd ref="842839728"/>
    <nd ref="583234985"/>
    <nd ref="842838327"/>
    <nd ref="842838306"/>
    <nd ref="583234987"/>
    <nd ref="842838277"/>
    <nd ref="842838304"/>
    <nd ref="583234988"/>
    <tag k="highway" v="residential"/>
    <tag k="maxspeed" v="50"/>
    <tag k="maxspeed:source" v="default residential speed limit in Australia"/>
    <tag k="name" v="Prowse Street"/>
  </way>
  <way id="45820426" version="8" timestamp="2012-01-19T13:08:56Z" uid="147510" user="woodpeck_fixbot" changeset="10436041">
    <nd ref="583234984"/>
    <nd ref="842839728"/>
    <nd ref="583234985"/>
    <nd ref="842838327"/>
    <nd ref="842838306"/>
    <nd ref="583234987"/>
    <nd ref="842838277"/>
    <nd ref="842838304"/>
    <nd ref="583234988"/>
    <tag k="highway" v="residential"/>
    <tag k="name" v="Prowse Street"/>
  </way>
  <way id="45820427" version="2" timestamp="2010-07-06T18:36:00Z" uid="74617" user="JohnSmith" changeset="5152225">
    <nd ref="583234985"/>
    <nd ref="583234989"/>
    <tag k="highway" v="residential"/>
    <tag k="maxspeed" v="50"/>
    <tag k="maxspeed:source" v="default residential speed limit in Australia"/>
    <tag k="name" v="Brown Street"/>
  </way>
  <way id="45820427" version="3" timestamp="2012-01-19T13:08:57Z" uid="147510" user="woodpeck_fixbot" changeset="10436041">
    <nd ref="583234985"/>
    <nd ref="583234989"/>
    <tag k="highway" v="residential"/>
    <tag k="name" v="Brown Street"/>
  </way>
  <way id="45820428" version="2" timestamp="2010-07-06T18:40:11Z" uid="74617" user="JohnSmith" changeset="5152225">
    <nd ref="583234990"/>
    <nd ref="583234991"/>
    <tag k="highway" v="residential"/>
    <tag k="maxspeed" v="50"/>
    <tag k="maxspeed:source" v="default residential speed limit in Australia"/>
    <tag k="name" v="Evon Street"/>
  </way>
  <way id="45820428" version="3" timestamp="2010-08-02T01:14:24Z" uid="62457" user="cybercrypt" changeset="5375606">
    <nd ref="583234990"/>
    <nd ref="842839998"/>
    <nd ref="583234991"/>
    <tag k="highway" v="residential"/>
    <tag k="maxspeed" v="50"/>
    <tag k="maxspeed:source" v="default residential speed limit in Australia"/>
    <tag k="name" v="Evon Street"/>
  </way>
  <way id="45820428" version="4" timestamp="2012-01-19T13:08:59Z" uid="147510" user="woodpeck_fixbot" changeset="10436041">
    <nd ref="583234990"/>
    <nd ref="842839998"/>
    <nd ref="583234991"/>
    <tag k="highway" v="residential"/>
    <tag k="name" v="Evon Street"/>
  </way>
  <way id="45820429" version="2" timestamp="2010-07-06T18:41:03Z" uid="74617" user="JohnSmith" changeset="5152225">
    <nd ref="583234991"/>
    <nd ref="583234992"/>
    <tag k="highway" v="residential"/>
    <tag k="maxspeed" v="50"/>
    <tag k="maxspeed:source" v="default residential speed limit in Australia"/>
    <tag k="name" v="Berghoffer Street"/>
  </way>
  <way id="45820429" version="3" timestamp="2010-08-02T01:14:24Z" uid="62457" user="cybercrypt" changeset="5375606">
    <nd ref="583234991"/>
    <nd ref="842839999"/>
    <nd ref="583234992"/>
    <tag k="highway" v="residential"/>
    <tag k="maxspeed" v="50"/>
    <tag k="maxspeed:source" v="default residential speed limit in Australia"/>
    <tag k="name" v="Berghoffer Street"/>
  </way>
  <way id="45820429" version="4" timestamp="2012-01-19T13:09:01Z" uid="147510" user="woodpeck_fixbot" changeset="10436041">
    <nd ref="583234991"/>
    <nd ref="842839999"/>
    <nd ref="583234992"/>
    <tag k="highway" v="residential"/>
    <tag k="name" v="Berghoffer Street"/>
  </way>
  <way id="45820430" version="2" timestamp="2010-07-06T18:37:59Z" uid="74617" user="JohnSmith" changeset="5152225">
    <nd ref="583234993"/>
    <nd ref="583234987"/>
    <tag k="highway" v="residential"/>
    <tag k="maxspeed" v="50"/>
    <tag k="maxspeed:source" v="default residential speed limit in Australia"/>
    <tag k="name" v="Nycole Street"/>
  </way>
  <way id="45820430" version="3" timestamp="2012-01-19T13:09:02Z" uid="147510" user="woodpeck_fixbot" changeset="10436041">
    <nd ref="583234993"/>
    <nd ref="583234987"/>
    <tag k="highway" v="residential"/>
    <tag k="name" v="Nycole Street"/>
  </way>
  <way id="45820432" version="2" timestamp="2010-07-06T18:39:47Z" uid="74617" user="JohnSmith" changeset="5152225">
    <nd ref="583234998"/>
    <nd ref="583234999"/>
    <tag k="highway" v="residential"/>
    <tag k="maxspeed" v="50"/>
    <tag k="maxspeed:source" v="default residential speed limit in Australia"/>
    <tag k="name" v="Westland Street"/>
  </way>
  <way id="45820432" version="3" timestamp="2012-01-19T13:09:03Z" uid="147510" user="woodpeck_fixbot" changeset="10436041">
    <nd ref="583234998"/>
    <nd ref="583234999"/>
    <tag k="highway" v="residential"/>
    <tag k="name" v="Westland Street"/>
  </way>
  <way id="45820433" version="2" timestamp="2010-07-06T18:40:41Z" uid="74617" user="JohnSmith" changeset="5152225">
    <nd ref="583235000"/>
    <nd ref="583234992"/>
    <nd ref="583234989"/>
    <nd ref="583235001"/>
    <nd ref="583235002"/>
    <nd ref="583235003"/>
    <nd ref="583235004"/>
    <nd ref="583235005"/>
    <nd ref="583235006"/>
    <nd ref="583234984"/>
    <tag k="highway" v="residential"/>
    <tag k="maxspeed" v="50"/>
    <tag k="maxspeed:source" v="default residential speed limit in Australia"/>
    <tag k="name" v="Mott Cresent"/>
  </way>
  <way id="45820433" version="3" timestamp="2010-08-02T01:10:49Z" uid="62457" user="cybercrypt" changeset="5375606">
    <nd ref="583235000"/>
    <nd ref="583234992"/>
    <nd ref="842838335"/>
    <nd ref="583234989"/>
    <nd ref="583235001"/>
    <nd ref="583235002"/>
    <nd ref="583235003"/>
    <nd ref="583235004"/>
    <nd ref="583235005"/>
    <nd ref="583235006"/>
    <nd ref="583234984"/>
    <tag k="highway" v="residential"/>
    <tag k="maxspeed" v="50"/>
    <tag k="maxspeed:source" v="default residential speed limit in Australia"/>
    <tag k="name" v="Mott Cresent"/>
  </way>
  <way id="45820433" version="4" timestamp="2010-08-02T01:10:58Z" uid="62457" user="cybercrypt" changeset="5375606">
    <nd ref="583235000"/>
    <nd ref="583234992"/>
    <nd ref="842838335"/>
    <nd ref="842838349"/>
    <nd ref="583234989"/>
    <nd ref="583235001"/>
    <nd ref="583235002"/>
    <nd ref="583235003"/>
    <nd ref="583235004"/>
    <nd ref="583235005"/>
    <nd ref="583235006"/>
    <nd ref="583234984"/>
    <tag k="highway" v="residential"/>
    <tag k="maxspeed" v="50"/>
    <tag k="maxspeed:source" v="default residential speed limit in Australia"/>
    <tag k="name" v="Mott Cresent"/>
  </way>
  <way id="45820433" version="5" timestamp="2010-08-02T01:11:25Z" uid="62457" user="cybercrypt" changeset="5375606">
    <nd ref="583235000"/>
    <nd ref="583234992"/>
    <nd ref="842838335"/>
    <nd ref="842838349"/>
    <nd ref="842838879"/>
    <nd ref="583234989"/>
    <nd ref="583235001"/>
    <nd ref="583235002"/>
    <nd ref="583235003"/>
    <nd ref="583235004"/>
    <nd ref="583235005"/>
    <nd ref="583235006"/>
    <nd ref="583234984"/>
    <tag k="highway" v="residential"/>
    <tag k="maxspeed" v="50"/>
    <tag k="maxspeed:source" v="default residential speed limit in Australia"/>
    <tag k="name" v="Mott Cresent"/>
  </way>
  <way id="45820433" version="6" timestamp="2010-08-02T01:11:35Z" uid="62457" user="cybercrypt" changeset="5375606">
    <nd ref="583235000"/>
    <nd ref="583234992"/>
    <nd ref="842838335"/>
    <nd ref="842838349"/>
    <nd ref="842838879"/>
    <nd ref="583234989"/>
    <nd ref="583235001"/>
    <nd ref="842838896"/>
    <nd ref="583235002"/>
    <nd ref="583235003"/>
    <nd ref="583235004"/>
    <nd ref="583235005"/>
    <nd ref="583235006"/>
    <nd ref="583234984"/>
    <tag k="highway" v="residential"/>
    <tag k="maxspeed" v="50"/>
    <tag k="maxspeed:source" v="default residential speed limit in Australia"/>
    <tag k="name" v="Mott Cresent"/>
  </way>
  <way id="45820433" version="7" timestamp="2010-08-02T01:11:58Z" uid="62457" user="cybercrypt" changeset="5375606">
    <nd ref="583235000"/>
    <nd ref="583234992"/>
    <nd ref="842838335"/>
    <nd ref="842838349"/>
    <nd ref="842838879"/>
    <nd ref="583234989"/>
    <nd ref="583235001"/>
    <nd ref="842838896"/>
    <nd ref="842839014"/>
    <nd ref="583235002"/>
    <nd ref="842839015"/>
    <nd ref="583235003"/>
    <nd ref="583235004"/>
    <nd ref="583235005"/>
    <nd ref="583235006"/>
    <nd ref="583234984"/>
    <tag k="highway" v="residential"/>
    <tag k="maxspeed" v="50"/>
    <tag k="maxspeed:source" v="default residential speed limit in Australia"/>
    <tag k="name" v="Mott Cresent"/>
  </way>
  <way id="45820433" version="8" timestamp="2012-01-19T13:09:05Z" uid="147510" user="woodpeck_fixbot" changeset="10436041">
    <nd ref="583235000"/>
    <nd ref="583234992"/>
    <nd ref="842838335"/>
    <nd ref="842838349"/>
    <nd ref="842838879"/>
    <nd ref="583234989"/>
    <nd ref="583235001"/>
    <nd ref="842838896"/>
    <nd ref="842839014"/>
    <nd ref="583235002"/>
    <nd ref="842839015"/>
    <nd ref="583235003"/>
    <nd ref="583235004"/>
    <nd ref="583235005"/>
    <nd ref="583235006"/>
    <nd ref="583234984"/>
    <tag k="highway" v="residential"/>
    <tag k="name" v="Mott Cresent"/>
  </way>
  <way id="45820434" version="2" timestamp="2010-07-06T18:37:32Z" uid="74617" user="JohnSmith" changeset="5152225">
    <nd ref="583235007"/>
    <nd ref="583235005"/>
    <tag k="highway" v="residential"/>
    <tag k="maxspeed" v="50"/>
    <tag k="maxspeed:source" v="default residential speed limit in Australia"/>
    <tag k="name" v="Raymond Court"/>
  </way>
  <way id="45820434" version="3" timestamp="2010-08-02T01:13:03Z" uid="62457" user="cybercrypt" changeset="5375606">
    <nd ref="842839709"/>
    <nd ref="583235007"/>
    <nd ref="583235005"/>
    <tag k="highway" v="residential"/>
    <tag k="maxspeed" v="50"/>
    <tag k="maxspeed:source" v="default residential speed limit in Australia"/>
    <tag k="name" v="Raymond Court"/>
  </way>
  <way id="45820434" version="4" timestamp="2012-01-19T13:09:07Z" uid="147510" user="woodpeck_fixbot" changeset="10436041">
    <nd ref="842839709"/>
    <nd ref="583235007"/>
    <nd ref="583235005"/>
    <tag k="highway" v="residential"/>
    <tag k="name" v="Raymond Court"/>
  </way>
  <way id="45820435" version="2" timestamp="2010-07-06T18:38:38Z" uid="74617" user="JohnSmith" changeset="5152225">
    <nd ref="583235008"/>
    <nd ref="583235003"/>
    <tag k="highway" v="residential"/>
    <tag k="maxspeed" v="50"/>
    <tag k="maxspeed:source" v="default residential speed limit in Australia"/>
    <tag k="name" v="Shane Court"/>
  </way>
  <way id="45820435" version="3" timestamp="2010-08-02T01:12:23Z" uid="62457" user="cybercrypt" changeset="5375606">
    <nd ref="583235008"/>
    <nd ref="842839388"/>
    <nd ref="583235003"/>
    <tag k="highway" v="residential"/>
    <tag k="maxspeed" v="50"/>
    <tag k="maxspeed:source" v="default residential speed limit in Australia"/>
    <tag k="name" v="Shane Court"/>
  </way>
  <way id="45820435" version="4" timestamp="2012-01-19T13:09:08Z" uid="147510" user="woodpeck_fixbot" changeset="10436041">
    <nd ref="583235008"/>
    <nd ref="842839388"/>
    <nd ref="583235003"/>
    <tag k="highway" v="residential"/>
    <tag k="name" v="Shane Court"/>
  </way>
  <way id="45820436" version="2" timestamp="2010-07-06T18:35:04Z" uid="74617" user="JohnSmith" changeset="5152225">
    <nd ref="583234988"/>
    <nd ref="583234990"/>
    <nd ref="583235009"/>
    <tag k="highway" v="residential"/>
    <tag k="maxspeed" v="50"/>
    <tag k="maxspeed:source" v="default residential speed limit in Australia"/>
    <tag k="name" v="Challenor Street"/>
  </way>
  <way id="45820436" version="3" timestamp="2010-08-02T01:09:20Z" uid="62457" user="cybercrypt" changeset="5375606">
    <nd ref="583234988"/>
    <nd ref="842838303"/>
    <nd ref="583234990"/>
    <nd ref="583235009"/>
    <tag k="highway" v="residential"/>
    <tag k="maxspeed" v="50"/>
    <tag k="maxspeed:source" v="default residential speed limit in Australia"/>
    <tag k="name" v="Challenor Street"/>
  </way>
  <way id="45820436" version="4" timestamp="2012-01-19T13:09:09Z" uid="147510" user="woodpeck_fixbot" changeset="10436041">
    <nd ref="583234988"/>
    <nd ref="842838303"/>
    <nd ref="583234990"/>
    <nd ref="583235009"/>
    <tag k="highway" v="residential"/>
    <tag k="name" v="Challenor Street"/>
  </way>
  <way id="45820437" version="2" timestamp="2010-07-06T18:36:10Z" uid="74617" user="JohnSmith" changeset="5152225">
    <nd ref="583235011"/>
    <nd ref="583235010"/>
    <tag k="highway" v="residential"/>
    <tag k="maxspeed" v="50"/>
    <tag k="maxspeed:source" v="default residential speed limit in Australia"/>
    <tag k="name" v="Clarissa Street"/>
  </way>
  <way id="45820437" version="3" timestamp="2012-01-19T13:09:11Z" uid="147510" user="woodpeck_fixbot" changeset="10436041">
    <nd ref="583235011"/>
    <nd ref="583235010"/>
    <tag k="highway" v="residential"/>
    <tag k="name" v="Clarissa Street"/>
  </way>
  <way id="45820726" version="3" timestamp="2010-10-22T10:20:33Z" uid="7617" user="Franc" changeset="6134759">
    <nd ref="29420782"/>
    <nd ref="81312964"/>
    <nd ref="29420734"/>
    <nd ref="81261111"/>
    <nd ref="29420735"/>
    <nd ref="29420736"/>
    <nd ref="29420737"/>
    <nd ref="29420738"/>
    <nd ref="29420739"/>
    <nd ref="29420740"/>
    <nd ref="29420741"/>
    <nd ref="26359238"/>
    <nd ref="26359237"/>
    <nd ref="960190089"/>
    <nd ref="26359234"/>
    <tag k="highway" v="tertiary"/>
    <tag k="name" v="Wycombe Road"/>
    <tag k="source" v="survey"/>
    <tag k="source:name" v="historical"/>
  </way>
  <way id="45820726" version="4" timestamp="2011-10-13T11:43:37Z" uid="162096" user="Daz" changeset="9546105">
    <nd ref="29420782"/>
    <nd ref="81312964"/>
    <nd ref="29420734"/>
    <nd ref="81261111"/>
    <nd ref="29420735"/>
    <nd ref="29420736"/>
    <nd ref="29420737"/>
    <nd ref="29420738"/>
    <nd ref="29420739"/>
    <nd ref="29420740"/>
    <nd ref="29420741"/>
    <tag k="highway" v="tertiary"/>
    <tag k="lcn" v="yes"/>
    <tag k="name" v="Wycombe Road"/>
    <tag k="source" v="survey"/>
    <tag k="source:name" v="historical"/>
  </way>
  <way id="45820727" version="2" timestamp="2009-12-28T10:17:01Z" uid="7617" user="Franc" changeset="3469966">
    <nd ref="82393730"/>
    <nd ref="540119268"/>
    <nd ref="29374671"/>
    <nd ref="600325500"/>
    <nd ref="31395255"/>
    <nd ref="8656214"/>
    <nd ref="31395257"/>
    <nd ref="8779139"/>
    <nd ref="88921958"/>
    <nd ref="8779140"/>
    <nd ref="540119270"/>
    <nd ref="29374681"/>
    <nd ref="8656211"/>
    <nd ref="31395268"/>
    <nd ref="249089404"/>
    <nd ref="88922043"/>
    <nd ref="31395262"/>
    <nd ref="38867505"/>
    <nd ref="8779141"/>
    <nd ref="90116541"/>
    <nd ref="46489582"/>
    <nd ref="90116577"/>
    <nd ref="8656207"/>
    <tag k="highway" v="trunk"/>
    <tag k="name" v="Military Road"/>
    <tag k="ref" v="MR10"/>
    <tag k="source" v="survey"/>
  </way>
  <way id="45820727" version="3" timestamp="2010-03-31T06:31:40Z" uid="74617" user="JohnSmith" changeset="4282753">
    <nd ref="82393730"/>
    <nd ref="540119268"/>
    <nd ref="29374671"/>
    <nd ref="600325500"/>
    <nd ref="31395255"/>
    <nd ref="8656214"/>
    <nd ref="31395257"/>
    <nd ref="8779139"/>
    <nd ref="88921958"/>
    <nd ref="8779140"/>
    <nd ref="540119270"/>
    <nd ref="29374681"/>
    <nd ref="8656211"/>
    <nd ref="31395268"/>
    <nd ref="249089404"/>
    <nd ref="88922043"/>
    <nd ref="31395262"/>
    <nd ref="38867505"/>
    <nd ref="8779141"/>
    <nd ref="679010102"/>
    <nd ref="90116541"/>
    <nd ref="46489582"/>
    <nd ref="90116577"/>
    <nd ref="679010103"/>
    <nd ref="8656207"/>
    <tag k="highway" v="trunk"/>
    <tag k="name" v="Military Road"/>
    <tag k="ref" v="MR10"/>
    <tag k="source" v="survey"/>
  </way>
  <way id="45820727" version="4" timestamp="2010-03-31T07:48:50Z" uid="74617" user="JohnSmith" changeset="4283131">
    <nd ref="82393730"/>
    <nd ref="540119268"/>
    <nd ref="29374671"/>
    <nd ref="600325500"/>
    <nd ref="31395255"/>
    <nd ref="8656214"/>
    <nd ref="31395257"/>
    <nd ref="8779139"/>
    <nd ref="88921958"/>
    <nd ref="8779140"/>
    <nd ref="540119270"/>
    <nd ref="29374681"/>
    <nd ref="8656211"/>
    <nd ref="31395268"/>
    <nd ref="249089404"/>
    <nd ref="88922043"/>
    <nd ref="31395262"/>
    <nd ref="38867505"/>
    <nd ref="8779141"/>
    <nd ref="679010102"/>
    <nd ref="90116541"/>
    <nd ref="46489582"/>
    <nd ref="90116577"/>
    <nd ref="679010103"/>
    <nd ref="8656207"/>
    <tag k="highway" v="trunk"/>
    <tag k="name" v="Military Road"/>
    <tag k="source" v="survey"/>
  </way>
  <way id="45820727" version="5" timestamp="2010-06-28T07:51:38Z" uid="299678" user="peteramjet" changeset="5095437">
    <nd ref="82393730"/>
    <nd ref="540119268"/>
    <nd ref="29374671"/>
    <nd ref="600325500"/>
    <nd ref="31395255"/>
    <nd ref="8656214"/>
    <nd ref="31395257"/>
    <nd ref="8779139"/>
    <nd ref="88921958"/>
    <nd ref="8779140"/>
    <nd ref="540119270"/>
    <nd ref="29374681"/>
    <nd ref="8656211"/>
    <nd ref="31395268"/>
    <nd ref="249089404"/>
    <nd ref="88922043"/>
    <nd ref="31395262"/>
    <nd ref="38867505"/>
    <nd ref="8779141"/>
    <nd ref="679010102"/>
    <nd ref="90116541"/>
    <nd ref="46489582"/>
    <nd ref="90116577"/>
    <nd ref="679010103"/>
    <nd ref="8656207"/>
    <tag k="highway" v="trunk"/>
    <tag k="name" v="Military Road"/>
    <tag k="ref" v="MR10"/>
    <tag k="source" v="survey"/>
  </way>
  <way id="45820727" version="6" timestamp="2010-07-08T10:22:28Z" uid="299678" user="peteramjet" changeset="5164989">
    <nd ref="82393730"/>
    <nd ref="540119268"/>
    <nd ref="29374671"/>
    <nd ref="600325500"/>
    <nd ref="31395255"/>
    <nd ref="8656214"/>
    <nd ref="31395257"/>
    <nd ref="8779139"/>
    <nd ref="88921958"/>
    <nd ref="8779140"/>
    <nd ref="540119270"/>
    <nd ref="29374681"/>
    <nd ref="8656211"/>
    <nd ref="31395268"/>
    <nd ref="249089404"/>
    <nd ref="88922043"/>
    <nd ref="31395262"/>
    <nd ref="38867505"/>
    <nd ref="8779141"/>
    <nd ref="679010102"/>
    <nd ref="90116541"/>
    <nd ref="46489582"/>
    <nd ref="90116577"/>
    <nd ref="679010103"/>
    <nd ref="8656207"/>
    <tag k="highway" v="trunk"/>
    <tag k="name" v="Military Road"/>
    <tag k="source" v="survey"/>
  </way>
  <way id="45820727" version="7" timestamp="2011-02-15T03:50:25Z" uid="389517" user="good2010" changeset="7291656">
    <nd ref="82393730"/>
    <nd ref="540119268"/>
    <nd ref="29374671"/>
    <nd ref="600325500"/>
    <nd ref="31395255"/>
    <nd ref="8656214"/>
    <nd ref="31395257"/>
    <nd ref="8779139"/>
    <nd ref="88921958"/>
    <nd ref="8779140"/>
    <nd ref="540119270"/>
    <nd ref="29374681"/>
    <nd ref="8656211"/>
    <nd ref="31395268"/>
    <nd ref="249089404"/>
    <nd ref="88922043"/>
    <nd ref="31395262"/>
    <nd ref="38867505"/>
    <nd ref="8779141"/>
    <nd ref="679010102"/>
    <nd ref="90116541"/>
    <nd ref="46489582"/>
    <nd ref="90116577"/>
    <nd ref="679010103"/>
    <nd ref="8656207"/>
    <tag k="highway" v="trunk"/>
    <tag k="maxspeed" v="60"/>
    <tag k="name" v="Military Road"/>
    <tag k="source" v="survey"/>
  </way>
  <way id="45820727" version="8" timestamp="2012-02-02T01:39:11Z" uid="54784" user="Tom Hollander" changeset="10564136">
    <nd ref="82393730"/>
    <nd ref="540119268"/>
    <nd ref="29374671"/>
    <nd ref="600325500"/>
    <nd ref="31395255"/>
    <nd ref="8656214"/>
    <nd ref="31395257"/>
    <nd ref="8779139"/>
    <nd ref="88921958"/>
    <nd ref="8779140"/>
    <nd ref="540119270"/>
    <nd ref="29374681"/>
    <nd ref="8656211"/>
    <nd ref="31395268"/>
    <nd ref="249089404"/>
    <nd ref="88922043"/>
    <nd ref="31395262"/>
    <nd ref="38867505"/>
    <nd ref="8779141"/>
    <nd ref="679010102"/>
    <nd ref="90116541"/>
    <nd ref="46489582"/>
    <nd ref="90116577"/>
    <nd ref="679010103"/>
    <nd ref="8656207"/>
    <tag k="highway" v="trunk"/>
    <tag k="maxspeed" v="60"/>
    <tag k="name" v="Military Road"/>
    <tag k="ref" v="MR10"/>
    <tag k="source" v="survey"/>
  </way>
  <way id="45820728" version="2" timestamp="2010-03-31T06:20:48Z" uid="74617" user="JohnSmith" changeset="4282717"/>
  <way id="45820729" version="2" timestamp="2010-03-31T06:20:48Z" uid="74617" user="JohnSmith" changeset="4282717"/>
  <way id="45820730" version="2" timestamp="2010-07-08T01:18:51Z" uid="74617" user="JohnSmith" changeset="5162525">
    <nd ref="262121849"/>
    <nd ref="262121852"/>
    <tag k="highway" v="residential"/>
    <tag k="maxspeed" v="50"/>
    <tag k="maxspeed:source" v="default residential speed limit in Australia"/>
    <tag k="name" v="Cabramatta Road"/>
    <tag k="source:name" v="survey"/>
  </way>
  <way id="45820730" version="3" timestamp="2012-01-19T13:09:12Z" uid="147510" user="woodpeck_fixbot" changeset="10436041">
    <nd ref="262121849"/>
    <nd ref="262121852"/>
    <tag k="highway" v="residential"/>
    <tag k="name" v="Cabramatta Road"/>
    <tag k="source:name" v="survey"/>
  </way>
  <way id="45820731" version="2" timestamp="2010-03-31T07:48:51Z" uid="74617" user="JohnSmith" changeset="4283131">
    <nd ref="262121844"/>
    <nd ref="120518471"/>
    <tag k="highway" v="trunk"/>
    <tag k="name" v="Military Road"/>
    <tag k="source" v="survey"/>
  </way>
  <way id="45820731" version="3" timestamp="2010-06-28T07:53:02Z" uid="299678" user="peteramjet" changeset="5095437">
    <nd ref="262121844"/>
    <nd ref="120518471"/>
    <tag k="highway" v="trunk"/>
    <tag k="name" v="Military Road"/>
    <tag k="ref" v="MR10"/>
    <tag k="source" v="survey"/>
  </way>
  <way id="45820731" version="4" timestamp="2010-07-08T10:22:27Z" uid="299678" user="peteramjet" changeset="5164989">
    <nd ref="262121844"/>
    <nd ref="120518471"/>
    <tag k="highway" v="trunk"/>
    <tag k="name" v="Military Road"/>
    <tag k="source" v="survey"/>
  </way>
  <way id="45820731" version="5" timestamp="2011-02-15T03:50:29Z" uid="389517" user="good2010" changeset="7291656">
    <nd ref="262121844"/>
    <nd ref="120518471"/>
    <tag k="highway" v="trunk"/>
    <tag k="maxspeed" v="60"/>
    <tag k="name" v="Military Road"/>
    <tag k="source" v="survey"/>
  </way>
  <way id="45820732" version="2" timestamp="2010-03-31T07:48:51Z" uid="74617" user="JohnSmith" changeset="4283131">
    <nd ref="120518471"/>
    <nd ref="8656215"/>
    <tag k="highway" v="trunk"/>
    <tag k="name" v="Military Road"/>
    <tag k="source" v="survey"/>
  </way>
  <way id="45820732" version="3" timestamp="2010-06-28T07:53:03Z" uid="299678" user="peteramjet" changeset="5095437">
    <nd ref="120518471"/>
    <nd ref="8656215"/>
    <tag k="highway" v="trunk"/>
    <tag k="name" v="Military Road"/>
    <tag k="ref" v="MR10"/>
    <tag k="source" v="survey"/>
  </way>
  <way id="45820732" version="4" timestamp="2010-07-08T10:22:27Z" uid="299678" user="peteramjet" changeset="5164989">
    <nd ref="120518471"/>
    <nd ref="8656215"/>
    <tag k="highway" v="trunk"/>
    <tag k="name" v="Military Road"/>
    <tag k="source" v="survey"/>
  </way>
  <way id="45820732" version="5" timestamp="2011-02-15T03:50:29Z" uid="389517" user="good2010" changeset="7291656">
    <nd ref="120518471"/>
    <nd ref="8656215"/>
    <tag k="highway" v="trunk"/>
    <tag k="maxspeed" v="60"/>
    <tag k="name" v="Military Road"/>
    <tag k="source" v="survey"/>
  </way>
  <way id="45820732" version="6" timestamp="2011-04-29T04:23:52Z" uid="23770" user="rorym" changeset="8000305">
    <nd ref="120518471"/>
    <nd ref="1264487034"/>
    <nd ref="8656215"/>
    <tag k="highway" v="trunk"/>
    <tag k="maxspeed" v="60"/>
    <tag k="name" v="Military Road"/>
    <tag k="source" v="survey"/>
  </way>
  <way id="45820732" version="7" timestamp="2012-02-02T01:39:12Z" uid="54784" user="Tom Hollander" changeset="10564136">
    <nd ref="120518471"/>
    <nd ref="1264487034"/>
    <nd ref="8656215"/>
    <tag k="highway" v="trunk"/>
    <tag k="maxspeed" v="60"/>
    <tag k="name" v="Military Road"/>
    <tag k="ref" v="MR10"/>
    <tag k="source" v="survey"/>
  </way>
  <way id="45820733" version="3" timestamp="2010-03-31T07:48:51Z" uid="74617" user="JohnSmith" changeset="4283131">
    <nd ref="8656215"/>
    <nd ref="613414506"/>
    <nd ref="31395215"/>
    <tag k="highway" v="trunk"/>
    <tag k="name" v="Military Road"/>
    <tag k="source" v="survey"/>
  </way>
  <way id="45820733" version="4" timestamp="2010-06-28T07:53:05Z" uid="299678" user="peteramjet" changeset="5095437">
    <nd ref="8656215"/>
    <nd ref="613414506"/>
    <nd ref="31395215"/>
    <tag k="highway" v="trunk"/>
    <tag k="name" v="Military Road"/>
    <tag k="ref" v="MR10"/>
    <tag k="source" v="survey"/>
  </way>
  <way id="45820733" version="5" timestamp="2010-07-08T10:22:29Z" uid="299678" user="peteramjet" changeset="5164989">
    <nd ref="8656215"/>
    <nd ref="613414506"/>
    <nd ref="31395215"/>
    <tag k="highway" v="trunk"/>
    <tag k="name" v="Military Road"/>
    <tag k="source" v="survey"/>
  </way>
  <way id="45820733" version="6" timestamp="2011-02-15T03:50:29Z" uid="389517" user="good2010" changeset="7291656">
    <nd ref="8656215"/>
    <nd ref="613414506"/>
    <nd ref="31395215"/>
    <tag k="highway" v="trunk"/>
    <tag k="maxspeed" v="60"/>
    <tag k="name" v="Military Road"/>
    <tag k="source" v="survey"/>
  </way>
  <way id="45820733" version="7" timestamp="2012-02-02T01:39:12Z" uid="54784" user="Tom Hollander" changeset="10564136">
    <nd ref="8656215"/>
    <nd ref="613414506"/>
    <nd ref="31395215"/>
    <tag k="highway" v="trunk"/>
    <tag k="maxspeed" v="60"/>
    <tag k="name" v="Military Road"/>
    <tag k="ref" v="MR10"/>
    <tag k="source" v="survey"/>
  </way>
  <way id="45820734" version="2" timestamp="2010-03-31T07:48:51Z" uid="74617" user="JohnSmith" changeset="4283131">
    <nd ref="31395215"/>
    <nd ref="82393730"/>
    <tag k="highway" v="trunk"/>
    <tag k="name" v="Military Road"/>
    <tag k="source" v="survey"/>
  </way>
  <way id="45820734" version="3" timestamp="2010-06-28T07:53:05Z" uid="299678" user="peteramjet" changeset="5095437">
    <nd ref="31395215"/>
    <nd ref="82393730"/>
    <tag k="highway" v="trunk"/>
    <tag k="name" v="Military Road"/>
    <tag k="ref" v="MR10"/>
    <tag k="source" v="survey"/>
  </way>
  <way id="45820734" version="4" timestamp="2010-07-08T10:22:29Z" uid="299678" user="peteramjet" changeset="5164989">
    <nd ref="31395215"/>
    <nd ref="82393730"/>
    <tag k="highway" v="trunk"/>
    <tag k="name" v="Military Road"/>
    <tag k="source" v="survey"/>
  </way>
  <way id="45820734" version="5" timestamp="2011-02-15T03:50:30Z" uid="389517" user="good2010" changeset="7291656">
    <nd ref="31395215"/>
    <nd ref="82393730"/>
    <tag k="highway" v="trunk"/>
    <tag k="maxspeed" v="60"/>
    <tag k="name" v="Military Road"/>
    <tag k="source" v="survey"/>
  </way>
  <way id="45820734" version="6" timestamp="2012-02-02T01:39:12Z" uid="54784" user="Tom Hollander" changeset="10564136">
    <nd ref="31395215"/>
    <nd ref="82393730"/>
    <tag k="highway" v="trunk"/>
    <tag k="maxspeed" v="60"/>
    <tag k="name" v="Military Road"/>
    <tag k="ref" v="MR10"/>
    <tag k="source" v="survey"/>
  </way>
  <way id="45820376" version="7" timestamp="2012-07-21T14:14:10Z" uid="722137" user="OSMF Redaction Account" changeset="12411447"/>
  <way id="45820377" version="5" timestamp="2012-07-21T14:14:07Z" uid="722137" user="OSMF Redaction Account" changeset="12411447"/>
  <way id="45820378" version="4" timestamp="2012-07-21T14:14:08Z" uid="722137" user="OSMF Redaction Account" changeset="12411447"/>
  <way id="45820381" version="5" timestamp="2012-07-21T14:14:12Z" uid="722137" user="OSMF Redaction Account" changeset="12411447"/>
  <way id="45820382" version="5" timestamp="2012-07-21T14:14:09Z" uid="722137" user="OSMF Redaction Account" changeset="12411447"/>
  <way id="45820386" version="4" timestamp="2012-07-21T14:14:03Z" uid="722137" user="OSMF Redaction Account" changeset="12411447"/>
  <way id="45820389" version="5" timestamp="2012-07-21T14:14:05Z" uid="722137" user="OSMF Redaction Account" changeset="12411447"/>
  <way id="45820409" version="4" timestamp="2012-07-21T14:14:07Z" uid="722137" user="OSMF Redaction Account" changeset="12411447"/>
  <way id="45820410" version="4" timestamp="2012-07-21T14:14:06Z" uid="722137" user="OSMF Redaction Account" changeset="12411447"/>
  <way id="45820411" version="4" timestamp="2012-07-21T14:14:05Z" uid="722137" user="OSMF Redaction Account" changeset="12411447"/>
  <way id="45820412" version="6" timestamp="2012-07-21T14:14:04Z" uid="722137" user="OSMF Redaction Account" changeset="12411447"/>
  <way id="45820727" version="9" timestamp="2012-07-11T13:39:05Z" uid="705018" user="jinkson" changeset="12185474">
    <nd ref="82393730"/>
    <nd ref="540119268"/>
    <nd ref="29374671"/>
    <nd ref="600325500"/>
    <nd ref="31395255"/>
    <nd ref="8656214"/>
    <nd ref="31395257"/>
    <nd ref="8779139"/>
    <nd ref="88921958"/>
    <nd ref="8779140"/>
    <nd ref="540119270"/>
    <nd ref="29374681"/>
    <nd ref="8656211"/>
    <nd ref="31395268"/>
    <nd ref="249089404"/>
    <nd ref="88922043"/>
    <nd ref="31395262"/>
    <nd ref="38867505"/>
    <nd ref="8779141"/>
    <nd ref="679010102"/>
    <nd ref="90116541"/>
    <nd ref="46489582"/>
    <nd ref="90116577"/>
    <nd ref="1821428062"/>
    <tag k="highway" v="trunk"/>
    <tag k="lanes" v="6"/>
    <tag k="maxspeed" v="60"/>
    <tag k="name" v="Military Road"/>
    <tag k="ref" v="MR10"/>
    <tag k="source" v="survey"/>
  </way>
  <way id="45820727" version="10" timestamp="2012-07-11T13:41:39Z" uid="705018" user="jinkson" changeset="12185474">
    <nd ref="82393730"/>
    <nd ref="540119268"/>
    <nd ref="29374671"/>
    <nd ref="600325500"/>
    <nd ref="31395255"/>
    <nd ref="8656214"/>
    <nd ref="31395257"/>
    <nd ref="8779139"/>
    <nd ref="88921958"/>
    <nd ref="8779140"/>
    <nd ref="540119270"/>
    <nd ref="29374681"/>
    <nd ref="8656211"/>
    <nd ref="31395268"/>
    <nd ref="249089404"/>
    <nd ref="88922043"/>
    <nd ref="31395262"/>
    <nd ref="38867505"/>
    <nd ref="8779141"/>
    <nd ref="679010102"/>
    <nd ref="90116541"/>
    <nd ref="46489582"/>
    <nd ref="1821431519"/>
    <tag k="highway" v="trunk"/>
    <tag k="lanes" v="6"/>
    <tag k="maxspeed" v="60"/>
    <tag k="name" v="Military Road"/>
    <tag k="ref" v="MR10"/>
    <tag k="source" v="survey"/>
  </way>
  <way id="45820727" version="11" timestamp="2012-07-12T01:58:39Z" uid="705018" user="jinkson" changeset="12191716">
    <nd ref="82393730"/>
    <nd ref="540119268"/>
    <nd ref="29374671"/>
    <nd ref="600325500"/>
    <nd ref="31395255"/>
    <nd ref="8656214"/>
    <nd ref="31395257"/>
    <nd ref="8779139"/>
    <nd ref="88921958"/>
    <nd ref="8779140"/>
    <nd ref="540119270"/>
    <nd ref="29374681"/>
    <nd ref="8656211"/>
    <nd ref="31395268"/>
    <nd ref="249089404"/>
    <nd ref="88922043"/>
    <nd ref="31395262"/>
    <nd ref="1822419891"/>
    <tag k="highway" v="trunk"/>
    <tag k="lanes" v="6"/>
    <tag k="maxspeed" v="60"/>
    <tag k="name" v="Military Road"/>
    <tag k="ref" v="MR10"/>
    <tag k="source" v="survey"/>
  </way>
  <way id="45820727" version="12" timestamp="2012-07-12T13:06:31Z" uid="705018" user="jinkson" changeset="12195730">
    <nd ref="82393730"/>
    <nd ref="540119268"/>
    <nd ref="29374671"/>
    <nd ref="600325500"/>
    <nd ref="31395255"/>
    <nd ref="8656214"/>
    <nd ref="31395257"/>
    <nd ref="8779139"/>
    <nd ref="88921958"/>
    <nd ref="8779140"/>
    <nd ref="540119270"/>
    <nd ref="29374681"/>
    <nd ref="8656211"/>
    <tag k="highway" v="trunk"/>
    <tag k="lanes" v="6"/>
    <tag k="maxspeed" v="60"/>
    <tag k="name" v="Military Road"/>
    <tag k="ref" v="MR10"/>
    <tag k="source" v="survey"/>
  </way>
  <way id="45820727" version="13" timestamp="2012-07-12T14:16:59Z" uid="705018" user="jinkson" changeset="12196252">
    <nd ref="82393730"/>
    <nd ref="540119268"/>
    <nd ref="29374671"/>
    <nd ref="600325500"/>
    <nd ref="31395255"/>
    <nd ref="8656214"/>
    <nd ref="31395257"/>
    <nd ref="8779139"/>
    <tag k="highway" v="trunk"/>
    <tag k="lanes" v="6"/>
    <tag k="maxspeed" v="60"/>
    <tag k="name" v="Military Road"/>
    <tag k="ref" v="MR10"/>
    <tag k="source" v="survey"/>
  </way>
  <way id="45820727" version="14" timestamp="2012-07-12T14:23:17Z" uid="705018" user="jinkson" changeset="12196252">
    <nd ref="82393730"/>
    <nd ref="540119268"/>
    <nd ref="29374671"/>
    <nd ref="600325500"/>
    <nd ref="31395255"/>
    <nd ref="8656214"/>
    <nd ref="31395257"/>
    <nd ref="1822991421"/>
    <tag k="highway" v="trunk"/>
    <tag k="lanes" v="6"/>
    <tag k="maxspeed" v="60"/>
    <tag k="name" v="Military Road"/>
    <tag k="ref" v="MR10"/>
    <tag k="source" v="survey"/>
  </way>
  <way id="45820727" version="15" timestamp="2012-07-13T00:30:09Z" uid="705018" user="jinkson" changeset="12201938">
    <nd ref="82393730"/>
    <nd ref="1823542611"/>
    <nd ref="540119268"/>
    <nd ref="1823542618"/>
    <nd ref="1823542623"/>
    <nd ref="29374671"/>
    <nd ref="600325500"/>
    <nd ref="31395255"/>
    <nd ref="8656214"/>
    <nd ref="31395257"/>
    <nd ref="1822991421"/>
    <tag k="highway" v="trunk"/>
    <tag k="lanes" v="6"/>
    <tag k="maxspeed" v="60"/>
    <tag k="name" v="Military Road"/>
    <tag k="ref" v="MR10"/>
    <tag k="source" v="survey"/>
  </way>
  <way id="45820727" version="16" timestamp="2012-07-13T00:39:06Z" uid="705018" user="jinkson" changeset="12201938">
    <nd ref="31395215"/>
    <nd ref="82393730"/>
    <nd ref="1823542611"/>
    <nd ref="540119268"/>
    <nd ref="1823542618"/>
    <nd ref="1823542623"/>
    <nd ref="29374671"/>
    <nd ref="600325500"/>
    <nd ref="31395255"/>
    <nd ref="8656214"/>
    <nd ref="31395257"/>
    <nd ref="1822991421"/>
    <tag k="highway" v="trunk"/>
    <tag k="lanes" v="6"/>
    <tag k="maxspeed" v="60"/>
    <tag k="name" v="Military Road"/>
    <tag k="ref" v="MR10"/>
    <tag k="source" v="survey"/>
  </way>
  <way id="45820727" version="17" timestamp="2012-07-13T00:47:26Z" uid="705018" user="jinkson" changeset="12201938">
    <nd ref="1823547277"/>
    <nd ref="82393730"/>
    <nd ref="1823542611"/>
    <nd ref="540119268"/>
    <nd ref="1823542618"/>
    <nd ref="1823542623"/>
    <nd ref="600325500"/>
    <nd ref="31395255"/>
    <nd ref="8656214"/>
    <nd ref="31395257"/>
    <nd ref="1822991421"/>
    <tag k="highway" v="trunk"/>
    <tag k="lanes" v="6"/>
    <tag k="maxspeed" v="60"/>
    <tag k="name" v="Military Road"/>
    <tag k="ref" v="MR10"/>
    <tag k="source" v="survey"/>
  </way>
  <way id="45820727" version="18" timestamp="2012-07-13T00:49:23Z" uid="705018" user="jinkson" changeset="12201938"/>
  <way id="45820730" version="4" timestamp="2012-07-13T02:48:44Z" uid="705018" user="jinkson" changeset="12202261"/>
  <way id="45820731" version="6" timestamp="2012-07-13T03:00:01Z" uid="705018" user="jinkson" changeset="12202261"/>
  <way id="45820732" version="8" timestamp="2012-07-13T00:47:27Z" uid="705018" user="jinkson" changeset="12201938">
    <nd ref="120518471"/>
    <nd ref="1264487034"/>
    <nd ref="1823547277"/>
    <tag k="highway" v="trunk"/>
    <tag k="maxspeed" v="60"/>
    <tag k="name" v="Military Road"/>
    <tag k="ref" v="MR10"/>
    <tag k="source" v="survey"/>
  </way>
  <way id="45820732" version="9" timestamp="2012-07-13T03:00:01Z" uid="705018" user="jinkson" changeset="12202261"/>
  <way id="45820733" version="8" timestamp="2012-07-13T00:43:11Z" uid="705018" user="jinkson" changeset="12201938">
    <nd ref="8656215"/>
    <nd ref="31395215"/>
    <tag k="highway" v="trunk"/>
    <tag k="maxspeed" v="60"/>
    <tag k="name" v="Military Road"/>
    <tag k="ref" v="MR10"/>
    <tag k="source" v="survey"/>
  </way>
  <way id="45820733" version="9" timestamp="2012-07-13T00:47:27Z" uid="705018" user="jinkson" changeset="12201938"/>
  <way id="45820734" version="7" timestamp="2012-07-13T00:39:06Z" uid="705018" user="jinkson" changeset="12201938"/>
</osm>
