<?xml version='1.0' encoding='UTF-8'?>
<osm version="0.6" generator="libosmium/2.20.0">
  <way id="46108027" version="5" timestamp="2010-09-04T19:48:06Z" uid="9581" user="Lobelt" changeset="5682036">
    <nd ref="587752274"/>
    <nd ref="587751433"/>
    <nd ref="587751434"/>
    <nd ref="896241940"/>
    <tag k="highway" v="unclassified"/>
    <tag k="name" v="An der Weid"/>
  </way>
  <way id="46108027" version="6" timestamp="2011-06-05T20:33:45Z" uid="117878" user="catweazle69514" changeset="8353586">
    <nd ref="587752274"/>
    <nd ref="587751433"/>
    <nd ref="587751434"/>
    <nd ref="896241940"/>
    <tag k="highway" v="service"/>
    <tag k="name" v="An der Weide"/>
  </way>
  <way id="46108027" version="7" timestamp="2012-03-28T22:57:06Z" uid="110838" user="Bernhard W" changeset="11132142">
    <nd ref="587752274"/>
    <nd ref="587751433"/>
    <nd ref="587751434"/>
    <nd ref="896241940"/>
    <tag k="highway" v="service"/>
    <tag k="name" v="An der Weide"/>
    <tag k="odbl" v="clean"/>
  </way>
  <way id="46108027" version="8" timestamp="2012-03-30T22:24:19Z" uid="110838" user="Bernhard W" changeset="11160787">
    <nd ref="587752274"/>
    <nd ref="587751433"/>
    <nd ref="587751434"/>
    <nd ref="896241940"/>
    <tag k="highway" v="service"/>
    <tag k="name" v="An der Weide"/>
  </way>
  <way id="46108135" version="2" timestamp="2010-04-07T14:09:17Z" uid="20587" user="balrog-kun" changeset="4353646">
    <nd ref="587752290"/>
    <nd ref="587752291"/>
    <nd ref="587752292"/>
    <nd ref="587752293"/>
    <nd ref="587752294"/>
    <nd ref="587752295"/>
    <nd ref="587752296"/>
    <nd ref="224386124"/>
    <nd ref="224386125"/>
    <nd ref="224386127"/>
    <nd ref="224386129"/>
    <nd ref="224386131"/>
    <nd ref="224386135"/>
    <nd ref="224386139"/>
    <nd ref="224386143"/>
    <nd ref="224386148"/>
    <nd ref="224386152"/>
    <nd ref="224386156"/>
    <tag k="highway" v="residential"/>
    <tag k="name" v="Houston Street"/>
    <tag k="tiger:cfcc" v="A49"/>
    <tag k="tiger:county" v="Fort Bend, TX"/>
    <tag k="tiger:name_base" v="Houston"/>
    <tag k="tiger:name_type" v="St"/>
    <tag k="tiger:reviewed" v="no"/>
    <tag k="tiger:source" v="tiger_import_dch_v0.6_20070829"/>
    <tag k="tiger:tlid" v="78274254:78274253:78274301"/>
  </way>
  <way id="46108135" version="3" timestamp="2010-12-27T02:28:01Z" uid="119881" user="Clorox" changeset="6773961">
    <nd ref="587752290"/>
    <nd ref="587752291"/>
    <nd ref="587752292"/>
    <nd ref="587752293"/>
    <nd ref="587752294"/>
    <nd ref="587752295"/>
    <nd ref="587752296"/>
    <nd ref="224386124"/>
    <nd ref="224386125"/>
    <nd ref="224386127"/>
    <nd ref="224386129"/>
    <nd ref="224386131"/>
    <nd ref="224386135"/>
    <nd ref="224386139"/>
    <nd ref="224386143"/>
    <nd ref="224386148"/>
    <nd ref="224386152"/>
    <nd ref="224386156"/>
    <tag k="highway" v="secondary"/>
    <tag k="name" v="Houston Street"/>
    <tag k="ref" v="FM 359"/>
    <tag k="tiger:cfcc" v="A49"/>
    <tag k="tiger:county" v="Fort Bend, TX"/>
    <tag k="tiger:name_base" v="Houston"/>
    <tag k="tiger:name_type" v="St"/>
    <tag k="tiger:reviewed" v="no"/>
    <tag k="tiger:source" v="tiger_import_dch_v0.6_20070829"/>
    <tag k="tiger:tlid" v="78274254:78274253:78274301"/>
  </way>
  <way id="46108135" version="4" timestamp="2010-12-31T01:56:07Z" uid="119881" user="Clorox" changeset="6816027">
    <nd ref="587752290"/>
    <nd ref="587752291"/>
    <nd ref="587752292"/>
    <nd ref="587752293"/>
    <nd ref="587752294"/>
    <nd ref="587752295"/>
    <nd ref="587752296"/>
    <nd ref="224386124"/>
    <nd ref="224386125"/>
    <nd ref="224386127"/>
    <nd ref="224386129"/>
    <nd ref="224386131"/>
    <nd ref="224386135"/>
    <nd ref="224386139"/>
    <nd ref="224386143"/>
    <nd ref="224386148"/>
    <nd ref="224386152"/>
    <nd ref="224386156"/>
    <tag k="highway" v="secondary"/>
    <tag k="name" v="Houston Street"/>
    <tag k="ref" v="FM 723"/>
    <tag k="tiger:cfcc" v="A49"/>
    <tag k="tiger:county" v="Fort Bend, TX"/>
    <tag k="tiger:name_base" v="Houston"/>
    <tag k="tiger:name_type" v="St"/>
    <tag k="tiger:reviewed" v="no"/>
    <tag k="tiger:source" v="tiger_import_dch_v0.6_20070829"/>
    <tag k="tiger:tlid" v="78274254:78274253:78274301"/>
  </way>
  <way id="46108136" version="2" timestamp="2010-04-07T14:09:17Z" uid="20587" user="balrog-kun" changeset="4353646">
    <nd ref="224227896"/>
    <nd ref="224533045"/>
    <nd ref="224227875"/>
    <nd ref="224508365"/>
    <nd ref="224202749"/>
    <nd ref="224595260"/>
    <nd ref="224227914"/>
    <nd ref="224595263"/>
    <nd ref="224217311"/>
    <nd ref="224436370"/>
    <nd ref="224217347"/>
    <nd ref="224532509"/>
    <nd ref="224217362"/>
    <nd ref="224514258"/>
    <nd ref="224240179"/>
    <nd ref="224595266"/>
    <tag k="highway" v="residential"/>
    <tag k="name" v="Avenue East"/>
    <tag k="tiger:cfcc" v="A41"/>
    <tag k="tiger:county" v="Fort Bend, TX"/>
    <tag k="tiger:name_base" v="Avenue E"/>
    <tag k="tiger:reviewed" v="no"/>
    <tag k="tiger:separated" v="no"/>
    <tag k="tiger:source" v="tiger_import_dch_v0.6_20070829"/>
    <tag k="tiger:tlid" v="78339533:78339534:78339561:78339562"/>
    <tag k="tiger:zip_left" v="77471"/>
  </way>
  <way id="46108136" version="3" timestamp="2010-04-07T23:50:26Z" uid="20587" user="balrog-kun" changeset="4360328">
    <nd ref="224227896"/>
    <nd ref="224533045"/>
    <nd ref="224227875"/>
    <nd ref="224508365"/>
    <nd ref="224202749"/>
    <nd ref="224595260"/>
    <nd ref="224227914"/>
    <nd ref="224595263"/>
    <nd ref="224217311"/>
    <nd ref="224436370"/>
    <nd ref="224217347"/>
    <nd ref="224532509"/>
    <nd ref="224217362"/>
    <nd ref="224514258"/>
    <nd ref="224240179"/>
    <nd ref="224595266"/>
    <tag k="highway" v="residential"/>
    <tag k="name" v="Avenue E"/>
    <tag k="tiger:cfcc" v="A41"/>
    <tag k="tiger:county" v="Fort Bend, TX"/>
    <tag k="tiger:name_base" v="Avenue E"/>
    <tag k="tiger:reviewed" v="no"/>
    <tag k="tiger:separated" v="no"/>
    <tag k="tiger:source" v="tiger_import_dch_v0.6_20070829"/>
    <tag k="tiger:tlid" v="78339533:78339534:78339561:78339562"/>
    <tag k="tiger:zip_left" v="77471"/>
  </way>
  <way id="46108138" version="2" timestamp="2010-04-07T14:09:18Z" uid="20587" user="balrog-kun" changeset="4353646">
    <nd ref="224533367"/>
    <nd ref="587752290"/>
    <tag k="highway" v="residential"/>
    <tag k="name" v="1st Street"/>
    <tag k="tiger:cfcc" v="A41"/>
    <tag k="tiger:county" v="Fort Bend, TX"/>
    <tag k="tiger:name_base" v="1st"/>
    <tag k="tiger:name_type" v="St"/>
    <tag k="tiger:reviewed" v="no"/>
    <tag k="tiger:separated" v="no"/>
    <tag k="tiger:source" v="tiger_import_dch_v0.6_20070829"/>
    <tag k="tiger:tlid" v="78275284"/>
  </way>
  <way id="46108138" version="3" timestamp="2010-12-27T02:28:02Z" uid="119881" user="Clorox" changeset="6773961">
    <nd ref="224533367"/>
    <nd ref="587752290"/>
    <tag k="highway" v="secondary"/>
    <tag k="name" v="1st Street"/>
    <tag k="ref" v="FM 359"/>
    <tag k="tiger:cfcc" v="A41"/>
    <tag k="tiger:county" v="Fort Bend, TX"/>
    <tag k="tiger:name_base" v="1st"/>
    <tag k="tiger:name_type" v="St"/>
    <tag k="tiger:reviewed" v="no"/>
    <tag k="tiger:separated" v="no"/>
    <tag k="tiger:source" v="tiger_import_dch_v0.6_20070829"/>
    <tag k="tiger:tlid" v="78275284"/>
  </way>
  <way id="46108138" version="4" timestamp="2010-12-31T01:56:07Z" uid="119881" user="Clorox" changeset="6816027">
    <nd ref="224533367"/>
    <nd ref="587752290"/>
    <tag k="highway" v="secondary"/>
    <tag k="name" v="1st Street"/>
    <tag k="ref" v="FM 723"/>
    <tag k="tiger:cfcc" v="A41"/>
    <tag k="tiger:county" v="Fort Bend, TX"/>
    <tag k="tiger:name_base" v="1st"/>
    <tag k="tiger:name_type" v="St"/>
    <tag k="tiger:reviewed" v="no"/>
    <tag k="tiger:separated" v="no"/>
    <tag k="tiger:source" v="tiger_import_dch_v0.6_20070829"/>
    <tag k="tiger:tlid" v="78275284"/>
  </way>
  <way id="46108151" version="6" timestamp="2010-09-04T19:48:06Z" uid="9581" user="Lobelt" changeset="5682036">
    <nd ref="587752633"/>
    <nd ref="620021623"/>
    <tag k="highway" v="service"/>
    <tag k="name" v="Weschnitz-Siedlung"/>
  </way>
  <way id="46108866" version="3" timestamp="2010-04-06T02:29:09Z" uid="74617" user="JohnSmith" changeset="4340057">
    <nd ref="587760219"/>
    <nd ref="587760221"/>
    <tag k="highway" v="trunk"/>
    <tag k="name" v="Brighton Road"/>
  </way>
  <way id="46108866" version="4" timestamp="2011-03-25T06:21:27Z" uid="11111" user="melb_guy" changeset="7662252">
    <nd ref="587760219"/>
    <nd ref="587760221"/>
    <tag k="highway" v="trunk_link"/>
    <tag k="oneway" v="yes"/>
  </way>
  <way id="46108866" version="5" timestamp="2011-03-25T06:43:28Z" uid="11111" user="melb_guy" changeset="7662252">
    <nd ref="1217123004"/>
    <nd ref="587760221"/>
    <tag k="highway" v="trunk_link"/>
    <tag k="oneway" v="yes"/>
  </way>
  <way id="46108893" version="2" timestamp="2010-04-06T02:29:09Z" uid="74617" user="JohnSmith" changeset="4340057">
    <nd ref="587760406"/>
    <nd ref="587760493"/>
    <tag k="highway" v="trunk"/>
    <tag k="name" v="Brighton Road"/>
  </way>
  <way id="46108893" version="3" timestamp="2010-05-25T12:27:07Z" uid="57437" user="Canley" changeset="4803146">
    <nd ref="587760406"/>
    <nd ref="747807954"/>
    <tag k="highway" v="trunk"/>
    <tag k="name" v="Brighton Road"/>
  </way>
  <way id="46108893" version="4" timestamp="2011-03-25T06:43:29Z" uid="11111" user="melb_guy" changeset="7662252">
    <nd ref="587760406"/>
    <nd ref="747807954"/>
    <tag k="highway" v="trunk_link"/>
    <tag k="oneway" v="yes"/>
  </way>
  <way id="46108027" version="9" timestamp="2012-07-17T02:14:31Z" uid="722137" user="OSMF Redaction Account" changeset="12255249">
    <nd ref="587752274"/>
    <nd ref="587751433"/>
    <nd ref="587751434"/>
    <tag k="highway" v="service"/>
    <tag k="name" v="An der Weide"/>
  </way>
  <way id="46108027" version="10" timestamp="2012-08-19T01:57:12Z" uid="680576" user="mushroommapper" changeset="12778759">
    <nd ref="587752274"/>
    <nd ref="587751433"/>
    <nd ref="587751434"/>
    <tag k="highway" v="service"/>
    <tag k="lit" v="no"/>
    <tag k="name" v="An der Weide"/>
  </way>
  <way id="46108151" version="7" timestamp="2012-07-17T03:55:41Z" uid="722137" user="OSMF Redaction Account" changeset="12256432">
    <nd ref="587752633"/>
    <nd ref="620021623"/>
    <tag k="highway" v="unclassified"/>
    <tag k="name" v="Weschnitz-Siedlung"/>
  </way>
  <way id="46108151" version="8" timestamp="2012-07-20T22:44:29Z" uid="680576" user="mushroommapper" changeset="12394969">
    <nd ref="587752633"/>
    <nd ref="620021623"/>
    <tag k="highway" v="service"/>
    <tag k="name" v="Weschnitz-Siedlung"/>
  </way>
  <way id="46108151" version="9" timestamp="2012-08-26T03:26:20Z" uid="117878" user="catweazle69514" changeset="12861956">
    <nd ref="587752633"/>
    <nd ref="620021623"/>
    <tag k="bridge" v="yes"/>
    <tag k="highway" v="service"/>
    <tag k="name" v="Weschnitz-Siedlung"/>
  </way>
</osm>
