<?xml version='1.0' encoding='UTF-8'?>
<osm version="0.6" generator="libosmium/2.20.0">
  <way id="46282294" version="3" timestamp="2010-07-09T03:49:26Z" uid="74617" user="JohnSmith" changeset="5170825">
    <nd ref="591374092"/>
    <nd ref="591374097"/>
    <nd ref="599848371"/>
    <nd ref="591374100"/>
    <tag k="highway" v="residential"/>
    <tag k="maxspeed" v="50"/>
    <tag k="maxspeed:source" v="default residential speed limit in Australia"/>
    <tag k="name" v="Bellavista Court"/>
  </way>
  <way id="46282294" version="4" timestamp="2012-01-19T15:19:46Z" uid="147510" user="woodpeck_fixbot" changeset="10436041">
    <nd ref="591374092"/>
    <nd ref="591374097"/>
    <nd ref="599848371"/>
    <nd ref="591374100"/>
    <tag k="highway" v="residential"/>
    <tag k="name" v="Bellavista Court"/>
  </way>
  <way id="46282304" version="5" timestamp="2010-07-09T03:48:28Z" uid="74617" user="JohnSmith" changeset="5170825">
    <nd ref="591374100"/>
    <nd ref="591374106"/>
    <nd ref="599900540"/>
    <nd ref="591374109"/>
    <nd ref="591374113"/>
    <nd ref="591374116"/>
    <nd ref="591374118"/>
    <nd ref="609993830"/>
    <nd ref="591374138"/>
    <nd ref="591374143"/>
    <nd ref="609993820"/>
    <nd ref="591374145"/>
    <nd ref="591374147"/>
    <nd ref="591374150"/>
    <nd ref="591392054"/>
    <tag k="highway" v="residential"/>
    <tag k="maxspeed" v="50"/>
    <tag k="maxspeed:source" v="default residential speed limit in Australia"/>
    <tag k="name" v="River Avenue"/>
  </way>
  <way id="46282304" version="6" timestamp="2012-01-19T15:19:47Z" uid="147510" user="woodpeck_fixbot" changeset="10436041">
    <nd ref="591374100"/>
    <nd ref="591374106"/>
    <nd ref="599900540"/>
    <nd ref="591374109"/>
    <nd ref="591374113"/>
    <nd ref="591374116"/>
    <nd ref="591374118"/>
    <nd ref="609993830"/>
    <nd ref="591374138"/>
    <nd ref="591374143"/>
    <nd ref="609993820"/>
    <nd ref="591374145"/>
    <nd ref="591374147"/>
    <nd ref="591374150"/>
    <nd ref="591392054"/>
    <tag k="highway" v="residential"/>
    <tag k="name" v="River Avenue"/>
  </way>
  <way id="46282308" version="6" timestamp="2010-05-03T08:41:28Z" uid="4467" user="Rosscoe" changeset="4592736">
    <nd ref="591374162"/>
    <nd ref="599900532"/>
    <nd ref="599901521"/>
    <nd ref="591374165"/>
    <nd ref="607718944"/>
    <nd ref="718488504"/>
    <tag k="highway" v="residential"/>
    <tag k="name" v="Memorial Drive"/>
  </way>
  <way id="46282308" version="7" timestamp="2010-07-09T03:49:44Z" uid="74617" user="JohnSmith" changeset="5170825">
    <nd ref="591374162"/>
    <nd ref="599900532"/>
    <nd ref="599901521"/>
    <nd ref="591374165"/>
    <nd ref="607718944"/>
    <nd ref="718488504"/>
    <tag k="highway" v="residential"/>
    <tag k="maxspeed" v="50"/>
    <tag k="maxspeed:source" v="default residential speed limit in Australia"/>
    <tag k="name" v="Memorial Drive"/>
  </way>
  <way id="46282308" version="8" timestamp="2012-01-19T15:19:49Z" uid="147510" user="woodpeck_fixbot" changeset="10436041">
    <nd ref="591374162"/>
    <nd ref="599900532"/>
    <nd ref="599901521"/>
    <nd ref="591374165"/>
    <nd ref="607718944"/>
    <nd ref="718488504"/>
    <tag k="highway" v="residential"/>
    <tag k="name" v="Memorial Drive"/>
  </way>
  <way id="46282310" version="6" timestamp="2010-05-03T08:41:34Z" uid="4467" user="Rosscoe" changeset="4592736">
    <nd ref="591374168"/>
    <nd ref="718488606"/>
    <nd ref="599901523"/>
    <nd ref="599900552"/>
    <nd ref="600202140"/>
    <tag k="highway" v="residential"/>
    <tag k="name" v="Howell Road"/>
    <tag k="surface" v="unpaved"/>
  </way>
  <way id="46282310" version="7" timestamp="2010-07-09T03:45:57Z" uid="74617" user="JohnSmith" changeset="5170825">
    <nd ref="591374168"/>
    <nd ref="718488606"/>
    <nd ref="599901523"/>
    <nd ref="599900552"/>
    <nd ref="600202140"/>
    <tag k="highway" v="residential"/>
    <tag k="maxspeed" v="50"/>
    <tag k="maxspeed:source" v="default residential speed limit in Australia"/>
    <tag k="name" v="Howell Road"/>
    <tag k="surface" v="unpaved"/>
  </way>
  <way id="46282310" version="8" timestamp="2012-01-19T15:19:51Z" uid="147510" user="woodpeck_fixbot" changeset="10436041">
    <nd ref="591374168"/>
    <nd ref="718488606"/>
    <nd ref="599901523"/>
    <nd ref="599900552"/>
    <nd ref="600202140"/>
    <tag k="highway" v="residential"/>
    <tag k="name" v="Howell Road"/>
    <tag k="surface" v="unpaved"/>
  </way>
  <way id="46282312" version="2" timestamp="2010-07-09T03:45:36Z" uid="74617" user="JohnSmith" changeset="5170825">
    <nd ref="591374165"/>
    <nd ref="591374183"/>
    <nd ref="591374113"/>
    <tag k="highway" v="residential"/>
    <tag k="maxspeed" v="50"/>
    <tag k="maxspeed:source" v="default residential speed limit in Australia"/>
    <tag k="name" v="Mc Lennans Road"/>
    <tag k="surface" v="unpaved"/>
  </way>
  <way id="46282312" version="3" timestamp="2012-01-19T15:19:52Z" uid="147510" user="woodpeck_fixbot" changeset="10436041">
    <nd ref="591374165"/>
    <nd ref="591374183"/>
    <nd ref="591374113"/>
    <tag k="highway" v="residential"/>
    <tag k="name" v="Mc Lennans Road"/>
    <tag k="surface" v="unpaved"/>
  </way>
  <way id="46282308" version="9" timestamp="2012-04-14T05:20:54Z" uid="69319" user="Rhubarb" changeset="11294862">
    <nd ref="591374162"/>
    <nd ref="599900532"/>
    <nd ref="599901521"/>
    <nd ref="591374165"/>
    <nd ref="1715746384"/>
    <tag k="highway" v="residential"/>
    <tag k="name" v="Memorial Drive"/>
  </way>
  <way id="46282310" version="9" timestamp="2012-04-14T05:20:54Z" uid="69319" user="Rhubarb" changeset="11294862">
    <nd ref="1715746396"/>
    <nd ref="1715746393"/>
    <nd ref="1715746394"/>
    <nd ref="599900552"/>
    <nd ref="600202140"/>
    <tag k="highway" v="residential"/>
    <tag k="name" v="Howell Road"/>
    <tag k="surface" v="unpaved"/>
  </way>
</osm>
