<?xml version='1.0' encoding='UTF-8'?>
<osm version="0.6" generator="libosmium/2.20.0">
  <way id="46333027" version="1" timestamp="2009-12-15T09:02:49Z" uid="4467" user="Rosscoe" changeset="3377719">
    <nd ref="591627958"/>
    <nd ref="591627959"/>
    <nd ref="591627963"/>
    <nd ref="591627965"/>
    <nd ref="591627967"/>
    <nd ref="591627969"/>
    <nd ref="591627960"/>
    <nd ref="591627956"/>
    <nd ref="591627957"/>
    <nd ref="591627953"/>
    <nd ref="591627955"/>
    <nd ref="591627961"/>
    <nd ref="591627958"/>
    <tag k="amenity" v="school"/>
  </way>
  <way id="46333027" version="2" timestamp="2010-07-04T03:50:32Z" uid="57437" user="Canley" changeset="5129480">
    <nd ref="591627958"/>
    <nd ref="591627959"/>
    <nd ref="591627963"/>
    <nd ref="591627965"/>
    <nd ref="591627967"/>
    <nd ref="591627969"/>
    <nd ref="591627960"/>
    <nd ref="591627956"/>
    <nd ref="591627957"/>
    <nd ref="591627953"/>
    <nd ref="591627955"/>
    <nd ref="591627961"/>
    <nd ref="591627958"/>
    <tag k="addr:city" v="Dallas"/>
    <tag k="addr:housenumber" v="46"/>
    <tag k="addr:postcode" v="3047"/>
    <tag k="addr:street" v="Kiewa Crescent"/>
    <tag k="amenity" v="school"/>
    <tag k="attribution" v="Department of Education and Early Childhood Development"/>
    <tag k="name" v="Dallas Primary School"/>
    <tag k="phone" v="+61 3 93091181"/>
    <tag k="source" v="nearmap"/>
    <tag k="source:data" v="data.vic.gov.au"/>
    <tag k="website" v="http://www.dallasps.vic.edu.au/"/>
  </way>
  <way id="46333027" version="3" timestamp="2011-01-13T04:24:39Z" uid="57437" user="Canley" changeset="6953971">
    <nd ref="591627958"/>
    <nd ref="591627959"/>
    <nd ref="591627963"/>
    <nd ref="591627965"/>
    <nd ref="591627967"/>
    <nd ref="591627969"/>
    <nd ref="591627960"/>
    <nd ref="591627956"/>
    <nd ref="591627957"/>
    <nd ref="591627953"/>
    <nd ref="591627955"/>
    <nd ref="591627961"/>
    <nd ref="591627958"/>
    <tag k="addr:city" v="Dallas"/>
    <tag k="addr:housenumber" v="46"/>
    <tag k="addr:postcode" v="3047"/>
    <tag k="addr:street" v="Kiewa Crescent"/>
    <tag k="amenity" v="school"/>
    <tag k="attribution" v="Department of Education and Early Childhood Development"/>
    <tag k="name" v="Dallas Brooks Community Primary School (Dallas Campus)"/>
    <tag k="old_name" v="Dallas Primary School"/>
    <tag k="phone" v="+61 3 93091181"/>
    <tag k="source" v="nearmap"/>
    <tag k="source:data" v="data.vic.gov.au"/>
    <tag k="website" v="http://www.dallasps.vic.edu.au/"/>
  </way>
  <way id="46333128" version="1" timestamp="2009-12-15T09:08:42Z" uid="4467" user="Rosscoe" changeset="3377746">
    <nd ref="591640945"/>
    <nd ref="591640939"/>
    <nd ref="591640942"/>
    <nd ref="591640924"/>
    <nd ref="591640926"/>
    <nd ref="591640928"/>
    <nd ref="591640930"/>
    <nd ref="591640933"/>
    <nd ref="591640936"/>
    <nd ref="591640943"/>
    <nd ref="591640945"/>
    <tag k="amenity" v="school"/>
  </way>
  <way id="46333129" version="1" timestamp="2009-12-15T09:08:42Z" uid="4467" user="Rosscoe" changeset="3377746">
    <nd ref="591641012"/>
    <nd ref="591641023"/>
    <nd ref="591640947"/>
    <nd ref="591640950"/>
    <nd ref="591640971"/>
    <nd ref="591640974"/>
    <nd ref="591640977"/>
    <nd ref="591640988"/>
    <nd ref="591640989"/>
    <nd ref="591641012"/>
    <tag k="leisure" v="park"/>
    <tag k="source" v="nearmap"/>
  </way>
  <way id="46333130" version="1" timestamp="2009-12-15T09:08:42Z" uid="4467" user="Rosscoe" changeset="3377746">
    <nd ref="591640953"/>
    <nd ref="591640956"/>
    <nd ref="591640958"/>
    <nd ref="591640961"/>
    <nd ref="591640964"/>
    <nd ref="591640966"/>
    <nd ref="591640967"/>
    <nd ref="591640969"/>
    <nd ref="591640953"/>
    <tag k="leisure" v="playground"/>
    <tag k="source" v="nearmap"/>
  </way>
  <way id="46333131" version="1" timestamp="2009-12-15T09:08:42Z" uid="4467" user="Rosscoe" changeset="3377746">
    <nd ref="591640991"/>
    <nd ref="591640993"/>
    <nd ref="591640996"/>
    <nd ref="591640998"/>
    <nd ref="591641001"/>
    <nd ref="591641004"/>
    <nd ref="591641008"/>
    <nd ref="591640980"/>
    <nd ref="591640983"/>
    <nd ref="591640985"/>
    <nd ref="591641010"/>
    <nd ref="591640991"/>
    <tag k="leisure" v="playground"/>
    <tag k="source" v="nearmap"/>
  </way>
  <way id="46333132" version="1" timestamp="2009-12-15T09:08:42Z" uid="4467" user="Rosscoe" changeset="3377746">
    <nd ref="591641026"/>
    <nd ref="591641014"/>
    <nd ref="591641017"/>
    <nd ref="591641020"/>
    <nd ref="591641026"/>
    <tag k="source" v="nearmap"/>
    <tag k="sport" v="basketball"/>
  </way>
  <way id="46333222" version="3" timestamp="2010-03-28T11:32:08Z" uid="20587" user="balrog-kun" changeset="4254597">
    <nd ref="92823965"/>
    <nd ref="591655513"/>
    <nd ref="92823967"/>
    <nd ref="92823969"/>
    <nd ref="92820570"/>
    <nd ref="92811189"/>
    <nd ref="92823970"/>
    <nd ref="92820564"/>
    <nd ref="92822472"/>
    <tag k="highway" v="secondary"/>
    <tag k="name" v="Humphrey Road"/>
    <tag k="name_1" v="North Humphrey Road"/>
    <tag k="tiger:cfcc" v="A41"/>
    <tag k="tiger:county" v="Sutter, CA"/>
    <tag k="tiger:name_base" v="Humphrey"/>
    <tag k="tiger:name_base_1" v="Humphrey"/>
    <tag k="tiger:name_direction_prefix_1" v="N"/>
    <tag k="tiger:name_type" v="Rd"/>
    <tag k="tiger:name_type_1" v="Rd"/>
    <tag k="tiger:reviewed" v="no"/>
    <tag k="tiger:separated" v="no"/>
    <tag k="tiger:source" v="tiger_import_dch_v0.6_20070809"/>
    <tag k="tiger:tlid" v="68567044:68584258:68584259:68567049:68567052:68567060:68580311:68567082:68580312:68567058"/>
    <tag k="tiger:zip_left" v="95993"/>
    <tag k="tiger:zip_right" v="95993"/>
  </way>
  <way id="46333648" version="1" timestamp="2009-12-15T09:19:32Z" uid="4467" user="Rosscoe" changeset="3377796">
    <nd ref="591663494"/>
    <nd ref="591663496"/>
    <nd ref="591663498"/>
    <nd ref="591663501"/>
    <nd ref="591663488"/>
    <nd ref="591663491"/>
    <nd ref="591663471"/>
    <nd ref="591663474"/>
    <nd ref="591663477"/>
    <nd ref="591663481"/>
    <nd ref="591663484"/>
    <nd ref="591663502"/>
    <nd ref="591663494"/>
    <tag k="amenity" v="school"/>
    <tag k="source" v="nearmap"/>
  </way>
  <way id="46333648" version="2" timestamp="2010-07-04T03:56:17Z" uid="57437" user="Canley" changeset="5129480">
    <nd ref="591663494"/>
    <nd ref="591663496"/>
    <nd ref="591663498"/>
    <nd ref="591663501"/>
    <nd ref="591663488"/>
    <nd ref="591663491"/>
    <nd ref="591663471"/>
    <nd ref="591663474"/>
    <nd ref="591663477"/>
    <nd ref="591663481"/>
    <nd ref="591663484"/>
    <nd ref="591663502"/>
    <nd ref="591663494"/>
    <tag k="addr:city" v="Broadmeadows"/>
    <tag k="addr:postcode" v="3047"/>
    <tag k="addr:street" v="Koroit Avenue"/>
    <tag k="amenity" v="school"/>
    <tag k="attribution" v="Department of Education and Early Childhood Development"/>
    <tag k="name" v="Hume Valley School"/>
    <tag k="phone" v="+61 3 93093477"/>
    <tag k="source" v="nearmap"/>
    <tag k="source:data" v="data.vic.gov.au"/>
    <tag k="website" v="http://www.humevalley.vic.edu.au/"/>
  </way>
  <way id="46333027" version="4" timestamp="2012-07-19T10:39:01Z" uid="722137" user="OSMF Redaction Account" changeset="12319039"/>
  <way id="46333128" version="2" timestamp="2012-07-19T10:39:11Z" uid="722137" user="OSMF Redaction Account" changeset="12319073"/>
  <way id="46333129" version="2" timestamp="2012-07-19T10:39:07Z" uid="722137" user="OSMF Redaction Account" changeset="12319073"/>
  <way id="46333130" version="2" timestamp="2012-07-19T10:39:05Z" uid="722137" user="OSMF Redaction Account" changeset="12319073"/>
  <way id="46333131" version="2" timestamp="2012-07-19T10:39:06Z" uid="722137" user="OSMF Redaction Account" changeset="12319073"/>
  <way id="46333132" version="2" timestamp="2012-07-19T10:39:06Z" uid="722137" user="OSMF Redaction Account" changeset="12319073"/>
  <way id="46333648" version="3" timestamp="2012-07-19T10:39:05Z" uid="722137" user="OSMF Redaction Account" changeset="12319073"/>
</osm>
