<?xml version='1.0' encoding='UTF-8'?>
<osm version="0.6" generator="libosmium/2.20.0">
  <way id="46434380" version="3" timestamp="2010-03-28T11:32:28Z" uid="20587" user="balrog-kun" changeset="4254597">
    <nd ref="593849405"/>
    <nd ref="593849408"/>
    <nd ref="593849411"/>
    <nd ref="593849435"/>
    <nd ref="593849439"/>
    <tag k="highway" v="residential"/>
    <tag k="name" v="Vincennes Court"/>
    <tag k="source" v="yahoo_imagery;LACA"/>
    <tag k="source_ref" v="ABK8673-020"/>
  </way>
  <way id="46434381" version="3" timestamp="2010-03-28T11:32:28Z" uid="20587" user="balrog-kun" changeset="4254597">
    <nd ref="593849422"/>
    <nd ref="593849426"/>
    <nd ref="593849432"/>
    <nd ref="593849430"/>
    <tag k="highway" v="residential"/>
    <tag k="name" v="Strasbourg Court"/>
    <tag k="source" v="yahoo_imagery;LACA"/>
    <tag k="source_ref" v="ABK8673-020"/>
  </way>
  <way id="46434384" version="3" timestamp="2010-03-28T11:32:29Z" uid="20587" user="balrog-kun" changeset="4254597">
    <nd ref="123418251"/>
    <nd ref="593849449"/>
    <tag k="highway" v="residential"/>
    <tag k="name" v="Adirondack Lane"/>
    <tag k="source" v="yahoo_imagery;LACA"/>
    <tag k="source_ref" v="ABK8673-022;TR1243-073"/>
  </way>
  <way id="46434380" version="4" timestamp="2012-04-07T00:37:44Z" uid="82317" user="AM909" changeset="11208420">
    <nd ref="1705264915"/>
    <nd ref="593849408"/>
    <nd ref="1705280050"/>
    <nd ref="593849411"/>
    <nd ref="593849435"/>
    <nd ref="593849439"/>
    <tag k="highway" v="residential"/>
    <tag k="name" v="Vincennes Court"/>
    <tag k="source" v="yahoo_imagery;LACA"/>
    <tag k="source_ref" v="ABK8673-020"/>
  </way>
  <way id="46434380" version="5" timestamp="2012-04-19T21:33:55Z" uid="82317" user="AM909" changeset="11358687">
    <nd ref="1705264915"/>
    <nd ref="593849408"/>
    <nd ref="1705280050"/>
    <nd ref="593849411"/>
    <nd ref="593849435"/>
    <nd ref="593849439"/>
    <tag k="highway" v="residential"/>
    <tag k="name" v="Vincennes Court"/>
    <tag k="odbl" v="clean"/>
    <tag k="source" v="yahoo_imagery;LACA"/>
    <tag k="source_ref" v="ABK8673-020"/>
  </way>
  <way id="46434381" version="4" timestamp="2012-04-19T21:33:52Z" uid="82317" user="AM909" changeset="11358687">
    <nd ref="593849422"/>
    <nd ref="593849426"/>
    <nd ref="593849432"/>
    <nd ref="593849430"/>
    <tag k="highway" v="residential"/>
    <tag k="name" v="Strasbourg Court"/>
    <tag k="odbl" v="clean"/>
    <tag k="source" v="yahoo_imagery;LACA"/>
    <tag k="source_ref" v="ABK8673-020"/>
  </way>
  <way id="46434381" version="5" timestamp="2012-05-02T15:50:58Z" uid="82317" user="AM909" changeset="11480728">
    <nd ref="1738392965"/>
    <nd ref="1738392964"/>
    <nd ref="1738392963"/>
    <nd ref="1738392962"/>
    <nd ref="1738392961"/>
    <nd ref="593849430"/>
    <tag k="highway" v="residential"/>
    <tag k="name" v="Strasbourg Court"/>
    <tag k="odbl" v="clean"/>
    <tag k="source" v="bing_imagery_0.06m_200801;LACA"/>
    <tag k="source_ref" v="ABK8673-020"/>
  </way>
  <way id="46434384" version="4" timestamp="2012-04-19T21:33:26Z" uid="82317" user="AM909" changeset="11358687">
    <nd ref="123418251"/>
    <nd ref="593849449"/>
    <tag k="highway" v="residential"/>
    <tag k="name" v="Adirondack Lane"/>
    <tag k="odbl" v="clean"/>
    <tag k="source" v="yahoo_imagery;LACA"/>
    <tag k="source_ref" v="ABK8673-022;TR1243-073"/>
  </way>
</osm>
