<?xml version='1.0' encoding='UTF-8'?>
<osm version="0.6" generator="libosmium/2.20.0">
  <way id="46603500" version="2" timestamp="2010-04-07T14:10:42Z" uid="20587" user="balrog-kun" changeset="4353646">
    <nd ref="227448594"/>
    <nd ref="227450019"/>
    <nd ref="227447839"/>
    <tag k="highway" v="residential"/>
    <tag k="name" v="Poplar Avenue"/>
    <tag k="tiger:cfcc" v="A41"/>
    <tag k="tiger:county" v="Motley, TX"/>
    <tag k="tiger:name_base" v="Poplar"/>
    <tag k="tiger:name_type" v="Ave"/>
    <tag k="tiger:reviewed" v="no"/>
    <tag k="tiger:separated" v="no"/>
    <tag k="tiger:source" v="tiger_import_dch_v0.6_20070830"/>
    <tag k="tiger:tlid" v="185200899"/>
  </way>
  <way id="46603671" version="1" timestamp="2009-12-18T10:52:51Z" uid="23543" user="jkjk" changeset="3399582">
    <nd ref="319676020"/>
    <nd ref="319676021"/>
    <nd ref="319676022"/>
    <nd ref="319676023"/>
    <nd ref="319676024"/>
    <nd ref="319676025"/>
    <nd ref="319676026"/>
    <nd ref="257740406"/>
    <tag k="highway" v="primary"/>
    <tag k="ref" v="18"/>
    <tag k="source_ref" v="www.ssc.sk"/>
  </way>
  <way id="46603671" version="2" timestamp="2010-07-18T22:59:42Z" uid="1994" user="didoa" changeset="5256403">
    <nd ref="319676020"/>
    <nd ref="319676021"/>
    <nd ref="319676022"/>
    <nd ref="319676023"/>
    <nd ref="319676024"/>
    <nd ref="319676025"/>
    <nd ref="319676026"/>
    <nd ref="257740406"/>
    <tag k="highway" v="primary"/>
    <tag k="ref" v="18"/>
    <tag k="source:ref" v="www.ssc.sk"/>
  </way>
  <way id="46603672" version="1" timestamp="2009-12-18T10:52:52Z" uid="23543" user="jkjk" changeset="3399582">
    <nd ref="29488303"/>
    <nd ref="28889337"/>
    <nd ref="384621927"/>
    <nd ref="384730658"/>
    <nd ref="28889338"/>
    <tag k="abutters" v="residential"/>
    <tag k="highway" v="primary"/>
    <tag k="is_in" v="Prešov"/>
    <tag k="lanes" v="2"/>
    <tag k="name" v="Duklianska"/>
    <tag k="ref" v="18"/>
  </way>
  <way id="46603672" version="2" timestamp="2010-08-19T13:15:08Z" uid="300784" user="AlfonZ" changeset="5535233">
    <nd ref="29488303"/>
    <nd ref="28889337"/>
    <nd ref="384621927"/>
    <nd ref="384730658"/>
    <nd ref="28889338"/>
    <tag k="abutters" v="residential"/>
    <tag k="highway" v="primary"/>
    <tag k="is_in" v="Prešov"/>
    <tag k="lanes" v="2"/>
    <tag k="maxheight" v="4.5"/>
    <tag k="name" v="Duklianska"/>
    <tag k="ref" v="18"/>
    <tag k="trolley_wire" v="yes"/>
  </way>
  <way id="46603672" version="3" timestamp="2010-08-19T13:40:25Z" uid="300784" user="AlfonZ" changeset="5535233">
    <nd ref="29488303"/>
    <nd ref="28889337"/>
    <nd ref="384621927"/>
    <nd ref="384730658"/>
    <nd ref="28889338"/>
    <tag k="abutters" v="residential"/>
    <tag k="highway" v="primary"/>
    <tag k="is_in" v="Prešov"/>
    <tag k="lanes" v="2"/>
    <tag k="maxheight" v="4.5"/>
    <tag k="name" v="Duklianska"/>
    <tag k="ref" v="18"/>
    <tag k="trolley_wire" v="yes"/>
  </way>
  <way id="46603672" version="4" timestamp="2010-10-13T22:36:08Z" uid="70938" user="isidor" changeset="6034514">
    <nd ref="29488303"/>
    <nd ref="947341321"/>
    <nd ref="28889337"/>
    <nd ref="947343368"/>
    <nd ref="384621927"/>
    <nd ref="947336595"/>
    <nd ref="947343786"/>
    <nd ref="384730658"/>
    <nd ref="28889338"/>
    <tag k="abutters" v="residential"/>
    <tag k="highway" v="primary"/>
    <tag k="is_in" v="Prešov"/>
    <tag k="lanes" v="2"/>
    <tag k="maxheight" v="4.5"/>
    <tag k="name" v="Duklianska"/>
    <tag k="ref" v="18"/>
    <tag k="trolley_wire" v="yes"/>
  </way>
  <way id="46603671" version="3" timestamp="2012-07-25T08:40:58Z" uid="722137" user="OSMF Redaction Account" changeset="12483395"/>
  <way id="46603672" version="5" timestamp="2012-04-07T12:52:04Z" uid="138497" user="Malin" changeset="11213596">
    <nd ref="29488303"/>
    <nd ref="947341321"/>
    <nd ref="28889337"/>
    <nd ref="947343368"/>
    <nd ref="384621927"/>
    <nd ref="947336595"/>
    <nd ref="947343786"/>
    <nd ref="384730658"/>
    <nd ref="28889338"/>
    <tag k="abutters" v="residential"/>
    <tag k="highway" v="primary"/>
    <tag k="int_ref" v="E 371"/>
    <tag k="is_in" v="Prešov"/>
    <tag k="lanes" v="2"/>
    <tag k="maxheight" v="4.5"/>
    <tag k="name" v="Duklianska"/>
    <tag k="ref" v="18"/>
    <tag k="trolley_wire" v="yes"/>
  </way>
  <way id="46603672" version="6" timestamp="2012-07-24T13:41:06Z" uid="722137" user="OSMF Redaction Account" changeset="12466884">
    <nd ref="947341321"/>
    <nd ref="947343368"/>
    <nd ref="947336595"/>
    <nd ref="947343786"/>
    <tag k="int_ref" v="E 371"/>
    <tag k="maxheight" v="4.5"/>
    <tag k="trolley_wire" v="yes"/>
  </way>
  <way id="46603672" version="7" timestamp="2012-07-25T21:15:27Z" uid="300784" user="AlfonZ" changeset="12492287">
    <nd ref="29488303"/>
    <nd ref="947341321"/>
    <nd ref="28889337"/>
    <nd ref="947343368"/>
    <nd ref="384621927"/>
    <nd ref="947336595"/>
    <nd ref="947343786"/>
    <nd ref="384730658"/>
    <nd ref="28889338"/>
    <tag k="abutters" v="residential"/>
    <tag k="highway" v="primary"/>
    <tag k="int_ref" v="E 371"/>
    <tag k="is_in" v="Prešov"/>
    <tag k="lanes" v="4"/>
    <tag k="maxheight" v="4.5"/>
    <tag k="name" v="Duklianska"/>
    <tag k="ref" v="18"/>
    <tag k="source:name" v="kapor2"/>
    <tag k="trolley_wire" v="yes"/>
  </way>
</osm>
