<?xml version='1.0' encoding='UTF-8'?>
<osm version="0.6" generator="libosmium/2.20.0">
  <way id="46692045" version="8" timestamp="2010-04-03T17:18:04Z" uid="20587" user="balrog-kun" changeset="4313610">
    <nd ref="596742258"/>
    <nd ref="596741873"/>
    <nd ref="596742352"/>
    <nd ref="596741874"/>
    <nd ref="596742070"/>
    <nd ref="596742499"/>
    <nd ref="596741875"/>
    <nd ref="596741929"/>
    <nd ref="596741877"/>
    <nd ref="596744253"/>
    <nd ref="596741880"/>
    <nd ref="596741883"/>
    <tag k="highway" v="residential"/>
    <tag k="name" v="Cereza Drive Southeast"/>
  </way>
  <way id="46692055" version="5" timestamp="2010-04-03T17:18:04Z" uid="20587" user="balrog-kun" changeset="4313610">
    <nd ref="596742351"/>
    <nd ref="596742138"/>
    <nd ref="596742142"/>
    <nd ref="596742144"/>
    <nd ref="596742146"/>
    <nd ref="596742352"/>
    <tag k="highway" v="residential"/>
    <tag k="name" v="Picea Lane Southeast"/>
  </way>
  <way id="46692059" version="6" timestamp="2010-04-03T17:18:04Z" uid="20587" user="balrog-kun" changeset="4313610">
    <nd ref="596742272"/>
    <nd ref="596742218"/>
    <nd ref="596742220"/>
    <nd ref="596742221"/>
    <nd ref="596742222"/>
    <nd ref="596742224"/>
    <nd ref="596742258"/>
    <nd ref="596742225"/>
    <nd ref="596742226"/>
    <tag k="highway" v="residential"/>
    <tag k="name" v="Ceniza Lane Southeast"/>
  </way>
  <way id="46692076" version="4" timestamp="2010-04-03T17:18:04Z" uid="20587" user="balrog-kun" changeset="4313610">
    <nd ref="596742492"/>
    <nd ref="596742494"/>
    <nd ref="596742495"/>
    <nd ref="596742496"/>
    <nd ref="596742499"/>
    <tag k="highway" v="residential"/>
    <tag k="name" v="Cipries Lane Southeast"/>
  </way>
  <way id="46692169" version="2" timestamp="2010-06-29T20:49:19Z" uid="74617" user="JohnSmith" changeset="5109183">
    <nd ref="596743663"/>
    <nd ref="596743660"/>
    <nd ref="596743662"/>
    <nd ref="130069025"/>
    <nd ref="130069030"/>
    <nd ref="596743663"/>
    <tag k="area" v="yes"/>
    <tag k="fixme" v="sport=rugby is ambiguous, see http://wiki.osm.org/wiki/Tag:sport%3Drugby for more details"/>
    <tag k="leisure" v="pitch"/>
    <tag k="name" v="Stade des Bouvets"/>
    <tag k="source" v="Yahoo satellite imagery"/>
    <tag k="sport" v="rugby"/>
  </way>
  <way id="46692238" version="3" timestamp="2010-04-03T17:18:05Z" uid="20587" user="balrog-kun" changeset="4313610">
    <nd ref="596744248"/>
    <nd ref="596744250"/>
    <nd ref="596744252"/>
    <nd ref="596744253"/>
    <tag k="highway" v="residential"/>
    <tag k="name" v="Adobe Lane Southeast"/>
  </way>
  <way id="46692169" version="3" timestamp="2012-06-13T11:45:13Z" uid="24572" user="sly" changeset="11883989">
    <nd ref="596743663"/>
    <nd ref="596743660"/>
    <nd ref="596743662"/>
    <nd ref="130069025"/>
    <nd ref="130069030"/>
    <nd ref="596743663"/>
    <tag k="area" v="yes"/>
    <tag k="leisure" v="pitch"/>
    <tag k="name" v="Stade des Bouvets"/>
    <tag k="source" v="Yahoo satellite imagery"/>
    <tag k="sport" v="rugby"/>
  </way>
  <way id="46692169" version="4" timestamp="2012-06-13T15:54:29Z" uid="8235" user="chriscf" changeset="11886459">
    <nd ref="596743663"/>
    <nd ref="596743660"/>
    <nd ref="596743662"/>
    <nd ref="130069025"/>
    <nd ref="130069030"/>
    <nd ref="596743663"/>
    <tag k="area" v="yes"/>
    <tag k="fixme" v="sport=rugby is ambiguous, see http://wiki.osm.org/wiki/Tag:sport%3Drugby for more details"/>
    <tag k="leisure" v="pitch"/>
    <tag k="name" v="Stade des Bouvets"/>
    <tag k="source" v="Yahoo satellite imagery"/>
    <tag k="sport" v="rugby"/>
  </way>
  <way id="46692169" version="5" timestamp="2012-07-18T10:03:42Z" uid="722137" user="OSMF Redaction Account" changeset="12277111">
    <nd ref="596743663"/>
    <nd ref="596743660"/>
    <nd ref="596743662"/>
    <nd ref="130069025"/>
    <nd ref="130069030"/>
    <nd ref="596743663"/>
    <tag k="area" v="yes"/>
    <tag k="leisure" v="pitch"/>
    <tag k="name" v="Stade des Bouvets"/>
    <tag k="source" v="Yahoo satellite imagery"/>
    <tag k="sport" v="rugby"/>
  </way>
</osm>
