<?xml version='1.0' encoding='UTF-8'?>
<osm version="0.6" generator="libosmium/2.20.0">
  <way id="46846644" version="6" timestamp="2010-03-23T11:53:38Z" uid="115477" user="wowik" changeset="4211394">
    <nd ref="598292830"/>
    <nd ref="598292913"/>
    <nd ref="598292919"/>
    <nd ref="598292915"/>
    <nd ref="598292921"/>
    <nd ref="598292917"/>
    <nd ref="598292923"/>
    <nd ref="598292951"/>
    <nd ref="598292949"/>
    <nd ref="598292953"/>
    <nd ref="598292828"/>
    <nd ref="598292947"/>
    <nd ref="598292830"/>
    <tag k="addr:housenumber" v="16"/>
    <tag k="addr:postcode" v="127006"/>
    <tag k="addr:street" v="Успенский переулок"/>
    <tag k="building" v="yes"/>
    <tag k="cladr:code" v="77000000000061600"/>
    <tag k="name" v="Городской Консультативно-Диагностический центр по Специфической Иммунопрофилактике"/>
  </way>
  <way id="46846644" version="7" timestamp="2012-07-20T11:58:57Z" uid="722137" user="OSMF Redaction Account" changeset="12374607">
    <nd ref="598292830"/>
    <nd ref="598292913"/>
    <nd ref="598292919"/>
    <nd ref="598292915"/>
    <nd ref="598292921"/>
    <nd ref="598292917"/>
    <nd ref="598292923"/>
    <nd ref="598292951"/>
    <nd ref="598292949"/>
    <nd ref="598292953"/>
    <nd ref="598292828"/>
    <nd ref="598292947"/>
    <nd ref="598292830"/>
    <tag k="addr:housenumber" v="16"/>
    <tag k="addr:postcode" v="127006"/>
    <tag k="addr:street" v="Успенский переулок"/>
    <tag k="building" v="yes"/>
    <tag k="cladr:code" v="77000000000061600"/>
  </way>
</osm>
