<?xml version='1.0' encoding='UTF-8'?>
<osm version="0.6" generator="libosmium/2.20.0">
  <way id="46914650" version="2" timestamp="2010-04-22T09:33:41Z" uid="30632" user="antblant" changeset="4493850">
    <nd ref="598914419"/>
    <nd ref="598914420"/>
    <nd ref="598914421"/>
    <nd ref="598914422"/>
    <nd ref="598914423"/>
    <nd ref="598914424"/>
    <nd ref="598914425"/>
    <nd ref="598914426"/>
    <nd ref="598914428"/>
    <nd ref="598914429"/>
    <nd ref="598914430"/>
    <nd ref="598914431"/>
    <nd ref="598914432"/>
    <nd ref="598914433"/>
    <nd ref="598914434"/>
    <nd ref="598914435"/>
    <nd ref="598914436"/>
    <nd ref="598914437"/>
    <tag k="highway" v="secondary"/>
    <tag k="ref" v="648"/>
  </way>
  <way id="46914650" version="3" timestamp="2011-01-31T03:50:24Z" uid="163896" user="Zbigniew Czernik" changeset="7141929"/>
  <way id="46914736" version="3" timestamp="2010-07-06T17:26:31Z" uid="74617" user="JohnSmith" changeset="5152225">
    <nd ref="263576884"/>
    <nd ref="623028948"/>
    <nd ref="263576885"/>
    <nd ref="263576886"/>
    <nd ref="263576937"/>
    <nd ref="263576887"/>
    <nd ref="263576888"/>
    <nd ref="263576889"/>
    <nd ref="263576909"/>
    <nd ref="263576890"/>
    <nd ref="623028935"/>
    <nd ref="263576891"/>
    <nd ref="263576908"/>
    <nd ref="623028934"/>
    <nd ref="263576903"/>
    <nd ref="263576893"/>
    <nd ref="263576901"/>
    <nd ref="263576894"/>
    <nd ref="263576895"/>
    <nd ref="263576896"/>
    <nd ref="263576897"/>
    <nd ref="263576898"/>
    <nd ref="263576899"/>
    <tag k="highway" v="residential"/>
    <tag k="maxspeed" v="50"/>
    <tag k="maxspeed:source" v="default residential speed limit in Australia"/>
    <tag k="name" v="Regatta Parade"/>
    <tag k="surface" v="asphalt"/>
  </way>
  <way id="46914736" version="4" timestamp="2012-01-19T18:09:50Z" uid="147510" user="woodpeck_fixbot" changeset="10438353">
    <nd ref="263576884"/>
    <nd ref="623028948"/>
    <nd ref="263576885"/>
    <nd ref="263576886"/>
    <nd ref="263576937"/>
    <nd ref="263576887"/>
    <nd ref="263576888"/>
    <nd ref="263576889"/>
    <nd ref="263576909"/>
    <nd ref="263576890"/>
    <nd ref="623028935"/>
    <nd ref="263576891"/>
    <nd ref="263576908"/>
    <nd ref="623028934"/>
    <nd ref="263576903"/>
    <nd ref="263576893"/>
    <nd ref="263576901"/>
    <nd ref="263576894"/>
    <nd ref="263576895"/>
    <nd ref="263576896"/>
    <nd ref="263576897"/>
    <nd ref="263576898"/>
    <nd ref="263576899"/>
    <tag k="highway" v="residential"/>
    <tag k="name" v="Regatta Parade"/>
    <tag k="surface" v="asphalt"/>
  </way>
  <way id="46914737" version="5" timestamp="2011-03-18T20:10:08Z" uid="115477" user="wowik" changeset="7598839">
    <nd ref="598915314"/>
    <nd ref="598915316"/>
    <nd ref="598915321"/>
    <nd ref="1207741204"/>
    <nd ref="1207741002"/>
    <nd ref="1207740522"/>
    <nd ref="1207740776"/>
    <nd ref="598915324"/>
    <nd ref="598915326"/>
    <nd ref="1207740550"/>
    <nd ref="1207740667"/>
    <nd ref="1207741153"/>
    <nd ref="1207740795"/>
    <nd ref="598915329"/>
    <nd ref="598915331"/>
    <nd ref="598915335"/>
    <nd ref="598915314"/>
    <tag k="addr:housenumber" v="27"/>
    <tag k="addr:street" v="Ленинградский проспект"/>
    <tag k="building" v="apartments"/>
    <tag k="cladr:code" v="77000000000168500"/>
  </way>
  <way id="46914864" version="7" timestamp="2011-03-18T20:07:16Z" uid="115477" user="wowik" changeset="7598839">
    <nd ref="598916272"/>
    <nd ref="598916273"/>
    <nd ref="598916274"/>
    <nd ref="1207740984"/>
    <nd ref="1207741197"/>
    <nd ref="598916275"/>
    <nd ref="598916272"/>
    <tag k="addr:housenumber" v="3А с2"/>
    <tag k="addr:street" v="Беговая аллея"/>
    <tag k="building" v="yes"/>
    <tag k="building:levels" v="1"/>
    <tag k="cladr:code" v="77000000000082500"/>
  </way>
  <way id="46914881" version="1" timestamp="2009-12-24T11:36:11Z" uid="30201" user="rrankin" changeset="3441442">
    <nd ref="284157791"/>
    <nd ref="598916865"/>
    <nd ref="598916864"/>
    <nd ref="598916862"/>
    <nd ref="598916863"/>
    <nd ref="26627329"/>
    <tag k="highway" v="motorway_link"/>
    <tag k="oneway" v="yes"/>
  </way>
  <way id="46914881" version="2" timestamp="2010-09-14T20:42:53Z" uid="79475" user="AlexOnTheBus" changeset="5782124">
    <nd ref="284157791"/>
    <nd ref="598916865"/>
    <nd ref="598916864"/>
    <nd ref="598916862"/>
    <nd ref="598916863"/>
    <nd ref="912506718"/>
    <nd ref="912506726"/>
    <tag k="highway" v="motorway_link"/>
    <tag k="oneway" v="yes"/>
  </way>
  <way id="46914881" version="3" timestamp="2010-09-14T20:43:08Z" uid="79475" user="AlexOnTheBus" changeset="5782124">
    <nd ref="284157791"/>
    <nd ref="598916865"/>
    <nd ref="598916864"/>
    <nd ref="598916862"/>
    <nd ref="598916863"/>
    <nd ref="912506718"/>
    <tag k="highway" v="motorway_link"/>
    <tag k="oneway" v="yes"/>
  </way>
  <way id="46914881" version="4" timestamp="2010-09-14T20:43:48Z" uid="79475" user="AlexOnTheBus" changeset="5782124">
    <nd ref="284157791"/>
    <nd ref="598916865"/>
    <nd ref="598916864"/>
    <nd ref="912507695"/>
    <nd ref="598916862"/>
    <nd ref="598916863"/>
    <nd ref="912506718"/>
    <tag k="highway" v="motorway_link"/>
    <tag k="oneway" v="yes"/>
  </way>
  <way id="46914881" version="5" timestamp="2011-02-14T04:13:51Z" uid="389517" user="good2010" changeset="7282767">
    <nd ref="284157791"/>
    <nd ref="598916865"/>
    <nd ref="598916864"/>
    <nd ref="912507695"/>
    <nd ref="598916862"/>
    <nd ref="598916863"/>
    <nd ref="912506718"/>
    <tag k="highway" v="motorway_link"/>
    <tag k="maxspeed" v="50"/>
    <tag k="oneway" v="yes"/>
  </way>
  <way id="46914882" version="1" timestamp="2009-12-24T11:36:12Z" uid="30201" user="rrankin" changeset="3441442">
    <nd ref="26627334"/>
    <nd ref="598916861"/>
    <tag k="highway" v="motorway"/>
    <tag k="layer" v="-1"/>
    <tag k="name" v="Western Distributor"/>
    <tag k="oneway" v="yes"/>
    <tag k="ref" v="MR4"/>
  </way>
  <way id="46914882" version="2" timestamp="2009-12-29T04:19:08Z" uid="12203" user="brainwad" changeset="3477747">
    <nd ref="26627334"/>
    <nd ref="600645154"/>
    <tag k="highway" v="motorway"/>
    <tag k="layer" v="-1"/>
    <tag k="maxspeed" v="60"/>
    <tag k="name" v="Western Distributor"/>
    <tag k="oneway" v="yes"/>
    <tag k="ref" v="MR4"/>
  </way>
  <way id="46914882" version="3" timestamp="2010-04-01T13:07:08Z" uid="74617" user="JohnSmith" changeset="4293399">
    <nd ref="26627334"/>
    <nd ref="600645154"/>
    <tag k="highway" v="motorway"/>
    <tag k="maxspeed" v="60"/>
    <tag k="name" v="Western Distributor"/>
    <tag k="oneway" v="yes"/>
  </way>
  <way id="46914882" version="4" timestamp="2010-06-30T07:49:20Z" uid="299678" user="peteramjet" changeset="5111443">
    <nd ref="26627334"/>
    <nd ref="600645154"/>
    <tag k="highway" v="motorway"/>
    <tag k="maxspeed" v="60"/>
    <tag k="name" v="Western Distributor"/>
    <tag k="oneway" v="yes"/>
    <tag k="ref" v="MR4"/>
  </way>
  <way id="46914882" version="5" timestamp="2010-07-09T22:55:28Z" uid="299678" user="peteramjet" changeset="5177814">
    <nd ref="26627334"/>
    <nd ref="600645154"/>
    <tag k="highway" v="motorway"/>
    <tag k="maxspeed" v="60"/>
    <tag k="name" v="Western Distributor"/>
    <tag k="oneway" v="yes"/>
  </way>
  <way id="46914883" version="1" timestamp="2009-12-24T11:36:12Z" uid="30201" user="rrankin" changeset="3441442">
    <nd ref="598916853"/>
    <nd ref="598916851"/>
    <nd ref="598916850"/>
    <tag k="highway" v="motorway_link"/>
    <tag k="layer" v="1"/>
    <tag k="oneway" v="yes"/>
  </way>
  <way id="46914883" version="2" timestamp="2009-12-29T04:19:07Z" uid="12203" user="brainwad" changeset="3477747">
    <nd ref="598916858"/>
    <nd ref="598916860"/>
    <nd ref="598916857"/>
    <nd ref="598916854"/>
    <nd ref="598916855"/>
    <nd ref="598916856"/>
    <nd ref="598916853"/>
    <nd ref="600645153"/>
    <nd ref="598916851"/>
    <nd ref="600645147"/>
    <tag k="bridge" v="viaduct"/>
    <tag k="highway" v="motorway_link"/>
    <tag k="layer" v="1"/>
    <tag k="maxspeed" v="60"/>
    <tag k="oneway" v="yes"/>
  </way>
  <way id="46914883" version="3" timestamp="2011-02-27T05:11:31Z" uid="389517" user="good2010" changeset="7406922">
    <nd ref="598916858"/>
    <nd ref="598916860"/>
    <nd ref="598916857"/>
    <nd ref="598916854"/>
    <nd ref="598916855"/>
    <nd ref="598916856"/>
    <nd ref="598916853"/>
    <nd ref="600645153"/>
    <nd ref="598916851"/>
    <nd ref="600645147"/>
    <tag k="bridge" v="viaduct"/>
    <tag k="highway" v="motorway_link"/>
    <tag k="layer" v="1"/>
    <tag k="maxspeed" v="60"/>
    <tag k="oneway" v="yes"/>
    <tag k="source" v="nearmap"/>
  </way>
  <way id="46914883" version="4" timestamp="2012-01-31T05:53:14Z" uid="54784" user="Tom Hollander" changeset="10546288">
    <nd ref="598916858"/>
    <nd ref="598916860"/>
    <nd ref="598916857"/>
    <nd ref="598916854"/>
    <nd ref="598916855"/>
    <nd ref="598916856"/>
    <nd ref="598916853"/>
    <nd ref="600645153"/>
    <nd ref="598916851"/>
    <nd ref="600645147"/>
    <tag k="bridge" v="viaduct"/>
    <tag k="highway" v="motorway_link"/>
    <tag k="layer" v="1"/>
    <tag k="maxspeed" v="60"/>
    <tag k="oneway" v="yes"/>
    <tag k="ref" v="MR4"/>
    <tag k="source" v="nearmap"/>
  </way>
  <way id="46914884" version="1" timestamp="2009-12-24T11:36:12Z" uid="30201" user="rrankin" changeset="3441442">
    <nd ref="26363026"/>
    <nd ref="598916852"/>
    <tag k="highway" v="motorway_link"/>
    <tag k="layer" v="2"/>
    <tag k="oneway" v="yes"/>
  </way>
  <way id="46914884" version="2" timestamp="2009-12-29T04:19:06Z" uid="12203" user="brainwad" changeset="3477747">
    <nd ref="26363026"/>
    <nd ref="598916852"/>
    <nd ref="26363001"/>
    <nd ref="26627282"/>
    <nd ref="26627279"/>
    <nd ref="26362999"/>
    <nd ref="26627280"/>
    <nd ref="26362997"/>
    <nd ref="26627281"/>
    <nd ref="26362995"/>
    <nd ref="26362584"/>
    <tag k="bridge" v="viaduct"/>
    <tag k="highway" v="motorway"/>
    <tag k="layer" v="2"/>
    <tag k="maxspeed" v="60"/>
    <tag k="name" v="Western Distributor"/>
    <tag k="oneway" v="yes"/>
    <tag k="ref" v="MR4"/>
  </way>
  <way id="46914884" version="3" timestamp="2010-04-01T13:07:07Z" uid="74617" user="JohnSmith" changeset="4293399">
    <nd ref="26363026"/>
    <nd ref="679781294"/>
    <nd ref="679781292"/>
    <nd ref="598916852"/>
    <nd ref="26363001"/>
    <nd ref="26627282"/>
    <nd ref="26627279"/>
    <nd ref="26362999"/>
    <nd ref="26627280"/>
    <nd ref="26362997"/>
    <nd ref="26627281"/>
    <nd ref="26362995"/>
    <nd ref="26362584"/>
    <tag k="bridge" v="viaduct"/>
    <tag k="highway" v="motorway"/>
    <tag k="layer" v="2"/>
    <tag k="maxspeed" v="60"/>
    <tag k="name" v="Western Distributor"/>
    <tag k="oneway" v="yes"/>
  </way>
  <way id="46914884" version="4" timestamp="2010-06-30T07:49:21Z" uid="299678" user="peteramjet" changeset="5111443">
    <nd ref="26363026"/>
    <nd ref="679781294"/>
    <nd ref="679781292"/>
    <nd ref="598916852"/>
    <nd ref="26363001"/>
    <nd ref="26627282"/>
    <nd ref="26627279"/>
    <nd ref="26362999"/>
    <nd ref="26627280"/>
    <nd ref="26362997"/>
    <nd ref="26627281"/>
    <nd ref="26362995"/>
    <nd ref="26362584"/>
    <tag k="bridge" v="viaduct"/>
    <tag k="highway" v="motorway"/>
    <tag k="layer" v="2"/>
    <tag k="maxspeed" v="60"/>
    <tag k="name" v="Western Distributor"/>
    <tag k="oneway" v="yes"/>
    <tag k="ref" v="MR4"/>
  </way>
  <way id="46914884" version="5" timestamp="2010-07-09T22:55:28Z" uid="299678" user="peteramjet" changeset="5177814">
    <nd ref="26363026"/>
    <nd ref="679781294"/>
    <nd ref="679781292"/>
    <nd ref="598916852"/>
    <nd ref="26363001"/>
    <nd ref="26627282"/>
    <nd ref="26627279"/>
    <nd ref="26362999"/>
    <nd ref="26627280"/>
    <nd ref="26362997"/>
    <nd ref="26627281"/>
    <nd ref="26362995"/>
    <nd ref="26362584"/>
    <tag k="bridge" v="viaduct"/>
    <tag k="highway" v="motorway"/>
    <tag k="layer" v="2"/>
    <tag k="maxspeed" v="60"/>
    <tag k="name" v="Western Distributor"/>
    <tag k="oneway" v="yes"/>
  </way>
  <way id="46914884" version="6" timestamp="2012-01-31T05:53:13Z" uid="54784" user="Tom Hollander" changeset="10546288">
    <nd ref="26363026"/>
    <nd ref="679781294"/>
    <nd ref="679781292"/>
    <nd ref="598916852"/>
    <nd ref="26363001"/>
    <nd ref="26627282"/>
    <nd ref="26627279"/>
    <nd ref="26362999"/>
    <nd ref="26627280"/>
    <nd ref="26362997"/>
    <nd ref="26627281"/>
    <nd ref="26362995"/>
    <nd ref="26362584"/>
    <tag k="bridge" v="viaduct"/>
    <tag k="highway" v="motorway"/>
    <tag k="layer" v="2"/>
    <tag k="maxspeed" v="60"/>
    <tag k="name" v="Western Distributor"/>
    <tag k="oneway" v="yes"/>
    <tag k="ref" v="MR4"/>
  </way>
  <way id="46914885" version="1" timestamp="2009-12-24T11:36:12Z" uid="30201" user="rrankin" changeset="3441442">
    <nd ref="87441336"/>
    <nd ref="87441331"/>
    <nd ref="26627329"/>
    <tag k="highway" v="motorway_link"/>
    <tag k="layer" v="-1"/>
    <tag k="name" v="Harbour Street"/>
    <tag k="oneway" v="yes"/>
  </way>
  <way id="46914885" version="2" timestamp="2009-12-29T04:19:01Z" uid="12203" user="brainwad" changeset="3477747">
    <nd ref="26377065"/>
    <nd ref="600645157"/>
    <nd ref="600645155"/>
    <nd ref="600645156"/>
    <nd ref="87441336"/>
    <nd ref="87441331"/>
    <nd ref="26627329"/>
    <tag k="highway" v="primary"/>
    <tag k="maxspeed" v="60"/>
    <tag k="name" v="Harbour Street"/>
    <tag k="oneway" v="yes"/>
  </way>
  <way id="46914885" version="3" timestamp="2010-09-13T11:01:44Z" uid="79475" user="AlexOnTheBus" changeset="5768543">
    <nd ref="26377065"/>
    <nd ref="600645157"/>
    <nd ref="600645155"/>
    <nd ref="600645156"/>
    <nd ref="87441336"/>
    <nd ref="87441331"/>
    <nd ref="26627329"/>
    <tag k="highway" v="secondary"/>
    <tag k="maxspeed" v="60"/>
    <tag k="name" v="Harbour Street"/>
    <tag k="oneway" v="yes"/>
  </way>
  <way id="46914885" version="4" timestamp="2010-09-13T11:03:43Z" uid="79475" user="AlexOnTheBus" changeset="5768543">
    <nd ref="26377065"/>
    <nd ref="600645157"/>
    <nd ref="600645155"/>
    <nd ref="600645156"/>
    <nd ref="87441336"/>
    <nd ref="87441331"/>
    <nd ref="26627329"/>
    <tag k="highway" v="motorway_link"/>
    <tag k="maxspeed" v="60"/>
    <tag k="name" v="Harbour Street"/>
    <tag k="oneway" v="yes"/>
  </way>
  <way id="46914885" version="5" timestamp="2010-09-14T20:44:34Z" uid="79475" user="AlexOnTheBus" changeset="5782124">
    <nd ref="26377065"/>
    <nd ref="600645157"/>
    <nd ref="600645155"/>
    <nd ref="600645156"/>
    <nd ref="87441336"/>
    <nd ref="87441331"/>
    <nd ref="912508579"/>
    <nd ref="26627329"/>
    <tag k="highway" v="motorway_link"/>
    <tag k="maxspeed" v="60"/>
    <tag k="name" v="Harbour Street"/>
    <tag k="oneway" v="yes"/>
  </way>
  <way id="46914886" version="1" timestamp="2009-12-24T11:36:12Z" uid="30201" user="rrankin" changeset="3441442">
    <nd ref="598916861"/>
    <nd ref="598916858"/>
    <nd ref="598916859"/>
    <tag k="highway" v="motorway"/>
    <tag k="layer" v="1"/>
    <tag k="name" v="Western Distributor"/>
    <tag k="oneway" v="yes"/>
    <tag k="ref" v="MR4"/>
  </way>
  <way id="46914886" version="2" timestamp="2009-12-29T04:19:08Z" uid="12203" user="brainwad" changeset="3477747">
    <nd ref="598916861"/>
    <nd ref="598916858"/>
    <nd ref="598916859"/>
    <tag k="bridge" v="viaduct"/>
    <tag k="highway" v="motorway"/>
    <tag k="layer" v="1"/>
    <tag k="maxspeed" v="60"/>
    <tag k="name" v="Western Distributor"/>
    <tag k="oneway" v="yes"/>
    <tag k="ref" v="MR4"/>
  </way>
  <way id="46914886" version="3" timestamp="2010-04-01T13:07:08Z" uid="74617" user="JohnSmith" changeset="4293399">
    <nd ref="598916861"/>
    <nd ref="598916858"/>
    <nd ref="598916859"/>
    <tag k="bridge" v="viaduct"/>
    <tag k="highway" v="motorway"/>
    <tag k="layer" v="1"/>
    <tag k="maxspeed" v="60"/>
    <tag k="name" v="Western Distributor"/>
    <tag k="oneway" v="yes"/>
  </way>
  <way id="46914886" version="4" timestamp="2010-06-30T07:49:20Z" uid="299678" user="peteramjet" changeset="5111443">
    <nd ref="598916861"/>
    <nd ref="598916858"/>
    <nd ref="598916859"/>
    <tag k="bridge" v="viaduct"/>
    <tag k="highway" v="motorway"/>
    <tag k="layer" v="1"/>
    <tag k="maxspeed" v="60"/>
    <tag k="name" v="Western Distributor"/>
    <tag k="oneway" v="yes"/>
    <tag k="ref" v="MR4"/>
  </way>
  <way id="46914886" version="5" timestamp="2010-07-09T22:55:29Z" uid="299678" user="peteramjet" changeset="5177814">
    <nd ref="598916861"/>
    <nd ref="598916858"/>
    <nd ref="598916859"/>
    <tag k="bridge" v="viaduct"/>
    <tag k="highway" v="motorway"/>
    <tag k="layer" v="1"/>
    <tag k="maxspeed" v="60"/>
    <tag k="name" v="Western Distributor"/>
    <tag k="oneway" v="yes"/>
  </way>
  <way id="46914886" version="6" timestamp="2012-01-31T05:53:13Z" uid="54784" user="Tom Hollander" changeset="10546288">
    <nd ref="598916861"/>
    <nd ref="598916858"/>
    <nd ref="598916859"/>
    <tag k="bridge" v="viaduct"/>
    <tag k="highway" v="motorway"/>
    <tag k="layer" v="1"/>
    <tag k="maxspeed" v="60"/>
    <tag k="name" v="Western Distributor"/>
    <tag k="oneway" v="yes"/>
    <tag k="ref" v="MR4"/>
  </way>
  <way id="46914887" version="1" timestamp="2009-12-24T11:36:12Z" uid="30201" user="rrankin" changeset="3441442">
    <nd ref="598916858"/>
    <nd ref="598916860"/>
    <nd ref="598916857"/>
    <nd ref="598916854"/>
    <nd ref="598916855"/>
    <nd ref="598916856"/>
    <nd ref="598916853"/>
    <tag k="highway" v="motorway_link"/>
    <tag k="layer" v="1"/>
    <tag k="oneway" v="yes"/>
  </way>
  <way id="46914887" version="2" timestamp="2009-12-29T04:19:15Z" uid="12203" user="brainwad" changeset="3477747"/>
  <way id="46914888" version="1" timestamp="2009-12-24T11:36:12Z" uid="30201" user="rrankin" changeset="3441442">
    <nd ref="8107810"/>
    <nd ref="598872806"/>
    <nd ref="598872799"/>
    <nd ref="598872801"/>
    <nd ref="598872803"/>
    <nd ref="598872804"/>
    <nd ref="598872798"/>
    <nd ref="598916866"/>
    <tag k="abutters" v="retail"/>
    <tag k="highway" v="secondary"/>
    <tag k="layer" v="-1"/>
    <tag k="name" v="Market Street"/>
    <tag k="oneway" v="yes"/>
  </way>
  <way id="46914888" version="2" timestamp="2009-12-24T12:35:29Z" uid="30201" user="rrankin" changeset="3441832">
    <nd ref="8107810"/>
    <nd ref="598872806"/>
    <nd ref="598872799"/>
    <nd ref="598872801"/>
    <nd ref="598872803"/>
    <nd ref="598872804"/>
    <nd ref="598872798"/>
    <nd ref="598916866"/>
    <tag k="highway" v="secondary"/>
    <tag k="layer" v="-1"/>
    <tag k="name" v="Market Street"/>
    <tag k="oneway" v="yes"/>
  </way>
  <way id="46914888" version="3" timestamp="2009-12-29T04:19:08Z" uid="12203" user="brainwad" changeset="3477747">
    <nd ref="8107810"/>
    <nd ref="598872806"/>
    <nd ref="598872799"/>
    <nd ref="598872801"/>
    <nd ref="598872803"/>
    <nd ref="598872804"/>
    <tag k="bridge" v="viaduct"/>
    <tag k="highway" v="secondary"/>
    <tag k="layer" v="0"/>
    <tag k="maxspeed" v="60"/>
    <tag k="name" v="Market Street"/>
    <tag k="oneway" v="yes"/>
  </way>
  <way id="46914888" version="4" timestamp="2010-09-13T11:04:04Z" uid="79475" user="AlexOnTheBus" changeset="5768543">
    <nd ref="8107810"/>
    <nd ref="598872806"/>
    <tag k="bridge" v="viaduct"/>
    <tag k="highway" v="secondary"/>
    <tag k="layer" v="0"/>
    <tag k="maxspeed" v="60"/>
    <tag k="name" v="Market Street"/>
    <tag k="oneway" v="yes"/>
  </way>
  <way id="46914888" version="5" timestamp="2010-09-13T11:04:09Z" uid="79475" user="AlexOnTheBus" changeset="5768543">
    <nd ref="8107810"/>
    <nd ref="598872806"/>
    <tag k="highway" v="secondary"/>
    <tag k="maxspeed" v="60"/>
    <tag k="name" v="Market Street"/>
    <tag k="oneway" v="yes"/>
  </way>
  <way id="46914888" version="6" timestamp="2010-09-13T11:04:24Z" uid="79475" user="AlexOnTheBus" changeset="5768543">
    <nd ref="8107810"/>
    <nd ref="598872806"/>
    <tag k="highway" v="motorway_link"/>
    <tag k="maxspeed" v="60"/>
    <tag k="name" v="Market Street"/>
    <tag k="oneway" v="yes"/>
  </way>
  <way id="46914888" version="7" timestamp="2010-09-14T20:50:48Z" uid="79475" user="AlexOnTheBus" changeset="5782124">
    <nd ref="8107810"/>
    <nd ref="912515432"/>
    <nd ref="598872806"/>
    <tag k="highway" v="motorway_link"/>
    <tag k="maxspeed" v="60"/>
    <tag k="name" v="Market Street"/>
    <tag k="oneway" v="yes"/>
  </way>
  <way id="46914888" version="8" timestamp="2011-12-31T08:52:32Z" uid="111529" user="ReinerMeyer" changeset="10252570">
    <nd ref="8107810"/>
    <nd ref="598872806"/>
    <tag k="highway" v="motorway_link"/>
    <tag k="maxspeed" v="60"/>
    <tag k="name" v="Market Street"/>
    <tag k="oneway" v="yes"/>
  </way>
  <way id="46914889" version="1" timestamp="2009-12-24T11:36:12Z" uid="30201" user="rrankin" changeset="3441442">
    <nd ref="26627335"/>
    <nd ref="26627337"/>
    <nd ref="26377073"/>
    <nd ref="26363020"/>
    <tag k="highway" v="motorway"/>
    <tag k="layer" v="-1"/>
    <tag k="name" v="Western Distributor"/>
    <tag k="oneway" v="yes"/>
    <tag k="ref" v="MR4"/>
  </way>
  <way id="46914889" version="2" timestamp="2009-12-29T04:19:08Z" uid="12203" user="brainwad" changeset="3477747">
    <nd ref="26627335"/>
    <nd ref="26627337"/>
    <tag k="highway" v="motorway"/>
    <tag k="layer" v="-1"/>
    <tag k="maxspeed" v="80"/>
    <tag k="name" v="Western Distributor"/>
    <tag k="oneway" v="yes"/>
    <tag k="ref" v="MR4"/>
    <tag k="toll" v="yes"/>
  </way>
  <way id="46914889" version="3" timestamp="2010-04-01T13:45:29Z" uid="74617" user="JohnSmith" changeset="4293399">
    <nd ref="26627335"/>
    <nd ref="26627337"/>
    <tag k="highway" v="motorway"/>
    <tag k="layer" v="-1"/>
    <tag k="maxspeed" v="80"/>
    <tag k="name" v="Western Distributor"/>
    <tag k="oneway" v="yes"/>
    <tag k="toll" v="yes"/>
  </way>
  <way id="46914737" version="6" timestamp="2012-04-21T20:31:33Z" uid="336354" user="esaulenka" changeset="11377833"/>
  <way id="46914864" version="8" timestamp="2012-04-21T20:31:36Z" uid="336354" user="esaulenka" changeset="11377833"/>
  <way id="46914881" version="6" timestamp="2012-07-19T21:34:16Z" uid="722137" user="OSMF Redaction Account" changeset="12348390">
    <nd ref="912507695"/>
    <nd ref="912506718"/>
    <tag k="maxspeed" v="50"/>
  </way>
  <way id="46914881" version="7" timestamp="2012-08-05T23:34:15Z" uid="7523" user="inas" changeset="12627525"/>
  <way id="46914882" version="6" timestamp="2012-07-19T21:40:46Z" uid="722137" user="OSMF Redaction Account" changeset="12348758"/>
  <way id="46914883" version="5" timestamp="2012-07-19T21:34:30Z" uid="722137" user="OSMF Redaction Account" changeset="12348390">
    <nd ref="598916858"/>
    <nd ref="598916860"/>
    <nd ref="598916857"/>
    <nd ref="598916854"/>
    <nd ref="598916855"/>
    <nd ref="598916856"/>
    <nd ref="600645153"/>
    <nd ref="600645147"/>
    <tag k="bridge" v="viaduct"/>
    <tag k="maxspeed" v="60"/>
    <tag k="ref" v="MR4"/>
    <tag k="source" v="nearmap"/>
  </way>
  <way id="46914883" version="6" timestamp="2012-07-24T13:05:24Z" uid="9065" user="brianboru" changeset="12466200">
    <nd ref="598916858"/>
    <nd ref="598916860"/>
    <nd ref="598916857"/>
    <nd ref="598916854"/>
    <nd ref="598916855"/>
    <nd ref="598916856"/>
    <nd ref="600645153"/>
    <nd ref="600645147"/>
    <tag k="bridge" v="viaduct"/>
    <tag k="highway" v="motorway"/>
    <tag k="maxspeed" v="60"/>
    <tag k="ref" v="MR4"/>
    <tag k="source" v="nearmap"/>
  </way>
  <way id="46914883" version="7" timestamp="2012-07-25T06:16:57Z" uid="7523" user="inas" changeset="12481618">
    <nd ref="598916858"/>
    <nd ref="598916860"/>
    <nd ref="598916857"/>
    <nd ref="598916854"/>
    <nd ref="598916855"/>
    <nd ref="598916856"/>
    <nd ref="600645153"/>
    <nd ref="1837296947"/>
    <nd ref="600645147"/>
    <tag k="bridge" v="viaduct"/>
    <tag k="highway" v="motorway"/>
    <tag k="maxspeed" v="60"/>
    <tag k="ref" v="MR4"/>
    <tag k="source" v="nearmap"/>
  </way>
  <way id="46914883" version="8" timestamp="2012-07-31T04:11:11Z" uid="7523" user="inas" changeset="12556353">
    <nd ref="598916858"/>
    <nd ref="598916860"/>
    <nd ref="598916857"/>
    <nd ref="598916854"/>
    <nd ref="598916855"/>
    <nd ref="598916856"/>
    <nd ref="600645153"/>
    <nd ref="1837296947"/>
    <nd ref="600645147"/>
    <tag k="bridge" v="viaduct"/>
    <tag k="highway" v="motorway"/>
    <tag k="maxspeed" v="60"/>
    <tag k="network" v="MR"/>
    <tag k="ref" v="4"/>
    <tag k="source" v="nearmap"/>
  </way>
  <way id="46914883" version="9" timestamp="2012-08-06T04:10:20Z" uid="7523" user="inas" changeset="12628539"/>
  <way id="46914884" version="7" timestamp="2012-06-23T05:19:28Z" uid="7523" user="inas" changeset="11985352">
    <nd ref="26363026"/>
    <nd ref="598916852"/>
    <nd ref="26363001"/>
    <nd ref="26627282"/>
    <nd ref="26627279"/>
    <nd ref="26362999"/>
    <nd ref="26627280"/>
    <nd ref="26362997"/>
    <nd ref="26627281"/>
    <nd ref="26362995"/>
    <nd ref="26362584"/>
    <tag k="bridge" v="viaduct"/>
    <tag k="highway" v="motorway"/>
    <tag k="layer" v="2"/>
    <tag k="maxspeed" v="60"/>
    <tag k="name" v="Western Distributor"/>
    <tag k="oneway" v="yes"/>
    <tag k="ref" v="MR4"/>
  </way>
  <way id="46914884" version="8" timestamp="2012-07-19T21:34:27Z" uid="722137" user="OSMF Redaction Account" changeset="12348390">
    <nd ref="26363001"/>
    <nd ref="26627282"/>
    <nd ref="26627279"/>
    <nd ref="26362999"/>
    <nd ref="26627280"/>
    <nd ref="26362997"/>
    <nd ref="26627281"/>
    <nd ref="26362995"/>
    <nd ref="26362584"/>
    <tag k="bridge" v="viaduct"/>
    <tag k="highway" v="motorway"/>
    <tag k="maxspeed" v="60"/>
    <tag k="name" v="Western Distributor"/>
    <tag k="ref" v="MR4"/>
  </way>
  <way id="46914884" version="9" timestamp="2012-07-25T06:16:58Z" uid="7523" user="inas" changeset="12481618">
    <nd ref="600645147"/>
    <nd ref="26363001"/>
    <nd ref="26627282"/>
    <nd ref="26627279"/>
    <nd ref="26362999"/>
    <nd ref="26627280"/>
    <nd ref="26362997"/>
    <nd ref="26627281"/>
    <nd ref="26362995"/>
    <nd ref="26362584"/>
    <tag k="bridge" v="viaduct"/>
    <tag k="highway" v="motorway"/>
    <tag k="maxspeed" v="60"/>
    <tag k="name" v="Western Distributor"/>
    <tag k="ref" v="MR4"/>
  </way>
  <way id="46914884" version="10" timestamp="2012-07-31T04:15:35Z" uid="7523" user="inas" changeset="12556367">
    <nd ref="600645147"/>
    <nd ref="26363001"/>
    <nd ref="26627282"/>
    <nd ref="1844861838"/>
    <nd ref="26627279"/>
    <nd ref="1844861839"/>
    <nd ref="26362999"/>
    <nd ref="1844861837"/>
    <nd ref="26627280"/>
    <nd ref="26362997"/>
    <nd ref="26627281"/>
    <nd ref="26362995"/>
    <nd ref="26362584"/>
    <tag k="bridge" v="viaduct"/>
    <tag k="highway" v="motorway"/>
    <tag k="layer" v="2"/>
    <tag k="maxspeed" v="60"/>
    <tag k="name" v="Western Distributor"/>
    <tag k="network" v="MR"/>
    <tag k="ref" v="4"/>
  </way>
  <way id="46914884" version="11" timestamp="2012-08-06T04:12:08Z" uid="7523" user="inas" changeset="12628547">
    <nd ref="1853796456"/>
    <nd ref="600645147"/>
    <nd ref="26363001"/>
    <nd ref="26627282"/>
    <nd ref="1844861838"/>
    <nd ref="26627279"/>
    <nd ref="1844861839"/>
    <nd ref="26362999"/>
    <nd ref="1844861837"/>
    <nd ref="26627280"/>
    <nd ref="26362997"/>
    <nd ref="26627281"/>
    <nd ref="26362995"/>
    <nd ref="26362584"/>
    <tag k="bridge" v="viaduct"/>
    <tag k="highway" v="motorway"/>
    <tag k="layer" v="2"/>
    <tag k="maxspeed" v="60"/>
    <tag k="name" v="Western Distributor"/>
    <tag k="network" v="MR"/>
    <tag k="ref" v="4"/>
  </way>
  <way id="46914885" version="6" timestamp="2012-07-19T21:34:33Z" uid="722137" user="OSMF Redaction Account" changeset="12348390">
    <nd ref="26377065"/>
    <nd ref="600645157"/>
    <nd ref="600645155"/>
    <nd ref="600645156"/>
    <nd ref="912508579"/>
    <tag k="maxspeed" v="60"/>
  </way>
  <way id="46914885" version="7" timestamp="2012-08-06T04:06:42Z" uid="7523" user="inas" changeset="12628523"/>
  <way id="46914886" version="7" timestamp="2012-07-19T21:40:43Z" uid="722137" user="OSMF Redaction Account" changeset="12348758"/>
  <way id="46914888" version="9" timestamp="2012-07-19T21:40:50Z" uid="722137" user="OSMF Redaction Account" changeset="12348758"/>
  <way id="46914889" version="4" timestamp="2012-07-19T21:40:45Z" uid="722137" user="OSMF Redaction Account" changeset="12348758"/>
</osm>
