<?xml version='1.0' encoding='UTF-8'?>
<osm version="0.6" generator="libosmium/2.20.0">
  <way id="46965243" version="2" timestamp="2010-03-28T11:34:12Z" uid="20587" user="balrog-kun" changeset="4254597">
    <nd ref="599324918"/>
    <nd ref="123658547"/>
    <tag k="bridge" v="yes"/>
    <tag k="highway" v="residential"/>
    <tag k="layer" v="1"/>
    <tag k="name" v="West Lemon Avenue"/>
    <tag k="tiger:cfcc" v="A41"/>
    <tag k="tiger:county" v="Los Angeles, CA"/>
    <tag k="tiger:name_base" v="Lemon"/>
    <tag k="tiger:name_direction_prefix" v="W"/>
    <tag k="tiger:name_type" v="Ave"/>
    <tag k="tiger:separated" v="no"/>
    <tag k="tiger:source" v="tiger_import_dch_v0.6_20070809"/>
    <tag k="tiger:tlid" v="141645402:141645372"/>
    <tag k="tiger:zip_left" v="91007"/>
    <tag k="tiger:zip_right" v="91007"/>
  </way>
  <way id="46965244" version="2" timestamp="2010-03-28T11:34:12Z" uid="20587" user="balrog-kun" changeset="4254597">
    <nd ref="599324912"/>
    <nd ref="599324913"/>
    <nd ref="599324911"/>
    <nd ref="122642980"/>
    <nd ref="599324908"/>
    <nd ref="122642983"/>
    <tag k="highway" v="residential"/>
    <tag k="name" v="Sharon Road"/>
    <tag k="tiger:cfcc" v="A41"/>
    <tag k="tiger:county" v="Los Angeles, CA"/>
    <tag k="tiger:name_base" v="Sharon"/>
    <tag k="tiger:name_type" v="Rd"/>
    <tag k="tiger:separated" v="no"/>
    <tag k="tiger:source" v="tiger_import_dch_v0.6_20070809"/>
    <tag k="tiger:tlid" v="141644700:141644750:141644752"/>
    <tag k="tiger:zip_left" v="91007"/>
    <tag k="tiger:zip_right" v="91007"/>
  </way>
  <way id="46965245" version="2" timestamp="2010-03-28T11:34:12Z" uid="20587" user="balrog-kun" changeset="4254597">
    <nd ref="123717210"/>
    <nd ref="123175385"/>
    <nd ref="123717212"/>
    <nd ref="123375958"/>
    <nd ref="122790688"/>
    <nd ref="123695590"/>
    <nd ref="123695584"/>
    <nd ref="123476911"/>
    <tag k="highway" v="residential"/>
    <tag k="name" v="West Norman Avenue"/>
    <tag k="tiger:cfcc" v="A41"/>
    <tag k="tiger:county" v="Los Angeles, CA"/>
    <tag k="tiger:name_base" v="Norman"/>
    <tag k="tiger:name_direction_prefix" v="W"/>
    <tag k="tiger:name_type" v="Ave"/>
    <tag k="tiger:separated" v="no"/>
    <tag k="tiger:source" v="tiger_import_dch_v0.6_20070809"/>
    <tag k="tiger:tlid" v="141644695:141644709:141644710:141645354:141645369:141645410:141645376:141644698"/>
    <tag k="tiger:zip_left" v="91007"/>
    <tag k="tiger:zip_right" v="91007"/>
  </way>
  <way id="46965245" version="3" timestamp="2010-08-12T06:14:48Z" uid="82317" user="AM909" changeset="5468861">
    <nd ref="123717210"/>
    <nd ref="123175385"/>
    <nd ref="856215027"/>
    <nd ref="856214986"/>
    <nd ref="123717212"/>
    <nd ref="123375958"/>
    <nd ref="122790688"/>
    <nd ref="123695590"/>
    <nd ref="123695584"/>
    <nd ref="856215024"/>
    <nd ref="123476911"/>
    <tag k="highway" v="residential"/>
    <tag k="name" v="West Norman Avenue"/>
    <tag k="tiger:cfcc" v="A41"/>
    <tag k="tiger:county" v="Los Angeles, CA"/>
    <tag k="tiger:name_base" v="Norman"/>
    <tag k="tiger:name_direction_prefix" v="W"/>
    <tag k="tiger:name_type" v="Ave"/>
    <tag k="tiger:separated" v="no"/>
    <tag k="tiger:source" v="tiger_import_dch_v0.6_20070809"/>
    <tag k="tiger:tlid" v="141644695:141644709:141644710:141645354:141645369:141645410:141645376:141644698"/>
    <tag k="tiger:zip_left" v="91007"/>
    <tag k="tiger:zip_right" v="91007"/>
  </way>
  <way id="46965246" version="2" timestamp="2010-03-28T11:34:13Z" uid="20587" user="balrog-kun" changeset="4254597">
    <nd ref="599324914"/>
    <nd ref="123717210"/>
    <tag k="bridge" v="yes"/>
    <tag k="highway" v="residential"/>
    <tag k="layer" v="1"/>
    <tag k="name" v="West Norman Avenue"/>
    <tag k="tiger:cfcc" v="A41"/>
    <tag k="tiger:county" v="Los Angeles, CA"/>
    <tag k="tiger:name_base" v="Norman"/>
    <tag k="tiger:name_direction_prefix" v="W"/>
    <tag k="tiger:name_type" v="Ave"/>
    <tag k="tiger:separated" v="no"/>
    <tag k="tiger:source" v="tiger_import_dch_v0.6_20070809"/>
    <tag k="tiger:tlid" v="141644695:141644709:141644710:141645354:141645369:141645410:141645376:141644698"/>
    <tag k="tiger:zip_left" v="91007"/>
    <tag k="tiger:zip_right" v="91007"/>
  </way>
  <way id="46965247" version="2" timestamp="2010-03-28T11:34:13Z" uid="20587" user="balrog-kun" changeset="4254597">
    <nd ref="123658547"/>
    <nd ref="123175387"/>
    <tag k="highway" v="residential"/>
    <tag k="name" v="West Lemon Avenue"/>
    <tag k="tiger:cfcc" v="A41"/>
    <tag k="tiger:county" v="Los Angeles, CA"/>
    <tag k="tiger:name_base" v="Lemon"/>
    <tag k="tiger:name_direction_prefix" v="W"/>
    <tag k="tiger:name_type" v="Ave"/>
    <tag k="tiger:separated" v="no"/>
    <tag k="tiger:source" v="tiger_import_dch_v0.6_20070809"/>
    <tag k="tiger:tlid" v="141645402:141645372"/>
    <tag k="tiger:zip_left" v="91007"/>
    <tag k="tiger:zip_right" v="91007"/>
  </way>
  <way id="46965453" version="9" timestamp="2011-04-20T11:25:55Z" uid="115477" user="wowik" changeset="7915253">
    <nd ref="599326812"/>
    <nd ref="599326813"/>
    <nd ref="599326814"/>
    <nd ref="599326815"/>
    <nd ref="599326812"/>
    <tag k="addr:city" v="Москва"/>
    <tag k="addr:country" v="RU"/>
    <tag k="addr:housenumber" v="26/40 с2"/>
    <tag k="addr:housenumber2" v="40/26 с2"/>
    <tag k="addr:street" v="Садовая-Кудринская улица"/>
    <tag k="addr:street2" v="улица Спиридоновка"/>
    <tag k="building" v="yes"/>
    <tag k="cladr:code" v="77000000000255100"/>
  </way>
  <way id="46965454" version="6" timestamp="2011-04-20T11:26:50Z" uid="115477" user="wowik" changeset="7915253">
    <nd ref="599326816"/>
    <nd ref="599326817"/>
    <nd ref="599326818"/>
    <nd ref="599326819"/>
    <nd ref="599326816"/>
    <tag k="addr:city" v="Москва"/>
    <tag k="addr:country" v="RU"/>
    <tag k="addr:housenumber" v="26/40"/>
    <tag k="addr:housenumber2" v="40/26"/>
    <tag k="addr:street" v="Ермолаевский переулок"/>
    <tag k="addr:street2" v="улица Спиридоновка"/>
    <tag k="building" v="yes"/>
    <tag k="cladr:code" v="77000000000702200"/>
  </way>
  <way id="46965627" version="6" timestamp="2011-04-20T11:26:23Z" uid="115477" user="wowik" changeset="7915253">
    <nd ref="599328543"/>
    <nd ref="599328544"/>
    <nd ref="599328545"/>
    <nd ref="599328546"/>
    <nd ref="599328543"/>
    <tag k="addr:city" v="Москва"/>
    <tag k="addr:country" v="RU"/>
    <tag k="addr:housenumber" v="15"/>
    <tag k="addr:street" v="Садовая-Кудринская улица"/>
    <tag k="amenity" v="hospital"/>
    <tag k="building" v="yes"/>
    <tag k="cladr:code" v="77000000000255100"/>
    <tag k="name" v="Детская клиническая больница №13 им. Н.Ф. Филатова"/>
  </way>
  <way id="46965654" version="5" timestamp="2011-04-20T11:25:35Z" uid="115477" user="wowik" changeset="7915253">
    <nd ref="599328892"/>
    <nd ref="599328893"/>
    <nd ref="599328894"/>
    <nd ref="599328895"/>
    <nd ref="599328896"/>
    <nd ref="599328897"/>
    <nd ref="599328892"/>
    <tag k="addr:city" v="Москва"/>
    <tag k="addr:country" v="RU"/>
    <tag k="addr:housenumber" v="17"/>
    <tag k="addr:street" v="Садовая-Кудринская улица"/>
    <tag k="amenity" v="embassy"/>
    <tag k="building" v="yes"/>
    <tag k="cladr:code" v="77000000000255100"/>
    <tag k="country" v="PK"/>
    <tag k="name" v="посольство Пакистана"/>
    <tag k="name:de" v="Botschaft von Pakistan"/>
    <tag k="name:en" v="Embassy of Pakistan"/>
    <tag k="name:ru" v="посольство Пакистана"/>
  </way>
  <way id="46965654" version="6" timestamp="2011-08-30T18:48:14Z" uid="433361" user="Dima M" changeset="9170068">
    <nd ref="599328892"/>
    <nd ref="599328893"/>
    <nd ref="599328894"/>
    <nd ref="599328895"/>
    <nd ref="599328896"/>
    <nd ref="599328897"/>
    <nd ref="599328892"/>
    <tag k="addr:city" v="Москва"/>
    <tag k="addr:country" v="RU"/>
    <tag k="addr:housenumber" v="17 c1"/>
    <tag k="addr:street" v="Садовая-Кудринская улица"/>
    <tag k="amenity" v="embassy"/>
    <tag k="building" v="yes"/>
    <tag k="cladr:code" v="77000000000255100"/>
    <tag k="country" v="PK"/>
    <tag k="name" v="посольство Пакистана"/>
    <tag k="name:de" v="Botschaft von Pakistan"/>
    <tag k="name:en" v="Embassy of Pakistan"/>
    <tag k="name:ru" v="посольство Пакистана"/>
  </way>
  <way id="46965711" version="3" timestamp="2011-04-20T11:26:45Z" uid="115477" user="wowik" changeset="7915253">
    <nd ref="599329443"/>
    <nd ref="599329444"/>
    <nd ref="599329446"/>
    <nd ref="599329448"/>
    <nd ref="599329443"/>
    <tag k="addr:city" v="Москва"/>
    <tag k="addr:country" v="RU"/>
    <tag k="addr:housenumber" v="23"/>
    <tag k="addr:street" v="Садовая-Кудринская улица"/>
    <tag k="building" v="yes"/>
    <tag k="cladr:code" v="77000000000255100"/>
  </way>
  <way id="46965711" version="4" timestamp="2011-08-30T18:48:18Z" uid="433361" user="Dima M" changeset="9170068">
    <nd ref="599329443"/>
    <nd ref="599329444"/>
    <nd ref="599329446"/>
    <nd ref="599329448"/>
    <nd ref="599329443"/>
    <tag k="addr:city" v="Москва"/>
    <tag k="addr:country" v="RU"/>
    <tag k="addr:housenumber" v="23 с1"/>
    <tag k="addr:street" v="Садовая-Кудринская улица"/>
    <tag k="building" v="yes"/>
    <tag k="cladr:code" v="77000000000255100"/>
  </way>
  <way id="46965730" version="5" timestamp="2011-04-20T11:26:24Z" uid="115477" user="wowik" changeset="7915253">
    <nd ref="599329678"/>
    <nd ref="599329680"/>
    <nd ref="599329682"/>
    <nd ref="599329684"/>
    <nd ref="599329678"/>
    <tag k="addr:city" v="Москва"/>
    <tag k="addr:country" v="RU"/>
    <tag k="addr:housenumber" v="21 с5"/>
    <tag k="addr:street" v="Садовая-Кудринская улица"/>
    <tag k="building" v="yes"/>
    <tag k="cladr:code" v="77000000000255100"/>
  </way>
  <way id="46965811" version="5" timestamp="2011-04-20T11:26:01Z" uid="115477" user="wowik" changeset="7915253">
    <nd ref="599330394"/>
    <nd ref="599330396"/>
    <nd ref="599330400"/>
    <nd ref="599330401"/>
    <nd ref="599330402"/>
    <nd ref="599330403"/>
    <nd ref="599330394"/>
    <tag k="addr:city" v="Москва"/>
    <tag k="addr:country" v="RU"/>
    <tag k="addr:housenumber" v="2/46"/>
    <tag k="addr:housenumber2" v="46/2"/>
    <tag k="addr:street" v="Большая Садовая улица"/>
    <tag k="addr:street2" v="Малая Бронная улица"/>
    <tag k="building" v="yes"/>
    <tag k="cladr:code" v="77000000000254200"/>
  </way>
  <way id="46965811" version="6" timestamp="2012-03-19T22:01:59Z" uid="260756" user="Felis Pimeja" changeset="11035572">
    <nd ref="599928734"/>
    <nd ref="599330396"/>
    <nd ref="1682353989"/>
    <nd ref="599330400"/>
    <nd ref="599330401"/>
    <nd ref="599330402"/>
    <nd ref="1682353936"/>
    <nd ref="599928734"/>
    <tag k="addr:city" v="Москва"/>
    <tag k="addr:country" v="RU"/>
    <tag k="addr:housenumber" v="2/46"/>
    <tag k="addr:housenumber2" v="46/2"/>
    <tag k="addr:street" v="Большая Садовая улица"/>
    <tag k="addr:street2" v="Малая Бронная улица"/>
    <tag k="building" v="yes"/>
    <tag k="cladr:code" v="77000000000254200"/>
  </way>
  <way id="46965243" version="3" timestamp="2012-07-19T05:05:02Z" uid="722137" user="OSMF Redaction Account" changeset="12308841"/>
  <way id="46965244" version="3" timestamp="2012-07-19T05:05:02Z" uid="722137" user="OSMF Redaction Account" changeset="12308841"/>
  <way id="46965245" version="4" timestamp="2012-07-19T05:03:51Z" uid="722137" user="OSMF Redaction Account" changeset="12308801">
    <nd ref="856215027"/>
    <nd ref="856214986"/>
    <nd ref="856215024"/>
  </way>
  <way id="46965245" version="5" timestamp="2012-08-29T06:11:59Z" uid="50743" user="dima" changeset="12900943">
    <nd ref="856215031"/>
    <nd ref="599324914"/>
    <tag k="highway" v="residential"/>
    <tag k="name" v="Callita Street"/>
    <tag k="source" v="usgs_imagery;survey;image"/>
    <tag k="source_ref" v="AM909_DSCU3651"/>
    <tag k="tiger:cfcc" v="A41"/>
    <tag k="tiger:county" v="Los Angeles, CA"/>
    <tag k="tiger:name_base" v="Callita"/>
    <tag k="tiger:name_type" v="St"/>
    <tag k="tiger:separated" v="no"/>
    <tag k="tiger:source" v="tiger_import_dch_v0.6_20070809"/>
    <tag k="tiger:tlid" v="141644693"/>
    <tag k="tiger:zip_left" v="91007"/>
    <tag k="tiger:zip_right" v="91007"/>
  </way>
  <way id="46965246" version="3" timestamp="2012-07-19T05:05:03Z" uid="722137" user="OSMF Redaction Account" changeset="12308846"/>
  <way id="46965247" version="3" timestamp="2012-07-19T05:05:02Z" uid="722137" user="OSMF Redaction Account" changeset="12308841"/>
  <way id="46965453" version="10" timestamp="2012-07-20T11:57:56Z" uid="722137" user="OSMF Redaction Account" changeset="12374607">
    <nd ref="599326812"/>
    <nd ref="599326813"/>
    <nd ref="599326814"/>
    <nd ref="599326815"/>
    <nd ref="599326812"/>
    <tag k="addr:country" v="RU"/>
    <tag k="addr:housenumber" v="26/40 с2"/>
    <tag k="addr:housenumber2" v="40/26 с2"/>
    <tag k="addr:street" v="Садовая-Кудринская улица"/>
    <tag k="addr:street2" v="улица Спиридоновка"/>
    <tag k="building" v="yes"/>
    <tag k="cladr:code" v="77000000000255100"/>
  </way>
  <way id="46965454" version="7" timestamp="2012-07-20T11:57:48Z" uid="722137" user="OSMF Redaction Account" changeset="12374607">
    <nd ref="599326816"/>
    <nd ref="599326817"/>
    <nd ref="599326818"/>
    <nd ref="599326819"/>
    <nd ref="599326816"/>
    <tag k="addr:housenumber" v="26/40"/>
    <tag k="addr:housenumber2" v="40/26"/>
    <tag k="addr:street" v="Ермолаевский переулок"/>
    <tag k="addr:street2" v="улица Спиридоновка"/>
    <tag k="building" v="yes"/>
    <tag k="cladr:code" v="77000000000702200"/>
  </way>
  <way id="46965627" version="7" timestamp="2012-07-20T11:58:10Z" uid="722137" user="OSMF Redaction Account" changeset="12374607">
    <nd ref="599328543"/>
    <nd ref="599328544"/>
    <nd ref="599328545"/>
    <nd ref="599328546"/>
    <nd ref="599328543"/>
    <tag k="addr:housenumber" v="15"/>
    <tag k="addr:street" v="Садовая-Кудринская улица"/>
    <tag k="amenity" v="hospital"/>
    <tag k="building" v="yes"/>
    <tag k="cladr:code" v="77000000000255100"/>
    <tag k="name" v="Детская клиническая больница №13 им. Н.Ф. Филатова"/>
  </way>
  <way id="46965654" version="7" timestamp="2012-07-20T11:58:23Z" uid="722137" user="OSMF Redaction Account" changeset="12374607">
    <nd ref="599328892"/>
    <nd ref="599328893"/>
    <nd ref="599328894"/>
    <nd ref="599328895"/>
    <nd ref="599328896"/>
    <nd ref="599328897"/>
    <nd ref="599328892"/>
    <tag k="addr:housenumber" v="17 c1"/>
    <tag k="addr:street" v="Садовая-Кудринская улица"/>
    <tag k="amenity" v="embassy"/>
    <tag k="building" v="yes"/>
    <tag k="cladr:code" v="77000000000255100"/>
    <tag k="country" v="PK"/>
    <tag k="name" v="посольство Пакистана"/>
    <tag k="name:de" v="Botschaft von Pakistan"/>
    <tag k="name:en" v="Embassy of Pakistan"/>
    <tag k="name:ru" v="посольство Пакистана"/>
  </way>
  <way id="46965711" version="5" timestamp="2012-07-20T11:58:42Z" uid="722137" user="OSMF Redaction Account" changeset="12374607">
    <nd ref="599329443"/>
    <nd ref="599329444"/>
    <nd ref="599329446"/>
    <nd ref="599329448"/>
    <nd ref="599329443"/>
    <tag k="addr:housenumber" v="23 с1"/>
    <tag k="addr:street" v="Садовая-Кудринская улица"/>
    <tag k="building" v="yes"/>
    <tag k="cladr:code" v="77000000000255100"/>
  </way>
  <way id="46965730" version="6" timestamp="2012-07-20T11:58:38Z" uid="722137" user="OSMF Redaction Account" changeset="12374607">
    <nd ref="599329678"/>
    <nd ref="599329680"/>
    <nd ref="599329682"/>
    <nd ref="599329684"/>
    <nd ref="599329678"/>
    <tag k="addr:housenumber" v="21 с5"/>
    <tag k="addr:street" v="Садовая-Кудринская улица"/>
    <tag k="building" v="yes"/>
    <tag k="cladr:code" v="77000000000255100"/>
  </way>
  <way id="46965811" version="7" timestamp="2012-07-20T11:58:42Z" uid="722137" user="OSMF Redaction Account" changeset="12374607">
    <nd ref="599928734"/>
    <nd ref="599330396"/>
    <nd ref="1682353989"/>
    <nd ref="599330400"/>
    <nd ref="599330401"/>
    <nd ref="599330402"/>
    <nd ref="1682353936"/>
    <nd ref="599928734"/>
    <tag k="addr:housenumber" v="2/46"/>
    <tag k="addr:housenumber2" v="46/2"/>
    <tag k="addr:street" v="Большая Садовая улица"/>
    <tag k="addr:street2" v="Малая Бронная улица"/>
    <tag k="building" v="yes"/>
    <tag k="cladr:code" v="77000000000254200"/>
  </way>
</osm>
