<?xml version='1.0' encoding='UTF-8'?>
<osm version="0.6" generator="libosmium/2.20.0">
  <way id="46998075" version="4" timestamp="2010-02-12T01:11:11Z" uid="30201" user="rrankin" changeset="3853279">
    <nd ref="599644249"/>
    <nd ref="599645912"/>
    <nd ref="599645924"/>
    <nd ref="599645928"/>
    <nd ref="599645931"/>
    <tag k="bicycle" v="no"/>
    <tag k="highway" v="motorway"/>
    <tag k="lanes" v="4"/>
    <tag k="maxspeed" v="signals"/>
    <tag k="name" v="Western Motorway"/>
    <tag k="oneway" v="yes"/>
    <tag k="ref" v="MR4"/>
    <tag k="source" v="nearmap"/>
  </way>
  <way id="46998075" version="5" timestamp="2010-04-01T07:41:40Z" uid="74617" user="JohnSmith" changeset="4291360">
    <nd ref="599644249"/>
    <nd ref="599645912"/>
    <nd ref="599645924"/>
    <nd ref="599645928"/>
    <nd ref="599645931"/>
    <nd ref="599646542"/>
    <nd ref="599646543"/>
    <nd ref="21703340"/>
    <nd ref="134126572"/>
    <tag k="bicycle" v="no"/>
    <tag k="highway" v="motorway"/>
    <tag k="lanes" v="3"/>
    <tag k="maxspeed" v="signals"/>
    <tag k="name" v="Western Motorway"/>
    <tag k="oneway" v="yes"/>
    <tag k="source" v="nearmap"/>
  </way>
  <way id="46998075" version="6" timestamp="2010-04-01T07:51:08Z" uid="74617" user="JohnSmith" changeset="4291360">
    <nd ref="599644249"/>
    <nd ref="599645912"/>
    <nd ref="599645924"/>
    <nd ref="599645928"/>
    <nd ref="599645931"/>
    <nd ref="599646542"/>
    <nd ref="599646543"/>
    <nd ref="21703340"/>
    <nd ref="134126572"/>
    <tag k="bicycle" v="no"/>
    <tag k="highway" v="motorway"/>
    <tag k="lanes" v="3"/>
    <tag k="maxspeed" v="signals"/>
    <tag k="oneway" v="yes"/>
    <tag k="source" v="nearmap"/>
  </way>
  <way id="46998075" version="7" timestamp="2010-06-19T03:20:11Z" uid="299678" user="peteramjet" changeset="5020744">
    <nd ref="599644249"/>
    <nd ref="599645912"/>
    <nd ref="599645924"/>
    <nd ref="599645928"/>
    <nd ref="599645931"/>
    <nd ref="599646542"/>
    <nd ref="599646543"/>
    <nd ref="775915207"/>
    <nd ref="21703340"/>
    <nd ref="134126572"/>
    <tag k="bicycle" v="no"/>
    <tag k="highway" v="motorway"/>
    <tag k="lanes" v="3"/>
    <tag k="maxspeed" v="signals"/>
    <tag k="name" v="M4 Western Motorway"/>
    <tag k="oneway" v="yes"/>
    <tag k="source" v="nearmap"/>
  </way>
  <way id="46998075" version="8" timestamp="2010-06-30T08:08:30Z" uid="299678" user="peteramjet" changeset="5111489">
    <nd ref="599644249"/>
    <nd ref="599645912"/>
    <nd ref="599645924"/>
    <nd ref="599645928"/>
    <nd ref="599645931"/>
    <nd ref="599646542"/>
    <nd ref="599646543"/>
    <nd ref="775915207"/>
    <nd ref="21703340"/>
    <nd ref="134126572"/>
    <tag k="bicycle" v="no"/>
    <tag k="highway" v="motorway"/>
    <tag k="lanes" v="3"/>
    <tag k="maxspeed" v="signals"/>
    <tag k="name" v="M4 Western Motorway"/>
    <tag k="oneway" v="yes"/>
    <tag k="ref" v="MR4"/>
    <tag k="source" v="nearmap"/>
  </way>
  <way id="46998075" version="9" timestamp="2010-07-09T23:06:55Z" uid="299678" user="peteramjet" changeset="5177814">
    <nd ref="599644249"/>
    <nd ref="599645912"/>
    <nd ref="599645924"/>
    <nd ref="599645928"/>
    <nd ref="599645931"/>
    <nd ref="599646542"/>
    <nd ref="599646543"/>
    <nd ref="775915207"/>
    <nd ref="21703340"/>
    <nd ref="134126572"/>
    <tag k="bicycle" v="no"/>
    <tag k="highway" v="motorway"/>
    <tag k="lanes" v="3"/>
    <tag k="maxspeed" v="signals"/>
    <tag k="name" v="M4 Western Motorway"/>
    <tag k="oneway" v="yes"/>
    <tag k="source" v="nearmap"/>
  </way>
  <way id="46998075" version="10" timestamp="2011-07-01T08:45:28Z" uid="479985" user="Adutchoz" changeset="8597179">
    <nd ref="599644249"/>
    <nd ref="599645912"/>
    <nd ref="599645924"/>
    <nd ref="599645928"/>
    <nd ref="599645931"/>
    <nd ref="599646542"/>
    <nd ref="599646543"/>
    <nd ref="775915207"/>
    <nd ref="21703340"/>
    <nd ref="134126572"/>
    <tag k="bicycle" v="no"/>
    <tag k="highway" v="motorway"/>
    <tag k="lanes" v="3"/>
    <tag k="maxspeed" v="90"/>
    <tag k="name" v="M4 Western Motorway"/>
    <tag k="oneway" v="yes"/>
    <tag k="source" v="nearmap"/>
  </way>
  <way id="46998075" version="11" timestamp="2012-01-31T05:22:16Z" uid="54784" user="Tom Hollander" changeset="10546288">
    <nd ref="599644249"/>
    <nd ref="599645912"/>
    <nd ref="599645924"/>
    <nd ref="599645928"/>
    <nd ref="599645931"/>
    <nd ref="599646542"/>
    <nd ref="599646543"/>
    <nd ref="775915207"/>
    <nd ref="21703340"/>
    <nd ref="134126572"/>
    <tag k="bicycle" v="no"/>
    <tag k="highway" v="motorway"/>
    <tag k="lanes" v="3"/>
    <tag k="maxspeed" v="90"/>
    <tag k="name" v="M4 Western Motorway"/>
    <tag k="oneway" v="yes"/>
    <tag k="ref" v="M4"/>
    <tag k="source" v="nearmap"/>
  </way>
  <way id="46998832" version="7" timestamp="2010-04-01T07:39:39Z" uid="74617" user="JohnSmith" changeset="4291360">
    <nd ref="31428468"/>
    <nd ref="26398887"/>
    <nd ref="599647424"/>
    <nd ref="26398886"/>
    <nd ref="599647509"/>
    <nd ref="599647510"/>
    <nd ref="599647655"/>
    <nd ref="26398885"/>
    <tag k="bicycle" v="no"/>
    <tag k="highway" v="motorway"/>
    <tag k="lanes" v="2"/>
    <tag k="maxspeed" v="signals"/>
    <tag k="name" v="Western Motorway"/>
    <tag k="oneway" v="yes"/>
  </way>
  <way id="46998832" version="8" timestamp="2010-04-01T07:51:05Z" uid="74617" user="JohnSmith" changeset="4291360">
    <nd ref="31428468"/>
    <nd ref="26398887"/>
    <nd ref="599647424"/>
    <nd ref="26398886"/>
    <nd ref="599647509"/>
    <nd ref="599647510"/>
    <nd ref="599647655"/>
    <nd ref="26398885"/>
    <tag k="bicycle" v="no"/>
    <tag k="highway" v="motorway"/>
    <tag k="lanes" v="2"/>
    <tag k="maxspeed" v="signals"/>
    <tag k="oneway" v="yes"/>
  </way>
  <way id="46998832" version="9" timestamp="2010-06-19T03:34:45Z" uid="299678" user="peteramjet" changeset="5020744">
    <nd ref="31428468"/>
    <nd ref="26398887"/>
    <nd ref="599647424"/>
    <nd ref="26398886"/>
    <nd ref="599647509"/>
    <nd ref="599647510"/>
    <nd ref="599647655"/>
    <nd ref="26398885"/>
    <tag k="bicycle" v="no"/>
    <tag k="highway" v="motorway"/>
    <tag k="lanes" v="2"/>
    <tag k="maxspeed" v="signals"/>
    <tag k="name" v="M4 Western Motorway"/>
    <tag k="oneway" v="yes"/>
  </way>
  <way id="46998832" version="10" timestamp="2010-06-30T08:08:31Z" uid="299678" user="peteramjet" changeset="5111489">
    <nd ref="31428468"/>
    <nd ref="26398887"/>
    <nd ref="599647424"/>
    <nd ref="26398886"/>
    <nd ref="599647509"/>
    <nd ref="599647510"/>
    <nd ref="599647655"/>
    <nd ref="26398885"/>
    <tag k="bicycle" v="no"/>
    <tag k="highway" v="motorway"/>
    <tag k="lanes" v="2"/>
    <tag k="maxspeed" v="signals"/>
    <tag k="name" v="M4 Western Motorway"/>
    <tag k="oneway" v="yes"/>
    <tag k="ref" v="MR4"/>
  </way>
  <way id="46998832" version="11" timestamp="2010-07-09T23:06:53Z" uid="299678" user="peteramjet" changeset="5177814">
    <nd ref="31428468"/>
    <nd ref="26398887"/>
    <nd ref="599647424"/>
    <nd ref="26398886"/>
    <nd ref="599647509"/>
    <nd ref="599647510"/>
    <nd ref="599647655"/>
    <nd ref="26398885"/>
    <tag k="bicycle" v="no"/>
    <tag k="highway" v="motorway"/>
    <tag k="lanes" v="2"/>
    <tag k="maxspeed" v="signals"/>
    <tag k="name" v="M4 Western Motorway"/>
    <tag k="oneway" v="yes"/>
  </way>
  <way id="46998832" version="12" timestamp="2011-07-01T08:45:32Z" uid="479985" user="Adutchoz" changeset="8597179">
    <nd ref="31428468"/>
    <nd ref="26398887"/>
    <nd ref="599647424"/>
    <nd ref="26398886"/>
    <nd ref="599647509"/>
    <nd ref="599647510"/>
    <nd ref="599647655"/>
    <nd ref="26398885"/>
    <tag k="bicycle" v="no"/>
    <tag k="highway" v="motorway"/>
    <tag k="lanes" v="2"/>
    <tag k="maxspeed" v="70"/>
    <tag k="name" v="M4 Western Motorway"/>
    <tag k="oneway" v="yes"/>
  </way>
  <way id="46998832" version="13" timestamp="2012-01-31T05:22:44Z" uid="54784" user="Tom Hollander" changeset="10546288"/>
  <way id="46998946" version="6" timestamp="2010-04-01T07:39:39Z" uid="74617" user="JohnSmith" changeset="4291360">
    <nd ref="31428468"/>
    <nd ref="599648071"/>
    <nd ref="599648072"/>
    <nd ref="599648073"/>
    <nd ref="599648074"/>
    <nd ref="599648075"/>
    <nd ref="599648076"/>
    <nd ref="599648077"/>
    <nd ref="599648078"/>
    <nd ref="26398885"/>
    <tag k="bicycle" v="no"/>
    <tag k="highway" v="motorway_link"/>
    <tag k="lanes" v="2"/>
    <tag k="maxspeed" v="signals"/>
    <tag k="oneway" v="yes"/>
    <tag k="source" v="nearmap"/>
  </way>
  <way id="46998946" version="7" timestamp="2010-06-19T03:34:47Z" uid="299678" user="peteramjet" changeset="5020744">
    <nd ref="31428468"/>
    <nd ref="599648071"/>
    <nd ref="599648072"/>
    <nd ref="599648073"/>
    <nd ref="599648074"/>
    <nd ref="599648075"/>
    <nd ref="599648076"/>
    <nd ref="599648077"/>
    <nd ref="599648078"/>
    <nd ref="26398885"/>
    <tag k="bicycle" v="no"/>
    <tag k="highway" v="motorway_link"/>
    <tag k="lanes" v="2"/>
    <tag k="maxspeed" v="signals"/>
    <tag k="name" v="M4 Western Motorway"/>
    <tag k="oneway" v="yes"/>
    <tag k="source" v="nearmap"/>
  </way>
  <way id="46998946" version="8" timestamp="2011-07-01T08:45:33Z" uid="479985" user="Adutchoz" changeset="8597179">
    <nd ref="31428468"/>
    <nd ref="599648071"/>
    <nd ref="599648072"/>
    <nd ref="599648073"/>
    <nd ref="599648074"/>
    <nd ref="599648075"/>
    <nd ref="599648076"/>
    <nd ref="599648077"/>
    <nd ref="599648078"/>
    <nd ref="26398885"/>
    <tag k="bicycle" v="no"/>
    <tag k="highway" v="motorway_link"/>
    <tag k="lanes" v="2"/>
    <tag k="maxspeed" v="70"/>
    <tag k="name" v="M4 Western Motorway"/>
    <tag k="oneway" v="yes"/>
    <tag k="source" v="nearmap"/>
  </way>
  <way id="46998946" version="9" timestamp="2012-01-31T05:22:18Z" uid="54784" user="Tom Hollander" changeset="10546288">
    <nd ref="31428468"/>
    <nd ref="26398885"/>
    <tag k="bicycle" v="no"/>
    <tag k="highway" v="motorway_link"/>
    <tag k="lanes" v="2"/>
    <tag k="maxspeed" v="70"/>
    <tag k="name" v="M4 Western Motorway"/>
    <tag k="oneway" v="yes"/>
    <tag k="ref" v="M4"/>
    <tag k="source" v="nearmap"/>
  </way>
  <way id="46998949" version="3" timestamp="2010-10-26T19:43:12Z" uid="43967" user="railsnail" changeset="6185973">
    <nd ref="385726706"/>
    <nd ref="599648131"/>
    <nd ref="206387299"/>
    <nd ref="599648132"/>
    <nd ref="599648133"/>
    <nd ref="599648134"/>
    <nd ref="599648135"/>
    <nd ref="599648136"/>
    <nd ref="599648137"/>
    <nd ref="599648138"/>
    <nd ref="599648139"/>
    <nd ref="599648140"/>
    <nd ref="599648142"/>
    <nd ref="599648143"/>
    <nd ref="599648144"/>
    <nd ref="599648145"/>
    <nd ref="599648146"/>
    <nd ref="599648147"/>
    <nd ref="599648148"/>
    <tag k="highway" v="secondary"/>
    <tag k="name" v="Sachsenburger LStraße"/>
  </way>
  <way id="46998949" version="4" timestamp="2010-11-16T16:16:24Z" uid="51987" user="pronti" changeset="6386102">
    <nd ref="385726706"/>
    <nd ref="599648131"/>
    <nd ref="206387299"/>
    <nd ref="599648132"/>
    <nd ref="599648133"/>
    <nd ref="599648134"/>
    <nd ref="599648135"/>
    <nd ref="599648136"/>
    <nd ref="599648137"/>
    <nd ref="599648138"/>
    <nd ref="599648139"/>
    <nd ref="599648140"/>
    <nd ref="991530258"/>
    <nd ref="599648142"/>
    <nd ref="599648143"/>
    <nd ref="991530267"/>
    <nd ref="599648144"/>
    <nd ref="991530266"/>
    <nd ref="599648145"/>
    <nd ref="599648146"/>
    <nd ref="599648147"/>
    <nd ref="599648148"/>
    <tag k="highway" v="secondary"/>
    <tag k="name" v="Sachsenburger LStraße"/>
  </way>
  <way id="46998949" version="5" timestamp="2011-01-04T14:33:56Z" uid="26239" user="thliborius" changeset="6861153">
    <nd ref="385726706"/>
    <nd ref="599648131"/>
    <nd ref="206387299"/>
    <nd ref="599648132"/>
    <nd ref="1082153219"/>
    <nd ref="599648133"/>
    <nd ref="599648134"/>
    <nd ref="599648135"/>
    <nd ref="599648136"/>
    <nd ref="599648137"/>
    <nd ref="599648138"/>
    <nd ref="599648139"/>
    <nd ref="599648140"/>
    <nd ref="991530258"/>
    <nd ref="599648142"/>
    <nd ref="599648143"/>
    <nd ref="991530267"/>
    <nd ref="599648144"/>
    <nd ref="991530266"/>
    <nd ref="599648145"/>
    <nd ref="599648146"/>
    <nd ref="599648147"/>
    <nd ref="599648148"/>
    <tag k="highway" v="secondary"/>
    <tag k="name" v="Sachsenburger LStraße"/>
  </way>
  <way id="46998949" version="6" timestamp="2011-01-04T14:47:37Z" uid="26239" user="thliborius" changeset="6861153">
    <nd ref="385726706"/>
    <nd ref="599648131"/>
    <tag k="highway" v="secondary"/>
    <tag k="name" v="Sachsenburger LStraße"/>
    <tag k="source" v="bing"/>
  </way>
  <way id="46998949" version="7" timestamp="2011-06-06T13:41:10Z" uid="43967" user="railsnail" changeset="8360427">
    <nd ref="385726706"/>
    <nd ref="1314101331"/>
    <nd ref="599648131"/>
    <tag k="highway" v="secondary"/>
    <tag k="name" v="Sachsenburger LStraße"/>
    <tag k="source" v="bing"/>
  </way>
  <way id="46998075" version="12" timestamp="2012-05-23T01:31:18Z" uid="7523" user="inas" changeset="11677202">
    <nd ref="599644249"/>
    <nd ref="599645924"/>
    <nd ref="599645928"/>
    <nd ref="599645931"/>
    <nd ref="599646542"/>
    <nd ref="599646543"/>
    <nd ref="775915207"/>
    <nd ref="21703340"/>
    <nd ref="134126572"/>
    <tag k="bicycle" v="no"/>
    <tag k="highway" v="motorway"/>
    <tag k="lanes" v="3"/>
    <tag k="maxspeed" v="90"/>
    <tag k="name" v="M4 Western Motorway"/>
    <tag k="oneway" v="yes"/>
    <tag k="ref" v="M4"/>
    <tag k="source" v="nearmap"/>
  </way>
  <way id="46998075" version="13" timestamp="2012-07-20T07:11:33Z" uid="722137" user="OSMF Redaction Account" changeset="12365528">
    <nd ref="599644249"/>
    <nd ref="599645924"/>
    <nd ref="599645928"/>
    <nd ref="599645931"/>
    <nd ref="775915207"/>
    <tag k="bicycle" v="no"/>
    <tag k="highway" v="motorway"/>
    <tag k="lanes" v="4"/>
    <tag k="maxspeed" v="90"/>
    <tag k="name" v="M4 Western Motorway"/>
    <tag k="oneway" v="yes"/>
    <tag k="ref" v="M4"/>
    <tag k="source" v="nearmap"/>
  </way>
  <way id="46998075" version="14" timestamp="2012-07-21T01:05:00Z" uid="47167" user="MCH" changeset="12396995"/>
  <way id="46998946" version="10" timestamp="2012-05-23T01:31:18Z" uid="7523" user="inas" changeset="11677202">
    <nd ref="31428468"/>
    <nd ref="26398885"/>
    <tag k="bicycle" v="no"/>
    <tag k="highway" v="motorway_link"/>
    <tag k="lanes" v="2"/>
    <tag k="maxspeed" v="70"/>
    <tag k="name" v="M4 Western Motorway"/>
    <tag k="oneway" v="yes"/>
    <tag k="source" v="nearmap"/>
  </way>
  <way id="46998946" version="11" timestamp="2012-05-23T04:37:34Z" uid="7523" user="inas" changeset="11677571">
    <nd ref="31428468"/>
    <nd ref="26398885"/>
    <tag k="bicycle" v="no"/>
    <tag k="highway" v="motorway_link"/>
    <tag k="lanes" v="2"/>
    <tag k="maxspeed" v="70"/>
    <tag k="name" v="M4 Western Motorway"/>
    <tag k="network" v="MR"/>
    <tag k="oneway" v="yes"/>
    <tag k="ref" v="4"/>
    <tag k="source" v="nearmap"/>
  </way>
  <way id="46998949" version="8" timestamp="2012-07-16T13:31:52Z" uid="722137" user="OSMF Redaction Account" changeset="12245121"/>
</osm>
