<?xml version='1.0' encoding='UTF-8'?>
<osm version="0.6" generator="libosmium/2.20.0">
  <way id="47051780" version="2" timestamp="2010-04-07T14:11:45Z" uid="20587" user="balrog-kun" changeset="4353646">
    <nd ref="221870585"/>
    <nd ref="221870606"/>
    <tag k="bridge" v="yes"/>
    <tag k="highway" v="secondary"/>
    <tag k="name" v="Lyndon B Johnson Causeway"/>
    <tag k="name_1" v="State Highway 35"/>
    <tag k="tiger:cfcc" v="A31"/>
    <tag k="tiger:county" v="Aransas, TX"/>
    <tag k="tiger:name_base" v="Lyndon B Johnson"/>
    <tag k="tiger:name_base_1" v="State Highway 35"/>
    <tag k="tiger:name_type" v="Cswy"/>
    <tag k="tiger:reviewed" v="no"/>
    <tag k="tiger:separated" v="no"/>
    <tag k="tiger:source" v="tiger_import_dch_v0.6_20070829"/>
    <tag k="tiger:tlid" v="83246334:83253841:83253856:83246303:83259487"/>
  </way>
  <way id="47051780" version="3" timestamp="2011-04-19T07:30:53Z" uid="37392" user="25or6to4" changeset="7903861">
    <nd ref="221870585"/>
    <nd ref="221870606"/>
    <tag k="bridge" v="yes"/>
    <tag k="highway" v="secondary"/>
    <tag k="name" v="Lyndon B Johnson Causeway"/>
    <tag k="ref" v="TX 35"/>
    <tag k="tiger:cfcc" v="A31"/>
    <tag k="tiger:county" v="Aransas, TX"/>
    <tag k="tiger:name_base" v="Lyndon B Johnson"/>
    <tag k="tiger:name_base_1" v="State Highway 35"/>
    <tag k="tiger:name_type" v="Cswy"/>
    <tag k="tiger:separated" v="no"/>
    <tag k="tiger:source" v="tiger_import_dch_v0.6_20070829"/>
    <tag k="tiger:tlid" v="83246334:83253841:83253856:83246303:83259487"/>
  </way>
  <way id="47051780" version="4" timestamp="2012-01-09T13:16:32Z" uid="207745" user="NE2" changeset="10341589">
    <nd ref="221870585"/>
    <nd ref="221870606"/>
    <tag k="bridge" v="yes"/>
    <tag k="highway" v="primary"/>
    <tag k="name" v="Lyndon B Johnson Causeway"/>
    <tag k="ref" v="TX 35"/>
    <tag k="tiger:cfcc" v="A31"/>
    <tag k="tiger:county" v="Aransas, TX"/>
    <tag k="tiger:name_base" v="Lyndon B Johnson"/>
    <tag k="tiger:name_base_1" v="State Highway 35"/>
    <tag k="tiger:name_type" v="Cswy"/>
    <tag k="tiger:separated" v="no"/>
    <tag k="tiger:source" v="tiger_import_dch_v0.6_20070829"/>
    <tag k="tiger:tlid" v="83246334:83253841:83253856:83246303:83259487"/>
  </way>
  <way id="47051783" version="2" timestamp="2010-04-07T14:11:46Z" uid="20587" user="balrog-kun" changeset="4353646">
    <nd ref="221870606"/>
    <nd ref="221870611"/>
    <nd ref="221848721"/>
    <tag k="highway" v="secondary"/>
    <tag k="name" v="Lyndon B Johnson Causeway"/>
    <tag k="name_1" v="State Highway 35"/>
    <tag k="tiger:cfcc" v="A31"/>
    <tag k="tiger:county" v="Aransas, TX"/>
    <tag k="tiger:name_base" v="Lyndon B Johnson"/>
    <tag k="tiger:name_base_1" v="State Highway 35"/>
    <tag k="tiger:name_type" v="Cswy"/>
    <tag k="tiger:reviewed" v="no"/>
    <tag k="tiger:separated" v="no"/>
    <tag k="tiger:source" v="tiger_import_dch_v0.6_20070829"/>
    <tag k="tiger:tlid" v="83246334:83253841:83253856:83246303:83259487"/>
  </way>
  <way id="47051783" version="3" timestamp="2011-04-19T07:30:52Z" uid="37392" user="25or6to4" changeset="7903861">
    <nd ref="221870606"/>
    <nd ref="221870611"/>
    <nd ref="221848721"/>
    <tag k="highway" v="secondary"/>
    <tag k="name" v="Lyndon B Johnson Causeway"/>
    <tag k="name_1" v="State Highway 35"/>
    <tag k="tiger:cfcc" v="A31"/>
    <tag k="tiger:county" v="Aransas, TX"/>
    <tag k="tiger:name_base" v="Lyndon B Johnson"/>
    <tag k="tiger:name_base_1" v="State Highway 35"/>
    <tag k="tiger:name_type" v="Cswy"/>
    <tag k="tiger:separated" v="no"/>
    <tag k="tiger:source" v="tiger_import_dch_v0.6_20070829"/>
    <tag k="tiger:tlid" v="83246334:83253841:83253856:83246303:83259487"/>
  </way>
  <way id="47051783" version="4" timestamp="2012-01-09T13:16:33Z" uid="207745" user="NE2" changeset="10341589">
    <nd ref="221870606"/>
    <nd ref="221870611"/>
    <nd ref="221848721"/>
    <tag k="highway" v="primary"/>
    <tag k="name" v="Lyndon B Johnson Causeway"/>
    <tag k="ref" v="SH 35"/>
    <tag k="tiger:cfcc" v="A31"/>
    <tag k="tiger:county" v="Aransas, TX"/>
    <tag k="tiger:name_base" v="Lyndon B Johnson"/>
    <tag k="tiger:name_base_1" v="State Highway 35"/>
    <tag k="tiger:name_type" v="Cswy"/>
    <tag k="tiger:separated" v="no"/>
    <tag k="tiger:source" v="tiger_import_dch_v0.6_20070829"/>
    <tag k="tiger:tlid" v="83246334:83253841:83253856:83246303:83259487"/>
  </way>
  <way id="47051783" version="5" timestamp="2012-02-19T05:31:23Z" uid="119881" user="Clorox" changeset="10726574">
    <nd ref="221870606"/>
    <nd ref="221870611"/>
    <nd ref="221848721"/>
    <tag k="highway" v="primary"/>
    <tag k="name" v="Lyndon B Johnson Causeway"/>
    <tag k="ref" v="TX 35"/>
    <tag k="tiger:cfcc" v="A31"/>
    <tag k="tiger:county" v="Aransas, TX"/>
    <tag k="tiger:name_base" v="Lyndon B Johnson"/>
    <tag k="tiger:name_base_1" v="State Highway 35"/>
    <tag k="tiger:name_type" v="Cswy"/>
    <tag k="tiger:separated" v="no"/>
    <tag k="tiger:source" v="tiger_import_dch_v0.6_20070829"/>
    <tag k="tiger:tlid" v="83246334:83253841:83253856:83246303:83259487"/>
  </way>
  <way id="47051841" version="2" timestamp="2011-04-02T11:48:04Z" uid="20587" user="balrog-kun" changeset="7743365">
    <nd ref="600124579"/>
    <nd ref="600124580"/>
    <nd ref="600124581"/>
    <nd ref="600124582"/>
    <nd ref="600124583"/>
    <nd ref="600124584"/>
    <nd ref="600124585"/>
    <nd ref="600124579"/>
    <tag k="amenity" v="school"/>
    <tag k="ele" v="5"/>
    <tag k="gnis:county_id" v="075"/>
    <tag k="gnis:created" v="06/14/2000"/>
    <tag k="gnis:feature_id" v="219803"/>
    <tag k="gnis:state_id" v="06"/>
    <tag k="name" v="Bret Harte Elementary School"/>
  </way>
</osm>
