<?xml version='1.0' encoding='UTF-8'?>
<osm version="0.6" generator="libosmium/2.20.0">
  <way id="47103580" version="1" timestamp="2009-12-29T02:18:12Z" uid="7617" user="Franc" changeset="3477512">
    <nd ref="600621272"/>
    <nd ref="600621273"/>
    <nd ref="600621274"/>
    <nd ref="600621271"/>
    <nd ref="600621272"/>
    <tag k="amenity" v="school"/>
    <tag k="source" v="nearmap"/>
  </way>
  <way id="47103580" version="2" timestamp="2010-01-03T09:10:16Z" uid="69319" user="Rhubarb" changeset="3525928">
    <nd ref="600621272"/>
    <nd ref="600621273"/>
    <nd ref="600621274"/>
    <nd ref="600621271"/>
    <nd ref="600621272"/>
    <tag k="amenity" v="school"/>
    <tag k="layer" v="-2"/>
    <tag k="source" v="nearmap"/>
  </way>
  <way id="47103580" version="3" timestamp="2010-01-03T23:17:22Z" uid="69319" user="Rhubarb" changeset="3533594">
    <nd ref="600621272"/>
    <nd ref="600621273"/>
    <nd ref="600621274"/>
    <nd ref="600621271"/>
    <nd ref="600621272"/>
    <tag k="addr:city" v="Kirribilli"/>
    <tag k="addr:country" v="AU"/>
    <tag k="addr:housenumber" v="29"/>
    <tag k="addr:street" v="Burton Street"/>
    <tag k="amenity" v="school"/>
    <tag k="layer" v="-2"/>
    <tag k="name" v="St Aloysius&apos; College Junior School"/>
    <tag k="source" v="nearmap"/>
    <tag k="website" v="http://www.staloysius.nsw.edu.au/"/>
  </way>
  <way id="47103580" version="4" timestamp="2012-03-05T01:03:45Z" uid="7523" user="inas" changeset="10875656"/>
</osm>
