<?xml version='1.0' encoding='UTF-8'?>
<osm version="0.6" generator="libosmium/2.20.0">
  <way id="47221236" version="2" timestamp="2010-02-08T07:57:34Z" uid="74617" user="JohnSmith" changeset="3821217">
    <nd ref="321330731"/>
    <nd ref="597547031"/>
    <nd ref="597547029"/>
    <nd ref="321330732"/>
    <nd ref="597547034"/>
    <nd ref="558198479"/>
    <nd ref="321330677"/>
    <tag k="highway" v="residential"/>
    <tag k="maxspeed" v="50"/>
    <tag k="name" v="Mitta Crescent"/>
  </way>
  <way id="47221236" version="3" timestamp="2012-01-19T19:46:44Z" uid="147510" user="woodpeck_fixbot" changeset="10440306">
    <nd ref="321330731"/>
    <nd ref="597547031"/>
    <nd ref="597547029"/>
    <nd ref="321330732"/>
    <nd ref="597547034"/>
    <nd ref="558198479"/>
    <nd ref="321330677"/>
    <tag k="highway" v="residential"/>
    <tag k="name" v="Mitta Crescent"/>
  </way>
  <way id="47221484" version="2" timestamp="2010-03-28T11:36:29Z" uid="20587" user="balrog-kun" changeset="4254597">
    <nd ref="53120733"/>
    <nd ref="601639531"/>
    <nd ref="601639538"/>
    <nd ref="53157755"/>
    <nd ref="53099565"/>
    <nd ref="53109867"/>
    <nd ref="53132233"/>
    <nd ref="53121102"/>
    <nd ref="53133512"/>
    <nd ref="53114329"/>
    <nd ref="601639552"/>
    <nd ref="601639559"/>
    <nd ref="601639577"/>
    <tag k="highway" v="residential"/>
    <tag k="name" v="San Viciente Terrace"/>
    <tag k="tiger:cfcc" v="A41"/>
    <tag k="tiger:county" v="Alameda, CA"/>
    <tag k="tiger:name_base" v="San Viciente"/>
    <tag k="tiger:name_type" v="Ter"/>
    <tag k="tiger:separated" v="no"/>
    <tag k="tiger:source" v="tiger_import_dch_v0.6_20070809"/>
    <tag k="tiger:tlid" v="125078402:125078403:125078412:125078417:125078418:125078397:125078398"/>
  </way>
  <way id="47221236" version="4" timestamp="2012-07-19T18:46:06Z" uid="722137" user="OSMF Redaction Account" changeset="12343654">
    <nd ref="321330731"/>
    <nd ref="597547031"/>
    <nd ref="321330732"/>
    <nd ref="558198479"/>
    <nd ref="321330677"/>
    <tag k="highway" v="residential"/>
    <tag k="name" v="Mitta Crescent"/>
  </way>
  <way id="47221236" version="5" timestamp="2012-07-19T19:03:45Z" uid="722137" user="OSMF Redaction Account" changeset="12344176">
    <nd ref="321330731"/>
    <nd ref="321330732"/>
    <nd ref="558198479"/>
    <nd ref="321330677"/>
    <tag k="highway" v="residential"/>
    <tag k="name" v="Mitta Crescent"/>
  </way>
</osm>
