<?xml version='1.0' encoding='UTF-8'?>
<osm version="0.6" generator="libosmium/2.20.0">
  <way id="47308172" version="1" timestamp="2010-01-01T16:37:55Z" uid="33382" user="de_muur" changeset="3511394">
    <nd ref="253324197"/>
    <nd ref="582603632"/>
    <nd ref="253325695"/>
    <nd ref="582603639"/>
    <nd ref="253325696"/>
    <tag k="highway" v="residential"/>
    <tag k="maxspeed" v="30"/>
    <tag k="maxweight" v="7.5"/>
    <tag k="name" v="Am Moor"/>
    <tag k="surface" v="paved"/>
  </way>
  <way id="47308172" version="2" timestamp="2010-01-21T15:47:28Z" uid="115883" user="Senior_Spielbergo" changeset="3675683">
    <nd ref="253324197"/>
    <nd ref="582603632"/>
    <nd ref="253325695"/>
    <nd ref="582603639"/>
    <nd ref="253325696"/>
    <tag k="highway" v="residential"/>
    <tag k="maxspeed" v="30"/>
    <tag k="maxweight" v="7.5"/>
    <tag k="name" v="Am Moor"/>
    <tag k="postal_code" v="28876"/>
    <tag k="surface" v="paved"/>
  </way>
  <way id="47308384" version="2" timestamp="2010-02-08T08:09:30Z" uid="74617" user="JohnSmith" changeset="3821259">
    <nd ref="274149825"/>
    <nd ref="278090300"/>
    <nd ref="278090565"/>
    <nd ref="278090301"/>
    <tag k="highway" v="residential"/>
    <tag k="maxspeed" v="50"/>
    <tag k="oneway" v="yes"/>
  </way>
  <way id="47308384" version="3" timestamp="2010-07-17T03:24:41Z" uid="298970" user="davidhortonbne" changeset="5238981"/>
  <way id="47308499" version="2" timestamp="2010-02-08T08:09:26Z" uid="74617" user="JohnSmith" changeset="3821259">
    <nd ref="602625027"/>
    <nd ref="298116291"/>
    <tag k="bridge" v="yes"/>
    <tag k="cycleway" v="track"/>
    <tag k="highway" v="residential"/>
    <tag k="layer" v="1"/>
    <tag k="maxspeed" v="50"/>
    <tag k="source" v="nearmap"/>
  </way>
  <way id="47308499" version="3" timestamp="2011-09-19T23:42:03Z" uid="129262" user="ElderKorean" changeset="9347589">
    <nd ref="602625027"/>
    <nd ref="298116291"/>
    <tag k="bridge" v="yes"/>
    <tag k="cycleway" v="track"/>
    <tag k="highway" v="residential"/>
    <tag k="layer" v="1"/>
    <tag k="maxspeed" v="50"/>
    <tag k="name" v="South Esplanade"/>
    <tag k="source" v="nearmap"/>
  </way>
  <way id="47308499" version="4" timestamp="2012-01-19T19:53:43Z" uid="147510" user="woodpeck_fixbot" changeset="10440306">
    <nd ref="602625027"/>
    <nd ref="298116291"/>
    <tag k="bridge" v="yes"/>
    <tag k="cycleway" v="track"/>
    <tag k="highway" v="residential"/>
    <tag k="layer" v="1"/>
    <tag k="name" v="South Esplanade"/>
    <tag k="source" v="nearmap"/>
  </way>
  <way id="47308501" version="3" timestamp="2010-02-08T08:09:26Z" uid="74617" user="JohnSmith" changeset="3821259">
    <nd ref="298116291"/>
    <nd ref="298116418"/>
    <nd ref="602624978"/>
    <nd ref="602624993"/>
    <tag k="highway" v="residential"/>
    <tag k="maxspeed" v="50"/>
  </way>
  <way id="47308501" version="4" timestamp="2010-07-22T05:49:50Z" uid="142485" user="Calrion" changeset="5284189">
    <nd ref="298116291"/>
    <nd ref="828427740"/>
    <nd ref="298116418"/>
    <nd ref="602624978"/>
    <nd ref="828427735"/>
    <nd ref="602624993"/>
    <tag k="highway" v="residential"/>
    <tag k="maxspeed" v="50"/>
  </way>
  <way id="47308501" version="5" timestamp="2011-09-19T23:42:03Z" uid="129262" user="ElderKorean" changeset="9347589">
    <nd ref="298116291"/>
    <nd ref="828427740"/>
    <nd ref="298116418"/>
    <nd ref="602624978"/>
    <nd ref="828427735"/>
    <nd ref="602624993"/>
    <tag k="highway" v="residential"/>
    <tag k="maxspeed" v="50"/>
    <tag k="name" v="South Esplanade"/>
  </way>
  <way id="47308501" version="6" timestamp="2012-01-19T19:53:46Z" uid="147510" user="woodpeck_fixbot" changeset="10440306">
    <nd ref="298116291"/>
    <nd ref="828427740"/>
    <nd ref="298116418"/>
    <nd ref="602624978"/>
    <nd ref="828427735"/>
    <nd ref="602624993"/>
    <tag k="highway" v="residential"/>
    <tag k="name" v="South Esplanade"/>
  </way>
  <way id="47308663" version="1" timestamp="2010-01-01T16:46:55Z" uid="33382" user="de_muur" changeset="3511555">
    <nd ref="30392034"/>
    <nd ref="30392035"/>
    <nd ref="30397498"/>
    <tag k="cycleway" v="track"/>
    <tag k="highway" v="primary"/>
    <tag k="name" v="Oyterdamm"/>
    <tag k="oneway" v="yes"/>
    <tag k="osmarender:renderName" v="no"/>
    <tag k="ref" v="B 75"/>
  </way>
  <way id="47308663" version="2" timestamp="2010-01-28T20:24:15Z" uid="115883" user="Senior_Spielbergo" changeset="3738623">
    <nd ref="30392034"/>
    <nd ref="30392035"/>
    <nd ref="30397498"/>
    <tag k="cycleway" v="track"/>
    <tag k="highway" v="primary"/>
    <tag k="name" v="Oyterdamm"/>
    <tag k="oneway" v="yes"/>
    <tag k="osmarender:renderName" v="no"/>
    <tag k="postal_code" v="28876"/>
    <tag k="ref" v="B 75"/>
  </way>
  <way id="47308663" version="3" timestamp="2010-09-19T17:58:19Z" uid="33382" user="de_muur" changeset="5822402">
    <nd ref="30392034"/>
    <nd ref="30392035"/>
    <nd ref="30397498"/>
    <tag k="cycleway" v="track"/>
    <tag k="highway" v="primary"/>
    <tag k="maxspeed" v="50"/>
    <tag k="name" v="Oyterdamm"/>
    <tag k="oneway" v="yes"/>
    <tag k="osmarender:renderName" v="no"/>
    <tag k="postal_code" v="28876"/>
    <tag k="ref" v="B 75"/>
  </way>
  <way id="47308663" version="4" timestamp="2011-09-01T02:33:00Z" uid="207745" user="NE2" changeset="9181205">
    <nd ref="30392034"/>
    <nd ref="30392035"/>
    <nd ref="30397498"/>
    <tag k="cycleway" v="track"/>
    <tag k="highway" v="primary"/>
    <tag k="maxspeed" v="50"/>
    <tag k="name" v="Oyterdamm"/>
    <tag k="oneway" v="yes"/>
    <tag k="postal_code" v="28876"/>
    <tag k="ref" v="B 75"/>
  </way>
  <way id="47308664" version="1" timestamp="2010-01-01T16:46:55Z" uid="33382" user="de_muur" changeset="3511555">
    <nd ref="30397557"/>
    <nd ref="30397559"/>
    <nd ref="30397560"/>
    <nd ref="30397561"/>
    <nd ref="300607832"/>
    <nd ref="304068649"/>
    <nd ref="538258723"/>
    <nd ref="30397562"/>
    <nd ref="30397563"/>
    <nd ref="30397564"/>
    <nd ref="30397565"/>
    <nd ref="30397566"/>
    <tag k="cycleway" v="track"/>
    <tag k="highway" v="secondary"/>
    <tag k="name" v="Oyterdamm"/>
    <tag k="ref" v="L 168"/>
    <tag k="surface" v="paved"/>
  </way>
  <way id="47308664" version="2" timestamp="2010-01-28T20:16:13Z" uid="115883" user="Senior_Spielbergo" changeset="3738562">
    <nd ref="30397557"/>
    <nd ref="30397559"/>
    <nd ref="30397560"/>
    <nd ref="30397561"/>
    <nd ref="300607832"/>
    <nd ref="304068649"/>
    <nd ref="538258723"/>
    <nd ref="30397562"/>
    <nd ref="30397563"/>
    <nd ref="30397564"/>
    <nd ref="30397565"/>
    <nd ref="30397566"/>
    <tag k="cycleway" v="track"/>
    <tag k="highway" v="secondary"/>
    <tag k="name" v="Oyterdamm"/>
    <tag k="postal_code" v="28876"/>
    <tag k="ref" v="L 168"/>
    <tag k="surface" v="paved"/>
  </way>
  <way id="47308664" version="3" timestamp="2010-03-05T21:10:05Z" uid="115883" user="Senior_Spielbergo" changeset="4044651">
    <nd ref="30397557"/>
    <nd ref="30397559"/>
    <nd ref="30397560"/>
    <nd ref="30397561"/>
    <nd ref="300607832"/>
    <nd ref="304068649"/>
    <nd ref="538258723"/>
    <nd ref="30397562"/>
    <nd ref="30397564"/>
    <nd ref="30397565"/>
    <nd ref="30397566"/>
    <tag k="cycleway" v="track"/>
    <tag k="highway" v="secondary"/>
    <tag k="name" v="Oyterdamm"/>
    <tag k="postal_code" v="28876"/>
    <tag k="ref" v="L 168"/>
    <tag k="surface" v="paved"/>
  </way>
  <way id="47308664" version="4" timestamp="2010-03-05T21:28:11Z" uid="115883" user="Senior_Spielbergo" changeset="4044856">
    <nd ref="30397557"/>
    <nd ref="30397559"/>
    <nd ref="30397560"/>
    <nd ref="30397561"/>
    <nd ref="300607832"/>
    <nd ref="304068649"/>
    <nd ref="538258723"/>
    <nd ref="30397562"/>
    <nd ref="660831117"/>
    <nd ref="30397564"/>
    <nd ref="660831126"/>
    <nd ref="30397565"/>
    <nd ref="30397566"/>
    <tag k="cycleway" v="track"/>
    <tag k="highway" v="secondary"/>
    <tag k="name" v="Oyterdamm"/>
    <tag k="postal_code" v="28876"/>
    <tag k="ref" v="L 168"/>
    <tag k="surface" v="paved"/>
  </way>
  <way id="47308664" version="5" timestamp="2010-03-07T15:44:58Z" uid="115883" user="Senior_Spielbergo" changeset="4062259">
    <nd ref="30397557"/>
    <nd ref="30397559"/>
    <nd ref="30397560"/>
    <nd ref="30397561"/>
    <nd ref="300607832"/>
    <nd ref="304068649"/>
    <nd ref="538258723"/>
    <nd ref="30397562"/>
    <nd ref="660831117"/>
    <nd ref="30397564"/>
    <nd ref="662295366"/>
    <nd ref="660831126"/>
    <nd ref="30397565"/>
    <nd ref="30397566"/>
    <tag k="cycleway" v="track"/>
    <tag k="highway" v="secondary"/>
    <tag k="name" v="Oyterdamm"/>
    <tag k="postal_code" v="28876"/>
    <tag k="ref" v="L 168"/>
    <tag k="surface" v="paved"/>
  </way>
  <way id="47308664" version="6" timestamp="2010-03-07T15:55:23Z" uid="115883" user="Senior_Spielbergo" changeset="4062381">
    <nd ref="30397557"/>
    <nd ref="30397559"/>
    <nd ref="30397560"/>
    <nd ref="30397561"/>
    <nd ref="300607832"/>
    <nd ref="304068649"/>
    <nd ref="538258723"/>
    <nd ref="30397562"/>
    <nd ref="660831117"/>
    <nd ref="30397564"/>
    <nd ref="662298678"/>
    <nd ref="662295366"/>
    <nd ref="660831126"/>
    <nd ref="662298680"/>
    <nd ref="30397565"/>
    <nd ref="30397566"/>
    <tag k="cycleway" v="track"/>
    <tag k="highway" v="secondary"/>
    <tag k="name" v="Oyterdamm"/>
    <tag k="postal_code" v="28876"/>
    <tag k="ref" v="L 168"/>
    <tag k="surface" v="paved"/>
  </way>
  <way id="47308664" version="7" timestamp="2010-03-09T12:38:28Z" uid="115883" user="Senior_Spielbergo" changeset="4080552">
    <nd ref="30397557"/>
    <nd ref="30397559"/>
    <nd ref="30397560"/>
    <nd ref="30397561"/>
    <nd ref="300607832"/>
    <nd ref="304068649"/>
    <nd ref="538258723"/>
    <nd ref="30397562"/>
    <nd ref="660831117"/>
    <nd ref="30397564"/>
    <nd ref="662298678"/>
    <nd ref="662295366"/>
    <nd ref="660831126"/>
    <nd ref="662298680"/>
    <nd ref="30397565"/>
    <nd ref="30397566"/>
    <tag k="highway" v="secondary"/>
    <tag k="name" v="Oyterdamm"/>
    <tag k="postal_code" v="28876"/>
    <tag k="ref" v="L 168"/>
    <tag k="surface" v="paved"/>
  </way>
  <way id="47308664" version="8" timestamp="2010-05-13T19:18:13Z" uid="35574" user="Schorse" changeset="4689744">
    <nd ref="30397557"/>
    <nd ref="30397559"/>
    <nd ref="30397560"/>
    <nd ref="30397561"/>
    <nd ref="300607832"/>
    <nd ref="304068649"/>
    <nd ref="538258723"/>
    <nd ref="30397562"/>
    <nd ref="660831117"/>
    <nd ref="30397564"/>
    <nd ref="662298678"/>
    <nd ref="662295366"/>
    <nd ref="660831126"/>
    <nd ref="662298680"/>
    <nd ref="30397565"/>
    <nd ref="30397566"/>
    <tag k="cycleway" v="track"/>
    <tag k="highway" v="secondary"/>
    <tag k="name" v="Oyterdamm"/>
    <tag k="postal_code" v="28876"/>
    <tag k="ref" v="L 168"/>
    <tag k="surface" v="paved"/>
  </way>
  <way id="47308664" version="9" timestamp="2010-08-19T20:01:26Z" uid="58095" user="BudBundi" changeset="5538529">
    <nd ref="30397557"/>
    <nd ref="30397559"/>
    <nd ref="30397560"/>
    <nd ref="30397561"/>
    <nd ref="300607832"/>
    <nd ref="304068649"/>
    <nd ref="538258723"/>
    <nd ref="30397562"/>
    <nd ref="660831117"/>
    <nd ref="30397564"/>
    <nd ref="662298678"/>
    <nd ref="662295366"/>
    <nd ref="660831126"/>
    <nd ref="662298680"/>
    <nd ref="869301044"/>
    <nd ref="30397565"/>
    <nd ref="869301096"/>
    <nd ref="30397566"/>
    <tag k="cycleway" v="track"/>
    <tag k="highway" v="secondary"/>
    <tag k="name" v="Oyterdamm"/>
    <tag k="postal_code" v="28876"/>
    <tag k="ref" v="L 168"/>
    <tag k="surface" v="paved"/>
  </way>
  <way id="47308664" version="10" timestamp="2010-10-22T14:32:26Z" uid="28783" user="mey2008" changeset="6136852">
    <nd ref="30397557"/>
    <nd ref="30397559"/>
    <nd ref="30397560"/>
    <nd ref="30397561"/>
    <nd ref="300607832"/>
    <nd ref="304068649"/>
    <nd ref="538258723"/>
    <nd ref="30397562"/>
    <nd ref="660831117"/>
    <nd ref="30397564"/>
    <nd ref="662298678"/>
    <nd ref="660831126"/>
    <nd ref="662298680"/>
    <nd ref="869301044"/>
    <nd ref="30397565"/>
    <nd ref="869301096"/>
    <nd ref="30397566"/>
    <tag k="cycleway" v="track"/>
    <tag k="highway" v="secondary"/>
    <tag k="name" v="Oyterdamm"/>
    <tag k="postal_code" v="28876"/>
    <tag k="ref" v="L 168"/>
    <tag k="surface" v="paved"/>
  </way>
  <way id="47308664" version="11" timestamp="2010-11-03T15:42:47Z" uid="33382" user="de_muur" changeset="6277111">
    <nd ref="30397557"/>
    <nd ref="30397559"/>
    <nd ref="30397560"/>
    <nd ref="30397561"/>
    <nd ref="300607832"/>
    <nd ref="304068649"/>
    <nd ref="538258723"/>
    <nd ref="30397562"/>
    <tag k="cycleway" v="track"/>
    <tag k="highway" v="secondary"/>
    <tag k="maxspeed" v="70"/>
    <tag k="name" v="Oyterdamm"/>
    <tag k="postal_code" v="28876"/>
    <tag k="ref" v="L 168"/>
    <tag k="surface" v="paved"/>
  </way>
  <way id="47308738" version="3" timestamp="2010-02-08T08:09:26Z" uid="74617" user="JohnSmith" changeset="3821259">
    <nd ref="602625027"/>
    <nd ref="602627172"/>
    <nd ref="602627173"/>
    <nd ref="602627174"/>
    <nd ref="602627175"/>
    <nd ref="602627176"/>
    <nd ref="602627177"/>
    <nd ref="602627178"/>
    <nd ref="602627179"/>
    <nd ref="602627180"/>
    <nd ref="602627181"/>
    <nd ref="602627183"/>
    <nd ref="602627186"/>
    <nd ref="278089033"/>
    <tag k="highway" v="residential"/>
    <tag k="maxspeed" v="50"/>
  </way>
  <way id="47308738" version="4" timestamp="2011-09-19T23:42:03Z" uid="129262" user="ElderKorean" changeset="9347589">
    <nd ref="602625027"/>
    <nd ref="602627172"/>
    <nd ref="602627173"/>
    <nd ref="602627174"/>
    <tag k="highway" v="residential"/>
    <tag k="lanes" v="1"/>
    <tag k="maxspeed" v="50"/>
    <tag k="name" v="South Esplanade"/>
  </way>
  <way id="47308738" version="5" timestamp="2012-01-19T19:53:55Z" uid="147510" user="woodpeck_fixbot" changeset="10440306">
    <nd ref="602625027"/>
    <nd ref="602627172"/>
    <nd ref="602627173"/>
    <nd ref="602627174"/>
    <tag k="highway" v="residential"/>
    <tag k="lanes" v="1"/>
    <tag k="name" v="South Esplanade"/>
  </way>
  <way id="47308739" version="4" timestamp="2010-02-08T08:09:27Z" uid="74617" user="JohnSmith" changeset="3821259">
    <nd ref="602627181"/>
    <nd ref="602627194"/>
    <tag k="highway" v="residential"/>
    <tag k="maxspeed" v="50"/>
  </way>
  <way id="47308739" version="5" timestamp="2012-01-19T19:54:04Z" uid="147510" user="woodpeck_fixbot" changeset="10440306">
    <nd ref="602627181"/>
    <nd ref="602627194"/>
    <tag k="highway" v="residential"/>
  </way>
  <way id="47308741" version="3" timestamp="2010-02-08T08:09:09Z" uid="74617" user="JohnSmith" changeset="3821259">
    <nd ref="602627195"/>
    <nd ref="602627196"/>
    <nd ref="602627197"/>
    <nd ref="602627198"/>
    <nd ref="278089035"/>
    <nd ref="624086934"/>
    <nd ref="602627199"/>
    <nd ref="602627200"/>
    <tag k="highway" v="residential"/>
    <tag k="maxspeed" v="50"/>
    <tag k="name" v="The Boulevarde"/>
    <tag k="surface" v="asphalt"/>
  </way>
  <way id="47308741" version="4" timestamp="2010-07-22T05:50:11Z" uid="142485" user="Calrion" changeset="5284189">
    <nd ref="602627195"/>
    <nd ref="602627196"/>
    <nd ref="602627197"/>
    <nd ref="828427774"/>
    <nd ref="602627198"/>
    <nd ref="278089035"/>
    <nd ref="624086934"/>
    <nd ref="602627199"/>
    <nd ref="602627200"/>
    <tag k="highway" v="residential"/>
    <tag k="maxspeed" v="50"/>
    <tag k="name" v="The Boulevarde"/>
    <tag k="surface" v="asphalt"/>
  </way>
  <way id="47308741" version="5" timestamp="2011-09-22T05:51:07Z" uid="129262" user="ElderKorean" changeset="9365712">
    <nd ref="602627195"/>
    <nd ref="602627196"/>
    <nd ref="602627197"/>
    <nd ref="828427774"/>
    <nd ref="602627198"/>
    <nd ref="278089035"/>
    <nd ref="1440038757"/>
    <nd ref="624086934"/>
    <nd ref="602627199"/>
    <nd ref="602627200"/>
    <tag k="highway" v="residential"/>
    <tag k="maxspeed" v="50"/>
    <tag k="name" v="The Boulevarde"/>
    <tag k="surface" v="asphalt"/>
  </way>
  <way id="47308741" version="6" timestamp="2012-01-19T19:54:09Z" uid="147510" user="woodpeck_fixbot" changeset="10440306">
    <nd ref="602627195"/>
    <nd ref="602627196"/>
    <nd ref="602627197"/>
    <nd ref="828427774"/>
    <nd ref="602627198"/>
    <nd ref="278089035"/>
    <nd ref="1440038757"/>
    <nd ref="624086934"/>
    <nd ref="602627199"/>
    <nd ref="602627200"/>
    <tag k="highway" v="residential"/>
    <tag k="name" v="The Boulevarde"/>
    <tag k="surface" v="asphalt"/>
  </way>
  <way id="47308742" version="3" timestamp="2010-02-08T08:09:23Z" uid="74617" user="JohnSmith" changeset="3821259">
    <nd ref="602627201"/>
    <nd ref="624086905"/>
    <nd ref="298116218"/>
    <tag k="highway" v="residential"/>
    <tag k="maxspeed" v="50"/>
    <tag k="name" v="The Boulevarde"/>
    <tag k="surface" v="asphalt"/>
  </way>
  <way id="47308742" version="4" timestamp="2012-01-19T19:54:21Z" uid="147510" user="woodpeck_fixbot" changeset="10440306">
    <nd ref="602627201"/>
    <nd ref="624086905"/>
    <nd ref="298116218"/>
    <tag k="highway" v="residential"/>
    <tag k="name" v="The Boulevarde"/>
    <tag k="surface" v="asphalt"/>
  </way>
  <way id="47308743" version="3" timestamp="2010-02-08T08:09:09Z" uid="74617" user="JohnSmith" changeset="3821259">
    <nd ref="298116240"/>
    <nd ref="278089028"/>
    <nd ref="298116224"/>
    <nd ref="298116424"/>
    <tag k="highway" v="residential"/>
    <tag k="maxspeed" v="50"/>
  </way>
  <way id="47308743" version="4" timestamp="2010-07-19T12:18:53Z" uid="138569" user="AshleyAngell" changeset="5260548">
    <nd ref="298116240"/>
    <nd ref="278089028"/>
    <nd ref="298116224"/>
    <nd ref="298116424"/>
    <tag k="highway" v="residential"/>
    <tag k="maxspeed" v="50"/>
    <tag k="name" v="Kendall Street"/>
  </way>
  <way id="47308743" version="5" timestamp="2012-01-19T19:54:44Z" uid="147510" user="woodpeck_fixbot" changeset="10440306">
    <nd ref="298116240"/>
    <nd ref="278089028"/>
    <nd ref="298116224"/>
    <nd ref="298116424"/>
    <tag k="highway" v="residential"/>
    <tag k="name" v="Kendall Street"/>
  </way>
  <way id="47308827" version="2" timestamp="2010-04-02T17:54:03Z" uid="20587" user="balrog-kun" changeset="4304500">
    <nd ref="47214701"/>
    <nd ref="602628134"/>
    <tag k="highway" v="residential"/>
    <tag k="name" v="Lois Lane"/>
    <tag k="tiger:cfcc" v="A41"/>
    <tag k="tiger:county" v="Clallam, WA"/>
    <tag k="tiger:name_base" v="Lois"/>
    <tag k="tiger:name_type" v="Ln"/>
    <tag k="tiger:reviewed" v="no"/>
    <tag k="tiger:separated" v="no"/>
    <tag k="tiger:source" v="tiger_import_dch_v0.6_20070830"/>
    <tag k="tiger:tlid" v="150851198"/>
  </way>
  <way id="47308172" version="3" timestamp="2012-07-17T11:30:59Z" uid="722137" user="OSMF Redaction Account" changeset="12264226"/>
  <way id="47308663" version="5" timestamp="2012-07-17T11:30:56Z" uid="722137" user="OSMF Redaction Account" changeset="12264226"/>
  <way id="47308664" version="12" timestamp="2012-07-17T11:30:56Z" uid="722137" user="OSMF Redaction Account" changeset="12264226"/>
  <way id="47308743" version="6" timestamp="2012-07-20T00:20:14Z" uid="722137" user="OSMF Redaction Account" changeset="12352121">
    <nd ref="298116240"/>
    <nd ref="278089028"/>
    <nd ref="298116224"/>
    <nd ref="298116424"/>
    <tag k="highway" v="residential"/>
  </way>
</osm>
