<?xml version='1.0' encoding='UTF-8'?>
<osm version="0.6" generator="libosmium/2.20.0">
  <way id="47337792" version="3" timestamp="2010-04-17T14:47:50Z" uid="4467" user="Rosscoe" changeset="4448463">
    <nd ref="602845188"/>
    <nd ref="688516593"/>
    <nd ref="236036262"/>
    <tag k="highway" v="secondary"/>
    <tag k="maxspeed" v="60"/>
    <tag k="name" v="Murchison - Violet Town Road"/>
    <tag k="ref" v="C345"/>
  </way>
  <way id="47337792" version="4" timestamp="2010-06-29T03:19:28Z" uid="84937" user="Neil Penman" changeset="5102957">
    <nd ref="602845188"/>
    <nd ref="795278761"/>
    <nd ref="688516593"/>
    <nd ref="795278717"/>
    <nd ref="236036262"/>
    <tag k="highway" v="secondary"/>
    <tag k="maxspeed" v="60"/>
    <tag k="name" v="Murchison - Violet Town Road"/>
    <tag k="ref" v="C345"/>
  </way>
  <way id="47337792" version="5" timestamp="2010-07-18T00:44:41Z" uid="84937" user="Neil Penman" changeset="5247322">
    <nd ref="688516598"/>
    <nd ref="602845188"/>
    <nd ref="795278761"/>
    <nd ref="688516593"/>
    <nd ref="795278717"/>
    <nd ref="236036262"/>
    <nd ref="688516689"/>
    <nd ref="688516685"/>
    <nd ref="529831876"/>
    <nd ref="721823335"/>
    <nd ref="669512270"/>
    <nd ref="669519332"/>
    <nd ref="721823336"/>
    <nd ref="721823338"/>
    <nd ref="781476330"/>
    <nd ref="236036281"/>
    <nd ref="674709403"/>
    <tag k="highway" v="secondary"/>
    <tag k="maxspeed" v="60"/>
    <tag k="name" v="Cowslip Street:Murchison - Violet Town Road"/>
    <tag k="ref" v="C345"/>
  </way>
  <way id="47337797" version="4" timestamp="2010-04-17T14:48:55Z" uid="4467" user="Rosscoe" changeset="4448475">
    <nd ref="602845194"/>
    <nd ref="25635295"/>
    <nd ref="602845197"/>
    <tag k="highway" v="trunk"/>
    <tag k="maxspeed" v="80"/>
    <tag k="name" v="Mansfield Road"/>
  </way>
  <way id="47337797" version="5" timestamp="2010-05-07T11:02:21Z" uid="103574" user="Fairfield" changeset="4628961">
    <nd ref="602845194"/>
    <nd ref="25635295"/>
    <nd ref="725074572"/>
    <nd ref="602845197"/>
    <tag k="highway" v="trunk"/>
    <tag k="maxspeed" v="80"/>
    <tag k="name" v="Mansfield Road"/>
  </way>
  <way id="47337812" version="3" timestamp="2010-07-25T06:50:09Z" uid="4467" user="Rosscoe" changeset="5309172">
    <nd ref="529822544"/>
    <nd ref="529822545"/>
    <tag k="bridge" v="yes"/>
    <tag k="highway" v="unclassified"/>
    <tag k="layer" v="1"/>
    <tag k="name" v="Kilfeera Road"/>
  </way>
  <way id="47337792" version="6" timestamp="2012-07-19T08:28:03Z" uid="722137" user="OSMF Redaction Account" changeset="12313873">
    <nd ref="688516598"/>
    <nd ref="602845188"/>
    <nd ref="795278761"/>
    <nd ref="688516593"/>
    <nd ref="795278717"/>
    <nd ref="236036262"/>
    <nd ref="688516689"/>
    <nd ref="688516685"/>
    <nd ref="529831876"/>
    <nd ref="721823335"/>
    <nd ref="669512270"/>
    <nd ref="669519332"/>
    <nd ref="721823336"/>
    <nd ref="721823338"/>
    <nd ref="781476330"/>
    <nd ref="236036281"/>
    <nd ref="674709403"/>
    <tag k="highway" v="secondary"/>
    <tag k="maxspeed" v="60 kph"/>
    <tag k="name" v="Cowslip Street:Murchison - Violet Town Road"/>
    <tag k="ref" v="C345"/>
  </way>
  <way id="47337797" version="6" timestamp="2012-06-18T14:08:37Z" uid="67896" user="mrpulley" changeset="11937356">
    <nd ref="602845194"/>
    <nd ref="25635295"/>
    <nd ref="725074572"/>
    <nd ref="602845197"/>
    <tag k="highway" v="trunk"/>
    <tag k="maxspeed" v="80"/>
    <tag k="name" v="Mansfield Road"/>
    <tag k="ref" v="A300"/>
  </way>
  <way id="47337797" version="7" timestamp="2012-07-19T08:22:09Z" uid="722137" user="OSMF Redaction Account" changeset="12313692">
    <nd ref="602845194"/>
    <nd ref="25635295"/>
    <nd ref="725074572"/>
    <nd ref="602845197"/>
    <tag k="highway" v="trunk"/>
    <tag k="maxspeed" v="80 kph"/>
    <tag k="name" v="Mansfield Road"/>
    <tag k="ref" v="A300"/>
  </way>
  <way id="47337812" version="4" timestamp="2012-07-20T09:07:06Z" uid="722137" user="OSMF Redaction Account" changeset="12369491">
    <nd ref="529822544"/>
    <nd ref="529822545"/>
    <tag k="bridge" v="yes"/>
    <tag k="highway" v="unclassified"/>
    <tag k="name" v="Kilfeera Road"/>
  </way>
</osm>
