<?xml version='1.0' encoding='UTF-8'?>
<osm version="0.6" generator="libosmium/2.20.0">
  <way id="47485770" version="1" timestamp="2010-01-04T14:01:27Z" uid="27600" user="Islanit" changeset="3537364">
    <nd ref="604389224"/>
    <nd ref="604389228"/>
    <nd ref="604389235"/>
    <nd ref="604389233"/>
    <nd ref="604389224"/>
    <tag k="addr:housenumber" v="28"/>
    <tag k="addr:street" v="Fanny-Lewald-Ring"/>
    <tag k="building" v="yes"/>
  </way>
  <way id="47485773" version="1" timestamp="2010-01-04T14:01:27Z" uid="27600" user="Islanit" changeset="3537364">
    <nd ref="604389228"/>
    <nd ref="604389231"/>
    <nd ref="604389238"/>
    <nd ref="604389235"/>
    <nd ref="604389228"/>
    <tag k="addr:housenumber" v="26"/>
    <tag k="addr:street" v="Fanny-Lewald-Ring"/>
    <tag k="building" v="yes"/>
  </way>
  <way id="47485777" version="1" timestamp="2010-01-04T14:01:28Z" uid="27600" user="Islanit" changeset="3537364">
    <nd ref="604389231"/>
    <nd ref="604389239"/>
    <nd ref="604389241"/>
    <nd ref="604389238"/>
    <nd ref="604389231"/>
    <tag k="addr:housenumber" v="24"/>
    <tag k="addr:street" v="Fanny-Lewald-Ring"/>
    <tag k="building" v="yes"/>
  </way>
  <way id="47485780" version="1" timestamp="2010-01-04T14:01:28Z" uid="27600" user="Islanit" changeset="3537364">
    <nd ref="604389239"/>
    <nd ref="604389248"/>
    <nd ref="604389244"/>
    <nd ref="604389241"/>
    <nd ref="604389239"/>
    <tag k="addr:housenumber" v="22"/>
    <tag k="addr:street" v="Fanny-Lewald-Ring"/>
    <tag k="building" v="yes"/>
  </way>
  <way id="47485782" version="1" timestamp="2010-01-04T14:01:28Z" uid="27600" user="Islanit" changeset="3537364">
    <nd ref="604389248"/>
    <nd ref="604389250"/>
    <nd ref="604389246"/>
    <nd ref="604389244"/>
    <nd ref="604389248"/>
    <tag k="addr:housenumber" v="20"/>
    <tag k="addr:street" v="Fanny-Lewald-Ring"/>
    <tag k="building" v="yes"/>
  </way>
  <way id="47485784" version="1" timestamp="2010-01-04T14:01:28Z" uid="27600" user="Islanit" changeset="3537364">
    <nd ref="604389250"/>
    <nd ref="604389253"/>
    <nd ref="604389255"/>
    <nd ref="604389246"/>
    <nd ref="604389250"/>
    <tag k="addr:housenumber" v="18"/>
    <tag k="addr:street" v="Fanny-Lewald-Ring"/>
    <tag k="building" v="yes"/>
  </way>
  <way id="47485785" version="1" timestamp="2010-01-04T14:01:28Z" uid="27600" user="Islanit" changeset="3537364">
    <nd ref="604389253"/>
    <nd ref="604389258"/>
    <nd ref="604389260"/>
    <nd ref="604389255"/>
    <nd ref="604389253"/>
    <tag k="addr:housenumber" v="16"/>
    <tag k="addr:street" v="Fanny-Lewald-Ring"/>
    <tag k="building" v="yes"/>
  </way>
  <way id="47485787" version="1" timestamp="2010-01-04T14:01:28Z" uid="27600" user="Islanit" changeset="3537364">
    <nd ref="604389258"/>
    <nd ref="604389261"/>
    <nd ref="604389263"/>
    <nd ref="604389260"/>
    <nd ref="604389258"/>
    <tag k="addr:housenumber" v="14"/>
    <tag k="addr:street" v="Fanny-Lewald-Ring"/>
    <tag k="building" v="yes"/>
  </way>
  <way id="47485789" version="1" timestamp="2010-01-04T14:01:28Z" uid="27600" user="Islanit" changeset="3537364">
    <nd ref="604389261"/>
    <nd ref="604389265"/>
    <nd ref="604389268"/>
    <nd ref="604389263"/>
    <nd ref="604389261"/>
    <tag k="addr:housenumber" v="12"/>
    <tag k="addr:street" v="Fanny-Lewald-Ring"/>
    <tag k="building" v="yes"/>
  </way>
  <way id="47485790" version="1" timestamp="2010-01-04T14:01:28Z" uid="27600" user="Islanit" changeset="3537364">
    <nd ref="604389265"/>
    <nd ref="604389270"/>
    <nd ref="604389273"/>
    <nd ref="604389268"/>
    <nd ref="604389265"/>
    <tag k="addr:housenumber" v="10"/>
    <tag k="addr:street" v="Fanny-Lewald-Ring"/>
    <tag k="building" v="yes"/>
  </way>
  <way id="47485945" version="1" timestamp="2010-01-04T14:02:02Z" uid="30201" user="rrankin" changeset="3537372">
    <nd ref="604389442"/>
    <nd ref="604389444"/>
    <nd ref="604389451"/>
    <nd ref="604389447"/>
    <nd ref="15168363"/>
    <nd ref="604389448"/>
    <nd ref="604389453"/>
    <nd ref="604389454"/>
    <nd ref="12050249"/>
    <nd ref="604389442"/>
    <tag k="highway" v="secondary"/>
    <tag k="junction" v="roundabout"/>
  </way>
  <way id="47485945" version="2" timestamp="2010-09-06T10:46:23Z" uid="30201" user="rrankin" changeset="5696760">
    <nd ref="604389442"/>
    <nd ref="604389444"/>
    <nd ref="604389451"/>
    <nd ref="604389447"/>
    <nd ref="15168363"/>
    <nd ref="604389448"/>
    <nd ref="604389453"/>
    <nd ref="604389454"/>
    <nd ref="12050249"/>
    <nd ref="604389442"/>
    <tag k="highway" v="secondary"/>
    <tag k="junction" v="roundabout"/>
    <tag k="maxspeed" v="50"/>
  </way>
  <way id="47485949" version="1" timestamp="2010-01-04T14:02:02Z" uid="30201" user="rrankin" changeset="3537372">
    <nd ref="604389474"/>
    <nd ref="30677764"/>
    <nd ref="26363576"/>
    <tag k="highway" v="residential"/>
    <tag k="name" v="Albany Road"/>
    <tag k="source" v="survey"/>
  </way>
  <way id="47485949" version="2" timestamp="2010-07-07T22:11:31Z" uid="74617" user="JohnSmith" changeset="5161069">
    <nd ref="604389474"/>
    <nd ref="30677764"/>
    <nd ref="26363576"/>
    <tag k="highway" v="residential"/>
    <tag k="maxspeed" v="50"/>
    <tag k="maxspeed:source" v="default residential speed limit in Australia"/>
    <tag k="name" v="Albany Road"/>
    <tag k="source" v="survey"/>
  </way>
  <way id="47485949" version="3" timestamp="2010-11-10T08:44:38Z" uid="7617" user="Franc" changeset="6334080">
    <nd ref="604389474"/>
    <nd ref="30677764"/>
    <nd ref="984048599"/>
    <nd ref="26363576"/>
    <tag k="highway" v="residential"/>
    <tag k="maxspeed" v="50"/>
    <tag k="maxspeed:source" v="default residential speed limit in Australia"/>
    <tag k="name" v="Albany Road"/>
    <tag k="source" v="survey"/>
  </way>
  <way id="47485949" version="4" timestamp="2012-01-19T20:17:46Z" uid="147510" user="woodpeck_fixbot" changeset="10440306">
    <nd ref="604389474"/>
    <nd ref="30677764"/>
    <nd ref="984048599"/>
    <nd ref="26363576"/>
    <tag k="highway" v="residential"/>
    <tag k="name" v="Albany Road"/>
    <tag k="source" v="survey"/>
  </way>
  <way id="47485950" version="1" timestamp="2010-01-04T14:02:02Z" uid="30201" user="rrankin" changeset="3537372">
    <nd ref="604389469"/>
    <nd ref="604389474"/>
    <nd ref="604389484"/>
    <nd ref="604389478"/>
    <nd ref="604389467"/>
    <nd ref="604389466"/>
    <nd ref="604389471"/>
    <nd ref="604389476"/>
    <nd ref="604389469"/>
    <tag k="highway" v="secondary"/>
    <tag k="junction" v="roundabout"/>
  </way>
  <way id="47485951" version="1" timestamp="2010-01-04T14:02:02Z" uid="30201" user="rrankin" changeset="3537372">
    <nd ref="604389457"/>
    <nd ref="604389459"/>
    <nd ref="604389460"/>
    <nd ref="597452918"/>
    <nd ref="604389461"/>
    <nd ref="604389462"/>
    <nd ref="604389463"/>
    <nd ref="597452920"/>
    <nd ref="604389457"/>
    <tag k="highway" v="secondary"/>
    <tag k="junction" v="roundabout"/>
  </way>
  <way id="47485952" version="1" timestamp="2010-01-04T14:02:03Z" uid="30201" user="rrankin" changeset="3537372">
    <nd ref="604389478"/>
    <nd ref="298100178"/>
    <nd ref="33660785"/>
    <nd ref="604389462"/>
    <tag k="fixme" v="local traffic area?"/>
    <tag k="highway" v="secondary"/>
    <tag k="maxspeed" v="50"/>
    <tag k="maxweight" v="3t"/>
    <tag k="name" v="Northumberland Avenue"/>
    <tag k="source" v="survey"/>
  </way>
  <way id="47485952" version="2" timestamp="2010-01-14T18:10:49Z" uid="52921" user="t-i" changeset="3618737">
    <nd ref="604389478"/>
    <nd ref="298100178"/>
    <nd ref="33660785"/>
    <nd ref="604389462"/>
    <tag k="fixme" v="local traffic area?"/>
    <tag k="highway" v="secondary"/>
    <tag k="maxspeed" v="50"/>
    <tag k="maxweight" v="3"/>
    <tag k="name" v="Northumberland Avenue"/>
    <tag k="source" v="survey"/>
  </way>
  <way id="47485952" version="3" timestamp="2010-09-08T11:15:39Z" uid="7617" user="Franc" changeset="5716120">
    <nd ref="604389478"/>
    <nd ref="902583528"/>
    <nd ref="298100178"/>
    <nd ref="33660785"/>
    <nd ref="604389462"/>
    <tag k="fixme" v="local traffic area?"/>
    <tag k="highway" v="secondary"/>
    <tag k="maxspeed" v="50"/>
    <tag k="maxweight" v="3"/>
    <tag k="name" v="Northumberland Avenue"/>
    <tag k="source" v="survey"/>
  </way>
  <way id="47485770" version="2" timestamp="2012-07-17T14:00:33Z" uid="722137" user="OSMF Redaction Account" changeset="12267022"/>
  <way id="47485773" version="2" timestamp="2012-07-17T14:00:33Z" uid="722137" user="OSMF Redaction Account" changeset="12267022"/>
  <way id="47485777" version="2" timestamp="2012-07-17T14:00:33Z" uid="722137" user="OSMF Redaction Account" changeset="12267022"/>
  <way id="47485780" version="2" timestamp="2012-07-17T14:00:33Z" uid="722137" user="OSMF Redaction Account" changeset="12267022"/>
  <way id="47485782" version="2" timestamp="2012-07-17T14:00:34Z" uid="722137" user="OSMF Redaction Account" changeset="12267022"/>
  <way id="47485784" version="2" timestamp="2012-07-17T14:00:34Z" uid="722137" user="OSMF Redaction Account" changeset="12267022"/>
  <way id="47485785" version="2" timestamp="2012-07-17T14:00:34Z" uid="722137" user="OSMF Redaction Account" changeset="12267022"/>
  <way id="47485787" version="2" timestamp="2012-07-17T14:00:34Z" uid="722137" user="OSMF Redaction Account" changeset="12267022"/>
  <way id="47485789" version="2" timestamp="2012-07-17T14:00:34Z" uid="722137" user="OSMF Redaction Account" changeset="12267022"/>
  <way id="47485790" version="2" timestamp="2012-07-17T14:00:34Z" uid="722137" user="OSMF Redaction Account" changeset="12267022"/>
  <way id="47485945" version="3" timestamp="2012-07-20T02:52:09Z" uid="722137" user="OSMF Redaction Account" changeset="12358709"/>
  <way id="47485949" version="5" timestamp="2012-07-10T08:56:20Z" uid="713671" user="auspod" changeset="12170744">
    <nd ref="1819916173"/>
    <nd ref="1819916138"/>
    <nd ref="1819916205"/>
    <nd ref="26363576"/>
    <tag k="highway" v="residential"/>
    <tag k="name" v="Albany Road"/>
    <tag k="source" v="survey"/>
  </way>
  <way id="47485949" version="6" timestamp="2012-07-20T02:45:23Z" uid="722137" user="OSMF Redaction Account" changeset="12358569">
    <nd ref="1819916173"/>
    <nd ref="1819916138"/>
    <nd ref="1819916205"/>
  </way>
  <way id="47485949" version="7" timestamp="2012-07-20T19:36:03Z" uid="211154" user="ËdzëronK" changeset="12387408">
    <nd ref="1819916173"/>
    <nd ref="1819916138"/>
    <nd ref="1819916205"/>
    <tag k="highway" v="residential"/>
  </way>
  <way id="47485949" version="8" timestamp="2012-07-28T16:07:00Z" uid="105255" user="Sven L" changeset="12524629">
    <nd ref="1819916173"/>
    <nd ref="1819916138"/>
    <nd ref="1841534346"/>
    <tag k="highway" v="residential"/>
  </way>
  <way id="47485949" version="9" timestamp="2012-07-31T01:54:08Z" uid="410812" user="beardfear" changeset="12555880">
    <nd ref="1819916173"/>
    <nd ref="1819916138"/>
    <nd ref="1841534346"/>
    <tag k="highway" v="residential"/>
    <tag k="name" v="Albany Road"/>
  </way>
  <way id="47485950" version="2" timestamp="2012-07-10T08:56:26Z" uid="713671" user="auspod" changeset="12170744"/>
  <way id="47485951" version="2" timestamp="2012-07-09T23:14:41Z" uid="713671" user="auspod" changeset="12168047"/>
  <way id="47485952" version="4" timestamp="2012-07-09T23:14:19Z" uid="713671" user="auspod" changeset="12168047">
    <nd ref="604389478"/>
    <nd ref="902583528"/>
    <nd ref="298100178"/>
    <nd ref="1819563082"/>
    <nd ref="1819562992"/>
    <tag k="fixme" v="local traffic area?"/>
    <tag k="highway" v="secondary"/>
    <tag k="maxspeed" v="50"/>
    <tag k="maxweight" v="3"/>
    <tag k="name" v="Northumberland Avenue"/>
    <tag k="source" v="survey"/>
  </way>
  <way id="47485952" version="5" timestamp="2012-07-10T08:56:20Z" uid="713671" user="auspod" changeset="12170744">
    <nd ref="1819916115"/>
    <nd ref="902583528"/>
    <nd ref="1819916096"/>
    <nd ref="1819563082"/>
    <nd ref="1819562992"/>
    <tag k="fixme" v="local traffic area?"/>
    <tag k="highway" v="secondary"/>
    <tag k="maxspeed" v="50"/>
    <tag k="maxweight" v="3"/>
    <tag k="name" v="Northumberland Avenue"/>
    <tag k="source" v="survey"/>
  </way>
  <way id="47485952" version="6" timestamp="2012-07-20T02:45:23Z" uid="722137" user="OSMF Redaction Account" changeset="12358569">
    <nd ref="1819916115"/>
    <nd ref="1819916096"/>
    <nd ref="1819563082"/>
    <nd ref="1819562992"/>
    <tag k="maxweight" v="3"/>
  </way>
  <way id="47485952" version="7" timestamp="2012-07-20T19:36:07Z" uid="211154" user="ËdzëronK" changeset="12387408">
    <nd ref="1819916115"/>
    <nd ref="1819916096"/>
    <nd ref="1819563082"/>
    <nd ref="1819562992"/>
    <tag k="highway" v="residential"/>
    <tag k="maxweight" v="3"/>
  </way>
  <way id="47485952" version="8" timestamp="2012-07-31T02:18:27Z" uid="410812" user="beardfear" changeset="12555973">
    <nd ref="1819916115"/>
    <nd ref="1819916096"/>
    <nd ref="1819563082"/>
    <nd ref="1819562992"/>
    <tag k="highway" v="residential"/>
    <tag k="maxweight" v="3"/>
    <tag k="name" v="Northumberland Street"/>
  </way>
</osm>
