<?xml version='1.0' encoding='UTF-8'?>
<osm version="0.6" generator="libosmium/2.20.0">
  <way id="47576022" version="2" timestamp="2010-07-25T06:59:26Z" uid="4467" user="Rosscoe" changeset="5309221">
    <nd ref="605302889"/>
    <nd ref="605302353"/>
    <tag k="bridge" v="yes"/>
    <tag k="highway" v="unclassified"/>
    <tag k="lanes" v="1"/>
    <tag k="layer" v="1"/>
    <tag k="name" v="Carboor - Lake Buffalo Road"/>
    <tag k="source" v="survey"/>
    <tag k="surface" v="unpaved"/>
  </way>
  <way id="47576082" version="2" timestamp="2011-01-21T10:45:28Z" uid="115477" user="wowik" changeset="7038966">
    <nd ref="605304580"/>
    <nd ref="605304585"/>
    <nd ref="605304582"/>
    <nd ref="605304463"/>
    <nd ref="605304445"/>
    <nd ref="605304451"/>
    <nd ref="605304581"/>
    <nd ref="605304579"/>
    <nd ref="605304580"/>
    <tag k="addr:city" v="Зеленоград"/>
    <tag k="addr:housenumber" v="1811"/>
    <tag k="addr:street" v="18-й Микрорайон"/>
    <tag k="building" v="yes"/>
    <tag k="building:use" v="residential"/>
    <tag k="is_in" v="Russia"/>
  </way>
  <way id="47576082" version="3" timestamp="2011-01-24T13:18:21Z" uid="115477" user="wowik" changeset="7072902">
    <nd ref="605304580"/>
    <nd ref="605304585"/>
    <nd ref="1118672743"/>
    <nd ref="605304582"/>
    <nd ref="1118672964"/>
    <nd ref="1118673106"/>
    <nd ref="1118672794"/>
    <nd ref="605304463"/>
    <nd ref="605304445"/>
    <nd ref="605304451"/>
    <nd ref="605304581"/>
    <nd ref="605304579"/>
    <nd ref="605304580"/>
    <tag k="addr:city" v="Зеленоград"/>
    <tag k="addr:housenumber" v="1811"/>
    <tag k="addr:street" v="18-й Микрорайон"/>
    <tag k="building" v="yes"/>
    <tag k="building:use" v="residential"/>
    <tag k="is_in" v="Russia"/>
  </way>
  <way id="47576082" version="4" timestamp="2011-06-07T20:50:06Z" uid="133332" user="AMDmi3" changeset="8374030">
    <nd ref="605304580"/>
    <nd ref="605304585"/>
    <nd ref="1118672743"/>
    <nd ref="605304582"/>
    <nd ref="1118672964"/>
    <nd ref="1118673106"/>
    <nd ref="1118672794"/>
    <nd ref="605304463"/>
    <nd ref="605304445"/>
    <nd ref="605304451"/>
    <nd ref="605304581"/>
    <nd ref="605304579"/>
    <nd ref="605304580"/>
    <tag k="addr:city" v="Зеленоград"/>
    <tag k="addr:housenumber" v="1811"/>
    <tag k="addr:street" v="18-й микрорайон"/>
    <tag k="building" v="yes"/>
    <tag k="building:use" v="residential"/>
    <tag k="is_in" v="Russia"/>
  </way>
  <way id="47576082" version="5" timestamp="2011-09-13T10:23:49Z" uid="29320" user="Komяpa" changeset="9288237">
    <nd ref="605304580"/>
    <nd ref="605304585"/>
    <nd ref="1118672743"/>
    <nd ref="605304582"/>
    <nd ref="1118672964"/>
    <nd ref="1118673106"/>
    <nd ref="1118672794"/>
    <nd ref="605304463"/>
    <nd ref="605304445"/>
    <nd ref="605304451"/>
    <nd ref="605304581"/>
    <nd ref="605304579"/>
    <nd ref="605304580"/>
    <tag k="addr:city" v="Зеленоград"/>
    <tag k="addr:country" v="RU"/>
    <tag k="addr:housenumber" v="1811"/>
    <tag k="addr:street" v="18-й микрорайон"/>
    <tag k="building" v="yes"/>
    <tag k="building:use" v="residential"/>
  </way>
  <way id="47576082" version="6" timestamp="2012-03-27T11:38:09Z" uid="481934" user="iWowik" changeset="11115472">
    <nd ref="605304580"/>
    <nd ref="605304585"/>
    <nd ref="1118672743"/>
    <nd ref="605304582"/>
    <nd ref="1118672964"/>
    <nd ref="1118673106"/>
    <nd ref="1118672794"/>
    <nd ref="605304463"/>
    <nd ref="605304445"/>
    <nd ref="605304451"/>
    <nd ref="605304581"/>
    <nd ref="605304579"/>
    <nd ref="605304580"/>
    <tag k="addr:city" v="Зеленоград"/>
    <tag k="addr:country" v="RU"/>
    <tag k="addr:housenumber" v="1811"/>
    <tag k="addr:region" v="Москва"/>
    <tag k="addr:street" v="18-й микрорайон"/>
    <tag k="building" v="yes"/>
    <tag k="building:use" v="residential"/>
  </way>
  <way id="47576083" version="2" timestamp="2010-03-07T20:37:13Z" uid="115477" user="wowik" changeset="4065940"/>
  <way id="47576086" version="6" timestamp="2011-01-21T10:45:36Z" uid="115477" user="wowik" changeset="7038966">
    <nd ref="605304381"/>
    <nd ref="605304424"/>
    <nd ref="605304423"/>
    <nd ref="605304380"/>
    <nd ref="605304381"/>
    <tag k="addr:city" v="Зеленоград"/>
    <tag k="addr:housenumber" v="1801Б"/>
    <tag k="addr:street" v="18-й Микрорайон"/>
    <tag k="building" v="yes"/>
    <tag k="building:levels" v="24"/>
    <tag k="building:use" v="residential"/>
    <tag k="is_in" v="Russia"/>
  </way>
  <way id="47576086" version="7" timestamp="2011-06-07T20:50:05Z" uid="133332" user="AMDmi3" changeset="8374030">
    <nd ref="605304381"/>
    <nd ref="605304424"/>
    <nd ref="605304423"/>
    <nd ref="605304380"/>
    <nd ref="605304381"/>
    <tag k="addr:city" v="Зеленоград"/>
    <tag k="addr:housenumber" v="1801Б"/>
    <tag k="addr:street" v="18-й микрорайон"/>
    <tag k="building" v="yes"/>
    <tag k="building:levels" v="24"/>
    <tag k="building:use" v="residential"/>
    <tag k="is_in" v="Russia"/>
  </way>
  <way id="47576086" version="8" timestamp="2011-09-13T10:23:45Z" uid="29320" user="Komяpa" changeset="9288237">
    <nd ref="605304381"/>
    <nd ref="605304424"/>
    <nd ref="605304423"/>
    <nd ref="605304380"/>
    <nd ref="605304381"/>
    <tag k="addr:city" v="Зеленоград"/>
    <tag k="addr:country" v="RU"/>
    <tag k="addr:housenumber" v="1801Б"/>
    <tag k="addr:street" v="18-й микрорайон"/>
    <tag k="building" v="yes"/>
    <tag k="building:levels" v="24"/>
    <tag k="building:use" v="residential"/>
  </way>
  <way id="47576086" version="9" timestamp="2012-03-27T11:38:02Z" uid="481934" user="iWowik" changeset="11115472">
    <nd ref="605304381"/>
    <nd ref="605304424"/>
    <nd ref="605304423"/>
    <nd ref="605304380"/>
    <nd ref="605304381"/>
    <tag k="addr:city" v="Зеленоград"/>
    <tag k="addr:country" v="RU"/>
    <tag k="addr:housenumber" v="1801Б"/>
    <tag k="addr:region" v="Москва"/>
    <tag k="addr:street" v="18-й микрорайон"/>
    <tag k="building" v="yes"/>
    <tag k="building:levels" v="24"/>
    <tag k="building:use" v="residential"/>
  </way>
  <way id="47576087" version="3" timestamp="2011-01-21T10:45:23Z" uid="115477" user="wowik" changeset="7038966">
    <nd ref="605304391"/>
    <nd ref="605304389"/>
    <nd ref="605304388"/>
    <nd ref="605304390"/>
    <nd ref="605304387"/>
    <nd ref="985375700"/>
    <nd ref="605304391"/>
    <tag k="building" v="yes"/>
    <tag k="building:use" v="residential"/>
  </way>
  <way id="47576087" version="4" timestamp="2012-03-27T08:14:15Z" uid="481934" user="iWowik" changeset="11113698">
    <nd ref="605304391"/>
    <nd ref="605304389"/>
    <nd ref="605304388"/>
    <nd ref="605304390"/>
    <nd ref="605304387"/>
    <nd ref="985375700"/>
    <nd ref="605304391"/>
    <tag k="addr:city" v="Зеленоград"/>
    <tag k="addr:country" v="RU"/>
    <tag k="building" v="yes"/>
    <tag k="building:use" v="residential"/>
  </way>
  <way id="47576087" version="5" timestamp="2012-03-27T11:54:58Z" uid="481934" user="iWowik" changeset="11115472">
    <nd ref="605304391"/>
    <nd ref="605304389"/>
    <nd ref="605304388"/>
    <nd ref="605304390"/>
    <nd ref="605304387"/>
    <nd ref="985375700"/>
    <nd ref="605304391"/>
    <tag k="addr:city" v="Зеленоград"/>
    <tag k="addr:country" v="RU"/>
    <tag k="addr:region" v="Москва"/>
    <tag k="building" v="yes"/>
    <tag k="building:use" v="residential"/>
  </way>
  <way id="47576088" version="6" timestamp="2011-01-21T10:45:20Z" uid="115477" user="wowik" changeset="7038966">
    <nd ref="605304376"/>
    <nd ref="605304375"/>
    <nd ref="605304379"/>
    <nd ref="605304378"/>
    <nd ref="605304376"/>
    <tag k="addr:city" v="Зеленоград"/>
    <tag k="addr:housenumber" v="1801А"/>
    <tag k="addr:street" v="18-й Микрорайон"/>
    <tag k="building" v="yes"/>
    <tag k="building:levels" v="24"/>
    <tag k="building:use" v="residential"/>
    <tag k="is_in" v="Russia"/>
  </way>
  <way id="47576088" version="7" timestamp="2011-06-07T20:50:08Z" uid="133332" user="AMDmi3" changeset="8374030">
    <nd ref="605304376"/>
    <nd ref="605304375"/>
    <nd ref="605304379"/>
    <nd ref="605304378"/>
    <nd ref="605304376"/>
    <tag k="addr:city" v="Зеленоград"/>
    <tag k="addr:housenumber" v="1801А"/>
    <tag k="addr:street" v="18-й микрорайон"/>
    <tag k="building" v="yes"/>
    <tag k="building:levels" v="24"/>
    <tag k="building:use" v="residential"/>
    <tag k="is_in" v="Russia"/>
  </way>
  <way id="47576088" version="8" timestamp="2011-09-13T10:23:44Z" uid="29320" user="Komяpa" changeset="9288237">
    <nd ref="605304376"/>
    <nd ref="605304375"/>
    <nd ref="605304379"/>
    <nd ref="605304378"/>
    <nd ref="605304376"/>
    <tag k="addr:city" v="Зеленоград"/>
    <tag k="addr:country" v="RU"/>
    <tag k="addr:housenumber" v="1801А"/>
    <tag k="addr:street" v="18-й микрорайон"/>
    <tag k="building" v="yes"/>
    <tag k="building:levels" v="24"/>
    <tag k="building:use" v="residential"/>
  </way>
  <way id="47576088" version="9" timestamp="2012-03-27T11:38:02Z" uid="481934" user="iWowik" changeset="11115472">
    <nd ref="605304376"/>
    <nd ref="605304375"/>
    <nd ref="605304379"/>
    <nd ref="605304378"/>
    <nd ref="605304376"/>
    <tag k="addr:city" v="Зеленоград"/>
    <tag k="addr:country" v="RU"/>
    <tag k="addr:housenumber" v="1801А"/>
    <tag k="addr:region" v="Москва"/>
    <tag k="addr:street" v="18-й микрорайон"/>
    <tag k="building" v="yes"/>
    <tag k="building:levels" v="24"/>
    <tag k="building:use" v="residential"/>
  </way>
  <way id="47576089" version="2" timestamp="2011-01-20T14:51:09Z" uid="115477" user="wowik" changeset="7031231">
    <nd ref="605304429"/>
    <nd ref="605304428"/>
    <nd ref="605304427"/>
    <nd ref="1111692857"/>
    <nd ref="1111692893"/>
    <nd ref="605304426"/>
    <nd ref="605304429"/>
    <tag k="addr:city" v="Зеленоград"/>
    <tag k="addr:housenumber" v="1803"/>
    <tag k="addr:street" v="18-й Микрорайон"/>
    <tag k="building" v="yes"/>
    <tag k="is_in" v="Russia"/>
  </way>
  <way id="47576089" version="3" timestamp="2011-01-21T10:45:27Z" uid="115477" user="wowik" changeset="7038966">
    <nd ref="605304429"/>
    <nd ref="605304428"/>
    <nd ref="605304427"/>
    <nd ref="1111692857"/>
    <nd ref="1111692893"/>
    <nd ref="605304426"/>
    <nd ref="605304429"/>
    <tag k="addr:city" v="Зеленоград"/>
    <tag k="addr:housenumber" v="1803"/>
    <tag k="addr:street" v="18-й Микрорайон"/>
    <tag k="building" v="yes"/>
    <tag k="building:use" v="residential"/>
    <tag k="is_in" v="Russia"/>
  </way>
  <way id="47576089" version="4" timestamp="2011-06-07T20:50:08Z" uid="133332" user="AMDmi3" changeset="8374030">
    <nd ref="605304429"/>
    <nd ref="605304428"/>
    <nd ref="605304427"/>
    <nd ref="1111692857"/>
    <nd ref="1111692893"/>
    <nd ref="605304426"/>
    <nd ref="605304429"/>
    <tag k="addr:city" v="Зеленоград"/>
    <tag k="addr:housenumber" v="1803"/>
    <tag k="addr:street" v="18-й микрорайон"/>
    <tag k="building" v="yes"/>
    <tag k="building:use" v="residential"/>
    <tag k="is_in" v="Russia"/>
  </way>
  <way id="47576089" version="5" timestamp="2011-09-13T10:23:45Z" uid="29320" user="Komяpa" changeset="9288237">
    <nd ref="605304429"/>
    <nd ref="605304428"/>
    <nd ref="605304427"/>
    <nd ref="1111692857"/>
    <nd ref="1111692893"/>
    <nd ref="605304426"/>
    <nd ref="605304429"/>
    <tag k="addr:city" v="Зеленоград"/>
    <tag k="addr:country" v="RU"/>
    <tag k="addr:housenumber" v="1803"/>
    <tag k="addr:street" v="18-й микрорайон"/>
    <tag k="building" v="yes"/>
    <tag k="building:use" v="residential"/>
  </way>
  <way id="47576089" version="6" timestamp="2012-03-27T11:38:03Z" uid="481934" user="iWowik" changeset="11115472">
    <nd ref="605304429"/>
    <nd ref="605304428"/>
    <nd ref="605304427"/>
    <nd ref="1111692857"/>
    <nd ref="1111692893"/>
    <nd ref="605304426"/>
    <nd ref="605304429"/>
    <tag k="addr:city" v="Зеленоград"/>
    <tag k="addr:country" v="RU"/>
    <tag k="addr:housenumber" v="1803"/>
    <tag k="addr:region" v="Москва"/>
    <tag k="addr:street" v="18-й микрорайон"/>
    <tag k="building" v="yes"/>
    <tag k="building:use" v="residential"/>
  </way>
  <way id="47576091" version="6" timestamp="2011-01-21T10:45:24Z" uid="115477" user="wowik" changeset="7038966">
    <nd ref="605304434"/>
    <nd ref="605304430"/>
    <nd ref="605304432"/>
    <nd ref="605304433"/>
    <nd ref="605304434"/>
    <tag k="addr:city" v="Зеленоград"/>
    <tag k="addr:housenumber" v="1804А"/>
    <tag k="addr:street" v="18-й Микрорайон"/>
    <tag k="building" v="yes"/>
    <tag k="building:levels" v="24"/>
    <tag k="building:use" v="residential"/>
    <tag k="is_in" v="Russia"/>
  </way>
  <way id="47576091" version="7" timestamp="2011-06-07T20:50:08Z" uid="133332" user="AMDmi3" changeset="8374030">
    <nd ref="605304434"/>
    <nd ref="605304430"/>
    <nd ref="605304432"/>
    <nd ref="605304433"/>
    <nd ref="605304434"/>
    <tag k="addr:city" v="Зеленоград"/>
    <tag k="addr:housenumber" v="1804А"/>
    <tag k="addr:street" v="18-й микрорайон"/>
    <tag k="building" v="yes"/>
    <tag k="building:levels" v="24"/>
    <tag k="building:use" v="residential"/>
    <tag k="is_in" v="Russia"/>
  </way>
  <way id="47576091" version="8" timestamp="2011-09-13T10:23:46Z" uid="29320" user="Komяpa" changeset="9288237">
    <nd ref="605304434"/>
    <nd ref="605304430"/>
    <nd ref="605304432"/>
    <nd ref="605304433"/>
    <nd ref="605304434"/>
    <tag k="addr:city" v="Зеленоград"/>
    <tag k="addr:country" v="RU"/>
    <tag k="addr:housenumber" v="1804А"/>
    <tag k="addr:street" v="18-й микрорайон"/>
    <tag k="building" v="yes"/>
    <tag k="building:levels" v="24"/>
    <tag k="building:use" v="residential"/>
  </way>
  <way id="47576091" version="9" timestamp="2012-03-27T11:38:04Z" uid="481934" user="iWowik" changeset="11115472">
    <nd ref="605304434"/>
    <nd ref="605304430"/>
    <nd ref="605304432"/>
    <nd ref="605304433"/>
    <nd ref="605304434"/>
    <tag k="addr:city" v="Зеленоград"/>
    <tag k="addr:country" v="RU"/>
    <tag k="addr:housenumber" v="1804А"/>
    <tag k="addr:region" v="Москва"/>
    <tag k="addr:street" v="18-й микрорайон"/>
    <tag k="building" v="yes"/>
    <tag k="building:levels" v="24"/>
    <tag k="building:use" v="residential"/>
  </way>
  <way id="47576092" version="6" timestamp="2011-01-21T10:45:25Z" uid="115477" user="wowik" changeset="7038966">
    <nd ref="605304437"/>
    <nd ref="605304438"/>
    <nd ref="605304439"/>
    <nd ref="605304435"/>
    <nd ref="605304437"/>
    <tag k="addr:city" v="Зеленоград"/>
    <tag k="addr:housenumber" v="1804Б"/>
    <tag k="addr:street" v="18-й Микрорайон"/>
    <tag k="building" v="yes"/>
    <tag k="building:levels" v="24"/>
    <tag k="building:use" v="residential"/>
    <tag k="is_in" v="Russia"/>
  </way>
  <way id="47576092" version="7" timestamp="2011-06-07T20:50:07Z" uid="133332" user="AMDmi3" changeset="8374030">
    <nd ref="605304437"/>
    <nd ref="605304438"/>
    <nd ref="605304439"/>
    <nd ref="605304435"/>
    <nd ref="605304437"/>
    <tag k="addr:city" v="Зеленоград"/>
    <tag k="addr:housenumber" v="1804Б"/>
    <tag k="addr:street" v="18-й микрорайон"/>
    <tag k="building" v="yes"/>
    <tag k="building:levels" v="24"/>
    <tag k="building:use" v="residential"/>
    <tag k="is_in" v="Russia"/>
  </way>
  <way id="47576092" version="8" timestamp="2011-09-13T10:23:46Z" uid="29320" user="Komяpa" changeset="9288237">
    <nd ref="605304437"/>
    <nd ref="605304438"/>
    <nd ref="605304439"/>
    <nd ref="605304435"/>
    <nd ref="605304437"/>
    <tag k="addr:city" v="Зеленоград"/>
    <tag k="addr:country" v="RU"/>
    <tag k="addr:housenumber" v="1804Б"/>
    <tag k="addr:street" v="18-й микрорайон"/>
    <tag k="building" v="yes"/>
    <tag k="building:levels" v="24"/>
    <tag k="building:use" v="residential"/>
  </way>
  <way id="47576092" version="9" timestamp="2012-03-27T11:38:04Z" uid="481934" user="iWowik" changeset="11115472">
    <nd ref="605304437"/>
    <nd ref="605304438"/>
    <nd ref="605304439"/>
    <nd ref="605304435"/>
    <nd ref="605304437"/>
    <tag k="addr:city" v="Зеленоград"/>
    <tag k="addr:country" v="RU"/>
    <tag k="addr:housenumber" v="1804Б"/>
    <tag k="addr:region" v="Москва"/>
    <tag k="addr:street" v="18-й микрорайон"/>
    <tag k="building" v="yes"/>
    <tag k="building:levels" v="24"/>
    <tag k="building:use" v="residential"/>
  </way>
  <way id="47576094" version="2" timestamp="2011-01-21T10:45:22Z" uid="115477" user="wowik" changeset="7038966">
    <nd ref="605304420"/>
    <nd ref="605304401"/>
    <nd ref="605304402"/>
    <nd ref="605304421"/>
    <nd ref="605304420"/>
    <tag k="addr:city" v="Зеленоград"/>
    <tag k="addr:housenumber" v="1806"/>
    <tag k="addr:street" v="18-й Микрорайон"/>
    <tag k="building" v="yes"/>
    <tag k="building:use" v="residential"/>
    <tag k="is_in" v="Russia"/>
  </way>
  <way id="47576094" version="3" timestamp="2011-06-07T20:50:07Z" uid="133332" user="AMDmi3" changeset="8374030">
    <nd ref="605304420"/>
    <nd ref="605304401"/>
    <nd ref="605304402"/>
    <nd ref="605304421"/>
    <nd ref="605304420"/>
    <tag k="addr:city" v="Зеленоград"/>
    <tag k="addr:housenumber" v="1806"/>
    <tag k="addr:street" v="18-й микрорайон"/>
    <tag k="building" v="yes"/>
    <tag k="building:use" v="residential"/>
    <tag k="is_in" v="Russia"/>
  </way>
  <way id="47576094" version="4" timestamp="2011-09-13T10:23:47Z" uid="29320" user="Komяpa" changeset="9288237">
    <nd ref="605304420"/>
    <nd ref="605304401"/>
    <nd ref="605304402"/>
    <nd ref="605304421"/>
    <nd ref="605304420"/>
    <tag k="addr:city" v="Зеленоград"/>
    <tag k="addr:country" v="RU"/>
    <tag k="addr:housenumber" v="1806"/>
    <tag k="addr:street" v="18-й микрорайон"/>
    <tag k="building" v="yes"/>
    <tag k="building:use" v="residential"/>
  </way>
  <way id="47576094" version="5" timestamp="2012-03-27T11:38:07Z" uid="481934" user="iWowik" changeset="11115472">
    <nd ref="605304420"/>
    <nd ref="605304401"/>
    <nd ref="605304402"/>
    <nd ref="605304421"/>
    <nd ref="605304420"/>
    <tag k="addr:city" v="Зеленоград"/>
    <tag k="addr:country" v="RU"/>
    <tag k="addr:housenumber" v="1806"/>
    <tag k="addr:region" v="Москва"/>
    <tag k="addr:street" v="18-й микрорайон"/>
    <tag k="building" v="yes"/>
    <tag k="building:use" v="residential"/>
  </way>
  <way id="47576095" version="2" timestamp="2011-01-21T10:45:29Z" uid="115477" user="wowik" changeset="7038966">
    <nd ref="605304455"/>
    <nd ref="605304452"/>
    <nd ref="605304457"/>
    <nd ref="605304456"/>
    <nd ref="605304455"/>
    <tag k="addr:city" v="Зеленоград"/>
    <tag k="addr:housenumber" v="1807"/>
    <tag k="addr:street" v="18-й Микрорайон"/>
    <tag k="building" v="yes"/>
    <tag k="building:use" v="residential"/>
    <tag k="is_in" v="Russia"/>
  </way>
  <way id="47576095" version="3" timestamp="2011-06-07T20:50:07Z" uid="133332" user="AMDmi3" changeset="8374030">
    <nd ref="605304455"/>
    <nd ref="605304452"/>
    <nd ref="605304457"/>
    <nd ref="605304456"/>
    <nd ref="605304455"/>
    <tag k="addr:city" v="Зеленоград"/>
    <tag k="addr:housenumber" v="1807"/>
    <tag k="addr:street" v="18-й микрорайон"/>
    <tag k="building" v="yes"/>
    <tag k="building:use" v="residential"/>
    <tag k="is_in" v="Russia"/>
  </way>
  <way id="47576095" version="4" timestamp="2011-09-13T10:23:48Z" uid="29320" user="Komяpa" changeset="9288237">
    <nd ref="605304455"/>
    <nd ref="605304452"/>
    <nd ref="605304457"/>
    <nd ref="605304456"/>
    <nd ref="605304455"/>
    <tag k="addr:city" v="Зеленоград"/>
    <tag k="addr:country" v="RU"/>
    <tag k="addr:housenumber" v="1807"/>
    <tag k="addr:street" v="18-й микрорайон"/>
    <tag k="building" v="yes"/>
    <tag k="building:use" v="residential"/>
  </way>
  <way id="47576095" version="5" timestamp="2012-03-27T11:38:07Z" uid="481934" user="iWowik" changeset="11115472">
    <nd ref="605304455"/>
    <nd ref="605304452"/>
    <nd ref="605304457"/>
    <nd ref="605304456"/>
    <nd ref="605304455"/>
    <tag k="addr:city" v="Зеленоград"/>
    <tag k="addr:country" v="RU"/>
    <tag k="addr:housenumber" v="1807"/>
    <tag k="addr:region" v="Москва"/>
    <tag k="addr:street" v="18-й микрорайон"/>
    <tag k="building" v="yes"/>
    <tag k="building:use" v="residential"/>
  </way>
  <way id="47576096" version="2" timestamp="2011-01-21T10:45:37Z" uid="115477" user="wowik" changeset="7038966">
    <nd ref="605304458"/>
    <nd ref="605304461"/>
    <nd ref="605304462"/>
    <nd ref="605304460"/>
    <nd ref="605304458"/>
    <tag k="addr:city" v="Зеленоград"/>
    <tag k="addr:housenumber" v="1808"/>
    <tag k="addr:street" v="18-й Микрорайон"/>
    <tag k="building" v="yes"/>
    <tag k="building:use" v="residential"/>
    <tag k="is_in" v="Russia"/>
  </way>
  <way id="47576096" version="3" timestamp="2011-06-07T20:50:12Z" uid="133332" user="AMDmi3" changeset="8374030">
    <nd ref="605304458"/>
    <nd ref="605304461"/>
    <nd ref="605304462"/>
    <nd ref="605304460"/>
    <nd ref="605304458"/>
    <tag k="addr:city" v="Зеленоград"/>
    <tag k="addr:housenumber" v="1808"/>
    <tag k="addr:street" v="18-й микрорайон"/>
    <tag k="building" v="yes"/>
    <tag k="building:use" v="residential"/>
    <tag k="is_in" v="Russia"/>
  </way>
  <way id="47576096" version="4" timestamp="2011-09-13T10:23:48Z" uid="29320" user="Komяpa" changeset="9288237">
    <nd ref="605304458"/>
    <nd ref="605304461"/>
    <nd ref="605304462"/>
    <nd ref="605304460"/>
    <nd ref="605304458"/>
    <tag k="addr:city" v="Зеленоград"/>
    <tag k="addr:country" v="RU"/>
    <tag k="addr:housenumber" v="1808"/>
    <tag k="addr:street" v="18-й микрорайон"/>
    <tag k="building" v="yes"/>
    <tag k="building:use" v="residential"/>
  </way>
  <way id="47576096" version="5" timestamp="2012-03-27T11:38:08Z" uid="481934" user="iWowik" changeset="11115472">
    <nd ref="605304458"/>
    <nd ref="605304461"/>
    <nd ref="605304462"/>
    <nd ref="605304460"/>
    <nd ref="605304458"/>
    <tag k="addr:city" v="Зеленоград"/>
    <tag k="addr:country" v="RU"/>
    <tag k="addr:housenumber" v="1808"/>
    <tag k="addr:region" v="Москва"/>
    <tag k="addr:street" v="18-й микрорайон"/>
    <tag k="building" v="yes"/>
    <tag k="building:use" v="residential"/>
  </way>
  <way id="47576097" version="2" timestamp="2011-01-21T10:45:24Z" uid="115477" user="wowik" changeset="7038966">
    <nd ref="605304468"/>
    <nd ref="605304469"/>
    <nd ref="605304471"/>
    <nd ref="605304470"/>
    <nd ref="605304468"/>
    <tag k="addr:city" v="Зеленоград"/>
    <tag k="addr:housenumber" v="1809"/>
    <tag k="addr:street" v="18-й Микрорайон"/>
    <tag k="building" v="yes"/>
    <tag k="building:use" v="residential"/>
    <tag k="is_in" v="Russia"/>
  </way>
  <way id="47576097" version="3" timestamp="2011-06-07T20:50:12Z" uid="133332" user="AMDmi3" changeset="8374030">
    <nd ref="605304468"/>
    <nd ref="605304469"/>
    <nd ref="605304471"/>
    <nd ref="605304470"/>
    <nd ref="605304468"/>
    <tag k="addr:city" v="Зеленоград"/>
    <tag k="addr:housenumber" v="1809"/>
    <tag k="addr:street" v="18-й микрорайон"/>
    <tag k="building" v="yes"/>
    <tag k="building:use" v="residential"/>
    <tag k="is_in" v="Russia"/>
  </way>
  <way id="47576097" version="4" timestamp="2011-09-13T10:23:48Z" uid="29320" user="Komяpa" changeset="9288237">
    <nd ref="605304468"/>
    <nd ref="605304469"/>
    <nd ref="605304471"/>
    <nd ref="605304470"/>
    <nd ref="605304468"/>
    <tag k="addr:city" v="Зеленоград"/>
    <tag k="addr:country" v="RU"/>
    <tag k="addr:housenumber" v="1809"/>
    <tag k="addr:street" v="18-й микрорайон"/>
    <tag k="building" v="yes"/>
    <tag k="building:use" v="residential"/>
  </way>
  <way id="47576097" version="5" timestamp="2012-03-27T11:38:08Z" uid="481934" user="iWowik" changeset="11115472">
    <nd ref="605304468"/>
    <nd ref="605304469"/>
    <nd ref="605304471"/>
    <nd ref="605304470"/>
    <nd ref="605304468"/>
    <tag k="addr:city" v="Зеленоград"/>
    <tag k="addr:country" v="RU"/>
    <tag k="addr:housenumber" v="1809"/>
    <tag k="addr:region" v="Москва"/>
    <tag k="addr:street" v="18-й микрорайон"/>
    <tag k="building" v="yes"/>
    <tag k="building:use" v="residential"/>
  </way>
  <way id="47576098" version="2" timestamp="2011-01-21T10:45:33Z" uid="115477" user="wowik" changeset="7038966">
    <nd ref="605304473"/>
    <nd ref="605304464"/>
    <nd ref="605304465"/>
    <nd ref="605304472"/>
    <nd ref="605304473"/>
    <tag k="addr:city" v="Зеленоград"/>
    <tag k="addr:housenumber" v="1810"/>
    <tag k="addr:street" v="18-й Микрорайон"/>
    <tag k="building" v="yes"/>
    <tag k="building:use" v="residential"/>
    <tag k="is_in" v="Russia"/>
  </way>
  <way id="47576098" version="3" timestamp="2011-06-07T20:50:13Z" uid="133332" user="AMDmi3" changeset="8374030">
    <nd ref="605304473"/>
    <nd ref="605304464"/>
    <nd ref="605304465"/>
    <nd ref="605304472"/>
    <nd ref="605304473"/>
    <tag k="addr:city" v="Зеленоград"/>
    <tag k="addr:housenumber" v="1810"/>
    <tag k="addr:street" v="18-й микрорайон"/>
    <tag k="building" v="yes"/>
    <tag k="building:use" v="residential"/>
    <tag k="is_in" v="Russia"/>
  </way>
  <way id="47576098" version="4" timestamp="2011-09-13T10:23:49Z" uid="29320" user="Komяpa" changeset="9288237">
    <nd ref="605304473"/>
    <nd ref="605304464"/>
    <nd ref="605304465"/>
    <nd ref="605304472"/>
    <nd ref="605304473"/>
    <tag k="addr:city" v="Зеленоград"/>
    <tag k="addr:country" v="RU"/>
    <tag k="addr:housenumber" v="1810"/>
    <tag k="addr:street" v="18-й микрорайон"/>
    <tag k="building" v="yes"/>
    <tag k="building:use" v="residential"/>
  </way>
  <way id="47576098" version="5" timestamp="2012-03-27T11:38:09Z" uid="481934" user="iWowik" changeset="11115472">
    <nd ref="605304473"/>
    <nd ref="605304464"/>
    <nd ref="605304465"/>
    <nd ref="605304472"/>
    <nd ref="605304473"/>
    <tag k="addr:city" v="Зеленоград"/>
    <tag k="addr:country" v="RU"/>
    <tag k="addr:housenumber" v="1810"/>
    <tag k="addr:region" v="Москва"/>
    <tag k="addr:street" v="18-й микрорайон"/>
    <tag k="building" v="yes"/>
    <tag k="building:use" v="residential"/>
  </way>
  <way id="47576102" version="2" timestamp="2011-01-21T10:45:42Z" uid="115477" user="wowik" changeset="7038966">
    <nd ref="605304570"/>
    <nd ref="605304578"/>
    <nd ref="605304548"/>
    <nd ref="605304544"/>
    <nd ref="605304547"/>
    <nd ref="605304545"/>
    <nd ref="605304571"/>
    <nd ref="605304565"/>
    <nd ref="605304570"/>
    <tag k="addr:city" v="Зеленоград"/>
    <tag k="addr:housenumber" v="1820"/>
    <tag k="addr:street" v="18-й Микрорайон"/>
    <tag k="building" v="yes"/>
    <tag k="building:use" v="residential"/>
    <tag k="is_in" v="Russia"/>
  </way>
  <way id="47576102" version="3" timestamp="2011-01-24T13:24:01Z" uid="115477" user="wowik" changeset="7072981">
    <nd ref="605304570"/>
    <nd ref="605304578"/>
    <nd ref="605304548"/>
    <nd ref="605304544"/>
    <nd ref="1118676428"/>
    <nd ref="1118676424"/>
    <nd ref="605304547"/>
    <nd ref="1118676431"/>
    <nd ref="605304545"/>
    <nd ref="1118676417"/>
    <nd ref="1118676425"/>
    <nd ref="1118676420"/>
    <nd ref="1118676426"/>
    <nd ref="1118676434"/>
    <nd ref="1118676423"/>
    <nd ref="1118676429"/>
    <nd ref="1118676418"/>
    <nd ref="605304571"/>
    <nd ref="1118676432"/>
    <nd ref="605304565"/>
    <nd ref="1118676430"/>
    <nd ref="1118676422"/>
    <nd ref="605304570"/>
    <tag k="addr:city" v="Зеленоград"/>
    <tag k="addr:housenumber" v="1820"/>
    <tag k="addr:street" v="18-й Микрорайон"/>
    <tag k="building" v="yes"/>
    <tag k="building:use" v="residential"/>
    <tag k="is_in" v="Russia"/>
  </way>
  <way id="47576102" version="4" timestamp="2011-06-07T20:50:11Z" uid="133332" user="AMDmi3" changeset="8374030">
    <nd ref="605304570"/>
    <nd ref="605304578"/>
    <nd ref="605304548"/>
    <nd ref="605304544"/>
    <nd ref="1118676428"/>
    <nd ref="1118676424"/>
    <nd ref="605304547"/>
    <nd ref="1118676431"/>
    <nd ref="605304545"/>
    <nd ref="1118676417"/>
    <nd ref="1118676425"/>
    <nd ref="1118676420"/>
    <nd ref="1118676426"/>
    <nd ref="1118676434"/>
    <nd ref="1118676423"/>
    <nd ref="1118676429"/>
    <nd ref="1118676418"/>
    <nd ref="605304571"/>
    <nd ref="1118676432"/>
    <nd ref="605304565"/>
    <nd ref="1118676430"/>
    <nd ref="1118676422"/>
    <nd ref="605304570"/>
    <tag k="addr:city" v="Зеленоград"/>
    <tag k="addr:housenumber" v="1820"/>
    <tag k="addr:street" v="18-й микрорайон"/>
    <tag k="building" v="yes"/>
    <tag k="building:use" v="residential"/>
    <tag k="is_in" v="Russia"/>
  </way>
  <way id="47576102" version="5" timestamp="2011-09-13T10:23:51Z" uid="29320" user="Komяpa" changeset="9288237">
    <nd ref="605304570"/>
    <nd ref="605304578"/>
    <nd ref="605304548"/>
    <nd ref="605304544"/>
    <nd ref="1118676428"/>
    <nd ref="1118676424"/>
    <nd ref="605304547"/>
    <nd ref="1118676431"/>
    <nd ref="605304545"/>
    <nd ref="1118676417"/>
    <nd ref="1118676425"/>
    <nd ref="1118676420"/>
    <nd ref="1118676426"/>
    <nd ref="1118676434"/>
    <nd ref="1118676423"/>
    <nd ref="1118676429"/>
    <nd ref="1118676418"/>
    <nd ref="605304571"/>
    <nd ref="1118676432"/>
    <nd ref="605304565"/>
    <nd ref="1118676430"/>
    <nd ref="1118676422"/>
    <nd ref="605304570"/>
    <tag k="addr:city" v="Зеленоград"/>
    <tag k="addr:country" v="RU"/>
    <tag k="addr:housenumber" v="1820"/>
    <tag k="addr:street" v="18-й микрорайон"/>
    <tag k="building" v="yes"/>
    <tag k="building:use" v="residential"/>
  </way>
  <way id="47576102" version="6" timestamp="2012-03-27T11:38:11Z" uid="481934" user="iWowik" changeset="11115472">
    <nd ref="605304570"/>
    <nd ref="605304578"/>
    <nd ref="605304548"/>
    <nd ref="605304544"/>
    <nd ref="1118676428"/>
    <nd ref="1118676424"/>
    <nd ref="605304547"/>
    <nd ref="1118676431"/>
    <nd ref="605304545"/>
    <nd ref="1118676417"/>
    <nd ref="1118676425"/>
    <nd ref="1118676420"/>
    <nd ref="1118676426"/>
    <nd ref="1118676434"/>
    <nd ref="1118676423"/>
    <nd ref="1118676429"/>
    <nd ref="1118676418"/>
    <nd ref="605304571"/>
    <nd ref="1118676432"/>
    <nd ref="605304565"/>
    <nd ref="1118676430"/>
    <nd ref="1118676422"/>
    <nd ref="605304570"/>
    <tag k="addr:city" v="Зеленоград"/>
    <tag k="addr:country" v="RU"/>
    <tag k="addr:housenumber" v="1820"/>
    <tag k="addr:region" v="Москва"/>
    <tag k="addr:street" v="18-й микрорайон"/>
    <tag k="building" v="yes"/>
    <tag k="building:use" v="residential"/>
  </way>
  <way id="47576103" version="5" timestamp="2011-01-17T18:50:38Z" uid="115477" user="wowik" changeset="7002711">
    <nd ref="605304483"/>
    <nd ref="605304488"/>
    <nd ref="605304496"/>
    <nd ref="987589735"/>
    <nd ref="987589734"/>
    <nd ref="1107932047"/>
    <nd ref="1107931963"/>
    <nd ref="605304486"/>
    <nd ref="605304490"/>
    <nd ref="605304491"/>
    <nd ref="605304484"/>
    <nd ref="605304481"/>
    <nd ref="605304482"/>
    <nd ref="1107932012"/>
    <nd ref="1107932202"/>
    <nd ref="987589731"/>
    <nd ref="987589732"/>
    <nd ref="605304485"/>
    <nd ref="605304483"/>
    <tag k="addr:city" v="Зеленоград"/>
    <tag k="addr:housenumber" v="1812"/>
    <tag k="addr:street" v="18-й Микрорайон"/>
    <tag k="building" v="yes"/>
    <tag k="is_in" v="Russia"/>
  </way>
  <way id="47576103" version="6" timestamp="2011-01-21T10:45:26Z" uid="115477" user="wowik" changeset="7038966">
    <nd ref="605304483"/>
    <nd ref="605304488"/>
    <nd ref="605304496"/>
    <nd ref="987589735"/>
    <nd ref="987589734"/>
    <nd ref="1107932047"/>
    <nd ref="1107931963"/>
    <nd ref="605304486"/>
    <nd ref="605304490"/>
    <nd ref="605304491"/>
    <nd ref="605304484"/>
    <nd ref="605304481"/>
    <nd ref="605304482"/>
    <nd ref="1107932012"/>
    <nd ref="1107932202"/>
    <nd ref="987589731"/>
    <nd ref="987589732"/>
    <nd ref="605304485"/>
    <nd ref="605304483"/>
    <tag k="addr:city" v="Зеленоград"/>
    <tag k="addr:housenumber" v="1812"/>
    <tag k="addr:street" v="18-й Микрорайон"/>
    <tag k="building" v="yes"/>
    <tag k="building:use" v="residential"/>
    <tag k="is_in" v="Russia"/>
  </way>
  <way id="47576103" version="7" timestamp="2011-06-07T20:50:10Z" uid="133332" user="AMDmi3" changeset="8374030">
    <nd ref="605304483"/>
    <nd ref="605304488"/>
    <nd ref="605304496"/>
    <nd ref="987589735"/>
    <nd ref="987589734"/>
    <nd ref="1107932047"/>
    <nd ref="1107931963"/>
    <nd ref="605304486"/>
    <nd ref="605304490"/>
    <nd ref="605304491"/>
    <nd ref="605304484"/>
    <nd ref="605304481"/>
    <nd ref="605304482"/>
    <nd ref="1107932012"/>
    <nd ref="1107932202"/>
    <nd ref="987589731"/>
    <nd ref="987589732"/>
    <nd ref="605304485"/>
    <nd ref="605304483"/>
    <tag k="addr:city" v="Зеленоград"/>
    <tag k="addr:housenumber" v="1812"/>
    <tag k="addr:street" v="18-й микрорайон"/>
    <tag k="building" v="yes"/>
    <tag k="building:use" v="residential"/>
    <tag k="is_in" v="Russia"/>
  </way>
  <way id="47576103" version="8" timestamp="2011-09-13T10:23:50Z" uid="29320" user="Komяpa" changeset="9288237">
    <nd ref="605304483"/>
    <nd ref="605304488"/>
    <nd ref="605304496"/>
    <nd ref="987589735"/>
    <nd ref="987589734"/>
    <nd ref="1107932047"/>
    <nd ref="1107931963"/>
    <nd ref="605304486"/>
    <nd ref="605304490"/>
    <nd ref="605304491"/>
    <nd ref="605304484"/>
    <nd ref="605304481"/>
    <nd ref="605304482"/>
    <nd ref="1107932012"/>
    <nd ref="1107932202"/>
    <nd ref="987589731"/>
    <nd ref="987589732"/>
    <nd ref="605304485"/>
    <nd ref="605304483"/>
    <tag k="addr:city" v="Зеленоград"/>
    <tag k="addr:country" v="RU"/>
    <tag k="addr:housenumber" v="1812"/>
    <tag k="addr:street" v="18-й микрорайон"/>
    <tag k="building" v="yes"/>
    <tag k="building:use" v="residential"/>
  </way>
  <way id="47576103" version="9" timestamp="2012-03-27T11:38:09Z" uid="481934" user="iWowik" changeset="11115472">
    <nd ref="605304483"/>
    <nd ref="605304488"/>
    <nd ref="605304496"/>
    <nd ref="987589735"/>
    <nd ref="987589734"/>
    <nd ref="1107932047"/>
    <nd ref="1107931963"/>
    <nd ref="605304486"/>
    <nd ref="605304490"/>
    <nd ref="605304491"/>
    <nd ref="605304484"/>
    <nd ref="605304481"/>
    <nd ref="605304482"/>
    <nd ref="1107932012"/>
    <nd ref="1107932202"/>
    <nd ref="987589731"/>
    <nd ref="987589732"/>
    <nd ref="605304485"/>
    <nd ref="605304483"/>
    <tag k="addr:city" v="Зеленоград"/>
    <tag k="addr:country" v="RU"/>
    <tag k="addr:housenumber" v="1812"/>
    <tag k="addr:region" v="Москва"/>
    <tag k="addr:street" v="18-й микрорайон"/>
    <tag k="building" v="yes"/>
    <tag k="building:use" v="residential"/>
  </way>
  <way id="47576104" version="3" timestamp="2011-01-17T19:01:01Z" uid="115477" user="wowik" changeset="7002849">
    <nd ref="605304524"/>
    <nd ref="605304516"/>
    <nd ref="605304512"/>
    <nd ref="605304513"/>
    <nd ref="1107955785"/>
    <nd ref="1107955793"/>
    <nd ref="1107955803"/>
    <nd ref="1107955814"/>
    <nd ref="1107955766"/>
    <nd ref="1107955810"/>
    <nd ref="1107955808"/>
    <nd ref="1107955800"/>
    <nd ref="605304517"/>
    <nd ref="605304511"/>
    <nd ref="605304519"/>
    <nd ref="605304532"/>
    <nd ref="605304525"/>
    <nd ref="605304510"/>
    <nd ref="1107955799"/>
    <nd ref="1107955767"/>
    <nd ref="1107955783"/>
    <nd ref="1107955788"/>
    <nd ref="1107955806"/>
    <nd ref="1107955821"/>
    <nd ref="1107955790"/>
    <nd ref="1107955777"/>
    <nd ref="605304508"/>
    <nd ref="605304522"/>
    <nd ref="605304524"/>
    <tag k="addr:city" v="Зеленоград"/>
    <tag k="addr:housenumber" v="1813"/>
    <tag k="addr:street" v="18-й Микрорайон"/>
    <tag k="amenity" v="kindergarten"/>
    <tag k="building" v="yes"/>
    <tag k="is_in" v="Russia"/>
    <tag k="name" v="Детский сад №2353"/>
  </way>
  <way id="47576104" version="4" timestamp="2011-06-07T20:50:14Z" uid="133332" user="AMDmi3" changeset="8374030">
    <nd ref="605304524"/>
    <nd ref="605304516"/>
    <nd ref="605304512"/>
    <nd ref="605304513"/>
    <nd ref="1107955785"/>
    <nd ref="1107955793"/>
    <nd ref="1107955803"/>
    <nd ref="1107955814"/>
    <nd ref="1107955766"/>
    <nd ref="1107955810"/>
    <nd ref="1107955808"/>
    <nd ref="1107955800"/>
    <nd ref="605304517"/>
    <nd ref="605304511"/>
    <nd ref="605304519"/>
    <nd ref="605304532"/>
    <nd ref="605304525"/>
    <nd ref="605304510"/>
    <nd ref="1107955799"/>
    <nd ref="1107955767"/>
    <nd ref="1107955783"/>
    <nd ref="1107955788"/>
    <nd ref="1107955806"/>
    <nd ref="1107955821"/>
    <nd ref="1107955790"/>
    <nd ref="1107955777"/>
    <nd ref="605304508"/>
    <nd ref="605304522"/>
    <nd ref="605304524"/>
    <tag k="addr:city" v="Зеленоград"/>
    <tag k="addr:housenumber" v="1813"/>
    <tag k="addr:street" v="18-й микрорайон"/>
    <tag k="amenity" v="kindergarten"/>
    <tag k="building" v="yes"/>
    <tag k="is_in" v="Russia"/>
    <tag k="name" v="Детский сад №2353"/>
  </way>
  <way id="47576104" version="5" timestamp="2011-09-13T10:30:10Z" uid="29320" user="Komяpa" changeset="9288237">
    <nd ref="605304524"/>
    <nd ref="605304516"/>
    <nd ref="605304512"/>
    <nd ref="605304513"/>
    <nd ref="1107955785"/>
    <nd ref="1107955793"/>
    <nd ref="1107955803"/>
    <nd ref="1107955814"/>
    <nd ref="1107955766"/>
    <nd ref="1107955810"/>
    <nd ref="1107955808"/>
    <nd ref="1107955800"/>
    <nd ref="605304517"/>
    <nd ref="605304511"/>
    <nd ref="605304519"/>
    <nd ref="605304532"/>
    <nd ref="605304525"/>
    <nd ref="605304510"/>
    <nd ref="1107955799"/>
    <nd ref="1107955767"/>
    <nd ref="1107955783"/>
    <nd ref="1107955788"/>
    <nd ref="1107955806"/>
    <nd ref="1107955821"/>
    <nd ref="1107955790"/>
    <nd ref="1107955777"/>
    <nd ref="605304508"/>
    <nd ref="605304522"/>
    <nd ref="605304524"/>
    <tag k="addr:city" v="Зеленоград"/>
    <tag k="addr:country" v="RU"/>
    <tag k="addr:housenumber" v="1813"/>
    <tag k="addr:street" v="18-й микрорайон"/>
    <tag k="amenity" v="kindergarten"/>
    <tag k="building" v="yes"/>
    <tag k="name" v="Детский сад №2353"/>
  </way>
  <way id="47576104" version="6" timestamp="2012-03-27T11:32:21Z" uid="481934" user="iWowik" changeset="11115472">
    <nd ref="605304524"/>
    <nd ref="605304516"/>
    <nd ref="605304512"/>
    <nd ref="605304513"/>
    <nd ref="1107955785"/>
    <nd ref="1107955793"/>
    <nd ref="1107955803"/>
    <nd ref="1107955814"/>
    <nd ref="1107955766"/>
    <nd ref="1107955810"/>
    <nd ref="1107955808"/>
    <nd ref="1107955800"/>
    <nd ref="605304517"/>
    <nd ref="605304511"/>
    <nd ref="605304519"/>
    <nd ref="605304532"/>
    <nd ref="605304525"/>
    <nd ref="605304510"/>
    <nd ref="1107955799"/>
    <nd ref="1107955767"/>
    <nd ref="1107955783"/>
    <nd ref="1107955788"/>
    <nd ref="1107955806"/>
    <nd ref="1107955821"/>
    <nd ref="1107955790"/>
    <nd ref="1107955777"/>
    <nd ref="605304508"/>
    <nd ref="605304522"/>
    <nd ref="605304524"/>
    <tag k="addr:city" v="Зеленоград"/>
    <tag k="addr:country" v="RU"/>
    <tag k="addr:housenumber" v="1813"/>
    <tag k="addr:region" v="Москва"/>
    <tag k="addr:street" v="18-й микрорайон"/>
    <tag k="amenity" v="kindergarten"/>
    <tag k="building" v="yes"/>
    <tag k="name" v="Детский сад №2353"/>
  </way>
  <way id="47576105" version="4" timestamp="2011-01-20T14:51:21Z" uid="115477" user="wowik" changeset="7031231">
    <nd ref="605304492"/>
    <nd ref="605304498"/>
    <nd ref="605304501"/>
    <nd ref="605304495"/>
    <nd ref="605304492"/>
    <tag k="addr:city" v="Зеленоград"/>
    <tag k="addr:housenumber" v="1815"/>
    <tag k="addr:street" v="18-й Микрорайон"/>
    <tag k="building" v="yes"/>
    <tag k="is_in" v="Russia"/>
  </way>
  <way id="47576105" version="5" timestamp="2011-06-07T20:50:14Z" uid="133332" user="AMDmi3" changeset="8374030">
    <nd ref="605304492"/>
    <nd ref="605304498"/>
    <nd ref="605304501"/>
    <nd ref="605304495"/>
    <nd ref="605304492"/>
    <tag k="addr:city" v="Зеленоград"/>
    <tag k="addr:housenumber" v="1815"/>
    <tag k="addr:street" v="18-й микрорайон"/>
    <tag k="building" v="yes"/>
    <tag k="is_in" v="Russia"/>
  </way>
  <way id="47576105" version="6" timestamp="2011-09-13T10:23:50Z" uid="29320" user="Komяpa" changeset="9288237">
    <nd ref="605304492"/>
    <nd ref="605304498"/>
    <nd ref="605304501"/>
    <nd ref="605304495"/>
    <nd ref="605304492"/>
    <tag k="addr:city" v="Зеленоград"/>
    <tag k="addr:country" v="RU"/>
    <tag k="addr:housenumber" v="1815"/>
    <tag k="addr:street" v="18-й микрорайон"/>
    <tag k="building" v="yes"/>
  </way>
  <way id="47576105" version="7" timestamp="2012-03-27T11:38:10Z" uid="481934" user="iWowik" changeset="11115472">
    <nd ref="605304492"/>
    <nd ref="605304498"/>
    <nd ref="605304501"/>
    <nd ref="605304495"/>
    <nd ref="605304492"/>
    <tag k="addr:city" v="Зеленоград"/>
    <tag k="addr:country" v="RU"/>
    <tag k="addr:housenumber" v="1815"/>
    <tag k="addr:region" v="Москва"/>
    <tag k="addr:street" v="18-й микрорайон"/>
    <tag k="building" v="yes"/>
  </way>
  <way id="47576106" version="3" timestamp="2011-01-17T18:50:57Z" uid="115477" user="wowik" changeset="7002711">
    <nd ref="605304527"/>
    <nd ref="605304528"/>
    <nd ref="1107931957"/>
    <nd ref="1107932134"/>
    <nd ref="1107932090"/>
    <nd ref="1107932280"/>
    <nd ref="605304533"/>
    <nd ref="605304530"/>
    <nd ref="1107932001"/>
    <nd ref="1107932178"/>
    <nd ref="1107932037"/>
    <nd ref="1107932117"/>
    <nd ref="605304527"/>
    <tag k="addr:city" v="Зеленоград"/>
    <tag k="addr:housenumber" v="1814"/>
    <tag k="addr:street" v="18-й Микрорайон"/>
    <tag k="amenity" v="kindergarten"/>
    <tag k="building" v="yes"/>
    <tag k="is_in" v="Russia"/>
    <tag k="name" v="Детский сад №2332"/>
  </way>
  <way id="47576106" version="4" timestamp="2011-06-07T20:50:15Z" uid="133332" user="AMDmi3" changeset="8374030">
    <nd ref="605304527"/>
    <nd ref="605304528"/>
    <nd ref="1107931957"/>
    <nd ref="1107932134"/>
    <nd ref="1107932090"/>
    <nd ref="1107932280"/>
    <nd ref="605304533"/>
    <nd ref="605304530"/>
    <nd ref="1107932001"/>
    <nd ref="1107932178"/>
    <nd ref="1107932037"/>
    <nd ref="1107932117"/>
    <nd ref="605304527"/>
    <tag k="addr:city" v="Зеленоград"/>
    <tag k="addr:housenumber" v="1814"/>
    <tag k="addr:street" v="18-й микрорайон"/>
    <tag k="amenity" v="kindergarten"/>
    <tag k="building" v="yes"/>
    <tag k="is_in" v="Russia"/>
    <tag k="name" v="Детский сад №2332"/>
  </way>
  <way id="47576106" version="5" timestamp="2011-09-13T10:30:09Z" uid="29320" user="Komяpa" changeset="9288237">
    <nd ref="605304527"/>
    <nd ref="605304528"/>
    <nd ref="1107931957"/>
    <nd ref="1107932134"/>
    <nd ref="1107932090"/>
    <nd ref="1107932280"/>
    <nd ref="605304533"/>
    <nd ref="605304530"/>
    <nd ref="1107932001"/>
    <nd ref="1107932178"/>
    <nd ref="1107932037"/>
    <nd ref="1107932117"/>
    <nd ref="605304527"/>
    <tag k="addr:city" v="Зеленоград"/>
    <tag k="addr:country" v="RU"/>
    <tag k="addr:housenumber" v="1814"/>
    <tag k="addr:street" v="18-й микрорайон"/>
    <tag k="amenity" v="kindergarten"/>
    <tag k="building" v="yes"/>
    <tag k="name" v="Детский сад №2332"/>
  </way>
  <way id="47576106" version="6" timestamp="2012-03-27T11:32:20Z" uid="481934" user="iWowik" changeset="11115472">
    <nd ref="605304527"/>
    <nd ref="605304528"/>
    <nd ref="1107931957"/>
    <nd ref="1107932134"/>
    <nd ref="1107932090"/>
    <nd ref="1107932280"/>
    <nd ref="605304533"/>
    <nd ref="605304530"/>
    <nd ref="1107932001"/>
    <nd ref="1107932178"/>
    <nd ref="1107932037"/>
    <nd ref="1107932117"/>
    <nd ref="605304527"/>
    <tag k="addr:city" v="Зеленоград"/>
    <tag k="addr:country" v="RU"/>
    <tag k="addr:housenumber" v="1814"/>
    <tag k="addr:region" v="Москва"/>
    <tag k="addr:street" v="18-й микрорайон"/>
    <tag k="amenity" v="kindergarten"/>
    <tag k="building" v="yes"/>
    <tag k="name" v="Детский сад №2332"/>
  </way>
  <way id="47576107" version="4" timestamp="2011-01-17T18:51:12Z" uid="115477" user="wowik" changeset="7002711">
    <nd ref="605304562"/>
    <nd ref="605304534"/>
    <nd ref="605304538"/>
    <nd ref="605304535"/>
    <nd ref="1107931976"/>
    <nd ref="1107932232"/>
    <nd ref="605304520"/>
    <nd ref="605304541"/>
    <nd ref="605304539"/>
    <nd ref="605304540"/>
    <nd ref="605304563"/>
    <nd ref="605304561"/>
    <nd ref="605304562"/>
    <tag k="addr:city" v="Зеленоград"/>
    <tag k="addr:housenumber" v="1816"/>
    <tag k="addr:street" v="18-й Микрорайон"/>
    <tag k="amenity" v="school"/>
    <tag k="building" v="yes"/>
    <tag k="is_in" v="Russia"/>
    <tag k="name" v="Школа №1912"/>
  </way>
  <way id="47576107" version="5" timestamp="2011-06-07T20:50:15Z" uid="133332" user="AMDmi3" changeset="8374030">
    <nd ref="605304562"/>
    <nd ref="605304534"/>
    <nd ref="605304538"/>
    <nd ref="605304535"/>
    <nd ref="1107931976"/>
    <nd ref="1107932232"/>
    <nd ref="605304520"/>
    <nd ref="605304541"/>
    <nd ref="605304539"/>
    <nd ref="605304540"/>
    <nd ref="605304563"/>
    <nd ref="605304561"/>
    <nd ref="605304562"/>
    <tag k="addr:city" v="Зеленоград"/>
    <tag k="addr:housenumber" v="1816"/>
    <tag k="addr:street" v="18-й микрорайон"/>
    <tag k="amenity" v="school"/>
    <tag k="building" v="yes"/>
    <tag k="is_in" v="Russia"/>
    <tag k="name" v="Школа №1912"/>
  </way>
  <way id="47576107" version="6" timestamp="2011-09-13T10:31:48Z" uid="29320" user="Komяpa" changeset="9288237">
    <nd ref="605304562"/>
    <nd ref="605304534"/>
    <nd ref="605304538"/>
    <nd ref="605304535"/>
    <nd ref="1107931976"/>
    <nd ref="1107932232"/>
    <nd ref="605304520"/>
    <nd ref="605304541"/>
    <nd ref="605304539"/>
    <nd ref="605304540"/>
    <nd ref="605304563"/>
    <nd ref="605304561"/>
    <nd ref="605304562"/>
    <tag k="addr:city" v="Зеленоград"/>
    <tag k="addr:country" v="RU"/>
    <tag k="addr:housenumber" v="1816"/>
    <tag k="addr:street" v="18-й микрорайон"/>
    <tag k="amenity" v="school"/>
    <tag k="building" v="yes"/>
    <tag k="name" v="Школа №1912"/>
  </way>
  <way id="47576107" version="7" timestamp="2012-03-27T11:48:21Z" uid="481934" user="iWowik" changeset="11115472">
    <nd ref="605304562"/>
    <nd ref="605304534"/>
    <nd ref="605304538"/>
    <nd ref="605304535"/>
    <nd ref="1107931976"/>
    <nd ref="1107932232"/>
    <nd ref="605304520"/>
    <nd ref="605304541"/>
    <nd ref="605304539"/>
    <nd ref="605304540"/>
    <nd ref="605304563"/>
    <nd ref="605304561"/>
    <nd ref="605304562"/>
    <tag k="addr:city" v="Зеленоград"/>
    <tag k="addr:country" v="RU"/>
    <tag k="addr:housenumber" v="1816"/>
    <tag k="addr:region" v="Москва"/>
    <tag k="addr:street" v="18-й микрорайон"/>
    <tag k="amenity" v="school"/>
    <tag k="building" v="yes"/>
    <tag k="name" v="Школа №1912"/>
  </way>
  <way id="47576108" version="4" timestamp="2011-02-04T10:20:30Z" uid="115477" user="wowik" changeset="7181657">
    <nd ref="605304590"/>
    <nd ref="605304603"/>
    <nd ref="605304601"/>
    <nd ref="605304591"/>
    <nd ref="605304590"/>
    <tag k="addr:city" v="Зеленоград"/>
    <tag k="building" v="yes"/>
    <tag k="building:levels" v="1"/>
    <tag k="is_in" v="Russia"/>
    <tag k="landuse" v="service"/>
  </way>
  <way id="47576108" version="5" timestamp="2011-09-13T10:35:56Z" uid="29320" user="Komяpa" changeset="9288237">
    <nd ref="605304590"/>
    <nd ref="605304603"/>
    <nd ref="605304601"/>
    <nd ref="605304591"/>
    <nd ref="605304590"/>
    <tag k="addr:city" v="Зеленоград"/>
    <tag k="addr:country" v="RU"/>
    <tag k="building" v="service"/>
    <tag k="building:levels" v="1"/>
  </way>
  <way id="47576108" version="6" timestamp="2012-03-27T11:52:53Z" uid="481934" user="iWowik" changeset="11115472">
    <nd ref="605304590"/>
    <nd ref="605304603"/>
    <nd ref="605304601"/>
    <nd ref="605304591"/>
    <nd ref="605304590"/>
    <tag k="addr:city" v="Зеленоград"/>
    <tag k="addr:country" v="RU"/>
    <tag k="addr:region" v="Москва"/>
    <tag k="building" v="service"/>
    <tag k="building:levels" v="1"/>
  </way>
  <way id="47576109" version="4" timestamp="2011-02-04T10:20:31Z" uid="115477" user="wowik" changeset="7181657">
    <nd ref="605304604"/>
    <nd ref="605304606"/>
    <nd ref="605304605"/>
    <nd ref="605304593"/>
    <nd ref="605304604"/>
    <tag k="addr:city" v="Зеленоград"/>
    <tag k="building" v="yes"/>
    <tag k="building:levels" v="1"/>
    <tag k="is_in" v="Russia"/>
    <tag k="landuse" v="service"/>
  </way>
  <way id="47576109" version="5" timestamp="2011-09-13T10:35:57Z" uid="29320" user="Komяpa" changeset="9288237">
    <nd ref="605304604"/>
    <nd ref="605304606"/>
    <nd ref="605304605"/>
    <nd ref="605304593"/>
    <nd ref="605304604"/>
    <tag k="addr:city" v="Зеленоград"/>
    <tag k="addr:country" v="RU"/>
    <tag k="building" v="service"/>
    <tag k="building:levels" v="1"/>
  </way>
  <way id="47576109" version="6" timestamp="2012-03-27T11:50:02Z" uid="481934" user="iWowik" changeset="11115472">
    <nd ref="605304604"/>
    <nd ref="605304606"/>
    <nd ref="605304605"/>
    <nd ref="605304593"/>
    <nd ref="605304604"/>
    <tag k="addr:city" v="Зеленоград"/>
    <tag k="addr:country" v="RU"/>
    <tag k="addr:region" v="Москва"/>
    <tag k="building" v="service"/>
    <tag k="building:levels" v="1"/>
  </way>
  <way id="47576299" version="3" timestamp="2010-07-28T03:39:17Z" uid="4467" user="Rosscoe" changeset="5334893">
    <nd ref="605046408"/>
    <nd ref="605046557"/>
    <nd ref="761985103"/>
    <nd ref="605046569"/>
    <nd ref="605045901"/>
    <tag k="highway" v="service"/>
    <tag k="service" v="alley"/>
    <tag k="source" v="survey;nearmap"/>
    <tag k="surface" v="cobblestone"/>
  </way>
  <way id="47576353" version="2" timestamp="2010-07-28T03:39:02Z" uid="4467" user="Rosscoe" changeset="5334893">
    <nd ref="605046408"/>
    <nd ref="605309691"/>
    <nd ref="605309692"/>
    <nd ref="605309696"/>
    <nd ref="605309557"/>
    <tag k="bicycle" v="yes"/>
    <tag k="highway" v="footway"/>
    <tag k="source" v="survey;nearmap"/>
  </way>
  <way id="47576022" version="3" timestamp="2012-07-19T07:29:25Z" uid="722137" user="OSMF Redaction Account" changeset="12311990">
    <nd ref="605302889"/>
    <nd ref="605302353"/>
    <tag k="bridge" v="yes"/>
    <tag k="highway" v="unclassified"/>
    <tag k="lanes" v="1"/>
    <tag k="name" v="Carboor - Lake Buffalo Road"/>
    <tag k="source" v="survey"/>
    <tag k="surface" v="unpaved"/>
  </way>
  <way id="47576082" version="7" timestamp="2012-07-20T23:48:00Z" uid="722137" user="OSMF Redaction Account" changeset="12396479">
    <nd ref="605304580"/>
    <nd ref="605304585"/>
    <nd ref="605304582"/>
    <nd ref="605304463"/>
    <nd ref="605304445"/>
    <nd ref="605304451"/>
    <nd ref="605304581"/>
    <nd ref="605304579"/>
    <nd ref="605304580"/>
    <tag k="addr:city" v="Зеленоград"/>
    <tag k="addr:country" v="RU"/>
    <tag k="addr:housenumber" v="1811"/>
    <tag k="addr:region" v="Москва"/>
    <tag k="addr:street" v="18-й микрорайон"/>
    <tag k="building" v="yes"/>
  </way>
  <way id="47576086" version="10" timestamp="2012-07-20T23:47:45Z" uid="722137" user="OSMF Redaction Account" changeset="12396479">
    <nd ref="605304381"/>
    <nd ref="605304424"/>
    <nd ref="605304423"/>
    <nd ref="605304380"/>
    <nd ref="605304381"/>
    <tag k="addr:city" v="Зеленоград"/>
    <tag k="addr:country" v="RU"/>
    <tag k="addr:housenumber" v="1801Б"/>
    <tag k="addr:region" v="Москва"/>
    <tag k="addr:street" v="18-й микрорайон"/>
    <tag k="building" v="yes"/>
    <tag k="building:levels" v="24"/>
  </way>
  <way id="47576087" version="6" timestamp="2012-07-20T23:47:52Z" uid="722137" user="OSMF Redaction Account" changeset="12396479">
    <nd ref="605304391"/>
    <nd ref="605304389"/>
    <nd ref="605304388"/>
    <nd ref="605304390"/>
    <nd ref="605304387"/>
    <nd ref="985375700"/>
    <nd ref="605304391"/>
    <tag k="addr:city" v="Зеленоград"/>
    <tag k="addr:country" v="RU"/>
    <tag k="addr:region" v="Москва"/>
    <tag k="building" v="yes"/>
  </way>
  <way id="47576088" version="10" timestamp="2012-07-20T23:47:43Z" uid="722137" user="OSMF Redaction Account" changeset="12396479">
    <nd ref="605304376"/>
    <nd ref="605304375"/>
    <nd ref="605304379"/>
    <nd ref="605304378"/>
    <nd ref="605304376"/>
    <tag k="addr:city" v="Зеленоград"/>
    <tag k="addr:country" v="RU"/>
    <tag k="addr:housenumber" v="1801А"/>
    <tag k="addr:region" v="Москва"/>
    <tag k="addr:street" v="18-й микрорайон"/>
    <tag k="building" v="yes"/>
    <tag k="building:levels" v="24"/>
  </way>
  <way id="47576089" version="7" timestamp="2012-07-20T23:45:57Z" uid="722137" user="OSMF Redaction Account" changeset="12396430">
    <nd ref="605304429"/>
    <nd ref="605304428"/>
    <nd ref="605304427"/>
    <nd ref="605304426"/>
    <nd ref="605304429"/>
    <tag k="addr:city" v="Зеленоград"/>
    <tag k="addr:country" v="RU"/>
    <tag k="addr:housenumber" v="1803"/>
    <tag k="addr:region" v="Москва"/>
    <tag k="addr:street" v="18-й микрорайон"/>
    <tag k="building" v="yes"/>
  </way>
  <way id="47576091" version="10" timestamp="2012-07-20T23:47:50Z" uid="722137" user="OSMF Redaction Account" changeset="12396479">
    <nd ref="605304434"/>
    <nd ref="605304430"/>
    <nd ref="605304432"/>
    <nd ref="605304433"/>
    <nd ref="605304434"/>
    <tag k="addr:city" v="Зеленоград"/>
    <tag k="addr:country" v="RU"/>
    <tag k="addr:housenumber" v="1804А"/>
    <tag k="addr:region" v="Москва"/>
    <tag k="addr:street" v="18-й микрорайон"/>
    <tag k="building" v="yes"/>
    <tag k="building:levels" v="24"/>
  </way>
  <way id="47576092" version="10" timestamp="2012-07-20T23:47:52Z" uid="722137" user="OSMF Redaction Account" changeset="12396479">
    <nd ref="605304437"/>
    <nd ref="605304438"/>
    <nd ref="605304439"/>
    <nd ref="605304435"/>
    <nd ref="605304437"/>
    <tag k="addr:city" v="Зеленоград"/>
    <tag k="addr:country" v="RU"/>
    <tag k="addr:housenumber" v="1804Б"/>
    <tag k="addr:region" v="Москва"/>
    <tag k="addr:street" v="18-й микрорайон"/>
    <tag k="building" v="yes"/>
    <tag k="building:levels" v="24"/>
  </way>
  <way id="47576094" version="6" timestamp="2012-07-20T23:48:09Z" uid="722137" user="OSMF Redaction Account" changeset="12396479">
    <nd ref="605304420"/>
    <nd ref="605304401"/>
    <nd ref="605304402"/>
    <nd ref="605304421"/>
    <nd ref="605304420"/>
    <tag k="addr:city" v="Зеленоград"/>
    <tag k="addr:country" v="RU"/>
    <tag k="addr:housenumber" v="1806"/>
    <tag k="addr:region" v="Москва"/>
    <tag k="addr:street" v="18-й микрорайон"/>
    <tag k="building" v="yes"/>
  </way>
  <way id="47576095" version="6" timestamp="2012-07-20T23:48:10Z" uid="722137" user="OSMF Redaction Account" changeset="12396479">
    <nd ref="605304455"/>
    <nd ref="605304452"/>
    <nd ref="605304457"/>
    <nd ref="605304456"/>
    <nd ref="605304455"/>
    <tag k="addr:city" v="Зеленоград"/>
    <tag k="addr:country" v="RU"/>
    <tag k="addr:housenumber" v="1807"/>
    <tag k="addr:region" v="Москва"/>
    <tag k="addr:street" v="18-й микрорайон"/>
    <tag k="building" v="yes"/>
  </way>
  <way id="47576096" version="6" timestamp="2012-07-20T23:48:10Z" uid="722137" user="OSMF Redaction Account" changeset="12396479">
    <nd ref="605304458"/>
    <nd ref="605304461"/>
    <nd ref="605304462"/>
    <nd ref="605304460"/>
    <nd ref="605304458"/>
    <tag k="addr:city" v="Зеленоград"/>
    <tag k="addr:country" v="RU"/>
    <tag k="addr:housenumber" v="1808"/>
    <tag k="addr:region" v="Москва"/>
    <tag k="addr:street" v="18-й микрорайон"/>
    <tag k="building" v="yes"/>
  </way>
  <way id="47576097" version="6" timestamp="2012-07-20T23:48:06Z" uid="722137" user="OSMF Redaction Account" changeset="12396479">
    <nd ref="605304468"/>
    <nd ref="605304469"/>
    <nd ref="605304471"/>
    <nd ref="605304470"/>
    <nd ref="605304468"/>
    <tag k="addr:city" v="Зеленоград"/>
    <tag k="addr:country" v="RU"/>
    <tag k="addr:housenumber" v="1809"/>
    <tag k="addr:region" v="Москва"/>
    <tag k="addr:street" v="18-й микрорайон"/>
    <tag k="building" v="yes"/>
  </way>
  <way id="47576098" version="6" timestamp="2012-07-20T23:48:09Z" uid="722137" user="OSMF Redaction Account" changeset="12396479">
    <nd ref="605304473"/>
    <nd ref="605304464"/>
    <nd ref="605304465"/>
    <nd ref="605304472"/>
    <nd ref="605304473"/>
    <tag k="addr:city" v="Зеленоград"/>
    <tag k="addr:country" v="RU"/>
    <tag k="addr:housenumber" v="1810"/>
    <tag k="addr:region" v="Москва"/>
    <tag k="addr:street" v="18-й микрорайон"/>
    <tag k="building" v="yes"/>
  </way>
  <way id="47576102" version="7" timestamp="2012-07-20T23:48:35Z" uid="722137" user="OSMF Redaction Account" changeset="12396479">
    <nd ref="605304570"/>
    <nd ref="605304578"/>
    <nd ref="605304548"/>
    <nd ref="605304544"/>
    <nd ref="605304547"/>
    <nd ref="605304545"/>
    <nd ref="605304571"/>
    <nd ref="605304565"/>
    <nd ref="605304570"/>
    <tag k="addr:city" v="Зеленоград"/>
    <tag k="addr:country" v="RU"/>
    <tag k="addr:housenumber" v="1820"/>
    <tag k="addr:region" v="Москва"/>
    <tag k="addr:street" v="18-й микрорайон"/>
    <tag k="building" v="yes"/>
  </way>
  <way id="47576103" version="10" timestamp="2012-07-20T23:48:14Z" uid="722137" user="OSMF Redaction Account" changeset="12396479">
    <nd ref="605304483"/>
    <nd ref="605304488"/>
    <nd ref="605304496"/>
    <nd ref="987589735"/>
    <nd ref="987589734"/>
    <nd ref="605304486"/>
    <nd ref="605304490"/>
    <nd ref="605304491"/>
    <nd ref="605304484"/>
    <nd ref="605304481"/>
    <nd ref="605304482"/>
    <nd ref="987589731"/>
    <nd ref="987589732"/>
    <nd ref="605304485"/>
    <nd ref="605304483"/>
    <tag k="addr:city" v="Зеленоград"/>
    <tag k="addr:country" v="RU"/>
    <tag k="addr:housenumber" v="1812"/>
    <tag k="addr:region" v="Москва"/>
    <tag k="addr:street" v="18-й микрорайон"/>
    <tag k="building" v="yes"/>
  </way>
  <way id="47576104" version="7" timestamp="2012-07-20T23:48:13Z" uid="722137" user="OSMF Redaction Account" changeset="12396479">
    <nd ref="605304524"/>
    <nd ref="605304516"/>
    <nd ref="605304512"/>
    <nd ref="605304513"/>
    <nd ref="605304517"/>
    <nd ref="605304511"/>
    <nd ref="605304519"/>
    <nd ref="605304532"/>
    <nd ref="605304525"/>
    <nd ref="605304510"/>
    <nd ref="605304508"/>
    <nd ref="605304522"/>
    <nd ref="605304524"/>
    <tag k="addr:city" v="Зеленоград"/>
    <tag k="addr:country" v="RU"/>
    <tag k="addr:housenumber" v="1813"/>
    <tag k="addr:region" v="Москва"/>
    <tag k="addr:street" v="18-й микрорайон"/>
    <tag k="amenity" v="kindergarten"/>
    <tag k="building" v="yes"/>
    <tag k="name" v="Детский сад №2353"/>
  </way>
  <way id="47576106" version="7" timestamp="2012-07-20T23:48:15Z" uid="722137" user="OSMF Redaction Account" changeset="12396479">
    <nd ref="605304527"/>
    <nd ref="605304528"/>
    <nd ref="605304533"/>
    <nd ref="605304530"/>
    <nd ref="605304527"/>
    <tag k="addr:city" v="Зеленоград"/>
    <tag k="addr:country" v="RU"/>
    <tag k="addr:housenumber" v="1814"/>
    <tag k="addr:region" v="Москва"/>
    <tag k="addr:street" v="18-й микрорайон"/>
    <tag k="amenity" v="kindergarten"/>
    <tag k="building" v="yes"/>
    <tag k="name" v="Детский сад №2332"/>
  </way>
  <way id="47576107" version="8" timestamp="2012-07-20T23:48:28Z" uid="722137" user="OSMF Redaction Account" changeset="12396479">
    <nd ref="605304562"/>
    <nd ref="605304534"/>
    <nd ref="605304538"/>
    <nd ref="605304535"/>
    <nd ref="605304520"/>
    <nd ref="605304541"/>
    <nd ref="605304539"/>
    <nd ref="605304540"/>
    <nd ref="605304563"/>
    <nd ref="605304561"/>
    <nd ref="605304562"/>
    <tag k="addr:city" v="Зеленоград"/>
    <tag k="addr:country" v="RU"/>
    <tag k="addr:housenumber" v="1816"/>
    <tag k="addr:region" v="Москва"/>
    <tag k="addr:street" v="18-й микрорайон"/>
    <tag k="amenity" v="school"/>
    <tag k="building" v="yes"/>
    <tag k="name" v="Школа №1912"/>
  </way>
  <way id="47576108" version="7" timestamp="2012-07-20T23:47:59Z" uid="722137" user="OSMF Redaction Account" changeset="12396479">
    <nd ref="605304590"/>
    <nd ref="605304603"/>
    <nd ref="605304601"/>
    <nd ref="605304591"/>
    <nd ref="605304590"/>
    <tag k="addr:city" v="Зеленоград"/>
    <tag k="addr:country" v="RU"/>
    <tag k="addr:region" v="Москва"/>
    <tag k="building" v="service"/>
  </way>
  <way id="47576109" version="7" timestamp="2012-07-20T23:48:00Z" uid="722137" user="OSMF Redaction Account" changeset="12396479">
    <nd ref="605304604"/>
    <nd ref="605304606"/>
    <nd ref="605304605"/>
    <nd ref="605304593"/>
    <nd ref="605304604"/>
    <tag k="addr:city" v="Зеленоград"/>
    <tag k="addr:country" v="RU"/>
    <tag k="addr:region" v="Москва"/>
    <tag k="building" v="service"/>
  </way>
  <way id="47576299" version="4" timestamp="2012-07-20T01:00:46Z" uid="722137" user="OSMF Redaction Account" changeset="12353903">
    <nd ref="605046408"/>
    <nd ref="605046557"/>
    <nd ref="761985103"/>
    <nd ref="605046569"/>
    <nd ref="605045901"/>
    <tag k="highway" v="service"/>
    <tag k="service" v="alley"/>
    <tag k="source" v="nearmap,survey"/>
    <tag k="surface" v="cobblestone"/>
  </way>
  <way id="47576353" version="3" timestamp="2012-07-20T01:00:46Z" uid="722137" user="OSMF Redaction Account" changeset="12353903">
    <nd ref="605046408"/>
    <nd ref="605309691"/>
    <nd ref="605309692"/>
    <nd ref="605309696"/>
    <nd ref="605309557"/>
    <tag k="bicycle" v="yes"/>
    <tag k="highway" v="footway"/>
    <tag k="source" v="nearmap,survey"/>
  </way>
</osm>
