<?xml version='1.0' encoding='UTF-8'?>
<osm version="0.6" generator="libosmium/2.20.0">
  <way id="47601011" version="1" timestamp="2010-01-05T17:12:07Z" uid="9581" user="Lobelt" changeset="3547094">
    <nd ref="605773403"/>
    <nd ref="31248943"/>
    <nd ref="31248944"/>
    <tag k="highway" v="primary"/>
    <tag k="maxspeed" v="70"/>
    <tag k="ref" v="B 88"/>
  </way>
  <way id="47601011" version="2" timestamp="2011-11-16T21:04:35Z" uid="445671" user="flierfy" changeset="9848750">
    <nd ref="605773403"/>
    <nd ref="31248943"/>
    <nd ref="31248944"/>
    <tag k="highway" v="primary"/>
    <tag k="lanes" v="2"/>
    <tag k="maxspeed" v="70"/>
    <tag k="oneway" v="no"/>
    <tag k="ref" v="B 88"/>
  </way>
  <way id="47601011" version="3" timestamp="2012-01-07T13:09:32Z" uid="118134" user="scai" changeset="10320841"/>
  <way id="47601014" version="1" timestamp="2010-01-05T17:12:08Z" uid="9581" user="Lobelt" changeset="3547094">
    <nd ref="605773397"/>
    <nd ref="31248946"/>
    <nd ref="31248947"/>
    <nd ref="31248948"/>
    <nd ref="31248949"/>
    <nd ref="31248950"/>
    <nd ref="31284699"/>
    <nd ref="31248951"/>
    <nd ref="318902746"/>
    <tag k="highway" v="primary"/>
    <tag k="maxspeed" v="100"/>
    <tag k="ref" v="B 88"/>
  </way>
  <way id="47601014" version="2" timestamp="2011-11-16T21:04:35Z" uid="445671" user="flierfy" changeset="9848750">
    <nd ref="605773397"/>
    <nd ref="31248946"/>
    <nd ref="31248947"/>
    <nd ref="31248948"/>
    <nd ref="31248949"/>
    <nd ref="31248950"/>
    <nd ref="31284699"/>
    <nd ref="31248951"/>
    <nd ref="318902746"/>
    <tag k="highway" v="primary"/>
    <tag k="lanes" v="2"/>
    <tag k="maxspeed" v="100"/>
    <tag k="oneway" v="no"/>
    <tag k="ref" v="B 88"/>
  </way>
  <way id="47601014" version="3" timestamp="2012-01-07T09:38:22Z" uid="118134" user="scai" changeset="10319338">
    <nd ref="605773397"/>
    <nd ref="31248946"/>
    <nd ref="31248947"/>
    <nd ref="31248948"/>
    <nd ref="31248949"/>
    <nd ref="31248950"/>
    <nd ref="31284699"/>
    <nd ref="31248951"/>
    <nd ref="1580680675"/>
    <nd ref="1580680903"/>
    <tag k="highway" v="primary"/>
    <tag k="lanes" v="2"/>
    <tag k="maxspeed" v="100"/>
    <tag k="oneway" v="no"/>
    <tag k="ref" v="B 88"/>
  </way>
  <way id="47601014" version="4" timestamp="2012-01-07T13:09:31Z" uid="118134" user="scai" changeset="10320841"/>
  <way id="47601016" version="1" timestamp="2010-01-05T17:12:09Z" uid="9581" user="Lobelt" changeset="3547094">
    <nd ref="605773386"/>
    <nd ref="31917937"/>
    <nd ref="31917938"/>
    <nd ref="31917939"/>
    <nd ref="454343677"/>
    <nd ref="31917940"/>
    <nd ref="31917941"/>
    <nd ref="31917942"/>
    <nd ref="31917943"/>
    <nd ref="31917944"/>
    <nd ref="31917945"/>
    <nd ref="31917946"/>
    <nd ref="31917947"/>
    <nd ref="318902749"/>
    <tag k="highway" v="primary"/>
    <tag k="maxspeed" v="50"/>
    <tag k="ref" v="B 88"/>
  </way>
  <way id="47601016" version="2" timestamp="2011-11-16T21:04:36Z" uid="445671" user="flierfy" changeset="9848750">
    <nd ref="605773386"/>
    <nd ref="31917937"/>
    <nd ref="31917938"/>
    <nd ref="31917939"/>
    <nd ref="454343677"/>
    <nd ref="31917940"/>
    <nd ref="31917941"/>
    <nd ref="31917942"/>
    <nd ref="31917943"/>
    <nd ref="31917944"/>
    <nd ref="31917945"/>
    <nd ref="31917946"/>
    <nd ref="31917947"/>
    <nd ref="318902749"/>
    <tag k="highway" v="primary"/>
    <tag k="lanes" v="2"/>
    <tag k="maxspeed" v="50"/>
    <tag k="oneway" v="no"/>
    <tag k="ref" v="B 88"/>
  </way>
  <way id="47601016" version="3" timestamp="2012-01-01T16:35:32Z" uid="118134" user="scai" changeset="10262953"/>
  <way id="47601020" version="1" timestamp="2010-01-05T17:12:09Z" uid="9581" user="Lobelt" changeset="3547094">
    <nd ref="31917928"/>
    <nd ref="31917929"/>
    <nd ref="31917930"/>
    <nd ref="31917931"/>
    <nd ref="454343764"/>
    <nd ref="31917932"/>
    <nd ref="31917933"/>
    <nd ref="454343753"/>
    <nd ref="31917934"/>
    <tag k="highway" v="primary"/>
    <tag k="maxspeed" v="30"/>
    <tag k="ref" v="B 88"/>
  </way>
  <way id="47601020" version="2" timestamp="2011-11-16T21:04:36Z" uid="445671" user="flierfy" changeset="9848750">
    <nd ref="31917928"/>
    <nd ref="31917929"/>
    <nd ref="31917930"/>
    <nd ref="31917931"/>
    <nd ref="454343764"/>
    <nd ref="31917932"/>
    <nd ref="31917933"/>
    <nd ref="454343753"/>
    <nd ref="31917934"/>
    <tag k="highway" v="primary"/>
    <tag k="lanes" v="2"/>
    <tag k="maxspeed" v="30"/>
    <tag k="oneway" v="no"/>
    <tag k="ref" v="B 88"/>
  </way>
  <way id="47601020" version="3" timestamp="2012-01-01T16:35:32Z" uid="118134" user="scai" changeset="10262953"/>
  <way id="47601879" version="1" timestamp="2010-01-05T17:14:37Z" uid="64977" user="CLoeser" changeset="3547104">
    <nd ref="605782250"/>
    <nd ref="605782257"/>
    <nd ref="605782263"/>
    <nd ref="605782268"/>
    <nd ref="605782273"/>
    <nd ref="605782277"/>
    <nd ref="605782299"/>
    <nd ref="605782250"/>
    <tag k="addr:city" v="Itzehoe"/>
    <tag k="addr:country" v="DE"/>
    <tag k="addr:housenumber" v="30"/>
    <tag k="addr:postcode" v="25524"/>
    <tag k="addr:street" v="Reichenstraße"/>
    <tag k="building" v="yes"/>
    <tag k="name" v="Seniorenwohnheim &quot;Haus an der Stör&quot;"/>
    <tag k="website" v="http://www.hausanderstoer.de/"/>
  </way>
  <way id="47601879" version="2" timestamp="2011-01-05T18:23:34Z" uid="75388" user="Svalbard" changeset="6874702">
    <nd ref="605782250"/>
    <nd ref="605782257"/>
    <nd ref="605782263"/>
    <nd ref="1083871323"/>
    <nd ref="1083871283"/>
    <nd ref="1083871311"/>
    <nd ref="1083871273"/>
    <nd ref="605782268"/>
    <nd ref="605782273"/>
    <nd ref="605782277"/>
    <nd ref="605782299"/>
    <nd ref="605782250"/>
    <tag k="addr:city" v="Itzehoe"/>
    <tag k="addr:country" v="DE"/>
    <tag k="addr:housenumber" v="30"/>
    <tag k="addr:postcode" v="25524"/>
    <tag k="addr:street" v="Reichenstraße"/>
    <tag k="building" v="yes"/>
    <tag k="name" v="Seniorenwohnheim &quot;Haus an der Stör&quot;"/>
    <tag k="website" v="http://www.hausanderstoer.de/"/>
  </way>
  <way id="47601879" version="3" timestamp="2011-08-04T08:02:30Z" uid="75388" user="Svalbard" changeset="8917259">
    <nd ref="605782250"/>
    <nd ref="605782257"/>
    <nd ref="605782263"/>
    <nd ref="1083871323"/>
    <nd ref="1083871283"/>
    <nd ref="1083871311"/>
    <nd ref="1083871273"/>
    <nd ref="605782268"/>
    <nd ref="1385773998"/>
    <nd ref="1385773997"/>
    <nd ref="1385773999"/>
    <nd ref="1385774000"/>
    <nd ref="605782273"/>
    <nd ref="605782277"/>
    <nd ref="605782299"/>
    <nd ref="605782250"/>
    <tag k="addr:city" v="Itzehoe"/>
    <tag k="addr:country" v="DE"/>
    <tag k="addr:housenumber" v="30"/>
    <tag k="addr:postcode" v="25524"/>
    <tag k="addr:street" v="Reichenstraße"/>
    <tag k="building" v="yes"/>
    <tag k="name" v="Seniorenwohnheim &quot;Haus an der Stör&quot;"/>
    <tag k="website" v="http://www.hausanderstoer.de/"/>
  </way>
  <way id="47601879" version="4" timestamp="2011-08-20T18:10:51Z" uid="66904" user="OSchlüter" changeset="9076482">
    <nd ref="605782250"/>
    <nd ref="1406223839"/>
    <nd ref="1406223843"/>
    <nd ref="605782257"/>
    <nd ref="1406223835"/>
    <nd ref="605782263"/>
    <nd ref="1083871323"/>
    <nd ref="1083871283"/>
    <nd ref="1083871311"/>
    <nd ref="1083871273"/>
    <nd ref="605782268"/>
    <nd ref="1385773998"/>
    <nd ref="1385773997"/>
    <nd ref="1385773999"/>
    <nd ref="1385774000"/>
    <nd ref="605782273"/>
    <nd ref="605782277"/>
    <nd ref="605782299"/>
    <nd ref="1406223832"/>
    <nd ref="605782250"/>
    <tag k="addr:city" v="Itzehoe"/>
    <tag k="addr:country" v="DE"/>
    <tag k="addr:housenumber" v="30"/>
    <tag k="addr:postcode" v="25524"/>
    <tag k="addr:street" v="Reichenstraße"/>
    <tag k="building" v="yes"/>
    <tag k="name" v="Seniorenwohnheim &quot;Haus an der Stör&quot;"/>
    <tag k="website" v="http://www.hausanderstoer.de/"/>
  </way>
  <way id="47601883" version="1" timestamp="2010-01-05T17:14:37Z" uid="64977" user="CLoeser" changeset="3547104">
    <nd ref="605782320"/>
    <nd ref="605782325"/>
    <nd ref="605782330"/>
    <nd ref="605782337"/>
    <nd ref="605782344"/>
    <tag k="man_made" v="pier"/>
  </way>
  <way id="47601886" version="1" timestamp="2010-01-05T17:14:37Z" uid="64977" user="CLoeser" changeset="3547104">
    <nd ref="605782357"/>
    <nd ref="605782330"/>
    <tag k="man_made" v="pier"/>
    <tag k="waterway" v="dock"/>
  </way>
  <way id="47601886" version="2" timestamp="2011-08-17T17:47:11Z" uid="66904" user="OSchlüter" changeset="9050066">
    <nd ref="605782357"/>
    <nd ref="605782330"/>
    <tag k="man_made" v="pier"/>
  </way>
  <way id="47601879" version="5" timestamp="2012-07-18T22:54:12Z" uid="722137" user="OSMF Redaction Account" changeset="12301050">
    <nd ref="1406223839"/>
    <nd ref="1406223843"/>
    <nd ref="1406223835"/>
    <nd ref="1083871323"/>
    <nd ref="1083871283"/>
    <nd ref="1083871311"/>
    <nd ref="1083871273"/>
    <nd ref="1385773998"/>
    <nd ref="1385773997"/>
    <nd ref="1385773999"/>
    <nd ref="1385774000"/>
    <nd ref="1406223832"/>
  </way>
  <way id="47601879" version="6" timestamp="2012-07-19T14:47:21Z" uid="66904" user="OSchlüter" changeset="12332012">
    <nd ref="1406223839"/>
    <nd ref="1406223843"/>
    <nd ref="605782257"/>
    <nd ref="1406223835"/>
    <nd ref="605782263"/>
    <nd ref="1083871323"/>
    <nd ref="1083871283"/>
    <nd ref="1083871311"/>
    <nd ref="1083871273"/>
    <nd ref="1385773998"/>
    <nd ref="1385773997"/>
    <nd ref="1385773999"/>
    <nd ref="1385774000"/>
    <nd ref="605782273"/>
    <nd ref="605782277"/>
    <nd ref="605782299"/>
    <nd ref="1406223832"/>
    <nd ref="605782250"/>
    <nd ref="1406223839"/>
    <tag k="addr:city" v="Itzehoe"/>
    <tag k="addr:country" v="DE"/>
    <tag k="addr:housenumber" v="30"/>
    <tag k="addr:postcode" v="25524"/>
    <tag k="addr:street" v="Reichenstraße"/>
    <tag k="amenity" v="social_facility"/>
    <tag k="building" v="yes"/>
    <tag k="email" v="info@haus-an-der-stoer.de"/>
    <tag k="fax" v="+49 4821 400310"/>
    <tag k="name" v="Haus an der Stör"/>
    <tag k="phone" v="+49 4821 40030"/>
    <tag k="social_facility" v="assisted_living"/>
    <tag k="social_facility:for" v="senior"/>
    <tag k="website" v="www.haus-an-der-stoer.de"/>
  </way>
  <way id="47601883" version="2" timestamp="2012-07-18T22:55:19Z" uid="722137" user="OSMF Redaction Account" changeset="12301133"/>
  <way id="47601886" version="3" timestamp="2012-07-18T22:55:19Z" uid="722137" user="OSMF Redaction Account" changeset="12301133"/>
</osm>
