<?xml version='1.0' encoding='UTF-8'?>
<osm version="0.6" generator="libosmium/2.20.0">
  <way id="47680316" version="5" timestamp="2011-04-20T11:26:18Z" uid="115477" user="wowik" changeset="7915253">
    <nd ref="606670441"/>
    <nd ref="606670453"/>
    <nd ref="606670461"/>
    <nd ref="606670484"/>
    <nd ref="606670441"/>
    <tag k="addr:city" v="Москва"/>
    <tag k="addr:country" v="RU"/>
    <tag k="addr:housenumber" v="27 с6"/>
    <tag k="addr:postcode" v="123104"/>
    <tag k="addr:street" v="Тверской бульвар"/>
    <tag k="building" v="yes"/>
    <tag k="cladr:code" v="77000000000288300"/>
  </way>
  <way id="47680339" version="7" timestamp="2011-04-20T11:25:54Z" uid="115477" user="wowik" changeset="7915253">
    <nd ref="670441457"/>
    <nd ref="670441455"/>
    <nd ref="670441453"/>
    <nd ref="670441412"/>
    <nd ref="670441415"/>
    <nd ref="670441414"/>
    <nd ref="670441417"/>
    <nd ref="670441416"/>
    <nd ref="670441419"/>
    <nd ref="670441418"/>
    <nd ref="670441413"/>
    <nd ref="670441421"/>
    <nd ref="670441425"/>
    <nd ref="670441424"/>
    <nd ref="670441422"/>
    <nd ref="606673104"/>
    <nd ref="606673113"/>
    <nd ref="670441457"/>
    <tag k="addr:city" v="Москва"/>
    <tag k="addr:country" v="RU"/>
    <tag k="addr:housenumber" v="25 с6"/>
    <tag k="addr:postcode" v="123104"/>
    <tag k="addr:street" v="Тверской бульвар"/>
    <tag k="building" v="yes"/>
    <tag k="cladr:code" v="77000000000288300"/>
  </way>
  <way id="47680372" version="7" timestamp="2011-04-20T11:27:00Z" uid="115477" user="wowik" changeset="7915253">
    <nd ref="606678394"/>
    <nd ref="606678398"/>
    <nd ref="606678408"/>
    <nd ref="606678415"/>
    <nd ref="606678394"/>
    <tag k="addr:city" v="Москва"/>
    <tag k="addr:country" v="RU"/>
    <tag k="addr:housenumber" v="25 с2"/>
    <tag k="addr:postcode" v="123104"/>
    <tag k="addr:street" v="Большая Бронная улица"/>
    <tag k="building" v="yes"/>
    <tag k="cladr:code" v="77000000000090600"/>
  </way>
  <way id="47680372" version="8" timestamp="2011-07-19T18:12:55Z" uid="397326" user="trolleway" changeset="8770997">
    <nd ref="606678394"/>
    <nd ref="606678398"/>
    <nd ref="606678408"/>
    <nd ref="606678415"/>
    <nd ref="606678394"/>
    <tag k="addr:city" v="Москва"/>
    <tag k="addr:country" v="RU"/>
    <tag k="addr:housenumber" v="25 с2"/>
    <tag k="addr:postcode" v="123104"/>
    <tag k="addr:street" v="Большая Бронная улица"/>
    <tag k="building" v="yes"/>
    <tag k="building:levels" v="2"/>
    <tag k="cladr:code" v="77000000000090600"/>
  </way>
  <way id="47680386" version="6" timestamp="2011-04-20T11:26:54Z" uid="115477" user="wowik" changeset="7915253">
    <nd ref="606680761"/>
    <nd ref="606680769"/>
    <nd ref="606680777"/>
    <nd ref="676037681"/>
    <nd ref="676037680"/>
    <nd ref="606680782"/>
    <nd ref="606680761"/>
    <tag k="addr:city" v="Москва"/>
    <tag k="addr:country" v="RU"/>
    <tag k="addr:housenumber" v="3"/>
    <tag k="addr:postcode" v="123104"/>
    <tag k="addr:street" v="Сытинский переулок"/>
    <tag k="building" v="yes"/>
    <tag k="cladr:code" v="77000000000285100"/>
  </way>
  <way id="47680386" version="7" timestamp="2011-07-19T18:12:56Z" uid="397326" user="trolleway" changeset="8770997">
    <nd ref="606680761"/>
    <nd ref="606680769"/>
    <nd ref="606680777"/>
    <nd ref="676037681"/>
    <nd ref="676037680"/>
    <nd ref="606680782"/>
    <nd ref="606680761"/>
    <tag k="addr:city" v="Москва"/>
    <tag k="addr:country" v="RU"/>
    <tag k="addr:housenumber" v="3"/>
    <tag k="addr:postcode" v="123104"/>
    <tag k="addr:street" v="Сытинский переулок"/>
    <tag k="building" v="yes"/>
    <tag k="building:levels" v="2"/>
    <tag k="cladr:code" v="77000000000285100"/>
  </way>
  <way id="47680392" version="6" timestamp="2011-04-20T11:27:03Z" uid="115477" user="wowik" changeset="7915253">
    <nd ref="606683232"/>
    <nd ref="606683238"/>
    <nd ref="606683242"/>
    <nd ref="606683245"/>
    <nd ref="606683266"/>
    <nd ref="606683270"/>
    <nd ref="606683232"/>
    <tag k="addr:city" v="Москва"/>
    <tag k="addr:country" v="RU"/>
    <tag k="addr:housenumber" v="3 с5"/>
    <tag k="addr:postcode" v="123104"/>
    <tag k="addr:street" v="Сытинский переулок"/>
    <tag k="building" v="yes"/>
    <tag k="cladr:code" v="77000000000285100"/>
  </way>
  <way id="47680419" version="6" timestamp="2011-04-20T11:25:37Z" uid="115477" user="wowik" changeset="7915253">
    <nd ref="606685019"/>
    <nd ref="606685030"/>
    <nd ref="606685047"/>
    <nd ref="606685052"/>
    <nd ref="606685019"/>
    <tag k="addr:city" v="Москва"/>
    <tag k="addr:country" v="RU"/>
    <tag k="addr:housenumber" v="23 с2"/>
    <tag k="addr:postcode" v="123104"/>
    <tag k="addr:street" v="Большая Бронная улица"/>
    <tag k="building" v="yes"/>
    <tag k="cladr:code" v="77000000000090600"/>
  </way>
  <way id="47680646" version="5" timestamp="2011-04-20T11:25:28Z" uid="115477" user="wowik" changeset="7915253">
    <nd ref="606686782"/>
    <nd ref="606686785"/>
    <nd ref="606686789"/>
    <nd ref="606686792"/>
    <nd ref="606686782"/>
    <tag k="addr:city" v="Москва"/>
    <tag k="addr:country" v="RU"/>
    <tag k="addr:housenumber" v="5 с2"/>
    <tag k="addr:postcode" v="123104"/>
    <tag k="addr:street" v="Сытинский переулок"/>
    <tag k="building" v="yes"/>
    <tag k="cladr:code" v="77000000000285100"/>
  </way>
  <way id="47680316" version="6" timestamp="2012-07-20T11:57:56Z" uid="722137" user="OSMF Redaction Account" changeset="12374607">
    <nd ref="606670441"/>
    <nd ref="606670453"/>
    <nd ref="606670461"/>
    <nd ref="606670484"/>
    <nd ref="606670441"/>
    <tag k="addr:housenumber" v="27 с6"/>
    <tag k="addr:postcode" v="123104"/>
    <tag k="addr:street" v="Тверской бульвар"/>
    <tag k="building" v="yes"/>
    <tag k="cladr:code" v="77000000000288300"/>
  </way>
  <way id="47680339" version="8" timestamp="2012-07-20T11:57:46Z" uid="722137" user="OSMF Redaction Account" changeset="12374607">
    <nd ref="670441457"/>
    <nd ref="670441455"/>
    <nd ref="670441453"/>
    <nd ref="670441412"/>
    <nd ref="670441415"/>
    <nd ref="670441414"/>
    <nd ref="670441417"/>
    <nd ref="670441416"/>
    <nd ref="670441419"/>
    <nd ref="670441418"/>
    <nd ref="670441413"/>
    <nd ref="670441421"/>
    <nd ref="670441425"/>
    <nd ref="670441424"/>
    <nd ref="670441422"/>
    <nd ref="606673104"/>
    <nd ref="606673113"/>
    <nd ref="670441457"/>
    <tag k="addr:housenumber" v="25 с6"/>
    <tag k="addr:postcode" v="123104"/>
    <tag k="addr:street" v="Тверской бульвар"/>
    <tag k="building" v="yes"/>
    <tag k="cladr:code" v="77000000000288300"/>
  </way>
  <way id="47680372" version="9" timestamp="2012-07-20T11:58:06Z" uid="722137" user="OSMF Redaction Account" changeset="12374607">
    <nd ref="606678394"/>
    <nd ref="606678398"/>
    <nd ref="606678408"/>
    <nd ref="606678415"/>
    <nd ref="606678394"/>
    <tag k="addr:housenumber" v="25 с2"/>
    <tag k="addr:postcode" v="123104"/>
    <tag k="addr:street" v="Большая Бронная улица"/>
    <tag k="building" v="yes"/>
    <tag k="building:levels" v="2"/>
    <tag k="cladr:code" v="77000000000090600"/>
  </way>
  <way id="47680386" version="8" timestamp="2012-07-20T11:58:10Z" uid="722137" user="OSMF Redaction Account" changeset="12374607">
    <nd ref="606680761"/>
    <nd ref="606680769"/>
    <nd ref="606680777"/>
    <nd ref="676037681"/>
    <nd ref="676037680"/>
    <nd ref="606680782"/>
    <nd ref="606680761"/>
    <tag k="addr:housenumber" v="3"/>
    <tag k="addr:postcode" v="123104"/>
    <tag k="addr:street" v="Сытинский переулок"/>
    <tag k="building" v="yes"/>
    <tag k="building:levels" v="2"/>
    <tag k="cladr:code" v="77000000000285100"/>
  </way>
  <way id="47680392" version="7" timestamp="2012-07-20T11:58:02Z" uid="722137" user="OSMF Redaction Account" changeset="12374607">
    <nd ref="606683232"/>
    <nd ref="606683238"/>
    <nd ref="606683242"/>
    <nd ref="606683245"/>
    <nd ref="606683266"/>
    <nd ref="606683270"/>
    <nd ref="606683232"/>
    <tag k="addr:housenumber" v="3 с5"/>
    <tag k="addr:postcode" v="123104"/>
    <tag k="addr:street" v="Сытинский переулок"/>
    <tag k="building" v="yes"/>
    <tag k="cladr:code" v="77000000000285100"/>
  </way>
  <way id="47680419" version="7" timestamp="2012-07-20T11:58:02Z" uid="722137" user="OSMF Redaction Account" changeset="12374607">
    <nd ref="606685019"/>
    <nd ref="606685030"/>
    <nd ref="606685047"/>
    <nd ref="606685052"/>
    <nd ref="606685019"/>
    <tag k="addr:housenumber" v="23 с2"/>
    <tag k="addr:postcode" v="123104"/>
    <tag k="addr:street" v="Большая Бронная улица"/>
    <tag k="building" v="yes"/>
    <tag k="cladr:code" v="77000000000090600"/>
  </way>
  <way id="47680646" version="6" timestamp="2012-07-20T11:58:10Z" uid="722137" user="OSMF Redaction Account" changeset="12374607">
    <nd ref="606686782"/>
    <nd ref="606686785"/>
    <nd ref="606686789"/>
    <nd ref="606686792"/>
    <nd ref="606686782"/>
    <tag k="addr:housenumber" v="5 с2"/>
    <tag k="addr:postcode" v="123104"/>
    <tag k="addr:street" v="Сытинский переулок"/>
    <tag k="building" v="yes"/>
    <tag k="cladr:code" v="77000000000285100"/>
  </way>
</osm>
