<?xml version='1.0' encoding='UTF-8'?>
<osm version="0.6" generator="libosmium/2.20.0">
  <way id="47681931" version="7" timestamp="2011-04-20T11:26:21Z" uid="115477" user="wowik" changeset="7915253">
    <nd ref="606697988"/>
    <nd ref="606697993"/>
    <nd ref="606697998"/>
    <nd ref="606698002"/>
    <nd ref="606697988"/>
    <tag k="addr:city" v="Москва"/>
    <tag k="addr:country" v="RU"/>
    <tag k="addr:housenumber" v="5/10 с3"/>
    <tag k="addr:housenumber2" v="10/5 с3"/>
    <tag k="addr:postcode" v="123104"/>
    <tag k="addr:street" v="Сытинский переулок"/>
    <tag k="addr:street2" v="Сытинский тупик"/>
    <tag k="building" v="yes"/>
    <tag k="cladr:code" v="77000000000285100"/>
  </way>
  <way id="47681933" version="5" timestamp="2011-04-20T11:25:48Z" uid="115477" user="wowik" changeset="7915253">
    <nd ref="606699643"/>
    <nd ref="606699646"/>
    <nd ref="606699650"/>
    <nd ref="606699654"/>
    <nd ref="606699643"/>
    <tag k="addr:city" v="Москва"/>
    <tag k="addr:country" v="RU"/>
    <tag k="addr:housenumber" v="23 с6"/>
    <tag k="addr:postcode" v="123104"/>
    <tag k="addr:street" v="Большая Бронная улица"/>
    <tag k="building" v="yes"/>
    <tag k="cladr:code" v="77000000000090600"/>
  </way>
  <way id="47681931" version="8" timestamp="2012-07-20T11:58:13Z" uid="722137" user="OSMF Redaction Account" changeset="12374607">
    <nd ref="606697988"/>
    <nd ref="606697993"/>
    <nd ref="606697998"/>
    <nd ref="606698002"/>
    <nd ref="606697988"/>
    <tag k="addr:country" v="RU"/>
    <tag k="addr:housenumber" v="5/10 с3"/>
    <tag k="addr:housenumber2" v="10/5 с3"/>
    <tag k="addr:postcode" v="123104"/>
    <tag k="addr:street" v="Сытинский переулок"/>
    <tag k="addr:street2" v="Сытинский тупик"/>
    <tag k="building" v="yes"/>
    <tag k="cladr:code" v="77000000000285100"/>
  </way>
  <way id="47681933" version="6" timestamp="2012-07-20T11:58:04Z" uid="722137" user="OSMF Redaction Account" changeset="12374607">
    <nd ref="606699643"/>
    <nd ref="606699646"/>
    <nd ref="606699650"/>
    <nd ref="606699654"/>
    <nd ref="606699643"/>
    <tag k="addr:housenumber" v="23 с6"/>
    <tag k="addr:postcode" v="123104"/>
    <tag k="addr:street" v="Большая Бронная улица"/>
    <tag k="building" v="yes"/>
    <tag k="cladr:code" v="77000000000090600"/>
  </way>
</osm>
