<?xml version='1.0' encoding='UTF-8'?>
<osm version="0.6" generator="libosmium/2.20.0">
  <way id="47703380" version="1" timestamp="2010-01-06T17:23:58Z" uid="33382" user="de_muur" changeset="3555488">
    <nd ref="251541036"/>
    <nd ref="519755342"/>
    <nd ref="294196522"/>
    <nd ref="175674136"/>
    <nd ref="251541051"/>
    <nd ref="251541052"/>
    <nd ref="266549146"/>
    <nd ref="251541037"/>
    <nd ref="346694911"/>
    <nd ref="175674138"/>
    <nd ref="266549140"/>
    <nd ref="251541032"/>
    <nd ref="316254242"/>
    <nd ref="317602028"/>
    <nd ref="175674142"/>
    <nd ref="346695203"/>
    <nd ref="317602041"/>
    <nd ref="175674146"/>
    <nd ref="317602050"/>
    <nd ref="317629865"/>
    <nd ref="317629869"/>
    <nd ref="317629872"/>
    <nd ref="473390995"/>
    <nd ref="257415421"/>
    <tag k="cycleway" v="track"/>
    <tag k="highway" v="secondary"/>
    <tag k="maxspeed" v="50"/>
    <tag k="name" v="Uphusener Heerstraße"/>
    <tag k="surface" v="paved"/>
  </way>
  <way id="47703380" version="2" timestamp="2010-08-21T14:43:35Z" uid="45882" user="smarties" changeset="5552467">
    <nd ref="251541036"/>
    <nd ref="519755342"/>
    <nd ref="294196522"/>
    <nd ref="175674136"/>
    <nd ref="251541051"/>
    <nd ref="251541052"/>
    <nd ref="266549146"/>
    <nd ref="251541037"/>
    <nd ref="346694911"/>
    <nd ref="175674138"/>
    <nd ref="266549140"/>
    <nd ref="251541032"/>
    <nd ref="316254242"/>
    <nd ref="317602028"/>
    <nd ref="175674142"/>
    <nd ref="346695203"/>
    <nd ref="317602041"/>
    <nd ref="175674146"/>
    <nd ref="317602050"/>
    <nd ref="317629865"/>
    <nd ref="317629869"/>
    <nd ref="317629872"/>
    <nd ref="473390995"/>
    <nd ref="257415421"/>
    <tag k="cycleway" v="track"/>
    <tag k="highway" v="secondary"/>
    <tag k="maxspeed" v="50"/>
    <tag k="name" v="Uphusener Heerstraße"/>
    <tag k="ref" v="L 158"/>
    <tag k="surface" v="paved"/>
  </way>
  <way id="47703380" version="3" timestamp="2011-10-21T09:53:48Z" uid="42429" user="FK270673" changeset="9615013">
    <nd ref="251541036"/>
    <nd ref="519755342"/>
    <nd ref="294196522"/>
    <nd ref="175674136"/>
    <nd ref="251541051"/>
    <nd ref="1474916791"/>
    <nd ref="251541052"/>
    <nd ref="266549146"/>
    <nd ref="251541037"/>
    <nd ref="346694911"/>
    <nd ref="175674138"/>
    <nd ref="266549140"/>
    <nd ref="251541032"/>
    <nd ref="316254242"/>
    <nd ref="317602028"/>
    <nd ref="175674142"/>
    <nd ref="346695203"/>
    <nd ref="317602041"/>
    <nd ref="175674146"/>
    <nd ref="317602050"/>
    <nd ref="317629865"/>
    <nd ref="317629869"/>
    <nd ref="317629872"/>
    <nd ref="473390995"/>
    <nd ref="257415421"/>
    <tag k="cycleway" v="track"/>
    <tag k="highway" v="secondary"/>
    <tag k="maxspeed" v="50"/>
    <tag k="name" v="Uphusener Heerstraße"/>
    <tag k="ref" v="L 158"/>
    <tag k="surface" v="paved"/>
  </way>
  <way id="47703380" version="4" timestamp="2011-10-22T17:38:45Z" uid="42429" user="FK270673" changeset="9626267"/>
  <way id="47703381" version="1" timestamp="2010-01-06T17:23:59Z" uid="33382" user="de_muur" changeset="3555488">
    <nd ref="251542609"/>
    <nd ref="251541059"/>
    <nd ref="175674126"/>
    <nd ref="266549172"/>
    <nd ref="175674131"/>
    <nd ref="251541036"/>
    <tag k="cycleway" v="track"/>
    <tag k="highway" v="secondary"/>
    <tag k="maxspeed" v="50"/>
    <tag k="name" v="Uphusener Heerstraße"/>
    <tag k="surface" v="paved"/>
  </way>
  <way id="47703381" version="2" timestamp="2010-08-21T14:43:35Z" uid="45882" user="smarties" changeset="5552467">
    <nd ref="251542609"/>
    <nd ref="251541059"/>
    <nd ref="175674126"/>
    <nd ref="266549172"/>
    <nd ref="175674131"/>
    <nd ref="251541036"/>
    <tag k="cycleway" v="track"/>
    <tag k="highway" v="secondary"/>
    <tag k="maxspeed" v="50"/>
    <tag k="name" v="Uphusener Heerstraße"/>
    <tag k="ref" v="L 158"/>
    <tag k="surface" v="paved"/>
  </way>
  <way id="47703381" version="3" timestamp="2011-02-22T16:03:17Z" uid="33382" user="de_muur" changeset="7364684">
    <nd ref="251542609"/>
    <nd ref="251541059"/>
    <nd ref="175674126"/>
    <nd ref="175674131"/>
    <nd ref="251541036"/>
    <tag k="cycleway" v="track"/>
    <tag k="highway" v="secondary"/>
    <tag k="maxspeed" v="50"/>
    <tag k="name" v="Uphusener Heerstraße"/>
    <tag k="ref" v="L 158"/>
    <tag k="surface" v="paved"/>
  </way>
  <way id="47703381" version="4" timestamp="2011-05-27T22:41:25Z" uid="45445" user="UScha" changeset="8267433">
    <nd ref="251542609"/>
    <nd ref="251541059"/>
    <nd ref="175674126"/>
    <nd ref="1302739871"/>
    <nd ref="175674131"/>
    <nd ref="251541036"/>
    <tag k="cycleway" v="track"/>
    <tag k="highway" v="secondary"/>
    <tag k="maxspeed" v="50"/>
    <tag k="name" v="Uphusener Heerstraße"/>
    <tag k="ref" v="L 158"/>
    <tag k="surface" v="paved"/>
  </way>
  <way id="47703381" version="5" timestamp="2011-07-03T12:40:16Z" uid="477062" user="phase4_only" changeset="8618405">
    <nd ref="1347814489"/>
    <nd ref="1347814490"/>
    <nd ref="1347814491"/>
    <nd ref="1347814492"/>
    <nd ref="251541036"/>
    <tag k="cycleway" v="track"/>
    <tag k="highway" v="secondary"/>
    <tag k="history" v="Retrieved from v3"/>
    <tag k="maxspeed" v="50"/>
    <tag k="name" v="Uphusener Heerstraße"/>
    <tag k="ref" v="L 158"/>
    <tag k="surface" v="paved"/>
  </way>
  <way id="47703381" version="6" timestamp="2011-07-03T12:57:49Z" uid="477062" user="phase4_only" changeset="8618597">
    <nd ref="251542609"/>
    <nd ref="251541059"/>
    <nd ref="1347814393"/>
    <nd ref="175674131"/>
    <nd ref="251541036"/>
    <tag k="cycleway" v="track"/>
    <tag k="highway" v="secondary"/>
    <tag k="history" v="Retrieved from v3"/>
    <tag k="maxspeed" v="50"/>
    <tag k="name" v="Uphusener Heerstraße"/>
    <tag k="ref" v="L 158"/>
    <tag k="surface" v="paved"/>
  </way>
  <way id="47703381" version="7" timestamp="2011-10-22T17:38:45Z" uid="42429" user="FK270673" changeset="9626267"/>
  <way id="47703825" version="1" timestamp="2010-01-06T17:30:59Z" uid="64977" user="CLoeser" changeset="3555564">
    <nd ref="530728403"/>
    <nd ref="606962184"/>
    <nd ref="606962179"/>
    <tag k="highway" v="path"/>
    <tag k="source" v="GPS (gpx 599754)"/>
  </way>
  <way id="47703826" version="1" timestamp="2010-01-06T17:31:01Z" uid="64977" user="CLoeser" changeset="3555564">
    <nd ref="530728318"/>
    <nd ref="606962187"/>
    <nd ref="606962188"/>
    <nd ref="606962189"/>
    <nd ref="606962190"/>
    <nd ref="606962195"/>
    <nd ref="606962196"/>
    <nd ref="606962197"/>
    <nd ref="606962198"/>
    <nd ref="606962200"/>
    <nd ref="606962202"/>
    <nd ref="606962204"/>
    <nd ref="606962206"/>
    <nd ref="530728596"/>
    <tag k="highway" v="path"/>
    <tag k="source" v="GPS (gpx 599754)"/>
  </way>
  <way id="47703826" version="2" timestamp="2010-06-18T21:18:30Z" uid="269930" user="tytierwater" changeset="5019718">
    <nd ref="530728318"/>
    <nd ref="775862101"/>
    <nd ref="606962187"/>
    <nd ref="606962188"/>
    <nd ref="606962189"/>
    <nd ref="606962190"/>
    <nd ref="606962195"/>
    <nd ref="606962196"/>
    <nd ref="606962197"/>
    <nd ref="606962198"/>
    <nd ref="606962200"/>
    <nd ref="606962202"/>
    <nd ref="606962204"/>
    <nd ref="606962206"/>
    <nd ref="530728596"/>
    <tag k="highway" v="path"/>
    <tag k="source" v="GPS (gpx 599754)"/>
  </way>
  <way id="47703825" version="2" timestamp="2012-07-18T13:49:39Z" uid="722137" user="OSMF Redaction Account" changeset="12283882"/>
  <way id="47703826" version="3" timestamp="2012-07-18T13:49:38Z" uid="722137" user="OSMF Redaction Account" changeset="12283882"/>
</osm>
