<?xml version='1.0' encoding='UTF-8'?>
<osm version="0.6" generator="libosmium/2.20.0">
  <way id="47714006" version="3" timestamp="2010-04-07T14:12:43Z" uid="20587" user="balrog-kun" changeset="4353646">
    <nd ref="228852113"/>
    <nd ref="228897329"/>
    <nd ref="228830860"/>
    <tag k="highway" v="primary"/>
    <tag k="name" v="South Jefferson Ave; United States Highway 271"/>
    <tag k="ref" v="US 271"/>
    <tag k="tiger:cfcc" v="A21"/>
    <tag k="tiger:county" v="Titus, TX"/>
    <tag k="tiger:name_base" v="Jefferson"/>
    <tag k="tiger:name_base_1" v="US Hwy 271 (Bus)"/>
    <tag k="tiger:name_direction_prefix" v="S"/>
    <tag k="tiger:name_type" v="Ave"/>
    <tag k="tiger:separated" v="no"/>
    <tag k="tiger:source" v="tiger_import_dch_v0.6_20070830"/>
    <tag k="tiger:tlid" v="83234768"/>
  </way>
  <way id="47714006" version="4" timestamp="2011-06-16T16:46:21Z" uid="207745" user="NE2" changeset="8457565">
    <nd ref="228852113"/>
    <nd ref="228897329"/>
    <nd ref="228830860"/>
    <tag k="highway" v="primary"/>
    <tag k="name" v="South Jefferson Ave"/>
    <tag k="ref" v="US 271"/>
    <tag k="tiger:cfcc" v="A21"/>
    <tag k="tiger:county" v="Titus, TX"/>
    <tag k="tiger:name_base" v="Jefferson"/>
    <tag k="tiger:name_base_1" v="US Hwy 271 (Bus)"/>
    <tag k="tiger:name_direction_prefix" v="S"/>
    <tag k="tiger:name_type" v="Ave"/>
    <tag k="tiger:separated" v="no"/>
    <tag k="tiger:source" v="tiger_import_dch_v0.6_20070830"/>
    <tag k="tiger:tlid" v="83234768"/>
  </way>
  <way id="47714006" version="5" timestamp="2011-06-18T09:34:36Z" uid="207745" user="NE2" changeset="8471411">
    <nd ref="228852113"/>
    <nd ref="228897329"/>
    <nd ref="228830860"/>
    <tag k="highway" v="trunk"/>
    <tag k="lanes" v="3"/>
    <tag k="name" v="South Jefferson Ave"/>
    <tag k="note:lanes" v="1 southbound, 2 northbound"/>
    <tag k="ref" v="US 271"/>
    <tag k="tiger:cfcc" v="A21"/>
    <tag k="tiger:county" v="Titus, TX"/>
    <tag k="tiger:name_base" v="Jefferson"/>
    <tag k="tiger:name_base_1" v="US Hwy 271 (Bus)"/>
    <tag k="tiger:name_direction_prefix" v="S"/>
    <tag k="tiger:name_type" v="Ave"/>
    <tag k="tiger:separated" v="no"/>
    <tag k="tiger:source" v="tiger_import_dch_v0.6_20070830"/>
    <tag k="tiger:tlid" v="83234768"/>
  </way>
  <way id="47714006" version="6" timestamp="2011-07-06T20:52:39Z" uid="473471" user="NE3" changeset="8652165">
    <nd ref="228852113"/>
    <nd ref="228897329"/>
    <nd ref="228830860"/>
    <tag k="NHS" v="yes"/>
    <tag k="highway" v="trunk"/>
    <tag k="lanes" v="3"/>
    <tag k="name" v="South Jefferson Ave"/>
    <tag k="note:lanes" v="1 southbound, 2 northbound"/>
    <tag k="ref" v="US 271"/>
    <tag k="tiger:cfcc" v="A21"/>
    <tag k="tiger:county" v="Titus, TX"/>
    <tag k="tiger:name_base" v="Jefferson"/>
    <tag k="tiger:name_base_1" v="US Hwy 271 (Bus)"/>
    <tag k="tiger:name_direction_prefix" v="S"/>
    <tag k="tiger:name_type" v="Ave"/>
    <tag k="tiger:separated" v="no"/>
    <tag k="tiger:source" v="tiger_import_dch_v0.6_20070830"/>
    <tag k="tiger:tlid" v="83234768"/>
  </way>
  <way id="47714006" version="7" timestamp="2012-03-13T07:43:03Z" uid="37392" user="25or6to4" changeset="10963716">
    <nd ref="228852113"/>
    <nd ref="228897329"/>
    <nd ref="1673024317"/>
    <nd ref="228830860"/>
    <tag k="NHS" v="yes"/>
    <tag k="highway" v="trunk"/>
    <tag k="lanes" v="3"/>
    <tag k="name" v="South Jefferson Ave"/>
    <tag k="note:lanes" v="1 southbound, 2 northbound"/>
    <tag k="ref" v="US 271"/>
    <tag k="tiger:cfcc" v="A21"/>
    <tag k="tiger:county" v="Titus, TX"/>
    <tag k="tiger:name_base" v="Jefferson"/>
    <tag k="tiger:name_base_1" v="US Hwy 271 (Bus)"/>
    <tag k="tiger:name_direction_prefix" v="S"/>
    <tag k="tiger:name_type" v="Ave"/>
    <tag k="tiger:separated" v="no"/>
    <tag k="tiger:source" v="tiger_import_dch_v0.6_20070830"/>
    <tag k="tiger:tlid" v="83234768"/>
  </way>
  <way id="47714024" version="2" timestamp="2010-04-07T14:12:43Z" uid="20587" user="balrog-kun" changeset="4353646">
    <nd ref="228866673"/>
    <nd ref="228855658"/>
    <nd ref="228849546"/>
    <nd ref="228876430"/>
    <nd ref="228876433"/>
    <nd ref="228876437"/>
    <nd ref="228817537"/>
    <tag k="highway" v="primary"/>
    <tag k="name" v="West 1st St; United States Highway 271; Farm to Market Road 899"/>
    <tag k="ref" v="US 271; FM 899"/>
    <tag k="tiger:cfcc" v="A41"/>
    <tag k="tiger:county" v="Titus, TX"/>
    <tag k="tiger:name_base" v="1st"/>
    <tag k="tiger:name_base_1" v="Farm-to-Market Road 899"/>
    <tag k="tiger:name_direction_prefix" v="W"/>
    <tag k="tiger:name_type" v="St"/>
    <tag k="tiger:separated" v="no"/>
    <tag k="tiger:source" v="tiger_import_dch_v0.6_20070830"/>
    <tag k="tiger:tlid" v="83219990"/>
    <tag k="tiger:zip_left" v="75455"/>
  </way>
  <way id="47714024" version="3" timestamp="2010-06-12T03:39:02Z" uid="289225" user="obscuritarian" changeset="4967474">
    <nd ref="228866673"/>
    <nd ref="228855658"/>
    <nd ref="228849546"/>
    <nd ref="228876433"/>
    <nd ref="228817537"/>
    <tag k="highway" v="primary"/>
    <tag k="name" v="West 1st St; United States Highway 271; Farm to Market Road 899"/>
    <tag k="ref" v="US 271; FM 899"/>
    <tag k="tiger:cfcc" v="A41"/>
    <tag k="tiger:county" v="Titus, TX"/>
    <tag k="tiger:name_base" v="1st"/>
    <tag k="tiger:name_base_1" v="Farm-to-Market Road 899"/>
    <tag k="tiger:name_direction_prefix" v="W"/>
    <tag k="tiger:name_type" v="St"/>
    <tag k="tiger:separated" v="no"/>
    <tag k="tiger:source" v="tiger_import_dch_v0.6_20070830"/>
    <tag k="tiger:tlid" v="83219990"/>
    <tag k="tiger:zip_left" v="75455"/>
  </way>
  <way id="47714024" version="4" timestamp="2011-06-16T17:01:10Z" uid="207745" user="NE2" changeset="8457565">
    <nd ref="228866673"/>
    <nd ref="228855658"/>
    <nd ref="228849546"/>
    <nd ref="228876433"/>
    <nd ref="228817537"/>
    <tag k="highway" v="primary"/>
    <tag k="name" v="West 1st St"/>
    <tag k="ref" v="US 271; FM 899"/>
    <tag k="tiger:cfcc" v="A41"/>
    <tag k="tiger:county" v="Titus, TX"/>
    <tag k="tiger:name_base" v="1st"/>
    <tag k="tiger:name_base_1" v="Farm-to-Market Road 899"/>
    <tag k="tiger:name_direction_prefix" v="W"/>
    <tag k="tiger:name_type" v="St"/>
    <tag k="tiger:separated" v="no"/>
    <tag k="tiger:source" v="tiger_import_dch_v0.6_20070830"/>
    <tag k="tiger:tlid" v="83219990"/>
    <tag k="tiger:zip_left" v="75455"/>
  </way>
  <way id="47714024" version="5" timestamp="2011-06-18T09:36:24Z" uid="207745" user="NE2" changeset="8471411">
    <nd ref="228866673"/>
    <nd ref="228855658"/>
    <nd ref="228849546"/>
    <nd ref="228876433"/>
    <nd ref="228817537"/>
    <tag k="highway" v="trunk"/>
    <tag k="lanes" v="4"/>
    <tag k="name" v="West 1st St"/>
    <tag k="ref" v="US 271; FM 899"/>
    <tag k="tiger:cfcc" v="A41"/>
    <tag k="tiger:county" v="Titus, TX"/>
    <tag k="tiger:name_base" v="1st"/>
    <tag k="tiger:name_base_1" v="Farm-to-Market Road 899"/>
    <tag k="tiger:name_direction_prefix" v="W"/>
    <tag k="tiger:name_type" v="St"/>
    <tag k="tiger:separated" v="no"/>
    <tag k="tiger:source" v="tiger_import_dch_v0.6_20070830"/>
    <tag k="tiger:tlid" v="83219990"/>
    <tag k="tiger:zip_left" v="75455"/>
  </way>
  <way id="47714024" version="6" timestamp="2011-07-06T21:15:30Z" uid="473471" user="NE3" changeset="8652165">
    <nd ref="228866673"/>
    <nd ref="228855658"/>
    <nd ref="228849546"/>
    <nd ref="228876433"/>
    <nd ref="228817537"/>
    <tag k="NHS" v="yes"/>
    <tag k="highway" v="trunk"/>
    <tag k="lanes" v="4"/>
    <tag k="name" v="West 1st St"/>
    <tag k="ref" v="US 271; FM 899"/>
    <tag k="tiger:cfcc" v="A41"/>
    <tag k="tiger:county" v="Titus, TX"/>
    <tag k="tiger:name_base" v="1st"/>
    <tag k="tiger:name_base_1" v="Farm-to-Market Road 899"/>
    <tag k="tiger:name_direction_prefix" v="W"/>
    <tag k="tiger:name_type" v="St"/>
    <tag k="tiger:separated" v="no"/>
    <tag k="tiger:source" v="tiger_import_dch_v0.6_20070830"/>
    <tag k="tiger:tlid" v="83219990"/>
    <tag k="tiger:zip_left" v="75455"/>
  </way>
  <way id="47714024" version="7" timestamp="2012-01-05T07:01:56Z" uid="207745" user="NE2" changeset="10297857">
    <nd ref="228866673"/>
    <nd ref="228855658"/>
    <nd ref="228849546"/>
    <nd ref="228876433"/>
    <nd ref="228817537"/>
    <tag k="NHS" v="yes"/>
    <tag k="highway" v="trunk"/>
    <tag k="lanes" v="4"/>
    <tag k="name" v="West 1st St"/>
    <tag k="old_ref" v="Spur 134"/>
    <tag k="ref" v="US 271; FM 899"/>
    <tag k="tiger:cfcc" v="A41"/>
    <tag k="tiger:county" v="Titus, TX"/>
    <tag k="tiger:name_base" v="1st"/>
    <tag k="tiger:name_base_1" v="Farm-to-Market Road 899"/>
    <tag k="tiger:name_direction_prefix" v="W"/>
    <tag k="tiger:name_type" v="St"/>
    <tag k="tiger:separated" v="no"/>
    <tag k="tiger:source" v="tiger_import_dch_v0.6_20070830"/>
    <tag k="tiger:tlid" v="83219990"/>
    <tag k="tiger:zip_left" v="75455"/>
  </way>
  <way id="47714006" version="8" timestamp="2012-07-23T20:53:12Z" uid="207745" user="NE2" changeset="12456904">
    <nd ref="228830860"/>
    <nd ref="1673024317"/>
    <nd ref="228897329"/>
    <nd ref="228852113"/>
    <tag k="highway" v="trunk"/>
    <tag k="lanes" v="3"/>
    <tag k="name" v="South Jefferson Ave"/>
    <tag k="NHS" v="yes"/>
    <tag k="note:lanes" v="1 southbound, 2 northbound"/>
    <tag k="ref" v="US 271"/>
    <tag k="tiger:cfcc" v="A21"/>
    <tag k="tiger:county" v="Titus, TX"/>
    <tag k="tiger:name_base" v="Jefferson"/>
    <tag k="tiger:name_base_1" v="US Hwy 271 (Bus)"/>
    <tag k="tiger:name_direction_prefix" v="S"/>
    <tag k="tiger:name_type" v="Ave"/>
    <tag k="tiger:separated" v="no"/>
    <tag k="tiger:source" v="tiger_import_dch_v0.6_20070830"/>
    <tag k="tiger:tlid" v="83234768"/>
  </way>
  <way id="47714024" version="8" timestamp="2012-07-23T20:57:18Z" uid="207745" user="NE2" changeset="12456904">
    <nd ref="228866673"/>
    <nd ref="228855658"/>
    <nd ref="228849546"/>
    <nd ref="228876433"/>
    <nd ref="228817537"/>
    <tag k="highway" v="trunk"/>
    <tag k="lanes" v="4"/>
    <tag k="name" v="West 1st St"/>
    <tag k="NHS" v="yes"/>
    <tag k="old_ref" v="Spur 134"/>
    <tag k="ref" v="US 271;FM 899"/>
    <tag k="tiger:cfcc" v="A41"/>
    <tag k="tiger:county" v="Titus, TX"/>
    <tag k="tiger:name_base" v="1st"/>
    <tag k="tiger:name_base_1" v="Farm-to-Market Road 899"/>
    <tag k="tiger:name_direction_prefix" v="W"/>
    <tag k="tiger:name_type" v="St"/>
    <tag k="tiger:separated" v="no"/>
    <tag k="tiger:source" v="tiger_import_dch_v0.6_20070830"/>
    <tag k="tiger:tlid" v="83219990"/>
    <tag k="tiger:zip_left" v="75455"/>
  </way>
</osm>
