<?xml version='1.0' encoding='UTF-8'?>
<osm version="0.6" generator="libosmium/2.20.0">
  <way id="47758433" version="3" timestamp="2010-07-06T18:50:09Z" uid="74617" user="JohnSmith" changeset="5152225">
    <nd ref="607502985"/>
    <nd ref="607503005"/>
    <nd ref="607502987"/>
    <nd ref="607503007"/>
    <nd ref="607502793"/>
    <tag k="highway" v="residential"/>
    <tag k="maxspeed" v="50"/>
    <tag k="maxspeed:source" v="default residential speed limit in Australia"/>
    <tag k="name" v="Solander Street"/>
  </way>
  <way id="47758433" version="4" timestamp="2012-01-19T20:36:14Z" uid="147510" user="woodpeck_fixbot" changeset="10440306">
    <nd ref="607502985"/>
    <nd ref="607503005"/>
    <nd ref="607502987"/>
    <nd ref="607503007"/>
    <nd ref="607502793"/>
    <tag k="highway" v="residential"/>
    <tag k="name" v="Solander Street"/>
  </way>
  <way id="47758434" version="2" timestamp="2010-07-06T18:53:43Z" uid="74617" user="JohnSmith" changeset="5152225">
    <nd ref="607503005"/>
    <nd ref="607502793"/>
    <tag k="highway" v="residential"/>
    <tag k="maxspeed" v="50"/>
    <tag k="maxspeed:source" v="default residential speed limit in Australia"/>
    <tag k="name" v="Oxford Parade"/>
  </way>
  <way id="47758434" version="3" timestamp="2012-01-19T20:36:17Z" uid="147510" user="woodpeck_fixbot" changeset="10440306">
    <nd ref="607503005"/>
    <nd ref="607502793"/>
    <tag k="highway" v="residential"/>
    <tag k="name" v="Oxford Parade"/>
  </way>
  <way id="47758437" version="2" timestamp="2010-07-06T18:59:19Z" uid="74617" user="JohnSmith" changeset="5152225">
    <nd ref="607502964"/>
    <nd ref="607502971"/>
    <nd ref="607502950"/>
    <nd ref="607502799"/>
    <nd ref="607502802"/>
    <nd ref="607502793"/>
    <tag k="highway" v="residential"/>
    <tag k="maxspeed" v="50"/>
    <tag k="maxspeed:source" v="default residential speed limit in Australia"/>
    <tag k="name" v="Oxford Parade"/>
  </way>
  <way id="47758437" version="3" timestamp="2012-01-19T20:36:18Z" uid="147510" user="woodpeck_fixbot" changeset="10440306">
    <nd ref="607502964"/>
    <nd ref="607502971"/>
    <nd ref="607502950"/>
    <nd ref="607502799"/>
    <nd ref="607502802"/>
    <nd ref="607502793"/>
    <tag k="highway" v="residential"/>
    <tag k="name" v="Oxford Parade"/>
  </way>
  <way id="47758438" version="2" timestamp="2010-07-06T18:49:44Z" uid="74617" user="JohnSmith" changeset="5152225">
    <nd ref="607502970"/>
    <nd ref="607502770"/>
    <tag k="highway" v="residential"/>
    <tag k="maxspeed" v="50"/>
    <tag k="maxspeed:source" v="default residential speed limit in Australia"/>
    <tag k="name" v="Botany Drive"/>
  </way>
  <way id="47758438" version="3" timestamp="2012-01-19T20:36:20Z" uid="147510" user="woodpeck_fixbot" changeset="10440306">
    <nd ref="607502970"/>
    <nd ref="607502770"/>
    <tag k="highway" v="residential"/>
    <tag k="name" v="Botany Drive"/>
  </way>
  <way id="47758439" version="3" timestamp="2010-07-06T18:57:16Z" uid="74617" user="JohnSmith" changeset="5152225">
    <nd ref="607502745"/>
    <nd ref="607502747"/>
    <nd ref="607502748"/>
    <nd ref="607502848"/>
    <nd ref="607502845"/>
    <nd ref="607502870"/>
    <tag k="highway" v="residential"/>
    <tag k="maxspeed" v="50"/>
    <tag k="maxspeed:source" v="default residential speed limit in Australia"/>
    <tag k="name" v="Tibrogargan Place"/>
  </way>
  <way id="47758439" version="4" timestamp="2012-01-19T20:36:21Z" uid="147510" user="woodpeck_fixbot" changeset="10440306">
    <nd ref="607502745"/>
    <nd ref="607502747"/>
    <nd ref="607502748"/>
    <nd ref="607502848"/>
    <nd ref="607502845"/>
    <nd ref="607502870"/>
    <tag k="highway" v="residential"/>
    <tag k="name" v="Tibrogargan Place"/>
  </way>
  <way id="47758440" version="2" timestamp="2010-07-06T18:50:34Z" uid="74617" user="JohnSmith" changeset="5152225">
    <nd ref="607502935"/>
    <nd ref="607502760"/>
    <tag k="highway" v="residential"/>
    <tag k="maxspeed" v="50"/>
    <tag k="maxspeed:source" v="default residential speed limit in Australia"/>
    <tag k="name" v="Whitby Place"/>
  </way>
  <way id="47758440" version="3" timestamp="2012-01-19T20:36:22Z" uid="147510" user="woodpeck_fixbot" changeset="10440306">
    <nd ref="607502935"/>
    <nd ref="607502760"/>
    <tag k="highway" v="residential"/>
    <tag k="name" v="Whitby Place"/>
  </way>
  <way id="47758441" version="2" timestamp="2010-07-06T18:58:19Z" uid="74617" user="JohnSmith" changeset="5152225">
    <nd ref="607502754"/>
    <nd ref="607502757"/>
    <nd ref="607502760"/>
    <nd ref="607502762"/>
    <nd ref="607502764"/>
    <nd ref="607502952"/>
    <tag k="highway" v="residential"/>
    <tag k="maxspeed" v="50"/>
    <tag k="maxspeed:source" v="default residential speed limit in Australia"/>
    <tag k="name" v="Resolution Street"/>
  </way>
  <way id="47758441" version="3" timestamp="2012-01-19T20:36:24Z" uid="147510" user="woodpeck_fixbot" changeset="10440306">
    <nd ref="607502754"/>
    <nd ref="607502757"/>
    <nd ref="607502760"/>
    <nd ref="607502762"/>
    <nd ref="607502764"/>
    <nd ref="607502952"/>
    <tag k="highway" v="residential"/>
    <tag k="name" v="Resolution Street"/>
  </way>
  <way id="47758442" version="2" timestamp="2010-07-06T18:49:06Z" uid="74617" user="JohnSmith" changeset="5152225">
    <nd ref="607502790"/>
    <nd ref="607502770"/>
    <nd ref="607502774"/>
    <nd ref="607502775"/>
    <nd ref="607502779"/>
    <nd ref="607502781"/>
    <nd ref="607502784"/>
    <nd ref="607502786"/>
    <nd ref="607502790"/>
    <tag k="highway" v="residential"/>
    <tag k="junction" v="roundabout"/>
    <tag k="maxspeed" v="50"/>
    <tag k="maxspeed:source" v="default residential speed limit in Australia"/>
    <tag k="name" v="Pembroke Avenue"/>
  </way>
  <way id="47758442" version="3" timestamp="2012-01-19T20:36:25Z" uid="147510" user="woodpeck_fixbot" changeset="10440306">
    <nd ref="607502790"/>
    <nd ref="607502770"/>
    <nd ref="607502774"/>
    <nd ref="607502775"/>
    <nd ref="607502779"/>
    <nd ref="607502781"/>
    <nd ref="607502784"/>
    <nd ref="607502786"/>
    <nd ref="607502790"/>
    <tag k="highway" v="residential"/>
    <tag k="junction" v="roundabout"/>
    <tag k="name" v="Pembroke Avenue"/>
  </way>
  <way id="47758443" version="2" timestamp="2010-07-06T18:56:18Z" uid="74617" user="JohnSmith" changeset="5152225">
    <nd ref="607502779"/>
    <nd ref="607502767"/>
    <nd ref="607502820"/>
    <nd ref="607502796"/>
    <nd ref="607502802"/>
    <tag k="highway" v="residential"/>
    <tag k="maxspeed" v="50"/>
    <tag k="maxspeed:source" v="default residential speed limit in Australia"/>
    <tag k="name" v="Pembroke Avenue"/>
  </way>
  <way id="47758443" version="3" timestamp="2012-01-19T20:36:27Z" uid="147510" user="woodpeck_fixbot" changeset="10440306">
    <nd ref="607502779"/>
    <nd ref="607502767"/>
    <nd ref="607502820"/>
    <nd ref="607502796"/>
    <nd ref="607502802"/>
    <tag k="highway" v="residential"/>
    <tag k="name" v="Pembroke Avenue"/>
  </way>
  <way id="47758444" version="3" timestamp="2010-07-06T18:59:42Z" uid="74617" user="JohnSmith" changeset="5152225">
    <nd ref="607502678"/>
    <nd ref="607502694"/>
    <nd ref="607502682"/>
    <nd ref="607502716"/>
    <nd ref="607502718"/>
    <nd ref="607502685"/>
    <nd ref="607759755"/>
    <nd ref="607502687"/>
    <nd ref="607502689"/>
    <nd ref="607502692"/>
    <nd ref="607502678"/>
    <tag k="highway" v="residential"/>
    <tag k="junction" v="roundabout"/>
    <tag k="maxspeed" v="50"/>
    <tag k="maxspeed:source" v="default residential speed limit in Australia"/>
  </way>
  <way id="47758444" version="4" timestamp="2012-01-19T20:36:28Z" uid="147510" user="woodpeck_fixbot" changeset="10440306">
    <nd ref="607502678"/>
    <nd ref="607502694"/>
    <nd ref="607502682"/>
    <nd ref="607502716"/>
    <nd ref="607502718"/>
    <nd ref="607502685"/>
    <nd ref="607759755"/>
    <nd ref="607502687"/>
    <nd ref="607502689"/>
    <nd ref="607502692"/>
    <nd ref="607502678"/>
    <tag k="highway" v="residential"/>
    <tag k="junction" v="roundabout"/>
  </way>
  <way id="47758445" version="2" timestamp="2010-07-06T18:54:20Z" uid="74617" user="JohnSmith" changeset="5152225">
    <nd ref="607502721"/>
    <nd ref="607502723"/>
    <nd ref="607502735"/>
    <tag k="highway" v="residential"/>
    <tag k="maxspeed" v="50"/>
    <tag k="maxspeed:source" v="default residential speed limit in Australia"/>
    <tag k="name" v="Koopa Place"/>
  </way>
  <way id="47758445" version="3" timestamp="2012-01-19T20:36:29Z" uid="147510" user="woodpeck_fixbot" changeset="10440306">
    <nd ref="607502721"/>
    <nd ref="607502723"/>
    <nd ref="607502735"/>
    <tag k="highway" v="residential"/>
    <tag k="name" v="Koopa Place"/>
  </way>
  <way id="47758446" version="2" timestamp="2010-07-06T18:57:48Z" uid="74617" user="JohnSmith" changeset="5152225">
    <nd ref="607502723"/>
    <nd ref="607502725"/>
    <nd ref="607502726"/>
    <tag k="highway" v="residential"/>
    <tag k="maxspeed" v="50"/>
    <tag k="maxspeed:source" v="default residential speed limit in Australia"/>
    <tag k="name" v="La Rita Court"/>
  </way>
  <way id="47758446" version="3" timestamp="2012-01-19T20:36:30Z" uid="147510" user="woodpeck_fixbot" changeset="10440306">
    <nd ref="607502723"/>
    <nd ref="607502725"/>
    <nd ref="607502726"/>
    <tag k="highway" v="residential"/>
    <tag k="name" v="La Rita Court"/>
  </way>
  <way id="47758447" version="2" timestamp="2010-07-06T18:51:53Z" uid="74617" user="JohnSmith" changeset="5152225">
    <nd ref="607502751"/>
    <nd ref="607502752"/>
    <nd ref="607502749"/>
    <nd ref="607502750"/>
    <tag k="highway" v="residential"/>
    <tag k="maxspeed" v="50"/>
    <tag k="maxspeed:source" v="default residential speed limit in Australia"/>
    <tag k="name" v="Stingray Harbour Court"/>
  </way>
  <way id="47758447" version="3" timestamp="2012-01-19T20:36:31Z" uid="147510" user="woodpeck_fixbot" changeset="10440306">
    <nd ref="607502751"/>
    <nd ref="607502752"/>
    <nd ref="607502749"/>
    <nd ref="607502750"/>
    <tag k="highway" v="residential"/>
    <tag k="name" v="Stingray Harbour Court"/>
  </way>
  <way id="47758448" version="3" timestamp="2010-07-06T18:52:25Z" uid="74617" user="JohnSmith" changeset="5152225">
    <nd ref="607502746"/>
    <nd ref="607502745"/>
    <tag k="highway" v="residential"/>
    <tag k="maxspeed" v="50"/>
    <tag k="maxspeed:source" v="default residential speed limit in Australia"/>
    <tag k="name" v="Grasstree Court"/>
  </way>
  <way id="47758448" version="4" timestamp="2012-01-19T20:36:32Z" uid="147510" user="woodpeck_fixbot" changeset="10440306">
    <nd ref="607502746"/>
    <nd ref="607502745"/>
    <tag k="highway" v="residential"/>
    <tag k="name" v="Grasstree Court"/>
  </way>
  <way id="47758449" version="2" timestamp="2010-07-06T18:47:43Z" uid="74617" user="JohnSmith" changeset="5152225">
    <nd ref="607502786"/>
    <nd ref="607502754"/>
    <nd ref="607502750"/>
    <nd ref="607502737"/>
    <nd ref="607502739"/>
    <nd ref="607502741"/>
    <nd ref="607502728"/>
    <nd ref="607502730"/>
    <nd ref="607502732"/>
    <tag k="highway" v="residential"/>
    <tag k="maxspeed" v="50"/>
    <tag k="maxspeed:source" v="default residential speed limit in Australia"/>
    <tag k="name" v="Pembroke Avenue"/>
  </way>
  <way id="47758449" version="3" timestamp="2012-01-19T20:36:33Z" uid="147510" user="woodpeck_fixbot" changeset="10440306">
    <nd ref="607502786"/>
    <nd ref="607502754"/>
    <nd ref="607502750"/>
    <nd ref="607502737"/>
    <nd ref="607502739"/>
    <nd ref="607502741"/>
    <nd ref="607502728"/>
    <nd ref="607502730"/>
    <nd ref="607502732"/>
    <tag k="highway" v="residential"/>
    <tag k="name" v="Pembroke Avenue"/>
  </way>
  <way id="47758450" version="2" timestamp="2010-07-06T18:50:40Z" uid="74617" user="JohnSmith" changeset="5152225">
    <nd ref="607502732"/>
    <nd ref="607502734"/>
    <nd ref="607502704"/>
    <nd ref="607502706"/>
    <nd ref="607502709"/>
    <nd ref="607502712"/>
    <nd ref="607502721"/>
    <nd ref="607502713"/>
    <nd ref="607502718"/>
    <tag k="highway" v="residential"/>
    <tag k="maxspeed" v="50"/>
    <tag k="maxspeed:source" v="default residential speed limit in Australia"/>
    <tag k="name" v="New Holland Drive"/>
  </way>
  <way id="47758450" version="3" timestamp="2012-01-19T20:36:35Z" uid="147510" user="woodpeck_fixbot" changeset="10440306">
    <nd ref="607502732"/>
    <nd ref="607502734"/>
    <nd ref="607502704"/>
    <nd ref="607502706"/>
    <nd ref="607502709"/>
    <nd ref="607502712"/>
    <nd ref="607502721"/>
    <nd ref="607502713"/>
    <nd ref="607502718"/>
    <tag k="highway" v="residential"/>
    <tag k="name" v="New Holland Drive"/>
  </way>
  <way id="47758452" version="4" timestamp="2010-07-06T18:49:10Z" uid="74617" user="JohnSmith" changeset="5152225">
    <nd ref="607502696"/>
    <nd ref="607759754"/>
    <nd ref="607759772"/>
    <nd ref="607502701"/>
    <nd ref="607502743"/>
    <nd ref="614007234"/>
    <tag k="highway" v="residential"/>
    <tag k="maxspeed" v="50"/>
    <tag k="maxspeed:source" v="default residential speed limit in Australia"/>
    <tag k="name" v="Midden Place"/>
  </way>
  <way id="47758452" version="5" timestamp="2012-01-19T20:36:37Z" uid="147510" user="woodpeck_fixbot" changeset="10440306">
    <nd ref="607502696"/>
    <nd ref="607759754"/>
    <nd ref="607759772"/>
    <nd ref="607502701"/>
    <nd ref="607502743"/>
    <nd ref="614007234"/>
    <tag k="highway" v="residential"/>
    <tag k="name" v="Midden Place"/>
  </way>
  <way id="47758453" version="4" timestamp="2010-04-17T15:08:33Z" uid="4467" user="Rosscoe" changeset="4448643">
    <nd ref="607502689"/>
    <nd ref="607502696"/>
    <nd ref="607502698"/>
    <nd ref="607759750"/>
    <nd ref="607759700"/>
    <nd ref="607759699"/>
    <nd ref="607759698"/>
    <nd ref="607759706"/>
    <nd ref="607759707"/>
    <nd ref="607759718"/>
    <nd ref="607759719"/>
    <nd ref="607759708"/>
    <nd ref="607759687"/>
    <nd ref="607759695"/>
    <tag k="attribution" v="Based on data from State of Queensland (Department of Environment and Resource Management) 2009"/>
    <tag k="highway" v="residential"/>
    <tag k="name" v="Mahogany Drive"/>
    <tag k="oneway" v="yes"/>
    <tag k="source" v="au.qld.dcdb_lite"/>
  </way>
  <way id="47758453" version="5" timestamp="2010-07-06T18:56:22Z" uid="74617" user="JohnSmith" changeset="5152225">
    <nd ref="607502689"/>
    <nd ref="607502696"/>
    <nd ref="607502698"/>
    <nd ref="607759750"/>
    <nd ref="607759700"/>
    <nd ref="607759699"/>
    <nd ref="607759698"/>
    <nd ref="607759706"/>
    <nd ref="607759707"/>
    <nd ref="607759718"/>
    <nd ref="607759719"/>
    <nd ref="607759708"/>
    <nd ref="607759687"/>
    <nd ref="607759695"/>
    <tag k="attribution" v="Based on data from State of Queensland (Department of Environment and Resource Management) 2009"/>
    <tag k="highway" v="residential"/>
    <tag k="maxspeed" v="50"/>
    <tag k="maxspeed:source" v="default residential speed limit in Australia"/>
    <tag k="name" v="Mahogany Drive"/>
    <tag k="oneway" v="yes"/>
    <tag k="source" v="au.qld.dcdb_lite"/>
  </way>
  <way id="47758453" version="6" timestamp="2012-01-19T20:36:38Z" uid="147510" user="woodpeck_fixbot" changeset="10440306">
    <nd ref="607502689"/>
    <nd ref="607502696"/>
    <nd ref="607502698"/>
    <nd ref="607759750"/>
    <nd ref="607759700"/>
    <nd ref="607759699"/>
    <nd ref="607759698"/>
    <nd ref="607759706"/>
    <nd ref="607759707"/>
    <nd ref="607759718"/>
    <nd ref="607759719"/>
    <nd ref="607759708"/>
    <nd ref="607759687"/>
    <nd ref="607759695"/>
    <tag k="attribution" v="Based on data from State of Queensland (Department of Environment and Resource Management) 2009"/>
    <tag k="highway" v="residential"/>
    <tag k="name" v="Mahogany Drive"/>
    <tag k="oneway" v="yes"/>
    <tag k="source" v="au.qld.dcdb_lite"/>
  </way>
  <way id="47758454" version="2" timestamp="2010-07-06T18:59:49Z" uid="74617" user="JohnSmith" changeset="5152225">
    <nd ref="607502921"/>
    <nd ref="607502850"/>
    <tag k="highway" v="residential"/>
    <tag k="maxspeed" v="50"/>
    <tag k="maxspeed:source" v="default residential speed limit in Australia"/>
    <tag k="name" v="Scartree Street"/>
  </way>
  <way id="47758454" version="3" timestamp="2012-01-19T20:36:40Z" uid="147510" user="woodpeck_fixbot" changeset="10440306">
    <nd ref="607502921"/>
    <nd ref="607502850"/>
    <tag k="highway" v="residential"/>
    <tag k="name" v="Scartree Street"/>
  </way>
  <way id="47758455" version="2" timestamp="2010-07-06T18:54:29Z" uid="74617" user="JohnSmith" changeset="5152225">
    <nd ref="607502940"/>
    <nd ref="607502850"/>
    <tag k="highway" v="residential"/>
    <tag k="maxspeed" v="50"/>
    <tag k="maxspeed:source" v="default residential speed limit in Australia"/>
    <tag k="name" v="Scartree Street"/>
  </way>
  <way id="47758455" version="3" timestamp="2012-01-19T20:36:41Z" uid="147510" user="woodpeck_fixbot" changeset="10440306">
    <nd ref="607502940"/>
    <nd ref="607502850"/>
    <tag k="highway" v="residential"/>
    <tag k="name" v="Scartree Street"/>
  </way>
  <way id="47758456" version="4" timestamp="2010-07-06T18:48:07Z" uid="74617" user="JohnSmith" changeset="5152225">
    <nd ref="607502875"/>
    <nd ref="607502979"/>
    <nd ref="607502981"/>
    <nd ref="607502982"/>
    <nd ref="607502912"/>
    <nd ref="607502914"/>
    <nd ref="607759787"/>
    <tag k="highway" v="residential"/>
    <tag k="maxspeed" v="50"/>
    <tag k="maxspeed:source" v="default residential speed limit in Australia"/>
    <tag k="name" v="Undanbi Place"/>
  </way>
  <way id="47758456" version="5" timestamp="2012-01-19T20:36:42Z" uid="147510" user="woodpeck_fixbot" changeset="10440306">
    <nd ref="607502875"/>
    <nd ref="607502979"/>
    <nd ref="607502981"/>
    <nd ref="607502982"/>
    <nd ref="607502912"/>
    <nd ref="607502914"/>
    <nd ref="607759787"/>
    <tag k="highway" v="residential"/>
    <tag k="name" v="Undanbi Place"/>
  </way>
  <way id="47758457" version="3" timestamp="2010-07-06T18:55:29Z" uid="74617" user="JohnSmith" changeset="5152225">
    <nd ref="607502877"/>
    <nd ref="607502879"/>
    <nd ref="607502982"/>
    <tag k="highway" v="residential"/>
    <tag k="maxspeed" v="50"/>
    <tag k="maxspeed:source" v="default residential speed limit in Australia"/>
    <tag k="name" v="Leach Court"/>
  </way>
  <way id="47758457" version="4" timestamp="2012-01-19T20:36:44Z" uid="147510" user="woodpeck_fixbot" changeset="10440306">
    <nd ref="607502877"/>
    <nd ref="607502879"/>
    <nd ref="607502982"/>
    <tag k="highway" v="residential"/>
    <tag k="name" v="Leach Court"/>
  </way>
  <way id="47758458" version="3" timestamp="2010-07-06T18:58:48Z" uid="74617" user="JohnSmith" changeset="5152225">
    <nd ref="607502882"/>
    <nd ref="607502883"/>
    <nd ref="607502979"/>
    <tag k="highway" v="residential"/>
    <tag k="maxspeed" v="50"/>
    <tag k="maxspeed:source" v="default residential speed limit in Australia"/>
    <tag k="name" v="Carr Place"/>
  </way>
  <way id="47758458" version="4" timestamp="2012-01-19T20:36:46Z" uid="147510" user="woodpeck_fixbot" changeset="10440306">
    <nd ref="607502882"/>
    <nd ref="607502883"/>
    <nd ref="607502979"/>
    <tag k="highway" v="residential"/>
    <tag k="name" v="Carr Place"/>
  </way>
  <way id="47758459" version="4" timestamp="2010-07-06T18:53:00Z" uid="74617" user="JohnSmith" changeset="5152225">
    <nd ref="607502866"/>
    <nd ref="607502841"/>
    <nd ref="607502844"/>
    <tag k="highway" v="residential"/>
    <tag k="maxspeed" v="50"/>
    <tag k="maxspeed:source" v="default residential speed limit in Australia"/>
    <tag k="name" v="Scartree Street"/>
  </way>
  <way id="47758459" version="5" timestamp="2012-01-19T20:36:47Z" uid="147510" user="woodpeck_fixbot" changeset="10440306">
    <nd ref="607502866"/>
    <nd ref="607502841"/>
    <nd ref="607502844"/>
    <tag k="highway" v="residential"/>
    <tag k="name" v="Scartree Street"/>
  </way>
  <way id="47758460" version="3" timestamp="2010-07-06T18:56:38Z" uid="74617" user="JohnSmith" changeset="5152225">
    <nd ref="607502897"/>
    <nd ref="607502899"/>
    <nd ref="607502901"/>
    <nd ref="607502904"/>
    <nd ref="607502917"/>
    <nd ref="607502888"/>
    <nd ref="607502890"/>
    <nd ref="607502823"/>
    <tag k="highway" v="residential"/>
    <tag k="maxspeed" v="50"/>
    <tag k="maxspeed:source" v="default residential speed limit in Australia"/>
    <tag k="name" v="Wallaby Circuit"/>
  </way>
  <way id="47758460" version="4" timestamp="2012-01-19T20:36:48Z" uid="147510" user="woodpeck_fixbot" changeset="10440306">
    <nd ref="607502897"/>
    <nd ref="607502899"/>
    <nd ref="607502901"/>
    <nd ref="607502904"/>
    <nd ref="607502917"/>
    <nd ref="607502888"/>
    <nd ref="607502890"/>
    <nd ref="607502823"/>
    <tag k="highway" v="residential"/>
    <tag k="name" v="Wallaby Circuit"/>
  </way>
  <way id="47758461" version="3" timestamp="2010-07-06T18:50:59Z" uid="74617" user="JohnSmith" changeset="5152225">
    <nd ref="607502917"/>
    <nd ref="607502835"/>
    <nd ref="607502826"/>
    <tag k="highway" v="residential"/>
    <tag k="maxspeed" v="50"/>
    <tag k="maxspeed:source" v="default residential speed limit in Australia"/>
    <tag k="name" v="Elimbah Street"/>
  </way>
  <way id="47758461" version="4" timestamp="2012-01-19T20:36:50Z" uid="147510" user="woodpeck_fixbot" changeset="10440306">
    <nd ref="607502917"/>
    <nd ref="607502835"/>
    <nd ref="607502826"/>
    <tag k="highway" v="residential"/>
    <tag k="name" v="Elimbah Street"/>
  </way>
  <way id="47758462" version="3" timestamp="2010-07-06T18:55:03Z" uid="74617" user="JohnSmith" changeset="5152225">
    <nd ref="607502838"/>
    <nd ref="607502848"/>
    <tag k="highway" v="residential"/>
    <tag k="maxspeed" v="50"/>
    <tag k="maxspeed:source" v="default residential speed limit in Australia"/>
    <tag k="name" v="Schnappering Close"/>
  </way>
  <way id="47758462" version="4" timestamp="2012-01-19T20:36:50Z" uid="147510" user="woodpeck_fixbot" changeset="10440306">
    <nd ref="607502838"/>
    <nd ref="607502848"/>
    <tag k="highway" v="residential"/>
    <tag k="name" v="Schnappering Close"/>
  </way>
  <way id="47758463" version="2" timestamp="2010-07-06T18:49:30Z" uid="74617" user="JohnSmith" changeset="5152225">
    <nd ref="607502850"/>
    <nd ref="607502873"/>
    <tag k="highway" v="residential"/>
    <tag k="maxspeed" v="50"/>
    <tag k="maxspeed:source" v="default residential speed limit in Australia"/>
    <tag k="name" v="Scartree Street"/>
  </way>
  <way id="47758463" version="3" timestamp="2012-01-19T20:36:52Z" uid="147510" user="woodpeck_fixbot" changeset="10440306">
    <nd ref="607502850"/>
    <nd ref="607502873"/>
    <tag k="highway" v="residential"/>
    <tag k="name" v="Scartree Street"/>
  </way>
  <way id="47758464" version="2" timestamp="2010-07-06T18:50:55Z" uid="74617" user="JohnSmith" changeset="5152225">
    <nd ref="607502852"/>
    <nd ref="607502875"/>
    <nd ref="607502854"/>
    <nd ref="607502857"/>
    <nd ref="607502873"/>
    <nd ref="607502858"/>
    <nd ref="607502861"/>
    <nd ref="607502870"/>
    <nd ref="607502863"/>
    <nd ref="607502866"/>
    <nd ref="607502869"/>
    <nd ref="607502852"/>
    <tag k="highway" v="residential"/>
    <tag k="junction" v="roundabout"/>
    <tag k="maxspeed" v="50"/>
    <tag k="maxspeed:source" v="default residential speed limit in Australia"/>
  </way>
  <way id="47758464" version="3" timestamp="2012-01-19T20:36:53Z" uid="147510" user="woodpeck_fixbot" changeset="10440306">
    <nd ref="607502852"/>
    <nd ref="607502875"/>
    <nd ref="607502854"/>
    <nd ref="607502857"/>
    <nd ref="607502873"/>
    <nd ref="607502858"/>
    <nd ref="607502861"/>
    <nd ref="607502870"/>
    <nd ref="607502863"/>
    <nd ref="607502866"/>
    <nd ref="607502869"/>
    <nd ref="607502852"/>
    <tag k="highway" v="residential"/>
    <tag k="junction" v="roundabout"/>
  </way>
  <way id="47758466" version="3" timestamp="2010-07-06T18:49:26Z" uid="74617" user="JohnSmith" changeset="5152225">
    <nd ref="607502895"/>
    <nd ref="607502892"/>
    <tag k="highway" v="residential"/>
    <tag k="maxspeed" v="50"/>
    <tag k="maxspeed:source" v="default residential speed limit in Australia"/>
    <tag k="name" v="Wallum Close"/>
  </way>
  <way id="47758466" version="4" timestamp="2012-01-19T20:36:54Z" uid="147510" user="woodpeck_fixbot" changeset="10440306">
    <nd ref="607502895"/>
    <nd ref="607502892"/>
    <tag k="highway" v="residential"/>
    <tag k="name" v="Wallum Close"/>
  </way>
  <way id="47758467" version="3" timestamp="2010-07-06T18:56:36Z" uid="74617" user="JohnSmith" changeset="5152225">
    <nd ref="607502907"/>
    <nd ref="607502909"/>
    <nd ref="607502892"/>
    <nd ref="607502897"/>
    <tag k="highway" v="residential"/>
    <tag k="maxspeed" v="50"/>
    <tag k="maxspeed:source" v="default residential speed limit in Australia"/>
    <tag k="name" v="Silky Oak Street"/>
  </way>
  <way id="47758467" version="4" timestamp="2012-01-19T20:36:55Z" uid="147510" user="woodpeck_fixbot" changeset="10440306">
    <nd ref="607502907"/>
    <nd ref="607502909"/>
    <nd ref="607502892"/>
    <nd ref="607502897"/>
    <tag k="highway" v="residential"/>
    <tag k="name" v="Silky Oak Street"/>
  </way>
  <way id="47758468" version="2" timestamp="2010-07-06T18:47:36Z" uid="74617" user="JohnSmith" changeset="5152225">
    <nd ref="607502974"/>
    <nd ref="607502938"/>
    <nd ref="607502919"/>
    <tag k="highway" v="residential"/>
    <tag k="maxspeed" v="50"/>
    <tag k="maxspeed:source" v="default residential speed limit in Australia"/>
    <tag k="name" v="Endeavour Crescent"/>
  </way>
  <way id="47758468" version="3" timestamp="2012-01-19T20:36:56Z" uid="147510" user="woodpeck_fixbot" changeset="10440306">
    <nd ref="607502974"/>
    <nd ref="607502938"/>
    <nd ref="607502919"/>
    <tag k="highway" v="residential"/>
    <tag k="name" v="Endeavour Crescent"/>
  </way>
  <way id="47758469" version="2" timestamp="2010-07-06T18:54:53Z" uid="74617" user="JohnSmith" changeset="5152225">
    <nd ref="607502984"/>
    <nd ref="607502976"/>
    <nd ref="607502974"/>
    <nd ref="607502977"/>
    <nd ref="607502947"/>
    <nd ref="607502950"/>
    <tag k="highway" v="residential"/>
    <tag k="maxspeed" v="50"/>
    <tag k="maxspeed:source" v="default residential speed limit in Australia"/>
    <tag k="name" v="Endeavour Crescent"/>
  </way>
  <way id="47758469" version="3" timestamp="2012-01-19T20:36:57Z" uid="147510" user="woodpeck_fixbot" changeset="10440306">
    <nd ref="607502984"/>
    <nd ref="607502976"/>
    <nd ref="607502974"/>
    <nd ref="607502977"/>
    <nd ref="607502947"/>
    <nd ref="607502950"/>
    <tag k="highway" v="residential"/>
    <tag k="name" v="Endeavour Crescent"/>
  </way>
  <way id="47758471" version="2" timestamp="2010-07-06T18:52:20Z" uid="74617" user="JohnSmith" changeset="5152225">
    <nd ref="607502931"/>
    <nd ref="607502933"/>
    <tag k="highway" v="residential"/>
    <tag k="maxspeed" v="50"/>
    <tag k="maxspeed:source" v="default residential speed limit in Australia"/>
    <tag k="name" v="Botany Drive"/>
  </way>
  <way id="47758471" version="3" timestamp="2012-01-19T20:36:58Z" uid="147510" user="woodpeck_fixbot" changeset="10440306">
    <nd ref="607502931"/>
    <nd ref="607502933"/>
    <tag k="highway" v="residential"/>
    <tag k="name" v="Botany Drive"/>
  </way>
  <way id="47758472" version="2" timestamp="2010-07-06T18:59:14Z" uid="74617" user="JohnSmith" changeset="5152225">
    <nd ref="607502929"/>
    <nd ref="607502933"/>
    <tag k="highway" v="residential"/>
    <tag k="maxspeed" v="50"/>
    <tag k="maxspeed:source" v="default residential speed limit in Australia"/>
    <tag k="name" v="Botany Drive"/>
  </way>
  <way id="47758472" version="3" timestamp="2012-01-19T20:36:59Z" uid="147510" user="woodpeck_fixbot" changeset="10440306">
    <nd ref="607502929"/>
    <nd ref="607502933"/>
    <tag k="highway" v="residential"/>
    <tag k="name" v="Botany Drive"/>
  </way>
  <way id="47758473" version="2" timestamp="2010-07-06T18:53:30Z" uid="74617" user="JohnSmith" changeset="5152225">
    <nd ref="607502954"/>
    <nd ref="607502962"/>
    <nd ref="607502964"/>
    <nd ref="607502967"/>
    <nd ref="607502970"/>
    <nd ref="607502952"/>
    <nd ref="607502959"/>
    <nd ref="607502956"/>
    <nd ref="607502954"/>
    <tag k="highway" v="residential"/>
    <tag k="junction" v="roundabout"/>
    <tag k="maxspeed" v="50"/>
    <tag k="maxspeed:source" v="default residential speed limit in Australia"/>
  </way>
  <way id="47758473" version="3" timestamp="2012-01-19T20:37:00Z" uid="147510" user="woodpeck_fixbot" changeset="10440306">
    <nd ref="607502954"/>
    <nd ref="607502962"/>
    <nd ref="607502964"/>
    <nd ref="607502967"/>
    <nd ref="607502970"/>
    <nd ref="607502952"/>
    <nd ref="607502959"/>
    <nd ref="607502956"/>
    <nd ref="607502954"/>
    <tag k="highway" v="residential"/>
    <tag k="junction" v="roundabout"/>
  </way>
  <way id="47758474" version="2" timestamp="2010-07-06T18:57:06Z" uid="74617" user="JohnSmith" changeset="5152225">
    <nd ref="607502933"/>
    <nd ref="607502919"/>
    <nd ref="607502956"/>
    <tag k="highway" v="residential"/>
    <tag k="maxspeed" v="50"/>
    <tag k="maxspeed:source" v="default residential speed limit in Australia"/>
    <tag k="name" v="Botany Drive"/>
  </way>
  <way id="47758474" version="3" timestamp="2012-01-19T20:37:01Z" uid="147510" user="woodpeck_fixbot" changeset="10440306">
    <nd ref="607502933"/>
    <nd ref="607502919"/>
    <nd ref="607502956"/>
    <tag k="highway" v="residential"/>
    <tag k="name" v="Botany Drive"/>
  </way>
  <way id="47758475" version="3" timestamp="2010-07-06T18:51:17Z" uid="74617" user="JohnSmith" changeset="5152225">
    <nd ref="607503019"/>
    <nd ref="607503010"/>
    <nd ref="607503013"/>
    <nd ref="705033073"/>
    <nd ref="607503016"/>
    <tag k="highway" v="residential"/>
    <tag k="maxspeed" v="50"/>
    <tag k="maxspeed:source" v="default residential speed limit in Australia"/>
    <tag k="name" v="Raptor Place"/>
  </way>
  <way id="47758475" version="4" timestamp="2012-01-19T20:37:02Z" uid="147510" user="woodpeck_fixbot" changeset="10440306">
    <nd ref="607503019"/>
    <nd ref="607503010"/>
    <nd ref="607503013"/>
    <nd ref="705033073"/>
    <nd ref="607503016"/>
    <tag k="highway" v="residential"/>
    <tag k="name" v="Raptor Place"/>
  </way>
  <way id="47758453" version="7" timestamp="2012-07-19T16:52:34Z" uid="722137" user="OSMF Redaction Account" changeset="12340707">
    <nd ref="607502689"/>
    <nd ref="607502696"/>
    <nd ref="607502698"/>
    <nd ref="607759750"/>
    <nd ref="607759700"/>
    <nd ref="607759699"/>
    <nd ref="607759698"/>
    <nd ref="607759706"/>
    <nd ref="607759707"/>
    <nd ref="607759718"/>
    <nd ref="607759719"/>
    <nd ref="607759708"/>
    <nd ref="607759687"/>
    <nd ref="607759695"/>
    <tag k="attribution" v="Based on data from State of Queensland (Department of Environment and Resource Management) 2009"/>
    <tag k="highway" v="residential"/>
    <tag k="name" v="Mahogany Drive"/>
    <tag k="oneway" v="1"/>
    <tag k="source" v="au.qld.dcdb_lite"/>
  </way>
</osm>
