<?xml version='1.0' encoding='UTF-8'?>
<osm version="0.6" generator="libosmium/2.20.0">
  <way id="47803135" version="2" timestamp="2010-07-07T08:51:24Z" uid="74617" user="JohnSmith" changeset="5156250">
    <nd ref="26878367"/>
    <nd ref="26456448"/>
    <nd ref="12549107"/>
    <nd ref="12549090"/>
    <tag k="highway" v="residential"/>
    <tag k="maxspeed" v="50"/>
    <tag k="maxspeed:source" v="default residential speed limit in Australia"/>
    <tag k="name" v="Windeyer Street"/>
  </way>
  <way id="47803135" version="3" timestamp="2011-11-23T16:29:16Z" uid="338866" user="tiger" changeset="9922909"/>
  <way id="47803144" version="3" timestamp="2010-07-07T08:48:04Z" uid="74617" user="JohnSmith" changeset="5156250">
    <nd ref="607984779"/>
    <nd ref="607984780"/>
    <nd ref="664986517"/>
    <nd ref="607984781"/>
    <nd ref="607984782"/>
    <tag k="highway" v="residential"/>
    <tag k="maxspeed" v="50"/>
    <tag k="maxspeed:source" v="default residential speed limit in Australia"/>
    <tag k="name" v="Windeyer Street"/>
    <tag k="oneway" v="yes"/>
  </way>
  <way id="47803144" version="4" timestamp="2010-08-19T06:18:58Z" uid="232912" user="Jack Kirby" changeset="5532533">
    <nd ref="607984779"/>
    <nd ref="867882645"/>
    <nd ref="607984780"/>
    <nd ref="664986517"/>
    <nd ref="607984781"/>
    <nd ref="607984782"/>
    <tag k="highway" v="residential"/>
    <tag k="maxspeed" v="50"/>
    <tag k="maxspeed:source" v="default residential speed limit in Australia"/>
    <tag k="name" v="Windeyer Street"/>
    <tag k="oneway" v="yes"/>
  </way>
  <way id="47803144" version="5" timestamp="2012-01-19T20:46:44Z" uid="147510" user="woodpeck_fixbot" changeset="10440306">
    <nd ref="607984779"/>
    <nd ref="867882645"/>
    <nd ref="607984780"/>
    <nd ref="664986517"/>
    <nd ref="607984781"/>
    <nd ref="607984782"/>
    <tag k="highway" v="residential"/>
    <tag k="name" v="Windeyer Street"/>
    <tag k="oneway" v="yes"/>
  </way>
</osm>
