<?xml version='1.0' encoding='UTF-8'?>
<osm version="0.6" generator="libosmium/2.20.0">
  <way id="47953211" version="20" timestamp="2010-04-29T11:23:31Z" uid="74617" user="JohnSmith" changeset="4555025">
    <nd ref="683793676"/>
    <nd ref="683792693"/>
    <nd ref="611883205"/>
    <nd ref="683792698"/>
    <nd ref="630361929"/>
    <nd ref="611871697"/>
    <nd ref="630361905"/>
    <nd ref="630361801"/>
    <nd ref="630361927"/>
    <nd ref="683859432"/>
    <tag k="highway" v="residential"/>
    <tag k="name" v="Swan Street"/>
  </way>
  <way id="47953211" version="21" timestamp="2010-09-06T08:43:50Z" uid="146572" user="nomad_cam" changeset="5695778">
    <nd ref="683793676"/>
    <nd ref="683792693"/>
    <nd ref="898867181"/>
    <nd ref="611883205"/>
    <nd ref="683792698"/>
    <nd ref="630361929"/>
    <nd ref="611871697"/>
    <nd ref="630361905"/>
    <nd ref="630361801"/>
    <nd ref="630361927"/>
    <nd ref="683859432"/>
    <tag k="highway" v="residential"/>
    <tag k="name" v="Swan Street"/>
  </way>
  <way id="47953211" version="22" timestamp="2010-09-06T09:57:47Z" uid="146572" user="nomad_cam" changeset="5696389">
    <nd ref="683793676"/>
    <nd ref="683792693"/>
    <nd ref="898867181"/>
    <nd ref="611883205"/>
    <nd ref="683792698"/>
    <nd ref="898931111"/>
    <nd ref="630361929"/>
    <nd ref="611871697"/>
    <nd ref="630361905"/>
    <nd ref="630361801"/>
    <nd ref="630361927"/>
    <nd ref="683859432"/>
    <tag k="highway" v="residential"/>
    <tag k="name" v="Swan Street"/>
  </way>
  <way id="47953811" version="2" timestamp="2010-07-09T03:50:00Z" uid="74617" user="JohnSmith" changeset="5170825">
    <nd ref="609993741"/>
    <nd ref="609993743"/>
    <nd ref="609993745"/>
    <tag k="highway" v="residential"/>
    <tag k="maxspeed" v="50"/>
    <tag k="maxspeed:source" v="default residential speed limit in Australia"/>
    <tag k="name" v="Faneco Road"/>
  </way>
  <way id="47953811" version="3" timestamp="2012-01-19T20:58:40Z" uid="147510" user="woodpeck_fixbot" changeset="10440306">
    <nd ref="609993741"/>
    <nd ref="609993743"/>
    <nd ref="609993745"/>
    <tag k="highway" v="residential"/>
    <tag k="name" v="Faneco Road"/>
  </way>
  <way id="47953815" version="2" timestamp="2010-07-09T03:51:16Z" uid="74617" user="JohnSmith" changeset="5170825">
    <nd ref="609993749"/>
    <nd ref="609993751"/>
    <nd ref="609993753"/>
    <nd ref="609993755"/>
    <nd ref="609993757"/>
    <nd ref="609993760"/>
    <nd ref="609993762"/>
    <nd ref="609993764"/>
    <nd ref="609993765"/>
    <nd ref="609993767"/>
    <nd ref="609993769"/>
    <tag k="highway" v="residential"/>
    <tag k="maxspeed" v="50"/>
    <tag k="maxspeed:source" v="default residential speed limit in Australia"/>
    <tag k="name" v="Seymour Drive"/>
  </way>
  <way id="47953815" version="3" timestamp="2012-01-19T20:58:42Z" uid="147510" user="woodpeck_fixbot" changeset="10440306">
    <nd ref="609993749"/>
    <nd ref="609993751"/>
    <nd ref="609993753"/>
    <nd ref="609993755"/>
    <nd ref="609993757"/>
    <nd ref="609993760"/>
    <nd ref="609993762"/>
    <nd ref="609993764"/>
    <nd ref="609993765"/>
    <nd ref="609993767"/>
    <nd ref="609993769"/>
    <tag k="highway" v="residential"/>
    <tag k="name" v="Seymour Drive"/>
  </way>
  <way id="47953822" version="2" timestamp="2010-07-09T03:50:29Z" uid="74617" user="JohnSmith" changeset="5170825">
    <nd ref="609993767"/>
    <nd ref="609993774"/>
    <nd ref="609993776"/>
    <nd ref="609993778"/>
    <nd ref="609993780"/>
    <nd ref="609993782"/>
    <nd ref="609993794"/>
    <nd ref="609993796"/>
    <nd ref="609993798"/>
    <nd ref="609993800"/>
    <nd ref="609993802"/>
    <nd ref="609993804"/>
    <nd ref="609993807"/>
    <tag k="highway" v="residential"/>
    <tag k="maxspeed" v="50"/>
    <tag k="maxspeed:source" v="default residential speed limit in Australia"/>
    <tag k="name" v="Cullen Cresent"/>
  </way>
  <way id="47953822" version="3" timestamp="2012-01-19T20:58:44Z" uid="147510" user="woodpeck_fixbot" changeset="10440306">
    <nd ref="609993767"/>
    <nd ref="609993774"/>
    <nd ref="609993776"/>
    <nd ref="609993778"/>
    <nd ref="609993780"/>
    <nd ref="609993782"/>
    <nd ref="609993794"/>
    <nd ref="609993796"/>
    <nd ref="609993798"/>
    <nd ref="609993800"/>
    <nd ref="609993802"/>
    <nd ref="609993804"/>
    <nd ref="609993807"/>
    <tag k="highway" v="residential"/>
    <tag k="name" v="Cullen Cresent"/>
  </way>
  <way id="47953824" version="2" timestamp="2010-07-09T03:51:58Z" uid="74617" user="JohnSmith" changeset="5170825">
    <nd ref="609993812"/>
    <nd ref="609993814"/>
    <nd ref="609993816"/>
    <nd ref="609993818"/>
    <nd ref="609993820"/>
    <tag k="highway" v="residential"/>
    <tag k="maxspeed" v="50"/>
    <tag k="maxspeed:source" v="default residential speed limit in Australia"/>
    <tag k="name" v="Rotin Court"/>
  </way>
  <way id="47953824" version="3" timestamp="2012-01-19T20:58:45Z" uid="147510" user="woodpeck_fixbot" changeset="10440306">
    <nd ref="609993812"/>
    <nd ref="609993814"/>
    <nd ref="609993816"/>
    <nd ref="609993818"/>
    <nd ref="609993820"/>
    <tag k="highway" v="residential"/>
    <tag k="name" v="Rotin Court"/>
  </way>
  <way id="47953828" version="2" timestamp="2010-07-09T03:53:13Z" uid="74617" user="JohnSmith" changeset="5170825">
    <nd ref="609993821"/>
    <nd ref="609993822"/>
    <nd ref="609993823"/>
    <nd ref="609993824"/>
    <nd ref="609993826"/>
    <nd ref="609993828"/>
    <nd ref="609993830"/>
    <tag k="highway" v="residential"/>
    <tag k="maxspeed" v="50"/>
    <tag k="maxspeed:source" v="default residential speed limit in Australia"/>
    <tag k="name" v="Blackwood Grove "/>
  </way>
  <way id="47953828" version="3" timestamp="2010-07-09T19:28:31Z" uid="70696" user="xybot" changeset="5176309">
    <nd ref="609993821"/>
    <nd ref="609993822"/>
    <nd ref="609993823"/>
    <nd ref="609993824"/>
    <nd ref="609993826"/>
    <nd ref="609993828"/>
    <nd ref="609993830"/>
    <tag k="highway" v="residential"/>
    <tag k="maxspeed" v="50"/>
    <tag k="maxspeed:source" v="default residential speed limit in Australia"/>
    <tag k="name" v="Blackwood Grove"/>
  </way>
  <way id="47953828" version="4" timestamp="2010-10-03T05:07:24Z" uid="208245" user="Arthur Richards" changeset="5941144">
    <nd ref="936119520"/>
    <nd ref="936119521"/>
    <nd ref="936119522"/>
    <nd ref="609993821"/>
    <nd ref="936119523"/>
    <nd ref="936119524"/>
    <nd ref="609993822"/>
    <nd ref="609993823"/>
    <nd ref="609993824"/>
    <nd ref="609993826"/>
    <nd ref="609993828"/>
    <nd ref="609993830"/>
    <tag k="highway" v="residential"/>
    <tag k="maxspeed" v="50"/>
    <tag k="maxspeed:source" v="default residential speed limit in Australia"/>
    <tag k="name" v="Blackwood Grove"/>
  </way>
  <way id="47953828" version="5" timestamp="2012-01-19T20:58:47Z" uid="147510" user="woodpeck_fixbot" changeset="10440306">
    <nd ref="936119520"/>
    <nd ref="936119521"/>
    <nd ref="936119522"/>
    <nd ref="609993821"/>
    <nd ref="936119523"/>
    <nd ref="936119524"/>
    <nd ref="609993822"/>
    <nd ref="609993823"/>
    <nd ref="609993824"/>
    <nd ref="609993826"/>
    <nd ref="609993828"/>
    <nd ref="609993830"/>
    <tag k="highway" v="residential"/>
    <tag k="name" v="Blackwood Grove"/>
  </way>
  <way id="47953842" version="2" timestamp="2010-07-09T03:45:02Z" uid="74617" user="JohnSmith" changeset="5170825">
    <nd ref="609993865"/>
    <nd ref="609993867"/>
    <nd ref="609993869"/>
    <tag k="highway" v="residential"/>
    <tag k="maxspeed" v="50"/>
    <tag k="maxspeed:source" v="default residential speed limit in Australia"/>
    <tag k="name" v="Browns Lane"/>
    <tag k="surface" v="unpaved"/>
  </way>
  <way id="47953842" version="3" timestamp="2012-01-19T20:58:49Z" uid="147510" user="woodpeck_fixbot" changeset="10440306">
    <nd ref="609993865"/>
    <nd ref="609993867"/>
    <nd ref="609993869"/>
    <tag k="highway" v="residential"/>
    <tag k="name" v="Browns Lane"/>
    <tag k="surface" v="unpaved"/>
  </way>
  <way id="47953846" version="2" timestamp="2010-07-09T03:46:23Z" uid="74617" user="JohnSmith" changeset="5170825">
    <nd ref="609993882"/>
    <nd ref="609993883"/>
    <nd ref="609993884"/>
    <nd ref="609993885"/>
    <nd ref="609993886"/>
    <nd ref="609993887"/>
    <nd ref="609993888"/>
    <nd ref="609993889"/>
    <nd ref="609993891"/>
    <nd ref="609993893"/>
    <nd ref="609993895"/>
    <tag k="highway" v="residential"/>
    <tag k="maxspeed" v="50"/>
    <tag k="maxspeed:source" v="default residential speed limit in Australia"/>
    <tag k="name" v="Armstrong Road"/>
    <tag k="surface" v="unpaved"/>
  </way>
  <way id="47953846" version="3" timestamp="2012-01-19T20:58:50Z" uid="147510" user="woodpeck_fixbot" changeset="10440306">
    <nd ref="609993882"/>
    <nd ref="609993883"/>
    <nd ref="609993884"/>
    <nd ref="609993885"/>
    <nd ref="609993886"/>
    <nd ref="609993887"/>
    <nd ref="609993888"/>
    <nd ref="609993889"/>
    <nd ref="609993891"/>
    <nd ref="609993893"/>
    <nd ref="609993895"/>
    <tag k="highway" v="residential"/>
    <tag k="name" v="Armstrong Road"/>
    <tag k="surface" v="unpaved"/>
  </way>
  <way id="47953850" version="2" timestamp="2010-07-09T03:51:06Z" uid="74617" user="JohnSmith" changeset="5170825">
    <nd ref="609993900"/>
    <nd ref="609993903"/>
    <nd ref="609993905"/>
    <tag k="highway" v="residential"/>
    <tag k="maxspeed" v="50"/>
    <tag k="maxspeed:source" v="default residential speed limit in Australia"/>
    <tag k="name" v="Charlesville Road"/>
    <tag k="surface" v="unpaved"/>
  </way>
  <way id="47953850" version="3" timestamp="2012-01-19T20:58:52Z" uid="147510" user="woodpeck_fixbot" changeset="10440306">
    <nd ref="609993900"/>
    <nd ref="609993903"/>
    <nd ref="609993905"/>
    <tag k="highway" v="residential"/>
    <tag k="name" v="Charlesville Road"/>
    <tag k="surface" v="unpaved"/>
  </way>
  <way id="47953852" version="4" timestamp="2010-07-09T03:47:29Z" uid="74617" user="JohnSmith" changeset="5170825">
    <nd ref="609993895"/>
    <nd ref="609993911"/>
    <nd ref="609993914"/>
    <nd ref="609993916"/>
    <nd ref="609993905"/>
    <nd ref="609993865"/>
    <tag k="highway" v="residential"/>
    <tag k="maxspeed" v="50"/>
    <tag k="maxspeed:source" v="default residential speed limit in Australia"/>
    <tag k="name" v="Westgarth Street"/>
    <tag k="surface" v="unpaved"/>
  </way>
  <way id="47953852" version="5" timestamp="2012-01-19T20:58:53Z" uid="147510" user="woodpeck_fixbot" changeset="10440306">
    <nd ref="609993895"/>
    <nd ref="609993911"/>
    <nd ref="609993914"/>
    <nd ref="609993916"/>
    <nd ref="609993905"/>
    <nd ref="609993865"/>
    <tag k="highway" v="residential"/>
    <tag k="name" v="Westgarth Street"/>
    <tag k="surface" v="unpaved"/>
  </way>
  <way id="47953857" version="2" timestamp="2010-07-09T03:52:05Z" uid="74617" user="JohnSmith" changeset="5170825">
    <nd ref="609993923"/>
    <nd ref="609993769"/>
    <nd ref="609993925"/>
    <nd ref="609993927"/>
    <nd ref="609993929"/>
    <nd ref="609993931"/>
    <nd ref="361907965"/>
    <tag k="highway" v="residential"/>
    <tag k="maxspeed" v="50"/>
    <tag k="maxspeed:source" v="default residential speed limit in Australia"/>
    <tag k="name" v="Heard Avenue"/>
  </way>
  <way id="47953857" version="3" timestamp="2012-01-19T20:58:54Z" uid="147510" user="woodpeck_fixbot" changeset="10440306">
    <nd ref="609993923"/>
    <nd ref="609993769"/>
    <nd ref="609993925"/>
    <nd ref="609993927"/>
    <nd ref="609993929"/>
    <nd ref="609993931"/>
    <nd ref="361907965"/>
    <tag k="highway" v="residential"/>
    <tag k="name" v="Heard Avenue"/>
  </way>
  <way id="47953877" version="2" timestamp="2010-07-09T03:50:15Z" uid="74617" user="JohnSmith" changeset="5170825">
    <nd ref="609993995"/>
    <nd ref="609993998"/>
    <nd ref="609994001"/>
    <nd ref="609994005"/>
    <nd ref="609994008"/>
    <tag k="highway" v="residential"/>
    <tag k="maxspeed" v="50"/>
    <tag k="maxspeed:source" v="default residential speed limit in Australia"/>
    <tag k="name" v="Larch Cresent"/>
    <tag k="surface" v="unpaved"/>
  </way>
  <way id="47953877" version="3" timestamp="2012-01-19T20:58:56Z" uid="147510" user="woodpeck_fixbot" changeset="10440306">
    <nd ref="609993995"/>
    <nd ref="609993998"/>
    <nd ref="609994001"/>
    <nd ref="609994005"/>
    <nd ref="609994008"/>
    <tag k="highway" v="residential"/>
    <tag k="name" v="Larch Cresent"/>
    <tag k="surface" v="unpaved"/>
  </way>
  <way id="47953887" version="2" timestamp="2010-07-09T03:52:23Z" uid="74617" user="JohnSmith" changeset="5170825">
    <nd ref="609994015"/>
    <nd ref="609994028"/>
    <nd ref="609994031"/>
    <nd ref="609994033"/>
    <nd ref="609993807"/>
    <nd ref="609994035"/>
    <nd ref="609994037"/>
    <nd ref="609994040"/>
    <nd ref="609994043"/>
    <nd ref="609994047"/>
    <nd ref="609994049"/>
    <nd ref="609994050"/>
    <nd ref="609994051"/>
    <nd ref="609994052"/>
    <nd ref="609994053"/>
    <nd ref="609994055"/>
    <tag k="highway" v="residential"/>
    <tag k="maxspeed" v="50"/>
    <tag k="maxspeed:source" v="default residential speed limit in Australia"/>
    <tag k="name" v="Hillmartin Lane"/>
    <tag k="surface" v="unpaved"/>
  </way>
  <way id="47953887" version="3" timestamp="2012-01-19T20:58:57Z" uid="147510" user="woodpeck_fixbot" changeset="10440306">
    <nd ref="609994015"/>
    <nd ref="609994028"/>
    <nd ref="609994031"/>
    <nd ref="609994033"/>
    <nd ref="609993807"/>
    <nd ref="609994035"/>
    <nd ref="609994037"/>
    <nd ref="609994040"/>
    <nd ref="609994043"/>
    <nd ref="609994047"/>
    <nd ref="609994049"/>
    <nd ref="609994050"/>
    <nd ref="609994051"/>
    <nd ref="609994052"/>
    <nd ref="609994053"/>
    <nd ref="609994055"/>
    <tag k="highway" v="residential"/>
    <tag k="name" v="Hillmartin Lane"/>
    <tag k="surface" v="unpaved"/>
  </way>
  <way id="47953890" version="2" timestamp="2010-07-09T03:52:12Z" uid="74617" user="JohnSmith" changeset="5170825">
    <nd ref="609994060"/>
    <nd ref="609994062"/>
    <nd ref="609994064"/>
    <nd ref="609994052"/>
    <tag k="highway" v="residential"/>
    <tag k="maxspeed" v="50"/>
    <tag k="maxspeed:source" v="default residential speed limit in Australia"/>
    <tag k="name" v="Fielding Road"/>
  </way>
  <way id="47953890" version="3" timestamp="2012-01-19T20:58:59Z" uid="147510" user="woodpeck_fixbot" changeset="10440306">
    <nd ref="609994060"/>
    <nd ref="609994062"/>
    <nd ref="609994064"/>
    <nd ref="609994052"/>
    <tag k="highway" v="residential"/>
    <tag k="name" v="Fielding Road"/>
  </way>
  <way id="47953892" version="2" timestamp="2010-07-09T03:48:48Z" uid="74617" user="JohnSmith" changeset="5170825">
    <nd ref="609994051"/>
    <nd ref="609994068"/>
    <tag k="highway" v="residential"/>
    <tag k="maxspeed" v="50"/>
    <tag k="maxspeed:source" v="default residential speed limit in Australia"/>
    <tag k="name" v="Starling Road"/>
    <tag k="surface" v="unpaved"/>
  </way>
  <way id="47953892" version="3" timestamp="2012-01-19T20:59:00Z" uid="147510" user="woodpeck_fixbot" changeset="10440306">
    <nd ref="609994051"/>
    <nd ref="609994068"/>
    <tag k="highway" v="residential"/>
    <tag k="name" v="Starling Road"/>
    <tag k="surface" v="unpaved"/>
  </way>
  <way id="47953895" version="2" timestamp="2010-07-09T03:51:45Z" uid="74617" user="JohnSmith" changeset="5170825">
    <nd ref="609994072"/>
    <nd ref="609993865"/>
    <tag k="highway" v="residential"/>
    <tag k="maxspeed" v="50"/>
    <tag k="maxspeed:source" v="default residential speed limit in Australia"/>
    <tag k="name" v="Nicholls Court"/>
    <tag k="surface" v="unpaved"/>
  </way>
  <way id="47953895" version="3" timestamp="2012-01-19T20:59:01Z" uid="147510" user="woodpeck_fixbot" changeset="10440306">
    <nd ref="609994072"/>
    <nd ref="609993865"/>
    <tag k="highway" v="residential"/>
    <tag k="name" v="Nicholls Court"/>
    <tag k="surface" v="unpaved"/>
  </way>
  <way id="47953917" version="2" timestamp="2010-07-09T03:49:34Z" uid="74617" user="JohnSmith" changeset="5170825">
    <nd ref="609993923"/>
    <nd ref="609993745"/>
    <nd ref="609038447"/>
    <tag k="highway" v="residential"/>
    <tag k="maxspeed" v="50"/>
    <tag k="maxspeed:source" v="default residential speed limit in Australia"/>
    <tag k="name" v="Heard Avenue"/>
    <tag k="surface" v="unpaved"/>
  </way>
  <way id="47953917" version="3" timestamp="2012-01-19T20:59:02Z" uid="147510" user="woodpeck_fixbot" changeset="10440306">
    <nd ref="609993923"/>
    <nd ref="609993745"/>
    <nd ref="609038447"/>
    <tag k="highway" v="residential"/>
    <tag k="name" v="Heard Avenue"/>
    <tag k="surface" v="unpaved"/>
  </way>
  <way id="47953950" version="3" timestamp="2010-07-09T03:49:56Z" uid="74617" user="JohnSmith" changeset="5170825">
    <nd ref="609994008"/>
    <nd ref="609994055"/>
    <nd ref="609994232"/>
    <nd ref="609994230"/>
    <tag k="highway" v="residential"/>
    <tag k="maxspeed" v="50"/>
    <tag k="maxspeed:source" v="default residential speed limit in Australia"/>
    <tag k="name" v="Sutherland Road"/>
    <tag k="surface" v="unpaved"/>
  </way>
  <way id="47953950" version="4" timestamp="2012-01-19T20:59:03Z" uid="147510" user="woodpeck_fixbot" changeset="10440306">
    <nd ref="609994008"/>
    <nd ref="609994055"/>
    <nd ref="609994232"/>
    <nd ref="609994230"/>
    <tag k="highway" v="residential"/>
    <tag k="name" v="Sutherland Road"/>
    <tag k="surface" v="unpaved"/>
  </way>
  <way id="47953211" version="23" timestamp="2012-07-19T07:46:29Z" uid="722137" user="OSMF Redaction Account" changeset="12312508">
    <nd ref="683792693"/>
    <nd ref="898867181"/>
    <nd ref="611883205"/>
    <nd ref="683792698"/>
    <nd ref="898931111"/>
    <nd ref="630361929"/>
    <nd ref="611871697"/>
    <nd ref="630361905"/>
    <nd ref="630361801"/>
    <nd ref="630361927"/>
    <nd ref="683859432"/>
    <tag k="highway" v="residential"/>
    <tag k="name" v="Swan Street"/>
  </way>
  <way id="47953846" version="4" timestamp="2012-07-01T12:58:11Z" uid="69319" user="Rhubarb" changeset="12075666">
    <nd ref="609993882"/>
    <nd ref="609993883"/>
    <nd ref="609993884"/>
    <nd ref="1808739784"/>
    <nd ref="609993885"/>
    <nd ref="609993886"/>
    <nd ref="609993887"/>
    <nd ref="609993888"/>
    <nd ref="609993889"/>
    <nd ref="609993891"/>
    <nd ref="609993893"/>
    <nd ref="609993895"/>
    <tag k="highway" v="residential"/>
    <tag k="name" v="Armstrong Road"/>
    <tag k="surface" v="unpaved"/>
  </way>
  <way id="47953857" version="4" timestamp="2012-07-19T20:42:05Z" uid="722137" user="OSMF Redaction Account" changeset="12346705">
    <nd ref="609993923"/>
    <nd ref="609993769"/>
    <nd ref="609993925"/>
    <nd ref="609993927"/>
    <nd ref="609993929"/>
    <nd ref="609993931"/>
    <tag k="highway" v="residential"/>
    <tag k="name" v="Heard Avenue"/>
  </way>
</osm>
