<?xml version='1.0' encoding='UTF-8'?>
<osm version="0.6" generator="libosmium/2.20.0">
  <way id="48088013" version="5" timestamp="2010-03-07T11:01:00Z" uid="58091" user="Andreas M" changeset="4059606">
    <nd ref="295814323"/>
    <nd ref="611262993"/>
    <nd ref="611262995"/>
    <nd ref="611262901"/>
    <nd ref="611262997"/>
    <nd ref="611262998"/>
    <tag k="highway" v="residential"/>
    <tag k="is_in:city" v="Gansbach"/>
    <tag k="is_in:country_code" v="AT"/>
    <tag k="name" v="Sonnleiten"/>
  </way>
  <way id="48088013" version="6" timestamp="2010-12-03T00:27:36Z" uid="45942" user="HMichael" changeset="6521571">
    <nd ref="295814323"/>
    <nd ref="611262993"/>
    <nd ref="611262995"/>
    <nd ref="611262901"/>
    <nd ref="611262997"/>
    <nd ref="611262998"/>
    <nd ref="1017113113"/>
    <nd ref="1017113800"/>
    <nd ref="1017114026"/>
    <tag k="highway" v="residential"/>
    <tag k="is_in:city" v="Gansbach"/>
    <tag k="is_in:country_code" v="AT"/>
    <tag k="name" v="Sonnleiten"/>
  </way>
  <way id="48088013" version="7" timestamp="2010-12-07T20:53:41Z" uid="45942" user="HMichael" changeset="6579509">
    <nd ref="295814323"/>
    <nd ref="611262993"/>
    <nd ref="611262995"/>
    <nd ref="611262901"/>
    <nd ref="1027161289"/>
    <nd ref="611262997"/>
    <nd ref="1027161299"/>
    <nd ref="611262998"/>
    <nd ref="1027161291"/>
    <nd ref="1017113113"/>
    <nd ref="1017113800"/>
    <nd ref="1017114026"/>
    <tag k="highway" v="residential"/>
    <tag k="is_in:city" v="Gansbach"/>
    <tag k="is_in:country_code" v="AT"/>
    <tag k="name" v="Sonnleiten"/>
  </way>
  <way id="48088017" version="4" timestamp="2010-03-07T11:01:01Z" uid="58091" user="Andreas M" changeset="4059606">
    <nd ref="611263055"/>
    <nd ref="611263036"/>
    <tag k="highway" v="residential"/>
    <tag k="is_in:city" v="Gansbach"/>
    <tag k="is_in:country_code" v="AT"/>
    <tag k="name" v="Marchfeldgasse"/>
  </way>
  <way id="48088021" version="4" timestamp="2010-03-07T11:01:01Z" uid="58091" user="Andreas M" changeset="4059606">
    <nd ref="237987439"/>
    <nd ref="611263031"/>
    <nd ref="611263007"/>
    <tag k="highway" v="residential"/>
    <tag k="is_in:city" v="Gansbach"/>
    <tag k="is_in:country_code" v="AT"/>
    <tag k="name" v="Marienfeldergasse"/>
  </way>
  <way id="48088021" version="5" timestamp="2010-12-07T20:53:42Z" uid="45942" user="HMichael" changeset="6579509">
    <nd ref="237987439"/>
    <nd ref="1027161328"/>
    <nd ref="611263031"/>
    <nd ref="611263007"/>
    <tag k="highway" v="residential"/>
    <tag k="is_in:city" v="Gansbach"/>
    <tag k="is_in:country_code" v="AT"/>
    <tag k="name" v="Marienfeldergasse"/>
  </way>
  <way id="48088022" version="4" timestamp="2010-03-07T11:01:01Z" uid="58091" user="Andreas M" changeset="4059606">
    <nd ref="611262999"/>
    <nd ref="235884254"/>
    <tag k="highway" v="residential"/>
    <tag k="is_in:city" v="Gansbach"/>
    <tag k="is_in:country_code" v="AT"/>
    <tag k="name" v="Jakobiweg"/>
  </way>
  <way id="48088022" version="5" timestamp="2010-12-07T20:53:42Z" uid="45942" user="HMichael" changeset="6579509">
    <nd ref="611262999"/>
    <nd ref="1027161287"/>
    <nd ref="1027161286"/>
    <nd ref="235884254"/>
    <tag k="highway" v="residential"/>
    <tag k="is_in:city" v="Gansbach"/>
    <tag k="is_in:country_code" v="AT"/>
    <tag k="name" v="Jakobiweg"/>
  </way>
  <way id="48088023" version="4" timestamp="2010-03-07T11:01:01Z" uid="58091" user="Andreas M" changeset="4059606">
    <nd ref="611263025"/>
    <nd ref="611263026"/>
    <tag k="highway" v="residential"/>
    <tag k="is_in:city" v="Gansbach"/>
    <tag k="is_in:country_code" v="AT"/>
    <tag k="name" v="Feldgasse"/>
  </way>
  <way id="48088025" version="4" timestamp="2010-03-07T11:01:01Z" uid="58091" user="Andreas M" changeset="4059606">
    <nd ref="611262987"/>
    <nd ref="611262988"/>
    <tag k="highway" v="residential"/>
    <tag k="is_in:city" v="Gansbach"/>
    <tag k="is_in:country_code" v="AT"/>
    <tag k="name" v="Forstgasse"/>
  </way>
  <way id="48088026" version="5" timestamp="2010-03-07T11:01:01Z" uid="58091" user="Andreas M" changeset="4059606">
    <nd ref="235884258"/>
    <nd ref="611263001"/>
    <nd ref="611285708"/>
    <tag k="highway" v="residential"/>
    <tag k="is_in:city" v="Gansbach"/>
    <tag k="is_in:country_code" v="AT"/>
    <tag k="name" v="Göttweigergasse"/>
  </way>
  <way id="48088026" version="6" timestamp="2011-07-11T12:51:37Z" uid="45942" user="HMichael" changeset="8693583">
    <nd ref="235884258"/>
    <nd ref="611263001"/>
    <nd ref="611285708"/>
    <nd ref="611263009"/>
    <nd ref="611263026"/>
    <nd ref="611263015"/>
    <nd ref="611263017"/>
    <nd ref="1027161363"/>
    <nd ref="611263020"/>
    <nd ref="611263022"/>
    <tag k="highway" v="residential"/>
    <tag k="is_in:city" v="Gansbach"/>
    <tag k="is_in:country_code" v="AT"/>
    <tag k="name" v="Göttweigergasse"/>
  </way>
  <way id="48088028" version="4" timestamp="2010-03-07T11:01:01Z" uid="58091" user="Andreas M" changeset="4059606">
    <nd ref="611263046"/>
    <nd ref="611263050"/>
    <tag k="highway" v="residential"/>
    <tag k="is_in:city" v="Gansbach"/>
    <tag k="is_in:country_code" v="AT"/>
    <tag k="name" v="Altmanigasse"/>
  </way>
  <way id="48088030" version="4" timestamp="2010-03-07T11:01:00Z" uid="58091" user="Andreas M" changeset="4059606">
    <nd ref="611263042"/>
    <nd ref="611263051"/>
    <tag k="highway" v="residential"/>
    <tag k="is_in:city" v="Gansbach"/>
    <tag k="is_in:country_code" v="AT"/>
    <tag k="name" v="Benediktinergasse"/>
  </way>
  <way id="48088031" version="4" timestamp="2010-03-07T11:01:00Z" uid="58091" user="Andreas M" changeset="4059606">
    <nd ref="611263048"/>
    <nd ref="611263052"/>
    <tag k="highway" v="residential"/>
    <tag k="is_in:city" v="Gansbach"/>
    <tag k="is_in:country_code" v="AT"/>
    <tag k="name" v="Knieriplweg"/>
  </way>
  <way id="48088031" version="5" timestamp="2010-12-03T00:27:43Z" uid="45942" user="HMichael" changeset="6521571"/>
  <way id="48088013" version="8" timestamp="2012-07-17T03:18:55Z" uid="722137" user="OSMF Redaction Account" changeset="12255982">
    <nd ref="295814323"/>
    <nd ref="611262993"/>
    <nd ref="611262995"/>
    <nd ref="611262901"/>
    <nd ref="1027161289"/>
    <nd ref="611262997"/>
    <nd ref="1027161299"/>
    <nd ref="611262998"/>
    <nd ref="1027161291"/>
    <nd ref="1017113113"/>
    <nd ref="1017113800"/>
    <nd ref="1017114026"/>
    <tag k="addr:city" v="Gansbach"/>
    <tag k="addr:country" v="AT"/>
    <tag k="addr:street" v="Sonnleiten"/>
    <tag k="highway" v="residential"/>
  </way>
  <way id="48088017" version="5" timestamp="2012-07-17T03:18:57Z" uid="722137" user="OSMF Redaction Account" changeset="12255982">
    <nd ref="611263055"/>
    <nd ref="611263036"/>
    <tag k="addr:city" v="Gansbach"/>
    <tag k="addr:country" v="AT"/>
    <tag k="addr:street" v="Marchfeldgasse"/>
    <tag k="highway" v="residential"/>
  </way>
  <way id="48088021" version="6" timestamp="2012-07-17T03:18:55Z" uid="722137" user="OSMF Redaction Account" changeset="12255982">
    <nd ref="237987439"/>
    <nd ref="1027161328"/>
    <nd ref="611263031"/>
    <nd ref="611263007"/>
    <tag k="addr:city" v="Gansbach"/>
    <tag k="addr:country" v="AT"/>
    <tag k="addr:street" v="Marienfeldergasse"/>
    <tag k="highway" v="residential"/>
  </way>
  <way id="48088022" version="6" timestamp="2012-07-17T03:18:55Z" uid="722137" user="OSMF Redaction Account" changeset="12255982">
    <nd ref="611262999"/>
    <nd ref="1027161287"/>
    <nd ref="1027161286"/>
    <nd ref="235884254"/>
    <tag k="addr:city" v="Gansbach"/>
    <tag k="addr:country" v="AT"/>
    <tag k="addr:street" v="Jakobiweg"/>
    <tag k="highway" v="residential"/>
  </way>
  <way id="48088023" version="5" timestamp="2012-07-17T03:18:54Z" uid="722137" user="OSMF Redaction Account" changeset="12255982">
    <nd ref="611263025"/>
    <nd ref="611263026"/>
    <tag k="addr:city" v="Gansbach"/>
    <tag k="addr:country" v="AT"/>
    <tag k="addr:street" v="Feldgasse"/>
    <tag k="highway" v="residential"/>
  </way>
  <way id="48088025" version="5" timestamp="2012-07-17T03:18:54Z" uid="722137" user="OSMF Redaction Account" changeset="12255982">
    <nd ref="611262987"/>
    <nd ref="611262988"/>
    <tag k="addr:city" v="Gansbach"/>
    <tag k="addr:country" v="AT"/>
    <tag k="addr:street" v="Forstgasse"/>
    <tag k="highway" v="residential"/>
  </way>
  <way id="48088026" version="7" timestamp="2012-07-17T03:18:55Z" uid="722137" user="OSMF Redaction Account" changeset="12255982">
    <nd ref="235884258"/>
    <nd ref="611263001"/>
    <nd ref="611285708"/>
    <nd ref="611263009"/>
    <nd ref="611263026"/>
    <nd ref="611263015"/>
    <nd ref="611263017"/>
    <nd ref="1027161363"/>
    <nd ref="611263020"/>
    <nd ref="611263022"/>
    <tag k="addr:city" v="Gansbach"/>
    <tag k="addr:country" v="AT"/>
    <tag k="addr:street" v="Göttweigergasse"/>
    <tag k="highway" v="residential"/>
  </way>
  <way id="48088028" version="5" timestamp="2012-07-17T03:18:57Z" uid="722137" user="OSMF Redaction Account" changeset="12255982">
    <nd ref="611263046"/>
    <nd ref="611263050"/>
    <tag k="addr:city" v="Gansbach"/>
    <tag k="addr:country" v="AT"/>
    <tag k="addr:street" v="Altmanigasse"/>
    <tag k="highway" v="residential"/>
  </way>
  <way id="48088030" version="5" timestamp="2012-07-17T03:18:57Z" uid="722137" user="OSMF Redaction Account" changeset="12255982">
    <nd ref="611263042"/>
    <nd ref="611263051"/>
    <tag k="addr:city" v="Gansbach"/>
    <tag k="addr:country" v="AT"/>
    <tag k="addr:street" v="Benediktinergasse"/>
    <tag k="highway" v="residential"/>
  </way>
</osm>
