<?xml version='1.0' encoding='UTF-8'?>
<osm version="0.6" generator="libosmium/2.20.0">
  <way id="48172119" version="1" timestamp="2010-01-12T13:55:25Z" uid="115477" user="wowik" changeset="3602714">
    <nd ref="306042077"/>
    <nd ref="306042080"/>
    <nd ref="306042082"/>
    <nd ref="306042084"/>
    <nd ref="306042086"/>
    <nd ref="306042089"/>
    <nd ref="306042091"/>
    <tag k="highway" v="service"/>
    <tag k="living_street" v="yes"/>
    <tag k="service" v="living_street"/>
  </way>
  <way id="48172119" version="2" timestamp="2010-01-12T13:59:52Z" uid="115477" user="wowik" changeset="3602714">
    <nd ref="306042077"/>
    <nd ref="306042080"/>
    <nd ref="306042084"/>
    <nd ref="306042086"/>
    <nd ref="306042089"/>
    <nd ref="306042091"/>
    <tag k="highway" v="service"/>
    <tag k="living_street" v="yes"/>
    <tag k="service" v="living_street"/>
  </way>
  <way id="48172119" version="3" timestamp="2011-01-17T10:10:59Z" uid="115477" user="wowik" changeset="6997647">
    <nd ref="306042077"/>
    <nd ref="306042080"/>
    <nd ref="306042084"/>
    <nd ref="306042086"/>
    <nd ref="1107407753"/>
    <nd ref="306042091"/>
    <tag k="highway" v="service"/>
    <tag k="living_street" v="yes"/>
    <tag k="service" v="living_street"/>
  </way>
  <way id="48172119" version="4" timestamp="2011-01-28T13:37:13Z" uid="115477" user="wowik" changeset="7113030"/>
  <way id="48172120" version="1" timestamp="2010-01-12T13:55:27Z" uid="115477" user="wowik" changeset="3602714">
    <nd ref="306043368"/>
    <nd ref="612183013"/>
    <tag k="highway" v="service"/>
    <tag k="living_street" v="yes"/>
    <tag k="service" v="living_street"/>
  </way>
  <way id="48172120" version="2" timestamp="2011-01-28T11:48:44Z" uid="115477" user="wowik" changeset="7112168">
    <nd ref="306043368"/>
    <nd ref="612183013"/>
    <tag k="foot" v="yes"/>
    <tag k="highway" v="footway"/>
    <tag k="living_street" v="yes"/>
    <tag k="service" v="living_street"/>
  </way>
  <way id="48172121" version="1" timestamp="2010-01-12T13:55:28Z" uid="115477" user="wowik" changeset="3602714">
    <nd ref="612183006"/>
    <nd ref="306043383"/>
    <nd ref="306043386"/>
    <nd ref="306043387"/>
    <tag k="highway" v="service"/>
    <tag k="living_street" v="yes"/>
    <tag k="service" v="living_street"/>
  </way>
  <way id="48172121" version="2" timestamp="2011-01-28T11:48:40Z" uid="115477" user="wowik" changeset="7112168">
    <nd ref="1124777300"/>
    <nd ref="612183006"/>
    <nd ref="306043383"/>
    <nd ref="306043386"/>
    <nd ref="306043387"/>
    <tag k="highway" v="service"/>
    <tag k="living_street" v="yes"/>
    <tag k="service" v="living_street"/>
  </way>
  <way id="48172129" version="1" timestamp="2010-01-12T13:56:32Z" uid="115477" user="wowik" changeset="3602714">
    <nd ref="612184648"/>
    <nd ref="612184710"/>
    <nd ref="612184717"/>
    <nd ref="612184635"/>
    <tag k="highway" v="service"/>
    <tag k="living_street" v="yes"/>
    <tag k="service" v="parking_aisle"/>
  </way>
  <way id="48172208" version="1" timestamp="2010-01-12T13:58:35Z" uid="115477" user="wowik" changeset="3602714">
    <nd ref="612187180"/>
    <nd ref="612187181"/>
    <nd ref="612187182"/>
    <nd ref="612187183"/>
    <nd ref="612187184"/>
    <nd ref="612183013"/>
    <tag k="foot" v="yes"/>
    <tag k="highway" v="footway"/>
  </way>
  <way id="48172208" version="2" timestamp="2010-01-12T13:59:00Z" uid="115477" user="wowik" changeset="3602714">
    <nd ref="612187704"/>
    <nd ref="612187180"/>
    <nd ref="612187181"/>
    <nd ref="612187182"/>
    <nd ref="612187183"/>
    <nd ref="612187184"/>
    <nd ref="612183013"/>
    <tag k="foot" v="yes"/>
    <tag k="highway" v="footway"/>
  </way>
  <way id="48172209" version="1" timestamp="2010-01-12T13:58:37Z" uid="115477" user="wowik" changeset="3602714">
    <nd ref="612187186"/>
    <nd ref="612187187"/>
    <nd ref="612187189"/>
    <nd ref="612187191"/>
    <nd ref="612187192"/>
    <nd ref="612187193"/>
    <nd ref="612187186"/>
    <tag k="leisure" v="playground"/>
  </way>
  <way id="48172209" version="2" timestamp="2010-05-06T08:17:40Z" uid="115477" user="wowik" changeset="4619331">
    <nd ref="612187186"/>
    <nd ref="723978655"/>
    <nd ref="723978656"/>
    <nd ref="612187187"/>
    <nd ref="723978657"/>
    <nd ref="723978658"/>
    <nd ref="612187189"/>
    <nd ref="723978659"/>
    <nd ref="723978660"/>
    <nd ref="612187191"/>
    <nd ref="723978661"/>
    <nd ref="723978662"/>
    <nd ref="723978664"/>
    <nd ref="612187192"/>
    <nd ref="723978666"/>
    <nd ref="612187193"/>
    <nd ref="723978669"/>
    <nd ref="723978673"/>
    <nd ref="612187186"/>
    <tag k="leisure" v="playground"/>
  </way>
  <way id="48172210" version="1" timestamp="2010-01-12T13:58:37Z" uid="115477" user="wowik" changeset="3602714">
    <nd ref="612187194"/>
    <nd ref="612187183"/>
  </way>
  <way id="48172210" version="2" timestamp="2010-01-12T13:59:00Z" uid="115477" user="wowik" changeset="3602714">
    <nd ref="306044380"/>
    <nd ref="612183004"/>
    <nd ref="612187194"/>
    <nd ref="612187183"/>
    <tag k="foot" v="yes"/>
    <tag k="highway" v="footway"/>
  </way>
  <way id="48172210" version="3" timestamp="2010-05-06T08:17:37Z" uid="115477" user="wowik" changeset="4619331">
    <nd ref="309278072"/>
    <nd ref="723978579"/>
    <nd ref="685284782"/>
    <nd ref="723978588"/>
    <nd ref="306044380"/>
    <nd ref="612183004"/>
    <nd ref="612187194"/>
    <nd ref="612187183"/>
    <tag k="foot" v="yes"/>
    <tag k="highway" v="footway"/>
  </way>
  <way id="48172210" version="4" timestamp="2011-08-03T14:26:02Z" uid="465700" user="Tomasina" changeset="8910620">
    <nd ref="309278072"/>
    <nd ref="1384565734"/>
    <nd ref="723978579"/>
    <nd ref="685284782"/>
    <nd ref="723978588"/>
    <nd ref="306044380"/>
    <nd ref="612183004"/>
    <nd ref="612187194"/>
    <nd ref="612187183"/>
    <tag k="foot" v="yes"/>
    <tag k="highway" v="footway"/>
  </way>
  <way id="48172210" version="5" timestamp="2011-11-25T18:06:23Z" uid="260756" user="Felis Pimeja" changeset="9946065">
    <nd ref="309278072"/>
    <nd ref="1516709353"/>
    <nd ref="1384565734"/>
    <nd ref="723978579"/>
    <nd ref="685284782"/>
    <nd ref="723978588"/>
    <nd ref="306044380"/>
    <nd ref="612183004"/>
    <nd ref="612187194"/>
    <nd ref="612187183"/>
    <tag k="foot" v="yes"/>
    <tag k="highway" v="footway"/>
  </way>
  <way id="48172283" version="3" timestamp="2010-01-25T17:56:56Z" uid="9581" user="Lobelt" changeset="3712832"/>
  <way id="48172493" version="1" timestamp="2010-01-12T14:08:28Z" uid="74027" user="katzlbt" changeset="3603350">
    <nd ref="612201115"/>
    <nd ref="612201121"/>
    <nd ref="612201125"/>
    <nd ref="612201131"/>
    <nd ref="612201133"/>
    <tag k="highway" v="residential"/>
  </way>
  <way id="48172493" version="2" timestamp="2010-02-25T12:43:31Z" uid="45481" user="borisC" changeset="3971318">
    <nd ref="612201115"/>
    <nd ref="612201121"/>
    <nd ref="612201125"/>
    <nd ref="612201131"/>
    <nd ref="612201133"/>
    <tag k="highway" v="residential"/>
    <tag k="name" v="Walderstraße"/>
  </way>
  <way id="48172493" version="3" timestamp="2012-02-29T20:10:51Z" uid="606250" user="katzlmacher" changeset="10831703"/>
  <way id="48172494" version="1" timestamp="2010-01-12T14:08:29Z" uid="74027" user="katzlbt" changeset="3603350">
    <nd ref="612201133"/>
    <nd ref="612201148"/>
    <nd ref="612201154"/>
    <nd ref="612201157"/>
    <nd ref="612201161"/>
    <nd ref="612201164"/>
    <nd ref="612201165"/>
    <nd ref="612201169"/>
    <nd ref="612201172"/>
    <nd ref="612201173"/>
    <nd ref="612201190"/>
    <nd ref="612201197"/>
    <nd ref="612201201"/>
    <nd ref="612201032"/>
    <tag k="FIXME" v="GPS needed"/>
    <tag k="highway" v="track"/>
  </way>
  <way id="48172494" version="2" timestamp="2010-01-14T21:07:08Z" uid="74027" user="katzlbt" changeset="3620111">
    <nd ref="612201133"/>
    <nd ref="612201148"/>
    <nd ref="612201154"/>
    <nd ref="612201157"/>
    <nd ref="612201161"/>
    <nd ref="612201164"/>
    <nd ref="613690961"/>
    <tag k="FIXME" v="GPS needed"/>
    <tag k="highway" v="track"/>
  </way>
  <way id="48172494" version="3" timestamp="2011-06-22T19:13:43Z" uid="439111" user="Hafelekar" changeset="8517157">
    <nd ref="612201133"/>
    <nd ref="612201148"/>
    <nd ref="612201154"/>
    <nd ref="612201157"/>
    <nd ref="1334754111"/>
    <nd ref="612201161"/>
    <nd ref="612201164"/>
    <nd ref="613690961"/>
    <tag k="FIXME" v="GPS needed"/>
    <tag k="highway" v="track"/>
  </way>
  <way id="48172494" version="4" timestamp="2012-02-29T20:10:49Z" uid="606250" user="katzlmacher" changeset="10831703"/>
  <way id="48172495" version="1" timestamp="2010-01-12T14:08:30Z" uid="74027" user="katzlbt" changeset="3603350">
    <nd ref="201311515"/>
    <nd ref="612201121"/>
    <tag k="highway" v="residential"/>
  </way>
  <way id="48172495" version="2" timestamp="2012-02-29T20:10:48Z" uid="606250" user="katzlmacher" changeset="10831703"/>
  <way id="48172496" version="1" timestamp="2010-01-12T14:08:30Z" uid="74027" user="katzlbt" changeset="3603350">
    <nd ref="612201121"/>
    <nd ref="612201231"/>
    <nd ref="612201235"/>
    <nd ref="612201239"/>
    <nd ref="612201244"/>
    <nd ref="612201249"/>
    <tag k="FIXME" v="contineme"/>
    <tag k="highway" v="track"/>
  </way>
  <way id="48172496" version="2" timestamp="2010-01-14T21:07:08Z" uid="74027" user="katzlbt" changeset="3620111">
    <nd ref="612201121"/>
    <nd ref="612201231"/>
    <nd ref="612201235"/>
    <nd ref="612201239"/>
    <nd ref="612201244"/>
    <nd ref="612201249"/>
    <nd ref="613690943"/>
    <nd ref="613690946"/>
    <nd ref="613690949"/>
    <nd ref="613690951"/>
    <tag k="FIXME" v="GPS"/>
    <tag k="highway" v="track"/>
  </way>
  <way id="48172496" version="3" timestamp="2010-08-27T20:37:35Z" uid="64834" user="Frank23germany" changeset="5611246">
    <nd ref="612201121"/>
    <nd ref="612201231"/>
    <nd ref="612201235"/>
    <nd ref="612201239"/>
    <nd ref="612201244"/>
    <nd ref="612201249"/>
    <nd ref="883431816"/>
    <nd ref="613690943"/>
    <nd ref="613690946"/>
    <nd ref="613690949"/>
    <nd ref="613690951"/>
    <tag k="FIXME" v="GPS"/>
    <tag k="highway" v="track"/>
  </way>
  <way id="48172496" version="4" timestamp="2010-08-28T16:57:50Z" uid="232402" user="aj3" changeset="5618069">
    <nd ref="612201121"/>
    <nd ref="612201231"/>
    <nd ref="612201235"/>
    <nd ref="612201239"/>
    <nd ref="612201244"/>
    <nd ref="612201249"/>
    <nd ref="883431816"/>
    <nd ref="613690943"/>
    <nd ref="613690946"/>
    <nd ref="613690949"/>
    <nd ref="613690951"/>
    <tag k="highway" v="track"/>
    <tag k="sac_scale" v="hiking"/>
  </way>
  <way id="48172496" version="5" timestamp="2011-06-29T22:32:29Z" uid="439111" user="Hafelekar" changeset="8585837">
    <nd ref="612201121"/>
    <nd ref="612201231"/>
    <nd ref="612201235"/>
    <nd ref="1343891953"/>
    <nd ref="612201239"/>
    <nd ref="1343891901"/>
    <nd ref="612201244"/>
    <nd ref="1343891976"/>
    <nd ref="612201249"/>
    <nd ref="1343891933"/>
    <nd ref="1343892082"/>
    <nd ref="883431816"/>
    <nd ref="1343892026"/>
    <nd ref="613690943"/>
    <nd ref="613690946"/>
    <nd ref="613690949"/>
    <nd ref="613690951"/>
    <tag k="highway" v="track"/>
    <tag k="sac_scale" v="hiking"/>
  </way>
  <way id="48172496" version="6" timestamp="2012-01-20T14:04:21Z" uid="394543" user="Andresek59" changeset="10445209">
    <nd ref="612201121"/>
    <nd ref="612201231"/>
    <nd ref="612201235"/>
    <nd ref="1343891953"/>
    <nd ref="612201239"/>
    <nd ref="1343891901"/>
    <nd ref="612201244"/>
    <nd ref="1343891976"/>
    <nd ref="612201249"/>
    <nd ref="1343891933"/>
    <nd ref="1343892082"/>
    <nd ref="883431816"/>
    <tag k="highway" v="track"/>
    <tag k="sac_scale" v="hiking"/>
  </way>
  <way id="48172496" version="7" timestamp="2012-02-29T20:10:49Z" uid="606250" user="katzlmacher" changeset="10831703"/>
  <way id="48172606" version="1" timestamp="2010-01-12T14:15:21Z" uid="115477" user="wowik" changeset="3602714">
    <nd ref="612214956"/>
    <nd ref="612214960"/>
    <nd ref="612214963"/>
    <nd ref="612214967"/>
    <nd ref="612214974"/>
    <nd ref="612214982"/>
    <nd ref="612214987"/>
    <nd ref="612214956"/>
    <tag k="addr:city" v="Зеленоград"/>
    <tag k="addr:housenumber" v="6"/>
    <tag k="addr:street" v="Озерная аллея"/>
    <tag k="building" v="yes"/>
    <tag k="is_in" v="Russia"/>
  </way>
  <way id="48172606" version="2" timestamp="2010-01-16T06:21:29Z" uid="11132" user="liosha" changeset="3629402">
    <nd ref="612214956"/>
    <nd ref="612214960"/>
    <nd ref="612214963"/>
    <nd ref="612214967"/>
    <nd ref="612214974"/>
    <nd ref="612214982"/>
    <nd ref="612214987"/>
    <nd ref="612214956"/>
    <tag k="addr:city" v="Зеленоград"/>
    <tag k="addr:housenumber" v="6"/>
    <tag k="addr:street" v="Озёрная аллея"/>
    <tag k="building" v="yes"/>
    <tag k="is_in" v="Russia"/>
  </way>
  <way id="48172606" version="3" timestamp="2010-01-20T07:55:38Z" uid="70202" user="physiocrat" changeset="3664615">
    <nd ref="612214956"/>
    <nd ref="612214960"/>
    <nd ref="612214963"/>
    <nd ref="612214967"/>
    <nd ref="612214974"/>
    <nd ref="612214982"/>
    <nd ref="612214987"/>
    <nd ref="612214956"/>
    <tag k="addr:city" v="Зеленоград"/>
    <tag k="addr:housenumber" v="6"/>
    <tag k="addr:street" v="Озёрная аллея"/>
    <tag k="building" v="yes"/>
    <tag k="cladr:code" v="77000002000211000"/>
    <tag k="is_in" v="Russia"/>
  </way>
  <way id="48172606" version="4" timestamp="2010-10-23T18:30:53Z" uid="115477" user="wowik" changeset="6150055">
    <nd ref="612214956"/>
    <nd ref="612214960"/>
    <nd ref="612214963"/>
    <nd ref="612214967"/>
    <nd ref="612214974"/>
    <nd ref="612214982"/>
    <nd ref="612214987"/>
    <nd ref="612214956"/>
    <tag k="addr:city" v="Зеленоград"/>
    <tag k="addr:housenumber" v="6"/>
    <tag k="addr:street" v="Озёрная аллея"/>
    <tag k="building" v="yes"/>
    <tag k="cladr:code" v="77000002000211000"/>
    <tag k="is_in" v="Russia"/>
    <tag k="leisure" v="swimming_pool"/>
  </way>
  <way id="48172606" version="5" timestamp="2011-01-17T10:10:49Z" uid="115477" user="wowik" changeset="6997647">
    <nd ref="612214956"/>
    <nd ref="612214960"/>
    <nd ref="1107407757"/>
    <nd ref="612214963"/>
    <nd ref="1107407722"/>
    <nd ref="612214967"/>
    <nd ref="1107407756"/>
    <nd ref="1107407689"/>
    <nd ref="1107407704"/>
    <nd ref="612214974"/>
    <nd ref="612214982"/>
    <nd ref="612214987"/>
    <nd ref="612214956"/>
    <tag k="addr:city" v="Зеленоград"/>
    <tag k="addr:housenumber" v="6"/>
    <tag k="addr:street" v="Озёрная аллея"/>
    <tag k="building" v="yes"/>
    <tag k="cladr:code" v="77000002000211000"/>
    <tag k="is_in" v="Russia"/>
    <tag k="leisure" v="swimming_pool"/>
  </way>
  <way id="48172606" version="6" timestamp="2011-07-21T21:29:01Z" uid="465700" user="Tomasina" changeset="8793090">
    <nd ref="612214956"/>
    <nd ref="612214960"/>
    <nd ref="1107407757"/>
    <nd ref="612214963"/>
    <nd ref="1107407722"/>
    <nd ref="612214967"/>
    <nd ref="1107407756"/>
    <nd ref="1107407689"/>
    <nd ref="1107407704"/>
    <nd ref="612214974"/>
    <nd ref="612214982"/>
    <nd ref="612214987"/>
    <nd ref="612214956"/>
    <tag k="addr:city" v="Зеленоград"/>
    <tag k="addr:housenumber" v="6"/>
    <tag k="addr:street" v="Озёрная аллея"/>
    <tag k="building" v="yes"/>
    <tag k="cladr:code" v="77000002000211000"/>
    <tag k="is_in" v="Russia"/>
    <tag k="leisure" v="swimming_pool"/>
    <tag k="name" v="Бассейн"/>
  </way>
  <way id="48172606" version="7" timestamp="2011-09-13T10:29:40Z" uid="29320" user="Komяpa" changeset="9288237">
    <nd ref="612214956"/>
    <nd ref="612214960"/>
    <nd ref="1107407757"/>
    <nd ref="612214963"/>
    <nd ref="1107407722"/>
    <nd ref="612214967"/>
    <nd ref="1107407756"/>
    <nd ref="1107407689"/>
    <nd ref="1107407704"/>
    <nd ref="612214974"/>
    <nd ref="612214982"/>
    <nd ref="612214987"/>
    <nd ref="612214956"/>
    <tag k="addr:city" v="Зеленоград"/>
    <tag k="addr:country" v="RU"/>
    <tag k="addr:housenumber" v="6"/>
    <tag k="addr:street" v="Озёрная аллея"/>
    <tag k="building" v="yes"/>
    <tag k="cladr:code" v="77000002000211000"/>
    <tag k="leisure" v="swimming_pool"/>
    <tag k="name" v="Бассейн"/>
  </way>
  <way id="48172606" version="8" timestamp="2012-03-27T11:31:40Z" uid="481934" user="iWowik" changeset="11115472">
    <nd ref="612214956"/>
    <nd ref="612214960"/>
    <nd ref="1107407757"/>
    <nd ref="612214963"/>
    <nd ref="1107407722"/>
    <nd ref="612214967"/>
    <nd ref="1107407756"/>
    <nd ref="1107407689"/>
    <nd ref="1107407704"/>
    <nd ref="612214974"/>
    <nd ref="612214982"/>
    <nd ref="612214987"/>
    <nd ref="612214956"/>
    <tag k="addr:city" v="Зеленоград"/>
    <tag k="addr:country" v="RU"/>
    <tag k="addr:housenumber" v="6"/>
    <tag k="addr:region" v="Москва"/>
    <tag k="addr:street" v="Озёрная аллея"/>
    <tag k="building" v="yes"/>
    <tag k="cladr:code" v="77000002000211000"/>
    <tag k="leisure" v="swimming_pool"/>
    <tag k="name" v="Бассейн"/>
  </way>
  <way id="48172607" version="1" timestamp="2010-01-12T14:15:22Z" uid="115477" user="wowik" changeset="3602714">
    <nd ref="612214999"/>
    <nd ref="612215003"/>
    <nd ref="612215008"/>
    <nd ref="612215011"/>
    <nd ref="612214999"/>
    <tag k="addr:city" v="Зеленоград"/>
    <tag k="addr:housenumber" v="4"/>
    <tag k="addr:street" v="Озерная аллея"/>
    <tag k="building" v="yes"/>
    <tag k="is_in" v="Russia"/>
  </way>
  <way id="48172607" version="2" timestamp="2010-01-16T06:21:29Z" uid="11132" user="liosha" changeset="3629402">
    <nd ref="612214999"/>
    <nd ref="612215003"/>
    <nd ref="612215008"/>
    <nd ref="612215011"/>
    <nd ref="612214999"/>
    <tag k="addr:city" v="Зеленоград"/>
    <tag k="addr:housenumber" v="4"/>
    <tag k="addr:street" v="Озёрная аллея"/>
    <tag k="building" v="yes"/>
    <tag k="is_in" v="Russia"/>
  </way>
  <way id="48172607" version="3" timestamp="2010-01-20T07:55:38Z" uid="70202" user="physiocrat" changeset="3664615">
    <nd ref="612214999"/>
    <nd ref="612215003"/>
    <nd ref="612215008"/>
    <nd ref="612215011"/>
    <nd ref="612214999"/>
    <tag k="addr:city" v="Зеленоград"/>
    <tag k="addr:housenumber" v="4"/>
    <tag k="addr:street" v="Озёрная аллея"/>
    <tag k="building" v="yes"/>
    <tag k="cladr:code" v="77000002000211000"/>
    <tag k="is_in" v="Russia"/>
  </way>
  <way id="48172607" version="4" timestamp="2010-09-16T08:10:59Z" uid="241531" user="dik_man" changeset="5792749">
    <nd ref="612214999"/>
    <nd ref="612215003"/>
    <nd ref="612215008"/>
    <nd ref="612215011"/>
    <nd ref="612214999"/>
    <tag k="addr:city" v="Зеленоград"/>
    <tag k="addr:housenumber" v="4"/>
    <tag k="addr:street" v="Озёрная аллея"/>
    <tag k="building" v="yes"/>
    <tag k="cladr:code" v="77000002000211000"/>
    <tag k="is_in" v="Russia"/>
    <tag k="leisure" v="sports_centre"/>
    <tag k="sport" v="hockey"/>
  </way>
  <way id="48172607" version="5" timestamp="2011-07-21T21:29:01Z" uid="465700" user="Tomasina" changeset="8793090">
    <nd ref="612214999"/>
    <nd ref="612215003"/>
    <nd ref="612215008"/>
    <nd ref="612215011"/>
    <nd ref="612214999"/>
    <tag k="addr:city" v="Зеленоград"/>
    <tag k="addr:housenumber" v="4"/>
    <tag k="addr:street" v="Озёрная аллея"/>
    <tag k="building" v="yes"/>
    <tag k="cladr:code" v="77000002000211000"/>
    <tag k="is_in" v="Russia"/>
    <tag k="leisure" v="sports_centre"/>
    <tag k="name" v="Ледовый дворец"/>
    <tag k="sport" v="hockey"/>
  </way>
  <way id="48172607" version="6" timestamp="2011-09-13T10:30:31Z" uid="29320" user="Komяpa" changeset="9288237">
    <nd ref="612214999"/>
    <nd ref="612215003"/>
    <nd ref="612215008"/>
    <nd ref="612215011"/>
    <nd ref="612214999"/>
    <tag k="addr:city" v="Зеленоград"/>
    <tag k="addr:country" v="RU"/>
    <tag k="addr:housenumber" v="4"/>
    <tag k="addr:street" v="Озёрная аллея"/>
    <tag k="building" v="yes"/>
    <tag k="cladr:code" v="77000002000211000"/>
    <tag k="leisure" v="sports_centre"/>
    <tag k="name" v="Ледовый дворец"/>
    <tag k="sport" v="hockey"/>
  </way>
  <way id="48172607" version="7" timestamp="2012-03-27T11:47:25Z" uid="481934" user="iWowik" changeset="11115472">
    <nd ref="612214999"/>
    <nd ref="612215003"/>
    <nd ref="612215008"/>
    <nd ref="612215011"/>
    <nd ref="612214999"/>
    <tag k="addr:city" v="Зеленоград"/>
    <tag k="addr:country" v="RU"/>
    <tag k="addr:housenumber" v="4"/>
    <tag k="addr:region" v="Москва"/>
    <tag k="addr:street" v="Озёрная аллея"/>
    <tag k="building" v="yes"/>
    <tag k="cladr:code" v="77000002000211000"/>
    <tag k="leisure" v="sports_centre"/>
    <tag k="name" v="Ледовый дворец"/>
    <tag k="sport" v="hockey"/>
  </way>
  <way id="48172608" version="1" timestamp="2010-01-12T14:15:23Z" uid="115477" user="wowik" changeset="3602714">
    <nd ref="612215034"/>
    <nd ref="612215039"/>
    <nd ref="612215043"/>
    <nd ref="612215047"/>
    <nd ref="612215034"/>
    <tag k="addr:city" v="Зеленоград"/>
    <tag k="addr:housenumber" v="1"/>
    <tag k="addr:street" v="Озерная аллея"/>
    <tag k="building" v="yes"/>
    <tag k="is_in" v="Russia"/>
  </way>
  <way id="48172608" version="2" timestamp="2010-01-16T06:21:29Z" uid="11132" user="liosha" changeset="3629402">
    <nd ref="612215034"/>
    <nd ref="612215039"/>
    <nd ref="612215043"/>
    <nd ref="612215047"/>
    <nd ref="612215034"/>
    <tag k="addr:city" v="Зеленоград"/>
    <tag k="addr:housenumber" v="1"/>
    <tag k="addr:street" v="Озёрная аллея"/>
    <tag k="building" v="yes"/>
    <tag k="is_in" v="Russia"/>
  </way>
  <way id="48172608" version="3" timestamp="2010-01-20T07:55:39Z" uid="70202" user="physiocrat" changeset="3664615">
    <nd ref="612215034"/>
    <nd ref="612215039"/>
    <nd ref="612215043"/>
    <nd ref="612215047"/>
    <nd ref="612215034"/>
    <tag k="addr:city" v="Зеленоград"/>
    <tag k="addr:housenumber" v="1"/>
    <tag k="addr:street" v="Озёрная аллея"/>
    <tag k="building" v="yes"/>
    <tag k="cladr:code" v="77000002000211000"/>
    <tag k="is_in" v="Russia"/>
  </way>
  <way id="48172608" version="4" timestamp="2011-01-13T19:13:36Z" uid="115477" user="wowik" changeset="6960458">
    <nd ref="612215034"/>
    <nd ref="1102382347"/>
    <nd ref="1102382361"/>
    <nd ref="1102382350"/>
    <nd ref="1102382381"/>
    <nd ref="1102382375"/>
    <nd ref="1102382367"/>
    <nd ref="612215039"/>
    <nd ref="1102382357"/>
    <nd ref="1102382389"/>
    <nd ref="1102382379"/>
    <nd ref="1102382325"/>
    <nd ref="612215043"/>
    <nd ref="612215047"/>
    <nd ref="1102382383"/>
    <nd ref="1102382348"/>
    <nd ref="612215034"/>
    <tag k="addr:city" v="Зеленоград"/>
    <tag k="addr:housenumber" v="2"/>
    <tag k="addr:street" v="Озёрная аллея"/>
    <tag k="building" v="yes"/>
    <tag k="cladr:code" v="77000002000211000"/>
    <tag k="is_in" v="Russia"/>
  </way>
  <way id="48172608" version="5" timestamp="2011-01-30T17:36:48Z" uid="115477" user="wowik" changeset="7136999">
    <nd ref="612215034"/>
    <nd ref="1102382347"/>
    <nd ref="1102382361"/>
    <nd ref="1102382350"/>
    <nd ref="1102382381"/>
    <nd ref="1102382375"/>
    <nd ref="1102382367"/>
    <nd ref="612215039"/>
    <nd ref="1102382357"/>
    <nd ref="1102382389"/>
    <nd ref="1102382379"/>
    <nd ref="1102382325"/>
    <nd ref="612215043"/>
    <nd ref="612215047"/>
    <nd ref="1102382383"/>
    <nd ref="1102382348"/>
    <nd ref="612215034"/>
    <tag k="addr:city" v="Зеленоград"/>
    <tag k="addr:housenumber" v="2А с?"/>
    <tag k="addr:street" v="Озёрная аллея"/>
    <tag k="building" v="yes"/>
    <tag k="cladr:code" v="77000002000211000"/>
    <tag k="is_in" v="Russia"/>
  </way>
  <way id="48172608" version="6" timestamp="2011-09-13T10:25:17Z" uid="29320" user="Komяpa" changeset="9288237">
    <nd ref="612215034"/>
    <nd ref="1102382347"/>
    <nd ref="1102382361"/>
    <nd ref="1102382350"/>
    <nd ref="1102382381"/>
    <nd ref="1102382375"/>
    <nd ref="1102382367"/>
    <nd ref="612215039"/>
    <nd ref="1102382357"/>
    <nd ref="1102382389"/>
    <nd ref="1102382379"/>
    <nd ref="1102382325"/>
    <nd ref="612215043"/>
    <nd ref="612215047"/>
    <nd ref="1102382383"/>
    <nd ref="1102382348"/>
    <nd ref="612215034"/>
    <tag k="addr:city" v="Зеленоград"/>
    <tag k="addr:country" v="RU"/>
    <tag k="addr:housenumber" v="2А с?"/>
    <tag k="addr:street" v="Озёрная аллея"/>
    <tag k="building" v="yes"/>
    <tag k="cladr:code" v="77000002000211000"/>
  </way>
  <way id="48172608" version="7" timestamp="2012-03-27T11:40:39Z" uid="481934" user="iWowik" changeset="11115472">
    <nd ref="612215034"/>
    <nd ref="1102382347"/>
    <nd ref="1102382361"/>
    <nd ref="1102382350"/>
    <nd ref="1102382381"/>
    <nd ref="1102382375"/>
    <nd ref="1102382367"/>
    <nd ref="612215039"/>
    <nd ref="1102382357"/>
    <nd ref="1102382389"/>
    <nd ref="1102382379"/>
    <nd ref="1102382325"/>
    <nd ref="612215043"/>
    <nd ref="612215047"/>
    <nd ref="1102382383"/>
    <nd ref="1102382348"/>
    <nd ref="612215034"/>
    <tag k="addr:city" v="Зеленоград"/>
    <tag k="addr:country" v="RU"/>
    <tag k="addr:housenumber" v="2А с?"/>
    <tag k="addr:region" v="Москва"/>
    <tag k="addr:street" v="Озёрная аллея"/>
    <tag k="building" v="yes"/>
    <tag k="cladr:code" v="77000002000211000"/>
  </way>
  <way id="48172815" version="1" timestamp="2010-01-12T14:21:24Z" uid="115477" user="wowik" changeset="3603408">
    <nd ref="449799918"/>
    <nd ref="612223470"/>
    <nd ref="612223474"/>
  </way>
  <way id="48172815" version="2" timestamp="2010-01-12T14:24:10Z" uid="115477" user="wowik" changeset="3603408">
    <nd ref="449799918"/>
    <nd ref="612227355"/>
    <nd ref="612223470"/>
    <nd ref="612223474"/>
  </way>
  <way id="48172815" version="3" timestamp="2010-01-12T14:24:27Z" uid="115477" user="wowik" changeset="3603408">
    <nd ref="449799918"/>
    <nd ref="612227355"/>
    <nd ref="612223470"/>
    <nd ref="612223474"/>
    <tag k="highway" v="service"/>
  </way>
  <way id="48172815" version="4" timestamp="2010-01-12T14:25:35Z" uid="115477" user="wowik" changeset="3603408">
    <nd ref="612229115"/>
    <nd ref="612229117"/>
    <nd ref="612229118"/>
    <nd ref="449799918"/>
    <nd ref="612229115"/>
    <nd ref="612227355"/>
    <nd ref="612223470"/>
    <nd ref="612223474"/>
    <tag k="highway" v="service"/>
  </way>
  <way id="48172815" version="5" timestamp="2010-01-12T14:26:01Z" uid="115477" user="wowik" changeset="3603408">
    <nd ref="612229115"/>
    <nd ref="612229117"/>
    <nd ref="612229118"/>
    <nd ref="449799918"/>
    <nd ref="612229115"/>
    <nd ref="612227355"/>
    <nd ref="612223470"/>
    <nd ref="612223474"/>
    <tag k="highway" v="service"/>
    <tag k="service" v="parking_aisle"/>
  </way>
  <way id="48172815" version="6" timestamp="2010-01-12T14:26:07Z" uid="115477" user="wowik" changeset="3603408">
    <nd ref="612229115"/>
    <nd ref="612229117"/>
    <nd ref="612229118"/>
    <nd ref="449799918"/>
    <nd ref="612229115"/>
    <nd ref="612229720"/>
    <nd ref="612227355"/>
    <nd ref="612223470"/>
    <nd ref="612223474"/>
    <tag k="highway" v="service"/>
    <tag k="service" v="parking_aisle"/>
  </way>
  <way id="48172848" version="1" timestamp="2010-01-12T14:21:53Z" uid="115477" user="wowik" changeset="3603408">
    <nd ref="612224024"/>
    <nd ref="612224031"/>
    <nd ref="612224035"/>
    <nd ref="612224041"/>
    <nd ref="612224043"/>
    <nd ref="612224048"/>
    <nd ref="612224053"/>
    <nd ref="612224061"/>
    <nd ref="612224067"/>
    <nd ref="612224073"/>
    <nd ref="612224078"/>
    <nd ref="612224083"/>
    <nd ref="612224098"/>
  </way>
  <way id="48172848" version="2" timestamp="2010-01-12T14:21:55Z" uid="115477" user="wowik" changeset="3603408">
    <nd ref="612224098"/>
    <nd ref="612224031"/>
    <nd ref="612224035"/>
    <nd ref="612224041"/>
    <nd ref="612224043"/>
    <nd ref="612224048"/>
    <nd ref="612224053"/>
    <nd ref="612224061"/>
    <nd ref="612224067"/>
    <nd ref="612224073"/>
    <nd ref="612224078"/>
    <nd ref="612224083"/>
    <nd ref="612224098"/>
  </way>
  <way id="48172848" version="3" timestamp="2010-01-12T14:22:40Z" uid="115477" user="wowik" changeset="3603408">
    <nd ref="612224098"/>
    <nd ref="612225055"/>
    <nd ref="612225066"/>
    <nd ref="612224031"/>
    <nd ref="612224035"/>
    <nd ref="612225118"/>
    <nd ref="612225127"/>
    <nd ref="612224041"/>
    <nd ref="612224043"/>
    <nd ref="612224048"/>
    <nd ref="612224053"/>
    <nd ref="612224061"/>
    <nd ref="612224067"/>
    <nd ref="612224073"/>
    <nd ref="612224078"/>
    <nd ref="612224083"/>
    <nd ref="612224098"/>
  </way>
  <way id="48172848" version="4" timestamp="2010-01-12T14:22:44Z" uid="115477" user="wowik" changeset="3603408">
    <nd ref="612224098"/>
    <nd ref="612225055"/>
    <nd ref="612225066"/>
    <nd ref="612225213"/>
    <nd ref="612224031"/>
    <nd ref="612224035"/>
    <nd ref="612225216"/>
    <nd ref="612225118"/>
    <nd ref="612225127"/>
    <nd ref="612224041"/>
    <nd ref="612224043"/>
    <nd ref="612224048"/>
    <nd ref="612224053"/>
    <nd ref="612224061"/>
    <nd ref="612224067"/>
    <nd ref="612224073"/>
    <nd ref="612224078"/>
    <nd ref="612224083"/>
    <nd ref="612224098"/>
  </way>
  <way id="48172848" version="5" timestamp="2010-01-12T14:23:19Z" uid="115477" user="wowik" changeset="3603408">
    <nd ref="612224098"/>
    <nd ref="612225055"/>
    <nd ref="612225066"/>
    <nd ref="612225213"/>
    <nd ref="612226296"/>
    <nd ref="612224031"/>
    <nd ref="612224035"/>
    <nd ref="612226300"/>
    <nd ref="612225216"/>
    <nd ref="612225118"/>
    <nd ref="612225127"/>
    <nd ref="612224041"/>
    <nd ref="612224043"/>
    <nd ref="612224048"/>
    <nd ref="612224053"/>
    <nd ref="612224061"/>
    <nd ref="612224067"/>
    <nd ref="612224073"/>
    <nd ref="612224078"/>
    <nd ref="612224083"/>
    <nd ref="612224098"/>
  </way>
  <way id="48172848" version="6" timestamp="2010-01-12T14:26:45Z" uid="115477" user="wowik" changeset="3603408">
    <nd ref="612224098"/>
    <nd ref="612225055"/>
    <nd ref="612225066"/>
    <nd ref="612225213"/>
    <nd ref="612226296"/>
    <nd ref="612224031"/>
    <nd ref="612224035"/>
    <nd ref="612226300"/>
    <nd ref="612225216"/>
    <nd ref="612225118"/>
    <nd ref="612225127"/>
    <nd ref="612224041"/>
    <nd ref="612224043"/>
    <nd ref="612224048"/>
    <nd ref="612224053"/>
    <nd ref="612224061"/>
    <nd ref="612224067"/>
    <nd ref="612224073"/>
    <nd ref="612224078"/>
    <nd ref="612224083"/>
    <nd ref="612224098"/>
    <tag k="addr:city" v="Зеленоград"/>
    <tag k="addr:housenumber" v="8С1"/>
    <tag k="addr:street" v="Каштановая аллея"/>
    <tag k="building" v="yes"/>
    <tag k="is_in" v="Russia"/>
    <tag k="name" v="Бюро судебно-медицинской экспертизы"/>
  </way>
  <way id="48172848" version="7" timestamp="2010-01-12T14:26:48Z" uid="115477" user="wowik" changeset="3603408">
    <nd ref="612224098"/>
    <nd ref="612225055"/>
    <nd ref="612225066"/>
    <tag k="addr:city" v="Зеленоград"/>
    <tag k="addr:housenumber" v="8С1"/>
    <tag k="addr:street" v="Каштановая аллея"/>
    <tag k="building" v="yes"/>
    <tag k="is_in" v="Russia"/>
    <tag k="name" v="Бюро судебно-медицинской экспертизы"/>
  </way>
  <way id="48172848" version="8" timestamp="2010-01-12T14:26:51Z" uid="115477" user="wowik" changeset="3603408">
    <nd ref="612224098"/>
    <nd ref="612225055"/>
    <nd ref="612225066"/>
    <nd ref="612225118"/>
    <tag k="addr:city" v="Зеленоград"/>
    <tag k="addr:housenumber" v="8С1"/>
    <tag k="addr:street" v="Каштановая аллея"/>
    <tag k="building" v="yes"/>
    <tag k="is_in" v="Russia"/>
    <tag k="name" v="Бюро судебно-медицинской экспертизы"/>
  </way>
  <way id="48172848" version="9" timestamp="2010-01-12T14:28:14Z" uid="115477" user="wowik" changeset="3603408"/>
  <way id="48172972" version="1" timestamp="2010-01-12T14:24:48Z" uid="115477" user="wowik" changeset="3603408">
    <nd ref="612228072"/>
    <nd ref="612228074"/>
  </way>
  <way id="48172972" version="2" timestamp="2010-01-12T14:26:06Z" uid="115477" user="wowik" changeset="3603408">
    <nd ref="612228072"/>
    <nd ref="612228074"/>
    <nd ref="612229720"/>
  </way>
  <way id="48172972" version="3" timestamp="2010-01-12T14:26:28Z" uid="115477" user="wowik" changeset="3603408">
    <nd ref="612230276"/>
    <nd ref="612228072"/>
    <nd ref="612228074"/>
    <nd ref="612229720"/>
    <tag k="highway" v="service"/>
    <tag k="service" v="parking_aisle"/>
  </way>
  <way id="48172972" version="4" timestamp="2010-01-12T14:28:32Z" uid="115477" user="wowik" changeset="3603408">
    <nd ref="612230276"/>
    <nd ref="612228072"/>
    <nd ref="612232749"/>
    <nd ref="612228074"/>
    <nd ref="612229720"/>
    <tag k="highway" v="service"/>
    <tag k="service" v="parking_aisle"/>
  </way>
  <way id="48172120" version="3" timestamp="2012-07-20T22:17:09Z" uid="722137" user="OSMF Redaction Account" changeset="12394539"/>
  <way id="48172121" version="3" timestamp="2012-07-20T22:17:07Z" uid="722137" user="OSMF Redaction Account" changeset="12394539"/>
  <way id="48172129" version="2" timestamp="2012-07-20T22:17:04Z" uid="722137" user="OSMF Redaction Account" changeset="12394520"/>
  <way id="48172208" version="3" timestamp="2012-07-20T22:17:04Z" uid="722137" user="OSMF Redaction Account" changeset="12394520"/>
  <way id="48172209" version="3" timestamp="2012-07-20T22:17:05Z" uid="722137" user="OSMF Redaction Account" changeset="12394520"/>
  <way id="48172210" version="6" timestamp="2012-07-20T22:07:43Z" uid="722137" user="OSMF Redaction Account" changeset="12394207">
    <nd ref="1516709353"/>
    <nd ref="1384565734"/>
  </way>
  <way id="48172210" version="7" timestamp="2012-08-16T20:59:43Z" uid="314211" user="OldIvantey" changeset="12755662"/>
  <way id="48172606" version="9" timestamp="2012-06-16T06:07:01Z" uid="241531" user="dik_man" changeset="11911181">
    <nd ref="612214956"/>
    <nd ref="612214960"/>
    <nd ref="1107407757"/>
    <nd ref="612214963"/>
    <nd ref="1107407722"/>
    <nd ref="1789578533"/>
    <nd ref="1789578535"/>
    <nd ref="612214967"/>
    <nd ref="1107407756"/>
    <nd ref="1107407689"/>
    <nd ref="1107407704"/>
    <nd ref="612214974"/>
    <nd ref="612214982"/>
    <nd ref="612214987"/>
    <nd ref="612214956"/>
    <tag k="addr:city" v="Зеленоград"/>
    <tag k="addr:country" v="RU"/>
    <tag k="addr:housenumber" v="6"/>
    <tag k="addr:region" v="Москва"/>
    <tag k="addr:street" v="Озёрная аллея"/>
    <tag k="building" v="yes"/>
    <tag k="cladr:code" v="77000002000211000"/>
    <tag k="leisure" v="swimming_pool"/>
    <tag k="name" v="Бассейн"/>
  </way>
  <way id="48172606" version="10" timestamp="2012-07-20T22:09:24Z" uid="722137" user="OSMF Redaction Account" changeset="12394292">
    <nd ref="1789578533"/>
    <nd ref="1789578535"/>
    <tag k="addr:country" v="RU"/>
    <tag k="addr:region" v="Москва"/>
    <tag k="addr:street" v="Озёрная аллея"/>
    <tag k="cladr:code" v="77000002000211000"/>
    <tag k="name" v="Бассейн"/>
  </way>
  <way id="48172606" version="11" timestamp="2012-08-09T21:49:29Z" uid="109327" user="OverQuantum" changeset="12674276">
    <nd ref="1789578533"/>
    <nd ref="1859443804"/>
    <nd ref="1789578535"/>
    <nd ref="1859443795"/>
    <nd ref="1859443785"/>
    <nd ref="1859443783"/>
    <nd ref="1859443780"/>
    <nd ref="1859443781"/>
    <nd ref="1859443740"/>
    <nd ref="1859443746"/>
    <nd ref="1859443770"/>
    <nd ref="1859443772"/>
    <nd ref="1859443778"/>
    <nd ref="1859443782"/>
    <nd ref="1859443784"/>
    <nd ref="1859443786"/>
    <nd ref="1859443793"/>
    <nd ref="1859443797"/>
    <nd ref="1789578533"/>
    <tag k="addr:city" v="Зеленоград"/>
    <tag k="addr:country" v="RU"/>
    <tag k="addr:region" v="Москва"/>
    <tag k="addr:street" v="Озёрная аллея"/>
    <tag k="building" v="yes"/>
    <tag k="cladr:code" v="77000002000211000"/>
    <tag k="leisure" v="swimming_pool"/>
    <tag k="name" v="Бассейн"/>
  </way>
  <way id="48172607" version="8" timestamp="2012-06-16T06:07:01Z" uid="241531" user="dik_man" changeset="11911181">
    <nd ref="612214999"/>
    <nd ref="612215003"/>
    <nd ref="612215008"/>
    <nd ref="612215011"/>
    <nd ref="1789578522"/>
    <nd ref="1789578523"/>
    <nd ref="1789578524"/>
    <nd ref="1789578525"/>
    <nd ref="1789578526"/>
    <nd ref="1789578528"/>
    <nd ref="1789578532"/>
    <nd ref="1789578531"/>
    <nd ref="612214999"/>
    <tag k="addr:city" v="Зеленоград"/>
    <tag k="addr:country" v="RU"/>
    <tag k="addr:housenumber" v="4"/>
    <tag k="addr:region" v="Москва"/>
    <tag k="addr:street" v="Озёрная аллея"/>
    <tag k="building" v="yes"/>
    <tag k="cladr:code" v="77000002000211000"/>
    <tag k="leisure" v="sports_centre"/>
    <tag k="name" v="Ледовый дворец"/>
    <tag k="sport" v="hockey"/>
  </way>
  <way id="48172607" version="9" timestamp="2012-07-20T22:09:29Z" uid="722137" user="OSMF Redaction Account" changeset="12394292">
    <nd ref="1789578522"/>
    <nd ref="1789578523"/>
    <nd ref="1789578524"/>
    <nd ref="1789578525"/>
    <nd ref="1789578526"/>
    <nd ref="1789578528"/>
    <nd ref="1789578532"/>
    <nd ref="1789578531"/>
    <tag k="addr:country" v="RU"/>
    <tag k="addr:region" v="Москва"/>
    <tag k="addr:street" v="Озёрная аллея"/>
    <tag k="cladr:code" v="77000002000211000"/>
    <tag k="leisure" v="sports_centre"/>
    <tag k="name" v="Ледовый дворец"/>
    <tag k="sport" v="hockey"/>
  </way>
  <way id="48172607" version="10" timestamp="2012-08-09T21:49:30Z" uid="109327" user="OverQuantum" changeset="12674276">
    <nd ref="1789578522"/>
    <nd ref="1789578523"/>
    <nd ref="1789578524"/>
    <nd ref="1789578525"/>
    <nd ref="1789578526"/>
    <nd ref="1789578528"/>
    <nd ref="1789578532"/>
    <nd ref="1789578531"/>
    <nd ref="1859443859"/>
    <nd ref="1859443819"/>
    <nd ref="1859443813"/>
    <nd ref="1859443844"/>
    <nd ref="1789578522"/>
    <tag k="addr:country" v="RU"/>
    <tag k="addr:region" v="Москва"/>
    <tag k="addr:street" v="Озёрная аллея"/>
    <tag k="cladr:code" v="77000002000211000"/>
    <tag k="leisure" v="sports_centre"/>
    <tag k="name" v="Ледовый дворец"/>
    <tag k="sport" v="hockey"/>
  </way>
  <way id="48172608" version="8" timestamp="2012-07-20T22:17:10Z" uid="722137" user="OSMF Redaction Account" changeset="12394539"/>
  <way id="48172815" version="7" timestamp="2012-07-20T22:17:01Z" uid="722137" user="OSMF Redaction Account" changeset="12394520"/>
  <way id="48172972" version="5" timestamp="2012-07-20T22:16:58Z" uid="722137" user="OSMF Redaction Account" changeset="12394520"/>
</osm>
