<?xml version='1.0' encoding='UTF-8'?>
<osm version="0.6" generator="libosmium/2.20.0">
  <way id="48276231" version="1" timestamp="2010-01-14T12:06:39Z" uid="53938" user="ctheile" changeset="3616471">
    <nd ref="613409019"/>
    <nd ref="613409021"/>
    <nd ref="613409022"/>
    <nd ref="613409023"/>
    <nd ref="613409019"/>
    <tag k="amenity" v="marketplace"/>
    <tag k="building" v="yes"/>
    <tag k="name" v="Marché central"/>
  </way>
  <way id="48276320" version="1" timestamp="2010-01-14T12:14:57Z" uid="20587" user="balrog-kun" changeset="3616517">
    <nd ref="111534729"/>
    <nd ref="35969939"/>
    <nd ref="332014772"/>
    <nd ref="248463120"/>
    <nd ref="35969943"/>
    <nd ref="322366881"/>
    <nd ref="322366879"/>
    <tag k="admin_level" v="10"/>
    <tag k="boundary" v="administrative"/>
    <tag k="left:parish" v="Saska Kępa"/>
    <tag k="right:parish" v="Kamionek"/>
    <tag k="source" v="wikipedia"/>
  </way>
  <way id="48276320" version="2" timestamp="2011-02-14T15:26:01Z" uid="20587" user="balrog-kun" changeset="7286624">
    <nd ref="111534729"/>
    <nd ref="1152850608"/>
    <nd ref="35969939"/>
    <nd ref="332014772"/>
    <nd ref="248463120"/>
    <nd ref="35969943"/>
    <nd ref="322366881"/>
    <nd ref="322366879"/>
    <tag k="admin_level" v="10"/>
    <tag k="boundary" v="administrative"/>
    <tag k="left:parish" v="Saska Kępa"/>
    <tag k="right:parish" v="Kamionek"/>
    <tag k="source" v="wikipedia"/>
  </way>
  <way id="48276320" version="3" timestamp="2011-10-06T13:49:15Z" uid="99386" user="masti" changeset="9485722">
    <nd ref="111534729"/>
    <nd ref="1152850608"/>
    <nd ref="35969939"/>
    <nd ref="332014772"/>
    <nd ref="248463120"/>
    <nd ref="35969943"/>
    <nd ref="322366881"/>
    <nd ref="1456798380"/>
    <nd ref="322366879"/>
    <tag k="admin_level" v="10"/>
    <tag k="boundary" v="administrative"/>
    <tag k="left:parish" v="Saska Kępa"/>
    <tag k="right:parish" v="Kamionek"/>
    <tag k="source" v="wikipedia"/>
  </way>
  <way id="48276320" version="4" timestamp="2011-10-17T21:30:07Z" uid="99386" user="masti" changeset="9586635">
    <nd ref="111534729"/>
    <nd ref="1152850608"/>
    <nd ref="1471256163"/>
    <nd ref="35969939"/>
    <nd ref="332014772"/>
    <nd ref="248463120"/>
    <nd ref="35969943"/>
    <nd ref="322366881"/>
    <nd ref="1456798380"/>
    <nd ref="322366879"/>
    <tag k="admin_level" v="10"/>
    <tag k="boundary" v="administrative"/>
    <tag k="left:parish" v="Saska Kępa"/>
    <tag k="right:parish" v="Kamionek"/>
    <tag k="source" v="wikipedia"/>
  </way>
  <way id="48276321" version="1" timestamp="2010-01-14T12:14:58Z" uid="20587" user="balrog-kun" changeset="3616517">
    <nd ref="255304622"/>
    <nd ref="32892157"/>
    <nd ref="248564726"/>
    <nd ref="32892150"/>
    <tag k="highway" v="tertiary"/>
    <tag k="name" v="Nowy Świat"/>
  </way>
  <way id="48276321" version="2" timestamp="2010-05-01T17:19:35Z" uid="20587" user="balrog-kun" changeset="4577369">
    <nd ref="255304622"/>
    <nd ref="32892157"/>
    <nd ref="248564726"/>
    <nd ref="32892150"/>
    <tag k="highway" v="tertiary"/>
    <tag k="lanes" v="4"/>
    <tag k="name" v="Nowy Świat"/>
  </way>
  <way id="48276322" version="1" timestamp="2010-01-14T12:14:58Z" uid="20587" user="balrog-kun" changeset="3616517">
    <nd ref="254518005"/>
    <nd ref="248204263"/>
    <nd ref="533674901"/>
    <nd ref="302874457"/>
    <nd ref="341640328"/>
    <nd ref="341640337"/>
    <nd ref="248204290"/>
    <nd ref="300421384"/>
    <nd ref="341640315"/>
    <nd ref="341640325"/>
    <nd ref="300421379"/>
    <nd ref="248207168"/>
    <nd ref="111534740"/>
    <nd ref="339308754"/>
    <nd ref="266185989"/>
    <nd ref="339308751"/>
    <nd ref="341640073"/>
    <nd ref="325866604"/>
    <nd ref="325866595"/>
    <nd ref="325866587"/>
    <nd ref="325866610"/>
    <nd ref="251880625"/>
    <tag k="highway" v="tertiary"/>
    <tag k="name" v="Międzynarodowa"/>
    <tag k="wikipedia" v="pl:Ulica Międzynarodowa w Warszawie"/>
  </way>
  <way id="48276322" version="2" timestamp="2010-05-01T17:19:07Z" uid="20587" user="balrog-kun" changeset="4577369">
    <nd ref="254518005"/>
    <nd ref="248204263"/>
    <nd ref="533674901"/>
    <nd ref="302874457"/>
    <nd ref="341640328"/>
    <nd ref="341640337"/>
    <nd ref="248204290"/>
    <nd ref="300421384"/>
    <nd ref="341640315"/>
    <nd ref="341640325"/>
    <nd ref="300421379"/>
    <nd ref="248207168"/>
    <nd ref="111534740"/>
    <nd ref="339308754"/>
    <nd ref="266185989"/>
    <nd ref="339308751"/>
    <nd ref="341640073"/>
    <nd ref="325866604"/>
    <nd ref="325866595"/>
    <nd ref="325866587"/>
    <nd ref="325866610"/>
    <nd ref="251880625"/>
    <tag k="highway" v="tertiary"/>
    <tag k="lanes" v="2"/>
    <tag k="name" v="Międzynarodowa"/>
    <tag k="wikipedia" v="pl:Ulica Międzynarodowa w Warszawie"/>
  </way>
  <way id="48276322" version="3" timestamp="2011-10-07T18:03:25Z" uid="373244" user="Tomekg" changeset="9496242">
    <nd ref="111534729"/>
    <nd ref="254518005"/>
    <nd ref="248204263"/>
    <nd ref="533674901"/>
    <nd ref="302874457"/>
    <nd ref="341640328"/>
    <nd ref="341640337"/>
    <nd ref="248204290"/>
    <nd ref="300421384"/>
    <nd ref="341640315"/>
    <nd ref="341640325"/>
    <nd ref="300421379"/>
    <nd ref="248207168"/>
    <nd ref="111534740"/>
    <nd ref="339308754"/>
    <nd ref="266185989"/>
    <nd ref="339308751"/>
    <nd ref="341640073"/>
    <nd ref="325866604"/>
    <nd ref="325866595"/>
    <nd ref="325866587"/>
    <nd ref="325866610"/>
    <nd ref="251880625"/>
    <tag k="highway" v="tertiary"/>
    <tag k="lanes" v="2"/>
    <tag k="name" v="Międzynarodowa"/>
    <tag k="wikipedia" v="pl:Ulica Międzynarodowa w Warszawie"/>
  </way>
  <way id="48276323" version="1" timestamp="2010-01-14T12:14:58Z" uid="20587" user="balrog-kun" changeset="3616517">
    <nd ref="35969940"/>
    <nd ref="322391096"/>
    <nd ref="35969941"/>
    <nd ref="370880459"/>
    <nd ref="246804730"/>
    <nd ref="340325784"/>
    <nd ref="111534769"/>
    <nd ref="332014753"/>
    <nd ref="35969942"/>
    <nd ref="248207234"/>
    <nd ref="343564880"/>
    <nd ref="34465659"/>
    <tag k="highway" v="secondary"/>
    <tag k="name" v="Aleja Jerzego Waszyngtona"/>
    <tag k="old_name" v="Poniatowskiego"/>
    <tag k="ref" v="631"/>
    <tag k="wikipedia" v="pl:Aleja Jerzego Waszyngtona w Warszawie"/>
  </way>
  <way id="48276323" version="2" timestamp="2010-02-19T12:45:52Z" uid="20587" user="balrog-kun" changeset="3915318">
    <nd ref="35969940"/>
    <nd ref="322391096"/>
    <nd ref="35969941"/>
    <nd ref="370880459"/>
    <nd ref="246804730"/>
    <nd ref="340325784"/>
    <nd ref="111534769"/>
    <nd ref="332014753"/>
    <nd ref="35969942"/>
    <nd ref="248207234"/>
    <nd ref="343564880"/>
    <nd ref="34465659"/>
    <tag k="highway" v="secondary"/>
    <tag k="maxweight" v="10"/>
    <tag k="name" v="Aleja Jerzego Waszyngtona"/>
    <tag k="old_name" v="Poniatowskiego"/>
    <tag k="ref" v="631"/>
    <tag k="wikipedia" v="pl:Aleja Jerzego Waszyngtona w Warszawie"/>
  </way>
  <way id="48276323" version="3" timestamp="2010-02-26T12:27:42Z" uid="20587" user="balrog-kun" changeset="3979731">
    <nd ref="35969940"/>
    <nd ref="322391096"/>
    <nd ref="35969941"/>
    <nd ref="370880459"/>
    <nd ref="246804730"/>
    <nd ref="340325784"/>
    <nd ref="111534769"/>
    <nd ref="332014753"/>
    <nd ref="35969942"/>
    <nd ref="248207234"/>
    <nd ref="343564880"/>
    <nd ref="34465659"/>
    <tag k="highway" v="secondary"/>
    <tag k="maxheight" v="3.5"/>
    <tag k="maxweight" v="10"/>
    <tag k="name" v="Aleja Jerzego Waszyngtona"/>
    <tag k="old_name" v="Poniatowskiego"/>
    <tag k="ref" v="631"/>
    <tag k="wikipedia" v="pl:Aleja Jerzego Waszyngtona w Warszawie"/>
  </way>
  <way id="48276323" version="4" timestamp="2010-04-26T01:19:56Z" uid="20587" user="balrog-kun" changeset="4527911">
    <nd ref="35969940"/>
    <nd ref="322391096"/>
    <nd ref="35969941"/>
    <tag k="highway" v="secondary"/>
    <tag k="maxheight" v="3.5"/>
    <tag k="maxweight" v="10"/>
    <tag k="name" v="Aleja Jerzego Waszyngtona"/>
    <tag k="old_name" v="Poniatowskiego"/>
    <tag k="ref" v="631"/>
    <tag k="wikipedia" v="pl:Aleja Jerzego Waszyngtona w Warszawie"/>
  </way>
  <way id="48276323" version="5" timestamp="2010-05-01T17:19:17Z" uid="20587" user="balrog-kun" changeset="4577369">
    <nd ref="35969940"/>
    <nd ref="322391096"/>
    <nd ref="35969941"/>
    <tag k="highway" v="secondary"/>
    <tag k="lanes" v="6"/>
    <tag k="maxheight" v="3.5"/>
    <tag k="maxweight" v="10"/>
    <tag k="name" v="Aleja Jerzego Waszyngtona"/>
    <tag k="old_name" v="Poniatowskiego"/>
    <tag k="ref" v="631"/>
    <tag k="wikipedia" v="pl:Aleja Jerzego Waszyngtona w Warszawie"/>
  </way>
  <way id="48276323" version="6" timestamp="2010-11-19T00:44:54Z" uid="20587" user="balrog-kun" changeset="6404193">
    <nd ref="35969940"/>
    <nd ref="322391096"/>
    <nd ref="35969941"/>
    <tag k="agricultural" v="no"/>
    <tag k="highway" v="secondary"/>
    <tag k="lanes" v="6"/>
    <tag k="maxheight" v="3.5"/>
    <tag k="maxweight" v="10"/>
    <tag k="name" v="Aleja Jerzego Waszyngtona"/>
    <tag k="old_name" v="Poniatowskiego"/>
    <tag k="ref" v="631"/>
    <tag k="wikipedia" v="pl:Aleja Jerzego Waszyngtona w Warszawie"/>
  </way>
  <way id="48276324" version="1" timestamp="2010-01-14T12:14:59Z" uid="20587" user="balrog-kun" changeset="3616517">
    <nd ref="111534729"/>
    <nd ref="254518005"/>
    <tag k="highway" v="tertiary"/>
    <tag k="name" v="Międzynarodowa"/>
    <tag k="wikipedia" v="pl:Ulica Międzynarodowa w Warszawie"/>
  </way>
  <way id="48276324" version="2" timestamp="2010-05-01T17:19:50Z" uid="20587" user="balrog-kun" changeset="4577369">
    <nd ref="111534729"/>
    <nd ref="254518005"/>
    <tag k="highway" v="tertiary"/>
    <tag k="lanes" v="2"/>
    <tag k="name" v="Międzynarodowa"/>
    <tag k="wikipedia" v="pl:Ulica Międzynarodowa w Warszawie"/>
  </way>
  <way id="48276324" version="3" timestamp="2011-10-07T18:03:34Z" uid="373244" user="Tomekg" changeset="9496242"/>
  <way id="48276325" version="1" timestamp="2010-01-14T12:14:59Z" uid="20587" user="balrog-kun" changeset="3616517">
    <nd ref="111534729"/>
    <nd ref="300421393"/>
    <nd ref="35969940"/>
    <tag k="highway" v="secondary"/>
    <tag k="name" v="Aleja Jerzego Waszyngtona"/>
    <tag k="old_name" v="Poniatowskiego"/>
    <tag k="ref" v="631"/>
    <tag k="wikipedia" v="pl:Aleja Jerzego Waszyngtona w Warszawie"/>
  </way>
  <way id="48276325" version="2" timestamp="2010-02-19T12:45:53Z" uid="20587" user="balrog-kun" changeset="3915318">
    <nd ref="111534729"/>
    <nd ref="300421393"/>
    <nd ref="35969940"/>
    <tag k="highway" v="secondary"/>
    <tag k="maxweight" v="10"/>
    <tag k="name" v="Aleja Jerzego Waszyngtona"/>
    <tag k="old_name" v="Poniatowskiego"/>
    <tag k="ref" v="631"/>
    <tag k="wikipedia" v="pl:Aleja Jerzego Waszyngtona w Warszawie"/>
  </way>
  <way id="48276325" version="3" timestamp="2010-05-01T17:18:49Z" uid="20587" user="balrog-kun" changeset="4577369">
    <nd ref="111534729"/>
    <nd ref="300421393"/>
    <nd ref="35969940"/>
    <tag k="highway" v="secondary"/>
    <tag k="lanes" v="6"/>
    <tag k="maxweight" v="10"/>
    <tag k="name" v="Aleja Jerzego Waszyngtona"/>
    <tag k="old_name" v="Poniatowskiego"/>
    <tag k="ref" v="631"/>
    <tag k="wikipedia" v="pl:Aleja Jerzego Waszyngtona w Warszawie"/>
  </way>
  <way id="48276325" version="4" timestamp="2010-11-19T00:44:32Z" uid="20587" user="balrog-kun" changeset="6404193">
    <nd ref="111534729"/>
    <nd ref="300421393"/>
    <nd ref="35969940"/>
    <tag k="agricultural" v="no"/>
    <tag k="highway" v="secondary"/>
    <tag k="lanes" v="6"/>
    <tag k="maxweight" v="10"/>
    <tag k="name" v="Aleja Jerzego Waszyngtona"/>
    <tag k="old_name" v="Poniatowskiego"/>
    <tag k="ref" v="631"/>
    <tag k="wikipedia" v="pl:Aleja Jerzego Waszyngtona w Warszawie"/>
  </way>
  <way id="48276325" version="5" timestamp="2010-12-08T21:30:14Z" uid="99386" user="masti" changeset="6589724">
    <nd ref="111534729"/>
    <nd ref="300421393"/>
    <nd ref="35969940"/>
    <tag k="agricultural" v="no"/>
    <tag k="highway" v="secondary"/>
    <tag k="lanes" v="4"/>
    <tag k="maxweight" v="10"/>
    <tag k="name" v="Aleja Jerzego Waszyngtona"/>
    <tag k="old_name" v="Poniatowskiego"/>
    <tag k="ref" v="631"/>
    <tag k="wikipedia" v="pl:Aleja Jerzego Waszyngtona w Warszawie"/>
  </way>
  <way id="48276326" version="1" timestamp="2010-01-14T12:15:00Z" uid="20587" user="balrog-kun" changeset="3616517">
    <nd ref="111534769"/>
    <nd ref="255161029"/>
    <nd ref="333678388"/>
    <nd ref="248566267"/>
    <nd ref="246804732"/>
    <nd ref="310023947"/>
    <nd ref="310023945"/>
    <nd ref="310023943"/>
    <nd ref="310023942"/>
    <nd ref="111534780"/>
    <tag k="highway" v="tertiary"/>
    <tag k="name" v="Grenadierów"/>
    <tag k="oneway" v="yes"/>
  </way>
  <way id="48276326" version="2" timestamp="2010-01-24T14:10:48Z" uid="20587" user="balrog-kun" changeset="3701368">
    <nd ref="111534769"/>
    <nd ref="255161029"/>
    <nd ref="333678388"/>
    <nd ref="248566267"/>
    <nd ref="246804732"/>
    <nd ref="310023947"/>
    <nd ref="310023945"/>
    <nd ref="310023943"/>
    <nd ref="310023942"/>
    <nd ref="111534780"/>
    <tag k="highway" v="tertiary"/>
    <tag k="maxweight" v="10"/>
    <tag k="name" v="Grenadierów"/>
    <tag k="oneway" v="yes"/>
  </way>
  <way id="48276326" version="3" timestamp="2010-12-21T18:00:37Z" uid="20587" user="balrog-kun" changeset="6727621">
    <nd ref="111534769"/>
    <nd ref="255161029"/>
    <nd ref="333678388"/>
    <nd ref="248566267"/>
    <nd ref="246804732"/>
    <nd ref="310023947"/>
    <nd ref="310023945"/>
    <nd ref="310023943"/>
    <nd ref="310023942"/>
    <nd ref="111534780"/>
    <tag k="agricultural" v="no"/>
    <tag k="highway" v="tertiary"/>
    <tag k="maxweight" v="10"/>
    <tag k="name" v="Grenadierów"/>
    <tag k="oneway" v="yes"/>
  </way>
  <way id="48276327" version="1" timestamp="2010-01-14T12:15:00Z" uid="20587" user="balrog-kun" changeset="3616517">
    <nd ref="248207224"/>
    <nd ref="533674908"/>
    <nd ref="255161027"/>
    <nd ref="111534769"/>
    <tag k="highway" v="tertiary"/>
    <tag k="name" v="Grenadierów"/>
    <tag k="oneway" v="yes"/>
    <tag k="oneway:emergency" v="no"/>
  </way>
  <way id="48276328" version="1" timestamp="2010-01-14T12:15:00Z" uid="20587" user="balrog-kun" changeset="3616517">
    <nd ref="32599938"/>
    <nd ref="252343349"/>
    <nd ref="36309933"/>
    <nd ref="32599936"/>
    <nd ref="416569691"/>
    <nd ref="222045940"/>
    <tag k="highway" v="secondary"/>
    <tag k="int_ref" v="E67"/>
    <tag k="name" v="Aleja Solidarności"/>
    <tag k="oneway" v="yes"/>
    <tag k="ref" v="629"/>
    <tag k="wikipedia" v="pl:Aleja &quot;Solidarności&quot; w Warszawie"/>
  </way>
  <way id="48276328" version="2" timestamp="2010-01-21T14:14:38Z" uid="20587" user="balrog-kun" changeset="3674979">
    <nd ref="32599938"/>
    <nd ref="617647497"/>
    <nd ref="252343349"/>
    <nd ref="36309933"/>
    <nd ref="32599936"/>
    <nd ref="416569691"/>
    <nd ref="222045940"/>
    <tag k="highway" v="secondary"/>
    <tag k="int_ref" v="E67"/>
    <tag k="name" v="Aleja Solidarności"/>
    <tag k="oneway" v="yes"/>
    <tag k="ref" v="629"/>
    <tag k="wikipedia" v="pl:Aleja &quot;Solidarności&quot; w Warszawie"/>
  </way>
  <way id="48276328" version="3" timestamp="2011-08-12T15:45:08Z" uid="373244" user="Tomaszg" changeset="8996594">
    <nd ref="32599938"/>
    <nd ref="617647497"/>
    <nd ref="1396132666"/>
    <nd ref="252343349"/>
    <nd ref="36309933"/>
    <nd ref="1396132663"/>
    <nd ref="32599936"/>
    <nd ref="416569691"/>
    <nd ref="222045940"/>
    <tag k="highway" v="secondary"/>
    <tag k="int_ref" v="E67"/>
    <tag k="name" v="Aleja Solidarności"/>
    <tag k="oneway" v="yes"/>
    <tag k="ref" v="629"/>
    <tag k="wikipedia" v="pl:Aleja &quot;Solidarności&quot; w Warszawie"/>
  </way>
  <way id="48276328" version="4" timestamp="2011-08-12T15:55:59Z" uid="373244" user="Tomaszg" changeset="8996594">
    <nd ref="32599938"/>
    <nd ref="617647497"/>
    <nd ref="1396132666"/>
    <nd ref="252343349"/>
    <nd ref="36309933"/>
    <nd ref="1396132663"/>
    <nd ref="32599936"/>
    <nd ref="416569691"/>
    <nd ref="1396138198"/>
    <nd ref="222045940"/>
    <tag k="highway" v="secondary"/>
    <tag k="int_ref" v="E67"/>
    <tag k="name" v="Aleja Solidarności"/>
    <tag k="oneway" v="yes"/>
    <tag k="ref" v="629"/>
    <tag k="wikipedia" v="pl:Aleja &quot;Solidarności&quot; w Warszawie"/>
  </way>
  <way id="48276328" version="5" timestamp="2011-09-02T20:46:38Z" uid="373244" user="Tomaszg" changeset="9195552">
    <nd ref="32599938"/>
    <nd ref="617647497"/>
    <nd ref="1396132666"/>
    <nd ref="252343349"/>
    <nd ref="1396132663"/>
    <nd ref="32599936"/>
    <nd ref="416569691"/>
    <nd ref="1396138198"/>
    <nd ref="222045940"/>
    <tag k="highway" v="secondary"/>
    <tag k="int_ref" v="E67"/>
    <tag k="name" v="Aleja Solidarności"/>
    <tag k="oneway" v="yes"/>
    <tag k="ref" v="629"/>
    <tag k="wikipedia" v="pl:Aleja &quot;Solidarności&quot; w Warszawie"/>
  </way>
  <way id="48276328" version="6" timestamp="2011-09-02T21:38:29Z" uid="373244" user="Tomaszg" changeset="9195552">
    <nd ref="32599938"/>
    <nd ref="617647497"/>
    <nd ref="1396132666"/>
    <nd ref="252343349"/>
    <nd ref="1421394907"/>
    <nd ref="1396132663"/>
    <nd ref="32599936"/>
    <nd ref="416569691"/>
    <nd ref="1396138198"/>
    <nd ref="222045940"/>
    <tag k="highway" v="secondary"/>
    <tag k="int_ref" v="E67"/>
    <tag k="name" v="Aleja Solidarności"/>
    <tag k="oneway" v="yes"/>
    <tag k="ref" v="629"/>
    <tag k="wikipedia" v="pl:Aleja &quot;Solidarności&quot; w Warszawie"/>
  </way>
  <way id="48276328" version="7" timestamp="2011-09-20T22:00:07Z" uid="373244" user="Tomekg" changeset="9355880">
    <nd ref="32599938"/>
    <nd ref="617647497"/>
    <nd ref="1396132666"/>
    <nd ref="252343349"/>
    <tag k="highway" v="secondary"/>
    <tag k="int_ref" v="E67"/>
    <tag k="name" v="Aleja Solidarności"/>
    <tag k="oneway" v="yes"/>
    <tag k="ref" v="629"/>
    <tag k="wikipedia" v="pl:Aleja &quot;Solidarności&quot; w Warszawie"/>
  </way>
  <way id="48276328" version="8" timestamp="2011-09-26T19:30:15Z" uid="373244" user="Tomekg" changeset="9405008">
    <nd ref="32599938"/>
    <nd ref="617647497"/>
    <nd ref="1446467191"/>
    <nd ref="1396132666"/>
    <nd ref="252343349"/>
    <tag k="highway" v="secondary"/>
    <tag k="int_ref" v="E67"/>
    <tag k="name" v="Aleja Solidarności"/>
    <tag k="oneway" v="yes"/>
    <tag k="ref" v="629"/>
    <tag k="wikipedia" v="pl:Aleja &quot;Solidarności&quot; w Warszawie"/>
  </way>
  <way id="48276328" version="9" timestamp="2011-10-14T12:19:58Z" uid="373244" user="Tomekg" changeset="9554956">
    <nd ref="36309940"/>
    <nd ref="32599938"/>
    <nd ref="617647497"/>
    <nd ref="1446467191"/>
    <nd ref="1466925688"/>
    <tag k="access" v="no"/>
    <tag k="bicycle" v="yes"/>
    <tag k="highway" v="secondary"/>
    <tag k="int_ref" v="E67"/>
    <tag k="name" v="Aleja Solidarności"/>
    <tag k="psv" v="yes"/>
    <tag k="ref" v="629"/>
    <tag k="wikipedia" v="pl:Aleja &quot;Solidarności&quot; w Warszawie"/>
  </way>
  <way id="48276328" version="10" timestamp="2011-10-14T12:35:11Z" uid="373244" user="Tomekg" changeset="9554956">
    <nd ref="36309940"/>
    <nd ref="32599938"/>
    <nd ref="617647497"/>
    <nd ref="1446467191"/>
    <nd ref="1466925688"/>
    <tag k="access" v="no"/>
    <tag k="bicycle" v="yes"/>
    <tag k="highway" v="secondary"/>
    <tag k="int_ref" v="E67"/>
    <tag k="name" v="Aleja Solidarności"/>
    <tag k="psv" v="yes"/>
    <tag k="ref" v="629"/>
    <tag k="wikipedia" v="pl:Aleja &quot;Solidarności&quot; w Warszawie"/>
  </way>
  <way id="48276329" version="1" timestamp="2010-01-14T12:15:00Z" uid="20587" user="balrog-kun" changeset="3616517">
    <nd ref="36309939"/>
    <nd ref="254518059"/>
    <nd ref="448035362"/>
    <nd ref="254518062"/>
    <nd ref="613410988"/>
    <nd ref="32599938"/>
    <tag k="highway" v="secondary"/>
    <tag k="int_ref" v="E67"/>
    <tag k="name" v="Aleja Solidarności"/>
    <tag k="oneway" v="yes"/>
    <tag k="ref" v="629"/>
    <tag k="wikipedia" v="pl:Aleja &quot;Solidarności&quot; w Warszawie"/>
  </way>
  <way id="48276329" version="2" timestamp="2010-01-21T14:14:39Z" uid="20587" user="balrog-kun" changeset="3674979">
    <nd ref="36309939"/>
    <nd ref="617647499"/>
    <nd ref="254518059"/>
    <nd ref="448035362"/>
    <nd ref="254518062"/>
    <nd ref="613410988"/>
    <nd ref="32599938"/>
    <tag k="highway" v="secondary"/>
    <tag k="int_ref" v="E67"/>
    <tag k="name" v="Aleja Solidarności"/>
    <tag k="oneway" v="yes"/>
    <tag k="ref" v="629"/>
    <tag k="wikipedia" v="pl:Aleja &quot;Solidarności&quot; w Warszawie"/>
  </way>
  <way id="48276329" version="3" timestamp="2011-09-20T21:37:15Z" uid="373244" user="Tomekg" changeset="9355880">
    <nd ref="36309939"/>
    <nd ref="32599938"/>
    <tag k="highway" v="secondary"/>
    <tag k="int_ref" v="E67"/>
    <tag k="name" v="Aleja Solidarności"/>
    <tag k="oneway" v="yes"/>
    <tag k="ref" v="629"/>
    <tag k="wikipedia" v="pl:Aleja &quot;Solidarności&quot; w Warszawie"/>
  </way>
  <way id="48276329" version="4" timestamp="2011-10-14T12:19:58Z" uid="373244" user="Tomekg" changeset="9554956">
    <nd ref="36309939"/>
    <nd ref="32599938"/>
    <tag k="highway" v="construction"/>
    <tag k="int_ref" v="E67"/>
    <tag k="name" v="Aleja Solidarności"/>
    <tag k="oneway" v="yes"/>
    <tag k="ref" v="629"/>
    <tag k="wikipedia" v="pl:Aleja &quot;Solidarności&quot; w Warszawie"/>
  </way>
  <way id="48276329" version="5" timestamp="2011-10-14T12:35:11Z" uid="373244" user="Tomekg" changeset="9554956">
    <nd ref="36309939"/>
    <nd ref="32599938"/>
    <tag k="construction" v="secondary"/>
    <tag k="highway" v="construction"/>
    <tag k="int_ref" v="E67"/>
    <tag k="name" v="Aleja Solidarności"/>
    <tag k="oneway" v="yes"/>
    <tag k="ref" v="629"/>
    <tag k="wikipedia" v="pl:Aleja &quot;Solidarności&quot; w Warszawie"/>
  </way>
  <way id="48276353" version="2" timestamp="2010-05-03T08:41:34Z" uid="4467" user="Rosscoe" changeset="4592736">
    <nd ref="718488594"/>
    <nd ref="602404762"/>
    <nd ref="602412090"/>
    <tag k="highway" v="residential"/>
    <tag k="name" v="McLaughlans Lane"/>
  </way>
  <way id="48276353" version="3" timestamp="2010-07-09T03:46:00Z" uid="74617" user="JohnSmith" changeset="5170825">
    <nd ref="718488594"/>
    <nd ref="602404762"/>
    <nd ref="602412090"/>
    <tag k="highway" v="residential"/>
    <tag k="maxspeed" v="50"/>
    <tag k="maxspeed:source" v="default residential speed limit in Australia"/>
    <tag k="name" v="McLaughlans Lane"/>
  </way>
  <way id="48276353" version="4" timestamp="2012-01-19T21:47:38Z" uid="147510" user="woodpeck_fixbot" changeset="10440306">
    <nd ref="718488594"/>
    <nd ref="602404762"/>
    <nd ref="602412090"/>
    <tag k="highway" v="residential"/>
    <tag k="name" v="McLaughlans Lane"/>
  </way>
  <way id="48276482" version="2" timestamp="2010-04-05T14:04:04Z" uid="7617" user="Franc" changeset="4333486"/>
  <way id="48276743" version="2" timestamp="2010-01-30T14:20:13Z" uid="7617" user="Franc" changeset="3751302">
    <nd ref="613414440"/>
    <nd ref="613414449"/>
    <nd ref="613414454"/>
    <nd ref="613414450"/>
    <nd ref="613414447"/>
    <nd ref="613414448"/>
    <nd ref="613414452"/>
    <nd ref="613414453"/>
    <nd ref="613414441"/>
    <nd ref="613414443"/>
    <nd ref="613414444"/>
    <nd ref="613414445"/>
    <nd ref="613414446"/>
    <nd ref="613414440"/>
    <tag k="leisure" v="park"/>
    <tag k="source" v="nearmap"/>
  </way>
  <way id="48276745" version="2" timestamp="2010-04-17T07:38:09Z" uid="4467" user="Rosscoe" changeset="4445107">
    <nd ref="81073924"/>
    <nd ref="613414467"/>
    <nd ref="26359202"/>
    <nd ref="369719380"/>
    <nd ref="699588344"/>
    <tag k="highway" v="residential"/>
    <tag k="name" v="Broughton Street"/>
    <tag k="source" v="survey"/>
  </way>
  <way id="48276745" version="3" timestamp="2010-05-20T02:27:25Z" uid="4467" user="Rosscoe" changeset="4753537">
    <nd ref="81073924"/>
    <nd ref="613414467"/>
    <nd ref="740272380"/>
    <nd ref="740272386"/>
    <nd ref="699588344"/>
    <tag k="highway" v="residential"/>
    <tag k="name" v="Broughton Street"/>
    <tag k="source" v="survey"/>
  </way>
  <way id="48276745" version="4" timestamp="2010-07-07T22:15:22Z" uid="74617" user="JohnSmith" changeset="5161069">
    <nd ref="81073924"/>
    <nd ref="613414467"/>
    <nd ref="740272380"/>
    <nd ref="740272386"/>
    <nd ref="699588344"/>
    <tag k="highway" v="residential"/>
    <tag k="maxspeed" v="50"/>
    <tag k="maxspeed:source" v="default residential speed limit in Australia"/>
    <tag k="name" v="Broughton Street"/>
    <tag k="source" v="survey"/>
  </way>
  <way id="48276745" version="5" timestamp="2011-04-21T00:03:53Z" uid="4467" user="Rosscoe" changeset="7921338">
    <nd ref="81073924"/>
    <nd ref="613414467"/>
    <nd ref="740272380"/>
    <nd ref="740272386"/>
    <nd ref="699588344"/>
    <tag k="highway" v="residential"/>
    <tag k="maxspeed" v="50"/>
    <tag k="name" v="Broughton Street"/>
    <tag k="source" v="survey"/>
    <tag k="source:maxspeed" v="default residential speed limit in Australia"/>
  </way>
  <way id="48276745" version="6" timestamp="2011-10-13T11:03:06Z" uid="162096" user="Daz" changeset="9546105">
    <nd ref="81073924"/>
    <nd ref="613414467"/>
    <nd ref="740272380"/>
    <nd ref="740272386"/>
    <nd ref="699588344"/>
    <tag k="highway" v="residential"/>
    <tag k="lcn" v="yes"/>
    <tag k="maxspeed" v="50"/>
    <tag k="name" v="Broughton Street"/>
    <tag k="source" v="survey"/>
    <tag k="source:maxspeed" v="default residential speed limit in Australia"/>
  </way>
  <way id="48276745" version="7" timestamp="2012-01-19T21:47:39Z" uid="147510" user="woodpeck_fixbot" changeset="10440306">
    <nd ref="81073924"/>
    <nd ref="613414467"/>
    <nd ref="740272380"/>
    <nd ref="740272386"/>
    <nd ref="699588344"/>
    <tag k="highway" v="residential"/>
    <tag k="lcn" v="yes"/>
    <tag k="name" v="Broughton Street"/>
    <tag k="source" v="survey"/>
    <tag k="source:maxspeed" v="default residential speed limit in Australia"/>
  </way>
  <way id="48276745" version="8" timestamp="2012-03-05T01:03:42Z" uid="7523" user="inas" changeset="10875656">
    <nd ref="81073924"/>
    <nd ref="613414467"/>
    <nd ref="740272386"/>
    <nd ref="699588344"/>
    <tag k="highway" v="residential"/>
    <tag k="lcn" v="yes"/>
    <tag k="name" v="Broughton Street"/>
    <tag k="source" v="survey"/>
    <tag k="source:maxspeed" v="default residential speed limit in Australia"/>
  </way>
  <way id="48276746" version="2" timestamp="2010-03-21T02:54:51Z" uid="30201" user="rrankin" changeset="4186987">
    <nd ref="77895399"/>
    <nd ref="671080518"/>
    <nd ref="359357821"/>
    <nd ref="603454363"/>
    <nd ref="26358756"/>
    <tag k="highway" v="secondary"/>
    <tag k="image" v="80n:dsc04133.jpg"/>
    <tag k="name" v="Union Street"/>
    <tag k="source" v="survey"/>
  </way>
  <way id="48276746" version="3" timestamp="2010-08-09T23:51:26Z" uid="30201" user="rrankin" changeset="5449690">
    <nd ref="77895399"/>
    <nd ref="671080518"/>
    <nd ref="359357821"/>
    <nd ref="603454363"/>
    <nd ref="26358756"/>
    <tag k="highway" v="secondary"/>
    <tag k="image" v="80n:dsc04133.jpg"/>
    <tag k="name" v="Union Street"/>
    <tag k="source" v="survey"/>
  </way>
  <way id="48276746" version="4" timestamp="2010-09-28T12:57:30Z" uid="79475" user="AlexOnTheBus" changeset="5903648">
    <nd ref="77895399"/>
    <nd ref="671080518"/>
    <nd ref="359357821"/>
    <nd ref="603454363"/>
    <nd ref="26358756"/>
    <tag k="highway" v="tertiary"/>
    <tag k="image" v="80n:dsc04133.jpg"/>
    <tag k="name" v="Union Street"/>
    <tag k="source" v="survey"/>
  </way>
  <way id="48276746" version="5" timestamp="2011-10-13T04:21:27Z" uid="162096" user="Daz" changeset="9544128">
    <nd ref="77895399"/>
    <nd ref="671080518"/>
    <nd ref="359357821"/>
    <nd ref="603454363"/>
    <nd ref="26358756"/>
    <tag k="highway" v="tertiary"/>
    <tag k="image" v="80n:dsc04133.jpg"/>
    <tag k="lcn" v="yes"/>
    <tag k="name" v="Union Street"/>
    <tag k="source" v="survey"/>
  </way>
  <way id="48276746" version="6" timestamp="2011-10-18T02:18:49Z" uid="162096" user="Daz" changeset="9587540">
    <nd ref="77895399"/>
    <nd ref="671080518"/>
    <nd ref="359357821"/>
    <nd ref="603454363"/>
    <nd ref="26358756"/>
    <tag k="highway" v="tertiary"/>
    <tag k="image" v="80n:dsc04133.jpg"/>
    <tag k="name" v="Union Street"/>
    <tag k="source" v="survey"/>
  </way>
  <way id="48276747" version="2" timestamp="2010-01-30T14:20:13Z" uid="7617" user="Franc" changeset="3751302">
    <nd ref="613414456"/>
    <nd ref="613414455"/>
    <tag k="highway" v="service"/>
    <tag k="name" v="Nottingham Street"/>
    <tag k="source" v="nearmap"/>
  </way>
  <way id="48276749" version="2" timestamp="2010-07-08T01:17:36Z" uid="74617" user="JohnSmith" changeset="5162525">
    <nd ref="426219454"/>
    <nd ref="26525453"/>
    <nd ref="360542571"/>
    <nd ref="26359008"/>
    <tag k="highway" v="residential"/>
    <tag k="maxspeed" v="50"/>
    <tag k="maxspeed:source" v="default residential speed limit in Australia"/>
    <tag k="name" v="Victoria Street"/>
    <tag k="source" v="survey"/>
    <tag k="source:name" v="historical"/>
  </way>
  <way id="48276749" version="3" timestamp="2010-08-21T08:13:32Z" uid="69319" user="Rhubarb" changeset="5549660">
    <nd ref="426219454"/>
    <nd ref="360542571"/>
    <nd ref="26359008"/>
    <tag k="highway" v="residential"/>
    <tag k="maxspeed" v="30"/>
    <tag k="maxspeed:source" v="default residential speed limit in Australia"/>
    <tag k="name" v="Victoria Street"/>
    <tag k="source" v="survey"/>
    <tag k="source:name" v="historical"/>
  </way>
  <way id="48276749" version="4" timestamp="2012-01-19T21:47:41Z" uid="147510" user="woodpeck_fixbot" changeset="10440306">
    <nd ref="426219454"/>
    <nd ref="360542571"/>
    <nd ref="26359008"/>
    <tag k="highway" v="residential"/>
    <tag k="name" v="Victoria Street"/>
    <tag k="source" v="survey"/>
    <tag k="source:name" v="historical"/>
  </way>
  <way id="48276750" version="2" timestamp="2010-07-08T01:18:35Z" uid="74617" user="JohnSmith" changeset="5162525">
    <nd ref="26410048"/>
    <nd ref="603454707"/>
    <nd ref="359360119"/>
    <nd ref="604277509"/>
    <nd ref="366751630"/>
    <nd ref="604277502"/>
    <nd ref="604277497"/>
    <nd ref="357807131"/>
    <tag k="highway" v="residential"/>
    <tag k="maxspeed" v="50"/>
    <tag k="maxspeed:source" v="default residential speed limit in Australia"/>
    <tag k="name" v="Edward Street"/>
  </way>
  <way id="48276750" version="3" timestamp="2012-01-19T21:47:43Z" uid="147510" user="woodpeck_fixbot" changeset="10440306">
    <nd ref="26410048"/>
    <nd ref="603454707"/>
    <nd ref="359360119"/>
    <nd ref="604277509"/>
    <nd ref="366751630"/>
    <nd ref="604277502"/>
    <nd ref="604277497"/>
    <nd ref="357807131"/>
    <tag k="highway" v="residential"/>
    <tag k="name" v="Edward Street"/>
  </way>
  <way id="48276751" version="2" timestamp="2010-01-30T14:20:13Z" uid="7617" user="Franc" changeset="3751302">
    <nd ref="613414466"/>
    <nd ref="613414465"/>
    <nd ref="613414463"/>
    <nd ref="613414464"/>
    <nd ref="613414462"/>
    <nd ref="613414459"/>
    <nd ref="613414457"/>
    <nd ref="613414458"/>
    <nd ref="613414460"/>
    <nd ref="613414466"/>
    <tag k="leisure" v="park"/>
    <tag k="source" v="nearmap"/>
  </way>
  <way id="48276752" version="2" timestamp="2010-01-30T14:20:14Z" uid="7617" user="Franc" changeset="3751302">
    <nd ref="613414467"/>
    <nd ref="613414468"/>
    <nd ref="613414475"/>
    <tag k="access" v="private"/>
    <tag k="highway" v="service"/>
    <tag k="source" v="nearmap"/>
  </way>
  <way id="48276752" version="3" timestamp="2010-07-07T10:54:26Z" uid="299678" user="peteramjet" changeset="5157605">
    <nd ref="613414467"/>
    <nd ref="613414468"/>
    <nd ref="613414475"/>
    <tag k="highway" v="service"/>
    <tag k="name" v="Greenway Drive"/>
    <tag k="source" v="nearmap"/>
  </way>
  <way id="48276753" version="2" timestamp="2010-01-30T14:20:14Z" uid="7617" user="Franc" changeset="3751302">
    <nd ref="613414475"/>
    <nd ref="613414469"/>
    <nd ref="613414470"/>
    <nd ref="613414472"/>
    <nd ref="613414473"/>
    <nd ref="613414474"/>
    <nd ref="613414475"/>
    <tag k="access" v="private"/>
    <tag k="highway" v="service"/>
    <tag k="oneway" v="yes"/>
    <tag k="source" v="nearmap"/>
  </way>
  <way id="48276753" version="3" timestamp="2010-07-07T10:54:26Z" uid="299678" user="peteramjet" changeset="5157605">
    <nd ref="613414475"/>
    <nd ref="613414469"/>
    <nd ref="613414470"/>
    <nd ref="613414472"/>
    <nd ref="613414473"/>
    <nd ref="613414474"/>
    <nd ref="613414475"/>
    <tag k="highway" v="service"/>
    <tag k="name" v="Greenway Drive"/>
    <tag k="oneway" v="yes"/>
    <tag k="source" v="nearmap"/>
  </way>
  <way id="48276754" version="2" timestamp="2010-01-30T14:20:14Z" uid="7617" user="Franc" changeset="3751302">
    <nd ref="613414478"/>
    <nd ref="613414479"/>
    <nd ref="613414476"/>
    <nd ref="613414477"/>
    <nd ref="613414478"/>
    <tag k="amenity" v="parking"/>
    <tag k="parking" v="surface"/>
    <tag k="source" v="nearmap"/>
  </way>
  <way id="48276755" version="2" timestamp="2010-01-30T14:20:14Z" uid="7617" user="Franc" changeset="3751302">
    <nd ref="613414482"/>
    <nd ref="613414483"/>
    <nd ref="613414481"/>
    <nd ref="613414484"/>
    <nd ref="613414482"/>
    <tag k="leisure" v="playground"/>
    <tag k="source" v="nearmap"/>
  </way>
  <way id="48276756" version="3" timestamp="2010-03-14T00:49:00Z" uid="7617" user="Franc" changeset="4120493">
    <nd ref="31283427"/>
    <nd ref="462527090"/>
    <nd ref="312099784"/>
    <nd ref="393726924"/>
    <nd ref="8909693"/>
    <nd ref="462527084"/>
    <nd ref="402288372"/>
    <nd ref="79702110"/>
    <nd ref="50488049"/>
    <nd ref="79732928"/>
    <nd ref="665653697"/>
    <tag k="cycleway" v="lane"/>
    <tag k="highway" v="primary"/>
    <tag k="image" v="80n:dsc04237.jpg"/>
    <tag k="lcn" v="yes"/>
    <tag k="name" v="Pacific Highway"/>
    <tag k="restriction" v="school_zone"/>
    <tag k="source" v="survey"/>
  </way>
  <way id="48276756" version="4" timestamp="2010-03-15T08:46:41Z" uid="7617" user="Franc" changeset="4132707">
    <nd ref="31283427"/>
    <nd ref="462527090"/>
    <nd ref="312099784"/>
    <nd ref="393726924"/>
    <nd ref="8909693"/>
    <nd ref="666749497"/>
    <nd ref="402288372"/>
    <nd ref="79702110"/>
    <nd ref="50488049"/>
    <nd ref="79732928"/>
    <nd ref="665653697"/>
    <tag k="cycleway" v="lane"/>
    <tag k="highway" v="primary"/>
    <tag k="image" v="80n:dsc04237.jpg"/>
    <tag k="lcn" v="yes"/>
    <tag k="name" v="Pacific Highway"/>
    <tag k="oneway" v="yes"/>
    <tag k="restriction" v="school_zone"/>
    <tag k="source" v="survey"/>
  </way>
  <way id="48276756" version="5" timestamp="2010-08-09T12:12:04Z" uid="30201" user="rrankin" changeset="5443182">
    <nd ref="31283427"/>
    <nd ref="462527090"/>
    <nd ref="312099784"/>
    <nd ref="850742358"/>
    <nd ref="8909693"/>
    <nd ref="666749497"/>
    <nd ref="402288372"/>
    <nd ref="79702110"/>
    <nd ref="50488049"/>
    <nd ref="79732928"/>
    <nd ref="665653697"/>
    <tag k="cycleway" v="lane"/>
    <tag k="highway" v="primary"/>
    <tag k="image" v="80n:dsc04237.jpg"/>
    <tag k="lcn" v="yes"/>
    <tag k="name" v="Pacific Highway"/>
    <tag k="oneway" v="yes"/>
    <tag k="restriction" v="school_zone"/>
    <tag k="source" v="survey"/>
  </way>
  <way id="48276756" version="6" timestamp="2011-02-14T06:14:50Z" uid="389517" user="good2010" changeset="7283061">
    <nd ref="31283427"/>
    <nd ref="462527090"/>
    <nd ref="312099784"/>
    <nd ref="850742358"/>
    <nd ref="8909693"/>
    <nd ref="666749497"/>
    <nd ref="402288372"/>
    <nd ref="79702110"/>
    <nd ref="50488049"/>
    <nd ref="79732928"/>
    <nd ref="665653697"/>
    <tag k="cycleway" v="lane"/>
    <tag k="highway" v="primary"/>
    <tag k="image" v="80n:dsc04237.jpg"/>
    <tag k="lcn" v="yes"/>
    <tag k="maxspeed" v="60"/>
    <tag k="name" v="Pacific Highway"/>
    <tag k="oneway" v="yes"/>
    <tag k="restriction" v="school_zone"/>
    <tag k="source" v="survey"/>
  </way>
  <way id="48276756" version="7" timestamp="2011-10-13T03:06:22Z" uid="162096" user="Daz" changeset="9543991">
    <nd ref="31283427"/>
    <nd ref="462527090"/>
    <nd ref="312099784"/>
    <nd ref="850742358"/>
    <nd ref="8909693"/>
    <nd ref="666749497"/>
    <nd ref="402288372"/>
    <nd ref="79702110"/>
    <nd ref="50488049"/>
    <nd ref="79732928"/>
    <nd ref="665653697"/>
    <tag k="cycleway" v="lane"/>
    <tag k="highway" v="primary"/>
    <tag k="image" v="80n:dsc04237.jpg"/>
    <tag k="maxspeed" v="60"/>
    <tag k="name" v="Pacific Highway"/>
    <tag k="oneway" v="yes"/>
    <tag k="restriction" v="school_zone"/>
    <tag k="source" v="survey"/>
  </way>
  <way id="48276758" version="2" timestamp="2010-03-14T00:49:01Z" uid="7617" user="Franc" changeset="4120493">
    <nd ref="362620382"/>
    <nd ref="665653685"/>
    <tag k="highway" v="residential"/>
    <tag k="name" v="Bay Road"/>
    <tag k="source" v="survey"/>
  </way>
  <way id="48276758" version="3" timestamp="2010-03-15T08:46:43Z" uid="7617" user="Franc" changeset="4132707">
    <nd ref="362620382"/>
    <nd ref="665653685"/>
    <tag k="highway" v="residential"/>
    <tag k="name" v="Bay Road"/>
    <tag k="restriction" v="school_zone"/>
    <tag k="source" v="survey"/>
  </way>
  <way id="48276758" version="4" timestamp="2010-07-08T01:18:20Z" uid="74617" user="JohnSmith" changeset="5162525">
    <nd ref="362620382"/>
    <nd ref="665653685"/>
    <tag k="highway" v="residential"/>
    <tag k="maxspeed" v="50"/>
    <tag k="maxspeed:source" v="default residential speed limit in Australia"/>
    <tag k="name" v="Bay Road"/>
    <tag k="restriction" v="school_zone"/>
    <tag k="source" v="survey"/>
  </way>
  <way id="48276758" version="5" timestamp="2011-10-13T11:03:06Z" uid="162096" user="Daz" changeset="9546105">
    <nd ref="362620382"/>
    <nd ref="665653685"/>
    <tag k="highway" v="residential"/>
    <tag k="lcn" v="yes"/>
    <tag k="maxspeed" v="50"/>
    <tag k="maxspeed:source" v="default residential speed limit in Australia"/>
    <tag k="name" v="Bay Road"/>
    <tag k="restriction" v="school_zone"/>
    <tag k="source" v="survey"/>
  </way>
  <way id="48276758" version="6" timestamp="2011-10-14T01:50:08Z" uid="162096" user="Daz" changeset="9552203">
    <nd ref="362620382"/>
    <nd ref="665653685"/>
    <tag k="cycleway" v="lane"/>
    <tag k="highway" v="residential"/>
    <tag k="lcn" v="yes"/>
    <tag k="maxspeed" v="50"/>
    <tag k="maxspeed:source" v="default residential speed limit in Australia"/>
    <tag k="name" v="Bay Road"/>
    <tag k="restriction" v="school_zone"/>
    <tag k="source" v="survey"/>
  </way>
  <way id="48276758" version="7" timestamp="2012-01-19T21:47:45Z" uid="147510" user="woodpeck_fixbot" changeset="10440306">
    <nd ref="362620382"/>
    <nd ref="665653685"/>
    <tag k="cycleway" v="lane"/>
    <tag k="highway" v="residential"/>
    <tag k="lcn" v="yes"/>
    <tag k="name" v="Bay Road"/>
    <tag k="restriction" v="school_zone"/>
    <tag k="source" v="survey"/>
  </way>
  <way id="48276759" version="3" timestamp="2010-09-25T03:29:20Z" uid="7617" user="Franc" changeset="5867953">
    <nd ref="50498918"/>
    <nd ref="81012981"/>
    <nd ref="363447401"/>
    <nd ref="619614442"/>
    <nd ref="13797795"/>
    <nd ref="924810103"/>
    <tag k="highway" v="primary"/>
    <tag k="image" v="80n:dsc04262.jpg"/>
    <tag k="name" v="Miller Street"/>
  </way>
  <way id="48276759" version="4" timestamp="2010-09-28T12:54:19Z" uid="79475" user="AlexOnTheBus" changeset="5903648">
    <nd ref="50498918"/>
    <nd ref="81012981"/>
    <nd ref="363447401"/>
    <nd ref="619614442"/>
    <nd ref="13797795"/>
    <tag k="highway" v="primary"/>
    <tag k="image" v="80n:dsc04262.jpg"/>
    <tag k="name" v="Miller Street"/>
  </way>
  <way id="48276759" version="5" timestamp="2010-09-28T12:54:25Z" uid="79475" user="AlexOnTheBus" changeset="5903648">
    <nd ref="50498918"/>
    <nd ref="81012981"/>
    <nd ref="363447401"/>
    <nd ref="619614442"/>
    <nd ref="13797795"/>
    <tag k="highway" v="secondary"/>
    <tag k="image" v="80n:dsc04262.jpg"/>
    <tag k="name" v="Miller Street"/>
  </way>
  <way id="48276760" version="2" timestamp="2010-01-30T14:20:14Z" uid="7617" user="Franc" changeset="3751302">
    <nd ref="613414487"/>
    <nd ref="613414485"/>
    <nd ref="613414489"/>
    <nd ref="613414490"/>
    <nd ref="613414491"/>
    <nd ref="613414493"/>
    <nd ref="613414494"/>
    <nd ref="613414492"/>
    <nd ref="613414488"/>
    <nd ref="613414487"/>
    <tag k="leisure" v="park"/>
    <tag k="name" v="Christie Street Reserve"/>
    <tag k="source" v="nearmap"/>
  </way>
  <way id="48276761" version="2" timestamp="2010-01-30T14:20:14Z" uid="7617" user="Franc" changeset="3751302">
    <nd ref="613414502"/>
    <nd ref="613414497"/>
    <nd ref="613414498"/>
    <nd ref="613414500"/>
    <nd ref="613414495"/>
    <nd ref="613414501"/>
    <nd ref="613414496"/>
    <nd ref="613414502"/>
    <tag k="leisure" v="park"/>
    <tag k="name" v="Weaver Park"/>
    <tag k="source" v="nearmap"/>
  </way>
  <way id="48276761" version="3" timestamp="2012-01-29T10:49:40Z" uid="18713" user="Diego" changeset="10528448">
    <nd ref="613414502"/>
    <nd ref="613414497"/>
    <nd ref="613414498"/>
    <nd ref="613414500"/>
    <nd ref="613414495"/>
    <nd ref="613414501"/>
    <nd ref="613414496"/>
    <nd ref="613414502"/>
    <tag k="leisure" v="park"/>
    <tag k="name" v="Weaver Park"/>
    <tag k="source" v="nearmap"/>
  </way>
  <way id="48276762" version="2" timestamp="2010-07-07T21:49:21Z" uid="74617" user="JohnSmith" changeset="5161069">
    <nd ref="29374638"/>
    <nd ref="29374639"/>
    <nd ref="29374640"/>
    <nd ref="517352820"/>
    <nd ref="29374641"/>
    <tag k="highway" v="residential"/>
    <tag k="maxspeed" v="50"/>
    <tag k="maxspeed:source" v="default residential speed limit in Australia"/>
    <tag k="name" v="Murdoch Street"/>
    <tag k="source:name" v="historical"/>
  </way>
  <way id="48276762" version="3" timestamp="2012-01-19T21:47:46Z" uid="147510" user="woodpeck_fixbot" changeset="10440306">
    <nd ref="29374638"/>
    <nd ref="29374639"/>
    <nd ref="29374640"/>
    <nd ref="517352820"/>
    <nd ref="29374641"/>
    <tag k="highway" v="residential"/>
    <tag k="name" v="Murdoch Street"/>
    <tag k="source:name" v="historical"/>
  </way>
  <way id="48276763" version="2" timestamp="2010-03-31T06:20:47Z" uid="74617" user="JohnSmith" changeset="4282717">
    <nd ref="81247563"/>
    <nd ref="8656224"/>
    <nd ref="299241160"/>
    <nd ref="81261070"/>
    <nd ref="345012761"/>
    <nd ref="8656221"/>
    <tag k="highway" v="trunk"/>
    <tag k="name" v="Military Road"/>
    <tag k="source" v="survey"/>
  </way>
  <way id="48276763" version="3" timestamp="2010-06-28T07:54:47Z" uid="299678" user="peteramjet" changeset="5095437">
    <nd ref="81247563"/>
    <nd ref="8656224"/>
    <nd ref="299241160"/>
    <nd ref="81261070"/>
    <nd ref="345012761"/>
    <nd ref="8656221"/>
    <tag k="highway" v="trunk"/>
    <tag k="name" v="Military Road"/>
    <tag k="ref" v="MR10"/>
    <tag k="source" v="survey"/>
  </way>
  <way id="48276763" version="4" timestamp="2010-07-08T10:22:38Z" uid="299678" user="peteramjet" changeset="5164989">
    <nd ref="81247563"/>
    <nd ref="8656224"/>
    <nd ref="299241160"/>
    <nd ref="81261070"/>
    <nd ref="345012761"/>
    <nd ref="8656221"/>
    <tag k="highway" v="trunk"/>
    <tag k="name" v="Military Road"/>
    <tag k="source" v="survey"/>
  </way>
  <way id="48276763" version="5" timestamp="2011-02-14T06:14:53Z" uid="389517" user="good2010" changeset="7283061">
    <nd ref="81247563"/>
    <nd ref="8656224"/>
    <nd ref="299241160"/>
    <nd ref="81261070"/>
    <nd ref="345012761"/>
    <nd ref="8656221"/>
    <tag k="highway" v="trunk"/>
    <tag k="maxspeed" v="60"/>
    <tag k="name" v="Military Road"/>
    <tag k="source" v="survey"/>
  </way>
  <way id="48276763" version="6" timestamp="2012-02-02T01:39:03Z" uid="54784" user="Tom Hollander" changeset="10564136">
    <nd ref="81247563"/>
    <nd ref="8656224"/>
    <nd ref="299241160"/>
    <nd ref="81261070"/>
    <nd ref="345012761"/>
    <nd ref="8656221"/>
    <tag k="highway" v="trunk"/>
    <tag k="maxspeed" v="60"/>
    <tag k="name" v="Military Road"/>
    <tag k="ref" v="MR10"/>
    <tag k="source" v="survey"/>
  </way>
  <way id="48276764" version="2" timestamp="2010-01-30T14:20:14Z" uid="7617" user="Franc" changeset="3751302">
    <nd ref="613414504"/>
    <nd ref="613414503"/>
    <tag k="highway" v="service"/>
    <tag k="name" v="Cranbrook Lane"/>
    <tag k="source" v="nearmap"/>
  </way>
  <way id="48276765" version="2" timestamp="2010-01-30T14:20:15Z" uid="7617" user="Franc" changeset="3751302">
    <nd ref="600325495"/>
    <nd ref="613414508"/>
    <nd ref="613414505"/>
    <nd ref="613414506"/>
    <tag k="foot" v="yes"/>
    <tag k="highway" v="pedestrian"/>
    <tag k="source" v="nearmap"/>
  </way>
  <way id="48276765" version="3" timestamp="2012-03-12T22:30:10Z" uid="7523" user="inas" changeset="10961483">
    <nd ref="613414508"/>
    <nd ref="613414505"/>
    <nd ref="613414506"/>
    <tag k="foot" v="yes"/>
    <tag k="highway" v="pedestrian"/>
    <tag k="source" v="nearmap"/>
  </way>
  <way id="48276767" version="2" timestamp="2010-07-08T01:18:05Z" uid="74617" user="JohnSmith" changeset="5162525">
    <nd ref="603440166"/>
    <nd ref="603440173"/>
    <tag k="highway" v="residential"/>
    <tag k="maxspeed" v="50"/>
    <tag k="maxspeed:source" v="default residential speed limit in Australia"/>
    <tag k="name" v="Park Avenue"/>
    <tag k="source" v="yahoo_imagery"/>
  </way>
  <way id="48276767" version="3" timestamp="2012-01-19T21:47:48Z" uid="147510" user="woodpeck_fixbot" changeset="10440306">
    <nd ref="603440166"/>
    <nd ref="603440173"/>
    <tag k="highway" v="residential"/>
    <tag k="name" v="Park Avenue"/>
    <tag k="source" v="yahoo_imagery"/>
  </way>
  <way id="48276801" version="1" timestamp="2010-01-14T12:31:00Z" uid="8619" user="cetest" changeset="3616604">
    <nd ref="613415026"/>
    <nd ref="613415025"/>
    <nd ref="613415024"/>
    <nd ref="613415027"/>
    <nd ref="613415026"/>
    <tag k="building" v="yes"/>
    <tag k="name" v="Centre de Santé du Portail Léogane"/>
    <tag k="source" v="Traced from Yahoo aerial imagery"/>
  </way>
  <way id="48276801" version="2" timestamp="2010-01-23T00:22:21Z" uid="40577" user="guggis" changeset="3688515">
    <nd ref="613415026"/>
    <nd ref="613415025"/>
    <nd ref="613415024"/>
    <nd ref="613415027"/>
    <nd ref="613415026"/>
    <tag k="building" v="yes"/>
    <tag k="name" v="Centre de Santé du Portail Léogane"/>
    <tag k="source" v="GeoEye1, GeoEye, 2010-01-16 "/>
  </way>
  <way id="48276801" version="3" timestamp="2010-01-26T07:54:46Z" uid="70696" user="xybot" changeset="3717216">
    <nd ref="613415026"/>
    <nd ref="613415025"/>
    <nd ref="613415024"/>
    <nd ref="613415027"/>
    <nd ref="613415026"/>
    <tag k="building" v="yes"/>
    <tag k="name" v="Centre de Santé du Portail Léogane"/>
    <tag k="source" v="GeoEye1, GeoEye, 2010-01-16"/>
  </way>
  <way id="48276801" version="4" timestamp="2010-01-27T12:23:11Z" uid="40577" user="guggis" changeset="3727427">
    <nd ref="613415026"/>
    <nd ref="613415025"/>
    <nd ref="613415024"/>
    <nd ref="613415027"/>
    <nd ref="613415026"/>
    <tag k="amenity" v="hospital"/>
    <tag k="building" v="yes"/>
    <tag k="name" v="Centre de Santé du Portail Léogane"/>
    <tag k="note" v="There is adjacent building to the north which looks more like a hospital. Survey on the ground needed."/>
    <tag k="sahana_id" v="103"/>
    <tag k="source" v="GeoEye1, GeoEye, 2010-01-16"/>
  </way>
  <way id="48276801" version="5" timestamp="2010-02-05T11:38:45Z" uid="40577" user="guggis" changeset="3797039">
    <nd ref="613415026"/>
    <nd ref="613415025"/>
    <nd ref="613415024"/>
    <nd ref="613415027"/>
    <nd ref="613415026"/>
    <tag k="amenity" v="hospital"/>
    <tag k="attribute_source_type" v="PAHO"/>
    <tag k="bed" v="no"/>
    <tag k="building" v="yes"/>
    <tag k="geometry_source_type" v="PAHO"/>
    <tag k="health_facility:commune" v="PORT-AU-PRINCE"/>
    <tag k="health_facility:commune_id" v="11"/>
    <tag k="health_facility:department" v="OUEST"/>
    <tag k="health_facility:paho_id" v="1110520"/>
    <tag k="health_facility_type" v="health_center"/>
    <tag k="name" v="CENTRE DE SANTE PORTAIL LEOGANE"/>
    <tag k="note" v="There is adjacent building to the north which looks more like a hospital. Survey on the ground needed."/>
    <tag k="pcode" v="95425"/>
    <tag k="sahana_id" v="103"/>
    <tag k="source:health_facility" v="HHS_20100120"/>
    <tag k="source:imagery" v="GeoEye1, GeoEye, 2010-01-16"/>
  </way>
  <way id="48276801" version="6" timestamp="2010-02-14T21:23:22Z" uid="219187" user="jgc" changeset="3878672">
    <nd ref="613415026"/>
    <nd ref="613415025"/>
    <nd ref="613415024"/>
    <nd ref="613415027"/>
    <nd ref="613415026"/>
    <tag k="amenity" v="hospital"/>
    <tag k="attribute_source_type" v="PAHO"/>
    <tag k="bed" v="no"/>
    <tag k="building" v="yes"/>
    <tag k="geometry_source_type" v="PAHO"/>
    <tag k="health_facility:commune" v="PORT-AU-PRINCE"/>
    <tag k="health_facility:commune_id" v="11"/>
    <tag k="health_facility:department" v="OUEST"/>
    <tag k="health_facility:paho_id" v="1110520"/>
    <tag k="health_facility:type" v="health_center"/>
    <tag k="name" v="CENTRE DE SANTE PORTAIL LEOGANE"/>
    <tag k="note" v="There is adjacent building to the north which looks more like a hospital. Survey on the ground needed."/>
    <tag k="pcode" v="95425"/>
    <tag k="sahana_id" v="103"/>
    <tag k="source:health_facility" v="HHS_20100120"/>
    <tag k="source:imagery" v="GeoEye1, GeoEye, 2010-01-16"/>
  </way>
  <way id="48276801" version="7" timestamp="2010-02-15T12:19:20Z" uid="40577" user="guggis" changeset="3882581">
    <nd ref="613415026"/>
    <nd ref="613415025"/>
    <nd ref="613415024"/>
    <nd ref="613415027"/>
    <nd ref="613415026"/>
    <tag k="amenity" v="hospital"/>
    <tag k="bed" v="no"/>
    <tag k="building" v="yes"/>
    <tag k="health_facility:bed" v="no"/>
    <tag k="health_facility:type" v="health_center"/>
    <tag k="name" v="CENTRE DE SANTE PORTAIL LEOGANE"/>
    <tag k="note" v="There is adjacent building to the north which looks more like a hospital. Survey on the ground needed."/>
    <tag k="paho:commune" v="PORT-AU-PRINCE"/>
    <tag k="paho:commune_id" v="11"/>
    <tag k="paho:department" v="OUEST"/>
    <tag k="paho:district_id" v="1"/>
    <tag k="paho:id" v="1110520"/>
    <tag k="paho:region_id" v="1"/>
    <tag k="pcode" v="95425"/>
    <tag k="sahana_id" v="103"/>
    <tag k="source:health_facility" v="HHS_20100120"/>
    <tag k="source:imagery" v="GeoEye1, GeoEye, 2010-01-16"/>
  </way>
  <way id="48276801" version="8" timestamp="2010-02-15T17:23:04Z" uid="219187" user="jgc" changeset="3884981">
    <nd ref="613415026"/>
    <nd ref="613415025"/>
    <nd ref="613415024"/>
    <nd ref="613415027"/>
    <nd ref="613415026"/>
    <tag k="amenity" v="hospital"/>
    <tag k="bed" v="no"/>
    <tag k="building" v="yes"/>
    <tag k="health_facility:bed" v="no"/>
    <tag k="health_facility:type" v="health_center"/>
    <tag k="name" v="CENTRE DE SANTE PORTAIL LEOGANE"/>
    <tag k="note" v="There is adjacent building to the north which looks more like a hospital. Survey on the ground needed."/>
    <tag k="paho:commune" v="PORT-AU-PRINCE"/>
    <tag k="paho:commune_id" v="11"/>
    <tag k="paho:department" v="OUEST"/>
    <tag k="paho:district_id" v="1"/>
    <tag k="paho:id" v="1110520"/>
    <tag k="paho:region_id" v="1"/>
    <tag k="pcode" v="95425"/>
    <tag k="sahana_id" v="103"/>
    <tag k="source:health_facility" v="HHS_20100120"/>
    <tag k="source:imagery" v="GeoEye1, GeoEye, 2010-01-16"/>
  </way>
  <way id="48276801" version="9" timestamp="2010-02-18T01:18:11Z" uid="79857" user="RDSantiago" changeset="3905927">
    <nd ref="613415026"/>
    <nd ref="613415025"/>
    <nd ref="613415024"/>
    <nd ref="613415027"/>
    <nd ref="613415026"/>
    <tag k="addr:country" v="HT"/>
    <tag k="amenity" v="hospital"/>
    <tag k="bed" v="no"/>
    <tag k="building" v="yes"/>
    <tag k="health_facility:bed" v="no"/>
    <tag k="health_facility:type" v="health_center"/>
    <tag k="name" v="CENTRE DE SANTE PORTAIL LEOGANE"/>
    <tag k="note" v="There is adjacent building to the north which looks more like a hospital. Survey on the ground needed."/>
    <tag k="paho:commune" v="PORT-AU-PRINCE"/>
    <tag k="paho:commune_id" v="11"/>
    <tag k="paho:department" v="OUEST"/>
    <tag k="paho:district_id" v="1"/>
    <tag k="paho:id" v="1110520"/>
    <tag k="paho:region_id" v="1"/>
    <tag k="pcode" v="95425"/>
    <tag k="sahana_id" v="103"/>
    <tag k="source:health_facility" v="HHS_20100120"/>
    <tag k="source:imagery" v="GeoEye1, GeoEye, 2010-01-16"/>
  </way>
  <way id="48276801" version="10" timestamp="2010-02-18T21:20:43Z" uid="219187" user="jgc" changeset="3912353">
    <nd ref="613415026"/>
    <nd ref="613415025"/>
    <nd ref="613415024"/>
    <nd ref="613415027"/>
    <nd ref="613415026"/>
    <tag k="addr:country" v="HT"/>
    <tag k="bed" v="no"/>
    <tag k="building" v="yes"/>
    <tag k="note" v="There is adjacent building to the north which looks more like a hospital. Survey on the ground needed."/>
    <tag k="sahana_id" v="103"/>
    <tag k="source:health_facility" v="HHS_20100120"/>
    <tag k="source:imagery" v="GeoEye1, GeoEye, 2010-01-16"/>
  </way>
  <way id="48276801" version="11" timestamp="2010-02-27T12:53:08Z" uid="40577" user="guggis" changeset="3988175">
    <nd ref="613415026"/>
    <nd ref="613415025"/>
    <nd ref="613415024"/>
    <nd ref="613415027"/>
    <nd ref="613415026"/>
    <tag k="building" v="yes"/>
  </way>
  <way id="48276801" version="12" timestamp="2012-02-28T23:42:12Z" uid="24440" user="jaakkoh" changeset="10823903">
    <nd ref="613415026"/>
    <nd ref="613415025"/>
    <nd ref="613415024"/>
    <nd ref="613415027"/>
    <nd ref="613415026"/>
    <tag k="building" v="yes"/>
    <tag k="odbl" v="clean"/>
    <tag k="source" v="GPS-adjusted Bing"/>
  </way>
  <way id="48276802" version="1" timestamp="2010-01-14T12:31:00Z" uid="8619" user="cetest" changeset="3616604">
    <nd ref="613415015"/>
    <nd ref="613415017"/>
    <nd ref="613415018"/>
    <nd ref="613415019"/>
    <nd ref="613415020"/>
    <nd ref="613415021"/>
    <nd ref="613415022"/>
    <nd ref="613415023"/>
    <nd ref="613415015"/>
    <tag k="amenity" v="theatre"/>
    <tag k="building" v="yes"/>
    <tag k="name" v="Théatre National"/>
    <tag k="source" v="Traced from Yahoo aerial imagery"/>
  </way>
  <way id="48276802" version="2" timestamp="2010-01-20T16:23:16Z" uid="66160" user="Xylem" changeset="3668008">
    <nd ref="613415015"/>
    <nd ref="617206248"/>
    <nd ref="613415017"/>
    <nd ref="613415018"/>
    <nd ref="613415019"/>
    <nd ref="613415020"/>
    <nd ref="613415021"/>
    <nd ref="613415022"/>
    <nd ref="613415023"/>
    <nd ref="613415015"/>
    <tag k="amenity" v="theatre"/>
    <tag k="building" v="yes"/>
    <tag k="name" v="Théatre National"/>
    <tag k="source" v="Traced from Yahoo aerial imagery"/>
  </way>
  <way id="48276802" version="3" timestamp="2010-01-20T20:03:05Z" uid="69102" user="Mathbau" changeset="3669850">
    <nd ref="613415015"/>
    <nd ref="617206248"/>
    <nd ref="613415017"/>
    <nd ref="617295470"/>
    <nd ref="613415018"/>
    <nd ref="613415019"/>
    <nd ref="613415020"/>
    <nd ref="613415021"/>
    <nd ref="613415022"/>
    <nd ref="613415023"/>
    <nd ref="613415015"/>
    <tag k="amenity" v="theatre"/>
    <tag k="building" v="yes"/>
    <tag k="name" v="Théatre National"/>
    <tag k="source" v="Traced from Yahoo aerial imagery"/>
  </way>
  <way id="48276802" version="4" timestamp="2010-02-18T01:18:11Z" uid="79857" user="RDSantiago" changeset="3905927">
    <nd ref="613415015"/>
    <nd ref="617206248"/>
    <nd ref="613415017"/>
    <nd ref="617295470"/>
    <nd ref="613415018"/>
    <nd ref="613415019"/>
    <nd ref="613415020"/>
    <nd ref="613415021"/>
    <nd ref="613415022"/>
    <nd ref="613415023"/>
    <nd ref="613415015"/>
    <tag k="addr:country" v="HT"/>
    <tag k="amenity" v="theatre"/>
    <tag k="building" v="yes"/>
    <tag k="name" v="Théatre National"/>
    <tag k="source" v="Traced from Yahoo aerial imagery"/>
  </way>
  <way id="48276802" version="5" timestamp="2011-06-22T23:43:49Z" uid="398836" user="senatusgesner" changeset="8519539">
    <nd ref="613415015"/>
    <nd ref="617206248"/>
    <nd ref="613415017"/>
    <nd ref="617295470"/>
    <nd ref="613415018"/>
    <nd ref="613415019"/>
    <nd ref="613415020"/>
    <nd ref="613415021"/>
    <nd ref="613415022"/>
    <nd ref="613415023"/>
    <nd ref="613415015"/>
    <tag k="addr:country" v="HT"/>
    <tag k="addr:full" v="boulevard harry truman,bicantenaire"/>
    <tag k="amenity" v="theatre"/>
    <tag k="building" v="yes"/>
    <tag k="name" v="Théatre National"/>
    <tag k="source" v="cosmha_iom"/>
    <tag k="surface_condition" v="endomage"/>
  </way>
  <way id="48276802" version="6" timestamp="2011-06-23T17:51:54Z" uid="398836" user="senatusgesner" changeset="8524763">
    <nd ref="613415015"/>
    <nd ref="617206248"/>
    <nd ref="613415017"/>
    <nd ref="617295470"/>
    <nd ref="613415018"/>
    <nd ref="613415019"/>
    <nd ref="613415020"/>
    <nd ref="613415021"/>
    <nd ref="613415022"/>
    <nd ref="613415023"/>
    <nd ref="613415015"/>
    <tag k="addr:country" v="HT"/>
    <tag k="addr:full" v="boulevard harry truman,bicantenaire"/>
    <tag k="amenity" v="theatre"/>
    <tag k="building" v="yes"/>
    <tag k="name" v="Théatre National"/>
    <tag k="source" v="cosmha_iom"/>
    <tag k="surface_condition" v="endomage"/>
  </way>
  <way id="48276802" version="7" timestamp="2011-09-06T21:34:29Z" uid="398836" user="senatusgesner" changeset="9231991">
    <nd ref="613415015"/>
    <nd ref="1425646925"/>
    <nd ref="617206248"/>
    <nd ref="613415017"/>
    <nd ref="1425648011"/>
    <nd ref="1425648628"/>
    <nd ref="617295470"/>
    <nd ref="613415018"/>
    <nd ref="1425650501"/>
    <nd ref="1425651054"/>
    <nd ref="1425650795"/>
    <nd ref="1425651089"/>
    <nd ref="613415019"/>
    <nd ref="613415020"/>
    <nd ref="1425651001"/>
    <nd ref="1425651015"/>
    <nd ref="613415021"/>
    <nd ref="613415022"/>
    <nd ref="1425648993"/>
    <nd ref="613415023"/>
    <nd ref="1425648664"/>
    <nd ref="1425648040"/>
    <nd ref="1425646993"/>
    <nd ref="613415015"/>
    <tag k="addr:country" v="HT"/>
    <tag k="addr:full" v="boulevard harry truman,bicantenaire"/>
    <tag k="amenity" v="theatre"/>
    <tag k="building" v="yes"/>
    <tag k="name" v="Théatre National"/>
    <tag k="source" v="cosmha_iom"/>
    <tag k="surface_condition" v="endomage"/>
  </way>
  <way id="48276802" version="8" timestamp="2012-02-29T15:35:22Z" uid="24440" user="jaakkoh" changeset="10829123">
    <nd ref="613415015"/>
    <nd ref="1425646925"/>
    <nd ref="617206248"/>
    <nd ref="613415017"/>
    <nd ref="1425648011"/>
    <nd ref="1425648628"/>
    <nd ref="617295470"/>
    <nd ref="613415018"/>
    <nd ref="1425650501"/>
    <nd ref="1425651054"/>
    <nd ref="1425650795"/>
    <nd ref="1425651089"/>
    <nd ref="613415019"/>
    <nd ref="613415020"/>
    <nd ref="1425651001"/>
    <nd ref="1425651015"/>
    <nd ref="613415021"/>
    <nd ref="613415022"/>
    <nd ref="1425648993"/>
    <nd ref="613415023"/>
    <nd ref="1425648664"/>
    <nd ref="1425648040"/>
    <nd ref="1425646993"/>
    <nd ref="613415015"/>
    <tag k="addr:country" v="HT"/>
    <tag k="addr:full" v="Boulevard Harry Truman, Bicantenaire"/>
    <tag k="addr:street" v="Boulevard Harry Truman"/>
    <tag k="amenity" v="theatre"/>
    <tag k="building" v="yes"/>
    <tag k="name" v="Théatre National"/>
    <tag k="odbl" v="clean"/>
    <tag k="source" v="cosmha_iom; knowledge"/>
    <tag k="surface_condition" v="endomage"/>
  </way>
  <way id="48276803" version="1" timestamp="2010-01-14T12:31:00Z" uid="8619" user="cetest" changeset="3616604">
    <nd ref="613415028"/>
    <nd ref="613415030"/>
    <nd ref="613415029"/>
    <nd ref="613415036"/>
    <nd ref="613415028"/>
    <tag k="building" v="yes"/>
    <tag k="name" v="Institut de Laboratoire et de Recherches"/>
    <tag k="source" v="Traced from Yahoo aerial imagery"/>
  </way>
  <way id="48276804" version="1" timestamp="2010-01-14T12:31:00Z" uid="8619" user="cetest" changeset="3616604">
    <nd ref="613415037"/>
    <nd ref="613415035"/>
    <nd ref="613415033"/>
    <nd ref="613415034"/>
    <nd ref="613415031"/>
    <nd ref="613415038"/>
    <nd ref="613415037"/>
    <tag k="building" v="yes"/>
    <tag k="name" v="Département de l&apos;Education Nationale"/>
    <tag k="source" v="Traced from Yahoo aerial imagery"/>
  </way>
  <way id="48276805" version="1" timestamp="2010-01-14T12:31:01Z" uid="8619" user="cetest" changeset="3616604">
    <nd ref="613415042"/>
    <nd ref="613415041"/>
    <nd ref="613415043"/>
    <nd ref="613415040"/>
    <nd ref="613415042"/>
    <tag k="building" v="yes"/>
    <tag k="name" v="Asile Français"/>
    <tag k="source" v="Traced from Yahoo aerial imagery"/>
  </way>
  <way id="48276805" version="2" timestamp="2010-01-15T14:56:40Z" uid="8619" user="cetest" changeset="3624817">
    <nd ref="613415042"/>
    <nd ref="614221524"/>
    <nd ref="613415041"/>
    <nd ref="613415043"/>
    <nd ref="613415040"/>
    <nd ref="614221522"/>
    <nd ref="614221523"/>
    <nd ref="613415042"/>
    <tag k="amenity" v="hospital"/>
    <tag k="building" v="yes"/>
    <tag k="name" v="Asile Français"/>
    <tag k="source" v="Traced from Yahoo aerial imagery"/>
  </way>
  <way id="48276805" version="3" timestamp="2010-02-06T12:45:09Z" uid="40577" user="guggis" changeset="3804680">
    <nd ref="613415042"/>
    <nd ref="614221524"/>
    <nd ref="613415041"/>
    <nd ref="613415043"/>
    <nd ref="613415040"/>
    <nd ref="614221522"/>
    <nd ref="614221523"/>
    <nd ref="613415042"/>
    <tag k="amenity" v="hospital"/>
    <tag k="attribute_source_type" v="PAHO"/>
    <tag k="building" v="yes"/>
    <tag k="geometry_source_type" v="PAHO"/>
    <tag k="health_facility:commune" v="PORT-AU-PRINCE"/>
    <tag k="health_facility:commune_id" v="11"/>
    <tag k="health_facility:department" v="OUEST"/>
    <tag k="health_facility:paho_id" v="1119055"/>
    <tag k="name" v="PORT AU PRINCE HOSPITAL ASILE FRANCAIS"/>
    <tag k="pcode" v="95603"/>
    <tag k="source" v="Traced from Yahoo aerial imagery"/>
    <tag k="source:health_facility" v="HHS_20100120"/>
  </way>
  <way id="48276805" version="4" timestamp="2010-02-15T12:19:18Z" uid="40577" user="guggis" changeset="3882581">
    <nd ref="613415042"/>
    <nd ref="614221524"/>
    <nd ref="613415041"/>
    <nd ref="613415043"/>
    <nd ref="613415040"/>
    <nd ref="614221522"/>
    <nd ref="614221523"/>
    <nd ref="613415042"/>
    <tag k="addr:street" v="378 Rue du Centre, Port-au-Prince, Haiti"/>
    <tag k="amenity" v="hospital"/>
    <tag k="building" v="yes"/>
    <tag k="health_facility:type" v="hospital"/>
    <tag k="name" v="PORT AU PRINCE HOSPITAL ASILE FRANCAIS"/>
    <tag k="paho:commune" v="PORT-AU-PRINCE"/>
    <tag k="paho:commune_id" v="11"/>
    <tag k="paho:damage:date" v="01.20.2010"/>
    <tag k="paho:damage:source" v="HHS"/>
    <tag k="paho:department" v="OUEST"/>
    <tag k="paho:district_id" v="1"/>
    <tag k="paho:id" v="1119055"/>
    <tag k="paho:region_id" v="1"/>
    <tag k="pcode" v="95603"/>
    <tag k="source" v="Traced from Yahoo aerial imagery"/>
    <tag k="source:health_facility" v="HHS_20100120"/>
  </way>
  <way id="48276805" version="5" timestamp="2010-02-15T17:23:03Z" uid="219187" user="jgc" changeset="3884981">
    <nd ref="613415042"/>
    <nd ref="614221524"/>
    <nd ref="613415041"/>
    <nd ref="613415043"/>
    <nd ref="613415040"/>
    <nd ref="614221522"/>
    <nd ref="614221523"/>
    <nd ref="613415042"/>
    <tag k="addr:street" v="378 Rue du Centre, Port-au-Prince, Haiti"/>
    <tag k="amenity" v="hospital"/>
    <tag k="building" v="yes"/>
    <tag k="health_facility:type" v="hospital"/>
    <tag k="name" v="PORT AU PRINCE HOSPITAL ASILE FRANCAIS"/>
    <tag k="paho:commune" v="PORT-AU-PRINCE"/>
    <tag k="paho:commune_id" v="11"/>
    <tag k="paho:damage:date" v="01.20.2010"/>
    <tag k="paho:damage:source" v="HHS"/>
    <tag k="paho:department" v="OUEST"/>
    <tag k="paho:district_id" v="1"/>
    <tag k="paho:id" v="1119055"/>
    <tag k="paho:region_id" v="1"/>
    <tag k="pcode" v="95603"/>
    <tag k="source" v="Traced from Yahoo aerial imagery"/>
    <tag k="source:health_facility" v="HHS_20100120"/>
  </way>
  <way id="48276805" version="6" timestamp="2010-02-18T01:18:13Z" uid="79857" user="RDSantiago" changeset="3905927">
    <nd ref="613415042"/>
    <nd ref="614221524"/>
    <nd ref="613415041"/>
    <nd ref="613415043"/>
    <nd ref="613415040"/>
    <nd ref="614221522"/>
    <nd ref="614221523"/>
    <nd ref="613415042"/>
    <tag k="addr:country" v="HT"/>
    <tag k="addr:street" v="378 Rue du Centre, Port-au-Prince, Haiti"/>
    <tag k="amenity" v="hospital"/>
    <tag k="building" v="yes"/>
    <tag k="health_facility:type" v="hospital"/>
    <tag k="name" v="PORT AU PRINCE HOSPITAL ASILE FRANCAIS"/>
    <tag k="paho:commune" v="PORT-AU-PRINCE"/>
    <tag k="paho:commune_id" v="11"/>
    <tag k="paho:damage:date" v="01.20.2010"/>
    <tag k="paho:damage:source" v="HHS"/>
    <tag k="paho:department" v="OUEST"/>
    <tag k="paho:district_id" v="1"/>
    <tag k="paho:id" v="1119055"/>
    <tag k="paho:region_id" v="1"/>
    <tag k="pcode" v="95603"/>
    <tag k="source" v="Traced from Yahoo aerial imagery"/>
    <tag k="source:health_facility" v="HHS_20100120"/>
  </way>
  <way id="48276805" version="7" timestamp="2010-02-18T16:21:22Z" uid="40577" user="guggis" changeset="3910148">
    <nd ref="613415042"/>
    <nd ref="614221524"/>
    <nd ref="613415041"/>
    <nd ref="613415043"/>
    <nd ref="613415040"/>
    <nd ref="614221522"/>
    <nd ref="614221523"/>
    <nd ref="613415042"/>
    <tag k="addr:country" v="HT"/>
    <tag k="addr:street" v="378 Rue du Centre, Port-au-Prince, Haiti"/>
    <tag k="amenity" v="hospital"/>
    <tag k="building" v="yes"/>
    <tag k="health_facility:type" v="hospital"/>
    <tag k="name" v="PORT AU PRINCE HOSPITAL ASILE FRANCAIS"/>
    <tag k="paho:commune" v="PORT-AU-PRINCE"/>
    <tag k="paho:commune_id" v="11"/>
    <tag k="paho:damage" v="Damaged"/>
    <tag k="paho:damage:date" v="01.20.2010"/>
    <tag k="paho:damage:source" v="HHS"/>
    <tag k="paho:department" v="OUEST"/>
    <tag k="paho:district_id" v="1"/>
    <tag k="paho:id" v="1119055"/>
    <tag k="paho:region_id" v="1"/>
    <tag k="pcode" v="95603"/>
    <tag k="source" v="Traced from Yahoo aerial imagery"/>
    <tag k="source:health_facility" v="HHS_20100120"/>
  </way>
  <way id="48276805" version="8" timestamp="2010-11-16T16:24:46Z" uid="98876" user="rsoden" changeset="6386171">
    <nd ref="613415042"/>
    <nd ref="614221524"/>
    <nd ref="613415041"/>
    <nd ref="613415043"/>
    <nd ref="613415040"/>
    <nd ref="614221522"/>
    <nd ref="614221523"/>
    <nd ref="613415042"/>
    <tag k="addr:country" v="HT"/>
    <tag k="addr:street" v="378 Rue du Centre, Port-au-Prince, Haiti"/>
    <tag k="amenity" v="hospital"/>
    <tag k="building" v="yes"/>
    <tag k="hfac_type" v="hospital"/>
    <tag k="name" v="PORT AU PRINCE HOSPITAL ASILE FRANCAIS"/>
    <tag k="paho:commune" v="PORT-AU-PRINCE"/>
    <tag k="paho:commune_id" v="11"/>
    <tag k="paho:damage" v="Damaged"/>
    <tag k="paho:damage:date" v="01.20.2010"/>
    <tag k="paho:damage:source" v="HHS"/>
    <tag k="paho:department" v="OUEST"/>
    <tag k="paho:district_id" v="1"/>
    <tag k="paho:id" v="1119055"/>
    <tag k="paho:region_id" v="1"/>
    <tag k="pcode" v="95603"/>
    <tag k="source" v="Traced from Yahoo aerial imagery"/>
    <tag k="source:health_facility" v="HHS_20100120"/>
  </way>
  <way id="48276805" version="9" timestamp="2010-11-16T16:49:02Z" uid="98876" user="rsoden" changeset="6386171">
    <nd ref="613415042"/>
    <nd ref="614221524"/>
    <nd ref="613415041"/>
    <nd ref="613415043"/>
    <nd ref="613415040"/>
    <nd ref="614221522"/>
    <nd ref="614221523"/>
    <nd ref="613415042"/>
    <tag k="addr:country" v="HT"/>
    <tag k="addr:street" v="378 Rue du Centre, Port-au-Prince, Haiti"/>
    <tag k="amenity" v="hospital"/>
    <tag k="building" v="yes"/>
    <tag k="hfac_type" v="field hospital"/>
    <tag k="name" v="PORT AU PRINCE HOSPITAL ASILE FRANCAIS"/>
    <tag k="paho:commune" v="PORT-AU-PRINCE"/>
    <tag k="paho:commune_id" v="11"/>
    <tag k="paho:damage" v="Damaged"/>
    <tag k="paho:damage:date" v="01.20.2010"/>
    <tag k="paho:damage:source" v="HHS"/>
    <tag k="paho:department" v="OUEST"/>
    <tag k="paho:district_id" v="1"/>
    <tag k="paho:id" v="1119055"/>
    <tag k="paho:region_id" v="1"/>
    <tag k="pcode" v="95603"/>
    <tag k="source" v="Traced from Yahoo aerial imagery"/>
    <tag k="source:health_facility" v="HHS_20100120"/>
  </way>
  <way id="48276805" version="10" timestamp="2010-11-16T17:27:34Z" uid="98876" user="rsoden" changeset="6386171">
    <nd ref="613415042"/>
    <nd ref="614221524"/>
    <nd ref="613415041"/>
    <nd ref="613415043"/>
    <nd ref="613415040"/>
    <nd ref="614221522"/>
    <nd ref="614221523"/>
    <nd ref="613415042"/>
    <tag k="addr:country" v="HT"/>
    <tag k="addr:street" v="378 Rue du Centre, Port-au-Prince, Haiti"/>
    <tag k="amenity" v="hospital"/>
    <tag k="building" v="yes"/>
    <tag k="hfac_bed" v="yes"/>
    <tag k="hfac_type" v="field hospital"/>
    <tag k="name" v="PORT AU PRINCE HOSPITAL ASILE FRANCAIS"/>
    <tag k="paho:commune" v="PORT-AU-PRINCE"/>
    <tag k="paho:commune_id" v="11"/>
    <tag k="paho:damage" v="Damaged"/>
    <tag k="paho:damage:date" v="01.20.2010"/>
    <tag k="paho:damage:source" v="HHS"/>
    <tag k="paho:department" v="OUEST"/>
    <tag k="paho:district_id" v="1"/>
    <tag k="paho:id" v="1119055"/>
    <tag k="paho:region_id" v="1"/>
    <tag k="pcode" v="95603"/>
    <tag k="source" v="Traced from Yahoo aerial imagery"/>
    <tag k="source:health_facility" v="HHS_20100120"/>
  </way>
  <way id="48276805" version="11" timestamp="2012-02-28T23:42:04Z" uid="24440" user="jaakkoh" changeset="10823903">
    <nd ref="613415042"/>
    <nd ref="614221524"/>
    <nd ref="613415041"/>
    <nd ref="613415043"/>
    <nd ref="613415040"/>
    <nd ref="614221522"/>
    <nd ref="614221523"/>
    <nd ref="613415042"/>
    <tag k="addr:country" v="HT"/>
    <tag k="addr:street" v="378 Rue du Centre, Port-au-Prince, Haiti"/>
    <tag k="amenity" v="hospital"/>
    <tag k="building" v="yes"/>
    <tag k="hfac_bed" v="yes"/>
    <tag k="hfac_type" v="field hospital"/>
    <tag k="name" v="PORT AU PRINCE HOSPITAL ASILE FRANCAIS"/>
    <tag k="odbl" v="clean"/>
    <tag k="paho:commune" v="PORT-AU-PRINCE"/>
    <tag k="paho:commune_id" v="11"/>
    <tag k="paho:damage" v="Damaged"/>
    <tag k="paho:damage:date" v="01.20.2010"/>
    <tag k="paho:damage:source" v="HHS"/>
    <tag k="paho:department" v="OUEST"/>
    <tag k="paho:district_id" v="1"/>
    <tag k="paho:id" v="1119055"/>
    <tag k="paho:region_id" v="1"/>
    <tag k="pcode" v="95603"/>
    <tag k="source" v="Traced from Yahoo aerial imagery"/>
    <tag k="source:health_facility" v="HHS_20100120"/>
  </way>
  <way id="48276806" version="1" timestamp="2010-01-14T12:31:01Z" uid="8619" user="cetest" changeset="3616604">
    <nd ref="613415050"/>
    <nd ref="613415048"/>
    <nd ref="613415049"/>
    <nd ref="613415051"/>
    <nd ref="613415050"/>
    <tag k="amenity" v="hospital"/>
    <tag k="building" v="yes"/>
    <tag k="name" v="Hôpital St. François de Sales"/>
    <tag k="source" v="Traced from Yahoo aerial imagery"/>
  </way>
  <way id="48276806" version="2" timestamp="2010-01-15T22:15:24Z" uid="47355" user="s_Frantz" changeset="3627937">
    <nd ref="613415050"/>
    <nd ref="613415048"/>
    <nd ref="613415049"/>
    <nd ref="614445690"/>
    <nd ref="614445689"/>
    <nd ref="613415051"/>
    <nd ref="613415050"/>
    <tag k="amenity" v="hospital"/>
    <tag k="building" v="yes"/>
    <tag k="name" v="Hôpital St. François de Sales"/>
    <tag k="source" v="Traced from Yahoo aerial imagery"/>
  </way>
  <way id="48276806" version="3" timestamp="2010-01-17T13:39:52Z" uid="219187" user="jgc" changeset="3640986">
    <nd ref="613415050"/>
    <nd ref="613415048"/>
    <nd ref="613415049"/>
    <nd ref="614445690"/>
    <nd ref="614445689"/>
    <nd ref="613415051"/>
    <nd ref="613415050"/>
    <tag k="amenity" v="hospital"/>
    <tag k="building" v="yes"/>
    <tag k="name" v="Hôpital St. François de Sales"/>
    <tag k="name:en" v="St. Francois de Sales Hospital"/>
    <tag k="source" v="Traced from Yahoo aerial imagery"/>
  </way>
  <way id="48276806" version="4" timestamp="2010-01-24T22:59:10Z" uid="12982" user="Michael Schulze" changeset="3707204">
    <nd ref="613415050"/>
    <nd ref="613415048"/>
    <nd ref="614445690"/>
    <nd ref="614445689"/>
    <nd ref="613415051"/>
    <nd ref="613415050"/>
    <tag k="amenity" v="hospital"/>
    <tag k="building" v="yes"/>
    <tag k="name" v="Hôpital St. François de Sales"/>
    <tag k="name:en" v="St. Francois de Sales Hospital"/>
    <tag k="phone" v="509-222-5033; 509-222-0232"/>
    <tag k="sahana_id" v="105"/>
    <tag k="source" v="Traced from Yahoo aerial imagery"/>
  </way>
  <way id="48276806" version="5" timestamp="2010-02-05T11:53:02Z" uid="40577" user="guggis" changeset="3797039">
    <nd ref="613415050"/>
    <nd ref="613415048"/>
    <nd ref="614445690"/>
    <nd ref="614445689"/>
    <nd ref="613415051"/>
    <nd ref="613415050"/>
    <tag k="amenity" v="hospital"/>
    <tag k="attribute_source_type" v="PAHO"/>
    <tag k="building" v="yes"/>
    <tag k="geometry_source_type" v="PAHO"/>
    <tag k="health_facility:commune" v="PORT-AU-PRINCE"/>
    <tag k="health_facility:commune_id" v="11"/>
    <tag k="health_facility:department" v="OUEST"/>
    <tag k="health_facility:organisation" v="ARCHEVECHE"/>
    <tag k="health_facility:paho_id" v="1119060"/>
    <tag k="name" v="PORT AU PRINCE HOSPITAL SAINT FRANCOIS DE SALLE"/>
    <tag k="name:en" v="St. Francois de Sales Hospital"/>
    <tag k="pcode" v="95442"/>
    <tag k="phone" v="509-222-5033; 509-222-0232"/>
    <tag k="sahana_id" v="105"/>
    <tag k="source:health_facility" v="HHS_20100120"/>
    <tag k="source:imagery" v="Traced from Yahoo aerial imagery"/>
  </way>
  <way id="48276806" version="6" timestamp="2010-02-15T12:19:18Z" uid="40577" user="guggis" changeset="3882581">
    <nd ref="613415050"/>
    <nd ref="613415048"/>
    <nd ref="614445690"/>
    <nd ref="614445689"/>
    <nd ref="613415051"/>
    <nd ref="613415050"/>
    <tag k="addr:street" v="53 Rue Chareron, Port-au-Prince, Haiti"/>
    <tag k="amenity" v="hospital"/>
    <tag k="building" v="yes"/>
    <tag k="health_facility:type" v="hospital"/>
    <tag k="name" v="PORT AU PRINCE HOSPITAL SAINT FRANCOIS DE SALLE"/>
    <tag k="name:en" v="St. Francois de Sales Hospital"/>
    <tag k="operator" v="ARCHEVECHE"/>
    <tag k="paho:commune" v="PORT-AU-PRINCE"/>
    <tag k="paho:commune_id" v="11"/>
    <tag k="paho:damage" v="Severe"/>
    <tag k="paho:damage:date" v="01.14.2010"/>
    <tag k="paho:damage:source" v="UNEP"/>
    <tag k="paho:department" v="OUEST"/>
    <tag k="paho:district_id" v="1"/>
    <tag k="paho:id" v="1119060"/>
    <tag k="paho:region_id" v="1"/>
    <tag k="pcode" v="95442"/>
    <tag k="phone" v="509-222-5033; 509-222-0232"/>
    <tag k="sahana_id" v="105"/>
    <tag k="source:health_facility" v="HHS_20100120"/>
    <tag k="source:imagery" v="Traced from Yahoo aerial imagery"/>
  </way>
  <way id="48276806" version="7" timestamp="2010-02-15T17:23:03Z" uid="219187" user="jgc" changeset="3884981">
    <nd ref="613415050"/>
    <nd ref="613415048"/>
    <nd ref="614445690"/>
    <nd ref="614445689"/>
    <nd ref="613415051"/>
    <nd ref="613415050"/>
    <tag k="addr:street" v="53 Rue Chareron, Port-au-Prince, Haiti"/>
    <tag k="amenity" v="hospital"/>
    <tag k="building" v="yes"/>
    <tag k="health_facility:type" v="hospital"/>
    <tag k="name" v="PORT AU PRINCE HOSPITAL SAINT FRANCOIS DE SALLE"/>
    <tag k="name:en" v="St. Francois de Sales Hospital"/>
    <tag k="operator" v="ARCHEVECHE"/>
    <tag k="paho:commune" v="PORT-AU-PRINCE"/>
    <tag k="paho:commune_id" v="11"/>
    <tag k="paho:damage" v="Severe"/>
    <tag k="paho:damage:date" v="01.14.2010"/>
    <tag k="paho:damage:source" v="UNEP"/>
    <tag k="paho:department" v="OUEST"/>
    <tag k="paho:district_id" v="1"/>
    <tag k="paho:id" v="1119060"/>
    <tag k="paho:region_id" v="1"/>
    <tag k="pcode" v="95442"/>
    <tag k="phone" v="509-222-5033; 509-222-0232"/>
    <tag k="sahana_id" v="105"/>
    <tag k="source:health_facility" v="HHS_20100120"/>
    <tag k="source:imagery" v="Traced from Yahoo aerial imagery"/>
  </way>
  <way id="48276806" version="8" timestamp="2010-02-18T01:18:20Z" uid="79857" user="RDSantiago" changeset="3905927">
    <nd ref="613415050"/>
    <nd ref="613415048"/>
    <nd ref="614445690"/>
    <nd ref="614445689"/>
    <nd ref="613415051"/>
    <nd ref="613415050"/>
    <tag k="addr:country" v="HT"/>
    <tag k="addr:street" v="53 Rue Chareron, Port-au-Prince, Haiti"/>
    <tag k="amenity" v="hospital"/>
    <tag k="building" v="yes"/>
    <tag k="health_facility:type" v="hospital"/>
    <tag k="name" v="PORT AU PRINCE HOSPITAL SAINT FRANCOIS DE SALLE"/>
    <tag k="name:en" v="St. Francois de Sales Hospital"/>
    <tag k="operator" v="ARCHEVECHE"/>
    <tag k="paho:commune" v="PORT-AU-PRINCE"/>
    <tag k="paho:commune_id" v="11"/>
    <tag k="paho:damage" v="Severe"/>
    <tag k="paho:damage:date" v="01.14.2010"/>
    <tag k="paho:damage:source" v="UNEP"/>
    <tag k="paho:department" v="OUEST"/>
    <tag k="paho:district_id" v="1"/>
    <tag k="paho:id" v="1119060"/>
    <tag k="paho:region_id" v="1"/>
    <tag k="pcode" v="95442"/>
    <tag k="phone" v="509-222-5033; 509-222-0232"/>
    <tag k="sahana_id" v="105"/>
    <tag k="source:health_facility" v="HHS_20100120"/>
    <tag k="source:imagery" v="Traced from Yahoo aerial imagery"/>
  </way>
  <way id="48276806" version="9" timestamp="2010-02-18T16:21:21Z" uid="40577" user="guggis" changeset="3910148">
    <nd ref="613415050"/>
    <nd ref="613415048"/>
    <nd ref="614445690"/>
    <nd ref="614445689"/>
    <nd ref="613415051"/>
    <nd ref="613415050"/>
    <tag k="addr:country" v="HT"/>
    <tag k="addr:street" v="53 Rue Chareron, Port-au-Prince, Haiti"/>
    <tag k="amenity" v="hospital"/>
    <tag k="building" v="yes"/>
    <tag k="health_facility:type" v="hospital"/>
    <tag k="name" v="PORT AU PRINCE HOSPITAL SAINT FRANCOIS DE SALLE"/>
    <tag k="name:en" v="St. Francois de Sales Hospital"/>
    <tag k="operator" v="ARCHEVECHE"/>
    <tag k="paho:commune" v="PORT-AU-PRINCE"/>
    <tag k="paho:commune_id" v="11"/>
    <tag k="paho:damage" v="Severe"/>
    <tag k="paho:damage:date" v="01.14.2010"/>
    <tag k="paho:damage:source" v="UNEP"/>
    <tag k="paho:department" v="OUEST"/>
    <tag k="paho:district_id" v="1"/>
    <tag k="paho:id" v="1119060"/>
    <tag k="paho:region_id" v="1"/>
    <tag k="pcode" v="95442"/>
    <tag k="phone" v="509-222-5033; 509-222-0232"/>
    <tag k="sahana_id" v="105"/>
    <tag k="source:health_facility" v="HHS_20100120"/>
    <tag k="source:imagery" v="Traced from Yahoo aerial imagery"/>
  </way>
  <way id="48276806" version="10" timestamp="2010-02-27T11:47:37Z" uid="40577" user="guggis" changeset="3987677">
    <nd ref="613415050"/>
    <nd ref="613415048"/>
    <nd ref="614445690"/>
    <nd ref="614445689"/>
    <nd ref="613415051"/>
    <nd ref="613415050"/>
    <tag k="addr:country" v="HT"/>
    <tag k="addr:street" v="53 Rue Charéron, Port-au-Prince, Haiti"/>
    <tag k="amenity" v="hospital"/>
    <tag k="building" v="yes"/>
    <tag k="health_facility:type" v="hospital"/>
    <tag k="name" v="PORT AU PRINCE HOSPITAL SAINT FRANCOIS DE SALLE"/>
    <tag k="name:en" v="St. Francois de Sales Hospital"/>
    <tag k="operator" v="ARCHEVECHE"/>
    <tag k="paho:commune" v="PORT-AU-PRINCE"/>
    <tag k="paho:commune_id" v="11"/>
    <tag k="paho:damage" v="Severe"/>
    <tag k="paho:damage:date" v="01.14.2010"/>
    <tag k="paho:damage:source" v="UNEP"/>
    <tag k="paho:department" v="OUEST"/>
    <tag k="paho:district_id" v="1"/>
    <tag k="paho:id" v="1119060"/>
    <tag k="paho:region_id" v="1"/>
    <tag k="pcode" v="95442"/>
    <tag k="phone" v="509-222-5033; 509-222-0232"/>
    <tag k="sahana_id" v="105"/>
    <tag k="source:health_facility" v="HHS_20100120"/>
    <tag k="source:imagery" v="Traced from Yahoo aerial imagery"/>
  </way>
  <way id="48276806" version="11" timestamp="2010-03-24T19:17:10Z" uid="219187" user="jgc" changeset="4223748">
    <nd ref="613415050"/>
    <nd ref="613415048"/>
    <nd ref="614445690"/>
    <nd ref="614445689"/>
    <nd ref="613415051"/>
    <nd ref="613415050"/>
    <tag k="addr:city" v="Port-au-Prince"/>
    <tag k="addr:country" v="HT"/>
    <tag k="addr:full" v="53 Rue Charéron, Port-au-Prince, Haiti"/>
    <tag k="addr:housenumber" v="53"/>
    <tag k="addr:street" v="Rue Charéron"/>
    <tag k="amenity" v="hospital"/>
    <tag k="building" v="yes"/>
    <tag k="health_facility:type" v="hospital"/>
    <tag k="name" v="Hôpital St. François de Salle"/>
    <tag k="name:en" v="St. Francois de Salle Hospital"/>
    <tag k="operator" v="ARCHEVECHE"/>
    <tag k="paho:commune" v="PORT-AU-PRINCE"/>
    <tag k="paho:commune_id" v="11"/>
    <tag k="paho:damage" v="Severe"/>
    <tag k="paho:damage:date" v="01.14.2010"/>
    <tag k="paho:damage:source" v="UNEP"/>
    <tag k="paho:department" v="OUEST"/>
    <tag k="paho:district_id" v="1"/>
    <tag k="paho:id" v="1119094"/>
    <tag k="paho:operational_status" v="operational"/>
    <tag k="paho:operational_status:date" v="02.03.2010"/>
    <tag k="paho:operational_status:source" v="Health Cluster Report"/>
    <tag k="paho:region_id" v="1"/>
    <tag k="pcode" v="11120"/>
    <tag k="phone" v="509-222-5033; 509-222-0232"/>
    <tag k="sahana_id" v="105"/>
    <tag k="source:health_facility" v="ME/MSPP2010; HHS_2010 0120; (Coords: HHS_20100120)"/>
    <tag k="source:imagery" v="Traced from Yahoo aerial imagery"/>
  </way>
  <way id="48276806" version="12" timestamp="2010-11-16T16:26:13Z" uid="98876" user="rsoden" changeset="6386171">
    <nd ref="613415050"/>
    <nd ref="613415048"/>
    <nd ref="614445690"/>
    <nd ref="614445689"/>
    <nd ref="613415051"/>
    <nd ref="613415050"/>
    <tag k="addr:city" v="Port-au-Prince"/>
    <tag k="addr:country" v="HT"/>
    <tag k="addr:full" v="53 Rue Charéron, Port-au-Prince, Haiti"/>
    <tag k="addr:housenumber" v="53"/>
    <tag k="addr:street" v="Rue Charéron"/>
    <tag k="amenity" v="hospital"/>
    <tag k="building" v="yes"/>
    <tag k="hfac_type" v="hospital"/>
    <tag k="name" v="Hôpital St. François de Salle"/>
    <tag k="name:en" v="St. Francois de Salle Hospital"/>
    <tag k="operator" v="ARCHEVECHE"/>
    <tag k="paho:commune" v="PORT-AU-PRINCE"/>
    <tag k="paho:commune_id" v="11"/>
    <tag k="paho:damage" v="Severe"/>
    <tag k="paho:damage:date" v="01.14.2010"/>
    <tag k="paho:damage:source" v="UNEP"/>
    <tag k="paho:department" v="OUEST"/>
    <tag k="paho:district_id" v="1"/>
    <tag k="paho:id" v="1119094"/>
    <tag k="paho:operational_status" v="operational"/>
    <tag k="paho:operational_status:date" v="02.03.2010"/>
    <tag k="paho:operational_status:source" v="Health Cluster Report"/>
    <tag k="paho:region_id" v="1"/>
    <tag k="pcode" v="11120"/>
    <tag k="phone" v="509-222-5033; 509-222-0232"/>
    <tag k="sahana_id" v="105"/>
    <tag k="source:health_facility" v="ME/MSPP2010; HHS_2010 0120; (Coords: HHS_20100120)"/>
    <tag k="source:imagery" v="Traced from Yahoo aerial imagery"/>
  </way>
  <way id="48276806" version="13" timestamp="2010-11-16T16:49:56Z" uid="98876" user="rsoden" changeset="6386171">
    <nd ref="613415050"/>
    <nd ref="613415048"/>
    <nd ref="614445690"/>
    <nd ref="614445689"/>
    <nd ref="613415051"/>
    <nd ref="613415050"/>
    <tag k="addr:city" v="Port-au-Prince"/>
    <tag k="addr:country" v="HT"/>
    <tag k="addr:full" v="53 Rue Charéron, Port-au-Prince, Haiti"/>
    <tag k="addr:housenumber" v="53"/>
    <tag k="addr:street" v="Rue Charéron"/>
    <tag k="amenity" v="hospital"/>
    <tag k="building" v="yes"/>
    <tag k="hfac_type" v="field hospital"/>
    <tag k="name" v="Hôpital St. François de Salle"/>
    <tag k="name:en" v="St. Francois de Salle Hospital"/>
    <tag k="operator" v="ARCHEVECHE"/>
    <tag k="paho:commune" v="PORT-AU-PRINCE"/>
    <tag k="paho:commune_id" v="11"/>
    <tag k="paho:damage" v="Severe"/>
    <tag k="paho:damage:date" v="01.14.2010"/>
    <tag k="paho:damage:source" v="UNEP"/>
    <tag k="paho:department" v="OUEST"/>
    <tag k="paho:district_id" v="1"/>
    <tag k="paho:id" v="1119094"/>
    <tag k="paho:operational_status" v="operational"/>
    <tag k="paho:operational_status:date" v="02.03.2010"/>
    <tag k="paho:operational_status:source" v="Health Cluster Report"/>
    <tag k="paho:region_id" v="1"/>
    <tag k="pcode" v="11120"/>
    <tag k="phone" v="509-222-5033; 509-222-0232"/>
    <tag k="sahana_id" v="105"/>
    <tag k="source:health_facility" v="ME/MSPP2010; HHS_2010 0120; (Coords: HHS_20100120)"/>
    <tag k="source:imagery" v="Traced from Yahoo aerial imagery"/>
  </way>
  <way id="48276806" version="14" timestamp="2010-11-16T17:28:27Z" uid="98876" user="rsoden" changeset="6386171">
    <nd ref="613415050"/>
    <nd ref="613415048"/>
    <nd ref="614445690"/>
    <nd ref="614445689"/>
    <nd ref="613415051"/>
    <nd ref="613415050"/>
    <tag k="addr:city" v="Port-au-Prince"/>
    <tag k="addr:country" v="HT"/>
    <tag k="addr:full" v="53 Rue Charéron, Port-au-Prince, Haiti"/>
    <tag k="addr:housenumber" v="53"/>
    <tag k="addr:street" v="Rue Charéron"/>
    <tag k="amenity" v="hospital"/>
    <tag k="building" v="yes"/>
    <tag k="hfac_bed" v="yes"/>
    <tag k="hfac_type" v="field hospital"/>
    <tag k="name" v="Hôpital St. François de Salle"/>
    <tag k="name:en" v="St. Francois de Salle Hospital"/>
    <tag k="operator" v="ARCHEVECHE"/>
    <tag k="paho:commune" v="PORT-AU-PRINCE"/>
    <tag k="paho:commune_id" v="11"/>
    <tag k="paho:damage" v="Severe"/>
    <tag k="paho:damage:date" v="01.14.2010"/>
    <tag k="paho:damage:source" v="UNEP"/>
    <tag k="paho:department" v="OUEST"/>
    <tag k="paho:district_id" v="1"/>
    <tag k="paho:id" v="1119094"/>
    <tag k="paho:operational_status" v="operational"/>
    <tag k="paho:operational_status:date" v="02.03.2010"/>
    <tag k="paho:operational_status:source" v="Health Cluster Report"/>
    <tag k="paho:region_id" v="1"/>
    <tag k="pcode" v="11120"/>
    <tag k="phone" v="509-222-5033; 509-222-0232"/>
    <tag k="sahana_id" v="105"/>
    <tag k="source:health_facility" v="ME/MSPP2010; HHS_2010 0120; (Coords: HHS_20100120)"/>
    <tag k="source:imagery" v="Traced from Yahoo aerial imagery"/>
  </way>
  <way id="48276806" version="15" timestamp="2012-02-28T23:42:11Z" uid="24440" user="jaakkoh" changeset="10823903">
    <nd ref="613415050"/>
    <nd ref="613415048"/>
    <nd ref="614445690"/>
    <nd ref="614445689"/>
    <nd ref="613415051"/>
    <nd ref="613415050"/>
    <tag k="addr:city" v="Port-au-Prince"/>
    <tag k="addr:country" v="HT"/>
    <tag k="addr:full" v="53 Rue Charéron, Port-au-Prince, Haiti"/>
    <tag k="addr:housenumber" v="53"/>
    <tag k="addr:street" v="Rue Charéron"/>
    <tag k="amenity" v="hospital"/>
    <tag k="building" v="yes"/>
    <tag k="hfac_bed" v="yes"/>
    <tag k="hfac_type" v="field hospital"/>
    <tag k="name" v="Hôpital St. François de Salle"/>
    <tag k="name:en" v="St. Francois de Salle Hospital"/>
    <tag k="odbl" v="clean"/>
    <tag k="operator" v="ARCHEVECHE"/>
    <tag k="paho:commune" v="PORT-AU-PRINCE"/>
    <tag k="paho:commune_id" v="11"/>
    <tag k="paho:damage" v="Severe"/>
    <tag k="paho:damage:date" v="01.14.2010"/>
    <tag k="paho:damage:source" v="UNEP"/>
    <tag k="paho:department" v="OUEST"/>
    <tag k="paho:district_id" v="1"/>
    <tag k="paho:id" v="1119094"/>
    <tag k="paho:operational_status" v="operational"/>
    <tag k="paho:operational_status:date" v="02.03.2010"/>
    <tag k="paho:operational_status:source" v="Health Cluster Report"/>
    <tag k="paho:region_id" v="1"/>
    <tag k="pcode" v="11120"/>
    <tag k="phone" v="509-222-5033; 509-222-0232"/>
    <tag k="sahana_id" v="105"/>
    <tag k="source:health_facility" v="ME/MSPP2010; HHS_2010 0120; (Coords: HHS_20100120)"/>
    <tag k="source:imagery" v="Traced from Yahoo aerial imagery"/>
    <tag k="type" v="hospital"/>
  </way>
  <way id="48276807" version="1" timestamp="2010-01-14T12:31:01Z" uid="8619" user="cetest" changeset="3616604">
    <nd ref="613415044"/>
    <nd ref="613415045"/>
    <nd ref="613415046"/>
    <nd ref="613415047"/>
    <nd ref="613415044"/>
    <tag k="amenity" v="hospital"/>
    <tag k="name" v="Centre Médico Social Céleste Casimir"/>
  </way>
  <way id="48276807" version="2" timestamp="2010-02-18T01:18:19Z" uid="79857" user="RDSantiago" changeset="3905927">
    <nd ref="613415044"/>
    <nd ref="613415045"/>
    <nd ref="613415046"/>
    <nd ref="613415047"/>
    <nd ref="613415044"/>
    <tag k="addr:country" v="HT"/>
    <tag k="amenity" v="hospital"/>
    <tag k="name" v="Centre Médico Social Céleste Casimir"/>
  </way>
  <way id="48276807" version="3" timestamp="2010-11-16T17:28:13Z" uid="98876" user="rsoden" changeset="6386171">
    <nd ref="613415044"/>
    <nd ref="613415045"/>
    <nd ref="613415046"/>
    <nd ref="613415047"/>
    <nd ref="613415044"/>
    <tag k="addr:country" v="HT"/>
    <tag k="amenity" v="hospital"/>
    <tag k="hfac_bed" v="yes"/>
    <tag k="hfac_type" v="field hospital"/>
    <tag k="name" v="Centre Médico Social Céleste Casimir"/>
  </way>
  <way id="48276892" version="3" timestamp="2011-03-06T08:12:08Z" uid="4467" user="Rosscoe" changeset="7470443">
    <nd ref="567266025"/>
    <nd ref="567266026"/>
    <nd ref="567266027"/>
    <nd ref="567266028"/>
    <tag k="cycleway" v="lane"/>
    <tag k="highway" v="tertiary"/>
    <tag k="maxspeed" v="70"/>
    <tag k="name" v="McKimmies Road"/>
    <tag k="oneway" v="yes"/>
  </way>
  <way id="48276900" version="2" timestamp="2010-01-16T14:05:14Z" uid="58091" user="Andreas M" changeset="3631788">
    <nd ref="613425455"/>
    <nd ref="613425457"/>
    <nd ref="613425462"/>
    <nd ref="613425468"/>
    <nd ref="613425470"/>
    <tag k="foot" v="yes"/>
    <tag k="highway" v="footway"/>
  </way>
  <way id="48276900" version="3" timestamp="2011-06-16T21:25:25Z" uid="439883" user="romge" changeset="8460362">
    <nd ref="613425455"/>
    <nd ref="613425457"/>
    <nd ref="613425462"/>
    <nd ref="613425468"/>
    <nd ref="613425470"/>
    <tag k="highway" v="footway"/>
  </way>
  <way id="48276900" version="4" timestamp="2011-06-17T22:45:00Z" uid="439883" user="romge" changeset="8469272">
    <nd ref="613425455"/>
    <nd ref="1329090034"/>
    <nd ref="613425457"/>
    <nd ref="613425462"/>
    <nd ref="1329089699"/>
    <nd ref="613425468"/>
    <nd ref="316409138"/>
    <tag k="highway" v="footway"/>
  </way>
  <way id="48276900" version="5" timestamp="2011-06-17T23:16:02Z" uid="439883" user="romge" changeset="8469300">
    <nd ref="613425455"/>
    <nd ref="1329090034"/>
    <nd ref="613425457"/>
    <nd ref="613425462"/>
    <nd ref="1329089699"/>
    <nd ref="613425468"/>
    <nd ref="316409138"/>
    <tag k="highway" v="footway"/>
  </way>
  <way id="48276913" version="2" timestamp="2010-01-16T14:05:13Z" uid="58091" user="Andreas M" changeset="3631788">
    <nd ref="613426532"/>
    <nd ref="613426536"/>
    <nd ref="613426544"/>
    <nd ref="614650408"/>
    <tag k="foot" v="yes"/>
    <tag k="highway" v="footway"/>
  </way>
  <way id="48276913" version="3" timestamp="2010-01-16T17:33:51Z" uid="58091" user="Andreas M" changeset="3633668">
    <nd ref="316409132"/>
    <nd ref="613426536"/>
    <nd ref="613426544"/>
    <nd ref="614650408"/>
    <tag k="foot" v="yes"/>
    <tag k="highway" v="footway"/>
  </way>
  <way id="48276913" version="4" timestamp="2011-06-17T22:44:54Z" uid="439883" user="romge" changeset="8469272">
    <nd ref="316409132"/>
    <nd ref="1329089892"/>
    <nd ref="1329089623"/>
    <nd ref="614650408"/>
    <tag k="highway" v="footway"/>
  </way>
  <way id="48276913" version="5" timestamp="2011-06-17T23:16:04Z" uid="439883" user="romge" changeset="8469300"/>
  <way id="48276953" version="1" timestamp="2010-01-14T12:43:05Z" uid="115477" user="wowik" changeset="3616661">
    <nd ref="613431480"/>
    <nd ref="613431482"/>
    <nd ref="613431484"/>
    <nd ref="613431486"/>
    <nd ref="613431489"/>
    <nd ref="613431492"/>
    <nd ref="613431501"/>
    <nd ref="613431504"/>
    <nd ref="613431507"/>
    <nd ref="613431480"/>
    <tag k="leisure" v="playground"/>
  </way>
  <way id="48276953" version="2" timestamp="2010-04-30T13:01:19Z" uid="115477" user="wowik" changeset="4566059">
    <nd ref="613431480"/>
    <nd ref="613431482"/>
    <nd ref="613431484"/>
    <nd ref="613431486"/>
    <nd ref="613431489"/>
    <nd ref="613431492"/>
    <nd ref="613431501"/>
    <nd ref="613431504"/>
    <nd ref="613431507"/>
    <nd ref="613431480"/>
    <tag k="leisure" v="pitch"/>
  </way>
  <way id="48276953" version="3" timestamp="2011-08-01T16:16:23Z" uid="465700" user="Tomasina" changeset="8892351">
    <nd ref="613431480"/>
    <nd ref="613431482"/>
    <nd ref="613431484"/>
    <nd ref="613431486"/>
    <nd ref="613431489"/>
    <nd ref="613431492"/>
    <nd ref="613431501"/>
    <nd ref="613431504"/>
    <nd ref="613431507"/>
    <nd ref="613431480"/>
    <tag k="leisure" v="pitch"/>
    <tag k="sport" v="soccer"/>
  </way>
  <way id="48276953" version="4" timestamp="2011-10-08T13:09:02Z" uid="465700" user="Tomasina" changeset="9502433">
    <nd ref="613431480"/>
    <nd ref="613431482"/>
    <nd ref="613431484"/>
    <nd ref="613431486"/>
    <nd ref="613431489"/>
    <nd ref="613431492"/>
    <nd ref="613431501"/>
    <nd ref="613431504"/>
    <nd ref="613431507"/>
    <nd ref="613431480"/>
    <tag k="leisure" v="pitch"/>
    <tag k="sport" v="soccer runner"/>
  </way>
  <way id="48276954" version="1" timestamp="2010-01-14T12:43:06Z" uid="115477" user="wowik" changeset="3616661">
    <nd ref="613431515"/>
    <nd ref="613431517"/>
    <nd ref="613431521"/>
    <nd ref="613431524"/>
    <nd ref="613431529"/>
    <nd ref="613431531"/>
    <nd ref="613431532"/>
    <nd ref="613431541"/>
    <nd ref="613431515"/>
    <tag k="leisure" v="playground"/>
  </way>
  <way id="48276954" version="2" timestamp="2010-04-30T13:01:20Z" uid="115477" user="wowik" changeset="4566059">
    <nd ref="613431515"/>
    <nd ref="613431517"/>
    <nd ref="613431521"/>
    <nd ref="613431524"/>
    <nd ref="613431529"/>
    <nd ref="613431531"/>
    <nd ref="613431532"/>
    <nd ref="613431541"/>
    <nd ref="613431515"/>
    <tag k="leisure" v="pitch"/>
  </way>
  <way id="48276954" version="3" timestamp="2011-07-31T13:15:53Z" uid="465700" user="Tomasina" changeset="8880831">
    <nd ref="613431515"/>
    <nd ref="613431517"/>
    <nd ref="613431521"/>
    <nd ref="613431524"/>
    <nd ref="613431529"/>
    <nd ref="613431531"/>
    <nd ref="613431532"/>
    <nd ref="613431541"/>
    <nd ref="613431515"/>
    <tag k="leisure" v="ice_rink"/>
    <tag k="seasonal" v="yes"/>
  </way>
  <way id="48276954" version="4" timestamp="2011-08-03T16:11:16Z" uid="465700" user="Tomasina" changeset="8911491">
    <nd ref="613431515"/>
    <nd ref="613431517"/>
    <nd ref="613431521"/>
    <nd ref="613431524"/>
    <nd ref="613431529"/>
    <nd ref="613431531"/>
    <nd ref="613431532"/>
    <nd ref="613431541"/>
    <nd ref="613431515"/>
    <tag k="leisure" v="pitch"/>
    <tag k="seasonal" v="yes"/>
    <tag k="sport" v="hockey"/>
  </way>
  <way id="48276954" version="5" timestamp="2011-10-08T13:09:02Z" uid="465700" user="Tomasina" changeset="9502433">
    <nd ref="613431515"/>
    <nd ref="613431517"/>
    <nd ref="613431521"/>
    <nd ref="613431524"/>
    <nd ref="613431529"/>
    <nd ref="613431531"/>
    <nd ref="613431532"/>
    <nd ref="613431541"/>
    <nd ref="613431515"/>
    <tag k="leisure" v="ice_rink"/>
    <tag k="seasonal" v="yes"/>
    <tag k="sport" v="hockey tennis"/>
  </way>
  <way id="48276958" version="2" timestamp="2010-07-08T01:18:28Z" uid="74617" user="JohnSmith" changeset="5162525">
    <nd ref="82269621"/>
    <nd ref="82269663"/>
    <nd ref="82269679"/>
    <nd ref="82269632"/>
    <tag k="highway" v="residential"/>
    <tag k="maxspeed" v="50"/>
    <tag k="maxspeed:source" v="default residential speed limit in Australia"/>
    <tag k="name" v="Cranbrook Avenue"/>
    <tag k="note" v="road no longer connects to military road"/>
    <tag k="source" v="yahoo_imagery"/>
    <tag k="source:name" v="historical"/>
  </way>
  <way id="48276958" version="3" timestamp="2012-01-19T21:47:49Z" uid="147510" user="woodpeck_fixbot" changeset="10440306">
    <nd ref="82269621"/>
    <nd ref="82269663"/>
    <nd ref="82269679"/>
    <nd ref="82269632"/>
    <tag k="highway" v="residential"/>
    <tag k="name" v="Cranbrook Avenue"/>
    <tag k="note" v="road no longer connects to military road"/>
    <tag k="source" v="yahoo_imagery"/>
    <tag k="source:name" v="historical"/>
  </way>
  <way id="48276969" version="1" timestamp="2010-01-14T12:44:23Z" uid="115477" user="wowik" changeset="3616661">
    <nd ref="613433781"/>
    <nd ref="613433788"/>
    <nd ref="613433794"/>
    <nd ref="613433800"/>
    <nd ref="613433804"/>
    <nd ref="613433781"/>
    <tag k="leisure" v="playground"/>
  </way>
  <way id="48276969" version="2" timestamp="2011-01-27T17:04:52Z" uid="115477" user="wowik" changeset="7105390">
    <nd ref="613433781"/>
    <nd ref="613433788"/>
    <nd ref="613433794"/>
    <nd ref="613433800"/>
    <nd ref="613433804"/>
    <nd ref="1123564256"/>
    <nd ref="613433781"/>
    <tag k="leisure" v="playground"/>
  </way>
  <way id="48276969" version="3" timestamp="2011-10-08T13:09:01Z" uid="465700" user="Tomasina" changeset="9502433">
    <nd ref="613433781"/>
    <nd ref="613433788"/>
    <nd ref="613433794"/>
    <nd ref="613433800"/>
    <nd ref="613433804"/>
    <nd ref="1123564256"/>
    <nd ref="1458755702"/>
    <nd ref="613433781"/>
    <tag k="highway" v="pedestrian"/>
    <tag k="surface" v="paving_stones"/>
  </way>
  <way id="48276970" version="1" timestamp="2010-01-14T12:44:23Z" uid="115477" user="wowik" changeset="3616661">
    <nd ref="613433815"/>
    <nd ref="613433818"/>
    <nd ref="613433821"/>
    <nd ref="613433824"/>
    <nd ref="613433826"/>
    <nd ref="613433815"/>
    <tag k="leisure" v="playground"/>
  </way>
  <way id="48276970" version="2" timestamp="2010-01-14T12:50:42Z" uid="115477" user="wowik" changeset="3616661">
    <nd ref="613433815"/>
    <nd ref="613433821"/>
    <nd ref="613433824"/>
    <nd ref="613433826"/>
    <nd ref="613433815"/>
    <tag k="leisure" v="playground"/>
  </way>
  <way id="48276972" version="1" timestamp="2010-01-14T12:44:24Z" uid="115477" user="wowik" changeset="3616661">
    <nd ref="613433836"/>
    <nd ref="613433840"/>
    <nd ref="613433846"/>
    <nd ref="613433855"/>
    <nd ref="613433857"/>
    <nd ref="613433836"/>
    <tag k="leisure" v="playground"/>
  </way>
  <way id="48276972" version="2" timestamp="2010-01-14T12:50:43Z" uid="115477" user="wowik" changeset="3616661">
    <nd ref="613433836"/>
    <nd ref="613433846"/>
    <nd ref="613433855"/>
    <nd ref="613433857"/>
    <nd ref="613433836"/>
    <tag k="leisure" v="playground"/>
  </way>
  <way id="48276990" version="2" timestamp="2010-01-15T21:50:55Z" uid="59758" user="rendle" changeset="3627744">
    <nd ref="613083914"/>
    <nd ref="613436113"/>
    <nd ref="614436606"/>
    <tag k="highway" v="road"/>
  </way>
  <way id="48276990" version="3" timestamp="2010-01-15T23:17:18Z" uid="13413" user="Notaris" changeset="3628154">
    <nd ref="613083914"/>
    <nd ref="613436113"/>
    <nd ref="614436606"/>
    <nd ref="613086429"/>
    <tag k="highway" v="road"/>
  </way>
  <way id="48276990" version="4" timestamp="2010-01-17T14:24:44Z" uid="12982" user="Michael Schulze" changeset="3641476">
    <nd ref="613083914"/>
    <nd ref="613436113"/>
    <nd ref="614436606"/>
    <nd ref="613086429"/>
    <tag k="highway" v="service"/>
    <tag k="source" v="GeoEye"/>
  </way>
  <way id="48276990" version="5" timestamp="2010-01-26T20:57:31Z" uid="59758" user="rendle" changeset="3723284">
    <nd ref="613083914"/>
    <nd ref="613436113"/>
    <nd ref="614436606"/>
    <nd ref="613086429"/>
    <nd ref="620882020"/>
    <nd ref="620882021"/>
    <nd ref="620882022"/>
    <nd ref="620882023"/>
    <nd ref="620882024"/>
    <nd ref="620882025"/>
    <tag k="highway" v="service"/>
    <tag k="source" v="GeoEye"/>
  </way>
  <way id="48276990" version="6" timestamp="2012-01-04T15:32:42Z" uid="423062" user="vetillac seneque" changeset="10292027">
    <nd ref="613083914"/>
    <nd ref="613436113"/>
    <nd ref="614436606"/>
    <nd ref="1576892071"/>
    <nd ref="613086429"/>
    <nd ref="620882020"/>
    <nd ref="1576892170"/>
    <nd ref="1576892185"/>
    <nd ref="620882021"/>
    <nd ref="620882022"/>
    <nd ref="620882023"/>
    <nd ref="620882024"/>
    <nd ref="620882025"/>
    <tag k="highway" v="service"/>
    <tag k="source" v="GeoEye"/>
  </way>
  <way id="48276231" version="2" timestamp="2012-07-20T00:33:51Z" uid="722137" user="OSMF Redaction Account" changeset="12352341"/>
  <way id="48276322" version="4" timestamp="2012-09-10T12:23:09Z" uid="99386" user="masti" changeset="13056300">
    <nd ref="111534729"/>
    <nd ref="254518005"/>
    <nd ref="248204263"/>
    <tag k="highway" v="tertiary"/>
    <tag k="lanes" v="2"/>
    <tag k="name" v="Międzynarodowa"/>
    <tag k="wikipedia" v="pl:Ulica Międzynarodowa w Warszawie"/>
  </way>
  <way id="48276328" version="11" timestamp="2012-07-06T01:05:52Z" uid="475943" user="sir-mapalot" changeset="12125890">
    <nd ref="36309940"/>
    <nd ref="1814445941"/>
    <nd ref="32599938"/>
    <nd ref="617647497"/>
    <nd ref="1446467191"/>
    <nd ref="1466925688"/>
    <tag k="access" v="no"/>
    <tag k="bicycle" v="yes"/>
    <tag k="highway" v="secondary"/>
    <tag k="int_ref" v="E67"/>
    <tag k="name" v="Aleja Solidarności"/>
    <tag k="psv" v="yes"/>
    <tag k="ref" v="629"/>
    <tag k="wikipedia" v="pl:Aleja &quot;Solidarności&quot; w Warszawie"/>
  </way>
  <way id="48276328" version="12" timestamp="2012-07-25T02:08:47Z" uid="475943" user="sir-mapalot" changeset="12479922">
    <nd ref="36309940"/>
    <nd ref="1814445941"/>
    <nd ref="32599938"/>
    <nd ref="617647497"/>
    <nd ref="1446467191"/>
    <nd ref="1837185843"/>
    <tag k="access" v="no"/>
    <tag k="bicycle" v="yes"/>
    <tag k="construction" v="secondary"/>
    <tag k="highway" v="construction"/>
    <tag k="int_ref" v="E67"/>
    <tag k="name" v="Aleja Solidarności"/>
    <tag k="psv" v="yes"/>
    <tag k="ref" v="629"/>
    <tag k="wikipedia" v="pl:Aleja &quot;Solidarności&quot; w Warszawie"/>
  </way>
  <way id="48276743" version="3" timestamp="2012-07-19T21:34:56Z" uid="722137" user="OSMF Redaction Account" changeset="12348543">
    <nd ref="613414440"/>
    <nd ref="613414449"/>
    <nd ref="613414454"/>
    <nd ref="613414450"/>
    <nd ref="613414447"/>
    <nd ref="613414448"/>
    <nd ref="613414452"/>
    <nd ref="613414453"/>
    <nd ref="613414441"/>
    <nd ref="613414443"/>
    <nd ref="613414444"/>
    <nd ref="613414445"/>
    <nd ref="613414446"/>
    <nd ref="613414440"/>
    <tag k="leisure" v="park"/>
    <tag k="source" v="neamap"/>
  </way>
  <way id="48276745" version="9" timestamp="2012-07-19T01:22:54Z" uid="7523" user="inas" changeset="12303704">
    <nd ref="81073924"/>
    <nd ref="613414467"/>
    <nd ref="740272386"/>
    <nd ref="1830323190"/>
    <nd ref="1830323189"/>
    <nd ref="699588344"/>
    <tag k="highway" v="residential"/>
    <tag k="lcn" v="yes"/>
    <tag k="name" v="Broughton Street"/>
    <tag k="source" v="survey"/>
    <tag k="source:maxspeed" v="default residential speed limit in Australia"/>
  </way>
  <way id="48276745" version="10" timestamp="2012-07-19T09:39:16Z" uid="713671" user="auspod" changeset="12314663">
    <nd ref="81073924"/>
    <nd ref="613414467"/>
    <nd ref="740272386"/>
    <nd ref="1830323190"/>
    <nd ref="1830323189"/>
    <nd ref="1830585152"/>
    <tag k="highway" v="residential"/>
    <tag k="lcn" v="yes"/>
    <tag k="name" v="Broughton Street"/>
    <tag k="source" v="survey"/>
    <tag k="source:maxspeed" v="default residential speed limit in Australia"/>
  </way>
  <way id="48276745" version="11" timestamp="2012-07-19T21:33:18Z" uid="722137" user="OSMF Redaction Account" changeset="12348390">
    <nd ref="81073924"/>
    <nd ref="613414467"/>
    <nd ref="1830323190"/>
    <nd ref="1830323189"/>
    <nd ref="1830585152"/>
    <tag k="highway" v="residential"/>
    <tag k="lcn" v="yes"/>
    <tag k="name" v="Broughton Street"/>
    <tag k="source" v="survey"/>
  </way>
  <way id="48276746" version="7" timestamp="2012-07-19T21:35:06Z" uid="722137" user="OSMF Redaction Account" changeset="12348543">
    <nd ref="77895399"/>
    <nd ref="603454363"/>
    <nd ref="26358756"/>
    <tag k="highway" v="tertiary"/>
    <tag k="image" v="80n:dsc04133.jpg"/>
    <tag k="name" v="Union Street"/>
    <tag k="source" v="survey"/>
  </way>
  <way id="48276747" version="3" timestamp="2012-07-19T21:34:59Z" uid="722137" user="OSMF Redaction Account" changeset="12348543">
    <nd ref="613414456"/>
    <nd ref="613414455"/>
    <tag k="highway" v="service"/>
    <tag k="name" v="Nottingham Street"/>
    <tag k="source" v="neamap"/>
  </way>
  <way id="48276751" version="3" timestamp="2012-07-19T21:34:59Z" uid="722137" user="OSMF Redaction Account" changeset="12348543">
    <nd ref="613414466"/>
    <nd ref="613414465"/>
    <nd ref="613414463"/>
    <nd ref="613414464"/>
    <nd ref="613414462"/>
    <nd ref="613414459"/>
    <nd ref="613414457"/>
    <nd ref="613414458"/>
    <nd ref="613414460"/>
    <nd ref="613414466"/>
    <tag k="leisure" v="park"/>
    <tag k="source" v="neamap"/>
  </way>
  <way id="48276752" version="4" timestamp="2012-07-19T21:35:00Z" uid="722137" user="OSMF Redaction Account" changeset="12348543">
    <nd ref="613414467"/>
    <nd ref="613414468"/>
    <nd ref="613414475"/>
    <tag k="highway" v="service"/>
    <tag k="name" v="Greenway Drive"/>
    <tag k="source" v="neamap"/>
  </way>
  <way id="48276753" version="4" timestamp="2012-07-19T21:35:02Z" uid="722137" user="OSMF Redaction Account" changeset="12348543">
    <nd ref="613414475"/>
    <nd ref="613414469"/>
    <nd ref="613414470"/>
    <nd ref="613414472"/>
    <nd ref="613414473"/>
    <nd ref="613414474"/>
    <nd ref="613414475"/>
    <tag k="highway" v="service"/>
    <tag k="name" v="Greenway Drive"/>
    <tag k="oneway" v="yes"/>
    <tag k="source" v="neamap"/>
  </way>
  <way id="48276754" version="3" timestamp="2012-07-19T21:35:03Z" uid="722137" user="OSMF Redaction Account" changeset="12348543">
    <nd ref="613414478"/>
    <nd ref="613414479"/>
    <nd ref="613414476"/>
    <nd ref="613414477"/>
    <nd ref="613414478"/>
    <tag k="amenity" v="parking"/>
    <tag k="parking" v="surface"/>
    <tag k="source" v="neamap"/>
  </way>
  <way id="48276755" version="3" timestamp="2012-07-19T21:35:03Z" uid="722137" user="OSMF Redaction Account" changeset="12348543">
    <nd ref="613414482"/>
    <nd ref="613414483"/>
    <nd ref="613414481"/>
    <nd ref="613414484"/>
    <nd ref="613414482"/>
    <tag k="leisure" v="playground"/>
    <tag k="source" v="neamap"/>
  </way>
  <way id="48276756" version="8" timestamp="2012-07-19T21:32:17Z" uid="722137" user="OSMF Redaction Account" changeset="12348236">
    <nd ref="31283427"/>
    <nd ref="462527090"/>
    <nd ref="312099784"/>
    <nd ref="8909693"/>
    <nd ref="402288372"/>
    <nd ref="79702110"/>
    <nd ref="50488049"/>
    <nd ref="79732928"/>
    <tag k="cycleway" v="lane"/>
    <tag k="highway" v="primary"/>
    <tag k="image" v="80n:dsc04237.jpg"/>
    <tag k="maxspeed" v="60"/>
    <tag k="name" v="Pacific Highway"/>
    <tag k="source" v="survey"/>
  </way>
  <way id="48276756" version="9" timestamp="2012-08-01T09:34:17Z" uid="7523" user="inas" changeset="12571703">
    <nd ref="31283427"/>
    <nd ref="462527090"/>
    <nd ref="312099784"/>
    <nd ref="8909693"/>
    <nd ref="402288372"/>
    <nd ref="79702110"/>
    <nd ref="50488049"/>
    <nd ref="79732928"/>
    <tag k="cycleway" v="lane"/>
    <tag k="highway" v="primary"/>
    <tag k="maxspeed" v="60"/>
    <tag k="name" v="Pacific Highway"/>
    <tag k="source" v="survey"/>
  </way>
  <way id="48276756" version="10" timestamp="2012-08-03T00:25:32Z" uid="7523" user="inas" changeset="12592592">
    <nd ref="31283427"/>
    <nd ref="462527090"/>
    <nd ref="312099784"/>
    <nd ref="8909693"/>
    <nd ref="402288372"/>
    <nd ref="79702110"/>
    <nd ref="50488049"/>
    <nd ref="79732928"/>
    <tag k="highway" v="primary"/>
    <tag k="maxspeed" v="60"/>
    <tag k="name" v="Pacific Highway"/>
    <tag k="source" v="survey"/>
  </way>
  <way id="48276758" version="8" timestamp="2012-07-19T21:41:25Z" uid="722137" user="OSMF Redaction Account" changeset="12348779"/>
  <way id="48276759" version="6" timestamp="2012-08-24T06:44:39Z" uid="69319" user="Rhubarb" changeset="12841209">
    <nd ref="50498918"/>
    <nd ref="81012981"/>
    <nd ref="363447401"/>
    <tag k="highway" v="secondary"/>
    <tag k="image" v="80n:dsc04262.jpg"/>
    <tag k="name" v="Miller Street"/>
  </way>
  <way id="48276760" version="3" timestamp="2012-07-19T21:35:56Z" uid="722137" user="OSMF Redaction Account" changeset="12348543">
    <nd ref="613414487"/>
    <nd ref="613414485"/>
    <nd ref="613414489"/>
    <nd ref="613414490"/>
    <nd ref="613414491"/>
    <nd ref="613414493"/>
    <nd ref="613414494"/>
    <nd ref="613414492"/>
    <nd ref="613414488"/>
    <nd ref="613414487"/>
    <tag k="leisure" v="park"/>
    <tag k="name" v="Christie Street Reserve"/>
    <tag k="source" v="neamap"/>
  </way>
  <way id="48276761" version="4" timestamp="2012-07-19T21:35:26Z" uid="722137" user="OSMF Redaction Account" changeset="12348543">
    <nd ref="613414502"/>
    <nd ref="613414497"/>
    <nd ref="613414498"/>
    <nd ref="613414500"/>
    <nd ref="613414495"/>
    <nd ref="613414501"/>
    <nd ref="613414496"/>
    <nd ref="613414502"/>
    <tag k="leisure" v="park"/>
    <tag k="name" v="Weaver Park"/>
    <tag k="source" v="neamap"/>
  </way>
  <way id="48276762" version="4" timestamp="2012-07-19T21:32:40Z" uid="722137" user="OSMF Redaction Account" changeset="12348390">
    <nd ref="29374638"/>
    <nd ref="29374640"/>
    <nd ref="517352820"/>
    <nd ref="29374641"/>
    <tag k="highway" v="residential"/>
    <tag k="name" v="Murdoch Street"/>
    <tag k="source:name" v="historical"/>
  </way>
  <way id="48276763" version="7" timestamp="2012-07-13T04:22:41Z" uid="705018" user="jinkson" changeset="12202605"/>
  <way id="48276764" version="3" timestamp="2012-07-19T21:35:27Z" uid="722137" user="OSMF Redaction Account" changeset="12348543">
    <nd ref="613414504"/>
    <nd ref="613414503"/>
    <tag k="highway" v="service"/>
    <tag k="name" v="Cranbrook Lane"/>
    <tag k="source" v="neamap"/>
  </way>
  <way id="48276765" version="4" timestamp="2012-07-13T00:41:27Z" uid="705018" user="jinkson" changeset="12201938">
    <nd ref="613414508"/>
    <nd ref="613414505"/>
    <nd ref="613414506"/>
    <tag k="foot" v="yes"/>
    <tag k="highway" v="pedestrian"/>
    <tag k="name" v="Langley Place"/>
    <tag k="source" v="survey"/>
  </way>
  <way id="48276765" version="5" timestamp="2012-07-13T00:43:11Z" uid="705018" user="jinkson" changeset="12201938">
    <nd ref="613414508"/>
    <nd ref="1823546626"/>
    <tag k="foot" v="yes"/>
    <tag k="highway" v="pedestrian"/>
    <tag k="name" v="Langley Place"/>
    <tag k="source" v="survey"/>
  </way>
  <way id="48276765" version="6" timestamp="2012-07-13T00:59:51Z" uid="705018" user="jinkson" changeset="12201938"/>
  <way id="48276767" version="4" timestamp="2012-08-02T16:50:03Z" uid="510836" user="Rub21" changeset="12588148">
    <nd ref="603440166"/>
    <nd ref="1848666572"/>
    <nd ref="603440173"/>
    <tag k="highway" v="residential"/>
    <tag k="name" v="Park Avenue"/>
    <tag k="source" v="yahoo_imagery"/>
  </way>
  <way id="48276803" version="2" timestamp="2012-07-21T16:46:20Z" uid="722137" user="OSMF Redaction Account" changeset="12415125"/>
  <way id="48276804" version="2" timestamp="2012-07-21T16:46:20Z" uid="722137" user="OSMF Redaction Account" changeset="12415125"/>
  <way id="48276807" version="4" timestamp="2012-07-21T16:46:19Z" uid="722137" user="OSMF Redaction Account" changeset="12415125"/>
  <way id="48276892" version="4" timestamp="2012-07-25T13:48:36Z" uid="211804" user="KenS" changeset="12487227">
    <nd ref="612904391"/>
    <nd ref="567266025"/>
    <tag k="cycleway" v="lane"/>
    <tag k="highway" v="tertiary"/>
    <tag k="name" v="McKimmies Road"/>
    <tag k="source" v="bing"/>
  </way>
  <way id="48276953" version="5" timestamp="2012-07-20T20:26:35Z" uid="722137" user="OSMF Redaction Account" changeset="12390397"/>
  <way id="48276954" version="6" timestamp="2012-07-20T20:26:36Z" uid="722137" user="OSMF Redaction Account" changeset="12390397"/>
  <way id="48276969" version="4" timestamp="2012-07-20T20:26:37Z" uid="722137" user="OSMF Redaction Account" changeset="12390397"/>
  <way id="48276970" version="3" timestamp="2012-07-20T20:26:38Z" uid="722137" user="OSMF Redaction Account" changeset="12390397"/>
  <way id="48276972" version="3" timestamp="2012-07-20T20:26:37Z" uid="722137" user="OSMF Redaction Account" changeset="12390397"/>
  <way id="48276990" version="7" timestamp="2012-07-01T21:02:17Z" uid="24440" user="jaakkoh" changeset="12081121">
    <nd ref="613083914"/>
    <nd ref="613436113"/>
    <tag k="highway" v="service"/>
    <tag k="source" v="GeoEye"/>
  </way>
</osm>
