<?xml version='1.0' encoding='UTF-8'?>
<osm version="0.6" generator="libosmium/2.20.0">
  <way id="48288049" version="2" timestamp="2010-01-15T14:07:45Z" uid="8619" user="cetest" changeset="3624468">
    <nd ref="613530654"/>
    <nd ref="613530659"/>
    <nd ref="613530663"/>
    <nd ref="613530666"/>
    <nd ref="613530669"/>
    <nd ref="613530672"/>
    <nd ref="613530674"/>
    <nd ref="613530677"/>
    <nd ref="613530680"/>
    <nd ref="613530682"/>
    <nd ref="613530686"/>
    <nd ref="613530689"/>
    <nd ref="613530654"/>
    <tag k="building" v="yes"/>
    <tag k="name" v="Réservoir d&apos;eau de Bolosse"/>
  </way>
  <way id="48288049" version="3" timestamp="2011-12-22T23:45:36Z" uid="231539" user="Xapitoun" changeset="10183924">
    <nd ref="613530654"/>
    <nd ref="613530659"/>
    <nd ref="613530663"/>
    <nd ref="613530666"/>
    <nd ref="613530669"/>
    <nd ref="613530672"/>
    <nd ref="613530674"/>
    <nd ref="613530677"/>
    <nd ref="613530680"/>
    <nd ref="613530682"/>
    <nd ref="613530686"/>
    <nd ref="613530689"/>
    <nd ref="613530654"/>
    <tag k="building" v="yes"/>
    <tag k="man_made" v="water_tower"/>
    <tag k="name" v="Réservoir d&apos;Eau de Bolosse"/>
  </way>
  <way id="48288050" version="1" timestamp="2010-01-14T15:56:21Z" uid="8619" user="cetest" changeset="3617885">
    <nd ref="613530530"/>
    <nd ref="613530537"/>
    <nd ref="613530531"/>
    <nd ref="613530528"/>
    <nd ref="613530530"/>
    <tag k="sport" v="soccer"/>
  </way>
  <way id="48288050" version="2" timestamp="2010-01-14T19:53:44Z" uid="194076" user="Gurduloo" changeset="3619486">
    <nd ref="613530530"/>
    <nd ref="613530537"/>
    <nd ref="613530531"/>
    <nd ref="613530528"/>
    <nd ref="613530530"/>
    <tag k="refugee" v="yes"/>
    <tag k="source" v="GeoEye"/>
    <tag k="tourism" v="camp_site"/>
  </way>
  <way id="48288050" version="3" timestamp="2010-01-15T20:41:11Z" uid="219187" user="jgc" changeset="3627222">
    <nd ref="613530530"/>
    <nd ref="613530537"/>
    <nd ref="613530531"/>
    <nd ref="613530528"/>
    <nd ref="613530530"/>
    <tag k="ID" v="44"/>
    <tag k="refugee" v="yes"/>
    <tag k="source" v="GeoEye"/>
    <tag k="tourism" v="camp_site"/>
  </way>
  <way id="48288050" version="4" timestamp="2010-01-23T17:40:07Z" uid="223438" user="luccastera" changeset="3693505">
    <nd ref="613530530"/>
    <nd ref="613530537"/>
    <nd ref="613530531"/>
    <nd ref="613530528"/>
    <nd ref="613530530"/>
    <tag k="ID" v="44"/>
    <tag k="name" v="Parc Sainte Therese"/>
    <tag k="refugee" v="yes"/>
    <tag k="source" v="GeoEye"/>
    <tag k="tourism" v="camp_site"/>
  </way>
  <way id="48288050" version="5" timestamp="2010-02-18T01:19:53Z" uid="79857" user="RDSantiago" changeset="3905927">
    <nd ref="613530530"/>
    <nd ref="613530537"/>
    <nd ref="613530531"/>
    <nd ref="613530528"/>
    <nd ref="613530530"/>
    <tag k="ID" v="44"/>
    <tag k="addr:country" v="HT"/>
    <tag k="name" v="Parc Sainte Therese"/>
    <tag k="refugee" v="yes"/>
    <tag k="source" v="GeoEye"/>
    <tag k="tourism" v="camp_site"/>
  </way>
  <way id="48288050" version="6" timestamp="2011-05-02T06:54:27Z" uid="26348" user="Rodolphe Quiédeville" changeset="8028081">
    <nd ref="613530530"/>
    <nd ref="613530537"/>
    <nd ref="613530531"/>
    <nd ref="613530528"/>
    <nd ref="613530530"/>
    <tag k="addr:country" v="HT"/>
    <tag k="id" v="44"/>
    <tag k="name" v="Parc Sainte Therese"/>
    <tag k="refugee" v="yes"/>
    <tag k="source" v="GeoEye"/>
    <tag k="tourism" v="camp_site"/>
  </way>
  <way id="48288050" version="7" timestamp="2011-05-18T13:37:04Z" uid="24440" user="jaakkoh" changeset="8180847">
    <nd ref="613530530"/>
    <nd ref="613530537"/>
    <nd ref="613530531"/>
    <nd ref="613530528"/>
    <nd ref="613530530"/>
    <tag k="addr:country" v="HT"/>
    <tag k="id" v="44"/>
    <tag k="landmark" v="yes"/>
    <tag k="name" v="Parc Sainte Therese"/>
    <tag k="refugee" v="yes"/>
    <tag k="source" v="GeoEye"/>
    <tag k="tourism" v="camp_site"/>
  </way>
  <way id="48288050" version="8" timestamp="2012-02-20T02:49:45Z" uid="219668" user="severinmenard" changeset="10736922">
    <nd ref="613530530"/>
    <nd ref="613530537"/>
    <nd ref="613530531"/>
    <nd ref="613530528"/>
    <nd ref="613530530"/>
    <tag k="addr:country" v="HT"/>
    <tag k="id" v="44"/>
    <tag k="landmark" v="yes"/>
    <tag k="name" v="Parc Sainte-Thérèse"/>
    <tag k="refugee" v="yes"/>
    <tag k="source" v="GeoEye"/>
    <tag k="tourism" v="camp_site"/>
  </way>
  <way id="48288050" version="9" timestamp="2012-02-28T13:43:37Z" uid="24440" user="jaakkoh" changeset="10818776">
    <nd ref="613530530"/>
    <nd ref="613530537"/>
    <nd ref="613530531"/>
    <nd ref="1651504898"/>
    <nd ref="613530528"/>
    <nd ref="613530530"/>
    <tag k="addr:country" v="HT"/>
    <tag k="id" v="44"/>
    <tag k="landmark" v="yes"/>
    <tag k="name" v="Parc Sainte-Thérèse"/>
    <tag k="odbl" v="clean"/>
    <tag k="refugee" v="yes"/>
    <tag k="source" v="GeoEye"/>
    <tag k="tourism" v="camp_site"/>
  </way>
  <way id="48288051" version="2" timestamp="2010-01-15T11:19:19Z" uid="8619" user="cetest" changeset="3623403">
    <nd ref="613530691"/>
    <nd ref="613530692"/>
    <nd ref="613530693"/>
    <nd ref="613530694"/>
    <nd ref="613530691"/>
    <tag k="amenity" v="place_of_worship"/>
    <tag k="building" v="yes"/>
    <tag k="name" v="Chapelle de Ste. Philoméne"/>
    <tag k="religion" v="christian"/>
  </way>
  <way id="48288051" version="3" timestamp="2010-02-18T01:17:51Z" uid="79857" user="RDSantiago" changeset="3905927">
    <nd ref="613530691"/>
    <nd ref="613530692"/>
    <nd ref="613530693"/>
    <nd ref="613530694"/>
    <nd ref="613530691"/>
    <tag k="addr:country" v="HT"/>
    <tag k="amenity" v="place_of_worship"/>
    <tag k="building" v="yes"/>
    <tag k="name" v="Chapelle de Ste. Philoméne"/>
    <tag k="religion" v="christian"/>
  </way>
  <way id="48288052" version="1" timestamp="2010-01-14T15:56:22Z" uid="8619" user="cetest" changeset="3617885">
    <nd ref="613530533"/>
    <nd ref="613530536"/>
    <nd ref="613530532"/>
    <nd ref="613530534"/>
    <nd ref="613530533"/>
    <tag k="amenity" v="place_of_worship"/>
    <tag k="denomination" v="catholic"/>
    <tag k="name" v="Église St.-Thérése"/>
    <tag k="religion" v="christian"/>
  </way>
  <way id="48288052" version="2" timestamp="2010-02-18T01:19:53Z" uid="79857" user="RDSantiago" changeset="3905927">
    <nd ref="613530533"/>
    <nd ref="613530536"/>
    <nd ref="613530532"/>
    <nd ref="613530534"/>
    <nd ref="613530533"/>
    <tag k="addr:country" v="HT"/>
    <tag k="amenity" v="place_of_worship"/>
    <tag k="denomination" v="catholic"/>
    <tag k="name" v="Église St.-Thérése"/>
    <tag k="religion" v="christian"/>
  </way>
  <way id="48288052" version="3" timestamp="2010-10-29T20:52:15Z" uid="24440" user="jaakkoh" changeset="6221445">
    <nd ref="613530533"/>
    <nd ref="613530536"/>
    <nd ref="613530532"/>
    <nd ref="613530534"/>
    <nd ref="613530533"/>
    <tag k="addr:country" v="HT"/>
    <tag k="amenity" v="place_of_worship"/>
    <tag k="building" v="yes"/>
    <tag k="denomination" v="catholic"/>
    <tag k="name" v="Église St.-Thérése"/>
    <tag k="religion" v="christian"/>
  </way>
  <way id="48288052" version="4" timestamp="2012-02-20T02:48:37Z" uid="219668" user="severinmenard" changeset="10736918">
    <nd ref="613530533"/>
    <nd ref="613530536"/>
    <nd ref="613530532"/>
    <nd ref="613530534"/>
    <nd ref="613530533"/>
    <tag k="addr:country" v="HT"/>
    <tag k="amenity" v="place_of_worship"/>
    <tag k="building" v="yes"/>
    <tag k="denomination" v="catholic"/>
    <tag k="name" v="Église Sainte-Thérèse"/>
    <tag k="religion" v="christian"/>
  </way>
  <way id="48288052" version="5" timestamp="2012-02-28T13:43:47Z" uid="24440" user="jaakkoh" changeset="10818776">
    <nd ref="613530533"/>
    <nd ref="613530536"/>
    <nd ref="613530532"/>
    <nd ref="613530534"/>
    <nd ref="613530533"/>
    <tag k="addr:country" v="HT"/>
    <tag k="amenity" v="place_of_worship"/>
    <tag k="building" v="yes"/>
    <tag k="denomination" v="catholic"/>
    <tag k="name" v="Église Sainte-Thérèse"/>
    <tag k="odbl" v="clean"/>
    <tag k="religion" v="christian"/>
  </way>
  <way id="48288053" version="1" timestamp="2010-01-14T15:56:22Z" uid="8619" user="cetest" changeset="3617885">
    <nd ref="613530539"/>
    <nd ref="613530541"/>
    <nd ref="613530543"/>
    <nd ref="613530545"/>
    <nd ref="613530547"/>
    <nd ref="613530548"/>
    <nd ref="613530539"/>
    <tag k="name" v="Hôtel El Rancho"/>
    <tag k="tourism" v="hotel"/>
  </way>
  <way id="48288053" version="2" timestamp="2010-01-18T13:07:49Z" uid="57054" user="26eb5473101d742b174d730717409668" changeset="3650022">
    <nd ref="613530539"/>
    <nd ref="613530541"/>
    <nd ref="613530543"/>
    <nd ref="613530545"/>
    <nd ref="613530547"/>
    <nd ref="613530548"/>
    <nd ref="613530539"/>
    <tag k="building" v="collapsed"/>
    <tag k="earthquake:damage" v="collapsed_building"/>
    <tag k="name" v="Hôtel El Rancho"/>
    <tag k="source" v="Ithaca,2010-01-15"/>
    <tag k="source:imagery" v="GeoEye,2010-01-13"/>
    <tag k="tourism" v="hotel"/>
  </way>
  <way id="48288053" version="3" timestamp="2010-02-18T01:19:58Z" uid="79857" user="RDSantiago" changeset="3905927">
    <nd ref="613530539"/>
    <nd ref="613530541"/>
    <nd ref="613530543"/>
    <nd ref="613530545"/>
    <nd ref="613530547"/>
    <nd ref="613530548"/>
    <nd ref="613530539"/>
    <tag k="addr:country" v="HT"/>
    <tag k="building" v="collapsed"/>
    <tag k="earthquake:damage" v="collapsed_building"/>
    <tag k="name" v="Hôtel El Rancho"/>
    <tag k="source" v="Ithaca,2010-01-15"/>
    <tag k="source:imagery" v="GeoEye,2010-01-13"/>
    <tag k="tourism" v="hotel"/>
  </way>
  <way id="48288053" version="4" timestamp="2011-06-03T17:45:59Z" uid="24440" user="jaakkoh" changeset="8331852">
    <nd ref="613530539"/>
    <nd ref="613530541"/>
    <nd ref="613530543"/>
    <nd ref="613530545"/>
    <nd ref="613530547"/>
    <nd ref="613530548"/>
    <nd ref="613530539"/>
    <tag k="addr:country" v="HT"/>
    <tag k="building" v="collapsed"/>
    <tag k="earthquake:damage" v="collapsed_building"/>
    <tag k="name" v="Hôtel El Rancho"/>
    <tag k="ruins" v="yes"/>
    <tag k="source" v="Ithaca,2010-01-15"/>
    <tag k="source:imagery" v="GeoEye,2010-01-13"/>
    <tag k="tourism" v="hotel"/>
  </way>
  <way id="48288053" version="5" timestamp="2011-10-05T17:00:16Z" uid="441065" user="ALCE SamuelPaul" changeset="9479633">
    <nd ref="613530539"/>
    <nd ref="613530541"/>
    <nd ref="613530543"/>
    <nd ref="613530545"/>
    <nd ref="613530547"/>
    <nd ref="613530548"/>
    <nd ref="613530539"/>
    <tag k="addr:country" v="HT"/>
    <tag k="addr:full" v="Avenue Pan Americain,Rue Jose de San Martin"/>
    <tag k="addr:street" v="Rue Jose de San Martin"/>
    <tag k="building" v="collapsed"/>
    <tag k="earthquake:damage" v="collapsed_building"/>
    <tag k="name" v="Hôtel El Rancho"/>
    <tag k="ruins" v="yes"/>
    <tag k="source" v="Ithaca,2010-01-15"/>
    <tag k="source:imagery" v="GeoEye,2010-01-13"/>
    <tag k="tourism" v="hotel"/>
  </way>
  <way id="48288053" version="6" timestamp="2012-03-24T00:52:47Z" uid="24440" user="jaakkoh" changeset="11080027">
    <nd ref="613530539"/>
    <nd ref="613530541"/>
    <nd ref="613530543"/>
    <nd ref="613530545"/>
    <nd ref="613530547"/>
    <nd ref="613530548"/>
    <nd ref="613530539"/>
    <tag k="addr:country" v="HT"/>
    <tag k="addr:full" v="Avenue Pan Americain,Rue Jose de San Martin"/>
    <tag k="addr:street" v="Rue Jose de San Martin"/>
    <tag k="building" v="collapsed"/>
    <tag k="earthquake:damage" v="collapsed_building"/>
    <tag k="name" v="Hôtel El Rancho"/>
    <tag k="odbl" v="clean"/>
    <tag k="ruins" v="yes"/>
    <tag k="source" v="Ithaca,2010-01-15"/>
    <tag k="source:imagery" v="GeoEye,2010-01-13"/>
    <tag k="tourism" v="hotel"/>
  </way>
  <way id="48288054" version="1" timestamp="2010-01-14T15:56:22Z" uid="8619" user="cetest" changeset="3617885">
    <nd ref="613530556"/>
    <nd ref="613530557"/>
    <nd ref="613530554"/>
    <nd ref="613530559"/>
    <nd ref="613530552"/>
    <nd ref="613530558"/>
    <nd ref="613530555"/>
    <nd ref="613530550"/>
    <nd ref="613530556"/>
    <tag k="name" v="Hôtel Villa Créola"/>
    <tag k="tourism" v="hotel"/>
  </way>
  <way id="48288054" version="2" timestamp="2010-02-08T20:42:30Z" uid="40023" user="ALE!" changeset="3826767">
    <nd ref="613530556"/>
    <nd ref="613530557"/>
    <nd ref="613530554"/>
    <nd ref="613530559"/>
    <nd ref="613530552"/>
    <nd ref="613530558"/>
    <nd ref="613530555"/>
    <nd ref="613530550"/>
    <nd ref="613530556"/>
    <tag k="FIXME" v="location not correct!"/>
    <tag k="name" v="Hôtel Villa Créola"/>
    <tag k="tourism" v="hotel"/>
  </way>
  <way id="48288054" version="3" timestamp="2010-02-18T01:19:58Z" uid="79857" user="RDSantiago" changeset="3905927">
    <nd ref="613530556"/>
    <nd ref="613530557"/>
    <nd ref="613530554"/>
    <nd ref="613530559"/>
    <nd ref="613530552"/>
    <nd ref="613530558"/>
    <nd ref="613530555"/>
    <nd ref="613530550"/>
    <nd ref="613530556"/>
    <tag k="FIXME" v="location not correct!"/>
    <tag k="addr:country" v="HT"/>
    <tag k="name" v="Hôtel Villa Créola"/>
    <tag k="tourism" v="hotel"/>
  </way>
  <way id="48288054" version="4" timestamp="2011-06-03T17:46:00Z" uid="24440" user="jaakkoh" changeset="8331852">
    <nd ref="613530556"/>
    <nd ref="613530557"/>
    <nd ref="1310819905"/>
    <nd ref="1310819816"/>
    <nd ref="1310819900"/>
    <nd ref="1310819907"/>
    <nd ref="613530554"/>
    <nd ref="1310819867"/>
    <nd ref="1310819901"/>
    <nd ref="1310819820"/>
    <nd ref="1310819817"/>
    <nd ref="1310819813"/>
    <nd ref="1310819844"/>
    <nd ref="1310819839"/>
    <nd ref="1310819841"/>
    <nd ref="1310819823"/>
    <nd ref="1310819810"/>
    <nd ref="1310819848"/>
    <nd ref="1310819846"/>
    <nd ref="1310819850"/>
    <nd ref="1310819853"/>
    <nd ref="1310819807"/>
    <nd ref="1310819909"/>
    <nd ref="613530559"/>
    <nd ref="613530552"/>
    <nd ref="613530558"/>
    <nd ref="1310819915"/>
    <nd ref="1310819911"/>
    <nd ref="1310819885"/>
    <nd ref="1310819918"/>
    <nd ref="613530555"/>
    <nd ref="613530550"/>
    <nd ref="613530556"/>
    <tag k="addr:country" v="HT"/>
    <tag k="addr:housenumber" v="30"/>
    <tag k="addr:street" v="impasse José de St-Martin"/>
    <tag k="building" v="yes"/>
    <tag k="email" v="info@villacreole.com"/>
    <tag k="name" v="Hôtel Villa Créole"/>
    <tag k="source" v="survey; Bing; hotel info"/>
    <tag k="tourism" v="hotel"/>
    <tag k="website" v="http://www.villacreole.com"/>
  </way>
  <way id="48288054" version="5" timestamp="2012-03-24T00:52:47Z" uid="24440" user="jaakkoh" changeset="11080027">
    <nd ref="613530556"/>
    <nd ref="613530557"/>
    <nd ref="1310819905"/>
    <nd ref="1310819816"/>
    <nd ref="1310819900"/>
    <nd ref="1310819907"/>
    <nd ref="613530554"/>
    <nd ref="1310819867"/>
    <nd ref="1310819901"/>
    <nd ref="1310819820"/>
    <nd ref="1310819817"/>
    <nd ref="1310819813"/>
    <nd ref="1310819844"/>
    <nd ref="1310819839"/>
    <nd ref="1310819841"/>
    <nd ref="1310819823"/>
    <nd ref="1310819810"/>
    <nd ref="1310819848"/>
    <nd ref="1310819846"/>
    <nd ref="1310819850"/>
    <nd ref="1310819853"/>
    <nd ref="1310819807"/>
    <nd ref="1310819909"/>
    <nd ref="613530559"/>
    <nd ref="613530552"/>
    <nd ref="613530558"/>
    <nd ref="1310819915"/>
    <nd ref="1310819911"/>
    <nd ref="1310819885"/>
    <nd ref="1310819918"/>
    <nd ref="613530555"/>
    <nd ref="613530550"/>
    <nd ref="613530556"/>
    <tag k="addr:country" v="HT"/>
    <tag k="addr:housenumber" v="30"/>
    <tag k="addr:street" v="impasse José de St-Martin"/>
    <tag k="building" v="yes"/>
    <tag k="email" v="info@villacreole.com"/>
    <tag k="name" v="Hôtel Villa Créole"/>
    <tag k="odbl" v="clean"/>
    <tag k="restaurant" v="yes"/>
    <tag k="source" v="survey; Bing; hotel info"/>
    <tag k="tourism" v="hotel"/>
    <tag k="website" v="http://www.villacreole.com"/>
  </way>
  <way id="48288055" version="1" timestamp="2010-01-14T15:56:22Z" uid="8619" user="cetest" changeset="3617885">
    <nd ref="613530670"/>
    <nd ref="613530667"/>
    <nd ref="613530671"/>
    <nd ref="613530668"/>
    <nd ref="613530670"/>
    <tag k="name" v="Hôpital Montana"/>
    <tag k="tourism" v="hotel"/>
  </way>
  <way id="48288055" version="2" timestamp="2010-01-16T22:02:09Z" uid="24920" user="Schusch" changeset="3636171">
    <nd ref="613530670"/>
    <nd ref="613530667"/>
    <nd ref="613530671"/>
    <nd ref="613530668"/>
    <nd ref="613530670"/>
    <tag k="building" v="collapsed"/>
    <tag k="name" v="Hotel Montana"/>
    <tag k="tourism" v="hotel"/>
  </way>
  <way id="48288055" version="3" timestamp="2010-01-16T22:33:09Z" uid="24920" user="Schusch" changeset="3636417">
    <nd ref="613530667"/>
    <nd ref="613530671"/>
    <nd ref="613530668"/>
    <nd ref="615014048"/>
    <nd ref="615014049"/>
    <nd ref="614376631"/>
    <nd ref="614376633"/>
    <nd ref="614376647"/>
    <nd ref="615014035"/>
    <nd ref="614376625"/>
    <nd ref="615014037"/>
    <nd ref="615014038"/>
    <nd ref="614376627"/>
    <nd ref="615014036"/>
    <nd ref="613530670"/>
    <nd ref="613530667"/>
    <tag k="building" v="collapsed"/>
    <tag k="earthquake:damage" v="collapsed_building"/>
    <tag k="name" v="Hotel Montana"/>
    <tag k="source" v="Ithaca,2010-01-15"/>
    <tag k="source:imagery" v="GeoEye,2010-01-13"/>
    <tag k="tourism" v="hotel"/>
  </way>
  <way id="48288055" version="4" timestamp="2010-02-18T01:20:41Z" uid="79857" user="RDSantiago" changeset="3905927">
    <nd ref="613530667"/>
    <nd ref="613530671"/>
    <nd ref="613530668"/>
    <nd ref="615014048"/>
    <nd ref="615014049"/>
    <nd ref="614376631"/>
    <nd ref="614376633"/>
    <nd ref="614376647"/>
    <nd ref="615014035"/>
    <nd ref="614376625"/>
    <nd ref="615014037"/>
    <nd ref="615014038"/>
    <nd ref="614376627"/>
    <nd ref="615014036"/>
    <nd ref="613530670"/>
    <nd ref="613530667"/>
    <tag k="addr:country" v="HT"/>
    <tag k="building" v="collapsed"/>
    <tag k="earthquake:damage" v="collapsed_building"/>
    <tag k="name" v="Hotel Montana"/>
    <tag k="source" v="Ithaca,2010-01-15"/>
    <tag k="source:imagery" v="GeoEye,2010-01-13"/>
    <tag k="tourism" v="hotel"/>
  </way>
  <way id="48288055" version="5" timestamp="2010-09-16T16:10:53Z" uid="231539" user="Xapitoun" changeset="5796915">
    <nd ref="613530667"/>
    <nd ref="613530671"/>
    <nd ref="613530668"/>
    <nd ref="615014048"/>
    <nd ref="615014049"/>
    <nd ref="614376631"/>
    <nd ref="614376633"/>
    <nd ref="614376647"/>
    <nd ref="615014035"/>
    <nd ref="614376625"/>
    <nd ref="615014037"/>
    <nd ref="615014038"/>
    <nd ref="614376627"/>
    <nd ref="615014036"/>
    <nd ref="613530670"/>
    <nd ref="613530667"/>
    <tag k="addr:country" v="HT"/>
    <tag k="building" v="collapsed"/>
    <tag k="earthquake:damage" v="collapsed_building"/>
    <tag k="name" v="Hôtel Montana"/>
    <tag k="source" v="Ithaca,2010-01-15"/>
    <tag k="source:imagery" v="GeoEye,2010-01-13"/>
    <tag k="tourism" v="hotel"/>
  </way>
  <way id="48288055" version="6" timestamp="2011-05-18T13:37:05Z" uid="24440" user="jaakkoh" changeset="8180847">
    <nd ref="613530667"/>
    <nd ref="613530671"/>
    <nd ref="613530668"/>
    <nd ref="615014048"/>
    <nd ref="615014049"/>
    <nd ref="614376631"/>
    <nd ref="614376633"/>
    <nd ref="614376647"/>
    <nd ref="615014035"/>
    <nd ref="614376625"/>
    <nd ref="615014037"/>
    <nd ref="615014038"/>
    <nd ref="614376627"/>
    <nd ref="615014036"/>
    <nd ref="613530670"/>
    <nd ref="613530667"/>
    <tag k="addr:country" v="HT"/>
    <tag k="building" v="collapsed"/>
    <tag k="earthquake:damage" v="collapsed_building"/>
    <tag k="old_name" v="Hôtel Montana"/>
    <tag k="ruins" v="yes"/>
    <tag k="source" v="Ithaca,2010-01-15"/>
    <tag k="source:imagery" v="GeoEye,2010-01-13"/>
  </way>
  <way id="48288055" version="7" timestamp="2011-09-27T22:58:13Z" uid="24440" user="jaakkoh" changeset="9415267">
    <nd ref="613530667"/>
    <nd ref="1447544191"/>
    <nd ref="613530671"/>
    <nd ref="613530668"/>
    <nd ref="615014048"/>
    <nd ref="615014049"/>
    <nd ref="614376631"/>
    <nd ref="614376633"/>
    <nd ref="614376647"/>
    <nd ref="615014035"/>
    <nd ref="614376625"/>
    <nd ref="615014037"/>
    <nd ref="615014038"/>
    <nd ref="1447544190"/>
    <nd ref="614376627"/>
    <nd ref="1447544189"/>
    <nd ref="615014036"/>
    <nd ref="1447544181"/>
    <nd ref="613530670"/>
    <nd ref="613530667"/>
    <tag k="addr:country" v="HT"/>
    <tag k="building" v="collapsed"/>
    <tag k="earthquake:damage" v="collapsed_building"/>
    <tag k="old_name" v="Hôtel Montana"/>
    <tag k="ruins" v="yes"/>
    <tag k="source" v="Ithaca,2010-01-15"/>
    <tag k="source:imagery" v="GeoEye,2010-01-13"/>
  </way>
  <way id="48288056" version="1" timestamp="2010-01-14T15:56:23Z" uid="8619" user="cetest" changeset="3617885">
    <nd ref="613530675"/>
    <nd ref="613530676"/>
    <nd ref="613530673"/>
    <nd ref="613530678"/>
    <nd ref="613530675"/>
    <tag k="amenity" v="hospital"/>
    <tag k="name" v="Centre de Santé Eliazer Germain"/>
  </way>
  <way id="48288056" version="2" timestamp="2010-01-21T06:46:39Z" uid="219187" user="jgc" changeset="3672435">
    <nd ref="613530675"/>
    <nd ref="613530676"/>
    <nd ref="613530673"/>
    <nd ref="613530678"/>
    <nd ref="613530675"/>
    <tag k="addr" v="45, rue panamericaine, Petion-ville"/>
    <tag k="amenity" v="hospital"/>
    <tag k="earthquake:damage" v="yes"/>
    <tag k="name" v="Centre de Santé Eliazer Germain"/>
    <tag k="source:addr" v="https://spreadsheets.google.com/ccc?key=0ArlMTYEgfvwsdERtTkxRUVVqRXdpVzlDSlFnb3F1UHc&amp;hl=en"/>
  </way>
  <way id="48288056" version="3" timestamp="2010-01-24T22:26:12Z" uid="12982" user="Michael Schulze" changeset="3706863">
    <nd ref="613530675"/>
    <nd ref="613530676"/>
    <nd ref="613530673"/>
    <nd ref="613530678"/>
    <nd ref="613530675"/>
    <tag k="addr:city" v="Pétion-ville"/>
    <tag k="addr:full" v="45, rue panamericaine, Petion-ville"/>
    <tag k="addr:housenumber" v="45"/>
    <tag k="addr:street" v="Rue Pan-Américaine"/>
    <tag k="amenity" v="hospital"/>
    <tag k="earthquake:damage" v="yes"/>
    <tag k="name" v="Centre de Santé Eliazer Germain"/>
    <tag k="sahana_id" v="37"/>
    <tag k="source:addr" v="https://spreadsheets.google.com/ccc?key=0ArlMTYEgfvwsdERtTkxRUVVqRXdpVzlDSlFnb3F1UHc&amp;hl=en"/>
  </way>
  <way id="48288056" version="4" timestamp="2010-02-05T16:32:05Z" uid="40577" user="guggis" changeset="3798763">
    <nd ref="613530675"/>
    <nd ref="613530676"/>
    <nd ref="613530673"/>
    <nd ref="630740809"/>
    <nd ref="630740812"/>
    <nd ref="630740811"/>
    <nd ref="630740810"/>
    <nd ref="613530678"/>
    <nd ref="613530675"/>
    <tag k="addr:city" v="Pétion-ville"/>
    <tag k="addr:full" v="45, rue panamericaine, Petion-ville"/>
    <tag k="addr:housenumber" v="45"/>
    <tag k="addr:street" v="Rue Pan-Américaine"/>
    <tag k="amenity" v="hospital"/>
    <tag k="attribute_source_type" v="PAHO"/>
    <tag k="earthquake:damage" v="yes"/>
    <tag k="geometry_source_type" v="PAHO"/>
    <tag k="health_facility:commune" v="PETION-VILLE"/>
    <tag k="health_facility:commune_id" v="14"/>
    <tag k="health_facility:department" v="OUEST"/>
    <tag k="health_facility:paho_id" v="1149021"/>
    <tag k="health_facility_type" v="health_center"/>
    <tag k="name" v="PORT AU PRINCE CLINIC CENTRE DE SANTE ELIAZER"/>
    <tag k="pcode" v="95582"/>
    <tag k="sahana_id" v="37"/>
    <tag k="source:addr" v="https://spreadsheets.google.com/ccc?key=0ArlMTYEgfvwsdERtTkxRUVVqRXdpVzlDSlFnb3F1UHc&amp;hl=en"/>
    <tag k="source:health_facility" v="HHS_20100120"/>
  </way>
  <way id="48288056" version="5" timestamp="2010-02-14T21:23:21Z" uid="219187" user="jgc" changeset="3878672">
    <nd ref="613530675"/>
    <nd ref="613530676"/>
    <nd ref="613530673"/>
    <nd ref="630740809"/>
    <nd ref="630740812"/>
    <nd ref="630740811"/>
    <nd ref="630740810"/>
    <nd ref="613530678"/>
    <nd ref="613530675"/>
    <tag k="addr:city" v="Pétion-ville"/>
    <tag k="addr:full" v="45, rue panamericaine, Petion-ville"/>
    <tag k="addr:housenumber" v="45"/>
    <tag k="addr:street" v="Rue Pan-Américaine"/>
    <tag k="amenity" v="hospital"/>
    <tag k="attribute_source_type" v="PAHO"/>
    <tag k="earthquake:damage" v="yes"/>
    <tag k="geometry_source_type" v="PAHO"/>
    <tag k="health_facility:commune" v="PETION-VILLE"/>
    <tag k="health_facility:commune_id" v="14"/>
    <tag k="health_facility:department" v="OUEST"/>
    <tag k="health_facility:paho_id" v="1149021"/>
    <tag k="health_facility:type" v="health_center"/>
    <tag k="name" v="PORT AU PRINCE CLINIC CENTRE DE SANTE ELIAZER"/>
    <tag k="pcode" v="95582"/>
    <tag k="sahana_id" v="37"/>
    <tag k="source:addr" v="https://spreadsheets.google.com/ccc?key=0ArlMTYEgfvwsdERtTkxRUVVqRXdpVzlDSlFnb3F1UHc&amp;hl=en"/>
    <tag k="source:health_facility" v="HHS_20100120"/>
  </way>
  <way id="48288056" version="6" timestamp="2010-02-15T12:19:19Z" uid="40577" user="guggis" changeset="3882581">
    <nd ref="613530675"/>
    <nd ref="613530676"/>
    <nd ref="613530673"/>
    <nd ref="630740809"/>
    <nd ref="630740812"/>
    <nd ref="630740811"/>
    <nd ref="630740810"/>
    <nd ref="613530678"/>
    <nd ref="613530675"/>
    <tag k="addr:city" v="Pétion-ville"/>
    <tag k="addr:full" v="45, rue panamericaine, Petion-ville"/>
    <tag k="addr:housenumber" v="45"/>
    <tag k="addr:street" v="Rue Pan-Américaine"/>
    <tag k="amenity" v="hospital"/>
    <tag k="earthquake:damage" v="yes"/>
    <tag k="health_facility:type" v="health_center"/>
    <tag k="name" v="PORT AU PRINCE CLINIC CENTRE DE SANTE ELIAZER"/>
    <tag k="paho:commune" v="Petion ville"/>
    <tag k="paho:commune_id" v="14"/>
    <tag k="paho:department" v="OUEST"/>
    <tag k="paho:district_id" v="1"/>
    <tag k="paho:id" v="1149021"/>
    <tag k="paho:region_id" v="1"/>
    <tag k="pcode" v="95582"/>
    <tag k="sahana_id" v="37"/>
    <tag k="source:addr" v="https://spreadsheets.google.com/ccc?key=0ArlMTYEgfvwsdERtTkxRUVVqRXdpVzlDSlFnb3F1UHc&amp;hl=en"/>
    <tag k="source:health_facility" v="HHS_20100120"/>
  </way>
  <way id="48288056" version="7" timestamp="2010-02-15T17:23:06Z" uid="219187" user="jgc" changeset="3884981">
    <nd ref="613530675"/>
    <nd ref="613530676"/>
    <nd ref="613530673"/>
    <nd ref="630740809"/>
    <nd ref="630740812"/>
    <nd ref="630740811"/>
    <nd ref="630740810"/>
    <nd ref="613530678"/>
    <nd ref="613530675"/>
    <tag k="addr:city" v="Pétion-ville"/>
    <tag k="addr:full" v="45, rue panamericaine, Petion-ville"/>
    <tag k="addr:housenumber" v="45"/>
    <tag k="addr:street" v="Rue Pan-Américaine"/>
    <tag k="amenity" v="hospital"/>
    <tag k="earthquake:damage" v="yes"/>
    <tag k="health_facility:type" v="health_center"/>
    <tag k="name" v="PORT AU PRINCE CLINIC CENTRE DE SANTE ELIAZER"/>
    <tag k="paho:commune" v="Petion ville"/>
    <tag k="paho:commune_id" v="14"/>
    <tag k="paho:department" v="OUEST"/>
    <tag k="paho:district_id" v="1"/>
    <tag k="paho:id" v="1149021"/>
    <tag k="paho:region_id" v="1"/>
    <tag k="pcode" v="95582"/>
    <tag k="sahana_id" v="37"/>
    <tag k="source:addr" v="https://spreadsheets.google.com/ccc?key=0ArlMTYEgfvwsdERtTkxRUVVqRXdpVzlDSlFnb3F1UHc&amp;hl=en"/>
    <tag k="source:health_facility" v="HHS_20100120"/>
  </way>
  <way id="48288056" version="8" timestamp="2010-02-18T01:21:13Z" uid="79857" user="RDSantiago" changeset="3905927">
    <nd ref="613530675"/>
    <nd ref="613530676"/>
    <nd ref="613530673"/>
    <nd ref="630740809"/>
    <nd ref="630740812"/>
    <nd ref="630740811"/>
    <nd ref="630740810"/>
    <nd ref="613530678"/>
    <nd ref="613530675"/>
    <tag k="addr:city" v="Pétion-ville"/>
    <tag k="addr:country" v="HT"/>
    <tag k="addr:full" v="45, rue panamericaine, Petion-ville"/>
    <tag k="addr:housenumber" v="45"/>
    <tag k="addr:street" v="Rue Pan-Américaine"/>
    <tag k="amenity" v="hospital"/>
    <tag k="earthquake:damage" v="yes"/>
    <tag k="health_facility:type" v="health_center"/>
    <tag k="name" v="PORT AU PRINCE CLINIC CENTRE DE SANTE ELIAZER"/>
    <tag k="paho:commune" v="Petion ville"/>
    <tag k="paho:commune_id" v="14"/>
    <tag k="paho:department" v="OUEST"/>
    <tag k="paho:district_id" v="1"/>
    <tag k="paho:id" v="1149021"/>
    <tag k="paho:region_id" v="1"/>
    <tag k="pcode" v="95582"/>
    <tag k="sahana_id" v="37"/>
    <tag k="source:addr" v="https://spreadsheets.google.com/ccc?key=0ArlMTYEgfvwsdERtTkxRUVVqRXdpVzlDSlFnb3F1UHc&amp;hl=en"/>
    <tag k="source:health_facility" v="HHS_20100120"/>
  </way>
  <way id="48288056" version="9" timestamp="2010-02-18T16:21:23Z" uid="40577" user="guggis" changeset="3910148">
    <nd ref="613530675"/>
    <nd ref="613530676"/>
    <nd ref="613530673"/>
    <nd ref="630740809"/>
    <nd ref="630740812"/>
    <nd ref="630740811"/>
    <nd ref="630740810"/>
    <nd ref="613530678"/>
    <nd ref="613530675"/>
    <tag k="addr:city" v="Pétion-ville"/>
    <tag k="addr:country" v="HT"/>
    <tag k="addr:full" v="45, rue panamericaine, Petion-ville"/>
    <tag k="addr:housenumber" v="45"/>
    <tag k="addr:street" v="Rue Pan-Américaine"/>
    <tag k="amenity" v="hospital"/>
    <tag k="earthquake:damage" v="yes"/>
    <tag k="health_facility:type" v="health_center"/>
    <tag k="name" v="PORT AU PRINCE CLINIC CENTRE DE SANTE ELIAZER"/>
    <tag k="paho:commune" v="Petion ville"/>
    <tag k="paho:commune_id" v="14"/>
    <tag k="paho:department" v="OUEST"/>
    <tag k="paho:district_id" v="1"/>
    <tag k="paho:id" v="1149021"/>
    <tag k="paho:region_id" v="1"/>
    <tag k="pcode" v="95582"/>
    <tag k="sahana_id" v="37"/>
    <tag k="source:addr" v="https://spreadsheets.google.com/ccc?key=0ArlMTYEgfvwsdERtTkxRUVVqRXdpVzlDSlFnb3F1UHc&amp;hl=en"/>
    <tag k="source:health_facility" v="HHS_20100120"/>
  </way>
  <way id="48288056" version="10" timestamp="2010-02-27T11:47:38Z" uid="40577" user="guggis" changeset="3987677">
    <nd ref="613530675"/>
    <nd ref="613530676"/>
    <nd ref="613530673"/>
    <nd ref="630740809"/>
    <nd ref="630740812"/>
    <nd ref="630740811"/>
    <nd ref="630740810"/>
    <nd ref="613530678"/>
    <nd ref="613530675"/>
    <tag k="addr:city" v="Pétion-ville"/>
    <tag k="addr:country" v="HT"/>
    <tag k="addr:full" v="45, rue panamericaine, Petion-ville"/>
    <tag k="addr:housenumber" v="45"/>
    <tag k="addr:street" v="Rue Pan-Américaine"/>
    <tag k="amenity" v="hospital"/>
    <tag k="earthquake:damage" v="yes"/>
    <tag k="health_facility:type" v="health_center"/>
    <tag k="name" v="PORT AU PRINCE CLINIC CENTRE DE SANTE ELIAZER"/>
    <tag k="paho:commune" v="Pétion ville"/>
    <tag k="paho:commune_id" v="14"/>
    <tag k="paho:department" v="OUEST"/>
    <tag k="paho:district_id" v="1"/>
    <tag k="paho:id" v="1149021"/>
    <tag k="paho:region_id" v="1"/>
    <tag k="pcode" v="95582"/>
    <tag k="sahana_id" v="37"/>
    <tag k="source:addr" v="https://spreadsheets.google.com/ccc?key=0ArlMTYEgfvwsdERtTkxRUVVqRXdpVzlDSlFnb3F1UHc&amp;hl=en"/>
    <tag k="source:health_facility" v="HHS_20100120"/>
  </way>
  <way id="48288056" version="11" timestamp="2010-11-16T16:26:24Z" uid="98876" user="rsoden" changeset="6386171">
    <nd ref="613530675"/>
    <nd ref="613530676"/>
    <nd ref="613530673"/>
    <nd ref="630740809"/>
    <nd ref="630740812"/>
    <nd ref="630740811"/>
    <nd ref="630740810"/>
    <nd ref="613530678"/>
    <nd ref="613530675"/>
    <tag k="addr:city" v="Pétion-ville"/>
    <tag k="addr:country" v="HT"/>
    <tag k="addr:full" v="45, rue panamericaine, Petion-ville"/>
    <tag k="addr:housenumber" v="45"/>
    <tag k="addr:street" v="Rue Pan-Américaine"/>
    <tag k="amenity" v="hospital"/>
    <tag k="earthquake:damage" v="yes"/>
    <tag k="hfac_type" v="health_center"/>
    <tag k="name" v="PORT AU PRINCE CLINIC CENTRE DE SANTE ELIAZER"/>
    <tag k="paho:commune" v="Pétion ville"/>
    <tag k="paho:commune_id" v="14"/>
    <tag k="paho:department" v="OUEST"/>
    <tag k="paho:district_id" v="1"/>
    <tag k="paho:id" v="1149021"/>
    <tag k="paho:region_id" v="1"/>
    <tag k="pcode" v="95582"/>
    <tag k="sahana_id" v="37"/>
    <tag k="source:addr" v="https://spreadsheets.google.com/ccc?key=0ArlMTYEgfvwsdERtTkxRUVVqRXdpVzlDSlFnb3F1UHc&amp;hl=en"/>
    <tag k="source:health_facility" v="HHS_20100120"/>
  </way>
  <way id="48288056" version="12" timestamp="2010-11-16T16:50:05Z" uid="98876" user="rsoden" changeset="6386171">
    <nd ref="613530675"/>
    <nd ref="613530676"/>
    <nd ref="613530673"/>
    <nd ref="630740809"/>
    <nd ref="630740812"/>
    <nd ref="630740811"/>
    <nd ref="630740810"/>
    <nd ref="613530678"/>
    <nd ref="613530675"/>
    <tag k="addr:city" v="Pétion-ville"/>
    <tag k="addr:country" v="HT"/>
    <tag k="addr:full" v="45, rue panamericaine, Petion-ville"/>
    <tag k="addr:housenumber" v="45"/>
    <tag k="addr:street" v="Rue Pan-Américaine"/>
    <tag k="amenity" v="hospital"/>
    <tag k="earthquake:damage" v="yes"/>
    <tag k="hfac_type" v="field hospital"/>
    <tag k="name" v="PORT AU PRINCE CLINIC CENTRE DE SANTE ELIAZER"/>
    <tag k="paho:commune" v="Pétion ville"/>
    <tag k="paho:commune_id" v="14"/>
    <tag k="paho:department" v="OUEST"/>
    <tag k="paho:district_id" v="1"/>
    <tag k="paho:id" v="1149021"/>
    <tag k="paho:region_id" v="1"/>
    <tag k="pcode" v="95582"/>
    <tag k="sahana_id" v="37"/>
    <tag k="source:addr" v="https://spreadsheets.google.com/ccc?key=0ArlMTYEgfvwsdERtTkxRUVVqRXdpVzlDSlFnb3F1UHc&amp;hl=en"/>
    <tag k="source:health_facility" v="HHS_20100120"/>
  </way>
  <way id="48288056" version="13" timestamp="2010-11-16T17:28:38Z" uid="98876" user="rsoden" changeset="6386171">
    <nd ref="613530675"/>
    <nd ref="613530676"/>
    <nd ref="613530673"/>
    <nd ref="630740809"/>
    <nd ref="630740812"/>
    <nd ref="630740811"/>
    <nd ref="630740810"/>
    <nd ref="613530678"/>
    <nd ref="613530675"/>
    <tag k="addr:city" v="Pétion-ville"/>
    <tag k="addr:country" v="HT"/>
    <tag k="addr:full" v="45, rue panamericaine, Petion-ville"/>
    <tag k="addr:housenumber" v="45"/>
    <tag k="addr:street" v="Rue Pan-Américaine"/>
    <tag k="amenity" v="hospital"/>
    <tag k="earthquake:damage" v="yes"/>
    <tag k="hfac_bed" v="yes"/>
    <tag k="hfac_type" v="field hospital"/>
    <tag k="name" v="PORT AU PRINCE CLINIC CENTRE DE SANTE ELIAZER"/>
    <tag k="paho:commune" v="Pétion ville"/>
    <tag k="paho:commune_id" v="14"/>
    <tag k="paho:department" v="OUEST"/>
    <tag k="paho:district_id" v="1"/>
    <tag k="paho:id" v="1149021"/>
    <tag k="paho:region_id" v="1"/>
    <tag k="pcode" v="95582"/>
    <tag k="sahana_id" v="37"/>
    <tag k="source:addr" v="https://spreadsheets.google.com/ccc?key=0ArlMTYEgfvwsdERtTkxRUVVqRXdpVzlDSlFnb3F1UHc&amp;hl=en"/>
    <tag k="source:health_facility" v="HHS_20100120"/>
  </way>
  <way id="48288056" version="14" timestamp="2011-09-27T22:57:24Z" uid="24440" user="jaakkoh" changeset="9415267">
    <nd ref="613530675"/>
    <nd ref="613530676"/>
    <nd ref="613530673"/>
    <nd ref="630740809"/>
    <nd ref="630740812"/>
    <nd ref="630740811"/>
    <nd ref="630740810"/>
    <nd ref="613530678"/>
    <nd ref="613530675"/>
    <tag k="addr:city" v="Pétion-ville"/>
    <tag k="addr:country" v="HT"/>
    <tag k="addr:full" v="45, rue panamericaine, Petion-ville"/>
    <tag k="addr:housenumber" v="45"/>
    <tag k="addr:street" v="Rue Pan-Américaine"/>
    <tag k="amenity" v="hospital"/>
    <tag k="earthquake:damage" v="yes"/>
    <tag k="hfac_bed" v="yes"/>
    <tag k="hfac_type" v="field hospital"/>
    <tag k="name" v="Port-au-Prince clinic centre de Sante Eliazer"/>
    <tag k="paho:commune" v="Pétion ville"/>
    <tag k="paho:commune_id" v="14"/>
    <tag k="paho:department" v="OUEST"/>
    <tag k="paho:district_id" v="1"/>
    <tag k="paho:id" v="1149021"/>
    <tag k="paho:region_id" v="1"/>
    <tag k="pcode" v="95582"/>
    <tag k="sahana_id" v="37"/>
    <tag k="source:addr" v="https://spreadsheets.google.com/ccc?key=0ArlMTYEgfvwsdERtTkxRUVVqRXdpVzlDSlFnb3F1UHc&amp;hl=en"/>
    <tag k="source:health_facility" v="HHS_20100120"/>
  </way>
  <way id="48288056" version="15" timestamp="2012-02-28T13:43:38Z" uid="24440" user="jaakkoh" changeset="10818776">
    <nd ref="613530675"/>
    <nd ref="613530676"/>
    <nd ref="613530673"/>
    <nd ref="630740809"/>
    <nd ref="630740812"/>
    <nd ref="630740811"/>
    <nd ref="630740810"/>
    <nd ref="613530678"/>
    <nd ref="613530675"/>
    <tag k="addr:city" v="Pétion-ville"/>
    <tag k="addr:country" v="HT"/>
    <tag k="addr:full" v="45, rue panamericaine, Petion-ville"/>
    <tag k="addr:housenumber" v="45"/>
    <tag k="addr:street" v="Rue Pan-Américaine"/>
    <tag k="amenity" v="hospital"/>
    <tag k="earthquake:damage" v="yes"/>
    <tag k="hfac_bed" v="yes"/>
    <tag k="hfac_type" v="field hospital"/>
    <tag k="name" v="Port-au-Prince clinic centre de Sante Eliazer"/>
    <tag k="odbl" v="clean"/>
    <tag k="paho:commune" v="Pétion ville"/>
    <tag k="paho:commune_id" v="14"/>
    <tag k="paho:department" v="OUEST"/>
    <tag k="paho:district_id" v="1"/>
    <tag k="paho:id" v="1149021"/>
    <tag k="paho:region_id" v="1"/>
    <tag k="pcode" v="95582"/>
    <tag k="sahana_id" v="37"/>
    <tag k="source:addr" v="https://spreadsheets.google.com/ccc?key=0ArlMTYEgfvwsdERtTkxRUVVqRXdpVzlDSlFnb3F1UHc&amp;hl=en"/>
    <tag k="source:health_facility" v="HHS_20100120"/>
  </way>
  <way id="48288057" version="1" timestamp="2010-01-14T15:56:23Z" uid="8619" user="cetest" changeset="3617885">
    <nd ref="613530681"/>
    <nd ref="613530679"/>
    <nd ref="613530684"/>
    <nd ref="613530683"/>
    <nd ref="613530681"/>
    <tag k="amenity" v="place_of_worship"/>
    <tag k="denomination" v="catholic"/>
    <tag k="name" v="Eglise St.-Jean Bosco"/>
    <tag k="religion" v="christian"/>
  </way>
  <way id="48288057" version="2" timestamp="2010-01-21T17:01:38Z" uid="1267" user="Mercator" changeset="3676210">
    <nd ref="613530681"/>
    <nd ref="613530679"/>
    <nd ref="613530684"/>
    <nd ref="613530683"/>
    <nd ref="613530681"/>
    <tag k="amenity" v="place_of_worship"/>
    <tag k="denomination" v="catholic"/>
    <tag k="name" v="Eglise St.-Jean Bosco"/>
    <tag k="religion" v="christian"/>
    <tag k="source" v="Google, 2010-01-17"/>
  </way>
  <way id="48288057" version="3" timestamp="2010-02-18T01:21:13Z" uid="79857" user="RDSantiago" changeset="3905927">
    <nd ref="613530681"/>
    <nd ref="613530679"/>
    <nd ref="613530684"/>
    <nd ref="613530683"/>
    <nd ref="613530681"/>
    <tag k="addr:country" v="HT"/>
    <tag k="amenity" v="place_of_worship"/>
    <tag k="denomination" v="catholic"/>
    <tag k="name" v="Eglise St.-Jean Bosco"/>
    <tag k="religion" v="christian"/>
    <tag k="source" v="Google, 2010-01-17"/>
  </way>
  <way id="48288057" version="4" timestamp="2011-09-27T22:57:11Z" uid="24440" user="jaakkoh" changeset="9415267">
    <nd ref="613530681"/>
    <nd ref="613530679"/>
    <nd ref="613530684"/>
    <nd ref="613530683"/>
    <nd ref="613530681"/>
    <tag k="addr:country" v="HT"/>
    <tag k="addr:street" v="Rue Lambert"/>
    <tag k="amenity" v="place_of_worship"/>
    <tag k="denomination" v="catholic"/>
    <tag k="name" v="Eglise St.-Jean Bosco"/>
    <tag k="religion" v="christian"/>
    <tag k="source" v="Google, 2010-01-17"/>
  </way>
  <way id="48288057" version="5" timestamp="2012-02-28T05:58:53Z" uid="24440" user="jaakkoh" changeset="10815896">
    <nd ref="613530681"/>
    <nd ref="613530679"/>
    <nd ref="613530684"/>
    <nd ref="613530683"/>
    <nd ref="613530681"/>
    <tag k="addr:country" v="HT"/>
    <tag k="addr:street" v="Rue Lambert"/>
    <tag k="amenity" v="place_of_worship"/>
    <tag k="denomination" v="catholic"/>
    <tag k="name" v="Eglise St.-Jean Bosco"/>
    <tag k="odbl" v="clean"/>
    <tag k="religion" v="christian"/>
    <tag k="source" v="Google, 2010-01-17"/>
  </way>
  <way id="48288058" version="1" timestamp="2010-01-14T15:56:23Z" uid="8619" user="cetest" changeset="3617885">
    <nd ref="613530688"/>
    <nd ref="613530685"/>
    <nd ref="613530687"/>
    <nd ref="613530690"/>
    <nd ref="613530688"/>
    <tag k="building" v="yes"/>
    <tag k="name" v="TELECO"/>
  </way>
  <way id="48288058" version="2" timestamp="2011-09-27T22:57:23Z" uid="24440" user="jaakkoh" changeset="9415267">
    <nd ref="613530688"/>
    <nd ref="613530685"/>
    <nd ref="613530687"/>
    <nd ref="613530690"/>
    <nd ref="613530688"/>
    <tag k="addr:full" v="Angle rue Rigaud et rue Magny"/>
    <tag k="addr:street" v="rue Rigaud"/>
    <tag k="building" v="yes"/>
    <tag k="name" v="Natcom"/>
    <tag k="old_name" v="TELECO"/>
    <tag k="shop" v="mobile_phone"/>
    <tag k="source" v="survey"/>
  </way>
  <way id="48288058" version="3" timestamp="2012-02-28T05:58:55Z" uid="24440" user="jaakkoh" changeset="10815896">
    <nd ref="613530688"/>
    <nd ref="613530685"/>
    <nd ref="613530687"/>
    <nd ref="613530690"/>
    <nd ref="613530688"/>
    <tag k="addr:full" v="Angle rue Rigaud et rue Magny"/>
    <tag k="addr:street" v="rue Rigaud"/>
    <tag k="building" v="yes"/>
    <tag k="name" v="Natcom"/>
    <tag k="odbl" v="clean"/>
    <tag k="old_name" v="TELECO"/>
    <tag k="shop" v="mobile_phone"/>
    <tag k="source" v="survey"/>
  </way>
  <way id="48288674" version="3" timestamp="2010-01-15T11:33:41Z" uid="8619" user="cetest" changeset="3623525">
    <nd ref="613537390"/>
    <nd ref="613537392"/>
    <nd ref="613537393"/>
    <nd ref="613537394"/>
    <nd ref="613537390"/>
    <tag k="ID" v="4"/>
    <tag k="refugee" v="yes"/>
    <tag k="tourism" v="camp_site"/>
  </way>
  <way id="48288674" version="4" timestamp="2010-01-18T19:14:51Z" uid="57054" user="26eb5473101d742b174d730717409668" changeset="3652796">
    <nd ref="613537390"/>
    <nd ref="613537392"/>
    <nd ref="613537393"/>
    <nd ref="613537394"/>
    <nd ref="613537390"/>
    <tag k="ID" v="4"/>
    <tag k="earthquake:damage" v="spontaneous_camp"/>
    <tag k="refugee" v="yes"/>
    <tag k="source" v="Ithaca,2010-01-15"/>
    <tag k="source:imagery" v="GeoEye,2010-01-13"/>
    <tag k="tourism" v="camp_site"/>
  </way>
  <way id="48288674" version="5" timestamp="2010-02-18T01:18:12Z" uid="79857" user="RDSantiago" changeset="3905927">
    <nd ref="613537390"/>
    <nd ref="613537392"/>
    <nd ref="613537393"/>
    <nd ref="613537394"/>
    <nd ref="613537390"/>
    <tag k="ID" v="4"/>
    <tag k="addr:country" v="HT"/>
    <tag k="earthquake:damage" v="spontaneous_camp"/>
    <tag k="refugee" v="yes"/>
    <tag k="source" v="Ithaca,2010-01-15"/>
    <tag k="source:imagery" v="GeoEye,2010-01-13"/>
    <tag k="tourism" v="camp_site"/>
  </way>
  <way id="48288674" version="6" timestamp="2010-08-25T17:07:55Z" uid="95488" user="wonderchook" changeset="5591377"/>
  <way id="48288884" version="4" timestamp="2010-01-16T12:59:37Z" uid="8619" user="cetest" changeset="3631064">
    <nd ref="330904506"/>
    <nd ref="614460979"/>
    <nd ref="613539125"/>
    <nd ref="613539126"/>
    <nd ref="613999453"/>
    <nd ref="613999459"/>
    <nd ref="613539119"/>
    <tag k="highway" v="unclassified"/>
  </way>
  <way id="48288884" version="5" timestamp="2010-01-21T19:15:14Z" uid="89943" user="Bengatzer" changeset="3676509">
    <nd ref="330904506"/>
    <nd ref="614460979"/>
    <nd ref="613539125"/>
    <nd ref="613539126"/>
    <nd ref="613999453"/>
    <nd ref="613999459"/>
    <nd ref="613539119"/>
    <tag k="highway" v="tertiary"/>
  </way>
  <way id="48288049" version="4" timestamp="2012-07-21T16:44:31Z" uid="722137" user="OSMF Redaction Account" changeset="12415054">
    <nd ref="613530654"/>
    <nd ref="613530659"/>
    <nd ref="613530663"/>
    <nd ref="613530666"/>
    <nd ref="613530669"/>
    <nd ref="613530672"/>
    <nd ref="613530674"/>
    <nd ref="613530677"/>
    <nd ref="613530680"/>
    <nd ref="613530682"/>
    <nd ref="613530686"/>
    <nd ref="613530689"/>
    <nd ref="613530654"/>
    <tag k="building" v="yes"/>
    <tag k="man_made" v="water_tower"/>
  </way>
  <way id="48288052" version="6" timestamp="2012-09-03T20:36:24Z" uid="516594" user="SergeDorval" changeset="12973261">
    <nd ref="613530533"/>
    <nd ref="613530536"/>
    <nd ref="613530532"/>
    <nd ref="613530534"/>
    <nd ref="613530533"/>
    <tag k="addr:country" v="HT"/>
    <tag k="building" v="yes"/>
    <tag k="odbl" v="clean"/>
    <tag k="source" v="Bing"/>
  </way>
  <way id="48288055" version="8" timestamp="2012-07-08T20:43:04Z" uid="24440" user="jaakkoh" changeset="12155026"/>
  <way id="48288056" version="16" timestamp="2012-05-18T23:35:15Z" uid="24440" user="jaakkoh" changeset="11638487">
    <nd ref="613530675"/>
    <nd ref="613530676"/>
    <nd ref="613530673"/>
    <nd ref="630740809"/>
    <nd ref="630740812"/>
    <nd ref="630740811"/>
    <nd ref="630740810"/>
    <nd ref="613530678"/>
    <nd ref="613530675"/>
    <tag k="addr:city" v="Pétion-ville"/>
    <tag k="addr:country" v="HT"/>
    <tag k="addr:full" v="45, rue panamericaine, Petion-ville"/>
    <tag k="addr:housenumber" v="45"/>
    <tag k="addr:street" v="Rue Pan-Américaine"/>
    <tag k="amenity" v="hospital"/>
    <tag k="hfac_bed" v="yes"/>
    <tag k="hfac_type" v="field hospital"/>
    <tag k="name" v="Port-au-Prince clinic centre de Sante Eliazer"/>
    <tag k="odbl" v="clean"/>
    <tag k="paho:commune" v="Pétion ville"/>
    <tag k="paho:commune_id" v="14"/>
    <tag k="paho:department" v="OUEST"/>
    <tag k="paho:district_id" v="1"/>
    <tag k="paho:id" v="1149021"/>
    <tag k="paho:region_id" v="1"/>
    <tag k="pcode" v="95582"/>
    <tag k="sahana_id" v="37"/>
    <tag k="source:addr" v="https://spreadsheets.google.com/ccc?key=0ArlMTYEgfvwsdERtTkxRUVVqRXdpVzlDSlFnb3F1UHc&amp;hl=en"/>
    <tag k="source:health_facility" v="HHS_20100120"/>
  </way>
  <way id="48288057" version="6" timestamp="2012-05-22T15:40:12Z" uid="656864" user="Jean Bully" changeset="11672794">
    <nd ref="613530681"/>
    <nd ref="613530679"/>
    <nd ref="613530684"/>
    <nd ref="613530683"/>
    <nd ref="613530681"/>
    <tag k="addr:country" v="HT"/>
    <tag k="addr:street" v="Rue Lambert"/>
    <tag k="amenity" v="place_of_worship"/>
    <tag k="building" v="yes"/>
    <tag k="denomination" v="catholic"/>
    <tag k="name" v="Eglise St.-Jean Bosco"/>
    <tag k="odbl" v="clean"/>
    <tag k="religion" v="christian"/>
    <tag k="source" v="Google 2010-01-21"/>
  </way>
  <way id="48288058" version="4" timestamp="2012-07-03T02:21:52Z" uid="24440" user="jaakkoh" changeset="12095811">
    <nd ref="613530688"/>
    <nd ref="613530685"/>
    <nd ref="1810739482"/>
    <nd ref="613530687"/>
    <nd ref="613530690"/>
    <nd ref="613530688"/>
    <tag k="addr:full" v="Angle rue Rigaud et rue Magny"/>
    <tag k="addr:street" v="rue Rigaud"/>
    <tag k="building" v="yes"/>
    <tag k="name" v="Natcom"/>
    <tag k="odbl" v="clean"/>
    <tag k="old_name" v="TELECO"/>
    <tag k="shop" v="mobile_phone"/>
    <tag k="source" v="survey"/>
  </way>
  <way id="48288058" version="5" timestamp="2012-09-04T18:24:51Z" uid="516594" user="SergeDorval" changeset="12985487"/>
</osm>
