<?xml version='1.0' encoding='UTF-8'?>
<osm version="0.6" generator="libosmium/2.20.0">
  <way id="48320128" version="1" timestamp="2010-01-15T00:32:52Z" uid="34428" user="usm78-gis" changeset="3621431">
    <nd ref="21754242"/>
    <nd ref="238182633"/>
    <nd ref="21754225"/>
    <nd ref="21754224"/>
    <nd ref="21754223"/>
    <nd ref="21754222"/>
    <nd ref="21754221"/>
    <nd ref="21754220"/>
    <nd ref="21754219"/>
    <tag k="addr:postcode" v="197706"/>
    <tag k="cladr:code" v="78000010000001300"/>
    <tag k="cladr:name" v="Воскова"/>
    <tag k="cladr:suffix" v="Улица"/>
    <tag k="highway" v="primary"/>
    <tag k="name" v="Воскова ул."/>
  </way>
  <way id="48320128" version="2" timestamp="2010-03-07T21:43:59Z" uid="241933" user="Wvuka" changeset="4066876">
    <nd ref="21754242"/>
    <nd ref="662582409"/>
    <nd ref="238182633"/>
    <nd ref="21754225"/>
    <nd ref="21754224"/>
    <nd ref="21754223"/>
    <nd ref="21754222"/>
    <nd ref="21754221"/>
    <nd ref="21754220"/>
    <nd ref="21754219"/>
    <tag k="addr:postcode" v="197706"/>
    <tag k="cladr:code" v="78000010000001300"/>
    <tag k="cladr:name" v="Воскова"/>
    <tag k="cladr:suffix" v="Улица"/>
    <tag k="highway" v="primary"/>
    <tag k="name" v="Воскова ул."/>
  </way>
  <way id="48320128" version="3" timestamp="2010-09-24T15:17:14Z" uid="290271" user="Zverik" changeset="5863701">
    <nd ref="21754242"/>
    <nd ref="662582409"/>
    <nd ref="238182633"/>
    <nd ref="21754225"/>
    <nd ref="21754224"/>
    <nd ref="21754223"/>
    <nd ref="21754222"/>
    <nd ref="21754221"/>
    <nd ref="21754220"/>
    <nd ref="21754219"/>
    <tag k="addr:postcode" v="197706"/>
    <tag k="cladr:code" v="78000010000001300"/>
    <tag k="cladr:name" v="Воскова"/>
    <tag k="cladr:suffix" v="Улица"/>
    <tag k="highway" v="primary"/>
    <tag k="name" v="Воскова ул."/>
    <tag k="surface" v="asphalt"/>
  </way>
  <way id="48320128" version="4" timestamp="2010-11-28T16:06:53Z" uid="24305" user="ZCC" changeset="6479511">
    <nd ref="21754242"/>
    <nd ref="662582409"/>
    <nd ref="238182633"/>
    <nd ref="21754225"/>
    <nd ref="21754224"/>
    <nd ref="21754223"/>
    <nd ref="21754222"/>
    <nd ref="21754221"/>
    <nd ref="21754220"/>
    <nd ref="21754219"/>
    <tag k="addr:postcode" v="197706"/>
    <tag k="cladr:code" v="78000010000001300"/>
    <tag k="cladr:name" v="Воскова"/>
    <tag k="cladr:suffix" v="Улица"/>
    <tag k="highway" v="primary"/>
    <tag k="name" v="улица Воскова"/>
    <tag k="surface" v="asphalt"/>
  </way>
  <way id="48320128" version="5" timestamp="2010-11-28T16:54:29Z" uid="24305" user="ZCC" changeset="6480005">
    <nd ref="21754242"/>
    <nd ref="662582409"/>
    <nd ref="238182633"/>
    <nd ref="21754225"/>
    <nd ref="21754224"/>
    <nd ref="21754223"/>
    <nd ref="21754222"/>
    <nd ref="21754221"/>
    <nd ref="1011183483"/>
    <tag k="addr:postcode" v="197706"/>
    <tag k="cladr:code" v="78000010000001300"/>
    <tag k="cladr:name" v="Воскова"/>
    <tag k="cladr:suffix" v="Улица"/>
    <tag k="highway" v="primary"/>
    <tag k="name" v="улица Воскова"/>
    <tag k="surface" v="asphalt"/>
  </way>
  <way id="48320128" version="6" timestamp="2011-01-07T07:34:41Z" uid="136198" user="tmprec" changeset="6889902">
    <nd ref="21754242"/>
    <nd ref="662582409"/>
    <nd ref="238182633"/>
    <nd ref="1087879066"/>
    <nd ref="1087879060"/>
    <nd ref="21754224"/>
    <nd ref="21754223"/>
    <nd ref="21754222"/>
    <nd ref="21754221"/>
    <nd ref="1011183483"/>
    <tag k="addr:postcode" v="197706"/>
    <tag k="cladr:code" v="78000010000001300"/>
    <tag k="cladr:name" v="Воскова"/>
    <tag k="cladr:suffix" v="Улица"/>
    <tag k="highway" v="secondary"/>
    <tag k="name" v="улица Воскова"/>
    <tag k="surface" v="asphalt"/>
  </way>
  <way id="48320128" version="7" timestamp="2011-09-27T19:30:27Z" uid="143266" user="Sergey Astakhov" changeset="9413826">
    <nd ref="21754242"/>
    <nd ref="662582409"/>
    <nd ref="238182633"/>
    <nd ref="1087879066"/>
    <nd ref="1087879060"/>
    <nd ref="21754224"/>
    <nd ref="21754223"/>
    <nd ref="21754222"/>
    <nd ref="21754221"/>
    <nd ref="1011183483"/>
    <tag k="addr:postcode" v="197706"/>
    <tag k="highway" v="secondary"/>
    <tag k="name" v="улица Воскова"/>
    <tag k="surface" v="asphalt"/>
  </way>
  <way id="48320128" version="8" timestamp="2011-12-18T10:53:35Z" uid="241933" user="Wvuka" changeset="10145225">
    <nd ref="21754242"/>
    <nd ref="662582409"/>
    <nd ref="238182633"/>
    <nd ref="1087879066"/>
    <nd ref="1087879060"/>
    <tag k="addr:postcode" v="197706"/>
    <tag k="highway" v="secondary"/>
    <tag k="name" v="улица Воскова"/>
    <tag k="surface" v="asphalt"/>
  </way>
  <way id="48320142" version="1" timestamp="2010-01-15T00:32:55Z" uid="34428" user="usm78-gis" changeset="3621431">
    <nd ref="21754225"/>
    <nd ref="21754224"/>
    <tag k="addr:postcode" v="197706"/>
    <tag k="cladr:code" v="78000010000001300"/>
    <tag k="cladr:name" v="Воскова"/>
    <tag k="cladr:suffix" v="Улица"/>
    <tag k="highway" v="primary"/>
    <tag k="name" v="Воскова ул."/>
  </way>
  <way id="48320142" version="2" timestamp="2010-01-24T20:22:09Z" uid="200618" user="gps-Max" changeset="3705524"/>
  <way id="48320153" version="1" timestamp="2010-01-15T00:32:57Z" uid="34428" user="usm78-gis" changeset="3621431">
    <nd ref="21754224"/>
    <nd ref="21754223"/>
    <nd ref="21754222"/>
    <nd ref="21754221"/>
    <nd ref="21754220"/>
    <nd ref="21754219"/>
    <tag k="addr:postcode" v="197706"/>
    <tag k="cladr:code" v="78000010000001300"/>
    <tag k="cladr:name" v="Воскова"/>
    <tag k="cladr:suffix" v="Улица"/>
    <tag k="highway" v="primary"/>
    <tag k="name" v="Воскова ул."/>
  </way>
  <way id="48320153" version="2" timestamp="2010-01-24T20:22:09Z" uid="200618" user="gps-Max" changeset="3705524"/>
  <way id="48320201" version="1" timestamp="2010-01-15T00:33:06Z" uid="34428" user="usm78-gis" changeset="3621431">
    <nd ref="456028876"/>
    <nd ref="250419159"/>
    <nd ref="21754231"/>
    <nd ref="21754230"/>
    <nd ref="21754227"/>
    <tag k="highway" v="primary"/>
    <tag k="name" v="Токарева ул."/>
  </way>
  <way id="48320201" version="2" timestamp="2010-01-15T00:33:07Z" uid="34428" user="usm78-gis" changeset="3621431">
    <nd ref="456028876"/>
    <nd ref="250419159"/>
    <tag k="highway" v="primary"/>
    <tag k="name" v="Токарева ул."/>
  </way>
  <way id="48320201" version="3" timestamp="2010-03-08T12:24:34Z" uid="30590" user="KekcuHa" changeset="4071277">
    <nd ref="456028876"/>
    <nd ref="250419159"/>
    <tag k="addr:postcode" v="197706"/>
    <tag k="cladr:code" v="78000010000006600"/>
    <tag k="cladr:name" v="Токарева"/>
    <tag k="cladr:suffix" v="Улица"/>
    <tag k="highway" v="primary"/>
    <tag k="name" v="Токарева ул."/>
  </way>
  <way id="48320201" version="4" timestamp="2010-09-24T15:19:23Z" uid="290271" user="Zverik" changeset="5863701">
    <nd ref="456028876"/>
    <nd ref="250419159"/>
    <tag k="addr:postcode" v="197706"/>
    <tag k="cladr:code" v="78000010000006600"/>
    <tag k="cladr:name" v="Токарева"/>
    <tag k="cladr:suffix" v="Улица"/>
    <tag k="highway" v="primary"/>
    <tag k="name" v="Токарева ул."/>
    <tag k="surface" v="asphalt"/>
  </way>
  <way id="48320201" version="5" timestamp="2010-11-28T16:29:14Z" uid="24305" user="ZCC" changeset="6479746"/>
  <way id="48320206" version="2" timestamp="2010-02-07T10:23:49Z" uid="8619" user="cetest" changeset="3812489">
    <nd ref="612906542"/>
    <nd ref="632244959"/>
    <nd ref="613947520"/>
    <nd ref="613947524"/>
    <nd ref="613947526"/>
    <nd ref="330932917"/>
    <tag k="highway" v="residential"/>
    <tag k="source" v="GeoEye"/>
  </way>
  <way id="48320206" version="3" timestamp="2010-02-07T10:24:10Z" uid="8619" user="cetest" changeset="3812496">
    <nd ref="612906542"/>
    <nd ref="632244959"/>
    <nd ref="613947520"/>
    <nd ref="632245095"/>
    <nd ref="613947524"/>
    <nd ref="632245097"/>
    <nd ref="613947526"/>
    <nd ref="330932917"/>
    <tag k="highway" v="residential"/>
    <tag k="source" v="GeoEye"/>
  </way>
  <way id="48320206" version="4" timestamp="2010-02-13T19:15:33Z" uid="89943" user="Bengatzer" changeset="3867668"/>
  <way id="48320209" version="2" timestamp="2010-02-07T10:23:49Z" uid="8619" user="cetest" changeset="3812489">
    <nd ref="330932453"/>
    <nd ref="632244960"/>
    <nd ref="613947530"/>
    <nd ref="613947532"/>
    <nd ref="613947477"/>
    <nd ref="613947488"/>
    <nd ref="613947490"/>
    <nd ref="613947534"/>
    <tag k="highway" v="residential"/>
    <tag k="source" v="GeoEye"/>
  </way>
  <way id="48320209" version="3" timestamp="2010-07-05T20:25:20Z" uid="286557" user="Tinono" changeset="5145328">
    <nd ref="330932453"/>
    <nd ref="632244960"/>
    <nd ref="613947530"/>
    <nd ref="613947532"/>
    <nd ref="613947477"/>
    <nd ref="613947488"/>
    <nd ref="613947490"/>
    <nd ref="613947534"/>
    <tag k="Attribute_source_date" v="01/07/10"/>
    <tag k="Attribute_source_type" v="Mission  de Terrain"/>
    <tag k="Geometry_source_date" v="01/07/10"/>
    <tag k="Geometry_source_type" v="Walking  Papers Mission GPS"/>
    <tag k="Operational_status" v="open"/>
    <tag k="Operational_status_quality" v="confirmed"/>
    <tag k="Practicability" v="motorbike"/>
    <tag k="Surface" v="Dirt/Sand"/>
    <tag k="SurfaceCondition" v="Rough_less_than_40kph"/>
    <tag k="highway" v="tertiary"/>
    <tag k="name" v="Rue Milfort"/>
    <tag k="source" v="CNIGS/OIM/ FOCS"/>
  </way>
  <way id="48320209" version="4" timestamp="2010-11-11T22:04:08Z" uid="98876" user="rsoden" changeset="6347291">
    <nd ref="330932453"/>
    <nd ref="632244960"/>
    <nd ref="613947530"/>
    <nd ref="613947532"/>
    <nd ref="613947477"/>
    <nd ref="613947488"/>
    <nd ref="613947490"/>
    <nd ref="613947534"/>
    <tag k="Geometry_source_date" v="01/07/10"/>
    <tag k="Geometry_source_type" v="Walking  Papers Mission GPS"/>
    <tag k="Operational_status" v="open"/>
    <tag k="Operational_status_quality" v="confirmed"/>
    <tag k="Practicability" v="motorbike"/>
    <tag k="Surface" v="Dirt/Sand"/>
    <tag k="SurfaceCondition" v="Rough_less_than_40kph"/>
    <tag k="attribute_source_date" v="01/07/10"/>
    <tag k="attribute_source_type" v="Mission  de Terrain"/>
    <tag k="highway" v="tertiary"/>
    <tag k="name" v="Rue Milfort"/>
    <tag k="source" v="CNIGS/OIM/ FOCS"/>
  </way>
  <way id="48320209" version="5" timestamp="2010-11-11T23:37:17Z" uid="98876" user="rsoden" changeset="6347888">
    <nd ref="330932453"/>
    <nd ref="632244960"/>
    <nd ref="613947530"/>
    <nd ref="613947532"/>
    <nd ref="613947477"/>
    <nd ref="613947488"/>
    <nd ref="613947490"/>
    <nd ref="613947534"/>
    <tag k="Operational_status" v="open"/>
    <tag k="Operational_status_quality" v="confirmed"/>
    <tag k="Practicability" v="motorbike"/>
    <tag k="Surface" v="Dirt/Sand"/>
    <tag k="SurfaceCondition" v="Rough_less_than_40kph"/>
    <tag k="attribute_source_date" v="01/07/10"/>
    <tag k="attribute_source_type" v="Mission  de Terrain"/>
    <tag k="geometry_source_date" v="01/07/10"/>
    <tag k="geometry_source_type" v="Walking  Papers Mission GPS"/>
    <tag k="highway" v="tertiary"/>
    <tag k="name" v="Rue Milfort"/>
    <tag k="source" v="CNIGS/OIM/ FOCS"/>
  </way>
  <way id="48320209" version="6" timestamp="2010-11-12T01:13:18Z" uid="98876" user="rsoden" changeset="6347888">
    <nd ref="330932453"/>
    <nd ref="632244960"/>
    <nd ref="613947530"/>
    <nd ref="613947532"/>
    <nd ref="613947477"/>
    <nd ref="613947488"/>
    <nd ref="613947490"/>
    <nd ref="613947534"/>
    <tag k="Practicability" v="motorbike"/>
    <tag k="Surface" v="Dirt/Sand"/>
    <tag k="SurfaceCondition" v="Rough_less_than_40kph"/>
    <tag k="attribute_source_date" v="01/07/10"/>
    <tag k="attribute_source_type" v="Mission  de Terrain"/>
    <tag k="geometry_source_date" v="01/07/10"/>
    <tag k="geometry_source_type" v="Walking  Papers Mission GPS"/>
    <tag k="highway" v="tertiary"/>
    <tag k="name" v="Rue Milfort"/>
    <tag k="operational_status" v="open"/>
    <tag k="operational_status_quality" v="confirmed"/>
    <tag k="source" v="CNIGS/OIM/ FOCS"/>
  </way>
  <way id="48320209" version="7" timestamp="2010-11-13T16:04:51Z" uid="98876" user="rsoden" changeset="6359080">
    <nd ref="330932453"/>
    <nd ref="632244960"/>
    <nd ref="613947530"/>
    <nd ref="613947532"/>
    <nd ref="613947477"/>
    <nd ref="613947488"/>
    <nd ref="613947490"/>
    <nd ref="613947534"/>
    <tag k="Practicability" v="motorbike"/>
    <tag k="attribute_source_date" v="01/07/10"/>
    <tag k="attribute_source_type" v="Mission  de Terrain"/>
    <tag k="geometry_source_date" v="01/07/10"/>
    <tag k="geometry_source_type" v="Walking  Papers Mission GPS"/>
    <tag k="highway" v="tertiary"/>
    <tag k="name" v="Rue Milfort"/>
    <tag k="operational_status" v="open"/>
    <tag k="operational_status_quality" v="confirmed"/>
    <tag k="source" v="CNIGS/OIM/ FOCS"/>
    <tag k="surface" v="Dirt/Sand"/>
    <tag k="surface_condition" v="Rough_less_than_40kph"/>
  </way>
  <way id="48320209" version="8" timestamp="2010-11-13T16:13:07Z" uid="98876" user="rsoden" changeset="6359355">
    <nd ref="330932453"/>
    <nd ref="632244960"/>
    <nd ref="613947530"/>
    <nd ref="613947532"/>
    <nd ref="613947477"/>
    <nd ref="613947488"/>
    <nd ref="613947490"/>
    <nd ref="613947534"/>
    <tag k="attribute_source_date" v="01/07/10"/>
    <tag k="attribute_source_type" v="Mission  de Terrain"/>
    <tag k="geometry_source_date" v="01/07/10"/>
    <tag k="geometry_source_type" v="Walking  Papers Mission GPS"/>
    <tag k="highway" v="tertiary"/>
    <tag k="name" v="Rue Milfort"/>
    <tag k="operational_status" v="open"/>
    <tag k="operational_status_quality" v="confirmed"/>
    <tag k="practicability" v="motorbike"/>
    <tag k="source" v="CNIGS/OIM/ FOCS"/>
    <tag k="surface" v="Dirt/Sand"/>
    <tag k="surface_condition" v="Rough_less_than_40kph"/>
  </way>
  <way id="48320209" version="9" timestamp="2011-03-16T12:04:29Z" uid="40397" user="Zartbitter" changeset="7574968">
    <nd ref="330932453"/>
    <nd ref="632244960"/>
    <nd ref="613947530"/>
    <nd ref="613947477"/>
    <nd ref="613947488"/>
    <nd ref="613947490"/>
    <nd ref="613947534"/>
    <tag k="attribute_source_date" v="01/07/10"/>
    <tag k="attribute_source_type" v="Mission  de Terrain"/>
    <tag k="geometry_source_date" v="01/07/10"/>
    <tag k="geometry_source_type" v="Walking  Papers Mission GPS"/>
    <tag k="highway" v="residential"/>
    <tag k="name" v="Rue Milfort"/>
    <tag k="operational_status" v="open"/>
    <tag k="operational_status_quality" v="confirmed"/>
    <tag k="practicability" v="motorbike"/>
    <tag k="source" v="CNIGS/OIM/ FOCS"/>
    <tag k="surface" v="Dirt/Sand"/>
    <tag k="surface_condition" v="Rough_less_than_40kph"/>
  </way>
  <way id="48320211" version="4" timestamp="2010-02-07T10:39:28Z" uid="8619" user="cetest" changeset="3812648">
    <nd ref="330932960"/>
    <nd ref="632258764"/>
    <nd ref="613947522"/>
    <nd ref="613947495"/>
    <nd ref="613947497"/>
    <nd ref="613947499"/>
    <nd ref="613947501"/>
    <nd ref="613947482"/>
    <nd ref="613947484"/>
    <nd ref="613947486"/>
    <nd ref="613947444"/>
    <nd ref="613947446"/>
    <nd ref="613947450"/>
    <nd ref="613947452"/>
    <nd ref="613947457"/>
    <nd ref="613947459"/>
    <nd ref="613947461"/>
    <nd ref="613947448"/>
    <tag k="highway" v="residential"/>
    <tag k="source" v="GeoEye"/>
  </way>
  <way id="48320211" version="5" timestamp="2010-02-13T19:15:28Z" uid="89943" user="Bengatzer" changeset="3867668">
    <nd ref="330932960"/>
    <nd ref="632258764"/>
    <nd ref="613947522"/>
    <nd ref="613947495"/>
    <tag k="highway" v="residential"/>
    <tag k="source" v="GeoEye"/>
  </way>
  <way id="48320213" version="2" timestamp="2010-02-07T10:39:28Z" uid="8619" user="cetest" changeset="3812648">
    <nd ref="613947472"/>
    <nd ref="613947474"/>
    <nd ref="613947475"/>
    <nd ref="613947506"/>
    <nd ref="612913058"/>
    <tag k="highway" v="track"/>
    <tag k="source" v="GeoEye"/>
  </way>
  <way id="48320213" version="3" timestamp="2011-06-27T19:30:53Z" uid="36894" user="rab" changeset="8565317">
    <nd ref="613947472"/>
    <nd ref="613947475"/>
    <nd ref="613947506"/>
    <nd ref="612913058"/>
    <tag k="highway" v="path"/>
    <tag k="source" v="GeoEye"/>
  </way>
  <way id="48320223" version="1" timestamp="2010-01-15T00:33:07Z" uid="34428" user="usm78-gis" changeset="3621431">
    <nd ref="250419159"/>
    <nd ref="21754231"/>
    <nd ref="21754230"/>
    <nd ref="21754227"/>
    <tag k="highway" v="primary"/>
    <tag k="name" v="Токарева ул."/>
  </way>
  <way id="48320223" version="2" timestamp="2010-03-07T17:52:47Z" uid="241933" user="Wvuka" changeset="4064012">
    <nd ref="250419159"/>
    <nd ref="662423354"/>
    <nd ref="21754231"/>
    <nd ref="21754230"/>
    <nd ref="662423724"/>
    <nd ref="21754227"/>
    <nd ref="662423782"/>
    <nd ref="662423867"/>
    <tag k="highway" v="primary"/>
    <tag k="name" v="Токарева ул."/>
  </way>
  <way id="48320223" version="3" timestamp="2010-03-07T18:18:17Z" uid="241933" user="Wvuka" changeset="4064412">
    <nd ref="250419159"/>
    <nd ref="662423354"/>
    <nd ref="662433026"/>
    <nd ref="21754231"/>
    <nd ref="21754230"/>
    <nd ref="662423724"/>
    <nd ref="21754227"/>
    <nd ref="662423782"/>
    <nd ref="662423867"/>
    <tag k="highway" v="primary"/>
    <tag k="name" v="Токарева ул."/>
  </way>
  <way id="48320223" version="4" timestamp="2010-03-08T12:24:33Z" uid="30590" user="KekcuHa" changeset="4071277">
    <nd ref="250419159"/>
    <nd ref="662423354"/>
    <nd ref="662433026"/>
    <nd ref="21754231"/>
    <nd ref="21754230"/>
    <nd ref="662423724"/>
    <nd ref="21754227"/>
    <nd ref="662423782"/>
    <nd ref="662423867"/>
    <tag k="addr:postcode" v="197706"/>
    <tag k="cladr:code" v="78000010000006600"/>
    <tag k="cladr:name" v="Токарева"/>
    <tag k="cladr:suffix" v="Улица"/>
    <tag k="highway" v="primary"/>
    <tag k="name" v="Токарева ул."/>
  </way>
  <way id="48320223" version="5" timestamp="2010-05-24T00:17:08Z" uid="34428" user="usm78-gis" changeset="4789169">
    <nd ref="250419159"/>
    <nd ref="662423354"/>
    <nd ref="662433026"/>
    <nd ref="746886731"/>
    <tag k="addr:postcode" v="197706"/>
    <tag k="cladr:code" v="78000010000006600"/>
    <tag k="cladr:name" v="Токарева"/>
    <tag k="cladr:suffix" v="Улица"/>
    <tag k="highway" v="primary"/>
    <tag k="name" v="Токарева ул."/>
  </way>
  <way id="48320223" version="6" timestamp="2010-09-24T15:16:44Z" uid="290271" user="Zverik" changeset="5863701">
    <nd ref="250419159"/>
    <nd ref="662423354"/>
    <nd ref="662433026"/>
    <nd ref="746886731"/>
    <tag k="addr:postcode" v="197706"/>
    <tag k="cladr:code" v="78000010000006600"/>
    <tag k="cladr:name" v="Токарева"/>
    <tag k="cladr:suffix" v="Улица"/>
    <tag k="highway" v="primary"/>
    <tag k="name" v="Токарева ул."/>
    <tag k="surface" v="asphalt"/>
  </way>
  <way id="48320223" version="7" timestamp="2010-11-28T16:29:09Z" uid="24305" user="ZCC" changeset="6479746">
    <nd ref="456028876"/>
    <nd ref="662423354"/>
    <nd ref="662433026"/>
    <nd ref="746886731"/>
    <tag k="addr:postcode" v="197706"/>
    <tag k="cladr:code" v="78000010000006600"/>
    <tag k="cladr:name" v="Токарева"/>
    <tag k="cladr:suffix" v="Улица"/>
    <tag k="highway" v="primary"/>
    <tag k="name" v="Токарева ул."/>
    <tag k="surface" v="asphalt"/>
  </way>
  <way id="48320223" version="8" timestamp="2011-01-07T07:34:39Z" uid="136198" user="tmprec" changeset="6889902">
    <nd ref="456028876"/>
    <nd ref="662423354"/>
    <nd ref="662433026"/>
    <nd ref="746886731"/>
    <nd ref="21754231"/>
    <nd ref="662423724"/>
    <nd ref="662423782"/>
    <tag k="addr:postcode" v="197706"/>
    <tag k="cladr:code" v="78000010000006600"/>
    <tag k="cladr:name" v="Токарева"/>
    <tag k="cladr:suffix" v="Улица"/>
    <tag k="highway" v="secondary"/>
    <tag k="name" v="Токарева ул."/>
    <tag k="surface" v="asphalt"/>
  </way>
  <way id="48320223" version="9" timestamp="2011-01-07T20:45:48Z" uid="391555" user="plamer" changeset="6897165">
    <nd ref="456028876"/>
    <nd ref="662423354"/>
    <nd ref="662433026"/>
    <nd ref="746886731"/>
    <nd ref="21754231"/>
    <nd ref="1089200860"/>
    <nd ref="662423724"/>
    <nd ref="662423782"/>
    <tag k="addr:postcode" v="197706"/>
    <tag k="cladr:code" v="78000010000006600"/>
    <tag k="cladr:name" v="Токарева"/>
    <tag k="cladr:suffix" v="Улица"/>
    <tag k="highway" v="secondary"/>
    <tag k="name" v="Токарева ул."/>
    <tag k="surface" v="asphalt"/>
  </way>
  <way id="48320223" version="10" timestamp="2011-02-01T19:05:53Z" uid="43262" user="KonTur" changeset="7157918">
    <nd ref="456028876"/>
    <nd ref="662423354"/>
    <nd ref="662433026"/>
    <nd ref="746886731"/>
    <nd ref="21754231"/>
    <nd ref="1089200860"/>
    <nd ref="662423724"/>
    <nd ref="662423782"/>
    <tag k="addr:postcode" v="197706"/>
    <tag k="cladr:code" v="78000010000006600"/>
    <tag k="cladr:name" v="Токарева"/>
    <tag k="cladr:suffix" v="Улица"/>
    <tag k="highway" v="secondary"/>
    <tag k="name" v="улица Токарева"/>
    <tag k="surface" v="asphalt"/>
  </way>
  <way id="48320223" version="11" timestamp="2011-09-27T19:31:11Z" uid="143266" user="Sergey Astakhov" changeset="9413826">
    <nd ref="456028876"/>
    <nd ref="662423354"/>
    <nd ref="662433026"/>
    <nd ref="746886731"/>
    <nd ref="21754231"/>
    <nd ref="1089200860"/>
    <nd ref="662423724"/>
    <nd ref="662423782"/>
    <tag k="addr:postcode" v="197706"/>
    <tag k="highway" v="secondary"/>
    <tag k="name" v="улица Токарева"/>
    <tag k="surface" v="asphalt"/>
  </way>
  <way id="48320370" version="1" timestamp="2010-01-15T00:33:31Z" uid="34428" user="usm78-gis" changeset="3621431">
    <nd ref="456735028"/>
    <nd ref="279662680"/>
    <nd ref="279662682"/>
    <nd ref="395036591"/>
    <tag k="cladr:code" v="78000000000178400"/>
    <tag k="cladr:name" v="Гагаринская"/>
    <tag k="cladr:suffix" v="Улица"/>
    <tag k="highway" v="residential"/>
    <tag k="name" v="Гагаринская ул."/>
  </way>
  <way id="48320370" version="2" timestamp="2010-03-05T23:41:33Z" uid="241933" user="Wvuka" changeset="4045941">
    <nd ref="456735028"/>
    <nd ref="279662680"/>
    <nd ref="279662682"/>
    <nd ref="660883260"/>
    <tag k="cladr:code" v="78000000000178400"/>
    <tag k="cladr:name" v="Гагаринская"/>
    <tag k="cladr:suffix" v="Улица"/>
    <tag k="highway" v="residential"/>
    <tag k="name" v="Гагаринская ул."/>
  </way>
  <way id="48320370" version="3" timestamp="2010-03-07T21:56:31Z" uid="241933" user="Wvuka" changeset="4066876">
    <nd ref="456735028"/>
    <nd ref="279662680"/>
    <nd ref="279662682"/>
    <nd ref="662599084"/>
    <nd ref="662599072"/>
    <nd ref="660883260"/>
    <tag k="cladr:code" v="78000000000178400"/>
    <tag k="cladr:name" v="Гагаринская"/>
    <tag k="cladr:suffix" v="Улица"/>
    <tag k="highway" v="residential"/>
    <tag k="name" v="Гагаринская ул."/>
  </way>
  <way id="48320370" version="4" timestamp="2010-03-08T18:41:58Z" uid="241933" user="Wvuka" changeset="4074421">
    <nd ref="456735028"/>
    <nd ref="279662680"/>
    <nd ref="279662682"/>
    <nd ref="662599084"/>
    <nd ref="662987709"/>
    <nd ref="662599072"/>
    <nd ref="660883260"/>
    <tag k="cladr:code" v="78000000000178400"/>
    <tag k="cladr:name" v="Гагаринская"/>
    <tag k="cladr:suffix" v="Улица"/>
    <tag k="highway" v="residential"/>
    <tag k="name" v="Гагаринская ул."/>
  </way>
  <way id="48320370" version="5" timestamp="2011-01-08T14:09:26Z" uid="136198" user="tmprec" changeset="6904044">
    <nd ref="456735028"/>
    <nd ref="279662680"/>
    <nd ref="662599084"/>
    <nd ref="662599072"/>
    <nd ref="660883260"/>
    <tag k="cladr:code" v="78000000000178400"/>
    <tag k="cladr:name" v="Гагаринская"/>
    <tag k="cladr:suffix" v="Улица"/>
    <tag k="highway" v="residential"/>
    <tag k="name" v="Гагаринская ул."/>
  </way>
  <way id="48320370" version="6" timestamp="2011-01-10T17:57:33Z" uid="136198" user="tmprec" changeset="6928864"/>
  <way id="48320410" version="1" timestamp="2010-01-15T00:33:39Z" uid="34428" user="usm78-gis" changeset="3621431">
    <nd ref="456735075"/>
    <nd ref="279662739"/>
    <tag k="highway" v="residential"/>
    <tag k="name" v="Мосина ул."/>
  </way>
  <way id="48320410" version="2" timestamp="2010-03-08T12:24:34Z" uid="30590" user="KekcuHa" changeset="4071277">
    <nd ref="456735075"/>
    <nd ref="279662739"/>
    <tag k="cladr:code" v="78000010000004800"/>
    <tag k="cladr:name" v="Мосина"/>
    <tag k="cladr:suffix" v="Улица"/>
    <tag k="highway" v="residential"/>
    <tag k="name" v="Мосина ул."/>
  </way>
  <way id="48320410" version="3" timestamp="2010-09-24T15:15:44Z" uid="290271" user="Zverik" changeset="5863701">
    <nd ref="456735075"/>
    <nd ref="279662739"/>
    <tag k="cladr:code" v="78000010000004800"/>
    <tag k="cladr:name" v="Мосина"/>
    <tag k="cladr:suffix" v="Улица"/>
    <tag k="highway" v="residential"/>
    <tag k="name" v="Мосина ул."/>
    <tag k="surface" v="asphalt"/>
  </way>
  <way id="48320410" version="4" timestamp="2010-11-28T15:51:50Z" uid="24305" user="ZCC" changeset="6479364"/>
  <way id="48320414" version="1" timestamp="2010-01-15T00:33:41Z" uid="34428" user="usm78-gis" changeset="3621431">
    <nd ref="456735060"/>
    <nd ref="456735075"/>
    <tag k="highway" v="residential"/>
    <tag k="name" v="Мосина ул."/>
  </way>
  <way id="48320414" version="2" timestamp="2010-03-08T12:24:34Z" uid="30590" user="KekcuHa" changeset="4071277">
    <nd ref="456735060"/>
    <nd ref="456735075"/>
    <tag k="cladr:code" v="78000010000004800"/>
    <tag k="cladr:name" v="Мосина"/>
    <tag k="cladr:suffix" v="Улица"/>
    <tag k="highway" v="residential"/>
    <tag k="name" v="Мосина ул."/>
  </way>
  <way id="48320414" version="3" timestamp="2010-09-24T15:16:24Z" uid="290271" user="Zverik" changeset="5863701">
    <nd ref="456735060"/>
    <nd ref="456735075"/>
    <tag k="cladr:code" v="78000010000004800"/>
    <tag k="cladr:name" v="Мосина"/>
    <tag k="cladr:suffix" v="Улица"/>
    <tag k="highway" v="residential"/>
    <tag k="name" v="Мосина ул."/>
    <tag k="surface" v="asphalt"/>
  </way>
  <way id="48320414" version="4" timestamp="2010-11-28T15:51:50Z" uid="24305" user="ZCC" changeset="6479364"/>
  <way id="48320128" version="9" timestamp="2012-07-22T21:07:29Z" uid="722137" user="OSMF Redaction Account" changeset="12440359">
    <nd ref="662582409"/>
    <nd ref="1087879066"/>
    <nd ref="1087879060"/>
    <tag k="highway" v="secondary"/>
    <tag k="name" v="улица Воскова"/>
    <tag k="surface" v="asphalt"/>
  </way>
  <way id="48320128" version="10" timestamp="2012-07-23T15:53:35Z" uid="392109" user="GaM" changeset="12452596"/>
  <way id="48320209" version="10" timestamp="2012-07-21T16:43:54Z" uid="722137" user="OSMF Redaction Account" changeset="12415054">
    <nd ref="330932453"/>
    <nd ref="613947530"/>
    <nd ref="613947477"/>
    <nd ref="613947488"/>
    <nd ref="613947490"/>
    <nd ref="613947534"/>
    <tag k="attribute_source_date" v="01/07/10"/>
    <tag k="attribute_source_type" v="Mission  de Terrain"/>
    <tag k="geometry_source_date" v="01/07/10"/>
    <tag k="geometry_source_type" v="Walking  Papers Mission GPS"/>
    <tag k="highway" v="residential"/>
    <tag k="name" v="Rue Milfort"/>
    <tag k="operational_status" v="open"/>
    <tag k="operational_status_quality" v="confirmed"/>
    <tag k="practicability" v="motorbike"/>
    <tag k="source" v="CNIGS/OIM/ FOCS"/>
    <tag k="surface" v="Dirt/Sand"/>
    <tag k="surface_condition" v="Rough_less_than_40kph"/>
  </way>
  <way id="48320211" version="6" timestamp="2012-07-21T16:44:21Z" uid="722137" user="OSMF Redaction Account" changeset="12415054">
    <nd ref="330932960"/>
    <nd ref="613947522"/>
    <nd ref="613947495"/>
    <tag k="highway" v="residential"/>
    <tag k="source" v="GeoEye"/>
  </way>
  <way id="48320213" version="4" timestamp="2012-07-21T16:44:18Z" uid="722137" user="OSMF Redaction Account" changeset="12415054">
    <nd ref="613947472"/>
    <nd ref="613947475"/>
    <nd ref="613947506"/>
    <tag k="highway" v="path"/>
    <tag k="source" v="GeoEye"/>
  </way>
  <way id="48320223" version="12" timestamp="2012-07-22T21:07:28Z" uid="722137" user="OSMF Redaction Account" changeset="12440359">
    <nd ref="456028876"/>
    <nd ref="662423354"/>
    <nd ref="662433026"/>
    <nd ref="21754231"/>
    <nd ref="1089200860"/>
    <nd ref="662423724"/>
    <nd ref="662423782"/>
    <tag k="addr:postcode" v="197706"/>
    <tag k="highway" v="secondary"/>
    <tag k="name" v="улица Токарева"/>
    <tag k="surface" v="asphalt"/>
  </way>
</osm>
