<?xml version='1.0' encoding='UTF-8'?>
<osm version="0.6" generator="libosmium/2.20.0">
  <way id="48543787" version="2" timestamp="2010-01-21T11:05:18Z" uid="8619" user="cetest" changeset="3673631">
    <nd ref="616671056"/>
    <nd ref="616671091"/>
    <nd ref="616671092"/>
    <nd ref="616671094"/>
    <nd ref="616671095"/>
    <nd ref="616671096"/>
    <tag k="highway" v="residential"/>
  </way>
  <way id="48543787" version="3" timestamp="2010-01-22T22:28:28Z" uid="12982" user="Michael Schulze" changeset="3687743">
    <nd ref="616671056"/>
    <nd ref="616671096"/>
    <tag k="highway" v="service"/>
    <tag k="source" v="Google 2010-01-17"/>
  </way>
  <way id="48543787" version="4" timestamp="2010-09-06T20:24:29Z" uid="294075" user="fenel" changeset="5701552">
    <nd ref="616671056"/>
    <nd ref="616671096"/>
  </way>
  <way id="48543787" version="5" timestamp="2012-02-28T22:04:38Z" uid="24440" user="jaakkoh" changeset="10823230">
    <nd ref="616671056"/>
    <nd ref="1652161700"/>
    <nd ref="616671096"/>
    <tag k="highway" v="service"/>
    <tag k="service" v="alley"/>
    <tag k="source" v="GPS-adjusted Bing"/>
  </way>
  <way id="48543836" version="1" timestamp="2010-01-19T13:07:24Z" uid="115477" user="wowik" changeset="3658619">
    <nd ref="616671509"/>
    <nd ref="616671510"/>
    <nd ref="616671511"/>
    <nd ref="616671512"/>
    <nd ref="616671513"/>
    <nd ref="616671514"/>
    <nd ref="616671515"/>
    <nd ref="616671516"/>
    <nd ref="616671508"/>
    <tag k="highway" v="service"/>
  </way>
  <way id="48543836" version="2" timestamp="2010-10-18T09:04:16Z" uid="115477" user="wowik" changeset="6079033">
    <nd ref="616671509"/>
    <nd ref="616671510"/>
    <nd ref="616671511"/>
    <nd ref="616671512"/>
    <nd ref="616671513"/>
    <nd ref="616671514"/>
    <nd ref="616671515"/>
    <nd ref="616671516"/>
    <nd ref="616671508"/>
    <tag k="highway" v="residential"/>
  </way>
  <way id="48543836" version="3" timestamp="2011-01-27T17:04:57Z" uid="115477" user="wowik" changeset="7105390">
    <nd ref="616671509"/>
    <nd ref="616671510"/>
    <nd ref="1123563911"/>
    <nd ref="616671511"/>
    <nd ref="616671512"/>
    <nd ref="616671513"/>
    <nd ref="616671514"/>
    <nd ref="616671515"/>
    <tag k="highway" v="residential"/>
  </way>
  <way id="48543836" version="4" timestamp="2011-11-02T13:34:20Z" uid="467857" user="ma5ter" changeset="9722063">
    <nd ref="616671509"/>
    <nd ref="616671510"/>
    <nd ref="1123563911"/>
    <nd ref="616671511"/>
    <nd ref="616671512"/>
    <nd ref="616671513"/>
    <nd ref="616671514"/>
    <nd ref="1489521324"/>
    <nd ref="616671515"/>
    <tag k="highway" v="residential"/>
  </way>
  <way id="48543836" version="5" timestamp="2011-11-18T11:35:11Z" uid="481934" user="iWowik" changeset="9862122">
    <nd ref="1507205279"/>
    <nd ref="1507205299"/>
    <nd ref="616671510"/>
    <nd ref="1123563911"/>
    <nd ref="616671511"/>
    <nd ref="616671512"/>
    <nd ref="616671513"/>
    <nd ref="616671514"/>
    <nd ref="1489521324"/>
    <nd ref="616671515"/>
    <tag k="highway" v="residential"/>
  </way>
  <way id="48543837" version="1" timestamp="2010-01-19T13:07:35Z" uid="115477" user="wowik" changeset="3658619">
    <nd ref="616671517"/>
    <nd ref="616671519"/>
    <nd ref="616671523"/>
    <nd ref="451028979"/>
    <tag k="highway" v="service"/>
  </way>
  <way id="48543837" version="2" timestamp="2010-01-19T13:15:38Z" uid="115477" user="wowik" changeset="3658619">
    <nd ref="616675522"/>
    <nd ref="616671517"/>
    <nd ref="616671519"/>
    <nd ref="616671523"/>
    <nd ref="451028979"/>
    <tag k="highway" v="service"/>
  </way>
  <way id="48543837" version="3" timestamp="2010-10-18T09:04:16Z" uid="115477" user="wowik" changeset="6079033">
    <nd ref="616675522"/>
    <nd ref="616671517"/>
    <nd ref="616671519"/>
    <nd ref="616671523"/>
    <nd ref="451028979"/>
    <tag k="highway" v="residential"/>
  </way>
  <way id="48543837" version="4" timestamp="2011-01-27T17:04:41Z" uid="115477" user="wowik" changeset="7105390">
    <nd ref="616675522"/>
    <nd ref="616671519"/>
    <nd ref="616671523"/>
    <nd ref="451028979"/>
    <tag k="highway" v="residential"/>
  </way>
  <way id="48543837" version="5" timestamp="2011-11-18T11:35:12Z" uid="481934" user="iWowik" changeset="9862122">
    <nd ref="616675522"/>
    <nd ref="1507205256"/>
    <nd ref="616671519"/>
    <nd ref="616671523"/>
    <nd ref="451028979"/>
    <tag k="highway" v="residential"/>
  </way>
  <way id="48543897" version="1" timestamp="2010-01-19T13:10:02Z" uid="115477" user="wowik" changeset="3658619">
    <nd ref="616672386"/>
    <nd ref="616672387"/>
    <nd ref="616672388"/>
    <nd ref="616672389"/>
    <nd ref="616672390"/>
    <nd ref="616672391"/>
    <nd ref="616672386"/>
    <tag k="amenity" v="fuel"/>
    <tag k="building" v="yes"/>
    <tag k="name" v="ТНК"/>
    <tag k="operator" v="ТНК"/>
  </way>
  <way id="48543897" version="2" timestamp="2010-10-25T12:25:50Z" uid="115477" user="wowik" changeset="6171707">
    <nd ref="616672386"/>
    <nd ref="616672387"/>
    <nd ref="616672388"/>
    <nd ref="616672389"/>
    <nd ref="616672390"/>
    <nd ref="616672391"/>
    <nd ref="616672386"/>
    <tag k="amenity" v="fuel"/>
    <tag k="building" v="yes"/>
    <tag k="name" v="BP"/>
    <tag k="operator" v="BP"/>
  </way>
  <way id="48543897" version="3" timestamp="2011-01-27T17:04:17Z" uid="115477" user="wowik" changeset="7105390">
    <nd ref="616672386"/>
    <nd ref="616672387"/>
    <nd ref="616672388"/>
    <nd ref="616672389"/>
    <nd ref="616672390"/>
    <nd ref="616672391"/>
    <nd ref="1123565593"/>
    <nd ref="616672386"/>
    <tag k="amenity" v="fuel"/>
    <tag k="building" v="yes"/>
    <tag k="name" v="BP"/>
    <tag k="operator" v="BP"/>
  </way>
  <way id="48543897" version="4" timestamp="2011-01-31T12:36:34Z" uid="115477" user="wowik" changeset="7144578">
    <nd ref="616672387"/>
    <nd ref="616672388"/>
    <nd ref="1129365912"/>
    <nd ref="616672389"/>
    <nd ref="616672387"/>
    <tag k="amenity" v="fuel"/>
    <tag k="building" v="yes"/>
    <tag k="name" v="BP"/>
    <tag k="operator" v="BP"/>
  </way>
  <way id="48543897" version="5" timestamp="2011-05-30T20:13:33Z" uid="115477" user="wowik" changeset="8295956">
    <nd ref="616672387"/>
    <nd ref="616672388"/>
    <nd ref="1129365912"/>
    <nd ref="616672389"/>
    <nd ref="616672387"/>
    <tag k="addr:city" v="Зеленоград"/>
    <tag k="addr:country" v="RU"/>
    <tag k="addr:housenumber" v="537А"/>
    <tag k="addr:street" v="Микрорайон 5а"/>
    <tag k="amenity" v="fuel"/>
    <tag k="building" v="yes"/>
    <tag k="name" v="BP"/>
    <tag k="operator" v="BP"/>
  </way>
  <way id="48543897" version="6" timestamp="2011-06-01T15:39:50Z" uid="115477" user="wowik" changeset="8310580">
    <nd ref="616672387"/>
    <nd ref="616672388"/>
    <nd ref="1129365912"/>
    <nd ref="616672389"/>
    <nd ref="616672387"/>
    <tag k="addr:city" v="Зеленоград"/>
    <tag k="addr:country" v="RU"/>
    <tag k="addr:housenumber" v="537А"/>
    <tag k="addr:street" v="Микрорайон 5а"/>
    <tag k="amenity" v="fuel"/>
    <tag k="building" v="yes"/>
    <tag k="name" v="BP Ленинградская"/>
    <tag k="operator" v="BP"/>
  </way>
  <way id="48543897" version="7" timestamp="2011-06-07T20:49:30Z" uid="133332" user="AMDmi3" changeset="8374030">
    <nd ref="616672387"/>
    <nd ref="616672388"/>
    <nd ref="1129365912"/>
    <nd ref="616672389"/>
    <nd ref="616672387"/>
    <tag k="addr:city" v="Зеленоград"/>
    <tag k="addr:country" v="RU"/>
    <tag k="addr:housenumber" v="537А"/>
    <tag k="addr:street" v="микрорайон 5А"/>
    <tag k="amenity" v="fuel"/>
    <tag k="building" v="yes"/>
    <tag k="name" v="BP Ленинградская"/>
    <tag k="operator" v="BP"/>
  </way>
  <way id="48543897" version="8" timestamp="2011-09-13T10:29:35Z" uid="29320" user="Komяpa" changeset="9288237">
    <nd ref="616672387"/>
    <nd ref="616672388"/>
    <nd ref="1129365912"/>
    <nd ref="616672389"/>
    <nd ref="616672387"/>
    <tag k="addr:city" v="Зеленоград"/>
    <tag k="addr:country" v="RU"/>
    <tag k="addr:housenumber" v="537А"/>
    <tag k="addr:street" v="микрорайон 5А"/>
    <tag k="amenity" v="fuel"/>
    <tag k="building" v="yes"/>
    <tag k="name" v="bp ленинградская"/>
    <tag k="operator" v="BP"/>
  </way>
  <way id="48543897" version="9" timestamp="2011-10-28T10:04:19Z" uid="481934" user="iWowik" changeset="9675054">
    <nd ref="616672387"/>
    <nd ref="616672388"/>
    <nd ref="1129365912"/>
    <nd ref="616672389"/>
    <nd ref="616672387"/>
    <tag k="addr:city" v="Зеленоград"/>
    <tag k="addr:country" v="RU"/>
    <tag k="addr:housenumber" v="537А"/>
    <tag k="addr:street" v="Микрорайон 5А"/>
    <tag k="amenity" v="fuel"/>
    <tag k="building" v="yes"/>
    <tag k="name" v="BP Ленинградская"/>
    <tag k="operator" v="BP"/>
  </way>
  <way id="48543897" version="10" timestamp="2011-10-28T10:16:52Z" uid="481934" user="iWowik" changeset="9675133">
    <nd ref="616672387"/>
    <nd ref="616672388"/>
    <nd ref="1129365912"/>
    <nd ref="616672389"/>
    <nd ref="616672387"/>
    <tag k="addr:city" v="Зеленоград"/>
    <tag k="addr:country" v="RU"/>
    <tag k="addr:housenumber" v="537А"/>
    <tag k="addr:street" v="Микрорайон 5а"/>
    <tag k="amenity" v="fuel"/>
    <tag k="building" v="yes"/>
    <tag k="name" v="BP Ленинградская"/>
    <tag k="operator" v="BP"/>
  </way>
  <way id="48543897" version="11" timestamp="2012-01-10T15:22:08Z" uid="481934" user="iWowik" changeset="10352148">
    <nd ref="616672387"/>
    <nd ref="616672388"/>
    <nd ref="1129365912"/>
    <nd ref="616672389"/>
    <nd ref="616672387"/>
    <tag k="addr:city" v="Зеленоград"/>
    <tag k="addr:country" v="RU"/>
    <tag k="addr:housenumber" v="537А"/>
    <tag k="amenity" v="fuel"/>
    <tag k="building" v="yes"/>
    <tag k="name" v="BP Ленинградская"/>
    <tag k="operator" v="BP"/>
  </way>
  <way id="48543897" version="12" timestamp="2012-02-15T16:39:03Z" uid="481934" user="iWowik" changeset="10693611">
    <nd ref="616672387"/>
    <nd ref="616672388"/>
    <nd ref="1129365912"/>
    <nd ref="1634232288"/>
    <nd ref="616672389"/>
    <nd ref="616672387"/>
    <tag k="addr:city" v="Зеленоград"/>
    <tag k="addr:country" v="RU"/>
    <tag k="addr:housenumber" v="537А"/>
    <tag k="amenity" v="fuel"/>
    <tag k="building" v="yes"/>
    <tag k="name" v="BP Ленинградская"/>
    <tag k="operator" v="BP"/>
  </way>
  <way id="48543898" version="1" timestamp="2010-01-19T13:10:03Z" uid="115477" user="wowik" changeset="3658619">
    <nd ref="616672392"/>
    <nd ref="616672393"/>
    <nd ref="616672394"/>
    <nd ref="616672395"/>
    <nd ref="616672392"/>
    <tag k="building" v="yes"/>
  </way>
  <way id="48543898" version="2" timestamp="2011-01-27T17:04:59Z" uid="115477" user="wowik" changeset="7105390">
    <nd ref="616672392"/>
    <nd ref="1123565477"/>
    <nd ref="1123563770"/>
    <nd ref="616672393"/>
    <nd ref="616672394"/>
    <nd ref="1123565105"/>
    <nd ref="1123564100"/>
    <nd ref="616672395"/>
    <nd ref="616672392"/>
    <tag k="building" v="yes"/>
  </way>
  <way id="48543899" version="1" timestamp="2010-01-19T13:10:03Z" uid="115477" user="wowik" changeset="3658619">
    <nd ref="616672385"/>
    <nd ref="616672396"/>
    <nd ref="616672397"/>
    <nd ref="616672384"/>
    <tag k="highway" v="service"/>
    <tag k="oneway" v="yes"/>
  </way>
  <way id="48543899" version="2" timestamp="2010-03-15T09:37:25Z" uid="115477" user="wowik" changeset="4133036">
    <nd ref="616672384"/>
    <nd ref="616672397"/>
    <nd ref="616672396"/>
    <nd ref="616672385"/>
    <tag k="highway" v="service"/>
    <tag k="oneway" v="yes"/>
  </way>
  <way id="48543899" version="3" timestamp="2011-01-27T17:04:44Z" uid="115477" user="wowik" changeset="7105390">
    <nd ref="616672384"/>
    <nd ref="616672397"/>
    <nd ref="616672396"/>
    <nd ref="1123564250"/>
    <nd ref="616672385"/>
    <tag k="highway" v="service"/>
    <tag k="oneway" v="yes"/>
  </way>
  <way id="48543899" version="4" timestamp="2011-01-31T12:36:31Z" uid="115477" user="wowik" changeset="7144578">
    <nd ref="616672384"/>
    <nd ref="616672397"/>
    <nd ref="1129365908"/>
    <nd ref="1129365903"/>
    <nd ref="616672396"/>
    <nd ref="1123564250"/>
    <nd ref="616672385"/>
    <tag k="highway" v="service"/>
    <tag k="oneway" v="yes"/>
  </way>
  <way id="48543899" version="5" timestamp="2011-06-01T15:39:51Z" uid="115477" user="wowik" changeset="8310580">
    <nd ref="616672384"/>
    <nd ref="616672397"/>
    <nd ref="1307803227"/>
    <tag k="highway" v="service"/>
    <tag k="oneway" v="yes"/>
  </way>
  <way id="48543787" version="6" timestamp="2012-07-21T16:46:19Z" uid="722137" user="OSMF Redaction Account" changeset="12415125"/>
  <way id="48543836" version="6" timestamp="2012-07-20T20:22:48Z" uid="722137" user="OSMF Redaction Account" changeset="12390196">
    <nd ref="1507205279"/>
    <nd ref="1507205299"/>
    <nd ref="1489521324"/>
  </way>
  <way id="48543836" version="7" timestamp="2012-07-22T12:19:50Z" uid="421524" user="Scondo" changeset="12431844"/>
  <way id="48543837" version="6" timestamp="2012-07-20T20:26:43Z" uid="722137" user="OSMF Redaction Account" changeset="12390397"/>
  <way id="48543897" version="13" timestamp="2012-07-20T20:26:41Z" uid="722137" user="OSMF Redaction Account" changeset="12390397"/>
  <way id="48543898" version="3" timestamp="2012-07-20T20:26:42Z" uid="722137" user="OSMF Redaction Account" changeset="12390397"/>
  <way id="48543899" version="6" timestamp="2012-07-20T20:26:41Z" uid="722137" user="OSMF Redaction Account" changeset="12390397"/>
</osm>
