<?xml version='1.0' encoding='UTF-8'?>
<osm version="0.6" generator="libosmium/2.20.0">
  <way id="48715143" version="2" timestamp="2010-07-08T03:39:31Z" uid="74617" user="JohnSmith" changeset="5163091">
    <nd ref="618402390"/>
    <nd ref="618402389"/>
    <tag k="highway" v="residential"/>
    <tag k="maxspeed" v="50"/>
    <tag k="maxspeed:source" v="default residential speed limit in Australia"/>
    <tag k="name" v="Wakoora Road"/>
  </way>
  <way id="48715143" version="3" timestamp="2012-01-19T22:53:08Z" uid="147510" user="woodpeck_fixbot" changeset="10442006">
    <nd ref="618402390"/>
    <nd ref="618402389"/>
    <tag k="highway" v="residential"/>
    <tag k="name" v="Wakoora Road"/>
  </way>
  <way id="48715144" version="2" timestamp="2010-07-08T03:39:44Z" uid="74617" user="JohnSmith" changeset="5163091">
    <nd ref="618402392"/>
    <nd ref="618402391"/>
    <tag k="highway" v="residential"/>
    <tag k="maxspeed" v="50"/>
    <tag k="maxspeed:source" v="default residential speed limit in Australia"/>
    <tag k="name" v="Wyreema Road"/>
  </way>
  <way id="48715144" version="3" timestamp="2012-01-19T22:53:10Z" uid="147510" user="woodpeck_fixbot" changeset="10442006">
    <nd ref="618402392"/>
    <nd ref="618402391"/>
    <tag k="highway" v="residential"/>
    <tag k="name" v="Wyreema Road"/>
  </way>
  <way id="48715145" version="2" timestamp="2010-07-08T03:40:36Z" uid="74617" user="JohnSmith" changeset="5163091">
    <nd ref="618402393"/>
    <nd ref="618402394"/>
    <tag k="highway" v="residential"/>
    <tag k="maxspeed" v="50"/>
    <tag k="maxspeed:source" v="default residential speed limit in Australia"/>
    <tag k="name" v="Kanowna Road"/>
  </way>
  <way id="48715145" version="3" timestamp="2012-01-19T22:53:12Z" uid="147510" user="woodpeck_fixbot" changeset="10442006">
    <nd ref="618402393"/>
    <nd ref="618402394"/>
    <tag k="highway" v="residential"/>
    <tag k="name" v="Kanowna Road"/>
  </way>
  <way id="48715146" version="2" timestamp="2010-07-08T03:38:02Z" uid="74617" user="JohnSmith" changeset="5163091">
    <nd ref="618402396"/>
    <nd ref="430798962"/>
    <nd ref="618402395"/>
    <nd ref="618402391"/>
    <nd ref="618402393"/>
    <nd ref="618402387"/>
    <nd ref="618402389"/>
    <nd ref="618402388"/>
    <tag k="highway" v="residential"/>
    <tag k="maxspeed" v="50"/>
    <tag k="maxspeed:source" v="default residential speed limit in Australia"/>
    <tag k="name" v="Nikko Road"/>
  </way>
  <way id="48715146" version="3" timestamp="2010-12-18T23:22:45Z" uid="7617" user="Franc" changeset="6701668">
    <nd ref="618402395"/>
    <nd ref="618402391"/>
    <nd ref="618402393"/>
    <nd ref="618402387"/>
    <nd ref="618402389"/>
    <nd ref="618402388"/>
    <tag k="highway" v="residential"/>
    <tag k="maxspeed" v="50"/>
    <tag k="maxspeed:source" v="default residential speed limit in Australia"/>
    <tag k="name" v="Nikko Road"/>
  </way>
  <way id="48715146" version="4" timestamp="2010-12-19T05:03:00Z" uid="7617" user="Franc" changeset="6702612">
    <nd ref="618402395"/>
    <nd ref="1047219045"/>
    <nd ref="1047219193"/>
    <nd ref="618402391"/>
    <nd ref="618402393"/>
    <nd ref="618402387"/>
    <nd ref="618402389"/>
    <nd ref="618402388"/>
    <tag k="highway" v="residential"/>
    <tag k="maxspeed" v="50"/>
    <tag k="maxspeed:source" v="default residential speed limit in Australia"/>
    <tag k="name" v="Nikko Road"/>
  </way>
  <way id="48715146" version="5" timestamp="2012-01-19T22:53:13Z" uid="147510" user="woodpeck_fixbot" changeset="10442006">
    <nd ref="618402395"/>
    <nd ref="1047219045"/>
    <nd ref="1047219193"/>
    <nd ref="618402391"/>
    <nd ref="618402393"/>
    <nd ref="618402387"/>
    <nd ref="618402389"/>
    <nd ref="618402388"/>
    <tag k="highway" v="residential"/>
    <tag k="name" v="Nikko Road"/>
  </way>
  <way id="48715503" version="3" timestamp="2010-04-03T04:29:49Z" uid="20587" user="balrog-kun" changeset="4309442">
    <nd ref="258013857"/>
    <nd ref="618405447"/>
    <nd ref="258013856"/>
    <nd ref="618405448"/>
    <nd ref="618405450"/>
    <nd ref="618405451"/>
    <tag k="highway" v="residential"/>
    <tag k="name" v="West Wahalla Lane"/>
    <tag k="tiger:cfcc" v="A41"/>
    <tag k="tiger:county" v="Maricopa, AZ"/>
    <tag k="tiger:name_base" v="Wahalla"/>
    <tag k="tiger:name_direction_prefix" v="W"/>
    <tag k="tiger:name_type" v="Ln"/>
    <tag k="tiger:zip_left" v="85308"/>
    <tag k="tiger:zip_right" v="85308"/>
  </way>
  <way id="48715503" version="4" timestamp="2011-06-06T17:13:54Z" uid="223110" user="DavidMerrill" changeset="8362210">
    <nd ref="258013857"/>
    <nd ref="618405447"/>
    <nd ref="258013856"/>
    <nd ref="618405448"/>
    <nd ref="618405450"/>
    <nd ref="618405451"/>
    <tag k="highway" v="residential"/>
    <tag k="name" v="West Marco Polo Rd"/>
    <tag k="tiger:cfcc" v="A41"/>
    <tag k="tiger:county" v="Maricopa, AZ"/>
    <tag k="tiger:name_base" v="Wahalla"/>
    <tag k="tiger:name_direction_prefix" v="W"/>
    <tag k="tiger:name_type" v="Ln"/>
    <tag k="tiger:zip_left" v="85308"/>
    <tag k="tiger:zip_right" v="85308"/>
  </way>
  <way id="48715705" version="3" timestamp="2010-03-02T18:18:46Z" uid="115477" user="wowik" changeset="4018941">
    <nd ref="618406456"/>
    <nd ref="618406457"/>
    <nd ref="618406439"/>
    <nd ref="618406444"/>
    <nd ref="618406445"/>
    <nd ref="618406424"/>
    <nd ref="618406425"/>
    <nd ref="618406426"/>
    <nd ref="618406427"/>
    <nd ref="618406428"/>
    <nd ref="618406429"/>
    <nd ref="618406430"/>
    <nd ref="618406434"/>
    <nd ref="618406435"/>
    <nd ref="618406436"/>
    <tag k="highway" v="primary_link"/>
    <tag k="oneway" v="yes"/>
  </way>
  <way id="48715705" version="4" timestamp="2010-03-12T12:56:50Z" uid="115477" user="wowik" changeset="4105957">
    <nd ref="618406456"/>
    <nd ref="618406457"/>
    <nd ref="618406439"/>
    <nd ref="618406444"/>
    <nd ref="618406445"/>
    <nd ref="618406424"/>
    <nd ref="618406425"/>
    <nd ref="618406426"/>
    <nd ref="618406427"/>
    <tag k="highway" v="primary_link"/>
    <tag k="oneway" v="yes"/>
  </way>
  <way id="48715705" version="5" timestamp="2010-11-12T11:09:35Z" uid="316868" user="LexIgnatov" changeset="6350025"/>
  <way id="48715954" version="2" timestamp="2010-07-08T03:40:24Z" uid="74617" user="JohnSmith" changeset="5163091">
    <nd ref="271893020"/>
    <nd ref="271893021"/>
    <nd ref="271893022"/>
    <tag k="highway" v="residential"/>
    <tag k="maxspeed" v="50"/>
    <tag k="maxspeed:source" v="default residential speed limit in Australia"/>
    <tag k="name" v="Una Avenue"/>
  </way>
  <way id="48715954" version="3" timestamp="2012-01-19T22:53:14Z" uid="147510" user="woodpeck_fixbot" changeset="10442006">
    <nd ref="271893020"/>
    <nd ref="271893021"/>
    <nd ref="271893022"/>
    <tag k="highway" v="residential"/>
    <tag k="name" v="Una Avenue"/>
  </way>
  <way id="48715961" version="2" timestamp="2010-07-08T03:37:44Z" uid="74617" user="JohnSmith" changeset="5163091">
    <nd ref="618413619"/>
    <nd ref="618413656"/>
    <tag k="highway" v="residential"/>
    <tag k="maxspeed" v="50"/>
    <tag k="maxspeed:source" v="default residential speed limit in Australia"/>
    <tag k="name" v="Regina Lane"/>
  </way>
  <way id="48715961" version="3" timestamp="2012-01-19T22:53:15Z" uid="147510" user="woodpeck_fixbot" changeset="10442006">
    <nd ref="618413619"/>
    <nd ref="618413656"/>
    <tag k="highway" v="residential"/>
    <tag k="name" v="Regina Lane"/>
  </way>
  <way id="48715995" version="2" timestamp="2010-04-04T01:33:16Z" uid="20587" user="balrog-kun" changeset="4318254">
    <nd ref="156653637"/>
    <nd ref="156658111"/>
    <nd ref="156593675"/>
    <nd ref="618416372"/>
    <nd ref="618416374"/>
    <nd ref="156658114"/>
    <tag k="highway" v="residential"/>
    <tag k="name" v="Airport Road"/>
    <tag k="tiger:cfcc" v="A41"/>
    <tag k="tiger:county" v="Campbell, WY"/>
    <tag k="tiger:name_base" v="Airport"/>
    <tag k="tiger:name_type" v="Rd"/>
    <tag k="tiger:reviewed" v="aerial"/>
    <tag k="tiger:separated" v="no"/>
    <tag k="tiger:source" v="tiger_import_dch_v0.6_20070830"/>
    <tag k="tiger:tlid" v="146323152:146322714:146322715"/>
    <tag k="tiger:zip_left" v="82716"/>
  </way>
  <way id="48715146" version="6" timestamp="2012-07-19T12:50:23Z" uid="722137" user="OSMF Redaction Account" changeset="12326866">
    <nd ref="618402395"/>
    <nd ref="618402391"/>
    <nd ref="618402393"/>
    <nd ref="618402387"/>
    <nd ref="618402389"/>
    <nd ref="618402388"/>
    <tag k="highway" v="residential"/>
    <tag k="name" v="Nikko Road"/>
  </way>
  <way id="48715954" version="4" timestamp="2012-07-27T04:43:13Z" uid="77586" user="Map Star" changeset="12506693">
    <nd ref="1839439559"/>
    <nd ref="271893020"/>
    <nd ref="271893021"/>
    <nd ref="271893022"/>
    <tag k="highway" v="residential"/>
    <tag k="name" v="Una Avenue"/>
  </way>
</osm>
