<?xml version='1.0' encoding='UTF-8'?>
<osm version="0.6" generator="libosmium/2.20.0">
  <way id="48761098" version="2" timestamp="2010-04-06T15:37:31Z" uid="20587" user="balrog-kun" changeset="4342727">
    <nd ref="618800927"/>
    <nd ref="79284495"/>
    <nd ref="79284497"/>
    <nd ref="79284499"/>
    <nd ref="79284501"/>
    <nd ref="79284503"/>
    <nd ref="79278417"/>
    <nd ref="79284505"/>
    <nd ref="79284507"/>
    <nd ref="79284509"/>
    <nd ref="79284018"/>
    <nd ref="79284511"/>
    <nd ref="79284515"/>
    <nd ref="79284517"/>
    <nd ref="79284520"/>
    <nd ref="79288799"/>
    <nd ref="79282989"/>
    <nd ref="79284522"/>
    <tag k="highway" v="residential"/>
    <tag k="name" v="406th Avenue"/>
    <tag k="tiger:cfcc" v="A41"/>
    <tag k="tiger:county" v="Davison, SD"/>
    <tag k="tiger:name_base" v="406th"/>
    <tag k="tiger:name_type" v="Ave"/>
    <tag k="tiger:reviewed" v="no"/>
    <tag k="tiger:separated" v="no"/>
    <tag k="tiger:source" v="tiger_import_dch_v0.6_20070829"/>
    <tag k="tiger:tlid" v="200657095:200657037:200656929:200657094"/>
    <tag k="tiger:zip_left" v="57301"/>
    <tag k="tiger:zip_right" v="57301"/>
  </way>
  <way id="48761100" version="2" timestamp="2010-04-06T15:37:32Z" uid="20587" user="balrog-kun" changeset="4342727">
    <nd ref="618800929"/>
    <nd ref="618800927"/>
    <tag k="bridge" v="yes"/>
    <tag k="highway" v="residential"/>
    <tag k="layer" v="1"/>
    <tag k="name" v="406th Avenue"/>
    <tag k="tiger:cfcc" v="A41"/>
    <tag k="tiger:county" v="Davison, SD"/>
    <tag k="tiger:name_base" v="406th"/>
    <tag k="tiger:name_type" v="Ave"/>
    <tag k="tiger:reviewed" v="no"/>
    <tag k="tiger:separated" v="no"/>
    <tag k="tiger:source" v="tiger_import_dch_v0.6_20070829"/>
    <tag k="tiger:tlid" v="200657095:200657037:200656929:200657094"/>
    <tag k="tiger:zip_left" v="57301"/>
    <tag k="tiger:zip_right" v="57301"/>
  </way>
  <way id="48761245" version="3" timestamp="2011-02-11T19:36:42Z" uid="115477" user="wowik" changeset="7258243">
    <nd ref="618801810"/>
    <nd ref="618801814"/>
    <nd ref="1147833958"/>
    <nd ref="1147835785"/>
    <nd ref="1147832971"/>
    <nd ref="618801816"/>
    <nd ref="618801820"/>
    <nd ref="1147834874"/>
    <nd ref="1147835320"/>
    <nd ref="1147836708"/>
    <nd ref="618801822"/>
    <nd ref="618801826"/>
    <nd ref="618801830"/>
    <nd ref="618801834"/>
    <nd ref="618801837"/>
    <nd ref="618801842"/>
    <nd ref="618801810"/>
    <tag k="addr:housenumber" v="7"/>
    <tag k="addr:street" v="улица Марии Рубцовой"/>
    <tag k="building" v="yes"/>
  </way>
  <way id="48761248" version="3" timestamp="2011-02-11T19:36:16Z" uid="115477" user="wowik" changeset="7258243">
    <nd ref="618801863"/>
    <nd ref="618801868"/>
    <nd ref="618801873"/>
    <nd ref="618801878"/>
    <nd ref="618801881"/>
    <nd ref="1147837600"/>
    <nd ref="1147832583"/>
    <nd ref="1147833599"/>
    <nd ref="618801886"/>
    <nd ref="618801888"/>
    <nd ref="618801863"/>
    <tag k="addr:housenumber" v="5"/>
    <tag k="addr:street" v="улица Марии Рубцовой"/>
    <tag k="building" v="yes"/>
  </way>
  <way id="48761251" version="3" timestamp="2011-02-11T19:38:22Z" uid="115477" user="wowik" changeset="7258243">
    <nd ref="618801899"/>
    <nd ref="618801902"/>
    <nd ref="618801907"/>
    <nd ref="1147839026"/>
    <nd ref="1147837034"/>
    <nd ref="1147831896"/>
    <nd ref="618801911"/>
    <nd ref="618801912"/>
    <nd ref="1147838168"/>
    <nd ref="1147832777"/>
    <nd ref="1147833756"/>
    <nd ref="618801917"/>
    <nd ref="618801921"/>
    <nd ref="618801925"/>
    <nd ref="618801928"/>
    <nd ref="618801930"/>
    <nd ref="618801899"/>
    <tag k="addr:housenumber" v="3"/>
    <tag k="addr:street" v="улица Марии Рубцовой"/>
    <tag k="building" v="yes"/>
  </way>
  <way id="48761290" version="4" timestamp="2011-02-11T19:34:31Z" uid="115477" user="wowik" changeset="7258243">
    <nd ref="618802256"/>
    <nd ref="1147838046"/>
    <nd ref="1147834052"/>
    <nd ref="1147838944"/>
    <nd ref="1147833224"/>
    <nd ref="618802257"/>
    <nd ref="1147833323"/>
    <nd ref="1147832721"/>
    <nd ref="1147836100"/>
    <nd ref="1147831874"/>
    <nd ref="618802258"/>
    <nd ref="1147839009"/>
    <nd ref="1147832209"/>
    <nd ref="1147834099"/>
    <nd ref="1147833286"/>
    <nd ref="618802259"/>
    <nd ref="1147835488"/>
    <nd ref="1147836936"/>
    <nd ref="1147833730"/>
    <nd ref="1147834541"/>
    <nd ref="618802256"/>
    <tag k="addr:housenumber" v="4"/>
    <tag k="addr:street" v="улица Марии Рубцовой"/>
    <tag k="amenity" v="kindergarten"/>
    <tag k="building" v="yes"/>
    <tag k="name" v="Детский сад №14"/>
  </way>
  <way id="48761899" version="1" timestamp="2010-01-23T18:10:48Z" uid="43863" user="Rundling" changeset="3694160">
    <nd ref="618807158"/>
    <nd ref="618807162"/>
    <nd ref="618807163"/>
    <nd ref="618807161"/>
    <nd ref="618807151"/>
    <nd ref="618807156"/>
    <nd ref="618807157"/>
    <nd ref="618807153"/>
    <nd ref="618807154"/>
    <nd ref="618807155"/>
    <nd ref="618807148"/>
    <nd ref="618807150"/>
    <nd ref="618807160"/>
    <nd ref="618807158"/>
    <tag k="landuse" v="residential"/>
    <tag k="name" v="Enteninsel"/>
  </way>
  <way id="48761979" version="3" timestamp="2010-05-30T15:06:03Z" uid="9581" user="Lobelt" changeset="4852926">
    <nd ref="311842089"/>
    <nd ref="311842088"/>
    <nd ref="311842087"/>
    <nd ref="618807638"/>
    <nd ref="51519071"/>
    <nd ref="311842089"/>
    <tag k="basin" v="infiltration"/>
    <tag k="natural" v="grass"/>
  </way>
  <way id="48761245" version="4" timestamp="2012-07-20T13:39:01Z" uid="722137" user="OSMF Redaction Account" changeset="12378042">
    <nd ref="618801810"/>
    <nd ref="618801814"/>
    <nd ref="618801816"/>
    <nd ref="618801820"/>
    <nd ref="618801822"/>
    <nd ref="618801826"/>
    <nd ref="618801830"/>
    <nd ref="618801834"/>
    <nd ref="618801837"/>
    <nd ref="618801842"/>
    <nd ref="618801810"/>
    <tag k="addr:housenumber" v="7"/>
    <tag k="addr:street" v="улица Марии Рубцовой"/>
    <tag k="building" v="yes"/>
  </way>
  <way id="48761248" version="4" timestamp="2012-07-20T13:39:04Z" uid="722137" user="OSMF Redaction Account" changeset="12378042">
    <nd ref="618801863"/>
    <nd ref="618801868"/>
    <nd ref="618801873"/>
    <nd ref="618801878"/>
    <nd ref="618801881"/>
    <nd ref="618801886"/>
    <nd ref="618801888"/>
    <nd ref="618801863"/>
    <tag k="addr:housenumber" v="5"/>
    <tag k="addr:street" v="улица Марии Рубцовой"/>
    <tag k="building" v="yes"/>
  </way>
  <way id="48761251" version="4" timestamp="2012-07-20T13:39:03Z" uid="722137" user="OSMF Redaction Account" changeset="12378042">
    <nd ref="618801899"/>
    <nd ref="618801902"/>
    <nd ref="618801907"/>
    <nd ref="618801911"/>
    <nd ref="618801912"/>
    <nd ref="618801917"/>
    <nd ref="618801921"/>
    <nd ref="618801925"/>
    <nd ref="618801928"/>
    <nd ref="618801930"/>
    <nd ref="618801899"/>
    <tag k="addr:housenumber" v="3"/>
    <tag k="addr:street" v="улица Марии Рубцовой"/>
    <tag k="building" v="yes"/>
  </way>
  <way id="48761290" version="5" timestamp="2012-07-20T13:39:04Z" uid="722137" user="OSMF Redaction Account" changeset="12378042">
    <nd ref="618802256"/>
    <nd ref="618802257"/>
    <nd ref="618802258"/>
    <nd ref="618802259"/>
    <nd ref="618802256"/>
    <tag k="addr:housenumber" v="4"/>
    <tag k="addr:street" v="улица Марии Рубцовой"/>
    <tag k="amenity" v="kindergarten"/>
    <tag k="building" v="yes"/>
    <tag k="name" v="Детский сад №14"/>
  </way>
  <way id="48761899" version="2" timestamp="2012-07-18T17:14:58Z" uid="722137" user="OSMF Redaction Account" changeset="12290215"/>
  <way id="48761979" version="4" timestamp="2012-07-17T03:55:27Z" uid="722137" user="OSMF Redaction Account" changeset="12256432">
    <nd ref="311842089"/>
    <nd ref="311842088"/>
    <nd ref="311842087"/>
    <nd ref="618807638"/>
    <nd ref="311842089"/>
    <tag k="basin" v="infiltration"/>
    <tag k="natural" v="grass"/>
  </way>
  <way id="48761979" version="5" timestamp="2012-07-20T12:17:27Z" uid="6390" user="grenzdebil_bonn" changeset="12371441"/>
</osm>
