<?xml version='1.0' encoding='UTF-8'?>
<osm version="0.6" generator="libosmium/2.20.0">
  <way id="48784307" version="4" timestamp="2011-05-24T00:58:00Z" uid="4467" user="Rosscoe" changeset="8231530">
    <nd ref="231048382"/>
    <nd ref="564346482"/>
    <nd ref="1297908020"/>
    <nd ref="21755572"/>
    <nd ref="1297907915"/>
    <nd ref="21755573"/>
    <nd ref="21755574"/>
    <tag k="highway" v="primary"/>
    <tag k="name" v="Horse Park Drive"/>
    <tag k="oneway" v="yes"/>
  </way>
  <way id="48784307" version="5" timestamp="2012-01-24T11:54:37Z" uid="12434" user="nm7s9" changeset="10483674">
    <nd ref="231048382"/>
    <nd ref="564346482"/>
    <nd ref="1603418552"/>
    <nd ref="21755572"/>
    <nd ref="21755573"/>
    <nd ref="21755574"/>
    <tag k="highway" v="primary"/>
    <tag k="name" v="Horse Park Drive"/>
    <tag k="oneway" v="yes"/>
  </way>
  <way id="48784308" version="4" timestamp="2011-05-24T00:57:56Z" uid="4467" user="Rosscoe" changeset="8231530">
    <nd ref="1297907871"/>
    <nd ref="21755583"/>
    <nd ref="21755584"/>
    <nd ref="1297907946"/>
    <nd ref="21755585"/>
    <tag k="highway" v="primary"/>
    <tag k="name" v="Horse Park Drive"/>
    <tag k="oneway" v="yes"/>
    <tag k="source" v="nearmap"/>
  </way>
  <way id="48784308" version="5" timestamp="2012-01-24T11:39:40Z" uid="12434" user="nm7s9" changeset="10483579"/>
  <way id="48784403" version="1" timestamp="2010-01-24T02:26:59Z" uid="23543" user="jkjk" changeset="3697617">
    <nd ref="619027757"/>
    <nd ref="312772058"/>
    <nd ref="312772057"/>
    <nd ref="312772054"/>
    <nd ref="312772053"/>
    <nd ref="305956611"/>
    <nd ref="312772050"/>
    <nd ref="305955077"/>
    <nd ref="305959098"/>
    <nd ref="305955093"/>
    <nd ref="305959097"/>
    <nd ref="305956603"/>
    <nd ref="305956616"/>
    <nd ref="305956621"/>
    <nd ref="305956634"/>
    <nd ref="305956644"/>
    <nd ref="305956647"/>
    <nd ref="305956671"/>
    <nd ref="312772034"/>
    <tag k="power" v="line"/>
    <tag k="ref" v="434, 435"/>
    <tag k="source" v="uhul:ortofoto"/>
    <tag k="voltage" v="400000"/>
  </way>
  <way id="48784403" version="2" timestamp="2011-06-24T08:27:33Z" uid="384060" user="aliponte" changeset="8530043">
    <nd ref="619027757"/>
    <nd ref="312772058"/>
    <nd ref="312772057"/>
    <nd ref="312772054"/>
    <nd ref="312772053"/>
    <nd ref="305956611"/>
    <nd ref="312772050"/>
    <nd ref="305955077"/>
    <nd ref="305959098"/>
    <nd ref="305955093"/>
    <nd ref="305959097"/>
    <nd ref="305956603"/>
    <nd ref="305956616"/>
    <nd ref="305956621"/>
    <nd ref="305956634"/>
    <nd ref="305956644"/>
    <nd ref="305956647"/>
    <nd ref="305956671"/>
    <nd ref="312772034"/>
    <tag k="power" v="line"/>
    <tag k="ref" v="434;435"/>
    <tag k="source" v="uhul:ortofoto"/>
    <tag k="voltage" v="400000"/>
  </way>
  <way id="48784404" version="1" timestamp="2010-01-24T02:26:59Z" uid="23543" user="jkjk" changeset="3697617">
    <nd ref="312772060"/>
    <nd ref="312772062"/>
    <nd ref="312772064"/>
    <nd ref="312772066"/>
    <nd ref="312772068"/>
    <nd ref="312772070"/>
    <nd ref="312772071"/>
    <nd ref="312772073"/>
    <nd ref="312772075"/>
    <nd ref="312772091"/>
    <nd ref="312772086"/>
    <nd ref="312772084"/>
    <nd ref="312772083"/>
    <nd ref="312771713"/>
    <nd ref="312771712"/>
    <nd ref="312771710"/>
    <nd ref="312771707"/>
    <nd ref="312771702"/>
    <nd ref="312771826"/>
    <nd ref="305956650"/>
    <nd ref="305956663"/>
    <nd ref="312772013"/>
    <tag k="power" v="line"/>
    <tag k="ref" v="436"/>
    <tag k="source" v="uhul:ortofoto"/>
    <tag k="voltage" v="400000"/>
  </way>
  <way id="48784405" version="1" timestamp="2010-01-24T02:27:00Z" uid="23543" user="jkjk" changeset="3697617">
    <nd ref="619027757"/>
    <nd ref="312772060"/>
    <tag k="power" v="line"/>
    <tag k="voltage" v="400000"/>
  </way>
  <way id="48784405" version="2" timestamp="2011-10-06T22:13:17Z" uid="507276" user="FuckOSMFandODbL" changeset="9489879">
    <nd ref="619027757"/>
    <nd ref="312772060"/>
    <tag k="power" v="line"/>
    <tag k="ref" v="435"/>
    <tag k="voltage" v="400000"/>
  </way>
  <way id="48784625" version="6" timestamp="2011-02-11T19:33:41Z" uid="115477" user="wowik" changeset="7258243">
    <nd ref="619033770"/>
    <nd ref="619033380"/>
    <nd ref="619033373"/>
    <nd ref="619033763"/>
    <nd ref="619033770"/>
    <tag k="addr:city" v="Химки"/>
    <tag k="addr:housenumber" v="10"/>
    <tag k="addr:street" v="улица Дружбы"/>
    <tag k="building" v="yes"/>
    <tag k="building:use" v="residential"/>
  </way>
  <way id="48784626" version="6" timestamp="2011-02-11T19:35:04Z" uid="115477" user="wowik" changeset="7258243">
    <nd ref="619033776"/>
    <nd ref="619033717"/>
    <nd ref="619033710"/>
    <nd ref="619033784"/>
    <nd ref="619033776"/>
    <tag k="addr:city" v="Химки"/>
    <tag k="addr:housenumber" v="12"/>
    <tag k="addr:street" v="улица Дружбы"/>
    <tag k="building" v="yes"/>
    <tag k="building:use" v="residential"/>
  </way>
  <way id="48784628" version="6" timestamp="2011-02-11T19:37:43Z" uid="115477" user="wowik" changeset="7258243">
    <nd ref="619033791"/>
    <nd ref="619033723"/>
    <nd ref="619033730"/>
    <nd ref="619033797"/>
    <nd ref="619033791"/>
    <tag k="addr:city" v="Химки"/>
    <tag k="addr:housenumber" v="14"/>
    <tag k="addr:street" v="улица Дружбы"/>
    <tag k="building" v="yes"/>
    <tag k="building:use" v="residential"/>
  </way>
  <way id="48784634" version="3" timestamp="2011-02-11T19:37:28Z" uid="115477" user="wowik" changeset="7258243">
    <nd ref="619033314"/>
    <nd ref="619033336"/>
    <nd ref="619033322"/>
    <nd ref="1147833184"/>
    <nd ref="1147832197"/>
    <nd ref="1147832710"/>
    <nd ref="1147833716"/>
    <nd ref="619033329"/>
    <nd ref="619033314"/>
    <tag k="building" v="yes"/>
  </way>
  <way id="48784639" version="5" timestamp="2011-02-11T19:36:48Z" uid="115477" user="wowik" changeset="7258243">
    <nd ref="619033508"/>
    <nd ref="619033457"/>
    <nd ref="619033443"/>
    <nd ref="619033464"/>
    <nd ref="1147832490"/>
    <nd ref="1147833504"/>
    <nd ref="619033450"/>
    <nd ref="619033472"/>
    <nd ref="619033429"/>
    <nd ref="619033582"/>
    <nd ref="1147832871"/>
    <nd ref="1147833873"/>
    <nd ref="619033508"/>
    <tag k="addr:city" v="Химки"/>
    <tag k="addr:housenumber" v="8"/>
    <tag k="addr:street" v="Парковая улица"/>
    <tag k="building" v="yes"/>
  </way>
  <way id="48784641" version="5" timestamp="2011-02-11T19:33:45Z" uid="115477" user="wowik" changeset="7258243">
    <nd ref="619033650"/>
    <nd ref="619033651"/>
    <nd ref="619033737"/>
    <nd ref="619033744"/>
    <nd ref="619033650"/>
    <tag k="addr:city" v="Химки"/>
    <tag k="addr:housenumber" v="12"/>
    <tag k="addr:street" v="Парковая улица"/>
    <tag k="building" v="yes"/>
    <tag k="building:use" v="residential"/>
  </way>
  <way id="48784649" version="4" timestamp="2011-02-11T19:35:51Z" uid="115477" user="wowik" changeset="7258243">
    <nd ref="619033403"/>
    <nd ref="619033394"/>
    <nd ref="619033386"/>
    <nd ref="1147832349"/>
    <nd ref="1147835085"/>
    <nd ref="1147835570"/>
    <nd ref="1147834178"/>
    <nd ref="619033408"/>
    <nd ref="619033403"/>
    <tag k="addr:housenumber" v="84"/>
    <tag k="addr:street" v="Юбилейный проспект"/>
    <tag k="building" v="yes"/>
  </way>
  <way id="48784403" version="3" timestamp="2012-07-17T08:12:52Z" uid="722137" user="OSMF Redaction Account" changeset="12260190"/>
  <way id="48784403" version="4" timestamp="2012-07-17T08:52:48Z" uid="42429" user="42429" changeset="12260717">
    <nd ref="619027757"/>
    <nd ref="312772058"/>
    <nd ref="312772057"/>
    <nd ref="312772054"/>
    <nd ref="312772053"/>
    <nd ref="305956611"/>
    <nd ref="312772050"/>
    <nd ref="305955077"/>
    <nd ref="305959098"/>
    <nd ref="305955093"/>
    <nd ref="305959097"/>
    <nd ref="305956603"/>
    <nd ref="305956616"/>
    <nd ref="305956621"/>
    <nd ref="305956634"/>
    <nd ref="305956644"/>
    <nd ref="305956647"/>
    <nd ref="305956671"/>
    <nd ref="312772034"/>
    <tag k="operator" v="ČEPS"/>
    <tag k="power" v="line"/>
    <tag k="ref" v="434;435"/>
    <tag k="source" v="uhul:ortofoto"/>
    <tag k="voltage" v="400000"/>
  </way>
  <way id="48784403" version="5" timestamp="2012-08-02T08:18:07Z" uid="461798" user="Radek Dostal" changeset="12582684">
    <nd ref="619027757"/>
    <nd ref="312772058"/>
    <nd ref="312772057"/>
    <nd ref="312772054"/>
    <nd ref="312772053"/>
    <nd ref="305956611"/>
    <nd ref="312772050"/>
    <nd ref="305955077"/>
    <nd ref="305959098"/>
    <nd ref="305955093"/>
    <nd ref="305959097"/>
    <nd ref="305956603"/>
    <nd ref="305956616"/>
    <nd ref="305956621"/>
    <nd ref="305956634"/>
    <nd ref="305956644"/>
    <nd ref="305956647"/>
    <nd ref="305956671"/>
    <nd ref="312772034"/>
    <tag k="cables" v="6"/>
    <tag k="frequency" v="50"/>
    <tag k="operator" v="ČEPS"/>
    <tag k="power" v="line"/>
    <tag k="ref" v="434;435"/>
    <tag k="source" v="uhul:ortofoto"/>
    <tag k="voltage" v="400000"/>
  </way>
  <way id="48784404" version="2" timestamp="2012-07-17T08:12:52Z" uid="722137" user="OSMF Redaction Account" changeset="12260190"/>
  <way id="48784405" version="3" timestamp="2012-07-17T08:12:52Z" uid="722137" user="OSMF Redaction Account" changeset="12260190"/>
  <way id="48784405" version="4" timestamp="2012-07-17T08:53:03Z" uid="42429" user="42429" changeset="12260717">
    <nd ref="619027757"/>
    <nd ref="312772060"/>
    <tag k="operator" v="ČEPS"/>
    <tag k="power" v="line"/>
    <tag k="ref" v="435"/>
    <tag k="voltage" v="400000"/>
  </way>
  <way id="48784405" version="5" timestamp="2012-08-02T08:18:08Z" uid="461798" user="Radek Dostal" changeset="12582684">
    <nd ref="619027757"/>
    <nd ref="312772060"/>
    <tag k="cables" v="3"/>
    <tag k="frequency" v="50"/>
    <tag k="operator" v="ČEPS"/>
    <tag k="power" v="line"/>
    <tag k="ref" v="435"/>
    <tag k="voltage" v="400000"/>
  </way>
  <way id="48784625" version="7" timestamp="2012-07-20T13:38:40Z" uid="722137" user="OSMF Redaction Account" changeset="12377983">
    <nd ref="619033770"/>
    <nd ref="619033380"/>
    <nd ref="619033373"/>
    <nd ref="619033763"/>
    <nd ref="619033770"/>
    <tag k="addr:city" v="Химки"/>
    <tag k="addr:housenumber" v="10"/>
    <tag k="addr:street" v="улица Дружбы"/>
    <tag k="building" v="yes"/>
  </way>
  <way id="48784626" version="7" timestamp="2012-07-20T13:38:39Z" uid="722137" user="OSMF Redaction Account" changeset="12377983">
    <nd ref="619033776"/>
    <nd ref="619033717"/>
    <nd ref="619033710"/>
    <nd ref="619033784"/>
    <nd ref="619033776"/>
    <tag k="addr:city" v="Химки"/>
    <tag k="addr:housenumber" v="12"/>
    <tag k="addr:street" v="улица Дружбы"/>
    <tag k="building" v="yes"/>
  </way>
  <way id="48784628" version="7" timestamp="2012-07-20T13:38:39Z" uid="722137" user="OSMF Redaction Account" changeset="12377983">
    <nd ref="619033791"/>
    <nd ref="619033723"/>
    <nd ref="619033730"/>
    <nd ref="619033797"/>
    <nd ref="619033791"/>
    <tag k="addr:city" v="Химки"/>
    <tag k="addr:housenumber" v="14"/>
    <tag k="addr:street" v="улица Дружбы"/>
    <tag k="building" v="yes"/>
  </way>
  <way id="48784634" version="4" timestamp="2012-07-20T13:38:30Z" uid="722137" user="OSMF Redaction Account" changeset="12377983">
    <nd ref="619033314"/>
    <nd ref="619033336"/>
    <nd ref="619033322"/>
    <nd ref="619033329"/>
    <nd ref="619033314"/>
    <tag k="building" v="yes"/>
  </way>
  <way id="48784639" version="6" timestamp="2012-07-20T13:38:29Z" uid="722137" user="OSMF Redaction Account" changeset="12377983">
    <nd ref="619033508"/>
    <nd ref="619033457"/>
    <nd ref="619033443"/>
    <nd ref="619033464"/>
    <nd ref="619033450"/>
    <nd ref="619033472"/>
    <nd ref="619033429"/>
    <nd ref="619033582"/>
    <nd ref="619033508"/>
    <tag k="addr:city" v="Химки"/>
    <tag k="addr:housenumber" v="8"/>
    <tag k="addr:street" v="Парковая улица"/>
    <tag k="building" v="yes"/>
  </way>
  <way id="48784641" version="6" timestamp="2012-07-20T13:38:33Z" uid="722137" user="OSMF Redaction Account" changeset="12377983">
    <nd ref="619033650"/>
    <nd ref="619033651"/>
    <nd ref="619033737"/>
    <nd ref="619033744"/>
    <nd ref="619033650"/>
    <tag k="addr:city" v="Химки"/>
    <tag k="addr:housenumber" v="12"/>
    <tag k="addr:street" v="Парковая улица"/>
    <tag k="building" v="yes"/>
  </way>
  <way id="48784649" version="5" timestamp="2012-07-20T13:38:33Z" uid="722137" user="OSMF Redaction Account" changeset="12377983">
    <nd ref="619033403"/>
    <nd ref="619033394"/>
    <nd ref="619033386"/>
    <nd ref="619033408"/>
    <nd ref="619033403"/>
    <tag k="addr:housenumber" v="84"/>
    <tag k="addr:street" v="Юбилейный проспект"/>
    <tag k="building" v="yes"/>
  </way>
</osm>
