<?xml version='1.0' encoding='UTF-8'?>
<osm version="0.6" generator="libosmium/2.20.0">
  <way id="48817191" version="2" timestamp="2010-06-29T19:05:23Z" uid="74617" user="JohnSmith" changeset="5108182">
    <nd ref="619356229"/>
    <nd ref="619356233"/>
    <nd ref="619356230"/>
    <nd ref="619356228"/>
    <nd ref="619356229"/>
    <tag k="fixme" v="sport=football is ambiguous, see http://wiki.osm.org/wiki/Football for more details"/>
    <tag k="leisure" v="pitch"/>
    <tag k="sport" v="football"/>
  </way>
  <way id="48817360" version="3" timestamp="2010-04-04T01:33:27Z" uid="20587" user="balrog-kun" changeset="4318254">
    <nd ref="619357334"/>
    <nd ref="619357170"/>
    <tag k="bridge" v="yes"/>
    <tag k="highway" v="residential"/>
    <tag k="name" v="Sand Creek Road"/>
    <tag k="name_1" v="County Road 129"/>
    <tag k="tiger:cfcc" v="A41"/>
    <tag k="tiger:county" v="Crook, WY"/>
    <tag k="tiger:name_base" v="Sand Creek"/>
    <tag k="tiger:name_base_1" v="County Road 129"/>
    <tag k="tiger:name_type" v="Rd"/>
    <tag k="tiger:reviewed" v="no"/>
    <tag k="tiger:separated" v="no"/>
    <tag k="tiger:source" v="tiger_import_dch_v0.6_20070830"/>
    <tag k="tiger:tlid" v="147179265:147179252:147179260:147179301:147179257:147179148"/>
  </way>
  <way id="48817361" version="4" timestamp="2010-04-04T01:33:28Z" uid="20587" user="balrog-kun" changeset="4318254">
    <nd ref="619357170"/>
    <nd ref="476779486"/>
    <nd ref="476779487"/>
    <tag k="highway" v="residential"/>
    <tag k="name" v="Sand Creek Road"/>
    <tag k="name_1" v="County Road 129"/>
    <tag k="tiger:cfcc" v="A41"/>
    <tag k="tiger:county" v="Crook, WY"/>
    <tag k="tiger:name_base" v="Sand Creek"/>
    <tag k="tiger:name_base_1" v="County Road 129"/>
    <tag k="tiger:name_type" v="Rd"/>
    <tag k="tiger:reviewed" v="no"/>
    <tag k="tiger:separated" v="no"/>
    <tag k="tiger:source" v="tiger_import_dch_v0.6_20070830"/>
    <tag k="tiger:tlid" v="147179265:147179252:147179260:147179301:147179257:147179148"/>
  </way>
  <way id="48817879" version="1" timestamp="2010-01-24T17:51:54Z" uid="43863" user="Rundling" changeset="3703748">
    <nd ref="619362301"/>
    <nd ref="619362302"/>
    <nd ref="619362303"/>
    <nd ref="619362304"/>
    <nd ref="619362305"/>
    <nd ref="619362307"/>
    <nd ref="619362306"/>
    <nd ref="619362300"/>
    <nd ref="619362297"/>
    <nd ref="619362299"/>
    <nd ref="619362298"/>
    <nd ref="619362296"/>
    <nd ref="619362301"/>
    <tag k="barrier" v="fence"/>
  </way>
  <way id="48817955" version="1" timestamp="2010-01-24T17:55:13Z" uid="171838" user="argrath" changeset="3703779">
    <nd ref="619362821"/>
    <nd ref="619362826"/>
    <nd ref="619362832"/>
    <tag k="aerialway" v="gondola"/>
    <tag k="name" v="ゴンドラリフトイブ"/>
  </way>
  <way id="48817956" version="1" timestamp="2010-01-24T17:55:15Z" uid="171838" user="argrath" changeset="3703779">
    <nd ref="619362841"/>
    <nd ref="619362847"/>
    <tag k="aerialway" v="chair_lift"/>
    <tag k="name" v="栂池第1ペアリフト"/>
    <tag k="oneway" v="yes"/>
  </way>
  <way id="48817957" version="1" timestamp="2010-01-24T17:55:17Z" uid="171838" user="argrath" changeset="3703779">
    <nd ref="619362858"/>
    <nd ref="619362862"/>
    <tag k="aerialway" v="chair_lift"/>
    <tag k="name" v="チャンピオンクワッドリフト"/>
    <tag k="oneway" v="yes"/>
  </way>
  <way id="48817960" version="1" timestamp="2010-01-24T17:55:19Z" uid="171838" user="argrath" changeset="3703779">
    <nd ref="619362873"/>
    <nd ref="619362874"/>
    <tag k="aerialway" v="chair_lift"/>
    <tag k="name" v="栂池中央トリプルチェアリフト"/>
    <tag k="oneway" v="yes"/>
  </way>
  <way id="48817961" version="1" timestamp="2010-01-24T17:55:20Z" uid="171838" user="argrath" changeset="3703779">
    <nd ref="619362884"/>
    <nd ref="619362888"/>
    <tag k="aerialway" v="chair_lift"/>
    <tag k="name" v="からまつ高速ペアリフト"/>
    <tag k="oneway" v="yes"/>
  </way>
  <way id="48817962" version="1" timestamp="2010-01-24T17:55:23Z" uid="171838" user="argrath" changeset="3703779">
    <nd ref="619362899"/>
    <nd ref="619362902"/>
    <tag k="aerialway" v="chair_lift"/>
    <tag k="name" v="つが第2ペアリフト"/>
    <tag k="oneway" v="yes"/>
  </way>
  <way id="48817964" version="1" timestamp="2010-01-24T17:55:24Z" uid="171838" user="argrath" changeset="3703779">
    <nd ref="619362908"/>
    <nd ref="619362910"/>
    <tag k="aerialway" v="chair_lift"/>
    <tag k="name" v="ハンの木高速ペアリフト"/>
    <tag k="oneway" v="yes"/>
  </way>
  <way id="48817967" version="1" timestamp="2010-01-24T17:55:26Z" uid="171838" user="argrath" changeset="3703779">
    <nd ref="619362927"/>
    <nd ref="619362941"/>
    <tag k="aerialway" v="chair_lift"/>
    <tag k="name" v="ハンの木第3クワッドリフト"/>
    <tag k="oneway" v="yes"/>
  </way>
  <way id="48817968" version="1" timestamp="2010-01-24T17:55:27Z" uid="171838" user="argrath" changeset="3703779">
    <nd ref="619362965"/>
    <nd ref="619362968"/>
    <tag k="aerialway" v="chair_lift"/>
    <tag k="name" v="鐘の鳴る丘スカイライナーIV"/>
    <tag k="oneway" v="yes"/>
  </way>
  <way id="48817971" version="1" timestamp="2010-01-24T17:55:29Z" uid="171838" user="argrath" changeset="3703779">
    <nd ref="619362996"/>
    <nd ref="619363015"/>
    <tag k="aerialway" v="chair_lift"/>
    <tag k="name" v="丸山第2クワッドリフト"/>
    <tag k="oneway" v="yes"/>
  </way>
  <way id="48817974" version="1" timestamp="2010-01-24T17:55:31Z" uid="171838" user="argrath" changeset="3703779">
    <nd ref="619363040"/>
    <nd ref="619363054"/>
    <tag k="aerialway" v="chair_lift"/>
    <tag k="name" v="丸山第1クワッドリフト"/>
    <tag k="oneway" v="yes"/>
  </way>
  <way id="48817977" version="1" timestamp="2010-01-24T17:55:32Z" uid="171838" user="argrath" changeset="3703779">
    <nd ref="619363078"/>
    <nd ref="619363079"/>
    <tag k="aerialway" v="chair_lift"/>
    <tag k="name" v="ハンの木第1クワッドリフト"/>
    <tag k="oneway" v="yes"/>
  </way>
  <way id="48817979" version="1" timestamp="2010-01-24T17:55:35Z" uid="171838" user="argrath" changeset="3703779">
    <nd ref="619363080"/>
    <nd ref="619363081"/>
    <tag k="aerialway" v="chair_lift"/>
    <tag k="name" v="白樺クワッドリフト"/>
    <tag k="oneway" v="yes"/>
  </way>
  <way id="48817985" version="1" timestamp="2010-01-24T17:55:37Z" uid="171838" user="argrath" changeset="3703779">
    <nd ref="619363085"/>
    <nd ref="619363112"/>
    <tag k="aerialway" v="chair_lift"/>
    <tag k="name" v="鐘の鳴る丘第11ロマンスリフト"/>
    <tag k="oneway" v="yes"/>
  </way>
  <way id="48817987" version="1" timestamp="2010-01-24T17:55:39Z" uid="171838" user="argrath" changeset="3703779">
    <nd ref="619363125"/>
    <nd ref="619363127"/>
    <tag k="aerialway" v="chair_lift"/>
    <tag k="name" v="鐘の鳴る丘第3ロマンスリフト"/>
    <tag k="oneway" v="yes"/>
  </way>
  <way id="48817988" version="1" timestamp="2010-01-24T17:55:41Z" uid="171838" user="argrath" changeset="3703779">
    <nd ref="619363139"/>
    <nd ref="619363143"/>
    <tag k="aerialway" v="chair_lift"/>
    <tag k="name" v="鐘の鳴る丘スカイライナーIII"/>
    <tag k="oneway" v="yes"/>
  </way>
  <way id="48817991" version="1" timestamp="2010-01-24T17:55:43Z" uid="171838" user="argrath" changeset="3703779">
    <nd ref="619363151"/>
    <nd ref="619363159"/>
    <tag k="aerialway" v="chair_lift"/>
    <tag k="name" v="鐘の鳴る丘スカイライナーII"/>
    <tag k="oneway" v="yes"/>
  </way>
  <way id="48817993" version="1" timestamp="2010-01-24T17:55:45Z" uid="171838" user="argrath" changeset="3703779">
    <nd ref="619363163"/>
    <nd ref="619363169"/>
    <tag k="aerialway" v="chair_lift"/>
    <tag k="name" v="鐘の鳴る丘スカイライナーI"/>
    <tag k="oneway" v="yes"/>
  </way>
  <way id="48817995" version="1" timestamp="2010-01-24T17:55:46Z" uid="171838" user="argrath" changeset="3703779">
    <nd ref="619363184"/>
    <nd ref="619363196"/>
    <tag k="aerialway" v="chair_lift"/>
    <tag k="name" v="鐘の鳴る丘ロマンスリフト"/>
    <tag k="oneway" v="yes"/>
  </way>
  <way id="48817191" version="3" timestamp="2012-07-16T19:47:30Z" uid="722137" user="OSMF Redaction Account" changeset="12250631">
    <nd ref="619356229"/>
    <nd ref="619356233"/>
    <nd ref="619356230"/>
    <nd ref="619356228"/>
    <nd ref="619356229"/>
    <tag k="leisure" v="pitch"/>
    <tag k="sport" v="football"/>
  </way>
  <way id="48817360" version="4" timestamp="2012-08-03T14:11:41Z" uid="542403" user="SD Mapman" changeset="12598716">
    <nd ref="619357334"/>
    <nd ref="619357170"/>
    <tag k="bridge" v="yes"/>
    <tag k="highway" v="tertiary"/>
    <tag k="name" v="Sand Creek Road"/>
    <tag k="name_1" v="County Road 129"/>
    <tag k="ref" v="CR 129"/>
    <tag k="tiger:cfcc" v="A41"/>
    <tag k="tiger:county" v="Crook, WY"/>
    <tag k="tiger:name_base" v="Sand Creek"/>
    <tag k="tiger:name_base_1" v="County Road 129"/>
    <tag k="tiger:name_type" v="Rd"/>
    <tag k="tiger:reviewed" v="no"/>
    <tag k="tiger:separated" v="no"/>
    <tag k="tiger:source" v="tiger_import_dch_v0.6_20070830"/>
    <tag k="tiger:tlid" v="147179265:147179252:147179260:147179301:147179257:147179148"/>
  </way>
  <way id="48817361" version="5" timestamp="2012-08-03T14:11:41Z" uid="542403" user="SD Mapman" changeset="12598716">
    <nd ref="619357170"/>
    <nd ref="476779486"/>
    <nd ref="476779487"/>
    <tag k="highway" v="tertiary"/>
    <tag k="name" v="Sand Creek Road"/>
    <tag k="name_1" v="County Road 129"/>
    <tag k="ref" v="CR 129"/>
    <tag k="tiger:cfcc" v="A41"/>
    <tag k="tiger:county" v="Crook, WY"/>
    <tag k="tiger:name_base" v="Sand Creek"/>
    <tag k="tiger:name_base_1" v="County Road 129"/>
    <tag k="tiger:name_type" v="Rd"/>
    <tag k="tiger:reviewed" v="no"/>
    <tag k="tiger:separated" v="no"/>
    <tag k="tiger:source" v="tiger_import_dch_v0.6_20070830"/>
    <tag k="tiger:tlid" v="147179265:147179252:147179260:147179301:147179257:147179148"/>
  </way>
  <way id="48817879" version="2" timestamp="2012-07-18T17:16:09Z" uid="722137" user="OSMF Redaction Account" changeset="12290254"/>
  <way id="48817955" version="2" timestamp="2012-07-21T04:15:00Z" uid="722137" user="OSMF Redaction Account" changeset="12399847"/>
  <way id="48817956" version="2" timestamp="2012-07-21T04:15:02Z" uid="722137" user="OSMF Redaction Account" changeset="12399847"/>
  <way id="48817957" version="2" timestamp="2012-07-21T04:15:01Z" uid="722137" user="OSMF Redaction Account" changeset="12399847"/>
  <way id="48817960" version="2" timestamp="2012-07-21T04:15:01Z" uid="722137" user="OSMF Redaction Account" changeset="12399847"/>
  <way id="48817961" version="2" timestamp="2012-07-21T04:15:01Z" uid="722137" user="OSMF Redaction Account" changeset="12399847"/>
  <way id="48817962" version="2" timestamp="2012-07-21T04:15:02Z" uid="722137" user="OSMF Redaction Account" changeset="12399847"/>
  <way id="48817964" version="2" timestamp="2012-07-21T04:15:02Z" uid="722137" user="OSMF Redaction Account" changeset="12399847"/>
  <way id="48817967" version="2" timestamp="2012-07-21T04:15:01Z" uid="722137" user="OSMF Redaction Account" changeset="12399847"/>
  <way id="48817968" version="2" timestamp="2012-07-21T04:15:01Z" uid="722137" user="OSMF Redaction Account" changeset="12399847"/>
  <way id="48817971" version="2" timestamp="2012-07-21T04:15:01Z" uid="722137" user="OSMF Redaction Account" changeset="12399847"/>
  <way id="48817974" version="2" timestamp="2012-07-21T04:15:01Z" uid="722137" user="OSMF Redaction Account" changeset="12399847"/>
  <way id="48817977" version="2" timestamp="2012-07-21T04:15:01Z" uid="722137" user="OSMF Redaction Account" changeset="12399847"/>
  <way id="48817979" version="2" timestamp="2012-07-21T04:15:01Z" uid="722137" user="OSMF Redaction Account" changeset="12399847"/>
  <way id="48817985" version="2" timestamp="2012-07-21T04:15:15Z" uid="722137" user="OSMF Redaction Account" changeset="12399858"/>
  <way id="48817987" version="2" timestamp="2012-07-21T04:15:15Z" uid="722137" user="OSMF Redaction Account" changeset="12399858"/>
  <way id="48817988" version="2" timestamp="2012-07-21T04:15:15Z" uid="722137" user="OSMF Redaction Account" changeset="12399858"/>
  <way id="48817991" version="2" timestamp="2012-07-21T04:15:01Z" uid="722137" user="OSMF Redaction Account" changeset="12399847"/>
  <way id="48817993" version="2" timestamp="2012-07-21T04:15:01Z" uid="722137" user="OSMF Redaction Account" changeset="12399847"/>
  <way id="48817995" version="2" timestamp="2012-07-21T04:15:01Z" uid="722137" user="OSMF Redaction Account" changeset="12399847"/>
</osm>
