<?xml version='1.0' encoding='UTF-8'?>
<osm version="0.6" generator="libosmium/2.20.0">
  <way id="48815414" version="7" timestamp="2010-12-02T02:58:22Z" uid="23543" user="jkjk" changeset="6510862"/>
  <way id="48815416" version="5" timestamp="2010-12-02T02:58:10Z" uid="23543" user="jkjk" changeset="6510862">
    <nd ref="619320705"/>
    <nd ref="619320618"/>
    <nd ref="619319791"/>
    <nd ref="619319738"/>
    <nd ref="619319741"/>
    <nd ref="619319731"/>
    <tag k="highway" v="secondary"/>
    <tag k="name" v="Avenida Murillo"/>
    <tag k="source" v="NGA"/>
  </way>
  <way id="48815416" version="6" timestamp="2011-02-17T18:39:02Z" uid="154240" user="H_S" changeset="7315933">
    <nd ref="619320705"/>
    <nd ref="1157770937"/>
    <nd ref="624995765"/>
    <nd ref="619320618"/>
    <nd ref="619319791"/>
    <nd ref="619319738"/>
    <nd ref="619319741"/>
    <nd ref="619319731"/>
    <tag k="highway" v="secondary"/>
    <tag k="name" v="Avenida Murillo"/>
    <tag k="source" v="NGA"/>
  </way>
  <way id="48815416" version="7" timestamp="2011-02-20T08:37:23Z" uid="154240" user="H_S" changeset="7339537"/>
  <way id="48815419" version="5" timestamp="2010-12-02T02:58:08Z" uid="23543" user="jkjk" changeset="6510862">
    <nd ref="619320680"/>
    <nd ref="619320684"/>
    <nd ref="619320677"/>
    <nd ref="619320724"/>
    <nd ref="619320715"/>
    <nd ref="619320718"/>
    <nd ref="619320721"/>
    <nd ref="619321193"/>
    <nd ref="619321207"/>
    <nd ref="619329712"/>
    <nd ref="619329736"/>
    <tag k="highway" v="secondary"/>
    <tag k="source" v="NGA"/>
  </way>
  <way id="48815419" version="6" timestamp="2011-02-16T17:48:45Z" uid="154240" user="H_S" changeset="7305906"/>
  <way id="48815425" version="6" timestamp="2010-12-02T02:58:05Z" uid="23543" user="jkjk" changeset="6510862">
    <nd ref="619319731"/>
    <nd ref="619319577"/>
    <nd ref="619319394"/>
    <nd ref="427608636"/>
    <tag k="highway" v="secondary"/>
    <tag k="name" v="Calle 45"/>
    <tag k="oneway" v="yes"/>
    <tag k="source" v="NGA"/>
  </way>
  <way id="48815425" version="7" timestamp="2011-02-20T08:37:23Z" uid="154240" user="H_S" changeset="7339537"/>
  <way id="48815714" version="1" timestamp="2010-01-24T17:10:03Z" uid="33382" user="de_muur" changeset="3703262">
    <nd ref="295968549"/>
    <nd ref="30421477"/>
    <nd ref="300790004"/>
    <nd ref="295968550"/>
    <nd ref="300973680"/>
    <nd ref="295429095"/>
    <tag k="highway" v="secondary"/>
    <tag k="name" v="Hauptstraße"/>
    <tag k="ref" v="L 168"/>
    <tag k="surface" v="paved"/>
  </way>
  <way id="48815714" version="2" timestamp="2010-05-12T22:55:48Z" uid="58095" user="BudBundi" changeset="4681880">
    <nd ref="295968549"/>
    <nd ref="30421477"/>
    <nd ref="731552072"/>
    <nd ref="731552071"/>
    <nd ref="731552070"/>
    <nd ref="300790004"/>
    <nd ref="295968550"/>
    <nd ref="300973680"/>
    <nd ref="295429095"/>
    <tag k="highway" v="secondary"/>
    <tag k="name" v="Hauptstraße"/>
    <tag k="ref" v="L 168"/>
    <tag k="surface" v="paved"/>
  </way>
  <way id="48815714" version="3" timestamp="2010-06-23T08:22:21Z" uid="115883" user="Senior_Spielbergo" changeset="5057116">
    <nd ref="295968549"/>
    <nd ref="30421477"/>
    <nd ref="731552072"/>
    <nd ref="731552071"/>
    <nd ref="731552070"/>
    <nd ref="300790004"/>
    <nd ref="295968550"/>
    <nd ref="300973680"/>
    <nd ref="295429095"/>
    <tag k="cycleway" v="track"/>
    <tag k="highway" v="secondary"/>
    <tag k="name" v="Hauptstraße"/>
    <tag k="ref" v="L 168"/>
    <tag k="surface" v="paved"/>
  </way>
  <way id="48815714" version="4" timestamp="2010-11-03T15:42:49Z" uid="33382" user="de_muur" changeset="6277111">
    <nd ref="295968549"/>
    <nd ref="30421477"/>
    <nd ref="731552072"/>
    <nd ref="731552071"/>
    <nd ref="731552070"/>
    <nd ref="300790004"/>
    <nd ref="295968550"/>
    <nd ref="300973680"/>
    <nd ref="295429095"/>
    <tag k="cycleway" v="track"/>
    <tag k="highway" v="secondary"/>
    <tag k="maxspeed" v="50"/>
    <tag k="name" v="Hauptstraße"/>
    <tag k="ref" v="L 168"/>
    <tag k="surface" v="paved"/>
  </way>
  <way id="48815714" version="5" timestamp="2010-12-14T20:11:22Z" uid="115883" user="Senior_Spielbergo" changeset="6661955">
    <nd ref="295968549"/>
    <nd ref="30421477"/>
    <nd ref="731552072"/>
    <nd ref="731552071"/>
    <nd ref="731552070"/>
    <nd ref="300790004"/>
    <nd ref="295968550"/>
    <nd ref="300973680"/>
    <nd ref="1038565444"/>
    <nd ref="295429095"/>
    <tag k="cycleway" v="track"/>
    <tag k="highway" v="secondary"/>
    <tag k="maxspeed" v="50"/>
    <tag k="name" v="Hauptstraße"/>
    <tag k="ref" v="L 168"/>
    <tag k="surface" v="paved"/>
  </way>
  <way id="48815716" version="1" timestamp="2010-01-24T17:10:04Z" uid="33382" user="de_muur" changeset="3703262">
    <nd ref="295429095"/>
    <nd ref="30421479"/>
    <nd ref="30421480"/>
    <nd ref="21524197"/>
    <tag k="highway" v="secondary"/>
    <tag k="name" v="Hauptstraße"/>
    <tag k="ref" v="L 168"/>
    <tag k="surface" v="paved"/>
  </way>
  <way id="48815716" version="2" timestamp="2010-06-23T08:22:15Z" uid="115883" user="Senior_Spielbergo" changeset="5057116">
    <nd ref="295429095"/>
    <nd ref="30421479"/>
    <nd ref="30421480"/>
    <nd ref="21524197"/>
    <tag k="cycleway" v="track"/>
    <tag k="highway" v="secondary"/>
    <tag k="name" v="Hauptstraße"/>
    <tag k="ref" v="L 168"/>
    <tag k="surface" v="paved"/>
  </way>
  <way id="48815716" version="3" timestamp="2010-11-03T15:42:49Z" uid="33382" user="de_muur" changeset="6277111">
    <nd ref="295429095"/>
    <nd ref="30421479"/>
    <tag k="cycleway" v="track"/>
    <tag k="highway" v="secondary"/>
    <tag k="maxspeed" v="50"/>
    <tag k="name" v="Hauptstraße"/>
    <tag k="ref" v="L 168"/>
    <tag k="surface" v="paved"/>
  </way>
  <way id="48815717" version="1" timestamp="2010-01-24T17:10:04Z" uid="33382" user="de_muur" changeset="3703262">
    <nd ref="257745367"/>
    <nd ref="300608193"/>
    <nd ref="295429081"/>
    <nd ref="295429082"/>
    <nd ref="295968594"/>
    <nd ref="298500150"/>
    <nd ref="295429084"/>
    <nd ref="295429085"/>
    <nd ref="304018727"/>
    <nd ref="295429086"/>
    <nd ref="300789972"/>
    <nd ref="295429087"/>
    <nd ref="300609046"/>
    <nd ref="295429088"/>
    <nd ref="300789198"/>
    <tag k="highway" v="residential"/>
    <tag k="maxspeed" v="30"/>
    <tag k="name" v="Wächterstraße"/>
    <tag k="postal_code" v="28876"/>
    <tag k="surface" v="paved"/>
  </way>
  <way id="48815717" version="2" timestamp="2010-12-15T19:14:07Z" uid="115883" user="Senior_Spielbergo" changeset="6670544">
    <nd ref="257745367"/>
    <nd ref="300608193"/>
    <nd ref="295429081"/>
    <nd ref="295429082"/>
    <nd ref="295968594"/>
    <nd ref="298500150"/>
    <nd ref="295429084"/>
    <nd ref="295429085"/>
    <nd ref="304018727"/>
    <nd ref="295429086"/>
    <nd ref="300789972"/>
    <nd ref="295429087"/>
    <nd ref="300609046"/>
    <nd ref="300789198"/>
    <tag k="highway" v="residential"/>
    <tag k="maxspeed" v="30"/>
    <tag k="name" v="Wächterstraße"/>
    <tag k="postal_code" v="28876"/>
    <tag k="surface" v="paved"/>
  </way>
  <way id="48815717" version="3" timestamp="2010-12-25T17:06:29Z" uid="115883" user="Senior_Spielbergo" changeset="6762347">
    <nd ref="257745367"/>
    <nd ref="300608193"/>
    <nd ref="295429081"/>
    <nd ref="295429082"/>
    <nd ref="295968594"/>
    <nd ref="298500150"/>
    <nd ref="295429084"/>
    <nd ref="295429085"/>
    <nd ref="304018727"/>
    <nd ref="295429086"/>
    <nd ref="300789972"/>
    <nd ref="295429087"/>
    <nd ref="300609046"/>
    <nd ref="1064315614"/>
    <nd ref="300789198"/>
    <tag k="highway" v="residential"/>
    <tag k="maxspeed" v="30"/>
    <tag k="name" v="Wächterstraße"/>
    <tag k="postal_code" v="28876"/>
    <tag k="surface" v="paved"/>
  </way>
  <way id="48815967" version="2" timestamp="2010-11-22T21:26:11Z" uid="9581" user="Lobelt" changeset="6435333">
    <nd ref="26243280"/>
    <nd ref="26243284"/>
    <nd ref="26243292"/>
    <nd ref="1000060835"/>
    <nd ref="26243297"/>
    <nd ref="26243302"/>
    <nd ref="470351888"/>
    <nd ref="26243307"/>
    <nd ref="26243310"/>
    <nd ref="26243314"/>
    <nd ref="26243319"/>
    <nd ref="26243323"/>
    <nd ref="26243328"/>
    <nd ref="26243333"/>
    <nd ref="26243337"/>
    <nd ref="26243339"/>
    <nd ref="26243342"/>
    <nd ref="26243344"/>
    <tag k="highway" v="tertiary"/>
    <tag k="name" v="Am Schloßpark"/>
    <tag k="ref" v="K 11"/>
  </way>
  <way id="48815967" version="3" timestamp="2011-01-29T17:08:29Z" uid="367722" user="dornweg" changeset="7124546">
    <nd ref="26243280"/>
    <nd ref="26243284"/>
    <nd ref="26243292"/>
    <nd ref="1000060835"/>
    <nd ref="26243297"/>
    <nd ref="26243302"/>
    <nd ref="470351888"/>
    <nd ref="26243307"/>
    <nd ref="26243310"/>
    <nd ref="26243314"/>
    <nd ref="26243319"/>
    <nd ref="26243323"/>
    <nd ref="26243328"/>
    <nd ref="1126451075"/>
    <tag k="highway" v="tertiary"/>
    <tag k="maxspeed" v="30"/>
    <tag k="name" v="Am Schloßpark"/>
    <tag k="ref" v="K 11"/>
    <tag k="surface" v="paved"/>
  </way>
  <way id="48815967" version="4" timestamp="2011-01-30T16:11:59Z" uid="367722" user="dornweg" changeset="7135876">
    <nd ref="26243280"/>
    <nd ref="26243284"/>
    <nd ref="26243292"/>
    <nd ref="1000060835"/>
    <nd ref="26243297"/>
    <nd ref="26243302"/>
    <nd ref="470351888"/>
    <nd ref="26243307"/>
    <nd ref="26243310"/>
    <nd ref="26243314"/>
    <nd ref="26243319"/>
    <nd ref="26243323"/>
    <nd ref="26243328"/>
    <nd ref="1126451075"/>
    <nd ref="26243333"/>
    <nd ref="26243337"/>
    <nd ref="26243339"/>
    <nd ref="26243342"/>
    <nd ref="26243344"/>
    <tag k="highway" v="tertiary"/>
    <tag k="maxspeed" v="30"/>
    <tag k="name" v="Am Schloßpark"/>
    <tag k="ref" v="K 11"/>
    <tag k="surface" v="paved"/>
  </way>
  <way id="48815967" version="5" timestamp="2011-03-25T05:50:52Z" uid="367722" user="dornweg" changeset="7662311">
    <nd ref="26243280"/>
    <nd ref="26243284"/>
    <nd ref="26243292"/>
    <nd ref="1000060835"/>
    <nd ref="26243297"/>
    <nd ref="26243302"/>
    <nd ref="470351888"/>
    <nd ref="26243307"/>
    <nd ref="26243310"/>
    <nd ref="26243314"/>
    <nd ref="26243319"/>
    <nd ref="26243323"/>
    <nd ref="26243328"/>
    <nd ref="1126451075"/>
    <nd ref="26243333"/>
    <tag k="highway" v="tertiary"/>
    <tag k="maxspeed" v="30"/>
    <tag k="name" v="Am Schloßpark"/>
    <tag k="ref" v="K 11"/>
    <tag k="surface" v="paved"/>
  </way>
  <way id="48815714" version="6" timestamp="2012-07-19T02:25:26Z" uid="722137" user="OSMF Redaction Account" changeset="12305054">
    <nd ref="731552072"/>
    <nd ref="731552071"/>
    <nd ref="731552070"/>
    <nd ref="1038565444"/>
    <tag k="cycleway" v="track"/>
  </way>
  <way id="48815714" version="7" timestamp="2012-07-19T15:46:46Z" uid="57645" user="KartoGrapHiti" changeset="12336273">
    <nd ref="295968549"/>
    <nd ref="30421477"/>
    <nd ref="731552072"/>
    <nd ref="731552071"/>
    <nd ref="731552070"/>
    <nd ref="1038565444"/>
    <nd ref="295429095"/>
    <tag k="cycleway" v="track"/>
    <tag k="highway" v="secondary"/>
    <tag k="postal_code" v="28876"/>
  </way>
  <way id="48815714" version="8" timestamp="2012-07-20T09:25:30Z" uid="58095" user="BudBundi" changeset="12369842">
    <nd ref="295968549"/>
    <nd ref="30421477"/>
    <nd ref="731552072"/>
    <nd ref="731552071"/>
    <nd ref="731552070"/>
    <nd ref="1038565444"/>
    <nd ref="295429095"/>
    <nd ref="30421479"/>
    <nd ref="1831865997"/>
    <nd ref="30421480"/>
    <nd ref="21524197"/>
    <tag k="cycleway" v="track"/>
    <tag k="highway" v="secondary"/>
    <tag k="postal_code" v="28876"/>
  </way>
  <way id="48815714" version="9" timestamp="2012-07-26T19:28:08Z" uid="42429" user="42429" changeset="12503087">
    <nd ref="295968549"/>
    <nd ref="30421477"/>
    <nd ref="731552072"/>
    <nd ref="731552071"/>
    <nd ref="731552070"/>
    <nd ref="295968550"/>
    <nd ref="1038565444"/>
    <nd ref="295429095"/>
    <nd ref="30421479"/>
    <nd ref="1831865997"/>
    <nd ref="30421480"/>
    <nd ref="21524197"/>
    <tag k="cycleway" v="track"/>
    <tag k="highway" v="secondary"/>
    <tag k="postal_code" v="28876"/>
  </way>
  <way id="48815714" version="10" timestamp="2012-07-29T07:54:18Z" uid="57645" user="KartoGrapHiti" changeset="12531287">
    <nd ref="295968549"/>
    <nd ref="30421477"/>
    <nd ref="731552072"/>
    <nd ref="731552071"/>
    <nd ref="731552070"/>
    <nd ref="295968550"/>
    <nd ref="1038565444"/>
    <nd ref="295429095"/>
    <nd ref="30421479"/>
    <nd ref="1831865997"/>
    <nd ref="30421480"/>
    <nd ref="21524197"/>
    <tag k="cycleway" v="track"/>
    <tag k="highway" v="secondary"/>
    <tag k="lcn" v="yes"/>
    <tag k="postal_code" v="28876"/>
  </way>
  <way id="48815714" version="11" timestamp="2012-08-06T22:33:18Z" uid="58095" user="BudBundi" changeset="12639819">
    <nd ref="295968549"/>
    <nd ref="30421477"/>
    <nd ref="731552072"/>
    <nd ref="731552071"/>
    <nd ref="731552070"/>
    <nd ref="295968550"/>
    <nd ref="300973680"/>
    <nd ref="1038565444"/>
    <nd ref="295429095"/>
    <nd ref="30421479"/>
    <nd ref="1831865997"/>
    <nd ref="30421480"/>
    <nd ref="21524197"/>
    <tag k="cycleway" v="track"/>
    <tag k="highway" v="secondary"/>
    <tag k="lcn" v="yes"/>
    <tag k="postal_code" v="28876"/>
  </way>
  <way id="48815714" version="12" timestamp="2012-08-06T22:35:53Z" uid="58095" user="BudBundi" changeset="12639842">
    <nd ref="295968549"/>
    <nd ref="30421477"/>
    <nd ref="731552072"/>
    <nd ref="731552071"/>
    <nd ref="731552070"/>
    <nd ref="295968550"/>
    <nd ref="300973680"/>
    <nd ref="1038565444"/>
    <nd ref="295429095"/>
    <nd ref="30421479"/>
    <nd ref="1831865997"/>
    <nd ref="1855054684"/>
    <nd ref="30421480"/>
    <nd ref="21524197"/>
    <tag k="cycleway" v="track"/>
    <tag k="highway" v="secondary"/>
    <tag k="lcn" v="yes"/>
    <tag k="postal_code" v="28876"/>
  </way>
  <way id="48815714" version="13" timestamp="2012-08-06T22:38:54Z" uid="58095" user="BudBundi" changeset="12639864">
    <nd ref="295968549"/>
    <nd ref="30421477"/>
    <nd ref="731552072"/>
    <nd ref="731552071"/>
    <nd ref="731552070"/>
    <nd ref="1855056563"/>
    <nd ref="295968550"/>
    <nd ref="300973680"/>
    <nd ref="1038565444"/>
    <nd ref="295429095"/>
    <nd ref="30421479"/>
    <nd ref="1831865997"/>
    <nd ref="1855054684"/>
    <nd ref="30421480"/>
    <nd ref="21524197"/>
    <tag k="cycleway" v="track"/>
    <tag k="highway" v="secondary"/>
    <tag k="lcn" v="yes"/>
    <tag k="postal_code" v="28876"/>
  </way>
  <way id="48815714" version="14" timestamp="2012-08-12T21:19:15Z" uid="45882" user="smarties" changeset="12707252">
    <nd ref="295968549"/>
    <nd ref="30421477"/>
    <nd ref="731552072"/>
    <nd ref="731552071"/>
    <nd ref="731552070"/>
    <nd ref="1855056563"/>
    <nd ref="295968550"/>
    <nd ref="300973680"/>
    <nd ref="1038565444"/>
    <nd ref="295429095"/>
    <nd ref="30421479"/>
    <nd ref="1831865997"/>
    <nd ref="1855054684"/>
    <nd ref="30421480"/>
    <nd ref="21524197"/>
    <tag k="cycleway" v="track"/>
    <tag k="highway" v="secondary"/>
    <tag k="lcn" v="yes"/>
    <tag k="postal_code" v="28876"/>
    <tag k="ref" v="L 168"/>
  </way>
  <way id="48815716" version="4" timestamp="2012-07-19T02:28:08Z" uid="722137" user="OSMF Redaction Account" changeset="12305133"/>
  <way id="48815717" version="4" timestamp="2012-07-19T02:28:01Z" uid="722137" user="OSMF Redaction Account" changeset="12305133"/>
  <way id="48815967" version="6" timestamp="2012-04-21T15:49:50Z" uid="328555" user="peb12345" changeset="11375095">
    <nd ref="26243280"/>
    <nd ref="26243284"/>
    <nd ref="26243292"/>
    <nd ref="1725511486"/>
    <nd ref="26243297"/>
    <nd ref="26243302"/>
    <nd ref="470351888"/>
    <nd ref="26243307"/>
    <nd ref="26243310"/>
    <nd ref="26243314"/>
    <nd ref="26243319"/>
    <nd ref="26243323"/>
    <nd ref="1725511584"/>
    <nd ref="1126451075"/>
    <nd ref="1725511615"/>
    <tag k="highway" v="tertiary"/>
    <tag k="maxspeed" v="30"/>
    <tag k="name" v="Am Schloßpark"/>
    <tag k="ref" v="K 11"/>
    <tag k="surface" v="paved"/>
  </way>
  <way id="48815967" version="7" timestamp="2012-08-29T02:59:45Z" uid="680576" user="mushroommapper" changeset="12900088">
    <nd ref="26243280"/>
    <nd ref="26243284"/>
    <nd ref="26243292"/>
    <nd ref="1725511486"/>
    <nd ref="26243297"/>
    <nd ref="26243302"/>
    <nd ref="470351888"/>
    <nd ref="26243307"/>
    <nd ref="26243310"/>
    <nd ref="26243314"/>
    <nd ref="26243319"/>
    <nd ref="26243323"/>
    <nd ref="1725511584"/>
    <nd ref="1126451075"/>
    <nd ref="1725511615"/>
    <tag k="highway" v="tertiary"/>
    <tag k="lit" v="yes"/>
    <tag k="maxspeed" v="30"/>
    <tag k="name" v="Am Schloßpark"/>
    <tag k="ref" v="K 11"/>
    <tag k="surface" v="paved"/>
  </way>
</osm>
