<?xml version='1.0' encoding='UTF-8'?>
<osm version="0.6" generator="libosmium/2.20.0">
  <way id="49114454" version="2" timestamp="2010-04-06T14:49:07Z" uid="20587" user="balrog-kun" changeset="4342997">
    <nd ref="498386413"/>
    <nd ref="120526271"/>
    <nd ref="120520050"/>
    <nd ref="498386427"/>
    <nd ref="120526275"/>
    <nd ref="120526276"/>
    <tag k="highway" v="secondary"/>
    <tag k="name" v="South Kansas Avenue"/>
    <tag k="ref" v="15"/>
    <tag k="tiger:cfcc" v="A41"/>
    <tag k="tiger:county" v="Harvey, KS"/>
    <tag k="tiger:name_base" v="Kansas"/>
    <tag k="tiger:name_direction_prefix" v="S"/>
    <tag k="tiger:name_type" v="Ave"/>
    <tag k="tiger:reviewed" v="no"/>
    <tag k="tiger:separated" v="no"/>
    <tag k="tiger:source" v="tiger_import_dch_v0.6_20070812"/>
    <tag k="tiger:tlid" v="120641787:120641755"/>
    <tag k="tiger:zip_left" v="67114"/>
    <tag k="tiger:zip_right" v="67114"/>
  </way>
  <way id="49114454" version="3" timestamp="2010-07-31T18:04:49Z" uid="262151" user="ToeBee" changeset="5364601">
    <nd ref="498386413"/>
    <nd ref="120526271"/>
    <nd ref="120520050"/>
    <nd ref="498386427"/>
    <nd ref="120526275"/>
    <nd ref="120526276"/>
    <tag k="highway" v="secondary"/>
    <tag k="name" v="South Kansas Avenue"/>
    <tag k="ref" v="KS 15"/>
    <tag k="tiger:cfcc" v="A41"/>
    <tag k="tiger:county" v="Harvey, KS"/>
    <tag k="tiger:name_base" v="Kansas"/>
    <tag k="tiger:name_direction_prefix" v="S"/>
    <tag k="tiger:name_type" v="Ave"/>
    <tag k="tiger:reviewed" v="no"/>
    <tag k="tiger:separated" v="no"/>
    <tag k="tiger:source" v="tiger_import_dch_v0.6_20070812"/>
    <tag k="tiger:tlid" v="120641787:120641755"/>
    <tag k="tiger:zip_left" v="67114"/>
    <tag k="tiger:zip_right" v="67114"/>
  </way>
  <way id="49114454" version="4" timestamp="2010-07-31T18:14:55Z" uid="262151" user="ToeBee" changeset="5364601">
    <nd ref="498386413"/>
    <nd ref="120526271"/>
    <nd ref="120520050"/>
    <nd ref="498386427"/>
    <nd ref="120526275"/>
    <nd ref="120526276"/>
    <tag k="highway" v="secondary"/>
    <tag k="name" v="South Kansas Avenue"/>
    <tag k="ref" v="KS 15"/>
    <tag k="tiger:cfcc" v="A41"/>
    <tag k="tiger:county" v="Harvey, KS"/>
    <tag k="tiger:name_base" v="Kansas"/>
    <tag k="tiger:name_direction_prefix" v="S"/>
    <tag k="tiger:name_type" v="Ave"/>
    <tag k="tiger:reviewed" v="no"/>
    <tag k="tiger:separated" v="no"/>
    <tag k="tiger:source" v="tiger_import_dch_v0.6_20070812"/>
    <tag k="tiger:tlid" v="120641787:120641755"/>
    <tag k="tiger:zip_left" v="67114"/>
    <tag k="tiger:zip_right" v="67114"/>
  </way>
  <way id="49114454" version="5" timestamp="2011-10-19T15:14:20Z" uid="207745" user="NE2" changeset="9600671">
    <nd ref="120526276"/>
    <nd ref="120526275"/>
    <nd ref="498386427"/>
    <nd ref="120520050"/>
    <tag k="highway" v="primary"/>
    <tag k="name" v="South Kansas Avenue"/>
    <tag k="ref" v="KS 15"/>
    <tag k="tiger:cfcc" v="A41"/>
    <tag k="tiger:county" v="Harvey, KS"/>
    <tag k="tiger:name_base" v="Kansas"/>
    <tag k="tiger:name_direction_prefix" v="S"/>
    <tag k="tiger:name_type" v="Ave"/>
    <tag k="tiger:reviewed" v="no"/>
    <tag k="tiger:separated" v="no"/>
    <tag k="tiger:source" v="tiger_import_dch_v0.6_20070812"/>
    <tag k="tiger:tlid" v="120641787:120641755"/>
    <tag k="tiger:zip_left" v="67114"/>
    <tag k="tiger:zip_right" v="67114"/>
  </way>
  <way id="49114454" version="6" timestamp="2011-10-20T05:27:34Z" uid="262151" user="ToeBee" changeset="9605356">
    <nd ref="498386413"/>
    <nd ref="120526271"/>
    <nd ref="120520050"/>
    <nd ref="498386427"/>
    <nd ref="120526275"/>
    <nd ref="120526276"/>
    <tag k="highway" v="secondary"/>
    <tag k="name" v="South Kansas Avenue"/>
    <tag k="ref" v="KS 15"/>
    <tag k="tiger:cfcc" v="A41"/>
    <tag k="tiger:county" v="Harvey, KS"/>
    <tag k="tiger:name_base" v="Kansas"/>
    <tag k="tiger:name_direction_prefix" v="S"/>
    <tag k="tiger:name_type" v="Ave"/>
    <tag k="tiger:reviewed" v="no"/>
    <tag k="tiger:separated" v="no"/>
    <tag k="tiger:source" v="tiger_import_dch_v0.6_20070812"/>
    <tag k="tiger:tlid" v="120641787:120641755"/>
    <tag k="tiger:zip_left" v="67114"/>
    <tag k="tiger:zip_right" v="67114"/>
  </way>
  <way id="49114454" version="7" timestamp="2012-07-30T08:43:22Z" uid="207745" user="NE2" changeset="12544842">
    <nd ref="498386413"/>
    <nd ref="120526271"/>
    <nd ref="120520050"/>
    <nd ref="498386427"/>
    <nd ref="120526275"/>
    <nd ref="120526276"/>
    <tag k="highway" v="primary"/>
    <tag k="name" v="South Kansas Avenue"/>
    <tag k="ref" v="KS 15"/>
    <tag k="tiger:cfcc" v="A41"/>
    <tag k="tiger:county" v="Harvey, KS"/>
    <tag k="tiger:name_base" v="Kansas"/>
    <tag k="tiger:name_direction_prefix" v="S"/>
    <tag k="tiger:name_type" v="Ave"/>
    <tag k="tiger:reviewed" v="no"/>
    <tag k="tiger:separated" v="no"/>
    <tag k="tiger:source" v="tiger_import_dch_v0.6_20070812"/>
    <tag k="tiger:tlid" v="120641787:120641755"/>
    <tag k="tiger:zip_left" v="67114"/>
    <tag k="tiger:zip_right" v="67114"/>
  </way>
</osm>
