<?xml version='1.0' encoding='UTF-8'?>
<osm version="0.6" generator="libosmium/2.20.0">
  <way id="49741963" version="5" timestamp="2010-04-28T03:24:46Z" uid="4467" user="Rosscoe" changeset="4546295">
    <nd ref="268703617"/>
    <nd ref="260541556"/>
    <nd ref="260541557"/>
    <nd ref="260541558"/>
    <nd ref="260541559"/>
    <nd ref="260541560"/>
    <nd ref="709713337"/>
    <tag k="highway" v="residential"/>
    <tag k="name" v="Doveton Avenue"/>
  </way>
  <way id="49741963" version="6" timestamp="2010-07-08T18:43:54Z" uid="74617" user="JohnSmith" changeset="5167338">
    <nd ref="268703617"/>
    <nd ref="260541556"/>
    <nd ref="260541557"/>
    <nd ref="260541558"/>
    <nd ref="260541559"/>
    <nd ref="260541560"/>
    <nd ref="709713337"/>
    <tag k="highway" v="residential"/>
    <tag k="maxspeed" v="50"/>
    <tag k="maxspeed:source" v="default residential speed limit in Australia"/>
    <tag k="name" v="Doveton Avenue"/>
  </way>
  <way id="49741963" version="7" timestamp="2012-01-20T00:38:21Z" uid="147510" user="woodpeck_fixbot" changeset="10442006">
    <nd ref="268703617"/>
    <nd ref="260541556"/>
    <nd ref="260541557"/>
    <nd ref="260541558"/>
    <nd ref="260541559"/>
    <nd ref="260541560"/>
    <nd ref="709713337"/>
    <tag k="highway" v="residential"/>
    <tag k="name" v="Doveton Avenue"/>
  </way>
  <way id="49741964" version="2" timestamp="2010-07-08T18:26:11Z" uid="74617" user="JohnSmith" changeset="5167338">
    <nd ref="260541555"/>
    <nd ref="268703617"/>
    <tag k="highway" v="residential"/>
    <tag k="maxspeed" v="50"/>
    <tag k="maxspeed:source" v="default residential speed limit in Australia"/>
    <tag k="name" v="Doveton Avenue"/>
  </way>
  <way id="49741964" version="3" timestamp="2012-01-20T00:38:22Z" uid="147510" user="woodpeck_fixbot" changeset="10442006">
    <nd ref="260541555"/>
    <nd ref="268703617"/>
    <tag k="highway" v="residential"/>
    <tag k="name" v="Doveton Avenue"/>
  </way>
  <way id="49741967" version="2" timestamp="2010-07-25T07:07:05Z" uid="4467" user="Rosscoe" changeset="5309221">
    <nd ref="632181377"/>
    <nd ref="380265922"/>
    <tag k="bridge" v="yes"/>
    <tag k="highway" v="tertiary"/>
    <tag k="layer" v="1"/>
    <tag k="name" v="Frawley Road"/>
  </way>
  <way id="49741968" version="2" timestamp="2010-04-28T03:25:02Z" uid="4467" user="Rosscoe" changeset="4546295">
    <nd ref="380265922"/>
    <nd ref="29902001"/>
    <nd ref="260542412"/>
    <nd ref="709713226"/>
    <tag k="highway" v="tertiary"/>
    <tag k="name" v="Frawley Road"/>
  </way>
  <way id="49741970" version="2" timestamp="2010-07-08T18:17:00Z" uid="74617" user="JohnSmith" changeset="5167338">
    <nd ref="255359341"/>
    <nd ref="255359342"/>
    <nd ref="255359343"/>
    <nd ref="255359344"/>
    <nd ref="255359345"/>
    <nd ref="255359346"/>
    <nd ref="255359347"/>
    <nd ref="234191717"/>
    <tag k="highway" v="residential"/>
    <tag k="maxspeed" v="50"/>
    <tag k="maxspeed:source" v="default residential speed limit in Australia"/>
    <tag k="name" v="Wattle Drive"/>
  </way>
  <way id="49741970" version="3" timestamp="2012-01-20T00:38:24Z" uid="147510" user="woodpeck_fixbot" changeset="10442006">
    <nd ref="255359341"/>
    <nd ref="255359342"/>
    <nd ref="255359343"/>
    <nd ref="255359344"/>
    <nd ref="255359345"/>
    <nd ref="255359346"/>
    <nd ref="255359347"/>
    <nd ref="234191717"/>
    <tag k="highway" v="residential"/>
    <tag k="name" v="Wattle Drive"/>
  </way>
  <way id="49741971" version="2" timestamp="2010-04-26T05:43:42Z" uid="4467" user="Rosscoe" changeset="4528463">
    <nd ref="255359350"/>
    <nd ref="255358904"/>
    <nd ref="255359358"/>
    <nd ref="706931013"/>
    <tag k="highway" v="tertiary"/>
    <tag k="name" v="Box Street"/>
  </way>
  <way id="49741980" version="3" timestamp="2010-03-22T07:36:21Z" uid="20587" user="balrog-kun" changeset="4199043">
    <nd ref="38833627"/>
    <nd ref="632181598"/>
    <nd ref="632181597"/>
    <nd ref="632181596"/>
    <nd ref="632181595"/>
    <nd ref="632181594"/>
    <nd ref="632181593"/>
    <nd ref="632181592"/>
    <nd ref="632181591"/>
    <nd ref="632181590"/>
    <nd ref="632181589"/>
    <nd ref="632181588"/>
    <nd ref="632181584"/>
    <nd ref="632181587"/>
    <nd ref="632181586"/>
    <tag k="highway" v="secondary"/>
    <tag k="name" v="North State Highway"/>
    <tag k="name 1" v="N Hwy 99W"/>
    <tag k="oneway" v="yes"/>
  </way>
  <way id="49741980" version="4" timestamp="2010-08-20T08:30:02Z" uid="92286" user="Paul Johnson" changeset="5541807">
    <nd ref="38833627"/>
    <nd ref="632181598"/>
    <nd ref="632181597"/>
    <nd ref="632181596"/>
    <nd ref="632181595"/>
    <nd ref="632181594"/>
    <nd ref="632181593"/>
    <nd ref="632181592"/>
    <nd ref="632181591"/>
    <nd ref="632181590"/>
    <nd ref="632181589"/>
    <nd ref="632181588"/>
    <nd ref="632181584"/>
    <nd ref="632181587"/>
    <nd ref="632181586"/>
    <tag k="highway" v="secondary"/>
    <tag k="name" v="North Pacific Highway West"/>
    <tag k="name_1" v="N Hwy 99W"/>
    <tag k="oneway" v="yes"/>
  </way>
  <way id="49741980" version="5" timestamp="2010-09-29T16:48:25Z" uid="92286" user="Paul Johnson" changeset="5913269">
    <nd ref="38833627"/>
    <nd ref="632181598"/>
    <nd ref="632181597"/>
    <nd ref="632181596"/>
    <nd ref="632181595"/>
    <nd ref="632181594"/>
    <nd ref="632181593"/>
    <nd ref="632181592"/>
    <nd ref="632181591"/>
    <nd ref="632181590"/>
    <nd ref="632181589"/>
    <nd ref="632181588"/>
    <nd ref="632181584"/>
    <nd ref="632181586"/>
    <tag k="bicycle" v="avoid"/>
    <tag k="highway" v="primary"/>
    <tag k="name" v="North Pacific Highway West"/>
    <tag k="name_1" v="N Hwy 99W"/>
    <tag k="oneway" v="yes"/>
  </way>
  <way id="49741980" version="6" timestamp="2010-10-05T07:47:20Z" uid="207745" user="NE2" changeset="5959226">
    <nd ref="38833627"/>
    <nd ref="632181598"/>
    <nd ref="632181597"/>
    <nd ref="632181596"/>
    <nd ref="632181595"/>
    <nd ref="632181594"/>
    <nd ref="632181593"/>
    <nd ref="632181592"/>
    <nd ref="632181591"/>
    <nd ref="632181590"/>
    <nd ref="632181589"/>
    <nd ref="632181588"/>
    <nd ref="632181584"/>
    <nd ref="632181586"/>
    <tag k="highway" v="primary"/>
    <tag k="name" v="North Pacific Highway West"/>
    <tag k="name_1" v="N Hwy 99W"/>
    <tag k="oneway" v="yes"/>
  </way>
  <way id="49741980" version="7" timestamp="2010-10-09T18:30:00Z" uid="92286" user="Paul Johnson" changeset="5995837">
    <nd ref="38833627"/>
    <nd ref="632181598"/>
    <nd ref="632181597"/>
    <nd ref="632181596"/>
    <nd ref="632181595"/>
    <nd ref="632181594"/>
    <nd ref="632181593"/>
    <nd ref="632181592"/>
    <nd ref="632181591"/>
    <nd ref="632181590"/>
    <nd ref="632181589"/>
    <nd ref="632181588"/>
    <nd ref="632181584"/>
    <nd ref="632181586"/>
    <tag k="bicycle" v="avoid"/>
    <tag k="highway" v="primary"/>
    <tag k="name" v="North Pacific Highway West"/>
    <tag k="name_1" v="N Hwy 99W"/>
    <tag k="oneway" v="yes"/>
  </way>
  <way id="49741980" version="8" timestamp="2010-10-09T22:09:56Z" uid="207745" user="NE2" changeset="5997766">
    <nd ref="38833627"/>
    <nd ref="632181598"/>
    <nd ref="632181597"/>
    <nd ref="632181596"/>
    <nd ref="632181595"/>
    <nd ref="632181594"/>
    <nd ref="632181593"/>
    <nd ref="632181592"/>
    <nd ref="632181591"/>
    <nd ref="632181590"/>
    <nd ref="632181589"/>
    <nd ref="632181588"/>
    <nd ref="632181584"/>
    <nd ref="632181586"/>
    <tag k="highway" v="primary"/>
    <tag k="name" v="North Pacific Highway West"/>
    <tag k="name_1" v="N Hwy 99W"/>
    <tag k="oneway" v="yes"/>
  </way>
  <way id="49741980" version="9" timestamp="2010-10-16T19:43:11Z" uid="92286" user="Paul Johnson" changeset="6060804">
    <nd ref="38833627"/>
    <nd ref="632181598"/>
    <nd ref="632181597"/>
    <nd ref="632181596"/>
    <nd ref="632181595"/>
    <nd ref="632181594"/>
    <nd ref="632181593"/>
    <nd ref="632181592"/>
    <nd ref="632181591"/>
    <nd ref="632181590"/>
    <nd ref="632181589"/>
    <nd ref="632181588"/>
    <nd ref="632181584"/>
    <nd ref="632181586"/>
    <tag k="bicycle" v="avoid"/>
    <tag k="highway" v="primary"/>
    <tag k="name" v="North Pacific Highway West"/>
    <tag k="name_1" v="N Hwy 99W"/>
    <tag k="oneway" v="yes"/>
  </way>
  <way id="49741980" version="10" timestamp="2010-12-18T03:03:23Z" uid="373763" user="ylekot" changeset="6692713">
    <nd ref="38833627"/>
    <nd ref="632181598"/>
    <nd ref="632181597"/>
    <nd ref="632181596"/>
    <nd ref="632181595"/>
    <nd ref="632181594"/>
    <nd ref="632181593"/>
    <nd ref="632181592"/>
    <nd ref="632181591"/>
    <nd ref="632181590"/>
    <nd ref="632181589"/>
    <nd ref="632181588"/>
    <nd ref="632181584"/>
    <nd ref="632181586"/>
    <tag k="bicycle" v="avoid"/>
    <tag k="highway" v="trunk"/>
    <tag k="name" v="North Pacific Highway West"/>
    <tag k="name_1" v="N Hwy 99W"/>
    <tag k="oneway" v="yes"/>
    <tag k="ref" v="OR 99W"/>
  </way>
  <way id="49741980" version="11" timestamp="2011-06-23T02:02:50Z" uid="473471" user="NE3" changeset="8520254">
    <nd ref="38833627"/>
    <nd ref="632181598"/>
    <nd ref="1335171831"/>
    <tag k="bicycle" v="avoid"/>
    <tag k="highway" v="trunk"/>
    <tag k="lanes" v="1"/>
    <tag k="name" v="North Pacific Highway West"/>
    <tag k="name_1" v="N Hwy 99W"/>
    <tag k="oneway" v="yes"/>
    <tag k="ref" v="OR 99W"/>
  </way>
  <way id="49741980" version="12" timestamp="2011-07-19T21:36:18Z" uid="473471" user="NE3" changeset="8773162">
    <nd ref="38833627"/>
    <nd ref="632181598"/>
    <nd ref="1335171831"/>
    <tag k="NHS" v="yes"/>
    <tag k="bicycle" v="avoid"/>
    <tag k="highway" v="trunk"/>
    <tag k="lanes" v="1"/>
    <tag k="name" v="North Pacific Highway West"/>
    <tag k="name_1" v="N Hwy 99W"/>
    <tag k="oneway" v="yes"/>
    <tag k="ref" v="OR 99W"/>
  </way>
  <way id="49741980" version="13" timestamp="2011-11-25T16:58:21Z" uid="207745" user="NE2" changeset="9945867">
    <nd ref="38833627"/>
    <nd ref="632181598"/>
    <nd ref="1335171831"/>
    <tag k="NHS" v="yes"/>
    <tag k="bicycle" v="avoid"/>
    <tag k="hgv" v="designated"/>
    <tag k="hgv:national_network" v="yes"/>
    <tag k="highway" v="trunk"/>
    <tag k="lanes" v="1"/>
    <tag k="name" v="North Pacific Highway West"/>
    <tag k="name_1" v="N Hwy 99W"/>
    <tag k="oneway" v="yes"/>
    <tag k="ref" v="OR 99W"/>
    <tag k="source:hgv:national_network" v="Title 23: Highways Part 658 http://ecfr.gpoaccess.gov/cgi/t/text/text-idx?c=ecfr&amp;rgn=div5&amp;view=text&amp;node=23:1.0.1.7.33&amp;idno=23"/>
  </way>
  <way id="49741963" version="8" timestamp="2012-07-19T20:11:44Z" uid="722137" user="OSMF Redaction Account" changeset="12345809">
    <nd ref="268703617"/>
    <nd ref="260541559"/>
    <tag k="highway" v="residential"/>
    <tag k="name" v="Doveton Avenue"/>
  </way>
  <way id="49741963" version="9" timestamp="2012-08-02T02:17:21Z" uid="46482" user="Leon K" changeset="12580770">
    <nd ref="268703617"/>
    <nd ref="260541559"/>
    <nd ref="1847692143"/>
    <nd ref="1847692145"/>
    <nd ref="1847692135"/>
    <nd ref="1847692138"/>
    <nd ref="1024745006"/>
    <nd ref="1096184498"/>
    <nd ref="636965150"/>
    <nd ref="260541571"/>
    <tag k="highway" v="residential"/>
    <tag k="name" v="Doveton Avenue"/>
  </way>
  <way id="49741967" version="3" timestamp="2012-07-19T23:12:59Z" uid="722137" user="OSMF Redaction Account" changeset="12351348">
    <nd ref="632181377"/>
    <nd ref="380265922"/>
    <tag k="bridge" v="yes"/>
    <tag k="highway" v="tertiary"/>
    <tag k="name" v="Frawley Road"/>
  </way>
  <way id="49741968" version="3" timestamp="2012-07-19T20:11:46Z" uid="722137" user="OSMF Redaction Account" changeset="12345809">
    <nd ref="380265922"/>
    <nd ref="29902001"/>
    <nd ref="260542412"/>
    <tag k="highway" v="tertiary"/>
    <tag k="name" v="Frawley Road"/>
  </way>
  <way id="49741968" version="4" timestamp="2012-07-19T23:12:53Z" uid="722137" user="OSMF Redaction Account" changeset="12351348">
    <nd ref="380265922"/>
    <nd ref="29902001"/>
    <tag k="highway" v="tertiary"/>
    <tag k="name" v="Frawley Road"/>
  </way>
  <way id="49741968" version="5" timestamp="2012-08-02T02:17:21Z" uid="46482" user="Leon K" changeset="12580770">
    <nd ref="380265922"/>
    <nd ref="29902001"/>
    <nd ref="1847692143"/>
    <nd ref="29902002"/>
    <tag k="highway" v="tertiary"/>
    <tag k="name" v="Frawley Road"/>
  </way>
  <way id="49741970" version="4" timestamp="2012-07-19T23:12:55Z" uid="722137" user="OSMF Redaction Account" changeset="12351348">
    <nd ref="255359341"/>
    <nd ref="255359342"/>
    <nd ref="255359343"/>
    <nd ref="255359344"/>
    <nd ref="255359345"/>
    <nd ref="255359346"/>
    <nd ref="234191717"/>
    <tag k="highway" v="residential"/>
    <tag k="name" v="Wattle Drive"/>
  </way>
  <way id="49741971" version="3" timestamp="2012-07-19T23:15:32Z" uid="722137" user="OSMF Redaction Account" changeset="12351421"/>
  <way id="49741980" version="14" timestamp="2012-05-14T22:21:13Z" uid="362111" user="Mele Sax-Barnett" changeset="11600660">
    <nd ref="38833627"/>
    <nd ref="1753201675"/>
    <nd ref="1753201672"/>
    <nd ref="632181598"/>
    <nd ref="1335171831"/>
    <tag k="bicycle" v="avoid"/>
    <tag k="hgv" v="designated"/>
    <tag k="hgv:national_network" v="yes"/>
    <tag k="highway" v="primary"/>
    <tag k="lanes" v="1"/>
    <tag k="name" v="North Pacific Highway West"/>
    <tag k="name_1" v="N Hwy 99W"/>
    <tag k="NHS" v="yes"/>
    <tag k="oneway" v="yes"/>
    <tag k="ref" v="OR 99W"/>
    <tag k="source:hgv:national_network" v="Title 23: Highways Part 658 http://ecfr.gpoaccess.gov/cgi/t/text/text-idx?c=ecfr&amp;rgn=div5&amp;view=text&amp;node=23:1.0.1.7.33&amp;idno=23"/>
  </way>
  <way id="49741980" version="15" timestamp="2012-06-29T19:35:51Z" uid="362111" user="Mele Sax-Barnett" changeset="12059896">
    <nd ref="38833627"/>
    <nd ref="1753201675"/>
    <nd ref="1753201672"/>
    <nd ref="632181598"/>
    <nd ref="1335171831"/>
    <tag k="hgv" v="designated"/>
    <tag k="hgv:national_network" v="yes"/>
    <tag k="highway" v="primary"/>
    <tag k="lanes" v="1"/>
    <tag k="name" v="Pacific Highway West"/>
    <tag k="name_1" v="North Pacific Highway West"/>
    <tag k="NHS" v="yes"/>
    <tag k="oneway" v="yes"/>
    <tag k="ref" v="OR 99W"/>
    <tag k="source:hgv:national_network" v="Title 23: Highways Part 658 http://ecfr.gpoaccess.gov/cgi/t/text/text-idx?c=ecfr&amp;rgn=div5&amp;view=text&amp;node=23:1.0.1.7.33&amp;idno=23"/>
  </way>
  <way id="49741980" version="16" timestamp="2012-07-18T21:34:08Z" uid="722137" user="OSMF Redaction Account" changeset="12299312">
    <nd ref="1753201675"/>
    <nd ref="1753201672"/>
    <nd ref="1335171831"/>
    <tag k="hgv" v="designated"/>
    <tag k="hgv:national_network" v="yes"/>
    <tag k="lanes" v="1"/>
    <tag k="name" v="Pacific Highway West"/>
    <tag k="name_1" v="North Pacific Highway West"/>
    <tag k="NHS" v="yes"/>
    <tag k="oneway" v="yes"/>
    <tag k="ref" v="OR 99W"/>
    <tag k="source:hgv:national_network" v="Title 23: Highways Part 658 http://ecfr.gpoaccess.gov/cgi/t/text/text-idx?c=ecfr&amp;rgn=div5&amp;view=text&amp;node=23:1.0.1.7.33&amp;idno=23"/>
  </way>
  <way id="49741980" version="17" timestamp="2012-07-18T23:20:32Z" uid="362111" user="Mele Sax-Barnett" changeset="12301489">
    <nd ref="38833627"/>
    <nd ref="1753201675"/>
    <nd ref="1753201672"/>
    <nd ref="632181598"/>
    <nd ref="1335171831"/>
    <tag k="hgv" v="designated"/>
    <tag k="hgv:national_network" v="yes"/>
    <tag k="highway" v="primary"/>
    <tag k="lanes" v="1"/>
    <tag k="name" v="Pacific Highway West"/>
    <tag k="name_1" v="North Pacific Highway West"/>
    <tag k="NHS" v="yes"/>
    <tag k="oneway" v="yes"/>
    <tag k="ref" v="OR 99W"/>
    <tag k="source:hgv:national_network" v="Title 23: Highways Part 658 http://ecfr.gpoaccess.gov/cgi/t/text/text-idx?c=ecfr&amp;rgn=div5&amp;view=text&amp;node=23:1.0.1.7.33&amp;idno=23"/>
    <tag k="tiger:county" v="Yamhill, OR"/>
    <tag k="tiger:zip_left" v="97115"/>
    <tag k="tiger:zip_right" v="97115"/>
  </way>
</osm>
