<?xml version='1.0' encoding='UTF-8'?>
<osm version="0.6" generator="libosmium/2.20.0">
  <way id="49852057" version="2" timestamp="2010-05-01T12:43:20Z" uid="151899" user="Bikeman2000" changeset="4574490">
    <nd ref="205213358"/>
    <nd ref="205213360"/>
    <nd ref="205213361"/>
    <nd ref="715314833"/>
    <nd ref="205213362"/>
    <tag k="bicycle" v="yes"/>
    <tag k="highway" v="service"/>
    <tag k="motorcar" v="permissive"/>
    <tag k="name" v="Bauenhäuser Weg"/>
  </way>
  <way id="49852057" version="3" timestamp="2012-01-19T17:34:59Z" uid="226150" user="hotelsierra" changeset="10439366">
    <nd ref="205213358"/>
    <nd ref="205213360"/>
    <nd ref="205213361"/>
    <nd ref="205213362"/>
    <tag k="bicycle" v="yes"/>
    <tag k="highway" v="service"/>
    <tag k="motorcar" v="permissive"/>
    <tag k="name" v="Bauenhäuser Weg"/>
  </way>
  <way id="49852370" version="3" timestamp="2010-07-09T06:36:00Z" uid="74617" user="JohnSmith" changeset="5171134">
    <nd ref="360351053"/>
    <nd ref="360351043"/>
    <nd ref="360351050"/>
    <nd ref="633432056"/>
    <nd ref="633432045"/>
    <nd ref="360351045"/>
    <nd ref="253707942"/>
    <nd ref="633423904"/>
    <tag k="highway" v="residential"/>
    <tag k="maxspeed" v="50"/>
    <tag k="maxspeed:source" v="default residential speed limit in Australia"/>
    <tag k="name" v="Fortrose Avenue"/>
  </way>
  <way id="49852370" version="4" timestamp="2010-10-10T03:18:49Z" uid="151053" user="Didz" changeset="5998594">
    <nd ref="360351053"/>
    <nd ref="360351043"/>
    <nd ref="360351050"/>
    <nd ref="633432056"/>
    <nd ref="633432045"/>
    <nd ref="360351045"/>
    <nd ref="253707942"/>
    <nd ref="633423904"/>
    <tag k="highway" v="residential"/>
    <tag k="maxspeed" v="50"/>
    <tag k="maxspeed:source" v="default residential speed limit in Australia"/>
    <tag k="name" v="Fortrose Avenue"/>
    <tag k="smoothness" v="good"/>
    <tag k="surface" v="asphalt"/>
  </way>
  <way id="49852370" version="5" timestamp="2010-10-12T02:22:13Z" uid="151053" user="Didz" changeset="6017349">
    <nd ref="360351053"/>
    <nd ref="360351043"/>
    <nd ref="360351050"/>
    <nd ref="633432056"/>
    <nd ref="633432045"/>
    <nd ref="360351045"/>
    <nd ref="253707942"/>
    <nd ref="945555423"/>
    <nd ref="633423904"/>
    <tag k="highway" v="residential"/>
    <tag k="maxspeed" v="50"/>
    <tag k="maxspeed:source" v="default residential speed limit in Australia"/>
    <tag k="name" v="Fortrose Avenue"/>
    <tag k="smoothness" v="good"/>
    <tag k="surface" v="asphalt"/>
  </way>
  <way id="49852370" version="6" timestamp="2012-01-20T00:44:38Z" uid="147510" user="woodpeck_fixbot" changeset="10442006">
    <nd ref="360351053"/>
    <nd ref="360351043"/>
    <nd ref="360351050"/>
    <nd ref="633432056"/>
    <nd ref="633432045"/>
    <nd ref="360351045"/>
    <nd ref="253707942"/>
    <nd ref="945555423"/>
    <nd ref="633423904"/>
    <tag k="highway" v="residential"/>
    <tag k="name" v="Fortrose Avenue"/>
    <tag k="smoothness" v="good"/>
    <tag k="surface" v="asphalt"/>
  </way>
  <way id="49852372" version="2" timestamp="2010-07-09T06:39:39Z" uid="74617" user="JohnSmith" changeset="5171134">
    <nd ref="633423905"/>
    <nd ref="633423906"/>
    <nd ref="633417689"/>
    <tag k="highway" v="residential"/>
    <tag k="maxspeed" v="50"/>
    <tag k="maxspeed:source" v="default residential speed limit in Australia"/>
    <tag k="name" v="Bach Cresent"/>
  </way>
  <way id="49852372" version="3" timestamp="2010-10-10T03:18:55Z" uid="151053" user="Didz" changeset="5998594">
    <nd ref="633423905"/>
    <nd ref="633423906"/>
    <nd ref="633417689"/>
    <tag k="highway" v="residential"/>
    <tag k="maxspeed" v="50"/>
    <tag k="maxspeed:source" v="default residential speed limit in Australia"/>
    <tag k="name" v="Bach Cresent"/>
    <tag k="surface" v="asphalt"/>
  </way>
  <way id="49852372" version="4" timestamp="2012-01-20T00:44:39Z" uid="147510" user="woodpeck_fixbot" changeset="10442006">
    <nd ref="633423905"/>
    <nd ref="633423906"/>
    <nd ref="633417689"/>
    <tag k="highway" v="residential"/>
    <tag k="name" v="Bach Cresent"/>
    <tag k="surface" v="asphalt"/>
  </way>
  <way id="49852373" version="2" timestamp="2010-07-09T06:40:42Z" uid="74617" user="JohnSmith" changeset="5171134">
    <nd ref="633423907"/>
    <nd ref="370224019"/>
    <tag k="highway" v="residential"/>
    <tag k="maxspeed" v="50"/>
    <tag k="maxspeed:source" v="default residential speed limit in Australia"/>
    <tag k="name" v="Caruso Avenue"/>
  </way>
  <way id="49852373" version="3" timestamp="2010-10-10T03:19:14Z" uid="151053" user="Didz" changeset="5998594">
    <nd ref="633423907"/>
    <nd ref="370224019"/>
    <tag k="highway" v="residential"/>
    <tag k="maxspeed" v="50"/>
    <tag k="maxspeed:source" v="default residential speed limit in Australia"/>
    <tag k="name" v="Caruso Avenue"/>
    <tag k="surface" v="asphalt"/>
  </way>
  <way id="49852373" version="4" timestamp="2012-01-20T00:44:41Z" uid="147510" user="woodpeck_fixbot" changeset="10442006">
    <nd ref="633423907"/>
    <nd ref="370224019"/>
    <tag k="highway" v="residential"/>
    <tag k="name" v="Caruso Avenue"/>
    <tag k="surface" v="asphalt"/>
  </way>
  <way id="49852669" version="3" timestamp="2010-07-09T06:37:00Z" uid="74617" user="JohnSmith" changeset="5171134">
    <nd ref="633426583"/>
    <nd ref="633426585"/>
    <nd ref="370223280"/>
    <tag k="highway" v="residential"/>
    <tag k="maxspeed" v="50"/>
    <tag k="maxspeed:source" v="default residential speed limit in Australia"/>
    <tag k="name" v="Marinoff Street"/>
  </way>
  <way id="49852669" version="4" timestamp="2012-01-20T00:44:42Z" uid="147510" user="woodpeck_fixbot" changeset="10442006">
    <nd ref="633426583"/>
    <nd ref="633426585"/>
    <nd ref="370223280"/>
    <tag k="highway" v="residential"/>
    <tag k="name" v="Marinoff Street"/>
  </way>
  <way id="49852671" version="2" timestamp="2010-07-09T06:40:30Z" uid="74617" user="JohnSmith" changeset="5171134">
    <nd ref="633426587"/>
    <nd ref="633426588"/>
    <nd ref="633426589"/>
    <nd ref="633426590"/>
    <nd ref="100137145"/>
    <tag k="highway" v="residential"/>
    <tag k="maxspeed" v="50"/>
    <tag k="maxspeed:source" v="default residential speed limit in Australia"/>
    <tag k="name" v="Leven Avenue"/>
  </way>
  <way id="49852671" version="3" timestamp="2010-07-10T13:41:45Z" uid="4467" user="Rosscoe" changeset="5182665">
    <nd ref="633426587"/>
    <nd ref="633426588"/>
    <nd ref="810025790"/>
    <tag k="highway" v="residential"/>
    <tag k="maxspeed" v="50"/>
    <tag k="maxspeed:source" v="default residential speed limit in Australia"/>
    <tag k="name" v="Leven Avenue"/>
  </way>
  <way id="49852671" version="4" timestamp="2010-10-10T03:19:35Z" uid="151053" user="Didz" changeset="5998594">
    <nd ref="633426587"/>
    <nd ref="633426588"/>
    <nd ref="810025790"/>
    <tag k="highway" v="residential"/>
    <tag k="maxspeed" v="50"/>
    <tag k="maxspeed:source" v="default residential speed limit in Australia"/>
    <tag k="name" v="Leven Avenue"/>
    <tag k="surface" v="asphalt"/>
  </way>
  <way id="49852671" version="5" timestamp="2010-10-12T02:22:12Z" uid="151053" user="Didz" changeset="6017349">
    <nd ref="633426587"/>
    <nd ref="945555410"/>
    <nd ref="633426588"/>
    <nd ref="810025790"/>
    <tag k="highway" v="residential"/>
    <tag k="maxspeed" v="50"/>
    <tag k="maxspeed:source" v="default residential speed limit in Australia"/>
    <tag k="name" v="Leven Avenue"/>
    <tag k="surface" v="asphalt"/>
  </way>
  <way id="49852671" version="6" timestamp="2012-01-20T00:44:43Z" uid="147510" user="woodpeck_fixbot" changeset="10442006">
    <nd ref="633426587"/>
    <nd ref="945555410"/>
    <nd ref="633426588"/>
    <nd ref="810025790"/>
    <tag k="highway" v="residential"/>
    <tag k="name" v="Leven Avenue"/>
    <tag k="surface" v="asphalt"/>
  </way>
  <way id="49852672" version="2" timestamp="2010-07-09T06:39:38Z" uid="74617" user="JohnSmith" changeset="5171134">
    <nd ref="633426591"/>
    <nd ref="633426589"/>
    <nd ref="180058551"/>
    <nd ref="180059461"/>
    <tag k="highway" v="residential"/>
    <tag k="maxspeed" v="50"/>
    <tag k="maxspeed:source" v="default residential speed limit in Australia"/>
    <tag k="name" v="Alisa Avenue"/>
  </way>
  <way id="49852672" version="3" timestamp="2010-07-10T13:41:32Z" uid="4467" user="Rosscoe" changeset="5182665">
    <nd ref="633426591"/>
    <nd ref="810026368"/>
    <nd ref="810026543"/>
    <tag k="highway" v="residential"/>
    <tag k="maxspeed" v="50"/>
    <tag k="maxspeed:source" v="default residential speed limit in Australia"/>
    <tag k="name" v="Alisa Avenue"/>
  </way>
  <way id="49852672" version="4" timestamp="2010-10-10T03:18:33Z" uid="151053" user="Didz" changeset="5998594">
    <nd ref="633426591"/>
    <nd ref="810026368"/>
    <nd ref="810026543"/>
    <tag k="highway" v="residential"/>
    <tag k="maxspeed" v="50"/>
    <tag k="maxspeed:source" v="default residential speed limit in Australia"/>
    <tag k="name" v="Alisa Avenue"/>
    <tag k="surface" v="asphalt"/>
  </way>
  <way id="49852672" version="5" timestamp="2010-10-10T03:29:42Z" uid="151053" user="Didz" changeset="5998594">
    <nd ref="633426591"/>
    <nd ref="810026368"/>
    <nd ref="810026543"/>
    <tag k="highway" v="residential"/>
    <tag k="maxspeed" v="50"/>
    <tag k="maxspeed:source" v="default residential speed limit in Australia"/>
    <tag k="name" v="Alisa Avenue"/>
    <tag k="smoothness" v="good"/>
    <tag k="surface" v="asphalt"/>
  </way>
  <way id="49852672" version="6" timestamp="2010-10-12T02:12:38Z" uid="151053" user="Didz" changeset="6017349">
    <nd ref="633426591"/>
    <nd ref="810026368"/>
    <nd ref="945551662"/>
    <nd ref="810026543"/>
    <tag k="highway" v="residential"/>
    <tag k="maxspeed" v="50"/>
    <tag k="maxspeed:source" v="default residential speed limit in Australia"/>
    <tag k="name" v="Alisa Avenue"/>
    <tag k="smoothness" v="good"/>
    <tag k="surface" v="asphalt"/>
  </way>
  <way id="49852672" version="7" timestamp="2012-01-20T00:44:44Z" uid="147510" user="woodpeck_fixbot" changeset="10442006">
    <nd ref="633426591"/>
    <nd ref="810026368"/>
    <nd ref="945551662"/>
    <nd ref="810026543"/>
    <tag k="highway" v="residential"/>
    <tag k="name" v="Alisa Avenue"/>
    <tag k="smoothness" v="good"/>
    <tag k="surface" v="asphalt"/>
  </way>
  <way id="49852673" version="2" timestamp="2010-07-09T06:40:40Z" uid="74617" user="JohnSmith" changeset="5171134">
    <nd ref="633426591"/>
    <nd ref="633426592"/>
    <tag k="highway" v="residential"/>
    <tag k="maxspeed" v="50"/>
    <tag k="maxspeed:source" v="default residential speed limit in Australia"/>
    <tag k="name" v="Pape Avenue"/>
  </way>
  <way id="49852673" version="3" timestamp="2012-01-20T00:44:45Z" uid="147510" user="woodpeck_fixbot" changeset="10442006">
    <nd ref="633426591"/>
    <nd ref="633426592"/>
    <tag k="highway" v="residential"/>
    <tag k="name" v="Pape Avenue"/>
  </way>
  <way id="49852786" version="2" timestamp="2010-07-09T06:35:55Z" uid="74617" user="JohnSmith" changeset="5171134">
    <nd ref="360351060"/>
    <nd ref="633432056"/>
    <tag k="highway" v="residential"/>
    <tag k="maxspeed" v="50"/>
    <tag k="maxspeed:source" v="default residential speed limit in Australia"/>
    <tag k="name" v="Singleton Avenue"/>
  </way>
  <way id="49852786" version="3" timestamp="2010-10-10T03:19:47Z" uid="151053" user="Didz" changeset="5998594">
    <nd ref="360351060"/>
    <nd ref="633432056"/>
    <tag k="highway" v="residential"/>
    <tag k="maxspeed" v="50"/>
    <tag k="maxspeed:source" v="default residential speed limit in Australia"/>
    <tag k="name" v="Singleton Avenue"/>
    <tag k="surface" v="asphalt"/>
  </way>
  <way id="49852786" version="4" timestamp="2010-10-10T03:30:22Z" uid="151053" user="Didz" changeset="5998594">
    <nd ref="360351060"/>
    <nd ref="633432056"/>
    <tag k="highway" v="residential"/>
    <tag k="maxspeed" v="50"/>
    <tag k="maxspeed:source" v="default residential speed limit in Australia"/>
    <tag k="name" v="Singleton Avenue"/>
    <tag k="smoothness" v="good"/>
    <tag k="surface" v="asphalt"/>
  </way>
  <way id="49852786" version="5" timestamp="2012-01-20T00:44:46Z" uid="147510" user="woodpeck_fixbot" changeset="10442006">
    <nd ref="360351060"/>
    <nd ref="633432056"/>
    <tag k="highway" v="residential"/>
    <tag k="name" v="Singleton Avenue"/>
    <tag k="smoothness" v="good"/>
    <tag k="surface" v="asphalt"/>
  </way>
  <way id="49852669" version="5" timestamp="2012-09-07T22:57:34Z" uid="418724" user="wintersportler" changeset="13028962">
    <nd ref="633426583"/>
    <nd ref="1904996737"/>
    <nd ref="1904996747"/>
    <nd ref="1904996753"/>
    <nd ref="633426585"/>
    <nd ref="370223280"/>
    <tag k="highway" v="residential"/>
    <tag k="name" v="Marinoff Street"/>
  </way>
  <way id="49852671" version="7" timestamp="2012-07-06T13:30:22Z" uid="328538" user="o&apos;cholio" changeset="12130509">
    <nd ref="633426587"/>
    <nd ref="945555410"/>
    <nd ref="1814875018"/>
    <nd ref="1814875019"/>
    <tag k="highway" v="residential"/>
    <tag k="name" v="Leven Avenue"/>
    <tag k="surface" v="asphalt"/>
  </way>
  <way id="49852672" version="8" timestamp="2012-07-20T11:07:10Z" uid="722137" user="OSMF Redaction Account" changeset="12372361">
    <nd ref="633426591"/>
    <nd ref="945551662"/>
    <tag k="highway" v="residential"/>
    <tag k="name" v="Alisa Avenue"/>
    <tag k="smoothness" v="good"/>
    <tag k="surface" v="asphalt"/>
  </way>
  <way id="49852672" version="9" timestamp="2012-09-07T22:57:23Z" uid="418724" user="wintersportler" changeset="13028962">
    <nd ref="633426591"/>
    <nd ref="1904996822"/>
    <nd ref="1904996848"/>
    <nd ref="945551662"/>
    <nd ref="1904996852"/>
    <tag k="highway" v="residential"/>
    <tag k="name" v="Alisa Avenue"/>
    <tag k="smoothness" v="good"/>
    <tag k="surface" v="asphalt"/>
  </way>
  <way id="49852673" version="4" timestamp="2012-09-07T22:57:40Z" uid="418724" user="wintersportler" changeset="13028962">
    <nd ref="633426591"/>
    <nd ref="1904996817"/>
    <nd ref="1904996379"/>
    <tag k="highway" v="residential"/>
    <tag k="name" v="Pape Avenue"/>
  </way>
</osm>
