<?xml version='1.0' encoding='UTF-8'?>
<osm version="0.6" generator="libosmium/2.20.0">
  <way id="4991149" version="3" timestamp="2009-12-09T23:08:46Z" uid="200463" user="harmagedon" changeset="3337772">
    <nd ref="33128069"/>
    <nd ref="33128070"/>
    <nd ref="294477913"/>
    <nd ref="294477914"/>
    <nd ref="33128071"/>
    <nd ref="294477915"/>
    <nd ref="33128072"/>
    <nd ref="294477916"/>
    <nd ref="27499505"/>
    <tag k="highway" v="trunk_link"/>
    <tag k="name" v="Ausfahrt Benken"/>
    <tag k="oneway" v="yes"/>
  </way>
  <way id="4991149" version="4" timestamp="2010-10-23T23:19:41Z" uid="7230" user="Andy Stricker" changeset="6152556">
    <nd ref="33128069"/>
    <nd ref="33128070"/>
    <nd ref="294477913"/>
    <nd ref="294477914"/>
    <nd ref="33128071"/>
    <nd ref="294477915"/>
    <nd ref="33128072"/>
    <nd ref="294477916"/>
    <nd ref="962426175"/>
    <tag k="highway" v="trunk_link"/>
    <tag k="name" v="Ausfahrt Benken"/>
    <tag k="oneway" v="yes"/>
  </way>
  <way id="4991149" version="5" timestamp="2010-12-21T10:45:11Z" uid="122213" user="kds_ch" changeset="6723792">
    <nd ref="33128069"/>
    <nd ref="33128070"/>
    <nd ref="294477913"/>
    <nd ref="294477914"/>
    <nd ref="33128071"/>
    <nd ref="294477915"/>
    <nd ref="33128072"/>
    <nd ref="294477916"/>
    <nd ref="962426175"/>
    <tag k="highway" v="trunk_link"/>
    <tag k="name" v="Einfahrt Benken"/>
    <tag k="oneway" v="yes"/>
  </way>
  <way id="4991149" version="6" timestamp="2011-11-19T21:47:03Z" uid="178186" user="mdk" changeset="9878034"/>
  <way id="4991151" version="1" timestamp="2007-07-30T14:29:45Z" uid="9581" user="Lobelt" changeset="177363">
    <nd ref="31288669"/>
    <nd ref="31074662"/>
    <nd ref="31288668"/>
    <tag k="created_by" v="JOSM"/>
    <tag k="highway" v="residential"/>
  </way>
  <way id="4991151" version="2" timestamp="2007-11-21T19:06:56Z" uid="14029" user="MartinDornfelder" changeset="585123"/>
  <way id="4991152" version="1" timestamp="2007-07-30T14:29:45Z" uid="9581" user="Lobelt" changeset="177363">
    <nd ref="31117083"/>
    <nd ref="31117082"/>
    <nd ref="31117081"/>
    <nd ref="31117080"/>
    <nd ref="31117079"/>
    <nd ref="31117093"/>
    <nd ref="31117092"/>
    <nd ref="31117091"/>
    <nd ref="31117090"/>
    <nd ref="31117089"/>
    <nd ref="31117088"/>
    <nd ref="31117087"/>
    <nd ref="31117086"/>
    <nd ref="31117085"/>
    <nd ref="31117084"/>
    <nd ref="31117083"/>
    <tag k="created_by" v="JOSM"/>
    <tag k="natural" v="water"/>
  </way>
  <way id="4991152" version="2" timestamp="2008-08-11T14:29:51Z" uid="9581" user="Lobelt" changeset="188815">
    <nd ref="31117083"/>
    <nd ref="31117082"/>
    <nd ref="31117081"/>
    <nd ref="31117080"/>
    <nd ref="31117079"/>
    <nd ref="31117093"/>
    <nd ref="31117092"/>
    <nd ref="31117091"/>
    <nd ref="31117090"/>
    <nd ref="31117089"/>
    <nd ref="31117088"/>
    <nd ref="31117087"/>
    <nd ref="31117086"/>
    <nd ref="31117085"/>
    <nd ref="31117084"/>
    <nd ref="31117083"/>
    <tag k="created_by" v="JOSM"/>
    <tag k="name" v="Gartenteich"/>
    <tag k="natural" v="water"/>
  </way>
  <way id="4991153" version="1" timestamp="2007-09-17T08:39:47Z" uid="9581" user="Lobelt" changeset="454434">
    <nd ref="31123008"/>
    <nd ref="31123069"/>
    <nd ref="31123067"/>
    <nd ref="31123063"/>
    <nd ref="53182496"/>
    <nd ref="53183665"/>
    <nd ref="31123061"/>
    <nd ref="31123059"/>
    <nd ref="31123057"/>
    <nd ref="31123055"/>
    <nd ref="31123053"/>
    <nd ref="31123051"/>
    <nd ref="31123049"/>
    <nd ref="31123047"/>
    <nd ref="31123045"/>
    <nd ref="31123043"/>
    <nd ref="31123040"/>
    <nd ref="31123038"/>
    <nd ref="31123036"/>
    <nd ref="31123034"/>
    <nd ref="31123032"/>
    <nd ref="31123030"/>
    <nd ref="31123028"/>
    <nd ref="31123026"/>
    <nd ref="31123024"/>
    <nd ref="31123022"/>
    <nd ref="31123020"/>
    <nd ref="31123018"/>
    <nd ref="31123016"/>
    <nd ref="31123014"/>
    <nd ref="31123012"/>
    <nd ref="31123010"/>
    <tag k="created_by" v="JOSM"/>
    <tag k="highway" v="unclassified"/>
  </way>
  <way id="4991153" version="2" timestamp="2007-10-22T06:21:17Z" uid="14029" user="MartinDornfelder" changeset="280235">
    <nd ref="31123008"/>
    <nd ref="31123069"/>
    <nd ref="31123067"/>
    <nd ref="31123063"/>
    <nd ref="53182496"/>
    <nd ref="53183665"/>
    <nd ref="31123061"/>
    <nd ref="31123059"/>
    <nd ref="31123057"/>
    <nd ref="31123055"/>
    <nd ref="31123053"/>
    <nd ref="31123051"/>
    <nd ref="31123049"/>
    <nd ref="31123047"/>
    <nd ref="31123045"/>
    <nd ref="31123043"/>
    <nd ref="31123040"/>
    <nd ref="31123038"/>
    <nd ref="31123036"/>
    <nd ref="31123034"/>
    <nd ref="31123032"/>
    <nd ref="31123030"/>
    <nd ref="31123028"/>
    <nd ref="31123026"/>
    <nd ref="31123024"/>
    <tag k="created_by" v="Potlatch alpha"/>
    <tag k="highway" v="unclassified"/>
  </way>
  <way id="4991153" version="3" timestamp="2007-10-22T06:21:58Z" uid="14029" user="MartinDornfelder" changeset="280235">
    <nd ref="31123008"/>
    <nd ref="31123069"/>
    <nd ref="31123067"/>
    <nd ref="31123063"/>
    <nd ref="53182496"/>
    <nd ref="53183665"/>
    <nd ref="31123061"/>
    <nd ref="31123059"/>
    <nd ref="31123057"/>
    <nd ref="31123055"/>
    <nd ref="31123053"/>
    <nd ref="31123051"/>
    <nd ref="31123049"/>
    <nd ref="31123047"/>
    <nd ref="31123045"/>
    <tag k="created_by" v="Potlatch alpha"/>
    <tag k="highway" v="unclassified"/>
  </way>
  <way id="4991153" version="4" timestamp="2007-10-22T06:22:26Z" uid="14029" user="MartinDornfelder" changeset="280235">
    <nd ref="31123008"/>
    <nd ref="31123069"/>
    <nd ref="31123067"/>
    <nd ref="31123063"/>
    <nd ref="53182496"/>
    <nd ref="53183665"/>
    <nd ref="31123061"/>
    <nd ref="31123059"/>
    <nd ref="31123057"/>
    <nd ref="31123055"/>
    <nd ref="31123053"/>
    <nd ref="31123051"/>
    <tag k="created_by" v="Potlatch alpha"/>
    <tag k="highway" v="unclassified"/>
  </way>
  <way id="4991153" version="5" timestamp="2007-10-22T06:24:24Z" uid="14029" user="MartinDornfelder" changeset="280235">
    <nd ref="31123008"/>
    <nd ref="31123069"/>
    <nd ref="31123067"/>
    <nd ref="31123063"/>
    <nd ref="53182496"/>
    <nd ref="53183665"/>
    <nd ref="31123061"/>
    <tag k="created_by" v="Potlatch alpha"/>
    <tag k="highway" v="unclassified"/>
  </way>
  <way id="4991153" version="6" timestamp="2007-11-05T17:39:24Z" uid="14029" user="MartinDornfelder" changeset="412028">
    <nd ref="31123008"/>
    <nd ref="31123069"/>
    <nd ref="31123067"/>
    <nd ref="31123063"/>
    <tag k="created_by" v="Potlatch alpha"/>
    <tag k="highway" v="unclassified"/>
  </way>
  <way id="4991153" version="7" timestamp="2007-12-14T08:50:23Z" uid="14029" user="MartinDornfelder" changeset="296765">
    <nd ref="31123008"/>
    <nd ref="31123069"/>
    <tag k="created_by" v="Potlatch 0.5d"/>
    <tag k="highway" v="unclassified"/>
  </way>
  <way id="4991153" version="8" timestamp="2007-12-14T08:50:33Z" uid="14029" user="MartinDornfelder" changeset="296765"/>
  <way id="4991154" version="1" timestamp="2007-07-30T14:29:46Z" uid="9581" user="Lobelt" changeset="177363">
    <nd ref="31123008"/>
    <nd ref="31123010"/>
    <tag k="created_by" v="JOSM"/>
    <tag k="highway" v="unclassified"/>
  </way>
  <way id="4991154" version="2" timestamp="2007-10-22T09:00:21Z" uid="14029" user="MartinDornfelder" changeset="281001">
    <nd ref="31123008"/>
    <nd ref="31123010"/>
    <nd ref="31123012"/>
    <nd ref="31123014"/>
    <nd ref="31123016"/>
    <nd ref="31123018"/>
    <tag k="created_by" v="Potlatch alpha"/>
    <tag k="highway" v="unclassified"/>
    <tag k="name" v="Nordparkstrasse"/>
  </way>
  <way id="4991154" version="3" timestamp="2007-11-05T17:39:25Z" uid="14029" user="MartinDornfelder" changeset="412028">
    <nd ref="31123008"/>
    <nd ref="31123010"/>
    <nd ref="31123012"/>
    <nd ref="31123014"/>
    <nd ref="31123016"/>
    <nd ref="31123018"/>
    <tag k="created_by" v="Potlatch alpha"/>
    <tag k="highway" v="unclassified"/>
    <tag k="name" v="Nordparkstraße"/>
  </way>
  <way id="4991154" version="4" timestamp="2008-02-18T08:48:37Z" uid="9581" user="Lobelt" changeset="149986">
    <nd ref="31123008"/>
    <nd ref="248140018"/>
    <nd ref="248140016"/>
    <nd ref="31123010"/>
    <nd ref="31123012"/>
    <nd ref="31123014"/>
    <nd ref="31123016"/>
    <nd ref="31123018"/>
    <tag k="created_by" v="Potlatch alpha"/>
    <tag k="highway" v="unclassified"/>
    <tag k="name" v="Nordparkstraße"/>
  </way>
  <way id="4991154" version="5" timestamp="2008-06-25T08:48:16Z" uid="9581" user="Lobelt" changeset="290182">
    <nd ref="31123008"/>
    <nd ref="248140018"/>
    <nd ref="248140016"/>
    <nd ref="31123010"/>
    <nd ref="31123012"/>
    <nd ref="273090649"/>
    <nd ref="31123014"/>
    <nd ref="31123016"/>
    <nd ref="31123018"/>
    <tag k="created_by" v="Potlatch alpha"/>
    <tag k="highway" v="unclassified"/>
    <tag k="name" v="Nordparkstraße"/>
  </way>
  <way id="4991154" version="6" timestamp="2008-07-04T08:15:49Z" uid="9581" user="Lobelt" changeset="390444">
    <nd ref="31123008"/>
    <nd ref="248140018"/>
    <nd ref="248140016"/>
    <nd ref="31123010"/>
    <nd ref="276120628"/>
    <nd ref="31123012"/>
    <nd ref="273090649"/>
    <nd ref="31123014"/>
    <nd ref="31123016"/>
    <nd ref="31123018"/>
    <tag k="created_by" v="Potlatch alpha"/>
    <tag k="highway" v="unclassified"/>
    <tag k="name" v="Nordparkstraße"/>
  </way>
  <way id="4991154" version="7" timestamp="2009-08-30T07:25:40Z" uid="137626" user="Dr Jan Itor" changeset="2309657">
    <nd ref="31123018"/>
    <nd ref="31123016"/>
    <nd ref="31123014"/>
    <nd ref="273090649"/>
    <nd ref="31123012"/>
    <nd ref="276120628"/>
    <nd ref="31123010"/>
    <nd ref="248140016"/>
    <nd ref="248140018"/>
    <nd ref="31123008"/>
    <nd ref="239816462"/>
    <tag k="highway" v="residential"/>
    <tag k="name" v="Nordparkstraße"/>
  </way>
  <way id="4991154" version="8" timestamp="2010-05-08T17:35:19Z" uid="137626" user="Dr Jan Itor" changeset="4641155">
    <nd ref="31123018"/>
    <nd ref="31123016"/>
    <nd ref="31123014"/>
    <tag k="highway" v="residential"/>
    <tag k="name" v="Nordparkstraße"/>
  </way>
  <way id="4991154" version="9" timestamp="2011-08-25T22:18:24Z" uid="28234" user="derandi" changeset="9125558"/>
  <way id="4991166" version="1" timestamp="2007-07-30T14:35:06Z" uid="9581" user="Lobelt" changeset="177363">
    <nd ref="31068276"/>
    <nd ref="31068275"/>
    <nd ref="31068264"/>
    <tag k="created_by" v="Potlatch alpha"/>
    <tag k="highway" v="residential"/>
    <tag k="name" v="Theodor-Brugsch-Straße"/>
  </way>
  <way id="4991166" version="2" timestamp="2011-09-28T23:33:08Z" uid="28234" user="derandi" changeset="9423915"/>
  <way id="4991167" version="1" timestamp="2007-07-30T14:35:07Z" uid="9581" user="Lobelt" changeset="177363">
    <nd ref="31203276"/>
    <nd ref="31066513"/>
    <nd ref="31066478"/>
    <nd ref="31040059"/>
    <nd ref="31039872"/>
    <nd ref="31203267"/>
    <tag k="created_by" v="Potlatch alpha"/>
    <tag k="highway" v="motorway"/>
    <tag k="int_ref" v="E36"/>
    <tag k="name" v="A15"/>
    <tag k="nat_ref" v="A15"/>
    <tag k="oneway" v="true"/>
    <tag k="ref" v="A15"/>
  </way>
  <way id="4991167" version="2" timestamp="2008-01-06T23:10:39Z" uid="16268" user="MasterMG" changeset="564271">
    <nd ref="31203276"/>
    <nd ref="31066513"/>
    <nd ref="31066478"/>
    <nd ref="31040059"/>
    <nd ref="31039872"/>
    <nd ref="207660700"/>
    <nd ref="31203267"/>
    <tag k="created_by" v="Potlatch alpha"/>
    <tag k="highway" v="motorway"/>
    <tag k="int_ref" v="E36"/>
    <tag k="name" v="A15"/>
    <tag k="nat_ref" v="A15"/>
    <tag k="oneway" v="true"/>
    <tag k="ref" v="A15"/>
  </way>
  <way id="4991167" version="3" timestamp="2008-02-05T05:24:40Z" uid="5164" user="woodpeck" changeset="46622">
    <nd ref="31203276"/>
    <nd ref="31066513"/>
    <nd ref="31066478"/>
    <nd ref="31040059"/>
    <nd ref="31039872"/>
    <nd ref="207660700"/>
    <nd ref="31203267"/>
    <tag k="created_by" v="fixbot"/>
    <tag k="highway" v="motorway"/>
    <tag k="int_ref" v="E36"/>
    <tag k="oneway" v="true"/>
    <tag k="ref" v="A15"/>
  </way>
  <way id="4991167" version="4" timestamp="2008-07-14T02:27:49Z" uid="2675" user="Eckhart Wörner" changeset="485281">
    <nd ref="31203276"/>
    <nd ref="31066513"/>
    <nd ref="31066478"/>
    <nd ref="31040059"/>
    <nd ref="31039872"/>
    <nd ref="207660700"/>
    <nd ref="31203267"/>
    <tag k="created_by" v="fixbot"/>
    <tag k="highway" v="motorway"/>
    <tag k="int_ref" v="E36"/>
    <tag k="oneway" v="true"/>
    <tag k="ref" v="A 15"/>
  </way>
  <way id="4991167" version="5" timestamp="2008-07-24T21:05:01Z" uid="42123" user="Ropino" changeset="585937">
    <nd ref="31203276"/>
    <nd ref="31066513"/>
    <nd ref="31066478"/>
    <nd ref="31040059"/>
    <nd ref="31039872"/>
    <nd ref="207660700"/>
    <nd ref="31203267"/>
    <tag k="created_by" v="fixbot"/>
    <tag k="highway" v="motorway"/>
    <tag k="int_ref" v="E36"/>
    <tag k="lanes" v="2"/>
    <tag k="oneway" v="true"/>
    <tag k="ref" v="A 15"/>
  </way>
  <way id="4991167" version="6" timestamp="2009-01-12T13:29:32Z" uid="42123" user="Ropino" changeset="779663">
    <nd ref="31203276"/>
    <nd ref="31066513"/>
    <nd ref="31066478"/>
    <nd ref="31040059"/>
    <nd ref="31039872"/>
    <nd ref="207660700"/>
    <nd ref="31203267"/>
    <tag k="created_by" v="fixbot"/>
    <tag k="highway" v="motorway"/>
    <tag k="int_ref" v="E36"/>
    <tag k="lanes" v="2"/>
    <tag k="oneway" v="yes"/>
    <tag k="ref" v="A 15"/>
  </way>
  <way id="4991167" version="7" timestamp="2009-02-21T18:55:50Z" uid="9176" user="Maarten Deen" changeset="591525">
    <nd ref="31203276"/>
    <nd ref="31066513"/>
    <nd ref="31066478"/>
    <nd ref="31040059"/>
    <nd ref="31039872"/>
    <nd ref="207660700"/>
    <nd ref="31203267"/>
    <tag k="highway" v="motorway"/>
    <tag k="int_ref" v="E 36"/>
    <tag k="lanes" v="2"/>
    <tag k="oneway" v="yes"/>
    <tag k="ref" v="A 15"/>
  </way>
  <way id="4991167" version="8" timestamp="2010-11-28T19:15:44Z" uid="30077" user="ChristianW" changeset="6481235">
    <nd ref="31203276"/>
    <nd ref="31066513"/>
    <nd ref="31066478"/>
    <nd ref="31040059"/>
    <nd ref="31039872"/>
    <nd ref="207660700"/>
    <nd ref="31203267"/>
    <tag k="highway" v="motorway"/>
    <tag k="int_ref" v="E 36"/>
    <tag k="lanes" v="2"/>
    <tag k="oneway" v="yes"/>
    <tag k="ref" v="A 15"/>
    <tag k="reg_name" v="Spreewaldautobahn"/>
  </way>
  <way id="4991167" version="9" timestamp="2010-11-29T16:27:39Z" uid="30077" user="ChristianW" changeset="6487695">
    <nd ref="31203276"/>
    <nd ref="31066513"/>
    <nd ref="31066478"/>
    <nd ref="31040059"/>
    <nd ref="31039872"/>
    <nd ref="207660700"/>
    <nd ref="31203267"/>
    <tag k="highway" v="motorway"/>
    <tag k="int_ref" v="E 36"/>
    <tag k="lanes" v="2"/>
    <tag k="note:name" v="Der reg_name, sowie ggf. der loc_name sind dem zugehörigen Wikipediaartikel entnommen."/>
    <tag k="oneway" v="yes"/>
    <tag k="ref" v="A 15"/>
    <tag k="reg_name" v="Spreewaldautobahn"/>
  </way>
  <way id="4991167" version="10" timestamp="2011-11-05T10:44:34Z" uid="30077" user="ChristianW" changeset="9745131">
    <nd ref="31203276"/>
    <nd ref="31066513"/>
    <nd ref="31066478"/>
    <nd ref="31040059"/>
    <nd ref="31039872"/>
    <nd ref="207660700"/>
    <nd ref="31203267"/>
    <tag k="highway" v="motorway"/>
    <tag k="int_ref" v="E 36"/>
    <tag k="lanes" v="2"/>
    <tag k="lit" v="no"/>
    <tag k="note:name" v="Der reg_name, sowie ggf. der loc_name sind dem zugehörigen Wikipediaartikel entnommen."/>
    <tag k="oneway" v="yes"/>
    <tag k="ref" v="A 15"/>
    <tag k="reg_name" v="Spreewaldautobahn"/>
    <tag k="source:lit" v="http://www.autobahn-bilder.de"/>
    <tag k="surface" v="concrete"/>
  </way>
  <way id="4991167" version="11" timestamp="2011-12-25T22:53:05Z" uid="235372" user="miraculixOSM" changeset="10203671">
    <nd ref="1561949762"/>
    <nd ref="31066513"/>
    <nd ref="31066478"/>
    <nd ref="31040059"/>
    <nd ref="31039872"/>
    <nd ref="207660700"/>
    <nd ref="1561949777"/>
    <tag k="highway" v="motorway"/>
    <tag k="int_ref" v="E 36"/>
    <tag k="lanes" v="2"/>
    <tag k="lit" v="no"/>
    <tag k="note:name" v="Der reg_name, sowie ggf. der loc_name sind dem zugehörigen Wikipediaartikel entnommen."/>
    <tag k="oneway" v="yes"/>
    <tag k="ref" v="A 15"/>
    <tag k="reg_name" v="Spreewaldautobahn"/>
    <tag k="source:lit" v="http://www.autobahn-bilder.de"/>
    <tag k="surface" v="concrete"/>
  </way>
  <way id="4991167" version="12" timestamp="2011-12-27T23:20:46Z" uid="235372" user="miraculixOSM" changeset="10220995"/>
  <way id="4991331" version="2" timestamp="2008-07-03T21:57:51Z" uid="6975" user="ulfl" changeset="386611">
    <nd ref="33129374"/>
    <nd ref="33129375"/>
    <nd ref="33129376"/>
    <nd ref="33129373"/>
    <nd ref="33129374"/>
    <tag k="landuse" v="cemetery"/>
  </way>
  <way id="4991640" version="2" timestamp="2008-12-27T23:56:49Z" uid="20587" user="balrog-kun" changeset="639526">
    <nd ref="33130630"/>
    <nd ref="322232972"/>
    <nd ref="33130631"/>
    <nd ref="322232979"/>
    <nd ref="33130632"/>
    <nd ref="33130633"/>
    <nd ref="33130634"/>
    <nd ref="33130635"/>
    <tag k="created_by" v="JOSM"/>
    <tag k="highway" v="service"/>
  </way>
  <way id="4991640" version="3" timestamp="2010-07-19T14:33:51Z" uid="10281" user="szdowk" changeset="5261673">
    <nd ref="33130630"/>
    <nd ref="322232972"/>
    <nd ref="33130631"/>
    <nd ref="322232979"/>
    <nd ref="33130632"/>
    <nd ref="33130633"/>
    <nd ref="33130634"/>
    <nd ref="33130635"/>
    <nd ref="824527979"/>
    <nd ref="824527984"/>
    <tag k="highway" v="service"/>
  </way>
  <way id="4991640" version="4" timestamp="2010-07-24T11:35:36Z" uid="10281" user="szdowk" changeset="5303192">
    <nd ref="33130630"/>
    <nd ref="322232972"/>
    <nd ref="33130631"/>
    <nd ref="322232979"/>
    <nd ref="33130632"/>
    <nd ref="33130633"/>
    <nd ref="33130634"/>
    <nd ref="33130635"/>
    <nd ref="831186423"/>
    <nd ref="824527979"/>
    <nd ref="831186394"/>
    <nd ref="824527984"/>
    <tag k="highway" v="service"/>
  </way>
  <way id="4991645" version="2" timestamp="2009-03-08T00:20:09Z" uid="20587" user="balrog-kun" changeset="754466">
    <nd ref="33130615"/>
    <nd ref="33130613"/>
    <nd ref="33130614"/>
    <tag k="created_by" v="JOSM"/>
    <tag k="highway" v="service"/>
  </way>
  <way id="4991649" version="3" timestamp="2008-12-27T23:56:48Z" uid="20587" user="balrog-kun" changeset="639526">
    <nd ref="33130607"/>
    <nd ref="322233057"/>
    <nd ref="322233060"/>
    <nd ref="33130608"/>
    <nd ref="33130609"/>
    <nd ref="33130604"/>
    <nd ref="33130605"/>
    <nd ref="33130606"/>
    <nd ref="33130610"/>
    <nd ref="33130637"/>
    <tag k="created_by" v="Potlatch 0.7b"/>
    <tag k="highway" v="pedestrian"/>
    <tag k="name" v="Ludwika Hirszfelda"/>
  </way>
  <way id="4991649" version="4" timestamp="2010-07-21T16:51:12Z" uid="10281" user="szdowk" changeset="5280421">
    <nd ref="33130607"/>
    <nd ref="322233057"/>
    <nd ref="322233060"/>
    <nd ref="33130608"/>
    <nd ref="33130609"/>
    <nd ref="33130604"/>
    <nd ref="33130605"/>
    <nd ref="827750114"/>
    <nd ref="33130606"/>
    <nd ref="33130610"/>
    <nd ref="827750269"/>
    <nd ref="33130637"/>
    <nd ref="33130645"/>
    <tag k="highway" v="pedestrian"/>
    <tag k="name" v="Ludwika Hirszfelda"/>
  </way>
  <way id="4991649" version="5" timestamp="2010-07-24T11:51:59Z" uid="10281" user="szdowk" changeset="5303314">
    <nd ref="33130607"/>
    <nd ref="322233057"/>
    <nd ref="322233060"/>
    <nd ref="33130608"/>
    <nd ref="33130609"/>
    <nd ref="33130604"/>
    <nd ref="33130605"/>
    <nd ref="827750114"/>
    <nd ref="33130606"/>
    <nd ref="33130610"/>
    <nd ref="827750269"/>
    <nd ref="33130637"/>
    <nd ref="831203423"/>
    <nd ref="33130645"/>
    <tag k="highway" v="pedestrian"/>
    <tag k="name" v="Ludwika Hirszfelda"/>
  </way>
  <way id="4991694" version="6" timestamp="2010-03-27T07:45:36Z" uid="20587" user="balrog-kun" changeset="4244079">
    <nd ref="33131185"/>
    <nd ref="257664207"/>
    <nd ref="33131187"/>
    <nd ref="257664256"/>
    <nd ref="257664195"/>
    <nd ref="164583812"/>
    <nd ref="122985533"/>
    <nd ref="122634047"/>
    <nd ref="33131189"/>
    <nd ref="18305383"/>
    <tag k="created_by" v="Potlatch 0.10f"/>
    <tag k="highway" v="secondary"/>
    <tag k="name" v="Lincoln Avenue"/>
  </way>
  <way id="4991695" version="3" timestamp="2010-03-27T07:45:36Z" uid="20587" user="balrog-kun" changeset="4244079">
    <nd ref="33131186"/>
    <nd ref="33131185"/>
    <tag k="bridge" v="yes"/>
    <tag k="created_by" v="JOSM"/>
    <tag k="highway" v="secondary"/>
    <tag k="layer" v="2"/>
    <tag k="name" v="Lincoln Avenue"/>
  </way>
  <way id="4991695" version="4" timestamp="2011-07-13T03:42:10Z" uid="4951" user="PeterIto" changeset="8708700">
    <nd ref="33131186"/>
    <nd ref="33131185"/>
    <tag k="bridge" v="yes"/>
    <tag k="highway" v="secondary"/>
    <tag k="layer" v="1"/>
    <tag k="name" v="Lincoln Avenue"/>
  </way>
  <way id="4991696" version="4" timestamp="2010-03-27T07:45:36Z" uid="20587" user="balrog-kun" changeset="4244079">
    <nd ref="33131205"/>
    <nd ref="33131204"/>
    <tag k="bridge" v="yes"/>
    <tag k="highway" v="primary"/>
    <tag k="layer" v="2"/>
    <tag k="name" v="Beach Boulevard"/>
    <tag k="ref" v="CA 39"/>
  </way>
  <way id="4991696" version="5" timestamp="2010-06-11T22:57:30Z" uid="239998" user="Sundance" changeset="4966634">
    <nd ref="33131204"/>
    <nd ref="33131205"/>
    <tag k="bridge" v="yes"/>
    <tag k="highway" v="primary"/>
    <tag k="layer" v="1"/>
    <tag k="name" v="Beach Boulevard"/>
    <tag k="oneway" v="yes"/>
    <tag k="ref" v="CA 39"/>
  </way>
  <way id="4991696" version="6" timestamp="2011-06-27T14:52:41Z" uid="473471" user="NE3" changeset="8562928">
    <nd ref="33131204"/>
    <nd ref="33131205"/>
    <tag k="bridge" v="yes"/>
    <tag k="highway" v="primary"/>
    <tag k="lanes" v="3"/>
    <tag k="layer" v="1"/>
    <tag k="name" v="Beach Boulevard"/>
    <tag k="oneway" v="yes"/>
    <tag k="ref" v="CA 39"/>
  </way>
  <way id="4991697" version="11" timestamp="2010-03-27T07:45:36Z" uid="20587" user="balrog-kun" changeset="4244079">
    <nd ref="33131204"/>
    <nd ref="15368077"/>
    <nd ref="123067531"/>
    <nd ref="122716435"/>
    <nd ref="122768935"/>
    <nd ref="114948203"/>
    <nd ref="122823407"/>
    <nd ref="114948214"/>
    <nd ref="123067513"/>
    <nd ref="122707003"/>
    <nd ref="597841181"/>
    <nd ref="122878403"/>
    <nd ref="597841197"/>
    <nd ref="25061871"/>
    <nd ref="597841206"/>
    <nd ref="25061911"/>
    <nd ref="597841199"/>
    <nd ref="122951286"/>
    <nd ref="597841508"/>
    <nd ref="128851761"/>
    <nd ref="26493066"/>
    <nd ref="25061917"/>
    <nd ref="122771742"/>
    <nd ref="122912156"/>
    <nd ref="122912161"/>
    <nd ref="123016259"/>
    <nd ref="25061643"/>
    <nd ref="128766958"/>
    <tag k="highway" v="primary"/>
    <tag k="name" v="Beach Boulevard"/>
    <tag k="ref" v="CA 39"/>
  </way>
  <way id="4991697" version="12" timestamp="2010-06-11T22:57:26Z" uid="239998" user="Sundance" changeset="4966634">
    <nd ref="128766958"/>
    <nd ref="25061643"/>
    <nd ref="123016259"/>
    <nd ref="122912161"/>
    <nd ref="122912156"/>
    <nd ref="122771742"/>
    <nd ref="25061917"/>
    <nd ref="26493066"/>
    <nd ref="128851761"/>
    <nd ref="597841508"/>
    <nd ref="122951286"/>
    <nd ref="597841199"/>
    <nd ref="25061911"/>
    <nd ref="597841206"/>
    <nd ref="25061871"/>
    <nd ref="597841197"/>
    <nd ref="122878403"/>
    <nd ref="597841181"/>
    <nd ref="122707003"/>
    <nd ref="123067513"/>
    <nd ref="114948214"/>
    <nd ref="122823407"/>
    <nd ref="114948203"/>
    <nd ref="122768935"/>
    <nd ref="122716435"/>
    <nd ref="123067531"/>
    <nd ref="15368077"/>
    <nd ref="33131204"/>
    <tag k="highway" v="primary"/>
    <tag k="name" v="Beach Boulevard"/>
    <tag k="oneway" v="yes"/>
    <tag k="ref" v="CA 39"/>
  </way>
  <way id="4991697" version="13" timestamp="2010-06-11T23:00:18Z" uid="239998" user="Sundance" changeset="4966634">
    <nd ref="128766958"/>
    <nd ref="25061643"/>
    <nd ref="123016259"/>
    <nd ref="122912161"/>
    <nd ref="122912156"/>
    <nd ref="122771742"/>
    <nd ref="25061917"/>
    <nd ref="26493066"/>
    <nd ref="128851761"/>
    <nd ref="597841508"/>
    <nd ref="122951286"/>
    <nd ref="597841199"/>
    <nd ref="25061911"/>
    <nd ref="597841206"/>
    <nd ref="25061871"/>
    <nd ref="597841197"/>
    <nd ref="769416665"/>
    <nd ref="122878403"/>
    <nd ref="597841181"/>
    <nd ref="122707003"/>
    <nd ref="123067513"/>
    <nd ref="114948214"/>
    <nd ref="122823407"/>
    <nd ref="114948203"/>
    <nd ref="122768935"/>
    <nd ref="122716435"/>
    <nd ref="123067531"/>
    <nd ref="15368077"/>
    <nd ref="33131204"/>
    <tag k="highway" v="primary"/>
    <tag k="name" v="Beach Boulevard"/>
    <tag k="oneway" v="yes"/>
    <tag k="ref" v="CA 39"/>
  </way>
  <way id="4991697" version="14" timestamp="2010-06-11T23:00:56Z" uid="239998" user="Sundance" changeset="4966634">
    <nd ref="128766958"/>
    <nd ref="25061643"/>
    <nd ref="123016259"/>
    <nd ref="122912161"/>
    <nd ref="122912156"/>
    <nd ref="122771742"/>
    <nd ref="25061917"/>
    <nd ref="26493066"/>
    <nd ref="128851761"/>
    <nd ref="597841508"/>
    <nd ref="122951286"/>
    <nd ref="597841199"/>
    <nd ref="25061911"/>
    <nd ref="597841206"/>
    <nd ref="25061871"/>
    <nd ref="597841197"/>
    <nd ref="769416665"/>
    <nd ref="122878403"/>
    <nd ref="597841181"/>
    <nd ref="122707003"/>
    <nd ref="123067513"/>
    <nd ref="114948214"/>
    <nd ref="122823407"/>
    <nd ref="114948203"/>
    <nd ref="122768935"/>
    <nd ref="122716435"/>
    <nd ref="123067531"/>
    <nd ref="15368077"/>
    <nd ref="33131204"/>
    <tag k="highway" v="primary"/>
    <tag k="name" v="Beach Boulevard"/>
    <tag k="oneway" v="yes"/>
    <tag k="operator" v="yes"/>
    <tag k="ref" v="CA 39"/>
  </way>
  <way id="4991697" version="15" timestamp="2010-06-11T23:01:12Z" uid="239998" user="Sundance" changeset="4966634">
    <nd ref="128766958"/>
    <nd ref="25061643"/>
    <nd ref="123016259"/>
    <nd ref="122912161"/>
    <nd ref="122912156"/>
    <nd ref="122771742"/>
    <nd ref="769417436"/>
    <nd ref="25061917"/>
    <nd ref="26493066"/>
    <nd ref="128851761"/>
    <nd ref="597841508"/>
    <nd ref="122951286"/>
    <nd ref="597841199"/>
    <nd ref="25061911"/>
    <nd ref="597841206"/>
    <nd ref="25061871"/>
    <nd ref="597841197"/>
    <nd ref="769416665"/>
    <nd ref="122878403"/>
    <nd ref="597841181"/>
    <nd ref="122707003"/>
    <nd ref="123067513"/>
    <nd ref="114948214"/>
    <nd ref="122823407"/>
    <nd ref="114948203"/>
    <nd ref="122768935"/>
    <nd ref="122716435"/>
    <nd ref="123067531"/>
    <nd ref="15368077"/>
    <nd ref="33131204"/>
    <tag k="highway" v="primary"/>
    <tag k="name" v="Beach Boulevard"/>
    <tag k="oneway" v="yes"/>
    <tag k="operator" v="yes"/>
    <tag k="ref" v="CA 39"/>
  </way>
  <way id="4991697" version="16" timestamp="2010-06-11T23:01:40Z" uid="239998" user="Sundance" changeset="4966634">
    <nd ref="128766958"/>
    <nd ref="25061643"/>
    <nd ref="123016259"/>
    <nd ref="122912161"/>
    <nd ref="122912156"/>
    <nd ref="769417441"/>
    <nd ref="122771742"/>
    <nd ref="769417436"/>
    <nd ref="25061917"/>
    <nd ref="26493066"/>
    <nd ref="128851761"/>
    <nd ref="597841508"/>
    <nd ref="122951286"/>
    <nd ref="597841199"/>
    <nd ref="25061911"/>
    <nd ref="597841206"/>
    <nd ref="25061871"/>
    <nd ref="597841197"/>
    <nd ref="769416665"/>
    <nd ref="122878403"/>
    <nd ref="597841181"/>
    <nd ref="122707003"/>
    <nd ref="123067513"/>
    <nd ref="114948214"/>
    <nd ref="122823407"/>
    <nd ref="114948203"/>
    <nd ref="122768935"/>
    <nd ref="122716435"/>
    <nd ref="123067531"/>
    <nd ref="15368077"/>
    <nd ref="33131204"/>
    <tag k="highway" v="primary"/>
    <tag k="name" v="Beach Boulevard"/>
    <tag k="oneway" v="yes"/>
    <tag k="operator" v="yes"/>
    <tag k="ref" v="CA 39"/>
  </way>
  <way id="4991697" version="17" timestamp="2010-06-11T23:01:55Z" uid="239998" user="Sundance" changeset="4966634">
    <nd ref="128766958"/>
    <nd ref="25061643"/>
    <nd ref="123016259"/>
    <nd ref="122912161"/>
    <nd ref="122912156"/>
    <nd ref="122771742"/>
    <nd ref="769417436"/>
    <nd ref="25061917"/>
    <nd ref="26493066"/>
    <nd ref="128851761"/>
    <nd ref="597841508"/>
    <nd ref="122951286"/>
    <nd ref="597841199"/>
    <nd ref="25061911"/>
    <nd ref="597841206"/>
    <nd ref="25061871"/>
    <nd ref="597841197"/>
    <nd ref="769416665"/>
    <nd ref="122878403"/>
    <nd ref="597841181"/>
    <nd ref="122707003"/>
    <nd ref="123067513"/>
    <nd ref="114948214"/>
    <nd ref="122823407"/>
    <nd ref="114948203"/>
    <nd ref="122768935"/>
    <nd ref="122716435"/>
    <nd ref="123067531"/>
    <nd ref="15368077"/>
    <nd ref="33131204"/>
    <tag k="highway" v="primary"/>
    <tag k="name" v="Beach Boulevard"/>
    <tag k="oneway" v="yes"/>
    <tag k="operator" v="yes"/>
    <tag k="ref" v="CA 39"/>
  </way>
  <way id="4991697" version="18" timestamp="2011-06-27T14:54:38Z" uid="473471" user="NE3" changeset="8562928">
    <nd ref="128766958"/>
    <nd ref="25061643"/>
    <nd ref="123016259"/>
    <nd ref="122912161"/>
    <nd ref="122912156"/>
    <nd ref="122771742"/>
    <nd ref="769417436"/>
    <nd ref="25061917"/>
    <nd ref="26493066"/>
    <nd ref="128851761"/>
    <nd ref="597841508"/>
    <nd ref="122951286"/>
    <nd ref="597841199"/>
    <nd ref="25061911"/>
    <nd ref="597841206"/>
    <nd ref="25061871"/>
    <nd ref="597841197"/>
    <nd ref="769416665"/>
    <nd ref="122878403"/>
    <nd ref="597841181"/>
    <nd ref="122707003"/>
    <nd ref="123067513"/>
    <nd ref="114948214"/>
    <nd ref="122823407"/>
    <nd ref="114948203"/>
    <nd ref="122768935"/>
    <nd ref="122716435"/>
    <nd ref="123067531"/>
    <nd ref="15368077"/>
    <nd ref="33131204"/>
    <tag k="highway" v="primary"/>
    <tag k="lanes" v="3"/>
    <tag k="name" v="Beach Boulevard"/>
    <tag k="oneway" v="yes"/>
    <tag k="operator" v="yes"/>
    <tag k="ref" v="CA 39"/>
  </way>
  <way id="4991697" version="19" timestamp="2011-08-14T07:34:21Z" uid="194231" user="Chris Bell in California" changeset="9012370">
    <nd ref="128766958"/>
    <nd ref="25061643"/>
    <nd ref="123016259"/>
    <nd ref="122912161"/>
    <nd ref="122912156"/>
    <nd ref="122771742"/>
    <nd ref="769417436"/>
    <nd ref="25061917"/>
    <nd ref="26493066"/>
    <nd ref="128851761"/>
    <nd ref="597841508"/>
    <nd ref="122951286"/>
    <nd ref="597841199"/>
    <nd ref="25061911"/>
    <nd ref="597841206"/>
    <nd ref="25061871"/>
    <nd ref="597841197"/>
    <nd ref="769416665"/>
    <nd ref="122878403"/>
    <nd ref="597841181"/>
    <nd ref="122707003"/>
    <nd ref="123067513"/>
    <nd ref="1398233736"/>
    <tag k="highway" v="primary"/>
    <tag k="lanes" v="3"/>
    <tag k="name" v="Beach Boulevard"/>
    <tag k="oneway" v="yes"/>
    <tag k="operator" v="yes"/>
    <tag k="ref" v="CA 39"/>
  </way>
  <way id="4991715" version="2" timestamp="2008-09-27T19:16:59Z" uid="20587" user="balrog-kun" changeset="706490">
    <nd ref="300412694"/>
    <nd ref="32892144"/>
    <nd ref="32892161"/>
    <tag k="created_by" v="JOSM"/>
    <tag k="highway" v="secondary"/>
  </way>
  <way id="4991715" version="3" timestamp="2009-09-24T08:17:55Z" uid="98542" user="wajak" changeset="2603222"/>
  <way id="4991746" version="8" timestamp="2010-07-09T20:55:37Z" uid="74617" user="JohnSmith" changeset="5176956">
    <nd ref="33131506"/>
    <nd ref="316171665"/>
    <nd ref="33131511"/>
    <nd ref="33131512"/>
    <nd ref="598766165"/>
    <nd ref="316170950"/>
    <nd ref="316171058"/>
    <nd ref="598617293"/>
    <nd ref="309373104"/>
    <nd ref="33131518"/>
    <tag k="highway" v="residential"/>
    <tag k="maxspeed" v="50"/>
    <tag k="maxspeed:source" v="default residential speed limit in Australia"/>
    <tag k="name" v="The Boulevard"/>
  </way>
  <way id="4991746" version="9" timestamp="2012-01-10T13:02:31Z" uid="142807" user="SDavies" changeset="10351107">
    <nd ref="33131506"/>
    <nd ref="316171665"/>
    <nd ref="33131511"/>
    <nd ref="33131512"/>
    <nd ref="598766165"/>
    <nd ref="316170950"/>
    <nd ref="316171058"/>
    <nd ref="598617293"/>
    <nd ref="309373104"/>
    <nd ref="33131518"/>
    <tag k="highway" v="tertiary"/>
    <tag k="maxspeed" v="50"/>
    <tag k="maxspeed:source" v="default residential speed limit in Australia"/>
    <tag k="name" v="The Boulevard"/>
  </way>
  <way id="4991746" version="10" timestamp="2012-01-15T04:19:52Z" uid="147510" user="woodpeck_fixbot" changeset="10394551">
    <nd ref="33131506"/>
    <nd ref="316171665"/>
    <nd ref="33131511"/>
    <nd ref="33131512"/>
    <nd ref="598766165"/>
    <nd ref="316170950"/>
    <nd ref="316171058"/>
    <nd ref="598617293"/>
    <nd ref="309373104"/>
    <nd ref="33131518"/>
    <tag k="highway" v="tertiary"/>
    <tag k="name" v="The Boulevard"/>
  </way>
  <way id="4991747" version="2" timestamp="2010-07-09T21:01:00Z" uid="74617" user="JohnSmith" changeset="5176956">
    <nd ref="33131520"/>
    <nd ref="33131522"/>
    <tag k="highway" v="residential"/>
    <tag k="maxspeed" v="50"/>
    <tag k="maxspeed:source" v="default residential speed limit in Australia"/>
    <tag k="name" v="The Boulevard"/>
  </way>
  <way id="4991747" version="3" timestamp="2012-01-10T13:02:32Z" uid="142807" user="SDavies" changeset="10351107">
    <nd ref="33131520"/>
    <nd ref="33131522"/>
    <tag k="highway" v="tertiary"/>
    <tag k="maxspeed" v="50"/>
    <tag k="maxspeed:source" v="default residential speed limit in Australia"/>
    <tag k="name" v="The Boulevard"/>
  </way>
  <way id="4991747" version="4" timestamp="2012-01-15T04:19:53Z" uid="147510" user="woodpeck_fixbot" changeset="10394551">
    <nd ref="33131520"/>
    <nd ref="33131522"/>
    <tag k="highway" v="tertiary"/>
    <tag k="name" v="The Boulevard"/>
  </way>
  <way id="4991748" version="3" timestamp="2010-07-09T21:08:48Z" uid="74617" user="JohnSmith" changeset="5176956">
    <nd ref="33131524"/>
    <nd ref="33131527"/>
    <tag k="highway" v="residential"/>
    <tag k="maxspeed" v="50"/>
    <tag k="maxspeed:source" v="default residential speed limit in Australia"/>
    <tag k="name" v="The Boulevard"/>
  </way>
  <way id="4991748" version="4" timestamp="2012-01-10T13:02:32Z" uid="142807" user="SDavies" changeset="10351107">
    <nd ref="33131524"/>
    <nd ref="33131527"/>
    <tag k="highway" v="tertiary"/>
    <tag k="maxspeed" v="50"/>
    <tag k="maxspeed:source" v="default residential speed limit in Australia"/>
    <tag k="name" v="The Boulevard"/>
  </way>
  <way id="4991748" version="5" timestamp="2012-01-15T04:19:54Z" uid="147510" user="woodpeck_fixbot" changeset="10394551">
    <nd ref="33131524"/>
    <nd ref="33131527"/>
    <tag k="highway" v="tertiary"/>
    <tag k="name" v="The Boulevard"/>
  </way>
  <way id="4991751" version="5" timestamp="2010-07-09T21:04:01Z" uid="74617" user="JohnSmith" changeset="5176956">
    <nd ref="695058447"/>
    <nd ref="695058448"/>
    <nd ref="695058449"/>
    <nd ref="33131518"/>
    <nd ref="695058450"/>
    <nd ref="695058451"/>
    <nd ref="695058452"/>
    <nd ref="33131520"/>
    <nd ref="695058447"/>
    <tag k="highway" v="residential"/>
    <tag k="junction" v="roundabout"/>
    <tag k="maxspeed" v="50"/>
    <tag k="maxspeed:source" v="default residential speed limit in Australia"/>
    <tag k="name" v="The Boulevard"/>
  </way>
  <way id="4991751" version="6" timestamp="2012-01-10T13:02:32Z" uid="142807" user="SDavies" changeset="10351107">
    <nd ref="695058447"/>
    <nd ref="695058448"/>
    <nd ref="695058449"/>
    <nd ref="33131518"/>
    <nd ref="695058450"/>
    <nd ref="695058451"/>
    <nd ref="695058452"/>
    <nd ref="33131520"/>
    <nd ref="695058447"/>
    <tag k="highway" v="tertiary"/>
    <tag k="junction" v="roundabout"/>
    <tag k="maxspeed" v="50"/>
    <tag k="maxspeed:source" v="default residential speed limit in Australia"/>
    <tag k="name" v="The Boulevard"/>
  </way>
  <way id="4991751" version="7" timestamp="2012-01-15T04:19:55Z" uid="147510" user="woodpeck_fixbot" changeset="10394551">
    <nd ref="695058447"/>
    <nd ref="695058448"/>
    <nd ref="695058449"/>
    <nd ref="33131518"/>
    <nd ref="695058450"/>
    <nd ref="695058451"/>
    <nd ref="695058452"/>
    <nd ref="33131520"/>
    <nd ref="695058447"/>
    <tag k="highway" v="tertiary"/>
    <tag k="junction" v="roundabout"/>
    <tag k="name" v="The Boulevard"/>
  </way>
  <way id="4991752" version="4" timestamp="2010-07-09T21:12:46Z" uid="74617" user="JohnSmith" changeset="5176956">
    <nd ref="695058453"/>
    <nd ref="695058454"/>
    <nd ref="695058455"/>
    <nd ref="33131522"/>
    <nd ref="695058456"/>
    <nd ref="695058457"/>
    <nd ref="695058458"/>
    <nd ref="33131524"/>
    <nd ref="695058453"/>
    <tag k="highway" v="residential"/>
    <tag k="junction" v="roundabout"/>
    <tag k="maxspeed" v="50"/>
    <tag k="maxspeed:source" v="default residential speed limit in Australia"/>
    <tag k="name" v="The Boulevard"/>
  </way>
  <way id="4991752" version="5" timestamp="2012-01-10T13:02:33Z" uid="142807" user="SDavies" changeset="10351107">
    <nd ref="695058453"/>
    <nd ref="695058454"/>
    <nd ref="695058455"/>
    <nd ref="33131522"/>
    <nd ref="695058456"/>
    <nd ref="695058457"/>
    <nd ref="695058458"/>
    <nd ref="33131524"/>
    <nd ref="695058453"/>
    <tag k="highway" v="tertiary"/>
    <tag k="junction" v="roundabout"/>
    <tag k="maxspeed" v="50"/>
    <tag k="maxspeed:source" v="default residential speed limit in Australia"/>
    <tag k="name" v="The Boulevard"/>
  </way>
  <way id="4991752" version="6" timestamp="2012-01-15T04:19:58Z" uid="147510" user="woodpeck_fixbot" changeset="10394551">
    <nd ref="695058453"/>
    <nd ref="695058454"/>
    <nd ref="695058455"/>
    <nd ref="33131522"/>
    <nd ref="695058456"/>
    <nd ref="695058457"/>
    <nd ref="695058458"/>
    <nd ref="33131524"/>
    <nd ref="695058453"/>
    <tag k="highway" v="tertiary"/>
    <tag k="junction" v="roundabout"/>
    <tag k="name" v="The Boulevard"/>
  </way>
  <way id="4991753" version="9" timestamp="2010-07-09T20:54:33Z" uid="74617" user="JohnSmith" changeset="5176956">
    <nd ref="33131529"/>
    <nd ref="567770321"/>
    <tag k="highway" v="residential"/>
    <tag k="maxspeed" v="50"/>
    <tag k="maxspeed:source" v="default residential speed limit in Australia"/>
    <tag k="name" v="Landra Gardens"/>
  </way>
  <way id="4991753" version="10" timestamp="2012-01-10T13:02:35Z" uid="142807" user="SDavies" changeset="10351107">
    <nd ref="33131529"/>
    <nd ref="567770321"/>
    <tag k="highway" v="tertiary"/>
    <tag k="maxspeed" v="50"/>
    <tag k="maxspeed:source" v="default residential speed limit in Australia"/>
    <tag k="name" v="Landra Gardens"/>
  </way>
  <way id="4991753" version="11" timestamp="2012-01-15T04:20:00Z" uid="147510" user="woodpeck_fixbot" changeset="10394551">
    <nd ref="33131529"/>
    <nd ref="567770321"/>
    <tag k="highway" v="tertiary"/>
    <tag k="name" v="Landra Gardens"/>
  </way>
  <way id="4991754" version="5" timestamp="2010-07-09T21:02:42Z" uid="74617" user="JohnSmith" changeset="5176956">
    <nd ref="33131505"/>
    <nd ref="567770095"/>
    <tag k="highway" v="residential"/>
    <tag k="maxspeed" v="50"/>
    <tag k="maxspeed:source" v="default residential speed limit in Australia"/>
    <tag k="name" v="Chipping Road"/>
  </way>
  <way id="4991754" version="6" timestamp="2012-01-10T13:02:33Z" uid="142807" user="SDavies" changeset="10351107">
    <nd ref="33131505"/>
    <nd ref="567770095"/>
    <tag k="highway" v="tertiary"/>
    <tag k="maxspeed" v="50"/>
    <tag k="maxspeed:source" v="default residential speed limit in Australia"/>
    <tag k="name" v="Chipping Road"/>
  </way>
  <way id="4991754" version="7" timestamp="2012-01-15T04:20:01Z" uid="147510" user="woodpeck_fixbot" changeset="10394551">
    <nd ref="33131505"/>
    <nd ref="567770095"/>
    <tag k="highway" v="tertiary"/>
    <tag k="name" v="Chipping Road"/>
  </way>
  <way id="4991755" version="6" timestamp="2010-07-09T21:07:29Z" uid="74617" user="JohnSmith" changeset="5176956">
    <nd ref="598788254"/>
    <nd ref="567770223"/>
    <nd ref="33131531"/>
    <nd ref="33131532"/>
    <nd ref="316170830"/>
    <nd ref="316171119"/>
    <nd ref="567770127"/>
    <nd ref="33131534"/>
    <nd ref="33131535"/>
    <nd ref="33131536"/>
    <nd ref="316171192"/>
    <nd ref="598766197"/>
    <nd ref="33131537"/>
    <nd ref="33131538"/>
    <nd ref="33131539"/>
    <nd ref="33131540"/>
    <nd ref="33131541"/>
    <nd ref="33131506"/>
    <tag k="highway" v="residential"/>
    <tag k="maxspeed" v="50"/>
    <tag k="maxspeed:source" v="default residential speed limit in Australia"/>
    <tag k="name" v="Chipping Road"/>
  </way>
  <way id="4991755" version="7" timestamp="2012-01-10T13:02:34Z" uid="142807" user="SDavies" changeset="10351107">
    <nd ref="598788254"/>
    <nd ref="567770223"/>
    <nd ref="33131531"/>
    <nd ref="33131532"/>
    <nd ref="316170830"/>
    <nd ref="316171119"/>
    <nd ref="567770127"/>
    <nd ref="33131534"/>
    <nd ref="33131535"/>
    <nd ref="33131536"/>
    <nd ref="316171192"/>
    <nd ref="598766197"/>
    <nd ref="33131537"/>
    <nd ref="33131538"/>
    <nd ref="33131539"/>
    <nd ref="33131540"/>
    <nd ref="33131541"/>
    <nd ref="33131506"/>
    <tag k="highway" v="tertiary"/>
    <tag k="maxspeed" v="50"/>
    <tag k="maxspeed:source" v="default residential speed limit in Australia"/>
    <tag k="name" v="Chipping Road"/>
  </way>
  <way id="4991755" version="8" timestamp="2012-01-15T04:20:02Z" uid="147510" user="woodpeck_fixbot" changeset="10394551">
    <nd ref="598788254"/>
    <nd ref="567770223"/>
    <nd ref="33131531"/>
    <nd ref="33131532"/>
    <nd ref="316170830"/>
    <nd ref="316171119"/>
    <nd ref="567770127"/>
    <nd ref="33131534"/>
    <nd ref="33131535"/>
    <nd ref="33131536"/>
    <nd ref="316171192"/>
    <nd ref="598766197"/>
    <nd ref="33131537"/>
    <nd ref="33131538"/>
    <nd ref="33131539"/>
    <nd ref="33131540"/>
    <nd ref="33131541"/>
    <nd ref="33131506"/>
    <tag k="highway" v="tertiary"/>
    <tag k="name" v="Chipping Road"/>
  </way>
  <way id="4991756" version="7" timestamp="2010-07-09T20:52:47Z" uid="74617" user="JohnSmith" changeset="5176956">
    <nd ref="598788258"/>
    <nd ref="598788255"/>
    <nd ref="598788251"/>
    <nd ref="598788254"/>
    <nd ref="598788252"/>
    <nd ref="598788253"/>
    <nd ref="598788256"/>
    <nd ref="598788257"/>
    <nd ref="598788258"/>
    <tag k="highway" v="residential"/>
    <tag k="junction" v="roundabout"/>
    <tag k="maxspeed" v="50"/>
    <tag k="maxspeed:source" v="default residential speed limit in Australia"/>
    <tag k="name" v="Chipping Road"/>
  </way>
  <way id="4991756" version="8" timestamp="2012-01-10T13:02:34Z" uid="142807" user="SDavies" changeset="10351107">
    <nd ref="598788258"/>
    <nd ref="598788255"/>
    <nd ref="598788251"/>
    <nd ref="598788254"/>
    <nd ref="598788252"/>
    <nd ref="598788253"/>
    <nd ref="598788256"/>
    <nd ref="598788257"/>
    <nd ref="598788258"/>
    <tag k="highway" v="tertiary"/>
    <tag k="junction" v="roundabout"/>
    <tag k="maxspeed" v="50"/>
    <tag k="maxspeed:source" v="default residential speed limit in Australia"/>
    <tag k="name" v="Chipping Road"/>
  </way>
  <way id="4991756" version="9" timestamp="2012-01-15T04:20:04Z" uid="147510" user="woodpeck_fixbot" changeset="10394551">
    <nd ref="598788258"/>
    <nd ref="598788255"/>
    <nd ref="598788251"/>
    <nd ref="598788254"/>
    <nd ref="598788252"/>
    <nd ref="598788253"/>
    <nd ref="598788256"/>
    <nd ref="598788257"/>
    <nd ref="598788258"/>
    <tag k="highway" v="tertiary"/>
    <tag k="junction" v="roundabout"/>
    <tag k="name" v="Chipping Road"/>
  </way>
  <way id="4991758" version="3" timestamp="2010-07-09T21:06:12Z" uid="74617" user="JohnSmith" changeset="5176956">
    <nd ref="33131561"/>
    <nd ref="33131563"/>
    <nd ref="33131565"/>
    <nd ref="33131566"/>
    <nd ref="33131567"/>
    <nd ref="33131568"/>
    <nd ref="33131573"/>
    <nd ref="33131569"/>
    <nd ref="33131570"/>
    <nd ref="33131571"/>
    <nd ref="33131572"/>
    <nd ref="33131562"/>
    <tag k="highway" v="residential"/>
    <tag k="maxspeed" v="50"/>
    <tag k="maxspeed:source" v="default residential speed limit in Australia"/>
    <tag k="name" v="Kinkuna Way"/>
  </way>
  <way id="4991758" version="4" timestamp="2012-01-15T04:20:05Z" uid="147510" user="woodpeck_fixbot" changeset="10394551">
    <nd ref="33131561"/>
    <nd ref="33131563"/>
    <nd ref="33131565"/>
    <nd ref="33131566"/>
    <nd ref="33131567"/>
    <nd ref="33131568"/>
    <nd ref="33131573"/>
    <nd ref="33131569"/>
    <nd ref="33131570"/>
    <nd ref="33131571"/>
    <nd ref="33131572"/>
    <nd ref="33131562"/>
    <tag k="highway" v="residential"/>
    <tag k="name" v="Kinkuna Way"/>
  </way>
  <way id="4991152" version="3" timestamp="2012-07-17T10:17:54Z" uid="722137" user="OSMF Redaction Account" changeset="12262781"/>
  <way id="4991694" version="7" timestamp="2012-04-11T09:36:44Z" uid="315015" user="WernerP" changeset="11262691"/>
  <way id="4991695" version="5" timestamp="2012-04-11T09:36:45Z" uid="315015" user="WernerP" changeset="11262691"/>
  <way id="4991696" version="7" timestamp="2012-04-11T18:04:53Z" uid="315015" user="WernerP" changeset="11268083"/>
  <way id="4991697" version="20" timestamp="2012-04-11T17:45:56Z" uid="315015" user="WernerP" changeset="11267875">
    <nd ref="128766958"/>
    <nd ref="25061643"/>
    <nd ref="123016259"/>
    <nd ref="122912161"/>
    <nd ref="122912156"/>
    <nd ref="122771742"/>
    <nd ref="769417436"/>
    <nd ref="1711734651"/>
    <tag k="highway" v="primary"/>
    <tag k="lanes" v="3"/>
    <tag k="name" v="Beach Boulevard"/>
    <tag k="oneway" v="yes"/>
    <tag k="operator" v="yes"/>
    <tag k="ref" v="CA 39"/>
  </way>
  <way id="4991697" version="21" timestamp="2012-07-19T00:00:45Z" uid="722137" user="OSMF Redaction Account" changeset="12301992">
    <nd ref="25061643"/>
    <nd ref="123016259"/>
    <nd ref="122912161"/>
    <nd ref="122912156"/>
    <nd ref="122771742"/>
    <nd ref="769417436"/>
    <nd ref="1711734651"/>
    <tag k="highway" v="primary"/>
    <tag k="lanes" v="3"/>
    <tag k="name" v="Beach Boulevard"/>
    <tag k="oneway" v="yes"/>
    <tag k="operator" v="yes"/>
    <tag k="ref" v="CA 39"/>
  </way>
  <way id="4991697" version="22" timestamp="2012-07-19T01:11:21Z" uid="722137" user="OSMF Redaction Account" changeset="12303341">
    <nd ref="769417436"/>
    <nd ref="1711734651"/>
    <tag k="lanes" v="3"/>
    <tag k="oneway" v="yes"/>
    <tag k="operator" v="yes"/>
  </way>
  <way id="4991697" version="23" timestamp="2012-08-24T05:20:08Z" uid="262151" user="ToeBee" changeset="12840540">
    <nd ref="769417436"/>
    <nd ref="1711734651"/>
    <nd ref="1711734611"/>
    <nd ref="1711734598"/>
    <nd ref="1880359671"/>
    <nd ref="1711734466"/>
    <nd ref="1711734352"/>
    <nd ref="122951286"/>
    <nd ref="1711734289"/>
    <nd ref="1711734193"/>
    <nd ref="1711734088"/>
    <nd ref="1711734068"/>
    <nd ref="1711734051"/>
    <nd ref="1711734039"/>
    <nd ref="122878403"/>
    <nd ref="1711733995"/>
    <nd ref="122707003"/>
    <nd ref="123067513"/>
    <nd ref="1398233736"/>
    <tag k="highway" v="primary"/>
    <tag k="lanes" v="3"/>
    <tag k="name" v="Beach Boulevard"/>
    <tag k="oneway" v="yes"/>
    <tag k="operator" v="yes"/>
    <tag k="ref" v="CA 39"/>
  </way>
  <way id="4991746" version="11" timestamp="2012-07-19T13:00:51Z" uid="722137" user="OSMF Redaction Account" changeset="12327611">
    <nd ref="33131506"/>
    <nd ref="316171665"/>
    <nd ref="33131511"/>
    <nd ref="33131512"/>
    <nd ref="598766165"/>
    <nd ref="316170950"/>
    <nd ref="316171058"/>
    <nd ref="598617293"/>
    <nd ref="33131518"/>
    <tag k="highway" v="tertiary"/>
    <tag k="name" v="The Boulevard"/>
  </way>
  <way id="4991746" version="12" timestamp="2012-08-27T22:09:14Z" uid="418724" user="wintersportler" changeset="12885710">
    <nd ref="33131506"/>
    <nd ref="316171665"/>
    <nd ref="33131511"/>
    <nd ref="33131512"/>
    <nd ref="598766165"/>
    <nd ref="316170950"/>
    <nd ref="316171058"/>
    <nd ref="598617293"/>
    <nd ref="1886045752"/>
    <nd ref="33131518"/>
    <tag k="highway" v="tertiary"/>
    <tag k="name" v="The Boulevard"/>
  </way>
  <way id="4991753" version="12" timestamp="2012-07-19T13:02:15Z" uid="722137" user="OSMF Redaction Account" changeset="12327611">
    <nd ref="33131529"/>
    <nd ref="567770321"/>
    <tag k="highway" v="tertiary"/>
  </way>
  <way id="4991753" version="13" timestamp="2012-08-23T22:00:46Z" uid="418724" user="wintersportler" changeset="12838726">
    <nd ref="33131529"/>
    <nd ref="567770321"/>
    <tag k="fixme" v="name"/>
    <tag k="highway" v="tertiary"/>
  </way>
</osm>
