<?xml version='1.0' encoding='UTF-8'?>
<osm version="0.6" generator="libosmium/2.20.0">
  <way id="49996062" version="3" timestamp="2011-01-25T12:24:29Z" uid="6269" user="Mueck" changeset="7083051"/>
  <way id="49996064" version="4" timestamp="2011-01-24T15:46:31Z" uid="6269" user="Mueck" changeset="7073890">
    <nd ref="660530504"/>
    <nd ref="469709256"/>
    <nd ref="1118812410"/>
    <nd ref="1118812460"/>
    <nd ref="1118812440"/>
    <nd ref="14852012"/>
    <tag k="highway" v="secondary"/>
    <tag k="name" v="Ebertstraße"/>
    <tag k="note" v="im SHP des NVK: II"/>
    <tag k="oneway" v="yes"/>
  </way>
  <way id="49996064" version="5" timestamp="2011-10-26T12:57:06Z" uid="165061" user="keinname" changeset="9659867">
    <nd ref="1272878573"/>
    <nd ref="1228104633"/>
    <nd ref="25297221"/>
    <nd ref="1118812462"/>
    <nd ref="14852008"/>
    <nd ref="25297497"/>
    <nd ref="660530504"/>
    <nd ref="1481221280"/>
    <nd ref="469709256"/>
    <nd ref="1118812410"/>
    <nd ref="1118812460"/>
    <nd ref="1118812440"/>
    <nd ref="14852012"/>
    <tag k="highway" v="secondary"/>
    <tag k="lanes" v="2"/>
    <tag k="name" v="Ebertstraße"/>
    <tag k="note" v="im SHP des NVK: II"/>
    <tag k="oneway" v="yes"/>
  </way>
  <way id="49996064" version="6" timestamp="2011-11-17T13:51:34Z" uid="165061" user="keinname" changeset="9853901">
    <nd ref="1272878573"/>
    <nd ref="1228104633"/>
    <nd ref="25297221"/>
    <nd ref="1118812462"/>
    <nd ref="14852008"/>
    <nd ref="25297497"/>
    <nd ref="660530504"/>
    <tag k="highway" v="secondary"/>
    <tag k="lanes" v="2"/>
    <tag k="name" v="Ebertstraße"/>
    <tag k="note" v="im SHP des NVK: II"/>
    <tag k="oneway" v="yes"/>
  </way>
  <way id="49996064" version="7" timestamp="2012-01-22T02:22:11Z" uid="5164" user="woodpeck" changeset="10461485">
    <nd ref="1272878573"/>
    <nd ref="1600680336"/>
    <nd ref="25297221"/>
    <nd ref="1118812462"/>
    <nd ref="14852008"/>
    <nd ref="25297497"/>
    <nd ref="660530504"/>
    <tag k="highway" v="secondary"/>
    <tag k="lanes" v="2"/>
    <tag k="name" v="Ebertstraße"/>
    <tag k="note" v="im SHP des NVK: II"/>
    <tag k="oneway" v="yes"/>
  </way>
  <way id="49996064" version="8" timestamp="2012-01-24T22:40:04Z" uid="165061" user="keinname" changeset="10489274">
    <nd ref="1272878573"/>
    <nd ref="1600680336"/>
    <nd ref="25297221"/>
    <nd ref="1118812462"/>
    <nd ref="14852008"/>
    <nd ref="25297497"/>
    <nd ref="660530504"/>
    <tag k="highway" v="secondary"/>
    <tag k="lanes" v="2"/>
    <tag k="maxspeed" v="50"/>
    <tag k="name" v="Ebertstraße"/>
    <tag k="note" v="im SHP des NVK: II"/>
    <tag k="oneway" v="yes"/>
  </way>
  <way id="49996067" version="2" timestamp="2011-04-01T01:26:04Z" uid="6269" user="Mueck" changeset="7731388">
    <nd ref="14796403"/>
    <nd ref="14963408"/>
    <nd ref="16572265"/>
    <nd ref="28412208"/>
    <nd ref="14961500"/>
    <nd ref="28412210"/>
    <nd ref="14963329"/>
    <nd ref="29050365"/>
    <nd ref="29050366"/>
    <nd ref="1227403896"/>
    <nd ref="29050374"/>
    <nd ref="28838103"/>
    <nd ref="28901011"/>
    <nd ref="14963169"/>
    <tag k="highway" v="tertiary"/>
    <tag k="name" v="Steinhäuserstraße"/>
    <tag k="note" v="im SHP des NVK: III"/>
  </way>
  <way id="49996067" version="3" timestamp="2012-03-29T11:28:24Z" uid="35468" user="Blunauer" changeset="11136997">
    <nd ref="14796403"/>
    <nd ref="14963408"/>
    <nd ref="16572265"/>
    <nd ref="1696042404"/>
    <nd ref="1696042399"/>
    <nd ref="1696042393"/>
    <nd ref="14963329"/>
    <nd ref="29050365"/>
    <nd ref="29050366"/>
    <nd ref="1696042295"/>
    <nd ref="29050374"/>
    <nd ref="28838103"/>
    <nd ref="1696042277"/>
    <nd ref="14963169"/>
    <tag k="highway" v="tertiary"/>
    <tag k="name" v="Steinhäuserstraße"/>
    <tag k="note" v="im SHP des NVK: III"/>
  </way>
  <way id="49996067" version="4" timestamp="2012-03-30T11:30:12Z" uid="35468" user="Blunauer" changeset="11152106">
    <nd ref="14796403"/>
    <nd ref="1697653352"/>
    <nd ref="16572265"/>
    <nd ref="1696042404"/>
    <nd ref="1696042399"/>
    <nd ref="1696042393"/>
    <nd ref="1697653346"/>
    <nd ref="29050365"/>
    <nd ref="29050366"/>
    <nd ref="1696042295"/>
    <nd ref="29050374"/>
    <nd ref="28838103"/>
    <nd ref="1696042277"/>
    <nd ref="14963169"/>
    <tag k="highway" v="tertiary"/>
    <tag k="name" v="Steinhäuserstraße"/>
    <tag k="note" v="im SHP des NVK: III"/>
  </way>
  <way id="49996070" version="6" timestamp="2011-01-24T15:25:02Z" uid="6269" user="Mueck" changeset="7073890">
    <nd ref="635041058"/>
    <nd ref="420673190"/>
    <nd ref="762453468"/>
    <nd ref="839699610"/>
    <nd ref="469709259"/>
    <nd ref="659914135"/>
    <nd ref="659914139"/>
    <nd ref="247390828"/>
    <nd ref="659914152"/>
    <nd ref="14961495"/>
    <tag k="highway" v="secondary"/>
    <tag k="name" v="Ebertstraße"/>
    <tag k="note" v="im SHP des NVK: II"/>
    <tag k="oneway" v="yes"/>
  </way>
  <way id="49996070" version="7" timestamp="2011-01-24T15:46:32Z" uid="6269" user="Mueck" changeset="7073890">
    <nd ref="635041058"/>
    <nd ref="1118812414"/>
    <nd ref="420673190"/>
    <nd ref="762453468"/>
    <nd ref="839699610"/>
    <nd ref="469709259"/>
    <nd ref="659914135"/>
    <nd ref="659914139"/>
    <nd ref="247390828"/>
    <nd ref="659914152"/>
    <nd ref="14961495"/>
    <tag k="highway" v="secondary"/>
    <tag k="name" v="Ebertstraße"/>
    <tag k="note" v="im SHP des NVK: II"/>
    <tag k="oneway" v="yes"/>
  </way>
  <way id="49996070" version="8" timestamp="2011-04-01T17:32:41Z" uid="6269" user="Mueck" changeset="7737379">
    <nd ref="635041058"/>
    <nd ref="1118812414"/>
    <nd ref="420673190"/>
    <nd ref="762453468"/>
    <nd ref="839699610"/>
    <nd ref="469709259"/>
    <nd ref="659914135"/>
    <nd ref="659914139"/>
    <nd ref="247390828"/>
    <nd ref="659914152"/>
    <nd ref="1228104603"/>
    <nd ref="14961495"/>
    <tag k="highway" v="secondary"/>
    <tag k="name" v="Ebertstraße"/>
    <tag k="note" v="im SHP des NVK: II"/>
    <tag k="oneway" v="yes"/>
  </way>
  <way id="49996070" version="9" timestamp="2011-05-05T08:13:25Z" uid="165061" user="keinname" changeset="8055243">
    <nd ref="635041058"/>
    <nd ref="1118812414"/>
    <nd ref="420673190"/>
    <nd ref="762453468"/>
    <nd ref="839699610"/>
    <nd ref="469709259"/>
    <nd ref="659914135"/>
    <nd ref="659914139"/>
    <nd ref="247390828"/>
    <nd ref="659914152"/>
    <nd ref="1272878541"/>
    <nd ref="1228104603"/>
    <nd ref="1272878466"/>
    <tag k="highway" v="secondary"/>
    <tag k="name" v="Ebertstraße"/>
    <tag k="note" v="im SHP des NVK: II"/>
    <tag k="oneway" v="yes"/>
  </way>
  <way id="49996070" version="10" timestamp="2011-10-24T21:35:04Z" uid="165061" user="keinname" changeset="9647879">
    <nd ref="635041058"/>
    <nd ref="1118812414"/>
    <nd ref="420673190"/>
    <tag k="highway" v="secondary"/>
    <tag k="lanes" v="2"/>
    <tag k="lanes:through" v="2"/>
    <tag k="lanes:turnright" v="1"/>
    <tag k="name" v="Ebertstraße"/>
    <tag k="note" v="im SHP des NVK: II"/>
    <tag k="oneway" v="yes"/>
  </way>
  <way id="49996070" version="11" timestamp="2012-01-24T22:40:02Z" uid="165061" user="keinname" changeset="10489274">
    <nd ref="635041058"/>
    <nd ref="1118812414"/>
    <nd ref="420673190"/>
    <tag k="highway" v="secondary"/>
    <tag k="lanes" v="2"/>
    <tag k="lanes:through" v="2"/>
    <tag k="lanes:turnright" v="1"/>
    <tag k="maxspeed" v="50"/>
    <tag k="name" v="Ebertstraße"/>
    <tag k="note" v="im SHP des NVK: II"/>
    <tag k="oneway" v="yes"/>
  </way>
  <way id="49996072" version="3" timestamp="2011-01-24T15:46:32Z" uid="6269" user="Mueck" changeset="7073890">
    <nd ref="635041060"/>
    <nd ref="1118812481"/>
    <nd ref="635041063"/>
    <tag k="bench" v="yes"/>
    <tag k="bin" v="yes"/>
    <tag k="bus" v="yes"/>
    <tag k="name" v="Ebertstraße"/>
    <tag k="public_transport" v="platform"/>
    <tag k="railway" v="platform"/>
    <tag k="shelter" v="yes"/>
    <tag k="tram" v="yes"/>
  </way>
  <way id="49996072" version="4" timestamp="2012-01-24T22:40:01Z" uid="165061" user="keinname" changeset="10489274">
    <nd ref="635041060"/>
    <nd ref="1118812481"/>
    <nd ref="635041063"/>
    <tag k="bench" v="yes"/>
    <tag k="bin" v="yes"/>
    <tag k="bus" v="yes"/>
    <tag k="name" v="Ebertstraße"/>
    <tag k="public_transport" v="platform"/>
    <tag k="railway" v="platform"/>
    <tag k="shelter" v="yes"/>
    <tag k="tactile_paving" v="no"/>
    <tag k="tram" v="yes"/>
  </way>
  <way id="49996074" version="3" timestamp="2011-01-24T15:46:32Z" uid="6269" user="Mueck" changeset="7073890">
    <nd ref="1118812459"/>
    <nd ref="635041061"/>
    <nd ref="1118812538"/>
    <nd ref="635041064"/>
    <tag k="bench" v="yes"/>
    <tag k="bin" v="yes"/>
    <tag k="bus" v="yes"/>
    <tag k="name" v="Ebertstraße"/>
    <tag k="public_transport" v="platform"/>
    <tag k="railway" v="platform"/>
    <tag k="shelter" v="yes"/>
    <tag k="tram" v="yes"/>
  </way>
  <way id="49996074" version="4" timestamp="2012-01-22T02:22:10Z" uid="5164" user="woodpeck" changeset="10461485">
    <nd ref="1600680338"/>
    <nd ref="635041061"/>
    <nd ref="1118812538"/>
    <nd ref="635041064"/>
    <tag k="bench" v="yes"/>
    <tag k="bin" v="yes"/>
    <tag k="bus" v="yes"/>
    <tag k="name" v="Ebertstraße"/>
    <tag k="public_transport" v="platform"/>
    <tag k="railway" v="platform"/>
    <tag k="shelter" v="yes"/>
    <tag k="tram" v="yes"/>
  </way>
  <way id="49996074" version="5" timestamp="2012-01-24T22:40:03Z" uid="165061" user="keinname" changeset="10489274">
    <nd ref="1600680338"/>
    <nd ref="635041061"/>
    <nd ref="1118812538"/>
    <nd ref="635041064"/>
    <tag k="bench" v="yes"/>
    <tag k="bin" v="yes"/>
    <tag k="bus" v="yes"/>
    <tag k="name" v="Ebertstraße"/>
    <tag k="public_transport" v="platform"/>
    <tag k="railway" v="platform"/>
    <tag k="shelter" v="yes"/>
    <tag k="tactile_paving" v="no"/>
    <tag k="tram" v="yes"/>
  </way>
  <way id="49996082" version="2" timestamp="2011-01-25T12:24:02Z" uid="6269" user="Mueck" changeset="7083051"/>
  <way id="49996083" version="2" timestamp="2011-01-25T11:59:21Z" uid="6269" user="Mueck" changeset="7082885">
    <nd ref="14796440"/>
    <nd ref="14796452"/>
    <nd ref="1119819055"/>
    <nd ref="1119819033"/>
    <nd ref="14852020"/>
    <tag k="highway" v="secondary"/>
    <tag k="name" v="Karlstraße"/>
    <tag k="note" v="im SHP des NVK: III, Verkehrsstärke 1996 spricht aber für II"/>
  </way>
  <way id="49996083" version="3" timestamp="2012-01-12T22:41:56Z" uid="5164" user="woodpeck" changeset="10374443"/>
  <way id="49996085" version="4" timestamp="2010-04-22T16:27:20Z" uid="6269" user="Mueck" changeset="4496332">
    <nd ref="15520042"/>
    <nd ref="26043060"/>
    <nd ref="15848807"/>
    <nd ref="15848804"/>
    <tag k="highway" v="primary"/>
    <tag k="motorroad" v="no"/>
    <tag k="name" v="Kriegsstraße"/>
    <tag k="oneway" v="yes"/>
    <tag k="ref" v="B 10"/>
  </way>
  <way id="49996085" version="5" timestamp="2011-01-30T13:03:46Z" uid="6269" user="Mueck" changeset="7133406">
    <nd ref="15520042"/>
    <nd ref="1127895603"/>
    <nd ref="1127895610"/>
    <nd ref="26043060"/>
    <nd ref="15848807"/>
    <nd ref="15848804"/>
    <tag k="highway" v="primary"/>
    <tag k="motorroad" v="no"/>
    <tag k="name" v="Kriegsstraße"/>
    <tag k="oneway" v="yes"/>
    <tag k="ref" v="B 10"/>
  </way>
  <way id="49996085" version="6" timestamp="2011-02-04T21:47:09Z" uid="13712" user="TimG" changeset="7187639">
    <nd ref="15520042"/>
    <nd ref="1127895603"/>
    <nd ref="1127895593"/>
    <nd ref="26043060"/>
    <nd ref="15848807"/>
    <nd ref="15848804"/>
    <tag k="highway" v="primary"/>
    <tag k="motorroad" v="no"/>
    <tag k="name" v="Kriegsstraße"/>
    <tag k="oneway" v="yes"/>
    <tag k="ref" v="B 10"/>
  </way>
  <way id="49996085" version="7" timestamp="2011-10-10T16:48:51Z" uid="4499" user="Jochen Topf" changeset="9523441">
    <nd ref="15520042"/>
    <nd ref="1127895603"/>
    <nd ref="1127895593"/>
    <nd ref="26043060"/>
    <nd ref="15848807"/>
    <nd ref="15848804"/>
    <tag k="highway" v="primary"/>
    <tag k="motorroad" v="no"/>
    <tag k="name" v="Kriegsstraße"/>
    <tag k="oneway" v="yes"/>
    <tag k="ref" v="B 10"/>
    <tag k="tmc" v="DE:30888-52533"/>
  </way>
  <way id="49996085" version="8" timestamp="2011-10-13T15:33:31Z" uid="4499" user="Jochen Topf" changeset="9548199">
    <nd ref="15520042"/>
    <nd ref="1127895603"/>
    <nd ref="1127895593"/>
    <nd ref="26043060"/>
    <nd ref="15848807"/>
    <nd ref="15848804"/>
    <tag k="highway" v="primary"/>
    <tag k="motorroad" v="no"/>
    <tag k="name" v="Kriegsstraße"/>
    <tag k="oneway" v="yes"/>
    <tag k="ref" v="B 10"/>
    <tag k="tmc" v="DE:52533+30888"/>
  </way>
  <way id="49996085" version="9" timestamp="2012-02-10T09:14:01Z" uid="165061" user="keinname" changeset="10641442">
    <nd ref="15520042"/>
    <nd ref="1127895603"/>
    <nd ref="1127895593"/>
    <nd ref="26043060"/>
    <nd ref="15848807"/>
    <nd ref="15848804"/>
    <tag k="highway" v="primary"/>
    <tag k="lanes" v="2"/>
    <tag k="motorroad" v="no"/>
    <tag k="name" v="Kriegsstraße"/>
    <tag k="oneway" v="yes"/>
    <tag k="ref" v="B 10"/>
    <tag k="tmc" v="DE:52533+30888"/>
  </way>
  <way id="49996085" version="10" timestamp="2012-02-18T18:20:59Z" uid="60137" user="michael2402" changeset="10722878">
    <nd ref="15520042"/>
    <nd ref="1127895593"/>
    <nd ref="1637995899"/>
    <nd ref="1637995900"/>
    <nd ref="15848807"/>
    <nd ref="15848804"/>
    <tag k="highway" v="primary"/>
    <tag k="lanes" v="2"/>
    <tag k="motorroad" v="no"/>
    <tag k="name" v="Kriegsstraße"/>
    <tag k="oneway" v="yes"/>
    <tag k="ref" v="B 10"/>
    <tag k="tmc" v="DE:52533+30888"/>
  </way>
  <way id="49996087" version="3" timestamp="2011-01-30T12:34:34Z" uid="6269" user="Mueck" changeset="7133406">
    <nd ref="14962614"/>
    <nd ref="1127842801"/>
    <nd ref="1127842866"/>
    <nd ref="26043063"/>
    <tag k="highway" v="tertiary"/>
    <tag k="name" v="Gartenstraße"/>
    <tag k="note" v="im SHP des NVK: III"/>
  </way>
  <way id="49996089" version="3" timestamp="2010-09-11T17:41:37Z" uid="6269" user="Mueck" changeset="5751859">
    <nd ref="26043063"/>
    <nd ref="26043070"/>
    <nd ref="26043069"/>
    <nd ref="907077376"/>
    <nd ref="26043068"/>
    <nd ref="26043055"/>
    <nd ref="30919548"/>
    <nd ref="26043054"/>
    <nd ref="693352018"/>
    <tag k="layer" v="1"/>
    <tag k="railway" v="tram"/>
  </way>
  <way id="49996089" version="4" timestamp="2011-01-30T12:34:47Z" uid="6269" user="Mueck" changeset="7133406"/>
  <way id="49996091" version="3" timestamp="2010-04-22T16:27:02Z" uid="6269" user="Mueck" changeset="4496332">
    <nd ref="15848806"/>
    <nd ref="30919549"/>
    <nd ref="30919546"/>
    <nd ref="26043068"/>
    <nd ref="30919547"/>
    <nd ref="15520039"/>
    <tag k="highway" v="primary"/>
    <tag k="motorroad" v="no"/>
    <tag k="name" v="Kriegsstraße"/>
    <tag k="oneway" v="yes"/>
    <tag k="ref" v="B 10"/>
  </way>
  <way id="49996091" version="4" timestamp="2011-01-30T13:03:46Z" uid="6269" user="Mueck" changeset="7133406">
    <nd ref="15848806"/>
    <nd ref="30919549"/>
    <nd ref="1127895514"/>
    <nd ref="1127895568"/>
    <nd ref="30919546"/>
    <nd ref="26043068"/>
    <nd ref="1127895516"/>
    <nd ref="30919547"/>
    <nd ref="1127895564"/>
    <nd ref="15520039"/>
    <tag k="highway" v="primary"/>
    <tag k="motorroad" v="no"/>
    <tag k="name" v="Kriegsstraße"/>
    <tag k="oneway" v="yes"/>
    <tag k="ref" v="B 10"/>
  </way>
  <way id="49996091" version="5" timestamp="2011-10-10T16:48:45Z" uid="4499" user="Jochen Topf" changeset="9523441">
    <nd ref="15848806"/>
    <nd ref="30919549"/>
    <nd ref="1127895514"/>
    <nd ref="1127895568"/>
    <nd ref="30919546"/>
    <nd ref="26043068"/>
    <nd ref="1127895516"/>
    <nd ref="30919547"/>
    <nd ref="1127895564"/>
    <nd ref="15520039"/>
    <tag k="highway" v="primary"/>
    <tag k="motorroad" v="no"/>
    <tag k="name" v="Kriegsstraße"/>
    <tag k="oneway" v="yes"/>
    <tag k="ref" v="B 10"/>
    <tag k="tmc" v="DE:52533+30888"/>
  </way>
  <way id="49996091" version="6" timestamp="2011-10-13T15:33:24Z" uid="4499" user="Jochen Topf" changeset="9548199">
    <nd ref="15848806"/>
    <nd ref="30919549"/>
    <nd ref="1127895514"/>
    <nd ref="1127895568"/>
    <nd ref="30919546"/>
    <nd ref="26043068"/>
    <nd ref="1127895516"/>
    <nd ref="30919547"/>
    <nd ref="1127895564"/>
    <nd ref="15520039"/>
    <tag k="highway" v="primary"/>
    <tag k="motorroad" v="no"/>
    <tag k="name" v="Kriegsstraße"/>
    <tag k="oneway" v="yes"/>
    <tag k="ref" v="B 10"/>
    <tag k="tmc" v="DE:30888-52533"/>
  </way>
  <way id="49996091" version="7" timestamp="2012-02-10T09:13:55Z" uid="165061" user="keinname" changeset="10641442">
    <nd ref="15848806"/>
    <nd ref="30919549"/>
    <nd ref="1127895514"/>
    <nd ref="1127895568"/>
    <nd ref="30919546"/>
    <nd ref="26043068"/>
    <nd ref="1127895516"/>
    <nd ref="30919547"/>
    <nd ref="1127895564"/>
    <nd ref="15520039"/>
    <tag k="highway" v="primary"/>
    <tag k="lanes" v="1"/>
    <tag k="motorroad" v="no"/>
    <tag k="name" v="Kriegsstraße"/>
    <tag k="oneway" v="yes"/>
    <tag k="ref" v="B 10"/>
    <tag k="tmc" v="DE:30888-52533"/>
  </way>
  <way id="49996091" version="8" timestamp="2012-02-18T18:20:59Z" uid="60137" user="michael2402" changeset="10722878">
    <nd ref="15848806"/>
    <nd ref="30919549"/>
    <nd ref="1637995842"/>
    <nd ref="1637995844"/>
    <nd ref="1637995853"/>
    <nd ref="1127895564"/>
    <nd ref="15520039"/>
    <tag k="highway" v="primary"/>
    <tag k="lanes" v="1"/>
    <tag k="motorroad" v="no"/>
    <tag k="name" v="Kriegsstraße"/>
    <tag k="oneway" v="yes"/>
    <tag k="ref" v="B 10"/>
    <tag k="tmc" v="DE:30888-52533"/>
  </way>
  <way id="49996519" version="1" timestamp="2010-02-10T16:07:57Z" uid="9719" user="dvaey" changeset="3841280">
    <nd ref="635038531"/>
    <nd ref="635038532"/>
    <tag k="name" v="suburban trains"/>
    <tag k="railway" v="rail"/>
  </way>
  <way id="49996519" version="2" timestamp="2010-02-10T16:08:57Z" uid="9719" user="dvaey" changeset="3841280"/>
  <way id="49996523" version="1" timestamp="2010-02-10T16:08:04Z" uid="9719" user="dvaey" changeset="3841280">
    <nd ref="469071233"/>
    <nd ref="635038617"/>
    <tag k="name" v="suburban trains"/>
    <tag k="railway" v="rail"/>
  </way>
  <way id="49996523" version="2" timestamp="2010-02-10T16:08:43Z" uid="9719" user="dvaey" changeset="3841280">
    <nd ref="469071233"/>
    <nd ref="635038617"/>
    <nd ref="635038619"/>
    <nd ref="635038620"/>
    <tag k="bridge" v="yes"/>
    <tag k="layer" v="1"/>
    <tag k="name" v="suburban trains"/>
    <tag k="railway" v="rail"/>
  </way>
  <way id="49996523" version="3" timestamp="2010-02-10T16:28:02Z" uid="9719" user="dvaey" changeset="3841280">
    <nd ref="469071233"/>
    <nd ref="635038617"/>
    <nd ref="635038619"/>
    <tag k="bridge" v="yes"/>
    <tag k="layer" v="1"/>
    <tag k="name" v="suburban trains"/>
    <tag k="railway" v="rail"/>
  </way>
  <way id="49996523" version="4" timestamp="2010-02-10T16:28:23Z" uid="9719" user="dvaey" changeset="3841280">
    <nd ref="469071233"/>
    <nd ref="635038617"/>
    <tag k="bridge" v="yes"/>
    <tag k="layer" v="1"/>
    <tag k="name" v="suburban trains"/>
    <tag k="railway" v="rail"/>
  </way>
  <way id="49996523" version="5" timestamp="2010-02-10T16:28:39Z" uid="9719" user="dvaey" changeset="3841280">
    <nd ref="469071233"/>
    <nd ref="635038617"/>
    <nd ref="635057546"/>
    <tag k="bridge" v="yes"/>
    <tag k="layer" v="1"/>
    <tag k="name" v="suburban trains"/>
    <tag k="railway" v="rail"/>
  </way>
  <way id="49996523" version="6" timestamp="2010-02-11T09:38:41Z" uid="9719" user="dvaey" changeset="3846728">
    <nd ref="469071233"/>
    <nd ref="635038617"/>
    <nd ref="635057546"/>
    <nd ref="635038620"/>
    <tag k="bridge" v="yes"/>
    <tag k="layer" v="1"/>
    <tag k="name" v="suburban trains"/>
    <tag k="railway" v="rail"/>
  </way>
  <way id="49996523" version="7" timestamp="2011-12-25T03:38:09Z" uid="77586" user="wolftracker" changeset="10197349"/>
  <way id="49996533" version="1" timestamp="2010-02-10T16:08:13Z" uid="9719" user="dvaey" changeset="3841280">
    <nd ref="635038467"/>
    <nd ref="635038468"/>
    <tag k="railway" v="rail"/>
  </way>
  <way id="49996533" version="2" timestamp="2010-02-10T16:29:16Z" uid="9719" user="dvaey" changeset="3841280">
    <nd ref="635038467"/>
    <nd ref="635038468"/>
    <nd ref="635057765"/>
    <nd ref="635038580"/>
    <tag k="railway" v="rail"/>
  </way>
  <way id="49996533" version="3" timestamp="2010-02-11T09:37:58Z" uid="9719" user="dvaey" changeset="3846728">
    <nd ref="635038467"/>
    <nd ref="635038468"/>
    <nd ref="635057765"/>
    <nd ref="635038580"/>
    <tag k="bridge" v="yes"/>
    <tag k="layer" v="1"/>
    <tag k="name" v="suburban trains"/>
    <tag k="railway" v="rail"/>
  </way>
  <way id="49996533" version="4" timestamp="2011-12-25T03:38:09Z" uid="77586" user="wolftracker" changeset="10197349"/>
  <way id="49996636" version="1" timestamp="2010-02-10T16:10:51Z" uid="9719" user="dvaey" changeset="3841280">
    <nd ref="635044762"/>
    <nd ref="635044765"/>
    <nd ref="635044768"/>
    <nd ref="635038582"/>
  </way>
  <way id="49996636" version="2" timestamp="2010-02-10T16:10:52Z" uid="9719" user="dvaey" changeset="3841280">
    <nd ref="635044762"/>
    <nd ref="635044765"/>
    <nd ref="635044768"/>
    <nd ref="635038582"/>
    <nd ref="635038581"/>
    <nd ref="635038580"/>
    <tag k="railway" v="rail"/>
  </way>
  <way id="49996636" version="3" timestamp="2010-02-10T16:13:21Z" uid="9719" user="dvaey" changeset="3841280">
    <nd ref="635047851"/>
    <nd ref="635047856"/>
    <nd ref="635047861"/>
    <nd ref="635044762"/>
    <nd ref="635044765"/>
    <nd ref="635044768"/>
    <nd ref="635038582"/>
    <nd ref="635038581"/>
    <nd ref="635038580"/>
    <tag k="railway" v="rail"/>
  </way>
  <way id="49996636" version="4" timestamp="2010-02-21T11:57:16Z" uid="77586" user="Ben Johnson" changeset="3932420">
    <nd ref="648896022"/>
    <nd ref="648896024"/>
    <nd ref="648896026"/>
    <nd ref="648896028"/>
    <nd ref="648896029"/>
    <nd ref="648896017"/>
    <nd ref="648896030"/>
    <nd ref="648896031"/>
    <nd ref="648896032"/>
    <nd ref="648896033"/>
    <nd ref="648896034"/>
    <nd ref="648896035"/>
    <nd ref="635047851"/>
    <tag k="layer" v="-1"/>
    <tag k="name" v="City Inner"/>
    <tag k="railway" v="rail"/>
    <tag k="tunnel" v="yes"/>
  </way>
  <way id="49996636" version="5" timestamp="2010-02-21T12:14:10Z" uid="77586" user="Ben Johnson" changeset="3932584">
    <nd ref="648896022"/>
    <nd ref="648896024"/>
    <nd ref="648896026"/>
    <nd ref="648896028"/>
    <nd ref="648896029"/>
    <nd ref="648896017"/>
    <nd ref="648896030"/>
    <nd ref="648896031"/>
    <nd ref="648896032"/>
    <nd ref="648896033"/>
    <nd ref="648896034"/>
    <nd ref="648896035"/>
    <nd ref="635047851"/>
    <tag k="layer" v="-1"/>
    <tag k="name" v="City Inner"/>
    <tag k="railway" v="subway"/>
    <tag k="tunnel" v="yes"/>
  </way>
  <way id="49996636" version="6" timestamp="2010-02-21T12:34:56Z" uid="77586" user="Ben Johnson" changeset="3932766">
    <nd ref="648947329"/>
    <nd ref="648947333"/>
    <tag k="bridge" v="yes"/>
    <tag k="layer" v="1"/>
    <tag k="name" v="City Inner"/>
    <tag k="railway" v="subway"/>
  </way>
  <way id="49996636" version="7" timestamp="2010-02-23T07:17:46Z" uid="77586" user="Ben Johnson" changeset="3949808">
    <nd ref="651270265"/>
    <nd ref="648947329"/>
    <nd ref="648947333"/>
    <tag k="bridge" v="yes"/>
    <tag k="layer" v="1"/>
    <tag k="name" v="City Inner"/>
    <tag k="railway" v="subway"/>
  </way>
  <way id="49996636" version="8" timestamp="2010-02-24T08:12:35Z" uid="77586" user="Ben Johnson" changeset="3960712">
    <nd ref="651270265"/>
    <nd ref="648947329"/>
    <nd ref="648947333"/>
    <tag k="bridge" v="yes"/>
    <tag k="layer" v="1"/>
    <tag k="railway" v="subway"/>
  </way>
  <way id="49996636" version="9" timestamp="2011-11-08T06:55:48Z" uid="77586" user="wolftracker" changeset="9770922">
    <nd ref="648947333"/>
    <nd ref="648947329"/>
    <nd ref="651270265"/>
    <tag k="bridge" v="yes"/>
    <tag k="layer" v="1"/>
    <tag k="railway" v="rail"/>
  </way>
  <way id="49996636" version="10" timestamp="2011-12-25T08:05:26Z" uid="77586" user="wolftracker" changeset="10197826"/>
  <way id="49996667" version="1" timestamp="2010-02-10T16:11:37Z" uid="9719" user="dvaey" changeset="3841280">
    <nd ref="635045670"/>
    <nd ref="635038538"/>
    <tag k="name" v="suburban trains"/>
    <tag k="railway" v="rail"/>
  </way>
  <way id="49996667" version="2" timestamp="2011-12-24T09:25:59Z" uid="77586" user="wolftracker" changeset="10192646"/>
  <way id="49996747" version="1" timestamp="2010-02-10T16:14:01Z" uid="9719" user="dvaey" changeset="3841280">
    <nd ref="635048633"/>
    <nd ref="635048637"/>
    <nd ref="635048642"/>
    <nd ref="635043811"/>
  </way>
  <way id="49996747" version="2" timestamp="2010-02-10T16:21:59Z" uid="9719" user="dvaey" changeset="3841280">
    <nd ref="635048633"/>
    <nd ref="635048637"/>
    <nd ref="635048642"/>
    <nd ref="635043811"/>
    <tag k="name" v="suburban trains"/>
    <tag k="railway" v="rail"/>
  </way>
  <way id="49996747" version="3" timestamp="2010-02-11T09:40:05Z" uid="9719" user="dvaey" changeset="3846728">
    <nd ref="635048633"/>
    <nd ref="635048637"/>
    <nd ref="635048642"/>
    <nd ref="635043811"/>
    <nd ref="635043807"/>
    <nd ref="635043806"/>
    <nd ref="635038616"/>
    <nd ref="635038614"/>
    <nd ref="635038613"/>
    <tag k="name" v="suburban trains"/>
    <tag k="railway" v="rail"/>
  </way>
  <way id="49996747" version="4" timestamp="2010-02-21T11:57:09Z" uid="77586" user="Ben Johnson" changeset="3932420">
    <nd ref="648895988"/>
    <nd ref="648895989"/>
    <nd ref="648895990"/>
    <nd ref="648895991"/>
    <nd ref="648895992"/>
    <nd ref="648895993"/>
    <nd ref="648895994"/>
    <nd ref="648895995"/>
    <nd ref="648895996"/>
    <nd ref="648895997"/>
    <nd ref="648895998"/>
    <nd ref="648895999"/>
    <nd ref="648896000"/>
    <nd ref="648896002"/>
    <nd ref="648896004"/>
    <nd ref="648896006"/>
    <nd ref="635048633"/>
    <tag k="layer" v="-1"/>
    <tag k="name" v="City Outer"/>
    <tag k="railway" v="rail"/>
    <tag k="tunnel" v="yes"/>
  </way>
  <way id="49996747" version="5" timestamp="2010-02-21T12:08:49Z" uid="77586" user="Ben Johnson" changeset="3932420">
    <nd ref="648895988"/>
    <nd ref="648895989"/>
    <nd ref="648895990"/>
    <nd ref="648895991"/>
    <tag k="layer" v="-1"/>
    <tag k="name" v="City Outer"/>
    <tag k="railway" v="rail"/>
    <tag k="tunnel" v="yes"/>
  </way>
  <way id="49996747" version="6" timestamp="2010-02-21T12:34:55Z" uid="77586" user="Ben Johnson" changeset="3932766">
    <nd ref="20959094"/>
    <nd ref="648947278"/>
    <nd ref="648947283"/>
    <nd ref="648947286"/>
    <nd ref="648947290"/>
    <nd ref="648947294"/>
    <nd ref="648947297"/>
    <nd ref="648947301"/>
    <nd ref="648947312"/>
    <nd ref="648947316"/>
    <nd ref="648947318"/>
    <nd ref="648947320"/>
    <nd ref="648947321"/>
    <nd ref="648895988"/>
    <nd ref="648895989"/>
    <nd ref="648895990"/>
    <nd ref="648895991"/>
    <tag k="layer" v="-1"/>
    <tag k="name" v="City Outer"/>
    <tag k="railway" v="rail"/>
    <tag k="tunnel" v="yes"/>
  </way>
  <way id="49996747" version="7" timestamp="2010-02-21T12:43:17Z" uid="77586" user="Ben Johnson" changeset="3932834">
    <nd ref="20959094"/>
    <nd ref="648947278"/>
    <nd ref="648947283"/>
    <nd ref="648947286"/>
    <nd ref="648952829"/>
    <nd ref="648947290"/>
    <nd ref="648947294"/>
    <nd ref="648947297"/>
    <nd ref="648947301"/>
    <nd ref="648947312"/>
    <nd ref="648947316"/>
    <nd ref="648947318"/>
    <nd ref="648947320"/>
    <nd ref="648947321"/>
    <nd ref="648895988"/>
    <nd ref="648895989"/>
    <nd ref="648895990"/>
    <nd ref="648895991"/>
    <tag k="name" v="City Outer"/>
    <tag k="railway" v="subway"/>
    <tag k="tunnel" v="yes"/>
  </way>
  <way id="49996747" version="8" timestamp="2010-02-21T21:14:00Z" uid="77586" user="Ben Johnson" changeset="3938822">
    <nd ref="20959094"/>
    <nd ref="648947278"/>
    <nd ref="648947283"/>
    <nd ref="648947286"/>
    <nd ref="648952829"/>
    <nd ref="648947290"/>
    <nd ref="648947294"/>
    <nd ref="648947297"/>
    <nd ref="648947301"/>
    <nd ref="648947312"/>
    <nd ref="648947316"/>
    <nd ref="648947318"/>
    <nd ref="648947320"/>
    <nd ref="648947321"/>
    <nd ref="648895988"/>
    <nd ref="648895990"/>
    <nd ref="648895991"/>
    <tag k="name" v="City Outer"/>
    <tag k="railway" v="subway"/>
    <tag k="tunnel" v="yes"/>
  </way>
  <way id="49996747" version="9" timestamp="2010-02-23T07:17:38Z" uid="77586" user="Ben Johnson" changeset="3949808">
    <nd ref="651270231"/>
    <nd ref="20959094"/>
    <tag k="bridge" v="yes"/>
    <tag k="layer" v="1"/>
    <tag k="name" v="City Outer"/>
    <tag k="railway" v="subway"/>
  </way>
  <way id="49996747" version="10" timestamp="2010-02-24T08:12:34Z" uid="77586" user="Ben Johnson" changeset="3960712">
    <nd ref="651270231"/>
    <nd ref="20959094"/>
    <tag k="bridge" v="yes"/>
    <tag k="layer" v="1"/>
    <tag k="railway" v="subway"/>
  </way>
  <way id="49996747" version="11" timestamp="2011-11-08T06:55:48Z" uid="77586" user="wolftracker" changeset="9770922">
    <nd ref="651270231"/>
    <nd ref="1495088728"/>
    <nd ref="20959094"/>
    <tag k="bridge" v="yes"/>
    <tag k="layer" v="1"/>
    <tag k="railway" v="rail"/>
  </way>
  <way id="49996747" version="12" timestamp="2011-12-25T08:05:26Z" uid="77586" user="wolftracker" changeset="10197826"/>
  <way id="49996783" version="1" timestamp="2010-02-10T16:14:34Z" uid="9719" user="dvaey" changeset="3841280">
    <nd ref="635049422"/>
    <nd ref="635049424"/>
    <nd ref="635049427"/>
    <nd ref="635049429"/>
    <nd ref="635049430"/>
  </way>
  <way id="49996783" version="2" timestamp="2010-02-10T16:20:53Z" uid="9719" user="dvaey" changeset="3841280">
    <nd ref="635049422"/>
    <nd ref="635049424"/>
    <nd ref="635049427"/>
    <nd ref="635049429"/>
    <nd ref="635054577"/>
    <nd ref="635049430"/>
  </way>
  <way id="49996783" version="3" timestamp="2010-02-10T16:21:08Z" uid="9719" user="dvaey" changeset="3841280">
    <nd ref="635049422"/>
    <nd ref="635049424"/>
    <nd ref="635049427"/>
    <nd ref="635049429"/>
    <nd ref="635054577"/>
    <nd ref="635049430"/>
    <tag k="railway" v="rail"/>
  </way>
  <way id="49996783" version="4" timestamp="2010-02-11T09:39:16Z" uid="9719" user="dvaey" changeset="3846728"/>
  <way id="49996788" version="1" timestamp="2010-02-10T16:14:57Z" uid="9719" user="dvaey" changeset="3841280">
    <nd ref="635049430"/>
    <nd ref="635049809"/>
    <nd ref="635049810"/>
    <nd ref="635038553"/>
  </way>
  <way id="49996788" version="2" timestamp="2010-02-10T16:20:26Z" uid="9719" user="dvaey" changeset="3841280">
    <nd ref="635049430"/>
    <nd ref="635054076"/>
    <nd ref="635049809"/>
    <nd ref="635049810"/>
    <nd ref="635038553"/>
  </way>
  <way id="49996788" version="3" timestamp="2010-02-10T16:21:01Z" uid="9719" user="dvaey" changeset="3841280">
    <nd ref="635049430"/>
    <nd ref="635054076"/>
    <nd ref="635049809"/>
    <nd ref="635049810"/>
    <nd ref="635038553"/>
    <tag k="railway" v="rail"/>
  </way>
  <way id="49996788" version="4" timestamp="2010-02-11T09:39:16Z" uid="9719" user="dvaey" changeset="3846728">
    <nd ref="635049422"/>
    <nd ref="635049424"/>
    <nd ref="635049427"/>
    <nd ref="635049429"/>
    <nd ref="635054577"/>
    <nd ref="635049430"/>
    <nd ref="635054076"/>
    <nd ref="635049809"/>
    <nd ref="635049810"/>
    <nd ref="635038553"/>
    <tag k="railway" v="rail"/>
  </way>
  <way id="49996788" version="5" timestamp="2010-02-23T07:17:52Z" uid="77586" user="Ben Johnson" changeset="3949808">
    <nd ref="651270231"/>
    <nd ref="651270266"/>
    <nd ref="651270267"/>
    <nd ref="651270268"/>
    <nd ref="651270269"/>
    <nd ref="651270270"/>
    <nd ref="651270271"/>
    <nd ref="651270272"/>
    <nd ref="651270273"/>
    <nd ref="651270274"/>
    <nd ref="651270275"/>
    <nd ref="651270276"/>
    <nd ref="651270277"/>
    <nd ref="651270278"/>
    <nd ref="651270279"/>
    <nd ref="651270280"/>
    <nd ref="651270281"/>
    <nd ref="651270282"/>
    <nd ref="651270283"/>
    <nd ref="651270284"/>
    <nd ref="651270285"/>
    <nd ref="651270286"/>
    <nd ref="651270287"/>
    <nd ref="651270288"/>
    <nd ref="651270289"/>
    <nd ref="651270290"/>
    <nd ref="651270291"/>
    <nd ref="651270292"/>
    <nd ref="651270293"/>
    <nd ref="651270294"/>
    <nd ref="651270295"/>
    <nd ref="651270296"/>
    <nd ref="651270297"/>
    <nd ref="635049422"/>
    <tag k="layer" v="-1"/>
    <tag k="name" v="City Outer"/>
    <tag k="railway" v="subway"/>
    <tag k="tunnel" v="yes"/>
  </way>
  <way id="49996788" version="6" timestamp="2010-02-24T08:12:32Z" uid="77586" user="Ben Johnson" changeset="3960712">
    <nd ref="651270231"/>
    <nd ref="651270266"/>
    <nd ref="651270267"/>
    <nd ref="651270268"/>
    <nd ref="651270269"/>
    <nd ref="651270270"/>
    <nd ref="651270271"/>
    <nd ref="651270272"/>
    <nd ref="651270273"/>
    <nd ref="651270274"/>
    <nd ref="651270275"/>
    <nd ref="651270276"/>
    <nd ref="651270277"/>
    <nd ref="651270278"/>
    <nd ref="651270279"/>
    <nd ref="651270280"/>
    <nd ref="651270281"/>
    <nd ref="651270282"/>
    <nd ref="651270283"/>
    <nd ref="651270284"/>
    <nd ref="651270285"/>
    <nd ref="651270286"/>
    <nd ref="651270287"/>
    <nd ref="651270288"/>
    <nd ref="651270289"/>
    <nd ref="651270290"/>
    <nd ref="651270291"/>
    <nd ref="651270292"/>
    <nd ref="651270293"/>
    <nd ref="651270294"/>
    <nd ref="651270295"/>
    <nd ref="651270296"/>
    <nd ref="651270297"/>
    <nd ref="635049422"/>
    <tag k="layer" v="-1"/>
    <tag k="railway" v="subway"/>
    <tag k="tunnel" v="yes"/>
  </way>
  <way id="49996788" version="7" timestamp="2011-01-03T08:18:45Z" uid="11111" user="lakeyboy" changeset="6846916">
    <nd ref="651270231"/>
    <nd ref="651270266"/>
    <nd ref="651270267"/>
    <nd ref="651270268"/>
    <nd ref="651270269"/>
    <nd ref="651270270"/>
    <nd ref="651270271"/>
    <nd ref="651270272"/>
    <nd ref="651270273"/>
    <nd ref="651270274"/>
    <nd ref="651270275"/>
    <nd ref="651270276"/>
    <nd ref="651270277"/>
    <nd ref="651270278"/>
    <nd ref="651270279"/>
    <nd ref="651270280"/>
    <nd ref="651270281"/>
    <nd ref="651270282"/>
    <nd ref="651270283"/>
    <nd ref="651270284"/>
    <nd ref="651270285"/>
    <nd ref="651270286"/>
    <nd ref="651270287"/>
    <nd ref="651270288"/>
    <nd ref="651270289"/>
    <nd ref="651270290"/>
    <nd ref="651270291"/>
    <nd ref="651270292"/>
    <nd ref="651270293"/>
    <nd ref="651270294"/>
    <nd ref="651270295"/>
    <nd ref="651270296"/>
    <nd ref="651270297"/>
    <nd ref="635049422"/>
    <tag k="layer" v="-1"/>
    <tag k="railway" v="subway"/>
    <tag k="tunnel" v="yes"/>
  </way>
  <way id="49996788" version="8" timestamp="2011-11-08T06:26:47Z" uid="77586" user="wolftracker" changeset="9770846">
    <nd ref="651270287"/>
    <nd ref="651270286"/>
    <nd ref="651270285"/>
    <nd ref="651270284"/>
    <nd ref="1495063197"/>
    <nd ref="1495063192"/>
    <nd ref="1495063186"/>
    <tag k="layer" v="-2"/>
    <tag k="railway" v="rail"/>
    <tag k="tunnel" v="yes"/>
  </way>
  <way id="49996788" version="9" timestamp="2011-12-24T13:08:30Z" uid="77586" user="wolftracker" changeset="10193755"/>
  <way id="49996825" version="1" timestamp="2010-02-10T16:15:41Z" uid="9719" user="dvaey" changeset="3841280">
    <nd ref="635038551"/>
    <nd ref="635038552"/>
    <nd ref="635038553"/>
    <tag k="name" v="suburban trains"/>
    <tag k="railway" v="rail"/>
  </way>
  <way id="49996825" version="2" timestamp="2011-12-25T03:38:08Z" uid="77586" user="wolftracker" changeset="10197349"/>
  <way id="49996833" version="1" timestamp="2010-02-10T16:16:19Z" uid="9719" user="dvaey" changeset="3841280">
    <nd ref="635051191"/>
    <nd ref="635051195"/>
    <nd ref="635051197"/>
    <nd ref="635051200"/>
    <tag k="bridge" v="yes"/>
    <tag k="layer" v="1"/>
    <tag k="name" v="suburban trains"/>
    <tag k="railway" v="rail"/>
  </way>
  <way id="49996833" version="2" timestamp="2011-12-24T09:25:59Z" uid="77586" user="wolftracker" changeset="10192646"/>
  <way id="49996848" version="1" timestamp="2010-02-10T16:17:11Z" uid="9719" user="dvaey" changeset="3841280">
    <nd ref="635051200"/>
    <nd ref="635052219"/>
    <nd ref="635052222"/>
    <nd ref="635052229"/>
    <nd ref="635052234"/>
    <nd ref="635052237"/>
    <nd ref="635052241"/>
    <nd ref="635052244"/>
  </way>
  <way id="49996848" version="2" timestamp="2010-02-10T16:18:27Z" uid="9719" user="dvaey" changeset="3841280">
    <nd ref="635051200"/>
    <nd ref="635052219"/>
    <nd ref="635052222"/>
    <nd ref="635052229"/>
    <nd ref="635052234"/>
    <nd ref="635052237"/>
    <nd ref="635052241"/>
    <nd ref="635038228"/>
  </way>
  <way id="49996848" version="3" timestamp="2010-02-10T16:19:26Z" uid="9719" user="dvaey" changeset="3841280">
    <nd ref="635051200"/>
    <nd ref="635052219"/>
    <nd ref="635052222"/>
    <nd ref="635052229"/>
    <nd ref="635052234"/>
    <nd ref="635052237"/>
    <nd ref="635052241"/>
    <nd ref="635038228"/>
    <tag k="railway" v="rail"/>
  </way>
  <way id="49996848" version="4" timestamp="2010-02-11T09:48:31Z" uid="9719" user="dvaey" changeset="3846728"/>
  <way id="49996064" version="9" timestamp="2012-04-13T13:02:14Z" uid="35468" user="Blunauer" changeset="11287425">
    <nd ref="1272878573"/>
    <nd ref="1714347450"/>
    <nd ref="25297221"/>
    <nd ref="1118812462"/>
    <nd ref="14852008"/>
    <nd ref="25297497"/>
    <nd ref="660530504"/>
    <tag k="highway" v="secondary"/>
    <tag k="lanes" v="2"/>
    <tag k="maxspeed" v="50"/>
    <tag k="name" v="Ebertstraße"/>
    <tag k="note" v="im SHP des NVK: II"/>
    <tag k="oneway" v="yes"/>
  </way>
  <way id="49996064" version="10" timestamp="2012-04-14T18:15:57Z" uid="35468" user="Blunauer" changeset="11302021">
    <nd ref="1272878573"/>
    <nd ref="1714347450"/>
    <nd ref="25297221"/>
    <nd ref="1118812462"/>
    <nd ref="14852008"/>
    <nd ref="25297497"/>
    <nd ref="660530504"/>
    <tag k="highway" v="secondary"/>
    <tag k="lanes" v="2"/>
    <tag k="maxspeed" v="50"/>
    <tag k="name" v="Ebertstraße"/>
    <tag k="note" v="im SHP des NVK: II"/>
    <tag k="oneway" v="yes"/>
  </way>
  <way id="49996064" version="11" timestamp="2012-07-19T19:38:41Z" uid="722137" user="OSMF Redaction Account" changeset="12345081">
    <nd ref="1272878573"/>
    <nd ref="1714347450"/>
    <nd ref="25297221"/>
    <nd ref="14852008"/>
    <nd ref="25297497"/>
    <nd ref="660530504"/>
    <tag k="highway" v="secondary"/>
    <tag k="lanes" v="2"/>
    <tag k="maxspeed" v="50"/>
    <tag k="name" v="Ebertstraße"/>
    <tag k="note" v="im SHP des NVK: II"/>
    <tag k="oneway" v="yes"/>
  </way>
  <way id="49996064" version="12" timestamp="2012-07-20T14:58:38Z" uid="42208" user="JanTH" changeset="12377388">
    <nd ref="1272878573"/>
    <nd ref="1714347450"/>
    <nd ref="25297221"/>
    <nd ref="1832117718"/>
    <nd ref="14852008"/>
    <nd ref="25297497"/>
    <nd ref="660530504"/>
    <tag k="highway" v="secondary"/>
    <tag k="lanes" v="2"/>
    <tag k="maxspeed" v="50"/>
    <tag k="name" v="Ebertstraße"/>
    <tag k="note" v="im SHP des NVK: II"/>
    <tag k="oneway" v="yes"/>
  </way>
  <way id="49996067" version="5" timestamp="2012-06-05T21:22:46Z" uid="38515" user="soeren_gasch" changeset="11810628">
    <nd ref="14796403"/>
    <nd ref="1697653352"/>
    <nd ref="1696042404"/>
    <nd ref="1696042399"/>
    <nd ref="1696042393"/>
    <nd ref="1697653346"/>
    <nd ref="29050365"/>
    <nd ref="29050366"/>
    <nd ref="1696042295"/>
    <nd ref="29050374"/>
    <nd ref="28838103"/>
    <nd ref="1696042277"/>
    <nd ref="14963169"/>
    <tag k="highway" v="tertiary"/>
    <tag k="name" v="Steinhäuserstraße"/>
    <tag k="note" v="im SHP des NVK: III"/>
  </way>
  <way id="49996067" version="6" timestamp="2012-08-02T10:06:01Z" uid="776396" user="jmester" changeset="12583301">
    <nd ref="14796403"/>
    <nd ref="1697653352"/>
    <nd ref="1696042404"/>
    <nd ref="1696042399"/>
    <nd ref="1696042393"/>
    <nd ref="1697653346"/>
    <nd ref="29050365"/>
    <nd ref="29050366"/>
    <nd ref="1696042295"/>
    <nd ref="29050374"/>
    <nd ref="28838103"/>
    <nd ref="1696042277"/>
    <nd ref="14963169"/>
    <tag k="highway" v="tertiary"/>
    <tag k="maxspeed" v="50"/>
    <tag k="name" v="Steinhäuserstraße"/>
    <tag k="note" v="im SHP des NVK: III"/>
  </way>
  <way id="49996067" version="7" timestamp="2012-08-09T07:36:42Z" uid="776396" user="jmester" changeset="12665303">
    <nd ref="14796403"/>
    <nd ref="1697653352"/>
    <nd ref="1696042404"/>
    <nd ref="1696042399"/>
    <nd ref="1696042393"/>
    <nd ref="1697653346"/>
    <nd ref="29050365"/>
    <nd ref="29050366"/>
    <nd ref="1696042295"/>
    <nd ref="29050374"/>
    <nd ref="28838103"/>
    <nd ref="1696042277"/>
    <nd ref="14963169"/>
    <tag k="highway" v="tertiary"/>
    <tag k="name" v="Steinhäuserstraße"/>
    <tag k="note" v="im SHP des NVK: III"/>
  </way>
  <way id="49996070" version="12" timestamp="2012-07-19T19:38:46Z" uid="722137" user="OSMF Redaction Account" changeset="12345081">
    <nd ref="635041058"/>
    <nd ref="420673190"/>
    <tag k="highway" v="secondary"/>
    <tag k="lanes" v="2"/>
    <tag k="lanes:through" v="2"/>
    <tag k="lanes:turnright" v="1"/>
    <tag k="maxspeed" v="50"/>
    <tag k="name" v="Ebertstraße"/>
    <tag k="note" v="im SHP des NVK: II"/>
    <tag k="oneway" v="yes"/>
  </way>
  <way id="49996070" version="13" timestamp="2012-07-20T14:19:35Z" uid="42208" user="JanTH" changeset="12377388">
    <nd ref="635041058"/>
    <nd ref="1832087135"/>
    <nd ref="420673190"/>
    <tag k="highway" v="secondary"/>
    <tag k="lanes" v="2"/>
    <tag k="lanes:through" v="2"/>
    <tag k="lanes:turnright" v="1"/>
    <tag k="maxspeed" v="50"/>
    <tag k="name" v="Ebertstraße"/>
    <tag k="note" v="im SHP des NVK: II"/>
    <tag k="oneway" v="yes"/>
  </way>
  <way id="49996072" version="5" timestamp="2012-07-19T19:38:43Z" uid="722137" user="OSMF Redaction Account" changeset="12345081">
    <nd ref="635041060"/>
    <nd ref="635041063"/>
    <tag k="bench" v="yes"/>
    <tag k="bin" v="yes"/>
    <tag k="bus" v="yes"/>
    <tag k="name" v="Ebertstraße"/>
    <tag k="public_transport" v="platform"/>
    <tag k="railway" v="platform"/>
    <tag k="shelter" v="yes"/>
    <tag k="tactile_paving" v="no"/>
    <tag k="tram" v="yes"/>
  </way>
  <way id="49996074" version="6" timestamp="2012-07-19T19:38:47Z" uid="722137" user="OSMF Redaction Account" changeset="12345081">
    <nd ref="1600680338"/>
    <nd ref="635041061"/>
    <nd ref="635041064"/>
    <tag k="bench" v="yes"/>
    <tag k="bin" v="yes"/>
    <tag k="bus" v="yes"/>
    <tag k="name" v="Ebertstraße"/>
    <tag k="public_transport" v="platform"/>
    <tag k="railway" v="platform"/>
    <tag k="shelter" v="yes"/>
    <tag k="tactile_paving" v="no"/>
    <tag k="tram" v="yes"/>
  </way>
  <way id="49996085" version="11" timestamp="2012-04-04T14:36:17Z" uid="643070" user="RC4ever" changeset="11177473">
    <nd ref="15520042"/>
    <nd ref="1127895593"/>
    <nd ref="1637995899"/>
    <nd ref="1637995900"/>
    <nd ref="15848807"/>
    <nd ref="15848804"/>
    <tag k="highway" v="primary"/>
    <tag k="lanes" v="2"/>
    <tag k="maxspeed" v="50"/>
    <tag k="motorroad" v="no"/>
    <tag k="name" v="Kriegsstraße"/>
    <tag k="oneway" v="yes"/>
    <tag k="ref" v="B 10"/>
    <tag k="tmc" v="DE:52533+30888"/>
  </way>
  <way id="49996085" version="12" timestamp="2012-04-14T15:56:18Z" uid="35468" user="Blunauer" changeset="11300389">
    <nd ref="15520042"/>
    <nd ref="1127895593"/>
    <nd ref="1637995899"/>
    <nd ref="1637995900"/>
    <nd ref="1716361336"/>
    <nd ref="15848804"/>
    <tag k="highway" v="primary"/>
    <tag k="lanes" v="2"/>
    <tag k="maxspeed" v="50"/>
    <tag k="motorroad" v="no"/>
    <tag k="name" v="Kriegsstraße"/>
    <tag k="oneway" v="yes"/>
    <tag k="ref" v="B 10"/>
    <tag k="tmc" v="DE:52533+30888"/>
  </way>
  <way id="49996085" version="13" timestamp="2012-07-17T13:31:28Z" uid="722137" user="OSMF Redaction Account" changeset="12266545">
    <nd ref="15520042"/>
    <nd ref="1127895593"/>
    <nd ref="1637995899"/>
    <nd ref="1637995900"/>
    <nd ref="1716361336"/>
    <nd ref="15848804"/>
    <tag k="highway" v="primary"/>
    <tag k="lanes" v="2"/>
    <tag k="maxspeed" v="50"/>
    <tag k="motorroad" v="yes"/>
    <tag k="name" v="Kriegsstraße"/>
    <tag k="oneway" v="yes"/>
    <tag k="ref" v="B 10"/>
    <tag k="tmc" v="DE:52533+30888"/>
  </way>
  <way id="49996085" version="14" timestamp="2012-07-18T14:36:51Z" uid="42208" user="JanTH" changeset="12285305">
    <nd ref="15520042"/>
    <nd ref="1127895593"/>
    <nd ref="1637995899"/>
    <nd ref="1637995900"/>
    <nd ref="1716361336"/>
    <nd ref="15848804"/>
    <tag k="highway" v="primary"/>
    <tag k="lanes" v="2"/>
    <tag k="maxspeed" v="50"/>
    <tag k="name" v="Kriegsstraße"/>
    <tag k="oneway" v="yes"/>
    <tag k="ref" v="B 10"/>
    <tag k="tmc" v="DE:52533+30888"/>
  </way>
  <way id="49996085" version="15" timestamp="2012-08-16T09:38:06Z" uid="165061" user="mapper999" changeset="12748406">
    <nd ref="15520042"/>
    <nd ref="1127895593"/>
    <nd ref="1637995899"/>
    <nd ref="1637995900"/>
    <nd ref="1716361336"/>
    <nd ref="1868454372"/>
    <nd ref="1868454371"/>
    <nd ref="15848804"/>
    <tag k="highway" v="primary"/>
    <tag k="lanes" v="2"/>
    <tag k="maxspeed" v="50"/>
    <tag k="name" v="Kriegsstraße"/>
    <tag k="oneway" v="yes"/>
    <tag k="ref" v="B 10"/>
    <tag k="tmc" v="DE:52533+30888"/>
  </way>
  <way id="49996087" version="4" timestamp="2012-04-15T14:14:25Z" uid="35468" user="Blunauer" changeset="11310822">
    <nd ref="14962614"/>
    <nd ref="1717901831"/>
    <nd ref="1127842866"/>
    <nd ref="26043063"/>
    <tag k="highway" v="tertiary"/>
    <tag k="name" v="Gartenstraße"/>
    <tag k="note" v="im SHP des NVK: III"/>
  </way>
  <way id="49996087" version="5" timestamp="2012-05-24T20:51:40Z" uid="659944" user="Pandabärchen" changeset="11693343">
    <nd ref="751992888"/>
    <nd ref="1615806191"/>
    <nd ref="14962598"/>
    <nd ref="1127842983"/>
    <nd ref="14962596"/>
    <nd ref="1127842864"/>
    <nd ref="1127842955"/>
    <nd ref="1127842912"/>
    <nd ref="135831331"/>
    <nd ref="14962614"/>
    <nd ref="1717901831"/>
    <nd ref="1127842866"/>
    <nd ref="26043063"/>
    <tag k="highway" v="tertiary"/>
    <tag k="name" v="Gartenstraße"/>
    <tag k="note" v="im SHP des NVK: III"/>
  </way>
  <way id="49996087" version="6" timestamp="2012-05-31T17:16:20Z" uid="659944" user="Pandabärchen" changeset="11759941"/>
  <way id="49996091" version="9" timestamp="2012-04-04T14:36:17Z" uid="643070" user="RC4ever" changeset="11177473">
    <nd ref="15848806"/>
    <nd ref="30919549"/>
    <nd ref="1637995842"/>
    <nd ref="1637995844"/>
    <nd ref="1637995853"/>
    <nd ref="1127895564"/>
    <nd ref="15520039"/>
    <tag k="highway" v="primary"/>
    <tag k="lanes" v="1"/>
    <tag k="maxspeed" v="50"/>
    <tag k="motorroad" v="no"/>
    <tag k="name" v="Kriegsstraße"/>
    <tag k="oneway" v="yes"/>
    <tag k="ref" v="B 10"/>
    <tag k="tmc" v="DE:30888-52533"/>
  </way>
  <way id="49996091" version="10" timestamp="2012-04-14T15:56:19Z" uid="35468" user="Blunauer" changeset="11300389">
    <nd ref="1716361294"/>
    <nd ref="30919549"/>
    <nd ref="1637995842"/>
    <nd ref="1637995844"/>
    <nd ref="1637995853"/>
    <nd ref="1127895564"/>
    <nd ref="15520039"/>
    <tag k="highway" v="primary"/>
    <tag k="lanes" v="1"/>
    <tag k="maxspeed" v="50"/>
    <tag k="motorroad" v="no"/>
    <tag k="name" v="Kriegsstraße"/>
    <tag k="oneway" v="yes"/>
    <tag k="ref" v="B 10"/>
    <tag k="tmc" v="DE:30888-52533"/>
  </way>
  <way id="49996091" version="11" timestamp="2012-07-17T13:30:13Z" uid="722137" user="OSMF Redaction Account" changeset="12266545">
    <nd ref="1716361294"/>
    <nd ref="30919549"/>
    <nd ref="1637995842"/>
    <nd ref="1637995844"/>
    <nd ref="1637995853"/>
    <nd ref="15520039"/>
    <tag k="highway" v="primary"/>
    <tag k="lanes" v="1"/>
    <tag k="maxspeed" v="50"/>
    <tag k="motorroad" v="yes"/>
    <tag k="name" v="Kriegsstraße"/>
    <tag k="oneway" v="yes"/>
    <tag k="ref" v="B 10"/>
    <tag k="tmc" v="DE:30888-52533"/>
  </way>
  <way id="49996091" version="12" timestamp="2012-07-18T14:36:51Z" uid="42208" user="JanTH" changeset="12285305">
    <nd ref="1716361294"/>
    <nd ref="30919549"/>
    <nd ref="1637995842"/>
    <nd ref="1637995844"/>
    <nd ref="1637995853"/>
    <nd ref="15520039"/>
    <tag k="highway" v="primary"/>
    <tag k="lanes" v="1"/>
    <tag k="maxspeed" v="50"/>
    <tag k="name" v="Kriegsstraße"/>
    <tag k="oneway" v="yes"/>
    <tag k="ref" v="B 10"/>
    <tag k="tmc" v="DE:30888-52533"/>
  </way>
  <way id="49996091" version="13" timestamp="2012-08-16T09:38:06Z" uid="165061" user="mapper999" changeset="12748406">
    <nd ref="1716361294"/>
    <nd ref="30919549"/>
    <nd ref="1868454366"/>
    <nd ref="1637995844"/>
    <nd ref="1637995853"/>
    <nd ref="15520039"/>
    <tag k="highway" v="primary"/>
    <tag k="lanes" v="1"/>
    <tag k="maxspeed" v="50"/>
    <tag k="name" v="Kriegsstraße"/>
    <tag k="oneway" v="yes"/>
    <tag k="ref" v="B 10"/>
    <tag k="tmc" v="DE:30888-52533"/>
  </way>
</osm>
