<?xml version='1.0' encoding='UTF-8'?>
<osm version="0.6" generator="libosmium/2.20.0">
  <way id="50087791" version="2" timestamp="2010-04-07T14:19:47Z" uid="20587" user="balrog-kun" changeset="4353646">
    <nd ref="153408929"/>
    <nd ref="152533618"/>
    <tag k="highway" v="residential"/>
    <tag k="name" v="Addicks Clodine Road"/>
    <tag k="tiger:cfcc" v="A41"/>
    <tag k="tiger:county" v="Harris, TX"/>
    <tag k="tiger:name_base" v="Addicks Clodine"/>
    <tag k="tiger:name_type" v="Rd"/>
    <tag k="tiger:reviewed" v="no"/>
    <tag k="tiger:separated" v="no"/>
    <tag k="tiger:source" v="tiger_import_dch_v0.6_20070830"/>
    <tag k="tiger:tlid" v="96017030:233480045:96154698:96628797"/>
  </way>
  <way id="50087907" version="1" timestamp="2010-02-11T20:17:28Z" uid="110593" user="esetzer" changeset="3851654">
    <nd ref="83628804"/>
    <nd ref="83547453"/>
    <nd ref="83628815"/>
    <nd ref="83628817"/>
    <nd ref="83628818"/>
    <nd ref="83583601"/>
    <nd ref="83586787"/>
    <nd ref="509905038"/>
    <nd ref="83628819"/>
    <nd ref="83628820"/>
    <nd ref="83600867"/>
    <nd ref="83628821"/>
    <nd ref="83628822"/>
    <nd ref="83628824"/>
    <nd ref="83551109"/>
    <nd ref="83548080"/>
    <nd ref="83587106"/>
    <nd ref="83569603"/>
    <tag k="highway" v="tertiary"/>
    <tag k="name" v="South 500 East"/>
    <tag k="name_1" v="S 500  E"/>
    <tag k="name_2" v="S 5th East"/>
    <tag k="tiger:cfcc" v="A41"/>
    <tag k="tiger:county" v="Salt Lake, UT"/>
    <tag k="tiger:name_base" v="500 East"/>
    <tag k="tiger:name_base_1" v="500"/>
    <tag k="tiger:name_base_2" v="5th East"/>
    <tag k="tiger:name_direction_prefix" v="S"/>
    <tag k="tiger:name_direction_prefix_1" v="S"/>
    <tag k="tiger:name_direction_prefix_2" v="S"/>
    <tag k="tiger:name_direction_suffix_1" v="E"/>
    <tag k="tiger:reviewed" v="no"/>
    <tag k="tiger:separated" v="no"/>
    <tag k="tiger:source" v="tiger_import_dch_v0.6_20070830"/>
    <tag k="tiger:tlid" v="176080153:176102730:176079818:176079823:176079829:176079831:176079832:176079834:176112167:176112239:176080148:176102728"/>
    <tag k="tiger:upload_uuid" v="bulk_upload.pl-a2da7ec1-da05-434f-a535-e5cc3da32f27"/>
    <tag k="tiger:zip_left" v="84107"/>
    <tag k="tiger:zip_right" v="84107"/>
  </way>
  <way id="50087907" version="2" timestamp="2010-04-03T13:58:24Z" uid="20587" user="balrog-kun" changeset="4312927">
    <nd ref="83628804"/>
    <nd ref="83547453"/>
    <nd ref="83628815"/>
    <nd ref="83628817"/>
    <nd ref="83628818"/>
    <nd ref="83583601"/>
    <nd ref="83586787"/>
    <nd ref="509905038"/>
    <nd ref="83628819"/>
    <nd ref="83628820"/>
    <nd ref="83600867"/>
    <nd ref="83628821"/>
    <nd ref="83628822"/>
    <nd ref="83628824"/>
    <nd ref="83551109"/>
    <nd ref="83548080"/>
    <nd ref="83587106"/>
    <nd ref="83569603"/>
    <tag k="highway" v="tertiary"/>
    <tag k="name" v="South 500 East"/>
    <tag k="name_1" v="South 500  East"/>
    <tag k="name_2" v="South 5th East"/>
    <tag k="tiger:cfcc" v="A41"/>
    <tag k="tiger:county" v="Salt Lake, UT"/>
    <tag k="tiger:name_base" v="500 East"/>
    <tag k="tiger:name_base_1" v="500"/>
    <tag k="tiger:name_base_2" v="5th East"/>
    <tag k="tiger:name_direction_prefix" v="S"/>
    <tag k="tiger:name_direction_prefix_1" v="S"/>
    <tag k="tiger:name_direction_prefix_2" v="S"/>
    <tag k="tiger:name_direction_suffix_1" v="E"/>
    <tag k="tiger:reviewed" v="no"/>
    <tag k="tiger:separated" v="no"/>
    <tag k="tiger:source" v="tiger_import_dch_v0.6_20070830"/>
    <tag k="tiger:tlid" v="176080153:176102730:176079818:176079823:176079829:176079831:176079832:176079834:176112167:176112239:176080148:176102728"/>
    <tag k="tiger:zip_left" v="84107"/>
    <tag k="tiger:zip_right" v="84107"/>
  </way>
  <way id="50087907" version="3" timestamp="2010-08-05T07:52:45Z" uid="321736" user="Kevin Atkinson" changeset="5405091">
    <nd ref="83628804"/>
    <nd ref="83547453"/>
    <nd ref="83628815"/>
    <nd ref="83628817"/>
    <nd ref="83628818"/>
    <nd ref="83583601"/>
    <nd ref="83586787"/>
    <nd ref="509905038"/>
    <nd ref="83628819"/>
    <nd ref="83628820"/>
    <nd ref="83600867"/>
    <nd ref="83628821"/>
    <nd ref="83628822"/>
    <nd ref="83628824"/>
    <nd ref="83551109"/>
    <nd ref="83548080"/>
    <nd ref="83587106"/>
    <nd ref="83569603"/>
    <tag k="highway" v="tertiary"/>
    <tag k="loc_name" v="5th East"/>
    <tag k="name" v="500 East"/>
    <tag k="name:full" v="South 500 East"/>
    <tag k="name:prefix" v="S"/>
    <tag k="tiger:cfcc" v="A41"/>
    <tag k="tiger:county" v="Salt Lake, UT"/>
    <tag k="tiger:name_base" v="500 East"/>
    <tag k="tiger:name_base_1" v="500"/>
    <tag k="tiger:name_base_2" v="5th East"/>
    <tag k="tiger:name_direction_prefix" v="S"/>
    <tag k="tiger:name_direction_prefix_1" v="S"/>
    <tag k="tiger:name_direction_prefix_2" v="S"/>
    <tag k="tiger:name_direction_suffix_1" v="E"/>
    <tag k="tiger:reviewed" v="no"/>
    <tag k="tiger:separated" v="no"/>
    <tag k="tiger:source" v="tiger_import_dch_v0.6_20070830"/>
    <tag k="tiger:tlid" v="176080153:176102730:176079818:176079823:176079829:176079831:176079832:176079834:176112167:176112239:176080148:176102728"/>
    <tag k="tiger:zip_left" v="84107"/>
    <tag k="tiger:zip_right" v="84107"/>
  </way>
  <way id="50087907" version="4" timestamp="2011-03-26T06:14:05Z" uid="207745" user="NE2" changeset="7672295">
    <nd ref="83628790"/>
    <nd ref="83628794"/>
    <nd ref="83628796"/>
    <nd ref="83623443"/>
    <nd ref="83628798"/>
    <nd ref="83628800"/>
    <nd ref="83628802"/>
    <nd ref="1218568993"/>
    <nd ref="1218569358"/>
    <nd ref="83547453"/>
    <nd ref="83628815"/>
    <nd ref="83628817"/>
    <nd ref="83628818"/>
    <nd ref="83583601"/>
    <nd ref="83586787"/>
    <nd ref="509905038"/>
    <nd ref="83628819"/>
    <nd ref="83628820"/>
    <nd ref="83600867"/>
    <nd ref="83628821"/>
    <nd ref="83628822"/>
    <nd ref="83628824"/>
    <nd ref="83551109"/>
    <nd ref="83548080"/>
    <nd ref="83587106"/>
    <nd ref="83569603"/>
    <tag k="highway" v="tertiary"/>
    <tag k="loc_name" v="5th East"/>
    <tag k="name" v="500 East"/>
    <tag k="name:full" v="South 500 East"/>
    <tag k="name:prefix" v="S"/>
    <tag k="tiger:cfcc" v="A41"/>
    <tag k="tiger:county" v="Salt Lake, UT"/>
    <tag k="tiger:name_base" v="500 East"/>
    <tag k="tiger:name_base_1" v="500"/>
    <tag k="tiger:name_base_2" v="5th East"/>
    <tag k="tiger:name_direction_prefix" v="S"/>
    <tag k="tiger:name_direction_prefix_1" v="S"/>
    <tag k="tiger:name_direction_prefix_2" v="S"/>
    <tag k="tiger:name_direction_suffix_1" v="E"/>
    <tag k="tiger:reviewed" v="no"/>
    <tag k="tiger:separated" v="no"/>
    <tag k="tiger:source" v="tiger_import_dch_v0.6_20070830"/>
    <tag k="tiger:tlid" v="176079818:176079823:176079829:176079831:176079832:176079834:176080148:176080153:176102728:176102730:176112167:176112239"/>
    <tag k="tiger:zip_left" v="84107"/>
    <tag k="tiger:zip_right" v="84107"/>
  </way>
  <way id="50087907" version="5" timestamp="2011-08-26T22:52:52Z" uid="8909" user="mvexel" changeset="9133890">
    <nd ref="83628790"/>
    <nd ref="83628794"/>
    <nd ref="1413918575"/>
    <nd ref="83628796"/>
    <nd ref="83623443"/>
    <nd ref="83628798"/>
    <nd ref="83628800"/>
    <nd ref="83628802"/>
    <nd ref="1218568993"/>
    <nd ref="1218569358"/>
    <nd ref="83547453"/>
    <nd ref="83628815"/>
    <nd ref="83628817"/>
    <nd ref="83628818"/>
    <nd ref="83583601"/>
    <nd ref="83586787"/>
    <nd ref="509905038"/>
    <nd ref="83628819"/>
    <nd ref="83628820"/>
    <nd ref="83600867"/>
    <nd ref="83628821"/>
    <nd ref="83628822"/>
    <nd ref="83628824"/>
    <nd ref="83551109"/>
    <nd ref="83548080"/>
    <nd ref="83587106"/>
    <nd ref="83569603"/>
    <tag k="highway" v="tertiary"/>
    <tag k="loc_name" v="5th East"/>
    <tag k="name" v="500 East"/>
    <tag k="name:full" v="South 500 East"/>
    <tag k="name:prefix" v="S"/>
    <tag k="tiger:cfcc" v="A41"/>
    <tag k="tiger:county" v="Salt Lake, UT"/>
    <tag k="tiger:name_base" v="500 East"/>
    <tag k="tiger:name_base_1" v="500"/>
    <tag k="tiger:name_base_2" v="5th East"/>
    <tag k="tiger:name_direction_prefix" v="S"/>
    <tag k="tiger:name_direction_prefix_1" v="S"/>
    <tag k="tiger:name_direction_prefix_2" v="S"/>
    <tag k="tiger:name_direction_suffix_1" v="E"/>
    <tag k="tiger:reviewed" v="no"/>
    <tag k="tiger:separated" v="no"/>
    <tag k="tiger:source" v="tiger_import_dch_v0.6_20070830"/>
    <tag k="tiger:tlid" v="176079818:176079823:176079829:176079831:176079832:176079834:176080148:176080153:176102728:176102730:176112167:176112239"/>
    <tag k="tiger:zip_left" v="84107"/>
    <tag k="tiger:zip_right" v="84107"/>
  </way>
  <way id="50087907" version="6" timestamp="2012-01-02T03:41:08Z" uid="8909" user="mvexel" changeset="10267626">
    <nd ref="83628790"/>
    <nd ref="83628794"/>
    <nd ref="1413918575"/>
    <nd ref="83628796"/>
    <nd ref="1573548433"/>
    <nd ref="83623443"/>
    <nd ref="83628798"/>
    <nd ref="83628800"/>
    <nd ref="83628802"/>
    <nd ref="1218568993"/>
    <nd ref="1218569358"/>
    <nd ref="83547453"/>
    <nd ref="83628815"/>
    <nd ref="83628817"/>
    <nd ref="83628818"/>
    <nd ref="83583601"/>
    <nd ref="83586787"/>
    <nd ref="509905038"/>
    <nd ref="83628819"/>
    <nd ref="83628820"/>
    <nd ref="83600867"/>
    <nd ref="83628821"/>
    <nd ref="83628822"/>
    <nd ref="83628824"/>
    <nd ref="83551109"/>
    <nd ref="83548080"/>
    <nd ref="83587106"/>
    <nd ref="83569603"/>
    <tag k="highway" v="tertiary"/>
    <tag k="lanes" v="4"/>
    <tag k="loc_name" v="5th East"/>
    <tag k="name" v="500 East"/>
    <tag k="name:full" v="South 500 East"/>
    <tag k="name:prefix" v="S"/>
    <tag k="tiger:cfcc" v="A41"/>
    <tag k="tiger:county" v="Salt Lake, UT"/>
    <tag k="tiger:name_base" v="500 East"/>
    <tag k="tiger:name_base_1" v="500"/>
    <tag k="tiger:name_base_2" v="5th East"/>
    <tag k="tiger:name_direction_prefix" v="S"/>
    <tag k="tiger:name_direction_prefix_1" v="S"/>
    <tag k="tiger:name_direction_prefix_2" v="S"/>
    <tag k="tiger:name_direction_suffix_1" v="E"/>
    <tag k="tiger:reviewed" v="yes"/>
    <tag k="tiger:separated" v="no"/>
    <tag k="tiger:source" v="tiger_import_dch_v0.6_20070830"/>
    <tag k="tiger:tlid" v="176079818:176079823:176079829:176079831:176079832:176079834:176080148:176080153:176102728:176102730:176112167:176112239"/>
    <tag k="tiger:zip_left" v="84107"/>
    <tag k="tiger:zip_right" v="84107"/>
  </way>
  <way id="50087907" version="7" timestamp="2012-01-07T20:14:19Z" uid="8909" user="mvexel" changeset="10325247">
    <nd ref="83628790"/>
    <nd ref="83628794"/>
    <nd ref="1413918575"/>
    <nd ref="83628796"/>
    <nd ref="1573548433"/>
    <nd ref="83623443"/>
    <nd ref="83628798"/>
    <nd ref="83628800"/>
    <nd ref="83628802"/>
    <nd ref="1218568993"/>
    <nd ref="1581511620"/>
    <nd ref="1218569358"/>
    <nd ref="83547453"/>
    <nd ref="1581511473"/>
    <nd ref="83628815"/>
    <nd ref="83628817"/>
    <nd ref="83628818"/>
    <nd ref="83583601"/>
    <nd ref="83586787"/>
    <nd ref="509905038"/>
    <nd ref="83628819"/>
    <nd ref="83628820"/>
    <nd ref="83600867"/>
    <nd ref="83628821"/>
    <nd ref="83628822"/>
    <nd ref="83628824"/>
    <nd ref="83551109"/>
    <nd ref="83548080"/>
    <nd ref="83587106"/>
    <nd ref="83569603"/>
    <tag k="highway" v="tertiary"/>
    <tag k="lanes" v="4"/>
    <tag k="loc_name" v="5th East"/>
    <tag k="name" v="500 East"/>
    <tag k="name:full" v="South 500 East"/>
    <tag k="name:prefix" v="S"/>
    <tag k="tiger:cfcc" v="A41"/>
    <tag k="tiger:county" v="Salt Lake, UT"/>
    <tag k="tiger:name_base" v="500 East"/>
    <tag k="tiger:name_base_1" v="500"/>
    <tag k="tiger:name_base_2" v="5th East"/>
    <tag k="tiger:name_direction_prefix" v="S"/>
    <tag k="tiger:name_direction_prefix_1" v="S"/>
    <tag k="tiger:name_direction_prefix_2" v="S"/>
    <tag k="tiger:name_direction_suffix_1" v="E"/>
    <tag k="tiger:reviewed" v="yes"/>
    <tag k="tiger:separated" v="no"/>
    <tag k="tiger:source" v="tiger_import_dch_v0.6_20070830"/>
    <tag k="tiger:tlid" v="176079818:176079823:176079829:176079831:176079832:176079834:176080148:176080153:176102728:176102730:176112167:176112239"/>
    <tag k="tiger:zip_left" v="84107"/>
    <tag k="tiger:zip_right" v="84107"/>
  </way>
  <way id="50087907" version="8" timestamp="2012-01-08T00:58:36Z" uid="8909" user="mvexel" changeset="10327399">
    <nd ref="83628790"/>
    <nd ref="1581924795"/>
    <nd ref="83628794"/>
    <nd ref="1413918575"/>
    <nd ref="83628796"/>
    <nd ref="1573548433"/>
    <nd ref="83623443"/>
    <nd ref="83628798"/>
    <nd ref="83628800"/>
    <nd ref="83628802"/>
    <nd ref="1218568993"/>
    <nd ref="1581511620"/>
    <nd ref="1218569358"/>
    <nd ref="83547453"/>
    <nd ref="1581511473"/>
    <nd ref="83628815"/>
    <nd ref="83628817"/>
    <nd ref="83628818"/>
    <nd ref="83583601"/>
    <nd ref="83586787"/>
    <nd ref="509905038"/>
    <nd ref="83628819"/>
    <nd ref="83628820"/>
    <nd ref="83600867"/>
    <nd ref="83628821"/>
    <nd ref="83628822"/>
    <nd ref="83628824"/>
    <nd ref="83551109"/>
    <nd ref="83548080"/>
    <nd ref="83587106"/>
    <nd ref="83569603"/>
    <tag k="highway" v="tertiary"/>
    <tag k="lanes" v="4"/>
    <tag k="loc_name" v="5th East"/>
    <tag k="name" v="500 East"/>
    <tag k="name:full" v="South 500 East"/>
    <tag k="name:prefix" v="S"/>
    <tag k="tiger:cfcc" v="A41"/>
    <tag k="tiger:county" v="Salt Lake, UT"/>
    <tag k="tiger:name_base" v="500 East"/>
    <tag k="tiger:name_base_1" v="500"/>
    <tag k="tiger:name_base_2" v="5th East"/>
    <tag k="tiger:name_direction_prefix" v="S"/>
    <tag k="tiger:name_direction_prefix_1" v="S"/>
    <tag k="tiger:name_direction_prefix_2" v="S"/>
    <tag k="tiger:name_direction_suffix_1" v="E"/>
    <tag k="tiger:reviewed" v="yes"/>
    <tag k="tiger:separated" v="no"/>
    <tag k="tiger:source" v="tiger_import_dch_v0.6_20070830"/>
    <tag k="tiger:tlid" v="176079818:176079823:176079829:176079831:176079832:176079834:176080148:176080153:176102728:176102730:176112167:176112239"/>
    <tag k="tiger:zip_left" v="84107"/>
    <tag k="tiger:zip_right" v="84107"/>
  </way>
  <way id="50087907" version="9" timestamp="2012-01-10T17:36:29Z" uid="8909" user="mvexel" changeset="10353314">
    <nd ref="83628790"/>
    <nd ref="1581924795"/>
    <nd ref="83628794"/>
    <nd ref="1413918575"/>
    <nd ref="83628796"/>
    <nd ref="1573548433"/>
    <nd ref="83623443"/>
    <nd ref="83628798"/>
    <nd ref="83628800"/>
    <nd ref="83628802"/>
    <nd ref="1584813081"/>
    <nd ref="1218568993"/>
    <nd ref="1581511620"/>
    <nd ref="1218569358"/>
    <nd ref="83547453"/>
    <nd ref="1581511473"/>
    <nd ref="83628815"/>
    <nd ref="83628817"/>
    <nd ref="83628818"/>
    <nd ref="83583601"/>
    <nd ref="83586787"/>
    <nd ref="509905038"/>
    <nd ref="83628819"/>
    <nd ref="83628820"/>
    <nd ref="83600867"/>
    <nd ref="83628821"/>
    <nd ref="83628822"/>
    <nd ref="83628824"/>
    <nd ref="83551109"/>
    <nd ref="83548080"/>
    <nd ref="83587106"/>
    <nd ref="83569603"/>
    <tag k="highway" v="tertiary"/>
    <tag k="lanes" v="4"/>
    <tag k="loc_name" v="5th East"/>
    <tag k="name" v="500 East"/>
    <tag k="name:full" v="South 500 East"/>
    <tag k="name:prefix" v="S"/>
    <tag k="tiger:cfcc" v="A41"/>
    <tag k="tiger:county" v="Salt Lake, UT"/>
    <tag k="tiger:name_base" v="500 East"/>
    <tag k="tiger:name_base_1" v="500"/>
    <tag k="tiger:name_base_2" v="5th East"/>
    <tag k="tiger:name_direction_prefix" v="S"/>
    <tag k="tiger:name_direction_prefix_1" v="S"/>
    <tag k="tiger:name_direction_prefix_2" v="S"/>
    <tag k="tiger:name_direction_suffix_1" v="E"/>
    <tag k="tiger:reviewed" v="yes"/>
    <tag k="tiger:separated" v="no"/>
    <tag k="tiger:source" v="tiger_import_dch_v0.6_20070830"/>
    <tag k="tiger:tlid" v="176079818:176079823:176079829:176079831:176079832:176079834:176080148:176080153:176102728:176102730:176112167:176112239"/>
    <tag k="tiger:zip_left" v="84107"/>
    <tag k="tiger:zip_right" v="84107"/>
  </way>
  <way id="50087907" version="10" timestamp="2012-01-10T21:51:37Z" uid="8909" user="mvexel" changeset="10355923"/>
  <way id="50087909" version="1" timestamp="2010-02-11T20:17:39Z" uid="110593" user="esetzer" changeset="3851654">
    <nd ref="636019448"/>
    <nd ref="636019451"/>
    <tag k="bridge" v="yes"/>
    <tag k="highway" v="motorway"/>
    <tag k="layer" v="1"/>
    <tag k="maxspeed" v="65mph"/>
    <tag k="name" v="I-80"/>
    <tag k="oneway" v="yes"/>
    <tag k="ref" v="I 80"/>
  </way>
  <way id="50087909" version="2" timestamp="2011-03-26T03:50:14Z" uid="207745" user="NE2" changeset="7671910">
    <nd ref="636019448"/>
    <nd ref="636019451"/>
    <tag k="bridge" v="yes"/>
    <tag k="highway" v="motorway"/>
    <tag k="layer" v="1"/>
    <tag k="maxspeed" v="65mph"/>
    <tag k="old_ref" v="SR 2"/>
    <tag k="oneway" v="yes"/>
    <tag k="ref" v="I 80"/>
  </way>
  <way id="50087909" version="3" timestamp="2011-04-06T17:59:30Z" uid="207745" user="NE2" changeset="7787398">
    <nd ref="636019448"/>
    <nd ref="636019451"/>
    <tag k="bridge" v="yes"/>
    <tag k="highway" v="motorway"/>
    <tag k="layer" v="1"/>
    <tag k="maxspeed" v="65 mph"/>
    <tag k="old_ref" v="SR 2"/>
    <tag k="oneway" v="yes"/>
    <tag k="ref" v="I 80"/>
  </way>
  <way id="50087909" version="4" timestamp="2011-08-04T10:26:20Z" uid="207745" user="NE2" changeset="8918286">
    <nd ref="636019448"/>
    <nd ref="636019451"/>
    <tag k="bridge" v="yes"/>
    <tag k="highway" v="motorway"/>
    <tag k="lanes" v="3"/>
    <tag k="layer" v="1"/>
    <tag k="maxspeed" v="65 mph"/>
    <tag k="old_ref" v="SR 2"/>
    <tag k="oneway" v="yes"/>
    <tag k="ref" v="I 80"/>
  </way>
  <way id="50087909" version="5" timestamp="2011-10-16T03:36:59Z" uid="207745" user="NE2" changeset="9568940">
    <nd ref="636019448"/>
    <nd ref="636019451"/>
    <tag k="bicycle" v="no"/>
    <tag k="bridge" v="yes"/>
    <tag k="highway" v="motorway"/>
    <tag k="lanes" v="3"/>
    <tag k="layer" v="1"/>
    <tag k="maxspeed" v="65 mph"/>
    <tag k="old_ref" v="SR 2"/>
    <tag k="oneway" v="yes"/>
    <tag k="ref" v="I 80"/>
  </way>
  <way id="50087909" version="6" timestamp="2011-12-05T20:31:45Z" uid="207745" user="NE2" changeset="10045043">
    <nd ref="636019448"/>
    <nd ref="636019451"/>
    <tag k="bicycle" v="no"/>
    <tag k="bridge" v="yes"/>
    <tag k="hgv" v="designated"/>
    <tag k="highway" v="motorway"/>
    <tag k="lanes" v="3"/>
    <tag k="layer" v="1"/>
    <tag k="maxspeed" v="65 mph"/>
    <tag k="old_ref" v="SR 2"/>
    <tag k="oneway" v="yes"/>
    <tag k="ref" v="I 80"/>
  </way>
  <way id="50087909" version="7" timestamp="2012-01-10T06:18:36Z" uid="8909" user="mvexel" changeset="10348572"/>
  <way id="50087910" version="1" timestamp="2010-02-11T20:17:39Z" uid="110593" user="esetzer" changeset="3851654">
    <nd ref="636019451"/>
    <nd ref="369131709"/>
    <nd ref="369131657"/>
    <nd ref="369131723"/>
    <tag k="highway" v="motorway"/>
    <tag k="maxspeed" v="65mph"/>
    <tag k="name" v="I-80"/>
    <tag k="oneway" v="yes"/>
    <tag k="ref" v="I 80"/>
  </way>
  <way id="50087910" version="2" timestamp="2011-03-26T03:47:32Z" uid="207745" user="NE2" changeset="7671910">
    <nd ref="636019451"/>
    <nd ref="369131709"/>
    <nd ref="369131657"/>
    <nd ref="369131723"/>
    <tag k="highway" v="motorway"/>
    <tag k="maxspeed" v="65mph"/>
    <tag k="old_ref" v="SR 2"/>
    <tag k="oneway" v="yes"/>
    <tag k="ref" v="I 80"/>
  </way>
  <way id="50087910" version="3" timestamp="2011-04-06T22:14:30Z" uid="207745" user="NE2" changeset="7788882">
    <nd ref="636019451"/>
    <nd ref="369131709"/>
    <nd ref="369131657"/>
    <nd ref="369131723"/>
    <tag k="highway" v="motorway"/>
    <tag k="maxspeed" v="65 mph"/>
    <tag k="old_ref" v="SR 2"/>
    <tag k="oneway" v="yes"/>
    <tag k="ref" v="I 80"/>
  </way>
  <way id="50087910" version="4" timestamp="2011-08-04T10:26:23Z" uid="207745" user="NE2" changeset="8918286">
    <nd ref="636019451"/>
    <nd ref="369131709"/>
    <nd ref="369131657"/>
    <nd ref="369131723"/>
    <tag k="highway" v="motorway"/>
    <tag k="lanes" v="3"/>
    <tag k="maxspeed" v="65 mph"/>
    <tag k="old_ref" v="SR 2"/>
    <tag k="oneway" v="yes"/>
    <tag k="ref" v="I 80"/>
  </way>
  <way id="50087910" version="5" timestamp="2011-10-16T03:37:14Z" uid="207745" user="NE2" changeset="9568940">
    <nd ref="636019451"/>
    <nd ref="369131709"/>
    <nd ref="369131657"/>
    <nd ref="369131723"/>
    <tag k="bicycle" v="no"/>
    <tag k="highway" v="motorway"/>
    <tag k="lanes" v="3"/>
    <tag k="maxspeed" v="65 mph"/>
    <tag k="old_ref" v="SR 2"/>
    <tag k="oneway" v="yes"/>
    <tag k="ref" v="I 80"/>
  </way>
  <way id="50087910" version="6" timestamp="2011-12-05T20:34:22Z" uid="207745" user="NE2" changeset="10045043">
    <nd ref="636019451"/>
    <nd ref="369131709"/>
    <nd ref="369131657"/>
    <nd ref="369131723"/>
    <tag k="bicycle" v="no"/>
    <tag k="hgv" v="designated"/>
    <tag k="highway" v="motorway"/>
    <tag k="lanes" v="3"/>
    <tag k="maxspeed" v="65 mph"/>
    <tag k="old_ref" v="SR 2"/>
    <tag k="oneway" v="yes"/>
    <tag k="ref" v="I 80"/>
  </way>
  <way id="50087910" version="7" timestamp="2012-01-10T06:18:35Z" uid="8909" user="mvexel" changeset="10348572"/>
  <way id="50087911" version="1" timestamp="2010-02-11T20:17:40Z" uid="110593" user="esetzer" changeset="3851654">
    <nd ref="636019449"/>
    <nd ref="369131736"/>
    <nd ref="636019452"/>
    <tag k="highway" v="motorway"/>
    <tag k="maxspeed" v="65mph"/>
    <tag k="name" v="I-80"/>
    <tag k="oneway" v="yes"/>
    <tag k="ref" v="I 80"/>
  </way>
  <way id="50087911" version="2" timestamp="2011-03-26T04:00:20Z" uid="207745" user="NE2" changeset="7671930">
    <nd ref="636019449"/>
    <nd ref="369131736"/>
    <nd ref="636019452"/>
    <tag k="highway" v="motorway"/>
    <tag k="maxspeed" v="65mph"/>
    <tag k="old_ref" v="SR 2"/>
    <tag k="oneway" v="yes"/>
    <tag k="ref" v="I 80"/>
  </way>
  <way id="50087911" version="3" timestamp="2011-04-06T18:07:57Z" uid="207745" user="NE2" changeset="7787398">
    <nd ref="636019449"/>
    <nd ref="369131736"/>
    <nd ref="636019452"/>
    <tag k="highway" v="motorway"/>
    <tag k="maxspeed" v="65 mph"/>
    <tag k="old_ref" v="SR 2"/>
    <tag k="oneway" v="yes"/>
    <tag k="ref" v="I 80"/>
  </way>
  <way id="50087911" version="4" timestamp="2011-06-27T22:40:47Z" uid="473471" user="NE3" changeset="8567175">
    <nd ref="636019449"/>
    <nd ref="369131736"/>
    <nd ref="636019452"/>
    <tag k="highway" v="motorway"/>
    <tag k="lanes" v="3"/>
    <tag k="maxspeed" v="65 mph"/>
    <tag k="old_ref" v="SR 2"/>
    <tag k="oneway" v="yes"/>
    <tag k="ref" v="I 80"/>
  </way>
  <way id="50087911" version="5" timestamp="2011-10-16T03:37:06Z" uid="207745" user="NE2" changeset="9568940">
    <nd ref="636019449"/>
    <nd ref="369131736"/>
    <nd ref="636019452"/>
    <tag k="bicycle" v="no"/>
    <tag k="highway" v="motorway"/>
    <tag k="lanes" v="3"/>
    <tag k="maxspeed" v="65 mph"/>
    <tag k="old_ref" v="SR 2"/>
    <tag k="oneway" v="yes"/>
    <tag k="ref" v="I 80"/>
  </way>
  <way id="50087911" version="6" timestamp="2011-12-05T20:33:30Z" uid="207745" user="NE2" changeset="10045043">
    <nd ref="636019449"/>
    <nd ref="369131736"/>
    <nd ref="636019452"/>
    <tag k="bicycle" v="no"/>
    <tag k="hgv" v="designated"/>
    <tag k="highway" v="motorway"/>
    <tag k="lanes" v="3"/>
    <tag k="maxspeed" v="65 mph"/>
    <tag k="old_ref" v="SR 2"/>
    <tag k="oneway" v="yes"/>
    <tag k="ref" v="I 80"/>
  </way>
  <way id="50087911" version="7" timestamp="2012-01-10T06:18:35Z" uid="8909" user="mvexel" changeset="10348572"/>
  <way id="50087913" version="1" timestamp="2010-02-11T20:18:00Z" uid="110593" user="esetzer" changeset="3851655">
    <nd ref="636019450"/>
    <nd ref="636019449"/>
    <tag k="bridge" v="yes"/>
    <tag k="highway" v="motorway"/>
    <tag k="layer" v="1"/>
    <tag k="maxspeed" v="65mph"/>
    <tag k="name" v="I-80"/>
    <tag k="oneway" v="yes"/>
    <tag k="ref" v="I 80"/>
  </way>
  <way id="50087913" version="2" timestamp="2011-03-26T03:48:23Z" uid="207745" user="NE2" changeset="7671910">
    <nd ref="636019450"/>
    <nd ref="636019449"/>
    <tag k="bridge" v="yes"/>
    <tag k="highway" v="motorway"/>
    <tag k="layer" v="1"/>
    <tag k="maxspeed" v="65mph"/>
    <tag k="old_ref" v="SR 2"/>
    <tag k="oneway" v="yes"/>
    <tag k="ref" v="I 80"/>
  </way>
  <way id="50087913" version="3" timestamp="2011-04-06T21:20:35Z" uid="207745" user="NE2" changeset="7788882">
    <nd ref="636019450"/>
    <nd ref="636019449"/>
    <tag k="bridge" v="yes"/>
    <tag k="highway" v="motorway"/>
    <tag k="layer" v="1"/>
    <tag k="maxspeed" v="65 mph"/>
    <tag k="old_ref" v="SR 2"/>
    <tag k="oneway" v="yes"/>
    <tag k="ref" v="I 80"/>
  </way>
  <way id="50087913" version="4" timestamp="2011-08-04T10:26:20Z" uid="207745" user="NE2" changeset="8918286">
    <nd ref="636019450"/>
    <nd ref="636019449"/>
    <tag k="bridge" v="yes"/>
    <tag k="highway" v="motorway"/>
    <tag k="lanes" v="3"/>
    <tag k="layer" v="1"/>
    <tag k="maxspeed" v="65 mph"/>
    <tag k="old_ref" v="SR 2"/>
    <tag k="oneway" v="yes"/>
    <tag k="ref" v="I 80"/>
  </way>
  <way id="50087913" version="5" timestamp="2011-10-16T03:36:42Z" uid="207745" user="NE2" changeset="9568940">
    <nd ref="636019450"/>
    <nd ref="636019449"/>
    <tag k="bicycle" v="no"/>
    <tag k="bridge" v="yes"/>
    <tag k="highway" v="motorway"/>
    <tag k="lanes" v="3"/>
    <tag k="layer" v="1"/>
    <tag k="maxspeed" v="65 mph"/>
    <tag k="old_ref" v="SR 2"/>
    <tag k="oneway" v="yes"/>
    <tag k="ref" v="I 80"/>
  </way>
  <way id="50087913" version="6" timestamp="2011-12-05T20:30:24Z" uid="207745" user="NE2" changeset="10045043">
    <nd ref="636019450"/>
    <nd ref="636019449"/>
    <tag k="bicycle" v="no"/>
    <tag k="bridge" v="yes"/>
    <tag k="hgv" v="designated"/>
    <tag k="highway" v="motorway"/>
    <tag k="lanes" v="3"/>
    <tag k="layer" v="1"/>
    <tag k="maxspeed" v="65 mph"/>
    <tag k="old_ref" v="SR 2"/>
    <tag k="oneway" v="yes"/>
    <tag k="ref" v="I 80"/>
  </way>
  <way id="50087913" version="7" timestamp="2012-01-10T06:18:35Z" uid="8909" user="mvexel" changeset="10348572"/>
  <way id="50087917" version="1" timestamp="2010-02-11T20:18:01Z" uid="110593" user="esetzer" changeset="3851655">
    <nd ref="636019452"/>
    <nd ref="635741646"/>
    <tag k="bridge" v="yes"/>
    <tag k="highway" v="motorway"/>
    <tag k="layer" v="1"/>
    <tag k="maxspeed" v="65mph"/>
    <tag k="name" v="I-80"/>
    <tag k="oneway" v="yes"/>
    <tag k="ref" v="I 80"/>
  </way>
  <way id="50087917" version="2" timestamp="2011-03-26T04:01:53Z" uid="207745" user="NE2" changeset="7671930">
    <nd ref="636019452"/>
    <nd ref="635741646"/>
    <tag k="bridge" v="yes"/>
    <tag k="highway" v="motorway"/>
    <tag k="layer" v="1"/>
    <tag k="maxspeed" v="65mph"/>
    <tag k="old_ref" v="SR 2"/>
    <tag k="oneway" v="yes"/>
    <tag k="ref" v="I 80"/>
  </way>
  <way id="50087917" version="3" timestamp="2011-04-06T22:53:21Z" uid="207745" user="NE2" changeset="7788882">
    <nd ref="636019452"/>
    <nd ref="635741646"/>
    <tag k="bridge" v="yes"/>
    <tag k="highway" v="motorway"/>
    <tag k="layer" v="1"/>
    <tag k="maxspeed" v="65 mph"/>
    <tag k="old_ref" v="SR 2"/>
    <tag k="oneway" v="yes"/>
    <tag k="ref" v="I 80"/>
  </way>
  <way id="50087917" version="4" timestamp="2011-06-27T22:44:42Z" uid="473471" user="NE3" changeset="8567175">
    <nd ref="636019452"/>
    <nd ref="635741646"/>
    <tag k="bridge" v="yes"/>
    <tag k="highway" v="motorway"/>
    <tag k="lanes" v="3"/>
    <tag k="layer" v="1"/>
    <tag k="maxspeed" v="65 mph"/>
    <tag k="old_ref" v="SR 2"/>
    <tag k="oneway" v="yes"/>
    <tag k="ref" v="I 80"/>
  </way>
  <way id="50087917" version="5" timestamp="2011-10-16T03:36:51Z" uid="207745" user="NE2" changeset="9568940">
    <nd ref="636019452"/>
    <nd ref="635741646"/>
    <tag k="bicycle" v="no"/>
    <tag k="bridge" v="yes"/>
    <tag k="highway" v="motorway"/>
    <tag k="lanes" v="3"/>
    <tag k="layer" v="1"/>
    <tag k="maxspeed" v="65 mph"/>
    <tag k="old_ref" v="SR 2"/>
    <tag k="oneway" v="yes"/>
    <tag k="ref" v="I 80"/>
  </way>
  <way id="50087917" version="6" timestamp="2011-12-05T20:30:50Z" uid="207745" user="NE2" changeset="10045043">
    <nd ref="636019452"/>
    <nd ref="635741646"/>
    <tag k="bicycle" v="no"/>
    <tag k="bridge" v="yes"/>
    <tag k="hgv" v="designated"/>
    <tag k="highway" v="motorway"/>
    <tag k="lanes" v="3"/>
    <tag k="layer" v="1"/>
    <tag k="maxspeed" v="65 mph"/>
    <tag k="old_ref" v="SR 2"/>
    <tag k="oneway" v="yes"/>
    <tag k="ref" v="I 80"/>
  </way>
  <way id="50087917" version="7" timestamp="2012-01-10T06:18:36Z" uid="8909" user="mvexel" changeset="10348572"/>
  <way id="50087919" version="1" timestamp="2010-02-11T20:18:02Z" uid="110593" user="esetzer" changeset="3851655">
    <nd ref="635741646"/>
    <nd ref="368166743"/>
    <nd ref="368166745"/>
    <nd ref="368166747"/>
    <nd ref="368166748"/>
    <nd ref="368166750"/>
    <tag k="created_by" v="Merkaartor 0.11"/>
    <tag k="highway" v="motorway"/>
    <tag k="maxspeed" v="65mph"/>
    <tag k="name" v="I-80"/>
    <tag k="oneway" v="yes"/>
    <tag k="ref" v="I 80"/>
  </way>
  <way id="50087919" version="2" timestamp="2010-03-23T23:27:15Z" uid="207745" user="NE2" changeset="4217437">
    <nd ref="635741646"/>
    <nd ref="368166743"/>
    <nd ref="368166745"/>
    <nd ref="368166747"/>
    <nd ref="368166748"/>
    <nd ref="368166750"/>
    <tag k="highway" v="motorway"/>
    <tag k="maxspeed" v="65mph"/>
    <tag k="name" v="I-80"/>
    <tag k="oneway" v="yes"/>
    <tag k="ref" v="I 80"/>
  </way>
  <way id="50087919" version="3" timestamp="2011-03-26T03:55:53Z" uid="207745" user="NE2" changeset="7671930">
    <nd ref="635741646"/>
    <nd ref="368166743"/>
    <nd ref="368166745"/>
    <nd ref="368166747"/>
    <nd ref="368166748"/>
    <nd ref="368166750"/>
    <tag k="highway" v="motorway"/>
    <tag k="maxspeed" v="65mph"/>
    <tag k="old_ref" v="SR 2"/>
    <tag k="oneway" v="yes"/>
    <tag k="ref" v="I 80"/>
  </way>
  <way id="50087919" version="4" timestamp="2011-04-06T22:29:01Z" uid="207745" user="NE2" changeset="7788882">
    <nd ref="635741646"/>
    <nd ref="368166743"/>
    <nd ref="368166745"/>
    <nd ref="368166747"/>
    <nd ref="368166748"/>
    <nd ref="368166750"/>
    <tag k="highway" v="motorway"/>
    <tag k="maxspeed" v="65 mph"/>
    <tag k="old_ref" v="SR 2"/>
    <tag k="oneway" v="yes"/>
    <tag k="ref" v="I 80"/>
  </way>
  <way id="50087919" version="5" timestamp="2011-06-27T22:51:26Z" uid="473471" user="NE3" changeset="8567175">
    <nd ref="635741646"/>
    <nd ref="368166743"/>
    <nd ref="368166745"/>
    <nd ref="368166747"/>
    <nd ref="368166748"/>
    <nd ref="368166750"/>
    <tag k="highway" v="motorway"/>
    <tag k="lanes" v="3"/>
    <tag k="maxspeed" v="65 mph"/>
    <tag k="old_ref" v="SR 2"/>
    <tag k="oneway" v="yes"/>
    <tag k="ref" v="I 80"/>
  </way>
  <way id="50087919" version="6" timestamp="2011-10-16T03:37:23Z" uid="207745" user="NE2" changeset="9568940">
    <nd ref="635741646"/>
    <nd ref="368166743"/>
    <nd ref="368166745"/>
    <nd ref="368166747"/>
    <nd ref="368166748"/>
    <nd ref="368166750"/>
    <tag k="bicycle" v="no"/>
    <tag k="highway" v="motorway"/>
    <tag k="lanes" v="3"/>
    <tag k="maxspeed" v="65 mph"/>
    <tag k="old_ref" v="SR 2"/>
    <tag k="oneway" v="yes"/>
    <tag k="ref" v="I 80"/>
  </way>
  <way id="50087919" version="7" timestamp="2011-12-05T20:35:48Z" uid="207745" user="NE2" changeset="10045043">
    <nd ref="635741646"/>
    <nd ref="368166743"/>
    <nd ref="368166745"/>
    <nd ref="368166747"/>
    <nd ref="368166748"/>
    <nd ref="368166750"/>
    <tag k="bicycle" v="no"/>
    <tag k="hgv" v="designated"/>
    <tag k="highway" v="motorway"/>
    <tag k="lanes" v="3"/>
    <tag k="maxspeed" v="65 mph"/>
    <tag k="old_ref" v="SR 2"/>
    <tag k="oneway" v="yes"/>
    <tag k="ref" v="I 80"/>
  </way>
  <way id="50087919" version="8" timestamp="2012-01-02T03:38:31Z" uid="8909" user="mvexel" changeset="10267626">
    <nd ref="635741646"/>
    <nd ref="368166743"/>
    <nd ref="368166745"/>
    <nd ref="368166747"/>
    <nd ref="368166748"/>
    <nd ref="368166750"/>
    <tag k="bicycle" v="no"/>
    <tag k="hgv" v="designated"/>
    <tag k="highway" v="motorway"/>
    <tag k="lanes" v="3"/>
    <tag k="layer" v="1"/>
    <tag k="maxspeed" v="65 mph"/>
    <tag k="old_ref" v="SR 2"/>
    <tag k="oneway" v="yes"/>
    <tag k="ref" v="I 80"/>
  </way>
  <way id="50087919" version="9" timestamp="2012-01-10T05:25:22Z" uid="8909" user="mvexel" changeset="10348408">
    <nd ref="635741646"/>
    <nd ref="368166743"/>
    <nd ref="368166745"/>
    <nd ref="368166747"/>
    <tag k="bicycle" v="no"/>
    <tag k="hgv" v="designated"/>
    <tag k="highway" v="motorway"/>
    <tag k="lanes" v="3"/>
    <tag k="layer" v="1"/>
    <tag k="maxspeed" v="65 mph"/>
    <tag k="old_ref" v="SR 2"/>
    <tag k="oneway" v="yes"/>
    <tag k="ref" v="I 80"/>
  </way>
  <way id="50087919" version="10" timestamp="2012-01-10T06:18:35Z" uid="8909" user="mvexel" changeset="10348572"/>
</osm>
