<?xml version='1.0' encoding='UTF-8'?>
<osm version="0.6" generator="libosmium/2.20.0">
  <way id="50216661" version="6" timestamp="2011-01-19T16:13:21Z" uid="115477" user="wowik" changeset="7021940">
    <nd ref="638330811"/>
    <nd ref="1110423811"/>
    <nd ref="1110424090"/>
    <nd ref="1110424062"/>
    <nd ref="638330820"/>
    <nd ref="1110424138"/>
    <nd ref="1110424017"/>
    <nd ref="1110423900"/>
    <nd ref="638330821"/>
    <nd ref="1110424103"/>
    <nd ref="638330812"/>
    <nd ref="638330813"/>
    <nd ref="638330815"/>
    <nd ref="638330817"/>
    <nd ref="1110424085"/>
    <nd ref="638330819"/>
    <nd ref="1110424119"/>
    <nd ref="638330822"/>
    <nd ref="638330811"/>
    <tag k="addr:housenumber" v="15"/>
    <tag k="addr:street" v="Пушечная улица"/>
    <tag k="amenity" v="place_of_worship"/>
    <tag k="building" v="yes"/>
    <tag k="cladr:code" v="77000000000241600"/>
    <tag k="description" v="О.И. Бове; восстановл. после пожара 1812 г."/>
    <tag k="name" v="Церковь Софии Премудрости Божией"/>
    <tag k="official_name" v="Церковь Софии Премудрости Божией на Софийке"/>
    <tag k="religion" v="christian"/>
  </way>
  <way id="50216661" version="7" timestamp="2011-12-12T08:49:07Z" uid="126304" user="TarzanASG" changeset="10096498">
    <nd ref="638330811"/>
    <nd ref="1110423811"/>
    <nd ref="1110424090"/>
    <nd ref="1110424062"/>
    <nd ref="638330820"/>
    <nd ref="1110424138"/>
    <nd ref="1110424017"/>
    <nd ref="1110423900"/>
    <nd ref="638330821"/>
    <nd ref="1110424103"/>
    <nd ref="638330812"/>
    <nd ref="638330813"/>
    <nd ref="638330815"/>
    <nd ref="638330817"/>
    <nd ref="1110424085"/>
    <nd ref="638330819"/>
    <nd ref="1110424119"/>
    <nd ref="638330822"/>
    <nd ref="638330811"/>
    <tag k="addr:housenumber" v="15"/>
    <tag k="addr:street" v="Пушечная улица"/>
    <tag k="amenity" v="place_of_worship"/>
    <tag k="building" v="church"/>
    <tag k="cladr:code" v="77000000000241600"/>
    <tag k="description" v="О.И. Бове; восстановл. после пожара 1812 г."/>
    <tag k="name" v="Церковь Софии Премудрости Божией"/>
    <tag k="official_name" v="Церковь Софии Премудрости Божией на Софийке"/>
    <tag k="religion" v="christian"/>
  </way>
  <way id="50216661" version="8" timestamp="2011-12-14T15:25:19Z" uid="143266" user="Sergey Astakhov" changeset="10116697">
    <nd ref="638330811"/>
    <nd ref="1110423811"/>
    <nd ref="1110424090"/>
    <nd ref="1110424062"/>
    <nd ref="638330820"/>
    <nd ref="1110424138"/>
    <nd ref="1110424017"/>
    <nd ref="1110423900"/>
    <nd ref="638330821"/>
    <nd ref="1110424103"/>
    <nd ref="638330812"/>
    <nd ref="638330813"/>
    <nd ref="638330815"/>
    <nd ref="638330817"/>
    <nd ref="1110424085"/>
    <nd ref="638330819"/>
    <nd ref="1110424119"/>
    <nd ref="638330822"/>
    <nd ref="638330811"/>
    <tag k="addr:housenumber" v="15"/>
    <tag k="addr:street" v="Пушечная улица"/>
    <tag k="amenity" v="place_of_worship"/>
    <tag k="building" v="yes"/>
    <tag k="cladr:code" v="77000000000241600"/>
    <tag k="description" v="О.И. Бове; восстановл. после пожара 1812 г."/>
    <tag k="name" v="Церковь Софии Премудрости Божией"/>
    <tag k="official_name" v="Церковь Софии Премудрости Божией на Софийке"/>
    <tag k="religion" v="christian"/>
  </way>
  <way id="50216900" version="1" timestamp="2010-02-13T11:26:44Z" uid="8807" user="brendanpuck" changeset="3863699">
    <nd ref="638332265"/>
    <nd ref="638332266"/>
    <nd ref="638332267"/>
    <nd ref="638332268"/>
    <nd ref="638332281"/>
    <tag k="highway" v="residential"/>
    <tag k="name" v="William Street"/>
    <tag k="surface" v="paved"/>
  </way>
  <way id="50216900" version="2" timestamp="2010-02-13T20:03:28Z" uid="8807" user="brendanpuck" changeset="3868091">
    <nd ref="638332265"/>
    <nd ref="638332266"/>
    <nd ref="638332267"/>
    <nd ref="638701921"/>
    <nd ref="638332268"/>
    <nd ref="638332281"/>
    <tag k="highway" v="residential"/>
    <tag k="name" v="William Street"/>
    <tag k="surface" v="paved"/>
  </way>
  <way id="50216900" version="3" timestamp="2010-04-24T08:32:13Z" uid="22094" user="Chadzopkyo" changeset="4509814">
    <nd ref="638332265"/>
    <nd ref="638332266"/>
    <nd ref="638332267"/>
    <nd ref="638701921"/>
    <nd ref="638332268"/>
    <nd ref="705023557"/>
    <nd ref="638332281"/>
    <tag k="highway" v="residential"/>
    <tag k="name" v="William Street"/>
    <tag k="surface" v="paved"/>
  </way>
  <way id="50216900" version="4" timestamp="2010-07-08T04:49:14Z" uid="74617" user="JohnSmith" changeset="5163091">
    <nd ref="638332265"/>
    <nd ref="638332266"/>
    <nd ref="638332267"/>
    <nd ref="638701921"/>
    <nd ref="638332268"/>
    <nd ref="705023557"/>
    <nd ref="638332281"/>
    <tag k="highway" v="residential"/>
    <tag k="maxspeed" v="50"/>
    <tag k="maxspeed:source" v="default residential speed limit in Australia"/>
    <tag k="name" v="William Street"/>
    <tag k="surface" v="paved"/>
  </way>
  <way id="50216900" version="5" timestamp="2011-02-09T19:33:45Z" uid="20949" user="Ebenezer" changeset="7239251">
    <nd ref="638332265"/>
    <nd ref="638332266"/>
    <nd ref="638332267"/>
    <nd ref="638701921"/>
    <nd ref="638332268"/>
    <nd ref="1144317921"/>
    <nd ref="705023557"/>
    <nd ref="638332281"/>
    <tag k="highway" v="residential"/>
    <tag k="maxspeed" v="50"/>
    <tag k="maxspeed:source" v="default residential speed limit in Australia"/>
    <tag k="name" v="William Street"/>
    <tag k="surface" v="paved"/>
  </way>
  <way id="50216900" version="6" timestamp="2011-02-10T19:36:30Z" uid="20949" user="Ebenezer" changeset="7248572">
    <nd ref="638332265"/>
    <nd ref="1145786308"/>
    <nd ref="1145786023"/>
    <nd ref="638332266"/>
    <nd ref="638332267"/>
    <nd ref="638701921"/>
    <nd ref="638332268"/>
    <nd ref="1144317921"/>
    <nd ref="705023557"/>
    <nd ref="638332281"/>
    <tag k="highway" v="residential"/>
    <tag k="maxspeed" v="50"/>
    <tag k="maxspeed:source" v="default residential speed limit in Australia"/>
    <tag k="name" v="William Street"/>
    <tag k="surface" v="paved"/>
  </way>
  <way id="50216900" version="7" timestamp="2012-01-20T01:30:15Z" uid="147510" user="woodpeck_fixbot" changeset="10442677">
    <nd ref="638332265"/>
    <nd ref="1145786308"/>
    <nd ref="1145786023"/>
    <nd ref="638332266"/>
    <nd ref="638332267"/>
    <nd ref="638701921"/>
    <nd ref="638332268"/>
    <nd ref="1144317921"/>
    <nd ref="705023557"/>
    <nd ref="638332281"/>
    <tag k="highway" v="residential"/>
    <tag k="name" v="William Street"/>
    <tag k="surface" v="paved"/>
  </way>
  <way id="50216901" version="1" timestamp="2010-02-13T11:26:44Z" uid="8807" user="brendanpuck" changeset="3863699">
    <nd ref="321439192"/>
    <nd ref="321439215"/>
    <nd ref="321439216"/>
    <nd ref="321439217"/>
    <nd ref="321439218"/>
    <nd ref="321439219"/>
    <nd ref="325602349"/>
    <nd ref="321439031"/>
    <tag k="highway" v="unclassified"/>
  </way>
  <way id="50216901" version="2" timestamp="2010-04-24T08:04:46Z" uid="22094" user="Chadzopkyo" changeset="4509627"/>
  <way id="50216902" version="1" timestamp="2010-02-13T11:26:44Z" uid="8807" user="brendanpuck" changeset="3863699">
    <nd ref="638332269"/>
    <nd ref="638332270"/>
    <nd ref="638332271"/>
    <nd ref="638332272"/>
    <nd ref="638332273"/>
    <nd ref="638332274"/>
    <nd ref="638332269"/>
    <tag k="leisure" v="sports_centre"/>
    <tag k="name" v="Singleton Bowling Club"/>
    <tag k="sport" v="bowls"/>
  </way>
  <way id="50216903" version="1" timestamp="2010-02-13T11:26:44Z" uid="8807" user="brendanpuck" changeset="3863699">
    <nd ref="638332275"/>
    <nd ref="638332276"/>
    <nd ref="638332278"/>
    <nd ref="638332277"/>
    <nd ref="638332275"/>
  </way>
  <way id="50216903" version="2" timestamp="2010-02-13T20:03:28Z" uid="8807" user="brendanpuck" changeset="3868091">
    <nd ref="638332275"/>
    <nd ref="638332276"/>
    <nd ref="638332278"/>
    <nd ref="638332277"/>
    <nd ref="638701915"/>
    <nd ref="638332275"/>
    <tag k="amenity" v="parking"/>
    <tag k="name" v="Singleton Bowling Club"/>
  </way>
  <way id="50216904" version="1" timestamp="2010-02-13T11:26:44Z" uid="8807" user="brendanpuck" changeset="3863699">
    <nd ref="638332280"/>
    <nd ref="638332266"/>
    <tag k="highway" v="residential"/>
  </way>
  <way id="50216904" version="2" timestamp="2010-07-08T04:48:53Z" uid="74617" user="JohnSmith" changeset="5163091">
    <nd ref="638332280"/>
    <nd ref="638332266"/>
    <tag k="highway" v="residential"/>
    <tag k="maxspeed" v="50"/>
    <tag k="maxspeed:source" v="default residential speed limit in Australia"/>
  </way>
  <way id="50216904" version="3" timestamp="2012-01-20T01:30:18Z" uid="147510" user="woodpeck_fixbot" changeset="10442677">
    <nd ref="638332280"/>
    <nd ref="638332266"/>
    <tag k="highway" v="residential"/>
  </way>
  <way id="50216661" version="9" timestamp="2012-04-20T23:58:02Z" uid="478018" user="Fantomas" changeset="11369640">
    <nd ref="638330811"/>
    <nd ref="1110423811"/>
    <nd ref="1110424090"/>
    <nd ref="1110424062"/>
    <nd ref="638330820"/>
    <nd ref="1110424138"/>
    <nd ref="1110424017"/>
    <nd ref="1110423900"/>
    <nd ref="638330821"/>
    <nd ref="1110424103"/>
    <nd ref="638330812"/>
    <nd ref="638330813"/>
    <nd ref="638330815"/>
    <nd ref="638330817"/>
    <nd ref="1110424085"/>
    <nd ref="638330819"/>
    <nd ref="1110424119"/>
    <nd ref="638330822"/>
    <nd ref="638330811"/>
    <tag k="addr:housenumber" v="15"/>
    <tag k="addr:street" v="Пушечная улица"/>
    <tag k="amenity" v="place_of_worship"/>
    <tag k="building" v="yes"/>
    <tag k="cladr:code" v="77000000000241600"/>
    <tag k="denomination" v="russian_orthodox"/>
    <tag k="description" v="О.И. Бове; восстановл. после пожара 1812 г."/>
    <tag k="name" v="Церковь Софии Премудрости Божией"/>
    <tag k="official_name" v="Церковь Софии Премудрости Божией на Софийке"/>
    <tag k="religion" v="christian"/>
  </way>
  <way id="50216661" version="10" timestamp="2012-04-24T01:35:48Z" uid="478018" user="Fantomas" changeset="11401097">
    <nd ref="638330811"/>
    <nd ref="1110423811"/>
    <nd ref="1110424090"/>
    <nd ref="1110424062"/>
    <nd ref="638330820"/>
    <nd ref="1110424138"/>
    <nd ref="1110424017"/>
    <nd ref="1110423900"/>
    <nd ref="638330821"/>
    <nd ref="1110424103"/>
    <nd ref="638330812"/>
    <nd ref="638330813"/>
    <nd ref="638330815"/>
    <nd ref="638330817"/>
    <nd ref="1110424085"/>
    <nd ref="638330819"/>
    <nd ref="1110424119"/>
    <nd ref="638330822"/>
    <nd ref="638330811"/>
    <tag k="addr:housenumber" v="15"/>
    <tag k="addr:street" v="Пушечная улица"/>
    <tag k="amenity" v="place_of_worship"/>
    <tag k="building" v="church"/>
    <tag k="cladr:code" v="77000000000241600"/>
    <tag k="denomination" v="russian_orthodox"/>
    <tag k="description" v="О.И. Бове; восстановл. после пожара 1812 г."/>
    <tag k="name" v="Церковь Софии Премудрости Божией"/>
    <tag k="official_name" v="Церковь Софии Премудрости Божией на Софийке"/>
    <tag k="religion" v="christian"/>
  </way>
  <way id="50216661" version="11" timestamp="2012-07-20T11:28:49Z" uid="722137" user="OSMF Redaction Account" changeset="12373248">
    <nd ref="638330811"/>
    <nd ref="1110423811"/>
    <nd ref="1110424090"/>
    <nd ref="1110424062"/>
    <nd ref="638330820"/>
    <nd ref="1110424138"/>
    <nd ref="1110424017"/>
    <nd ref="1110423900"/>
    <nd ref="638330821"/>
    <nd ref="1110424103"/>
    <nd ref="638330812"/>
    <nd ref="638330813"/>
    <nd ref="638330815"/>
    <nd ref="638330817"/>
    <nd ref="1110424085"/>
    <nd ref="638330819"/>
    <nd ref="1110424119"/>
    <nd ref="638330822"/>
    <nd ref="638330811"/>
    <tag k="addr:housenumber" v="15"/>
    <tag k="addr:street" v="Пушечная улица"/>
    <tag k="amenity" v="place_of_worship"/>
    <tag k="building" v="church"/>
    <tag k="cladr:code" v="77000000000241600"/>
    <tag k="denomination" v="russian_orthodox"/>
    <tag k="description" v="О.И. Бове; восстановл. после пожара 1812 г."/>
    <tag k="name" v="Софии Премудрости Божией"/>
    <tag k="official_name" v="Софии Премудрости Божией на Софийке"/>
    <tag k="religion" v="christian"/>
  </way>
  <way id="50216900" version="8" timestamp="2012-07-21T18:25:45Z" uid="722137" user="OSMF Redaction Account" changeset="12417169">
    <nd ref="1145786308"/>
    <nd ref="1145786023"/>
    <nd ref="1144317921"/>
    <nd ref="705023557"/>
  </way>
  <way id="50216902" version="2" timestamp="2012-07-21T18:25:50Z" uid="722137" user="OSMF Redaction Account" changeset="12417169"/>
  <way id="50216903" version="3" timestamp="2012-07-21T18:25:50Z" uid="722137" user="OSMF Redaction Account" changeset="12417169"/>
  <way id="50216904" version="4" timestamp="2012-07-21T18:25:50Z" uid="722137" user="OSMF Redaction Account" changeset="12417169"/>
</osm>
