<?xml version='1.0' encoding='UTF-8'?>
<osm version="0.6" generator="libosmium/2.20.0">
  <way id="50626737" version="4" timestamp="2011-05-24T00:58:16Z" uid="4467" user="Rosscoe" changeset="8231530">
    <nd ref="644599250"/>
    <nd ref="1297908019"/>
    <nd ref="1297907814"/>
    <nd ref="666480744"/>
    <nd ref="644599243"/>
    <tag k="highway" v="secondary"/>
    <tag k="name" v="Mulligans Flat Road"/>
    <tag k="oneway" v="yes"/>
  </way>
  <way id="50626737" version="5" timestamp="2012-01-24T11:09:29Z" uid="12434" user="nm7s9" changeset="10483380">
    <nd ref="644599250"/>
    <nd ref="1603383047"/>
    <nd ref="1603383050"/>
    <nd ref="1603383052"/>
    <nd ref="666480744"/>
    <nd ref="644599243"/>
    <tag k="highway" v="secondary"/>
    <tag k="name" v="Mulligans Flat Road"/>
    <tag k="oneway" v="yes"/>
  </way>
  <way id="50626740" version="3" timestamp="2011-05-14T02:27:38Z" uid="4467" user="Rosscoe" changeset="8137079">
    <nd ref="644599240"/>
    <nd ref="644599246"/>
    <nd ref="644599234"/>
    <tag k="highway" v="secondary"/>
    <tag k="name" v="Mulligans Flat Road"/>
    <tag k="oneway" v="yes"/>
    <tag k="source" v="nearmap"/>
  </way>
</osm>
