<?xml version='1.0' encoding='UTF-8'?>
<osm version="0.6" generator="libosmium/2.20.0">
  <way id="51128003" version="2" timestamp="2010-04-02T17:56:16Z" uid="20587" user="balrog-kun" changeset="4304500">
    <nd ref="48176642"/>
    <nd ref="48176646"/>
    <nd ref="48176649"/>
    <nd ref="48176653"/>
    <nd ref="48176657"/>
    <nd ref="48176661"/>
    <nd ref="48176665"/>
    <nd ref="48075108"/>
    <tag k="highway" v="residential"/>
    <tag k="name" v="Overen Road"/>
    <tag k="tiger:cfcc" v="A41"/>
    <tag k="tiger:county" v="Grant, WA"/>
    <tag k="tiger:name_base" v="Overen"/>
    <tag k="tiger:name_type" v="Rd"/>
    <tag k="tiger:reviewed" v="no"/>
    <tag k="tiger:separated" v="no"/>
    <tag k="tiger:source" v="tiger_import_dch_v0.6_20070830"/>
    <tag k="tiger:tlid" v="157083388:157083373:157085440:157085573:157085442:157085444"/>
  </way>
  <way id="51128366" version="2" timestamp="2010-03-28T11:50:01Z" uid="20587" user="balrog-kun" changeset="4254597">
    <nd ref="90221389"/>
    <nd ref="90245326"/>
    <nd ref="90245328"/>
    <nd ref="90229092"/>
    <nd ref="90245330"/>
    <nd ref="90245331"/>
    <nd ref="652240024"/>
    <nd ref="652240028"/>
    <nd ref="90245332"/>
    <nd ref="90245335"/>
    <nd ref="90237769"/>
    <tag k="highway" v="unclassified"/>
    <tag k="name" v="Hospital Drive"/>
    <tag k="tiger:cfcc" v="A41"/>
    <tag k="tiger:county" v="Plumas, CA"/>
    <tag k="tiger:name_base" v="1st"/>
    <tag k="tiger:name_type" v="Ave"/>
    <tag k="tiger:separated" v="no"/>
    <tag k="tiger:source" v="tiger_import_dch_v0.6_20070809"/>
    <tag k="tiger:tlid" v="127209228:127209231:127230795:127209615:127209550"/>
  </way>
  <way id="51128367" version="2" timestamp="2010-03-28T11:50:01Z" uid="20587" user="balrog-kun" changeset="4254597">
    <nd ref="90248353"/>
    <nd ref="652240059"/>
    <tag k="highway" v="residential"/>
    <tag k="name" v="1st Street"/>
  </way>
  <way id="51128373" version="2" timestamp="2010-03-28T11:50:01Z" uid="20587" user="balrog-kun" changeset="4254597">
    <nd ref="90221398"/>
    <nd ref="90221400"/>
    <nd ref="90221402"/>
    <nd ref="90213981"/>
    <tag k="highway" v="secondary"/>
    <tag k="name" v="South Gulling Street"/>
    <tag k="ref" v="A15"/>
    <tag k="tiger:cfcc" v="A41"/>
    <tag k="tiger:county" v="Plumas, CA"/>
    <tag k="tiger:name_base" v="Gulling"/>
    <tag k="tiger:name_direction_prefix" v="S"/>
    <tag k="tiger:name_type" v="St"/>
    <tag k="tiger:separated" v="no"/>
    <tag k="tiger:source" v="tiger_import_dch_v0.6_20070809"/>
    <tag k="tiger:tlid" v="127224589:127226884:127226885:127209521:127209525:127209217:127209243:127209206:127209258"/>
  </way>
  <way id="51128374" version="2" timestamp="2010-03-28T11:50:01Z" uid="20587" user="balrog-kun" changeset="4254597">
    <nd ref="652241036"/>
    <nd ref="90054317"/>
    <nd ref="90221397"/>
    <tag k="highway" v="secondary"/>
    <tag k="name" v="South Gulling Street"/>
    <tag k="ref" v="A15"/>
    <tag k="tiger:cfcc" v="A41"/>
    <tag k="tiger:county" v="Plumas, CA"/>
    <tag k="tiger:name_base" v="Gulling"/>
    <tag k="tiger:name_direction_prefix" v="S"/>
    <tag k="tiger:name_type" v="St"/>
    <tag k="tiger:separated" v="no"/>
    <tag k="tiger:source" v="tiger_import_dch_v0.6_20070809"/>
    <tag k="tiger:tlid" v="127224589:127226884:127226885:127209521:127209525:127209217:127209243:127209206:127209258"/>
  </way>
  <way id="51128375" version="2" timestamp="2010-03-28T11:50:01Z" uid="20587" user="balrog-kun" changeset="4254597">
    <nd ref="90221391"/>
    <nd ref="652241036"/>
    <tag k="bridge" v="yes"/>
    <tag k="highway" v="secondary"/>
    <tag k="layer" v="1"/>
    <tag k="name" v="South Gulling Street"/>
    <tag k="ref" v="A15"/>
    <tag k="tiger:cfcc" v="A41"/>
    <tag k="tiger:county" v="Plumas, CA"/>
    <tag k="tiger:name_base" v="Gulling"/>
    <tag k="tiger:name_direction_prefix" v="S"/>
    <tag k="tiger:name_type" v="St"/>
    <tag k="tiger:separated" v="no"/>
    <tag k="tiger:source" v="tiger_import_dch_v0.6_20070809"/>
    <tag k="tiger:tlid" v="127224589:127226884:127226885:127209521:127209525:127209217:127209243:127209206:127209258"/>
  </way>
  <way id="51128376" version="2" timestamp="2010-03-28T11:50:02Z" uid="20587" user="balrog-kun" changeset="4254597">
    <nd ref="90221397"/>
    <nd ref="90221398"/>
    <tag k="bridge" v="yes"/>
    <tag k="highway" v="secondary"/>
    <tag k="layer" v="1"/>
    <tag k="name" v="South Gulling Street"/>
    <tag k="ref" v="A15"/>
    <tag k="tiger:cfcc" v="A41"/>
    <tag k="tiger:county" v="Plumas, CA"/>
    <tag k="tiger:name_base" v="Gulling"/>
    <tag k="tiger:name_direction_prefix" v="S"/>
    <tag k="tiger:name_type" v="St"/>
    <tag k="tiger:separated" v="no"/>
    <tag k="tiger:source" v="tiger_import_dch_v0.6_20070809"/>
    <tag k="tiger:tlid" v="127224589:127226884:127226885:127209521:127209525:127209217:127209243:127209206:127209258"/>
  </way>
  <way id="51128445" version="2" timestamp="2010-04-02T17:56:16Z" uid="20587" user="balrog-kun" changeset="4304500">
    <nd ref="652244284"/>
    <nd ref="652244281"/>
    <nd ref="652244276"/>
    <nd ref="652244270"/>
    <nd ref="652244274"/>
    <nd ref="652244264"/>
    <nd ref="652244256"/>
    <nd ref="652244250"/>
    <nd ref="110907505"/>
    <nd ref="110907507"/>
    <nd ref="110907508"/>
    <nd ref="110907510"/>
    <nd ref="110907511"/>
    <nd ref="110907512"/>
    <nd ref="110907513"/>
    <nd ref="110907515"/>
    <nd ref="110907517"/>
    <nd ref="110907518"/>
    <nd ref="110907519"/>
    <nd ref="110907520"/>
    <nd ref="110907521"/>
    <nd ref="110907523"/>
    <nd ref="110907524"/>
    <nd ref="110907525"/>
    <nd ref="110907527"/>
    <nd ref="110907528"/>
    <nd ref="110907529"/>
    <nd ref="110907531"/>
    <nd ref="110907532"/>
    <nd ref="110907533"/>
    <nd ref="110907534"/>
    <nd ref="110907535"/>
    <nd ref="110907537"/>
    <nd ref="110907538"/>
    <nd ref="110713522"/>
    <nd ref="110907539"/>
    <nd ref="110907540"/>
    <nd ref="110907542"/>
    <nd ref="110907544"/>
    <nd ref="110907545"/>
    <nd ref="110907546"/>
    <nd ref="110907548"/>
    <nd ref="110907549"/>
    <nd ref="110907550"/>
    <nd ref="110907552"/>
    <nd ref="110907553"/>
    <nd ref="110907555"/>
    <nd ref="110907556"/>
    <nd ref="110907557"/>
    <nd ref="110907558"/>
    <nd ref="110907559"/>
    <nd ref="110907561"/>
    <nd ref="110907563"/>
    <nd ref="110907564"/>
    <nd ref="110907565"/>
    <nd ref="110907566"/>
    <nd ref="110907567"/>
    <nd ref="110907569"/>
    <nd ref="110907570"/>
    <nd ref="110907571"/>
    <nd ref="110907572"/>
    <nd ref="110907573"/>
    <nd ref="110907576"/>
    <nd ref="110907577"/>
    <nd ref="110907578"/>
    <nd ref="110907579"/>
    <nd ref="110907580"/>
    <nd ref="110907581"/>
    <nd ref="110907583"/>
    <nd ref="110907584"/>
    <nd ref="110624891"/>
    <nd ref="110907586"/>
    <nd ref="110428956"/>
    <nd ref="110474345"/>
    <nd ref="110702549"/>
    <nd ref="110907587"/>
    <nd ref="110713217"/>
    <nd ref="110907588"/>
    <nd ref="110907589"/>
    <nd ref="110907590"/>
    <nd ref="110907592"/>
    <nd ref="110907593"/>
    <nd ref="110907594"/>
    <nd ref="110437044"/>
    <nd ref="110453255"/>
    <nd ref="110418013"/>
    <nd ref="110576286"/>
    <nd ref="110565046"/>
    <nd ref="110862629"/>
    <tag k="highway" v="residential"/>
    <tag k="name" v="Freeman Road East"/>
    <tag k="tiger:cfcc" v="A41"/>
    <tag k="tiger:county" v="Pierce, WA"/>
    <tag k="tiger:name_base" v="Freeman"/>
    <tag k="tiger:name_direction_suffix" v="E"/>
    <tag k="tiger:reviewed" v="no"/>
    <tag k="tiger:separated" v="no"/>
    <tag k="tiger:source" v="tiger_import_dch_v0.6_20070830"/>
    <tag k="tiger:tlid" v="184632280"/>
    <tag k="tiger:zip_left" v="98371"/>
    <tag k="tiger:zip_right" v="98424"/>
  </way>
  <way id="51128470" version="2" timestamp="2010-07-09T03:22:28Z" uid="74617" user="JohnSmith" changeset="5170713">
    <nd ref="191063447"/>
    <nd ref="642343635"/>
    <nd ref="247495389"/>
    <nd ref="642341898"/>
    <tag k="highway" v="residential"/>
    <tag k="maxspeed" v="50"/>
    <tag k="maxspeed:source" v="default residential speed limit in Australia"/>
    <tag k="name" v="Normanby Road"/>
    <tag k="source" v="MMBW"/>
  </way>
  <way id="51128470" version="3" timestamp="2012-01-20T02:39:04Z" uid="147510" user="woodpeck_fixbot" changeset="10442677">
    <nd ref="191063447"/>
    <nd ref="642343635"/>
    <nd ref="247495389"/>
    <nd ref="642341898"/>
    <tag k="highway" v="residential"/>
    <tag k="name" v="Normanby Road"/>
    <tag k="source" v="MMBW"/>
  </way>
  <way id="51128496" version="2" timestamp="2010-07-09T03:20:42Z" uid="74617" user="JohnSmith" changeset="5170713">
    <nd ref="570821616"/>
    <nd ref="247495376"/>
    <nd ref="247495377"/>
    <nd ref="247495378"/>
    <nd ref="247495379"/>
    <nd ref="247495380"/>
    <nd ref="247495381"/>
    <nd ref="247495382"/>
    <tag k="highway" v="residential"/>
    <tag k="maxspeed" v="50"/>
    <tag k="maxspeed:source" v="default residential speed limit in Australia"/>
    <tag k="name" v="Derby Crescent"/>
    <tag k="source" v="Yahoo"/>
    <tag k="source:name" v="Collins 1936"/>
  </way>
  <way id="51128496" version="3" timestamp="2011-10-20T08:13:31Z" uid="472067" user="pringle" changeset="9606163">
    <nd ref="570821616"/>
    <nd ref="247495376"/>
    <nd ref="247495377"/>
    <nd ref="247495378"/>
    <nd ref="247495379"/>
    <nd ref="247495380"/>
    <nd ref="247495381"/>
    <nd ref="1474026681"/>
    <nd ref="247495382"/>
    <tag k="highway" v="residential"/>
    <tag k="maxspeed" v="50"/>
    <tag k="maxspeed:source" v="default residential speed limit in Australia"/>
    <tag k="name" v="Derby Crescent"/>
    <tag k="source" v="Yahoo"/>
    <tag k="source:name" v="Collins 1936"/>
  </way>
  <way id="51128496" version="4" timestamp="2012-01-20T02:39:05Z" uid="147510" user="woodpeck_fixbot" changeset="10442677">
    <nd ref="570821616"/>
    <nd ref="247495376"/>
    <nd ref="247495377"/>
    <nd ref="247495378"/>
    <nd ref="247495379"/>
    <nd ref="247495380"/>
    <nd ref="247495381"/>
    <nd ref="1474026681"/>
    <nd ref="247495382"/>
    <tag k="highway" v="residential"/>
    <tag k="name" v="Derby Crescent"/>
    <tag k="source" v="Yahoo"/>
    <tag k="source:name" v="Collins 1936"/>
  </way>
  <way id="51128497" version="4" timestamp="2010-07-09T03:22:35Z" uid="74617" user="JohnSmith" changeset="5170713">
    <nd ref="247495375"/>
    <nd ref="570821616"/>
    <tag k="highway" v="residential"/>
    <tag k="maxspeed" v="50"/>
    <tag k="maxspeed:source" v="default residential speed limit in Australia"/>
    <tag k="name" v="Derby Crescent"/>
    <tag k="source" v="Yahoo"/>
    <tag k="source:name" v="Collins 1936"/>
  </way>
  <way id="51128497" version="5" timestamp="2012-01-20T02:39:07Z" uid="147510" user="woodpeck_fixbot" changeset="10442677">
    <nd ref="247495375"/>
    <nd ref="570821616"/>
    <tag k="highway" v="residential"/>
    <tag k="name" v="Derby Crescent"/>
    <tag k="source" v="Yahoo"/>
    <tag k="source:name" v="Collins 1936"/>
  </way>
  <way id="51128573" version="2" timestamp="2010-07-09T03:19:12Z" uid="74617" user="JohnSmith" changeset="5170713">
    <nd ref="275740907"/>
    <nd ref="275728943"/>
    <tag k="highway" v="residential"/>
    <tag k="maxspeed" v="50"/>
    <tag k="maxspeed:source" v="default residential speed limit in Australia"/>
    <tag k="name" v="Princes Highway Service Road"/>
  </way>
  <way id="51128573" version="3" timestamp="2010-07-12T02:46:28Z" uid="317597" user="jezza" changeset="5195487">
    <nd ref="275740907"/>
    <nd ref="275728943"/>
    <tag k="bicycle" v="yes"/>
    <tag k="highway" v="cycleway"/>
    <tag k="name" v="Outer Circle Trail"/>
  </way>
  <way id="51128573" version="4" timestamp="2010-07-31T05:06:12Z" uid="11111" user="lakeyboy" changeset="5359662"/>
  <way id="51128580" version="2" timestamp="2010-07-09T03:20:13Z" uid="74617" user="JohnSmith" changeset="5170713">
    <nd ref="275740895"/>
    <nd ref="29932406"/>
    <tag k="highway" v="residential"/>
    <tag k="maxspeed" v="50"/>
    <tag k="maxspeed:source" v="default residential speed limit in Australia"/>
    <tag k="name" v="Hyslop Parade"/>
    <tag k="source" v="MMBW"/>
  </way>
  <way id="51128580" version="3" timestamp="2010-07-12T02:46:32Z" uid="317597" user="jezza" changeset="5195487">
    <nd ref="275740895"/>
    <nd ref="29932406"/>
    <tag k="highway" v="cycleway"/>
    <tag k="name" v="Outer Circle Trail"/>
    <tag k="source" v="MMBW"/>
  </way>
  <way id="51128580" version="4" timestamp="2010-07-31T05:07:41Z" uid="11111" user="lakeyboy" changeset="5359662">
    <nd ref="275740895"/>
    <nd ref="29932406"/>
    <tag k="highway" v="residential"/>
    <tag k="maxspeed" v="50"/>
    <tag k="maxspeed:source" v="default residential speed limit in Australia"/>
    <tag k="name" v="Hyslop Parade"/>
    <tag k="source" v="nearmap"/>
    <tag k="source:name" v="MMBW"/>
  </way>
  <way id="51128580" version="5" timestamp="2012-01-20T02:39:11Z" uid="147510" user="woodpeck_fixbot" changeset="10442677">
    <nd ref="275740895"/>
    <nd ref="29932406"/>
    <tag k="highway" v="residential"/>
    <tag k="name" v="Hyslop Parade"/>
    <tag k="source" v="nearmap"/>
    <tag k="source:name" v="MMBW"/>
  </way>
  <way id="51128585" version="2" timestamp="2010-07-09T03:17:31Z" uid="74617" user="JohnSmith" changeset="5170713">
    <nd ref="275740895"/>
    <nd ref="275740955"/>
    <nd ref="275740951"/>
    <nd ref="275740901"/>
    <nd ref="275740949"/>
    <nd ref="100840292"/>
    <nd ref="275740896"/>
    <tag k="highway" v="residential"/>
    <tag k="maxspeed" v="50"/>
    <tag k="maxspeed:source" v="default residential speed limit in Australia"/>
    <tag k="name" v="Princes Highway Service Road"/>
  </way>
  <way id="51128585" version="3" timestamp="2010-07-12T02:46:32Z" uid="317597" user="jezza" changeset="5195487">
    <nd ref="275740895"/>
    <nd ref="275740955"/>
    <nd ref="275740951"/>
    <nd ref="275740901"/>
    <nd ref="275740949"/>
    <nd ref="100840292"/>
    <nd ref="275740896"/>
    <tag k="highway" v="service"/>
    <tag k="maxspeed" v="50"/>
    <tag k="maxspeed:source" v="default residential speed limit in Australia"/>
    <tag k="name" v="Princes Highway Service Road"/>
    <tag k="oneway" v="yes"/>
  </way>
  <way id="51128585" version="4" timestamp="2010-07-31T03:30:28Z" uid="11111" user="lakeyboy" changeset="5359662">
    <nd ref="275740895"/>
    <nd ref="275740955"/>
    <nd ref="275740951"/>
    <nd ref="275740901"/>
    <nd ref="275740949"/>
    <nd ref="100840292"/>
    <tag k="highway" v="residential"/>
    <tag k="maxspeed" v="50"/>
    <tag k="maxspeed:source" v="default residential speed limit in Australia"/>
    <tag k="name" v="Princes Highway Service Road"/>
    <tag k="oneway" v="yes"/>
  </way>
  <way id="51128585" version="5" timestamp="2011-02-15T12:09:34Z" uid="46482" user="Leon K" changeset="7294269">
    <nd ref="275740895"/>
    <nd ref="275740955"/>
    <nd ref="275740951"/>
    <nd ref="275740901"/>
    <nd ref="275740949"/>
    <nd ref="100840292"/>
    <tag k="highway" v="service"/>
    <tag k="maxspeed:source" v="default residential speed limit in Australia"/>
    <tag k="name" v="Princes Highway Service Road"/>
    <tag k="oneway" v="yes"/>
  </way>
  <way id="51128585" version="6" timestamp="2012-01-20T02:39:12Z" uid="147510" user="woodpeck_fixbot" changeset="10442677">
    <nd ref="275740895"/>
    <nd ref="275740955"/>
    <nd ref="275740951"/>
    <nd ref="275740901"/>
    <nd ref="275740949"/>
    <nd ref="100840292"/>
    <tag k="highway" v="service"/>
    <tag k="name" v="Princes Highway Service Road"/>
    <tag k="oneway" v="yes"/>
  </way>
  <way id="51128586" version="3" timestamp="2010-07-09T03:20:29Z" uid="74617" user="JohnSmith" changeset="5170713">
    <nd ref="275740888"/>
    <nd ref="652253153"/>
    <nd ref="275740895"/>
    <tag k="highway" v="residential"/>
    <tag k="maxspeed" v="50"/>
    <tag k="maxspeed:source" v="default residential speed limit in Australia"/>
    <tag k="name" v="Princes Highway Service Road"/>
  </way>
  <way id="51128586" version="4" timestamp="2010-07-12T02:46:30Z" uid="317597" user="jezza" changeset="5195487">
    <nd ref="275740888"/>
    <nd ref="652253153"/>
    <nd ref="275740895"/>
    <tag k="highway" v="cycleway"/>
    <tag k="name" v="Outer Circle Trail"/>
  </way>
  <way id="51128586" version="5" timestamp="2010-07-31T05:07:47Z" uid="11111" user="lakeyboy" changeset="5359662"/>
  <way id="51128860" version="2" timestamp="2010-04-02T17:56:18Z" uid="20587" user="balrog-kun" changeset="4304500">
    <nd ref="50279548"/>
    <nd ref="50279549"/>
    <nd ref="50279538"/>
    <nd ref="50279550"/>
    <nd ref="50279552"/>
    <nd ref="50279305"/>
    <tag k="name" v="Cascade and Columbia River Railroad"/>
    <tag k="railway" v="rail"/>
    <tag k="tiger:cfcc" v="B21"/>
    <tag k="tiger:county" v="Okanogan, WA"/>
    <tag k="tiger:name_base" v="Cascade and Columbia River RR"/>
    <tag k="tiger:reviewed" v="no"/>
    <tag k="tiger:source" v="tiger_import_dch_v0.6_20070830"/>
    <tag k="tiger:tlid" v="157345376:157345377"/>
  </way>
  <way id="51128373" version="3" timestamp="2012-08-26T23:47:47Z" uid="207745" user="NE2" changeset="12873214">
    <nd ref="90221398"/>
    <nd ref="90221400"/>
    <nd ref="90221402"/>
    <nd ref="90213981"/>
    <tag k="highway" v="secondary"/>
    <tag k="name" v="South Gulling Street"/>
    <tag k="ref" v="CR A15"/>
    <tag k="tiger:cfcc" v="A41"/>
    <tag k="tiger:county" v="Plumas, CA"/>
    <tag k="tiger:name_base" v="Gulling"/>
    <tag k="tiger:name_direction_prefix" v="S"/>
    <tag k="tiger:name_type" v="St"/>
    <tag k="tiger:separated" v="no"/>
    <tag k="tiger:source" v="tiger_import_dch_v0.6_20070809"/>
    <tag k="tiger:tlid" v="127224589:127226884:127226885:127209521:127209525:127209217:127209243:127209206:127209258"/>
  </way>
  <way id="51128374" version="3" timestamp="2012-08-26T23:47:46Z" uid="207745" user="NE2" changeset="12873214">
    <nd ref="652241036"/>
    <nd ref="90054317"/>
    <nd ref="90221397"/>
    <tag k="highway" v="secondary"/>
    <tag k="name" v="South Gulling Street"/>
    <tag k="ref" v="CR A15"/>
    <tag k="tiger:cfcc" v="A41"/>
    <tag k="tiger:county" v="Plumas, CA"/>
    <tag k="tiger:name_base" v="Gulling"/>
    <tag k="tiger:name_direction_prefix" v="S"/>
    <tag k="tiger:name_type" v="St"/>
    <tag k="tiger:separated" v="no"/>
    <tag k="tiger:source" v="tiger_import_dch_v0.6_20070809"/>
    <tag k="tiger:tlid" v="127224589:127226884:127226885:127209521:127209525:127209217:127209243:127209206:127209258"/>
  </way>
  <way id="51128375" version="3" timestamp="2012-08-26T23:47:45Z" uid="207745" user="NE2" changeset="12873214">
    <nd ref="90221391"/>
    <nd ref="652241036"/>
    <tag k="bridge" v="yes"/>
    <tag k="highway" v="secondary"/>
    <tag k="layer" v="1"/>
    <tag k="name" v="South Gulling Street"/>
    <tag k="ref" v="CR A15"/>
    <tag k="tiger:cfcc" v="A41"/>
    <tag k="tiger:county" v="Plumas, CA"/>
    <tag k="tiger:name_base" v="Gulling"/>
    <tag k="tiger:name_direction_prefix" v="S"/>
    <tag k="tiger:name_type" v="St"/>
    <tag k="tiger:separated" v="no"/>
    <tag k="tiger:source" v="tiger_import_dch_v0.6_20070809"/>
    <tag k="tiger:tlid" v="127224589:127226884:127226885:127209521:127209525:127209217:127209243:127209206:127209258"/>
  </way>
  <way id="51128376" version="3" timestamp="2012-08-26T23:47:46Z" uid="207745" user="NE2" changeset="12873214">
    <nd ref="90221397"/>
    <nd ref="90221398"/>
    <tag k="bridge" v="yes"/>
    <tag k="highway" v="secondary"/>
    <tag k="layer" v="1"/>
    <tag k="name" v="South Gulling Street"/>
    <tag k="ref" v="CR A15"/>
    <tag k="tiger:cfcc" v="A41"/>
    <tag k="tiger:county" v="Plumas, CA"/>
    <tag k="tiger:name_base" v="Gulling"/>
    <tag k="tiger:name_direction_prefix" v="S"/>
    <tag k="tiger:name_type" v="St"/>
    <tag k="tiger:separated" v="no"/>
    <tag k="tiger:source" v="tiger_import_dch_v0.6_20070809"/>
    <tag k="tiger:tlid" v="127224589:127226884:127226885:127209521:127209525:127209217:127209243:127209206:127209258"/>
  </way>
  <way id="51128470" version="4" timestamp="2012-05-28T10:11:51Z" uid="11111" user="melb_guy" changeset="11724887">
    <nd ref="191063447"/>
    <nd ref="1768481818"/>
    <nd ref="642341898"/>
    <tag k="cycleway" v="lane"/>
    <tag k="highway" v="tertiary"/>
    <tag k="lanes" v="2"/>
    <tag k="maxspeed" v="60"/>
    <tag k="name" v="Normanby Road"/>
    <tag k="surface" v="asphalt"/>
  </way>
</osm>
