<?xml version='1.0' encoding='UTF-8'?>
<osm version="0.6" generator="libosmium/2.20.0">
  <way id="51143184" version="1" timestamp="2010-02-24T13:12:27Z" uid="7617" user="Franc" changeset="3962739">
    <nd ref="652497325"/>
    <nd ref="652497294"/>
    <tag k="highway" v="service"/>
    <tag k="restriction" v="school_zone"/>
    <tag k="source" v="nearmap"/>
  </way>
  <way id="51143184" version="2" timestamp="2010-11-07T10:58:42Z" uid="7617" user="Franc" changeset="6310020">
    <nd ref="652497325"/>
    <nd ref="652497294"/>
    <tag k="highway" v="service"/>
    <tag k="name" v="Gurner Lane"/>
    <tag k="restriction" v="school_zone"/>
    <tag k="source" v="nearmap"/>
    <tag k="source:name" v="survey"/>
  </way>
  <way id="51143185" version="1" timestamp="2010-02-24T13:12:27Z" uid="7617" user="Franc" changeset="3962739">
    <nd ref="652497287"/>
    <nd ref="574178308"/>
    <nd ref="247087716"/>
    <nd ref="652497326"/>
    <nd ref="652497331"/>
    <nd ref="574178334"/>
    <nd ref="652497354"/>
    <nd ref="247087717"/>
    <nd ref="574178336"/>
    <nd ref="652497332"/>
    <tag k="highway" v="residential"/>
    <tag k="name" v="Glenmore Road"/>
    <tag k="restriction" v="school_zone"/>
  </way>
  <way id="51143185" version="2" timestamp="2010-07-07T21:55:40Z" uid="74617" user="JohnSmith" changeset="5161069">
    <nd ref="652497287"/>
    <nd ref="574178308"/>
    <nd ref="247087716"/>
    <nd ref="652497326"/>
    <nd ref="652497331"/>
    <nd ref="574178334"/>
    <nd ref="652497354"/>
    <nd ref="247087717"/>
    <nd ref="574178336"/>
    <nd ref="652497332"/>
    <tag k="highway" v="residential"/>
    <tag k="maxspeed" v="50"/>
    <tag k="maxspeed:source" v="default residential speed limit in Australia"/>
    <tag k="name" v="Glenmore Road"/>
    <tag k="restriction" v="school_zone"/>
  </way>
  <way id="51143185" version="3" timestamp="2012-01-20T02:40:07Z" uid="147510" user="woodpeck_fixbot" changeset="10442677">
    <nd ref="652497287"/>
    <nd ref="574178308"/>
    <nd ref="247087716"/>
    <nd ref="652497326"/>
    <nd ref="652497331"/>
    <nd ref="574178334"/>
    <nd ref="652497354"/>
    <nd ref="247087717"/>
    <nd ref="574178336"/>
    <nd ref="652497332"/>
    <tag k="highway" v="residential"/>
    <tag k="name" v="Glenmore Road"/>
    <tag k="restriction" v="school_zone"/>
  </way>
  <way id="51143187" version="1" timestamp="2010-02-24T13:12:27Z" uid="7617" user="Franc" changeset="3962739">
    <nd ref="652497348"/>
    <nd ref="652497303"/>
    <nd ref="384257277"/>
    <nd ref="574178281"/>
    <nd ref="247087882"/>
    <tag k="highway" v="residential"/>
    <tag k="name" v="Cambridge Street"/>
    <tag k="restriction" v="school_zone"/>
  </way>
  <way id="51143187" version="2" timestamp="2010-07-07T21:53:45Z" uid="74617" user="JohnSmith" changeset="5161069">
    <nd ref="652497348"/>
    <nd ref="652497303"/>
    <nd ref="384257277"/>
    <nd ref="574178281"/>
    <nd ref="247087882"/>
    <tag k="highway" v="residential"/>
    <tag k="maxspeed" v="50"/>
    <tag k="maxspeed:source" v="default residential speed limit in Australia"/>
    <tag k="name" v="Cambridge Street"/>
    <tag k="restriction" v="school_zone"/>
  </way>
  <way id="51143187" version="3" timestamp="2010-10-23T12:11:32Z" uid="7617" user="Franc" changeset="6144458">
    <nd ref="652497348"/>
    <nd ref="652497303"/>
    <tag k="highway" v="residential"/>
    <tag k="maxspeed" v="50"/>
    <tag k="maxspeed:source" v="default residential speed limit in Australia"/>
    <tag k="name" v="Cambridge Street"/>
    <tag k="restriction" v="school_zone"/>
  </way>
  <way id="51143187" version="4" timestamp="2012-01-20T02:40:09Z" uid="147510" user="woodpeck_fixbot" changeset="10442677">
    <nd ref="652497348"/>
    <nd ref="652497303"/>
    <tag k="highway" v="residential"/>
    <tag k="name" v="Cambridge Street"/>
    <tag k="restriction" v="school_zone"/>
  </way>
  <way id="51143188" version="1" timestamp="2010-02-24T13:12:27Z" uid="7617" user="Franc" changeset="3962739">
    <nd ref="652497290"/>
    <nd ref="247088439"/>
    <nd ref="247088314"/>
    <nd ref="26410550"/>
    <tag k="highway" v="residential"/>
    <tag k="name" v="Duxford Street"/>
  </way>
  <way id="51143188" version="2" timestamp="2010-07-07T21:52:22Z" uid="74617" user="JohnSmith" changeset="5161069">
    <nd ref="652497290"/>
    <nd ref="247088439"/>
    <nd ref="247088314"/>
    <nd ref="26410550"/>
    <tag k="highway" v="residential"/>
    <tag k="maxspeed" v="50"/>
    <tag k="maxspeed:source" v="default residential speed limit in Australia"/>
    <tag k="name" v="Duxford Street"/>
  </way>
  <way id="51143188" version="3" timestamp="2010-11-07T10:59:25Z" uid="7617" user="Franc" changeset="6310020">
    <nd ref="652497290"/>
    <nd ref="980351139"/>
    <nd ref="980351071"/>
    <nd ref="980351188"/>
    <nd ref="247088439"/>
    <nd ref="247088314"/>
    <nd ref="26410550"/>
    <tag k="highway" v="residential"/>
    <tag k="maxspeed" v="50"/>
    <tag k="maxspeed:source" v="default residential speed limit in Australia"/>
    <tag k="name" v="Duxford Street"/>
  </way>
  <way id="51143188" version="4" timestamp="2012-01-20T02:40:11Z" uid="147510" user="woodpeck_fixbot" changeset="10442677">
    <nd ref="652497290"/>
    <nd ref="980351139"/>
    <nd ref="980351071"/>
    <nd ref="980351188"/>
    <nd ref="247088439"/>
    <nd ref="247088314"/>
    <nd ref="26410550"/>
    <tag k="highway" v="residential"/>
    <tag k="name" v="Duxford Street"/>
  </way>
  <way id="51143189" version="1" timestamp="2010-02-24T13:12:27Z" uid="7617" user="Franc" changeset="3962739">
    <nd ref="574178259"/>
    <nd ref="652497294"/>
    <nd ref="574178273"/>
    <nd ref="26410552"/>
    <nd ref="652497296"/>
    <nd ref="26410555"/>
    <nd ref="247087882"/>
    <nd ref="384257286"/>
    <tag k="highway" v="residential"/>
    <tag k="name" v="Gurner Street"/>
    <tag k="restriction" v="school_zone"/>
  </way>
  <way id="51143189" version="2" timestamp="2010-07-07T21:49:09Z" uid="74617" user="JohnSmith" changeset="5161069">
    <nd ref="574178259"/>
    <nd ref="652497294"/>
    <nd ref="574178273"/>
    <nd ref="26410552"/>
    <nd ref="652497296"/>
    <nd ref="26410555"/>
    <nd ref="247087882"/>
    <nd ref="384257286"/>
    <tag k="highway" v="residential"/>
    <tag k="maxspeed" v="50"/>
    <tag k="maxspeed:source" v="default residential speed limit in Australia"/>
    <tag k="name" v="Gurner Street"/>
    <tag k="restriction" v="school_zone"/>
  </way>
  <way id="51143189" version="3" timestamp="2012-01-20T02:40:14Z" uid="147510" user="woodpeck_fixbot" changeset="10442677">
    <nd ref="574178259"/>
    <nd ref="652497294"/>
    <nd ref="574178273"/>
    <nd ref="26410552"/>
    <nd ref="652497296"/>
    <nd ref="26410555"/>
    <nd ref="247087882"/>
    <nd ref="384257286"/>
    <tag k="highway" v="residential"/>
    <tag k="name" v="Gurner Street"/>
    <tag k="restriction" v="school_zone"/>
  </way>
  <way id="51143190" version="1" timestamp="2010-02-24T13:12:28Z" uid="7617" user="Franc" changeset="3962739">
    <nd ref="652497307"/>
    <nd ref="574178278"/>
    <nd ref="574228496"/>
    <nd ref="247087898"/>
    <nd ref="574228504"/>
    <nd ref="574228502"/>
    <tag k="highway" v="residential"/>
    <tag k="name" v="Norfolk Street"/>
    <tag k="source" v="nearmap"/>
  </way>
  <way id="51143190" version="2" timestamp="2010-07-07T21:50:59Z" uid="74617" user="JohnSmith" changeset="5161069">
    <nd ref="652497307"/>
    <nd ref="574178278"/>
    <nd ref="574228496"/>
    <nd ref="247087898"/>
    <nd ref="574228504"/>
    <nd ref="574228502"/>
    <tag k="highway" v="residential"/>
    <tag k="maxspeed" v="50"/>
    <tag k="maxspeed:source" v="default residential speed limit in Australia"/>
    <tag k="name" v="Norfolk Street"/>
    <tag k="source" v="nearmap"/>
  </way>
  <way id="51143190" version="3" timestamp="2012-01-20T02:40:16Z" uid="147510" user="woodpeck_fixbot" changeset="10442677">
    <nd ref="652497307"/>
    <nd ref="574178278"/>
    <nd ref="574228496"/>
    <nd ref="247087898"/>
    <nd ref="574228504"/>
    <nd ref="574228502"/>
    <tag k="highway" v="residential"/>
    <tag k="name" v="Norfolk Street"/>
    <tag k="source" v="nearmap"/>
  </way>
  <way id="51143191" version="1" timestamp="2010-02-24T13:12:28Z" uid="7617" user="Franc" changeset="3962739">
    <nd ref="652497305"/>
    <nd ref="574178283"/>
    <nd ref="384257286"/>
    <tag k="highway" v="residential"/>
    <tag k="name" v="Gurner Street"/>
    <tag k="oneway" v="yes"/>
    <tag k="restriction" v="school_zone"/>
    <tag k="source" v="survey"/>
  </way>
  <way id="51143191" version="2" timestamp="2010-07-07T21:48:03Z" uid="74617" user="JohnSmith" changeset="5161069">
    <nd ref="652497305"/>
    <nd ref="574178283"/>
    <nd ref="384257286"/>
    <tag k="highway" v="residential"/>
    <tag k="maxspeed" v="50"/>
    <tag k="maxspeed:source" v="default residential speed limit in Australia"/>
    <tag k="name" v="Gurner Street"/>
    <tag k="oneway" v="yes"/>
    <tag k="restriction" v="school_zone"/>
    <tag k="source" v="survey"/>
  </way>
  <way id="51143191" version="3" timestamp="2012-01-20T02:40:17Z" uid="147510" user="woodpeck_fixbot" changeset="10442677">
    <nd ref="652497305"/>
    <nd ref="574178283"/>
    <nd ref="384257286"/>
    <tag k="highway" v="residential"/>
    <tag k="name" v="Gurner Street"/>
    <tag k="oneway" v="yes"/>
    <tag k="restriction" v="school_zone"/>
    <tag k="source" v="survey"/>
  </way>
  <way id="51143192" version="1" timestamp="2010-02-24T13:12:28Z" uid="7617" user="Franc" changeset="3962739">
    <nd ref="652497313"/>
    <nd ref="652497315"/>
    <tag k="highway" v="service"/>
    <tag k="source" v="nearmap"/>
  </way>
  <way id="51143192" version="2" timestamp="2010-10-31T04:37:57Z" uid="7617" user="Franc" changeset="6234980">
    <nd ref="652497313"/>
    <nd ref="652497315"/>
    <tag k="highway" v="service"/>
    <tag k="name" v="Elizabeth Lane"/>
    <tag k="source" v="nearmap"/>
    <tag k="source:name" v="survey"/>
  </way>
  <way id="51143193" version="1" timestamp="2010-02-24T13:12:28Z" uid="7617" user="Franc" changeset="3962739">
    <nd ref="335331245"/>
    <nd ref="652497371"/>
    <nd ref="652497369"/>
    <tag k="highway" v="residential"/>
    <tag k="source" v="nearmap"/>
  </way>
  <way id="51143193" version="2" timestamp="2010-07-07T21:49:41Z" uid="74617" user="JohnSmith" changeset="5161069">
    <nd ref="335331245"/>
    <nd ref="652497371"/>
    <nd ref="652497369"/>
    <tag k="highway" v="residential"/>
    <tag k="maxspeed" v="50"/>
    <tag k="maxspeed:source" v="default residential speed limit in Australia"/>
    <tag k="source" v="nearmap"/>
  </way>
  <way id="51143193" version="3" timestamp="2010-11-07T10:59:21Z" uid="7617" user="Franc" changeset="6310020">
    <nd ref="335331245"/>
    <nd ref="652497371"/>
    <nd ref="652497369"/>
    <tag k="highway" v="residential"/>
    <tag k="maxspeed" v="50"/>
    <tag k="maxspeed:source" v="default residential speed limit in Australia"/>
    <tag k="name" v="Walker Avenue"/>
    <tag k="source" v="nearmap"/>
    <tag k="source:name" v="survey"/>
  </way>
  <way id="51143193" version="4" timestamp="2012-01-20T02:40:19Z" uid="147510" user="woodpeck_fixbot" changeset="10442677">
    <nd ref="335331245"/>
    <nd ref="652497371"/>
    <nd ref="652497369"/>
    <tag k="highway" v="residential"/>
    <tag k="name" v="Walker Avenue"/>
    <tag k="source" v="nearmap"/>
    <tag k="source:name" v="survey"/>
  </way>
  <way id="51143194" version="1" timestamp="2010-02-24T13:12:28Z" uid="7617" user="Franc" changeset="3962739">
    <nd ref="652497332"/>
    <nd ref="652497334"/>
    <nd ref="26375042"/>
    <nd ref="247087718"/>
    <nd ref="384257272"/>
    <nd ref="574178342"/>
    <nd ref="384257271"/>
    <nd ref="384257273"/>
    <nd ref="574178344"/>
    <nd ref="26375033"/>
    <tag k="highway" v="residential"/>
    <tag k="name" v="Glenmore Road"/>
  </way>
  <way id="51143194" version="2" timestamp="2010-07-07T21:51:38Z" uid="74617" user="JohnSmith" changeset="5161069">
    <nd ref="652497332"/>
    <nd ref="652497334"/>
    <nd ref="26375042"/>
    <nd ref="247087718"/>
    <nd ref="384257272"/>
    <nd ref="574178342"/>
    <nd ref="384257271"/>
    <nd ref="384257273"/>
    <nd ref="574178344"/>
    <nd ref="26375033"/>
    <tag k="highway" v="residential"/>
    <tag k="maxspeed" v="50"/>
    <tag k="maxspeed:source" v="default residential speed limit in Australia"/>
    <tag k="name" v="Glenmore Road"/>
  </way>
  <way id="51143194" version="3" timestamp="2012-01-20T02:40:22Z" uid="147510" user="woodpeck_fixbot" changeset="10442677">
    <nd ref="652497332"/>
    <nd ref="652497334"/>
    <nd ref="26375042"/>
    <nd ref="247087718"/>
    <nd ref="384257272"/>
    <nd ref="574178342"/>
    <nd ref="384257271"/>
    <nd ref="384257273"/>
    <nd ref="574178344"/>
    <nd ref="26375033"/>
    <tag k="highway" v="residential"/>
    <tag k="name" v="Glenmore Road"/>
  </way>
  <way id="51143195" version="1" timestamp="2010-02-24T13:12:28Z" uid="7617" user="Franc" changeset="3962739">
    <nd ref="652497356"/>
    <nd ref="26375042"/>
    <tag k="highway" v="residential"/>
    <tag k="name" v="Lawson Street"/>
  </way>
  <way id="51143195" version="2" timestamp="2010-07-07T21:48:34Z" uid="74617" user="JohnSmith" changeset="5161069">
    <nd ref="652497356"/>
    <nd ref="26375042"/>
    <tag k="highway" v="residential"/>
    <tag k="maxspeed" v="50"/>
    <tag k="maxspeed:source" v="default residential speed limit in Australia"/>
    <tag k="name" v="Lawson Street"/>
  </way>
  <way id="51143195" version="3" timestamp="2012-01-20T02:40:24Z" uid="147510" user="woodpeck_fixbot" changeset="10442677">
    <nd ref="652497356"/>
    <nd ref="26375042"/>
    <tag k="highway" v="residential"/>
    <tag k="name" v="Lawson Street"/>
  </way>
  <way id="51143196" version="1" timestamp="2010-02-24T13:12:28Z" uid="7617" user="Franc" changeset="3962739">
    <nd ref="652497324"/>
    <nd ref="652497358"/>
    <nd ref="26375041"/>
    <nd ref="574178339"/>
    <nd ref="574178341"/>
    <nd ref="574178337"/>
    <nd ref="652497356"/>
    <tag k="highway" v="residential"/>
    <tag k="name" v="Lawson Street"/>
    <tag k="restriction" v="school_zone"/>
  </way>
  <way id="51143196" version="2" timestamp="2010-07-07T21:47:50Z" uid="74617" user="JohnSmith" changeset="5161069">
    <nd ref="652497324"/>
    <nd ref="652497358"/>
    <nd ref="26375041"/>
    <nd ref="574178339"/>
    <nd ref="574178341"/>
    <nd ref="574178337"/>
    <nd ref="652497356"/>
    <tag k="highway" v="residential"/>
    <tag k="maxspeed" v="50"/>
    <tag k="maxspeed:source" v="default residential speed limit in Australia"/>
    <tag k="name" v="Lawson Street"/>
    <tag k="restriction" v="school_zone"/>
  </way>
  <way id="51143196" version="3" timestamp="2012-01-20T02:40:25Z" uid="147510" user="woodpeck_fixbot" changeset="10442677">
    <nd ref="652497324"/>
    <nd ref="652497358"/>
    <nd ref="26375041"/>
    <nd ref="574178339"/>
    <nd ref="574178341"/>
    <nd ref="574178337"/>
    <nd ref="652497356"/>
    <tag k="highway" v="residential"/>
    <tag k="name" v="Lawson Street"/>
    <tag k="restriction" v="school_zone"/>
  </way>
  <way id="51143197" version="1" timestamp="2010-02-24T13:12:28Z" uid="7617" user="Franc" changeset="3962739">
    <nd ref="652497334"/>
    <nd ref="652497336"/>
    <nd ref="652497338"/>
    <nd ref="652497340"/>
    <nd ref="652497343"/>
    <nd ref="652497346"/>
    <tag k="highway" v="service"/>
    <tag k="source" v="nearmap"/>
  </way>
  <way id="51143197" version="2" timestamp="2010-11-07T10:58:47Z" uid="7617" user="Franc" changeset="6310020">
    <nd ref="652497334"/>
    <nd ref="652497336"/>
    <nd ref="652497338"/>
    <nd ref="652497346"/>
    <tag k="highway" v="service"/>
    <tag k="name" v="James Lane"/>
    <tag k="source" v="nearmap"/>
    <tag k="source:name" v="survey"/>
  </way>
  <way id="51143199" version="1" timestamp="2010-02-24T13:12:28Z" uid="7617" user="Franc" changeset="3962739">
    <nd ref="652497350"/>
    <nd ref="652497352"/>
    <nd ref="652497327"/>
    <nd ref="652497320"/>
    <nd ref="652497322"/>
    <nd ref="652497328"/>
    <nd ref="652497329"/>
    <nd ref="652497350"/>
    <tag k="amenity" v="school"/>
    <tag k="source" v="nearmap"/>
  </way>
  <way id="51143199" version="2" timestamp="2010-11-07T10:58:25Z" uid="7617" user="Franc" changeset="6310020">
    <nd ref="652497350"/>
    <nd ref="652497352"/>
    <nd ref="652497327"/>
    <nd ref="652497320"/>
    <nd ref="652497322"/>
    <nd ref="652497328"/>
    <nd ref="652497329"/>
    <nd ref="652497350"/>
    <tag k="amenity" v="school"/>
    <tag k="name" v="Glenmore Road Public School"/>
    <tag k="source" v="nearmap"/>
    <tag k="source:name" v="survey"/>
  </way>
  <way id="51143200" version="1" timestamp="2010-02-24T13:12:28Z" uid="7617" user="Franc" changeset="3962739">
    <nd ref="384257282"/>
    <nd ref="652497397"/>
    <tag k="highway" v="service"/>
    <tag k="source" v="nearmap"/>
  </way>
  <way id="51143200" version="2" timestamp="2010-11-07T10:59:11Z" uid="7617" user="Franc" changeset="6310020">
    <nd ref="384257282"/>
    <nd ref="652497397"/>
    <tag k="fixme:sign:no" v="2010-11-07"/>
    <tag k="highway" v="service"/>
    <tag k="source" v="nearmap"/>
  </way>
  <way id="51143202" version="1" timestamp="2010-02-24T13:12:28Z" uid="7617" user="Franc" changeset="3962739">
    <nd ref="652497392"/>
    <nd ref="384257285"/>
    <tag k="highway" v="service"/>
    <tag k="source" v="nearmap"/>
  </way>
  <way id="51143202" version="2" timestamp="2010-11-07T10:58:58Z" uid="7617" user="Franc" changeset="6310020">
    <nd ref="652497392"/>
    <nd ref="384257285"/>
    <tag k="fixme:sign:no" v="2010-11-07"/>
    <tag k="highway" v="service"/>
    <tag k="source" v="nearmap"/>
  </way>
  <way id="51143203" version="1" timestamp="2010-02-24T13:12:28Z" uid="7617" user="Franc" changeset="3962739">
    <nd ref="652497403"/>
    <nd ref="307626558"/>
    <nd ref="13887048"/>
    <nd ref="307626554"/>
    <nd ref="13887047"/>
    <nd ref="13887052"/>
    <nd ref="13887053"/>
    <nd ref="13887054"/>
    <nd ref="13887055"/>
    <nd ref="13887056"/>
    <nd ref="13887057"/>
    <nd ref="13887058"/>
    <tag k="highway" v="residential"/>
    <tag k="name" v="Waratah Street"/>
    <tag k="oneway" v="yes"/>
  </way>
  <way id="51143203" version="2" timestamp="2010-07-07T21:48:10Z" uid="74617" user="JohnSmith" changeset="5161069">
    <nd ref="652497403"/>
    <nd ref="307626558"/>
    <nd ref="13887048"/>
    <nd ref="307626554"/>
    <nd ref="13887047"/>
    <nd ref="13887052"/>
    <nd ref="13887053"/>
    <nd ref="13887054"/>
    <nd ref="13887055"/>
    <nd ref="13887056"/>
    <nd ref="13887057"/>
    <nd ref="13887058"/>
    <tag k="highway" v="residential"/>
    <tag k="maxspeed" v="50"/>
    <tag k="maxspeed:source" v="default residential speed limit in Australia"/>
    <tag k="name" v="Waratah Street"/>
    <tag k="oneway" v="yes"/>
  </way>
  <way id="51143203" version="3" timestamp="2010-10-23T21:00:38Z" uid="7617" user="Franc" changeset="6151576">
    <nd ref="652497403"/>
    <nd ref="307626558"/>
    <nd ref="13887048"/>
    <nd ref="307626554"/>
    <nd ref="13887047"/>
    <nd ref="13887052"/>
    <nd ref="962219076"/>
    <nd ref="13887053"/>
    <nd ref="13887054"/>
    <nd ref="13887055"/>
    <nd ref="13887056"/>
    <nd ref="962218846"/>
    <nd ref="13887058"/>
    <tag k="highway" v="residential"/>
    <tag k="maxspeed" v="50"/>
    <tag k="maxspeed:source" v="default residential speed limit in Australia"/>
    <tag k="name" v="Waratah Street"/>
    <tag k="oneway" v="yes"/>
  </way>
  <way id="51143203" version="4" timestamp="2012-01-20T02:40:27Z" uid="147510" user="woodpeck_fixbot" changeset="10442677">
    <nd ref="652497403"/>
    <nd ref="307626558"/>
    <nd ref="13887048"/>
    <nd ref="307626554"/>
    <nd ref="13887047"/>
    <nd ref="13887052"/>
    <nd ref="962219076"/>
    <nd ref="13887053"/>
    <nd ref="13887054"/>
    <nd ref="13887055"/>
    <nd ref="13887056"/>
    <nd ref="962218846"/>
    <nd ref="13887058"/>
    <tag k="highway" v="residential"/>
    <tag k="name" v="Waratah Street"/>
    <tag k="oneway" v="yes"/>
  </way>
  <way id="51143204" version="1" timestamp="2010-02-24T13:12:29Z" uid="7617" user="Franc" changeset="3962739">
    <nd ref="13887097"/>
    <nd ref="13887090"/>
    <tag k="highway" v="residential"/>
    <tag k="name" v="Elizabeth Bay Road"/>
    <tag k="oneway" v="yes"/>
    <tag k="source" v="nearmap"/>
  </way>
  <way id="51143204" version="2" timestamp="2010-07-07T21:47:26Z" uid="74617" user="JohnSmith" changeset="5161069">
    <nd ref="13887097"/>
    <nd ref="13887090"/>
    <tag k="highway" v="residential"/>
    <tag k="maxspeed" v="50"/>
    <tag k="maxspeed:source" v="default residential speed limit in Australia"/>
    <tag k="name" v="Elizabeth Bay Road"/>
    <tag k="oneway" v="yes"/>
    <tag k="source" v="nearmap"/>
  </way>
  <way id="51143204" version="3" timestamp="2012-01-20T02:40:29Z" uid="147510" user="woodpeck_fixbot" changeset="10442677">
    <nd ref="13887097"/>
    <nd ref="13887090"/>
    <tag k="highway" v="residential"/>
    <tag k="name" v="Elizabeth Bay Road"/>
    <tag k="oneway" v="yes"/>
    <tag k="source" v="nearmap"/>
  </way>
  <way id="51143205" version="1" timestamp="2010-02-24T13:12:29Z" uid="7617" user="Franc" changeset="3962739">
    <nd ref="652497435"/>
    <nd ref="652497437"/>
    <nd ref="652497439"/>
    <nd ref="652497442"/>
    <nd ref="652497444"/>
    <nd ref="652497446"/>
    <nd ref="652497459"/>
    <nd ref="652497462"/>
    <nd ref="652497464"/>
    <nd ref="652497466"/>
    <nd ref="652497468"/>
    <nd ref="652497494"/>
    <nd ref="652497496"/>
    <nd ref="652497473"/>
    <nd ref="652497488"/>
    <nd ref="652497490"/>
    <nd ref="652497492"/>
    <nd ref="652497474"/>
    <nd ref="652497475"/>
    <nd ref="652497477"/>
    <nd ref="652497479"/>
    <nd ref="652497481"/>
    <nd ref="652497469"/>
    <nd ref="652497470"/>
    <nd ref="652497448"/>
    <nd ref="652497451"/>
    <nd ref="652497454"/>
    <nd ref="652497457"/>
    <nd ref="652497435"/>
    <tag k="leisure" v="park"/>
    <tag k="source" v="nearmap"/>
  </way>
  <way id="51143208" version="5" timestamp="2010-07-09T06:18:21Z" uid="74617" user="JohnSmith" changeset="5171134">
    <nd ref="652504516"/>
    <nd ref="652505257"/>
    <nd ref="652505261"/>
    <nd ref="391362947"/>
    <nd ref="369924210"/>
    <tag k="highway" v="residential"/>
    <tag k="maxspeed" v="50"/>
    <tag k="maxspeed:source" v="default residential speed limit in Australia"/>
    <tag k="name" v="Brinkworth Street"/>
  </way>
  <way id="51143208" version="6" timestamp="2012-01-20T02:40:31Z" uid="147510" user="woodpeck_fixbot" changeset="10442677">
    <nd ref="652504516"/>
    <nd ref="652505257"/>
    <nd ref="652505261"/>
    <nd ref="391362947"/>
    <nd ref="369924210"/>
    <tag k="highway" v="residential"/>
    <tag k="name" v="Brinkworth Street"/>
  </way>
  <way id="51143214" version="2" timestamp="2010-07-09T06:22:59Z" uid="74617" user="JohnSmith" changeset="5171134">
    <nd ref="534085191"/>
    <nd ref="391363241"/>
    <tag k="highway" v="residential"/>
    <tag k="maxspeed" v="50"/>
    <tag k="maxspeed:source" v="default residential speed limit in Australia"/>
  </way>
  <way id="51143214" version="3" timestamp="2010-11-03T09:33:46Z" uid="171576" user="Conquest" changeset="6274446">
    <nd ref="534085191"/>
    <nd ref="391363241"/>
    <tag k="highway" v="residential"/>
    <tag k="maxspeed" v="50"/>
    <tag k="maxspeed:source" v="default residential speed limit in Australia"/>
    <tag k="name" v="Victoria Street"/>
  </way>
  <way id="51143214" version="4" timestamp="2012-01-20T02:40:32Z" uid="147510" user="woodpeck_fixbot" changeset="10442677">
    <nd ref="534085191"/>
    <nd ref="391363241"/>
    <tag k="highway" v="residential"/>
    <tag k="name" v="Victoria Street"/>
  </way>
  <way id="51143253" version="3" timestamp="2010-04-25T03:34:48Z" uid="20587" user="balrog-kun" changeset="4517482">
    <nd ref="659666380"/>
    <nd ref="659666501"/>
    <tag k="highway" v="residential"/>
    <tag k="name" v="Księdza Ignacego Skorupki"/>
    <tag k="source" v="http://ump.waw.pl/ retrieved 16:02:22 01/18/10 (UMP-Suwalki/src/AUGUSTOW.ulice.txt)"/>
  </way>
  <way id="51143253" version="4" timestamp="2010-08-04T16:28:55Z" uid="63826" user="rhn" changeset="5400652">
    <nd ref="659666380"/>
    <nd ref="659666501"/>
    <tag k="highway" v="residential"/>
    <tag k="name" v="Księdza Ignacego Skorupki"/>
    <tag k="surface" v="paved"/>
  </way>
  <way id="51143257" version="3" timestamp="2010-04-25T03:34:47Z" uid="20587" user="balrog-kun" changeset="4517482">
    <nd ref="659666364"/>
    <nd ref="652500008"/>
    <nd ref="652500021"/>
    <nd ref="652500027"/>
    <nd ref="652499952"/>
    <nd ref="652499960"/>
    <tag k="highway" v="residential"/>
    <tag k="name" v="Adama Mickiewicza"/>
    <tag k="source" v="http://ump.waw.pl/ retrieved 16:02:22 01/18/10 (UMP-Suwalki/src/AUGUSTOW.ulice.txt)"/>
  </way>
  <way id="51143257" version="4" timestamp="2010-08-04T16:29:03Z" uid="63826" user="rhn" changeset="5400652">
    <nd ref="659666364"/>
    <nd ref="652500008"/>
    <tag k="highway" v="residential"/>
    <tag k="name" v="Adama Mickiewicza"/>
    <tag k="source" v="GPS-traces from OSM"/>
  </way>
  <way id="51143259" version="2" timestamp="2010-04-25T03:34:48Z" uid="20587" user="balrog-kun" changeset="4517482">
    <nd ref="652499989"/>
    <nd ref="652499975"/>
    <nd ref="652499972"/>
    <nd ref="652499982"/>
    <nd ref="652500027"/>
    <tag k="highway" v="residential"/>
    <tag k="name" v="Adama Mickiewicza"/>
    <tag k="source" v="http://ump.waw.pl/ retrieved 16:02:22 01/18/10 (UMP-Suwalki/src/AUGUSTOW.ulice.txt)"/>
  </way>
  <way id="51143260" version="2" timestamp="2010-04-25T03:34:48Z" uid="20587" user="balrog-kun" changeset="4517482">
    <nd ref="652499697"/>
    <nd ref="652499693"/>
    <nd ref="652499829"/>
    <nd ref="652499837"/>
    <tag k="highway" v="residential"/>
    <tag k="name" v="Juliusza Słowackiego"/>
    <tag k="source" v="http://ump.waw.pl/ retrieved 16:02:22 01/18/10 (UMP-Suwalki/src/AUGUSTOW.ulice.txt)"/>
  </way>
  <way id="51143276" version="3" timestamp="2010-04-25T03:34:47Z" uid="20587" user="balrog-kun" changeset="4517482">
    <nd ref="659666360"/>
    <nd ref="652499918"/>
    <nd ref="652499975"/>
    <tag k="highway" v="residential"/>
    <tag k="name" v="Cypriana Kamila Norwida"/>
    <tag k="source" v="http://ump.waw.pl/ retrieved 16:02:22 01/18/10 (UMP-Suwalki/src/AUGUSTOW.ulice.txt)"/>
  </way>
  <way id="51143279" version="4" timestamp="2010-11-11T22:21:25Z" uid="30632" user="antblant" changeset="6347547">
    <nd ref="652499861"/>
    <nd ref="652499852"/>
    <tag k="highway" v="primary"/>
    <tag k="int_ref" v="E 67"/>
    <tag k="name" v="Chreptowicza"/>
    <tag k="oneway" v="yes"/>
    <tag k="ref" v="8;16"/>
    <tag k="source" v="GPS-traces from OSM"/>
  </way>
  <way id="51143280" version="4" timestamp="2010-11-11T22:21:24Z" uid="30632" user="antblant" changeset="6347547">
    <nd ref="652499852"/>
    <nd ref="652499881"/>
    <tag k="highway" v="primary"/>
    <tag k="int_ref" v="E 67"/>
    <tag k="name" v="Chreptowicza"/>
    <tag k="oneway" v="yes"/>
    <tag k="ref" v="8;16"/>
    <tag k="source" v="GPS-traces from OSM"/>
  </way>
  <way id="51143283" version="3" timestamp="2010-04-25T03:34:48Z" uid="20587" user="balrog-kun" changeset="4517482">
    <nd ref="659666379"/>
    <nd ref="659666375"/>
    <nd ref="652500046"/>
    <nd ref="659666380"/>
    <tag k="highway" v="residential"/>
    <tag k="name" v="Księdza Ignacego Skorupki"/>
    <tag k="oneway" v="yes"/>
    <tag k="source" v="http://ump.waw.pl/ retrieved 16:02:22 01/18/10 (UMP-Suwalki/src/AUGUSTOW.ulice.txt)"/>
  </way>
  <way id="51143283" version="4" timestamp="2010-08-04T16:29:09Z" uid="63826" user="rhn" changeset="5400652">
    <nd ref="659666379"/>
    <nd ref="659666375"/>
    <nd ref="652500046"/>
    <nd ref="659666380"/>
    <tag k="highway" v="residential"/>
    <tag k="lanes" v="2"/>
    <tag k="name" v="Księdza Ignacego Skorupki"/>
    <tag k="oneway" v="yes"/>
  </way>
  <way id="51143289" version="2" timestamp="2010-04-25T03:34:49Z" uid="20587" user="balrog-kun" changeset="4517482">
    <nd ref="652500320"/>
    <nd ref="652500324"/>
    <nd ref="652500166"/>
    <nd ref="652500254"/>
    <nd ref="652500247"/>
    <tag k="highway" v="residential"/>
    <tag k="name" v="Konstantego Ramotowskiego"/>
    <tag k="source" v="http://ump.waw.pl/ retrieved 16:02:22 01/18/10 (UMP-Suwalki/src/AUGUSTOW.ulice.txt)"/>
  </way>
  <way id="51143291" version="2" timestamp="2010-04-25T03:34:50Z" uid="20587" user="balrog-kun" changeset="4517482">
    <nd ref="59940641"/>
    <nd ref="652500247"/>
    <nd ref="652500250"/>
    <nd ref="652500311"/>
    <nd ref="652500317"/>
    <nd ref="652500320"/>
    <nd ref="652500304"/>
    <tag k="highway" v="residential"/>
    <tag k="name" v="Józefa Wybickiego"/>
    <tag k="source" v="http://ump.waw.pl/ retrieved 16:02:22 01/18/10 (UMP-Suwalki/src/AUGUSTOW.ulice.txt)"/>
  </way>
  <way id="51143291" version="3" timestamp="2010-08-04T16:28:56Z" uid="63826" user="rhn" changeset="5400652">
    <nd ref="59940641"/>
    <nd ref="652500247"/>
    <nd ref="652500250"/>
    <nd ref="652500311"/>
    <nd ref="652500317"/>
    <nd ref="652500320"/>
    <nd ref="652500304"/>
    <tag k="highway" v="residential"/>
    <tag k="name" v="Józefa Wybickiego"/>
    <tag k="surface" v="paved"/>
  </way>
  <way id="51143295" version="2" timestamp="2010-04-25T03:34:48Z" uid="20587" user="balrog-kun" changeset="4517482">
    <nd ref="652500100"/>
    <nd ref="652500172"/>
    <nd ref="652500178"/>
    <nd ref="652500184"/>
    <nd ref="652500189"/>
    <nd ref="652500193"/>
    <nd ref="652500160"/>
    <tag k="highway" v="residential"/>
    <tag k="name" v="Majora Henryka Sucharskiego"/>
    <tag k="source" v="http://ump.waw.pl/ retrieved 16:02:22 01/18/10 (UMP-Suwalki/src/AUGUSTOW.ulice.txt)"/>
  </way>
  <way id="51143301" version="2" timestamp="2010-04-25T03:34:48Z" uid="20587" user="balrog-kun" changeset="4517482">
    <nd ref="652500304"/>
    <nd ref="652500285"/>
    <nd ref="652500266"/>
    <nd ref="652500276"/>
    <tag k="highway" v="residential"/>
    <tag k="name" v="Generała Ignacego Prądzyńskiego"/>
    <tag k="source" v="http://ump.waw.pl/ retrieved 16:02:22 01/18/10 (UMP-Suwalki/src/AUGUSTOW.ulice.txt)"/>
  </way>
  <way id="51143303" version="2" timestamp="2010-04-25T03:34:49Z" uid="20587" user="balrog-kun" changeset="4517482">
    <nd ref="652500296"/>
    <nd ref="652500334"/>
    <tag k="highway" v="residential"/>
    <tag k="name" v="Wojciecha Korczakowskiego"/>
    <tag k="source" v="http://ump.waw.pl/ retrieved 16:02:22 01/18/10 (UMP-Suwalki/src/AUGUSTOW.ulice.txt)"/>
  </way>
  <way id="51143304" version="3" timestamp="2010-07-09T06:19:16Z" uid="74617" user="JohnSmith" changeset="5171134">
    <nd ref="652500855"/>
    <nd ref="652500857"/>
    <nd ref="652500860"/>
    <tag k="highway" v="residential"/>
    <tag k="maxspeed" v="50"/>
    <tag k="maxspeed:source" v="default residential speed limit in Australia"/>
    <tag k="name" v="Scott Street"/>
  </way>
  <way id="51143304" version="4" timestamp="2010-12-02T04:52:41Z" uid="4467" user="Rosscoe" changeset="6511120">
    <nd ref="652500855"/>
    <nd ref="652500857"/>
    <nd ref="652500860"/>
    <nd ref="1015425935"/>
    <tag k="highway" v="residential"/>
    <tag k="maxspeed" v="50"/>
    <tag k="maxspeed:source" v="default residential speed limit in Australia"/>
    <tag k="name" v="Scott Street"/>
  </way>
  <way id="51143304" version="5" timestamp="2012-01-20T02:40:34Z" uid="147510" user="woodpeck_fixbot" changeset="10442677">
    <nd ref="652500855"/>
    <nd ref="652500857"/>
    <nd ref="652500860"/>
    <nd ref="1015425935"/>
    <tag k="highway" v="residential"/>
    <tag k="name" v="Scott Street"/>
  </way>
  <way id="51143310" version="3" timestamp="2010-07-09T06:23:46Z" uid="74617" user="JohnSmith" changeset="5171134">
    <nd ref="652500857"/>
    <nd ref="652501291"/>
    <tag k="highway" v="residential"/>
    <tag k="maxspeed" v="50"/>
    <tag k="maxspeed:source" v="default residential speed limit in Australia"/>
    <tag k="name" v="Monash Street"/>
  </way>
  <way id="51143310" version="4" timestamp="2012-01-20T02:40:35Z" uid="147510" user="woodpeck_fixbot" changeset="10442677">
    <nd ref="652500857"/>
    <nd ref="652501291"/>
    <tag k="highway" v="residential"/>
    <tag k="name" v="Monash Street"/>
  </way>
  <way id="51143325" version="7" timestamp="2010-07-09T06:19:03Z" uid="74617" user="JohnSmith" changeset="5171134">
    <nd ref="652504492"/>
    <nd ref="652498931"/>
    <nd ref="652497926"/>
    <nd ref="652504496"/>
    <nd ref="652504505"/>
    <nd ref="652504508"/>
    <nd ref="652504512"/>
    <nd ref="652504516"/>
    <nd ref="652504521"/>
    <nd ref="652504526"/>
    <nd ref="652504532"/>
    <nd ref="652504537"/>
    <nd ref="652505751"/>
    <nd ref="652504540"/>
    <nd ref="652505280"/>
    <nd ref="450479156"/>
    <nd ref="652500855"/>
    <nd ref="652502233"/>
    <tag k="highway" v="residential"/>
    <tag k="maxspeed" v="50"/>
    <tag k="maxspeed:source" v="default residential speed limit in Australia"/>
    <tag k="name" v="Pleasant Avenue"/>
  </way>
  <way id="51143325" version="8" timestamp="2010-07-19T09:13:19Z" uid="4467" user="Rosscoe" changeset="5258983">
    <nd ref="652504492"/>
    <nd ref="824221649"/>
    <nd ref="652498931"/>
    <nd ref="652497926"/>
    <nd ref="652504496"/>
    <nd ref="652504505"/>
    <nd ref="652504508"/>
    <nd ref="652504512"/>
    <nd ref="652504516"/>
    <nd ref="652504521"/>
    <nd ref="652504526"/>
    <nd ref="652504532"/>
    <nd ref="652504537"/>
    <nd ref="652505751"/>
    <nd ref="652504540"/>
    <nd ref="652505280"/>
    <nd ref="450479156"/>
    <nd ref="652500855"/>
    <nd ref="652502233"/>
    <tag k="highway" v="residential"/>
    <tag k="maxspeed" v="50"/>
    <tag k="maxspeed:source" v="default residential speed limit in Australia"/>
    <tag k="name" v="Pleasant Avenue"/>
  </way>
  <way id="51143325" version="9" timestamp="2010-07-19T13:38:08Z" uid="4467" user="Rosscoe" changeset="5261180">
    <nd ref="652504492"/>
    <nd ref="824221649"/>
    <nd ref="652498931"/>
    <nd ref="652497926"/>
    <nd ref="652504496"/>
    <nd ref="652504505"/>
    <nd ref="652504508"/>
    <nd ref="652504512"/>
    <nd ref="652504516"/>
    <nd ref="652504521"/>
    <nd ref="652504526"/>
    <nd ref="652504532"/>
    <nd ref="652504537"/>
    <nd ref="652505751"/>
    <nd ref="652504540"/>
    <nd ref="652505280"/>
    <nd ref="450479156"/>
    <nd ref="652500855"/>
    <nd ref="652502233"/>
    <tag k="highway" v="residential"/>
    <tag k="maxspeed" v="50"/>
    <tag k="maxspeed:source" v="default residential speed limit in Australia"/>
    <tag k="name" v="Pleasant Avenue"/>
  </way>
  <way id="51143325" version="10" timestamp="2011-03-18T15:42:23Z" uid="4467" user="Rosscoe" changeset="7596453">
    <nd ref="652504492"/>
    <nd ref="824221649"/>
    <nd ref="652498931"/>
    <nd ref="652497926"/>
    <nd ref="652504496"/>
    <nd ref="652504505"/>
    <nd ref="652504508"/>
    <nd ref="652504512"/>
    <nd ref="652504516"/>
    <nd ref="652504521"/>
    <nd ref="652504526"/>
    <nd ref="652504532"/>
    <nd ref="652504537"/>
    <nd ref="652505751"/>
    <nd ref="652504540"/>
    <nd ref="652505280"/>
    <nd ref="450479156"/>
    <nd ref="652500855"/>
    <nd ref="652502233"/>
    <tag k="highway" v="residential"/>
    <tag k="maxspeed" v="50"/>
    <tag k="name" v="Pleasant Avenue"/>
    <tag k="source:maxspeed" v="default residential speed limit in Australia"/>
  </way>
  <way id="51143325" version="11" timestamp="2011-08-11T11:34:55Z" uid="21143" user="hryciuk" changeset="8984684">
    <nd ref="652504492"/>
    <nd ref="824221649"/>
    <nd ref="652498931"/>
    <nd ref="652497926"/>
    <nd ref="652504496"/>
    <nd ref="652504505"/>
    <nd ref="652504508"/>
    <nd ref="652504512"/>
    <nd ref="652504516"/>
    <nd ref="652504521"/>
    <nd ref="652504526"/>
    <nd ref="652504532"/>
    <nd ref="652504537"/>
    <nd ref="652505751"/>
    <nd ref="652504540"/>
    <nd ref="652505280"/>
    <nd ref="450479156"/>
    <nd ref="652500855"/>
    <nd ref="1394769608"/>
    <nd ref="652502233"/>
    <tag k="highway" v="residential"/>
    <tag k="maxspeed" v="50"/>
    <tag k="name" v="Pleasant Avenue"/>
    <tag k="source:maxspeed" v="default residential speed limit in Australia"/>
  </way>
  <way id="51143325" version="12" timestamp="2012-01-20T02:40:37Z" uid="147510" user="woodpeck_fixbot" changeset="10442677">
    <nd ref="652504492"/>
    <nd ref="824221649"/>
    <nd ref="652498931"/>
    <nd ref="652497926"/>
    <nd ref="652504496"/>
    <nd ref="652504505"/>
    <nd ref="652504508"/>
    <nd ref="652504512"/>
    <nd ref="652504516"/>
    <nd ref="652504521"/>
    <nd ref="652504526"/>
    <nd ref="652504532"/>
    <nd ref="652504537"/>
    <nd ref="652505751"/>
    <nd ref="652504540"/>
    <nd ref="652505280"/>
    <nd ref="450479156"/>
    <nd ref="652500855"/>
    <nd ref="1394769608"/>
    <nd ref="652502233"/>
    <tag k="highway" v="residential"/>
    <tag k="name" v="Pleasant Avenue"/>
    <tag k="source:maxspeed" v="default residential speed limit in Australia"/>
  </way>
  <way id="51143373" version="3" timestamp="2010-07-09T06:18:03Z" uid="74617" user="JohnSmith" changeset="5171134">
    <nd ref="652505280"/>
    <nd ref="652505682"/>
    <tag k="highway" v="residential"/>
    <tag k="maxspeed" v="50"/>
    <tag k="maxspeed:source" v="default residential speed limit in Australia"/>
    <tag k="name" v="Ray Street"/>
  </way>
  <way id="51143373" version="4" timestamp="2012-01-20T02:40:39Z" uid="147510" user="woodpeck_fixbot" changeset="10442677">
    <nd ref="652505280"/>
    <nd ref="652505682"/>
    <tag k="highway" v="residential"/>
    <tag k="name" v="Ray Street"/>
  </way>
  <way id="51143374" version="3" timestamp="2010-07-09T06:20:26Z" uid="74617" user="JohnSmith" changeset="5171134">
    <nd ref="652505751"/>
    <nd ref="652506099"/>
    <tag k="highway" v="residential"/>
    <tag k="maxspeed" v="50"/>
    <tag k="maxspeed:source" v="default residential speed limit in Australia"/>
    <tag k="name" v="New Street"/>
  </way>
  <way id="51143374" version="4" timestamp="2010-12-02T04:52:40Z" uid="4467" user="Rosscoe" changeset="6511120">
    <nd ref="652505751"/>
    <nd ref="652506099"/>
    <nd ref="1015426017"/>
    <tag k="highway" v="residential"/>
    <tag k="maxspeed" v="50"/>
    <tag k="maxspeed:source" v="default residential speed limit in Australia"/>
    <tag k="name" v="New Street"/>
  </way>
  <way id="51143374" version="5" timestamp="2012-01-20T02:40:40Z" uid="147510" user="woodpeck_fixbot" changeset="10442677">
    <nd ref="652505751"/>
    <nd ref="652506099"/>
    <nd ref="1015426017"/>
    <tag k="highway" v="residential"/>
    <tag k="name" v="New Street"/>
  </way>
  <way id="51143451" version="1" timestamp="2010-02-24T13:24:12Z" uid="7617" user="Franc" changeset="3962832">
    <nd ref="577292446"/>
    <nd ref="577292443"/>
    <nd ref="577292463"/>
    <nd ref="577292462"/>
    <nd ref="577292447"/>
    <nd ref="577292450"/>
    <nd ref="577292452"/>
    <nd ref="577292459"/>
    <nd ref="577292458"/>
    <nd ref="577292457"/>
    <nd ref="577292386"/>
    <nd ref="577292379"/>
    <nd ref="577292385"/>
    <nd ref="577292384"/>
    <nd ref="577292382"/>
    <nd ref="577292374"/>
    <nd ref="577292371"/>
    <nd ref="577292375"/>
    <nd ref="577292373"/>
    <nd ref="577292372"/>
    <nd ref="577292398"/>
    <nd ref="577292388"/>
    <nd ref="577292394"/>
    <nd ref="577292390"/>
    <nd ref="577292391"/>
    <nd ref="577292351"/>
    <nd ref="577292350"/>
    <nd ref="577292345"/>
    <nd ref="577292349"/>
    <nd ref="577292364"/>
    <nd ref="577292363"/>
    <nd ref="577292361"/>
    <nd ref="577292358"/>
    <nd ref="577292497"/>
    <nd ref="577292500"/>
    <nd ref="577292499"/>
    <nd ref="577292489"/>
    <nd ref="577292490"/>
    <nd ref="577292492"/>
    <nd ref="577292491"/>
    <nd ref="577292495"/>
    <tag k="highway" v="primary"/>
    <tag k="maxspeed" v="60"/>
    <tag k="name" v="Oxford Street"/>
    <tag k="oneway" v="yes"/>
    <tag k="source" v="nearmap"/>
  </way>
  <way id="51143451" version="2" timestamp="2010-09-13T10:54:05Z" uid="79475" user="AlexOnTheBus" changeset="5768543">
    <nd ref="577292446"/>
    <nd ref="577292443"/>
    <nd ref="577292463"/>
    <nd ref="577292462"/>
    <nd ref="577292447"/>
    <nd ref="577292450"/>
    <nd ref="577292452"/>
    <nd ref="577292459"/>
    <nd ref="577292458"/>
    <nd ref="577292457"/>
    <nd ref="577292386"/>
    <nd ref="577292379"/>
    <nd ref="577292385"/>
    <nd ref="577292384"/>
    <nd ref="577292382"/>
    <nd ref="577292374"/>
    <nd ref="577292371"/>
    <nd ref="577292375"/>
    <nd ref="577292373"/>
    <nd ref="577292372"/>
    <nd ref="577292398"/>
    <nd ref="577292388"/>
    <nd ref="577292394"/>
    <nd ref="577292390"/>
    <nd ref="577292391"/>
    <nd ref="577292351"/>
    <nd ref="577292350"/>
    <nd ref="577292345"/>
    <nd ref="577292349"/>
    <nd ref="577292364"/>
    <nd ref="577292363"/>
    <nd ref="577292361"/>
    <nd ref="577292358"/>
    <nd ref="577292497"/>
    <nd ref="577292500"/>
    <tag k="highway" v="primary"/>
    <tag k="maxspeed" v="60"/>
    <tag k="name" v="Oxford Street"/>
    <tag k="oneway" v="yes"/>
    <tag k="source" v="nearmap"/>
  </way>
  <way id="51143451" version="3" timestamp="2011-02-19T10:03:01Z" uid="28794" user="csdf" changeset="7329910">
    <nd ref="577292446"/>
    <nd ref="577292443"/>
    <nd ref="577292463"/>
    <nd ref="577292462"/>
    <nd ref="577292447"/>
    <nd ref="577292450"/>
    <nd ref="577292452"/>
    <nd ref="577292459"/>
    <nd ref="577292458"/>
    <nd ref="577292457"/>
    <nd ref="577292386"/>
    <nd ref="577292379"/>
    <nd ref="577292385"/>
    <nd ref="577292384"/>
    <nd ref="577292382"/>
    <nd ref="577292374"/>
    <nd ref="577292371"/>
    <nd ref="577292375"/>
    <nd ref="577292373"/>
    <nd ref="577292372"/>
    <nd ref="577292398"/>
    <nd ref="577292388"/>
    <nd ref="577292394"/>
    <nd ref="577292390"/>
    <nd ref="577292391"/>
    <nd ref="577292351"/>
    <nd ref="577292350"/>
    <nd ref="577292345"/>
    <nd ref="577292349"/>
    <nd ref="577292364"/>
    <nd ref="1160951381"/>
    <nd ref="577292363"/>
    <nd ref="577292361"/>
    <nd ref="577292358"/>
    <nd ref="577292497"/>
    <nd ref="577292500"/>
    <tag k="highway" v="primary"/>
    <tag k="maxspeed" v="60"/>
    <tag k="name" v="Oxford Street"/>
    <tag k="oneway" v="yes"/>
    <tag k="source" v="nearmap"/>
  </way>
  <way id="51143451" version="4" timestamp="2011-03-15T09:00:30Z" uid="7617" user="Franc" changeset="7564252">
    <nd ref="577292446"/>
    <nd ref="577292443"/>
    <nd ref="577292463"/>
    <nd ref="577292462"/>
    <nd ref="577292447"/>
    <nd ref="577292450"/>
    <nd ref="577292452"/>
    <nd ref="577292459"/>
    <nd ref="577292458"/>
    <nd ref="577292457"/>
    <nd ref="1202787693"/>
    <nd ref="577292386"/>
    <nd ref="577292379"/>
    <nd ref="577292385"/>
    <nd ref="577292384"/>
    <nd ref="577292382"/>
    <nd ref="577292374"/>
    <nd ref="577292371"/>
    <nd ref="577292375"/>
    <nd ref="577292373"/>
    <nd ref="577292372"/>
    <nd ref="577292398"/>
    <nd ref="577292388"/>
    <nd ref="577292394"/>
    <nd ref="577292390"/>
    <nd ref="577292391"/>
    <nd ref="577292351"/>
    <nd ref="577292350"/>
    <nd ref="577292345"/>
    <nd ref="577292349"/>
    <nd ref="577292364"/>
    <nd ref="1160951381"/>
    <nd ref="577292363"/>
    <nd ref="577292361"/>
    <nd ref="577292358"/>
    <nd ref="577292497"/>
    <nd ref="577292500"/>
    <tag k="highway" v="primary"/>
    <tag k="maxspeed" v="60"/>
    <tag k="name" v="Oxford Street"/>
    <tag k="oneway" v="yes"/>
    <tag k="source" v="nearmap"/>
  </way>
  <way id="51143452" version="1" timestamp="2010-02-24T13:24:12Z" uid="7617" user="Franc" changeset="3962832">
    <nd ref="652511246"/>
    <nd ref="652511260"/>
    <tag k="highway" v="unclassified"/>
    <tag k="source" v="nearmap"/>
  </way>
  <way id="51143452" version="2" timestamp="2011-05-22T09:07:43Z" uid="7617" user="Franc" changeset="8213765">
    <nd ref="652511246"/>
    <nd ref="652511260"/>
    <tag k="highway" v="unclassified"/>
    <tag k="name" v="Wentworh Lane"/>
    <tag k="source" v="nearmap"/>
    <tag k="source:name" v="survey"/>
  </way>
  <way id="51143453" version="1" timestamp="2010-02-24T13:24:12Z" uid="7617" user="Franc" changeset="3962832">
    <nd ref="652511243"/>
    <nd ref="652511242"/>
    <nd ref="247085113"/>
    <tag k="highway" v="residential"/>
    <tag k="name" v="George Street"/>
  </way>
  <way id="51143453" version="2" timestamp="2010-07-07T21:49:05Z" uid="74617" user="JohnSmith" changeset="5161069">
    <nd ref="652511243"/>
    <nd ref="652511242"/>
    <nd ref="247085113"/>
    <tag k="highway" v="residential"/>
    <tag k="maxspeed" v="50"/>
    <tag k="maxspeed:source" v="default residential speed limit in Australia"/>
    <tag k="name" v="George Street"/>
  </way>
  <way id="51143453" version="3" timestamp="2012-01-20T02:40:41Z" uid="147510" user="woodpeck_fixbot" changeset="10442677">
    <nd ref="652511243"/>
    <nd ref="652511242"/>
    <nd ref="247085113"/>
    <tag k="highway" v="residential"/>
    <tag k="name" v="George Street"/>
  </way>
  <way id="51143454" version="1" timestamp="2010-02-24T13:24:12Z" uid="7617" user="Franc" changeset="3962832">
    <nd ref="652511245"/>
    <nd ref="577292400"/>
    <nd ref="577292406"/>
    <nd ref="577292411"/>
    <nd ref="577292405"/>
    <nd ref="577292408"/>
    <nd ref="577292402"/>
    <nd ref="577292403"/>
    <nd ref="577292466"/>
    <nd ref="577292467"/>
    <nd ref="577292446"/>
    <tag k="highway" v="primary"/>
    <tag k="maxspeed" v="60"/>
    <tag k="name" v="Oxford Street"/>
    <tag k="oneway" v="yes"/>
    <tag k="restriction" v="school_zone"/>
    <tag k="source" v="nearmap"/>
  </way>
  <way id="51143455" version="1" timestamp="2010-02-24T13:24:12Z" uid="7617" user="Franc" changeset="3962832">
    <nd ref="577292445"/>
    <nd ref="652511248"/>
    <nd ref="577292465"/>
    <nd ref="577292401"/>
    <nd ref="577292412"/>
    <nd ref="577292409"/>
    <nd ref="577292410"/>
    <nd ref="577292407"/>
    <nd ref="577292404"/>
    <nd ref="652511244"/>
    <tag k="highway" v="primary"/>
    <tag k="maxspeed" v="60"/>
    <tag k="name" v="Oxford Street"/>
    <tag k="oneway" v="yes"/>
    <tag k="restriction" v="school_zone"/>
    <tag k="source" v="nearmap"/>
  </way>
  <way id="51143456" version="1" timestamp="2010-02-24T13:24:13Z" uid="7617" user="Franc" changeset="3962832">
    <nd ref="652511240"/>
    <nd ref="26374669"/>
    <nd ref="26374670"/>
    <nd ref="247084818"/>
    <nd ref="247082738"/>
    <nd ref="247083005"/>
    <nd ref="247082739"/>
    <nd ref="247082893"/>
    <nd ref="617918509"/>
    <tag k="highway" v="tertiary"/>
    <tag k="name" v="Jersey Road"/>
  </way>
  <way id="51143456" version="2" timestamp="2010-02-24T14:07:17Z" uid="7617" user="Franc" changeset="3963169">
    <nd ref="652511240"/>
    <nd ref="26374669"/>
    <nd ref="652565655"/>
    <nd ref="26374670"/>
    <nd ref="652565662"/>
    <nd ref="247084818"/>
    <nd ref="652565663"/>
    <nd ref="247083005"/>
    <nd ref="247082739"/>
    <nd ref="247082893"/>
    <nd ref="652565674"/>
    <nd ref="617918509"/>
    <tag k="highway" v="tertiary"/>
    <tag k="name" v="Jersey Road"/>
  </way>
  <way id="51143456" version="3" timestamp="2010-03-25T09:48:29Z" uid="20949" user="Ebenezer" changeset="4227796">
    <nd ref="652511240"/>
    <nd ref="26374669"/>
    <nd ref="652565655"/>
    <nd ref="26374670"/>
    <nd ref="652565662"/>
    <tag k="highway" v="tertiary"/>
    <tag k="name" v="Jersey Road"/>
  </way>
  <way id="51143456" version="4" timestamp="2010-06-19T22:49:31Z" uid="20949" user="Ebenezer" changeset="5028591">
    <nd ref="652511240"/>
    <nd ref="777401056"/>
    <nd ref="26374669"/>
    <nd ref="652565655"/>
    <nd ref="26374670"/>
    <nd ref="652565662"/>
    <tag k="highway" v="tertiary"/>
    <tag k="name" v="Jersey Road"/>
  </way>
  <way id="51143457" version="1" timestamp="2010-02-24T13:24:13Z" uid="7617" user="Franc" changeset="3962832">
    <nd ref="652511221"/>
    <nd ref="303744764"/>
    <nd ref="30596796"/>
    <nd ref="30596797"/>
    <tag k="highway" v="residential"/>
    <tag k="name" v="Stewart Street"/>
  </way>
  <way id="51143457" version="2" timestamp="2010-07-07T21:54:49Z" uid="74617" user="JohnSmith" changeset="5161069">
    <nd ref="652511221"/>
    <nd ref="303744764"/>
    <nd ref="30596796"/>
    <nd ref="30596797"/>
    <tag k="highway" v="residential"/>
    <tag k="maxspeed" v="50"/>
    <tag k="maxspeed:source" v="default residential speed limit in Australia"/>
    <tag k="name" v="Stewart Street"/>
  </way>
  <way id="51143457" version="3" timestamp="2012-01-20T02:40:43Z" uid="147510" user="woodpeck_fixbot" changeset="10442677">
    <nd ref="652511221"/>
    <nd ref="303744764"/>
    <nd ref="30596796"/>
    <nd ref="30596797"/>
    <tag k="highway" v="residential"/>
    <tag k="name" v="Stewart Street"/>
  </way>
  <way id="51143458" version="1" timestamp="2010-02-24T13:24:13Z" uid="7617" user="Franc" changeset="3962832">
    <nd ref="652511215"/>
    <nd ref="303744766"/>
    <nd ref="303883000"/>
    <nd ref="303744740"/>
    <nd ref="26374648"/>
    <nd ref="303744745"/>
    <nd ref="339299534"/>
    <nd ref="26374647"/>
    <nd ref="652511219"/>
    <tag k="bicycle" v="yes"/>
    <tag k="highway" v="residential"/>
    <tag k="lcn" v="yes"/>
    <tag k="name" v="Gordon Street"/>
    <tag k="restriction" v="school_zone"/>
    <tag k="source" v="survey"/>
  </way>
  <way id="51143458" version="2" timestamp="2010-07-07T21:48:19Z" uid="74617" user="JohnSmith" changeset="5161069">
    <nd ref="652511215"/>
    <nd ref="303744766"/>
    <nd ref="303883000"/>
    <nd ref="303744740"/>
    <nd ref="26374648"/>
    <nd ref="303744745"/>
    <nd ref="339299534"/>
    <nd ref="26374647"/>
    <nd ref="652511219"/>
    <tag k="bicycle" v="yes"/>
    <tag k="highway" v="residential"/>
    <tag k="lcn" v="yes"/>
    <tag k="maxspeed" v="50"/>
    <tag k="maxspeed:source" v="default residential speed limit in Australia"/>
    <tag k="name" v="Gordon Street"/>
    <tag k="restriction" v="school_zone"/>
    <tag k="source" v="survey"/>
  </way>
  <way id="51143458" version="3" timestamp="2012-01-20T02:40:44Z" uid="147510" user="woodpeck_fixbot" changeset="10442677">
    <nd ref="652511215"/>
    <nd ref="303744766"/>
    <nd ref="303883000"/>
    <nd ref="303744740"/>
    <nd ref="26374648"/>
    <nd ref="303744745"/>
    <nd ref="339299534"/>
    <nd ref="26374647"/>
    <nd ref="652511219"/>
    <tag k="bicycle" v="yes"/>
    <tag k="highway" v="residential"/>
    <tag k="lcn" v="yes"/>
    <tag k="name" v="Gordon Street"/>
    <tag k="restriction" v="school_zone"/>
    <tag k="source" v="survey"/>
  </way>
  <way id="51143459" version="1" timestamp="2010-02-24T13:24:13Z" uid="7617" user="Franc" changeset="3962832">
    <nd ref="652511219"/>
    <nd ref="303744751"/>
    <nd ref="303869778"/>
    <nd ref="443196798"/>
    <tag k="bicycle" v="yes"/>
    <tag k="highway" v="residential"/>
    <tag k="lcn" v="yes"/>
    <tag k="name" v="Gordon Street"/>
    <tag k="source" v="survey"/>
  </way>
  <way id="51143459" version="2" timestamp="2010-07-07T21:52:45Z" uid="74617" user="JohnSmith" changeset="5161069">
    <nd ref="652511219"/>
    <nd ref="303744751"/>
    <nd ref="303869778"/>
    <nd ref="443196798"/>
    <tag k="bicycle" v="yes"/>
    <tag k="highway" v="residential"/>
    <tag k="lcn" v="yes"/>
    <tag k="maxspeed" v="50"/>
    <tag k="maxspeed:source" v="default residential speed limit in Australia"/>
    <tag k="name" v="Gordon Street"/>
    <tag k="source" v="survey"/>
  </way>
  <way id="51143459" version="3" timestamp="2012-01-20T02:40:46Z" uid="147510" user="woodpeck_fixbot" changeset="10442677">
    <nd ref="652511219"/>
    <nd ref="303744751"/>
    <nd ref="303869778"/>
    <nd ref="443196798"/>
    <tag k="bicycle" v="yes"/>
    <tag k="highway" v="residential"/>
    <tag k="lcn" v="yes"/>
    <tag k="name" v="Gordon Street"/>
    <tag k="source" v="survey"/>
  </way>
  <way id="51143460" version="1" timestamp="2010-02-24T13:24:13Z" uid="7617" user="Franc" changeset="3962832">
    <nd ref="652511240"/>
    <nd ref="652511241"/>
    <nd ref="652511242"/>
    <tag k="highway" v="service"/>
    <tag k="source" v="nearmap"/>
  </way>
  <way id="51143460" version="2" timestamp="2010-07-23T04:05:01Z" uid="299678" user="peteramjet" changeset="5292386">
    <nd ref="652511240"/>
    <nd ref="652511241"/>
    <nd ref="652511242"/>
    <tag k="highway" v="service"/>
    <tag k="name" v="Tivoli Street"/>
    <tag k="source" v="nearmap"/>
  </way>
  <way id="51143461" version="1" timestamp="2010-02-24T13:24:13Z" uid="7617" user="Franc" changeset="3962832">
    <nd ref="652511244"/>
    <nd ref="577292434"/>
    <nd ref="577292438"/>
    <tag k="highway" v="primary"/>
    <tag k="maxspeed" v="60"/>
    <tag k="name" v="Oxford Street"/>
    <tag k="oneway" v="yes"/>
    <tag k="source" v="nearmap"/>
  </way>
  <way id="51143462" version="1" timestamp="2010-02-24T13:24:14Z" uid="7617" user="Franc" changeset="3962832">
    <nd ref="652511247"/>
    <nd ref="30596816"/>
    <nd ref="652511252"/>
    <nd ref="652511254"/>
    <nd ref="30670151"/>
    <nd ref="335331314"/>
    <nd ref="617918508"/>
    <tag k="highway" v="residential"/>
    <tag k="name" v="Elizabeth Street"/>
  </way>
  <way id="51143462" version="2" timestamp="2010-07-07T21:50:38Z" uid="74617" user="JohnSmith" changeset="5161069">
    <nd ref="652511247"/>
    <nd ref="30596816"/>
    <nd ref="652511252"/>
    <nd ref="652511254"/>
    <nd ref="30670151"/>
    <nd ref="335331314"/>
    <nd ref="617918508"/>
    <tag k="highway" v="residential"/>
    <tag k="maxspeed" v="50"/>
    <tag k="maxspeed:source" v="default residential speed limit in Australia"/>
    <tag k="name" v="Elizabeth Street"/>
  </way>
  <way id="51143462" version="3" timestamp="2010-10-23T12:11:24Z" uid="7617" user="Franc" changeset="6144458">
    <nd ref="652511247"/>
    <nd ref="30596816"/>
    <nd ref="652511252"/>
    <nd ref="652511254"/>
    <nd ref="30670151"/>
    <nd ref="961424435"/>
    <nd ref="335331314"/>
    <nd ref="961424042"/>
    <nd ref="617918508"/>
    <tag k="highway" v="residential"/>
    <tag k="maxspeed" v="50"/>
    <tag k="maxspeed:source" v="default residential speed limit in Australia"/>
    <tag k="name" v="Elizabeth Street"/>
  </way>
  <way id="51143462" version="4" timestamp="2010-10-31T04:37:45Z" uid="7617" user="Franc" changeset="6234980">
    <nd ref="652511247"/>
    <nd ref="30596816"/>
    <nd ref="652511252"/>
    <nd ref="652511254"/>
    <nd ref="30670151"/>
    <tag k="highway" v="residential"/>
    <tag k="maxspeed" v="50"/>
    <tag k="maxspeed:source" v="default residential speed limit in Australia"/>
    <tag k="name" v="Elizabeth Street"/>
  </way>
  <way id="51143462" version="5" timestamp="2012-01-20T02:40:48Z" uid="147510" user="woodpeck_fixbot" changeset="10442677">
    <nd ref="652511247"/>
    <nd ref="30596816"/>
    <nd ref="652511252"/>
    <nd ref="652511254"/>
    <nd ref="30670151"/>
    <tag k="highway" v="residential"/>
    <tag k="name" v="Elizabeth Street"/>
  </way>
  <way id="51143463" version="1" timestamp="2010-02-24T13:24:14Z" uid="7617" user="Franc" changeset="3962832">
    <nd ref="652511249"/>
    <nd ref="652511250"/>
    <nd ref="652511251"/>
    <nd ref="652511254"/>
    <tag k="highway" v="service"/>
    <tag k="source" v="nearmap"/>
  </way>
  <way id="51143464" version="1" timestamp="2010-02-24T13:24:14Z" uid="7617" user="Franc" changeset="3962832">
    <nd ref="652511252"/>
    <nd ref="652511256"/>
    <nd ref="652511258"/>
    <nd ref="652511254"/>
    <tag k="highway" v="service"/>
    <tag k="source" v="nearmap"/>
  </way>
  <way id="51143639" version="3" timestamp="2011-01-12T14:20:18Z" uid="115477" user="wowik" changeset="6947600">
    <nd ref="652525513"/>
    <nd ref="652525516"/>
    <nd ref="652525519"/>
    <nd ref="652525523"/>
    <nd ref="652525513"/>
    <tag k="addr:city" v="Зеленоград"/>
    <tag k="addr:housenumber" v="1с5"/>
    <tag k="addr:street" v="Солнечная аллея"/>
    <tag k="building" v="yes"/>
    <tag k="is_in" v="Russia"/>
    <tag k="name" v="МКС"/>
  </way>
  <way id="51143639" version="4" timestamp="2011-01-19T16:35:40Z" uid="70696" user="xybot" changeset="7021015">
    <nd ref="652525513"/>
    <nd ref="652525516"/>
    <nd ref="652525519"/>
    <nd ref="652525523"/>
    <nd ref="652525513"/>
    <tag k="addr:city" v="Зеленоград"/>
    <tag k="addr:housenumber" v="1 с5"/>
    <tag k="addr:street" v="Солнечная аллея"/>
    <tag k="building" v="yes"/>
    <tag k="is_in" v="Russia"/>
    <tag k="name" v="МКС"/>
  </way>
  <way id="51143639" version="5" timestamp="2011-09-13T10:30:39Z" uid="29320" user="Komяpa" changeset="9288237">
    <nd ref="652525513"/>
    <nd ref="652525516"/>
    <nd ref="652525519"/>
    <nd ref="652525523"/>
    <nd ref="652525513"/>
    <tag k="addr:city" v="Зеленоград"/>
    <tag k="addr:country" v="RU"/>
    <tag k="addr:housenumber" v="1 с5"/>
    <tag k="addr:street" v="Солнечная аллея"/>
    <tag k="building" v="yes"/>
    <tag k="name" v="МКС"/>
  </way>
  <way id="51143639" version="6" timestamp="2012-03-27T11:47:27Z" uid="481934" user="iWowik" changeset="11115472">
    <nd ref="652525513"/>
    <nd ref="652525516"/>
    <nd ref="652525519"/>
    <nd ref="652525523"/>
    <nd ref="652525513"/>
    <tag k="addr:city" v="Зеленоград"/>
    <tag k="addr:country" v="RU"/>
    <tag k="addr:housenumber" v="1 с5"/>
    <tag k="addr:region" v="Москва"/>
    <tag k="addr:street" v="Солнечная аллея"/>
    <tag k="building" v="yes"/>
    <tag k="name" v="МКС"/>
  </way>
  <way id="51143664" version="6" timestamp="2011-01-27T19:26:43Z" uid="115477" user="wowik" changeset="7106689">
    <nd ref="652528252"/>
    <nd ref="910393067"/>
    <nd ref="652528231"/>
    <nd ref="652528233"/>
    <nd ref="793137766"/>
    <nd ref="652528236"/>
    <nd ref="652528242"/>
    <nd ref="652528245"/>
    <nd ref="652528251"/>
    <nd ref="652528252"/>
    <tag k="barrier" v="wall"/>
    <tag k="landuse" v="industrial"/>
    <tag k="source" v="Wikimapia"/>
  </way>
  <way id="51143744" version="2" timestamp="2011-01-12T14:20:11Z" uid="115477" user="wowik" changeset="6947600">
    <nd ref="652533954"/>
    <nd ref="652533959"/>
    <nd ref="652533963"/>
    <nd ref="652533965"/>
    <nd ref="652533954"/>
    <tag k="addr:city" v="Зеленоград"/>
    <tag k="addr:housenumber" v="1с3"/>
    <tag k="addr:street" v="Солнечная аллея"/>
    <tag k="building" v="yes"/>
    <tag k="is_in" v="Russia"/>
  </way>
  <way id="51143744" version="3" timestamp="2011-01-19T16:35:41Z" uid="70696" user="xybot" changeset="7021015">
    <nd ref="652533954"/>
    <nd ref="652533959"/>
    <nd ref="652533963"/>
    <nd ref="652533965"/>
    <nd ref="652533954"/>
    <tag k="addr:city" v="Зеленоград"/>
    <tag k="addr:housenumber" v="1 с3"/>
    <tag k="addr:street" v="Солнечная аллея"/>
    <tag k="building" v="yes"/>
    <tag k="is_in" v="Russia"/>
  </way>
  <way id="51143744" version="4" timestamp="2011-09-13T10:20:45Z" uid="29320" user="Komяpa" changeset="9288237">
    <nd ref="652533954"/>
    <nd ref="652533959"/>
    <nd ref="652533963"/>
    <nd ref="652533965"/>
    <nd ref="652533954"/>
    <tag k="addr:city" v="Зеленоград"/>
    <tag k="addr:country" v="RU"/>
    <tag k="addr:housenumber" v="1 с3"/>
    <tag k="addr:street" v="Солнечная аллея"/>
    <tag k="building" v="yes"/>
  </way>
  <way id="51143744" version="5" timestamp="2012-03-27T11:33:06Z" uid="481934" user="iWowik" changeset="11115472">
    <nd ref="652533954"/>
    <nd ref="652533959"/>
    <nd ref="652533963"/>
    <nd ref="652533965"/>
    <nd ref="652533954"/>
    <tag k="addr:city" v="Зеленоград"/>
    <tag k="addr:country" v="RU"/>
    <tag k="addr:housenumber" v="1 с3"/>
    <tag k="addr:region" v="Москва"/>
    <tag k="addr:street" v="Солнечная аллея"/>
    <tag k="building" v="yes"/>
  </way>
  <way id="51143745" version="2" timestamp="2011-01-12T14:20:29Z" uid="115477" user="wowik" changeset="6947600">
    <nd ref="652533971"/>
    <nd ref="652533973"/>
    <nd ref="652533976"/>
    <nd ref="652533981"/>
    <nd ref="652533971"/>
    <tag k="addr:city" v="Зеленоград"/>
    <tag k="addr:housenumber" v="1с1"/>
    <tag k="addr:street" v="Солнечная аллея"/>
    <tag k="building" v="yes"/>
    <tag k="is_in" v="Russia"/>
  </way>
  <way id="51143745" version="3" timestamp="2011-01-19T16:35:43Z" uid="70696" user="xybot" changeset="7021015">
    <nd ref="652533971"/>
    <nd ref="652533973"/>
    <nd ref="652533976"/>
    <nd ref="652533981"/>
    <nd ref="652533971"/>
    <tag k="addr:city" v="Зеленоград"/>
    <tag k="addr:housenumber" v="1 с1"/>
    <tag k="addr:street" v="Солнечная аллея"/>
    <tag k="building" v="yes"/>
    <tag k="is_in" v="Russia"/>
  </way>
  <way id="51143745" version="4" timestamp="2011-09-13T10:20:36Z" uid="29320" user="Komяpa" changeset="9288237">
    <nd ref="652533971"/>
    <nd ref="652533973"/>
    <nd ref="652533976"/>
    <nd ref="652533981"/>
    <nd ref="652533971"/>
    <tag k="addr:city" v="Зеленоград"/>
    <tag k="addr:country" v="RU"/>
    <tag k="addr:housenumber" v="1 с1"/>
    <tag k="addr:street" v="Солнечная аллея"/>
    <tag k="building" v="yes"/>
  </way>
  <way id="51143745" version="5" timestamp="2012-03-27T11:32:47Z" uid="481934" user="iWowik" changeset="11115472">
    <nd ref="652533971"/>
    <nd ref="652533973"/>
    <nd ref="652533976"/>
    <nd ref="652533981"/>
    <nd ref="652533971"/>
    <tag k="addr:city" v="Зеленоград"/>
    <tag k="addr:country" v="RU"/>
    <tag k="addr:housenumber" v="1 с1"/>
    <tag k="addr:region" v="Москва"/>
    <tag k="addr:street" v="Солнечная аллея"/>
    <tag k="building" v="yes"/>
  </way>
  <way id="51143988" version="3" timestamp="2011-01-18T12:21:26Z" uid="115477" user="wowik" changeset="7009789">
    <nd ref="652542176"/>
    <nd ref="652542182"/>
    <nd ref="652542188"/>
    <nd ref="652542193"/>
    <nd ref="652542197"/>
    <nd ref="1108919835"/>
    <nd ref="652542176"/>
    <tag k="addr:city" v="Зеленоград"/>
    <tag k="addr:housenumber" v="819"/>
    <tag k="addr:street" v="8-й Микрорайон"/>
    <tag k="amenity" v="kindergarten"/>
    <tag k="barrier" v="fence"/>
    <tag k="name" v="Детский сад №1264"/>
  </way>
  <way id="51143988" version="4" timestamp="2011-06-07T20:44:05Z" uid="133332" user="AMDmi3" changeset="8374030">
    <nd ref="652542176"/>
    <nd ref="652542182"/>
    <nd ref="652542188"/>
    <nd ref="652542193"/>
    <nd ref="652542197"/>
    <nd ref="1108919835"/>
    <nd ref="652542176"/>
    <tag k="addr:city" v="Зеленоград"/>
    <tag k="addr:housenumber" v="819"/>
    <tag k="addr:street" v="8-й микрорайон"/>
    <tag k="amenity" v="kindergarten"/>
    <tag k="barrier" v="fence"/>
    <tag k="name" v="Детский сад №1264"/>
  </way>
  <way id="51143988" version="5" timestamp="2012-03-27T11:32:11Z" uid="481934" user="iWowik" changeset="11115472">
    <nd ref="652542176"/>
    <nd ref="652542182"/>
    <nd ref="652542188"/>
    <nd ref="652542193"/>
    <nd ref="652542197"/>
    <nd ref="1108919835"/>
    <nd ref="652542176"/>
    <tag k="addr:city" v="Зеленоград"/>
    <tag k="addr:country" v="RU"/>
    <tag k="addr:housenumber" v="819"/>
    <tag k="addr:region" v="Москва"/>
    <tag k="addr:street" v="8-й микрорайон"/>
    <tag k="amenity" v="kindergarten"/>
    <tag k="barrier" v="fence"/>
    <tag k="name" v="Детский сад №1264"/>
  </way>
  <way id="51143184" version="3" timestamp="2012-07-20T01:05:40Z" uid="722137" user="OSMF Redaction Account" changeset="12354252"/>
  <way id="51143185" version="4" timestamp="2012-07-20T01:05:39Z" uid="722137" user="OSMF Redaction Account" changeset="12354252"/>
  <way id="51143187" version="5" timestamp="2012-07-20T01:05:43Z" uid="722137" user="OSMF Redaction Account" changeset="12354252"/>
  <way id="51143188" version="5" timestamp="2012-07-20T01:05:36Z" uid="722137" user="OSMF Redaction Account" changeset="12354222"/>
  <way id="51143189" version="4" timestamp="2012-07-14T08:50:57Z" uid="713671" user="auspod" changeset="12215182">
    <nd ref="574178259"/>
    <nd ref="652497294"/>
    <nd ref="574178273"/>
    <nd ref="26410552"/>
    <nd ref="652497296"/>
    <nd ref="26410555"/>
    <nd ref="247087882"/>
    <nd ref="1825135294"/>
    <tag k="highway" v="residential"/>
    <tag k="name" v="Gurner Street"/>
    <tag k="restriction" v="school_zone"/>
  </way>
  <way id="51143189" version="5" timestamp="2012-07-20T01:05:38Z" uid="722137" user="OSMF Redaction Account" changeset="12354252"/>
  <way id="51143190" version="4" timestamp="2012-07-20T01:05:35Z" uid="722137" user="OSMF Redaction Account" changeset="12354222"/>
  <way id="51143191" version="4" timestamp="2012-07-14T08:50:58Z" uid="713671" user="auspod" changeset="12215182">
    <nd ref="652497305"/>
    <nd ref="574178283"/>
    <nd ref="1825135294"/>
    <tag k="highway" v="residential"/>
    <tag k="name" v="Gurner Street"/>
    <tag k="oneway" v="yes"/>
    <tag k="restriction" v="school_zone"/>
    <tag k="source" v="survey"/>
  </way>
  <way id="51143191" version="5" timestamp="2012-07-20T01:05:35Z" uid="722137" user="OSMF Redaction Account" changeset="12354222"/>
  <way id="51143192" version="3" timestamp="2012-07-14T08:50:58Z" uid="713671" user="auspod" changeset="12215182">
    <nd ref="1825135365"/>
    <nd ref="1825135230"/>
    <tag k="highway" v="service"/>
    <tag k="name" v="Elizabeth Lane"/>
    <tag k="source" v="nearmap"/>
    <tag k="source:name" v="survey"/>
  </way>
  <way id="51143192" version="4" timestamp="2012-07-20T00:59:07Z" uid="722137" user="OSMF Redaction Account" changeset="12353872">
    <nd ref="1825135365"/>
    <nd ref="1825135230"/>
  </way>
  <way id="51143192" version="5" timestamp="2012-07-23T19:30:28Z" uid="462898" user="Alexander Wilms" changeset="12455582">
    <nd ref="1825135365"/>
    <nd ref="1825135230"/>
    <tag k="highway" v="residential"/>
  </way>
  <way id="51143193" version="5" timestamp="2012-07-20T01:05:50Z" uid="722137" user="OSMF Redaction Account" changeset="12354252"/>
  <way id="51143194" version="4" timestamp="2012-07-20T01:05:44Z" uid="722137" user="OSMF Redaction Account" changeset="12354252"/>
  <way id="51143195" version="4" timestamp="2012-07-20T01:05:47Z" uid="722137" user="OSMF Redaction Account" changeset="12354252"/>
  <way id="51143196" version="4" timestamp="2012-07-20T01:05:48Z" uid="722137" user="OSMF Redaction Account" changeset="12354252"/>
  <way id="51143197" version="3" timestamp="2012-07-20T01:05:44Z" uid="722137" user="OSMF Redaction Account" changeset="12354252"/>
  <way id="51143199" version="3" timestamp="2012-07-20T01:05:43Z" uid="722137" user="OSMF Redaction Account" changeset="12354252"/>
  <way id="51143200" version="3" timestamp="2012-07-20T01:05:55Z" uid="722137" user="OSMF Redaction Account" changeset="12354252"/>
  <way id="51143202" version="3" timestamp="2012-07-20T01:05:53Z" uid="722137" user="OSMF Redaction Account" changeset="12354252"/>
  <way id="51143203" version="5" timestamp="2012-07-18T16:14:36Z" uid="713671" user="auspod" changeset="12286812">
    <nd ref="652497403"/>
    <nd ref="1829857104"/>
    <nd ref="13887048"/>
    <nd ref="307626554"/>
    <nd ref="13887047"/>
    <nd ref="13887052"/>
    <nd ref="962219076"/>
    <nd ref="13887053"/>
    <nd ref="13887054"/>
    <nd ref="13887055"/>
    <nd ref="13887056"/>
    <nd ref="962218846"/>
    <nd ref="13887058"/>
    <tag k="highway" v="residential"/>
    <tag k="name" v="Waratah Street"/>
    <tag k="oneway" v="yes"/>
  </way>
  <way id="51143203" version="6" timestamp="2012-07-19T21:34:17Z" uid="722137" user="OSMF Redaction Account" changeset="12348390">
    <nd ref="652497403"/>
    <nd ref="1829857104"/>
    <nd ref="13887048"/>
    <nd ref="307626554"/>
    <nd ref="13887047"/>
    <nd ref="13887052"/>
    <nd ref="13887053"/>
    <nd ref="13887054"/>
    <nd ref="13887055"/>
    <nd ref="13887056"/>
    <nd ref="13887058"/>
    <tag k="highway" v="residential"/>
    <tag k="name" v="Waratah Street"/>
    <tag k="oneway" v="yes"/>
  </way>
  <way id="51143203" version="7" timestamp="2012-07-20T01:06:03Z" uid="722137" user="OSMF Redaction Account" changeset="12354252"/>
  <way id="51143204" version="4" timestamp="2012-07-19T21:40:47Z" uid="722137" user="OSMF Redaction Account" changeset="12348758"/>
  <way id="51143205" version="2" timestamp="2012-06-23T06:24:46Z" uid="7523" user="inas" changeset="11985647"/>
  <way id="51143208" version="7" timestamp="2012-06-14T11:58:28Z" uid="328538" user="o&apos;cholio" changeset="11894380">
    <nd ref="652504516"/>
    <nd ref="652505257"/>
    <nd ref="652505261"/>
    <nd ref="391362947"/>
    <nd ref="1787199026"/>
    <nd ref="1787199083"/>
    <tag k="highway" v="residential"/>
    <tag k="name" v="Brinkworth Street"/>
  </way>
  <way id="51143214" version="5" timestamp="2012-09-09T22:21:27Z" uid="418724" user="wintersportler" changeset="13050842">
    <nd ref="534085191"/>
    <nd ref="1907651737"/>
    <nd ref="1907651733"/>
    <nd ref="1907651639"/>
    <nd ref="1907651637"/>
    <nd ref="391363241"/>
    <tag k="highway" v="residential"/>
    <tag k="name" v="Victoria Street"/>
  </way>
  <way id="51143253" version="5" timestamp="2012-04-17T19:07:09Z" uid="485792" user="rhn_odbl" changeset="11336630">
    <nd ref="659666380"/>
    <nd ref="659666501"/>
    <tag k="highway" v="residential"/>
    <tag k="name" v="Księdza Ignacego Skorupki"/>
    <tag k="odbl" v="clean"/>
    <tag k="surface" v="paved"/>
  </way>
  <way id="51143257" version="5" timestamp="2012-04-17T19:06:49Z" uid="485792" user="rhn_odbl" changeset="11336630">
    <nd ref="659666364"/>
    <nd ref="652500008"/>
    <tag k="highway" v="residential"/>
    <tag k="name" v="Adama Mickiewicza"/>
    <tag k="odbl" v="clean"/>
    <tag k="source" v="GPS-traces from OSM"/>
  </way>
  <way id="51143259" version="3" timestamp="2012-07-24T12:05:51Z" uid="722137" user="OSMF Redaction Account" changeset="12464937"/>
  <way id="51143260" version="3" timestamp="2012-07-24T12:05:51Z" uid="722137" user="OSMF Redaction Account" changeset="12464937"/>
  <way id="51143276" version="4" timestamp="2012-07-24T12:05:52Z" uid="722137" user="OSMF Redaction Account" changeset="12464937"/>
  <way id="51143279" version="5" timestamp="2012-07-24T12:05:51Z" uid="722137" user="OSMF Redaction Account" changeset="12464937"/>
  <way id="51143280" version="5" timestamp="2012-07-24T12:05:51Z" uid="722137" user="OSMF Redaction Account" changeset="12464937"/>
  <way id="51143283" version="5" timestamp="2012-04-17T19:07:09Z" uid="485792" user="rhn_odbl" changeset="11336630">
    <nd ref="659666379"/>
    <nd ref="659666375"/>
    <nd ref="652500046"/>
    <nd ref="659666380"/>
    <tag k="highway" v="residential"/>
    <tag k="lanes" v="2"/>
    <tag k="name" v="Księdza Ignacego Skorupki"/>
    <tag k="odbl" v="clean"/>
    <tag k="oneway" v="yes"/>
  </way>
  <way id="51143289" version="3" timestamp="2012-07-24T12:05:51Z" uid="722137" user="OSMF Redaction Account" changeset="12464937"/>
  <way id="51143291" version="4" timestamp="2012-04-17T19:07:03Z" uid="485792" user="rhn_odbl" changeset="11336630">
    <nd ref="59940641"/>
    <nd ref="652500247"/>
    <nd ref="652500250"/>
    <nd ref="652500311"/>
    <nd ref="652500317"/>
    <nd ref="652500320"/>
    <nd ref="652500304"/>
    <tag k="highway" v="residential"/>
    <tag k="name" v="Józefa Wybickiego"/>
    <tag k="odbl" v="clean"/>
    <tag k="surface" v="paved"/>
  </way>
  <way id="51143295" version="3" timestamp="2012-07-24T12:05:52Z" uid="722137" user="OSMF Redaction Account" changeset="12464937"/>
  <way id="51143301" version="3" timestamp="2012-07-24T12:05:50Z" uid="722137" user="OSMF Redaction Account" changeset="12464937"/>
  <way id="51143303" version="3" timestamp="2012-07-24T12:05:50Z" uid="722137" user="OSMF Redaction Account" changeset="12464937"/>
  <way id="51143304" version="6" timestamp="2012-06-14T11:58:49Z" uid="328538" user="o&apos;cholio" changeset="11894380">
    <nd ref="652500855"/>
    <nd ref="652500857"/>
    <nd ref="1787199115"/>
    <tag k="highway" v="residential"/>
    <tag k="name" v="Scott Street"/>
  </way>
  <way id="51143304" version="7" timestamp="2012-09-10T23:26:03Z" uid="418724" user="wintersportler" changeset="13063663"/>
  <way id="51143325" version="13" timestamp="2012-07-19T22:50:35Z" uid="722137" user="OSMF Redaction Account" changeset="12351002">
    <nd ref="652504492"/>
    <nd ref="652498931"/>
    <nd ref="652497926"/>
    <nd ref="652504496"/>
    <nd ref="652504505"/>
    <nd ref="652504508"/>
    <nd ref="652504512"/>
    <nd ref="652504516"/>
    <nd ref="652504521"/>
    <nd ref="652504526"/>
    <nd ref="652504532"/>
    <nd ref="652504537"/>
    <nd ref="652505751"/>
    <nd ref="652504540"/>
    <nd ref="652505280"/>
    <nd ref="450479156"/>
    <nd ref="652500855"/>
    <nd ref="1394769608"/>
    <nd ref="652502233"/>
    <tag k="highway" v="residential"/>
    <tag k="name" v="Pleasant Avenue"/>
    <tag k="source:maxspeed" v="default residential speed limit in Australia"/>
  </way>
  <way id="51143325" version="14" timestamp="2012-07-20T11:05:56Z" uid="722137" user="OSMF Redaction Account" changeset="12372240">
    <nd ref="652504492"/>
    <nd ref="652498931"/>
    <nd ref="652497926"/>
    <nd ref="652504496"/>
    <nd ref="652504505"/>
    <nd ref="652504508"/>
    <nd ref="652504512"/>
    <nd ref="652504516"/>
    <nd ref="652504521"/>
    <nd ref="652504526"/>
    <nd ref="652504532"/>
    <nd ref="652504537"/>
    <nd ref="652505751"/>
    <nd ref="652504540"/>
    <nd ref="652505280"/>
    <nd ref="450479156"/>
    <nd ref="652500855"/>
    <nd ref="1394769608"/>
    <nd ref="652502233"/>
    <tag k="highway" v="residential"/>
    <tag k="name" v="Pleasant Avenue"/>
  </way>
  <way id="51143325" version="15" timestamp="2012-09-09T22:21:10Z" uid="418724" user="wintersportler" changeset="13050842">
    <nd ref="652504492"/>
    <nd ref="1907651739"/>
    <nd ref="652498931"/>
    <nd ref="652497926"/>
    <nd ref="652504496"/>
    <nd ref="652504505"/>
    <nd ref="652504508"/>
    <nd ref="652504512"/>
    <nd ref="652504516"/>
    <nd ref="652504521"/>
    <nd ref="652504526"/>
    <nd ref="652504532"/>
    <nd ref="652504537"/>
    <nd ref="652505751"/>
    <nd ref="652504540"/>
    <nd ref="652505280"/>
    <nd ref="450479156"/>
    <nd ref="652500855"/>
    <nd ref="1394769608"/>
    <nd ref="652502233"/>
    <tag k="highway" v="residential"/>
    <tag k="name" v="Pleasant Avenue"/>
  </way>
  <way id="51143373" version="5" timestamp="2012-06-14T11:58:48Z" uid="328538" user="o&apos;cholio" changeset="11894380">
    <nd ref="652505280"/>
    <nd ref="1787199079"/>
    <nd ref="1787199112"/>
    <tag k="highway" v="residential"/>
    <tag k="name" v="Ray Street"/>
  </way>
  <way id="51143373" version="6" timestamp="2012-09-10T23:24:24Z" uid="418724" user="wintersportler" changeset="13063663">
    <nd ref="652505280"/>
    <nd ref="1787199112"/>
    <tag k="highway" v="residential"/>
    <tag k="name" v="Ray Street"/>
  </way>
  <way id="51143374" version="6" timestamp="2012-06-14T11:58:46Z" uid="328538" user="o&apos;cholio" changeset="11894380">
    <nd ref="652505751"/>
    <nd ref="1787199051"/>
    <tag k="highway" v="residential"/>
    <tag k="name" v="New Street"/>
  </way>
  <way id="51143374" version="7" timestamp="2012-09-10T23:26:02Z" uid="418724" user="wintersportler" changeset="13063663"/>
  <way id="51143451" version="5" timestamp="2012-07-20T01:05:18Z" uid="722137" user="OSMF Redaction Account" changeset="12354222"/>
  <way id="51143452" version="3" timestamp="2012-07-20T01:05:09Z" uid="722137" user="OSMF Redaction Account" changeset="12354222"/>
  <way id="51143453" version="4" timestamp="2012-07-20T01:05:08Z" uid="722137" user="OSMF Redaction Account" changeset="12354222"/>
  <way id="51143454" version="2" timestamp="2012-07-20T01:05:03Z" uid="722137" user="OSMF Redaction Account" changeset="12354222"/>
  <way id="51143455" version="2" timestamp="2012-07-20T01:05:18Z" uid="722137" user="OSMF Redaction Account" changeset="12354222"/>
  <way id="51143456" version="5" timestamp="2012-07-14T08:51:02Z" uid="713671" user="auspod" changeset="12215182">
    <nd ref="652511240"/>
    <nd ref="777401056"/>
    <nd ref="26374669"/>
    <nd ref="652565655"/>
    <nd ref="26374670"/>
    <nd ref="1825135251"/>
    <tag k="highway" v="tertiary"/>
    <tag k="name" v="Jersey Road"/>
  </way>
  <way id="51143456" version="6" timestamp="2012-07-20T00:54:59Z" uid="722137" user="OSMF Redaction Account" changeset="12353530">
    <nd ref="777401056"/>
    <nd ref="1825135251"/>
  </way>
  <way id="51143456" version="7" timestamp="2012-07-24T10:39:05Z" uid="92387" user="SimonPoole" changeset="12463540"/>
  <way id="51143457" version="4" timestamp="2012-07-20T01:05:06Z" uid="722137" user="OSMF Redaction Account" changeset="12354222"/>
  <way id="51143458" version="4" timestamp="2012-06-23T05:19:26Z" uid="7523" user="inas" changeset="11985352">
    <nd ref="652511215"/>
    <nd ref="303744766"/>
    <nd ref="303744740"/>
    <nd ref="26374648"/>
    <nd ref="303744745"/>
    <nd ref="339299534"/>
    <nd ref="26374647"/>
    <nd ref="652511219"/>
    <tag k="bicycle" v="yes"/>
    <tag k="highway" v="residential"/>
    <tag k="lcn" v="yes"/>
    <tag k="name" v="Gordon Street"/>
    <tag k="restriction" v="school_zone"/>
    <tag k="source" v="survey"/>
  </way>
  <way id="51143458" version="5" timestamp="2012-07-14T18:48:29Z" uid="713671" user="auspod" changeset="12220508">
    <nd ref="652511215"/>
    <nd ref="303744766"/>
    <nd ref="303744740"/>
    <nd ref="26374648"/>
    <nd ref="1825619063"/>
    <nd ref="339299534"/>
    <nd ref="26374647"/>
    <nd ref="652511219"/>
    <tag k="bicycle" v="yes"/>
    <tag k="highway" v="residential"/>
    <tag k="lcn" v="yes"/>
    <tag k="name" v="Gordon Street"/>
    <tag k="restriction" v="school_zone"/>
    <tag k="source" v="survey"/>
  </way>
  <way id="51143458" version="6" timestamp="2012-07-20T01:05:11Z" uid="722137" user="OSMF Redaction Account" changeset="12354222"/>
  <way id="51143459" version="4" timestamp="2012-07-20T01:05:00Z" uid="722137" user="OSMF Redaction Account" changeset="12354222"/>
  <way id="51143460" version="3" timestamp="2012-07-20T01:05:05Z" uid="722137" user="OSMF Redaction Account" changeset="12354222"/>
  <way id="51143461" version="2" timestamp="2012-07-20T01:05:03Z" uid="722137" user="OSMF Redaction Account" changeset="12354222"/>
  <way id="51143462" version="6" timestamp="2012-07-20T01:05:12Z" uid="722137" user="OSMF Redaction Account" changeset="12354222"/>
  <way id="51143463" version="2" timestamp="2012-07-20T01:05:12Z" uid="722137" user="OSMF Redaction Account" changeset="12354222"/>
  <way id="51143464" version="2" timestamp="2012-07-20T01:05:15Z" uid="722137" user="OSMF Redaction Account" changeset="12354222"/>
  <way id="51143639" version="7" timestamp="2012-07-20T22:16:44Z" uid="722137" user="OSMF Redaction Account" changeset="12394520"/>
  <way id="51143664" version="7" timestamp="2012-07-20T22:07:52Z" uid="722137" user="OSMF Redaction Account" changeset="12394207">
    <nd ref="910393067"/>
    <nd ref="793137766"/>
    <tag k="landuse" v="industrial"/>
    <tag k="source" v="Wikimapia"/>
  </way>
  <way id="51143664" version="8" timestamp="2012-08-04T17:22:46Z" uid="109327" user="OverQuantum" changeset="12611880">
    <nd ref="910393067"/>
    <nd ref="1851776667"/>
    <nd ref="1851776669"/>
    <nd ref="793137766"/>
    <nd ref="1851776666"/>
    <nd ref="1851776663"/>
    <nd ref="1851776664"/>
    <nd ref="1851776665"/>
    <nd ref="1851776668"/>
    <nd ref="1835553311"/>
    <nd ref="1835553310"/>
    <nd ref="910393067"/>
    <tag k="barrier" v="fence"/>
    <tag k="landuse" v="industrial"/>
    <tag k="operator" v="Мосэнерго"/>
    <tag k="power" v="station"/>
    <tag k="source" v="Wikimapia"/>
  </way>
  <way id="51143744" version="6" timestamp="2012-07-20T22:16:44Z" uid="722137" user="OSMF Redaction Account" changeset="12394520"/>
  <way id="51143745" version="6" timestamp="2012-07-20T22:16:44Z" uid="722137" user="OSMF Redaction Account" changeset="12394520"/>
  <way id="51143988" version="6" timestamp="2012-07-20T22:16:38Z" uid="722137" user="OSMF Redaction Account" changeset="12394520"/>
</osm>
