<?xml version='1.0' encoding='UTF-8'?>
<osm version="0.6" generator="libosmium/2.20.0">
  <way id="51347340" version="2" timestamp="2010-04-06T14:53:00Z" uid="20587" user="balrog-kun" changeset="4342997">
    <nd ref="122984160"/>
    <nd ref="122950695"/>
    <nd ref="122984163"/>
    <nd ref="122984165"/>
    <nd ref="122984167"/>
    <nd ref="122867473"/>
    <nd ref="122984168"/>
    <nd ref="122984170"/>
    <nd ref="122984172"/>
    <nd ref="122984175"/>
    <nd ref="122969910"/>
    <nd ref="122984177"/>
    <nd ref="122984179"/>
    <nd ref="122984181"/>
    <nd ref="122903743"/>
    <nd ref="122863094"/>
    <nd ref="122903756"/>
    <nd ref="122984183"/>
    <nd ref="122863881"/>
    <nd ref="122984185"/>
    <nd ref="122984187"/>
    <nd ref="122932627"/>
    <nd ref="122932658"/>
    <nd ref="122984189"/>
    <nd ref="122984192"/>
    <nd ref="122984194"/>
    <nd ref="122935199"/>
    <nd ref="122984196"/>
    <nd ref="122984198"/>
    <nd ref="122984200"/>
    <nd ref="122972379"/>
    <nd ref="122984202"/>
    <nd ref="122874120"/>
    <nd ref="122874015"/>
    <nd ref="122935639"/>
    <tag k="highway" v="residential"/>
    <tag k="name" v="North West Road"/>
    <tag k="tiger:cfcc" v="A41"/>
    <tag k="tiger:county" v="Sumner, KS"/>
    <tag k="tiger:name_base" v="West"/>
    <tag k="tiger:name_direction_prefix" v="N"/>
    <tag k="tiger:name_type" v="Rd"/>
    <tag k="tiger:reviewed" v="no"/>
    <tag k="tiger:separated" v="no"/>
    <tag k="tiger:source" v="tiger_import_dch_v0.6_20070812"/>
    <tag k="tiger:tlid" v="115833210:115833212:115833214:115819643:115833184:115833185:115819555:115834900:115834901:115835832:115835833:115833194:115834270:115834271"/>
  </way>
  <way id="51347343" version="3" timestamp="2010-04-06T14:53:00Z" uid="20587" user="balrog-kun" changeset="4342997">
    <nd ref="122984158"/>
    <nd ref="122984160"/>
    <tag k="bridge" v="yes"/>
    <tag k="highway" v="residential"/>
    <tag k="layer" v="1"/>
    <tag k="name" v="North West Road"/>
    <tag k="tiger:cfcc" v="A41"/>
    <tag k="tiger:county" v="Sumner, KS"/>
    <tag k="tiger:name_base" v="West"/>
    <tag k="tiger:name_direction_prefix" v="N"/>
    <tag k="tiger:name_type" v="Rd"/>
    <tag k="tiger:reviewed" v="aerial"/>
    <tag k="tiger:separated" v="no"/>
    <tag k="tiger:source" v="tiger_import_dch_v0.6_20070812"/>
    <tag k="tiger:tlid" v="115833210:115833212:115833214:115819643:115833184:115833185:115819555:115834900:115834901:115835832:115835833:115833194:115834270:115834271"/>
  </way>
  <way id="51347487" version="4" timestamp="2010-04-06T14:53:00Z" uid="20587" user="balrog-kun" changeset="4342997">
    <nd ref="122979224"/>
    <nd ref="122979226"/>
    <tag k="bridge" v="yes"/>
    <tag k="highway" v="residential"/>
    <tag k="layer" v="1"/>
    <tag k="name" v="North Ridge Road"/>
    <tag k="tiger:cfcc" v="A41"/>
    <tag k="tiger:county" v="Sumner, KS"/>
    <tag k="tiger:name_base" v="Ridge"/>
    <tag k="tiger:name_direction_prefix" v="N"/>
    <tag k="tiger:name_type" v="Rd"/>
    <tag k="tiger:reviewed" v="aerial"/>
    <tag k="tiger:separated" v="no"/>
    <tag k="tiger:source" v="tiger_import_dch_v0.6_20070812"/>
    <tag k="tiger:tlid" v="115826479:115826480"/>
  </way>
  <way id="51347493" version="2" timestamp="2010-04-06T14:53:01Z" uid="20587" user="balrog-kun" changeset="4342997">
    <nd ref="122979226"/>
    <nd ref="122929927"/>
    <nd ref="122979228"/>
    <nd ref="122979230"/>
    <nd ref="122979233"/>
    <nd ref="122872767"/>
    <nd ref="122979235"/>
    <nd ref="122979236"/>
    <nd ref="122911880"/>
    <nd ref="122911896"/>
    <nd ref="122976764"/>
    <nd ref="122912023"/>
    <nd ref="122906746"/>
    <nd ref="122979237"/>
    <nd ref="122979238"/>
    <nd ref="122979241"/>
    <nd ref="122868354"/>
    <nd ref="122979244"/>
    <nd ref="122979245"/>
    <nd ref="122979247"/>
    <nd ref="122979249"/>
    <nd ref="122979251"/>
    <nd ref="122950721"/>
    <nd ref="122979253"/>
    <nd ref="122979254"/>
    <nd ref="122969987"/>
    <nd ref="122979257"/>
    <nd ref="122979258"/>
    <nd ref="122979260"/>
    <nd ref="122903683"/>
    <nd ref="122979263"/>
    <nd ref="122979265"/>
    <nd ref="122979267"/>
    <nd ref="122979268"/>
    <nd ref="122979269"/>
    <nd ref="122898054"/>
    <nd ref="122898078"/>
    <nd ref="122979272"/>
    <nd ref="122979274"/>
    <nd ref="122957111"/>
    <nd ref="122979277"/>
    <nd ref="122903654"/>
    <nd ref="122979279"/>
    <nd ref="122979281"/>
    <nd ref="122979282"/>
    <nd ref="122972260"/>
    <tag k="highway" v="residential"/>
    <tag k="name" v="North Ridge Road"/>
    <tag k="tiger:cfcc" v="A41"/>
    <tag k="tiger:county" v="Sumner, KS"/>
    <tag k="tiger:name_base" v="Ridge"/>
    <tag k="tiger:name_direction_prefix" v="N"/>
    <tag k="tiger:name_type" v="Rd"/>
    <tag k="tiger:reviewed" v="no"/>
    <tag k="tiger:separated" v="no"/>
    <tag k="tiger:source" v="tiger_import_dch_v0.6_20070812"/>
    <tag k="tiger:tlid" v="115826479:115826480"/>
  </way>
  <way id="51347660" version="4" timestamp="2010-04-06T14:53:01Z" uid="20587" user="balrog-kun" changeset="4342997">
    <nd ref="122966029"/>
    <nd ref="122966030"/>
    <tag k="bridge" v="yes"/>
    <tag k="highway" v="residential"/>
    <tag k="layer" v="1"/>
    <tag k="name" v="North Drury Road"/>
    <tag k="tiger:cfcc" v="A41"/>
    <tag k="tiger:county" v="Sumner, KS"/>
    <tag k="tiger:name_base" v="Drury"/>
    <tag k="tiger:name_direction_prefix" v="N"/>
    <tag k="tiger:name_type" v="Rd"/>
    <tag k="tiger:reviewed" v="aerial"/>
    <tag k="tiger:separated" v="no"/>
    <tag k="tiger:source" v="tiger_import_dch_v0.6_20070812"/>
    <tag k="tiger:tlid" v="115823062:115833124:115833126:115833127:115823063:115827478:115826459:115826461:115819240"/>
  </way>
  <way id="51347661" version="2" timestamp="2010-04-06T14:53:02Z" uid="20587" user="balrog-kun" changeset="4342997">
    <nd ref="122966030"/>
    <nd ref="122902607"/>
    <nd ref="122902643"/>
    <nd ref="122966033"/>
    <nd ref="122935541"/>
    <nd ref="122966035"/>
    <nd ref="122966037"/>
    <nd ref="122966040"/>
    <nd ref="122966042"/>
    <nd ref="122966044"/>
    <nd ref="122957525"/>
    <nd ref="122966045"/>
    <nd ref="122966047"/>
    <nd ref="122966049"/>
    <nd ref="122966052"/>
    <nd ref="122966054"/>
    <nd ref="122910454"/>
    <nd ref="122966058"/>
    <nd ref="122966059"/>
    <nd ref="122872234"/>
    <nd ref="122966061"/>
    <nd ref="122966062"/>
    <nd ref="122919373"/>
    <nd ref="122966066"/>
    <nd ref="122966068"/>
    <nd ref="122867741"/>
    <nd ref="122908149"/>
    <nd ref="122966070"/>
    <nd ref="122908663"/>
    <nd ref="122966073"/>
    <nd ref="122966075"/>
    <nd ref="122966077"/>
    <nd ref="122864347"/>
    <nd ref="122864324"/>
    <nd ref="122966079"/>
    <nd ref="122947180"/>
    <nd ref="122966081"/>
    <nd ref="122966083"/>
    <nd ref="122934773"/>
    <nd ref="122966085"/>
    <nd ref="122966088"/>
    <nd ref="122966089"/>
    <nd ref="122966091"/>
    <nd ref="122966093"/>
    <nd ref="122966094"/>
    <nd ref="122966096"/>
    <nd ref="122904049"/>
    <nd ref="122966099"/>
    <nd ref="122966101"/>
    <nd ref="122966103"/>
    <nd ref="122966106"/>
    <nd ref="122966107"/>
    <nd ref="122966109"/>
    <nd ref="122937554"/>
    <nd ref="122966111"/>
    <nd ref="122902079"/>
    <nd ref="122902102"/>
    <nd ref="122966114"/>
    <nd ref="122966115"/>
    <nd ref="122966116"/>
    <nd ref="122966118"/>
    <nd ref="122966120"/>
    <nd ref="122964735"/>
    <tag k="highway" v="residential"/>
    <tag k="name" v="North Drury Road"/>
    <tag k="tiger:cfcc" v="A41"/>
    <tag k="tiger:county" v="Sumner, KS"/>
    <tag k="tiger:name_base" v="Drury"/>
    <tag k="tiger:name_direction_prefix" v="N"/>
    <tag k="tiger:name_type" v="Rd"/>
    <tag k="tiger:reviewed" v="no"/>
    <tag k="tiger:separated" v="no"/>
    <tag k="tiger:source" v="tiger_import_dch_v0.6_20070812"/>
    <tag k="tiger:tlid" v="115823062:115833124:115833126:115833127:115823063:115827478:115826459:115826461:115819240"/>
  </way>
  <way id="51347742" version="5" timestamp="2011-02-25T17:15:57Z" uid="115477" user="wowik" changeset="7392297">
    <nd ref="655236504"/>
    <nd ref="655236512"/>
    <nd ref="655236502"/>
    <nd ref="1172606654"/>
    <nd ref="1172606918"/>
    <nd ref="1172606110"/>
    <nd ref="1172606002"/>
    <nd ref="1172606391"/>
    <nd ref="1172606128"/>
    <nd ref="655236514"/>
    <nd ref="655236516"/>
    <nd ref="655236510"/>
    <nd ref="1172606863"/>
    <nd ref="1172605932"/>
    <nd ref="1172606721"/>
    <nd ref="1172606445"/>
    <nd ref="1172606169"/>
    <nd ref="1172606077"/>
    <nd ref="655236503"/>
    <nd ref="655236506"/>
    <nd ref="655236504"/>
    <tag k="addr:housenumber" v="14 к4"/>
    <tag k="addr:street" v="улица Барышиха"/>
    <tag k="building" v="apartments"/>
    <tag k="building:levels" v="22"/>
  </way>
  <way id="51347742" version="6" timestamp="2012-03-27T16:48:34Z" uid="481934" user="iWowik" changeset="11118068">
    <nd ref="655236504"/>
    <nd ref="655236512"/>
    <nd ref="655236502"/>
    <nd ref="1172606654"/>
    <nd ref="1172606918"/>
    <nd ref="1172606110"/>
    <nd ref="1172606002"/>
    <nd ref="1172606391"/>
    <nd ref="1172606128"/>
    <nd ref="655236514"/>
    <nd ref="655236516"/>
    <nd ref="655236510"/>
    <nd ref="1172606863"/>
    <nd ref="1172605932"/>
    <nd ref="1172606721"/>
    <nd ref="1172606445"/>
    <nd ref="1172606169"/>
    <nd ref="1172606077"/>
    <nd ref="655236503"/>
    <nd ref="655236506"/>
    <nd ref="655236504"/>
    <tag k="addr:city" v="Москва"/>
    <tag k="addr:country" v="RU"/>
    <tag k="addr:housenumber" v="14 к4"/>
    <tag k="addr:street" v="улица Барышиха"/>
    <tag k="building" v="apartments"/>
    <tag k="building:levels" v="22"/>
  </way>
  <way id="51347742" version="7" timestamp="2012-03-27T17:15:23Z" uid="481934" user="iWowik" changeset="11118068">
    <nd ref="655236504"/>
    <nd ref="655236512"/>
    <nd ref="655236502"/>
    <nd ref="1172606654"/>
    <nd ref="1172606918"/>
    <nd ref="1172606110"/>
    <nd ref="1172606002"/>
    <nd ref="1172606391"/>
    <nd ref="1172606128"/>
    <nd ref="655236514"/>
    <nd ref="655236516"/>
    <nd ref="655236510"/>
    <nd ref="1172606863"/>
    <nd ref="1172605932"/>
    <nd ref="1172606721"/>
    <nd ref="1172606445"/>
    <nd ref="1172606169"/>
    <nd ref="1172606077"/>
    <nd ref="655236503"/>
    <nd ref="655236506"/>
    <nd ref="655236504"/>
    <tag k="addr:city" v="Москва"/>
    <tag k="addr:country" v="RU"/>
    <tag k="addr:housenumber" v="14 к4"/>
    <tag k="addr:street" v="улица Барышиха"/>
    <tag k="building" v="apartments"/>
    <tag k="building:levels" v="22"/>
    <tag k="building:use" v="residential"/>
  </way>
  <way id="51347744" version="5" timestamp="2011-02-25T15:58:39Z" uid="115477" user="wowik" changeset="7391672">
    <nd ref="655236528"/>
    <nd ref="655236524"/>
    <nd ref="655236520"/>
    <nd ref="1172453722"/>
    <nd ref="655236547"/>
    <nd ref="1172453395"/>
    <nd ref="655236556"/>
    <nd ref="655236553"/>
    <nd ref="1172453324"/>
    <nd ref="655236535"/>
    <nd ref="1172453533"/>
    <nd ref="655236533"/>
    <nd ref="655236543"/>
    <nd ref="655236539"/>
    <nd ref="655236545"/>
    <nd ref="655236541"/>
    <nd ref="655236537"/>
    <nd ref="1172453352"/>
    <nd ref="655236531"/>
    <nd ref="1172453665"/>
    <nd ref="655236554"/>
    <nd ref="655236551"/>
    <nd ref="1172453614"/>
    <nd ref="655236549"/>
    <nd ref="1172453350"/>
    <nd ref="655236518"/>
    <nd ref="655236526"/>
    <nd ref="655236522"/>
    <nd ref="655236528"/>
    <tag k="addr:housenumber" v="35 к2"/>
    <tag k="addr:street" v="Дубравная улица"/>
    <tag k="amenity" v="kindergarten"/>
    <tag k="building" v="yes"/>
    <tag k="cladr:code" v="77000000000358200"/>
    <tag k="name" v="Детский сад №2337"/>
  </way>
  <way id="51347744" version="6" timestamp="2012-03-27T16:47:37Z" uid="481934" user="iWowik" changeset="11118068">
    <nd ref="655236528"/>
    <nd ref="655236524"/>
    <nd ref="655236520"/>
    <nd ref="1172453722"/>
    <nd ref="655236547"/>
    <nd ref="1172453395"/>
    <nd ref="655236556"/>
    <nd ref="655236553"/>
    <nd ref="1172453324"/>
    <nd ref="655236535"/>
    <nd ref="1172453533"/>
    <nd ref="655236533"/>
    <nd ref="655236543"/>
    <nd ref="655236539"/>
    <nd ref="655236545"/>
    <nd ref="655236541"/>
    <nd ref="655236537"/>
    <nd ref="1172453352"/>
    <nd ref="655236531"/>
    <nd ref="1172453665"/>
    <nd ref="655236554"/>
    <nd ref="655236551"/>
    <nd ref="1172453614"/>
    <nd ref="655236549"/>
    <nd ref="1172453350"/>
    <nd ref="655236518"/>
    <nd ref="655236526"/>
    <nd ref="655236522"/>
    <nd ref="655236528"/>
    <tag k="addr:city" v="Москва"/>
    <tag k="addr:country" v="RU"/>
    <tag k="addr:housenumber" v="35 к2"/>
    <tag k="addr:street" v="Дубравная улица"/>
    <tag k="amenity" v="kindergarten"/>
    <tag k="building" v="yes"/>
    <tag k="cladr:code" v="77000000000358200"/>
    <tag k="name" v="Детский сад №2337"/>
  </way>
  <way id="51347745" version="4" timestamp="2011-02-25T15:58:44Z" uid="115477" user="wowik" changeset="7391672">
    <nd ref="655236560"/>
    <nd ref="655236564"/>
    <nd ref="655236562"/>
    <nd ref="655236565"/>
    <nd ref="1172453676"/>
    <nd ref="1172453624"/>
    <nd ref="655236566"/>
    <nd ref="655236567"/>
    <nd ref="1172453467"/>
    <nd ref="655236568"/>
    <nd ref="1172453537"/>
    <nd ref="655236575"/>
    <nd ref="655236586"/>
    <nd ref="655236588"/>
    <nd ref="655236591"/>
    <nd ref="655236593"/>
    <nd ref="655236595"/>
    <nd ref="655236573"/>
    <nd ref="1172453439"/>
    <nd ref="1172453491"/>
    <nd ref="655236574"/>
    <nd ref="655236569"/>
    <nd ref="1172453727"/>
    <nd ref="1172453363"/>
    <nd ref="655236570"/>
    <nd ref="655236571"/>
    <nd ref="655236572"/>
    <nd ref="655236558"/>
    <nd ref="655236560"/>
    <tag k="addr:housenumber" v="35 к1"/>
    <tag k="addr:street" v="Дубравная улица"/>
    <tag k="amenity" v="kindergarten"/>
    <tag k="building" v="yes"/>
    <tag k="cladr:code" v="77000000000358200"/>
    <tag k="name" v="Детский сад №2318"/>
  </way>
  <way id="51347745" version="5" timestamp="2012-03-27T16:47:33Z" uid="481934" user="iWowik" changeset="11118068">
    <nd ref="655236560"/>
    <nd ref="655236564"/>
    <nd ref="655236562"/>
    <nd ref="655236565"/>
    <nd ref="1172453676"/>
    <nd ref="1172453624"/>
    <nd ref="655236566"/>
    <nd ref="655236567"/>
    <nd ref="1172453467"/>
    <nd ref="655236568"/>
    <nd ref="1172453537"/>
    <nd ref="655236575"/>
    <nd ref="655236586"/>
    <nd ref="655236588"/>
    <nd ref="655236591"/>
    <nd ref="655236593"/>
    <nd ref="655236595"/>
    <nd ref="655236573"/>
    <nd ref="1172453439"/>
    <nd ref="1172453491"/>
    <nd ref="655236574"/>
    <nd ref="655236569"/>
    <nd ref="1172453727"/>
    <nd ref="1172453363"/>
    <nd ref="655236570"/>
    <nd ref="655236571"/>
    <nd ref="655236572"/>
    <nd ref="655236558"/>
    <nd ref="655236560"/>
    <tag k="addr:city" v="Москва"/>
    <tag k="addr:country" v="RU"/>
    <tag k="addr:housenumber" v="35 к1"/>
    <tag k="addr:street" v="Дубравная улица"/>
    <tag k="amenity" v="kindergarten"/>
    <tag k="building" v="yes"/>
    <tag k="cladr:code" v="77000000000358200"/>
    <tag k="name" v="Детский сад №2318"/>
  </way>
  <way id="51347747" version="6" timestamp="2011-02-25T08:57:10Z" uid="115477" user="wowik" changeset="7388402">
    <nd ref="304759685"/>
    <nd ref="1171823093"/>
    <nd ref="1171829228"/>
    <nd ref="1171827443"/>
    <nd ref="1171827006"/>
    <nd ref="1171823441"/>
    <nd ref="1171820636"/>
    <nd ref="1171827683"/>
    <nd ref="1171825454"/>
    <nd ref="655236604"/>
    <nd ref="655236606"/>
    <nd ref="1171826917"/>
    <nd ref="1171823905"/>
    <nd ref="1171826226"/>
    <nd ref="1171829358"/>
    <nd ref="1171821612"/>
    <nd ref="1171825383"/>
    <nd ref="1171828269"/>
    <nd ref="1171828916"/>
    <nd ref="655236613"/>
    <nd ref="304759685"/>
    <tag k="addr:city" v="Москва"/>
    <tag k="addr:housenumber" v="25"/>
    <tag k="addr:street" v="Митинская улица"/>
    <tag k="building" v="apartments"/>
    <tag k="building:levels" v="17"/>
    <tag k="cladr:code" v="77000000000186400"/>
  </way>
  <way id="51347747" version="7" timestamp="2012-03-27T16:49:49Z" uid="481934" user="iWowik" changeset="11118068">
    <nd ref="304759685"/>
    <nd ref="1171823093"/>
    <nd ref="1171829228"/>
    <nd ref="1171827443"/>
    <nd ref="1171827006"/>
    <nd ref="1171823441"/>
    <nd ref="1171820636"/>
    <nd ref="1171827683"/>
    <nd ref="1171825454"/>
    <nd ref="655236604"/>
    <nd ref="655236606"/>
    <nd ref="1171826917"/>
    <nd ref="1171823905"/>
    <nd ref="1171826226"/>
    <nd ref="1171829358"/>
    <nd ref="1171821612"/>
    <nd ref="1171825383"/>
    <nd ref="1171828269"/>
    <nd ref="1171828916"/>
    <nd ref="655236613"/>
    <nd ref="304759685"/>
    <tag k="addr:city" v="Москва"/>
    <tag k="addr:country" v="RU"/>
    <tag k="addr:housenumber" v="25"/>
    <tag k="addr:street" v="Митинская улица"/>
    <tag k="building" v="apartments"/>
    <tag k="building:levels" v="17"/>
    <tag k="cladr:code" v="77000000000186400"/>
  </way>
  <way id="51347747" version="8" timestamp="2012-03-27T17:16:00Z" uid="481934" user="iWowik" changeset="11118068">
    <nd ref="304759685"/>
    <nd ref="1171823093"/>
    <nd ref="1171829228"/>
    <nd ref="1171827443"/>
    <nd ref="1171827006"/>
    <nd ref="1171823441"/>
    <nd ref="1171820636"/>
    <nd ref="1171827683"/>
    <nd ref="1171825454"/>
    <nd ref="655236604"/>
    <nd ref="655236606"/>
    <nd ref="1171826917"/>
    <nd ref="1171823905"/>
    <nd ref="1171826226"/>
    <nd ref="1171829358"/>
    <nd ref="1171821612"/>
    <nd ref="1171825383"/>
    <nd ref="1171828269"/>
    <nd ref="1171828916"/>
    <nd ref="655236613"/>
    <nd ref="304759685"/>
    <tag k="addr:city" v="Москва"/>
    <tag k="addr:country" v="RU"/>
    <tag k="addr:housenumber" v="25"/>
    <tag k="addr:street" v="Митинская улица"/>
    <tag k="building" v="apartments"/>
    <tag k="building:levels" v="17"/>
    <tag k="building:use" v="residential"/>
    <tag k="cladr:code" v="77000000000186400"/>
  </way>
  <way id="51347748" version="4" timestamp="2010-04-06T14:53:03Z" uid="20587" user="balrog-kun" changeset="4342997">
    <nd ref="122399474"/>
    <nd ref="122399476"/>
    <tag k="bridge" v="yes"/>
    <tag k="highway" v="residential"/>
    <tag k="layer" v="1"/>
    <tag k="name" v="South 151st Street West"/>
    <tag k="tiger:cfcc" v="A41"/>
    <tag k="tiger:county" v="Sedgwick, KS"/>
    <tag k="tiger:name_base" v="151st"/>
    <tag k="tiger:name_direction_prefix" v="S"/>
    <tag k="tiger:name_direction_suffix" v="W"/>
    <tag k="tiger:name_type" v="St"/>
    <tag k="tiger:reviewed" v="aerial"/>
    <tag k="tiger:separated" v="no"/>
    <tag k="tiger:source" v="tiger_import_dch_v0.6_20070812"/>
    <tag k="tiger:tlid" v="115688683:115688684:115688404:115688405:115698432:115688674:115688675"/>
    <tag k="tiger:zip_left" v="67026"/>
    <tag k="tiger:zip_right" v="67026"/>
  </way>
  <way id="51347751" version="2" timestamp="2010-04-06T14:53:03Z" uid="20587" user="balrog-kun" changeset="4342997">
    <nd ref="122399476"/>
    <nd ref="122399478"/>
    <nd ref="122399481"/>
    <nd ref="122399484"/>
    <nd ref="122399488"/>
    <nd ref="122399491"/>
    <nd ref="122172049"/>
    <nd ref="122399493"/>
    <nd ref="122399435"/>
    <tag k="highway" v="residential"/>
    <tag k="name" v="South 151st Street West"/>
    <tag k="tiger:cfcc" v="A41"/>
    <tag k="tiger:county" v="Sedgwick, KS"/>
    <tag k="tiger:name_base" v="151st"/>
    <tag k="tiger:name_direction_prefix" v="S"/>
    <tag k="tiger:name_direction_suffix" v="W"/>
    <tag k="tiger:name_type" v="St"/>
    <tag k="tiger:reviewed" v="no"/>
    <tag k="tiger:separated" v="no"/>
    <tag k="tiger:source" v="tiger_import_dch_v0.6_20070812"/>
    <tag k="tiger:tlid" v="115688683:115688684:115688404:115688405:115698432:115688674:115688675"/>
    <tag k="tiger:zip_left" v="67026"/>
    <tag k="tiger:zip_right" v="67026"/>
  </way>
  <way id="51347742" version="8" timestamp="2012-07-20T21:13:01Z" uid="722137" user="OSMF Redaction Account" changeset="12392155">
    <nd ref="655236504"/>
    <nd ref="655236512"/>
    <nd ref="655236502"/>
    <nd ref="655236514"/>
    <nd ref="655236516"/>
    <nd ref="655236510"/>
    <nd ref="655236503"/>
    <nd ref="655236506"/>
    <nd ref="655236504"/>
    <tag k="addr:city" v="Москва"/>
    <tag k="addr:country" v="RU"/>
    <tag k="addr:housenumber" v="14 к4"/>
    <tag k="addr:street" v="улица Барышиха"/>
    <tag k="building" v="apartments"/>
    <tag k="building:levels" v="22"/>
    <tag k="building:use" v="residential"/>
  </way>
  <way id="51347744" version="7" timestamp="2012-07-20T21:13:08Z" uid="722137" user="OSMF Redaction Account" changeset="12392155">
    <nd ref="655236528"/>
    <nd ref="655236524"/>
    <nd ref="655236520"/>
    <nd ref="655236547"/>
    <nd ref="655236556"/>
    <nd ref="655236553"/>
    <nd ref="655236535"/>
    <nd ref="655236533"/>
    <nd ref="655236543"/>
    <nd ref="655236539"/>
    <nd ref="655236545"/>
    <nd ref="655236541"/>
    <nd ref="655236537"/>
    <nd ref="655236531"/>
    <nd ref="655236554"/>
    <nd ref="655236551"/>
    <nd ref="655236549"/>
    <nd ref="655236518"/>
    <nd ref="655236526"/>
    <nd ref="655236522"/>
    <nd ref="655236528"/>
    <tag k="addr:city" v="Москва"/>
    <tag k="addr:country" v="RU"/>
    <tag k="addr:housenumber" v="35 к2"/>
    <tag k="addr:street" v="Дубравная улица"/>
    <tag k="amenity" v="kindergarten"/>
    <tag k="building" v="yes"/>
    <tag k="cladr:code" v="77000000000358200"/>
    <tag k="name" v="Детский сад №2337"/>
  </way>
  <way id="51347745" version="6" timestamp="2012-07-20T21:13:11Z" uid="722137" user="OSMF Redaction Account" changeset="12392155">
    <nd ref="655236560"/>
    <nd ref="655236564"/>
    <nd ref="655236562"/>
    <nd ref="655236565"/>
    <nd ref="655236566"/>
    <nd ref="655236567"/>
    <nd ref="655236568"/>
    <nd ref="655236575"/>
    <nd ref="655236586"/>
    <nd ref="655236588"/>
    <nd ref="655236591"/>
    <nd ref="655236593"/>
    <nd ref="655236595"/>
    <nd ref="655236573"/>
    <nd ref="655236574"/>
    <nd ref="655236569"/>
    <nd ref="655236570"/>
    <nd ref="655236571"/>
    <nd ref="655236572"/>
    <nd ref="655236558"/>
    <nd ref="655236560"/>
    <tag k="addr:city" v="Москва"/>
    <tag k="addr:country" v="RU"/>
    <tag k="addr:housenumber" v="35 к1"/>
    <tag k="addr:street" v="Дубравная улица"/>
    <tag k="amenity" v="kindergarten"/>
    <tag k="building" v="yes"/>
    <tag k="cladr:code" v="77000000000358200"/>
    <tag k="name" v="Детский сад №2318"/>
  </way>
  <way id="51347747" version="9" timestamp="2012-07-20T21:13:15Z" uid="722137" user="OSMF Redaction Account" changeset="12392155">
    <nd ref="304759685"/>
    <nd ref="655236604"/>
    <nd ref="655236606"/>
    <nd ref="655236613"/>
    <nd ref="304759685"/>
    <tag k="addr:city" v="Москва"/>
    <tag k="addr:country" v="RU"/>
    <tag k="addr:housenumber" v="25"/>
    <tag k="addr:street" v="Митинская улица"/>
    <tag k="building" v="apartments"/>
    <tag k="building:levels" v="17"/>
    <tag k="building:use" v="residential"/>
    <tag k="cladr:code" v="77000000000186400"/>
  </way>
</osm>
