<?xml version='1.0' encoding='UTF-8'?>
<osm version="0.6" generator="libosmium/2.20.0">
  <way id="51479125" version="2" timestamp="2010-04-02T17:56:56Z" uid="20587" user="balrog-kun" changeset="4304500">
    <nd ref="60652378"/>
    <nd ref="60652380"/>
    <nd ref="544349680"/>
    <nd ref="60652381"/>
    <tag k="highway" v="residential"/>
    <tag k="layer" v="0"/>
    <tag k="name" v="West Galer Street"/>
  </way>
  <way id="51479125" version="3" timestamp="2010-11-11T05:40:18Z" uid="282329" user="compdude" changeset="6341249">
    <nd ref="60652378"/>
    <nd ref="60652380"/>
    <nd ref="544349680"/>
    <nd ref="60652381"/>
    <tag k="highway" v="tertiary"/>
    <tag k="layer" v="0"/>
    <tag k="name" v="West Galer Street"/>
  </way>
  <way id="51479125" version="4" timestamp="2010-11-11T05:41:07Z" uid="282329" user="compdude" changeset="6341249">
    <nd ref="60652378"/>
    <nd ref="984963932"/>
    <nd ref="60652380"/>
    <nd ref="544349680"/>
    <nd ref="60652381"/>
    <tag k="highway" v="tertiary"/>
    <tag k="layer" v="0"/>
    <tag k="name" v="West Galer Street"/>
  </way>
  <way id="51479273" version="1" timestamp="2010-03-01T06:50:16Z" uid="7617" user="Franc" changeset="4006099">
    <nd ref="657715207"/>
    <nd ref="657715210"/>
    <nd ref="657715212"/>
    <nd ref="657715214"/>
    <nd ref="657715207"/>
    <tag k="leisure" v="park"/>
    <tag k="source" v="nearmap"/>
  </way>
  <way id="51479274" version="1" timestamp="2010-03-01T06:50:17Z" uid="7617" user="Franc" changeset="4006099">
    <nd ref="657715237"/>
    <nd ref="657715239"/>
    <nd ref="657715234"/>
    <nd ref="657715235"/>
    <nd ref="281177152"/>
    <nd ref="281177159"/>
    <nd ref="281177150"/>
    <nd ref="267843691"/>
    <tag k="highway" v="residential"/>
    <tag k="name" v="Lower Boyle Street"/>
    <tag k="source" v="survey"/>
  </way>
  <way id="51479274" version="2" timestamp="2010-07-07T21:55:22Z" uid="74617" user="JohnSmith" changeset="5161069">
    <nd ref="657715237"/>
    <nd ref="657715239"/>
    <nd ref="657715234"/>
    <nd ref="657715235"/>
    <nd ref="281177152"/>
    <nd ref="281177159"/>
    <nd ref="281177150"/>
    <nd ref="267843691"/>
    <tag k="highway" v="residential"/>
    <tag k="maxspeed" v="50"/>
    <tag k="maxspeed:source" v="default residential speed limit in Australia"/>
    <tag k="name" v="Lower Boyle Street"/>
    <tag k="source" v="survey"/>
  </way>
  <way id="51479274" version="3" timestamp="2010-10-22T10:21:04Z" uid="7617" user="Franc" changeset="6134759">
    <nd ref="657715237"/>
    <nd ref="657715239"/>
    <nd ref="960190294"/>
    <nd ref="657715234"/>
    <nd ref="657715235"/>
    <nd ref="281177152"/>
    <nd ref="281177159"/>
    <nd ref="281177150"/>
    <nd ref="267843691"/>
    <tag k="highway" v="residential"/>
    <tag k="maxspeed" v="50"/>
    <tag k="maxspeed:source" v="default residential speed limit in Australia"/>
    <tag k="name" v="Lower Boyle Street"/>
    <tag k="source" v="survey"/>
  </way>
  <way id="51479274" version="4" timestamp="2011-01-19T09:05:36Z" uid="9477" user="NilbogAus" changeset="7018428">
    <nd ref="26359415"/>
    <nd ref="657715239"/>
    <nd ref="960190294"/>
    <nd ref="657715234"/>
    <nd ref="657715235"/>
    <nd ref="281177152"/>
    <nd ref="281177159"/>
    <nd ref="281177150"/>
    <nd ref="267843691"/>
    <tag k="highway" v="residential"/>
    <tag k="maxspeed" v="50"/>
    <tag k="maxspeed:source" v="default residential speed limit in Australia"/>
    <tag k="name" v="Lower Boyle Street"/>
    <tag k="source" v="survey"/>
  </way>
  <way id="51479274" version="5" timestamp="2012-01-20T03:00:14Z" uid="147510" user="woodpeck_fixbot" changeset="10442677">
    <nd ref="26359415"/>
    <nd ref="657715239"/>
    <nd ref="960190294"/>
    <nd ref="657715234"/>
    <nd ref="657715235"/>
    <nd ref="281177152"/>
    <nd ref="281177159"/>
    <nd ref="281177150"/>
    <nd ref="267843691"/>
    <tag k="highway" v="residential"/>
    <tag k="name" v="Lower Boyle Street"/>
    <tag k="source" v="survey"/>
  </way>
  <way id="51479276" version="1" timestamp="2010-03-01T06:50:17Z" uid="7617" user="Franc" changeset="4006099">
    <nd ref="657715237"/>
    <nd ref="657715241"/>
    <nd ref="657715240"/>
    <nd ref="657715236"/>
    <nd ref="29374653"/>
    <nd ref="561077666"/>
    <tag k="highway" v="unclassified"/>
    <tag k="name" v="Boyle Street"/>
    <tag k="source:name" v="historical"/>
  </way>
  <way id="51479276" version="2" timestamp="2011-01-19T09:05:42Z" uid="9477" user="NilbogAus" changeset="7018428">
    <nd ref="26359415"/>
    <nd ref="657715241"/>
    <nd ref="657715240"/>
    <nd ref="657715236"/>
    <nd ref="29374653"/>
    <nd ref="561077666"/>
    <tag k="highway" v="unclassified"/>
    <tag k="name" v="Boyle Street"/>
    <tag k="source" v="survey"/>
    <tag k="source:name" v="historical"/>
  </way>
  <way id="51479277" version="1" timestamp="2010-03-01T06:50:17Z" uid="7617" user="Franc" changeset="4006099">
    <nd ref="561077672"/>
    <nd ref="561077667"/>
    <nd ref="561077668"/>
    <tag k="highway" v="service"/>
    <tag k="name" v="Royalist Road"/>
    <tag k="source" v="survey"/>
  </way>
  <way id="51479868" version="1" timestamp="2010-03-01T07:14:57Z" uid="7617" user="Franc" changeset="4006192">
    <nd ref="657739679"/>
    <nd ref="657739686"/>
    <nd ref="657739698"/>
    <nd ref="657739681"/>
    <nd ref="657739679"/>
    <tag k="addr:housenumber" v="4"/>
    <tag k="addr:street" v="Bellevue Street"/>
    <tag k="building" v="yes"/>
  </way>
  <way id="51479868" version="2" timestamp="2012-02-16T03:08:15Z" uid="7523" user="inas" changeset="10698492"/>
  <way id="51479869" version="1" timestamp="2010-03-01T07:14:57Z" uid="7617" user="Franc" changeset="4006192">
    <nd ref="657739692"/>
    <nd ref="657739690"/>
    <nd ref="657739691"/>
    <nd ref="657739694"/>
    <nd ref="657739695"/>
    <nd ref="657739688"/>
    <nd ref="657739687"/>
    <nd ref="657739696"/>
    <nd ref="657739692"/>
    <tag k="addr:housenumber" v="2"/>
    <tag k="addr:street" v="Bellevue Street"/>
    <tag k="building" v="yes"/>
  </way>
  <way id="51479869" version="2" timestamp="2012-02-16T03:08:15Z" uid="7523" user="inas" changeset="10698492"/>
  <way id="51479870" version="1" timestamp="2010-03-01T07:14:57Z" uid="7617" user="Franc" changeset="4006192">
    <nd ref="657739676"/>
    <nd ref="657739682"/>
    <nd ref="657739683"/>
    <nd ref="657739684"/>
    <nd ref="657739674"/>
    <nd ref="657739675"/>
    <nd ref="657739676"/>
    <tag k="building" v="yes"/>
    <tag k="name" v="Salvation Army Store"/>
    <tag k="shop" v="second_hand"/>
  </way>
  <way id="51479871" version="1" timestamp="2010-03-01T07:14:57Z" uid="7617" user="Franc" changeset="4006192">
    <nd ref="657739700"/>
    <nd ref="657739699"/>
    <nd ref="292464171"/>
    <tag k="complete" v="no"/>
    <tag k="highway" v="service"/>
    <tag k="name" v="Sands Street"/>
    <tag k="source" v="nearmap"/>
    <tag k="source:name" v="survey"/>
  </way>
  <way id="51479871" version="2" timestamp="2011-12-31T08:52:38Z" uid="111529" user="ReinerMeyer" changeset="10252570">
    <nd ref="657739700"/>
    <nd ref="292464171"/>
    <tag k="complete" v="no"/>
    <tag k="highway" v="service"/>
    <tag k="name" v="Sands Street"/>
    <tag k="source" v="nearmap"/>
    <tag k="source:name" v="survey"/>
  </way>
  <way id="51479872" version="1" timestamp="2010-03-01T07:14:57Z" uid="7617" user="Franc" changeset="4006192">
    <nd ref="657739706"/>
    <nd ref="8588631"/>
    <nd ref="292464167"/>
    <nd ref="8588632"/>
    <tag k="highway" v="unclassified"/>
    <tag k="image" v="80n:dsc04147.jpg"/>
    <tag k="name" v="Kent Street"/>
    <tag k="oneway" v="yes"/>
  </way>
  <way id="51479872" version="2" timestamp="2010-04-21T07:32:08Z" uid="7617" user="Franc" changeset="4483967">
    <nd ref="657739706"/>
    <nd ref="8588631"/>
    <nd ref="292464167"/>
    <nd ref="703078351"/>
    <tag k="highway" v="unclassified"/>
    <tag k="image" v="80n:dsc04147.jpg"/>
    <tag k="name" v="Kent Street"/>
    <tag k="oneway" v="yes"/>
    <tag k="restriction" v="school_zone"/>
  </way>
  <way id="51479872" version="3" timestamp="2010-10-29T12:13:38Z" uid="12203" user="brainwad" changeset="6217932">
    <nd ref="657739706"/>
    <nd ref="8588631"/>
    <nd ref="292464167"/>
    <nd ref="703078351"/>
    <tag k="highway" v="unclassified"/>
    <tag k="image" v="80n:dsc04147.jpg"/>
    <tag k="maxspeed" v="50"/>
    <tag k="name" v="Kent Street"/>
    <tag k="oneway" v="yes"/>
    <tag k="restriction" v="school_zone"/>
  </way>
  <way id="51479873" version="1" timestamp="2010-03-01T07:14:57Z" uid="7617" user="Franc" changeset="4006192">
    <nd ref="657739707"/>
    <nd ref="8588631"/>
    <nd ref="13767790"/>
    <nd ref="20827884"/>
    <nd ref="20827885"/>
    <nd ref="13757738"/>
    <tag k="highway" v="secondary"/>
    <tag k="name" v="Bathurst Street"/>
    <tag k="oneway" v="yes"/>
  </way>
  <way id="51479873" version="2" timestamp="2010-10-29T09:12:07Z" uid="12203" user="brainwad" changeset="6215713">
    <nd ref="657739707"/>
    <nd ref="8588631"/>
    <nd ref="13767790"/>
    <nd ref="20827884"/>
    <nd ref="20827885"/>
    <nd ref="13757738"/>
    <tag k="highway" v="secondary"/>
    <tag k="maxspeed" v="50"/>
    <tag k="name" v="Bathurst Street"/>
    <tag k="oneway" v="yes"/>
    <tag k="source:maxspeed" v="state_limit"/>
  </way>
  <way id="51479873" version="3" timestamp="2011-02-19T11:48:12Z" uid="389517" user="good2010" changeset="7330911">
    <nd ref="657739707"/>
    <nd ref="8588631"/>
    <nd ref="13767790"/>
    <nd ref="20827884"/>
    <nd ref="20827885"/>
    <nd ref="13757738"/>
    <tag k="highway" v="secondary"/>
    <tag k="maxspeed" v="50"/>
    <tag k="name" v="Bathurst Street"/>
    <tag k="oneway" v="yes"/>
    <tag k="source" v="nearmap"/>
    <tag k="source:maxspeed" v="state_limit"/>
  </way>
  <way id="51479273" version="2" timestamp="2012-06-23T06:24:46Z" uid="7523" user="inas" changeset="11985647"/>
  <way id="51479274" version="6" timestamp="2012-07-19T21:41:23Z" uid="722137" user="OSMF Redaction Account" changeset="12348779"/>
  <way id="51479276" version="3" timestamp="2012-07-19T21:41:23Z" uid="722137" user="OSMF Redaction Account" changeset="12348779"/>
  <way id="51479277" version="2" timestamp="2012-07-19T21:41:24Z" uid="722137" user="OSMF Redaction Account" changeset="12348779"/>
  <way id="51479870" version="2" timestamp="2012-06-26T02:20:02Z" uid="7523" user="inas" changeset="12018026"/>
  <way id="51479871" version="3" timestamp="2012-07-19T21:40:44Z" uid="722137" user="OSMF Redaction Account" changeset="12348758"/>
  <way id="51479872" version="4" timestamp="2012-07-19T21:40:40Z" uid="722137" user="OSMF Redaction Account" changeset="12348758"/>
  <way id="51479873" version="4" timestamp="2012-06-26T06:41:27Z" uid="7523" user="inas" changeset="12019046">
    <nd ref="657739707"/>
    <nd ref="8588631"/>
    <nd ref="13767790"/>
    <nd ref="20827884"/>
    <nd ref="20827885"/>
    <nd ref="1802422535"/>
    <tag k="highway" v="secondary"/>
    <tag k="maxspeed" v="50"/>
    <tag k="name" v="Bathurst Street"/>
    <tag k="oneway" v="yes"/>
    <tag k="source" v="nearmap"/>
    <tag k="source:maxspeed" v="state_limit"/>
  </way>
  <way id="51479873" version="5" timestamp="2012-07-19T21:40:41Z" uid="722137" user="OSMF Redaction Account" changeset="12348758"/>
</osm>
