<?xml version='1.0' encoding='UTF-8'?>
<osm version="0.6" generator="libosmium/2.20.0">
  <way id="51779879" version="3" timestamp="2011-02-10T11:47:24Z" uid="171838" user="argrath" changeset="7244633">
    <nd ref="660740054"/>
    <nd ref="660740055"/>
    <nd ref="660740056"/>
    <nd ref="660740057"/>
    <nd ref="660740054"/>
    <tag k="building" v="yes"/>
    <tag k="name" v="セブン・イレブン"/>
    <tag k="operator" v="セブン・イレブン"/>
    <tag k="shop" v="convenience"/>
    <tag k="source" v="Bing"/>
  </way>
  <way id="51779880" version="3" timestamp="2011-02-10T11:47:23Z" uid="171838" user="argrath" changeset="7244633">
    <nd ref="660740058"/>
    <nd ref="660740059"/>
    <nd ref="660740060"/>
    <nd ref="660740061"/>
    <nd ref="660740058"/>
    <tag k="amenity" v="public_building"/>
    <tag k="building" v="yes"/>
    <tag k="name" v="ハローワーク神戸 (Hello Work Kobe)"/>
    <tag k="name:en" v="Hello Work Kobe"/>
    <tag k="name:ja" v="ハローワーク神戸"/>
    <tag k="source" v="Bing"/>
  </way>
  <way id="51779882" version="3" timestamp="2011-02-10T12:16:54Z" uid="171838" user="argrath" changeset="7244851">
    <nd ref="660740066"/>
    <nd ref="660740067"/>
    <nd ref="660740068"/>
    <nd ref="660740069"/>
    <nd ref="1145356208"/>
    <nd ref="1145356207"/>
    <nd ref="660740066"/>
    <tag k="building" v="yes"/>
    <tag k="name" v="MOSAIC"/>
    <tag k="shop" v="mall"/>
    <tag k="source" v="Bing"/>
  </way>
  <way id="51779882" version="4" timestamp="2011-02-11T06:14:23Z" uid="101460" user="nogajun" changeset="7252174">
    <nd ref="660740066"/>
    <nd ref="660740067"/>
    <nd ref="660740068"/>
    <nd ref="1146738183"/>
    <nd ref="660740069"/>
    <nd ref="1145356208"/>
    <nd ref="1145356207"/>
    <nd ref="660740066"/>
    <tag k="building" v="yes"/>
    <tag k="name" v="MOSAIC"/>
    <tag k="shop" v="mall"/>
    <tag k="source" v="Bing"/>
  </way>
  <way id="51779882" version="5" timestamp="2011-02-12T06:34:07Z" uid="69966" user="ikiya" changeset="7261689">
    <nd ref="660740067"/>
    <nd ref="660740068"/>
    <nd ref="1146738183"/>
    <nd ref="660740069"/>
    <nd ref="1148580790"/>
    <nd ref="1148580964"/>
    <nd ref="1148581083"/>
    <nd ref="1148580720"/>
    <nd ref="1148580805"/>
    <nd ref="1148581109"/>
    <nd ref="1148580919"/>
    <nd ref="660740067"/>
    <tag k="building" v="yes"/>
    <tag k="name" v="MOSAIC"/>
    <tag k="shop" v="mall"/>
    <tag k="source" v="Bing"/>
  </way>
  <way id="51779884" version="3" timestamp="2011-02-10T11:47:29Z" uid="171838" user="argrath" changeset="7244633">
    <nd ref="660740074"/>
    <nd ref="1145341073"/>
    <nd ref="1145341074"/>
    <nd ref="1145341081"/>
    <nd ref="1145341080"/>
    <nd ref="1145341079"/>
    <nd ref="1145341078"/>
    <nd ref="1145341077"/>
    <nd ref="1145341076"/>
    <nd ref="1145341075"/>
    <nd ref="660740075"/>
    <nd ref="660740076"/>
    <nd ref="660740077"/>
    <nd ref="660740078"/>
    <nd ref="660740079"/>
    <nd ref="660740080"/>
    <nd ref="660740081"/>
    <nd ref="660740082"/>
    <nd ref="660740083"/>
    <nd ref="660740074"/>
    <tag k="building" v="yes"/>
    <tag k="name" v="阪急Ha*Re (Hankyu Ha*Re)"/>
    <tag k="name:en" v="Hankyu Ha*Re"/>
    <tag k="name:ja" v="阪急Ha*Re"/>
    <tag k="shop" v="department_store"/>
  </way>
  <way id="51779884" version="4" timestamp="2011-02-11T06:14:22Z" uid="101460" user="nogajun" changeset="7252174">
    <nd ref="660740074"/>
    <nd ref="1145341073"/>
    <nd ref="1145341074"/>
    <nd ref="1145341081"/>
    <nd ref="1146738180"/>
    <nd ref="1145341080"/>
    <nd ref="1145341079"/>
    <nd ref="1145341078"/>
    <nd ref="1145341077"/>
    <nd ref="1145341076"/>
    <nd ref="1145341075"/>
    <nd ref="660740075"/>
    <nd ref="660740076"/>
    <nd ref="660740077"/>
    <nd ref="660740078"/>
    <nd ref="660740079"/>
    <nd ref="660740080"/>
    <nd ref="660740081"/>
    <nd ref="1146738184"/>
    <nd ref="660740082"/>
    <nd ref="660740083"/>
    <nd ref="660740074"/>
    <tag k="building" v="yes"/>
    <tag k="name" v="キャナルガーデン Ha*Re (Canal Garden Ha*Re)"/>
    <tag k="name:en" v="Canal Garden Ha*Re"/>
    <tag k="name:ja" v="キャナルガーデンHa*Re"/>
    <tag k="opening_hours" v="10:00 - 21:00"/>
    <tag k="shop" v="mall"/>
  </way>
  <way id="51779884" version="5" timestamp="2011-02-12T16:44:42Z" uid="101460" user="nogajun" changeset="7266695">
    <nd ref="660740074"/>
    <nd ref="1145341073"/>
    <nd ref="1145341074"/>
    <nd ref="1145341081"/>
    <nd ref="1146738180"/>
    <nd ref="1145341080"/>
    <nd ref="1145341079"/>
    <nd ref="1145341078"/>
    <nd ref="1145341077"/>
    <nd ref="1145341076"/>
    <nd ref="1145341075"/>
    <nd ref="660740075"/>
    <nd ref="660740076"/>
    <nd ref="660740077"/>
    <nd ref="660740078"/>
    <nd ref="660740079"/>
    <nd ref="660740080"/>
    <nd ref="1149248326"/>
    <nd ref="660740081"/>
    <nd ref="1146738184"/>
    <nd ref="660740082"/>
    <nd ref="660740083"/>
    <nd ref="660740074"/>
    <tag k="building" v="yes"/>
    <tag k="name" v="キャナルガーデン Ha*Re (Canal Garden Ha*Re)"/>
    <tag k="name:en" v="Canal Garden Ha*Re"/>
    <tag k="name:ja" v="キャナルガーデンHa*Re"/>
    <tag k="opening_hours" v="10:00 - 21:00"/>
    <tag k="shop" v="mall"/>
  </way>
  <way id="51779885" version="2" timestamp="2011-02-10T12:16:50Z" uid="171838" user="argrath" changeset="7244851">
    <nd ref="660740084"/>
    <nd ref="660740085"/>
    <nd ref="660740086"/>
    <nd ref="660740087"/>
    <nd ref="660740084"/>
    <tag k="building" v="yes"/>
    <tag k="name" v="Promena 神戸 / 神戸ガスビル (Promena Kobe / Kobe Gas Building)"/>
    <tag k="name:en" v="Promena Kobe / Kobe Gas Building"/>
    <tag k="name:ja" v="Promena 神戸 / 神戸ガスビル"/>
    <tag k="source" v="Bing"/>
  </way>
  <way id="51779885" version="3" timestamp="2011-02-11T06:14:24Z" uid="101460" user="nogajun" changeset="7252174">
    <nd ref="660740084"/>
    <nd ref="660740085"/>
    <nd ref="660740086"/>
    <nd ref="1146738182"/>
    <nd ref="660740087"/>
    <nd ref="660740084"/>
    <tag k="building" v="yes"/>
    <tag k="name" v="Promena 神戸 / 神戸ガスビル (Promena Kobe / Kobe Gas Building)"/>
    <tag k="name:en" v="Promena Kobe / Kobe Gas Building"/>
    <tag k="name:ja" v="Promena 神戸 / 神戸ガスビル"/>
    <tag k="source" v="Bing"/>
  </way>
  <way id="51779885" version="4" timestamp="2011-02-12T16:44:40Z" uid="101460" user="nogajun" changeset="7266695">
    <nd ref="660740084"/>
    <nd ref="1149248327"/>
    <nd ref="660740085"/>
    <nd ref="660740086"/>
    <nd ref="1146738182"/>
    <nd ref="660740087"/>
    <nd ref="660740084"/>
    <tag k="building" v="yes"/>
    <tag k="name" v="Promena 神戸 / 神戸ガスビル (Promena Kobe / Kobe Gas Building)"/>
    <tag k="name:en" v="Promena Kobe / Kobe Gas Building"/>
    <tag k="name:ja" v="Promena 神戸 / 神戸ガスビル"/>
    <tag k="source" v="Bing"/>
  </way>
  <way id="51779886" version="2" timestamp="2011-02-10T12:16:50Z" uid="171838" user="argrath" changeset="7244851">
    <nd ref="660740088"/>
    <nd ref="660740089"/>
    <nd ref="660740090"/>
    <nd ref="660740091"/>
    <nd ref="660740088"/>
    <tag k="amenity" v="parking"/>
    <tag k="building" v="yes"/>
    <tag k="name" v="ハーバーパーク (Harbor Park)"/>
    <tag k="name:en" v="Harbor Park"/>
    <tag k="name:ja" v="ハーバーパーク"/>
    <tag k="source" v="Bing"/>
  </way>
  <way id="51779887" version="2" timestamp="2011-02-10T12:16:49Z" uid="171838" user="argrath" changeset="7244851">
    <nd ref="660740092"/>
    <nd ref="660740093"/>
    <nd ref="660740094"/>
    <nd ref="660740095"/>
    <nd ref="660740092"/>
    <tag k="amenity" v="parking"/>
    <tag k="building" v="yes"/>
    <tag k="name" v="ダイヤパーキング (Dia Parking)"/>
    <tag k="name:en" v="Dia Parking"/>
    <tag k="name:ja" v="ダイヤパーキング"/>
    <tag k="source" v="Bing"/>
  </way>
  <way id="51779887" version="3" timestamp="2011-02-11T06:14:23Z" uid="101460" user="nogajun" changeset="7252174">
    <nd ref="660740092"/>
    <nd ref="660740093"/>
    <nd ref="660740094"/>
    <nd ref="1146738179"/>
    <nd ref="660740095"/>
    <nd ref="660740092"/>
    <tag k="amenity" v="parking"/>
    <tag k="building" v="yes"/>
    <tag k="name" v="ダイヤパーキング (Dia Parking)"/>
    <tag k="name:en" v="Dia Parking"/>
    <tag k="name:ja" v="ダイヤパーキング"/>
    <tag k="source" v="Bing"/>
  </way>
  <way id="51779888" version="2" timestamp="2011-02-10T11:47:21Z" uid="171838" user="argrath" changeset="7244633">
    <nd ref="660740096"/>
    <nd ref="660740097"/>
    <nd ref="660740098"/>
    <nd ref="660740099"/>
    <nd ref="660740100"/>
    <nd ref="660740101"/>
    <nd ref="660740096"/>
    <tag k="building" v="yes"/>
    <tag k="name" v="HDCハウジングデザインセンター (HDC Housing Design Center)"/>
    <tag k="name:en" v="HDC Housing Design Center"/>
    <tag k="name:ja" v="HDCハウジングデザインセンター"/>
    <tag k="source" v="Bing"/>
  </way>
  <way id="51779892" version="2" timestamp="2011-02-09T14:53:02Z" uid="171838" user="argrath" changeset="7236744">
    <nd ref="660740112"/>
    <nd ref="1143889905"/>
    <nd ref="1143889912"/>
    <nd ref="1143889915"/>
    <nd ref="660740113"/>
    <nd ref="660740114"/>
    <nd ref="660740115"/>
    <nd ref="660740117"/>
    <nd ref="1143889897"/>
    <nd ref="1143889894"/>
    <nd ref="660740118"/>
    <nd ref="1143889890"/>
    <nd ref="1143889887"/>
    <nd ref="660740119"/>
    <nd ref="1143889921"/>
    <nd ref="1143889923"/>
    <nd ref="1143889937"/>
    <nd ref="1143889925"/>
    <nd ref="1143889918"/>
    <nd ref="660740112"/>
    <tag k="building" v="yes"/>
    <tag k="name" v="CULMENI"/>
    <tag k="shop" v="mall"/>
    <tag k="source" v="Bing"/>
  </way>
  <way id="51779893" version="2" timestamp="2011-02-10T12:16:51Z" uid="171838" user="argrath" changeset="7244851">
    <nd ref="660740120"/>
    <nd ref="660740121"/>
    <nd ref="660740122"/>
    <nd ref="1145356173"/>
    <nd ref="660740120"/>
    <tag k="building" v="yes"/>
    <tag k="name" v="Partire Kobe Wedding Village"/>
    <tag k="source" v="Bing"/>
  </way>
  <way id="51779900" version="2" timestamp="2011-02-11T09:48:30Z" uid="171838" user="argrath" changeset="7253425">
    <nd ref="660740158"/>
    <nd ref="660740159"/>
    <nd ref="1146984004"/>
    <tag k="highway" v="unclassified"/>
    <tag k="source" v="Bing"/>
  </way>
  <way id="51779900" version="3" timestamp="2011-02-19T16:26:35Z" uid="101460" user="nogajun" changeset="7333607">
    <nd ref="660740158"/>
    <nd ref="1161637481"/>
    <nd ref="660740159"/>
    <nd ref="1146984004"/>
    <tag k="highway" v="unclassified"/>
    <tag k="source" v="Bing"/>
  </way>
  <way id="51779901" version="3" timestamp="2011-02-10T12:16:52Z" uid="171838" user="argrath" changeset="7244851">
    <nd ref="660740160"/>
    <nd ref="660740161"/>
    <nd ref="660740162"/>
    <nd ref="1145356179"/>
    <nd ref="1145356180"/>
    <nd ref="660740163"/>
    <nd ref="660740160"/>
    <tag k="amenity" v="post_office"/>
    <tag k="atm" v="yes"/>
    <tag k="building" v="yes"/>
    <tag k="name" v="神戸中央郵便局 (Kobe Chuo Post Office)"/>
    <tag k="name:en" v="Kobe Chuo Post Office"/>
    <tag k="name:ja" v="神戸中央郵便局"/>
    <tag k="source" v="Bing"/>
  </way>
  <way id="51779903" version="2" timestamp="2011-02-10T11:47:22Z" uid="171838" user="argrath" changeset="7244633">
    <nd ref="660740181"/>
    <nd ref="660740182"/>
    <nd ref="660740183"/>
    <tag k="highway" v="unclassified"/>
    <tag k="source" v="Bing"/>
  </way>
  <way id="51779879" version="4" timestamp="2012-07-21T13:36:28Z" uid="722137" user="OSMF Redaction Account" changeset="12410316">
    <nd ref="660740054"/>
    <nd ref="660740055"/>
    <nd ref="660740056"/>
    <nd ref="660740057"/>
    <nd ref="660740054"/>
    <tag k="building" v="yes"/>
    <tag k="name" v="セブン・イレブン"/>
    <tag k="operator" v="セブン・イレブン"/>
    <tag k="shop" v="convenience"/>
  </way>
  <way id="51779880" version="4" timestamp="2012-07-21T13:36:29Z" uid="722137" user="OSMF Redaction Account" changeset="12410316">
    <nd ref="660740058"/>
    <nd ref="660740059"/>
    <nd ref="660740060"/>
    <nd ref="660740061"/>
    <nd ref="660740058"/>
    <tag k="amenity" v="public_building"/>
    <tag k="building" v="yes"/>
    <tag k="name" v="ハローワーク神戸 (Hello Work Kobe)"/>
    <tag k="name:en" v="Hello Work Kobe"/>
    <tag k="name:ja" v="ハローワーク神戸"/>
  </way>
  <way id="51779882" version="6" timestamp="2012-07-21T13:36:26Z" uid="722137" user="OSMF Redaction Account" changeset="12410316">
    <nd ref="660740067"/>
    <nd ref="660740068"/>
    <nd ref="1146738183"/>
    <nd ref="660740069"/>
    <nd ref="1148580790"/>
    <nd ref="1148580964"/>
    <nd ref="1148581083"/>
    <nd ref="1148580720"/>
    <nd ref="1148580805"/>
    <nd ref="1148581109"/>
    <nd ref="1148580919"/>
    <nd ref="660740067"/>
    <tag k="building" v="yes"/>
    <tag k="name" v="MOSAIC"/>
    <tag k="shop" v="mall"/>
  </way>
  <way id="51779884" version="6" timestamp="2012-07-21T13:36:09Z" uid="722137" user="OSMF Redaction Account" changeset="12410316">
    <nd ref="660740074"/>
    <nd ref="1146738180"/>
    <nd ref="660740075"/>
    <nd ref="660740076"/>
    <nd ref="660740077"/>
    <nd ref="660740078"/>
    <nd ref="660740079"/>
    <nd ref="660740080"/>
    <nd ref="1149248326"/>
    <nd ref="660740081"/>
    <nd ref="1146738184"/>
    <nd ref="660740082"/>
    <nd ref="660740083"/>
    <nd ref="660740074"/>
    <tag k="building" v="yes"/>
    <tag k="name" v="キャナルガーデン Ha*Re (Canal Garden Ha*Re)"/>
    <tag k="name:en" v="Canal Garden Ha*Re"/>
    <tag k="name:ja" v="キャナルガーデンHa*Re"/>
    <tag k="opening_hours" v="10:00 - 21:00"/>
    <tag k="shop" v="mall"/>
  </way>
  <way id="51779885" version="5" timestamp="2012-07-21T13:36:27Z" uid="722137" user="OSMF Redaction Account" changeset="12410316">
    <nd ref="660740084"/>
    <nd ref="1149248327"/>
    <nd ref="660740085"/>
    <nd ref="660740086"/>
    <nd ref="1146738182"/>
    <nd ref="660740087"/>
    <nd ref="660740084"/>
    <tag k="building" v="yes"/>
    <tag k="name" v="Promena 神戸 / 神戸ガスビル (Promena Kobe / Kobe Gas Building)"/>
    <tag k="name:en" v="Promena Kobe / Kobe Gas Building"/>
    <tag k="name:ja" v="Promena 神戸 / 神戸ガスビル"/>
  </way>
  <way id="51779886" version="3" timestamp="2012-07-21T13:36:27Z" uid="722137" user="OSMF Redaction Account" changeset="12410316">
    <nd ref="660740088"/>
    <nd ref="660740089"/>
    <nd ref="660740090"/>
    <nd ref="660740091"/>
    <nd ref="660740088"/>
    <tag k="amenity" v="parking"/>
    <tag k="building" v="yes"/>
    <tag k="name" v="ハーバーパーク (Harbor Park)"/>
    <tag k="name:en" v="Harbor Park"/>
    <tag k="name:ja" v="ハーバーパーク"/>
  </way>
  <way id="51779887" version="4" timestamp="2012-07-21T13:36:28Z" uid="722137" user="OSMF Redaction Account" changeset="12410316">
    <nd ref="660740092"/>
    <nd ref="660740093"/>
    <nd ref="660740094"/>
    <nd ref="1146738179"/>
    <nd ref="660740095"/>
    <nd ref="660740092"/>
    <tag k="amenity" v="parking"/>
    <tag k="building" v="yes"/>
    <tag k="name" v="ダイヤパーキング (Dia Parking)"/>
    <tag k="name:en" v="Dia Parking"/>
    <tag k="name:ja" v="ダイヤパーキング"/>
  </way>
  <way id="51779888" version="3" timestamp="2012-07-21T13:36:27Z" uid="722137" user="OSMF Redaction Account" changeset="12410316">
    <nd ref="660740096"/>
    <nd ref="660740097"/>
    <nd ref="660740098"/>
    <nd ref="660740099"/>
    <nd ref="660740100"/>
    <nd ref="660740101"/>
    <nd ref="660740096"/>
    <tag k="building" v="yes"/>
    <tag k="name" v="HDCハウジングデザインセンター (HDC Housing Design Center)"/>
    <tag k="name:en" v="HDC Housing Design Center"/>
    <tag k="name:ja" v="HDCハウジングデザインセンター"/>
  </way>
  <way id="51779892" version="3" timestamp="2012-07-21T13:36:10Z" uid="722137" user="OSMF Redaction Account" changeset="12410316">
    <nd ref="660740112"/>
    <nd ref="660740113"/>
    <nd ref="660740114"/>
    <nd ref="660740115"/>
    <nd ref="660740117"/>
    <nd ref="660740118"/>
    <nd ref="660740119"/>
    <nd ref="660740112"/>
    <tag k="building" v="yes"/>
    <tag k="name" v="CULMENI"/>
    <tag k="shop" v="mall"/>
  </way>
  <way id="51779893" version="3" timestamp="2012-07-21T13:36:09Z" uid="722137" user="OSMF Redaction Account" changeset="12410316">
    <nd ref="660740120"/>
    <nd ref="660740121"/>
    <nd ref="660740122"/>
    <nd ref="660740120"/>
    <tag k="building" v="yes"/>
    <tag k="name" v="Partire Kobe Wedding Village"/>
  </way>
  <way id="51779900" version="4" timestamp="2012-07-21T13:36:08Z" uid="722137" user="OSMF Redaction Account" changeset="12410316">
    <nd ref="660740158"/>
    <nd ref="1161637481"/>
    <nd ref="660740159"/>
    <tag k="highway" v="unclassified"/>
  </way>
  <way id="51779901" version="4" timestamp="2012-07-21T13:36:09Z" uid="722137" user="OSMF Redaction Account" changeset="12410316">
    <nd ref="660740160"/>
    <nd ref="660740161"/>
    <nd ref="660740162"/>
    <nd ref="660740163"/>
    <nd ref="660740160"/>
    <tag k="amenity" v="post_office"/>
    <tag k="atm" v="yes"/>
    <tag k="building" v="yes"/>
    <tag k="name" v="神戸中央郵便局 (Kobe Chuo Post Office)"/>
    <tag k="name:en" v="Kobe Chuo Post Office"/>
    <tag k="name:ja" v="神戸中央郵便局"/>
  </way>
  <way id="51779903" version="3" timestamp="2012-07-21T13:36:29Z" uid="722137" user="OSMF Redaction Account" changeset="12410316">
    <nd ref="660740181"/>
    <nd ref="660740182"/>
    <nd ref="660740183"/>
    <tag k="highway" v="unclassified"/>
  </way>
</osm>
