<?xml version='1.0' encoding='UTF-8'?>
<osm version="0.6" generator="libosmium/2.20.0">
  <way id="51807236" version="2" timestamp="2011-02-25T08:52:54Z" uid="115477" user="wowik" changeset="7388402">
    <nd ref="660956549"/>
    <nd ref="660956550"/>
    <nd ref="660956551"/>
    <nd ref="660956552"/>
    <nd ref="660956549"/>
    <tag k="addr:street" v="3-й Митинский проезд"/>
    <tag k="building" v="yes"/>
    <tag k="building:levels" v="1"/>
  </way>
  <way id="51807236" version="3" timestamp="2011-10-10T16:20:51Z" uid="433361" user="Dima M" changeset="9523234">
    <nd ref="660956549"/>
    <nd ref="660956550"/>
    <nd ref="660956551"/>
    <nd ref="660956552"/>
    <nd ref="660956549"/>
    <tag k="addr:street" v="3-й Митинский переулок"/>
    <tag k="building" v="yes"/>
    <tag k="building:levels" v="1"/>
  </way>
  <way id="51807236" version="4" timestamp="2012-03-27T16:55:10Z" uid="481934" user="iWowik" changeset="11118068">
    <nd ref="660956549"/>
    <nd ref="660956550"/>
    <nd ref="660956551"/>
    <nd ref="660956552"/>
    <nd ref="660956549"/>
    <tag k="addr:city" v="Москва"/>
    <tag k="addr:country" v="RU"/>
    <tag k="addr:street" v="3-й Митинский переулок"/>
    <tag k="building" v="yes"/>
    <tag k="building:levels" v="1"/>
  </way>
  <way id="51807278" version="2" timestamp="2010-03-22T07:37:05Z" uid="20587" user="balrog-kun" changeset="4199043">
    <nd ref="40446272"/>
    <nd ref="660956796"/>
    <nd ref="660956797"/>
    <tag k="bicycle" v="designated"/>
    <tag k="cycleway" v="track"/>
    <tag k="foot" v="yes"/>
    <tag k="highway" v="cycleway"/>
    <tag k="name" v="Southeast Vera Katz Esplanade; Eastbank Esplanade"/>
    <tag k="oneway" v="yes"/>
    <tag k="tiger:cfcc" v="A71"/>
    <tag k="tiger:county" v="Multnomah, OR"/>
    <tag k="tiger:name_base" v="Eastbank Esplanade"/>
    <tag k="tiger:source" v="tiger_import_dch_v0.6_20070808"/>
    <tag k="tiger:tlid" v="157592723:157590681:157590682:157590683:157590721:157590726:157607400:157590684:157607605"/>
  </way>
  <way id="51807278" version="3" timestamp="2010-05-28T02:11:14Z" uid="92286" user="Paul Johnson" changeset="4827272">
    <nd ref="40446272"/>
    <nd ref="660956796"/>
    <nd ref="660956797"/>
    <tag k="bicycle" v="designated"/>
    <tag k="foot" v="yes"/>
    <tag k="highway" v="path"/>
    <tag k="name" v="Southeast Vera Katz Esplanade; Eastbank Esplanade"/>
    <tag k="oneway" v="yes"/>
    <tag k="tiger:cfcc" v="A71"/>
    <tag k="tiger:county" v="Multnomah, OR"/>
    <tag k="tiger:name_base" v="Eastbank Esplanade"/>
    <tag k="tiger:source" v="tiger_import_dch_v0.6_20070808"/>
    <tag k="tiger:tlid" v="157592723:157590681:157590682:157590683:157590721:157590726:157607400:157590684:157607605"/>
  </way>
  <way id="51807278" version="4" timestamp="2011-05-06T23:48:00Z" uid="372357" user="PJ Houser" changeset="8069925"/>
  <way id="51807279" version="2" timestamp="2010-03-22T07:37:05Z" uid="20587" user="balrog-kun" changeset="4199043">
    <nd ref="301502760"/>
    <nd ref="660956795"/>
    <nd ref="40446272"/>
    <tag k="bicycle" v="designated"/>
    <tag k="cycleway" v="track"/>
    <tag k="foot" v="yes"/>
    <tag k="highway" v="cycleway"/>
    <tag k="name" v="Southeast Vera Katz Esplanade; Eastbank Esplanade"/>
    <tag k="oneway" v="yes"/>
    <tag k="tiger:cfcc" v="A71"/>
    <tag k="tiger:county" v="Multnomah, OR"/>
    <tag k="tiger:name_base" v="Eastbank Esplanade"/>
    <tag k="tiger:source" v="tiger_import_dch_v0.6_20070808"/>
    <tag k="tiger:tlid" v="157592723:157590681:157590682:157590683:157590721:157590726:157607400:157590684:157607605"/>
  </way>
  <way id="51807279" version="3" timestamp="2010-05-28T02:11:11Z" uid="92286" user="Paul Johnson" changeset="4827272">
    <nd ref="301502760"/>
    <nd ref="660956795"/>
    <nd ref="40446272"/>
    <tag k="bicycle" v="designated"/>
    <tag k="foot" v="yes"/>
    <tag k="highway" v="path"/>
    <tag k="name" v="Southeast Vera Katz Esplanade; Eastbank Esplanade"/>
    <tag k="oneway" v="yes"/>
    <tag k="tiger:cfcc" v="A71"/>
    <tag k="tiger:county" v="Multnomah, OR"/>
    <tag k="tiger:name_base" v="Eastbank Esplanade"/>
    <tag k="tiger:source" v="tiger_import_dch_v0.6_20070808"/>
    <tag k="tiger:tlid" v="157592723:157590681:157590682:157590683:157590721:157590726:157607400:157590684:157607605"/>
  </way>
  <way id="51807279" version="4" timestamp="2011-05-06T23:47:50Z" uid="372357" user="PJ Houser" changeset="8069925">
    <nd ref="660956797"/>
    <nd ref="301502760"/>
    <nd ref="1275058501"/>
    <tag k="RLIS:reviewed" v="no"/>
    <tag k="RLIS:systemname" v="Willamette Greenway"/>
    <tag k="RLIS:systemtype" v="Regional"/>
    <tag k="RLIS:trailid" v="6782"/>
    <tag k="bicycle" v="designated"/>
    <tag k="highway" v="path"/>
    <tag k="name" v="Willamette Greenway"/>
    <tag k="surface" v="paved"/>
  </way>
  <way id="51807279" version="5" timestamp="2011-06-13T03:08:31Z" uid="92286" user="Paul Johnson" changeset="8421622"/>
  <way id="51807305" version="2" timestamp="2010-03-22T07:37:05Z" uid="20587" user="balrog-kun" changeset="4199043">
    <nd ref="40491891"/>
    <nd ref="40491893"/>
    <nd ref="40491895"/>
    <nd ref="40491898"/>
    <nd ref="333521151"/>
    <nd ref="40491899"/>
    <nd ref="40491900"/>
    <nd ref="40491901"/>
    <nd ref="333521628"/>
    <nd ref="40491904"/>
    <nd ref="40491907"/>
    <nd ref="40491910"/>
    <nd ref="40491913"/>
    <nd ref="40491916"/>
    <nd ref="40491918"/>
    <nd ref="40491921"/>
    <nd ref="40491925"/>
    <nd ref="40491926"/>
    <nd ref="40491928"/>
    <nd ref="40491931"/>
    <nd ref="40491934"/>
    <nd ref="40491939"/>
    <nd ref="40491942"/>
    <nd ref="40491945"/>
    <tag k="highway" v="residential"/>
    <tag k="name" v="Southeast Ambleside Drive"/>
    <tag k="tiger:cfcc" v="A41"/>
    <tag k="tiger:county" v="Multnomah, OR"/>
    <tag k="tiger:name_base" v="Ambleside"/>
    <tag k="tiger:name_direction_prefix" v="SE"/>
    <tag k="tiger:reviewed" v="no"/>
    <tag k="tiger:separated" v="no"/>
    <tag k="tiger:source" v="tiger_import_dch_v0.6_20070808"/>
    <tag k="tiger:tlid" v="157569467:157569456:157604306"/>
    <tag k="tiger:zip_left" v="97080"/>
    <tag k="tiger:zip_right" v="97080"/>
  </way>
  <way id="51807305" version="3" timestamp="2011-08-24T02:26:26Z" uid="372357" user="PJ Houser" changeset="9108934"/>
  <way id="51807316" version="3" timestamp="2010-07-08T09:24:20Z" uid="74617" user="JohnSmith" changeset="5164427">
    <nd ref="660956910"/>
    <nd ref="660956911"/>
    <tag k="highway" v="residential"/>
    <tag k="maxspeed" v="50"/>
    <tag k="maxspeed:source" v="default residential speed limit in Australia"/>
    <tag k="name" v="O&apos;Shanesy Street"/>
    <tag k="source" v="survey"/>
  </way>
  <way id="51807316" version="4" timestamp="2012-01-20T03:24:34Z" uid="147510" user="woodpeck_fixbot" changeset="10442986">
    <nd ref="660956910"/>
    <nd ref="660956911"/>
    <tag k="highway" v="residential"/>
    <tag k="name" v="O&apos;Shanesy Street"/>
    <tag k="source" v="survey"/>
  </way>
  <way id="51807317" version="2" timestamp="2010-07-08T09:22:58Z" uid="74617" user="JohnSmith" changeset="5164427">
    <nd ref="660956901"/>
    <nd ref="660956902"/>
    <nd ref="660956903"/>
    <nd ref="660956904"/>
    <nd ref="660956905"/>
    <nd ref="660956906"/>
    <nd ref="660956910"/>
    <nd ref="660956907"/>
    <nd ref="660956908"/>
    <nd ref="660956909"/>
    <nd ref="660956885"/>
    <nd ref="660956886"/>
    <nd ref="660956887"/>
    <nd ref="660956888"/>
    <nd ref="660956889"/>
    <nd ref="660956890"/>
    <nd ref="660956891"/>
    <nd ref="660956892"/>
    <nd ref="660956893"/>
    <nd ref="660956894"/>
    <nd ref="660956895"/>
    <nd ref="660956896"/>
    <nd ref="660956897"/>
    <nd ref="660956898"/>
    <nd ref="660956878"/>
    <tag k="highway" v="residential"/>
    <tag k="maxspeed" v="50"/>
    <tag k="maxspeed:source" v="default residential speed limit in Australia"/>
    <tag k="name" v="O&apos;Shanesy Street"/>
    <tag k="source" v="survey"/>
  </way>
  <way id="51807317" version="3" timestamp="2012-01-20T03:24:35Z" uid="147510" user="woodpeck_fixbot" changeset="10442986">
    <nd ref="660956901"/>
    <nd ref="660956902"/>
    <nd ref="660956903"/>
    <nd ref="660956904"/>
    <nd ref="660956905"/>
    <nd ref="660956906"/>
    <nd ref="660956910"/>
    <nd ref="660956907"/>
    <nd ref="660956908"/>
    <nd ref="660956909"/>
    <nd ref="660956885"/>
    <nd ref="660956886"/>
    <nd ref="660956887"/>
    <nd ref="660956888"/>
    <nd ref="660956889"/>
    <nd ref="660956890"/>
    <nd ref="660956891"/>
    <nd ref="660956892"/>
    <nd ref="660956893"/>
    <nd ref="660956894"/>
    <nd ref="660956895"/>
    <nd ref="660956896"/>
    <nd ref="660956897"/>
    <nd ref="660956898"/>
    <nd ref="660956878"/>
    <tag k="highway" v="residential"/>
    <tag k="name" v="O&apos;Shanesy Street"/>
    <tag k="source" v="survey"/>
  </way>
  <way id="51807318" version="2" timestamp="2010-07-08T09:18:52Z" uid="74617" user="JohnSmith" changeset="5164427">
    <nd ref="660956882"/>
    <nd ref="660956883"/>
    <nd ref="660956898"/>
    <tag k="highway" v="residential"/>
    <tag k="maxspeed" v="50"/>
    <tag k="maxspeed:source" v="default residential speed limit in Australia"/>
    <tag k="name" v="Hinton Street"/>
    <tag k="source" v="survey"/>
  </way>
  <way id="51807318" version="3" timestamp="2012-01-20T03:24:37Z" uid="147510" user="woodpeck_fixbot" changeset="10442986">
    <nd ref="660956882"/>
    <nd ref="660956883"/>
    <nd ref="660956898"/>
    <tag k="highway" v="residential"/>
    <tag k="name" v="Hinton Street"/>
    <tag k="source" v="survey"/>
  </way>
  <way id="51807319" version="2" timestamp="2010-07-08T09:17:24Z" uid="74617" user="JohnSmith" changeset="5164427">
    <nd ref="660956883"/>
    <nd ref="660956912"/>
    <tag k="highway" v="residential"/>
    <tag k="maxspeed" v="50"/>
    <tag k="maxspeed:source" v="default residential speed limit in Australia"/>
    <tag k="name" v="Gott Street"/>
    <tag k="source" v="survey"/>
  </way>
  <way id="51807319" version="3" timestamp="2012-01-20T03:24:38Z" uid="147510" user="woodpeck_fixbot" changeset="10442986">
    <nd ref="660956883"/>
    <nd ref="660956912"/>
    <tag k="highway" v="residential"/>
    <tag k="name" v="Gott Street"/>
    <tag k="source" v="survey"/>
  </way>
  <way id="51807320" version="2" timestamp="2010-07-08T09:19:18Z" uid="74617" user="JohnSmith" changeset="5164427">
    <nd ref="660956884"/>
    <nd ref="660956878"/>
    <nd ref="660956879"/>
    <nd ref="660956880"/>
    <nd ref="660956881"/>
    <nd ref="660956899"/>
    <tag k="highway" v="residential"/>
    <tag k="maxspeed" v="50"/>
    <tag k="maxspeed:source" v="default residential speed limit in Australia"/>
    <tag k="name" v="Kavanagh Crescent"/>
    <tag k="source" v="survey"/>
  </way>
  <way id="51807320" version="3" timestamp="2012-01-20T03:24:40Z" uid="147510" user="woodpeck_fixbot" changeset="10442986">
    <nd ref="660956884"/>
    <nd ref="660956878"/>
    <nd ref="660956879"/>
    <nd ref="660956880"/>
    <nd ref="660956881"/>
    <nd ref="660956899"/>
    <tag k="highway" v="residential"/>
    <tag k="name" v="Kavanagh Crescent"/>
    <tag k="source" v="survey"/>
  </way>
  <way id="51807321" version="2" timestamp="2010-07-08T09:18:17Z" uid="74617" user="JohnSmith" changeset="5164427">
    <nd ref="660956921"/>
    <nd ref="660956925"/>
    <tag k="highway" v="residential"/>
    <tag k="maxspeed" v="50"/>
    <tag k="maxspeed:source" v="default residential speed limit in Australia"/>
    <tag k="name" v="Moss Court"/>
    <tag k="source" v="survey"/>
  </way>
  <way id="51807321" version="3" timestamp="2012-01-20T03:24:41Z" uid="147510" user="woodpeck_fixbot" changeset="10442986">
    <nd ref="660956921"/>
    <nd ref="660956925"/>
    <tag k="highway" v="residential"/>
    <tag k="name" v="Moss Court"/>
    <tag k="source" v="survey"/>
  </way>
  <way id="51807236" version="5" timestamp="2012-07-20T21:13:39Z" uid="722137" user="OSMF Redaction Account" changeset="12392155">
    <nd ref="660956549"/>
    <nd ref="660956550"/>
    <nd ref="660956551"/>
    <nd ref="660956552"/>
    <nd ref="660956549"/>
    <tag k="addr:city" v="Москва"/>
    <tag k="addr:country" v="RU"/>
    <tag k="addr:street" v="3-й Митинский переулок"/>
    <tag k="building" v="yes"/>
  </way>
</osm>
