<?xml version='1.0' encoding='UTF-8'?>
<osm version="0.6" generator="libosmium/2.20.0">
  <way id="51892613" version="1" timestamp="2010-03-07T13:24:26Z" uid="7617" user="Franc" changeset="4060825">
    <nd ref="88645932"/>
    <nd ref="662196881"/>
    <nd ref="21398182"/>
    <nd ref="248743554"/>
    <nd ref="31393559"/>
    <nd ref="204516017"/>
    <nd ref="204521572"/>
    <nd ref="662196937"/>
    <nd ref="21398706"/>
    <nd ref="204516972"/>
    <nd ref="99693223"/>
    <nd ref="662196946"/>
    <nd ref="88639321"/>
    <tag k="highway" v="trunk"/>
    <tag k="name" v="Condamine Street"/>
    <tag k="ref" v="MR10"/>
    <tag k="source" v="survey"/>
    <tag k="source:name" v="survey"/>
  </way>
  <way id="51892613" version="2" timestamp="2010-03-31T07:47:56Z" uid="74617" user="JohnSmith" changeset="4283123"/>
  <way id="51892614" version="1" timestamp="2010-03-07T13:24:26Z" uid="7617" user="Franc" changeset="4060825">
    <nd ref="662196879"/>
    <nd ref="662196877"/>
    <nd ref="662196875"/>
    <nd ref="662196872"/>
    <nd ref="662196868"/>
    <nd ref="662196866"/>
    <tag k="highway" v="trunk"/>
    <tag k="name" v="Condamine Street"/>
    <tag k="oneway" v="yes"/>
    <tag k="ref" v="MR10"/>
    <tag k="restriction" v="school_zone"/>
  </way>
  <way id="51892614" version="2" timestamp="2010-03-31T07:47:54Z" uid="74617" user="JohnSmith" changeset="4283123">
    <nd ref="662196879"/>
    <nd ref="662196877"/>
    <nd ref="662196875"/>
    <nd ref="662196872"/>
    <nd ref="662196868"/>
    <nd ref="662196866"/>
    <tag k="highway" v="trunk"/>
    <tag k="name" v="Condamine Street"/>
    <tag k="oneway" v="yes"/>
    <tag k="restriction" v="school_zone"/>
  </way>
  <way id="51892614" version="3" timestamp="2010-06-28T07:48:44Z" uid="299678" user="peteramjet" changeset="5095437">
    <nd ref="662196879"/>
    <nd ref="662196877"/>
    <nd ref="662196875"/>
    <nd ref="662196872"/>
    <nd ref="662196868"/>
    <nd ref="662196866"/>
    <tag k="highway" v="trunk"/>
    <tag k="name" v="Condamine Street"/>
    <tag k="oneway" v="yes"/>
    <tag k="ref" v="MR10"/>
    <tag k="restriction" v="school_zone"/>
  </way>
  <way id="51892614" version="4" timestamp="2010-07-08T10:26:55Z" uid="299678" user="peteramjet" changeset="5164989">
    <nd ref="662196879"/>
    <nd ref="662196877"/>
    <nd ref="662196875"/>
    <nd ref="662196872"/>
    <nd ref="662196868"/>
    <nd ref="662196866"/>
    <tag k="highway" v="trunk"/>
    <tag k="name" v="Condamine Street"/>
    <tag k="oneway" v="yes"/>
    <tag k="restriction" v="school_zone"/>
  </way>
  <way id="51892614" version="5" timestamp="2012-02-02T01:38:50Z" uid="54784" user="Tom Hollander" changeset="10564136">
    <nd ref="662196879"/>
    <nd ref="662196877"/>
    <nd ref="662196875"/>
    <nd ref="662196872"/>
    <nd ref="662196868"/>
    <nd ref="662196866"/>
    <tag k="highway" v="trunk"/>
    <tag k="name" v="Condamine Street"/>
    <tag k="oneway" v="yes"/>
    <tag k="ref" v="MR10"/>
    <tag k="restriction" v="school_zone"/>
  </way>
  <way id="51892615" version="1" timestamp="2010-03-07T13:24:26Z" uid="7617" user="Franc" changeset="4060825">
    <nd ref="662209261"/>
    <nd ref="248743983"/>
    <nd ref="618542366"/>
    <tag k="highway" v="residential"/>
    <tag k="name" v="Quirk Road"/>
    <tag k="source:name" v="survey"/>
  </way>
  <way id="51892615" version="2" timestamp="2010-07-07T23:35:10Z" uid="74617" user="JohnSmith" changeset="5162525">
    <nd ref="662209261"/>
    <nd ref="248743983"/>
    <nd ref="618542366"/>
    <tag k="highway" v="residential"/>
    <tag k="maxspeed" v="50"/>
    <tag k="maxspeed:source" v="default residential speed limit in Australia"/>
    <tag k="name" v="Quirk Road"/>
    <tag k="source:name" v="survey"/>
  </way>
  <way id="51892615" version="3" timestamp="2012-01-20T03:29:17Z" uid="147510" user="woodpeck_fixbot" changeset="10442986">
    <nd ref="662209261"/>
    <nd ref="248743983"/>
    <nd ref="618542366"/>
    <tag k="highway" v="residential"/>
    <tag k="name" v="Quirk Road"/>
    <tag k="source:name" v="survey"/>
  </way>
  <way id="51892616" version="1" timestamp="2010-03-07T13:24:26Z" uid="7617" user="Franc" changeset="4060825">
    <nd ref="662196866"/>
    <nd ref="662196860"/>
    <nd ref="662196838"/>
    <nd ref="662196834"/>
    <nd ref="662196836"/>
    <nd ref="662196832"/>
    <nd ref="662196830"/>
    <nd ref="662196827"/>
    <nd ref="662196824"/>
    <nd ref="662196819"/>
    <tag k="highway" v="trunk"/>
    <tag k="name" v="Condamine Street"/>
    <tag k="oneway" v="yes"/>
    <tag k="ref" v="MR10"/>
  </way>
  <way id="51892616" version="2" timestamp="2010-03-31T07:47:54Z" uid="74617" user="JohnSmith" changeset="4283123">
    <nd ref="662196866"/>
    <nd ref="662196860"/>
    <nd ref="662196838"/>
    <nd ref="662196834"/>
    <nd ref="662196836"/>
    <nd ref="662196832"/>
    <nd ref="662196830"/>
    <nd ref="662196827"/>
    <nd ref="662196824"/>
    <nd ref="662196819"/>
    <tag k="highway" v="trunk"/>
    <tag k="name" v="Condamine Street"/>
    <tag k="oneway" v="yes"/>
  </way>
  <way id="51892616" version="3" timestamp="2010-06-28T07:48:45Z" uid="299678" user="peteramjet" changeset="5095437">
    <nd ref="662196866"/>
    <nd ref="662196860"/>
    <nd ref="662196838"/>
    <nd ref="662196834"/>
    <nd ref="662196836"/>
    <nd ref="662196832"/>
    <nd ref="662196830"/>
    <nd ref="662196827"/>
    <nd ref="662196824"/>
    <nd ref="662196819"/>
    <tag k="highway" v="trunk"/>
    <tag k="name" v="Condamine Street"/>
    <tag k="oneway" v="yes"/>
    <tag k="ref" v="MR10"/>
  </way>
  <way id="51892616" version="4" timestamp="2010-07-08T10:26:55Z" uid="299678" user="peteramjet" changeset="5164989">
    <nd ref="662196866"/>
    <nd ref="662196860"/>
    <nd ref="662196838"/>
    <nd ref="662196834"/>
    <nd ref="662196836"/>
    <nd ref="662196832"/>
    <nd ref="662196830"/>
    <nd ref="662196827"/>
    <nd ref="662196824"/>
    <nd ref="662196819"/>
    <tag k="highway" v="trunk"/>
    <tag k="name" v="Condamine Street"/>
    <tag k="oneway" v="yes"/>
  </way>
  <way id="51892616" version="5" timestamp="2012-02-02T01:38:50Z" uid="54784" user="Tom Hollander" changeset="10564136">
    <nd ref="662196866"/>
    <nd ref="662196860"/>
    <nd ref="662196838"/>
    <nd ref="662196834"/>
    <nd ref="662196836"/>
    <nd ref="662196832"/>
    <nd ref="662196830"/>
    <nd ref="662196827"/>
    <nd ref="662196824"/>
    <nd ref="662196819"/>
    <tag k="highway" v="trunk"/>
    <tag k="name" v="Condamine Street"/>
    <tag k="oneway" v="yes"/>
    <tag k="ref" v="MR10"/>
  </way>
  <way id="51892617" version="1" timestamp="2010-03-07T13:24:26Z" uid="7617" user="Franc" changeset="4060825">
    <nd ref="662209232"/>
    <nd ref="662209234"/>
    <tag k="highway" v="service"/>
    <tag k="source" v="nearmap"/>
  </way>
  <way id="51892618" version="1" timestamp="2010-03-07T13:24:26Z" uid="7617" user="Franc" changeset="4060825">
    <nd ref="662209238"/>
    <nd ref="662209233"/>
    <tag k="highway" v="service"/>
    <tag k="source" v="nearmap"/>
  </way>
  <way id="51892619" version="1" timestamp="2010-03-07T13:24:26Z" uid="7617" user="Franc" changeset="4060825">
    <nd ref="662209262"/>
    <nd ref="662209263"/>
    <nd ref="662196885"/>
    <nd ref="21398182"/>
    <tag k="highway" v="residential"/>
    <tag k="name" v="Campbell Parade"/>
    <tag k="source:name" v="survey"/>
  </way>
  <way id="51892619" version="2" timestamp="2010-07-07T23:33:39Z" uid="74617" user="JohnSmith" changeset="5162525">
    <nd ref="662209262"/>
    <nd ref="662209263"/>
    <nd ref="662196885"/>
    <nd ref="21398182"/>
    <tag k="highway" v="residential"/>
    <tag k="maxspeed" v="50"/>
    <tag k="maxspeed:source" v="default residential speed limit in Australia"/>
    <tag k="name" v="Campbell Parade"/>
    <tag k="source:name" v="survey"/>
  </way>
  <way id="51892619" version="3" timestamp="2012-01-20T03:29:19Z" uid="147510" user="woodpeck_fixbot" changeset="10442986">
    <nd ref="662209262"/>
    <nd ref="662209263"/>
    <nd ref="662196885"/>
    <nd ref="21398182"/>
    <tag k="highway" v="residential"/>
    <tag k="name" v="Campbell Parade"/>
    <tag k="source:name" v="survey"/>
  </way>
  <way id="51892620" version="1" timestamp="2010-03-07T13:24:26Z" uid="7617" user="Franc" changeset="4060825">
    <nd ref="662209259"/>
    <nd ref="662196875"/>
    <tag k="highway" v="residential"/>
    <tag k="name" v="Lovett Street"/>
    <tag k="restriction" v="school_zone"/>
    <tag k="source:name" v="survey"/>
  </way>
  <way id="51892620" version="2" timestamp="2010-07-07T23:34:12Z" uid="74617" user="JohnSmith" changeset="5162525">
    <nd ref="662209259"/>
    <nd ref="662196875"/>
    <tag k="highway" v="residential"/>
    <tag k="maxspeed" v="50"/>
    <tag k="maxspeed:source" v="default residential speed limit in Australia"/>
    <tag k="name" v="Lovett Street"/>
    <tag k="restriction" v="school_zone"/>
    <tag k="source:name" v="survey"/>
  </way>
  <way id="51892620" version="3" timestamp="2012-01-20T03:29:20Z" uid="147510" user="woodpeck_fixbot" changeset="10442986">
    <nd ref="662209259"/>
    <nd ref="662196875"/>
    <tag k="highway" v="residential"/>
    <tag k="name" v="Lovett Street"/>
    <tag k="restriction" v="school_zone"/>
    <tag k="source:name" v="survey"/>
  </way>
  <way id="51892621" version="1" timestamp="2010-03-07T13:24:26Z" uid="7617" user="Franc" changeset="4060825">
    <nd ref="662209260"/>
    <nd ref="662196879"/>
    <nd ref="88645932"/>
    <tag k="highway" v="residential"/>
    <tag k="name" v="Gordon Street"/>
    <tag k="source:name" v="survey"/>
  </way>
  <way id="51892621" version="2" timestamp="2010-07-07T23:31:17Z" uid="74617" user="JohnSmith" changeset="5162525">
    <nd ref="662209260"/>
    <nd ref="662196879"/>
    <nd ref="88645932"/>
    <tag k="highway" v="residential"/>
    <tag k="maxspeed" v="50"/>
    <tag k="maxspeed:source" v="default residential speed limit in Australia"/>
    <tag k="name" v="Gordon Street"/>
    <tag k="source:name" v="survey"/>
  </way>
  <way id="51892621" version="3" timestamp="2012-01-20T03:29:21Z" uid="147510" user="woodpeck_fixbot" changeset="10442986">
    <nd ref="662209260"/>
    <nd ref="662196879"/>
    <nd ref="88645932"/>
    <tag k="highway" v="residential"/>
    <tag k="name" v="Gordon Street"/>
    <tag k="source:name" v="survey"/>
  </way>
  <way id="51892622" version="1" timestamp="2010-03-07T13:24:27Z" uid="7617" user="Franc" changeset="4060825">
    <nd ref="662209265"/>
    <nd ref="248743969"/>
    <nd ref="662209262"/>
    <tag k="highway" v="residential"/>
    <tag k="name" v="Campbell Parade"/>
    <tag k="restriction" v="school_zone"/>
    <tag k="source:name" v="survey"/>
  </way>
  <way id="51892622" version="2" timestamp="2010-07-07T23:34:57Z" uid="74617" user="JohnSmith" changeset="5162525">
    <nd ref="662209265"/>
    <nd ref="248743969"/>
    <nd ref="662209262"/>
    <tag k="highway" v="residential"/>
    <tag k="maxspeed" v="50"/>
    <tag k="maxspeed:source" v="default residential speed limit in Australia"/>
    <tag k="name" v="Campbell Parade"/>
    <tag k="restriction" v="school_zone"/>
    <tag k="source:name" v="survey"/>
  </way>
  <way id="51892622" version="3" timestamp="2012-01-20T03:29:23Z" uid="147510" user="woodpeck_fixbot" changeset="10442986">
    <nd ref="662209265"/>
    <nd ref="248743969"/>
    <nd ref="662209262"/>
    <tag k="highway" v="residential"/>
    <tag k="name" v="Campbell Parade"/>
    <tag k="restriction" v="school_zone"/>
    <tag k="source:name" v="survey"/>
  </way>
  <way id="51892624" version="1" timestamp="2010-03-07T13:24:27Z" uid="7617" user="Franc" changeset="4060825">
    <nd ref="662209270"/>
    <nd ref="662209267"/>
    <nd ref="662209266"/>
    <nd ref="662209269"/>
    <nd ref="662209270"/>
    <tag k="leisure" v="pitch"/>
    <tag k="sport" v="bowls"/>
  </way>
  <way id="51892625" version="1" timestamp="2010-03-07T13:24:27Z" uid="7617" user="Franc" changeset="4060825">
    <nd ref="662209271"/>
    <nd ref="662209268"/>
    <nd ref="662209273"/>
    <nd ref="662209276"/>
    <nd ref="662209271"/>
    <tag k="leisure" v="pitch"/>
    <tag k="sport" v="basketball"/>
  </way>
  <way id="51892614" version="6" timestamp="2012-07-11T02:14:17Z" uid="705018" user="jinkson" changeset="12181216">
    <nd ref="1815700447"/>
    <nd ref="662196885"/>
    <nd ref="662196883"/>
    <nd ref="662196879"/>
    <nd ref="662196877"/>
    <nd ref="662196875"/>
    <nd ref="662196872"/>
    <nd ref="662196868"/>
    <nd ref="662196866"/>
    <tag k="highway" v="trunk"/>
    <tag k="name" v="Condamine Street"/>
    <tag k="oneway" v="yes"/>
    <tag k="ref" v="MR10"/>
    <tag k="restriction" v="school_zone"/>
  </way>
  <way id="51892614" version="7" timestamp="2012-07-11T02:15:05Z" uid="705018" user="jinkson" changeset="12181216">
    <nd ref="1815700447"/>
    <nd ref="662196885"/>
    <nd ref="662196883"/>
    <nd ref="662196879"/>
    <tag k="highway" v="trunk"/>
    <tag k="name" v="Condamine Street"/>
    <tag k="oneway" v="yes"/>
    <tag k="ref" v="MR10"/>
  </way>
  <way id="51892614" version="8" timestamp="2012-07-11T02:16:09Z" uid="705018" user="jinkson" changeset="12181216">
    <nd ref="1815700447"/>
    <nd ref="662196885"/>
    <nd ref="662196883"/>
    <nd ref="662196879"/>
    <nd ref="662196877"/>
    <nd ref="662196875"/>
    <nd ref="662196872"/>
    <nd ref="662196868"/>
    <nd ref="662196866"/>
    <tag k="highway" v="trunk"/>
    <tag k="name" v="Condamine Street"/>
    <tag k="oneway" v="yes"/>
    <tag k="ref" v="MR10"/>
    <tag k="restriction" v="school_zone"/>
  </way>
  <way id="51892614" version="9" timestamp="2012-07-11T02:16:27Z" uid="705018" user="jinkson" changeset="12181216">
    <nd ref="1815700447"/>
    <nd ref="662196885"/>
    <nd ref="662196883"/>
    <nd ref="662196879"/>
    <tag k="highway" v="trunk"/>
    <tag k="name" v="Condamine Street"/>
    <tag k="oneway" v="yes"/>
    <tag k="ref" v="MR10"/>
    <tag k="restriction" v="school_zone"/>
  </way>
  <way id="51892614" version="10" timestamp="2012-07-11T02:16:54Z" uid="705018" user="jinkson" changeset="12181216">
    <nd ref="1815700447"/>
    <nd ref="662196885"/>
    <nd ref="662196883"/>
    <nd ref="662196879"/>
    <tag k="highway" v="trunk"/>
    <tag k="name" v="Condamine Street"/>
    <tag k="oneway" v="yes"/>
    <tag k="ref" v="MR10"/>
  </way>
  <way id="51892614" version="11" timestamp="2012-07-11T02:19:00Z" uid="705018" user="jinkson" changeset="12181216">
    <nd ref="1815700447"/>
    <nd ref="662196885"/>
    <tag k="highway" v="trunk"/>
    <tag k="name" v="Condamine Street"/>
    <tag k="oneway" v="yes"/>
    <tag k="ref" v="MR10"/>
  </way>
  <way id="51892614" version="12" timestamp="2012-07-11T02:21:11Z" uid="705018" user="jinkson" changeset="12181216"/>
  <way id="51892615" version="4" timestamp="2012-07-11T03:02:06Z" uid="705018" user="jinkson" changeset="12181242">
    <nd ref="662209261"/>
    <nd ref="248743983"/>
    <tag k="highway" v="residential"/>
    <tag k="name" v="Quirk Road"/>
    <tag k="source:name" v="survey"/>
  </way>
  <way id="51892615" version="5" timestamp="2012-07-11T05:50:59Z" uid="705018" user="jinkson" changeset="12181959"/>
  <way id="51892616" version="6" timestamp="2012-06-15T16:30:32Z" uid="705018" user="jinkson" changeset="11906274">
    <nd ref="662196866"/>
    <nd ref="662196860"/>
    <nd ref="662196838"/>
    <nd ref="662196834"/>
    <nd ref="662196836"/>
    <nd ref="662196832"/>
    <nd ref="662196830"/>
    <nd ref="662196827"/>
    <nd ref="662196824"/>
    <nd ref="662196819"/>
    <nd ref="21398178"/>
    <tag k="highway" v="trunk"/>
    <tag k="name" v="Condamine Street"/>
    <tag k="oneway" v="yes"/>
    <tag k="ref" v="MR10"/>
  </way>
  <way id="51892616" version="7" timestamp="2012-06-15T19:17:23Z" uid="705018" user="jinkson" changeset="11907933">
    <nd ref="662196866"/>
    <nd ref="662196860"/>
    <nd ref="662196838"/>
    <nd ref="662196834"/>
    <nd ref="662196836"/>
    <nd ref="662196832"/>
    <nd ref="662196830"/>
    <nd ref="662196827"/>
    <nd ref="662196824"/>
    <nd ref="662196819"/>
    <nd ref="21398178"/>
    <tag k="highway" v="trunk"/>
    <tag k="lanes" v="3"/>
    <tag k="name" v="Condamine Street"/>
    <tag k="oneway" v="yes"/>
    <tag k="ref" v="MR10"/>
  </way>
  <way id="51892616" version="8" timestamp="2012-07-01T01:44:53Z" uid="705018" user="jinkson" changeset="12071500">
    <nd ref="662196866"/>
    <nd ref="662196860"/>
    <nd ref="662196838"/>
    <nd ref="662196834"/>
    <nd ref="662196836"/>
    <nd ref="662196832"/>
    <nd ref="662196830"/>
    <nd ref="662196827"/>
    <nd ref="662196824"/>
    <nd ref="662196819"/>
    <nd ref="21398178"/>
    <tag k="highway" v="trunk"/>
    <tag k="lanes" v="3"/>
    <tag k="maxspeed" v="60"/>
    <tag k="name" v="Condamine Street"/>
    <tag k="oneway" v="yes"/>
    <tag k="ref" v="MR10"/>
  </way>
  <way id="51892616" version="9" timestamp="2012-07-01T06:15:34Z" uid="705018" user="jinkson" changeset="12072237">
    <nd ref="662196866"/>
    <nd ref="662196860"/>
    <nd ref="662196838"/>
    <nd ref="662196834"/>
    <nd ref="662196836"/>
    <nd ref="662196832"/>
    <nd ref="662196830"/>
    <nd ref="662196827"/>
    <nd ref="662196824"/>
    <nd ref="662196819"/>
    <nd ref="21398178"/>
    <tag k="highway" v="trunk"/>
    <tag k="lanes" v="3"/>
    <tag k="maxpeed:source" v="survey"/>
    <tag k="maxspeed" v="60"/>
    <tag k="name" v="Condamine Street"/>
    <tag k="oneway" v="yes"/>
    <tag k="ref" v="MR10"/>
  </way>
  <way id="51892616" version="10" timestamp="2012-07-01T06:21:15Z" uid="705018" user="jinkson" changeset="12072279">
    <nd ref="662196866"/>
    <nd ref="662196860"/>
    <nd ref="662196838"/>
    <nd ref="662196834"/>
    <nd ref="662196836"/>
    <nd ref="662196832"/>
    <nd ref="662196830"/>
    <nd ref="662196827"/>
    <nd ref="662196824"/>
    <nd ref="662196819"/>
    <nd ref="21398178"/>
    <tag k="highway" v="trunk"/>
    <tag k="lanes" v="3"/>
    <tag k="maxspeed" v="60"/>
    <tag k="maxspeed:source" v="survey"/>
    <tag k="name" v="Condamine Street"/>
    <tag k="oneway" v="yes"/>
    <tag k="ref" v="MR10"/>
  </way>
  <way id="51892616" version="11" timestamp="2012-07-01T14:57:56Z" uid="705018" user="jinkson" changeset="12077065">
    <nd ref="662196866"/>
    <nd ref="662196860"/>
    <nd ref="662196838"/>
    <nd ref="662196834"/>
    <nd ref="662196836"/>
    <nd ref="662196832"/>
    <nd ref="662196830"/>
    <nd ref="662196827"/>
    <nd ref="662196824"/>
    <nd ref="662196819"/>
    <tag k="highway" v="trunk"/>
    <tag k="lanes" v="3"/>
    <tag k="maxspeed" v="60"/>
    <tag k="maxspeed:source" v="survey"/>
    <tag k="name" v="Condamine Street"/>
    <tag k="oneway" v="yes"/>
    <tag k="ref" v="MR10"/>
  </way>
  <way id="51892616" version="12" timestamp="2012-07-11T02:27:08Z" uid="705018" user="jinkson" changeset="12181242">
    <nd ref="662196866"/>
    <nd ref="662196860"/>
    <tag k="highway" v="trunk"/>
    <tag k="lanes" v="3"/>
    <tag k="maxspeed" v="60"/>
    <tag k="maxspeed:source" v="survey"/>
    <tag k="name" v="Condamine Street"/>
    <tag k="oneway" v="yes"/>
    <tag k="ref" v="MR10"/>
  </way>
  <way id="51892616" version="13" timestamp="2012-07-11T02:30:41Z" uid="705018" user="jinkson" changeset="12181242">
    <nd ref="662196879"/>
    <nd ref="662196877"/>
    <nd ref="662196875"/>
    <nd ref="662196872"/>
    <nd ref="662196868"/>
    <nd ref="662196866"/>
    <nd ref="662196860"/>
    <tag k="highway" v="trunk"/>
    <tag k="lanes" v="3"/>
    <tag k="maxspeed" v="60"/>
    <tag k="maxspeed:source" v="survey"/>
    <tag k="name" v="Condamine Street"/>
    <tag k="oneway" v="yes"/>
    <tag k="ref" v="MR10"/>
    <tag k="restriction" v="school_zone"/>
  </way>
  <way id="51892616" version="14" timestamp="2012-07-11T02:32:37Z" uid="705018" user="jinkson" changeset="12181242">
    <nd ref="662196879"/>
    <nd ref="662196877"/>
    <tag k="highway" v="trunk"/>
    <tag k="lanes" v="3"/>
    <tag k="maxspeed" v="60"/>
    <tag k="maxspeed:source" v="survey"/>
    <tag k="name" v="Condamine Street"/>
    <tag k="oneway" v="yes"/>
    <tag k="ref" v="MR10"/>
    <tag k="restriction" v="school_zone"/>
  </way>
  <way id="51892616" version="15" timestamp="2012-07-11T02:33:11Z" uid="705018" user="jinkson" changeset="12181242"/>
  <way id="51892617" version="2" timestamp="2012-06-15T17:21:43Z" uid="705018" user="jinkson" changeset="11906944">
    <nd ref="662209232"/>
    <nd ref="662209234"/>
    <tag k="highway" v="service"/>
    <tag k="oneway" v="yes"/>
    <tag k="service" v="driveway"/>
    <tag k="source" v="nearmap"/>
  </way>
  <way id="51892617" version="3" timestamp="2012-07-11T15:00:06Z" uid="705018" user="jinkson" changeset="12186882"/>
  <way id="51892618" version="2" timestamp="2012-06-15T17:21:44Z" uid="705018" user="jinkson" changeset="11906944">
    <nd ref="662209238"/>
    <nd ref="662209233"/>
    <tag k="highway" v="service"/>
    <tag k="oneway" v="yes"/>
    <tag k="service" v="driveway"/>
    <tag k="source" v="nearmap"/>
  </way>
  <way id="51892618" version="3" timestamp="2012-07-11T15:00:06Z" uid="705018" user="jinkson" changeset="12186882"/>
  <way id="51892619" version="4" timestamp="2012-07-11T02:36:03Z" uid="705018" user="jinkson" changeset="12181242">
    <nd ref="662209262"/>
    <nd ref="662209263"/>
    <nd ref="662196885"/>
    <tag k="highway" v="residential"/>
    <tag k="name" v="Campbell Parade"/>
    <tag k="source:name" v="survey"/>
  </way>
  <way id="51892619" version="5" timestamp="2012-07-11T02:37:13Z" uid="705018" user="jinkson" changeset="12181242">
    <nd ref="662209262"/>
    <nd ref="662209263"/>
    <nd ref="1821018373"/>
    <tag k="highway" v="residential"/>
    <tag k="name" v="Campbell Parade"/>
    <tag k="source:name" v="survey"/>
  </way>
  <way id="51892619" version="6" timestamp="2012-07-11T02:37:33Z" uid="705018" user="jinkson" changeset="12181242">
    <nd ref="662209262"/>
    <nd ref="662209263"/>
    <nd ref="1821018373"/>
    <nd ref="662196885"/>
    <tag k="highway" v="residential"/>
    <tag k="name" v="Campbell Parade"/>
    <tag k="source:name" v="survey"/>
  </way>
  <way id="51892619" version="7" timestamp="2012-07-11T02:38:30Z" uid="705018" user="jinkson" changeset="12181242">
    <nd ref="662209262"/>
    <nd ref="662209263"/>
    <nd ref="1821018373"/>
    <tag k="highway" v="residential"/>
    <tag k="name" v="Campbell Parade"/>
    <tag k="source:name" v="survey"/>
  </way>
  <way id="51892619" version="8" timestamp="2012-07-11T02:40:12Z" uid="705018" user="jinkson" changeset="12181242">
    <nd ref="662209262"/>
    <nd ref="662209263"/>
    <tag k="highway" v="residential"/>
    <tag k="name" v="Campbell Parade"/>
    <tag k="source:name" v="survey"/>
  </way>
  <way id="51892619" version="9" timestamp="2012-07-11T03:06:46Z" uid="705018" user="jinkson" changeset="12181242"/>
  <way id="51892620" version="4" timestamp="2012-07-11T03:22:39Z" uid="705018" user="jinkson" changeset="12181242">
    <nd ref="662209259"/>
    <nd ref="662196875"/>
    <tag k="highway" v="residential"/>
    <tag k="maxspeed" v="50"/>
    <tag k="name" v="Lovett Street"/>
    <tag k="restriction" v="school_zone"/>
    <tag k="source:name" v="survey"/>
  </way>
  <way id="51892620" version="5" timestamp="2012-07-11T05:48:34Z" uid="705018" user="jinkson" changeset="12181959">
    <nd ref="662209259"/>
    <nd ref="1821070619"/>
    <tag k="highway" v="residential"/>
    <tag k="maxspeed" v="50"/>
    <tag k="name" v="Lovett Street"/>
    <tag k="restriction" v="school_zone"/>
    <tag k="source:name" v="survey"/>
  </way>
  <way id="51892620" version="6" timestamp="2012-07-11T05:48:58Z" uid="705018" user="jinkson" changeset="12181959"/>
  <way id="51892621" version="4" timestamp="2012-07-11T02:51:05Z" uid="705018" user="jinkson" changeset="12181242">
    <nd ref="662209260"/>
    <nd ref="662196879"/>
    <nd ref="88645932"/>
    <tag k="highway" v="residential"/>
    <tag k="maxspeed" v="50"/>
    <tag k="name" v="Gordon Street"/>
    <tag k="source:name" v="survey"/>
  </way>
  <way id="51892621" version="5" timestamp="2012-07-11T02:59:27Z" uid="705018" user="jinkson" changeset="12181242">
    <nd ref="662209260"/>
    <nd ref="1821022728"/>
    <tag k="highway" v="residential"/>
    <tag k="maxspeed" v="50"/>
    <tag k="name" v="Gordon Street"/>
    <tag k="source:name" v="survey"/>
  </way>
  <way id="51892621" version="6" timestamp="2012-07-11T02:59:39Z" uid="705018" user="jinkson" changeset="12181242">
    <nd ref="662209260"/>
    <nd ref="1821022728"/>
    <nd ref="662196879"/>
    <tag k="highway" v="residential"/>
    <tag k="maxspeed" v="50"/>
    <tag k="name" v="Gordon Street"/>
    <tag k="source:name" v="survey"/>
  </way>
  <way id="51892621" version="7" timestamp="2012-07-11T02:59:56Z" uid="705018" user="jinkson" changeset="12181242">
    <nd ref="662209260"/>
    <nd ref="1821022728"/>
    <tag k="highway" v="residential"/>
    <tag k="maxspeed" v="50"/>
    <tag k="name" v="Gordon Street"/>
    <tag k="source:name" v="survey"/>
  </way>
  <way id="51892621" version="8" timestamp="2012-07-11T03:00:29Z" uid="705018" user="jinkson" changeset="12181242"/>
  <way id="51892622" version="4" timestamp="2012-07-11T03:06:46Z" uid="705018" user="jinkson" changeset="12181242">
    <nd ref="662209265"/>
    <nd ref="1821023886"/>
    <tag k="highway" v="residential"/>
    <tag k="name" v="Campbell Parade"/>
    <tag k="restriction" v="school_zone"/>
    <tag k="source:name" v="survey"/>
  </way>
  <way id="51892622" version="5" timestamp="2012-07-11T03:14:03Z" uid="705018" user="jinkson" changeset="12181242">
    <nd ref="662209265"/>
    <nd ref="1821023886"/>
    <tag k="highway" v="residential"/>
    <tag k="maxspeed" v="50"/>
    <tag k="name" v="Campbell Parade"/>
    <tag k="restriction" v="school_zone"/>
    <tag k="source:name" v="survey"/>
  </way>
  <way id="51892622" version="6" timestamp="2012-07-11T03:14:56Z" uid="705018" user="jinkson" changeset="12181242"/>
  <way id="51892624" version="2" timestamp="2012-06-24T05:06:56Z" uid="7523" user="inas" changeset="11995521"/>
  <way id="51892625" version="2" timestamp="2012-06-24T05:06:56Z" uid="7523" user="inas" changeset="11995521"/>
</osm>
