<?xml version='1.0' encoding='UTF-8'?>
<osm version="0.6" generator="libosmium/2.20.0">
  <way id="51969117" version="2" timestamp="2010-05-26T04:29:58Z" uid="4467" user="Rosscoe" changeset="4809656">
    <nd ref="255023659"/>
    <nd ref="311404283"/>
    <nd ref="662739146"/>
    <tag k="highway" v="tertiary"/>
    <tag k="name" v="Prospect Hill Road"/>
    <tag k="oneway" v="yes"/>
    <tag k="source" v="nearmap"/>
  </way>
  <way id="51969117" version="3" timestamp="2010-06-13T05:25:32Z" uid="1679" user="andrewpmk" changeset="4975559">
    <nd ref="255023659"/>
    <nd ref="311404283"/>
    <nd ref="662739146"/>
    <tag k="highway" v="tertiary"/>
    <tag k="name" v="Prospect Hill Road"/>
    <tag k="oneway" v="yes"/>
    <tag k="source" v="nearmap"/>
    <tag k="surface" v="paved"/>
  </way>
  <way id="51969119" version="2" timestamp="2010-05-26T04:29:53Z" uid="4467" user="Rosscoe" changeset="4809656">
    <nd ref="662739148"/>
    <nd ref="255023659"/>
    <tag k="highway" v="tertiary"/>
    <tag k="name" v="Prospect Hill Road"/>
    <tag k="oneway" v="yes"/>
    <tag k="source" v="nearmap"/>
  </way>
  <way id="51969119" version="3" timestamp="2010-06-13T05:27:28Z" uid="1679" user="andrewpmk" changeset="4975559">
    <nd ref="662739148"/>
    <nd ref="255023659"/>
    <tag k="highway" v="tertiary"/>
    <tag k="name" v="Prospect Hill Road"/>
    <tag k="oneway" v="yes"/>
    <tag k="source" v="nearmap"/>
    <tag k="surface" v="paved"/>
  </way>
  <way id="51969120" version="2" timestamp="2010-05-26T04:29:09Z" uid="4467" user="Rosscoe" changeset="4809656">
    <nd ref="662739147"/>
    <nd ref="748732995"/>
    <nd ref="662739149"/>
    <nd ref="748732998"/>
    <nd ref="662739148"/>
    <nd ref="748732996"/>
    <nd ref="662739146"/>
    <nd ref="748732993"/>
    <nd ref="662739150"/>
    <nd ref="662739147"/>
    <tag k="direction" v="clockwise"/>
    <tag k="highway" v="tertiary"/>
    <tag k="junction" v="roundabout"/>
    <tag k="source" v="nearmap"/>
  </way>
  <way id="51969120" version="3" timestamp="2010-05-26T04:31:08Z" uid="4467" user="Rosscoe" changeset="4809666">
    <nd ref="662739147"/>
    <nd ref="748732995"/>
    <nd ref="662739149"/>
    <nd ref="748732998"/>
    <nd ref="662739148"/>
    <nd ref="748732996"/>
    <nd ref="662739146"/>
    <nd ref="748732993"/>
    <nd ref="662739150"/>
    <nd ref="662739147"/>
    <tag k="highway" v="tertiary"/>
    <tag k="junction" v="roundabout"/>
    <tag k="source" v="nearmap"/>
  </way>
  <way id="51969120" version="4" timestamp="2010-06-13T05:25:47Z" uid="1679" user="andrewpmk" changeset="4975559">
    <nd ref="662739147"/>
    <nd ref="748732995"/>
    <nd ref="662739149"/>
    <nd ref="748732998"/>
    <nd ref="662739148"/>
    <nd ref="748732996"/>
    <nd ref="662739146"/>
    <nd ref="748732993"/>
    <nd ref="662739150"/>
    <nd ref="662739147"/>
    <tag k="highway" v="tertiary"/>
    <tag k="junction" v="roundabout"/>
    <tag k="lanes" v="2"/>
    <tag k="source" v="nearmap"/>
    <tag k="surface" v="paved"/>
  </way>
  <way id="51969120" version="5" timestamp="2010-12-01T11:56:00Z" uid="351739" user="George Scott" changeset="6502855">
    <nd ref="662739147"/>
    <nd ref="748732995"/>
    <nd ref="662739149"/>
    <nd ref="748732998"/>
    <nd ref="662739148"/>
    <nd ref="748732996"/>
    <nd ref="662739146"/>
    <nd ref="748732993"/>
    <nd ref="662739150"/>
    <nd ref="662739147"/>
    <tag k="highway" v="tertiary"/>
    <tag k="junction" v="roundabout"/>
    <tag k="lanes" v="2"/>
    <tag k="source" v="nearmap"/>
    <tag k="surface" v="paved"/>
  </way>
  <way id="51969121" version="3" timestamp="2010-07-09T05:19:20Z" uid="74617" user="JohnSmith" changeset="5170986">
    <nd ref="311404283"/>
    <nd ref="311404284"/>
    <tag k="highway" v="residential"/>
    <tag k="lanes" v="2"/>
    <tag k="maxspeed" v="50"/>
    <tag k="maxspeed:source" v="default residential speed limit in Australia"/>
    <tag k="name" v="Fairholm Grove"/>
    <tag k="source" v="MMBW"/>
    <tag k="surface" v="paved"/>
  </way>
  <way id="51969121" version="4" timestamp="2012-01-20T03:32:52Z" uid="147510" user="woodpeck_fixbot" changeset="10442986">
    <nd ref="311404283"/>
    <nd ref="311404284"/>
    <tag k="highway" v="residential"/>
    <tag k="lanes" v="2"/>
    <tag k="name" v="Fairholm Grove"/>
    <tag k="source" v="MMBW"/>
    <tag k="surface" v="paved"/>
  </way>
  <way id="51969215" version="2" timestamp="2010-05-10T07:53:23Z" uid="4467" user="Rosscoe" changeset="4656711">
    <nd ref="728240549"/>
    <nd ref="566892978"/>
    <nd ref="361189534"/>
    <nd ref="361189538"/>
    <nd ref="361189542"/>
    <nd ref="361189557"/>
    <nd ref="361189575"/>
    <nd ref="361189577"/>
    <nd ref="361189578"/>
    <tag k="highway" v="residential"/>
    <tag k="name" v="The Broadwater"/>
  </way>
  <way id="51969215" version="3" timestamp="2010-07-09T17:57:52Z" uid="74617" user="JohnSmith" changeset="5175636">
    <nd ref="728240549"/>
    <nd ref="566892978"/>
    <nd ref="361189534"/>
    <nd ref="361189538"/>
    <nd ref="361189542"/>
    <nd ref="361189557"/>
    <nd ref="361189575"/>
    <nd ref="361189577"/>
    <nd ref="361189578"/>
    <tag k="highway" v="residential"/>
    <tag k="maxspeed" v="50"/>
    <tag k="maxspeed:source" v="default residential speed limit in Australia"/>
    <tag k="name" v="The Broadwater"/>
  </way>
  <way id="51969215" version="4" timestamp="2010-12-30T11:33:05Z" uid="4467" user="Rosscoe" changeset="6808062">
    <nd ref="728240549"/>
    <nd ref="566892978"/>
    <nd ref="361189534"/>
    <nd ref="361189538"/>
    <nd ref="361189542"/>
    <nd ref="361189557"/>
    <nd ref="361189575"/>
    <nd ref="361189577"/>
    <nd ref="361189578"/>
    <tag k="highway" v="residential"/>
    <tag k="maxspeed" v="50"/>
    <tag k="name" v="The Broadwater"/>
    <tag k="source:maxspeed" v="default residential speed limit in Australia"/>
  </way>
  <way id="51969215" version="5" timestamp="2012-01-20T03:32:55Z" uid="147510" user="woodpeck_fixbot" changeset="10442986">
    <nd ref="728240549"/>
    <nd ref="566892978"/>
    <nd ref="361189534"/>
    <nd ref="361189538"/>
    <nd ref="361189542"/>
    <nd ref="361189557"/>
    <nd ref="361189575"/>
    <nd ref="361189577"/>
    <nd ref="361189578"/>
    <tag k="highway" v="residential"/>
    <tag k="name" v="The Broadwater"/>
    <tag k="source:maxspeed" v="default residential speed limit in Australia"/>
  </way>
  <way id="51969216" version="2" timestamp="2010-07-09T18:02:34Z" uid="74617" user="JohnSmith" changeset="5175636">
    <nd ref="361189687"/>
    <nd ref="361189689"/>
    <nd ref="361189693"/>
    <nd ref="361189697"/>
    <nd ref="361189700"/>
    <nd ref="361189704"/>
    <nd ref="361189707"/>
    <nd ref="361189709"/>
    <nd ref="361189710"/>
    <nd ref="361189711"/>
    <nd ref="361189712"/>
    <tag k="highway" v="residential"/>
    <tag k="maxspeed" v="50"/>
    <tag k="maxspeed:source" v="default residential speed limit in Australia"/>
    <tag k="name" v="The Esplanade"/>
  </way>
  <way id="51969216" version="3" timestamp="2010-12-30T11:33:53Z" uid="4467" user="Rosscoe" changeset="6808062">
    <nd ref="361189687"/>
    <nd ref="361189689"/>
    <nd ref="361189693"/>
    <nd ref="361189697"/>
    <nd ref="361189700"/>
    <nd ref="361189704"/>
    <nd ref="361189707"/>
    <nd ref="361189709"/>
    <nd ref="361189710"/>
    <nd ref="361189711"/>
    <nd ref="361189712"/>
    <tag k="highway" v="residential"/>
    <tag k="maxspeed" v="50"/>
    <tag k="name" v="The Esplanade"/>
    <tag k="source:maxspeed" v="default residential speed limit in Australia"/>
  </way>
  <way id="51969216" version="4" timestamp="2012-01-20T03:33:03Z" uid="147510" user="woodpeck_fixbot" changeset="10442986">
    <nd ref="361189687"/>
    <nd ref="361189689"/>
    <nd ref="361189693"/>
    <nd ref="361189697"/>
    <nd ref="361189700"/>
    <nd ref="361189704"/>
    <nd ref="361189707"/>
    <nd ref="361189709"/>
    <nd ref="361189710"/>
    <nd ref="361189711"/>
    <nd ref="361189712"/>
    <tag k="highway" v="residential"/>
    <tag k="name" v="The Esplanade"/>
    <tag k="source:maxspeed" v="default residential speed limit in Australia"/>
  </way>
  <way id="51969282" version="2" timestamp="2010-07-09T17:59:16Z" uid="74617" user="JohnSmith" changeset="5175636">
    <nd ref="565837961"/>
    <nd ref="565837963"/>
    <nd ref="565837965"/>
    <nd ref="565837966"/>
    <nd ref="565837967"/>
    <nd ref="565837970"/>
    <tag k="highway" v="residential"/>
    <tag k="maxspeed" v="50"/>
    <tag k="maxspeed:source" v="default residential speed limit in Australia"/>
    <tag k="name" v="Owl Court"/>
  </way>
  <way id="51969282" version="3" timestamp="2010-12-30T11:34:18Z" uid="4467" user="Rosscoe" changeset="6808062">
    <nd ref="565837961"/>
    <nd ref="565837963"/>
    <nd ref="565837965"/>
    <nd ref="565837966"/>
    <nd ref="565837967"/>
    <nd ref="565837970"/>
    <tag k="highway" v="residential"/>
    <tag k="maxspeed" v="50"/>
    <tag k="name" v="Owl Court"/>
    <tag k="source:maxspeed" v="default residential speed limit in Australia"/>
  </way>
  <way id="51969282" version="4" timestamp="2012-01-20T03:33:06Z" uid="147510" user="woodpeck_fixbot" changeset="10442986">
    <nd ref="565837961"/>
    <nd ref="565837963"/>
    <nd ref="565837965"/>
    <nd ref="565837966"/>
    <nd ref="565837967"/>
    <nd ref="565837970"/>
    <tag k="highway" v="residential"/>
    <tag k="name" v="Owl Court"/>
    <tag k="source:maxspeed" v="default residential speed limit in Australia"/>
  </way>
  <way id="51969309" version="2" timestamp="2010-04-02T17:57:25Z" uid="20587" user="balrog-kun" changeset="4304500">
    <nd ref="662742329"/>
    <nd ref="662742328"/>
    <nd ref="53184120"/>
    <tag k="highway" v="service"/>
    <tag k="name" v="Summit Avenue"/>
    <tag k="service" v="driveway"/>
  </way>
  <way id="51969391" version="3" timestamp="2010-04-04T01:55:41Z" uid="20587" user="balrog-kun" changeset="4318136">
    <nd ref="88502407"/>
    <nd ref="470163846"/>
    <nd ref="470163848"/>
    <nd ref="470167048"/>
    <tag k="highway" v="primary"/>
    <tag k="name" v="Parker Road"/>
    <tag k="oneway" v="yes"/>
    <tag k="ref" v="CO 83"/>
  </way>
  <way id="51969391" version="4" timestamp="2011-03-28T19:56:55Z" uid="207745" user="NE2" changeset="7699216">
    <nd ref="88502407"/>
    <nd ref="470163846"/>
    <nd ref="470163848"/>
    <nd ref="470167048"/>
    <tag k="highway" v="trunk"/>
    <tag k="name" v="Parker Road"/>
    <tag k="oneway" v="yes"/>
    <tag k="ref" v="CO 83"/>
  </way>
  <way id="51969391" version="5" timestamp="2011-06-17T11:38:08Z" uid="207745" user="NE2" changeset="8463816">
    <nd ref="88502407"/>
    <nd ref="470163846"/>
    <nd ref="470163848"/>
    <nd ref="470167048"/>
    <tag k="highway" v="trunk"/>
    <tag k="lanes" v="3"/>
    <tag k="name" v="Parker Road"/>
    <tag k="oneway" v="yes"/>
    <tag k="ref" v="CO 83"/>
  </way>
  <way id="51969391" version="6" timestamp="2011-10-24T11:03:05Z" uid="42429" user="FK270673" changeset="9642314">
    <nd ref="88502407"/>
    <nd ref="470163846"/>
    <nd ref="470163848"/>
    <nd ref="470167048"/>
    <tag k="highway" v="primary"/>
    <tag k="lanes" v="3"/>
    <tag k="name" v="Parker Road"/>
    <tag k="oneway" v="yes"/>
    <tag k="ref" v="CO 83"/>
  </way>
  <way id="51969392" version="3" timestamp="2010-04-04T01:55:41Z" uid="20587" user="balrog-kun" changeset="4318136">
    <nd ref="470160957"/>
    <nd ref="470162318"/>
    <tag k="highway" v="primary"/>
    <tag k="name" v="North Highway 83"/>
    <tag k="oneway" v="yes"/>
    <tag k="ref" v="CO 83"/>
  </way>
  <way id="51969392" version="4" timestamp="2010-06-17T04:10:44Z" uid="139555" user="DavidJDBA" changeset="5005829">
    <nd ref="470160957"/>
    <nd ref="774437503"/>
    <nd ref="470162318"/>
    <tag k="highway" v="primary"/>
    <tag k="name" v="North Highway 83"/>
    <tag k="oneway" v="yes"/>
    <tag k="ref" v="CO 83"/>
  </way>
  <way id="51969392" version="5" timestamp="2011-03-28T19:55:24Z" uid="207745" user="NE2" changeset="7699216">
    <nd ref="470160957"/>
    <nd ref="774437503"/>
    <nd ref="470162318"/>
    <tag k="highway" v="trunk"/>
    <tag k="oneway" v="yes"/>
    <tag k="ref" v="CO 83"/>
  </way>
  <way id="51969392" version="6" timestamp="2011-06-17T11:33:13Z" uid="207745" user="NE2" changeset="8463816">
    <nd ref="470160957"/>
    <nd ref="774437503"/>
    <nd ref="470162318"/>
    <tag k="highway" v="trunk"/>
    <tag k="lanes" v="3"/>
    <tag k="oneway" v="yes"/>
    <tag k="ref" v="CO 83"/>
  </way>
  <way id="51969392" version="7" timestamp="2011-10-24T11:03:05Z" uid="42429" user="FK270673" changeset="9642314">
    <nd ref="470160957"/>
    <nd ref="470162318"/>
    <tag k="highway" v="primary"/>
    <tag k="lanes" v="3"/>
    <tag k="oneway" v="yes"/>
    <tag k="ref" v="CO 83"/>
  </way>
  <way id="51969421" version="3" timestamp="2010-03-28T11:52:32Z" uid="20587" user="balrog-kun" changeset="4254597">
    <nd ref="662742838"/>
    <nd ref="662743849"/>
    <nd ref="662742839"/>
    <nd ref="662742840"/>
    <nd ref="662742841"/>
    <nd ref="662742842"/>
    <nd ref="662742843"/>
    <nd ref="662742844"/>
    <nd ref="662742792"/>
    <nd ref="662742790"/>
    <tag k="highway" v="residential"/>
    <tag k="is_in" v="Merced, CA"/>
    <tag k="name" v="North Street"/>
    <tag k="oneway" v="yes"/>
  </way>
  <way id="51969480" version="2" timestamp="2010-03-28T11:52:32Z" uid="20587" user="balrog-kun" changeset="4254597">
    <nd ref="89447737"/>
    <nd ref="89333721"/>
    <nd ref="89416489"/>
    <nd ref="89338725"/>
    <nd ref="662742911"/>
    <nd ref="89473779"/>
    <nd ref="89473780"/>
    <nd ref="89473782"/>
    <nd ref="89449097"/>
    <nd ref="89473785"/>
    <nd ref="89473786"/>
    <nd ref="89473788"/>
    <nd ref="89452468"/>
    <nd ref="89425516"/>
    <tag k="highway" v="residential"/>
    <tag k="name" v="West 22nd Street"/>
    <tag k="tiger:cfcc" v="A41"/>
    <tag k="tiger:county" v="Merced, CA"/>
    <tag k="tiger:name_base" v="22nd"/>
    <tag k="tiger:name_direction_prefix" v="W"/>
    <tag k="tiger:name_type" v="St"/>
    <tag k="tiger:reviewed" v="no"/>
    <tag k="tiger:separated" v="no"/>
    <tag k="tiger:source" v="tiger_import_dch_v0.6_20070809"/>
    <tag k="tiger:tlid" v="125281866:125281832:125281883:125281950:125281920:125282004:125281979:125282051:125282053:125321601:125282240:125282210:125282186:125282027"/>
    <tag k="tiger:zip_left" v="95340"/>
    <tag k="tiger:zip_right" v="95340"/>
  </way>
  <way id="51969117" version="4" timestamp="2012-07-20T00:23:20Z" uid="722137" user="OSMF Redaction Account" changeset="12352151">
    <nd ref="311404283"/>
    <nd ref="662739146"/>
    <tag k="highway" v="tertiary"/>
    <tag k="name" v="Prospect Hill Road"/>
    <tag k="oneway" v="yes"/>
    <tag k="surface" v="paved"/>
  </way>
  <way id="51969117" version="5" timestamp="2012-07-25T08:35:35Z" uid="211804" user="KenS" changeset="12483315">
    <nd ref="255023659"/>
    <nd ref="311404283"/>
    <nd ref="662739146"/>
    <tag k="highway" v="tertiary"/>
    <tag k="name" v="Prospect Hill Road"/>
    <tag k="oneway" v="yes"/>
    <tag k="surface" v="paved"/>
  </way>
  <way id="51969119" version="4" timestamp="2012-07-20T00:23:20Z" uid="722137" user="OSMF Redaction Account" changeset="12352151">
    <nd ref="662739148"/>
    <nd ref="255023659"/>
    <tag k="highway" v="tertiary"/>
    <tag k="name" v="Prospect Hill Road"/>
    <tag k="oneway" v="yes"/>
    <tag k="surface" v="paved"/>
  </way>
  <way id="51969120" version="6" timestamp="2012-07-20T00:23:20Z" uid="722137" user="OSMF Redaction Account" changeset="12352151">
    <nd ref="662739147"/>
    <nd ref="662739149"/>
    <nd ref="662739148"/>
    <nd ref="662739146"/>
    <nd ref="662739150"/>
    <nd ref="662739147"/>
    <tag k="highway" v="tertiary"/>
    <tag k="junction" v="roundabout"/>
    <tag k="lanes" v="2"/>
    <tag k="surface" v="paved"/>
  </way>
  <way id="51969120" version="7" timestamp="2012-07-25T08:35:36Z" uid="211804" user="KenS" changeset="12483315">
    <nd ref="662739147"/>
    <nd ref="748732995"/>
    <nd ref="662739149"/>
    <nd ref="748732998"/>
    <nd ref="662739148"/>
    <nd ref="748732996"/>
    <nd ref="662739146"/>
    <nd ref="748732993"/>
    <nd ref="662739150"/>
    <nd ref="662739147"/>
    <tag k="highway" v="tertiary"/>
    <tag k="junction" v="roundabout"/>
    <tag k="lanes" v="2"/>
    <tag k="surface" v="paved"/>
  </way>
  <way id="51969215" version="6" timestamp="2012-07-19T10:55:55Z" uid="722137" user="OSMF Redaction Account" changeset="12319775">
    <nd ref="566892978"/>
    <nd ref="361189534"/>
    <nd ref="361189538"/>
    <nd ref="361189542"/>
    <nd ref="361189557"/>
    <nd ref="361189575"/>
    <nd ref="361189577"/>
    <nd ref="361189578"/>
    <tag k="highway" v="residential"/>
    <tag k="name" v="The Broadwater"/>
  </way>
  <way id="51969215" version="7" timestamp="2012-07-31T16:31:50Z" uid="57380" user="JennyH" changeset="12563660">
    <nd ref="1221072291"/>
    <nd ref="566892978"/>
    <nd ref="361189534"/>
    <nd ref="361189538"/>
    <nd ref="361189542"/>
    <nd ref="361189557"/>
    <nd ref="361189575"/>
    <nd ref="361189577"/>
    <nd ref="361189578"/>
    <tag k="highway" v="residential"/>
    <tag k="name" v="The Broadwater"/>
  </way>
  <way id="51969216" version="5" timestamp="2012-07-19T10:55:56Z" uid="722137" user="OSMF Redaction Account" changeset="12319775">
    <nd ref="361189687"/>
    <nd ref="361189689"/>
    <nd ref="361189693"/>
    <nd ref="361189697"/>
    <nd ref="361189700"/>
    <nd ref="361189704"/>
    <nd ref="361189707"/>
    <nd ref="361189709"/>
    <nd ref="361189710"/>
    <nd ref="361189711"/>
    <nd ref="361189712"/>
    <tag k="highway" v="residential"/>
    <tag k="name" v="The Esplanade"/>
  </way>
  <way id="51969282" version="5" timestamp="2012-07-19T10:56:17Z" uid="722137" user="OSMF Redaction Account" changeset="12319775">
    <nd ref="565837961"/>
    <nd ref="565837963"/>
    <nd ref="565837965"/>
    <nd ref="565837966"/>
    <nd ref="565837967"/>
    <nd ref="565837970"/>
    <tag k="highway" v="residential"/>
    <tag k="name" v="Owl Court"/>
  </way>
</osm>
