<?xml version='1.0' encoding='UTF-8'?>
<osm version="0.6" generator="libosmium/2.20.0">
  <way id="52030306" version="3" timestamp="2011-04-21T06:58:35Z" uid="66036" user="h4v" changeset="7922583">
    <nd ref="663285600"/>
    <nd ref="663285605"/>
    <nd ref="663285610"/>
    <nd ref="663285335"/>
    <nd ref="663285615"/>
    <tag k="highway" v="residential"/>
    <tag k="name" v="Macieja Boryny"/>
  </way>
  <way id="52030306" version="4" timestamp="2011-08-12T11:26:14Z" uid="338611" user="marek kleciak" changeset="8994826">
    <nd ref="663285600"/>
    <nd ref="663285605"/>
    <nd ref="1395940952"/>
    <nd ref="1395940934"/>
    <nd ref="1395940978"/>
    <nd ref="1395940928"/>
    <nd ref="663285610"/>
    <nd ref="663285335"/>
    <nd ref="1395940981"/>
    <nd ref="663285615"/>
    <tag k="highway" v="residential"/>
    <tag k="name" v="Macieja Boryny"/>
  </way>
  <way id="52030338" version="2" timestamp="2010-05-03T15:29:19Z" uid="23543" user="jkjk" changeset="4595827">
    <nd ref="663285978"/>
    <nd ref="663285979"/>
    <tag k="bridge" v="yes"/>
    <tag k="highway" v="motorway"/>
    <tag k="layer" v="1"/>
    <tag k="source" v="GPS"/>
  </way>
  <way id="52030339" version="2" timestamp="2010-05-03T15:29:19Z" uid="23543" user="jkjk" changeset="4595827">
    <nd ref="663285979"/>
    <nd ref="620393963"/>
    <nd ref="620393965"/>
    <nd ref="620393967"/>
    <nd ref="620393957"/>
    <nd ref="620393959"/>
    <nd ref="620393961"/>
    <nd ref="620393955"/>
    <nd ref="620393945"/>
    <nd ref="620393947"/>
    <nd ref="620393949"/>
    <nd ref="620393951"/>
    <tag k="highway" v="motorway"/>
    <tag k="source" v="GPS"/>
  </way>
  <way id="52030354" version="3" timestamp="2010-05-03T15:29:25Z" uid="23543" user="jkjk" changeset="4595827">
    <nd ref="663286009"/>
    <nd ref="318078552"/>
    <nd ref="318078551"/>
    <nd ref="318078550"/>
    <nd ref="318078549"/>
    <nd ref="672396072"/>
    <nd ref="318078548"/>
    <nd ref="672396063"/>
    <nd ref="318078547"/>
    <nd ref="318078546"/>
    <nd ref="318078545"/>
    <nd ref="318078544"/>
    <nd ref="318078543"/>
    <nd ref="318078542"/>
    <nd ref="318078541"/>
    <nd ref="318078540"/>
    <nd ref="318078539"/>
    <nd ref="318078538"/>
    <nd ref="318078537"/>
    <nd ref="318078536"/>
    <nd ref="318078535"/>
    <nd ref="318078534"/>
    <nd ref="718894535"/>
    <nd ref="318078525"/>
    <tag k="highway" v="motorway"/>
    <tag k="lanes" v="3"/>
    <tag k="oneway" v="yes"/>
  </way>
  <way id="52030354" version="4" timestamp="2010-05-12T15:49:02Z" uid="83557" user="Esperanza36" changeset="4678265">
    <nd ref="663286009"/>
    <nd ref="318078552"/>
    <nd ref="318078551"/>
    <nd ref="318078550"/>
    <nd ref="318078549"/>
    <nd ref="672396072"/>
    <nd ref="318078548"/>
    <nd ref="672396063"/>
    <nd ref="318078547"/>
    <nd ref="318078546"/>
    <nd ref="318078545"/>
    <nd ref="318078544"/>
    <nd ref="318078543"/>
    <nd ref="318078542"/>
    <nd ref="318078541"/>
    <nd ref="318078540"/>
    <nd ref="318078539"/>
    <nd ref="318078538"/>
    <nd ref="318078537"/>
    <nd ref="318078536"/>
    <nd ref="318078535"/>
    <nd ref="318078534"/>
    <nd ref="718894535"/>
    <nd ref="318078525"/>
    <tag k="highway" v="motorway"/>
    <tag k="lanes" v="3"/>
    <tag k="oneway" v="yes"/>
    <tag k="ref" v="G5"/>
    <tag k="source" v="GPS"/>
  </way>
  <way id="52030354" version="5" timestamp="2010-05-13T09:33:31Z" uid="83557" user="Esperanza36" changeset="4683864">
    <nd ref="663286009"/>
    <nd ref="318078552"/>
    <nd ref="318078551"/>
    <nd ref="318078550"/>
    <nd ref="318078549"/>
    <nd ref="672396072"/>
    <nd ref="318078548"/>
    <nd ref="672396063"/>
    <nd ref="318078547"/>
    <nd ref="318078546"/>
    <nd ref="318078545"/>
    <nd ref="318078544"/>
    <nd ref="318078543"/>
    <nd ref="318078542"/>
    <nd ref="318078541"/>
    <nd ref="318078540"/>
    <nd ref="318078539"/>
    <nd ref="318078538"/>
    <nd ref="318078537"/>
    <nd ref="318078536"/>
    <nd ref="318078535"/>
    <nd ref="318078534"/>
    <nd ref="718894535"/>
    <nd ref="318078525"/>
    <tag k="highway" v="motorway"/>
    <tag k="lanes" v="3"/>
    <tag k="name" v="成雅高速"/>
    <tag k="name:en" v="Chengya Expressway"/>
    <tag k="oneway" v="yes"/>
    <tag k="ref" v="G5"/>
    <tag k="source" v="GPS"/>
  </way>
  <way id="52030354" version="6" timestamp="2010-11-05T17:38:24Z" uid="13786" user="robotnic" changeset="6296798">
    <nd ref="663286009"/>
    <nd ref="318078552"/>
    <nd ref="318078551"/>
    <nd ref="318078550"/>
    <nd ref="318078549"/>
    <nd ref="672396072"/>
    <nd ref="318078548"/>
    <nd ref="672396063"/>
    <nd ref="318078547"/>
    <nd ref="318078546"/>
    <nd ref="318078545"/>
    <nd ref="318078544"/>
    <nd ref="318078543"/>
    <nd ref="318078542"/>
    <nd ref="318078541"/>
    <nd ref="318078540"/>
    <nd ref="318078539"/>
    <nd ref="318078538"/>
    <nd ref="318078537"/>
    <nd ref="318078536"/>
    <nd ref="318078535"/>
    <nd ref="318078534"/>
    <nd ref="718894535"/>
    <nd ref="318078525"/>
    <tag k="highway" v="motorway"/>
    <tag k="lanes" v="3"/>
    <tag k="name" v="成雅高速"/>
    <tag k="name:en" v="Chengya Expressway"/>
    <tag k="ref" v="G5"/>
    <tag k="source" v="GPS"/>
  </way>
  <way id="52030354" version="7" timestamp="2011-01-13T19:50:03Z" uid="386131" user="zhongguo" changeset="6960853">
    <nd ref="663286009"/>
    <nd ref="318078552"/>
    <nd ref="318078551"/>
    <nd ref="318078550"/>
    <nd ref="318078549"/>
    <nd ref="672396072"/>
    <nd ref="318078548"/>
    <nd ref="672396063"/>
    <nd ref="318078547"/>
    <nd ref="1102415966"/>
    <nd ref="318078546"/>
    <nd ref="318078545"/>
    <nd ref="318078544"/>
    <nd ref="318078543"/>
    <nd ref="318078542"/>
    <nd ref="1102415780"/>
    <nd ref="1102415831"/>
    <nd ref="318078540"/>
    <nd ref="318078539"/>
    <nd ref="318078538"/>
    <nd ref="318078537"/>
    <nd ref="318078536"/>
    <nd ref="318078535"/>
    <nd ref="318078534"/>
    <nd ref="718894535"/>
    <nd ref="1102415597"/>
    <nd ref="1102415858"/>
    <nd ref="1102415598"/>
    <nd ref="1102415863"/>
    <tag k="highway" v="motorway"/>
    <tag k="lanes" v="3"/>
    <tag k="name" v="成雅高速"/>
    <tag k="name:en" v="Chengya Expressway"/>
    <tag k="ref" v="G5"/>
    <tag k="source" v="GPS"/>
  </way>
  <way id="52030356" version="2" timestamp="2010-03-20T17:32:02Z" uid="33382" user="de_muur" changeset="4182466">
    <nd ref="663286252"/>
    <nd ref="670651219"/>
    <nd ref="670651216"/>
    <nd ref="663286246"/>
    <nd ref="663286252"/>
    <tag k="landuse" v="farm"/>
  </way>
  <way id="52030356" version="3" timestamp="2010-12-15T08:22:41Z" uid="115883" user="Senior_Spielbergo" changeset="6665380">
    <nd ref="663286252"/>
    <nd ref="670651219"/>
    <nd ref="670651216"/>
    <nd ref="663286246"/>
    <nd ref="663286252"/>
    <tag k="landuse" v="farmland"/>
  </way>
  <way id="52030510" version="4" timestamp="2010-04-22T16:10:17Z" uid="6269" user="Mueck" changeset="4496275">
    <nd ref="286376289"/>
    <nd ref="421648987"/>
    <nd ref="286376297"/>
    <nd ref="25928844"/>
    <nd ref="344878153"/>
    <tag k="cycleway" v="track"/>
    <tag k="highway" v="primary"/>
    <tag k="maxspeed" v="60"/>
    <tag k="motorroad" v="no"/>
    <tag k="name" v="Durlacher Allee"/>
    <tag k="oneway" v="yes"/>
    <tag k="ref" v="B 10"/>
  </way>
  <way id="52030510" version="5" timestamp="2011-06-22T10:44:59Z" uid="165061" user="keinname" changeset="8512573">
    <nd ref="286376289"/>
    <nd ref="421648987"/>
    <nd ref="286376297"/>
    <nd ref="25928844"/>
    <nd ref="344878153"/>
    <tag k="highway" v="primary"/>
    <tag k="maxspeed" v="60"/>
    <tag k="motorroad" v="no"/>
    <tag k="name" v="Durlacher Allee"/>
    <tag k="oneway" v="yes"/>
    <tag k="ref" v="B 10"/>
  </way>
  <way id="52030510" version="6" timestamp="2011-10-06T14:59:40Z" uid="4499" user="Jochen Topf" changeset="9486264">
    <nd ref="286376289"/>
    <nd ref="421648987"/>
    <nd ref="286376297"/>
    <nd ref="25928844"/>
    <nd ref="344878153"/>
    <tag k="highway" v="primary"/>
    <tag k="maxspeed" v="60"/>
    <tag k="motorroad" v="no"/>
    <tag k="name" v="Durlacher Allee"/>
    <tag k="oneway" v="yes"/>
    <tag k="ref" v="B 10"/>
    <tag k="tmc" v="DE:20287-30893"/>
  </way>
  <way id="52030510" version="7" timestamp="2011-10-13T15:03:34Z" uid="4499" user="Jochen Topf" changeset="9547928">
    <nd ref="286376289"/>
    <nd ref="421648987"/>
    <nd ref="286376297"/>
    <nd ref="25928844"/>
    <nd ref="344878153"/>
    <tag k="highway" v="primary"/>
    <tag k="maxspeed" v="60"/>
    <tag k="motorroad" v="no"/>
    <tag k="name" v="Durlacher Allee"/>
    <tag k="oneway" v="yes"/>
    <tag k="ref" v="B 10"/>
    <tag k="tmc" v="DE:30893+20287"/>
  </way>
  <way id="52030510" version="8" timestamp="2011-10-24T14:51:15Z" uid="442210" user="dwausr" changeset="9644118"/>
  <way id="52030306" version="5" timestamp="2012-07-24T14:09:02Z" uid="722137" user="OSMF Redaction Account" changeset="12467414">
    <nd ref="1395940952"/>
    <nd ref="1395940934"/>
    <nd ref="1395940978"/>
    <nd ref="1395940928"/>
    <nd ref="1395940981"/>
  </way>
  <way id="52030306" version="6" timestamp="2012-07-29T21:20:17Z" uid="707169" user="damndog" changeset="12540876">
    <nd ref="1843263606"/>
    <nd ref="1395940952"/>
    <nd ref="1395940934"/>
    <nd ref="1395940978"/>
    <nd ref="1395940928"/>
    <nd ref="1843263609"/>
    <nd ref="1843263611"/>
    <nd ref="1843263613"/>
    <nd ref="1395940981"/>
    <nd ref="663285615"/>
    <tag k="highway" v="residential"/>
    <tag k="name" v="Macieja Boryny"/>
  </way>
  <way id="52030338" version="3" timestamp="2012-07-20T18:20:14Z" uid="722137" user="OSMF Redaction Account" changeset="12386690">
    <nd ref="663285978"/>
    <nd ref="663285979"/>
    <tag k="bridge" v="yes"/>
    <tag k="highway" v="secondary"/>
    <tag k="layer" v="1"/>
    <tag k="source" v="GPS"/>
  </way>
  <way id="52030339" version="3" timestamp="2012-07-20T18:20:14Z" uid="722137" user="OSMF Redaction Account" changeset="12386690">
    <nd ref="663285979"/>
    <nd ref="620393963"/>
    <nd ref="620393965"/>
    <nd ref="620393967"/>
    <nd ref="620393957"/>
    <nd ref="620393959"/>
    <nd ref="620393961"/>
    <nd ref="620393955"/>
    <nd ref="620393945"/>
    <nd ref="620393947"/>
    <nd ref="620393949"/>
    <nd ref="620393951"/>
    <tag k="highway" v="secondary"/>
    <tag k="source" v="GPS"/>
  </way>
  <way id="52030354" version="8" timestamp="2012-07-07T16:37:08Z" uid="13203" user="bahnpirat" changeset="12141694">
    <nd ref="318078544"/>
    <nd ref="318078543"/>
    <nd ref="318078542"/>
    <nd ref="1102415780"/>
    <nd ref="1102415831"/>
    <nd ref="318078540"/>
    <nd ref="318078539"/>
    <nd ref="318078538"/>
    <nd ref="318078537"/>
    <nd ref="318078536"/>
    <nd ref="318078535"/>
    <nd ref="318078534"/>
    <nd ref="718894535"/>
    <nd ref="1102415597"/>
    <nd ref="1102415858"/>
    <nd ref="1102415598"/>
    <nd ref="1102415863"/>
    <tag k="highway" v="motorway"/>
    <tag k="lanes" v="3"/>
    <tag k="name" v="成雅高速"/>
    <tag k="name:en" v="Chengya Expressway"/>
    <tag k="ref" v="G5"/>
    <tag k="source" v="GPS"/>
  </way>
  <way id="52030354" version="9" timestamp="2012-07-07T19:42:44Z" uid="13203" user="bahnpirat" changeset="12143444">
    <nd ref="718894535"/>
    <nd ref="1102415597"/>
    <nd ref="1102415858"/>
    <nd ref="1102415598"/>
    <nd ref="1102415863"/>
    <tag k="highway" v="motorway"/>
    <tag k="lanes" v="3"/>
    <tag k="name" v="成雅高速"/>
    <tag k="name:en" v="Chengya Expressway"/>
    <tag k="oneway" v="yes"/>
    <tag k="ref" v="G5"/>
    <tag k="source" v="Bing"/>
  </way>
  <way id="52030354" version="10" timestamp="2012-07-08T10:10:05Z" uid="13203" user="bahnpirat" changeset="12147925">
    <nd ref="718894535"/>
    <nd ref="1102415597"/>
    <nd ref="1102415858"/>
    <nd ref="1102415598"/>
    <tag k="highway" v="motorway"/>
    <tag k="lanes" v="2"/>
    <tag k="name" v="成雅高速"/>
    <tag k="name:en" v="Chengya Expressway"/>
    <tag k="oneway" v="yes"/>
    <tag k="ref" v="G5"/>
    <tag k="source" v="Bing"/>
  </way>
  <way id="52030354" version="11" timestamp="2012-07-20T18:38:06Z" uid="722137" user="OSMF Redaction Account" changeset="12387297">
    <nd ref="1102415597"/>
    <nd ref="1102415858"/>
    <nd ref="1102415598"/>
    <tag k="highway" v="motorway"/>
    <tag k="lanes" v="2"/>
    <tag k="name" v="成雅高速"/>
    <tag k="name:en" v="Chengya Expressway"/>
    <tag k="oneway" v="yes"/>
    <tag k="ref" v="G5"/>
    <tag k="source" v="Bing"/>
  </way>
  <way id="52030356" version="4" timestamp="2012-07-19T02:25:23Z" uid="722137" user="OSMF Redaction Account" changeset="12305054">
    <nd ref="663286252"/>
    <nd ref="663286246"/>
    <tag k="landuse" v="farmland"/>
  </way>
</osm>
