<?xml version='1.0' encoding='UTF-8'?>
<osm version="0.6" generator="libosmium/2.20.0">
  <way id="52040057" version="5" timestamp="2010-08-15T23:39:38Z" uid="4467" user="Rosscoe" changeset="5505383">
    <nd ref="37968937"/>
    <nd ref="37995613"/>
    <nd ref="37995618"/>
    <nd ref="37995622"/>
    <nd ref="37995624"/>
    <nd ref="37995625"/>
    <nd ref="37995629"/>
    <nd ref="37995292"/>
    <nd ref="37995634"/>
    <nd ref="37995636"/>
    <nd ref="37995641"/>
    <nd ref="37995644"/>
    <nd ref="37995647"/>
    <nd ref="37995650"/>
    <nd ref="37995653"/>
    <nd ref="659641597"/>
    <nd ref="37995656"/>
    <nd ref="37995659"/>
    <nd ref="37995661"/>
    <nd ref="37995665"/>
    <nd ref="37995669"/>
    <nd ref="37995672"/>
    <nd ref="37995674"/>
    <nd ref="37995676"/>
    <nd ref="37995684"/>
    <nd ref="37995687"/>
    <tag k="highway" v="primary"/>
    <tag k="name" v="Northwestern Avenue"/>
    <tag k="ref" v="US 231"/>
    <tag k="tiger:cfcc" v="A21"/>
    <tag k="tiger:county" v="Tippecanoe, IN"/>
    <tag k="tiger:name_base" v="Northwestern"/>
    <tag k="tiger:name_type" v="Ave"/>
    <tag k="tiger:reviewed" v="no"/>
    <tag k="tiger:separated" v="no"/>
    <tag k="tiger:source" v="tiger_import_dch_v0.6_20070810"/>
    <tag k="tiger:tlid" v="27304219:27322252:27304293:27322478:27304294:27304931:27304950:27304952:27305014:27304967:27305020:27305026:27305028:27305137:27305160:27305161:27305164:27322267:27322268:27305182:27305138:27305029:27304955:27304220:27305532:27305529:27322249"/>
    <tag k="tiger:upload_uuid" v="bulk_upload.pl-e4563b10-405a-47be-92d1-f808b6a73b6a"/>
    <tag k="tiger:zip_left" v="47906"/>
    <tag k="tiger:zip_right" v="47906"/>
  </way>
  <way id="52040057" version="6" timestamp="2010-08-24T12:20:31Z" uid="236412" user="dcs" changeset="5579123">
    <nd ref="37968937"/>
    <nd ref="37995613"/>
    <nd ref="37995618"/>
    <nd ref="37995622"/>
    <nd ref="37995624"/>
    <nd ref="37995625"/>
    <nd ref="37995629"/>
    <nd ref="37995292"/>
    <nd ref="37995634"/>
    <nd ref="37995636"/>
    <nd ref="37995641"/>
    <nd ref="37995644"/>
    <nd ref="37995647"/>
    <nd ref="37995650"/>
    <nd ref="37995653"/>
    <nd ref="659641597"/>
    <nd ref="37995656"/>
    <nd ref="37995659"/>
    <nd ref="37995661"/>
    <nd ref="37995665"/>
    <nd ref="37995669"/>
    <nd ref="37995672"/>
    <nd ref="37995674"/>
    <tag k="highway" v="primary"/>
    <tag k="name" v="Northwestern Avenue"/>
    <tag k="ref" v="US 231"/>
    <tag k="tiger:cfcc" v="A21"/>
    <tag k="tiger:county" v="Tippecanoe, IN"/>
    <tag k="tiger:name_base" v="Northwestern"/>
    <tag k="tiger:name_type" v="Ave"/>
    <tag k="tiger:reviewed" v="no"/>
    <tag k="tiger:separated" v="no"/>
    <tag k="tiger:source" v="tiger_import_dch_v0.6_20070810"/>
    <tag k="tiger:tlid" v="27304219:27322252:27304293:27322478:27304294:27304931:27304950:27304952:27305014:27304967:27305020:27305026:27305028:27305137:27305160:27305161:27305164:27322267:27322268:27305182:27305138:27305029:27304955:27304220:27305532:27305529:27322249"/>
    <tag k="tiger:upload_uuid" v="bulk_upload.pl-e4563b10-405a-47be-92d1-f808b6a73b6a"/>
    <tag k="tiger:zip_left" v="47906"/>
    <tag k="tiger:zip_right" v="47906"/>
  </way>
  <way id="52040057" version="7" timestamp="2010-09-01T02:43:32Z" uid="236412" user="dcs" changeset="5650942">
    <nd ref="37968937"/>
    <nd ref="37995613"/>
    <nd ref="37995618"/>
    <nd ref="37995622"/>
    <nd ref="37995624"/>
    <nd ref="37995625"/>
    <nd ref="37995629"/>
    <nd ref="37995292"/>
    <nd ref="37995634"/>
    <nd ref="37995636"/>
    <nd ref="37995641"/>
    <nd ref="891272355"/>
    <nd ref="37995644"/>
    <nd ref="37995647"/>
    <nd ref="37995650"/>
    <nd ref="37995653"/>
    <nd ref="659641597"/>
    <nd ref="37995656"/>
    <nd ref="37995659"/>
    <nd ref="37995661"/>
    <nd ref="37995665"/>
    <nd ref="37995669"/>
    <nd ref="37995672"/>
    <nd ref="37995674"/>
    <tag k="highway" v="primary"/>
    <tag k="name" v="Northwestern Avenue"/>
    <tag k="ref" v="US 231"/>
    <tag k="tiger:cfcc" v="A21"/>
    <tag k="tiger:county" v="Tippecanoe, IN"/>
    <tag k="tiger:name_base" v="Northwestern"/>
    <tag k="tiger:name_type" v="Ave"/>
    <tag k="tiger:reviewed" v="no"/>
    <tag k="tiger:separated" v="no"/>
    <tag k="tiger:source" v="tiger_import_dch_v0.6_20070810"/>
    <tag k="tiger:tlid" v="27304219:27322252:27304293:27322478:27304294:27304931:27304950:27304952:27305014:27304967:27305020:27305026:27305028:27305137:27305160:27305161:27305164:27322267:27322268:27305182:27305138:27305029:27304955:27304220:27305532:27305529:27322249"/>
    <tag k="tiger:upload_uuid" v="bulk_upload.pl-e4563b10-405a-47be-92d1-f808b6a73b6a"/>
    <tag k="tiger:zip_left" v="47906"/>
    <tag k="tiger:zip_right" v="47906"/>
  </way>
  <way id="52040057" version="8" timestamp="2011-01-12T21:12:42Z" uid="236412" user="dcs" changeset="6951709">
    <nd ref="37968937"/>
    <nd ref="37995613"/>
    <nd ref="37995618"/>
    <nd ref="37995622"/>
    <nd ref="37995624"/>
    <nd ref="37995625"/>
    <nd ref="37995629"/>
    <nd ref="37995292"/>
    <nd ref="37995634"/>
    <nd ref="37995636"/>
    <nd ref="1100604413"/>
    <nd ref="37995641"/>
    <nd ref="891272355"/>
    <nd ref="37995644"/>
    <nd ref="37995647"/>
    <nd ref="37995650"/>
    <nd ref="37995653"/>
    <nd ref="659641597"/>
    <nd ref="37995656"/>
    <nd ref="37995659"/>
    <nd ref="37995661"/>
    <nd ref="37995665"/>
    <nd ref="37995669"/>
    <nd ref="37995672"/>
    <nd ref="37995674"/>
    <tag k="highway" v="primary"/>
    <tag k="name" v="Northwestern Avenue"/>
    <tag k="ref" v="US 231"/>
    <tag k="tiger:cfcc" v="A21"/>
    <tag k="tiger:county" v="Tippecanoe, IN"/>
    <tag k="tiger:name_base" v="Northwestern"/>
    <tag k="tiger:name_type" v="Ave"/>
    <tag k="tiger:reviewed" v="no"/>
    <tag k="tiger:separated" v="no"/>
    <tag k="tiger:source" v="tiger_import_dch_v0.6_20070810"/>
    <tag k="tiger:tlid" v="27304219:27322252:27304293:27322478:27304294:27304931:27304950:27304952:27305014:27304967:27305020:27305026:27305028:27305137:27305160:27305161:27305164:27322267:27322268:27305182:27305138:27305029:27304955:27304220:27305532:27305529:27322249"/>
    <tag k="tiger:upload_uuid" v="bulk_upload.pl-e4563b10-405a-47be-92d1-f808b6a73b6a"/>
    <tag k="tiger:zip_left" v="47906"/>
    <tag k="tiger:zip_right" v="47906"/>
  </way>
  <way id="52040057" version="9" timestamp="2011-07-04T05:00:23Z" uid="473471" user="NE3" changeset="8625725">
    <nd ref="37968937"/>
    <nd ref="37995613"/>
    <nd ref="37995618"/>
    <nd ref="37995622"/>
    <nd ref="37995624"/>
    <nd ref="37995625"/>
    <nd ref="37995629"/>
    <nd ref="37995292"/>
    <nd ref="37995634"/>
    <nd ref="37995636"/>
    <nd ref="1100604413"/>
    <nd ref="37995641"/>
    <nd ref="891272355"/>
    <nd ref="37995644"/>
    <nd ref="37995647"/>
    <nd ref="37995650"/>
    <nd ref="37995653"/>
    <nd ref="659641597"/>
    <nd ref="37995656"/>
    <nd ref="37995659"/>
    <nd ref="37995661"/>
    <nd ref="37995665"/>
    <nd ref="37995669"/>
    <nd ref="37995672"/>
    <nd ref="37995674"/>
    <tag k="highway" v="primary"/>
    <tag k="lanes" v="4"/>
    <tag k="name" v="Northwestern Avenue"/>
    <tag k="ref" v="US 231"/>
    <tag k="tiger:cfcc" v="A21"/>
    <tag k="tiger:county" v="Tippecanoe, IN"/>
    <tag k="tiger:name_base" v="Northwestern"/>
    <tag k="tiger:name_type" v="Ave"/>
    <tag k="tiger:reviewed" v="no"/>
    <tag k="tiger:separated" v="no"/>
    <tag k="tiger:source" v="tiger_import_dch_v0.6_20070810"/>
    <tag k="tiger:tlid" v="27304219:27322252:27304293:27322478:27304294:27304931:27304950:27304952:27305014:27304967:27305020:27305026:27305028:27305137:27305160:27305161:27305164:27322267:27322268:27305182:27305138:27305029:27304955:27304220:27305532:27305529:27322249"/>
    <tag k="tiger:upload_uuid" v="bulk_upload.pl-e4563b10-405a-47be-92d1-f808b6a73b6a"/>
    <tag k="tiger:zip_left" v="47906"/>
    <tag k="tiger:zip_right" v="47906"/>
  </way>
  <way id="52040063" version="1" timestamp="2010-03-09T19:40:11Z" uid="16922" user="amai" changeset="4083760">
    <nd ref="663385875"/>
    <nd ref="663385876"/>
    <nd ref="663385877"/>
    <nd ref="663385878"/>
    <nd ref="663385879"/>
    <nd ref="663385880"/>
    <nd ref="663385881"/>
    <nd ref="663385883"/>
    <nd ref="663385884"/>
    <nd ref="663385885"/>
    <nd ref="663385886"/>
    <nd ref="663385887"/>
    <nd ref="663385888"/>
    <nd ref="663385889"/>
    <nd ref="663385890"/>
    <nd ref="663385891"/>
    <nd ref="663385892"/>
    <nd ref="663385893"/>
    <nd ref="663385894"/>
    <nd ref="663385895"/>
    <nd ref="663385897"/>
    <nd ref="663385898"/>
    <nd ref="663385899"/>
    <nd ref="663385900"/>
    <nd ref="663385901"/>
    <nd ref="663385902"/>
    <nd ref="663385875"/>
    <tag k="landuse" v="industrial"/>
    <tag k="source" v="Yahoo"/>
  </way>
  <way id="52040064" version="1" timestamp="2010-03-09T19:40:12Z" uid="16922" user="amai" changeset="4083760">
    <nd ref="663385903"/>
    <nd ref="663385904"/>
    <nd ref="663385905"/>
    <nd ref="663385906"/>
    <nd ref="663385903"/>
    <tag k="building" v="yes"/>
    <tag k="source" v="Yahoo"/>
  </way>
  <way id="52040066" version="1" timestamp="2010-03-09T19:40:15Z" uid="16922" user="amai" changeset="4083760">
    <nd ref="239071022"/>
    <nd ref="663385907"/>
    <nd ref="663385908"/>
    <nd ref="663385909"/>
    <nd ref="663385910"/>
    <nd ref="663385911"/>
    <nd ref="663385912"/>
    <nd ref="663385913"/>
    <nd ref="663385914"/>
    <nd ref="663385920"/>
    <nd ref="663385930"/>
    <nd ref="663385939"/>
    <nd ref="663385944"/>
    <nd ref="663385945"/>
    <nd ref="663385946"/>
    <nd ref="663385947"/>
    <tag k="highway" v="road"/>
    <tag k="source" v="Yahoo"/>
  </way>
  <way id="52040067" version="1" timestamp="2010-03-09T19:40:17Z" uid="16922" user="amai" changeset="4083760">
    <nd ref="663385930"/>
    <nd ref="663385950"/>
    <nd ref="663385951"/>
    <tag k="highway" v="road"/>
    <tag k="source" v="Yahoo"/>
  </way>
  <way id="52040068" version="2" timestamp="2010-04-06T14:55:22Z" uid="20587" user="balrog-kun" changeset="4342997">
    <nd ref="122197199"/>
    <nd ref="122197201"/>
    <nd ref="122197203"/>
    <nd ref="122197204"/>
    <nd ref="122197209"/>
    <nd ref="122197211"/>
    <nd ref="122197212"/>
    <nd ref="122197213"/>
    <nd ref="122197217"/>
    <nd ref="122197219"/>
    <tag k="highway" v="residential"/>
    <tag k="name" v="North Yale Boulevard"/>
    <tag k="tiger:cfcc" v="A41"/>
    <tag k="tiger:county" v="Sedgwick, KS"/>
    <tag k="tiger:name_base" v="Yale"/>
    <tag k="tiger:name_direction_prefix" v="N"/>
    <tag k="tiger:name_type" v="Blvd"/>
    <tag k="tiger:separated" v="no"/>
    <tag k="tiger:source" v="tiger_import_dch_v0.6_20070812"/>
    <tag k="tiger:tlid" v="115637510:115637516:115637517"/>
    <tag k="tiger:zip_left" v="67208"/>
    <tag k="tiger:zip_right" v="67208"/>
  </way>
  <way id="52040070" version="2" timestamp="2010-04-06T14:55:22Z" uid="20587" user="balrog-kun" changeset="4342997">
    <nd ref="122197199"/>
    <nd ref="663385954"/>
    <nd ref="663385952"/>
    <tag k="highway" v="residential"/>
    <tag k="name" v="North Yale Boulevard"/>
    <tag k="oneway" v="yes"/>
  </way>
  <way id="52040072" version="3" timestamp="2010-08-14T17:27:47Z" uid="59758" user="rendle" changeset="5492745">
    <nd ref="803785216"/>
    <nd ref="663385959"/>
    <nd ref="860339247"/>
    <nd ref="478511461"/>
    <tag k="highway" v="residential"/>
  </way>
  <way id="52040072" version="4" timestamp="2010-08-14T17:28:22Z" uid="59758" user="rendle" changeset="5492745">
    <nd ref="803785216"/>
    <nd ref="663385959"/>
    <nd ref="860339247"/>
    <tag k="highway" v="residential"/>
  </way>
  <way id="52040072" version="5" timestamp="2010-08-14T17:28:36Z" uid="59758" user="rendle" changeset="5492745">
    <nd ref="803785216"/>
    <nd ref="663385959"/>
    <nd ref="860339247"/>
    <tag k="highway" v="residential"/>
    <tag k="name" v="Kriktestraat"/>
  </way>
  <way id="52040072" version="6" timestamp="2012-01-11T23:34:23Z" uid="138772" user="lodde1949" changeset="10365750">
    <nd ref="803785216"/>
    <nd ref="663385959"/>
    <nd ref="1586383883"/>
    <tag k="highway" v="residential"/>
    <tag k="name" v="Kriktestraat"/>
  </way>
  <way id="52040072" version="7" timestamp="2012-02-10T11:02:27Z" uid="138772" user="lodde1949" changeset="10642293"/>
  <way id="52040371" version="2" timestamp="2010-03-28T11:52:43Z" uid="20587" user="balrog-kun" changeset="4254597">
    <nd ref="95714159"/>
    <nd ref="95714160"/>
    <nd ref="95714161"/>
    <nd ref="95714162"/>
    <tag k="highway" v="residential"/>
    <tag k="name" v="2nd Street"/>
    <tag k="tiger:cfcc" v="A41"/>
    <tag k="tiger:county" v="Yolo, CA"/>
    <tag k="tiger:name_base" v="2nd"/>
    <tag k="tiger:name_type" v="St"/>
    <tag k="tiger:reviewed" v="no"/>
    <tag k="tiger:separated" v="no"/>
    <tag k="tiger:source" v="tiger_import_dch_v0.6_20070809"/>
    <tag k="tiger:tlid" v="67693590:67693580:67693576:67693577:67693565:67693581"/>
    <tag k="tiger:zip_left" v="95605"/>
    <tag k="tiger:zip_right" v="95605"/>
  </way>
  <way id="52040371" version="3" timestamp="2011-09-11T22:10:00Z" uid="509902" user="jkendow" changeset="9275074">
    <nd ref="95714159"/>
    <nd ref="95714160"/>
    <tag k="highway" v="residential"/>
    <tag k="name" v="2nd Street"/>
    <tag k="tiger:cfcc" v="A41"/>
    <tag k="tiger:county" v="Yolo, CA"/>
    <tag k="tiger:name_base" v="2nd"/>
    <tag k="tiger:name_type" v="St"/>
    <tag k="tiger:reviewed" v="no"/>
    <tag k="tiger:separated" v="no"/>
    <tag k="tiger:source" v="tiger_import_dch_v0.6_20070809"/>
    <tag k="tiger:tlid" v="67693590:67693580:67693576:67693577:67693565:67693581"/>
    <tag k="tiger:zip_left" v="95605"/>
    <tag k="tiger:zip_right" v="95605"/>
  </way>
  <way id="52040771" version="1" timestamp="2010-03-09T19:52:38Z" uid="9581" user="Lobelt" changeset="4083888">
    <nd ref="663390329"/>
    <nd ref="663390409"/>
    <nd ref="663390410"/>
    <nd ref="663390330"/>
    <nd ref="663390333"/>
    <nd ref="663390329"/>
    <tag k="building" v="yes"/>
  </way>
  <way id="52040771" version="2" timestamp="2012-01-24T14:39:27Z" uid="442210" user="dwausr" changeset="10485075"/>
  <way id="52040771" version="3" timestamp="2012-03-28T07:25:13Z" uid="442210" user="dwausr" changeset="11123485">
    <nd ref="663390329"/>
    <nd ref="663390409"/>
    <nd ref="663390410"/>
    <nd ref="663390330"/>
    <nd ref="663390333"/>
    <nd ref="663390329"/>
    <tag k="building" v="yes"/>
  </way>
  <way id="52040772" version="1" timestamp="2010-03-09T19:52:38Z" uid="9581" user="Lobelt" changeset="4083888">
    <nd ref="663390339"/>
    <nd ref="663390340"/>
    <nd ref="663390414"/>
    <nd ref="663390348"/>
    <nd ref="663390339"/>
    <tag k="building" v="yes"/>
  </way>
  <way id="52040772" version="2" timestamp="2012-01-24T14:39:27Z" uid="442210" user="dwausr" changeset="10485075"/>
  <way id="52040772" version="3" timestamp="2012-03-28T07:22:22Z" uid="442210" user="dwausr" changeset="11123485">
    <nd ref="663390339"/>
    <nd ref="663390340"/>
    <nd ref="663390414"/>
    <nd ref="663390348"/>
    <nd ref="663390339"/>
    <tag k="building" v="yes"/>
  </way>
  <way id="52040773" version="1" timestamp="2010-03-09T19:52:38Z" uid="9581" user="Lobelt" changeset="4083888">
    <nd ref="663390359"/>
    <nd ref="663390361"/>
    <nd ref="663390483"/>
    <nd ref="663390482"/>
    <nd ref="663390359"/>
    <tag k="addr:housenumber" v="28"/>
    <tag k="addr:street" v="Lindenstraße"/>
    <tag k="building" v="yes"/>
  </way>
  <way id="52040773" version="2" timestamp="2012-01-26T11:13:47Z" uid="442210" user="dwausr" changeset="10501965"/>
  <way id="52040773" version="3" timestamp="2012-03-28T07:35:47Z" uid="442210" user="dwausr" changeset="11123485">
    <nd ref="663390359"/>
    <nd ref="663390361"/>
    <nd ref="663390483"/>
    <nd ref="663390482"/>
    <nd ref="663390359"/>
    <tag k="addr:housenumber" v="28"/>
    <tag k="addr:street" v="Lindenstraße"/>
    <tag k="building" v="yes"/>
  </way>
  <way id="52040774" version="1" timestamp="2010-03-09T19:52:38Z" uid="9581" user="Lobelt" changeset="4083888">
    <nd ref="663390422"/>
    <nd ref="663390423"/>
    <nd ref="663390414"/>
    <nd ref="663390340"/>
    <nd ref="663390411"/>
    <nd ref="663390421"/>
    <nd ref="663390422"/>
    <tag k="building" v="yes"/>
  </way>
  <way id="52040774" version="2" timestamp="2012-01-24T14:39:28Z" uid="442210" user="dwausr" changeset="10485075"/>
  <way id="52040774" version="3" timestamp="2012-03-28T07:26:51Z" uid="442210" user="dwausr" changeset="11123485">
    <nd ref="663390422"/>
    <nd ref="663390423"/>
    <nd ref="663390414"/>
    <nd ref="663390340"/>
    <nd ref="663390411"/>
    <nd ref="663390421"/>
    <nd ref="663390422"/>
    <tag k="building" v="yes"/>
  </way>
  <way id="52040775" version="1" timestamp="2010-03-09T19:52:38Z" uid="9581" user="Lobelt" changeset="4083888">
    <nd ref="663390319"/>
    <nd ref="663390350"/>
    <nd ref="663390349"/>
    <nd ref="663390320"/>
    <nd ref="663390319"/>
    <tag k="addr:housenumber" v="33"/>
    <tag k="addr:street" v="Lindenstraße"/>
    <tag k="building" v="yes"/>
  </way>
  <way id="52040775" version="2" timestamp="2012-01-24T14:39:20Z" uid="442210" user="dwausr" changeset="10485075"/>
  <way id="52040775" version="3" timestamp="2012-03-28T07:36:41Z" uid="442210" user="dwausr" changeset="11123485">
    <nd ref="663390319"/>
    <nd ref="663390350"/>
    <nd ref="663390349"/>
    <nd ref="663390320"/>
    <nd ref="663390319"/>
    <tag k="addr:housenumber" v="33"/>
    <tag k="addr:street" v="Lindenstraße"/>
    <tag k="building" v="yes"/>
  </way>
  <way id="52040776" version="1" timestamp="2010-03-09T19:52:38Z" uid="9581" user="Lobelt" changeset="4083888">
    <nd ref="663390342"/>
    <nd ref="663390345"/>
    <nd ref="663390346"/>
    <nd ref="663390355"/>
    <nd ref="663390356"/>
    <nd ref="663390344"/>
    <nd ref="663390343"/>
    <nd ref="663390342"/>
    <tag k="addr:housenumber" v="31"/>
    <tag k="addr:street" v="Lindenstraße"/>
    <tag k="building" v="yes"/>
  </way>
  <way id="52040776" version="2" timestamp="2012-01-24T14:39:19Z" uid="442210" user="dwausr" changeset="10485075"/>
  <way id="52040776" version="3" timestamp="2012-03-28T07:36:26Z" uid="442210" user="dwausr" changeset="11123485">
    <nd ref="663390342"/>
    <nd ref="663390345"/>
    <nd ref="663390346"/>
    <nd ref="663390355"/>
    <nd ref="663390356"/>
    <nd ref="663390344"/>
    <nd ref="663390343"/>
    <nd ref="663390342"/>
    <tag k="addr:housenumber" v="31"/>
    <tag k="addr:street" v="Lindenstraße"/>
    <tag k="building" v="yes"/>
  </way>
  <way id="52040777" version="1" timestamp="2010-03-09T19:52:38Z" uid="9581" user="Lobelt" changeset="4083888">
    <nd ref="663390346"/>
    <nd ref="663390347"/>
    <nd ref="663390357"/>
    <nd ref="663390358"/>
    <nd ref="663390355"/>
    <nd ref="663390346"/>
    <tag k="addr:housenumber" v="29"/>
    <tag k="addr:street" v="Lindenstraße"/>
    <tag k="building" v="yes"/>
  </way>
  <way id="52040777" version="2" timestamp="2012-01-24T14:39:18Z" uid="442210" user="dwausr" changeset="10485075"/>
  <way id="52040777" version="3" timestamp="2012-03-28T07:35:53Z" uid="442210" user="dwausr" changeset="11123485">
    <nd ref="663390346"/>
    <nd ref="663390347"/>
    <nd ref="663390357"/>
    <nd ref="663390358"/>
    <nd ref="663390355"/>
    <nd ref="663390346"/>
    <tag k="addr:housenumber" v="29"/>
    <tag k="addr:street" v="Lindenstraße"/>
    <tag k="building" v="yes"/>
  </way>
  <way id="52040778" version="1" timestamp="2010-03-09T19:52:38Z" uid="9581" user="Lobelt" changeset="4083888">
    <nd ref="663390310"/>
    <nd ref="663390309"/>
    <nd ref="663390308"/>
    <nd ref="663390307"/>
    <nd ref="663390310"/>
    <tag k="addr:city" v="Hirschberg"/>
    <tag k="addr:housenumber" v="14"/>
    <tag k="addr:postcode" v="69493"/>
    <tag k="addr:street" v="Hirschbergstraße"/>
    <tag k="building" v="yes"/>
  </way>
  <way id="52040778" version="2" timestamp="2012-01-24T14:39:14Z" uid="442210" user="dwausr" changeset="10485075"/>
  <way id="52040778" version="3" timestamp="2012-03-28T07:32:17Z" uid="442210" user="dwausr" changeset="11123485">
    <nd ref="663390310"/>
    <nd ref="663390309"/>
    <nd ref="663390308"/>
    <nd ref="663390307"/>
    <nd ref="663390310"/>
    <tag k="addr:city" v="Hirschberg"/>
    <tag k="addr:housenumber" v="14"/>
    <tag k="addr:postcode" v="69493"/>
    <tag k="addr:street" v="Hirschbergstraße"/>
    <tag k="building" v="yes"/>
  </way>
  <way id="52040779" version="1" timestamp="2010-03-09T19:52:38Z" uid="9581" user="Lobelt" changeset="4083888">
    <nd ref="663390309"/>
    <nd ref="663390311"/>
    <nd ref="663390327"/>
    <nd ref="663390308"/>
    <nd ref="663390309"/>
    <tag k="addr:city" v="Hirschberg"/>
    <tag k="addr:housenumber" v="16"/>
    <tag k="addr:postcode" v="69493"/>
    <tag k="addr:street" v="Hirschbergstraße"/>
    <tag k="building" v="yes"/>
  </way>
  <way id="52040779" version="2" timestamp="2012-01-24T14:39:15Z" uid="442210" user="dwausr" changeset="10485075"/>
  <way id="52040779" version="3" timestamp="2012-03-28T07:33:22Z" uid="442210" user="dwausr" changeset="11123485">
    <nd ref="663390309"/>
    <nd ref="663390311"/>
    <nd ref="663390327"/>
    <nd ref="663390308"/>
    <nd ref="663390309"/>
    <tag k="addr:city" v="Hirschberg"/>
    <tag k="addr:housenumber" v="16"/>
    <tag k="addr:postcode" v="69493"/>
    <tag k="addr:street" v="Hirschbergstraße"/>
    <tag k="building" v="yes"/>
  </way>
  <way id="52040780" version="1" timestamp="2010-03-09T19:52:38Z" uid="9581" user="Lobelt" changeset="4083888">
    <nd ref="663390329"/>
    <nd ref="663390331"/>
    <nd ref="663390332"/>
    <nd ref="663390333"/>
    <nd ref="663390329"/>
    <tag k="building" v="yes"/>
  </way>
  <way id="52040780" version="2" timestamp="2012-01-24T14:39:28Z" uid="442210" user="dwausr" changeset="10485075"/>
  <way id="52040780" version="3" timestamp="2012-03-28T07:22:23Z" uid="442210" user="dwausr" changeset="11123485">
    <nd ref="663390329"/>
    <nd ref="663390331"/>
    <nd ref="663390332"/>
    <nd ref="663390333"/>
    <nd ref="663390329"/>
    <tag k="building" v="yes"/>
  </way>
  <way id="52040781" version="1" timestamp="2010-03-09T19:52:38Z" uid="9581" user="Lobelt" changeset="4083888">
    <nd ref="663390304"/>
    <nd ref="663390305"/>
    <nd ref="663390306"/>
    <nd ref="663390315"/>
    <nd ref="663390314"/>
    <nd ref="663390304"/>
    <tag k="addr:city" v="Hirschberg"/>
    <tag k="addr:housenumber" v="18"/>
    <tag k="addr:postcode" v="69493"/>
    <tag k="addr:street" v="Hirschbergstraße"/>
    <tag k="building" v="yes"/>
  </way>
  <way id="52040781" version="2" timestamp="2012-01-24T14:39:16Z" uid="442210" user="dwausr" changeset="10485075"/>
  <way id="52040781" version="3" timestamp="2012-03-28T07:34:01Z" uid="442210" user="dwausr" changeset="11123485">
    <nd ref="663390304"/>
    <nd ref="663390305"/>
    <nd ref="663390306"/>
    <nd ref="663390315"/>
    <nd ref="663390314"/>
    <nd ref="663390304"/>
    <tag k="addr:city" v="Hirschberg"/>
    <tag k="addr:housenumber" v="18"/>
    <tag k="addr:postcode" v="69493"/>
    <tag k="addr:street" v="Hirschbergstraße"/>
    <tag k="building" v="yes"/>
  </way>
  <way id="52040782" version="1" timestamp="2010-03-09T19:52:38Z" uid="9581" user="Lobelt" changeset="4083888">
    <nd ref="663390305"/>
    <nd ref="663390312"/>
    <nd ref="663390313"/>
    <nd ref="663390306"/>
    <nd ref="663390305"/>
    <tag k="building" v="yes"/>
  </way>
  <way id="52040782" version="2" timestamp="2012-01-24T14:39:28Z" uid="442210" user="dwausr" changeset="10485075"/>
  <way id="52040782" version="3" timestamp="2012-03-28T07:22:22Z" uid="442210" user="dwausr" changeset="11123485">
    <nd ref="663390305"/>
    <nd ref="663390312"/>
    <nd ref="663390313"/>
    <nd ref="663390306"/>
    <nd ref="663390305"/>
    <tag k="building" v="yes"/>
  </way>
  <way id="52040783" version="1" timestamp="2010-03-09T19:52:38Z" uid="9581" user="Lobelt" changeset="4083888">
    <nd ref="663390321"/>
    <nd ref="663390324"/>
    <nd ref="663390323"/>
    <nd ref="663390322"/>
    <nd ref="663390321"/>
    <tag k="building" v="yes"/>
  </way>
  <way id="52040783" version="2" timestamp="2012-01-24T14:39:28Z" uid="442210" user="dwausr" changeset="10485075"/>
  <way id="52040783" version="3" timestamp="2012-03-28T07:22:22Z" uid="442210" user="dwausr" changeset="11123485">
    <nd ref="663390321"/>
    <nd ref="663390324"/>
    <nd ref="663390323"/>
    <nd ref="663390322"/>
    <nd ref="663390321"/>
    <tag k="building" v="yes"/>
  </way>
  <way id="52040784" version="1" timestamp="2010-03-09T19:52:39Z" uid="9581" user="Lobelt" changeset="4083888">
    <nd ref="663390325"/>
    <nd ref="663390326"/>
    <nd ref="663390317"/>
    <nd ref="663390316"/>
    <nd ref="663390325"/>
    <tag k="building" v="yes"/>
  </way>
  <way id="52040784" version="2" timestamp="2012-01-24T14:39:28Z" uid="442210" user="dwausr" changeset="10485075"/>
  <way id="52040784" version="3" timestamp="2012-03-28T07:22:24Z" uid="442210" user="dwausr" changeset="11123485">
    <nd ref="663390325"/>
    <nd ref="663390326"/>
    <nd ref="663390317"/>
    <nd ref="663390316"/>
    <nd ref="663390325"/>
    <tag k="building" v="yes"/>
  </way>
  <way id="52040785" version="1" timestamp="2010-03-09T19:52:39Z" uid="9581" user="Lobelt" changeset="4083888">
    <nd ref="663390334"/>
    <nd ref="663390335"/>
    <nd ref="663390338"/>
    <nd ref="663390336"/>
    <nd ref="663390337"/>
    <nd ref="663390334"/>
    <tag k="building" v="yes"/>
  </way>
  <way id="52040785" version="2" timestamp="2012-01-24T14:39:28Z" uid="442210" user="dwausr" changeset="10485075"/>
  <way id="52040785" version="3" timestamp="2012-03-28T07:25:14Z" uid="442210" user="dwausr" changeset="11123485">
    <nd ref="663390334"/>
    <nd ref="663390335"/>
    <nd ref="663390338"/>
    <nd ref="663390336"/>
    <nd ref="663390337"/>
    <nd ref="663390334"/>
    <tag k="building" v="yes"/>
  </way>
  <way id="52040786" version="1" timestamp="2010-03-09T19:52:39Z" uid="9581" user="Lobelt" changeset="4083888">
    <nd ref="663390317"/>
    <nd ref="663390338"/>
    <nd ref="663390335"/>
    <nd ref="663390342"/>
    <nd ref="663390343"/>
    <nd ref="663390344"/>
    <nd ref="663390326"/>
    <nd ref="663390317"/>
    <tag k="building" v="yes"/>
  </way>
  <way id="52040786" version="2" timestamp="2012-01-24T14:39:29Z" uid="442210" user="dwausr" changeset="10485075"/>
  <way id="52040786" version="3" timestamp="2012-03-28T07:28:53Z" uid="442210" user="dwausr" changeset="11123485">
    <nd ref="663390317"/>
    <nd ref="663390338"/>
    <nd ref="663390335"/>
    <nd ref="663390342"/>
    <nd ref="663390343"/>
    <nd ref="663390344"/>
    <nd ref="663390326"/>
    <nd ref="663390317"/>
    <tag k="building" v="yes"/>
  </way>
  <way id="52040787" version="1" timestamp="2010-03-09T19:52:39Z" uid="9581" user="Lobelt" changeset="4083888">
    <nd ref="663390313"/>
    <nd ref="663390341"/>
    <nd ref="663390318"/>
    <nd ref="663390315"/>
    <nd ref="663390306"/>
    <nd ref="663390313"/>
    <tag k="building" v="yes"/>
  </way>
  <way id="52040787" version="2" timestamp="2012-01-24T14:39:29Z" uid="442210" user="dwausr" changeset="10485075"/>
  <way id="52040787" version="3" timestamp="2012-03-28T07:25:14Z" uid="442210" user="dwausr" changeset="11123485">
    <nd ref="663390313"/>
    <nd ref="663390341"/>
    <nd ref="663390318"/>
    <nd ref="663390315"/>
    <nd ref="663390306"/>
    <nd ref="663390313"/>
    <tag k="building" v="yes"/>
  </way>
  <way id="52040788" version="1" timestamp="2010-03-09T19:52:39Z" uid="9581" user="Lobelt" changeset="4083888">
    <nd ref="663390351"/>
    <nd ref="663390352"/>
    <nd ref="663390362"/>
    <nd ref="663390360"/>
    <nd ref="663390351"/>
    <tag k="addr:housenumber" v="30"/>
    <tag k="addr:street" v="Lindenstraße"/>
    <tag k="building" v="yes"/>
  </way>
  <way id="52040788" version="2" timestamp="2012-01-26T11:13:49Z" uid="442210" user="dwausr" changeset="10501965"/>
  <way id="52040788" version="3" timestamp="2012-03-28T07:36:22Z" uid="442210" user="dwausr" changeset="11123485">
    <nd ref="663390351"/>
    <nd ref="663390352"/>
    <nd ref="663390362"/>
    <nd ref="663390360"/>
    <nd ref="663390351"/>
    <tag k="addr:housenumber" v="30"/>
    <tag k="addr:street" v="Lindenstraße"/>
    <tag k="building" v="yes"/>
  </way>
  <way id="52040789" version="1" timestamp="2010-03-09T19:52:39Z" uid="9581" user="Lobelt" changeset="4083888">
    <nd ref="663390379"/>
    <nd ref="663390380"/>
    <nd ref="663390364"/>
    <nd ref="663390363"/>
    <nd ref="663390379"/>
    <tag k="building" v="yes"/>
  </way>
  <way id="52040789" version="2" timestamp="2012-01-26T11:14:09Z" uid="442210" user="dwausr" changeset="10501965"/>
  <way id="52040789" version="3" timestamp="2012-03-28T07:22:23Z" uid="442210" user="dwausr" changeset="11123485">
    <nd ref="663390379"/>
    <nd ref="663390380"/>
    <nd ref="663390364"/>
    <nd ref="663390363"/>
    <nd ref="663390379"/>
    <tag k="building" v="yes"/>
  </way>
  <way id="52040790" version="1" timestamp="2010-03-09T19:52:39Z" uid="9581" user="Lobelt" changeset="4083888">
    <nd ref="663390353"/>
    <nd ref="663390366"/>
    <nd ref="663390365"/>
    <nd ref="663390354"/>
    <nd ref="663390353"/>
    <tag k="addr:housenumber" v="2"/>
    <tag k="addr:street" v="In der Straßwies"/>
    <tag k="building" v="yes"/>
  </way>
  <way id="52040790" version="2" timestamp="2012-01-26T11:13:42Z" uid="442210" user="dwausr" changeset="10501965"/>
  <way id="52040790" version="3" timestamp="2012-03-28T07:34:27Z" uid="442210" user="dwausr" changeset="11123485">
    <nd ref="663390353"/>
    <nd ref="663390366"/>
    <nd ref="663390365"/>
    <nd ref="663390354"/>
    <nd ref="663390353"/>
    <tag k="addr:housenumber" v="2"/>
    <tag k="addr:street" v="In der Straßwies"/>
    <tag k="building" v="yes"/>
  </way>
  <way id="52040791" version="1" timestamp="2010-03-09T19:52:39Z" uid="9581" user="Lobelt" changeset="4083888">
    <nd ref="663390369"/>
    <nd ref="663390382"/>
    <nd ref="663390381"/>
    <nd ref="663390370"/>
    <nd ref="663390369"/>
    <tag k="building" v="yes"/>
  </way>
  <way id="52040791" version="2" timestamp="2012-01-26T11:14:09Z" uid="442210" user="dwausr" changeset="10501965"/>
  <way id="52040791" version="3" timestamp="2012-03-28T07:22:23Z" uid="442210" user="dwausr" changeset="11123485">
    <nd ref="663390369"/>
    <nd ref="663390382"/>
    <nd ref="663390381"/>
    <nd ref="663390370"/>
    <nd ref="663390369"/>
    <tag k="building" v="yes"/>
  </way>
  <way id="52040792" version="1" timestamp="2010-03-09T19:52:39Z" uid="9581" user="Lobelt" changeset="4083888">
    <nd ref="663390373"/>
    <nd ref="663390384"/>
    <nd ref="663390383"/>
    <nd ref="663390374"/>
    <nd ref="663390373"/>
    <tag k="building" v="yes"/>
  </way>
  <way id="52040792" version="2" timestamp="2012-01-26T11:14:09Z" uid="442210" user="dwausr" changeset="10501965"/>
  <way id="52040792" version="3" timestamp="2012-03-28T07:22:25Z" uid="442210" user="dwausr" changeset="11123485">
    <nd ref="663390373"/>
    <nd ref="663390384"/>
    <nd ref="663390383"/>
    <nd ref="663390374"/>
    <nd ref="663390373"/>
    <tag k="building" v="yes"/>
  </way>
  <way id="52040793" version="1" timestamp="2010-03-09T19:52:39Z" uid="9581" user="Lobelt" changeset="4083888">
    <nd ref="663390377"/>
    <nd ref="663390376"/>
    <nd ref="663390375"/>
    <nd ref="663390378"/>
    <nd ref="663390377"/>
    <tag k="addr:housenumber" v="6"/>
    <tag k="addr:street" v="In der Straßwies"/>
    <tag k="building" v="yes"/>
  </way>
  <way id="52040793" version="2" timestamp="2012-01-26T11:13:54Z" uid="442210" user="dwausr" changeset="10501965"/>
  <way id="52040793" version="3" timestamp="2012-03-28T07:38:35Z" uid="442210" user="dwausr" changeset="11123485">
    <nd ref="663390377"/>
    <nd ref="663390376"/>
    <nd ref="663390375"/>
    <nd ref="663390378"/>
    <nd ref="663390377"/>
    <tag k="addr:housenumber" v="6"/>
    <tag k="addr:street" v="In der Straßwies"/>
    <tag k="building" v="yes"/>
  </way>
  <way id="52040794" version="1" timestamp="2010-03-09T19:52:39Z" uid="9581" user="Lobelt" changeset="4083888">
    <nd ref="663390367"/>
    <nd ref="663390377"/>
    <nd ref="663390378"/>
    <nd ref="663390372"/>
    <nd ref="663390371"/>
    <nd ref="663390368"/>
    <nd ref="663390367"/>
    <tag k="addr:housenumber" v="4"/>
    <tag k="addr:street" v="In der Straßwies"/>
    <tag k="building" v="yes"/>
  </way>
  <way id="52040794" version="2" timestamp="2012-01-26T11:13:52Z" uid="442210" user="dwausr" changeset="10501965"/>
  <way id="52040794" version="3" timestamp="2012-03-28T07:37:19Z" uid="442210" user="dwausr" changeset="11123485">
    <nd ref="663390367"/>
    <nd ref="663390377"/>
    <nd ref="663390378"/>
    <nd ref="663390372"/>
    <nd ref="663390371"/>
    <nd ref="663390368"/>
    <nd ref="663390367"/>
    <tag k="addr:housenumber" v="4"/>
    <tag k="addr:street" v="In der Straßwies"/>
    <tag k="building" v="yes"/>
  </way>
  <way id="52040795" version="1" timestamp="2010-03-09T19:52:39Z" uid="9581" user="Lobelt" changeset="4083888">
    <nd ref="663390459"/>
    <nd ref="663390460"/>
    <nd ref="663390457"/>
    <nd ref="663390456"/>
    <nd ref="663390454"/>
    <nd ref="663390459"/>
    <tag k="building" v="yes"/>
  </way>
  <way id="52040795" version="2" timestamp="2012-01-24T14:39:29Z" uid="442210" user="dwausr" changeset="10485075"/>
  <way id="52040795" version="3" timestamp="2012-03-28T07:25:15Z" uid="442210" user="dwausr" changeset="11123485">
    <nd ref="663390459"/>
    <nd ref="663390460"/>
    <nd ref="663390457"/>
    <nd ref="663390456"/>
    <nd ref="663390454"/>
    <nd ref="663390459"/>
    <tag k="building" v="yes"/>
  </way>
  <way id="52040796" version="1" timestamp="2010-03-09T19:52:39Z" uid="9581" user="Lobelt" changeset="4083888">
    <nd ref="663390457"/>
    <nd ref="663390458"/>
    <nd ref="663390461"/>
    <nd ref="663390460"/>
    <nd ref="663390457"/>
    <tag k="building" v="yes"/>
  </way>
  <way id="52040796" version="2" timestamp="2012-01-24T14:39:30Z" uid="442210" user="dwausr" changeset="10485075"/>
  <way id="52040796" version="3" timestamp="2012-03-28T07:22:25Z" uid="442210" user="dwausr" changeset="11123485">
    <nd ref="663390457"/>
    <nd ref="663390458"/>
    <nd ref="663390461"/>
    <nd ref="663390460"/>
    <nd ref="663390457"/>
    <tag k="building" v="yes"/>
  </way>
  <way id="52040797" version="1" timestamp="2010-03-09T19:52:39Z" uid="9581" user="Lobelt" changeset="4083888">
    <nd ref="663390429"/>
    <nd ref="663390426"/>
    <nd ref="663390425"/>
    <nd ref="663390400"/>
    <nd ref="663390429"/>
    <tag k="building" v="yes"/>
  </way>
  <way id="52040797" version="2" timestamp="2012-01-24T14:39:30Z" uid="442210" user="dwausr" changeset="10485075"/>
  <way id="52040797" version="3" timestamp="2012-03-28T07:22:25Z" uid="442210" user="dwausr" changeset="11123485">
    <nd ref="663390429"/>
    <nd ref="663390426"/>
    <nd ref="663390425"/>
    <nd ref="663390400"/>
    <nd ref="663390429"/>
    <tag k="building" v="yes"/>
  </way>
  <way id="52040798" version="1" timestamp="2010-03-09T19:52:39Z" uid="9581" user="Lobelt" changeset="4083888">
    <nd ref="663390387"/>
    <nd ref="663390388"/>
    <nd ref="663390402"/>
    <nd ref="663390391"/>
    <nd ref="663390389"/>
    <nd ref="663390387"/>
    <tag k="addr:city" v="Hirschberg"/>
    <tag k="addr:housenumber" v="10"/>
    <tag k="addr:postcode" v="69493"/>
    <tag k="addr:street" v="Hirschbergstraße"/>
    <tag k="building" v="yes"/>
  </way>
  <way id="52040798" version="2" timestamp="2012-01-24T14:39:11Z" uid="442210" user="dwausr" changeset="10485075"/>
  <way id="52040798" version="3" timestamp="2012-03-28T07:30:58Z" uid="442210" user="dwausr" changeset="11123485">
    <nd ref="663390387"/>
    <nd ref="663390388"/>
    <nd ref="663390402"/>
    <nd ref="663390391"/>
    <nd ref="663390389"/>
    <nd ref="663390387"/>
    <tag k="addr:city" v="Hirschberg"/>
    <tag k="addr:housenumber" v="10"/>
    <tag k="addr:postcode" v="69493"/>
    <tag k="addr:street" v="Hirschbergstraße"/>
    <tag k="building" v="yes"/>
  </way>
  <way id="52040799" version="1" timestamp="2010-03-09T19:52:40Z" uid="9581" user="Lobelt" changeset="4083888">
    <nd ref="663390402"/>
    <nd ref="663390403"/>
    <nd ref="663390404"/>
    <nd ref="663390391"/>
    <nd ref="663390402"/>
    <tag k="building" v="yes"/>
  </way>
  <way id="52040799" version="2" timestamp="2012-01-24T14:39:30Z" uid="442210" user="dwausr" changeset="10485075"/>
  <way id="52040799" version="3" timestamp="2012-03-28T07:22:25Z" uid="442210" user="dwausr" changeset="11123485">
    <nd ref="663390402"/>
    <nd ref="663390403"/>
    <nd ref="663390404"/>
    <nd ref="663390391"/>
    <nd ref="663390402"/>
    <tag k="building" v="yes"/>
  </way>
  <way id="52040800" version="1" timestamp="2010-03-09T19:52:40Z" uid="9581" user="Lobelt" changeset="4083888">
    <nd ref="663390388"/>
    <nd ref="663390386"/>
    <nd ref="663390401"/>
    <nd ref="663390406"/>
    <nd ref="663390402"/>
    <nd ref="663390388"/>
    <tag k="addr:city" v="Hirschberg"/>
    <tag k="addr:housenumber" v="12"/>
    <tag k="addr:postcode" v="69493"/>
    <tag k="addr:street" v="Hirschbergstraße"/>
    <tag k="building" v="yes"/>
  </way>
  <way id="52040800" version="2" timestamp="2012-01-24T14:39:13Z" uid="442210" user="dwausr" changeset="10485075"/>
  <way id="52040800" version="3" timestamp="2012-03-28T07:31:44Z" uid="442210" user="dwausr" changeset="11123485">
    <nd ref="663390388"/>
    <nd ref="663390386"/>
    <nd ref="663390401"/>
    <nd ref="663390406"/>
    <nd ref="663390402"/>
    <nd ref="663390388"/>
    <tag k="addr:city" v="Hirschberg"/>
    <tag k="addr:housenumber" v="12"/>
    <tag k="addr:postcode" v="69493"/>
    <tag k="addr:street" v="Hirschbergstraße"/>
    <tag k="building" v="yes"/>
  </way>
  <way id="52040801" version="1" timestamp="2010-03-09T19:52:40Z" uid="9581" user="Lobelt" changeset="4083888">
    <nd ref="663390478"/>
    <nd ref="663390443"/>
    <nd ref="663390434"/>
    <nd ref="663390435"/>
    <nd ref="663390468"/>
    <nd ref="663390477"/>
    <nd ref="663390478"/>
    <tag k="building" v="yes"/>
  </way>
  <way id="52040801" version="2" timestamp="2012-01-24T14:39:31Z" uid="442210" user="dwausr" changeset="10485075"/>
  <way id="52040801" version="3" timestamp="2012-03-28T07:26:52Z" uid="442210" user="dwausr" changeset="11123485">
    <nd ref="663390478"/>
    <nd ref="663390443"/>
    <nd ref="663390434"/>
    <nd ref="663390435"/>
    <nd ref="663390468"/>
    <nd ref="663390477"/>
    <nd ref="663390478"/>
    <tag k="building" v="yes"/>
  </way>
  <way id="52040802" version="1" timestamp="2010-03-09T19:52:40Z" uid="9581" user="Lobelt" changeset="4083888">
    <nd ref="663390396"/>
    <nd ref="663390394"/>
    <nd ref="663390398"/>
    <nd ref="663390397"/>
    <nd ref="663390396"/>
    <tag k="addr:city" v="Hirschberg"/>
    <tag k="addr:housenumber" v="6"/>
    <tag k="addr:postcode" v="69493"/>
    <tag k="addr:street" v="Hirschbergstraße"/>
    <tag k="building" v="yes"/>
  </way>
  <way id="52040802" version="2" timestamp="2012-01-24T14:39:22Z" uid="442210" user="dwausr" changeset="10485075"/>
  <way id="52040802" version="3" timestamp="2012-03-28T07:38:34Z" uid="442210" user="dwausr" changeset="11123485">
    <nd ref="663390396"/>
    <nd ref="663390394"/>
    <nd ref="663390398"/>
    <nd ref="663390397"/>
    <nd ref="663390396"/>
    <tag k="addr:city" v="Hirschberg"/>
    <tag k="addr:housenumber" v="6"/>
    <tag k="addr:postcode" v="69493"/>
    <tag k="addr:street" v="Hirschbergstraße"/>
    <tag k="building" v="yes"/>
  </way>
  <way id="52040803" version="1" timestamp="2010-03-09T19:52:40Z" uid="9581" user="Lobelt" changeset="4083888">
    <nd ref="663390394"/>
    <nd ref="663390395"/>
    <nd ref="663390393"/>
    <nd ref="663390398"/>
    <nd ref="663390394"/>
    <tag k="addr:city" v="Hirschberg"/>
    <tag k="addr:housenumber" v="8"/>
    <tag k="addr:postcode" v="69493"/>
    <tag k="addr:street" v="Hirschbergstraße"/>
    <tag k="building" v="yes"/>
  </way>
  <way id="52040803" version="2" timestamp="2012-01-24T14:39:23Z" uid="442210" user="dwausr" changeset="10485075"/>
  <way id="52040803" version="3" timestamp="2012-03-28T07:39:41Z" uid="442210" user="dwausr" changeset="11123485">
    <nd ref="663390394"/>
    <nd ref="663390395"/>
    <nd ref="663390393"/>
    <nd ref="663390398"/>
    <nd ref="663390394"/>
    <tag k="addr:city" v="Hirschberg"/>
    <tag k="addr:housenumber" v="8"/>
    <tag k="addr:postcode" v="69493"/>
    <tag k="addr:street" v="Hirschbergstraße"/>
    <tag k="building" v="yes"/>
  </way>
  <way id="52040804" version="1" timestamp="2010-03-09T19:52:40Z" uid="9581" user="Lobelt" changeset="4083888">
    <nd ref="663390390"/>
    <nd ref="663390399"/>
    <nd ref="663390392"/>
    <nd ref="663390385"/>
    <nd ref="663390390"/>
    <tag k="building" v="yes"/>
  </way>
  <way id="52040804" version="2" timestamp="2012-01-24T14:39:31Z" uid="442210" user="dwausr" changeset="10485075"/>
  <way id="52040804" version="3" timestamp="2012-03-28T07:22:26Z" uid="442210" user="dwausr" changeset="11123485">
    <nd ref="663390390"/>
    <nd ref="663390399"/>
    <nd ref="663390392"/>
    <nd ref="663390385"/>
    <nd ref="663390390"/>
    <tag k="building" v="yes"/>
  </way>
  <way id="52040805" version="1" timestamp="2010-03-09T19:52:40Z" uid="9581" user="Lobelt" changeset="4083888">
    <nd ref="663390428"/>
    <nd ref="663390427"/>
    <nd ref="663390426"/>
    <nd ref="663390429"/>
    <nd ref="663390428"/>
    <tag k="building" v="yes"/>
  </way>
  <way id="52040805" version="2" timestamp="2012-01-24T14:39:31Z" uid="442210" user="dwausr" changeset="10485075"/>
  <way id="52040805" version="3" timestamp="2012-03-28T07:22:26Z" uid="442210" user="dwausr" changeset="11123485">
    <nd ref="663390428"/>
    <nd ref="663390427"/>
    <nd ref="663390426"/>
    <nd ref="663390429"/>
    <nd ref="663390428"/>
    <tag k="building" v="yes"/>
  </way>
  <way id="52040806" version="1" timestamp="2010-03-09T19:52:40Z" uid="9581" user="Lobelt" changeset="4083888">
    <nd ref="663390403"/>
    <nd ref="663390405"/>
    <nd ref="663390406"/>
    <nd ref="663390402"/>
    <nd ref="663390403"/>
    <tag k="building" v="yes"/>
  </way>
  <way id="52040806" version="2" timestamp="2012-01-24T14:39:31Z" uid="442210" user="dwausr" changeset="10485075"/>
  <way id="52040806" version="3" timestamp="2012-03-28T07:22:27Z" uid="442210" user="dwausr" changeset="11123485">
    <nd ref="663390403"/>
    <nd ref="663390405"/>
    <nd ref="663390406"/>
    <nd ref="663390402"/>
    <nd ref="663390403"/>
    <tag k="building" v="yes"/>
  </way>
  <way id="52040807" version="1" timestamp="2010-03-09T19:52:40Z" uid="9581" user="Lobelt" changeset="4083888">
    <nd ref="663390407"/>
    <nd ref="663390431"/>
    <nd ref="663390430"/>
    <nd ref="663390408"/>
    <nd ref="663390407"/>
    <tag k="building" v="yes"/>
  </way>
  <way id="52040807" version="2" timestamp="2012-01-24T14:39:32Z" uid="442210" user="dwausr" changeset="10485075"/>
  <way id="52040807" version="3" timestamp="2012-03-28T07:22:27Z" uid="442210" user="dwausr" changeset="11123485">
    <nd ref="663390407"/>
    <nd ref="663390431"/>
    <nd ref="663390430"/>
    <nd ref="663390408"/>
    <nd ref="663390407"/>
    <tag k="building" v="yes"/>
  </way>
  <way id="52040808" version="1" timestamp="2010-03-09T19:52:40Z" uid="9581" user="Lobelt" changeset="4083888">
    <nd ref="663390438"/>
    <nd ref="663390439"/>
    <nd ref="663390436"/>
    <nd ref="663390432"/>
    <nd ref="663390433"/>
    <nd ref="663390438"/>
    <tag k="building" v="yes"/>
  </way>
  <way id="52040808" version="2" timestamp="2012-01-24T14:39:32Z" uid="442210" user="dwausr" changeset="10485075"/>
  <way id="52040808" version="3" timestamp="2012-03-28T07:25:17Z" uid="442210" user="dwausr" changeset="11123485">
    <nd ref="663390438"/>
    <nd ref="663390439"/>
    <nd ref="663390436"/>
    <nd ref="663390432"/>
    <nd ref="663390433"/>
    <nd ref="663390438"/>
    <tag k="building" v="yes"/>
  </way>
  <way id="52040809" version="1" timestamp="2010-03-09T19:52:40Z" uid="9581" user="Lobelt" changeset="4083888">
    <nd ref="663390419"/>
    <nd ref="663390420"/>
    <nd ref="663390437"/>
    <nd ref="663390441"/>
    <nd ref="663390439"/>
    <nd ref="663390436"/>
    <nd ref="663390419"/>
    <tag k="addr:housenumber" v="25"/>
    <tag k="addr:street" v="Lindenstraße"/>
    <tag k="building" v="yes"/>
  </way>
  <way id="52040809" version="2" timestamp="2012-01-24T14:39:18Z" uid="442210" user="dwausr" changeset="10485075"/>
  <way id="52040809" version="3" timestamp="2012-03-28T07:35:32Z" uid="442210" user="dwausr" changeset="11123485">
    <nd ref="663390419"/>
    <nd ref="663390420"/>
    <nd ref="663390437"/>
    <nd ref="663390441"/>
    <nd ref="663390439"/>
    <nd ref="663390436"/>
    <nd ref="663390419"/>
    <tag k="addr:housenumber" v="25"/>
    <tag k="addr:street" v="Lindenstraße"/>
    <tag k="building" v="yes"/>
  </way>
  <way id="52040810" version="1" timestamp="2010-03-09T19:52:40Z" uid="9581" user="Lobelt" changeset="4083888">
    <nd ref="663390440"/>
    <nd ref="663390441"/>
    <nd ref="663390439"/>
    <nd ref="663390438"/>
    <nd ref="663390440"/>
    <tag k="building" v="yes"/>
  </way>
  <way id="52040810" version="2" timestamp="2012-01-24T14:39:32Z" uid="442210" user="dwausr" changeset="10485075"/>
  <way id="52040810" version="3" timestamp="2012-03-28T07:22:28Z" uid="442210" user="dwausr" changeset="11123485">
    <nd ref="663390440"/>
    <nd ref="663390441"/>
    <nd ref="663390439"/>
    <nd ref="663390438"/>
    <nd ref="663390440"/>
    <tag k="building" v="yes"/>
  </way>
  <way id="52040811" version="1" timestamp="2010-03-09T19:52:40Z" uid="9581" user="Lobelt" changeset="4083888">
    <nd ref="663390442"/>
    <nd ref="663390445"/>
    <nd ref="663390444"/>
    <nd ref="663390434"/>
    <nd ref="663390443"/>
    <nd ref="663390442"/>
    <tag k="addr:housenumber" v="23"/>
    <tag k="addr:street" v="Lindenstraße"/>
    <tag k="building" v="yes"/>
  </way>
  <way id="52040811" version="2" timestamp="2012-01-24T14:39:17Z" uid="442210" user="dwausr" changeset="10485075"/>
  <way id="52040811" version="3" timestamp="2012-03-28T07:35:12Z" uid="442210" user="dwausr" changeset="11123485">
    <nd ref="663390442"/>
    <nd ref="663390445"/>
    <nd ref="663390444"/>
    <nd ref="663390434"/>
    <nd ref="663390443"/>
    <nd ref="663390442"/>
    <tag k="addr:housenumber" v="23"/>
    <tag k="addr:street" v="Lindenstraße"/>
    <tag k="building" v="yes"/>
  </way>
  <way id="52040812" version="1" timestamp="2010-03-09T19:52:40Z" uid="9581" user="Lobelt" changeset="4083888">
    <nd ref="663390418"/>
    <nd ref="663390422"/>
    <nd ref="663390421"/>
    <nd ref="663390417"/>
    <nd ref="663390415"/>
    <nd ref="663390416"/>
    <nd ref="663390418"/>
    <tag k="addr:housenumber" v="27"/>
    <tag k="addr:street" v="Lindenstraße"/>
    <tag k="building" v="yes"/>
  </way>
  <way id="52040812" version="2" timestamp="2012-01-24T14:39:18Z" uid="442210" user="dwausr" changeset="10485075"/>
  <way id="52040812" version="3" timestamp="2012-03-28T07:35:44Z" uid="442210" user="dwausr" changeset="11123485">
    <nd ref="663390418"/>
    <nd ref="663390422"/>
    <nd ref="663390421"/>
    <nd ref="663390417"/>
    <nd ref="663390415"/>
    <nd ref="663390416"/>
    <nd ref="663390418"/>
    <tag k="addr:housenumber" v="27"/>
    <tag k="addr:street" v="Lindenstraße"/>
    <tag k="building" v="yes"/>
  </way>
  <way id="52040813" version="1" timestamp="2010-03-09T19:52:41Z" uid="9581" user="Lobelt" changeset="4083888">
    <nd ref="663390417"/>
    <nd ref="663390413"/>
    <nd ref="663390412"/>
    <nd ref="663390424"/>
    <nd ref="663390415"/>
    <nd ref="663390417"/>
    <tag k="building" v="yes"/>
  </way>
  <way id="52040813" version="2" timestamp="2012-01-24T14:39:32Z" uid="442210" user="dwausr" changeset="10485075"/>
  <way id="52040813" version="3" timestamp="2012-03-28T07:25:16Z" uid="442210" user="dwausr" changeset="11123485">
    <nd ref="663390417"/>
    <nd ref="663390413"/>
    <nd ref="663390412"/>
    <nd ref="663390424"/>
    <nd ref="663390415"/>
    <nd ref="663390417"/>
    <tag k="building" v="yes"/>
  </way>
  <way id="52040814" version="1" timestamp="2010-03-09T19:52:41Z" uid="9581" user="Lobelt" changeset="4083888">
    <nd ref="663390447"/>
    <nd ref="663390448"/>
    <nd ref="663390449"/>
    <nd ref="663390450"/>
    <nd ref="663390451"/>
    <nd ref="663390447"/>
    <tag k="building" v="yes"/>
  </way>
  <way id="52040814" version="2" timestamp="2012-01-24T14:39:32Z" uid="442210" user="dwausr" changeset="10485075"/>
  <way id="52040814" version="3" timestamp="2012-03-28T07:25:16Z" uid="442210" user="dwausr" changeset="11123485">
    <nd ref="663390447"/>
    <nd ref="663390448"/>
    <nd ref="663390449"/>
    <nd ref="663390450"/>
    <nd ref="663390451"/>
    <nd ref="663390447"/>
    <tag k="building" v="yes"/>
  </way>
  <way id="52040815" version="1" timestamp="2010-03-09T19:52:41Z" uid="9581" user="Lobelt" changeset="4083888">
    <nd ref="663390455"/>
    <nd ref="663390446"/>
    <nd ref="663390451"/>
    <nd ref="663390447"/>
    <nd ref="663390456"/>
    <nd ref="663390455"/>
    <tag k="addr:city" v="Hirschberg"/>
    <tag k="addr:housenumber" v="4"/>
    <tag k="addr:postcode" v="69493"/>
    <tag k="addr:street" v="Hirschbergstraße"/>
    <tag k="building" v="yes"/>
  </way>
  <way id="52040815" version="2" timestamp="2012-01-24T14:39:21Z" uid="442210" user="dwausr" changeset="10485075"/>
  <way id="52040815" version="3" timestamp="2012-03-28T07:37:18Z" uid="442210" user="dwausr" changeset="11123485">
    <nd ref="663390455"/>
    <nd ref="663390446"/>
    <nd ref="663390451"/>
    <nd ref="663390447"/>
    <nd ref="663390456"/>
    <nd ref="663390455"/>
    <tag k="addr:city" v="Hirschberg"/>
    <tag k="addr:housenumber" v="4"/>
    <tag k="addr:postcode" v="69493"/>
    <tag k="addr:street" v="Hirschbergstraße"/>
    <tag k="building" v="yes"/>
  </way>
  <way id="52040816" version="1" timestamp="2010-03-09T19:52:41Z" uid="9581" user="Lobelt" changeset="4083888">
    <nd ref="663390452"/>
    <nd ref="663390455"/>
    <nd ref="663390456"/>
    <nd ref="663390454"/>
    <nd ref="663390453"/>
    <nd ref="663390452"/>
    <tag k="addr:city" v="Hirschberg"/>
    <tag k="addr:housenumber" v="2"/>
    <tag k="addr:postcode" v="69493"/>
    <tag k="addr:street" v="Hirschbergstraße"/>
    <tag k="building" v="yes"/>
  </way>
  <way id="52040816" version="2" timestamp="2012-01-24T14:39:16Z" uid="442210" user="dwausr" changeset="10485075"/>
  <way id="52040816" version="3" timestamp="2012-03-28T07:34:26Z" uid="442210" user="dwausr" changeset="11123485">
    <nd ref="663390452"/>
    <nd ref="663390455"/>
    <nd ref="663390456"/>
    <nd ref="663390454"/>
    <nd ref="663390453"/>
    <nd ref="663390452"/>
    <tag k="addr:city" v="Hirschberg"/>
    <tag k="addr:housenumber" v="2"/>
    <tag k="addr:postcode" v="69493"/>
    <tag k="addr:street" v="Hirschbergstraße"/>
    <tag k="building" v="yes"/>
  </way>
  <way id="52040817" version="1" timestamp="2010-03-09T19:52:41Z" uid="9581" user="Lobelt" changeset="4083888">
    <nd ref="663390459"/>
    <nd ref="663390462"/>
    <nd ref="663390463"/>
    <nd ref="663390464"/>
    <nd ref="663390460"/>
    <nd ref="663390459"/>
    <tag k="building" v="yes"/>
  </way>
  <way id="52040817" version="2" timestamp="2012-01-24T14:39:33Z" uid="442210" user="dwausr" changeset="10485075"/>
  <way id="52040817" version="3" timestamp="2012-03-28T07:25:18Z" uid="442210" user="dwausr" changeset="11123485">
    <nd ref="663390459"/>
    <nd ref="663390462"/>
    <nd ref="663390463"/>
    <nd ref="663390464"/>
    <nd ref="663390460"/>
    <nd ref="663390459"/>
    <tag k="building" v="yes"/>
  </way>
  <way id="52040818" version="1" timestamp="2010-03-09T19:52:41Z" uid="9581" user="Lobelt" changeset="4083888">
    <nd ref="663390464"/>
    <nd ref="663390465"/>
    <nd ref="663390466"/>
    <nd ref="663390467"/>
    <nd ref="663390464"/>
    <tag k="building" v="yes"/>
  </way>
  <way id="52040818" version="2" timestamp="2012-01-24T14:39:33Z" uid="442210" user="dwausr" changeset="10485075"/>
  <way id="52040818" version="3" timestamp="2012-03-28T07:22:29Z" uid="442210" user="dwausr" changeset="11123485">
    <nd ref="663390464"/>
    <nd ref="663390465"/>
    <nd ref="663390466"/>
    <nd ref="663390467"/>
    <nd ref="663390464"/>
    <tag k="building" v="yes"/>
  </way>
  <way id="52040819" version="1" timestamp="2010-03-09T19:52:41Z" uid="9581" user="Lobelt" changeset="4083888">
    <nd ref="663390469"/>
    <nd ref="663390470"/>
    <nd ref="663390471"/>
    <nd ref="663390472"/>
    <nd ref="663390469"/>
    <tag k="building" v="yes"/>
  </way>
  <way id="52040819" version="2" timestamp="2012-01-24T14:39:33Z" uid="442210" user="dwausr" changeset="10485075"/>
  <way id="52040819" version="3" timestamp="2012-03-28T07:22:28Z" uid="442210" user="dwausr" changeset="11123485">
    <nd ref="663390469"/>
    <nd ref="663390470"/>
    <nd ref="663390471"/>
    <nd ref="663390472"/>
    <nd ref="663390469"/>
    <tag k="building" v="yes"/>
  </way>
  <way id="52040820" version="1" timestamp="2010-03-09T19:52:41Z" uid="9581" user="Lobelt" changeset="4083888">
    <nd ref="663390481"/>
    <nd ref="663390480"/>
    <nd ref="663390473"/>
    <nd ref="663390479"/>
    <nd ref="663390481"/>
    <tag k="addr:housenumber" v="19"/>
    <tag k="addr:street" v="Lindenstraße"/>
    <tag k="building" v="yes"/>
  </way>
  <way id="52040820" version="2" timestamp="2012-01-24T14:39:16Z" uid="442210" user="dwausr" changeset="10485075"/>
  <way id="52040820" version="3" timestamp="2012-03-28T07:34:14Z" uid="442210" user="dwausr" changeset="11123485">
    <nd ref="663390481"/>
    <nd ref="663390480"/>
    <nd ref="663390473"/>
    <nd ref="663390479"/>
    <nd ref="663390481"/>
    <tag k="addr:housenumber" v="19"/>
    <tag k="addr:street" v="Lindenstraße"/>
    <tag k="building" v="yes"/>
  </way>
  <way id="52040821" version="1" timestamp="2010-03-09T19:52:42Z" uid="9581" user="Lobelt" changeset="4083888">
    <nd ref="663390477"/>
    <nd ref="663390478"/>
    <nd ref="663390476"/>
    <nd ref="663390475"/>
    <nd ref="663390474"/>
    <nd ref="663390477"/>
    <tag k="addr:housenumber" v="21"/>
    <tag k="addr:street" v="Lindenstraße"/>
    <tag k="building" v="yes"/>
  </way>
  <way id="52040821" version="2" timestamp="2012-01-24T14:39:17Z" uid="442210" user="dwausr" changeset="10485075"/>
  <way id="52040821" version="3" timestamp="2012-03-28T07:34:51Z" uid="442210" user="dwausr" changeset="11123485">
    <nd ref="663390477"/>
    <nd ref="663390478"/>
    <nd ref="663390476"/>
    <nd ref="663390475"/>
    <nd ref="663390474"/>
    <nd ref="663390477"/>
    <tag k="addr:housenumber" v="21"/>
    <tag k="addr:street" v="Lindenstraße"/>
    <tag k="building" v="yes"/>
  </way>
  <way id="52040822" version="1" timestamp="2010-03-09T19:52:42Z" uid="9581" user="Lobelt" changeset="4083888">
    <nd ref="663390487"/>
    <nd ref="663390485"/>
    <nd ref="663390484"/>
    <nd ref="663390486"/>
    <nd ref="663390487"/>
    <tag k="addr:housenumber" v="26"/>
    <tag k="addr:street" v="Lindenstraße"/>
    <tag k="building" v="yes"/>
  </way>
  <way id="52040822" version="2" timestamp="2012-01-26T11:13:46Z" uid="442210" user="dwausr" changeset="10501965"/>
  <way id="52040822" version="3" timestamp="2012-03-28T07:35:37Z" uid="442210" user="dwausr" changeset="11123485">
    <nd ref="663390487"/>
    <nd ref="663390485"/>
    <nd ref="663390484"/>
    <nd ref="663390486"/>
    <nd ref="663390487"/>
    <tag k="addr:housenumber" v="26"/>
    <tag k="addr:street" v="Lindenstraße"/>
    <tag k="building" v="yes"/>
  </way>
  <way id="52040823" version="1" timestamp="2010-03-09T19:52:42Z" uid="9581" user="Lobelt" changeset="4083888">
    <nd ref="663390488"/>
    <nd ref="663390489"/>
    <nd ref="663390493"/>
    <nd ref="663390492"/>
    <nd ref="663390488"/>
    <tag k="addr:housenumber" v="24"/>
    <tag k="addr:street" v="Lindenstraße"/>
    <tag k="building" v="yes"/>
  </way>
  <way id="52040823" version="2" timestamp="2012-01-26T11:13:45Z" uid="442210" user="dwausr" changeset="10501965"/>
  <way id="52040823" version="3" timestamp="2012-03-28T07:35:18Z" uid="442210" user="dwausr" changeset="11123485">
    <nd ref="663390488"/>
    <nd ref="663390489"/>
    <nd ref="663390493"/>
    <nd ref="663390492"/>
    <nd ref="663390488"/>
    <tag k="addr:housenumber" v="24"/>
    <tag k="addr:street" v="Lindenstraße"/>
    <tag k="building" v="yes"/>
  </way>
  <way id="52040824" version="1" timestamp="2010-03-09T19:52:42Z" uid="9581" user="Lobelt" changeset="4083888">
    <nd ref="663390494"/>
    <nd ref="663390497"/>
    <nd ref="663390496"/>
    <nd ref="663390495"/>
    <nd ref="663390494"/>
    <tag k="addr:housenumber" v="22"/>
    <tag k="addr:street" v="Lindenstraße"/>
    <tag k="building" v="yes"/>
  </way>
  <way id="52040824" version="2" timestamp="2012-01-26T11:13:44Z" uid="442210" user="dwausr" changeset="10501965"/>
  <way id="52040824" version="3" timestamp="2012-03-28T07:35:00Z" uid="442210" user="dwausr" changeset="11123485">
    <nd ref="663390494"/>
    <nd ref="663390497"/>
    <nd ref="663390496"/>
    <nd ref="663390495"/>
    <nd ref="663390494"/>
    <tag k="addr:housenumber" v="22"/>
    <tag k="addr:street" v="Lindenstraße"/>
    <tag k="building" v="yes"/>
  </way>
  <way id="52040825" version="1" timestamp="2010-03-09T19:52:42Z" uid="9581" user="Lobelt" changeset="4083888">
    <nd ref="663390498"/>
    <nd ref="663390499"/>
    <nd ref="663390500"/>
    <nd ref="663390501"/>
    <nd ref="663390498"/>
    <tag k="building" v="yes"/>
  </way>
  <way id="52040825" version="2" timestamp="2012-01-26T11:14:09Z" uid="442210" user="dwausr" changeset="10501965"/>
  <way id="52040825" version="3" timestamp="2012-03-28T07:22:30Z" uid="442210" user="dwausr" changeset="11123485">
    <nd ref="663390498"/>
    <nd ref="663390499"/>
    <nd ref="663390500"/>
    <nd ref="663390501"/>
    <nd ref="663390498"/>
    <tag k="building" v="yes"/>
  </way>
  <way id="52040826" version="1" timestamp="2010-03-09T19:52:42Z" uid="9581" user="Lobelt" changeset="4083888">
    <nd ref="663390502"/>
    <nd ref="663390503"/>
    <nd ref="663390506"/>
    <nd ref="663390505"/>
    <nd ref="663390502"/>
    <tag k="addr:housenumber" v="3"/>
    <tag k="addr:street" v="Friedensweg"/>
    <tag k="building" v="yes"/>
  </way>
  <way id="52040826" version="2" timestamp="2012-01-26T11:13:47Z" uid="442210" user="dwausr" changeset="10501965"/>
  <way id="52040826" version="3" timestamp="2012-03-28T07:36:02Z" uid="442210" user="dwausr" changeset="11123485">
    <nd ref="663390502"/>
    <nd ref="663390503"/>
    <nd ref="663390506"/>
    <nd ref="663390505"/>
    <nd ref="663390502"/>
    <tag k="addr:housenumber" v="3"/>
    <tag k="addr:street" v="Friedensweg"/>
    <tag k="building" v="yes"/>
  </way>
  <way id="52040827" version="1" timestamp="2010-03-09T19:52:42Z" uid="9581" user="Lobelt" changeset="4083888">
    <nd ref="663390525"/>
    <nd ref="663390530"/>
    <nd ref="663390527"/>
    <nd ref="663390526"/>
    <nd ref="663390525"/>
    <tag k="addr:housenumber" v="9"/>
    <tag k="addr:street" v="Friedensweg"/>
    <tag k="building" v="yes"/>
  </way>
  <way id="52040827" version="2" timestamp="2012-01-26T11:13:57Z" uid="442210" user="dwausr" changeset="10501965"/>
  <way id="52040827" version="3" timestamp="2012-03-28T07:40:08Z" uid="442210" user="dwausr" changeset="11123485">
    <nd ref="663390525"/>
    <nd ref="663390530"/>
    <nd ref="663390527"/>
    <nd ref="663390526"/>
    <nd ref="663390525"/>
    <tag k="addr:housenumber" v="9"/>
    <tag k="addr:street" v="Friedensweg"/>
    <tag k="building" v="yes"/>
  </way>
  <way id="52040828" version="1" timestamp="2010-03-09T19:52:42Z" uid="9581" user="Lobelt" changeset="4083888">
    <nd ref="663390528"/>
    <nd ref="663390531"/>
    <nd ref="663390545"/>
    <nd ref="663390529"/>
    <nd ref="663390528"/>
    <tag k="building" v="yes"/>
  </way>
  <way id="52040828" version="2" timestamp="2012-01-26T11:14:09Z" uid="442210" user="dwausr" changeset="10501965"/>
  <way id="52040828" version="3" timestamp="2012-03-28T07:22:29Z" uid="442210" user="dwausr" changeset="11123485">
    <nd ref="663390528"/>
    <nd ref="663390531"/>
    <nd ref="663390545"/>
    <nd ref="663390529"/>
    <nd ref="663390528"/>
    <tag k="building" v="yes"/>
  </way>
  <way id="52040829" version="1" timestamp="2010-03-09T19:52:42Z" uid="9581" user="Lobelt" changeset="4083888">
    <nd ref="663390532"/>
    <nd ref="663390535"/>
    <nd ref="663390537"/>
    <nd ref="663390536"/>
    <nd ref="663390534"/>
    <nd ref="663390533"/>
    <nd ref="663390532"/>
    <tag k="addr:housenumber" v="11"/>
    <tag k="addr:street" v="Friedensweg"/>
    <tag k="building" v="yes"/>
  </way>
  <way id="52040829" version="2" timestamp="2012-01-26T11:13:36Z" uid="442210" user="dwausr" changeset="10501965"/>
  <way id="52040829" version="3" timestamp="2012-03-28T07:31:17Z" uid="442210" user="dwausr" changeset="11123485">
    <nd ref="663390532"/>
    <nd ref="663390535"/>
    <nd ref="663390537"/>
    <nd ref="663390536"/>
    <nd ref="663390534"/>
    <nd ref="663390533"/>
    <nd ref="663390532"/>
    <tag k="addr:housenumber" v="11"/>
    <tag k="addr:street" v="Friedensweg"/>
    <tag k="building" v="yes"/>
  </way>
  <way id="52040830" version="1" timestamp="2010-03-09T19:52:42Z" uid="9581" user="Lobelt" changeset="4083888">
    <nd ref="663390491"/>
    <nd ref="663390512"/>
    <nd ref="663390509"/>
    <nd ref="663390504"/>
    <nd ref="663390490"/>
    <nd ref="663390491"/>
    <tag k="building" v="yes"/>
  </way>
  <way id="52040830" version="2" timestamp="2012-01-26T11:14:10Z" uid="442210" user="dwausr" changeset="10501965"/>
  <way id="52040830" version="3" timestamp="2012-03-28T07:25:18Z" uid="442210" user="dwausr" changeset="11123485">
    <nd ref="663390491"/>
    <nd ref="663390512"/>
    <nd ref="663390509"/>
    <nd ref="663390504"/>
    <nd ref="663390490"/>
    <nd ref="663390491"/>
    <tag k="building" v="yes"/>
  </way>
  <way id="52040831" version="1" timestamp="2010-03-09T19:52:42Z" uid="9581" user="Lobelt" changeset="4083888">
    <nd ref="663390509"/>
    <nd ref="663390510"/>
    <nd ref="663390511"/>
    <nd ref="663390512"/>
    <nd ref="663390509"/>
    <tag k="building" v="yes"/>
  </way>
  <way id="52040831" version="2" timestamp="2012-01-26T11:14:10Z" uid="442210" user="dwausr" changeset="10501965"/>
  <way id="52040831" version="3" timestamp="2012-03-28T07:22:30Z" uid="442210" user="dwausr" changeset="11123485">
    <nd ref="663390509"/>
    <nd ref="663390510"/>
    <nd ref="663390511"/>
    <nd ref="663390512"/>
    <nd ref="663390509"/>
    <tag k="building" v="yes"/>
  </way>
  <way id="52040832" version="1" timestamp="2010-03-09T19:52:42Z" uid="9581" user="Lobelt" changeset="4083888">
    <nd ref="663390518"/>
    <nd ref="663390517"/>
    <nd ref="663390516"/>
    <nd ref="663390513"/>
    <nd ref="663390514"/>
    <nd ref="663390515"/>
    <nd ref="663390518"/>
    <tag k="building" v="yes"/>
  </way>
  <way id="52040832" version="2" timestamp="2012-01-26T11:14:10Z" uid="442210" user="dwausr" changeset="10501965"/>
  <way id="52040832" version="3" timestamp="2012-03-28T07:26:51Z" uid="442210" user="dwausr" changeset="11123485">
    <nd ref="663390518"/>
    <nd ref="663390517"/>
    <nd ref="663390516"/>
    <nd ref="663390513"/>
    <nd ref="663390514"/>
    <nd ref="663390515"/>
    <nd ref="663390518"/>
    <tag k="building" v="yes"/>
  </way>
  <way id="52040833" version="1" timestamp="2010-03-09T19:52:42Z" uid="9581" user="Lobelt" changeset="4083888">
    <nd ref="663390519"/>
    <nd ref="663390520"/>
    <nd ref="663390522"/>
    <nd ref="663390523"/>
    <nd ref="663390524"/>
    <nd ref="663390518"/>
    <nd ref="663390519"/>
    <tag k="addr:housenumber" v="7"/>
    <tag k="addr:street" v="Friedensweg"/>
    <tag k="building" v="yes"/>
  </way>
  <way id="52040833" version="2" timestamp="2012-01-26T11:13:55Z" uid="442210" user="dwausr" changeset="10501965"/>
  <way id="52040833" version="3" timestamp="2012-03-28T07:39:03Z" uid="442210" user="dwausr" changeset="11123485">
    <nd ref="663390519"/>
    <nd ref="663390520"/>
    <nd ref="663390522"/>
    <nd ref="663390523"/>
    <nd ref="663390524"/>
    <nd ref="663390518"/>
    <nd ref="663390519"/>
    <tag k="addr:housenumber" v="7"/>
    <tag k="addr:street" v="Friedensweg"/>
    <tag k="building" v="yes"/>
  </way>
  <way id="52040834" version="1" timestamp="2010-03-09T19:52:43Z" uid="9581" user="Lobelt" changeset="4083888">
    <nd ref="663390507"/>
    <nd ref="663390508"/>
    <nd ref="663390517"/>
    <nd ref="663390518"/>
    <nd ref="663390519"/>
    <nd ref="663390507"/>
    <tag k="addr:housenumber" v="5"/>
    <tag k="addr:street" v="Friedensweg"/>
    <tag k="building" v="yes"/>
  </way>
  <way id="52040834" version="2" timestamp="2012-01-26T11:13:52Z" uid="442210" user="dwausr" changeset="10501965"/>
  <way id="52040834" version="3" timestamp="2012-03-28T07:38:01Z" uid="442210" user="dwausr" changeset="11123485">
    <nd ref="663390507"/>
    <nd ref="663390508"/>
    <nd ref="663390517"/>
    <nd ref="663390518"/>
    <nd ref="663390519"/>
    <nd ref="663390507"/>
    <tag k="addr:housenumber" v="5"/>
    <tag k="addr:street" v="Friedensweg"/>
    <tag k="building" v="yes"/>
  </way>
  <way id="52040835" version="1" timestamp="2010-03-09T19:52:43Z" uid="9581" user="Lobelt" changeset="4083888">
    <nd ref="663390538"/>
    <nd ref="663390539"/>
    <nd ref="663390544"/>
    <nd ref="663390540"/>
    <nd ref="663390541"/>
    <nd ref="663390538"/>
    <tag k="addr:housenumber" v="13"/>
    <tag k="addr:street" v="Friedensweg"/>
    <tag k="building" v="yes"/>
  </way>
  <way id="52040835" version="2" timestamp="2012-01-26T11:13:38Z" uid="442210" user="dwausr" changeset="10501965"/>
  <way id="52040835" version="3" timestamp="2012-03-28T07:31:57Z" uid="442210" user="dwausr" changeset="11123485">
    <nd ref="663390538"/>
    <nd ref="663390539"/>
    <nd ref="663390544"/>
    <nd ref="663390540"/>
    <nd ref="663390541"/>
    <nd ref="663390538"/>
    <tag k="addr:housenumber" v="13"/>
    <tag k="addr:street" v="Friedensweg"/>
    <tag k="building" v="yes"/>
  </way>
  <way id="52040836" version="1" timestamp="2010-03-09T19:52:43Z" uid="9581" user="Lobelt" changeset="4083888">
    <nd ref="663390540"/>
    <nd ref="663390542"/>
    <nd ref="663390543"/>
    <nd ref="663390544"/>
    <nd ref="663390540"/>
    <tag k="building" v="yes"/>
  </way>
  <way id="52040836" version="2" timestamp="2012-01-26T11:14:10Z" uid="442210" user="dwausr" changeset="10501965"/>
  <way id="52040836" version="3" timestamp="2012-03-28T07:22:21Z" uid="442210" user="dwausr" changeset="11123485">
    <nd ref="663390540"/>
    <nd ref="663390542"/>
    <nd ref="663390543"/>
    <nd ref="663390544"/>
    <nd ref="663390540"/>
    <tag k="building" v="yes"/>
  </way>
  <way id="52040063" version="2" timestamp="2012-07-20T19:35:08Z" uid="722137" user="OSMF Redaction Account" changeset="12388564">
    <nd ref="663385875"/>
    <nd ref="663385876"/>
    <nd ref="663385877"/>
    <nd ref="663385878"/>
    <nd ref="663385879"/>
    <nd ref="663385880"/>
    <nd ref="663385881"/>
    <nd ref="663385883"/>
    <nd ref="663385884"/>
    <nd ref="663385885"/>
    <nd ref="663385886"/>
    <nd ref="663385887"/>
    <nd ref="663385888"/>
    <nd ref="663385889"/>
    <nd ref="663385890"/>
    <nd ref="663385891"/>
    <nd ref="663385892"/>
    <nd ref="663385893"/>
    <nd ref="663385894"/>
    <nd ref="663385895"/>
    <nd ref="663385897"/>
    <nd ref="663385898"/>
    <nd ref="663385875"/>
    <tag k="landuse" v="industrial"/>
    <tag k="source" v="Yahoo"/>
  </way>
  <way id="52040063" version="3" timestamp="2012-07-20T19:36:28Z" uid="722137" user="OSMF Redaction Account" changeset="12388582"/>
  <way id="52040064" version="2" timestamp="2012-07-20T19:36:28Z" uid="722137" user="OSMF Redaction Account" changeset="12388582"/>
  <way id="52040066" version="2" timestamp="2012-07-20T19:36:25Z" uid="722137" user="OSMF Redaction Account" changeset="12388582"/>
  <way id="52040067" version="2" timestamp="2012-07-20T19:36:27Z" uid="722137" user="OSMF Redaction Account" changeset="12388582"/>
  <way id="52040371" version="4" timestamp="2012-07-19T01:43:12Z" uid="722137" user="OSMF Redaction Account" changeset="12304115"/>
  <way id="52040771" version="4" timestamp="2012-04-06T06:18:51Z" uid="31231" user="Andre68" changeset="11197000"/>
  <way id="52040772" version="4" timestamp="2012-04-06T06:18:52Z" uid="31231" user="Andre68" changeset="11197000"/>
  <way id="52040773" version="4" timestamp="2012-04-06T06:13:25Z" uid="31231" user="Andre68" changeset="11197000"/>
  <way id="52040774" version="4" timestamp="2012-04-06T06:18:52Z" uid="31231" user="Andre68" changeset="11197000"/>
  <way id="52040775" version="4" timestamp="2012-04-06T06:13:25Z" uid="31231" user="Andre68" changeset="11197000"/>
  <way id="52040776" version="4" timestamp="2012-04-06T06:19:01Z" uid="31231" user="Andre68" changeset="11197000"/>
  <way id="52040777" version="4" timestamp="2012-04-06T06:13:25Z" uid="31231" user="Andre68" changeset="11197000"/>
  <way id="52040778" version="4" timestamp="2012-04-06T06:18:59Z" uid="31231" user="Andre68" changeset="11197000"/>
  <way id="52040779" version="4" timestamp="2012-04-06T06:19:00Z" uid="31231" user="Andre68" changeset="11197000"/>
  <way id="52040780" version="4" timestamp="2012-04-06T06:18:52Z" uid="31231" user="Andre68" changeset="11197000"/>
  <way id="52040781" version="4" timestamp="2012-04-06T06:19:00Z" uid="31231" user="Andre68" changeset="11197000"/>
  <way id="52040782" version="4" timestamp="2012-04-06T06:18:52Z" uid="31231" user="Andre68" changeset="11197000"/>
  <way id="52040783" version="4" timestamp="2012-04-06T06:13:21Z" uid="31231" user="Andre68" changeset="11197000"/>
  <way id="52040784" version="4" timestamp="2012-04-06T06:18:52Z" uid="31231" user="Andre68" changeset="11197000"/>
  <way id="52040785" version="4" timestamp="2012-04-06T06:18:52Z" uid="31231" user="Andre68" changeset="11197000"/>
  <way id="52040786" version="4" timestamp="2012-04-06T06:18:53Z" uid="31231" user="Andre68" changeset="11197000"/>
  <way id="52040787" version="4" timestamp="2012-04-06T06:18:53Z" uid="31231" user="Andre68" changeset="11197000"/>
  <way id="52040788" version="4" timestamp="2012-04-06T06:13:25Z" uid="31231" user="Andre68" changeset="11197000"/>
  <way id="52040789" version="4" timestamp="2012-04-06T06:13:21Z" uid="31231" user="Andre68" changeset="11197000"/>
  <way id="52040790" version="4" timestamp="2012-04-06T06:13:24Z" uid="31231" user="Andre68" changeset="11197000"/>
  <way id="52040791" version="4" timestamp="2012-04-06T06:13:21Z" uid="31231" user="Andre68" changeset="11197000"/>
  <way id="52040792" version="4" timestamp="2012-04-06T06:13:21Z" uid="31231" user="Andre68" changeset="11197000"/>
  <way id="52040793" version="4" timestamp="2012-04-06T06:13:26Z" uid="31231" user="Andre68" changeset="11197000"/>
  <way id="52040794" version="4" timestamp="2012-04-06T06:13:26Z" uid="31231" user="Andre68" changeset="11197000"/>
  <way id="52040795" version="4" timestamp="2012-04-06T06:18:53Z" uid="31231" user="Andre68" changeset="11197000"/>
  <way id="52040796" version="4" timestamp="2012-04-06T06:18:53Z" uid="31231" user="Andre68" changeset="11197000"/>
  <way id="52040797" version="4" timestamp="2012-04-06T06:18:53Z" uid="31231" user="Andre68" changeset="11197000"/>
  <way id="52040798" version="4" timestamp="2012-04-06T06:18:57Z" uid="31231" user="Andre68" changeset="11197000"/>
  <way id="52040799" version="4" timestamp="2012-04-06T06:18:53Z" uid="31231" user="Andre68" changeset="11197000"/>
  <way id="52040800" version="4" timestamp="2012-04-06T06:18:58Z" uid="31231" user="Andre68" changeset="11197000"/>
  <way id="52040801" version="4" timestamp="2012-04-06T06:18:53Z" uid="31231" user="Andre68" changeset="11197000"/>
  <way id="52040802" version="4" timestamp="2012-04-06T06:19:02Z" uid="31231" user="Andre68" changeset="11197000"/>
  <way id="52040803" version="4" timestamp="2012-04-06T06:19:03Z" uid="31231" user="Andre68" changeset="11197000"/>
  <way id="52040804" version="4" timestamp="2012-04-06T06:18:53Z" uid="31231" user="Andre68" changeset="11197000"/>
  <way id="52040805" version="4" timestamp="2012-04-06T06:18:54Z" uid="31231" user="Andre68" changeset="11197000"/>
  <way id="52040806" version="4" timestamp="2012-04-06T06:18:54Z" uid="31231" user="Andre68" changeset="11197000"/>
  <way id="52040807" version="4" timestamp="2012-04-06T06:18:54Z" uid="31231" user="Andre68" changeset="11197000"/>
  <way id="52040808" version="4" timestamp="2012-04-06T06:18:54Z" uid="31231" user="Andre68" changeset="11197000"/>
  <way id="52040809" version="4" timestamp="2012-04-06T06:13:24Z" uid="31231" user="Andre68" changeset="11197000"/>
  <way id="52040810" version="4" timestamp="2012-04-06T06:13:21Z" uid="31231" user="Andre68" changeset="11197000"/>
  <way id="52040811" version="4" timestamp="2012-04-06T06:19:01Z" uid="31231" user="Andre68" changeset="11197000"/>
  <way id="52040812" version="4" timestamp="2012-04-06T06:19:01Z" uid="31231" user="Andre68" changeset="11197000"/>
  <way id="52040813" version="4" timestamp="2012-04-06T06:18:54Z" uid="31231" user="Andre68" changeset="11197000"/>
  <way id="52040814" version="4" timestamp="2012-04-06T06:18:54Z" uid="31231" user="Andre68" changeset="11197000"/>
  <way id="52040815" version="4" timestamp="2012-04-06T06:19:01Z" uid="31231" user="Andre68" changeset="11197000"/>
  <way id="52040816" version="4" timestamp="2012-04-06T06:19:00Z" uid="31231" user="Andre68" changeset="11197000"/>
  <way id="52040817" version="4" timestamp="2012-04-06T06:18:54Z" uid="31231" user="Andre68" changeset="11197000"/>
  <way id="52040818" version="4" timestamp="2012-04-06T06:18:55Z" uid="31231" user="Andre68" changeset="11197000"/>
  <way id="52040819" version="4" timestamp="2012-04-06T06:18:55Z" uid="31231" user="Andre68" changeset="11197000"/>
  <way id="52040820" version="4" timestamp="2012-04-06T06:19:00Z" uid="31231" user="Andre68" changeset="11197000"/>
  <way id="52040821" version="4" timestamp="2012-04-06T06:19:01Z" uid="31231" user="Andre68" changeset="11197000"/>
  <way id="52040822" version="4" timestamp="2012-04-06T06:13:25Z" uid="31231" user="Andre68" changeset="11197000"/>
  <way id="52040823" version="4" timestamp="2012-04-06T06:13:24Z" uid="31231" user="Andre68" changeset="11197000"/>
  <way id="52040824" version="4" timestamp="2012-04-06T06:13:24Z" uid="31231" user="Andre68" changeset="11197000"/>
  <way id="52040825" version="4" timestamp="2012-04-06T06:13:22Z" uid="31231" user="Andre68" changeset="11197000"/>
  <way id="52040826" version="4" timestamp="2012-04-06T06:13:25Z" uid="31231" user="Andre68" changeset="11197000"/>
  <way id="52040827" version="4" timestamp="2012-04-06T06:13:27Z" uid="31231" user="Andre68" changeset="11197000"/>
  <way id="52040828" version="4" timestamp="2012-04-06T06:13:22Z" uid="31231" user="Andre68" changeset="11197000"/>
  <way id="52040829" version="4" timestamp="2012-04-06T06:13:23Z" uid="31231" user="Andre68" changeset="11197000"/>
  <way id="52040830" version="4" timestamp="2012-04-06T06:13:22Z" uid="31231" user="Andre68" changeset="11197000"/>
  <way id="52040831" version="4" timestamp="2012-04-06T06:13:22Z" uid="31231" user="Andre68" changeset="11197000"/>
  <way id="52040832" version="4" timestamp="2012-04-06T06:13:22Z" uid="31231" user="Andre68" changeset="11197000"/>
  <way id="52040833" version="4" timestamp="2012-04-06T06:13:26Z" uid="31231" user="Andre68" changeset="11197000"/>
  <way id="52040834" version="4" timestamp="2012-04-06T06:13:26Z" uid="31231" user="Andre68" changeset="11197000"/>
  <way id="52040835" version="4" timestamp="2012-04-06T06:13:24Z" uid="31231" user="Andre68" changeset="11197000"/>
  <way id="52040836" version="4" timestamp="2012-04-06T06:13:22Z" uid="31231" user="Andre68" changeset="11197000"/>
</osm>
