<?xml version='1.0' encoding='UTF-8'?>
<osm version="0.6" generator="libosmium/2.20.0">
  <way id="52111020" version="3" timestamp="2011-04-20T11:26:11Z" uid="115477" user="wowik" changeset="7915253">
    <nd ref="664072394"/>
    <nd ref="664072395"/>
    <nd ref="664072324"/>
    <nd ref="664072325"/>
    <nd ref="664072394"/>
    <tag k="addr:city" v="Москва"/>
    <tag k="addr:country" v="RU"/>
    <tag k="addr:housenumber" v="19"/>
    <tag k="addr:street" v="Малая Бронная улица"/>
    <tag k="building" v="yes"/>
    <tag k="cladr:code" v="77000000000090700"/>
  </way>
  <way id="52111021" version="4" timestamp="2011-04-20T07:30:51Z" uid="115477" user="wowik" changeset="7913535">
    <nd ref="664072245"/>
    <nd ref="664072372"/>
    <nd ref="664072373"/>
    <nd ref="664072244"/>
    <nd ref="664072246"/>
    <nd ref="664072245"/>
    <tag k="addr:city" v="Москва"/>
    <tag k="addr:country" v="RU"/>
    <tag k="addr:housenumber" v="12 с2"/>
    <tag k="addr:street" v="улица Спиридоновка"/>
    <tag k="building" v="yes"/>
    <tag k="cladr:code" v="77000000000711200"/>
  </way>
  <way id="52111021" version="5" timestamp="2011-09-13T18:54:32Z" uid="338289" user="PShA" changeset="9292081">
    <nd ref="664072373"/>
    <nd ref="664072244"/>
    <nd ref="664072246"/>
    <nd ref="664072245"/>
    <nd ref="664072372"/>
  </way>
  <way id="52111021" version="6" timestamp="2011-09-14T18:30:59Z" uid="338289" user="PShA" changeset="9301927">
    <nd ref="664072373"/>
    <nd ref="1432893890"/>
    <nd ref="1432893898"/>
    <tag k="barrier" v="wall"/>
  </way>
  <way id="52111022" version="3" timestamp="2011-04-20T11:25:39Z" uid="115477" user="wowik" changeset="7915253">
    <nd ref="664072277"/>
    <nd ref="664072279"/>
    <nd ref="664072285"/>
    <nd ref="664072278"/>
    <nd ref="664072230"/>
    <nd ref="664072229"/>
    <nd ref="664072277"/>
    <tag k="addr:city" v="Москва"/>
    <tag k="addr:country" v="RU"/>
    <tag k="addr:housenumber" v="20"/>
    <tag k="addr:street" v="улица Спиридоновка"/>
    <tag k="building" v="yes"/>
    <tag k="cladr:code" v="77000000000711200"/>
  </way>
  <way id="52111023" version="3" timestamp="2011-04-20T11:18:18Z" uid="115477" user="wowik" changeset="7915124">
    <nd ref="664072217"/>
    <nd ref="664072209"/>
    <nd ref="664072208"/>
    <nd ref="664072213"/>
    <nd ref="664072217"/>
    <tag k="addr:city" v="Москва"/>
    <tag k="addr:country" v="RU"/>
    <tag k="addr:housenumber" v="4"/>
    <tag k="addr:street" v="Гранатный переулок"/>
    <tag k="building" v="yes"/>
    <tag k="cladr:code" v="77000000000719500"/>
  </way>
  <way id="52111024" version="4" timestamp="2011-04-20T11:18:02Z" uid="115477" user="wowik" changeset="7915124">
    <nd ref="664072202"/>
    <nd ref="664072216"/>
    <nd ref="664072214"/>
    <nd ref="664072203"/>
    <nd ref="664072202"/>
    <tag k="addr:city" v="Москва"/>
    <tag k="addr:country" v="RU"/>
    <tag k="addr:housenumber" v="4 с4"/>
    <tag k="addr:street" v="Гранатный переулок"/>
    <tag k="building" v="yes"/>
    <tag k="cladr:code" v="77000000000719500"/>
  </way>
  <way id="52111025" version="4" timestamp="2011-04-20T11:18:40Z" uid="115477" user="wowik" changeset="7915124">
    <nd ref="664072210"/>
    <nd ref="664072228"/>
    <nd ref="664072218"/>
    <nd ref="664072222"/>
    <nd ref="664072227"/>
    <nd ref="664072211"/>
    <nd ref="664072210"/>
    <tag k="addr:city" v="Москва"/>
    <tag k="addr:country" v="RU"/>
    <tag k="addr:housenumber" v="4 с2"/>
    <tag k="addr:street" v="Гранатный переулок"/>
    <tag k="building" v="yes"/>
    <tag k="cladr:code" v="77000000000719500"/>
  </way>
  <way id="52111026" version="4" timestamp="2011-04-20T11:18:48Z" uid="115477" user="wowik" changeset="7915124">
    <nd ref="664072205"/>
    <nd ref="664072204"/>
    <nd ref="664072207"/>
    <nd ref="664072206"/>
    <nd ref="664072205"/>
    <tag k="addr:city" v="Москва"/>
    <tag k="addr:country" v="RU"/>
    <tag k="addr:housenumber" v="13 с2"/>
    <tag k="addr:street" v="улица Спиридоновка"/>
    <tag k="building" v="yes"/>
    <tag k="cladr:code" v="77000000000711200"/>
  </way>
  <way id="52111027" version="3" timestamp="2011-04-05T08:23:20Z" uid="115477" user="wowik" changeset="7772261">
    <nd ref="359705314"/>
    <nd ref="1233383246"/>
    <nd ref="359705317"/>
    <nd ref="664072212"/>
    <nd ref="359705311"/>
    <nd ref="359705314"/>
    <tag k="addr:housenumber" v="2 с1"/>
    <tag k="addr:street" v="Гранатный переулок"/>
    <tag k="building" v="yes"/>
  </way>
  <way id="52111027" version="4" timestamp="2011-04-20T07:30:46Z" uid="115477" user="wowik" changeset="7913535">
    <nd ref="359705314"/>
    <nd ref="1233383246"/>
    <nd ref="359705317"/>
    <nd ref="664072212"/>
    <nd ref="359705311"/>
    <nd ref="359705314"/>
    <tag k="addr:city" v="Москва"/>
    <tag k="addr:country" v="RU"/>
    <tag k="addr:housenumber" v="2 с1"/>
    <tag k="addr:street" v="Гранатный переулок"/>
    <tag k="building" v="yes"/>
  </way>
  <way id="52111028" version="4" timestamp="2011-04-20T11:25:35Z" uid="115477" user="wowik" changeset="7915253">
    <nd ref="664072251"/>
    <nd ref="664072252"/>
    <nd ref="664072248"/>
    <nd ref="664072249"/>
    <nd ref="664072250"/>
    <nd ref="664072247"/>
    <nd ref="664072251"/>
    <tag k="addr:city" v="Москва"/>
    <tag k="addr:country" v="RU"/>
    <tag k="addr:housenumber" v="16 с2"/>
    <tag k="addr:street" v="улица Спиридоновка"/>
    <tag k="building" v="yes"/>
    <tag k="cladr:code" v="77000000000711200"/>
  </way>
  <way id="52111028" version="5" timestamp="2011-09-14T18:30:58Z" uid="338289" user="PShA" changeset="9301927">
    <nd ref="664072251"/>
    <nd ref="664072252"/>
    <nd ref="664072248"/>
    <nd ref="664072249"/>
    <nd ref="664072250"/>
    <nd ref="1432893896"/>
    <nd ref="664072247"/>
    <nd ref="664072251"/>
    <tag k="addr:city" v="Москва"/>
    <tag k="addr:country" v="RU"/>
    <tag k="addr:housenumber" v="16 с2"/>
    <tag k="addr:street" v="улица Спиридоновка"/>
    <tag k="building" v="yes"/>
    <tag k="cladr:code" v="77000000000711200"/>
  </way>
  <way id="52111029" version="4" timestamp="2011-04-20T11:25:53Z" uid="115477" user="wowik" changeset="7915253">
    <nd ref="664072253"/>
    <nd ref="664072256"/>
    <nd ref="664072255"/>
    <nd ref="664072254"/>
    <nd ref="664072253"/>
    <tag k="addr:city" v="Москва"/>
    <tag k="addr:country" v="RU"/>
    <tag k="addr:housenumber" v="16 с3"/>
    <tag k="addr:street" v="улица Спиридоновка"/>
    <tag k="building" v="yes"/>
    <tag k="cladr:code" v="77000000000711200"/>
  </way>
  <way id="52111030" version="3" timestamp="2011-04-20T11:18:23Z" uid="115477" user="wowik" changeset="7915124">
    <nd ref="664072239"/>
    <nd ref="664072240"/>
    <nd ref="664072234"/>
    <nd ref="664072236"/>
    <nd ref="664072232"/>
    <nd ref="664072237"/>
    <nd ref="664072231"/>
    <nd ref="664072238"/>
    <nd ref="393664692"/>
    <nd ref="664072235"/>
    <nd ref="664072233"/>
    <nd ref="664072239"/>
    <tag k="addr:city" v="Москва"/>
    <tag k="addr:country" v="RU"/>
    <tag k="addr:housenumber" v="14"/>
    <tag k="addr:street" v="улица Спиридоновка"/>
    <tag k="building" v="yes"/>
    <tag k="cladr:code" v="77000000000711200"/>
  </way>
  <way id="52111030" version="4" timestamp="2011-09-14T18:30:58Z" uid="338289" user="PShA" changeset="9301927">
    <nd ref="1432893928"/>
    <nd ref="1432893919"/>
    <nd ref="1432893892"/>
    <nd ref="664072235"/>
  </way>
  <way id="52111031" version="4" timestamp="2011-04-20T11:18:56Z" uid="115477" user="wowik" changeset="7915124">
    <nd ref="664072222"/>
    <nd ref="664072218"/>
    <nd ref="664072215"/>
    <nd ref="664072219"/>
    <nd ref="664072222"/>
    <tag k="addr:city" v="Москва"/>
    <tag k="addr:country" v="RU"/>
    <tag k="addr:housenumber" v="4 с3"/>
    <tag k="addr:street" v="Гранатный переулок"/>
    <tag k="building" v="yes"/>
    <tag k="cladr:code" v="77000000000719500"/>
  </way>
  <way id="52111032" version="4" timestamp="2011-04-20T11:19:30Z" uid="115477" user="wowik" changeset="7915253">
    <nd ref="664072226"/>
    <nd ref="664072221"/>
    <nd ref="664072220"/>
    <nd ref="664072223"/>
    <nd ref="664072226"/>
    <tag k="addr:city" v="Москва"/>
    <tag k="addr:country" v="RU"/>
    <tag k="addr:housenumber" v="11 с4"/>
    <tag k="addr:street" v="улица Спиридоновка"/>
    <tag k="building" v="yes"/>
    <tag k="cladr:code" v="77000000000711200"/>
  </way>
  <way id="52111033" version="4" timestamp="2011-04-20T07:31:06Z" uid="115477" user="wowik" changeset="7913535">
    <nd ref="664072224"/>
    <nd ref="664072225"/>
    <nd ref="664072226"/>
    <nd ref="664072223"/>
    <nd ref="664072224"/>
    <tag k="addr:city" v="Москва"/>
    <tag k="addr:country" v="RU"/>
    <tag k="addr:housenumber" v="11 с3"/>
    <tag k="addr:street" v="улица Спиридоновка"/>
    <tag k="building" v="yes"/>
    <tag k="cladr:code" v="77000000000711200"/>
  </way>
  <way id="52111034" version="4" timestamp="2011-04-20T11:17:53Z" uid="115477" user="wowik" changeset="7915124">
    <nd ref="664072241"/>
    <nd ref="664072243"/>
    <nd ref="664072245"/>
    <nd ref="664072246"/>
    <nd ref="664072242"/>
    <nd ref="664072241"/>
    <tag k="addr:city" v="Москва"/>
    <tag k="addr:country" v="RU"/>
    <tag k="addr:housenumber" v="14 с2"/>
    <tag k="addr:street" v="улица Спиридоновка"/>
    <tag k="building" v="yes"/>
    <tag k="cladr:code" v="77000000000711200"/>
  </way>
  <way id="52111034" version="5" timestamp="2011-09-14T18:31:00Z" uid="338289" user="PShA" changeset="9301927"/>
  <way id="52111035" version="4" timestamp="2011-04-20T11:26:01Z" uid="115477" user="wowik" changeset="7915253">
    <nd ref="664072331"/>
    <nd ref="664072307"/>
    <nd ref="664072308"/>
    <nd ref="664072332"/>
    <nd ref="664072331"/>
    <tag k="addr:city" v="Москва"/>
    <tag k="addr:country" v="RU"/>
    <tag k="addr:housenumber" v="7 с3"/>
    <tag k="addr:street" v="Спиридоньевский переулок"/>
    <tag k="building" v="yes"/>
    <tag k="cladr:code" v="77000000000274400"/>
  </way>
  <way id="52111036" version="2" timestamp="2011-04-20T11:26:56Z" uid="115477" user="wowik" changeset="7915253">
    <nd ref="664072333"/>
    <nd ref="393664753"/>
    <nd ref="393664752"/>
    <nd ref="393664751"/>
    <nd ref="664072339"/>
    <nd ref="664072342"/>
    <nd ref="664072340"/>
    <nd ref="664072341"/>
    <nd ref="664072334"/>
    <nd ref="664072333"/>
    <tag k="addr:city" v="Москва"/>
    <tag k="addr:country" v="RU"/>
    <tag k="addr:housenumber" v="9"/>
    <tag k="addr:street" v="Спиридоньевский переулок"/>
    <tag k="building" v="yes"/>
    <tag k="cladr:code" v="77000000000274400"/>
  </way>
  <way id="52111036" version="3" timestamp="2012-03-19T22:02:11Z" uid="260756" user="Felis Pimeja" changeset="11035572">
    <nd ref="1682353445"/>
    <nd ref="1682353458"/>
    <nd ref="1682353409"/>
    <nd ref="1682353442"/>
    <nd ref="1682353417"/>
    <nd ref="1682353447"/>
    <nd ref="664072341"/>
    <nd ref="664072334"/>
    <nd ref="1682353445"/>
    <tag k="addr:city" v="Москва"/>
    <tag k="addr:country" v="RU"/>
    <tag k="addr:housenumber" v="9"/>
    <tag k="addr:street" v="Спиридоньевский переулок"/>
    <tag k="building" v="yes"/>
    <tag k="cladr:code" v="77000000000274400"/>
  </way>
  <way id="52111037" version="3" timestamp="2011-04-20T11:25:28Z" uid="115477" user="wowik" changeset="7915253">
    <nd ref="664072294"/>
    <nd ref="664072257"/>
    <nd ref="664072258"/>
    <nd ref="664072259"/>
    <nd ref="664072260"/>
    <nd ref="664072293"/>
    <nd ref="664072294"/>
    <tag k="addr:city" v="Москва"/>
    <tag k="addr:country" v="RU"/>
    <tag k="addr:housenumber" v="24/1"/>
    <tag k="addr:housenumber2" v="1/24"/>
    <tag k="addr:street" v="улица Спиридоновка"/>
    <tag k="addr:street2" v="Спиридоньевский переулок"/>
    <tag k="building" v="yes"/>
    <tag k="cladr:code" v="77000000000711200"/>
  </way>
  <way id="52111037" version="4" timestamp="2012-03-19T22:02:02Z" uid="260756" user="Felis Pimeja" changeset="11035572">
    <nd ref="664072294"/>
    <nd ref="1682353327"/>
    <nd ref="664072257"/>
    <nd ref="664072258"/>
    <nd ref="664072259"/>
    <nd ref="664072260"/>
    <nd ref="1682353313"/>
    <nd ref="664072293"/>
    <nd ref="664072294"/>
    <tag k="addr:city" v="Москва"/>
    <tag k="addr:country" v="RU"/>
    <tag k="addr:housenumber" v="24/1"/>
    <tag k="addr:housenumber2" v="1/24"/>
    <tag k="addr:street" v="улица Спиридоновка"/>
    <tag k="addr:street2" v="Спиридоньевский переулок"/>
    <tag k="building" v="yes"/>
    <tag k="cladr:code" v="77000000000711200"/>
  </way>
  <way id="52111038" version="3" timestamp="2011-04-20T11:26:28Z" uid="115477" user="wowik" changeset="7915253">
    <nd ref="393664750"/>
    <nd ref="664072339"/>
    <nd ref="664072342"/>
    <nd ref="664072343"/>
    <nd ref="664072352"/>
    <nd ref="664072358"/>
    <nd ref="664072329"/>
    <nd ref="664072328"/>
    <nd ref="664072319"/>
    <nd ref="664072321"/>
    <nd ref="664072320"/>
    <nd ref="393664750"/>
    <tag k="addr:city" v="Москва"/>
    <tag k="addr:country" v="RU"/>
    <tag k="addr:housenumber" v="9"/>
    <tag k="addr:street" v="Спиридоньевский переулок"/>
    <tag k="building" v="yes"/>
    <tag k="cladr:code" v="77000000000274400"/>
  </way>
  <way id="52111038" version="4" timestamp="2012-03-19T22:05:29Z" uid="260756" user="Felis Pimeja" changeset="11035572"/>
  <way id="52111039" version="4" timestamp="2011-04-20T11:26:40Z" uid="115477" user="wowik" changeset="7915253">
    <nd ref="664072358"/>
    <nd ref="664072329"/>
    <nd ref="664072354"/>
    <nd ref="664072356"/>
    <nd ref="664072357"/>
    <nd ref="664072353"/>
    <nd ref="664072358"/>
    <tag k="addr:city" v="Москва"/>
    <tag k="addr:country" v="RU"/>
    <tag k="addr:housenumber" v="21/13"/>
    <tag k="addr:housenumber2" v="13/21"/>
    <tag k="addr:street" v="Малая Бронная улица"/>
    <tag k="addr:street2" v="Спиридоньевский переулок"/>
    <tag k="building" v="yes"/>
    <tag k="cladr:code" v="77000000000090700"/>
  </way>
  <way id="52111039" version="5" timestamp="2012-03-19T22:02:01Z" uid="260756" user="Felis Pimeja" changeset="11035572">
    <nd ref="1682353446"/>
    <nd ref="1682353410"/>
    <nd ref="664072329"/>
    <nd ref="664072354"/>
    <nd ref="664072356"/>
    <nd ref="664072357"/>
    <nd ref="664072353"/>
    <nd ref="1682353446"/>
    <tag k="addr:city" v="Москва"/>
    <tag k="addr:country" v="RU"/>
    <tag k="addr:housenumber" v="21/13"/>
    <tag k="addr:housenumber2" v="13/21"/>
    <tag k="addr:street" v="Малая Бронная улица"/>
    <tag k="addr:street2" v="Спиридоньевский переулок"/>
    <tag k="building" v="yes"/>
    <tag k="cladr:code" v="77000000000090700"/>
  </way>
  <way id="52111040" version="5" timestamp="2011-04-20T11:26:03Z" uid="115477" user="wowik" changeset="7915253">
    <nd ref="359989706"/>
    <nd ref="664072299"/>
    <nd ref="664072296"/>
    <nd ref="664072330"/>
    <nd ref="359989706"/>
    <tag k="addr:city" v="Москва"/>
    <tag k="addr:country" v="RU"/>
    <tag k="addr:housenumber" v="8 с2"/>
    <tag k="addr:street" v="Большой Патриарший переулок"/>
    <tag k="building" v="yes"/>
    <tag k="cladr:code" v="77000000000722000"/>
  </way>
  <way id="52111041" version="3" timestamp="2011-04-20T11:26:22Z" uid="115477" user="wowik" changeset="7915253">
    <nd ref="664072264"/>
    <nd ref="664072273"/>
    <nd ref="664072261"/>
    <nd ref="664072263"/>
    <nd ref="664072271"/>
    <nd ref="664072262"/>
    <nd ref="664072265"/>
    <nd ref="664072266"/>
    <nd ref="664072267"/>
    <nd ref="664072272"/>
    <nd ref="664072274"/>
    <nd ref="664072275"/>
    <nd ref="664072276"/>
    <nd ref="664072264"/>
    <tag k="addr:city" v="Москва"/>
    <tag k="addr:country" v="RU"/>
    <tag k="addr:housenumber" v="26"/>
    <tag k="addr:street" v="улица Спиридоновка"/>
    <tag k="building" v="yes"/>
    <tag k="cladr:code" v="77000000000711200"/>
  </way>
  <way id="52111042" version="4" timestamp="2011-04-20T11:25:30Z" uid="115477" user="wowik" changeset="7915253">
    <nd ref="664072282"/>
    <nd ref="664072286"/>
    <nd ref="664072283"/>
    <nd ref="664072281"/>
    <nd ref="664072284"/>
    <nd ref="664072280"/>
    <nd ref="664072282"/>
    <tag k="addr:city" v="Москва"/>
    <tag k="addr:country" v="RU"/>
    <tag k="addr:housenumber" v="20 с2"/>
    <tag k="addr:street" v="улица Спиридоновка"/>
    <tag k="building" v="yes"/>
    <tag k="cladr:code" v="77000000000711200"/>
  </way>
  <way id="52111043" version="4" timestamp="2011-04-20T11:25:49Z" uid="115477" user="wowik" changeset="7915253">
    <nd ref="664072295"/>
    <nd ref="664072304"/>
    <nd ref="664072288"/>
    <nd ref="664072287"/>
    <nd ref="664072295"/>
    <tag k="addr:city" v="Москва"/>
    <tag k="addr:country" v="RU"/>
    <tag k="addr:housenumber" v="5 с2"/>
    <tag k="addr:street" v="Спиридоньевский переулок"/>
    <tag k="building" v="yes"/>
    <tag k="cladr:code" v="77000000000274400"/>
  </way>
  <way id="52111043" version="5" timestamp="2012-03-19T22:02:08Z" uid="260756" user="Felis Pimeja" changeset="11035572">
    <nd ref="664072295"/>
    <nd ref="664072304"/>
    <nd ref="664072288"/>
    <nd ref="664072287"/>
    <nd ref="1682353353"/>
    <nd ref="1682353352"/>
    <nd ref="1682353356"/>
    <nd ref="1682353359"/>
    <nd ref="664072295"/>
    <tag k="addr:city" v="Москва"/>
    <tag k="addr:country" v="RU"/>
    <tag k="addr:housenumber" v="5 с2"/>
    <tag k="addr:street" v="Спиридоньевский переулок"/>
    <tag k="building" v="yes"/>
    <tag k="cladr:code" v="77000000000274400"/>
  </way>
  <way id="52111044" version="3" timestamp="2011-04-20T11:26:44Z" uid="115477" user="wowik" changeset="7915253">
    <nd ref="664072305"/>
    <nd ref="664072303"/>
    <nd ref="664072289"/>
    <nd ref="664072291"/>
    <nd ref="664072292"/>
    <nd ref="664072290"/>
    <nd ref="664072305"/>
    <tag k="addr:city" v="Москва"/>
    <tag k="addr:country" v="RU"/>
    <tag k="addr:housenumber" v="5"/>
    <tag k="addr:street" v="Спиридоньевский переулок"/>
    <tag k="building" v="yes"/>
    <tag k="cladr:code" v="77000000000274400"/>
  </way>
  <way id="52111045" version="3" timestamp="2011-04-20T11:26:59Z" uid="115477" user="wowik" changeset="7915253">
    <nd ref="664072306"/>
    <nd ref="664072318"/>
    <nd ref="664072302"/>
    <nd ref="664072301"/>
    <nd ref="664072306"/>
    <tag k="addr:city" v="Москва"/>
    <tag k="addr:country" v="RU"/>
    <tag k="addr:housenumber" v="7"/>
    <tag k="addr:street" v="Спиридоньевский переулок"/>
    <tag k="building" v="yes"/>
    <tag k="cladr:code" v="77000000000274400"/>
  </way>
  <way id="52111045" version="4" timestamp="2012-03-19T22:02:10Z" uid="260756" user="Felis Pimeja" changeset="11035572">
    <nd ref="664072306"/>
    <nd ref="664072318"/>
    <nd ref="664072302"/>
    <nd ref="664072301"/>
    <nd ref="1682353354"/>
    <nd ref="1682353355"/>
    <nd ref="664072306"/>
    <tag k="addr:city" v="Москва"/>
    <tag k="addr:country" v="RU"/>
    <tag k="addr:housenumber" v="7"/>
    <tag k="addr:street" v="Спиридоньевский переулок"/>
    <tag k="building" v="yes"/>
    <tag k="cladr:code" v="77000000000274400"/>
  </way>
  <way id="52111046" version="3" timestamp="2011-04-20T11:26:13Z" uid="115477" user="wowik" changeset="7915253">
    <nd ref="664072309"/>
    <nd ref="664072311"/>
    <nd ref="664072310"/>
    <nd ref="664072313"/>
    <nd ref="664072312"/>
    <nd ref="664072309"/>
    <tag k="addr:city" v="Москва"/>
    <tag k="addr:country" v="RU"/>
    <tag k="addr:housenumber" v="19А"/>
    <tag k="addr:street" v="Малая Бронная улица"/>
    <tag k="building" v="yes"/>
    <tag k="cladr:code" v="77000000000090700"/>
  </way>
  <way id="52111047" version="3" timestamp="2011-04-20T11:26:33Z" uid="115477" user="wowik" changeset="7915253">
    <nd ref="664072323"/>
    <nd ref="664072322"/>
    <nd ref="664072313"/>
    <nd ref="664072312"/>
    <nd ref="664072316"/>
    <nd ref="664072323"/>
    <tag k="addr:city" v="Москва"/>
    <tag k="addr:country" v="RU"/>
    <tag k="addr:housenumber" v="19А"/>
    <tag k="addr:street" v="Малая Бронная улица"/>
    <tag k="building" v="yes"/>
    <tag k="cladr:code" v="77000000000090700"/>
  </way>
  <way id="52111048" version="3" timestamp="2011-04-20T11:25:42Z" uid="115477" user="wowik" changeset="7915253">
    <nd ref="664072327"/>
    <nd ref="664072326"/>
    <nd ref="664072323"/>
    <nd ref="664072317"/>
    <nd ref="664072327"/>
    <tag k="addr:city" v="Москва"/>
    <tag k="addr:country" v="RU"/>
    <tag k="addr:housenumber" v="8"/>
    <tag k="addr:street" v="Спиридоньевский переулок"/>
    <tag k="building" v="yes"/>
    <tag k="cladr:code" v="77000000000274400"/>
  </way>
  <way id="52111049" version="3" timestamp="2011-04-20T11:25:58Z" uid="115477" user="wowik" changeset="7915253">
    <nd ref="664072316"/>
    <nd ref="664072314"/>
    <nd ref="664072315"/>
    <nd ref="664072317"/>
    <nd ref="664072323"/>
    <nd ref="664072316"/>
    <tag k="addr:city" v="Москва"/>
    <tag k="addr:country" v="RU"/>
    <tag k="addr:housenumber" v="6"/>
    <tag k="addr:street" v="Спиридоньевский переулок"/>
    <tag k="building" v="yes"/>
    <tag k="cladr:code" v="77000000000274400"/>
  </way>
  <way id="52111050" version="5" timestamp="2011-04-20T11:26:51Z" uid="115477" user="wowik" changeset="7915253">
    <nd ref="664072346"/>
    <nd ref="664072347"/>
    <nd ref="664072338"/>
    <nd ref="664072348"/>
    <nd ref="664072346"/>
    <tag k="addr:city" v="Москва"/>
    <tag k="addr:country" v="RU"/>
    <tag k="addr:housenumber" v="23 с3"/>
    <tag k="addr:street" v="Малая Бронная улица"/>
    <tag k="building" v="yes"/>
    <tag k="cladr:code" v="77000000000090700"/>
  </way>
  <way id="52111051" version="6" timestamp="2011-04-20T11:27:07Z" uid="115477" user="wowik" changeset="7915253">
    <nd ref="664072349"/>
    <nd ref="670631325"/>
    <nd ref="664072359"/>
    <nd ref="664072356"/>
    <nd ref="664072357"/>
    <nd ref="664072344"/>
    <nd ref="664072345"/>
    <nd ref="664072355"/>
    <nd ref="664072349"/>
    <tag k="addr:city" v="Москва"/>
    <tag k="addr:country" v="RU"/>
    <tag k="addr:housenumber" v="21/13 с2"/>
    <tag k="addr:housenumber2" v="13/21 с2"/>
    <tag k="addr:street" v="Малая Бронная улица"/>
    <tag k="addr:street2" v="Спиридоньевский переулок"/>
    <tag k="building" v="yes"/>
    <tag k="cladr:code" v="77000000000090700"/>
  </way>
  <way id="52111055" version="4" timestamp="2011-04-20T11:26:04Z" uid="115477" user="wowik" changeset="7915253">
    <nd ref="670631322"/>
    <nd ref="664072363"/>
    <nd ref="664072337"/>
    <nd ref="359989699"/>
    <nd ref="664072361"/>
    <nd ref="670631340"/>
    <nd ref="670631322"/>
    <tag k="addr:city" v="Москва"/>
    <tag k="addr:country" v="RU"/>
    <tag k="addr:housenumber" v="27/14"/>
    <tag k="addr:housenumber2" v="14/27"/>
    <tag k="addr:street" v="Малая Бронная улица"/>
    <tag k="addr:street2" v="Большой Патриарший переулок"/>
    <tag k="building" v="yes"/>
    <tag k="cladr:code" v="77000000000090700"/>
  </way>
  <way id="52111056" version="4" timestamp="2011-04-20T11:26:50Z" uid="115477" user="wowik" changeset="7915253">
    <nd ref="670631278"/>
    <nd ref="359989699"/>
    <nd ref="664072337"/>
    <nd ref="670631293"/>
    <nd ref="670631278"/>
    <tag k="addr:city" v="Москва"/>
    <tag k="addr:country" v="RU"/>
    <tag k="addr:housenumber" v="12"/>
    <tag k="addr:street" v="Большой Патриарший переулок"/>
    <tag k="building" v="yes"/>
    <tag k="cladr:code" v="77000000000722000"/>
  </way>
  <way id="52111057" version="4" timestamp="2011-04-20T11:19:22Z" uid="115477" user="wowik" changeset="7915253">
    <nd ref="664072365"/>
    <nd ref="664072382"/>
    <nd ref="664072367"/>
    <nd ref="664072376"/>
    <nd ref="664072378"/>
    <nd ref="664072380"/>
    <nd ref="664072381"/>
    <nd ref="664072379"/>
    <nd ref="664072377"/>
    <nd ref="664072375"/>
    <nd ref="664072374"/>
    <nd ref="664072366"/>
    <nd ref="664072368"/>
    <nd ref="664072370"/>
    <nd ref="664072371"/>
    <nd ref="664072369"/>
    <nd ref="664072365"/>
    <tag k="addr:city" v="Москва"/>
    <tag k="addr:country" v="RU"/>
    <tag k="addr:housenumber" v="13 с2"/>
    <tag k="addr:street" v="Малая Бронная улица"/>
    <tag k="amenity" v="kindergarten"/>
    <tag k="building" v="yes"/>
    <tag k="cladr:code" v="77000000000090700"/>
  </way>
  <way id="52111057" version="5" timestamp="2011-09-13T18:54:33Z" uid="338289" user="PShA" changeset="9292081">
    <nd ref="664072365"/>
    <nd ref="664072382"/>
    <nd ref="664072367"/>
    <nd ref="664072376"/>
    <nd ref="664072378"/>
    <nd ref="664072380"/>
    <nd ref="664072381"/>
    <nd ref="664072379"/>
    <nd ref="664072377"/>
    <nd ref="664072375"/>
    <nd ref="664072374"/>
    <nd ref="664072366"/>
    <nd ref="664072368"/>
    <nd ref="664072370"/>
    <nd ref="664072371"/>
    <nd ref="664072369"/>
    <nd ref="664072365"/>
    <tag k="addr:city" v="Москва"/>
    <tag k="addr:country" v="RU"/>
    <tag k="addr:housenumber" v="13 с2"/>
    <tag k="addr:street" v="Малая Бронная улица"/>
    <tag k="building" v="yes"/>
    <tag k="cladr:code" v="77000000000090700"/>
  </way>
  <way id="52111057" version="6" timestamp="2011-09-15T11:24:11Z" uid="424404" user="Dmitry Vilegzhanin" changeset="9306472">
    <nd ref="664072365"/>
    <nd ref="664072382"/>
    <nd ref="664072367"/>
    <nd ref="664072376"/>
    <nd ref="664072378"/>
    <nd ref="664072380"/>
    <nd ref="664072381"/>
    <nd ref="664072379"/>
    <nd ref="664072377"/>
    <nd ref="664072375"/>
    <nd ref="664072374"/>
    <nd ref="664072366"/>
    <nd ref="664072368"/>
    <nd ref="664072370"/>
    <nd ref="664072371"/>
    <nd ref="664072369"/>
    <nd ref="664072365"/>
    <tag k="addr:city" v="Москва"/>
    <tag k="addr:country" v="RU"/>
    <tag k="addr:housenumber" v="13 к2 с1"/>
    <tag k="addr:street" v="Малая Бронная улица"/>
    <tag k="amenity" v="kindergarten"/>
    <tag k="building" v="kindergarten"/>
    <tag k="cladr:code" v="77000000000090700"/>
    <tag k="name" v="ДОУ №1144"/>
  </way>
  <way id="52111058" version="5" timestamp="2011-04-20T11:26:20Z" uid="115477" user="wowik" changeset="7915253">
    <nd ref="664072424"/>
    <nd ref="664072431"/>
    <nd ref="664072428"/>
    <nd ref="664072427"/>
    <nd ref="664072423"/>
    <nd ref="664072424"/>
    <tag k="addr:city" v="Москва"/>
    <tag k="addr:country" v="RU"/>
    <tag k="addr:housenumber" v="5 с5"/>
    <tag k="addr:street" v="Большой Козихинский переулок"/>
    <tag k="building" v="yes"/>
    <tag k="cladr:code" v="77000000000703800"/>
  </way>
  <way id="52111058" version="6" timestamp="2011-09-16T13:15:48Z" uid="518259" user="Маша" changeset="9315169">
    <nd ref="664072424"/>
    <nd ref="664072431"/>
    <nd ref="664072428"/>
    <nd ref="664072427"/>
    <nd ref="664072423"/>
    <nd ref="664072424"/>
    <tag k="addr:city" v="Москва"/>
    <tag k="addr:country" v="RU"/>
    <tag k="addr:housenumber" v="5 с5"/>
    <tag k="addr:street" v="Большой Козихинский переулок"/>
    <tag k="amenity" v="school"/>
    <tag k="building" v="school"/>
    <tag k="cladr:code" v="77000000000703800"/>
    <tag k="name" v="ЦО №1441«Бронная слобода»"/>
  </way>
  <way id="52111058" version="7" timestamp="2011-09-18T15:40:02Z" uid="161476" user="Alexandr Zeinalov" changeset="9332522">
    <nd ref="664072424"/>
    <nd ref="664072431"/>
    <nd ref="664072428"/>
    <nd ref="664072427"/>
    <nd ref="664072423"/>
    <nd ref="664072424"/>
    <tag k="addr:city" v="Москва"/>
    <tag k="addr:country" v="RU"/>
    <tag k="addr:housenumber" v="5 с5"/>
    <tag k="addr:street" v="Большой Козихинский переулок"/>
    <tag k="amenity" v="school"/>
    <tag k="building" v="school"/>
    <tag k="name" v="ЦО №1441«Бронная слобода»"/>
  </way>
  <way id="52111059" version="4" timestamp="2011-04-20T11:26:37Z" uid="115477" user="wowik" changeset="7915253">
    <nd ref="664072439"/>
    <nd ref="664072432"/>
    <nd ref="664072421"/>
    <nd ref="664072424"/>
    <nd ref="664072422"/>
    <nd ref="664072439"/>
    <tag k="addr:city" v="Москва"/>
    <tag k="addr:country" v="RU"/>
    <tag k="addr:housenumber" v="5"/>
    <tag k="addr:street" v="Большой Козихинский переулок"/>
    <tag k="building" v="yes"/>
    <tag k="cladr:code" v="77000000000703800"/>
  </way>
  <way id="52111059" version="5" timestamp="2011-09-16T13:15:48Z" uid="518259" user="Маша" changeset="9315169">
    <nd ref="664072439"/>
    <nd ref="664072432"/>
    <nd ref="664072421"/>
    <nd ref="664072424"/>
    <nd ref="664072422"/>
    <nd ref="664072439"/>
    <tag k="addr:city" v="Москва"/>
    <tag k="addr:country" v="RU"/>
    <tag k="addr:housenumber" v="5 c1"/>
    <tag k="addr:street" v="Большой Козихинский переулок"/>
    <tag k="amenity" v="school"/>
    <tag k="building" v="school"/>
    <tag k="cladr:code" v="77000000000703800"/>
    <tag k="name" v="ЦО №1441«Бронная слобода»"/>
  </way>
  <way id="52111059" version="6" timestamp="2011-09-18T15:40:02Z" uid="161476" user="Alexandr Zeinalov" changeset="9332522">
    <nd ref="664072439"/>
    <nd ref="664072432"/>
    <nd ref="664072421"/>
    <nd ref="664072424"/>
    <nd ref="664072422"/>
    <nd ref="664072439"/>
    <tag k="addr:city" v="Москва"/>
    <tag k="addr:country" v="RU"/>
    <tag k="addr:housenumber" v="5 c1"/>
    <tag k="addr:street" v="Большой Козихинский переулок"/>
    <tag k="amenity" v="school"/>
    <tag k="building" v="school"/>
    <tag k="name" v="ЦО №1441«Бронная слобода»"/>
  </way>
  <way id="52111060" version="5" timestamp="2011-04-20T11:25:47Z" uid="115477" user="wowik" changeset="7915253">
    <nd ref="664072433"/>
    <nd ref="664072434"/>
    <nd ref="664072430"/>
    <nd ref="664072435"/>
    <nd ref="664072431"/>
    <nd ref="664072424"/>
    <nd ref="664072421"/>
    <nd ref="664072438"/>
    <nd ref="664072437"/>
    <nd ref="664072436"/>
    <nd ref="664072433"/>
    <tag k="addr:city" v="Москва"/>
    <tag k="addr:country" v="RU"/>
    <tag k="addr:housenumber" v="5 с6"/>
    <tag k="addr:street" v="Большой Козихинский переулок"/>
    <tag k="building" v="yes"/>
    <tag k="cladr:code" v="77000000000703800"/>
  </way>
  <way id="52111060" version="6" timestamp="2011-09-13T18:54:34Z" uid="338289" user="PShA" changeset="9292081">
    <nd ref="664072433"/>
    <nd ref="664072434"/>
  </way>
  <way id="52111061" version="4" timestamp="2011-04-20T11:26:03Z" uid="115477" user="wowik" changeset="7915253">
    <nd ref="670502005"/>
    <nd ref="664072425"/>
    <nd ref="664072402"/>
    <nd ref="664072401"/>
    <nd ref="664072397"/>
    <nd ref="664072426"/>
    <nd ref="670502005"/>
    <tag k="addr:city" v="Москва"/>
    <tag k="addr:country" v="RU"/>
    <tag k="addr:housenumber" v="20А"/>
    <tag k="addr:street" v="Малая Бронная улица"/>
    <tag k="building" v="yes"/>
    <tag k="cladr:code" v="77000000000090700"/>
  </way>
  <way id="52111062" version="5" timestamp="2011-04-20T11:26:58Z" uid="115477" user="wowik" changeset="7915253">
    <nd ref="664072422"/>
    <nd ref="664072424"/>
    <nd ref="664072423"/>
    <nd ref="664072417"/>
    <nd ref="664072420"/>
    <nd ref="664072422"/>
    <tag k="addr:city" v="Москва"/>
    <tag k="addr:country" v="RU"/>
    <tag k="addr:housenumber" v="5 с2"/>
    <tag k="addr:street" v="Большой Козихинский переулок"/>
    <tag k="building" v="yes"/>
    <tag k="cladr:code" v="77000000000703800"/>
  </way>
  <way id="52111062" version="6" timestamp="2011-09-16T13:15:49Z" uid="518259" user="Маша" changeset="9315169">
    <nd ref="664072422"/>
    <nd ref="664072424"/>
    <nd ref="664072423"/>
    <nd ref="664072417"/>
    <nd ref="664072420"/>
    <nd ref="664072422"/>
    <tag k="addr:city" v="Москва"/>
    <tag k="addr:country" v="RU"/>
    <tag k="addr:housenumber" v="5 с2"/>
    <tag k="addr:street" v="Большой Козихинский переулок"/>
    <tag k="amenity" v="school"/>
    <tag k="building" v="school"/>
    <tag k="cladr:code" v="77000000000703800"/>
    <tag k="name" v="ЦО №1441«Бронная слобода»"/>
  </way>
  <way id="52111062" version="7" timestamp="2011-09-18T15:40:02Z" uid="161476" user="Alexandr Zeinalov" changeset="9332522">
    <nd ref="664072422"/>
    <nd ref="664072424"/>
    <nd ref="664072423"/>
    <nd ref="664072417"/>
    <nd ref="664072420"/>
    <nd ref="664072422"/>
    <tag k="addr:city" v="Москва"/>
    <tag k="addr:country" v="RU"/>
    <tag k="addr:housenumber" v="5 с2"/>
    <tag k="addr:street" v="Большой Козихинский переулок"/>
    <tag k="amenity" v="school"/>
    <tag k="building" v="school"/>
    <tag k="name" v="ЦО №1441«Бронная слобода»"/>
  </way>
  <way id="52111063" version="3" timestamp="2011-04-20T11:25:29Z" uid="115477" user="wowik" changeset="7915253">
    <nd ref="664072402"/>
    <nd ref="664072401"/>
    <nd ref="664072398"/>
    <nd ref="664072411"/>
    <nd ref="664072410"/>
    <nd ref="664072396"/>
    <nd ref="664072399"/>
    <nd ref="664072391"/>
    <nd ref="664072402"/>
    <tag k="addr:city" v="Москва"/>
    <tag k="addr:country" v="RU"/>
    <tag k="addr:housenumber" v="20"/>
    <tag k="addr:street" v="Малая Бронная улица"/>
    <tag k="building" v="yes"/>
    <tag k="cladr:code" v="77000000000090700"/>
  </way>
  <way id="52111064" version="5" timestamp="2011-04-20T11:26:30Z" uid="115477" user="wowik" changeset="7915253">
    <nd ref="664072391"/>
    <nd ref="664072399"/>
    <nd ref="664072403"/>
    <nd ref="664072405"/>
    <nd ref="664072406"/>
    <nd ref="664072404"/>
    <nd ref="664072386"/>
    <nd ref="664072389"/>
    <nd ref="664072390"/>
    <nd ref="664072383"/>
    <nd ref="664072407"/>
    <nd ref="664072393"/>
    <nd ref="664072392"/>
    <nd ref="664072391"/>
    <tag k="addr:city" v="Москва"/>
    <tag k="addr:country" v="RU"/>
    <tag k="addr:housenumber" v="18"/>
    <tag k="addr:street" v="Малая Бронная улица"/>
    <tag k="building" v="yes"/>
    <tag k="cladr:code" v="77000000000090700"/>
  </way>
  <way id="52111065" version="4" timestamp="2011-04-20T11:26:42Z" uid="115477" user="wowik" changeset="7915253">
    <nd ref="664072418"/>
    <nd ref="664072419"/>
    <nd ref="664072414"/>
    <nd ref="664072416"/>
    <nd ref="664072387"/>
    <nd ref="664072388"/>
    <nd ref="664072384"/>
    <nd ref="664072390"/>
    <nd ref="664072389"/>
    <nd ref="664072385"/>
    <nd ref="664072415"/>
    <nd ref="664072418"/>
    <tag k="addr:city" v="Москва"/>
    <tag k="addr:country" v="RU"/>
    <tag k="addr:housenumber" v="16"/>
    <tag k="addr:street" v="Малая Бронная улица"/>
    <tag k="building" v="yes"/>
    <tag k="cladr:code" v="77000000000090700"/>
  </way>
  <way id="52111067" version="4" timestamp="2011-04-20T11:26:11Z" uid="115477" user="wowik" changeset="7915253">
    <nd ref="664072412"/>
    <nd ref="664072413"/>
    <nd ref="664072419"/>
    <nd ref="664072418"/>
    <nd ref="664072412"/>
    <tag k="addr:city" v="Москва"/>
    <tag k="addr:country" v="RU"/>
    <tag k="addr:housenumber" v="14"/>
    <tag k="addr:street" v="Малая Бронная улица"/>
    <tag k="building" v="yes"/>
    <tag k="cladr:code" v="77000000000090700"/>
  </way>
  <way id="52111429" version="5" timestamp="2010-04-07T14:31:22Z" uid="20587" user="balrog-kun" changeset="4353646">
    <nd ref="152506832"/>
    <nd ref="153278891"/>
    <tag k="highway" v="motorway_link"/>
    <tag k="name" v="State Beltway 8"/>
    <tag k="name_1" v="Beltway 8"/>
    <tag k="name_2" v="Sam Houston Parkway"/>
    <tag k="oneway" v="yes"/>
    <tag k="tiger:cfcc" v="A35"/>
    <tag k="tiger:county" v="Harris, TX"/>
    <tag k="tiger:name_base" v="State Beltway 8"/>
    <tag k="tiger:name_base_1" v="Beltway 8"/>
    <tag k="tiger:name_base_2" v="Sam Houston"/>
    <tag k="tiger:name_type_2" v="Pky"/>
    <tag k="tiger:reviewed" v="no"/>
    <tag k="tiger:separated" v="yes"/>
    <tag k="tiger:source" v="tiger_import_dch_v0.6_20070830"/>
    <tag k="tiger:tlid" v="233439583:233439618:233439619:233439585:233439588:233439638:233439640:233439641:233439592:233439464:233439517:233439465:233445710:233439516:233439519:233445712:233445753"/>
  </way>
  <way id="52111430" version="6" timestamp="2010-04-07T14:31:23Z" uid="20587" user="balrog-kun" changeset="4353646">
    <nd ref="153278953"/>
    <nd ref="153278951"/>
    <nd ref="151923603"/>
    <nd ref="153207400"/>
    <nd ref="151923631"/>
    <nd ref="153278948"/>
    <nd ref="153278945"/>
    <nd ref="151427513"/>
    <nd ref="153278942"/>
    <nd ref="151427492"/>
    <nd ref="152505462"/>
    <nd ref="153278939"/>
    <nd ref="153278935"/>
    <nd ref="153278932"/>
    <nd ref="153278927"/>
    <nd ref="153254632"/>
    <nd ref="153278922"/>
    <nd ref="153255137"/>
    <nd ref="153278920"/>
    <nd ref="153278916"/>
    <nd ref="153278913"/>
    <nd ref="151733405"/>
    <nd ref="153278909"/>
    <nd ref="152395295"/>
    <nd ref="153278907"/>
    <nd ref="151733442"/>
    <nd ref="152888966"/>
    <nd ref="151755067"/>
    <nd ref="152241466"/>
    <nd ref="151755178"/>
    <nd ref="153278904"/>
    <nd ref="153278901"/>
    <nd ref="153278898"/>
    <nd ref="153278896"/>
    <nd ref="153278894"/>
    <nd ref="152506832"/>
    <tag k="highway" v="tertiary"/>
    <tag k="name" v="Sam Houston Parkway"/>
    <tag k="name_1" v="Beltway 8"/>
    <tag k="name_2" v="State Beltway 8"/>
    <tag k="oneway" v="yes"/>
    <tag k="tiger:cfcc" v="A35"/>
    <tag k="tiger:county" v="Harris, TX"/>
    <tag k="tiger:name_base" v="State Beltway 8"/>
    <tag k="tiger:name_base_1" v="Beltway 8"/>
    <tag k="tiger:name_base_2" v="Sam Houston"/>
    <tag k="tiger:name_type_2" v="Pky"/>
    <tag k="tiger:reviewed" v="no"/>
    <tag k="tiger:separated" v="yes"/>
    <tag k="tiger:source" v="tiger_import_dch_v0.6_20070830"/>
    <tag k="tiger:tlid" v="233439583:233439618:233439619:233439585:233439588:233439638:233439640:233439641:233439592:233439464:233439517:233439465:233445710:233439516:233439519:233445712:233445753"/>
  </way>
  <way id="52111430" version="7" timestamp="2011-03-11T09:30:41Z" uid="207745" user="NE2" changeset="7521567">
    <nd ref="152508336"/>
    <nd ref="153278979"/>
    <nd ref="153108004"/>
    <nd ref="153278976"/>
    <nd ref="153278973"/>
    <nd ref="153278970"/>
    <nd ref="153278966"/>
    <nd ref="153250682"/>
    <nd ref="153278963"/>
    <nd ref="152627126"/>
    <nd ref="152494854"/>
    <nd ref="153278959"/>
    <nd ref="153278957"/>
    <nd ref="153278953"/>
    <tag k="highway" v="secondary"/>
    <tag k="name" v="Sam Houston Parkway"/>
    <tag k="note" v="frontage"/>
    <tag k="oneway" v="yes"/>
    <tag k="ref" v="Beltway 8"/>
    <tag k="tiger:cfcc" v="A35"/>
    <tag k="tiger:county" v="Harris, TX"/>
    <tag k="tiger:name_base" v="State Beltway 8"/>
    <tag k="tiger:name_base_1" v="Beltway 8"/>
    <tag k="tiger:name_base_2" v="Sam Houston"/>
    <tag k="tiger:name_type_2" v="Pky"/>
    <tag k="tiger:reviewed" v="no"/>
    <tag k="tiger:separated" v="yes"/>
    <tag k="tiger:source" v="tiger_import_dch_v0.6_20070830"/>
    <tag k="tiger:tlid" v="233439464:233439465:233439516:233439517:233439519:233439583:233439585:233439588:233439592:233439618:233439619:233439638:233439640:233439641:233445710:233445712:233445753"/>
  </way>
  <way id="52111430" version="8" timestamp="2011-03-14T04:43:22Z" uid="119881" user="Clorox" changeset="7552803">
    <nd ref="152508336"/>
    <nd ref="153278979"/>
    <nd ref="153108004"/>
    <nd ref="153278976"/>
    <nd ref="153278973"/>
    <nd ref="153278970"/>
    <nd ref="153278966"/>
    <nd ref="153250682"/>
    <nd ref="153278963"/>
    <nd ref="152627126"/>
    <nd ref="152494854"/>
    <nd ref="153278959"/>
    <nd ref="153278957"/>
    <nd ref="153278953"/>
    <tag k="highway" v="secondary"/>
    <tag k="name" v="State Highway Beltway 8"/>
    <tag k="note" v="frontage"/>
    <tag k="oneway" v="yes"/>
    <tag k="ref" v="Beltway 8"/>
    <tag k="tiger:cfcc" v="A35"/>
    <tag k="tiger:county" v="Harris, TX"/>
    <tag k="tiger:name_base" v="State Beltway 8"/>
    <tag k="tiger:name_base_1" v="Beltway 8"/>
    <tag k="tiger:name_base_2" v="Sam Houston"/>
    <tag k="tiger:name_type_2" v="Pky"/>
    <tag k="tiger:reviewed" v="no"/>
    <tag k="tiger:separated" v="yes"/>
    <tag k="tiger:source" v="tiger_import_dch_v0.6_20070830"/>
    <tag k="tiger:tlid" v="233439464:233439465:233439516:233439517:233439519:233439583:233439585:233439588:233439592:233439618:233439619:233439638:233439640:233439641:233445710:233445712:233445753"/>
  </way>
  <way id="52111430" version="9" timestamp="2011-07-24T02:18:22Z" uid="207745" user="NE2" changeset="8811470">
    <nd ref="152508336"/>
    <nd ref="153278979"/>
    <nd ref="153108004"/>
    <nd ref="153278976"/>
    <nd ref="153278973"/>
    <nd ref="153278970"/>
    <nd ref="153278966"/>
    <nd ref="153250682"/>
    <nd ref="153278963"/>
    <nd ref="152627126"/>
    <nd ref="152494854"/>
    <nd ref="153278959"/>
    <nd ref="153278957"/>
    <nd ref="153278953"/>
    <tag k="highway" v="secondary"/>
    <tag k="note" v="frontage"/>
    <tag k="oneway" v="yes"/>
    <tag k="ref" v="Beltway 8"/>
    <tag k="tiger:cfcc" v="A35"/>
    <tag k="tiger:county" v="Harris, TX"/>
    <tag k="tiger:name_base" v="State Beltway 8"/>
    <tag k="tiger:name_base_1" v="Beltway 8"/>
    <tag k="tiger:name_base_2" v="Sam Houston"/>
    <tag k="tiger:name_type_2" v="Pky"/>
    <tag k="tiger:reviewed" v="no"/>
    <tag k="tiger:separated" v="yes"/>
    <tag k="tiger:source" v="tiger_import_dch_v0.6_20070830"/>
    <tag k="tiger:tlid" v="233439464:233439465:233439516:233439517:233439519:233439583:233439585:233439588:233439592:233439618:233439619:233439638:233439640:233439641:233445710:233445712:233445753"/>
  </way>
  <way id="52111430" version="10" timestamp="2011-08-23T15:59:11Z" uid="119881" user="Clorox" changeset="9104898">
    <nd ref="152508336"/>
    <nd ref="153278979"/>
    <nd ref="153108004"/>
    <nd ref="153278976"/>
    <nd ref="153278973"/>
    <nd ref="153278970"/>
    <nd ref="153278966"/>
    <nd ref="1410102235"/>
    <nd ref="153250682"/>
    <nd ref="153278963"/>
    <nd ref="152627126"/>
    <nd ref="152494854"/>
    <nd ref="153278959"/>
    <nd ref="153278957"/>
    <nd ref="153278953"/>
    <tag k="highway" v="secondary"/>
    <tag k="name" v="North Sam Houston Parkway East"/>
    <tag k="note" v="frontage"/>
    <tag k="oneway" v="yes"/>
    <tag k="ref" v="Beltway 8"/>
    <tag k="tiger:cfcc" v="A35"/>
    <tag k="tiger:county" v="Harris, TX"/>
    <tag k="tiger:name_base" v="State Beltway 8"/>
    <tag k="tiger:name_base_1" v="Beltway 8"/>
    <tag k="tiger:name_base_2" v="Sam Houston"/>
    <tag k="tiger:name_type_2" v="Pky"/>
    <tag k="tiger:reviewed" v="no"/>
    <tag k="tiger:separated" v="yes"/>
    <tag k="tiger:source" v="tiger_import_dch_v0.6_20070830"/>
    <tag k="tiger:tlid" v="233439464:233439465:233439516:233439517:233439519:233439583:233439585:233439588:233439592:233439618:233439619:233439638:233439640:233439641:233445710:233445712:233445753"/>
  </way>
  <way id="52111430" version="11" timestamp="2011-08-24T22:14:32Z" uid="119881" user="Clorox" changeset="9117162">
    <nd ref="152508336"/>
    <nd ref="153278979"/>
    <nd ref="153108004"/>
    <nd ref="153278976"/>
    <nd ref="153278973"/>
    <nd ref="153278970"/>
    <nd ref="153278966"/>
    <nd ref="1410102235"/>
    <nd ref="153250682"/>
    <nd ref="153278963"/>
    <nd ref="152627126"/>
    <nd ref="152494854"/>
    <nd ref="153278959"/>
    <nd ref="153278957"/>
    <nd ref="153278953"/>
    <tag k="highway" v="trunk"/>
    <tag k="name" v="North Sam Houston Parkway East"/>
    <tag k="note" v="frontage"/>
    <tag k="oneway" v="yes"/>
    <tag k="ref" v="Beltway 8"/>
    <tag k="tiger:cfcc" v="A35"/>
    <tag k="tiger:county" v="Harris, TX"/>
    <tag k="tiger:name_base" v="State Beltway 8"/>
    <tag k="tiger:name_base_1" v="Beltway 8"/>
    <tag k="tiger:name_base_2" v="Sam Houston"/>
    <tag k="tiger:name_type_2" v="Pky"/>
    <tag k="tiger:reviewed" v="no"/>
    <tag k="tiger:separated" v="yes"/>
    <tag k="tiger:source" v="tiger_import_dch_v0.6_20070830"/>
    <tag k="tiger:tlid" v="233439464:233439465:233439516:233439517:233439519:233439583:233439585:233439588:233439592:233439618:233439619:233439638:233439640:233439641:233445710:233445712:233445753"/>
  </way>
  <way id="52111430" version="12" timestamp="2011-12-01T23:31:07Z" uid="239998" user="Sundance" changeset="10013376">
    <nd ref="152508336"/>
    <nd ref="153278979"/>
    <nd ref="153108004"/>
    <nd ref="153278976"/>
    <nd ref="153278973"/>
    <nd ref="153278970"/>
    <nd ref="153278966"/>
    <nd ref="1410102235"/>
    <nd ref="153250682"/>
    <nd ref="1527402640"/>
    <nd ref="153278963"/>
    <nd ref="152627126"/>
    <nd ref="1527402629"/>
    <nd ref="152494854"/>
    <nd ref="153278959"/>
    <nd ref="153278957"/>
    <nd ref="153278953"/>
    <tag k="highway" v="trunk"/>
    <tag k="name" v="North Sam Houston Parkway East"/>
    <tag k="note" v="frontage"/>
    <tag k="oneway" v="yes"/>
    <tag k="ref" v="Beltway 8"/>
    <tag k="tiger:cfcc" v="A35"/>
    <tag k="tiger:county" v="Harris, TX"/>
    <tag k="tiger:name_base" v="State Beltway 8"/>
    <tag k="tiger:name_base_1" v="Beltway 8"/>
    <tag k="tiger:name_base_2" v="Sam Houston"/>
    <tag k="tiger:name_type_2" v="Pky"/>
    <tag k="tiger:reviewed" v="no"/>
    <tag k="tiger:separated" v="yes"/>
    <tag k="tiger:source" v="tiger_import_dch_v0.6_20070830"/>
    <tag k="tiger:tlid" v="233439464:233439465:233439516:233439517:233439519:233439583:233439585:233439588:233439592:233439618:233439619:233439638:233439640:233439641:233445710:233445712:233445753"/>
  </way>
  <way id="52111430" version="13" timestamp="2011-12-02T00:28:16Z" uid="239998" user="Sundance" changeset="10013589">
    <nd ref="152508336"/>
    <nd ref="153278979"/>
    <nd ref="153108004"/>
    <nd ref="153278976"/>
    <nd ref="153278973"/>
    <nd ref="153278970"/>
    <nd ref="153278966"/>
    <nd ref="1410102235"/>
    <nd ref="153250682"/>
    <nd ref="1527402640"/>
    <nd ref="153278963"/>
    <nd ref="152627126"/>
    <nd ref="1527544921"/>
    <nd ref="1527402629"/>
    <nd ref="152494854"/>
    <nd ref="153278959"/>
    <nd ref="153278957"/>
    <nd ref="153278953"/>
    <tag k="highway" v="trunk"/>
    <tag k="name" v="North Sam Houston Parkway East"/>
    <tag k="note" v="frontage"/>
    <tag k="oneway" v="yes"/>
    <tag k="ref" v="Beltway 8"/>
    <tag k="tiger:cfcc" v="A35"/>
    <tag k="tiger:county" v="Harris, TX"/>
    <tag k="tiger:name_base" v="State Beltway 8"/>
    <tag k="tiger:name_base_1" v="Beltway 8"/>
    <tag k="tiger:name_base_2" v="Sam Houston"/>
    <tag k="tiger:name_type_2" v="Pky"/>
    <tag k="tiger:reviewed" v="no"/>
    <tag k="tiger:separated" v="yes"/>
    <tag k="tiger:source" v="tiger_import_dch_v0.6_20070830"/>
    <tag k="tiger:tlid" v="233439464:233439465:233439516:233439517:233439519:233439583:233439585:233439588:233439592:233439618:233439619:233439638:233439640:233439641:233445710:233445712:233445753"/>
  </way>
  <way id="52111430" version="14" timestamp="2012-01-06T06:33:45Z" uid="207745" user="NE2" changeset="10308176">
    <nd ref="152508336"/>
    <nd ref="153278979"/>
    <nd ref="153108004"/>
    <nd ref="153278976"/>
    <nd ref="153278973"/>
    <nd ref="153278970"/>
    <nd ref="153278966"/>
    <nd ref="1410102235"/>
    <nd ref="153250682"/>
    <nd ref="1527402640"/>
    <nd ref="153278963"/>
    <nd ref="152627126"/>
    <nd ref="1527544921"/>
    <nd ref="1527402629"/>
    <nd ref="152494854"/>
    <nd ref="153278959"/>
    <nd ref="153278957"/>
    <nd ref="153278953"/>
    <tag k="highway" v="trunk"/>
    <tag k="name" v="North Sam Houston Parkway East"/>
    <tag k="note" v="frontage"/>
    <tag k="old_ref" v="Loop 8"/>
    <tag k="oneway" v="yes"/>
    <tag k="ref" v="Beltway 8"/>
    <tag k="tiger:cfcc" v="A35"/>
    <tag k="tiger:county" v="Harris, TX"/>
    <tag k="tiger:name_base" v="State Beltway 8"/>
    <tag k="tiger:name_base_1" v="Beltway 8"/>
    <tag k="tiger:name_base_2" v="Sam Houston"/>
    <tag k="tiger:name_type_2" v="Pky"/>
    <tag k="tiger:reviewed" v="no"/>
    <tag k="tiger:separated" v="yes"/>
    <tag k="tiger:source" v="tiger_import_dch_v0.6_20070830"/>
    <tag k="tiger:tlid" v="233439464:233439465:233439516:233439517:233439519:233439583:233439585:233439588:233439592:233439618:233439619:233439638:233439640:233439641:233445710:233445712:233445753"/>
  </way>
  <way id="52111430" version="15" timestamp="2012-01-19T07:06:18Z" uid="119881" user="Clorox" changeset="10434257">
    <nd ref="152508336"/>
    <nd ref="153278979"/>
    <nd ref="153108004"/>
    <nd ref="153278976"/>
    <nd ref="153278973"/>
    <nd ref="153278970"/>
    <nd ref="153278966"/>
    <nd ref="1410102235"/>
    <nd ref="153250682"/>
    <nd ref="1527402640"/>
    <nd ref="153278963"/>
    <nd ref="152627126"/>
    <nd ref="1527544921"/>
    <nd ref="1527402629"/>
    <nd ref="152494854"/>
    <nd ref="153278959"/>
    <nd ref="153278957"/>
    <nd ref="153278953"/>
    <tag k="highway" v="trunk"/>
    <tag k="name" v="North Sam Houston Parkway East"/>
    <tag k="note" v="frontage"/>
    <tag k="old_ref" v="Loop 8"/>
    <tag k="oneway" v="yes"/>
    <tag k="ref" v="BW 8"/>
    <tag k="tiger:cfcc" v="A35"/>
    <tag k="tiger:county" v="Harris, TX"/>
    <tag k="tiger:name_base" v="State Beltway 8"/>
    <tag k="tiger:name_base_1" v="Beltway 8"/>
    <tag k="tiger:name_base_2" v="Sam Houston"/>
    <tag k="tiger:name_type_2" v="Pky"/>
    <tag k="tiger:reviewed" v="no"/>
    <tag k="tiger:separated" v="yes"/>
    <tag k="tiger:source" v="tiger_import_dch_v0.6_20070830"/>
    <tag k="tiger:tlid" v="233439464:233439465:233439516:233439517:233439519:233439583:233439585:233439588:233439592:233439618:233439619:233439638:233439640:233439641:233445710:233445712:233445753"/>
  </way>
  <way id="52111431" version="3" timestamp="2010-04-07T14:31:24Z" uid="20587" user="balrog-kun" changeset="4353646">
    <nd ref="152509074"/>
    <nd ref="152504321"/>
    <tag k="highway" v="motorway_link"/>
    <tag k="name" v="Sam Houston Parkway"/>
    <tag k="name_1" v="Beltway 8"/>
    <tag k="name_2" v="State Beltway 8"/>
    <tag k="oneway" v="yes"/>
    <tag k="tiger:cfcc" v="A35"/>
    <tag k="tiger:county" v="Harris, TX"/>
    <tag k="tiger:name_base" v="Sam Houston"/>
    <tag k="tiger:name_base_1" v="Beltway 8"/>
    <tag k="tiger:name_base_2" v="State Beltway 8"/>
    <tag k="tiger:name_type" v="Pky"/>
    <tag k="tiger:separated" v="yes"/>
    <tag k="tiger:source" v="tiger_import_dch_v0.6_20070830"/>
    <tag k="tiger:tlid" v="96226882:233439416:233439407:96657076:96657077:233439426:96657084:96657085:233445670:96160697:233478904:96160717:96160718:96553722:96160662:96657116:96657117:96646288:96646289:96646290:96646292:96646293:96642744:96642746:96642748:96642749:96138416:9613839"/>
  </way>
  <way id="52111431" version="4" timestamp="2011-03-11T09:31:07Z" uid="207745" user="NE2" changeset="7521567">
    <nd ref="152509074"/>
    <nd ref="152504321"/>
    <tag k="highway" v="motorway_link"/>
    <tag k="oneway" v="yes"/>
    <tag k="tiger:cfcc" v="A35"/>
    <tag k="tiger:county" v="Harris, TX"/>
    <tag k="tiger:name_base" v="Sam Houston"/>
    <tag k="tiger:name_base_1" v="Beltway 8"/>
    <tag k="tiger:name_base_2" v="State Beltway 8"/>
    <tag k="tiger:name_type" v="Pky"/>
    <tag k="tiger:separated" v="yes"/>
    <tag k="tiger:source" v="tiger_import_dch_v0.6_20070830"/>
    <tag k="tiger:tlid" v="96226882:233439416:233439407:96657076:96657077:233439426:96657084:96657085:233445670:96160697:233478904:96160717:96160718:96553722:96160662:96657116:96657117:96646288:96646289:96646290:96646292:96646293:96642744:96642746:96642748:96642749:96138416:9613839"/>
  </way>
  <way id="52111434" version="9" timestamp="2010-04-07T14:31:24Z" uid="20587" user="balrog-kun" changeset="4353646">
    <nd ref="152504371"/>
    <nd ref="152504366"/>
    <nd ref="152504359"/>
    <nd ref="152504356"/>
    <nd ref="152504347"/>
    <nd ref="152504344"/>
    <nd ref="152504341"/>
    <nd ref="152504333"/>
    <nd ref="664077970"/>
    <nd ref="664077981"/>
    <nd ref="664077990"/>
    <nd ref="664077997"/>
    <nd ref="664077998"/>
    <nd ref="664078006"/>
    <nd ref="664078015"/>
    <nd ref="664078026"/>
    <nd ref="153278891"/>
    <nd ref="151942312"/>
    <tag k="highway" v="motorway"/>
    <tag k="name" v="Sam Houston Parkway"/>
    <tag k="name_1" v="Beltway 8"/>
    <tag k="name_2" v="State Beltway 8"/>
    <tag k="oneway" v="yes"/>
    <tag k="ref" v="Beltway 8"/>
    <tag k="tiger:cfcc" v="A64"/>
    <tag k="tiger:county" v="Harris, TX"/>
    <tag k="tiger:name_base" v="Sam Houston"/>
    <tag k="tiger:name_type" v="Pkwy"/>
    <tag k="tiger:reviewed" v="no"/>
    <tag k="tiger:source" v="tiger_import_dch_v0.6_20070830"/>
    <tag k="tiger:tlid" v="233478229:233408112:233408113:233408071:233408074:233408079:233408066:233408068:233410660:233410632:233410633:233410634:233410646:233410673:233419106:233414899:233413703:233413704:233413718:233413719:96230006:96657188:96657190:96226888:96553751:96228200:9"/>
  </way>
  <way id="52111434" version="10" timestamp="2010-12-18T21:49:07Z" uid="207745" user="NE2" changeset="6700868">
    <nd ref="152504371"/>
    <nd ref="152504366"/>
    <nd ref="152504359"/>
    <nd ref="152504356"/>
    <nd ref="152504347"/>
    <nd ref="152504344"/>
    <nd ref="152504341"/>
    <nd ref="152504333"/>
    <nd ref="664077970"/>
    <nd ref="664077981"/>
    <nd ref="664077990"/>
    <nd ref="664077997"/>
    <nd ref="664077998"/>
    <nd ref="664078006"/>
    <nd ref="664078015"/>
    <nd ref="664078026"/>
    <nd ref="153278891"/>
    <nd ref="151942312"/>
    <tag k="highway" v="motorway"/>
    <tag k="name" v="Sam Houston Parkway"/>
    <tag k="oneway" v="yes"/>
    <tag k="ref" v="Beltway 8"/>
    <tag k="tiger:cfcc" v="A64"/>
    <tag k="tiger:county" v="Harris, TX"/>
    <tag k="tiger:name_base" v="Sam Houston"/>
    <tag k="tiger:name_type" v="Pkwy"/>
    <tag k="tiger:reviewed" v="no"/>
    <tag k="tiger:source" v="tiger_import_dch_v0.6_20070830"/>
    <tag k="tiger:tlid" v="233478229:233408112:233408113:233408071:233408074:233408079:233408066:233408068:233410660:233410632:233410633:233410634:233410646:233410673:233419106:233414899:233413703:233413704:233413718:233413719:96230006:96657188:96657190:96226888:96553751:96228200:9"/>
    <tag k="toll" v="no"/>
  </way>
  <way id="52111434" version="11" timestamp="2011-03-11T09:31:02Z" uid="207745" user="NE2" changeset="7521567">
    <nd ref="664078288"/>
    <nd ref="664078302"/>
    <nd ref="664078315"/>
    <nd ref="153278999"/>
    <nd ref="153279001"/>
    <nd ref="152504371"/>
    <nd ref="152504366"/>
    <nd ref="152504359"/>
    <nd ref="152504356"/>
    <nd ref="152504347"/>
    <nd ref="152504344"/>
    <nd ref="152504341"/>
    <nd ref="152504333"/>
    <nd ref="664077970"/>
    <nd ref="664077981"/>
    <nd ref="664077990"/>
    <nd ref="664077997"/>
    <nd ref="664077998"/>
    <nd ref="664078006"/>
    <nd ref="664078015"/>
    <nd ref="664078026"/>
    <nd ref="153278891"/>
    <nd ref="151942312"/>
    <tag k="highway" v="motorway"/>
    <tag k="name" v="Sam Houston Parkway"/>
    <tag k="oneway" v="yes"/>
    <tag k="ref" v="Beltway 8"/>
    <tag k="tiger:cfcc" v="A41:A64"/>
    <tag k="tiger:county" v="Harris, TX"/>
    <tag k="tiger:name_base" v="Sam Houston:State Beltway 8"/>
    <tag k="tiger:name_type" v="Pkwy"/>
    <tag k="tiger:reviewed" v="no"/>
    <tag k="tiger:separated" v="no"/>
    <tag k="tiger:source" v="tiger_import_dch_v0.6_20070830"/>
    <tag k="tiger:upload_uuid" v="bulk_upload.pl-a917c5d2-fe89-45db-bba1-8c800535237a"/>
    <tag k="toll" v="no"/>
  </way>
  <way id="52111434" version="12" timestamp="2011-03-14T04:43:22Z" uid="119881" user="Clorox" changeset="7552803">
    <nd ref="664078288"/>
    <nd ref="664078302"/>
    <nd ref="664078315"/>
    <nd ref="153278999"/>
    <nd ref="153279001"/>
    <nd ref="152504371"/>
    <nd ref="152504366"/>
    <nd ref="152504359"/>
    <nd ref="152504356"/>
    <nd ref="152504347"/>
    <nd ref="152504344"/>
    <nd ref="152504341"/>
    <nd ref="152504333"/>
    <nd ref="664077970"/>
    <nd ref="664077981"/>
    <nd ref="664077990"/>
    <nd ref="664077997"/>
    <nd ref="664077998"/>
    <nd ref="664078006"/>
    <nd ref="664078015"/>
    <nd ref="664078026"/>
    <nd ref="153278891"/>
    <nd ref="151942312"/>
    <tag k="highway" v="motorway"/>
    <tag k="name" v="State Highway Beltway 8"/>
    <tag k="oneway" v="yes"/>
    <tag k="ref" v="Beltway 8"/>
    <tag k="tiger:cfcc" v="A41:A64"/>
    <tag k="tiger:county" v="Harris, TX"/>
    <tag k="tiger:name_base" v="Sam Houston:State Beltway 8"/>
    <tag k="tiger:name_type" v="Pkwy"/>
    <tag k="tiger:reviewed" v="no"/>
    <tag k="tiger:separated" v="no"/>
    <tag k="tiger:source" v="tiger_import_dch_v0.6_20070830"/>
    <tag k="tiger:upload_uuid" v="bulk_upload.pl-a917c5d2-fe89-45db-bba1-8c800535237a"/>
    <tag k="toll" v="no"/>
  </way>
  <way id="52111434" version="13" timestamp="2011-03-14T05:32:04Z" uid="119881" user="Clorox" changeset="7552916">
    <nd ref="664078288"/>
    <nd ref="664078302"/>
    <nd ref="664078315"/>
    <nd ref="153278999"/>
    <nd ref="153279001"/>
    <nd ref="152504366"/>
    <nd ref="152504359"/>
    <nd ref="152504344"/>
    <nd ref="152504341"/>
    <nd ref="152504333"/>
    <nd ref="664077970"/>
    <nd ref="664077981"/>
    <nd ref="664077990"/>
    <nd ref="664077997"/>
    <nd ref="664077998"/>
    <tag k="bridge" v="yes"/>
    <tag k="highway" v="motorway"/>
    <tag k="layer" v="2"/>
    <tag k="name" v="State Highway Beltway 8"/>
    <tag k="oneway" v="yes"/>
    <tag k="ref" v="Beltway 8"/>
    <tag k="tiger:cfcc" v="A41:A64"/>
    <tag k="tiger:county" v="Harris, TX"/>
    <tag k="tiger:name_base" v="Sam Houston:State Beltway 8"/>
    <tag k="tiger:name_type" v="Pkwy"/>
    <tag k="tiger:reviewed" v="no"/>
    <tag k="tiger:separated" v="no"/>
    <tag k="tiger:source" v="tiger_import_dch_v0.6_20070830"/>
    <tag k="tiger:upload_uuid" v="bulk_upload.pl-a917c5d2-fe89-45db-bba1-8c800535237a"/>
    <tag k="toll" v="no"/>
  </way>
  <way id="52111434" version="14" timestamp="2011-07-24T02:18:25Z" uid="207745" user="NE2" changeset="8811470">
    <nd ref="664078288"/>
    <nd ref="664078302"/>
    <nd ref="664078315"/>
    <nd ref="153278999"/>
    <nd ref="153279001"/>
    <nd ref="152504366"/>
    <nd ref="152504359"/>
    <nd ref="152504344"/>
    <nd ref="152504341"/>
    <nd ref="152504333"/>
    <nd ref="664077970"/>
    <nd ref="664077981"/>
    <nd ref="664077990"/>
    <nd ref="664077997"/>
    <nd ref="664077998"/>
    <tag k="bridge" v="yes"/>
    <tag k="highway" v="motorway"/>
    <tag k="layer" v="2"/>
    <tag k="oneway" v="yes"/>
    <tag k="ref" v="Beltway 8"/>
    <tag k="tiger:cfcc" v="A41:A64"/>
    <tag k="tiger:county" v="Harris, TX"/>
    <tag k="tiger:name_base" v="Sam Houston:State Beltway 8"/>
    <tag k="tiger:name_type" v="Pkwy"/>
    <tag k="tiger:reviewed" v="no"/>
    <tag k="tiger:separated" v="no"/>
    <tag k="tiger:source" v="tiger_import_dch_v0.6_20070830"/>
    <tag k="tiger:upload_uuid" v="bulk_upload.pl-a917c5d2-fe89-45db-bba1-8c800535237a"/>
    <tag k="toll" v="no"/>
  </way>
  <way id="52111434" version="15" timestamp="2011-07-25T18:41:04Z" uid="207745" user="NE2" changeset="8828976">
    <nd ref="664078288"/>
    <nd ref="664078302"/>
    <nd ref="664078315"/>
    <nd ref="153278999"/>
    <tag k="FIXME" v="check lanes"/>
    <tag k="bridge" v="yes"/>
    <tag k="highway" v="motorway"/>
    <tag k="lanes" v="3"/>
    <tag k="layer" v="2"/>
    <tag k="oneway" v="yes"/>
    <tag k="ref" v="Beltway 8"/>
    <tag k="tiger:cfcc" v="A41:A64"/>
    <tag k="tiger:county" v="Harris, TX"/>
    <tag k="tiger:name_base" v="Sam Houston:State Beltway 8"/>
    <tag k="tiger:name_type" v="Pkwy"/>
    <tag k="tiger:reviewed" v="no"/>
    <tag k="tiger:separated" v="no"/>
    <tag k="tiger:source" v="tiger_import_dch_v0.6_20070830"/>
    <tag k="tiger:upload_uuid" v="bulk_upload.pl-a917c5d2-fe89-45db-bba1-8c800535237a"/>
    <tag k="toll" v="no"/>
  </way>
  <way id="52111434" version="16" timestamp="2011-08-23T15:59:15Z" uid="119881" user="Clorox" changeset="9104898">
    <nd ref="664078288"/>
    <nd ref="1410102330"/>
    <tag k="FIXME" v="check lanes"/>
    <tag k="highway" v="motorway"/>
    <tag k="lanes" v="3"/>
    <tag k="name" v="North Sam Houston Parkway East"/>
    <tag k="oneway" v="yes"/>
    <tag k="ref" v="Beltway 8"/>
    <tag k="tiger:cfcc" v="A41:A64"/>
    <tag k="tiger:county" v="Harris, TX"/>
    <tag k="tiger:name_base" v="Sam Houston:State Beltway 8"/>
    <tag k="tiger:name_type" v="Pkwy"/>
    <tag k="tiger:reviewed" v="no"/>
    <tag k="tiger:separated" v="no"/>
    <tag k="tiger:source" v="tiger_import_dch_v0.6_20070830"/>
    <tag k="tiger:upload_uuid" v="bulk_upload.pl-a917c5d2-fe89-45db-bba1-8c800535237a"/>
    <tag k="toll" v="no"/>
  </way>
  <way id="52111434" version="17" timestamp="2011-08-23T17:11:06Z" uid="119881" user="Clorox" changeset="9105455">
    <nd ref="664078288"/>
    <nd ref="1410102330"/>
    <tag k="FIXME" v="check lanes"/>
    <tag k="highway" v="motorway"/>
    <tag k="lanes" v="3"/>
    <tag k="name" v="North Sam Houston Parkway East"/>
    <tag k="oneway" v="yes"/>
    <tag k="ref" v="Beltway 8"/>
    <tag k="tiger:cfcc" v="A41:A64"/>
    <tag k="tiger:county" v="Harris, TX"/>
    <tag k="tiger:name_base" v="Sam Houston:State Beltway 8"/>
    <tag k="tiger:name_type" v="Pkwy"/>
    <tag k="tiger:reviewed" v="no"/>
    <tag k="tiger:separated" v="no"/>
    <tag k="tiger:source" v="tiger_import_dch_v0.6_20070830"/>
    <tag k="tiger:upload_uuid" v="bulk_upload.pl-a917c5d2-fe89-45db-bba1-8c800535237a"/>
  </way>
  <way id="52111434" version="18" timestamp="2012-01-06T06:33:46Z" uid="207745" user="NE2" changeset="10308176">
    <nd ref="664078288"/>
    <nd ref="1410102330"/>
    <tag k="FIXME" v="check lanes"/>
    <tag k="highway" v="motorway"/>
    <tag k="lanes" v="3"/>
    <tag k="name" v="North Sam Houston Parkway East"/>
    <tag k="old_ref" v="Loop 8"/>
    <tag k="oneway" v="yes"/>
    <tag k="ref" v="Beltway 8"/>
    <tag k="tiger:cfcc" v="A41:A64"/>
    <tag k="tiger:county" v="Harris, TX"/>
    <tag k="tiger:name_base" v="Sam Houston:State Beltway 8"/>
    <tag k="tiger:name_type" v="Pkwy"/>
    <tag k="tiger:reviewed" v="no"/>
    <tag k="tiger:separated" v="no"/>
    <tag k="tiger:source" v="tiger_import_dch_v0.6_20070830"/>
    <tag k="tiger:upload_uuid" v="bulk_upload.pl-a917c5d2-fe89-45db-bba1-8c800535237a"/>
  </way>
  <way id="52111434" version="19" timestamp="2012-01-19T07:06:22Z" uid="119881" user="Clorox" changeset="10434257">
    <nd ref="664078288"/>
    <nd ref="1410102330"/>
    <tag k="FIXME" v="check lanes"/>
    <tag k="highway" v="motorway"/>
    <tag k="lanes" v="3"/>
    <tag k="name" v="North Sam Houston Parkway East"/>
    <tag k="old_ref" v="Loop 8"/>
    <tag k="oneway" v="yes"/>
    <tag k="ref" v="BW 8"/>
    <tag k="tiger:cfcc" v="A41:A64"/>
    <tag k="tiger:county" v="Harris, TX"/>
    <tag k="tiger:name_base" v="Sam Houston:State Beltway 8"/>
    <tag k="tiger:name_type" v="Pkwy"/>
    <tag k="tiger:reviewed" v="no"/>
    <tag k="tiger:separated" v="no"/>
    <tag k="tiger:source" v="tiger_import_dch_v0.6_20070830"/>
    <tag k="tiger:upload_uuid" v="bulk_upload.pl-a917c5d2-fe89-45db-bba1-8c800535237a"/>
  </way>
  <way id="52111443" version="7" timestamp="2010-04-07T14:31:25Z" uid="20587" user="balrog-kun" changeset="4353646">
    <nd ref="151427560"/>
    <nd ref="151427522"/>
    <nd ref="152504375"/>
    <nd ref="152504380"/>
    <nd ref="151736691"/>
    <nd ref="151736672"/>
    <nd ref="151923656"/>
    <nd ref="152504383"/>
    <nd ref="151923620"/>
    <nd ref="152504386"/>
    <nd ref="152504387"/>
    <nd ref="151736459"/>
    <nd ref="152504388"/>
    <tag k="highway" v="tertiary"/>
    <tag k="name" v="Sam Houston Parkway"/>
    <tag k="name_1" v="Beltway 8"/>
    <tag k="name_2" v="State Loop 8"/>
    <tag k="note" v="frontage"/>
    <tag k="oneway" v="yes"/>
    <tag k="tiger:cfcc" v="A64"/>
    <tag k="tiger:county" v="Harris, TX"/>
    <tag k="tiger:name_base" v="Sam Houston"/>
    <tag k="tiger:name_base_1" v="Beltway 8"/>
    <tag k="tiger:name_base_2" v="State Loop 8"/>
    <tag k="tiger:name_type" v="Pky"/>
    <tag k="tiger:reviewed" v="no"/>
    <tag k="tiger:source" v="tiger_import_dch_v0.6_20070830"/>
    <tag k="tiger:tlid" v="233478229:233408112:233408113:233408071:233408074:233408079:233408066:233408068:233410660:233410632:233410633:233410634:233410646:233410673:233419106:233414899:233413703:233413704:233413718:233413719:96230006:96657188:96657190:96226888:96553751:96228200:9"/>
  </way>
  <way id="52111443" version="8" timestamp="2011-03-11T09:30:40Z" uid="207745" user="NE2" changeset="7521567">
    <nd ref="152504071"/>
    <nd ref="151666613"/>
    <nd ref="152504074"/>
    <nd ref="152504076"/>
    <nd ref="152504079"/>
    <nd ref="152137155"/>
    <nd ref="152504087"/>
    <nd ref="152504091"/>
    <nd ref="152373347"/>
    <nd ref="152113313"/>
    <nd ref="152504094"/>
    <nd ref="151715925"/>
    <nd ref="331044942"/>
    <nd ref="152504097"/>
    <nd ref="152504100"/>
    <nd ref="152504101"/>
    <nd ref="152504103"/>
    <nd ref="152504105"/>
    <nd ref="152504108"/>
    <nd ref="152504112"/>
    <nd ref="152504115"/>
    <nd ref="152504118"/>
    <nd ref="152003728"/>
    <nd ref="152504121"/>
    <nd ref="152504126"/>
    <nd ref="152504129"/>
    <nd ref="152504131"/>
    <nd ref="151500523"/>
    <nd ref="152504132"/>
    <nd ref="152504133"/>
    <nd ref="152504136"/>
    <nd ref="151370865"/>
    <nd ref="152070929"/>
    <nd ref="331045221"/>
    <nd ref="152504138"/>
    <nd ref="152504141"/>
    <nd ref="152504143"/>
    <nd ref="152504148"/>
    <nd ref="152504150"/>
    <nd ref="152504152"/>
    <nd ref="152504154"/>
    <nd ref="151365467"/>
    <nd ref="324502884"/>
    <nd ref="152504155"/>
    <nd ref="152504156"/>
    <nd ref="151920061"/>
    <tag k="highway" v="secondary"/>
    <tag k="name" v="Sam Houston Parkway"/>
    <tag k="note" v="frontage"/>
    <tag k="oneway" v="yes"/>
    <tag k="ref" v="Beltway 8"/>
    <tag k="tiger:cfcc" v="A64"/>
    <tag k="tiger:county" v="Harris, TX"/>
    <tag k="tiger:name_base" v="Sam Houston"/>
    <tag k="tiger:name_base_1" v="Beltway 8"/>
    <tag k="tiger:name_base_2" v="State Beltway 8:State Loop 8"/>
    <tag k="tiger:name_type" v="Pky"/>
    <tag k="tiger:reviewed" v="no"/>
    <tag k="tiger:source" v="tiger_import_dch_v0.6_20070830"/>
  </way>
  <way id="52111443" version="9" timestamp="2011-03-14T04:43:23Z" uid="119881" user="Clorox" changeset="7552803">
    <nd ref="152504071"/>
    <nd ref="151666613"/>
    <nd ref="152504074"/>
    <nd ref="152504076"/>
    <nd ref="152504079"/>
    <nd ref="152137155"/>
    <nd ref="152504087"/>
    <nd ref="152504091"/>
    <nd ref="152373347"/>
    <nd ref="152113313"/>
    <nd ref="152504094"/>
    <nd ref="151715925"/>
    <nd ref="331044942"/>
    <nd ref="152504097"/>
    <nd ref="152504100"/>
    <nd ref="152504101"/>
    <nd ref="152504103"/>
    <nd ref="152504105"/>
    <nd ref="152504108"/>
    <nd ref="152504112"/>
    <nd ref="152504115"/>
    <nd ref="152504118"/>
    <nd ref="152003728"/>
    <nd ref="152504121"/>
    <nd ref="152504126"/>
    <nd ref="152504129"/>
    <nd ref="152504131"/>
    <nd ref="151500523"/>
    <nd ref="152504132"/>
    <nd ref="152504133"/>
    <nd ref="152504136"/>
    <nd ref="151370865"/>
    <nd ref="152070929"/>
    <nd ref="331045221"/>
    <nd ref="152504138"/>
    <nd ref="152504141"/>
    <nd ref="152504143"/>
    <nd ref="152504148"/>
    <nd ref="152504150"/>
    <nd ref="152504152"/>
    <nd ref="152504154"/>
    <nd ref="151365467"/>
    <nd ref="324502884"/>
    <nd ref="152504155"/>
    <nd ref="152504156"/>
    <nd ref="151920061"/>
    <tag k="highway" v="secondary"/>
    <tag k="name" v="State Highway Beltway 8"/>
    <tag k="note" v="frontage"/>
    <tag k="oneway" v="yes"/>
    <tag k="ref" v="Beltway 8"/>
    <tag k="tiger:cfcc" v="A64"/>
    <tag k="tiger:county" v="Harris, TX"/>
    <tag k="tiger:name_base" v="Sam Houston"/>
    <tag k="tiger:name_base_1" v="Beltway 8"/>
    <tag k="tiger:name_base_2" v="State Beltway 8:State Loop 8"/>
    <tag k="tiger:name_type" v="Pky"/>
    <tag k="tiger:reviewed" v="no"/>
    <tag k="tiger:source" v="tiger_import_dch_v0.6_20070830"/>
  </way>
  <way id="52111443" version="10" timestamp="2011-07-24T02:18:51Z" uid="207745" user="NE2" changeset="8811470">
    <nd ref="152504071"/>
    <nd ref="151666613"/>
    <nd ref="152504074"/>
    <nd ref="152504076"/>
    <nd ref="152504079"/>
    <nd ref="152137155"/>
    <nd ref="152504087"/>
    <nd ref="152504091"/>
    <nd ref="152373347"/>
    <nd ref="152113313"/>
    <nd ref="152504094"/>
    <nd ref="151715925"/>
    <nd ref="331044942"/>
    <nd ref="152504097"/>
    <nd ref="152504100"/>
    <nd ref="152504101"/>
    <nd ref="152504103"/>
    <nd ref="152504105"/>
    <nd ref="152504108"/>
    <nd ref="152504112"/>
    <nd ref="152504115"/>
    <nd ref="152504118"/>
    <nd ref="152003728"/>
    <nd ref="152504121"/>
    <nd ref="152504126"/>
    <nd ref="152504129"/>
    <nd ref="152504131"/>
    <nd ref="151500523"/>
    <nd ref="152504132"/>
    <nd ref="152504133"/>
    <nd ref="152504136"/>
    <nd ref="151370865"/>
    <nd ref="152070929"/>
    <nd ref="331045221"/>
    <nd ref="152504138"/>
    <nd ref="152504141"/>
    <nd ref="152504143"/>
    <nd ref="152504148"/>
    <nd ref="152504150"/>
    <nd ref="152504152"/>
    <nd ref="152504154"/>
    <nd ref="151365467"/>
    <nd ref="324502884"/>
    <nd ref="152504155"/>
    <nd ref="152504156"/>
    <nd ref="151920061"/>
    <tag k="highway" v="secondary"/>
    <tag k="note" v="frontage"/>
    <tag k="oneway" v="yes"/>
    <tag k="ref" v="Beltway 8"/>
    <tag k="tiger:cfcc" v="A64"/>
    <tag k="tiger:county" v="Harris, TX"/>
    <tag k="tiger:name_base" v="Sam Houston"/>
    <tag k="tiger:name_base_1" v="Beltway 8"/>
    <tag k="tiger:name_base_2" v="State Beltway 8:State Loop 8"/>
    <tag k="tiger:name_type" v="Pky"/>
    <tag k="tiger:reviewed" v="no"/>
    <tag k="tiger:source" v="tiger_import_dch_v0.6_20070830"/>
  </way>
  <way id="52111443" version="11" timestamp="2011-08-17T20:55:04Z" uid="6424" user="Lambertus" changeset="9051865">
    <nd ref="152504071"/>
    <nd ref="1402687600"/>
    <nd ref="151666613"/>
    <nd ref="152504079"/>
    <nd ref="152137155"/>
    <nd ref="152504087"/>
    <nd ref="152504091"/>
    <nd ref="152373347"/>
    <nd ref="152113313"/>
    <nd ref="152504094"/>
    <nd ref="151715925"/>
    <nd ref="331044942"/>
    <nd ref="152504097"/>
    <nd ref="152504100"/>
    <nd ref="152504101"/>
    <nd ref="152504103"/>
    <nd ref="152504105"/>
    <nd ref="152504108"/>
    <nd ref="152504112"/>
    <nd ref="152504115"/>
    <nd ref="152504118"/>
    <nd ref="152003728"/>
    <nd ref="152504121"/>
    <nd ref="152504126"/>
    <nd ref="152504129"/>
    <nd ref="152504131"/>
    <nd ref="151500523"/>
    <nd ref="152504132"/>
    <nd ref="152504133"/>
    <nd ref="152504136"/>
    <nd ref="151370865"/>
    <nd ref="152070929"/>
    <nd ref="331045221"/>
    <nd ref="152504138"/>
    <nd ref="152504141"/>
    <nd ref="152504143"/>
    <nd ref="152504148"/>
    <nd ref="152504150"/>
    <nd ref="152504152"/>
    <nd ref="152504154"/>
    <nd ref="151365467"/>
    <nd ref="324502884"/>
    <nd ref="152504155"/>
    <nd ref="152504156"/>
    <nd ref="151920061"/>
    <tag k="highway" v="secondary"/>
    <tag k="note" v="frontage"/>
    <tag k="oneway" v="yes"/>
    <tag k="ref" v="Beltway 8"/>
    <tag k="tiger:cfcc" v="A64"/>
    <tag k="tiger:county" v="Harris, TX"/>
    <tag k="tiger:name_base" v="Sam Houston"/>
    <tag k="tiger:name_base_1" v="Beltway 8"/>
    <tag k="tiger:name_base_2" v="State Beltway 8:State Loop 8"/>
    <tag k="tiger:name_type" v="Pky"/>
    <tag k="tiger:reviewed" v="no"/>
    <tag k="tiger:source" v="tiger_import_dch_v0.6_20070830"/>
  </way>
  <way id="52111443" version="12" timestamp="2011-08-23T15:59:34Z" uid="119881" user="Clorox" changeset="9104898">
    <nd ref="152504071"/>
    <nd ref="1402687600"/>
    <nd ref="151666613"/>
    <nd ref="152504079"/>
    <nd ref="152137155"/>
    <nd ref="152504087"/>
    <nd ref="152504091"/>
    <nd ref="152373347"/>
    <nd ref="152113313"/>
    <nd ref="152504094"/>
    <nd ref="151715925"/>
    <nd ref="331044942"/>
    <nd ref="152504097"/>
    <nd ref="152504100"/>
    <nd ref="152504101"/>
    <nd ref="152504103"/>
    <nd ref="152504105"/>
    <nd ref="152504108"/>
    <nd ref="152504112"/>
    <nd ref="152504115"/>
    <nd ref="152504118"/>
    <nd ref="152003728"/>
    <nd ref="152504121"/>
    <nd ref="152504126"/>
    <nd ref="152504129"/>
    <nd ref="152504131"/>
    <nd ref="151500523"/>
    <nd ref="152504132"/>
    <nd ref="152504133"/>
    <nd ref="152504136"/>
    <nd ref="151370865"/>
    <nd ref="152070929"/>
    <nd ref="331045221"/>
    <nd ref="152504138"/>
    <nd ref="152504141"/>
    <nd ref="152504143"/>
    <nd ref="152504148"/>
    <nd ref="152504150"/>
    <nd ref="152504152"/>
    <nd ref="152504154"/>
    <nd ref="151365467"/>
    <nd ref="324502884"/>
    <nd ref="152504155"/>
    <nd ref="152504156"/>
    <nd ref="151920061"/>
    <tag k="highway" v="secondary"/>
    <tag k="name" v="North Sam Houston Parkway West"/>
    <tag k="note" v="frontage"/>
    <tag k="oneway" v="yes"/>
    <tag k="ref" v="Beltway 8"/>
    <tag k="tiger:cfcc" v="A64"/>
    <tag k="tiger:county" v="Harris, TX"/>
    <tag k="tiger:name_base" v="Sam Houston"/>
    <tag k="tiger:name_base_1" v="Beltway 8"/>
    <tag k="tiger:name_base_2" v="State Beltway 8:State Loop 8"/>
    <tag k="tiger:name_type" v="Pky"/>
    <tag k="tiger:reviewed" v="no"/>
    <tag k="tiger:source" v="tiger_import_dch_v0.6_20070830"/>
  </way>
  <way id="52111443" version="13" timestamp="2011-08-24T22:14:37Z" uid="119881" user="Clorox" changeset="9117162">
    <nd ref="152504071"/>
    <nd ref="1402687600"/>
    <nd ref="151666613"/>
    <nd ref="152504079"/>
    <nd ref="152137155"/>
    <nd ref="152504087"/>
    <nd ref="152504091"/>
    <nd ref="152373347"/>
    <nd ref="152113313"/>
    <nd ref="152504094"/>
    <nd ref="151715925"/>
    <nd ref="331044942"/>
    <nd ref="152504097"/>
    <nd ref="152504100"/>
    <nd ref="152504101"/>
    <nd ref="152504103"/>
    <nd ref="152504105"/>
    <nd ref="152504108"/>
    <nd ref="152504112"/>
    <nd ref="152504115"/>
    <nd ref="152504118"/>
    <nd ref="152003728"/>
    <nd ref="152504121"/>
    <nd ref="152504126"/>
    <nd ref="152504129"/>
    <nd ref="152504131"/>
    <nd ref="151500523"/>
    <nd ref="152504132"/>
    <nd ref="152504133"/>
    <nd ref="152504136"/>
    <nd ref="151370865"/>
    <nd ref="152070929"/>
    <nd ref="331045221"/>
    <nd ref="152504138"/>
    <nd ref="152504141"/>
    <nd ref="152504143"/>
    <nd ref="152504148"/>
    <nd ref="152504150"/>
    <nd ref="152504152"/>
    <nd ref="152504154"/>
    <nd ref="151365467"/>
    <nd ref="324502884"/>
    <nd ref="152504155"/>
    <nd ref="152504156"/>
    <nd ref="151920061"/>
    <tag k="highway" v="trunk"/>
    <tag k="name" v="North Sam Houston Parkway West"/>
    <tag k="note" v="frontage"/>
    <tag k="oneway" v="yes"/>
    <tag k="ref" v="Beltway 8"/>
    <tag k="tiger:cfcc" v="A64"/>
    <tag k="tiger:county" v="Harris, TX"/>
    <tag k="tiger:name_base" v="Sam Houston"/>
    <tag k="tiger:name_base_1" v="Beltway 8"/>
    <tag k="tiger:name_base_2" v="State Beltway 8:State Loop 8"/>
    <tag k="tiger:name_type" v="Pky"/>
    <tag k="tiger:reviewed" v="no"/>
    <tag k="tiger:source" v="tiger_import_dch_v0.6_20070830"/>
  </way>
  <way id="52111443" version="14" timestamp="2011-12-30T03:01:14Z" uid="119881" user="Clorox" changeset="10241858">
    <nd ref="152504071"/>
    <nd ref="1402687600"/>
    <nd ref="151666613"/>
    <nd ref="152504079"/>
    <nd ref="152137155"/>
    <nd ref="152504087"/>
    <nd ref="152504091"/>
    <nd ref="152373347"/>
    <nd ref="152113313"/>
    <nd ref="152504094"/>
    <nd ref="151715925"/>
    <nd ref="331044942"/>
    <nd ref="152504097"/>
    <nd ref="152504100"/>
    <nd ref="152504101"/>
    <nd ref="152504103"/>
    <nd ref="152504105"/>
    <nd ref="152504108"/>
    <nd ref="152504112"/>
    <nd ref="152504115"/>
    <nd ref="152504118"/>
    <nd ref="152003728"/>
    <nd ref="152504121"/>
    <nd ref="152504126"/>
    <nd ref="152504129"/>
    <nd ref="152504131"/>
    <nd ref="151500523"/>
    <nd ref="152504132"/>
    <nd ref="152504133"/>
    <nd ref="152504136"/>
    <nd ref="151370865"/>
    <nd ref="152070929"/>
    <nd ref="331045221"/>
    <tag k="highway" v="trunk"/>
    <tag k="name" v="North Sam Houston Parkway West"/>
    <tag k="note" v="frontage"/>
    <tag k="oneway" v="yes"/>
    <tag k="ref" v="Beltway 8"/>
    <tag k="tiger:cfcc" v="A64"/>
    <tag k="tiger:county" v="Harris, TX"/>
    <tag k="tiger:name_base" v="Sam Houston"/>
    <tag k="tiger:name_base_1" v="Beltway 8"/>
    <tag k="tiger:name_base_2" v="State Beltway 8:State Loop 8"/>
    <tag k="tiger:name_type" v="Pky"/>
    <tag k="tiger:reviewed" v="no"/>
    <tag k="tiger:source" v="tiger_import_dch_v0.6_20070830"/>
  </way>
  <way id="52111443" version="15" timestamp="2012-01-06T06:34:21Z" uid="207745" user="NE2" changeset="10308176">
    <nd ref="152504071"/>
    <nd ref="1402687600"/>
    <nd ref="151666613"/>
    <nd ref="152504079"/>
    <nd ref="152137155"/>
    <nd ref="152504087"/>
    <nd ref="152504091"/>
    <nd ref="152373347"/>
    <nd ref="152113313"/>
    <nd ref="152504094"/>
    <nd ref="151715925"/>
    <nd ref="331044942"/>
    <nd ref="152504097"/>
    <nd ref="152504100"/>
    <nd ref="152504101"/>
    <nd ref="152504103"/>
    <nd ref="152504105"/>
    <nd ref="152504108"/>
    <nd ref="152504112"/>
    <nd ref="152504115"/>
    <nd ref="152504118"/>
    <nd ref="152003728"/>
    <nd ref="152504121"/>
    <nd ref="152504126"/>
    <nd ref="152504129"/>
    <nd ref="152504131"/>
    <nd ref="151500523"/>
    <nd ref="152504132"/>
    <nd ref="152504133"/>
    <nd ref="152504136"/>
    <nd ref="151370865"/>
    <nd ref="152070929"/>
    <nd ref="331045221"/>
    <tag k="highway" v="trunk"/>
    <tag k="name" v="North Sam Houston Parkway West"/>
    <tag k="note" v="frontage"/>
    <tag k="old_ref" v="Loop 8"/>
    <tag k="oneway" v="yes"/>
    <tag k="ref" v="Beltway 8"/>
    <tag k="tiger:cfcc" v="A64"/>
    <tag k="tiger:county" v="Harris, TX"/>
    <tag k="tiger:name_base" v="Sam Houston"/>
    <tag k="tiger:name_base_1" v="Beltway 8"/>
    <tag k="tiger:name_base_2" v="State Beltway 8:State Loop 8"/>
    <tag k="tiger:name_type" v="Pky"/>
    <tag k="tiger:reviewed" v="no"/>
    <tag k="tiger:source" v="tiger_import_dch_v0.6_20070830"/>
  </way>
  <way id="52111443" version="16" timestamp="2012-01-19T07:07:00Z" uid="119881" user="Clorox" changeset="10434257">
    <nd ref="152504071"/>
    <nd ref="1402687600"/>
    <nd ref="151666613"/>
    <nd ref="152504079"/>
    <nd ref="152137155"/>
    <nd ref="152504087"/>
    <nd ref="152504091"/>
    <nd ref="152373347"/>
    <nd ref="152113313"/>
    <nd ref="152504094"/>
    <nd ref="151715925"/>
    <nd ref="331044942"/>
    <nd ref="152504097"/>
    <nd ref="152504100"/>
    <nd ref="152504101"/>
    <nd ref="152504103"/>
    <nd ref="152504105"/>
    <nd ref="152504108"/>
    <nd ref="152504112"/>
    <nd ref="152504115"/>
    <nd ref="152504118"/>
    <nd ref="152003728"/>
    <nd ref="152504121"/>
    <nd ref="152504126"/>
    <nd ref="152504129"/>
    <nd ref="152504131"/>
    <nd ref="151500523"/>
    <nd ref="152504132"/>
    <nd ref="152504133"/>
    <nd ref="152504136"/>
    <nd ref="151370865"/>
    <nd ref="152070929"/>
    <nd ref="331045221"/>
    <tag k="highway" v="trunk"/>
    <tag k="name" v="North Sam Houston Parkway West"/>
    <tag k="note" v="frontage"/>
    <tag k="old_ref" v="Loop 8"/>
    <tag k="oneway" v="yes"/>
    <tag k="ref" v="BW 8"/>
    <tag k="tiger:cfcc" v="A64"/>
    <tag k="tiger:county" v="Harris, TX"/>
    <tag k="tiger:name_base" v="Sam Houston"/>
    <tag k="tiger:name_base_1" v="Beltway 8"/>
    <tag k="tiger:name_base_2" v="State Beltway 8:State Loop 8"/>
    <tag k="tiger:name_type" v="Pky"/>
    <tag k="tiger:reviewed" v="no"/>
    <tag k="tiger:source" v="tiger_import_dch_v0.6_20070830"/>
  </way>
  <way id="52111446" version="6" timestamp="2010-04-07T14:31:26Z" uid="20587" user="balrog-kun" changeset="4353646">
    <nd ref="151736369"/>
    <nd ref="151736662"/>
    <nd ref="152508611"/>
    <nd ref="152508614"/>
    <nd ref="152508617"/>
    <nd ref="152508621"/>
    <nd ref="152508623"/>
    <nd ref="152508625"/>
    <nd ref="152508627"/>
    <nd ref="152508630"/>
    <nd ref="152508632"/>
    <nd ref="152508634"/>
    <nd ref="151736470"/>
    <nd ref="152508641"/>
    <nd ref="152508644"/>
    <nd ref="152508647"/>
    <nd ref="152508649"/>
    <nd ref="152508651"/>
    <nd ref="152508653"/>
    <nd ref="152508655"/>
    <nd ref="152508658"/>
    <nd ref="151736629"/>
    <tag k="highway" v="unclassified"/>
    <tag k="name" v="Old North Belt Drive"/>
    <tag k="note" v="frontage"/>
    <tag k="tiger:cfcc" v="A64"/>
    <tag k="tiger:county" v="Harris, TX"/>
    <tag k="tiger:reviewed" v="no"/>
    <tag k="tiger:source" v="tiger_import_dch_v0.6_20070830"/>
    <tag k="tiger:tlid" v="96424052:96419201:96554120:96419050:96657432:96657433:96125174:96426673:96426674:96419494"/>
    <tag k="tiger:zip_left" v="77396"/>
    <tag k="tiger:zip_right" v="77396"/>
  </way>
  <way id="52111446" version="7" timestamp="2011-03-14T04:43:24Z" uid="119881" user="Clorox" changeset="7552803">
    <nd ref="151736369"/>
    <nd ref="151736662"/>
    <nd ref="152508611"/>
    <nd ref="152508614"/>
    <nd ref="152508617"/>
    <nd ref="152508621"/>
    <nd ref="152508623"/>
    <nd ref="152508625"/>
    <nd ref="152508627"/>
    <nd ref="152508630"/>
    <nd ref="152508632"/>
    <nd ref="152508634"/>
    <nd ref="151736470"/>
    <nd ref="152508641"/>
    <nd ref="152508644"/>
    <nd ref="152508647"/>
    <nd ref="152508649"/>
    <nd ref="152508651"/>
    <nd ref="152508653"/>
    <nd ref="152508655"/>
    <nd ref="152508658"/>
    <nd ref="151736629"/>
    <tag k="highway" v="residential"/>
    <tag k="name" v="Old North Belt Drive"/>
    <tag k="note" v="frontage"/>
    <tag k="old_name" v="State Highway Beltway 8"/>
    <tag k="old_ref" v="Beltway 8"/>
    <tag k="tiger:cfcc" v="A64"/>
    <tag k="tiger:county" v="Harris, TX"/>
    <tag k="tiger:reviewed" v="no"/>
    <tag k="tiger:source" v="tiger_import_dch_v0.6_20070830"/>
    <tag k="tiger:tlid" v="96424052:96419201:96554120:96419050:96657432:96657433:96125174:96426673:96426674:96419494"/>
    <tag k="tiger:zip_left" v="77396"/>
    <tag k="tiger:zip_right" v="77396"/>
  </way>
  <way id="52111446" version="8" timestamp="2011-08-23T03:06:39Z" uid="119881" user="Clorox" changeset="9099656">
    <nd ref="151736369"/>
    <nd ref="151736662"/>
    <nd ref="152508611"/>
    <nd ref="152508614"/>
    <nd ref="152508617"/>
    <nd ref="152508621"/>
    <nd ref="152508623"/>
    <nd ref="152508625"/>
    <nd ref="152508627"/>
    <nd ref="152508630"/>
    <nd ref="152508632"/>
    <nd ref="152508634"/>
    <nd ref="151736470"/>
    <nd ref="152508641"/>
    <nd ref="152508644"/>
    <nd ref="152508647"/>
    <nd ref="152508649"/>
    <nd ref="152508651"/>
    <nd ref="152508653"/>
    <nd ref="152508655"/>
    <nd ref="152508658"/>
    <nd ref="151736629"/>
    <tag k="highway" v="residential"/>
    <tag k="name" v="Old North Belt Drive"/>
    <tag k="old_name" v="State Highway Beltway 8"/>
    <tag k="old_ref" v="Beltway 8"/>
    <tag k="tiger:cfcc" v="A64"/>
    <tag k="tiger:county" v="Harris, TX"/>
    <tag k="tiger:reviewed" v="no"/>
    <tag k="tiger:source" v="tiger_import_dch_v0.6_20070830"/>
    <tag k="tiger:tlid" v="96424052:96419201:96554120:96419050:96657432:96657433:96125174:96426673:96426674:96419494"/>
    <tag k="tiger:zip_left" v="77396"/>
    <tag k="tiger:zip_right" v="77396"/>
  </way>
  <way id="52111446" version="9" timestamp="2011-12-02T00:02:31Z" uid="239998" user="Sundance" changeset="10013514">
    <nd ref="151736629"/>
    <nd ref="152508658"/>
    <nd ref="152508655"/>
    <nd ref="1527492599"/>
    <nd ref="152508649"/>
    <nd ref="152508647"/>
    <nd ref="152508644"/>
    <nd ref="152508641"/>
    <nd ref="151736470"/>
    <nd ref="152508632"/>
    <nd ref="152508627"/>
    <nd ref="152508625"/>
    <nd ref="152508623"/>
    <nd ref="152508621"/>
    <nd ref="1527492940"/>
    <nd ref="152508617"/>
    <nd ref="152508614"/>
    <nd ref="152508611"/>
    <nd ref="151736662"/>
    <tag k="addr:postcode" v="77396"/>
    <tag k="highway" v="residential"/>
    <tag k="is_in" v="Harris, TX"/>
    <tag k="name" v="Old North Belt Drive"/>
    <tag k="old_name" v="State Highway Beltway 8"/>
    <tag k="old_ref" v="Beltway 8"/>
    <tag k="oneway" v="yes"/>
    <tag k="tiger:source" v="tiger_import_dch_v0.6_20070830"/>
    <tag k="tiger:tlid" v="96424052:96419201:96554120:96419050:96657432:96657433:96125174:96426673:96426674:96419494"/>
  </way>
  <way id="52111513" version="3" timestamp="2011-04-20T11:25:38Z" uid="115477" user="wowik" changeset="7915253">
    <nd ref="664080785"/>
    <nd ref="664080794"/>
    <nd ref="664080792"/>
    <nd ref="664080783"/>
    <nd ref="664080785"/>
    <tag k="addr:city" v="Москва"/>
    <tag k="addr:country" v="RU"/>
    <tag k="addr:housenumber" v="13"/>
    <tag k="addr:street" v="Вспольный переулок"/>
    <tag k="building" v="yes"/>
    <tag k="cladr:code" v="77000000000104100"/>
  </way>
  <way id="52111514" version="2" timestamp="2011-04-20T11:28:26Z" uid="115477" user="wowik" changeset="7915253">
    <nd ref="664080780"/>
    <nd ref="664080790"/>
    <nd ref="664080788"/>
    <nd ref="664080786"/>
    <nd ref="664080780"/>
    <tag k="addr:city" v="Москва"/>
    <tag k="addr:country" v="RU"/>
    <tag k="building" v="yes"/>
  </way>
  <way id="52111020" version="4" timestamp="2012-07-20T11:57:26Z" uid="722137" user="OSMF Redaction Account" changeset="12374517">
    <nd ref="664072394"/>
    <nd ref="664072395"/>
    <nd ref="664072324"/>
    <nd ref="664072325"/>
    <nd ref="664072394"/>
    <tag k="addr:housenumber" v="19"/>
    <tag k="addr:street" v="Малая Бронная улица"/>
    <tag k="building" v="yes"/>
    <tag k="cladr:code" v="77000000000090700"/>
  </way>
  <way id="52111022" version="4" timestamp="2012-07-20T11:56:52Z" uid="722137" user="OSMF Redaction Account" changeset="12374517">
    <nd ref="664072277"/>
    <nd ref="664072279"/>
    <nd ref="664072285"/>
    <nd ref="664072278"/>
    <nd ref="664072230"/>
    <nd ref="664072229"/>
    <nd ref="664072277"/>
    <tag k="addr:housenumber" v="20"/>
    <tag k="addr:street" v="улица Спиридоновка"/>
    <tag k="building" v="yes"/>
    <tag k="cladr:code" v="77000000000711200"/>
  </way>
  <way id="52111023" version="4" timestamp="2012-07-20T11:56:15Z" uid="722137" user="OSMF Redaction Account" changeset="12374517">
    <nd ref="664072217"/>
    <nd ref="664072209"/>
    <nd ref="664072208"/>
    <nd ref="664072213"/>
    <nd ref="664072217"/>
    <tag k="addr:housenumber" v="4"/>
    <tag k="addr:street" v="Гранатный переулок"/>
    <tag k="building" v="yes"/>
    <tag k="cladr:code" v="77000000000719500"/>
  </way>
  <way id="52111024" version="5" timestamp="2012-07-20T11:56:21Z" uid="722137" user="OSMF Redaction Account" changeset="12374517">
    <nd ref="664072202"/>
    <nd ref="664072216"/>
    <nd ref="664072214"/>
    <nd ref="664072203"/>
    <nd ref="664072202"/>
    <tag k="addr:housenumber" v="4 с4"/>
    <tag k="addr:street" v="Гранатный переулок"/>
    <tag k="building" v="yes"/>
    <tag k="cladr:code" v="77000000000719500"/>
  </way>
  <way id="52111025" version="5" timestamp="2012-07-20T11:56:12Z" uid="722137" user="OSMF Redaction Account" changeset="12374517">
    <nd ref="664072210"/>
    <nd ref="664072228"/>
    <nd ref="664072218"/>
    <nd ref="664072222"/>
    <nd ref="664072227"/>
    <nd ref="664072211"/>
    <nd ref="664072210"/>
    <tag k="addr:housenumber" v="4 с2"/>
    <tag k="addr:street" v="Гранатный переулок"/>
    <tag k="building" v="yes"/>
    <tag k="cladr:code" v="77000000000719500"/>
  </way>
  <way id="52111026" version="5" timestamp="2012-07-20T11:56:23Z" uid="722137" user="OSMF Redaction Account" changeset="12374517">
    <nd ref="664072205"/>
    <nd ref="664072204"/>
    <nd ref="664072207"/>
    <nd ref="664072206"/>
    <nd ref="664072205"/>
    <tag k="addr:housenumber" v="13 с2"/>
    <tag k="addr:street" v="улица Спиридоновка"/>
    <tag k="building" v="yes"/>
    <tag k="cladr:code" v="77000000000711200"/>
  </way>
  <way id="52111027" version="5" timestamp="2012-07-20T11:56:04Z" uid="722137" user="OSMF Redaction Account" changeset="12374517">
    <nd ref="359705314"/>
    <nd ref="359705317"/>
    <nd ref="664072212"/>
    <nd ref="359705311"/>
    <nd ref="359705314"/>
    <tag k="addr:housenumber" v="2"/>
    <tag k="addr:street" v="Гранатный переулок"/>
    <tag k="building" v="yes"/>
  </way>
  <way id="52111028" version="6" timestamp="2012-07-20T11:56:37Z" uid="722137" user="OSMF Redaction Account" changeset="12374517">
    <nd ref="664072251"/>
    <nd ref="664072252"/>
    <nd ref="664072248"/>
    <nd ref="664072249"/>
    <nd ref="664072250"/>
    <nd ref="1432893896"/>
    <nd ref="664072247"/>
    <nd ref="664072251"/>
    <tag k="addr:housenumber" v="16 с2"/>
    <tag k="addr:street" v="улица Спиридоновка"/>
    <tag k="building" v="yes"/>
    <tag k="cladr:code" v="77000000000711200"/>
  </way>
  <way id="52111029" version="5" timestamp="2012-07-20T11:56:37Z" uid="722137" user="OSMF Redaction Account" changeset="12374517">
    <nd ref="664072253"/>
    <nd ref="664072256"/>
    <nd ref="664072255"/>
    <nd ref="664072254"/>
    <nd ref="664072253"/>
    <tag k="addr:housenumber" v="16 с3"/>
    <tag k="addr:street" v="улица Спиридоновка"/>
    <tag k="building" v="yes"/>
    <tag k="cladr:code" v="77000000000711200"/>
  </way>
  <way id="52111031" version="5" timestamp="2012-07-20T11:56:20Z" uid="722137" user="OSMF Redaction Account" changeset="12374517">
    <nd ref="664072222"/>
    <nd ref="664072218"/>
    <nd ref="664072215"/>
    <nd ref="664072219"/>
    <nd ref="664072222"/>
    <tag k="addr:housenumber" v="4 с3"/>
    <tag k="addr:street" v="Гранатный переулок"/>
    <tag k="building" v="yes"/>
    <tag k="cladr:code" v="77000000000719500"/>
  </way>
  <way id="52111032" version="5" timestamp="2012-07-20T11:56:24Z" uid="722137" user="OSMF Redaction Account" changeset="12374517">
    <nd ref="664072226"/>
    <nd ref="664072221"/>
    <nd ref="664072220"/>
    <nd ref="664072223"/>
    <nd ref="664072226"/>
    <tag k="addr:housenumber" v="11 с4"/>
    <tag k="addr:street" v="улица Спиридоновка"/>
    <tag k="building" v="yes"/>
    <tag k="cladr:code" v="77000000000711200"/>
  </way>
  <way id="52111033" version="5" timestamp="2012-07-20T11:56:24Z" uid="722137" user="OSMF Redaction Account" changeset="12374517">
    <nd ref="664072224"/>
    <nd ref="664072225"/>
    <nd ref="664072226"/>
    <nd ref="664072223"/>
    <nd ref="664072224"/>
    <tag k="addr:housenumber" v="11 с3"/>
    <tag k="addr:street" v="улица Спиридоновка"/>
    <tag k="building" v="yes"/>
    <tag k="cladr:code" v="77000000000711200"/>
  </way>
  <way id="52111035" version="5" timestamp="2012-07-20T11:57:29Z" uid="722137" user="OSMF Redaction Account" changeset="12374517">
    <nd ref="664072331"/>
    <nd ref="664072307"/>
    <nd ref="664072308"/>
    <nd ref="664072332"/>
    <nd ref="664072331"/>
    <tag k="addr:housenumber" v="7 с3"/>
    <tag k="addr:street" v="Спиридоньевский переулок"/>
    <tag k="building" v="yes"/>
    <tag k="cladr:code" v="77000000000274400"/>
  </way>
  <way id="52111036" version="4" timestamp="2012-07-20T11:57:31Z" uid="722137" user="OSMF Redaction Account" changeset="12374517">
    <nd ref="1682353445"/>
    <nd ref="1682353458"/>
    <nd ref="1682353409"/>
    <nd ref="1682353442"/>
    <nd ref="1682353417"/>
    <nd ref="1682353447"/>
    <nd ref="664072341"/>
    <nd ref="664072334"/>
    <nd ref="1682353445"/>
    <tag k="addr:housenumber" v="9"/>
    <tag k="addr:street" v="Спиридоньевский переулок"/>
    <tag k="building" v="yes"/>
    <tag k="cladr:code" v="77000000000274400"/>
  </way>
  <way id="52111037" version="5" timestamp="2012-07-20T11:57:10Z" uid="722137" user="OSMF Redaction Account" changeset="12374517">
    <nd ref="664072294"/>
    <nd ref="1682353327"/>
    <nd ref="664072257"/>
    <nd ref="664072258"/>
    <nd ref="664072259"/>
    <nd ref="664072260"/>
    <nd ref="1682353313"/>
    <nd ref="664072293"/>
    <nd ref="664072294"/>
    <tag k="addr:housenumber" v="24/1"/>
    <tag k="addr:housenumber2" v="1/24"/>
    <tag k="addr:street" v="улица Спиридоновка"/>
    <tag k="addr:street2" v="Спиридоньевский переулок"/>
    <tag k="building" v="yes"/>
    <tag k="cladr:code" v="77000000000711200"/>
  </way>
  <way id="52111039" version="6" timestamp="2012-07-20T11:57:31Z" uid="722137" user="OSMF Redaction Account" changeset="12374517">
    <nd ref="1682353446"/>
    <nd ref="1682353410"/>
    <nd ref="664072329"/>
    <nd ref="664072354"/>
    <nd ref="664072356"/>
    <nd ref="664072357"/>
    <nd ref="664072353"/>
    <nd ref="1682353446"/>
    <tag k="addr:housenumber" v="21/13"/>
    <tag k="addr:housenumber2" v="13/21"/>
    <tag k="addr:street" v="Малая Бронная улица"/>
    <tag k="addr:street2" v="Спиридоньевский переулок"/>
    <tag k="building" v="yes"/>
    <tag k="cladr:code" v="77000000000090700"/>
  </way>
  <way id="52111040" version="6" timestamp="2012-07-20T11:57:30Z" uid="722137" user="OSMF Redaction Account" changeset="12374517">
    <nd ref="359989706"/>
    <nd ref="664072299"/>
    <nd ref="664072296"/>
    <nd ref="664072330"/>
    <nd ref="359989706"/>
    <tag k="addr:housenumber" v="8 с2"/>
    <tag k="addr:street" v="Большой Патриарший переулок"/>
    <tag k="building" v="yes"/>
    <tag k="cladr:code" v="77000000000722000"/>
  </way>
  <way id="52111041" version="4" timestamp="2012-07-20T11:57:11Z" uid="722137" user="OSMF Redaction Account" changeset="12374517">
    <nd ref="664072264"/>
    <nd ref="664072273"/>
    <nd ref="664072261"/>
    <nd ref="664072263"/>
    <nd ref="664072271"/>
    <nd ref="664072262"/>
    <nd ref="664072265"/>
    <nd ref="664072266"/>
    <nd ref="664072267"/>
    <nd ref="664072272"/>
    <nd ref="664072274"/>
    <nd ref="664072275"/>
    <nd ref="664072276"/>
    <nd ref="664072264"/>
    <tag k="addr:housenumber" v="26"/>
    <tag k="addr:street" v="улица Спиридоновка"/>
    <tag k="building" v="yes"/>
    <tag k="cladr:code" v="77000000000711200"/>
  </way>
  <way id="52111042" version="5" timestamp="2012-07-20T11:56:55Z" uid="722137" user="OSMF Redaction Account" changeset="12374517">
    <nd ref="664072282"/>
    <nd ref="664072286"/>
    <nd ref="664072283"/>
    <nd ref="664072281"/>
    <nd ref="664072284"/>
    <nd ref="664072280"/>
    <nd ref="664072282"/>
    <tag k="addr:housenumber" v="20 с2"/>
    <tag k="addr:street" v="улица Спиридоновка"/>
    <tag k="building" v="yes"/>
    <tag k="cladr:code" v="77000000000711200"/>
  </way>
  <way id="52111043" version="6" timestamp="2012-07-20T11:57:25Z" uid="722137" user="OSMF Redaction Account" changeset="12374517">
    <nd ref="664072295"/>
    <nd ref="664072304"/>
    <nd ref="664072288"/>
    <nd ref="664072287"/>
    <nd ref="1682353353"/>
    <nd ref="1682353352"/>
    <nd ref="1682353356"/>
    <nd ref="1682353359"/>
    <nd ref="664072295"/>
    <tag k="addr:housenumber" v="5 с2"/>
    <tag k="addr:street" v="Спиридоньевский переулок"/>
    <tag k="building" v="yes"/>
    <tag k="cladr:code" v="77000000000274400"/>
  </way>
  <way id="52111044" version="4" timestamp="2012-07-20T11:57:18Z" uid="722137" user="OSMF Redaction Account" changeset="12374517">
    <nd ref="664072305"/>
    <nd ref="664072303"/>
    <nd ref="664072289"/>
    <nd ref="664072291"/>
    <nd ref="664072292"/>
    <nd ref="664072290"/>
    <nd ref="664072305"/>
    <tag k="addr:housenumber" v="5"/>
    <tag k="addr:street" v="Спиридоньевский переулок"/>
    <tag k="building" v="yes"/>
    <tag k="cladr:code" v="77000000000274400"/>
  </way>
  <way id="52111045" version="5" timestamp="2012-07-20T11:57:20Z" uid="722137" user="OSMF Redaction Account" changeset="12374517">
    <nd ref="664072306"/>
    <nd ref="664072318"/>
    <nd ref="664072302"/>
    <nd ref="664072301"/>
    <nd ref="1682353354"/>
    <nd ref="1682353355"/>
    <nd ref="664072306"/>
    <tag k="addr:housenumber" v="7"/>
    <tag k="addr:street" v="Спиридоньевский переулок"/>
    <tag k="building" v="yes"/>
    <tag k="cladr:code" v="77000000000274400"/>
  </way>
  <way id="52111046" version="4" timestamp="2012-07-20T11:57:05Z" uid="722137" user="OSMF Redaction Account" changeset="12374517">
    <nd ref="664072309"/>
    <nd ref="664072311"/>
    <nd ref="664072310"/>
    <nd ref="664072313"/>
    <nd ref="664072312"/>
    <nd ref="664072309"/>
    <tag k="addr:housenumber" v="19А"/>
    <tag k="addr:street" v="Малая Бронная улица"/>
    <tag k="building" v="yes"/>
    <tag k="cladr:code" v="77000000000090700"/>
  </way>
  <way id="52111047" version="4" timestamp="2012-07-20T11:57:12Z" uid="722137" user="OSMF Redaction Account" changeset="12374517">
    <nd ref="664072323"/>
    <nd ref="664072322"/>
    <nd ref="664072313"/>
    <nd ref="664072312"/>
    <nd ref="664072316"/>
    <nd ref="664072323"/>
    <tag k="addr:housenumber" v="19А"/>
    <tag k="addr:street" v="Малая Бронная улица"/>
    <tag k="building" v="yes"/>
    <tag k="cladr:code" v="77000000000090700"/>
  </way>
  <way id="52111048" version="4" timestamp="2012-07-20T11:57:23Z" uid="722137" user="OSMF Redaction Account" changeset="12374517">
    <nd ref="664072327"/>
    <nd ref="664072326"/>
    <nd ref="664072323"/>
    <nd ref="664072317"/>
    <nd ref="664072327"/>
    <tag k="addr:housenumber" v="8"/>
    <tag k="addr:street" v="Спиридоньевский переулок"/>
    <tag k="building" v="yes"/>
    <tag k="cladr:code" v="77000000000274400"/>
  </way>
  <way id="52111049" version="4" timestamp="2012-07-20T11:57:11Z" uid="722137" user="OSMF Redaction Account" changeset="12374517">
    <nd ref="664072316"/>
    <nd ref="664072314"/>
    <nd ref="664072315"/>
    <nd ref="664072317"/>
    <nd ref="664072323"/>
    <nd ref="664072316"/>
    <tag k="addr:housenumber" v="6"/>
    <tag k="addr:street" v="Спиридоньевский переулок"/>
    <tag k="building" v="yes"/>
    <tag k="cladr:code" v="77000000000274400"/>
  </way>
  <way id="52111050" version="6" timestamp="2012-07-20T11:57:44Z" uid="722137" user="OSMF Redaction Account" changeset="12374607">
    <nd ref="664072346"/>
    <nd ref="664072347"/>
    <nd ref="664072338"/>
    <nd ref="664072348"/>
    <nd ref="664072346"/>
    <tag k="addr:housenumber" v="23 с3"/>
    <tag k="addr:street" v="Малая Бронная улица"/>
    <tag k="building" v="yes"/>
    <tag k="cladr:code" v="77000000000090700"/>
  </way>
  <way id="52111051" version="7" timestamp="2012-07-20T11:57:43Z" uid="722137" user="OSMF Redaction Account" changeset="12374607">
    <nd ref="664072349"/>
    <nd ref="670631325"/>
    <nd ref="664072359"/>
    <nd ref="664072356"/>
    <nd ref="664072357"/>
    <nd ref="664072344"/>
    <nd ref="664072345"/>
    <nd ref="664072355"/>
    <nd ref="664072349"/>
    <tag k="addr:country" v="RU"/>
    <tag k="addr:housenumber" v="21/13 с2"/>
    <tag k="addr:housenumber2" v="13/21 с2"/>
    <tag k="addr:street" v="Малая Бронная улица"/>
    <tag k="addr:street2" v="Спиридоньевский переулок"/>
    <tag k="building" v="yes"/>
    <tag k="cladr:code" v="77000000000090700"/>
  </way>
  <way id="52111055" version="5" timestamp="2012-07-20T11:57:57Z" uid="722137" user="OSMF Redaction Account" changeset="12374607">
    <nd ref="670631322"/>
    <nd ref="664072363"/>
    <nd ref="664072337"/>
    <nd ref="359989699"/>
    <nd ref="664072361"/>
    <nd ref="670631340"/>
    <nd ref="670631322"/>
    <tag k="addr:housenumber" v="27/14"/>
    <tag k="addr:housenumber2" v="14/27"/>
    <tag k="addr:street" v="Малая Бронная улица"/>
    <tag k="addr:street2" v="Большой Патриарший переулок"/>
    <tag k="building" v="yes"/>
    <tag k="cladr:code" v="77000000000090700"/>
  </way>
  <way id="52111056" version="5" timestamp="2012-07-20T11:57:47Z" uid="722137" user="OSMF Redaction Account" changeset="12374607">
    <nd ref="670631278"/>
    <nd ref="359989699"/>
    <nd ref="664072337"/>
    <nd ref="670631293"/>
    <nd ref="670631278"/>
    <tag k="addr:housenumber" v="12"/>
    <tag k="addr:street" v="Большой Патриарший переулок"/>
    <tag k="building" v="yes"/>
    <tag k="cladr:code" v="77000000000722000"/>
  </way>
  <way id="52111057" version="7" timestamp="2012-07-20T11:56:30Z" uid="722137" user="OSMF Redaction Account" changeset="12374517">
    <nd ref="664072365"/>
    <nd ref="664072382"/>
    <nd ref="664072367"/>
    <nd ref="664072376"/>
    <nd ref="664072378"/>
    <nd ref="664072380"/>
    <nd ref="664072381"/>
    <nd ref="664072379"/>
    <nd ref="664072377"/>
    <nd ref="664072375"/>
    <nd ref="664072374"/>
    <nd ref="664072366"/>
    <nd ref="664072368"/>
    <nd ref="664072370"/>
    <nd ref="664072371"/>
    <nd ref="664072369"/>
    <nd ref="664072365"/>
    <tag k="addr:housenumber" v="13 к2 с1"/>
    <tag k="addr:street" v="Малая Бронная улица"/>
    <tag k="amenity" v="kindergarten"/>
    <tag k="building" v="kindergarten"/>
    <tag k="cladr:code" v="77000000000090700"/>
    <tag k="name" v="ДОУ №1144"/>
  </way>
  <way id="52111058" version="8" timestamp="2012-07-20T11:57:10Z" uid="722137" user="OSMF Redaction Account" changeset="12374517">
    <nd ref="664072424"/>
    <nd ref="664072431"/>
    <nd ref="664072428"/>
    <nd ref="664072427"/>
    <nd ref="664072423"/>
    <nd ref="664072424"/>
    <tag k="addr:housenumber" v="5 с5"/>
    <tag k="addr:street" v="Большой Козихинский переулок"/>
    <tag k="amenity" v="school"/>
    <tag k="building" v="school"/>
    <tag k="name" v="ЦО №1441«Бронная слобода»"/>
  </way>
  <way id="52111059" version="7" timestamp="2012-07-20T11:57:17Z" uid="722137" user="OSMF Redaction Account" changeset="12374517">
    <nd ref="664072439"/>
    <nd ref="664072432"/>
    <nd ref="664072421"/>
    <nd ref="664072424"/>
    <nd ref="664072422"/>
    <nd ref="664072439"/>
    <tag k="addr:housenumber" v="5 c1"/>
    <tag k="addr:street" v="Большой Козихинский переулок"/>
    <tag k="amenity" v="school"/>
    <tag k="building" v="school"/>
    <tag k="name" v="ЦО №1441«Бронная слобода»"/>
  </way>
  <way id="52111061" version="5" timestamp="2012-07-20T11:57:27Z" uid="722137" user="OSMF Redaction Account" changeset="12374517">
    <nd ref="670502005"/>
    <nd ref="664072425"/>
    <nd ref="664072402"/>
    <nd ref="664072401"/>
    <nd ref="664072397"/>
    <nd ref="664072426"/>
    <nd ref="670502005"/>
    <tag k="addr:housenumber" v="20А"/>
    <tag k="addr:street" v="Малая Бронная улица"/>
    <tag k="building" v="yes"/>
    <tag k="cladr:code" v="77000000000090700"/>
  </way>
  <way id="52111062" version="8" timestamp="2012-07-20T11:57:12Z" uid="722137" user="OSMF Redaction Account" changeset="12374517">
    <nd ref="664072422"/>
    <nd ref="664072424"/>
    <nd ref="664072423"/>
    <nd ref="664072417"/>
    <nd ref="664072420"/>
    <nd ref="664072422"/>
    <tag k="addr:housenumber" v="5 с2"/>
    <tag k="addr:street" v="Большой Козихинский переулок"/>
    <tag k="amenity" v="school"/>
    <tag k="building" v="school"/>
    <tag k="name" v="ЦО №1441«Бронная слобода»"/>
  </way>
  <way id="52111063" version="4" timestamp="2012-07-20T11:57:24Z" uid="722137" user="OSMF Redaction Account" changeset="12374517">
    <nd ref="664072402"/>
    <nd ref="664072401"/>
    <nd ref="664072398"/>
    <nd ref="664072411"/>
    <nd ref="664072410"/>
    <nd ref="664072396"/>
    <nd ref="664072399"/>
    <nd ref="664072391"/>
    <nd ref="664072402"/>
    <tag k="addr:housenumber" v="20"/>
    <tag k="addr:street" v="Малая Бронная улица"/>
    <tag k="building" v="yes"/>
    <tag k="cladr:code" v="77000000000090700"/>
  </way>
  <way id="52111064" version="6" timestamp="2012-07-20T11:57:15Z" uid="722137" user="OSMF Redaction Account" changeset="12374517">
    <nd ref="664072391"/>
    <nd ref="664072399"/>
    <nd ref="664072403"/>
    <nd ref="664072405"/>
    <nd ref="664072406"/>
    <nd ref="664072404"/>
    <nd ref="664072386"/>
    <nd ref="664072389"/>
    <nd ref="664072390"/>
    <nd ref="664072383"/>
    <nd ref="664072407"/>
    <nd ref="664072393"/>
    <nd ref="664072392"/>
    <nd ref="664072391"/>
    <tag k="addr:housenumber" v="18"/>
    <tag k="addr:street" v="Малая Бронная улица"/>
    <tag k="building" v="yes"/>
    <tag k="cladr:code" v="77000000000090700"/>
  </way>
  <way id="52111065" version="5" timestamp="2012-07-20T11:57:06Z" uid="722137" user="OSMF Redaction Account" changeset="12374517">
    <nd ref="664072418"/>
    <nd ref="664072419"/>
    <nd ref="664072414"/>
    <nd ref="664072416"/>
    <nd ref="664072387"/>
    <nd ref="664072388"/>
    <nd ref="664072384"/>
    <nd ref="664072390"/>
    <nd ref="664072389"/>
    <nd ref="664072385"/>
    <nd ref="664072415"/>
    <nd ref="664072418"/>
    <tag k="addr:housenumber" v="16"/>
    <tag k="addr:street" v="Малая Бронная улица"/>
    <tag k="building" v="yes"/>
    <tag k="cladr:code" v="77000000000090700"/>
  </way>
  <way id="52111067" version="5" timestamp="2012-07-20T11:57:08Z" uid="722137" user="OSMF Redaction Account" changeset="12374517">
    <nd ref="664072412"/>
    <nd ref="664072413"/>
    <nd ref="664072419"/>
    <nd ref="664072418"/>
    <nd ref="664072412"/>
    <tag k="addr:housenumber" v="14"/>
    <tag k="addr:street" v="Малая Бронная улица"/>
    <tag k="building" v="yes"/>
    <tag k="cladr:code" v="77000000000090700"/>
  </way>
  <way id="52111443" version="17" timestamp="2012-09-06T02:18:20Z" uid="475877" user="RoadGeek_MD99" changeset="13004234">
    <nd ref="152504071"/>
    <nd ref="1402687600"/>
    <nd ref="151666613"/>
    <nd ref="1901602644"/>
    <nd ref="152504079"/>
    <nd ref="152137155"/>
    <nd ref="152504087"/>
    <nd ref="152504091"/>
    <nd ref="152373347"/>
    <nd ref="152113313"/>
    <nd ref="152504094"/>
    <nd ref="151715925"/>
    <nd ref="331044942"/>
    <nd ref="152504097"/>
    <nd ref="152504100"/>
    <nd ref="152504101"/>
    <nd ref="152504103"/>
    <nd ref="152504105"/>
    <nd ref="152504108"/>
    <nd ref="152504112"/>
    <nd ref="152504115"/>
    <nd ref="152504118"/>
    <nd ref="152003728"/>
    <nd ref="152504121"/>
    <nd ref="152504126"/>
    <nd ref="152504129"/>
    <nd ref="152504131"/>
    <nd ref="151500523"/>
    <nd ref="152504132"/>
    <nd ref="152504133"/>
    <nd ref="152504136"/>
    <nd ref="151370865"/>
    <nd ref="152070929"/>
    <nd ref="331045221"/>
    <tag k="highway" v="trunk"/>
    <tag k="name" v="North Sam Houston Parkway West"/>
    <tag k="note" v="frontage"/>
    <tag k="old_ref" v="Loop 8"/>
    <tag k="oneway" v="yes"/>
    <tag k="ref" v="BW 8"/>
    <tag k="tiger:cfcc" v="A64"/>
    <tag k="tiger:county" v="Harris, TX"/>
    <tag k="tiger:name_base" v="Sam Houston"/>
    <tag k="tiger:name_base_1" v="Beltway 8"/>
    <tag k="tiger:name_base_2" v="State Beltway 8:State Loop 8"/>
    <tag k="tiger:name_type" v="Pky"/>
    <tag k="tiger:reviewed" v="no"/>
    <tag k="tiger:source" v="tiger_import_dch_v0.6_20070830"/>
  </way>
  <way id="52111443" version="18" timestamp="2012-09-08T15:07:29Z" uid="475877" user="RoadGeek_MD99" changeset="13034359">
    <nd ref="152504071"/>
    <nd ref="1402687600"/>
    <nd ref="151666613"/>
    <nd ref="1901602644"/>
    <nd ref="152504079"/>
    <nd ref="152137155"/>
    <nd ref="152504087"/>
    <nd ref="1905695643"/>
    <nd ref="152504091"/>
    <nd ref="152373347"/>
    <nd ref="152113313"/>
    <nd ref="152504094"/>
    <nd ref="151715925"/>
    <nd ref="331044942"/>
    <nd ref="152504097"/>
    <nd ref="152504100"/>
    <nd ref="152504101"/>
    <nd ref="152504103"/>
    <nd ref="152504105"/>
    <nd ref="152504108"/>
    <nd ref="152504112"/>
    <nd ref="152504115"/>
    <nd ref="152504118"/>
    <nd ref="152003728"/>
    <nd ref="152504121"/>
    <nd ref="152504126"/>
    <nd ref="152504129"/>
    <nd ref="152504131"/>
    <nd ref="151500523"/>
    <nd ref="152504132"/>
    <nd ref="152504133"/>
    <nd ref="152504136"/>
    <nd ref="151370865"/>
    <nd ref="152070929"/>
    <nd ref="331045221"/>
    <tag k="highway" v="trunk"/>
    <tag k="name" v="North Sam Houston Parkway West"/>
    <tag k="note" v="frontage"/>
    <tag k="old_ref" v="Loop 8"/>
    <tag k="oneway" v="yes"/>
    <tag k="ref" v="BW 8"/>
    <tag k="tiger:cfcc" v="A64"/>
    <tag k="tiger:county" v="Harris, TX"/>
    <tag k="tiger:name_base" v="Sam Houston"/>
    <tag k="tiger:name_base_1" v="Beltway 8"/>
    <tag k="tiger:name_base_2" v="State Beltway 8:State Loop 8"/>
    <tag k="tiger:name_type" v="Pky"/>
    <tag k="tiger:reviewed" v="no"/>
    <tag k="tiger:source" v="tiger_import_dch_v0.6_20070830"/>
  </way>
  <way id="52111443" version="19" timestamp="2012-09-09T00:09:15Z" uid="475877" user="RoadGeek_MD99" changeset="13038790">
    <nd ref="152504071"/>
    <nd ref="1402687600"/>
    <nd ref="151666613"/>
    <nd ref="1901602644"/>
    <nd ref="152504079"/>
    <nd ref="152137155"/>
    <nd ref="152504087"/>
    <nd ref="1905695643"/>
    <nd ref="152504091"/>
    <nd ref="152373347"/>
    <nd ref="152113313"/>
    <nd ref="152504094"/>
    <nd ref="151715925"/>
    <nd ref="331044942"/>
    <nd ref="152504097"/>
    <nd ref="152504100"/>
    <nd ref="152504101"/>
    <nd ref="152504103"/>
    <nd ref="152504105"/>
    <nd ref="152504108"/>
    <nd ref="152504112"/>
    <nd ref="152504115"/>
    <nd ref="152504118"/>
    <nd ref="152003728"/>
    <nd ref="152504121"/>
    <nd ref="152504126"/>
    <nd ref="152504129"/>
    <nd ref="152504131"/>
    <nd ref="1906170363"/>
    <nd ref="1906170361"/>
    <nd ref="151500523"/>
    <nd ref="1906170380"/>
    <nd ref="152504132"/>
    <nd ref="152504133"/>
    <nd ref="152504136"/>
    <nd ref="151370865"/>
    <nd ref="152070929"/>
    <nd ref="331045221"/>
    <tag k="highway" v="trunk"/>
    <tag k="name" v="North Sam Houston Parkway West"/>
    <tag k="note" v="frontage"/>
    <tag k="old_ref" v="Loop 8"/>
    <tag k="oneway" v="yes"/>
    <tag k="ref" v="BW 8"/>
    <tag k="tiger:cfcc" v="A64"/>
    <tag k="tiger:county" v="Harris, TX"/>
    <tag k="tiger:name_base" v="Sam Houston"/>
    <tag k="tiger:name_base_1" v="Beltway 8"/>
    <tag k="tiger:name_base_2" v="State Beltway 8:State Loop 8"/>
    <tag k="tiger:name_type" v="Pky"/>
    <tag k="tiger:reviewed" v="no"/>
    <tag k="tiger:source" v="tiger_import_dch_v0.6_20070830"/>
  </way>
  <way id="52111513" version="4" timestamp="2012-07-20T11:56:57Z" uid="722137" user="OSMF Redaction Account" changeset="12374517">
    <nd ref="664080785"/>
    <nd ref="664080794"/>
    <nd ref="664080792"/>
    <nd ref="664080783"/>
    <nd ref="664080785"/>
    <tag k="addr:housenumber" v="13"/>
    <tag k="addr:street" v="Вспольный переулок"/>
    <tag k="building" v="yes"/>
    <tag k="cladr:code" v="77000000000104100"/>
  </way>
  <way id="52111514" version="3" timestamp="2012-07-20T11:56:53Z" uid="722137" user="OSMF Redaction Account" changeset="12374517">
    <nd ref="664080780"/>
    <nd ref="664080790"/>
    <nd ref="664080788"/>
    <nd ref="664080786"/>
    <nd ref="664080780"/>
    <tag k="building" v="yes"/>
  </way>
</osm>
