<?xml version='1.0' encoding='UTF-8'?>
<osm version="0.6" generator="libosmium/2.20.0">
  <way id="52256970" version="1" timestamp="2010-03-13T14:25:17Z" uid="7617" user="Franc" changeset="4115145">
    <nd ref="665195028"/>
    <nd ref="60007124"/>
    <nd ref="69907292"/>
    <nd ref="69911308"/>
    <nd ref="60007125"/>
    <tag k="highway" v="residential"/>
    <tag k="name" v="Malabar Street"/>
  </way>
  <way id="52256970" version="2" timestamp="2010-05-23T13:44:58Z" uid="4467" user="Rosscoe" changeset="4783390">
    <nd ref="665195028"/>
    <nd ref="60007124"/>
    <nd ref="69907292"/>
    <nd ref="60007125"/>
    <tag k="highway" v="residential"/>
    <tag k="name" v="Malabar Street"/>
  </way>
  <way id="52256970" version="3" timestamp="2010-07-08T02:01:27Z" uid="74617" user="JohnSmith" changeset="5162525">
    <nd ref="665195028"/>
    <nd ref="60007124"/>
    <nd ref="69907292"/>
    <nd ref="60007125"/>
    <tag k="highway" v="residential"/>
    <tag k="maxspeed" v="50"/>
    <tag k="maxspeed:source" v="default residential speed limit in Australia"/>
    <tag k="name" v="Malabar Street"/>
  </way>
  <way id="52256970" version="4" timestamp="2012-01-20T03:44:42Z" uid="147510" user="woodpeck_fixbot" changeset="10442986">
    <nd ref="665195028"/>
    <nd ref="60007124"/>
    <nd ref="69907292"/>
    <nd ref="60007125"/>
    <tag k="highway" v="residential"/>
    <tag k="name" v="Malabar Street"/>
  </way>
  <way id="52256974" version="1" timestamp="2010-03-13T14:25:18Z" uid="7617" user="Franc" changeset="4115145">
    <nd ref="665195025"/>
    <nd ref="582220645"/>
    <nd ref="665195033"/>
    <tag k="highway" v="residential"/>
    <tag k="name" v="Wolseley Street"/>
    <tag k="restriction" v="school_zone"/>
  </way>
  <way id="52256974" version="2" timestamp="2010-07-08T01:59:38Z" uid="74617" user="JohnSmith" changeset="5162525">
    <nd ref="665195025"/>
    <nd ref="582220645"/>
    <nd ref="665195033"/>
    <tag k="highway" v="residential"/>
    <tag k="maxspeed" v="50"/>
    <tag k="maxspeed:source" v="default residential speed limit in Australia"/>
    <tag k="name" v="Wolseley Street"/>
    <tag k="restriction" v="school_zone"/>
  </way>
  <way id="52256974" version="3" timestamp="2012-01-20T03:44:42Z" uid="147510" user="woodpeck_fixbot" changeset="10442986">
    <nd ref="665195025"/>
    <nd ref="582220645"/>
    <nd ref="665195033"/>
    <tag k="highway" v="residential"/>
    <tag k="name" v="Wolseley Street"/>
    <tag k="restriction" v="school_zone"/>
  </way>
  <way id="52256978" version="1" timestamp="2010-03-13T14:25:18Z" uid="7617" user="Franc" changeset="4115145">
    <nd ref="665195033"/>
    <nd ref="581830201"/>
    <nd ref="69894109"/>
    <tag k="highway" v="residential"/>
    <tag k="name" v="Wolseley Street"/>
  </way>
  <way id="52256978" version="2" timestamp="2010-05-23T13:45:04Z" uid="4467" user="Rosscoe" changeset="4783390">
    <nd ref="665195033"/>
    <nd ref="69894109"/>
    <tag k="highway" v="residential"/>
    <tag k="name" v="Wolseley Street"/>
  </way>
  <way id="52256978" version="3" timestamp="2010-07-08T02:00:33Z" uid="74617" user="JohnSmith" changeset="5162525">
    <nd ref="665195033"/>
    <nd ref="69894109"/>
    <tag k="highway" v="residential"/>
    <tag k="maxspeed" v="50"/>
    <tag k="maxspeed:source" v="default residential speed limit in Australia"/>
    <tag k="name" v="Wolseley Street"/>
  </way>
  <way id="52256978" version="4" timestamp="2012-01-20T03:44:44Z" uid="147510" user="woodpeck_fixbot" changeset="10442986">
    <nd ref="665195033"/>
    <nd ref="69894109"/>
    <tag k="highway" v="residential"/>
    <tag k="name" v="Wolseley Street"/>
  </way>
  <way id="52256982" version="1" timestamp="2010-03-13T14:25:18Z" uid="7617" user="Franc" changeset="4115145">
    <nd ref="665195031"/>
    <nd ref="69904974"/>
    <nd ref="69998866"/>
    <nd ref="69895102"/>
    <tag k="highway" v="residential"/>
    <tag k="name" v="Cathard Street"/>
  </way>
  <way id="52256982" version="2" timestamp="2010-07-08T01:58:35Z" uid="74617" user="JohnSmith" changeset="5162525">
    <nd ref="665195031"/>
    <nd ref="69904974"/>
    <nd ref="69998866"/>
    <nd ref="69895102"/>
    <tag k="highway" v="residential"/>
    <tag k="maxspeed" v="50"/>
    <tag k="maxspeed:source" v="default residential speed limit in Australia"/>
    <tag k="name" v="Cathard Street"/>
  </way>
  <way id="52256982" version="3" timestamp="2012-01-20T03:44:45Z" uid="147510" user="woodpeck_fixbot" changeset="10442986">
    <nd ref="665195031"/>
    <nd ref="69904974"/>
    <nd ref="69998866"/>
    <nd ref="69895102"/>
    <tag k="highway" v="residential"/>
    <tag k="name" v="Cathard Street"/>
  </way>
  <way id="52256985" version="1" timestamp="2010-03-13T14:25:18Z" uid="7617" user="Franc" changeset="4115145">
    <nd ref="665195066"/>
    <nd ref="665195064"/>
    <tag k="highway" v="residential"/>
    <tag k="source" v="nearmap"/>
  </way>
  <way id="52256985" version="2" timestamp="2010-05-29T07:48:04Z" uid="7617" user="Franc" changeset="4840158">
    <nd ref="665195066"/>
    <nd ref="665195064"/>
    <tag k="highway" v="residential"/>
    <tag k="name" v="May Street"/>
    <tag k="source" v="survey"/>
  </way>
  <way id="52256985" version="3" timestamp="2010-07-08T01:53:22Z" uid="74617" user="JohnSmith" changeset="5162525">
    <nd ref="665195066"/>
    <nd ref="665195064"/>
    <tag k="highway" v="residential"/>
    <tag k="maxspeed" v="50"/>
    <tag k="maxspeed:source" v="default residential speed limit in Australia"/>
    <tag k="name" v="May Street"/>
    <tag k="source" v="survey"/>
  </way>
  <way id="52256985" version="4" timestamp="2012-01-20T03:44:46Z" uid="147510" user="woodpeck_fixbot" changeset="10442986">
    <nd ref="665195066"/>
    <nd ref="665195064"/>
    <tag k="highway" v="residential"/>
    <tag k="name" v="May Street"/>
    <tag k="source" v="survey"/>
  </way>
  <way id="52256986" version="1" timestamp="2010-03-13T14:25:18Z" uid="7617" user="Franc" changeset="4115145">
    <nd ref="665195056"/>
    <nd ref="665195054"/>
    <nd ref="665195051"/>
    <nd ref="665195052"/>
    <nd ref="665195036"/>
    <nd ref="665195038"/>
    <nd ref="598409327"/>
    <tag k="highway" v="service"/>
    <tag k="name" v="Anzac Avenue"/>
    <tag k="oneway" v="yes"/>
    <tag k="source" v="survey"/>
  </way>
  <way id="52256987" version="1" timestamp="2010-03-13T14:25:18Z" uid="7617" user="Franc" changeset="4115145">
    <nd ref="598449300"/>
    <nd ref="598449301"/>
    <nd ref="665195040"/>
    <nd ref="598449296"/>
    <tag k="highway" v="unclassified"/>
    <tag k="name" v="Wilga Street"/>
    <tag k="source" v="survey"/>
  </way>
  <way id="52256988" version="1" timestamp="2010-03-13T14:25:18Z" uid="7617" user="Franc" changeset="4115145">
    <nd ref="665195040"/>
    <nd ref="665195041"/>
    <nd ref="665195043"/>
    <nd ref="665195044"/>
    <nd ref="665195046"/>
    <nd ref="665195048"/>
    <nd ref="665195049"/>
    <nd ref="665195057"/>
    <tag k="highway" v="service"/>
    <tag k="name" v="Lawson Street"/>
    <tag k="oneway" v="yes"/>
    <tag k="source" v="nearmap"/>
  </way>
  <way id="52256989" version="1" timestamp="2010-03-13T14:25:18Z" uid="7617" user="Franc" changeset="4115145">
    <nd ref="665195059"/>
    <nd ref="598409340"/>
    <nd ref="561879471"/>
    <tag k="highway" v="unclassified"/>
    <tag k="restriction" v="school_zone"/>
    <tag k="source" v="nearmap"/>
  </way>
  <way id="52256989" version="2" timestamp="2010-03-13T23:00:42Z" uid="7617" user="Franc" changeset="4120017">
    <nd ref="665195059"/>
    <nd ref="598409340"/>
    <nd ref="561879471"/>
    <tag k="highway" v="unclassified"/>
    <tag k="name" v="Bertha Street"/>
    <tag k="restriction" v="school_zone"/>
    <tag k="source" v="survey"/>
  </way>
  <way id="52256992" version="1" timestamp="2010-03-13T14:25:19Z" uid="7617" user="Franc" changeset="4115145">
    <nd ref="561879461"/>
    <nd ref="561879471"/>
    <nd ref="665195062"/>
    <tag k="highway" v="secondary"/>
    <tag k="name" v="Vine Street"/>
    <tag k="source" v="nearmap"/>
  </way>
  <way id="52256994" version="1" timestamp="2010-03-13T14:25:19Z" uid="7617" user="Franc" changeset="4115145">
    <nd ref="665195062"/>
    <nd ref="665195061"/>
    <nd ref="606293271"/>
    <tag k="highway" v="secondary"/>
    <tag k="name" v="Vine Street"/>
    <tag k="source" v="nearmap"/>
  </way>
  <way id="52256997" version="1" timestamp="2010-03-13T14:25:19Z" uid="7617" user="Franc" changeset="4115145">
    <nd ref="598409406"/>
    <nd ref="598409407"/>
    <tag k="highway" v="service"/>
    <tag k="source" v="survey"/>
  </way>
  <way id="52256999" version="1" timestamp="2010-03-13T14:25:19Z" uid="7617" user="Franc" changeset="4115145">
    <nd ref="665195067"/>
    <nd ref="665195070"/>
    <nd ref="665195072"/>
    <nd ref="665195073"/>
    <nd ref="665195075"/>
    <nd ref="665195077"/>
    <nd ref="665195067"/>
    <tag k="amenity" v="parking"/>
  </way>
  <way id="52256970" version="5" timestamp="2012-07-22T03:31:29Z" uid="722137" user="OSMF Redaction Account" changeset="12424891"/>
  <way id="52256974" version="4" timestamp="2012-07-22T03:31:35Z" uid="722137" user="OSMF Redaction Account" changeset="12424898"/>
  <way id="52256978" version="5" timestamp="2012-07-22T03:31:34Z" uid="722137" user="OSMF Redaction Account" changeset="12424898"/>
  <way id="52256982" version="4" timestamp="2012-07-22T03:31:31Z" uid="722137" user="OSMF Redaction Account" changeset="12424898"/>
  <way id="52256985" version="5" timestamp="2012-07-22T03:31:36Z" uid="722137" user="OSMF Redaction Account" changeset="12424898"/>
  <way id="52256986" version="2" timestamp="2012-07-22T01:24:21Z" uid="722137" user="OSMF Redaction Account" changeset="12423862"/>
  <way id="52256987" version="2" timestamp="2012-07-22T01:24:20Z" uid="722137" user="OSMF Redaction Account" changeset="12423862"/>
  <way id="52256988" version="2" timestamp="2012-07-22T01:24:19Z" uid="722137" user="OSMF Redaction Account" changeset="12423862"/>
  <way id="52256989" version="3" timestamp="2012-07-22T01:24:21Z" uid="722137" user="OSMF Redaction Account" changeset="12423862"/>
  <way id="52256992" version="2" timestamp="2012-07-22T01:24:20Z" uid="722137" user="OSMF Redaction Account" changeset="12423862"/>
  <way id="52256994" version="2" timestamp="2012-07-22T01:24:23Z" uid="722137" user="OSMF Redaction Account" changeset="12423862"/>
  <way id="52256997" version="2" timestamp="2012-07-22T01:24:35Z" uid="722137" user="OSMF Redaction Account" changeset="12423862"/>
  <way id="52256999" version="2" timestamp="2012-07-22T01:24:35Z" uid="722137" user="OSMF Redaction Account" changeset="12423862"/>
</osm>
