<?xml version='1.0' encoding='UTF-8'?>
<osm version="0.6" generator="libosmium/2.20.0">
  <way id="52276233" version="2" timestamp="2010-04-04T01:56:27Z" uid="20587" user="balrog-kun" changeset="4318136">
    <nd ref="177924712"/>
    <nd ref="177860516"/>
    <nd ref="177924713"/>
    <nd ref="177924714"/>
    <nd ref="177924715"/>
    <nd ref="177911674"/>
    <nd ref="177924716"/>
    <nd ref="177923523"/>
    <nd ref="177924717"/>
    <nd ref="453571571"/>
    <nd ref="177920608"/>
    <tag k="highway" v="residential"/>
    <tag k="name" v="Baxter Road"/>
    <tag k="name_1" v="State Highway 233"/>
    <tag k="tiger:cfcc" v="A41"/>
    <tag k="tiger:county" v="Pueblo, CO"/>
    <tag k="tiger:name_base" v="Baxter"/>
    <tag k="tiger:name_base_1" v="State Highway 233"/>
    <tag k="tiger:name_type" v="Rd"/>
    <tag k="tiger:reviewed" v="no"/>
    <tag k="tiger:separated" v="no"/>
    <tag k="tiger:source" v="tiger_import_dch_v0.6_20070809"/>
    <tag k="tiger:tlid" v="105051446:105051447:105035889:105035895:105035913:105035917:105036060:105036065:105036320:105035904:105035871:105050225:105050226"/>
    <tag k="tiger:zip_left" v="81006"/>
    <tag k="tiger:zip_right" v="81006"/>
  </way>
  <way id="52276233" version="3" timestamp="2011-03-29T11:10:04Z" uid="207745" user="NE2" changeset="7705082">
    <nd ref="177924712"/>
    <nd ref="177860516"/>
    <nd ref="177924713"/>
    <nd ref="177924714"/>
    <nd ref="177924715"/>
    <nd ref="177911674"/>
    <nd ref="177924716"/>
    <nd ref="177923523"/>
    <nd ref="177924717"/>
    <nd ref="453571571"/>
    <nd ref="177920608"/>
    <tag k="highway" v="secondary"/>
    <tag k="name" v="Baxter Road"/>
    <tag k="ref" v="SH 233"/>
    <tag k="tiger:cfcc" v="A41"/>
    <tag k="tiger:county" v="Pueblo, CO"/>
    <tag k="tiger:name_base" v="Baxter"/>
    <tag k="tiger:name_base_1" v="State Highway 233"/>
    <tag k="tiger:name_type" v="Rd"/>
    <tag k="tiger:reviewed" v="no"/>
    <tag k="tiger:separated" v="no"/>
    <tag k="tiger:source" v="tiger_import_dch_v0.6_20070809"/>
    <tag k="tiger:tlid" v="105051446:105051447:105035889:105035895:105035913:105035917:105036060:105036065:105036320:105035904:105035871:105050225:105050226"/>
    <tag k="tiger:zip_left" v="81006"/>
    <tag k="tiger:zip_right" v="81006"/>
  </way>
  <way id="52276235" version="3" timestamp="2010-04-04T01:56:28Z" uid="20587" user="balrog-kun" changeset="4318136">
    <nd ref="177924702"/>
    <nd ref="177924712"/>
    <tag k="bridge" v="yes"/>
    <tag k="highway" v="residential"/>
    <tag k="layer" v="1"/>
    <tag k="name" v="Baxter Road"/>
    <tag k="name_1" v="State Highway 233"/>
    <tag k="source" v="Yahoo"/>
    <tag k="tiger:cfcc" v="A41"/>
    <tag k="tiger:county" v="Pueblo, CO"/>
    <tag k="tiger:name_base" v="Baxter"/>
    <tag k="tiger:name_base_1" v="State Highway 233"/>
    <tag k="tiger:name_type" v="Rd"/>
    <tag k="tiger:reviewed" v="aerial"/>
    <tag k="tiger:separated" v="no"/>
    <tag k="tiger:source" v="tiger_import_dch_v0.6_20070809"/>
    <tag k="tiger:tlid" v="105051446:105051447:105035889:105035895:105035913:105035917:105036060:105036065:105036320:105035904:105035871:105050225:105050226"/>
    <tag k="tiger:zip_left" v="81006"/>
    <tag k="tiger:zip_right" v="81006"/>
  </way>
  <way id="52276235" version="4" timestamp="2011-03-29T11:09:58Z" uid="207745" user="NE2" changeset="7705082">
    <nd ref="177924702"/>
    <nd ref="177924712"/>
    <tag k="bridge" v="yes"/>
    <tag k="highway" v="secondary"/>
    <tag k="layer" v="1"/>
    <tag k="name" v="Baxter Road"/>
    <tag k="ref" v="SH 233"/>
    <tag k="source" v="Yahoo"/>
    <tag k="tiger:cfcc" v="A41"/>
    <tag k="tiger:county" v="Pueblo, CO"/>
    <tag k="tiger:name_base" v="Baxter"/>
    <tag k="tiger:name_base_1" v="State Highway 233"/>
    <tag k="tiger:name_type" v="Rd"/>
    <tag k="tiger:reviewed" v="aerial"/>
    <tag k="tiger:separated" v="no"/>
    <tag k="tiger:source" v="tiger_import_dch_v0.6_20070809"/>
    <tag k="tiger:tlid" v="105051446:105051447:105035889:105035895:105035913:105035917:105036060:105036065:105036320:105035904:105035871:105050225:105050226"/>
    <tag k="tiger:zip_left" v="81006"/>
    <tag k="tiger:zip_right" v="81006"/>
  </way>
  <way id="52276241" version="3" timestamp="2010-04-07T14:32:46Z" uid="20587" user="balrog-kun" changeset="4353646">
    <nd ref="663123798"/>
    <nd ref="663123799"/>
    <nd ref="663123800"/>
    <nd ref="663123801"/>
    <nd ref="663123794"/>
    <nd ref="663123795"/>
    <nd ref="663123796"/>
    <nd ref="222065852"/>
    <tag k="highway" v="primary"/>
    <tag k="name" v="Frontage Road"/>
    <tag k="ref" v="US 90"/>
    <tag k="tiger:cfcc" v="A41"/>
    <tag k="tiger:county" v="Austin, TX"/>
    <tag k="tiger:name_base" v="Frontage"/>
    <tag k="tiger:name_type" v="Rd"/>
    <tag k="tiger:reviewed" v="no"/>
    <tag k="tiger:separated" v="no"/>
    <tag k="tiger:source" v="tiger_import_dch_v0.6_20070829"/>
    <tag k="tiger:tlid" v="41821134:41821135"/>
  </way>
  <way id="52276241" version="4" timestamp="2011-04-11T23:04:45Z" uid="239998" user="Sundance" changeset="7838405">
    <nd ref="663123798"/>
    <nd ref="663123799"/>
    <nd ref="663123800"/>
    <nd ref="663123801"/>
    <nd ref="663123794"/>
    <nd ref="663123795"/>
    <nd ref="663123796"/>
    <nd ref="222065852"/>
    <tag k="alt_name" v="United States Route 90"/>
    <tag k="highway" v="primary"/>
    <tag k="is_in" v="Austin, TX"/>
    <tag k="name" v="Frontage Road"/>
    <tag k="ref" v="US 90"/>
    <tag k="tiger:source" v="tiger_import_dch_v0.6_20070829"/>
    <tag k="tiger:tlid" v="41821134:41821135"/>
  </way>
  <way id="52276241" version="5" timestamp="2011-06-18T17:41:56Z" uid="207745" user="NE2" changeset="8475792">
    <nd ref="663123798"/>
    <nd ref="663123799"/>
    <nd ref="663123800"/>
    <nd ref="663123801"/>
    <nd ref="663123794"/>
    <nd ref="663123795"/>
    <nd ref="663123796"/>
    <nd ref="222065852"/>
    <tag k="highway" v="primary"/>
    <tag k="is_in" v="Austin, TX"/>
    <tag k="lanes" v="2"/>
    <tag k="name" v="Frontage Road"/>
    <tag k="ref" v="US 90"/>
    <tag k="tiger:source" v="tiger_import_dch_v0.6_20070829"/>
    <tag k="tiger:tlid" v="41821134:41821135"/>
  </way>
  <way id="52276241" version="6" timestamp="2012-01-09T09:01:57Z" uid="207745" user="NE2" changeset="10339779">
    <nd ref="222065852"/>
    <nd ref="663123796"/>
    <nd ref="663123795"/>
    <nd ref="663123794"/>
    <nd ref="663123801"/>
    <nd ref="663123800"/>
    <nd ref="663123799"/>
    <nd ref="663123798"/>
    <tag k="highway" v="primary"/>
    <tag k="is_in" v="Austin, TX"/>
    <tag k="lanes" v="2"/>
    <tag k="name" v="Frontage Road"/>
    <tag k="old_ref" v="SH 73"/>
    <tag k="ref" v="US 90"/>
    <tag k="tiger:source" v="tiger_import_dch_v0.6_20070829"/>
    <tag k="tiger:tlid" v="41821134:41821135"/>
  </way>
  <way id="52276241" version="7" timestamp="2012-07-26T09:36:06Z" uid="207745" user="NE2" changeset="12496611">
    <nd ref="222065852"/>
    <nd ref="663123796"/>
    <nd ref="663123795"/>
    <nd ref="663123794"/>
    <nd ref="663123801"/>
    <nd ref="663123800"/>
    <nd ref="663123799"/>
    <nd ref="663123798"/>
    <tag k="highway" v="primary"/>
    <tag k="lanes" v="2"/>
    <tag k="name" v="Frontage Road"/>
    <tag k="old_ref" v="SH 73"/>
    <tag k="ref" v="US 90"/>
    <tag k="tiger:source" v="tiger_import_dch_v0.6_20070829"/>
    <tag k="tiger:tlid" v="41821134:41821135"/>
  </way>
</osm>
