<?xml version='1.0' encoding='UTF-8'?>
<osm version="0.6" generator="libosmium/2.20.0">
  <way id="52315165" version="1" timestamp="2010-03-14T00:48:52Z" uid="7617" user="Franc" changeset="4120493">
    <nd ref="665653686"/>
    <nd ref="357787613"/>
    <nd ref="429206546"/>
    <nd ref="603504831"/>
    <nd ref="603504832"/>
    <nd ref="603504835"/>
    <nd ref="603504813"/>
    <nd ref="26410048"/>
    <tag k="highway" v="residential"/>
    <tag k="name" v="Edward Street"/>
  </way>
  <way id="52315165" version="2" timestamp="2010-07-08T01:18:52Z" uid="74617" user="JohnSmith" changeset="5162525">
    <nd ref="665653686"/>
    <nd ref="357787613"/>
    <nd ref="429206546"/>
    <nd ref="603504831"/>
    <nd ref="603504832"/>
    <nd ref="603504835"/>
    <nd ref="603504813"/>
    <nd ref="26410048"/>
    <tag k="highway" v="residential"/>
    <tag k="maxspeed" v="50"/>
    <tag k="maxspeed:source" v="default residential speed limit in Australia"/>
    <tag k="name" v="Edward Street"/>
  </way>
  <way id="52315165" version="3" timestamp="2010-12-25T21:39:11Z" uid="7617" user="Franc" changeset="6763901">
    <nd ref="665653686"/>
    <nd ref="357787613"/>
    <nd ref="429206546"/>
    <nd ref="603504831"/>
    <nd ref="603504832"/>
    <nd ref="603504835"/>
    <nd ref="603504813"/>
    <nd ref="1064601801"/>
    <nd ref="26410048"/>
    <tag k="highway" v="residential"/>
    <tag k="maxspeed" v="50"/>
    <tag k="maxspeed:source" v="default residential speed limit in Australia"/>
    <tag k="name" v="Edward Street"/>
  </way>
  <way id="52315165" version="4" timestamp="2011-10-13T11:03:04Z" uid="162096" user="Daz" changeset="9546105">
    <nd ref="665653686"/>
    <nd ref="357787613"/>
    <nd ref="429206546"/>
    <nd ref="603504831"/>
    <nd ref="603504832"/>
    <nd ref="603504835"/>
    <nd ref="603504813"/>
    <nd ref="1064601801"/>
    <nd ref="26410048"/>
    <tag k="highway" v="residential"/>
    <tag k="lcn" v="yes"/>
    <tag k="maxspeed" v="50"/>
    <tag k="maxspeed:source" v="default residential speed limit in Australia"/>
    <tag k="name" v="Edward Street"/>
  </way>
  <way id="52315165" version="5" timestamp="2012-01-20T03:45:33Z" uid="147510" user="woodpeck_fixbot" changeset="10442986">
    <nd ref="665653686"/>
    <nd ref="357787613"/>
    <nd ref="429206546"/>
    <nd ref="603504831"/>
    <nd ref="603504832"/>
    <nd ref="603504835"/>
    <nd ref="603504813"/>
    <nd ref="1064601801"/>
    <nd ref="26410048"/>
    <tag k="highway" v="residential"/>
    <tag k="lcn" v="yes"/>
    <tag k="name" v="Edward Street"/>
  </way>
  <way id="52315166" version="1" timestamp="2010-03-14T00:48:53Z" uid="7617" user="Franc" changeset="4120493">
    <nd ref="665653677"/>
    <nd ref="426219418"/>
    <nd ref="36787971"/>
    <nd ref="603454754"/>
    <nd ref="36787870"/>
    <tag k="highway" v="residential"/>
    <tag k="name" v="William Street"/>
    <tag k="source:name" v="historical"/>
  </way>
  <way id="52315166" version="2" timestamp="2010-06-19T00:32:18Z" uid="299678" user="peteramjet" changeset="5020445">
    <nd ref="665653677"/>
    <nd ref="426219418"/>
    <nd ref="36787971"/>
    <nd ref="603454754"/>
    <nd ref="36787870"/>
    <tag k="highway" v="residential"/>
    <tag k="name" v="William Street"/>
    <tag k="oneway" v="yes"/>
    <tag k="source:name" v="historical"/>
  </way>
  <way id="52315166" version="3" timestamp="2010-07-08T01:17:02Z" uid="74617" user="JohnSmith" changeset="5162525">
    <nd ref="665653677"/>
    <nd ref="426219418"/>
    <nd ref="36787971"/>
    <nd ref="603454754"/>
    <nd ref="36787870"/>
    <tag k="highway" v="residential"/>
    <tag k="maxspeed" v="50"/>
    <tag k="maxspeed:source" v="default residential speed limit in Australia"/>
    <tag k="name" v="William Street"/>
    <tag k="oneway" v="yes"/>
    <tag k="source:name" v="historical"/>
  </way>
  <way id="52315166" version="4" timestamp="2012-01-20T03:45:35Z" uid="147510" user="woodpeck_fixbot" changeset="10442986">
    <nd ref="665653677"/>
    <nd ref="426219418"/>
    <nd ref="36787971"/>
    <nd ref="603454754"/>
    <nd ref="36787870"/>
    <tag k="highway" v="residential"/>
    <tag k="name" v="William Street"/>
    <tag k="oneway" v="yes"/>
    <tag k="source:name" v="historical"/>
  </way>
  <way id="52315167" version="1" timestamp="2010-03-14T00:48:53Z" uid="7617" user="Franc" changeset="4120493">
    <nd ref="665653697"/>
    <nd ref="498802567"/>
    <nd ref="455579342"/>
    <nd ref="13877923"/>
    <nd ref="13877926"/>
    <nd ref="19963049"/>
    <nd ref="19963044"/>
    <nd ref="26525255"/>
    <nd ref="19963034"/>
    <nd ref="598053206"/>
    <nd ref="19963029"/>
    <nd ref="19963023"/>
    <nd ref="19963021"/>
    <tag k="cycleway" v="lane"/>
    <tag k="highway" v="primary"/>
    <tag k="image" v="80n:dsc04237.jpg"/>
    <tag k="lcn" v="yes"/>
    <tag k="name" v="Pacific Highway"/>
    <tag k="source" v="survey"/>
  </way>
  <way id="52315167" version="2" timestamp="2010-03-14T14:45:45Z" uid="7617" user="Franc" changeset="4125224">
    <nd ref="665653697"/>
    <nd ref="498802567"/>
    <nd ref="455579342"/>
    <nd ref="13877923"/>
    <nd ref="13877926"/>
    <nd ref="665938157"/>
    <nd ref="19963049"/>
    <tag k="cycleway" v="lane"/>
    <tag k="highway" v="primary"/>
    <tag k="image" v="80n:dsc04237.jpg"/>
    <tag k="lcn" v="yes"/>
    <tag k="name" v="Pacific Highway"/>
    <tag k="source" v="survey"/>
  </way>
  <way id="52315167" version="3" timestamp="2010-03-15T08:46:44Z" uid="7617" user="Franc" changeset="4132707">
    <nd ref="665653697"/>
    <nd ref="666749508"/>
    <nd ref="455579342"/>
    <nd ref="13877923"/>
    <nd ref="13877926"/>
    <nd ref="665938157"/>
    <nd ref="19963049"/>
    <tag k="cycleway" v="lane"/>
    <tag k="highway" v="primary"/>
    <tag k="image" v="80n:dsc04237.jpg"/>
    <tag k="lcn" v="yes"/>
    <tag k="name" v="Pacific Highway"/>
    <tag k="oneway" v="yes"/>
    <tag k="source" v="survey"/>
  </way>
  <way id="52315167" version="4" timestamp="2011-02-14T06:14:51Z" uid="389517" user="good2010" changeset="7283061">
    <nd ref="665653697"/>
    <nd ref="666749508"/>
    <nd ref="455579342"/>
    <nd ref="13877923"/>
    <nd ref="13877926"/>
    <nd ref="665938157"/>
    <nd ref="19963049"/>
    <tag k="cycleway" v="lane"/>
    <tag k="highway" v="primary"/>
    <tag k="image" v="80n:dsc04237.jpg"/>
    <tag k="lcn" v="yes"/>
    <tag k="maxspeed" v="60"/>
    <tag k="name" v="Pacific Highway"/>
    <tag k="oneway" v="yes"/>
    <tag k="source" v="survey"/>
  </way>
  <way id="52315167" version="5" timestamp="2011-10-13T03:06:22Z" uid="162096" user="Daz" changeset="9543991">
    <nd ref="665653697"/>
    <nd ref="666749508"/>
    <nd ref="455579342"/>
    <nd ref="13877923"/>
    <nd ref="13877926"/>
    <nd ref="665938157"/>
    <nd ref="19963049"/>
    <tag k="cycleway" v="lane"/>
    <tag k="highway" v="primary"/>
    <tag k="image" v="80n:dsc04237.jpg"/>
    <tag k="maxspeed" v="60"/>
    <tag k="name" v="Pacific Highway"/>
    <tag k="oneway" v="yes"/>
    <tag k="source" v="survey"/>
  </way>
  <way id="52315168" version="1" timestamp="2010-03-14T00:48:53Z" uid="7617" user="Franc" changeset="4120493">
    <nd ref="665653702"/>
    <nd ref="8909691"/>
    <nd ref="462527093"/>
    <nd ref="120288603"/>
    <nd ref="50498912"/>
    <nd ref="31283427"/>
    <tag k="cycleway" v="lane"/>
    <tag k="highway" v="primary"/>
    <tag k="image" v="80n:dsc04237.jpg"/>
    <tag k="lcn" v="yes"/>
    <tag k="name" v="Pacific Highway"/>
    <tag k="restriction" v="school_zone"/>
  </way>
  <way id="52315168" version="2" timestamp="2010-03-15T08:46:41Z" uid="7617" user="Franc" changeset="4132707">
    <nd ref="665653702"/>
    <nd ref="8909691"/>
    <nd ref="462527093"/>
    <nd ref="120288603"/>
    <nd ref="50498912"/>
    <nd ref="31283427"/>
    <tag k="cycleway" v="lane"/>
    <tag k="highway" v="primary"/>
    <tag k="image" v="80n:dsc04237.jpg"/>
    <tag k="lcn" v="yes"/>
    <tag k="name" v="Pacific Highway"/>
    <tag k="oneway" v="yes"/>
    <tag k="restriction" v="school_zone"/>
  </way>
  <way id="52315168" version="3" timestamp="2011-02-14T05:49:18Z" uid="389517" user="good2010" changeset="7282988">
    <nd ref="665653702"/>
    <nd ref="8909691"/>
    <nd ref="462527093"/>
    <nd ref="120288603"/>
    <nd ref="50498912"/>
    <nd ref="31283427"/>
    <tag k="cycleway" v="lane"/>
    <tag k="highway" v="primary"/>
    <tag k="image" v="80n:dsc04237.jpg"/>
    <tag k="lcn" v="yes"/>
    <tag k="maxspeed" v="60"/>
    <tag k="name" v="Pacific Highway"/>
    <tag k="oneway" v="yes"/>
    <tag k="restriction" v="school_zone"/>
  </way>
  <way id="52315168" version="4" timestamp="2011-10-17T21:23:54Z" uid="162096" user="Daz" changeset="9586595">
    <nd ref="665653702"/>
    <nd ref="8909691"/>
    <nd ref="462527093"/>
    <nd ref="120288603"/>
    <nd ref="50498912"/>
    <nd ref="31283427"/>
    <tag k="cycleway" v="lane"/>
    <tag k="highway" v="primary"/>
    <tag k="image" v="80n:dsc04237.jpg"/>
    <tag k="maxspeed" v="60"/>
    <tag k="name" v="Pacific Highway"/>
    <tag k="oneway" v="yes"/>
    <tag k="restriction" v="school_zone"/>
  </way>
  <way id="52315169" version="1" timestamp="2010-03-14T00:48:54Z" uid="7617" user="Franc" changeset="4120493">
    <nd ref="665653685"/>
    <nd ref="429206535"/>
    <nd ref="8909691"/>
    <tag k="highway" v="residential"/>
    <tag k="name" v="Bay Road"/>
    <tag k="source" v="survey"/>
  </way>
  <way id="52315169" version="2" timestamp="2010-03-15T08:46:43Z" uid="7617" user="Franc" changeset="4132707">
    <nd ref="665653685"/>
    <nd ref="429206535"/>
    <nd ref="8909691"/>
    <nd ref="666749530"/>
    <tag k="highway" v="residential"/>
    <tag k="name" v="Bay Road"/>
    <tag k="source" v="survey"/>
  </way>
  <way id="52315169" version="3" timestamp="2010-07-08T01:19:01Z" uid="74617" user="JohnSmith" changeset="5162525">
    <nd ref="665653685"/>
    <nd ref="429206535"/>
    <nd ref="8909691"/>
    <nd ref="666749530"/>
    <tag k="highway" v="residential"/>
    <tag k="maxspeed" v="50"/>
    <tag k="maxspeed:source" v="default residential speed limit in Australia"/>
    <tag k="name" v="Bay Road"/>
    <tag k="source" v="survey"/>
  </way>
  <way id="52315169" version="4" timestamp="2011-02-14T05:49:16Z" uid="389517" user="good2010" changeset="7282988">
    <nd ref="665653685"/>
    <nd ref="429206535"/>
    <nd ref="8909691"/>
    <nd ref="666749530"/>
    <tag k="highway" v="residential"/>
    <tag k="maxspeed" v="40"/>
    <tag k="maxspeed:source" v="nearmap"/>
    <tag k="name" v="Bay Road"/>
    <tag k="source" v="survey"/>
  </way>
  <way id="52315169" version="5" timestamp="2011-10-13T11:03:05Z" uid="162096" user="Daz" changeset="9546105">
    <nd ref="665653685"/>
    <nd ref="429206535"/>
    <nd ref="8909691"/>
    <nd ref="666749530"/>
    <tag k="highway" v="residential"/>
    <tag k="lcn" v="yes"/>
    <tag k="maxspeed" v="40"/>
    <tag k="maxspeed:source" v="nearmap"/>
    <tag k="name" v="Bay Road"/>
    <tag k="source" v="survey"/>
  </way>
  <way id="52315169" version="6" timestamp="2011-10-14T01:50:08Z" uid="162096" user="Daz" changeset="9552203">
    <nd ref="665653685"/>
    <nd ref="429206535"/>
    <nd ref="8909691"/>
    <nd ref="666749530"/>
    <tag k="cycleway" v="lane"/>
    <tag k="highway" v="residential"/>
    <tag k="lcn" v="yes"/>
    <tag k="maxspeed" v="40"/>
    <tag k="maxspeed:source" v="nearmap"/>
    <tag k="name" v="Bay Road"/>
    <tag k="source" v="survey"/>
  </way>
  <way id="52315169" version="7" timestamp="2012-01-20T03:45:37Z" uid="147510" user="woodpeck_fixbot" changeset="10442986">
    <nd ref="665653685"/>
    <nd ref="429206535"/>
    <nd ref="8909691"/>
    <nd ref="666749530"/>
    <tag k="cycleway" v="lane"/>
    <tag k="highway" v="residential"/>
    <tag k="lcn" v="yes"/>
    <tag k="name" v="Bay Road"/>
    <tag k="source" v="survey"/>
  </way>
  <way id="52315170" version="1" timestamp="2010-03-14T00:48:54Z" uid="7617" user="Franc" changeset="4120493">
    <nd ref="665653708"/>
    <nd ref="79702151"/>
    <nd ref="603460231"/>
    <tag k="highway" v="residential"/>
    <tag k="maxweight" v="3"/>
    <tag k="name" v="Emmett Street"/>
    <tag k="restriction" v="school_zone"/>
    <tag k="source" v="survey"/>
  </way>
  <way id="52315170" version="2" timestamp="2010-07-08T01:17:18Z" uid="74617" user="JohnSmith" changeset="5162525">
    <nd ref="665653708"/>
    <nd ref="79702151"/>
    <nd ref="603460231"/>
    <tag k="highway" v="residential"/>
    <tag k="maxspeed" v="50"/>
    <tag k="maxspeed:source" v="default residential speed limit in Australia"/>
    <tag k="maxweight" v="3"/>
    <tag k="name" v="Emmett Street"/>
    <tag k="restriction" v="school_zone"/>
    <tag k="source" v="survey"/>
  </way>
  <way id="52315170" version="3" timestamp="2012-01-20T03:45:39Z" uid="147510" user="woodpeck_fixbot" changeset="10442986">
    <nd ref="665653708"/>
    <nd ref="79702151"/>
    <nd ref="603460231"/>
    <tag k="highway" v="residential"/>
    <tag k="maxweight" v="3"/>
    <tag k="name" v="Emmett Street"/>
    <tag k="restriction" v="school_zone"/>
    <tag k="source" v="survey"/>
  </way>
  <way id="52315171" version="1" timestamp="2010-03-14T00:48:54Z" uid="7617" user="Franc" changeset="4120493">
    <nd ref="665653692"/>
    <nd ref="79772438"/>
    <nd ref="497587529"/>
    <nd ref="79702125"/>
    <tag k="highway" v="residential"/>
    <tag k="name" v="Myrtle Street"/>
    <tag k="source" v="yahoo_imagery"/>
  </way>
  <way id="52315171" version="2" timestamp="2010-07-08T01:17:54Z" uid="74617" user="JohnSmith" changeset="5162525">
    <nd ref="665653692"/>
    <nd ref="79772438"/>
    <nd ref="497587529"/>
    <nd ref="79702125"/>
    <tag k="highway" v="residential"/>
    <tag k="maxspeed" v="50"/>
    <tag k="maxspeed:source" v="default residential speed limit in Australia"/>
    <tag k="name" v="Myrtle Street"/>
    <tag k="source" v="yahoo_imagery"/>
  </way>
  <way id="52315171" version="3" timestamp="2012-01-20T03:45:42Z" uid="147510" user="woodpeck_fixbot" changeset="10442986">
    <nd ref="665653692"/>
    <nd ref="79772438"/>
    <nd ref="497587529"/>
    <nd ref="79702125"/>
    <tag k="highway" v="residential"/>
    <tag k="name" v="Myrtle Street"/>
    <tag k="source" v="yahoo_imagery"/>
  </way>
  <way id="52315172" version="1" timestamp="2010-03-14T00:48:54Z" uid="7617" user="Franc" changeset="4120493">
    <nd ref="665653683"/>
    <nd ref="393726922"/>
    <nd ref="429206542"/>
    <nd ref="362620382"/>
    <tag k="highway" v="residential"/>
    <tag k="name" v="Bay Road"/>
    <tag k="restriction" v="school_zone"/>
    <tag k="source" v="survey"/>
  </way>
  <way id="52315172" version="2" timestamp="2010-07-08T01:18:03Z" uid="74617" user="JohnSmith" changeset="5162525">
    <nd ref="665653683"/>
    <nd ref="393726922"/>
    <nd ref="429206542"/>
    <nd ref="362620382"/>
    <tag k="highway" v="residential"/>
    <tag k="maxspeed" v="50"/>
    <tag k="maxspeed:source" v="default residential speed limit in Australia"/>
    <tag k="name" v="Bay Road"/>
    <tag k="restriction" v="school_zone"/>
    <tag k="source" v="survey"/>
  </way>
  <way id="52315172" version="3" timestamp="2011-10-13T11:03:05Z" uid="162096" user="Daz" changeset="9546105">
    <nd ref="665653683"/>
    <nd ref="393726922"/>
    <nd ref="429206542"/>
    <nd ref="362620382"/>
    <tag k="highway" v="residential"/>
    <tag k="lcn" v="yes"/>
    <tag k="maxspeed" v="50"/>
    <tag k="maxspeed:source" v="default residential speed limit in Australia"/>
    <tag k="name" v="Bay Road"/>
    <tag k="restriction" v="school_zone"/>
    <tag k="source" v="survey"/>
  </way>
  <way id="52315172" version="4" timestamp="2011-10-14T01:50:08Z" uid="162096" user="Daz" changeset="9552203">
    <nd ref="665653683"/>
    <nd ref="393726922"/>
    <nd ref="1466371034"/>
    <tag k="highway" v="residential"/>
    <tag k="lcn" v="yes"/>
    <tag k="maxspeed" v="50"/>
    <tag k="maxspeed:source" v="default residential speed limit in Australia"/>
    <tag k="name" v="Bay Road"/>
    <tag k="restriction" v="school_zone"/>
    <tag k="source" v="survey"/>
  </way>
  <way id="52315172" version="5" timestamp="2012-01-20T03:45:44Z" uid="147510" user="woodpeck_fixbot" changeset="10442986">
    <nd ref="665653683"/>
    <nd ref="393726922"/>
    <nd ref="1466371034"/>
    <tag k="highway" v="residential"/>
    <tag k="lcn" v="yes"/>
    <tag k="name" v="Bay Road"/>
    <tag k="restriction" v="school_zone"/>
    <tag k="source" v="survey"/>
  </way>
  <way id="52315173" version="1" timestamp="2010-03-14T00:48:54Z" uid="7617" user="Franc" changeset="4120493">
    <nd ref="665653689"/>
    <nd ref="312099784"/>
    <tag k="highway" v="residential"/>
    <tag k="name" v="Crows Nest Road"/>
    <tag k="restriction" v="school_zone"/>
    <tag k="source" v="survey"/>
  </way>
  <way id="52315173" version="2" timestamp="2010-07-08T01:18:38Z" uid="74617" user="JohnSmith" changeset="5162525">
    <nd ref="665653689"/>
    <nd ref="312099784"/>
    <tag k="highway" v="residential"/>
    <tag k="maxspeed" v="50"/>
    <tag k="maxspeed:source" v="default residential speed limit in Australia"/>
    <tag k="name" v="Crows Nest Road"/>
    <tag k="restriction" v="school_zone"/>
    <tag k="source" v="survey"/>
  </way>
  <way id="52315173" version="3" timestamp="2012-01-20T03:45:46Z" uid="147510" user="woodpeck_fixbot" changeset="10442986">
    <nd ref="665653689"/>
    <nd ref="312099784"/>
    <tag k="highway" v="residential"/>
    <tag k="name" v="Crows Nest Road"/>
    <tag k="restriction" v="school_zone"/>
    <tag k="source" v="survey"/>
  </way>
  <way id="52315174" version="1" timestamp="2010-03-14T00:48:54Z" uid="7617" user="Franc" changeset="4120493">
    <nd ref="665653688"/>
    <nd ref="50498904"/>
    <nd ref="206090619"/>
    <nd ref="206090620"/>
    <nd ref="206090621"/>
    <nd ref="79543660"/>
    <tag k="highway" v="residential"/>
    <tag k="name" v="McHatton Street"/>
    <tag k="source" v="survey"/>
  </way>
  <way id="52315174" version="2" timestamp="2010-07-08T01:16:46Z" uid="74617" user="JohnSmith" changeset="5162525">
    <nd ref="665653688"/>
    <nd ref="50498904"/>
    <nd ref="206090619"/>
    <nd ref="206090620"/>
    <nd ref="206090621"/>
    <nd ref="79543660"/>
    <tag k="highway" v="residential"/>
    <tag k="maxspeed" v="50"/>
    <tag k="maxspeed:source" v="default residential speed limit in Australia"/>
    <tag k="name" v="McHatton Street"/>
    <tag k="source" v="survey"/>
  </way>
  <way id="52315174" version="3" timestamp="2011-10-13T11:03:05Z" uid="162096" user="Daz" changeset="9546105">
    <nd ref="665653688"/>
    <nd ref="50498904"/>
    <nd ref="206090619"/>
    <nd ref="206090620"/>
    <nd ref="79543660"/>
    <tag k="highway" v="residential"/>
    <tag k="lcn" v="yes"/>
    <tag k="maxspeed" v="50"/>
    <tag k="maxspeed:source" v="default residential speed limit in Australia"/>
    <tag k="name" v="McHatton Street"/>
    <tag k="source" v="survey"/>
  </way>
  <way id="52315174" version="4" timestamp="2012-01-20T03:45:48Z" uid="147510" user="woodpeck_fixbot" changeset="10442986">
    <nd ref="665653688"/>
    <nd ref="50498904"/>
    <nd ref="206090619"/>
    <nd ref="206090620"/>
    <nd ref="79543660"/>
    <tag k="highway" v="residential"/>
    <tag k="lcn" v="yes"/>
    <tag k="name" v="McHatton Street"/>
    <tag k="source" v="survey"/>
  </way>
  <way id="52315175" version="1" timestamp="2010-03-14T00:48:54Z" uid="7617" user="Franc" changeset="4120493">
    <nd ref="665653694"/>
    <nd ref="50488049"/>
    <tag k="highway" v="residential"/>
    <tag k="name" v="Rocklands Road"/>
    <tag k="restriction" v="school_zone"/>
    <tag k="source" v="survey"/>
  </way>
  <way id="52315175" version="2" timestamp="2010-03-15T08:46:44Z" uid="7617" user="Franc" changeset="4132707">
    <nd ref="665653694"/>
    <nd ref="50488049"/>
    <nd ref="666749505"/>
    <tag k="highway" v="residential"/>
    <tag k="name" v="Rocklands Road"/>
    <tag k="restriction" v="school_zone"/>
    <tag k="source" v="survey"/>
  </way>
  <way id="52315175" version="3" timestamp="2010-06-21T22:44:48Z" uid="299678" user="peteramjet" changeset="5047383">
    <nd ref="665653694"/>
    <nd ref="50488049"/>
    <nd ref="666749505"/>
    <nd ref="666749505"/>
    <tag k="highway" v="residential"/>
    <tag k="name" v="Rocklands Road"/>
    <tag k="restriction" v="school_zone"/>
    <tag k="source" v="survey"/>
  </way>
  <way id="52315175" version="4" timestamp="2010-06-22T19:32:21Z" uid="70696" user="xybot" changeset="5053727">
    <nd ref="665653694"/>
    <nd ref="50488049"/>
    <nd ref="666749505"/>
    <tag k="highway" v="residential"/>
    <tag k="name" v="Rocklands Road"/>
    <tag k="restriction" v="school_zone"/>
    <tag k="source" v="survey"/>
  </way>
  <way id="52315175" version="5" timestamp="2010-07-08T01:17:28Z" uid="74617" user="JohnSmith" changeset="5162525">
    <nd ref="665653694"/>
    <nd ref="50488049"/>
    <nd ref="666749505"/>
    <tag k="highway" v="residential"/>
    <tag k="maxspeed" v="50"/>
    <tag k="maxspeed:source" v="default residential speed limit in Australia"/>
    <tag k="name" v="Rocklands Road"/>
    <tag k="restriction" v="school_zone"/>
    <tag k="source" v="survey"/>
  </way>
  <way id="52315175" version="6" timestamp="2012-01-20T03:45:49Z" uid="147510" user="woodpeck_fixbot" changeset="10442986">
    <nd ref="665653694"/>
    <nd ref="50488049"/>
    <nd ref="666749505"/>
    <tag k="highway" v="residential"/>
    <tag k="name" v="Rocklands Road"/>
    <tag k="restriction" v="school_zone"/>
    <tag k="source" v="survey"/>
  </way>
  <way id="52315176" version="1" timestamp="2010-03-14T00:48:54Z" uid="7617" user="Franc" changeset="4120493">
    <nd ref="665653700"/>
    <nd ref="498802572"/>
    <tag k="highway" v="unclassified"/>
    <tag k="name" v="David Street"/>
    <tag k="source" v="survey"/>
  </way>
  <way id="52315177" version="1" timestamp="2010-03-14T00:48:55Z" uid="7617" user="Franc" changeset="4120493">
    <nd ref="665653703"/>
    <nd ref="120288603"/>
    <tag k="highway" v="secondary"/>
    <tag k="name" v="McLaren Street"/>
    <tag k="restriction" v="school_zone"/>
    <tag k="source:name" v="survey:09/07"/>
  </way>
  <way id="52315177" version="2" timestamp="2010-03-15T08:46:46Z" uid="7617" user="Franc" changeset="4132707">
    <nd ref="665653703"/>
    <nd ref="666749531"/>
    <nd ref="120288603"/>
    <tag k="highway" v="secondary"/>
    <tag k="name" v="McLaren Street"/>
    <tag k="restriction" v="school_zone"/>
    <tag k="source:name" v="survey:09/07"/>
  </way>
  <way id="52315177" version="3" timestamp="2010-09-28T12:55:13Z" uid="79475" user="AlexOnTheBus" changeset="5903648">
    <nd ref="665653703"/>
    <nd ref="666749531"/>
    <nd ref="120288603"/>
    <tag k="highway" v="tertiary"/>
    <tag k="name" v="McLaren Street"/>
    <tag k="restriction" v="school_zone"/>
    <tag k="source:name" v="survey:09/07"/>
  </way>
  <way id="52315177" version="4" timestamp="2011-10-13T03:06:22Z" uid="162096" user="Daz" changeset="9543991">
    <nd ref="665653703"/>
    <nd ref="666749531"/>
    <nd ref="120288603"/>
    <tag k="highway" v="tertiary"/>
    <tag k="lcn" v="yes"/>
    <tag k="name" v="McLaren Street"/>
    <tag k="restriction" v="school_zone"/>
    <tag k="source:name" v="survey:09/07"/>
  </way>
  <way id="52315178" version="1" timestamp="2010-03-14T00:48:55Z" uid="7617" user="Franc" changeset="4120493">
    <nd ref="665653707"/>
    <nd ref="31283424"/>
    <tag k="cycleway" v="lane"/>
    <tag k="highway" v="unclassified"/>
    <tag k="lcn" v="yes"/>
    <tag k="maxweight" v="3"/>
    <tag k="name" v="West Street"/>
    <tag k="source:name" v="historical"/>
  </way>
  <way id="52315178" version="2" timestamp="2011-02-14T06:14:49Z" uid="389517" user="good2010" changeset="7283061">
    <nd ref="665653707"/>
    <nd ref="31283424"/>
    <tag k="cycleway" v="lane"/>
    <tag k="highway" v="unclassified"/>
    <tag k="lcn" v="yes"/>
    <tag k="maxspeed" v="50"/>
    <tag k="maxweight" v="3"/>
    <tag k="name" v="West Street"/>
    <tag k="source:name" v="historical"/>
  </way>
  <way id="52315165" version="6" timestamp="2012-07-19T21:41:24Z" uid="722137" user="OSMF Redaction Account" changeset="12348779"/>
  <way id="52315166" version="5" timestamp="2012-07-19T21:41:16Z" uid="722137" user="OSMF Redaction Account" changeset="12348779"/>
  <way id="52315167" version="6" timestamp="2012-07-19T21:41:32Z" uid="722137" user="OSMF Redaction Account" changeset="12348779"/>
  <way id="52315168" version="5" timestamp="2012-07-19T21:41:25Z" uid="722137" user="OSMF Redaction Account" changeset="12348779"/>
  <way id="52315169" version="8" timestamp="2012-07-19T21:41:26Z" uid="722137" user="OSMF Redaction Account" changeset="12348779"/>
  <way id="52315170" version="4" timestamp="2012-07-19T21:41:31Z" uid="722137" user="OSMF Redaction Account" changeset="12348779"/>
  <way id="52315171" version="4" timestamp="2012-07-19T21:41:30Z" uid="722137" user="OSMF Redaction Account" changeset="12348779"/>
  <way id="52315172" version="6" timestamp="2012-07-19T21:41:25Z" uid="722137" user="OSMF Redaction Account" changeset="12348779"/>
  <way id="52315173" version="4" timestamp="2012-07-19T21:41:28Z" uid="722137" user="OSMF Redaction Account" changeset="12348779"/>
  <way id="52315174" version="5" timestamp="2012-07-19T21:41:26Z" uid="722137" user="OSMF Redaction Account" changeset="12348779"/>
  <way id="52315175" version="7" timestamp="2012-07-19T21:41:31Z" uid="722137" user="OSMF Redaction Account" changeset="12348779"/>
  <way id="52315176" version="2" timestamp="2012-07-19T21:41:33Z" uid="722137" user="OSMF Redaction Account" changeset="12348779"/>
  <way id="52315177" version="5" timestamp="2012-07-19T21:41:27Z" uid="722137" user="OSMF Redaction Account" changeset="12348779"/>
  <way id="52315178" version="3" timestamp="2012-07-19T21:41:28Z" uid="722137" user="OSMF Redaction Account" changeset="12348779"/>
</osm>
