<?xml version='1.0' encoding='UTF-8'?>
<osm version="0.6" generator="libosmium/2.20.0">
  <way id="52570349" version="1" timestamp="2010-03-17T11:15:36Z" uid="115477" user="wowik" changeset="4151774">
    <nd ref="667889358"/>
    <nd ref="667889361"/>
    <nd ref="667889363"/>
    <nd ref="667889359"/>
    <tag k="highway" v="service"/>
    <tag k="oneway" v="yes"/>
  </way>
  <way id="52570349" version="2" timestamp="2011-02-05T15:08:22Z" uid="269466" user="vfjj" changeset="7193430">
    <nd ref="667889358"/>
    <nd ref="1137588524"/>
    <nd ref="667889361"/>
    <nd ref="667889363"/>
    <nd ref="1137588525"/>
    <nd ref="667889359"/>
    <tag k="highway" v="service"/>
    <tag k="oneway" v="yes"/>
  </way>
  <way id="52570349" version="3" timestamp="2012-03-28T20:50:33Z" uid="336354" user="esaulenka" changeset="11131198"/>
  <way id="52570351" version="1" timestamp="2010-03-17T11:15:37Z" uid="115477" user="wowik" changeset="4151774">
    <nd ref="667889366"/>
    <nd ref="667889367"/>
    <nd ref="667889369"/>
    <nd ref="667889372"/>
    <nd ref="667889366"/>
    <tag k="addr:housenumber" v="24a"/>
    <tag k="amenity" v="fuel"/>
    <tag k="building" v="yes"/>
    <tag k="name" v="№597"/>
    <tag k="operator" v="Лукойл"/>
  </way>
  <way id="52570351" version="2" timestamp="2010-11-22T02:07:52Z" uid="133332" user="AMDmi3" changeset="6428552">
    <nd ref="667889366"/>
    <nd ref="667889367"/>
    <nd ref="667889369"/>
    <nd ref="667889372"/>
    <nd ref="667889366"/>
    <tag k="addr:housenumber" v="24а"/>
    <tag k="amenity" v="fuel"/>
    <tag k="building" v="yes"/>
    <tag k="name" v="№597"/>
    <tag k="operator" v="Лукойл"/>
  </way>
  <way id="52570351" version="3" timestamp="2010-12-06T17:18:48Z" uid="207409" user="Epolyanichev" changeset="6565886">
    <nd ref="667889366"/>
    <nd ref="667889367"/>
    <nd ref="667889369"/>
    <nd ref="667889372"/>
    <nd ref="667889366"/>
    <tag k="addr:housenumber" v="24а"/>
    <tag k="building" v="yes"/>
    <tag k="description" v="АЗС N 597"/>
  </way>
  <way id="52570351" version="4" timestamp="2011-02-05T14:24:18Z" uid="269466" user="vfjj" changeset="7192950">
    <nd ref="667889366"/>
    <nd ref="667889367"/>
    <nd ref="667889369"/>
    <nd ref="1137559198"/>
    <nd ref="1137559192"/>
    <nd ref="1137559172"/>
    <nd ref="1137559202"/>
    <nd ref="1137559175"/>
    <nd ref="1137559199"/>
    <nd ref="667889372"/>
    <nd ref="667889366"/>
    <tag k="addr:housenumber" v="24а"/>
    <tag k="building" v="yes"/>
    <tag k="description" v="АЗС N 597"/>
  </way>
  <way id="52570351" version="5" timestamp="2012-03-28T20:50:26Z" uid="336354" user="esaulenka" changeset="11131198"/>
</osm>
