<?xml version='1.0' encoding='UTF-8'?>
<osm version="0.6" generator="libosmium/2.20.0">
  <way id="52588761" version="3" timestamp="2010-04-22T16:33:46Z" uid="6269" user="Mueck" changeset="4496458">
    <nd ref="668056451"/>
    <nd ref="412292"/>
    <tag k="agricultural" v="yes"/>
    <tag k="embankment" v="yes"/>
    <tag k="foot" v="no"/>
    <tag k="highway" v="trunk"/>
    <tag k="layer" v="2"/>
    <tag k="maxspeed" v="80"/>
    <tag k="motorroad" v="no"/>
    <tag k="name" v="SÃ¼dtangente"/>
    <tag k="oneway" v="yes"/>
    <tag k="ref" v="B 10"/>
  </way>
  <way id="52588761" version="4" timestamp="2010-06-21T09:33:32Z" uid="243707" user="Essimo" changeset="5040887">
    <nd ref="668056451"/>
    <nd ref="412292"/>
    <tag k="agricultural" v="yes"/>
    <tag k="embankment" v="yes"/>
    <tag k="foot" v="no"/>
    <tag k="highway" v="trunk"/>
    <tag k="layer" v="2"/>
    <tag k="maxspeed" v="80"/>
    <tag k="motorroad" v="no"/>
    <tag k="oneway" v="yes"/>
    <tag k="ref" v="B 10"/>
  </way>
  <way id="52588761" version="5" timestamp="2010-12-17T14:19:44Z" uid="243707" user="Essimo" changeset="6687129">
    <nd ref="668056451"/>
    <nd ref="1042867824"/>
    <nd ref="412292"/>
    <tag k="agricultural" v="yes"/>
    <tag k="embankment" v="yes"/>
    <tag k="foot" v="no"/>
    <tag k="highway" v="trunk"/>
    <tag k="layer" v="2"/>
    <tag k="maxspeed" v="80"/>
    <tag k="motorroad" v="no"/>
    <tag k="oneway" v="yes"/>
    <tag k="ref" v="B 10"/>
  </way>
  <way id="52588761" version="6" timestamp="2011-10-11T14:11:57Z" uid="165061" user="keinname" changeset="9530893">
    <nd ref="668056451"/>
    <nd ref="1042867824"/>
    <nd ref="412292"/>
    <tag k="agricultural" v="yes"/>
    <tag k="embankment" v="yes"/>
    <tag k="foot" v="no"/>
    <tag k="highway" v="trunk"/>
    <tag k="lanes" v="3"/>
    <tag k="layer" v="2"/>
    <tag k="maxspeed" v="80"/>
    <tag k="motorroad" v="no"/>
    <tag k="oneway" v="yes"/>
    <tag k="ref" v="B 10"/>
  </way>
  <way id="52588761" version="7" timestamp="2012-03-13T10:06:06Z" uid="16330" user="aluka" changeset="10964765">
    <nd ref="668056451"/>
    <nd ref="1042867824"/>
    <nd ref="412292"/>
    <tag k="agricultural" v="yes"/>
    <tag k="embankment" v="yes"/>
    <tag k="highway" v="trunk"/>
    <tag k="lanes" v="3"/>
    <tag k="layer" v="2"/>
    <tag k="maxspeed" v="80"/>
    <tag k="motorroad" v="no"/>
    <tag k="oneway" v="yes"/>
    <tag k="ref" v="B 10"/>
  </way>
  <way id="52588761" version="8" timestamp="2012-07-19T22:29:08Z" uid="722137" user="OSMF Redaction Account" changeset="12350458">
    <nd ref="668056451"/>
    <nd ref="1042867824"/>
    <nd ref="412292"/>
    <tag k="agricultural" v="yes"/>
    <tag k="embankment" v="yes"/>
    <tag k="highway" v="trunk"/>
    <tag k="lanes" v="3"/>
    <tag k="layer" v="2"/>
    <tag k="maxspeed" v="80"/>
    <tag k="motorroad" v="yes"/>
    <tag k="oneway" v="yes"/>
    <tag k="ref" v="B 10"/>
  </way>
  <way id="52588761" version="9" timestamp="2012-08-07T09:20:04Z" uid="747709" user="synyx" changeset="12642908">
    <nd ref="668056451"/>
    <nd ref="1042867824"/>
    <nd ref="412292"/>
    <tag k="agricultural" v="yes"/>
    <tag k="embankment" v="yes"/>
    <tag k="highway" v="trunk"/>
    <tag k="lanes" v="3"/>
    <tag k="layer" v="2"/>
    <tag k="maxspeed" v="80"/>
    <tag k="motorroad" v="yes"/>
    <tag k="oneway" v="yes"/>
    <tag k="ref" v="B 10"/>
    <tag k="toll:N3" v="yes"/>
  </way>
</osm>
