<?xml version='1.0' encoding='UTF-8'?>
<osm version="0.6" generator="libosmium/2.20.0">
  <way id="52594164" version="2" timestamp="2010-05-01T19:07:57Z" uid="151899" user="Bikeman2000" changeset="4578401">
    <nd ref="310764795"/>
    <nd ref="571532056"/>
    <nd ref="576519266"/>
    <nd ref="715800037"/>
    <nd ref="250069438"/>
    <tag k="highway" v="secondary"/>
    <tag k="maxspeed" v="50"/>
    <tag k="name" v="Oberbilker Allee"/>
    <tag k="postal_code" v="40227"/>
    <tag k="ref" v="L 85"/>
  </way>
  <way id="52594164" version="3" timestamp="2010-11-18T10:57:05Z" uid="120715" user="ruhri2010" changeset="6399058">
    <nd ref="310764795"/>
    <nd ref="571532056"/>
    <nd ref="576519266"/>
    <nd ref="715800037"/>
    <nd ref="250069438"/>
    <tag k="highway" v="secondary"/>
    <tag k="maxspeed" v="50"/>
    <tag k="name" v="Oberbilker Allee"/>
    <tag k="postal_code" v="40227"/>
  </way>
  <way id="52594164" version="4" timestamp="2011-12-13T16:49:45Z" uid="12614" user="rabenkind" changeset="10109020">
    <nd ref="310764795"/>
    <nd ref="571532056"/>
    <nd ref="576519266"/>
    <nd ref="1544555977"/>
    <nd ref="715800037"/>
    <nd ref="1544555985"/>
    <tag k="highway" v="secondary"/>
    <tag k="maxspeed" v="50"/>
    <tag k="name" v="Oberbilker Allee"/>
    <tag k="postal_code" v="40227"/>
  </way>
  <way id="52594164" version="5" timestamp="2011-12-29T15:58:21Z" uid="12614" user="rabenkind" changeset="10236565"/>
</osm>
