<?xml version='1.0' encoding='UTF-8'?>
<osm version="0.6" generator="libosmium/2.20.0">
  <way id="52603758" version="3" timestamp="2010-04-07T14:35:34Z" uid="20587" user="balrog-kun" changeset="4353646">
    <nd ref="146456749"/>
    <nd ref="146288648"/>
    <tag k="highway" v="trunk"/>
    <tag k="name" v="North Main Street"/>
    <tag k="name_1" v="United States Highway 81"/>
    <tag k="name_2" v="State Highway 3"/>
    <tag k="ref" v="US 81"/>
    <tag k="tiger:cfcc" v="A21"/>
    <tag k="tiger:county" v="Kingfisher, OK"/>
    <tag k="tiger:name_base" v="Main"/>
    <tag k="tiger:name_base_1" v="United States Highway 81"/>
    <tag k="tiger:name_base_2" v="State Highway 3"/>
    <tag k="tiger:name_direction_prefix" v="N"/>
    <tag k="tiger:name_type" v="St"/>
    <tag k="tiger:reviewed" v="no"/>
    <tag k="tiger:separated" v="no"/>
    <tag k="tiger:source" v="tiger_import_dch_v0.6_20070829"/>
    <tag k="tiger:tlid" v="121911984"/>
  </way>
  <way id="52603758" version="4" timestamp="2011-06-15T05:50:30Z" uid="207745" user="NE2" changeset="8443930">
    <nd ref="146288648"/>
    <nd ref="146456749"/>
    <tag k="highway" v="trunk"/>
    <tag k="lanes" v="2"/>
    <tag k="name" v="North Main Street"/>
    <tag k="oneway" v="yes"/>
    <tag k="ref" v="US 81"/>
    <tag k="tiger:cfcc" v="A21"/>
    <tag k="tiger:county" v="Kingfisher, OK"/>
    <tag k="tiger:name_base" v="Main"/>
    <tag k="tiger:name_base_1" v="United States Highway 81"/>
    <tag k="tiger:name_base_2" v="State Highway 3"/>
    <tag k="tiger:name_direction_prefix" v="N"/>
    <tag k="tiger:name_type" v="St"/>
    <tag k="tiger:reviewed" v="no"/>
    <tag k="tiger:separated" v="no"/>
    <tag k="tiger:source" v="tiger_import_dch_v0.6_20070829"/>
    <tag k="tiger:tlid" v="121911984"/>
  </way>
  <way id="52603758" version="5" timestamp="2011-07-05T03:12:28Z" uid="473471" user="NE3" changeset="8635388">
    <nd ref="146288648"/>
    <nd ref="146456749"/>
    <tag k="NHS" v="yes"/>
    <tag k="highway" v="trunk"/>
    <tag k="lanes" v="2"/>
    <tag k="name" v="North Main Street"/>
    <tag k="oneway" v="yes"/>
    <tag k="ref" v="US 81"/>
    <tag k="tiger:cfcc" v="A21"/>
    <tag k="tiger:county" v="Kingfisher, OK"/>
    <tag k="tiger:name_base" v="Main"/>
    <tag k="tiger:name_base_1" v="United States Highway 81"/>
    <tag k="tiger:name_base_2" v="State Highway 3"/>
    <tag k="tiger:name_direction_prefix" v="N"/>
    <tag k="tiger:name_type" v="St"/>
    <tag k="tiger:reviewed" v="no"/>
    <tag k="tiger:separated" v="no"/>
    <tag k="tiger:source" v="tiger_import_dch_v0.6_20070829"/>
    <tag k="tiger:tlid" v="121911984"/>
  </way>
</osm>
