<?xml version='1.0' encoding='UTF-8'?>
<osm version="0.6" generator="libosmium/2.20.0">
  <way id="52644644" version="2" timestamp="2010-04-07T14:35:42Z" uid="20587" user="balrog-kun" changeset="4353646">
    <nd ref="337260420"/>
    <nd ref="337260417"/>
    <nd ref="337260416"/>
    <nd ref="337259776"/>
    <tag k="highway" v="trunk"/>
    <tag k="maxspeed" v="112"/>
    <tag k="name" v="Camino Colombia Toll Road"/>
    <tag k="oneway" v="yes"/>
    <tag k="ref" v="US:TX 255 Toll"/>
  </way>
  <way id="52644644" version="3" timestamp="2010-12-18T22:44:56Z" uid="207745" user="NE2" changeset="6701351">
    <nd ref="337260420"/>
    <nd ref="337260417"/>
    <nd ref="337260416"/>
    <nd ref="337259776"/>
    <tag k="highway" v="trunk"/>
    <tag k="maxspeed" v="112"/>
    <tag k="name" v="Camino Colombia Toll Road"/>
    <tag k="oneway" v="yes"/>
    <tag k="ref" v="US:TX 255 Toll"/>
    <tag k="toll" v="no"/>
  </way>
  <way id="52644644" version="4" timestamp="2011-04-22T00:38:24Z" uid="36121" user="Chris Lawrence" changeset="7930320">
    <nd ref="337260420"/>
    <nd ref="337260417"/>
    <nd ref="337260416"/>
    <nd ref="337259776"/>
    <tag k="highway" v="trunk"/>
    <tag k="maxspeed" v="70 mph"/>
    <tag k="name" v="Camino Colombia Toll Road"/>
    <tag k="oneway" v="yes"/>
    <tag k="ref" v="TX 255"/>
    <tag k="toll" v="no"/>
  </way>
  <way id="52644644" version="5" timestamp="2011-06-22T22:00:48Z" uid="473471" user="NE3" changeset="8518867">
    <nd ref="337260420"/>
    <nd ref="337260417"/>
    <nd ref="337260416"/>
    <nd ref="337259776"/>
    <tag k="highway" v="trunk"/>
    <tag k="lanes" v="1"/>
    <tag k="maxspeed" v="70 mph"/>
    <tag k="name" v="Camino Colombia Toll Road"/>
    <tag k="oneway" v="yes"/>
    <tag k="ref" v="TX 255"/>
    <tag k="toll" v="no"/>
  </way>
  <way id="52644644" version="6" timestamp="2012-01-08T01:05:49Z" uid="207745" user="NE2" changeset="10327470">
    <nd ref="337260420"/>
    <nd ref="337260417"/>
    <nd ref="337260416"/>
    <nd ref="337259776"/>
    <tag k="highway" v="trunk"/>
    <tag k="lanes" v="1"/>
    <tag k="maxspeed" v="70 mph"/>
    <tag k="name" v="Camino Colombia Toll Road"/>
    <tag k="oneway" v="yes"/>
    <tag k="ref" v="Toll 255"/>
    <tag k="toll" v="no"/>
  </way>
  <way id="52644681" version="3" timestamp="2010-04-07T14:35:43Z" uid="20587" user="balrog-kun" changeset="4353646">
    <nd ref="337260554"/>
    <nd ref="337260553"/>
    <nd ref="337260551"/>
    <nd ref="337260550"/>
    <nd ref="337260549"/>
    <nd ref="337260548"/>
    <nd ref="337260425"/>
    <tag k="highway" v="trunk"/>
    <tag k="maxspeed" v="112"/>
    <tag k="name" v="Camino Colombia Toll Road"/>
    <tag k="oneway" v="yes"/>
    <tag k="ref" v="US:TX 255 Toll"/>
    <tag k="toll" v="yes"/>
    <tag k="toll_method" v="transponder"/>
  </way>
  <way id="52644681" version="4" timestamp="2011-04-22T00:38:16Z" uid="36121" user="Chris Lawrence" changeset="7930320">
    <nd ref="337260554"/>
    <nd ref="337260553"/>
    <nd ref="337260551"/>
    <nd ref="337260550"/>
    <nd ref="337260549"/>
    <nd ref="337260548"/>
    <nd ref="337260425"/>
    <tag k="highway" v="trunk"/>
    <tag k="maxspeed" v="70 mph"/>
    <tag k="name" v="Camino Colombia Toll Road"/>
    <tag k="oneway" v="yes"/>
    <tag k="ref" v="US:TX 255 Toll"/>
    <tag k="toll" v="yes"/>
    <tag k="toll_method" v="transponder"/>
  </way>
  <way id="52644681" version="5" timestamp="2011-06-22T22:08:50Z" uid="473471" user="NE3" changeset="8518867">
    <nd ref="337260554"/>
    <nd ref="337260553"/>
    <nd ref="337260551"/>
    <nd ref="337260550"/>
    <nd ref="337260549"/>
    <nd ref="337260548"/>
    <nd ref="337260425"/>
    <tag k="highway" v="trunk"/>
    <tag k="lanes" v="1"/>
    <tag k="maxspeed" v="70 mph"/>
    <tag k="name" v="Camino Colombia Toll Road"/>
    <tag k="oneway" v="yes"/>
    <tag k="ref" v="SH 255"/>
    <tag k="toll" v="yes"/>
    <tag k="toll_method" v="transponder"/>
  </way>
  <way id="52644681" version="6" timestamp="2012-01-08T01:05:51Z" uid="207745" user="NE2" changeset="10327470">
    <nd ref="337260554"/>
    <nd ref="337260553"/>
    <nd ref="337260551"/>
    <nd ref="337260550"/>
    <nd ref="337260549"/>
    <nd ref="337260548"/>
    <nd ref="337260425"/>
    <tag k="highway" v="trunk"/>
    <tag k="lanes" v="1"/>
    <tag k="maxspeed" v="70 mph"/>
    <tag k="name" v="Camino Colombia Toll Road"/>
    <tag k="oneway" v="yes"/>
    <tag k="ref" v="Toll 255"/>
    <tag k="toll" v="yes"/>
    <tag k="toll_method" v="transponder"/>
  </way>
</osm>
