<?xml version='1.0' encoding='UTF-8'?>
<osm version="0.6" generator="libosmium/2.20.0">
  <way id="52840051" version="2" timestamp="2010-04-02T17:58:51Z" uid="20587" user="balrog-kun" changeset="4304500">
    <nd ref="53243971"/>
    <nd ref="53110159"/>
    <nd ref="626321468"/>
    <nd ref="60151873"/>
    <nd ref="60886993"/>
    <nd ref="53252149"/>
    <nd ref="60151874"/>
    <nd ref="30885464"/>
    <nd ref="53128712"/>
    <nd ref="53123702"/>
    <nd ref="53123703"/>
    <nd ref="53166961"/>
    <nd ref="53228575"/>
    <nd ref="53209442"/>
    <nd ref="53180690"/>
    <nd ref="53162432"/>
    <nd ref="53151706"/>
    <nd ref="53243860"/>
    <nd ref="53154480"/>
    <nd ref="53246072"/>
    <nd ref="53252153"/>
    <nd ref="53252154"/>
    <nd ref="322353647"/>
    <nd ref="322353643"/>
    <nd ref="322353640"/>
    <nd ref="322353637"/>
    <nd ref="53252155"/>
    <nd ref="53252156"/>
    <nd ref="53252157"/>
    <nd ref="53252158"/>
    <nd ref="53252159"/>
    <nd ref="53252160"/>
    <nd ref="53252161"/>
    <nd ref="53115112"/>
    <nd ref="53221103"/>
    <nd ref="53209465"/>
    <nd ref="255944664"/>
    <nd ref="287224629"/>
    <nd ref="287224628"/>
    <nd ref="53212810"/>
    <nd ref="53032676"/>
    <nd ref="53014796"/>
    <tag k="highway" v="primary"/>
    <tag k="lanes" v="6"/>
    <tag k="maxspeed" v="56.327"/>
    <tag k="name" v="East Marginal Way South"/>
    <tag k="ref" v="WA 99"/>
  </way>
  <way id="52840051" version="3" timestamp="2010-06-14T03:34:07Z" uid="282329" user="compdude" changeset="4984654">
    <nd ref="53243971"/>
    <nd ref="53110159"/>
    <nd ref="626321468"/>
    <tag k="highway" v="primary"/>
    <tag k="lanes" v="6"/>
    <tag k="maxspeed" v="56.327"/>
    <tag k="name" v="East Marginal Way South"/>
    <tag k="ref" v="WA 99"/>
  </way>
  <way id="52840051" version="4" timestamp="2010-07-19T04:28:18Z" uid="121241" user="zephyr" changeset="5257414">
    <nd ref="53243971"/>
    <nd ref="53110159"/>
    <nd ref="626321468"/>
    <tag k="highway" v="primary"/>
    <tag k="lanes" v="6"/>
    <tag k="maxspeed" v="35 mph"/>
    <tag k="name" v="East Marginal Way South"/>
    <tag k="ref" v="WA 99"/>
  </way>
  <way id="52840051" version="5" timestamp="2011-03-14T20:59:41Z" uid="412610" user="PCS" changeset="7560809">
    <nd ref="53243971"/>
    <nd ref="53110159"/>
    <nd ref="1202111823"/>
    <nd ref="626321468"/>
    <tag k="highway" v="primary"/>
    <tag k="lanes" v="6"/>
    <tag k="maxspeed" v="35 mph"/>
    <tag k="name" v="East Marginal Way South"/>
    <tag k="ref" v="WA 99"/>
  </way>
  <way id="52840083" version="2" timestamp="2010-04-02T17:58:52Z" uid="20587" user="balrog-kun" changeset="4304500">
    <nd ref="30760205"/>
    <nd ref="60002850"/>
    <nd ref="60002848"/>
    <nd ref="60002846"/>
    <nd ref="53014681"/>
    <tag k="highway" v="trunk"/>
    <tag k="lanes" v="4"/>
    <tag k="maxspeed" v="64.374"/>
    <tag k="name" v="Aurora Avenue North"/>
    <tag k="oneway" v="yes"/>
    <tag k="ref" v="WA 99"/>
  </way>
  <way id="52840083" version="3" timestamp="2010-05-31T18:16:18Z" uid="121241" user="zephyr" changeset="4866640">
    <nd ref="30760205"/>
    <nd ref="60002850"/>
    <nd ref="60002848"/>
    <nd ref="60002846"/>
    <nd ref="53014681"/>
    <tag k="highway" v="trunk"/>
    <tag k="lanes" v="4"/>
    <tag k="maxspeed" v="40 mph"/>
    <tag k="name" v="Aurora Avenue North"/>
    <tag k="oneway" v="yes"/>
    <tag k="ref" v="WA 99"/>
  </way>
  <way id="52840089" version="2" timestamp="2010-04-02T17:58:53Z" uid="20587" user="balrog-kun" changeset="4304500">
    <nd ref="30760194"/>
    <nd ref="30343635"/>
    <tag k="highway" v="trunk"/>
    <tag k="lanes" v="2"/>
    <tag k="maxspeed" v="64.374"/>
    <tag k="name" v="Aurora Avenue North"/>
    <tag k="oneway" v="yes"/>
    <tag k="ref" v="WA 99"/>
  </way>
  <way id="52840089" version="3" timestamp="2010-04-14T16:13:42Z" uid="207745" user="NE2" changeset="4423714">
    <nd ref="30760194"/>
    <nd ref="30343635"/>
    <tag k="highway" v="motorway"/>
    <tag k="lanes" v="2"/>
    <tag k="maxspeed" v="64.374"/>
    <tag k="name" v="Aurora Avenue North"/>
    <tag k="oneway" v="yes"/>
    <tag k="ref" v="WA 99"/>
  </way>
  <way id="52840089" version="4" timestamp="2010-04-15T07:55:29Z" uid="121241" user="zephyr" changeset="4428745">
    <nd ref="30760194"/>
    <nd ref="30343635"/>
    <tag k="highway" v="trunk"/>
    <tag k="lanes" v="2"/>
    <tag k="maxspeed" v="64.374"/>
    <tag k="name" v="Aurora Avenue North"/>
    <tag k="oneway" v="yes"/>
    <tag k="ref" v="WA 99"/>
  </way>
  <way id="52840089" version="5" timestamp="2010-05-31T18:16:08Z" uid="121241" user="zephyr" changeset="4866640">
    <nd ref="30760194"/>
    <nd ref="30343635"/>
    <tag k="highway" v="trunk"/>
    <tag k="lanes" v="2"/>
    <tag k="maxspeed" v="40 mph"/>
    <tag k="name" v="Aurora Avenue North"/>
    <tag k="oneway" v="yes"/>
    <tag k="ref" v="WA 99"/>
  </way>
  <way id="52840089" version="6" timestamp="2010-12-28T07:56:00Z" uid="207745" user="NE2" changeset="6785234">
    <nd ref="30760194"/>
    <nd ref="30343635"/>
    <tag k="highway" v="motorway"/>
    <tag k="lanes" v="2"/>
    <tag k="maxspeed" v="40 mph"/>
    <tag k="name" v="Aurora Avenue North"/>
    <tag k="oneway" v="yes"/>
    <tag k="ref" v="WA 99"/>
  </way>
  <way id="52840089" version="7" timestamp="2010-12-28T13:33:44Z" uid="121241" user="zephyr" changeset="6788243">
    <nd ref="30760194"/>
    <nd ref="30343635"/>
    <tag k="highway" v="trunk"/>
    <tag k="lanes" v="2"/>
    <tag k="maxspeed" v="40 mph"/>
    <tag k="name" v="Aurora Avenue North"/>
    <tag k="oneway" v="yes"/>
    <tag k="ref" v="WA 99"/>
  </way>
  <way id="52840089" version="8" timestamp="2011-10-15T17:59:09Z" uid="207745" user="NE2" changeset="9565655">
    <nd ref="30760194"/>
    <nd ref="30343635"/>
    <tag k="bicycle" v="no"/>
    <tag k="highway" v="motorway"/>
    <tag k="lanes" v="2"/>
    <tag k="maxspeed" v="40 mph"/>
    <tag k="name" v="Aurora Avenue North"/>
    <tag k="oneway" v="yes"/>
    <tag k="ref" v="WA 99"/>
  </way>
  <way id="52840089" version="9" timestamp="2011-10-15T20:55:17Z" uid="121241" user="zephyr" changeset="9567423">
    <nd ref="30760194"/>
    <nd ref="30343635"/>
    <tag k="bicycle" v="no"/>
    <tag k="highway" v="trunk"/>
    <tag k="lanes" v="2"/>
    <tag k="maxspeed" v="40 mph"/>
    <tag k="name" v="Aurora Avenue North"/>
    <tag k="oneway" v="yes"/>
    <tag k="ref" v="WA 99"/>
  </way>
  <way id="52840093" version="2" timestamp="2010-04-02T17:58:53Z" uid="20587" user="balrog-kun" changeset="4304500">
    <nd ref="60002835"/>
    <nd ref="134057741"/>
    <nd ref="134057653"/>
    <nd ref="385666259"/>
    <nd ref="30760206"/>
    <nd ref="30760207"/>
    <nd ref="60002828"/>
    <nd ref="60002822"/>
    <nd ref="30760208"/>
    <nd ref="124240502"/>
    <nd ref="30760209"/>
    <nd ref="60002820"/>
    <nd ref="53178566"/>
    <nd ref="30760210"/>
    <nd ref="60002811"/>
    <nd ref="30760211"/>
    <tag k="highway" v="trunk"/>
    <tag k="lanes" v="3"/>
    <tag k="maxspeed" v="64.374"/>
    <tag k="name" v="Aurora Avenue North"/>
    <tag k="oneway" v="yes"/>
    <tag k="ref" v="WA 99"/>
  </way>
  <way id="52840093" version="3" timestamp="2010-05-31T18:16:15Z" uid="121241" user="zephyr" changeset="4866640">
    <nd ref="60002835"/>
    <nd ref="134057741"/>
    <nd ref="134057653"/>
    <nd ref="385666259"/>
    <nd ref="30760206"/>
    <nd ref="30760207"/>
    <nd ref="60002828"/>
    <nd ref="60002822"/>
    <nd ref="30760208"/>
    <nd ref="124240502"/>
    <nd ref="30760209"/>
    <nd ref="60002820"/>
    <nd ref="53178566"/>
    <nd ref="30760210"/>
    <nd ref="60002811"/>
    <nd ref="30760211"/>
    <tag k="highway" v="trunk"/>
    <tag k="lanes" v="3"/>
    <tag k="maxspeed" v="40 mph"/>
    <tag k="name" v="Aurora Avenue North"/>
    <tag k="oneway" v="yes"/>
    <tag k="ref" v="WA 99"/>
  </way>
  <way id="52840093" version="4" timestamp="2010-06-02T17:51:01Z" uid="282329" user="compdude" changeset="4886227">
    <nd ref="60002835"/>
    <nd ref="134057741"/>
    <nd ref="134057653"/>
    <nd ref="385666259"/>
    <nd ref="30760206"/>
    <nd ref="30760207"/>
    <nd ref="60002828"/>
    <nd ref="60002822"/>
    <nd ref="30760208"/>
    <nd ref="124240502"/>
    <nd ref="30760209"/>
    <tag k="highway" v="trunk"/>
    <tag k="lanes" v="3"/>
    <tag k="maxspeed" v="40 mph"/>
    <tag k="name" v="Aurora Avenue North"/>
    <tag k="oneway" v="yes"/>
    <tag k="ref" v="WA 99"/>
  </way>
  <way id="52840093" version="5" timestamp="2011-09-17T06:25:01Z" uid="523306" user="Meterpig" changeset="9321295">
    <nd ref="60002835"/>
    <nd ref="134057741"/>
    <nd ref="134057653"/>
    <nd ref="385666259"/>
    <nd ref="30760206"/>
    <nd ref="1435156755"/>
    <nd ref="30760207"/>
    <nd ref="60002828"/>
    <nd ref="60002822"/>
    <nd ref="30760208"/>
    <nd ref="124240502"/>
    <nd ref="30760209"/>
    <tag k="highway" v="trunk"/>
    <tag k="lanes" v="3"/>
    <tag k="maxspeed" v="40 mph"/>
    <tag k="name" v="Aurora Avenue North"/>
    <tag k="oneway" v="yes"/>
    <tag k="ref" v="WA 99"/>
  </way>
  <way id="52840093" version="6" timestamp="2012-03-25T03:06:52Z" uid="38533" user="LucasLarson" changeset="11090899">
    <nd ref="60002835"/>
    <nd ref="134057741"/>
    <nd ref="134057653"/>
    <nd ref="385666259"/>
    <nd ref="30760206"/>
    <nd ref="1435156755"/>
    <nd ref="30760207"/>
    <nd ref="60002828"/>
    <nd ref="1689832780"/>
    <nd ref="60002822"/>
    <nd ref="30760208"/>
    <nd ref="124240502"/>
    <nd ref="30760209"/>
    <tag k="highway" v="trunk"/>
    <tag k="lanes" v="3"/>
    <tag k="maxspeed" v="40 mph"/>
    <tag k="name" v="Aurora Avenue North"/>
    <tag k="oneway" v="yes"/>
    <tag k="ref" v="WA 99"/>
  </way>
  <way id="52840106" version="3" timestamp="2010-04-02T17:58:54Z" uid="20587" user="balrog-kun" changeset="4304500">
    <nd ref="60002783"/>
    <nd ref="670081609"/>
    <nd ref="60412697"/>
    <nd ref="670081608"/>
    <nd ref="60002786"/>
    <nd ref="670081607"/>
    <nd ref="60002788"/>
    <nd ref="60002791"/>
    <nd ref="670081603"/>
    <nd ref="437607824"/>
    <nd ref="670081605"/>
    <nd ref="437607823"/>
    <nd ref="60002795"/>
    <nd ref="670081599"/>
    <nd ref="31394314"/>
    <nd ref="670081598"/>
    <nd ref="53178611"/>
    <nd ref="670081594"/>
    <nd ref="60002797"/>
    <nd ref="670081595"/>
    <nd ref="60002798"/>
    <nd ref="60002801"/>
    <nd ref="60412085"/>
    <nd ref="60002802"/>
    <tag k="highway" v="primary"/>
    <tag k="lanes" v="2"/>
    <tag k="maxspeed" v="48.280"/>
    <tag k="name" v="Aurora Avenue North"/>
    <tag k="oneway" v="yes"/>
    <tag k="ref" v="WA 99"/>
  </way>
  <way id="52840106" version="4" timestamp="2010-05-30T20:26:11Z" uid="121241" user="zephyr" changeset="4857034">
    <nd ref="60002783"/>
    <nd ref="670081609"/>
    <nd ref="60412697"/>
    <nd ref="670081608"/>
    <nd ref="60002786"/>
    <nd ref="670081607"/>
    <nd ref="60002788"/>
    <nd ref="60002791"/>
    <nd ref="670081603"/>
    <nd ref="437607824"/>
    <nd ref="670081605"/>
    <nd ref="437607823"/>
    <nd ref="60002795"/>
    <nd ref="670081599"/>
    <nd ref="31394314"/>
    <tag k="highway" v="primary"/>
    <tag k="lanes" v="2"/>
    <tag k="maxspeed" v="30 mph"/>
    <tag k="name" v="Aurora Avenue North"/>
    <tag k="oneway" v="yes"/>
    <tag k="ref" v="WA 99"/>
  </way>
  <way id="52840106" version="5" timestamp="2010-07-04T14:30:15Z" uid="103253" user="gormur" changeset="5133388">
    <nd ref="800532344"/>
    <nd ref="670081609"/>
    <nd ref="60412697"/>
    <nd ref="670081608"/>
    <nd ref="800532308"/>
    <nd ref="670081607"/>
    <nd ref="60002788"/>
    <nd ref="60002791"/>
    <nd ref="670081603"/>
    <nd ref="800532251"/>
    <nd ref="670081605"/>
    <nd ref="437607823"/>
    <nd ref="60002795"/>
    <nd ref="670081599"/>
    <nd ref="800532425"/>
    <tag k="highway" v="primary"/>
    <tag k="lanes" v="2"/>
    <tag k="maxspeed" v="30 mph"/>
    <tag k="name" v="Aurora Avenue North"/>
    <tag k="oneway" v="yes"/>
    <tag k="ref" v="WA 99"/>
  </way>
  <way id="52840106" version="6" timestamp="2010-07-10T00:56:39Z" uid="121241" user="zephyr" changeset="5178388">
    <nd ref="60002783"/>
    <nd ref="670081609"/>
    <nd ref="60412697"/>
    <nd ref="670081608"/>
    <nd ref="60002786"/>
    <nd ref="670081607"/>
    <nd ref="60002788"/>
    <nd ref="60002791"/>
    <nd ref="670081603"/>
    <nd ref="437607824"/>
    <nd ref="670081605"/>
    <nd ref="437607823"/>
    <nd ref="60002795"/>
    <nd ref="670081599"/>
    <nd ref="31394314"/>
    <tag k="highway" v="primary"/>
    <tag k="lanes" v="2"/>
    <tag k="maxspeed" v="30 mph"/>
    <tag k="name" v="Aurora Avenue North"/>
    <tag k="oneway" v="yes"/>
    <tag k="ref" v="WA 99"/>
  </way>
  <way id="52840106" version="7" timestamp="2011-03-14T03:31:27Z" uid="121241" user="zephyr" changeset="7552642">
    <nd ref="60002783"/>
    <nd ref="670081609"/>
    <nd ref="60412697"/>
    <nd ref="1201238853"/>
    <nd ref="670081608"/>
    <nd ref="60002786"/>
    <nd ref="670081607"/>
    <nd ref="60002788"/>
    <nd ref="60002791"/>
    <nd ref="670081603"/>
    <nd ref="437607824"/>
    <nd ref="670081605"/>
    <nd ref="437607823"/>
    <nd ref="60002795"/>
    <nd ref="670081599"/>
    <nd ref="31394314"/>
    <tag k="highway" v="primary"/>
    <tag k="lanes" v="2"/>
    <tag k="maxspeed" v="30 mph"/>
    <tag k="name" v="Aurora Avenue North"/>
    <tag k="oneway" v="yes"/>
    <tag k="ref" v="WA 99"/>
  </way>
  <way id="52840106" version="8" timestamp="2011-09-05T20:58:07Z" uid="92286" user="Paul Johnson" changeset="9222229">
    <nd ref="670081609"/>
    <nd ref="60412697"/>
    <nd ref="1201238853"/>
    <nd ref="1424516559"/>
    <nd ref="60002788"/>
    <nd ref="60002791"/>
    <nd ref="1424516592"/>
    <nd ref="437607823"/>
    <nd ref="60002795"/>
    <nd ref="670081598"/>
    <tag k="highway" v="primary"/>
    <tag k="lanes" v="2"/>
    <tag k="maxspeed" v="30 mph"/>
    <tag k="name" v="Aurora Avenue North"/>
    <tag k="oneway" v="yes"/>
    <tag k="ref" v="WA 99"/>
  </way>
  <way id="52840110" version="3" timestamp="2010-04-02T17:58:54Z" uid="20587" user="balrog-kun" changeset="4304500">
    <nd ref="670072065"/>
    <nd ref="30759493"/>
    <nd ref="30759494"/>
    <nd ref="30759495"/>
    <nd ref="30759496"/>
    <nd ref="30759497"/>
    <nd ref="88468863"/>
    <nd ref="53090363"/>
    <nd ref="670081611"/>
    <nd ref="60002781"/>
    <nd ref="670081612"/>
    <nd ref="60002785"/>
    <nd ref="670081610"/>
    <nd ref="60002783"/>
    <tag k="highway" v="primary"/>
    <tag k="lanes" v="3"/>
    <tag k="maxspeed" v="48.280"/>
    <tag k="name" v="Aurora Avenue North"/>
    <tag k="oneway" v="yes"/>
    <tag k="ref" v="WA 99"/>
  </way>
  <way id="52840110" version="4" timestamp="2010-05-30T20:25:48Z" uid="121241" user="zephyr" changeset="4857034">
    <nd ref="670072065"/>
    <nd ref="30759493"/>
    <nd ref="30759494"/>
    <nd ref="30759495"/>
    <nd ref="30759496"/>
    <nd ref="30759497"/>
    <nd ref="88468863"/>
    <nd ref="53090363"/>
    <nd ref="670081611"/>
    <nd ref="60002781"/>
    <nd ref="670081612"/>
    <nd ref="60002785"/>
    <nd ref="670081610"/>
    <nd ref="60002783"/>
    <tag k="highway" v="primary"/>
    <tag k="lanes" v="3"/>
    <tag k="maxspeed" v="30 mph"/>
    <tag k="name" v="Aurora Avenue North"/>
    <tag k="oneway" v="yes"/>
    <tag k="ref" v="WA 99"/>
  </way>
  <way id="52840110" version="5" timestamp="2010-06-03T17:38:51Z" uid="282329" user="compdude" changeset="4894489">
    <nd ref="670072065"/>
    <nd ref="30759493"/>
    <nd ref="30759494"/>
    <nd ref="30759495"/>
    <nd ref="30759496"/>
    <nd ref="30759497"/>
    <nd ref="88468863"/>
    <nd ref="53090363"/>
    <nd ref="670081611"/>
    <nd ref="60002781"/>
    <tag k="highway" v="trunk"/>
    <tag k="lanes" v="3"/>
    <tag k="maxspeed" v="30 mph"/>
    <tag k="name" v="Aurora Avenue North"/>
    <tag k="oneway" v="yes"/>
    <tag k="ref" v="WA 99"/>
  </way>
  <way id="52840110" version="6" timestamp="2010-07-04T14:30:00Z" uid="103253" user="gormur" changeset="5133388">
    <nd ref="670072065"/>
    <nd ref="30759493"/>
    <nd ref="30759494"/>
    <nd ref="30759495"/>
    <nd ref="30759496"/>
    <nd ref="30759497"/>
    <nd ref="88468863"/>
    <nd ref="53090363"/>
    <nd ref="670081611"/>
    <nd ref="800532113"/>
    <tag k="highway" v="trunk"/>
    <tag k="lanes" v="3"/>
    <tag k="maxspeed" v="30 mph"/>
    <tag k="name" v="Aurora Avenue North"/>
    <tag k="oneway" v="yes"/>
    <tag k="ref" v="WA 99"/>
  </way>
  <way id="52840110" version="7" timestamp="2010-07-10T00:56:45Z" uid="121241" user="zephyr" changeset="5178388">
    <nd ref="670072065"/>
    <nd ref="30759493"/>
    <nd ref="30759494"/>
    <nd ref="30759495"/>
    <nd ref="30759496"/>
    <nd ref="30759497"/>
    <nd ref="88468863"/>
    <nd ref="53090363"/>
    <nd ref="670081611"/>
    <nd ref="60002781"/>
    <tag k="highway" v="trunk"/>
    <tag k="lanes" v="3"/>
    <tag k="maxspeed" v="30 mph"/>
    <tag k="name" v="Aurora Avenue North"/>
    <tag k="oneway" v="yes"/>
    <tag k="ref" v="WA 99"/>
  </way>
  <way id="52840110" version="8" timestamp="2011-09-05T20:58:13Z" uid="92286" user="Paul Johnson" changeset="9222229">
    <nd ref="670072065"/>
    <nd ref="30759493"/>
    <nd ref="30759494"/>
    <nd ref="30759495"/>
    <nd ref="30759496"/>
    <nd ref="30759497"/>
    <nd ref="88468863"/>
    <nd ref="53090363"/>
    <nd ref="670081611"/>
    <tag k="highway" v="trunk"/>
    <tag k="lanes" v="3"/>
    <tag k="maxspeed" v="30 mph"/>
    <tag k="name" v="Aurora Avenue North"/>
    <tag k="oneway" v="yes"/>
    <tag k="ref" v="WA 99"/>
  </way>
  <way id="52840112" version="2" timestamp="2010-04-02T17:58:55Z" uid="20587" user="balrog-kun" changeset="4304500">
    <nd ref="53178594"/>
    <nd ref="415817601"/>
    <nd ref="53178592"/>
    <nd ref="30759909"/>
    <nd ref="30759910"/>
    <nd ref="30759912"/>
    <nd ref="53066363"/>
    <nd ref="31394530"/>
    <nd ref="30759915"/>
    <nd ref="31394531"/>
    <nd ref="30759916"/>
    <nd ref="60000633"/>
    <tag k="highway" v="trunk"/>
    <tag k="name" v="Aurora Avenue North"/>
    <tag k="oneway" v="yes"/>
    <tag k="ref" v="WA 99"/>
  </way>
  <way id="52840112" version="3" timestamp="2010-05-30T20:26:09Z" uid="121241" user="zephyr" changeset="4857034">
    <nd ref="53178594"/>
    <nd ref="415817601"/>
    <nd ref="53178592"/>
    <nd ref="30759909"/>
    <nd ref="30759910"/>
    <nd ref="30759912"/>
    <nd ref="53066363"/>
    <nd ref="31394530"/>
    <nd ref="30759915"/>
    <tag k="highway" v="trunk"/>
    <tag k="maxspeed" v="40 mph"/>
    <tag k="name" v="Aurora Avenue North"/>
    <tag k="oneway" v="yes"/>
    <tag k="ref" v="WA 99"/>
  </way>
  <way id="52840112" version="4" timestamp="2011-06-23T02:07:37Z" uid="473471" user="NE3" changeset="8520254">
    <nd ref="53178594"/>
    <nd ref="415817601"/>
    <nd ref="53178592"/>
    <nd ref="30759909"/>
    <nd ref="30759910"/>
    <nd ref="30759912"/>
    <nd ref="53066363"/>
    <nd ref="31394530"/>
    <nd ref="30759915"/>
    <tag k="highway" v="trunk"/>
    <tag k="lanes" v="3"/>
    <tag k="maxspeed" v="40 mph"/>
    <tag k="name" v="Aurora Avenue North"/>
    <tag k="oneway" v="yes"/>
    <tag k="ref" v="WA 99"/>
  </way>
  <way id="52840510" version="1" timestamp="2010-03-19T23:24:13Z" uid="244897" user="M526244" changeset="4175536">
    <nd ref="670073913"/>
    <nd ref="670073915"/>
    <nd ref="670073917"/>
    <nd ref="670073918"/>
    <nd ref="670073919"/>
    <nd ref="670073922"/>
    <nd ref="670073924"/>
    <nd ref="670073926"/>
    <nd ref="670073927"/>
    <nd ref="670073929"/>
    <nd ref="670073931"/>
    <nd ref="670073933"/>
    <nd ref="670073934"/>
    <nd ref="670073935"/>
    <nd ref="670073936"/>
    <nd ref="670073937"/>
    <nd ref="670073913"/>
    <tag k="natural" v="island;riverside"/>
  </way>
  <way id="52840510" version="2" timestamp="2010-03-19T23:24:28Z" uid="244897" user="M526244" changeset="4175536">
    <nd ref="670073913"/>
    <nd ref="670073915"/>
    <nd ref="670073917"/>
    <nd ref="670073918"/>
    <nd ref="670073919"/>
    <nd ref="670073922"/>
    <nd ref="670073924"/>
    <nd ref="670073926"/>
    <nd ref="670073927"/>
    <nd ref="670073929"/>
    <nd ref="670073931"/>
    <nd ref="670073933"/>
    <nd ref="670073934"/>
    <nd ref="670073935"/>
    <nd ref="670073936"/>
    <nd ref="670073937"/>
    <nd ref="670073913"/>
    <tag k="natural" v="island;riverside"/>
    <tag k="source" v="nearmap"/>
  </way>
  <way id="52840083" version="4" timestamp="2012-07-30T05:11:18Z" uid="207745" user="NE2" changeset="12543168">
    <nd ref="30760205"/>
    <nd ref="60002848"/>
    <nd ref="60002846"/>
    <nd ref="53014681"/>
    <tag k="highway" v="trunk"/>
    <tag k="lanes" v="4"/>
    <tag k="maxspeed" v="40 mph"/>
    <tag k="name" v="Aurora Avenue North"/>
    <tag k="oneway" v="yes"/>
    <tag k="ref" v="WA 99"/>
  </way>
  <way id="52840083" version="5" timestamp="2012-07-30T05:18:19Z" uid="207745" user="NE2" changeset="12543168">
    <nd ref="30760205"/>
    <nd ref="60002848"/>
    <nd ref="60002846"/>
    <nd ref="53014681"/>
    <tag k="highway" v="trunk"/>
    <tag k="lanes" v="4"/>
    <tag k="maxspeed" v="40 mph"/>
    <tag k="name" v="Aurora Avenue North"/>
    <tag k="old_ref" v="US 99"/>
    <tag k="oneway" v="yes"/>
    <tag k="ref" v="WA 99"/>
  </way>
  <way id="52840083" version="6" timestamp="2012-08-01T03:12:04Z" uid="53479" user="bdp" changeset="12569316">
    <nd ref="30760205"/>
    <nd ref="1846318049"/>
    <nd ref="60002848"/>
    <nd ref="1846318070"/>
    <nd ref="1846318068"/>
    <nd ref="60002846"/>
    <nd ref="53014681"/>
    <tag k="highway" v="trunk"/>
    <tag k="lanes" v="4"/>
    <tag k="maxspeed" v="40 mph"/>
    <tag k="name" v="Aurora Avenue North"/>
    <tag k="old_ref" v="US 99"/>
    <tag k="oneway" v="yes"/>
    <tag k="ref" v="WA 99"/>
  </way>
  <way id="52840093" version="7" timestamp="2012-07-30T05:18:06Z" uid="207745" user="NE2" changeset="12543168">
    <nd ref="60002835"/>
    <nd ref="134057741"/>
    <nd ref="134057653"/>
    <nd ref="385666259"/>
    <nd ref="30760206"/>
    <nd ref="1435156755"/>
    <nd ref="30760207"/>
    <nd ref="60002828"/>
    <nd ref="1689832780"/>
    <nd ref="60002822"/>
    <nd ref="30760208"/>
    <nd ref="124240502"/>
    <nd ref="30760209"/>
    <tag k="highway" v="trunk"/>
    <tag k="lanes" v="3"/>
    <tag k="maxspeed" v="40 mph"/>
    <tag k="name" v="Aurora Avenue North"/>
    <tag k="old_ref" v="US 99"/>
    <tag k="oneway" v="yes"/>
    <tag k="ref" v="WA 99"/>
  </way>
  <way id="52840106" version="9" timestamp="2012-07-30T05:18:03Z" uid="207745" user="NE2" changeset="12543168">
    <nd ref="670081609"/>
    <nd ref="60412697"/>
    <nd ref="1201238853"/>
    <nd ref="1424516559"/>
    <nd ref="60002788"/>
    <nd ref="60002791"/>
    <nd ref="1424516592"/>
    <nd ref="437607823"/>
    <nd ref="60002795"/>
    <nd ref="670081598"/>
    <tag k="highway" v="primary"/>
    <tag k="lanes" v="2"/>
    <tag k="maxspeed" v="30 mph"/>
    <tag k="name" v="Aurora Avenue North"/>
    <tag k="old_ref" v="US 99"/>
    <tag k="oneway" v="yes"/>
    <tag k="ref" v="WA 99"/>
  </way>
  <way id="52840110" version="9" timestamp="2012-07-30T05:18:27Z" uid="207745" user="NE2" changeset="12543168">
    <nd ref="670072065"/>
    <nd ref="30759493"/>
    <nd ref="30759494"/>
    <nd ref="30759495"/>
    <nd ref="30759496"/>
    <nd ref="30759497"/>
    <nd ref="88468863"/>
    <nd ref="53090363"/>
    <nd ref="670081611"/>
    <tag k="highway" v="trunk"/>
    <tag k="lanes" v="3"/>
    <tag k="maxspeed" v="30 mph"/>
    <tag k="name" v="Aurora Avenue North"/>
    <tag k="old_ref" v="US 99"/>
    <tag k="oneway" v="yes"/>
    <tag k="ref" v="WA 99"/>
  </way>
  <way id="52840112" version="5" timestamp="2012-07-22T16:10:15Z" uid="38533" user="LucasLarson" changeset="12435184">
    <nd ref="53178594"/>
    <nd ref="415817601"/>
    <nd ref="53178592"/>
    <nd ref="30759909"/>
    <nd ref="30759910"/>
    <nd ref="30759912"/>
    <nd ref="53066363"/>
    <nd ref="31394530"/>
    <nd ref="30759915"/>
    <nd ref="31394531"/>
    <nd ref="30759916"/>
    <nd ref="1811910570"/>
    <nd ref="60000633"/>
    <tag k="highway" v="trunk"/>
    <tag k="lanes" v="3"/>
    <tag k="maxspeed" v="40 mph"/>
    <tag k="name" v="Aurora Avenue North"/>
    <tag k="oneway" v="yes"/>
    <tag k="ref" v="WA 99"/>
  </way>
  <way id="52840112" version="6" timestamp="2012-07-30T05:18:07Z" uid="207745" user="NE2" changeset="12543168">
    <nd ref="53178594"/>
    <nd ref="415817601"/>
    <nd ref="53178592"/>
    <nd ref="30759909"/>
    <nd ref="30759910"/>
    <nd ref="30759912"/>
    <nd ref="53066363"/>
    <nd ref="31394530"/>
    <nd ref="30759915"/>
    <nd ref="31394531"/>
    <nd ref="30759916"/>
    <nd ref="1811910570"/>
    <nd ref="60000633"/>
    <tag k="highway" v="trunk"/>
    <tag k="lanes" v="3"/>
    <tag k="maxspeed" v="40 mph"/>
    <tag k="name" v="Aurora Avenue North"/>
    <tag k="old_ref" v="US 99"/>
    <tag k="oneway" v="yes"/>
    <tag k="ref" v="WA 99"/>
  </way>
  <way id="52840510" version="3" timestamp="2012-07-19T12:40:38Z" uid="722137" user="OSMF Redaction Account" changeset="12326002"/>
</osm>
