<?xml version='1.0' encoding='UTF-8'?>
<osm version="0.6" generator="libosmium/2.20.0">
  <way id="52886304" version="3" timestamp="2010-08-17T08:01:03Z" uid="4467" user="Rosscoe" changeset="5515324"/>
  <way id="52886308" version="4" timestamp="2010-08-17T08:00:34Z" uid="4467" user="Rosscoe" changeset="5515324">
    <nd ref="452352296"/>
    <nd ref="452352275"/>
    <nd ref="452352301"/>
    <tag k="highway" v="primary_link"/>
    <tag k="oneway" v="yes"/>
  </way>
  <way id="52886561" version="2" timestamp="2010-07-09T07:50:40Z" uid="74617" user="JohnSmith" changeset="5171569">
    <nd ref="670407107"/>
    <nd ref="670407113"/>
    <tag k="highway" v="residential"/>
    <tag k="maxspeed" v="50"/>
    <tag k="maxspeed:source" v="default residential speed limit in Australia"/>
    <tag k="name" v="Denver Close"/>
    <tag k="source" v="survey"/>
  </way>
  <way id="52886561" version="3" timestamp="2012-01-20T04:20:40Z" uid="147510" user="woodpeck_fixbot" changeset="10442986">
    <nd ref="670407107"/>
    <nd ref="670407113"/>
    <tag k="highway" v="residential"/>
    <tag k="name" v="Denver Close"/>
    <tag k="source" v="survey"/>
  </way>
  <way id="52886562" version="2" timestamp="2010-07-09T07:46:16Z" uid="74617" user="JohnSmith" changeset="5171569">
    <nd ref="670407108"/>
    <nd ref="670407116"/>
    <nd ref="670407117"/>
    <nd ref="670407118"/>
    <nd ref="670407119"/>
    <nd ref="670407120"/>
    <nd ref="670407122"/>
    <nd ref="670407123"/>
    <nd ref="670407124"/>
    <nd ref="670407105"/>
    <tag k="highway" v="residential"/>
    <tag k="maxspeed" v="50"/>
    <tag k="maxspeed:source" v="default residential speed limit in Australia"/>
    <tag k="name" v="Scottsdale Circuit"/>
    <tag k="source" v="survey"/>
  </way>
  <way id="52886562" version="3" timestamp="2012-01-20T04:20:42Z" uid="147510" user="woodpeck_fixbot" changeset="10442986">
    <nd ref="670407108"/>
    <nd ref="670407116"/>
    <nd ref="670407117"/>
    <nd ref="670407118"/>
    <nd ref="670407119"/>
    <nd ref="670407120"/>
    <nd ref="670407122"/>
    <nd ref="670407123"/>
    <nd ref="670407124"/>
    <nd ref="670407105"/>
    <tag k="highway" v="residential"/>
    <tag k="name" v="Scottsdale Circuit"/>
    <tag k="source" v="survey"/>
  </way>
  <way id="52886563" version="3" timestamp="2010-07-09T07:43:34Z" uid="74617" user="JohnSmith" changeset="5171569">
    <nd ref="423929448"/>
    <nd ref="670436534"/>
    <nd ref="423929449"/>
    <nd ref="423929451"/>
    <nd ref="423929453"/>
    <tag k="highway" v="residential"/>
    <tag k="maxspeed" v="50"/>
    <tag k="maxspeed:source" v="default residential speed limit in Australia"/>
    <tag k="name" v="Grecian Lane"/>
    <tag k="source" v="survey"/>
  </way>
  <way id="52886563" version="4" timestamp="2012-01-20T04:20:43Z" uid="147510" user="woodpeck_fixbot" changeset="10442986">
    <nd ref="423929448"/>
    <nd ref="670436534"/>
    <nd ref="423929449"/>
    <nd ref="423929451"/>
    <nd ref="423929453"/>
    <tag k="highway" v="residential"/>
    <tag k="name" v="Grecian Lane"/>
    <tag k="source" v="survey"/>
  </way>
  <way id="52886564" version="2" timestamp="2010-07-09T07:54:03Z" uid="74617" user="JohnSmith" changeset="5171569">
    <nd ref="423929453"/>
    <nd ref="423929472"/>
    <nd ref="423929473"/>
    <nd ref="423929475"/>
    <nd ref="423929476"/>
    <nd ref="423929477"/>
    <nd ref="423929478"/>
    <nd ref="423929441"/>
    <nd ref="423929479"/>
    <nd ref="423929481"/>
    <nd ref="423929399"/>
    <tag k="highway" v="residential"/>
    <tag k="maxspeed" v="50"/>
    <tag k="maxspeed:source" v="default residential speed limit in Australia"/>
    <tag k="name" v="Shalimar Rise"/>
    <tag k="source" v="survey"/>
  </way>
  <way id="52886564" version="3" timestamp="2012-01-20T04:20:47Z" uid="147510" user="woodpeck_fixbot" changeset="10442986">
    <nd ref="423929453"/>
    <nd ref="423929472"/>
    <nd ref="423929473"/>
    <nd ref="423929475"/>
    <nd ref="423929476"/>
    <nd ref="423929477"/>
    <nd ref="423929478"/>
    <nd ref="423929441"/>
    <nd ref="423929479"/>
    <nd ref="423929481"/>
    <nd ref="423929399"/>
    <tag k="highway" v="residential"/>
    <tag k="name" v="Shalimar Rise"/>
    <tag k="source" v="survey"/>
  </way>
  <way id="52886565" version="2" timestamp="2010-07-09T07:52:02Z" uid="74617" user="JohnSmith" changeset="5171569">
    <nd ref="423929476"/>
    <nd ref="670407125"/>
    <tag k="highway" v="residential"/>
    <tag k="maxspeed" v="50"/>
    <tag k="maxspeed:source" v="default residential speed limit in Australia"/>
    <tag k="name" v="Shalimar Rise"/>
    <tag k="source" v="survey"/>
  </way>
  <way id="52886565" version="3" timestamp="2012-01-20T04:20:48Z" uid="147510" user="woodpeck_fixbot" changeset="10442986">
    <nd ref="423929476"/>
    <nd ref="670407125"/>
    <tag k="highway" v="residential"/>
    <tag k="name" v="Shalimar Rise"/>
    <tag k="source" v="survey"/>
  </way>
  <way id="52886566" version="2" timestamp="2010-07-09T07:48:11Z" uid="74617" user="JohnSmith" changeset="5171569">
    <nd ref="423929495"/>
    <nd ref="670407128"/>
    <tag k="highway" v="residential"/>
    <tag k="maxspeed" v="50"/>
    <tag k="maxspeed:source" v="default residential speed limit in Australia"/>
    <tag k="name" v="Guardian Loop"/>
    <tag k="source" v="survey"/>
  </way>
  <way id="52886566" version="3" timestamp="2012-01-20T04:20:49Z" uid="147510" user="woodpeck_fixbot" changeset="10442986">
    <nd ref="423929495"/>
    <nd ref="670407128"/>
    <tag k="highway" v="residential"/>
    <tag k="name" v="Guardian Loop"/>
    <tag k="source" v="survey"/>
  </way>
  <way id="52886568" version="3" timestamp="2010-07-09T07:44:50Z" uid="74617" user="JohnSmith" changeset="5171569">
    <nd ref="423929462"/>
    <nd ref="670436537"/>
    <nd ref="423929463"/>
    <nd ref="423929464"/>
    <nd ref="423929465"/>
    <nd ref="423929469"/>
    <nd ref="423929470"/>
    <nd ref="423929453"/>
    <tag k="highway" v="residential"/>
    <tag k="maxspeed" v="50"/>
    <tag k="maxspeed:source" v="default residential speed limit in Australia"/>
    <tag k="name" v="Taroona Lane"/>
    <tag k="source" v="survey"/>
  </way>
  <way id="52886568" version="4" timestamp="2012-01-20T04:20:51Z" uid="147510" user="woodpeck_fixbot" changeset="10442986">
    <nd ref="423929462"/>
    <nd ref="670436537"/>
    <nd ref="423929463"/>
    <nd ref="423929464"/>
    <nd ref="423929465"/>
    <nd ref="423929469"/>
    <nd ref="423929470"/>
    <nd ref="423929453"/>
    <tag k="highway" v="residential"/>
    <tag k="name" v="Taroona Lane"/>
    <tag k="source" v="survey"/>
  </way>
  <way id="52886569" version="3" timestamp="2010-07-09T07:53:33Z" uid="74617" user="JohnSmith" changeset="5171569">
    <nd ref="423929561"/>
    <nd ref="423929565"/>
    <nd ref="423929566"/>
    <nd ref="423929567"/>
    <nd ref="423929568"/>
    <nd ref="423929569"/>
    <nd ref="672126562"/>
    <nd ref="423929549"/>
    <nd ref="423929570"/>
    <nd ref="423929571"/>
    <tag k="highway" v="residential"/>
    <tag k="maxspeed" v="50"/>
    <tag k="maxspeed:source" v="default residential speed limit in Australia"/>
    <tag k="name" v="Aberfoyle Heights"/>
    <tag k="source" v="survey"/>
  </way>
  <way id="52886569" version="4" timestamp="2012-01-20T04:20:53Z" uid="147510" user="woodpeck_fixbot" changeset="10442986">
    <nd ref="423929561"/>
    <nd ref="423929565"/>
    <nd ref="423929566"/>
    <nd ref="423929567"/>
    <nd ref="423929568"/>
    <nd ref="423929569"/>
    <nd ref="672126562"/>
    <nd ref="423929549"/>
    <nd ref="423929570"/>
    <nd ref="423929571"/>
    <tag k="highway" v="residential"/>
    <tag k="name" v="Aberfoyle Heights"/>
    <tag k="source" v="survey"/>
  </way>
  <way id="52886570" version="2" timestamp="2010-07-09T07:49:57Z" uid="74617" user="JohnSmith" changeset="5171569">
    <nd ref="670407130"/>
    <nd ref="423929560"/>
    <nd ref="423929561"/>
    <tag k="highway" v="residential"/>
    <tag k="maxspeed" v="50"/>
    <tag k="maxspeed:source" v="default residential speed limit in Australia"/>
    <tag k="name" v="Bambra Lane"/>
    <tag k="source" v="survey"/>
  </way>
  <way id="52886570" version="3" timestamp="2012-01-20T04:20:54Z" uid="147510" user="woodpeck_fixbot" changeset="10442986">
    <nd ref="670407130"/>
    <nd ref="423929560"/>
    <nd ref="423929561"/>
    <tag k="highway" v="residential"/>
    <tag k="name" v="Bambra Lane"/>
    <tag k="source" v="survey"/>
  </way>
  <way id="52886573" version="3" timestamp="2010-07-09T07:44:05Z" uid="74617" user="JohnSmith" changeset="5171569">
    <nd ref="423929620"/>
    <nd ref="670436611"/>
    <nd ref="423929621"/>
    <tag k="highway" v="residential"/>
    <tag k="maxspeed" v="50"/>
    <tag k="maxspeed:source" v="default residential speed limit in Australia"/>
    <tag k="name" v="Meyrick Court"/>
    <tag k="source" v="survey"/>
  </way>
  <way id="52886573" version="4" timestamp="2012-01-20T04:20:56Z" uid="147510" user="woodpeck_fixbot" changeset="10442986">
    <nd ref="423929620"/>
    <nd ref="670436611"/>
    <nd ref="423929621"/>
    <tag k="highway" v="residential"/>
    <tag k="name" v="Meyrick Court"/>
    <tag k="source" v="survey"/>
  </way>
  <way id="52886575" version="3" timestamp="2010-07-09T07:49:14Z" uid="74617" user="JohnSmith" changeset="5171569">
    <nd ref="423929706"/>
    <nd ref="670407149"/>
    <nd ref="670443798"/>
    <tag k="highway" v="residential"/>
    <tag k="maxspeed" v="50"/>
    <tag k="maxspeed:source" v="default residential speed limit in Australia"/>
    <tag k="name" v="Ashburn Vista"/>
    <tag k="source" v="survey"/>
  </way>
  <way id="52886575" version="4" timestamp="2012-01-20T04:20:58Z" uid="147510" user="woodpeck_fixbot" changeset="10442986">
    <nd ref="423929706"/>
    <nd ref="670407149"/>
    <nd ref="670443798"/>
    <tag k="highway" v="residential"/>
    <tag k="name" v="Ashburn Vista"/>
    <tag k="source" v="survey"/>
  </way>
  <way id="52886577" version="2" timestamp="2010-07-09T07:43:04Z" uid="74617" user="JohnSmith" changeset="5171569">
    <nd ref="423929736"/>
    <nd ref="423929740"/>
    <nd ref="423929741"/>
    <nd ref="423929742"/>
    <tag k="highway" v="residential"/>
    <tag k="maxspeed" v="50"/>
    <tag k="maxspeed:source" v="default residential speed limit in Australia"/>
    <tag k="name" v="Otago Lane"/>
    <tag k="source" v="survey"/>
  </way>
  <way id="52886577" version="3" timestamp="2012-01-20T04:20:59Z" uid="147510" user="woodpeck_fixbot" changeset="10442986">
    <nd ref="423929736"/>
    <nd ref="423929740"/>
    <nd ref="423929741"/>
    <nd ref="423929742"/>
    <tag k="highway" v="residential"/>
    <tag k="name" v="Otago Lane"/>
    <tag k="source" v="survey"/>
  </way>
  <way id="52886578" version="3" timestamp="2010-07-09T07:50:54Z" uid="74617" user="JohnSmith" changeset="5171569">
    <nd ref="423929730"/>
    <nd ref="423929731"/>
    <nd ref="423929732"/>
    <nd ref="423929733"/>
    <nd ref="741122649"/>
    <nd ref="423929734"/>
    <tag k="highway" v="residential"/>
    <tag k="maxspeed" v="50"/>
    <tag k="maxspeed:source" v="default residential speed limit in Australia"/>
    <tag k="name" v="Tyneside Grove"/>
    <tag k="source" v="survey"/>
  </way>
  <way id="52886578" version="4" timestamp="2012-01-20T04:21:00Z" uid="147510" user="woodpeck_fixbot" changeset="10442986">
    <nd ref="423929730"/>
    <nd ref="423929731"/>
    <nd ref="423929732"/>
    <nd ref="423929733"/>
    <nd ref="741122649"/>
    <nd ref="423929734"/>
    <tag k="highway" v="residential"/>
    <tag k="name" v="Tyneside Grove"/>
    <tag k="source" v="survey"/>
  </way>
  <way id="52886581" version="3" timestamp="2010-07-09T07:45:09Z" uid="74617" user="JohnSmith" changeset="5171569">
    <nd ref="423929614"/>
    <nd ref="670407163"/>
    <nd ref="670436495"/>
    <tag k="highway" v="residential"/>
    <tag k="maxspeed" v="50"/>
    <tag k="maxspeed:source" v="default residential speed limit in Australia"/>
    <tag k="name" v="Oriana Place"/>
    <tag k="source" v="survey"/>
  </way>
  <way id="52886581" version="4" timestamp="2012-01-20T04:21:01Z" uid="147510" user="woodpeck_fixbot" changeset="10442986">
    <nd ref="423929614"/>
    <nd ref="670407163"/>
    <nd ref="670436495"/>
    <tag k="highway" v="residential"/>
    <tag k="name" v="Oriana Place"/>
    <tag k="source" v="survey"/>
  </way>
  <way id="52886582" version="3" timestamp="2010-07-09T07:52:17Z" uid="74617" user="JohnSmith" changeset="5171569">
    <nd ref="423929607"/>
    <nd ref="670436758"/>
    <nd ref="670436497"/>
    <tag k="highway" v="residential"/>
    <tag k="maxspeed" v="50"/>
    <tag k="maxspeed:source" v="default residential speed limit in Australia"/>
    <tag k="name" v="Bainbridge Mews"/>
    <tag k="source" v="survey"/>
  </way>
  <way id="52886582" version="4" timestamp="2012-01-20T04:21:03Z" uid="147510" user="woodpeck_fixbot" changeset="10442986">
    <nd ref="423929607"/>
    <nd ref="670436758"/>
    <nd ref="670436497"/>
    <tag k="highway" v="residential"/>
    <tag k="name" v="Bainbridge Mews"/>
    <tag k="source" v="survey"/>
  </way>
  <way id="52886848" version="3" timestamp="2011-04-20T12:57:24Z" uid="115477" user="wowik" changeset="7916018">
    <nd ref="670408653"/>
    <nd ref="670408654"/>
    <nd ref="670408649"/>
    <nd ref="670408454"/>
    <nd ref="670408455"/>
    <nd ref="670408460"/>
    <nd ref="670408453"/>
    <nd ref="670408456"/>
    <nd ref="670408472"/>
    <nd ref="670408662"/>
    <nd ref="670408664"/>
    <nd ref="670408659"/>
    <nd ref="670408646"/>
    <nd ref="670408645"/>
    <nd ref="670408650"/>
    <nd ref="670408653"/>
    <tag k="addr:city" v="Москва"/>
    <tag k="addr:country" v="RU"/>
    <tag k="addr:housenumber" v="15А"/>
    <tag k="addr:street" v="улица Большая Дмитровка"/>
    <tag k="building" v="yes"/>
    <tag k="cladr:code" v="77000000000716700"/>
  </way>
  <way id="52886850" version="5" timestamp="2011-04-20T12:57:01Z" uid="115477" user="wowik" changeset="7916018">
    <nd ref="670408472"/>
    <nd ref="670408480"/>
    <nd ref="670408477"/>
    <nd ref="670408473"/>
    <nd ref="670408474"/>
    <nd ref="670408663"/>
    <nd ref="670408662"/>
    <nd ref="670408472"/>
    <tag k="addr:city" v="Москва"/>
    <tag k="addr:country" v="RU"/>
    <tag k="addr:housenumber" v="10/15Б с4"/>
    <tag k="addr:housenumber2" v="15/10Б с4"/>
    <tag k="addr:street" v="Глинищевский переулок"/>
    <tag k="addr:street2" v="улица Большая Дмитровка"/>
    <tag k="building" v="yes"/>
    <tag k="cladr:code" v="77000000000703700"/>
  </way>
  <way id="52886852" version="4" timestamp="2011-04-20T12:57:49Z" uid="115477" user="wowik" changeset="7916018">
    <nd ref="670408398"/>
    <nd ref="670408389"/>
    <nd ref="670408373"/>
    <nd ref="670408370"/>
    <nd ref="670408398"/>
    <tag k="addr:city" v="Москва"/>
    <tag k="addr:country" v="RU"/>
    <tag k="addr:housenumber" v="10 с3"/>
    <tag k="addr:street" v="Тверская улица"/>
    <tag k="building" v="yes"/>
    <tag k="cladr:code" v="77000000000287700"/>
  </way>
  <way id="52886855" version="2" timestamp="2011-04-20T12:59:52Z" uid="115477" user="wowik" changeset="7916018">
    <nd ref="670408386"/>
    <nd ref="670408388"/>
    <nd ref="670408393"/>
    <nd ref="670408443"/>
    <nd ref="670408386"/>
    <tag k="addr:city" v="Москва"/>
    <tag k="addr:country" v="RU"/>
    <tag k="building" v="yes"/>
  </way>
  <way id="52886857" version="4" timestamp="2011-04-20T12:57:19Z" uid="115477" user="wowik" changeset="7916018">
    <nd ref="670408380"/>
    <nd ref="670408379"/>
    <nd ref="670408382"/>
    <nd ref="670408375"/>
    <nd ref="670408380"/>
    <tag k="addr:city" v="Москва"/>
    <tag k="addr:country" v="RU"/>
    <tag k="addr:housenumber" v="12 с6"/>
    <tag k="addr:street" v="Тверская улица"/>
    <tag k="building" v="yes"/>
    <tag k="cladr:code" v="77000000000287700"/>
  </way>
  <way id="52886858" version="4" timestamp="2011-04-20T12:57:56Z" uid="115477" user="wowik" changeset="7916018">
    <nd ref="670408446"/>
    <nd ref="670408457"/>
    <nd ref="670408459"/>
    <nd ref="670408458"/>
    <nd ref="670408444"/>
    <nd ref="670408445"/>
    <nd ref="670408446"/>
    <tag k="addr:city" v="Москва"/>
    <tag k="addr:country" v="RU"/>
    <tag k="addr:housenumber" v="8 с9"/>
    <tag k="addr:street" v="Глинищевский переулок"/>
    <tag k="building" v="yes"/>
    <tag k="cladr:code" v="77000000000703700"/>
  </way>
  <way id="52886861" version="2" timestamp="2011-04-20T12:59:54Z" uid="115477" user="wowik" changeset="7916018">
    <nd ref="670408390"/>
    <nd ref="670408397"/>
    <nd ref="670408413"/>
    <nd ref="670408408"/>
    <nd ref="670408399"/>
    <nd ref="670408401"/>
    <nd ref="670408390"/>
    <tag k="addr:city" v="Москва"/>
    <tag k="addr:country" v="RU"/>
    <tag k="building" v="yes"/>
  </way>
  <way id="52886862" version="2" timestamp="2011-04-20T12:59:38Z" uid="115477" user="wowik" changeset="7916018">
    <nd ref="670408401"/>
    <nd ref="670408399"/>
    <nd ref="670408408"/>
    <nd ref="670408410"/>
    <nd ref="670408409"/>
    <nd ref="670408400"/>
    <nd ref="670408401"/>
    <tag k="addr:city" v="Москва"/>
    <tag k="addr:country" v="RU"/>
    <tag k="building" v="yes"/>
  </way>
  <way id="52886866" version="3" timestamp="2011-04-20T12:57:33Z" uid="115477" user="wowik" changeset="7916018">
    <nd ref="670408412"/>
    <nd ref="670408411"/>
    <nd ref="670408391"/>
    <nd ref="670408428"/>
    <nd ref="670408427"/>
    <nd ref="670408423"/>
    <nd ref="670408429"/>
    <nd ref="670408431"/>
    <nd ref="670408430"/>
    <nd ref="670408433"/>
    <nd ref="670408432"/>
    <nd ref="670408425"/>
    <nd ref="670408422"/>
    <nd ref="670408426"/>
    <nd ref="670408392"/>
    <nd ref="670408412"/>
    <tag k="addr:city" v="Москва"/>
    <tag k="addr:country" v="RU"/>
    <tag k="addr:housenumber" v="3"/>
    <tag k="addr:street" v="Глинищевский переулок"/>
    <tag k="building" v="yes"/>
    <tag k="cladr:code" v="77000000000703700"/>
  </way>
  <way id="52886867" version="3" timestamp="2011-04-20T12:57:43Z" uid="115477" user="wowik" changeset="7916018">
    <nd ref="670408461"/>
    <nd ref="670408448"/>
    <nd ref="670408447"/>
    <nd ref="670408462"/>
    <nd ref="670408481"/>
    <nd ref="670408475"/>
    <nd ref="670408477"/>
    <nd ref="670408480"/>
    <nd ref="670408478"/>
    <nd ref="670408479"/>
    <nd ref="670408461"/>
    <tag k="addr:city" v="Москва"/>
    <tag k="addr:country" v="RU"/>
    <tag k="addr:housenumber" v="8"/>
    <tag k="addr:street" v="Глинищевский переулок"/>
    <tag k="building" v="yes"/>
    <tag k="cladr:code" v="77000000000703700"/>
  </way>
  <way id="52886883" version="2" timestamp="2011-04-20T12:59:42Z" uid="115477" user="wowik" changeset="7916018">
    <nd ref="670408637"/>
    <nd ref="670408638"/>
    <nd ref="670408640"/>
    <nd ref="670408641"/>
    <nd ref="670408637"/>
    <tag k="addr:city" v="Москва"/>
    <tag k="addr:country" v="RU"/>
    <tag k="building" v="yes"/>
  </way>
  <way id="52886883" version="3" timestamp="2011-12-27T14:37:06Z" uid="260756" user="Felis Pimeja" changeset="10216246">
    <nd ref="670408637"/>
    <nd ref="670408638"/>
    <nd ref="670408640"/>
    <nd ref="670408641"/>
    <nd ref="670408637"/>
  </way>
  <way id="52886884" version="2" timestamp="2011-04-20T13:00:01Z" uid="115477" user="wowik" changeset="7916018">
    <nd ref="353149075"/>
    <nd ref="670408643"/>
    <nd ref="670408644"/>
    <nd ref="670408642"/>
    <nd ref="353149075"/>
    <tag k="addr:city" v="Москва"/>
    <tag k="addr:country" v="RU"/>
    <tag k="building" v="yes"/>
  </way>
  <way id="52886885" version="4" timestamp="2011-04-20T12:56:58Z" uid="115477" user="wowik" changeset="7916018">
    <nd ref="670408647"/>
    <nd ref="670408655"/>
    <nd ref="670408656"/>
    <nd ref="670408648"/>
    <nd ref="670408647"/>
    <tag k="addr:city" v="Москва"/>
    <tag k="addr:country" v="RU"/>
    <tag k="addr:housenumber" v="15А с2"/>
    <tag k="addr:street" v="улица Большая Дмитровка"/>
    <tag k="building" v="yes"/>
    <tag k="cladr:code" v="77000000000716700"/>
  </way>
  <way id="52886886" version="4" timestamp="2011-04-20T12:57:36Z" uid="115477" user="wowik" changeset="7916018">
    <nd ref="670408681"/>
    <nd ref="670408683"/>
    <nd ref="670408682"/>
    <nd ref="670408657"/>
    <nd ref="670408681"/>
    <tag k="addr:city" v="Москва"/>
    <tag k="addr:country" v="RU"/>
    <tag k="addr:housenumber" v="15А с3"/>
    <tag k="addr:street" v="улица Большая Дмитровка"/>
    <tag k="building" v="yes"/>
    <tag k="cladr:code" v="77000000000716700"/>
  </way>
  <way id="52886888" version="2" timestamp="2011-04-20T12:59:40Z" uid="115477" user="wowik" changeset="7916018">
    <nd ref="670408650"/>
    <nd ref="670408651"/>
    <nd ref="670408652"/>
    <nd ref="670408653"/>
    <nd ref="670408650"/>
    <tag k="addr:city" v="Москва"/>
    <tag k="addr:country" v="RU"/>
    <tag k="building" v="yes"/>
  </way>
  <way id="52886848" version="4" timestamp="2012-07-20T11:57:48Z" uid="722137" user="OSMF Redaction Account" changeset="12374607">
    <nd ref="670408653"/>
    <nd ref="670408654"/>
    <nd ref="670408649"/>
    <nd ref="670408454"/>
    <nd ref="670408455"/>
    <nd ref="670408460"/>
    <nd ref="670408453"/>
    <nd ref="670408456"/>
    <nd ref="670408472"/>
    <nd ref="670408662"/>
    <nd ref="670408664"/>
    <nd ref="670408659"/>
    <nd ref="670408646"/>
    <nd ref="670408645"/>
    <nd ref="670408650"/>
    <nd ref="670408653"/>
    <tag k="addr:housenumber" v="15А"/>
    <tag k="addr:street" v="улица Большая Дмитровка"/>
    <tag k="building" v="yes"/>
    <tag k="cladr:code" v="77000000000716700"/>
  </way>
  <way id="52886850" version="6" timestamp="2012-07-20T11:57:55Z" uid="722137" user="OSMF Redaction Account" changeset="12374607">
    <nd ref="670408472"/>
    <nd ref="670408480"/>
    <nd ref="670408477"/>
    <nd ref="670408473"/>
    <nd ref="670408474"/>
    <nd ref="670408663"/>
    <nd ref="670408662"/>
    <nd ref="670408472"/>
    <tag k="addr:country" v="RU"/>
    <tag k="addr:housenumber" v="10/15Б с4"/>
    <tag k="addr:housenumber2" v="15/10Б с4"/>
    <tag k="addr:street" v="Глинищевский переулок"/>
    <tag k="addr:street2" v="улица Большая Дмитровка"/>
    <tag k="building" v="yes"/>
    <tag k="cladr:code" v="77000000000703700"/>
  </way>
  <way id="52886852" version="5" timestamp="2012-07-20T11:57:54Z" uid="722137" user="OSMF Redaction Account" changeset="12374607">
    <nd ref="670408398"/>
    <nd ref="670408389"/>
    <nd ref="670408373"/>
    <nd ref="670408370"/>
    <nd ref="670408398"/>
    <tag k="addr:housenumber" v="10 с3"/>
    <tag k="addr:street" v="Тверская улица"/>
    <tag k="building" v="yes"/>
    <tag k="cladr:code" v="77000000000287700"/>
  </way>
  <way id="52886855" version="3" timestamp="2012-07-20T11:57:28Z" uid="722137" user="OSMF Redaction Account" changeset="12374517">
    <nd ref="670408386"/>
    <nd ref="670408388"/>
    <nd ref="670408393"/>
    <nd ref="670408443"/>
    <nd ref="670408386"/>
    <tag k="building" v="yes"/>
  </way>
  <way id="52886857" version="5" timestamp="2012-07-20T11:57:54Z" uid="722137" user="OSMF Redaction Account" changeset="12374607">
    <nd ref="670408380"/>
    <nd ref="670408379"/>
    <nd ref="670408382"/>
    <nd ref="670408375"/>
    <nd ref="670408380"/>
    <tag k="addr:housenumber" v="12 с6"/>
    <tag k="addr:street" v="Тверская улица"/>
    <tag k="building" v="yes"/>
    <tag k="cladr:code" v="77000000000287700"/>
  </way>
  <way id="52886858" version="5" timestamp="2012-07-20T11:57:48Z" uid="722137" user="OSMF Redaction Account" changeset="12374607">
    <nd ref="670408446"/>
    <nd ref="670408457"/>
    <nd ref="670408459"/>
    <nd ref="670408458"/>
    <nd ref="670408444"/>
    <nd ref="670408445"/>
    <nd ref="670408446"/>
    <tag k="addr:housenumber" v="8 с9"/>
    <tag k="addr:street" v="Глинищевский переулок"/>
    <tag k="building" v="yes"/>
    <tag k="cladr:code" v="77000000000703700"/>
  </way>
  <way id="52886861" version="3" timestamp="2012-07-20T11:57:51Z" uid="722137" user="OSMF Redaction Account" changeset="12374607">
    <nd ref="670408390"/>
    <nd ref="670408397"/>
    <nd ref="670408413"/>
    <nd ref="670408408"/>
    <nd ref="670408399"/>
    <nd ref="670408401"/>
    <nd ref="670408390"/>
    <tag k="building" v="yes"/>
  </way>
  <way id="52886862" version="3" timestamp="2012-07-20T11:57:53Z" uid="722137" user="OSMF Redaction Account" changeset="12374607">
    <nd ref="670408401"/>
    <nd ref="670408399"/>
    <nd ref="670408408"/>
    <nd ref="670408410"/>
    <nd ref="670408409"/>
    <nd ref="670408400"/>
    <nd ref="670408401"/>
    <tag k="building" v="yes"/>
  </way>
  <way id="52886866" version="4" timestamp="2012-07-20T11:57:53Z" uid="722137" user="OSMF Redaction Account" changeset="12374607">
    <nd ref="670408412"/>
    <nd ref="670408411"/>
    <nd ref="670408391"/>
    <nd ref="670408428"/>
    <nd ref="670408427"/>
    <nd ref="670408423"/>
    <nd ref="670408429"/>
    <nd ref="670408431"/>
    <nd ref="670408430"/>
    <nd ref="670408433"/>
    <nd ref="670408432"/>
    <nd ref="670408425"/>
    <nd ref="670408422"/>
    <nd ref="670408426"/>
    <nd ref="670408392"/>
    <nd ref="670408412"/>
    <tag k="addr:housenumber" v="3"/>
    <tag k="addr:street" v="Глинищевский переулок"/>
    <tag k="building" v="yes"/>
    <tag k="cladr:code" v="77000000000703700"/>
  </way>
  <way id="52886867" version="4" timestamp="2012-07-20T11:57:55Z" uid="722137" user="OSMF Redaction Account" changeset="12374607">
    <nd ref="670408461"/>
    <nd ref="670408448"/>
    <nd ref="670408447"/>
    <nd ref="670408462"/>
    <nd ref="670408481"/>
    <nd ref="670408475"/>
    <nd ref="670408477"/>
    <nd ref="670408480"/>
    <nd ref="670408478"/>
    <nd ref="670408479"/>
    <nd ref="670408461"/>
    <tag k="addr:housenumber" v="8"/>
    <tag k="addr:street" v="Глинищевский переулок"/>
    <tag k="building" v="yes"/>
    <tag k="cladr:code" v="77000000000703700"/>
  </way>
  <way id="52886884" version="3" timestamp="2012-07-20T11:57:21Z" uid="722137" user="OSMF Redaction Account" changeset="12374517">
    <nd ref="353149075"/>
    <nd ref="670408643"/>
    <nd ref="670408644"/>
    <nd ref="670408642"/>
    <nd ref="353149075"/>
    <tag k="building" v="yes"/>
  </way>
  <way id="52886885" version="5" timestamp="2012-07-20T11:57:44Z" uid="722137" user="OSMF Redaction Account" changeset="12374607">
    <nd ref="670408647"/>
    <nd ref="670408655"/>
    <nd ref="670408656"/>
    <nd ref="670408648"/>
    <nd ref="670408647"/>
    <tag k="addr:housenumber" v="15А с2"/>
    <tag k="addr:street" v="улица Большая Дмитровка"/>
    <tag k="building" v="yes"/>
    <tag k="cladr:code" v="77000000000716700"/>
  </way>
  <way id="52886886" version="5" timestamp="2012-07-20T11:57:55Z" uid="722137" user="OSMF Redaction Account" changeset="12374607">
    <nd ref="670408681"/>
    <nd ref="670408683"/>
    <nd ref="670408682"/>
    <nd ref="670408657"/>
    <nd ref="670408681"/>
    <tag k="addr:housenumber" v="15А с3"/>
    <tag k="addr:street" v="улица Большая Дмитровка"/>
    <tag k="building" v="yes"/>
    <tag k="cladr:code" v="77000000000716700"/>
  </way>
  <way id="52886888" version="3" timestamp="2012-07-20T11:57:44Z" uid="722137" user="OSMF Redaction Account" changeset="12374607">
    <nd ref="670408650"/>
    <nd ref="670408651"/>
    <nd ref="670408652"/>
    <nd ref="670408653"/>
    <nd ref="670408650"/>
    <tag k="building" v="yes"/>
  </way>
</osm>
