<?xml version='1.0' encoding='UTF-8'?>
<osm version="0.6" generator="libosmium/2.20.0">
  <way id="52909817" version="4" timestamp="2011-04-20T11:26:55Z" uid="115477" user="wowik" changeset="7915253">
    <nd ref="670631375"/>
    <nd ref="670631658"/>
    <nd ref="670631661"/>
    <nd ref="670631660"/>
    <nd ref="670631655"/>
    <nd ref="670631653"/>
    <nd ref="670631375"/>
    <tag k="addr:city" v="Москва"/>
    <tag k="addr:country" v="RU"/>
    <tag k="addr:housenumber" v="24 с3"/>
    <tag k="addr:street" v="Малая Бронная улица"/>
    <tag k="building" v="yes"/>
    <tag k="cladr:code" v="77000000000090700"/>
  </way>
  <way id="52909818" version="4" timestamp="2011-04-20T11:26:09Z" uid="115477" user="wowik" changeset="7915253">
    <nd ref="670631522"/>
    <nd ref="670631523"/>
    <nd ref="670631380"/>
    <nd ref="670631381"/>
    <nd ref="670631665"/>
    <nd ref="670631382"/>
    <nd ref="670631664"/>
    <nd ref="670631376"/>
    <nd ref="670631378"/>
    <nd ref="670631379"/>
    <nd ref="670631522"/>
    <tag k="addr:city" v="Москва"/>
    <tag k="addr:country" v="RU"/>
    <tag k="addr:housenumber" v="17 с2"/>
    <tag k="addr:street" v="Большой Козихинский переулок"/>
    <tag k="building" v="yes"/>
    <tag k="cladr:code" v="77000000000703800"/>
  </way>
  <way id="52909819" version="4" timestamp="2011-04-20T11:26:27Z" uid="115477" user="wowik" changeset="7915253">
    <nd ref="670631378"/>
    <nd ref="670631376"/>
    <nd ref="670631663"/>
    <nd ref="670631377"/>
    <nd ref="670631383"/>
    <nd ref="670631378"/>
    <tag k="addr:city" v="Москва"/>
    <tag k="addr:country" v="RU"/>
    <tag k="addr:housenumber" v="26 с2"/>
    <tag k="addr:street" v="Малая Бронная улица"/>
    <tag k="building" v="yes"/>
    <tag k="cladr:code" v="77000000000090700"/>
  </way>
  <way id="52909820" version="3" timestamp="2011-04-20T11:25:36Z" uid="115477" user="wowik" changeset="7915253">
    <nd ref="670631333"/>
    <nd ref="670631334"/>
    <nd ref="670631646"/>
    <nd ref="670631332"/>
    <nd ref="670631636"/>
    <nd ref="670631637"/>
    <nd ref="670631644"/>
    <nd ref="670631645"/>
    <nd ref="670631641"/>
    <nd ref="670631642"/>
    <nd ref="670631640"/>
    <nd ref="670631635"/>
    <nd ref="670631633"/>
    <nd ref="670631632"/>
    <nd ref="670631639"/>
    <nd ref="670631631"/>
    <nd ref="670631331"/>
    <nd ref="670631333"/>
    <tag k="addr:city" v="Москва"/>
    <tag k="addr:country" v="RU"/>
    <tag k="addr:housenumber" v="22"/>
    <tag k="addr:street" v="Малая Бронная улица"/>
    <tag k="building" v="yes"/>
    <tag k="cladr:code" v="77000000000090700"/>
  </way>
  <way id="52909820" version="4" timestamp="2011-12-27T14:36:45Z" uid="260756" user="Felis Pimeja" changeset="10216246">
    <nd ref="670631333"/>
    <nd ref="670631334"/>
    <nd ref="670631646"/>
    <nd ref="670631332"/>
    <nd ref="670631636"/>
    <nd ref="670631637"/>
    <nd ref="670631644"/>
    <nd ref="670631645"/>
    <nd ref="670631641"/>
    <nd ref="670631642"/>
    <nd ref="670631640"/>
    <nd ref="670631635"/>
    <nd ref="670631633"/>
    <nd ref="1563601148"/>
    <nd ref="670502002"/>
    <nd ref="670631631"/>
    <nd ref="670631331"/>
    <nd ref="670631333"/>
    <tag k="addr:city" v="Москва"/>
    <tag k="addr:country" v="RU"/>
    <tag k="addr:housenumber" v="22"/>
    <tag k="addr:street" v="Малая Бронная улица"/>
    <tag k="building" v="yes"/>
    <tag k="cladr:code" v="77000000000090700"/>
  </way>
  <way id="52909820" version="5" timestamp="2012-03-19T22:02:01Z" uid="260756" user="Felis Pimeja" changeset="11035572">
    <nd ref="670631333"/>
    <nd ref="670631334"/>
    <nd ref="670631646"/>
    <nd ref="670631332"/>
    <nd ref="670631636"/>
    <nd ref="670631637"/>
    <nd ref="670631644"/>
    <nd ref="670631645"/>
    <nd ref="670631641"/>
    <nd ref="670631642"/>
    <nd ref="670631640"/>
    <nd ref="670631635"/>
    <nd ref="670631633"/>
    <nd ref="1563601148"/>
    <nd ref="670502002"/>
    <nd ref="1682353471"/>
    <nd ref="670631631"/>
    <nd ref="670631331"/>
    <nd ref="670631333"/>
    <tag k="addr:city" v="Москва"/>
    <tag k="addr:country" v="RU"/>
    <tag k="addr:housenumber" v="22"/>
    <tag k="addr:street" v="Малая Бронная улица"/>
    <tag k="building" v="yes"/>
    <tag k="cladr:code" v="77000000000090700"/>
  </way>
  <way id="52909824" version="4" timestamp="2011-04-20T11:26:31Z" uid="115477" user="wowik" changeset="7915253">
    <nd ref="670631648"/>
    <nd ref="670631649"/>
    <nd ref="670631360"/>
    <nd ref="670631656"/>
    <nd ref="670631652"/>
    <nd ref="670631657"/>
    <nd ref="670631651"/>
    <nd ref="670631648"/>
    <tag k="addr:city" v="Москва"/>
    <tag k="addr:country" v="RU"/>
    <tag k="addr:housenumber" v="24 с4"/>
    <tag k="addr:street" v="Малая Бронная улица"/>
    <tag k="building" v="yes"/>
    <tag k="cladr:code" v="77000000000090700"/>
  </way>
  <way id="52909826" version="3" timestamp="2011-04-20T11:25:56Z" uid="115477" user="wowik" changeset="7915253">
    <nd ref="670631520"/>
    <nd ref="670631521"/>
    <nd ref="670631677"/>
    <nd ref="670631675"/>
    <nd ref="670631679"/>
    <nd ref="670631519"/>
    <nd ref="670631520"/>
    <tag k="addr:city" v="Москва"/>
    <tag k="addr:country" v="RU"/>
    <tag k="addr:housenumber" v="19/6"/>
    <tag k="addr:housenumber2" v="6/19"/>
    <tag k="addr:street" v="Большой Козихинский переулок"/>
    <tag k="addr:street2" v="Малый Козихинский переулок"/>
    <tag k="building" v="yes"/>
    <tag k="cladr:code" v="77000000000703800"/>
  </way>
  <way id="52909826" version="4" timestamp="2011-07-19T18:05:06Z" uid="397326" user="trolleway" changeset="8770997">
    <nd ref="670631520"/>
    <nd ref="670631521"/>
    <nd ref="670631677"/>
    <nd ref="670631675"/>
    <nd ref="670631679"/>
    <nd ref="670631519"/>
    <nd ref="670631520"/>
    <tag k="addr:city" v="Москва"/>
    <tag k="addr:country" v="RU"/>
    <tag k="addr:housenumber" v="19/6"/>
    <tag k="addr:housenumber2" v="6/19"/>
    <tag k="addr:street" v="Большой Козихинский переулок"/>
    <tag k="addr:street2" v="Малый Козихинский переулок"/>
    <tag k="building" v="yes"/>
    <tag k="building:levels" v="7"/>
    <tag k="cladr:code" v="77000000000703800"/>
  </way>
  <way id="52909827" version="3" timestamp="2011-04-20T11:26:12Z" uid="115477" user="wowik" changeset="7915253">
    <nd ref="670631598"/>
    <nd ref="670631597"/>
    <nd ref="670631600"/>
    <nd ref="670631599"/>
    <nd ref="670631614"/>
    <nd ref="670631604"/>
    <nd ref="670631605"/>
    <nd ref="670631603"/>
    <nd ref="670631617"/>
    <nd ref="670631611"/>
    <nd ref="670631615"/>
    <nd ref="670631612"/>
    <nd ref="670631618"/>
    <nd ref="670631613"/>
    <nd ref="670631629"/>
    <nd ref="670631625"/>
    <nd ref="670631622"/>
    <nd ref="670631624"/>
    <nd ref="670631628"/>
    <nd ref="670631621"/>
    <nd ref="670631627"/>
    <nd ref="670631619"/>
    <nd ref="670631687"/>
    <nd ref="670631688"/>
    <nd ref="670631694"/>
    <nd ref="670631692"/>
    <nd ref="670631691"/>
    <nd ref="670631689"/>
    <nd ref="670631598"/>
    <tag k="addr:city" v="Москва"/>
    <tag k="addr:country" v="RU"/>
    <tag k="addr:housenumber" v="11/13"/>
    <tag k="addr:housenumber2" v="13/11"/>
    <tag k="addr:street" v="Малый Козихинский переулок"/>
    <tag k="addr:street2" v="Трёхпрудный переулок"/>
    <tag k="building" v="yes"/>
    <tag k="cladr:code" v="77000000000149600"/>
  </way>
  <way id="52909827" version="4" timestamp="2011-07-19T18:05:03Z" uid="397326" user="trolleway" changeset="8770997">
    <nd ref="670631598"/>
    <nd ref="670631597"/>
    <nd ref="670631600"/>
    <nd ref="670631599"/>
    <nd ref="670631614"/>
    <nd ref="670631604"/>
    <nd ref="670631605"/>
    <nd ref="670631603"/>
    <nd ref="670631617"/>
    <nd ref="670631611"/>
    <nd ref="670631615"/>
    <nd ref="670631612"/>
    <nd ref="670631618"/>
    <nd ref="670631613"/>
    <nd ref="670631629"/>
    <nd ref="670631625"/>
    <nd ref="670631622"/>
    <nd ref="670631624"/>
    <nd ref="670631628"/>
    <nd ref="670631621"/>
    <nd ref="670631627"/>
    <nd ref="670631619"/>
    <nd ref="670631687"/>
    <nd ref="670631688"/>
    <nd ref="670631694"/>
    <nd ref="670631692"/>
    <nd ref="670631691"/>
    <nd ref="670631689"/>
    <nd ref="670631598"/>
    <tag k="addr:city" v="Москва"/>
    <tag k="addr:country" v="RU"/>
    <tag k="addr:housenumber" v="11/13"/>
    <tag k="addr:housenumber2" v="13/11"/>
    <tag k="addr:street" v="Малый Козихинский переулок"/>
    <tag k="addr:street2" v="Трёхпрудный переулок"/>
    <tag k="building" v="yes"/>
    <tag k="building:levels" v="6"/>
    <tag k="cladr:code" v="77000000000149600"/>
  </way>
  <way id="52909827" version="5" timestamp="2012-03-19T22:01:55Z" uid="260756" user="Felis Pimeja" changeset="11035572">
    <nd ref="670631598"/>
    <nd ref="670631597"/>
    <nd ref="1682353938"/>
    <nd ref="1682353944"/>
    <nd ref="670631600"/>
    <nd ref="670631599"/>
    <nd ref="670631614"/>
    <nd ref="670631604"/>
    <nd ref="670631605"/>
    <nd ref="670631603"/>
    <nd ref="670631617"/>
    <nd ref="670631611"/>
    <nd ref="670631615"/>
    <nd ref="670631612"/>
    <nd ref="670631618"/>
    <nd ref="670631613"/>
    <nd ref="670631629"/>
    <nd ref="670631625"/>
    <nd ref="670631622"/>
    <nd ref="670631624"/>
    <nd ref="670631628"/>
    <nd ref="670631621"/>
    <nd ref="670631627"/>
    <nd ref="670631619"/>
    <nd ref="670631687"/>
    <nd ref="670631688"/>
    <nd ref="670631694"/>
    <nd ref="670631692"/>
    <nd ref="670631691"/>
    <nd ref="670631689"/>
    <nd ref="1682353915"/>
    <nd ref="1682353913"/>
    <nd ref="1682353897"/>
    <nd ref="670631598"/>
    <tag k="addr:city" v="Москва"/>
    <tag k="addr:country" v="RU"/>
    <tag k="addr:housenumber" v="11/13"/>
    <tag k="addr:housenumber2" v="13/11"/>
    <tag k="addr:street" v="Малый Козихинский переулок"/>
    <tag k="addr:street2" v="Трёхпрудный переулок"/>
    <tag k="building" v="yes"/>
    <tag k="building:levels" v="6"/>
    <tag k="cladr:code" v="77000000000149600"/>
  </way>
  <way id="52909832" version="3" timestamp="2011-04-20T11:28:19Z" uid="115477" user="wowik" changeset="7915253">
    <nd ref="670631684"/>
    <nd ref="670631685"/>
    <nd ref="670631681"/>
    <nd ref="670631609"/>
    <nd ref="670631608"/>
    <nd ref="956231573"/>
    <nd ref="670631607"/>
    <nd ref="670631606"/>
    <nd ref="670631610"/>
    <nd ref="670631577"/>
    <nd ref="670631576"/>
    <nd ref="670631575"/>
    <nd ref="670631574"/>
    <nd ref="670631572"/>
    <nd ref="670631573"/>
    <nd ref="670631578"/>
    <nd ref="670631579"/>
    <nd ref="670631563"/>
    <nd ref="956231558"/>
    <nd ref="670631683"/>
    <nd ref="670631684"/>
    <tag k="addr:city" v="Москва"/>
    <tag k="addr:country" v="RU"/>
    <tag k="building" v="yes"/>
  </way>
  <way id="52909832" version="4" timestamp="2012-03-19T22:02:12Z" uid="260756" user="Felis Pimeja" changeset="11035572">
    <nd ref="670631684"/>
    <nd ref="670631685"/>
    <nd ref="670631681"/>
    <nd ref="670631609"/>
    <nd ref="670631608"/>
    <nd ref="956231573"/>
    <nd ref="670631607"/>
    <nd ref="670631606"/>
    <nd ref="670631610"/>
    <nd ref="670631577"/>
    <nd ref="670631576"/>
    <nd ref="670631575"/>
    <nd ref="670631574"/>
    <nd ref="670631572"/>
    <nd ref="670631573"/>
    <nd ref="670631578"/>
    <nd ref="670631579"/>
    <nd ref="670631563"/>
    <nd ref="1682353850"/>
    <nd ref="956231558"/>
    <nd ref="670631683"/>
    <nd ref="670631684"/>
    <tag k="addr:city" v="Москва"/>
    <tag k="addr:country" v="RU"/>
    <tag k="building" v="yes"/>
  </way>
  <way id="52909834" version="2" timestamp="2011-04-20T11:28:14Z" uid="115477" user="wowik" changeset="7915253">
    <nd ref="670631239"/>
    <nd ref="670631385"/>
    <nd ref="670631386"/>
    <nd ref="670631238"/>
    <nd ref="670631239"/>
    <tag k="addr:city" v="Москва"/>
    <tag k="addr:country" v="RU"/>
    <tag k="building" v="yes"/>
  </way>
  <way id="52909835" version="4" timestamp="2011-04-20T11:25:50Z" uid="115477" user="wowik" changeset="7915253">
    <nd ref="670631222"/>
    <nd ref="670631223"/>
    <nd ref="670631199"/>
    <nd ref="670631201"/>
    <nd ref="670631202"/>
    <nd ref="670631210"/>
    <nd ref="670631198"/>
    <nd ref="670631178"/>
    <nd ref="670631200"/>
    <nd ref="670631177"/>
    <nd ref="670660783"/>
    <nd ref="670660784"/>
    <nd ref="670631227"/>
    <nd ref="670631224"/>
    <nd ref="670631222"/>
    <tag k="addr:city" v="Москва"/>
    <tag k="addr:country" v="RU"/>
    <tag k="addr:housenumber" v="4"/>
    <tag k="addr:street" v="Ермолаевский переулок"/>
    <tag k="building" v="yes"/>
    <tag k="cladr:code" v="77000000000702200"/>
  </way>
  <way id="52909837" version="3" timestamp="2011-04-20T11:27:00Z" uid="115477" user="wowik" changeset="7915253">
    <nd ref="670631520"/>
    <nd ref="670631522"/>
    <nd ref="670631379"/>
    <nd ref="670631384"/>
    <nd ref="670631524"/>
    <nd ref="670631526"/>
    <nd ref="670631525"/>
    <nd ref="670631370"/>
    <nd ref="670631371"/>
    <nd ref="670631372"/>
    <nd ref="670631373"/>
    <nd ref="670631374"/>
    <nd ref="670631503"/>
    <nd ref="670631521"/>
    <nd ref="670631520"/>
    <tag k="addr:city" v="Москва"/>
    <tag k="addr:country" v="RU"/>
    <tag k="addr:housenumber" v="4"/>
    <tag k="addr:street" v="Малый Козихинский переулок"/>
    <tag k="building" v="yes"/>
    <tag k="cladr:code" v="77000000000149600"/>
  </way>
  <way id="52909837" version="4" timestamp="2011-07-19T18:05:09Z" uid="397326" user="trolleway" changeset="8770997">
    <nd ref="670631520"/>
    <nd ref="670631522"/>
    <nd ref="670631379"/>
    <nd ref="670631384"/>
    <nd ref="670631524"/>
    <nd ref="670631526"/>
    <nd ref="670631525"/>
    <nd ref="670631370"/>
    <nd ref="670631371"/>
    <nd ref="670631372"/>
    <nd ref="670631373"/>
    <nd ref="670631374"/>
    <nd ref="670631503"/>
    <nd ref="670631521"/>
    <nd ref="670631520"/>
    <tag k="addr:city" v="Москва"/>
    <tag k="addr:country" v="RU"/>
    <tag k="addr:housenumber" v="4"/>
    <tag k="addr:street" v="Малый Козихинский переулок"/>
    <tag k="building" v="yes"/>
    <tag k="building:levels" v="4"/>
    <tag k="cladr:code" v="77000000000149600"/>
  </way>
  <way id="52909838" version="3" timestamp="2011-04-20T11:26:14Z" uid="115477" user="wowik" changeset="7915253">
    <nd ref="670631503"/>
    <nd ref="670631374"/>
    <nd ref="670631343"/>
    <nd ref="670631350"/>
    <nd ref="670631357"/>
    <nd ref="670631358"/>
    <nd ref="670631359"/>
    <nd ref="670631504"/>
    <nd ref="670631503"/>
    <tag k="addr:city" v="Москва"/>
    <tag k="addr:country" v="RU"/>
    <tag k="addr:housenumber" v="2"/>
    <tag k="addr:street" v="Малый Козихинский переулок"/>
    <tag k="building" v="yes"/>
    <tag k="cladr:code" v="77000000000149600"/>
  </way>
  <way id="52909842" version="3" timestamp="2011-04-20T11:26:42Z" uid="115477" user="wowik" changeset="7915253">
    <nd ref="670631458"/>
    <nd ref="670631505"/>
    <nd ref="670631506"/>
    <nd ref="670631313"/>
    <nd ref="670631460"/>
    <nd ref="670631459"/>
    <nd ref="670631458"/>
    <tag k="addr:city" v="Москва"/>
    <tag k="addr:country" v="RU"/>
    <tag k="addr:housenumber" v="30/1"/>
    <tag k="addr:housenumber2" v="1/30"/>
    <tag k="addr:street" v="Малая Бронная улица"/>
    <tag k="addr:street2" v="Малый Козихинский переулок"/>
    <tag k="building" v="yes"/>
    <tag k="cladr:code" v="77000000000090700"/>
  </way>
  <way id="52909842" version="4" timestamp="2011-07-19T18:05:08Z" uid="397326" user="trolleway" changeset="8770997">
    <nd ref="670631458"/>
    <nd ref="670631505"/>
    <nd ref="670631506"/>
    <nd ref="670631313"/>
    <nd ref="670631460"/>
    <nd ref="670631459"/>
    <nd ref="670631458"/>
    <tag k="addr:city" v="Москва"/>
    <tag k="addr:country" v="RU"/>
    <tag k="addr:housenumber" v="30/1"/>
    <tag k="addr:housenumber2" v="1/30"/>
    <tag k="addr:street" v="Малая Бронная улица"/>
    <tag k="addr:street2" v="Малый Козихинский переулок"/>
    <tag k="building" v="yes"/>
    <tag k="building:levels" v="3"/>
    <tag k="cladr:code" v="77000000000090700"/>
  </way>
  <way id="52909842" version="5" timestamp="2012-03-19T22:02:03Z" uid="260756" user="Felis Pimeja" changeset="11035572">
    <nd ref="670631458"/>
    <nd ref="670631505"/>
    <nd ref="670631506"/>
    <nd ref="1682353661"/>
    <nd ref="1682353659"/>
    <nd ref="1682353663"/>
    <nd ref="670631460"/>
    <nd ref="670631459"/>
    <nd ref="670631458"/>
    <tag k="addr:city" v="Москва"/>
    <tag k="addr:country" v="RU"/>
    <tag k="addr:housenumber" v="30/1"/>
    <tag k="addr:housenumber2" v="1/30"/>
    <tag k="addr:street" v="Малая Бронная улица"/>
    <tag k="addr:street2" v="Малый Козихинский переулок"/>
    <tag k="building" v="yes"/>
    <tag k="building:levels" v="3"/>
    <tag k="cladr:code" v="77000000000090700"/>
  </way>
  <way id="52909843" version="4" timestamp="2011-04-20T11:26:57Z" uid="115477" user="wowik" changeset="7915253">
    <nd ref="670631195"/>
    <nd ref="670631191"/>
    <nd ref="670631192"/>
    <nd ref="670631189"/>
    <nd ref="670631190"/>
    <nd ref="670631179"/>
    <nd ref="670661066"/>
    <nd ref="670661069"/>
    <nd ref="670631195"/>
    <tag k="addr:city" v="Москва"/>
    <tag k="addr:country" v="RU"/>
    <tag k="addr:housenumber" v="34"/>
    <tag k="addr:street" v="улица Спиридоновка"/>
    <tag k="building" v="yes"/>
    <tag k="cladr:code" v="77000000000711200"/>
  </way>
  <way id="52909845" version="3" timestamp="2011-04-20T11:26:28Z" uid="115477" user="wowik" changeset="7915253">
    <nd ref="670631275"/>
    <nd ref="670631267"/>
    <nd ref="670631266"/>
    <nd ref="670631279"/>
    <nd ref="670631277"/>
    <nd ref="670631280"/>
    <nd ref="670631272"/>
    <nd ref="670631271"/>
    <nd ref="670631284"/>
    <nd ref="670631270"/>
    <nd ref="670631274"/>
    <nd ref="670631273"/>
    <nd ref="670631275"/>
    <tag k="addr:city" v="Москва"/>
    <tag k="addr:country" v="RU"/>
    <tag k="addr:housenumber" v="8"/>
    <tag k="addr:street" v="Большой Патриарший переулок"/>
    <tag k="building" v="yes"/>
    <tag k="cladr:code" v="77000000000722000"/>
  </way>
  <way id="52909850" version="2" timestamp="2011-04-20T11:28:23Z" uid="115477" user="wowik" changeset="7915253">
    <nd ref="670631268"/>
    <nd ref="670631266"/>
    <nd ref="670631267"/>
    <nd ref="670631276"/>
    <nd ref="670631264"/>
    <nd ref="670631263"/>
    <nd ref="670631262"/>
    <nd ref="670631265"/>
    <nd ref="670631268"/>
    <tag k="addr:city" v="Москва"/>
    <tag k="addr:country" v="RU"/>
    <tag k="building" v="yes"/>
  </way>
  <way id="52909851" version="3" timestamp="2011-04-20T11:26:37Z" uid="115477" user="wowik" changeset="7915253">
    <nd ref="670631228"/>
    <nd ref="670631237"/>
    <nd ref="670631250"/>
    <nd ref="670631253"/>
    <nd ref="670631254"/>
    <nd ref="670631230"/>
    <nd ref="670631241"/>
    <nd ref="670631231"/>
    <nd ref="670631232"/>
    <nd ref="670631233"/>
    <nd ref="670631234"/>
    <nd ref="670631235"/>
    <nd ref="670631236"/>
    <nd ref="670631229"/>
    <nd ref="670631228"/>
    <tag k="addr:city" v="Москва"/>
    <tag k="addr:country" v="RU"/>
    <tag k="addr:housenumber" v="8"/>
    <tag k="addr:street" v="Ермолаевский переулок"/>
    <tag k="building" v="yes"/>
    <tag k="cladr:code" v="77000000000702200"/>
  </way>
  <way id="52909852" version="4" timestamp="2011-04-20T11:25:48Z" uid="115477" user="wowik" changeset="7915253">
    <nd ref="670631220"/>
    <nd ref="670631206"/>
    <nd ref="670631205"/>
    <nd ref="670631204"/>
    <nd ref="670631197"/>
    <nd ref="670631203"/>
    <nd ref="670631196"/>
    <nd ref="670631209"/>
    <nd ref="670631208"/>
    <nd ref="670631207"/>
    <nd ref="670631220"/>
    <tag k="addr:city" v="Москва"/>
    <tag k="addr:country" v="RU"/>
    <tag k="addr:housenumber" v="36 с2"/>
    <tag k="addr:street" v="улица Спиридоновка"/>
    <tag k="building" v="yes"/>
    <tag k="cladr:code" v="77000000000711200"/>
  </way>
  <way id="52909854" version="4" timestamp="2011-04-20T11:26:59Z" uid="115477" user="wowik" changeset="7915253">
    <nd ref="670631227"/>
    <nd ref="670631228"/>
    <nd ref="670631229"/>
    <nd ref="670631226"/>
    <nd ref="670631225"/>
    <nd ref="670631224"/>
    <nd ref="670631227"/>
    <tag k="addr:city" v="Москва"/>
    <tag k="addr:country" v="RU"/>
    <tag k="addr:housenumber" v="6"/>
    <tag k="addr:street" v="Ермолаевский переулок"/>
    <tag k="building" v="yes"/>
    <tag k="cladr:code" v="77000000000702200"/>
  </way>
  <way id="52909855" version="4" timestamp="2011-04-20T11:25:30Z" uid="115477" user="wowik" changeset="7915253">
    <nd ref="670631207"/>
    <nd ref="670631211"/>
    <nd ref="670631221"/>
    <nd ref="670631220"/>
    <nd ref="670631207"/>
    <tag k="addr:city" v="Москва"/>
    <tag k="addr:country" v="RU"/>
    <tag k="addr:housenumber" v="5 с7"/>
    <tag k="addr:street" v="Малый Патриарший переулок"/>
    <tag k="building" v="yes"/>
    <tag k="cladr:code" v="77000000000703900"/>
  </way>
  <way id="52909857" version="4" timestamp="2011-04-20T11:26:53Z" uid="115477" user="wowik" changeset="7915253">
    <nd ref="670631217"/>
    <nd ref="670631218"/>
    <nd ref="670631259"/>
    <nd ref="670631258"/>
    <nd ref="670631217"/>
    <tag k="addr:city" v="Москва"/>
    <tag k="addr:country" v="RU"/>
    <tag k="addr:housenumber" v="3 с2"/>
    <tag k="addr:street" v="Большой Патриарший переулок"/>
    <tag k="building" v="yes"/>
    <tag k="cladr:code" v="77000000000722000"/>
  </way>
  <way id="52909859" version="3" timestamp="2011-04-20T11:26:23Z" uid="115477" user="wowik" changeset="7915253">
    <nd ref="670631242"/>
    <nd ref="670631269"/>
    <nd ref="359989647"/>
    <nd ref="359989616"/>
    <nd ref="670631242"/>
    <tag k="addr:city" v="Москва"/>
    <tag k="addr:country" v="RU"/>
    <tag k="addr:street" v="Малый Патриарший переулок"/>
    <tag k="building" v="yes"/>
    <tag k="cladr:code" v="77000000000703900"/>
  </way>
  <way id="52909861" version="3" timestamp="2011-04-20T11:25:51Z" uid="115477" user="wowik" changeset="7915253">
    <nd ref="670631257"/>
    <nd ref="670631252"/>
    <nd ref="670631240"/>
    <nd ref="670631249"/>
    <nd ref="670631248"/>
    <nd ref="670631251"/>
    <nd ref="670631250"/>
    <nd ref="670631237"/>
    <nd ref="670631247"/>
    <nd ref="670631256"/>
    <nd ref="670631257"/>
    <tag k="addr:city" v="Москва"/>
    <tag k="addr:country" v="RU"/>
    <tag k="addr:housenumber" v="10/7"/>
    <tag k="addr:housenumber2" v="7/10"/>
    <tag k="addr:street" v="Ермолаевский переулок"/>
    <tag k="addr:street2" v="Малый Патриарший переулок"/>
    <tag k="building" v="yes"/>
    <tag k="cladr:code" v="77000000000702200"/>
  </way>
  <way id="52909864" version="3" timestamp="2011-04-20T11:26:16Z" uid="115477" user="wowik" changeset="7915253">
    <nd ref="670631242"/>
    <nd ref="670631244"/>
    <nd ref="670631246"/>
    <nd ref="670631245"/>
    <nd ref="670631243"/>
    <nd ref="670631255"/>
    <nd ref="670631257"/>
    <nd ref="670631256"/>
    <nd ref="670631269"/>
    <nd ref="670631242"/>
    <tag k="addr:city" v="Москва"/>
    <tag k="addr:country" v="RU"/>
    <tag k="addr:housenumber" v="5"/>
    <tag k="addr:street" v="Малый Патриарший переулок"/>
    <tag k="building" v="yes"/>
    <tag k="cladr:code" v="77000000000703900"/>
  </way>
  <way id="52909866" version="4" timestamp="2011-04-20T11:25:44Z" uid="115477" user="wowik" changeset="7915253">
    <nd ref="670631261"/>
    <nd ref="670631260"/>
    <nd ref="670631215"/>
    <nd ref="670631216"/>
    <nd ref="670631261"/>
    <tag k="addr:city" v="Москва"/>
    <tag k="addr:country" v="RU"/>
    <tag k="addr:housenumber" v="5 с2"/>
    <tag k="addr:street" v="Малый Патриарший переулок"/>
    <tag k="building" v="yes"/>
    <tag k="cladr:code" v="77000000000703900"/>
  </way>
  <way id="52909868" version="4" timestamp="2011-04-20T11:26:53Z" uid="115477" user="wowik" changeset="7915253">
    <nd ref="670631285"/>
    <nd ref="670631308"/>
    <nd ref="670631315"/>
    <nd ref="670631317"/>
    <nd ref="670631318"/>
    <nd ref="670631316"/>
    <nd ref="670631286"/>
    <nd ref="670631290"/>
    <nd ref="670631289"/>
    <nd ref="670631288"/>
    <nd ref="670631287"/>
    <nd ref="670631291"/>
    <nd ref="670631285"/>
    <tag k="addr:city" v="Москва"/>
    <tag k="addr:country" v="RU"/>
    <tag k="addr:housenumber" v="12 с2"/>
    <tag k="addr:street" v="Большой Патриарший переулок"/>
    <tag k="building" v="yes"/>
    <tag k="cladr:code" v="77000000000722000"/>
  </way>
  <way id="52909870" version="3" timestamp="2011-04-20T11:26:24Z" uid="115477" user="wowik" changeset="7915253">
    <nd ref="670631323"/>
    <nd ref="670631324"/>
    <nd ref="670631322"/>
    <nd ref="670631340"/>
    <nd ref="670631330"/>
    <nd ref="670631329"/>
    <nd ref="670631328"/>
    <nd ref="670631327"/>
    <nd ref="670631326"/>
    <nd ref="670631314"/>
    <nd ref="670631320"/>
    <nd ref="670631319"/>
    <nd ref="670631321"/>
    <nd ref="670631323"/>
    <tag k="addr:city" v="Москва"/>
    <tag k="addr:country" v="RU"/>
    <tag k="addr:housenumber" v="25"/>
    <tag k="addr:street" v="Малая Бронная улица"/>
    <tag k="building" v="yes"/>
    <tag k="cladr:code" v="77000000000090700"/>
  </way>
  <way id="52909872" version="2" timestamp="2011-04-20T11:28:16Z" uid="115477" user="wowik" changeset="7915253">
    <nd ref="670631283"/>
    <nd ref="670631292"/>
    <nd ref="670631281"/>
    <nd ref="670631282"/>
    <nd ref="670631283"/>
    <tag k="addr:city" v="Москва"/>
    <tag k="addr:country" v="RU"/>
    <tag k="building" v="yes"/>
  </way>
  <way id="52909873" version="3" timestamp="2011-04-20T11:25:58Z" uid="115477" user="wowik" changeset="7915253">
    <nd ref="670631279"/>
    <nd ref="670631278"/>
    <nd ref="670631293"/>
    <nd ref="670631277"/>
    <nd ref="670631279"/>
    <tag k="addr:city" v="Москва"/>
    <tag k="addr:country" v="RU"/>
    <tag k="addr:housenumber" v="10"/>
    <tag k="addr:street" v="Большой Патриарший переулок"/>
    <tag k="building" v="yes"/>
    <tag k="cladr:code" v="77000000000722000"/>
  </way>
  <way id="52909875" version="3" timestamp="2011-04-20T11:27:08Z" uid="115477" user="wowik" changeset="7915253">
    <nd ref="670631309"/>
    <nd ref="670631310"/>
    <nd ref="670631312"/>
    <nd ref="670631311"/>
    <nd ref="670631309"/>
    <tag k="addr:city" v="Москва"/>
    <tag k="addr:country" v="RU"/>
    <tag k="addr:housenumber" v="7"/>
    <tag k="addr:street" v="Большой Патриарший переулок"/>
    <tag k="building" v="yes"/>
    <tag k="cladr:code" v="77000000000722000"/>
  </way>
  <way id="52909877" version="2" timestamp="2011-04-20T11:28:26Z" uid="115477" user="wowik" changeset="7915253">
    <nd ref="670631298"/>
    <nd ref="670631296"/>
    <nd ref="670631302"/>
    <nd ref="670631300"/>
    <nd ref="670631305"/>
    <nd ref="670631307"/>
    <nd ref="670631304"/>
    <nd ref="670631295"/>
    <nd ref="670631294"/>
    <nd ref="670631299"/>
    <nd ref="670631297"/>
    <nd ref="670631303"/>
    <nd ref="670631301"/>
    <nd ref="670631306"/>
    <nd ref="670631298"/>
    <tag k="addr:city" v="Москва"/>
    <tag k="addr:country" v="RU"/>
    <tag k="building" v="yes"/>
  </way>
  <way id="52909879" version="4" timestamp="2011-04-20T11:26:05Z" uid="115477" user="wowik" changeset="7915253">
    <nd ref="670631335"/>
    <nd ref="670631336"/>
    <nd ref="670631333"/>
    <nd ref="670631331"/>
    <nd ref="670631335"/>
    <tag k="addr:city" v="Москва"/>
    <tag k="addr:country" v="RU"/>
    <tag k="addr:housenumber" v="22 с2"/>
    <tag k="addr:street" v="Малая Бронная улица"/>
    <tag k="building" v="yes"/>
    <tag k="cladr:code" v="77000000000090700"/>
  </way>
  <way id="52909881" version="4" timestamp="2011-04-20T11:25:32Z" uid="115477" user="wowik" changeset="7915253">
    <nd ref="670631325"/>
    <nd ref="670631329"/>
    <nd ref="670631330"/>
    <nd ref="664072359"/>
    <nd ref="670631325"/>
    <tag k="addr:city" v="Москва"/>
    <tag k="addr:country" v="RU"/>
    <tag k="addr:housenumber" v="23 с2"/>
    <tag k="addr:street" v="Малая Бронная улица"/>
    <tag k="building" v="yes"/>
    <tag k="cladr:code" v="77000000000090700"/>
  </way>
  <way id="52909883" version="4" timestamp="2011-04-20T11:26:45Z" uid="115477" user="wowik" changeset="7915253">
    <nd ref="670631364"/>
    <nd ref="670631344"/>
    <nd ref="670631365"/>
    <nd ref="670631366"/>
    <nd ref="670631367"/>
    <nd ref="670631368"/>
    <nd ref="670631369"/>
    <nd ref="670631364"/>
    <tag k="addr:city" v="Москва"/>
    <tag k="addr:country" v="RU"/>
    <tag k="addr:housenumber" v="26 с3"/>
    <tag k="addr:street" v="Малая Бронная улица"/>
    <tag k="building" v="yes"/>
    <tag k="cladr:code" v="77000000000090700"/>
  </way>
  <way id="52909885" version="2" timestamp="2011-04-20T11:28:22Z" uid="115477" user="wowik" changeset="7915253">
    <nd ref="670631347"/>
    <nd ref="670631346"/>
    <nd ref="670631345"/>
    <nd ref="670631343"/>
    <nd ref="670631374"/>
    <nd ref="670631365"/>
    <nd ref="670631344"/>
    <nd ref="670631348"/>
    <nd ref="670631347"/>
    <tag k="addr:city" v="Москва"/>
    <tag k="addr:country" v="RU"/>
    <tag k="building" v="yes"/>
  </way>
  <way id="52909887" version="3" timestamp="2011-04-20T11:25:43Z" uid="115477" user="wowik" changeset="7915253">
    <nd ref="670631337"/>
    <nd ref="670631348"/>
    <nd ref="670631344"/>
    <nd ref="670631364"/>
    <nd ref="670631339"/>
    <nd ref="670631363"/>
    <nd ref="670631361"/>
    <nd ref="670631362"/>
    <nd ref="360419415"/>
    <nd ref="670631338"/>
    <nd ref="670631337"/>
    <tag k="addr:city" v="Москва"/>
    <tag k="addr:country" v="RU"/>
    <tag k="addr:housenumber" v="26"/>
    <tag k="addr:street" v="Малая Бронная улица"/>
    <tag k="building" v="yes"/>
    <tag k="cladr:code" v="77000000000090700"/>
  </way>
  <way id="52909889" version="3" timestamp="2011-04-20T11:27:03Z" uid="115477" user="wowik" changeset="7915253">
    <nd ref="670631349"/>
    <nd ref="670631351"/>
    <nd ref="670631353"/>
    <nd ref="670631352"/>
    <nd ref="670631355"/>
    <nd ref="670631354"/>
    <nd ref="670631356"/>
    <nd ref="670631347"/>
    <nd ref="670631348"/>
    <nd ref="670631337"/>
    <nd ref="670631342"/>
    <nd ref="670631341"/>
    <nd ref="670631349"/>
    <tag k="addr:city" v="Москва"/>
    <tag k="addr:country" v="RU"/>
    <tag k="addr:housenumber" v="28"/>
    <tag k="addr:street" v="Малая Бронная улица"/>
    <tag k="building" v="yes"/>
    <tag k="cladr:code" v="77000000000090700"/>
  </way>
  <way id="52909890" version="4" timestamp="2011-04-20T11:26:18Z" uid="115477" user="wowik" changeset="7915253">
    <nd ref="670631431"/>
    <nd ref="670631433"/>
    <nd ref="670631412"/>
    <nd ref="670631415"/>
    <nd ref="670631416"/>
    <nd ref="670631413"/>
    <nd ref="670631414"/>
    <nd ref="670631402"/>
    <nd ref="670631403"/>
    <nd ref="670631401"/>
    <nd ref="670631429"/>
    <nd ref="670631430"/>
    <nd ref="670631431"/>
    <tag k="addr:city" v="Москва"/>
    <tag k="addr:country" v="RU"/>
    <tag k="addr:housenumber" v="32 с2"/>
    <tag k="addr:street" v="Садовая-Кудринская улица"/>
    <tag k="building" v="yes"/>
    <tag k="cladr:code" v="77000000000255100"/>
  </way>
  <way id="52909894" version="3" timestamp="2011-04-20T11:26:54Z" uid="115477" user="wowik" changeset="7915253">
    <nd ref="670631427"/>
    <nd ref="670631426"/>
    <nd ref="670631425"/>
    <nd ref="670631423"/>
    <nd ref="670631421"/>
    <nd ref="670631428"/>
    <nd ref="670631483"/>
    <nd ref="670631482"/>
    <nd ref="670631481"/>
    <nd ref="670631419"/>
    <nd ref="670631420"/>
    <nd ref="670631422"/>
    <nd ref="670631424"/>
    <nd ref="670631427"/>
    <tag k="addr:city" v="Москва"/>
    <tag k="addr:country" v="RU"/>
    <tag k="addr:housenumber" v="38"/>
    <tag k="addr:street" v="Малая Бронная улица"/>
    <tag k="building" v="yes"/>
    <tag k="cladr:code" v="77000000000090700"/>
  </way>
  <way id="52909894" version="4" timestamp="2011-07-19T18:05:09Z" uid="397326" user="trolleway" changeset="8770997">
    <nd ref="670631427"/>
    <nd ref="670631426"/>
    <nd ref="670631425"/>
    <nd ref="670631423"/>
    <nd ref="670631421"/>
    <nd ref="670631428"/>
    <nd ref="670631483"/>
    <nd ref="670631482"/>
    <nd ref="670631481"/>
    <nd ref="670631419"/>
    <nd ref="670631420"/>
    <nd ref="670631422"/>
    <nd ref="670631424"/>
    <nd ref="670631427"/>
    <tag k="addr:city" v="Москва"/>
    <tag k="addr:country" v="RU"/>
    <tag k="addr:housenumber" v="38"/>
    <tag k="addr:street" v="Малая Бронная улица"/>
    <tag k="building" v="yes"/>
    <tag k="building:levels" v="8"/>
    <tag k="cladr:code" v="77000000000090700"/>
  </way>
  <way id="52909894" version="5" timestamp="2012-03-19T22:02:06Z" uid="260756" user="Felis Pimeja" changeset="11035572">
    <nd ref="599928897"/>
    <nd ref="670631426"/>
    <nd ref="670631425"/>
    <nd ref="670631423"/>
    <nd ref="670631421"/>
    <nd ref="670631428"/>
    <nd ref="670631483"/>
    <nd ref="670631482"/>
    <nd ref="670631481"/>
    <nd ref="670631419"/>
    <nd ref="670631420"/>
    <nd ref="670631422"/>
    <nd ref="670631424"/>
    <nd ref="599928897"/>
    <tag k="addr:city" v="Москва"/>
    <tag k="addr:country" v="RU"/>
    <tag k="addr:housenumber" v="38"/>
    <tag k="addr:street" v="Малая Бронная улица"/>
    <tag k="building" v="yes"/>
    <tag k="building:levels" v="8"/>
    <tag k="cladr:code" v="77000000000090700"/>
  </way>
  <way id="52909897" version="3" timestamp="2011-04-20T11:26:39Z" uid="115477" user="wowik" changeset="7915253">
    <nd ref="670631410"/>
    <nd ref="670631409"/>
    <nd ref="670631408"/>
    <nd ref="670631411"/>
    <nd ref="670631410"/>
    <tag k="addr:city" v="Москва"/>
    <tag k="addr:country" v="RU"/>
    <tag k="addr:housenumber" v="11"/>
    <tag k="addr:street" v="Ермолаевский переулок"/>
    <tag k="building" v="yes"/>
    <tag k="cladr:code" v="77000000000702200"/>
  </way>
  <way id="52909899" version="3" timestamp="2011-04-20T11:26:08Z" uid="115477" user="wowik" changeset="7915253">
    <nd ref="670631400"/>
    <nd ref="670631386"/>
    <nd ref="670631385"/>
    <nd ref="670631387"/>
    <nd ref="670631400"/>
    <tag k="addr:city" v="Москва"/>
    <tag k="addr:country" v="RU"/>
    <tag k="addr:housenumber" v="5"/>
    <tag k="addr:street" v="Ермолаевский переулок"/>
    <tag k="building" v="yes"/>
    <tag k="cladr:code" v="77000000000702200"/>
  </way>
  <way id="52909901" version="3" timestamp="2011-04-20T11:25:36Z" uid="115477" user="wowik" changeset="7915253">
    <nd ref="670631406"/>
    <nd ref="670631417"/>
    <nd ref="670631418"/>
    <nd ref="670631407"/>
    <nd ref="670631405"/>
    <nd ref="670631404"/>
    <nd ref="670631406"/>
    <tag k="addr:city" v="Москва"/>
    <tag k="addr:country" v="RU"/>
    <tag k="addr:housenumber" v="32А"/>
    <tag k="addr:street" v="Садовая-Кудринская улица"/>
    <tag k="building" v="yes"/>
    <tag k="cladr:code" v="77000000000255100"/>
  </way>
  <way id="52909904" version="4" timestamp="2011-04-20T11:25:52Z" uid="115477" user="wowik" changeset="7915253">
    <nd ref="670631395"/>
    <nd ref="670631394"/>
    <nd ref="670631392"/>
    <nd ref="670631391"/>
    <nd ref="670631393"/>
    <nd ref="670631399"/>
    <nd ref="670631396"/>
    <nd ref="670631398"/>
    <nd ref="670631397"/>
    <nd ref="670631389"/>
    <nd ref="670631390"/>
    <nd ref="670631388"/>
    <nd ref="670631395"/>
    <tag k="addr:city" v="Москва"/>
    <tag k="addr:country" v="RU"/>
    <tag k="addr:housenumber" v="5 с2"/>
    <tag k="addr:street" v="Ермолаевский переулок"/>
    <tag k="building" v="yes"/>
    <tag k="cladr:code" v="77000000000702200"/>
  </way>
  <way id="52909906" version="2" timestamp="2011-04-20T11:28:32Z" uid="115477" user="wowik" changeset="7915253">
    <nd ref="670631434"/>
    <nd ref="670631438"/>
    <nd ref="670631439"/>
    <nd ref="670631435"/>
    <nd ref="670631434"/>
    <tag k="addr:city" v="Москва"/>
    <tag k="addr:country" v="RU"/>
    <tag k="building" v="yes"/>
  </way>
  <way id="52909907" version="4" timestamp="2011-04-20T11:25:34Z" uid="115477" user="wowik" changeset="7915253">
    <nd ref="670631448"/>
    <nd ref="670631442"/>
    <nd ref="670631443"/>
    <nd ref="670631445"/>
    <nd ref="670631446"/>
    <nd ref="670631440"/>
    <nd ref="670631452"/>
    <nd ref="670631449"/>
    <nd ref="670631450"/>
    <nd ref="670631448"/>
    <tag k="addr:city" v="Москва"/>
    <tag k="addr:country" v="RU"/>
    <tag k="addr:housenumber" v="4 с2"/>
    <tag k="addr:street" v="Большая Садовая улица"/>
    <tag k="building" v="yes"/>
    <tag k="cladr:code" v="77000000000254200"/>
  </way>
  <way id="52909908" version="4" timestamp="2011-04-20T11:26:35Z" uid="115477" user="wowik" changeset="7915253">
    <nd ref="670631544"/>
    <nd ref="670631541"/>
    <nd ref="670631542"/>
    <nd ref="670631540"/>
    <nd ref="670631544"/>
    <tag k="addr:city" v="Москва"/>
    <tag k="addr:country" v="RU"/>
    <tag k="addr:housenumber" v="27 с12"/>
    <tag k="addr:street" v="Большой Козихинский переулок"/>
    <tag k="building" v="yes"/>
    <tag k="cladr:code" v="77000000000703800"/>
  </way>
  <way id="52909908" version="5" timestamp="2011-07-19T18:19:51Z" uid="397326" user="trolleway" changeset="8770997">
    <nd ref="670631544"/>
    <nd ref="670631541"/>
    <nd ref="670631542"/>
    <nd ref="670631540"/>
    <nd ref="670631544"/>
    <tag k="addr:city" v="Москва"/>
    <tag k="addr:country" v="RU"/>
    <tag k="addr:housenumber" v="27 с12"/>
    <tag k="addr:street" v="Большой Козихинский переулок"/>
    <tag k="building" v="yes"/>
    <tag k="building:levels" v="1"/>
    <tag k="cladr:code" v="77000000000703800"/>
  </way>
  <way id="52909911" version="3" timestamp="2011-04-20T11:26:18Z" uid="115477" user="wowik" changeset="7915253">
    <nd ref="670631515"/>
    <nd ref="670631528"/>
    <nd ref="670631510"/>
    <nd ref="670631508"/>
    <nd ref="670631507"/>
    <nd ref="670631514"/>
    <nd ref="670631513"/>
    <nd ref="670631512"/>
    <nd ref="670631517"/>
    <nd ref="670631515"/>
    <tag k="addr:city" v="Москва"/>
    <tag k="addr:country" v="RU"/>
    <tag k="addr:housenumber" v="3"/>
    <tag k="addr:street" v="Малый Козихинский переулок"/>
    <tag k="building" v="yes"/>
    <tag k="cladr:code" v="77000000000149600"/>
  </way>
  <way id="52909912" version="3" timestamp="2011-04-20T11:25:27Z" uid="115477" user="wowik" changeset="7915253">
    <nd ref="670631535"/>
    <nd ref="670631515"/>
    <nd ref="670631517"/>
    <nd ref="670631518"/>
    <nd ref="670631516"/>
    <nd ref="670631537"/>
    <nd ref="670631533"/>
    <nd ref="670631564"/>
    <nd ref="670631530"/>
    <nd ref="670631532"/>
    <nd ref="670631565"/>
    <nd ref="670631566"/>
    <nd ref="670631536"/>
    <nd ref="670631539"/>
    <nd ref="670631531"/>
    <nd ref="670631529"/>
    <nd ref="670631534"/>
    <nd ref="670631538"/>
    <nd ref="670631535"/>
    <tag k="addr:city" v="Москва"/>
    <tag k="addr:country" v="RU"/>
    <tag k="addr:housenumber" v="23"/>
    <tag k="addr:street" v="Большой Козихинский переулок"/>
    <tag k="building" v="yes"/>
    <tag k="cladr:code" v="77000000000703800"/>
  </way>
  <way id="52909912" version="4" timestamp="2011-07-19T18:05:06Z" uid="397326" user="trolleway" changeset="8770997">
    <nd ref="670631535"/>
    <nd ref="670631515"/>
    <nd ref="670631517"/>
    <nd ref="1366882375"/>
    <nd ref="670631518"/>
    <nd ref="670631516"/>
    <nd ref="670631537"/>
    <nd ref="670631533"/>
    <nd ref="670631564"/>
    <nd ref="670631530"/>
    <nd ref="670631532"/>
    <nd ref="670631565"/>
    <nd ref="670631566"/>
    <nd ref="670631536"/>
    <nd ref="670631539"/>
    <nd ref="670631531"/>
    <nd ref="670631529"/>
    <nd ref="670631534"/>
    <nd ref="670631538"/>
    <nd ref="670631535"/>
    <tag k="addr:city" v="Москва"/>
    <tag k="addr:country" v="RU"/>
    <tag k="addr:housenumber" v="23"/>
    <tag k="addr:street" v="Большой Козихинский переулок"/>
    <tag k="building" v="yes"/>
    <tag k="building:levels" v="5"/>
    <tag k="cladr:code" v="77000000000703800"/>
  </way>
  <way id="52909915" version="3" timestamp="2011-04-20T11:26:54Z" uid="115477" user="wowik" changeset="7915253">
    <nd ref="670631570"/>
    <nd ref="670631568"/>
    <nd ref="670631567"/>
    <nd ref="670631546"/>
    <nd ref="670631545"/>
    <nd ref="670631569"/>
    <nd ref="670631550"/>
    <nd ref="670631571"/>
    <nd ref="670631570"/>
    <tag k="addr:city" v="Москва"/>
    <tag k="addr:country" v="RU"/>
    <tag k="addr:housenumber" v="25"/>
    <tag k="addr:street" v="Большой Козихинский переулок"/>
    <tag k="building" v="yes"/>
    <tag k="cladr:code" v="77000000000703800"/>
  </way>
  <way id="52909915" version="4" timestamp="2011-07-19T18:05:07Z" uid="397326" user="trolleway" changeset="8770997">
    <nd ref="670631570"/>
    <nd ref="670631568"/>
    <nd ref="670631567"/>
    <nd ref="670631546"/>
    <nd ref="670631545"/>
    <nd ref="670631569"/>
    <nd ref="670631550"/>
    <nd ref="670631571"/>
    <nd ref="670631570"/>
    <tag k="addr:city" v="Москва"/>
    <tag k="addr:country" v="RU"/>
    <tag k="addr:housenumber" v="25"/>
    <tag k="addr:street" v="Большой Козихинский переулок"/>
    <tag k="building" v="yes"/>
    <tag k="building:levels" v="2"/>
    <tag k="cladr:code" v="77000000000703800"/>
    <tag k="ruins" v="yes"/>
  </way>
  <way id="52909915" version="5" timestamp="2011-09-12T21:38:53Z" uid="314211" user="OldIvantey" changeset="9284523"/>
  <way id="52909917" version="3" timestamp="2011-04-20T11:26:26Z" uid="115477" user="wowik" changeset="7915253">
    <nd ref="670631553"/>
    <nd ref="670631571"/>
    <nd ref="670631550"/>
    <nd ref="670631547"/>
    <nd ref="670631551"/>
    <nd ref="670631548"/>
    <nd ref="670631552"/>
    <nd ref="670631549"/>
    <nd ref="670631556"/>
    <nd ref="670631555"/>
    <nd ref="670631554"/>
    <nd ref="670631559"/>
    <nd ref="670631560"/>
    <nd ref="670631553"/>
    <tag k="addr:city" v="Москва"/>
    <tag k="addr:country" v="RU"/>
    <tag k="addr:housenumber" v="27"/>
    <tag k="addr:street" v="Большой Козихинский переулок"/>
    <tag k="building" v="yes"/>
    <tag k="cladr:code" v="77000000000703800"/>
  </way>
  <way id="52909917" version="4" timestamp="2011-07-19T18:05:07Z" uid="397326" user="trolleway" changeset="8770997">
    <nd ref="670631553"/>
    <nd ref="670631571"/>
    <nd ref="670631550"/>
    <nd ref="670631547"/>
    <nd ref="670631551"/>
    <nd ref="670631548"/>
    <nd ref="670631552"/>
    <nd ref="670631549"/>
    <nd ref="670631556"/>
    <nd ref="670631555"/>
    <nd ref="670631554"/>
    <nd ref="670631559"/>
    <nd ref="670631560"/>
    <nd ref="670631553"/>
    <tag k="addr:city" v="Москва"/>
    <tag k="addr:country" v="RU"/>
    <tag k="addr:housenumber" v="27"/>
    <tag k="addr:street" v="Большой Козихинский переулок"/>
    <tag k="building" v="yes"/>
    <tag k="building:levels" v="6"/>
    <tag k="cladr:code" v="77000000000703800"/>
  </way>
  <way id="52909917" version="5" timestamp="2011-12-27T14:36:46Z" uid="260756" user="Felis Pimeja" changeset="10216246">
    <nd ref="670631553"/>
    <nd ref="1563601297"/>
    <nd ref="670631571"/>
    <nd ref="670631550"/>
    <nd ref="670631547"/>
    <nd ref="670631551"/>
    <nd ref="670631548"/>
    <nd ref="670631552"/>
    <nd ref="670631549"/>
    <nd ref="1563601285"/>
    <nd ref="670631556"/>
    <nd ref="670631555"/>
    <nd ref="670631554"/>
    <nd ref="670631559"/>
    <nd ref="670631560"/>
    <nd ref="670631553"/>
    <tag k="addr:city" v="Москва"/>
    <tag k="addr:country" v="RU"/>
    <tag k="addr:housenumber" v="27"/>
    <tag k="addr:street" v="Большой Козихинский переулок"/>
    <tag k="building" v="yes"/>
    <tag k="building:levels" v="6"/>
    <tag k="cladr:code" v="77000000000703800"/>
  </way>
  <way id="52909919" version="4" timestamp="2011-04-20T11:25:53Z" uid="115477" user="wowik" changeset="7915253">
    <nd ref="670631496"/>
    <nd ref="670631557"/>
    <nd ref="670631558"/>
    <nd ref="670631560"/>
    <nd ref="670631559"/>
    <nd ref="670631561"/>
    <nd ref="670631562"/>
    <nd ref="670631495"/>
    <nd ref="670631494"/>
    <nd ref="670631493"/>
    <nd ref="670631498"/>
    <nd ref="670631497"/>
    <nd ref="670631500"/>
    <nd ref="670631499"/>
    <nd ref="670631502"/>
    <nd ref="670631501"/>
    <nd ref="670631496"/>
    <tag k="addr:city" v="Москва"/>
    <tag k="addr:country" v="RU"/>
    <tag k="addr:housenumber" v="27 с2"/>
    <tag k="addr:street" v="Большой Козихинский переулок"/>
    <tag k="building" v="yes"/>
    <tag k="cladr:code" v="77000000000703800"/>
  </way>
  <way id="52909919" version="5" timestamp="2011-07-19T18:05:07Z" uid="397326" user="trolleway" changeset="8770997">
    <nd ref="670631496"/>
    <nd ref="670631557"/>
    <nd ref="670631558"/>
    <nd ref="670631560"/>
    <nd ref="670631559"/>
    <nd ref="670631561"/>
    <nd ref="670631562"/>
    <nd ref="670631495"/>
    <nd ref="670631494"/>
    <nd ref="670631493"/>
    <nd ref="670631498"/>
    <nd ref="670631497"/>
    <nd ref="670631500"/>
    <nd ref="670631499"/>
    <nd ref="670631502"/>
    <nd ref="670631501"/>
    <nd ref="670631496"/>
    <tag k="addr:city" v="Москва"/>
    <tag k="addr:country" v="RU"/>
    <tag k="addr:housenumber" v="27 с2"/>
    <tag k="addr:street" v="Большой Козихинский переулок"/>
    <tag k="building" v="yes"/>
    <tag k="building:levels" v="12"/>
    <tag k="cladr:code" v="77000000000703800"/>
  </way>
  <way id="52909920" version="3" timestamp="2011-04-20T11:26:57Z" uid="115477" user="wowik" changeset="7915253">
    <nd ref="670631483"/>
    <nd ref="670631484"/>
    <nd ref="670631490"/>
    <nd ref="670631491"/>
    <nd ref="670631492"/>
    <nd ref="670631487"/>
    <nd ref="670631489"/>
    <nd ref="670631485"/>
    <nd ref="670631486"/>
    <nd ref="670631488"/>
    <nd ref="670631453"/>
    <nd ref="670631480"/>
    <nd ref="670631479"/>
    <nd ref="670631478"/>
    <nd ref="670631477"/>
    <nd ref="670631482"/>
    <nd ref="670631483"/>
    <tag k="addr:city" v="Москва"/>
    <tag k="addr:country" v="RU"/>
    <tag k="addr:housenumber" v="36"/>
    <tag k="addr:street" v="Малая Бронная улица"/>
    <tag k="building" v="yes"/>
    <tag k="cladr:code" v="77000000000090700"/>
  </way>
  <way id="52909920" version="4" timestamp="2012-03-19T22:02:05Z" uid="260756" user="Felis Pimeja" changeset="11035572">
    <nd ref="670631483"/>
    <nd ref="670631484"/>
    <nd ref="670631490"/>
    <nd ref="670631491"/>
    <nd ref="670631492"/>
    <nd ref="670631487"/>
    <nd ref="670631489"/>
    <nd ref="670631485"/>
    <nd ref="670631486"/>
    <nd ref="670631488"/>
    <nd ref="1682353762"/>
    <nd ref="670631480"/>
    <nd ref="670631479"/>
    <nd ref="670631478"/>
    <nd ref="670631477"/>
    <nd ref="670631482"/>
    <nd ref="670631483"/>
    <tag k="addr:city" v="Москва"/>
    <tag k="addr:country" v="RU"/>
    <tag k="addr:housenumber" v="36"/>
    <tag k="addr:street" v="Малая Бронная улица"/>
    <tag k="building" v="yes"/>
    <tag k="cladr:code" v="77000000000090700"/>
  </way>
  <way id="52909922" version="3" timestamp="2011-04-20T11:26:28Z" uid="115477" user="wowik" changeset="7915253">
    <nd ref="670631470"/>
    <nd ref="670631471"/>
    <nd ref="670631454"/>
    <nd ref="670631453"/>
    <nd ref="670631488"/>
    <nd ref="670631475"/>
    <nd ref="670631469"/>
    <nd ref="670631468"/>
    <nd ref="670631470"/>
    <tag k="addr:city" v="Москва"/>
    <tag k="addr:country" v="RU"/>
    <tag k="addr:housenumber" v="34"/>
    <tag k="addr:street" v="Малая Бронная улица"/>
    <tag k="building" v="yes"/>
    <tag k="cladr:code" v="77000000000090700"/>
  </way>
  <way id="52909922" version="4" timestamp="2012-03-19T22:02:05Z" uid="260756" user="Felis Pimeja" changeset="11035572">
    <nd ref="670631470"/>
    <nd ref="670631471"/>
    <nd ref="1682353740"/>
    <nd ref="1682353743"/>
    <nd ref="1682353756"/>
    <nd ref="1682353758"/>
    <nd ref="1682353762"/>
    <nd ref="670631488"/>
    <nd ref="670631469"/>
    <nd ref="670631468"/>
    <nd ref="670631470"/>
    <tag k="addr:city" v="Москва"/>
    <tag k="addr:country" v="RU"/>
    <tag k="addr:housenumber" v="34"/>
    <tag k="addr:street" v="Малая Бронная улица"/>
    <tag k="building" v="yes"/>
    <tag k="cladr:code" v="77000000000090700"/>
  </way>
  <way id="52909924" version="3" timestamp="2011-04-20T11:25:55Z" uid="115477" user="wowik" changeset="7915253">
    <nd ref="670631470"/>
    <nd ref="670631472"/>
    <nd ref="670631474"/>
    <nd ref="670631473"/>
    <nd ref="670631476"/>
    <nd ref="670631511"/>
    <nd ref="670631465"/>
    <nd ref="670631464"/>
    <nd ref="670631463"/>
    <nd ref="670631462"/>
    <nd ref="670631461"/>
    <nd ref="670631467"/>
    <nd ref="670631466"/>
    <nd ref="670631456"/>
    <nd ref="670631457"/>
    <nd ref="670631471"/>
    <nd ref="670631470"/>
    <tag k="addr:city" v="Москва"/>
    <tag k="addr:country" v="RU"/>
    <tag k="addr:housenumber" v="32"/>
    <tag k="addr:street" v="Малая Бронная улица"/>
    <tag k="building" v="yes"/>
    <tag k="cladr:code" v="77000000000090700"/>
  </way>
  <way id="52909926" version="3" timestamp="2011-04-20T11:27:04Z" uid="115477" user="wowik" changeset="7915253">
    <nd ref="670631596"/>
    <nd ref="670631595"/>
    <nd ref="670631587"/>
    <nd ref="670631594"/>
    <nd ref="670631596"/>
    <tag k="addr:city" v="Москва"/>
    <tag k="addr:country" v="RU"/>
    <tag k="addr:housenumber" v="31"/>
    <tag k="addr:street" v="Большой Козихинский переулок"/>
    <tag k="building" v="yes"/>
    <tag k="cladr:code" v="77000000000703800"/>
  </way>
  <way id="52909926" version="4" timestamp="2011-07-19T18:05:12Z" uid="397326" user="trolleway" changeset="8770997">
    <nd ref="670631596"/>
    <nd ref="670631595"/>
    <nd ref="670631587"/>
    <nd ref="670631594"/>
    <nd ref="670631596"/>
    <tag k="addr:city" v="Москва"/>
    <tag k="addr:country" v="RU"/>
    <tag k="addr:housenumber" v="31"/>
    <tag k="addr:street" v="Большой Козихинский переулок"/>
    <tag k="cladr:code" v="77000000000703800"/>
    <tag k="landuse" v="brownfield"/>
  </way>
  <way id="52909926" version="5" timestamp="2012-03-19T22:02:31Z" uid="260756" user="Felis Pimeja" changeset="11035572">
    <nd ref="670631596"/>
    <nd ref="670631595"/>
    <nd ref="670631587"/>
    <nd ref="670631594"/>
    <nd ref="670631596"/>
    <tag k="addr:city" v="Москва"/>
    <tag k="addr:country" v="RU"/>
    <tag k="addr:housenumber" v="31"/>
    <tag k="addr:street" v="Большой Козихинский переулок"/>
    <tag k="cladr:code" v="77000000000703800"/>
    <tag k="landuse" v="brownfield"/>
  </way>
  <way id="52909927" version="3" timestamp="2011-04-20T11:25:39Z" uid="115477" user="wowik" changeset="7915253">
    <nd ref="670631592"/>
    <nd ref="670631588"/>
    <nd ref="670631589"/>
    <nd ref="670631590"/>
    <nd ref="670631580"/>
    <nd ref="670631582"/>
    <nd ref="670631584"/>
    <nd ref="670631585"/>
    <nd ref="670631581"/>
    <nd ref="670631583"/>
    <nd ref="670631592"/>
    <tag k="addr:city" v="Москва"/>
    <tag k="addr:country" v="RU"/>
    <tag k="addr:housenumber" v="18"/>
    <tag k="addr:street" v="Ермолаевский переулок"/>
    <tag k="building" v="yes"/>
    <tag k="cladr:code" v="77000000000702200"/>
  </way>
  <way id="52909927" version="4" timestamp="2011-07-19T18:05:05Z" uid="397326" user="trolleway" changeset="8770997">
    <nd ref="670631592"/>
    <nd ref="670631588"/>
    <nd ref="670631589"/>
    <nd ref="670631590"/>
    <nd ref="670631580"/>
    <nd ref="670631582"/>
    <nd ref="670631584"/>
    <nd ref="670631585"/>
    <nd ref="670631581"/>
    <nd ref="670631583"/>
    <nd ref="670631592"/>
    <tag k="addr:city" v="Москва"/>
    <tag k="addr:country" v="RU"/>
    <tag k="addr:housenumber" v="18"/>
    <tag k="addr:street" v="Ермолаевский переулок"/>
    <tag k="building" v="yes"/>
    <tag k="building:levels" v="7"/>
    <tag k="cladr:code" v="77000000000702200"/>
  </way>
  <way id="52909929" version="3" timestamp="2011-04-20T11:26:50Z" uid="115477" user="wowik" changeset="7915253">
    <nd ref="670631601"/>
    <nd ref="670631602"/>
    <nd ref="670631591"/>
    <nd ref="670631593"/>
    <nd ref="670631601"/>
    <tag k="addr:city" v="Москва"/>
    <tag k="addr:country" v="RU"/>
    <tag k="addr:housenumber" v="18А"/>
    <tag k="addr:street" v="Ермолаевский переулок"/>
    <tag k="building" v="yes"/>
    <tag k="cladr:code" v="77000000000702200"/>
  </way>
  <way id="52909929" version="4" timestamp="2011-05-31T07:47:26Z" uid="260756" user="Felis Pimeja" changeset="8299004">
    <nd ref="670631601"/>
    <nd ref="670631602"/>
    <nd ref="1306492505"/>
    <nd ref="670631591"/>
    <nd ref="670631593"/>
    <nd ref="1306492235"/>
    <nd ref="670631601"/>
    <tag k="addr:city" v="Москва"/>
    <tag k="addr:country" v="RU"/>
    <tag k="addr:housenumber" v="18А"/>
    <tag k="addr:street" v="Ермолаевский переулок"/>
    <tag k="building" v="yes"/>
    <tag k="cladr:code" v="77000000000702200"/>
  </way>
  <way id="52909929" version="5" timestamp="2011-07-19T18:05:05Z" uid="397326" user="trolleway" changeset="8770997">
    <nd ref="670631601"/>
    <nd ref="670631602"/>
    <nd ref="1306492505"/>
    <nd ref="670631591"/>
    <nd ref="670631593"/>
    <nd ref="1306492235"/>
    <nd ref="670631601"/>
    <tag k="addr:city" v="Москва"/>
    <tag k="addr:country" v="RU"/>
    <tag k="addr:housenumber" v="18А"/>
    <tag k="addr:street" v="Ермолаевский переулок"/>
    <tag k="building" v="yes"/>
    <tag k="building:levels" v="9"/>
    <tag k="cladr:code" v="77000000000702200"/>
  </way>
  <way id="52909929" version="6" timestamp="2012-03-19T22:01:58Z" uid="260756" user="Felis Pimeja" changeset="11035572">
    <nd ref="670631601"/>
    <nd ref="670631602"/>
    <nd ref="1682353991"/>
    <nd ref="1306492505"/>
    <nd ref="1682353980"/>
    <nd ref="670631591"/>
    <nd ref="670631593"/>
    <nd ref="1682354004"/>
    <nd ref="1306492235"/>
    <nd ref="1682354015"/>
    <nd ref="670631601"/>
    <tag k="addr:city" v="Москва"/>
    <tag k="addr:country" v="RU"/>
    <tag k="addr:housenumber" v="18А"/>
    <tag k="addr:street" v="Ермолаевский переулок"/>
    <tag k="building" v="yes"/>
    <tag k="building:levels" v="9"/>
    <tag k="cladr:code" v="77000000000702200"/>
  </way>
  <way id="52909931" version="3" timestamp="2011-04-20T11:26:21Z" uid="115477" user="wowik" changeset="7915253">
    <nd ref="670631675"/>
    <nd ref="670631674"/>
    <nd ref="670631673"/>
    <nd ref="670631678"/>
    <nd ref="670631679"/>
    <nd ref="670631675"/>
    <tag k="addr:city" v="Москва"/>
    <tag k="addr:country" v="RU"/>
    <tag k="addr:housenumber" v="17"/>
    <tag k="addr:street" v="Большой Козихинский переулок"/>
    <tag k="building" v="yes"/>
    <tag k="cladr:code" v="77000000000703800"/>
  </way>
  <way id="52909931" version="4" timestamp="2011-07-19T18:05:04Z" uid="397326" user="trolleway" changeset="8770997">
    <nd ref="670631675"/>
    <nd ref="670631674"/>
    <nd ref="670631673"/>
    <nd ref="670631678"/>
    <nd ref="670631679"/>
    <nd ref="670631675"/>
    <tag k="addr:city" v="Москва"/>
    <tag k="addr:country" v="RU"/>
    <tag k="addr:housenumber" v="17"/>
    <tag k="addr:street" v="Большой Козихинский переулок"/>
    <tag k="building" v="yes"/>
    <tag k="building:levels" v="6"/>
    <tag k="cladr:code" v="77000000000703800"/>
  </way>
  <way id="52909817" version="5" timestamp="2012-07-20T11:58:00Z" uid="722137" user="OSMF Redaction Account" changeset="12374607">
    <nd ref="670631375"/>
    <nd ref="670631658"/>
    <nd ref="670631661"/>
    <nd ref="670631660"/>
    <nd ref="670631655"/>
    <nd ref="670631653"/>
    <nd ref="670631375"/>
    <tag k="addr:housenumber" v="24 с3"/>
    <tag k="addr:street" v="Малая Бронная улица"/>
    <tag k="building" v="yes"/>
    <tag k="cladr:code" v="77000000000090700"/>
  </way>
  <way id="52909818" version="5" timestamp="2012-07-20T11:58:07Z" uid="722137" user="OSMF Redaction Account" changeset="12374607">
    <nd ref="670631522"/>
    <nd ref="670631523"/>
    <nd ref="670631380"/>
    <nd ref="670631381"/>
    <nd ref="670631665"/>
    <nd ref="670631382"/>
    <nd ref="670631664"/>
    <nd ref="670631376"/>
    <nd ref="670631378"/>
    <nd ref="670631379"/>
    <nd ref="670631522"/>
    <tag k="addr:housenumber" v="17 с2"/>
    <tag k="addr:street" v="Большой Козихинский переулок"/>
    <tag k="building" v="yes"/>
    <tag k="cladr:code" v="77000000000703800"/>
  </way>
  <way id="52909819" version="5" timestamp="2012-07-20T11:58:05Z" uid="722137" user="OSMF Redaction Account" changeset="12374607">
    <nd ref="670631378"/>
    <nd ref="670631376"/>
    <nd ref="670631663"/>
    <nd ref="670631377"/>
    <nd ref="670631383"/>
    <nd ref="670631378"/>
    <tag k="addr:housenumber" v="26 с2"/>
    <tag k="addr:street" v="Малая Бронная улица"/>
    <tag k="building" v="yes"/>
    <tag k="cladr:code" v="77000000000090700"/>
  </way>
  <way id="52909820" version="6" timestamp="2012-07-20T11:57:44Z" uid="722137" user="OSMF Redaction Account" changeset="12374607">
    <nd ref="670631333"/>
    <nd ref="670631334"/>
    <nd ref="670631646"/>
    <nd ref="670631332"/>
    <nd ref="670631636"/>
    <nd ref="670631637"/>
    <nd ref="670631644"/>
    <nd ref="670631645"/>
    <nd ref="670631641"/>
    <nd ref="670631642"/>
    <nd ref="670631640"/>
    <nd ref="670631635"/>
    <nd ref="670631633"/>
    <nd ref="1563601148"/>
    <nd ref="670502002"/>
    <nd ref="1682353471"/>
    <nd ref="670631631"/>
    <nd ref="670631331"/>
    <nd ref="670631333"/>
    <tag k="addr:housenumber" v="22"/>
    <tag k="addr:street" v="Малая Бронная улица"/>
    <tag k="building" v="yes"/>
    <tag k="cladr:code" v="77000000000090700"/>
  </way>
  <way id="52909824" version="5" timestamp="2012-07-20T11:57:52Z" uid="722137" user="OSMF Redaction Account" changeset="12374607">
    <nd ref="670631648"/>
    <nd ref="670631649"/>
    <nd ref="670631360"/>
    <nd ref="670631656"/>
    <nd ref="670631652"/>
    <nd ref="670631657"/>
    <nd ref="670631651"/>
    <nd ref="670631648"/>
    <tag k="addr:housenumber" v="24 с4"/>
    <tag k="addr:street" v="Малая Бронная улица"/>
    <tag k="building" v="yes"/>
    <tag k="cladr:code" v="77000000000090700"/>
  </way>
  <way id="52909826" version="5" timestamp="2012-07-20T11:58:09Z" uid="722137" user="OSMF Redaction Account" changeset="12374607">
    <nd ref="670631520"/>
    <nd ref="670631521"/>
    <nd ref="670631677"/>
    <nd ref="670631675"/>
    <nd ref="670631679"/>
    <nd ref="670631519"/>
    <nd ref="670631520"/>
    <tag k="addr:housenumber" v="19/6"/>
    <tag k="addr:housenumber2" v="6/19"/>
    <tag k="addr:street" v="Большой Козихинский переулок"/>
    <tag k="addr:street2" v="Малый Козихинский переулок"/>
    <tag k="building" v="yes"/>
    <tag k="building:levels" v="7"/>
    <tag k="cladr:code" v="77000000000703800"/>
  </way>
  <way id="52909827" version="6" timestamp="2012-07-20T11:58:40Z" uid="722137" user="OSMF Redaction Account" changeset="12374607">
    <nd ref="670631598"/>
    <nd ref="670631597"/>
    <nd ref="1682353938"/>
    <nd ref="1682353944"/>
    <nd ref="670631600"/>
    <nd ref="670631599"/>
    <nd ref="670631614"/>
    <nd ref="670631604"/>
    <nd ref="670631605"/>
    <nd ref="670631603"/>
    <nd ref="670631617"/>
    <nd ref="670631611"/>
    <nd ref="670631615"/>
    <nd ref="670631612"/>
    <nd ref="670631618"/>
    <nd ref="670631613"/>
    <nd ref="670631629"/>
    <nd ref="670631625"/>
    <nd ref="670631622"/>
    <nd ref="670631624"/>
    <nd ref="670631628"/>
    <nd ref="670631621"/>
    <nd ref="670631627"/>
    <nd ref="670631619"/>
    <nd ref="670631687"/>
    <nd ref="670631688"/>
    <nd ref="670631694"/>
    <nd ref="670631692"/>
    <nd ref="670631691"/>
    <nd ref="670631689"/>
    <nd ref="1682353915"/>
    <nd ref="1682353913"/>
    <nd ref="1682353897"/>
    <nd ref="670631598"/>
    <tag k="addr:housenumber" v="11/13"/>
    <tag k="addr:housenumber2" v="13/11"/>
    <tag k="addr:street" v="Малый Козихинский переулок"/>
    <tag k="addr:street2" v="Трёхпрудный переулок"/>
    <tag k="building" v="yes"/>
    <tag k="building:levels" v="6"/>
    <tag k="cladr:code" v="77000000000149600"/>
  </way>
  <way id="52909832" version="5" timestamp="2012-07-20T11:58:37Z" uid="722137" user="OSMF Redaction Account" changeset="12374607">
    <nd ref="670631684"/>
    <nd ref="670631685"/>
    <nd ref="670631681"/>
    <nd ref="670631609"/>
    <nd ref="670631608"/>
    <nd ref="956231573"/>
    <nd ref="670631607"/>
    <nd ref="670631606"/>
    <nd ref="670631610"/>
    <nd ref="670631577"/>
    <nd ref="670631576"/>
    <nd ref="670631575"/>
    <nd ref="670631574"/>
    <nd ref="670631572"/>
    <nd ref="670631573"/>
    <nd ref="670631578"/>
    <nd ref="670631579"/>
    <nd ref="670631563"/>
    <nd ref="1682353850"/>
    <nd ref="956231558"/>
    <nd ref="670631683"/>
    <nd ref="670631684"/>
    <tag k="building" v="yes"/>
  </way>
  <way id="52909834" version="3" timestamp="2012-07-20T11:58:06Z" uid="722137" user="OSMF Redaction Account" changeset="12374607">
    <nd ref="670631239"/>
    <nd ref="670631385"/>
    <nd ref="670631386"/>
    <nd ref="670631238"/>
    <nd ref="670631239"/>
    <tag k="building" v="yes"/>
  </way>
  <way id="52909835" version="5" timestamp="2012-07-20T11:57:52Z" uid="722137" user="OSMF Redaction Account" changeset="12374607">
    <nd ref="670631222"/>
    <nd ref="670631223"/>
    <nd ref="670631199"/>
    <nd ref="670631201"/>
    <nd ref="670631202"/>
    <nd ref="670631210"/>
    <nd ref="670631198"/>
    <nd ref="670631178"/>
    <nd ref="670631200"/>
    <nd ref="670631177"/>
    <nd ref="670660783"/>
    <nd ref="670660784"/>
    <nd ref="670631227"/>
    <nd ref="670631224"/>
    <nd ref="670631222"/>
    <tag k="addr:housenumber" v="4"/>
    <tag k="addr:street" v="Ермолаевский переулок"/>
    <tag k="building" v="yes"/>
    <tag k="cladr:code" v="77000000000702200"/>
  </way>
  <way id="52909837" version="5" timestamp="2012-07-20T11:58:09Z" uid="722137" user="OSMF Redaction Account" changeset="12374607">
    <nd ref="670631520"/>
    <nd ref="670631522"/>
    <nd ref="670631379"/>
    <nd ref="670631384"/>
    <nd ref="670631524"/>
    <nd ref="670631526"/>
    <nd ref="670631525"/>
    <nd ref="670631370"/>
    <nd ref="670631371"/>
    <nd ref="670631372"/>
    <nd ref="670631373"/>
    <nd ref="670631374"/>
    <nd ref="670631503"/>
    <nd ref="670631521"/>
    <nd ref="670631520"/>
    <tag k="addr:housenumber" v="4"/>
    <tag k="addr:street" v="Малый Козихинский переулок"/>
    <tag k="building" v="yes"/>
    <tag k="building:levels" v="4"/>
    <tag k="cladr:code" v="77000000000149600"/>
  </way>
  <way id="52909838" version="4" timestamp="2012-07-20T11:58:08Z" uid="722137" user="OSMF Redaction Account" changeset="12374607">
    <nd ref="670631503"/>
    <nd ref="670631374"/>
    <nd ref="670631343"/>
    <nd ref="670631350"/>
    <nd ref="670631357"/>
    <nd ref="670631358"/>
    <nd ref="670631359"/>
    <nd ref="670631504"/>
    <nd ref="670631503"/>
    <tag k="addr:housenumber" v="2"/>
    <tag k="addr:street" v="Малый Козихинский переулок"/>
    <tag k="building" v="yes"/>
    <tag k="cladr:code" v="77000000000149600"/>
  </way>
  <way id="52909842" version="6" timestamp="2012-07-20T11:58:09Z" uid="722137" user="OSMF Redaction Account" changeset="12374607">
    <nd ref="670631458"/>
    <nd ref="670631505"/>
    <nd ref="670631506"/>
    <nd ref="1682353661"/>
    <nd ref="1682353659"/>
    <nd ref="1682353663"/>
    <nd ref="670631460"/>
    <nd ref="670631459"/>
    <nd ref="670631458"/>
    <tag k="addr:housenumber" v="30/1"/>
    <tag k="addr:housenumber2" v="1/30"/>
    <tag k="addr:street" v="Малая Бронная улица"/>
    <tag k="addr:street2" v="Малый Козихинский переулок"/>
    <tag k="building" v="yes"/>
    <tag k="building:levels" v="3"/>
    <tag k="cladr:code" v="77000000000090700"/>
  </way>
  <way id="52909843" version="5" timestamp="2012-07-20T11:57:38Z" uid="722137" user="OSMF Redaction Account" changeset="12374607">
    <nd ref="670631195"/>
    <nd ref="670631191"/>
    <nd ref="670631192"/>
    <nd ref="670631189"/>
    <nd ref="670631190"/>
    <nd ref="670631179"/>
    <nd ref="670661066"/>
    <nd ref="670661069"/>
    <nd ref="670631195"/>
    <tag k="addr:housenumber" v="34"/>
    <tag k="addr:street" v="улица Спиридоновка"/>
    <tag k="building" v="yes"/>
    <tag k="cladr:code" v="77000000000711200"/>
  </way>
  <way id="52909845" version="4" timestamp="2012-07-20T11:57:42Z" uid="722137" user="OSMF Redaction Account" changeset="12374607">
    <nd ref="670631275"/>
    <nd ref="670631267"/>
    <nd ref="670631266"/>
    <nd ref="670631279"/>
    <nd ref="670631277"/>
    <nd ref="670631280"/>
    <nd ref="670631272"/>
    <nd ref="670631271"/>
    <nd ref="670631284"/>
    <nd ref="670631270"/>
    <nd ref="670631274"/>
    <nd ref="670631273"/>
    <nd ref="670631275"/>
    <tag k="addr:housenumber" v="8"/>
    <tag k="addr:street" v="Большой Патриарший переулок"/>
    <tag k="building" v="yes"/>
    <tag k="cladr:code" v="77000000000722000"/>
  </way>
  <way id="52909850" version="3" timestamp="2012-07-20T11:57:40Z" uid="722137" user="OSMF Redaction Account" changeset="12374607">
    <nd ref="670631268"/>
    <nd ref="670631266"/>
    <nd ref="670631267"/>
    <nd ref="670631276"/>
    <nd ref="670631264"/>
    <nd ref="670631263"/>
    <nd ref="670631262"/>
    <nd ref="670631265"/>
    <nd ref="670631268"/>
    <tag k="building" v="yes"/>
  </way>
  <way id="52909851" version="4" timestamp="2012-07-20T11:57:59Z" uid="722137" user="OSMF Redaction Account" changeset="12374607">
    <nd ref="670631228"/>
    <nd ref="670631237"/>
    <nd ref="670631250"/>
    <nd ref="670631253"/>
    <nd ref="670631254"/>
    <nd ref="670631230"/>
    <nd ref="670631241"/>
    <nd ref="670631231"/>
    <nd ref="670631232"/>
    <nd ref="670631233"/>
    <nd ref="670631234"/>
    <nd ref="670631235"/>
    <nd ref="670631236"/>
    <nd ref="670631229"/>
    <nd ref="670631228"/>
    <tag k="addr:housenumber" v="8"/>
    <tag k="addr:street" v="Ермолаевский переулок"/>
    <tag k="building" v="yes"/>
    <tag k="cladr:code" v="77000000000702200"/>
  </way>
  <way id="52909852" version="5" timestamp="2012-07-20T11:57:45Z" uid="722137" user="OSMF Redaction Account" changeset="12374607">
    <nd ref="670631220"/>
    <nd ref="670631206"/>
    <nd ref="670631205"/>
    <nd ref="670631204"/>
    <nd ref="670631197"/>
    <nd ref="670631203"/>
    <nd ref="670631196"/>
    <nd ref="670631209"/>
    <nd ref="670631208"/>
    <nd ref="670631207"/>
    <nd ref="670631220"/>
    <tag k="addr:housenumber" v="36 с2"/>
    <tag k="addr:street" v="улица Спиридоновка"/>
    <tag k="building" v="yes"/>
    <tag k="cladr:code" v="77000000000711200"/>
  </way>
  <way id="52909854" version="5" timestamp="2012-07-20T11:57:57Z" uid="722137" user="OSMF Redaction Account" changeset="12374607">
    <nd ref="670631227"/>
    <nd ref="670631228"/>
    <nd ref="670631229"/>
    <nd ref="670631226"/>
    <nd ref="670631225"/>
    <nd ref="670631224"/>
    <nd ref="670631227"/>
    <tag k="addr:housenumber" v="6"/>
    <tag k="addr:street" v="Ермолаевский переулок"/>
    <tag k="building" v="yes"/>
    <tag k="cladr:code" v="77000000000702200"/>
  </way>
  <way id="52909855" version="5" timestamp="2012-07-20T11:57:49Z" uid="722137" user="OSMF Redaction Account" changeset="12374607">
    <nd ref="670631207"/>
    <nd ref="670631211"/>
    <nd ref="670631221"/>
    <nd ref="670631220"/>
    <nd ref="670631207"/>
    <tag k="addr:housenumber" v="5 с7"/>
    <tag k="addr:street" v="Малый Патриарший переулок"/>
    <tag k="building" v="yes"/>
    <tag k="cladr:code" v="77000000000703900"/>
  </way>
  <way id="52909857" version="5" timestamp="2012-07-20T11:57:38Z" uid="722137" user="OSMF Redaction Account" changeset="12374607">
    <nd ref="670631217"/>
    <nd ref="670631218"/>
    <nd ref="670631259"/>
    <nd ref="670631258"/>
    <nd ref="670631217"/>
    <tag k="addr:housenumber" v="3 с2"/>
    <tag k="addr:street" v="Большой Патриарший переулок"/>
    <tag k="building" v="yes"/>
    <tag k="cladr:code" v="77000000000722000"/>
  </way>
  <way id="52909859" version="4" timestamp="2012-07-20T11:57:55Z" uid="722137" user="OSMF Redaction Account" changeset="12374607">
    <nd ref="670631242"/>
    <nd ref="670631269"/>
    <nd ref="359989647"/>
    <nd ref="359989616"/>
    <nd ref="670631242"/>
    <tag k="addr:street" v="Малый Патриарший переулок"/>
    <tag k="building" v="yes"/>
    <tag k="cladr:code" v="77000000000703900"/>
  </way>
  <way id="52909861" version="4" timestamp="2012-07-20T11:58:00Z" uid="722137" user="OSMF Redaction Account" changeset="12374607">
    <nd ref="670631257"/>
    <nd ref="670631252"/>
    <nd ref="670631240"/>
    <nd ref="670631249"/>
    <nd ref="670631248"/>
    <nd ref="670631251"/>
    <nd ref="670631250"/>
    <nd ref="670631237"/>
    <nd ref="670631247"/>
    <nd ref="670631256"/>
    <nd ref="670631257"/>
    <tag k="addr:housenumber" v="10/7"/>
    <tag k="addr:housenumber2" v="7/10"/>
    <tag k="addr:street" v="Ермолаевский переулок"/>
    <tag k="addr:street2" v="Малый Патриарший переулок"/>
    <tag k="building" v="yes"/>
    <tag k="cladr:code" v="77000000000702200"/>
  </way>
  <way id="52909864" version="4" timestamp="2012-07-20T11:57:56Z" uid="722137" user="OSMF Redaction Account" changeset="12374607">
    <nd ref="670631242"/>
    <nd ref="670631244"/>
    <nd ref="670631246"/>
    <nd ref="670631245"/>
    <nd ref="670631243"/>
    <nd ref="670631255"/>
    <nd ref="670631257"/>
    <nd ref="670631256"/>
    <nd ref="670631269"/>
    <nd ref="670631242"/>
    <tag k="addr:housenumber" v="5"/>
    <tag k="addr:street" v="Малый Патриарший переулок"/>
    <tag k="building" v="yes"/>
    <tag k="cladr:code" v="77000000000703900"/>
  </way>
  <way id="52909866" version="5" timestamp="2012-07-20T11:57:51Z" uid="722137" user="OSMF Redaction Account" changeset="12374607">
    <nd ref="670631261"/>
    <nd ref="670631260"/>
    <nd ref="670631215"/>
    <nd ref="670631216"/>
    <nd ref="670631261"/>
    <tag k="addr:housenumber" v="5 с2"/>
    <tag k="addr:street" v="Малый Патриарший переулок"/>
    <tag k="building" v="yes"/>
    <tag k="cladr:code" v="77000000000703900"/>
  </way>
  <way id="52909868" version="5" timestamp="2012-07-20T11:57:46Z" uid="722137" user="OSMF Redaction Account" changeset="12374607">
    <nd ref="670631285"/>
    <nd ref="670631308"/>
    <nd ref="670631315"/>
    <nd ref="670631317"/>
    <nd ref="670631318"/>
    <nd ref="670631316"/>
    <nd ref="670631286"/>
    <nd ref="670631290"/>
    <nd ref="670631289"/>
    <nd ref="670631288"/>
    <nd ref="670631287"/>
    <nd ref="670631291"/>
    <nd ref="670631285"/>
    <tag k="addr:housenumber" v="12 с2"/>
    <tag k="addr:street" v="Большой Патриарший переулок"/>
    <tag k="building" v="yes"/>
    <tag k="cladr:code" v="77000000000722000"/>
  </way>
  <way id="52909870" version="4" timestamp="2012-07-20T11:57:50Z" uid="722137" user="OSMF Redaction Account" changeset="12374607">
    <nd ref="670631323"/>
    <nd ref="670631324"/>
    <nd ref="670631322"/>
    <nd ref="670631340"/>
    <nd ref="670631330"/>
    <nd ref="670631329"/>
    <nd ref="670631328"/>
    <nd ref="670631327"/>
    <nd ref="670631326"/>
    <nd ref="670631314"/>
    <nd ref="670631320"/>
    <nd ref="670631319"/>
    <nd ref="670631321"/>
    <nd ref="670631323"/>
    <tag k="addr:housenumber" v="25"/>
    <tag k="addr:street" v="Малая Бронная улица"/>
    <tag k="building" v="yes"/>
    <tag k="cladr:code" v="77000000000090700"/>
  </way>
  <way id="52909872" version="3" timestamp="2012-07-20T11:57:42Z" uid="722137" user="OSMF Redaction Account" changeset="12374607">
    <nd ref="670631283"/>
    <nd ref="670631292"/>
    <nd ref="670631281"/>
    <nd ref="670631282"/>
    <nd ref="670631283"/>
    <tag k="building" v="yes"/>
  </way>
  <way id="52909873" version="4" timestamp="2012-07-20T11:57:46Z" uid="722137" user="OSMF Redaction Account" changeset="12374607">
    <nd ref="670631279"/>
    <nd ref="670631278"/>
    <nd ref="670631293"/>
    <nd ref="670631277"/>
    <nd ref="670631279"/>
    <tag k="addr:housenumber" v="10"/>
    <tag k="addr:street" v="Большой Патриарший переулок"/>
    <tag k="building" v="yes"/>
    <tag k="cladr:code" v="77000000000722000"/>
  </way>
  <way id="52909875" version="4" timestamp="2012-07-20T11:57:59Z" uid="722137" user="OSMF Redaction Account" changeset="12374607">
    <nd ref="670631309"/>
    <nd ref="670631310"/>
    <nd ref="670631312"/>
    <nd ref="670631311"/>
    <nd ref="670631309"/>
    <tag k="addr:housenumber" v="7"/>
    <tag k="addr:street" v="Большой Патриарший переулок"/>
    <tag k="building" v="yes"/>
    <tag k="cladr:code" v="77000000000722000"/>
  </way>
  <way id="52909877" version="3" timestamp="2012-07-20T11:57:57Z" uid="722137" user="OSMF Redaction Account" changeset="12374607">
    <nd ref="670631298"/>
    <nd ref="670631296"/>
    <nd ref="670631302"/>
    <nd ref="670631300"/>
    <nd ref="670631305"/>
    <nd ref="670631307"/>
    <nd ref="670631304"/>
    <nd ref="670631295"/>
    <nd ref="670631294"/>
    <nd ref="670631299"/>
    <nd ref="670631297"/>
    <nd ref="670631303"/>
    <nd ref="670631301"/>
    <nd ref="670631306"/>
    <nd ref="670631298"/>
    <tag k="building" v="yes"/>
  </way>
  <way id="52909879" version="5" timestamp="2012-07-20T11:57:47Z" uid="722137" user="OSMF Redaction Account" changeset="12374607">
    <nd ref="670631335"/>
    <nd ref="670631336"/>
    <nd ref="670631333"/>
    <nd ref="670631331"/>
    <nd ref="670631335"/>
    <tag k="addr:housenumber" v="22 с2"/>
    <tag k="addr:street" v="Малая Бронная улица"/>
    <tag k="building" v="yes"/>
    <tag k="cladr:code" v="77000000000090700"/>
  </way>
  <way id="52909881" version="5" timestamp="2012-07-20T11:57:43Z" uid="722137" user="OSMF Redaction Account" changeset="12374607">
    <nd ref="670631325"/>
    <nd ref="670631329"/>
    <nd ref="670631330"/>
    <nd ref="664072359"/>
    <nd ref="670631325"/>
    <tag k="addr:housenumber" v="23 с2"/>
    <tag k="addr:street" v="Малая Бронная улица"/>
    <tag k="building" v="yes"/>
    <tag k="cladr:code" v="77000000000090700"/>
  </way>
  <way id="52909883" version="5" timestamp="2012-07-20T11:58:01Z" uid="722137" user="OSMF Redaction Account" changeset="12374607">
    <nd ref="670631364"/>
    <nd ref="670631344"/>
    <nd ref="670631365"/>
    <nd ref="670631366"/>
    <nd ref="670631367"/>
    <nd ref="670631368"/>
    <nd ref="670631369"/>
    <nd ref="670631364"/>
    <tag k="addr:housenumber" v="26 с3"/>
    <tag k="addr:street" v="Малая Бронная улица"/>
    <tag k="building" v="yes"/>
    <tag k="cladr:code" v="77000000000090700"/>
  </way>
  <way id="52909885" version="3" timestamp="2012-07-20T11:58:01Z" uid="722137" user="OSMF Redaction Account" changeset="12374607">
    <nd ref="670631347"/>
    <nd ref="670631346"/>
    <nd ref="670631345"/>
    <nd ref="670631343"/>
    <nd ref="670631374"/>
    <nd ref="670631365"/>
    <nd ref="670631344"/>
    <nd ref="670631348"/>
    <nd ref="670631347"/>
    <tag k="building" v="yes"/>
  </way>
  <way id="52909887" version="4" timestamp="2012-07-20T11:57:59Z" uid="722137" user="OSMF Redaction Account" changeset="12374607">
    <nd ref="670631337"/>
    <nd ref="670631348"/>
    <nd ref="670631344"/>
    <nd ref="670631364"/>
    <nd ref="670631339"/>
    <nd ref="670631363"/>
    <nd ref="670631361"/>
    <nd ref="670631362"/>
    <nd ref="360419415"/>
    <nd ref="670631338"/>
    <nd ref="670631337"/>
    <tag k="addr:housenumber" v="26"/>
    <tag k="addr:street" v="Малая Бронная улица"/>
    <tag k="building" v="yes"/>
    <tag k="cladr:code" v="77000000000090700"/>
  </way>
  <way id="52909889" version="4" timestamp="2012-07-20T11:58:06Z" uid="722137" user="OSMF Redaction Account" changeset="12374607">
    <nd ref="670631349"/>
    <nd ref="670631351"/>
    <nd ref="670631353"/>
    <nd ref="670631352"/>
    <nd ref="670631355"/>
    <nd ref="670631354"/>
    <nd ref="670631356"/>
    <nd ref="670631347"/>
    <nd ref="670631348"/>
    <nd ref="670631337"/>
    <nd ref="670631342"/>
    <nd ref="670631341"/>
    <nd ref="670631349"/>
    <tag k="addr:housenumber" v="28"/>
    <tag k="addr:street" v="Малая Бронная улица"/>
    <tag k="building" v="yes"/>
    <tag k="cladr:code" v="77000000000090700"/>
  </way>
  <way id="52909890" version="5" timestamp="2012-07-20T11:58:38Z" uid="722137" user="OSMF Redaction Account" changeset="12374607">
    <nd ref="670631431"/>
    <nd ref="670631433"/>
    <nd ref="670631412"/>
    <nd ref="670631415"/>
    <nd ref="670631416"/>
    <nd ref="670631413"/>
    <nd ref="670631414"/>
    <nd ref="670631402"/>
    <nd ref="670631403"/>
    <nd ref="670631401"/>
    <nd ref="670631429"/>
    <nd ref="670631430"/>
    <nd ref="670631431"/>
    <tag k="addr:housenumber" v="32 с2"/>
    <tag k="addr:street" v="Садовая-Кудринская улица"/>
    <tag k="building" v="yes"/>
    <tag k="cladr:code" v="77000000000255100"/>
  </way>
  <way id="52909894" version="6" timestamp="2012-07-20T11:58:33Z" uid="722137" user="OSMF Redaction Account" changeset="12374607">
    <nd ref="599928897"/>
    <nd ref="670631426"/>
    <nd ref="670631425"/>
    <nd ref="670631423"/>
    <nd ref="670631421"/>
    <nd ref="670631428"/>
    <nd ref="670631483"/>
    <nd ref="670631482"/>
    <nd ref="670631481"/>
    <nd ref="670631419"/>
    <nd ref="670631420"/>
    <nd ref="670631422"/>
    <nd ref="670631424"/>
    <nd ref="599928897"/>
    <tag k="addr:housenumber" v="38"/>
    <tag k="addr:street" v="Малая Бронная улица"/>
    <tag k="building" v="yes"/>
    <tag k="building:levels" v="8"/>
    <tag k="cladr:code" v="77000000000090700"/>
  </way>
  <way id="52909897" version="4" timestamp="2012-07-20T11:58:29Z" uid="722137" user="OSMF Redaction Account" changeset="12374607">
    <nd ref="670631410"/>
    <nd ref="670631409"/>
    <nd ref="670631408"/>
    <nd ref="670631411"/>
    <nd ref="670631410"/>
    <tag k="addr:housenumber" v="11"/>
    <tag k="addr:street" v="Ермолаевский переулок"/>
    <tag k="building" v="yes"/>
    <tag k="cladr:code" v="77000000000702200"/>
  </way>
  <way id="52909899" version="4" timestamp="2012-07-20T11:58:11Z" uid="722137" user="OSMF Redaction Account" changeset="12374607">
    <nd ref="670631400"/>
    <nd ref="670631386"/>
    <nd ref="670631385"/>
    <nd ref="670631387"/>
    <nd ref="670631400"/>
    <tag k="addr:housenumber" v="5"/>
    <tag k="addr:street" v="Ермолаевский переулок"/>
    <tag k="building" v="yes"/>
    <tag k="cladr:code" v="77000000000702200"/>
  </way>
  <way id="52909901" version="4" timestamp="2012-07-20T11:58:34Z" uid="722137" user="OSMF Redaction Account" changeset="12374607">
    <nd ref="670631406"/>
    <nd ref="670631417"/>
    <nd ref="670631418"/>
    <nd ref="670631407"/>
    <nd ref="670631405"/>
    <nd ref="670631404"/>
    <nd ref="670631406"/>
    <tag k="addr:housenumber" v="32А"/>
    <tag k="addr:street" v="Садовая-Кудринская улица"/>
    <tag k="building" v="yes"/>
    <tag k="cladr:code" v="77000000000255100"/>
  </way>
  <way id="52909904" version="5" timestamp="2012-07-20T11:58:14Z" uid="722137" user="OSMF Redaction Account" changeset="12374607">
    <nd ref="670631395"/>
    <nd ref="670631394"/>
    <nd ref="670631392"/>
    <nd ref="670631391"/>
    <nd ref="670631393"/>
    <nd ref="670631399"/>
    <nd ref="670631396"/>
    <nd ref="670631398"/>
    <nd ref="670631397"/>
    <nd ref="670631389"/>
    <nd ref="670631390"/>
    <nd ref="670631388"/>
    <nd ref="670631395"/>
    <tag k="addr:housenumber" v="5 с2"/>
    <tag k="addr:street" v="Ермолаевский переулок"/>
    <tag k="building" v="yes"/>
    <tag k="cladr:code" v="77000000000702200"/>
  </way>
  <way id="52909906" version="3" timestamp="2012-07-20T11:58:47Z" uid="722137" user="OSMF Redaction Account" changeset="12374607">
    <nd ref="670631434"/>
    <nd ref="670631438"/>
    <nd ref="670631439"/>
    <nd ref="670631435"/>
    <nd ref="670631434"/>
    <tag k="building" v="yes"/>
  </way>
  <way id="52909907" version="5" timestamp="2012-07-20T11:58:47Z" uid="722137" user="OSMF Redaction Account" changeset="12374607">
    <nd ref="670631448"/>
    <nd ref="670631442"/>
    <nd ref="670631443"/>
    <nd ref="670631445"/>
    <nd ref="670631446"/>
    <nd ref="670631440"/>
    <nd ref="670631452"/>
    <nd ref="670631449"/>
    <nd ref="670631450"/>
    <nd ref="670631448"/>
    <tag k="addr:housenumber" v="4 с2"/>
    <tag k="addr:street" v="Большая Садовая улица"/>
    <tag k="building" v="yes"/>
    <tag k="cladr:code" v="77000000000254200"/>
  </way>
  <way id="52909908" version="6" timestamp="2012-07-20T11:58:24Z" uid="722137" user="OSMF Redaction Account" changeset="12374607">
    <nd ref="670631544"/>
    <nd ref="670631541"/>
    <nd ref="670631542"/>
    <nd ref="670631540"/>
    <nd ref="670631544"/>
    <tag k="addr:housenumber" v="27 с12"/>
    <tag k="addr:street" v="Большой Козихинский переулок"/>
    <tag k="building" v="yes"/>
    <tag k="building:levels" v="1"/>
    <tag k="cladr:code" v="77000000000703800"/>
  </way>
  <way id="52909911" version="4" timestamp="2012-07-20T11:58:18Z" uid="722137" user="OSMF Redaction Account" changeset="12374607">
    <nd ref="670631515"/>
    <nd ref="670631528"/>
    <nd ref="670631510"/>
    <nd ref="670631508"/>
    <nd ref="670631507"/>
    <nd ref="670631514"/>
    <nd ref="670631513"/>
    <nd ref="670631512"/>
    <nd ref="670631517"/>
    <nd ref="670631515"/>
    <tag k="addr:housenumber" v="3"/>
    <tag k="addr:street" v="Малый Козихинский переулок"/>
    <tag k="building" v="yes"/>
    <tag k="cladr:code" v="77000000000149600"/>
  </way>
  <way id="52909912" version="5" timestamp="2012-07-20T11:58:19Z" uid="722137" user="OSMF Redaction Account" changeset="12374607">
    <nd ref="670631535"/>
    <nd ref="670631515"/>
    <nd ref="670631517"/>
    <nd ref="1366882375"/>
    <nd ref="670631518"/>
    <nd ref="670631516"/>
    <nd ref="670631537"/>
    <nd ref="670631533"/>
    <nd ref="670631564"/>
    <nd ref="670631530"/>
    <nd ref="670631532"/>
    <nd ref="670631565"/>
    <nd ref="670631566"/>
    <nd ref="670631536"/>
    <nd ref="670631539"/>
    <nd ref="670631531"/>
    <nd ref="670631529"/>
    <nd ref="670631534"/>
    <nd ref="670631538"/>
    <nd ref="670631535"/>
    <tag k="addr:housenumber" v="23"/>
    <tag k="addr:street" v="Большой Козихинский переулок"/>
    <tag k="building" v="yes"/>
    <tag k="building:levels" v="5"/>
    <tag k="cladr:code" v="77000000000703800"/>
  </way>
  <way id="52909912" version="6" timestamp="2012-09-07T23:25:22Z" uid="260756" user="Felis Pimeja" changeset="13028710">
    <nd ref="670631535"/>
    <nd ref="670631515"/>
    <nd ref="670631517"/>
    <nd ref="1366882375"/>
    <nd ref="670631518"/>
    <nd ref="670631516"/>
    <nd ref="670631537"/>
    <nd ref="670631533"/>
    <nd ref="670631564"/>
    <nd ref="670631530"/>
    <nd ref="670631532"/>
    <nd ref="670631566"/>
    <nd ref="670631536"/>
    <nd ref="670631539"/>
    <nd ref="670631531"/>
    <nd ref="670631529"/>
    <nd ref="670631534"/>
    <nd ref="670631538"/>
    <nd ref="670631535"/>
    <tag k="addr:housenumber" v="23"/>
    <tag k="addr:street" v="Большой Козихинский переулок"/>
    <tag k="building" v="yes"/>
    <tag k="building:levels" v="5"/>
    <tag k="cladr:code" v="77000000000703800"/>
  </way>
  <way id="52909917" version="6" timestamp="2012-07-20T11:58:36Z" uid="722137" user="OSMF Redaction Account" changeset="12374607">
    <nd ref="670631553"/>
    <nd ref="1563601297"/>
    <nd ref="670631571"/>
    <nd ref="670631550"/>
    <nd ref="670631547"/>
    <nd ref="670631551"/>
    <nd ref="670631548"/>
    <nd ref="670631552"/>
    <nd ref="670631549"/>
    <nd ref="1563601285"/>
    <nd ref="670631556"/>
    <nd ref="670631555"/>
    <nd ref="670631554"/>
    <nd ref="670631559"/>
    <nd ref="670631560"/>
    <nd ref="670631553"/>
    <tag k="addr:housenumber" v="27"/>
    <tag k="addr:street" v="Большой Козихинский переулок"/>
    <tag k="building" v="yes"/>
    <tag k="building:levels" v="6"/>
    <tag k="cladr:code" v="77000000000703800"/>
  </way>
  <way id="52909919" version="6" timestamp="2012-07-20T11:58:32Z" uid="722137" user="OSMF Redaction Account" changeset="12374607">
    <nd ref="670631496"/>
    <nd ref="670631557"/>
    <nd ref="670631558"/>
    <nd ref="670631560"/>
    <nd ref="670631559"/>
    <nd ref="670631561"/>
    <nd ref="670631562"/>
    <nd ref="670631495"/>
    <nd ref="670631494"/>
    <nd ref="670631493"/>
    <nd ref="670631498"/>
    <nd ref="670631497"/>
    <nd ref="670631500"/>
    <nd ref="670631499"/>
    <nd ref="670631502"/>
    <nd ref="670631501"/>
    <nd ref="670631496"/>
    <tag k="addr:housenumber" v="27 с2"/>
    <tag k="addr:street" v="Большой Козихинский переулок"/>
    <tag k="building" v="yes"/>
    <tag k="building:levels" v="12"/>
    <tag k="cladr:code" v="77000000000703800"/>
  </way>
  <way id="52909920" version="5" timestamp="2012-07-20T11:58:27Z" uid="722137" user="OSMF Redaction Account" changeset="12374607">
    <nd ref="670631483"/>
    <nd ref="670631484"/>
    <nd ref="670631490"/>
    <nd ref="670631491"/>
    <nd ref="670631492"/>
    <nd ref="670631487"/>
    <nd ref="670631489"/>
    <nd ref="670631485"/>
    <nd ref="670631486"/>
    <nd ref="670631488"/>
    <nd ref="1682353762"/>
    <nd ref="670631480"/>
    <nd ref="670631479"/>
    <nd ref="670631478"/>
    <nd ref="670631477"/>
    <nd ref="670631482"/>
    <nd ref="670631483"/>
    <tag k="addr:housenumber" v="36"/>
    <tag k="addr:street" v="Малая Бронная улица"/>
    <tag k="building" v="yes"/>
    <tag k="cladr:code" v="77000000000090700"/>
  </way>
  <way id="52909922" version="5" timestamp="2012-07-20T11:58:17Z" uid="722137" user="OSMF Redaction Account" changeset="12374607">
    <nd ref="670631470"/>
    <nd ref="670631471"/>
    <nd ref="1682353740"/>
    <nd ref="1682353743"/>
    <nd ref="1682353756"/>
    <nd ref="1682353758"/>
    <nd ref="1682353762"/>
    <nd ref="670631488"/>
    <nd ref="670631469"/>
    <nd ref="670631468"/>
    <nd ref="670631470"/>
    <tag k="addr:housenumber" v="34"/>
    <tag k="addr:street" v="Малая Бронная улица"/>
    <tag k="building" v="yes"/>
    <tag k="cladr:code" v="77000000000090700"/>
  </way>
  <way id="52909924" version="4" timestamp="2012-07-20T11:58:18Z" uid="722137" user="OSMF Redaction Account" changeset="12374607">
    <nd ref="670631470"/>
    <nd ref="670631472"/>
    <nd ref="670631474"/>
    <nd ref="670631473"/>
    <nd ref="670631476"/>
    <nd ref="670631511"/>
    <nd ref="670631465"/>
    <nd ref="670631464"/>
    <nd ref="670631463"/>
    <nd ref="670631462"/>
    <nd ref="670631461"/>
    <nd ref="670631467"/>
    <nd ref="670631466"/>
    <nd ref="670631456"/>
    <nd ref="670631457"/>
    <nd ref="670631471"/>
    <nd ref="670631470"/>
    <tag k="addr:housenumber" v="32"/>
    <tag k="addr:street" v="Малая Бронная улица"/>
    <tag k="building" v="yes"/>
    <tag k="cladr:code" v="77000000000090700"/>
  </way>
  <way id="52909926" version="6" timestamp="2012-07-20T11:58:39Z" uid="722137" user="OSMF Redaction Account" changeset="12374607">
    <nd ref="670631596"/>
    <nd ref="670631595"/>
    <nd ref="670631587"/>
    <nd ref="670631594"/>
    <nd ref="670631596"/>
    <tag k="addr:housenumber" v="31"/>
    <tag k="addr:street" v="Большой Козихинский переулок"/>
    <tag k="cladr:code" v="77000000000703800"/>
    <tag k="landuse" v="brownfield"/>
  </way>
  <way id="52909927" version="5" timestamp="2012-07-20T11:58:44Z" uid="722137" user="OSMF Redaction Account" changeset="12374607">
    <nd ref="670631592"/>
    <nd ref="670631588"/>
    <nd ref="670631589"/>
    <nd ref="670631590"/>
    <nd ref="670631580"/>
    <nd ref="670631582"/>
    <nd ref="670631584"/>
    <nd ref="670631585"/>
    <nd ref="670631581"/>
    <nd ref="670631583"/>
    <nd ref="670631592"/>
    <tag k="addr:housenumber" v="18"/>
    <tag k="addr:street" v="Ермолаевский переулок"/>
    <tag k="building" v="yes"/>
    <tag k="building:levels" v="7"/>
    <tag k="cladr:code" v="77000000000702200"/>
  </way>
  <way id="52909929" version="7" timestamp="2012-07-20T11:58:49Z" uid="722137" user="OSMF Redaction Account" changeset="12374607">
    <nd ref="670631601"/>
    <nd ref="670631602"/>
    <nd ref="1682353991"/>
    <nd ref="1306492505"/>
    <nd ref="1682353980"/>
    <nd ref="670631591"/>
    <nd ref="670631593"/>
    <nd ref="1682354004"/>
    <nd ref="1306492235"/>
    <nd ref="1682354015"/>
    <nd ref="670631601"/>
    <tag k="addr:housenumber" v="18А"/>
    <tag k="addr:street" v="Ермолаевский переулок"/>
    <tag k="building" v="yes"/>
    <tag k="building:levels" v="9"/>
    <tag k="cladr:code" v="77000000000702200"/>
  </way>
  <way id="52909931" version="5" timestamp="2012-07-20T11:58:12Z" uid="722137" user="OSMF Redaction Account" changeset="12374607">
    <nd ref="670631675"/>
    <nd ref="670631674"/>
    <nd ref="670631673"/>
    <nd ref="670631678"/>
    <nd ref="670631679"/>
    <nd ref="670631675"/>
    <tag k="addr:housenumber" v="17"/>
    <tag k="addr:street" v="Большой Козихинский переулок"/>
    <tag k="building" v="yes"/>
    <tag k="building:levels" v="6"/>
    <tag k="cladr:code" v="77000000000703800"/>
  </way>
</osm>
