<?xml version='1.0' encoding='UTF-8'?>
<osm version="0.6" generator="libosmium/2.20.0">
  <way id="53262101" version="3" timestamp="2010-07-09T07:53:40Z" uid="74617" user="JohnSmith" changeset="5171569">
    <nd ref="673943994"/>
    <nd ref="673943995"/>
    <nd ref="673943996"/>
    <tag k="highway" v="residential"/>
    <tag k="maxspeed" v="50"/>
    <tag k="maxspeed:source" v="default residential speed limit in Australia"/>
    <tag k="name" v="Marriot Turn"/>
    <tag k="source" v="survey"/>
  </way>
  <way id="53262101" version="4" timestamp="2012-01-20T04:38:45Z" uid="147510" user="woodpeck_fixbot" changeset="10442986">
    <nd ref="673943994"/>
    <nd ref="673943995"/>
    <nd ref="673943996"/>
    <tag k="highway" v="residential"/>
    <tag k="name" v="Marriot Turn"/>
    <tag k="source" v="survey"/>
  </way>
  <way id="53262102" version="3" timestamp="2010-07-09T07:50:09Z" uid="74617" user="JohnSmith" changeset="5171569">
    <nd ref="673944000"/>
    <nd ref="673944001"/>
    <tag k="highway" v="residential"/>
    <tag k="maxspeed" v="50"/>
    <tag k="maxspeed:source" v="default residential speed limit in Australia"/>
    <tag k="name" v="Annandale Circle"/>
    <tag k="source" v="survey"/>
  </way>
  <way id="53262102" version="4" timestamp="2012-01-20T04:38:46Z" uid="147510" user="woodpeck_fixbot" changeset="10442986">
    <nd ref="673944000"/>
    <nd ref="673944001"/>
    <tag k="highway" v="residential"/>
    <tag k="name" v="Annandale Circle"/>
    <tag k="source" v="survey"/>
  </way>
</osm>
