<?xml version='1.0' encoding='UTF-8'?>
<osm version="0.6" generator="libosmium/2.20.0">
  <way id="53284041" version="1" timestamp="2010-03-25T18:59:33Z" uid="9719" user="dvaey" changeset="4231070">
    <nd ref="674134333"/>
    <nd ref="674184818"/>
    <tag k="power" v="minor_line"/>
  </way>
  <way id="53284041" version="2" timestamp="2012-01-11T11:17:03Z" uid="12434" user="nm7s9" changeset="10359655"/>
  <way id="53284129" version="1" timestamp="2010-03-25T19:02:13Z" uid="33382" user="de_muur" changeset="4232009">
    <nd ref="674189244"/>
    <nd ref="674189242"/>
    <tag k="highway" v="track"/>
    <tag k="surface" v="unpaved"/>
    <tag k="tracktype" v="grade3"/>
  </way>
  <way id="53284130" version="1" timestamp="2010-03-25T19:02:13Z" uid="33382" user="de_muur" changeset="4232009">
    <nd ref="674189242"/>
    <nd ref="296391029"/>
    <tag k="highway" v="track"/>
    <tag k="surface" v="paved"/>
    <tag k="tracktype" v="grade1"/>
  </way>
  <way id="53284131" version="1" timestamp="2010-03-25T19:02:13Z" uid="33382" user="de_muur" changeset="4232009">
    <nd ref="296390962"/>
    <nd ref="296390963"/>
    <tag k="highway" v="track"/>
    <tag k="surface" v="paved"/>
    <tag k="tracktype" v="grade1"/>
  </way>
  <way id="53284132" version="1" timestamp="2010-03-25T19:02:13Z" uid="33382" user="de_muur" changeset="4232009">
    <nd ref="31196826"/>
    <nd ref="382021802"/>
    <nd ref="31196827"/>
    <nd ref="31196828"/>
    <nd ref="31196829"/>
    <nd ref="600063551"/>
    <tag k="highway" v="secondary"/>
    <tag k="maxspeed" v="70"/>
    <tag k="name" v="Syker Straße"/>
    <tag k="ref" v="L 354"/>
  </way>
  <way id="53284132" version="2" timestamp="2010-05-25T19:50:16Z" uid="35574" user="Schorse" changeset="4807389">
    <nd ref="31196826"/>
    <nd ref="382021802"/>
    <nd ref="31196827"/>
    <nd ref="31196828"/>
    <nd ref="31196829"/>
    <nd ref="600063551"/>
    <tag k="bicycle" v="designated"/>
    <tag k="cycleway" v="track"/>
    <tag k="foot" v="designated"/>
    <tag k="highway" v="secondary"/>
    <tag k="maxspeed" v="70"/>
    <tag k="name" v="Syker Straße"/>
    <tag k="ref" v="L 354"/>
  </way>
  <way id="53284132" version="3" timestamp="2011-02-12T13:20:57Z" uid="57645" user="KartoGrapHiti" changeset="7264680">
    <nd ref="31196826"/>
    <nd ref="1149041410"/>
    <nd ref="382021802"/>
    <nd ref="31196827"/>
    <nd ref="31196828"/>
    <nd ref="31196829"/>
    <nd ref="600063551"/>
    <tag k="bicycle" v="designated"/>
    <tag k="cycleway" v="track"/>
    <tag k="foot" v="designated"/>
    <tag k="highway" v="secondary"/>
    <tag k="maxspeed" v="70"/>
    <tag k="name" v="Syker Straße"/>
    <tag k="ref" v="L 354"/>
  </way>
  <way id="53284132" version="4" timestamp="2012-01-27T19:18:00Z" uid="57645" user="KartoGrapHiti" changeset="10515398">
    <nd ref="31196826"/>
    <nd ref="1149041410"/>
    <nd ref="382021802"/>
    <nd ref="31196827"/>
    <nd ref="31196828"/>
    <nd ref="1607734018"/>
    <nd ref="1607734022"/>
    <nd ref="600063551"/>
    <tag k="highway" v="secondary"/>
    <tag k="maxspeed" v="70"/>
    <tag k="name" v="Syker Straße"/>
    <tag k="ref" v="L 354"/>
  </way>
  <way id="53284132" version="5" timestamp="2012-03-04T17:30:25Z" uid="57645" user="KartoGrapHiti" changeset="10871270"/>
  <way id="53284133" version="1" timestamp="2010-03-25T19:02:13Z" uid="33382" user="de_muur" changeset="4232009">
    <nd ref="31196824"/>
    <nd ref="31196825"/>
    <nd ref="31196826"/>
    <tag k="highway" v="secondary"/>
    <tag k="maxspeed" v="70"/>
    <tag k="name" v="Syker Straße"/>
    <tag k="ref" v="L 354"/>
    <tag k="surface" v="paved"/>
  </way>
  <way id="53284133" version="2" timestamp="2010-05-25T19:51:09Z" uid="35574" user="Schorse" changeset="4807389">
    <nd ref="31196824"/>
    <nd ref="31196825"/>
    <nd ref="31196826"/>
    <tag k="bicycle" v="designated"/>
    <tag k="cycleway" v="track"/>
    <tag k="foot" v="designated"/>
    <tag k="highway" v="secondary"/>
    <tag k="maxspeed" v="70"/>
    <tag k="name" v="Syker Straße"/>
    <tag k="ref" v="L 354"/>
    <tag k="surface" v="paved"/>
  </way>
  <way id="53284133" version="3" timestamp="2010-06-18T18:26:10Z" uid="33382" user="de_muur" changeset="5018299">
    <nd ref="31196824"/>
    <nd ref="31196825"/>
    <nd ref="31196826"/>
    <tag k="cycleway" v="track"/>
    <tag k="highway" v="secondary"/>
    <tag k="maxspeed" v="70"/>
    <tag k="name" v="Syker Straße"/>
    <tag k="ref" v="L 354"/>
    <tag k="surface" v="paved"/>
  </way>
  <way id="53284133" version="4" timestamp="2011-02-12T13:20:56Z" uid="57645" user="KartoGrapHiti" changeset="7264680">
    <nd ref="31196824"/>
    <nd ref="31196825"/>
    <nd ref="1149041390"/>
    <tag k="cycleway" v="track"/>
    <tag k="highway" v="secondary"/>
    <tag k="maxspeed" v="100"/>
    <tag k="name" v="Syker Straße"/>
    <tag k="ref" v="L 354"/>
    <tag k="surface" v="paved"/>
  </way>
  <way id="53284133" version="5" timestamp="2012-01-27T18:30:38Z" uid="57645" user="KartoGrapHiti" changeset="10515006">
    <nd ref="31196824"/>
    <nd ref="1607686446"/>
    <nd ref="1607686448"/>
    <nd ref="31196825"/>
    <nd ref="1149041390"/>
    <tag k="cycleway" v="track"/>
    <tag k="highway" v="secondary"/>
    <tag k="maxspeed" v="100"/>
    <tag k="name" v="Syker Straße"/>
    <tag k="ref" v="L 354"/>
    <tag k="surface" v="paved"/>
  </way>
  <way id="53284133" version="6" timestamp="2012-01-27T19:17:59Z" uid="57645" user="KartoGrapHiti" changeset="10515398">
    <nd ref="31196824"/>
    <nd ref="1607686446"/>
    <nd ref="1607686448"/>
    <nd ref="31196825"/>
    <nd ref="1149041390"/>
    <tag k="highway" v="secondary"/>
    <tag k="maxspeed" v="100"/>
    <tag k="name" v="Syker Straße"/>
    <tag k="ref" v="L 354"/>
    <tag k="surface" v="paved"/>
  </way>
  <way id="53284133" version="7" timestamp="2012-03-04T17:30:25Z" uid="57645" user="KartoGrapHiti" changeset="10871270"/>
  <way id="53284206" version="3" timestamp="2010-04-04T01:34:38Z" uid="20587" user="balrog-kun" changeset="4318254">
    <nd ref="674191548"/>
    <nd ref="674191565"/>
    <nd ref="674191569"/>
    <nd ref="674191570"/>
    <nd ref="674191571"/>
    <nd ref="674191575"/>
    <nd ref="674191578"/>
    <nd ref="674191582"/>
    <nd ref="674191585"/>
    <nd ref="674191590"/>
    <tag k="highway" v="residential"/>
    <tag k="name" v="Blue Water Avenue"/>
  </way>
  <way id="53284311" version="2" timestamp="2010-09-14T19:58:13Z" uid="43863" user="Rundling" changeset="5781668">
    <nd ref="674198512"/>
    <nd ref="674198588"/>
    <nd ref="674198594"/>
    <nd ref="674198596"/>
    <nd ref="674198600"/>
    <nd ref="674198603"/>
    <nd ref="674198605"/>
    <nd ref="674198607"/>
    <nd ref="674198608"/>
    <nd ref="674198610"/>
    <nd ref="674198612"/>
    <nd ref="674198613"/>
    <nd ref="674198615"/>
    <nd ref="674198596"/>
    <tag k="highway" v="track"/>
    <tag k="tracktype" v="grade4"/>
  </way>
  <way id="53284316" version="2" timestamp="2010-09-14T19:58:26Z" uid="43863" user="Rundling" changeset="5781668">
    <nd ref="674198509"/>
    <nd ref="674198489"/>
    <nd ref="674198499"/>
    <nd ref="674198483"/>
    <nd ref="486093918"/>
    <tag k="highway" v="track"/>
    <tag k="surface" v="ground"/>
    <tag k="tracktype" v="grade3"/>
  </way>
  <way id="53284319" version="2" timestamp="2010-09-14T19:58:11Z" uid="43863" user="Rundling" changeset="5781668">
    <nd ref="674198575"/>
    <nd ref="674198583"/>
    <nd ref="674198585"/>
    <nd ref="521895262"/>
    <tag k="highway" v="track"/>
    <tag k="tracktype" v="grade4"/>
  </way>
  <way id="53284319" version="3" timestamp="2011-05-15T16:18:57Z" uid="292562" user="WMWDe" changeset="8153752">
    <nd ref="674198575"/>
    <nd ref="674198583"/>
    <nd ref="674198585"/>
    <nd ref="1286595569"/>
    <nd ref="1286595580"/>
    <nd ref="1286595564"/>
    <nd ref="521895262"/>
    <tag k="highway" v="track"/>
    <tag k="tracktype" v="grade4"/>
  </way>
  <way id="53284325" version="3" timestamp="2010-09-14T19:58:14Z" uid="43863" user="Rundling" changeset="5781668">
    <nd ref="674198621"/>
    <nd ref="674198623"/>
    <tag k="layer" v="-1"/>
    <tag k="tunnel" v="yes"/>
    <tag k="waterway" v="stream"/>
    <tag k="width" v="0,5"/>
  </way>
  <way id="53284328" version="2" timestamp="2010-09-14T19:58:10Z" uid="43863" user="Rundling" changeset="5781668">
    <nd ref="674198523"/>
    <nd ref="674198524"/>
    <tag k="layer" v="-1"/>
    <tag k="tunnel" v="yes"/>
    <tag k="waterway" v="stream"/>
  </way>
  <way id="53284639" version="1" timestamp="2010-03-25T19:11:46Z" uid="33382" user="de_muur" changeset="4232115">
    <nd ref="97955388"/>
    <nd ref="296390863"/>
    <nd ref="674205728"/>
    <tag k="highway" v="tertiary"/>
    <tag k="name" v="Rieder Straße"/>
    <tag k="ref" v="K 60"/>
    <tag k="surface" v="asphalt"/>
  </way>
  <way id="53284639" version="2" timestamp="2010-05-25T19:50:22Z" uid="35574" user="Schorse" changeset="4807389">
    <nd ref="97955388"/>
    <nd ref="296390863"/>
    <nd ref="674205728"/>
    <tag k="bicycle" v="designated"/>
    <tag k="cycleway" v="track"/>
    <tag k="foot" v="designated"/>
    <tag k="highway" v="tertiary"/>
    <tag k="name" v="Rieder Straße"/>
    <tag k="ref" v="K 60"/>
    <tag k="surface" v="asphalt"/>
  </way>
  <way id="53284639" version="3" timestamp="2011-09-09T11:26:07Z" uid="57645" user="KartoGrapHiti" changeset="9253564">
    <nd ref="97955388"/>
    <nd ref="296390863"/>
    <nd ref="674205728"/>
    <tag k="bicycle" v="designated"/>
    <tag k="cycleway" v="track"/>
    <tag k="foot" v="designated"/>
    <tag k="highway" v="tertiary"/>
    <tag k="lit" v="no"/>
    <tag k="name" v="Rieder Straße"/>
    <tag k="ref" v="K 60"/>
    <tag k="surface" v="asphalt"/>
  </way>
  <way id="53284639" version="4" timestamp="2012-01-27T19:17:48Z" uid="57645" user="KartoGrapHiti" changeset="10515398">
    <nd ref="97955388"/>
    <nd ref="1607734069"/>
    <nd ref="1607734068"/>
    <nd ref="1607734065"/>
    <nd ref="1607734060"/>
    <nd ref="1607734058"/>
    <nd ref="1607734052"/>
    <nd ref="1607734051"/>
    <nd ref="296390863"/>
    <nd ref="1607734045"/>
    <nd ref="1607734044"/>
    <nd ref="674205728"/>
    <tag k="highway" v="tertiary"/>
    <tag k="lit" v="no"/>
    <tag k="name" v="Rieder Straße"/>
    <tag k="ref" v="K 60"/>
    <tag k="surface" v="asphalt"/>
  </way>
  <way id="53284639" version="5" timestamp="2012-03-04T11:42:36Z" uid="57645" user="KartoGrapHiti" changeset="10867257"/>
  <way id="53284640" version="1" timestamp="2010-03-25T19:11:48Z" uid="33382" user="de_muur" changeset="4232115">
    <nd ref="674205728"/>
    <nd ref="296390864"/>
    <nd ref="296390865"/>
    <nd ref="31196831"/>
    <tag k="highway" v="tertiary"/>
    <tag k="maxspeed" v="50"/>
    <tag k="name" v="Rieder Straße"/>
    <tag k="ref" v="K 60"/>
    <tag k="surface" v="asphalt"/>
  </way>
  <way id="53284640" version="2" timestamp="2010-05-25T19:50:56Z" uid="35574" user="Schorse" changeset="4807389">
    <nd ref="674205728"/>
    <nd ref="296390864"/>
    <nd ref="296390865"/>
    <nd ref="31196831"/>
    <tag k="bicycle" v="designated"/>
    <tag k="cycleway" v="track"/>
    <tag k="foot" v="designated"/>
    <tag k="highway" v="tertiary"/>
    <tag k="maxspeed" v="50"/>
    <tag k="name" v="Rieder Straße"/>
    <tag k="ref" v="K 60"/>
    <tag k="surface" v="asphalt"/>
  </way>
  <way id="53284640" version="3" timestamp="2012-01-27T19:17:49Z" uid="57645" user="KartoGrapHiti" changeset="10515398">
    <nd ref="674205728"/>
    <nd ref="296390864"/>
    <nd ref="296390865"/>
    <nd ref="31196831"/>
    <tag k="highway" v="tertiary"/>
    <tag k="maxspeed" v="50"/>
    <tag k="name" v="Rieder Straße"/>
    <tag k="ref" v="K 60"/>
    <tag k="surface" v="asphalt"/>
  </way>
  <way id="53284640" version="4" timestamp="2012-03-04T11:42:36Z" uid="57645" user="KartoGrapHiti" changeset="10867257"/>
  <way id="53284129" version="2" timestamp="2012-07-17T05:07:26Z" uid="722137" user="OSMF Redaction Account" changeset="12257401"/>
  <way id="53284130" version="2" timestamp="2012-07-17T05:07:25Z" uid="722137" user="OSMF Redaction Account" changeset="12257401"/>
  <way id="53284131" version="2" timestamp="2012-07-17T05:07:25Z" uid="722137" user="OSMF Redaction Account" changeset="12257401"/>
  <way id="53284325" version="4" timestamp="2012-07-18T17:12:09Z" uid="722137" user="OSMF Redaction Account" changeset="12290088">
    <nd ref="674198621"/>
    <nd ref="674198623"/>
    <tag k="tunnel" v="yes"/>
    <tag k="waterway" v="stream"/>
    <tag k="width" v="0,5"/>
  </way>
  <way id="53284328" version="3" timestamp="2012-07-18T17:12:08Z" uid="722137" user="OSMF Redaction Account" changeset="12290088">
    <nd ref="674198523"/>
    <nd ref="674198524"/>
    <tag k="tunnel" v="yes"/>
    <tag k="waterway" v="stream"/>
  </way>
</osm>
