<?xml version='1.0' encoding='UTF-8'?>
<osm version="0.6" generator="libosmium/2.20.0">
  <way id="53409362" version="2" timestamp="2010-07-24T01:05:59Z" uid="20587" user="balrog-kun" changeset="5300182">
    <nd ref="675258925"/>
    <nd ref="355993477"/>
    <nd ref="27308514"/>
    <nd ref="27308507"/>
    <nd ref="355993478"/>
    <nd ref="27308482"/>
    <nd ref="27308503"/>
    <tag k="alt_name" v="Poznański Szybki Tramwaj (PST)"/>
    <tag k="cutting" v="yes"/>
    <tag k="loc_name" v="Poznański Szybki Tramwaj; Pestka"/>
    <tag k="name" v="12 - 14 - 15 - 16 - 26 - N21"/>
    <tag k="railway" v="light_rail"/>
  </way>
  <way id="53409362" version="3" timestamp="2011-02-13T00:52:06Z" uid="88909" user="miko101" changeset="7271198">
    <nd ref="675258925"/>
    <nd ref="355993477"/>
    <nd ref="27308514"/>
    <nd ref="27308507"/>
    <nd ref="355993478"/>
    <nd ref="27308482"/>
    <nd ref="1150094044"/>
    <tag k="alt_name" v="Poznański Szybki Tramwaj (PST)"/>
    <tag k="cutting" v="yes"/>
    <tag k="loc_name" v="Poznański Szybki Tramwaj; Pestka"/>
    <tag k="name" v="12 - 14 - 15 - 16 - 26 - N21"/>
    <tag k="railway" v="light_rail"/>
  </way>
  <way id="53409362" version="4" timestamp="2011-12-16T00:38:03Z" uid="88909" user="miko101" changeset="10128232"/>
</osm>
