<?xml version='1.0' encoding='UTF-8'?>
<osm version="0.6" generator="libosmium/2.20.0">
  <way id="53424997" version="1" timestamp="2010-03-27T00:56:21Z" uid="20587" user="balrog-kun" changeset="4243209">
    <nd ref="675393529"/>
    <nd ref="675392490"/>
    <nd ref="675392489"/>
    <nd ref="675392502"/>
    <nd ref="675392501"/>
    <nd ref="675392505"/>
    <nd ref="675392506"/>
    <nd ref="675392507"/>
    <nd ref="675392509"/>
    <nd ref="675392504"/>
    <nd ref="675392492"/>
    <nd ref="675392494"/>
    <nd ref="675393533"/>
    <nd ref="675393531"/>
    <nd ref="675393529"/>
    <tag k="addr:housenumber" v="7"/>
    <tag k="addr:street" v="Dubois"/>
    <tag k="building" v="residential"/>
    <tag k="building:levels" v="4"/>
    <tag k="building:usage:pl" v="Mieszkalny"/>
    <tag k="source" v="gis.um.szczecin.pl"/>
  </way>
  <way id="53424998" version="1" timestamp="2010-03-27T00:56:21Z" uid="20587" user="balrog-kun" changeset="4243209">
    <nd ref="675393539"/>
    <nd ref="675393537"/>
    <nd ref="675392719"/>
    <nd ref="675392751"/>
    <nd ref="675392748"/>
    <nd ref="675392746"/>
    <nd ref="675392744"/>
    <nd ref="675393536"/>
    <nd ref="675393539"/>
    <tag k="addr:housenumber" v="21"/>
    <tag k="addr:street" v="SÅ‚awomira"/>
    <tag k="building" v="residential"/>
    <tag k="building:levels" v="5"/>
    <tag k="building:usage:pl" v="Mieszkalny"/>
    <tag k="source" v="gis.um.szczecin.pl"/>
  </way>
  <way id="53424999" version="1" timestamp="2010-03-27T00:56:21Z" uid="20587" user="balrog-kun" changeset="4243209">
    <nd ref="675393585"/>
    <nd ref="675393576"/>
    <nd ref="675393581"/>
    <nd ref="675393150"/>
    <nd ref="675393149"/>
    <nd ref="675393136"/>
    <nd ref="675393138"/>
    <nd ref="675393140"/>
    <nd ref="675393141"/>
    <nd ref="675393143"/>
    <nd ref="675393145"/>
    <nd ref="675393147"/>
    <nd ref="675393583"/>
    <nd ref="675393585"/>
    <tag k="addr:housenumber" v="15"/>
    <tag k="addr:street" v="Dubois"/>
    <tag k="building" v="residential"/>
    <tag k="building:levels" v="4"/>
    <tag k="building:usage:pl" v="Mieszkalny"/>
    <tag k="source" v="gis.um.szczecin.pl"/>
  </way>
</osm>
