<?xml version='1.0' encoding='UTF-8'?>
<osm version="0.6" generator="libosmium/2.20.0">
  <way id="53629348" version="2" timestamp="2011-05-13T23:00:56Z" uid="23543" user="jkjk" changeset="8136487">
    <nd ref="34663990"/>
    <nd ref="34663991"/>
    <nd ref="34663993"/>
    <nd ref="34663995"/>
    <nd ref="34663996"/>
    <tag k="highway" v="residential"/>
    <tag k="name" v="Výhledová"/>
  </way>
  <way id="53629362" version="3" timestamp="2011-05-13T23:00:58Z" uid="23543" user="jkjk" changeset="8136487">
    <nd ref="34663921"/>
    <nd ref="34663942"/>
    <nd ref="34663967"/>
    <nd ref="677349082"/>
    <nd ref="34663976"/>
    <nd ref="677349085"/>
    <nd ref="34663978"/>
    <nd ref="34663979"/>
    <nd ref="34663980"/>
    <nd ref="34663981"/>
    <nd ref="34663982"/>
    <nd ref="34663983"/>
    <nd ref="34663984"/>
    <nd ref="34663985"/>
    <nd ref="34663986"/>
    <nd ref="34663987"/>
    <nd ref="34663988"/>
    <nd ref="274834339"/>
    <nd ref="34664713"/>
    <nd ref="34664712"/>
    <nd ref="34664711"/>
    <nd ref="34664710"/>
    <nd ref="1252301655"/>
    <nd ref="34664709"/>
    <nd ref="34664591"/>
    <tag k="highway" v="tertiary"/>
    <tag k="maxspeed" v="50"/>
    <tag k="name" v="Mírová"/>
    <tag k="ref" v="10176"/>
    <tag k="source:ref" v="rsd_cr"/>
  </way>
  <way id="53629590" version="1" timestamp="2010-03-29T10:00:58Z" uid="7617" user="Franc" changeset="4265810">
    <nd ref="677358709"/>
    <nd ref="677358726"/>
    <nd ref="677358721"/>
    <nd ref="677358727"/>
    <nd ref="677358728"/>
    <nd ref="677358722"/>
    <nd ref="677358743"/>
    <nd ref="677358737"/>
    <nd ref="677358738"/>
    <nd ref="677358739"/>
    <nd ref="677358740"/>
    <nd ref="677358741"/>
    <nd ref="677358715"/>
    <nd ref="677358717"/>
    <nd ref="677358709"/>
    <tag k="amenity" v="school"/>
    <tag k="name" v="Katoomba High School"/>
    <tag k="source" v="nearmap"/>
  </way>
  <way id="53629591" version="1" timestamp="2010-03-29T10:00:58Z" uid="7617" user="Franc" changeset="4265810">
    <nd ref="677358708"/>
    <nd ref="677358714"/>
    <nd ref="677358713"/>
    <nd ref="20973774"/>
    <tag k="abutters" v="residential"/>
    <tag k="highway" v="residential"/>
    <tag k="name" v="Raymond Road"/>
  </way>
  <way id="53629591" version="2" timestamp="2010-04-17T09:13:33Z" uid="30201" user="rrankin" changeset="4445701">
    <nd ref="677358708"/>
    <nd ref="677358714"/>
    <nd ref="677358713"/>
    <nd ref="20973774"/>
    <tag k="highway" v="residential"/>
    <tag k="name" v="Raymond Road"/>
  </way>
  <way id="53629591" version="3" timestamp="2010-07-08T16:39:08Z" uid="74617" user="JohnSmith" changeset="5167338">
    <nd ref="677358708"/>
    <nd ref="677358714"/>
    <nd ref="677358713"/>
    <nd ref="20973774"/>
    <tag k="highway" v="residential"/>
    <tag k="maxspeed" v="50"/>
    <tag k="maxspeed:source" v="default residential speed limit in Australia"/>
    <tag k="name" v="Raymond Road"/>
  </way>
  <way id="53629591" version="4" timestamp="2012-01-20T04:50:00Z" uid="147510" user="woodpeck_fixbot" changeset="10442986">
    <nd ref="677358708"/>
    <nd ref="677358714"/>
    <nd ref="677358713"/>
    <nd ref="20973774"/>
    <tag k="highway" v="residential"/>
    <tag k="name" v="Raymond Road"/>
  </way>
  <way id="53629592" version="1" timestamp="2010-03-29T10:00:58Z" uid="7617" user="Franc" changeset="4265810">
    <nd ref="677358714"/>
    <nd ref="677358706"/>
    <tag k="highway" v="service"/>
    <tag k="source" v="nearmap"/>
  </way>
  <way id="53629593" version="1" timestamp="2010-03-29T10:00:58Z" uid="7617" user="Franc" changeset="4265810">
    <nd ref="677358707"/>
    <nd ref="292225158"/>
    <nd ref="677358708"/>
    <tag k="abutters" v="residential"/>
    <tag k="highway" v="residential"/>
    <tag k="name" v="Raymond Road"/>
    <tag k="restriction" v="school_zone"/>
  </way>
  <way id="53629593" version="2" timestamp="2010-04-17T09:13:34Z" uid="30201" user="rrankin" changeset="4445701">
    <nd ref="677358707"/>
    <nd ref="292225158"/>
    <nd ref="677358708"/>
    <tag k="highway" v="residential"/>
    <tag k="name" v="Raymond Road"/>
    <tag k="restriction" v="school_zone"/>
  </way>
  <way id="53629593" version="3" timestamp="2010-07-08T16:38:52Z" uid="74617" user="JohnSmith" changeset="5167338">
    <nd ref="677358707"/>
    <nd ref="292225158"/>
    <nd ref="677358708"/>
    <tag k="highway" v="residential"/>
    <tag k="maxspeed" v="50"/>
    <tag k="maxspeed:source" v="default residential speed limit in Australia"/>
    <tag k="name" v="Raymond Road"/>
    <tag k="restriction" v="school_zone"/>
  </way>
  <way id="53629593" version="4" timestamp="2012-01-20T04:50:01Z" uid="147510" user="woodpeck_fixbot" changeset="10442986">
    <nd ref="677358707"/>
    <nd ref="292225158"/>
    <nd ref="677358708"/>
    <tag k="highway" v="residential"/>
    <tag k="name" v="Raymond Road"/>
    <tag k="restriction" v="school_zone"/>
  </way>
  <way id="53629594" version="1" timestamp="2010-03-29T10:00:58Z" uid="7617" user="Franc" changeset="4265810">
    <nd ref="677358723"/>
    <nd ref="292225157"/>
    <nd ref="292225207"/>
    <tag k="abutters" v="residential"/>
    <tag k="highway" v="residential"/>
    <tag k="name" v="Kurrawan Road"/>
    <tag k="restriction" v="school_zone"/>
  </way>
  <way id="53629594" version="2" timestamp="2010-04-17T09:13:35Z" uid="30201" user="rrankin" changeset="4445701">
    <nd ref="677358723"/>
    <nd ref="292225157"/>
    <nd ref="292225207"/>
    <tag k="highway" v="residential"/>
    <tag k="name" v="Kurrawan Road"/>
    <tag k="restriction" v="school_zone"/>
  </way>
  <way id="53629594" version="3" timestamp="2010-07-08T16:38:24Z" uid="74617" user="JohnSmith" changeset="5167338">
    <nd ref="677358723"/>
    <nd ref="292225157"/>
    <nd ref="292225207"/>
    <tag k="highway" v="residential"/>
    <tag k="maxspeed" v="50"/>
    <tag k="maxspeed:source" v="default residential speed limit in Australia"/>
    <tag k="name" v="Kurrawan Road"/>
    <tag k="restriction" v="school_zone"/>
  </way>
  <way id="53629594" version="4" timestamp="2012-01-20T04:50:02Z" uid="147510" user="woodpeck_fixbot" changeset="10442986">
    <nd ref="677358723"/>
    <nd ref="292225157"/>
    <nd ref="292225207"/>
    <tag k="highway" v="residential"/>
    <tag k="name" v="Kurrawan Road"/>
    <tag k="restriction" v="school_zone"/>
  </way>
  <way id="53629595" version="1" timestamp="2010-03-29T10:00:58Z" uid="7617" user="Franc" changeset="4265810">
    <nd ref="677358782"/>
    <nd ref="677358731"/>
    <nd ref="677358732"/>
    <tag k="highway" v="service"/>
    <tag k="source" v="nearmap"/>
  </way>
  <way id="53629596" version="1" timestamp="2010-03-29T10:00:59Z" uid="7617" user="Franc" changeset="4265810">
    <nd ref="677358724"/>
    <nd ref="292225162"/>
    <nd ref="292225163"/>
    <tag k="highway" v="residential"/>
    <tag k="name" v="Martin Street"/>
    <tag k="source" v="survey"/>
  </way>
  <way id="53629596" version="2" timestamp="2010-07-08T16:38:59Z" uid="74617" user="JohnSmith" changeset="5167338">
    <nd ref="677358724"/>
    <nd ref="292225162"/>
    <nd ref="292225163"/>
    <tag k="highway" v="residential"/>
    <tag k="maxspeed" v="50"/>
    <tag k="maxspeed:source" v="default residential speed limit in Australia"/>
    <tag k="name" v="Martin Street"/>
    <tag k="source" v="survey"/>
  </way>
  <way id="53629596" version="3" timestamp="2012-01-20T04:50:07Z" uid="147510" user="woodpeck_fixbot" changeset="10442986">
    <nd ref="677358724"/>
    <nd ref="292225162"/>
    <nd ref="292225163"/>
    <tag k="highway" v="residential"/>
    <tag k="name" v="Martin Street"/>
    <tag k="source" v="survey"/>
  </way>
  <way id="53629597" version="1" timestamp="2010-03-29T10:00:59Z" uid="7617" user="Franc" changeset="4265810">
    <nd ref="677358720"/>
    <nd ref="677358729"/>
    <nd ref="677358730"/>
    <tag k="highway" v="residential"/>
    <tag k="source" v="nearmap"/>
  </way>
  <way id="53629597" version="2" timestamp="2010-04-17T07:58:45Z" uid="30201" user="rrankin" changeset="4445228">
    <nd ref="677358720"/>
    <nd ref="677358729"/>
    <nd ref="677358730"/>
    <tag k="highway" v="residential"/>
    <tag k="name" v="Darley Street"/>
    <tag k="source" v="nearmap"/>
  </way>
  <way id="53629597" version="3" timestamp="2010-07-08T16:38:31Z" uid="74617" user="JohnSmith" changeset="5167338">
    <nd ref="677358720"/>
    <nd ref="677358729"/>
    <nd ref="677358730"/>
    <tag k="highway" v="residential"/>
    <tag k="maxspeed" v="50"/>
    <tag k="maxspeed:source" v="default residential speed limit in Australia"/>
    <tag k="name" v="Darley Street"/>
    <tag k="source" v="nearmap"/>
  </way>
  <way id="53629597" version="4" timestamp="2012-01-20T04:50:09Z" uid="147510" user="woodpeck_fixbot" changeset="10442986">
    <nd ref="677358720"/>
    <nd ref="677358729"/>
    <nd ref="677358730"/>
    <tag k="highway" v="residential"/>
    <tag k="name" v="Darley Street"/>
    <tag k="source" v="nearmap"/>
  </way>
  <way id="53629598" version="1" timestamp="2010-03-29T10:00:59Z" uid="7617" user="Franc" changeset="4265810">
    <nd ref="677358725"/>
    <nd ref="292225160"/>
    <nd ref="677358723"/>
    <tag k="abutters" v="residential"/>
    <tag k="highway" v="residential"/>
    <tag k="name" v="Kurrawan Road"/>
    <tag k="restriction" v="school_zone"/>
  </way>
  <way id="53629598" version="2" timestamp="2010-04-17T09:13:37Z" uid="30201" user="rrankin" changeset="4445701">
    <nd ref="677358725"/>
    <nd ref="292225160"/>
    <nd ref="677358723"/>
    <tag k="highway" v="residential"/>
    <tag k="name" v="Kurrawan Road"/>
    <tag k="restriction" v="school_zone"/>
  </way>
  <way id="53629598" version="3" timestamp="2010-07-08T16:38:07Z" uid="74617" user="JohnSmith" changeset="5167338">
    <nd ref="677358725"/>
    <nd ref="292225160"/>
    <nd ref="677358723"/>
    <tag k="highway" v="residential"/>
    <tag k="maxspeed" v="50"/>
    <tag k="maxspeed:source" v="default residential speed limit in Australia"/>
    <tag k="name" v="Kurrawan Road"/>
    <tag k="restriction" v="school_zone"/>
  </way>
  <way id="53629598" version="4" timestamp="2012-01-20T04:50:13Z" uid="147510" user="woodpeck_fixbot" changeset="10442986">
    <nd ref="677358725"/>
    <nd ref="292225160"/>
    <nd ref="677358723"/>
    <tag k="highway" v="residential"/>
    <tag k="name" v="Kurrawan Road"/>
    <tag k="restriction" v="school_zone"/>
  </way>
  <way id="53629600" version="1" timestamp="2010-03-29T10:00:59Z" uid="7617" user="Franc" changeset="4265810">
    <nd ref="20973951"/>
    <nd ref="20973952"/>
    <nd ref="677358744"/>
    <nd ref="677358745"/>
    <nd ref="20973953"/>
    <nd ref="677358746"/>
    <nd ref="677358748"/>
    <nd ref="20973954"/>
    <nd ref="677358747"/>
    <nd ref="677358765"/>
    <nd ref="677358764"/>
    <nd ref="20973955"/>
    <nd ref="20973956"/>
    <nd ref="20973957"/>
    <nd ref="677358749"/>
    <nd ref="677358750"/>
    <nd ref="20973958"/>
    <nd ref="677358752"/>
    <nd ref="20973959"/>
    <nd ref="677358754"/>
    <nd ref="677358753"/>
    <nd ref="20973960"/>
    <nd ref="677358758"/>
    <nd ref="677358757"/>
    <nd ref="677358756"/>
    <nd ref="677358766"/>
    <nd ref="20973942"/>
    <nd ref="292225150"/>
    <nd ref="20976043"/>
    <nd ref="20976036"/>
    <nd ref="20976037"/>
    <nd ref="20976038"/>
    <nd ref="20976039"/>
    <nd ref="20976040"/>
    <nd ref="20976041"/>
    <nd ref="20976042"/>
    <nd ref="20976030"/>
    <tag k="highway" v="secondary"/>
    <tag k="name" v="Cliff Drive"/>
    <tag k="ref" v="T5"/>
  </way>
  <way id="53629600" version="2" timestamp="2010-03-29T10:15:58Z" uid="7617" user="Franc" changeset="4265927">
    <nd ref="20973951"/>
    <nd ref="20973952"/>
    <nd ref="677358744"/>
    <nd ref="677358745"/>
    <nd ref="20973953"/>
    <nd ref="677358746"/>
    <nd ref="677358748"/>
    <nd ref="20973954"/>
    <nd ref="677358747"/>
    <nd ref="677358765"/>
    <nd ref="677358764"/>
    <nd ref="20973955"/>
    <nd ref="20973956"/>
    <nd ref="20973957"/>
    <nd ref="677358749"/>
    <nd ref="677358750"/>
    <nd ref="20973958"/>
    <nd ref="677358752"/>
    <nd ref="20973959"/>
    <nd ref="677358754"/>
    <nd ref="677358753"/>
    <nd ref="20973960"/>
    <nd ref="677358758"/>
    <nd ref="677358757"/>
    <nd ref="677358756"/>
    <nd ref="677358766"/>
    <nd ref="20973942"/>
    <nd ref="292225150"/>
    <nd ref="20976043"/>
    <nd ref="20976036"/>
    <nd ref="20976037"/>
    <nd ref="20976038"/>
    <nd ref="677367515"/>
    <nd ref="20976039"/>
    <nd ref="677367516"/>
    <nd ref="20976040"/>
    <nd ref="20976041"/>
    <nd ref="20976042"/>
    <nd ref="20976030"/>
    <tag k="highway" v="secondary"/>
    <tag k="name" v="Cliff Drive"/>
    <tag k="ref" v="T5"/>
  </way>
  <way id="53629601" version="1" timestamp="2010-03-29T10:00:59Z" uid="7617" user="Franc" changeset="4265810">
    <nd ref="677358735"/>
    <nd ref="677358734"/>
    <nd ref="292225181"/>
    <tag k="highway" v="residential"/>
    <tag k="name" v="Dowling Street"/>
    <tag k="restriction" v="school_zone"/>
    <tag k="source" v="survey"/>
  </way>
  <way id="53629601" version="2" timestamp="2010-07-08T16:37:50Z" uid="74617" user="JohnSmith" changeset="5167338">
    <nd ref="677358735"/>
    <nd ref="677358734"/>
    <nd ref="292225181"/>
    <tag k="highway" v="residential"/>
    <tag k="maxspeed" v="50"/>
    <tag k="maxspeed:source" v="default residential speed limit in Australia"/>
    <tag k="name" v="Dowling Street"/>
    <tag k="restriction" v="school_zone"/>
    <tag k="source" v="survey"/>
  </way>
  <way id="53629601" version="3" timestamp="2012-01-20T04:50:16Z" uid="147510" user="woodpeck_fixbot" changeset="10442986">
    <nd ref="677358735"/>
    <nd ref="677358734"/>
    <nd ref="292225181"/>
    <tag k="highway" v="residential"/>
    <tag k="name" v="Dowling Street"/>
    <tag k="restriction" v="school_zone"/>
    <tag k="source" v="survey"/>
  </way>
  <way id="53629602" version="1" timestamp="2010-03-29T10:00:59Z" uid="7617" user="Franc" changeset="4265810">
    <nd ref="292225207"/>
    <nd ref="292225147"/>
    <nd ref="677358760"/>
    <nd ref="677358761"/>
    <nd ref="677358759"/>
    <nd ref="677358762"/>
    <nd ref="677358763"/>
    <nd ref="677358767"/>
    <nd ref="20973942"/>
    <tag k="abutters" v="residential"/>
    <tag k="highway" v="residential"/>
    <tag k="name" v="Kurrawan Road"/>
  </way>
  <way id="53629602" version="2" timestamp="2010-04-17T09:13:42Z" uid="30201" user="rrankin" changeset="4445701">
    <nd ref="292225207"/>
    <nd ref="292225147"/>
    <nd ref="677358760"/>
    <nd ref="677358761"/>
    <nd ref="677358759"/>
    <nd ref="677358762"/>
    <nd ref="677358763"/>
    <nd ref="677358767"/>
    <nd ref="20973942"/>
    <tag k="highway" v="residential"/>
    <tag k="name" v="Kurrawan Road"/>
  </way>
  <way id="53629602" version="3" timestamp="2010-07-08T16:39:39Z" uid="74617" user="JohnSmith" changeset="5167338">
    <nd ref="292225207"/>
    <nd ref="292225147"/>
    <nd ref="677358760"/>
    <nd ref="677358761"/>
    <nd ref="677358759"/>
    <nd ref="677358762"/>
    <nd ref="677358763"/>
    <nd ref="677358767"/>
    <nd ref="20973942"/>
    <tag k="highway" v="residential"/>
    <tag k="maxspeed" v="50"/>
    <tag k="maxspeed:source" v="default residential speed limit in Australia"/>
    <tag k="name" v="Kurrawan Road"/>
  </way>
  <way id="53629602" version="4" timestamp="2012-01-20T04:50:20Z" uid="147510" user="woodpeck_fixbot" changeset="10442986">
    <nd ref="292225207"/>
    <nd ref="292225147"/>
    <nd ref="677358760"/>
    <nd ref="677358761"/>
    <nd ref="677358759"/>
    <nd ref="677358762"/>
    <nd ref="677358763"/>
    <nd ref="677358767"/>
    <nd ref="20973942"/>
    <tag k="highway" v="residential"/>
    <tag k="name" v="Kurrawan Road"/>
  </way>
  <way id="53629603" version="1" timestamp="2010-03-29T10:00:59Z" uid="7617" user="Franc" changeset="4265810">
    <nd ref="677358768"/>
    <nd ref="677358770"/>
    <nd ref="20976043"/>
    <tag k="highway" v="residential"/>
    <tag k="source" v="nearmap"/>
  </way>
  <way id="53629603" version="2" timestamp="2010-04-17T07:58:45Z" uid="30201" user="rrankin" changeset="4445228">
    <nd ref="677358768"/>
    <nd ref="677358770"/>
    <nd ref="20976043"/>
    <tag k="highway" v="residential"/>
    <tag k="name" v="Banksea Park Road"/>
    <tag k="source" v="nearmap"/>
  </way>
  <way id="53629603" version="3" timestamp="2010-07-08T16:39:07Z" uid="74617" user="JohnSmith" changeset="5167338">
    <nd ref="677358768"/>
    <nd ref="677358770"/>
    <nd ref="20976043"/>
    <tag k="highway" v="residential"/>
    <tag k="maxspeed" v="50"/>
    <tag k="maxspeed:source" v="default residential speed limit in Australia"/>
    <tag k="name" v="Banksea Park Road"/>
    <tag k="source" v="nearmap"/>
  </way>
  <way id="53629603" version="4" timestamp="2012-01-20T04:50:28Z" uid="147510" user="woodpeck_fixbot" changeset="10442986">
    <nd ref="677358768"/>
    <nd ref="677358770"/>
    <nd ref="20976043"/>
    <tag k="highway" v="residential"/>
    <tag k="name" v="Banksea Park Road"/>
    <tag k="source" v="nearmap"/>
  </way>
  <way id="53629604" version="1" timestamp="2010-03-29T10:01:00Z" uid="7617" user="Franc" changeset="4265810">
    <nd ref="677358771"/>
    <nd ref="677358772"/>
    <nd ref="677358773"/>
    <nd ref="677358774"/>
    <nd ref="677358775"/>
    <nd ref="677358776"/>
    <nd ref="677358778"/>
    <nd ref="677358777"/>
    <tag k="highway" v="service"/>
    <tag k="source" v="nearmap"/>
  </way>
  <way id="53629362" version="4" timestamp="2012-07-25T22:52:16Z" uid="527259" user="Vratislav Filler" changeset="12493140">
    <nd ref="32642433"/>
    <nd ref="34663766"/>
    <nd ref="34663769"/>
    <nd ref="34663777"/>
    <nd ref="34663802"/>
    <nd ref="34663824"/>
    <nd ref="34663845"/>
    <nd ref="34663868"/>
    <nd ref="34663897"/>
    <nd ref="34663921"/>
    <nd ref="34663942"/>
    <nd ref="34663967"/>
    <nd ref="677349082"/>
    <nd ref="34663976"/>
    <nd ref="677349085"/>
    <nd ref="34663978"/>
    <nd ref="34663979"/>
    <nd ref="34663980"/>
    <nd ref="34663981"/>
    <nd ref="34663982"/>
    <nd ref="34663983"/>
    <nd ref="34663984"/>
    <nd ref="34663985"/>
    <nd ref="34663986"/>
    <nd ref="34663987"/>
    <nd ref="34663988"/>
    <nd ref="274834339"/>
    <nd ref="34664713"/>
    <nd ref="34664712"/>
    <nd ref="34664711"/>
    <nd ref="34664710"/>
    <nd ref="1252301655"/>
    <nd ref="34664709"/>
    <nd ref="34664591"/>
    <tag k="highway" v="tertiary"/>
    <tag k="maxspeed" v="50"/>
    <tag k="name" v="Mírová"/>
    <tag k="ref" v="10176"/>
    <tag k="source:ref" v="rsd_cr"/>
  </way>
  <way id="53629590" version="2" timestamp="2012-07-22T10:27:39Z" uid="722137" user="OSMF Redaction Account" changeset="12429852"/>
  <way id="53629591" version="5" timestamp="2012-07-22T10:27:39Z" uid="722137" user="OSMF Redaction Account" changeset="12429852"/>
  <way id="53629592" version="2" timestamp="2012-07-22T10:27:39Z" uid="722137" user="OSMF Redaction Account" changeset="12429852"/>
  <way id="53629593" version="5" timestamp="2012-07-22T10:27:39Z" uid="722137" user="OSMF Redaction Account" changeset="12429852"/>
  <way id="53629594" version="5" timestamp="2012-07-22T10:27:40Z" uid="722137" user="OSMF Redaction Account" changeset="12429852"/>
  <way id="53629595" version="2" timestamp="2012-07-22T10:27:41Z" uid="722137" user="OSMF Redaction Account" changeset="12429852"/>
  <way id="53629596" version="4" timestamp="2012-07-22T10:27:40Z" uid="722137" user="OSMF Redaction Account" changeset="12429852"/>
  <way id="53629597" version="5" timestamp="2012-07-22T10:27:38Z" uid="722137" user="OSMF Redaction Account" changeset="12429852"/>
  <way id="53629598" version="5" timestamp="2012-07-22T10:27:40Z" uid="722137" user="OSMF Redaction Account" changeset="12429852"/>
  <way id="53629600" version="3" timestamp="2012-07-22T10:27:40Z" uid="722137" user="OSMF Redaction Account" changeset="12429852"/>
  <way id="53629601" version="4" timestamp="2012-07-22T10:27:39Z" uid="722137" user="OSMF Redaction Account" changeset="12429852"/>
  <way id="53629602" version="5" timestamp="2012-07-22T10:27:40Z" uid="722137" user="OSMF Redaction Account" changeset="12429852"/>
  <way id="53629603" version="5" timestamp="2012-07-22T10:27:40Z" uid="722137" user="OSMF Redaction Account" changeset="12429852"/>
  <way id="53629604" version="2" timestamp="2012-07-22T10:27:40Z" uid="722137" user="OSMF Redaction Account" changeset="12429852"/>
</osm>
