<?xml version='1.0' encoding='UTF-8'?>
<osm version="0.6" generator="libosmium/2.20.0">
  <way id="53639491" version="1" timestamp="2010-03-29T13:53:59Z" uid="74617" user="JohnSmith" changeset="4267541">
    <nd ref="677480080"/>
    <nd ref="354806929"/>
    <nd ref="354806860"/>
    <nd ref="456528057"/>
    <nd ref="17087446"/>
    <nd ref="51015103"/>
    <tag k="highway" v="trunk"/>
    <tag k="maxspeed" v="80"/>
    <tag k="oneway" v="yes"/>
  </way>
  <way id="53639491" version="2" timestamp="2010-06-18T00:16:37Z" uid="299678" user="peteramjet" changeset="5013189">
    <nd ref="677480080"/>
    <nd ref="354806929"/>
    <nd ref="354806860"/>
    <nd ref="456528057"/>
    <nd ref="17087446"/>
    <nd ref="51015103"/>
    <tag k="highway" v="trunk"/>
    <tag k="maxspeed" v="80"/>
    <tag k="name" v="F3 Freeway"/>
    <tag k="oneway" v="yes"/>
  </way>
  <way id="53639491" version="3" timestamp="2010-06-19T06:37:41Z" uid="299678" user="peteramjet" changeset="5021120">
    <nd ref="677480080"/>
    <nd ref="354806929"/>
    <nd ref="354806860"/>
    <nd ref="456528057"/>
    <nd ref="17087446"/>
    <nd ref="51015103"/>
    <tag k="highway" v="trunk"/>
    <tag k="maxspeed" v="80"/>
    <tag k="name" v="Sydney–Newcastle Freeway"/>
    <tag k="oneway" v="yes"/>
  </way>
  <way id="53639491" version="4" timestamp="2010-07-06T08:41:09Z" uid="299678" user="peteramjet" changeset="5148343">
    <nd ref="677480080"/>
    <nd ref="354806929"/>
    <nd ref="354806860"/>
    <nd ref="456528057"/>
    <nd ref="17087446"/>
    <nd ref="51015103"/>
    <tag k="alt_name" v="F3 Freeway"/>
    <tag k="highway" v="trunk"/>
    <tag k="maxspeed" v="80"/>
    <tag k="name" v="Sydney–Newcastle Freeway"/>
    <tag k="oneway" v="yes"/>
  </way>
  <way id="53639491" version="5" timestamp="2010-10-06T23:17:49Z" uid="79475" user="AlexOnTheBus" changeset="5974318">
    <nd ref="354806929"/>
    <nd ref="354806860"/>
    <nd ref="456528057"/>
    <nd ref="17087446"/>
    <nd ref="51015103"/>
    <tag k="alt_name" v="F3 Freeway"/>
    <tag k="highway" v="trunk"/>
    <tag k="maxspeed" v="80"/>
    <tag k="name" v="Sydney–Newcastle Freeway"/>
    <tag k="oneway" v="yes"/>
  </way>
  <way id="53639491" version="6" timestamp="2010-10-06T23:17:59Z" uid="79475" user="AlexOnTheBus" changeset="5974318">
    <nd ref="354806929"/>
    <nd ref="354806860"/>
    <nd ref="456528057"/>
    <nd ref="17087446"/>
    <nd ref="51015103"/>
    <tag k="alt_name" v="F3 Freeway"/>
    <tag k="highway" v="motorway_link"/>
    <tag k="maxspeed" v="80"/>
    <tag k="name" v="Sydney–Newcastle Freeway"/>
    <tag k="oneway" v="yes"/>
  </way>
  <way id="53639491" version="7" timestamp="2012-07-12T04:59:11Z" uid="705018" user="jinkson" changeset="12192203"/>
</osm>
