<?xml version='1.0' encoding='UTF-8'?>
<osm version="0.6" generator="libosmium/2.20.0">
  <way id="53651440" version="1" timestamp="2010-03-29T16:49:16Z" uid="74617" user="JohnSmith" changeset="4269148">
    <nd ref="35737226"/>
    <nd ref="26359753"/>
    <nd ref="26359754"/>
    <nd ref="31437748"/>
    <tag k="highway" v="motorway"/>
    <tag k="maxspeed" v="80"/>
    <tag k="name" v="Southern Cross Drive"/>
    <tag k="oneway" v="yes"/>
  </way>
  <way id="53651440" version="2" timestamp="2010-06-28T11:05:19Z" uid="299678" user="peteramjet" changeset="5096233">
    <nd ref="35737226"/>
    <nd ref="26359753"/>
    <nd ref="26359754"/>
    <nd ref="31437748"/>
    <tag k="highway" v="motorway"/>
    <tag k="maxspeed" v="80"/>
    <tag k="name" v="Southern Cross Drive"/>
    <tag k="oneway" v="yes"/>
    <tag k="ref" v="MR1"/>
  </way>
  <way id="53651440" version="3" timestamp="2010-07-07T11:05:08Z" uid="299678" user="peteramjet" changeset="5157605">
    <nd ref="35737226"/>
    <nd ref="26359753"/>
    <nd ref="26359754"/>
    <nd ref="31437748"/>
    <tag k="highway" v="motorway"/>
    <tag k="maxspeed" v="80"/>
    <tag k="name" v="Southern Cross Drive"/>
    <tag k="oneway" v="yes"/>
  </way>
  <way id="53651440" version="4" timestamp="2010-12-11T11:02:19Z" uid="67896" user="mrpulley" changeset="6621333">
    <nd ref="35737226"/>
    <nd ref="26359753"/>
    <nd ref="26359754"/>
    <nd ref="31437748"/>
    <tag k="highway" v="motorway"/>
    <tag k="maxspeed" v="80"/>
    <tag k="name" v="Southern Cross Drive"/>
    <tag k="oneway" v="yes"/>
    <tag k="surface" v="asphalt"/>
  </way>
  <way id="53651440" version="5" timestamp="2012-01-29T20:42:00Z" uid="54784" user="Tom Hollander" changeset="10534367">
    <nd ref="35737226"/>
    <nd ref="26359753"/>
    <nd ref="26359754"/>
    <nd ref="31437748"/>
    <tag k="highway" v="motorway"/>
    <tag k="maxspeed" v="80"/>
    <tag k="name" v="Southern Cross Drive"/>
    <tag k="oneway" v="yes"/>
    <tag k="ref" v="M1"/>
    <tag k="surface" v="asphalt"/>
  </way>
  <way id="53651440" version="6" timestamp="2012-02-02T08:05:16Z" uid="7523" user="inas" changeset="10565177">
    <nd ref="35737226"/>
    <nd ref="26359753"/>
    <nd ref="26359754"/>
    <nd ref="31437748"/>
    <tag k="highway" v="motorway"/>
    <tag k="maxspeed" v="80"/>
    <tag k="name" v="Southern Cross Drive"/>
    <tag k="network" v="MR"/>
    <tag k="oneway" v="yes"/>
    <tag k="ref" v="1"/>
    <tag k="surface" v="asphalt"/>
  </way>
  <way id="53651616" version="4" timestamp="2010-07-31T13:59:59Z" uid="162500" user="nobichan" changeset="5362859">
    <nd ref="677550434"/>
    <nd ref="677556136"/>
    <nd ref="810227801"/>
    <nd ref="677556142"/>
    <nd ref="677556141"/>
    <nd ref="677556140"/>
    <nd ref="677556139"/>
    <nd ref="810227803"/>
    <nd ref="677556145"/>
    <nd ref="677556144"/>
    <nd ref="677556152"/>
    <nd ref="810227824"/>
    <nd ref="677556151"/>
    <nd ref="677556150"/>
    <nd ref="552609219"/>
    <nd ref="677556149"/>
    <nd ref="677556169"/>
    <nd ref="810227850"/>
    <nd ref="677556168"/>
    <nd ref="677556167"/>
    <nd ref="677556166"/>
    <nd ref="677556170"/>
    <nd ref="677556184"/>
    <nd ref="677556185"/>
    <nd ref="810227933"/>
    <nd ref="677556183"/>
    <nd ref="552609218"/>
    <nd ref="810227938"/>
    <nd ref="552609217"/>
    <nd ref="840193885"/>
    <nd ref="840193890"/>
    <nd ref="778360591"/>
    <nd ref="552609539"/>
    <nd ref="552609216"/>
    <nd ref="778360589"/>
    <nd ref="721007635"/>
    <nd ref="624289957"/>
    <tag k="highway" v="trunk"/>
    <tag k="lanes" v="2"/>
    <tag k="maxspeed" v="50km"/>
    <tag k="oneway" v="yes"/>
    <tag k="ref" v="155"/>
  </way>
  <way id="53651616" version="5" timestamp="2010-08-02T10:56:16Z" uid="171838" user="argrath" changeset="5379332">
    <nd ref="677550434"/>
    <nd ref="677556136"/>
    <nd ref="810227801"/>
    <nd ref="677556142"/>
    <nd ref="677556141"/>
    <nd ref="677556140"/>
    <nd ref="677556139"/>
    <nd ref="810227803"/>
    <nd ref="677556145"/>
    <nd ref="677556144"/>
    <nd ref="677556152"/>
    <nd ref="810227824"/>
    <nd ref="677556151"/>
    <nd ref="677556150"/>
    <nd ref="552609219"/>
    <nd ref="677556149"/>
    <nd ref="677556169"/>
    <nd ref="810227850"/>
    <nd ref="677556168"/>
    <nd ref="677556167"/>
    <nd ref="677556166"/>
    <nd ref="677556170"/>
    <nd ref="677556184"/>
    <nd ref="677556185"/>
    <nd ref="810227933"/>
    <nd ref="677556183"/>
    <nd ref="552609218"/>
    <nd ref="810227938"/>
    <nd ref="552609217"/>
    <nd ref="840193885"/>
    <nd ref="840193890"/>
    <nd ref="778360591"/>
    <nd ref="552609539"/>
    <nd ref="552609216"/>
    <nd ref="778360589"/>
    <nd ref="721007635"/>
    <nd ref="624289957"/>
    <tag k="highway" v="trunk"/>
    <tag k="lanes" v="2"/>
    <tag k="maxspeed" v="50"/>
    <tag k="oneway" v="yes"/>
    <tag k="ref" v="155"/>
  </way>
  <way id="53651725" version="1" timestamp="2010-03-29T16:58:18Z" uid="74617" user="JohnSmith" changeset="4269228">
    <nd ref="677557385"/>
    <nd ref="677557387"/>
    <nd ref="677557395"/>
    <nd ref="26360349"/>
    <tag k="highway" v="motorway"/>
    <tag k="lanes" v="2"/>
    <tag k="maxspeed" v="signals"/>
    <tag k="oneway" v="yes"/>
    <tag k="source" v="survey"/>
  </way>
  <way id="53651725" version="2" timestamp="2010-06-19T09:32:08Z" uid="299678" user="peteramjet" changeset="5022038">
    <nd ref="677557385"/>
    <nd ref="677557387"/>
    <nd ref="677557395"/>
    <nd ref="26360349"/>
    <tag k="highway" v="motorway"/>
    <tag k="lanes" v="2"/>
    <tag k="maxspeed" v="signals"/>
    <tag k="name" v="M5 East Freeway"/>
    <tag k="oneway" v="yes"/>
    <tag k="source" v="survey"/>
  </way>
  <way id="53651725" version="3" timestamp="2010-06-28T00:08:08Z" uid="299678" user="peteramjet" changeset="5094228">
    <nd ref="677557385"/>
    <nd ref="677557387"/>
    <nd ref="677557395"/>
    <nd ref="26360349"/>
    <tag k="highway" v="motorway"/>
    <tag k="lanes" v="2"/>
    <tag k="maxspeed" v="signals"/>
    <tag k="name" v="M5 South Western Motorway"/>
    <tag k="oneway" v="yes"/>
    <tag k="source" v="survey"/>
  </way>
  <way id="53651725" version="4" timestamp="2010-06-30T09:36:08Z" uid="299678" user="peteramjet" changeset="5112150">
    <nd ref="677557385"/>
    <nd ref="677557387"/>
    <nd ref="677557395"/>
    <nd ref="26360349"/>
    <tag k="highway" v="motorway"/>
    <tag k="lanes" v="2"/>
    <tag k="maxspeed" v="signals"/>
    <tag k="name" v="M5 South Western Motorway"/>
    <tag k="oneway" v="yes"/>
    <tag k="ref" v="MR5"/>
    <tag k="source" v="survey"/>
  </way>
  <way id="53651725" version="5" timestamp="2010-07-07T11:06:56Z" uid="299678" user="peteramjet" changeset="5157605">
    <nd ref="677557385"/>
    <nd ref="677557387"/>
    <nd ref="677557395"/>
    <nd ref="26360349"/>
    <tag k="highway" v="motorway"/>
    <tag k="lanes" v="2"/>
    <tag k="maxspeed" v="signals"/>
    <tag k="name" v="M5 South Western Motorway"/>
    <tag k="oneway" v="yes"/>
    <tag k="source" v="survey"/>
  </way>
  <way id="53651725" version="6" timestamp="2010-07-15T00:27:14Z" uid="299678" user="peteramjet" changeset="5222951">
    <nd ref="677557385"/>
    <nd ref="677557387"/>
    <nd ref="677557395"/>
    <nd ref="26360349"/>
    <tag k="highway" v="motorway"/>
    <tag k="lanes" v="2"/>
    <tag k="maxspeed" v="signals"/>
    <tag k="name" v="M5 East Freeway"/>
    <tag k="oneway" v="yes"/>
    <tag k="source" v="survey"/>
  </way>
  <way id="53651725" version="7" timestamp="2011-09-22T05:41:11Z" uid="7523" user="inas" changeset="9365674">
    <nd ref="677557385"/>
    <nd ref="677557387"/>
    <nd ref="677557395"/>
    <nd ref="26360349"/>
    <tag k="highway" v="motorway"/>
    <tag k="lanes" v="2"/>
    <tag k="maxspeed" v="signals"/>
    <tag k="name" v="M5 Motorway"/>
    <tag k="oneway" v="yes"/>
    <tag k="source" v="survey"/>
  </way>
  <way id="53651725" version="8" timestamp="2012-01-29T20:42:01Z" uid="54784" user="Tom Hollander" changeset="10534367">
    <nd ref="677557385"/>
    <nd ref="677557387"/>
    <nd ref="677557395"/>
    <nd ref="26360349"/>
    <tag k="highway" v="motorway"/>
    <tag k="lanes" v="2"/>
    <tag k="maxspeed" v="80"/>
    <tag k="name" v="M5 Motorway"/>
    <tag k="oneway" v="yes"/>
    <tag k="ref" v="M5"/>
    <tag k="source" v="survey"/>
  </way>
  <way id="53651725" version="9" timestamp="2012-03-20T04:23:52Z" uid="7523" user="inas" changeset="11037300"/>
  <way id="53651726" version="1" timestamp="2010-03-29T16:58:18Z" uid="74617" user="JohnSmith" changeset="4269228">
    <nd ref="26453191"/>
    <nd ref="599901538"/>
    <nd ref="26453192"/>
    <nd ref="26453194"/>
    <nd ref="26453195"/>
    <nd ref="26453196"/>
    <nd ref="26453197"/>
    <tag k="bridge" v="yes"/>
    <tag k="highway" v="motorway"/>
    <tag k="lanes" v="2"/>
    <tag k="layer" v="1"/>
    <tag k="maxspeed" v="signals"/>
    <tag k="oneway" v="yes"/>
    <tag k="source" v="survey"/>
  </way>
  <way id="53651726" version="2" timestamp="2010-06-19T09:32:07Z" uid="299678" user="peteramjet" changeset="5022038">
    <nd ref="26453191"/>
    <nd ref="599901538"/>
    <nd ref="26453192"/>
    <nd ref="26453194"/>
    <nd ref="26453195"/>
    <nd ref="26453196"/>
    <nd ref="26453197"/>
    <tag k="bridge" v="yes"/>
    <tag k="highway" v="motorway"/>
    <tag k="lanes" v="2"/>
    <tag k="layer" v="1"/>
    <tag k="maxspeed" v="signals"/>
    <tag k="name" v="M5 East Freeway"/>
    <tag k="oneway" v="yes"/>
    <tag k="source" v="survey"/>
  </way>
  <way id="53651726" version="3" timestamp="2010-06-28T00:08:07Z" uid="299678" user="peteramjet" changeset="5094228">
    <nd ref="26453191"/>
    <nd ref="599901538"/>
    <nd ref="26453192"/>
    <nd ref="26453194"/>
    <nd ref="26453195"/>
    <nd ref="26453196"/>
    <nd ref="26453197"/>
    <tag k="bridge" v="yes"/>
    <tag k="highway" v="motorway"/>
    <tag k="lanes" v="2"/>
    <tag k="layer" v="1"/>
    <tag k="maxspeed" v="signals"/>
    <tag k="name" v="M5 South Western Motorway"/>
    <tag k="oneway" v="yes"/>
    <tag k="source" v="survey"/>
  </way>
  <way id="53651726" version="4" timestamp="2010-06-30T09:36:05Z" uid="299678" user="peteramjet" changeset="5112150">
    <nd ref="26453191"/>
    <nd ref="599901538"/>
    <nd ref="26453192"/>
    <nd ref="26453194"/>
    <nd ref="26453195"/>
    <nd ref="26453196"/>
    <nd ref="26453197"/>
    <tag k="bridge" v="yes"/>
    <tag k="highway" v="motorway"/>
    <tag k="lanes" v="2"/>
    <tag k="layer" v="1"/>
    <tag k="maxspeed" v="signals"/>
    <tag k="name" v="M5 South Western Motorway"/>
    <tag k="oneway" v="yes"/>
    <tag k="ref" v="MR5"/>
    <tag k="source" v="survey"/>
  </way>
  <way id="53651726" version="5" timestamp="2010-07-07T11:06:56Z" uid="299678" user="peteramjet" changeset="5157605">
    <nd ref="26453191"/>
    <nd ref="599901538"/>
    <nd ref="26453192"/>
    <nd ref="26453194"/>
    <nd ref="26453195"/>
    <nd ref="26453196"/>
    <nd ref="26453197"/>
    <tag k="bridge" v="yes"/>
    <tag k="highway" v="motorway"/>
    <tag k="lanes" v="2"/>
    <tag k="layer" v="1"/>
    <tag k="maxspeed" v="signals"/>
    <tag k="name" v="M5 South Western Motorway"/>
    <tag k="oneway" v="yes"/>
    <tag k="source" v="survey"/>
  </way>
  <way id="53651726" version="6" timestamp="2010-07-15T00:27:13Z" uid="299678" user="peteramjet" changeset="5222951">
    <nd ref="26453191"/>
    <nd ref="599901538"/>
    <nd ref="26453192"/>
    <nd ref="26453194"/>
    <nd ref="26453195"/>
    <nd ref="26453196"/>
    <nd ref="26453197"/>
    <tag k="bridge" v="yes"/>
    <tag k="highway" v="motorway"/>
    <tag k="lanes" v="2"/>
    <tag k="layer" v="1"/>
    <tag k="maxspeed" v="signals"/>
    <tag k="name" v="M5 East Freeway"/>
    <tag k="oneway" v="yes"/>
    <tag k="source" v="survey"/>
  </way>
  <way id="53651726" version="7" timestamp="2011-01-03T00:10:05Z" uid="389517" user="good2010" changeset="6845305">
    <nd ref="26453191"/>
    <nd ref="599901538"/>
    <nd ref="1079915756"/>
    <nd ref="26453194"/>
    <nd ref="26453195"/>
    <nd ref="1079915763"/>
    <nd ref="26453196"/>
    <nd ref="1079915762"/>
    <nd ref="26453197"/>
    <tag k="bridge" v="yes"/>
    <tag k="highway" v="motorway"/>
    <tag k="lanes" v="2"/>
    <tag k="layer" v="1"/>
    <tag k="maxspeed" v="signals"/>
    <tag k="name" v="M5 East Freeway"/>
    <tag k="oneway" v="yes"/>
    <tag k="source" v="survey"/>
  </way>
  <way id="53651726" version="8" timestamp="2011-09-22T05:41:14Z" uid="7523" user="inas" changeset="9365674">
    <nd ref="26453191"/>
    <nd ref="599901538"/>
    <nd ref="1079915756"/>
    <nd ref="26453194"/>
    <nd ref="26453195"/>
    <nd ref="1079915763"/>
    <nd ref="26453196"/>
    <nd ref="1079915762"/>
    <nd ref="26453197"/>
    <tag k="bridge" v="yes"/>
    <tag k="highway" v="motorway"/>
    <tag k="lanes" v="2"/>
    <tag k="layer" v="1"/>
    <tag k="maxspeed" v="signals"/>
    <tag k="name" v="M5 Motorway"/>
    <tag k="oneway" v="yes"/>
    <tag k="source" v="survey"/>
  </way>
  <way id="53651726" version="9" timestamp="2012-01-29T20:42:01Z" uid="54784" user="Tom Hollander" changeset="10534367">
    <nd ref="26453191"/>
    <nd ref="599901538"/>
    <nd ref="1079915756"/>
    <nd ref="26453194"/>
    <nd ref="26453195"/>
    <nd ref="1079915763"/>
    <nd ref="26453196"/>
    <nd ref="1079915762"/>
    <nd ref="26453197"/>
    <tag k="bridge" v="yes"/>
    <tag k="highway" v="motorway"/>
    <tag k="lanes" v="2"/>
    <tag k="layer" v="1"/>
    <tag k="maxspeed" v="80"/>
    <tag k="name" v="M5 Motorway"/>
    <tag k="oneway" v="yes"/>
    <tag k="ref" v="M5"/>
    <tag k="source" v="survey"/>
  </way>
  <way id="53651726" version="10" timestamp="2012-03-20T04:23:52Z" uid="7523" user="inas" changeset="11037300"/>
  <way id="53651440" version="7" timestamp="2012-07-06T11:15:18Z" uid="67896" user="mrpulley" changeset="12129154"/>
  <way id="53651616" version="6" timestamp="2012-07-21T23:23:32Z" uid="722137" user="OSMF Redaction Account" changeset="12422513">
    <nd ref="677550434"/>
    <nd ref="677556136"/>
    <nd ref="810227801"/>
    <nd ref="677556142"/>
    <nd ref="677556141"/>
    <nd ref="677556140"/>
    <nd ref="677556139"/>
    <nd ref="810227803"/>
    <nd ref="677556145"/>
    <nd ref="677556144"/>
    <nd ref="677556152"/>
    <nd ref="810227824"/>
    <nd ref="677556151"/>
    <nd ref="677556150"/>
    <nd ref="552609219"/>
    <nd ref="677556149"/>
    <nd ref="677556169"/>
    <nd ref="810227850"/>
    <nd ref="677556168"/>
    <nd ref="677556167"/>
    <nd ref="677556166"/>
    <nd ref="677556170"/>
    <nd ref="677556184"/>
    <nd ref="677556185"/>
    <nd ref="810227933"/>
    <nd ref="677556183"/>
    <nd ref="552609218"/>
    <nd ref="810227938"/>
    <nd ref="552609217"/>
    <nd ref="840193885"/>
    <nd ref="840193890"/>
    <nd ref="778360591"/>
    <nd ref="552609539"/>
    <nd ref="552609216"/>
    <nd ref="778360589"/>
    <nd ref="721007635"/>
    <nd ref="624289957"/>
    <tag k="highway" v="trunk"/>
    <tag k="lanes" v="2"/>
    <tag k="maxspeed" v="50km"/>
    <tag k="oneway" v="yes"/>
    <tag k="ref" v="155"/>
  </way>
</osm>
