<?xml version='1.0' encoding='UTF-8'?>
<osm version="0.6" generator="libosmium/2.20.0">
  <way id="53818963" version="2" timestamp="2011-02-22T14:07:59Z" uid="20587" user="balrog-kun" changeset="7362943">
    <nd ref="679405333"/>
    <nd ref="679405338"/>
    <nd ref="679405340"/>
    <nd ref="679405344"/>
    <tag k="addr:city" v="Złotokłos"/>
    <tag k="highway" v="residential"/>
    <tag k="name" v="Targowa"/>
    <tag k="surface" v="asphalt"/>
  </way>
  <way id="53818966" version="2" timestamp="2011-02-22T14:08:34Z" uid="20587" user="balrog-kun" changeset="7362943"/>
  <way id="53818968" version="2" timestamp="2011-02-22T14:08:01Z" uid="20587" user="balrog-kun" changeset="7362943">
    <nd ref="679405344"/>
    <nd ref="679405397"/>
    <tag k="addr:city" v="Złotokłos"/>
    <tag k="highway" v="residential"/>
    <tag k="name" v="Targowa"/>
    <tag k="surface" v="sand"/>
  </way>
  <way id="53818972" version="2" timestamp="2011-02-22T14:08:28Z" uid="20587" user="balrog-kun" changeset="7362943">
    <nd ref="679405485"/>
    <nd ref="679405495"/>
    <nd ref="537220988"/>
    <tag k="addr:city" v="Złotokłos"/>
    <tag k="highway" v="residential"/>
    <tag k="name" v="Grójecka"/>
    <tag k="surface" v="sand"/>
  </way>
  <way id="53818972" version="3" timestamp="2011-12-12T22:56:53Z" uid="258894" user="RuteX" changeset="10103957">
    <nd ref="679405485"/>
    <nd ref="679405495"/>
    <nd ref="1543380847"/>
    <nd ref="537220988"/>
    <tag k="addr:city" v="Złotokłos"/>
    <tag k="highway" v="residential"/>
    <tag k="name" v="Grójecka"/>
    <tag k="surface" v="sand"/>
  </way>
  <way id="53818974" version="3" timestamp="2011-02-22T14:08:33Z" uid="20587" user="balrog-kun" changeset="7362943">
    <nd ref="679476418"/>
    <nd ref="687234322"/>
    <nd ref="687234400"/>
    <nd ref="679405495"/>
    <nd ref="679405530"/>
    <nd ref="537220996"/>
    <nd ref="679405333"/>
    <nd ref="679405543"/>
    <tag k="addr:city" v="Złotokłos"/>
    <tag k="highway" v="residential"/>
    <tag k="name" v="Artura Grottgera"/>
    <tag k="surface" v="sand"/>
  </way>
  <way id="53818975" version="2" timestamp="2011-02-22T14:08:12Z" uid="20587" user="balrog-kun" changeset="7362943">
    <nd ref="679405530"/>
    <nd ref="679405397"/>
    <nd ref="674687332"/>
    <tag k="addr:city" v="Złotokłos"/>
    <tag k="highway" v="residential"/>
    <tag k="name" v="Targowa"/>
    <tag k="surface" v="sand"/>
  </way>
  <way id="53818979" version="3" timestamp="2011-02-22T14:08:21Z" uid="20587" user="balrog-kun" changeset="7362943">
    <nd ref="674687333"/>
    <nd ref="679405554"/>
    <nd ref="679405485"/>
    <nd ref="687234388"/>
    <tag k="addr:city" v="Złotokłos"/>
    <tag k="highway" v="residential"/>
    <tag k="name" v="Dworcowa"/>
    <tag k="surface" v="asphalt"/>
  </way>
  <way id="53818979" version="4" timestamp="2011-12-12T22:56:53Z" uid="258894" user="RuteX" changeset="10103957">
    <nd ref="674687333"/>
    <nd ref="1543380849"/>
    <nd ref="679405485"/>
    <nd ref="687234388"/>
    <tag k="addr:city" v="Złotokłos"/>
    <tag k="highway" v="residential"/>
    <tag k="name" v="Dworcowa"/>
    <tag k="surface" v="asphalt"/>
  </way>
  <way id="53818972" version="4" timestamp="2012-08-15T15:45:15Z" uid="258894" user="RuteX" changeset="12740598">
    <nd ref="679405485"/>
    <nd ref="679405495"/>
    <nd ref="1543380847"/>
    <nd ref="1867510176"/>
    <nd ref="1867510181"/>
    <nd ref="537220988"/>
    <tag k="addr:city" v="Złotokłos"/>
    <tag k="highway" v="residential"/>
    <tag k="name" v="Grójecka"/>
    <tag k="surface" v="sand"/>
  </way>
</osm>
