<?xml version='1.0' encoding='UTF-8'?>
<osm version="0.6" generator="libosmium/2.20.0">
  <way id="53839139" version="3" timestamp="2010-07-08T19:58:13Z" uid="74617" user="JohnSmith" changeset="5168730">
    <nd ref="679718312"/>
    <nd ref="679717641"/>
    <nd ref="679717642"/>
    <nd ref="679717644"/>
    <nd ref="679717646"/>
    <tag k="highway" v="residential"/>
    <tag k="maxspeed" v="50"/>
    <tag k="maxspeed:source" v="default residential speed limit in Australia"/>
    <tag k="name" v="Lakeside Place"/>
  </way>
  <way id="53839139" version="4" timestamp="2012-01-20T05:08:20Z" uid="147510" user="woodpeck_fixbot" changeset="10442986">
    <nd ref="679718312"/>
    <nd ref="679717641"/>
    <nd ref="679717642"/>
    <nd ref="679717644"/>
    <nd ref="679717646"/>
    <tag k="highway" v="residential"/>
    <tag k="name" v="Lakeside Place"/>
  </way>
  <way id="53839151" version="3" timestamp="2010-07-08T19:58:42Z" uid="74617" user="JohnSmith" changeset="5168730">
    <nd ref="679718306"/>
    <nd ref="679717749"/>
    <nd ref="679717646"/>
    <nd ref="679717750"/>
    <nd ref="679717751"/>
    <tag k="highway" v="residential"/>
    <tag k="maxspeed" v="50"/>
    <tag k="maxspeed:source" v="default residential speed limit in Australia"/>
    <tag k="name" v="Williams Bay Grove"/>
  </way>
  <way id="53839151" version="4" timestamp="2012-01-20T05:08:21Z" uid="147510" user="woodpeck_fixbot" changeset="10442986">
    <nd ref="679718306"/>
    <nd ref="679717749"/>
    <nd ref="679717646"/>
    <nd ref="679717750"/>
    <nd ref="679717751"/>
    <tag k="highway" v="residential"/>
    <tag k="name" v="Williams Bay Grove"/>
  </way>
  <way id="53839321" version="1" timestamp="2010-04-01T10:32:50Z" uid="33382" user="de_muur" changeset="4292848">
    <nd ref="679718850"/>
    <nd ref="679718851"/>
    <nd ref="679718852"/>
    <tag k="highway" v="service"/>
    <tag k="name" v="An der Wasserburg"/>
    <tag k="service" v="alley"/>
    <tag k="surface" v="paved"/>
  </way>
  <way id="53839321" version="2" timestamp="2011-10-22T13:15:19Z" uid="42429" user="FK270673" changeset="9623884"/>
  <way id="53839322" version="1" timestamp="2010-04-01T10:32:50Z" uid="33382" user="de_muur" changeset="4292848">
    <nd ref="679718853"/>
    <nd ref="679718854"/>
    <tag k="highway" v="service"/>
    <tag k="name" v="Weserblick"/>
    <tag k="service" v="parking_aisle"/>
    <tag k="surface" v="paved"/>
  </way>
  <way id="53839322" version="2" timestamp="2011-04-25T19:45:39Z" uid="57645" user="KartoGrapHiti" changeset="7968035">
    <nd ref="679718853"/>
    <nd ref="1260059826"/>
    <nd ref="679718854"/>
    <tag k="highway" v="service"/>
    <tag k="name" v="Weserblick"/>
    <tag k="service" v="parking_aisle"/>
    <tag k="surface" v="paved"/>
  </way>
  <way id="53839323" version="1" timestamp="2010-04-01T10:32:50Z" uid="33382" user="de_muur" changeset="4292848">
    <nd ref="259510188"/>
    <nd ref="35146862"/>
    <nd ref="260035078"/>
    <nd ref="35146863"/>
    <nd ref="260035085"/>
    <nd ref="35146851"/>
    <nd ref="253651569"/>
    <nd ref="260035036"/>
    <nd ref="260042727"/>
    <nd ref="668210465"/>
    <nd ref="35146853"/>
    <nd ref="331264076"/>
    <nd ref="35146855"/>
    <nd ref="331264067"/>
    <nd ref="331264075"/>
    <nd ref="35146857"/>
    <nd ref="563852964"/>
    <tag k="cycleway" v="track"/>
    <tag k="highway" v="secondary"/>
    <tag k="name" v="Verdener Straße"/>
    <tag k="ref" v="L 158"/>
    <tag k="surface" v="paved"/>
  </way>
  <way id="53839323" version="2" timestamp="2010-06-04T20:25:00Z" uid="33382" user="de_muur" changeset="4904212">
    <nd ref="259510188"/>
    <nd ref="35146862"/>
    <nd ref="260035078"/>
    <tag k="cycleway" v="track"/>
    <tag k="highway" v="secondary"/>
    <tag k="name" v="Verdener Straße"/>
    <tag k="ref" v="L 158"/>
    <tag k="surface" v="paved"/>
  </way>
  <way id="53839323" version="3" timestamp="2010-06-20T17:33:04Z" uid="33382" user="de_muur" changeset="5035186">
    <nd ref="259510188"/>
    <nd ref="35146862"/>
    <nd ref="260035078"/>
    <tag k="cycleway" v="track"/>
    <tag k="highway" v="secondary"/>
    <tag k="maxspeed" v="50"/>
    <tag k="name" v="Verdener Straße"/>
    <tag k="ref" v="L 158"/>
    <tag k="surface" v="paved"/>
  </way>
  <way id="53839323" version="4" timestamp="2011-07-19T20:28:48Z" uid="13832" user="Peter14" changeset="8772558">
    <nd ref="259510188"/>
    <nd ref="1347216952"/>
    <nd ref="35146862"/>
    <nd ref="260035078"/>
    <tag k="cycleway" v="track"/>
    <tag k="highway" v="secondary"/>
    <tag k="maxspeed" v="50"/>
    <tag k="name" v="Verdener Straße"/>
    <tag k="ref" v="L 158"/>
    <tag k="surface" v="paved"/>
  </way>
  <way id="53839467" version="1" timestamp="2010-04-01T10:40:06Z" uid="7617" user="Franc" changeset="4292890">
    <nd ref="248751661"/>
    <nd ref="29800910"/>
    <nd ref="15081858"/>
    <nd ref="15081863"/>
    <nd ref="15081890"/>
    <nd ref="15081885"/>
    <nd ref="15081826"/>
    <nd ref="620381393"/>
    <nd ref="15081831"/>
    <tag k="highway" v="secondary"/>
    <tag k="maxspeed" v="60"/>
    <tag k="name" v="Campbell Road"/>
  </way>
  <way id="53839467" version="2" timestamp="2010-10-18T07:56:57Z" uid="20949" user="Ebenezer" changeset="6077978">
    <nd ref="248751661"/>
    <nd ref="29800910"/>
    <nd ref="15081858"/>
    <tag k="highway" v="secondary"/>
    <tag k="maxspeed" v="60"/>
    <tag k="name" v="Campbell Road"/>
  </way>
  <way id="53839468" version="1" timestamp="2010-04-01T10:40:06Z" uid="7617" user="Franc" changeset="4292890">
    <nd ref="679719766"/>
    <nd ref="679719767"/>
    <nd ref="679719772"/>
    <nd ref="679719770"/>
    <nd ref="679719771"/>
    <nd ref="679719766"/>
    <tag k="power" v="sub_station"/>
    <tag k="source" v="nearmap"/>
  </way>
  <way id="53839469" version="1" timestamp="2010-04-01T10:40:06Z" uid="7617" user="Franc" changeset="4292890">
    <nd ref="679719736"/>
    <nd ref="679719739"/>
    <nd ref="679719737"/>
    <nd ref="679719740"/>
    <nd ref="679719741"/>
    <nd ref="679719742"/>
    <nd ref="679719743"/>
    <nd ref="679719744"/>
    <nd ref="679719738"/>
    <nd ref="679719732"/>
    <nd ref="679719733"/>
    <nd ref="679719734"/>
    <nd ref="679719736"/>
    <tag k="amenity" v="school"/>
    <tag k="name" v="St Peters Public School"/>
    <tag k="source" v="nearmap"/>
    <tag k="source:name" v="survey"/>
  </way>
  <way id="53839469" version="2" timestamp="2011-05-22T09:07:44Z" uid="7617" user="Franc" changeset="8213765">
    <nd ref="679719736"/>
    <nd ref="679719739"/>
    <nd ref="679719737"/>
    <nd ref="679719740"/>
    <nd ref="679719741"/>
    <nd ref="679719742"/>
    <nd ref="679719743"/>
    <nd ref="679719744"/>
    <nd ref="679719738"/>
    <nd ref="1295823637"/>
    <nd ref="679719732"/>
    <nd ref="679719733"/>
    <nd ref="679719734"/>
    <nd ref="679719736"/>
    <tag k="amenity" v="school"/>
    <tag k="name" v="St Peters Public School"/>
    <tag k="source" v="nearmap"/>
    <tag k="source:name" v="survey"/>
  </way>
  <way id="53839470" version="1" timestamp="2010-04-01T10:40:06Z" uid="7617" user="Franc" changeset="4292890">
    <nd ref="679719746"/>
    <nd ref="29800905"/>
    <nd ref="29800904"/>
    <tag k="highway" v="residential"/>
    <tag k="name" v="Church Street"/>
    <tag k="restriction" v="school_zone"/>
    <tag k="source" v="nearmap"/>
    <tag k="source:name" v="survey"/>
  </way>
  <way id="53839470" version="2" timestamp="2010-07-07T22:11:34Z" uid="74617" user="JohnSmith" changeset="5161069">
    <nd ref="679719746"/>
    <nd ref="29800905"/>
    <nd ref="29800904"/>
    <tag k="highway" v="residential"/>
    <tag k="maxspeed" v="50"/>
    <tag k="maxspeed:source" v="default residential speed limit in Australia"/>
    <tag k="name" v="Church Street"/>
    <tag k="restriction" v="school_zone"/>
    <tag k="source" v="nearmap"/>
    <tag k="source:name" v="survey"/>
  </way>
  <way id="53839470" version="3" timestamp="2010-08-17T23:22:51Z" uid="4467" user="Rosscoe" changeset="5522589">
    <nd ref="679719746"/>
    <nd ref="29800905"/>
    <nd ref="29800904"/>
    <tag k="highway" v="residential"/>
    <tag k="maxspeed" v="50"/>
    <tag k="name" v="Church Street"/>
    <tag k="restriction" v="school_zone"/>
    <tag k="source" v="nearmap"/>
    <tag k="source:maxspeed" v="default residential speed limit in Australia"/>
    <tag k="source:name" v="survey"/>
  </way>
  <way id="53839470" version="4" timestamp="2012-01-20T05:08:22Z" uid="147510" user="woodpeck_fixbot" changeset="10442986">
    <nd ref="679719746"/>
    <nd ref="29800905"/>
    <nd ref="29800904"/>
    <tag k="highway" v="residential"/>
    <tag k="name" v="Church Street"/>
    <tag k="restriction" v="school_zone"/>
    <tag k="source" v="nearmap"/>
    <tag k="source:maxspeed" v="default residential speed limit in Australia"/>
    <tag k="source:name" v="survey"/>
  </way>
  <way id="53839471" version="1" timestamp="2010-04-01T10:40:06Z" uid="7617" user="Franc" changeset="4292890">
    <nd ref="679719745"/>
    <nd ref="29800843"/>
    <tag k="highway" v="residential"/>
    <tag k="name" v="Victoria Street"/>
    <tag k="source" v="nearmap"/>
    <tag k="source:name" v="survey"/>
  </way>
  <way id="53839471" version="2" timestamp="2010-07-07T22:10:37Z" uid="74617" user="JohnSmith" changeset="5161069">
    <nd ref="679719745"/>
    <nd ref="29800843"/>
    <tag k="highway" v="residential"/>
    <tag k="maxspeed" v="50"/>
    <tag k="maxspeed:source" v="default residential speed limit in Australia"/>
    <tag k="name" v="Victoria Street"/>
    <tag k="source" v="nearmap"/>
    <tag k="source:name" v="survey"/>
  </way>
  <way id="53839471" version="3" timestamp="2012-01-20T05:08:23Z" uid="147510" user="woodpeck_fixbot" changeset="10442986">
    <nd ref="679719745"/>
    <nd ref="29800843"/>
    <tag k="highway" v="residential"/>
    <tag k="name" v="Victoria Street"/>
    <tag k="source" v="nearmap"/>
    <tag k="source:name" v="survey"/>
  </way>
  <way id="53839472" version="1" timestamp="2010-04-01T10:40:07Z" uid="7617" user="Franc" changeset="4292890">
    <nd ref="679719757"/>
    <nd ref="679719752"/>
    <nd ref="679719750"/>
    <tag k="highway" v="secondary"/>
    <tag k="name" v="Sydney Park Road"/>
    <tag k="oneway" v="yes"/>
    <tag k="source" v="nearmap"/>
  </way>
  <way id="53839472" version="2" timestamp="2011-02-11T06:23:04Z" uid="389517" user="good2010" changeset="7252203">
    <nd ref="679719757"/>
    <nd ref="679719752"/>
    <nd ref="679719750"/>
    <tag k="highway" v="secondary"/>
    <tag k="maxspeed" v="60"/>
    <tag k="name" v="Sydney Park Road"/>
    <tag k="oneway" v="yes"/>
    <tag k="source" v="nearmap"/>
  </way>
  <way id="53839472" version="3" timestamp="2011-04-20T13:11:32Z" uid="7617" user="Franc" changeset="7916137">
    <nd ref="15081804"/>
    <nd ref="679719768"/>
    <nd ref="679719765"/>
    <nd ref="679719764"/>
    <nd ref="679719763"/>
    <nd ref="679719762"/>
    <nd ref="679719758"/>
    <nd ref="679719757"/>
    <nd ref="679719752"/>
    <tag k="highway" v="primary"/>
    <tag k="maxspeed" v="60"/>
    <tag k="name" v="Sydney Park Road"/>
    <tag k="oneway" v="yes"/>
    <tag k="source" v="nearmap"/>
  </way>
  <way id="53839473" version="1" timestamp="2010-04-01T10:40:07Z" uid="7617" user="Franc" changeset="4292890">
    <nd ref="15081804"/>
    <nd ref="15081807"/>
    <nd ref="26410223"/>
    <nd ref="253033495"/>
    <tag k="highway" v="primary"/>
    <tag k="name" v="Sydney Park Road"/>
  </way>
  <way id="53839473" version="2" timestamp="2011-02-11T06:23:03Z" uid="389517" user="good2010" changeset="7252203">
    <nd ref="15081804"/>
    <nd ref="15081807"/>
    <nd ref="26410223"/>
    <nd ref="253033495"/>
    <tag k="highway" v="primary"/>
    <tag k="maxspeed" v="60"/>
    <tag k="name" v="Sydney Park Road"/>
  </way>
  <way id="53839582" version="2" timestamp="2010-06-29T19:03:47Z" uid="74617" user="JohnSmith" changeset="5108182">
    <nd ref="679720268"/>
    <nd ref="679720269"/>
    <nd ref="679720270"/>
    <nd ref="679720271"/>
    <nd ref="679720268"/>
    <tag k="fixme" v="sport=football is ambiguous, see http://wiki.osm.org/wiki/Football for more details"/>
    <tag k="leisure" v="pitch"/>
    <tag k="source" v="View from E side"/>
    <tag k="sport" v="football"/>
  </way>
  <way id="53839582" version="3" timestamp="2010-07-13T21:56:14Z" uid="61942" user="SomeoneElse" changeset="5212829">
    <nd ref="679720268"/>
    <nd ref="679720269"/>
    <nd ref="679720270"/>
    <nd ref="679720271"/>
    <nd ref="679720268"/>
    <tag k="leisure" v="pitch"/>
    <tag k="note" v="Removed erroneous  fixme tag -the sport played here is referred to locally and internationally as Football"/>
    <tag k="source" v="View from E side"/>
    <tag k="sport" v="football"/>
  </way>
  <way id="53839582" version="4" timestamp="2011-12-23T00:19:54Z" uid="61942" user="SomeoneElse" changeset="10184094"/>
  <way id="53839719" version="8" timestamp="2011-02-22T08:45:22Z" uid="20587" user="balrog-kun" changeset="7361212">
    <nd ref="679721244"/>
    <nd ref="679721272"/>
    <nd ref="690917267"/>
    <nd ref="679721276"/>
    <nd ref="679721279"/>
    <nd ref="679721282"/>
    <nd ref="679721285"/>
    <nd ref="679721287"/>
    <nd ref="679722035"/>
    <nd ref="679722036"/>
    <nd ref="679721288"/>
    <nd ref="679721289"/>
    <nd ref="679721290"/>
    <nd ref="679721291"/>
    <nd ref="679721292"/>
    <nd ref="681280401"/>
    <nd ref="679721293"/>
    <nd ref="681280402"/>
    <nd ref="681280403"/>
    <nd ref="681284921"/>
    <nd ref="679721294"/>
    <nd ref="679721295"/>
    <nd ref="1166225562"/>
    <nd ref="298072736"/>
    <tag k="highway" v="service"/>
    <tag k="oneway" v="yes"/>
  </way>
  <way id="53839900" version="2" timestamp="2011-04-10T20:39:32Z" uid="4467" user="Rosscoe" changeset="7827395">
    <nd ref="679722414"/>
    <nd ref="679722416"/>
    <tag k="highway" v="service"/>
    <tag k="source" v="nearmap"/>
  </way>
  <way id="53839322" version="3" timestamp="2012-07-18T14:43:36Z" uid="722137" user="OSMF Redaction Account" changeset="12285520"/>
  <way id="53839323" version="5" timestamp="2012-07-18T14:43:37Z" uid="722137" user="OSMF Redaction Account" changeset="12285520"/>
  <way id="53839467" version="3" timestamp="2012-07-20T02:50:36Z" uid="722137" user="OSMF Redaction Account" changeset="12358683"/>
  <way id="53839468" version="2" timestamp="2012-07-20T02:51:08Z" uid="722137" user="OSMF Redaction Account" changeset="12358696"/>
  <way id="53839469" version="3" timestamp="2012-07-20T02:50:34Z" uid="722137" user="OSMF Redaction Account" changeset="12358683"/>
  <way id="53839470" version="5" timestamp="2012-07-20T02:50:37Z" uid="722137" user="OSMF Redaction Account" changeset="12358683"/>
  <way id="53839471" version="4" timestamp="2012-07-20T02:50:33Z" uid="722137" user="OSMF Redaction Account" changeset="12358683"/>
  <way id="53839472" version="4" timestamp="2012-07-20T02:51:06Z" uid="722137" user="OSMF Redaction Account" changeset="12358696"/>
  <way id="53839473" version="3" timestamp="2012-07-20T00:55:55Z" uid="722137" user="OSMF Redaction Account" changeset="12353633">
    <nd ref="15081804"/>
    <nd ref="15081807"/>
    <nd ref="26410223"/>
    <tag k="highway" v="primary"/>
    <tag k="maxspeed" v="60"/>
    <tag k="name" v="Sydney Park Road"/>
  </way>
  <way id="53839473" version="4" timestamp="2012-07-20T02:51:07Z" uid="722137" user="OSMF Redaction Account" changeset="12358696"/>
  <way id="53839900" version="3" timestamp="2012-07-19T11:50:02Z" uid="722137" user="OSMF Redaction Account" changeset="12322905">
    <nd ref="679722414"/>
    <nd ref="679722416"/>
  </way>
</osm>
