<?xml version='1.0' encoding='UTF-8'?>
<osm version="0.6" generator="libosmium/2.20.0">
  <way id="54148107" version="1" timestamp="2010-04-03T07:59:20Z" uid="7617" user="Franc" changeset="4310344">
    <nd ref="683068261"/>
    <nd ref="31435195"/>
    <nd ref="31435194"/>
    <nd ref="29414715"/>
    <nd ref="26637172"/>
    <tag k="highway" v="unclassified"/>
    <tag k="name" v="Spring Street"/>
    <tag k="source" v="yahoo_imagery"/>
  </way>
  <way id="54148107" version="2" timestamp="2011-02-13T03:54:51Z" uid="389517" user="good2010" changeset="7271685">
    <nd ref="683068261"/>
    <nd ref="31435195"/>
    <nd ref="31435194"/>
    <nd ref="29414715"/>
    <nd ref="26637172"/>
    <tag k="highway" v="unclassified"/>
    <tag k="maxspeed" v="50"/>
    <tag k="name" v="Spring Street"/>
    <tag k="source" v="yahoo_imagery"/>
  </way>
  <way id="54148108" version="1" timestamp="2010-04-03T07:59:21Z" uid="7617" user="Franc" changeset="4310344">
    <nd ref="26637625"/>
    <nd ref="17853384"/>
    <nd ref="26361305"/>
    <nd ref="26361310"/>
    <nd ref="17853385"/>
    <nd ref="683068293"/>
    <nd ref="683068291"/>
    <nd ref="683068292"/>
    <nd ref="17853386"/>
    <nd ref="601195892"/>
    <nd ref="26637612"/>
    <nd ref="60286983"/>
    <tag k="highway" v="secondary"/>
    <tag k="name" v="West Botany Street"/>
  </way>
  <way id="54148109" version="1" timestamp="2010-04-03T07:59:21Z" uid="7617" user="Franc" changeset="4310344">
    <nd ref="683068253"/>
    <nd ref="31435205"/>
    <nd ref="601195790"/>
    <nd ref="291748419"/>
    <nd ref="31293044"/>
    <tag k="highway" v="residential"/>
    <tag k="name" v="Terry Street"/>
  </way>
  <way id="54148109" version="2" timestamp="2010-07-08T02:54:56Z" uid="74617" user="JohnSmith" changeset="5163091">
    <nd ref="683068253"/>
    <nd ref="31435205"/>
    <nd ref="601195790"/>
    <nd ref="291748419"/>
    <nd ref="31293044"/>
    <tag k="highway" v="residential"/>
    <tag k="maxspeed" v="50"/>
    <tag k="maxspeed:source" v="default residential speed limit in Australia"/>
    <tag k="name" v="Terry Street"/>
  </way>
  <way id="54148109" version="3" timestamp="2011-04-26T13:35:08Z" uid="7617" user="Franc" changeset="7974869">
    <nd ref="683068253"/>
    <nd ref="31435205"/>
    <nd ref="291748419"/>
    <tag k="highway" v="residential"/>
    <tag k="maxspeed" v="50"/>
    <tag k="maxspeed:source" v="default residential speed limit in Australia"/>
    <tag k="name" v="Terry Street"/>
  </way>
  <way id="54148109" version="4" timestamp="2012-01-20T05:14:21Z" uid="147510" user="woodpeck_fixbot" changeset="10443281">
    <nd ref="683068253"/>
    <nd ref="31435205"/>
    <nd ref="291748419"/>
    <tag k="highway" v="residential"/>
    <tag k="name" v="Terry Street"/>
  </way>
  <way id="54148109" version="5" timestamp="2012-03-22T00:38:20Z" uid="7523" user="inas" changeset="11058591">
    <nd ref="683068253"/>
    <nd ref="31435205"/>
    <nd ref="1685281539"/>
    <tag k="highway" v="residential"/>
    <tag k="name" v="Terry Street"/>
  </way>
  <way id="54148110" version="1" timestamp="2010-04-03T07:59:21Z" uid="7617" user="Franc" changeset="4310344">
    <nd ref="683068236"/>
    <nd ref="29414750"/>
    <nd ref="29414579"/>
    <nd ref="29414656"/>
    <nd ref="29414587"/>
    <tag k="highway" v="residential"/>
    <tag k="name" v="Marinea Street"/>
    <tag k="source" v="survey"/>
  </way>
  <way id="54148110" version="2" timestamp="2010-07-08T02:53:13Z" uid="74617" user="JohnSmith" changeset="5163091">
    <nd ref="683068236"/>
    <nd ref="29414750"/>
    <nd ref="29414579"/>
    <nd ref="29414656"/>
    <nd ref="29414587"/>
    <tag k="highway" v="residential"/>
    <tag k="maxspeed" v="50"/>
    <tag k="maxspeed:source" v="default residential speed limit in Australia"/>
    <tag k="name" v="Marinea Street"/>
    <tag k="source" v="survey"/>
  </way>
  <way id="54148110" version="3" timestamp="2010-10-23T04:21:34Z" uid="7617" user="Franc" changeset="6142011">
    <nd ref="683068236"/>
    <nd ref="29414750"/>
    <nd ref="29414579"/>
    <nd ref="961118189"/>
    <tag k="highway" v="residential"/>
    <tag k="maxspeed" v="50"/>
    <tag k="maxspeed:source" v="default residential speed limit in Australia"/>
    <tag k="name" v="Marinea Street"/>
    <tag k="source" v="survey"/>
  </way>
  <way id="54148110" version="4" timestamp="2012-01-20T05:14:23Z" uid="147510" user="woodpeck_fixbot" changeset="10443281">
    <nd ref="683068236"/>
    <nd ref="29414750"/>
    <nd ref="29414579"/>
    <nd ref="961118189"/>
    <tag k="highway" v="residential"/>
    <tag k="name" v="Marinea Street"/>
    <tag k="source" v="survey"/>
  </way>
  <way id="54148111" version="1" timestamp="2010-04-03T07:59:21Z" uid="7617" user="Franc" changeset="4310344">
    <nd ref="683068267"/>
    <nd ref="29414734"/>
    <nd ref="29414576"/>
    <nd ref="683068281"/>
    <tag k="highway" v="residential"/>
    <tag k="name" v="Segenhoe Street"/>
  </way>
  <way id="54148111" version="2" timestamp="2010-07-08T02:53:48Z" uid="74617" user="JohnSmith" changeset="5163091">
    <nd ref="683068267"/>
    <nd ref="29414734"/>
    <nd ref="29414576"/>
    <nd ref="683068281"/>
    <tag k="highway" v="residential"/>
    <tag k="maxspeed" v="50"/>
    <tag k="maxspeed:source" v="default residential speed limit in Australia"/>
    <tag k="name" v="Segenhoe Street"/>
  </way>
  <way id="54148111" version="3" timestamp="2012-01-20T05:14:24Z" uid="147510" user="woodpeck_fixbot" changeset="10443281">
    <nd ref="683068267"/>
    <nd ref="29414734"/>
    <nd ref="29414576"/>
    <nd ref="683068281"/>
    <tag k="highway" v="residential"/>
    <tag k="name" v="Segenhoe Street"/>
  </way>
  <way id="54148112" version="1" timestamp="2010-04-03T07:59:21Z" uid="7617" user="Franc" changeset="4310344">
    <nd ref="683068275"/>
    <nd ref="250282072"/>
    <nd ref="250283921"/>
    <nd ref="683068251"/>
    <tag k="highway" v="residential"/>
    <tag k="name" v="Terry Street"/>
  </way>
  <way id="54148112" version="2" timestamp="2010-07-08T02:54:34Z" uid="74617" user="JohnSmith" changeset="5163091">
    <nd ref="683068275"/>
    <nd ref="250282072"/>
    <nd ref="250283921"/>
    <nd ref="683068251"/>
    <tag k="highway" v="residential"/>
    <tag k="maxspeed" v="50"/>
    <tag k="maxspeed:source" v="default residential speed limit in Australia"/>
    <tag k="name" v="Terry Street"/>
  </way>
  <way id="54148112" version="3" timestamp="2012-01-20T05:14:25Z" uid="147510" user="woodpeck_fixbot" changeset="10443281">
    <nd ref="683068275"/>
    <nd ref="250282072"/>
    <nd ref="250283921"/>
    <nd ref="683068251"/>
    <tag k="highway" v="residential"/>
    <tag k="name" v="Terry Street"/>
  </way>
  <way id="54148113" version="1" timestamp="2010-04-03T07:59:21Z" uid="7617" user="Franc" changeset="4310344">
    <nd ref="683068253"/>
    <nd ref="683068254"/>
    <nd ref="683068255"/>
    <nd ref="683068256"/>
    <nd ref="683068236"/>
    <nd ref="683068247"/>
    <nd ref="683068248"/>
    <nd ref="683068249"/>
    <nd ref="683068251"/>
    <nd ref="683068252"/>
    <nd ref="683068237"/>
    <nd ref="683068238"/>
    <nd ref="683068239"/>
    <nd ref="683068240"/>
    <nd ref="683068241"/>
    <nd ref="683068242"/>
    <nd ref="683068243"/>
    <nd ref="683068244"/>
    <nd ref="683068245"/>
    <nd ref="683068257"/>
    <nd ref="683068253"/>
    <tag k="highway" v="residential"/>
    <tag k="junction" v="roundabout"/>
    <tag k="source" v="nearmap"/>
  </way>
  <way id="54148113" version="2" timestamp="2010-07-08T02:55:09Z" uid="74617" user="JohnSmith" changeset="5163091">
    <nd ref="683068253"/>
    <nd ref="683068254"/>
    <nd ref="683068255"/>
    <nd ref="683068256"/>
    <nd ref="683068236"/>
    <nd ref="683068247"/>
    <nd ref="683068248"/>
    <nd ref="683068249"/>
    <nd ref="683068251"/>
    <nd ref="683068252"/>
    <nd ref="683068237"/>
    <nd ref="683068238"/>
    <nd ref="683068239"/>
    <nd ref="683068240"/>
    <nd ref="683068241"/>
    <nd ref="683068242"/>
    <nd ref="683068243"/>
    <nd ref="683068244"/>
    <nd ref="683068245"/>
    <nd ref="683068257"/>
    <nd ref="683068253"/>
    <tag k="highway" v="residential"/>
    <tag k="junction" v="roundabout"/>
    <tag k="maxspeed" v="50"/>
    <tag k="maxspeed:source" v="default residential speed limit in Australia"/>
    <tag k="source" v="nearmap"/>
  </way>
  <way id="54148113" version="3" timestamp="2012-01-20T05:14:26Z" uid="147510" user="woodpeck_fixbot" changeset="10443281">
    <nd ref="683068253"/>
    <nd ref="683068254"/>
    <nd ref="683068255"/>
    <nd ref="683068256"/>
    <nd ref="683068236"/>
    <nd ref="683068247"/>
    <nd ref="683068248"/>
    <nd ref="683068249"/>
    <nd ref="683068251"/>
    <nd ref="683068252"/>
    <nd ref="683068237"/>
    <nd ref="683068238"/>
    <nd ref="683068239"/>
    <nd ref="683068240"/>
    <nd ref="683068241"/>
    <nd ref="683068242"/>
    <nd ref="683068243"/>
    <nd ref="683068244"/>
    <nd ref="683068245"/>
    <nd ref="683068257"/>
    <nd ref="683068253"/>
    <tag k="highway" v="residential"/>
    <tag k="junction" v="roundabout"/>
    <tag k="source" v="nearmap"/>
  </way>
  <way id="54148114" version="1" timestamp="2010-04-03T07:59:22Z" uid="7617" user="Franc" changeset="4310344">
    <nd ref="683068258"/>
    <nd ref="683068260"/>
    <nd ref="683068261"/>
    <nd ref="683068262"/>
    <nd ref="683068263"/>
    <nd ref="683068264"/>
    <nd ref="683068265"/>
    <nd ref="683068266"/>
    <nd ref="683068258"/>
    <tag k="highway" v="residential"/>
    <tag k="junction" v="roundabout"/>
    <tag k="source" v="nearmap"/>
  </way>
  <way id="54148114" version="2" timestamp="2010-07-08T02:53:24Z" uid="74617" user="JohnSmith" changeset="5163091">
    <nd ref="683068258"/>
    <nd ref="683068260"/>
    <nd ref="683068261"/>
    <nd ref="683068262"/>
    <nd ref="683068263"/>
    <nd ref="683068264"/>
    <nd ref="683068265"/>
    <nd ref="683068266"/>
    <nd ref="683068258"/>
    <tag k="highway" v="residential"/>
    <tag k="junction" v="roundabout"/>
    <tag k="maxspeed" v="50"/>
    <tag k="maxspeed:source" v="default residential speed limit in Australia"/>
    <tag k="source" v="nearmap"/>
  </way>
  <way id="54148114" version="3" timestamp="2012-01-20T05:14:28Z" uid="147510" user="woodpeck_fixbot" changeset="10443281">
    <nd ref="683068258"/>
    <nd ref="683068260"/>
    <nd ref="683068261"/>
    <nd ref="683068262"/>
    <nd ref="683068263"/>
    <nd ref="683068264"/>
    <nd ref="683068265"/>
    <nd ref="683068266"/>
    <nd ref="683068258"/>
    <tag k="highway" v="residential"/>
    <tag k="junction" v="roundabout"/>
    <tag k="source" v="nearmap"/>
  </way>
  <way id="54148115" version="1" timestamp="2010-04-03T07:59:22Z" uid="7617" user="Franc" changeset="4310344">
    <nd ref="683068267"/>
    <nd ref="683068268"/>
    <nd ref="683068270"/>
    <nd ref="683068271"/>
    <nd ref="683068273"/>
    <nd ref="683068274"/>
    <nd ref="683068275"/>
    <nd ref="683068276"/>
    <nd ref="683068267"/>
    <tag k="highway" v="residential"/>
    <tag k="junction" v="roundabout"/>
    <tag k="source" v="nearmap"/>
  </way>
  <way id="54148115" version="2" timestamp="2010-07-08T02:53:59Z" uid="74617" user="JohnSmith" changeset="5163091">
    <nd ref="683068267"/>
    <nd ref="683068268"/>
    <nd ref="683068270"/>
    <nd ref="683068271"/>
    <nd ref="683068273"/>
    <nd ref="683068274"/>
    <nd ref="683068275"/>
    <nd ref="683068276"/>
    <nd ref="683068267"/>
    <tag k="highway" v="residential"/>
    <tag k="junction" v="roundabout"/>
    <tag k="maxspeed" v="50"/>
    <tag k="maxspeed:source" v="default residential speed limit in Australia"/>
    <tag k="source" v="nearmap"/>
  </way>
  <way id="54148115" version="3" timestamp="2012-01-20T05:14:29Z" uid="147510" user="woodpeck_fixbot" changeset="10443281">
    <nd ref="683068267"/>
    <nd ref="683068268"/>
    <nd ref="683068270"/>
    <nd ref="683068271"/>
    <nd ref="683068273"/>
    <nd ref="683068274"/>
    <nd ref="683068275"/>
    <nd ref="683068276"/>
    <nd ref="683068267"/>
    <tag k="highway" v="residential"/>
    <tag k="junction" v="roundabout"/>
    <tag k="source" v="nearmap"/>
  </way>
  <way id="54148116" version="1" timestamp="2010-04-03T07:59:22Z" uid="7617" user="Franc" changeset="4310344">
    <nd ref="683068279"/>
    <nd ref="15183195"/>
    <tag k="highway" v="secondary"/>
    <tag k="name" v="Somerville Street"/>
    <tag k="restriction" v="school_zone"/>
  </way>
  <way id="54148116" version="2" timestamp="2011-02-13T03:54:47Z" uid="389517" user="good2010" changeset="7271685">
    <nd ref="683068279"/>
    <nd ref="15183195"/>
    <tag k="highway" v="secondary"/>
    <tag k="maxspeed" v="50"/>
    <tag k="name" v="Somerville Street"/>
    <tag k="restriction" v="school_zone"/>
  </way>
  <way id="54148117" version="1" timestamp="2010-04-03T07:59:22Z" uid="7617" user="Franc" changeset="4310344">
    <nd ref="683068284"/>
    <nd ref="29414599"/>
    <tag k="highway" v="residential"/>
    <tag k="name" v="Segenhoe Street"/>
  </way>
  <way id="54148117" version="2" timestamp="2010-07-08T02:54:44Z" uid="74617" user="JohnSmith" changeset="5163091">
    <nd ref="683068284"/>
    <nd ref="29414599"/>
    <tag k="highway" v="residential"/>
    <tag k="maxspeed" v="50"/>
    <tag k="maxspeed:source" v="default residential speed limit in Australia"/>
    <tag k="name" v="Segenhoe Street"/>
  </way>
  <way id="54148117" version="3" timestamp="2012-01-20T05:14:30Z" uid="147510" user="woodpeck_fixbot" changeset="10443281">
    <nd ref="683068284"/>
    <nd ref="29414599"/>
    <tag k="highway" v="residential"/>
    <tag k="name" v="Segenhoe Street"/>
  </way>
  <way id="54148117" version="4" timestamp="2012-03-25T23:19:18Z" uid="7523" user="inas" changeset="11100995">
    <nd ref="683068284"/>
    <nd ref="1691271000"/>
    <tag k="highway" v="residential"/>
    <tag k="name" v="Segenhoe Street"/>
  </way>
  <way id="54148118" version="1" timestamp="2010-04-03T07:59:22Z" uid="7617" user="Franc" changeset="4310344">
    <nd ref="683068283"/>
    <nd ref="29414585"/>
    <tag k="highway" v="residential"/>
    <tag k="name" v="Avenal Street"/>
    <tag k="restriction" v="school_zone"/>
  </way>
  <way id="54148118" version="2" timestamp="2010-07-08T02:55:40Z" uid="74617" user="JohnSmith" changeset="5163091">
    <nd ref="683068283"/>
    <nd ref="29414585"/>
    <tag k="highway" v="residential"/>
    <tag k="maxspeed" v="50"/>
    <tag k="maxspeed:source" v="default residential speed limit in Australia"/>
    <tag k="name" v="Avenal Street"/>
    <tag k="restriction" v="school_zone"/>
  </way>
  <way id="54148118" version="3" timestamp="2012-01-20T05:14:31Z" uid="147510" user="woodpeck_fixbot" changeset="10443281">
    <nd ref="683068283"/>
    <nd ref="29414585"/>
    <tag k="highway" v="residential"/>
    <tag k="name" v="Avenal Street"/>
    <tag k="restriction" v="school_zone"/>
  </way>
  <way id="54148119" version="1" timestamp="2010-04-03T07:59:22Z" uid="7617" user="Franc" changeset="4310344">
    <nd ref="683068281"/>
    <nd ref="29414585"/>
    <nd ref="29414602"/>
    <nd ref="29414603"/>
    <nd ref="683068284"/>
    <tag k="highway" v="residential"/>
    <tag k="name" v="Segenhoe Street"/>
    <tag k="restriction" v="school_zone"/>
  </way>
  <way id="54148119" version="2" timestamp="2010-07-08T02:53:35Z" uid="74617" user="JohnSmith" changeset="5163091">
    <nd ref="683068281"/>
    <nd ref="29414585"/>
    <nd ref="29414602"/>
    <nd ref="29414603"/>
    <nd ref="683068284"/>
    <tag k="highway" v="residential"/>
    <tag k="maxspeed" v="50"/>
    <tag k="maxspeed:source" v="default residential speed limit in Australia"/>
    <tag k="name" v="Segenhoe Street"/>
    <tag k="restriction" v="school_zone"/>
  </way>
  <way id="54148119" version="3" timestamp="2012-01-20T05:14:33Z" uid="147510" user="woodpeck_fixbot" changeset="10443281">
    <nd ref="683068281"/>
    <nd ref="29414585"/>
    <nd ref="29414602"/>
    <nd ref="29414603"/>
    <nd ref="683068284"/>
    <tag k="highway" v="residential"/>
    <tag k="name" v="Segenhoe Street"/>
    <tag k="restriction" v="school_zone"/>
  </way>
  <way id="54148120" version="1" timestamp="2010-04-03T07:59:22Z" uid="7617" user="Franc" changeset="4310344">
    <nd ref="15183197"/>
    <nd ref="683068288"/>
    <nd ref="15183201"/>
    <tag k="highway" v="secondary"/>
    <tag k="name" v="Firth Street"/>
  </way>
  <way id="54148120" version="2" timestamp="2010-10-31T03:12:20Z" uid="7617" user="Franc" changeset="6234803">
    <nd ref="15183197"/>
    <nd ref="683068288"/>
    <nd ref="971468821"/>
    <nd ref="971468574"/>
    <nd ref="15183201"/>
    <tag k="highway" v="secondary"/>
    <tag k="name" v="Firth Street"/>
  </way>
  <way id="54148120" version="3" timestamp="2011-02-13T03:54:51Z" uid="389517" user="good2010" changeset="7271685">
    <nd ref="15183197"/>
    <nd ref="683068288"/>
    <nd ref="971468821"/>
    <nd ref="971468574"/>
    <nd ref="15183201"/>
    <tag k="highway" v="secondary"/>
    <tag k="maxspeed" v="40"/>
    <tag k="name" v="Firth Street"/>
  </way>
  <way id="54148121" version="1" timestamp="2010-04-03T07:59:22Z" uid="7617" user="Franc" changeset="4310344">
    <nd ref="683068287"/>
    <nd ref="29976433"/>
    <tag k="highway" v="residential"/>
    <tag k="name" v="Eden Street"/>
    <tag k="restriction" v="school_zone"/>
  </way>
  <way id="54148121" version="2" timestamp="2010-07-08T02:54:18Z" uid="74617" user="JohnSmith" changeset="5163091">
    <nd ref="683068287"/>
    <nd ref="29976433"/>
    <tag k="highway" v="residential"/>
    <tag k="maxspeed" v="50"/>
    <tag k="maxspeed:source" v="default residential speed limit in Australia"/>
    <tag k="name" v="Eden Street"/>
    <tag k="restriction" v="school_zone"/>
  </way>
  <way id="54148121" version="3" timestamp="2010-09-19T11:21:02Z" uid="7617" user="Franc" changeset="5818777">
    <nd ref="683068287"/>
    <nd ref="918176309"/>
    <nd ref="29976433"/>
    <tag k="highway" v="residential"/>
    <tag k="maxspeed" v="50"/>
    <tag k="maxspeed:source" v="default residential speed limit in Australia"/>
    <tag k="name" v="Eden Street"/>
    <tag k="restriction" v="school_zone"/>
  </way>
  <way id="54148121" version="4" timestamp="2012-01-20T05:14:34Z" uid="147510" user="woodpeck_fixbot" changeset="10443281">
    <nd ref="683068287"/>
    <nd ref="918176309"/>
    <nd ref="29976433"/>
    <tag k="highway" v="residential"/>
    <tag k="name" v="Eden Street"/>
    <tag k="restriction" v="school_zone"/>
  </way>
  <way id="54148121" version="5" timestamp="2012-03-25T23:19:11Z" uid="7523" user="inas" changeset="11100995">
    <nd ref="683068287"/>
    <nd ref="1691270991"/>
    <tag k="highway" v="residential"/>
    <tag k="name" v="Eden Street"/>
    <tag k="restriction" v="school_zone"/>
  </way>
  <way id="54148122" version="1" timestamp="2010-04-03T07:59:23Z" uid="7617" user="Franc" changeset="4310344">
    <nd ref="683068285"/>
    <nd ref="15183195"/>
    <nd ref="104785355"/>
    <tag k="highway" v="primary"/>
    <tag k="name" v="Forest Road"/>
    <tag k="ref" v="D5"/>
    <tag k="restriction" v="school_zone"/>
    <tag k="source" v="yahoo_imagery"/>
  </way>
  <way id="54148122" version="2" timestamp="2010-07-10T08:13:17Z" uid="299678" user="peteramjet" changeset="5180191">
    <nd ref="683068285"/>
    <nd ref="15183195"/>
    <nd ref="104785355"/>
    <tag k="highway" v="primary"/>
    <tag k="name" v="Forest Road"/>
    <tag k="restriction" v="school_zone"/>
    <tag k="source" v="yahoo_imagery"/>
  </way>
  <way id="54148122" version="3" timestamp="2010-12-30T07:28:33Z" uid="333194" user="happyOOO" changeset="6806148">
    <nd ref="683068285"/>
    <nd ref="15183195"/>
    <nd ref="104785355"/>
    <tag k="highway" v="primary"/>
    <tag k="maxspeed" v="60"/>
    <tag k="name" v="Forest Road"/>
    <tag k="restriction" v="school_zone"/>
    <tag k="source" v="yahoo_imagery"/>
  </way>
  <way id="54148122" version="4" timestamp="2012-03-25T23:19:11Z" uid="7523" user="inas" changeset="11100995">
    <nd ref="683068285"/>
    <nd ref="15183195"/>
    <nd ref="104785355"/>
    <nd ref="1691270990"/>
    <nd ref="1691270993"/>
    <nd ref="1691270991"/>
    <nd ref="1686467360"/>
    <tag k="highway" v="primary"/>
    <tag k="maxspeed" v="60"/>
    <tag k="name" v="Forest Road"/>
    <tag k="restriction" v="school_zone"/>
    <tag k="source" v="yahoo_imagery"/>
  </way>
  <way id="54148123" version="1" timestamp="2010-04-03T07:59:23Z" uid="7617" user="Franc" changeset="4310344">
    <nd ref="603455237"/>
    <nd ref="603455236"/>
    <nd ref="26637217"/>
    <nd ref="291748415"/>
    <tag k="highway" v="primary"/>
    <tag k="maxspeed" v="60"/>
    <tag k="name" v="Forest Road"/>
    <tag k="ref" v="D5"/>
    <tag k="source" v="yahoo_imagery"/>
  </way>
  <way id="54148123" version="2" timestamp="2010-07-10T08:13:17Z" uid="299678" user="peteramjet" changeset="5180191">
    <nd ref="603455237"/>
    <nd ref="603455236"/>
    <nd ref="26637217"/>
    <nd ref="291748415"/>
    <tag k="highway" v="primary"/>
    <tag k="maxspeed" v="60"/>
    <tag k="name" v="Forest Road"/>
    <tag k="source" v="yahoo_imagery"/>
  </way>
  <way id="54148123" version="3" timestamp="2011-04-26T13:35:02Z" uid="7617" user="Franc" changeset="7974869">
    <nd ref="603455237"/>
    <nd ref="603455236"/>
    <tag k="highway" v="primary"/>
    <tag k="maxspeed" v="60"/>
    <tag k="name" v="Forest Road"/>
    <tag k="source" v="yahoo_imagery"/>
  </way>
  <way id="54148123" version="4" timestamp="2012-03-22T23:27:58Z" uid="7523" user="inas" changeset="11069049"/>
  <way id="54148134" version="2" timestamp="2010-05-26T06:37:01Z" uid="6975" user="ulfl" changeset="4810197">
    <nd ref="683068387"/>
    <nd ref="683068376"/>
    <nd ref="683068381"/>
    <nd ref="683068372"/>
    <nd ref="683068388"/>
    <nd ref="683068382"/>
    <nd ref="683068385"/>
    <nd ref="683068378"/>
    <nd ref="683068387"/>
    <tag k="addr:city" v="Paderborn"/>
    <tag k="addr:housenumber" v="7"/>
    <tag k="addr:postcode" v="33102"/>
    <tag k="addr:street" v="Fürstenallee"/>
    <tag k="building" v="yes"/>
    <tag k="name" v="Heinz Nixdorf MuseumsForum"/>
    <tag k="phone" v="05251 3066 0"/>
    <tag k="tourism" v="museum"/>
    <tag k="url" v="www.hnf.de"/>
  </way>
  <way id="54148134" version="3" timestamp="2010-06-11T21:08:56Z" uid="29639" user="bielebog" changeset="4966115">
    <nd ref="769379004"/>
    <nd ref="683068388"/>
    <nd ref="683068382"/>
    <nd ref="683068385"/>
    <nd ref="683068378"/>
    <nd ref="683068387"/>
    <nd ref="769379004"/>
    <tag k="addr:city" v="Paderborn"/>
    <tag k="addr:housenumber" v="7"/>
    <tag k="addr:postcode" v="33102"/>
    <tag k="addr:street" v="Fürstenallee"/>
    <tag k="building" v="yes"/>
    <tag k="name" v="Heinz Nixdorf MuseumsForum"/>
    <tag k="phone" v="05251 3066 0"/>
    <tag k="tourism" v="museum"/>
    <tag k="url" v="www.hnf.de"/>
  </way>
  <way id="54148134" version="4" timestamp="2010-06-13T06:40:51Z" uid="161619" user="FvGordon" changeset="4975788">
    <nd ref="683068372"/>
    <nd ref="683068388"/>
    <nd ref="683068382"/>
    <nd ref="683068385"/>
    <nd ref="683068378"/>
    <nd ref="683068387"/>
    <nd ref="683068372"/>
    <tag k="addr:city" v="Paderborn"/>
    <tag k="addr:housenumber" v="7"/>
    <tag k="addr:postcode" v="33102"/>
    <tag k="addr:street" v="Fürstenallee"/>
    <tag k="building" v="yes"/>
    <tag k="name" v="Heinz Nixdorf MuseumsForum"/>
    <tag k="phone" v="05251 3066 0"/>
    <tag k="tourism" v="museum"/>
    <tag k="url" v="www.hnf.de"/>
  </way>
  <way id="54148560" version="6" timestamp="2010-12-06T20:32:58Z" uid="8619" user="cetest" changeset="6568333">
    <nd ref="683071237"/>
    <nd ref="683071238"/>
    <nd ref="683071239"/>
    <nd ref="1025452735"/>
    <nd ref="1020447090"/>
    <nd ref="1020447098"/>
    <nd ref="1020447103"/>
    <nd ref="683071240"/>
    <nd ref="1025452481"/>
    <nd ref="1025452024"/>
    <nd ref="1025452615"/>
    <nd ref="683283771"/>
    <nd ref="1025453275"/>
    <nd ref="683283772"/>
    <nd ref="1025452394"/>
    <nd ref="683283773"/>
    <nd ref="1025452822"/>
    <nd ref="683283774"/>
    <nd ref="1025453001"/>
    <nd ref="683283775"/>
    <nd ref="1025453499"/>
    <nd ref="683071241"/>
    <nd ref="1025452178"/>
    <nd ref="683283777"/>
    <nd ref="683283778"/>
    <nd ref="683283779"/>
    <nd ref="1025452306"/>
    <nd ref="683071237"/>
    <tag k="landuse" v="residential"/>
    <tag k="place" v="village"/>
    <tag k="place_name" v="פורדיס"/>
    <tag k="place_name:en" v="Furadis"/>
  </way>
  <way id="54148560" version="7" timestamp="2011-07-14T09:10:33Z" uid="160949" user="eric22" changeset="8719977">
    <nd ref="683071237"/>
    <nd ref="1361221300"/>
    <nd ref="683071238"/>
    <nd ref="683071239"/>
    <nd ref="1025452735"/>
    <nd ref="1020447090"/>
    <nd ref="1020447098"/>
    <nd ref="1020447103"/>
    <nd ref="683071240"/>
    <nd ref="1025452481"/>
    <nd ref="1025452024"/>
    <nd ref="1025452615"/>
    <nd ref="683283771"/>
    <nd ref="1025453275"/>
    <nd ref="683283772"/>
    <nd ref="1025452394"/>
    <nd ref="683283773"/>
    <nd ref="1025452822"/>
    <nd ref="683283774"/>
    <nd ref="1025453001"/>
    <nd ref="683283775"/>
    <nd ref="1025453499"/>
    <nd ref="683071241"/>
    <nd ref="1025452178"/>
    <nd ref="683283777"/>
    <nd ref="683283778"/>
    <nd ref="683283779"/>
    <nd ref="1025452306"/>
    <nd ref="683071237"/>
    <tag k="landuse" v="residential"/>
    <tag k="place" v="village"/>
    <tag k="place_name" v="פורדיס"/>
    <tag k="place_name:en" v="Furadis"/>
  </way>
  <way id="54148560" version="8" timestamp="2012-02-17T16:28:44Z" uid="22684" user="Mr_Israel" changeset="10712710"/>
  <way id="54148683" version="1" timestamp="2010-04-03T08:20:41Z" uid="151899" user="Bikeman2000" changeset="4310465">
    <nd ref="683072611"/>
    <nd ref="683072612"/>
    <nd ref="683072613"/>
    <nd ref="683072614"/>
    <nd ref="683072615"/>
    <nd ref="683072616"/>
    <nd ref="683072617"/>
    <nd ref="683072618"/>
    <nd ref="683072619"/>
    <nd ref="683072620"/>
    <nd ref="683072621"/>
    <nd ref="683072622"/>
    <nd ref="683072623"/>
    <nd ref="683072624"/>
    <nd ref="683072625"/>
    <nd ref="683072626"/>
    <nd ref="683072627"/>
    <nd ref="683072628"/>
    <nd ref="683072629"/>
    <nd ref="683072630"/>
    <nd ref="683072631"/>
    <nd ref="683072632"/>
    <nd ref="683072633"/>
    <nd ref="683072634"/>
    <nd ref="683072635"/>
    <nd ref="683072636"/>
    <nd ref="683072611"/>
    <tag k="landuse" v="farmland"/>
  </way>
  <way id="54148683" version="2" timestamp="2011-12-19T15:50:40Z" uid="12614" user="rabenkind" changeset="10156671"/>
  <way id="54148701" version="1" timestamp="2010-04-03T08:23:25Z" uid="74617" user="JohnSmith" changeset="4310277">
    <nd ref="296100290"/>
    <nd ref="683072759"/>
    <nd ref="683072756"/>
    <nd ref="683072757"/>
    <nd ref="683072758"/>
    <nd ref="296109894"/>
    <tag k="highway" v="tertiary"/>
    <tag k="oneway" v="yes"/>
  </way>
  <way id="54148702" version="1" timestamp="2010-04-03T08:23:25Z" uid="74617" user="JohnSmith" changeset="4310277">
    <nd ref="296109970"/>
    <nd ref="296100188"/>
    <nd ref="296099860"/>
    <tag k="highway" v="residential"/>
    <tag k="oneway" v="yes"/>
  </way>
  <way id="54148702" version="2" timestamp="2010-07-06T17:46:24Z" uid="74617" user="JohnSmith" changeset="5152225">
    <nd ref="296109970"/>
    <nd ref="296100188"/>
    <nd ref="296099860"/>
    <tag k="highway" v="residential"/>
    <tag k="maxspeed" v="50"/>
    <tag k="maxspeed:source" v="default residential speed limit in Australia"/>
    <tag k="oneway" v="yes"/>
  </way>
  <way id="54148897" version="4" timestamp="2010-07-25T08:04:03Z" uid="4467" user="Rosscoe" changeset="5309577">
    <nd ref="83337002"/>
    <nd ref="83337003"/>
    <nd ref="83337004"/>
    <tag k="bridge" v="yes"/>
    <tag k="highway" v="tertiary"/>
    <tag k="layer" v="1"/>
    <tag k="name" v="Harvey Quindanning Road"/>
  </way>
  <way id="54148900" version="4" timestamp="2010-07-25T08:04:05Z" uid="4467" user="Rosscoe" changeset="5309577">
    <nd ref="83337009"/>
    <nd ref="83337010"/>
    <nd ref="83337011"/>
    <nd ref="683075778"/>
    <nd ref="83337012"/>
    <tag k="bridge" v="yes"/>
    <tag k="highway" v="tertiary"/>
    <tag k="layer" v="1"/>
    <tag k="name" v="Harvey Quindanning Road"/>
  </way>
  <way id="54148976" version="1" timestamp="2010-04-03T08:33:15Z" uid="74617" user="JohnSmith" changeset="4310277">
    <nd ref="203541778"/>
    <nd ref="683074699"/>
    <tag k="bridge" v="yes"/>
    <tag k="highway" v="primary"/>
    <tag k="layer" v="1"/>
    <tag k="name" v="Neilsens Road"/>
    <tag k="oneway" v="yes"/>
  </way>
  <way id="54148977" version="1" timestamp="2010-04-03T08:33:15Z" uid="74617" user="JohnSmith" changeset="4310277">
    <nd ref="683074699"/>
    <nd ref="201168107"/>
    <nd ref="201142637"/>
    <tag k="highway" v="primary"/>
    <tag k="name" v="Neilsens Road"/>
    <tag k="oneway" v="yes"/>
  </way>
  <way id="54148107" version="3" timestamp="2012-07-16T08:56:22Z" uid="713671" user="auspod" changeset="12241240">
    <nd ref="1827326922"/>
    <nd ref="1827326930"/>
    <nd ref="1827327555"/>
    <nd ref="1827327114"/>
    <nd ref="26637172"/>
    <tag k="highway" v="unclassified"/>
    <tag k="maxspeed" v="50"/>
    <tag k="name" v="Spring Street"/>
    <tag k="source" v="yahoo_imagery"/>
  </way>
  <way id="54148107" version="4" timestamp="2012-07-20T02:44:48Z" uid="722137" user="OSMF Redaction Account" changeset="12358530">
    <nd ref="1827326922"/>
    <nd ref="1827326930"/>
    <nd ref="1827327555"/>
    <nd ref="1827327114"/>
    <tag k="maxspeed" v="50"/>
  </way>
  <way id="54148107" version="5" timestamp="2012-07-20T08:25:01Z" uid="713671" user="auspod" changeset="12368240">
    <nd ref="1827326922"/>
    <nd ref="1827326930"/>
    <nd ref="1827327555"/>
    <nd ref="1827327114"/>
    <tag k="highway" v="residential"/>
    <tag k="maxspeed" v="50"/>
  </way>
  <way id="54148108" version="2" timestamp="2012-07-20T02:49:18Z" uid="722137" user="OSMF Redaction Account" changeset="12358665"/>
  <way id="54148109" version="6" timestamp="2012-07-16T08:56:21Z" uid="713671" user="auspod" changeset="12241240">
    <nd ref="1827326809"/>
    <nd ref="1827327442"/>
    <nd ref="1827327082"/>
    <tag k="highway" v="residential"/>
    <tag k="name" v="Terry Street"/>
  </way>
  <way id="54148109" version="7" timestamp="2012-07-20T02:44:50Z" uid="722137" user="OSMF Redaction Account" changeset="12358530">
    <nd ref="1827326809"/>
    <nd ref="1827327442"/>
    <nd ref="1827327082"/>
  </way>
  <way id="54148109" version="8" timestamp="2012-07-20T08:25:02Z" uid="713671" user="auspod" changeset="12368240">
    <nd ref="1827326809"/>
    <nd ref="1827327442"/>
    <nd ref="1827327082"/>
    <tag k="highway" v="residential"/>
    <tag k="maxspeed" v="50"/>
  </way>
  <way id="54148110" version="5" timestamp="2012-07-16T08:56:21Z" uid="713671" user="auspod" changeset="12241240">
    <nd ref="1827327149"/>
    <nd ref="1827327110"/>
    <nd ref="1827327440"/>
    <nd ref="1827327202"/>
    <nd ref="961118189"/>
    <tag k="highway" v="residential"/>
    <tag k="name" v="Marinea Street"/>
    <tag k="source" v="survey"/>
  </way>
  <way id="54148110" version="6" timestamp="2012-07-20T02:44:50Z" uid="722137" user="OSMF Redaction Account" changeset="12358530">
    <nd ref="1827327149"/>
    <nd ref="1827327110"/>
    <nd ref="1827327440"/>
    <nd ref="1827327202"/>
  </way>
  <way id="54148110" version="7" timestamp="2012-07-20T08:25:02Z" uid="713671" user="auspod" changeset="12368240">
    <nd ref="1827327149"/>
    <nd ref="1827327110"/>
    <nd ref="1827327440"/>
    <nd ref="1827327202"/>
    <tag k="highway" v="residential"/>
    <tag k="maxspeed" v="50"/>
  </way>
  <way id="54148111" version="4" timestamp="2012-07-16T08:56:22Z" uid="713671" user="auspod" changeset="12241240">
    <nd ref="1827327255"/>
    <nd ref="1827326914"/>
    <nd ref="1827327269"/>
    <nd ref="683068281"/>
    <tag k="highway" v="residential"/>
    <tag k="name" v="Segenhoe Street"/>
  </way>
  <way id="54148111" version="5" timestamp="2012-07-20T02:44:50Z" uid="722137" user="OSMF Redaction Account" changeset="12358530">
    <nd ref="1827327255"/>
    <nd ref="1827326914"/>
    <nd ref="1827327269"/>
  </way>
  <way id="54148111" version="6" timestamp="2012-07-20T08:25:02Z" uid="713671" user="auspod" changeset="12368240">
    <nd ref="1827327255"/>
    <nd ref="1827326914"/>
    <nd ref="1827327269"/>
    <tag k="highway" v="residential"/>
    <tag k="maxspeed" v="50"/>
  </way>
  <way id="54148112" version="4" timestamp="2012-07-16T08:56:22Z" uid="713671" user="auspod" changeset="12241240">
    <nd ref="1827327089"/>
    <nd ref="1827327322"/>
    <nd ref="1827327234"/>
    <nd ref="1827327067"/>
    <tag k="highway" v="residential"/>
    <tag k="name" v="Terry Street"/>
  </way>
  <way id="54148112" version="5" timestamp="2012-07-20T02:44:49Z" uid="722137" user="OSMF Redaction Account" changeset="12358530">
    <nd ref="1827327089"/>
    <nd ref="1827327322"/>
    <nd ref="1827327234"/>
    <nd ref="1827327067"/>
  </way>
  <way id="54148112" version="6" timestamp="2012-07-20T08:25:02Z" uid="713671" user="auspod" changeset="12368240">
    <nd ref="1827327089"/>
    <nd ref="1827327322"/>
    <nd ref="1827327234"/>
    <nd ref="1827327067"/>
    <tag k="highway" v="residential"/>
    <tag k="maxspeed" v="50"/>
  </way>
  <way id="54148113" version="4" timestamp="2012-07-16T08:56:43Z" uid="713671" user="auspod" changeset="12241240"/>
  <way id="54148114" version="4" timestamp="2012-07-16T08:56:43Z" uid="713671" user="auspod" changeset="12241240"/>
  <way id="54148115" version="4" timestamp="2012-07-16T08:56:43Z" uid="713671" user="auspod" changeset="12241240"/>
  <way id="54148116" version="3" timestamp="2012-07-20T02:49:11Z" uid="722137" user="OSMF Redaction Account" changeset="12358665"/>
  <way id="54148117" version="5" timestamp="2012-07-20T02:49:10Z" uid="722137" user="OSMF Redaction Account" changeset="12358665"/>
  <way id="54148118" version="4" timestamp="2012-07-16T08:56:22Z" uid="713671" user="auspod" changeset="12241240">
    <nd ref="683068283"/>
    <nd ref="1827327381"/>
    <tag k="highway" v="residential"/>
    <tag k="name" v="Avenal Street"/>
    <tag k="restriction" v="school_zone"/>
  </way>
  <way id="54148118" version="5" timestamp="2012-07-20T02:49:08Z" uid="722137" user="OSMF Redaction Account" changeset="12358665"/>
  <way id="54148119" version="4" timestamp="2012-07-16T08:56:22Z" uid="713671" user="auspod" changeset="12241240">
    <nd ref="683068281"/>
    <nd ref="1827327381"/>
    <nd ref="1827327317"/>
    <nd ref="1827327181"/>
    <nd ref="1827327071"/>
    <nd ref="1827327425"/>
    <nd ref="1827326794"/>
    <nd ref="1827327552"/>
    <nd ref="683068284"/>
    <tag k="highway" v="residential"/>
    <tag k="name" v="Segenhoe Street"/>
    <tag k="restriction" v="school_zone"/>
  </way>
  <way id="54148119" version="5" timestamp="2012-07-20T02:44:51Z" uid="722137" user="OSMF Redaction Account" changeset="12358530">
    <nd ref="1827327381"/>
    <nd ref="1827327317"/>
    <nd ref="1827327181"/>
    <nd ref="1827327071"/>
    <nd ref="1827327425"/>
    <nd ref="1827326794"/>
    <nd ref="1827327552"/>
  </way>
  <way id="54148119" version="6" timestamp="2012-07-20T08:25:19Z" uid="713671" user="auspod" changeset="12368240">
    <nd ref="1827327381"/>
    <nd ref="1827327317"/>
    <nd ref="1827327181"/>
    <nd ref="1827327071"/>
    <nd ref="1827327425"/>
    <nd ref="1827326794"/>
    <nd ref="1827327552"/>
    <tag k="highway" v="residential"/>
    <tag k="maxspeed" v="50"/>
  </way>
  <way id="54148119" version="7" timestamp="2012-08-02T13:43:05Z" uid="510836" user="Rub21" changeset="12586165">
    <nd ref="1827327381"/>
    <nd ref="1827327317"/>
    <nd ref="1827327181"/>
    <nd ref="1827327071"/>
    <nd ref="1827327425"/>
    <nd ref="1827326794"/>
    <nd ref="1827327552"/>
    <nd ref="1848419989"/>
    <nd ref="1691271000"/>
    <tag k="highway" v="residential"/>
    <tag k="maxspeed" v="50"/>
  </way>
  <way id="54148120" version="4" timestamp="2012-07-15T20:52:02Z" uid="713671" user="auspod" changeset="12235871">
    <nd ref="15183197"/>
    <nd ref="683068288"/>
    <nd ref="971468821"/>
    <nd ref="971468574"/>
    <nd ref="1826924895"/>
    <tag k="highway" v="secondary"/>
    <tag k="maxspeed" v="40"/>
    <tag k="name" v="Firth Street"/>
  </way>
  <way id="54148120" version="5" timestamp="2012-07-20T02:49:11Z" uid="722137" user="OSMF Redaction Account" changeset="12358665"/>
  <way id="54148121" version="6" timestamp="2012-07-20T02:49:12Z" uid="722137" user="OSMF Redaction Account" changeset="12358665"/>
  <way id="54148122" version="5" timestamp="2012-07-20T02:44:54Z" uid="722137" user="OSMF Redaction Account" changeset="12358530">
    <nd ref="1691270990"/>
    <nd ref="1691270993"/>
    <nd ref="1691270991"/>
    <nd ref="1686467360"/>
    <tag k="maxspeed" v="60"/>
  </way>
  <way id="54148122" version="6" timestamp="2012-07-24T14:11:54Z" uid="2585" user="rw_" changeset="12467501">
    <nd ref="1826925548"/>
    <nd ref="26638136"/>
    <nd ref="1836599812"/>
    <nd ref="1836599810"/>
    <nd ref="33118774"/>
    <nd ref="1836599809"/>
    <nd ref="1836599808"/>
    <nd ref="1836599807"/>
    <nd ref="1836599806"/>
    <nd ref="1836599805"/>
    <nd ref="1836599804"/>
    <nd ref="1836599803"/>
    <nd ref="1691270990"/>
    <nd ref="1691270993"/>
    <nd ref="1691270991"/>
    <nd ref="1686467360"/>
    <tag k="highway" v="primary"/>
    <tag k="maxspeed" v="60"/>
    <tag k="name" v="Forest Road"/>
  </way>
  <way id="54148122" version="7" timestamp="2012-07-28T15:39:42Z" uid="308" user="MichaelCollinson" changeset="12523965">
    <nd ref="1826925548"/>
    <nd ref="26638136"/>
    <nd ref="1836599812"/>
    <nd ref="1836599810"/>
    <nd ref="33118774"/>
    <nd ref="1836599809"/>
    <nd ref="1836599808"/>
    <nd ref="1836599807"/>
    <nd ref="1836599806"/>
    <nd ref="1836599805"/>
    <nd ref="1836599804"/>
    <nd ref="15183195"/>
    <nd ref="1691270990"/>
    <nd ref="1691270993"/>
    <nd ref="1691270991"/>
    <nd ref="1686467360"/>
    <tag k="highway" v="primary"/>
    <tag k="maxspeed" v="60"/>
    <tag k="name" v="Forest Road"/>
  </way>
  <way id="54148122" version="8" timestamp="2012-08-02T13:38:47Z" uid="510836" user="Rub21" changeset="12586113">
    <nd ref="1826925548"/>
    <nd ref="26638136"/>
    <nd ref="1836599812"/>
    <nd ref="1848414665"/>
    <nd ref="1836599810"/>
    <nd ref="1848414639"/>
    <nd ref="1848414627"/>
    <nd ref="1848414622"/>
    <nd ref="1836599809"/>
    <nd ref="1836599808"/>
    <nd ref="1836599807"/>
    <nd ref="1848414607"/>
    <nd ref="1848414603"/>
    <nd ref="1836599806"/>
    <nd ref="1848414595"/>
    <nd ref="1836599805"/>
    <nd ref="1836599804"/>
    <nd ref="15183195"/>
    <nd ref="1691270990"/>
    <nd ref="1691270993"/>
    <nd ref="1691270991"/>
    <nd ref="1686467360"/>
    <tag k="highway" v="primary"/>
    <tag k="maxspeed" v="60"/>
    <tag k="name" v="Forest Road"/>
  </way>
  <way id="54148122" version="9" timestamp="2012-08-15T19:43:30Z" uid="18675" user="JeLuF" changeset="12742964">
    <nd ref="1826925548"/>
    <nd ref="26638136"/>
    <nd ref="1836599812"/>
    <nd ref="1867764871"/>
    <nd ref="1848414665"/>
    <nd ref="1836599810"/>
    <nd ref="1848414639"/>
    <nd ref="1848414627"/>
    <nd ref="1848414622"/>
    <nd ref="1836599809"/>
    <nd ref="1836599808"/>
    <nd ref="1836599807"/>
    <nd ref="1848414607"/>
    <nd ref="1848414603"/>
    <nd ref="1836599806"/>
    <nd ref="1848414595"/>
    <nd ref="1836599805"/>
    <nd ref="1836599804"/>
    <nd ref="15183195"/>
    <nd ref="1691270990"/>
    <nd ref="1691270993"/>
    <nd ref="1691270991"/>
    <nd ref="1686467360"/>
    <tag k="highway" v="primary"/>
    <tag k="maxspeed" v="60"/>
    <tag k="name" v="Forest Road"/>
  </way>
  <way id="54148122" version="10" timestamp="2012-08-18T13:04:10Z" uid="152074" user="beweta" changeset="12772873">
    <nd ref="1826925548"/>
    <nd ref="26638136"/>
    <nd ref="1836599812"/>
    <nd ref="1867764871"/>
    <nd ref="1848414665"/>
    <nd ref="1836599810"/>
    <nd ref="1848414639"/>
    <nd ref="1848414627"/>
    <nd ref="1848414622"/>
    <nd ref="1836599809"/>
    <nd ref="1836599808"/>
    <nd ref="1848414607"/>
    <nd ref="1848414603"/>
    <nd ref="1836599806"/>
    <nd ref="1848414595"/>
    <nd ref="1836599805"/>
    <nd ref="1836599804"/>
    <nd ref="15183195"/>
    <nd ref="1691270990"/>
    <nd ref="1691270993"/>
    <nd ref="1691270991"/>
    <nd ref="1686467360"/>
    <tag k="highway" v="primary"/>
    <tag k="maxspeed" v="60"/>
    <tag k="name" v="Forest Road"/>
  </way>
  <way id="54148122" version="11" timestamp="2012-08-19T17:15:53Z" uid="408202" user="BFX" changeset="12785427">
    <nd ref="1826925548"/>
    <nd ref="26638136"/>
    <nd ref="1836599812"/>
    <nd ref="1867764871"/>
    <nd ref="1848414665"/>
    <nd ref="1836599810"/>
    <nd ref="1848414639"/>
    <nd ref="1848414627"/>
    <nd ref="1848414622"/>
    <nd ref="1836599809"/>
    <nd ref="1836599808"/>
    <nd ref="1873142655"/>
    <nd ref="1848414607"/>
    <nd ref="1848414603"/>
    <nd ref="1836599806"/>
    <nd ref="1848414595"/>
    <nd ref="1836599805"/>
    <nd ref="1836599804"/>
    <nd ref="15183195"/>
    <nd ref="1691270990"/>
    <nd ref="1691270993"/>
    <nd ref="1691270991"/>
    <nd ref="1686467360"/>
    <tag k="highway" v="primary"/>
    <tag k="maxspeed" v="60"/>
    <tag k="name" v="Forest Road"/>
  </way>
  <way id="54148134" version="5" timestamp="2012-04-18T08:14:18Z" uid="290680" user="wheelmap_visitor" changeset="11340823">
    <nd ref="683068372"/>
    <nd ref="683068388"/>
    <nd ref="683068382"/>
    <nd ref="683068385"/>
    <nd ref="683068378"/>
    <nd ref="683068387"/>
    <nd ref="683068372"/>
    <tag k="addr:city" v="Paderborn"/>
    <tag k="addr:housenumber" v="7"/>
    <tag k="addr:postcode" v="33102"/>
    <tag k="addr:street" v="Fürstenallee"/>
    <tag k="building" v="yes"/>
    <tag k="name" v="Heinz Nixdorf MuseumsForum"/>
    <tag k="phone" v="05251 3066 0"/>
    <tag k="tourism" v="museum"/>
    <tag k="url" v="www.hnf.de"/>
    <tag k="wheelchair" v="yes"/>
  </way>
  <way id="54148134" version="6" timestamp="2012-05-16T09:05:04Z" uid="64411" user="jongleur1983" changeset="11612244">
    <nd ref="683068372"/>
    <nd ref="683068388"/>
    <nd ref="683068382"/>
    <nd ref="683068385"/>
    <nd ref="683068378"/>
    <nd ref="1754670681"/>
    <nd ref="683068387"/>
    <nd ref="683068372"/>
    <tag k="addr:city" v="Paderborn"/>
    <tag k="addr:housenumber" v="7"/>
    <tag k="addr:postcode" v="33102"/>
    <tag k="addr:street" v="Fürstenallee"/>
    <tag k="building" v="yes"/>
    <tag k="name" v="Heinz Nixdorf MuseumsForum"/>
    <tag k="phone" v="05251 3066 0"/>
    <tag k="tourism" v="museum"/>
    <tag k="url" v="www.hnf.de"/>
    <tag k="wheelchair" v="yes"/>
  </way>
  <way id="54148134" version="7" timestamp="2012-07-17T01:46:09Z" uid="722137" user="OSMF Redaction Account" changeset="12254889">
    <nd ref="683068372"/>
    <nd ref="683068388"/>
    <nd ref="683068382"/>
    <nd ref="683068385"/>
    <nd ref="683068378"/>
    <nd ref="1754670681"/>
    <nd ref="683068387"/>
    <nd ref="683068372"/>
    <tag k="addr:city" v="Paderborn"/>
    <tag k="addr:housenumber" v="7"/>
    <tag k="addr:postcode" v="33102"/>
    <tag k="addr:street" v="Fürstenallee"/>
    <tag k="building" v="yes"/>
    <tag k="name" v="Heinz Nixdorf MuseumsForum"/>
    <tag k="tourism" v="museum"/>
    <tag k="wheelchair" v="yes"/>
  </way>
  <way id="54148701" version="2" timestamp="2012-07-19T15:16:09Z" uid="722137" user="OSMF Redaction Account" changeset="12333912"/>
  <way id="54148702" version="3" timestamp="2012-07-19T15:16:09Z" uid="722137" user="OSMF Redaction Account" changeset="12333912"/>
  <way id="54148897" version="5" timestamp="2012-07-19T09:15:39Z" uid="722137" user="OSMF Redaction Account" changeset="12315627">
    <nd ref="83337002"/>
    <nd ref="83337003"/>
    <nd ref="83337004"/>
    <tag k="bridge" v="yes"/>
    <tag k="highway" v="tertiary"/>
    <tag k="name" v="Harvey Quindanning Road"/>
  </way>
  <way id="54148900" version="5" timestamp="2012-07-19T09:15:38Z" uid="722137" user="OSMF Redaction Account" changeset="12315627">
    <nd ref="83337009"/>
    <nd ref="83337010"/>
    <nd ref="83337011"/>
    <nd ref="683075778"/>
    <nd ref="83337012"/>
    <tag k="bridge" v="yes"/>
    <tag k="highway" v="tertiary"/>
    <tag k="name" v="Harvey Quindanning Road"/>
  </way>
  <way id="54148900" version="6" timestamp="2012-08-11T22:39:10Z" uid="418724" user="wintersportler" changeset="12696622">
    <nd ref="83337009"/>
    <nd ref="1862256515"/>
    <nd ref="83337010"/>
    <nd ref="83337011"/>
    <nd ref="683075778"/>
    <nd ref="83337012"/>
    <tag k="bridge" v="yes"/>
    <tag k="highway" v="unclassified"/>
    <tag k="name" v="Harvey Quindanning Road"/>
  </way>
  <way id="54148976" version="2" timestamp="2012-07-19T15:16:10Z" uid="722137" user="OSMF Redaction Account" changeset="12333912"/>
  <way id="54148977" version="2" timestamp="2012-07-19T15:16:10Z" uid="722137" user="OSMF Redaction Account" changeset="12333912"/>
</osm>
