<?xml version='1.0' encoding='UTF-8'?>
<osm version="0.6" generator="libosmium/2.20.0">
  <way id="54152001" version="2" timestamp="2010-07-09T07:47:56Z" uid="74617" user="JohnSmith" changeset="5171569">
    <nd ref="427886176"/>
    <nd ref="683111088"/>
    <nd ref="562827135"/>
    <tag k="highway" v="residential"/>
    <tag k="maxspeed" v="50"/>
    <tag k="maxspeed:source" v="default residential speed limit in Australia"/>
    <tag k="name" v="Pontiac Way"/>
    <tag k="oneway" v="yes"/>
    <tag k="source" v="survey"/>
  </way>
  <way id="54152001" version="3" timestamp="2012-01-20T05:14:41Z" uid="147510" user="woodpeck_fixbot" changeset="10443281">
    <nd ref="427886176"/>
    <nd ref="683111088"/>
    <nd ref="562827135"/>
    <tag k="highway" v="residential"/>
    <tag k="name" v="Pontiac Way"/>
    <tag k="oneway" v="yes"/>
    <tag k="source" v="survey"/>
  </way>
  <way id="54152012" version="2" timestamp="2010-04-07T21:19:22Z" uid="20587" user="balrog-kun" changeset="4358582">
    <nd ref="683112469"/>
    <nd ref="146252698"/>
    <tag k="bridge" v="yes"/>
    <tag k="highway" v="residential"/>
    <tag k="layer" v="1"/>
    <tag k="name" v="North 92nd Street"/>
    <tag k="tiger:cfcc" v="A41"/>
    <tag k="tiger:county" v="Kay, OK"/>
    <tag k="tiger:name_base" v="92nd"/>
    <tag k="tiger:name_direction_prefix" v="N"/>
    <tag k="tiger:name_type" v="St"/>
    <tag k="tiger:reviewed" v="no"/>
    <tag k="tiger:separated" v="no"/>
    <tag k="tiger:source" v="tiger_import_dch_v0.6_20070829"/>
    <tag k="tiger:tlid" v="115884871:115884875:115884857:115884698:115884687"/>
  </way>
  <way id="54152013" version="2" timestamp="2010-04-07T21:19:23Z" uid="20587" user="balrog-kun" changeset="4358582">
    <nd ref="146252698"/>
    <nd ref="146228861"/>
    <nd ref="146231615"/>
    <nd ref="146252702"/>
    <nd ref="146246624"/>
    <tag k="highway" v="residential"/>
    <tag k="name" v="North 92nd Street"/>
    <tag k="tiger:cfcc" v="A41"/>
    <tag k="tiger:county" v="Kay, OK"/>
    <tag k="tiger:name_base" v="92nd"/>
    <tag k="tiger:name_direction_prefix" v="N"/>
    <tag k="tiger:name_type" v="St"/>
    <tag k="tiger:reviewed" v="no"/>
    <tag k="tiger:separated" v="no"/>
    <tag k="tiger:source" v="tiger_import_dch_v0.6_20070829"/>
    <tag k="tiger:tlid" v="115884871:115884875:115884857:115884698:115884687"/>
  </way>
  <way id="54152018" version="1" timestamp="2010-04-03T10:21:49Z" uid="164966" user="linuss1" changeset="4311417">
    <nd ref="74994094"/>
    <nd ref="289996596"/>
    <nd ref="289996597"/>
    <nd ref="81726139"/>
    <nd ref="289996599"/>
    <nd ref="289996600"/>
    <nd ref="289996601"/>
    <nd ref="74995618"/>
    <tag k="highway" v="residential"/>
    <tag k="name" v="Holunderstraße"/>
  </way>
  <way id="54152018" version="2" timestamp="2011-11-25T15:31:20Z" uid="554234" user="TheHammer" changeset="9945357">
    <nd ref="74994094"/>
    <nd ref="289996596"/>
    <nd ref="289996597"/>
    <nd ref="81726139"/>
    <nd ref="289996599"/>
    <nd ref="289996600"/>
    <nd ref="289996601"/>
    <nd ref="1516488495"/>
    <nd ref="74995618"/>
    <tag k="highway" v="residential"/>
    <tag k="name" v="Holunderstraße"/>
  </way>
  <way id="54152018" version="3" timestamp="2012-01-01T21:31:49Z" uid="554234" user="TheHammer" changeset="10266071">
    <nd ref="74994094"/>
    <nd ref="1573227544"/>
    <nd ref="289996596"/>
    <nd ref="289996597"/>
    <nd ref="81726139"/>
    <nd ref="289996599"/>
    <nd ref="289996600"/>
    <nd ref="289996601"/>
    <nd ref="1516488495"/>
    <nd ref="74995618"/>
    <tag k="highway" v="residential"/>
    <tag k="name" v="Holunderstraße"/>
  </way>
  <way id="54152018" version="4" timestamp="2012-01-16T18:02:47Z" uid="208474" user="Joke123" changeset="10410200">
    <nd ref="74994094"/>
    <nd ref="1573227544"/>
    <nd ref="289996596"/>
    <nd ref="289996597"/>
    <nd ref="81726139"/>
    <nd ref="289996599"/>
    <nd ref="289996600"/>
    <nd ref="1593321405"/>
    <nd ref="289996601"/>
    <nd ref="1516488495"/>
    <nd ref="74995618"/>
    <tag k="highway" v="residential"/>
    <tag k="name" v="Holunderstraße"/>
  </way>
  <way id="54152018" version="5" timestamp="2012-02-19T18:20:49Z" uid="208474" user="Joke123" changeset="10733112">
    <nd ref="74994094"/>
    <nd ref="1573227544"/>
    <nd ref="289996596"/>
    <nd ref="289996597"/>
    <nd ref="1639488028"/>
    <nd ref="81726139"/>
    <nd ref="289996599"/>
    <nd ref="289996600"/>
    <nd ref="1593321405"/>
    <nd ref="289996601"/>
    <nd ref="1516488495"/>
    <nd ref="74995618"/>
    <tag k="highway" v="residential"/>
    <tag k="name" v="Holunderstraße"/>
  </way>
  <way id="54152019" version="1" timestamp="2010-04-03T10:21:49Z" uid="164966" user="linuss1" changeset="4311417">
    <nd ref="81495300"/>
    <nd ref="74994094"/>
    <tag k="highway" v="residential"/>
    <tag k="name" v="Kurt-Schumacher-Weg"/>
  </way>
  <way id="54152019" version="2" timestamp="2012-08-13T18:18:07Z" uid="208474" user="Joke123" changeset="12717567">
    <nd ref="81495300"/>
    <nd ref="74994094"/>
    <tag k="highway" v="living_street"/>
    <tag k="name" v="Kurt-Schumacher-Weg"/>
  </way>
</osm>
