<?xml version='1.0' encoding='UTF-8'?>
<osm version="0.6" generator="libosmium/2.20.0">
  <way id="54452441" version="1" timestamp="2010-04-06T02:08:13Z" uid="74617" user="JohnSmith" changeset="4340057">
    <nd ref="278636447"/>
    <nd ref="278636931"/>
    <nd ref="278636828"/>
    <tag k="highway" v="primary"/>
    <tag k="name" v="Kangaroo Ground - Warrandyte Road"/>
    <tag k="oneway" v="yes"/>
  </way>
  <way id="54452441" version="2" timestamp="2011-11-07T11:09:49Z" uid="11111" user="melb_guy" changeset="9763620">
    <nd ref="278636447"/>
    <nd ref="278636931"/>
    <nd ref="278636828"/>
    <tag k="highway" v="primary"/>
    <tag k="maxspeed" v="60"/>
    <tag k="name" v="Kangaroo Ground - Warrandyte Road"/>
    <tag k="oneway" v="yes"/>
    <tag k="surface" v="asphalt"/>
  </way>
  <way id="54452442" version="1" timestamp="2010-04-06T02:08:13Z" uid="74617" user="JohnSmith" changeset="4340057">
    <nd ref="278635026"/>
    <nd ref="278636900"/>
    <nd ref="278636831"/>
    <tag k="highway" v="primary"/>
    <tag k="name" v="Ringwood - Warrandyte Road"/>
    <tag k="oneway" v="yes"/>
    <tag k="ref" v="S42"/>
  </way>
  <way id="54452442" version="2" timestamp="2011-11-07T11:09:48Z" uid="11111" user="melb_guy" changeset="9763620">
    <nd ref="278635026"/>
    <nd ref="278636900"/>
    <nd ref="278636831"/>
    <tag k="highway" v="primary"/>
    <tag k="maxspeed" v="50"/>
    <tag k="name" v="Ringwood - Warrandyte Road"/>
    <tag k="oneway" v="yes"/>
    <tag k="ref" v="S42"/>
  </way>
  <way id="54452441" version="3" timestamp="2012-07-19T20:38:26Z" uid="722137" user="OSMF Redaction Account" changeset="12346575"/>
  <way id="54452442" version="3" timestamp="2012-07-19T20:38:26Z" uid="722137" user="OSMF Redaction Account" changeset="12346575"/>
</osm>
