<?xml version='1.0' encoding='UTF-8'?>
<osm version="0.6" generator="libosmium/2.20.0">
  <way id="54479866" version="1" timestamp="2010-04-06T08:56:59Z" uid="115477" user="wowik" changeset="4341703">
    <nd ref="435183501"/>
    <nd ref="686355822"/>
    <nd ref="60656163"/>
    <tag k="cladr:name" v="Маяковского"/>
    <tag k="cladr:suffix" v="Улица"/>
    <tag k="highway" v="secondary"/>
    <tag k="name" v="ул. Маяковского"/>
    <tag k="oneway" v="yes"/>
    <tag k="sorting_name" v="Маяковского улица"/>
  </way>
  <way id="54479866" version="2" timestamp="2010-04-06T09:03:54Z" uid="115477" user="wowik" changeset="4341785">
    <nd ref="435183501"/>
    <nd ref="686358136"/>
    <nd ref="60656163"/>
    <tag k="cladr:name" v="Маяковского"/>
    <tag k="cladr:suffix" v="Улица"/>
    <tag k="highway" v="secondary"/>
    <tag k="name" v="ул. Маяковского"/>
    <tag k="oneway" v="yes"/>
    <tag k="sorting_name" v="Маяковского улица"/>
  </way>
  <way id="54479866" version="3" timestamp="2010-04-07T13:59:17Z" uid="70742" user="Ezhick" changeset="4354828">
    <nd ref="435183501"/>
    <nd ref="686358136"/>
    <tag k="cladr:name" v="Маяковского"/>
    <tag k="cladr:suffix" v="Улица"/>
    <tag k="highway" v="secondary"/>
    <tag k="name" v="ул. Маяковского"/>
    <tag k="oneway" v="yes"/>
    <tag k="sorting_name" v="Маяковского улица"/>
  </way>
  <way id="54479866" version="4" timestamp="2010-05-31T22:48:15Z" uid="70202" user="physiocrat" changeset="4869242"/>
</osm>
