<?xml version='1.0' encoding='UTF-8'?>
<osm version="0.6" generator="libosmium/2.20.0">
  <way id="54840118" version="2" timestamp="2010-05-13T13:20:37Z" uid="4467" user="Rosscoe" changeset="4685984">
    <nd ref="690261968"/>
    <nd ref="602902468"/>
    <nd ref="60100415"/>
    <nd ref="60100685"/>
    <nd ref="60101070"/>
    <tag k="highway" v="trunk"/>
    <tag k="name" v="Bulleen Road"/>
    <tag k="oneway" v="yes"/>
    <tag k="ref" v="S52"/>
    <tag k="source" v="nearmap"/>
  </way>
  <way id="54840118" version="3" timestamp="2010-06-30T23:30:05Z" uid="79475" user="AlexOnTheBus" changeset="5117453">
    <nd ref="690261968"/>
    <nd ref="602902468"/>
    <nd ref="60100415"/>
    <nd ref="60100685"/>
    <nd ref="60101070"/>
    <tag k="highway" v="trunk"/>
    <tag k="name" v="Bulleen Road"/>
    <tag k="oneway" v="yes"/>
    <tag k="ref" v="S 52"/>
    <tag k="source" v="nearmap"/>
  </way>
  <way id="54840118" version="4" timestamp="2011-10-08T13:37:06Z" uid="168136" user="goldfishxyz" changeset="9502439">
    <nd ref="690261968"/>
    <nd ref="602902468"/>
    <nd ref="60100415"/>
    <nd ref="60100685"/>
    <nd ref="60101070"/>
    <tag k="highway" v="trunk"/>
    <tag k="maxspeed" v="70"/>
    <tag k="name" v="Bulleen Road"/>
    <tag k="oneway" v="yes"/>
    <tag k="ref" v="S 52"/>
    <tag k="source" v="nearmap"/>
  </way>
  <way id="54840130" version="2" timestamp="2010-05-13T13:20:45Z" uid="4467" user="Rosscoe" changeset="4685984">
    <nd ref="690261963"/>
    <nd ref="690261968"/>
    <tag k="bridge" v="yes"/>
    <tag k="highway" v="trunk"/>
    <tag k="layer" v="1"/>
    <tag k="name" v="Bulleen Road"/>
    <tag k="oneway" v="yes"/>
    <tag k="ref" v="S52"/>
    <tag k="source" v="nearmap"/>
  </way>
  <way id="54840161" version="2" timestamp="2010-05-07T05:25:08Z" uid="4467" user="Rosscoe" changeset="4627145">
    <nd ref="690261965"/>
    <nd ref="60099998"/>
    <nd ref="476101234"/>
    <nd ref="60099999"/>
    <nd ref="602900770"/>
    <nd ref="60100000"/>
    <nd ref="60100001"/>
    <nd ref="602900933"/>
    <nd ref="60100002"/>
    <nd ref="602900487"/>
    <nd ref="60100003"/>
    <nd ref="60100004"/>
    <nd ref="602902776"/>
    <nd ref="60100005"/>
    <nd ref="60100006"/>
    <nd ref="60100007"/>
    <nd ref="60100008"/>
    <nd ref="60100009"/>
    <nd ref="60100010"/>
    <nd ref="585836505"/>
    <nd ref="60100012"/>
    <nd ref="602904751"/>
    <nd ref="60100014"/>
    <nd ref="60100015"/>
    <nd ref="602904720"/>
    <nd ref="60100016"/>
    <nd ref="60100017"/>
    <nd ref="602904791"/>
    <nd ref="60100018"/>
    <nd ref="60100019"/>
    <nd ref="225626272"/>
    <nd ref="60100468"/>
    <tag k="highway" v="trunk"/>
    <tag k="name" v="Bulleen Road"/>
    <tag k="oneway" v="yes"/>
    <tag k="ref" v="52"/>
  </way>
  <way id="54840161" version="3" timestamp="2010-05-13T13:20:51Z" uid="4467" user="Rosscoe" changeset="4685984">
    <nd ref="690261965"/>
    <nd ref="732159077"/>
    <nd ref="476101234"/>
    <nd ref="602900770"/>
    <nd ref="60100000"/>
    <nd ref="60100001"/>
    <nd ref="602900933"/>
    <nd ref="602900487"/>
    <nd ref="602902776"/>
    <nd ref="60100005"/>
    <nd ref="60100006"/>
    <nd ref="732159079"/>
    <nd ref="60100007"/>
    <nd ref="60100008"/>
    <nd ref="60100009"/>
    <nd ref="60100010"/>
    <nd ref="585836505"/>
    <nd ref="60100012"/>
    <nd ref="602904751"/>
    <nd ref="60100015"/>
    <nd ref="602904720"/>
    <nd ref="60100016"/>
    <nd ref="732159069"/>
    <nd ref="602904791"/>
    <nd ref="60100018"/>
    <nd ref="60100019"/>
    <nd ref="225626272"/>
    <tag k="highway" v="trunk"/>
    <tag k="name" v="Bulleen Road"/>
    <tag k="oneway" v="yes"/>
    <tag k="ref" v="S52"/>
    <tag k="source" v="nearmap"/>
  </way>
  <way id="54840161" version="4" timestamp="2010-08-22T01:46:48Z" uid="320632" user="Zulu99" changeset="5557288">
    <nd ref="690261965"/>
    <nd ref="732159077"/>
    <nd ref="476101234"/>
    <nd ref="873100181"/>
    <tag k="highway" v="trunk"/>
    <tag k="name" v="Bulleen Road"/>
    <tag k="oneway" v="yes"/>
    <tag k="ref" v="S52"/>
    <tag k="source" v="nearmap"/>
  </way>
  <way id="54840161" version="5" timestamp="2012-03-14T00:31:37Z" uid="168136" user="goldfishxyz" changeset="10973640">
    <nd ref="690261965"/>
    <nd ref="732159077"/>
    <nd ref="1674066441"/>
    <nd ref="476101234"/>
    <nd ref="873100181"/>
    <tag k="highway" v="trunk"/>
    <tag k="name" v="Bulleen Road"/>
    <tag k="oneway" v="yes"/>
    <tag k="ref" v="S52"/>
    <tag k="source" v="nearmap"/>
  </way>
  <way id="54840177" version="2" timestamp="2010-05-13T13:20:45Z" uid="4467" user="Rosscoe" changeset="4685984">
    <nd ref="690261967"/>
    <nd ref="690261965"/>
    <tag k="bridge" v="yes"/>
    <tag k="highway" v="trunk"/>
    <tag k="layer" v="1"/>
    <tag k="name" v="Bulleen Road"/>
    <tag k="oneway" v="yes"/>
    <tag k="ref" v="S52"/>
    <tag k="source" v="nearmap"/>
  </way>
  <way id="54840118" version="5" timestamp="2012-06-17T14:22:48Z" uid="67896" user="mrpulley" changeset="11926050">
    <nd ref="690261968"/>
    <nd ref="602902468"/>
    <nd ref="60100415"/>
    <nd ref="60100685"/>
    <nd ref="60101070"/>
    <tag k="highway" v="trunk"/>
    <tag k="maxspeed" v="70"/>
    <tag k="name" v="Bulleen Road"/>
    <tag k="network" v="S"/>
    <tag k="oneway" v="yes"/>
    <tag k="ref" v="52"/>
    <tag k="source" v="nearmap"/>
    <tag k="surface" v="asphalt"/>
  </way>
  <way id="54840118" version="6" timestamp="2012-07-20T00:02:52Z" uid="722137" user="OSMF Redaction Account" changeset="12351914">
    <nd ref="690261968"/>
    <nd ref="602902468"/>
    <nd ref="60100415"/>
    <nd ref="60100685"/>
    <nd ref="60101070"/>
    <tag k="highway" v="trunk"/>
    <tag k="maxspeed" v="70"/>
    <tag k="name" v="Bulleen Road"/>
    <tag k="network" v="S"/>
    <tag k="oneway" v="yes"/>
    <tag k="ref" v="52"/>
    <tag k="surface" v="asphalt"/>
  </way>
  <way id="54840130" version="3" timestamp="2012-06-17T14:22:46Z" uid="67896" user="mrpulley" changeset="11926050">
    <nd ref="690261963"/>
    <nd ref="690261968"/>
    <tag k="bridge" v="yes"/>
    <tag k="highway" v="trunk"/>
    <tag k="layer" v="1"/>
    <tag k="maxspeed" v="70"/>
    <tag k="name" v="Bulleen Road"/>
    <tag k="network" v="S"/>
    <tag k="oneway" v="yes"/>
    <tag k="ref" v="52"/>
    <tag k="source" v="nearmap"/>
    <tag k="surface" v="paved"/>
  </way>
  <way id="54840130" version="4" timestamp="2012-07-20T00:02:53Z" uid="722137" user="OSMF Redaction Account" changeset="12351914">
    <nd ref="690261963"/>
    <nd ref="690261968"/>
    <tag k="bridge" v="yes"/>
    <tag k="highway" v="trunk"/>
    <tag k="layer" v="1"/>
    <tag k="maxspeed" v="70"/>
    <tag k="name" v="Bulleen Road"/>
    <tag k="network" v="S"/>
    <tag k="oneway" v="yes"/>
    <tag k="ref" v="52"/>
    <tag k="surface" v="paved"/>
  </way>
  <way id="54840161" version="6" timestamp="2012-04-15T08:38:15Z" uid="320632" user="Zulu99" changeset="11307268">
    <nd ref="690261965"/>
    <nd ref="732159077"/>
    <nd ref="873100181"/>
    <tag k="highway" v="trunk"/>
    <tag k="name" v="Bulleen Road"/>
    <tag k="oneway" v="yes"/>
    <tag k="ref" v="S52"/>
    <tag k="source" v="nearmap"/>
  </way>
  <way id="54840161" version="7" timestamp="2012-06-17T14:22:47Z" uid="67896" user="mrpulley" changeset="11926050">
    <nd ref="690261965"/>
    <nd ref="732159077"/>
    <nd ref="873100181"/>
    <tag k="highway" v="trunk"/>
    <tag k="maxspeed" v="70"/>
    <tag k="name" v="Bulleen Road"/>
    <tag k="network" v="S"/>
    <tag k="oneway" v="yes"/>
    <tag k="ref" v="52"/>
    <tag k="source" v="nearmap"/>
    <tag k="surface" v="asphalt"/>
  </way>
  <way id="54840161" version="8" timestamp="2012-07-20T00:01:00Z" uid="722137" user="OSMF Redaction Account" changeset="12351914">
    <nd ref="690261965"/>
    <nd ref="873100181"/>
    <tag k="highway" v="trunk"/>
    <tag k="maxspeed" v="70"/>
    <tag k="name" v="Bulleen Road"/>
    <tag k="network" v="S"/>
    <tag k="oneway" v="yes"/>
    <tag k="surface" v="asphalt"/>
  </way>
  <way id="54840161" version="9" timestamp="2012-07-31T06:32:59Z" uid="67896" user="mrpulley" changeset="12557007">
    <nd ref="690261965"/>
    <nd ref="873100181"/>
    <tag k="highway" v="trunk"/>
    <tag k="maxspeed" v="70"/>
    <tag k="name" v="Bulleen Road"/>
    <tag k="network" v="S"/>
    <tag k="oneway" v="yes"/>
    <tag k="ref" v="52"/>
    <tag k="surface" v="asphalt"/>
  </way>
  <way id="54840177" version="3" timestamp="2012-06-17T14:22:47Z" uid="67896" user="mrpulley" changeset="11926050">
    <nd ref="690261967"/>
    <nd ref="690261965"/>
    <tag k="bridge" v="yes"/>
    <tag k="highway" v="trunk"/>
    <tag k="layer" v="1"/>
    <tag k="maxspeed" v="70"/>
    <tag k="name" v="Bulleen Road"/>
    <tag k="network" v="S"/>
    <tag k="oneway" v="yes"/>
    <tag k="ref" v="52"/>
    <tag k="source" v="nearmap"/>
    <tag k="surface" v="paved"/>
  </way>
  <way id="54840177" version="4" timestamp="2012-07-20T00:02:52Z" uid="722137" user="OSMF Redaction Account" changeset="12351914">
    <nd ref="690261967"/>
    <nd ref="690261965"/>
    <tag k="bridge" v="yes"/>
    <tag k="highway" v="trunk"/>
    <tag k="layer" v="1"/>
    <tag k="maxspeed" v="70"/>
    <tag k="name" v="Bulleen Road"/>
    <tag k="network" v="S"/>
    <tag k="oneway" v="yes"/>
    <tag k="ref" v="52"/>
    <tag k="surface" v="paved"/>
  </way>
</osm>
