<?xml version='1.0' encoding='UTF-8'?>
<osm version="0.6" generator="libosmium/2.20.0">
  <way id="54930100" version="1" timestamp="2010-04-10T06:35:29Z" uid="7617" user="Franc" changeset="4379539">
    <nd ref="691178314"/>
    <nd ref="691178464"/>
    <nd ref="241647767"/>
    <nd ref="241647768"/>
    <tag k="highway" v="residential"/>
    <tag k="name" v="Norfolk Avenue"/>
  </way>
  <way id="54930100" version="2" timestamp="2010-07-08T02:12:05Z" uid="74617" user="JohnSmith" changeset="5162525">
    <nd ref="691178314"/>
    <nd ref="691178464"/>
    <nd ref="241647767"/>
    <nd ref="241647768"/>
    <tag k="highway" v="residential"/>
    <tag k="maxspeed" v="50"/>
    <tag k="maxspeed:source" v="default residential speed limit in Australia"/>
    <tag k="name" v="Norfolk Avenue"/>
  </way>
  <way id="54930100" version="3" timestamp="2012-01-20T05:37:48Z" uid="147510" user="woodpeck_fixbot" changeset="10443281">
    <nd ref="691178314"/>
    <nd ref="691178464"/>
    <nd ref="241647767"/>
    <nd ref="241647768"/>
    <tag k="highway" v="residential"/>
    <tag k="name" v="Norfolk Avenue"/>
  </way>
  <way id="54930101" version="1" timestamp="2010-04-10T06:35:30Z" uid="7617" user="Franc" changeset="4379539">
    <nd ref="691178406"/>
    <nd ref="31247994"/>
    <nd ref="31247789"/>
    <nd ref="31247558"/>
    <tag k="highway" v="residential"/>
    <tag k="name" v="Tallawalla Street"/>
  </way>
  <way id="54930101" version="2" timestamp="2010-07-08T02:08:06Z" uid="74617" user="JohnSmith" changeset="5162525">
    <nd ref="691178406"/>
    <nd ref="31247994"/>
    <nd ref="31247789"/>
    <nd ref="31247558"/>
    <tag k="highway" v="residential"/>
    <tag k="maxspeed" v="50"/>
    <tag k="maxspeed:source" v="default residential speed limit in Australia"/>
    <tag k="name" v="Tallawalla Street"/>
  </way>
  <way id="54930101" version="3" timestamp="2012-01-20T05:37:49Z" uid="147510" user="woodpeck_fixbot" changeset="10443281">
    <nd ref="691178406"/>
    <nd ref="31247994"/>
    <nd ref="31247789"/>
    <nd ref="31247558"/>
    <tag k="highway" v="residential"/>
    <tag k="name" v="Tallawalla Street"/>
  </way>
  <way id="54930102" version="1" timestamp="2010-04-10T06:35:30Z" uid="7617" user="Franc" changeset="4379539">
    <nd ref="60006570"/>
    <nd ref="60006571"/>
    <nd ref="691178325"/>
    <nd ref="60006572"/>
    <nd ref="31247980"/>
    <nd ref="691178369"/>
    <tag k="highway" v="trunk"/>
    <tag k="maxspeed" v="60"/>
    <tag k="name" v="King Georges Road"/>
    <tag k="oneway" v="yes"/>
    <tag k="ref" v="D5"/>
  </way>
  <way id="54930102" version="2" timestamp="2010-06-28T08:43:25Z" uid="299678" user="peteramjet" changeset="5095738">
    <nd ref="60006570"/>
    <nd ref="60006571"/>
    <nd ref="691178325"/>
    <nd ref="60006572"/>
    <nd ref="31247980"/>
    <nd ref="691178369"/>
    <tag k="highway" v="trunk"/>
    <tag k="maxspeed" v="60"/>
    <tag k="name" v="King Georges Road"/>
    <tag k="oneway" v="yes"/>
    <tag k="ref" v="MR3"/>
  </way>
  <way id="54930102" version="3" timestamp="2010-07-08T11:06:28Z" uid="299678" user="peteramjet" changeset="5164989">
    <nd ref="60006570"/>
    <nd ref="60006571"/>
    <nd ref="691178325"/>
    <nd ref="60006572"/>
    <nd ref="31247980"/>
    <nd ref="691178369"/>
    <tag k="highway" v="trunk"/>
    <tag k="maxspeed" v="60"/>
    <tag k="name" v="King Georges Road"/>
    <tag k="oneway" v="yes"/>
  </way>
  <way id="54930102" version="4" timestamp="2010-12-28T11:32:36Z" uid="333194" user="happyOOO" changeset="6787010">
    <nd ref="60006570"/>
    <nd ref="60006571"/>
    <nd ref="691178325"/>
    <nd ref="60006572"/>
    <nd ref="31247980"/>
    <nd ref="691178369"/>
    <tag k="highway" v="trunk"/>
    <tag k="lanes" v="3"/>
    <tag k="maxspeed" v="60"/>
    <tag k="name" v="King Georges Road"/>
    <tag k="oneway" v="yes"/>
  </way>
  <way id="54930102" version="5" timestamp="2012-01-31T06:39:15Z" uid="54784" user="Tom Hollander" changeset="10546288">
    <nd ref="60006570"/>
    <nd ref="60006571"/>
    <nd ref="691178325"/>
    <nd ref="60006572"/>
    <nd ref="31247980"/>
    <nd ref="691178369"/>
    <tag k="highway" v="trunk"/>
    <tag k="lanes" v="3"/>
    <tag k="maxspeed" v="60"/>
    <tag k="name" v="King Georges Road"/>
    <tag k="oneway" v="yes"/>
    <tag k="ref" v="MR3"/>
  </way>
  <way id="54930102" version="6" timestamp="2012-03-07T22:51:46Z" uid="7523" user="inas" changeset="10904797"/>
  <way id="54930103" version="1" timestamp="2010-04-10T06:35:30Z" uid="7617" user="Franc" changeset="4379539">
    <nd ref="691178385"/>
    <nd ref="60006516"/>
    <nd ref="60006554"/>
    <nd ref="691178324"/>
    <nd ref="31248102"/>
    <nd ref="242073850"/>
    <nd ref="60006555"/>
    <tag k="highway" v="trunk"/>
    <tag k="maxspeed" v="60"/>
    <tag k="name" v="King Georges Road"/>
    <tag k="oneway" v="yes"/>
    <tag k="ref" v="D5"/>
  </way>
  <way id="54930103" version="2" timestamp="2010-06-28T08:43:26Z" uid="299678" user="peteramjet" changeset="5095738">
    <nd ref="691178385"/>
    <nd ref="60006516"/>
    <nd ref="60006554"/>
    <nd ref="691178324"/>
    <nd ref="31248102"/>
    <nd ref="242073850"/>
    <nd ref="60006555"/>
    <tag k="highway" v="trunk"/>
    <tag k="maxspeed" v="60"/>
    <tag k="name" v="King Georges Road"/>
    <tag k="oneway" v="yes"/>
    <tag k="ref" v="MR3"/>
  </way>
  <way id="54930103" version="3" timestamp="2010-07-08T11:06:28Z" uid="299678" user="peteramjet" changeset="5164989">
    <nd ref="691178385"/>
    <nd ref="60006516"/>
    <nd ref="60006554"/>
    <nd ref="691178324"/>
    <nd ref="31248102"/>
    <nd ref="242073850"/>
    <nd ref="60006555"/>
    <tag k="highway" v="trunk"/>
    <tag k="maxspeed" v="60"/>
    <tag k="name" v="King Georges Road"/>
    <tag k="oneway" v="yes"/>
  </way>
  <way id="54930103" version="4" timestamp="2010-12-28T11:32:36Z" uid="333194" user="happyOOO" changeset="6787010">
    <nd ref="691178385"/>
    <nd ref="60006516"/>
    <nd ref="60006554"/>
    <nd ref="691178324"/>
    <nd ref="31248102"/>
    <nd ref="242073850"/>
    <nd ref="60006555"/>
    <tag k="highway" v="trunk"/>
    <tag k="lanes" v="3"/>
    <tag k="maxspeed" v="60"/>
    <tag k="name" v="King Georges Road"/>
    <tag k="oneway" v="yes"/>
  </way>
  <way id="54930103" version="5" timestamp="2012-01-31T06:39:15Z" uid="54784" user="Tom Hollander" changeset="10546288">
    <nd ref="691178385"/>
    <nd ref="60006516"/>
    <nd ref="60006554"/>
    <nd ref="691178324"/>
    <nd ref="31248102"/>
    <nd ref="242073850"/>
    <nd ref="60006555"/>
    <tag k="highway" v="trunk"/>
    <tag k="lanes" v="3"/>
    <tag k="maxspeed" v="60"/>
    <tag k="name" v="King Georges Road"/>
    <tag k="oneway" v="yes"/>
    <tag k="ref" v="MR3"/>
  </way>
  <way id="54930103" version="6" timestamp="2012-03-07T05:56:18Z" uid="7523" user="inas" changeset="10896791">
    <nd ref="691178385"/>
    <nd ref="60006516"/>
    <nd ref="60006554"/>
    <nd ref="691178324"/>
    <nd ref="31248102"/>
    <nd ref="242073850"/>
    <nd ref="60006555"/>
    <tag k="highway" v="trunk"/>
    <tag k="lanes" v="3"/>
    <tag k="maxspeed" v="60"/>
    <tag k="name" v="King Georges Road"/>
    <tag k="network" v="MR"/>
    <tag k="oneway" v="yes"/>
    <tag k="ref" v="3"/>
  </way>
  <way id="54930103" version="7" timestamp="2012-03-07T22:51:46Z" uid="7523" user="inas" changeset="10904797"/>
  <way id="54930104" version="1" timestamp="2010-04-10T06:35:30Z" uid="7617" user="Franc" changeset="4379539">
    <nd ref="241647765"/>
    <nd ref="691178313"/>
    <nd ref="691178315"/>
    <nd ref="691178314"/>
    <tag k="highway" v="residential"/>
    <tag k="name" v="Norfolk Avenue"/>
  </way>
  <way id="54930104" version="2" timestamp="2010-07-08T02:10:04Z" uid="74617" user="JohnSmith" changeset="5162525">
    <nd ref="241647765"/>
    <nd ref="691178313"/>
    <nd ref="691178315"/>
    <nd ref="691178314"/>
    <tag k="highway" v="residential"/>
    <tag k="maxspeed" v="50"/>
    <tag k="maxspeed:source" v="default residential speed limit in Australia"/>
    <tag k="name" v="Norfolk Avenue"/>
  </way>
  <way id="54930104" version="3" timestamp="2012-01-20T05:37:51Z" uid="147510" user="woodpeck_fixbot" changeset="10443281">
    <nd ref="241647765"/>
    <nd ref="691178313"/>
    <nd ref="691178315"/>
    <nd ref="691178314"/>
    <tag k="highway" v="residential"/>
    <tag k="name" v="Norfolk Avenue"/>
  </way>
  <way id="54930104" version="4" timestamp="2012-03-07T05:23:31Z" uid="7523" user="inas" changeset="10896683">
    <nd ref="241647765"/>
    <nd ref="691178313"/>
    <nd ref="691178314"/>
    <tag k="highway" v="residential"/>
    <tag k="name" v="Norfolk Avenue"/>
  </way>
  <way id="54930105" version="1" timestamp="2010-04-10T06:35:30Z" uid="7617" user="Franc" changeset="4379539">
    <nd ref="60006555"/>
    <nd ref="242071169"/>
    <nd ref="269262479"/>
    <tag k="highway" v="trunk"/>
    <tag k="maxspeed" v="60"/>
    <tag k="name" v="King Georges Road"/>
    <tag k="oneway" v="yes"/>
    <tag k="ref" v="D5"/>
  </way>
  <way id="54930105" version="2" timestamp="2010-07-08T11:08:14Z" uid="299678" user="peteramjet" changeset="5164989">
    <nd ref="60006555"/>
    <nd ref="242071169"/>
    <nd ref="269262479"/>
    <tag k="highway" v="trunk"/>
    <tag k="maxspeed" v="60"/>
    <tag k="name" v="King Georges Road"/>
    <tag k="oneway" v="yes"/>
  </way>
  <way id="54930105" version="3" timestamp="2010-12-28T11:32:36Z" uid="333194" user="happyOOO" changeset="6787010">
    <nd ref="60006555"/>
    <nd ref="242071169"/>
    <nd ref="269262479"/>
    <tag k="highway" v="trunk"/>
    <tag k="lanes" v="3"/>
    <tag k="maxspeed" v="60"/>
    <tag k="name" v="King Georges Road"/>
    <tag k="oneway" v="yes"/>
  </way>
  <way id="54930105" version="4" timestamp="2011-06-19T12:54:52Z" uid="7617" user="Franc" changeset="8483675">
    <nd ref="60006555"/>
    <nd ref="242071169"/>
    <tag k="highway" v="trunk"/>
    <tag k="lanes" v="3"/>
    <tag k="maxspeed" v="60"/>
    <tag k="name" v="King Georges Road"/>
    <tag k="oneway" v="yes"/>
  </way>
  <way id="54930105" version="5" timestamp="2012-01-31T06:39:15Z" uid="54784" user="Tom Hollander" changeset="10546288">
    <nd ref="60006555"/>
    <nd ref="242071169"/>
    <tag k="highway" v="trunk"/>
    <tag k="lanes" v="3"/>
    <tag k="maxspeed" v="60"/>
    <tag k="name" v="King Georges Road"/>
    <tag k="oneway" v="yes"/>
    <tag k="ref" v="MR3"/>
  </way>
  <way id="54930105" version="6" timestamp="2012-03-07T05:56:07Z" uid="7523" user="inas" changeset="10896791">
    <nd ref="60006555"/>
    <nd ref="242071169"/>
    <tag k="highway" v="trunk"/>
    <tag k="lanes" v="3"/>
    <tag k="maxspeed" v="60"/>
    <tag k="name" v="King Georges Road"/>
    <tag k="network" v="MR"/>
    <tag k="oneway" v="yes"/>
    <tag k="ref" v="3"/>
  </way>
  <way id="54930105" version="7" timestamp="2012-03-07T22:51:45Z" uid="7523" user="inas" changeset="10904797"/>
  <way id="54930106" version="1" timestamp="2010-04-10T06:35:30Z" uid="7617" user="Franc" changeset="4379539">
    <nd ref="691178331"/>
    <nd ref="691178334"/>
    <nd ref="691178333"/>
    <nd ref="691178332"/>
    <tag k="highway" v="service"/>
    <tag k="source" v="nearmap"/>
  </way>
  <way id="54930106" version="2" timestamp="2010-05-15T14:40:10Z" uid="7617" user="Franc" changeset="4706870">
    <nd ref="691178331"/>
    <nd ref="691178334"/>
    <nd ref="691178333"/>
    <nd ref="691178332"/>
    <tag k="highway" v="service"/>
    <tag k="name" v="Tooronga Terrace"/>
    <tag k="source" v="nearmap"/>
  </way>
  <way id="54930106" version="3" timestamp="2010-11-11T11:49:45Z" uid="7617" user="Franc" changeset="6342971">
    <nd ref="691178331"/>
    <nd ref="985221531"/>
    <nd ref="985221524"/>
    <nd ref="691178332"/>
    <tag k="highway" v="service"/>
    <tag k="name" v="Tooronga Terrace"/>
    <tag k="source" v="nearmap"/>
  </way>
  <way id="54930107" version="1" timestamp="2010-04-10T06:35:30Z" uid="7617" user="Franc" changeset="4379539">
    <nd ref="691178336"/>
    <nd ref="691178335"/>
    <nd ref="691178364"/>
    <nd ref="691178354"/>
    <nd ref="691178337"/>
    <nd ref="691178338"/>
    <nd ref="691178339"/>
    <nd ref="691178336"/>
    <tag k="leisure" v="park"/>
    <tag k="source" v="nearmap"/>
  </way>
  <way id="54930107" version="2" timestamp="2010-11-16T09:06:44Z" uid="237525" user="aharvey" changeset="6383432">
    <nd ref="691178336"/>
    <nd ref="691178335"/>
    <nd ref="691178364"/>
    <nd ref="691178354"/>
    <nd ref="691178337"/>
    <nd ref="691178338"/>
    <nd ref="691178339"/>
    <nd ref="691178336"/>
    <tag k="leisure" v="park"/>
    <tag k="name" v="Cardella Crescent Reserve"/>
    <tag k="source" v="nearmap"/>
    <tag k="source:name" v="survey"/>
  </way>
  <way id="54930108" version="1" timestamp="2010-04-10T06:35:31Z" uid="7617" user="Franc" changeset="4379539">
    <nd ref="691178349"/>
    <nd ref="691178350"/>
    <nd ref="691178351"/>
    <nd ref="691178361"/>
    <nd ref="691178362"/>
    <nd ref="691178363"/>
    <nd ref="691178355"/>
    <nd ref="691178356"/>
    <nd ref="691178357"/>
    <nd ref="691178358"/>
    <nd ref="691178359"/>
    <nd ref="691178360"/>
    <nd ref="691178340"/>
    <nd ref="691178342"/>
    <nd ref="691178343"/>
    <nd ref="691178344"/>
    <nd ref="691178345"/>
    <nd ref="691178346"/>
    <nd ref="691178347"/>
    <nd ref="691178348"/>
    <nd ref="691178352"/>
    <nd ref="691178353"/>
    <nd ref="691178349"/>
    <tag k="leisure" v="playground"/>
    <tag k="source" v="nearmap"/>
  </way>
  <way id="54930109" version="1" timestamp="2010-04-10T06:35:31Z" uid="7617" user="Franc" changeset="4379539">
    <nd ref="691178369"/>
    <nd ref="599901535"/>
    <tag k="highway" v="trunk"/>
    <tag k="maxspeed" v="60"/>
    <tag k="name" v="King Georges Road"/>
    <tag k="oneway" v="yes"/>
    <tag k="ref" v="D5"/>
  </way>
  <way id="54930109" version="2" timestamp="2010-06-28T08:43:26Z" uid="299678" user="peteramjet" changeset="5095738">
    <nd ref="691178369"/>
    <nd ref="599901535"/>
    <tag k="highway" v="trunk"/>
    <tag k="maxspeed" v="60"/>
    <tag k="name" v="King Georges Road"/>
    <tag k="oneway" v="yes"/>
    <tag k="ref" v="MR3"/>
  </way>
  <way id="54930109" version="3" timestamp="2010-07-08T11:06:31Z" uid="299678" user="peteramjet" changeset="5164989">
    <nd ref="691178369"/>
    <nd ref="599901535"/>
    <tag k="highway" v="trunk"/>
    <tag k="maxspeed" v="60"/>
    <tag k="name" v="King Georges Road"/>
    <tag k="oneway" v="yes"/>
  </way>
  <way id="54930109" version="4" timestamp="2011-02-17T04:22:27Z" uid="389517" user="good2010" changeset="7309783">
    <nd ref="691178369"/>
    <nd ref="599901535"/>
    <tag k="highway" v="trunk"/>
    <tag k="lanes" v="3"/>
    <tag k="maxspeed" v="60"/>
    <tag k="name" v="King Georges Road"/>
    <tag k="oneway" v="yes"/>
  </way>
  <way id="54930109" version="5" timestamp="2012-01-31T06:39:16Z" uid="54784" user="Tom Hollander" changeset="10546288">
    <nd ref="691178369"/>
    <nd ref="599901535"/>
    <tag k="highway" v="trunk"/>
    <tag k="lanes" v="3"/>
    <tag k="maxspeed" v="60"/>
    <tag k="name" v="King Georges Road"/>
    <tag k="oneway" v="yes"/>
    <tag k="ref" v="MR3"/>
  </way>
  <way id="54930109" version="6" timestamp="2012-03-07T22:51:45Z" uid="7523" user="inas" changeset="10904797"/>
  <way id="54930110" version="1" timestamp="2010-04-10T06:35:31Z" uid="7617" user="Franc" changeset="4379539">
    <nd ref="603080340"/>
    <nd ref="251798540"/>
    <tag k="highway" v="footway"/>
    <tag k="source" v="nearmap"/>
  </way>
  <way id="54930111" version="1" timestamp="2010-04-10T06:35:31Z" uid="7617" user="Franc" changeset="4379539">
    <nd ref="691178376"/>
    <nd ref="691178375"/>
    <nd ref="691178389"/>
    <nd ref="691178391"/>
    <nd ref="691178392"/>
    <nd ref="691178382"/>
    <nd ref="691178383"/>
    <nd ref="691178376"/>
    <tag k="amenity" v="school"/>
    <tag k="source" v="nearmap"/>
  </way>
  <way id="54930111" version="2" timestamp="2010-04-15T09:59:48Z" uid="7617" user="Franc" changeset="4429510">
    <nd ref="691178376"/>
    <nd ref="691178375"/>
    <nd ref="691178389"/>
    <nd ref="691178391"/>
    <nd ref="691178392"/>
    <nd ref="691178382"/>
    <nd ref="691178383"/>
    <nd ref="691178376"/>
    <tag k="amenity" v="school"/>
    <tag k="denomination" v="catholic"/>
    <tag k="name" v="Regina Coeli School"/>
    <tag k="religion" v="christian"/>
    <tag k="source" v="nearmap"/>
  </way>
  <way id="54930111" version="3" timestamp="2012-03-07T05:59:58Z" uid="7523" user="inas" changeset="10896798"/>
  <way id="54930112" version="1" timestamp="2010-04-10T06:35:31Z" uid="7617" user="Franc" changeset="4379539">
    <nd ref="691178384"/>
    <nd ref="242072960"/>
    <tag k="highway" v="residential"/>
    <tag k="name" v="Warrawee Place"/>
    <tag k="oneway" v="yes"/>
    <tag k="restriction" v="school_zone"/>
  </way>
  <way id="54930112" version="2" timestamp="2010-07-08T02:08:54Z" uid="74617" user="JohnSmith" changeset="5162525">
    <nd ref="691178384"/>
    <nd ref="242072960"/>
    <tag k="highway" v="residential"/>
    <tag k="maxspeed" v="50"/>
    <tag k="maxspeed:source" v="default residential speed limit in Australia"/>
    <tag k="name" v="Warrawee Place"/>
    <tag k="oneway" v="yes"/>
    <tag k="restriction" v="school_zone"/>
  </way>
  <way id="54930112" version="3" timestamp="2012-01-20T05:37:52Z" uid="147510" user="woodpeck_fixbot" changeset="10443281">
    <nd ref="691178384"/>
    <nd ref="242072960"/>
    <tag k="highway" v="residential"/>
    <tag k="name" v="Warrawee Place"/>
    <tag k="oneway" v="yes"/>
    <tag k="restriction" v="school_zone"/>
  </way>
  <way id="54930113" version="1" timestamp="2010-04-10T06:35:31Z" uid="7617" user="Franc" changeset="4379539">
    <nd ref="242074390"/>
    <nd ref="31247978"/>
    <nd ref="691178407"/>
    <nd ref="31247979"/>
    <nd ref="31247820"/>
    <nd ref="31247972"/>
    <tag k="highway" v="residential"/>
    <tag k="name" v="Ponyara Road"/>
  </way>
  <way id="54930113" version="2" timestamp="2010-07-08T02:11:46Z" uid="74617" user="JohnSmith" changeset="5162525">
    <nd ref="242074390"/>
    <nd ref="31247978"/>
    <nd ref="691178407"/>
    <nd ref="31247979"/>
    <nd ref="31247820"/>
    <nd ref="31247972"/>
    <tag k="highway" v="residential"/>
    <tag k="maxspeed" v="50"/>
    <tag k="maxspeed:source" v="default residential speed limit in Australia"/>
    <tag k="name" v="Ponyara Road"/>
  </way>
  <way id="54930113" version="3" timestamp="2012-01-20T05:37:54Z" uid="147510" user="woodpeck_fixbot" changeset="10443281">
    <nd ref="242074390"/>
    <nd ref="31247978"/>
    <nd ref="691178407"/>
    <nd ref="31247979"/>
    <nd ref="31247820"/>
    <nd ref="31247972"/>
    <tag k="highway" v="residential"/>
    <tag k="name" v="Ponyara Road"/>
  </way>
  <way id="54930114" version="1" timestamp="2010-04-10T06:35:31Z" uid="7617" user="Franc" changeset="4379539">
    <nd ref="242086378"/>
    <nd ref="242086587"/>
    <nd ref="242086588"/>
    <tag k="highway" v="service"/>
    <tag k="name" v="Moondani Lane"/>
    <tag k="oneway" v="yes"/>
    <tag k="source" v="survey"/>
  </way>
  <way id="54930115" version="1" timestamp="2010-04-10T06:35:31Z" uid="7617" user="Franc" changeset="4379539">
    <nd ref="691178418"/>
    <nd ref="572956164"/>
    <nd ref="242087359"/>
    <tag k="highway" v="residential"/>
    <tag k="name" v="Alkoomie Street"/>
  </way>
  <way id="54930115" version="2" timestamp="2010-07-08T02:12:48Z" uid="74617" user="JohnSmith" changeset="5162525">
    <nd ref="691178418"/>
    <nd ref="572956164"/>
    <nd ref="242087359"/>
    <tag k="highway" v="residential"/>
    <tag k="maxspeed" v="50"/>
    <tag k="maxspeed:source" v="default residential speed limit in Australia"/>
    <tag k="name" v="Alkoomie Street"/>
  </way>
  <way id="54930115" version="3" timestamp="2012-01-20T05:37:56Z" uid="147510" user="woodpeck_fixbot" changeset="10443281">
    <nd ref="691178418"/>
    <nd ref="572956164"/>
    <nd ref="242087359"/>
    <tag k="highway" v="residential"/>
    <tag k="name" v="Alkoomie Street"/>
  </way>
  <way id="54930116" version="1" timestamp="2010-04-10T06:35:31Z" uid="7617" user="Franc" changeset="4379539">
    <nd ref="691178415"/>
    <nd ref="242085955"/>
    <tag k="highway" v="residential"/>
    <tag k="name" v="Moondani Road"/>
    <tag k="restriction" v="school_zone"/>
  </way>
  <way id="54930116" version="2" timestamp="2010-07-08T02:13:38Z" uid="74617" user="JohnSmith" changeset="5162525">
    <nd ref="691178415"/>
    <nd ref="242085955"/>
    <tag k="highway" v="residential"/>
    <tag k="maxspeed" v="50"/>
    <tag k="maxspeed:source" v="default residential speed limit in Australia"/>
    <tag k="name" v="Moondani Road"/>
    <tag k="restriction" v="school_zone"/>
  </way>
  <way id="54930116" version="3" timestamp="2012-01-20T05:37:57Z" uid="147510" user="woodpeck_fixbot" changeset="10443281">
    <nd ref="691178415"/>
    <nd ref="242085955"/>
    <tag k="highway" v="residential"/>
    <tag k="name" v="Moondani Road"/>
    <tag k="restriction" v="school_zone"/>
  </way>
  <way id="54930116" version="4" timestamp="2012-03-08T23:54:08Z" uid="7523" user="inas" changeset="10915097"/>
  <way id="54930117" version="1" timestamp="2010-04-10T06:35:31Z" uid="7617" user="Franc" changeset="4379539">
    <nd ref="691178418"/>
    <nd ref="691178420"/>
    <tag k="highway" v="residential"/>
    <tag k="name" v="Alkoomie Street"/>
    <tag k="oneway" v="yes"/>
  </way>
  <way id="54930117" version="2" timestamp="2010-07-08T02:09:47Z" uid="74617" user="JohnSmith" changeset="5162525">
    <nd ref="691178418"/>
    <nd ref="691178420"/>
    <tag k="highway" v="residential"/>
    <tag k="maxspeed" v="50"/>
    <tag k="maxspeed:source" v="default residential speed limit in Australia"/>
    <tag k="name" v="Alkoomie Street"/>
    <tag k="oneway" v="yes"/>
  </way>
  <way id="54930117" version="3" timestamp="2012-01-20T05:37:58Z" uid="147510" user="woodpeck_fixbot" changeset="10443281">
    <nd ref="691178418"/>
    <nd ref="691178420"/>
    <tag k="highway" v="residential"/>
    <tag k="name" v="Alkoomie Street"/>
    <tag k="oneway" v="yes"/>
  </way>
  <way id="54930118" version="1" timestamp="2010-04-10T06:35:31Z" uid="7617" user="Franc" changeset="4379539">
    <nd ref="691178473"/>
    <nd ref="691178440"/>
    <nd ref="691178441"/>
    <nd ref="691178442"/>
    <nd ref="691178443"/>
    <nd ref="691178450"/>
    <nd ref="691178451"/>
    <nd ref="691178452"/>
    <nd ref="691178453"/>
    <nd ref="691178454"/>
    <nd ref="691178448"/>
    <nd ref="691178449"/>
    <nd ref="691178431"/>
    <nd ref="691178432"/>
    <nd ref="691178433"/>
    <nd ref="691178434"/>
    <nd ref="691178435"/>
    <nd ref="691178436"/>
    <nd ref="691178437"/>
    <nd ref="691178438"/>
    <nd ref="691178424"/>
    <nd ref="691178425"/>
    <nd ref="691178426"/>
    <nd ref="691178427"/>
    <nd ref="691178428"/>
    <nd ref="691178429"/>
    <nd ref="691178430"/>
    <nd ref="691178423"/>
    <tag k="layer" v="-1"/>
    <tag k="waterway" v="drain"/>
  </way>
  <way id="54930118" version="2" timestamp="2010-11-13T01:16:35Z" uid="237525" user="aharvey" changeset="6355415">
    <nd ref="691178473"/>
    <nd ref="691178440"/>
    <nd ref="691178441"/>
    <nd ref="691178442"/>
    <nd ref="691178443"/>
    <nd ref="691178450"/>
    <nd ref="691178451"/>
    <nd ref="691178452"/>
    <nd ref="691178453"/>
    <nd ref="691178454"/>
    <tag k="layer" v="-1"/>
    <tag k="waterway" v="drain"/>
  </way>
  <way id="54930119" version="1" timestamp="2010-04-10T06:35:32Z" uid="7617" user="Franc" changeset="4379539">
    <nd ref="691178465"/>
    <nd ref="691178466"/>
    <nd ref="691178467"/>
    <nd ref="691178468"/>
    <nd ref="691178469"/>
    <nd ref="691178470"/>
    <nd ref="691178475"/>
    <nd ref="691178476"/>
    <nd ref="691178477"/>
    <nd ref="691178478"/>
    <nd ref="691178480"/>
    <tag k="highway" v="footway"/>
    <tag k="source" v="nearmap"/>
  </way>
  <way id="54930120" version="1" timestamp="2010-04-10T06:35:32Z" uid="7617" user="Franc" changeset="4379539">
    <nd ref="691178472"/>
    <nd ref="691178474"/>
    <nd ref="691178481"/>
    <nd ref="691178471"/>
    <nd ref="691178472"/>
    <tag k="leisure" v="park"/>
    <tag k="source" v="nearmap"/>
  </way>
  <way id="54930120" version="2" timestamp="2012-03-07T00:21:23Z" uid="7523" user="inas" changeset="10895933"/>
  <way id="54930121" version="1" timestamp="2010-04-10T06:35:32Z" uid="7617" user="Franc" changeset="4379539">
    <nd ref="691178463"/>
    <nd ref="691178462"/>
    <nd ref="691178458"/>
    <nd ref="691178459"/>
    <nd ref="691178463"/>
    <tag k="leisure" v="playground"/>
    <tag k="source" v="nearmap"/>
  </way>
  <way id="54930121" version="2" timestamp="2012-03-07T00:21:23Z" uid="7523" user="inas" changeset="10895933"/>
  <way id="54930122" version="1" timestamp="2010-04-10T06:35:32Z" uid="7617" user="Franc" changeset="4379539">
    <nd ref="691178446"/>
    <nd ref="691178461"/>
    <nd ref="691178460"/>
    <nd ref="691178456"/>
    <nd ref="691178457"/>
    <nd ref="691178447"/>
    <nd ref="691178446"/>
    <tag k="leisure" v="park"/>
    <tag k="source" v="nearmap"/>
  </way>
  <way id="54930122" version="2" timestamp="2012-03-07T00:21:23Z" uid="7523" user="inas" changeset="10895933"/>
  <way id="54930123" version="1" timestamp="2010-04-10T06:35:32Z" uid="7617" user="Franc" changeset="4379539">
    <nd ref="31247829"/>
    <nd ref="691178490"/>
    <nd ref="31247830"/>
    <nd ref="31247831"/>
    <nd ref="691178492"/>
    <nd ref="31247832"/>
    <tag k="highway" v="residential"/>
    <tag k="name" v="Warraroong Street"/>
  </way>
  <way id="54930123" version="2" timestamp="2010-07-08T02:08:41Z" uid="74617" user="JohnSmith" changeset="5162525">
    <nd ref="31247829"/>
    <nd ref="691178490"/>
    <nd ref="31247830"/>
    <nd ref="31247831"/>
    <nd ref="691178492"/>
    <nd ref="31247832"/>
    <tag k="highway" v="residential"/>
    <tag k="maxspeed" v="50"/>
    <tag k="maxspeed:source" v="default residential speed limit in Australia"/>
    <tag k="name" v="Warraroong Street"/>
  </way>
  <way id="54930123" version="3" timestamp="2012-01-20T05:38:00Z" uid="147510" user="woodpeck_fixbot" changeset="10443281">
    <nd ref="31247829"/>
    <nd ref="691178490"/>
    <nd ref="31247830"/>
    <nd ref="31247831"/>
    <nd ref="691178492"/>
    <nd ref="31247832"/>
    <tag k="highway" v="residential"/>
    <tag k="name" v="Warraroong Street"/>
  </way>
  <way id="54930124" version="1" timestamp="2010-04-10T06:35:32Z" uid="7617" user="Franc" changeset="4379539">
    <nd ref="691178482"/>
    <nd ref="691178483"/>
    <nd ref="691178484"/>
    <nd ref="691178485"/>
    <nd ref="691178486"/>
    <nd ref="691178487"/>
    <nd ref="691178488"/>
    <nd ref="691178489"/>
    <nd ref="691178482"/>
    <tag k="highway" v="residential"/>
    <tag k="junction" v="roundabout"/>
    <tag k="source" v="nearmap"/>
  </way>
  <way id="54930124" version="2" timestamp="2010-07-08T02:09:30Z" uid="74617" user="JohnSmith" changeset="5162525">
    <nd ref="691178482"/>
    <nd ref="691178483"/>
    <nd ref="691178484"/>
    <nd ref="691178485"/>
    <nd ref="691178486"/>
    <nd ref="691178487"/>
    <nd ref="691178488"/>
    <nd ref="691178489"/>
    <nd ref="691178482"/>
    <tag k="highway" v="residential"/>
    <tag k="junction" v="roundabout"/>
    <tag k="maxspeed" v="50"/>
    <tag k="maxspeed:source" v="default residential speed limit in Australia"/>
    <tag k="source" v="nearmap"/>
  </way>
  <way id="54930124" version="3" timestamp="2012-01-20T05:38:01Z" uid="147510" user="woodpeck_fixbot" changeset="10443281">
    <nd ref="691178482"/>
    <nd ref="691178483"/>
    <nd ref="691178484"/>
    <nd ref="691178485"/>
    <nd ref="691178486"/>
    <nd ref="691178487"/>
    <nd ref="691178488"/>
    <nd ref="691178489"/>
    <nd ref="691178482"/>
    <tag k="highway" v="residential"/>
    <tag k="junction" v="roundabout"/>
    <tag k="source" v="nearmap"/>
  </way>
  <way id="54930100" version="4" timestamp="2012-07-20T08:36:58Z" uid="722137" user="OSMF Redaction Account" changeset="12368532"/>
  <way id="54930101" version="4" timestamp="2012-07-20T08:37:10Z" uid="722137" user="OSMF Redaction Account" changeset="12368532"/>
  <way id="54930104" version="5" timestamp="2012-07-20T08:36:58Z" uid="722137" user="OSMF Redaction Account" changeset="12368532"/>
  <way id="54930106" version="4" timestamp="2012-07-20T08:37:03Z" uid="722137" user="OSMF Redaction Account" changeset="12368532"/>
  <way id="54930107" version="3" timestamp="2012-07-20T08:37:05Z" uid="722137" user="OSMF Redaction Account" changeset="12368532"/>
  <way id="54930108" version="2" timestamp="2012-06-24T05:06:56Z" uid="7523" user="inas" changeset="11995521"/>
  <way id="54930110" version="2" timestamp="2012-07-20T08:37:09Z" uid="722137" user="OSMF Redaction Account" changeset="12368532"/>
  <way id="54930112" version="4" timestamp="2012-07-20T08:37:07Z" uid="722137" user="OSMF Redaction Account" changeset="12368532"/>
  <way id="54930113" version="4" timestamp="2012-07-20T08:37:09Z" uid="722137" user="OSMF Redaction Account" changeset="12368532"/>
  <way id="54930114" version="2" timestamp="2012-07-20T08:37:20Z" uid="722137" user="OSMF Redaction Account" changeset="12368532"/>
  <way id="54930115" version="4" timestamp="2012-07-20T08:37:23Z" uid="722137" user="OSMF Redaction Account" changeset="12368562"/>
  <way id="54930117" version="4" timestamp="2012-07-20T08:37:23Z" uid="722137" user="OSMF Redaction Account" changeset="12368562"/>
  <way id="54930118" version="3" timestamp="2012-07-20T08:37:04Z" uid="722137" user="OSMF Redaction Account" changeset="12368532"/>
  <way id="54930119" version="2" timestamp="2012-07-20T08:36:59Z" uid="722137" user="OSMF Redaction Account" changeset="12368532"/>
  <way id="54930123" version="4" timestamp="2012-07-20T08:37:08Z" uid="722137" user="OSMF Redaction Account" changeset="12368532"/>
  <way id="54930124" version="4" timestamp="2012-07-20T08:37:05Z" uid="722137" user="OSMF Redaction Account" changeset="12368532"/>
</osm>
