<?xml version='1.0' encoding='UTF-8'?>
<osm version="0.6" generator="libosmium/2.20.0">
  <way id="55058471" version="2" timestamp="2011-01-27T12:14:07Z" uid="115477" user="wowik" changeset="7102995">
    <nd ref="692713202"/>
    <nd ref="692713203"/>
    <nd ref="692713204"/>
    <nd ref="692713206"/>
    <nd ref="1123331617"/>
    <nd ref="692713202"/>
    <tag k="addr:city" v="Зеленоград"/>
    <tag k="addr:housenumber" v="15"/>
    <tag k="addr:street" v="Сосновая аллея"/>
    <tag k="building" v="yes"/>
    <tag k="building:levels" v="2"/>
  </way>
  <way id="55058471" version="3" timestamp="2011-01-27T12:56:38Z" uid="115477" user="wowik" changeset="7103328">
    <nd ref="692713202"/>
    <nd ref="692713203"/>
    <nd ref="692713204"/>
    <nd ref="692713206"/>
    <nd ref="1123331617"/>
    <nd ref="692713202"/>
    <tag k="addr:city" v="Зеленоград"/>
    <tag k="addr:country" v="RU"/>
    <tag k="addr:housenumber" v="17 с?"/>
    <tag k="addr:street" v="Сосновая аллея"/>
    <tag k="building" v="yes"/>
  </way>
  <way id="55058471" version="4" timestamp="2012-03-27T11:37:53Z" uid="481934" user="iWowik" changeset="11115472">
    <nd ref="692713202"/>
    <nd ref="692713203"/>
    <nd ref="692713204"/>
    <nd ref="692713206"/>
    <nd ref="1123331617"/>
    <nd ref="692713202"/>
    <tag k="addr:city" v="Зеленоград"/>
    <tag k="addr:country" v="RU"/>
    <tag k="addr:housenumber" v="17 с?"/>
    <tag k="addr:region" v="Москва"/>
    <tag k="addr:street" v="Сосновая аллея"/>
    <tag k="building" v="yes"/>
  </way>
  <way id="55058472" version="2" timestamp="2011-01-25T15:20:22Z" uid="115477" user="wowik" changeset="7084588">
    <nd ref="692713210"/>
    <nd ref="692713211"/>
    <nd ref="692713212"/>
    <nd ref="692713213"/>
    <nd ref="692713210"/>
    <tag k="addr:city" v="Зеленоград"/>
    <tag k="addr:country" v="RU"/>
    <tag k="addr:housenumber" v="17 с1"/>
    <tag k="addr:street" v="Сосновая аллея"/>
    <tag k="building" v="yes"/>
    <tag k="shop" v="car_repair"/>
  </way>
  <way id="55058472" version="3" timestamp="2011-01-27T12:13:47Z" uid="115477" user="wowik" changeset="7102995">
    <nd ref="692713210"/>
    <nd ref="692713211"/>
    <nd ref="692713212"/>
    <nd ref="692713213"/>
    <nd ref="1123332060"/>
    <nd ref="1123331212"/>
    <nd ref="1123332676"/>
    <nd ref="1123331293"/>
    <nd ref="692713210"/>
    <tag k="addr:city" v="Зеленоград"/>
    <tag k="addr:country" v="RU"/>
    <tag k="addr:housenumber" v="17 с1"/>
    <tag k="addr:street" v="Сосновая аллея"/>
    <tag k="building" v="yes"/>
    <tag k="shop" v="car_repair"/>
  </way>
  <way id="55058472" version="4" timestamp="2011-12-12T17:52:00Z" uid="126304" user="TarzanASG" changeset="10100388">
    <nd ref="692713210"/>
    <nd ref="692713211"/>
    <nd ref="692713212"/>
    <nd ref="692713213"/>
    <nd ref="1123332060"/>
    <nd ref="1123331212"/>
    <nd ref="1123332676"/>
    <nd ref="1123331293"/>
    <nd ref="692713210"/>
    <tag k="addr:city" v="Зеленоград"/>
    <tag k="addr:country" v="RU"/>
    <tag k="addr:housenumber" v="17 с1"/>
    <tag k="addr:street" v="Сосновая аллея"/>
    <tag k="building" v="retail"/>
    <tag k="shop" v="car_repair"/>
  </way>
  <way id="55058472" version="5" timestamp="2011-12-14T13:11:04Z" uid="143266" user="Sergey Astakhov" changeset="10115724">
    <nd ref="692713210"/>
    <nd ref="692713211"/>
    <nd ref="692713212"/>
    <nd ref="692713213"/>
    <nd ref="1123332060"/>
    <nd ref="1123331212"/>
    <nd ref="1123332676"/>
    <nd ref="1123331293"/>
    <nd ref="692713210"/>
    <tag k="addr:city" v="Зеленоград"/>
    <tag k="addr:country" v="RU"/>
    <tag k="addr:housenumber" v="17 с1"/>
    <tag k="addr:street" v="Сосновая аллея"/>
    <tag k="building" v="yes"/>
    <tag k="shop" v="car_repair"/>
  </way>
  <way id="55058472" version="6" timestamp="2012-03-27T11:37:50Z" uid="481934" user="iWowik" changeset="11115472">
    <nd ref="692713210"/>
    <nd ref="692713211"/>
    <nd ref="692713212"/>
    <nd ref="692713213"/>
    <nd ref="1123332060"/>
    <nd ref="1123331212"/>
    <nd ref="1123332676"/>
    <nd ref="1123331293"/>
    <nd ref="692713210"/>
    <tag k="addr:city" v="Зеленоград"/>
    <tag k="addr:country" v="RU"/>
    <tag k="addr:housenumber" v="17 с1"/>
    <tag k="addr:region" v="Москва"/>
    <tag k="addr:street" v="Сосновая аллея"/>
    <tag k="building" v="yes"/>
    <tag k="shop" v="car_repair"/>
  </way>
  <way id="55058504" version="1" timestamp="2010-04-11T05:55:29Z" uid="151899" user="Bikeman2000" changeset="4389347">
    <nd ref="692713827"/>
    <nd ref="692713828"/>
    <nd ref="692713829"/>
    <nd ref="692713830"/>
    <nd ref="692713831"/>
    <nd ref="692713832"/>
    <nd ref="692713833"/>
    <nd ref="692713834"/>
    <nd ref="692713835"/>
    <nd ref="692713836"/>
    <nd ref="692713837"/>
    <nd ref="692713838"/>
    <nd ref="692713839"/>
    <nd ref="692713840"/>
    <nd ref="692713841"/>
    <nd ref="692713843"/>
    <nd ref="692713844"/>
    <nd ref="692713845"/>
    <nd ref="692713846"/>
    <nd ref="692713847"/>
    <nd ref="692713848"/>
    <nd ref="692713849"/>
    <nd ref="692713850"/>
    <nd ref="692713851"/>
    <nd ref="692713852"/>
    <nd ref="692713853"/>
    <nd ref="692713855"/>
    <nd ref="692713856"/>
    <nd ref="692713857"/>
    <nd ref="692713858"/>
    <nd ref="692713859"/>
    <nd ref="692713827"/>
    <tag k="landuse" v="residential"/>
  </way>
  <way id="55058504" version="2" timestamp="2012-03-29T18:33:18Z" uid="173844" user="Antikalk" changeset="11141998"/>
  <way id="55058557" version="2" timestamp="2010-04-27T07:09:08Z" uid="115477" user="wowik" changeset="4538505">
    <nd ref="692715486"/>
    <nd ref="692715494"/>
    <nd ref="692715498"/>
    <nd ref="692715502"/>
    <nd ref="692715486"/>
    <tag k="building" v="yes"/>
  </way>
  <way id="55058557" version="3" timestamp="2010-08-09T10:21:03Z" uid="241531" user="dik_man" changeset="5442150">
    <nd ref="692715486"/>
    <nd ref="692715494"/>
    <nd ref="692715498"/>
    <nd ref="692715502"/>
    <nd ref="692715486"/>
    <tag k="building" v="yes"/>
    <tag k="name" v="Автотехцентр &quot;5 звёзд&quot;"/>
  </way>
  <way id="55058557" version="4" timestamp="2010-08-09T10:22:31Z" uid="241531" user="dik_man" changeset="5442150">
    <nd ref="692715486"/>
    <nd ref="692715494"/>
    <nd ref="692715498"/>
    <nd ref="692715502"/>
    <nd ref="692715486"/>
    <tag k="addr:city" v="Зеленоград"/>
    <tag k="addr:housenumber" v="8,стр.11"/>
    <tag k="building" v="yes"/>
    <tag k="name" v="Автотехцентр &quot;5 звёзд&quot;"/>
    <tag k="shop" v="car_repair"/>
  </way>
  <way id="55058557" version="5" timestamp="2010-08-09T10:24:09Z" uid="241531" user="dik_man" changeset="5442150">
    <nd ref="692715486"/>
    <nd ref="692715494"/>
    <nd ref="692715498"/>
    <nd ref="692715502"/>
    <nd ref="692715486"/>
    <tag k="addr:city" v="Зеленоград"/>
    <tag k="addr:housenumber" v="8,стр.11"/>
    <tag k="addr:street" v="Панфиловский"/>
    <tag k="building" v="yes"/>
    <tag k="name" v="Автотехцентр &quot;5 звёзд&quot;"/>
    <tag k="phone" v="+7-499-983-01-13"/>
    <tag k="shop" v="car_repair"/>
  </way>
  <way id="55058557" version="6" timestamp="2010-11-09T09:41:31Z" uid="115477" user="wowik" changeset="6325744">
    <nd ref="692715486"/>
    <nd ref="983136391"/>
    <nd ref="983136205"/>
    <nd ref="983136296"/>
    <nd ref="692715494"/>
    <nd ref="692715498"/>
    <nd ref="692715502"/>
    <nd ref="692715486"/>
    <tag k="addr:city" v="Зеленоград"/>
    <tag k="addr:housenumber" v="8с11"/>
    <tag k="addr:street" v="Панфиловский проспект"/>
    <tag k="building" v="yes"/>
    <tag k="is_in" v="Russia"/>
    <tag k="name" v="Автотехцентр &quot;5 звёзд&quot;"/>
    <tag k="phone" v="+7-499-983-01-13"/>
    <tag k="shop" v="car_repair"/>
  </way>
  <way id="55058557" version="7" timestamp="2011-01-14T19:39:37Z" uid="206282" user="Amigo" changeset="6970476">
    <nd ref="692715486"/>
    <nd ref="983136391"/>
    <nd ref="983136205"/>
    <nd ref="983136296"/>
    <nd ref="692715494"/>
    <nd ref="692715498"/>
    <nd ref="692715502"/>
    <nd ref="692715486"/>
    <tag k="addr:city" v="Зеленоград"/>
    <tag k="addr:housenumber" v="8 с11"/>
    <tag k="addr:street" v="Панфиловский проспект"/>
    <tag k="building" v="yes"/>
    <tag k="is_in" v="Russia"/>
    <tag k="name" v="Автотехцентр &quot;5 звёзд&quot;"/>
    <tag k="phone" v="+7-499-9830113"/>
    <tag k="shop" v="car_repair"/>
  </way>
  <way id="55058557" version="8" timestamp="2011-02-02T09:37:03Z" uid="241531" user="dik_man" changeset="7162730">
    <nd ref="692715486"/>
    <nd ref="983136391"/>
    <nd ref="983136205"/>
    <nd ref="983136296"/>
    <nd ref="692715494"/>
    <nd ref="692715498"/>
    <nd ref="692715502"/>
    <nd ref="692715486"/>
    <tag k="addr:city" v="Зеленоград"/>
    <tag k="addr:housenumber" v="8 с11"/>
    <tag k="addr:street" v="Проезд N 4801"/>
    <tag k="building" v="yes"/>
    <tag k="is_in" v="Russia"/>
    <tag k="name" v="Автотехцентр &quot;5 звёзд&quot;"/>
    <tag k="phone" v="+7-499-9830113"/>
    <tag k="shop" v="car_repair"/>
  </way>
  <way id="55058557" version="9" timestamp="2011-02-02T10:06:35Z" uid="241531" user="dik_man" changeset="7163052">
    <nd ref="692715486"/>
    <nd ref="983136391"/>
    <nd ref="983136205"/>
    <nd ref="983136296"/>
    <nd ref="692715494"/>
    <nd ref="692715498"/>
    <nd ref="692715502"/>
    <nd ref="692715486"/>
    <tag k="addr:city" v="Зеленоград"/>
    <tag k="addr:housenumber" v="8 с11"/>
    <tag k="addr:street" v="Проезд N 4801"/>
    <tag k="building" v="yes"/>
    <tag k="is_in" v="Russia"/>
    <tag k="name" v="Автотехцентр &quot;5 звёзд&quot;"/>
    <tag k="phone" v="84999830113"/>
    <tag k="shop" v="car_repair"/>
  </way>
  <way id="55058557" version="10" timestamp="2011-09-13T10:29:37Z" uid="29320" user="Komяpa" changeset="9288237">
    <nd ref="692715486"/>
    <nd ref="983136391"/>
    <nd ref="983136205"/>
    <nd ref="983136296"/>
    <nd ref="692715494"/>
    <nd ref="692715498"/>
    <nd ref="692715502"/>
    <nd ref="692715486"/>
    <tag k="addr:city" v="Зеленоград"/>
    <tag k="addr:country" v="RU"/>
    <tag k="addr:housenumber" v="8 с11"/>
    <tag k="addr:street" v="Проезд N 4801"/>
    <tag k="building" v="yes"/>
    <tag k="name" v="Автотехцентр &quot;5 звёзд&quot;"/>
    <tag k="phone" v="84999830113"/>
    <tag k="shop" v="car_repair"/>
  </way>
  <way id="55058557" version="11" timestamp="2011-12-12T17:21:38Z" uid="126304" user="TarzanASG" changeset="10100388">
    <nd ref="692715486"/>
    <nd ref="983136391"/>
    <nd ref="983136205"/>
    <nd ref="983136296"/>
    <nd ref="692715494"/>
    <nd ref="692715498"/>
    <nd ref="692715502"/>
    <nd ref="692715486"/>
    <tag k="addr:city" v="Зеленоград"/>
    <tag k="addr:country" v="RU"/>
    <tag k="addr:housenumber" v="8 с11"/>
    <tag k="addr:street" v="Проезд N 4801"/>
    <tag k="building" v="retail"/>
    <tag k="name" v="Автотехцентр &quot;5 звёзд&quot;"/>
    <tag k="phone" v="84999830113"/>
    <tag k="shop" v="car_repair"/>
  </way>
  <way id="55058557" version="12" timestamp="2011-12-14T12:55:11Z" uid="143266" user="Sergey Astakhov" changeset="10115724">
    <nd ref="692715486"/>
    <nd ref="983136391"/>
    <nd ref="983136205"/>
    <nd ref="983136296"/>
    <nd ref="692715494"/>
    <nd ref="692715498"/>
    <nd ref="692715502"/>
    <nd ref="692715486"/>
    <tag k="addr:city" v="Зеленоград"/>
    <tag k="addr:country" v="RU"/>
    <tag k="addr:housenumber" v="8 с11"/>
    <tag k="addr:street" v="Проезд N 4801"/>
    <tag k="building" v="yes"/>
    <tag k="name" v="Автотехцентр &quot;5 звёзд&quot;"/>
    <tag k="phone" v="84999830113"/>
    <tag k="shop" v="car_repair"/>
  </way>
  <way id="55058558" version="2" timestamp="2010-04-27T07:09:08Z" uid="115477" user="wowik" changeset="4538505">
    <nd ref="692715508"/>
    <nd ref="692715511"/>
    <nd ref="692715514"/>
    <nd ref="692715517"/>
    <nd ref="692715520"/>
    <nd ref="692715522"/>
    <nd ref="692715508"/>
    <tag k="building" v="yes"/>
  </way>
  <way id="55058558" version="3" timestamp="2010-11-09T09:41:18Z" uid="115477" user="wowik" changeset="6325744">
    <nd ref="692715508"/>
    <nd ref="692715511"/>
    <nd ref="692715514"/>
    <nd ref="692715517"/>
    <nd ref="692715520"/>
    <nd ref="692715522"/>
    <nd ref="692715508"/>
    <tag k="addr:city" v="Зеленоград"/>
    <tag k="addr:housenumber" v="8с10"/>
    <tag k="addr:street" v="Панфиловский проспект"/>
    <tag k="building" v="yes"/>
    <tag k="is_in" v="Russia"/>
  </way>
  <way id="55058558" version="4" timestamp="2011-01-14T19:39:34Z" uid="206282" user="Amigo" changeset="6970476">
    <nd ref="692715508"/>
    <nd ref="692715511"/>
    <nd ref="692715514"/>
    <nd ref="692715517"/>
    <nd ref="692715520"/>
    <nd ref="692715522"/>
    <nd ref="692715508"/>
    <tag k="addr:city" v="Зеленоград"/>
    <tag k="addr:housenumber" v="8 с10"/>
    <tag k="addr:street" v="Панфиловский проспект"/>
    <tag k="building" v="yes"/>
    <tag k="is_in" v="Russia"/>
  </way>
  <way id="55058558" version="5" timestamp="2011-09-13T10:28:31Z" uid="29320" user="Komяpa" changeset="9288237">
    <nd ref="692715508"/>
    <nd ref="692715511"/>
    <nd ref="692715514"/>
    <nd ref="692715517"/>
    <nd ref="692715520"/>
    <nd ref="692715522"/>
    <nd ref="692715508"/>
    <tag k="addr:city" v="Зеленоград"/>
    <tag k="addr:country" v="RU"/>
    <tag k="addr:housenumber" v="8 с10"/>
    <tag k="addr:street" v="Панфиловский проспект"/>
    <tag k="building" v="yes"/>
  </way>
  <way id="55058559" version="3" timestamp="2010-11-09T09:58:36Z" uid="115477" user="wowik" changeset="6325744">
    <nd ref="692715533"/>
    <nd ref="983146439"/>
    <nd ref="983146561"/>
    <nd ref="983146496"/>
    <nd ref="983146546"/>
    <nd ref="692715534"/>
    <nd ref="983146441"/>
    <nd ref="983146551"/>
    <nd ref="983146609"/>
    <nd ref="983146499"/>
    <nd ref="983146535"/>
    <nd ref="983146589"/>
    <nd ref="983146480"/>
    <nd ref="983146512"/>
    <nd ref="983146563"/>
    <nd ref="983146462"/>
    <nd ref="983146442"/>
    <nd ref="983146552"/>
    <nd ref="983146610"/>
    <nd ref="983146501"/>
    <nd ref="692715535"/>
    <nd ref="983146483"/>
    <nd ref="983146537"/>
    <nd ref="983146486"/>
    <nd ref="983146435"/>
    <nd ref="692715536"/>
    <nd ref="692715533"/>
    <tag k="addr:city" v="Зеленоград"/>
    <tag k="addr:housenumber" v="2с3"/>
    <tag k="addr:street" v="Проезд N 4801"/>
    <tag k="building" v="yes"/>
    <tag k="is_in" v="Russia"/>
  </way>
  <way id="55058559" version="4" timestamp="2011-01-14T19:39:30Z" uid="206282" user="Amigo" changeset="6970476">
    <nd ref="692715533"/>
    <nd ref="983146439"/>
    <nd ref="983146561"/>
    <nd ref="983146496"/>
    <nd ref="983146546"/>
    <nd ref="692715534"/>
    <nd ref="983146441"/>
    <nd ref="983146551"/>
    <nd ref="983146609"/>
    <nd ref="983146499"/>
    <nd ref="983146535"/>
    <nd ref="983146589"/>
    <nd ref="983146480"/>
    <nd ref="983146512"/>
    <nd ref="983146563"/>
    <nd ref="983146462"/>
    <nd ref="983146442"/>
    <nd ref="983146552"/>
    <nd ref="983146610"/>
    <nd ref="983146501"/>
    <nd ref="692715535"/>
    <nd ref="983146483"/>
    <nd ref="983146537"/>
    <nd ref="983146486"/>
    <nd ref="983146435"/>
    <nd ref="692715536"/>
    <nd ref="692715533"/>
    <tag k="addr:city" v="Зеленоград"/>
    <tag k="addr:housenumber" v="2 с3"/>
    <tag k="addr:street" v="Проезд N 4801"/>
    <tag k="building" v="yes"/>
    <tag k="is_in" v="Russia"/>
  </way>
  <way id="55058559" version="5" timestamp="2011-01-17T13:59:06Z" uid="115477" user="wowik" changeset="6999740">
    <nd ref="692715533"/>
    <nd ref="983146439"/>
    <nd ref="983146561"/>
    <nd ref="983146496"/>
    <nd ref="983146546"/>
    <nd ref="692715534"/>
    <nd ref="983146441"/>
    <nd ref="983146551"/>
    <nd ref="983146609"/>
    <nd ref="983146499"/>
    <nd ref="983146535"/>
    <nd ref="983146589"/>
    <nd ref="983146480"/>
    <nd ref="983146512"/>
    <nd ref="983146563"/>
    <nd ref="983146462"/>
    <nd ref="983146442"/>
    <nd ref="983146552"/>
    <nd ref="983146610"/>
    <nd ref="983146501"/>
    <nd ref="692715535"/>
    <nd ref="983146483"/>
    <nd ref="983146537"/>
    <nd ref="983146486"/>
    <nd ref="983146435"/>
    <nd ref="692715536"/>
    <nd ref="692715533"/>
    <tag k="addr:city" v="Зеленоград"/>
    <tag k="addr:housenumber" v="2 с3"/>
    <tag k="addr:street" v="4-й Западный проезд"/>
    <tag k="building" v="yes"/>
    <tag k="is_in" v="Russia"/>
  </way>
  <way id="55058559" version="6" timestamp="2011-09-13T10:24:15Z" uid="29320" user="Komяpa" changeset="9288237">
    <nd ref="692715533"/>
    <nd ref="983146439"/>
    <nd ref="983146561"/>
    <nd ref="983146496"/>
    <nd ref="983146546"/>
    <nd ref="692715534"/>
    <nd ref="983146441"/>
    <nd ref="983146551"/>
    <nd ref="983146609"/>
    <nd ref="983146499"/>
    <nd ref="983146535"/>
    <nd ref="983146589"/>
    <nd ref="983146480"/>
    <nd ref="983146512"/>
    <nd ref="983146563"/>
    <nd ref="983146462"/>
    <nd ref="983146442"/>
    <nd ref="983146552"/>
    <nd ref="983146610"/>
    <nd ref="983146501"/>
    <nd ref="692715535"/>
    <nd ref="983146483"/>
    <nd ref="983146537"/>
    <nd ref="983146486"/>
    <nd ref="983146435"/>
    <nd ref="692715536"/>
    <nd ref="692715533"/>
    <tag k="addr:city" v="Зеленоград"/>
    <tag k="addr:country" v="RU"/>
    <tag k="addr:housenumber" v="2 с3"/>
    <tag k="addr:street" v="4-й Западный проезд"/>
    <tag k="building" v="yes"/>
  </way>
  <way id="55058920" version="1" timestamp="2010-04-11T06:07:28Z" uid="33382" user="de_muur" changeset="4389387">
    <nd ref="692716871"/>
    <nd ref="692716870"/>
    <nd ref="692716869"/>
    <nd ref="470844016"/>
    <nd ref="290230386"/>
    <tag k="highway" v="residential"/>
    <tag k="maxspeed" v="30"/>
    <tag k="name" v="Amselweg"/>
    <tag k="oneway" v="yes"/>
    <tag k="surface" v="paved"/>
  </way>
  <way id="55058920" version="2" timestamp="2010-12-18T23:58:58Z" uid="114430" user="Chenshi" changeset="6701884">
    <nd ref="80180369"/>
    <nd ref="692716870"/>
    <nd ref="692716869"/>
    <nd ref="470844016"/>
    <nd ref="290230386"/>
    <tag k="highway" v="residential"/>
    <tag k="maxspeed" v="30"/>
    <tag k="name" v="Amselweg"/>
    <tag k="oneway" v="yes"/>
    <tag k="surface" v="paved"/>
  </way>
  <way id="55058920" version="3" timestamp="2012-03-27T12:19:48Z" uid="114430" user="Chenshi" changeset="11115840"/>
  <way id="55058921" version="1" timestamp="2010-04-11T06:07:29Z" uid="33382" user="de_muur" changeset="4389387">
    <nd ref="413942088"/>
    <nd ref="372667244"/>
    <nd ref="372667247"/>
    <nd ref="372667253"/>
    <nd ref="372667257"/>
    <nd ref="372667260"/>
    <nd ref="372667263"/>
    <nd ref="372667267"/>
    <nd ref="372667271"/>
    <nd ref="372667273"/>
    <nd ref="372667276"/>
    <tag k="highway" v="unclassified"/>
    <tag k="surface" v="paved"/>
  </way>
  <way id="55058921" version="2" timestamp="2010-04-11T12:16:43Z" uid="91104" user="sbaron" changeset="4392640">
    <nd ref="413942088"/>
    <nd ref="372667244"/>
    <nd ref="372667247"/>
    <nd ref="372667253"/>
    <nd ref="692980022"/>
    <nd ref="692980021"/>
    <nd ref="372667257"/>
    <nd ref="372667260"/>
    <nd ref="372667263"/>
    <nd ref="372667267"/>
    <nd ref="372667271"/>
    <nd ref="372667273"/>
    <nd ref="692980025"/>
    <nd ref="692980030"/>
    <nd ref="372667276"/>
    <tag k="highway" v="unclassified"/>
    <tag k="surface" v="paved"/>
  </way>
  <way id="55058921" version="3" timestamp="2010-08-23T22:02:29Z" uid="124466" user="Heros" changeset="5575782">
    <nd ref="413942088"/>
    <nd ref="372667244"/>
    <nd ref="372667247"/>
    <nd ref="372667253"/>
    <nd ref="692980022"/>
    <nd ref="692980021"/>
    <nd ref="372667257"/>
    <nd ref="372667260"/>
    <tag k="highway" v="unclassified"/>
    <tag k="surface" v="paved"/>
  </way>
  <way id="55058922" version="1" timestamp="2010-04-11T06:07:29Z" uid="33382" user="de_muur" changeset="4389387">
    <nd ref="413942093"/>
    <nd ref="373437646"/>
    <nd ref="373437674"/>
    <nd ref="413942096"/>
    <nd ref="373437679"/>
    <nd ref="373437684"/>
    <nd ref="372667260"/>
    <tag k="highway" v="unclassified"/>
  </way>
  <way id="55058922" version="2" timestamp="2010-04-11T12:16:43Z" uid="91104" user="sbaron" changeset="4392640">
    <nd ref="413942093"/>
    <nd ref="373437646"/>
    <nd ref="373437674"/>
    <nd ref="692980023"/>
    <nd ref="413942096"/>
    <nd ref="373437679"/>
    <nd ref="692980024"/>
    <nd ref="373437684"/>
    <nd ref="372667260"/>
    <tag k="highway" v="unclassified"/>
  </way>
  <way id="55058922" version="3" timestamp="2011-08-11T15:31:36Z" uid="114430" user="Chenshi" changeset="8986586">
    <nd ref="413942093"/>
    <nd ref="373437646"/>
    <nd ref="1395082653"/>
    <nd ref="373437674"/>
    <nd ref="692980023"/>
    <nd ref="413942096"/>
    <nd ref="373437679"/>
    <nd ref="692980024"/>
    <nd ref="373437684"/>
    <nd ref="372667260"/>
    <tag k="highway" v="unclassified"/>
  </way>
  <way id="55058923" version="1" timestamp="2010-04-11T06:07:29Z" uid="33382" user="de_muur" changeset="4389387">
    <nd ref="249243583"/>
    <nd ref="692716862"/>
    <nd ref="692716863"/>
    <nd ref="692716876"/>
    <nd ref="692716877"/>
    <nd ref="692716878"/>
    <nd ref="692716873"/>
    <nd ref="692716874"/>
    <nd ref="692716875"/>
    <nd ref="692716879"/>
    <tag k="highway" v="unclassified"/>
    <tag k="surface" v="paved"/>
  </way>
  <way id="55058923" version="2" timestamp="2010-11-04T18:08:28Z" uid="361995" user="skati" changeset="6290385">
    <nd ref="249243583"/>
    <nd ref="692716862"/>
    <nd ref="692716863"/>
    <nd ref="692716876"/>
    <nd ref="692716877"/>
    <nd ref="692716878"/>
    <nd ref="692716873"/>
    <nd ref="692716874"/>
    <nd ref="692716875"/>
    <nd ref="692716879"/>
    <tag k="highway" v="unclassified"/>
    <tag k="name" v="Bocksgründener Straße"/>
    <tag k="surface" v="paved"/>
  </way>
  <way id="55058923" version="3" timestamp="2010-12-27T13:58:21Z" uid="114430" user="Chenshi" changeset="6777961">
    <nd ref="249243583"/>
    <nd ref="692716862"/>
    <nd ref="692716863"/>
    <nd ref="692716876"/>
    <nd ref="1067712382"/>
    <nd ref="692716877"/>
    <nd ref="1067712999"/>
    <nd ref="1067713330"/>
    <nd ref="692716878"/>
    <nd ref="1067713705"/>
    <nd ref="1067713621"/>
    <nd ref="692716873"/>
    <nd ref="1067712257"/>
    <nd ref="1067712913"/>
    <nd ref="692716874"/>
    <nd ref="1067713522"/>
    <nd ref="1067712090"/>
    <nd ref="692716875"/>
    <nd ref="1067712715"/>
    <nd ref="1067713418"/>
    <nd ref="425034652"/>
    <tag k="highway" v="unclassified"/>
    <tag k="name" v="Bocksgründener Straße"/>
    <tag k="surface" v="paved"/>
  </way>
  <way id="55058923" version="4" timestamp="2011-01-09T22:53:56Z" uid="114430" user="Chenshi" changeset="6921871">
    <nd ref="249243583"/>
    <nd ref="1095336146"/>
    <nd ref="692716862"/>
    <nd ref="1095338751"/>
    <nd ref="1095336812"/>
    <nd ref="1095334906"/>
    <nd ref="692716863"/>
    <nd ref="1095339522"/>
    <nd ref="1095337184"/>
    <nd ref="692716876"/>
    <nd ref="1095336648"/>
    <tag k="highway" v="unclassified"/>
    <tag k="name" v="Bocksgründener Straße"/>
    <tag k="surface" v="paved"/>
  </way>
  <way id="55058923" version="5" timestamp="2012-03-27T12:19:49Z" uid="114430" user="Chenshi" changeset="11115840"/>
  <way id="55058924" version="1" timestamp="2010-04-11T06:07:29Z" uid="33382" user="de_muur" changeset="4389387">
    <nd ref="692716861"/>
    <nd ref="692716857"/>
    <nd ref="692716858"/>
    <nd ref="692716859"/>
    <nd ref="246488648"/>
    <tag k="highway" v="unclassified"/>
    <tag k="surface" v="paved"/>
  </way>
  <way id="55058924" version="2" timestamp="2011-01-09T22:55:43Z" uid="114430" user="Chenshi" changeset="6921871">
    <nd ref="692716861"/>
    <nd ref="1095333544"/>
    <nd ref="1095335857"/>
    <nd ref="1095336932"/>
    <nd ref="692716857"/>
    <nd ref="692716858"/>
    <nd ref="692716859"/>
    <nd ref="246488648"/>
    <tag k="highway" v="unclassified"/>
    <tag k="surface" v="paved"/>
  </way>
  <way id="55058924" version="3" timestamp="2011-07-13T12:50:26Z" uid="192181" user="hennie90" changeset="8712347">
    <nd ref="692716861"/>
    <nd ref="1095333544"/>
    <nd ref="1095335857"/>
    <nd ref="1095336932"/>
    <nd ref="1360321701"/>
    <nd ref="692716857"/>
    <nd ref="1360321640"/>
    <nd ref="1360321629"/>
    <nd ref="1360321602"/>
    <nd ref="1360321595"/>
    <nd ref="1360321575"/>
    <nd ref="1360321561"/>
    <nd ref="692716858"/>
    <nd ref="692716859"/>
    <nd ref="246488648"/>
    <tag k="highway" v="unclassified"/>
    <tag k="surface" v="paved"/>
  </way>
  <way id="55058924" version="4" timestamp="2011-11-19T10:15:36Z" uid="114430" user="Chenshi" changeset="9871719">
    <nd ref="692716861"/>
    <nd ref="1095333544"/>
    <nd ref="1095335857"/>
    <nd ref="1095336932"/>
    <nd ref="1360321701"/>
    <nd ref="692716857"/>
    <nd ref="1360321640"/>
    <nd ref="1360321629"/>
    <nd ref="1360321602"/>
    <nd ref="1360321595"/>
    <nd ref="1360321561"/>
    <nd ref="692716858"/>
    <nd ref="692716859"/>
    <nd ref="1508440861"/>
    <nd ref="246488648"/>
    <tag k="highway" v="unclassified"/>
    <tag k="surface" v="paved"/>
  </way>
  <way id="55058924" version="5" timestamp="2012-03-27T12:19:55Z" uid="114430" user="Chenshi" changeset="11115840"/>
  <way id="55058471" version="5" timestamp="2012-07-20T20:22:38Z" uid="722137" user="OSMF Redaction Account" changeset="12390196">
    <nd ref="692713202"/>
    <nd ref="692713203"/>
    <nd ref="692713204"/>
    <nd ref="692713206"/>
    <nd ref="692713202"/>
    <tag k="addr:region" v="Москва"/>
    <tag k="building" v="yes"/>
  </way>
  <way id="55058472" version="7" timestamp="2012-07-20T20:22:38Z" uid="722137" user="OSMF Redaction Account" changeset="12390196">
    <nd ref="692713210"/>
    <nd ref="692713211"/>
    <nd ref="692713212"/>
    <nd ref="692713213"/>
    <nd ref="692713210"/>
    <tag k="addr:region" v="Москва"/>
    <tag k="building" v="yes"/>
  </way>
  <way id="55058557" version="13" timestamp="2012-07-20T15:45:27Z" uid="722137" user="OSMF Redaction Account" changeset="12381662">
    <nd ref="692715486"/>
    <nd ref="692715494"/>
    <nd ref="692715498"/>
    <nd ref="692715502"/>
    <nd ref="692715486"/>
    <tag k="addr:city" v="Зеленоград"/>
    <tag k="addr:country" v="RU"/>
    <tag k="addr:housenumber" v="8,стр.11"/>
    <tag k="addr:street" v="Проезд N 4801"/>
    <tag k="building" v="yes"/>
    <tag k="name" v="Автотехцентр &quot;5 звёзд&quot;"/>
    <tag k="phone" v="84999830113"/>
    <tag k="shop" v="car_repair"/>
  </way>
  <way id="55058558" version="6" timestamp="2012-07-20T15:46:59Z" uid="722137" user="OSMF Redaction Account" changeset="12381662">
    <nd ref="692715508"/>
    <nd ref="692715511"/>
    <nd ref="692715514"/>
    <nd ref="692715517"/>
    <nd ref="692715520"/>
    <nd ref="692715522"/>
    <nd ref="692715508"/>
    <tag k="addr:country" v="RU"/>
    <tag k="building" v="yes"/>
  </way>
  <way id="55058559" version="7" timestamp="2012-07-20T15:45:25Z" uid="722137" user="OSMF Redaction Account" changeset="12381662">
    <nd ref="692715533"/>
    <nd ref="692715534"/>
    <nd ref="692715535"/>
    <nd ref="692715536"/>
    <nd ref="692715533"/>
    <tag k="addr:country" v="RU"/>
    <tag k="building" v="yes"/>
  </way>
  <way id="55058921" version="4" timestamp="2012-07-09T10:26:54Z" uid="114430" user="Chenshi" changeset="12160161"/>
  <way id="55058922" version="4" timestamp="2012-06-03T01:36:19Z" uid="294623" user="hatina" changeset="11782137">
    <nd ref="413942093"/>
    <nd ref="373437646"/>
    <nd ref="1395082653"/>
    <nd ref="373437674"/>
    <nd ref="692980023"/>
    <nd ref="413942096"/>
    <nd ref="373437679"/>
    <nd ref="692980024"/>
    <nd ref="373437684"/>
    <nd ref="372667260"/>
    <tag k="highway" v="unclassified"/>
    <tag k="name" v="Ohlendorfer Straße"/>
  </way>
  <way id="55058922" version="5" timestamp="2012-07-09T10:26:54Z" uid="114430" user="Chenshi" changeset="12160161"/>
</osm>
