<?xml version='1.0' encoding='UTF-8'?>
<osm version="0.6" generator="libosmium/2.20.0">
  <way id="55053261" version="1" timestamp="2010-04-11T00:57:15Z" uid="20587" user="balrog-kun" changeset="4388774">
    <nd ref="612041701"/>
    <nd ref="32701544"/>
    <nd ref="32701464"/>
    <tag k="highway" v="tertiary"/>
    <tag k="name" v="Kolejowa"/>
    <tag k="oneway" v="yes"/>
  </way>
  <way id="55053261" version="2" timestamp="2011-11-02T20:17:45Z" uid="233315" user="Dirbam" changeset="9725393">
    <nd ref="612041701"/>
    <nd ref="1489885057"/>
    <nd ref="32701544"/>
    <nd ref="32701464"/>
    <tag k="highway" v="tertiary"/>
    <tag k="name" v="Kolejowa"/>
    <tag k="oneway" v="yes"/>
  </way>
  <way id="55053265" version="1" timestamp="2010-04-11T00:57:16Z" uid="20587" user="balrog-kun" changeset="4388774">
    <nd ref="33639459"/>
    <nd ref="33639458"/>
    <nd ref="32701501"/>
    <tag k="highway" v="tertiary"/>
    <tag k="name" v="Przytorowa"/>
  </way>
  <way id="55053261" version="3" timestamp="2012-08-01T16:19:14Z" uid="735193" user="konradb4" changeset="12575317">
    <nd ref="612041701"/>
    <nd ref="1489885057"/>
    <nd ref="32701544"/>
    <nd ref="1847035078"/>
    <nd ref="32701464"/>
    <tag k="highway" v="tertiary"/>
    <tag k="name" v="Kolejowa"/>
    <tag k="oneway" v="yes"/>
  </way>
  <way id="55053261" version="4" timestamp="2012-08-01T17:45:19Z" uid="735193" user="konradb4" changeset="12577150">
    <nd ref="612041701"/>
    <nd ref="1847149497"/>
    <nd ref="1489885057"/>
    <nd ref="32701544"/>
    <nd ref="1847035078"/>
    <nd ref="32701464"/>
    <tag k="highway" v="tertiary"/>
    <tag k="name" v="Kolejowa"/>
    <tag k="oneway" v="yes"/>
  </way>
  <way id="55053261" version="5" timestamp="2012-08-13T13:24:42Z" uid="473784" user="antblant" changeset="12713988">
    <nd ref="612041701"/>
    <nd ref="1847149497"/>
    <nd ref="1489885057"/>
    <nd ref="32701544"/>
    <nd ref="1847035078"/>
    <tag k="highway" v="tertiary"/>
    <tag k="name" v="Kolejowa"/>
    <tag k="oneway" v="yes"/>
  </way>
  <way id="55053265" version="2" timestamp="2012-08-01T16:19:16Z" uid="735193" user="konradb4" changeset="12575317"/>
</osm>
