<?xml version='1.0' encoding='UTF-8'?>
<osm version="0.6" generator="libosmium/2.20.0">
  <way id="55205072" version="15" timestamp="2011-02-27T08:58:17Z" uid="4467" user="Rosscoe" changeset="7407963">
    <nd ref="693973248"/>
    <nd ref="693987419"/>
    <nd ref="693987420"/>
    <nd ref="693973249"/>
    <nd ref="693973250"/>
    <nd ref="693973251"/>
    <nd ref="693992724"/>
    <nd ref="694014789"/>
    <nd ref="693992730"/>
    <nd ref="693992733"/>
    <nd ref="693992736"/>
    <nd ref="693993745"/>
    <nd ref="693994906"/>
    <nd ref="693994912"/>
    <nd ref="1176745171"/>
    <nd ref="693994930"/>
    <nd ref="693994932"/>
    <nd ref="693994934"/>
    <nd ref="693994937"/>
    <nd ref="693994939"/>
    <nd ref="693994942"/>
    <nd ref="693994944"/>
    <nd ref="693994946"/>
    <nd ref="693994947"/>
    <nd ref="693994950"/>
    <nd ref="693994953"/>
    <nd ref="693994955"/>
    <nd ref="693994957"/>
    <nd ref="693994959"/>
    <nd ref="693994962"/>
    <nd ref="693994965"/>
    <nd ref="693994968"/>
    <nd ref="693994971"/>
    <nd ref="693994973"/>
    <nd ref="694019012"/>
    <nd ref="694019084"/>
    <nd ref="693994975"/>
    <nd ref="693994976"/>
    <nd ref="693994977"/>
    <nd ref="693994978"/>
    <nd ref="693994979"/>
    <nd ref="693994987"/>
    <nd ref="693994991"/>
    <tag k="foot" v="yes"/>
    <tag k="highway" v="footway"/>
    <tag k="source" v="nearmap"/>
  </way>
  <way id="55205106" version="4" timestamp="2011-02-27T08:58:33Z" uid="4467" user="Rosscoe" changeset="7407963">
    <nd ref="527842747"/>
    <nd ref="693972474"/>
    <nd ref="693972416"/>
    <nd ref="693972475"/>
    <nd ref="1176745152"/>
    <tag k="highway" v="residential"/>
    <tag k="maxspeed" v="50"/>
    <tag k="name" v="Beverley Street"/>
    <tag k="oneway" v="yes"/>
    <tag k="source" v="nearmap"/>
  </way>
  <way id="55205107" version="3" timestamp="2011-02-27T08:58:45Z" uid="4467" user="Rosscoe" changeset="7407963">
    <nd ref="1176745185"/>
    <nd ref="693972417"/>
    <nd ref="693972490"/>
    <nd ref="527842747"/>
    <tag k="highway" v="residential"/>
    <tag k="maxspeed" v="50"/>
    <tag k="name" v="Beverley Street"/>
    <tag k="oneway" v="yes"/>
    <tag k="source" v="nearmap"/>
  </way>
  <way id="55205141" version="1" timestamp="2010-04-12T01:40:24Z" uid="244897" user="M526244" changeset="4400668">
    <nd ref="693972930"/>
    <nd ref="693972931"/>
    <tag k="highway" v="residential"/>
    <tag k="name" v="Parker Street"/>
    <tag k="source" v="survey"/>
  </way>
  <way id="55205141" version="2" timestamp="2010-07-07T07:16:32Z" uid="74617" user="JohnSmith" changeset="5156250">
    <nd ref="693972930"/>
    <nd ref="693972931"/>
    <tag k="highway" v="residential"/>
    <tag k="maxspeed" v="50"/>
    <tag k="maxspeed:source" v="default residential speed limit in Australia"/>
    <tag k="name" v="Parker Street"/>
    <tag k="source" v="survey"/>
  </way>
  <way id="55205141" version="3" timestamp="2012-01-20T05:43:17Z" uid="147510" user="woodpeck_fixbot" changeset="10443281">
    <nd ref="693972930"/>
    <nd ref="693972931"/>
    <tag k="highway" v="residential"/>
    <tag k="name" v="Parker Street"/>
    <tag k="source" v="survey"/>
  </way>
  <way id="55205142" version="1" timestamp="2010-04-12T01:40:25Z" uid="244897" user="M526244" changeset="4400668">
    <nd ref="693972932"/>
    <nd ref="693972933"/>
    <nd ref="693972934"/>
    <nd ref="693972931"/>
    <nd ref="693972935"/>
    <tag k="highway" v="residential"/>
    <tag k="name" v="Virginia Place"/>
    <tag k="source" v="survey"/>
  </way>
  <way id="55205142" version="2" timestamp="2010-07-07T07:20:42Z" uid="74617" user="JohnSmith" changeset="5156250">
    <nd ref="693972932"/>
    <nd ref="693972933"/>
    <nd ref="693972934"/>
    <nd ref="693972931"/>
    <nd ref="693972935"/>
    <tag k="highway" v="residential"/>
    <tag k="maxspeed" v="50"/>
    <tag k="maxspeed:source" v="default residential speed limit in Australia"/>
    <tag k="name" v="Virginia Place"/>
    <tag k="source" v="survey"/>
  </way>
  <way id="55205142" version="3" timestamp="2012-01-20T05:43:18Z" uid="147510" user="woodpeck_fixbot" changeset="10443281">
    <nd ref="693972932"/>
    <nd ref="693972933"/>
    <nd ref="693972934"/>
    <nd ref="693972931"/>
    <nd ref="693972935"/>
    <tag k="highway" v="residential"/>
    <tag k="name" v="Virginia Place"/>
    <tag k="source" v="survey"/>
  </way>
  <way id="55205143" version="1" timestamp="2010-04-12T01:40:26Z" uid="244897" user="M526244" changeset="4400668">
    <nd ref="693972938"/>
    <nd ref="693972941"/>
    <nd ref="693972942"/>
    <nd ref="693972944"/>
    <tag k="highway" v="residential"/>
    <tag k="name" v="Bertram Place"/>
    <tag k="source" v="survey"/>
  </way>
  <way id="55205143" version="2" timestamp="2010-07-07T07:19:27Z" uid="74617" user="JohnSmith" changeset="5156250">
    <nd ref="693972938"/>
    <nd ref="693972941"/>
    <nd ref="693972942"/>
    <nd ref="693972944"/>
    <tag k="highway" v="residential"/>
    <tag k="maxspeed" v="50"/>
    <tag k="maxspeed:source" v="default residential speed limit in Australia"/>
    <tag k="name" v="Bertram Place"/>
    <tag k="source" v="survey"/>
  </way>
  <way id="55205143" version="3" timestamp="2012-01-20T05:43:19Z" uid="147510" user="woodpeck_fixbot" changeset="10443281">
    <nd ref="693972938"/>
    <nd ref="693972941"/>
    <nd ref="693972942"/>
    <nd ref="693972944"/>
    <tag k="highway" v="residential"/>
    <tag k="name" v="Bertram Place"/>
    <tag k="source" v="survey"/>
  </way>
  <way id="55205265" version="1" timestamp="2010-04-12T01:47:45Z" uid="74617" user="JohnSmith" changeset="4400693">
    <nd ref="693974248"/>
    <nd ref="693974244"/>
    <nd ref="693974246"/>
    <nd ref="693974249"/>
    <nd ref="693974248"/>
    <tag k="source" v="nearmap"/>
    <tag k="sport" v="swimming"/>
  </way>
  <way id="55205354" version="1" timestamp="2010-04-12T01:55:35Z" uid="99207" user="Lar Kiesel" changeset="4400711">
    <nd ref="109483543"/>
    <nd ref="109483549"/>
    <nd ref="109483551"/>
    <nd ref="109483554"/>
    <nd ref="109483556"/>
    <nd ref="109483558"/>
    <tag k="name" v="Augusta"/>
    <tag k="old_name" v="Seaboard System Railroad"/>
    <tag k="operator" v="CSX Transport"/>
    <tag k="railway" v="rail"/>
    <tag k="ref" v="C2"/>
    <tag k="tiger:cfcc" v="B11"/>
    <tag k="tiger:county" v="Allendale, SC"/>
    <tag k="tiger:name_base" v="Seaboard System Railroad"/>
    <tag k="tiger:reviewed" v="no"/>
    <tag k="tiger:source" v="tiger_import_dch_v0.6_20070829"/>
    <tag k="tiger:tlid" v="19038474:19038476:19038478:19038470:19038472:19038454:19038525:19038450:19038452:19038453:19038687:19038446:19038448:19038444:19038849:19044217"/>
    <tag k="tiger:upload_uuid" v="bulk_upload.pl-c9ec874b-7956-40d3-900a-464b36fd7003"/>
  </way>
  <way id="55205354" version="2" timestamp="2010-04-13T07:10:22Z" uid="99207" user="Lar Kiesel" changeset="4411087">
    <nd ref="109483543"/>
    <nd ref="109483549"/>
    <nd ref="109483551"/>
    <nd ref="109483554"/>
    <nd ref="109483556"/>
    <nd ref="109483558"/>
    <tag k="name" v="CSX Transport"/>
    <tag k="old_name" v="Seaboard System Railroad"/>
    <tag k="operator" v="CSX Transport"/>
    <tag k="railway" v="rail"/>
    <tag k="ref" v="C2"/>
    <tag k="tiger:cfcc" v="B11"/>
    <tag k="tiger:county" v="Allendale, SC"/>
    <tag k="tiger:name_base" v="Seaboard System Railroad"/>
    <tag k="tiger:reviewed" v="no"/>
    <tag k="tiger:source" v="tiger_import_dch_v0.6_20070829"/>
    <tag k="tiger:tlid" v="19038474:19038476:19038478:19038470:19038472:19038454:19038525:19038450:19038452:19038453:19038687:19038446:19038448:19038444:19038849:19044217"/>
    <tag k="tiger:upload_uuid" v="bulk_upload.pl-c9ec874b-7956-40d3-900a-464b36fd7003"/>
  </way>
  <way id="55205354" version="3" timestamp="2011-12-08T00:00:35Z" uid="207745" user="NE2" changeset="10062024"/>
  <way id="55205355" version="1" timestamp="2010-04-12T01:55:36Z" uid="99207" user="Lar Kiesel" changeset="4400711">
    <nd ref="109483543"/>
    <nd ref="109483586"/>
    <nd ref="693975370"/>
    <nd ref="109483590"/>
    <nd ref="693975360"/>
    <nd ref="109483595"/>
    <nd ref="693975364"/>
    <nd ref="109483599"/>
    <nd ref="109483604"/>
    <nd ref="693975367"/>
    <nd ref="109483611"/>
    <nd ref="109483613"/>
    <nd ref="109483615"/>
    <tag k="name" v="Seaboard System Railroad"/>
    <tag k="old_name" v="Seaboard System Railroad"/>
    <tag k="operator" v="CSX Transport"/>
    <tag k="railway" v="rail"/>
    <tag k="ref" v="C2"/>
    <tag k="tiger:cfcc" v="B11"/>
    <tag k="tiger:county" v="Allendale, SC"/>
    <tag k="tiger:name_base" v="Seaboard System Railroad"/>
    <tag k="tiger:reviewed" v="no"/>
    <tag k="tiger:source" v="tiger_import_dch_v0.6_20070829"/>
    <tag k="tiger:tlid" v="19038434:19038436:19038438:19038830:19038440:19042850:19038564:19038536:19038692:19044480:19044479:19038683:19042853:19038457:19038459:19038461:19038462:19038467:19038468:19038423:19038427:19038429"/>
    <tag k="tiger:upload_uuid" v="bulk_upload.pl-c9ec874b-7956-40d3-900a-464b36fd7003"/>
  </way>
  <way id="55205355" version="2" timestamp="2010-04-12T12:25:26Z" uid="99207" user="Lar Kiesel" changeset="4403931">
    <nd ref="109483543"/>
    <nd ref="109483586"/>
    <nd ref="693975370"/>
    <nd ref="109483590"/>
    <nd ref="693975360"/>
    <nd ref="109483595"/>
    <nd ref="693975364"/>
    <nd ref="109483599"/>
    <nd ref="109483604"/>
    <nd ref="693975367"/>
    <nd ref="109483611"/>
    <nd ref="694193709"/>
    <nd ref="694193710"/>
    <nd ref="694193711"/>
    <nd ref="694193712"/>
    <nd ref="109483615"/>
    <tag k="name" v="Seaboard System Railroad"/>
    <tag k="old_name" v="Seaboard System Railroad"/>
    <tag k="operator" v="CSX Transport"/>
    <tag k="railway" v="rail"/>
    <tag k="ref" v="C2"/>
    <tag k="tiger:cfcc" v="B11"/>
    <tag k="tiger:county" v="Allendale, SC"/>
    <tag k="tiger:name_base" v="Seaboard System Railroad"/>
    <tag k="tiger:reviewed" v="no"/>
    <tag k="tiger:source" v="tiger_import_dch_v0.6_20070829"/>
    <tag k="tiger:tlid" v="19038434:19038436:19038438:19038830:19038440:19042850:19038564:19038536:19038692:19044480:19044479:19038683:19042853:19038457:19038459:19038461:19038462:19038467:19038468:19038423:19038427:19038429"/>
    <tag k="tiger:upload_uuid" v="bulk_upload.pl-c9ec874b-7956-40d3-900a-464b36fd7003"/>
  </way>
  <way id="55205355" version="3" timestamp="2010-04-13T05:25:03Z" uid="99207" user="Lar Kiesel" changeset="4410629">
    <nd ref="109483543"/>
    <nd ref="109483586"/>
    <nd ref="693975370"/>
    <nd ref="109483590"/>
    <nd ref="693975360"/>
    <nd ref="109483595"/>
    <nd ref="693975364"/>
    <nd ref="109483599"/>
    <nd ref="109483604"/>
    <nd ref="693975367"/>
    <nd ref="109483611"/>
    <nd ref="694193709"/>
    <nd ref="694193710"/>
    <nd ref="694193711"/>
    <nd ref="694193712"/>
    <nd ref="109483615"/>
    <tag k="name" v="Columbia"/>
    <tag k="old_name" v="Seaboard System Railroad"/>
    <tag k="operator" v="CSX Transport"/>
    <tag k="railway" v="rail"/>
    <tag k="tiger:cfcc" v="B11"/>
    <tag k="tiger:county" v="Allendale, SC"/>
    <tag k="tiger:name_base" v="Seaboard System Railroad"/>
    <tag k="tiger:reviewed" v="no"/>
    <tag k="tiger:source" v="tiger_import_dch_v0.6_20070829"/>
    <tag k="tiger:tlid" v="19038434:19038436:19038438:19038830:19038440:19042850:19038564:19038536:19038692:19044480:19044479:19038683:19042853:19038457:19038459:19038461:19038462:19038467:19038468:19038423:19038427:19038429"/>
    <tag k="tiger:upload_uuid" v="bulk_upload.pl-c9ec874b-7956-40d3-900a-464b36fd7003"/>
  </way>
  <way id="55205355" version="4" timestamp="2010-04-13T07:10:23Z" uid="99207" user="Lar Kiesel" changeset="4411087">
    <nd ref="109483543"/>
    <nd ref="109483586"/>
    <nd ref="693975370"/>
    <nd ref="109483590"/>
    <nd ref="693975360"/>
    <nd ref="109483595"/>
    <nd ref="693975364"/>
    <nd ref="109483599"/>
    <nd ref="109483604"/>
    <nd ref="693975367"/>
    <nd ref="109483611"/>
    <nd ref="694193709"/>
    <nd ref="694193710"/>
    <nd ref="694193711"/>
    <nd ref="694193712"/>
    <nd ref="109483615"/>
    <tag k="name" v="CSX Transport"/>
    <tag k="old_name" v="Seaboard System Railroad"/>
    <tag k="operator" v="CSX Transport"/>
    <tag k="railway" v="rail"/>
    <tag k="tiger:cfcc" v="B11"/>
    <tag k="tiger:county" v="Allendale, SC"/>
    <tag k="tiger:name_base" v="Seaboard System Railroad"/>
    <tag k="tiger:reviewed" v="no"/>
    <tag k="tiger:source" v="tiger_import_dch_v0.6_20070829"/>
    <tag k="tiger:tlid" v="19038434:19038436:19038438:19038830:19038440:19042850:19038564:19038536:19038692:19044480:19044479:19038683:19042853:19038457:19038459:19038461:19038462:19038467:19038468:19038423:19038427:19038429"/>
    <tag k="tiger:upload_uuid" v="bulk_upload.pl-c9ec874b-7956-40d3-900a-464b36fd7003"/>
  </way>
  <way id="55205355" version="5" timestamp="2011-12-08T00:00:29Z" uid="207745" user="NE2" changeset="10062024"/>
  <way id="55205072" version="16" timestamp="2012-07-19T22:46:45Z" uid="722137" user="OSMF Redaction Account" changeset="12350895">
    <nd ref="693973248"/>
    <nd ref="693987419"/>
    <nd ref="693987420"/>
    <nd ref="693973249"/>
    <nd ref="693973250"/>
    <nd ref="693973251"/>
    <nd ref="693992724"/>
    <nd ref="694014789"/>
    <nd ref="693992730"/>
    <nd ref="693992733"/>
    <nd ref="693992736"/>
    <nd ref="693993745"/>
    <nd ref="693994906"/>
    <nd ref="693994912"/>
    <nd ref="693994930"/>
    <nd ref="693994932"/>
    <nd ref="693994934"/>
    <nd ref="693994937"/>
    <nd ref="693994939"/>
    <nd ref="693994942"/>
    <nd ref="693994944"/>
    <nd ref="693994946"/>
    <nd ref="693994947"/>
    <nd ref="693994950"/>
    <nd ref="693994953"/>
    <nd ref="693994955"/>
    <nd ref="693994957"/>
    <nd ref="693994959"/>
    <nd ref="693994962"/>
    <nd ref="693994965"/>
    <nd ref="693994968"/>
    <nd ref="693994971"/>
    <nd ref="693994973"/>
    <nd ref="694019012"/>
    <nd ref="694019084"/>
    <nd ref="693994975"/>
    <nd ref="693994976"/>
    <nd ref="693994977"/>
    <nd ref="693994978"/>
    <nd ref="693994979"/>
    <nd ref="693994987"/>
    <nd ref="693994991"/>
    <tag k="foot" v="yes"/>
    <tag k="highway" v="footway"/>
    <tag k="source" v="nearmap"/>
  </way>
  <way id="55205106" version="5" timestamp="2012-07-19T22:46:49Z" uid="722137" user="OSMF Redaction Account" changeset="12350895">
    <nd ref="527842747"/>
    <nd ref="693972474"/>
    <nd ref="693972416"/>
    <nd ref="693972475"/>
    <tag k="highway" v="residential"/>
    <tag k="maxspeed" v="50"/>
    <tag k="name" v="Beverley Street"/>
    <tag k="oneway" v="yes"/>
    <tag k="source" v="nearmap"/>
  </way>
  <way id="55205107" version="4" timestamp="2012-07-19T22:46:49Z" uid="722137" user="OSMF Redaction Account" changeset="12350895">
    <nd ref="693972417"/>
    <nd ref="693972490"/>
    <nd ref="527842747"/>
    <tag k="highway" v="residential"/>
    <tag k="maxspeed" v="50"/>
    <tag k="name" v="Beverley Street"/>
    <tag k="oneway" v="yes"/>
    <tag k="source" v="nearmap"/>
  </way>
  <way id="55205141" version="4" timestamp="2012-07-19T16:56:49Z" uid="722137" user="OSMF Redaction Account" changeset="12340943"/>
  <way id="55205142" version="4" timestamp="2012-07-19T16:56:50Z" uid="722137" user="OSMF Redaction Account" changeset="12340943"/>
  <way id="55205143" version="4" timestamp="2012-07-19T16:56:51Z" uid="722137" user="OSMF Redaction Account" changeset="12340943"/>
  <way id="55205265" version="2" timestamp="2012-07-19T14:24:04Z" uid="722137" user="OSMF Redaction Account" changeset="12331267"/>
</osm>
