<?xml version='1.0' encoding='UTF-8'?>
<osm version="0.6" generator="libosmium/2.20.0">
  <way id="55206428" version="2" timestamp="2010-05-30T08:35:40Z" uid="4467" user="Rosscoe" changeset="4849462">
    <nd ref="693980955"/>
    <nd ref="758656753"/>
    <tag k="bicycle" v="designated"/>
    <tag k="foot" v="designated"/>
    <tag k="highway" v="cycleway"/>
    <tag k="segregated" v="no"/>
  </way>
  <way id="55206430" version="3" timestamp="2010-07-09T21:43:39Z" uid="74617" user="JohnSmith" changeset="5176956">
    <nd ref="85687221"/>
    <nd ref="695605410"/>
    <tag k="highway" v="residential"/>
    <tag k="maxspeed" v="50"/>
    <tag k="maxspeed:source" v="default residential speed limit in Australia"/>
    <tag k="name" v="Blackbutt Road"/>
  </way>
  <way id="55206430" version="4" timestamp="2012-01-20T05:43:20Z" uid="147510" user="woodpeck_fixbot" changeset="10443281">
    <nd ref="85687221"/>
    <nd ref="695605410"/>
    <tag k="highway" v="residential"/>
    <tag k="name" v="Blackbutt Road"/>
  </way>
  <way id="55206431" version="2" timestamp="2010-07-09T21:44:36Z" uid="74617" user="JohnSmith" changeset="5176956">
    <nd ref="85687624"/>
    <nd ref="402539849"/>
    <tag k="highway" v="residential"/>
    <tag k="maxspeed" v="50"/>
    <tag k="maxspeed:source" v="default residential speed limit in Australia"/>
    <tag k="name" v="Hakea Road"/>
  </way>
  <way id="55206431" version="3" timestamp="2012-01-20T05:43:21Z" uid="147510" user="woodpeck_fixbot" changeset="10443281">
    <nd ref="85687624"/>
    <nd ref="402539849"/>
    <tag k="highway" v="residential"/>
    <tag k="name" v="Hakea Road"/>
  </way>
  <way id="55206432" version="2" timestamp="2010-07-09T21:41:23Z" uid="74617" user="JohnSmith" changeset="5176956">
    <nd ref="693980976"/>
    <nd ref="693980980"/>
    <tag k="highway" v="residential"/>
    <tag k="maxspeed" v="50"/>
    <tag k="maxspeed:source" v="default residential speed limit in Australia"/>
    <tag k="name" v="Bowra Avenue"/>
  </way>
  <way id="55206432" version="3" timestamp="2012-01-20T05:43:23Z" uid="147510" user="woodpeck_fixbot" changeset="10443281">
    <nd ref="693980976"/>
    <nd ref="693980980"/>
    <tag k="highway" v="residential"/>
    <tag k="name" v="Bowra Avenue"/>
  </way>
  <way id="55206433" version="2" timestamp="2010-07-09T21:42:06Z" uid="74617" user="JohnSmith" changeset="5176956">
    <nd ref="359726052"/>
    <nd ref="693980973"/>
    <tag k="highway" v="residential"/>
    <tag k="maxspeed" v="50"/>
    <tag k="maxspeed:source" v="default residential speed limit in Australia"/>
    <tag k="name" v="Wotan Street"/>
  </way>
  <way id="55206433" version="3" timestamp="2012-01-20T05:43:24Z" uid="147510" user="woodpeck_fixbot" changeset="10443281">
    <nd ref="359726052"/>
    <nd ref="693980973"/>
    <tag k="highway" v="residential"/>
    <tag k="name" v="Wotan Street"/>
  </way>
  <way id="55206434" version="2" timestamp="2010-07-09T21:43:21Z" uid="74617" user="JohnSmith" changeset="5176956">
    <nd ref="693980982"/>
    <nd ref="693980981"/>
    <tag k="highway" v="residential"/>
    <tag k="maxspeed" v="50"/>
    <tag k="maxspeed:source" v="default residential speed limit in Australia"/>
    <tag k="name" v="Wotan Street"/>
  </way>
  <way id="55206434" version="3" timestamp="2012-01-20T05:43:25Z" uid="147510" user="woodpeck_fixbot" changeset="10443281">
    <nd ref="693980982"/>
    <nd ref="693980981"/>
    <tag k="highway" v="residential"/>
    <tag k="name" v="Wotan Street"/>
  </way>
  <way id="55206428" version="3" timestamp="2012-07-19T13:03:41Z" uid="722137" user="OSMF Redaction Account" changeset="12327845"/>
  <way id="55206430" version="5" timestamp="2012-07-19T13:03:29Z" uid="722137" user="OSMF Redaction Account" changeset="12327845"/>
  <way id="55206431" version="4" timestamp="2012-07-19T13:03:28Z" uid="722137" user="OSMF Redaction Account" changeset="12327845"/>
  <way id="55206432" version="4" timestamp="2012-07-20T13:51:35Z" uid="57380" user="JennyH" changeset="12373158">
    <nd ref="1832060325"/>
    <nd ref="693980976"/>
    <nd ref="693980980"/>
    <tag k="highway" v="residential"/>
    <tag k="name" v="Bowra Avenue"/>
  </way>
  <way id="55206432" version="5" timestamp="2012-08-23T21:45:56Z" uid="418724" user="wintersportler" changeset="12838624">
    <nd ref="1832060325"/>
    <nd ref="693980976"/>
    <nd ref="693980980"/>
    <nd ref="1880070111"/>
    <tag k="highway" v="residential"/>
    <tag k="name" v="Bowra Avenue"/>
  </way>
</osm>
