<?xml version='1.0' encoding='UTF-8'?>
<osm version="0.6" generator="libosmium/2.20.0">
  <way id="55361290" version="2" timestamp="2010-07-09T07:52:00Z" uid="74617" user="JohnSmith" changeset="5171569">
    <nd ref="420550612"/>
    <nd ref="420550613"/>
    <nd ref="420550614"/>
    <nd ref="420550615"/>
    <nd ref="420550616"/>
    <nd ref="420550617"/>
    <nd ref="420550618"/>
    <nd ref="420550619"/>
    <nd ref="420550599"/>
    <tag k="highway" v="residential"/>
    <tag k="maxspeed" v="50"/>
    <tag k="maxspeed:source" v="default residential speed limit in Australia"/>
    <tag k="name" v="Fleetwood Circuit"/>
    <tag k="source" v="Yahoo"/>
    <tag k="source:name" v="photograph"/>
  </way>
  <way id="55361290" version="3" timestamp="2012-01-20T05:51:11Z" uid="147510" user="woodpeck_fixbot" changeset="10443281">
    <nd ref="420550612"/>
    <nd ref="420550613"/>
    <nd ref="420550614"/>
    <nd ref="420550615"/>
    <nd ref="420550616"/>
    <nd ref="420550617"/>
    <nd ref="420550618"/>
    <nd ref="420550619"/>
    <nd ref="420550599"/>
    <tag k="highway" v="residential"/>
    <tag k="name" v="Fleetwood Circuit"/>
    <tag k="source" v="Yahoo"/>
    <tag k="source:name" v="photograph"/>
  </way>
  <way id="55361291" version="2" timestamp="2010-07-09T07:49:53Z" uid="74617" user="JohnSmith" changeset="5171569">
    <nd ref="420550604"/>
    <nd ref="420550605"/>
    <nd ref="420550606"/>
    <nd ref="420550607"/>
    <nd ref="420550608"/>
    <nd ref="420550556"/>
    <tag k="highway" v="residential"/>
    <tag k="maxspeed" v="50"/>
    <tag k="maxspeed:source" v="default residential speed limit in Australia"/>
    <tag k="name" v="Monterey Drive"/>
    <tag k="source" v="Yahoo"/>
    <tag k="source:name" v="photograph"/>
  </way>
  <way id="55361291" version="3" timestamp="2012-01-20T05:51:13Z" uid="147510" user="woodpeck_fixbot" changeset="10443281">
    <nd ref="420550604"/>
    <nd ref="420550605"/>
    <nd ref="420550606"/>
    <nd ref="420550607"/>
    <nd ref="420550608"/>
    <nd ref="420550556"/>
    <tag k="highway" v="residential"/>
    <tag k="name" v="Monterey Drive"/>
    <tag k="source" v="Yahoo"/>
    <tag k="source:name" v="photograph"/>
  </way>
  <way id="55361294" version="2" timestamp="2010-07-09T22:14:37Z" uid="74617" user="JohnSmith" changeset="5176956">
    <nd ref="278869374"/>
    <nd ref="278869411"/>
    <nd ref="278869462"/>
    <nd ref="278869427"/>
    <nd ref="278869375"/>
    <nd ref="278869376"/>
    <nd ref="278869377"/>
    <nd ref="278869355"/>
    <nd ref="278869378"/>
    <nd ref="278869418"/>
    <nd ref="278869379"/>
    <tag k="highway" v="residential"/>
    <tag k="maxspeed" v="50"/>
    <tag k="maxspeed:source" v="default residential speed limit in Australia"/>
    <tag k="name" v="Ardrossan Loop"/>
  </way>
  <way id="55361294" version="3" timestamp="2012-01-20T05:51:15Z" uid="147510" user="woodpeck_fixbot" changeset="10443281">
    <nd ref="278869374"/>
    <nd ref="278869411"/>
    <nd ref="278869462"/>
    <nd ref="278869427"/>
    <nd ref="278869375"/>
    <nd ref="278869376"/>
    <nd ref="278869377"/>
    <nd ref="278869355"/>
    <nd ref="278869378"/>
    <nd ref="278869418"/>
    <nd ref="278869379"/>
    <tag k="highway" v="residential"/>
    <tag k="name" v="Ardrossan Loop"/>
  </way>
  <way id="55361295" version="2" timestamp="2010-07-09T22:11:56Z" uid="74617" user="JohnSmith" changeset="5176956">
    <nd ref="695556806"/>
    <nd ref="278869374"/>
    <tag k="highway" v="residential"/>
    <tag k="maxspeed" v="50"/>
    <tag k="maxspeed:source" v="default residential speed limit in Australia"/>
    <tag k="name" v="Ardrossan Loop"/>
  </way>
  <way id="55361295" version="3" timestamp="2012-01-20T05:51:16Z" uid="147510" user="woodpeck_fixbot" changeset="10443281">
    <nd ref="695556806"/>
    <nd ref="278869374"/>
    <tag k="highway" v="residential"/>
    <tag k="name" v="Ardrossan Loop"/>
  </way>
</osm>
