<?xml version='1.0' encoding='UTF-8'?>
<osm version="0.6" generator="libosmium/2.20.0">
  <way id="55371328" version="2" timestamp="2010-10-05T01:33:11Z" uid="20587" user="balrog-kun" changeset="5958352">
    <nd ref="695649757"/>
    <nd ref="695645237"/>
    <nd ref="695648280"/>
    <nd ref="695649761"/>
    <nd ref="695645989"/>
    <nd ref="695645342"/>
    <nd ref="695649763"/>
    <nd ref="695649766"/>
    <nd ref="695649757"/>
    <tag k="landuse" v="residential"/>
    <tag k="name" v="Osiedle Sportowe"/>
  </way>
  <way id="55371410" version="1" timestamp="2010-04-13T18:20:12Z" uid="33382" user="de_muur" changeset="4416307">
    <nd ref="297039410"/>
    <nd ref="344894196"/>
    <nd ref="88990885"/>
    <nd ref="88990886"/>
    <nd ref="88990887"/>
    <nd ref="687017361"/>
    <tag k="cycleway" v="track"/>
    <tag k="highway" v="tertiary"/>
    <tag k="maxspeed" v="70"/>
    <tag k="name" v="Härsenstraße"/>
    <tag k="ref" v="K 8"/>
    <tag k="surface" v="paved"/>
  </way>
  <way id="55371410" version="2" timestamp="2010-05-25T13:40:23Z" uid="35574" user="Schorse" changeset="4803763">
    <nd ref="297039410"/>
    <nd ref="344894196"/>
    <nd ref="88990885"/>
    <nd ref="88990886"/>
    <nd ref="88990887"/>
    <nd ref="687017361"/>
    <tag k="bicycle" v="designated"/>
    <tag k="cycleway" v="track"/>
    <tag k="foot" v="designated"/>
    <tag k="highway" v="tertiary"/>
    <tag k="maxspeed" v="70"/>
    <tag k="name" v="Härsenstraße"/>
    <tag k="ref" v="K 8"/>
    <tag k="surface" v="paved"/>
  </way>
  <way id="55371410" version="3" timestamp="2011-08-23T10:10:49Z" uid="57645" user="KartoGrapHiti" changeset="9102055">
    <nd ref="297039410"/>
    <nd ref="344894196"/>
    <nd ref="88990885"/>
    <nd ref="88990886"/>
    <nd ref="88990887"/>
    <nd ref="687017361"/>
    <tag k="bicycle" v="designated"/>
    <tag k="cycleway" v="track"/>
    <tag k="foot" v="designated"/>
    <tag k="highway" v="tertiary"/>
    <tag k="maxspeed" v="70"/>
    <tag k="name" v="Härsenstraße"/>
    <tag k="ref" v="K 8"/>
    <tag k="surface" v="asphalt"/>
  </way>
  <way id="55371410" version="4" timestamp="2012-01-27T19:17:42Z" uid="57645" user="KartoGrapHiti" changeset="10515398">
    <nd ref="297039410"/>
    <nd ref="344894196"/>
    <nd ref="88990885"/>
    <nd ref="88990886"/>
    <nd ref="88990887"/>
    <nd ref="687017361"/>
    <tag k="highway" v="tertiary"/>
    <tag k="maxspeed" v="70"/>
    <tag k="name" v="Härsenstraße"/>
    <tag k="ref" v="K 8"/>
    <tag k="surface" v="asphalt"/>
  </way>
  <way id="55371410" version="5" timestamp="2012-03-06T18:05:42Z" uid="57645" user="KartoGrapHiti" changeset="10892737"/>
  <way id="55371412" version="1" timestamp="2010-04-13T18:20:12Z" uid="33382" user="de_muur" changeset="4416307">
    <nd ref="271668520"/>
    <nd ref="297039410"/>
    <tag k="cycleway" v="track"/>
    <tag k="highway" v="tertiary"/>
    <tag k="maxspeed" v="70"/>
    <tag k="name" v="Härsenstraße"/>
    <tag k="ref" v="K 8"/>
    <tag k="surface" v="paved"/>
  </way>
  <way id="55371412" version="2" timestamp="2010-05-25T13:41:14Z" uid="35574" user="Schorse" changeset="4803763">
    <nd ref="271668520"/>
    <nd ref="297039410"/>
    <tag k="bicycle" v="designated"/>
    <tag k="cycleway" v="track"/>
    <tag k="foot" v="designated"/>
    <tag k="highway" v="tertiary"/>
    <tag k="maxspeed" v="70"/>
    <tag k="name" v="Härsenstraße"/>
    <tag k="ref" v="K 8"/>
    <tag k="surface" v="paved"/>
  </way>
  <way id="55371412" version="3" timestamp="2011-12-27T13:31:41Z" uid="57645" user="KartoGrapHiti" changeset="10215695">
    <nd ref="271668520"/>
    <nd ref="297039410"/>
    <tag k="bicycle" v="designated"/>
    <tag k="cycleway" v="track"/>
    <tag k="foot" v="designated"/>
    <tag k="highway" v="tertiary"/>
    <tag k="lit" v="limited"/>
    <tag k="maxspeed" v="70"/>
    <tag k="name" v="Härsenstraße"/>
    <tag k="ref" v="K 8"/>
    <tag k="surface" v="paved"/>
  </way>
  <way id="55371412" version="4" timestamp="2012-01-27T19:17:40Z" uid="57645" user="KartoGrapHiti" changeset="10515398">
    <nd ref="271668520"/>
    <nd ref="297039410"/>
    <tag k="highway" v="tertiary"/>
    <tag k="lit" v="limited"/>
    <tag k="maxspeed" v="70"/>
    <tag k="name" v="Härsenstraße"/>
    <tag k="ref" v="K 8"/>
    <tag k="surface" v="paved"/>
  </way>
  <way id="55371412" version="5" timestamp="2012-03-06T18:05:43Z" uid="57645" user="KartoGrapHiti" changeset="10892737"/>
  <way id="55371414" version="1" timestamp="2010-04-13T18:20:12Z" uid="33382" user="de_muur" changeset="4416307">
    <nd ref="449493735"/>
    <nd ref="271668519"/>
    <nd ref="600862908"/>
    <nd ref="88990884"/>
    <nd ref="271668520"/>
    <tag k="cycleway" v="track"/>
    <tag k="highway" v="tertiary"/>
    <tag k="maxspeed" v="70"/>
    <tag k="name" v="Härsenstraße"/>
    <tag k="ref" v="K 8"/>
    <tag k="surface" v="paved"/>
  </way>
  <way id="55371414" version="2" timestamp="2010-05-25T13:41:39Z" uid="35574" user="Schorse" changeset="4803763">
    <nd ref="449493735"/>
    <nd ref="271668519"/>
    <nd ref="600862908"/>
    <nd ref="88990884"/>
    <nd ref="271668520"/>
    <tag k="bicycle" v="designated"/>
    <tag k="cycleway" v="track"/>
    <tag k="foot" v="designated"/>
    <tag k="highway" v="tertiary"/>
    <tag k="maxspeed" v="70"/>
    <tag k="name" v="Härsenstraße"/>
    <tag k="ref" v="K 8"/>
    <tag k="surface" v="paved"/>
  </way>
  <way id="55371414" version="3" timestamp="2010-06-18T20:04:46Z" uid="33382" user="de_muur" changeset="5019099">
    <nd ref="449493735"/>
    <nd ref="271668519"/>
    <nd ref="600862908"/>
    <nd ref="88990884"/>
    <nd ref="271668520"/>
    <tag k="cycleway" v="track"/>
    <tag k="highway" v="tertiary"/>
    <tag k="maxspeed" v="70"/>
    <tag k="name" v="Härsenstraße"/>
    <tag k="ref" v="K 8"/>
    <tag k="surface" v="paved"/>
  </way>
  <way id="55371414" version="4" timestamp="2011-12-27T13:31:42Z" uid="57645" user="KartoGrapHiti" changeset="10215695">
    <nd ref="449493735"/>
    <nd ref="1563557622"/>
    <nd ref="271668519"/>
    <nd ref="600862908"/>
    <nd ref="88990884"/>
    <nd ref="271668520"/>
    <tag k="cycleway" v="track"/>
    <tag k="highway" v="tertiary"/>
    <tag k="lit" v="limited"/>
    <tag k="maxspeed" v="70"/>
    <tag k="name" v="Härsenstraße"/>
    <tag k="ref" v="K 8"/>
    <tag k="surface" v="paved"/>
  </way>
  <way id="55371414" version="5" timestamp="2012-01-27T19:17:40Z" uid="57645" user="KartoGrapHiti" changeset="10515398">
    <nd ref="449493735"/>
    <nd ref="1563557622"/>
    <tag k="highway" v="tertiary"/>
    <tag k="lit" v="limited"/>
    <tag k="maxspeed" v="70"/>
    <tag k="name" v="Härsenstraße"/>
    <tag k="ref" v="K 8"/>
    <tag k="surface" v="paved"/>
  </way>
  <way id="55371576" version="1" timestamp="2010-04-13T18:20:24Z" uid="74617" user="JohnSmith" changeset="4416222">
    <nd ref="695650023"/>
    <nd ref="313853652"/>
    <nd ref="695650003"/>
    <nd ref="695650004"/>
    <nd ref="313853653"/>
    <nd ref="695641951"/>
    <nd ref="695641955"/>
    <tag k="highway" v="primary"/>
  </way>
  <way id="55371579" version="1" timestamp="2010-04-13T18:20:24Z" uid="74617" user="JohnSmith" changeset="4416222">
    <nd ref="695649997"/>
    <nd ref="313853648"/>
    <nd ref="313853647"/>
    <nd ref="313853646"/>
    <nd ref="313853645"/>
    <nd ref="313853644"/>
    <nd ref="313853643"/>
    <nd ref="313853642"/>
    <nd ref="313853641"/>
    <nd ref="461510218"/>
    <tag k="highway" v="primary"/>
  </way>
  <way id="55371579" version="2" timestamp="2010-04-13T18:47:17Z" uid="74617" user="JohnSmith" changeset="4416222">
    <nd ref="695649997"/>
    <nd ref="313853648"/>
    <nd ref="695666908"/>
    <nd ref="695666907"/>
    <nd ref="695666909"/>
    <nd ref="695666906"/>
    <nd ref="695666910"/>
    <nd ref="313853647"/>
    <nd ref="695666911"/>
    <nd ref="695666903"/>
    <nd ref="695666902"/>
    <nd ref="313853646"/>
    <nd ref="313853645"/>
    <nd ref="313853644"/>
    <nd ref="313853643"/>
    <nd ref="313853642"/>
    <nd ref="313853641"/>
    <nd ref="461510218"/>
    <tag k="highway" v="primary"/>
  </way>
  <way id="55371581" version="1" timestamp="2010-04-13T18:20:24Z" uid="74617" user="JohnSmith" changeset="4416222">
    <nd ref="695650023"/>
    <nd ref="386613821"/>
    <nd ref="313853651"/>
    <nd ref="695650017"/>
    <nd ref="695650030"/>
    <nd ref="695650031"/>
    <nd ref="695650029"/>
    <nd ref="313853650"/>
    <nd ref="695650006"/>
    <nd ref="695650005"/>
    <nd ref="313853649"/>
    <nd ref="695649997"/>
    <tag k="highway" v="primary"/>
    <tag k="oneway" v="yes"/>
    <tag k="source" v="nearmap"/>
  </way>
  <way id="55371584" version="1" timestamp="2010-04-13T18:20:24Z" uid="74617" user="JohnSmith" changeset="4416222">
    <nd ref="386613821"/>
    <nd ref="695650025"/>
    <nd ref="695650026"/>
    <nd ref="695650027"/>
    <nd ref="695650014"/>
    <nd ref="695650015"/>
    <nd ref="695650016"/>
    <nd ref="695650013"/>
    <nd ref="695650000"/>
    <nd ref="695650001"/>
    <nd ref="695650002"/>
    <nd ref="695649999"/>
    <nd ref="695649998"/>
    <nd ref="695641651"/>
    <tag k="highway" v="residential"/>
    <tag k="maxspeed" v="50"/>
    <tag k="oneway" v="yes"/>
    <tag k="source" v="nearmap"/>
  </way>
  <way id="55371414" version="6" timestamp="2012-07-18T14:43:30Z" uid="722137" user="OSMF Redaction Account" changeset="12285520"/>
  <way id="55371576" version="2" timestamp="2012-07-19T14:42:36Z" uid="722137" user="OSMF Redaction Account" changeset="12331843"/>
  <way id="55371579" version="3" timestamp="2012-05-09T22:20:50Z" uid="143129" user="petersfreeman" changeset="11554162">
    <nd ref="695649997"/>
    <nd ref="313853648"/>
    <nd ref="695666908"/>
    <nd ref="695666907"/>
    <nd ref="695666909"/>
    <nd ref="695666906"/>
    <nd ref="695666910"/>
    <nd ref="313853647"/>
    <nd ref="695666911"/>
    <nd ref="695666903"/>
    <nd ref="695666902"/>
    <nd ref="313853646"/>
    <nd ref="313853645"/>
    <nd ref="313853644"/>
    <nd ref="313853643"/>
    <nd ref="1747143052"/>
    <tag k="highway" v="primary"/>
    <tag k="name" v="Eenie Creek Road"/>
  </way>
  <way id="55371579" version="4" timestamp="2012-07-19T14:42:37Z" uid="722137" user="OSMF Redaction Account" changeset="12331843"/>
  <way id="55371581" version="2" timestamp="2012-07-19T14:42:36Z" uid="722137" user="OSMF Redaction Account" changeset="12331843"/>
  <way id="55371584" version="2" timestamp="2012-07-19T14:42:36Z" uid="722137" user="OSMF Redaction Account" changeset="12331843"/>
</osm>
