<?xml version='1.0' encoding='UTF-8'?>
<osm version="0.6" generator="libosmium/2.20.0">
  <way id="55461447" version="1" timestamp="2010-04-14T19:18:57Z" uid="74617" user="JohnSmith" changeset="4425009">
    <nd ref="697025355"/>
    <nd ref="697025356"/>
    <nd ref="697025358"/>
    <nd ref="697025376"/>
    <nd ref="697025378"/>
    <nd ref="697025405"/>
    <nd ref="697025362"/>
    <nd ref="697025365"/>
    <nd ref="697025367"/>
    <nd ref="697025344"/>
    <nd ref="697025347"/>
    <nd ref="697025348"/>
    <nd ref="697025355"/>
    <tag k="building" v="yes"/>
    <tag k="source" v="nearmap"/>
  </way>
  <way id="55461448" version="1" timestamp="2010-04-14T19:18:57Z" uid="74617" user="JohnSmith" changeset="4425009">
    <nd ref="697025338"/>
    <nd ref="697025340"/>
    <nd ref="697025350"/>
    <nd ref="697025351"/>
    <nd ref="697025353"/>
    <nd ref="697025349"/>
    <nd ref="697025342"/>
    <nd ref="697025338"/>
    <tag k="leisure" v="park"/>
    <tag k="source" v="nearmap"/>
  </way>
  <way id="55461449" version="1" timestamp="2010-04-14T19:18:57Z" uid="74617" user="JohnSmith" changeset="4425009">
    <nd ref="697025360"/>
    <nd ref="697025373"/>
    <nd ref="697025408"/>
    <nd ref="697025411"/>
    <nd ref="697025414"/>
    <nd ref="697025370"/>
    <nd ref="697025360"/>
    <tag k="leisure" v="park"/>
    <tag k="source" v="nearmap"/>
  </way>
  <way id="55461825" version="1" timestamp="2010-04-14T19:27:00Z" uid="9581" user="Lobelt" changeset="4425463">
    <nd ref="697027936"/>
    <nd ref="697027866"/>
    <nd ref="697027974"/>
    <nd ref="697027937"/>
    <nd ref="697027936"/>
    <tag k="addr:city" v="Hirschberg-Leutershausen"/>
    <tag k="addr:housenumber" v="15"/>
    <tag k="addr:postcode" v="69493"/>
    <tag k="addr:street" v="Friedrichstraße"/>
    <tag k="building" v="yes"/>
  </way>
  <way id="55461825" version="2" timestamp="2012-01-11T09:22:30Z" uid="442210" user="dwausr" changeset="10358781"/>
  <way id="55461825" version="3" timestamp="2012-03-28T07:32:32Z" uid="442210" user="dwausr" changeset="11123485">
    <nd ref="697027936"/>
    <nd ref="697027866"/>
    <nd ref="697027974"/>
    <nd ref="697027937"/>
    <nd ref="697027936"/>
    <tag k="addr:city" v="Hirschberg-Leutershausen"/>
    <tag k="addr:housenumber" v="15"/>
    <tag k="addr:postcode" v="69493"/>
    <tag k="addr:street" v="Friedrichstraße"/>
    <tag k="building" v="yes"/>
  </way>
  <way id="55461826" version="1" timestamp="2010-04-14T19:27:01Z" uid="9581" user="Lobelt" changeset="4425463">
    <nd ref="33605443"/>
    <nd ref="697027973"/>
    <nd ref="697027846"/>
    <nd ref="697027848"/>
    <nd ref="697027863"/>
    <nd ref="33605443"/>
    <tag k="addr:housenumber" v="19"/>
    <tag k="addr:street" v="Friedrichstraße"/>
    <tag k="building" v="yes"/>
  </way>
  <way id="55461826" version="2" timestamp="2012-01-11T09:22:31Z" uid="442210" user="dwausr" changeset="10358781"/>
  <way id="55461826" version="3" timestamp="2012-03-28T07:34:09Z" uid="442210" user="dwausr" changeset="11123485">
    <nd ref="33605443"/>
    <nd ref="697027973"/>
    <nd ref="697027846"/>
    <nd ref="697027848"/>
    <nd ref="697027863"/>
    <nd ref="33605443"/>
    <tag k="addr:housenumber" v="19"/>
    <tag k="addr:street" v="Friedrichstraße"/>
    <tag k="building" v="yes"/>
  </way>
  <way id="55461827" version="1" timestamp="2010-04-14T19:27:01Z" uid="9581" user="Lobelt" changeset="4425463">
    <nd ref="697027867"/>
    <nd ref="697027807"/>
    <nd ref="697027821"/>
    <nd ref="697027819"/>
    <nd ref="697027879"/>
    <nd ref="697027867"/>
    <tag k="addr:city" v="Hirschberg-Leutershausen"/>
    <tag k="addr:housenumber" v="15"/>
    <tag k="addr:postcode" v="69493"/>
    <tag k="addr:street" v="Fenchelstraße"/>
    <tag k="building" v="yes"/>
  </way>
  <way id="55461827" version="2" timestamp="2012-01-11T09:22:29Z" uid="442210" user="dwausr" changeset="10358781"/>
  <way id="55461827" version="3" timestamp="2012-03-28T07:32:31Z" uid="442210" user="dwausr" changeset="11123485">
    <nd ref="697027867"/>
    <nd ref="697027807"/>
    <nd ref="697027821"/>
    <nd ref="697027819"/>
    <nd ref="697027879"/>
    <nd ref="697027867"/>
    <tag k="addr:city" v="Hirschberg-Leutershausen"/>
    <tag k="addr:housenumber" v="15"/>
    <tag k="addr:postcode" v="69493"/>
    <tag k="addr:street" v="Fenchelstraße"/>
    <tag k="building" v="yes"/>
  </way>
  <way id="55461828" version="1" timestamp="2010-04-14T19:27:01Z" uid="9581" user="Lobelt" changeset="4425463">
    <nd ref="697027935"/>
    <nd ref="697027865"/>
    <nd ref="697027858"/>
    <nd ref="697027923"/>
    <nd ref="697027935"/>
    <tag k="building" v="yes"/>
  </way>
  <way id="55461828" version="2" timestamp="2012-01-11T09:22:47Z" uid="442210" user="dwausr" changeset="10358781"/>
  <way id="55461828" version="3" timestamp="2012-03-28T07:18:17Z" uid="442210" user="dwausr" changeset="11123485">
    <nd ref="697027935"/>
    <nd ref="697027865"/>
    <nd ref="697027858"/>
    <nd ref="697027923"/>
    <nd ref="697027935"/>
    <tag k="building" v="yes"/>
  </way>
  <way id="55461829" version="1" timestamp="2010-04-14T19:27:01Z" uid="9581" user="Lobelt" changeset="4425463">
    <nd ref="697027829"/>
    <nd ref="697027830"/>
    <nd ref="697027810"/>
    <nd ref="697027811"/>
    <nd ref="697027829"/>
    <tag k="addr:city" v="Hirschberg-Leutershausen"/>
    <tag k="addr:housenumber" v="7"/>
    <tag k="addr:postcode" v="69493"/>
    <tag k="addr:street" v="Mozartstraße"/>
    <tag k="building" v="yes"/>
  </way>
  <way id="55461829" version="2" timestamp="2012-01-11T09:22:39Z" uid="442210" user="dwausr" changeset="10358781"/>
  <way id="55461829" version="3" timestamp="2012-03-28T07:39:14Z" uid="442210" user="dwausr" changeset="11123485">
    <nd ref="697027829"/>
    <nd ref="697027830"/>
    <nd ref="697027810"/>
    <nd ref="697027811"/>
    <nd ref="697027829"/>
    <tag k="addr:city" v="Hirschberg-Leutershausen"/>
    <tag k="addr:housenumber" v="7"/>
    <tag k="addr:postcode" v="69493"/>
    <tag k="addr:street" v="Mozartstraße"/>
    <tag k="building" v="yes"/>
  </way>
  <way id="55461830" version="1" timestamp="2010-04-14T19:27:01Z" uid="9581" user="Lobelt" changeset="4425463">
    <nd ref="697027822"/>
    <nd ref="697027810"/>
    <nd ref="697027812"/>
    <nd ref="697027823"/>
    <nd ref="697027822"/>
    <tag k="building" v="yes"/>
  </way>
  <way id="55461830" version="2" timestamp="2012-01-11T09:22:47Z" uid="442210" user="dwausr" changeset="10358781"/>
  <way id="55461830" version="3" timestamp="2012-03-28T07:18:17Z" uid="442210" user="dwausr" changeset="11123485">
    <nd ref="697027822"/>
    <nd ref="697027810"/>
    <nd ref="697027812"/>
    <nd ref="697027823"/>
    <nd ref="697027822"/>
    <tag k="building" v="yes"/>
  </way>
  <way id="55461831" version="1" timestamp="2010-04-14T19:27:01Z" uid="9581" user="Lobelt" changeset="4425463">
    <nd ref="697027813"/>
    <nd ref="697027808"/>
    <nd ref="697027815"/>
    <nd ref="697027816"/>
    <nd ref="697027809"/>
    <nd ref="697027814"/>
    <nd ref="697027813"/>
    <tag k="addr:city" v="Hirschberg"/>
    <tag k="addr:housenumber" v="13"/>
    <tag k="addr:postcode" v="69493"/>
    <tag k="addr:street" v="Fenchelstraße"/>
    <tag k="building" v="yes"/>
    <tag k="postal_code" v="69493"/>
  </way>
  <way id="55461831" version="2" timestamp="2012-01-11T09:22:27Z" uid="442210" user="dwausr" changeset="10358781"/>
  <way id="55461831" version="3" timestamp="2012-03-28T07:31:54Z" uid="442210" user="dwausr" changeset="11123485">
    <nd ref="697027813"/>
    <nd ref="697027808"/>
    <nd ref="697027815"/>
    <nd ref="697027816"/>
    <nd ref="697027809"/>
    <nd ref="697027814"/>
    <nd ref="697027813"/>
    <tag k="addr:city" v="Hirschberg"/>
    <tag k="addr:housenumber" v="13"/>
    <tag k="addr:postcode" v="69493"/>
    <tag k="addr:street" v="Fenchelstraße"/>
    <tag k="building" v="yes"/>
    <tag k="postal_code" v="69493"/>
  </way>
  <way id="55461832" version="1" timestamp="2010-04-14T19:27:02Z" uid="9581" user="Lobelt" changeset="4425463">
    <nd ref="697027824"/>
    <nd ref="697027825"/>
    <nd ref="697027820"/>
    <nd ref="697027818"/>
    <nd ref="697027817"/>
    <nd ref="697027824"/>
    <tag k="addr:city" v="Hirschberg-Leutershausen"/>
    <tag k="addr:housenumber" v="13a"/>
    <tag k="addr:postcode" v="69493"/>
    <tag k="addr:street" v="Fenchelstraße"/>
    <tag k="building" v="yes"/>
  </way>
  <way id="55461832" version="2" timestamp="2012-01-11T09:22:29Z" uid="442210" user="dwausr" changeset="10358781"/>
  <way id="55461832" version="3" timestamp="2012-03-28T07:32:07Z" uid="442210" user="dwausr" changeset="11123485">
    <nd ref="697027824"/>
    <nd ref="697027825"/>
    <nd ref="697027820"/>
    <nd ref="697027818"/>
    <nd ref="697027817"/>
    <nd ref="697027824"/>
    <tag k="addr:city" v="Hirschberg-Leutershausen"/>
    <tag k="addr:housenumber" v="13a"/>
    <tag k="addr:postcode" v="69493"/>
    <tag k="addr:street" v="Fenchelstraße"/>
    <tag k="building" v="yes"/>
  </way>
  <way id="55461833" version="1" timestamp="2010-04-14T19:27:02Z" uid="9581" user="Lobelt" changeset="4425463">
    <nd ref="697027864"/>
    <nd ref="697027849"/>
    <nd ref="697027847"/>
    <nd ref="697027840"/>
    <nd ref="697027855"/>
    <nd ref="697027864"/>
    <tag k="building" v="yes"/>
  </way>
  <way id="55461833" version="2" timestamp="2012-01-11T09:22:47Z" uid="442210" user="dwausr" changeset="10358781"/>
  <way id="55461833" version="3" timestamp="2012-03-28T07:23:04Z" uid="442210" user="dwausr" changeset="11123485">
    <nd ref="697027864"/>
    <nd ref="697027849"/>
    <nd ref="697027847"/>
    <nd ref="697027840"/>
    <nd ref="697027855"/>
    <nd ref="697027864"/>
    <tag k="building" v="yes"/>
  </way>
  <way id="55461834" version="1" timestamp="2010-04-14T19:27:02Z" uid="9581" user="Lobelt" changeset="4425463">
    <nd ref="697027863"/>
    <nd ref="697027848"/>
    <nd ref="697027849"/>
    <nd ref="697027864"/>
    <nd ref="697027863"/>
    <tag k="building" v="yes"/>
  </way>
  <way id="55461834" version="2" timestamp="2012-01-11T09:22:47Z" uid="442210" user="dwausr" changeset="10358781"/>
  <way id="55461834" version="3" timestamp="2012-03-28T07:18:18Z" uid="442210" user="dwausr" changeset="11123485">
    <nd ref="697027863"/>
    <nd ref="697027848"/>
    <nd ref="697027849"/>
    <nd ref="697027864"/>
    <nd ref="697027863"/>
    <tag k="building" v="yes"/>
  </way>
  <way id="55461835" version="1" timestamp="2010-04-14T19:27:02Z" uid="9581" user="Lobelt" changeset="4425463">
    <nd ref="697027840"/>
    <nd ref="697027841"/>
    <nd ref="697027843"/>
    <nd ref="697027842"/>
    <nd ref="697027854"/>
    <nd ref="697027855"/>
    <nd ref="697027840"/>
    <tag k="building" v="yes"/>
  </way>
  <way id="55461835" version="2" timestamp="2012-01-11T09:22:47Z" uid="442210" user="dwausr" changeset="10358781"/>
  <way id="55461835" version="3" timestamp="2012-03-28T07:25:37Z" uid="442210" user="dwausr" changeset="11123485">
    <nd ref="697027840"/>
    <nd ref="697027841"/>
    <nd ref="697027843"/>
    <nd ref="697027842"/>
    <nd ref="697027854"/>
    <nd ref="697027855"/>
    <nd ref="697027840"/>
    <tag k="building" v="yes"/>
  </way>
  <way id="55461836" version="1" timestamp="2010-04-14T19:27:02Z" uid="9581" user="Lobelt" changeset="4425463">
    <nd ref="697027843"/>
    <nd ref="697027844"/>
    <nd ref="697027845"/>
    <nd ref="697027842"/>
    <nd ref="697027843"/>
    <tag k="building" v="yes"/>
  </way>
  <way id="55461836" version="2" timestamp="2012-01-11T09:22:48Z" uid="442210" user="dwausr" changeset="10358781"/>
  <way id="55461836" version="3" timestamp="2012-03-28T07:18:18Z" uid="442210" user="dwausr" changeset="11123485">
    <nd ref="697027843"/>
    <nd ref="697027844"/>
    <nd ref="697027845"/>
    <nd ref="697027842"/>
    <nd ref="697027843"/>
    <tag k="building" v="yes"/>
  </way>
  <way id="55461837" version="1" timestamp="2010-04-14T19:27:02Z" uid="9581" user="Lobelt" changeset="4425463">
    <nd ref="697027856"/>
    <nd ref="697027854"/>
    <nd ref="697027842"/>
    <nd ref="697027845"/>
    <nd ref="697027857"/>
    <nd ref="697027856"/>
    <tag k="building" v="yes"/>
  </way>
  <way id="55461837" version="2" timestamp="2012-01-11T09:22:48Z" uid="442210" user="dwausr" changeset="10358781"/>
  <way id="55461837" version="3" timestamp="2012-03-28T07:23:04Z" uid="442210" user="dwausr" changeset="11123485">
    <nd ref="697027856"/>
    <nd ref="697027854"/>
    <nd ref="697027842"/>
    <nd ref="697027845"/>
    <nd ref="697027857"/>
    <nd ref="697027856"/>
    <tag k="building" v="yes"/>
  </way>
  <way id="55461838" version="1" timestamp="2010-04-14T19:27:02Z" uid="9581" user="Lobelt" changeset="4425463">
    <nd ref="697027831"/>
    <nd ref="697027839"/>
    <nd ref="697027826"/>
    <nd ref="697027833"/>
    <nd ref="697027831"/>
    <tag k="addr:city" v="Hirschberg-Leutershausen"/>
    <tag k="addr:housenumber" v="3"/>
    <tag k="addr:postcode" v="69493"/>
    <tag k="addr:street" v="Mozartstraße"/>
    <tag k="building" v="yes"/>
  </way>
  <way id="55461838" version="2" timestamp="2012-01-11T09:22:35Z" uid="442210" user="dwausr" changeset="10358781"/>
  <way id="55461838" version="3" timestamp="2012-03-28T07:36:14Z" uid="442210" user="dwausr" changeset="11123485">
    <nd ref="697027831"/>
    <nd ref="697027839"/>
    <nd ref="697027826"/>
    <nd ref="697027833"/>
    <nd ref="697027831"/>
    <tag k="addr:city" v="Hirschberg-Leutershausen"/>
    <tag k="addr:housenumber" v="3"/>
    <tag k="addr:postcode" v="69493"/>
    <tag k="addr:street" v="Mozartstraße"/>
    <tag k="building" v="yes"/>
  </way>
  <way id="55461839" version="1" timestamp="2010-04-14T19:27:02Z" uid="9581" user="Lobelt" changeset="4425463">
    <nd ref="697027831"/>
    <nd ref="697027832"/>
    <nd ref="697027838"/>
    <nd ref="697027839"/>
    <nd ref="697027831"/>
    <tag k="addr:city" v="Hirschberg-Leutershausen"/>
    <tag k="addr:housenumber" v="1"/>
    <tag k="addr:postcode" v="69493"/>
    <tag k="addr:street" v="Mozartstraße"/>
    <tag k="building" v="yes"/>
  </way>
  <way id="55461839" version="2" timestamp="2012-01-11T09:22:26Z" uid="442210" user="dwausr" changeset="10358781"/>
  <way id="55461839" version="3" timestamp="2012-03-28T07:30:32Z" uid="442210" user="dwausr" changeset="11123485">
    <nd ref="697027831"/>
    <nd ref="697027832"/>
    <nd ref="697027838"/>
    <nd ref="697027839"/>
    <nd ref="697027831"/>
    <tag k="addr:city" v="Hirschberg-Leutershausen"/>
    <tag k="addr:housenumber" v="1"/>
    <tag k="addr:postcode" v="69493"/>
    <tag k="addr:street" v="Mozartstraße"/>
    <tag k="building" v="yes"/>
  </way>
  <way id="55461840" version="1" timestamp="2010-04-14T19:27:03Z" uid="9581" user="Lobelt" changeset="4425463">
    <nd ref="697027829"/>
    <nd ref="697027828"/>
    <nd ref="697027827"/>
    <nd ref="697027830"/>
    <nd ref="697027829"/>
    <tag k="addr:city" v="Hirschberg-Leutershausen"/>
    <tag k="addr:housenumber" v="5"/>
    <tag k="addr:postcode" v="69493"/>
    <tag k="addr:street" v="Mozartstraße"/>
    <tag k="building" v="yes"/>
  </way>
  <way id="55461840" version="2" timestamp="2012-01-11T09:22:38Z" uid="442210" user="dwausr" changeset="10358781"/>
  <way id="55461840" version="3" timestamp="2012-03-28T07:38:11Z" uid="442210" user="dwausr" changeset="11123485">
    <nd ref="697027829"/>
    <nd ref="697027828"/>
    <nd ref="697027827"/>
    <nd ref="697027830"/>
    <nd ref="697027829"/>
    <tag k="addr:city" v="Hirschberg-Leutershausen"/>
    <tag k="addr:housenumber" v="5"/>
    <tag k="addr:postcode" v="69493"/>
    <tag k="addr:street" v="Mozartstraße"/>
    <tag k="building" v="yes"/>
  </way>
  <way id="55461841" version="1" timestamp="2010-04-14T19:27:03Z" uid="9581" user="Lobelt" changeset="4425463">
    <nd ref="697027834"/>
    <nd ref="697027837"/>
    <nd ref="697027836"/>
    <nd ref="697027835"/>
    <nd ref="697027834"/>
    <tag k="building" v="yes"/>
  </way>
  <way id="55461841" version="2" timestamp="2012-01-11T09:22:48Z" uid="442210" user="dwausr" changeset="10358781"/>
  <way id="55461841" version="3" timestamp="2012-03-28T07:18:19Z" uid="442210" user="dwausr" changeset="11123485">
    <nd ref="697027834"/>
    <nd ref="697027837"/>
    <nd ref="697027836"/>
    <nd ref="697027835"/>
    <nd ref="697027834"/>
    <tag k="building" v="yes"/>
  </way>
  <way id="55461842" version="1" timestamp="2010-04-14T19:27:03Z" uid="9581" user="Lobelt" changeset="4425463">
    <nd ref="697027905"/>
    <nd ref="697027906"/>
    <nd ref="697027947"/>
    <nd ref="697027904"/>
    <nd ref="697027905"/>
    <tag k="addr:city" v="Hirschberg-Leutershausen"/>
    <tag k="addr:housenumber" v="16"/>
    <tag k="addr:postcode" v="69493"/>
    <tag k="addr:street" v="Hölderlinstraße"/>
    <tag k="building" v="yes"/>
  </way>
  <way id="55461842" version="2" timestamp="2012-01-11T09:22:30Z" uid="442210" user="dwausr" changeset="10358781"/>
  <way id="55461842" version="3" timestamp="2012-03-28T07:33:24Z" uid="442210" user="dwausr" changeset="11123485">
    <nd ref="697027905"/>
    <nd ref="697027906"/>
    <nd ref="697027947"/>
    <nd ref="697027904"/>
    <nd ref="697027905"/>
    <tag k="addr:city" v="Hirschberg-Leutershausen"/>
    <tag k="addr:housenumber" v="16"/>
    <tag k="addr:postcode" v="69493"/>
    <tag k="addr:street" v="Hölderlinstraße"/>
    <tag k="building" v="yes"/>
  </way>
  <way id="55461843" version="1" timestamp="2010-04-14T19:27:03Z" uid="9581" user="Lobelt" changeset="4425463">
    <nd ref="697027868"/>
    <nd ref="697027881"/>
    <nd ref="697027884"/>
    <nd ref="697027870"/>
    <nd ref="697027868"/>
    <tag k="addr:city" v="Hirschberg-Leutershausen"/>
    <tag k="addr:housenumber" v="19"/>
    <tag k="addr:postcode" v="69493"/>
    <tag k="addr:street" v="Fenchelstraße"/>
    <tag k="building" v="yes"/>
  </way>
  <way id="55461843" version="2" timestamp="2012-01-11T09:22:31Z" uid="442210" user="dwausr" changeset="10358781"/>
  <way id="55461843" version="3" timestamp="2012-03-28T07:34:08Z" uid="442210" user="dwausr" changeset="11123485">
    <nd ref="697027868"/>
    <nd ref="697027881"/>
    <nd ref="697027884"/>
    <nd ref="697027870"/>
    <nd ref="697027868"/>
    <tag k="addr:city" v="Hirschberg-Leutershausen"/>
    <tag k="addr:housenumber" v="19"/>
    <tag k="addr:postcode" v="69493"/>
    <tag k="addr:street" v="Fenchelstraße"/>
    <tag k="building" v="yes"/>
  </way>
  <way id="55461844" version="1" timestamp="2010-04-14T19:27:03Z" uid="9581" user="Lobelt" changeset="4425463">
    <nd ref="697027868"/>
    <nd ref="697027869"/>
    <nd ref="697027880"/>
    <nd ref="697027881"/>
    <nd ref="697027868"/>
    <tag k="addr:city" v="Hirschberg-Leutershausen"/>
    <tag k="addr:housenumber" v="17"/>
    <tag k="addr:postcode" v="69493"/>
    <tag k="addr:street" v="Fenchelstraße"/>
    <tag k="building" v="yes"/>
  </way>
  <way id="55461844" version="2" timestamp="2012-01-11T09:22:30Z" uid="442210" user="dwausr" changeset="10358781"/>
  <way id="55461844" version="3" timestamp="2012-03-28T07:33:33Z" uid="442210" user="dwausr" changeset="11123485">
    <nd ref="697027868"/>
    <nd ref="697027869"/>
    <nd ref="697027880"/>
    <nd ref="697027881"/>
    <nd ref="697027868"/>
    <tag k="addr:city" v="Hirschberg-Leutershausen"/>
    <tag k="addr:housenumber" v="17"/>
    <tag k="addr:postcode" v="69493"/>
    <tag k="addr:street" v="Fenchelstraße"/>
    <tag k="building" v="yes"/>
  </way>
  <way id="55461845" version="1" timestamp="2010-04-14T19:27:03Z" uid="9581" user="Lobelt" changeset="4425463">
    <nd ref="697027882"/>
    <nd ref="697027885"/>
    <nd ref="697027886"/>
    <nd ref="697027883"/>
    <nd ref="697027882"/>
    <tag k="building" v="yes"/>
  </way>
  <way id="55461845" version="2" timestamp="2012-01-11T09:22:49Z" uid="442210" user="dwausr" changeset="10358781"/>
  <way id="55461845" version="3" timestamp="2012-03-28T07:18:19Z" uid="442210" user="dwausr" changeset="11123485">
    <nd ref="697027882"/>
    <nd ref="697027885"/>
    <nd ref="697027886"/>
    <nd ref="697027883"/>
    <nd ref="697027882"/>
    <tag k="building" v="yes"/>
  </way>
  <way id="55461846" version="1" timestamp="2010-04-14T19:27:03Z" uid="9581" user="Lobelt" changeset="4425463">
    <nd ref="697027874"/>
    <nd ref="697027873"/>
    <nd ref="697027871"/>
    <nd ref="697027875"/>
    <nd ref="697027874"/>
    <tag k="addr:city" v="Hirschberg-Leutershausen"/>
    <tag k="addr:housenumber" v="21"/>
    <tag k="addr:postcode" v="69493"/>
    <tag k="addr:street" v="Fenchelstraße"/>
    <tag k="building" v="yes"/>
  </way>
  <way id="55461846" version="2" timestamp="2012-01-11T09:22:32Z" uid="442210" user="dwausr" changeset="10358781"/>
  <way id="55461846" version="3" timestamp="2012-03-28T07:34:44Z" uid="442210" user="dwausr" changeset="11123485">
    <nd ref="697027874"/>
    <nd ref="697027873"/>
    <nd ref="697027871"/>
    <nd ref="697027875"/>
    <nd ref="697027874"/>
    <tag k="addr:city" v="Hirschberg-Leutershausen"/>
    <tag k="addr:housenumber" v="21"/>
    <tag k="addr:postcode" v="69493"/>
    <tag k="addr:street" v="Fenchelstraße"/>
    <tag k="building" v="yes"/>
  </way>
  <way id="55461847" version="1" timestamp="2010-04-14T19:27:04Z" uid="9581" user="Lobelt" changeset="4425463">
    <nd ref="697027875"/>
    <nd ref="697027872"/>
    <nd ref="697027898"/>
    <nd ref="347674351"/>
    <nd ref="697027875"/>
    <tag k="addr:city" v="Hirschberg-Leutershausen"/>
    <tag k="addr:housenumber" v="22"/>
    <tag k="addr:postcode" v="69493"/>
    <tag k="addr:street" v="Hölderlinstraße"/>
    <tag k="building" v="yes"/>
  </way>
  <way id="55461847" version="2" timestamp="2010-04-14T19:33:55Z" uid="161619" user="FvGordon" changeset="4425536">
    <nd ref="697027875"/>
    <nd ref="697027871"/>
    <nd ref="697027898"/>
    <nd ref="347674351"/>
    <nd ref="697027875"/>
    <tag k="addr:city" v="Hirschberg-Leutershausen"/>
    <tag k="addr:housenumber" v="22"/>
    <tag k="addr:postcode" v="69493"/>
    <tag k="addr:street" v="Hölderlinstraße"/>
    <tag k="building" v="yes"/>
  </way>
  <way id="55461847" version="3" timestamp="2012-01-11T09:22:33Z" uid="442210" user="dwausr" changeset="10358781"/>
  <way id="55461847" version="4" timestamp="2012-03-28T07:34:58Z" uid="442210" user="dwausr" changeset="11123485">
    <nd ref="697027875"/>
    <nd ref="697027871"/>
    <nd ref="697027898"/>
    <nd ref="347674351"/>
    <nd ref="697027875"/>
    <tag k="addr:city" v="Hirschberg-Leutershausen"/>
    <tag k="addr:housenumber" v="22"/>
    <tag k="addr:postcode" v="69493"/>
    <tag k="addr:street" v="Hölderlinstraße"/>
    <tag k="building" v="yes"/>
  </way>
  <way id="55461848" version="1" timestamp="2010-04-14T19:27:04Z" uid="9581" user="Lobelt" changeset="4425463">
    <nd ref="697027900"/>
    <nd ref="697027887"/>
    <nd ref="697027877"/>
    <nd ref="697027876"/>
    <nd ref="697027899"/>
    <nd ref="697027900"/>
    <tag k="building" v="yes"/>
  </way>
  <way id="55461848" version="2" timestamp="2012-01-11T09:22:49Z" uid="442210" user="dwausr" changeset="10358781"/>
  <way id="55461848" version="3" timestamp="2012-03-28T07:23:05Z" uid="442210" user="dwausr" changeset="11123485">
    <nd ref="697027900"/>
    <nd ref="697027887"/>
    <nd ref="697027877"/>
    <nd ref="697027876"/>
    <nd ref="697027899"/>
    <nd ref="697027900"/>
    <tag k="building" v="yes"/>
  </way>
  <way id="55461849" version="1" timestamp="2010-04-14T19:27:04Z" uid="9581" user="Lobelt" changeset="4425463">
    <nd ref="697027887"/>
    <nd ref="697027888"/>
    <nd ref="697027890"/>
    <nd ref="697027889"/>
    <nd ref="697027877"/>
    <nd ref="697027887"/>
    <tag k="building" v="yes"/>
  </way>
  <way id="55461849" version="2" timestamp="2012-01-11T09:22:49Z" uid="442210" user="dwausr" changeset="10358781"/>
  <way id="55461849" version="3" timestamp="2012-03-28T07:23:05Z" uid="442210" user="dwausr" changeset="11123485">
    <nd ref="697027887"/>
    <nd ref="697027888"/>
    <nd ref="697027890"/>
    <nd ref="697027889"/>
    <nd ref="697027877"/>
    <nd ref="697027887"/>
    <tag k="building" v="yes"/>
  </way>
  <way id="55461850" version="1" timestamp="2010-04-14T19:27:04Z" uid="9581" user="Lobelt" changeset="4425463">
    <nd ref="697027890"/>
    <nd ref="697027885"/>
    <nd ref="697027886"/>
    <nd ref="697027878"/>
    <nd ref="697027889"/>
    <nd ref="697027890"/>
    <tag k="building" v="yes"/>
  </way>
  <way id="55461850" version="2" timestamp="2012-01-11T09:22:49Z" uid="442210" user="dwausr" changeset="10358781"/>
  <way id="55461850" version="3" timestamp="2012-03-28T07:23:05Z" uid="442210" user="dwausr" changeset="11123485">
    <nd ref="697027890"/>
    <nd ref="697027885"/>
    <nd ref="697027886"/>
    <nd ref="697027878"/>
    <nd ref="697027889"/>
    <nd ref="697027890"/>
    <tag k="building" v="yes"/>
  </way>
  <way id="55461851" version="1" timestamp="2010-04-14T19:27:04Z" uid="9581" user="Lobelt" changeset="4425463">
    <nd ref="697027891"/>
    <nd ref="697027893"/>
    <nd ref="697027901"/>
    <nd ref="697027892"/>
    <nd ref="697027891"/>
    <tag k="addr:city" v="Hirschberg-Leutershausen"/>
    <tag k="addr:housenumber" v="20"/>
    <tag k="addr:postcode" v="69493"/>
    <tag k="addr:street" v="Hölderlinstraße"/>
    <tag k="building" v="yes"/>
  </way>
  <way id="55461851" version="2" timestamp="2012-01-11T09:22:32Z" uid="442210" user="dwausr" changeset="10358781"/>
  <way id="55461851" version="3" timestamp="2012-03-28T07:34:36Z" uid="442210" user="dwausr" changeset="11123485">
    <nd ref="697027891"/>
    <nd ref="697027893"/>
    <nd ref="697027901"/>
    <nd ref="697027892"/>
    <nd ref="697027891"/>
    <tag k="addr:city" v="Hirschberg-Leutershausen"/>
    <tag k="addr:housenumber" v="20"/>
    <tag k="addr:postcode" v="69493"/>
    <tag k="addr:street" v="Hölderlinstraße"/>
    <tag k="building" v="yes"/>
  </way>
  <way id="55461852" version="1" timestamp="2010-04-14T19:27:04Z" uid="9581" user="Lobelt" changeset="4425463">
    <nd ref="697027903"/>
    <nd ref="697027902"/>
    <nd ref="697027894"/>
    <nd ref="697027895"/>
    <nd ref="697027896"/>
    <nd ref="697027897"/>
    <nd ref="697027903"/>
    <tag k="addr:city" v="Hirschberg-Leutershausen"/>
    <tag k="addr:housenumber" v="18"/>
    <tag k="addr:postcode" v="69493"/>
    <tag k="addr:street" v="Hölderlinstraße"/>
    <tag k="building" v="yes"/>
  </way>
  <way id="55461852" version="2" timestamp="2012-01-11T09:22:31Z" uid="442210" user="dwausr" changeset="10358781"/>
  <way id="55461852" version="3" timestamp="2012-03-28T07:34:02Z" uid="442210" user="dwausr" changeset="11123485">
    <nd ref="697027903"/>
    <nd ref="697027902"/>
    <nd ref="697027894"/>
    <nd ref="697027895"/>
    <nd ref="697027896"/>
    <nd ref="697027897"/>
    <nd ref="697027903"/>
    <tag k="addr:city" v="Hirschberg-Leutershausen"/>
    <tag k="addr:housenumber" v="18"/>
    <tag k="addr:postcode" v="69493"/>
    <tag k="addr:street" v="Hölderlinstraße"/>
    <tag k="building" v="yes"/>
  </way>
  <way id="55461853" version="1" timestamp="2010-04-14T19:27:05Z" uid="9581" user="Lobelt" changeset="4425463">
    <nd ref="697027950"/>
    <nd ref="697027951"/>
    <nd ref="697027952"/>
    <nd ref="697027953"/>
    <nd ref="697027950"/>
    <tag k="addr:city" v="Hirschberg-Leutershausen"/>
    <tag k="addr:housenumber" v="12"/>
    <tag k="addr:postcode" v="69493"/>
    <tag k="addr:street" v="Hölderlinstraße"/>
    <tag k="building" v="yes"/>
  </way>
  <way id="55461853" version="2" timestamp="2012-01-11T09:22:27Z" uid="442210" user="dwausr" changeset="10358781"/>
  <way id="55461853" version="3" timestamp="2012-03-28T07:31:45Z" uid="442210" user="dwausr" changeset="11123485">
    <nd ref="697027950"/>
    <nd ref="697027951"/>
    <nd ref="697027952"/>
    <nd ref="697027953"/>
    <nd ref="697027950"/>
    <tag k="addr:city" v="Hirschberg-Leutershausen"/>
    <tag k="addr:housenumber" v="12"/>
    <tag k="addr:postcode" v="69493"/>
    <tag k="addr:street" v="Hölderlinstraße"/>
    <tag k="building" v="yes"/>
  </way>
  <way id="55461854" version="1" timestamp="2010-04-14T19:27:05Z" uid="9581" user="Lobelt" changeset="4425463">
    <nd ref="697027948"/>
    <nd ref="697027951"/>
    <nd ref="697027950"/>
    <nd ref="697027949"/>
    <nd ref="697027948"/>
    <tag k="addr:city" v="Hirschberg-Leutershausen"/>
    <tag k="addr:housenumber" v="14"/>
    <tag k="addr:postcode" v="69493"/>
    <tag k="addr:street" v="Hölderlinstraße"/>
    <tag k="building" v="yes"/>
  </way>
  <way id="55461854" version="2" timestamp="2012-01-11T09:22:29Z" uid="442210" user="dwausr" changeset="10358781"/>
  <way id="55461854" version="3" timestamp="2012-03-28T07:32:18Z" uid="442210" user="dwausr" changeset="11123485">
    <nd ref="697027948"/>
    <nd ref="697027951"/>
    <nd ref="697027950"/>
    <nd ref="697027949"/>
    <nd ref="697027948"/>
    <tag k="addr:city" v="Hirschberg-Leutershausen"/>
    <tag k="addr:housenumber" v="14"/>
    <tag k="addr:postcode" v="69493"/>
    <tag k="addr:street" v="Hölderlinstraße"/>
    <tag k="building" v="yes"/>
  </way>
  <way id="55461855" version="1" timestamp="2010-04-14T19:27:05Z" uid="9581" user="Lobelt" changeset="4425463">
    <nd ref="697027971"/>
    <nd ref="697027959"/>
    <nd ref="697027960"/>
    <nd ref="697027970"/>
    <nd ref="697027971"/>
    <tag k="addr:city" v="Hirschberg-Leutershausen"/>
    <tag k="addr:housenumber" v="8"/>
    <tag k="addr:postcode" v="69493"/>
    <tag k="addr:street" v="Hölderlinstraße"/>
    <tag k="building" v="yes"/>
  </way>
  <way id="55461855" version="2" timestamp="2012-01-11T09:22:39Z" uid="442210" user="dwausr" changeset="10358781"/>
  <way id="55461855" version="3" timestamp="2012-03-28T07:39:42Z" uid="442210" user="dwausr" changeset="11123485">
    <nd ref="697027971"/>
    <nd ref="697027959"/>
    <nd ref="697027960"/>
    <nd ref="697027970"/>
    <nd ref="697027971"/>
    <tag k="addr:city" v="Hirschberg-Leutershausen"/>
    <tag k="addr:housenumber" v="8"/>
    <tag k="addr:postcode" v="69493"/>
    <tag k="addr:street" v="Hölderlinstraße"/>
    <tag k="building" v="yes"/>
  </way>
  <way id="55461856" version="1" timestamp="2010-04-14T19:27:05Z" uid="9581" user="Lobelt" changeset="4425463">
    <nd ref="697027970"/>
    <nd ref="697027972"/>
    <nd ref="697027961"/>
    <nd ref="697027962"/>
    <nd ref="697027960"/>
    <nd ref="697027970"/>
    <tag k="addr:city" v="Hirschberg-Leutershausen"/>
    <tag k="addr:housenumber" v="5"/>
    <tag k="addr:postcode" v="69493"/>
    <tag k="addr:street" v="Friedrichstraße"/>
    <tag k="building" v="yes"/>
  </way>
  <way id="55461856" version="2" timestamp="2012-01-11T09:22:38Z" uid="442210" user="dwausr" changeset="10358781"/>
  <way id="55461856" version="3" timestamp="2012-03-28T07:38:01Z" uid="442210" user="dwausr" changeset="11123485">
    <nd ref="697027970"/>
    <nd ref="697027972"/>
    <nd ref="697027961"/>
    <nd ref="697027962"/>
    <nd ref="697027960"/>
    <nd ref="697027970"/>
    <tag k="addr:city" v="Hirschberg-Leutershausen"/>
    <tag k="addr:housenumber" v="5"/>
    <tag k="addr:postcode" v="69493"/>
    <tag k="addr:street" v="Friedrichstraße"/>
    <tag k="building" v="yes"/>
  </way>
  <way id="55461857" version="1" timestamp="2010-04-14T19:27:05Z" uid="9581" user="Lobelt" changeset="4425463">
    <nd ref="697027955"/>
    <nd ref="697027956"/>
    <nd ref="697027957"/>
    <nd ref="697027964"/>
    <nd ref="697027958"/>
    <nd ref="697027955"/>
    <tag k="addr:city" v="Hirschberg-Leutershausen"/>
    <tag k="addr:housenumber" v="10"/>
    <tag k="addr:postcode" v="69493"/>
    <tag k="addr:street" v="Hölderlinstraße"/>
    <tag k="building" v="yes"/>
  </way>
  <way id="55461857" version="2" timestamp="2012-01-11T09:22:27Z" uid="442210" user="dwausr" changeset="10358781"/>
  <way id="55461857" version="3" timestamp="2012-03-28T07:30:59Z" uid="442210" user="dwausr" changeset="11123485">
    <nd ref="697027955"/>
    <nd ref="697027956"/>
    <nd ref="697027957"/>
    <nd ref="697027964"/>
    <nd ref="697027958"/>
    <nd ref="697027955"/>
    <tag k="addr:city" v="Hirschberg-Leutershausen"/>
    <tag k="addr:housenumber" v="10"/>
    <tag k="addr:postcode" v="69493"/>
    <tag k="addr:street" v="Hölderlinstraße"/>
    <tag k="building" v="yes"/>
  </way>
  <way id="55461858" version="1" timestamp="2010-04-14T19:27:05Z" uid="9581" user="Lobelt" changeset="4425463">
    <nd ref="697027962"/>
    <nd ref="697027963"/>
    <nd ref="697027956"/>
    <nd ref="697027957"/>
    <nd ref="697027966"/>
    <nd ref="697027960"/>
    <nd ref="697027962"/>
    <tag k="building" v="yes"/>
  </way>
  <way id="55461858" version="2" timestamp="2012-01-11T09:22:49Z" uid="442210" user="dwausr" changeset="10358781"/>
  <way id="55461858" version="3" timestamp="2012-03-28T07:25:38Z" uid="442210" user="dwausr" changeset="11123485">
    <nd ref="697027962"/>
    <nd ref="697027963"/>
    <nd ref="697027956"/>
    <nd ref="697027957"/>
    <nd ref="697027966"/>
    <nd ref="697027960"/>
    <nd ref="697027962"/>
    <tag k="building" v="yes"/>
  </way>
  <way id="55461859" version="1" timestamp="2010-04-14T19:27:06Z" uid="9581" user="Lobelt" changeset="4425463">
    <nd ref="697027964"/>
    <nd ref="697027967"/>
    <nd ref="697027965"/>
    <nd ref="697027966"/>
    <nd ref="697027957"/>
    <nd ref="697027964"/>
    <tag k="building" v="yes"/>
  </way>
  <way id="55461859" version="2" timestamp="2012-01-11T09:22:50Z" uid="442210" user="dwausr" changeset="10358781"/>
  <way id="55461859" version="3" timestamp="2012-03-28T07:23:06Z" uid="442210" user="dwausr" changeset="11123485">
    <nd ref="697027964"/>
    <nd ref="697027967"/>
    <nd ref="697027965"/>
    <nd ref="697027966"/>
    <nd ref="697027957"/>
    <nd ref="697027964"/>
    <tag k="building" v="yes"/>
  </way>
  <way id="55461860" version="1" timestamp="2010-04-14T19:27:06Z" uid="9581" user="Lobelt" changeset="4425463">
    <nd ref="697027959"/>
    <nd ref="697027960"/>
    <nd ref="697027966"/>
    <nd ref="697027965"/>
    <nd ref="697027967"/>
    <nd ref="697027968"/>
    <nd ref="697027959"/>
    <tag k="building" v="yes"/>
  </way>
  <way id="55461860" version="2" timestamp="2012-01-11T09:22:50Z" uid="442210" user="dwausr" changeset="10358781"/>
  <way id="55461860" version="3" timestamp="2012-03-28T07:25:37Z" uid="442210" user="dwausr" changeset="11123485">
    <nd ref="697027959"/>
    <nd ref="697027960"/>
    <nd ref="697027966"/>
    <nd ref="697027965"/>
    <nd ref="697027967"/>
    <nd ref="697027968"/>
    <nd ref="697027959"/>
    <tag k="building" v="yes"/>
  </way>
  <way id="55461861" version="1" timestamp="2010-04-14T19:27:06Z" uid="9581" user="Lobelt" changeset="4425463">
    <nd ref="697027942"/>
    <nd ref="697027939"/>
    <nd ref="697027940"/>
    <nd ref="697027941"/>
    <nd ref="697027908"/>
    <nd ref="697027912"/>
    <nd ref="697027913"/>
    <nd ref="697027909"/>
    <nd ref="697027942"/>
    <tag k="addr:city" v="Hirschberg-Leutershausen"/>
    <tag k="addr:housenumber" v="9"/>
    <tag k="addr:postcode" v="69493"/>
    <tag k="addr:street" v="Friedrichstraße"/>
    <tag k="building" v="yes"/>
  </way>
  <way id="55461861" version="2" timestamp="2012-01-11T09:22:40Z" uid="442210" user="dwausr" changeset="10358781"/>
  <way id="55461861" version="3" timestamp="2012-03-28T07:40:10Z" uid="442210" user="dwausr" changeset="11123485">
    <nd ref="697027942"/>
    <nd ref="697027939"/>
    <nd ref="697027940"/>
    <nd ref="697027941"/>
    <nd ref="697027908"/>
    <nd ref="697027912"/>
    <nd ref="697027913"/>
    <nd ref="697027909"/>
    <nd ref="697027942"/>
    <tag k="addr:city" v="Hirschberg-Leutershausen"/>
    <tag k="addr:housenumber" v="9"/>
    <tag k="addr:postcode" v="69493"/>
    <tag k="addr:street" v="Friedrichstraße"/>
    <tag k="building" v="yes"/>
  </way>
  <way id="55461862" version="1" timestamp="2010-04-14T19:27:06Z" uid="9581" user="Lobelt" changeset="4425463">
    <nd ref="697027914"/>
    <nd ref="697027915"/>
    <nd ref="697027945"/>
    <nd ref="697027969"/>
    <nd ref="697027954"/>
    <nd ref="697027914"/>
    <tag k="building" v="yes"/>
  </way>
  <way id="55461862" version="2" timestamp="2012-01-11T09:22:50Z" uid="442210" user="dwausr" changeset="10358781"/>
  <way id="55461862" version="3" timestamp="2012-03-28T07:23:06Z" uid="442210" user="dwausr" changeset="11123485">
    <nd ref="697027914"/>
    <nd ref="697027915"/>
    <nd ref="697027945"/>
    <nd ref="697027969"/>
    <nd ref="697027954"/>
    <nd ref="697027914"/>
    <tag k="building" v="yes"/>
  </way>
  <way id="55461863" version="1" timestamp="2010-04-14T19:27:06Z" uid="9581" user="Lobelt" changeset="4425463">
    <nd ref="697027942"/>
    <nd ref="697027909"/>
    <nd ref="697027910"/>
    <nd ref="697027911"/>
    <nd ref="697027907"/>
    <nd ref="697027916"/>
    <nd ref="697027944"/>
    <nd ref="697027943"/>
    <nd ref="697027938"/>
    <nd ref="697027942"/>
    <tag k="addr:city" v="Hirschberg-Leutershausen"/>
    <tag k="addr:housenumber" v="7"/>
    <tag k="addr:postcode" v="69493"/>
    <tag k="addr:street" v="Friedrichstraße"/>
    <tag k="building" v="yes"/>
  </way>
  <way id="55461863" version="2" timestamp="2012-01-11T09:22:38Z" uid="442210" user="dwausr" changeset="10358781"/>
  <way id="55461863" version="3" timestamp="2012-03-28T07:39:04Z" uid="442210" user="dwausr" changeset="11123485">
    <nd ref="697027942"/>
    <nd ref="697027909"/>
    <nd ref="697027910"/>
    <nd ref="697027911"/>
    <nd ref="697027907"/>
    <nd ref="697027916"/>
    <nd ref="697027944"/>
    <nd ref="697027943"/>
    <nd ref="697027938"/>
    <nd ref="697027942"/>
    <tag k="addr:city" v="Hirschberg-Leutershausen"/>
    <tag k="addr:housenumber" v="7"/>
    <tag k="addr:postcode" v="69493"/>
    <tag k="addr:street" v="Friedrichstraße"/>
    <tag k="building" v="yes"/>
  </way>
  <way id="55461864" version="1" timestamp="2010-04-14T19:27:06Z" uid="9581" user="Lobelt" changeset="4425463">
    <nd ref="697027915"/>
    <nd ref="697027916"/>
    <nd ref="697027907"/>
    <nd ref="697027917"/>
    <nd ref="697027918"/>
    <nd ref="697027914"/>
    <nd ref="697027915"/>
    <tag k="building" v="yes"/>
  </way>
  <way id="55461864" version="2" timestamp="2012-01-11T09:22:50Z" uid="442210" user="dwausr" changeset="10358781"/>
  <way id="55461864" version="3" timestamp="2012-03-28T07:25:38Z" uid="442210" user="dwausr" changeset="11123485">
    <nd ref="697027915"/>
    <nd ref="697027916"/>
    <nd ref="697027907"/>
    <nd ref="697027917"/>
    <nd ref="697027918"/>
    <nd ref="697027914"/>
    <nd ref="697027915"/>
    <tag k="building" v="yes"/>
  </way>
  <way id="55461865" version="1" timestamp="2010-04-14T19:27:06Z" uid="9581" user="Lobelt" changeset="4425463">
    <nd ref="697027928"/>
    <nd ref="697027919"/>
    <nd ref="697027920"/>
    <nd ref="697027926"/>
    <nd ref="697027927"/>
    <nd ref="697027929"/>
    <nd ref="697027928"/>
    <tag k="building" v="yes"/>
  </way>
  <way id="55461865" version="2" timestamp="2012-01-11T09:22:51Z" uid="442210" user="dwausr" changeset="10358781"/>
  <way id="55461865" version="3" timestamp="2012-03-28T07:25:38Z" uid="442210" user="dwausr" changeset="11123485">
    <nd ref="697027928"/>
    <nd ref="697027919"/>
    <nd ref="697027920"/>
    <nd ref="697027926"/>
    <nd ref="697027927"/>
    <nd ref="697027929"/>
    <nd ref="697027928"/>
    <tag k="building" v="yes"/>
  </way>
  <way id="55461866" version="1" timestamp="2010-04-14T19:27:06Z" uid="9581" user="Lobelt" changeset="4425463">
    <nd ref="697027925"/>
    <nd ref="697027946"/>
    <nd ref="697027931"/>
    <nd ref="697027928"/>
    <nd ref="697027929"/>
    <nd ref="697027925"/>
    <tag k="addr:city" v="Hirschberg-Leutershausen"/>
    <tag k="addr:housenumber" v="11"/>
    <tag k="addr:postcode" v="69493"/>
    <tag k="addr:street" v="Friedrichstraße"/>
    <tag k="building" v="yes"/>
  </way>
  <way id="55461866" version="2" timestamp="2012-01-11T09:22:27Z" uid="442210" user="dwausr" changeset="10358781"/>
  <way id="55461866" version="3" timestamp="2012-03-28T07:31:17Z" uid="442210" user="dwausr" changeset="11123485">
    <nd ref="697027925"/>
    <nd ref="697027946"/>
    <nd ref="697027931"/>
    <nd ref="697027928"/>
    <nd ref="697027929"/>
    <nd ref="697027925"/>
    <tag k="addr:city" v="Hirschberg-Leutershausen"/>
    <tag k="addr:housenumber" v="11"/>
    <tag k="addr:postcode" v="69493"/>
    <tag k="addr:street" v="Friedrichstraße"/>
    <tag k="building" v="yes"/>
  </way>
  <way id="55461867" version="1" timestamp="2010-04-14T19:27:07Z" uid="9581" user="Lobelt" changeset="4425463">
    <nd ref="697027931"/>
    <nd ref="697027930"/>
    <nd ref="697027924"/>
    <nd ref="697027932"/>
    <nd ref="697027928"/>
    <nd ref="697027931"/>
    <tag k="addr:city" v="Hirschberg-Leutershausen"/>
    <tag k="addr:housenumber" v="13"/>
    <tag k="addr:postcode" v="69493"/>
    <tag k="addr:street" v="Friedrichstraße"/>
    <tag k="building" v="yes"/>
  </way>
  <way id="55461867" version="2" timestamp="2012-01-11T09:22:28Z" uid="442210" user="dwausr" changeset="10358781"/>
  <way id="55461867" version="3" timestamp="2012-03-28T07:31:57Z" uid="442210" user="dwausr" changeset="11123485">
    <nd ref="697027931"/>
    <nd ref="697027930"/>
    <nd ref="697027924"/>
    <nd ref="697027932"/>
    <nd ref="697027928"/>
    <nd ref="697027931"/>
    <tag k="addr:city" v="Hirschberg-Leutershausen"/>
    <tag k="addr:housenumber" v="13"/>
    <tag k="addr:postcode" v="69493"/>
    <tag k="addr:street" v="Friedrichstraße"/>
    <tag k="building" v="yes"/>
  </way>
  <way id="55461868" version="1" timestamp="2010-04-14T19:27:07Z" uid="9581" user="Lobelt" changeset="4425463">
    <nd ref="697027932"/>
    <nd ref="697027933"/>
    <nd ref="697027934"/>
    <nd ref="697027935"/>
    <nd ref="697027923"/>
    <nd ref="697027921"/>
    <nd ref="697027922"/>
    <nd ref="697027919"/>
    <nd ref="697027928"/>
    <nd ref="697027932"/>
    <tag k="building" v="yes"/>
  </way>
  <way id="55461868" version="2" timestamp="2012-01-11T09:22:51Z" uid="442210" user="dwausr" changeset="10358781"/>
  <way id="55461868" version="3" timestamp="2012-03-28T07:29:52Z" uid="442210" user="dwausr" changeset="11123485">
    <nd ref="697027932"/>
    <nd ref="697027933"/>
    <nd ref="697027934"/>
    <nd ref="697027935"/>
    <nd ref="697027923"/>
    <nd ref="697027921"/>
    <nd ref="697027922"/>
    <nd ref="697027919"/>
    <nd ref="697027928"/>
    <nd ref="697027932"/>
    <tag k="building" v="yes"/>
  </way>
  <way id="55461447" version="2" timestamp="2012-07-20T01:08:59Z" uid="722137" user="OSMF Redaction Account" changeset="12354330"/>
  <way id="55461448" version="2" timestamp="2012-07-20T01:08:58Z" uid="722137" user="OSMF Redaction Account" changeset="12354330"/>
  <way id="55461449" version="2" timestamp="2012-07-20T01:09:01Z" uid="722137" user="OSMF Redaction Account" changeset="12354330"/>
  <way id="55461825" version="4" timestamp="2012-04-05T17:59:50Z" uid="31231" user="Andre68" changeset="11191374"/>
  <way id="55461826" version="4" timestamp="2012-04-06T05:54:49Z" uid="31231" user="Andre68" changeset="11197000"/>
  <way id="55461827" version="4" timestamp="2012-04-05T17:53:19Z" uid="31231" user="Andre68" changeset="11191374"/>
  <way id="55461828" version="4" timestamp="2012-04-06T05:54:46Z" uid="31231" user="Andre68" changeset="11197000"/>
  <way id="55461829" version="4" timestamp="2012-04-05T17:53:20Z" uid="31231" user="Andre68" changeset="11191374"/>
  <way id="55461830" version="4" timestamp="2012-04-05T17:53:14Z" uid="31231" user="Andre68" changeset="11191374"/>
  <way id="55461831" version="4" timestamp="2012-04-05T17:53:18Z" uid="31231" user="Andre68" changeset="11191374"/>
  <way id="55461832" version="4" timestamp="2012-04-05T17:53:18Z" uid="31231" user="Andre68" changeset="11191374"/>
  <way id="55461833" version="4" timestamp="2012-04-06T05:54:46Z" uid="31231" user="Andre68" changeset="11197000"/>
  <way id="55461834" version="4" timestamp="2012-04-06T05:54:46Z" uid="31231" user="Andre68" changeset="11197000"/>
  <way id="55461835" version="4" timestamp="2012-04-05T17:53:15Z" uid="31231" user="Andre68" changeset="11191374"/>
  <way id="55461836" version="4" timestamp="2012-04-05T17:53:15Z" uid="31231" user="Andre68" changeset="11191374"/>
  <way id="55461837" version="4" timestamp="2012-04-05T17:53:15Z" uid="31231" user="Andre68" changeset="11191374"/>
  <way id="55461838" version="4" timestamp="2012-04-05T17:53:20Z" uid="31231" user="Andre68" changeset="11191374"/>
  <way id="55461839" version="4" timestamp="2012-04-05T17:53:18Z" uid="31231" user="Andre68" changeset="11191374"/>
  <way id="55461840" version="4" timestamp="2012-04-05T17:53:20Z" uid="31231" user="Andre68" changeset="11191374"/>
  <way id="55461841" version="4" timestamp="2012-04-05T17:53:15Z" uid="31231" user="Andre68" changeset="11191374"/>
  <way id="55461842" version="4" timestamp="2012-04-05T17:53:19Z" uid="31231" user="Andre68" changeset="11191374"/>
  <way id="55461843" version="4" timestamp="2012-04-05T17:53:19Z" uid="31231" user="Andre68" changeset="11191374"/>
  <way id="55461844" version="4" timestamp="2012-04-05T17:53:19Z" uid="31231" user="Andre68" changeset="11191374"/>
  <way id="55461845" version="4" timestamp="2012-04-05T17:53:15Z" uid="31231" user="Andre68" changeset="11191374"/>
  <way id="55461846" version="4" timestamp="2012-04-05T17:53:20Z" uid="31231" user="Andre68" changeset="11191374"/>
  <way id="55461847" version="5" timestamp="2012-04-05T17:53:20Z" uid="31231" user="Andre68" changeset="11191374"/>
  <way id="55461848" version="4" timestamp="2012-04-05T17:53:15Z" uid="31231" user="Andre68" changeset="11191374"/>
  <way id="55461849" version="4" timestamp="2012-04-05T17:53:15Z" uid="31231" user="Andre68" changeset="11191374"/>
  <way id="55461850" version="4" timestamp="2012-04-05T17:53:15Z" uid="31231" user="Andre68" changeset="11191374"/>
  <way id="55461851" version="4" timestamp="2012-04-05T17:53:19Z" uid="31231" user="Andre68" changeset="11191374"/>
  <way id="55461852" version="4" timestamp="2012-04-05T17:53:19Z" uid="31231" user="Andre68" changeset="11191374"/>
  <way id="55461853" version="4" timestamp="2012-04-05T17:53:18Z" uid="31231" user="Andre68" changeset="11191374"/>
  <way id="55461854" version="4" timestamp="2012-04-05T17:53:18Z" uid="31231" user="Andre68" changeset="11191374"/>
  <way id="55461855" version="4" timestamp="2012-04-05T17:59:51Z" uid="31231" user="Andre68" changeset="11191374"/>
  <way id="55461856" version="4" timestamp="2012-04-05T17:59:51Z" uid="31231" user="Andre68" changeset="11191374"/>
  <way id="55461857" version="4" timestamp="2012-04-05T17:53:18Z" uid="31231" user="Andre68" changeset="11191374"/>
  <way id="55461858" version="4" timestamp="2012-04-05T17:53:16Z" uid="31231" user="Andre68" changeset="11191374"/>
  <way id="55461859" version="4" timestamp="2012-04-05T17:53:16Z" uid="31231" user="Andre68" changeset="11191374"/>
  <way id="55461860" version="4" timestamp="2012-04-05T17:53:16Z" uid="31231" user="Andre68" changeset="11191374"/>
  <way id="55461861" version="4" timestamp="2012-04-05T17:53:21Z" uid="31231" user="Andre68" changeset="11191374"/>
  <way id="55461862" version="4" timestamp="2012-04-05T17:53:16Z" uid="31231" user="Andre68" changeset="11191374"/>
  <way id="55461863" version="4" timestamp="2012-04-05T17:53:20Z" uid="31231" user="Andre68" changeset="11191374"/>
  <way id="55461864" version="4" timestamp="2012-04-05T17:53:16Z" uid="31231" user="Andre68" changeset="11191374"/>
  <way id="55461865" version="4" timestamp="2012-04-06T05:54:46Z" uid="31231" user="Andre68" changeset="11197000"/>
  <way id="55461866" version="4" timestamp="2012-04-06T05:54:48Z" uid="31231" user="Andre68" changeset="11197000"/>
  <way id="55461867" version="4" timestamp="2012-04-06T05:54:48Z" uid="31231" user="Andre68" changeset="11197000"/>
  <way id="55461868" version="4" timestamp="2012-04-06T05:54:46Z" uid="31231" user="Andre68" changeset="11197000"/>
</osm>
