<?xml version='1.0' encoding='UTF-8'?>
<osm version="0.6" generator="libosmium/2.20.0">
  <way id="55691380" version="1" timestamp="2010-04-17T14:37:14Z" uid="4467" user="Rosscoe" changeset="4448374">
    <nd ref="577391952"/>
    <nd ref="577391923"/>
    <nd ref="577391925"/>
    <nd ref="577391919"/>
    <nd ref="577391916"/>
    <tag k="highway" v="primary_link"/>
    <tag k="oneway" v="yes"/>
    <tag k="source" v="nearmap"/>
  </way>
  <way id="55691381" version="1" timestamp="2010-04-17T14:37:14Z" uid="4467" user="Rosscoe" changeset="4448374">
    <nd ref="577391871"/>
    <nd ref="577391872"/>
    <nd ref="577391877"/>
    <nd ref="577391880"/>
    <nd ref="577386321"/>
    <tag k="highway" v="primary_link"/>
    <tag k="oneway" v="yes"/>
    <tag k="source" v="nearmap"/>
  </way>
  <way id="55691382" version="1" timestamp="2010-04-17T14:37:15Z" uid="4467" user="Rosscoe" changeset="4448374">
    <nd ref="577391863"/>
    <nd ref="577391864"/>
    <nd ref="577391866"/>
    <nd ref="577391868"/>
    <nd ref="577386327"/>
    <tag k="highway" v="primary_link"/>
    <tag k="oneway" v="yes"/>
  </way>
  <way id="55691383" version="1" timestamp="2010-04-17T14:37:15Z" uid="4467" user="Rosscoe" changeset="4448374">
    <nd ref="577391930"/>
    <nd ref="577391931"/>
    <nd ref="577391900"/>
    <nd ref="577391890"/>
    <nd ref="577391875"/>
    <tag k="highway" v="primary_link"/>
    <tag k="oneway" v="yes"/>
  </way>
  <way id="55691384" version="1" timestamp="2010-04-17T14:37:15Z" uid="4467" user="Rosscoe" changeset="4448374">
    <nd ref="577391945"/>
    <nd ref="577391946"/>
    <tag k="highway" v="unclassified"/>
    <tag k="oneway" v="yes"/>
    <tag k="source" v="nearmap"/>
  </way>
  <way id="55691384" version="2" timestamp="2010-07-06T17:46:02Z" uid="74617" user="JohnSmith" changeset="5152225">
    <nd ref="577391945"/>
    <nd ref="577391946"/>
    <tag k="highway" v="unclassified"/>
    <tag k="maxspeed" v="50"/>
    <tag k="maxspeed:source" v="default residential speed limit in Australia"/>
    <tag k="oneway" v="yes"/>
    <tag k="source" v="nearmap"/>
  </way>
  <way id="55691581" version="6" timestamp="2010-11-11T05:47:29Z" uid="115477" user="wowik" changeset="6341269">
    <nd ref="699778575"/>
    <nd ref="699778576"/>
    <nd ref="699778577"/>
    <nd ref="699778578"/>
    <nd ref="699778579"/>
    <nd ref="699778580"/>
    <nd ref="699778581"/>
    <nd ref="699778583"/>
    <nd ref="699778584"/>
    <nd ref="699778585"/>
    <nd ref="699778586"/>
    <nd ref="699778587"/>
    <nd ref="700727344"/>
    <nd ref="699778575"/>
    <tag k="addr:city" v="Зеленоград"/>
    <tag k="addr:housenumber" v="8с1"/>
    <tag k="addr:street" v="3-й Западный проезд"/>
    <tag k="building" v="yes"/>
    <tag k="name" v="Автосервис грузовых автомобилей &quot;GTS&quot;"/>
  </way>
  <way id="55691581" version="7" timestamp="2011-01-19T16:51:07Z" uid="70696" user="xybot" changeset="7021015">
    <nd ref="699778575"/>
    <nd ref="699778576"/>
    <nd ref="699778577"/>
    <nd ref="699778578"/>
    <nd ref="699778579"/>
    <nd ref="699778580"/>
    <nd ref="699778581"/>
    <nd ref="699778583"/>
    <nd ref="699778584"/>
    <nd ref="699778585"/>
    <nd ref="699778586"/>
    <nd ref="699778587"/>
    <nd ref="700727344"/>
    <nd ref="699778575"/>
    <tag k="addr:city" v="Зеленоград"/>
    <tag k="addr:housenumber" v="8 с1"/>
    <tag k="addr:street" v="3-й Западный проезд"/>
    <tag k="building" v="yes"/>
    <tag k="name" v="Автосервис грузовых автомобилей &quot;GTS&quot;"/>
  </way>
  <way id="55691581" version="8" timestamp="2011-02-02T19:31:02Z" uid="115477" user="wowik" changeset="7167748">
    <nd ref="699778575"/>
    <nd ref="699778576"/>
    <nd ref="699778577"/>
    <nd ref="699778578"/>
    <nd ref="699778579"/>
    <nd ref="699778580"/>
    <nd ref="699778581"/>
    <nd ref="699778587"/>
    <nd ref="1132653426"/>
    <nd ref="1132653066"/>
    <nd ref="1132652741"/>
    <nd ref="1132653078"/>
    <nd ref="1132653116"/>
    <nd ref="1132653583"/>
    <nd ref="700727344"/>
    <nd ref="699778575"/>
    <tag k="addr:city" v="Зеленоград"/>
    <tag k="addr:housenumber" v="8 с1"/>
    <tag k="addr:street" v="3-й Западный проезд"/>
    <tag k="building" v="yes"/>
    <tag k="name" v="Автосервис грузовых автомобилей &quot;GTS&quot;"/>
  </way>
  <way id="55691581" version="9" timestamp="2011-02-04T21:33:20Z" uid="241531" user="dik_man" changeset="7187137">
    <nd ref="699778575"/>
    <nd ref="699778576"/>
    <nd ref="699778577"/>
    <nd ref="699778578"/>
    <nd ref="699778579"/>
    <nd ref="699778580"/>
    <nd ref="699778581"/>
    <nd ref="1132653426"/>
    <nd ref="1132653066"/>
    <nd ref="1132652741"/>
    <nd ref="1132653583"/>
    <nd ref="700727344"/>
    <nd ref="699778575"/>
    <tag k="addr:city" v="Зеленоград"/>
    <tag k="addr:housenumber" v="8 с1"/>
    <tag k="addr:street" v="3-й Западный проезд"/>
    <tag k="building" v="yes"/>
    <tag k="name" v="Автосервис грузовых автомобилей &quot;GTS&quot;"/>
  </way>
  <way id="55691581" version="10" timestamp="2011-02-09T14:42:30Z" uid="115477" user="wowik" changeset="7236659">
    <nd ref="699778575"/>
    <nd ref="699778576"/>
    <nd ref="699778577"/>
    <nd ref="699778578"/>
    <nd ref="699778579"/>
    <nd ref="699778580"/>
    <nd ref="699778581"/>
    <nd ref="1132653426"/>
    <nd ref="1132653066"/>
    <nd ref="1132652741"/>
    <nd ref="1143868433"/>
    <nd ref="1143868434"/>
    <nd ref="1132653583"/>
    <nd ref="700727344"/>
    <nd ref="699778575"/>
    <tag k="addr:city" v="Зеленоград"/>
    <tag k="addr:housenumber" v="8 с1"/>
    <tag k="addr:street" v="3-й Западный проезд"/>
    <tag k="building" v="yes"/>
    <tag k="name" v="Автосервис грузовых автомобилей &quot;GTS&quot;"/>
  </way>
  <way id="55691657" version="2" timestamp="2010-06-29T19:09:02Z" uid="74617" user="JohnSmith" changeset="5108182">
    <nd ref="699779451"/>
    <nd ref="699779452"/>
    <nd ref="699779453"/>
    <nd ref="699779454"/>
    <nd ref="699779451"/>
    <tag k="fixme" v="sport=football is ambiguous, see http://wiki.osm.org/wiki/Football for more details"/>
    <tag k="source" v="Yahoo"/>
    <tag k="sport" v="football"/>
  </way>
  <way id="55691657" version="3" timestamp="2011-07-24T16:43:05Z" uid="78490" user="curly_dawg" changeset="8818487">
    <nd ref="699779451"/>
    <nd ref="699779452"/>
    <nd ref="699779453"/>
    <nd ref="699779454"/>
    <nd ref="699779451"/>
    <tag k="fixme" v="sport=football is ambiguous, see http://wiki.osm.org/wiki/Football for more details"/>
    <tag k="leisure" v="pitch"/>
    <tag k="source" v="Yahoo"/>
    <tag k="sport" v="football"/>
  </way>
  <way id="55691657" version="4" timestamp="2011-07-28T00:08:47Z" uid="78490" user="curly_dawg" changeset="8850242">
    <nd ref="699779451"/>
    <nd ref="699779452"/>
    <nd ref="699779453"/>
    <nd ref="699779454"/>
    <nd ref="699779451"/>
    <tag k="fixme" v="sport=football is ambiguous, see http://wiki.osm.org/wiki/Football for more details"/>
    <tag k="leisure" v="pitch"/>
    <tag k="source" v="Yahoo"/>
    <tag k="sport" v="american_football"/>
  </way>
  <way id="55691657" version="5" timestamp="2011-11-19T19:31:55Z" uid="542963" user="layton" changeset="9876420">
    <nd ref="699779451"/>
    <nd ref="699779452"/>
    <nd ref="699779453"/>
    <nd ref="699779454"/>
    <nd ref="699779451"/>
    <tag k="leisure" v="pitch"/>
    <tag k="source" v="Yahoo"/>
    <tag k="sport" v="american_football"/>
  </way>
  <way id="55691959" version="2" timestamp="2010-08-10T11:00:53Z" uid="171838" user="argrath" changeset="5452823">
    <nd ref="390847738"/>
    <nd ref="390847734"/>
    <nd ref="390847725"/>
    <nd ref="390847702"/>
    <tag k="highway" v="tertiary"/>
    <tag k="lanes" v="2"/>
    <tag k="oneway" v="yes"/>
  </way>
  <way id="55691380" version="2" timestamp="2012-07-19T14:21:23Z" uid="722137" user="OSMF Redaction Account" changeset="12331223"/>
  <way id="55691381" version="2" timestamp="2012-07-19T14:21:21Z" uid="722137" user="OSMF Redaction Account" changeset="12331223"/>
  <way id="55691382" version="2" timestamp="2012-07-19T14:21:23Z" uid="722137" user="OSMF Redaction Account" changeset="12331223"/>
  <way id="55691383" version="2" timestamp="2012-07-19T14:21:23Z" uid="722137" user="OSMF Redaction Account" changeset="12331223"/>
  <way id="55691384" version="3" timestamp="2012-07-19T14:21:23Z" uid="722137" user="OSMF Redaction Account" changeset="12331223"/>
  <way id="55691581" version="11" timestamp="2012-07-20T16:37:18Z" uid="722137" user="OSMF Redaction Account" changeset="12383630">
    <nd ref="699778575"/>
    <nd ref="699778576"/>
    <nd ref="699778577"/>
    <nd ref="699778578"/>
    <nd ref="699778579"/>
    <nd ref="699778580"/>
    <nd ref="699778581"/>
    <nd ref="700727344"/>
    <nd ref="699778575"/>
    <tag k="addr:city" v="Зеленоград"/>
    <tag k="addr:housenumber" v="8,стр.1"/>
    <tag k="addr:street" v="3-й Западный проезд"/>
    <tag k="building" v="yes"/>
    <tag k="name" v="Автосервис грузовых автомобилей &quot;GTS&quot;"/>
  </way>
  <way id="55691959" version="3" timestamp="2012-07-22T04:20:39Z" uid="722137" user="OSMF Redaction Account" changeset="12425267">
    <nd ref="390847738"/>
    <nd ref="390847734"/>
    <nd ref="390847725"/>
    <nd ref="390847702"/>
    <tag k="highway" v="tertiary"/>
    <tag k="lanes" v="2"/>
    <tag k="oneway" v="yes; no"/>
  </way>
  <way id="55691959" version="4" timestamp="2012-08-10T00:25:15Z" uid="728316" user="TKE-waka" changeset="12675070">
    <nd ref="390847738"/>
    <nd ref="390847734"/>
    <nd ref="390847725"/>
    <nd ref="390847702"/>
    <tag k="highway" v="tertiary"/>
    <tag k="lanes" v="2"/>
    <tag k="oneway" v="-1"/>
  </way>
</osm>
