<?xml version='1.0' encoding='UTF-8'?>
<osm version="0.6" generator="libosmium/2.20.0">
  <way id="5571374" version="33" timestamp="2009-09-30T15:53:57Z" uid="36809" user="pfoten_weg_!_" changeset="2689684">
    <nd ref="275735773"/>
    <nd ref="278796517"/>
    <nd ref="41297318"/>
    <nd ref="206092565"/>
    <nd ref="41297065"/>
    <nd ref="206092554"/>
    <tag k="highway" v="primary"/>
    <tag k="name" v="Pfannhausstraße"/>
    <tag k="ref" v="B171"/>
  </way>
  <way id="5571374" version="34" timestamp="2010-06-29T15:58:43Z" uid="311518" user="GerhardTMN" changeset="5106481">
    <nd ref="275735773"/>
    <nd ref="278796517"/>
    <nd ref="795912835"/>
    <nd ref="41297318"/>
    <nd ref="206092565"/>
    <nd ref="41297065"/>
    <nd ref="206092554"/>
    <tag k="highway" v="primary"/>
    <tag k="name" v="Pfannhausstraße"/>
    <tag k="ref" v="B171"/>
  </way>
  <way id="5571374" version="35" timestamp="2010-10-12T09:31:06Z" uid="45481" user="borisC" changeset="6019072">
    <nd ref="275735773"/>
    <nd ref="278796517"/>
    <nd ref="41297318"/>
    <nd ref="945693703"/>
    <nd ref="206092565"/>
    <nd ref="945693592"/>
    <nd ref="206092554"/>
    <tag k="highway" v="primary"/>
    <tag k="name" v="Pfannhausstraße"/>
    <tag k="ref" v="B171"/>
  </way>
  <way id="5571374" version="36" timestamp="2011-04-13T01:20:02Z" uid="45481" user="borisC" changeset="7848141">
    <nd ref="275735773"/>
    <nd ref="278796517"/>
    <nd ref="41297318"/>
    <nd ref="945693703"/>
    <nd ref="206092565"/>
    <nd ref="1242690201"/>
    <nd ref="945693592"/>
    <nd ref="206092554"/>
    <tag k="highway" v="primary"/>
    <tag k="name" v="Pfannhausstraße"/>
    <tag k="ref" v="B171"/>
  </way>
  <way id="5571374" version="37" timestamp="2011-04-27T18:59:22Z" uid="81244" user="rurseekatze" changeset="7988128">
    <nd ref="275735773"/>
    <nd ref="278796517"/>
    <nd ref="41297318"/>
    <nd ref="945693703"/>
    <nd ref="206092565"/>
    <nd ref="1242690201"/>
    <nd ref="945693592"/>
    <nd ref="206092554"/>
    <tag k="highway" v="primary"/>
    <tag k="maxspeed" v="50"/>
    <tag k="name" v="Pfannhausstraße"/>
    <tag k="ref" v="B171"/>
  </way>
  <way id="5571374" version="38" timestamp="2011-09-26T18:08:49Z" uid="356480" user="delano" changeset="9404199">
    <nd ref="275735773"/>
    <nd ref="278796517"/>
    <nd ref="1446384422"/>
    <nd ref="41297318"/>
    <nd ref="945693703"/>
    <nd ref="206092565"/>
    <nd ref="1242690201"/>
    <nd ref="945693592"/>
    <nd ref="206092554"/>
    <tag k="highway" v="primary"/>
    <tag k="maxspeed" v="50"/>
    <tag k="name" v="Pfannhausstraße"/>
    <tag k="ref" v="B171"/>
  </way>
  <way id="5571374" version="39" timestamp="2012-01-17T22:15:04Z" uid="45481" user="borisC" changeset="10422887"/>
  <way id="5571381" version="9" timestamp="2009-09-30T15:53:55Z" uid="36809" user="pfoten_weg_!_" changeset="2689684">
    <nd ref="56521812"/>
    <nd ref="41297374"/>
    <tag k="highway" v="secondary"/>
  </way>
  <way id="5571381" version="10" timestamp="2010-07-27T11:04:06Z" uid="251808" user="cxs" changeset="5328252">
    <nd ref="56521713"/>
    <nd ref="41297374"/>
    <tag k="highway" v="secondary"/>
  </way>
  <way id="5571381" version="11" timestamp="2011-01-15T19:30:42Z" uid="251808" user="cxs" changeset="6981062">
    <nd ref="1105029719"/>
    <nd ref="1105031270"/>
    <tag k="highway" v="secondary"/>
  </way>
  <way id="5571381" version="12" timestamp="2011-04-13T16:02:55Z" uid="81244" user="rurseekatze" changeset="7853146">
    <nd ref="1105029719"/>
    <nd ref="1105031270"/>
    <tag k="highway" v="secondary"/>
    <tag k="lit" v="yes"/>
    <tag k="maxspeed" v="50"/>
  </way>
  <way id="5571385" version="11" timestamp="2009-09-30T15:53:54Z" uid="36809" user="pfoten_weg_!_" changeset="2689684">
    <nd ref="56521807"/>
    <nd ref="276074864"/>
    <nd ref="41297413"/>
    <nd ref="42104965"/>
    <nd ref="42104961"/>
    <nd ref="276077136"/>
    <tag k="highway" v="secondary"/>
    <tag k="oneway" v="yes"/>
  </way>
  <way id="5571385" version="12" timestamp="2010-06-11T09:47:58Z" uid="45481" user="borisC" changeset="4961090">
    <nd ref="56521807"/>
    <nd ref="769091336"/>
    <nd ref="276074864"/>
    <nd ref="41297413"/>
    <nd ref="42104965"/>
    <nd ref="42104961"/>
    <nd ref="276077136"/>
    <tag k="highway" v="secondary"/>
    <tag k="oneway" v="yes"/>
  </way>
  <way id="5571385" version="13" timestamp="2011-04-13T16:03:18Z" uid="81244" user="rurseekatze" changeset="7853146">
    <nd ref="56521807"/>
    <nd ref="769091336"/>
    <nd ref="1243385121"/>
    <nd ref="276074864"/>
    <nd ref="41297413"/>
    <nd ref="42104965"/>
    <nd ref="42104961"/>
    <nd ref="276077136"/>
    <tag k="highway" v="secondary"/>
    <tag k="lit" v="yes"/>
    <tag k="maxspeed" v="50"/>
    <tag k="oneway" v="yes"/>
  </way>
  <way id="5571389" version="5" timestamp="2009-09-30T15:53:52Z" uid="36809" user="pfoten_weg_!_" changeset="2689684">
    <nd ref="41299921"/>
    <nd ref="378517905"/>
    <nd ref="41299916"/>
    <nd ref="41299889"/>
    <nd ref="39013601"/>
    <tag k="highway" v="residential"/>
    <tag k="name" v="An-der-Lan-Straße"/>
    <tag k="oneway" v="yes"/>
  </way>
  <way id="5571389" version="6" timestamp="2012-01-11T12:18:37Z" uid="45481" user="borisC" changeset="10360031"/>
  <way id="5571391" version="5" timestamp="2009-09-30T15:53:51Z" uid="36809" user="pfoten_weg_!_" changeset="2689684">
    <nd ref="41299694"/>
    <nd ref="41299926"/>
    <tag k="highway" v="tertiary"/>
    <tag k="name" v="Serlesstraße"/>
  </way>
  <way id="5571393" version="2" timestamp="2009-09-30T15:54:53Z" uid="36809" user="pfoten_weg_!_" changeset="2689684">
    <nd ref="41310617"/>
    <nd ref="54500695"/>
    <nd ref="42106662"/>
    <nd ref="41300014"/>
    <nd ref="41312269"/>
    <tag k="highway" v="residential"/>
    <tag k="name" v="Rotadlerstraße"/>
  </way>
  <way id="5571385" version="14" timestamp="2012-08-17T02:56:52Z" uid="45481" user="borisC" changeset="12757492">
    <nd ref="56521807"/>
    <nd ref="276074864"/>
    <nd ref="41297413"/>
    <nd ref="42104965"/>
    <nd ref="42104961"/>
    <nd ref="276077136"/>
    <tag k="highway" v="secondary"/>
    <tag k="lit" v="yes"/>
    <tag k="maxspeed" v="50"/>
    <tag k="oneway" v="yes"/>
  </way>
  <way id="5571393" version="3" timestamp="2012-08-17T02:56:54Z" uid="45481" user="borisC" changeset="12757492">
    <nd ref="41310617"/>
    <nd ref="54500695"/>
    <nd ref="42106662"/>
    <nd ref="41300014"/>
    <nd ref="1869448953"/>
    <nd ref="41312269"/>
    <tag k="highway" v="residential"/>
    <tag k="name" v="Rotadlerstraße"/>
  </way>
</osm>
