<?xml version='1.0' encoding='UTF-8'?>
<osm version="0.6" generator="libosmium/2.20.0">
  <way id="55785092" version="4" timestamp="2011-01-14T16:42:07Z" uid="115477" user="wowik" changeset="6968851">
    <nd ref="700741665"/>
    <nd ref="937152598"/>
    <nd ref="937152599"/>
    <nd ref="700741668"/>
    <nd ref="937152600"/>
    <nd ref="937152603"/>
    <nd ref="700741671"/>
    <nd ref="937152607"/>
    <nd ref="700741674"/>
    <nd ref="937152611"/>
    <nd ref="937152612"/>
    <nd ref="700741676"/>
    <nd ref="937152613"/>
    <nd ref="937152614"/>
    <nd ref="700741679"/>
    <nd ref="937152617"/>
    <nd ref="1103423923"/>
    <nd ref="1103424465"/>
    <nd ref="700741684"/>
    <nd ref="700741692"/>
    <nd ref="705553488"/>
    <nd ref="937152625"/>
    <nd ref="700741665"/>
    <tag k="addr:city" v="Зеленоград"/>
    <tag k="addr:housenumber" v="30 А или с1?"/>
    <tag k="addr:street" v="улица Панфилова"/>
    <tag k="amenity" v="parking"/>
    <tag k="building" v="yes"/>
    <tag k="parking" v="multi-storey"/>
  </way>
  <way id="55785092" version="5" timestamp="2011-02-02T10:46:10Z" uid="241531" user="dik_man" changeset="7163345">
    <nd ref="700741665"/>
    <nd ref="937152598"/>
    <nd ref="937152599"/>
    <nd ref="700741668"/>
    <nd ref="937152600"/>
    <nd ref="937152603"/>
    <nd ref="700741671"/>
    <nd ref="937152607"/>
    <nd ref="700741674"/>
    <nd ref="937152611"/>
    <nd ref="937152612"/>
    <nd ref="700741676"/>
    <nd ref="937152613"/>
    <nd ref="937152614"/>
    <nd ref="700741679"/>
    <nd ref="937152617"/>
    <nd ref="1103423923"/>
    <nd ref="1103424465"/>
    <nd ref="700741684"/>
    <nd ref="700741692"/>
    <nd ref="705553488"/>
    <nd ref="937152625"/>
    <nd ref="700741665"/>
    <tag k="addr:city" v="Зеленоград"/>
    <tag k="addr:housenumber" v="2"/>
    <tag k="addr:street" v="Гоголя"/>
    <tag k="amenity" v="parking"/>
    <tag k="building" v="yes"/>
    <tag k="parking" v="multi-storey"/>
  </way>
  <way id="55785092" version="6" timestamp="2011-03-14T11:01:00Z" uid="115477" user="wowik" changeset="7555087">
    <nd ref="700741665"/>
    <nd ref="937152598"/>
    <nd ref="937152599"/>
    <nd ref="700741668"/>
    <nd ref="937152600"/>
    <nd ref="937152603"/>
    <nd ref="700741671"/>
    <nd ref="937152607"/>
    <nd ref="700741674"/>
    <nd ref="937152611"/>
    <nd ref="937152612"/>
    <nd ref="700741676"/>
    <nd ref="937152613"/>
    <nd ref="937152614"/>
    <nd ref="700741679"/>
    <nd ref="937152617"/>
    <nd ref="1103423923"/>
    <nd ref="1103424465"/>
    <nd ref="700741684"/>
    <nd ref="700741692"/>
    <nd ref="705553488"/>
    <nd ref="937152625"/>
    <nd ref="700741665"/>
    <tag k="addr:city" v="Зеленоград"/>
    <tag k="addr:housenumber" v="2"/>
    <tag k="addr:street" v="улица Гоголя"/>
    <tag k="amenity" v="parking"/>
    <tag k="building" v="yes"/>
    <tag k="parking" v="multi-storey"/>
  </way>
  <way id="55785092" version="7" timestamp="2012-03-27T08:07:27Z" uid="481934" user="iWowik" changeset="11113698">
    <nd ref="700741665"/>
    <nd ref="937152598"/>
    <nd ref="937152599"/>
    <nd ref="700741668"/>
    <nd ref="937152600"/>
    <nd ref="937152603"/>
    <nd ref="700741671"/>
    <nd ref="937152607"/>
    <nd ref="700741674"/>
    <nd ref="937152611"/>
    <nd ref="937152612"/>
    <nd ref="700741676"/>
    <nd ref="937152613"/>
    <nd ref="937152614"/>
    <nd ref="700741679"/>
    <nd ref="937152617"/>
    <nd ref="1103423923"/>
    <nd ref="1103424465"/>
    <nd ref="700741684"/>
    <nd ref="700741692"/>
    <nd ref="705553488"/>
    <nd ref="937152625"/>
    <nd ref="700741665"/>
    <tag k="addr:city" v="Зеленоград"/>
    <tag k="addr:country" v="RU"/>
    <tag k="addr:housenumber" v="2"/>
    <tag k="addr:street" v="улица Гоголя"/>
    <tag k="amenity" v="parking"/>
    <tag k="building" v="yes"/>
    <tag k="parking" v="multi-storey"/>
  </way>
  <way id="55785092" version="8" timestamp="2012-03-27T11:38:36Z" uid="481934" user="iWowik" changeset="11115472">
    <nd ref="700741665"/>
    <nd ref="937152598"/>
    <nd ref="937152599"/>
    <nd ref="700741668"/>
    <nd ref="937152600"/>
    <nd ref="937152603"/>
    <nd ref="700741671"/>
    <nd ref="937152607"/>
    <nd ref="700741674"/>
    <nd ref="937152611"/>
    <nd ref="937152612"/>
    <nd ref="700741676"/>
    <nd ref="937152613"/>
    <nd ref="937152614"/>
    <nd ref="700741679"/>
    <nd ref="937152617"/>
    <nd ref="1103423923"/>
    <nd ref="1103424465"/>
    <nd ref="700741684"/>
    <nd ref="700741692"/>
    <nd ref="705553488"/>
    <nd ref="937152625"/>
    <nd ref="700741665"/>
    <tag k="addr:city" v="Зеленоград"/>
    <tag k="addr:country" v="RU"/>
    <tag k="addr:housenumber" v="2"/>
    <tag k="addr:region" v="Москва"/>
    <tag k="addr:street" v="улица Гоголя"/>
    <tag k="amenity" v="parking"/>
    <tag k="building" v="yes"/>
    <tag k="parking" v="multi-storey"/>
  </way>
  <way id="55785204" version="3" timestamp="2011-01-25T16:41:56Z" uid="115477" user="wowik" changeset="7085294">
    <nd ref="700742163"/>
    <nd ref="700742164"/>
    <nd ref="700742165"/>
    <nd ref="700742166"/>
    <nd ref="700742163"/>
    <tag k="addr:city" v="Зеленоград"/>
    <tag k="addr:housenumber" v="1004Б"/>
    <tag k="addr:street" v="10-й Микрорайон"/>
    <tag k="building" v="yes"/>
    <tag k="building:levels" v="1"/>
    <tag k="is_in" v="Russia"/>
  </way>
  <way id="55785204" version="4" timestamp="2011-06-07T20:48:50Z" uid="133332" user="AMDmi3" changeset="8374030">
    <nd ref="700742163"/>
    <nd ref="700742164"/>
    <nd ref="700742165"/>
    <nd ref="700742166"/>
    <nd ref="700742163"/>
    <tag k="addr:city" v="Зеленоград"/>
    <tag k="addr:housenumber" v="1004Б"/>
    <tag k="addr:street" v="10-й микрорайон"/>
    <tag k="building" v="yes"/>
    <tag k="building:levels" v="1"/>
    <tag k="is_in" v="Russia"/>
  </way>
  <way id="55785204" version="5" timestamp="2011-09-13T10:21:04Z" uid="29320" user="Komяpa" changeset="9288237">
    <nd ref="700742163"/>
    <nd ref="700742164"/>
    <nd ref="700742165"/>
    <nd ref="700742166"/>
    <nd ref="700742163"/>
    <tag k="addr:city" v="Зеленоград"/>
    <tag k="addr:country" v="RU"/>
    <tag k="addr:housenumber" v="1004Б"/>
    <tag k="addr:street" v="10-й микрорайон"/>
    <tag k="building" v="yes"/>
    <tag k="building:levels" v="1"/>
  </way>
  <way id="55785204" version="6" timestamp="2012-03-27T11:33:34Z" uid="481934" user="iWowik" changeset="11115472">
    <nd ref="700742163"/>
    <nd ref="700742164"/>
    <nd ref="700742165"/>
    <nd ref="700742166"/>
    <nd ref="700742163"/>
    <tag k="addr:city" v="Зеленоград"/>
    <tag k="addr:country" v="RU"/>
    <tag k="addr:housenumber" v="1004Б"/>
    <tag k="addr:region" v="Москва"/>
    <tag k="addr:street" v="10-й микрорайон"/>
    <tag k="building" v="yes"/>
    <tag k="building:levels" v="1"/>
  </way>
  <way id="55785210" version="1" timestamp="2010-04-18T08:25:19Z" uid="30201" user="rrankin" changeset="4455143">
    <nd ref="700742296"/>
    <nd ref="694825743"/>
    <nd ref="694825744"/>
    <nd ref="694825745"/>
    <nd ref="694825746"/>
    <nd ref="700742299"/>
    <nd ref="700742301"/>
    <nd ref="694825747"/>
    <tag k="waterway" v="stream"/>
  </way>
  <way id="55785210" version="2" timestamp="2011-04-17T03:23:33Z" uid="7617" user="Franc" changeset="7883659">
    <nd ref="700742296"/>
    <nd ref="694825743"/>
    <nd ref="694825744"/>
    <nd ref="694825745"/>
    <nd ref="694825746"/>
    <nd ref="700742299"/>
    <nd ref="700742301"/>
    <nd ref="694825747"/>
    <tag k="layer" v="-1"/>
    <tag k="waterway" v="stream"/>
  </way>
  <way id="55785211" version="1" timestamp="2010-04-18T08:25:19Z" uid="30201" user="rrankin" changeset="4455143">
    <nd ref="694825742"/>
    <nd ref="700742296"/>
    <tag k="layer" v="-1"/>
    <tag k="waterway" v="stream"/>
  </way>
  <way id="55785212" version="1" timestamp="2010-04-18T08:25:19Z" uid="30201" user="rrankin" changeset="4455143">
    <nd ref="700742302"/>
    <nd ref="694825748"/>
    <nd ref="694825749"/>
    <nd ref="700742307"/>
    <tag k="waterway" v="stream"/>
  </way>
  <way id="55785213" version="1" timestamp="2010-04-18T08:25:19Z" uid="30201" user="rrankin" changeset="4455143">
    <nd ref="694825747"/>
    <nd ref="700742302"/>
    <tag k="layer" v="-1"/>
    <tag k="waterway" v="stream"/>
  </way>
  <way id="55785214" version="1" timestamp="2010-04-18T08:25:19Z" uid="30201" user="rrankin" changeset="4455143">
    <nd ref="694825750"/>
    <nd ref="694825751"/>
    <nd ref="694825752"/>
    <nd ref="694825753"/>
    <nd ref="693823168"/>
    <nd ref="693823169"/>
    <nd ref="693823170"/>
    <nd ref="693823171"/>
    <nd ref="693823172"/>
    <nd ref="693823173"/>
    <nd ref="693823175"/>
    <nd ref="693823176"/>
    <nd ref="693823177"/>
    <nd ref="693823178"/>
    <tag k="waterway" v="stream"/>
  </way>
  <way id="55785215" version="1" timestamp="2010-04-18T08:25:19Z" uid="30201" user="rrankin" changeset="4455143">
    <nd ref="700742307"/>
    <nd ref="694825750"/>
    <tag k="layer" v="-1"/>
    <tag k="waterway" v="stream"/>
  </way>
  <way id="55785216" version="1" timestamp="2010-04-18T08:25:20Z" uid="30201" user="rrankin" changeset="4455143">
    <nd ref="694200393"/>
    <nd ref="676304708"/>
    <nd ref="694082354"/>
    <nd ref="676304710"/>
    <nd ref="676304711"/>
    <nd ref="676304712"/>
    <nd ref="676304713"/>
    <tag k="highway" v="residential"/>
    <tag k="name" v="Vista Avenue"/>
    <tag k="source" v="nearmap; survey"/>
  </way>
  <way id="55785216" version="2" timestamp="2010-07-08T16:37:49Z" uid="74617" user="JohnSmith" changeset="5167338">
    <nd ref="694200393"/>
    <nd ref="676304708"/>
    <nd ref="694082354"/>
    <nd ref="676304710"/>
    <nd ref="676304711"/>
    <nd ref="676304712"/>
    <nd ref="676304713"/>
    <tag k="highway" v="residential"/>
    <tag k="maxspeed" v="50"/>
    <tag k="maxspeed:source" v="default residential speed limit in Australia"/>
    <tag k="name" v="Vista Avenue"/>
    <tag k="source" v="nearmap; survey"/>
  </way>
  <way id="55785216" version="3" timestamp="2011-04-17T03:23:34Z" uid="7617" user="Franc" changeset="7883659">
    <nd ref="694200393"/>
    <nd ref="676304708"/>
    <nd ref="694082354"/>
    <nd ref="676304710"/>
    <nd ref="676304711"/>
    <nd ref="1247870375"/>
    <nd ref="676304712"/>
    <nd ref="1247870384"/>
    <nd ref="1247870392"/>
    <nd ref="676304713"/>
    <nd ref="694200397"/>
    <tag k="highway" v="residential"/>
    <tag k="maxspeed" v="50"/>
    <tag k="maxspeed:source" v="default residential speed limit in Australia"/>
    <tag k="name" v="Vista Avenue"/>
    <tag k="source" v="nearmap; survey"/>
  </way>
  <way id="55785216" version="4" timestamp="2012-01-20T06:03:16Z" uid="147510" user="woodpeck_fixbot" changeset="10443281">
    <nd ref="694200393"/>
    <nd ref="676304708"/>
    <nd ref="694082354"/>
    <nd ref="676304710"/>
    <nd ref="676304711"/>
    <nd ref="1247870375"/>
    <nd ref="676304712"/>
    <nd ref="1247870384"/>
    <nd ref="1247870392"/>
    <nd ref="676304713"/>
    <nd ref="694200397"/>
    <tag k="highway" v="residential"/>
    <tag k="name" v="Vista Avenue"/>
    <tag k="source" v="nearmap; survey"/>
  </way>
  <way id="55785238" version="2" timestamp="2011-01-17T16:52:56Z" uid="115477" user="wowik" changeset="7001307">
    <nd ref="700742493"/>
    <nd ref="1107763223"/>
    <nd ref="700742494"/>
    <nd ref="700742496"/>
    <nd ref="1107763377"/>
    <nd ref="700742497"/>
    <nd ref="1107763539"/>
    <nd ref="1107763719"/>
    <nd ref="700742493"/>
    <tag k="building" v="yes"/>
  </way>
  <way id="55785238" version="3" timestamp="2011-01-18T12:23:47Z" uid="115477" user="wowik" changeset="7009789">
    <nd ref="700742493"/>
    <nd ref="1107763223"/>
    <nd ref="700742494"/>
    <nd ref="700742496"/>
    <nd ref="1107763377"/>
    <nd ref="700742497"/>
    <nd ref="1107763539"/>
    <nd ref="1107763719"/>
    <nd ref="700742493"/>
    <tag k="addr:city" v="Зеленоград"/>
    <tag k="addr:housenumber" v="908с3"/>
    <tag k="addr:street" v="9-й Микрорайон"/>
    <tag k="building" v="yes"/>
    <tag k="building:levels" v="1"/>
    <tag k="is_in" v="Russia"/>
  </way>
  <way id="55785238" version="4" timestamp="2011-01-19T16:51:18Z" uid="70696" user="xybot" changeset="7021015">
    <nd ref="700742493"/>
    <nd ref="1107763223"/>
    <nd ref="700742494"/>
    <nd ref="700742496"/>
    <nd ref="1107763377"/>
    <nd ref="700742497"/>
    <nd ref="1107763539"/>
    <nd ref="1107763719"/>
    <nd ref="700742493"/>
    <tag k="addr:city" v="Зеленоград"/>
    <tag k="addr:housenumber" v="908 с3"/>
    <tag k="addr:street" v="9-й Микрорайон"/>
    <tag k="building" v="yes"/>
    <tag k="building:levels" v="1"/>
    <tag k="is_in" v="Russia"/>
  </way>
  <way id="55785238" version="5" timestamp="2011-06-07T20:47:43Z" uid="133332" user="AMDmi3" changeset="8374030">
    <nd ref="700742493"/>
    <nd ref="1107763223"/>
    <nd ref="700742494"/>
    <nd ref="700742496"/>
    <nd ref="1107763377"/>
    <nd ref="700742497"/>
    <nd ref="1107763539"/>
    <nd ref="1107763719"/>
    <nd ref="700742493"/>
    <tag k="addr:city" v="Зеленоград"/>
    <tag k="addr:housenumber" v="908 с3"/>
    <tag k="addr:street" v="9-й микрорайон"/>
    <tag k="building" v="yes"/>
    <tag k="building:levels" v="1"/>
    <tag k="is_in" v="Russia"/>
  </way>
  <way id="55785238" version="6" timestamp="2011-09-13T10:29:13Z" uid="29320" user="Komяpa" changeset="9288237">
    <nd ref="700742493"/>
    <nd ref="1107763223"/>
    <nd ref="700742494"/>
    <nd ref="700742496"/>
    <nd ref="1107763377"/>
    <nd ref="700742497"/>
    <nd ref="1107763539"/>
    <nd ref="1107763719"/>
    <nd ref="700742493"/>
    <tag k="addr:city" v="Зеленоград"/>
    <tag k="addr:country" v="RU"/>
    <tag k="addr:housenumber" v="908 с3"/>
    <tag k="addr:street" v="9-й микрорайон"/>
    <tag k="building" v="yes"/>
    <tag k="building:levels" v="1"/>
  </way>
  <way id="55785238" version="7" timestamp="2012-03-27T11:46:59Z" uid="481934" user="iWowik" changeset="11115472">
    <nd ref="700742493"/>
    <nd ref="1107763223"/>
    <nd ref="700742494"/>
    <nd ref="700742496"/>
    <nd ref="1107763377"/>
    <nd ref="700742497"/>
    <nd ref="1107763539"/>
    <nd ref="1107763719"/>
    <nd ref="700742493"/>
    <tag k="addr:city" v="Зеленоград"/>
    <tag k="addr:country" v="RU"/>
    <tag k="addr:housenumber" v="908 с3"/>
    <tag k="addr:region" v="Москва"/>
    <tag k="addr:street" v="9-й микрорайон"/>
    <tag k="building" v="yes"/>
    <tag k="building:levels" v="1"/>
  </way>
  <way id="55785239" version="2" timestamp="2011-01-17T16:53:26Z" uid="115477" user="wowik" changeset="7001307">
    <nd ref="700742498"/>
    <nd ref="1107763560"/>
    <nd ref="1107763646"/>
    <nd ref="700742499"/>
    <nd ref="700742500"/>
    <nd ref="1107763028"/>
    <nd ref="1107762686"/>
    <nd ref="700742501"/>
    <nd ref="700742498"/>
    <tag k="building" v="yes"/>
  </way>
  <way id="55785239" version="3" timestamp="2011-01-18T12:21:15Z" uid="115477" user="wowik" changeset="7009789">
    <nd ref="700742498"/>
    <nd ref="1107763560"/>
    <nd ref="1107763646"/>
    <nd ref="700742499"/>
    <nd ref="700742500"/>
    <nd ref="1107763028"/>
    <nd ref="1107762686"/>
    <nd ref="700742501"/>
    <nd ref="700742498"/>
    <tag k="addr:city" v="Зеленоград"/>
    <tag k="addr:housenumber" v="908с4"/>
    <tag k="addr:street" v="9-й Микрорайон"/>
    <tag k="building" v="yes"/>
    <tag k="building:levels" v="1"/>
    <tag k="is_in" v="Russia"/>
  </way>
  <way id="55785239" version="4" timestamp="2011-01-19T16:51:19Z" uid="70696" user="xybot" changeset="7021015">
    <nd ref="700742498"/>
    <nd ref="1107763560"/>
    <nd ref="1107763646"/>
    <nd ref="700742499"/>
    <nd ref="700742500"/>
    <nd ref="1107763028"/>
    <nd ref="1107762686"/>
    <nd ref="700742501"/>
    <nd ref="700742498"/>
    <tag k="addr:city" v="Зеленоград"/>
    <tag k="addr:housenumber" v="908 с4"/>
    <tag k="addr:street" v="9-й Микрорайон"/>
    <tag k="building" v="yes"/>
    <tag k="building:levels" v="1"/>
    <tag k="is_in" v="Russia"/>
  </way>
  <way id="55785239" version="5" timestamp="2011-06-07T20:47:42Z" uid="133332" user="AMDmi3" changeset="8374030">
    <nd ref="700742498"/>
    <nd ref="1107763560"/>
    <nd ref="1107763646"/>
    <nd ref="700742499"/>
    <nd ref="700742500"/>
    <nd ref="1107763028"/>
    <nd ref="1107762686"/>
    <nd ref="700742501"/>
    <nd ref="700742498"/>
    <tag k="addr:city" v="Зеленоград"/>
    <tag k="addr:housenumber" v="908 с4"/>
    <tag k="addr:street" v="9-й микрорайон"/>
    <tag k="building" v="yes"/>
    <tag k="building:levels" v="1"/>
    <tag k="is_in" v="Russia"/>
  </way>
  <way id="55785239" version="6" timestamp="2011-09-13T10:29:14Z" uid="29320" user="Komяpa" changeset="9288237">
    <nd ref="700742498"/>
    <nd ref="1107763560"/>
    <nd ref="1107763646"/>
    <nd ref="700742499"/>
    <nd ref="700742500"/>
    <nd ref="1107763028"/>
    <nd ref="1107762686"/>
    <nd ref="700742501"/>
    <nd ref="700742498"/>
    <tag k="addr:city" v="Зеленоград"/>
    <tag k="addr:country" v="RU"/>
    <tag k="addr:housenumber" v="908 с4"/>
    <tag k="addr:street" v="9-й микрорайон"/>
    <tag k="building" v="yes"/>
    <tag k="building:levels" v="1"/>
  </way>
  <way id="55785239" version="7" timestamp="2012-03-27T11:46:59Z" uid="481934" user="iWowik" changeset="11115472">
    <nd ref="700742498"/>
    <nd ref="1107763560"/>
    <nd ref="1107763646"/>
    <nd ref="700742499"/>
    <nd ref="700742500"/>
    <nd ref="1107763028"/>
    <nd ref="1107762686"/>
    <nd ref="700742501"/>
    <nd ref="700742498"/>
    <tag k="addr:city" v="Зеленоград"/>
    <tag k="addr:country" v="RU"/>
    <tag k="addr:housenumber" v="908 с4"/>
    <tag k="addr:region" v="Москва"/>
    <tag k="addr:street" v="9-й микрорайон"/>
    <tag k="building" v="yes"/>
    <tag k="building:levels" v="1"/>
  </way>
  <way id="55785471" version="1" timestamp="2010-04-18T08:34:26Z" uid="4467" user="Rosscoe" changeset="4455221">
    <nd ref="700745848"/>
    <nd ref="97508673"/>
    <nd ref="700745852"/>
    <tag k="highway" v="tertiary"/>
    <tag k="name" v="Ewing Street"/>
  </way>
  <way id="55785472" version="1" timestamp="2010-04-18T08:34:26Z" uid="4467" user="Rosscoe" changeset="4455221">
    <nd ref="700745846"/>
    <nd ref="292217907"/>
    <nd ref="97508335"/>
    <nd ref="292217902"/>
    <nd ref="32881189"/>
    <tag k="highway" v="residential"/>
    <tag k="name" v="Barkly Street"/>
  </way>
  <way id="55785472" version="2" timestamp="2010-07-09T02:53:14Z" uid="74617" user="JohnSmith" changeset="5170739">
    <nd ref="700745846"/>
    <nd ref="292217907"/>
    <nd ref="97508335"/>
    <nd ref="292217902"/>
    <nd ref="32881189"/>
    <tag k="highway" v="residential"/>
    <tag k="maxspeed" v="50"/>
    <tag k="maxspeed:source" v="default residential speed limit in Australia"/>
    <tag k="name" v="Barkly Street"/>
  </way>
  <way id="55785472" version="3" timestamp="2011-05-25T04:33:28Z" uid="11111" user="melb_guy" changeset="8241325">
    <nd ref="700745846"/>
    <nd ref="292217907"/>
    <nd ref="1299184487"/>
    <nd ref="1299184563"/>
    <nd ref="1299184606"/>
    <nd ref="1299184589"/>
    <nd ref="1299184569"/>
    <nd ref="1299184608"/>
    <nd ref="1299184494"/>
    <nd ref="97508335"/>
    <nd ref="1299184591"/>
    <nd ref="1299184607"/>
    <nd ref="1299184560"/>
    <nd ref="1299184575"/>
    <nd ref="1299184605"/>
    <nd ref="1299184586"/>
    <nd ref="292217902"/>
    <nd ref="1299184514"/>
    <nd ref="1299184570"/>
    <nd ref="1299184527"/>
    <nd ref="1299184534"/>
    <nd ref="1299184504"/>
    <tag k="highway" v="residential"/>
    <tag k="maxspeed" v="50"/>
    <tag k="maxspeed:source" v="default residential speed limit in Australia"/>
    <tag k="name" v="Barkly Street"/>
  </way>
  <way id="55785472" version="4" timestamp="2011-05-25T05:53:52Z" uid="11111" user="melb_guy" changeset="8241549">
    <nd ref="700745846"/>
    <nd ref="1299236749"/>
    <nd ref="292217907"/>
    <nd ref="1299184487"/>
    <nd ref="1299184563"/>
    <nd ref="1299184606"/>
    <nd ref="1299184589"/>
    <nd ref="1299184569"/>
    <nd ref="1299184608"/>
    <nd ref="1299184494"/>
    <nd ref="97508335"/>
    <nd ref="1299184591"/>
    <nd ref="1299184607"/>
    <nd ref="1299184560"/>
    <nd ref="1299184575"/>
    <nd ref="1299184605"/>
    <nd ref="1299184586"/>
    <nd ref="292217902"/>
    <nd ref="1299184514"/>
    <nd ref="1299184570"/>
    <nd ref="1299184527"/>
    <nd ref="1299184534"/>
    <nd ref="1299184504"/>
    <tag k="highway" v="residential"/>
    <tag k="maxspeed" v="50"/>
    <tag k="maxspeed:source" v="default residential speed limit in Australia"/>
    <tag k="name" v="Barkly Street"/>
  </way>
  <way id="55785472" version="5" timestamp="2011-05-28T07:52:21Z" uid="434542" user="null_dev" changeset="8269088">
    <nd ref="700745846"/>
    <nd ref="1299236749"/>
    <nd ref="292217907"/>
    <nd ref="1299184487"/>
    <nd ref="1299184589"/>
    <nd ref="1303000734"/>
    <nd ref="97508335"/>
    <nd ref="1299184591"/>
    <nd ref="1299184575"/>
    <nd ref="1299184586"/>
    <nd ref="292217902"/>
    <nd ref="1299184527"/>
    <nd ref="1299184534"/>
    <nd ref="1299184504"/>
    <tag k="highway" v="residential"/>
    <tag k="maxspeed" v="50"/>
    <tag k="maxspeed:source" v="default residential speed limit in Australia"/>
    <tag k="name" v="Barkly Street"/>
  </way>
  <way id="55785472" version="6" timestamp="2012-02-05T04:27:41Z" uid="16374" user="gaffa" changeset="10590375"/>
  <way id="55785473" version="1" timestamp="2010-04-18T08:34:26Z" uid="4467" user="Rosscoe" changeset="4455221">
    <nd ref="700745845"/>
    <nd ref="700745844"/>
    <nd ref="700745848"/>
    <nd ref="700745847"/>
    <nd ref="700745846"/>
    <nd ref="700745843"/>
    <nd ref="700745842"/>
    <nd ref="700745841"/>
    <nd ref="700745845"/>
    <tag k="highway" v="tertiary"/>
    <tag k="junction" v="roundabout"/>
  </way>
  <way id="55785473" version="2" timestamp="2011-05-25T05:53:52Z" uid="11111" user="melb_guy" changeset="8241549">
    <nd ref="700745845"/>
    <nd ref="700745844"/>
    <nd ref="700745848"/>
    <nd ref="700745847"/>
    <nd ref="700745846"/>
    <nd ref="1299236753"/>
    <nd ref="700745843"/>
    <nd ref="700745842"/>
    <nd ref="700745841"/>
    <nd ref="700745845"/>
    <tag k="highway" v="tertiary"/>
    <tag k="junction" v="roundabout"/>
  </way>
  <way id="55785474" version="1" timestamp="2010-04-18T08:34:26Z" uid="4467" user="Rosscoe" changeset="4455221">
    <nd ref="700745857"/>
    <nd ref="700745855"/>
    <nd ref="700745856"/>
    <nd ref="700745853"/>
    <nd ref="700745854"/>
    <nd ref="700745851"/>
    <nd ref="700745852"/>
    <nd ref="700745849"/>
    <nd ref="700745857"/>
    <tag k="highway" v="tertiary"/>
    <tag k="junction" v="roundabout"/>
  </way>
  <way id="55785475" version="1" timestamp="2010-04-18T08:34:26Z" uid="4467" user="Rosscoe" changeset="4455221">
    <nd ref="700745854"/>
    <nd ref="32997272"/>
    <nd ref="97508113"/>
    <nd ref="32997273"/>
    <tag k="highway" v="residential"/>
    <tag k="name" v="Weston Street"/>
  </way>
  <way id="55785475" version="2" timestamp="2010-06-12T22:42:05Z" uid="1679" user="andrewpmk" changeset="4974652">
    <nd ref="700745854"/>
    <nd ref="32997272"/>
    <nd ref="97508113"/>
    <nd ref="770707944"/>
    <nd ref="32997273"/>
    <tag k="highway" v="residential"/>
    <tag k="name" v="Weston Street"/>
  </way>
  <way id="55785475" version="3" timestamp="2010-06-12T22:42:38Z" uid="1679" user="andrewpmk" changeset="4974652">
    <nd ref="700745854"/>
    <nd ref="770708772"/>
    <nd ref="32997272"/>
    <nd ref="97508113"/>
    <nd ref="770707944"/>
    <nd ref="32997273"/>
    <tag k="highway" v="residential"/>
    <tag k="name" v="Weston Street"/>
  </way>
  <way id="55785475" version="4" timestamp="2010-07-09T02:59:58Z" uid="74617" user="JohnSmith" changeset="5170739">
    <nd ref="700745854"/>
    <nd ref="770708772"/>
    <nd ref="32997272"/>
    <nd ref="97508113"/>
    <nd ref="770707944"/>
    <nd ref="32997273"/>
    <tag k="highway" v="residential"/>
    <tag k="maxspeed" v="50"/>
    <tag k="maxspeed:source" v="default residential speed limit in Australia"/>
    <tag k="name" v="Weston Street"/>
  </way>
  <way id="55785475" version="5" timestamp="2011-05-25T04:33:29Z" uid="11111" user="melb_guy" changeset="8241325">
    <nd ref="700745854"/>
    <nd ref="770708772"/>
    <nd ref="32997272"/>
    <nd ref="97508113"/>
    <nd ref="770707944"/>
    <nd ref="1299184568"/>
    <nd ref="1299184561"/>
    <nd ref="32997273"/>
    <tag k="highway" v="residential"/>
    <tag k="maxspeed" v="50"/>
    <tag k="maxspeed:source" v="default residential speed limit in Australia"/>
    <tag k="name" v="Weston Street"/>
  </way>
  <way id="55785475" version="6" timestamp="2011-05-28T07:52:26Z" uid="434542" user="null_dev" changeset="8269088">
    <nd ref="700745854"/>
    <nd ref="770708772"/>
    <nd ref="32997272"/>
    <nd ref="97508113"/>
    <nd ref="770707944"/>
    <nd ref="1299184568"/>
    <nd ref="1299184522"/>
    <tag k="highway" v="residential"/>
    <tag k="maxspeed" v="50"/>
    <tag k="maxspeed:source" v="default residential speed limit in Australia"/>
    <tag k="name" v="Weston Street"/>
  </way>
  <way id="55785475" version="7" timestamp="2011-05-28T12:43:56Z" uid="434542" user="null_dev" changeset="8271413">
    <nd ref="700745854"/>
    <nd ref="770708772"/>
    <nd ref="32997272"/>
    <nd ref="97508113"/>
    <nd ref="770707944"/>
    <nd ref="1299184522"/>
    <tag k="highway" v="residential"/>
    <tag k="maxspeed" v="50"/>
    <tag k="maxspeed:source" v="default residential speed limit in Australia"/>
    <tag k="name" v="Weston Street"/>
  </way>
  <way id="55785476" version="1" timestamp="2010-04-18T08:34:26Z" uid="4467" user="Rosscoe" changeset="4455221">
    <nd ref="700745856"/>
    <nd ref="33239824"/>
    <nd ref="33239823"/>
    <tag k="highway" v="tertiary"/>
    <tag k="name" v="Ewing Street"/>
  </way>
  <way id="55785476" version="2" timestamp="2010-06-12T22:42:39Z" uid="1679" user="andrewpmk" changeset="4974652">
    <nd ref="700745856"/>
    <nd ref="770708777"/>
    <nd ref="33239824"/>
    <nd ref="33239823"/>
    <tag k="highway" v="tertiary"/>
    <tag k="name" v="Ewing Street"/>
  </way>
  <way id="55785476" version="3" timestamp="2011-01-29T03:45:18Z" uid="84937" user="Neil Penman" changeset="7119108">
    <nd ref="700745856"/>
    <nd ref="770708777"/>
    <nd ref="1125811954"/>
    <tag k="highway" v="tertiary"/>
    <tag k="name" v="Ewing Street"/>
  </way>
  <way id="55785512" version="1" timestamp="2010-04-18T08:37:15Z" uid="4467" user="Rosscoe" changeset="4455237">
    <nd ref="700746274"/>
    <nd ref="700746273"/>
    <nd ref="700746279"/>
    <nd ref="700746271"/>
    <nd ref="700746278"/>
    <nd ref="700746277"/>
    <nd ref="700746276"/>
    <nd ref="700746275"/>
    <nd ref="700746274"/>
    <tag k="highway" v="residential"/>
    <tag k="junction" v="roundabout"/>
  </way>
  <way id="55785512" version="2" timestamp="2010-07-09T06:21:06Z" uid="74617" user="JohnSmith" changeset="5171128">
    <nd ref="700746274"/>
    <nd ref="700746273"/>
    <nd ref="700746279"/>
    <nd ref="700746271"/>
    <nd ref="700746278"/>
    <nd ref="700746277"/>
    <nd ref="700746276"/>
    <nd ref="700746275"/>
    <nd ref="700746274"/>
    <tag k="highway" v="residential"/>
    <tag k="junction" v="roundabout"/>
    <tag k="maxspeed" v="50"/>
    <tag k="maxspeed:source" v="default residential speed limit in Australia"/>
  </way>
  <way id="55785512" version="3" timestamp="2011-04-26T08:59:42Z" uid="261730" user="Davoz" changeset="7972401">
    <nd ref="700746274"/>
    <nd ref="1260541810"/>
    <nd ref="700746273"/>
    <nd ref="1260541812"/>
    <nd ref="700746279"/>
    <nd ref="1260541813"/>
    <nd ref="1260541814"/>
    <nd ref="700746271"/>
    <nd ref="1260541816"/>
    <nd ref="700746278"/>
    <nd ref="1260541815"/>
    <nd ref="700746277"/>
    <nd ref="700746276"/>
    <nd ref="1260541817"/>
    <nd ref="1260541818"/>
    <nd ref="1260541826"/>
    <nd ref="700746275"/>
    <nd ref="1260541822"/>
    <nd ref="700746274"/>
    <tag k="highway" v="residential"/>
    <tag k="junction" v="roundabout"/>
    <tag k="maxspeed" v="50"/>
    <tag k="maxspeed:source" v="default residential speed limit in Australia"/>
  </way>
  <way id="55785512" version="4" timestamp="2011-09-15T16:59:59Z" uid="338866" user="tiger" changeset="9309654">
    <nd ref="700746274"/>
    <nd ref="1260541810"/>
    <nd ref="700746273"/>
    <nd ref="700746279"/>
    <nd ref="700746271"/>
    <nd ref="700746278"/>
    <nd ref="700746277"/>
    <nd ref="700746276"/>
    <nd ref="700746275"/>
    <nd ref="700746274"/>
    <tag k="highway" v="residential"/>
    <tag k="junction" v="roundabout"/>
    <tag k="maxspeed" v="50"/>
    <tag k="maxspeed:source" v="default residential speed limit in Australia"/>
  </way>
  <way id="55785513" version="1" timestamp="2010-04-18T08:37:15Z" uid="4467" user="Rosscoe" changeset="4455237">
    <nd ref="700746278"/>
    <nd ref="598299035"/>
    <nd ref="34664012"/>
    <nd ref="34664013"/>
    <nd ref="52103635"/>
    <nd ref="34664014"/>
    <nd ref="32530514"/>
    <tag k="highway" v="residential"/>
    <tag k="name" v="Lisa Road"/>
  </way>
  <way id="55785513" version="2" timestamp="2010-07-09T06:19:07Z" uid="74617" user="JohnSmith" changeset="5171128">
    <nd ref="700746278"/>
    <nd ref="598299035"/>
    <nd ref="34664012"/>
    <nd ref="34664013"/>
    <nd ref="52103635"/>
    <nd ref="34664014"/>
    <nd ref="32530514"/>
    <tag k="highway" v="residential"/>
    <tag k="maxspeed" v="50"/>
    <tag k="maxspeed:source" v="default residential speed limit in Australia"/>
    <tag k="name" v="Lisa Road"/>
  </way>
  <way id="55785649" version="2" timestamp="2010-07-07T20:07:58Z" uid="74617" user="JohnSmith" changeset="5161069">
    <nd ref="700747536"/>
    <nd ref="676656393"/>
    <tag k="highway" v="residential"/>
    <tag k="maxspeed" v="50"/>
    <tag k="maxspeed:source" v="default residential speed limit in Australia"/>
    <tag k="name" v="Peter Brock Drive"/>
    <tag k="oneway" v="yes"/>
    <tag k="source" v="nearmap, survey"/>
  </way>
  <way id="55785649" version="3" timestamp="2012-01-20T06:03:18Z" uid="147510" user="woodpeck_fixbot" changeset="10443281">
    <nd ref="700747536"/>
    <nd ref="676656393"/>
    <tag k="highway" v="residential"/>
    <tag k="name" v="Peter Brock Drive"/>
    <tag k="oneway" v="yes"/>
    <tag k="source" v="nearmap, survey"/>
  </way>
  <way id="55785658" version="2" timestamp="2010-07-07T20:11:44Z" uid="74617" user="JohnSmith" changeset="5161069">
    <nd ref="700747855"/>
    <nd ref="700747684"/>
    <nd ref="700747823"/>
    <nd ref="700747643"/>
    <nd ref="700747715"/>
    <nd ref="700747535"/>
    <nd ref="700747583"/>
    <nd ref="700747498"/>
    <nd ref="700747855"/>
    <tag k="highway" v="residential"/>
    <tag k="junction" v="roundabout"/>
    <tag k="maxspeed" v="50"/>
    <tag k="maxspeed:source" v="default residential speed limit in Australia"/>
    <tag k="source" v="nearmap"/>
  </way>
  <way id="55785658" version="3" timestamp="2010-07-10T08:15:08Z" uid="69319" user="Rhubarb" changeset="5180208">
    <nd ref="700747855"/>
    <nd ref="700747684"/>
    <nd ref="700747823"/>
    <nd ref="700747643"/>
    <nd ref="700747715"/>
    <nd ref="700747535"/>
    <nd ref="700747583"/>
    <nd ref="700747498"/>
    <nd ref="700747855"/>
    <tag k="highway" v="construction"/>
    <tag k="junction" v="roundabout"/>
    <tag k="maxspeed" v="50"/>
    <tag k="maxspeed:source" v="default residential speed limit in Australia"/>
    <tag k="source" v="nearmap"/>
  </way>
  <way id="55785658" version="4" timestamp="2011-02-28T11:25:54Z" uid="203324" user="firefly2560" changeset="7419622">
    <nd ref="700747855"/>
    <nd ref="700747684"/>
    <nd ref="700747823"/>
    <nd ref="700747643"/>
    <nd ref="700747715"/>
    <nd ref="700747535"/>
    <nd ref="700747583"/>
    <nd ref="700747498"/>
    <nd ref="700747855"/>
    <tag k="highway" v="residential"/>
    <tag k="junction" v="roundabout"/>
    <tag k="maxspeed" v="50"/>
    <tag k="maxspeed:source" v="default residential speed limit in Australia"/>
    <tag k="source" v="nearmap"/>
  </way>
  <way id="55785658" version="5" timestamp="2012-01-20T06:03:19Z" uid="147510" user="woodpeck_fixbot" changeset="10443281">
    <nd ref="700747855"/>
    <nd ref="700747684"/>
    <nd ref="700747823"/>
    <nd ref="700747643"/>
    <nd ref="700747715"/>
    <nd ref="700747535"/>
    <nd ref="700747583"/>
    <nd ref="700747498"/>
    <nd ref="700747855"/>
    <tag k="highway" v="residential"/>
    <tag k="junction" v="roundabout"/>
    <tag k="source" v="nearmap"/>
  </way>
  <way id="55785661" version="2" timestamp="2010-07-07T20:06:58Z" uid="74617" user="JohnSmith" changeset="5161069">
    <nd ref="700747486"/>
    <nd ref="700747659"/>
    <nd ref="700747763"/>
    <nd ref="700747594"/>
    <nd ref="700747727"/>
    <nd ref="700747838"/>
    <nd ref="700747801"/>
    <nd ref="700747713"/>
    <tag k="highway" v="residential"/>
    <tag k="maxspeed" v="50"/>
    <tag k="maxspeed:source" v="default residential speed limit in Australia"/>
    <tag k="name" v="under construction"/>
    <tag k="source" v="nearmap"/>
  </way>
  <way id="55785661" version="3" timestamp="2010-07-10T08:15:07Z" uid="69319" user="Rhubarb" changeset="5180208">
    <nd ref="700747486"/>
    <nd ref="700747659"/>
    <nd ref="700747763"/>
    <nd ref="700747594"/>
    <nd ref="700747727"/>
    <nd ref="700747838"/>
    <nd ref="700747801"/>
    <nd ref="700747713"/>
    <tag k="highway" v="construction"/>
    <tag k="maxspeed" v="50"/>
    <tag k="maxspeed:source" v="default residential speed limit in Australia"/>
    <tag k="name" v="under construction"/>
    <tag k="source" v="nearmap"/>
  </way>
  <way id="55785661" version="4" timestamp="2011-02-28T11:25:54Z" uid="203324" user="firefly2560" changeset="7419622">
    <nd ref="700747486"/>
    <nd ref="700747659"/>
    <nd ref="700747763"/>
    <nd ref="700747594"/>
    <nd ref="700747727"/>
    <nd ref="700747838"/>
    <nd ref="700747801"/>
    <nd ref="700747713"/>
    <tag k="highway" v="residential"/>
    <tag k="junction" v="roundabout"/>
    <tag k="maxspeed" v="50"/>
    <tag k="maxspeed:source" v="default residential speed limit in Australia"/>
    <tag k="source" v="nearmap"/>
  </way>
  <way id="55785661" version="5" timestamp="2012-01-20T06:03:21Z" uid="147510" user="woodpeck_fixbot" changeset="10443281">
    <nd ref="700747486"/>
    <nd ref="700747659"/>
    <nd ref="700747763"/>
    <nd ref="700747594"/>
    <nd ref="700747727"/>
    <nd ref="700747838"/>
    <nd ref="700747801"/>
    <nd ref="700747713"/>
    <tag k="highway" v="residential"/>
    <tag k="junction" v="roundabout"/>
    <tag k="source" v="nearmap"/>
  </way>
  <way id="55785666" version="3" timestamp="2010-07-07T20:06:28Z" uid="74617" user="JohnSmith" changeset="5161069">
    <nd ref="700747823"/>
    <nd ref="700747656"/>
    <nd ref="700747575"/>
    <nd ref="750531755"/>
    <nd ref="700747695"/>
    <nd ref="690297292"/>
    <tag k="highway" v="residential"/>
    <tag k="maxspeed" v="50"/>
    <tag k="maxspeed:source" v="default residential speed limit in Australia"/>
    <tag k="name" v="under construction"/>
    <tag k="source" v="nearmap"/>
  </way>
  <way id="55785666" version="4" timestamp="2010-07-10T08:15:05Z" uid="69319" user="Rhubarb" changeset="5180208">
    <nd ref="700747823"/>
    <nd ref="700747656"/>
    <nd ref="700747575"/>
    <nd ref="750531755"/>
    <nd ref="700747695"/>
    <nd ref="690297292"/>
    <tag k="highway" v="construction"/>
    <tag k="maxspeed" v="50"/>
    <tag k="maxspeed:source" v="default residential speed limit in Australia"/>
    <tag k="name" v="under construction"/>
    <tag k="source" v="nearmap"/>
  </way>
  <way id="55785666" version="5" timestamp="2011-02-28T11:25:54Z" uid="203324" user="firefly2560" changeset="7419622">
    <nd ref="700747823"/>
    <nd ref="700747656"/>
    <nd ref="700747575"/>
    <nd ref="750531755"/>
    <nd ref="700747695"/>
    <nd ref="690297292"/>
    <tag k="highway" v="residential"/>
    <tag k="maxspeed" v="50"/>
    <tag k="maxspeed:source" v="default residential speed limit in Australia"/>
    <tag k="source" v="nearmap"/>
  </way>
  <way id="55785666" version="6" timestamp="2012-01-20T06:03:22Z" uid="147510" user="woodpeck_fixbot" changeset="10443281">
    <nd ref="700747823"/>
    <nd ref="700747656"/>
    <nd ref="700747575"/>
    <nd ref="750531755"/>
    <nd ref="700747695"/>
    <nd ref="690297292"/>
    <tag k="highway" v="residential"/>
    <tag k="source" v="nearmap"/>
  </way>
  <way id="55785670" version="4" timestamp="2010-07-07T20:07:37Z" uid="74617" user="JohnSmith" changeset="5161069">
    <nd ref="676656431"/>
    <nd ref="676656430"/>
    <nd ref="676656433"/>
    <nd ref="676656434"/>
    <nd ref="676656437"/>
    <nd ref="676656438"/>
    <nd ref="676656439"/>
    <nd ref="750531834"/>
    <tag k="highway" v="residential"/>
    <tag k="maxspeed" v="50"/>
    <tag k="maxspeed:source" v="default residential speed limit in Australia"/>
    <tag k="name" v="South Circuit"/>
  </way>
  <way id="55785670" version="5" timestamp="2011-02-28T11:25:59Z" uid="203324" user="firefly2560" changeset="7419622"/>
  <way id="55785676" version="2" timestamp="2010-07-07T20:09:57Z" uid="74617" user="JohnSmith" changeset="5161069">
    <nd ref="700747781"/>
    <nd ref="690297260"/>
    <nd ref="690297266"/>
    <nd ref="690297285"/>
    <nd ref="690297292"/>
    <nd ref="690297298"/>
    <nd ref="676656426"/>
    <tag k="highway" v="residential"/>
    <tag k="maxspeed" v="50"/>
    <tag k="maxspeed:source" v="default residential speed limit in Australia"/>
    <tag k="name" v="under construction"/>
    <tag k="source" v="nearmap, survey"/>
  </way>
  <way id="55785676" version="3" timestamp="2010-07-10T08:15:06Z" uid="69319" user="Rhubarb" changeset="5180208">
    <nd ref="700747781"/>
    <nd ref="690297260"/>
    <nd ref="809654702"/>
    <nd ref="690297266"/>
    <nd ref="690297285"/>
    <nd ref="690297292"/>
    <nd ref="690297298"/>
    <nd ref="676656426"/>
    <tag k="highway" v="construction"/>
    <tag k="maxspeed" v="50"/>
    <tag k="maxspeed:source" v="default residential speed limit in Australia"/>
    <tag k="name" v="under construction"/>
    <tag k="source" v="nearmap, survey"/>
  </way>
  <way id="55785676" version="4" timestamp="2011-02-28T11:25:53Z" uid="203324" user="firefly2560" changeset="7419622">
    <nd ref="700747781"/>
    <nd ref="690297260"/>
    <nd ref="809654702"/>
    <nd ref="690297266"/>
    <nd ref="690297285"/>
    <nd ref="690297292"/>
    <nd ref="690297298"/>
    <nd ref="676656425"/>
    <nd ref="676656423"/>
    <nd ref="676656422"/>
    <nd ref="676656421"/>
    <nd ref="676656420"/>
    <nd ref="676656419"/>
    <nd ref="676656418"/>
    <nd ref="676656400"/>
    <nd ref="676656417"/>
    <nd ref="676656416"/>
    <nd ref="676656415"/>
    <tag k="highway" v="residential"/>
    <tag k="maxspeed" v="50"/>
    <tag k="maxspeed:source" v="default residential speed limit in Australia"/>
    <tag k="name" v="under construction; Central Avenue"/>
    <tag k="source" v="nearmap, survey"/>
  </way>
  <way id="55785676" version="5" timestamp="2012-01-20T06:03:25Z" uid="147510" user="woodpeck_fixbot" changeset="10443281">
    <nd ref="700747781"/>
    <nd ref="690297260"/>
    <nd ref="809654702"/>
    <nd ref="690297266"/>
    <nd ref="690297285"/>
    <nd ref="690297292"/>
    <nd ref="690297298"/>
    <nd ref="676656425"/>
    <nd ref="676656423"/>
    <nd ref="676656422"/>
    <nd ref="676656421"/>
    <nd ref="676656420"/>
    <nd ref="676656419"/>
    <nd ref="676656418"/>
    <nd ref="676656400"/>
    <nd ref="676656417"/>
    <nd ref="676656416"/>
    <nd ref="676656415"/>
    <tag k="highway" v="residential"/>
    <tag k="name" v="under construction; Central Avenue"/>
    <tag k="source" v="nearmap, survey"/>
  </way>
  <way id="55785682" version="2" timestamp="2010-07-07T20:12:55Z" uid="74617" user="JohnSmith" changeset="5161069">
    <nd ref="700747821"/>
    <nd ref="700747607"/>
    <nd ref="700747853"/>
    <nd ref="700747571"/>
    <nd ref="700747715"/>
    <tag k="highway" v="residential"/>
    <tag k="maxspeed" v="50"/>
    <tag k="maxspeed:source" v="default residential speed limit in Australia"/>
    <tag k="name" v="under construction"/>
    <tag k="source" v="nearmap"/>
  </way>
  <way id="55785682" version="3" timestamp="2010-07-10T08:15:08Z" uid="69319" user="Rhubarb" changeset="5180208">
    <nd ref="700747821"/>
    <nd ref="700747607"/>
    <nd ref="700747853"/>
    <nd ref="700747571"/>
    <nd ref="700747715"/>
    <tag k="highway" v="construction"/>
    <tag k="maxspeed" v="50"/>
    <tag k="maxspeed:source" v="default residential speed limit in Australia"/>
    <tag k="name" v="under construction"/>
    <tag k="source" v="nearmap"/>
  </way>
  <way id="55785682" version="4" timestamp="2011-02-28T11:25:51Z" uid="203324" user="firefly2560" changeset="7419622">
    <nd ref="700747821"/>
    <nd ref="700747607"/>
    <nd ref="700747853"/>
    <nd ref="700747571"/>
    <nd ref="700747715"/>
    <tag k="highway" v="residential"/>
    <tag k="maxspeed" v="50"/>
    <tag k="maxspeed:source" v="default residential speed limit in Australia"/>
    <tag k="source" v="nearmap"/>
  </way>
  <way id="55785682" version="5" timestamp="2012-01-20T06:03:28Z" uid="147510" user="woodpeck_fixbot" changeset="10443281">
    <nd ref="700747821"/>
    <nd ref="700747607"/>
    <nd ref="700747853"/>
    <nd ref="700747571"/>
    <nd ref="700747715"/>
    <tag k="highway" v="residential"/>
    <tag k="source" v="nearmap"/>
  </way>
  <way id="55785684" version="2" timestamp="2010-07-07T20:09:01Z" uid="74617" user="JohnSmith" changeset="5161069">
    <nd ref="700747559"/>
    <nd ref="700747781"/>
    <nd ref="700747527"/>
    <nd ref="700747749"/>
    <nd ref="700747640"/>
    <nd ref="700747850"/>
    <nd ref="700747598"/>
    <nd ref="700747821"/>
    <nd ref="700747559"/>
    <tag k="highway" v="residential"/>
    <tag k="junction" v="roundabout"/>
    <tag k="maxspeed" v="50"/>
    <tag k="maxspeed:source" v="default residential speed limit in Australia"/>
    <tag k="source" v="nearmap"/>
  </way>
  <way id="55785684" version="3" timestamp="2010-07-10T08:15:09Z" uid="69319" user="Rhubarb" changeset="5180208">
    <nd ref="700747559"/>
    <nd ref="700747781"/>
    <nd ref="700747527"/>
    <nd ref="700747749"/>
    <nd ref="700747640"/>
    <nd ref="700747850"/>
    <nd ref="700747598"/>
    <nd ref="700747821"/>
    <nd ref="700747559"/>
    <tag k="highway" v="construction"/>
    <tag k="junction" v="roundabout"/>
    <tag k="maxspeed" v="50"/>
    <tag k="maxspeed:source" v="default residential speed limit in Australia"/>
    <tag k="source" v="nearmap"/>
  </way>
  <way id="55785684" version="4" timestamp="2011-02-28T11:25:55Z" uid="203324" user="firefly2560" changeset="7419622">
    <nd ref="700747559"/>
    <nd ref="700747781"/>
    <nd ref="700747527"/>
    <nd ref="700747749"/>
    <nd ref="700747640"/>
    <nd ref="700747850"/>
    <nd ref="700747598"/>
    <nd ref="700747821"/>
    <nd ref="700747559"/>
    <tag k="highway" v="residential"/>
    <tag k="junction" v="roundabout"/>
    <tag k="maxspeed" v="50"/>
    <tag k="maxspeed:source" v="default residential speed limit in Australia"/>
    <tag k="source" v="nearmap, survey"/>
  </way>
  <way id="55785684" version="5" timestamp="2012-01-20T06:03:31Z" uid="147510" user="woodpeck_fixbot" changeset="10443281">
    <nd ref="700747559"/>
    <nd ref="700747781"/>
    <nd ref="700747527"/>
    <nd ref="700747749"/>
    <nd ref="700747640"/>
    <nd ref="700747850"/>
    <nd ref="700747598"/>
    <nd ref="700747821"/>
    <nd ref="700747559"/>
    <tag k="highway" v="residential"/>
    <tag k="junction" v="roundabout"/>
    <tag k="source" v="nearmap, survey"/>
  </way>
  <way id="55785689" version="2" timestamp="2010-07-07T20:13:28Z" uid="74617" user="JohnSmith" changeset="5161069">
    <nd ref="700747603"/>
    <nd ref="700747676"/>
    <nd ref="700747818"/>
    <nd ref="700747635"/>
    <nd ref="700747569"/>
    <nd ref="700747538"/>
    <nd ref="700747758"/>
    <nd ref="700747713"/>
    <nd ref="700747721"/>
    <nd ref="700747610"/>
    <nd ref="700747603"/>
    <tag k="highway" v="residential"/>
    <tag k="junction" v="roundabout"/>
    <tag k="maxspeed" v="50"/>
    <tag k="maxspeed:source" v="default residential speed limit in Australia"/>
    <tag k="source" v="nearmap"/>
  </way>
  <way id="55785689" version="3" timestamp="2010-07-10T08:15:06Z" uid="69319" user="Rhubarb" changeset="5180208">
    <nd ref="700747603"/>
    <nd ref="700747676"/>
    <nd ref="700747818"/>
    <nd ref="700747635"/>
    <nd ref="700747569"/>
    <nd ref="700747538"/>
    <nd ref="700747758"/>
    <nd ref="700747713"/>
    <nd ref="700747721"/>
    <nd ref="700747610"/>
    <nd ref="700747603"/>
    <tag k="highway" v="construction"/>
    <tag k="junction" v="roundabout"/>
    <tag k="maxspeed" v="50"/>
    <tag k="maxspeed:source" v="default residential speed limit in Australia"/>
    <tag k="source" v="nearmap"/>
  </way>
  <way id="55785689" version="4" timestamp="2011-02-28T11:25:50Z" uid="203324" user="firefly2560" changeset="7419622">
    <nd ref="700747603"/>
    <nd ref="700747676"/>
    <nd ref="700747818"/>
    <nd ref="700747635"/>
    <nd ref="700747569"/>
    <nd ref="700747538"/>
    <nd ref="700747758"/>
    <nd ref="700747713"/>
    <nd ref="700747721"/>
    <nd ref="700747610"/>
    <nd ref="700747603"/>
    <tag k="highway" v="residential"/>
    <tag k="junction" v="roundabout"/>
    <tag k="maxspeed" v="50"/>
    <tag k="maxspeed:source" v="default residential speed limit in Australia"/>
    <tag k="source" v="nearmap"/>
  </way>
  <way id="55785689" version="5" timestamp="2012-01-20T06:03:32Z" uid="147510" user="woodpeck_fixbot" changeset="10443281">
    <nd ref="700747603"/>
    <nd ref="700747676"/>
    <nd ref="700747818"/>
    <nd ref="700747635"/>
    <nd ref="700747569"/>
    <nd ref="700747538"/>
    <nd ref="700747758"/>
    <nd ref="700747713"/>
    <nd ref="700747721"/>
    <nd ref="700747610"/>
    <nd ref="700747603"/>
    <tag k="highway" v="residential"/>
    <tag k="junction" v="roundabout"/>
    <tag k="source" v="nearmap"/>
  </way>
  <way id="55785695" version="2" timestamp="2010-07-07T20:08:15Z" uid="74617" user="JohnSmith" changeset="5161069">
    <nd ref="700747727"/>
    <nd ref="700747583"/>
    <tag k="highway" v="residential"/>
    <tag k="maxspeed" v="50"/>
    <tag k="maxspeed:source" v="default residential speed limit in Australia"/>
    <tag k="name" v="under construction"/>
    <tag k="source" v="nearmap"/>
  </way>
  <way id="55785695" version="3" timestamp="2010-07-10T08:15:07Z" uid="69319" user="Rhubarb" changeset="5180208">
    <nd ref="700747727"/>
    <nd ref="700747583"/>
    <tag k="highway" v="construction"/>
    <tag k="maxspeed" v="50"/>
    <tag k="maxspeed:source" v="default residential speed limit in Australia"/>
    <tag k="name" v="under construction"/>
    <tag k="source" v="nearmap"/>
  </way>
  <way id="55785695" version="4" timestamp="2011-02-28T11:25:51Z" uid="203324" user="firefly2560" changeset="7419622">
    <nd ref="700747727"/>
    <nd ref="700747583"/>
    <tag k="highway" v="residential"/>
    <tag k="junction" v="roundabout"/>
    <tag k="maxspeed" v="50"/>
    <tag k="maxspeed:source" v="default residential speed limit in Australia"/>
    <tag k="source" v="nearmap"/>
  </way>
  <way id="55785695" version="5" timestamp="2012-01-20T06:03:35Z" uid="147510" user="woodpeck_fixbot" changeset="10443281">
    <nd ref="700747727"/>
    <nd ref="700747583"/>
    <tag k="highway" v="residential"/>
    <tag k="junction" v="roundabout"/>
    <tag k="source" v="nearmap"/>
  </way>
  <way id="55785697" version="1" timestamp="2010-04-18T08:44:22Z" uid="4467" user="Rosscoe" changeset="4455284">
    <nd ref="700747962"/>
    <nd ref="700747997"/>
    <nd ref="700748003"/>
    <tag k="highway" v="secondary"/>
    <tag k="maxspeed" v="50"/>
    <tag k="name" v="Crooked River Road"/>
    <tag k="source" v="survey"/>
  </way>
  <way id="55785697" version="2" timestamp="2010-12-07T10:04:59Z" uid="7617" user="Franc" changeset="6572824">
    <nd ref="700747962"/>
    <nd ref="700747997"/>
    <nd ref="1026199246"/>
    <nd ref="700748003"/>
    <tag k="highway" v="secondary"/>
    <tag k="maxspeed" v="50"/>
    <tag k="name" v="Crooked River Road"/>
    <tag k="source" v="survey"/>
  </way>
  <way id="55785697" version="3" timestamp="2010-12-09T10:10:45Z" uid="7617" user="Franc" changeset="6593382">
    <nd ref="700747962"/>
    <nd ref="1029441150"/>
    <nd ref="1029440841"/>
    <nd ref="700747997"/>
    <nd ref="1026199246"/>
    <nd ref="700748003"/>
    <tag k="highway" v="secondary"/>
    <tag k="maxspeed" v="50"/>
    <tag k="name" v="Crooked River Road"/>
    <tag k="source" v="survey"/>
  </way>
  <way id="55785698" version="1" timestamp="2010-04-18T08:44:22Z" uid="4467" user="Rosscoe" changeset="4455284">
    <nd ref="700747982"/>
    <nd ref="236827067"/>
    <nd ref="700748000"/>
    <tag k="highway" v="tertiary"/>
    <tag k="name" v="Elambra Parade"/>
    <tag k="source" v="survey"/>
  </way>
  <way id="55785698" version="2" timestamp="2010-12-07T10:05:03Z" uid="7617" user="Franc" changeset="6572824">
    <nd ref="700747982"/>
    <nd ref="1026199353"/>
    <nd ref="1026199299"/>
    <nd ref="1026199484"/>
    <nd ref="1026199067"/>
    <nd ref="236827067"/>
    <nd ref="700748000"/>
    <tag k="highway" v="tertiary"/>
    <tag k="name" v="Elambra Parade"/>
    <tag k="source" v="survey"/>
  </way>
  <way id="55785699" version="1" timestamp="2010-04-18T08:44:22Z" uid="4467" user="Rosscoe" changeset="4455284">
    <nd ref="700748009"/>
    <nd ref="700748011"/>
    <nd ref="700748012"/>
    <nd ref="700748013"/>
    <nd ref="31866704"/>
    <tag k="highway" v="secondary"/>
    <tag k="maxspeed" v="50"/>
    <tag k="name" v="Crooked River Road"/>
    <tag k="source" v="survey"/>
  </way>
  <way id="55785699" version="2" timestamp="2010-12-07T10:04:54Z" uid="7617" user="Franc" changeset="6572824">
    <nd ref="700748009"/>
    <nd ref="1026199172"/>
    <nd ref="1026199345"/>
    <nd ref="700748011"/>
    <nd ref="1026199321"/>
    <nd ref="700748012"/>
    <nd ref="700748013"/>
    <nd ref="31866704"/>
    <tag k="highway" v="secondary"/>
    <tag k="maxspeed" v="50"/>
    <tag k="name" v="Crooked River Road"/>
    <tag k="source" v="survey"/>
  </way>
  <way id="55785700" version="1" timestamp="2010-04-18T08:44:22Z" uid="4467" user="Rosscoe" changeset="4455284">
    <nd ref="700747966"/>
    <nd ref="700747965"/>
    <nd ref="700747977"/>
    <nd ref="700747976"/>
    <nd ref="700747975"/>
    <nd ref="700747974"/>
    <nd ref="700747973"/>
    <nd ref="700747972"/>
    <nd ref="700747971"/>
    <nd ref="700747970"/>
    <nd ref="700747967"/>
    <nd ref="700747966"/>
    <tag k="highway" v="tertiary"/>
    <tag k="junction" v="roundabout"/>
  </way>
  <way id="55785700" version="2" timestamp="2010-12-07T11:07:27Z" uid="7617" user="Franc" changeset="6573313">
    <nd ref="700747966"/>
    <nd ref="700747965"/>
    <nd ref="700747977"/>
    <nd ref="700747976"/>
    <nd ref="700747975"/>
    <nd ref="700747974"/>
    <nd ref="700747973"/>
    <nd ref="700747972"/>
    <nd ref="1026309285"/>
    <nd ref="700747971"/>
    <nd ref="700747970"/>
    <nd ref="700747967"/>
    <nd ref="1026309326"/>
    <nd ref="700747966"/>
    <tag k="highway" v="tertiary"/>
    <tag k="junction" v="roundabout"/>
  </way>
  <way id="55785701" version="1" timestamp="2010-04-18T08:44:23Z" uid="4467" user="Rosscoe" changeset="4455284">
    <nd ref="700747979"/>
    <nd ref="700747978"/>
    <nd ref="700747987"/>
    <nd ref="700747986"/>
    <nd ref="700747984"/>
    <nd ref="700747983"/>
    <nd ref="700747982"/>
    <nd ref="700747981"/>
    <nd ref="700747980"/>
    <nd ref="700747979"/>
    <tag k="highway" v="tertiary"/>
    <tag k="junction" v="roundabout"/>
  </way>
  <way id="55785701" version="2" timestamp="2010-12-07T10:04:56Z" uid="7617" user="Franc" changeset="6572824">
    <nd ref="700747979"/>
    <nd ref="700747978"/>
    <nd ref="700747987"/>
    <nd ref="1026199223"/>
    <nd ref="700747986"/>
    <nd ref="700747984"/>
    <nd ref="1026199184"/>
    <nd ref="700747983"/>
    <nd ref="700747982"/>
    <nd ref="700747981"/>
    <nd ref="700747980"/>
    <nd ref="1026199532"/>
    <nd ref="700747979"/>
    <tag k="highway" v="tertiary"/>
    <tag k="junction" v="roundabout"/>
  </way>
  <way id="55785702" version="1" timestamp="2010-04-18T08:44:23Z" uid="4467" user="Rosscoe" changeset="4455284">
    <nd ref="700747996"/>
    <nd ref="700747992"/>
    <nd ref="700747993"/>
    <nd ref="700747990"/>
    <nd ref="700747994"/>
    <nd ref="700747989"/>
    <nd ref="700747995"/>
    <nd ref="700747988"/>
    <nd ref="700747996"/>
    <tag k="highway" v="tertiary"/>
    <tag k="junction" v="roundabout"/>
  </way>
  <way id="55785703" version="1" timestamp="2010-04-18T08:44:23Z" uid="4467" user="Rosscoe" changeset="4455284">
    <nd ref="700748001"/>
    <nd ref="700748000"/>
    <nd ref="700747999"/>
    <nd ref="700748010"/>
    <nd ref="700748009"/>
    <nd ref="700748007"/>
    <nd ref="700748006"/>
    <nd ref="700748005"/>
    <nd ref="700748004"/>
    <nd ref="700748003"/>
    <nd ref="700748002"/>
    <nd ref="700748001"/>
    <tag k="highway" v="secondary"/>
    <tag k="junction" v="roundabout"/>
    <tag k="maxspeed" v="50"/>
  </way>
  <way id="55785808" version="4" timestamp="2011-04-11T15:49:04Z" uid="33382" user="de_muur" changeset="7834339">
    <nd ref="282279872"/>
    <nd ref="700749332"/>
    <tag k="highway" v="residential"/>
    <tag k="maxspeed" v="30"/>
    <tag k="name" v="Hermannstraße"/>
    <tag k="surface" v="paved"/>
  </way>
  <way id="55785092" version="9" timestamp="2012-07-20T23:48:47Z" uid="722137" user="OSMF Redaction Account" changeset="12396479">
    <nd ref="700741665"/>
    <nd ref="937152598"/>
    <nd ref="937152599"/>
    <nd ref="700741668"/>
    <nd ref="937152600"/>
    <nd ref="937152603"/>
    <nd ref="700741671"/>
    <nd ref="937152607"/>
    <nd ref="700741674"/>
    <nd ref="937152611"/>
    <nd ref="937152612"/>
    <nd ref="700741676"/>
    <nd ref="937152613"/>
    <nd ref="937152614"/>
    <nd ref="700741679"/>
    <nd ref="937152617"/>
    <nd ref="700741684"/>
    <nd ref="700741692"/>
    <nd ref="705553488"/>
    <nd ref="937152625"/>
    <nd ref="700741665"/>
    <tag k="addr:country" v="RU"/>
    <tag k="addr:housenumber" v="2"/>
    <tag k="addr:region" v="Москва"/>
    <tag k="addr:street" v="Гоголя"/>
    <tag k="building" v="yes"/>
  </way>
  <way id="55785092" version="10" timestamp="2012-07-24T08:14:37Z" uid="241531" user="dik_man" changeset="12461558">
    <nd ref="700741665"/>
    <nd ref="1836236995"/>
    <nd ref="1836237098"/>
    <nd ref="1836236862"/>
    <nd ref="1836237241"/>
    <nd ref="937152598"/>
    <nd ref="937152599"/>
    <nd ref="700741668"/>
    <nd ref="937152600"/>
    <nd ref="937152603"/>
    <nd ref="700741671"/>
    <nd ref="937152607"/>
    <nd ref="700741674"/>
    <nd ref="937152611"/>
    <nd ref="937152612"/>
    <nd ref="700741676"/>
    <nd ref="937152613"/>
    <nd ref="1836237309"/>
    <nd ref="1836236957"/>
    <nd ref="1836236646"/>
    <nd ref="1836236767"/>
    <nd ref="1836236878"/>
    <nd ref="937152614"/>
    <nd ref="700741679"/>
    <nd ref="937152617"/>
    <nd ref="700741684"/>
    <nd ref="700741692"/>
    <nd ref="705553488"/>
    <nd ref="937152625"/>
    <nd ref="1836236694"/>
    <nd ref="700741665"/>
    <tag k="addr:country" v="RU"/>
    <tag k="addr:housenumber" v="2"/>
    <tag k="addr:region" v="Москва"/>
    <tag k="addr:street" v="Гоголя"/>
    <tag k="building" v="yes"/>
  </way>
  <way id="55785092" version="11" timestamp="2012-09-09T21:25:22Z" uid="336354" user="esaulenka" changeset="13050308">
    <nd ref="700741665"/>
    <nd ref="1836236995"/>
    <nd ref="1836237098"/>
    <nd ref="1836236862"/>
    <nd ref="1836237241"/>
    <nd ref="937152598"/>
    <nd ref="937152599"/>
    <nd ref="700741668"/>
    <nd ref="937152600"/>
    <nd ref="937152603"/>
    <nd ref="700741671"/>
    <nd ref="937152607"/>
    <nd ref="700741674"/>
    <nd ref="937152611"/>
    <nd ref="937152612"/>
    <nd ref="700741676"/>
    <nd ref="937152613"/>
    <nd ref="1836237309"/>
    <nd ref="1836236957"/>
    <nd ref="1836236646"/>
    <nd ref="1836236767"/>
    <nd ref="1836236878"/>
    <nd ref="937152614"/>
    <nd ref="700741679"/>
    <nd ref="937152617"/>
    <nd ref="700741684"/>
    <nd ref="700741692"/>
    <nd ref="705553488"/>
    <nd ref="937152625"/>
    <nd ref="1836236694"/>
    <nd ref="700741665"/>
    <tag k="addr:housenumber" v="2"/>
    <tag k="addr:street" v="улица Гоголя"/>
    <tag k="building" v="yes"/>
  </way>
  <way id="55785204" version="7" timestamp="2012-07-20T23:48:45Z" uid="722137" user="OSMF Redaction Account" changeset="12396479">
    <nd ref="700742163"/>
    <nd ref="700742164"/>
    <nd ref="700742165"/>
    <nd ref="700742166"/>
    <nd ref="700742163"/>
    <tag k="addr:city" v="Зеленоград"/>
    <tag k="addr:country" v="RU"/>
    <tag k="addr:housenumber" v="1004Б"/>
    <tag k="addr:region" v="Москва"/>
    <tag k="addr:street" v="10-й микрорайон"/>
    <tag k="building" v="yes"/>
  </way>
  <way id="55785210" version="3" timestamp="2012-07-22T10:13:56Z" uid="722137" user="OSMF Redaction Account" changeset="12429619"/>
  <way id="55785211" version="2" timestamp="2012-07-22T10:13:56Z" uid="722137" user="OSMF Redaction Account" changeset="12429619"/>
  <way id="55785212" version="2" timestamp="2012-07-22T10:13:58Z" uid="722137" user="OSMF Redaction Account" changeset="12429619"/>
  <way id="55785213" version="2" timestamp="2012-07-22T10:13:58Z" uid="722137" user="OSMF Redaction Account" changeset="12429619"/>
  <way id="55785214" version="2" timestamp="2012-07-22T10:13:59Z" uid="722137" user="OSMF Redaction Account" changeset="12429619"/>
  <way id="55785215" version="2" timestamp="2012-07-22T10:13:59Z" uid="722137" user="OSMF Redaction Account" changeset="12429619"/>
  <way id="55785216" version="5" timestamp="2012-07-22T10:05:21Z" uid="722137" user="OSMF Redaction Account" changeset="12429467"/>
  <way id="55785238" version="8" timestamp="2012-07-20T23:48:12Z" uid="722137" user="OSMF Redaction Account" changeset="12396479">
    <nd ref="700742493"/>
    <nd ref="700742494"/>
    <nd ref="700742496"/>
    <nd ref="700742497"/>
    <nd ref="700742493"/>
    <tag k="addr:country" v="RU"/>
    <tag k="addr:region" v="Москва"/>
    <tag k="addr:street" v="9-й микрорайон"/>
    <tag k="building" v="yes"/>
  </way>
  <way id="55785238" version="9" timestamp="2012-08-28T21:03:51Z" uid="109327" user="OverQuantum" changeset="12898197">
    <nd ref="700742493"/>
    <nd ref="700742494"/>
    <nd ref="700742496"/>
    <nd ref="700742497"/>
    <nd ref="700742493"/>
    <tag k="addr:country" v="RU"/>
    <tag k="addr:region" v="Москва"/>
    <tag k="addr:street" v="9-й микрорайон"/>
    <tag k="building" v="yes"/>
    <tag k="building:levels" v="1"/>
  </way>
  <way id="55785239" version="8" timestamp="2012-07-20T23:48:15Z" uid="722137" user="OSMF Redaction Account" changeset="12396479">
    <nd ref="700742498"/>
    <nd ref="700742499"/>
    <nd ref="700742500"/>
    <nd ref="700742501"/>
    <nd ref="700742498"/>
    <tag k="addr:country" v="RU"/>
    <tag k="addr:region" v="Москва"/>
    <tag k="addr:street" v="9-й микрорайон"/>
    <tag k="building" v="yes"/>
  </way>
  <way id="55785239" version="9" timestamp="2012-08-28T21:03:50Z" uid="109327" user="OverQuantum" changeset="12898197">
    <nd ref="700742498"/>
    <nd ref="700742499"/>
    <nd ref="700742500"/>
    <nd ref="700742501"/>
    <nd ref="700742498"/>
    <tag k="addr:country" v="RU"/>
    <tag k="addr:region" v="Москва"/>
    <tag k="addr:street" v="9-й микрорайон"/>
    <tag k="building" v="yes"/>
    <tag k="building:levels" v="1"/>
  </way>
  <way id="55785471" version="2" timestamp="2012-07-19T11:58:25Z" uid="722137" user="OSMF Redaction Account" changeset="12323357"/>
  <way id="55785473" version="3" timestamp="2012-07-19T11:58:25Z" uid="722137" user="OSMF Redaction Account" changeset="12323357"/>
  <way id="55785474" version="2" timestamp="2012-07-19T11:58:25Z" uid="722137" user="OSMF Redaction Account" changeset="12323357"/>
  <way id="55785475" version="8" timestamp="2012-07-19T11:42:00Z" uid="722137" user="OSMF Redaction Account" changeset="12322246">
    <nd ref="770708772"/>
    <nd ref="770707944"/>
    <nd ref="1299184522"/>
  </way>
  <way id="55785476" version="4" timestamp="2012-07-19T11:41:59Z" uid="722137" user="OSMF Redaction Account" changeset="12322246">
    <nd ref="770708777"/>
    <nd ref="1125811954"/>
  </way>
  <way id="55785512" version="5" timestamp="2012-06-03T06:52:14Z" uid="261730" user="Davoz" changeset="11782686">
    <nd ref="700746274"/>
    <nd ref="1260541810"/>
    <nd ref="1774367097"/>
    <nd ref="700746273"/>
    <nd ref="1774367115"/>
    <nd ref="700746279"/>
    <nd ref="1774367098"/>
    <nd ref="700746271"/>
    <nd ref="1774367101"/>
    <nd ref="700746278"/>
    <nd ref="1774367095"/>
    <nd ref="700746277"/>
    <nd ref="1774367103"/>
    <nd ref="700746276"/>
    <nd ref="1774367104"/>
    <nd ref="700746275"/>
    <nd ref="1774367118"/>
    <nd ref="1774367119"/>
    <nd ref="700746274"/>
    <tag k="highway" v="residential"/>
    <tag k="junction" v="roundabout"/>
    <tag k="maxspeed" v="50"/>
    <tag k="maxspeed:source" v="default residential speed limit in Australia"/>
  </way>
  <way id="55785512" version="6" timestamp="2012-07-19T09:30:48Z" uid="722137" user="OSMF Redaction Account" changeset="12316180">
    <nd ref="1260541810"/>
    <nd ref="1774367097"/>
    <nd ref="1774367115"/>
    <nd ref="1774367098"/>
    <nd ref="1774367101"/>
    <nd ref="1774367095"/>
    <nd ref="1774367103"/>
    <nd ref="1774367104"/>
    <nd ref="1774367118"/>
    <nd ref="1774367119"/>
  </way>
  <way id="55785512" version="7" timestamp="2012-08-17T22:54:20Z" uid="418724" user="wintersportler" changeset="12768283"/>
  <way id="55785513" version="3" timestamp="2012-07-19T09:31:43Z" uid="722137" user="OSMF Redaction Account" changeset="12316235"/>
  <way id="55785649" version="4" timestamp="2012-07-21T17:40:44Z" uid="722137" user="OSMF Redaction Account" changeset="12416294"/>
  <way id="55785658" version="6" timestamp="2012-07-21T17:39:20Z" uid="722137" user="OSMF Redaction Account" changeset="12416245">
    <nd ref="700747855"/>
    <nd ref="700747684"/>
    <nd ref="700747823"/>
    <nd ref="700747643"/>
    <nd ref="700747715"/>
    <nd ref="700747535"/>
    <nd ref="700747583"/>
    <nd ref="700747498"/>
    <nd ref="700747855"/>
    <tag k="highway" v="construction"/>
    <tag k="junction" v="roundabout"/>
    <tag k="source" v="nearmap"/>
  </way>
  <way id="55785658" version="7" timestamp="2012-08-02T11:48:28Z" uid="37137" user="Derick Rethans" changeset="12584905">
    <nd ref="700747855"/>
    <nd ref="700747684"/>
    <nd ref="700747823"/>
    <nd ref="700747643"/>
    <nd ref="700747715"/>
    <nd ref="700747535"/>
    <nd ref="700747583"/>
    <nd ref="700747498"/>
    <nd ref="700747855"/>
    <tag k="construction" v="residential"/>
    <tag k="highway" v="construction"/>
    <tag k="junction" v="roundabout"/>
    <tag k="source" v="nearmap"/>
  </way>
  <way id="55785661" version="6" timestamp="2012-07-21T17:39:21Z" uid="722137" user="OSMF Redaction Account" changeset="12416245">
    <nd ref="700747486"/>
    <nd ref="700747659"/>
    <nd ref="700747763"/>
    <nd ref="700747594"/>
    <nd ref="700747727"/>
    <nd ref="700747838"/>
    <nd ref="700747801"/>
    <nd ref="700747713"/>
    <tag k="highway" v="construction"/>
    <tag k="source" v="nearmap"/>
  </way>
  <way id="55785661" version="7" timestamp="2012-08-02T11:48:28Z" uid="37137" user="Derick Rethans" changeset="12584905">
    <nd ref="700747659"/>
    <nd ref="700747763"/>
    <nd ref="700747594"/>
    <nd ref="700747727"/>
    <nd ref="700747838"/>
    <nd ref="700747801"/>
    <nd ref="700747713"/>
    <tag k="construction" v="residential"/>
    <tag k="highway" v="construction"/>
    <tag k="source" v="Bing"/>
  </way>
  <way id="55785666" version="7" timestamp="2012-07-21T17:37:50Z" uid="722137" user="OSMF Redaction Account" changeset="12416245">
    <nd ref="700747823"/>
    <nd ref="700747656"/>
    <nd ref="700747575"/>
    <nd ref="700747695"/>
    <nd ref="690297292"/>
    <tag k="highway" v="construction"/>
    <tag k="source" v="nearmap"/>
  </way>
  <way id="55785666" version="8" timestamp="2012-08-02T11:48:27Z" uid="37137" user="Derick Rethans" changeset="12584905">
    <nd ref="700747823"/>
    <nd ref="700747656"/>
    <nd ref="700747575"/>
    <nd ref="700747695"/>
    <nd ref="690297292"/>
    <tag k="construction" v="residential"/>
    <tag k="highway" v="construction"/>
    <tag k="source" v="nearmap"/>
  </way>
  <way id="55785676" version="6" timestamp="2012-07-21T17:37:50Z" uid="722137" user="OSMF Redaction Account" changeset="12416245">
    <nd ref="700747781"/>
    <nd ref="809654702"/>
    <nd ref="690297292"/>
    <tag k="highway" v="construction"/>
    <tag k="name" v="under construction"/>
    <tag k="source" v="nearmap, survey"/>
  </way>
  <way id="55785676" version="7" timestamp="2012-08-02T11:48:29Z" uid="37137" user="Derick Rethans" changeset="12584905">
    <nd ref="700747781"/>
    <nd ref="809654702"/>
    <nd ref="690297292"/>
    <tag k="construction" v="residential"/>
    <tag k="highway" v="construction"/>
    <tag k="name" v="under construction"/>
    <tag k="source" v="nearmap, survey"/>
  </way>
  <way id="55785682" version="6" timestamp="2012-07-21T17:39:20Z" uid="722137" user="OSMF Redaction Account" changeset="12416245">
    <nd ref="700747821"/>
    <nd ref="700747607"/>
    <nd ref="700747853"/>
    <nd ref="700747571"/>
    <nd ref="700747715"/>
    <tag k="highway" v="construction"/>
    <tag k="source" v="nearmap"/>
  </way>
  <way id="55785682" version="7" timestamp="2012-08-02T11:48:26Z" uid="37137" user="Derick Rethans" changeset="12584905">
    <nd ref="700747821"/>
    <nd ref="700747607"/>
    <nd ref="700747853"/>
    <nd ref="700747571"/>
    <nd ref="700747715"/>
    <tag k="construction" v="residential"/>
    <tag k="highway" v="construction"/>
    <tag k="source" v="nearmap"/>
  </way>
  <way id="55785684" version="6" timestamp="2012-07-21T17:39:20Z" uid="722137" user="OSMF Redaction Account" changeset="12416245">
    <nd ref="700747559"/>
    <nd ref="700747781"/>
    <nd ref="700747527"/>
    <nd ref="700747749"/>
    <nd ref="700747640"/>
    <nd ref="700747850"/>
    <nd ref="700747598"/>
    <nd ref="700747821"/>
    <nd ref="700747559"/>
    <tag k="highway" v="construction"/>
    <tag k="junction" v="roundabout"/>
    <tag k="source" v="nearmap"/>
  </way>
  <way id="55785684" version="7" timestamp="2012-08-02T11:48:28Z" uid="37137" user="Derick Rethans" changeset="12584905">
    <nd ref="700747559"/>
    <nd ref="700747781"/>
    <nd ref="700747527"/>
    <nd ref="700747749"/>
    <nd ref="700747640"/>
    <nd ref="700747850"/>
    <nd ref="700747598"/>
    <nd ref="700747821"/>
    <nd ref="700747559"/>
    <tag k="construction" v="residential"/>
    <tag k="highway" v="construction"/>
    <tag k="junction" v="roundabout"/>
    <tag k="source" v="nearmap"/>
  </way>
  <way id="55785689" version="6" timestamp="2012-07-21T17:39:20Z" uid="722137" user="OSMF Redaction Account" changeset="12416245">
    <nd ref="700747603"/>
    <nd ref="700747676"/>
    <nd ref="700747818"/>
    <nd ref="700747635"/>
    <nd ref="700747569"/>
    <nd ref="700747538"/>
    <nd ref="700747758"/>
    <nd ref="700747713"/>
    <nd ref="700747721"/>
    <nd ref="700747610"/>
    <nd ref="700747603"/>
    <tag k="highway" v="construction"/>
    <tag k="junction" v="roundabout"/>
    <tag k="source" v="nearmap"/>
  </way>
  <way id="55785695" version="6" timestamp="2012-07-21T17:39:20Z" uid="722137" user="OSMF Redaction Account" changeset="12416245">
    <nd ref="700747727"/>
    <nd ref="700747583"/>
    <tag k="highway" v="construction"/>
    <tag k="source" v="nearmap"/>
  </way>
  <way id="55785695" version="7" timestamp="2012-08-02T11:48:25Z" uid="37137" user="Derick Rethans" changeset="12584905">
    <nd ref="700747727"/>
    <nd ref="700747583"/>
    <tag k="construction" v="residential"/>
    <tag k="highway" v="construction"/>
    <tag k="source" v="nearmap"/>
  </way>
  <way id="55785697" version="4" timestamp="2012-07-21T19:37:17Z" uid="722137" user="OSMF Redaction Account" changeset="12418595"/>
  <way id="55785698" version="3" timestamp="2012-07-21T19:37:17Z" uid="722137" user="OSMF Redaction Account" changeset="12418595"/>
  <way id="55785699" version="3" timestamp="2012-07-21T19:37:17Z" uid="722137" user="OSMF Redaction Account" changeset="12418595"/>
  <way id="55785700" version="3" timestamp="2012-07-21T19:37:18Z" uid="722137" user="OSMF Redaction Account" changeset="12418595"/>
  <way id="55785701" version="3" timestamp="2012-07-21T19:37:17Z" uid="722137" user="OSMF Redaction Account" changeset="12418595"/>
  <way id="55785702" version="2" timestamp="2012-07-21T19:37:18Z" uid="722137" user="OSMF Redaction Account" changeset="12418595"/>
  <way id="55785703" version="2" timestamp="2012-07-21T19:37:17Z" uid="722137" user="OSMF Redaction Account" changeset="12418595"/>
  <way id="55785808" version="5" timestamp="2012-04-16T06:55:36Z" uid="63107" user="brogo" changeset="11318545">
    <nd ref="1719018023"/>
    <nd ref="700749332"/>
    <tag k="highway" v="residential"/>
    <tag k="maxspeed" v="30"/>
    <tag k="name" v="Hermannstraße"/>
    <tag k="surface" v="paved"/>
  </way>
</osm>
