<?xml version='1.0' encoding='UTF-8'?>
<osm version="0.6" generator="libosmium/2.20.0">
  <way id="5579005" version="5" timestamp="2010-04-02T23:41:16Z" uid="20587" user="balrog-kun" changeset="4309152">
    <nd ref="41400585"/>
    <nd ref="41400587"/>
    <nd ref="41400588"/>
    <nd ref="41400591"/>
    <tag k="created_by" v="Potlatch 0.10f"/>
    <tag k="highway" v="residential"/>
    <tag k="name" v="North 9th Avenue"/>
    <tag k="tiger:cfcc" v="A41"/>
    <tag k="tiger:county" v="Maricopa, AZ"/>
    <tag k="tiger:name_base" v="9th"/>
    <tag k="tiger:name_direction_prefix" v="N"/>
    <tag k="tiger:name_type" v="Ave"/>
    <tag k="tiger:reviewed" v="no"/>
    <tag k="tiger:separated" v="no"/>
    <tag k="tiger:source" v="tiger_import_dch_v0.6_20070809"/>
    <tag k="tiger:tlid" v="128409606"/>
  </way>
  <way id="5579005" version="6" timestamp="2011-12-20T04:21:02Z" uid="292665" user="Dr Kludge" changeset="10160853">
    <nd ref="41400585"/>
    <nd ref="41400587"/>
    <nd ref="41400588"/>
    <nd ref="41400591"/>
    <tag k="highway" v="residential"/>
    <tag k="name" v="North 9th Avenue"/>
    <tag k="tiger:cfcc" v="A41"/>
    <tag k="tiger:county" v="Maricopa, AZ"/>
    <tag k="tiger:name_base" v="9th"/>
    <tag k="tiger:name_direction_prefix" v="N"/>
    <tag k="tiger:name_type" v="Ave"/>
    <tag k="tiger:reviewed" v="no"/>
    <tag k="tiger:separated" v="no"/>
    <tag k="tiger:source" v="tiger_import_dch_v0.6_20070809"/>
    <tag k="tiger:tlid" v="128409606"/>
  </way>
  <way id="5579266" version="2" timestamp="2010-06-01T02:58:44Z" uid="4467" user="Rosscoe" changeset="4871156">
    <nd ref="41403820"/>
    <nd ref="41404386"/>
    <nd ref="41404262"/>
    <nd ref="41408392"/>
    <nd ref="41404264"/>
    <tag k="created_by" v="Potlatch alpha"/>
    <tag k="highway" v="residential"/>
    <tag k="name" v="Cemetery Road"/>
  </way>
  <way id="5579266" version="3" timestamp="2010-11-24T13:13:19Z" uid="67896" user="mrpulley" changeset="6446684">
    <nd ref="41403820"/>
    <nd ref="41404386"/>
    <nd ref="41404262"/>
    <nd ref="41408392"/>
    <nd ref="41404264"/>
    <nd ref="1002402387"/>
    <nd ref="1002402325"/>
    <nd ref="1002402343"/>
    <nd ref="1002402330"/>
    <nd ref="1002402328"/>
    <nd ref="1002402388"/>
    <tag k="highway" v="unclassified"/>
    <tag k="maxspeed" v="60"/>
    <tag k="name" v="Cemetery Road"/>
    <tag k="source" v="survey"/>
    <tag k="surface" v="asphalt"/>
  </way>
  <way id="5579299" version="3" timestamp="2010-06-02T06:53:04Z" uid="4467" user="Rosscoe" changeset="4881307">
    <nd ref="41404386"/>
    <nd ref="41404884"/>
    <nd ref="41406160"/>
    <nd ref="41406049"/>
    <nd ref="41404886"/>
    <tag k="created_by" v="Potlatch 0.5d"/>
    <tag k="highway" v="unclassified"/>
    <tag k="name" v="Tate Street"/>
  </way>
  <way id="5579299" version="4" timestamp="2010-11-24T13:13:20Z" uid="67896" user="mrpulley" changeset="6446684">
    <nd ref="41404386"/>
    <nd ref="41404884"/>
    <nd ref="41406160"/>
    <nd ref="41406049"/>
    <nd ref="41404886"/>
    <tag k="highway" v="unclassified"/>
    <tag k="maxspeed" v="60"/>
    <tag k="name" v="Tate Street"/>
  </way>
  <way id="5579338" version="2" timestamp="2010-06-02T02:55:04Z" uid="4467" user="Rosscoe" changeset="4880285">
    <nd ref="41404884"/>
    <nd ref="41405139"/>
    <nd ref="41405250"/>
    <nd ref="41405141"/>
    <tag k="created_by" v="Potlatch alpha"/>
    <tag k="highway" v="unclassified"/>
    <tag k="name" v="Kendall Street"/>
  </way>
  <way id="5579338" version="3" timestamp="2010-11-24T13:13:20Z" uid="67896" user="mrpulley" changeset="6446684">
    <nd ref="41404884"/>
    <nd ref="41405139"/>
    <nd ref="41405250"/>
    <nd ref="41405141"/>
    <tag k="highway" v="unclassified"/>
    <tag k="maxspeed" v="60"/>
    <tag k="name" v="Kendall Street"/>
  </way>
  <way id="5579415" version="2" timestamp="2010-06-01T08:21:57Z" uid="4467" user="Rosscoe" changeset="4872615">
    <nd ref="41405250"/>
    <nd ref="41406121"/>
    <nd ref="41405706"/>
    <nd ref="41405707"/>
    <tag k="created_by" v="Potlatch alpha"/>
    <tag k="highway" v="unclassified"/>
    <tag k="name" v="Campbell Street"/>
  </way>
  <way id="5579415" version="3" timestamp="2010-11-24T13:10:58Z" uid="67896" user="mrpulley" changeset="6446684">
    <nd ref="41405250"/>
    <nd ref="41406121"/>
    <nd ref="41405706"/>
    <nd ref="41405707"/>
    <tag k="highway" v="unclassified"/>
    <tag k="maxspeed" v="60"/>
    <tag k="name" v="Campbell Street"/>
  </way>
  <way id="5579449" version="2" timestamp="2010-06-02T02:54:15Z" uid="4467" user="Rosscoe" changeset="4880285">
    <nd ref="41405706"/>
    <nd ref="41406047"/>
    <nd ref="41406049"/>
    <tag k="created_by" v="Potlatch alpha"/>
    <tag k="highway" v="unclassified"/>
    <tag k="name" v="Johnson Street"/>
  </way>
  <way id="5579449" version="3" timestamp="2010-11-24T13:10:59Z" uid="67896" user="mrpulley" changeset="6446684">
    <nd ref="41405706"/>
    <nd ref="41406047"/>
    <nd ref="41406049"/>
    <tag k="highway" v="unclassified"/>
    <tag k="maxspeed" v="60"/>
    <tag k="name" v="Johnson Street"/>
  </way>
  <way id="5579471" version="2" timestamp="2010-06-02T03:50:26Z" uid="4467" user="Rosscoe" changeset="4880447">
    <nd ref="41406121"/>
    <nd ref="41406368"/>
    <nd ref="41406160"/>
    <tag k="created_by" v="Potlatch alpha"/>
    <tag k="highway" v="unclassified"/>
    <tag k="name" v="Lowe Street"/>
  </way>
  <way id="5579471" version="3" timestamp="2010-11-24T13:10:59Z" uid="67896" user="mrpulley" changeset="6446684">
    <nd ref="41406121"/>
    <nd ref="41406368"/>
    <nd ref="41406160"/>
    <tag k="highway" v="unclassified"/>
    <tag k="maxspeed" v="60"/>
    <tag k="name" v="Lowe Street"/>
  </way>
  <way id="5579636" version="10" timestamp="2010-06-01T08:24:19Z" uid="4467" user="Rosscoe" changeset="4872615">
    <nd ref="41408392"/>
    <nd ref="41408540"/>
    <nd ref="158253878"/>
    <nd ref="41408543"/>
    <tag k="highway" v="residential"/>
    <tag k="name" v="Clement Street"/>
  </way>
  <way id="5579636" version="11" timestamp="2010-11-24T13:13:20Z" uid="67896" user="mrpulley" changeset="6446684">
    <nd ref="41408392"/>
    <nd ref="41408540"/>
    <tag k="highway" v="unclassified"/>
    <tag k="maxspeed" v="60"/>
    <tag k="name" v="Clement Street"/>
    <tag k="source" v="survey"/>
    <tag k="surface" v="asphalt"/>
  </way>
  <way id="5579908" version="3" timestamp="2010-06-01T02:39:39Z" uid="4467" user="Rosscoe" changeset="4871078">
    <nd ref="41412027"/>
    <nd ref="41411928"/>
    <tag k="highway" v="residential"/>
    <tag k="name" v="Tonks Close"/>
  </way>
  <way id="5579908" version="4" timestamp="2010-11-24T13:13:07Z" uid="67896" user="mrpulley" changeset="6446684">
    <nd ref="41412027"/>
    <nd ref="41411928"/>
    <tag k="highway" v="residential"/>
    <tag k="maxspeed" v="50"/>
    <tag k="name" v="Tonks Close"/>
  </way>
  <way id="5579957" version="5" timestamp="2010-04-02T23:41:16Z" uid="20587" user="balrog-kun" changeset="4309152">
    <nd ref="41412320"/>
    <nd ref="41412327"/>
    <tag k="created_by" v="Potlatch 0.8a"/>
    <tag k="highway" v="residential"/>
    <tag k="name" v="East Kaler Drive"/>
    <tag k="tiger:cfcc" v="A41"/>
    <tag k="tiger:county" v="Maricopa, AZ"/>
    <tag k="tiger:reviewed" v="no"/>
    <tag k="tiger:separated" v="no"/>
    <tag k="tiger:source" v="tiger_import_dch_v0.6_20070809"/>
    <tag k="tiger:tlid" v="128207978"/>
  </way>
  <way id="5579957" version="6" timestamp="2011-12-22T06:09:54Z" uid="292665" user="Dr Kludge" changeset="10177063">
    <nd ref="41412320"/>
    <nd ref="41412327"/>
    <tag k="highway" v="residential"/>
    <tag k="name" v="East Kaler Drive"/>
    <tag k="tiger:cfcc" v="A41"/>
    <tag k="tiger:county" v="Maricopa, AZ"/>
    <tag k="tiger:reviewed" v="no"/>
    <tag k="tiger:separated" v="no"/>
    <tag k="tiger:source" v="tiger_import_dch_v0.6_20070809"/>
    <tag k="tiger:tlid" v="128207978"/>
  </way>
  <way id="5579976" version="3" timestamp="2010-06-02T06:50:10Z" uid="4467" user="Rosscoe" changeset="4881307">
    <nd ref="41412409"/>
    <nd ref="41412518"/>
    <nd ref="652382184"/>
    <tag k="highway" v="residential"/>
    <tag k="name" v="Rogers Street"/>
  </way>
  <way id="5579976" version="4" timestamp="2010-11-24T13:13:03Z" uid="67896" user="mrpulley" changeset="6446684">
    <nd ref="41412409"/>
    <nd ref="652382184"/>
    <tag k="highway" v="residential"/>
    <tag k="maxspeed" v="50"/>
    <tag k="name" v="Rogers Street"/>
    <tag k="source" v="survey"/>
    <tag k="surface" v="asphalt"/>
  </way>
  <way id="5579908" version="5" timestamp="2012-07-21T13:44:02Z" uid="722137" user="OSMF Redaction Account" changeset="12410542">
    <nd ref="41412027"/>
    <nd ref="41411928"/>
    <tag k="highway" v="residential"/>
    <tag k="maxspeed" v="50"/>
    <tag k="name" v="Tonks Cl"/>
  </way>
</osm>
