<?xml version='1.0' encoding='UTF-8'?>
<osm version="0.6" generator="libosmium/2.20.0">
  <way id="55811902" version="1" timestamp="2010-04-18T15:35:39Z" uid="59758" user="rendle" changeset="4459089">
    <nd ref="130247432"/>
    <nd ref="130247433"/>
    <nd ref="130247434"/>
    <nd ref="130247435"/>
    <nd ref="130247436"/>
    <nd ref="130247437"/>
    <nd ref="130247438"/>
    <nd ref="130247439"/>
    <nd ref="130247440"/>
    <nd ref="554924462"/>
    <nd ref="601225210"/>
    <nd ref="274537860"/>
    <tag k="highway" v="primary"/>
    <tag k="ref" v="N43"/>
  </way>
  <way id="55811902" version="2" timestamp="2010-04-18T19:09:22Z" uid="10613" user="ivom" changeset="4461624">
    <nd ref="130247432"/>
    <nd ref="130247433"/>
    <nd ref="130247434"/>
    <nd ref="130247435"/>
    <nd ref="130247436"/>
    <nd ref="130247437"/>
    <nd ref="130247438"/>
    <nd ref="130247439"/>
    <nd ref="130247440"/>
    <nd ref="554924462"/>
    <nd ref="601225210"/>
    <nd ref="274537860"/>
    <tag k="cycleway" v="track"/>
    <tag k="highway" v="primary"/>
    <tag k="ref" v="N43"/>
  </way>
  <way id="55811902" version="6" timestamp="2012-01-14T10:35:14Z" uid="585598" user="Backer" changeset="10386085">
    <nd ref="130247432"/>
    <nd ref="702231511"/>
    <nd ref="702231521"/>
    <tag k="cycleway" v="track"/>
    <tag k="cycleway:buffer" v="1.6"/>
    <tag k="cycleway:surface" v="asphalt"/>
    <tag k="cycleway:width" v="1.22"/>
    <tag k="highway" v="primary"/>
    <tag k="maxspeed" v="50"/>
    <tag k="ref" v="N43"/>
  </way>
  <way id="55811902" version="7" timestamp="2012-01-26T11:27:30Z" uid="400461" user="Regio Oost-Vlaanderen Deltamedia" changeset="10502144">
    <nd ref="130247432"/>
    <nd ref="702231511"/>
    <nd ref="702231521"/>
    <tag k="cycleway" v="track"/>
    <tag k="cycleway:buffer" v="1.6"/>
    <tag k="cycleway:surface" v="asphalt"/>
    <tag k="cycleway:width" v="1.22"/>
    <tag k="highway" v="primary"/>
    <tag k="maxspeed" v="50"/>
    <tag k="name" v="Gentsesteenweg"/>
    <tag k="ref" v="N43"/>
  </way>
  <way id="55811902" version="8" timestamp="2012-01-26T12:29:56Z" uid="138772" user="lodde1949" changeset="10502449"/>
  <way id="55811979" version="1" timestamp="2010-04-18T15:35:47Z" uid="59758" user="rendle" changeset="4459089">
    <nd ref="457568036"/>
    <nd ref="130247397"/>
    <nd ref="130247398"/>
    <nd ref="130247399"/>
    <nd ref="130247400"/>
    <nd ref="130247432"/>
    <tag k="highway" v="primary"/>
    <tag k="ref" v="N43"/>
  </way>
  <way id="55811979" version="2" timestamp="2010-04-18T15:35:59Z" uid="59758" user="rendle" changeset="4459089">
    <nd ref="457568036"/>
    <nd ref="130247397"/>
    <nd ref="130247398"/>
    <nd ref="130247399"/>
    <nd ref="130247400"/>
    <nd ref="130247432"/>
    <tag k="highway" v="primary"/>
    <tag k="name" v="Gentstraat"/>
    <tag k="ref" v="N43"/>
  </way>
  <way id="55811979" version="3" timestamp="2010-04-18T18:12:07Z" uid="10613" user="ivom" changeset="4460920">
    <nd ref="457568036"/>
    <nd ref="130247397"/>
    <nd ref="130247398"/>
    <nd ref="130247399"/>
    <nd ref="130247400"/>
    <nd ref="130247432"/>
    <tag k="cycleway" v="track"/>
    <tag k="highway" v="primary"/>
    <tag k="name" v="Gentstraat"/>
    <tag k="ref" v="N43"/>
  </way>
  <way id="55811979" version="4" timestamp="2012-01-14T10:35:15Z" uid="585598" user="Backer" changeset="10386085">
    <nd ref="457568036"/>
    <nd ref="130247397"/>
    <nd ref="130247398"/>
    <nd ref="130247399"/>
    <nd ref="130247400"/>
    <nd ref="130247432"/>
    <tag k="cycleway" v="track"/>
    <tag k="highway" v="primary"/>
    <tag k="maxspeed" v="50"/>
    <tag k="name" v="Gentstraat"/>
    <tag k="ref" v="N43"/>
  </way>
  <way id="55811979" version="5" timestamp="2012-01-26T12:29:55Z" uid="138772" user="lodde1949" changeset="10502449"/>
</osm>
