<?xml version='1.0' encoding='UTF-8'?>
<osm version="0.6" generator="libosmium/2.20.0">
  <way id="55959652" version="6" timestamp="2011-04-14T10:33:00Z" uid="4467" user="Rosscoe" changeset="7859479">
    <nd ref="702451267"/>
    <nd ref="702451258"/>
    <nd ref="702451442"/>
    <nd ref="702478083"/>
    <nd ref="702451433"/>
    <nd ref="702451430"/>
    <nd ref="702451456"/>
    <nd ref="702478358"/>
    <nd ref="702451422"/>
    <tag k="highway" v="primary"/>
    <tag k="maxspeed" v="60"/>
    <tag k="name" v="Victoria Street"/>
    <tag k="oneway" v="yes"/>
    <tag k="source" v="nearmap"/>
  </way>
  <way id="55959653" version="3" timestamp="2011-04-14T10:32:55Z" uid="4467" user="Rosscoe" changeset="7859479">
    <nd ref="702451456"/>
    <nd ref="702451581"/>
    <tag k="highway" v="primary"/>
    <tag k="source" v="nearmap"/>
  </way>
  <way id="55959660" version="2" timestamp="2010-07-29T02:54:39Z" uid="20587" user="balrog-kun" changeset="5343444">
    <nd ref="702451528"/>
    <nd ref="365052277"/>
    <tag k="highway" v="tertiary"/>
    <tag k="ref" v="C-260 z"/>
  </way>
  <way id="55959660" version="3" timestamp="2010-12-09T20:48:57Z" uid="115931" user="Yodeima" changeset="6599421">
    <nd ref="702451528"/>
    <nd ref="365052277"/>
    <nd ref="1030001213"/>
    <tag k="highway" v="tertiary"/>
    <tag k="lanes" v="1"/>
    <tag k="layer" v="0"/>
    <tag k="maxspeed" v="80"/>
    <tag k="name" v="C-66z"/>
    <tag k="ncn_ref" v="C-66z"/>
    <tag k="oneway" v="no"/>
    <tag k="ref" v="C-66 z"/>
    <tag k="source" v="GPS"/>
  </way>
  <way id="55959660" version="4" timestamp="2010-12-09T21:58:45Z" uid="115931" user="Yodeima" changeset="6600131">
    <nd ref="702451528"/>
    <nd ref="365052277"/>
    <nd ref="1030001213"/>
    <tag k="highway" v="tertiary"/>
    <tag k="lanes" v="1"/>
    <tag k="layer" v="0"/>
    <tag k="maxspeed" v="80"/>
    <tag k="name" v="C-66z"/>
    <tag k="oneway" v="no"/>
    <tag k="ref" v="C-66 z"/>
    <tag k="source" v="GPS"/>
  </way>
  <way id="55959660" version="5" timestamp="2011-05-21T19:46:41Z" uid="172008" user="Blanes Lluis" changeset="8210085">
    <nd ref="702451528"/>
    <nd ref="1295287135"/>
    <nd ref="365052277"/>
    <nd ref="1030001213"/>
    <tag k="highway" v="tertiary"/>
    <tag k="lanes" v="1"/>
    <tag k="layer" v="0"/>
    <tag k="maxspeed" v="80"/>
    <tag k="name" v="C-66z"/>
    <tag k="oneway" v="no"/>
    <tag k="ref" v="C-66 z"/>
    <tag k="source" v="GPS"/>
  </way>
  <way id="55959660" version="6" timestamp="2011-05-24T06:21:16Z" uid="412105" user="Andy Mcr" changeset="8232306">
    <nd ref="702451529"/>
    <nd ref="1295287135"/>
    <nd ref="365052277"/>
    <nd ref="1030001213"/>
    <tag k="highway" v="tertiary"/>
    <tag k="lanes" v="1"/>
    <tag k="layer" v="0"/>
    <tag k="maxspeed" v="80"/>
    <tag k="name" v="C-66z"/>
    <tag k="oneway" v="no"/>
    <tag k="ref" v="C-66 z; C-260 z"/>
    <tag k="source" v="GPS"/>
  </way>
  <way id="55959660" version="7" timestamp="2011-07-19T08:12:52Z" uid="120406" user="Toni Guasch" changeset="8765827">
    <nd ref="702451529"/>
    <nd ref="1295287135"/>
    <tag k="highway" v="tertiary"/>
    <tag k="lanes" v="1"/>
    <tag k="layer" v="0"/>
    <tag k="maxspeed" v="80"/>
    <tag k="name" v="C-66z"/>
    <tag k="oneway" v="no"/>
    <tag k="ref" v="C-66 z; C-260 z"/>
    <tag k="source" v="GPS"/>
  </way>
  <way id="55959665" version="7" timestamp="2011-04-14T10:32:52Z" uid="4467" user="Rosscoe" changeset="7859479">
    <nd ref="471259500"/>
    <nd ref="702456076"/>
    <nd ref="702456085"/>
    <nd ref="702451581"/>
    <nd ref="702451621"/>
    <nd ref="702451699"/>
    <nd ref="702478012"/>
    <nd ref="702451772"/>
    <nd ref="702451774"/>
    <nd ref="702451248"/>
    <tag k="highway" v="primary"/>
    <tag k="maxspeed" v="60"/>
    <tag k="name" v="Victoria Street"/>
    <tag k="oneway" v="yes"/>
    <tag k="source" v="nearmap"/>
  </way>
  <way id="55959677" version="9" timestamp="2011-04-14T10:33:01Z" uid="4467" user="Rosscoe" changeset="7859479"/>
  <way id="55959652" version="7" timestamp="2012-07-19T11:58:14Z" uid="722137" user="OSMF Redaction Account" changeset="12323357"/>
  <way id="55959653" version="4" timestamp="2012-07-19T11:49:06Z" uid="722137" user="OSMF Redaction Account" changeset="12322681">
    <nd ref="702451456"/>
    <nd ref="702451581"/>
    <tag k="highway" v="primary_link"/>
    <tag k="source" v="nearmap"/>
  </way>
  <way id="55959653" version="5" timestamp="2012-08-28T08:34:40Z" uid="84937" user="Neil Penman" changeset="12889154">
    <nd ref="702451456"/>
    <nd ref="702451581"/>
    <tag k="highway" v="tertiary_link"/>
    <tag k="source" v="nearmap"/>
  </way>
  <way id="55959665" version="8" timestamp="2012-07-19T11:49:05Z" uid="722137" user="OSMF Redaction Account" changeset="12322681">
    <nd ref="471259500"/>
    <nd ref="702456076"/>
    <nd ref="702456085"/>
    <nd ref="702451581"/>
    <nd ref="702451621"/>
    <nd ref="702451699"/>
    <nd ref="702478012"/>
    <nd ref="702451772"/>
    <nd ref="702451774"/>
    <tag k="highway" v="primary"/>
    <tag k="maxspeed" v="60"/>
    <tag k="name" v="Victoria Street"/>
    <tag k="oneway" v="yes"/>
    <tag k="source" v="nearmap"/>
  </way>
  <way id="55959665" version="9" timestamp="2012-07-22T08:01:01Z" uid="46482" user="Leon K" changeset="12427522">
    <nd ref="471259500"/>
    <nd ref="702456076"/>
    <nd ref="702456085"/>
    <nd ref="702451581"/>
    <nd ref="702451621"/>
    <nd ref="702451699"/>
    <nd ref="702478012"/>
    <nd ref="702451772"/>
    <nd ref="702451774"/>
    <nd ref="1833877037"/>
    <tag k="highway" v="primary"/>
    <tag k="maxspeed" v="60"/>
    <tag k="name" v="Victoria Street"/>
    <tag k="oneway" v="yes"/>
    <tag k="source" v="nearmap"/>
  </way>
  <way id="55959665" version="10" timestamp="2012-08-28T08:34:40Z" uid="84937" user="Neil Penman" changeset="12889154">
    <nd ref="471259500"/>
    <nd ref="702456076"/>
    <nd ref="702456085"/>
    <nd ref="702451581"/>
    <nd ref="702451621"/>
    <nd ref="702451699"/>
    <nd ref="702478012"/>
    <nd ref="702451772"/>
    <nd ref="702451774"/>
    <nd ref="1833877037"/>
    <tag k="highway" v="tertiary"/>
    <tag k="maxspeed" v="60"/>
    <tag k="name" v="Victoria Street"/>
    <tag k="oneway" v="yes"/>
    <tag k="source" v="nearmap"/>
  </way>
</osm>
