<?xml version='1.0' encoding='UTF-8'?>
<osm version="0.6" generator="libosmium/2.20.0">
  <way id="56079068" version="4" timestamp="2010-08-15T15:52:48Z" uid="9581" user="Lobelt" changeset="5501249">
    <nd ref="473062939"/>
    <nd ref="703900474"/>
    <nd ref="861405212"/>
    <nd ref="262536630"/>
    <tag k="highway" v="residential"/>
    <tag k="maxspeed" v="30"/>
    <tag k="name" v="Möllbachstraße"/>
    <tag k="ref" v="gelb-rot"/>
  </way>
  <way id="56079068" version="5" timestamp="2011-01-03T18:06:47Z" uid="130379" user="jkunz" changeset="6852562">
    <nd ref="473062939"/>
    <nd ref="703900474"/>
    <nd ref="861405212"/>
    <nd ref="262536630"/>
    <tag k="highway" v="residential"/>
    <tag k="maxspeed" v="30"/>
    <tag k="name" v="Möllbachstraße"/>
  </way>
  <way id="56079068" version="6" timestamp="2012-03-19T01:46:24Z" uid="328555" user="peb12345" changeset="11025852">
    <nd ref="473062939"/>
    <nd ref="703900474"/>
    <nd ref="1680996360"/>
    <nd ref="262536630"/>
    <tag k="highway" v="residential"/>
    <tag k="maxspeed" v="30"/>
    <tag k="name" v="Möllbachstraße"/>
  </way>
  <way id="56079433" version="2" timestamp="2011-03-21T19:02:01Z" uid="9581" user="Lobelt" changeset="7630578">
    <nd ref="36478826"/>
    <nd ref="1212287254"/>
    <nd ref="1212287154"/>
    <nd ref="36478831"/>
    <nd ref="1212287182"/>
    <tag k="foot" v="yes"/>
    <tag k="highway" v="cycleway"/>
  </way>
  <way id="56079433" version="3" timestamp="2012-02-26T08:38:42Z" uid="55687" user="dschuwa" changeset="10795335"/>
</osm>
