<?xml version='1.0' encoding='UTF-8'?>
<osm version="0.6" generator="libosmium/2.20.0">
  <way id="56088832" version="1" timestamp="2010-04-22T21:12:26Z" uid="110593" user="esetzer" changeset="4499036">
    <nd ref="369131806"/>
    <nd ref="369131701"/>
    <nd ref="369131707"/>
    <tag k="highway" v="motorway"/>
    <tag k="maxspeed" v="65mph"/>
    <tag k="name" v="I-80"/>
    <tag k="oneway" v="yes"/>
    <tag k="ref" v="I 80"/>
  </way>
  <way id="56088832" version="2" timestamp="2011-03-26T03:59:13Z" uid="207745" user="NE2" changeset="7671930">
    <nd ref="369131806"/>
    <nd ref="369131701"/>
    <nd ref="369131707"/>
    <tag k="highway" v="motorway"/>
    <tag k="maxspeed" v="65mph"/>
    <tag k="old_ref" v="SR 2"/>
    <tag k="oneway" v="yes"/>
    <tag k="ref" v="I 80"/>
  </way>
  <way id="56088832" version="3" timestamp="2011-04-06T23:53:10Z" uid="207745" user="NE2" changeset="7788882">
    <nd ref="369131806"/>
    <nd ref="369131701"/>
    <nd ref="369131707"/>
    <tag k="highway" v="motorway"/>
    <tag k="maxspeed" v="65 mph"/>
    <tag k="old_ref" v="SR 2"/>
    <tag k="oneway" v="yes"/>
    <tag k="ref" v="I 80"/>
  </way>
  <way id="56088832" version="4" timestamp="2011-06-27T22:38:15Z" uid="473471" user="NE3" changeset="8567175">
    <nd ref="369131806"/>
    <nd ref="369131701"/>
    <nd ref="369131707"/>
    <tag k="highway" v="motorway"/>
    <tag k="lanes" v="3"/>
    <tag k="maxspeed" v="65 mph"/>
    <tag k="old_ref" v="SR 2"/>
    <tag k="oneway" v="yes"/>
    <tag k="ref" v="I 80"/>
  </way>
  <way id="56088832" version="5" timestamp="2011-10-16T03:37:06Z" uid="207745" user="NE2" changeset="9568940">
    <nd ref="369131806"/>
    <nd ref="369131701"/>
    <nd ref="369131707"/>
    <tag k="bicycle" v="no"/>
    <tag k="highway" v="motorway"/>
    <tag k="lanes" v="3"/>
    <tag k="maxspeed" v="65 mph"/>
    <tag k="old_ref" v="SR 2"/>
    <tag k="oneway" v="yes"/>
    <tag k="ref" v="I 80"/>
  </way>
  <way id="56088832" version="6" timestamp="2011-12-05T20:33:38Z" uid="207745" user="NE2" changeset="10045043">
    <nd ref="369131806"/>
    <nd ref="369131701"/>
    <nd ref="369131707"/>
    <tag k="bicycle" v="no"/>
    <tag k="hgv" v="designated"/>
    <tag k="highway" v="motorway"/>
    <tag k="lanes" v="3"/>
    <tag k="maxspeed" v="65 mph"/>
    <tag k="old_ref" v="SR 2"/>
    <tag k="oneway" v="yes"/>
    <tag k="ref" v="I 80"/>
  </way>
  <way id="56088832" version="7" timestamp="2012-01-10T06:18:36Z" uid="8909" user="mvexel" changeset="10348572"/>
</osm>
