<?xml version='1.0' encoding='UTF-8'?>
<osm version="0.6" generator="libosmium/2.20.0">
  <way id="56464237" version="1" timestamp="2010-04-26T19:22:17Z" uid="151899" user="Bikeman2000" changeset="4535102">
    <nd ref="707987490"/>
    <nd ref="707987492"/>
    <nd ref="707987493"/>
    <nd ref="707987494"/>
    <nd ref="707987495"/>
    <nd ref="707987496"/>
    <nd ref="707987497"/>
    <nd ref="707987499"/>
    <nd ref="707987501"/>
    <nd ref="707987490"/>
    <tag k="landuse" v="meadow"/>
  </way>
  <way id="56464237" version="2" timestamp="2011-05-16T09:00:20Z" uid="67862" user="HolgerJeromin" changeset="8160265"/>
  <way id="56464417" version="1" timestamp="2010-04-26T19:24:43Z" uid="33382" user="de_muur" changeset="4535132">
    <nd ref="707990720"/>
    <nd ref="146766210"/>
    <nd ref="146766227"/>
    <nd ref="146766252"/>
    <nd ref="146766242"/>
    <nd ref="146766088"/>
    <nd ref="146766093"/>
    <nd ref="288006481"/>
    <nd ref="146766098"/>
    <tag k="highway" v="unclassified"/>
    <tag k="name" v="Reerer Damm"/>
    <tag k="surface" v="paved"/>
  </way>
  <way id="56464417" version="2" timestamp="2010-04-28T18:45:01Z" uid="33382" user="de_muur" changeset="4552248">
    <nd ref="707990720"/>
    <nd ref="146766210"/>
    <nd ref="146766227"/>
    <tag k="highway" v="unclassified"/>
    <tag k="name" v="Reerer Damm"/>
    <tag k="surface" v="paved"/>
  </way>
  <way id="56464417" version="3" timestamp="2010-10-11T17:57:22Z" uid="33382" user="de_muur" changeset="6014132">
    <nd ref="707990720"/>
    <nd ref="146766210"/>
    <nd ref="146766227"/>
    <tag k="highway" v="residential"/>
    <tag k="maxspeed" v="30"/>
    <tag k="name" v="Reerer Damm"/>
    <tag k="surface" v="paved"/>
  </way>
  <way id="56464417" version="4" timestamp="2011-08-14T17:35:17Z" uid="57645" user="KartoGrapHiti" changeset="9018677">
    <nd ref="146766227"/>
    <nd ref="146766210"/>
    <nd ref="707990720"/>
    <tag k="highway" v="residential"/>
    <tag k="maxspeed" v="30"/>
    <tag k="name" v="Reerer Damm"/>
    <tag k="surface" v="paved"/>
  </way>
  <way id="56464417" version="5" timestamp="2011-08-22T16:51:21Z" uid="57645" user="KartoGrapHiti" changeset="9095931">
    <nd ref="146766227"/>
    <nd ref="1408728898"/>
    <tag k="highway" v="residential"/>
    <tag k="maxspeed" v="50"/>
    <tag k="name" v="Reerer Damm"/>
    <tag k="surface" v="paved"/>
  </way>
  <way id="56464417" version="6" timestamp="2011-08-23T09:50:10Z" uid="57645" user="KartoGrapHiti" changeset="9101889">
    <nd ref="146766227"/>
    <nd ref="1408728898"/>
    <tag k="highway" v="residential"/>
    <tag k="lit" v="limited"/>
    <tag k="maxspeed" v="50"/>
    <tag k="name" v="Reerer Damm"/>
    <tag k="surface" v="paved"/>
  </way>
  <way id="56464417" version="7" timestamp="2011-10-30T13:01:19Z" uid="57645" user="KartoGrapHiti" changeset="9693431">
    <nd ref="146766227"/>
    <nd ref="1408728898"/>
    <tag k="footway" v="no"/>
    <tag k="highway" v="residential"/>
    <tag k="lit" v="limited"/>
    <tag k="maxspeed" v="50"/>
    <tag k="name" v="Reerer Damm"/>
    <tag k="surface" v="paved"/>
  </way>
  <way id="56464419" version="1" timestamp="2010-04-26T19:24:44Z" uid="33382" user="de_muur" changeset="4535132">
    <nd ref="707990730"/>
    <nd ref="146766419"/>
    <nd ref="707990728"/>
    <nd ref="271439601"/>
    <nd ref="271439598"/>
    <nd ref="253682481"/>
    <tag k="highway" v="tertiary"/>
    <tag k="name" v="Inscheder Dorfstraße"/>
    <tag k="ref" v="K 9"/>
    <tag k="surface" v="paved"/>
  </way>
  <way id="56464419" version="2" timestamp="2010-05-25T13:40:21Z" uid="35574" user="Schorse" changeset="4803763">
    <nd ref="707990730"/>
    <nd ref="146766419"/>
    <nd ref="707990728"/>
    <nd ref="271439601"/>
    <nd ref="271439598"/>
    <nd ref="253682481"/>
    <tag k="bicycle" v="designated"/>
    <tag k="cycleway" v="track"/>
    <tag k="foot" v="designated"/>
    <tag k="highway" v="tertiary"/>
    <tag k="name" v="Inscheder Dorfstraße"/>
    <tag k="ref" v="K 9"/>
    <tag k="surface" v="paved"/>
  </way>
  <way id="56464419" version="3" timestamp="2010-11-29T10:22:18Z" uid="42429" user="FK270673" changeset="6485168">
    <nd ref="707990730"/>
    <nd ref="146766419"/>
    <nd ref="707990728"/>
    <nd ref="271439601"/>
    <nd ref="271439598"/>
    <nd ref="253682481"/>
    <tag k="bicycle" v="designated"/>
    <tag k="cycleway" v="track"/>
    <tag k="foot" v="designated"/>
    <tag k="highway" v="tertiary"/>
    <tag k="name" v="Intscheder Dorfstraße"/>
    <tag k="ref" v="K 9"/>
    <tag k="surface" v="paved"/>
  </way>
  <way id="56464419" version="4" timestamp="2011-08-22T16:54:50Z" uid="57645" user="KartoGrapHiti" changeset="9095970">
    <nd ref="707990730"/>
    <nd ref="146766419"/>
    <nd ref="707990728"/>
    <nd ref="271439601"/>
    <nd ref="271439598"/>
    <nd ref="253682481"/>
    <tag k="bicycle" v="designated"/>
    <tag k="cycleway" v="track"/>
    <tag k="foot" v="designated"/>
    <tag k="highway" v="tertiary"/>
    <tag k="maxspeed" v="100"/>
    <tag k="name" v="Intscheder Dorfstraße"/>
    <tag k="ref" v="K 9"/>
    <tag k="surface" v="paved"/>
  </way>
  <way id="56464419" version="5" timestamp="2012-01-28T17:43:36Z" uid="57645" user="KartoGrapHiti" changeset="10523228">
    <nd ref="707990730"/>
    <nd ref="146766419"/>
    <nd ref="1609046105"/>
    <nd ref="707990728"/>
    <nd ref="271439601"/>
    <nd ref="271439598"/>
    <nd ref="253682481"/>
    <tag k="highway" v="tertiary"/>
    <tag k="maxspeed" v="100"/>
    <tag k="name" v="Intscheder Dorfstraße"/>
    <tag k="ref" v="K 9"/>
    <tag k="surface" v="asphalt"/>
  </way>
  <way id="56464419" version="6" timestamp="2012-03-08T19:49:30Z" uid="57645" user="KartoGrapHiti" changeset="10912874"/>
  <way id="56464529" version="1" timestamp="2010-04-26T19:26:48Z" uid="151899" user="Bikeman2000" changeset="4535156">
    <nd ref="707994699"/>
    <nd ref="707994557"/>
    <nd ref="707916407"/>
    <nd ref="705480703"/>
    <nd ref="707994699"/>
    <tag k="landuse" v="farmland"/>
  </way>
  <way id="56464529" version="2" timestamp="2011-12-26T05:27:14Z" uid="173844" user="Antikalk" changeset="10204641"/>
  <way id="56464417" version="8" timestamp="2012-07-18T14:36:03Z" uid="722137" user="OSMF Redaction Account" changeset="12285248"/>
</osm>
