<?xml version='1.0' encoding='UTF-8'?>
<osm version="0.6" generator="libosmium/2.20.0">
  <way id="56672059" version="4" timestamp="2010-06-22T02:06:50Z" uid="20587" user="balrog-kun" changeset="5047946">
    <nd ref="321744985"/>
    <nd ref="321744892"/>
    <nd ref="454076229"/>
    <nd ref="334410588"/>
    <nd ref="88776929"/>
    <nd ref="673239199"/>
    <nd ref="523941898"/>
    <nd ref="242433615"/>
    <nd ref="12067623"/>
    <nd ref="237016137"/>
    <nd ref="340650955"/>
    <nd ref="12067627"/>
    <nd ref="496084106"/>
    <nd ref="242433632"/>
    <nd ref="496084634"/>
    <nd ref="295660686"/>
    <nd ref="243508493"/>
    <tag k="alt_name" v="EDSA"/>
    <tag k="highway" v="trunk"/>
    <tag k="lanes" v="4"/>
    <tag k="maxspeed" v="100"/>
    <tag k="name" v="Epifanio de los Santos Avenue"/>
    <tag k="oneway" v="yes"/>
    <tag k="ref" v="C-4"/>
  </way>
  <way id="56672059" version="5" timestamp="2010-07-05T05:39:37Z" uid="44938" user="ianlopez1115" changeset="5138820">
    <nd ref="321744985"/>
    <nd ref="321744892"/>
    <nd ref="454076229"/>
    <nd ref="334410588"/>
    <nd ref="88776929"/>
    <nd ref="673239199"/>
    <nd ref="523941898"/>
    <nd ref="242433615"/>
    <nd ref="12067623"/>
    <nd ref="237016137"/>
    <nd ref="340650955"/>
    <nd ref="12067627"/>
    <nd ref="496084106"/>
    <nd ref="242433632"/>
    <nd ref="496084634"/>
    <nd ref="295660686"/>
    <nd ref="243508493"/>
    <tag k="alt_name" v="EDSA"/>
    <tag k="highway" v="trunk"/>
    <tag k="lanes" v="4"/>
    <tag k="lit" v="yes"/>
    <tag k="maxspeed" v="100"/>
    <tag k="name" v="Epifanio de los Santos Avenue"/>
    <tag k="oneway" v="yes"/>
    <tag k="ref" v="C-4"/>
  </way>
  <way id="56672059" version="6" timestamp="2010-10-24T06:28:03Z" uid="11126" user="seav" changeset="6153523">
    <nd ref="321744985"/>
    <nd ref="321744892"/>
    <nd ref="962953430"/>
    <nd ref="88776929"/>
    <nd ref="673239199"/>
    <nd ref="523941898"/>
    <nd ref="242433615"/>
    <nd ref="12067623"/>
    <nd ref="237016137"/>
    <nd ref="340650955"/>
    <nd ref="12067627"/>
    <nd ref="496084106"/>
    <nd ref="242433632"/>
    <nd ref="496084634"/>
    <nd ref="295660686"/>
    <nd ref="243508493"/>
    <tag k="alt_name" v="EDSA"/>
    <tag k="highway" v="trunk"/>
    <tag k="lanes" v="4"/>
    <tag k="lit" v="yes"/>
    <tag k="maxspeed" v="100"/>
    <tag k="name" v="Epifanio de los Santos Avenue"/>
    <tag k="oneway" v="yes"/>
    <tag k="ref" v="C-4"/>
  </way>
  <way id="56672059" version="7" timestamp="2010-10-24T06:40:38Z" uid="11126" user="seav" changeset="6153588">
    <nd ref="321744985"/>
    <nd ref="321744892"/>
    <nd ref="962953430"/>
    <nd ref="962956570"/>
    <nd ref="962956576"/>
    <nd ref="962956582"/>
    <nd ref="962956590"/>
    <nd ref="88776929"/>
    <nd ref="673239199"/>
    <nd ref="523941898"/>
    <nd ref="242433615"/>
    <nd ref="12067623"/>
    <nd ref="237016137"/>
    <nd ref="340650955"/>
    <nd ref="12067627"/>
    <nd ref="496084106"/>
    <nd ref="242433632"/>
    <nd ref="496084634"/>
    <nd ref="295660686"/>
    <nd ref="243508493"/>
    <tag k="alt_name" v="EDSA"/>
    <tag k="highway" v="trunk"/>
    <tag k="lanes" v="4"/>
    <tag k="lit" v="yes"/>
    <tag k="maxspeed" v="100"/>
    <tag k="name" v="Epifanio de los Santos Avenue"/>
    <tag k="oneway" v="yes"/>
    <tag k="ref" v="C-4"/>
  </way>
  <way id="56672059" version="8" timestamp="2010-12-27T12:29:57Z" uid="379242" user="SkinMD" changeset="6777115">
    <nd ref="321744985"/>
    <nd ref="321744892"/>
    <nd ref="962953430"/>
    <nd ref="962956570"/>
    <nd ref="962956576"/>
    <nd ref="962956582"/>
    <nd ref="962956590"/>
    <nd ref="88776929"/>
    <nd ref="673239199"/>
    <nd ref="523941898"/>
    <nd ref="242433615"/>
    <nd ref="12067623"/>
    <nd ref="237016137"/>
    <nd ref="340650955"/>
    <nd ref="12067627"/>
    <nd ref="496084106"/>
    <nd ref="242433632"/>
    <nd ref="496084634"/>
    <nd ref="295660686"/>
    <nd ref="243508493"/>
    <tag k="alt_name" v="EDSA"/>
    <tag k="highway" v="trunk"/>
    <tag k="lanes" v="4"/>
    <tag k="lit" v="yes"/>
    <tag k="maxspeed" v="40"/>
    <tag k="name" v="Epifanio de los Santos Avenue"/>
    <tag k="oneway" v="yes"/>
    <tag k="ref" v="C-4"/>
  </way>
  <way id="56672059" version="9" timestamp="2010-12-31T12:44:37Z" uid="44938" user="ianlopez1115" changeset="6819217">
    <nd ref="321744985"/>
    <nd ref="321744892"/>
    <nd ref="962953430"/>
    <nd ref="962956570"/>
    <nd ref="962956576"/>
    <nd ref="962956582"/>
    <nd ref="962956590"/>
    <nd ref="1075204931"/>
    <nd ref="88776929"/>
    <nd ref="673239199"/>
    <nd ref="523941898"/>
    <nd ref="242433615"/>
    <nd ref="12067623"/>
    <nd ref="237016137"/>
    <nd ref="340650955"/>
    <nd ref="12067627"/>
    <nd ref="496084106"/>
    <nd ref="242433632"/>
    <nd ref="496084634"/>
    <nd ref="295660686"/>
    <nd ref="243508493"/>
    <tag k="alt_name" v="EDSA"/>
    <tag k="highway" v="trunk"/>
    <tag k="lanes" v="4"/>
    <tag k="lit" v="yes"/>
    <tag k="maxspeed" v="40"/>
    <tag k="name" v="Epifanio de los Santos Avenue"/>
    <tag k="oneway" v="yes"/>
    <tag k="ref" v="C-4"/>
  </way>
  <way id="56672059" version="10" timestamp="2011-05-07T15:16:35Z" uid="11126" user="seav" changeset="8074365">
    <nd ref="321744985"/>
    <nd ref="321744892"/>
    <nd ref="962953430"/>
    <nd ref="962956570"/>
    <nd ref="962956576"/>
    <nd ref="962956582"/>
    <nd ref="962956590"/>
    <nd ref="1275893020"/>
    <nd ref="1075204931"/>
    <nd ref="88776929"/>
    <nd ref="673239199"/>
    <nd ref="523941898"/>
    <nd ref="242433615"/>
    <nd ref="12067623"/>
    <nd ref="237016137"/>
    <nd ref="340650955"/>
    <nd ref="12067627"/>
    <nd ref="496084106"/>
    <nd ref="242433632"/>
    <nd ref="496084634"/>
    <nd ref="295660686"/>
    <nd ref="243508493"/>
    <tag k="alt_name" v="EDSA"/>
    <tag k="highway" v="trunk"/>
    <tag k="lanes" v="4"/>
    <tag k="lit" v="yes"/>
    <tag k="maxspeed" v="40"/>
    <tag k="name" v="Epifanio de los Santos Avenue"/>
    <tag k="oneway" v="yes"/>
    <tag k="ref" v="C-4"/>
  </way>
  <way id="56672059" version="11" timestamp="2011-05-12T17:46:02Z" uid="11126" user="seav" changeset="8124530">
    <nd ref="321744985"/>
    <nd ref="321744892"/>
    <nd ref="962953430"/>
    <nd ref="962956570"/>
    <nd ref="962956576"/>
    <nd ref="962956582"/>
    <nd ref="962956590"/>
    <nd ref="1075204931"/>
    <nd ref="88776929"/>
    <nd ref="673239199"/>
    <nd ref="523941898"/>
    <nd ref="242433615"/>
    <nd ref="12067623"/>
    <nd ref="237016137"/>
    <nd ref="340650955"/>
    <nd ref="12067627"/>
    <nd ref="496084106"/>
    <nd ref="242433632"/>
    <nd ref="496084634"/>
    <nd ref="295660686"/>
    <nd ref="243508493"/>
    <tag k="alt_name" v="EDSA"/>
    <tag k="highway" v="trunk"/>
    <tag k="lanes" v="4"/>
    <tag k="lit" v="yes"/>
    <tag k="maxspeed" v="40"/>
    <tag k="name" v="Epifanio de los Santos Avenue"/>
    <tag k="oneway" v="yes"/>
    <tag k="ref" v="C-4"/>
  </way>
  <way id="56672060" version="4" timestamp="2011-04-20T12:57:56Z" uid="115477" user="wowik" changeset="7916018">
    <nd ref="708696201"/>
    <nd ref="708696214"/>
    <nd ref="1148892236"/>
    <nd ref="708696215"/>
    <nd ref="708696219"/>
    <nd ref="708696201"/>
    <tag k="addr:city" v="Москва"/>
    <tag k="addr:country" v="RU"/>
    <tag k="addr:housenumber" v="10"/>
    <tag k="addr:street" v="Средний Кисловский переулок"/>
    <tag k="building" v="yes"/>
  </way>
  <way id="56672060" version="5" timestamp="2011-09-15T17:42:32Z" uid="424404" user="Dmitry Vilegzhanin" changeset="9309744">
    <nd ref="708696201"/>
    <nd ref="708696214"/>
    <nd ref="1148892236"/>
    <nd ref="708696215"/>
    <nd ref="708696219"/>
    <nd ref="1433667753"/>
    <nd ref="1433667756"/>
    <nd ref="708696201"/>
    <tag k="addr:city" v="Москва"/>
    <tag k="addr:country" v="RU"/>
    <tag k="addr:housenumber" v="10"/>
    <tag k="addr:street" v="Средний Кисловский переулок"/>
    <tag k="building" v="yes"/>
  </way>
  <way id="56672060" version="6" timestamp="2011-09-18T15:39:59Z" uid="161476" user="Alexandr Zeinalov" changeset="9332522">
    <nd ref="708696201"/>
    <nd ref="708696214"/>
    <nd ref="708696215"/>
    <nd ref="708696219"/>
    <nd ref="1148892178"/>
    <nd ref="1433667753"/>
    <nd ref="1433667756"/>
    <nd ref="708696201"/>
    <tag k="addr:city" v="Москва"/>
    <tag k="addr:country" v="RU"/>
    <tag k="addr:housenumber" v="10"/>
    <tag k="addr:street" v="Средний Кисловский переулок"/>
    <tag k="building" v="yes"/>
  </way>
  <way id="56672081" version="3" timestamp="2011-04-20T12:56:50Z" uid="115477" user="wowik" changeset="7916018">
    <nd ref="708696708"/>
    <nd ref="708696709"/>
    <nd ref="708696710"/>
    <nd ref="708696711"/>
    <nd ref="708696712"/>
    <nd ref="708696713"/>
    <nd ref="708696714"/>
    <nd ref="708696708"/>
    <tag k="addr:city" v="Москва"/>
    <tag k="addr:country" v="RU"/>
    <tag k="addr:housenumber" v="13"/>
    <tag k="addr:street" v="Большая Никитская улица"/>
    <tag k="building" v="yes"/>
    <tag k="name" v="Московская Консерваторя им. П.И.Чайковского - Малый зал"/>
  </way>
  <way id="56672081" version="4" timestamp="2011-09-18T15:40:00Z" uid="161476" user="Alexandr Zeinalov" changeset="9332522">
    <nd ref="708696708"/>
    <nd ref="708696709"/>
    <nd ref="708696710"/>
    <nd ref="708696711"/>
    <nd ref="708696712"/>
    <nd ref="708696713"/>
    <nd ref="708696714"/>
    <nd ref="1148892104"/>
    <nd ref="708696708"/>
    <tag k="addr:city" v="Москва"/>
    <tag k="addr:country" v="RU"/>
    <tag k="addr:housenumber" v="13"/>
    <tag k="addr:street" v="Большая Никитская улица"/>
    <tag k="building" v="yes"/>
    <tag k="name" v="Московская Консерваторя им. П.И.Чайковского - Малый зал"/>
  </way>
  <way id="56672081" version="5" timestamp="2011-12-26T14:03:58Z" uid="260756" user="Felis Pimeja" changeset="10207368">
    <nd ref="708696708"/>
    <nd ref="708696709"/>
    <nd ref="708696710"/>
    <nd ref="1562455827"/>
    <nd ref="708696711"/>
    <nd ref="708696712"/>
    <nd ref="1562455820"/>
    <nd ref="708696713"/>
    <nd ref="708696714"/>
    <nd ref="1148892104"/>
    <nd ref="708696708"/>
    <tag k="addr:city" v="Москва"/>
    <tag k="addr:country" v="RU"/>
    <tag k="addr:housenumber" v="13"/>
    <tag k="addr:street" v="Большая Никитская улица"/>
    <tag k="building" v="yes"/>
    <tag k="name" v="Московская Консерваторя им. П.И.Чайковского - Малый зал"/>
  </way>
  <way id="56672138" version="4" timestamp="2011-04-20T12:56:55Z" uid="115477" user="wowik" changeset="7916018">
    <nd ref="708697112"/>
    <nd ref="708697113"/>
    <nd ref="708697114"/>
    <nd ref="708697115"/>
    <nd ref="708697116"/>
    <nd ref="1148892148"/>
    <nd ref="708697117"/>
    <nd ref="708697112"/>
    <tag k="addr:city" v="Москва"/>
    <tag k="addr:country" v="RU"/>
    <tag k="addr:housenumber" v="11"/>
    <tag k="addr:street" v="Большая Никитская улица"/>
    <tag k="building" v="yes"/>
    <tag k="name" v="Московская Консерватория им. П.И.Чайковского - Рахманиновской зал"/>
  </way>
  <way id="56672138" version="5" timestamp="2011-09-18T15:40:00Z" uid="161476" user="Alexandr Zeinalov" changeset="9332522">
    <nd ref="708696711"/>
    <nd ref="708696712"/>
    <nd ref="708697113"/>
    <nd ref="708697114"/>
    <nd ref="708697115"/>
    <nd ref="708697116"/>
    <nd ref="1148892148"/>
    <nd ref="708697117"/>
    <nd ref="708696711"/>
    <tag k="addr:city" v="Москва"/>
    <tag k="addr:country" v="RU"/>
    <tag k="addr:housenumber" v="11"/>
    <tag k="addr:street" v="Большая Никитская улица"/>
    <tag k="building" v="yes"/>
    <tag k="name" v="Московская Консерватория им. П.И.Чайковского - Рахманиновской зал"/>
  </way>
  <way id="56672139" version="5" timestamp="2010-06-22T02:06:52Z" uid="20587" user="balrog-kun" changeset="5047946">
    <nd ref="414556813"/>
    <nd ref="414556814"/>
    <nd ref="320134107"/>
    <nd ref="750632103"/>
    <nd ref="503832031"/>
    <nd ref="88777890"/>
    <nd ref="88798966"/>
    <nd ref="88798869"/>
    <nd ref="496087955"/>
    <nd ref="496087957"/>
    <nd ref="252178518"/>
    <nd ref="88777891"/>
    <nd ref="496089784"/>
    <nd ref="321552799"/>
    <nd ref="88778614"/>
    <nd ref="87632971"/>
    <nd ref="321552827"/>
    <tag k="alt_name" v="EDSA"/>
    <tag k="highway" v="trunk"/>
    <tag k="lanes" v="4"/>
    <tag k="maxspeed" v="100"/>
    <tag k="name" v="Epifanio de los Santos Avenue"/>
    <tag k="oneway" v="yes"/>
    <tag k="ref" v="C-4"/>
  </way>
  <way id="56672139" version="6" timestamp="2010-07-05T05:39:42Z" uid="44938" user="ianlopez1115" changeset="5138820">
    <nd ref="414556813"/>
    <nd ref="414556814"/>
    <nd ref="320134107"/>
    <nd ref="750632103"/>
    <nd ref="503832031"/>
    <nd ref="88777890"/>
    <nd ref="88798966"/>
    <nd ref="88798869"/>
    <nd ref="496087955"/>
    <nd ref="496087957"/>
    <nd ref="252178518"/>
    <nd ref="88777891"/>
    <nd ref="496089784"/>
    <nd ref="321552799"/>
    <nd ref="88778614"/>
    <nd ref="87632971"/>
    <nd ref="321552827"/>
    <tag k="alt_name" v="EDSA"/>
    <tag k="highway" v="trunk"/>
    <tag k="lanes" v="4"/>
    <tag k="lit" v="yes"/>
    <tag k="maxspeed" v="100"/>
    <tag k="name" v="Epifanio de los Santos Avenue"/>
    <tag k="oneway" v="yes"/>
    <tag k="ref" v="C-4"/>
  </way>
  <way id="56672139" version="7" timestamp="2011-08-15T17:14:09Z" uid="11126" user="seav" changeset="9029167">
    <nd ref="320134107"/>
    <nd ref="750632103"/>
    <nd ref="503832031"/>
    <nd ref="88777890"/>
    <nd ref="88798966"/>
    <nd ref="88798869"/>
    <nd ref="496087955"/>
    <nd ref="496087957"/>
    <nd ref="252178518"/>
    <nd ref="88777891"/>
    <nd ref="496089784"/>
    <nd ref="321552799"/>
    <nd ref="88778614"/>
    <nd ref="87632971"/>
    <nd ref="321552827"/>
    <tag k="alt_name" v="EDSA"/>
    <tag k="highway" v="trunk"/>
    <tag k="lanes" v="4"/>
    <tag k="lit" v="yes"/>
    <tag k="maxspeed" v="100"/>
    <tag k="name" v="Epifanio de los Santos Avenue"/>
    <tag k="oneway" v="yes"/>
    <tag k="ref" v="C-4"/>
  </way>
  <way id="56672139" version="8" timestamp="2011-09-11T20:08:42Z" uid="11126" user="seav" changeset="9274891">
    <nd ref="320134107"/>
    <nd ref="750632103"/>
    <nd ref="503832031"/>
    <nd ref="88777890"/>
    <nd ref="88798966"/>
    <tag k="alt_name" v="EDSA"/>
    <tag k="highway" v="trunk"/>
    <tag k="lanes" v="4"/>
    <tag k="lit" v="yes"/>
    <tag k="maxspeed" v="100"/>
    <tag k="name" v="Epifanio de los Santos Avenue"/>
    <tag k="oneway" v="yes"/>
    <tag k="ref" v="C-4"/>
  </way>
  <way id="56672144" version="5" timestamp="2010-06-22T02:06:51Z" uid="20587" user="balrog-kun" changeset="5047946">
    <nd ref="414557230"/>
    <nd ref="12067619"/>
    <nd ref="746066074"/>
    <nd ref="186466037"/>
    <nd ref="331134097"/>
    <nd ref="475797997"/>
    <nd ref="31241755"/>
    <nd ref="480762858"/>
    <nd ref="708696479"/>
    <nd ref="321744892"/>
    <tag k="alt_name" v="EDSA"/>
    <tag k="highway" v="trunk"/>
    <tag k="lanes" v="2"/>
    <tag k="maxspeed" v="60"/>
    <tag k="name" v="Epifanio de los Santos Avenue"/>
    <tag k="oneway" v="yes"/>
    <tag k="ref" v="C-4"/>
  </way>
  <way id="56672144" version="6" timestamp="2010-07-08T10:40:55Z" uid="44938" user="ianlopez1115" changeset="5165136">
    <nd ref="414557230"/>
    <nd ref="12067619"/>
    <nd ref="746066074"/>
    <nd ref="186466037"/>
    <nd ref="331134097"/>
    <nd ref="475797997"/>
    <nd ref="31241755"/>
    <nd ref="480762858"/>
    <nd ref="708696479"/>
    <nd ref="321744892"/>
    <tag k="alt_name" v="EDSA"/>
    <tag k="highway" v="trunk"/>
    <tag k="lanes" v="2"/>
    <tag k="lit" v="yes"/>
    <tag k="maxspeed" v="60"/>
    <tag k="name" v="Epifanio de los Santos Avenue"/>
    <tag k="oneway" v="yes"/>
    <tag k="ref" v="C-4"/>
  </way>
  <way id="56672144" version="7" timestamp="2010-10-24T06:28:12Z" uid="11126" user="seav" changeset="6153523">
    <nd ref="414557230"/>
    <nd ref="12067619"/>
    <nd ref="746066074"/>
    <nd ref="186466037"/>
    <nd ref="331134097"/>
    <nd ref="475797997"/>
    <nd ref="31241755"/>
    <nd ref="480762858"/>
    <nd ref="708696479"/>
    <nd ref="454076229"/>
    <nd ref="334410588"/>
    <nd ref="962953481"/>
    <nd ref="962953430"/>
    <tag k="alt_name" v="EDSA"/>
    <tag k="highway" v="trunk"/>
    <tag k="lanes" v="2"/>
    <tag k="lit" v="yes"/>
    <tag k="maxspeed" v="60"/>
    <tag k="name" v="Epifanio de los Santos Avenue"/>
    <tag k="oneway" v="yes"/>
    <tag k="ref" v="C-4"/>
  </way>
  <way id="56672144" version="8" timestamp="2010-12-27T12:29:59Z" uid="379242" user="SkinMD" changeset="6777115">
    <nd ref="414557230"/>
    <nd ref="12067619"/>
    <nd ref="746066074"/>
    <nd ref="186466037"/>
    <nd ref="331134097"/>
    <nd ref="475797997"/>
    <nd ref="31241755"/>
    <nd ref="480762858"/>
    <nd ref="708696479"/>
    <nd ref="454076229"/>
    <nd ref="334410588"/>
    <nd ref="962953481"/>
    <nd ref="962953430"/>
    <tag k="alt_name" v="EDSA"/>
    <tag k="highway" v="trunk"/>
    <tag k="lanes" v="2"/>
    <tag k="lit" v="yes"/>
    <tag k="maxspeed" v="40"/>
    <tag k="name" v="Epifanio de los Santos Avenue"/>
    <tag k="oneway" v="yes"/>
    <tag k="ref" v="C-4"/>
  </way>
  <way id="56672144" version="9" timestamp="2011-05-08T12:34:32Z" uid="44938" user="ianlopez1115" changeset="8082132">
    <nd ref="414557230"/>
    <nd ref="12067619"/>
    <nd ref="746066074"/>
    <nd ref="186466037"/>
    <nd ref="331134097"/>
    <nd ref="475797997"/>
    <nd ref="31241755"/>
    <nd ref="480762858"/>
    <nd ref="708696479"/>
    <nd ref="454076229"/>
    <nd ref="334410588"/>
    <nd ref="962953481"/>
    <nd ref="962953430"/>
    <tag k="alt_name" v="EDSA"/>
    <tag k="highway" v="trunk"/>
    <tag k="lanes" v="2"/>
    <tag k="lit" v="yes"/>
    <tag k="maxspeed" v="60"/>
    <tag k="name" v="Epifanio de los Santos Avenue"/>
    <tag k="oneway" v="yes"/>
    <tag k="ref" v="C-4"/>
  </way>
  <way id="56672331" version="3" timestamp="2010-12-28T22:02:20Z" uid="23543" user="jkjk" changeset="6793029">
    <nd ref="1069874833"/>
    <nd ref="1069877156"/>
    <nd ref="1069877963"/>
    <nd ref="1069874567"/>
    <nd ref="1069875749"/>
    <nd ref="1069877817"/>
    <nd ref="1069873358"/>
    <nd ref="708699104"/>
    <nd ref="708699105"/>
    <nd ref="708699106"/>
    <nd ref="708699107"/>
    <nd ref="708699108"/>
    <nd ref="708699109"/>
    <nd ref="708699110"/>
    <nd ref="708699111"/>
    <nd ref="708699112"/>
    <nd ref="708699113"/>
    <nd ref="708699114"/>
    <nd ref="708699115"/>
    <nd ref="708699116"/>
    <nd ref="708699117"/>
    <nd ref="708699118"/>
    <nd ref="708699119"/>
    <nd ref="708699120"/>
    <nd ref="708699121"/>
    <nd ref="708699122"/>
    <nd ref="708699123"/>
    <nd ref="708699124"/>
    <nd ref="708699125"/>
    <nd ref="708699126"/>
    <nd ref="708699127"/>
    <nd ref="708699128"/>
    <nd ref="708699129"/>
    <nd ref="708699130"/>
    <nd ref="708699131"/>
    <nd ref="708699132"/>
    <nd ref="708699133"/>
    <nd ref="708699136"/>
    <nd ref="708699138"/>
    <nd ref="708699139"/>
    <nd ref="708699095"/>
    <tag k="boat" v="no"/>
    <tag k="name" v="Beli Timok"/>
    <tag k="waterway" v="river"/>
  </way>
  <way id="56672482" version="1" timestamp="2010-04-27T13:05:33Z" uid="7617" user="Franc" changeset="4540964">
    <nd ref="708702978"/>
    <nd ref="290061347"/>
    <nd ref="290061494"/>
    <nd ref="290061447"/>
    <nd ref="708702981"/>
    <nd ref="290061448"/>
    <nd ref="290061495"/>
    <nd ref="288758711"/>
    <nd ref="290061450"/>
    <nd ref="290060927"/>
    <nd ref="290061496"/>
    <nd ref="290060935"/>
    <nd ref="290061020"/>
    <nd ref="290061454"/>
    <nd ref="290061041"/>
    <nd ref="290061498"/>
    <nd ref="290061456"/>
    <nd ref="290061457"/>
    <nd ref="290061458"/>
    <nd ref="290061499"/>
    <nd ref="290061500"/>
    <nd ref="290061115"/>
    <nd ref="290061461"/>
    <nd ref="290061609"/>
    <tag k="highway" v="tertiary"/>
    <tag k="maxspeed" v="60"/>
    <tag k="name" v="Epping Forest Drive"/>
    <tag k="source" v="yahoo_imagery"/>
  </way>
  <way id="56672482" version="2" timestamp="2010-04-27T21:34:53Z" uid="7617" user="Franc" changeset="4545304">
    <nd ref="708702978"/>
    <nd ref="290061347"/>
    <nd ref="290061494"/>
    <nd ref="290061447"/>
    <nd ref="708702981"/>
    <nd ref="290061448"/>
    <nd ref="290061495"/>
    <nd ref="288758711"/>
    <nd ref="290061450"/>
    <nd ref="290060927"/>
    <nd ref="290061496"/>
    <nd ref="709155412"/>
    <nd ref="290060935"/>
    <nd ref="290061020"/>
    <nd ref="290061454"/>
    <nd ref="290061041"/>
    <nd ref="290061498"/>
    <nd ref="290061456"/>
    <nd ref="290061457"/>
    <nd ref="709155406"/>
    <nd ref="709155407"/>
    <nd ref="290061458"/>
    <nd ref="290061499"/>
    <nd ref="290061500"/>
    <nd ref="709155478"/>
    <nd ref="290061115"/>
    <nd ref="290061461"/>
    <nd ref="709155480"/>
    <nd ref="290061609"/>
    <tag k="highway" v="tertiary"/>
    <tag k="maxspeed" v="60"/>
    <tag k="name" v="Epping Forest Drive"/>
    <tag k="source" v="yahoo_imagery"/>
  </way>
  <way id="56672483" version="1" timestamp="2010-04-27T13:05:33Z" uid="7617" user="Franc" changeset="4540964">
    <nd ref="708703104"/>
    <nd ref="288758675"/>
    <nd ref="290375253"/>
    <nd ref="288758704"/>
    <nd ref="288758705"/>
    <nd ref="288758706"/>
    <nd ref="288758709"/>
    <nd ref="288757877"/>
    <nd ref="288758710"/>
    <nd ref="288758711"/>
    <tag k="highway" v="residential"/>
    <tag k="name" v="Eschol Park Drive"/>
    <tag k="source" v="yahoo_imagery"/>
  </way>
  <way id="56672483" version="2" timestamp="2010-04-27T21:34:53Z" uid="7617" user="Franc" changeset="4545304">
    <nd ref="708703104"/>
    <nd ref="288758675"/>
    <nd ref="290375253"/>
    <nd ref="288758704"/>
    <nd ref="288758705"/>
    <nd ref="288758706"/>
    <nd ref="709155403"/>
    <nd ref="288758709"/>
    <nd ref="288757877"/>
    <nd ref="709155410"/>
    <nd ref="288758710"/>
    <nd ref="709155409"/>
    <nd ref="288758711"/>
    <tag k="highway" v="residential"/>
    <tag k="name" v="Eschol Park Drive"/>
    <tag k="source" v="yahoo_imagery"/>
  </way>
  <way id="56672483" version="3" timestamp="2010-07-07T20:33:01Z" uid="74617" user="JohnSmith" changeset="5161069">
    <nd ref="708703104"/>
    <nd ref="288758675"/>
    <nd ref="290375253"/>
    <nd ref="288758704"/>
    <nd ref="288758705"/>
    <nd ref="288758706"/>
    <nd ref="709155403"/>
    <nd ref="288758709"/>
    <nd ref="288757877"/>
    <nd ref="709155410"/>
    <nd ref="288758710"/>
    <nd ref="709155409"/>
    <nd ref="288758711"/>
    <tag k="highway" v="residential"/>
    <tag k="maxspeed" v="50"/>
    <tag k="maxspeed:source" v="default residential speed limit in Australia"/>
    <tag k="name" v="Eschol Park Drive"/>
    <tag k="source" v="yahoo_imagery"/>
  </way>
  <way id="56672483" version="4" timestamp="2012-01-20T06:27:51Z" uid="147510" user="woodpeck_fixbot" changeset="10443281">
    <nd ref="708703104"/>
    <nd ref="288758675"/>
    <nd ref="290375253"/>
    <nd ref="288758704"/>
    <nd ref="288758705"/>
    <nd ref="288758706"/>
    <nd ref="709155403"/>
    <nd ref="288758709"/>
    <nd ref="288757877"/>
    <nd ref="709155410"/>
    <nd ref="288758710"/>
    <nd ref="709155409"/>
    <nd ref="288758711"/>
    <tag k="highway" v="residential"/>
    <tag k="name" v="Eschol Park Drive"/>
    <tag k="source" v="yahoo_imagery"/>
  </way>
  <way id="56672484" version="1" timestamp="2010-04-27T13:05:33Z" uid="7617" user="Franc" changeset="4540964">
    <nd ref="708703016"/>
    <nd ref="708703022"/>
    <nd ref="290061490"/>
    <nd ref="708703020"/>
    <nd ref="290061441"/>
    <nd ref="708703008"/>
    <nd ref="290061608"/>
    <nd ref="412351716"/>
    <nd ref="412351718"/>
    <nd ref="290061606"/>
    <nd ref="290061443"/>
    <nd ref="290061444"/>
    <nd ref="290061493"/>
    <nd ref="708702978"/>
    <tag k="highway" v="tertiary"/>
    <tag k="maxspeed" v="60"/>
    <tag k="name" v="Epping Forest Drive"/>
    <tag k="restriction" v="school_zone"/>
    <tag k="source" v="yahoo_imagery"/>
  </way>
  <way id="56672485" version="1" timestamp="2010-04-27T13:05:33Z" uid="7617" user="Franc" changeset="4540964">
    <nd ref="708702908"/>
    <nd ref="290061606"/>
    <tag k="highway" v="residential"/>
    <tag k="name" v="Chasselas Avenue"/>
    <tag k="restriction" v="school_zone"/>
    <tag k="source" v="survey"/>
  </way>
  <way id="56672485" version="2" timestamp="2010-07-07T20:36:42Z" uid="74617" user="JohnSmith" changeset="5161069">
    <nd ref="708702908"/>
    <nd ref="290061606"/>
    <tag k="highway" v="residential"/>
    <tag k="maxspeed" v="50"/>
    <tag k="maxspeed:source" v="default residential speed limit in Australia"/>
    <tag k="name" v="Chasselas Avenue"/>
    <tag k="restriction" v="school_zone"/>
    <tag k="source" v="survey"/>
  </way>
  <way id="56672485" version="3" timestamp="2012-01-20T06:27:52Z" uid="147510" user="woodpeck_fixbot" changeset="10443281">
    <nd ref="708702908"/>
    <nd ref="290061606"/>
    <tag k="highway" v="residential"/>
    <tag k="name" v="Chasselas Avenue"/>
    <tag k="restriction" v="school_zone"/>
    <tag k="source" v="survey"/>
  </way>
  <way id="56672486" version="1" timestamp="2010-04-27T13:05:34Z" uid="7617" user="Franc" changeset="4540964">
    <nd ref="708702928"/>
    <nd ref="708702930"/>
    <nd ref="708702932"/>
    <nd ref="708702919"/>
    <nd ref="708702920"/>
    <nd ref="708702928"/>
    <tag k="leisure" v="playground"/>
    <tag k="source" v="nearmap"/>
  </way>
  <way id="56672487" version="1" timestamp="2010-04-27T13:05:34Z" uid="7617" user="Franc" changeset="4540964">
    <nd ref="708702910"/>
    <nd ref="708702913"/>
    <nd ref="708702915"/>
    <nd ref="708702917"/>
    <nd ref="708702922"/>
    <nd ref="708702923"/>
    <nd ref="708702924"/>
    <nd ref="708702925"/>
    <nd ref="708702926"/>
    <nd ref="708702927"/>
    <nd ref="708702921"/>
    <nd ref="708702933"/>
    <nd ref="708702935"/>
    <nd ref="708702938"/>
    <nd ref="708702940"/>
    <nd ref="708702942"/>
    <nd ref="708702967"/>
    <nd ref="708702969"/>
    <nd ref="708702971"/>
    <nd ref="708702910"/>
    <tag k="leisure" v="park"/>
    <tag k="name" v="Sauternes Reserve"/>
    <tag k="source" v="nearmap"/>
    <tag k="source:name" v="survey"/>
  </way>
  <way id="56672488" version="1" timestamp="2010-04-27T13:05:34Z" uid="7617" user="Franc" changeset="4540964">
    <nd ref="708702918"/>
    <nd ref="708702945"/>
    <nd ref="290061246"/>
    <tag k="highway" v="footway"/>
    <tag k="source" v="nearmap"/>
  </way>
  <way id="56672489" version="1" timestamp="2010-04-27T13:05:34Z" uid="7617" user="Franc" changeset="4540964">
    <nd ref="708702972"/>
    <nd ref="708702973"/>
    <nd ref="708702974"/>
    <nd ref="288759469"/>
    <tag k="highway" v="footway"/>
    <tag k="source" v="nearmap"/>
  </way>
  <way id="56672490" version="1" timestamp="2010-04-27T13:05:34Z" uid="7617" user="Franc" changeset="4540964">
    <nd ref="708702953"/>
    <nd ref="708702951"/>
    <tag k="highway" v="footway"/>
    <tag k="source" v="nearmap"/>
  </way>
  <way id="56672491" version="1" timestamp="2010-04-27T13:05:34Z" uid="7617" user="Franc" changeset="4540964">
    <nd ref="708702952"/>
    <nd ref="708702953"/>
    <nd ref="708702954"/>
    <nd ref="708702955"/>
    <nd ref="708702956"/>
    <nd ref="708702957"/>
    <nd ref="708702965"/>
    <nd ref="708702979"/>
    <nd ref="708702980"/>
    <nd ref="708702981"/>
    <tag k="highway" v="footway"/>
    <tag k="source" v="nearmap"/>
  </way>
  <way id="56672492" version="1" timestamp="2010-04-27T13:05:34Z" uid="7617" user="Franc" changeset="4540964">
    <nd ref="708703045"/>
    <nd ref="708703047"/>
    <nd ref="708703049"/>
    <nd ref="708703056"/>
    <nd ref="708703057"/>
    <nd ref="708703058"/>
    <nd ref="708703059"/>
    <nd ref="708703050"/>
    <nd ref="708703052"/>
    <nd ref="708703054"/>
    <nd ref="708703045"/>
    <tag k="amenity" v="parking"/>
    <tag k="source" v="nearmap"/>
  </way>
  <way id="56672493" version="1" timestamp="2010-04-27T13:05:34Z" uid="7617" user="Franc" changeset="4540964">
    <nd ref="708703060"/>
    <nd ref="708703061"/>
    <tag k="highway" v="service"/>
    <tag k="service" v="parking_aisle"/>
    <tag k="source" v="nearmap"/>
  </way>
  <way id="56672494" version="1" timestamp="2010-04-27T13:05:34Z" uid="7617" user="Franc" changeset="4540964">
    <nd ref="708702987"/>
    <nd ref="708702989"/>
    <nd ref="708702991"/>
    <nd ref="708702993"/>
    <nd ref="708702997"/>
    <nd ref="708702999"/>
    <tag k="highway" v="service"/>
    <tag k="source" v="nearmap"/>
  </way>
  <way id="56672495" version="1" timestamp="2010-04-27T13:05:34Z" uid="7617" user="Franc" changeset="4540964">
    <nd ref="708703002"/>
    <nd ref="708703003"/>
    <nd ref="708703004"/>
    <nd ref="708703005"/>
    <nd ref="708703006"/>
    <tag k="complete" v="no"/>
    <tag k="highway" v="path"/>
    <tag k="source" v="nearmap"/>
  </way>
  <way id="56672496" version="1" timestamp="2010-04-27T13:05:34Z" uid="7617" user="Franc" changeset="4540964">
    <nd ref="708703006"/>
    <nd ref="708703012"/>
    <tag k="complete" v="no"/>
    <tag k="highway" v="path"/>
    <tag k="layer" v="-1"/>
    <tag k="source" v="nearmap"/>
    <tag k="tunnel" v="yes"/>
  </way>
  <way id="56672497" version="1" timestamp="2010-04-27T13:05:34Z" uid="7617" user="Franc" changeset="4540964">
    <nd ref="708703012"/>
    <nd ref="708703014"/>
    <nd ref="708703024"/>
    <nd ref="708703026"/>
    <nd ref="708703030"/>
    <nd ref="708703031"/>
    <tag k="complete" v="no"/>
    <tag k="highway" v="path"/>
    <tag k="source" v="nearmap"/>
  </way>
  <way id="56672498" version="1" timestamp="2010-04-27T13:05:34Z" uid="7617" user="Franc" changeset="4540964">
    <nd ref="708703065"/>
    <nd ref="412351813"/>
    <nd ref="412351814"/>
    <nd ref="412351816"/>
    <nd ref="708703060"/>
    <nd ref="708703055"/>
    <nd ref="412351819"/>
    <nd ref="412351820"/>
    <nd ref="412351716"/>
    <tag k="fixme:sign:no" v="2010-04-26"/>
    <tag k="highway" v="service"/>
  </way>
  <way id="56672499" version="1" timestamp="2010-04-27T13:05:35Z" uid="7617" user="Franc" changeset="4540964">
    <nd ref="288757932"/>
    <nd ref="708703133"/>
    <nd ref="708703137"/>
    <nd ref="708703135"/>
    <nd ref="708703131"/>
    <nd ref="708703129"/>
    <nd ref="708703126"/>
    <tag k="highway" v="residential"/>
    <tag k="name" v="Malbec Place"/>
    <tag k="source" v="survey"/>
  </way>
  <way id="56672499" version="2" timestamp="2010-07-07T20:34:54Z" uid="74617" user="JohnSmith" changeset="5161069">
    <nd ref="288757932"/>
    <nd ref="708703133"/>
    <nd ref="708703137"/>
    <nd ref="708703135"/>
    <nd ref="708703131"/>
    <nd ref="708703129"/>
    <nd ref="708703126"/>
    <tag k="highway" v="residential"/>
    <tag k="maxspeed" v="50"/>
    <tag k="maxspeed:source" v="default residential speed limit in Australia"/>
    <tag k="name" v="Malbec Place"/>
    <tag k="source" v="survey"/>
  </way>
  <way id="56672499" version="3" timestamp="2012-01-20T06:27:54Z" uid="147510" user="woodpeck_fixbot" changeset="10443281">
    <nd ref="288757932"/>
    <nd ref="708703133"/>
    <nd ref="708703137"/>
    <nd ref="708703135"/>
    <nd ref="708703131"/>
    <nd ref="708703129"/>
    <nd ref="708703126"/>
    <tag k="highway" v="residential"/>
    <tag k="name" v="Malbec Place"/>
    <tag k="source" v="survey"/>
  </way>
  <way id="56672500" version="1" timestamp="2010-04-27T13:05:35Z" uid="7617" user="Franc" changeset="4540964">
    <nd ref="288758671"/>
    <nd ref="288757932"/>
    <nd ref="708703118"/>
    <nd ref="708703117"/>
    <nd ref="288758672"/>
    <nd ref="708703107"/>
    <nd ref="288758674"/>
    <nd ref="708703104"/>
    <tag k="highway" v="residential"/>
    <tag k="name" v="Eschol Park Drive"/>
    <tag k="restriction" v="school_zone"/>
    <tag k="source" v="yahoo_imagery"/>
  </way>
  <way id="56672500" version="2" timestamp="2010-07-07T20:33:58Z" uid="74617" user="JohnSmith" changeset="5161069">
    <nd ref="288758671"/>
    <nd ref="288757932"/>
    <nd ref="708703118"/>
    <nd ref="708703117"/>
    <nd ref="288758672"/>
    <nd ref="708703107"/>
    <nd ref="288758674"/>
    <nd ref="708703104"/>
    <tag k="highway" v="residential"/>
    <tag k="maxspeed" v="50"/>
    <tag k="maxspeed:source" v="default residential speed limit in Australia"/>
    <tag k="name" v="Eschol Park Drive"/>
    <tag k="restriction" v="school_zone"/>
    <tag k="source" v="yahoo_imagery"/>
  </way>
  <way id="56672500" version="3" timestamp="2012-01-20T06:27:55Z" uid="147510" user="woodpeck_fixbot" changeset="10443281">
    <nd ref="288758671"/>
    <nd ref="288757932"/>
    <nd ref="708703118"/>
    <nd ref="708703117"/>
    <nd ref="288758672"/>
    <nd ref="708703107"/>
    <nd ref="288758674"/>
    <nd ref="708703104"/>
    <tag k="highway" v="residential"/>
    <tag k="name" v="Eschol Park Drive"/>
    <tag k="restriction" v="school_zone"/>
    <tag k="source" v="yahoo_imagery"/>
  </way>
  <way id="56672501" version="1" timestamp="2010-04-27T13:05:35Z" uid="7617" user="Franc" changeset="4540964">
    <nd ref="708703091"/>
    <nd ref="708703110"/>
    <nd ref="708703111"/>
    <nd ref="708703112"/>
    <nd ref="708703113"/>
    <nd ref="708703114"/>
    <nd ref="708703119"/>
    <nd ref="708703121"/>
    <nd ref="708703123"/>
    <nd ref="708703124"/>
    <nd ref="708703116"/>
    <nd ref="708703115"/>
    <nd ref="708703092"/>
    <nd ref="708703099"/>
    <nd ref="708703101"/>
    <nd ref="708703091"/>
    <tag k="amenity" v="school"/>
    <tag k="source" v="nearmap"/>
  </way>
  <way id="56672501" version="2" timestamp="2010-04-27T21:34:55Z" uid="7617" user="Franc" changeset="4545304">
    <nd ref="708703091"/>
    <nd ref="708703110"/>
    <nd ref="708703111"/>
    <nd ref="708703112"/>
    <nd ref="708703113"/>
    <nd ref="708703114"/>
    <nd ref="708703119"/>
    <nd ref="708703121"/>
    <nd ref="708703123"/>
    <nd ref="708703124"/>
    <nd ref="708703116"/>
    <nd ref="708703115"/>
    <nd ref="708703092"/>
    <nd ref="708703099"/>
    <nd ref="708703101"/>
    <nd ref="708703091"/>
    <tag k="amenity" v="school"/>
    <tag k="name" v="Eschol Park Puvlic School"/>
    <tag k="source" v="nearmap"/>
    <tag k="source:name" v="survey"/>
  </way>
  <way id="56672503" version="2" timestamp="2010-10-29T05:45:09Z" uid="4467" user="Rosscoe" changeset="6214505">
    <nd ref="708703280"/>
    <nd ref="708703313"/>
    <nd ref="708703273"/>
    <tag k="highway" v="tertiary"/>
    <tag k="oneway" v="yes"/>
    <tag k="source" v="nearmap"/>
  </way>
  <way id="56672524" version="2" timestamp="2010-10-29T05:45:17Z" uid="4467" user="Rosscoe" changeset="6214505"/>
  <way id="56672525" version="2" timestamp="2010-10-29T05:45:16Z" uid="4467" user="Rosscoe" changeset="6214505"/>
  <way id="56672531" version="1" timestamp="2010-04-27T13:06:23Z" uid="64977" user="CLoeser" changeset="4540973">
    <nd ref="708704261"/>
    <nd ref="708704264"/>
    <nd ref="708704265"/>
    <nd ref="708704268"/>
    <nd ref="708704270"/>
    <nd ref="708704272"/>
    <nd ref="708704273"/>
    <nd ref="708704261"/>
    <tag k="landuse" v="farm"/>
  </way>
  <way id="56672531" version="2" timestamp="2010-10-24T11:03:45Z" uid="75388" user="Svalbard" changeset="6155342">
    <nd ref="963189653"/>
    <nd ref="963189539"/>
    <nd ref="963189599"/>
    <nd ref="708704272"/>
    <nd ref="963189697"/>
    <nd ref="963189583"/>
    <nd ref="963189526"/>
    <nd ref="963189679"/>
    <nd ref="708704261"/>
    <nd ref="708704264"/>
    <nd ref="708704265"/>
    <nd ref="708704268"/>
    <nd ref="708704270"/>
    <nd ref="963189653"/>
    <tag k="landuse" v="farm"/>
  </way>
  <way id="56672532" version="1" timestamp="2010-04-27T13:06:24Z" uid="64977" user="CLoeser" changeset="4540973">
    <nd ref="708704274"/>
    <nd ref="708704275"/>
    <nd ref="708704277"/>
    <nd ref="708704280"/>
    <nd ref="708704285"/>
    <nd ref="708704289"/>
    <nd ref="708704290"/>
    <nd ref="708704291"/>
    <nd ref="708704292"/>
    <nd ref="708704293"/>
    <nd ref="708704295"/>
    <nd ref="708704305"/>
    <nd ref="708704306"/>
    <nd ref="708704307"/>
    <nd ref="708704274"/>
    <tag k="landuse" v="farm"/>
  </way>
  <way id="56672533" version="1" timestamp="2010-04-27T13:06:25Z" uid="64977" user="CLoeser" changeset="4540973">
    <nd ref="708704318"/>
    <nd ref="708704319"/>
    <nd ref="708704320"/>
    <nd ref="708704325"/>
    <nd ref="708704318"/>
    <tag k="landuse" v="farm"/>
  </way>
  <way id="56672533" version="2" timestamp="2011-01-15T17:07:01Z" uid="75388" user="Svalbard" changeset="6979384">
    <nd ref="708704318"/>
    <nd ref="1104791727"/>
    <nd ref="1104790680"/>
    <nd ref="708704319"/>
    <nd ref="708704320"/>
    <nd ref="708704325"/>
    <nd ref="708704318"/>
    <tag k="landuse" v="farm"/>
  </way>
  <way id="56672536" version="1" timestamp="2010-04-27T13:06:27Z" uid="64977" user="CLoeser" changeset="4540973">
    <nd ref="708704332"/>
    <nd ref="708704333"/>
    <nd ref="708704338"/>
    <nd ref="708704350"/>
    <nd ref="708704352"/>
    <nd ref="708704354"/>
    <nd ref="708704357"/>
    <nd ref="708704359"/>
    <nd ref="708704362"/>
    <nd ref="708704365"/>
    <nd ref="708704369"/>
    <nd ref="708704373"/>
    <nd ref="708704375"/>
    <nd ref="708704376"/>
    <nd ref="708704389"/>
    <nd ref="708704393"/>
    <nd ref="708704395"/>
    <nd ref="708704398"/>
    <nd ref="708704332"/>
    <tag k="landuse" v="farm"/>
  </way>
  <way id="56672536" version="2" timestamp="2011-01-15T16:05:52Z" uid="75388" user="Svalbard" changeset="6978641">
    <nd ref="708704332"/>
    <nd ref="708704333"/>
    <nd ref="708704338"/>
    <nd ref="708704350"/>
    <nd ref="708704352"/>
    <nd ref="708704357"/>
    <nd ref="708704359"/>
    <nd ref="708704362"/>
    <nd ref="708704365"/>
    <nd ref="708704369"/>
    <nd ref="708704373"/>
    <nd ref="708704375"/>
    <nd ref="708704376"/>
    <nd ref="708704389"/>
    <nd ref="708704393"/>
    <nd ref="708704395"/>
    <nd ref="708704398"/>
    <nd ref="708704332"/>
    <tag k="landuse" v="farm"/>
  </way>
  <way id="56672539" version="1" timestamp="2010-04-27T13:06:28Z" uid="64977" user="CLoeser" changeset="4540973">
    <nd ref="708704439"/>
    <nd ref="708704443"/>
    <nd ref="708704450"/>
    <nd ref="708704460"/>
    <nd ref="708704439"/>
    <tag k="natural" v="wood"/>
  </way>
  <way id="56672559" version="2" timestamp="2010-10-29T05:45:16Z" uid="4467" user="Rosscoe" changeset="6214505"/>
  <way id="56672560" version="2" timestamp="2010-10-29T05:44:31Z" uid="4467" user="Rosscoe" changeset="6214505">
    <nd ref="968440618"/>
    <nd ref="708705174"/>
    <nd ref="708705179"/>
    <nd ref="708705166"/>
    <tag k="highway" v="tertiary"/>
    <tag k="oneway" v="yes"/>
    <tag k="source" v="nearmap"/>
  </way>
  <way id="56672648" version="1" timestamp="2010-04-27T13:15:17Z" uid="64977" user="CLoeser" changeset="4541033">
    <nd ref="708712377"/>
    <nd ref="708712380"/>
    <nd ref="708712382"/>
    <nd ref="708712383"/>
    <nd ref="708712384"/>
    <nd ref="708712385"/>
    <nd ref="708712386"/>
    <nd ref="708712390"/>
    <nd ref="708712392"/>
    <nd ref="708712394"/>
    <nd ref="708712377"/>
    <tag k="landuse" v="farm"/>
  </way>
  <way id="56672649" version="1" timestamp="2010-04-27T13:15:18Z" uid="64977" user="CLoeser" changeset="4541033">
    <nd ref="708712400"/>
    <nd ref="708712401"/>
    <nd ref="708712402"/>
    <nd ref="708712403"/>
    <nd ref="708712404"/>
    <nd ref="708712405"/>
    <nd ref="708712406"/>
    <nd ref="708712407"/>
    <nd ref="708712415"/>
    <nd ref="708712418"/>
    <nd ref="708712421"/>
    <nd ref="708712422"/>
    <nd ref="708712423"/>
    <nd ref="708712424"/>
    <nd ref="708712425"/>
    <nd ref="708712427"/>
    <nd ref="708712400"/>
    <tag k="landuse" v="farm"/>
  </way>
  <way id="56672693" version="1" timestamp="2010-04-27T13:18:39Z" uid="64977" user="CLoeser" changeset="4541057">
    <nd ref="708715795"/>
    <nd ref="708715796"/>
    <nd ref="708715797"/>
    <nd ref="708715798"/>
    <nd ref="708715799"/>
    <nd ref="708715800"/>
    <nd ref="708715801"/>
    <nd ref="708715795"/>
    <tag k="landuse" v="industrial"/>
  </way>
  <way id="56672694" version="1" timestamp="2010-04-27T13:18:39Z" uid="64977" user="CLoeser" changeset="4541057">
    <nd ref="708715805"/>
    <nd ref="708715807"/>
    <nd ref="708715813"/>
    <nd ref="708715815"/>
    <nd ref="708715816"/>
    <nd ref="708715817"/>
    <nd ref="708715805"/>
    <tag k="landuse" v="farm"/>
  </way>
  <way id="56672695" version="1" timestamp="2010-04-27T13:18:40Z" uid="64977" user="CLoeser" changeset="4541057">
    <nd ref="708715818"/>
    <nd ref="708715819"/>
    <nd ref="708715820"/>
    <nd ref="708715822"/>
    <nd ref="708715824"/>
    <nd ref="708715826"/>
    <nd ref="708715828"/>
    <nd ref="708715830"/>
    <nd ref="708715818"/>
    <tag k="landuse" v="forest"/>
  </way>
  <way id="56672893" version="1" timestamp="2010-04-27T13:28:38Z" uid="115477" user="wowik" changeset="4541125">
    <nd ref="708723979"/>
    <nd ref="708723981"/>
    <nd ref="708723984"/>
    <nd ref="708723987"/>
    <nd ref="708723990"/>
    <nd ref="708723992"/>
    <nd ref="708723994"/>
    <nd ref="708723996"/>
    <nd ref="708723998"/>
    <nd ref="708724000"/>
    <nd ref="708724002"/>
    <nd ref="708723979"/>
    <tag k="natural" v="wood"/>
  </way>
  <way id="56672894" version="1" timestamp="2010-04-27T13:28:39Z" uid="115477" user="wowik" changeset="4541125">
    <nd ref="708724009"/>
    <nd ref="708724011"/>
    <nd ref="708724013"/>
    <nd ref="708724015"/>
    <nd ref="708724017"/>
    <nd ref="708724018"/>
    <nd ref="708724019"/>
    <nd ref="708724009"/>
    <tag k="natural" v="wood"/>
  </way>
  <way id="56672060" version="7" timestamp="2012-07-20T11:54:39Z" uid="722137" user="OSMF Redaction Account" changeset="12374348">
    <nd ref="708696201"/>
    <nd ref="708696214"/>
    <nd ref="708696215"/>
    <nd ref="708696219"/>
    <nd ref="1148892178"/>
    <nd ref="1433667753"/>
    <nd ref="1433667756"/>
    <nd ref="708696201"/>
    <tag k="addr:housenumber" v="10"/>
    <tag k="addr:street" v="Средний Кисловский переулок"/>
    <tag k="building" v="yes"/>
  </way>
  <way id="56672081" version="6" timestamp="2012-07-20T11:54:34Z" uid="722137" user="OSMF Redaction Account" changeset="12374348">
    <nd ref="708696708"/>
    <nd ref="708696709"/>
    <nd ref="708696710"/>
    <nd ref="1562455827"/>
    <nd ref="708696711"/>
    <nd ref="708696712"/>
    <nd ref="1562455820"/>
    <nd ref="708696713"/>
    <nd ref="708696714"/>
    <nd ref="1148892104"/>
    <nd ref="708696708"/>
    <tag k="addr:housenumber" v="13"/>
    <tag k="addr:street" v="Большая Никитская улица"/>
    <tag k="building" v="yes"/>
    <tag k="name" v="Московская Консерваторя им. П.И.Чайковского - Малый зал"/>
  </way>
  <way id="56672138" version="6" timestamp="2012-07-20T11:54:46Z" uid="722137" user="OSMF Redaction Account" changeset="12374348">
    <nd ref="708696711"/>
    <nd ref="708696712"/>
    <nd ref="708697113"/>
    <nd ref="708697114"/>
    <nd ref="708697115"/>
    <nd ref="708697116"/>
    <nd ref="1148892148"/>
    <nd ref="708697117"/>
    <nd ref="708696711"/>
    <tag k="addr:housenumber" v="11"/>
    <tag k="addr:street" v="Большая Никитская улица"/>
    <tag k="building" v="yes"/>
    <tag k="name" v="Московская Консерватория им. П.И.Чайковского - Рахманиновской зал"/>
  </way>
  <way id="56672139" version="9" timestamp="2012-05-14T05:37:12Z" uid="589713" user="Chito Tuason" changeset="11592522">
    <nd ref="320134107"/>
    <nd ref="750632103"/>
    <nd ref="88798966"/>
    <tag k="alt_name" v="EDSA"/>
    <tag k="highway" v="trunk"/>
    <tag k="lanes" v="4"/>
    <tag k="lit" v="yes"/>
    <tag k="maxspeed" v="100"/>
    <tag k="name" v="Epifanio de los Santos Avenue"/>
    <tag k="oneway" v="yes"/>
    <tag k="ref" v="C-4"/>
  </way>
  <way id="56672139" version="10" timestamp="2012-09-11T06:40:44Z" uid="371192" user="d1754" changeset="13065240">
    <nd ref="320134107"/>
    <nd ref="750632103"/>
    <nd ref="88798966"/>
    <tag k="alt_name" v="EDSA"/>
    <tag k="highway" v="trunk"/>
    <tag k="lanes" v="4"/>
    <tag k="lit" v="yes"/>
    <tag k="maxspeed" v="60"/>
    <tag k="name" v="Epifanio de los Santos Avenue"/>
    <tag k="oneway" v="yes"/>
    <tag k="ref" v="C-4"/>
  </way>
  <way id="56672139" version="11" timestamp="2012-09-11T06:48:51Z" uid="371192" user="d1754" changeset="13065240">
    <nd ref="320134107"/>
    <nd ref="750632103"/>
    <nd ref="1909558883"/>
    <nd ref="1909558882"/>
    <nd ref="1909558884"/>
    <nd ref="88798869"/>
    <tag k="alt_name" v="EDSA"/>
    <tag k="highway" v="trunk"/>
    <tag k="lanes" v="4"/>
    <tag k="lit" v="yes"/>
    <tag k="maxspeed" v="60"/>
    <tag k="name" v="Epifanio de los Santos Avenue"/>
    <tag k="oneway" v="yes"/>
    <tag k="ref" v="C-4"/>
  </way>
  <way id="56672331" version="4" timestamp="2012-04-21T12:27:13Z" uid="441816" user="kmilos" changeset="11372916">
    <nd ref="1069874833"/>
    <nd ref="1069877156"/>
    <nd ref="1069877963"/>
    <nd ref="1069874567"/>
    <nd ref="1069875749"/>
    <nd ref="1069877817"/>
    <nd ref="1069873358"/>
    <nd ref="708699104"/>
    <nd ref="708699105"/>
    <nd ref="708699106"/>
    <nd ref="708699107"/>
    <nd ref="708699108"/>
    <nd ref="708699109"/>
    <nd ref="708699110"/>
    <nd ref="708699111"/>
    <nd ref="708699112"/>
    <nd ref="708699113"/>
    <nd ref="708699114"/>
    <nd ref="708699115"/>
    <nd ref="708699116"/>
    <nd ref="708699117"/>
    <nd ref="708699118"/>
    <nd ref="708699119"/>
    <nd ref="708699120"/>
    <nd ref="708699121"/>
    <nd ref="708699122"/>
    <nd ref="708699123"/>
    <nd ref="708699124"/>
    <nd ref="708699125"/>
    <nd ref="708699126"/>
    <nd ref="708699127"/>
    <nd ref="708699128"/>
    <nd ref="708699129"/>
    <nd ref="708699130"/>
    <nd ref="708699131"/>
    <nd ref="708699132"/>
    <nd ref="708699133"/>
    <nd ref="708699136"/>
    <nd ref="708699138"/>
    <nd ref="708699139"/>
    <nd ref="708699095"/>
    <tag k="boat" v="no"/>
    <tag k="name" v="Бели Тимок"/>
    <tag k="name:sr" v="Бели Тимок"/>
    <tag k="name:sr-Latn" v="Beli Timok"/>
    <tag k="waterway" v="river"/>
  </way>
  <way id="56672331" version="5" timestamp="2012-07-20T17:23:12Z" uid="722137" user="OSMF Redaction Account" changeset="12385111">
    <nd ref="708699104"/>
    <nd ref="708699105"/>
    <nd ref="708699106"/>
    <nd ref="708699107"/>
    <nd ref="708699108"/>
    <nd ref="708699109"/>
    <nd ref="708699110"/>
    <nd ref="708699111"/>
    <nd ref="708699112"/>
    <nd ref="708699113"/>
    <nd ref="708699114"/>
    <nd ref="708699115"/>
    <nd ref="708699116"/>
    <nd ref="708699117"/>
    <nd ref="708699118"/>
    <nd ref="708699119"/>
    <nd ref="708699120"/>
    <nd ref="708699121"/>
    <nd ref="708699122"/>
    <nd ref="708699123"/>
    <nd ref="708699124"/>
    <nd ref="708699125"/>
    <nd ref="708699126"/>
    <nd ref="708699127"/>
    <nd ref="708699128"/>
    <nd ref="708699129"/>
    <nd ref="708699130"/>
    <nd ref="708699131"/>
    <nd ref="708699132"/>
    <nd ref="708699133"/>
    <nd ref="708699136"/>
    <nd ref="708699138"/>
    <nd ref="708699139"/>
    <nd ref="708699095"/>
    <tag k="boat" v="no"/>
    <tag k="name" v="Бели Тимок"/>
    <tag k="name:sr" v="Бели Тимок"/>
    <tag k="name:sr-Latn" v="Beli Timok"/>
    <tag k="waterway" v="river"/>
  </way>
  <way id="56672482" version="3" timestamp="2012-07-21T15:20:03Z" uid="722137" user="OSMF Redaction Account" changeset="12413206"/>
  <way id="56672483" version="5" timestamp="2012-07-21T15:20:03Z" uid="722137" user="OSMF Redaction Account" changeset="12413206"/>
  <way id="56672484" version="2" timestamp="2012-07-21T15:20:00Z" uid="722137" user="OSMF Redaction Account" changeset="12413206"/>
  <way id="56672485" version="4" timestamp="2012-07-21T15:20:02Z" uid="722137" user="OSMF Redaction Account" changeset="12413206"/>
  <way id="56672486" version="2" timestamp="2012-07-21T15:20:02Z" uid="722137" user="OSMF Redaction Account" changeset="12413206"/>
  <way id="56672487" version="2" timestamp="2012-07-21T15:20:02Z" uid="722137" user="OSMF Redaction Account" changeset="12413206"/>
  <way id="56672488" version="2" timestamp="2012-07-21T15:20:03Z" uid="722137" user="OSMF Redaction Account" changeset="12413206"/>
  <way id="56672489" version="2" timestamp="2012-07-21T15:20:03Z" uid="722137" user="OSMF Redaction Account" changeset="12413206"/>
  <way id="56672490" version="2" timestamp="2012-07-21T15:20:05Z" uid="722137" user="OSMF Redaction Account" changeset="12413234"/>
  <way id="56672491" version="2" timestamp="2012-07-21T15:20:05Z" uid="722137" user="OSMF Redaction Account" changeset="12413234"/>
  <way id="56672492" version="2" timestamp="2012-07-21T15:20:01Z" uid="722137" user="OSMF Redaction Account" changeset="12413206"/>
  <way id="56672493" version="2" timestamp="2012-07-21T15:20:01Z" uid="722137" user="OSMF Redaction Account" changeset="12413206"/>
  <way id="56672494" version="2" timestamp="2012-07-21T15:19:58Z" uid="722137" user="OSMF Redaction Account" changeset="12413206"/>
  <way id="56672495" version="2" timestamp="2012-07-21T15:19:59Z" uid="722137" user="OSMF Redaction Account" changeset="12413206"/>
  <way id="56672496" version="2" timestamp="2012-07-21T15:20:00Z" uid="722137" user="OSMF Redaction Account" changeset="12413206"/>
  <way id="56672497" version="2" timestamp="2012-07-21T15:20:00Z" uid="722137" user="OSMF Redaction Account" changeset="12413206"/>
  <way id="56672498" version="2" timestamp="2012-07-21T15:20:02Z" uid="722137" user="OSMF Redaction Account" changeset="12413206"/>
  <way id="56672499" version="4" timestamp="2012-07-21T15:20:04Z" uid="722137" user="OSMF Redaction Account" changeset="12413206"/>
  <way id="56672500" version="4" timestamp="2012-07-21T15:20:05Z" uid="722137" user="OSMF Redaction Account" changeset="12413234"/>
  <way id="56672501" version="3" timestamp="2012-07-21T15:20:03Z" uid="722137" user="OSMF Redaction Account" changeset="12413206"/>
  <way id="56672531" version="3" timestamp="2012-07-18T10:19:10Z" uid="722137" user="OSMF Redaction Account" changeset="12277655">
    <nd ref="963189653"/>
    <nd ref="963189539"/>
    <nd ref="963189599"/>
    <nd ref="963189697"/>
    <nd ref="963189583"/>
    <nd ref="963189526"/>
    <nd ref="963189679"/>
    <nd ref="963189653"/>
  </way>
  <way id="56672531" version="4" timestamp="2012-07-22T19:38:15Z" uid="437941" user="Fischkopp0815" changeset="12438800"/>
  <way id="56672532" version="2" timestamp="2012-07-18T10:19:14Z" uid="722137" user="OSMF Redaction Account" changeset="12277655"/>
  <way id="56672533" version="3" timestamp="2012-07-18T10:19:09Z" uid="722137" user="OSMF Redaction Account" changeset="12277655">
    <nd ref="708704318"/>
    <nd ref="1104791727"/>
    <nd ref="1104790680"/>
    <nd ref="708704325"/>
    <nd ref="708704318"/>
    <tag k="landuse" v="farm"/>
  </way>
  <way id="56672533" version="4" timestamp="2012-07-18T22:38:35Z" uid="722137" user="OSMF Redaction Account" changeset="12300756">
    <nd ref="1104791727"/>
    <nd ref="1104790680"/>
  </way>
  <way id="56672533" version="5" timestamp="2012-07-22T19:38:15Z" uid="437941" user="Fischkopp0815" changeset="12438800"/>
  <way id="56672536" version="3" timestamp="2012-07-18T10:19:14Z" uid="722137" user="OSMF Redaction Account" changeset="12277655"/>
  <way id="56672539" version="2" timestamp="2012-07-18T22:39:02Z" uid="722137" user="OSMF Redaction Account" changeset="12300756"/>
  <way id="56672560" version="3" timestamp="2012-07-19T13:34:41Z" uid="722137" user="OSMF Redaction Account" changeset="12329511">
    <nd ref="708705174"/>
    <nd ref="708705179"/>
    <nd ref="708705166"/>
    <tag k="highway" v="tertiary"/>
    <tag k="oneway" v="yes"/>
    <tag k="source" v="nearmap"/>
  </way>
  <way id="56672560" version="4" timestamp="2012-07-30T00:38:14Z" uid="46482" user="Leon K" changeset="12542297">
    <nd ref="1843397344"/>
    <nd ref="708705174"/>
    <nd ref="708705179"/>
    <nd ref="708705166"/>
    <nd ref="321573902"/>
    <nd ref="268179645"/>
    <tag k="highway" v="tertiary"/>
    <tag k="oneway" v="yes"/>
    <tag k="source" v="nearmap"/>
  </way>
  <way id="56672648" version="2" timestamp="2012-07-18T10:19:14Z" uid="722137" user="OSMF Redaction Account" changeset="12277655"/>
  <way id="56672649" version="2" timestamp="2012-07-18T10:19:14Z" uid="722137" user="OSMF Redaction Account" changeset="12277655"/>
  <way id="56672693" version="2" timestamp="2012-07-18T22:55:45Z" uid="722137" user="OSMF Redaction Account" changeset="12301133"/>
  <way id="56672694" version="2" timestamp="2012-07-19T01:10:35Z" uid="722137" user="OSMF Redaction Account" changeset="12303389"/>
  <way id="56672695" version="2" timestamp="2012-07-19T01:10:35Z" uid="722137" user="OSMF Redaction Account" changeset="12303389"/>
  <way id="56672893" version="2" timestamp="2012-07-20T15:11:30Z" uid="722137" user="OSMF Redaction Account" changeset="12380791"/>
  <way id="56672894" version="2" timestamp="2012-07-20T15:08:15Z" uid="722137" user="OSMF Redaction Account" changeset="12380733"/>
</osm>
