<?xml version='1.0' encoding='UTF-8'?>
<osm version="0.6" generator="libosmium/2.20.0">
  <way id="5732042" version="6" timestamp="2010-06-26T14:15:46Z" uid="4467" user="Rosscoe" changeset="5081355">
    <nd ref="43496324"/>
    <nd ref="43495779"/>
    <nd ref="259139393"/>
    <nd ref="43501535"/>
    <nd ref="43500946"/>
    <nd ref="43502481"/>
    <nd ref="43500947"/>
    <nd ref="43500948"/>
    <nd ref="43500950"/>
    <nd ref="259139776"/>
    <nd ref="43500951"/>
    <nd ref="43500954"/>
    <nd ref="43503639"/>
    <nd ref="43500959"/>
    <tag k="highway" v="residential"/>
    <tag k="name" v="Gove Street"/>
  </way>
  <way id="5732042" version="7" timestamp="2010-07-09T02:47:45Z" uid="74617" user="JohnSmith" changeset="5170713">
    <nd ref="43496324"/>
    <nd ref="43495779"/>
    <nd ref="259139393"/>
    <nd ref="43501535"/>
    <nd ref="43500946"/>
    <nd ref="43502481"/>
    <nd ref="43500947"/>
    <nd ref="43500948"/>
    <nd ref="43500950"/>
    <nd ref="259139776"/>
    <nd ref="43500951"/>
    <nd ref="43500954"/>
    <nd ref="43503639"/>
    <nd ref="43500959"/>
    <tag k="highway" v="residential"/>
    <tag k="maxspeed" v="50"/>
    <tag k="maxspeed:source" v="default residential speed limit in Australia"/>
    <tag k="name" v="Gove Street"/>
  </way>
  <way id="5732042" version="8" timestamp="2011-04-23T03:21:44Z" uid="4467" user="Rosscoe" changeset="7940184">
    <nd ref="43496324"/>
    <nd ref="43495779"/>
    <nd ref="259139393"/>
    <nd ref="43501535"/>
    <nd ref="43500946"/>
    <nd ref="43502481"/>
    <nd ref="43500947"/>
    <nd ref="43500948"/>
    <nd ref="43500950"/>
    <nd ref="259139776"/>
    <nd ref="43500951"/>
    <nd ref="43500954"/>
    <nd ref="43503639"/>
    <nd ref="43500959"/>
    <tag k="highway" v="residential"/>
    <tag k="maxspeed" v="50"/>
    <tag k="name" v="Gove Street"/>
    <tag k="source:maxspeed" v="default residential speed limit in Australia"/>
  </way>
  <way id="5732042" version="9" timestamp="2012-01-15T05:53:49Z" uid="147510" user="woodpeck_fixbot" changeset="10394821">
    <nd ref="43496324"/>
    <nd ref="43495779"/>
    <nd ref="259139393"/>
    <nd ref="43501535"/>
    <nd ref="43500946"/>
    <nd ref="43502481"/>
    <nd ref="43500947"/>
    <nd ref="43500948"/>
    <nd ref="43500950"/>
    <nd ref="259139776"/>
    <nd ref="43500951"/>
    <nd ref="43500954"/>
    <nd ref="43503639"/>
    <nd ref="43500959"/>
    <tag k="highway" v="residential"/>
    <tag k="name" v="Gove Street"/>
    <tag k="source:maxspeed" v="default residential speed limit in Australia"/>
  </way>
  <way id="5732068" version="4" timestamp="2010-07-09T02:50:11Z" uid="74617" user="JohnSmith" changeset="5170713">
    <nd ref="43501535"/>
    <nd ref="43502466"/>
    <nd ref="43498788"/>
    <nd ref="43500959"/>
    <nd ref="43503693"/>
    <nd ref="43503844"/>
    <nd ref="259139353"/>
    <tag k="highway" v="residential"/>
    <tag k="maxspeed" v="50"/>
    <tag k="maxspeed:source" v="default residential speed limit in Australia"/>
    <tag k="name" v="Gamsworthy Street"/>
  </way>
  <way id="5732068" version="5" timestamp="2011-04-23T03:21:43Z" uid="4467" user="Rosscoe" changeset="7940184">
    <nd ref="43501535"/>
    <nd ref="43502466"/>
    <nd ref="43498788"/>
    <nd ref="43500959"/>
    <nd ref="43503693"/>
    <nd ref="43503844"/>
    <nd ref="259139353"/>
    <tag k="highway" v="residential"/>
    <tag k="maxspeed" v="50"/>
    <tag k="name" v="Gamsworthy Street"/>
    <tag k="source:maxspeed" v="default residential speed limit in Australia"/>
  </way>
  <way id="5732068" version="6" timestamp="2012-01-15T05:53:50Z" uid="147510" user="woodpeck_fixbot" changeset="10394821">
    <nd ref="43501535"/>
    <nd ref="43502466"/>
    <nd ref="43498788"/>
    <nd ref="43500959"/>
    <nd ref="43503693"/>
    <nd ref="43503844"/>
    <nd ref="259139353"/>
    <tag k="highway" v="residential"/>
    <tag k="name" v="Gamsworthy Street"/>
    <tag k="source:maxspeed" v="default residential speed limit in Australia"/>
  </way>
  <way id="5732131" version="3" timestamp="2010-07-09T02:53:09Z" uid="74617" user="JohnSmith" changeset="5170713">
    <nd ref="43502481"/>
    <nd ref="43503196"/>
    <nd ref="43503150"/>
    <nd ref="43503152"/>
    <nd ref="43502466"/>
    <tag k="highway" v="residential"/>
    <tag k="maxspeed" v="50"/>
    <tag k="maxspeed:source" v="default residential speed limit in Australia"/>
    <tag k="name" v="Mein Street"/>
  </way>
  <way id="5732131" version="4" timestamp="2011-04-23T03:21:50Z" uid="4467" user="Rosscoe" changeset="7940184">
    <nd ref="43502481"/>
    <nd ref="43503196"/>
    <nd ref="43503150"/>
    <nd ref="43503152"/>
    <nd ref="43502466"/>
    <tag k="highway" v="residential"/>
    <tag k="maxspeed" v="50"/>
    <tag k="name" v="Mein Street"/>
    <tag k="source:maxspeed" v="default residential speed limit in Australia"/>
  </way>
  <way id="5732131" version="5" timestamp="2012-01-15T05:53:51Z" uid="147510" user="woodpeck_fixbot" changeset="10394821">
    <nd ref="43502481"/>
    <nd ref="43503196"/>
    <nd ref="43503150"/>
    <nd ref="43503152"/>
    <nd ref="43502466"/>
    <tag k="highway" v="residential"/>
    <tag k="name" v="Mein Street"/>
    <tag k="source:maxspeed" v="default residential speed limit in Australia"/>
  </way>
  <way id="5732142" version="3" timestamp="2010-07-09T02:52:17Z" uid="74617" user="JohnSmith" changeset="5170713">
    <nd ref="43503404"/>
    <nd ref="43503196"/>
    <tag k="highway" v="residential"/>
    <tag k="maxspeed" v="50"/>
    <tag k="maxspeed:source" v="default residential speed limit in Australia"/>
    <tag k="name" v="Picken Court"/>
  </way>
  <way id="5732142" version="4" timestamp="2011-04-23T03:21:48Z" uid="4467" user="Rosscoe" changeset="7940184">
    <nd ref="43503404"/>
    <nd ref="43503196"/>
    <tag k="highway" v="residential"/>
    <tag k="maxspeed" v="50"/>
    <tag k="name" v="Picken Court"/>
    <tag k="source:maxspeed" v="default residential speed limit in Australia"/>
  </way>
  <way id="5732142" version="5" timestamp="2012-01-15T05:53:53Z" uid="147510" user="woodpeck_fixbot" changeset="10394821">
    <nd ref="43503404"/>
    <nd ref="43503196"/>
    <tag k="highway" v="residential"/>
    <tag k="name" v="Picken Court"/>
    <tag k="source:maxspeed" v="default residential speed limit in Australia"/>
  </way>
  <way id="5732148" version="3" timestamp="2010-07-09T02:45:40Z" uid="74617" user="JohnSmith" changeset="5170713">
    <nd ref="43500947"/>
    <nd ref="43503638"/>
    <nd ref="43503639"/>
    <tag k="highway" v="residential"/>
    <tag k="maxspeed" v="50"/>
    <tag k="maxspeed:source" v="default residential speed limit in Australia"/>
    <tag k="name" v="Fairbairn Street"/>
  </way>
  <way id="5732148" version="4" timestamp="2011-04-23T03:21:45Z" uid="4467" user="Rosscoe" changeset="7940184">
    <nd ref="43500947"/>
    <nd ref="43503638"/>
    <nd ref="43503639"/>
    <tag k="highway" v="residential"/>
    <tag k="maxspeed" v="50"/>
    <tag k="name" v="Fairbairn Street"/>
    <tag k="source:maxspeed" v="default residential speed limit in Australia"/>
  </way>
  <way id="5732148" version="5" timestamp="2012-01-15T05:53:54Z" uid="147510" user="woodpeck_fixbot" changeset="10394821">
    <nd ref="43500947"/>
    <nd ref="43503638"/>
    <nd ref="43503639"/>
    <tag k="highway" v="residential"/>
    <tag k="name" v="Fairbairn Street"/>
    <tag k="source:maxspeed" v="default residential speed limit in Australia"/>
  </way>
  <way id="5732155" version="3" timestamp="2010-07-09T02:48:37Z" uid="74617" user="JohnSmith" changeset="5170713">
    <nd ref="43503693"/>
    <nd ref="43503811"/>
    <tag k="highway" v="residential"/>
    <tag k="maxspeed" v="50"/>
    <tag k="maxspeed:source" v="default residential speed limit in Australia"/>
    <tag k="name" v="Davey Court"/>
  </way>
  <way id="5732155" version="4" timestamp="2011-04-23T03:21:47Z" uid="4467" user="Rosscoe" changeset="7940184">
    <nd ref="43503693"/>
    <nd ref="43503811"/>
    <tag k="highway" v="residential"/>
    <tag k="maxspeed" v="50"/>
    <tag k="name" v="Davey Court"/>
    <tag k="source:maxspeed" v="default residential speed limit in Australia"/>
  </way>
  <way id="5732155" version="5" timestamp="2012-01-15T05:53:55Z" uid="147510" user="woodpeck_fixbot" changeset="10394821">
    <nd ref="43503693"/>
    <nd ref="43503811"/>
    <tag k="highway" v="residential"/>
    <tag k="name" v="Davey Court"/>
    <tag k="source:maxspeed" v="default residential speed limit in Australia"/>
  </way>
  <way id="5732164" version="3" timestamp="2010-07-09T02:43:57Z" uid="74617" user="JohnSmith" changeset="5170713">
    <nd ref="43503844"/>
    <nd ref="43504126"/>
    <tag k="highway" v="residential"/>
    <tag k="maxspeed" v="50"/>
    <tag k="maxspeed:source" v="default residential speed limit in Australia"/>
    <tag k="name" v="Watkins Court"/>
  </way>
  <way id="5732164" version="4" timestamp="2012-01-15T05:53:56Z" uid="147510" user="woodpeck_fixbot" changeset="10394821">
    <nd ref="43503844"/>
    <nd ref="43504126"/>
    <tag k="highway" v="residential"/>
    <tag k="name" v="Watkins Court"/>
  </way>
  <way id="5732411" version="1" timestamp="2007-09-06T17:45:26Z" uid="8328" user="benpre" changeset="360608">
    <nd ref="43507178"/>
    <nd ref="43507159"/>
    <nd ref="43507168"/>
    <nd ref="43507173"/>
    <nd ref="43507178"/>
    <tag k="aeroway" v="terminal"/>
    <tag k="created_by" v="JOSM"/>
    <tag k="layer" v="1"/>
    <tag k="name" v="Satellite 7"/>
  </way>
  <way id="5732411" version="2" timestamp="2007-11-17T18:19:15Z" uid="8328" user="benpre" changeset="545740">
    <nd ref="43507178"/>
    <nd ref="43507159"/>
    <nd ref="43507168"/>
    <nd ref="43507173"/>
    <nd ref="43507178"/>
    <tag k="aeroway" v="terminal"/>
    <tag k="created_by" v="JOSM"/>
    <tag k="layer" v="1"/>
    <tag k="name" v="Satellite 7"/>
    <tag k="source" v="Yahoo Aerial Imagery"/>
  </way>
  <way id="5732411" version="3" timestamp="2010-07-13T14:55:00Z" uid="33634" user="lapinos03" changeset="5208765">
    <nd ref="43507178"/>
    <nd ref="43507159"/>
    <nd ref="43507168"/>
    <nd ref="43507173"/>
    <nd ref="43507178"/>
    <tag k="aeroway" v="terminal"/>
    <tag k="building" v="yes"/>
    <tag k="layer" v="1"/>
    <tag k="name" v="Satellite 7"/>
    <tag k="source" v="Yahoo Aerial Imagery"/>
  </way>
  <way id="5732411" version="4" timestamp="2011-05-10T23:25:39Z" uid="114310" user="Joe E" changeset="8107756">
    <nd ref="43507178"/>
    <nd ref="43507159"/>
    <nd ref="43507168"/>
    <nd ref="43507173"/>
    <nd ref="43507178"/>
    <tag k="aeroway" v="terminal"/>
    <tag k="building" v="yes"/>
    <tag k="layer" v="1"/>
    <tag k="name" v="Satellite 7"/>
    <tag k="source" v="Yahoo"/>
  </way>
  <way id="5732412" version="1" timestamp="2007-09-06T17:45:27Z" uid="8328" user="benpre" changeset="360608">
    <nd ref="43507186"/>
    <nd ref="43507190"/>
    <nd ref="43507199"/>
    <nd ref="43507205"/>
    <nd ref="43507186"/>
    <tag k="aeroway" v="terminal"/>
    <tag k="created_by" v="JOSM"/>
    <tag k="layer" v="1"/>
    <tag k="name" v="Satellite 1"/>
  </way>
  <way id="5732412" version="2" timestamp="2007-11-17T18:19:13Z" uid="8328" user="benpre" changeset="545740">
    <nd ref="43507186"/>
    <nd ref="43507190"/>
    <nd ref="43507199"/>
    <nd ref="43507205"/>
    <nd ref="43507186"/>
    <tag k="aeroway" v="terminal"/>
    <tag k="created_by" v="JOSM"/>
    <tag k="layer" v="1"/>
    <tag k="name" v="Satellite 1"/>
    <tag k="source" v="Yahoo Aerial Imagery"/>
  </way>
  <way id="5732412" version="3" timestamp="2010-07-13T14:55:00Z" uid="33634" user="lapinos03" changeset="5208765">
    <nd ref="43507186"/>
    <nd ref="43507190"/>
    <nd ref="43507199"/>
    <nd ref="43507205"/>
    <nd ref="43507186"/>
    <tag k="aeroway" v="terminal"/>
    <tag k="building" v="yes"/>
    <tag k="layer" v="1"/>
    <tag k="name" v="Satellite 1"/>
    <tag k="source" v="Yahoo Aerial Imagery"/>
  </way>
  <way id="5732412" version="4" timestamp="2011-05-10T23:25:48Z" uid="114310" user="Joe E" changeset="8107756">
    <nd ref="43507186"/>
    <nd ref="43507190"/>
    <nd ref="43507199"/>
    <nd ref="43507205"/>
    <nd ref="43507186"/>
    <tag k="aeroway" v="terminal"/>
    <tag k="building" v="yes"/>
    <tag k="layer" v="1"/>
    <tag k="name" v="Satellite 1"/>
    <tag k="source" v="Yahoo"/>
  </way>
  <way id="5732413" version="1" timestamp="2007-09-06T17:45:27Z" uid="8328" user="benpre" changeset="360608">
    <nd ref="43507217"/>
    <nd ref="43507222"/>
    <nd ref="43507228"/>
    <nd ref="43507213"/>
    <nd ref="43507217"/>
    <tag k="aeroway" v="terminal"/>
    <tag k="created_by" v="JOSM"/>
    <tag k="layer" v="1"/>
    <tag k="name" v="Satellite 2"/>
  </way>
  <way id="5732413" version="2" timestamp="2007-11-17T18:19:13Z" uid="8328" user="benpre" changeset="545740">
    <nd ref="43507217"/>
    <nd ref="43507222"/>
    <nd ref="43507228"/>
    <nd ref="43507213"/>
    <nd ref="43507217"/>
    <tag k="aeroway" v="terminal"/>
    <tag k="created_by" v="JOSM"/>
    <tag k="layer" v="1"/>
    <tag k="name" v="Satellite 2"/>
    <tag k="source" v="Yahoo Aerial Imagery"/>
  </way>
  <way id="5732413" version="3" timestamp="2010-07-13T14:54:59Z" uid="33634" user="lapinos03" changeset="5208765">
    <nd ref="43507217"/>
    <nd ref="43507222"/>
    <nd ref="43507228"/>
    <nd ref="43507213"/>
    <nd ref="43507217"/>
    <tag k="aeroway" v="terminal"/>
    <tag k="building" v="yes"/>
    <tag k="layer" v="1"/>
    <tag k="name" v="Satellite 2"/>
    <tag k="source" v="Yahoo Aerial Imagery"/>
  </way>
  <way id="5732413" version="4" timestamp="2011-05-10T23:25:41Z" uid="114310" user="Joe E" changeset="8107756">
    <nd ref="43507217"/>
    <nd ref="43507222"/>
    <nd ref="43507228"/>
    <nd ref="43507213"/>
    <nd ref="43507217"/>
    <tag k="aeroway" v="terminal"/>
    <tag k="building" v="yes"/>
    <tag k="layer" v="1"/>
    <tag k="name" v="Satellite 2"/>
    <tag k="source" v="Yahoo"/>
  </way>
  <way id="5732415" version="1" timestamp="2007-09-06T17:45:28Z" uid="8328" user="benpre" changeset="360608">
    <nd ref="43507234"/>
    <nd ref="43507238"/>
    <nd ref="43507245"/>
    <nd ref="43507252"/>
    <nd ref="43507234"/>
    <tag k="aeroway" v="terminal"/>
    <tag k="created_by" v="JOSM"/>
    <tag k="layer" v="1"/>
    <tag k="name" v="Satellite 3"/>
  </way>
  <way id="5732415" version="2" timestamp="2007-11-17T18:19:14Z" uid="8328" user="benpre" changeset="545740">
    <nd ref="43507234"/>
    <nd ref="43507238"/>
    <nd ref="43507245"/>
    <nd ref="43507252"/>
    <nd ref="43507234"/>
    <tag k="aeroway" v="terminal"/>
    <tag k="created_by" v="JOSM"/>
    <tag k="layer" v="1"/>
    <tag k="name" v="Satellite 3"/>
    <tag k="source" v="Yahoo Aerial Imagery"/>
  </way>
  <way id="5732415" version="3" timestamp="2010-07-13T14:54:59Z" uid="33634" user="lapinos03" changeset="5208765">
    <nd ref="43507234"/>
    <nd ref="43507238"/>
    <nd ref="43507245"/>
    <nd ref="43507252"/>
    <nd ref="43507234"/>
    <tag k="aeroway" v="terminal"/>
    <tag k="building" v="yes"/>
    <tag k="layer" v="1"/>
    <tag k="name" v="Satellite 3"/>
    <tag k="source" v="Yahoo Aerial Imagery"/>
  </way>
  <way id="5732415" version="4" timestamp="2011-05-10T23:25:57Z" uid="114310" user="Joe E" changeset="8107756">
    <nd ref="43507234"/>
    <nd ref="43507238"/>
    <nd ref="43507245"/>
    <nd ref="43507252"/>
    <nd ref="43507234"/>
    <tag k="aeroway" v="terminal"/>
    <tag k="building" v="yes"/>
    <tag k="layer" v="1"/>
    <tag k="name" v="Satellite 3"/>
    <tag k="source" v="Yahoo"/>
  </way>
  <way id="5732416" version="1" timestamp="2007-09-06T17:45:28Z" uid="8328" user="benpre" changeset="360608">
    <nd ref="43507269"/>
    <nd ref="43507277"/>
    <nd ref="43507260"/>
    <nd ref="43507262"/>
    <nd ref="43507269"/>
    <tag k="aeroway" v="terminal"/>
    <tag k="created_by" v="JOSM"/>
    <tag k="layer" v="1"/>
    <tag k="name" v="Satellite 4"/>
  </way>
  <way id="5732416" version="2" timestamp="2007-11-17T18:18:57Z" uid="8328" user="benpre" changeset="545740">
    <nd ref="43507269"/>
    <nd ref="43507277"/>
    <nd ref="43507260"/>
    <nd ref="43507262"/>
    <nd ref="43507269"/>
    <tag k="aeroway" v="terminal"/>
    <tag k="created_by" v="JOSM"/>
    <tag k="layer" v="1"/>
    <tag k="name" v="Satellite 4"/>
    <tag k="source" v="Yahoo Aerial Imagery"/>
  </way>
  <way id="5732416" version="3" timestamp="2010-07-13T14:54:58Z" uid="33634" user="lapinos03" changeset="5208765">
    <nd ref="43507269"/>
    <nd ref="43507277"/>
    <nd ref="43507260"/>
    <nd ref="43507262"/>
    <nd ref="43507269"/>
    <tag k="aeroway" v="terminal"/>
    <tag k="building" v="yes"/>
    <tag k="layer" v="1"/>
    <tag k="name" v="Satellite 4"/>
    <tag k="source" v="Yahoo Aerial Imagery"/>
  </way>
  <way id="5732416" version="4" timestamp="2011-05-10T23:26:00Z" uid="114310" user="Joe E" changeset="8107756">
    <nd ref="43507269"/>
    <nd ref="43507277"/>
    <nd ref="43507260"/>
    <nd ref="43507262"/>
    <nd ref="43507269"/>
    <tag k="aeroway" v="terminal"/>
    <tag k="building" v="yes"/>
    <tag k="layer" v="1"/>
    <tag k="name" v="Satellite 4"/>
    <tag k="source" v="Yahoo"/>
  </way>
  <way id="5732417" version="1" timestamp="2007-09-06T17:45:28Z" uid="8328" user="benpre" changeset="360608">
    <nd ref="43507292"/>
    <nd ref="43507299"/>
    <nd ref="43507283"/>
    <nd ref="43507286"/>
    <nd ref="43507292"/>
    <tag k="aeroway" v="terminal"/>
    <tag k="created_by" v="JOSM"/>
    <tag k="layer" v="1"/>
    <tag k="name" v="Satellite 5"/>
  </way>
  <way id="5732417" version="2" timestamp="2007-11-17T18:18:57Z" uid="8328" user="benpre" changeset="545740">
    <nd ref="43507292"/>
    <nd ref="43507299"/>
    <nd ref="43507283"/>
    <nd ref="43507286"/>
    <nd ref="43507292"/>
    <tag k="aeroway" v="terminal"/>
    <tag k="created_by" v="JOSM"/>
    <tag k="layer" v="1"/>
    <tag k="name" v="Satellite 5"/>
    <tag k="source" v="Yahoo Aerial Imagery"/>
  </way>
  <way id="5732417" version="3" timestamp="2010-07-13T14:54:58Z" uid="33634" user="lapinos03" changeset="5208765">
    <nd ref="43507292"/>
    <nd ref="43507299"/>
    <nd ref="43507283"/>
    <nd ref="43507286"/>
    <nd ref="43507292"/>
    <tag k="aeroway" v="terminal"/>
    <tag k="building" v="yes"/>
    <tag k="layer" v="1"/>
    <tag k="name" v="Satellite 5"/>
    <tag k="source" v="Yahoo Aerial Imagery"/>
  </way>
  <way id="5732417" version="4" timestamp="2011-05-10T23:25:52Z" uid="114310" user="Joe E" changeset="8107756">
    <nd ref="43507292"/>
    <nd ref="43507299"/>
    <nd ref="43507283"/>
    <nd ref="43507286"/>
    <nd ref="43507292"/>
    <tag k="aeroway" v="terminal"/>
    <tag k="building" v="yes"/>
    <tag k="layer" v="1"/>
    <tag k="name" v="Satellite 5"/>
    <tag k="source" v="Yahoo"/>
  </way>
  <way id="5732419" version="1" timestamp="2007-09-06T17:45:28Z" uid="8328" user="benpre" changeset="360608">
    <nd ref="43507304"/>
    <nd ref="43507312"/>
    <nd ref="43507317"/>
    <nd ref="43507322"/>
    <nd ref="43507304"/>
    <tag k="aeroway" v="terminal"/>
    <tag k="created_by" v="JOSM"/>
    <tag k="layer" v="1"/>
    <tag k="name" v="Satellite 6"/>
  </way>
  <way id="5732419" version="2" timestamp="2007-11-17T18:18:57Z" uid="8328" user="benpre" changeset="545740">
    <nd ref="43507304"/>
    <nd ref="43507312"/>
    <nd ref="43507317"/>
    <nd ref="43507322"/>
    <nd ref="43507304"/>
    <tag k="aeroway" v="terminal"/>
    <tag k="created_by" v="JOSM"/>
    <tag k="layer" v="1"/>
    <tag k="name" v="Satellite 6"/>
    <tag k="source" v="Yahoo Aerial Imagery"/>
  </way>
  <way id="5732419" version="3" timestamp="2010-07-13T14:54:55Z" uid="33634" user="lapinos03" changeset="5208765">
    <nd ref="43507304"/>
    <nd ref="43507312"/>
    <nd ref="43507317"/>
    <nd ref="43507322"/>
    <nd ref="43507304"/>
    <tag k="aeroway" v="terminal"/>
    <tag k="building" v="yes"/>
    <tag k="layer" v="1"/>
    <tag k="name" v="Satellite 6"/>
    <tag k="source" v="Yahoo Aerial Imagery"/>
  </way>
  <way id="5732419" version="4" timestamp="2011-05-10T23:25:22Z" uid="114310" user="Joe E" changeset="8107756">
    <nd ref="43507304"/>
    <nd ref="43507312"/>
    <nd ref="43507317"/>
    <nd ref="43507322"/>
    <nd ref="43507304"/>
    <tag k="aeroway" v="terminal"/>
    <tag k="building" v="yes"/>
    <tag k="layer" v="1"/>
    <tag k="name" v="Satellite 6"/>
    <tag k="source" v="Yahoo"/>
  </way>
  <way id="5732422" version="1" timestamp="2007-09-06T17:45:29Z" uid="8328" user="benpre" changeset="360608">
    <nd ref="43507349"/>
    <nd ref="43507355"/>
    <nd ref="43507357"/>
    <nd ref="43507362"/>
    <nd ref="43507366"/>
    <nd ref="43507373"/>
    <nd ref="43507378"/>
    <nd ref="43507385"/>
    <nd ref="43507391"/>
    <nd ref="43507394"/>
    <nd ref="43507400"/>
    <nd ref="43507407"/>
    <nd ref="43507414"/>
    <nd ref="43507423"/>
    <nd ref="43507431"/>
    <nd ref="43507439"/>
    <nd ref="43507445"/>
    <nd ref="43507448"/>
    <nd ref="43507452"/>
    <nd ref="43507457"/>
    <nd ref="43507462"/>
    <nd ref="43507466"/>
    <nd ref="43507328"/>
    <nd ref="43507335"/>
    <nd ref="43507343"/>
    <nd ref="43507349"/>
    <tag k="aeroway" v="terminal"/>
    <tag k="created_by" v="JOSM"/>
    <tag k="name" v="Terminal 1"/>
  </way>
  <way id="5732422" version="2" timestamp="2007-11-17T18:18:57Z" uid="8328" user="benpre" changeset="545740">
    <nd ref="43507349"/>
    <nd ref="43507355"/>
    <nd ref="43507357"/>
    <nd ref="43507362"/>
    <nd ref="43507366"/>
    <nd ref="43507373"/>
    <nd ref="43507378"/>
    <nd ref="43507385"/>
    <nd ref="43507391"/>
    <nd ref="43507394"/>
    <nd ref="43507400"/>
    <nd ref="43507407"/>
    <nd ref="43507414"/>
    <nd ref="43507423"/>
    <nd ref="43507431"/>
    <nd ref="43507439"/>
    <nd ref="43507445"/>
    <nd ref="43507448"/>
    <nd ref="43507452"/>
    <nd ref="43507457"/>
    <nd ref="43507462"/>
    <nd ref="43507466"/>
    <nd ref="43507328"/>
    <nd ref="43507335"/>
    <nd ref="43507343"/>
    <nd ref="43507349"/>
    <tag k="aeroway" v="terminal"/>
    <tag k="created_by" v="JOSM"/>
    <tag k="name" v="Terminal 1"/>
    <tag k="source" v="Yahoo Aerial Imagery"/>
  </way>
  <way id="5732422" version="3" timestamp="2010-03-18T10:51:09Z" uid="244451" user="Patrick Cao" changeset="4160198">
    <nd ref="43507349"/>
    <nd ref="43507355"/>
    <nd ref="43507357"/>
    <nd ref="43507362"/>
    <nd ref="43507366"/>
    <nd ref="43507373"/>
    <nd ref="43507378"/>
    <nd ref="43507385"/>
    <nd ref="668708969"/>
    <nd ref="668708969"/>
    <nd ref="43507391"/>
    <nd ref="43507394"/>
    <nd ref="43507400"/>
    <nd ref="43507407"/>
    <nd ref="43507414"/>
    <nd ref="43507423"/>
    <nd ref="43507431"/>
    <nd ref="43507439"/>
    <nd ref="43507445"/>
    <nd ref="43507448"/>
    <nd ref="43507452"/>
    <nd ref="43507457"/>
    <nd ref="43507462"/>
    <nd ref="43507466"/>
    <nd ref="43507328"/>
    <nd ref="43507335"/>
    <nd ref="43507343"/>
    <nd ref="43507349"/>
    <tag k="aeroway" v="terminal"/>
    <tag k="name" v="Terminal 1"/>
    <tag k="source" v="Yahoo Aerial Imagery"/>
  </way>
  <way id="5732422" version="4" timestamp="2010-03-18T19:37:52Z" uid="70696" user="xybot" changeset="4164211">
    <nd ref="43507349"/>
    <nd ref="43507355"/>
    <nd ref="43507357"/>
    <nd ref="43507362"/>
    <nd ref="43507366"/>
    <nd ref="43507373"/>
    <nd ref="43507378"/>
    <nd ref="43507385"/>
    <nd ref="668708969"/>
    <nd ref="43507391"/>
    <nd ref="43507394"/>
    <nd ref="43507400"/>
    <nd ref="43507407"/>
    <nd ref="43507414"/>
    <nd ref="43507423"/>
    <nd ref="43507431"/>
    <nd ref="43507439"/>
    <nd ref="43507445"/>
    <nd ref="43507448"/>
    <nd ref="43507452"/>
    <nd ref="43507457"/>
    <nd ref="43507462"/>
    <nd ref="43507466"/>
    <nd ref="43507328"/>
    <nd ref="43507335"/>
    <nd ref="43507343"/>
    <nd ref="43507349"/>
    <tag k="aeroway" v="terminal"/>
    <tag k="name" v="Terminal 1"/>
    <tag k="source" v="Yahoo Aerial Imagery"/>
  </way>
  <way id="5732422" version="5" timestamp="2010-06-07T17:41:43Z" uid="158826" user="cquest" changeset="4930579">
    <nd ref="43507391"/>
    <nd ref="43507394"/>
    <nd ref="43507400"/>
    <nd ref="43507407"/>
    <nd ref="43507414"/>
    <nd ref="43507423"/>
    <nd ref="43507431"/>
    <nd ref="43507439"/>
    <nd ref="43507445"/>
    <nd ref="43507448"/>
    <nd ref="43507452"/>
    <nd ref="43507457"/>
    <nd ref="43507462"/>
    <nd ref="43507466"/>
    <nd ref="43507328"/>
    <nd ref="43507335"/>
    <nd ref="43507343"/>
    <nd ref="43507349"/>
    <nd ref="43507355"/>
    <nd ref="43507357"/>
    <nd ref="43507362"/>
    <nd ref="43507366"/>
    <nd ref="43507373"/>
    <nd ref="43507378"/>
    <nd ref="43507385"/>
    <nd ref="43507391"/>
    <tag k="aeroway" v="terminal"/>
    <tag k="name" v="Terminal 1"/>
    <tag k="source" v="Yahoo Aerial Imagery"/>
  </way>
  <way id="5732422" version="6" timestamp="2010-07-13T14:54:59Z" uid="33634" user="lapinos03" changeset="5208765">
    <nd ref="43507391"/>
    <nd ref="43507394"/>
    <nd ref="43507400"/>
    <nd ref="43507407"/>
    <nd ref="43507414"/>
    <nd ref="43507423"/>
    <nd ref="43507431"/>
    <nd ref="43507439"/>
    <nd ref="43507445"/>
    <nd ref="43507448"/>
    <nd ref="43507452"/>
    <nd ref="43507457"/>
    <nd ref="43507462"/>
    <nd ref="43507466"/>
    <nd ref="43507328"/>
    <nd ref="43507335"/>
    <nd ref="43507343"/>
    <nd ref="43507349"/>
    <nd ref="43507355"/>
    <nd ref="43507357"/>
    <nd ref="43507362"/>
    <nd ref="43507366"/>
    <nd ref="43507373"/>
    <nd ref="43507378"/>
    <nd ref="43507385"/>
    <nd ref="43507391"/>
    <tag k="aeroway" v="terminal"/>
    <tag k="building" v="yes"/>
    <tag k="name" v="Terminal 1"/>
    <tag k="source" v="Yahoo Aerial Imagery"/>
  </way>
  <way id="5732422" version="7" timestamp="2011-05-10T23:25:44Z" uid="114310" user="Joe E" changeset="8107756">
    <nd ref="43507391"/>
    <nd ref="43507394"/>
    <nd ref="43507400"/>
    <nd ref="43507407"/>
    <nd ref="43507414"/>
    <nd ref="43507423"/>
    <nd ref="43507431"/>
    <nd ref="43507439"/>
    <nd ref="43507445"/>
    <nd ref="43507448"/>
    <nd ref="43507452"/>
    <nd ref="43507457"/>
    <nd ref="43507462"/>
    <nd ref="43507466"/>
    <nd ref="43507328"/>
    <nd ref="43507335"/>
    <nd ref="43507343"/>
    <nd ref="43507349"/>
    <nd ref="43507355"/>
    <nd ref="43507357"/>
    <nd ref="43507362"/>
    <nd ref="43507366"/>
    <nd ref="43507373"/>
    <nd ref="43507378"/>
    <nd ref="43507385"/>
    <nd ref="43507391"/>
    <tag k="aeroway" v="terminal"/>
    <tag k="building" v="yes"/>
    <tag k="name" v="Terminal 1"/>
    <tag k="source" v="Yahoo"/>
  </way>
  <way id="5732437" version="1" timestamp="2007-09-06T17:45:48Z" uid="6454" user="B10xxx" changeset="364362">
    <nd ref="31192366"/>
    <nd ref="31192367"/>
    <nd ref="31192368"/>
    <nd ref="31192369"/>
    <nd ref="2412681"/>
    <tag k="created_by" v="Potlatch alpha"/>
    <tag k="highway" v="motorway"/>
  </way>
  <way id="5732437" version="2" timestamp="2007-10-16T10:48:12Z" uid="16542" user="seppb" changeset="212881">
    <nd ref="31192366"/>
    <nd ref="31192367"/>
    <nd ref="31192368"/>
    <nd ref="31192369"/>
    <nd ref="2412681"/>
    <tag k="created_by" v="Potlatch alpha"/>
    <tag k="highway" v="motorway"/>
    <tag k="name" v="A643"/>
  </way>
  <way id="5732437" version="3" timestamp="2007-10-16T10:49:02Z" uid="16542" user="seppb" changeset="212881">
    <nd ref="31192366"/>
    <nd ref="31192367"/>
    <nd ref="31192368"/>
    <nd ref="31192369"/>
    <nd ref="2412681"/>
    <tag k="created_by" v="Potlatch alpha"/>
    <tag k="highway" v="motorway"/>
    <tag k="name" v="BA643"/>
    <tag k="ref" v="A643"/>
  </way>
  <way id="5732437" version="4" timestamp="2007-10-16T10:49:15Z" uid="16542" user="seppb" changeset="212881">
    <nd ref="31192366"/>
    <nd ref="31192367"/>
    <nd ref="31192368"/>
    <nd ref="31192369"/>
    <nd ref="2412681"/>
    <tag k="created_by" v="Potlatch alpha"/>
    <tag k="highway" v="motorway"/>
    <tag k="name" v="BA643"/>
    <tag k="ref" v="A643"/>
  </way>
  <way id="5732437" version="5" timestamp="2008-06-08T22:32:02Z" uid="17602" user="B10xyz" changeset="111601">
    <nd ref="31192366"/>
    <nd ref="31192367"/>
    <tag k="created_by" v="Potlatch 0.9c"/>
    <tag k="highway" v="motorway"/>
    <tag k="name" v="BA643"/>
    <tag k="ref" v="A643"/>
  </way>
  <way id="5732437" version="6" timestamp="2008-06-08T22:32:33Z" uid="17602" user="B10xyz" changeset="111601">
    <nd ref="31192366"/>
    <nd ref="31192367"/>
    <tag k="bridge" v="yes"/>
    <tag k="created_by" v="Potlatch 0.9c"/>
    <tag k="highway" v="motorway"/>
    <tag k="name" v="BA643"/>
    <tag k="ref" v="A643"/>
  </way>
  <way id="5732437" version="7" timestamp="2008-06-08T22:33:02Z" uid="17602" user="B10xyz" changeset="111601">
    <nd ref="31192366"/>
    <nd ref="31192367"/>
    <tag k="bridge" v="yes"/>
    <tag k="created_by" v="Potlatch 0.9c"/>
    <tag k="highway" v="motorway"/>
    <tag k="layer" v="+1"/>
    <tag k="name" v="BA643"/>
    <tag k="ref" v="A643"/>
  </way>
  <way id="5732437" version="8" timestamp="2008-08-10T23:06:27Z" uid="34829" user="Schluessler" changeset="184354">
    <nd ref="31192366"/>
    <nd ref="31192367"/>
    <tag k="bridge" v="yes"/>
    <tag k="created_by" v="Potlatch 0.9c"/>
    <tag k="highway" v="motorway"/>
    <tag k="lanes" v="2"/>
    <tag k="layer" v="1"/>
    <tag k="name" v="BA643"/>
    <tag k="ref" v="A 643"/>
  </way>
  <way id="5732437" version="9" timestamp="2008-09-24T10:26:07Z" uid="65847" user="LKK" changeset="688627">
    <nd ref="31192366"/>
    <nd ref="299433789"/>
    <nd ref="31192367"/>
    <tag k="bridge" v="yes"/>
    <tag k="created_by" v="Potlatch 0.9c"/>
    <tag k="highway" v="motorway"/>
    <tag k="lanes" v="2"/>
    <tag k="layer" v="1"/>
    <tag k="name" v="BA643"/>
    <tag k="ref" v="A 643"/>
  </way>
  <way id="5732437" version="10" timestamp="2008-12-15T15:01:16Z" uid="65364" user="Harry99" changeset="405053">
    <nd ref="31192366"/>
    <nd ref="299433789"/>
    <nd ref="31192367"/>
    <tag k="bridge" v="yes"/>
    <tag k="created_by" v="Potlatch 0.9c"/>
    <tag k="highway" v="motorway"/>
    <tag k="lanes" v="2"/>
    <tag k="layer" v="1"/>
    <tag k="ref" v="A 643"/>
  </way>
  <way id="5732437" version="11" timestamp="2009-04-23T15:20:50Z" uid="104912" user="Sir Lancelot" changeset="914026">
    <nd ref="31192366"/>
    <nd ref="299433789"/>
    <nd ref="382170058"/>
    <nd ref="31192367"/>
    <tag k="bridge" v="yes"/>
    <tag k="created_by" v="Potlatch 0.9c"/>
    <tag k="highway" v="motorway"/>
    <tag k="lanes" v="2"/>
    <tag k="layer" v="1"/>
    <tag k="ref" v="A 643"/>
  </way>
  <way id="5732437" version="12" timestamp="2009-07-26T19:32:46Z" uid="70621" user="BikeMap" changeset="1948807">
    <nd ref="31192366"/>
    <nd ref="448623533"/>
    <tag k="bridge" v="yes"/>
    <tag k="highway" v="motorway"/>
    <tag k="lanes" v="2"/>
    <tag k="layer" v="1"/>
    <tag k="ref" v="A 643"/>
  </way>
  <way id="5732437" version="13" timestamp="2009-10-12T19:46:20Z" uid="101372" user="tanjeff" changeset="2830208">
    <nd ref="31192366"/>
    <nd ref="529680662"/>
    <tag k="bridge" v="yes"/>
    <tag k="highway" v="motorway"/>
    <tag k="lanes" v="2"/>
    <tag k="layer" v="1"/>
    <tag k="ref" v="A 643"/>
  </way>
  <way id="5732437" version="14" timestamp="2009-12-11T10:05:27Z" uid="55462" user="Lübeck" changeset="3347728"/>
  <way id="5732534" version="1" timestamp="2007-09-06T17:48:31Z" uid="6454" user="B10xxx" changeset="364362">
    <nd ref="31192366"/>
    <nd ref="43231805"/>
    <tag k="created_by" v="JOSM"/>
    <tag k="highway" v="secondary"/>
  </way>
  <way id="5732534" version="2" timestamp="2008-06-08T19:18:45Z" uid="17602" user="B10xyz" changeset="97745">
    <nd ref="31192366"/>
    <nd ref="269229853"/>
    <nd ref="43231805"/>
    <tag k="created_by" v="Potlatch 0.9c"/>
    <tag k="highway" v="secondary"/>
  </way>
  <way id="5732534" version="3" timestamp="2008-06-08T19:19:07Z" uid="17602" user="B10xyz" changeset="97745">
    <nd ref="31192366"/>
    <nd ref="269229853"/>
    <nd ref="269229863"/>
    <nd ref="43231805"/>
    <tag k="created_by" v="Potlatch 0.9c"/>
    <tag k="highway" v="secondary"/>
  </way>
  <way id="5732534" version="4" timestamp="2008-06-15T22:22:45Z" uid="17602" user="B10xyz" changeset="179150">
    <nd ref="31192366"/>
    <nd ref="269229853"/>
    <nd ref="269229863"/>
    <nd ref="270600070"/>
    <nd ref="43231805"/>
    <tag k="created_by" v="Potlatch 0.9c"/>
    <tag k="highway" v="secondary"/>
  </way>
  <way id="5732534" version="5" timestamp="2009-04-23T15:20:50Z" uid="104912" user="Sir Lancelot" changeset="914026">
    <nd ref="31192366"/>
    <nd ref="269229853"/>
    <nd ref="269229863"/>
    <nd ref="270600070"/>
    <nd ref="382170062"/>
    <nd ref="43231805"/>
    <tag k="created_by" v="Potlatch 0.9c"/>
    <tag k="highway" v="secondary"/>
  </way>
  <way id="5732534" version="6" timestamp="2009-07-26T19:32:44Z" uid="70621" user="BikeMap" changeset="1948807">
    <nd ref="31192366"/>
    <nd ref="269229853"/>
    <nd ref="269229863"/>
    <nd ref="270600070"/>
    <nd ref="382170062"/>
    <nd ref="448623539"/>
    <nd ref="43231805"/>
    <tag k="highway" v="secondary"/>
  </way>
  <way id="5732534" version="7" timestamp="2009-10-28T12:34:46Z" uid="46169" user="wolter" changeset="2972902">
    <nd ref="31192366"/>
    <nd ref="269229853"/>
    <nd ref="269229863"/>
    <nd ref="270600070"/>
    <nd ref="382170062"/>
    <nd ref="448623539"/>
    <nd ref="43231805"/>
    <tag k="highway" v="primary_link"/>
    <tag k="ref" v="B 262"/>
  </way>
  <way id="5732534" version="8" timestamp="2010-02-24T15:37:06Z" uid="94353" user="Fips" changeset="3963902">
    <nd ref="31192366"/>
    <nd ref="269229853"/>
    <nd ref="269229863"/>
    <nd ref="270600070"/>
    <nd ref="382170062"/>
    <nd ref="448623539"/>
    <nd ref="43231805"/>
    <tag k="highway" v="tertiary"/>
  </way>
  <way id="5732534" version="9" timestamp="2010-05-15T02:38:41Z" uid="27716" user="glmosm" changeset="4702095">
    <nd ref="31192366"/>
    <nd ref="269229853"/>
    <nd ref="269229863"/>
    <nd ref="270600070"/>
    <nd ref="382170062"/>
    <nd ref="448623539"/>
    <nd ref="43231805"/>
    <tag k="highway" v="tertiary"/>
    <tag k="oneway" v="yes"/>
  </way>
  <way id="5732534" version="10" timestamp="2010-10-09T11:37:47Z" uid="356650" user="DaGrimuxx" changeset="5992710">
    <nd ref="31192366"/>
    <nd ref="269229853"/>
    <nd ref="269229863"/>
    <nd ref="270600070"/>
    <nd ref="382170062"/>
    <nd ref="448623539"/>
    <nd ref="43231805"/>
    <tag k="highway" v="tertiary"/>
    <tag k="name" v="Saarstraße"/>
    <tag k="oneway" v="yes"/>
  </way>
  <way id="5732534" version="11" timestamp="2011-12-11T15:23:55Z" uid="40023" user="ALE!" changeset="10090584">
    <nd ref="31192366"/>
    <nd ref="269229853"/>
    <nd ref="269229863"/>
    <nd ref="270600070"/>
    <nd ref="382170062"/>
    <nd ref="448623539"/>
    <tag k="highway" v="tertiary"/>
    <tag k="maxspeed" v="70"/>
    <tag k="name" v="Saarstraße"/>
    <tag k="oneway" v="yes"/>
  </way>
  <way id="5732534" version="12" timestamp="2012-01-20T11:08:57Z" uid="328555" user="peb12345" changeset="10445199"/>
  <way id="5732700" version="5" timestamp="2009-12-25T15:40:48Z" uid="58091" user="Andreas M" changeset="3448794">
    <nd ref="43513260"/>
    <nd ref="582984691"/>
    <tag k="highway" v="residential"/>
    <tag k="name" v="Lechnerstraße"/>
    <tag k="oneway" v="yes"/>
    <tag k="railway" v="tram"/>
  </way>
  <way id="5732700" version="6" timestamp="2010-08-30T17:51:51Z" uid="129531" user="almich" changeset="5638503">
    <nd ref="43513260"/>
    <nd ref="582984691"/>
    <tag k="electrified" v="contact_line"/>
    <tag k="frequency" v="0"/>
    <tag k="gauge" v="1435"/>
    <tag k="highway" v="residential"/>
    <tag k="name" v="Lechnerstraße"/>
    <tag k="oneway" v="yes"/>
    <tag k="railway" v="tram"/>
  </way>
  <way id="5732700" version="7" timestamp="2011-01-27T11:14:31Z" uid="321862" user="DanX" changeset="7102499">
    <nd ref="43513260"/>
    <nd ref="582984691"/>
    <tag k="electrified" v="contact_line"/>
    <tag k="frequency" v="0"/>
    <tag k="gauge" v="1435"/>
    <tag k="highway" v="residential"/>
    <tag k="name" v="Lechnerstraße"/>
    <tag k="oneway" v="yes"/>
    <tag k="railway" v="preserved"/>
  </way>
  <way id="5732700" version="8" timestamp="2011-02-01T17:43:10Z" uid="67684" user="darkweasel" changeset="7157072">
    <nd ref="43513260"/>
    <nd ref="582984691"/>
    <tag k="electrified" v="contact_line"/>
    <tag k="frequency" v="0"/>
    <tag k="gauge" v="1435"/>
    <tag k="highway" v="residential"/>
    <tag k="name" v="Lechnerstraße"/>
    <tag k="note" v="sorry, aber imo sind die Gleise zum Straßenbahnmuseum railway=tram (railway=preserved sagt ja nicht aus, dass es Straßenbahngleise sind)... Kontakt: user &quot;darkweasel&quot;"/>
    <tag k="oneway" v="yes"/>
    <tag k="railway" v="tram"/>
  </way>
  <way id="5732700" version="9" timestamp="2011-11-08T00:46:19Z" uid="129531" user="almich" changeset="9770160">
    <nd ref="43513260"/>
    <nd ref="582984691"/>
    <tag k="electrified" v="contact_line"/>
    <tag k="frequency" v="0"/>
    <tag k="gauge" v="1435"/>
    <tag k="highway" v="residential"/>
    <tag k="name" v="Lechnerstraße"/>
    <tag k="note" v="sorry, aber imo sind die Gleise zum Straßenbahnmuseum railway=tram (railway=preserved sagt ja nicht aus, dass es Straßenbahngleise sind)... Kontakt: user &quot;darkweasel&quot;"/>
    <tag k="oneway" v="yes"/>
    <tag k="railway" v="tram"/>
    <tag k="voltage" v="600"/>
  </way>
  <way id="5732700" version="10" timestamp="2011-11-29T21:10:22Z" uid="104947" user="My Friend" changeset="9992507">
    <nd ref="1523755794"/>
    <nd ref="582984691"/>
    <tag k="electrified" v="contact_line"/>
    <tag k="frequency" v="0"/>
    <tag k="gauge" v="1435"/>
    <tag k="highway" v="residential"/>
    <tag k="name" v="Lechnerstraße"/>
    <tag k="note" v="sorry, aber imo sind die Gleise zum Straßenbahnmuseum railway=tram (railway=preserved sagt ja nicht aus, dass es Straßenbahngleise sind)... Kontakt: user &quot;darkweasel&quot;"/>
    <tag k="oneway" v="yes"/>
    <tag k="railway" v="tram"/>
    <tag k="voltage" v="600"/>
  </way>
  <way id="5732792" version="7" timestamp="2009-12-25T15:40:47Z" uid="58091" user="Andreas M" changeset="3448794">
    <nd ref="43515552"/>
    <nd ref="117358912"/>
    <nd ref="43515551"/>
    <tag k="highway" v="residential"/>
    <tag k="name" v="Fruethstraße"/>
    <tag k="oneway" v="yes"/>
    <tag k="railway" v="tram"/>
  </way>
  <way id="5732792" version="8" timestamp="2010-08-30T17:55:20Z" uid="129531" user="almich" changeset="5638503">
    <nd ref="43515552"/>
    <nd ref="117358912"/>
    <nd ref="43515551"/>
    <tag k="electrified" v="contact_line"/>
    <tag k="frequency" v="0"/>
    <tag k="gauge" v="1435"/>
    <tag k="highway" v="residential"/>
    <tag k="name" v="Fruethstraße"/>
    <tag k="oneway" v="yes"/>
    <tag k="railway" v="tram"/>
  </way>
  <way id="5732792" version="9" timestamp="2011-01-27T11:14:32Z" uid="321862" user="DanX" changeset="7102499">
    <nd ref="43515552"/>
    <nd ref="117358912"/>
    <nd ref="43515551"/>
    <tag k="electrified" v="contact_line"/>
    <tag k="frequency" v="0"/>
    <tag k="gauge" v="1435"/>
    <tag k="highway" v="residential"/>
    <tag k="name" v="Fruethstraße"/>
    <tag k="oneway" v="yes"/>
    <tag k="railway" v="preserved"/>
  </way>
  <way id="5732792" version="10" timestamp="2011-02-01T17:43:11Z" uid="67684" user="darkweasel" changeset="7157072">
    <nd ref="43515552"/>
    <nd ref="117358912"/>
    <nd ref="43515551"/>
    <tag k="electrified" v="contact_line"/>
    <tag k="frequency" v="0"/>
    <tag k="gauge" v="1435"/>
    <tag k="highway" v="residential"/>
    <tag k="name" v="Fruethstraße"/>
    <tag k="note" v="sorry, aber imo sind die Gleise zum Straßenbahnmuseum railway=tram (railway=preserved sagt ja nicht aus, dass es Straßenbahngleise sind)... Kontakt: user &quot;darkweasel&quot;"/>
    <tag k="oneway" v="yes"/>
    <tag k="railway" v="tram"/>
  </way>
  <way id="5732792" version="11" timestamp="2011-07-06T07:18:21Z" uid="478912" user="Twix73" changeset="8645449"/>
  <way id="5732805" version="5" timestamp="2009-12-25T15:40:48Z" uid="58091" user="Andreas M" changeset="3448794">
    <nd ref="43515963"/>
    <nd ref="43515964"/>
    <nd ref="43515552"/>
    <tag k="highway" v="residential"/>
    <tag k="name" v="Ludwig-Koeßler-Platz"/>
    <tag k="railway" v="tram"/>
  </way>
  <way id="5732805" version="6" timestamp="2010-08-30T17:52:30Z" uid="129531" user="almich" changeset="5638503">
    <nd ref="43515963"/>
    <nd ref="43515964"/>
    <nd ref="43515552"/>
    <tag k="electrified" v="contact_line"/>
    <tag k="frequency" v="0"/>
    <tag k="gauge" v="1435"/>
    <tag k="highway" v="residential"/>
    <tag k="name" v="Ludwig-Koeßler-Platz"/>
    <tag k="railway" v="tram"/>
  </way>
  <way id="5732805" version="7" timestamp="2011-01-27T11:01:42Z" uid="321862" user="DanX" changeset="7102361">
    <nd ref="43515963"/>
    <nd ref="43515964"/>
    <nd ref="43515552"/>
    <tag k="electrified" v="contact_line"/>
    <tag k="frequency" v="0"/>
    <tag k="gauge" v="1435"/>
    <tag k="highway" v="residential"/>
    <tag k="name" v="Ludwig-Koeßler-Platz"/>
    <tag k="railway" v="preserved"/>
  </way>
  <way id="5732805" version="8" timestamp="2011-02-01T17:43:10Z" uid="67684" user="darkweasel" changeset="7157072">
    <nd ref="43515963"/>
    <nd ref="43515964"/>
    <nd ref="43515552"/>
    <tag k="electrified" v="contact_line"/>
    <tag k="frequency" v="0"/>
    <tag k="gauge" v="1435"/>
    <tag k="highway" v="residential"/>
    <tag k="name" v="Ludwig-Koeßler-Platz"/>
    <tag k="note" v="sorry, aber imo sind die Gleise zum Straßenbahnmuseum railway=tram (railway=preserved sagt ja nicht aus, dass es Straßenbahngleise sind)... Kontakt: user &quot;darkweasel&quot;"/>
    <tag k="railway" v="tram"/>
  </way>
  <way id="5732805" version="9" timestamp="2011-08-18T13:24:54Z" uid="478912" user="Twix73" changeset="9056749">
    <nd ref="43515963"/>
    <nd ref="43515964"/>
    <nd ref="43515552"/>
    <tag k="electrified" v="contact_line"/>
    <tag k="frequency" v="0"/>
    <tag k="gauge" v="1435"/>
    <tag k="highway" v="residential"/>
    <tag k="maxspeed" v="30"/>
    <tag k="name" v="Ludwig-Koeßler-Platz"/>
    <tag k="note" v="sorry, aber imo sind die Gleise zum Straßenbahnmuseum railway=tram (railway=preserved sagt ja nicht aus, dass es Straßenbahngleise sind)... Kontakt: user &quot;darkweasel&quot;"/>
    <tag k="oneway" v="yes"/>
    <tag k="railway" v="tram"/>
  </way>
  <way id="5732805" version="10" timestamp="2011-11-08T00:46:21Z" uid="129531" user="almich" changeset="9770160">
    <nd ref="43515963"/>
    <nd ref="43515964"/>
    <nd ref="43515552"/>
    <tag k="electrified" v="contact_line"/>
    <tag k="frequency" v="0"/>
    <tag k="gauge" v="1435"/>
    <tag k="highway" v="residential"/>
    <tag k="maxspeed" v="30"/>
    <tag k="name" v="Ludwig-Koeßler-Platz"/>
    <tag k="note" v="sorry, aber imo sind die Gleise zum Straßenbahnmuseum railway=tram (railway=preserved sagt ja nicht aus, dass es Straßenbahngleise sind)... Kontakt: user &quot;darkweasel&quot;"/>
    <tag k="oneway" v="yes"/>
    <tag k="railway" v="tram"/>
    <tag k="voltage" v="600"/>
  </way>
  <way id="5732805" version="11" timestamp="2011-11-29T21:05:58Z" uid="104947" user="My Friend" changeset="9992507">
    <nd ref="43515963"/>
    <nd ref="43515964"/>
    <nd ref="43515552"/>
    <tag k="highway" v="residential"/>
    <tag k="maxspeed" v="30"/>
    <tag k="name" v="Ludwig-Koeßler-Platz"/>
    <tag k="note" v="sorry, aber imo sind die Gleise zum Straßenbahnmuseum railway=tram (railway=preserved sagt ja nicht aus, dass es Straßenbahngleise sind)... Kontakt: user &quot;darkweasel&quot;"/>
    <tag k="oneway" v="yes"/>
  </way>
  <way id="5732042" version="10" timestamp="2012-07-19T23:40:45Z" uid="722137" user="OSMF Redaction Account" changeset="12351673">
    <nd ref="43496324"/>
    <nd ref="43495779"/>
    <tag k="highway" v="trunk_link"/>
  </way>
  <way id="5732068" version="7" timestamp="2012-07-19T23:40:44Z" uid="722137" user="OSMF Redaction Account" changeset="12351673">
    <nd ref="43501535"/>
    <nd ref="43502466"/>
    <nd ref="43498788"/>
    <nd ref="43500959"/>
    <nd ref="43503693"/>
    <nd ref="43503844"/>
    <nd ref="259139353"/>
    <tag k="highway" v="residential"/>
    <tag k="name" v="Gamsworthy Street"/>
  </way>
  <way id="5732131" version="6" timestamp="2012-07-19T23:40:42Z" uid="722137" user="OSMF Redaction Account" changeset="12351673">
    <nd ref="43502481"/>
    <nd ref="43503196"/>
    <nd ref="43503150"/>
    <nd ref="43503152"/>
    <nd ref="43502466"/>
    <tag k="highway" v="residential"/>
    <tag k="name" v="Mein Street"/>
  </way>
  <way id="5732142" version="6" timestamp="2012-07-19T23:40:42Z" uid="722137" user="OSMF Redaction Account" changeset="12351673">
    <nd ref="43503404"/>
    <nd ref="43503196"/>
    <tag k="highway" v="residential"/>
    <tag k="name" v="Picken Court"/>
  </way>
  <way id="5732148" version="6" timestamp="2012-07-19T23:40:41Z" uid="722137" user="OSMF Redaction Account" changeset="12351673">
    <nd ref="43500947"/>
    <nd ref="43503638"/>
    <nd ref="43503639"/>
    <tag k="highway" v="residential"/>
    <tag k="name" v="Fairbairn Street"/>
  </way>
  <way id="5732155" version="6" timestamp="2012-07-19T23:40:40Z" uid="722137" user="OSMF Redaction Account" changeset="12351673">
    <nd ref="43503693"/>
    <nd ref="43503811"/>
    <tag k="highway" v="residential"/>
    <tag k="name" v="Davey Court"/>
  </way>
  <way id="5732411" version="5" timestamp="2012-07-17T00:03:16Z" uid="722137" user="OSMF Redaction Account" changeset="12253893"/>
  <way id="5732412" version="5" timestamp="2012-07-17T00:03:16Z" uid="722137" user="OSMF Redaction Account" changeset="12253893"/>
  <way id="5732413" version="5" timestamp="2012-07-17T00:03:16Z" uid="722137" user="OSMF Redaction Account" changeset="12253893"/>
  <way id="5732415" version="5" timestamp="2012-07-17T00:03:16Z" uid="722137" user="OSMF Redaction Account" changeset="12253893"/>
  <way id="5732416" version="5" timestamp="2012-07-17T00:03:15Z" uid="722137" user="OSMF Redaction Account" changeset="12253893"/>
  <way id="5732417" version="5" timestamp="2012-07-17T00:03:16Z" uid="722137" user="OSMF Redaction Account" changeset="12253893"/>
  <way id="5732419" version="5" timestamp="2012-07-17T00:03:16Z" uid="722137" user="OSMF Redaction Account" changeset="12253893"/>
  <way id="5732422" version="8" timestamp="2012-07-17T00:03:16Z" uid="722137" user="OSMF Redaction Account" changeset="12253893"/>
  <way id="5732700" version="11" timestamp="2012-07-16T23:39:36Z" uid="722137" user="OSMF Redaction Account" changeset="12253597"/>
  <way id="5732805" version="12" timestamp="2012-08-31T10:22:25Z" uid="712596" user="AMosm" changeset="12929081">
    <nd ref="43515963"/>
    <nd ref="1891285826"/>
    <nd ref="43515964"/>
    <nd ref="1891285827"/>
    <nd ref="43515552"/>
    <tag k="highway" v="residential"/>
    <tag k="maxspeed" v="30"/>
    <tag k="name" v="Ludwig-Koeßler-Platz"/>
    <tag k="note" v="sorry, aber imo sind die Gleise zum Straßenbahnmuseum railway=tram (railway=preserved sagt ja nicht aus, dass es Straßenbahngleise sind)... Kontakt: user &quot;darkweasel&quot;"/>
    <tag k="oneway" v="yes"/>
  </way>
</osm>
