<?xml version='1.0' encoding='UTF-8'?>
<osm version="0.6" generator="libosmium/2.20.0">
  <way id="57718117" version="3" timestamp="2010-05-02T15:46:47Z" uid="43863" user="Rundling" changeset="4586510"/>
  <way id="57718119" version="3" timestamp="2010-05-04T19:33:13Z" uid="43863" user="Rundling" changeset="4607333">
    <nd ref="715587577"/>
    <nd ref="715587578"/>
    <nd ref="715587563"/>
    <nd ref="715587565"/>
    <nd ref="715587567"/>
    <nd ref="715587569"/>
    <nd ref="715587571"/>
    <nd ref="715587577"/>
    <tag k="natural" v="water"/>
  </way>
  <way id="57718119" version="4" timestamp="2010-05-09T06:36:25Z" uid="43863" user="Rundling" changeset="4645036"/>
  <way id="57718347" version="2" timestamp="2010-05-09T06:36:21Z" uid="43863" user="Rundling" changeset="4645036">
    <nd ref="715598491"/>
    <nd ref="715598634"/>
    <nd ref="715598635"/>
    <nd ref="715598639"/>
    <nd ref="715598642"/>
    <tag k="access" v="agricultural"/>
    <tag k="highway" v="track"/>
    <tag k="surface" v="ground"/>
    <tag k="tracktype" v="grade5"/>
  </way>
  <way id="57718347" version="3" timestamp="2010-05-09T10:20:33Z" uid="43863" user="Rundling" changeset="4646699">
    <nd ref="715598491"/>
    <nd ref="727298436"/>
    <nd ref="715598634"/>
    <nd ref="715598635"/>
    <nd ref="727298433"/>
    <nd ref="715598639"/>
    <nd ref="715598642"/>
    <tag k="access" v="yes"/>
    <tag k="highway" v="track"/>
    <tag k="surface" v="ground"/>
    <tag k="tracktype" v="grade3"/>
  </way>
  <way id="57718347" version="4" timestamp="2011-03-01T18:07:26Z" uid="43863" user="Rundling" changeset="7431334">
    <nd ref="1181012231"/>
    <nd ref="1181012152"/>
    <nd ref="715598491"/>
    <nd ref="727298436"/>
    <nd ref="715598634"/>
    <nd ref="715598635"/>
    <nd ref="727298433"/>
    <nd ref="715598639"/>
    <nd ref="715598642"/>
    <tag k="access" v="agricultural"/>
    <tag k="highway" v="track"/>
    <tag k="surface" v="ground"/>
    <tag k="tracktype" v="grade3"/>
  </way>
  <way id="57718553" version="1" timestamp="2010-05-01T15:48:35Z" uid="33382" user="de_muur" changeset="4576344">
    <nd ref="309678118"/>
    <nd ref="309678119"/>
    <nd ref="632379231"/>
    <nd ref="309678120"/>
    <nd ref="309678121"/>
    <nd ref="309678122"/>
    <nd ref="309678123"/>
    <nd ref="309678124"/>
    <nd ref="309678125"/>
    <nd ref="309678126"/>
    <nd ref="496199403"/>
    <nd ref="309678127"/>
    <nd ref="309678128"/>
    <nd ref="309678129"/>
    <nd ref="309678130"/>
    <nd ref="496199371"/>
    <nd ref="309678131"/>
    <nd ref="309678132"/>
    <nd ref="309678133"/>
    <nd ref="309678134"/>
    <nd ref="309678135"/>
    <nd ref="309678136"/>
    <nd ref="309678137"/>
    <nd ref="715582491"/>
    <tag k="highway" v="tertiary"/>
    <tag k="name" v="Langenlehster Straße"/>
    <tag k="ref" v="K 28"/>
    <tag k="surface" v="asphalt"/>
  </way>
  <way id="57718553" version="2" timestamp="2010-05-02T05:40:34Z" uid="33382" user="de_muur" changeset="4581223">
    <nd ref="309678118"/>
    <nd ref="309678119"/>
    <nd ref="632379231"/>
    <nd ref="309678120"/>
    <nd ref="716358264"/>
    <nd ref="309678121"/>
    <nd ref="309678122"/>
    <nd ref="309678123"/>
    <nd ref="309678124"/>
    <nd ref="309678125"/>
    <nd ref="309678126"/>
    <tag k="highway" v="tertiary"/>
    <tag k="name" v="Langenlehster Straße"/>
    <tag k="ref" v="K 28"/>
    <tag k="surface" v="asphalt"/>
  </way>
  <way id="57718553" version="3" timestamp="2010-06-24T19:15:58Z" uid="33382" user="de_muur" changeset="5068576">
    <nd ref="309678118"/>
    <nd ref="309678119"/>
    <nd ref="632379231"/>
    <nd ref="309678120"/>
    <nd ref="716358264"/>
    <nd ref="309678121"/>
    <tag k="highway" v="tertiary"/>
    <tag k="name" v="Langenlehster Straße"/>
    <tag k="ref" v="K 28"/>
    <tag k="surface" v="asphalt"/>
  </way>
  <way id="57718554" version="1" timestamp="2010-05-01T15:48:39Z" uid="33382" user="de_muur" changeset="4576344">
    <nd ref="286860466"/>
    <nd ref="286860467"/>
    <nd ref="286860468"/>
    <tag k="highway" v="secondary"/>
    <tag k="name" v="Gudower Straße"/>
    <tag k="ref" v="L 205"/>
    <tag k="surface" v="paved"/>
  </way>
  <way id="57718554" version="2" timestamp="2010-05-05T16:38:01Z" uid="33382" user="de_muur" changeset="4614434">
    <nd ref="286860466"/>
    <nd ref="286860467"/>
    <nd ref="722587215"/>
    <tag k="highway" v="secondary"/>
    <tag k="name" v="Gudower Straße"/>
    <tag k="ref" v="L 205"/>
    <tag k="surface" v="paved"/>
  </way>
  <way id="57718554" version="3" timestamp="2011-04-29T06:33:09Z" uid="33382" user="de_muur" changeset="8000731">
    <nd ref="286860466"/>
    <nd ref="286860467"/>
    <nd ref="722587215"/>
    <tag k="cyvleway" v="track"/>
    <tag k="highway" v="secondary"/>
    <tag k="name" v="Gudower Straße"/>
    <tag k="ref" v="L 205"/>
    <tag k="surface" v="paved"/>
  </way>
  <way id="57718554" version="4" timestamp="2011-05-01T15:41:59Z" uid="33382" user="de_muur" changeset="8022460">
    <nd ref="286860466"/>
    <nd ref="286860467"/>
    <nd ref="722587215"/>
    <tag k="cycleway" v="track"/>
    <tag k="highway" v="secondary"/>
    <tag k="name" v="Gudower Straße"/>
    <tag k="ref" v="L 205"/>
    <tag k="surface" v="paved"/>
  </way>
  <way id="57718554" version="5" timestamp="2012-03-30T10:37:59Z" uid="46145" user="Jacques_N" changeset="11151050"/>
  <way id="57718555" version="1" timestamp="2010-05-01T15:48:39Z" uid="33382" user="de_muur" changeset="4576344">
    <nd ref="413495281"/>
    <nd ref="413495282"/>
    <tag k="highway" v="residential"/>
    <tag k="name" v="Raiffeisenstraße"/>
    <tag k="surface" v="paved"/>
  </way>
  <way id="57718556" version="1" timestamp="2010-05-01T15:48:39Z" uid="33382" user="de_muur" changeset="4576344">
    <nd ref="715608551"/>
    <nd ref="271395250"/>
    <tag k="highway" v="secondary"/>
    <tag k="maxspeed" v="50"/>
    <tag k="name" v="Gudower Straße"/>
    <tag k="ref" v="L 205"/>
    <tag k="surface" v="paved"/>
  </way>
  <way id="57718557" version="1" timestamp="2010-05-01T15:48:39Z" uid="33382" user="de_muur" changeset="4576344">
    <nd ref="413495323"/>
    <nd ref="444383946"/>
    <nd ref="261690765"/>
    <nd ref="261690766"/>
    <nd ref="271395257"/>
    <tag k="highway" v="secondary"/>
    <tag k="name" v="Pötrauer Straße"/>
    <tag k="ref" v="L 205"/>
    <tag k="surface" v="paved"/>
  </way>
  <way id="57718557" version="2" timestamp="2010-05-02T05:40:34Z" uid="33382" user="de_muur" changeset="4581223">
    <nd ref="413495323"/>
    <nd ref="444383946"/>
    <nd ref="261690765"/>
    <nd ref="261690766"/>
    <nd ref="271395257"/>
    <tag k="highway" v="secondary"/>
    <tag k="maxspeed" v="50"/>
    <tag k="name" v="Pötrauer Straße"/>
    <tag k="ref" v="L 205"/>
    <tag k="surface" v="paved"/>
  </way>
  <way id="57718558" version="1" timestamp="2010-05-01T15:48:39Z" uid="33382" user="de_muur" changeset="4576344">
    <nd ref="413495281"/>
    <nd ref="715608548"/>
    <nd ref="715608551"/>
    <tag k="highway" v="footway"/>
  </way>
  <way id="57718559" version="1" timestamp="2010-05-01T15:48:40Z" uid="33382" user="de_muur" changeset="4576344">
    <nd ref="715608552"/>
    <nd ref="413495279"/>
    <tag k="highway" v="secondary"/>
    <tag k="maxspeed" v="50"/>
    <tag k="name" v="Gudower Straße"/>
    <tag k="ref" v="L 205"/>
    <tag k="surface" v="paved"/>
  </way>
  <way id="57718560" version="1" timestamp="2010-05-01T15:48:40Z" uid="33382" user="de_muur" changeset="4576344">
    <nd ref="496199320"/>
    <nd ref="496199411"/>
    <nd ref="496199413"/>
    <nd ref="496199416"/>
    <nd ref="496199419"/>
    <nd ref="496199422"/>
    <tag k="highway" v="residential"/>
    <tag k="name" v="Schwanheider Weg"/>
  </way>
  <way id="57718560" version="2" timestamp="2010-06-12T18:47:33Z" uid="164005" user="danceswithticks" changeset="4972815">
    <nd ref="496199320"/>
    <nd ref="496199411"/>
    <nd ref="496199413"/>
    <nd ref="496199416"/>
    <nd ref="496199419"/>
    <nd ref="496199422"/>
    <nd ref="770377055"/>
    <tag k="highway" v="residential"/>
    <tag k="name" v="Schwanheider Weg"/>
  </way>
  <way id="57718560" version="3" timestamp="2011-04-30T06:33:23Z" uid="33382" user="de_muur" changeset="8008934">
    <nd ref="496199320"/>
    <nd ref="496199411"/>
    <nd ref="496199413"/>
    <nd ref="496199416"/>
    <nd ref="496199419"/>
    <nd ref="496199422"/>
    <tag k="highway" v="residential"/>
    <tag k="name" v="Schwanheider Weg"/>
    <tag k="surface" v="paved"/>
  </way>
  <way id="57718560" version="4" timestamp="2011-04-30T06:45:05Z" uid="33382" user="de_muur" changeset="8008989">
    <nd ref="496199320"/>
    <nd ref="496199411"/>
    <nd ref="496199413"/>
    <nd ref="496199416"/>
    <nd ref="496199419"/>
    <nd ref="496199422"/>
    <tag k="highway" v="residential"/>
    <tag k="maxspeed" v="30"/>
    <tag k="name" v="Schwanheider Weg"/>
    <tag k="surface" v="paved"/>
  </way>
  <way id="57718560" version="5" timestamp="2012-03-30T10:37:59Z" uid="46145" user="Jacques_N" changeset="11151050"/>
  <way id="57718561" version="1" timestamp="2010-05-01T15:48:40Z" uid="33382" user="de_muur" changeset="4576344">
    <nd ref="496199405"/>
    <nd ref="496199268"/>
    <nd ref="286860465"/>
    <nd ref="286860466"/>
    <tag k="highway" v="secondary"/>
    <tag k="maxspeed" v="50"/>
    <tag k="name" v="Gudower Straße"/>
    <tag k="ref" v="L 205"/>
    <tag k="surface" v="paved"/>
  </way>
  <way id="57718561" version="2" timestamp="2011-04-29T06:33:13Z" uid="33382" user="de_muur" changeset="8000731">
    <nd ref="496199405"/>
    <nd ref="496199268"/>
    <nd ref="286860465"/>
    <nd ref="286860466"/>
    <tag k="cyvleway" v="track"/>
    <tag k="highway" v="secondary"/>
    <tag k="maxspeed" v="50"/>
    <tag k="name" v="Gudower Straße"/>
    <tag k="ref" v="L 205"/>
    <tag k="surface" v="paved"/>
  </way>
  <way id="57718561" version="3" timestamp="2011-04-30T06:45:06Z" uid="33382" user="de_muur" changeset="8008989">
    <nd ref="496199268"/>
    <nd ref="286860465"/>
    <nd ref="286860466"/>
    <tag k="cyvleway" v="track"/>
    <tag k="highway" v="secondary"/>
    <tag k="maxspeed" v="50"/>
    <tag k="name" v="Gudower Straße"/>
    <tag k="ref" v="L 205"/>
    <tag k="surface" v="paved"/>
  </way>
  <way id="57718561" version="4" timestamp="2011-05-01T15:42:01Z" uid="33382" user="de_muur" changeset="8022460">
    <nd ref="496199268"/>
    <nd ref="286860465"/>
    <nd ref="286860466"/>
    <tag k="cycleway" v="track"/>
    <tag k="highway" v="secondary"/>
    <tag k="maxspeed" v="50"/>
    <tag k="name" v="Gudower Straße"/>
    <tag k="ref" v="L 205"/>
    <tag k="surface" v="paved"/>
  </way>
  <way id="57718561" version="5" timestamp="2012-03-30T10:37:59Z" uid="46145" user="Jacques_N" changeset="11151050"/>
  <way id="57718347" version="5" timestamp="2012-07-18T16:50:04Z" uid="722137" user="OSMF Redaction Account" changeset="12289523">
    <nd ref="715598491"/>
    <nd ref="715598634"/>
    <nd ref="715598635"/>
    <nd ref="715598639"/>
    <nd ref="715598642"/>
    <tag k="access" v="unknown"/>
    <tag k="highway" v="track"/>
    <tag k="surface" v="ground"/>
    <tag k="tracktype" v="grade3"/>
  </way>
  <way id="57718347" version="6" timestamp="2012-07-23T22:41:46Z" uid="51324" user="OPerivar" changeset="12457750">
    <nd ref="715598491"/>
    <nd ref="715598634"/>
    <nd ref="715598635"/>
    <nd ref="715598639"/>
    <nd ref="1835917569"/>
    <tag k="access" v="unknown"/>
    <tag k="highway" v="track"/>
    <tag k="surface" v="ground"/>
    <tag k="tracktype" v="grade3"/>
  </way>
  <way id="57718553" version="4" timestamp="2012-04-20T18:36:13Z" uid="63107" user="brogo" changeset="11367066"/>
  <way id="57718555" version="2" timestamp="2012-07-17T07:38:42Z" uid="722137" user="OSMF Redaction Account" changeset="12259629"/>
  <way id="57718556" version="2" timestamp="2012-04-12T20:32:32Z" uid="63107" user="brogo" changeset="11281017"/>
  <way id="57718557" version="3" timestamp="2012-04-12T20:32:35Z" uid="63107" user="brogo" changeset="11281017"/>
  <way id="57718558" version="2" timestamp="2012-04-12T20:32:20Z" uid="63107" user="brogo" changeset="11281017">
    <nd ref="413495281"/>
    <nd ref="715608548"/>
    <nd ref="1713285230"/>
    <tag k="highway" v="footway"/>
  </way>
  <way id="57718558" version="3" timestamp="2012-07-17T07:38:42Z" uid="722137" user="OSMF Redaction Account" changeset="12259629"/>
  <way id="57718559" version="2" timestamp="2012-04-12T20:32:31Z" uid="63107" user="brogo" changeset="11281017"/>
</osm>
