<?xml version='1.0' encoding='UTF-8'?>
<osm version="0.6" generator="libosmium/2.20.0">
  <way id="57728185" version="1" timestamp="2010-05-01T17:49:19Z" uid="151899" user="Bikeman2000" changeset="4577638">
    <nd ref="715749841"/>
    <nd ref="715749843"/>
    <nd ref="715749844"/>
    <nd ref="715749846"/>
    <nd ref="715749847"/>
    <nd ref="715749848"/>
    <nd ref="715749850"/>
    <nd ref="715749851"/>
    <nd ref="715749852"/>
    <nd ref="715749854"/>
    <nd ref="715749841"/>
    <tag k="natural" v="scrub"/>
  </way>
  <way id="57728185" version="2" timestamp="2011-04-10T00:04:37Z" uid="385765" user="gruensucher" changeset="7818497">
    <nd ref="715749841"/>
    <nd ref="1239329277"/>
    <nd ref="1239329386"/>
    <nd ref="715749843"/>
    <nd ref="715749844"/>
    <nd ref="715749846"/>
    <nd ref="715749847"/>
    <nd ref="715749848"/>
    <nd ref="715749850"/>
    <nd ref="715749851"/>
    <nd ref="715749852"/>
    <nd ref="715749854"/>
    <nd ref="715749841"/>
    <tag k="natural" v="scrub"/>
  </way>
  <way id="57728185" version="3" timestamp="2011-12-31T14:44:50Z" uid="12614" user="rabenkind" changeset="10255397"/>
  <way id="57728567" version="1" timestamp="2010-05-01T17:57:07Z" uid="20587" user="balrog-kun" changeset="4577705">
    <nd ref="308767319"/>
    <nd ref="32329832"/>
    <tag k="highway" v="secondary"/>
    <tag k="lanes" v="5"/>
    <tag k="name" v="Franciszka Żwirki i Stanisława Wigury"/>
    <tag k="oneway" v="yes"/>
    <tag k="ref" v="634"/>
  </way>
  <way id="57728567" version="2" timestamp="2011-11-14T18:17:03Z" uid="550476" user="fishcrosser" changeset="9827086">
    <nd ref="32329828"/>
    <nd ref="308767316"/>
    <nd ref="32573084"/>
    <nd ref="308767325"/>
    <nd ref="308767323"/>
    <nd ref="715755580"/>
    <nd ref="308767317"/>
    <nd ref="715755698"/>
    <nd ref="308767319"/>
    <nd ref="32329832"/>
    <tag k="highway" v="secondary"/>
    <tag k="lanes" v="5; 3"/>
    <tag k="name" v="Franciszka Żwirki i Stanisława Wigury"/>
    <tag k="oneway" v="yes"/>
    <tag k="ref" v="634"/>
  </way>
  <way id="57728568" version="1" timestamp="2010-05-01T17:57:07Z" uid="20587" user="balrog-kun" changeset="4577705">
    <nd ref="32329828"/>
    <nd ref="308767316"/>
    <nd ref="32573084"/>
    <nd ref="308767325"/>
    <nd ref="308767323"/>
    <nd ref="715755580"/>
    <nd ref="308767317"/>
    <nd ref="715755698"/>
    <nd ref="308767319"/>
    <tag k="highway" v="secondary"/>
    <tag k="lanes" v="3"/>
    <tag k="name" v="Franciszka Żwirki i Stanisława Wigury"/>
    <tag k="oneway" v="yes"/>
    <tag k="ref" v="634"/>
  </way>
  <way id="57728568" version="2" timestamp="2011-11-14T18:17:31Z" uid="550476" user="fishcrosser" changeset="9827086"/>
  <way id="57728569" version="1" timestamp="2010-05-01T17:57:07Z" uid="20587" user="balrog-kun" changeset="4577705">
    <nd ref="715755551"/>
    <nd ref="715755614"/>
    <nd ref="715755537"/>
    <nd ref="715755679"/>
    <nd ref="715755618"/>
    <nd ref="715755672"/>
    <nd ref="715755649"/>
    <nd ref="715755638"/>
    <nd ref="715755586"/>
    <nd ref="715755579"/>
    <nd ref="715755558"/>
    <nd ref="715755667"/>
    <nd ref="715755569"/>
    <nd ref="715755561"/>
    <nd ref="715755571"/>
    <nd ref="715755684"/>
    <nd ref="715755623"/>
    <nd ref="715755551"/>
    <tag k="amenity" v="parking"/>
  </way>
  <way id="57728570" version="1" timestamp="2010-05-01T17:57:07Z" uid="20587" user="balrog-kun" changeset="4577705">
    <nd ref="715755546"/>
    <nd ref="715755635"/>
    <tag k="highway" v="service"/>
  </way>
  <way id="57728571" version="1" timestamp="2010-05-01T17:57:07Z" uid="20587" user="balrog-kun" changeset="4577705">
    <nd ref="715755588"/>
    <nd ref="715755621"/>
    <nd ref="715755544"/>
    <nd ref="715755560"/>
    <nd ref="715755588"/>
    <tag k="building" v="yes"/>
    <tag k="building:levels" v="1"/>
  </way>
  <way id="57728572" version="1" timestamp="2010-05-01T17:57:08Z" uid="20587" user="balrog-kun" changeset="4577705">
    <nd ref="308197306"/>
    <nd ref="448040990"/>
    <nd ref="32329829"/>
    <tag k="highway" v="primary"/>
    <tag k="int_ref" v="E 30"/>
    <tag k="lanes" v="4"/>
    <tag k="maxspeed" v="80"/>
    <tag k="name" v="Wawelska"/>
    <tag k="oneway" v="yes"/>
    <tag k="ref" v="2"/>
    <tag k="wikipedia" v="pl:Ulica Wawelska w Warszawie"/>
  </way>
  <way id="57728573" version="1" timestamp="2010-05-01T17:57:08Z" uid="20587" user="balrog-kun" changeset="4577705">
    <nd ref="715755650"/>
    <nd ref="715755700"/>
    <nd ref="715755630"/>
    <tag k="highway" v="service"/>
  </way>
  <way id="57728574" version="1" timestamp="2010-05-01T17:57:08Z" uid="20587" user="balrog-kun" changeset="4577705">
    <nd ref="715755538"/>
    <nd ref="715755564"/>
    <nd ref="715755604"/>
    <nd ref="715755688"/>
    <nd ref="715755642"/>
    <nd ref="715755675"/>
    <nd ref="715755644"/>
    <nd ref="715755556"/>
    <nd ref="715755536"/>
    <nd ref="715755578"/>
    <nd ref="715755677"/>
    <nd ref="715755653"/>
    <nd ref="312053395"/>
    <nd ref="715755613"/>
    <nd ref="715755538"/>
    <tag k="addr:housenumber" v="7"/>
    <tag k="addr:street" v="Mikołaja Reja"/>
    <tag k="building" v="yes"/>
    <tag k="building:levels" v="5"/>
  </way>
  <way id="57728575" version="1" timestamp="2010-05-01T17:57:08Z" uid="20587" user="balrog-kun" changeset="4577705">
    <nd ref="715755682"/>
    <nd ref="715755559"/>
    <nd ref="715755671"/>
    <tag k="highway" v="service"/>
  </way>
  <way id="57728576" version="1" timestamp="2010-05-01T17:57:08Z" uid="20587" user="balrog-kun" changeset="4577705">
    <nd ref="715755585"/>
    <nd ref="715755545"/>
    <nd ref="715755531"/>
    <nd ref="715755661"/>
    <nd ref="715755555"/>
    <nd ref="715755603"/>
    <nd ref="312053513"/>
    <nd ref="316886345"/>
    <nd ref="715755575"/>
    <nd ref="715755652"/>
    <nd ref="715755587"/>
    <nd ref="715755620"/>
    <nd ref="715755601"/>
    <nd ref="715755631"/>
    <nd ref="715755590"/>
    <nd ref="715755546"/>
    <nd ref="715755628"/>
    <nd ref="715755647"/>
    <nd ref="715755624"/>
    <nd ref="715755599"/>
    <nd ref="715755639"/>
    <nd ref="715755701"/>
    <nd ref="715755554"/>
    <nd ref="715755600"/>
    <nd ref="715755625"/>
    <nd ref="715755674"/>
    <nd ref="715755609"/>
    <nd ref="715755663"/>
    <nd ref="715755678"/>
    <nd ref="715755656"/>
    <nd ref="316886348"/>
    <nd ref="715755691"/>
    <nd ref="715755567"/>
    <nd ref="715755573"/>
    <nd ref="715755615"/>
    <nd ref="715755550"/>
    <nd ref="715755568"/>
    <nd ref="715755695"/>
    <nd ref="715755549"/>
    <nd ref="715755593"/>
    <nd ref="715755540"/>
    <nd ref="715755685"/>
    <nd ref="715755651"/>
    <nd ref="715755541"/>
    <nd ref="715755655"/>
    <nd ref="715755553"/>
    <nd ref="715755548"/>
    <nd ref="715755669"/>
    <nd ref="715755597"/>
    <nd ref="715755634"/>
    <nd ref="715755585"/>
    <tag k="addr:housenumber" v="3/5"/>
    <tag k="addr:street" v="Mikołaja Reja"/>
    <tag k="building" v="yes"/>
    <tag k="building:levels" v="6"/>
    <tag k="name" v="Ministerstwo Środowiska"/>
    <tag k="wikipedia" v="pl:Ministerstwo Środowiska"/>
  </way>
  <way id="57728577" version="1" timestamp="2010-05-01T17:57:09Z" uid="20587" user="balrog-kun" changeset="4577705">
    <nd ref="715755543"/>
    <nd ref="715755553"/>
    <tag k="highway" v="service"/>
  </way>
  <way id="57728578" version="1" timestamp="2010-05-01T17:57:09Z" uid="20587" user="balrog-kun" changeset="4577705">
    <nd ref="715755683"/>
    <nd ref="715755696"/>
    <nd ref="715755543"/>
    <nd ref="312053527"/>
    <nd ref="32048669"/>
    <tag k="highway" v="residential"/>
    <tag k="lanes" v="1"/>
    <tag k="name" v="Mikołaja Reja"/>
  </way>
  <way id="57728579" version="1" timestamp="2010-05-01T17:57:09Z" uid="20587" user="balrog-kun" changeset="4577705">
    <nd ref="715755553"/>
    <nd ref="715755546"/>
    <tag k="highway" v="service"/>
    <tag k="tunnel" v="yes"/>
  </way>
  <way id="57728580" version="1" timestamp="2010-05-01T17:57:09Z" uid="20587" user="balrog-kun" changeset="4577705">
    <nd ref="32329841"/>
    <nd ref="715755650"/>
    <nd ref="30901477"/>
    <nd ref="30901474"/>
    <nd ref="30901471"/>
    <nd ref="213959230"/>
    <nd ref="32049365"/>
    <nd ref="32049364"/>
    <nd ref="560634848"/>
    <nd ref="30901470"/>
    <nd ref="32605669"/>
    <nd ref="29274142"/>
    <nd ref="248557741"/>
    <nd ref="32605675"/>
    <nd ref="29274141"/>
    <nd ref="32049226"/>
    <nd ref="32049224"/>
    <nd ref="32049231"/>
    <tag k="highway" v="secondary"/>
    <tag k="lanes" v="2"/>
    <tag k="name" v="Franciszka Żwirki i Stanisława Wigury"/>
    <tag k="oneway" v="yes"/>
    <tag k="ref" v="634"/>
  </way>
  <way id="57728580" version="2" timestamp="2010-06-23T02:27:11Z" uid="20587" user="balrog-kun" changeset="5056010">
    <nd ref="32329841"/>
    <nd ref="715755650"/>
    <nd ref="30901477"/>
    <nd ref="30901474"/>
    <nd ref="30901471"/>
    <nd ref="213959230"/>
    <nd ref="32049365"/>
    <nd ref="32049364"/>
    <nd ref="560634848"/>
    <nd ref="30901470"/>
    <nd ref="32605669"/>
    <nd ref="29274142"/>
    <nd ref="248557741"/>
    <nd ref="32605675"/>
    <nd ref="29274141"/>
    <nd ref="783649758"/>
    <nd ref="32049226"/>
    <nd ref="32049224"/>
    <nd ref="783649789"/>
    <nd ref="32049231"/>
    <tag k="highway" v="secondary"/>
    <tag k="lanes" v="2"/>
    <tag k="name" v="Franciszka Żwirki i Stanisława Wigury"/>
    <tag k="oneway" v="yes"/>
    <tag k="ref" v="634"/>
  </way>
  <way id="57728580" version="3" timestamp="2010-06-24T02:51:44Z" uid="20587" user="balrog-kun" changeset="5063204">
    <nd ref="32329841"/>
    <nd ref="715755650"/>
    <nd ref="30901477"/>
    <nd ref="30901474"/>
    <nd ref="30901471"/>
    <nd ref="213959230"/>
    <nd ref="32049365"/>
    <nd ref="32049364"/>
    <nd ref="560634848"/>
    <nd ref="30901470"/>
    <nd ref="32605669"/>
    <nd ref="29274142"/>
    <nd ref="248557741"/>
    <nd ref="32605675"/>
    <nd ref="29274141"/>
    <nd ref="783649758"/>
    <nd ref="32049226"/>
    <nd ref="32049224"/>
    <nd ref="783649789"/>
    <nd ref="786449227"/>
    <nd ref="786449299"/>
    <nd ref="32049231"/>
    <tag k="highway" v="secondary"/>
    <tag k="lanes" v="2"/>
    <tag k="name" v="Franciszka Żwirki i Stanisława Wigury"/>
    <tag k="oneway" v="yes"/>
    <tag k="ref" v="634"/>
  </way>
  <way id="57728580" version="4" timestamp="2011-05-05T21:46:17Z" uid="100448" user="kietlak" changeset="8061400">
    <nd ref="32329841"/>
    <nd ref="715755650"/>
    <nd ref="30901477"/>
    <nd ref="30901474"/>
    <nd ref="30901471"/>
    <nd ref="213959230"/>
    <nd ref="32049365"/>
    <nd ref="32049364"/>
    <nd ref="560634848"/>
    <nd ref="30901470"/>
    <nd ref="32605669"/>
    <nd ref="29274142"/>
    <nd ref="248557741"/>
    <nd ref="32605675"/>
    <nd ref="29274141"/>
    <nd ref="783649758"/>
    <nd ref="32049226"/>
    <nd ref="32049224"/>
    <nd ref="783649789"/>
    <nd ref="1273635235"/>
    <nd ref="786449227"/>
    <nd ref="786449299"/>
    <nd ref="32049231"/>
    <tag k="highway" v="secondary"/>
    <tag k="lanes" v="2"/>
    <tag k="name" v="Franciszka Żwirki i Stanisława Wigury"/>
    <tag k="oneway" v="yes"/>
    <tag k="ref" v="634"/>
  </way>
  <way id="57728580" version="5" timestamp="2011-10-07T13:37:21Z" uid="99386" user="masti" changeset="9494062">
    <nd ref="32329841"/>
    <nd ref="715755650"/>
    <nd ref="30901477"/>
    <nd ref="30901474"/>
    <nd ref="30901471"/>
    <nd ref="213959230"/>
    <nd ref="32049365"/>
    <nd ref="32049364"/>
    <nd ref="560634848"/>
    <nd ref="30901470"/>
    <nd ref="32605669"/>
    <nd ref="29274142"/>
    <nd ref="248557741"/>
    <nd ref="32605675"/>
    <nd ref="29274141"/>
    <nd ref="783649758"/>
    <nd ref="32049226"/>
    <nd ref="32049224"/>
    <nd ref="783649789"/>
    <nd ref="1273635235"/>
    <nd ref="1457694025"/>
    <nd ref="786449227"/>
    <nd ref="786449299"/>
    <nd ref="32049231"/>
    <tag k="highway" v="secondary"/>
    <tag k="lanes" v="2"/>
    <tag k="name" v="Franciszka Żwirki i Stanisława Wigury"/>
    <tag k="oneway" v="yes"/>
    <tag k="ref" v="634"/>
  </way>
  <way id="57728580" version="6" timestamp="2012-01-25T14:53:53Z" uid="99386" user="masti" changeset="10494353">
    <nd ref="32329841"/>
    <nd ref="715755650"/>
    <nd ref="30901477"/>
    <nd ref="30901474"/>
    <nd ref="30901471"/>
    <nd ref="213959230"/>
    <nd ref="32049365"/>
    <nd ref="32049364"/>
    <nd ref="560634848"/>
    <nd ref="30901470"/>
    <nd ref="32605669"/>
    <nd ref="29274142"/>
    <nd ref="248557741"/>
    <nd ref="32605675"/>
    <nd ref="1604999740"/>
    <nd ref="29274141"/>
    <nd ref="783649758"/>
    <nd ref="32049226"/>
    <nd ref="32049224"/>
    <nd ref="783649789"/>
    <nd ref="1273635235"/>
    <nd ref="1457694025"/>
    <nd ref="786449227"/>
    <nd ref="786449299"/>
    <nd ref="32049231"/>
    <tag k="highway" v="secondary"/>
    <tag k="lanes" v="2"/>
    <tag k="name" v="Franciszka Żwirki i Stanisława Wigury"/>
    <tag k="oneway" v="yes"/>
    <tag k="ref" v="634"/>
  </way>
  <way id="57728581" version="1" timestamp="2010-05-01T17:57:09Z" uid="20587" user="balrog-kun" changeset="4577705">
    <nd ref="32329832"/>
    <nd ref="415948010"/>
    <nd ref="32329829"/>
    <tag k="highway" v="secondary"/>
    <tag k="lanes" v="3"/>
    <tag k="name" v="Franciszka Żwirki i Stanisława Wigury"/>
    <tag k="oneway" v="yes"/>
    <tag k="ref" v="634"/>
  </way>
  <way id="57728582" version="1" timestamp="2010-05-01T17:57:09Z" uid="20587" user="balrog-kun" changeset="4577705">
    <nd ref="32329832"/>
    <nd ref="715755582"/>
    <nd ref="715755595"/>
    <nd ref="715755659"/>
    <nd ref="715755629"/>
    <tag k="highway" v="secondary"/>
    <tag k="lanes" v="2"/>
    <tag k="oneway" v="yes"/>
  </way>
  <way id="57728582" version="2" timestamp="2011-05-20T19:24:24Z" uid="98542" user="wajak" changeset="8201474">
    <nd ref="32329832"/>
    <nd ref="1293741204"/>
    <nd ref="715755582"/>
    <nd ref="715755595"/>
    <nd ref="715755659"/>
    <nd ref="715755629"/>
    <tag k="highway" v="secondary"/>
    <tag k="lanes" v="2"/>
    <tag k="oneway" v="yes"/>
  </way>
  <way id="57728582" version="3" timestamp="2011-09-28T11:31:23Z" uid="378614" user="Curdeius" changeset="9418789">
    <nd ref="32329832"/>
    <nd ref="1293741204"/>
    <nd ref="715755582"/>
    <nd ref="715755595"/>
    <nd ref="715755659"/>
    <nd ref="715755629"/>
    <tag k="highway" v="secondary_link"/>
    <tag k="lanes" v="2"/>
    <tag k="oneway" v="yes"/>
  </way>
  <way id="57728583" version="1" timestamp="2010-05-01T17:57:09Z" uid="20587" user="balrog-kun" changeset="4577705">
    <nd ref="32329829"/>
    <nd ref="715755629"/>
    <nd ref="254451733"/>
    <nd ref="27167008"/>
    <nd ref="27167006"/>
    <nd ref="27167004"/>
    <tag k="highway" v="primary"/>
    <tag k="int_ref" v="E 30"/>
    <tag k="lanes" v="3"/>
    <tag k="maxspeed" v="80"/>
    <tag k="name" v="Wawelska"/>
    <tag k="oneway" v="yes"/>
    <tag k="ref" v="2"/>
    <tag k="wikipedia" v="pl:Ulica Wawelska w Warszawie"/>
  </way>
  <way id="57728583" version="2" timestamp="2010-10-13T15:27:50Z" uid="88909" user="miko101" changeset="6029995">
    <nd ref="32329829"/>
    <nd ref="715755629"/>
    <nd ref="254451733"/>
    <nd ref="27167008"/>
    <nd ref="27167006"/>
    <nd ref="27167004"/>
    <tag k="highway" v="trunk"/>
    <tag k="int_ref" v="E 30"/>
    <tag k="lanes" v="3"/>
    <tag k="maxspeed" v="80"/>
    <tag k="name" v="Wawelska"/>
    <tag k="note" v="WAZNE: Trasa ma więcej węzłów niż skrzyżowań stąd klasa trunk"/>
    <tag k="oneway" v="yes"/>
    <tag k="ref" v="2"/>
    <tag k="wikipedia" v="pl:Ulica Wawelska w Warszawie"/>
  </way>
  <way id="57728583" version="3" timestamp="2011-01-28T22:25:31Z" uid="218335" user="PKP" changeset="7117861">
    <nd ref="32329829"/>
    <nd ref="715755629"/>
    <nd ref="254451733"/>
    <nd ref="27167008"/>
    <nd ref="27167006"/>
    <nd ref="27167004"/>
    <tag k="highway" v="primary"/>
    <tag k="int_ref" v="E 30"/>
    <tag k="lanes" v="3"/>
    <tag k="maxspeed" v="80"/>
    <tag k="name" v="Wawelska"/>
    <tag k="note" v="WAZNE: Trasa ma więcej węzłów niż skrzyżowań stąd klasa trunk"/>
    <tag k="oneway" v="yes"/>
    <tag k="ref" v="2"/>
    <tag k="wikipedia" v="pl:Ulica Wawelska w Warszawie"/>
  </way>
  <way id="57728583" version="4" timestamp="2011-09-20T00:45:06Z" uid="475943" user="sir-mapalot" changeset="9347709">
    <nd ref="32329829"/>
    <nd ref="715755629"/>
    <nd ref="254451733"/>
    <nd ref="1437918399"/>
    <nd ref="27167008"/>
    <nd ref="27167006"/>
    <nd ref="27167004"/>
    <tag k="highway" v="primary"/>
    <tag k="int_ref" v="E 30"/>
    <tag k="lanes" v="3"/>
    <tag k="maxspeed" v="80"/>
    <tag k="name" v="Wawelska"/>
    <tag k="note" v="WAZNE: Trasa ma więcej węzłów niż skrzyżowań stąd klasa trunk"/>
    <tag k="oneway" v="yes"/>
    <tag k="ref" v="2"/>
    <tag k="wikipedia" v="pl:Ulica Wawelska w Warszawie"/>
  </way>
  <way id="57728580" version="7" timestamp="2012-06-20T13:00:54Z" uid="99386" user="masti" changeset="11958565">
    <nd ref="32329841"/>
    <nd ref="715755650"/>
    <nd ref="30901477"/>
    <nd ref="30901474"/>
    <nd ref="30901471"/>
    <nd ref="213959230"/>
    <nd ref="32049365"/>
    <nd ref="32049364"/>
    <nd ref="1795627667"/>
    <nd ref="560634848"/>
    <nd ref="30901470"/>
    <nd ref="32605669"/>
    <nd ref="29274142"/>
    <nd ref="248557741"/>
    <nd ref="32605675"/>
    <nd ref="1604999740"/>
    <nd ref="29274141"/>
    <nd ref="783649758"/>
    <nd ref="32049226"/>
    <nd ref="32049224"/>
    <nd ref="783649789"/>
    <nd ref="1273635235"/>
    <nd ref="1457694025"/>
    <nd ref="786449227"/>
    <nd ref="786449299"/>
    <nd ref="32049231"/>
    <tag k="highway" v="secondary"/>
    <tag k="lanes" v="2"/>
    <tag k="name" v="Franciszka Żwirki i Stanisława Wigury"/>
    <tag k="oneway" v="yes"/>
    <tag k="ref" v="634"/>
  </way>
  <way id="57728583" version="5" timestamp="2012-09-04T12:05:48Z" uid="407593" user="Polanin" changeset="12980656">
    <nd ref="32329829"/>
    <nd ref="715755629"/>
    <nd ref="254451733"/>
    <nd ref="1437918399"/>
    <nd ref="27167008"/>
    <nd ref="27167006"/>
    <nd ref="27167004"/>
    <tag k="highway" v="primary"/>
    <tag k="int_ref" v="E 30"/>
    <tag k="lanes" v="3"/>
    <tag k="maxspeed" v="80"/>
    <tag k="maxweight" v="10"/>
    <tag k="name" v="Wawelska"/>
    <tag k="note" v="WAZNE: Trasa ma więcej węzłów niż skrzyżowań stąd klasa trunk"/>
    <tag k="oneway" v="yes"/>
    <tag k="ref" v="2"/>
    <tag k="wikipedia" v="pl:Ulica Wawelska w Warszawie"/>
  </way>
</osm>
