<?xml version='1.0' encoding='UTF-8'?>
<osm version="0.6" generator="libosmium/2.20.0">
  <way id="57761203" version="2" timestamp="2010-07-26T02:17:28Z" uid="4467" user="Rosscoe" changeset="5317875">
    <nd ref="476418191"/>
    <nd ref="476418225"/>
    <tag k="bridge" v="yes"/>
    <tag k="layer" v="1"/>
    <tag k="name" v="Ararat Line"/>
    <tag k="railway" v="rail"/>
  </way>
  <way id="57761203" version="3" timestamp="2011-11-02T11:37:50Z" uid="42429" user="FK270673" changeset="9720992">
    <nd ref="476418191"/>
    <nd ref="476418225"/>
    <tag k="bridge" v="yes"/>
    <tag k="electrified" v="no"/>
    <tag k="gauge" v="1600"/>
    <tag k="layer" v="1"/>
    <tag k="name" v="Ararat Line"/>
    <tag k="railway" v="rail"/>
  </way>
  <way id="57761203" version="4" timestamp="2012-07-19T17:12:46Z" uid="722137" user="OSMF Redaction Account" changeset="12341356">
    <nd ref="476418191"/>
    <nd ref="476418225"/>
    <tag k="bridge" v="yes"/>
    <tag k="electrified" v="no"/>
    <tag k="gauge" v="1600"/>
    <tag k="name" v="Ararat Line"/>
    <tag k="railway" v="rail"/>
  </way>
</osm>
