<?xml version='1.0' encoding='UTF-8'?>
<osm version="0.6" generator="libosmium/2.20.0">
  <way id="57920062" version="1" timestamp="2010-05-03T13:02:56Z" uid="33382" user="de_muur" changeset="4594619">
    <nd ref="269382544"/>
    <nd ref="471113957"/>
    <nd ref="269382546"/>
    <nd ref="471113958"/>
    <nd ref="269382547"/>
    <nd ref="354410495"/>
    <nd ref="269382548"/>
    <nd ref="269382549"/>
    <tag k="cycleway" v="track"/>
    <tag k="highway" v="primary"/>
    <tag k="maxspeed" v="50"/>
    <tag k="name" v="Kerntangente"/>
    <tag k="surface" v="paved"/>
  </way>
  <way id="57920062" version="2" timestamp="2010-05-03T13:08:37Z" uid="33382" user="de_muur" changeset="4594685">
    <nd ref="269382544"/>
    <nd ref="471113957"/>
    <nd ref="269382546"/>
    <nd ref="471113958"/>
    <nd ref="269382547"/>
    <nd ref="354410495"/>
    <tag k="cycleway" v="track"/>
    <tag k="highway" v="primary"/>
    <tag k="maxspeed" v="50"/>
    <tag k="name" v="Kerntangente"/>
    <tag k="surface" v="paved"/>
  </way>
  <way id="57920062" version="3" timestamp="2011-05-13T13:50:23Z" uid="113113" user="zubenelakrab" changeset="8131799">
    <nd ref="269382544"/>
    <nd ref="471113957"/>
    <nd ref="269382546"/>
    <nd ref="471113958"/>
    <nd ref="1282776145"/>
    <nd ref="269382547"/>
    <nd ref="1282776148"/>
    <nd ref="354410495"/>
    <tag k="cycleway" v="track"/>
    <tag k="highway" v="primary"/>
    <tag k="maxspeed" v="50"/>
    <tag k="name" v="Kerntangente"/>
    <tag k="surface" v="paved"/>
  </way>
  <way id="57920062" version="4" timestamp="2011-08-11T16:24:25Z" uid="72151" user="GeorgFausB" changeset="8987001">
    <nd ref="269382544"/>
    <nd ref="471113957"/>
    <nd ref="269382546"/>
    <nd ref="471113958"/>
    <nd ref="1282776145"/>
    <nd ref="269382547"/>
    <nd ref="1282776148"/>
    <nd ref="354410495"/>
    <tag k="cycleway" v="track"/>
    <tag k="highway" v="primary"/>
    <tag k="maxspeed" v="50"/>
    <tag k="name" v="Kerntangente"/>
    <tag k="source:maxspeed" v="DE:urban"/>
    <tag k="surface" v="paved"/>
    <tag k="zone:traffic" v="DE:urban"/>
  </way>
  <way id="57920063" version="3" timestamp="2010-07-09T03:27:54Z" uid="74617" user="JohnSmith" changeset="5170739">
    <nd ref="718677768"/>
    <nd ref="718682992"/>
    <nd ref="718682995"/>
    <nd ref="718682996"/>
    <nd ref="718682999"/>
    <nd ref="718683002"/>
    <nd ref="718683004"/>
    <nd ref="718683006"/>
    <nd ref="718683009"/>
    <nd ref="718683011"/>
    <nd ref="718683014"/>
    <tag k="highway" v="residential"/>
    <tag k="maxspeed" v="50"/>
    <tag k="maxspeed:source" v="default residential speed limit in Australia"/>
    <tag k="name" v="Thomas Street"/>
    <tag k="source" v="nearmap"/>
  </way>
  <way id="57920063" version="4" timestamp="2012-01-20T06:58:49Z" uid="147510" user="woodpeck_fixbot" changeset="10443281">
    <nd ref="718677768"/>
    <nd ref="718682992"/>
    <nd ref="718682995"/>
    <nd ref="718682996"/>
    <nd ref="718682999"/>
    <nd ref="718683002"/>
    <nd ref="718683004"/>
    <nd ref="718683006"/>
    <nd ref="718683009"/>
    <nd ref="718683011"/>
    <nd ref="718683014"/>
    <tag k="highway" v="residential"/>
    <tag k="name" v="Thomas Street"/>
    <tag k="source" v="nearmap"/>
  </way>
  <way id="57920088" version="3" timestamp="2010-07-09T03:25:13Z" uid="74617" user="JohnSmith" changeset="5170739">
    <nd ref="718678139"/>
    <nd ref="718686446"/>
    <nd ref="718686396"/>
    <tag k="highway" v="residential"/>
    <tag k="maxspeed" v="50"/>
    <tag k="maxspeed:source" v="default residential speed limit in Australia"/>
    <tag k="name" v="Hunter Avenue"/>
    <tag k="oneway" v="yes"/>
    <tag k="source" v="nearmap"/>
  </way>
  <way id="57920088" version="4" timestamp="2012-01-20T06:58:51Z" uid="147510" user="woodpeck_fixbot" changeset="10443281">
    <nd ref="718678139"/>
    <nd ref="718686446"/>
    <nd ref="718686396"/>
    <tag k="highway" v="residential"/>
    <tag k="name" v="Hunter Avenue"/>
    <tag k="oneway" v="yes"/>
    <tag k="source" v="nearmap"/>
  </way>
  <way id="57920089" version="3" timestamp="2010-07-09T03:28:46Z" uid="74617" user="JohnSmith" changeset="5170739">
    <nd ref="718686475"/>
    <nd ref="718686476"/>
    <nd ref="718678139"/>
    <tag k="highway" v="residential"/>
    <tag k="maxspeed" v="50"/>
    <tag k="maxspeed:source" v="default residential speed limit in Australia"/>
    <tag k="name" v="Hunter Avenue"/>
    <tag k="oneway" v="yes"/>
    <tag k="source" v="nearmap"/>
  </way>
  <way id="57920089" version="4" timestamp="2012-01-20T06:58:52Z" uid="147510" user="woodpeck_fixbot" changeset="10443281">
    <nd ref="718686475"/>
    <nd ref="718686476"/>
    <nd ref="718678139"/>
    <tag k="highway" v="residential"/>
    <tag k="name" v="Hunter Avenue"/>
    <tag k="oneway" v="yes"/>
    <tag k="source" v="nearmap"/>
  </way>
  <way id="57920093" version="3" timestamp="2010-06-23T04:51:59Z" uid="4467" user="Rosscoe" changeset="5056189">
    <nd ref="718686596"/>
    <nd ref="718686598"/>
    <nd ref="718686603"/>
    <nd ref="718686604"/>
    <nd ref="718686573"/>
    <nd ref="718686606"/>
    <nd ref="718686608"/>
    <nd ref="718686611"/>
    <nd ref="718686614"/>
    <nd ref="718686475"/>
    <nd ref="718686616"/>
    <nd ref="718686619"/>
    <nd ref="718686621"/>
    <nd ref="718686396"/>
    <nd ref="718686623"/>
    <nd ref="718686627"/>
    <nd ref="718686631"/>
    <nd ref="718686633"/>
    <nd ref="718686596"/>
    <tag k="highway" v="tertiary"/>
    <tag k="junction" v="roundabout"/>
    <tag k="source" v="nearmap"/>
  </way>
  <way id="57920094" version="3" timestamp="2010-07-09T03:29:43Z" uid="74617" user="JohnSmith" changeset="5170739">
    <nd ref="718686644"/>
    <nd ref="718686646"/>
    <nd ref="718686573"/>
    <tag k="highway" v="residential"/>
    <tag k="maxspeed" v="50"/>
    <tag k="maxspeed:source" v="default residential speed limit in Australia"/>
    <tag k="name" v="Correll Way"/>
    <tag k="oneway" v="yes"/>
    <tag k="source" v="nearmap"/>
  </way>
  <way id="57920094" version="4" timestamp="2012-01-20T06:58:53Z" uid="147510" user="woodpeck_fixbot" changeset="10443281">
    <nd ref="718686644"/>
    <nd ref="718686646"/>
    <nd ref="718686573"/>
    <tag k="highway" v="residential"/>
    <tag k="name" v="Correll Way"/>
    <tag k="oneway" v="yes"/>
    <tag k="source" v="nearmap"/>
  </way>
  <way id="57920095" version="3" timestamp="2010-07-09T03:24:55Z" uid="74617" user="JohnSmith" changeset="5170739">
    <nd ref="718686596"/>
    <nd ref="718686655"/>
    <nd ref="718686644"/>
    <tag k="highway" v="residential"/>
    <tag k="maxspeed" v="50"/>
    <tag k="maxspeed:source" v="default residential speed limit in Australia"/>
    <tag k="name" v="Correll Way"/>
    <tag k="oneway" v="yes"/>
    <tag k="source" v="nearmap"/>
  </way>
  <way id="57920095" version="4" timestamp="2012-01-20T06:58:54Z" uid="147510" user="woodpeck_fixbot" changeset="10443281">
    <nd ref="718686596"/>
    <nd ref="718686655"/>
    <nd ref="718686644"/>
    <tag k="highway" v="residential"/>
    <tag k="name" v="Correll Way"/>
    <tag k="oneway" v="yes"/>
    <tag k="source" v="nearmap"/>
  </way>
  <way id="57920241" version="1" timestamp="2010-05-03T13:08:28Z" uid="33382" user="de_muur" changeset="4594685">
    <nd ref="718691501"/>
    <nd ref="354410844"/>
    <nd ref="354410846"/>
    <nd ref="354410847"/>
    <nd ref="354410848"/>
    <nd ref="354410849"/>
    <nd ref="354410850"/>
    <nd ref="715860369"/>
    <nd ref="354410851"/>
    <tag k="highway" v="tertiary"/>
    <tag k="maxspeed" v="50"/>
    <tag k="name" v="Dorfstraße"/>
    <tag k="ref" v="K 17"/>
    <tag k="surface" v="paved"/>
  </way>
  <way id="57920241" version="2" timestamp="2011-06-07T15:59:37Z" uid="113113" user="zubenelakrab" changeset="8371375">
    <nd ref="718691501"/>
    <nd ref="1315194692"/>
    <nd ref="354410844"/>
    <nd ref="354410846"/>
    <nd ref="1315194717"/>
    <nd ref="354410847"/>
    <nd ref="354410848"/>
    <nd ref="354410849"/>
    <nd ref="1315194679"/>
    <nd ref="354410850"/>
    <nd ref="715860369"/>
    <nd ref="1315194720"/>
    <nd ref="354410851"/>
    <tag k="highway" v="tertiary"/>
    <tag k="maxspeed" v="50"/>
    <tag k="name" v="Dorfstraße"/>
    <tag k="ref" v="K 17"/>
    <tag k="surface" v="paved"/>
  </way>
  <way id="57920244" version="1" timestamp="2010-05-03T13:08:28Z" uid="33382" user="de_muur" changeset="4594685">
    <nd ref="354410495"/>
    <nd ref="269382548"/>
    <nd ref="269382549"/>
    <tag k="cycleway" v="track"/>
    <tag k="highway" v="primary"/>
    <tag k="maxspeed" v="50"/>
    <tag k="name" v="Kerntangente"/>
    <tag k="surface" v="paved"/>
  </way>
  <way id="57920244" version="2" timestamp="2011-06-12T06:29:40Z" uid="161619" user="FvGordon" changeset="8412074">
    <nd ref="354410495"/>
    <nd ref="269382548"/>
    <nd ref="1321307985"/>
    <nd ref="1321307964"/>
    <tag k="cycleway" v="track"/>
    <tag k="highway" v="primary"/>
    <tag k="maxspeed" v="50"/>
    <tag k="name" v="Kerntangente"/>
    <tag k="surface" v="paved"/>
  </way>
  <way id="57920244" version="3" timestamp="2011-08-11T16:24:24Z" uid="72151" user="GeorgFausB" changeset="8987001">
    <nd ref="354410495"/>
    <nd ref="269382548"/>
    <nd ref="1321307985"/>
    <nd ref="1321307964"/>
    <tag k="cycleway" v="track"/>
    <tag k="highway" v="primary"/>
    <tag k="maxspeed" v="50"/>
    <tag k="name" v="Kerntangente"/>
    <tag k="source:maxspeed" v="DE:urban"/>
    <tag k="surface" v="paved"/>
    <tag k="zone:traffic" v="DE:urban"/>
  </way>
  <way id="57920261" version="3" timestamp="2010-07-09T03:31:57Z" uid="74617" user="JohnSmith" changeset="5170739">
    <nd ref="718691503"/>
    <nd ref="718691504"/>
    <nd ref="718691506"/>
    <tag k="highway" v="residential"/>
    <tag k="maxspeed" v="50"/>
    <tag k="maxspeed:source" v="default residential speed limit in Australia"/>
    <tag k="name" v="Douglas Mawson Drive"/>
    <tag k="oneway" v="yes"/>
    <tag k="source" v="nearmap"/>
  </way>
  <way id="57920261" version="4" timestamp="2012-01-20T06:58:55Z" uid="147510" user="woodpeck_fixbot" changeset="10443281">
    <nd ref="718691503"/>
    <nd ref="718691504"/>
    <nd ref="718691506"/>
    <tag k="highway" v="residential"/>
    <tag k="name" v="Douglas Mawson Drive"/>
    <tag k="oneway" v="yes"/>
    <tag k="source" v="nearmap"/>
  </way>
  <way id="57920267" version="3" timestamp="2010-07-09T03:28:07Z" uid="74617" user="JohnSmith" changeset="5170739">
    <nd ref="718297451"/>
    <nd ref="718691508"/>
    <tag k="highway" v="residential"/>
    <tag k="maxspeed" v="50"/>
    <tag k="maxspeed:source" v="default residential speed limit in Australia"/>
    <tag k="name" v="Whiltshire Drive"/>
    <tag k="oneway" v="yes"/>
    <tag k="source" v="nearmap"/>
  </way>
  <way id="57920267" version="4" timestamp="2012-01-20T06:58:57Z" uid="147510" user="woodpeck_fixbot" changeset="10443281">
    <nd ref="718297451"/>
    <nd ref="718691508"/>
    <tag k="highway" v="residential"/>
    <tag k="name" v="Whiltshire Drive"/>
    <tag k="oneway" v="yes"/>
    <tag k="source" v="nearmap"/>
  </way>
  <way id="57920285" version="3" timestamp="2010-06-23T04:52:03Z" uid="4467" user="Rosscoe" changeset="5056189">
    <nd ref="718691499"/>
    <nd ref="718691510"/>
    <nd ref="718691511"/>
    <nd ref="718691512"/>
    <nd ref="718691506"/>
    <nd ref="718691513"/>
    <nd ref="718691489"/>
    <nd ref="718691514"/>
    <nd ref="718691515"/>
    <nd ref="718691496"/>
    <nd ref="718691517"/>
    <nd ref="718691518"/>
    <nd ref="718691519"/>
    <nd ref="718691508"/>
    <nd ref="718691520"/>
    <nd ref="718691521"/>
    <nd ref="718691522"/>
    <nd ref="718691523"/>
    <nd ref="718691499"/>
    <tag k="highway" v="tertiary"/>
    <tag k="junction" v="roundabout"/>
    <tag k="source" v="nearmap"/>
  </way>
  <way id="57920292" version="3" timestamp="2010-07-09T03:32:12Z" uid="74617" user="JohnSmith" changeset="5170739">
    <nd ref="718691518"/>
    <nd ref="718297451"/>
    <tag k="highway" v="residential"/>
    <tag k="maxspeed" v="50"/>
    <tag k="maxspeed:source" v="default residential speed limit in Australia"/>
    <tag k="name" v="Whiltshire Drive"/>
    <tag k="oneway" v="yes"/>
    <tag k="source" v="nearmap"/>
  </way>
  <way id="57920292" version="4" timestamp="2012-01-20T06:58:58Z" uid="147510" user="woodpeck_fixbot" changeset="10443281">
    <nd ref="718691518"/>
    <nd ref="718297451"/>
    <tag k="highway" v="residential"/>
    <tag k="name" v="Whiltshire Drive"/>
    <tag k="oneway" v="yes"/>
    <tag k="source" v="nearmap"/>
  </way>
  <way id="57920306" version="3" timestamp="2010-07-09T03:26:55Z" uid="74617" user="JohnSmith" changeset="5170739">
    <nd ref="718691511"/>
    <nd ref="718691503"/>
    <tag k="highway" v="residential"/>
    <tag k="maxspeed" v="50"/>
    <tag k="maxspeed:source" v="default residential speed limit in Australia"/>
    <tag k="name" v="Douglas Mawson Drive"/>
    <tag k="oneway" v="yes"/>
    <tag k="source" v="nearmap"/>
  </way>
  <way id="57920306" version="4" timestamp="2012-01-20T06:58:59Z" uid="147510" user="woodpeck_fixbot" changeset="10443281">
    <nd ref="718691511"/>
    <nd ref="718691503"/>
    <tag k="highway" v="residential"/>
    <tag k="name" v="Douglas Mawson Drive"/>
    <tag k="oneway" v="yes"/>
    <tag k="source" v="nearmap"/>
  </way>
  <way id="57920062" version="5" timestamp="2012-04-09T20:58:29Z" uid="161619" user="FvGordon" changeset="11245454"/>
  <way id="57920241" version="3" timestamp="2012-04-20T18:36:06Z" uid="63107" user="brogo" changeset="11367066"/>
  <way id="57920244" version="4" timestamp="2012-04-09T20:58:29Z" uid="161619" user="FvGordon" changeset="11245454"/>
</osm>
