<?xml version='1.0' encoding='UTF-8'?>
<osm version="0.6" generator="libosmium/2.20.0">
  <way id="58448095" version="2" timestamp="2010-07-08T16:39:32Z" uid="74617" user="JohnSmith" changeset="5167338">
    <nd ref="676304911"/>
    <nd ref="689782340"/>
    <nd ref="689782341"/>
    <tag k="highway" v="residential"/>
    <tag k="maxspeed" v="50"/>
    <tag k="maxspeed:source" v="default residential speed limit in Australia"/>
    <tag k="name" v="Alexander Avenue"/>
    <tag k="source" v="nearmap; survey"/>
  </way>
  <way id="58448095" version="3" timestamp="2012-01-20T07:14:28Z" uid="147510" user="woodpeck_fixbot" changeset="10443281">
    <nd ref="676304911"/>
    <nd ref="689782340"/>
    <nd ref="689782341"/>
    <tag k="highway" v="residential"/>
    <tag k="name" v="Alexander Avenue"/>
    <tag k="source" v="nearmap; survey"/>
  </way>
  <way id="58448096" version="2" timestamp="2010-07-08T16:37:59Z" uid="74617" user="JohnSmith" changeset="5167338">
    <nd ref="676304897"/>
    <nd ref="676304900"/>
    <nd ref="676304915"/>
    <nd ref="676304916"/>
    <tag k="highway" v="residential"/>
    <tag k="maxspeed" v="50"/>
    <tag k="maxspeed:source" v="default residential speed limit in Australia"/>
    <tag k="name" v="Birdwood Parade"/>
    <tag k="source" v="nearmap; survey; nearmap"/>
  </way>
  <way id="58448096" version="3" timestamp="2012-01-20T07:14:30Z" uid="147510" user="woodpeck_fixbot" changeset="10443281">
    <nd ref="676304897"/>
    <nd ref="676304900"/>
    <nd ref="676304915"/>
    <nd ref="676304916"/>
    <tag k="highway" v="residential"/>
    <tag k="name" v="Birdwood Parade"/>
    <tag k="source" v="nearmap; survey; nearmap"/>
  </way>
  <way id="58448097" version="2" timestamp="2010-07-08T16:39:49Z" uid="74617" user="JohnSmith" changeset="5167338">
    <nd ref="267857138"/>
    <nd ref="267857139"/>
    <nd ref="267857140"/>
    <nd ref="267857141"/>
    <nd ref="267857142"/>
    <nd ref="267857143"/>
    <nd ref="267857144"/>
    <nd ref="267857145"/>
    <nd ref="267857146"/>
    <nd ref="267857147"/>
    <nd ref="267857148"/>
    <nd ref="267857149"/>
    <nd ref="267857150"/>
    <nd ref="267857151"/>
    <nd ref="267857154"/>
    <nd ref="267857155"/>
    <nd ref="675693185"/>
    <nd ref="267857156"/>
    <nd ref="267857157"/>
    <nd ref="675693189"/>
    <tag k="highway" v="residential"/>
    <tag k="maxspeed" v="50"/>
    <tag k="maxspeed:source" v="default residential speed limit in Australia"/>
    <tag k="name" v="Hall Parade"/>
    <tag k="source" v="nearmap; survey"/>
  </way>
  <way id="58448097" version="3" timestamp="2011-04-17T03:23:31Z" uid="7617" user="Franc" changeset="7883659">
    <nd ref="267857138"/>
    <nd ref="1247870414"/>
    <tag k="highway" v="residential"/>
    <tag k="maxspeed" v="50"/>
    <tag k="maxspeed:source" v="default residential speed limit in Australia"/>
    <tag k="name" v="Hall Parade"/>
    <tag k="source" v="nearmap; survey"/>
  </way>
  <way id="58448097" version="4" timestamp="2012-01-20T07:14:31Z" uid="147510" user="woodpeck_fixbot" changeset="10443281">
    <nd ref="267857138"/>
    <nd ref="1247870414"/>
    <tag k="highway" v="residential"/>
    <tag k="name" v="Hall Parade"/>
    <tag k="source" v="nearmap; survey"/>
  </way>
  <way id="58448104" version="2" timestamp="2010-07-08T16:38:40Z" uid="74617" user="JohnSmith" changeset="5167338">
    <nd ref="675693189"/>
    <nd ref="267857158"/>
    <nd ref="267857161"/>
    <nd ref="267857160"/>
    <nd ref="267857162"/>
    <nd ref="675693223"/>
    <nd ref="675693225"/>
    <nd ref="675693226"/>
    <tag k="highway" v="residential"/>
    <tag k="maxspeed" v="50"/>
    <tag k="maxspeed:source" v="default residential speed limit in Australia"/>
    <tag k="name" v="Hall Parade"/>
    <tag k="source" v="nearmap; survey"/>
  </way>
  <way id="58448104" version="3" timestamp="2012-01-20T07:14:32Z" uid="147510" user="woodpeck_fixbot" changeset="10443281">
    <nd ref="675693189"/>
    <nd ref="267857158"/>
    <nd ref="267857161"/>
    <nd ref="267857160"/>
    <nd ref="267857162"/>
    <nd ref="675693223"/>
    <nd ref="675693225"/>
    <nd ref="675693226"/>
    <tag k="highway" v="residential"/>
    <tag k="name" v="Hall Parade"/>
    <tag k="source" v="nearmap; survey"/>
  </way>
  <way id="58448106" version="2" timestamp="2010-07-08T16:37:43Z" uid="74617" user="JohnSmith" changeset="5167338">
    <nd ref="676304789"/>
    <nd ref="716615876"/>
    <nd ref="676304786"/>
    <nd ref="676304787"/>
    <nd ref="676304788"/>
    <tag k="highway" v="residential"/>
    <tag k="maxspeed" v="50"/>
    <tag k="maxspeed:source" v="default residential speed limit in Australia"/>
    <tag k="name" v="Glendarrah Street"/>
    <tag k="source" v="nearmap; survey"/>
  </way>
  <way id="58448106" version="3" timestamp="2012-01-20T07:14:34Z" uid="147510" user="woodpeck_fixbot" changeset="10443281">
    <nd ref="676304789"/>
    <nd ref="716615876"/>
    <nd ref="676304786"/>
    <nd ref="676304787"/>
    <nd ref="676304788"/>
    <tag k="highway" v="residential"/>
    <tag k="name" v="Glendarrah Street"/>
    <tag k="source" v="nearmap; survey"/>
  </way>
  <way id="58448107" version="2" timestamp="2010-07-08T16:39:30Z" uid="74617" user="JohnSmith" changeset="5167338">
    <nd ref="676304843"/>
    <nd ref="676304844"/>
    <nd ref="676304845"/>
    <nd ref="676304852"/>
    <tag k="highway" v="residential"/>
    <tag k="maxspeed" v="50"/>
    <tag k="maxspeed:source" v="default residential speed limit in Australia"/>
    <tag k="name" v="Falcon Street"/>
    <tag k="source" v="nearmap; survey"/>
  </way>
  <way id="58448107" version="3" timestamp="2012-01-20T07:14:35Z" uid="147510" user="woodpeck_fixbot" changeset="10443281">
    <nd ref="676304843"/>
    <nd ref="676304844"/>
    <nd ref="676304845"/>
    <nd ref="676304852"/>
    <tag k="highway" v="residential"/>
    <tag k="name" v="Falcon Street"/>
    <tag k="source" v="nearmap; survey"/>
  </way>
  <way id="58448095" version="4" timestamp="2012-07-22T10:04:30Z" uid="722137" user="OSMF Redaction Account" changeset="12429467">
    <nd ref="689782340"/>
    <nd ref="689782341"/>
    <tag k="highway" v="residential"/>
    <tag k="name" v="Alexander Avenue"/>
    <tag k="source" v="nearmap; survey"/>
  </way>
  <way id="58448096" version="4" timestamp="2012-07-22T10:05:10Z" uid="722137" user="OSMF Redaction Account" changeset="12429467"/>
  <way id="58448097" version="5" timestamp="2012-07-22T10:05:20Z" uid="722137" user="OSMF Redaction Account" changeset="12429467"/>
  <way id="58448104" version="4" timestamp="2012-07-22T10:04:27Z" uid="722137" user="OSMF Redaction Account" changeset="12429467">
    <nd ref="267857158"/>
    <nd ref="267857161"/>
    <nd ref="267857160"/>
    <nd ref="267857162"/>
    <tag k="highway" v="residential"/>
    <tag k="name" v="Hall Parade"/>
    <tag k="source" v="nearmap; survey"/>
  </way>
  <way id="58448106" version="4" timestamp="2012-07-22T10:05:10Z" uid="722137" user="OSMF Redaction Account" changeset="12429467"/>
  <way id="58448107" version="4" timestamp="2012-07-22T10:05:11Z" uid="722137" user="OSMF Redaction Account" changeset="12429467"/>
</osm>
