<?xml version='1.0' encoding='UTF-8'?>
<osm version="0.6" generator="libosmium/2.20.0">
  <way id="59183074" version="3" timestamp="2010-07-08T16:54:05Z" uid="74617" user="JohnSmith" changeset="5167338">
    <nd ref="477077911"/>
    <nd ref="477077912"/>
    <nd ref="733984053"/>
    <tag k="highway" v="residential"/>
    <tag k="maxspeed" v="50"/>
    <tag k="maxspeed:source" v="default residential speed limit in Australia"/>
    <tag k="name" v="Lilley Street"/>
    <tag k="source" v="survey"/>
  </way>
  <way id="59183074" version="4" timestamp="2011-02-07T11:15:12Z" uid="4467" user="Rosscoe" changeset="7214726">
    <nd ref="477077911"/>
    <nd ref="477077912"/>
    <nd ref="733984053"/>
    <tag k="highway" v="residential"/>
    <tag k="maxspeed" v="50"/>
    <tag k="name" v="Lilley Street"/>
    <tag k="source" v="survey"/>
    <tag k="source:maxspeed" v="default residential speed limit in Australia"/>
  </way>
  <way id="59183074" version="5" timestamp="2012-01-20T07:57:06Z" uid="147510" user="woodpeck_fixbot" changeset="10443754">
    <nd ref="477077911"/>
    <nd ref="477077912"/>
    <nd ref="733984053"/>
    <tag k="highway" v="residential"/>
    <tag k="name" v="Lilley Street"/>
    <tag k="source" v="survey"/>
    <tag k="source:maxspeed" v="default residential speed limit in Australia"/>
  </way>
  <way id="59183386" version="2" timestamp="2010-07-08T16:54:41Z" uid="74617" user="JohnSmith" changeset="5167338">
    <nd ref="733984282"/>
    <nd ref="733984280"/>
    <tag k="highway" v="residential"/>
    <tag k="maxspeed" v="50"/>
    <tag k="maxspeed:source" v="default residential speed limit in Australia"/>
    <tag k="name" v="Stanley Street"/>
    <tag k="source" v="survey"/>
  </way>
  <way id="59183386" version="3" timestamp="2011-02-07T11:15:16Z" uid="4467" user="Rosscoe" changeset="7214726">
    <nd ref="733984282"/>
    <nd ref="733984280"/>
    <tag k="highway" v="residential"/>
    <tag k="maxspeed" v="50"/>
    <tag k="name" v="Stanley Street"/>
    <tag k="source" v="survey"/>
    <tag k="source:maxspeed" v="default residential speed limit in Australia"/>
  </way>
  <way id="59183386" version="4" timestamp="2012-01-20T07:57:07Z" uid="147510" user="woodpeck_fixbot" changeset="10443754">
    <nd ref="733984282"/>
    <nd ref="733984280"/>
    <tag k="highway" v="residential"/>
    <tag k="name" v="Stanley Street"/>
    <tag k="source" v="survey"/>
    <tag k="source:maxspeed" v="default residential speed limit in Australia"/>
  </way>
  <way id="59183670" version="2" timestamp="2010-07-08T16:56:36Z" uid="74617" user="JohnSmith" changeset="5167338">
    <nd ref="733984404"/>
    <nd ref="733984408"/>
    <tag k="highway" v="residential"/>
    <tag k="maxspeed" v="50"/>
    <tag k="maxspeed:source" v="default residential speed limit in Australia"/>
    <tag k="name" v="Aquilla Court"/>
    <tag k="source" v="survey"/>
  </way>
  <way id="59183670" version="3" timestamp="2011-02-07T11:12:46Z" uid="4467" user="Rosscoe" changeset="7214726">
    <nd ref="733984404"/>
    <nd ref="733984408"/>
    <tag k="highway" v="residential"/>
    <tag k="maxspeed" v="50"/>
    <tag k="name" v="Aquilla Court"/>
    <tag k="source" v="survey"/>
    <tag k="source:maxspeed" v="default residential speed limit in Australia"/>
  </way>
  <way id="59183670" version="4" timestamp="2012-01-20T07:57:09Z" uid="147510" user="woodpeck_fixbot" changeset="10443754">
    <nd ref="733984404"/>
    <nd ref="733984408"/>
    <tag k="highway" v="residential"/>
    <tag k="name" v="Aquilla Court"/>
    <tag k="source" v="survey"/>
    <tag k="source:maxspeed" v="default residential speed limit in Australia"/>
  </way>
  <way id="59183074" version="6" timestamp="2012-07-19T08:16:09Z" uid="722137" user="OSMF Redaction Account" changeset="12313472">
    <nd ref="477077911"/>
    <nd ref="477077912"/>
    <nd ref="733984053"/>
    <tag k="highway" v="residential"/>
    <tag k="name" v="Lilley Street"/>
    <tag k="source" v="survey"/>
  </way>
  <way id="59183386" version="5" timestamp="2012-07-19T08:16:09Z" uid="722137" user="OSMF Redaction Account" changeset="12313472">
    <nd ref="733984282"/>
    <nd ref="733984280"/>
    <tag k="highway" v="residential"/>
    <tag k="name" v="Stanley Street"/>
    <tag k="source" v="survey"/>
  </way>
  <way id="59183670" version="5" timestamp="2012-07-19T08:16:00Z" uid="722137" user="OSMF Redaction Account" changeset="12313472">
    <nd ref="733984404"/>
    <nd ref="733984408"/>
    <tag k="highway" v="residential"/>
    <tag k="name" v="Aquilla Court"/>
    <tag k="source" v="survey"/>
  </way>
</osm>
