<?xml version='1.0' encoding='UTF-8'?>
<osm version="0.6" generator="libosmium/2.20.0">
  <way id="59456664" version="3" timestamp="2010-07-09T03:23:01Z" uid="74617" user="JohnSmith" changeset="5170713">
    <nd ref="737234541"/>
    <nd ref="737234540"/>
    <tag k="highway" v="residential"/>
    <tag k="maxspeed" v="50"/>
    <tag k="maxspeed:source" v="default residential speed limit in Australia"/>
    <tag k="name" v="Sayers Lane"/>
  </way>
  <way id="59456664" version="4" timestamp="2012-01-20T08:14:00Z" uid="147510" user="woodpeck_fixbot" changeset="10443754">
    <nd ref="737234541"/>
    <nd ref="737234540"/>
    <tag k="highway" v="residential"/>
    <tag k="name" v="Sayers Lane"/>
  </way>
  <way id="59456665" version="3" timestamp="2010-07-09T03:24:44Z" uid="74617" user="JohnSmith" changeset="5170713">
    <nd ref="737234542"/>
    <nd ref="737234539"/>
    <tag k="highway" v="residential"/>
    <tag k="maxspeed" v="50"/>
    <tag k="maxspeed:source" v="default residential speed limit in Australia"/>
    <tag k="name" v="Gatehouse Place"/>
  </way>
  <way id="59456665" version="4" timestamp="2012-01-20T08:14:01Z" uid="147510" user="woodpeck_fixbot" changeset="10443754">
    <nd ref="737234542"/>
    <nd ref="737234539"/>
    <tag k="highway" v="residential"/>
    <tag k="name" v="Gatehouse Place"/>
  </way>
</osm>
