<?xml version='1.0' encoding='UTF-8'?>
<osm version="0.6" generator="libosmium/2.20.0">
  <way id="59495018" version="1" timestamp="2010-05-17T19:42:46Z" uid="33382" user="de_muur" changeset="4732310">
    <nd ref="737998404"/>
    <nd ref="292746140"/>
    <tag k="highway" v="tertiary"/>
    <tag k="maxspeed" v="50"/>
    <tag k="ref" v="K 2"/>
    <tag k="surface" v="paved"/>
  </way>
  <way id="59495018" version="2" timestamp="2011-01-22T19:13:23Z" uid="79240" user="Hjortron" changeset="7054145">
    <nd ref="737998404"/>
    <nd ref="292746140"/>
    <tag k="highway" v="tertiary"/>
    <tag k="maxspeed" v="50"/>
    <tag k="name" v="Hundner Straße"/>
    <tag k="ref" v="K 2"/>
    <tag k="surface" v="paved"/>
  </way>
  <way id="59495018" version="3" timestamp="2011-06-21T17:45:15Z" uid="418717" user="Cocopelli" changeset="8506706">
    <nd ref="737998404"/>
    <nd ref="292746140"/>
    <nd ref="1333767461"/>
    <tag k="highway" v="tertiary"/>
    <tag k="maxspeed" v="50"/>
    <tag k="name" v="Hundner Straße"/>
    <tag k="ref" v="K 2"/>
    <tag k="surface" v="paved"/>
  </way>
  <way id="59495018" version="4" timestamp="2011-10-20T18:05:32Z" uid="477062" user="phase4_only" changeset="9610811">
    <nd ref="737998404"/>
    <nd ref="292746140"/>
    <tag k="highway" v="tertiary"/>
    <tag k="maxspeed" v="50"/>
    <tag k="name" v="Hundner Straße"/>
    <tag k="ref" v="K 2"/>
    <tag k="surface" v="paved"/>
  </way>
  <way id="59495018" version="5" timestamp="2012-01-28T21:38:41Z" uid="418717" user="Cocopelli" changeset="10525257">
    <nd ref="737998404"/>
    <nd ref="1609326409"/>
    <nd ref="292746140"/>
    <tag k="highway" v="tertiary"/>
    <tag k="maxspeed" v="50"/>
    <tag k="name" v="Hundner Straße"/>
    <tag k="ref" v="K 2"/>
    <tag k="surface" v="paved"/>
  </way>
  <way id="59495018" version="6" timestamp="2012-02-08T12:30:55Z" uid="45882" user="smarties" changeset="10623992"/>
  <way id="59495020" version="1" timestamp="2010-05-17T19:42:46Z" uid="33382" user="de_muur" changeset="4732310">
    <nd ref="737998406"/>
    <nd ref="307668414"/>
    <nd ref="737998402"/>
    <nd ref="292746139"/>
    <nd ref="292746140"/>
    <tag k="highway" v="tertiary"/>
    <tag k="maxspeed" v="50"/>
    <tag k="ref" v="K 81"/>
    <tag k="surface" v="paved"/>
  </way>
  <way id="59495020" version="2" timestamp="2011-06-21T17:45:13Z" uid="418717" user="Cocopelli" changeset="8506706">
    <nd ref="737998406"/>
    <nd ref="307668414"/>
    <nd ref="737998402"/>
    <nd ref="292746139"/>
    <nd ref="1333767459"/>
    <nd ref="1333767462"/>
    <nd ref="1333767460"/>
    <nd ref="1333767458"/>
    <nd ref="1333767461"/>
    <tag k="highway" v="tertiary"/>
    <tag k="maxspeed" v="50"/>
    <tag k="ref" v="K 81"/>
    <tag k="surface" v="paved"/>
  </way>
  <way id="59495020" version="3" timestamp="2011-10-20T18:05:31Z" uid="477062" user="phase4_only" changeset="9610811">
    <nd ref="737998406"/>
    <nd ref="307668414"/>
    <nd ref="737998402"/>
    <nd ref="292746139"/>
    <nd ref="1333767459"/>
    <nd ref="292746140"/>
    <tag k="highway" v="tertiary"/>
    <tag k="maxspeed" v="50"/>
    <tag k="ref" v="K 81"/>
    <tag k="surface" v="paved"/>
  </way>
  <way id="59495020" version="4" timestamp="2012-01-28T21:38:40Z" uid="418717" user="Cocopelli" changeset="10525257">
    <nd ref="737998406"/>
    <nd ref="307668414"/>
    <nd ref="737998402"/>
    <nd ref="292746139"/>
    <nd ref="1333767459"/>
    <nd ref="1609326411"/>
    <nd ref="292746140"/>
    <tag k="highway" v="tertiary"/>
    <tag k="maxspeed" v="50"/>
    <tag k="ref" v="K 81"/>
    <tag k="surface" v="paved"/>
  </way>
  <way id="59495020" version="5" timestamp="2012-02-08T12:30:55Z" uid="45882" user="smarties" changeset="10623992"/>
</osm>
