<?xml version='1.0' encoding='UTF-8'?>
<osm version="0.6" generator="libosmium/2.20.0">
  <way id="59783081" version="1" timestamp="2010-05-21T06:56:14Z" uid="115477" user="wowik" changeset="4763253">
    <nd ref="742090781"/>
    <nd ref="742090816"/>
    <nd ref="742090819"/>
    <tag k="highway" v="service"/>
    <tag k="living_street" v="yes"/>
  </way>
  <way id="59783082" version="1" timestamp="2010-05-21T06:56:15Z" uid="115477" user="wowik" changeset="4763253">
    <nd ref="742090829"/>
    <nd ref="742090819"/>
    <nd ref="742090831"/>
    <nd ref="742090834"/>
    <nd ref="742090836"/>
    <tag k="highway" v="service"/>
    <tag k="living_street" v="yes"/>
  </way>
  <way id="59783726" version="1" timestamp="2010-05-21T06:58:13Z" uid="115477" user="wowik" changeset="4763265">
    <nd ref="742093819"/>
    <nd ref="742093820"/>
    <nd ref="742093821"/>
    <nd ref="742093823"/>
    <nd ref="742093826"/>
    <nd ref="742093830"/>
    <nd ref="742093833"/>
    <nd ref="742093836"/>
    <nd ref="742093819"/>
    <tag k="landuse" v="construction"/>
  </way>
  <way id="59783726" version="2" timestamp="2012-03-28T21:35:01Z" uid="336354" user="esaulenka" changeset="11131620"/>
  <way id="59783814" version="1" timestamp="2010-05-21T07:04:18Z" uid="4467" user="Rosscoe" changeset="4763296">
    <nd ref="742108131"/>
    <nd ref="742108185"/>
    <nd ref="742108237"/>
    <tag k="highway" v="primary"/>
    <tag k="name" v="Hampton Road"/>
    <tag k="oneway" v="yes"/>
    <tag k="ref" v="S12"/>
    <tag k="source" v="nearmap"/>
  </way>
  <way id="59783814" version="2" timestamp="2010-12-18T02:24:12Z" uid="294850" user="Q4004" changeset="6692511">
    <nd ref="1044233640"/>
    <nd ref="1044233641"/>
    <nd ref="742108185"/>
    <nd ref="742108237"/>
    <tag k="highway" v="trunk"/>
    <tag k="name" v="Hampton Road"/>
    <tag k="oneway" v="yes"/>
    <tag k="ref" v="S12"/>
    <tag k="source" v="nearmap"/>
  </way>
  <way id="59783814" version="3" timestamp="2012-01-09T17:18:58Z" uid="142807" user="SDavies" changeset="10343800">
    <nd ref="1044233640"/>
    <nd ref="1044233641"/>
    <nd ref="742108185"/>
    <nd ref="742108237"/>
    <tag k="highway" v="primary"/>
    <tag k="name" v="Hampton Road"/>
    <tag k="oneway" v="yes"/>
    <tag k="ref" v="S12"/>
    <tag k="source" v="nearmap"/>
  </way>
  <way id="59783815" version="1" timestamp="2010-05-21T07:04:19Z" uid="4467" user="Rosscoe" changeset="4763296">
    <nd ref="742108084"/>
    <nd ref="43201541"/>
    <nd ref="742108151"/>
    <nd ref="742108131"/>
    <tag k="highway" v="primary"/>
    <tag k="name" v="Hampton Road"/>
    <tag k="oneway" v="yes"/>
    <tag k="ref" v="S12"/>
    <tag k="source" v="nearmap"/>
  </way>
  <way id="59783815" version="2" timestamp="2010-12-18T02:24:15Z" uid="294850" user="Q4004" changeset="6692511">
    <nd ref="742108084"/>
    <nd ref="43201541"/>
    <nd ref="742108151"/>
    <nd ref="1044233686"/>
    <nd ref="1044233687"/>
    <tag k="highway" v="trunk"/>
    <tag k="name" v="Hampton Road"/>
    <tag k="oneway" v="yes"/>
    <tag k="ref" v="S12"/>
    <tag k="source" v="nearmap"/>
  </way>
  <way id="59783815" version="3" timestamp="2012-01-09T17:18:58Z" uid="142807" user="SDavies" changeset="10343800">
    <nd ref="742108084"/>
    <nd ref="43201541"/>
    <nd ref="742108151"/>
    <nd ref="1044233686"/>
    <nd ref="1044233687"/>
    <tag k="highway" v="primary"/>
    <tag k="name" v="Hampton Road"/>
    <tag k="oneway" v="yes"/>
    <tag k="ref" v="S12"/>
    <tag k="source" v="nearmap"/>
  </way>
  <way id="59783923" version="1" timestamp="2010-05-21T07:17:22Z" uid="4467" user="Rosscoe" changeset="4763354">
    <nd ref="552846784"/>
    <nd ref="552846738"/>
    <tag k="highway" v="cycleway"/>
  </way>
  <way id="59783923" version="2" timestamp="2011-10-16T05:33:57Z" uid="6647" user="latch" changeset="9569163">
    <nd ref="552846784"/>
    <nd ref="1468910515"/>
    <nd ref="1468910524"/>
    <nd ref="552846738"/>
    <tag k="highway" v="cycleway"/>
  </way>
  <way id="59783081" version="2" timestamp="2012-04-27T07:49:12Z" uid="39086" user="AlexeyS" changeset="11430340"/>
  <way id="59783082" version="2" timestamp="2012-04-27T07:49:12Z" uid="39086" user="AlexeyS" changeset="11430340"/>
  <way id="59783814" version="4" timestamp="2012-05-28T20:03:53Z" uid="189263" user="wildmyron" changeset="11731176">
    <nd ref="1044233640"/>
    <nd ref="1044233641"/>
    <nd ref="1768948867"/>
    <nd ref="742108237"/>
    <tag k="highway" v="primary"/>
    <tag k="name" v="Hampton Road"/>
    <tag k="oneway" v="yes"/>
    <tag k="ref" v="S12"/>
    <tag k="source" v="nearmap"/>
  </way>
  <way id="59783814" version="5" timestamp="2012-07-19T16:59:18Z" uid="722137" user="OSMF Redaction Account" changeset="12341011">
    <nd ref="1044233640"/>
    <nd ref="1044233641"/>
    <nd ref="1768948867"/>
  </way>
  <way id="59783814" version="6" timestamp="2012-09-04T18:57:29Z" uid="418724" user="wintersportler" changeset="12985937"/>
  <way id="59783815" version="4" timestamp="2012-07-19T16:58:47Z" uid="722137" user="OSMF Redaction Account" changeset="12341011">
    <nd ref="1044233686"/>
    <nd ref="1044233687"/>
  </way>
  <way id="59783815" version="5" timestamp="2012-07-21T02:35:11Z" uid="36235" user="Sam Wilson" changeset="12398718">
    <nd ref="1044233647"/>
    <nd ref="280744987"/>
    <nd ref="60189068"/>
    <tag k="highway" v="trunk"/>
    <tag k="lanes" v="2"/>
    <tag k="name" v="Cockburn Road"/>
    <tag k="oneway" v="no"/>
  </way>
  <way id="59783923" version="3" timestamp="2012-07-19T14:11:48Z" uid="722137" user="OSMF Redaction Account" changeset="12330992">
    <nd ref="1468910515"/>
    <nd ref="1468910524"/>
  </way>
  <way id="59783923" version="4" timestamp="2012-07-28T22:42:38Z" uid="77586" user="Map Star" changeset="12529200">
    <nd ref="1468910515"/>
    <nd ref="1468910524"/>
    <nd ref="552846738"/>
    <nd ref="1842028401"/>
    <tag k="bicycle" v="designated"/>
    <tag k="foot" v="designated"/>
    <tag k="highway" v="path"/>
    <tag k="segregated" v="no"/>
    <tag k="surface" v="concrete"/>
    <tag k="width" v="2"/>
  </way>
</osm>
