<?xml version='1.0' encoding='UTF-8'?>
<osm version="0.6" generator="libosmium/2.20.0">
  <way id="60211550" version="1" timestamp="2010-05-25T14:50:45Z" uid="4467" user="Rosscoe" changeset="4804322">
    <nd ref="747867214"/>
    <nd ref="275741461"/>
    <nd ref="611920800"/>
    <nd ref="611920801"/>
    <nd ref="611920802"/>
    <nd ref="611920803"/>
    <nd ref="611920804"/>
    <nd ref="611920805"/>
    <nd ref="275741462"/>
    <nd ref="611920806"/>
    <nd ref="275741464"/>
    <tag k="bicycle" v="yes"/>
    <tag k="cycleway" v="track"/>
    <tag k="foot" v="yes"/>
    <tag k="highway" v="cycleway"/>
    <tag k="name" v="EastLink Trail"/>
    <tag k="surface" v="paved"/>
  </way>
  <way id="60211550" version="2" timestamp="2012-02-06T01:17:43Z" uid="600116" user="GremlinC" changeset="10599622">
    <nd ref="747867214"/>
    <nd ref="275741461"/>
    <nd ref="611920800"/>
    <nd ref="611920801"/>
    <nd ref="611920802"/>
    <nd ref="611920803"/>
    <nd ref="611920804"/>
    <nd ref="611920805"/>
    <nd ref="275741462"/>
    <nd ref="611920806"/>
    <nd ref="275741464"/>
    <tag k="bicycle" v="yes"/>
    <tag k="cycleway" v="track"/>
    <tag k="foot" v="yes"/>
    <tag k="highway" v="cycleway"/>
    <tag k="name" v="EastLink Trail"/>
    <tag k="segregated" v="no"/>
    <tag k="surface" v="paved"/>
  </way>
  <way id="60211552" version="1" timestamp="2010-05-25T14:50:46Z" uid="4467" user="Rosscoe" changeset="4804322">
    <nd ref="747866884"/>
    <nd ref="747866499"/>
    <tag k="construction" v="trunk"/>
    <tag k="highway" v="construction"/>
    <tag k="name" v="Dingley Arterial"/>
    <tag k="oneway" v="yes"/>
    <tag k="ref" v="S49"/>
  </way>
  <way id="60211552" version="2" timestamp="2011-01-19T23:23:43Z" uid="46482" user="Leon K" changeset="7026000"/>
  <way id="60211555" version="1" timestamp="2010-05-25T14:50:47Z" uid="4467" user="Rosscoe" changeset="4804322">
    <nd ref="747866698"/>
    <nd ref="747867141"/>
    <tag k="construction" v="trunk"/>
    <tag k="highway" v="construction"/>
    <tag k="name" v="Dingley Arterial"/>
    <tag k="oneway" v="yes"/>
    <tag k="ref" v="S49"/>
  </way>
  <way id="60211555" version="2" timestamp="2011-01-19T23:23:42Z" uid="46482" user="Leon K" changeset="7026000">
    <nd ref="747866698"/>
    <nd ref="747867141"/>
    <nd ref="167855082"/>
    <tag k="construction" v="trunk"/>
    <tag k="highway" v="construction"/>
    <tag k="name" v="Dingley Arterial"/>
    <tag k="oneway" v="yes"/>
    <tag k="ref" v="S49"/>
  </way>
  <way id="60211580" version="1" timestamp="2010-05-25T14:51:03Z" uid="4467" user="Rosscoe" changeset="4804322">
    <nd ref="512086852"/>
    <nd ref="512086853"/>
    <nd ref="512086854"/>
    <nd ref="512086856"/>
    <nd ref="512086858"/>
    <nd ref="747692313"/>
    <tag k="construction" v="trunk"/>
    <tag k="highway" v="construction"/>
    <tag k="name" v="Dingley Arterial"/>
    <tag k="oneway" v="yes"/>
    <tag k="ref" v="S49"/>
  </way>
  <way id="60211580" version="2" timestamp="2011-01-19T23:23:42Z" uid="46482" user="Leon K" changeset="7026000">
    <nd ref="512086852"/>
    <nd ref="512086853"/>
    <nd ref="512086854"/>
    <nd ref="512086856"/>
    <nd ref="512086858"/>
    <nd ref="1111078379"/>
    <nd ref="1111078376"/>
    <nd ref="747692313"/>
    <tag k="construction" v="trunk"/>
    <tag k="highway" v="construction"/>
    <tag k="name" v="Dingley Arterial"/>
    <tag k="oneway" v="yes"/>
    <tag k="ref" v="S49"/>
  </way>
  <way id="60211583" version="1" timestamp="2010-05-25T14:51:04Z" uid="4467" user="Rosscoe" changeset="4804322">
    <nd ref="747866913"/>
    <nd ref="167855082"/>
    <tag k="construction" v="trunk"/>
    <tag k="highway" v="construction"/>
    <tag k="name" v="Dingley Arterial"/>
    <tag k="oneway" v="yes"/>
    <tag k="ref" v="S49"/>
  </way>
  <way id="60211583" version="2" timestamp="2011-01-19T23:23:43Z" uid="46482" user="Leon K" changeset="7026000"/>
  <way id="60211584" version="1" timestamp="2010-05-25T14:51:05Z" uid="4467" user="Rosscoe" changeset="4804322">
    <nd ref="747866897"/>
    <nd ref="747867214"/>
    <tag k="bicycle" v="yes"/>
    <tag k="bridge" v="yes"/>
    <tag k="cycleway" v="track"/>
    <tag k="foot" v="yes"/>
    <tag k="highway" v="cycleway"/>
    <tag k="layer" v="1"/>
    <tag k="name" v="EastLink Trail"/>
    <tag k="surface" v="paved"/>
  </way>
  <way id="60211882" version="2" timestamp="2010-07-09T06:17:28Z" uid="74617" user="JohnSmith" changeset="5171128">
    <nd ref="747869982"/>
    <nd ref="747869987"/>
    <nd ref="39818336"/>
    <nd ref="747870006"/>
    <nd ref="747870015"/>
    <nd ref="39817713"/>
    <tag k="highway" v="residential"/>
    <tag k="maxspeed" v="50"/>
    <tag k="maxspeed:source" v="default residential speed limit in Australia"/>
    <tag k="name" v="Priory Road"/>
  </way>
  <way id="60211882" version="3" timestamp="2011-11-08T15:34:17Z" uid="338866" user="tiger" changeset="9774144">
    <nd ref="36701332"/>
    <nd ref="747869987"/>
    <nd ref="39818336"/>
    <nd ref="747870006"/>
    <nd ref="747870015"/>
    <nd ref="39817713"/>
    <tag k="highway" v="residential"/>
    <tag k="maxspeed" v="50"/>
    <tag k="maxspeed:source" v="default residential speed limit in Australia"/>
    <tag k="name" v="Priory Road"/>
  </way>
  <way id="60211882" version="4" timestamp="2012-01-20T08:38:44Z" uid="147510" user="woodpeck_fixbot" changeset="10443754">
    <nd ref="36701332"/>
    <nd ref="747869987"/>
    <nd ref="39818336"/>
    <nd ref="747870006"/>
    <nd ref="747870015"/>
    <nd ref="39817713"/>
    <tag k="highway" v="residential"/>
    <tag k="name" v="Priory Road"/>
  </way>
  <way id="60211884" version="2" timestamp="2010-07-09T06:19:54Z" uid="74617" user="JohnSmith" changeset="5171128">
    <nd ref="747870045"/>
    <nd ref="747870050"/>
    <nd ref="747870057"/>
    <nd ref="747870060"/>
    <nd ref="39819029"/>
    <tag k="highway" v="residential"/>
    <tag k="maxspeed" v="50"/>
    <tag k="maxspeed:source" v="default residential speed limit in Australia"/>
    <tag k="name" v="Heatherglen Road"/>
  </way>
  <way id="60211884" version="3" timestamp="2011-11-08T15:34:13Z" uid="338866" user="tiger" changeset="9774144">
    <nd ref="36701331"/>
    <nd ref="747870050"/>
    <nd ref="747870057"/>
    <nd ref="747870060"/>
    <nd ref="39819029"/>
    <tag k="highway" v="residential"/>
    <tag k="maxspeed" v="50"/>
    <tag k="maxspeed:source" v="default residential speed limit in Australia"/>
    <tag k="name" v="Heatherglen Road"/>
  </way>
  <way id="60211884" version="4" timestamp="2012-01-20T08:38:46Z" uid="147510" user="woodpeck_fixbot" changeset="10443754">
    <nd ref="36701331"/>
    <nd ref="747870050"/>
    <nd ref="747870057"/>
    <nd ref="747870060"/>
    <nd ref="39819029"/>
    <tag k="highway" v="residential"/>
    <tag k="name" v="Heatherglen Road"/>
  </way>
  <way id="60211886" version="2" timestamp="2010-07-09T06:16:06Z" uid="74617" user="JohnSmith" changeset="5171128">
    <nd ref="747870066"/>
    <nd ref="747870070"/>
    <nd ref="747870074"/>
    <nd ref="747870089"/>
    <nd ref="747870094"/>
    <nd ref="747870103"/>
    <nd ref="747870109"/>
    <nd ref="747870111"/>
    <nd ref="747870114"/>
    <nd ref="747870118"/>
    <tag k="highway" v="residential"/>
    <tag k="maxspeed" v="50"/>
    <tag k="maxspeed:source" v="default residential speed limit in Australia"/>
    <tag k="name" v="Buttermilk Way"/>
  </way>
  <way id="60211886" version="3" timestamp="2012-01-20T08:38:47Z" uid="147510" user="woodpeck_fixbot" changeset="10443754">
    <nd ref="747870066"/>
    <nd ref="747870070"/>
    <nd ref="747870074"/>
    <nd ref="747870089"/>
    <nd ref="747870094"/>
    <nd ref="747870103"/>
    <nd ref="747870109"/>
    <nd ref="747870111"/>
    <nd ref="747870114"/>
    <nd ref="747870118"/>
    <tag k="highway" v="residential"/>
    <tag k="name" v="Buttermilk Way"/>
  </way>
  <way id="60211888" version="2" timestamp="2010-07-09T06:20:37Z" uid="74617" user="JohnSmith" changeset="5171128">
    <nd ref="747870134"/>
    <nd ref="747870138"/>
    <nd ref="747870141"/>
    <nd ref="747870144"/>
    <nd ref="39816773"/>
    <tag k="highway" v="residential"/>
    <tag k="maxspeed" v="50"/>
    <tag k="maxspeed:source" v="default residential speed limit in Australia"/>
    <tag k="name" v="Barrow Road"/>
  </way>
  <way id="60211888" version="3" timestamp="2012-01-20T08:38:49Z" uid="147510" user="woodpeck_fixbot" changeset="10443754">
    <nd ref="747870134"/>
    <nd ref="747870138"/>
    <nd ref="747870141"/>
    <nd ref="747870144"/>
    <nd ref="39816773"/>
    <tag k="highway" v="residential"/>
    <tag k="name" v="Barrow Road"/>
  </way>
  <way id="60211891" version="2" timestamp="2010-07-09T06:24:10Z" uid="74617" user="JohnSmith" changeset="5171128">
    <nd ref="747870156"/>
    <nd ref="747870159"/>
    <nd ref="747870163"/>
    <nd ref="747870166"/>
    <nd ref="747870168"/>
    <nd ref="39816028"/>
    <tag k="highway" v="residential"/>
    <tag k="maxspeed" v="50"/>
    <tag k="maxspeed:source" v="default residential speed limit in Australia"/>
    <tag k="name" v="Claddagh Road"/>
  </way>
  <way id="60211891" version="3" timestamp="2012-01-20T08:38:50Z" uid="147510" user="woodpeck_fixbot" changeset="10443754">
    <nd ref="747870156"/>
    <nd ref="747870159"/>
    <nd ref="747870163"/>
    <nd ref="747870166"/>
    <nd ref="747870168"/>
    <nd ref="39816028"/>
    <tag k="highway" v="residential"/>
    <tag k="name" v="Claddagh Road"/>
  </way>
  <way id="60211902" version="2" timestamp="2010-07-09T06:21:53Z" uid="74617" user="JohnSmith" changeset="5171128">
    <nd ref="747870394"/>
    <nd ref="747870395"/>
    <nd ref="747870396"/>
    <nd ref="39816028"/>
    <nd ref="747870397"/>
    <nd ref="39816773"/>
    <nd ref="747870398"/>
    <nd ref="747870399"/>
    <nd ref="747870400"/>
    <nd ref="36701320"/>
    <tag k="highway" v="residential"/>
    <tag k="maxspeed" v="50"/>
    <tag k="maxspeed:source" v="default residential speed limit in Australia"/>
    <tag k="name" v="Taylorhill Road"/>
  </way>
  <way id="60211902" version="3" timestamp="2011-09-15T16:59:59Z" uid="338866" user="tiger" changeset="9309654">
    <nd ref="36701333"/>
    <nd ref="747870395"/>
    <nd ref="747870396"/>
    <nd ref="39816028"/>
    <nd ref="747870397"/>
    <nd ref="39816773"/>
    <nd ref="747870398"/>
    <nd ref="747870399"/>
    <nd ref="747870400"/>
    <nd ref="36701320"/>
    <tag k="highway" v="residential"/>
    <tag k="maxspeed" v="50"/>
    <tag k="maxspeed:source" v="default residential speed limit in Australia"/>
    <tag k="name" v="Taylorhill Road"/>
  </way>
  <way id="60211902" version="4" timestamp="2012-01-20T08:38:52Z" uid="147510" user="woodpeck_fixbot" changeset="10443754">
    <nd ref="36701333"/>
    <nd ref="747870395"/>
    <nd ref="747870396"/>
    <nd ref="39816028"/>
    <nd ref="747870397"/>
    <nd ref="39816773"/>
    <nd ref="747870398"/>
    <nd ref="747870399"/>
    <nd ref="747870400"/>
    <nd ref="36701320"/>
    <tag k="highway" v="residential"/>
    <tag k="name" v="Taylorhill Road"/>
  </way>
  <way id="60211904" version="2" timestamp="2010-07-09T06:21:17Z" uid="74617" user="JohnSmith" changeset="5171128">
    <nd ref="747870401"/>
    <nd ref="747870402"/>
    <nd ref="747870403"/>
    <nd ref="747870404"/>
    <nd ref="747870405"/>
    <nd ref="747870406"/>
    <nd ref="39817707"/>
    <tag k="highway" v="residential"/>
    <tag k="maxspeed" v="50"/>
    <tag k="maxspeed:source" v="default residential speed limit in Australia"/>
    <tag k="name" v="connemarra Way"/>
  </way>
  <way id="60211904" version="3" timestamp="2011-09-15T16:59:41Z" uid="338866" user="tiger" changeset="9309654">
    <nd ref="39817759"/>
    <nd ref="747870402"/>
    <nd ref="747870403"/>
    <nd ref="747870404"/>
    <nd ref="747870405"/>
    <nd ref="747870406"/>
    <nd ref="39817707"/>
    <tag k="highway" v="residential"/>
    <tag k="maxspeed" v="50"/>
    <tag k="maxspeed:source" v="default residential speed limit in Australia"/>
    <tag k="name" v="Connemarra Way"/>
  </way>
  <way id="60211904" version="4" timestamp="2012-01-20T08:38:53Z" uid="147510" user="woodpeck_fixbot" changeset="10443754">
    <nd ref="39817759"/>
    <nd ref="747870402"/>
    <nd ref="747870403"/>
    <nd ref="747870404"/>
    <nd ref="747870405"/>
    <nd ref="747870406"/>
    <nd ref="39817707"/>
    <tag k="highway" v="residential"/>
    <tag k="name" v="Connemarra Way"/>
  </way>
  <way id="60211906" version="2" timestamp="2010-07-09T06:17:19Z" uid="74617" user="JohnSmith" changeset="5171128">
    <nd ref="747870407"/>
    <nd ref="747870408"/>
    <nd ref="39818336"/>
    <tag k="highway" v="residential"/>
    <tag k="maxspeed" v="50"/>
    <tag k="maxspeed:source" v="default residential speed limit in Australia"/>
    <tag k="name" v="Corrib Way"/>
  </way>
  <way id="60211906" version="3" timestamp="2011-09-15T16:59:41Z" uid="338866" user="tiger" changeset="9309654">
    <nd ref="747870404"/>
    <nd ref="747870408"/>
    <nd ref="39818336"/>
    <tag k="highway" v="residential"/>
    <tag k="maxspeed" v="50"/>
    <tag k="maxspeed:source" v="default residential speed limit in Australia"/>
    <tag k="name" v="Corrib Way"/>
  </way>
  <way id="60211906" version="4" timestamp="2012-01-20T08:38:54Z" uid="147510" user="woodpeck_fixbot" changeset="10443754">
    <nd ref="747870404"/>
    <nd ref="747870408"/>
    <nd ref="39818336"/>
    <tag k="highway" v="residential"/>
    <tag k="name" v="Corrib Way"/>
  </way>
  <way id="60211924" version="2" timestamp="2010-07-09T06:16:16Z" uid="74617" user="JohnSmith" changeset="5171128">
    <nd ref="747870409"/>
    <nd ref="747870410"/>
    <nd ref="747870411"/>
    <nd ref="747870412"/>
    <nd ref="747870413"/>
    <nd ref="747870414"/>
    <nd ref="747870415"/>
    <nd ref="747870416"/>
    <nd ref="747870417"/>
    <nd ref="747870418"/>
    <nd ref="747870419"/>
    <nd ref="747870420"/>
    <nd ref="38793440"/>
    <tag k="highway" v="residential"/>
    <tag k="maxspeed" v="50"/>
    <tag k="maxspeed:source" v="default residential speed limit in Australia"/>
    <tag k="name" v="St Nicholas Way"/>
  </way>
  <way id="60211924" version="3" timestamp="2011-02-28T20:45:31Z" uid="275821" user="Ramzes" changeset="7424318">
    <nd ref="38793436"/>
    <nd ref="747870410"/>
    <nd ref="747870411"/>
    <nd ref="747870412"/>
    <nd ref="747870413"/>
    <nd ref="747870414"/>
    <nd ref="747870415"/>
    <nd ref="747870416"/>
    <nd ref="747870417"/>
    <nd ref="747870418"/>
    <nd ref="747870419"/>
    <nd ref="747870420"/>
    <nd ref="38793440"/>
    <tag k="highway" v="residential"/>
    <tag k="maxspeed" v="50"/>
    <tag k="maxspeed:source" v="default residential speed limit in Australia"/>
    <tag k="name" v="St Nicholas Way"/>
  </way>
  <way id="60211924" version="4" timestamp="2012-01-20T08:38:56Z" uid="147510" user="woodpeck_fixbot" changeset="10443754">
    <nd ref="38793436"/>
    <nd ref="747870410"/>
    <nd ref="747870411"/>
    <nd ref="747870412"/>
    <nd ref="747870413"/>
    <nd ref="747870414"/>
    <nd ref="747870415"/>
    <nd ref="747870416"/>
    <nd ref="747870417"/>
    <nd ref="747870418"/>
    <nd ref="747870419"/>
    <nd ref="747870420"/>
    <nd ref="38793440"/>
    <tag k="highway" v="residential"/>
    <tag k="name" v="St Nicholas Way"/>
  </way>
  <way id="60211550" version="3" timestamp="2012-07-19T23:15:35Z" uid="722137" user="OSMF Redaction Account" changeset="12351421"/>
  <way id="60211555" version="3" timestamp="2012-04-04T14:03:59Z" uid="11111" user="melb_guy" changeset="11177092"/>
  <way id="60211580" version="3" timestamp="2012-04-04T14:03:59Z" uid="11111" user="melb_guy" changeset="11177092"/>
  <way id="60211584" version="2" timestamp="2012-07-19T23:15:35Z" uid="722137" user="OSMF Redaction Account" changeset="12351421"/>
  <way id="60211882" version="5" timestamp="2012-08-10T00:22:00Z" uid="418724" user="wintersportler" changeset="12675073">
    <nd ref="36701332"/>
    <nd ref="747869987"/>
    <nd ref="39818336"/>
    <nd ref="747870006"/>
    <nd ref="747870015"/>
    <nd ref="39817713"/>
    <tag k="highway" v="residential"/>
    <tag k="name" v="Priory Road"/>
    <tag k="NOTE" v="TAKE CARE: BING (ONLY HIGH ZOOM) MAPS HAVE OFFSET"/>
  </way>
  <way id="60211882" version="6" timestamp="2012-08-11T14:49:11Z" uid="418724" user="wintersportler" changeset="12692107">
    <nd ref="36701332"/>
    <nd ref="747869987"/>
    <nd ref="39818336"/>
    <nd ref="747870006"/>
    <nd ref="747870015"/>
    <nd ref="39817713"/>
    <tag k="highway" v="residential"/>
    <tag k="name" v="Priory Road"/>
    <tag k="NOTE" v="BING MAPS SHOP OFFSET IN HIGH ZOOM"/>
  </way>
  <way id="60211882" version="7" timestamp="2012-08-11T23:03:17Z" uid="418724" user="wintersportler" changeset="12696740">
    <nd ref="36701332"/>
    <nd ref="747869987"/>
    <nd ref="39818336"/>
    <nd ref="747870006"/>
    <nd ref="747870015"/>
    <nd ref="39817713"/>
    <tag k="highway" v="residential"/>
    <tag k="name" v="Priory Road"/>
    <tag k="NOTE" v="BING MAPS SHOW OFFSET IN HIGH ZOOM"/>
  </way>
  <way id="60211884" version="5" timestamp="2012-08-10T00:21:24Z" uid="418724" user="wintersportler" changeset="12675073">
    <nd ref="36701331"/>
    <nd ref="747870050"/>
    <nd ref="747870057"/>
    <nd ref="747870060"/>
    <nd ref="39819029"/>
    <tag k="highway" v="residential"/>
    <tag k="name" v="Heatherglen Road"/>
    <tag k="NOTE" v="TAKE CARE: BING (ONLY HIGH ZOOM) MAPS HAVE OFFSET"/>
  </way>
  <way id="60211884" version="6" timestamp="2012-08-11T14:48:50Z" uid="418724" user="wintersportler" changeset="12692107">
    <nd ref="36701331"/>
    <nd ref="747870050"/>
    <nd ref="747870057"/>
    <nd ref="747870060"/>
    <nd ref="39819029"/>
    <tag k="highway" v="residential"/>
    <tag k="name" v="Heatherglen Road"/>
    <tag k="NOTE" v="BING MAPS SHOP OFFSET IN HIGH ZOOM"/>
  </way>
  <way id="60211884" version="7" timestamp="2012-08-11T23:03:09Z" uid="418724" user="wintersportler" changeset="12696740">
    <nd ref="36701331"/>
    <nd ref="747870050"/>
    <nd ref="747870057"/>
    <nd ref="747870060"/>
    <nd ref="39819029"/>
    <tag k="highway" v="residential"/>
    <tag k="name" v="Heatherglen Road"/>
    <tag k="NOTE" v="BING MAPS SHOW OFFSET IN HIGH ZOOM"/>
  </way>
  <way id="60211886" version="4" timestamp="2012-08-10T00:20:44Z" uid="418724" user="wintersportler" changeset="12675073">
    <nd ref="747870066"/>
    <nd ref="747870070"/>
    <nd ref="747870074"/>
    <nd ref="747870089"/>
    <nd ref="747870094"/>
    <nd ref="747870103"/>
    <nd ref="747870109"/>
    <nd ref="747870111"/>
    <nd ref="747870114"/>
    <nd ref="747870118"/>
    <tag k="highway" v="residential"/>
    <tag k="name" v="Buttermilk Way"/>
    <tag k="NOTE" v="TAKE CARE: BING (ONLY HIGH ZOOM) MAPS HAVE OFFSET"/>
  </way>
  <way id="60211886" version="5" timestamp="2012-08-11T14:48:27Z" uid="418724" user="wintersportler" changeset="12692107">
    <nd ref="1861625416"/>
    <nd ref="747870070"/>
    <nd ref="747870074"/>
    <nd ref="747870089"/>
    <nd ref="747870094"/>
    <nd ref="747870103"/>
    <nd ref="747870109"/>
    <nd ref="747870111"/>
    <nd ref="747870114"/>
    <nd ref="747870118"/>
    <tag k="highway" v="residential"/>
    <tag k="name" v="Buttermilk Way"/>
    <tag k="NOTE" v="BING MAPS SHOP OFFSET IN HIGH ZOOM"/>
  </way>
  <way id="60211886" version="6" timestamp="2012-08-11T23:03:02Z" uid="418724" user="wintersportler" changeset="12696740">
    <nd ref="1861625416"/>
    <nd ref="747870070"/>
    <nd ref="747870074"/>
    <nd ref="747870089"/>
    <nd ref="747870094"/>
    <nd ref="747870103"/>
    <nd ref="747870109"/>
    <nd ref="747870111"/>
    <nd ref="747870114"/>
    <nd ref="747870118"/>
    <tag k="highway" v="residential"/>
    <tag k="name" v="Buttermilk Way"/>
    <tag k="NOTE" v="BING MAPS SHOW OFFSET IN HIGH ZOOM"/>
  </way>
  <way id="60211888" version="4" timestamp="2012-08-10T00:20:37Z" uid="418724" user="wintersportler" changeset="12675073">
    <nd ref="747870134"/>
    <nd ref="747870138"/>
    <nd ref="747870141"/>
    <nd ref="747870144"/>
    <nd ref="39816773"/>
    <tag k="highway" v="residential"/>
    <tag k="name" v="Barrow Road"/>
    <tag k="NOTE" v="TAKE CARE: BING (ONLY HIGH ZOOM) MAPS HAVE OFFSET"/>
  </way>
  <way id="60211888" version="5" timestamp="2012-08-11T14:48:22Z" uid="418724" user="wintersportler" changeset="12692107">
    <nd ref="1861625418"/>
    <nd ref="747870138"/>
    <nd ref="747870141"/>
    <nd ref="747870144"/>
    <nd ref="39816773"/>
    <tag k="highway" v="residential"/>
    <tag k="name" v="Barrow Road"/>
    <tag k="NOTE" v="BING MAPS SHOP OFFSET IN HIGH ZOOM"/>
  </way>
  <way id="60211888" version="6" timestamp="2012-08-11T23:03:01Z" uid="418724" user="wintersportler" changeset="12696740">
    <nd ref="1861625418"/>
    <nd ref="747870138"/>
    <nd ref="747870141"/>
    <nd ref="747870144"/>
    <nd ref="39816773"/>
    <tag k="highway" v="residential"/>
    <tag k="name" v="Barrow Road"/>
    <tag k="NOTE" v="BING MAPS SHOW OFFSET IN HIGH ZOOM"/>
  </way>
  <way id="60211891" version="4" timestamp="2012-08-10T00:20:49Z" uid="418724" user="wintersportler" changeset="12675073">
    <nd ref="747870156"/>
    <nd ref="747870159"/>
    <nd ref="747870163"/>
    <nd ref="747870166"/>
    <nd ref="747870168"/>
    <nd ref="39816028"/>
    <tag k="highway" v="residential"/>
    <tag k="name" v="Claddagh Road"/>
    <tag k="NOTE" v="TAKE CARE: BING (ONLY HIGH ZOOM) MAPS HAVE OFFSET"/>
  </way>
  <way id="60211891" version="5" timestamp="2012-08-11T14:48:30Z" uid="418724" user="wintersportler" changeset="12692107">
    <nd ref="1861625417"/>
    <nd ref="747870159"/>
    <nd ref="747870163"/>
    <nd ref="747870166"/>
    <nd ref="747870168"/>
    <nd ref="39816028"/>
    <tag k="highway" v="residential"/>
    <tag k="name" v="Claddagh Road"/>
    <tag k="NOTE" v="BING MAPS SHOP OFFSET IN HIGH ZOOM"/>
  </way>
  <way id="60211891" version="6" timestamp="2012-08-11T23:03:04Z" uid="418724" user="wintersportler" changeset="12696740">
    <nd ref="1861625417"/>
    <nd ref="747870159"/>
    <nd ref="747870163"/>
    <nd ref="747870166"/>
    <nd ref="747870168"/>
    <nd ref="39816028"/>
    <tag k="highway" v="residential"/>
    <tag k="name" v="Claddagh Road"/>
    <tag k="NOTE" v="BING MAPS SHOW OFFSET IN HIGH ZOOM"/>
  </way>
  <way id="60211902" version="5" timestamp="2012-08-10T00:22:10Z" uid="418724" user="wintersportler" changeset="12675073">
    <nd ref="36701333"/>
    <nd ref="747870395"/>
    <nd ref="747870396"/>
    <nd ref="39816028"/>
    <nd ref="747870397"/>
    <nd ref="39816773"/>
    <nd ref="747870398"/>
    <nd ref="747870399"/>
    <nd ref="747870400"/>
    <nd ref="36701320"/>
    <tag k="highway" v="residential"/>
    <tag k="name" v="Taylorhill Road"/>
    <tag k="NOTE" v="TAKE CARE: BING (ONLY HIGH ZOOM) MAPS HAVE OFFSET"/>
  </way>
  <way id="60211902" version="6" timestamp="2012-08-11T14:49:21Z" uid="418724" user="wintersportler" changeset="12692107">
    <nd ref="36701333"/>
    <nd ref="747870395"/>
    <nd ref="747870396"/>
    <nd ref="39816028"/>
    <nd ref="747870397"/>
    <nd ref="39816773"/>
    <nd ref="747870398"/>
    <nd ref="747870399"/>
    <nd ref="747870400"/>
    <nd ref="36701320"/>
    <tag k="highway" v="residential"/>
    <tag k="name" v="Taylorhill Road"/>
    <tag k="NOTE" v="BING MAPS SHOP OFFSET IN HIGH ZOOM"/>
  </way>
  <way id="60211902" version="7" timestamp="2012-08-11T23:03:19Z" uid="418724" user="wintersportler" changeset="12696740">
    <nd ref="36701333"/>
    <nd ref="747870395"/>
    <nd ref="747870396"/>
    <nd ref="39816028"/>
    <nd ref="747870397"/>
    <nd ref="39816773"/>
    <nd ref="747870398"/>
    <nd ref="747870399"/>
    <nd ref="747870400"/>
    <nd ref="36701320"/>
    <tag k="highway" v="residential"/>
    <tag k="name" v="Taylorhill Road"/>
    <tag k="NOTE" v="BING MAPS SHOW OFFSET IN HIGH ZOOM"/>
  </way>
  <way id="60211904" version="5" timestamp="2012-08-11T14:48:34Z" uid="418724" user="wintersportler" changeset="12692107">
    <nd ref="39817759"/>
    <nd ref="747870402"/>
    <nd ref="747870403"/>
    <nd ref="747870404"/>
    <nd ref="747870405"/>
    <nd ref="747870406"/>
    <nd ref="39817707"/>
    <tag k="highway" v="residential"/>
    <tag k="name" v="Connemarra Way"/>
    <tag k="NOTE" v="BING MAPS SHOP OFFSET IN HIGH ZOOM"/>
  </way>
  <way id="60211904" version="6" timestamp="2012-08-11T23:03:04Z" uid="418724" user="wintersportler" changeset="12696740">
    <nd ref="39817759"/>
    <nd ref="747870402"/>
    <nd ref="747870403"/>
    <nd ref="747870404"/>
    <nd ref="747870405"/>
    <nd ref="747870406"/>
    <nd ref="39817707"/>
    <tag k="highway" v="residential"/>
    <tag k="name" v="Connemarra Way"/>
    <tag k="NOTE" v="BING MAPS SHOW OFFSET IN HIGH ZOOM"/>
  </way>
  <way id="60211906" version="5" timestamp="2012-08-10T00:20:56Z" uid="418724" user="wintersportler" changeset="12675073">
    <nd ref="747870404"/>
    <nd ref="747870408"/>
    <nd ref="39818336"/>
    <tag k="highway" v="residential"/>
    <tag k="name" v="Corrib Way"/>
    <tag k="NOTE" v="TAKE CARE: BING (ONLY HIGH ZOOM) MAPS HAVE OFFSET"/>
  </way>
  <way id="60211906" version="6" timestamp="2012-08-11T14:48:35Z" uid="418724" user="wintersportler" changeset="12692107">
    <nd ref="747870404"/>
    <nd ref="747870408"/>
    <nd ref="39818336"/>
    <tag k="highway" v="residential"/>
    <tag k="name" v="Corrib Way"/>
    <tag k="NOTE" v="BING MAPS SHOP OFFSET IN HIGH ZOOM"/>
  </way>
  <way id="60211906" version="7" timestamp="2012-08-11T23:03:05Z" uid="418724" user="wintersportler" changeset="12696740">
    <nd ref="747870404"/>
    <nd ref="747870408"/>
    <nd ref="39818336"/>
    <tag k="highway" v="residential"/>
    <tag k="name" v="Corrib Way"/>
    <tag k="NOTE" v="BING MAPS SHOW OFFSET IN HIGH ZOOM"/>
  </way>
  <way id="60211924" version="5" timestamp="2012-08-11T14:49:19Z" uid="418724" user="wintersportler" changeset="12692107">
    <nd ref="38793436"/>
    <nd ref="747870410"/>
    <nd ref="747870411"/>
    <nd ref="747870412"/>
    <nd ref="747870413"/>
    <nd ref="747870414"/>
    <nd ref="747870415"/>
    <nd ref="747870416"/>
    <nd ref="747870417"/>
    <nd ref="747870418"/>
    <nd ref="747870419"/>
    <nd ref="747870420"/>
    <nd ref="38793440"/>
    <nd ref="1861625424"/>
    <tag k="highway" v="residential"/>
    <tag k="name" v="St Nicholas Way"/>
    <tag k="NOTE" v="BING MAPS SHOP OFFSET IN HIGH ZOOM"/>
  </way>
  <way id="60211924" version="6" timestamp="2012-08-11T23:03:18Z" uid="418724" user="wintersportler" changeset="12696740">
    <nd ref="38793436"/>
    <nd ref="747870410"/>
    <nd ref="747870411"/>
    <nd ref="747870412"/>
    <nd ref="747870413"/>
    <nd ref="747870414"/>
    <nd ref="747870415"/>
    <nd ref="747870416"/>
    <nd ref="747870417"/>
    <nd ref="747870418"/>
    <nd ref="747870419"/>
    <nd ref="747870420"/>
    <nd ref="38793440"/>
    <nd ref="1861625424"/>
    <tag k="highway" v="residential"/>
    <tag k="name" v="St Nicholas Way"/>
    <tag k="NOTE" v="BING MAPS SHOW OFFSET IN HIGH ZOOM"/>
  </way>
</osm>
