<?xml version='1.0' encoding='UTF-8'?>
<osm version="0.6" generator="libosmium/2.20.0">
  <way id="6058032" version="3" timestamp="2010-01-25T08:13:50Z" uid="30201" user="rrankin" changeset="3708756">
    <nd ref="26391951"/>
    <nd ref="49805131"/>
    <nd ref="49805133"/>
    <nd ref="619714696"/>
    <nd ref="49808013"/>
    <nd ref="49808014"/>
    <nd ref="49808763"/>
    <nd ref="49808016"/>
    <tag k="highway" v="residential"/>
    <tag k="name" v="Mills Avenue"/>
  </way>
  <way id="6058032" version="4" timestamp="2010-07-08T00:03:03Z" uid="74617" user="JohnSmith" changeset="5162525">
    <nd ref="26391951"/>
    <nd ref="49805131"/>
    <nd ref="49805133"/>
    <nd ref="619714696"/>
    <nd ref="49808013"/>
    <nd ref="49808014"/>
    <nd ref="49808763"/>
    <nd ref="49808016"/>
    <tag k="highway" v="residential"/>
    <tag k="maxspeed" v="50"/>
    <tag k="maxspeed:source" v="default residential speed limit in Australia"/>
    <tag k="name" v="Mills Avenue"/>
  </way>
  <way id="6058032" version="5" timestamp="2010-07-08T00:13:16Z" uid="74617" user="JohnSmith" changeset="5162525">
    <nd ref="26391951"/>
    <nd ref="49805131"/>
    <nd ref="49805133"/>
    <nd ref="619714696"/>
    <nd ref="49808013"/>
    <nd ref="49808014"/>
    <nd ref="49808763"/>
    <nd ref="49808016"/>
    <tag k="highway" v="residential"/>
    <tag k="maxspeed" v="50"/>
    <tag k="maxspeed:source" v="default residential speed limit in Australia"/>
    <tag k="name" v="Mills Avenue"/>
  </way>
  <way id="6058032" version="6" timestamp="2012-01-15T06:06:53Z" uid="147510" user="woodpeck_fixbot" changeset="10394821">
    <nd ref="26391951"/>
    <nd ref="49805131"/>
    <nd ref="49805133"/>
    <nd ref="619714696"/>
    <nd ref="49808013"/>
    <nd ref="49808014"/>
    <nd ref="49808763"/>
    <nd ref="49808016"/>
    <tag k="highway" v="residential"/>
    <tag k="name" v="Mills Avenue"/>
  </way>
  <way id="6058059" version="3" timestamp="2010-07-08T00:03:29Z" uid="74617" user="JohnSmith" changeset="5162525">
    <nd ref="49808763"/>
    <nd ref="49808794"/>
    <nd ref="49808796"/>
    <tag k="highway" v="residential"/>
    <tag k="maxspeed" v="50"/>
    <tag k="maxspeed:source" v="default residential speed limit in Australia"/>
    <tag k="name" v="Lincoln Close"/>
  </way>
  <way id="6058059" version="4" timestamp="2010-07-08T00:13:47Z" uid="74617" user="JohnSmith" changeset="5162525">
    <nd ref="49808763"/>
    <nd ref="49808794"/>
    <nd ref="49808796"/>
    <tag k="highway" v="residential"/>
    <tag k="maxspeed" v="50"/>
    <tag k="maxspeed:source" v="default residential speed limit in Australia"/>
    <tag k="name" v="Lincoln Close"/>
  </way>
  <way id="6058059" version="5" timestamp="2012-01-15T06:06:54Z" uid="147510" user="woodpeck_fixbot" changeset="10394821">
    <nd ref="49808763"/>
    <nd ref="49808794"/>
    <nd ref="49808796"/>
    <tag k="highway" v="residential"/>
    <tag k="name" v="Lincoln Close"/>
  </way>
  <way id="6058933" version="1" timestamp="2007-09-12T11:31:57Z" uid="6454" user="B10xxx" changeset="414290">
    <nd ref="49821346"/>
    <nd ref="49823110"/>
    <tag k="created_by" v="Potlatch alpha"/>
    <tag k="highway" v="residential"/>
  </way>
  <way id="6058933" version="2" timestamp="2008-09-02T15:13:50Z" uid="21791" user="ico" changeset="501774">
    <nd ref="49821346"/>
    <nd ref="49823110"/>
    <tag k="created_by" v="Potlatch alpha"/>
    <tag k="highway" v="residential"/>
  </way>
  <way id="6058933" version="3" timestamp="2009-08-09T10:25:01Z" uid="132706" user="NicoRay" changeset="2083700">
    <nd ref="49821346"/>
    <nd ref="459511489"/>
    <nd ref="49823110"/>
    <tag k="created_by" v="Potlatch alpha"/>
    <tag k="highway" v="residential"/>
    <tag k="name" v="Via Doge Galla"/>
  </way>
  <way id="6058933" version="4" timestamp="2009-09-15T09:13:44Z" uid="171989" user="Piggei" changeset="2490175">
    <nd ref="49821346"/>
    <nd ref="459511489"/>
    <nd ref="49823110"/>
    <tag k="highway" v="residential"/>
    <tag k="name" v="via Doge Galla"/>
  </way>
  <way id="6058933" version="5" timestamp="2010-09-04T12:28:32Z" uid="49225" user="gvf" changeset="5678360">
    <nd ref="49821346"/>
    <nd ref="459511489"/>
    <nd ref="895559819"/>
    <tag k="highway" v="residential"/>
    <tag k="name" v="Via Doge Galla"/>
  </way>
  <way id="6058987" version="3" timestamp="2007-11-18T18:38:28Z" uid="8328" user="benpre" changeset="554918">
    <nd ref="49823607"/>
    <nd ref="49823817"/>
    <nd ref="49823601"/>
    <nd ref="49823656"/>
    <nd ref="122274049"/>
    <tag k="created_by" v="JOSM"/>
    <tag k="highway" v="tertiary"/>
    <tag k="name" v="Jettenburger Straße"/>
    <tag k="ref" v="K6907"/>
  </way>
  <way id="6058987" version="4" timestamp="2008-06-24T19:46:44Z" uid="45517" user="Peter7" changeset="288115">
    <nd ref="49823607"/>
    <nd ref="272841083"/>
    <nd ref="49823817"/>
    <nd ref="49823601"/>
    <nd ref="49823656"/>
    <nd ref="122274049"/>
    <tag k="created_by" v="JOSM"/>
    <tag k="highway" v="tertiary"/>
    <tag k="name" v="Jettenburger Straße"/>
    <tag k="ref" v="K6907"/>
  </way>
  <way id="6058987" version="5" timestamp="2008-06-25T15:11:55Z" uid="41122" user="nillde" changeset="296750">
    <nd ref="49823607"/>
    <nd ref="272841083"/>
    <nd ref="49823817"/>
    <nd ref="49823601"/>
    <nd ref="49823656"/>
    <nd ref="122274049"/>
    <tag k="created_by" v="Potlatch 0.9c"/>
    <tag k="highway" v="secondary"/>
    <tag k="name" v="Jettenburger Straße"/>
    <tag k="ref" v="K6907"/>
  </way>
  <way id="6058987" version="6" timestamp="2008-06-27T21:27:43Z" uid="45517" user="Peter7" changeset="318015">
    <nd ref="49823607"/>
    <nd ref="272841083"/>
    <nd ref="49823817"/>
    <nd ref="274105816"/>
    <nd ref="49823601"/>
    <nd ref="49823656"/>
    <nd ref="122274049"/>
    <tag k="created_by" v="Potlatch 0.9c"/>
    <tag k="highway" v="secondary"/>
    <tag k="name" v="Jettenburger Straße"/>
    <tag k="ref" v="K6907"/>
  </way>
  <way id="6058987" version="7" timestamp="2008-09-17T00:57:40Z" uid="31059" user="DaBear" changeset="653506">
    <nd ref="49823607"/>
    <nd ref="272841083"/>
    <nd ref="49823817"/>
    <nd ref="274105816"/>
    <nd ref="49823601"/>
    <nd ref="49823656"/>
    <nd ref="122274049"/>
    <tag k="created_by" v="Potlatch 0.9c"/>
    <tag k="highway" v="secondary"/>
    <tag k="name" v="Jettenburger Straße"/>
    <tag k="ref" v="K 6907"/>
  </way>
  <way id="6058987" version="8" timestamp="2008-12-14T14:32:25Z" uid="23785" user="Simon Kokolakis" changeset="378085">
    <nd ref="49823607"/>
    <nd ref="272841083"/>
    <nd ref="49823817"/>
    <nd ref="274105816"/>
    <nd ref="49823601"/>
    <nd ref="49823656"/>
    <nd ref="122274049"/>
    <tag k="created_by" v="Potlatch 0.10f"/>
    <tag k="highway" v="secondary"/>
    <tag k="name" v="Jettenburger Straße"/>
    <tag k="ref" v="K 6907"/>
  </way>
  <way id="6058987" version="9" timestamp="2008-12-14T14:32:27Z" uid="23785" user="Simon Kokolakis" changeset="378085">
    <nd ref="49823607"/>
    <nd ref="272841083"/>
    <nd ref="49823817"/>
    <nd ref="274105816"/>
    <nd ref="49823601"/>
    <nd ref="49823656"/>
    <nd ref="122274049"/>
    <tag k="created_by" v="Potlatch 0.10f"/>
    <tag k="highway" v="secondary"/>
    <tag k="name" v="Jettenburger Straße"/>
    <tag k="ref" v="K 6907"/>
  </way>
  <way id="6058987" version="10" timestamp="2008-12-14T14:32:46Z" uid="23785" user="Simon Kokolakis" changeset="378085">
    <nd ref="49823607"/>
    <nd ref="272841083"/>
    <nd ref="49823817"/>
    <nd ref="274105816"/>
    <nd ref="49823601"/>
    <nd ref="49823656"/>
    <nd ref="122274049"/>
    <tag k="created_by" v="Potlatch 0.10f"/>
    <tag k="highway" v="secondary"/>
    <tag k="name" v="Jettenburger Straße"/>
    <tag k="ref" v="K 6907"/>
  </way>
  <way id="6058987" version="11" timestamp="2008-12-14T14:32:58Z" uid="23785" user="Simon Kokolakis" changeset="378085">
    <nd ref="49823646"/>
    <nd ref="49823630"/>
    <nd ref="49823627"/>
    <nd ref="49823641"/>
    <nd ref="49823636"/>
    <nd ref="49823624"/>
    <nd ref="49823607"/>
    <nd ref="272841083"/>
    <nd ref="49823817"/>
    <nd ref="274105816"/>
    <nd ref="49823601"/>
    <nd ref="49823656"/>
    <nd ref="122274049"/>
    <tag k="created_by" v="Potlatch 0.10f"/>
    <tag k="highway" v="secondary"/>
    <tag k="name" v="Jettenburger Straße"/>
    <tag k="ref" v="K 6907"/>
  </way>
  <way id="6058987" version="12" timestamp="2008-12-14T14:33:03Z" uid="23785" user="Simon Kokolakis" changeset="378085">
    <nd ref="49823646"/>
    <nd ref="49823630"/>
    <nd ref="49823627"/>
    <nd ref="49823641"/>
    <nd ref="49823636"/>
    <nd ref="49823624"/>
    <nd ref="272841083"/>
    <nd ref="49823817"/>
    <nd ref="274105816"/>
    <nd ref="49823601"/>
    <nd ref="49823656"/>
    <nd ref="122274049"/>
    <tag k="created_by" v="Potlatch 0.10f"/>
    <tag k="highway" v="secondary"/>
    <tag k="name" v="Jettenburger Straße"/>
    <tag k="ref" v="K 6907"/>
  </way>
  <way id="6058987" version="13" timestamp="2008-12-14T14:33:14Z" uid="23785" user="Simon Kokolakis" changeset="378085">
    <nd ref="49823646"/>
    <nd ref="49823630"/>
    <nd ref="49823627"/>
    <nd ref="49823641"/>
    <nd ref="49823636"/>
    <nd ref="49823624"/>
    <nd ref="318619371"/>
    <nd ref="272841083"/>
    <nd ref="49823817"/>
    <nd ref="274105816"/>
    <nd ref="49823601"/>
    <nd ref="49823656"/>
    <nd ref="122274049"/>
    <tag k="created_by" v="Potlatch 0.10f"/>
    <tag k="highway" v="secondary"/>
    <tag k="name" v="Jettenburger Straße"/>
    <tag k="ref" v="K 6907"/>
  </way>
  <way id="6058987" version="14" timestamp="2008-12-14T14:33:36Z" uid="23785" user="Simon Kokolakis" changeset="378085">
    <nd ref="49823646"/>
    <nd ref="49823630"/>
    <nd ref="49823627"/>
    <nd ref="318619569"/>
    <nd ref="49823641"/>
    <nd ref="49823636"/>
    <nd ref="318619570"/>
    <nd ref="49823624"/>
    <nd ref="318619371"/>
    <nd ref="272841083"/>
    <nd ref="49823817"/>
    <nd ref="274105816"/>
    <nd ref="49823601"/>
    <nd ref="49823656"/>
    <nd ref="122274049"/>
    <tag k="created_by" v="Potlatch 0.10f"/>
    <tag k="highway" v="secondary"/>
    <tag k="name" v="Jettenburger Straße"/>
    <tag k="ref" v="K 6907"/>
  </way>
  <way id="6058987" version="15" timestamp="2009-05-15T17:06:31Z" uid="120087" user="Plasmon" changeset="1201917">
    <nd ref="49823646"/>
    <nd ref="49823630"/>
    <nd ref="49823627"/>
    <nd ref="318619569"/>
    <nd ref="49823641"/>
    <nd ref="49823636"/>
    <nd ref="318619570"/>
    <nd ref="49823624"/>
    <nd ref="318619371"/>
    <nd ref="272841083"/>
    <nd ref="49823817"/>
    <tag k="created_by" v="Potlatch 0.10f"/>
    <tag k="highway" v="secondary"/>
    <tag k="name" v="Jettenburger Straße"/>
    <tag k="ref" v="K 6907"/>
  </way>
  <way id="6058987" version="16" timestamp="2009-06-01T14:03:18Z" uid="85761" user="klausis" changeset="1379895">
    <nd ref="49823646"/>
    <nd ref="49823630"/>
    <nd ref="49823627"/>
    <nd ref="318619569"/>
    <nd ref="49823641"/>
    <nd ref="49823636"/>
    <nd ref="318619570"/>
    <nd ref="49823624"/>
    <nd ref="318619371"/>
    <nd ref="272841083"/>
    <nd ref="49823817"/>
    <tag k="highway" v="secondary"/>
    <tag k="name" v="Jettenburger Straße"/>
    <tag k="ref" v="K 6907"/>
  </way>
  <way id="6058987" version="17" timestamp="2009-10-19T09:38:12Z" uid="66044" user="Reusi" changeset="2892337">
    <nd ref="49823646"/>
    <nd ref="49823630"/>
    <nd ref="49823627"/>
    <nd ref="318619569"/>
    <nd ref="49823641"/>
    <nd ref="535162340"/>
    <nd ref="49823636"/>
    <nd ref="318619570"/>
    <nd ref="49823624"/>
    <nd ref="318619371"/>
    <nd ref="272841083"/>
    <nd ref="49823817"/>
    <tag k="highway" v="secondary"/>
    <tag k="name" v="Jettenburger Straße"/>
    <tag k="ref" v="K 6907"/>
  </way>
  <way id="6058987" version="18" timestamp="2010-09-21T21:07:20Z" uid="115923" user="Zini" changeset="5840949">
    <nd ref="49823646"/>
    <nd ref="49823630"/>
    <nd ref="49823627"/>
    <nd ref="318619569"/>
    <nd ref="49823641"/>
    <nd ref="535162340"/>
    <nd ref="49823636"/>
    <nd ref="318619570"/>
    <nd ref="49823624"/>
    <nd ref="318619371"/>
    <nd ref="920780826"/>
    <nd ref="272841083"/>
    <nd ref="49823817"/>
    <tag k="highway" v="secondary"/>
    <tag k="name" v="Jettenburger Straße"/>
    <tag k="ref" v="K 6907"/>
  </way>
  <way id="6058032" version="7" timestamp="2012-07-19T20:06:16Z" uid="722137" user="OSMF Redaction Account" changeset="12345715">
    <nd ref="26391951"/>
    <nd ref="49805131"/>
    <nd ref="49805133"/>
    <nd ref="49808013"/>
    <nd ref="49808014"/>
    <nd ref="49808763"/>
    <nd ref="49808016"/>
    <tag k="highway" v="residential"/>
    <tag k="name" v="Mills Avenue"/>
  </way>
  <way id="6058933" version="6" timestamp="2012-07-16T23:28:46Z" uid="722137" user="OSMF Redaction Account" changeset="12253441">
    <nd ref="459511489"/>
    <nd ref="895559819"/>
    <tag k="name" v="Via Doge Galla"/>
  </way>
  <way id="6058933" version="7" timestamp="2012-07-28T20:45:15Z" uid="334258" user="Kurt34" changeset="12527711">
    <nd ref="49821346"/>
    <nd ref="459511489"/>
    <nd ref="895559819"/>
    <tag k="highway" v="residential"/>
    <tag k="name" v="Via Doge Galla"/>
  </way>
  <way id="6058987" version="19" timestamp="2012-06-01T19:27:59Z" uid="201755" user="Defcon50" changeset="11770951">
    <nd ref="49823646"/>
    <nd ref="49823630"/>
    <nd ref="49823627"/>
    <nd ref="318619569"/>
    <nd ref="49823641"/>
    <nd ref="535162340"/>
    <nd ref="49823636"/>
    <nd ref="318619570"/>
    <nd ref="49823624"/>
    <nd ref="318619371"/>
    <nd ref="920780826"/>
    <nd ref="272841083"/>
    <nd ref="49823817"/>
    <tag k="highway" v="secondary"/>
    <tag k="lanes" v="2"/>
    <tag k="name" v="Jettenburger Straße"/>
    <tag k="ref" v="K 6907"/>
  </way>
  <way id="6058987" version="20" timestamp="2012-08-01T12:24:53Z" uid="548288" user="WayneSchlegel" changeset="12573596">
    <nd ref="49823646"/>
    <nd ref="49823630"/>
    <nd ref="49823627"/>
    <nd ref="318619569"/>
    <nd ref="49823641"/>
    <nd ref="535162340"/>
    <nd ref="49823636"/>
    <nd ref="318619570"/>
    <nd ref="49823624"/>
    <nd ref="318619371"/>
    <nd ref="920780826"/>
    <nd ref="272841083"/>
    <nd ref="1846800133"/>
    <nd ref="49823817"/>
    <tag k="highway" v="secondary"/>
    <tag k="lanes" v="2"/>
    <tag k="name" v="Jettenburger Straße"/>
    <tag k="ref" v="K 6907"/>
  </way>
</osm>
