<?xml version='1.0' encoding='UTF-8'?>
<osm version="0.6" generator="libosmium/2.20.0">
  <way id="60590233" version="1" timestamp="2010-05-29T20:23:55Z" uid="115477" user="wowik" changeset="4845916">
    <nd ref="757379918"/>
    <nd ref="757379922"/>
    <nd ref="757379923"/>
    <nd ref="757379926"/>
    <nd ref="757379918"/>
    <tag k="building" v="yes"/>
  </way>
  <way id="60590233" version="2" timestamp="2011-02-04T11:17:22Z" uid="241531" user="dik_man" changeset="7182088">
    <nd ref="757379918"/>
    <nd ref="757379922"/>
    <nd ref="1135477079"/>
    <nd ref="1135477084"/>
    <nd ref="757379923"/>
    <nd ref="757379926"/>
    <nd ref="1135477203"/>
    <nd ref="1135477109"/>
    <nd ref="757379918"/>
    <tag k="building" v="yes"/>
  </way>
  <way id="60590237" version="1" timestamp="2010-05-29T20:23:55Z" uid="115477" user="wowik" changeset="4845916">
    <nd ref="757379930"/>
    <nd ref="757379932"/>
    <nd ref="757368444"/>
    <tag k="highway" v="service"/>
    <tag k="living_street" v="yes"/>
  </way>
  <way id="60590241" version="1" timestamp="2010-05-29T20:23:56Z" uid="115477" user="wowik" changeset="4845916">
    <nd ref="757379938"/>
    <nd ref="757379943"/>
    <nd ref="757379945"/>
    <tag k="highway" v="service"/>
    <tag k="living_street" v="yes"/>
  </way>
  <way id="60590241" version="2" timestamp="2011-01-21T19:26:40Z" uid="115477" user="wowik" changeset="7043561">
    <nd ref="757379938"/>
    <nd ref="1113616205"/>
    <nd ref="757379943"/>
    <nd ref="757379945"/>
    <tag k="highway" v="service"/>
    <tag k="living_street" v="yes"/>
  </way>
  <way id="60590244" version="1" timestamp="2010-05-29T20:23:56Z" uid="115477" user="wowik" changeset="4845916">
    <nd ref="757379947"/>
    <nd ref="757379948"/>
    <nd ref="757379949"/>
    <nd ref="757379950"/>
    <tag k="highway" v="service"/>
    <tag k="living_street" v="yes"/>
  </way>
  <way id="60590247" version="1" timestamp="2010-05-29T20:23:57Z" uid="115477" user="wowik" changeset="4845916">
    <nd ref="757379951"/>
    <nd ref="757379952"/>
    <nd ref="757379953"/>
    <nd ref="757379954"/>
  </way>
  <way id="60590247" version="2" timestamp="2010-05-29T20:25:14Z" uid="115477" user="wowik" changeset="4845916">
    <nd ref="757380351"/>
    <nd ref="757379951"/>
    <nd ref="757379952"/>
    <nd ref="757379953"/>
    <nd ref="757379954"/>
    <tag k="highway" v="service"/>
  </way>
  <way id="60590247" version="3" timestamp="2010-09-12T06:58:46Z" uid="241531" user="dik_man" changeset="5756032">
    <nd ref="757380351"/>
    <nd ref="757379951"/>
    <nd ref="757379952"/>
    <nd ref="757379953"/>
    <nd ref="757379954"/>
    <tag k="highway" v="service"/>
    <tag k="living_street" v="yes"/>
  </way>
  <way id="60590253" version="1" timestamp="2010-05-29T20:23:57Z" uid="115477" user="wowik" changeset="4845916">
    <nd ref="757379955"/>
    <nd ref="757379956"/>
    <nd ref="757379957"/>
    <nd ref="757379958"/>
    <nd ref="757379955"/>
    <tag k="building" v="yes"/>
  </way>
  <way id="60590253" version="2" timestamp="2010-09-12T06:58:43Z" uid="241531" user="dik_man" changeset="5756032">
    <nd ref="757379958"/>
    <nd ref="757379955"/>
    <nd ref="757379956"/>
    <nd ref="757379957"/>
    <nd ref="757379958"/>
    <tag k="building" v="yes"/>
  </way>
  <way id="60590253" version="3" timestamp="2011-01-21T19:30:07Z" uid="115477" user="wowik" changeset="7043561">
    <nd ref="757379958"/>
    <nd ref="757379955"/>
    <nd ref="757379956"/>
    <nd ref="757379957"/>
    <nd ref="757379958"/>
    <tag k="building" v="yes"/>
    <tag k="building:use" v="residential"/>
  </way>
  <way id="60590256" version="1" timestamp="2010-05-29T20:23:58Z" uid="115477" user="wowik" changeset="4845916">
    <nd ref="757379959"/>
    <nd ref="757379960"/>
    <nd ref="757379961"/>
    <nd ref="757379962"/>
    <nd ref="757379959"/>
    <tag k="building" v="yes"/>
  </way>
  <way id="60590256" version="2" timestamp="2011-01-21T19:30:35Z" uid="115477" user="wowik" changeset="7043561">
    <nd ref="757379959"/>
    <nd ref="757379960"/>
    <nd ref="757379961"/>
    <nd ref="757379962"/>
    <nd ref="757379959"/>
    <tag k="building" v="yes"/>
    <tag k="building:use" v="residential"/>
  </way>
  <way id="60590259" version="1" timestamp="2010-05-29T20:23:59Z" uid="115477" user="wowik" changeset="4845916">
    <nd ref="757379963"/>
    <nd ref="757379964"/>
    <nd ref="757379965"/>
    <nd ref="757379966"/>
    <nd ref="757379967"/>
    <nd ref="757379968"/>
    <nd ref="757379969"/>
    <nd ref="757379970"/>
    <nd ref="757379963"/>
    <tag k="building" v="yes"/>
  </way>
  <way id="60590259" version="2" timestamp="2011-01-24T19:01:53Z" uid="115477" user="wowik" changeset="7076499">
    <nd ref="757379963"/>
    <nd ref="757379964"/>
    <nd ref="757379965"/>
    <nd ref="757379967"/>
    <nd ref="757379968"/>
    <nd ref="1119094376"/>
    <nd ref="1119095587"/>
    <nd ref="757379969"/>
    <nd ref="757379970"/>
    <nd ref="757379963"/>
    <tag k="building" v="yes"/>
  </way>
  <way id="60590263" version="1" timestamp="2010-05-29T20:24:00Z" uid="115477" user="wowik" changeset="4845916">
    <nd ref="757379971"/>
    <nd ref="757379972"/>
    <nd ref="757379973"/>
    <nd ref="757379974"/>
    <nd ref="757379971"/>
    <tag k="building" v="yes"/>
  </way>
  <way id="60590266" version="1" timestamp="2010-05-29T20:24:00Z" uid="115477" user="wowik" changeset="4845916">
    <nd ref="757379975"/>
    <nd ref="757379976"/>
    <tag k="highway" v="service"/>
    <tag k="living_street" v="yes"/>
  </way>
  <way id="60590266" version="2" timestamp="2011-01-24T19:02:07Z" uid="115477" user="wowik" changeset="7076499">
    <nd ref="1119095096"/>
    <nd ref="1119094879"/>
    <nd ref="1119094309"/>
    <nd ref="757379975"/>
    <nd ref="757379976"/>
    <tag k="highway" v="service"/>
    <tag k="living_street" v="yes"/>
  </way>
  <way id="60590282" version="1" timestamp="2010-05-29T20:24:03Z" uid="115477" user="wowik" changeset="4845916">
    <nd ref="757379978"/>
    <nd ref="757379981"/>
    <nd ref="757379982"/>
    <nd ref="757379983"/>
    <nd ref="757379977"/>
    <tag k="highway" v="service"/>
    <tag k="living_street" v="yes"/>
  </way>
  <way id="60590282" version="2" timestamp="2010-09-12T06:58:45Z" uid="241531" user="dik_man" changeset="5756032">
    <nd ref="757379978"/>
    <nd ref="907822603"/>
    <nd ref="907822683"/>
    <nd ref="757379981"/>
    <nd ref="907822684"/>
    <nd ref="757379982"/>
    <nd ref="757379983"/>
    <nd ref="757379977"/>
    <tag k="highway" v="service"/>
    <tag k="living_street" v="yes"/>
  </way>
  <way id="60590282" version="3" timestamp="2011-01-24T17:31:02Z" uid="115477" user="wowik" changeset="7075407"/>
  <way id="60590560" version="1" timestamp="2010-05-29T20:25:15Z" uid="115477" user="wowik" changeset="4845916">
    <nd ref="757380405"/>
    <nd ref="757380406"/>
    <nd ref="757380407"/>
    <nd ref="757380408"/>
    <nd ref="757380409"/>
    <nd ref="757380410"/>
    <nd ref="757380405"/>
    <tag k="building" v="yes"/>
  </way>
  <way id="60590560" version="2" timestamp="2010-10-23T20:52:56Z" uid="362410" user="cherezov_pavel" changeset="6151503">
    <nd ref="757380405"/>
    <nd ref="757380406"/>
    <nd ref="757380407"/>
    <nd ref="757380408"/>
    <nd ref="757380409"/>
    <nd ref="757380410"/>
    <nd ref="757380405"/>
    <tag k="building" v="yes"/>
    <tag k="highway" v="primary"/>
    <tag k="name" v="29"/>
  </way>
  <way id="60590560" version="3" timestamp="2010-10-23T20:57:24Z" uid="362410" user="cherezov_pavel" changeset="6151503">
    <nd ref="757380405"/>
    <nd ref="757380406"/>
    <nd ref="757380407"/>
    <nd ref="757380408"/>
    <nd ref="757380409"/>
    <nd ref="757380410"/>
    <nd ref="757380405"/>
    <tag k="addr:city" v="Andreevka"/>
    <tag k="addr:country" v="Russia"/>
    <tag k="addr:housenumber" v="29"/>
    <tag k="building" v="yes"/>
    <tag k="highway" v="primary"/>
    <tag k="is_in" v="Russia"/>
    <tag k="name" v="29"/>
  </way>
  <way id="60590560" version="4" timestamp="2010-10-24T18:28:26Z" uid="70696" user="xybot" changeset="6160506">
    <nd ref="757380405"/>
    <nd ref="757380406"/>
    <nd ref="757380407"/>
    <nd ref="757380408"/>
    <nd ref="757380409"/>
    <nd ref="757380410"/>
    <nd ref="757380405"/>
    <tag k="addr:city" v="Andreevka"/>
    <tag k="addr:country" v="RU"/>
    <tag k="addr:housenumber" v="29"/>
    <tag k="building" v="yes"/>
    <tag k="highway" v="primary"/>
    <tag k="is_in" v="Russia"/>
    <tag k="name" v="29"/>
  </way>
  <way id="60590560" version="5" timestamp="2010-11-13T16:16:45Z" uid="241531" user="dik_man" changeset="6359431">
    <nd ref="757380405"/>
    <nd ref="757380406"/>
    <nd ref="757380407"/>
    <nd ref="757380408"/>
    <nd ref="757380409"/>
    <nd ref="757380410"/>
    <nd ref="757380405"/>
    <tag k="addr:city" v="Andreevka"/>
    <tag k="addr:country" v="RU"/>
    <tag k="addr:housenumber" v="29"/>
    <tag k="building" v="yes"/>
    <tag k="is_in" v="Russia"/>
    <tag k="name" v="29"/>
  </way>
  <way id="60590560" version="6" timestamp="2010-11-13T16:20:32Z" uid="241531" user="dik_man" changeset="6359431">
    <nd ref="757380408"/>
    <nd ref="987828269"/>
    <nd ref="757380405"/>
    <nd ref="757380406"/>
    <nd ref="757380407"/>
    <nd ref="757380408"/>
    <tag k="addr:city" v="Andreevka"/>
    <tag k="addr:country" v="RU"/>
    <tag k="addr:housenumber" v="29"/>
    <tag k="building" v="yes"/>
    <tag k="is_in" v="Russia"/>
    <tag k="name" v="29"/>
  </way>
  <way id="60590560" version="7" timestamp="2010-11-26T19:46:01Z" uid="115477" user="wowik" changeset="6464631">
    <nd ref="757380408"/>
    <nd ref="987828269"/>
    <nd ref="757380405"/>
    <nd ref="757380406"/>
    <nd ref="757380407"/>
    <nd ref="757380408"/>
    <tag k="addr:city" v="Andreevka"/>
    <tag k="addr:country" v="RU"/>
    <tag k="addr:housenumber" v="29"/>
    <tag k="building" v="yes"/>
    <tag k="is_in" v="Russia"/>
  </way>
  <way id="60590560" version="8" timestamp="2011-01-21T19:30:48Z" uid="115477" user="wowik" changeset="7043561">
    <nd ref="757380408"/>
    <nd ref="987828269"/>
    <nd ref="757380405"/>
    <nd ref="757380406"/>
    <nd ref="757380407"/>
    <nd ref="757380408"/>
    <tag k="addr:city" v="Andreevka"/>
    <tag k="addr:country" v="RU"/>
    <tag k="addr:housenumber" v="29"/>
    <tag k="building" v="yes"/>
    <tag k="building:use" v="residential"/>
    <tag k="is_in" v="Russia"/>
  </way>
  <way id="60590560" version="9" timestamp="2011-09-13T10:25:11Z" uid="29320" user="Komяpa" changeset="9288237">
    <nd ref="757380408"/>
    <nd ref="987828269"/>
    <nd ref="757380405"/>
    <nd ref="757380406"/>
    <nd ref="757380407"/>
    <nd ref="757380408"/>
    <tag k="addr:city" v="Andreevka"/>
    <tag k="addr:country" v="RU"/>
    <tag k="addr:housenumber" v="29"/>
    <tag k="building" v="yes"/>
    <tag k="building:use" v="residential"/>
  </way>
  <way id="60590560" version="10" timestamp="2012-01-16T13:58:33Z" uid="481934" user="iWowik" changeset="10408353">
    <nd ref="757380408"/>
    <nd ref="987828269"/>
    <nd ref="757380405"/>
    <nd ref="757380406"/>
    <nd ref="757380407"/>
    <nd ref="757380408"/>
    <tag k="addr:city" v="Андреевка"/>
    <tag k="addr:country" v="RU"/>
    <tag k="addr:housenumber" v="29"/>
    <tag k="addr:street" v="посёлок Андреевка"/>
    <tag k="building" v="yes"/>
    <tag k="building:use" v="residential"/>
  </way>
  <way id="60590568" version="1" timestamp="2010-05-29T20:25:17Z" uid="115477" user="wowik" changeset="4845916">
    <nd ref="757380411"/>
    <nd ref="757380412"/>
    <nd ref="757380414"/>
    <nd ref="757380417"/>
    <nd ref="757380411"/>
    <tag k="building" v="yes"/>
  </way>
  <way id="60590568" version="2" timestamp="2010-10-23T20:49:41Z" uid="362410" user="cherezov_pavel" changeset="6151492">
    <nd ref="757380411"/>
    <nd ref="757380412"/>
    <nd ref="757380414"/>
    <nd ref="757380417"/>
    <nd ref="757380411"/>
    <tag k="building" v="yes"/>
    <tag k="highway" v="primary"/>
    <tag k="name" v="28"/>
  </way>
  <way id="60590568" version="3" timestamp="2010-10-23T20:55:55Z" uid="362410" user="cherezov_pavel" changeset="6151503">
    <nd ref="757380411"/>
    <nd ref="757380412"/>
    <nd ref="757380414"/>
    <nd ref="757380417"/>
    <nd ref="757380411"/>
    <tag k="addr:city" v="Andreevka"/>
    <tag k="addr:housenumber" v="28"/>
    <tag k="building" v="yes"/>
    <tag k="highway" v="primary"/>
    <tag k="is_in" v="Russia"/>
    <tag k="name" v="28"/>
  </way>
  <way id="60590568" version="4" timestamp="2010-10-23T20:58:39Z" uid="362410" user="cherezov_pavel" changeset="6151503">
    <nd ref="757380411"/>
    <nd ref="757380412"/>
    <nd ref="757380414"/>
    <nd ref="757380417"/>
    <nd ref="757380411"/>
    <tag k="addr:city" v="Andreevka"/>
    <tag k="addr:country" v="Russia"/>
    <tag k="addr:housenumber" v="28"/>
    <tag k="building" v="yes"/>
    <tag k="highway" v="primary"/>
    <tag k="is_in" v="Russia"/>
    <tag k="name" v="28"/>
  </way>
  <way id="60590568" version="5" timestamp="2010-10-24T18:28:27Z" uid="70696" user="xybot" changeset="6160506">
    <nd ref="757380411"/>
    <nd ref="757380412"/>
    <nd ref="757380414"/>
    <nd ref="757380417"/>
    <nd ref="757380411"/>
    <tag k="addr:city" v="Andreevka"/>
    <tag k="addr:country" v="RU"/>
    <tag k="addr:housenumber" v="28"/>
    <tag k="building" v="yes"/>
    <tag k="highway" v="primary"/>
    <tag k="is_in" v="Russia"/>
    <tag k="name" v="28"/>
  </way>
  <way id="60590568" version="6" timestamp="2010-11-13T16:16:59Z" uid="241531" user="dik_man" changeset="6359431">
    <nd ref="757380411"/>
    <nd ref="757380412"/>
    <nd ref="757380414"/>
    <nd ref="757380417"/>
    <nd ref="757380411"/>
    <tag k="addr:city" v="Andreevka"/>
    <tag k="addr:country" v="RU"/>
    <tag k="addr:housenumber" v="28"/>
    <tag k="building" v="yes"/>
    <tag k="is_in" v="Russia"/>
    <tag k="name" v="28"/>
  </way>
  <way id="60590568" version="7" timestamp="2010-11-26T19:46:41Z" uid="115477" user="wowik" changeset="6464631">
    <nd ref="757380411"/>
    <nd ref="757380412"/>
    <nd ref="757380414"/>
    <nd ref="757380417"/>
    <nd ref="757380411"/>
    <tag k="addr:city" v="Andreevka"/>
    <tag k="addr:country" v="RU"/>
    <tag k="addr:housenumber" v="28"/>
    <tag k="building" v="yes"/>
    <tag k="is_in" v="Russia"/>
  </way>
  <way id="60590568" version="8" timestamp="2011-01-21T19:28:14Z" uid="115477" user="wowik" changeset="7043561">
    <nd ref="757380411"/>
    <nd ref="757380412"/>
    <nd ref="757380414"/>
    <nd ref="757380417"/>
    <nd ref="757380411"/>
    <tag k="addr:city" v="Andreevka"/>
    <tag k="addr:country" v="RU"/>
    <tag k="addr:housenumber" v="28"/>
    <tag k="building" v="yes"/>
    <tag k="building:use" v="residential"/>
    <tag k="is_in" v="Russia"/>
  </way>
  <way id="60590568" version="9" timestamp="2011-09-13T10:25:09Z" uid="29320" user="Komяpa" changeset="9288237">
    <nd ref="757380411"/>
    <nd ref="757380412"/>
    <nd ref="757380414"/>
    <nd ref="757380417"/>
    <nd ref="757380411"/>
    <tag k="addr:city" v="Andreevka"/>
    <tag k="addr:country" v="RU"/>
    <tag k="addr:housenumber" v="28"/>
    <tag k="building" v="yes"/>
    <tag k="building:use" v="residential"/>
  </way>
  <way id="60590568" version="10" timestamp="2012-01-16T13:58:33Z" uid="481934" user="iWowik" changeset="10408353">
    <nd ref="757380411"/>
    <nd ref="757380412"/>
    <nd ref="757380414"/>
    <nd ref="757380417"/>
    <nd ref="757380411"/>
    <tag k="addr:city" v="Андреевка"/>
    <tag k="addr:country" v="RU"/>
    <tag k="addr:housenumber" v="28"/>
    <tag k="addr:street" v="посёлок Андреевка"/>
    <tag k="building" v="yes"/>
    <tag k="building:use" v="residential"/>
  </way>
  <way id="60590574" version="1" timestamp="2010-05-29T20:25:18Z" uid="115477" user="wowik" changeset="4845916">
    <nd ref="757380443"/>
    <nd ref="757380446"/>
    <nd ref="757380451"/>
    <nd ref="757380454"/>
    <nd ref="757380459"/>
    <nd ref="757380462"/>
    <nd ref="757380443"/>
    <tag k="building" v="yes"/>
  </way>
  <way id="60590574" version="2" timestamp="2010-10-23T20:53:27Z" uid="362410" user="cherezov_pavel" changeset="6151503">
    <nd ref="757380443"/>
    <nd ref="757380446"/>
    <nd ref="757380451"/>
    <nd ref="757380454"/>
    <nd ref="757380459"/>
    <nd ref="757380462"/>
    <nd ref="757380443"/>
    <tag k="building" v="yes"/>
    <tag k="highway" v="primary"/>
    <tag k="name" v="30"/>
  </way>
  <way id="60590574" version="3" timestamp="2010-10-23T20:57:48Z" uid="362410" user="cherezov_pavel" changeset="6151503">
    <nd ref="757380443"/>
    <nd ref="757380446"/>
    <nd ref="757380451"/>
    <nd ref="757380454"/>
    <nd ref="757380459"/>
    <nd ref="757380462"/>
    <nd ref="757380443"/>
    <tag k="addr:city" v="Andreevka"/>
    <tag k="addr:country" v="Russia"/>
    <tag k="addr:housenumber" v="30"/>
    <tag k="building" v="yes"/>
    <tag k="highway" v="primary"/>
    <tag k="is_in" v="Russia"/>
    <tag k="name" v="30"/>
  </way>
  <way id="60590574" version="4" timestamp="2010-10-24T18:28:27Z" uid="70696" user="xybot" changeset="6160506">
    <nd ref="757380443"/>
    <nd ref="757380446"/>
    <nd ref="757380451"/>
    <nd ref="757380454"/>
    <nd ref="757380459"/>
    <nd ref="757380462"/>
    <nd ref="757380443"/>
    <tag k="addr:city" v="Andreevka"/>
    <tag k="addr:country" v="RU"/>
    <tag k="addr:housenumber" v="30"/>
    <tag k="building" v="yes"/>
    <tag k="highway" v="primary"/>
    <tag k="is_in" v="Russia"/>
    <tag k="name" v="30"/>
  </way>
  <way id="60590574" version="5" timestamp="2010-11-13T16:17:00Z" uid="241531" user="dik_man" changeset="6359431">
    <nd ref="757380443"/>
    <nd ref="757380446"/>
    <nd ref="757380451"/>
    <nd ref="757380454"/>
    <nd ref="757380459"/>
    <nd ref="757380462"/>
    <nd ref="757380443"/>
    <tag k="addr:city" v="Andreevka"/>
    <tag k="addr:country" v="RU"/>
    <tag k="addr:housenumber" v="30"/>
    <tag k="building" v="yes"/>
    <tag k="is_in" v="Russia"/>
    <tag k="name" v="30"/>
  </way>
  <way id="60590574" version="6" timestamp="2010-11-13T16:22:12Z" uid="241531" user="dik_man" changeset="6359431">
    <nd ref="987829750"/>
    <nd ref="987829750"/>
    <nd ref="757380462"/>
    <nd ref="757380443"/>
    <nd ref="757380446"/>
    <nd ref="987829750"/>
    <tag k="addr:city" v="Andreevka"/>
    <tag k="addr:country" v="RU"/>
    <tag k="addr:housenumber" v="30"/>
    <tag k="building" v="yes"/>
    <tag k="is_in" v="Russia"/>
    <tag k="name" v="30"/>
  </way>
  <way id="60590574" version="7" timestamp="2010-11-13T20:22:58Z" uid="70696" user="xybot" changeset="6361200">
    <nd ref="987829750"/>
    <nd ref="757380462"/>
    <nd ref="757380443"/>
    <nd ref="757380446"/>
    <nd ref="987829750"/>
    <tag k="addr:city" v="Andreevka"/>
    <tag k="addr:country" v="RU"/>
    <tag k="addr:housenumber" v="30"/>
    <tag k="building" v="yes"/>
    <tag k="is_in" v="Russia"/>
    <tag k="name" v="30"/>
  </way>
  <way id="60590574" version="8" timestamp="2010-11-26T19:46:41Z" uid="115477" user="wowik" changeset="6464631">
    <nd ref="987829750"/>
    <nd ref="757380462"/>
    <nd ref="757380443"/>
    <nd ref="757380446"/>
    <nd ref="987829750"/>
    <tag k="addr:city" v="Andreevka"/>
    <tag k="addr:country" v="RU"/>
    <tag k="addr:housenumber" v="30"/>
    <tag k="building" v="yes"/>
    <tag k="is_in" v="Russia"/>
  </way>
  <way id="60590574" version="9" timestamp="2011-01-21T19:28:58Z" uid="115477" user="wowik" changeset="7043561">
    <nd ref="987829750"/>
    <nd ref="757380462"/>
    <nd ref="757380443"/>
    <nd ref="757380446"/>
    <nd ref="1113614841"/>
    <nd ref="987829750"/>
    <tag k="addr:city" v="Andreevka"/>
    <tag k="addr:country" v="RU"/>
    <tag k="addr:housenumber" v="30"/>
    <tag k="building" v="yes"/>
    <tag k="building:use" v="residential"/>
    <tag k="is_in" v="Russia"/>
  </way>
  <way id="60590574" version="10" timestamp="2011-09-02T09:41:29Z" uid="515908" user="sergunchik" changeset="9191614">
    <nd ref="987829750"/>
    <nd ref="757380462"/>
    <nd ref="1420794013"/>
    <nd ref="1420794008"/>
    <nd ref="1420794024"/>
    <nd ref="1420794022"/>
    <nd ref="1420794021"/>
    <nd ref="1420794029"/>
    <nd ref="1420794027"/>
    <nd ref="757380443"/>
    <nd ref="757380446"/>
    <nd ref="1420794006"/>
    <nd ref="1420794028"/>
    <nd ref="1420794025"/>
    <nd ref="1420794011"/>
    <nd ref="1420794026"/>
    <nd ref="1420794014"/>
    <nd ref="1420794016"/>
    <nd ref="1113614841"/>
    <nd ref="987829750"/>
    <tag k="addr:city" v="Andreevka"/>
    <tag k="addr:country" v="RU"/>
    <tag k="addr:housenumber" v="30"/>
    <tag k="building" v="yes"/>
    <tag k="building:use" v="residential"/>
    <tag k="is_in" v="Russia"/>
  </way>
  <way id="60590574" version="11" timestamp="2011-09-13T10:25:36Z" uid="29320" user="Komяpa" changeset="9288237">
    <nd ref="987829750"/>
    <nd ref="757380462"/>
    <nd ref="1420794013"/>
    <nd ref="1420794008"/>
    <nd ref="1420794024"/>
    <nd ref="1420794022"/>
    <nd ref="1420794021"/>
    <nd ref="1420794029"/>
    <nd ref="1420794027"/>
    <nd ref="757380443"/>
    <nd ref="757380446"/>
    <nd ref="1420794006"/>
    <nd ref="1420794028"/>
    <nd ref="1420794025"/>
    <nd ref="1420794011"/>
    <nd ref="1420794026"/>
    <nd ref="1420794014"/>
    <nd ref="1420794016"/>
    <nd ref="1113614841"/>
    <nd ref="987829750"/>
    <tag k="addr:city" v="Andreevka"/>
    <tag k="addr:country" v="RU"/>
    <tag k="addr:housenumber" v="30"/>
    <tag k="building" v="yes"/>
    <tag k="building:use" v="residential"/>
  </way>
  <way id="60590574" version="12" timestamp="2011-10-13T15:08:51Z" uid="241531" user="dik_man" changeset="9547995">
    <nd ref="987829750"/>
    <nd ref="757380462"/>
    <nd ref="757380443"/>
    <nd ref="757380446"/>
    <nd ref="1113614841"/>
    <nd ref="987829750"/>
    <tag k="addr:city" v="Andreevka"/>
    <tag k="addr:country" v="RU"/>
    <tag k="addr:housenumber" v="30"/>
    <tag k="building" v="yes"/>
    <tag k="building:use" v="residential"/>
  </way>
  <way id="60590574" version="13" timestamp="2012-01-16T13:58:34Z" uid="481934" user="iWowik" changeset="10408353">
    <nd ref="987829750"/>
    <nd ref="757380462"/>
    <nd ref="757380443"/>
    <nd ref="757380446"/>
    <nd ref="1113614841"/>
    <nd ref="987829750"/>
    <tag k="addr:city" v="Андреевка"/>
    <tag k="addr:country" v="RU"/>
    <tag k="addr:housenumber" v="30"/>
    <tag k="addr:street" v="посёлок Андреевка"/>
    <tag k="building" v="yes"/>
    <tag k="building:use" v="residential"/>
  </way>
  <way id="60590233" version="3" timestamp="2012-07-20T23:47:14Z" uid="722137" user="OSMF Redaction Account" changeset="12396430">
    <nd ref="1135477079"/>
    <nd ref="1135477084"/>
    <nd ref="1135477203"/>
    <nd ref="1135477109"/>
  </way>
  <way id="60590237" version="2" timestamp="2012-07-20T23:56:19Z" uid="722137" user="OSMF Redaction Account" changeset="12396604"/>
  <way id="60590241" version="3" timestamp="2012-07-20T23:56:11Z" uid="722137" user="OSMF Redaction Account" changeset="12396604"/>
  <way id="60590244" version="2" timestamp="2012-05-22T14:01:25Z" uid="241531" user="dik_man" changeset="11671911">
    <nd ref="757379947"/>
    <nd ref="757379948"/>
    <nd ref="1762173991"/>
    <nd ref="757379949"/>
    <nd ref="757379950"/>
    <tag k="highway" v="service"/>
    <tag k="living_street" v="yes"/>
  </way>
  <way id="60590244" version="3" timestamp="2012-07-20T23:56:19Z" uid="722137" user="OSMF Redaction Account" changeset="12396604"/>
  <way id="60590247" version="4" timestamp="2012-07-20T23:56:25Z" uid="722137" user="OSMF Redaction Account" changeset="12396604"/>
  <way id="60590253" version="4" timestamp="2012-07-20T23:56:29Z" uid="722137" user="OSMF Redaction Account" changeset="12396619"/>
  <way id="60590256" version="3" timestamp="2012-05-19T11:16:02Z" uid="241531" user="dik_man" changeset="11641461">
    <nd ref="757379959"/>
    <nd ref="757379960"/>
    <nd ref="757379961"/>
    <nd ref="757379962"/>
    <nd ref="757379959"/>
    <tag k="addr:housenumber" v="27"/>
    <tag k="building" v="yes"/>
    <tag k="building:use" v="residential"/>
  </way>
  <way id="60590256" version="4" timestamp="2012-07-20T23:56:23Z" uid="722137" user="OSMF Redaction Account" changeset="12396604"/>
  <way id="60590259" version="3" timestamp="2012-05-19T11:16:02Z" uid="241531" user="dik_man" changeset="11641461">
    <nd ref="757379963"/>
    <nd ref="757379964"/>
    <nd ref="757379965"/>
    <nd ref="757379967"/>
    <nd ref="757379968"/>
    <nd ref="1119094376"/>
    <nd ref="1119095587"/>
    <nd ref="757379969"/>
    <nd ref="1758306757"/>
    <nd ref="1758306755"/>
    <nd ref="757379970"/>
    <nd ref="757379963"/>
    <tag k="building" v="yes"/>
  </way>
  <way id="60590259" version="4" timestamp="2012-07-20T23:46:07Z" uid="722137" user="OSMF Redaction Account" changeset="12396430">
    <nd ref="1758306757"/>
    <nd ref="1758306755"/>
  </way>
  <way id="60590263" version="2" timestamp="2012-07-20T23:56:21Z" uid="722137" user="OSMF Redaction Account" changeset="12396604"/>
  <way id="60590266" version="3" timestamp="2012-07-20T23:56:22Z" uid="722137" user="OSMF Redaction Account" changeset="12396604"/>
  <way id="60590560" version="11" timestamp="2012-07-20T23:47:27Z" uid="722137" user="OSMF Redaction Account" changeset="12396430">
    <nd ref="757380408"/>
    <nd ref="987828269"/>
    <tag k="addr:city" v="Андреевка"/>
    <tag k="addr:country" v="RU"/>
    <tag k="addr:housenumber" v="29"/>
    <tag k="addr:street" v="посёлок Андреевка"/>
  </way>
  <way id="60590568" version="11" timestamp="2012-07-20T23:56:21Z" uid="722137" user="OSMF Redaction Account" changeset="12396604"/>
  <way id="60590574" version="14" timestamp="2012-07-20T23:47:14Z" uid="722137" user="OSMF Redaction Account" changeset="12396430">
    <nd ref="987829750"/>
    <nd ref="987829750"/>
    <tag k="addr:city" v="Андреевка"/>
    <tag k="addr:country" v="RU"/>
    <tag k="addr:housenumber" v="30"/>
    <tag k="addr:street" v="посёлок Андреевка"/>
  </way>
</osm>
