<?xml version='1.0' encoding='UTF-8'?>
<osm version="0.6" generator="libosmium/2.20.0">
  <way id="6078800" version="8" timestamp="2009-12-05T22:38:46Z" uid="65847" user="LKK" changeset="3299110">
    <nd ref="50105524"/>
    <nd ref="50105527"/>
    <nd ref="247904229"/>
    <nd ref="50105529"/>
    <nd ref="50105960"/>
    <nd ref="50106225"/>
    <tag k="created_by" v="Potlatch 0.10f"/>
    <tag k="highway" v="primary"/>
    <tag k="name" v="Bischof-Kaller-Straße"/>
    <tag k="ref" v="B 455"/>
  </way>
  <way id="6078800" version="9" timestamp="2010-01-31T18:04:45Z" uid="8464" user="MichaH" changeset="3761668">
    <nd ref="50105524"/>
    <nd ref="50105527"/>
    <nd ref="247904229"/>
    <nd ref="50105529"/>
    <nd ref="50105960"/>
    <nd ref="50106225"/>
    <tag k="highway" v="primary"/>
    <tag k="name" v="Bischof-Kaller-Straße"/>
    <tag k="ref" v="B 455"/>
  </way>
  <way id="6078800" version="10" timestamp="2012-05-18T20:18:24Z" uid="66979" user="Flo_17" changeset="11636956">
    <nd ref="50105524"/>
    <nd ref="50105527"/>
    <nd ref="247904229"/>
    <nd ref="50105529"/>
    <nd ref="50105960"/>
    <nd ref="1757599355"/>
    <nd ref="50106225"/>
    <tag k="highway" v="primary"/>
    <tag k="name" v="Bischof-Kaller-Straße"/>
    <tag k="ref" v="B 455"/>
  </way>
  <way id="6078800" version="11" timestamp="2012-07-06T07:27:19Z" uid="201359" user="wambacher" changeset="12126858">
    <nd ref="50105524"/>
    <nd ref="50105527"/>
    <nd ref="247904229"/>
    <nd ref="50105529"/>
    <nd ref="50105960"/>
    <nd ref="1814572565"/>
    <nd ref="1757599355"/>
    <nd ref="50106225"/>
    <tag k="highway" v="primary"/>
    <tag k="name" v="Bischof-Kaller-Straße"/>
    <tag k="ref" v="B 455"/>
  </way>
</osm>
