<?xml version='1.0' encoding='UTF-8'?>
<osm version="0.6" generator="libosmium/2.20.0">
  <way id="60890004" version="2" timestamp="2010-06-06T00:11:24Z" uid="4467" user="Rosscoe" changeset="4913568">
    <nd ref="765379815"/>
    <nd ref="762075547"/>
    <nd ref="765379821"/>
    <nd ref="651303427"/>
    <nd ref="765379810"/>
    <nd ref="762075538"/>
    <tag k="highway" v="primary"/>
    <tag k="name" v="Warton Road"/>
    <tag k="oneway" v="yes"/>
    <tag k="source" v="nearmap"/>
  </way>
  <way id="60890004" version="3" timestamp="2010-11-17T04:32:07Z" uid="294850" user="Q4004" changeset="6390097">
    <nd ref="134859849"/>
    <nd ref="992175765"/>
    <nd ref="992175767"/>
    <nd ref="992175770"/>
    <nd ref="762075547"/>
    <nd ref="765379821"/>
    <nd ref="651303427"/>
    <nd ref="765379810"/>
    <nd ref="762075538"/>
    <tag k="highway" v="primary"/>
    <tag k="name" v="Warton Road"/>
    <tag k="oneway" v="yes"/>
    <tag k="source" v="nearmap"/>
  </way>
  <way id="60890004" version="4" timestamp="2011-01-15T02:20:06Z" uid="4467" user="Rosscoe" changeset="6973301">
    <nd ref="992175765"/>
    <nd ref="765379821"/>
    <nd ref="651303427"/>
    <nd ref="765379810"/>
    <nd ref="762075538"/>
    <tag k="highway" v="primary"/>
    <tag k="name" v="Warton Road"/>
    <tag k="oneway" v="yes"/>
    <tag k="source" v="nearmap"/>
  </way>
  <way id="60890110" version="2" timestamp="2010-06-06T00:12:11Z" uid="4467" user="Rosscoe" changeset="4913568">
    <nd ref="651303427"/>
    <nd ref="762075540"/>
    <nd ref="651303423"/>
    <nd ref="651300754"/>
    <tag k="highway" v="tertiary"/>
  </way>
  <way id="60890110" version="3" timestamp="2011-03-30T23:27:05Z" uid="429325" user="KarlLukan" changeset="7721620">
    <nd ref="651303427"/>
    <nd ref="762075540"/>
    <nd ref="651303423"/>
    <nd ref="651300754"/>
    <tag k="highway" v="tertiary"/>
    <tag k="name" v="Arion Avenue"/>
  </way>
  <way id="60890331" version="2" timestamp="2010-07-09T03:46:42Z" uid="74617" user="JohnSmith" changeset="5170825">
    <nd ref="734027137"/>
    <nd ref="762080217"/>
    <nd ref="762080220"/>
    <nd ref="762080221"/>
    <tag k="highway" v="residential"/>
    <tag k="maxspeed" v="50"/>
    <tag k="maxspeed:source" v="default residential speed limit in Australia"/>
    <tag k="name" v="Runecrest Terrace"/>
    <tag k="source" v="nearmap"/>
  </way>
  <way id="60890331" version="3" timestamp="2012-01-20T09:12:05Z" uid="147510" user="woodpeck_fixbot" changeset="10443754">
    <nd ref="734027137"/>
    <nd ref="762080217"/>
    <nd ref="762080220"/>
    <nd ref="762080221"/>
    <tag k="highway" v="residential"/>
    <tag k="name" v="Runecrest Terrace"/>
    <tag k="source" v="nearmap"/>
  </way>
  <way id="60890362" version="2" timestamp="2010-07-09T03:50:32Z" uid="74617" user="JohnSmith" changeset="5170825">
    <nd ref="734027180"/>
    <nd ref="762080326"/>
    <tag k="highway" v="residential"/>
    <tag k="maxspeed" v="50"/>
    <tag k="maxspeed:source" v="default residential speed limit in Australia"/>
    <tag k="name" v="Runecrest Terrace"/>
    <tag k="source" v="nearmap"/>
  </way>
  <way id="60890362" version="3" timestamp="2012-01-20T09:12:07Z" uid="147510" user="woodpeck_fixbot" changeset="10443754">
    <nd ref="734027180"/>
    <nd ref="762080326"/>
    <tag k="highway" v="residential"/>
    <tag k="name" v="Runecrest Terrace"/>
    <tag k="source" v="nearmap"/>
  </way>
  <way id="60890363" version="3" timestamp="2010-07-09T03:48:47Z" uid="74617" user="JohnSmith" changeset="5170825">
    <nd ref="762080332"/>
    <nd ref="762096475"/>
    <nd ref="762080333"/>
    <tag k="highway" v="residential"/>
    <tag k="maxspeed" v="50"/>
    <tag k="maxspeed:source" v="default residential speed limit in Australia"/>
    <tag k="name" v="Runecrest Terrace"/>
    <tag k="source" v="nearmap"/>
  </way>
  <way id="60890363" version="4" timestamp="2012-01-20T09:12:08Z" uid="147510" user="woodpeck_fixbot" changeset="10443754">
    <nd ref="762080332"/>
    <nd ref="762096475"/>
    <nd ref="762080333"/>
    <tag k="highway" v="residential"/>
    <tag k="name" v="Runecrest Terrace"/>
    <tag k="source" v="nearmap"/>
  </way>
  <way id="60890366" version="2" timestamp="2010-07-09T03:51:45Z" uid="74617" user="JohnSmith" changeset="5170825">
    <nd ref="762080872"/>
    <nd ref="762080885"/>
    <tag k="highway" v="residential"/>
    <tag k="maxspeed" v="50"/>
    <tag k="maxspeed:source" v="default residential speed limit in Australia"/>
    <tag k="source" v="nearmap"/>
  </way>
  <way id="60890366" version="3" timestamp="2012-01-20T09:12:10Z" uid="147510" user="woodpeck_fixbot" changeset="10443754">
    <nd ref="762080872"/>
    <nd ref="762080885"/>
    <tag k="highway" v="residential"/>
    <tag k="source" v="nearmap"/>
  </way>
  <way id="60890372" version="3" timestamp="2011-01-16T03:18:45Z" uid="4467" user="Rosscoe" changeset="6983999">
    <nd ref="651292426"/>
    <nd ref="1105742949"/>
    <nd ref="1105742952"/>
    <nd ref="1105742950"/>
    <nd ref="1105742947"/>
    <nd ref="1105742955"/>
    <nd ref="1105742945"/>
    <nd ref="1105742956"/>
    <tag k="highway" v="secondary"/>
    <tag k="name" v="Wright Road"/>
    <tag k="oneway" v="yes"/>
  </way>
  <way id="60890377" version="2" timestamp="2010-07-09T07:29:07Z" uid="74617" user="JohnSmith" changeset="5171412">
    <nd ref="762081133"/>
    <nd ref="762081131"/>
    <tag k="highway" v="residential"/>
    <tag k="maxspeed" v="50"/>
    <tag k="maxspeed:source" v="default residential speed limit in Australia"/>
  </way>
  <way id="60890377" version="3" timestamp="2010-10-15T06:48:27Z" uid="358895" user="labbinak" changeset="6046551">
    <nd ref="762081133"/>
    <nd ref="762081131"/>
    <tag k="highway" v="residential"/>
    <tag k="maxspeed" v="50"/>
    <tag k="maxspeed:source" v="default residential speed limit in Australia"/>
    <tag k="name" v="Shepherd Court"/>
  </way>
  <way id="60890377" version="4" timestamp="2011-01-16T03:18:49Z" uid="4467" user="Rosscoe" changeset="6983999">
    <nd ref="762081133"/>
    <nd ref="1105742949"/>
    <nd ref="762081131"/>
    <tag k="highway" v="residential"/>
    <tag k="maxspeed" v="50"/>
    <tag k="maxspeed:source" v="default residential speed limit in Australia"/>
    <tag k="name" v="Shepherd Court"/>
  </way>
  <way id="60890377" version="5" timestamp="2012-01-20T09:12:12Z" uid="147510" user="woodpeck_fixbot" changeset="10443754">
    <nd ref="762081133"/>
    <nd ref="1105742949"/>
    <nd ref="762081131"/>
    <tag k="highway" v="residential"/>
    <tag k="name" v="Shepherd Court"/>
  </way>
  <way id="60890501" version="2" timestamp="2010-07-09T03:46:54Z" uid="74617" user="JohnSmith" changeset="5170825">
    <nd ref="762080221"/>
    <nd ref="762081777"/>
    <nd ref="762081778"/>
    <nd ref="762081779"/>
    <nd ref="762081780"/>
    <nd ref="762081781"/>
    <nd ref="762081782"/>
    <nd ref="762080333"/>
    <tag k="highway" v="residential"/>
    <tag k="maxspeed" v="50"/>
    <tag k="maxspeed:source" v="default residential speed limit in Australia"/>
    <tag k="name" v="Runecrest Terrace"/>
    <tag k="oneway" v="yes"/>
    <tag k="source" v="nearmap"/>
  </way>
  <way id="60890501" version="3" timestamp="2012-01-20T09:12:13Z" uid="147510" user="woodpeck_fixbot" changeset="10443754">
    <nd ref="762080221"/>
    <nd ref="762081777"/>
    <nd ref="762081778"/>
    <nd ref="762081779"/>
    <nd ref="762081780"/>
    <nd ref="762081781"/>
    <nd ref="762081782"/>
    <nd ref="762080333"/>
    <tag k="highway" v="residential"/>
    <tag k="name" v="Runecrest Terrace"/>
    <tag k="oneway" v="yes"/>
    <tag k="source" v="nearmap"/>
  </way>
  <way id="60890503" version="2" timestamp="2010-07-09T03:51:47Z" uid="74617" user="JohnSmith" changeset="5170825">
    <nd ref="762080333"/>
    <nd ref="762081783"/>
    <nd ref="762081784"/>
    <nd ref="762081785"/>
    <nd ref="762081786"/>
    <nd ref="762081787"/>
    <nd ref="762080221"/>
    <tag k="highway" v="residential"/>
    <tag k="maxspeed" v="50"/>
    <tag k="maxspeed:source" v="default residential speed limit in Australia"/>
    <tag k="name" v="Runecrest Terrace"/>
    <tag k="oneway" v="yes"/>
    <tag k="source" v="nearmap"/>
  </way>
  <way id="60890503" version="3" timestamp="2012-01-20T09:12:15Z" uid="147510" user="woodpeck_fixbot" changeset="10443754">
    <nd ref="762080333"/>
    <nd ref="762081783"/>
    <nd ref="762081784"/>
    <nd ref="762081785"/>
    <nd ref="762081786"/>
    <nd ref="762081787"/>
    <nd ref="762080221"/>
    <tag k="highway" v="residential"/>
    <tag k="name" v="Runecrest Terrace"/>
    <tag k="oneway" v="yes"/>
    <tag k="source" v="nearmap"/>
  </way>
  <way id="60890504" version="2" timestamp="2010-07-09T03:53:11Z" uid="74617" user="JohnSmith" changeset="5170825">
    <nd ref="762080332"/>
    <nd ref="762081788"/>
    <nd ref="762081789"/>
    <nd ref="762081790"/>
    <nd ref="762080872"/>
    <nd ref="762081791"/>
    <nd ref="762081792"/>
    <nd ref="762081793"/>
    <nd ref="762080326"/>
    <tag k="highway" v="residential"/>
    <tag k="maxspeed" v="50"/>
    <tag k="maxspeed:source" v="default residential speed limit in Australia"/>
    <tag k="name" v="Runecrest Terrace"/>
    <tag k="oneway" v="yes"/>
    <tag k="source" v="nearmap"/>
  </way>
  <way id="60890504" version="3" timestamp="2012-01-20T09:12:18Z" uid="147510" user="woodpeck_fixbot" changeset="10443754">
    <nd ref="762080332"/>
    <nd ref="762081788"/>
    <nd ref="762081789"/>
    <nd ref="762081790"/>
    <nd ref="762080872"/>
    <nd ref="762081791"/>
    <nd ref="762081792"/>
    <nd ref="762081793"/>
    <nd ref="762080326"/>
    <tag k="highway" v="residential"/>
    <tag k="name" v="Runecrest Terrace"/>
    <tag k="oneway" v="yes"/>
    <tag k="source" v="nearmap"/>
  </way>
  <way id="60890505" version="2" timestamp="2010-07-09T03:51:31Z" uid="74617" user="JohnSmith" changeset="5170825">
    <nd ref="762080326"/>
    <nd ref="762081794"/>
    <nd ref="762081795"/>
    <nd ref="762080885"/>
    <nd ref="762081796"/>
    <nd ref="762081797"/>
    <nd ref="762080332"/>
    <tag k="highway" v="residential"/>
    <tag k="maxspeed" v="50"/>
    <tag k="maxspeed:source" v="default residential speed limit in Australia"/>
    <tag k="name" v="Runecrest Terrace"/>
    <tag k="oneway" v="yes"/>
    <tag k="source" v="nearmap"/>
  </way>
  <way id="60890505" version="3" timestamp="2012-01-20T09:12:21Z" uid="147510" user="woodpeck_fixbot" changeset="10443754">
    <nd ref="762080326"/>
    <nd ref="762081794"/>
    <nd ref="762081795"/>
    <nd ref="762080885"/>
    <nd ref="762081796"/>
    <nd ref="762081797"/>
    <nd ref="762080332"/>
    <tag k="highway" v="residential"/>
    <tag k="name" v="Runecrest Terrace"/>
    <tag k="oneway" v="yes"/>
    <tag k="source" v="nearmap"/>
  </way>
  <way id="60890616" version="2" timestamp="2010-06-29T20:46:43Z" uid="74617" user="JohnSmith" changeset="5109183">
    <nd ref="762082823"/>
    <nd ref="762082824"/>
    <nd ref="762082825"/>
    <nd ref="762082826"/>
    <nd ref="762082823"/>
    <tag k="fixme" v="sport=rugby is ambiguous, see http://wiki.osm.org/wiki/Tag:sport%3Drugby for more details"/>
    <tag k="leisure" v="pitch"/>
    <tag k="sport" v="rugby"/>
  </way>
  <way id="60890665" version="2" timestamp="2010-07-09T03:49:21Z" uid="74617" user="JohnSmith" changeset="5170825">
    <nd ref="762080220"/>
    <nd ref="762083282"/>
    <nd ref="762083283"/>
    <nd ref="762083284"/>
    <tag k="highway" v="residential"/>
    <tag k="maxspeed" v="50"/>
    <tag k="maxspeed:source" v="default residential speed limit in Australia"/>
    <tag k="name" v="Mayflower Mews"/>
    <tag k="source" v="nearmap"/>
  </way>
  <way id="60890665" version="3" timestamp="2010-07-30T07:22:57Z" uid="211804" user="KenS" changeset="5352190">
    <nd ref="762080220"/>
    <nd ref="762083282"/>
    <nd ref="838386044"/>
    <nd ref="762083283"/>
    <nd ref="762083284"/>
    <tag k="highway" v="residential"/>
    <tag k="maxspeed" v="50"/>
    <tag k="maxspeed:source" v="default residential speed limit in Australia"/>
    <tag k="name" v="Mayflower Mews"/>
    <tag k="source" v="nearmap"/>
  </way>
  <way id="60890665" version="4" timestamp="2012-01-20T09:12:23Z" uid="147510" user="woodpeck_fixbot" changeset="10443754">
    <nd ref="762080220"/>
    <nd ref="762083282"/>
    <nd ref="838386044"/>
    <nd ref="762083283"/>
    <nd ref="762083284"/>
    <tag k="highway" v="residential"/>
    <tag k="name" v="Mayflower Mews"/>
    <tag k="source" v="nearmap"/>
  </way>
  <way id="60890666" version="2" timestamp="2010-07-09T03:47:27Z" uid="74617" user="JohnSmith" changeset="5170825">
    <nd ref="762083285"/>
    <nd ref="762083286"/>
    <nd ref="734027119"/>
    <tag k="highway" v="residential"/>
    <tag k="maxspeed" v="50"/>
    <tag k="maxspeed:source" v="default residential speed limit in Australia"/>
    <tag k="name" v="Mayflower Mews"/>
    <tag k="source" v="nearmap"/>
  </way>
  <way id="60890666" version="3" timestamp="2012-01-20T09:12:24Z" uid="147510" user="woodpeck_fixbot" changeset="10443754">
    <nd ref="762083285"/>
    <nd ref="762083286"/>
    <nd ref="734027119"/>
    <tag k="highway" v="residential"/>
    <tag k="name" v="Mayflower Mews"/>
    <tag k="source" v="nearmap"/>
  </way>
  <way id="60890833" version="2" timestamp="2010-07-09T03:49:42Z" uid="74617" user="JohnSmith" changeset="5170825">
    <nd ref="762083285"/>
    <nd ref="762085744"/>
    <nd ref="762085745"/>
    <nd ref="762085746"/>
    <nd ref="762085747"/>
    <nd ref="762083284"/>
    <tag k="highway" v="residential"/>
    <tag k="maxspeed" v="50"/>
    <tag k="maxspeed:source" v="default residential speed limit in Australia"/>
    <tag k="name" v="Mayflower Mews"/>
    <tag k="oneway" v="yes"/>
    <tag k="source" v="nearmap"/>
  </way>
  <way id="60890833" version="3" timestamp="2012-01-20T09:12:26Z" uid="147510" user="woodpeck_fixbot" changeset="10443754">
    <nd ref="762083285"/>
    <nd ref="762085744"/>
    <nd ref="762085745"/>
    <nd ref="762085746"/>
    <nd ref="762085747"/>
    <nd ref="762083284"/>
    <tag k="highway" v="residential"/>
    <tag k="name" v="Mayflower Mews"/>
    <tag k="oneway" v="yes"/>
    <tag k="source" v="nearmap"/>
  </way>
  <way id="60890835" version="2" timestamp="2010-07-09T03:45:56Z" uid="74617" user="JohnSmith" changeset="5170825">
    <nd ref="762083284"/>
    <nd ref="762085749"/>
    <nd ref="762085750"/>
    <nd ref="762085752"/>
    <nd ref="762083285"/>
    <tag k="highway" v="residential"/>
    <tag k="maxspeed" v="50"/>
    <tag k="maxspeed:source" v="default residential speed limit in Australia"/>
    <tag k="name" v="Mayflower Mews"/>
    <tag k="oneway" v="yes"/>
    <tag k="source" v="nearmap"/>
  </way>
  <way id="60890835" version="3" timestamp="2012-01-20T09:12:29Z" uid="147510" user="woodpeck_fixbot" changeset="10443754">
    <nd ref="762083284"/>
    <nd ref="762085749"/>
    <nd ref="762085750"/>
    <nd ref="762085752"/>
    <nd ref="762083285"/>
    <tag k="highway" v="residential"/>
    <tag k="name" v="Mayflower Mews"/>
    <tag k="oneway" v="yes"/>
    <tag k="source" v="nearmap"/>
  </way>
  <way id="60890873" version="2" timestamp="2011-03-06T10:58:07Z" uid="4467" user="Rosscoe" changeset="7471749">
    <nd ref="762086026"/>
    <nd ref="389497282"/>
    <nd ref="762086028"/>
    <tag k="highway" v="secondary"/>
    <tag k="oneway" v="yes"/>
  </way>
  <way id="60890874" version="2" timestamp="2011-03-06T10:58:22Z" uid="4467" user="Rosscoe" changeset="7471749">
    <nd ref="762086034"/>
    <nd ref="762086038"/>
    <nd ref="762086013"/>
    <tag k="highway" v="secondary"/>
    <tag k="oneway" v="yes"/>
  </way>
  <way id="60890875" version="3" timestamp="2011-03-06T10:58:26Z" uid="4467" user="Rosscoe" changeset="7471749">
    <nd ref="762086030"/>
    <nd ref="762086039"/>
    <nd ref="762086032"/>
    <tag k="highway" v="secondary"/>
    <tag k="name" v="Amherst Road"/>
    <tag k="oneway" v="yes"/>
  </way>
  <way id="60890876" version="3" timestamp="2011-03-06T10:58:04Z" uid="4467" user="Rosscoe" changeset="7471749">
    <nd ref="762086019"/>
    <nd ref="762086041"/>
    <nd ref="762086024"/>
    <tag k="highway" v="secondary"/>
    <tag k="name" v="Amherst Road"/>
    <tag k="oneway" v="yes"/>
  </way>
  <way id="60890004" version="5" timestamp="2012-07-19T15:50:56Z" uid="722137" user="OSMF Redaction Account" changeset="12336551">
    <nd ref="992175765"/>
    <nd ref="651303427"/>
    <nd ref="762075538"/>
    <tag k="highway" v="primary"/>
    <tag k="name" v="Warton Road"/>
    <tag k="oneway" v="yes"/>
  </way>
  <way id="60890004" version="6" timestamp="2012-08-03T14:36:38Z" uid="57380" user="JennyH" changeset="12598996">
    <nd ref="134859849"/>
    <nd ref="992175765"/>
    <nd ref="651303427"/>
    <nd ref="762075538"/>
    <tag k="highway" v="primary"/>
    <tag k="name" v="Warton Road"/>
    <tag k="oneway" v="yes"/>
  </way>
  <way id="60890004" version="7" timestamp="2012-08-26T19:09:07Z" uid="418724" user="wintersportler" changeset="12870660">
    <nd ref="134859849"/>
    <nd ref="651303427"/>
    <nd ref="762075538"/>
    <tag k="highway" v="primary"/>
    <tag k="name" v="Warton Road"/>
    <tag k="oneway" v="yes"/>
  </way>
  <way id="60890372" version="4" timestamp="2012-07-19T15:53:41Z" uid="722137" user="OSMF Redaction Account" changeset="12336786"/>
  <way id="60890377" version="6" timestamp="2012-07-19T15:29:16Z" uid="722137" user="OSMF Redaction Account" changeset="12334707">
    <nd ref="762081133"/>
    <nd ref="762081131"/>
    <tag k="highway" v="residential"/>
    <tag k="name" v="Shepherd Court"/>
  </way>
  <way id="60890616" version="3" timestamp="2012-06-13T11:46:44Z" uid="24572" user="sly" changeset="11883989">
    <nd ref="762082823"/>
    <nd ref="762082824"/>
    <nd ref="762082825"/>
    <nd ref="762082826"/>
    <nd ref="762082823"/>
    <tag k="leisure" v="pitch"/>
    <tag k="sport" v="rugby"/>
  </way>
  <way id="60890616" version="4" timestamp="2012-06-13T15:51:20Z" uid="8235" user="chriscf" changeset="11886459">
    <nd ref="762082823"/>
    <nd ref="762082824"/>
    <nd ref="762082825"/>
    <nd ref="762082826"/>
    <nd ref="762082823"/>
    <tag k="fixme" v="sport=rugby is ambiguous, see http://wiki.osm.org/wiki/Tag:sport%3Drugby for more details"/>
    <tag k="leisure" v="pitch"/>
    <tag k="sport" v="rugby"/>
  </way>
  <way id="60890616" version="5" timestamp="2012-07-21T13:26:28Z" uid="722137" user="OSMF Redaction Account" changeset="12410080">
    <nd ref="762082823"/>
    <nd ref="762082824"/>
    <nd ref="762082825"/>
    <nd ref="762082826"/>
    <nd ref="762082823"/>
    <tag k="leisure" v="pitch"/>
    <tag k="sport" v="rugby"/>
  </way>
  <way id="60890873" version="3" timestamp="2012-08-19T07:52:24Z" uid="346429" user="Bluey" changeset="12780405">
    <nd ref="762086026"/>
    <nd ref="389497282"/>
    <tag k="highway" v="secondary"/>
    <tag k="name" v="Campbell Road"/>
    <tag k="oneway" v="yes"/>
  </way>
  <way id="60890874" version="3" timestamp="2012-07-19T15:51:13Z" uid="722137" user="OSMF Redaction Account" changeset="12336551">
    <nd ref="762086038"/>
    <nd ref="762086013"/>
    <tag k="highway" v="secondary"/>
    <tag k="oneway" v="yes"/>
  </way>
  <way id="60890874" version="4" timestamp="2012-08-03T14:36:41Z" uid="57380" user="JennyH" changeset="12598996">
    <nd ref="762086034"/>
    <nd ref="762086038"/>
    <nd ref="762086013"/>
    <tag k="highway" v="secondary"/>
    <tag k="oneway" v="yes"/>
  </way>
  <way id="60890874" version="5" timestamp="2012-08-19T07:52:24Z" uid="346429" user="Bluey" changeset="12780405">
    <nd ref="762086034"/>
    <nd ref="762086038"/>
    <tag k="highway" v="secondary"/>
    <tag k="name" v="Campbell Road"/>
    <tag k="oneway" v="yes"/>
  </way>
  <way id="60890875" version="4" timestamp="2012-07-19T15:51:13Z" uid="722137" user="OSMF Redaction Account" changeset="12336551">
    <nd ref="762086039"/>
    <nd ref="762086032"/>
    <tag k="highway" v="secondary"/>
    <tag k="name" v="Amherst Road"/>
    <tag k="oneway" v="yes"/>
  </way>
  <way id="60890875" version="5" timestamp="2012-08-03T14:36:41Z" uid="57380" user="JennyH" changeset="12598996">
    <nd ref="762086030"/>
    <nd ref="762086039"/>
    <nd ref="762086032"/>
    <tag k="highway" v="secondary"/>
    <tag k="name" v="Amherst Road"/>
    <tag k="oneway" v="yes"/>
  </way>
  <way id="60890876" version="4" timestamp="2012-07-19T15:51:14Z" uid="722137" user="OSMF Redaction Account" changeset="12336551">
    <nd ref="762086041"/>
    <nd ref="762086024"/>
    <tag k="highway" v="secondary"/>
    <tag k="name" v="Amherst Road"/>
    <tag k="oneway" v="yes"/>
  </way>
  <way id="60890876" version="5" timestamp="2012-08-03T14:36:41Z" uid="57380" user="JennyH" changeset="12598996">
    <nd ref="762086017"/>
    <nd ref="762086041"/>
    <nd ref="762086024"/>
    <tag k="highway" v="secondary"/>
    <tag k="name" v="Amherst Road"/>
    <tag k="oneway" v="yes"/>
  </way>
</osm>
