<?xml version='1.0' encoding='UTF-8'?>
<osm version="0.6" generator="libosmium/2.20.0">
  <way id="6101652" version="4" timestamp="2009-07-10T15:27:42Z" uid="23543" user="jkjk" changeset="1790041">
    <nd ref="50384104"/>
    <nd ref="361443325"/>
    <nd ref="50384101"/>
    <nd ref="361443314"/>
    <nd ref="364926784"/>
    <nd ref="364926776"/>
    <nd ref="361443280"/>
    <nd ref="361443289"/>
    <nd ref="361443274"/>
    <nd ref="50384099"/>
    <nd ref="50384097"/>
    <nd ref="50384095"/>
    <nd ref="50384094"/>
    <nd ref="50384091"/>
    <nd ref="50384090"/>
    <nd ref="50384089"/>
    <nd ref="50384088"/>
    <nd ref="361443272"/>
    <nd ref="50384086"/>
    <nd ref="50384083"/>
    <nd ref="50382999"/>
    <nd ref="117399276"/>
    <nd ref="59647546"/>
    <nd ref="117399250"/>
    <nd ref="117399270"/>
    <nd ref="361443193"/>
    <nd ref="361443200"/>
    <nd ref="117399265"/>
    <nd ref="117399258"/>
    <nd ref="117399254"/>
    <tag k="created_by" v="Merkaartor 0.13"/>
    <tag k="highway" v="residential"/>
    <tag k="kct_red" v="major"/>
    <tag k="name" v="Vltavská"/>
  </way>
  <way id="6101652" version="5" timestamp="2009-08-29T13:14:14Z" uid="17615" user="Petr Dlouhý" changeset="2301487">
    <nd ref="50384104"/>
    <nd ref="361443325"/>
    <nd ref="50384101"/>
    <nd ref="361443314"/>
    <nd ref="364926784"/>
    <nd ref="364926776"/>
    <nd ref="361443280"/>
    <nd ref="361443289"/>
    <nd ref="361443274"/>
    <nd ref="50384099"/>
    <nd ref="50384097"/>
    <nd ref="50384095"/>
    <nd ref="50384094"/>
    <nd ref="50384091"/>
    <nd ref="50384090"/>
    <nd ref="50384089"/>
    <nd ref="50384088"/>
    <nd ref="361443272"/>
    <nd ref="50384086"/>
    <nd ref="50384083"/>
    <nd ref="50382999"/>
    <nd ref="117399276"/>
    <nd ref="59647546"/>
    <nd ref="117399250"/>
    <nd ref="117399270"/>
    <nd ref="361443193"/>
    <nd ref="361443200"/>
    <nd ref="117399265"/>
    <nd ref="117399258"/>
    <nd ref="117399254"/>
    <tag k="highway" v="residential"/>
    <tag k="name" v="Vltavská"/>
    <tag k="surface" v="unpaved"/>
  </way>
  <way id="6101652" version="6" timestamp="2010-01-18T13:50:37Z" uid="17615" user="Petr Dlouhý" changeset="3650287">
    <nd ref="50384104"/>
    <nd ref="361443325"/>
    <nd ref="50384101"/>
    <nd ref="361443314"/>
    <nd ref="364926784"/>
    <nd ref="364926776"/>
    <nd ref="361443280"/>
    <nd ref="361443289"/>
    <nd ref="361443274"/>
    <nd ref="50384099"/>
    <nd ref="50384097"/>
    <nd ref="50384095"/>
    <nd ref="50384094"/>
    <nd ref="50384091"/>
    <nd ref="50384090"/>
    <nd ref="50384089"/>
    <nd ref="50384088"/>
    <nd ref="361443272"/>
    <nd ref="50384086"/>
    <nd ref="50384083"/>
    <nd ref="50382999"/>
    <nd ref="117399276"/>
    <nd ref="59647546"/>
    <nd ref="616233465"/>
    <nd ref="117399250"/>
    <nd ref="616233464"/>
    <nd ref="117399270"/>
    <nd ref="361443193"/>
    <nd ref="361443200"/>
    <nd ref="117399265"/>
    <nd ref="117399258"/>
    <nd ref="117399254"/>
    <tag k="highway" v="residential"/>
    <tag k="name" v="Vltavská"/>
    <tag k="surface" v="unpaved"/>
  </way>
  <way id="6101775" version="2" timestamp="2010-07-09T05:28:44Z" uid="74617" user="JohnSmith" changeset="5170972">
    <nd ref="50385175"/>
    <nd ref="50385293"/>
    <nd ref="50385294"/>
    <nd ref="50385297"/>
    <nd ref="50385298"/>
    <tag k="highway" v="residential"/>
    <tag k="maxspeed" v="50"/>
    <tag k="maxspeed:source" v="default residential speed limit in Australia"/>
    <tag k="name" v="Hamel Street"/>
  </way>
  <way id="6101775" version="3" timestamp="2010-07-09T05:36:27Z" uid="74617" user="JohnSmith" changeset="5170972">
    <nd ref="50385175"/>
    <nd ref="50385293"/>
    <nd ref="50385294"/>
    <nd ref="50385297"/>
    <nd ref="50385298"/>
    <tag k="highway" v="residential"/>
    <tag k="maxspeed" v="50"/>
    <tag k="maxspeed:source" v="default residential speed limit in Australia"/>
    <tag k="name" v="Hamel Street"/>
  </way>
  <way id="6101775" version="4" timestamp="2012-01-15T06:08:23Z" uid="147510" user="woodpeck_fixbot" changeset="10394821">
    <nd ref="50385175"/>
    <nd ref="50385293"/>
    <nd ref="50385294"/>
    <nd ref="50385297"/>
    <nd ref="50385298"/>
    <tag k="highway" v="residential"/>
    <tag k="name" v="Hamel Street"/>
  </way>
  <way id="6101785" version="3" timestamp="2009-11-09T08:54:02Z" uid="4467" user="Rosscoe" changeset="3071495">
    <nd ref="50385293"/>
    <nd ref="50385410"/>
    <tag k="highway" v="residential"/>
    <tag k="name" v="Peronne Avenue"/>
  </way>
  <way id="6101785" version="4" timestamp="2010-07-09T05:29:13Z" uid="74617" user="JohnSmith" changeset="5170972">
    <nd ref="50385293"/>
    <nd ref="50385410"/>
    <tag k="highway" v="residential"/>
    <tag k="maxspeed" v="50"/>
    <tag k="maxspeed:source" v="default residential speed limit in Australia"/>
    <tag k="name" v="Peronne Avenue"/>
  </way>
  <way id="6101785" version="5" timestamp="2010-07-09T05:36:53Z" uid="74617" user="JohnSmith" changeset="5170972">
    <nd ref="50385293"/>
    <nd ref="50385410"/>
    <tag k="highway" v="residential"/>
    <tag k="maxspeed" v="50"/>
    <tag k="maxspeed:source" v="default residential speed limit in Australia"/>
    <tag k="name" v="Peronne Avenue"/>
  </way>
  <way id="6101785" version="6" timestamp="2011-10-24T04:12:25Z" uid="46482" user="Leon K" changeset="9639995">
    <nd ref="50385293"/>
    <nd ref="50385410"/>
    <nd ref="1478660297"/>
    <tag k="highway" v="residential"/>
    <tag k="maxspeed" v="50"/>
    <tag k="maxspeed:source" v="default residential speed limit in Australia"/>
    <tag k="name" v="Peronne Avenue"/>
  </way>
  <way id="6101785" version="7" timestamp="2012-01-15T06:08:24Z" uid="147510" user="woodpeck_fixbot" changeset="10394821">
    <nd ref="50385293"/>
    <nd ref="50385410"/>
    <nd ref="1478660297"/>
    <tag k="highway" v="residential"/>
    <tag k="name" v="Peronne Avenue"/>
  </way>
  <way id="6101806" version="3" timestamp="2010-07-09T05:29:31Z" uid="74617" user="JohnSmith" changeset="5170972">
    <nd ref="50385454"/>
    <nd ref="50385644"/>
    <tag k="highway" v="residential"/>
    <tag k="maxspeed" v="50"/>
    <tag k="maxspeed:source" v="default residential speed limit in Australia"/>
    <tag k="name" v="Central Avenue"/>
  </way>
  <way id="6101806" version="4" timestamp="2010-07-09T05:37:08Z" uid="74617" user="JohnSmith" changeset="5170972">
    <nd ref="50385454"/>
    <nd ref="50385644"/>
    <tag k="highway" v="residential"/>
    <tag k="maxspeed" v="50"/>
    <tag k="maxspeed:source" v="default residential speed limit in Australia"/>
    <tag k="name" v="Central Avenue"/>
  </way>
  <way id="6101806" version="5" timestamp="2011-10-24T04:12:25Z" uid="46482" user="Leon K" changeset="9639995">
    <nd ref="50385454"/>
    <nd ref="1478660297"/>
    <nd ref="50385644"/>
    <tag k="highway" v="residential"/>
    <tag k="maxspeed" v="50"/>
    <tag k="maxspeed:source" v="default residential speed limit in Australia"/>
    <tag k="name" v="Central Avenue"/>
  </way>
  <way id="6101806" version="6" timestamp="2012-01-15T06:08:25Z" uid="147510" user="woodpeck_fixbot" changeset="10394821">
    <nd ref="50385454"/>
    <nd ref="1478660297"/>
    <nd ref="50385644"/>
    <tag k="highway" v="residential"/>
    <tag k="name" v="Central Avenue"/>
  </way>
  <way id="6101846" version="5" timestamp="2009-07-10T15:27:41Z" uid="23543" user="jkjk" changeset="1790041">
    <nd ref="31762066"/>
    <nd ref="50386096"/>
    <nd ref="50386098"/>
    <nd ref="50386100"/>
    <nd ref="361470351"/>
    <nd ref="361470363"/>
    <nd ref="285301114"/>
    <nd ref="361470364"/>
    <nd ref="314683115"/>
    <nd ref="361443462"/>
    <nd ref="361443461"/>
    <nd ref="361443458"/>
    <nd ref="361443457"/>
    <nd ref="361443455"/>
    <tag k="created_by" v="Merkaartor 0.13"/>
    <tag k="highway" v="residential"/>
    <tag k="name" v="Olešská"/>
    <tag k="source" v="cuzk:km;uhul:ortofoto"/>
  </way>
  <way id="6101846" version="6" timestamp="2009-08-29T13:14:13Z" uid="17615" user="Petr Dlouhý" changeset="2301487">
    <nd ref="31762066"/>
    <nd ref="50386096"/>
    <nd ref="50386098"/>
    <nd ref="50386100"/>
    <nd ref="361470351"/>
    <nd ref="361470363"/>
    <nd ref="285301114"/>
    <nd ref="361470364"/>
    <nd ref="314683115"/>
    <tag k="highway" v="residential"/>
    <tag k="name" v="Olešská"/>
    <tag k="source" v="cuzk:km;uhul:ortofoto"/>
  </way>
  <way id="6101926" version="3" timestamp="2008-02-10T16:37:47Z" uid="1066" user="pavel" changeset="93371">
    <nd ref="30064046"/>
    <nd ref="30064047"/>
    <nd ref="30064048"/>
    <nd ref="30064049"/>
    <nd ref="247061205"/>
    <nd ref="30064050"/>
    <tag k="created_by" v="Potlatch 0.6a"/>
    <tag k="highway" v="tertiary"/>
    <tag k="name" v="Lhotecká"/>
  </way>
  <way id="6101926" version="4" timestamp="2008-08-11T14:41:46Z" uid="13887" user="MP2" changeset="189373">
    <nd ref="30064046"/>
    <nd ref="30064047"/>
    <nd ref="30064048"/>
    <nd ref="30064049"/>
    <nd ref="247061205"/>
    <nd ref="30064050"/>
    <tag k="created_by" v="Potlatch 0.6a"/>
    <tag k="highway" v="tertiary"/>
    <tag k="name" v="Lhotecká"/>
    <tag k="ref" v="10116"/>
    <tag k="source:ref" v="rsd_cz"/>
  </way>
  <way id="6101926" version="5" timestamp="2008-09-01T13:35:12Z" uid="17615" user="Petr Dlouhý" changeset="488758">
    <nd ref="30064046"/>
    <nd ref="30064047"/>
    <nd ref="30064048"/>
    <nd ref="30064049"/>
    <nd ref="247061205"/>
    <nd ref="30064050"/>
    <tag k="highway" v="tertiary"/>
    <tag k="name" v="Lhotecká"/>
    <tag k="ref" v="10116"/>
    <tag k="source:ref" v="rsd_cr"/>
  </way>
  <way id="6101926" version="6" timestamp="2009-02-11T21:47:19Z" uid="3516" user="BiIbo" changeset="366111">
    <nd ref="30064046"/>
    <nd ref="344534782"/>
    <nd ref="30064047"/>
    <nd ref="30064048"/>
    <nd ref="30064049"/>
    <nd ref="247061205"/>
    <nd ref="30064050"/>
    <tag k="highway" v="tertiary"/>
    <tag k="name" v="Lhotecká"/>
    <tag k="ref" v="10116"/>
    <tag k="source:ref" v="rsd_cr"/>
  </way>
  <way id="6101926" version="7" timestamp="2009-04-16T22:53:16Z" uid="3516" user="BiIbo" changeset="598636">
    <nd ref="30064046"/>
    <nd ref="344534782"/>
    <nd ref="378469942"/>
    <nd ref="30064047"/>
    <nd ref="30064048"/>
    <nd ref="30064049"/>
    <nd ref="247061205"/>
    <nd ref="30064050"/>
    <tag k="highway" v="tertiary"/>
    <tag k="name" v="Lhotecká"/>
    <tag k="ref" v="10116"/>
    <tag k="source:ref" v="rsd_cr"/>
  </way>
  <way id="6101926" version="8" timestamp="2009-09-23T20:47:58Z" uid="23543" user="jkjk" changeset="2600211">
    <nd ref="30064046"/>
    <nd ref="344534782"/>
    <nd ref="378469942"/>
    <nd ref="30064047"/>
    <nd ref="30064048"/>
    <nd ref="30064049"/>
    <nd ref="247061205"/>
    <nd ref="30064050"/>
    <tag k="highway" v="tertiary"/>
    <tag k="kct_green" v="major"/>
    <tag k="name" v="Lhotecká"/>
    <tag k="ref" v="10116"/>
    <tag k="source:ref" v="rsd_cr"/>
  </way>
  <way id="6101926" version="9" timestamp="2009-12-23T22:12:12Z" uid="17615" user="Petr Dlouhý" changeset="3438218">
    <nd ref="30064046"/>
    <nd ref="344534782"/>
    <nd ref="378469942"/>
    <nd ref="30064047"/>
    <nd ref="30064048"/>
    <nd ref="30064049"/>
    <nd ref="247061205"/>
    <nd ref="30064050"/>
    <tag k="highway" v="tertiary"/>
    <tag k="name" v="Lhotecká"/>
    <tag k="ref" v="10116"/>
    <tag k="source:ref" v="rsd_cr"/>
  </way>
  <way id="6101926" version="10" timestamp="2010-09-27T21:24:13Z" uid="17615" user="Petr Dlouhý" changeset="5896212">
    <nd ref="30064046"/>
    <nd ref="928588872"/>
    <nd ref="344534782"/>
    <nd ref="378469942"/>
    <nd ref="30064047"/>
    <nd ref="30064048"/>
    <nd ref="30064049"/>
    <nd ref="247061205"/>
    <nd ref="30064050"/>
    <tag k="highway" v="tertiary"/>
    <tag k="name" v="Lhotecká"/>
    <tag k="ref" v="10116"/>
    <tag k="source:ref" v="rsd_cr"/>
  </way>
  <way id="6101990" version="2" timestamp="2010-07-09T05:29:01Z" uid="74617" user="JohnSmith" changeset="5170972">
    <nd ref="50387180"/>
    <nd ref="50387369"/>
    <nd ref="50387372"/>
    <nd ref="50387373"/>
    <tag k="highway" v="residential"/>
    <tag k="maxspeed" v="50"/>
    <tag k="maxspeed:source" v="default residential speed limit in Australia"/>
    <tag k="name" v="Kelvin Avenue"/>
  </way>
  <way id="6101990" version="3" timestamp="2010-07-09T05:36:40Z" uid="74617" user="JohnSmith" changeset="5170972">
    <nd ref="50387180"/>
    <nd ref="50387369"/>
    <nd ref="50387372"/>
    <nd ref="50387373"/>
    <tag k="highway" v="residential"/>
    <tag k="maxspeed" v="50"/>
    <tag k="maxspeed:source" v="default residential speed limit in Australia"/>
    <tag k="name" v="Kelvin Avenue"/>
  </way>
  <way id="6101990" version="4" timestamp="2012-01-15T06:08:27Z" uid="147510" user="woodpeck_fixbot" changeset="10394821">
    <nd ref="50387180"/>
    <nd ref="50387369"/>
    <nd ref="50387372"/>
    <nd ref="50387373"/>
    <tag k="highway" v="residential"/>
    <tag k="name" v="Kelvin Avenue"/>
  </way>
  <way id="6101652" version="7" timestamp="2012-06-12T21:43:06Z" uid="168630" user="Jakub Dvořák" changeset="11879673">
    <nd ref="50384104"/>
    <nd ref="361443325"/>
    <nd ref="50384101"/>
    <nd ref="361443314"/>
    <nd ref="364926784"/>
    <nd ref="364926776"/>
    <nd ref="361443280"/>
    <nd ref="361443289"/>
    <nd ref="361443274"/>
    <nd ref="50384099"/>
    <nd ref="50384097"/>
    <nd ref="50384095"/>
    <nd ref="50384094"/>
    <nd ref="50384091"/>
    <nd ref="50384090"/>
    <nd ref="50384089"/>
    <nd ref="50384088"/>
    <nd ref="361443272"/>
    <nd ref="50384086"/>
    <nd ref="50384083"/>
    <nd ref="50382999"/>
    <nd ref="117399276"/>
    <tag k="highway" v="residential"/>
    <tag k="mtb:scale" v="0"/>
    <tag k="name" v="Vltavská"/>
    <tag k="surface" v="unpaved"/>
  </way>
  <way id="6101652" version="8" timestamp="2012-09-11T15:45:57Z" uid="488732" user="montardo" changeset="13071079">
    <nd ref="50384104"/>
    <nd ref="361443325"/>
    <nd ref="50384101"/>
    <nd ref="361443314"/>
    <nd ref="364926784"/>
    <nd ref="364926776"/>
    <nd ref="361443280"/>
    <nd ref="361443274"/>
    <nd ref="1910085986"/>
    <nd ref="50384099"/>
    <nd ref="50384097"/>
    <nd ref="50384095"/>
    <nd ref="50384094"/>
    <nd ref="50384091"/>
    <nd ref="50384090"/>
    <nd ref="50384089"/>
    <nd ref="50384088"/>
    <nd ref="361443272"/>
    <nd ref="50384086"/>
    <nd ref="50384083"/>
    <nd ref="50382999"/>
    <nd ref="117399276"/>
    <tag k="highway" v="residential"/>
    <tag k="mtb:scale" v="0"/>
    <tag k="name" v="Vltavská"/>
    <tag k="surface" v="unpaved"/>
  </way>
  <way id="6101846" version="7" timestamp="2012-09-11T15:45:55Z" uid="488732" user="montardo" changeset="13071079">
    <nd ref="31762066"/>
    <nd ref="50386096"/>
    <nd ref="50386098"/>
    <nd ref="50386100"/>
    <nd ref="361470351"/>
    <nd ref="361470363"/>
    <nd ref="285301114"/>
    <nd ref="1910086095"/>
    <nd ref="1910086088"/>
    <tag k="highway" v="residential"/>
    <tag k="name" v="Olešská"/>
    <tag k="source" v="cuzk:km;uhul:ortofoto"/>
  </way>
  <way id="6101926" version="11" timestamp="2012-06-25T15:00:19Z" uid="488732" user="montardo" changeset="12012461">
    <nd ref="30064046"/>
    <nd ref="928588872"/>
    <nd ref="344534782"/>
    <nd ref="378469942"/>
    <nd ref="30064047"/>
    <nd ref="30064048"/>
    <nd ref="30064049"/>
    <nd ref="1801758059"/>
    <nd ref="247061205"/>
    <nd ref="30064050"/>
    <tag k="highway" v="tertiary"/>
    <tag k="name" v="Lhotecká"/>
    <tag k="ref" v="10116"/>
    <tag k="source:ref" v="rsd_cr"/>
  </way>
</osm>
