<?xml version='1.0' encoding='UTF-8'?>
<osm version="0.6" generator="libosmium/2.20.0">
  <way id="61137328" version="4" timestamp="2010-08-27T13:10:43Z" uid="4467" user="Rosscoe" changeset="5607568">
    <nd ref="764811790"/>
    <nd ref="764811799"/>
    <nd ref="764811801"/>
    <nd ref="882426175"/>
    <tag k="highway" v="secondary"/>
    <tag k="maxspeed" v="100"/>
    <tag k="name" v="Donnybrook Road"/>
    <tag k="oneway" v="yes"/>
    <tag k="source" v="nearmap"/>
  </way>
  <way id="61137328" version="5" timestamp="2012-07-19T10:02:22Z" uid="722137" user="OSMF Redaction Account" changeset="12317346">
    <nd ref="764811790"/>
    <nd ref="764811799"/>
    <nd ref="764811801"/>
    <tag k="highway" v="secondary"/>
    <tag k="maxspeed" v="100"/>
    <tag k="name" v="Donnybrook Road"/>
    <tag k="oneway" v="yes"/>
    <tag k="source" v="nearmap"/>
  </way>
  <way id="61137328" version="6" timestamp="2012-07-31T06:42:01Z" uid="67896" user="mrpulley" changeset="12557007">
    <nd ref="764811790"/>
    <nd ref="764811799"/>
    <nd ref="764811801"/>
    <tag k="highway" v="secondary"/>
    <tag k="maxspeed" v="100"/>
    <tag k="name" v="Donnybrook Road"/>
    <tag k="oneway" v="yes"/>
    <tag k="ref" v="C723"/>
    <tag k="source" v="nearmap"/>
  </way>
</osm>
