<?xml version='1.0' encoding='UTF-8'?>
<osm version="0.6" generator="libosmium/2.20.0">
  <way id="61243265" version="2" timestamp="2011-01-26T19:12:59Z" uid="6269" user="Mueck" changeset="7094659">
    <nd ref="15843290"/>
    <nd ref="567711278"/>
    <nd ref="1122250644"/>
    <nd ref="15843298"/>
    <nd ref="497114761"/>
    <nd ref="15843299"/>
    <nd ref="28199625"/>
    <nd ref="15843292"/>
    <tag k="highway" v="secondary"/>
    <tag k="name" v="Karlsruher Straße"/>
    <tag k="note" v="im SHP des NVK: II"/>
    <tag k="oneway" v="yes"/>
    <tag k="ref" v="L 561"/>
  </way>
  <way id="61243265" version="3" timestamp="2012-03-11T19:51:51Z" uid="110838" user="Bernhard W" changeset="10947440">
    <nd ref="15843290"/>
    <nd ref="567711278"/>
    <nd ref="1670887796"/>
    <nd ref="1122250644"/>
    <nd ref="15843298"/>
    <nd ref="497114761"/>
    <nd ref="15843299"/>
    <nd ref="28199625"/>
    <nd ref="15843292"/>
    <tag k="highway" v="secondary"/>
    <tag k="name" v="Karlsruher Straße"/>
    <tag k="note" v="im SHP des NVK: II"/>
    <tag k="oneway" v="yes"/>
    <tag k="ref" v="L 561"/>
  </way>
  <way id="61243265" version="4" timestamp="2012-03-28T15:53:27Z" uid="35468" user="Blunauer" changeset="11128371">
    <nd ref="15843290"/>
    <nd ref="567711278"/>
    <nd ref="1670887796"/>
    <nd ref="1122250644"/>
    <nd ref="15843298"/>
    <nd ref="1694895390"/>
    <nd ref="15843299"/>
    <nd ref="28199625"/>
    <nd ref="15843292"/>
    <tag k="highway" v="secondary"/>
    <tag k="name" v="Karlsruher Straße"/>
    <tag k="note" v="im SHP des NVK: II"/>
    <tag k="oneway" v="yes"/>
    <tag k="ref" v="L 561"/>
  </way>
  <way id="61243272" version="4" timestamp="2011-03-23T19:29:49Z" uid="6269" user="Mueck" changeset="7649358">
    <nd ref="30483015"/>
    <nd ref="14915555"/>
    <nd ref="346615059"/>
    <tag k="highway" v="primary"/>
    <tag k="lanes" v="4"/>
    <tag k="motorroad" v="no"/>
    <tag k="oneway" v="yes"/>
    <tag k="ref" v="B 3"/>
  </way>
  <way id="61243272" version="5" timestamp="2011-10-08T18:22:18Z" uid="4499" user="Jochen Topf" changeset="9505314">
    <nd ref="30483015"/>
    <nd ref="14915555"/>
    <nd ref="346615059"/>
    <tag k="highway" v="primary"/>
    <tag k="lanes" v="4"/>
    <tag k="motorroad" v="no"/>
    <tag k="oneway" v="yes"/>
    <tag k="ref" v="B 3"/>
    <tag k="tmc" v="DE:22714-53066"/>
  </way>
  <way id="61243272" version="6" timestamp="2011-10-13T15:10:23Z" uid="4499" user="Jochen Topf" changeset="9548007">
    <nd ref="30483015"/>
    <nd ref="14915555"/>
    <nd ref="346615059"/>
    <tag k="highway" v="primary"/>
    <tag k="lanes" v="4"/>
    <tag k="motorroad" v="no"/>
    <tag k="oneway" v="yes"/>
    <tag k="ref" v="B 3"/>
  </way>
  <way id="61243276" version="3" timestamp="2010-09-17T18:58:06Z" uid="6269" user="Mueck" changeset="5806244">
    <nd ref="29847307"/>
    <nd ref="267986107"/>
    <nd ref="29847304"/>
    <tag k="highway" v="secondary"/>
    <tag k="maxspeed" v="60"/>
    <tag k="name" v="Herrenalber Straße"/>
    <tag k="note" v="im SHP des NVK: II"/>
    <tag k="oneway" v="yes"/>
    <tag k="ref" v="L 561"/>
  </way>
  <way id="61243276" version="4" timestamp="2011-10-14T09:21:34Z" uid="4499" user="Jochen Topf" changeset="9553819">
    <nd ref="29847307"/>
    <nd ref="267986107"/>
    <nd ref="29847304"/>
    <tag k="highway" v="secondary"/>
    <tag k="maxspeed" v="60"/>
    <tag k="name" v="Herrenalber Straße"/>
    <tag k="note" v="im SHP des NVK: II"/>
    <tag k="oneway" v="yes"/>
    <tag k="ref" v="L 561"/>
    <tag k="tmc" v="DE:53077+53078"/>
  </way>
  <way id="61243276" version="5" timestamp="2011-11-10T19:18:33Z" uid="165061" user="keinname" changeset="9791318"/>
  <way id="61243285" version="2" timestamp="2011-01-26T17:56:13Z" uid="6269" user="Mueck" changeset="7094659">
    <nd ref="29847303"/>
    <nd ref="15843301"/>
    <nd ref="30623409"/>
    <nd ref="15750935"/>
    <nd ref="25186252"/>
    <nd ref="25187588"/>
    <nd ref="15843285"/>
    <nd ref="1122143082"/>
    <nd ref="1122143092"/>
    <nd ref="1122142692"/>
    <nd ref="15843283"/>
    <nd ref="1122142976"/>
    <nd ref="15843280"/>
    <nd ref="1122142754"/>
    <nd ref="1122143021"/>
    <nd ref="15843271"/>
    <tag k="highway" v="secondary"/>
    <tag k="lanes" v="2"/>
    <tag k="maxspeed" v="60"/>
    <tag k="name" v="Herrenalber Straße"/>
    <tag k="note" v="im SHP des NVK: II"/>
    <tag k="oneway" v="yes"/>
    <tag k="ref" v="L 561"/>
  </way>
  <way id="61243285" version="3" timestamp="2011-01-26T18:08:09Z" uid="6269" user="Mueck" changeset="7094659">
    <nd ref="29847303"/>
    <nd ref="15843301"/>
    <nd ref="30623409"/>
    <nd ref="15750935"/>
    <nd ref="25186252"/>
    <nd ref="25187588"/>
    <nd ref="1122157907"/>
    <nd ref="1122157899"/>
    <nd ref="1122157966"/>
    <nd ref="1122157971"/>
    <nd ref="1122157962"/>
    <nd ref="1122157926"/>
    <nd ref="1122157964"/>
    <nd ref="15843285"/>
    <nd ref="1122143082"/>
    <nd ref="1122143092"/>
    <nd ref="1122142692"/>
    <nd ref="15843283"/>
    <nd ref="1122142976"/>
    <nd ref="15843280"/>
    <nd ref="1122142754"/>
    <nd ref="1122143021"/>
    <nd ref="15843271"/>
    <tag k="highway" v="secondary"/>
    <tag k="lanes" v="2"/>
    <tag k="maxspeed" v="60"/>
    <tag k="name" v="Herrenalber Straße"/>
    <tag k="note" v="im SHP des NVK: II"/>
    <tag k="oneway" v="yes"/>
    <tag k="ref" v="L 561"/>
  </way>
  <way id="61243285" version="4" timestamp="2011-01-26T18:24:43Z" uid="6269" user="Mueck" changeset="7094659">
    <nd ref="29847303"/>
    <nd ref="15843301"/>
    <nd ref="1122179604"/>
    <nd ref="1122179664"/>
    <nd ref="30623409"/>
    <nd ref="1122179617"/>
    <nd ref="15750935"/>
    <nd ref="25186252"/>
    <nd ref="1122179543"/>
    <nd ref="25187588"/>
    <nd ref="1122179578"/>
    <nd ref="1122157907"/>
    <nd ref="1122157899"/>
    <nd ref="1122157966"/>
    <nd ref="1122157971"/>
    <nd ref="1122157962"/>
    <nd ref="1122157926"/>
    <nd ref="1122157964"/>
    <nd ref="15843285"/>
    <nd ref="1122143082"/>
    <nd ref="1122143092"/>
    <nd ref="1122142692"/>
    <nd ref="15843283"/>
    <nd ref="1122142976"/>
    <nd ref="15843280"/>
    <nd ref="1122142754"/>
    <nd ref="1122143021"/>
    <nd ref="15843271"/>
    <tag k="highway" v="secondary"/>
    <tag k="lanes" v="2"/>
    <tag k="maxspeed" v="60"/>
    <tag k="name" v="Herrenalber Straße"/>
    <tag k="note" v="im SHP des NVK: II"/>
    <tag k="oneway" v="yes"/>
    <tag k="ref" v="L 561"/>
  </way>
  <way id="61243285" version="5" timestamp="2011-01-26T18:43:02Z" uid="6269" user="Mueck" changeset="7094659">
    <nd ref="29847303"/>
    <nd ref="15843301"/>
    <nd ref="1122209091"/>
    <nd ref="1122179604"/>
    <nd ref="1122179664"/>
    <nd ref="30623409"/>
    <nd ref="1122179617"/>
    <nd ref="15750935"/>
    <nd ref="25186252"/>
    <nd ref="1122179543"/>
    <nd ref="25187588"/>
    <nd ref="1122179578"/>
    <nd ref="1122157907"/>
    <nd ref="1122157899"/>
    <nd ref="1122157966"/>
    <nd ref="1122157971"/>
    <nd ref="1122157962"/>
    <nd ref="1122157926"/>
    <nd ref="1122157964"/>
    <nd ref="15843285"/>
    <nd ref="1122143082"/>
    <nd ref="1122143092"/>
    <nd ref="1122142692"/>
    <nd ref="15843283"/>
    <nd ref="1122142976"/>
    <nd ref="15843280"/>
    <nd ref="1122142754"/>
    <nd ref="1122143021"/>
    <nd ref="15843271"/>
    <tag k="highway" v="secondary"/>
    <tag k="lanes" v="2"/>
    <tag k="maxspeed" v="60"/>
    <tag k="name" v="Herrenalber Straße"/>
    <tag k="note" v="im SHP des NVK: II"/>
    <tag k="oneway" v="yes"/>
    <tag k="ref" v="L 561"/>
  </way>
  <way id="61243285" version="6" timestamp="2011-01-26T18:59:41Z" uid="6269" user="Mueck" changeset="7094659">
    <nd ref="29847303"/>
    <nd ref="1122235226"/>
    <nd ref="1122235258"/>
    <nd ref="1122235352"/>
    <nd ref="15843301"/>
    <nd ref="1122209091"/>
    <nd ref="1122179604"/>
    <nd ref="1122179664"/>
    <nd ref="30623409"/>
    <nd ref="1122179617"/>
    <nd ref="15750935"/>
    <nd ref="25186252"/>
    <nd ref="1122179543"/>
    <nd ref="25187588"/>
    <nd ref="1122179578"/>
    <nd ref="1122157907"/>
    <nd ref="1122157899"/>
    <nd ref="1122157966"/>
    <nd ref="1122157971"/>
    <nd ref="1122157962"/>
    <nd ref="1122157926"/>
    <nd ref="1122157964"/>
    <nd ref="15843285"/>
    <nd ref="1122143082"/>
    <nd ref="1122143092"/>
    <nd ref="1122142692"/>
    <nd ref="15843283"/>
    <nd ref="1122142976"/>
    <nd ref="15843280"/>
    <nd ref="1122142754"/>
    <nd ref="1122143021"/>
    <nd ref="15843271"/>
    <tag k="highway" v="secondary"/>
    <tag k="lanes" v="2"/>
    <tag k="maxspeed" v="60"/>
    <tag k="name" v="Herrenalber Straße"/>
    <tag k="note" v="im SHP des NVK: II"/>
    <tag k="oneway" v="yes"/>
    <tag k="ref" v="L 561"/>
  </way>
  <way id="61243285" version="7" timestamp="2011-10-08T18:22:23Z" uid="4499" user="Jochen Topf" changeset="9505314">
    <nd ref="29847303"/>
    <nd ref="1122235226"/>
    <nd ref="1122235258"/>
    <nd ref="1122235352"/>
    <nd ref="15843301"/>
    <nd ref="1122209091"/>
    <nd ref="1122179604"/>
    <nd ref="1122179664"/>
    <nd ref="30623409"/>
    <nd ref="1122179617"/>
    <nd ref="15750935"/>
    <nd ref="25186252"/>
    <nd ref="1122179543"/>
    <nd ref="25187588"/>
    <nd ref="1122179578"/>
    <nd ref="1122157907"/>
    <nd ref="1122157899"/>
    <nd ref="1122157966"/>
    <nd ref="1122157971"/>
    <nd ref="1122157962"/>
    <nd ref="1122157926"/>
    <nd ref="1122157964"/>
    <nd ref="15843285"/>
    <nd ref="1122143082"/>
    <nd ref="1122143092"/>
    <nd ref="1122142692"/>
    <nd ref="15843283"/>
    <nd ref="1122142976"/>
    <nd ref="15843280"/>
    <nd ref="1122142754"/>
    <nd ref="1122143021"/>
    <nd ref="15843271"/>
    <tag k="highway" v="secondary"/>
    <tag k="lanes" v="2"/>
    <tag k="maxspeed" v="60"/>
    <tag k="name" v="Herrenalber Straße"/>
    <tag k="note" v="im SHP des NVK: II"/>
    <tag k="oneway" v="yes"/>
    <tag k="ref" v="L 561"/>
    <tag k="tmc" v="DE:53077+53078"/>
  </way>
  <way id="61243285" version="8" timestamp="2011-10-14T09:21:35Z" uid="4499" user="Jochen Topf" changeset="9553819">
    <nd ref="29847303"/>
    <nd ref="1122235226"/>
    <nd ref="1122235258"/>
    <nd ref="1122235352"/>
    <nd ref="15843301"/>
    <nd ref="1122209091"/>
    <nd ref="1122179604"/>
    <nd ref="1122179664"/>
    <nd ref="30623409"/>
    <nd ref="1122179617"/>
    <nd ref="15750935"/>
    <nd ref="25186252"/>
    <nd ref="1122179543"/>
    <nd ref="25187588"/>
    <nd ref="1122179578"/>
    <nd ref="1122157907"/>
    <nd ref="1122157899"/>
    <nd ref="1122157966"/>
    <nd ref="1122157971"/>
    <nd ref="1122157962"/>
    <nd ref="1122157926"/>
    <nd ref="1122157964"/>
    <nd ref="15843285"/>
    <nd ref="1122143082"/>
    <nd ref="1122143092"/>
    <nd ref="1122142692"/>
    <nd ref="15843283"/>
    <nd ref="1122142976"/>
    <nd ref="15843280"/>
    <nd ref="1122142754"/>
    <nd ref="1122143021"/>
    <nd ref="15843271"/>
    <tag k="highway" v="secondary"/>
    <tag k="lanes" v="2"/>
    <tag k="maxspeed" v="60"/>
    <tag k="name" v="Herrenalber Straße"/>
    <tag k="note" v="im SHP des NVK: II"/>
    <tag k="oneway" v="yes"/>
    <tag k="ref" v="L 561"/>
    <tag k="tmc" v="DE:53078-53077"/>
  </way>
  <way id="61243285" version="9" timestamp="2012-02-17T20:35:33Z" uid="60137" user="michael2402" changeset="10714902">
    <nd ref="29847303"/>
    <nd ref="1122235226"/>
    <nd ref="1122235258"/>
    <nd ref="1122235352"/>
    <nd ref="15843301"/>
    <nd ref="1122209091"/>
    <nd ref="1122179604"/>
    <nd ref="1122179664"/>
    <nd ref="30623409"/>
    <nd ref="1122179617"/>
    <nd ref="1636969930"/>
    <nd ref="15750935"/>
    <nd ref="25186252"/>
    <nd ref="1122179543"/>
    <nd ref="25187588"/>
    <nd ref="1122179578"/>
    <nd ref="1122157907"/>
    <nd ref="1122157899"/>
    <nd ref="1122157966"/>
    <nd ref="1122157971"/>
    <nd ref="1122157962"/>
    <nd ref="1122157926"/>
    <nd ref="1122157964"/>
    <nd ref="15843285"/>
    <nd ref="1122143082"/>
    <nd ref="1122143092"/>
    <nd ref="1122142692"/>
    <nd ref="15843283"/>
    <nd ref="1122142976"/>
    <nd ref="15843280"/>
    <nd ref="1122142754"/>
    <nd ref="1122143021"/>
    <nd ref="15843271"/>
    <tag k="highway" v="secondary"/>
    <tag k="lanes" v="2"/>
    <tag k="maxspeed" v="60"/>
    <tag k="name" v="Herrenalber Straße"/>
    <tag k="note" v="im SHP des NVK: II"/>
    <tag k="oneway" v="yes"/>
    <tag k="ref" v="L 561"/>
    <tag k="tmc" v="DE:53078-53077"/>
  </way>
  <way id="61243285" version="10" timestamp="2012-03-28T16:36:52Z" uid="35468" user="Blunauer" changeset="11128763">
    <nd ref="29847303"/>
    <nd ref="1122235226"/>
    <nd ref="1122235258"/>
    <nd ref="1122235352"/>
    <nd ref="15843301"/>
    <nd ref="1122209091"/>
    <nd ref="1122179604"/>
    <nd ref="1122179664"/>
    <nd ref="1694932522"/>
    <nd ref="1122179617"/>
    <nd ref="1636969930"/>
    <nd ref="15750935"/>
    <nd ref="25186252"/>
    <nd ref="1122179543"/>
    <nd ref="25187588"/>
    <nd ref="1122179578"/>
    <nd ref="1122157907"/>
    <nd ref="1122157899"/>
    <nd ref="1122157966"/>
    <nd ref="1122157971"/>
    <nd ref="1122157962"/>
    <nd ref="1122157926"/>
    <nd ref="1122157964"/>
    <nd ref="15843285"/>
    <nd ref="1122143082"/>
    <nd ref="1122143092"/>
    <nd ref="1122142692"/>
    <nd ref="15843283"/>
    <nd ref="1122142976"/>
    <nd ref="15843280"/>
    <nd ref="1122142754"/>
    <nd ref="1122143021"/>
    <nd ref="15843271"/>
    <tag k="highway" v="secondary"/>
    <tag k="lanes" v="2"/>
    <tag k="maxspeed" v="60"/>
    <tag k="name" v="Herrenalber Straße"/>
    <tag k="note" v="im SHP des NVK: II"/>
    <tag k="oneway" v="yes"/>
    <tag k="ref" v="L 561"/>
    <tag k="tmc" v="DE:53078-53077"/>
  </way>
  <way id="61243285" version="11" timestamp="2012-03-30T18:19:47Z" uid="35468" user="Blunauer" changeset="11158471">
    <nd ref="29847303"/>
    <nd ref="1122235226"/>
    <nd ref="1122235258"/>
    <nd ref="1122235352"/>
    <nd ref="15843301"/>
    <nd ref="1122209091"/>
    <nd ref="1122179604"/>
    <nd ref="1122179664"/>
    <nd ref="1694932522"/>
    <nd ref="1122179617"/>
    <nd ref="1636969930"/>
    <nd ref="15750935"/>
    <nd ref="25186252"/>
    <nd ref="1122179543"/>
    <nd ref="25187588"/>
    <nd ref="1122179578"/>
    <nd ref="1122157907"/>
    <nd ref="1122157899"/>
    <nd ref="1122157966"/>
    <nd ref="1122157971"/>
    <nd ref="1122157962"/>
    <nd ref="1122157926"/>
    <nd ref="1122157964"/>
    <nd ref="15843285"/>
    <nd ref="1122143082"/>
    <nd ref="1122143092"/>
    <nd ref="1698219732"/>
    <nd ref="15843283"/>
    <nd ref="1122142976"/>
    <nd ref="15843280"/>
    <nd ref="1122142754"/>
    <nd ref="1122143021"/>
    <nd ref="15843271"/>
    <tag k="highway" v="secondary"/>
    <tag k="lanes" v="2"/>
    <tag k="maxspeed" v="60"/>
    <tag k="name" v="Herrenalber Straße"/>
    <tag k="note" v="im SHP des NVK: II"/>
    <tag k="oneway" v="yes"/>
    <tag k="ref" v="L 561"/>
    <tag k="tmc" v="DE:53078-53077"/>
  </way>
  <way id="61243265" version="5" timestamp="2012-05-15T14:07:28Z" uid="35468" user="Blunauer" changeset="11605318">
    <nd ref="15843290"/>
    <nd ref="1753914491"/>
    <nd ref="1670887796"/>
    <nd ref="1122250644"/>
    <nd ref="15843298"/>
    <nd ref="1694895390"/>
    <nd ref="15843299"/>
    <nd ref="28199625"/>
    <nd ref="15843292"/>
    <tag k="highway" v="secondary"/>
    <tag k="name" v="Karlsruher Straße"/>
    <tag k="note" v="im SHP des NVK: II"/>
    <tag k="oneway" v="yes"/>
    <tag k="ref" v="L 561"/>
  </way>
  <way id="61243265" version="6" timestamp="2012-07-20T09:33:43Z" uid="722137" user="OSMF Redaction Account" changeset="12370000">
    <nd ref="15843290"/>
    <nd ref="1753914491"/>
    <nd ref="1670887796"/>
    <nd ref="15843298"/>
    <nd ref="1694895390"/>
    <nd ref="15843299"/>
    <nd ref="28199625"/>
    <nd ref="15843292"/>
    <tag k="highway" v="secondary"/>
    <tag k="name" v="Karlsruher Straße"/>
    <tag k="note" v="im SHP des NVK: II"/>
    <tag k="oneway" v="yes"/>
    <tag k="ref" v="L 561"/>
  </way>
  <way id="61243265" version="7" timestamp="2012-07-23T10:26:10Z" uid="165061" user="mapper999" changeset="12447223">
    <nd ref="15843290"/>
    <nd ref="1835185821"/>
    <tag k="highway" v="primary"/>
    <tag k="lanes" v="3"/>
    <tag k="lanes:through" v="1"/>
    <tag k="lanes:turnleft" v="2"/>
    <tag k="lanes:turnright" v="1"/>
    <tag k="name" v="Karlsruher Straße"/>
    <tag k="note" v="im SHP des NVK: II"/>
    <tag k="oneway" v="yes"/>
    <tag k="ref" v="L 561"/>
    <tag k="tmc" v="DE:53077+53078"/>
  </way>
  <way id="61243272" version="7" timestamp="2012-07-20T09:33:35Z" uid="722137" user="OSMF Redaction Account" changeset="12370000">
    <nd ref="30483015"/>
    <nd ref="14915555"/>
    <nd ref="346615059"/>
    <tag k="highway" v="trunk"/>
    <tag k="lanes" v="4"/>
    <tag k="motorroad" v="no"/>
    <tag k="oneway" v="yes"/>
    <tag k="ref" v="B 3"/>
  </way>
  <way id="61243272" version="8" timestamp="2012-07-21T21:56:45Z" uid="165061" user="mapper999" changeset="12421189">
    <nd ref="30483015"/>
    <nd ref="14915555"/>
    <nd ref="346615059"/>
    <tag k="highway" v="primary"/>
    <tag k="lanes" v="4"/>
    <tag k="motorroad" v="no"/>
    <tag k="oneway" v="yes"/>
    <tag k="ref" v="B 3"/>
  </way>
  <way id="61243285" version="12" timestamp="2012-05-15T13:49:24Z" uid="35468" user="Blunauer" changeset="11605163">
    <nd ref="29847303"/>
    <nd ref="1122235226"/>
    <nd ref="1122235258"/>
    <nd ref="1122235352"/>
    <nd ref="15843301"/>
    <nd ref="1122209091"/>
    <nd ref="1122179604"/>
    <nd ref="1122179664"/>
    <nd ref="1694932522"/>
    <nd ref="1753900394"/>
    <nd ref="1636969930"/>
    <nd ref="15750935"/>
    <nd ref="25186252"/>
    <nd ref="1753900399"/>
    <nd ref="25187588"/>
    <nd ref="1122179578"/>
    <nd ref="1122157907"/>
    <nd ref="1122157899"/>
    <nd ref="1122157966"/>
    <nd ref="1122157971"/>
    <nd ref="1122157962"/>
    <nd ref="1122157926"/>
    <nd ref="1122157964"/>
    <nd ref="15843285"/>
    <nd ref="1122143082"/>
    <nd ref="1122143092"/>
    <nd ref="1698219732"/>
    <nd ref="15843283"/>
    <nd ref="1122142976"/>
    <nd ref="15843280"/>
    <nd ref="1122142754"/>
    <nd ref="1122143021"/>
    <nd ref="15843271"/>
    <tag k="highway" v="secondary"/>
    <tag k="lanes" v="2"/>
    <tag k="maxspeed" v="60"/>
    <tag k="name" v="Herrenalber Straße"/>
    <tag k="note" v="im SHP des NVK: II"/>
    <tag k="oneway" v="yes"/>
    <tag k="ref" v="L 561"/>
    <tag k="tmc" v="DE:53078-53077"/>
  </way>
  <way id="61243285" version="13" timestamp="2012-05-15T14:04:05Z" uid="35468" user="Blunauer" changeset="11605290">
    <nd ref="29847303"/>
    <nd ref="1753910651"/>
    <nd ref="1753910652"/>
    <nd ref="1753910653"/>
    <nd ref="1753910663"/>
    <nd ref="1753910666"/>
    <nd ref="1753910672"/>
    <nd ref="1753910673"/>
    <nd ref="1694932522"/>
    <nd ref="1753900394"/>
    <nd ref="1636969930"/>
    <nd ref="15750935"/>
    <nd ref="25186252"/>
    <nd ref="1753900399"/>
    <nd ref="25187588"/>
    <nd ref="1122179578"/>
    <nd ref="1122157907"/>
    <nd ref="1122157899"/>
    <nd ref="1122157966"/>
    <nd ref="1122157971"/>
    <nd ref="1122157962"/>
    <nd ref="1122157926"/>
    <nd ref="1122157964"/>
    <nd ref="15843285"/>
    <nd ref="1122143082"/>
    <nd ref="1122143092"/>
    <nd ref="1698219732"/>
    <nd ref="15843283"/>
    <nd ref="1122142976"/>
    <nd ref="15843280"/>
    <nd ref="1122142754"/>
    <nd ref="1122143021"/>
    <nd ref="15843271"/>
    <tag k="highway" v="secondary"/>
    <tag k="lanes" v="2"/>
    <tag k="maxspeed" v="60"/>
    <tag k="name" v="Herrenalber Straße"/>
    <tag k="note" v="im SHP des NVK: II"/>
    <tag k="oneway" v="yes"/>
    <tag k="ref" v="L 561"/>
    <tag k="tmc" v="DE:53078-53077"/>
  </way>
  <way id="61243285" version="14" timestamp="2012-05-15T14:17:42Z" uid="35468" user="Blunauer" changeset="11605400">
    <nd ref="29847303"/>
    <nd ref="1753910651"/>
    <nd ref="1753910652"/>
    <nd ref="1753910653"/>
    <nd ref="1753910663"/>
    <nd ref="1753910666"/>
    <nd ref="1753910672"/>
    <nd ref="1753910673"/>
    <nd ref="1694932522"/>
    <nd ref="1753900394"/>
    <nd ref="1636969930"/>
    <nd ref="15750935"/>
    <nd ref="25186252"/>
    <nd ref="1753900399"/>
    <nd ref="1753922987"/>
    <nd ref="1753922994"/>
    <nd ref="1753922998"/>
    <nd ref="1753923002"/>
    <nd ref="1122157966"/>
    <nd ref="1122157971"/>
    <nd ref="1122157962"/>
    <nd ref="1122157926"/>
    <nd ref="1122157964"/>
    <nd ref="15843285"/>
    <nd ref="1122143082"/>
    <nd ref="1122143092"/>
    <nd ref="1698219732"/>
    <nd ref="15843283"/>
    <nd ref="1122142976"/>
    <nd ref="15843280"/>
    <nd ref="1122142754"/>
    <nd ref="1122143021"/>
    <nd ref="15843271"/>
    <tag k="highway" v="secondary"/>
    <tag k="lanes" v="2"/>
    <tag k="maxspeed" v="60"/>
    <tag k="name" v="Herrenalber Straße"/>
    <tag k="note" v="im SHP des NVK: II"/>
    <tag k="oneway" v="yes"/>
    <tag k="ref" v="L 561"/>
    <tag k="tmc" v="DE:53078-53077"/>
  </way>
  <way id="61243285" version="15" timestamp="2012-05-15T14:26:59Z" uid="35468" user="Blunauer" changeset="11605468">
    <nd ref="29847303"/>
    <nd ref="1753910651"/>
    <nd ref="1753910652"/>
    <nd ref="1753910653"/>
    <nd ref="1753910663"/>
    <nd ref="1753910666"/>
    <nd ref="1753910672"/>
    <nd ref="1753910673"/>
    <nd ref="1694932522"/>
    <nd ref="1753900394"/>
    <nd ref="1636969930"/>
    <nd ref="15750935"/>
    <nd ref="25186252"/>
    <nd ref="1753900399"/>
    <nd ref="1753922987"/>
    <nd ref="1753922994"/>
    <nd ref="1753922998"/>
    <nd ref="1753923002"/>
    <nd ref="1753928624"/>
    <nd ref="1753928655"/>
    <nd ref="1753928665"/>
    <nd ref="1753928670"/>
    <nd ref="1122157964"/>
    <nd ref="15843285"/>
    <nd ref="1122143082"/>
    <nd ref="1122143092"/>
    <nd ref="1698219732"/>
    <nd ref="15843283"/>
    <nd ref="1122142976"/>
    <nd ref="15843280"/>
    <nd ref="1122142754"/>
    <nd ref="1122143021"/>
    <nd ref="15843271"/>
    <tag k="highway" v="secondary"/>
    <tag k="lanes" v="2"/>
    <tag k="maxspeed" v="60"/>
    <tag k="name" v="Herrenalber Straße"/>
    <tag k="note" v="im SHP des NVK: II"/>
    <tag k="oneway" v="yes"/>
    <tag k="ref" v="L 561"/>
    <tag k="tmc" v="DE:53078-53077"/>
  </way>
  <way id="61243285" version="16" timestamp="2012-05-15T14:35:23Z" uid="35468" user="Blunauer" changeset="11605531">
    <nd ref="29847303"/>
    <nd ref="1753910651"/>
    <nd ref="1753910652"/>
    <nd ref="1753910653"/>
    <nd ref="1753910663"/>
    <nd ref="1753910666"/>
    <nd ref="1753910672"/>
    <nd ref="1753910673"/>
    <nd ref="1694932522"/>
    <nd ref="1753900394"/>
    <nd ref="1636969930"/>
    <nd ref="15750935"/>
    <nd ref="25186252"/>
    <nd ref="1753900399"/>
    <nd ref="1753922987"/>
    <nd ref="1753922994"/>
    <nd ref="1753922998"/>
    <nd ref="1753923002"/>
    <nd ref="1753928624"/>
    <nd ref="1753928655"/>
    <nd ref="1753928665"/>
    <nd ref="1753928670"/>
    <nd ref="1753932833"/>
    <nd ref="1753932837"/>
    <nd ref="1753932842"/>
    <nd ref="1753932844"/>
    <nd ref="1698219732"/>
    <nd ref="1753932852"/>
    <nd ref="1753932860"/>
    <nd ref="15843280"/>
    <nd ref="1122142754"/>
    <nd ref="1122143021"/>
    <nd ref="15843271"/>
    <tag k="highway" v="secondary"/>
    <tag k="lanes" v="2"/>
    <tag k="maxspeed" v="60"/>
    <tag k="name" v="Herrenalber Straße"/>
    <tag k="note" v="im SHP des NVK: II"/>
    <tag k="oneway" v="yes"/>
    <tag k="ref" v="L 561"/>
    <tag k="tmc" v="DE:53078-53077"/>
  </way>
  <way id="61243285" version="17" timestamp="2012-05-15T14:44:12Z" uid="35468" user="Blunauer" changeset="11605601">
    <nd ref="29847303"/>
    <nd ref="1753910651"/>
    <nd ref="1753910652"/>
    <nd ref="1753910653"/>
    <nd ref="1753910663"/>
    <nd ref="1753910666"/>
    <nd ref="1753910672"/>
    <nd ref="1753910673"/>
    <nd ref="1694932522"/>
    <nd ref="1753900394"/>
    <nd ref="1636969930"/>
    <nd ref="15750935"/>
    <nd ref="25186252"/>
    <nd ref="1753900399"/>
    <nd ref="1753922987"/>
    <nd ref="1753922994"/>
    <nd ref="1753922998"/>
    <nd ref="1753923002"/>
    <nd ref="1753928624"/>
    <nd ref="1753928655"/>
    <nd ref="1753928665"/>
    <nd ref="1753928670"/>
    <nd ref="1753932833"/>
    <nd ref="1753932837"/>
    <nd ref="1753932842"/>
    <nd ref="1753932844"/>
    <nd ref="1698219732"/>
    <nd ref="1753932852"/>
    <nd ref="1753932860"/>
    <nd ref="1753939759"/>
    <nd ref="1753939765"/>
    <nd ref="1753939768"/>
    <nd ref="15843271"/>
    <tag k="highway" v="secondary"/>
    <tag k="lanes" v="2"/>
    <tag k="maxspeed" v="60"/>
    <tag k="name" v="Herrenalber Straße"/>
    <tag k="note" v="im SHP des NVK: II"/>
    <tag k="oneway" v="yes"/>
    <tag k="ref" v="L 561"/>
    <tag k="tmc" v="DE:53078-53077"/>
  </way>
  <way id="61243285" version="18" timestamp="2012-07-20T09:33:49Z" uid="722137" user="OSMF Redaction Account" changeset="12370000">
    <nd ref="29847303"/>
    <nd ref="1753910651"/>
    <nd ref="1753910652"/>
    <nd ref="1753910653"/>
    <nd ref="1753910663"/>
    <nd ref="1753910666"/>
    <nd ref="1753910672"/>
    <nd ref="1753910673"/>
    <nd ref="1694932522"/>
    <nd ref="1753900394"/>
    <nd ref="1636969930"/>
    <nd ref="15750935"/>
    <nd ref="25186252"/>
    <nd ref="1753900399"/>
    <nd ref="1753922987"/>
    <nd ref="1753922994"/>
    <nd ref="1753922998"/>
    <nd ref="1753923002"/>
    <nd ref="1753928624"/>
    <nd ref="1753928655"/>
    <nd ref="1753928665"/>
    <nd ref="1753928670"/>
    <nd ref="1753932833"/>
    <nd ref="1753932837"/>
    <nd ref="1753932842"/>
    <nd ref="1753932844"/>
    <nd ref="1698219732"/>
    <nd ref="1753932852"/>
    <nd ref="1753932860"/>
    <nd ref="1753939759"/>
    <nd ref="1753939765"/>
    <nd ref="1753939768"/>
    <nd ref="15843271"/>
    <tag k="highway" v="secondary"/>
    <tag k="maxspeed" v="60"/>
    <tag k="name" v="Herrenalber Straße"/>
    <tag k="note" v="im SHP des NVK: II"/>
    <tag k="oneway" v="yes"/>
    <tag k="ref" v="L 561"/>
    <tag k="tmc" v="DE:53078-53077"/>
  </way>
  <way id="61243285" version="19" timestamp="2012-07-20T14:25:33Z" uid="42208" user="JanTH" changeset="12377388">
    <nd ref="29847303"/>
    <nd ref="1753910651"/>
    <nd ref="1753910652"/>
    <nd ref="1753910653"/>
    <nd ref="1753910663"/>
    <nd ref="1753910666"/>
    <nd ref="1753910672"/>
    <nd ref="1753910673"/>
    <nd ref="1694932522"/>
    <nd ref="1753900394"/>
    <nd ref="1636969930"/>
    <nd ref="15750935"/>
    <nd ref="25186252"/>
    <nd ref="1753900399"/>
    <nd ref="1753922987"/>
    <nd ref="1753922994"/>
    <nd ref="1753922998"/>
    <nd ref="1753923002"/>
    <nd ref="1753928624"/>
    <nd ref="1753928655"/>
    <nd ref="1753928665"/>
    <nd ref="1753928670"/>
    <nd ref="1753932833"/>
    <nd ref="1753932837"/>
    <nd ref="1753932842"/>
    <nd ref="1753932844"/>
    <nd ref="1698219732"/>
    <nd ref="1753932852"/>
    <tag k="highway" v="secondary"/>
    <tag k="maxspeed" v="60"/>
    <tag k="name" v="Herrenalber Straße"/>
    <tag k="note" v="im SHP des NVK: II"/>
    <tag k="oneway" v="yes"/>
    <tag k="ref" v="L 561"/>
    <tag k="tmc" v="DE:53078-53077"/>
  </way>
  <way id="61243285" version="20" timestamp="2012-07-23T10:42:37Z" uid="165061" user="mapper999" changeset="12447223">
    <nd ref="29847303"/>
    <nd ref="1753910651"/>
    <nd ref="1753910652"/>
    <nd ref="1753910653"/>
    <nd ref="1753910663"/>
    <nd ref="1753910666"/>
    <nd ref="1753910672"/>
    <nd ref="1753910673"/>
    <nd ref="1694932522"/>
    <nd ref="1753900394"/>
    <nd ref="1636969930"/>
    <nd ref="15750935"/>
    <tag k="highway" v="secondary"/>
    <tag k="maxspeed" v="60"/>
    <tag k="name" v="Herrenalber Straße"/>
    <tag k="note" v="im SHP des NVK: II"/>
    <tag k="oneway" v="yes"/>
    <tag k="ref" v="L 561"/>
    <tag k="tmc" v="DE:53078-53077"/>
  </way>
</osm>
