<?xml version='1.0' encoding='UTF-8'?>
<osm version="0.6" generator="libosmium/2.20.0">
  <way id="61240180" version="1" timestamp="2010-06-06T00:10:35Z" uid="4467" user="Rosscoe" changeset="4913568">
    <nd ref="759263455"/>
    <nd ref="759264063"/>
    <nd ref="134859849"/>
    <tag k="highway" v="trunk"/>
    <tag k="name" v="Nicholson Road"/>
    <tag k="oneway" v="yes"/>
    <tag k="ref" v="S31"/>
  </way>
  <way id="61240180" version="2" timestamp="2010-11-17T05:21:23Z" uid="294850" user="Q4004" changeset="6390206"/>
  <way id="61240181" version="1" timestamp="2010-06-06T00:10:38Z" uid="4467" user="Rosscoe" changeset="4913568">
    <nd ref="765379799"/>
    <nd ref="759264024"/>
    <nd ref="759263455"/>
    <tag k="highway" v="trunk"/>
    <tag k="name" v="Nicholson Road"/>
    <tag k="oneway" v="yes"/>
    <tag k="ref" v="S31"/>
  </way>
  <way id="61240181" version="2" timestamp="2010-11-17T04:32:12Z" uid="294850" user="Q4004" changeset="6390097">
    <nd ref="765379799"/>
    <nd ref="759264024"/>
    <nd ref="759263455"/>
    <tag k="highway" v="trunk"/>
    <tag k="name" v="Nicholson Road"/>
    <tag k="ref" v="S31"/>
  </way>
  <way id="61240181" version="3" timestamp="2010-11-17T05:21:24Z" uid="294850" user="Q4004" changeset="6390206"/>
  <way id="61240182" version="1" timestamp="2010-06-06T00:10:45Z" uid="4467" user="Rosscoe" changeset="4913568">
    <nd ref="759263937"/>
    <nd ref="759264041"/>
    <nd ref="759264046"/>
    <nd ref="759264048"/>
    <nd ref="759264050"/>
    <nd ref="759264052"/>
    <nd ref="759264054"/>
    <nd ref="759264056"/>
    <nd ref="765379799"/>
    <tag k="highway" v="trunk"/>
    <tag k="name" v="Nicholson Road"/>
    <tag k="oneway" v="yes"/>
    <tag k="ref" v="S31"/>
  </way>
  <way id="61240182" version="2" timestamp="2010-11-17T05:21:20Z" uid="294850" user="Q4004" changeset="6390206">
    <nd ref="759263937"/>
    <nd ref="759264041"/>
    <nd ref="759264046"/>
    <nd ref="759264048"/>
    <nd ref="759264050"/>
    <nd ref="759264052"/>
    <nd ref="759264054"/>
    <nd ref="759264056"/>
    <nd ref="992227390"/>
    <nd ref="992227391"/>
    <nd ref="992227271"/>
    <nd ref="992227392"/>
    <nd ref="992227395"/>
    <nd ref="759264063"/>
    <nd ref="134859849"/>
    <tag k="highway" v="trunk"/>
    <tag k="name" v="Nicholson Road"/>
    <tag k="oneway" v="yes"/>
    <tag k="ref" v="S31"/>
  </way>
  <way id="61240182" version="3" timestamp="2011-01-15T02:20:08Z" uid="4467" user="Rosscoe" changeset="6973301">
    <nd ref="759263937"/>
    <nd ref="759264041"/>
    <nd ref="759264046"/>
    <nd ref="759264048"/>
    <nd ref="759264050"/>
    <nd ref="759264052"/>
    <nd ref="759264054"/>
    <nd ref="759264056"/>
    <nd ref="130190307"/>
    <tag k="highway" v="trunk"/>
    <tag k="name" v="Nicholson Road"/>
    <tag k="oneway" v="yes"/>
    <tag k="ref" v="S31"/>
  </way>
  <way id="61240182" version="4" timestamp="2011-09-10T02:52:50Z" uid="294850" user="Q4004" changeset="9259176">
    <nd ref="759263937"/>
    <nd ref="759264041"/>
    <nd ref="759264046"/>
    <nd ref="759264048"/>
    <nd ref="759264050"/>
    <nd ref="759264052"/>
    <nd ref="759264054"/>
    <nd ref="759264056"/>
    <nd ref="1428538789"/>
    <nd ref="1428538797"/>
    <nd ref="1428538754"/>
    <nd ref="1428538812"/>
    <nd ref="1428538761"/>
    <nd ref="1428538728"/>
    <nd ref="1428538787"/>
    <nd ref="134859849"/>
    <tag k="highway" v="trunk"/>
    <tag k="name" v="Nicholson Road"/>
    <tag k="oneway" v="yes"/>
    <tag k="ref" v="S31"/>
  </way>
  <way id="61240183" version="1" timestamp="2010-06-06T00:10:48Z" uid="4467" user="Rosscoe" changeset="4913568">
    <nd ref="562614866"/>
    <nd ref="32950866"/>
    <nd ref="197136700"/>
    <nd ref="244917416"/>
    <nd ref="587804614"/>
    <nd ref="587803985"/>
    <nd ref="244755683"/>
    <nd ref="32950867"/>
    <nd ref="708320455"/>
    <nd ref="244960279"/>
    <nd ref="244917787"/>
    <nd ref="32950868"/>
    <nd ref="605411273"/>
    <nd ref="605411274"/>
    <nd ref="32950869"/>
    <nd ref="60203412"/>
    <nd ref="266737985"/>
    <nd ref="60203416"/>
    <nd ref="605411275"/>
    <nd ref="605411276"/>
    <nd ref="605411277"/>
    <nd ref="605411279"/>
    <nd ref="605411280"/>
    <nd ref="762092976"/>
    <nd ref="605411281"/>
    <nd ref="762092981"/>
    <nd ref="762890784"/>
    <nd ref="762890797"/>
    <nd ref="762890786"/>
    <nd ref="605411283"/>
    <nd ref="32950770"/>
    <nd ref="32950771"/>
    <nd ref="32950772"/>
    <tag k="highway" v="trunk"/>
    <tag k="name" v="Nicholson Road"/>
    <tag k="oneway" v="yes"/>
    <tag k="ref" v="S31"/>
  </way>
  <way id="61240183" version="2" timestamp="2010-06-06T00:41:24Z" uid="4467" user="Rosscoe" changeset="4913657">
    <nd ref="562614866"/>
    <nd ref="32950866"/>
    <nd ref="244917416"/>
    <nd ref="587804614"/>
    <nd ref="587803985"/>
    <nd ref="244755683"/>
    <nd ref="708320455"/>
    <nd ref="244960279"/>
    <nd ref="244917787"/>
    <nd ref="32950868"/>
    <nd ref="605411273"/>
    <nd ref="605411274"/>
    <nd ref="32950869"/>
    <nd ref="60203412"/>
    <nd ref="266737985"/>
    <nd ref="605411275"/>
    <nd ref="765382515"/>
    <nd ref="605411276"/>
    <nd ref="605411277"/>
    <tag k="highway" v="trunk"/>
    <tag k="name" v="Nicholson Road"/>
    <tag k="oneway" v="yes"/>
    <tag k="ref" v="S31"/>
    <tag k="source" v="nearmap"/>
  </way>
  <way id="61240183" version="3" timestamp="2011-01-09T09:27:49Z" uid="4467" user="Rosscoe" changeset="6912787">
    <nd ref="562614866"/>
    <nd ref="32950866"/>
    <nd ref="1093689434"/>
    <nd ref="244917416"/>
    <nd ref="587804614"/>
    <nd ref="587803985"/>
    <nd ref="244755683"/>
    <nd ref="708320455"/>
    <nd ref="244960279"/>
    <nd ref="244917787"/>
    <nd ref="32950868"/>
    <nd ref="605411273"/>
    <nd ref="605411274"/>
    <nd ref="32950869"/>
    <nd ref="60203412"/>
    <nd ref="266737985"/>
    <nd ref="605411275"/>
    <nd ref="765382515"/>
    <nd ref="605411276"/>
    <nd ref="605411277"/>
    <tag k="highway" v="trunk"/>
    <tag k="name" v="Nicholson Road"/>
    <tag k="oneway" v="yes"/>
    <tag k="ref" v="S31"/>
    <tag k="source" v="nearmap"/>
  </way>
  <way id="61240184" version="1" timestamp="2010-06-06T00:10:51Z" uid="4467" user="Rosscoe" changeset="4913568">
    <nd ref="765379818"/>
    <nd ref="765379823"/>
    <nd ref="568196248"/>
    <nd ref="130190294"/>
    <nd ref="244947105"/>
    <nd ref="562614866"/>
    <tag k="highway" v="trunk"/>
    <tag k="name" v="Nicholson Road"/>
    <tag k="oneway" v="yes"/>
    <tag k="ref" v="S31"/>
    <tag k="source" v="nearmap"/>
  </way>
  <way id="61240185" version="1" timestamp="2010-06-06T00:10:53Z" uid="4467" user="Rosscoe" changeset="4913568">
    <nd ref="765379822"/>
    <nd ref="765379818"/>
    <tag k="highway" v="trunk"/>
    <tag k="name" v="Nicholson Road"/>
    <tag k="oneway" v="yes"/>
    <tag k="ref" v="S31"/>
  </way>
  <way id="61240186" version="1" timestamp="2010-06-06T00:10:55Z" uid="4467" user="Rosscoe" changeset="4913568">
    <nd ref="765379822"/>
    <nd ref="765379800"/>
    <nd ref="765379830"/>
    <nd ref="765379801"/>
    <nd ref="765379827"/>
    <nd ref="765379812"/>
    <nd ref="759263937"/>
    <tag k="highway" v="trunk"/>
    <tag k="name" v="Nicholson Road"/>
    <tag k="oneway" v="yes"/>
    <tag k="ref" v="S31"/>
    <tag k="source" v="nearmap"/>
  </way>
  <way id="61240186" version="2" timestamp="2010-11-17T05:21:20Z" uid="294850" user="Q4004" changeset="6390206">
    <nd ref="992227386"/>
    <nd ref="765379800"/>
    <nd ref="765379830"/>
    <nd ref="765379801"/>
    <nd ref="765379827"/>
    <nd ref="765379812"/>
    <nd ref="759263937"/>
    <tag k="highway" v="trunk"/>
    <tag k="name" v="Nicholson Road"/>
    <tag k="oneway" v="yes"/>
    <tag k="ref" v="S31"/>
    <tag k="source" v="nearmap"/>
  </way>
  <way id="61240187" version="1" timestamp="2010-06-06T00:10:57Z" uid="4467" user="Rosscoe" changeset="4913568">
    <nd ref="634796172"/>
    <nd ref="634796174"/>
    <nd ref="634796175"/>
    <nd ref="634796176"/>
    <nd ref="634798629"/>
    <nd ref="634796177"/>
    <nd ref="685099199"/>
    <nd ref="634796178"/>
    <tag k="highway" v="tertiary"/>
    <tag k="name" v="Erade Street"/>
    <tag k="source" v="nearmap"/>
  </way>
  <way id="61240187" version="2" timestamp="2010-11-17T04:32:12Z" uid="294850" user="Q4004" changeset="6390097">
    <nd ref="765379824"/>
    <nd ref="634796172"/>
    <nd ref="634796174"/>
    <nd ref="634796175"/>
    <nd ref="634796176"/>
    <nd ref="634798629"/>
    <nd ref="634796177"/>
    <nd ref="685099199"/>
    <nd ref="634796178"/>
    <tag k="highway" v="tertiary"/>
    <tag k="name" v="Erade Street"/>
    <tag k="source" v="nearmap"/>
  </way>
  <way id="61240187" version="3" timestamp="2011-03-30T23:27:13Z" uid="429325" user="KarlLukan" changeset="7721620">
    <nd ref="765379824"/>
    <nd ref="634796172"/>
    <nd ref="634796174"/>
    <nd ref="634796175"/>
    <nd ref="634796176"/>
    <nd ref="634798629"/>
    <nd ref="634796177"/>
    <nd ref="685099199"/>
    <nd ref="634796178"/>
    <tag k="highway" v="tertiary"/>
    <tag k="name" v="Erade Drive"/>
    <tag k="source" v="nearmap"/>
  </way>
  <way id="61240452" version="1" timestamp="2010-06-06T00:29:39Z" uid="7617" user="Franc" changeset="4913630">
    <nd ref="765381475"/>
    <nd ref="765381488"/>
    <nd ref="765381489"/>
    <nd ref="765381490"/>
    <nd ref="765381491"/>
    <nd ref="765381486"/>
    <nd ref="765381487"/>
    <nd ref="765381476"/>
    <nd ref="765381475"/>
    <tag k="leisure" v="park"/>
    <tag k="source" v="nearmap"/>
  </way>
  <way id="61240452" version="2" timestamp="2010-06-06T07:41:17Z" uid="7617" user="Franc" changeset="4915038">
    <nd ref="765381475"/>
    <nd ref="765381488"/>
    <nd ref="765381489"/>
    <nd ref="765381490"/>
    <nd ref="765381491"/>
    <nd ref="765381486"/>
    <nd ref="765381487"/>
    <nd ref="765381476"/>
    <nd ref="765381475"/>
    <tag k="leisure" v="park"/>
    <tag k="name" v="Memorial Playground"/>
    <tag k="source" v="nearmap"/>
    <tag k="source:name" v="survey"/>
  </way>
  <way id="61240453" version="1" timestamp="2010-06-06T00:29:39Z" uid="7617" user="Franc" changeset="4913630">
    <nd ref="765381501"/>
    <nd ref="765381502"/>
    <nd ref="765381485"/>
    <tag k="highway" v="service"/>
    <tag k="source" v="nearmap"/>
  </way>
  <way id="61240453" version="2" timestamp="2011-03-26T07:37:18Z" uid="7617" user="Franc" changeset="7672617">
    <nd ref="765381501"/>
    <nd ref="765381502"/>
    <nd ref="765381485"/>
    <tag k="highway" v="service"/>
    <tag k="name" v="Brighton Road"/>
    <tag k="source" v="nearmap"/>
  </way>
  <way id="61240454" version="1" timestamp="2010-06-06T00:29:39Z" uid="7617" user="Franc" changeset="4913630">
    <nd ref="765381502"/>
    <nd ref="765381498"/>
    <nd ref="765381499"/>
    <nd ref="765381500"/>
    <nd ref="765381484"/>
    <tag k="highway" v="service"/>
    <tag k="source" v="nearmap"/>
  </way>
  <way id="61240454" version="2" timestamp="2011-03-26T07:37:21Z" uid="7617" user="Franc" changeset="7672617">
    <nd ref="765381484"/>
    <nd ref="765381500"/>
    <nd ref="765381499"/>
    <nd ref="765381498"/>
    <nd ref="765381502"/>
    <tag k="fixme:sign:broken" v="2011-03-13"/>
    <tag k="highway" v="service"/>
    <tag k="oneway" v="yes"/>
    <tag k="source" v="nearmap"/>
  </way>
  <way id="61240455" version="1" timestamp="2010-06-06T00:29:39Z" uid="7617" user="Franc" changeset="4913630">
    <nd ref="765381471"/>
    <nd ref="765381478"/>
    <nd ref="765381483"/>
    <nd ref="765381477"/>
    <nd ref="765381482"/>
    <nd ref="765381480"/>
    <nd ref="765381481"/>
    <nd ref="765381479"/>
    <nd ref="765381467"/>
    <nd ref="765381472"/>
    <nd ref="765381468"/>
    <nd ref="765381473"/>
    <nd ref="765381466"/>
    <nd ref="765381474"/>
    <nd ref="765381470"/>
    <nd ref="765381469"/>
    <nd ref="765381471"/>
    <tag k="building" v="yes"/>
    <tag k="man_made" v="reservoir_covered"/>
  </way>
  <way id="61240456" version="1" timestamp="2010-06-06T00:29:40Z" uid="7617" user="Franc" changeset="4913630">
    <nd ref="765381492"/>
    <nd ref="246712738"/>
    <nd ref="199991559"/>
    <nd ref="765381493"/>
    <nd ref="246712742"/>
    <tag k="highway" v="residential"/>
    <tag k="maxspeed" v="50"/>
    <tag k="name" v="Carr Street"/>
    <tag k="source" v="survey"/>
    <tag k="source:maxspeed" v="state_limit"/>
  </way>
  <way id="61240456" version="2" timestamp="2011-03-19T23:18:00Z" uid="7617" user="Franc" changeset="7611445">
    <nd ref="765381492"/>
    <nd ref="246712738"/>
    <nd ref="199991559"/>
    <nd ref="765381493"/>
    <nd ref="246712742"/>
    <tag k="highway" v="residential"/>
    <tag k="maxspeed" v="50"/>
    <tag k="name" v="Carr Street"/>
    <tag k="restriction" v="school_zone"/>
    <tag k="source" v="survey"/>
    <tag k="source:maxspeed" v="state_limit"/>
  </way>
  <way id="61240596" version="1" timestamp="2010-06-06T00:40:25Z" uid="4467" user="Rosscoe" changeset="4913657">
    <nd ref="389493401"/>
    <nd ref="765382508"/>
    <nd ref="32950781"/>
    <nd ref="605411275"/>
    <tag k="highway" v="residential"/>
    <tag k="name" v="Ruth Avenue"/>
    <tag k="oneway" v="yes"/>
    <tag k="source" v="nearmap"/>
  </way>
  <way id="61240596" version="2" timestamp="2010-07-09T08:01:29Z" uid="74617" user="JohnSmith" changeset="5171412">
    <nd ref="389493401"/>
    <nd ref="765382508"/>
    <nd ref="32950781"/>
    <nd ref="605411275"/>
    <tag k="highway" v="residential"/>
    <tag k="maxspeed" v="50"/>
    <tag k="maxspeed:source" v="default residential speed limit in Australia"/>
    <tag k="name" v="Ruth Avenue"/>
    <tag k="oneway" v="yes"/>
    <tag k="source" v="nearmap"/>
  </way>
  <way id="61240597" version="1" timestamp="2010-06-06T00:40:27Z" uid="4467" user="Rosscoe" changeset="4913657">
    <nd ref="763658302"/>
    <nd ref="763658308"/>
    <nd ref="763658311"/>
    <tag k="highway" v="residential"/>
    <tag k="name" v="MacMillan Boulevarde"/>
    <tag k="oneway" v="yes"/>
  </way>
  <way id="61240597" version="2" timestamp="2010-07-09T08:06:14Z" uid="74617" user="JohnSmith" changeset="5171412">
    <nd ref="763658302"/>
    <nd ref="763658308"/>
    <nd ref="763658311"/>
    <tag k="highway" v="residential"/>
    <tag k="maxspeed" v="50"/>
    <tag k="maxspeed:source" v="default residential speed limit in Australia"/>
    <tag k="name" v="MacMillan Boulevarde"/>
    <tag k="oneway" v="yes"/>
  </way>
  <way id="61240597" version="3" timestamp="2010-11-16T07:40:22Z" uid="96046" user="colin_090" changeset="6383038">
    <nd ref="763658302"/>
    <nd ref="763658308"/>
    <nd ref="763658311"/>
    <tag k="highway" v="residential"/>
    <tag k="maxspeed" v="50"/>
    <tag k="maxspeed:source" v="default residential speed limit in Australia"/>
    <tag k="name" v="Macmillan Boulevard"/>
    <tag k="oneway" v="yes"/>
  </way>
  <way id="61240598" version="1" timestamp="2010-06-06T00:40:29Z" uid="4467" user="Rosscoe" changeset="4913657">
    <nd ref="762092956"/>
    <nd ref="762092958"/>
    <nd ref="762092961"/>
    <tag k="highway" v="residential"/>
    <tag k="name" v="Gateway Boulevarde"/>
    <tag k="oneway" v="yes"/>
  </way>
  <way id="61240598" version="2" timestamp="2010-07-09T07:55:25Z" uid="74617" user="JohnSmith" changeset="5171412">
    <nd ref="762092956"/>
    <nd ref="762092958"/>
    <nd ref="762092961"/>
    <tag k="highway" v="residential"/>
    <tag k="maxspeed" v="50"/>
    <tag k="maxspeed:source" v="default residential speed limit in Australia"/>
    <tag k="name" v="Gateway Boulevarde"/>
    <tag k="oneway" v="yes"/>
  </way>
  <way id="61240599" version="1" timestamp="2010-06-06T00:40:30Z" uid="4467" user="Rosscoe" changeset="4913657">
    <nd ref="762092972"/>
    <nd ref="762092979"/>
    <nd ref="762092981"/>
    <tag k="highway" v="residential"/>
    <tag k="oneway" v="yes"/>
  </way>
  <way id="61240599" version="2" timestamp="2010-07-09T07:58:52Z" uid="74617" user="JohnSmith" changeset="5171412">
    <nd ref="762092972"/>
    <nd ref="762092979"/>
    <nd ref="762092981"/>
    <tag k="highway" v="residential"/>
    <tag k="maxspeed" v="50"/>
    <tag k="maxspeed:source" v="default residential speed limit in Australia"/>
    <tag k="oneway" v="yes"/>
  </way>
  <way id="61240599" version="3" timestamp="2010-10-16T16:38:09Z" uid="346429" user="Bluey" changeset="6059272">
    <nd ref="762092972"/>
    <nd ref="951793536"/>
    <nd ref="762092979"/>
    <nd ref="762092981"/>
    <tag k="highway" v="residential"/>
    <tag k="maxspeed" v="50"/>
    <tag k="maxspeed:source" v="default residential speed limit in Australia"/>
    <tag k="oneway" v="yes"/>
  </way>
  <way id="61240599" version="4" timestamp="2010-10-16T16:59:18Z" uid="346429" user="Bluey" changeset="6059485">
    <nd ref="762092972"/>
    <nd ref="951793536"/>
    <nd ref="762092979"/>
    <nd ref="762092981"/>
    <tag k="highway" v="residential"/>
    <tag k="maxspeed" v="50"/>
    <tag k="maxspeed:source" v="default residential speed limit in Australia"/>
    <tag k="name" v="Hughes Street"/>
    <tag k="oneway" v="yes"/>
  </way>
  <way id="61240600" version="1" timestamp="2010-06-06T00:40:32Z" uid="4467" user="Rosscoe" changeset="4913657">
    <nd ref="605411277"/>
    <nd ref="605411279"/>
    <nd ref="605411280"/>
    <nd ref="762092976"/>
    <nd ref="762092981"/>
    <nd ref="765382510"/>
    <nd ref="762890784"/>
    <nd ref="762890797"/>
    <nd ref="762890786"/>
    <nd ref="605411283"/>
    <nd ref="32950770"/>
    <nd ref="765382505"/>
    <nd ref="32950771"/>
    <nd ref="32950772"/>
    <tag k="highway" v="trunk"/>
    <tag k="name" v="Nicholson Road"/>
    <tag k="oneway" v="yes"/>
    <tag k="ref" v="S31"/>
    <tag k="source" v="nearmap"/>
  </way>
  <way id="61240600" version="2" timestamp="2010-10-16T16:37:39Z" uid="346429" user="Bluey" changeset="6059272">
    <nd ref="605411277"/>
    <nd ref="605411279"/>
    <nd ref="605411280"/>
    <nd ref="762092976"/>
    <nd ref="762092981"/>
    <nd ref="765382510"/>
    <nd ref="762890784"/>
    <nd ref="762890797"/>
    <nd ref="762890786"/>
    <nd ref="605411283"/>
    <nd ref="32950770"/>
    <nd ref="765382505"/>
    <nd ref="32950771"/>
    <nd ref="951792984"/>
    <nd ref="32950772"/>
    <tag k="highway" v="trunk"/>
    <tag k="name" v="Nicholson Road"/>
    <tag k="oneway" v="yes"/>
    <tag k="ref" v="S31"/>
    <tag k="source" v="nearmap"/>
  </way>
  <way id="61240713" version="2" timestamp="2010-07-07T08:32:37Z" uid="74617" user="JohnSmith" changeset="5156250">
    <nd ref="269300869"/>
    <nd ref="269300890"/>
    <nd ref="269300881"/>
    <nd ref="269300882"/>
    <nd ref="269300884"/>
    <nd ref="269300886"/>
    <nd ref="269300887"/>
    <nd ref="269300888"/>
    <nd ref="269300889"/>
    <nd ref="269300890"/>
    <tag k="highway" v="residential"/>
    <tag k="maxspeed" v="50"/>
    <tag k="maxspeed:source" v="default residential speed limit in Australia"/>
    <tag k="name" v="Tompsitt Court"/>
  </way>
  <way id="61240713" version="3" timestamp="2012-01-20T09:26:31Z" uid="147510" user="woodpeck_fixbot" changeset="10443754">
    <nd ref="269300869"/>
    <nd ref="269300890"/>
    <nd ref="269300881"/>
    <nd ref="269300882"/>
    <nd ref="269300884"/>
    <nd ref="269300886"/>
    <nd ref="269300887"/>
    <nd ref="269300888"/>
    <nd ref="269300889"/>
    <nd ref="269300890"/>
    <tag k="highway" v="residential"/>
    <tag k="name" v="Tompsitt Court"/>
  </way>
  <way id="61240727" version="1" timestamp="2010-06-06T01:02:48Z" uid="4467" user="Rosscoe" changeset="4913696">
    <nd ref="765383605"/>
    <nd ref="765383656"/>
    <nd ref="765383663"/>
    <nd ref="765383677"/>
    <tag k="highway" v="secondary"/>
    <tag k="name" v="Yale Road"/>
    <tag k="oneway" v="yes"/>
    <tag k="source" v="nearmap"/>
  </way>
  <way id="61240728" version="1" timestamp="2010-06-06T01:02:50Z" uid="4467" user="Rosscoe" changeset="4913696">
    <nd ref="765383603"/>
    <nd ref="765383619"/>
    <nd ref="765383600"/>
    <tag k="highway" v="secondary"/>
    <tag k="name" v="Yale Road"/>
    <tag k="oneway" v="yes"/>
    <tag k="source" v="nearmap"/>
  </way>
  <way id="61240729" version="1" timestamp="2010-06-06T01:02:52Z" uid="4467" user="Rosscoe" changeset="4913696">
    <nd ref="765383600"/>
    <nd ref="765383598"/>
    <nd ref="765383649"/>
    <nd ref="765383607"/>
    <tag k="cycleway" v="lane"/>
    <tag k="highway" v="secondary"/>
    <tag k="name" v="Yale Road"/>
    <tag k="oneway" v="yes"/>
    <tag k="source" v="nearmap"/>
  </way>
  <way id="61240730" version="1" timestamp="2010-06-06T01:02:54Z" uid="4467" user="Rosscoe" changeset="4913696">
    <nd ref="765383677"/>
    <nd ref="765383614"/>
    <nd ref="765383601"/>
    <nd ref="765383603"/>
    <tag k="cycleway" v="lane"/>
    <tag k="highway" v="secondary"/>
    <tag k="name" v="Yale Road"/>
    <tag k="oneway" v="yes"/>
    <tag k="source" v="nearmap"/>
  </way>
  <way id="61240182" version="5" timestamp="2012-07-19T15:51:02Z" uid="722137" user="OSMF Redaction Account" changeset="12336551">
    <nd ref="1428538789"/>
    <nd ref="1428538797"/>
    <nd ref="1428538754"/>
    <nd ref="1428538812"/>
    <nd ref="1428538761"/>
    <nd ref="1428538728"/>
    <nd ref="1428538787"/>
    <nd ref="134859849"/>
  </way>
  <way id="61240182" version="6" timestamp="2012-08-03T14:36:34Z" uid="57380" user="JennyH" changeset="12598996">
    <nd ref="759263956"/>
    <nd ref="765379827"/>
    <nd ref="759263937"/>
    <nd ref="759264041"/>
    <nd ref="759264046"/>
    <nd ref="759264048"/>
    <nd ref="759264052"/>
    <nd ref="759264054"/>
    <nd ref="759264056"/>
    <nd ref="1428538789"/>
    <nd ref="1428538797"/>
    <nd ref="1428538754"/>
    <nd ref="1428538812"/>
    <nd ref="1428538761"/>
    <nd ref="1428538728"/>
    <nd ref="1428538787"/>
    <nd ref="134859849"/>
    <tag k="highway" v="trunk"/>
    <tag k="oneway" v="yes"/>
  </way>
  <way id="61240182" version="7" timestamp="2012-08-19T10:22:39Z" uid="346429" user="Bluey" changeset="12781682">
    <nd ref="759263956"/>
    <nd ref="765379827"/>
    <nd ref="759263937"/>
    <nd ref="759264041"/>
    <nd ref="1872474603"/>
    <nd ref="759264046"/>
    <nd ref="759264048"/>
    <nd ref="759264052"/>
    <nd ref="759264054"/>
    <nd ref="759264056"/>
    <nd ref="1428538789"/>
    <nd ref="1428538797"/>
    <nd ref="759264024"/>
    <nd ref="1428538812"/>
    <nd ref="1428538761"/>
    <nd ref="1428538728"/>
    <nd ref="1428538787"/>
    <nd ref="134859849"/>
    <tag k="highway" v="trunk"/>
    <tag k="name" v="Nicholson Road"/>
    <tag k="oneway" v="yes"/>
  </way>
  <way id="61240182" version="8" timestamp="2012-08-26T19:08:54Z" uid="418724" user="wintersportler" changeset="12870660">
    <nd ref="759263956"/>
    <nd ref="765379827"/>
    <nd ref="759263937"/>
    <nd ref="759264041"/>
    <nd ref="1872474603"/>
    <nd ref="759264046"/>
    <nd ref="759264048"/>
    <nd ref="759264052"/>
    <nd ref="759264054"/>
    <nd ref="759264056"/>
    <nd ref="1428538789"/>
    <nd ref="1428538797"/>
    <nd ref="759264024"/>
    <nd ref="1428538812"/>
    <nd ref="1428538761"/>
    <nd ref="1428538728"/>
    <nd ref="1428538787"/>
    <nd ref="1884296526"/>
    <nd ref="1884296532"/>
    <tag k="highway" v="trunk"/>
    <tag k="name" v="Nicholson Road"/>
    <tag k="oneway" v="yes"/>
  </way>
  <way id="61240183" version="4" timestamp="2012-07-19T15:53:45Z" uid="722137" user="OSMF Redaction Account" changeset="12336786"/>
  <way id="61240184" version="2" timestamp="2012-07-19T15:53:43Z" uid="722137" user="OSMF Redaction Account" changeset="12336786"/>
  <way id="61240185" version="2" timestamp="2012-07-19T15:53:43Z" uid="722137" user="OSMF Redaction Account" changeset="12336786"/>
  <way id="61240186" version="3" timestamp="2012-07-19T15:53:43Z" uid="722137" user="OSMF Redaction Account" changeset="12336786"/>
  <way id="61240187" version="4" timestamp="2012-07-19T15:53:40Z" uid="722137" user="OSMF Redaction Account" changeset="12336786"/>
  <way id="61240452" version="3" timestamp="2012-06-28T23:39:54Z" uid="7523" user="inas" changeset="12052022"/>
  <way id="61240453" version="3" timestamp="2012-07-11T21:14:04Z" uid="713671" user="auspod" changeset="12190465">
    <nd ref="765381501"/>
    <nd ref="1822130560"/>
    <nd ref="1822130413"/>
    <tag k="highway" v="service"/>
    <tag k="name" v="Brighton Road"/>
    <tag k="source" v="nearmap"/>
  </way>
  <way id="61240453" version="4" timestamp="2012-07-20T00:56:13Z" uid="722137" user="OSMF Redaction Account" changeset="12353633">
    <nd ref="1822130560"/>
    <nd ref="1822130413"/>
  </way>
  <way id="61240453" version="5" timestamp="2012-07-30T19:15:30Z" uid="18675" user="JeLuF" changeset="12552389">
    <nd ref="1844400703"/>
    <nd ref="1822130560"/>
    <nd ref="1822130413"/>
    <tag k="highway" v="residential"/>
    <tag k="source" v="Bing"/>
  </way>
  <way id="61240454" version="3" timestamp="2012-07-11T21:14:05Z" uid="713671" user="auspod" changeset="12190465">
    <nd ref="1822130770"/>
    <nd ref="1822130304"/>
    <nd ref="765381500"/>
    <nd ref="765381499"/>
    <nd ref="765381498"/>
    <nd ref="1822130560"/>
    <tag k="fixme:sign:broken" v="2011-03-13"/>
    <tag k="highway" v="service"/>
    <tag k="oneway" v="yes"/>
    <tag k="source" v="nearmap"/>
  </way>
  <way id="61240454" version="4" timestamp="2012-07-20T00:56:14Z" uid="722137" user="OSMF Redaction Account" changeset="12353633">
    <nd ref="1822130770"/>
    <nd ref="1822130304"/>
    <nd ref="1822130560"/>
  </way>
  <way id="61240454" version="5" timestamp="2012-07-24T08:02:56Z" uid="462898" user="Alexander Wilms" changeset="12461455">
    <nd ref="1822130770"/>
    <nd ref="1822130304"/>
    <nd ref="1822130560"/>
    <tag k="highway" v="residential"/>
  </way>
  <way id="61240455" version="2" timestamp="2012-06-24T00:32:38Z" uid="7523" user="inas" changeset="11994784"/>
  <way id="61240456" version="3" timestamp="2012-07-04T06:00:09Z" uid="717576" user="samuelrussell" changeset="12106609">
    <nd ref="765381492"/>
    <nd ref="246712738"/>
    <nd ref="199991559"/>
    <nd ref="765381493"/>
    <nd ref="246712742"/>
    <tag k="highway" v="residential"/>
    <tag k="lcn" v="-7"/>
    <tag k="maxspeed" v="50"/>
    <tag k="name" v="Carr Street"/>
    <tag k="restriction" v="school_zone"/>
    <tag k="source" v="survey"/>
    <tag k="source:maxspeed" v="state_limit"/>
  </way>
  <way id="61240456" version="4" timestamp="2012-07-11T21:14:05Z" uid="713671" user="auspod" changeset="12190465">
    <nd ref="1822130358"/>
    <nd ref="1822130203"/>
    <nd ref="1822130794"/>
    <nd ref="765381493"/>
    <nd ref="1822130151"/>
    <tag k="highway" v="residential"/>
    <tag k="lcn" v="-7"/>
    <tag k="maxspeed" v="50"/>
    <tag k="name" v="Carr Street"/>
    <tag k="restriction" v="school_zone"/>
    <tag k="source" v="survey"/>
    <tag k="source:maxspeed" v="state_limit"/>
  </way>
  <way id="61240456" version="5" timestamp="2012-07-20T00:58:01Z" uid="722137" user="OSMF Redaction Account" changeset="12353764">
    <nd ref="1822130358"/>
    <nd ref="1822130203"/>
    <nd ref="1822130794"/>
    <nd ref="1822130151"/>
    <tag k="lcn" v="-7"/>
  </way>
  <way id="61240456" version="6" timestamp="2012-07-25T19:19:17Z" uid="18675" user="JeLuF" changeset="12490639">
    <nd ref="1822130358"/>
    <nd ref="1822130203"/>
    <nd ref="1822130794"/>
    <nd ref="1822130151"/>
    <tag k="highway" v="residential"/>
    <tag k="lcn" v="-7"/>
    <tag k="source" v="Bing"/>
  </way>
  <way id="61240596" version="3" timestamp="2012-07-19T15:53:59Z" uid="722137" user="OSMF Redaction Account" changeset="12336786"/>
  <way id="61240597" version="4" timestamp="2012-07-19T15:54:05Z" uid="722137" user="OSMF Redaction Account" changeset="12336843"/>
  <way id="61240598" version="3" timestamp="2012-07-19T15:54:04Z" uid="722137" user="OSMF Redaction Account" changeset="12336843"/>
  <way id="61240599" version="5" timestamp="2012-07-19T15:54:04Z" uid="722137" user="OSMF Redaction Account" changeset="12336843"/>
  <way id="61240600" version="3" timestamp="2012-07-19T15:54:01Z" uid="722137" user="OSMF Redaction Account" changeset="12336786"/>
  <way id="61240727" version="2" timestamp="2012-07-19T15:31:14Z" uid="722137" user="OSMF Redaction Account" changeset="12335004"/>
  <way id="61240728" version="2" timestamp="2012-07-19T15:31:13Z" uid="722137" user="OSMF Redaction Account" changeset="12335004"/>
  <way id="61240729" version="2" timestamp="2012-07-19T15:31:13Z" uid="722137" user="OSMF Redaction Account" changeset="12335004"/>
  <way id="61240730" version="2" timestamp="2012-07-19T15:31:14Z" uid="722137" user="OSMF Redaction Account" changeset="12335004"/>
</osm>
