<?xml version='1.0' encoding='UTF-8'?>
<osm version="0.6" generator="libosmium/2.20.0">
  <way id="61479018" version="4" timestamp="2010-12-24T15:44:49Z" uid="9581" user="Lobelt" changeset="6755515">
    <nd ref="468765"/>
    <nd ref="12226402"/>
    <nd ref="12226403"/>
    <nd ref="468912"/>
    <nd ref="593031"/>
    <tag k="highway" v="motorway"/>
    <tag k="int_ref" v="E 35"/>
    <tag k="lanes" v="2"/>
    <tag k="maxspeed" v="no"/>
    <tag k="oneway" v="yes"/>
    <tag k="ref" v="A 5"/>
  </way>
  <way id="61479018" version="5" timestamp="2011-01-30T22:36:22Z" uid="370437" user="bjoernchr74" changeset="7140650">
    <nd ref="468765"/>
    <nd ref="12226402"/>
    <nd ref="12226403"/>
    <nd ref="468912"/>
    <nd ref="593031"/>
    <tag k="highway" v="motorway"/>
    <tag k="int_ref" v="E 35"/>
    <tag k="lanes" v="2"/>
    <tag k="maxspeed" v="none"/>
    <tag k="oneway" v="yes"/>
    <tag k="ref" v="A 5"/>
  </way>
  <way id="61479018" version="6" timestamp="2011-08-21T08:54:37Z" uid="30077" user="ChristianW" changeset="9081783">
    <nd ref="468765"/>
    <nd ref="12226402"/>
    <nd ref="12226403"/>
    <nd ref="468912"/>
    <nd ref="593031"/>
    <tag k="highway" v="motorway"/>
    <tag k="int_ref" v="E 35"/>
    <tag k="lanes" v="2"/>
    <tag k="lit" v="no"/>
    <tag k="maxspeed" v="none"/>
    <tag k="oneway" v="yes"/>
    <tag k="ref" v="A 5"/>
    <tag k="source:lit" v="http://www.autobahn-bilder.de"/>
  </way>
  <way id="61479018" version="7" timestamp="2011-10-16T10:19:08Z" uid="165061" user="keinname" changeset="9570740">
    <nd ref="468765"/>
    <nd ref="12226402"/>
    <nd ref="12226403"/>
    <nd ref="468912"/>
    <nd ref="593031"/>
    <tag k="highway" v="motorway"/>
    <tag k="int_ref" v="E 35"/>
    <tag k="lanes" v="2"/>
    <tag k="lit" v="no"/>
    <tag k="maxspeed" v="none"/>
    <tag k="oneway" v="yes"/>
    <tag k="ref" v="A 5"/>
    <tag k="source:lit" v="http://www.autobahn-bilder.de"/>
    <tag k="source:maxspeed" v="DE:motorway"/>
    <tag k="zone:traffic" v="DE:rural"/>
  </way>
  <way id="61479018" version="8" timestamp="2012-01-02T17:33:41Z" uid="136321" user="Teddy73" changeset="10271967"/>
  <way id="61479019" version="2" timestamp="2010-07-12T15:47:49Z" uid="6269" user="Mueck" changeset="5200097">
    <nd ref="150609399"/>
    <nd ref="150609390"/>
    <nd ref="150609393"/>
    <tag k="highway" v="primary"/>
    <tag k="lanes" v="2"/>
    <tag k="note" v="B 39 abgestuft zu L 723"/>
    <tag k="old_ref" v="B 39"/>
    <tag k="oneway" v="yes"/>
    <tag k="ref" v="L 723"/>
  </way>
  <way id="61479019" version="3" timestamp="2010-08-24T20:37:40Z" uid="183436" user="mtb" changeset="5583885">
    <nd ref="150609399"/>
    <nd ref="150609390"/>
    <nd ref="150609393"/>
    <tag k="highway" v="primary"/>
    <tag k="lanes" v="2"/>
    <tag k="maxspeed" v="70"/>
    <tag k="note" v="B 39 abgestuft zu L 723"/>
    <tag k="old_ref" v="B 39"/>
    <tag k="oneway" v="yes"/>
    <tag k="ref" v="L 723"/>
  </way>
  <way id="61479019" version="4" timestamp="2010-12-31T17:27:18Z" uid="370437" user="bjoernchr74" changeset="6821760">
    <nd ref="150609399"/>
    <nd ref="150609390"/>
    <nd ref="150609393"/>
    <tag k="highway" v="primary"/>
    <tag k="lanes" v="2"/>
    <tag k="maxspeed" v="70"/>
    <tag k="note" v="B 39 abgestuft zu L 723"/>
    <tag k="old_ref" v="B 39"/>
    <tag k="oneway" v="yes"/>
    <tag k="ref" v="L 723"/>
    <tag k="source:maxspeed" v="sign"/>
  </way>
  <way id="61479019" version="5" timestamp="2011-01-11T20:58:24Z" uid="370437" user="bjoernchr74" changeset="6941420">
    <nd ref="150609399"/>
    <nd ref="1098540812"/>
    <nd ref="150609390"/>
    <tag k="highway" v="primary"/>
    <tag k="lanes" v="2"/>
    <tag k="maxspeed" v="70"/>
    <tag k="note" v="B 39 abgestuft zu L 723"/>
    <tag k="old_ref" v="B 39"/>
    <tag k="oneway" v="yes"/>
    <tag k="ref" v="L 723"/>
    <tag k="source:maxspeed" v="sign"/>
  </way>
  <way id="61479019" version="6" timestamp="2012-01-02T21:00:21Z" uid="136321" user="Teddy73" changeset="10275967"/>
  <way id="61479025" version="2" timestamp="2011-03-31T15:00:55Z" uid="6269" user="Mueck" changeset="7726429">
    <nd ref="383977274"/>
    <nd ref="25973978"/>
    <tag k="highway" v="trunk"/>
    <tag k="maxspeed" v="100"/>
    <tag k="motorroad" v="yes"/>
    <tag k="oneway" v="yes"/>
    <tag k="ref" v="B 10"/>
  </way>
  <way id="61479025" version="3" timestamp="2011-10-07T17:40:19Z" uid="4499" user="Jochen Topf" changeset="9496070">
    <nd ref="383977274"/>
    <nd ref="25973978"/>
    <tag k="highway" v="trunk"/>
    <tag k="maxspeed" v="100"/>
    <tag k="motorroad" v="yes"/>
    <tag k="oneway" v="yes"/>
    <tag k="ref" v="B 10"/>
    <tag k="tmc" v="DE:56113-56112"/>
  </way>
  <way id="61479025" version="4" timestamp="2011-10-13T15:03:17Z" uid="4499" user="Jochen Topf" changeset="9547928">
    <nd ref="383977274"/>
    <nd ref="25973978"/>
    <tag k="highway" v="trunk"/>
    <tag k="maxspeed" v="100"/>
    <tag k="motorroad" v="yes"/>
    <tag k="oneway" v="yes"/>
    <tag k="ref" v="B 10"/>
  </way>
  <way id="61479036" version="2" timestamp="2011-03-20T17:51:44Z" uid="6269" user="Mueck" changeset="7619399">
    <nd ref="25973877"/>
    <nd ref="1210827970"/>
    <nd ref="1210827967"/>
    <nd ref="452514"/>
    <nd ref="452515"/>
    <nd ref="452516"/>
    <nd ref="452517"/>
    <nd ref="25973880"/>
    <tag k="highway" v="motorway"/>
    <tag k="int_ref" v="E 35"/>
    <tag k="oneway" v="yes"/>
    <tag k="ref" v="A 5"/>
  </way>
  <way id="61479036" version="3" timestamp="2011-08-21T08:55:22Z" uid="30077" user="ChristianW" changeset="9081783">
    <nd ref="25973877"/>
    <nd ref="1210827970"/>
    <nd ref="1210827967"/>
    <nd ref="452514"/>
    <nd ref="452515"/>
    <nd ref="452516"/>
    <nd ref="452517"/>
    <nd ref="25973880"/>
    <tag k="highway" v="motorway"/>
    <tag k="int_ref" v="E 35"/>
    <tag k="lit" v="no"/>
    <tag k="oneway" v="yes"/>
    <tag k="ref" v="A 5"/>
    <tag k="source:lit" v="http://www.autobahn-bilder.de"/>
  </way>
  <way id="61479036" version="4" timestamp="2011-10-08T08:35:53Z" uid="4499" user="Jochen Topf" changeset="9500168">
    <nd ref="25973877"/>
    <nd ref="1210827970"/>
    <nd ref="1210827967"/>
    <nd ref="452514"/>
    <nd ref="452515"/>
    <nd ref="452516"/>
    <nd ref="452517"/>
    <nd ref="25973880"/>
    <tag k="highway" v="motorway"/>
    <tag k="int_ref" v="E 35"/>
    <tag k="lit" v="no"/>
    <tag k="oneway" v="yes"/>
    <tag k="ref" v="A 5"/>
    <tag k="source:lit" v="http://www.autobahn-bilder.de"/>
    <tag k="tmc" v="DE:54975-11595"/>
  </way>
  <way id="61479036" version="5" timestamp="2011-10-13T15:03:16Z" uid="4499" user="Jochen Topf" changeset="9547928">
    <nd ref="25973877"/>
    <nd ref="1210827970"/>
    <nd ref="1210827967"/>
    <nd ref="452514"/>
    <nd ref="452515"/>
    <nd ref="452516"/>
    <nd ref="452517"/>
    <nd ref="25973880"/>
    <tag k="highway" v="motorway"/>
    <tag k="int_ref" v="E 35"/>
    <tag k="lit" v="no"/>
    <tag k="oneway" v="yes"/>
    <tag k="ref" v="A 5"/>
    <tag k="source:lit" v="http://www.autobahn-bilder.de"/>
    <tag k="tmc" v="DE:54975+4393"/>
  </way>
  <way id="61479036" version="6" timestamp="2011-10-20T13:36:59Z" uid="165061" user="keinname" changeset="9608135">
    <nd ref="25973877"/>
    <nd ref="1210827970"/>
    <nd ref="1210827967"/>
    <nd ref="452514"/>
    <nd ref="452515"/>
    <nd ref="1474182536"/>
    <nd ref="452516"/>
    <nd ref="1474182486"/>
    <nd ref="452517"/>
    <nd ref="1474182349"/>
    <nd ref="25973880"/>
    <tag k="highway" v="motorway"/>
    <tag k="int_ref" v="E 35"/>
    <tag k="lit" v="no"/>
    <tag k="oneway" v="yes"/>
    <tag k="ref" v="A 5"/>
    <tag k="source:lit" v="http://www.autobahn-bilder.de"/>
    <tag k="tmc" v="DE:54975+4393"/>
  </way>
  <way id="61479036" version="7" timestamp="2012-01-13T21:41:10Z" uid="165061" user="keinname" changeset="10382389">
    <nd ref="25973877"/>
    <nd ref="1210827970"/>
    <nd ref="1210827967"/>
    <nd ref="452514"/>
    <nd ref="452515"/>
    <nd ref="1474182536"/>
    <nd ref="452516"/>
    <nd ref="1474182486"/>
    <nd ref="452517"/>
    <nd ref="1474182349"/>
    <nd ref="25973880"/>
    <tag k="highway" v="motorway"/>
    <tag k="int_ref" v="E 35"/>
    <tag k="lanes" v="3"/>
    <tag k="lit" v="no"/>
    <tag k="oneway" v="yes"/>
    <tag k="ref" v="A 5"/>
    <tag k="source:lit" v="http://www.autobahn-bilder.de"/>
    <tag k="tmc" v="DE:54975+4393"/>
  </way>
  <way id="61479036" version="8" timestamp="2012-01-13T23:13:16Z" uid="136321" user="Teddy73" changeset="10383244"/>
  <way id="61479040" version="2" timestamp="2011-03-20T17:51:44Z" uid="6269" user="Mueck" changeset="7619399">
    <nd ref="25973878"/>
    <nd ref="456926"/>
    <nd ref="456927"/>
    <nd ref="27247956"/>
    <nd ref="456928"/>
    <nd ref="1210827954"/>
    <nd ref="456929"/>
    <nd ref="1210827661"/>
    <nd ref="1210827898"/>
    <nd ref="456930"/>
    <tag k="highway" v="motorway"/>
    <tag k="int_ref" v="E 35"/>
    <tag k="oneway" v="yes"/>
    <tag k="ref" v="A 5"/>
  </way>
  <way id="61479040" version="3" timestamp="2011-08-21T08:49:07Z" uid="30077" user="ChristianW" changeset="9081783">
    <nd ref="25973878"/>
    <nd ref="456926"/>
    <nd ref="456927"/>
    <nd ref="27247956"/>
    <nd ref="456928"/>
    <nd ref="1210827954"/>
    <nd ref="456929"/>
    <nd ref="1210827661"/>
    <nd ref="1210827898"/>
    <nd ref="456930"/>
    <tag k="highway" v="motorway"/>
    <tag k="int_ref" v="E 35"/>
    <tag k="lit" v="no"/>
    <tag k="oneway" v="yes"/>
    <tag k="ref" v="A 5"/>
    <tag k="source:lit" v="http://www.autobahn-bilder.de"/>
  </way>
  <way id="61479040" version="4" timestamp="2011-10-08T08:35:51Z" uid="4499" user="Jochen Topf" changeset="9500168">
    <nd ref="25973878"/>
    <nd ref="456926"/>
    <nd ref="456927"/>
    <nd ref="27247956"/>
    <nd ref="456928"/>
    <nd ref="1210827954"/>
    <nd ref="456929"/>
    <nd ref="1210827661"/>
    <nd ref="1210827898"/>
    <nd ref="456930"/>
    <tag k="highway" v="motorway"/>
    <tag k="int_ref" v="E 35"/>
    <tag k="lit" v="no"/>
    <tag k="oneway" v="yes"/>
    <tag k="ref" v="A 5"/>
    <tag k="source:lit" v="http://www.autobahn-bilder.de"/>
    <tag k="tmc" v="DE:54975+4393"/>
  </way>
  <way id="61479040" version="5" timestamp="2011-10-13T15:03:08Z" uid="4499" user="Jochen Topf" changeset="9547928">
    <nd ref="25973878"/>
    <nd ref="456926"/>
    <nd ref="456927"/>
    <nd ref="27247956"/>
    <nd ref="456928"/>
    <nd ref="1210827954"/>
    <nd ref="456929"/>
    <nd ref="1210827661"/>
    <nd ref="1210827898"/>
    <nd ref="456930"/>
    <tag k="highway" v="motorway"/>
    <tag k="int_ref" v="E 35"/>
    <tag k="lit" v="no"/>
    <tag k="oneway" v="yes"/>
    <tag k="ref" v="A 5"/>
    <tag k="source:lit" v="http://www.autobahn-bilder.de"/>
    <tag k="tmc" v="DE:4393-54975"/>
  </way>
  <way id="61479040" version="6" timestamp="2011-10-20T13:36:59Z" uid="165061" user="keinname" changeset="9608135">
    <nd ref="25973878"/>
    <nd ref="1474182543"/>
    <nd ref="456926"/>
    <nd ref="456927"/>
    <nd ref="27247956"/>
    <nd ref="456928"/>
    <nd ref="1210827954"/>
    <nd ref="456929"/>
    <nd ref="1210827661"/>
    <nd ref="1210827898"/>
    <nd ref="456930"/>
    <tag k="highway" v="motorway"/>
    <tag k="int_ref" v="E 35"/>
    <tag k="lit" v="no"/>
    <tag k="oneway" v="yes"/>
    <tag k="ref" v="A 5"/>
    <tag k="source:lit" v="http://www.autobahn-bilder.de"/>
    <tag k="tmc" v="DE:4393-54975"/>
  </way>
  <way id="61479040" version="7" timestamp="2012-01-13T21:41:11Z" uid="165061" user="keinname" changeset="10382389">
    <nd ref="25973878"/>
    <nd ref="1474182543"/>
    <nd ref="456926"/>
    <nd ref="456927"/>
    <nd ref="27247956"/>
    <nd ref="456928"/>
    <nd ref="1210827954"/>
    <nd ref="456929"/>
    <nd ref="1210827661"/>
    <nd ref="1210827898"/>
    <nd ref="456930"/>
    <tag k="highway" v="motorway"/>
    <tag k="int_ref" v="E 35"/>
    <tag k="lanes" v="3"/>
    <tag k="lit" v="no"/>
    <tag k="oneway" v="yes"/>
    <tag k="ref" v="A 5"/>
    <tag k="source:lit" v="http://www.autobahn-bilder.de"/>
    <tag k="tmc" v="DE:4393-54975"/>
  </way>
  <way id="61479040" version="8" timestamp="2012-01-14T22:34:10Z" uid="165061" user="keinname" changeset="10393264">
    <nd ref="25973878"/>
    <nd ref="1474182543"/>
    <nd ref="456926"/>
    <nd ref="456927"/>
    <nd ref="27247956"/>
    <nd ref="456928"/>
    <nd ref="1210827954"/>
    <nd ref="456929"/>
    <nd ref="1210827661"/>
    <nd ref="1210827898"/>
    <nd ref="456930"/>
    <tag k="highway" v="motorway"/>
    <tag k="int_ref" v="E 35"/>
    <tag k="lanes" v="3"/>
    <tag k="lit" v="no"/>
    <tag k="maxspeed" v="none"/>
    <tag k="oneway" v="yes"/>
    <tag k="ref" v="A 5"/>
    <tag k="source:lit" v="http://www.autobahn-bilder.de"/>
    <tag k="source:maxspeed" v="DE:motorway"/>
    <tag k="tmc" v="DE:4393-54975"/>
  </way>
  <way id="61479049" version="2" timestamp="2011-02-06T01:24:02Z" uid="6269" user="Mueck" changeset="7199360">
    <nd ref="25523846"/>
    <nd ref="1138332298"/>
    <nd ref="482686"/>
    <nd ref="526172"/>
    <tag k="cycleway" v="track"/>
    <tag k="highway" v="trunk"/>
    <tag k="motorroad" v="no"/>
    <tag k="name" v="Durlacher Allee"/>
    <tag k="oneway" v="yes"/>
    <tag k="ref" v="B 10"/>
  </way>
  <way id="61479049" version="3" timestamp="2011-06-22T09:51:55Z" uid="165061" user="keinname" changeset="8512573">
    <nd ref="25523846"/>
    <nd ref="1138332298"/>
    <nd ref="482686"/>
    <nd ref="526172"/>
    <tag k="highway" v="trunk"/>
    <tag k="motorroad" v="no"/>
    <tag k="name" v="Durlacher Allee"/>
    <tag k="oneway" v="yes"/>
    <tag k="ref" v="B 10"/>
  </way>
  <way id="61479049" version="4" timestamp="2011-10-06T14:59:40Z" uid="4499" user="Jochen Topf" changeset="9486264">
    <nd ref="25523846"/>
    <nd ref="1138332298"/>
    <nd ref="482686"/>
    <nd ref="526172"/>
    <tag k="highway" v="trunk"/>
    <tag k="motorroad" v="no"/>
    <tag k="name" v="Durlacher Allee"/>
    <tag k="oneway" v="yes"/>
    <tag k="ref" v="B 10"/>
    <tag k="tmc" v="DE:20287+56114"/>
  </way>
  <way id="61479049" version="5" timestamp="2011-10-13T15:03:32Z" uid="4499" user="Jochen Topf" changeset="9547928">
    <nd ref="25523846"/>
    <nd ref="1138332298"/>
    <nd ref="482686"/>
    <nd ref="526172"/>
    <tag k="highway" v="trunk"/>
    <tag k="motorroad" v="no"/>
    <tag k="name" v="Durlacher Allee"/>
    <tag k="oneway" v="yes"/>
    <tag k="ref" v="B 10"/>
    <tag k="tmc" v="DE:20287-30893"/>
  </way>
  <way id="61479049" version="6" timestamp="2011-10-27T10:52:45Z" uid="442210" user="dwausr" changeset="9667231">
    <nd ref="25523846"/>
    <nd ref="1138332298"/>
    <nd ref="1482203732"/>
    <nd ref="526172"/>
    <tag k="highway" v="trunk"/>
    <tag k="motorroad" v="no"/>
    <tag k="name" v="Durlacher Allee"/>
    <tag k="oneway" v="yes"/>
    <tag k="ref" v="B 10"/>
    <tag k="tmc" v="DE:20287-30893"/>
  </way>
  <way id="61479049" version="7" timestamp="2011-11-01T15:39:27Z" uid="142422" user="BIGTH" changeset="9713596">
    <nd ref="25523846"/>
    <nd ref="1138332298"/>
    <nd ref="1482203732"/>
    <nd ref="526172"/>
    <tag k="highway" v="trunk"/>
    <tag k="maxspeed" v="60"/>
    <tag k="motorroad" v="no"/>
    <tag k="name" v="Durlacher Allee"/>
    <tag k="oneway" v="yes"/>
    <tag k="ref" v="B 10"/>
    <tag k="tmc" v="DE:20287-30893"/>
  </way>
  <way id="61479049" version="8" timestamp="2012-01-13T21:12:44Z" uid="165061" user="keinname" changeset="10382389">
    <nd ref="25523846"/>
    <nd ref="1138332298"/>
    <nd ref="1482203732"/>
    <nd ref="526172"/>
    <tag k="highway" v="trunk"/>
    <tag k="lanes" v="2"/>
    <tag k="maxspeed" v="60"/>
    <tag k="motorroad" v="no"/>
    <tag k="name" v="Durlacher Allee"/>
    <tag k="oneway" v="yes"/>
    <tag k="ref" v="B 10"/>
    <tag k="tmc" v="DE:20287-30893"/>
  </way>
  <way id="61479049" version="9" timestamp="2012-01-13T23:35:32Z" uid="136321" user="Teddy73" changeset="10383244">
    <nd ref="25523846"/>
    <nd ref="1588967506"/>
    <nd ref="1482203732"/>
    <nd ref="526172"/>
    <tag k="highway" v="trunk"/>
    <tag k="lanes" v="2"/>
    <tag k="maxspeed" v="60"/>
    <tag k="motorroad" v="no"/>
    <tag k="name" v="Durlacher Allee"/>
    <tag k="oneway" v="yes"/>
    <tag k="ref" v="B 10"/>
    <tag k="tmc" v="DE:20287-30893"/>
  </way>
  <way id="61479064" version="2" timestamp="2010-07-12T15:50:22Z" uid="6269" user="Mueck" changeset="5200097">
    <nd ref="253028833"/>
    <nd ref="33854795"/>
    <nd ref="36835556"/>
    <tag k="bicycle" v="no"/>
    <tag k="highway" v="primary"/>
    <tag k="note" v="B 39 abgestuft zu L 723"/>
    <tag k="old_ref" v="B 39"/>
    <tag k="ref" v="L 723"/>
  </way>
  <way id="61479064" version="3" timestamp="2010-08-24T20:37:31Z" uid="183436" user="mtb" changeset="5583885">
    <nd ref="253028833"/>
    <nd ref="33854795"/>
    <nd ref="36835556"/>
    <tag k="bicycle" v="no"/>
    <tag k="highway" v="primary"/>
    <tag k="maxspeed" v="70"/>
    <tag k="note" v="B 39 abgestuft zu L 723"/>
    <tag k="old_ref" v="B 39"/>
    <tag k="ref" v="L 723"/>
  </way>
  <way id="61479064" version="4" timestamp="2012-03-24T10:37:12Z" uid="136321" user="Teddy73" changeset="11082666"/>
  <way id="61479065" version="3" timestamp="2010-12-24T15:44:47Z" uid="9581" user="Lobelt" changeset="6755515">
    <nd ref="90636873"/>
    <nd ref="468935"/>
    <nd ref="16809189"/>
    <tag k="highway" v="motorway"/>
    <tag k="int_ref" v="E 35"/>
    <tag k="lanes" v="2"/>
    <tag k="maxspeed" v="no"/>
    <tag k="oneway" v="yes"/>
    <tag k="ref" v="A 5"/>
  </way>
  <way id="61479065" version="4" timestamp="2011-08-21T08:53:13Z" uid="30077" user="ChristianW" changeset="9081783">
    <nd ref="90636873"/>
    <nd ref="468935"/>
    <nd ref="16809189"/>
    <tag k="highway" v="motorway"/>
    <tag k="int_ref" v="E 35"/>
    <tag k="lanes" v="2"/>
    <tag k="lit" v="no"/>
    <tag k="maxspeed" v="no"/>
    <tag k="oneway" v="yes"/>
    <tag k="ref" v="A 5"/>
    <tag k="source:lit" v="http://www.autobahn-bilder.de"/>
  </way>
  <way id="61479065" version="5" timestamp="2011-10-16T10:19:06Z" uid="165061" user="keinname" changeset="9570740">
    <nd ref="90636873"/>
    <nd ref="468935"/>
    <nd ref="16809189"/>
    <tag k="highway" v="motorway"/>
    <tag k="int_ref" v="E 35"/>
    <tag k="lanes" v="2"/>
    <tag k="lit" v="no"/>
    <tag k="maxspeed" v="none"/>
    <tag k="oneway" v="yes"/>
    <tag k="ref" v="A 5"/>
    <tag k="source:lit" v="http://www.autobahn-bilder.de"/>
    <tag k="source:maxspeed" v="DE:motorway"/>
    <tag k="zone:traffic" v="DE:rural"/>
  </way>
  <way id="61479065" version="6" timestamp="2012-01-02T17:33:41Z" uid="136321" user="Teddy73" changeset="10271967"/>
  <way id="61479074" version="2" timestamp="2010-07-12T15:49:55Z" uid="6269" user="Mueck" changeset="5200097">
    <nd ref="34493912"/>
    <nd ref="258051218"/>
    <nd ref="258051226"/>
    <tag k="bicycle" v="no"/>
    <tag k="highway" v="primary"/>
    <tag k="note" v="B 39 abgestuft zu L 723"/>
    <tag k="old_ref" v="B 39"/>
    <tag k="ref" v="L 723"/>
  </way>
  <way id="61479074" version="3" timestamp="2010-08-24T20:37:39Z" uid="183436" user="mtb" changeset="5583885">
    <nd ref="34493912"/>
    <nd ref="258051218"/>
    <nd ref="258051226"/>
    <tag k="bicycle" v="no"/>
    <tag k="highway" v="primary"/>
    <tag k="maxspeed" v="70"/>
    <tag k="note" v="B 39 abgestuft zu L 723"/>
    <tag k="old_ref" v="B 39"/>
    <tag k="ref" v="L 723"/>
  </way>
  <way id="61479074" version="4" timestamp="2012-03-24T10:37:12Z" uid="136321" user="Teddy73" changeset="11082666"/>
  <way id="61479078" version="2" timestamp="2010-07-12T15:46:54Z" uid="6269" user="Mueck" changeset="5200097">
    <nd ref="90636891"/>
    <nd ref="16809199"/>
    <nd ref="273214770"/>
    <nd ref="480703200"/>
    <nd ref="480703198"/>
    <nd ref="705848302"/>
    <nd ref="16809200"/>
    <tag k="highway" v="primary"/>
    <tag k="lanes" v="2"/>
    <tag k="note" v="B 39 abgestuft zu L 723"/>
    <tag k="old_ref" v="B 39"/>
    <tag k="oneway" v="yes"/>
    <tag k="ref" v="L 723"/>
  </way>
  <way id="61479078" version="3" timestamp="2010-08-24T20:37:43Z" uid="183436" user="mtb" changeset="5583885">
    <nd ref="90636891"/>
    <nd ref="16809199"/>
    <nd ref="273214770"/>
    <nd ref="877726013"/>
    <tag k="highway" v="primary"/>
    <tag k="lanes" v="2"/>
    <tag k="note" v="B 39 abgestuft zu L 723"/>
    <tag k="old_ref" v="B 39"/>
    <tag k="oneway" v="yes"/>
    <tag k="ref" v="L 723"/>
  </way>
  <way id="61479078" version="4" timestamp="2011-01-08T11:02:07Z" uid="370437" user="bjoernchr74" changeset="6902122">
    <nd ref="90636891"/>
    <nd ref="1090998651"/>
    <nd ref="16809199"/>
    <nd ref="273214770"/>
    <nd ref="877726013"/>
    <tag k="highway" v="primary"/>
    <tag k="lanes" v="2"/>
    <tag k="note" v="B 39 abgestuft zu L 723"/>
    <tag k="old_ref" v="B 39"/>
    <tag k="oneway" v="yes"/>
    <tag k="ref" v="L 723"/>
  </way>
  <way id="61479078" version="5" timestamp="2012-01-02T21:00:20Z" uid="136321" user="Teddy73" changeset="10275967"/>
  <way id="61479089" version="2" timestamp="2010-07-12T15:48:02Z" uid="6269" user="Mueck" changeset="5200097">
    <nd ref="150609338"/>
    <nd ref="177398216"/>
    <nd ref="16809211"/>
    <nd ref="160215386"/>
    <nd ref="160215417"/>
    <nd ref="177398264"/>
    <nd ref="16809212"/>
    <nd ref="180746425"/>
    <nd ref="16809213"/>
    <nd ref="180746487"/>
    <nd ref="16809214"/>
    <nd ref="256277687"/>
    <nd ref="16809215"/>
    <nd ref="16809217"/>
    <nd ref="16809219"/>
    <nd ref="150729963"/>
    <nd ref="16809220"/>
    <tag k="highway" v="primary"/>
    <tag k="lanes" v="2"/>
    <tag k="note" v="B 39 abgestuft zu L 723"/>
    <tag k="old_ref" v="B 39"/>
    <tag k="oneway" v="yes"/>
    <tag k="ref" v="L 723"/>
  </way>
  <way id="61479089" version="3" timestamp="2010-08-24T20:37:50Z" uid="183436" user="mtb" changeset="5583885">
    <nd ref="150609338"/>
    <nd ref="177398216"/>
    <nd ref="16809211"/>
    <nd ref="160215386"/>
    <nd ref="160215417"/>
    <nd ref="177398264"/>
    <nd ref="16809212"/>
    <nd ref="180746425"/>
    <nd ref="16809213"/>
    <nd ref="180746487"/>
    <nd ref="16809214"/>
    <nd ref="256277687"/>
    <nd ref="16809215"/>
    <nd ref="16809217"/>
    <nd ref="16809219"/>
    <nd ref="150729963"/>
    <nd ref="16809220"/>
    <tag k="highway" v="primary"/>
    <tag k="lanes" v="2"/>
    <tag k="maxspeed" v="70"/>
    <tag k="note" v="B 39 abgestuft zu L 723"/>
    <tag k="old_ref" v="B 39"/>
    <tag k="oneway" v="yes"/>
    <tag k="ref" v="L 723"/>
  </way>
  <way id="61479089" version="4" timestamp="2010-12-31T17:26:40Z" uid="370437" user="bjoernchr74" changeset="6821760">
    <nd ref="150609338"/>
    <nd ref="177398216"/>
    <nd ref="16809211"/>
    <nd ref="160215386"/>
    <nd ref="160215417"/>
    <nd ref="177398264"/>
    <nd ref="16809212"/>
    <nd ref="180746425"/>
    <nd ref="16809213"/>
    <nd ref="180746487"/>
    <nd ref="16809214"/>
    <nd ref="256277687"/>
    <nd ref="16809215"/>
    <nd ref="16809217"/>
    <nd ref="16809219"/>
    <nd ref="150729963"/>
    <nd ref="16809220"/>
    <tag k="highway" v="primary"/>
    <tag k="lanes" v="2"/>
    <tag k="maxspeed" v="70"/>
    <tag k="note" v="B 39 abgestuft zu L 723"/>
    <tag k="old_ref" v="B 39"/>
    <tag k="oneway" v="yes"/>
    <tag k="ref" v="L 723"/>
    <tag k="source:maxspeed" v="sign"/>
  </way>
  <way id="61479089" version="5" timestamp="2011-01-08T11:01:27Z" uid="370437" user="bjoernchr74" changeset="6902122">
    <nd ref="150609338"/>
    <nd ref="177398216"/>
    <tag k="highway" v="primary"/>
    <tag k="lanes" v="2"/>
    <tag k="maxspeed" v="70"/>
    <tag k="note" v="B 39 abgestuft zu L 723"/>
    <tag k="old_ref" v="B 39"/>
    <tag k="oneway" v="yes"/>
    <tag k="ref" v="L 723"/>
    <tag k="source:maxspeed" v="sign"/>
  </way>
  <way id="61479089" version="6" timestamp="2012-01-02T21:00:20Z" uid="136321" user="Teddy73" changeset="10275967"/>
  <way id="61479099" version="2" timestamp="2010-07-12T15:46:48Z" uid="6269" user="Mueck" changeset="5200097">
    <nd ref="255939699"/>
    <nd ref="255939700"/>
    <nd ref="255939701"/>
    <nd ref="30110012"/>
    <tag k="highway" v="primary"/>
    <tag k="lanes" v="2"/>
    <tag k="note" v="B 39 abgestuft zu L 723"/>
    <tag k="old_ref" v="B 39"/>
    <tag k="oneway" v="yes"/>
    <tag k="ref" v="L 723"/>
  </way>
  <way id="61479099" version="3" timestamp="2010-08-24T20:37:41Z" uid="183436" user="mtb" changeset="5583885">
    <nd ref="255939699"/>
    <nd ref="255939700"/>
    <nd ref="255939701"/>
    <nd ref="30110012"/>
    <tag k="highway" v="primary"/>
    <tag k="lanes" v="2"/>
    <tag k="maxspeed" v="70"/>
    <tag k="note" v="B 39 abgestuft zu L 723"/>
    <tag k="old_ref" v="B 39"/>
    <tag k="oneway" v="yes"/>
    <tag k="ref" v="L 723"/>
  </way>
  <way id="61479099" version="4" timestamp="2012-01-02T21:00:20Z" uid="136321" user="Teddy73" changeset="10275967"/>
  <way id="61479218" version="3" timestamp="2011-02-22T15:46:37Z" uid="49111" user="Markus B" changeset="7364531">
    <nd ref="767262112"/>
    <nd ref="767269742"/>
    <nd ref="767262115"/>
    <nd ref="767262117"/>
    <nd ref="767262123"/>
    <nd ref="1166570720"/>
    <nd ref="767262125"/>
    <nd ref="767262127"/>
    <nd ref="767262128"/>
    <nd ref="767262112"/>
    <tag k="highway" v="secondary"/>
    <tag k="junction" v="roundabout"/>
    <tag k="lanes" v="2"/>
    <tag k="oneway" v="yes"/>
  </way>
  <way id="61479891" version="3" timestamp="2011-02-22T15:46:46Z" uid="49111" user="Markus B" changeset="7364531">
    <nd ref="767269652"/>
    <nd ref="767269655"/>
    <nd ref="767269658"/>
    <nd ref="767269661"/>
    <nd ref="767269663"/>
    <nd ref="772934980"/>
    <nd ref="767269669"/>
    <nd ref="1166569488"/>
    <nd ref="767262125"/>
    <tag k="highway" v="secondary"/>
    <tag k="lanes" v="2"/>
    <tag k="name" v="Avenida Sá Carneiro"/>
    <tag k="oneway" v="yes"/>
  </way>
  <way id="61479893" version="8" timestamp="2011-02-22T15:46:43Z" uid="49111" user="Markus B" changeset="7364531">
    <nd ref="767269676"/>
    <nd ref="772646095"/>
    <nd ref="946793531"/>
    <nd ref="767269686"/>
    <nd ref="767269694"/>
    <nd ref="1166570337"/>
    <nd ref="767269687"/>
    <nd ref="946793532"/>
    <nd ref="767269689"/>
    <nd ref="767457086"/>
    <nd ref="1166570190"/>
    <nd ref="946793536"/>
    <nd ref="767269676"/>
    <tag k="highway" v="secondary"/>
    <tag k="junction" v="roundabout"/>
    <tag k="lanes" v="2"/>
    <tag k="oneway" v="yes"/>
  </way>
  <way id="61479895" version="3" timestamp="2011-02-22T15:46:42Z" uid="49111" user="Markus B" changeset="7364531">
    <nd ref="767269694"/>
    <nd ref="767269704"/>
    <nd ref="1068548794"/>
    <nd ref="767269706"/>
    <nd ref="767269709"/>
    <nd ref="1166570799"/>
    <nd ref="767269717"/>
    <nd ref="767269719"/>
    <nd ref="767269729"/>
    <nd ref="767269737"/>
    <nd ref="767269742"/>
    <tag k="highway" v="secondary"/>
    <tag k="lanes" v="2"/>
    <tag k="name" v="Avenida Sá Carneiro"/>
    <tag k="oneway" v="yes"/>
  </way>
  <way id="61479895" version="4" timestamp="2011-03-23T11:52:59Z" uid="300440" user="[C3]Paradox" changeset="7645751">
    <nd ref="767269694"/>
    <nd ref="767269704"/>
    <nd ref="1068548794"/>
    <nd ref="767269706"/>
    <nd ref="767269709"/>
    <nd ref="1214734225"/>
    <tag k="highway" v="secondary"/>
    <tag k="lanes" v="2"/>
    <tag k="name" v="Avenida Sá Carneiro"/>
    <tag k="oneway" v="yes"/>
  </way>
  <way id="61479895" version="5" timestamp="2011-12-24T12:00:08Z" uid="116151" user="cruz" changeset="10193311">
    <nd ref="767269694"/>
    <nd ref="767269704"/>
    <nd ref="1068548794"/>
    <nd ref="767269706"/>
    <nd ref="767269709"/>
    <nd ref="1560513431"/>
    <nd ref="1214734225"/>
    <tag k="highway" v="secondary"/>
    <tag k="lanes" v="2"/>
    <tag k="name" v="Avenida Sá Carneiro"/>
    <tag k="oneway" v="yes"/>
  </way>
  <way id="61479904" version="4" timestamp="2011-02-22T15:46:36Z" uid="49111" user="Markus B" changeset="7364531">
    <nd ref="767262128"/>
    <nd ref="767269866"/>
    <nd ref="767269864"/>
    <nd ref="767269849"/>
    <nd ref="767269824"/>
    <nd ref="1166570651"/>
    <nd ref="1068548768"/>
    <nd ref="767269800"/>
    <nd ref="767269798"/>
    <nd ref="767269781"/>
    <nd ref="767269776"/>
    <nd ref="767269687"/>
    <tag k="highway" v="secondary"/>
    <tag k="lanes" v="2"/>
    <tag k="name" v="Avenida Sá Carneiro"/>
    <tag k="oneway" v="yes"/>
  </way>
  <way id="61479904" version="5" timestamp="2011-03-23T11:52:58Z" uid="300440" user="[C3]Paradox" changeset="7645751">
    <nd ref="767262128"/>
    <nd ref="767269866"/>
    <nd ref="767269864"/>
    <nd ref="767269849"/>
    <nd ref="1214734230"/>
    <tag k="highway" v="secondary"/>
    <tag k="lanes" v="2"/>
    <tag k="name" v="Avenida Sá Carneiro"/>
    <tag k="oneway" v="yes"/>
  </way>
  <way id="61479911" version="2" timestamp="2011-02-22T15:46:39Z" uid="49111" user="Markus B" changeset="7364531">
    <nd ref="767262123"/>
    <nd ref="767269927"/>
    <nd ref="767269930"/>
    <nd ref="767269935"/>
    <nd ref="767269936"/>
    <nd ref="767269938"/>
    <nd ref="767269915"/>
    <tag k="highway" v="secondary"/>
    <tag k="lanes" v="2"/>
    <tag k="name" v="Avenida Sá Carneiro"/>
    <tag k="oneway" v="yes"/>
  </way>
  <way id="61479985" version="1" timestamp="2010-06-08T14:19:07Z" uid="4467" user="Rosscoe" changeset="4937515">
    <nd ref="767271874"/>
    <nd ref="767271877"/>
    <nd ref="767271879"/>
    <nd ref="767271882"/>
    <tag k="highway" v="secondary"/>
    <tag k="name" v="Lakes Road"/>
    <tag k="oneway" v="yes"/>
    <tag k="source" v="nearmap"/>
  </way>
  <way id="61479986" version="1" timestamp="2010-06-08T14:19:21Z" uid="4467" user="Rosscoe" changeset="4937515">
    <nd ref="767271882"/>
    <nd ref="767271867"/>
    <nd ref="191589937"/>
    <nd ref="767271870"/>
    <nd ref="767271874"/>
    <tag k="highway" v="secondary"/>
    <tag k="name" v="Lakes Road"/>
    <tag k="oneway" v="yes"/>
    <tag k="source" v="nearmap"/>
  </way>
  <way id="61479987" version="1" timestamp="2010-06-08T14:19:23Z" uid="4467" user="Rosscoe" changeset="4937515">
    <nd ref="767271874"/>
    <nd ref="760160629"/>
    <tag k="highway" v="secondary"/>
    <tag k="name" v="Lakes Road"/>
    <tag k="source" v="nearmap"/>
  </way>
  <way id="61479040" version="9" timestamp="2012-07-17T12:36:02Z" uid="722137" user="OSMF Redaction Account" changeset="12265237">
    <nd ref="25973878"/>
    <nd ref="1474182543"/>
    <nd ref="456926"/>
    <nd ref="456927"/>
    <nd ref="27247956"/>
    <nd ref="456928"/>
    <nd ref="456929"/>
    <nd ref="456930"/>
    <tag k="highway" v="motorway"/>
    <tag k="int_ref" v="E 35"/>
    <tag k="lanes" v="3"/>
    <tag k="lit" v="no"/>
    <tag k="maxspeed" v="none"/>
    <tag k="oneway" v="yes"/>
    <tag k="ref" v="A 5"/>
    <tag k="source:lit" v="http://www.autobahn-bilder.de"/>
    <tag k="source:maxspeed" v="DE:motorway"/>
    <tag k="tmc" v="DE:4393-54975"/>
  </way>
  <way id="61479049" version="10" timestamp="2012-07-17T18:00:42Z" uid="42208" user="JanTH" changeset="12267174">
    <nd ref="25523846"/>
    <nd ref="1588967506"/>
    <nd ref="1482203732"/>
    <nd ref="526172"/>
    <tag k="highway" v="primary"/>
    <tag k="lanes" v="2"/>
    <tag k="maxspeed" v="60"/>
    <tag k="motorroad" v="no"/>
    <tag k="name" v="Durlacher Allee"/>
    <tag k="oneway" v="yes"/>
    <tag k="ref" v="B 10"/>
    <tag k="tmc" v="DE:20287-30893"/>
  </way>
  <way id="61479985" version="2" timestamp="2012-07-19T18:12:49Z" uid="722137" user="OSMF Redaction Account" changeset="12342841"/>
  <way id="61479986" version="2" timestamp="2012-07-19T18:12:50Z" uid="722137" user="OSMF Redaction Account" changeset="12342841"/>
  <way id="61479987" version="2" timestamp="2012-07-19T18:12:49Z" uid="722137" user="OSMF Redaction Account" changeset="12342841"/>
</osm>
