<?xml version='1.0' encoding='UTF-8'?>
<osm version="0.6" generator="libosmium/2.20.0">
  <way id="61944510" version="3" timestamp="2010-07-11T23:53:51Z" uid="20587" user="balrog-kun" changeset="5195140">
    <nd ref="771980681"/>
    <nd ref="772203491"/>
    <nd ref="772156688"/>
    <nd ref="772184639"/>
    <nd ref="772098480"/>
    <nd ref="772105198"/>
    <nd ref="771993719"/>
    <nd ref="772251719"/>
    <nd ref="772159945"/>
    <nd ref="772107158"/>
    <nd ref="772190391"/>
    <nd ref="772138032"/>
    <nd ref="772148343"/>
    <nd ref="772128512"/>
    <nd ref="772125180"/>
    <nd ref="772025320"/>
    <nd ref="772219052"/>
    <nd ref="772049448"/>
    <nd ref="772198519"/>
    <nd ref="772154913"/>
    <nd ref="772269379"/>
    <nd ref="772211112"/>
    <nd ref="772132279"/>
    <nd ref="771978972"/>
    <nd ref="772224553"/>
    <nd ref="772145918"/>
    <nd ref="772070628"/>
    <nd ref="772247357"/>
    <nd ref="772190830"/>
    <nd ref="772105912"/>
    <nd ref="771992400"/>
    <nd ref="772203754"/>
    <nd ref="772158749"/>
    <tag k="highway" v="primary"/>
    <tag k="local_code" v="0434"/>
    <tag k="maxspeed" v="50"/>
    <tag k="name" v="Passeig d&apos;Olot"/>
    <tag k="name:ca" v="Passeig d&apos;Olot"/>
    <tag k="oneway" v="yes"/>
    <tag k="ref" v="N-141"/>
    <tag k="source" v="Ajuntament de Girona"/>
  </way>
  <way id="61944533" version="4" timestamp="2010-07-11T23:53:58Z" uid="20587" user="balrog-kun" changeset="5195140">
    <nd ref="772225992"/>
    <nd ref="812530480"/>
    <nd ref="772135530"/>
    <nd ref="771991973"/>
    <nd ref="772190234"/>
    <nd ref="772126913"/>
    <nd ref="772284361"/>
    <nd ref="772182872"/>
    <nd ref="772211024"/>
    <nd ref="772209803"/>
    <tag k="bicycle" v="designated"/>
    <tag k="highway" v="residential"/>
    <tag k="local_code" v="0039"/>
    <tag k="maxspeed" v="30"/>
    <tag k="motor_vehicle" v="yes"/>
    <tag k="name" v="Plaça de l&apos;Assumpció"/>
    <tag k="name:ca" v="Plaça de l&apos;Assumpció"/>
    <tag k="oneway" v="yes"/>
    <tag k="source" v="Ajuntament de Girona"/>
  </way>
  <way id="61944533" version="5" timestamp="2010-07-19T20:05:37Z" uid="20587" user="balrog-kun" changeset="5264599">
    <nd ref="772225992"/>
    <nd ref="825068372"/>
    <nd ref="825068442"/>
    <nd ref="825068622"/>
    <nd ref="772135530"/>
    <nd ref="771991973"/>
    <nd ref="825068288"/>
    <nd ref="772284361"/>
    <nd ref="825068546"/>
    <nd ref="772209803"/>
    <tag k="bicycle" v="designated"/>
    <tag k="highway" v="residential"/>
    <tag k="local_code" v="0039"/>
    <tag k="maxspeed" v="30"/>
    <tag k="motor_vehicle" v="yes"/>
    <tag k="name" v="Plaça de l&apos;Assumpció"/>
    <tag k="name:ca" v="Plaça de l&apos;Assumpció"/>
    <tag k="oneway" v="yes"/>
    <tag k="source" v="Ajuntament de Girona"/>
  </way>
  <way id="61944636" version="4" timestamp="2010-07-19T20:05:27Z" uid="20587" user="balrog-kun" changeset="5264599">
    <nd ref="772123222"/>
    <nd ref="772227979"/>
    <nd ref="772155116"/>
    <nd ref="772143510"/>
    <nd ref="772276149"/>
    <nd ref="771996225"/>
    <nd ref="772008395"/>
    <nd ref="772095094"/>
    <nd ref="772228947"/>
    <nd ref="772155930"/>
    <nd ref="772099782"/>
    <nd ref="772267197"/>
    <nd ref="772201108"/>
    <nd ref="772117808"/>
    <nd ref="772049132"/>
    <nd ref="772028855"/>
    <nd ref="772124727"/>
    <nd ref="772038986"/>
    <nd ref="772032277"/>
    <nd ref="772220770"/>
    <nd ref="772173234"/>
    <nd ref="482350926"/>
    <nd ref="771971217"/>
    <nd ref="772187124"/>
    <nd ref="772142429"/>
    <nd ref="771987417"/>
    <nd ref="772237953"/>
    <nd ref="772154495"/>
    <nd ref="368825355"/>
    <nd ref="772264572"/>
    <nd ref="773371332"/>
    <nd ref="773371376"/>
    <nd ref="772199499"/>
    <nd ref="772097721"/>
    <nd ref="771989579"/>
    <nd ref="772098432"/>
    <nd ref="367567689"/>
    <nd ref="772160508"/>
    <nd ref="772027335"/>
    <nd ref="772275036"/>
    <nd ref="367567700"/>
    <nd ref="772190056"/>
    <nd ref="771983813"/>
    <nd ref="772172919"/>
    <nd ref="772179367"/>
    <nd ref="772130836"/>
    <nd ref="772036135"/>
    <nd ref="772167744"/>
    <tag k="highway" v="residential"/>
    <tag k="local_code" v="0260"/>
    <tag k="maxspeed" v="50"/>
    <tag k="name" v="Gran Via de Jaume I"/>
    <tag k="name:ca" v="Gran Via de Jaume I"/>
    <tag k="source" v="Ajuntament de Girona"/>
  </way>
  <way id="61944636" version="5" timestamp="2010-08-17T16:19:51Z" uid="84681" user="SK53" changeset="5519146">
    <nd ref="772123222"/>
    <nd ref="772227979"/>
    <nd ref="772155116"/>
    <nd ref="772143510"/>
    <nd ref="772276149"/>
    <tag k="highway" v="residential"/>
    <tag k="local_code" v="0260"/>
    <tag k="maxspeed" v="50"/>
    <tag k="name" v="Gran Via de Jaume I"/>
    <tag k="name:ca" v="Gran Via de Jaume I"/>
    <tag k="source" v="Ajuntament de Girona"/>
  </way>
  <way id="61944636" version="6" timestamp="2010-11-22T22:28:20Z" uid="45952" user="plexi32" changeset="6435797">
    <nd ref="772123222"/>
    <nd ref="772155116"/>
    <nd ref="772276149"/>
    <tag k="highway" v="residential"/>
    <tag k="local_code" v="0260"/>
    <tag k="maxspeed" v="50"/>
    <tag k="name" v="Gran Via de Jaume I"/>
    <tag k="name:ca" v="Gran Via de Jaume I"/>
    <tag k="source" v="Ajuntament de Girona"/>
  </way>
  <way id="61944678" version="5" timestamp="2010-08-07T13:42:35Z" uid="20587" user="balrog-kun" changeset="5424643">
    <nd ref="772071605"/>
    <nd ref="772241654"/>
    <nd ref="800522106"/>
    <nd ref="772156153"/>
    <nd ref="772100395"/>
    <tag k="highway" v="residential"/>
    <tag k="local_code" v="0166"/>
    <tag k="maxspeed" v="50"/>
    <tag k="name" v="Carrer de la Creu"/>
    <tag k="name:ca" v="Carrer de la Creu"/>
    <tag k="oneway" v="yes"/>
    <tag k="source" v="Ajuntament de Girona"/>
  </way>
  <way id="61944510" version="4" timestamp="2012-05-10T12:32:43Z" uid="100124" user="Xevi" changeset="11558390">
    <nd ref="771980681"/>
    <nd ref="772203491"/>
    <nd ref="772156688"/>
    <nd ref="772184639"/>
    <nd ref="772098480"/>
    <nd ref="772105198"/>
    <nd ref="771993719"/>
    <nd ref="772251719"/>
    <nd ref="772159945"/>
    <nd ref="772107158"/>
    <nd ref="772190391"/>
    <nd ref="772138032"/>
    <nd ref="772148343"/>
    <nd ref="772128512"/>
    <nd ref="772125180"/>
    <nd ref="772025320"/>
    <nd ref="772219052"/>
    <nd ref="772049448"/>
    <nd ref="772198519"/>
    <nd ref="772154913"/>
    <nd ref="772269379"/>
    <nd ref="772211112"/>
    <nd ref="772132279"/>
    <nd ref="771978972"/>
    <nd ref="772224553"/>
    <nd ref="772145918"/>
    <nd ref="772070628"/>
    <nd ref="772247357"/>
    <nd ref="772190830"/>
    <nd ref="772105912"/>
    <nd ref="771992400"/>
    <nd ref="772203754"/>
    <nd ref="772158749"/>
    <tag k="highway" v="secondary"/>
    <tag k="local_code" v="0434"/>
    <tag k="maxspeed" v="50"/>
    <tag k="name" v="Passeig d&apos;Olot"/>
    <tag k="name:ca" v="Passeig d&apos;Olot"/>
    <tag k="oneway" v="yes"/>
    <tag k="ref" v="N-141"/>
    <tag k="source" v="Ajuntament de Girona"/>
  </way>
</osm>
