<?xml version='1.0' encoding='UTF-8'?>
<osm version="0.6" generator="libosmium/2.20.0">
  <way id="6200014" version="6" timestamp="2010-07-08T10:04:12Z" uid="74617" user="JohnSmith" changeset="5164427">
    <nd ref="31287843"/>
    <nd ref="51615820"/>
    <nd ref="51615821"/>
    <nd ref="51615822"/>
    <nd ref="51615823"/>
    <nd ref="51615826"/>
    <nd ref="279222821"/>
    <nd ref="279222822"/>
    <nd ref="279222969"/>
    <tag k="highway" v="residential"/>
    <tag k="maxspeed" v="50"/>
    <tag k="maxspeed:source" v="default residential speed limit in Australia"/>
    <tag k="name" v="Veivers Road"/>
  </way>
  <way id="6200014" version="7" timestamp="2012-01-15T06:16:05Z" uid="147510" user="woodpeck_fixbot" changeset="10394821">
    <nd ref="31287843"/>
    <nd ref="51615820"/>
    <nd ref="51615821"/>
    <nd ref="51615822"/>
    <nd ref="51615823"/>
    <nd ref="51615826"/>
    <nd ref="279222821"/>
    <nd ref="279222822"/>
    <nd ref="279222969"/>
    <tag k="highway" v="residential"/>
    <tag k="name" v="Veivers Road"/>
  </way>
  <way id="6200015" version="2" timestamp="2010-07-08T09:53:28Z" uid="74617" user="JohnSmith" changeset="5164427">
    <nd ref="51615878"/>
    <nd ref="51615822"/>
    <tag k="highway" v="residential"/>
    <tag k="maxspeed" v="50"/>
    <tag k="maxspeed:source" v="default residential speed limit in Australia"/>
  </way>
  <way id="6200015" version="3" timestamp="2011-11-04T10:16:37Z" uid="546591" user="bearwood" changeset="9737203">
    <nd ref="51615878"/>
    <nd ref="51615822"/>
    <tag k="highway" v="residential"/>
    <tag k="maxspeed" v="50"/>
    <tag k="maxspeed:source" v="default residential speed limit in Australia"/>
    <tag k="name" v="Talpa Close"/>
    <tag k="oneway" v="no"/>
  </way>
  <way id="6200015" version="4" timestamp="2012-01-15T06:16:07Z" uid="147510" user="woodpeck_fixbot" changeset="10394821">
    <nd ref="51615878"/>
    <nd ref="51615822"/>
    <tag k="highway" v="residential"/>
    <tag k="name" v="Talpa Close"/>
    <tag k="oneway" v="no"/>
  </way>
  <way id="6200017" version="2" timestamp="2010-07-08T09:53:24Z" uid="74617" user="JohnSmith" changeset="5164427">
    <nd ref="51615821"/>
    <nd ref="51615955"/>
    <tag k="highway" v="residential"/>
    <tag k="maxspeed" v="50"/>
    <tag k="maxspeed:source" v="default residential speed limit in Australia"/>
  </way>
  <way id="6200017" version="3" timestamp="2011-11-04T10:16:37Z" uid="546591" user="bearwood" changeset="9737203">
    <nd ref="51615821"/>
    <nd ref="51615955"/>
    <tag k="highway" v="residential"/>
    <tag k="maxspeed" v="50"/>
    <tag k="maxspeed:source" v="default residential speed limit in Australia"/>
    <tag k="name" v="Bursa Street"/>
    <tag k="oneway" v="no"/>
  </way>
  <way id="6200017" version="4" timestamp="2012-01-15T06:16:08Z" uid="147510" user="woodpeck_fixbot" changeset="10394821">
    <nd ref="51615821"/>
    <nd ref="51615955"/>
    <tag k="highway" v="residential"/>
    <tag k="name" v="Bursa Street"/>
    <tag k="oneway" v="no"/>
  </way>
  <way id="6200022" version="4" timestamp="2008-12-24T07:59:24Z" uid="4467" user="Rosscoe" changeset="581239">
    <nd ref="51616193"/>
    <nd ref="51616194"/>
    <nd ref="51616196"/>
    <nd ref="51616197"/>
    <nd ref="51616198"/>
    <nd ref="51616199"/>
    <tag k="created_by" v="Potlatch 0.9c"/>
    <tag k="highway" v="residential"/>
    <tag k="name" v="Cedar Road"/>
  </way>
  <way id="6200022" version="5" timestamp="2010-07-08T10:01:14Z" uid="74617" user="JohnSmith" changeset="5164427">
    <nd ref="51616193"/>
    <nd ref="51616194"/>
    <nd ref="51616196"/>
    <nd ref="51616197"/>
    <nd ref="51616198"/>
    <nd ref="51616199"/>
    <tag k="highway" v="residential"/>
    <tag k="maxspeed" v="50"/>
    <tag k="maxspeed:source" v="default residential speed limit in Australia"/>
    <tag k="name" v="Cedar Road"/>
  </way>
  <way id="6200022" version="6" timestamp="2012-01-15T06:16:09Z" uid="147510" user="woodpeck_fixbot" changeset="10394821">
    <nd ref="51616193"/>
    <nd ref="51616194"/>
    <nd ref="51616196"/>
    <nd ref="51616197"/>
    <nd ref="51616198"/>
    <nd ref="51616199"/>
    <tag k="highway" v="residential"/>
    <tag k="name" v="Cedar Road"/>
  </way>
  <way id="6200025" version="3" timestamp="2010-07-08T10:00:35Z" uid="74617" user="JohnSmith" changeset="5164427">
    <nd ref="51616194"/>
    <nd ref="51616339"/>
    <nd ref="51616340"/>
    <nd ref="51615955"/>
    <nd ref="51616341"/>
    <tag k="highway" v="residential"/>
    <tag k="maxspeed" v="50"/>
    <tag k="maxspeed:source" v="default residential speed limit in Australia"/>
    <tag k="name" v="Terebra Street"/>
  </way>
  <way id="6200025" version="4" timestamp="2012-01-15T06:16:09Z" uid="147510" user="woodpeck_fixbot" changeset="10394821">
    <nd ref="51616194"/>
    <nd ref="51616339"/>
    <nd ref="51616340"/>
    <nd ref="51615955"/>
    <nd ref="51616341"/>
    <tag k="highway" v="residential"/>
    <tag k="name" v="Terebra Street"/>
  </way>
  <way id="6200026" version="2" timestamp="2010-07-08T09:55:03Z" uid="74617" user="JohnSmith" changeset="5164427">
    <nd ref="51615820"/>
    <nd ref="51616339"/>
    <tag k="highway" v="residential"/>
    <tag k="maxspeed" v="50"/>
    <tag k="maxspeed:source" v="default residential speed limit in Australia"/>
  </way>
  <way id="6200026" version="3" timestamp="2011-11-04T10:16:37Z" uid="546591" user="bearwood" changeset="9737203">
    <nd ref="51615820"/>
    <nd ref="51616339"/>
    <tag k="highway" v="residential"/>
    <tag k="maxspeed" v="50"/>
    <tag k="maxspeed:source" v="default residential speed limit in Australia"/>
    <tag k="name" v="Cowrie Street"/>
    <tag k="oneway" v="no"/>
  </way>
  <way id="6200026" version="4" timestamp="2012-01-15T06:16:11Z" uid="147510" user="woodpeck_fixbot" changeset="10394821">
    <nd ref="51615820"/>
    <nd ref="51616339"/>
    <tag k="highway" v="residential"/>
    <tag k="name" v="Cowrie Street"/>
    <tag k="oneway" v="no"/>
  </way>
  <way id="6200030" version="2" timestamp="2010-07-08T10:07:03Z" uid="74617" user="JohnSmith" changeset="5164427">
    <nd ref="51616340"/>
    <nd ref="51616544"/>
    <nd ref="51616546"/>
    <nd ref="51616548"/>
    <nd ref="51616549"/>
    <tag k="highway" v="residential"/>
    <tag k="maxspeed" v="50"/>
    <tag k="maxspeed:source" v="default residential speed limit in Australia"/>
  </way>
  <way id="6200030" version="3" timestamp="2011-11-04T10:16:37Z" uid="546591" user="bearwood" changeset="9737203">
    <nd ref="51616340"/>
    <nd ref="51616544"/>
    <nd ref="51616546"/>
    <nd ref="51616548"/>
    <nd ref="51616549"/>
    <tag k="highway" v="residential"/>
    <tag k="maxspeed" v="50"/>
    <tag k="maxspeed:source" v="default residential speed limit in Australia"/>
    <tag k="name" v="Thalis Street"/>
    <tag k="oneway" v="no"/>
  </way>
  <way id="6200030" version="4" timestamp="2012-01-15T06:16:12Z" uid="147510" user="woodpeck_fixbot" changeset="10394821">
    <nd ref="51616340"/>
    <nd ref="51616544"/>
    <nd ref="51616546"/>
    <nd ref="51616548"/>
    <nd ref="51616549"/>
    <tag k="highway" v="residential"/>
    <tag k="name" v="Thalis Street"/>
    <tag k="oneway" v="no"/>
  </way>
  <way id="6200042" version="2" timestamp="2010-07-08T09:59:44Z" uid="74617" user="JohnSmith" changeset="5164427">
    <nd ref="51616197"/>
    <nd ref="51616549"/>
    <nd ref="51616661"/>
    <nd ref="51616662"/>
    <nd ref="51616664"/>
    <tag k="highway" v="residential"/>
    <tag k="maxspeed" v="50"/>
    <tag k="maxspeed:source" v="default residential speed limit in Australia"/>
  </way>
  <way id="6200042" version="3" timestamp="2011-11-04T10:16:37Z" uid="546591" user="bearwood" changeset="9737203">
    <nd ref="51616197"/>
    <nd ref="51616549"/>
    <nd ref="51616661"/>
    <nd ref="51616662"/>
    <nd ref="51616664"/>
    <tag k="highway" v="residential"/>
    <tag k="maxspeed" v="50"/>
    <tag k="maxspeed:source" v="default residential speed limit in Australia"/>
    <tag k="name" v="Trivia Street"/>
    <tag k="oneway" v="no"/>
  </way>
  <way id="6200042" version="4" timestamp="2012-01-15T06:16:13Z" uid="147510" user="woodpeck_fixbot" changeset="10394821">
    <nd ref="51616197"/>
    <nd ref="51616549"/>
    <nd ref="51616661"/>
    <nd ref="51616662"/>
    <nd ref="51616664"/>
    <tag k="highway" v="residential"/>
    <tag k="name" v="Trivia Street"/>
    <tag k="oneway" v="no"/>
  </way>
  <way id="6200047" version="2" timestamp="2010-07-08T10:01:51Z" uid="74617" user="JohnSmith" changeset="5164427">
    <nd ref="51616544"/>
    <nd ref="51616664"/>
    <nd ref="51616750"/>
    <tag k="highway" v="residential"/>
    <tag k="maxspeed" v="50"/>
    <tag k="maxspeed:source" v="default residential speed limit in Australia"/>
  </way>
  <way id="6200047" version="3" timestamp="2011-11-04T10:16:36Z" uid="546591" user="bearwood" changeset="9737203">
    <nd ref="51616544"/>
    <nd ref="51616664"/>
    <nd ref="51616750"/>
    <tag k="highway" v="residential"/>
    <tag k="maxspeed" v="50"/>
    <tag k="maxspeed:source" v="default residential speed limit in Australia"/>
    <tag k="name" v="Lambus Street"/>
    <tag k="oneway" v="no"/>
  </way>
  <way id="6200047" version="4" timestamp="2012-01-15T06:16:14Z" uid="147510" user="woodpeck_fixbot" changeset="10394821">
    <nd ref="51616544"/>
    <nd ref="51616664"/>
    <nd ref="51616750"/>
    <tag k="highway" v="residential"/>
    <tag k="name" v="Lambus Street"/>
    <tag k="oneway" v="no"/>
  </way>
  <way id="6200049" version="3" timestamp="2008-12-24T07:59:21Z" uid="4467" user="Rosscoe" changeset="581239">
    <nd ref="31287844"/>
    <nd ref="51616887"/>
    <nd ref="51616890"/>
    <nd ref="51616196"/>
    <tag k="created_by" v="Potlatch 0.9c"/>
    <tag k="highway" v="residential"/>
    <tag k="key" v="Warren Street"/>
  </way>
  <way id="6200049" version="4" timestamp="2009-06-10T21:22:25Z" uid="1164" user="dmgroom" changeset="1482067">
    <nd ref="31287844"/>
    <nd ref="51616887"/>
    <nd ref="51616890"/>
    <nd ref="51616196"/>
    <tag k="created_by" v="Potlatch 0.9c"/>
    <tag k="highway" v="residential"/>
    <tag k="name" v="Warren Street"/>
  </way>
  <way id="6200049" version="5" timestamp="2010-07-08T10:01:44Z" uid="74617" user="JohnSmith" changeset="5164427">
    <nd ref="31287844"/>
    <nd ref="51616887"/>
    <nd ref="51616890"/>
    <nd ref="51616196"/>
    <tag k="highway" v="residential"/>
    <tag k="maxspeed" v="50"/>
    <tag k="maxspeed:source" v="default residential speed limit in Australia"/>
    <tag k="name" v="Warren Street"/>
  </way>
  <way id="6200049" version="6" timestamp="2012-01-15T06:16:15Z" uid="147510" user="woodpeck_fixbot" changeset="10394821">
    <nd ref="31287844"/>
    <nd ref="51616887"/>
    <nd ref="51616890"/>
    <nd ref="51616196"/>
    <tag k="highway" v="residential"/>
    <tag k="name" v="Warren Street"/>
  </way>
  <way id="6200052" version="3" timestamp="2008-12-24T07:59:22Z" uid="4467" user="Rosscoe" changeset="581239">
    <nd ref="51617015"/>
    <nd ref="51617016"/>
    <nd ref="51617018"/>
    <nd ref="51616341"/>
    <nd ref="51615823"/>
    <tag k="created_by" v="Potlatch 0.9c"/>
    <tag k="highway" v="residential"/>
    <tag k="name" v="Olive Street"/>
  </way>
  <way id="6200052" version="4" timestamp="2010-07-08T10:06:08Z" uid="74617" user="JohnSmith" changeset="5164427">
    <nd ref="51617015"/>
    <nd ref="51617016"/>
    <nd ref="51617018"/>
    <nd ref="51616341"/>
    <nd ref="51615823"/>
    <tag k="highway" v="residential"/>
    <tag k="maxspeed" v="50"/>
    <tag k="maxspeed:source" v="default residential speed limit in Australia"/>
    <tag k="name" v="Olive Street"/>
  </way>
  <way id="6200052" version="5" timestamp="2012-01-15T06:16:17Z" uid="147510" user="woodpeck_fixbot" changeset="10394821">
    <nd ref="51617015"/>
    <nd ref="51617016"/>
    <nd ref="51617018"/>
    <nd ref="51616341"/>
    <nd ref="51615823"/>
    <tag k="highway" v="residential"/>
    <tag k="name" v="Olive Street"/>
  </way>
  <way id="6200059" version="2" timestamp="2008-12-24T07:59:23Z" uid="4467" user="Rosscoe" changeset="581239">
    <nd ref="51617016"/>
    <nd ref="51617131"/>
    <nd ref="51617134"/>
    <tag k="created_by" v="Potlatch alpha"/>
    <tag k="highway" v="residential"/>
  </way>
  <way id="6200059" version="3" timestamp="2009-06-10T21:22:02Z" uid="1164" user="dmgroom" changeset="1482062">
    <nd ref="51617016"/>
    <nd ref="51617131"/>
    <nd ref="279222972"/>
    <tag k="created_by" v="Potlatch alpha"/>
    <tag k="highway" v="residential"/>
  </way>
  <way id="6200059" version="4" timestamp="2010-07-08T09:53:20Z" uid="74617" user="JohnSmith" changeset="5164427">
    <nd ref="51617016"/>
    <nd ref="51617131"/>
    <nd ref="279222972"/>
    <tag k="highway" v="residential"/>
    <tag k="maxspeed" v="50"/>
    <tag k="maxspeed:source" v="default residential speed limit in Australia"/>
  </way>
  <way id="6200059" version="5" timestamp="2011-11-04T10:09:59Z" uid="546591" user="bearwood" changeset="9737203">
    <nd ref="51617016"/>
    <nd ref="51617131"/>
    <nd ref="279222972"/>
    <tag k="highway" v="residential"/>
    <tag k="maxspeed" v="50"/>
    <tag k="maxspeed:source" v="default residential speed limit in Australia"/>
    <tag k="name" v="Harper Street"/>
    <tag k="oneway" v="no"/>
  </way>
  <way id="6200059" version="6" timestamp="2012-01-15T06:16:18Z" uid="147510" user="woodpeck_fixbot" changeset="10394821">
    <nd ref="51617016"/>
    <nd ref="51617131"/>
    <nd ref="279222972"/>
    <tag k="highway" v="residential"/>
    <tag k="name" v="Harper Street"/>
    <tag k="oneway" v="no"/>
  </way>
  <way id="6200060" version="2" timestamp="2008-12-24T07:59:24Z" uid="4467" user="Rosscoe" changeset="581239">
    <nd ref="51617219"/>
    <nd ref="51617131"/>
    <nd ref="51617220"/>
    <tag k="created_by" v="Potlatch alpha"/>
    <tag k="highway" v="residential"/>
  </way>
  <way id="6200060" version="3" timestamp="2010-07-08T09:54:53Z" uid="74617" user="JohnSmith" changeset="5164427">
    <nd ref="51617219"/>
    <nd ref="51617131"/>
    <nd ref="51617220"/>
    <tag k="highway" v="residential"/>
    <tag k="maxspeed" v="50"/>
    <tag k="maxspeed:source" v="default residential speed limit in Australia"/>
  </way>
  <way id="6200060" version="4" timestamp="2011-11-04T10:16:36Z" uid="546591" user="bearwood" changeset="9737203">
    <nd ref="51617219"/>
    <nd ref="51617131"/>
    <nd ref="51617220"/>
    <tag k="highway" v="residential"/>
    <tag k="maxspeed" v="50"/>
    <tag k="maxspeed:source" v="default residential speed limit in Australia"/>
    <tag k="name" v="Amphora Street"/>
    <tag k="oneway" v="no"/>
  </way>
  <way id="6200060" version="5" timestamp="2012-01-15T06:16:19Z" uid="147510" user="woodpeck_fixbot" changeset="10394821">
    <nd ref="51617219"/>
    <nd ref="51617131"/>
    <nd ref="51617220"/>
    <tag k="highway" v="residential"/>
    <tag k="name" v="Amphora Street"/>
    <tag k="oneway" v="no"/>
  </way>
  <way id="6200022" version="7" timestamp="2012-07-19T15:56:03Z" uid="722137" user="OSMF Redaction Account" changeset="12337026">
    <nd ref="51616193"/>
    <nd ref="51616194"/>
    <nd ref="51616196"/>
    <nd ref="51616197"/>
    <nd ref="51616198"/>
    <nd ref="51616199"/>
    <tag k="highway" v="unclassified"/>
    <tag k="name" v="Cedar Road"/>
  </way>
  <way id="6200049" version="7" timestamp="2012-07-19T15:56:03Z" uid="722137" user="OSMF Redaction Account" changeset="12337026">
    <nd ref="31287844"/>
    <nd ref="51616887"/>
    <nd ref="51616890"/>
    <nd ref="51616196"/>
    <tag k="highway" v="unclassified"/>
    <tag k="name" v="Warren Street"/>
  </way>
  <way id="6200052" version="6" timestamp="2012-07-19T15:56:03Z" uid="722137" user="OSMF Redaction Account" changeset="12337026">
    <nd ref="51617015"/>
    <nd ref="51617016"/>
    <nd ref="51617018"/>
    <nd ref="51616341"/>
    <nd ref="51615823"/>
    <tag k="highway" v="unclassified"/>
    <tag k="name" v="Olive Street"/>
  </way>
  <way id="6200059" version="7" timestamp="2012-07-19T15:56:03Z" uid="722137" user="OSMF Redaction Account" changeset="12337026">
    <nd ref="51617016"/>
    <nd ref="51617131"/>
    <nd ref="279222972"/>
    <tag k="highway" v="unclassified"/>
    <tag k="name" v="Harper Street"/>
    <tag k="oneway" v="no"/>
  </way>
  <way id="6200060" version="6" timestamp="2012-07-19T15:56:02Z" uid="722137" user="OSMF Redaction Account" changeset="12337026">
    <nd ref="51617219"/>
    <nd ref="51617131"/>
    <nd ref="51617220"/>
    <tag k="highway" v="unclassified"/>
    <tag k="name" v="Amphora Street"/>
    <tag k="oneway" v="no"/>
  </way>
</osm>
