<?xml version='1.0' encoding='UTF-8'?>
<osm version="0.6" generator="libosmium/2.20.0">
  <way id="62022133" version="2" timestamp="2010-07-09T04:06:11Z" uid="74617" user="JohnSmith" changeset="5170825">
    <nd ref="773160680"/>
    <nd ref="773160704"/>
    <nd ref="773160623"/>
    <nd ref="773160628"/>
    <nd ref="773160648"/>
    <nd ref="773160674"/>
    <nd ref="773160699"/>
    <tag k="highway" v="residential"/>
    <tag k="maxspeed" v="50"/>
    <tag k="maxspeed:source" v="default residential speed limit in Australia"/>
    <tag k="name" v="Meadow Place"/>
  </way>
  <way id="62022133" version="3" timestamp="2012-01-20T10:11:38Z" uid="147510" user="woodpeck_fixbot" changeset="10443754">
    <nd ref="773160680"/>
    <nd ref="773160704"/>
    <nd ref="773160623"/>
    <nd ref="773160628"/>
    <nd ref="773160648"/>
    <nd ref="773160674"/>
    <nd ref="773160699"/>
    <tag k="highway" v="residential"/>
    <tag k="name" v="Meadow Place"/>
  </way>
  <way id="62022134" version="2" timestamp="2010-07-09T04:02:41Z" uid="74617" user="JohnSmith" changeset="5170825">
    <nd ref="773160663"/>
    <nd ref="773160666"/>
    <nd ref="773160692"/>
    <tag k="highway" v="residential"/>
    <tag k="maxspeed" v="50"/>
    <tag k="maxspeed:source" v="default residential speed limit in Australia"/>
    <tag k="name" v="Barnacle Mews"/>
  </way>
  <way id="62022134" version="3" timestamp="2012-01-20T10:11:41Z" uid="147510" user="woodpeck_fixbot" changeset="10443754">
    <nd ref="773160663"/>
    <nd ref="773160666"/>
    <nd ref="773160692"/>
    <tag k="highway" v="residential"/>
    <tag k="name" v="Barnacle Mews"/>
  </way>
  <way id="62022135" version="2" timestamp="2010-07-09T03:58:16Z" uid="74617" user="JohnSmith" changeset="5170825">
    <nd ref="773160618"/>
    <nd ref="773160640"/>
    <nd ref="773160659"/>
    <tag k="highway" v="residential"/>
    <tag k="maxspeed" v="50"/>
    <tag k="maxspeed:source" v="default residential speed limit in Australia"/>
    <tag k="name" v="Stanley Place"/>
  </way>
  <way id="62022135" version="3" timestamp="2012-01-20T10:11:42Z" uid="147510" user="woodpeck_fixbot" changeset="10443754">
    <nd ref="773160618"/>
    <nd ref="773160640"/>
    <nd ref="773160659"/>
    <tag k="highway" v="residential"/>
    <tag k="name" v="Stanley Place"/>
  </way>
  <way id="62022136" version="2" timestamp="2010-07-09T04:02:10Z" uid="74617" user="JohnSmith" changeset="5170825">
    <nd ref="773160630"/>
    <nd ref="773160669"/>
    <nd ref="773160695"/>
    <tag k="highway" v="residential"/>
    <tag k="maxspeed" v="50"/>
    <tag k="maxspeed:source" v="default residential speed limit in Australia"/>
    <tag k="name" v="Kenman Close"/>
  </way>
  <way id="62022136" version="3" timestamp="2012-01-20T10:11:44Z" uid="147510" user="woodpeck_fixbot" changeset="10443754">
    <nd ref="773160630"/>
    <nd ref="773160669"/>
    <nd ref="773160695"/>
    <tag k="highway" v="residential"/>
    <tag k="name" v="Kenman Close"/>
  </way>
  <way id="62022137" version="2" timestamp="2010-07-09T04:14:34Z" uid="74617" user="JohnSmith" changeset="5170825">
    <nd ref="773160650"/>
    <nd ref="773160676"/>
    <nd ref="773160701"/>
    <nd ref="773160703"/>
    <tag k="highway" v="residential"/>
    <tag k="maxspeed" v="50"/>
    <tag k="maxspeed:source" v="default residential speed limit in Australia"/>
    <tag k="name" v="Milner Close"/>
  </way>
  <way id="62022137" version="3" timestamp="2012-01-20T10:11:45Z" uid="147510" user="woodpeck_fixbot" changeset="10443754">
    <nd ref="773160650"/>
    <nd ref="773160676"/>
    <nd ref="773160701"/>
    <nd ref="773160703"/>
    <tag k="highway" v="residential"/>
    <tag k="name" v="Milner Close"/>
  </way>
  <way id="62022138" version="2" timestamp="2010-07-09T04:11:24Z" uid="74617" user="JohnSmith" changeset="5170825">
    <nd ref="773160677"/>
    <nd ref="773160702"/>
    <nd ref="773160620"/>
    <nd ref="773160650"/>
    <nd ref="773160682"/>
    <nd ref="773160705"/>
    <nd ref="773160624"/>
    <nd ref="773160645"/>
    <nd ref="773160619"/>
    <tag k="highway" v="residential"/>
    <tag k="maxspeed" v="50"/>
    <tag k="maxspeed:source" v="default residential speed limit in Australia"/>
    <tag k="name" v="Merna Drive"/>
  </way>
  <way id="62022138" version="3" timestamp="2012-01-20T10:11:47Z" uid="147510" user="woodpeck_fixbot" changeset="10443754">
    <nd ref="773160677"/>
    <nd ref="773160702"/>
    <nd ref="773160620"/>
    <nd ref="773160650"/>
    <nd ref="773160682"/>
    <nd ref="773160705"/>
    <nd ref="773160624"/>
    <nd ref="773160645"/>
    <nd ref="773160619"/>
    <tag k="highway" v="residential"/>
    <tag k="name" v="Merna Drive"/>
  </way>
  <way id="62022139" version="2" timestamp="2010-07-09T04:08:03Z" uid="74617" user="JohnSmith" changeset="5170825">
    <nd ref="773160629"/>
    <nd ref="773160668"/>
    <nd ref="773160678"/>
    <tag k="highway" v="residential"/>
    <tag k="maxspeed" v="50"/>
    <tag k="maxspeed:source" v="default residential speed limit in Australia"/>
    <tag k="name" v="Lucieer Court"/>
  </way>
  <way id="62022139" version="3" timestamp="2012-01-20T10:11:48Z" uid="147510" user="woodpeck_fixbot" changeset="10443754">
    <nd ref="773160629"/>
    <nd ref="773160668"/>
    <nd ref="773160678"/>
    <tag k="highway" v="residential"/>
    <tag k="name" v="Lucieer Court"/>
  </way>
  <way id="62022140" version="2" timestamp="2010-07-09T04:04:30Z" uid="74617" user="JohnSmith" changeset="5170825">
    <nd ref="773160634"/>
    <nd ref="773160653"/>
    <nd ref="773160681"/>
    <nd ref="773160641"/>
    <nd ref="773160660"/>
    <nd ref="773160656"/>
    <nd ref="773160688"/>
    <nd ref="773160612"/>
    <nd ref="773160649"/>
    <nd ref="773160675"/>
    <nd ref="773160700"/>
    <nd ref="773160619"/>
    <nd ref="773160621"/>
    <nd ref="773160643"/>
    <nd ref="773160651"/>
    <nd ref="773160662"/>
    <nd ref="773160690"/>
    <nd ref="773160632"/>
    <tag k="highway" v="residential"/>
    <tag k="maxspeed" v="50"/>
    <tag k="maxspeed:source" v="default residential speed limit in Australia"/>
    <tag k="name" v="Chivers Road"/>
  </way>
  <way id="62022140" version="3" timestamp="2011-10-14T07:24:34Z" uid="69319" user="Rhubarb" changeset="9553181"/>
  <way id="62022141" version="2" timestamp="2010-07-09T04:01:18Z" uid="74617" user="JohnSmith" changeset="5170825">
    <nd ref="773160651"/>
    <nd ref="773160679"/>
    <nd ref="773160684"/>
    <nd ref="773160608"/>
    <nd ref="773160626"/>
    <tag k="highway" v="residential"/>
    <tag k="maxspeed" v="50"/>
    <tag k="maxspeed:source" v="default residential speed limit in Australia"/>
    <tag k="name" v="Miriam Court"/>
  </way>
  <way id="62022141" version="3" timestamp="2012-01-20T10:11:49Z" uid="147510" user="woodpeck_fixbot" changeset="10443754">
    <nd ref="773160651"/>
    <nd ref="773160679"/>
    <nd ref="773160684"/>
    <nd ref="773160608"/>
    <nd ref="773160626"/>
    <tag k="highway" v="residential"/>
    <tag k="name" v="Miriam Court"/>
  </way>
  <way id="62022142" version="2" timestamp="2010-07-09T04:13:45Z" uid="74617" user="JohnSmith" changeset="5170825">
    <nd ref="773160657"/>
    <nd ref="773160652"/>
    <nd ref="773160633"/>
    <nd ref="773160695"/>
    <nd ref="773160615"/>
    <nd ref="773160637"/>
    <nd ref="773160642"/>
    <nd ref="773160661"/>
    <nd ref="773160689"/>
    <tag k="highway" v="residential"/>
    <tag k="maxspeed" v="50"/>
    <tag k="maxspeed:source" v="default residential speed limit in Australia"/>
    <tag k="name" v="Kenman Close"/>
  </way>
  <way id="62022142" version="3" timestamp="2012-01-20T10:11:50Z" uid="147510" user="woodpeck_fixbot" changeset="10443754">
    <nd ref="773160657"/>
    <nd ref="773160652"/>
    <nd ref="773160633"/>
    <nd ref="773160695"/>
    <nd ref="773160615"/>
    <nd ref="773160637"/>
    <nd ref="773160642"/>
    <nd ref="773160661"/>
    <nd ref="773160689"/>
    <tag k="highway" v="residential"/>
    <tag k="name" v="Kenman Close"/>
  </way>
  <way id="62022143" version="2" timestamp="2010-07-09T04:10:36Z" uid="74617" user="JohnSmith" changeset="5170825">
    <nd ref="320401753"/>
    <nd ref="320401779"/>
    <nd ref="320401767"/>
    <nd ref="320401768"/>
    <nd ref="320401769"/>
    <nd ref="320401770"/>
    <tag k="highway" v="residential"/>
    <tag k="maxspeed" v="50"/>
    <tag k="maxspeed:source" v="default residential speed limit in Australia"/>
    <tag k="name" v="Stradmore Avenue"/>
  </way>
  <way id="62022143" version="3" timestamp="2012-01-20T10:11:51Z" uid="147510" user="woodpeck_fixbot" changeset="10443754">
    <nd ref="320401753"/>
    <nd ref="320401779"/>
    <nd ref="320401767"/>
    <nd ref="320401768"/>
    <nd ref="320401769"/>
    <nd ref="320401770"/>
    <tag k="highway" v="residential"/>
    <tag k="name" v="Stradmore Avenue"/>
  </way>
  <way id="62022144" version="2" timestamp="2010-07-09T04:10:43Z" uid="74617" user="JohnSmith" changeset="5170825">
    <nd ref="773160656"/>
    <nd ref="773160658"/>
    <nd ref="773160687"/>
    <nd ref="773160611"/>
    <nd ref="773160631"/>
    <nd ref="773160673"/>
    <tag k="highway" v="residential"/>
    <tag k="maxspeed" v="50"/>
    <tag k="maxspeed:source" v="default residential speed limit in Australia"/>
    <tag k="name" v="Princely Terrace"/>
  </way>
  <way id="62022144" version="3" timestamp="2012-01-20T10:11:53Z" uid="147510" user="woodpeck_fixbot" changeset="10443754">
    <nd ref="773160656"/>
    <nd ref="773160658"/>
    <nd ref="773160687"/>
    <nd ref="773160611"/>
    <nd ref="773160631"/>
    <nd ref="773160673"/>
    <tag k="highway" v="residential"/>
    <tag k="name" v="Princely Terrace"/>
  </way>
  <way id="62022145" version="2" timestamp="2010-07-09T04:07:16Z" uid="74617" user="JohnSmith" changeset="5170825">
    <nd ref="773160672"/>
    <nd ref="773160698"/>
    <nd ref="773160617"/>
    <nd ref="773160655"/>
    <nd ref="773160685"/>
    <nd ref="773160609"/>
    <nd ref="773160627"/>
    <tag k="highway" v="residential"/>
    <tag k="maxspeed" v="50"/>
    <tag k="maxspeed:source" v="default residential speed limit in Australia"/>
    <tag k="name" v="Dena Court"/>
  </way>
  <way id="62022145" version="3" timestamp="2012-01-20T10:11:54Z" uid="147510" user="woodpeck_fixbot" changeset="10443754">
    <nd ref="773160672"/>
    <nd ref="773160698"/>
    <nd ref="773160617"/>
    <nd ref="773160655"/>
    <nd ref="773160685"/>
    <nd ref="773160609"/>
    <nd ref="773160627"/>
    <tag k="highway" v="residential"/>
    <tag k="name" v="Dena Court"/>
  </way>
  <way id="62022146" version="2" timestamp="2010-07-09T04:03:43Z" uid="74617" user="JohnSmith" changeset="5170825">
    <nd ref="773160646"/>
    <nd ref="773160670"/>
    <nd ref="773160696"/>
    <nd ref="773160635"/>
    <nd ref="773160654"/>
    <nd ref="773160683"/>
    <nd ref="773160605"/>
    <tag k="highway" v="residential"/>
    <tag k="maxspeed" v="50"/>
    <tag k="maxspeed:source" v="default residential speed limit in Australia"/>
    <tag k="name" v="Wynnewood Court"/>
  </way>
  <way id="62022146" version="3" timestamp="2012-01-20T10:11:56Z" uid="147510" user="woodpeck_fixbot" changeset="10443754">
    <nd ref="773160646"/>
    <nd ref="773160670"/>
    <nd ref="773160696"/>
    <nd ref="773160635"/>
    <nd ref="773160654"/>
    <nd ref="773160683"/>
    <nd ref="773160605"/>
    <tag k="highway" v="residential"/>
    <tag k="name" v="Wynnewood Court"/>
  </way>
  <way id="62022147" version="2" timestamp="2010-07-09T04:00:12Z" uid="74617" user="JohnSmith" changeset="5170825">
    <nd ref="320401353"/>
    <nd ref="320401354"/>
    <nd ref="320401355"/>
    <tag k="highway" v="residential"/>
    <tag k="maxspeed" v="50"/>
    <tag k="maxspeed:source" v="default residential speed limit in Australia"/>
    <tag k="name" v="Carlton Court"/>
  </way>
  <way id="62022147" version="3" timestamp="2012-01-20T10:11:57Z" uid="147510" user="woodpeck_fixbot" changeset="10443754">
    <nd ref="320401353"/>
    <nd ref="320401354"/>
    <nd ref="320401355"/>
    <tag k="highway" v="residential"/>
    <tag k="name" v="Carlton Court"/>
  </way>
  <way id="62022148" version="2" timestamp="2010-07-09T04:12:59Z" uid="74617" user="JohnSmith" changeset="5170825">
    <nd ref="773160607"/>
    <nd ref="773160625"/>
    <nd ref="773160665"/>
    <nd ref="773160691"/>
    <nd ref="773160613"/>
    <nd ref="773160636"/>
    <nd ref="773160639"/>
    <tag k="highway" v="residential"/>
    <tag k="maxspeed" v="50"/>
    <tag k="maxspeed:source" v="default residential speed limit in Australia"/>
    <tag k="name" v="Tiffany Grove"/>
  </way>
  <way id="62022148" version="3" timestamp="2010-11-13T08:41:10Z" uid="211804" user="KenS" changeset="6356464">
    <nd ref="773160607"/>
    <nd ref="773160625"/>
    <nd ref="773160665"/>
    <nd ref="773160691"/>
    <nd ref="987427080"/>
    <nd ref="773160613"/>
    <nd ref="773160636"/>
    <nd ref="773160639"/>
    <tag k="highway" v="residential"/>
    <tag k="maxspeed" v="50"/>
    <tag k="maxspeed:source" v="default residential speed limit in Australia"/>
    <tag k="name" v="Tiffany Grove"/>
  </way>
  <way id="62022148" version="4" timestamp="2012-01-20T10:11:58Z" uid="147510" user="woodpeck_fixbot" changeset="10443754">
    <nd ref="773160607"/>
    <nd ref="773160625"/>
    <nd ref="773160665"/>
    <nd ref="773160691"/>
    <nd ref="987427080"/>
    <nd ref="773160613"/>
    <nd ref="773160636"/>
    <nd ref="773160639"/>
    <tag k="highway" v="residential"/>
    <tag k="name" v="Tiffany Grove"/>
  </way>
  <way id="62022771" version="2" timestamp="2010-09-14T19:13:51Z" uid="9581" user="Lobelt" changeset="5781234">
    <nd ref="332959673"/>
    <nd ref="912368156"/>
    <nd ref="331460748"/>
    <tag k="highway" v="residential"/>
    <tag k="name" v="Fährweg"/>
    <tag k="source" v="survey"/>
  </way>
  <way id="62022772" version="2" timestamp="2010-09-14T19:14:12Z" uid="9581" user="Lobelt" changeset="5781234">
    <nd ref="773165664"/>
    <nd ref="18223774"/>
    <nd ref="18223775"/>
    <nd ref="18223777"/>
    <nd ref="331460771"/>
    <nd ref="18223778"/>
    <nd ref="912368533"/>
    <nd ref="18223780"/>
    <nd ref="18223782"/>
    <nd ref="18223783"/>
    <nd ref="18223785"/>
    <nd ref="18223786"/>
    <nd ref="18223788"/>
    <nd ref="18223789"/>
    <nd ref="912368066"/>
    <nd ref="912368510"/>
    <nd ref="18223791"/>
    <nd ref="18223792"/>
    <nd ref="18223794"/>
    <nd ref="18223796"/>
    <nd ref="370405611"/>
    <tag k="cycleway" v="lane"/>
    <tag k="highway" v="primary"/>
    <tag k="name" v="Hirschhorner Straße"/>
    <tag k="ref" v="B 37; B 45"/>
  </way>
  <way id="62022772" version="3" timestamp="2012-01-24T21:50:57Z" uid="136321" user="Teddy73" changeset="10487995"/>
  <way id="62022986" version="1" timestamp="2010-06-15T18:38:57Z" uid="20587" user="balrog-kun" changeset="4994119">
    <nd ref="773169666"/>
    <nd ref="773170037"/>
    <nd ref="773171666"/>
    <nd ref="773172010"/>
    <nd ref="773168651"/>
    <nd ref="773169019"/>
    <nd ref="773170659"/>
    <nd ref="773171034"/>
    <nd ref="773169666"/>
    <tag k="building" v="service"/>
    <tag k="building:levels" v="1"/>
    <tag k="building:usage:pl" v="Inny niemieszkalny lub podziemny"/>
    <tag k="source" v="gis.um.szczecin.pl"/>
  </way>
  <way id="62022987" version="1" timestamp="2010-06-15T18:38:57Z" uid="20587" user="balrog-kun" changeset="4994119">
    <nd ref="773170615"/>
    <nd ref="773170992"/>
    <nd ref="773172351"/>
    <nd ref="773167981"/>
    <nd ref="773169329"/>
    <nd ref="773169704"/>
    <nd ref="773170615"/>
    <tag k="building" v="manufacture"/>
    <tag k="building:levels" v="1"/>
    <tag k="building:usage:pl" v="Produkcyjny, usługowy lub gospodarczy dla rolnictwa, garaż podziemny"/>
    <tag k="source" v="gis.um.szczecin.pl"/>
  </way>
  <way id="62022988" version="1" timestamp="2010-06-15T18:38:57Z" uid="20587" user="balrog-kun" changeset="4994119">
    <nd ref="773171033"/>
    <nd ref="773171450"/>
    <nd ref="773169978"/>
    <nd ref="773171804"/>
    <nd ref="773169937"/>
    <nd ref="773171033"/>
    <tag k="building" v="service"/>
    <tag k="building:levels" v="1"/>
    <tag k="building:usage:pl" v="Inny niemieszkalny lub podziemny"/>
    <tag k="source" v="gis.um.szczecin.pl"/>
  </way>
  <way id="62022989" version="1" timestamp="2010-06-15T18:38:57Z" uid="20587" user="balrog-kun" changeset="4994119">
    <nd ref="773171177"/>
    <nd ref="773167787"/>
    <nd ref="773168166"/>
    <nd ref="773169531"/>
    <nd ref="773171177"/>
    <tag k="addr:housenumber" v="45"/>
    <tag k="addr:postcode" v="70-784"/>
    <tag k="addr:street" v="Andrzeja Struga"/>
    <tag k="building" v="service"/>
    <tag k="building:levels" v="1"/>
    <tag k="building:usage:pl" v="Inny niemieszkalny lub podziemny"/>
    <tag k="source" v="gis.um.szczecin.pl"/>
  </way>
  <way id="62022990" version="1" timestamp="2010-06-15T18:38:57Z" uid="20587" user="balrog-kun" changeset="4994119">
    <nd ref="773168200"/>
    <nd ref="773168545"/>
    <nd ref="773169917"/>
    <nd ref="773170561"/>
    <nd ref="773171914"/>
    <nd ref="773172288"/>
    <nd ref="773168922"/>
    <nd ref="773169272"/>
    <nd ref="773171322"/>
    <nd ref="773169681"/>
    <nd ref="773168200"/>
    <tag k="addr:housenumber" v="22"/>
    <tag k="addr:postcode" v="70-786"/>
    <tag k="addr:street" v="Krzysztofa Kamila Baczyńskiego"/>
    <tag k="building" v="residential"/>
    <tag k="building:levels" v="2"/>
    <tag k="building:usage:pl" v="Mieszkalny"/>
    <tag k="source" v="gis.um.szczecin.pl"/>
  </way>
  <way id="62022991" version="1" timestamp="2010-06-15T18:38:57Z" uid="20587" user="balrog-kun" changeset="4994119">
    <nd ref="773171619"/>
    <nd ref="773171965"/>
    <nd ref="773168595"/>
    <nd ref="773168973"/>
    <nd ref="773170613"/>
    <nd ref="773170988"/>
    <nd ref="773171619"/>
    <tag k="building" v="retail"/>
    <tag k="building:levels" v="1"/>
    <tag k="building:usage:pl" v="Handlowo-usługowy"/>
    <tag k="landuse" v="retail"/>
    <tag k="source" v="gis.um.szczecin.pl"/>
  </way>
  <way id="62022992" version="1" timestamp="2010-06-15T18:38:57Z" uid="20587" user="balrog-kun" changeset="4994119">
    <nd ref="773168148"/>
    <nd ref="773169515"/>
    <nd ref="773169864"/>
    <nd ref="773171513"/>
    <nd ref="773171860"/>
    <nd ref="773168490"/>
    <nd ref="773168869"/>
    <nd ref="773170466"/>
    <nd ref="773170883"/>
    <nd ref="773172203"/>
    <nd ref="773167848"/>
    <nd ref="773169218"/>
    <nd ref="773169589"/>
    <nd ref="773171233"/>
    <nd ref="773171592"/>
    <nd ref="773170543"/>
    <nd ref="773168225"/>
    <nd ref="773168570"/>
    <nd ref="773169941"/>
    <nd ref="773168148"/>
    <tag k="building" v="storage"/>
    <tag k="building:levels" v="3"/>
    <tag k="building:usage:pl" v="Zbiornik, silos lub budynek magazynowy"/>
    <tag k="source" v="gis.um.szczecin.pl"/>
  </way>
  <way id="62022993" version="1" timestamp="2010-06-15T18:38:58Z" uid="20587" user="balrog-kun" changeset="4994119">
    <nd ref="773169231"/>
    <nd ref="773169602"/>
    <nd ref="773171247"/>
    <nd ref="773171604"/>
    <nd ref="773169231"/>
    <tag k="addr:housenumber" v="106"/>
    <tag k="addr:postcode" v="70-812"/>
    <tag k="addr:street" v="Pomorska"/>
    <tag k="building" v="residential"/>
    <tag k="building:levels" v="2"/>
    <tag k="building:usage:pl" v="Mieszkalny"/>
    <tag k="source" v="gis.um.szczecin.pl"/>
  </way>
  <way id="62022994" version="1" timestamp="2010-06-15T18:38:58Z" uid="20587" user="balrog-kun" changeset="4994119">
    <nd ref="773167930"/>
    <nd ref="773169279"/>
    <nd ref="773169653"/>
    <nd ref="773171295"/>
    <nd ref="773167930"/>
    <tag k="building" v="service"/>
    <tag k="building:levels" v="1"/>
    <tag k="building:usage:pl" v="Inny niemieszkalny lub podziemny"/>
    <tag k="source" v="gis.um.szczecin.pl"/>
  </way>
  <way id="62022995" version="1" timestamp="2010-06-15T18:38:58Z" uid="20587" user="balrog-kun" changeset="4994119">
    <nd ref="773170986"/>
    <nd ref="773172347"/>
    <nd ref="773167975"/>
    <nd ref="773169326"/>
    <nd ref="773169700"/>
    <nd ref="773171341"/>
    <nd ref="773171696"/>
    <nd ref="773168330"/>
    <nd ref="773168704"/>
    <nd ref="773170090"/>
    <nd ref="773170986"/>
    <tag k="building" v="residential"/>
    <tag k="building:levels" v="2"/>
    <tag k="building:usage:pl" v="Mieszkalny"/>
    <tag k="source" v="gis.um.szczecin.pl"/>
  </way>
  <way id="62022996" version="1" timestamp="2010-06-15T18:38:58Z" uid="20587" user="balrog-kun" changeset="4994119">
    <nd ref="773171037"/>
    <nd ref="773171390"/>
    <nd ref="773168024"/>
    <nd ref="773168374"/>
    <nd ref="773169745"/>
    <nd ref="773170206"/>
    <nd ref="773171037"/>
    <tag k="addr:housenumber" v="19"/>
    <tag k="addr:postcode" v="70-786"/>
    <tag k="addr:street" v="Botaniczna"/>
    <tag k="building" v="residential"/>
    <tag k="building:levels" v="2"/>
    <tag k="building:usage:pl" v="Mieszkalny"/>
    <tag k="source" v="gis.um.szczecin.pl"/>
  </way>
  <way id="62022997" version="1" timestamp="2010-06-15T18:38:58Z" uid="20587" user="balrog-kun" changeset="4994119">
    <nd ref="773169979"/>
    <nd ref="773170624"/>
    <nd ref="773171976"/>
    <nd ref="773172361"/>
    <nd ref="773169979"/>
    <tag k="building" v="service"/>
    <tag k="building:levels" v="1"/>
    <tag k="building:usage:pl" v="Inny niemieszkalny lub podziemny"/>
    <tag k="source" v="gis.um.szczecin.pl"/>
  </way>
  <way id="62022998" version="1" timestamp="2010-06-15T18:38:58Z" uid="20587" user="balrog-kun" changeset="4994119">
    <nd ref="773171021"/>
    <nd ref="773171379"/>
    <nd ref="773168011"/>
    <nd ref="773168363"/>
    <nd ref="773171021"/>
    <tag k="building" v="transportation"/>
    <tag k="building:levels" v="1"/>
    <tag k="building:usage:pl" v="Transportu i łączności, garaż naziemny"/>
    <tag k="source" v="gis.um.szczecin.pl"/>
  </way>
  <way id="62022999" version="1" timestamp="2010-06-15T18:38:59Z" uid="20587" user="balrog-kun" changeset="4994119">
    <nd ref="773172164"/>
    <nd ref="773167806"/>
    <nd ref="773169181"/>
    <nd ref="773170660"/>
    <nd ref="773171036"/>
    <nd ref="773169549"/>
    <nd ref="773172164"/>
    <tag k="building" v="manufacture"/>
    <tag k="building:levels" v="1"/>
    <tag k="building:usage:pl" v="Produkcyjny, usługowy lub gospodarczy dla rolnictwa, garaż podziemny"/>
    <tag k="source" v="gis.um.szczecin.pl"/>
  </way>
  <way id="62022139" version="4" timestamp="2012-05-08T03:01:01Z" uid="69319" user="Rhubarb" changeset="11535355">
    <nd ref="1745061295"/>
    <nd ref="1745061293"/>
    <nd ref="773160678"/>
    <tag k="highway" v="residential"/>
    <tag k="name" v="Lucieer Court"/>
  </way>
  <way id="62022771" version="3" timestamp="2012-07-17T04:25:45Z" uid="722137" user="OSMF Redaction Account" changeset="12256804">
    <nd ref="332959673"/>
    <nd ref="331460748"/>
    <tag k="highway" v="residential"/>
    <tag k="name" v="Fährweg"/>
    <tag k="source" v="survey"/>
  </way>
</osm>
