<?xml version='1.0' encoding='UTF-8'?>
<osm version="0.6" generator="libosmium/2.20.0">
  <way id="62087529" version="1" timestamp="2010-06-16T20:19:49Z" uid="49111" user="Markus B" changeset="5003984">
    <nd ref="773980831"/>
    <nd ref="773980830"/>
    <nd ref="773980815"/>
    <nd ref="773980813"/>
    <nd ref="773980831"/>
    <tag k="amenity" v="parking"/>
  </way>
  <way id="62087530" version="1" timestamp="2010-06-16T20:19:49Z" uid="49111" user="Markus B" changeset="5003984">
    <nd ref="773980826"/>
    <nd ref="773980828"/>
    <tag k="highway" v="residential"/>
    <tag k="name" v="Arzbühlstraße"/>
  </way>
  <way id="62087531" version="1" timestamp="2010-06-16T20:19:49Z" uid="49111" user="Markus B" changeset="5003984">
    <nd ref="773980828"/>
    <nd ref="773980829"/>
    <nd ref="773980811"/>
    <tag k="highway" v="service"/>
    <tag k="service" v="parking_aisle"/>
  </way>
  <way id="62087532" version="1" timestamp="2010-06-16T20:19:49Z" uid="49111" user="Markus B" changeset="5003984">
    <nd ref="773980816"/>
    <nd ref="773980820"/>
    <nd ref="773980822"/>
    <nd ref="773980819"/>
    <nd ref="773980816"/>
    <tag k="building" v="yes"/>
    <tag k="tourism" v="motel"/>
  </way>
  <way id="62087532" version="2" timestamp="2011-01-23T12:33:19Z" uid="82877" user="Wankmann" changeset="7060583">
    <nd ref="773980816"/>
    <nd ref="773980820"/>
    <nd ref="773980822"/>
    <nd ref="773980819"/>
    <nd ref="773980816"/>
    <tag k="building" v="yes"/>
    <tag k="tourism" v="motel"/>
  </way>
  <way id="62087532" version="3" timestamp="2011-01-23T20:45:01Z" uid="82877" user="Wankmann" changeset="7067027">
    <nd ref="773980816"/>
    <nd ref="773980820"/>
    <nd ref="773980822"/>
    <nd ref="773980819"/>
    <nd ref="773980816"/>
    <tag k="addr:city" v="Hormersdorf"/>
    <tag k="addr:country" v="DE"/>
    <tag k="addr:housenumber" v="8"/>
    <tag k="addr:postcode" v="91220"/>
    <tag k="addr:street" v="Arzbühlstraße"/>
    <tag k="building" v="yes"/>
    <tag k="tourism" v="motel"/>
  </way>
  <way id="62087533" version="1" timestamp="2010-06-16T20:19:49Z" uid="49111" user="Markus B" changeset="5003984">
    <nd ref="773980833"/>
    <nd ref="773980838"/>
    <nd ref="773980837"/>
    <nd ref="773980840"/>
    <nd ref="773980839"/>
    <nd ref="773980824"/>
    <nd ref="773980835"/>
    <nd ref="773980832"/>
    <nd ref="773980833"/>
    <tag k="addr:city" v="Hormersdorf"/>
    <tag k="addr:country" v="DE"/>
    <tag k="addr:housenumber" v="8"/>
    <tag k="addr:postcode" v="91220"/>
    <tag k="addr:street" v="Arzbühlstraße"/>
    <tag k="building" v="yes"/>
    <tag k="name" v="Zimmermann"/>
    <tag k="phone" v="09152 9296-0"/>
    <tag k="smoking" v="seperated"/>
    <tag k="smoking:outside" v="yes"/>
    <tag k="tourism" v="motel"/>
    <tag k="website" v="http://enzensteiner.de"/>
  </way>
  <way id="62087533" version="2" timestamp="2010-06-25T10:00:05Z" uid="31118" user="Lulu-Ann" changeset="5072352">
    <nd ref="773980833"/>
    <nd ref="773980838"/>
    <nd ref="773980837"/>
    <nd ref="773980840"/>
    <nd ref="773980839"/>
    <nd ref="773980824"/>
    <nd ref="773980835"/>
    <nd ref="773980832"/>
    <nd ref="773980833"/>
    <tag k="addr:city" v="Hormersdorf"/>
    <tag k="addr:country" v="DE"/>
    <tag k="addr:housenumber" v="8"/>
    <tag k="addr:postcode" v="91220"/>
    <tag k="addr:street" v="Arzbühlstraße"/>
    <tag k="building" v="yes"/>
    <tag k="name" v="Zimmermann"/>
    <tag k="phone" v="09152 9296-0"/>
    <tag k="smoking" v="separated"/>
    <tag k="smoking:outside" v="yes"/>
    <tag k="tourism" v="motel"/>
    <tag k="website" v="http://enzensteiner.de"/>
  </way>
  <way id="62087534" version="1" timestamp="2010-06-16T20:19:50Z" uid="49111" user="Markus B" changeset="5003984">
    <nd ref="496247298"/>
    <nd ref="585182667"/>
    <tag k="highway" v="residential"/>
  </way>
  <way id="62087534" version="2" timestamp="2011-12-01T18:01:57Z" uid="82877" user="Wankmann" changeset="10010321"/>
</osm>
