<?xml version='1.0' encoding='UTF-8'?>
<osm version="0.6" generator="libosmium/2.20.0">
  <way id="62096303" version="2" timestamp="2010-07-07T19:33:17Z" uid="74617" user="JohnSmith" changeset="5161069">
    <nd ref="267297277"/>
    <nd ref="774179046"/>
    <tag k="highway" v="residential"/>
    <tag k="maxspeed" v="50"/>
    <tag k="maxspeed:source" v="default residential speed limit in Australia"/>
    <tag k="name" v="Shearwater Boulevade"/>
  </way>
  <way id="62096303" version="3" timestamp="2012-01-20T10:17:15Z" uid="147510" user="woodpeck_fixbot" changeset="10443754">
    <nd ref="267297277"/>
    <nd ref="774179046"/>
    <tag k="highway" v="residential"/>
    <tag k="name" v="Shearwater Boulevade"/>
  </way>
  <way id="62096305" version="2" timestamp="2010-07-07T19:24:06Z" uid="74617" user="JohnSmith" changeset="5161069">
    <nd ref="774179057"/>
    <nd ref="774179069"/>
    <tag k="highway" v="residential"/>
    <tag k="maxspeed" v="50"/>
    <tag k="maxspeed:source" v="default residential speed limit in Australia"/>
    <tag k="name" v="Koona Street"/>
    <tag k="oneway" v="yes"/>
  </way>
  <way id="62096305" version="3" timestamp="2012-01-20T10:17:17Z" uid="147510" user="woodpeck_fixbot" changeset="10443754">
    <nd ref="774179057"/>
    <nd ref="774179069"/>
    <tag k="highway" v="residential"/>
    <tag k="name" v="Koona Street"/>
    <tag k="oneway" v="yes"/>
  </way>
  <way id="62096311" version="2" timestamp="2010-07-07T19:32:13Z" uid="74617" user="JohnSmith" changeset="5161069">
    <nd ref="248503376"/>
    <nd ref="774179122"/>
    <tag k="highway" v="residential"/>
    <tag k="maxspeed" v="50"/>
    <tag k="maxspeed:source" v="default residential speed limit in Australia"/>
    <tag k="name" v="Spoonbill Place"/>
  </way>
  <way id="62096311" version="3" timestamp="2012-01-20T10:17:18Z" uid="147510" user="woodpeck_fixbot" changeset="10443754">
    <nd ref="248503376"/>
    <nd ref="774179122"/>
    <tag k="highway" v="residential"/>
    <tag k="name" v="Spoonbill Place"/>
  </way>
</osm>
