<?xml version='1.0' encoding='UTF-8'?>
<osm version="0.6" generator="libosmium/2.20.0">
  <way id="62120046" version="2" timestamp="2010-07-09T03:51:31Z" uid="74617" user="JohnSmith" changeset="5170825">
    <nd ref="733221402"/>
    <nd ref="774826635"/>
    <tag k="highway" v="residential"/>
    <tag k="maxspeed" v="50"/>
    <tag k="maxspeed:source" v="default residential speed limit in Australia"/>
    <tag k="name" v="Mistletoe Court"/>
    <tag k="source" v="nearmap"/>
  </way>
  <way id="62120046" version="3" timestamp="2012-01-20T10:20:10Z" uid="147510" user="woodpeck_fixbot" changeset="10443754">
    <nd ref="733221402"/>
    <nd ref="774826635"/>
    <tag k="highway" v="residential"/>
    <tag k="name" v="Mistletoe Court"/>
    <tag k="source" v="nearmap"/>
  </way>
  <way id="62120291" version="3" timestamp="2010-07-09T03:52:35Z" uid="74617" user="JohnSmith" changeset="5170825">
    <nd ref="768960682"/>
    <nd ref="774855439"/>
    <nd ref="774836150"/>
    <nd ref="774836152"/>
    <nd ref="774836154"/>
    <nd ref="774836157"/>
    <nd ref="774836159"/>
    <tag k="highway" v="residential"/>
    <tag k="maxspeed" v="50"/>
    <tag k="maxspeed:source" v="default residential speed limit in Australia"/>
    <tag k="name" v="Bacchus Drive"/>
    <tag k="source" v="nearmap"/>
  </way>
  <way id="62120291" version="4" timestamp="2012-01-20T10:20:13Z" uid="147510" user="woodpeck_fixbot" changeset="10443754">
    <nd ref="768960682"/>
    <nd ref="774855439"/>
    <nd ref="774836150"/>
    <nd ref="774836152"/>
    <nd ref="774836154"/>
    <nd ref="774836157"/>
    <nd ref="774836159"/>
    <tag k="highway" v="residential"/>
    <tag k="name" v="Bacchus Drive"/>
    <tag k="source" v="nearmap"/>
  </way>
  <way id="62120305" version="2" timestamp="2010-07-09T03:52:53Z" uid="74617" user="JohnSmith" changeset="5170825">
    <nd ref="774836150"/>
    <nd ref="774839135"/>
    <tag k="highway" v="residential"/>
    <tag k="maxspeed" v="50"/>
    <tag k="maxspeed:source" v="default residential speed limit in Australia"/>
    <tag k="name" v="Amphion Street"/>
    <tag k="source" v="nearmap"/>
  </way>
  <way id="62120305" version="3" timestamp="2012-01-20T10:20:14Z" uid="147510" user="woodpeck_fixbot" changeset="10443754">
    <nd ref="774836150"/>
    <nd ref="774839135"/>
    <tag k="highway" v="residential"/>
    <tag k="name" v="Amphion Street"/>
    <tag k="source" v="nearmap"/>
  </way>
  <way id="62120514" version="2" timestamp="2010-07-09T03:47:34Z" uid="74617" user="JohnSmith" changeset="5170825">
    <nd ref="774853973"/>
    <nd ref="774853976"/>
    <tag k="highway" v="residential"/>
    <tag k="maxspeed" v="50"/>
    <tag k="maxspeed:source" v="default residential speed limit in Australia"/>
    <tag k="name" v="Myna Street"/>
    <tag k="source" v="nearmap"/>
  </way>
  <way id="62120514" version="3" timestamp="2012-01-20T10:20:16Z" uid="147510" user="woodpeck_fixbot" changeset="10443754">
    <nd ref="774853973"/>
    <nd ref="774853976"/>
    <tag k="highway" v="residential"/>
    <tag k="name" v="Myna Street"/>
    <tag k="source" v="nearmap"/>
  </way>
  <way id="62120552" version="2" timestamp="2010-07-04T18:22:41Z" uid="10712" user="Kraeml" changeset="5135723">
    <nd ref="304627847"/>
    <nd ref="800946938"/>
    <nd ref="774857460"/>
    <tag k="highway" v="track"/>
    <tag k="tracktype" v="grade5"/>
  </way>
  <way id="62120552" version="3" timestamp="2012-03-01T14:57:58Z" uid="479256" user="geodreieck4711" changeset="10838565"/>
  <way id="62120585" version="2" timestamp="2010-07-09T03:50:38Z" uid="74617" user="JohnSmith" changeset="5170825">
    <nd ref="774858697"/>
    <nd ref="774853976"/>
    <nd ref="774858708"/>
    <nd ref="774858711"/>
    <nd ref="768960674"/>
    <tag k="highway" v="residential"/>
    <tag k="maxspeed" v="50"/>
    <tag k="maxspeed:source" v="default residential speed limit in Australia"/>
    <tag k="name" v="Crane Avenue"/>
    <tag k="source" v="nearmap"/>
  </way>
  <way id="62120585" version="3" timestamp="2012-01-20T10:20:18Z" uid="147510" user="woodpeck_fixbot" changeset="10443754">
    <nd ref="774858697"/>
    <nd ref="774853976"/>
    <nd ref="774858708"/>
    <nd ref="774858711"/>
    <nd ref="768960674"/>
    <tag k="highway" v="residential"/>
    <tag k="name" v="Crane Avenue"/>
    <tag k="source" v="nearmap"/>
  </way>
  <way id="62120615" version="3" timestamp="2010-07-09T03:52:42Z" uid="74617" user="JohnSmith" changeset="5170825">
    <nd ref="768960101"/>
    <nd ref="774861114"/>
    <nd ref="774861116"/>
    <nd ref="774861118"/>
    <nd ref="774861120"/>
    <nd ref="774861122"/>
    <nd ref="774861124"/>
    <nd ref="774858697"/>
    <nd ref="774862693"/>
    <nd ref="774862695"/>
    <nd ref="774862697"/>
    <nd ref="774862700"/>
    <nd ref="774862706"/>
    <nd ref="774862723"/>
    <tag k="highway" v="residential"/>
    <tag k="maxspeed" v="50"/>
    <tag k="maxspeed:source" v="default residential speed limit in Australia"/>
    <tag k="name" v="Cascade Crescent"/>
    <tag k="source" v="nearmap"/>
  </way>
  <way id="62120615" version="4" timestamp="2012-01-20T10:20:20Z" uid="147510" user="woodpeck_fixbot" changeset="10443754">
    <nd ref="768960101"/>
    <nd ref="774861114"/>
    <nd ref="774861116"/>
    <nd ref="774861118"/>
    <nd ref="774861120"/>
    <nd ref="774861122"/>
    <nd ref="774861124"/>
    <nd ref="774858697"/>
    <nd ref="774862693"/>
    <nd ref="774862695"/>
    <nd ref="774862697"/>
    <nd ref="774862700"/>
    <nd ref="774862706"/>
    <nd ref="774862723"/>
    <tag k="highway" v="residential"/>
    <tag k="name" v="Cascade Crescent"/>
    <tag k="source" v="nearmap"/>
  </way>
</osm>
