<?xml version='1.0' encoding='UTF-8'?>
<osm version="0.6" generator="libosmium/2.20.0">
  <way id="62217004" version="2" timestamp="2010-07-25T14:00:26Z" uid="4467" user="Rosscoe" changeset="5312110">
    <nd ref="440006709"/>
    <nd ref="440006710"/>
    <tag k="bridge" v="yes"/>
    <tag k="highway" v="tertiary"/>
    <tag k="layer" v="1"/>
    <tag k="name" v="Mandurang Road"/>
    <tag k="name:bridge" v="de Ravin Bridge"/>
  </way>
  <way id="62217064" version="5" timestamp="2010-11-25T17:41:15Z" uid="115477" user="wowik" changeset="6455127">
    <nd ref="776076588"/>
    <nd ref="776076568"/>
    <nd ref="1004106018"/>
    <nd ref="655293408"/>
    <tag k="addr:postcode" v="171573"/>
    <tag k="cladr:code" v="69011001000002500"/>
    <tag k="cladr:name" v="Красноармейская"/>
    <tag k="cladr:suffix" v="Улица"/>
    <tag k="highway" v="unclassified"/>
    <tag k="name" v="Улица Красноармейская"/>
    <tag k="surface" v="ground"/>
  </way>
  <way id="62217064" version="6" timestamp="2010-12-27T18:05:21Z" uid="133332" user="AMDmi3" changeset="6780419">
    <nd ref="776076588"/>
    <nd ref="776076568"/>
    <nd ref="1004106018"/>
    <nd ref="655293408"/>
    <tag k="addr:postcode" v="171573"/>
    <tag k="cladr:code" v="69011001000002500"/>
    <tag k="cladr:name" v="Красноармейская"/>
    <tag k="cladr:suffix" v="Улица"/>
    <tag k="highway" v="unclassified"/>
    <tag k="name" v="Красноармейская улица"/>
    <tag k="surface" v="ground"/>
  </way>
  <way id="62217365" version="2" timestamp="2010-11-21T17:31:07Z" uid="8619" user="cetest" changeset="6424711">
    <nd ref="776095376"/>
    <nd ref="776095387"/>
    <nd ref="776095389"/>
    <nd ref="998172308"/>
    <nd ref="998172414"/>
    <nd ref="776095392"/>
    <nd ref="998172244"/>
    <nd ref="776095394"/>
    <nd ref="998172211"/>
    <nd ref="776095396"/>
    <nd ref="998172418"/>
    <nd ref="776095399"/>
    <nd ref="776095401"/>
    <tag k="highway" v="cycleway"/>
  </way>
  <way id="62217365" version="3" timestamp="2012-01-05T20:22:43Z" uid="191979" user="It&apos;s so funny" changeset="10305039"/>
  <way id="62217366" version="2" timestamp="2010-11-21T17:31:56Z" uid="8619" user="cetest" changeset="6424711">
    <nd ref="776095401"/>
    <nd ref="776095411"/>
    <nd ref="776095414"/>
    <nd ref="998172166"/>
    <nd ref="776095416"/>
    <tag k="highway" v="cycleway"/>
  </way>
  <way id="62217366" version="3" timestamp="2011-12-10T10:47:17Z" uid="242798" user="AnkEric" changeset="10079865">
    <nd ref="776095401"/>
    <nd ref="776095411"/>
    <nd ref="1539260703"/>
    <nd ref="776095414"/>
    <nd ref="1539260700"/>
    <nd ref="1539260698"/>
    <nd ref="998172166"/>
    <nd ref="44516471"/>
    <tag k="highway" v="cycleway"/>
  </way>
  <way id="62217366" version="4" timestamp="2012-01-23T20:03:47Z" uid="242798" user="AnkEric" changeset="10478670">
    <nd ref="776095401"/>
    <nd ref="776095411"/>
    <nd ref="1539260703"/>
    <nd ref="776095414"/>
    <nd ref="1539260700"/>
    <nd ref="1539260698"/>
    <nd ref="998172166"/>
    <nd ref="44516471"/>
    <tag k="highway" v="cycleway"/>
  </way>
  <way id="62217366" version="5" timestamp="2012-01-23T20:25:15Z" uid="242798" user="AnkEric" changeset="10478670"/>
  <way id="62217883" version="2" timestamp="2010-07-07T09:53:58Z" uid="74617" user="JohnSmith" changeset="5156250">
    <nd ref="671658707"/>
    <nd ref="671658708"/>
    <nd ref="671658675"/>
    <nd ref="671658674"/>
    <tag k="highway" v="residential"/>
    <tag k="maxspeed" v="50"/>
    <tag k="maxspeed:source" v="default residential speed limit in Australia"/>
    <tag k="name" v="Philden Way"/>
    <tag k="source" v="Nearmap"/>
  </way>
  <way id="62217883" version="3" timestamp="2012-01-20T10:26:05Z" uid="147510" user="woodpeck_fixbot" changeset="10443754">
    <nd ref="671658707"/>
    <nd ref="671658708"/>
    <nd ref="671658675"/>
    <nd ref="671658674"/>
    <tag k="highway" v="residential"/>
    <tag k="name" v="Philden Way"/>
    <tag k="source" v="Nearmap"/>
  </way>
  <way id="62217884" version="2" timestamp="2010-07-07T09:53:53Z" uid="74617" user="JohnSmith" changeset="5156250">
    <nd ref="475254636"/>
    <nd ref="708304153"/>
    <tag k="highway" v="residential"/>
    <tag k="maxspeed" v="50"/>
    <tag k="maxspeed:source" v="default residential speed limit in Australia"/>
    <tag k="name" v="Broad Parade"/>
    <tag k="source" v="Nearmap"/>
  </way>
  <way id="62217884" version="3" timestamp="2012-01-20T10:26:06Z" uid="147510" user="woodpeck_fixbot" changeset="10443754">
    <nd ref="475254636"/>
    <nd ref="708304153"/>
    <tag k="highway" v="residential"/>
    <tag k="name" v="Broad Parade"/>
    <tag k="source" v="Nearmap"/>
  </way>
  <way id="62217004" version="3" timestamp="2012-07-19T06:48:09Z" uid="722137" user="OSMF Redaction Account" changeset="12310730"/>
  <way id="62217064" version="7" timestamp="2012-07-20T11:01:10Z" uid="722137" user="OSMF Redaction Account" changeset="12372167">
    <nd ref="776076588"/>
    <nd ref="776076568"/>
    <nd ref="655293408"/>
    <tag k="addr:postcode" v="171573"/>
    <tag k="cladr:code" v="69011001000002500"/>
    <tag k="cladr:name" v="Красноармейская"/>
    <tag k="cladr:suffix" v="Улица"/>
    <tag k="highway" v="unclassified"/>
    <tag k="name" v="Красноармейская улица"/>
    <tag k="surface" v="ground"/>
  </way>
  <way id="62217064" version="8" timestamp="2012-08-20T19:31:06Z" uid="127606" user="loir" changeset="12800193">
    <nd ref="776076588"/>
    <nd ref="776076568"/>
    <nd ref="655293408"/>
    <tag k="addr:postcode" v="171573"/>
    <tag k="highway" v="unclassified"/>
    <tag k="name" v="Красноармейская улица"/>
    <tag k="surface" v="ground"/>
  </way>
  <way id="62217883" version="4" timestamp="2012-07-19T06:48:13Z" uid="722137" user="OSMF Redaction Account" changeset="12310736"/>
  <way id="62217884" version="4" timestamp="2012-07-19T06:48:10Z" uid="722137" user="OSMF Redaction Account" changeset="12310730"/>
</osm>
