<?xml version='1.0' encoding='UTF-8'?>
<osm version="0.6" generator="libosmium/2.20.0">
  <way id="62314366" version="3" timestamp="2011-03-27T18:23:01Z" uid="9581" user="Lobelt" changeset="7689277">
    <nd ref="392477537"/>
    <nd ref="978742922"/>
    <nd ref="255373972"/>
    <nd ref="255373973"/>
    <tag k="highway" v="secondary"/>
    <tag k="name" v="Kolpingstraße"/>
    <tag k="ref" v="K 17"/>
  </way>
  <way id="62314374" version="3" timestamp="2011-03-27T18:22:41Z" uid="9581" user="Lobelt" changeset="7689277">
    <nd ref="392477513"/>
    <nd ref="978742886"/>
    <nd ref="256475815"/>
    <nd ref="255374221"/>
    <nd ref="256474590"/>
    <nd ref="256474578"/>
    <nd ref="256475821"/>
    <nd ref="1222041806"/>
    <nd ref="255582361"/>
    <tag k="highway" v="secondary"/>
    <tag k="name" v="Wormser Straße"/>
    <tag k="ref" v="L 395"/>
  </way>
  <way id="62314374" version="4" timestamp="2011-12-23T13:40:52Z" uid="554636" user="bittling" changeset="10187224">
    <nd ref="392477513"/>
    <nd ref="978742886"/>
    <nd ref="256475815"/>
    <nd ref="255374221"/>
    <nd ref="256474590"/>
    <nd ref="256474578"/>
    <nd ref="256475821"/>
    <nd ref="1222041806"/>
    <nd ref="1559365850"/>
    <nd ref="255582361"/>
    <tag k="highway" v="secondary"/>
    <tag k="name" v="Wormser Straße"/>
    <tag k="ref" v="L 395"/>
  </way>
  <way id="62314366" version="4" timestamp="2012-04-13T19:43:13Z" uid="328555" user="peb12345" changeset="11291503">
    <nd ref="392477537"/>
    <nd ref="978742922"/>
    <nd ref="255373972"/>
    <nd ref="1715024345"/>
    <tag k="highway" v="secondary"/>
    <tag k="name" v="Kolpingstraße"/>
    <tag k="ref" v="K 17"/>
  </way>
  <way id="62314366" version="5" timestamp="2012-08-05T11:15:45Z" uid="461945" user="poppei82" changeset="12619002">
    <nd ref="392477537"/>
    <nd ref="1852698045"/>
    <nd ref="978742922"/>
    <nd ref="255373972"/>
    <nd ref="1715024345"/>
    <tag k="highway" v="secondary"/>
    <tag k="name" v="Kolpingstraße"/>
    <tag k="ref" v="K 17"/>
  </way>
  <way id="62314374" version="5" timestamp="2012-04-13T19:43:22Z" uid="328555" user="peb12345" changeset="11291503">
    <nd ref="392477513"/>
    <nd ref="978742886"/>
    <nd ref="256475815"/>
    <nd ref="255374221"/>
    <nd ref="256474590"/>
    <nd ref="256474578"/>
    <nd ref="256475821"/>
    <nd ref="1559365850"/>
    <nd ref="255582361"/>
    <tag k="highway" v="secondary"/>
    <tag k="name" v="Wormser Straße"/>
    <tag k="ref" v="L 395"/>
  </way>
</osm>
