<?xml version='1.0' encoding='UTF-8'?>
<osm version="0.6" generator="libosmium/2.20.0">
  <way id="6232042" version="6" timestamp="2010-01-09T07:08:38Z" uid="30201" user="rrankin" changeset="3575666">
    <nd ref="52037511"/>
    <nd ref="141835396"/>
    <nd ref="610196368"/>
    <tag k="highway" v="residential"/>
    <tag k="name" v="Ross Street"/>
  </way>
  <way id="6232042" version="7" timestamp="2010-07-08T01:33:01Z" uid="74617" user="JohnSmith" changeset="5162525">
    <nd ref="52037511"/>
    <nd ref="141835396"/>
    <nd ref="610196368"/>
    <tag k="highway" v="residential"/>
    <tag k="maxspeed" v="50"/>
    <tag k="maxspeed:source" v="default residential speed limit in Australia"/>
    <tag k="name" v="Ross Street"/>
  </way>
  <way id="6232042" version="8" timestamp="2012-01-15T06:17:47Z" uid="147510" user="woodpeck_fixbot" changeset="10394821">
    <nd ref="52037511"/>
    <nd ref="141835396"/>
    <nd ref="610196368"/>
    <tag k="highway" v="residential"/>
    <tag k="name" v="Ross Street"/>
  </way>
  <way id="6232094" version="5" timestamp="2010-05-07T16:12:00Z" uid="4467" user="Rosscoe" changeset="4631418">
    <nd ref="30736234"/>
    <nd ref="638206707"/>
    <nd ref="33235874"/>
    <tag k="highway" v="motorway_link"/>
    <tag k="layer" v="1"/>
    <tag k="oneway" v="yes"/>
  </way>
  <way id="6232095" version="3" timestamp="2010-05-07T16:11:58Z" uid="4467" user="Rosscoe" changeset="4631418">
    <nd ref="52036189"/>
    <nd ref="33235877"/>
    <tag k="created_by" v="JOSM"/>
    <tag k="highway" v="motorway_link"/>
    <tag k="oneway" v="yes"/>
  </way>
  <way id="6232096" version="5" timestamp="2010-05-07T16:12:02Z" uid="4467" user="Rosscoe" changeset="4631418">
    <nd ref="33235874"/>
    <nd ref="52036219"/>
    <nd ref="52036230"/>
    <nd ref="655873466"/>
    <nd ref="52036513"/>
    <nd ref="52036189"/>
    <tag k="bridge" v="yes"/>
    <tag k="highway" v="motorway_link"/>
    <tag k="layer" v="1"/>
  </way>
  <way id="6232238" version="10" timestamp="2010-01-09T07:08:37Z" uid="30201" user="rrankin" changeset="3575666">
    <nd ref="52039626"/>
    <nd ref="35835678"/>
    <nd ref="141836305"/>
    <nd ref="610196384"/>
    <tag k="highway" v="residential"/>
    <tag k="name" v="Fennell Street"/>
  </way>
  <way id="6232238" version="11" timestamp="2010-07-08T01:36:53Z" uid="74617" user="JohnSmith" changeset="5162525">
    <nd ref="52039626"/>
    <nd ref="35835678"/>
    <nd ref="141836305"/>
    <nd ref="610196384"/>
    <tag k="highway" v="residential"/>
    <tag k="maxspeed" v="50"/>
    <tag k="maxspeed:source" v="default residential speed limit in Australia"/>
    <tag k="name" v="Fennell Street"/>
  </way>
  <way id="6232238" version="12" timestamp="2012-01-15T06:17:48Z" uid="147510" user="woodpeck_fixbot" changeset="10394821">
    <nd ref="52039626"/>
    <nd ref="35835678"/>
    <nd ref="141836305"/>
    <nd ref="610196384"/>
    <tag k="highway" v="residential"/>
    <tag k="name" v="Fennell Street"/>
  </way>
  <way id="6232238" version="13" timestamp="2012-02-13T22:34:34Z" uid="412739" user="efAston" changeset="10678534">
    <nd ref="52039626"/>
    <nd ref="35835678"/>
    <nd ref="141836305"/>
    <nd ref="610196384"/>
    <tag k="bicycle" v="yes"/>
    <tag k="cycleway" v="no"/>
    <tag k="highway" v="residential"/>
    <tag k="name" v="Fennell Street"/>
    <tag k="oneway" v="no"/>
  </way>
  <way id="6232328" version="3" timestamp="2010-07-08T01:33:47Z" uid="74617" user="JohnSmith" changeset="5162525">
    <nd ref="52039626"/>
    <nd ref="141836561"/>
    <nd ref="52040549"/>
    <tag k="highway" v="residential"/>
    <tag k="maxspeed" v="50"/>
    <tag k="maxspeed:source" v="default residential speed limit in Australia"/>
    <tag k="name" v="Fleet Street"/>
  </way>
  <way id="6232328" version="4" timestamp="2012-01-15T06:17:49Z" uid="147510" user="woodpeck_fixbot" changeset="10394821">
    <nd ref="52039626"/>
    <nd ref="141836561"/>
    <nd ref="52040549"/>
    <tag k="highway" v="residential"/>
    <tag k="name" v="Fleet Street"/>
  </way>
  <way id="6232328" version="5" timestamp="2012-02-13T22:34:34Z" uid="412739" user="efAston" changeset="10678534">
    <nd ref="52039626"/>
    <nd ref="141836561"/>
    <nd ref="52040549"/>
    <tag k="bicycle" v="yes"/>
    <tag k="cycleway" v="no"/>
    <tag k="highway" v="residential"/>
    <tag k="name" v="Fleet Street"/>
    <tag k="oneway" v="no"/>
    <tag k="surface" v="asphalt"/>
  </way>
  <way id="6232330" version="2" timestamp="2010-03-11T14:49:51Z" uid="7617" user="Franc" changeset="4098277">
    <nd ref="52040549"/>
    <nd ref="664043542"/>
    <nd ref="52040579"/>
    <tag k="highway" v="residential"/>
    <tag k="name" v="New Street"/>
  </way>
  <way id="6232330" version="3" timestamp="2010-07-08T01:38:35Z" uid="74617" user="JohnSmith" changeset="5162525">
    <nd ref="52040549"/>
    <nd ref="664043542"/>
    <nd ref="52040579"/>
    <tag k="highway" v="residential"/>
    <tag k="maxspeed" v="50"/>
    <tag k="maxspeed:source" v="default residential speed limit in Australia"/>
    <tag k="name" v="New Street"/>
  </way>
  <way id="6232330" version="4" timestamp="2012-01-15T06:17:50Z" uid="147510" user="woodpeck_fixbot" changeset="10394821">
    <nd ref="52040549"/>
    <nd ref="664043542"/>
    <nd ref="52040579"/>
    <tag k="highway" v="residential"/>
    <tag k="name" v="New Street"/>
  </way>
  <way id="6232392" version="3" timestamp="2010-03-11T14:49:51Z" uid="7617" user="Franc" changeset="4098277">
    <nd ref="52040579"/>
    <nd ref="664043540"/>
    <nd ref="52041311"/>
    <nd ref="52041314"/>
    <nd ref="52041315"/>
    <nd ref="141859973"/>
    <tag k="highway" v="residential"/>
    <tag k="name" v="Dunlop Street"/>
  </way>
  <way id="6232392" version="4" timestamp="2010-07-08T01:37:38Z" uid="74617" user="JohnSmith" changeset="5162525">
    <nd ref="52040579"/>
    <nd ref="664043540"/>
    <nd ref="52041311"/>
    <nd ref="52041314"/>
    <nd ref="52041315"/>
    <nd ref="141859973"/>
    <tag k="highway" v="residential"/>
    <tag k="maxspeed" v="50"/>
    <tag k="maxspeed:source" v="default residential speed limit in Australia"/>
    <tag k="name" v="Dunlop Street"/>
  </way>
  <way id="6232392" version="5" timestamp="2012-01-15T06:17:52Z" uid="147510" user="woodpeck_fixbot" changeset="10394821">
    <nd ref="52040579"/>
    <nd ref="664043540"/>
    <nd ref="52041311"/>
    <nd ref="52041314"/>
    <nd ref="52041315"/>
    <nd ref="141859973"/>
    <tag k="highway" v="residential"/>
    <tag k="name" v="Dunlop Street"/>
  </way>
  <way id="6232442" version="4" timestamp="2010-03-11T14:49:51Z" uid="7617" user="Franc" changeset="4098277">
    <nd ref="52041813"/>
    <nd ref="60982879"/>
    <nd ref="664043562"/>
    <nd ref="52041815"/>
    <tag k="highway" v="residential"/>
    <tag k="name" v="Galloway Street"/>
  </way>
  <way id="6232442" version="5" timestamp="2010-07-08T01:32:39Z" uid="74617" user="JohnSmith" changeset="5162525">
    <nd ref="52041813"/>
    <nd ref="60982879"/>
    <nd ref="664043562"/>
    <nd ref="52041815"/>
    <tag k="highway" v="residential"/>
    <tag k="maxspeed" v="50"/>
    <tag k="maxspeed:source" v="default residential speed limit in Australia"/>
    <tag k="name" v="Galloway Street"/>
  </way>
  <way id="6232442" version="6" timestamp="2012-01-15T06:17:54Z" uid="147510" user="woodpeck_fixbot" changeset="10394821">
    <nd ref="52041813"/>
    <nd ref="60982879"/>
    <nd ref="664043562"/>
    <nd ref="52041815"/>
    <tag k="highway" v="residential"/>
    <tag k="name" v="Galloway Street"/>
  </way>
  <way id="6232533" version="6" timestamp="2010-07-08T01:36:41Z" uid="74617" user="JohnSmith" changeset="5162525">
    <nd ref="52040549"/>
    <nd ref="35835674"/>
    <nd ref="52041813"/>
    <nd ref="332050475"/>
    <tag k="highway" v="residential"/>
    <tag k="maxspeed" v="50"/>
    <tag k="maxspeed:source" v="default residential speed limit in Australia"/>
    <tag k="name" v="Factory Street"/>
  </way>
  <way id="6232533" version="7" timestamp="2012-01-15T06:17:58Z" uid="147510" user="woodpeck_fixbot" changeset="10394821">
    <nd ref="52040549"/>
    <nd ref="35835674"/>
    <nd ref="52041813"/>
    <nd ref="332050475"/>
    <tag k="highway" v="residential"/>
    <tag k="name" v="Factory Street"/>
  </way>
  <way id="6232042" version="9" timestamp="2012-07-20T07:09:05Z" uid="722137" user="OSMF Redaction Account" changeset="12365366">
    <nd ref="52037511"/>
    <nd ref="141835396"/>
    <tag k="highway" v="residential"/>
    <tag k="name" v="Ross Street"/>
  </way>
  <way id="6232042" version="10" timestamp="2012-07-24T00:14:57Z" uid="46482" user="Leon K" changeset="12458894">
    <nd ref="52037511"/>
    <nd ref="141835396"/>
    <nd ref="29778363"/>
    <tag k="highway" v="residential"/>
    <tag k="name" v="Ross Street"/>
  </way>
  <way id="6232042" version="11" timestamp="2012-07-26T12:33:33Z" uid="11037" user="Spindoc Bob" changeset="12497855">
    <nd ref="52037511"/>
    <nd ref="141835396"/>
    <nd ref="1838696431"/>
    <tag k="highway" v="residential"/>
    <tag k="name" v="Ross Street"/>
  </way>
  <way id="6232094" version="6" timestamp="2012-07-19T16:25:24Z" uid="722137" user="OSMF Redaction Account" changeset="12339033">
    <nd ref="30736234"/>
    <nd ref="638206707"/>
    <nd ref="33235874"/>
    <tag k="highway" v="primary"/>
    <tag k="oneway" v="yes"/>
  </way>
  <way id="6232094" version="7" timestamp="2012-07-25T10:27:39Z" uid="189263" user="wildmyron" changeset="12484854">
    <nd ref="30736234"/>
    <nd ref="638206707"/>
    <nd ref="33235874"/>
    <tag k="highway" v="motorway_link"/>
    <tag k="oneway" v="yes"/>
    <tag k="source" v="bing"/>
  </way>
  <way id="6232094" version="8" timestamp="2012-08-01T14:51:16Z" uid="142807" user="SDavies" changeset="12575327">
    <nd ref="30736234"/>
    <nd ref="33235874"/>
    <tag k="highway" v="motorway_link"/>
    <tag k="oneway" v="yes"/>
    <tag k="source" v="bing"/>
  </way>
  <way id="6232095" version="4" timestamp="2012-07-19T16:25:24Z" uid="722137" user="OSMF Redaction Account" changeset="12339033">
    <nd ref="52036189"/>
    <nd ref="33235877"/>
    <tag k="highway" v="primary"/>
    <tag k="oneway" v="yes"/>
  </way>
  <way id="6232095" version="5" timestamp="2012-07-25T10:27:42Z" uid="189263" user="wildmyron" changeset="12484854"/>
  <way id="6232096" version="6" timestamp="2012-07-19T16:25:24Z" uid="722137" user="OSMF Redaction Account" changeset="12339033">
    <nd ref="33235874"/>
    <nd ref="52036219"/>
    <nd ref="52036230"/>
    <nd ref="655873466"/>
    <nd ref="52036513"/>
    <nd ref="52036189"/>
    <tag k="bridge" v="yes"/>
    <tag k="highway" v="primary"/>
  </way>
  <way id="6232096" version="7" timestamp="2012-07-25T10:27:39Z" uid="189263" user="wildmyron" changeset="12484854">
    <nd ref="33235874"/>
    <nd ref="52036219"/>
    <nd ref="52036230"/>
    <nd ref="655873466"/>
    <nd ref="52036513"/>
    <nd ref="52036189"/>
    <tag k="bridge" v="yes"/>
    <tag k="highway" v="motorway_link"/>
    <tag k="layer" v="1"/>
    <tag k="oneway" v="yes"/>
  </way>
  <way id="6232096" version="8" timestamp="2012-08-01T14:51:16Z" uid="142807" user="SDavies" changeset="12575327">
    <nd ref="33235874"/>
    <nd ref="1846917989"/>
    <nd ref="1846917988"/>
    <nd ref="52036219"/>
    <nd ref="52036230"/>
    <nd ref="655873466"/>
    <nd ref="52036513"/>
    <nd ref="1846917985"/>
    <nd ref="1846917984"/>
    <nd ref="52036189"/>
    <tag k="bridge" v="yes"/>
    <tag k="highway" v="motorway_link"/>
    <tag k="layer" v="1"/>
    <tag k="oneway" v="yes"/>
  </way>
  <way id="6232238" version="14" timestamp="2012-07-18T02:20:39Z" uid="156866" user="bertboy" changeset="12274172">
    <nd ref="52039626"/>
    <nd ref="1829325308"/>
    <nd ref="35835678"/>
    <nd ref="141836305"/>
    <nd ref="610196384"/>
    <tag k="bicycle" v="yes"/>
    <tag k="cycleway" v="no"/>
    <tag k="highway" v="residential"/>
    <tag k="name" v="Fennell Street"/>
    <tag k="oneway" v="no"/>
  </way>
  <way id="6232238" version="15" timestamp="2012-07-20T07:09:03Z" uid="722137" user="OSMF Redaction Account" changeset="12365366">
    <nd ref="52039626"/>
    <nd ref="1829325308"/>
    <nd ref="35835678"/>
    <nd ref="141836305"/>
    <tag k="bicycle" v="yes"/>
    <tag k="cycleway" v="no"/>
    <tag k="highway" v="residential"/>
    <tag k="name" v="Fennell Street"/>
    <tag k="oneway" v="no"/>
  </way>
  <way id="6232238" version="16" timestamp="2012-07-24T06:24:41Z" uid="11037" user="Spindoc Bob" changeset="12460651">
    <nd ref="52039626"/>
    <nd ref="1829325308"/>
    <nd ref="35835678"/>
    <nd ref="141836305"/>
    <nd ref="29778365"/>
    <nd ref="332050437"/>
    <nd ref="1765638240"/>
    <nd ref="1835367607"/>
    <nd ref="141835126"/>
    <nd ref="1788403311"/>
    <nd ref="141828229"/>
    <nd ref="1833353633"/>
    <nd ref="52039629"/>
    <tag k="bicycle" v="yes"/>
    <tag k="cycleway" v="no"/>
    <tag k="highway" v="residential"/>
    <tag k="name" v="Fennell Street"/>
    <tag k="oneway" v="no"/>
  </way>
  <way id="6232238" version="17" timestamp="2012-07-26T11:58:16Z" uid="11037" user="Spindoc Bob" changeset="12497855">
    <nd ref="52039626"/>
    <nd ref="1829325308"/>
    <nd ref="35835678"/>
    <nd ref="141836305"/>
    <nd ref="29778365"/>
    <nd ref="332050437"/>
    <nd ref="1838673195"/>
    <tag k="bicycle" v="yes"/>
    <tag k="cycleway" v="no"/>
    <tag k="highway" v="residential"/>
    <tag k="name" v="Fennell Street"/>
    <tag k="oneway" v="no"/>
  </way>
  <way id="6232238" version="18" timestamp="2012-07-26T12:33:34Z" uid="11037" user="Spindoc Bob" changeset="12497855">
    <nd ref="52039626"/>
    <nd ref="1829325308"/>
    <nd ref="35835678"/>
    <nd ref="141836305"/>
    <nd ref="1838696564"/>
    <tag k="bicycle" v="yes"/>
    <tag k="cycleway" v="no"/>
    <tag k="highway" v="residential"/>
    <tag k="name" v="Fennell Street"/>
    <tag k="oneway" v="no"/>
  </way>
  <way id="6232330" version="5" timestamp="2012-07-20T07:08:50Z" uid="722137" user="OSMF Redaction Account" changeset="12365366">
    <nd ref="52040549"/>
    <nd ref="52040579"/>
    <tag k="highway" v="residential"/>
    <tag k="name" v="New Street"/>
  </way>
  <way id="6232392" version="6" timestamp="2012-07-20T07:08:49Z" uid="722137" user="OSMF Redaction Account" changeset="12365366">
    <nd ref="52040579"/>
    <nd ref="52041311"/>
    <nd ref="52041314"/>
    <nd ref="52041315"/>
    <nd ref="141859973"/>
    <tag k="highway" v="residential"/>
    <tag k="name" v="Dunlop Street"/>
  </way>
  <way id="6232442" version="7" timestamp="2012-07-20T07:08:54Z" uid="722137" user="OSMF Redaction Account" changeset="12365366">
    <nd ref="52041813"/>
    <nd ref="52041815"/>
    <tag k="highway" v="residential"/>
    <tag k="name" v="Galloway Street"/>
  </way>
  <way id="6232533" version="8" timestamp="2012-05-25T22:45:35Z" uid="7523" user="inas" changeset="11702667">
    <nd ref="52040549"/>
    <nd ref="35835674"/>
    <nd ref="52041813"/>
    <nd ref="60983121"/>
    <nd ref="1765640742"/>
    <tag k="highway" v="residential"/>
    <tag k="name" v="Factory Street"/>
  </way>
</osm>
