<?xml version='1.0' encoding='UTF-8'?>
<osm version="0.6" generator="libosmium/2.20.0">
  <way id="62332098" version="2" timestamp="2010-08-04T17:39:24Z" uid="9581" user="Lobelt" changeset="5401263">
    <nd ref="267891778"/>
    <nd ref="778690821"/>
    <tag k="cables" v="3"/>
    <tag k="frequency" v="50"/>
    <tag k="name" v="055"/>
    <tag k="note" v="rot"/>
    <tag k="operator" v="EON_Netz"/>
    <tag k="power" v="line"/>
    <tag k="ref" v="055"/>
    <tag k="voltage" v="110000"/>
    <tag k="wires" v="single"/>
  </way>
  <way id="62332099" version="3" timestamp="2010-08-04T17:36:47Z" uid="9581" user="Lobelt" changeset="5401263">
    <nd ref="330129686"/>
    <nd ref="326134994"/>
    <nd ref="330697100"/>
    <nd ref="330697102"/>
    <nd ref="352645597"/>
    <nd ref="352645598"/>
    <nd ref="352645599"/>
    <nd ref="352645600"/>
    <nd ref="345756070"/>
    <nd ref="343494088"/>
    <nd ref="343494087"/>
    <nd ref="343494086"/>
    <nd ref="343494085"/>
    <nd ref="343494079"/>
    <nd ref="343494074"/>
    <nd ref="343494068"/>
    <nd ref="343494062"/>
    <tag k="cables" v="6"/>
    <tag k="frequency" v="50"/>
    <tag k="name" v="055"/>
    <tag k="note" v="west:blau,ost:rot"/>
    <tag k="operator" v="EON_Netz"/>
    <tag k="power" v="line"/>
    <tag k="ref" v="055"/>
    <tag k="voltage" v="110000"/>
    <tag k="wires" v="single"/>
  </way>
  <way id="62332099" version="4" timestamp="2011-02-04T15:46:29Z" uid="248787" user="NmdoEVMt" changeset="7184398">
    <nd ref="330129686"/>
    <nd ref="326134994"/>
    <nd ref="330697100"/>
    <nd ref="330697102"/>
    <nd ref="352645597"/>
    <nd ref="352645598"/>
    <nd ref="352645599"/>
    <nd ref="352645600"/>
    <nd ref="345756070"/>
    <nd ref="343494088"/>
    <nd ref="343494087"/>
    <nd ref="343494086"/>
    <nd ref="343494085"/>
    <nd ref="343494079"/>
    <nd ref="343494074"/>
    <nd ref="1135791133"/>
    <nd ref="1135791608"/>
    <nd ref="343494068"/>
    <nd ref="343494062"/>
    <tag k="cables" v="6"/>
    <tag k="frequency" v="50"/>
    <tag k="name" v="055"/>
    <tag k="note" v="west:blau,ost:rot"/>
    <tag k="operator" v="EON_Netz"/>
    <tag k="power" v="line"/>
    <tag k="ref" v="055"/>
    <tag k="voltage" v="110000"/>
    <tag k="wires" v="single"/>
  </way>
  <way id="62332099" version="5" timestamp="2011-04-20T13:24:29Z" uid="13203" user="bahnpirat" changeset="7916236">
    <nd ref="330129686"/>
    <nd ref="326134994"/>
    <nd ref="330697100"/>
    <nd ref="330697102"/>
    <nd ref="352645597"/>
    <nd ref="352645598"/>
    <nd ref="352645599"/>
    <nd ref="352645600"/>
    <nd ref="345756070"/>
    <nd ref="343494088"/>
    <nd ref="343494087"/>
    <nd ref="343494086"/>
    <nd ref="343494085"/>
    <nd ref="343494079"/>
    <nd ref="343494074"/>
    <nd ref="1135791608"/>
    <nd ref="343494068"/>
    <nd ref="343494062"/>
    <tag k="cables" v="6"/>
    <tag k="frequency" v="50"/>
    <tag k="name" v="055"/>
    <tag k="note" v="west:blau,ost:rot"/>
    <tag k="operator" v="EON_Netz"/>
    <tag k="power" v="line"/>
    <tag k="ref" v="055"/>
    <tag k="voltage" v="110000"/>
    <tag k="wires" v="single"/>
  </way>
  <way id="62332099" version="6" timestamp="2011-04-29T19:53:47Z" uid="13203" user="bahnpirat" changeset="8006315">
    <nd ref="330129686"/>
    <nd ref="326134994"/>
    <nd ref="330697100"/>
    <nd ref="330697102"/>
    <nd ref="352645597"/>
    <nd ref="352645598"/>
    <nd ref="352645599"/>
    <nd ref="352645600"/>
    <nd ref="345756070"/>
    <nd ref="343494088"/>
    <nd ref="343494087"/>
    <nd ref="343494086"/>
    <nd ref="343494085"/>
    <nd ref="343494079"/>
    <nd ref="343494074"/>
    <nd ref="343494068"/>
    <nd ref="343494062"/>
    <tag k="cables" v="6"/>
    <tag k="frequency" v="50"/>
    <tag k="name" v="055"/>
    <tag k="note" v="west:blau,ost:rot"/>
    <tag k="operator" v="EON_Netz"/>
    <tag k="power" v="line"/>
    <tag k="ref" v="055"/>
    <tag k="voltage" v="110000"/>
    <tag k="wires" v="single"/>
  </way>
  <way id="62332099" version="7" timestamp="2011-05-13T09:17:25Z" uid="13203" user="bahnpirat" changeset="8129690">
    <nd ref="330129686"/>
    <nd ref="326134994"/>
    <tag k="cables" v="6"/>
    <tag k="frequency" v="50"/>
    <tag k="name" v="055"/>
    <tag k="note" v="west:blau,ost:rot"/>
    <tag k="operator" v="EON_Netz"/>
    <tag k="power" v="line"/>
    <tag k="ref" v="055"/>
    <tag k="voltage" v="110000"/>
    <tag k="wires" v="single"/>
  </way>
  <way id="62332100" version="3" timestamp="2010-08-04T17:43:15Z" uid="9581" user="Lobelt" changeset="5401263">
    <nd ref="330129686"/>
    <nd ref="784348510"/>
    <nd ref="778690845"/>
    <nd ref="784348391"/>
    <tag k="cables" v="3"/>
    <tag k="color" v="blue"/>
    <tag k="frequency" v="50"/>
    <tag k="name" v="Frisoyte/Oberlethe"/>
    <tag k="operator" v="EON_Netz"/>
    <tag k="power" v="line"/>
    <tag k="ref" v="E03"/>
    <tag k="voltage" v="110000"/>
    <tag k="wires" v="single"/>
  </way>
  <way id="62332113" version="2" timestamp="2010-08-04T17:41:40Z" uid="9581" user="Lobelt" changeset="5401263">
    <nd ref="267891780"/>
    <nd ref="267891783"/>
    <nd ref="269797764"/>
    <nd ref="267891786"/>
    <nd ref="266635904"/>
    <nd ref="266635896"/>
    <nd ref="266635893"/>
    <nd ref="266569907"/>
    <nd ref="266411415"/>
    <tag k="cables" v="6"/>
    <tag k="frequency" v="50"/>
    <tag k="name" v="055"/>
    <tag k="note" v="nord:schwarz;süd:gelb"/>
    <tag k="operator" v="EON_Netz"/>
    <tag k="power" v="line"/>
    <tag k="ref" v="055"/>
    <tag k="voltage" v="110000"/>
    <tag k="wires" v="single"/>
  </way>
  <way id="62332115" version="2" timestamp="2010-08-04T17:47:57Z" uid="9581" user="Lobelt" changeset="5401263">
    <nd ref="267891778"/>
    <nd ref="267891780"/>
    <tag k="cables" v="3"/>
    <tag k="frequency" v="50"/>
    <tag k="name" v="055"/>
    <tag k="note" v="süd:gelb"/>
    <tag k="operator" v="EON_Netz"/>
    <tag k="power" v="line"/>
    <tag k="ref" v="055"/>
    <tag k="voltage" v="110000"/>
    <tag k="wires" v="single"/>
  </way>
  <way id="62332116" version="3" timestamp="2010-08-04T17:41:31Z" uid="9581" user="Lobelt" changeset="5401263">
    <nd ref="266411429"/>
    <nd ref="266411430"/>
    <nd ref="266411432"/>
    <nd ref="270370858"/>
    <nd ref="270370859"/>
    <nd ref="270370860"/>
    <nd ref="270370861"/>
    <nd ref="270370862"/>
    <nd ref="270370863"/>
    <nd ref="270824417"/>
    <nd ref="270824418"/>
    <nd ref="270824420"/>
    <nd ref="270824422"/>
    <nd ref="270824423"/>
    <tag k="cables" v="6"/>
    <tag k="frequency" v="50"/>
    <tag k="name" v="055"/>
    <tag k="note" v="west:schwarz;ost:gelb"/>
    <tag k="operator" v="EON_Netz"/>
    <tag k="power" v="line"/>
    <tag k="ref" v="055"/>
    <tag k="voltage" v="110000"/>
    <tag k="wires" v="single"/>
  </way>
  <way id="62332572" version="2" timestamp="2011-02-19T02:13:01Z" uid="20587" user="balrog-kun" changeset="7328304">
    <nd ref="778692911"/>
    <nd ref="778692930"/>
    <nd ref="778692951"/>
    <nd ref="778692963"/>
    <nd ref="778692976"/>
    <nd ref="778693029"/>
    <nd ref="1160459487"/>
    <nd ref="778693031"/>
    <nd ref="778693040"/>
    <tag k="highway" v="residential"/>
  </way>
  <way id="62332615" version="2" timestamp="2010-08-04T17:44:36Z" uid="9581" user="Lobelt" changeset="5401263">
    <nd ref="266039609"/>
    <nd ref="266039610"/>
    <nd ref="267891705"/>
    <nd ref="266055571"/>
    <nd ref="266411411"/>
    <nd ref="266411409"/>
    <nd ref="266411431"/>
    <nd ref="266411429"/>
    <tag k="cables" v="6"/>
    <tag k="frequency" v="50"/>
    <tag k="name" v="092"/>
    <tag k="note" v="ost:schwarz;west:gelb"/>
    <tag k="operator" v="EON_Netz"/>
    <tag k="power" v="line"/>
    <tag k="ref" v="092"/>
    <tag k="voltage" v="110000"/>
    <tag k="wires" v="single"/>
  </way>
  <way id="62332615" version="3" timestamp="2011-02-27T22:12:40Z" uid="23107" user="Pferdo" changeset="7415964">
    <nd ref="266039609"/>
    <nd ref="266039610"/>
    <nd ref="267891705"/>
    <nd ref="266055571"/>
    <nd ref="266411411"/>
    <nd ref="266411409"/>
    <nd ref="266411431"/>
    <nd ref="266411429"/>
    <tag k="cables" v="6"/>
    <tag k="frequency" v="50"/>
    <tag k="name" v="092"/>
    <tag k="note" v="ost:schwarz;west:gelb"/>
    <tag k="operator" v="EON_Netz"/>
    <tag k="power" v="line"/>
    <tag k="ref" v="092"/>
    <tag k="voltage" v="110000"/>
    <tag k="wires" v="single"/>
  </way>
  <way id="62332615" version="4" timestamp="2011-07-17T18:32:12Z" uid="479714" user="hodo2000" changeset="8750744">
    <nd ref="266039609"/>
    <nd ref="266039610"/>
    <nd ref="267891705"/>
    <nd ref="1364767357"/>
    <nd ref="1364767341"/>
    <nd ref="266055571"/>
    <nd ref="266411411"/>
    <nd ref="266411409"/>
    <nd ref="266411431"/>
    <nd ref="266411429"/>
    <tag k="cables" v="6"/>
    <tag k="frequency" v="50"/>
    <tag k="name" v="092"/>
    <tag k="note" v="ost:schwarz;west:gelb"/>
    <tag k="operator" v="EON_Netz"/>
    <tag k="power" v="line"/>
    <tag k="ref" v="092"/>
    <tag k="voltage" v="110000"/>
    <tag k="wires" v="single"/>
  </way>
  <way id="62332617" version="3" timestamp="2010-08-04T17:36:01Z" uid="9581" user="Lobelt" changeset="5401263">
    <nd ref="266039609"/>
    <nd ref="778693280"/>
    <nd ref="780384960"/>
    <nd ref="780385233"/>
    <tag k="cables" v="3"/>
    <tag k="frequency" v="50"/>
    <tag k="name" v="OL/Ost-Ol/Süd"/>
    <tag k="note" v="schwarz"/>
    <tag k="operator" v="EON_Netz"/>
    <tag k="power" v="line"/>
    <tag k="ref" v="E03"/>
    <tag k="voltage" v="110000"/>
    <tag k="wires" v="single"/>
  </way>
  <way id="62332617" version="4" timestamp="2011-07-05T12:19:26Z" uid="20622" user="Sebastian Reichel" changeset="8638586">
    <nd ref="266039609"/>
    <nd ref="778693280"/>
    <nd ref="780384960"/>
    <nd ref="780385233"/>
    <tag k="cables" v="3"/>
    <tag k="frequency" v="50"/>
    <tag k="name" v="OL/Ost-Ol/Süd"/>
    <tag k="note" v="schwarz"/>
    <tag k="operator" v="EON_Netz"/>
    <tag k="power" v="line"/>
    <tag k="ref" v="E03"/>
    <tag k="voltage" v="110000"/>
    <tag k="wires" v="single"/>
  </way>
  <way id="62332916" version="2" timestamp="2010-08-28T15:48:54Z" uid="33382" user="de_muur" changeset="5617415">
    <nd ref="877906160"/>
    <nd ref="778699411"/>
    <nd ref="778699410"/>
    <nd ref="778699408"/>
    <nd ref="778699405"/>
    <nd ref="778699409"/>
    <nd ref="778699406"/>
    <nd ref="778699404"/>
    <tag k="bicycle" v="yes"/>
    <tag k="foot" v="yes"/>
    <tag k="highway" v="path"/>
    <tag k="horse" v="yes"/>
    <tag k="surface" v="paved"/>
    <tag k="wheelchair" v="yes"/>
  </way>
  <way id="62332098" version="3" timestamp="2012-08-01T14:47:33Z" uid="13203" user="bahnpirat" changeset="12575288">
    <nd ref="267891778"/>
    <nd ref="778690821"/>
    <nd ref="1846916440"/>
    <nd ref="1846916442"/>
    <tag k="cables" v="3"/>
    <tag k="color" v="red"/>
    <tag k="frequency" v="50"/>
    <tag k="name" v="055"/>
    <tag k="note" v="rot"/>
    <tag k="operator" v="EON_Netz"/>
    <tag k="power" v="line"/>
    <tag k="ref" v="055"/>
    <tag k="voltage" v="110000"/>
    <tag k="wires" v="single"/>
  </way>
  <way id="62332100" version="4" timestamp="2012-04-29T19:58:37Z" uid="670722" user="stromer66" changeset="11453844">
    <nd ref="330129686"/>
    <nd ref="784348510"/>
    <nd ref="778690845"/>
    <nd ref="784348391"/>
    <tag k="cables" v="3"/>
    <tag k="color" v="blue"/>
    <tag k="frequency" v="50"/>
    <tag k="name" v="Friesoythe/Oberlethe"/>
    <tag k="operator" v="EON_Netz"/>
    <tag k="power" v="line"/>
    <tag k="ref" v="E03"/>
    <tag k="voltage" v="110000"/>
    <tag k="wires" v="single"/>
  </way>
  <way id="62332113" version="3" timestamp="2012-08-01T14:47:41Z" uid="13203" user="bahnpirat" changeset="12575288"/>
  <way id="62332115" version="3" timestamp="2012-08-01T14:47:33Z" uid="13203" user="bahnpirat" changeset="12575288">
    <nd ref="267891778"/>
    <nd ref="267891780"/>
    <tag k="cables" v="3"/>
    <tag k="frequency" v="50"/>
    <tag k="name" v="055"/>
    <tag k="note" v="süd:gelb"/>
    <tag k="operator" v="EON_Netz"/>
    <tag k="power" v="line"/>
    <tag k="ref" v="055"/>
    <tag k="voltage" v="110000"/>
    <tag k="wires" v="single"/>
  </way>
  <way id="62332572" version="3" timestamp="2012-04-10T16:11:20Z" uid="645854" user="niegotowy" changeset="11254242">
    <nd ref="778692911"/>
    <nd ref="778692930"/>
    <nd ref="778692951"/>
    <nd ref="778692963"/>
    <tag k="highway" v="residential"/>
  </way>
  <way id="62332572" version="4" timestamp="2012-04-10T20:08:27Z" uid="645854" user="niegotowy" changeset="11257609">
    <nd ref="778692911"/>
    <nd ref="778692930"/>
    <nd ref="778692951"/>
    <nd ref="778692963"/>
    <tag k="highway" v="residential"/>
    <tag k="name" v="Miodowa"/>
  </way>
  <way id="62332572" version="5" timestamp="2012-08-20T23:30:34Z" uid="645854" user="niegotowy" changeset="12802566">
    <nd ref="778692911"/>
    <nd ref="1875265887"/>
    <nd ref="778692930"/>
    <nd ref="778692951"/>
    <nd ref="778692963"/>
    <tag k="highway" v="residential"/>
    <tag k="name" v="Miodowa"/>
  </way>
  <way id="62332916" version="3" timestamp="2012-04-12T13:25:46Z" uid="63107" user="brogo" changeset="11276411">
    <nd ref="1712698622"/>
    <nd ref="778699411"/>
    <nd ref="778699410"/>
    <nd ref="778699408"/>
    <nd ref="778699405"/>
    <nd ref="778699409"/>
    <nd ref="778699406"/>
    <nd ref="778699404"/>
    <tag k="bicycle" v="yes"/>
    <tag k="foot" v="yes"/>
    <tag k="highway" v="path"/>
    <tag k="horse" v="yes"/>
    <tag k="surface" v="paved"/>
    <tag k="wheelchair" v="yes"/>
  </way>
</osm>
