<?xml version='1.0' encoding='UTF-8'?>
<osm version="0.6" generator="libosmium/2.20.0">
  <way id="62405290" version="2" timestamp="2010-10-15T17:20:13Z" uid="9581" user="Lobelt" changeset="6050841">
    <nd ref="779362562"/>
    <nd ref="779362533"/>
    <nd ref="779362554"/>
    <nd ref="779362592"/>
    <tag k="highway" v="residential"/>
    <tag k="name" v="Buchenlochstraße"/>
  </way>
  <way id="62405291" version="3" timestamp="2010-10-15T17:20:16Z" uid="9581" user="Lobelt" changeset="6050841">
    <nd ref="779362582"/>
    <nd ref="292272815"/>
    <tag k="highway" v="residential"/>
    <tag k="name" v="Kanzelkopfstraße"/>
  </way>
  <way id="62405294" version="2" timestamp="2010-10-15T17:20:12Z" uid="9581" user="Lobelt" changeset="6050841">
    <nd ref="779362560"/>
    <nd ref="779362582"/>
    <tag k="highway" v="residential"/>
    <tag k="name" v="Oberscheidstraße"/>
  </way>
  <way id="62405294" version="3" timestamp="2012-03-05T19:04:53Z" uid="328555" user="peb12345" changeset="10882972">
    <nd ref="1661053394"/>
    <nd ref="779362582"/>
    <tag k="highway" v="residential"/>
    <tag k="name" v="Oberscheidstraße"/>
  </way>
  <way id="62405296" version="2" timestamp="2010-10-15T17:20:11Z" uid="9581" user="Lobelt" changeset="6050841">
    <nd ref="779362547"/>
    <nd ref="779362541"/>
    <nd ref="270166360"/>
    <tag k="highway" v="residential"/>
    <tag k="name" v="Studerbildstraße"/>
  </way>
  <way id="62405296" version="3" timestamp="2012-03-05T19:05:03Z" uid="328555" user="peb12345" changeset="10882972">
    <nd ref="1661053391"/>
    <nd ref="779362541"/>
    <nd ref="270166360"/>
    <tag k="highway" v="residential"/>
    <tag k="name" v="Studerbildstraße"/>
  </way>
  <way id="62405297" version="3" timestamp="2010-10-15T17:20:14Z" uid="9581" user="Lobelt" changeset="6050841">
    <nd ref="305084917"/>
    <nd ref="779362567"/>
    <nd ref="783152585"/>
    <nd ref="779362592"/>
    <tag k="highway" v="residential"/>
    <tag k="name" v="Rittersbergstraße"/>
  </way>
  <way id="62405297" version="4" timestamp="2012-03-05T19:04:55Z" uid="328555" user="peb12345" changeset="10882972">
    <nd ref="305084917"/>
    <nd ref="783152585"/>
    <nd ref="779362592"/>
    <tag k="highway" v="residential"/>
    <tag k="name" v="Rittersbergstraße"/>
  </way>
  <way id="62405290" version="3" timestamp="2012-09-07T14:54:22Z" uid="24920" user="Schusch" changeset="13023886">
    <nd ref="779362562"/>
    <nd ref="779362533"/>
    <nd ref="779362554"/>
    <nd ref="779362592"/>
    <tag k="highway" v="residential"/>
    <tag k="maxspeed" v="30"/>
    <tag k="name" v="Buchenlochstraße"/>
    <tag k="source:maxspeed" v="DE:zone"/>
  </way>
  <way id="62405291" version="4" timestamp="2012-09-07T14:54:24Z" uid="24920" user="Schusch" changeset="13023886">
    <nd ref="779362582"/>
    <nd ref="292272815"/>
    <tag k="highway" v="residential"/>
    <tag k="maxspeed" v="30"/>
    <tag k="name" v="Kanzelkopfstraße"/>
    <tag k="source:maxspeed" v="DE:zone"/>
  </way>
  <way id="62405294" version="4" timestamp="2012-07-19T22:49:43Z" uid="722137" user="OSMF Redaction Account" changeset="12350993"/>
  <way id="62405296" version="4" timestamp="2012-09-07T14:54:26Z" uid="24920" user="Schusch" changeset="13023886">
    <nd ref="1661053391"/>
    <nd ref="779362541"/>
    <nd ref="270166360"/>
    <tag k="highway" v="residential"/>
    <tag k="maxspeed" v="30"/>
    <tag k="name" v="Studerbildstraße"/>
    <tag k="source:maxspeed" v="DE:zone"/>
  </way>
  <way id="62405297" version="5" timestamp="2012-09-07T14:54:24Z" uid="24920" user="Schusch" changeset="13023886">
    <nd ref="305084917"/>
    <nd ref="783152585"/>
    <nd ref="779362592"/>
    <tag k="highway" v="residential"/>
    <tag k="maxspeed" v="30"/>
    <tag k="name" v="Rittersbergstraße"/>
    <tag k="source:maxspeed" v="DE:zone"/>
  </way>
</osm>
