<?xml version='1.0' encoding='UTF-8'?>
<osm version="0.6" generator="libosmium/2.20.0">
  <way id="63113033" version="2" timestamp="2010-07-09T05:28:00Z" uid="74617" user="JohnSmith" changeset="5170972">
    <nd ref="784037748"/>
    <nd ref="784037898"/>
    <tag k="highway" v="residential"/>
    <tag k="maxspeed" v="50"/>
    <tag k="maxspeed:source" v="default residential speed limit in Australia"/>
    <tag k="name" v="Iluka Court"/>
  </way>
  <way id="63113033" version="3" timestamp="2010-07-09T05:35:48Z" uid="74617" user="JohnSmith" changeset="5170972">
    <nd ref="784037748"/>
    <nd ref="784037898"/>
    <tag k="highway" v="residential"/>
    <tag k="maxspeed" v="50"/>
    <tag k="maxspeed:source" v="default residential speed limit in Australia"/>
    <tag k="name" v="Iluka Court"/>
  </way>
  <way id="63113033" version="4" timestamp="2012-01-20T10:36:27Z" uid="147510" user="woodpeck_fixbot" changeset="10443754">
    <nd ref="784037748"/>
    <nd ref="784037898"/>
    <tag k="highway" v="residential"/>
    <tag k="name" v="Iluka Court"/>
  </way>
  <way id="63113044" version="2" timestamp="2010-07-09T05:32:06Z" uid="74617" user="JohnSmith" changeset="5170972">
    <nd ref="784037856"/>
    <nd ref="784037951"/>
    <tag k="highway" v="residential"/>
    <tag k="maxspeed" v="50"/>
    <tag k="maxspeed:source" v="default residential speed limit in Australia"/>
    <tag k="name" v="Susan Parade"/>
  </way>
  <way id="63113044" version="3" timestamp="2010-07-09T05:39:38Z" uid="74617" user="JohnSmith" changeset="5170972">
    <nd ref="784037856"/>
    <nd ref="784037951"/>
    <tag k="highway" v="residential"/>
    <tag k="maxspeed" v="50"/>
    <tag k="maxspeed:source" v="default residential speed limit in Australia"/>
    <tag k="name" v="Susan Parade"/>
  </way>
  <way id="63113044" version="4" timestamp="2012-01-20T10:36:28Z" uid="147510" user="woodpeck_fixbot" changeset="10443754">
    <nd ref="784037856"/>
    <nd ref="784037951"/>
    <tag k="highway" v="residential"/>
    <tag k="name" v="Susan Parade"/>
  </way>
  <way id="63113074" version="2" timestamp="2010-07-09T05:32:36Z" uid="74617" user="JohnSmith" changeset="5170972">
    <nd ref="256537975"/>
    <nd ref="784038355"/>
    <tag k="highway" v="residential"/>
    <tag k="maxspeed" v="50"/>
    <tag k="maxspeed:source" v="default residential speed limit in Australia"/>
    <tag k="name" v="Cleland Court"/>
  </way>
  <way id="63113074" version="3" timestamp="2010-07-09T05:40:05Z" uid="74617" user="JohnSmith" changeset="5170972">
    <nd ref="256537975"/>
    <nd ref="784038355"/>
    <tag k="highway" v="residential"/>
    <tag k="maxspeed" v="50"/>
    <tag k="maxspeed:source" v="default residential speed limit in Australia"/>
    <tag k="name" v="Cleland Court"/>
  </way>
  <way id="63113074" version="4" timestamp="2012-01-20T10:36:29Z" uid="147510" user="woodpeck_fixbot" changeset="10443754">
    <nd ref="256537975"/>
    <nd ref="784038355"/>
    <tag k="highway" v="residential"/>
    <tag k="name" v="Cleland Court"/>
  </way>
  <way id="63113080" version="2" timestamp="2010-07-09T05:30:10Z" uid="74617" user="JohnSmith" changeset="5170972">
    <nd ref="256537974"/>
    <nd ref="784038413"/>
    <nd ref="784038425"/>
    <nd ref="784038432"/>
    <nd ref="784038443"/>
    <tag k="highway" v="residential"/>
    <tag k="maxspeed" v="50"/>
    <tag k="maxspeed:source" v="default residential speed limit in Australia"/>
    <tag k="name" v="Emily Road"/>
  </way>
  <way id="63113080" version="3" timestamp="2010-07-09T05:37:46Z" uid="74617" user="JohnSmith" changeset="5170972">
    <nd ref="256537974"/>
    <nd ref="784038413"/>
    <nd ref="784038425"/>
    <nd ref="784038432"/>
    <nd ref="784038443"/>
    <tag k="highway" v="residential"/>
    <tag k="maxspeed" v="50"/>
    <tag k="maxspeed:source" v="default residential speed limit in Australia"/>
    <tag k="name" v="Emily Road"/>
  </way>
  <way id="63113080" version="4" timestamp="2012-01-20T10:36:31Z" uid="147510" user="woodpeck_fixbot" changeset="10443754">
    <nd ref="256537974"/>
    <nd ref="784038413"/>
    <nd ref="784038425"/>
    <nd ref="784038432"/>
    <nd ref="784038443"/>
    <tag k="highway" v="residential"/>
    <tag k="name" v="Emily Road"/>
  </way>
  <way id="63113086" version="2" timestamp="2010-07-09T05:30:58Z" uid="74617" user="JohnSmith" changeset="5170972">
    <nd ref="110941836"/>
    <nd ref="256537974"/>
    <nd ref="256537975"/>
    <nd ref="256537976"/>
    <nd ref="256537977"/>
    <nd ref="256537326"/>
    <nd ref="256538239"/>
    <nd ref="256538240"/>
    <nd ref="256538241"/>
    <nd ref="256538242"/>
    <nd ref="256538243"/>
    <nd ref="256538244"/>
    <nd ref="256538245"/>
    <nd ref="256538246"/>
    <nd ref="256538247"/>
    <nd ref="256538248"/>
    <tag k="highway" v="residential"/>
    <tag k="maxspeed" v="50"/>
    <tag k="maxspeed:source" v="default residential speed limit in Australia"/>
    <tag k="name" v="Devines Road"/>
  </way>
  <way id="63113086" version="3" timestamp="2010-07-09T05:38:32Z" uid="74617" user="JohnSmith" changeset="5170972">
    <nd ref="110941836"/>
    <nd ref="256537974"/>
    <nd ref="256537975"/>
    <nd ref="256537976"/>
    <nd ref="256537977"/>
    <nd ref="256537326"/>
    <nd ref="256538239"/>
    <nd ref="256538240"/>
    <nd ref="256538241"/>
    <nd ref="256538242"/>
    <nd ref="256538243"/>
    <nd ref="256538244"/>
    <nd ref="256538245"/>
    <nd ref="256538246"/>
    <nd ref="256538247"/>
    <nd ref="256538248"/>
    <tag k="highway" v="residential"/>
    <tag k="maxspeed" v="50"/>
    <tag k="maxspeed:source" v="default residential speed limit in Australia"/>
    <tag k="name" v="Devines Road"/>
  </way>
  <way id="63113086" version="4" timestamp="2012-01-20T10:36:32Z" uid="147510" user="woodpeck_fixbot" changeset="10443754">
    <nd ref="110941836"/>
    <nd ref="256537974"/>
    <nd ref="256537975"/>
    <nd ref="256537976"/>
    <nd ref="256537977"/>
    <nd ref="256537326"/>
    <nd ref="256538239"/>
    <nd ref="256538240"/>
    <nd ref="256538241"/>
    <nd ref="256538242"/>
    <nd ref="256538243"/>
    <nd ref="256538244"/>
    <nd ref="256538245"/>
    <nd ref="256538246"/>
    <nd ref="256538247"/>
    <nd ref="256538248"/>
    <tag k="highway" v="residential"/>
    <tag k="name" v="Devines Road"/>
  </way>
  <way id="63113086" version="5" timestamp="2012-09-03T12:28:15Z" uid="1649" user="Chuq" changeset="12966825">
    <nd ref="110941836"/>
    <nd ref="256537974"/>
    <nd ref="256537975"/>
    <nd ref="256537976"/>
    <nd ref="256537977"/>
    <nd ref="256537326"/>
    <nd ref="256538239"/>
    <nd ref="1896189391"/>
    <nd ref="256538240"/>
    <nd ref="256538241"/>
    <nd ref="256538242"/>
    <nd ref="256538243"/>
    <nd ref="256538244"/>
    <nd ref="256538245"/>
    <nd ref="256538246"/>
    <nd ref="256538247"/>
    <nd ref="256538248"/>
    <tag k="highway" v="residential"/>
    <tag k="name" v="Devines Road"/>
  </way>
</osm>
