<?xml version='1.0' encoding='UTF-8'?>
<osm version="0.6" generator="libosmium/2.20.0">
  <way id="63639305" version="1" timestamp="2010-06-24T15:41:11Z" uid="74617" user="JohnSmith" changeset="5066657">
    <nd ref="528569587"/>
    <nd ref="362392032"/>
    <tag k="attribution" v="Based on data from State of Queensland (Department of Environment and Resource Management) 2009"/>
    <tag k="highway" v="road"/>
    <tag k="operator" v="mainroads.qld.gov.au"/>
    <tag k="source" v="au.qld.dcdb_lite"/>
  </way>
  <way id="63639305" version="2" timestamp="2011-05-04T05:11:41Z" uid="349913" user="Peter W34" changeset="8045676">
    <nd ref="528569587"/>
    <nd ref="362392032"/>
    <tag k="attribution" v="Based on data from State of Queensland (Department of Environment and Resource Management) 2009"/>
    <tag k="highway" v="tertiary"/>
    <tag k="name" v="Meandarra - Condamine Road"/>
    <tag k="operator" v="mainroads.qld.gov.au"/>
    <tag k="ref" v="S74"/>
    <tag k="source" v="au.qld.dcdb_lite"/>
  </way>
  <way id="63639305" version="3" timestamp="2012-02-06T18:13:52Z" uid="147510" user="woodpeck_fixbot" changeset="10603829">
    <nd ref="528569587"/>
    <tag k="attribution" v="Based on data from State of Queensland (Department of Environment and Resource Management) 2009"/>
    <tag k="highway" v="tertiary"/>
    <tag k="name" v="Meandarra - Condamine Road"/>
    <tag k="operator" v="mainroads.qld.gov.au"/>
    <tag k="ref" v="S74"/>
    <tag k="source" v="au.qld.dcdb_lite"/>
  </way>
  <way id="63639305" version="4" timestamp="2012-02-07T19:17:53Z" uid="70696" user="xybot" changeset="10615366"/>
  <way id="63639307" version="1" timestamp="2010-06-24T15:41:11Z" uid="74617" user="JohnSmith" changeset="5066657">
    <nd ref="528569587"/>
    <nd ref="528569585"/>
    <nd ref="528569582"/>
    <nd ref="528569581"/>
    <nd ref="528569580"/>
    <nd ref="528569558"/>
    <nd ref="380460055"/>
    <nd ref="528569555"/>
    <nd ref="528569556"/>
    <nd ref="380460056"/>
    <nd ref="380460057"/>
    <nd ref="380460058"/>
    <nd ref="380454098"/>
    <nd ref="380460059"/>
    <nd ref="380460060"/>
    <nd ref="380460061"/>
    <nd ref="380460062"/>
    <nd ref="380460063"/>
    <tag k="highway" v="unclassified"/>
    <tag k="name" v="Meandarra-Talwood road"/>
    <tag k="operator" v="mainroads.qld.gov.au"/>
  </way>
  <way id="63639307" version="2" timestamp="2011-05-04T05:11:41Z" uid="349913" user="Peter W34" changeset="8045676">
    <nd ref="528569587"/>
    <nd ref="528569585"/>
    <nd ref="528569582"/>
    <nd ref="1271726797"/>
    <nd ref="528569581"/>
    <nd ref="1271726785"/>
    <nd ref="528569580"/>
    <nd ref="1271726868"/>
    <nd ref="528569558"/>
    <nd ref="1271726793"/>
    <nd ref="1271726813"/>
    <nd ref="380460055"/>
    <nd ref="528569555"/>
    <nd ref="528569556"/>
    <tag k="alt_name" v="Meandarra-Talwood road"/>
    <tag k="highway" v="tertiary"/>
    <tag k="name" v="Walton Street"/>
    <tag k="operator" v="mainroads.qld.gov.au"/>
  </way>
  <way id="63639307" version="3" timestamp="2011-05-04T05:29:31Z" uid="349913" user="Peter W34" changeset="8045676">
    <nd ref="528569587"/>
    <nd ref="528569585"/>
    <nd ref="528569582"/>
    <nd ref="1271726797"/>
    <nd ref="528569581"/>
    <nd ref="1271726785"/>
    <nd ref="528569580"/>
    <nd ref="1271726868"/>
    <nd ref="528569558"/>
    <nd ref="1271726793"/>
    <nd ref="1271726813"/>
    <nd ref="380460055"/>
    <nd ref="528569555"/>
    <nd ref="528569556"/>
    <tag k="alt_name" v="Meandarra-Talwood road"/>
    <tag k="highway" v="tertiary"/>
    <tag k="maxspeed" v="50"/>
    <tag k="name" v="Walton Street"/>
    <tag k="operator" v="mainroads.qld.gov.au"/>
  </way>
  <way id="63639307" version="4" timestamp="2012-05-27T08:02:06Z" uid="349913" user="Peter W34" changeset="11713121"/>
</osm>
