<?xml version='1.0' encoding='UTF-8'?>
<osm version="0.6" generator="libosmium/2.20.0">
  <way id="63737023" version="1" timestamp="2010-06-24T19:26:51Z" uid="33382" user="de_muur" changeset="5068671">
    <nd ref="312489367"/>
    <nd ref="420390321"/>
    <nd ref="413488190"/>
    <nd ref="312489368"/>
    <nd ref="413488210"/>
    <nd ref="312489369"/>
    <nd ref="312489370"/>
    <tag k="highway" v="tertiary"/>
    <tag k="name" v="Heideweg"/>
    <tag k="ref" v="K 73"/>
    <tag k="surface" v="paved"/>
  </way>
  <way id="63737023" version="2" timestamp="2010-09-05T12:22:23Z" uid="67837" user="PaulchenPanther" changeset="5687100">
    <nd ref="312489367"/>
    <nd ref="897224509"/>
    <nd ref="420390321"/>
    <nd ref="413488190"/>
    <nd ref="312489368"/>
    <nd ref="413488210"/>
    <nd ref="312489369"/>
    <nd ref="312489370"/>
    <tag k="highway" v="tertiary"/>
    <tag k="name" v="Heideweg"/>
    <tag k="ref" v="K 73"/>
    <tag k="surface" v="paved"/>
  </way>
  <way id="63737023" version="3" timestamp="2011-06-18T11:57:52Z" uid="67837" user="PaulchenPanther" changeset="8472529">
    <nd ref="312489367"/>
    <nd ref="1329542437"/>
    <nd ref="897224509"/>
    <nd ref="420390321"/>
    <nd ref="413488190"/>
    <nd ref="312489368"/>
    <nd ref="413488210"/>
    <nd ref="312489369"/>
    <nd ref="312489370"/>
    <tag k="highway" v="tertiary"/>
    <tag k="name" v="Heideweg"/>
    <tag k="ref" v="K 73"/>
    <tag k="surface" v="paved"/>
  </way>
  <way id="63737025" version="1" timestamp="2010-06-24T19:26:51Z" uid="33382" user="de_muur" changeset="5068671">
    <nd ref="312489370"/>
    <nd ref="413488241"/>
    <nd ref="271395243"/>
    <nd ref="413705757"/>
    <nd ref="413488156"/>
    <tag k="highway" v="secondary"/>
    <tag k="maxspeed" v="50"/>
    <tag k="name" v="Möllner Straße"/>
    <tag k="ref" v="L 200"/>
    <tag k="surface" v="paved"/>
  </way>
  <way id="63737025" version="2" timestamp="2010-12-01T21:29:35Z" uid="166598" user="Moonwalker" changeset="6508886">
    <nd ref="312489370"/>
    <nd ref="1015082220"/>
    <nd ref="413488241"/>
    <nd ref="271395243"/>
    <nd ref="413705757"/>
    <nd ref="413488156"/>
    <tag k="highway" v="secondary"/>
    <tag k="maxspeed" v="50"/>
    <tag k="name" v="Möllner Straße"/>
    <tag k="ref" v="L 200"/>
    <tag k="surface" v="paved"/>
  </way>
  <way id="63737023" version="4" timestamp="2012-04-12T20:32:14Z" uid="63107" user="brogo" changeset="11281017">
    <nd ref="312489367"/>
    <nd ref="1329542437"/>
    <nd ref="897224509"/>
    <nd ref="420390321"/>
    <nd ref="413488190"/>
    <nd ref="312489368"/>
    <nd ref="413488210"/>
    <nd ref="312489369"/>
    <nd ref="1713285236"/>
    <tag k="highway" v="tertiary"/>
    <tag k="name" v="Heideweg"/>
    <tag k="ref" v="K 73"/>
    <tag k="surface" v="paved"/>
  </way>
  <way id="63737023" version="5" timestamp="2012-04-20T18:36:09Z" uid="63107" user="brogo" changeset="11367066"/>
  <way id="63737025" version="3" timestamp="2012-04-12T20:32:35Z" uid="63107" user="brogo" changeset="11281017"/>
</osm>
