<?xml version='1.0' encoding='UTF-8'?>
<osm version="0.6" generator="libosmium/2.20.0">
  <way id="63777929" version="6" timestamp="2010-07-22T04:48:05Z" uid="4467" user="Rosscoe" changeset="5284012">
    <nd ref="26334568"/>
    <nd ref="788389924"/>
    <nd ref="788389928"/>
    <nd ref="788389934"/>
    <nd ref="21478926"/>
    <nd ref="788369234"/>
    <nd ref="788367390"/>
    <nd ref="788367396"/>
    <nd ref="788367402"/>
    <nd ref="26334566"/>
    <nd ref="60979969"/>
    <tag k="highway" v="primary"/>
    <tag k="name" v="Gregory Terrace"/>
    <tag k="oneway" v="yes"/>
  </way>
  <way id="63777929" version="7" timestamp="2010-08-21T02:45:32Z" uid="128470" user="vkungys" changeset="5548721">
    <nd ref="26334568"/>
    <nd ref="788389924"/>
    <nd ref="788389928"/>
    <nd ref="788389934"/>
    <nd ref="21478926"/>
    <nd ref="788369234"/>
    <nd ref="788367390"/>
    <nd ref="788367396"/>
    <nd ref="788367402"/>
    <nd ref="26334566"/>
    <nd ref="60979969"/>
    <tag k="cycleway" v="lane"/>
    <tag k="highway" v="primary"/>
    <tag k="name" v="Gregory Terrace"/>
    <tag k="oneway" v="yes"/>
  </way>
  <way id="63777929" version="8" timestamp="2011-11-08T04:34:26Z" uid="103574" user="El Segundo can&apos;t win" changeset="9770581">
    <nd ref="26334568"/>
    <nd ref="788389924"/>
    <nd ref="788389928"/>
    <nd ref="788389934"/>
    <nd ref="21478926"/>
    <nd ref="788369234"/>
    <nd ref="788367390"/>
    <nd ref="788367396"/>
    <nd ref="788367402"/>
    <nd ref="1495013743"/>
    <nd ref="26334566"/>
    <nd ref="60979969"/>
    <tag k="cycleway" v="lane"/>
    <tag k="highway" v="primary"/>
    <tag k="name" v="Gregory Terrace"/>
    <tag k="oneway" v="yes"/>
  </way>
  <way id="63777929" version="9" timestamp="2012-08-28T13:36:31Z" uid="67896" user="mrpulley" changeset="12892705">
    <nd ref="26334568"/>
    <nd ref="788389924"/>
    <nd ref="788389928"/>
    <nd ref="788389934"/>
    <nd ref="21478926"/>
    <nd ref="788369234"/>
    <nd ref="788367390"/>
    <nd ref="788367396"/>
    <nd ref="788367402"/>
    <nd ref="1495013743"/>
    <nd ref="26334566"/>
    <nd ref="60979969"/>
    <tag k="cycleway" v="lane"/>
    <tag k="highway" v="primary"/>
    <tag k="name" v="Gregory Terrace"/>
    <tag k="network" v="S"/>
    <tag k="oneway" v="yes"/>
    <tag k="ref" v="10"/>
  </way>
</osm>
