<?xml version='1.0' encoding='UTF-8'?>
<osm version="0.6" generator="libosmium/2.20.0">
  <way id="63936250" version="2" timestamp="2010-07-25T14:01:06Z" uid="4467" user="Rosscoe" changeset="5312110">
    <nd ref="789291820"/>
    <nd ref="177850209"/>
    <nd ref="789291817"/>
    <tag k="bridge" v="yes"/>
    <tag k="highway" v="primary"/>
    <tag k="layer" v="1"/>
    <tag k="maxspeed" v="100"/>
    <tag k="name" v="Hamilton Highway"/>
    <tag k="ref" v="B140"/>
  </way>
  <way id="63936250" version="3" timestamp="2012-07-19T05:03:58Z" uid="722137" user="OSMF Redaction Account" changeset="12308832">
    <nd ref="789291820"/>
    <nd ref="177850209"/>
    <nd ref="789291817"/>
    <tag k="bridge" v="yes"/>
    <tag k="highway" v="primary"/>
    <tag k="maxspeed" v="100"/>
    <tag k="name" v="Hamilton Highway"/>
    <tag k="ref" v="B140"/>
  </way>
  <way id="63936250" version="4" timestamp="2012-08-07T14:15:49Z" uid="714293" user="nqndwc" changeset="12646013">
    <nd ref="789291820"/>
    <nd ref="789291817"/>
    <tag k="bridge" v="yes"/>
    <tag k="highway" v="primary"/>
    <tag k="maxspeed" v="100"/>
    <tag k="name" v="Hamilton Highway"/>
    <tag k="ref" v="B140"/>
  </way>
</osm>
