<?xml version='1.0' encoding='UTF-8'?>
<osm version="0.6" generator="libosmium/2.20.0">
  <way id="63995319" version="4" timestamp="2010-07-25T14:01:19Z" uid="4467" user="Rosscoe" changeset="5312110">
    <nd ref="789689588"/>
    <nd ref="789689615"/>
    <tag k="bridge" v="yes"/>
    <tag k="layer" v="1"/>
    <tag k="name" v="Picola Railway"/>
    <tag k="railway" v="abandoned"/>
    <tag k="source" v="nearmap"/>
  </way>
  <way id="63995329" version="4" timestamp="2010-07-25T14:01:21Z" uid="4467" user="Rosscoe" changeset="5312110">
    <nd ref="789691691"/>
    <nd ref="789691696"/>
    <tag k="bridge" v="yes"/>
    <tag k="layer" v="1"/>
    <tag k="name" v="Picola Railway"/>
    <tag k="railway" v="abandoned"/>
    <tag k="source" v="nearmap"/>
  </way>
  <way id="63995347" version="1" timestamp="2010-06-25T11:48:07Z" uid="7617" user="Franc" changeset="5073017">
    <nd ref="789693161"/>
    <nd ref="29800713"/>
    <nd ref="29800714"/>
    <nd ref="29800715"/>
    <tag k="highway" v="residential"/>
    <tag k="name" v="Gibbes Street"/>
    <tag k="source:name" v="survey"/>
  </way>
  <way id="63995347" version="2" timestamp="2010-07-07T22:10:32Z" uid="74617" user="JohnSmith" changeset="5161069">
    <nd ref="789693161"/>
    <nd ref="29800713"/>
    <nd ref="29800714"/>
    <nd ref="29800715"/>
    <tag k="highway" v="residential"/>
    <tag k="maxspeed" v="50"/>
    <tag k="maxspeed:source" v="default residential speed limit in Australia"/>
    <tag k="name" v="Gibbes Street"/>
    <tag k="source:name" v="survey"/>
  </way>
  <way id="63995347" version="3" timestamp="2012-01-20T10:38:00Z" uid="147510" user="woodpeck_fixbot" changeset="10443754">
    <nd ref="789693161"/>
    <nd ref="29800713"/>
    <nd ref="29800714"/>
    <nd ref="29800715"/>
    <tag k="highway" v="residential"/>
    <tag k="name" v="Gibbes Street"/>
    <tag k="source:name" v="survey"/>
  </way>
  <way id="63995348" version="1" timestamp="2010-06-25T11:48:07Z" uid="7617" user="Franc" changeset="5073017">
    <nd ref="789693185"/>
    <nd ref="29800717"/>
    <nd ref="633202036"/>
    <nd ref="29800712"/>
    <nd ref="29800716"/>
    <tag k="highway" v="residential"/>
    <tag k="name" v="Whitehorse Street"/>
    <tag k="oneway" v="yes"/>
    <tag k="restriction" v="school_zone"/>
    <tag k="source:name" v="survey"/>
  </way>
  <way id="63995348" version="2" timestamp="2010-07-07T22:10:16Z" uid="74617" user="JohnSmith" changeset="5161069">
    <nd ref="789693185"/>
    <nd ref="29800717"/>
    <nd ref="633202036"/>
    <nd ref="29800712"/>
    <nd ref="29800716"/>
    <tag k="highway" v="residential"/>
    <tag k="maxspeed" v="50"/>
    <tag k="maxspeed:source" v="default residential speed limit in Australia"/>
    <tag k="name" v="Whitehorse Street"/>
    <tag k="oneway" v="yes"/>
    <tag k="restriction" v="school_zone"/>
    <tag k="source:name" v="survey"/>
  </way>
  <way id="63995348" version="3" timestamp="2012-01-20T10:38:02Z" uid="147510" user="woodpeck_fixbot" changeset="10443754">
    <nd ref="789693185"/>
    <nd ref="29800717"/>
    <nd ref="633202036"/>
    <nd ref="29800712"/>
    <nd ref="29800716"/>
    <tag k="highway" v="residential"/>
    <tag k="name" v="Whitehorse Street"/>
    <tag k="oneway" v="yes"/>
    <tag k="restriction" v="school_zone"/>
    <tag k="source:name" v="survey"/>
  </way>
  <way id="63995349" version="1" timestamp="2010-06-25T11:48:07Z" uid="7617" user="Franc" changeset="5073017">
    <nd ref="789693142"/>
    <nd ref="789693155"/>
    <nd ref="789693157"/>
    <nd ref="789693160"/>
    <nd ref="789693188"/>
    <nd ref="789693189"/>
    <nd ref="789693192"/>
    <nd ref="789693195"/>
    <nd ref="789693164"/>
    <nd ref="789693182"/>
    <nd ref="789693139"/>
    <nd ref="789693122"/>
    <nd ref="789693144"/>
    <nd ref="789693147"/>
    <nd ref="789693127"/>
    <nd ref="789693148"/>
    <nd ref="789693142"/>
    <tag k="amenity" v="school"/>
    <tag k="name" v="Newtown High School of the Performing Arts"/>
    <tag k="source" v="nearmap"/>
  </way>
  <way id="63995349" version="2" timestamp="2011-03-11T10:05:15Z" uid="7617" user="Franc" changeset="7521816">
    <nd ref="789693142"/>
    <nd ref="789693155"/>
    <nd ref="789693157"/>
    <nd ref="789693160"/>
    <nd ref="789693188"/>
    <nd ref="789693189"/>
    <nd ref="789693192"/>
    <nd ref="789693195"/>
    <nd ref="789693164"/>
    <nd ref="789693182"/>
    <nd ref="1196629036"/>
    <nd ref="1196629062"/>
    <nd ref="789693139"/>
    <nd ref="1196629010"/>
    <nd ref="1196628981"/>
    <nd ref="789693122"/>
    <nd ref="789693144"/>
    <nd ref="789693147"/>
    <nd ref="789693127"/>
    <nd ref="789693148"/>
    <nd ref="789693142"/>
    <tag k="amenity" v="school"/>
    <tag k="name" v="Newtown High School of the Performing Arts"/>
    <tag k="source" v="nearmap"/>
  </way>
  <way id="63995319" version="5" timestamp="2012-07-19T09:17:17Z" uid="722137" user="OSMF Redaction Account" changeset="12315688">
    <nd ref="789689588"/>
    <nd ref="789689615"/>
    <tag k="bridge" v="yes"/>
    <tag k="name" v="Picola Railway"/>
    <tag k="railway" v="abandoned"/>
    <tag k="source" v="nearmap"/>
  </way>
  <way id="63995329" version="5" timestamp="2012-07-19T09:17:17Z" uid="722137" user="OSMF Redaction Account" changeset="12315688">
    <nd ref="789691691"/>
    <nd ref="789691696"/>
    <tag k="bridge" v="yes"/>
    <tag k="name" v="Picola Railway"/>
    <tag k="railway" v="abandoned"/>
    <tag k="source" v="nearmap"/>
  </way>
  <way id="63995347" version="4" timestamp="2012-07-20T02:51:44Z" uid="722137" user="OSMF Redaction Account" changeset="12358709"/>
  <way id="63995348" version="4" timestamp="2012-07-20T02:51:47Z" uid="722137" user="OSMF Redaction Account" changeset="12358709"/>
  <way id="63995349" version="3" timestamp="2012-07-20T02:51:46Z" uid="722137" user="OSMF Redaction Account" changeset="12358709"/>
</osm>
