<?xml version='1.0' encoding='UTF-8'?>
<osm version="0.6" generator="libosmium/2.20.0">
  <way id="64535487" version="4" timestamp="2010-07-03T21:22:03Z" uid="4467" user="Rosscoe" changeset="5128149">
    <nd ref="793385314"/>
    <nd ref="797694991"/>
    <nd ref="793385317"/>
    <tag k="foot" v="yes"/>
    <tag k="highway" v="tertiary"/>
    <tag k="name" v="High Street"/>
    <tag k="source" v="walked with GPSr"/>
  </way>
  <way id="64535487" version="5" timestamp="2010-11-08T13:32:32Z" uid="10983" user="Guy" changeset="6320500">
    <nd ref="793385314"/>
    <nd ref="797694991"/>
    <nd ref="793385317"/>
    <tag k="foot" v="yes"/>
    <tag k="highway" v="pedestrian"/>
    <tag k="name" v="High Street"/>
    <tag k="source" v="walked with GPSr"/>
  </way>
  <way id="64535487" version="6" timestamp="2012-07-30T14:15:23Z" uid="51722" user="Chris Parker" changeset="12548739">
    <nd ref="797694991"/>
    <nd ref="793385317"/>
    <tag k="foot" v="yes"/>
    <tag k="highway" v="pedestrian"/>
    <tag k="name" v="High Street"/>
    <tag k="source" v="walked with GPSr"/>
  </way>
</osm>
