<?xml version='1.0' encoding='UTF-8'?>
<osm version="0.6" generator="libosmium/2.20.0">
  <way id="64719172" version="2" timestamp="2010-09-10T15:04:31Z" uid="115477" user="wowik" changeset="5741766">
    <nd ref="309009441"/>
    <nd ref="794211660"/>
    <tag k="highway" v="service"/>
    <tag k="living_street" v="yes"/>
  </way>
  <way id="64719172" version="3" timestamp="2010-09-13T12:17:45Z" uid="241531" user="dik_man" changeset="5769123">
    <nd ref="309009441"/>
    <nd ref="910548390"/>
    <nd ref="794211660"/>
    <tag k="highway" v="service"/>
    <tag k="living_street" v="yes"/>
  </way>
  <way id="64719175" version="2" timestamp="2010-09-10T15:04:31Z" uid="115477" user="wowik" changeset="5741766">
    <nd ref="794211645"/>
    <nd ref="794211667"/>
    <tag k="highway" v="service"/>
    <tag k="living_street" v="yes"/>
  </way>
  <way id="64719175" version="3" timestamp="2011-03-20T15:00:04Z" uid="65083" user="deep125" changeset="7617402">
    <nd ref="794211645"/>
    <nd ref="1210590015"/>
    <nd ref="794211667"/>
    <tag k="highway" v="service"/>
    <tag k="living_street" v="yes"/>
  </way>
  <way id="64719177" version="2" timestamp="2010-09-10T15:04:32Z" uid="115477" user="wowik" changeset="5741766">
    <nd ref="794211643"/>
    <nd ref="794211672"/>
    <tag k="highway" v="service"/>
    <tag k="living_street" v="yes"/>
  </way>
  <way id="64719177" version="3" timestamp="2011-03-20T14:59:48Z" uid="65083" user="deep125" changeset="7617402">
    <nd ref="794211643"/>
    <nd ref="1210590147"/>
    <nd ref="794211672"/>
    <tag k="highway" v="service"/>
    <tag k="living_street" v="yes"/>
  </way>
  <way id="64719685" version="3" timestamp="2011-01-18T12:23:49Z" uid="115477" user="wowik" changeset="7009789">
    <nd ref="794212681"/>
    <nd ref="794212682"/>
    <nd ref="794212683"/>
    <nd ref="1108919654"/>
    <nd ref="1108919985"/>
    <nd ref="794212684"/>
    <nd ref="794212685"/>
    <nd ref="1108920234"/>
    <nd ref="1108919837"/>
    <nd ref="794212681"/>
    <tag k="addr:housenumber" v="921А"/>
    <tag k="addr:street" v="9-й Микрорайон"/>
    <tag k="amenity" v="school"/>
    <tag k="barrier" v="fence"/>
    <tag k="name" v="Школа №719"/>
  </way>
  <way id="64719685" version="4" timestamp="2011-06-07T20:46:07Z" uid="133332" user="AMDmi3" changeset="8374030">
    <nd ref="794212681"/>
    <nd ref="794212682"/>
    <nd ref="794212683"/>
    <nd ref="1108919654"/>
    <nd ref="1108919985"/>
    <nd ref="794212684"/>
    <nd ref="794212685"/>
    <nd ref="1108920234"/>
    <nd ref="1108919837"/>
    <nd ref="794212681"/>
    <tag k="addr:housenumber" v="921А"/>
    <tag k="addr:street" v="9-й микрорайон"/>
    <tag k="amenity" v="school"/>
    <tag k="barrier" v="fence"/>
    <tag k="name" v="Школа №719"/>
  </way>
  <way id="64719685" version="5" timestamp="2012-03-27T11:48:30Z" uid="481934" user="iWowik" changeset="11115472">
    <nd ref="794212681"/>
    <nd ref="794212682"/>
    <nd ref="794212683"/>
    <nd ref="1108919654"/>
    <nd ref="1108919985"/>
    <nd ref="794212684"/>
    <nd ref="794212685"/>
    <nd ref="1108920234"/>
    <nd ref="1108919837"/>
    <nd ref="794212681"/>
    <tag k="addr:city" v="Зеленоград"/>
    <tag k="addr:country" v="RU"/>
    <tag k="addr:housenumber" v="921А"/>
    <tag k="addr:region" v="Москва"/>
    <tag k="addr:street" v="9-й микрорайон"/>
    <tag k="amenity" v="school"/>
    <tag k="barrier" v="fence"/>
    <tag k="name" v="Школа №719"/>
  </way>
  <way id="64719735" version="4" timestamp="2010-07-03T22:18:32Z" uid="4467" user="Rosscoe" changeset="5128573">
    <nd ref="106052015"/>
    <nd ref="106052024"/>
    <nd ref="106052029"/>
    <nd ref="105842068"/>
    <tag k="highway" v="primary"/>
    <tag k="name" v="Bridge Street"/>
    <tag k="name_1" v="State Route 153"/>
    <tag k="name_2" v="United States Highway 322"/>
    <tag k="old_ref_legislative" v="17052 Spur E"/>
    <tag k="ref" v="US 322;153"/>
    <tag k="tiger:cfcc" v="A21"/>
    <tag k="tiger:county" v="Clearfield, PA"/>
    <tag k="tiger:name_base" v="Bridge"/>
    <tag k="tiger:name_base_1" v="State Route 153"/>
    <tag k="tiger:name_base_2" v="United States Highway 322"/>
    <tag k="tiger:name_type" v="St"/>
    <tag k="tiger:reviewed" v="no"/>
    <tag k="tiger:separated" v="no"/>
    <tag k="tiger:source" v="tiger_import_dch_v0.6_20070829"/>
    <tag k="tiger:tlid" v="50477470"/>
    <tag k="tiger:upload_uuid" v="bulk_upload.pl-37718df7-b4e6-4fc4-95bc-cce77aee4298"/>
  </way>
  <way id="64719735" version="5" timestamp="2010-07-21T08:20:57Z" uid="207745" user="NE2" changeset="5276853">
    <nd ref="106052015"/>
    <nd ref="106052024"/>
    <nd ref="106052029"/>
    <nd ref="105842068"/>
    <tag k="highway" v="primary"/>
    <tag k="name" v="Bridge Street"/>
    <tag k="name_1" v="State Route 153"/>
    <tag k="name_2" v="United States Highway 322"/>
    <tag k="old_ref_legislative" v="17052 Spur E"/>
    <tag k="rcn_ref" v="V"/>
    <tag k="ref" v="US 322;153"/>
    <tag k="tiger:cfcc" v="A21"/>
    <tag k="tiger:county" v="Clearfield, PA"/>
    <tag k="tiger:name_base" v="Bridge"/>
    <tag k="tiger:name_base_1" v="State Route 153"/>
    <tag k="tiger:name_base_2" v="United States Highway 322"/>
    <tag k="tiger:name_type" v="St"/>
    <tag k="tiger:reviewed" v="no"/>
    <tag k="tiger:separated" v="no"/>
    <tag k="tiger:source" v="tiger_import_dch_v0.6_20070829"/>
    <tag k="tiger:tlid" v="50477470"/>
    <tag k="tiger:upload_uuid" v="bulk_upload.pl-37718df7-b4e6-4fc4-95bc-cce77aee4298"/>
  </way>
  <way id="64719735" version="6" timestamp="2011-06-03T23:10:37Z" uid="207745" user="NE2" changeset="8334380">
    <nd ref="106052015"/>
    <nd ref="106052024"/>
    <nd ref="106052029"/>
    <nd ref="105842068"/>
    <tag k="highway" v="primary"/>
    <tag k="name" v="Bridge Street"/>
    <tag k="old_ref_legislative" v="17052 Spur E"/>
    <tag k="rcn_ref" v="V"/>
    <tag k="ref" v="US 322;153"/>
    <tag k="tiger:cfcc" v="A21"/>
    <tag k="tiger:county" v="Clearfield, PA"/>
    <tag k="tiger:name_base" v="Bridge"/>
    <tag k="tiger:name_base_1" v="State Route 153"/>
    <tag k="tiger:name_base_2" v="United States Highway 322"/>
    <tag k="tiger:name_type" v="St"/>
    <tag k="tiger:reviewed" v="no"/>
    <tag k="tiger:separated" v="no"/>
    <tag k="tiger:source" v="tiger_import_dch_v0.6_20070829"/>
    <tag k="tiger:tlid" v="50477470"/>
    <tag k="tiger:upload_uuid" v="bulk_upload.pl-37718df7-b4e6-4fc4-95bc-cce77aee4298"/>
  </way>
  <way id="64719735" version="7" timestamp="2011-06-06T00:06:18Z" uid="207745" user="NE2" changeset="8355588">
    <nd ref="106052015"/>
    <nd ref="106052024"/>
    <nd ref="106052029"/>
    <nd ref="105842068"/>
    <tag k="highway" v="primary"/>
    <tag k="name" v="Bridge Street"/>
    <tag k="old_ref_legislative" v="17052 Spur E"/>
    <tag k="rcn_ref" v="V"/>
    <tag k="ref" v="US 322;PA 153"/>
    <tag k="tiger:cfcc" v="A21"/>
    <tag k="tiger:county" v="Clearfield, PA"/>
    <tag k="tiger:name_base" v="Bridge"/>
    <tag k="tiger:name_base_1" v="State Route 153"/>
    <tag k="tiger:name_base_2" v="United States Highway 322"/>
    <tag k="tiger:name_type" v="St"/>
    <tag k="tiger:reviewed" v="no"/>
    <tag k="tiger:separated" v="no"/>
    <tag k="tiger:source" v="tiger_import_dch_v0.6_20070829"/>
    <tag k="tiger:tlid" v="50477470"/>
    <tag k="tiger:upload_uuid" v="bulk_upload.pl-37718df7-b4e6-4fc4-95bc-cce77aee4298"/>
  </way>
  <way id="64719735" version="8" timestamp="2011-07-14T01:55:38Z" uid="473471" user="NE3" changeset="8718021">
    <nd ref="106052015"/>
    <nd ref="106052024"/>
    <nd ref="106052029"/>
    <nd ref="105842068"/>
    <tag k="highway" v="primary"/>
    <tag k="lanes" v="2"/>
    <tag k="name" v="Bridge Street"/>
    <tag k="old_ref_legislative" v="17052 Spur E"/>
    <tag k="rcn_ref" v="V"/>
    <tag k="ref" v="US 322;PA 153"/>
    <tag k="tiger:cfcc" v="A21"/>
    <tag k="tiger:county" v="Clearfield, PA"/>
    <tag k="tiger:name_base" v="Bridge"/>
    <tag k="tiger:name_base_1" v="State Route 153"/>
    <tag k="tiger:name_base_2" v="United States Highway 322"/>
    <tag k="tiger:name_type" v="St"/>
    <tag k="tiger:reviewed" v="no"/>
    <tag k="tiger:separated" v="no"/>
    <tag k="tiger:source" v="tiger_import_dch_v0.6_20070829"/>
    <tag k="tiger:tlid" v="50477470"/>
    <tag k="tiger:upload_uuid" v="bulk_upload.pl-37718df7-b4e6-4fc4-95bc-cce77aee4298"/>
  </way>
  <way id="64719735" version="9" timestamp="2011-12-07T00:53:03Z" uid="207745" user="NE2" changeset="10054668">
    <nd ref="106052015"/>
    <nd ref="106052024"/>
    <nd ref="106052029"/>
    <nd ref="105842068"/>
    <tag k="hgv" v="yes"/>
    <tag k="highway" v="primary"/>
    <tag k="lanes" v="2"/>
    <tag k="name" v="Bridge Street"/>
    <tag k="old_ref_legislative" v="17052 Spur E"/>
    <tag k="rcn_ref" v="V"/>
    <tag k="ref" v="US 322;PA 153"/>
    <tag k="source:hgv" v="PennDOT ftp://ftp.dot.state.pa.us/public/Bureaus/BOMO/MC/Publication411.pdf"/>
    <tag k="tiger:cfcc" v="A21"/>
    <tag k="tiger:county" v="Clearfield, PA"/>
    <tag k="tiger:name_base" v="Bridge"/>
    <tag k="tiger:name_base_1" v="State Route 153"/>
    <tag k="tiger:name_base_2" v="United States Highway 322"/>
    <tag k="tiger:name_type" v="St"/>
    <tag k="tiger:reviewed" v="no"/>
    <tag k="tiger:separated" v="no"/>
    <tag k="tiger:source" v="tiger_import_dch_v0.6_20070829"/>
    <tag k="tiger:tlid" v="50477470"/>
    <tag k="tiger:upload_uuid" v="bulk_upload.pl-37718df7-b4e6-4fc4-95bc-cce77aee4298"/>
  </way>
  <way id="64719735" version="10" timestamp="2012-02-29T07:28:37Z" uid="252811" user="rickmastfan67" changeset="10825437">
    <nd ref="106052015"/>
    <nd ref="105842068"/>
    <tag k="hgv" v="yes"/>
    <tag k="highway" v="primary"/>
    <tag k="lanes" v="2"/>
    <tag k="name" v="Nichols Street"/>
    <tag k="odbl" v="clean"/>
    <tag k="odbl:note" v="The &quot;Declining&quot; user only expanded the original road name (St &gt; Street). It can be considered as a trivial edit, thus the way is clean."/>
    <tag k="old_ref_legislative" v="17052 Spur E"/>
    <tag k="rcn_ref" v="V"/>
    <tag k="ref" v="US 322;PA 153"/>
    <tag k="source:hgv" v="PennDOT ftp://ftp.dot.state.pa.us/public/Bureaus/BOMO/MC/Publication411.pdf"/>
    <tag k="source:name" v="Tiger 2011 Data"/>
    <tag k="tiger:cfcc" v="A21"/>
    <tag k="tiger:county" v="Clearfield, PA"/>
    <tag k="tiger:name_base" v="Bridge"/>
    <tag k="tiger:name_base_1" v="State Route 153"/>
    <tag k="tiger:name_base_2" v="United States Highway 322"/>
    <tag k="tiger:name_type" v="St"/>
    <tag k="tiger:separated" v="no"/>
    <tag k="tiger:source" v="tiger_import_dch_v0.6_20070829"/>
    <tag k="tiger:tlid" v="50477470"/>
    <tag k="tiger:upload_uuid" v="bulk_upload.pl-37718df7-b4e6-4fc4-95bc-cce77aee4298"/>
  </way>
  <way id="64719790" version="2" timestamp="2011-01-17T18:09:06Z" uid="115477" user="wowik" changeset="7002184">
    <nd ref="794214734"/>
    <nd ref="1107864444"/>
    <nd ref="794214743"/>
    <nd ref="1107864569"/>
    <nd ref="1107864492"/>
    <nd ref="794214750"/>
    <nd ref="794214768"/>
    <nd ref="794214784"/>
    <nd ref="794214734"/>
    <tag k="barrier" v="fence"/>
  </way>
  <way id="64719790" version="3" timestamp="2011-02-03T19:23:44Z" uid="115477" user="wowik" changeset="7176892">
    <nd ref="794214734"/>
    <nd ref="1107864444"/>
    <nd ref="794214743"/>
    <nd ref="1107864569"/>
    <nd ref="1107864492"/>
    <nd ref="794214750"/>
    <nd ref="794214768"/>
    <nd ref="794214784"/>
    <nd ref="1134199960"/>
    <nd ref="794214734"/>
    <tag k="barrier" v="fence"/>
  </way>
  <way id="64719790" version="4" timestamp="2012-02-09T18:04:28Z" uid="241531" user="dik_man" changeset="10636323">
    <nd ref="794214734"/>
    <nd ref="1107864444"/>
    <nd ref="794214743"/>
    <nd ref="1107864569"/>
    <nd ref="1107864492"/>
    <nd ref="794214750"/>
    <nd ref="794214768"/>
    <nd ref="794214784"/>
    <nd ref="1134199960"/>
    <nd ref="794214734"/>
    <tag k="amenity" v="kindergarten"/>
    <tag k="barrier" v="fence"/>
  </way>
  <way id="64719791" version="2" timestamp="2011-01-17T18:09:18Z" uid="115477" user="wowik" changeset="7002184">
    <nd ref="794214796"/>
    <nd ref="794214801"/>
    <nd ref="794214804"/>
    <nd ref="794214808"/>
    <nd ref="1107864527"/>
    <nd ref="794214813"/>
    <nd ref="794214796"/>
    <tag k="barrier" v="fence"/>
  </way>
  <way id="64719791" version="3" timestamp="2011-02-03T19:23:41Z" uid="115477" user="wowik" changeset="7176892">
    <nd ref="794214796"/>
    <nd ref="794214801"/>
    <nd ref="794214804"/>
    <nd ref="794214808"/>
    <nd ref="1107864527"/>
    <nd ref="794214813"/>
    <nd ref="1134199957"/>
    <nd ref="794214796"/>
    <tag k="barrier" v="fence"/>
  </way>
  <way id="64719791" version="4" timestamp="2012-02-09T18:04:28Z" uid="241531" user="dik_man" changeset="10636323">
    <nd ref="794214796"/>
    <nd ref="794214801"/>
    <nd ref="794214804"/>
    <nd ref="794214808"/>
    <nd ref="1107864527"/>
    <nd ref="794214813"/>
    <nd ref="1134199957"/>
    <nd ref="794214796"/>
    <tag k="amenity" v="kindergarten"/>
    <tag k="barrier" v="fence"/>
  </way>
  <way id="64719172" version="4" timestamp="2012-07-20T23:48:48Z" uid="722137" user="OSMF Redaction Account" changeset="12396479">
    <nd ref="309009441"/>
    <nd ref="910548390"/>
    <nd ref="794211660"/>
    <tag k="highway" v="service"/>
  </way>
  <way id="64719172" version="5" timestamp="2012-08-05T18:37:01Z" uid="109327" user="OverQuantum" changeset="12624492">
    <nd ref="309009441"/>
    <nd ref="910548390"/>
    <nd ref="794211660"/>
    <tag k="highway" v="residential"/>
  </way>
  <way id="64719175" version="4" timestamp="2012-07-20T23:48:46Z" uid="722137" user="OSMF Redaction Account" changeset="12396479">
    <nd ref="794211645"/>
    <nd ref="1210590015"/>
    <nd ref="794211667"/>
    <tag k="highway" v="service"/>
  </way>
  <way id="64719175" version="5" timestamp="2012-08-05T18:37:01Z" uid="109327" user="OverQuantum" changeset="12624492">
    <nd ref="794211645"/>
    <nd ref="1210590015"/>
    <nd ref="794211667"/>
    <tag k="highway" v="residential"/>
  </way>
  <way id="64719177" version="4" timestamp="2012-07-20T23:48:46Z" uid="722137" user="OSMF Redaction Account" changeset="12396479">
    <nd ref="794211643"/>
    <nd ref="1210590147"/>
    <nd ref="794211672"/>
    <tag k="highway" v="service"/>
  </way>
  <way id="64719177" version="5" timestamp="2012-07-24T08:14:27Z" uid="241531" user="dik_man" changeset="12461558">
    <nd ref="1836236894"/>
    <nd ref="794211643"/>
    <nd ref="1210590147"/>
    <nd ref="794211672"/>
    <tag k="highway" v="service"/>
  </way>
  <way id="64719177" version="6" timestamp="2012-08-05T18:37:03Z" uid="109327" user="OverQuantum" changeset="12624492">
    <nd ref="1836236894"/>
    <nd ref="794211643"/>
    <nd ref="1210590147"/>
    <nd ref="794211672"/>
    <tag k="highway" v="residential"/>
  </way>
  <way id="64719685" version="6" timestamp="2012-07-20T23:48:56Z" uid="722137" user="OSMF Redaction Account" changeset="12396479">
    <nd ref="794212681"/>
    <nd ref="794212682"/>
    <nd ref="794212683"/>
    <nd ref="794212684"/>
    <nd ref="794212685"/>
    <tag k="addr:city" v="Зеленоград"/>
    <tag k="addr:country" v="RU"/>
    <tag k="addr:housenumber" v="921А"/>
    <tag k="addr:region" v="Москва"/>
    <tag k="addr:street" v="9-й микрорайон"/>
    <tag k="amenity" v="school"/>
    <tag k="barrier" v="fence"/>
    <tag k="name" v="Школа №719"/>
  </way>
  <way id="64719685" version="7" timestamp="2012-08-05T18:37:13Z" uid="109327" user="OverQuantum" changeset="12624492">
    <nd ref="794212681"/>
    <nd ref="794212682"/>
    <nd ref="794212683"/>
    <nd ref="794212684"/>
    <nd ref="794212685"/>
    <nd ref="794212681"/>
    <tag k="addr:city" v="Зеленоград"/>
    <tag k="addr:country" v="RU"/>
    <tag k="addr:housenumber" v="921А"/>
    <tag k="addr:region" v="Москва"/>
    <tag k="addr:street" v="9-й микрорайон"/>
    <tag k="amenity" v="school"/>
    <tag k="barrier" v="fence"/>
    <tag k="name" v="Школа №719"/>
  </way>
  <way id="64719790" version="5" timestamp="2012-07-20T23:45:43Z" uid="722137" user="OSMF Redaction Account" changeset="12396430">
    <nd ref="794214734"/>
    <nd ref="794214743"/>
    <nd ref="794214750"/>
    <nd ref="794214768"/>
    <nd ref="794214784"/>
    <nd ref="794214734"/>
    <tag k="amenity" v="kindergarten"/>
    <tag k="barrier" v="fence"/>
  </way>
  <way id="64719791" version="5" timestamp="2012-07-20T23:45:43Z" uid="722137" user="OSMF Redaction Account" changeset="12396430">
    <nd ref="794214796"/>
    <nd ref="794214801"/>
    <nd ref="794214804"/>
    <nd ref="794214808"/>
    <nd ref="794214813"/>
    <nd ref="794214796"/>
    <tag k="amenity" v="kindergarten"/>
    <tag k="barrier" v="fence"/>
  </way>
</osm>
