<?xml version='1.0' encoding='UTF-8'?>
<osm version="0.6" generator="libosmium/2.20.0">
  <way id="64733226" version="1" timestamp="2010-06-28T13:35:28Z" uid="57673" user="Olaf Jan Schmidt" changeset="5097659">
    <nd ref="794306052"/>
    <nd ref="311521536"/>
    <tag k="fixme" v="incomplete"/>
    <tag k="highway" v="residential"/>
    <tag k="name" v="In den Leyen"/>
  </way>
  <way id="64733227" version="1" timestamp="2010-06-28T13:35:28Z" uid="57673" user="Olaf Jan Schmidt" changeset="5097659">
    <nd ref="794306077"/>
    <nd ref="311521525"/>
    <tag k="fixme" v="incomplete"/>
    <tag k="highway" v="residential"/>
  </way>
  <way id="64733227" version="2" timestamp="2011-06-09T11:13:46Z" uid="31310" user="ComPerkins" changeset="8387546">
    <nd ref="794306077"/>
    <nd ref="311521525"/>
    <tag k="fixme" v="incomplete"/>
    <tag k="highway" v="service"/>
  </way>
  <way id="64733256" version="2" timestamp="2010-07-09T05:31:33Z" uid="74617" user="JohnSmith" changeset="5170972">
    <nd ref="794312482"/>
    <nd ref="794312485"/>
    <nd ref="794312488"/>
    <nd ref="794312493"/>
    <tag k="highway" v="residential"/>
    <tag k="maxspeed" v="50"/>
    <tag k="maxspeed:source" v="default residential speed limit in Australia"/>
    <tag k="name" v="McKay Avenue"/>
  </way>
  <way id="64733256" version="3" timestamp="2010-07-09T05:39:06Z" uid="74617" user="JohnSmith" changeset="5170972">
    <nd ref="794312482"/>
    <nd ref="794312485"/>
    <nd ref="794312488"/>
    <nd ref="794312493"/>
    <tag k="highway" v="residential"/>
    <tag k="maxspeed" v="50"/>
    <tag k="maxspeed:source" v="default residential speed limit in Australia"/>
    <tag k="name" v="McKay Avenue"/>
  </way>
  <way id="64733256" version="4" timestamp="2012-01-20T10:44:48Z" uid="147510" user="woodpeck_fixbot" changeset="10443754">
    <nd ref="794312482"/>
    <nd ref="794312485"/>
    <nd ref="794312488"/>
    <nd ref="794312493"/>
    <tag k="highway" v="residential"/>
    <tag k="name" v="McKay Avenue"/>
  </way>
  <way id="64733257" version="2" timestamp="2010-07-09T05:28:14Z" uid="74617" user="JohnSmith" changeset="5170972">
    <nd ref="794312510"/>
    <nd ref="794312522"/>
    <tag k="highway" v="residential"/>
    <tag k="maxspeed" v="50"/>
    <tag k="maxspeed:source" v="default residential speed limit in Australia"/>
    <tag k="name" v="Booth Avenue"/>
  </way>
  <way id="64733257" version="3" timestamp="2010-07-09T05:36:00Z" uid="74617" user="JohnSmith" changeset="5170972">
    <nd ref="794312510"/>
    <nd ref="794312522"/>
    <tag k="highway" v="residential"/>
    <tag k="maxspeed" v="50"/>
    <tag k="maxspeed:source" v="default residential speed limit in Australia"/>
    <tag k="name" v="Booth Avenue"/>
  </way>
  <way id="64733257" version="4" timestamp="2012-01-20T10:44:49Z" uid="147510" user="woodpeck_fixbot" changeset="10443754">
    <nd ref="794312510"/>
    <nd ref="794312522"/>
    <tag k="highway" v="residential"/>
    <tag k="name" v="Booth Avenue"/>
  </way>
  <way id="64733259" version="2" timestamp="2010-07-09T05:33:00Z" uid="74617" user="JohnSmith" changeset="5170972">
    <nd ref="794312642"/>
    <nd ref="794312652"/>
    <nd ref="794312655"/>
    <tag k="highway" v="residential"/>
    <tag k="maxspeed" v="50"/>
    <tag k="maxspeed:source" v="default residential speed limit in Australia"/>
    <tag k="name" v="Innes Street"/>
  </way>
  <way id="64733259" version="3" timestamp="2010-07-09T05:40:26Z" uid="74617" user="JohnSmith" changeset="5170972">
    <nd ref="794312642"/>
    <nd ref="794312652"/>
    <nd ref="794312655"/>
    <tag k="highway" v="residential"/>
    <tag k="maxspeed" v="50"/>
    <tag k="maxspeed:source" v="default residential speed limit in Australia"/>
    <tag k="name" v="Innes Street"/>
  </way>
  <way id="64733259" version="4" timestamp="2012-01-20T10:45:02Z" uid="147510" user="woodpeck_fixbot" changeset="10443754">
    <nd ref="794312642"/>
    <nd ref="794312652"/>
    <nd ref="794312655"/>
    <tag k="highway" v="residential"/>
    <tag k="name" v="Innes Street"/>
  </way>
  <way id="64733260" version="2" timestamp="2010-07-09T05:27:31Z" uid="74617" user="JohnSmith" changeset="5170972">
    <nd ref="794312696"/>
    <nd ref="794312652"/>
    <nd ref="794312700"/>
    <tag k="highway" v="residential"/>
    <tag k="maxspeed" v="50"/>
    <tag k="maxspeed:source" v="default residential speed limit in Australia"/>
    <tag k="name" v="Nichols Street"/>
  </way>
  <way id="64733260" version="3" timestamp="2010-07-09T05:35:25Z" uid="74617" user="JohnSmith" changeset="5170972">
    <nd ref="794312696"/>
    <nd ref="794312652"/>
    <nd ref="794312700"/>
    <tag k="highway" v="residential"/>
    <tag k="maxspeed" v="50"/>
    <tag k="maxspeed:source" v="default residential speed limit in Australia"/>
    <tag k="name" v="Nichols Street"/>
  </way>
  <way id="64733260" version="4" timestamp="2012-01-20T10:45:04Z" uid="147510" user="woodpeck_fixbot" changeset="10443754">
    <nd ref="794312696"/>
    <nd ref="794312652"/>
    <nd ref="794312700"/>
    <tag k="highway" v="residential"/>
    <tag k="name" v="Nichols Street"/>
  </way>
  <way id="64733261" version="2" timestamp="2010-07-09T05:30:09Z" uid="74617" user="JohnSmith" changeset="5170972">
    <nd ref="794312716"/>
    <nd ref="794312720"/>
    <nd ref="794312723"/>
    <tag k="highway" v="residential"/>
    <tag k="maxspeed" v="50"/>
    <tag k="maxspeed:source" v="default residential speed limit in Australia"/>
    <tag k="name" v="Lodge Street"/>
  </way>
  <way id="64733261" version="3" timestamp="2010-07-09T05:37:46Z" uid="74617" user="JohnSmith" changeset="5170972">
    <nd ref="794312716"/>
    <nd ref="794312720"/>
    <nd ref="794312723"/>
    <tag k="highway" v="residential"/>
    <tag k="maxspeed" v="50"/>
    <tag k="maxspeed:source" v="default residential speed limit in Australia"/>
    <tag k="name" v="Lodge Street"/>
  </way>
  <way id="64733261" version="4" timestamp="2011-10-24T04:01:49Z" uid="46482" user="Leon K" changeset="9639964">
    <nd ref="1478658987"/>
    <nd ref="794312720"/>
    <nd ref="794312723"/>
    <tag k="highway" v="residential"/>
    <tag k="maxspeed" v="50"/>
    <tag k="maxspeed:source" v="default residential speed limit in Australia"/>
    <tag k="name" v="Lodge Street"/>
  </way>
  <way id="64733261" version="5" timestamp="2012-01-20T10:45:05Z" uid="147510" user="woodpeck_fixbot" changeset="10443754">
    <nd ref="1478658987"/>
    <nd ref="794312720"/>
    <nd ref="794312723"/>
    <tag k="highway" v="residential"/>
    <tag k="name" v="Lodge Street"/>
  </way>
  <way id="64733262" version="2" timestamp="2010-07-09T05:32:23Z" uid="74617" user="JohnSmith" changeset="5170972">
    <nd ref="794312737"/>
    <nd ref="794312743"/>
    <nd ref="794312747"/>
    <nd ref="794312757"/>
    <tag k="highway" v="residential"/>
    <tag k="maxspeed" v="50"/>
    <tag k="maxspeed:source" v="default residential speed limit in Australia"/>
    <tag k="name" v="Wrights Avenue"/>
  </way>
  <way id="64733262" version="3" timestamp="2010-07-09T05:39:54Z" uid="74617" user="JohnSmith" changeset="5170972">
    <nd ref="794312737"/>
    <nd ref="794312743"/>
    <nd ref="794312747"/>
    <nd ref="794312757"/>
    <tag k="highway" v="residential"/>
    <tag k="maxspeed" v="50"/>
    <tag k="maxspeed:source" v="default residential speed limit in Australia"/>
    <tag k="name" v="Wrights Avenue"/>
  </way>
  <way id="64733262" version="4" timestamp="2011-10-24T04:01:49Z" uid="46482" user="Leon K" changeset="9639964">
    <nd ref="1478658988"/>
    <nd ref="794312743"/>
    <nd ref="794312747"/>
    <nd ref="794312757"/>
    <tag k="highway" v="residential"/>
    <tag k="maxspeed" v="50"/>
    <tag k="maxspeed:source" v="default residential speed limit in Australia"/>
    <tag k="name" v="Wrights Avenue"/>
  </way>
  <way id="64733262" version="5" timestamp="2012-01-20T10:45:06Z" uid="147510" user="woodpeck_fixbot" changeset="10443754">
    <nd ref="1478658988"/>
    <nd ref="794312743"/>
    <nd ref="794312747"/>
    <nd ref="794312757"/>
    <tag k="highway" v="residential"/>
    <tag k="name" v="Wrights Avenue"/>
  </way>
  <way id="64733263" version="2" timestamp="2010-07-09T05:29:12Z" uid="74617" user="JohnSmith" changeset="5170972">
    <nd ref="794312771"/>
    <nd ref="794312510"/>
    <tag k="highway" v="residential"/>
    <tag k="maxspeed" v="50"/>
    <tag k="maxspeed:source" v="default residential speed limit in Australia"/>
    <tag k="name" v="McKay Avenue"/>
  </way>
  <way id="64733263" version="3" timestamp="2010-07-09T05:36:52Z" uid="74617" user="JohnSmith" changeset="5170972">
    <nd ref="794312771"/>
    <nd ref="794312510"/>
    <tag k="highway" v="residential"/>
    <tag k="maxspeed" v="50"/>
    <tag k="maxspeed:source" v="default residential speed limit in Australia"/>
    <tag k="name" v="McKay Avenue"/>
  </way>
  <way id="64733263" version="4" timestamp="2012-01-20T10:45:08Z" uid="147510" user="woodpeck_fixbot" changeset="10443754">
    <nd ref="794312771"/>
    <nd ref="794312510"/>
    <tag k="highway" v="residential"/>
    <tag k="name" v="McKay Avenue"/>
  </way>
  <way id="64733226" version="2" timestamp="2012-07-17T14:47:56Z" uid="722137" user="OSMF Redaction Account" changeset="12267702"/>
  <way id="64733227" version="3" timestamp="2012-07-17T14:47:57Z" uid="722137" user="OSMF Redaction Account" changeset="12267702"/>
  <way id="64733262" version="6" timestamp="2012-08-07T21:52:22Z" uid="388650" user="jokoala" changeset="12651367">
    <nd ref="1478658988"/>
    <nd ref="794312743"/>
    <nd ref="540520021"/>
    <nd ref="794312747"/>
    <nd ref="794312757"/>
    <tag k="highway" v="residential"/>
    <tag k="name" v="Wrights Avenue"/>
  </way>
</osm>
