<?xml version='1.0' encoding='UTF-8'?>
<osm version="0.6" generator="libosmium/2.20.0">
  <way id="65509719" version="1" timestamp="2010-07-03T20:00:01Z" uid="8619" user="cetest" changeset="5127514">
    <nd ref="25038828"/>
    <nd ref="258762531"/>
    <nd ref="799476081"/>
    <nd ref="44640489"/>
    <tag k="highway" v="cycleway"/>
    <tag k="name" v="Zwethpad"/>
    <tag k="oneway" v="no"/>
  </way>
  <way id="65509719" version="2" timestamp="2010-10-19T23:08:12Z" uid="105512" user="datalogg" changeset="6103961">
    <nd ref="25038828"/>
    <nd ref="258762531"/>
    <nd ref="957680332"/>
    <nd ref="799476081"/>
    <nd ref="44640489"/>
    <tag k="highway" v="cycleway"/>
    <tag k="name" v="Zwethpad"/>
    <tag k="oneway" v="no"/>
  </way>
  <way id="65509719" version="3" timestamp="2010-10-24T17:58:38Z" uid="105512" user="datalogg" changeset="6160038">
    <nd ref="25038828"/>
    <nd ref="258762531"/>
    <nd ref="957680332"/>
    <nd ref="799476081"/>
    <nd ref="963670162"/>
    <nd ref="44640489"/>
    <tag k="highway" v="cycleway"/>
    <tag k="name" v="Zwethpad"/>
    <tag k="oneway" v="no"/>
  </way>
  <way id="65509719" version="4" timestamp="2011-09-15T23:55:18Z" uid="191979" user="It&apos;s so funny" changeset="9312639"/>
</osm>
