<?xml version='1.0' encoding='UTF-8'?>
<osm version="0.6" generator="libosmium/2.20.0">
  <way id="6553545" version="2" timestamp="2008-01-27T14:23:33Z" uid="13367" user="nubok" changeset="701321">
    <nd ref="34917413"/>
    <nd ref="36796025"/>
    <nd ref="34917414"/>
    <nd ref="34917415"/>
    <nd ref="34917416"/>
    <nd ref="33531271"/>
    <tag k="created_by" v="Potlatch 0.6c"/>
    <tag k="highway" v="trunk_link"/>
    <tag k="name" v="Abfahrt Albert-Vater-Straße"/>
    <tag k="oneway" v="yes"/>
  </way>
  <way id="6553545" version="3" timestamp="2008-02-02T16:17:42Z" uid="13565" user="hadhuey" changeset="13310">
    <nd ref="34917413"/>
    <nd ref="36796025"/>
    <nd ref="34917414"/>
    <nd ref="34917415"/>
    <nd ref="244994156"/>
    <nd ref="34917416"/>
    <nd ref="33531271"/>
    <tag k="created_by" v="Potlatch 0.6c"/>
    <tag k="highway" v="trunk_link"/>
    <tag k="name" v="Abfahrt Albert-Vater-Straße"/>
    <tag k="oneway" v="yes"/>
  </way>
  <way id="6553545" version="4" timestamp="2008-11-19T19:33:48Z" uid="13565" user="hadhuey" changeset="768172">
    <nd ref="34917413"/>
    <nd ref="313201477"/>
    <nd ref="36796025"/>
    <nd ref="34917414"/>
    <nd ref="34917415"/>
    <nd ref="244994156"/>
    <nd ref="34917416"/>
    <nd ref="33531271"/>
    <tag k="created_by" v="Potlatch 0.10f"/>
    <tag k="highway" v="trunk_link"/>
    <tag k="name" v="Abfahrt Albert-Vater-Straße"/>
    <tag k="oneway" v="yes"/>
  </way>
  <way id="6553545" version="5" timestamp="2009-06-22T19:02:55Z" uid="13565" user="hadhuey" changeset="1596736">
    <nd ref="34917413"/>
    <nd ref="313201477"/>
    <nd ref="36796025"/>
    <nd ref="34917414"/>
    <nd ref="34917415"/>
    <nd ref="244994156"/>
    <nd ref="34917416"/>
    <nd ref="33531271"/>
    <tag k="created_by" v="Potlatch 0.10f"/>
    <tag k="highway" v="trunk_link"/>
    <tag k="oneway" v="yes"/>
  </way>
  <way id="6553545" version="6" timestamp="2012-01-16T20:46:31Z" uid="13565" user="hadhuey" changeset="10411981"/>
  <way id="6553550" version="3" timestamp="2008-07-16T17:28:35Z" uid="13367" user="nubok" changeset="506835">
    <nd ref="33531318"/>
    <nd ref="278983662"/>
    <nd ref="53276435"/>
    <tag k="created_by" v="Potlatch 0.9c"/>
    <tag k="highway" v="residential"/>
    <tag k="lcn" v="yes"/>
    <tag k="name" v="Sternbrücke"/>
  </way>
  <way id="6553550" version="4" timestamp="2008-08-23T18:06:26Z" uid="13565" user="hadhuey" changeset="379118">
    <nd ref="33531318"/>
    <nd ref="278983662"/>
    <nd ref="53276435"/>
    <tag k="created_by" v="Potlatch 0.10b"/>
    <tag k="highway" v="unclassified"/>
    <tag k="lcn" v="yes"/>
    <tag k="name" v="Sternbrücke"/>
  </way>
  <way id="6553550" version="5" timestamp="2008-08-23T18:58:30Z" uid="13565" user="hadhuey" changeset="379118">
    <nd ref="33531318"/>
    <nd ref="290492803"/>
    <nd ref="278983662"/>
    <nd ref="53276435"/>
    <tag k="created_by" v="Potlatch 0.10b"/>
    <tag k="highway" v="unclassified"/>
    <tag k="lcn" v="yes"/>
    <tag k="name" v="Sternbrücke"/>
  </way>
  <way id="6553550" version="6" timestamp="2008-08-23T19:02:20Z" uid="13565" user="hadhuey" changeset="379118">
    <nd ref="33531318"/>
    <nd ref="290492803"/>
    <nd ref="278983662"/>
    <nd ref="53276435"/>
    <tag k="created_by" v="Potlatch 0.10b"/>
    <tag k="highway" v="unclassified"/>
    <tag k="lcn" v="yes"/>
    <tag k="name" v="Sternbrücke"/>
  </way>
  <way id="6553550" version="7" timestamp="2008-10-06T16:32:17Z" uid="42683" user="riechfield" changeset="111710">
    <nd ref="33531318"/>
    <nd ref="290492803"/>
    <nd ref="278983662"/>
    <nd ref="53276435"/>
    <tag k="created_by" v="Potlatch 0.10b"/>
    <tag k="highway" v="unclassified"/>
    <tag k="lcn" v="yes"/>
    <tag k="name" v="Planckstraße"/>
  </way>
  <way id="6553550" version="8" timestamp="2008-10-11T19:08:32Z" uid="13565" user="hadhuey" changeset="256946">
    <nd ref="33531318"/>
    <nd ref="290492803"/>
    <nd ref="278983662"/>
    <nd ref="53276435"/>
    <tag k="created_by" v="Potlatch 0.10d"/>
    <tag k="highway" v="unclassified"/>
    <tag k="lcn" v="yes"/>
    <tag k="name" v="Planckstraße"/>
    <tag k="sidewalk" v="both"/>
  </way>
  <way id="6553550" version="9" timestamp="2009-08-31T20:30:25Z" uid="43566" user="anbr" changeset="2331336">
    <nd ref="33531318"/>
    <nd ref="290492803"/>
    <nd ref="278983662"/>
    <nd ref="53276435"/>
    <tag k="highway" v="unclassified"/>
    <tag k="name" v="Planckstraße"/>
    <tag k="sidewalk" v="both"/>
  </way>
  <way id="6553550" version="10" timestamp="2010-03-08T18:49:36Z" uid="13565" user="hadhuey" changeset="4074479">
    <nd ref="33531318"/>
    <nd ref="290492803"/>
    <nd ref="53276435"/>
    <tag k="highway" v="unclassified"/>
    <tag k="name" v="Planckstraße"/>
    <tag k="sidewalk" v="both"/>
  </way>
  <way id="6553550" version="11" timestamp="2012-08-28T06:43:04Z" uid="13565" user="hadhuey" changeset="12888109">
    <nd ref="33531318"/>
    <nd ref="290492803"/>
    <nd ref="53276435"/>
    <tag k="highway" v="unclassified"/>
    <tag k="maxspeed" v="30"/>
    <tag k="name" v="Planckstraße"/>
    <tag k="sidewalk" v="both"/>
  </way>
  <way id="6553550" version="12" timestamp="2012-08-29T06:18:01Z" uid="13565" user="hadhuey" changeset="12900983">
    <nd ref="33531318"/>
    <nd ref="290492803"/>
    <nd ref="1887816850"/>
    <nd ref="53276435"/>
    <tag k="highway" v="unclassified"/>
    <tag k="maxspeed" v="30"/>
    <tag k="name" v="Planckstraße"/>
    <tag k="sidewalk" v="both"/>
  </way>
  <way id="6553550" version="13" timestamp="2012-09-04T17:38:46Z" uid="13565" user="hadhuey" changeset="12984881">
    <nd ref="33531318"/>
    <nd ref="290492803"/>
    <nd ref="1887816850"/>
    <nd ref="53276435"/>
    <tag k="highway" v="unclassified"/>
    <tag k="maxspeed" v="30"/>
    <tag k="name" v="Planckstraße"/>
    <tag k="sidewalk" v="both"/>
    <tag k="surface" v="asphalt"/>
  </way>
</osm>
