<?xml version='1.0' encoding='UTF-8'?>
<osm version="0.6" generator="libosmium/2.20.0">
  <way id="65883723" version="2" timestamp="2010-07-07T10:32:32Z" uid="74617" user="JohnSmith" changeset="5157498">
    <nd ref="801605163"/>
    <nd ref="801605167"/>
    <nd ref="801605177"/>
    <nd ref="801605182"/>
    <tag k="highway" v="residential"/>
    <tag k="maxspeed" v="50"/>
    <tag k="maxspeed:source" v="default residential speed limit in Australia"/>
    <tag k="name" v="Burton Street"/>
    <tag k="source" v="survey"/>
  </way>
  <way id="65883723" version="3" timestamp="2011-04-09T03:45:01Z" uid="7617" user="Franc" changeset="7809631">
    <nd ref="801605163"/>
    <nd ref="801605167"/>
    <nd ref="801605177"/>
    <nd ref="1238013882"/>
    <nd ref="1238014038"/>
    <nd ref="1238013841"/>
    <nd ref="801605182"/>
    <tag k="highway" v="residential"/>
    <tag k="maxspeed" v="50"/>
    <tag k="maxspeed:source" v="default residential speed limit in Australia"/>
    <tag k="name" v="Burton Street"/>
    <tag k="source" v="survey"/>
  </way>
  <way id="65883723" version="4" timestamp="2012-01-20T10:54:35Z" uid="147510" user="woodpeck_fixbot" changeset="10443754">
    <nd ref="801605163"/>
    <nd ref="801605167"/>
    <nd ref="801605177"/>
    <nd ref="1238013882"/>
    <nd ref="1238014038"/>
    <nd ref="1238013841"/>
    <nd ref="801605182"/>
    <tag k="highway" v="residential"/>
    <tag k="name" v="Burton Street"/>
    <tag k="source" v="survey"/>
  </way>
  <way id="65883725" version="3" timestamp="2010-07-07T10:31:07Z" uid="74617" user="JohnSmith" changeset="5157498">
    <nd ref="801605171"/>
    <nd ref="801605165"/>
    <nd ref="801605166"/>
    <tag k="highway" v="residential"/>
    <tag k="maxspeed" v="50"/>
    <tag k="maxspeed:source" v="default residential speed limit in Australia"/>
    <tag k="name" v="Wallace Street"/>
    <tag k="source" v="survey"/>
  </way>
  <way id="65883725" version="4" timestamp="2011-04-09T03:45:16Z" uid="7617" user="Franc" changeset="7809631">
    <nd ref="801605171"/>
    <nd ref="1238013826"/>
    <nd ref="1238013988"/>
    <nd ref="801605165"/>
    <nd ref="801605166"/>
    <tag k="highway" v="residential"/>
    <tag k="maxspeed" v="50"/>
    <tag k="maxspeed:source" v="default residential speed limit in Australia"/>
    <tag k="name" v="Wallace Street"/>
    <tag k="source" v="survey"/>
  </way>
  <way id="65883725" version="5" timestamp="2012-01-20T10:54:37Z" uid="147510" user="woodpeck_fixbot" changeset="10443754">
    <nd ref="801605171"/>
    <nd ref="1238013826"/>
    <nd ref="1238013988"/>
    <nd ref="801605165"/>
    <nd ref="801605166"/>
    <tag k="highway" v="residential"/>
    <tag k="name" v="Wallace Street"/>
    <tag k="source" v="survey"/>
  </way>
  <way id="65883729" version="2" timestamp="2010-07-07T10:29:59Z" uid="74617" user="JohnSmith" changeset="5157498">
    <nd ref="801605164"/>
    <nd ref="801605182"/>
    <nd ref="801605169"/>
    <nd ref="801605184"/>
    <nd ref="801605180"/>
    <tag k="highway" v="residential"/>
    <tag k="maxspeed" v="50"/>
    <tag k="maxspeed:source" v="default residential speed limit in Australia"/>
    <tag k="name" v="Jaycee Avenue"/>
    <tag k="source" v="survey"/>
  </way>
  <way id="65883729" version="3" timestamp="2011-04-09T03:45:05Z" uid="7617" user="Franc" changeset="7809631">
    <nd ref="801605164"/>
    <nd ref="1238014005"/>
    <nd ref="801605182"/>
    <nd ref="801605169"/>
    <nd ref="801605184"/>
    <nd ref="1238013908"/>
    <nd ref="801605180"/>
    <tag k="highway" v="residential"/>
    <tag k="maxspeed" v="50"/>
    <tag k="maxspeed:source" v="default residential speed limit in Australia"/>
    <tag k="name" v="Jaycee Avenue"/>
    <tag k="source" v="survey"/>
  </way>
  <way id="65883729" version="4" timestamp="2012-01-20T10:54:39Z" uid="147510" user="woodpeck_fixbot" changeset="10443754">
    <nd ref="801605164"/>
    <nd ref="1238014005"/>
    <nd ref="801605182"/>
    <nd ref="801605169"/>
    <nd ref="801605184"/>
    <nd ref="1238013908"/>
    <nd ref="801605180"/>
    <tag k="highway" v="residential"/>
    <tag k="name" v="Jaycee Avenue"/>
    <tag k="source" v="survey"/>
  </way>
  <way id="65883723" version="5" timestamp="2012-07-21T20:15:46Z" uid="722137" user="OSMF Redaction Account" changeset="12419246">
    <nd ref="801605163"/>
    <nd ref="801605167"/>
    <nd ref="801605177"/>
    <nd ref="801605182"/>
    <tag k="highway" v="residential"/>
    <tag k="name" v="Burton Street"/>
    <tag k="source" v="survey"/>
  </way>
  <way id="65883725" version="6" timestamp="2012-07-21T20:15:49Z" uid="722137" user="OSMF Redaction Account" changeset="12419246">
    <nd ref="801605171"/>
    <nd ref="801605165"/>
    <nd ref="801605166"/>
    <tag k="highway" v="residential"/>
    <tag k="name" v="Wallace Street"/>
    <tag k="source" v="survey"/>
  </way>
  <way id="65883729" version="5" timestamp="2012-07-21T20:15:45Z" uid="722137" user="OSMF Redaction Account" changeset="12419246">
    <nd ref="801605164"/>
    <nd ref="801605182"/>
    <nd ref="801605169"/>
    <nd ref="801605184"/>
    <nd ref="801605180"/>
    <tag k="highway" v="residential"/>
    <tag k="name" v="Jaycee Avenue"/>
    <tag k="source" v="survey"/>
  </way>
</osm>
