<?xml version='1.0' encoding='UTF-8'?>
<osm version="0.6" generator="libosmium/2.20.0">
  <way id="6608063" version="3" timestamp="2008-07-03T23:19:29Z" uid="6975" user="ulfl" changeset="386611">
    <nd ref="46727045"/>
    <nd ref="262529569"/>
    <nd ref="46725877"/>
    <nd ref="46726385"/>
    <tag k="highway" v="living_street"/>
    <tag k="name" v="Impostmeester"/>
  </way>
  <way id="6608063" version="4" timestamp="2012-01-30T21:59:43Z" uid="191979" user="It&apos;s so funny" changeset="10544384"/>
  <way id="6608180" version="3" timestamp="2008-07-03T23:19:26Z" uid="6975" user="ulfl" changeset="386611">
    <nd ref="46726385"/>
    <nd ref="46726886"/>
    <tag k="highway" v="living_street"/>
    <tag k="name" v="Rooimeester"/>
  </way>
  <way id="6608181" version="3" timestamp="2008-07-03T23:19:32Z" uid="6975" user="ulfl" changeset="386611">
    <nd ref="46726385"/>
    <nd ref="46726893"/>
    <tag k="highway" v="living_street"/>
    <tag k="name" v="Impostmeester"/>
  </way>
  <way id="6608200" version="3" timestamp="2008-07-03T23:19:24Z" uid="6975" user="ulfl" changeset="386611">
    <nd ref="46726893"/>
    <nd ref="46727199"/>
    <nd ref="46727401"/>
    <tag k="highway" v="living_street"/>
    <tag k="name" v="Impostmeester"/>
  </way>
  <way id="6608200" version="4" timestamp="2012-01-30T21:59:17Z" uid="191979" user="It&apos;s so funny" changeset="10544384">
    <nd ref="46726893"/>
    <nd ref="46727401"/>
    <tag k="highway" v="living_street"/>
    <tag k="name" v="Impostmeester"/>
  </way>
  <way id="6608205" version="3" timestamp="2008-07-03T23:19:15Z" uid="6975" user="ulfl" changeset="386611">
    <nd ref="46726893"/>
    <nd ref="46727420"/>
    <tag k="highway" v="living_street"/>
    <tag k="name" v="Waagmeester"/>
  </way>
  <way id="6608257" version="3" timestamp="2008-07-03T23:19:16Z" uid="6975" user="ulfl" changeset="386611">
    <nd ref="46727045"/>
    <nd ref="46727355"/>
    <nd ref="46728767"/>
    <tag k="highway" v="living_street"/>
    <tag k="name" v="Rekenmeester"/>
  </way>
  <way id="6608257" version="4" timestamp="2012-01-30T21:59:23Z" uid="191979" user="It&apos;s so funny" changeset="10544384">
    <nd ref="46727045"/>
    <nd ref="46728767"/>
    <tag k="highway" v="living_street"/>
    <tag k="name" v="Rekenmeester"/>
  </way>
  <way id="6608273" version="3" timestamp="2008-07-03T23:19:14Z" uid="6975" user="ulfl" changeset="386611">
    <nd ref="46727873"/>
    <nd ref="46729247"/>
    <tag k="highway" v="living_street"/>
    <tag k="name" v="Schotvanger"/>
  </way>
  <way id="6608277" version="3" timestamp="2008-07-03T23:19:22Z" uid="6975" user="ulfl" changeset="386611">
    <nd ref="46725175"/>
    <nd ref="46725231"/>
    <nd ref="46726772"/>
    <tag k="highway" v="living_street"/>
    <tag k="name" v="IJkmeester"/>
  </way>
  <way id="6608277" version="4" timestamp="2009-08-20T18:05:21Z" uid="10044" user="Valentijn" changeset="2215181">
    <nd ref="46725175"/>
    <nd ref="46726772"/>
    <tag k="highway" v="living_street"/>
    <tag k="name" v="IJkmeester"/>
  </way>
  <way id="6608285" version="3" timestamp="2008-07-03T23:19:22Z" uid="6975" user="ulfl" changeset="386611">
    <nd ref="46726886"/>
    <nd ref="46727420"/>
    <tag k="highway" v="living_street"/>
    <tag k="name" v="Kerkmeester"/>
  </way>
  <way id="6608289" version="3" timestamp="2008-07-03T23:19:20Z" uid="6975" user="ulfl" changeset="386611">
    <nd ref="46727210"/>
    <nd ref="46727251"/>
    <nd ref="46727873"/>
    <tag k="highway" v="living_street"/>
    <tag k="name" v="Schotvanger"/>
  </way>
  <way id="6608289" version="4" timestamp="2012-01-30T21:59:24Z" uid="191979" user="It&apos;s so funny" changeset="10544384">
    <nd ref="46727210"/>
    <nd ref="46727873"/>
    <tag k="highway" v="living_street"/>
    <tag k="name" v="Schotvanger"/>
  </way>
  <way id="6608439" version="3" timestamp="2008-07-03T23:19:20Z" uid="6975" user="ulfl" changeset="386611">
    <nd ref="46727420"/>
    <nd ref="46727946"/>
    <tag k="highway" v="living_street"/>
    <tag k="name" v="Kerkmeester"/>
  </way>
  <way id="6608450" version="3" timestamp="2008-07-03T23:19:18Z" uid="6975" user="ulfl" changeset="386611">
    <nd ref="46727210"/>
    <nd ref="46727353"/>
    <nd ref="46728073"/>
    <tag k="highway" v="living_street"/>
    <tag k="name" v="Landmeter"/>
  </way>
  <way id="6608450" version="4" timestamp="2012-01-30T21:59:17Z" uid="191979" user="It&apos;s so funny" changeset="10544384">
    <nd ref="46727210"/>
    <nd ref="46728073"/>
    <tag k="highway" v="living_street"/>
    <tag k="name" v="Landmeter"/>
  </way>
  <way id="6608825" version="3" timestamp="2008-07-03T23:19:32Z" uid="6975" user="ulfl" changeset="386611">
    <nd ref="46726121"/>
    <nd ref="46726856"/>
    <tag k="highway" v="living_street"/>
    <tag k="name" v="Waterrijklaan"/>
  </way>
  <way id="6608825" version="4" timestamp="2009-08-20T18:05:33Z" uid="10044" user="Valentijn" changeset="2215181">
    <nd ref="46726121"/>
    <nd ref="46726856"/>
    <tag k="bridge" v="yes"/>
    <tag k="highway" v="living_street"/>
    <tag k="layer" v="1"/>
    <tag k="name" v="Waterrijklaan"/>
  </way>
  <way id="6608958" version="3" timestamp="2008-07-03T23:19:27Z" uid="6975" user="ulfl" changeset="386611">
    <nd ref="46728073"/>
    <nd ref="46730028"/>
    <nd ref="46730878"/>
    <tag k="highway" v="living_street"/>
    <tag k="name" v="Landmeter"/>
  </way>
  <way id="6608958" version="4" timestamp="2010-03-21T11:56:48Z" uid="249245" user="nibus" changeset="4189916">
    <nd ref="471577988"/>
    <nd ref="46728073"/>
    <nd ref="46730028"/>
    <nd ref="46730878"/>
    <tag k="name" v="Blauwe Ring"/>
    <tag k="natural" v="coastline"/>
  </way>
  <way id="6608958" version="5" timestamp="2010-04-17T19:47:30Z" uid="26230" user="BugBlue" changeset="4451463">
    <nd ref="471577988"/>
    <nd ref="46728073"/>
    <nd ref="46730028"/>
    <nd ref="46730878"/>
    <tag k="highway" v="unclassified"/>
    <tag k="name" v="Blauwe Ring"/>
  </way>
  <way id="6608958" version="6" timestamp="2010-04-18T20:59:54Z" uid="26230" user="BugBlue" changeset="4462930">
    <nd ref="471577988"/>
    <nd ref="46728073"/>
    <tag k="highway" v="unclassified"/>
    <tag k="name" v="Blauwe Ring"/>
  </way>
  <way id="6608180" version="4" timestamp="2012-07-17T04:43:00Z" uid="722137" user="OSMF Redaction Account" changeset="12257039">
    <nd ref="46726385"/>
    <nd ref="46726886"/>
    <tag k="highway" v="unclassified"/>
    <tag k="name" v="Rooimeester"/>
  </way>
  <way id="6608181" version="4" timestamp="2012-07-17T04:43:00Z" uid="722137" user="OSMF Redaction Account" changeset="12257039">
    <nd ref="46726385"/>
    <nd ref="46726893"/>
    <tag k="highway" v="unclassified"/>
    <tag k="name" v="Impostmeester"/>
  </way>
  <way id="6608200" version="5" timestamp="2012-07-17T04:43:08Z" uid="722137" user="OSMF Redaction Account" changeset="12257039"/>
  <way id="6608205" version="4" timestamp="2012-07-17T04:43:01Z" uid="722137" user="OSMF Redaction Account" changeset="12257039">
    <nd ref="46726893"/>
    <nd ref="46727420"/>
    <tag k="highway" v="unclassified"/>
    <tag k="name" v="Waagmeester"/>
  </way>
  <way id="6608257" version="5" timestamp="2012-07-17T04:43:01Z" uid="722137" user="OSMF Redaction Account" changeset="12257039">
    <nd ref="46727045"/>
    <nd ref="46728767"/>
    <tag k="highway" v="unclassified"/>
    <tag k="name" v="Rekenmeester"/>
  </way>
  <way id="6608273" version="4" timestamp="2012-07-17T04:43:01Z" uid="722137" user="OSMF Redaction Account" changeset="12257039">
    <nd ref="46727873"/>
    <nd ref="46729247"/>
    <tag k="highway" v="unclassified"/>
    <tag k="name" v="Schotvanger"/>
  </way>
  <way id="6608277" version="5" timestamp="2012-07-01T15:58:39Z" uid="14498" user="Jan Westerhof" changeset="12077839">
    <nd ref="46725175"/>
    <nd ref="1808953569"/>
    <nd ref="46726772"/>
    <tag k="highway" v="living_street"/>
    <tag k="name" v="IJkmeester"/>
  </way>
  <way id="6608277" version="6" timestamp="2012-07-01T17:06:24Z" uid="14498" user="Jan Westerhof" changeset="12078598">
    <nd ref="46725175"/>
    <nd ref="1808953569"/>
    <nd ref="1809066903"/>
    <nd ref="1809066904"/>
    <nd ref="46726772"/>
    <tag k="highway" v="living_street"/>
    <tag k="name" v="IJkmeester"/>
  </way>
  <way id="6608277" version="7" timestamp="2012-07-17T04:43:00Z" uid="722137" user="OSMF Redaction Account" changeset="12257039">
    <nd ref="46725175"/>
    <nd ref="1808953569"/>
    <nd ref="1809066903"/>
    <nd ref="1809066904"/>
    <nd ref="46726772"/>
    <tag k="highway" v="unclassified"/>
    <tag k="name" v="IJkmeester"/>
  </way>
  <way id="6608285" version="4" timestamp="2012-07-17T04:43:01Z" uid="722137" user="OSMF Redaction Account" changeset="12257039">
    <nd ref="46726886"/>
    <nd ref="46727420"/>
    <tag k="highway" v="unclassified"/>
    <tag k="name" v="Kerkmeester"/>
  </way>
  <way id="6608289" version="5" timestamp="2012-07-17T04:43:01Z" uid="722137" user="OSMF Redaction Account" changeset="12257039">
    <nd ref="46727210"/>
    <nd ref="46727873"/>
    <tag k="highway" v="unclassified"/>
    <tag k="name" v="Schotvanger"/>
  </way>
  <way id="6608439" version="4" timestamp="2012-07-17T04:43:01Z" uid="722137" user="OSMF Redaction Account" changeset="12257039">
    <nd ref="46727420"/>
    <nd ref="46727946"/>
    <tag k="highway" v="unclassified"/>
    <tag k="name" v="Kerkmeester"/>
  </way>
  <way id="6608450" version="5" timestamp="2012-07-17T04:43:01Z" uid="722137" user="OSMF Redaction Account" changeset="12257039">
    <nd ref="46727210"/>
    <nd ref="46728073"/>
    <tag k="highway" v="unclassified"/>
    <tag k="name" v="Landmeter"/>
  </way>
  <way id="6608825" version="5" timestamp="2012-07-17T04:43:00Z" uid="722137" user="OSMF Redaction Account" changeset="12257039">
    <nd ref="46726121"/>
    <nd ref="46726856"/>
    <tag k="bridge" v="yes"/>
    <tag k="highway" v="unclassified"/>
    <tag k="layer" v="1"/>
    <tag k="name" v="Waterrijklaan"/>
  </way>
  <way id="6608958" version="7" timestamp="2012-07-01T17:15:48Z" uid="14498" user="Jan Westerhof" changeset="12078598">
    <nd ref="471577988"/>
    <nd ref="1809076768"/>
    <nd ref="46728073"/>
    <tag k="highway" v="unclassified"/>
    <tag k="name" v="Blauwe Ring"/>
  </way>
  <way id="6608958" version="8" timestamp="2012-07-17T04:43:02Z" uid="722137" user="OSMF Redaction Account" changeset="12257039">
    <nd ref="1809076768"/>
    <nd ref="46728073"/>
    <tag k="highway" v="unclassified"/>
    <tag k="name" v="Landmeter"/>
  </way>
</osm>
