<?xml version='1.0' encoding='UTF-8'?>
<osm version="0.6" generator="libosmium/2.20.0">
  <way id="6667302" version="1" timestamp="2007-09-18T00:24:52Z" uid="8328" user="benpre" changeset="462257">
    <nd ref="30392334"/>
    <nd ref="30392333"/>
    <nd ref="30392336"/>
    <tag k="created_by" v="JOSM"/>
    <tag k="highway" v="primary"/>
    <tag k="name" v="L98"/>
    <tag k="oneway" v="yes"/>
  </way>
  <way id="6667302" version="2" timestamp="2007-10-24T12:21:54Z" uid="11776" user="Marcus Wolschon" changeset="302340">
    <nd ref="30392334"/>
    <nd ref="30392333"/>
    <nd ref="30392336"/>
    <tag k="created_by" v="Potlatch alpha"/>
    <tag k="highway" v="primary"/>
    <tag k="name" v="L98"/>
    <tag k="oneway" v="yes"/>
  </way>
  <way id="6667302" version="3" timestamp="2008-06-15T19:03:09Z" uid="35560" user="HeikoE" changeset="179382">
    <nd ref="30392334"/>
    <nd ref="30392333"/>
    <nd ref="30392336"/>
    <tag k="created_by" v="Potlatch 0.9c"/>
    <tag k="highway" v="primary"/>
    <tag k="oneway" v="yes"/>
    <tag k="ref" v="L 98"/>
  </way>
  <way id="6667302" version="4" timestamp="2008-06-15T19:03:25Z" uid="35560" user="HeikoE" changeset="179382">
    <nd ref="30392334"/>
    <nd ref="30392333"/>
    <tag k="created_by" v="Potlatch 0.9c"/>
    <tag k="highway" v="primary"/>
    <tag k="oneway" v="yes"/>
    <tag k="ref" v="L 98"/>
  </way>
  <way id="6667302" version="5" timestamp="2012-01-24T03:15:55Z" uid="206037" user="hurdygurdyman" changeset="10481035"/>
  <way id="6667306" version="1" timestamp="2007-09-18T00:24:52Z" uid="8328" user="benpre" changeset="462257">
    <nd ref="30392338"/>
    <nd ref="30392332"/>
    <nd ref="30392335"/>
    <tag k="created_by" v="JOSM"/>
    <tag k="highway" v="primary"/>
    <tag k="name" v="L98"/>
    <tag k="oneway" v="yes"/>
  </way>
  <way id="6667306" version="2" timestamp="2007-10-24T12:23:14Z" uid="11776" user="Marcus Wolschon" changeset="302340">
    <nd ref="30392338"/>
    <nd ref="30392332"/>
    <nd ref="30392335"/>
    <tag k="created_by" v="Potlatch alpha"/>
    <tag k="highway" v="primary"/>
    <tag k="name" v="L98"/>
    <tag k="oneway" v="yes"/>
  </way>
  <way id="6667306" version="3" timestamp="2008-06-15T19:02:09Z" uid="35560" user="HeikoE" changeset="179382">
    <nd ref="30392338"/>
    <nd ref="30392332"/>
    <nd ref="30392335"/>
    <tag k="created_by" v="Potlatch 0.9c"/>
    <tag k="highway" v="primary"/>
    <tag k="name" v="L 98"/>
    <tag k="oneway" v="yes"/>
  </way>
  <way id="6667306" version="4" timestamp="2008-06-15T19:03:24Z" uid="35560" user="HeikoE" changeset="179382">
    <nd ref="30392338"/>
    <nd ref="30392332"/>
    <tag k="created_by" v="Potlatch 0.9c"/>
    <tag k="highway" v="primary"/>
    <tag k="name" v="L 98"/>
    <tag k="oneway" v="yes"/>
  </way>
  <way id="6667306" version="5" timestamp="2009-07-11T08:27:50Z" uid="110263" user="werner2101" changeset="1795092">
    <nd ref="30392338"/>
    <nd ref="30392332"/>
    <tag k="highway" v="primary"/>
    <tag k="oneway" v="yes"/>
    <tag k="ref" v="L 98"/>
  </way>
  <way id="6667306" version="6" timestamp="2010-04-30T19:27:35Z" uid="14228" user="KK-O" changeset="4569141">
    <nd ref="30392338"/>
    <nd ref="713843653"/>
    <nd ref="30392332"/>
    <tag k="highway" v="primary"/>
    <tag k="oneway" v="yes"/>
    <tag k="ref" v="L 98"/>
  </way>
  <way id="6667306" version="7" timestamp="2012-01-24T03:15:55Z" uid="206037" user="hurdygurdyman" changeset="10481035"/>
  <way id="6667310" version="1" timestamp="2007-09-18T00:24:53Z" uid="8328" user="benpre" changeset="462257">
    <nd ref="2122927"/>
    <nd ref="2122929"/>
    <nd ref="30360187"/>
    <tag k="created_by" v="JOSM"/>
    <tag k="highway" v="primary"/>
    <tag k="name" v="N353"/>
    <tag k="oneway" v="yes"/>
  </way>
  <way id="6667310" version="2" timestamp="2008-06-15T18:49:45Z" uid="35560" user="HeikoE" changeset="179382">
    <nd ref="2122927"/>
    <nd ref="2122929"/>
    <tag k="created_by" v="Potlatch 0.9c"/>
    <tag k="highway" v="primary"/>
    <tag k="name" v="N353"/>
    <tag k="oneway" v="yes"/>
  </way>
  <way id="6667310" version="3" timestamp="2008-08-05T11:47:24Z" uid="22165" user="Denis_Helfer" changeset="69492">
    <nd ref="2122927"/>
    <nd ref="283606723"/>
    <tag k="created_by" v="Potlatch 0.9c"/>
    <tag k="highway" v="primary"/>
    <tag k="name" v="N353"/>
    <tag k="oneway" v="yes"/>
  </way>
  <way id="6667310" version="4" timestamp="2009-02-17T21:08:06Z" uid="22165" user="Denis_Helfer" changeset="514448">
    <nd ref="2122927"/>
    <nd ref="283606723"/>
    <tag k="created_by" v="Potlatch 0.9c"/>
    <tag k="highway" v="primary"/>
    <tag k="oneway" v="yes"/>
    <tag k="ref" v="N 353"/>
  </way>
  <way id="6667310" version="5" timestamp="2009-07-25T10:55:06Z" uid="12982" user="Michael Schulze" changeset="1933014">
    <nd ref="2122927"/>
    <nd ref="283606723"/>
    <tag k="highway" v="primary"/>
    <tag k="maxspeed" v="70"/>
    <tag k="oneway" v="yes"/>
    <tag k="ref" v="N 353"/>
  </way>
  <way id="6667310" version="6" timestamp="2010-08-03T16:18:58Z" uid="35560" user="HeikoE" changeset="5391315">
    <nd ref="2122927"/>
    <nd ref="283606723"/>
    <tag k="highway" v="primary"/>
    <tag k="maxspeed" v="70"/>
    <tag k="motorroad" v="yes"/>
    <tag k="oneway" v="yes"/>
    <tag k="ref" v="N 353"/>
  </way>
  <way id="6667310" version="7" timestamp="2011-05-21T14:50:38Z" uid="122306" user="srpskicrv" changeset="8207330">
    <nd ref="2122927"/>
    <nd ref="1295013479"/>
    <nd ref="1295013446"/>
    <nd ref="283606723"/>
    <tag k="highway" v="primary"/>
    <tag k="maxspeed" v="70"/>
    <tag k="motorroad" v="yes"/>
    <tag k="oneway" v="yes"/>
    <tag k="ref" v="N 353"/>
  </way>
  <way id="6667310" version="8" timestamp="2011-08-14T21:29:39Z" uid="466374" user="rando67" changeset="9021372">
    <nd ref="2122927"/>
    <nd ref="1295013479"/>
    <nd ref="1295013446"/>
    <nd ref="1399142675"/>
    <nd ref="283606723"/>
    <nd ref="1399142670"/>
    <nd ref="1399142666"/>
    <nd ref="1399142658"/>
    <nd ref="1399142651"/>
    <nd ref="1399142645"/>
    <nd ref="2122932"/>
    <tag k="highway" v="trunk"/>
    <tag k="maxspeed" v="70"/>
    <tag k="motorroad" v="yes"/>
    <tag k="oneway" v="yes"/>
    <tag k="ref" v="N 353"/>
  </way>
  <way id="6667310" version="9" timestamp="2011-08-16T18:01:38Z" uid="466374" user="rando67" changeset="9039291">
    <nd ref="2122927"/>
    <nd ref="1295013479"/>
    <nd ref="1295013446"/>
    <nd ref="1399142675"/>
    <nd ref="283606723"/>
    <nd ref="1399142670"/>
    <nd ref="1399142666"/>
    <nd ref="1399142658"/>
    <nd ref="1399142651"/>
    <nd ref="1399142645"/>
    <nd ref="2122932"/>
    <tag k="highway" v="trunk"/>
    <tag k="maxspeed" v="70"/>
    <tag k="oneway" v="yes"/>
    <tag k="ref" v="N 353"/>
  </way>
  <way id="6667310" version="10" timestamp="2011-09-03T12:15:14Z" uid="122306" user="srpskicrv" changeset="9200235">
    <nd ref="2122927"/>
    <nd ref="1295013479"/>
    <nd ref="1295013446"/>
    <nd ref="1399142675"/>
    <nd ref="283606723"/>
    <nd ref="1399142670"/>
    <nd ref="1399142666"/>
    <nd ref="1399142658"/>
    <nd ref="1399142651"/>
    <nd ref="1421891536"/>
    <nd ref="1399142645"/>
    <nd ref="1421891401"/>
    <nd ref="1421891586"/>
    <nd ref="1421891329"/>
    <nd ref="1421891590"/>
    <nd ref="1421891335"/>
    <nd ref="1421891523"/>
    <nd ref="1276244759"/>
    <tag k="highway" v="trunk"/>
    <tag k="maxspeed" v="70"/>
    <tag k="oneway" v="yes"/>
    <tag k="ref" v="N 353"/>
  </way>
  <way id="6667310" version="11" timestamp="2011-10-14T16:43:02Z" uid="122306" user="srpskicrv" changeset="9557109">
    <nd ref="2122927"/>
    <nd ref="1295013479"/>
    <nd ref="1295013446"/>
    <nd ref="1467354189"/>
    <nd ref="1399142675"/>
    <nd ref="283606723"/>
    <nd ref="1399142670"/>
    <nd ref="1399142666"/>
    <nd ref="1399142658"/>
    <nd ref="1399142651"/>
    <nd ref="1421891536"/>
    <nd ref="1399142645"/>
    <nd ref="1421891401"/>
    <nd ref="1421891586"/>
    <nd ref="1421891329"/>
    <nd ref="1421891590"/>
    <nd ref="1421891335"/>
    <nd ref="1421891523"/>
    <nd ref="1276244759"/>
    <tag k="highway" v="trunk"/>
    <tag k="maxspeed" v="70"/>
    <tag k="oneway" v="yes"/>
    <tag k="ref" v="N 353"/>
  </way>
  <way id="6667310" version="12" timestamp="2011-10-25T16:20:54Z" uid="122306" user="srpskicrv" changeset="9653596">
    <nd ref="2122927"/>
    <nd ref="1295013479"/>
    <nd ref="1295013446"/>
    <nd ref="1467354189"/>
    <nd ref="1399142675"/>
    <nd ref="283606723"/>
    <nd ref="1399142670"/>
    <nd ref="1399142666"/>
    <nd ref="1480256510"/>
    <nd ref="1399142658"/>
    <nd ref="1399142651"/>
    <nd ref="1480256528"/>
    <nd ref="1421891536"/>
    <nd ref="1399142645"/>
    <nd ref="1421891401"/>
    <nd ref="1421891586"/>
    <nd ref="1421891329"/>
    <nd ref="1421891590"/>
    <nd ref="1421891335"/>
    <nd ref="1421891523"/>
    <nd ref="1276244759"/>
    <tag k="highway" v="trunk"/>
    <tag k="maxspeed" v="70"/>
    <tag k="oneway" v="yes"/>
    <tag k="ref" v="N 353"/>
  </way>
</osm>
