<?xml version='1.0' encoding='UTF-8'?>
<osm version="0.6" generator="libosmium/2.20.0">
  <way id="66793018" version="2" timestamp="2010-07-09T03:18:28Z" uid="74617" user="JohnSmith" changeset="5170713">
    <nd ref="618431135"/>
    <nd ref="247400285"/>
    <nd ref="31476310"/>
    <nd ref="31476298"/>
    <nd ref="31424137"/>
    <nd ref="614030372"/>
    <nd ref="614030373"/>
    <nd ref="614030358"/>
    <tag k="highway" v="residential"/>
    <tag k="maxspeed" v="50"/>
    <tag k="maxspeed:source" v="default residential speed limit in Australia"/>
    <tag k="name" v="Haughton Road"/>
  </way>
  <way id="66793018" version="3" timestamp="2012-01-20T10:59:51Z" uid="147510" user="woodpeck_fixbot" changeset="10445120">
    <nd ref="618431135"/>
    <nd ref="247400285"/>
    <nd ref="31476310"/>
    <nd ref="31476298"/>
    <nd ref="31424137"/>
    <nd ref="614030372"/>
    <nd ref="614030373"/>
    <nd ref="614030358"/>
    <tag k="highway" v="residential"/>
    <tag k="name" v="Haughton Road"/>
  </way>
  <way id="66793040" version="2" timestamp="2010-07-09T03:21:19Z" uid="74617" user="JohnSmith" changeset="5170713">
    <nd ref="100845230"/>
    <nd ref="103308036"/>
    <nd ref="752313818"/>
    <nd ref="31424135"/>
    <nd ref="31424136"/>
    <tag k="highway" v="residential"/>
    <tag k="maxspeed" v="50"/>
    <tag k="maxspeed:source" v="default residential speed limit in Australia"/>
    <tag k="name" v="Carlisle Crescent"/>
  </way>
  <way id="66793040" version="3" timestamp="2012-01-20T10:59:52Z" uid="147510" user="woodpeck_fixbot" changeset="10445120">
    <nd ref="100845230"/>
    <nd ref="103308036"/>
    <nd ref="752313818"/>
    <nd ref="31424135"/>
    <nd ref="31424136"/>
    <tag k="highway" v="residential"/>
    <tag k="name" v="Carlisle Crescent"/>
  </way>
  <way id="66793041" version="2" timestamp="2010-07-09T03:23:08Z" uid="74617" user="JohnSmith" changeset="5170713">
    <nd ref="100845230"/>
    <nd ref="100845231"/>
    <tag k="highway" v="residential"/>
    <tag k="maxspeed" v="50"/>
    <tag k="maxspeed:source" v="default residential speed limit in Australia"/>
    <tag k="name" v="Richardson Street"/>
  </way>
  <way id="66793041" version="3" timestamp="2012-01-20T10:59:54Z" uid="147510" user="woodpeck_fixbot" changeset="10445120">
    <nd ref="100845230"/>
    <nd ref="100845231"/>
    <tag k="highway" v="residential"/>
    <tag k="name" v="Richardson Street"/>
  </way>
</osm>
