<?xml version='1.0' encoding='UTF-8'?>
<osm version="0.6" generator="libosmium/2.20.0">
  <way id="66835681" version="1" timestamp="2010-07-09T10:27:35Z" uid="115477" user="wowik" changeset="5172542">
    <nd ref="807758325"/>
    <nd ref="807758329"/>
    <tag k="highway" v="service"/>
    <tag k="living_street" v="yes"/>
  </way>
  <way id="66835683" version="1" timestamp="2010-07-09T10:27:36Z" uid="115477" user="wowik" changeset="5172542">
    <nd ref="807758329"/>
    <nd ref="807758331"/>
    <tag k="highway" v="service"/>
    <tag k="living_street" v="yes"/>
    <tag k="tunnel" v="yes"/>
  </way>
  <way id="66835684" version="1" timestamp="2010-07-09T10:27:36Z" uid="115477" user="wowik" changeset="5172542">
    <nd ref="807758331"/>
    <nd ref="807758334"/>
    <nd ref="807758335"/>
    <nd ref="253155221"/>
    <tag k="highway" v="service"/>
    <tag k="living_street" v="yes"/>
  </way>
  <way id="66835684" version="2" timestamp="2010-07-09T11:00:20Z" uid="115477" user="wowik" changeset="5172721">
    <nd ref="807758331"/>
    <nd ref="807758334"/>
    <nd ref="807786226"/>
    <nd ref="807758335"/>
    <nd ref="253155221"/>
    <tag k="highway" v="service"/>
    <tag k="living_street" v="yes"/>
  </way>
  <way id="66835684" version="3" timestamp="2011-01-30T20:32:08Z" uid="115477" user="wowik" changeset="7139277">
    <nd ref="807758331"/>
    <nd ref="807758334"/>
    <nd ref="807786226"/>
    <nd ref="807758335"/>
    <nd ref="253155221"/>
    <nd ref="1120411439"/>
    <tag k="highway" v="service"/>
    <tag k="living_street" v="yes"/>
  </way>
  <way id="66835684" version="4" timestamp="2011-05-12T16:37:19Z" uid="241531" user="dik_man" changeset="8123960">
    <nd ref="807758331"/>
    <nd ref="807758334"/>
    <nd ref="807786226"/>
    <nd ref="807758335"/>
    <nd ref="253155221"/>
    <nd ref="1120411439"/>
    <tag k="highway" v="service"/>
    <tag k="living_street" v="yes"/>
    <tag k="service" v="alley"/>
  </way>
  <way id="66835685" version="1" timestamp="2010-07-09T10:27:37Z" uid="115477" user="wowik" changeset="5172542">
    <nd ref="807758338"/>
    <nd ref="807758339"/>
    <nd ref="807758340"/>
    <nd ref="807758341"/>
    <tag k="highway" v="service"/>
    <tag k="living_street" v="yes"/>
  </way>
  <way id="66835685" version="2" timestamp="2010-07-09T10:33:39Z" uid="115477" user="wowik" changeset="5172542">
    <nd ref="807763448"/>
    <nd ref="807758339"/>
    <nd ref="807758340"/>
    <nd ref="807758341"/>
    <tag k="highway" v="service"/>
    <tag k="living_street" v="yes"/>
  </way>
  <way id="66835685" version="3" timestamp="2011-05-12T16:37:19Z" uid="241531" user="dik_man" changeset="8123960">
    <nd ref="807763448"/>
    <nd ref="807758339"/>
    <nd ref="807758340"/>
    <nd ref="807758341"/>
    <tag k="highway" v="service"/>
    <tag k="living_street" v="yes"/>
    <tag k="service" v="alley"/>
  </way>
  <way id="66835686" version="1" timestamp="2010-07-09T10:27:37Z" uid="115477" user="wowik" changeset="5172542">
    <nd ref="807758344"/>
    <nd ref="807758345"/>
    <nd ref="807758347"/>
    <nd ref="807758348"/>
    <tag k="addr:postcode" v="124681"/>
    <tag k="cladr:code" v="77000002000417100"/>
    <tag k="cladr:name" v="Крюковская"/>
    <tag k="cladr:suffix" v="Площадь"/>
    <tag k="highway" v="residential"/>
    <tag k="name" v="Крюковская площадь"/>
    <tag k="omkum:code" v="12555"/>
    <tag k="oneway" v="yes"/>
    <tag k="sorting_name" v="Крюковская  площадь"/>
  </way>
  <way id="66835686" version="2" timestamp="2010-07-09T10:28:26Z" uid="115477" user="wowik" changeset="5172542">
    <nd ref="253150369"/>
    <nd ref="338466484"/>
    <nd ref="450141719"/>
    <nd ref="253151729"/>
    <nd ref="807758344"/>
    <nd ref="807758345"/>
    <nd ref="807758347"/>
    <nd ref="807758348"/>
    <nd ref="450141726"/>
    <nd ref="253151725"/>
    <nd ref="253150658"/>
    <tag k="addr:postcode" v="124681"/>
    <tag k="cladr:code" v="77000002000417100"/>
    <tag k="cladr:name" v="Крюковская"/>
    <tag k="cladr:suffix" v="Площадь"/>
    <tag k="highway" v="residential"/>
    <tag k="name" v="Крюковская площадь"/>
    <tag k="omkum:code" v="12555"/>
    <tag k="oneway" v="yes"/>
    <tag k="sorting_name" v="Крюковская  площадь"/>
  </way>
  <way id="66835686" version="3" timestamp="2010-07-29T13:32:03Z" uid="241531" user="dik_man" changeset="5346590">
    <nd ref="253150369"/>
    <nd ref="338466484"/>
    <nd ref="450141719"/>
    <nd ref="253151729"/>
    <nd ref="807758344"/>
    <nd ref="807758345"/>
    <nd ref="807758347"/>
    <nd ref="807758348"/>
    <nd ref="450141726"/>
    <nd ref="253151725"/>
    <nd ref="253150658"/>
    <tag k="addr:postcode" v="124681"/>
    <tag k="cladr:code" v="77000002000417100"/>
    <tag k="cladr:name" v="Крюковская"/>
    <tag k="cladr:suffix" v="Площадь"/>
    <tag k="highway" v="residential"/>
    <tag k="lanes" v="2"/>
    <tag k="name" v="Крюковская площадь"/>
    <tag k="omkum:code" v="12555"/>
    <tag k="oneway" v="yes"/>
    <tag k="sorting_name" v="Крюковская  площадь"/>
  </way>
  <way id="66835686" version="4" timestamp="2010-09-01T12:59:56Z" uid="115477" user="wowik" changeset="5653845">
    <nd ref="253150369"/>
    <nd ref="338466484"/>
    <nd ref="450141719"/>
    <nd ref="891847307"/>
    <nd ref="253151729"/>
    <nd ref="807758344"/>
    <nd ref="807758345"/>
    <nd ref="807758347"/>
    <nd ref="807758348"/>
    <nd ref="450141726"/>
    <nd ref="253151725"/>
    <nd ref="253150658"/>
    <tag k="addr:postcode" v="124681"/>
    <tag k="cladr:code" v="77000002000417100"/>
    <tag k="cladr:name" v="Крюковская"/>
    <tag k="cladr:suffix" v="Площадь"/>
    <tag k="highway" v="residential"/>
    <tag k="lanes" v="2"/>
    <tag k="name" v="Крюковская площадь"/>
    <tag k="omkum:code" v="12555"/>
    <tag k="oneway" v="yes"/>
    <tag k="sorting_name" v="Крюковская  площадь"/>
  </way>
  <way id="66835686" version="5" timestamp="2010-09-01T18:11:04Z" uid="115477" user="wowik" changeset="5655955">
    <nd ref="253150369"/>
    <nd ref="338466484"/>
    <nd ref="450141719"/>
    <nd ref="891847307"/>
    <nd ref="253151729"/>
    <nd ref="807758344"/>
    <nd ref="807758345"/>
    <nd ref="807758347"/>
    <nd ref="807758348"/>
    <nd ref="892289549"/>
    <nd ref="450141726"/>
    <nd ref="253151725"/>
    <nd ref="253150658"/>
    <tag k="addr:postcode" v="124681"/>
    <tag k="cladr:code" v="77000002000417100"/>
    <tag k="cladr:name" v="Крюковская"/>
    <tag k="cladr:suffix" v="Площадь"/>
    <tag k="highway" v="residential"/>
    <tag k="lanes" v="2"/>
    <tag k="name" v="Крюковская площадь"/>
    <tag k="omkum:code" v="12555"/>
    <tag k="oneway" v="yes"/>
    <tag k="sorting_name" v="Крюковская  площадь"/>
  </way>
  <way id="66835686" version="6" timestamp="2010-09-22T05:13:00Z" uid="65083" user="deep125" changeset="5842529">
    <nd ref="253150369"/>
    <nd ref="338466484"/>
    <nd ref="450141719"/>
    <nd ref="891847307"/>
    <nd ref="253151729"/>
    <nd ref="807758344"/>
    <nd ref="807758345"/>
    <nd ref="807758347"/>
    <nd ref="807758348"/>
    <nd ref="892289549"/>
    <tag k="addr:postcode" v="124681"/>
    <tag k="cladr:code" v="77000002000417100"/>
    <tag k="cladr:name" v="Крюковская"/>
    <tag k="cladr:suffix" v="Площадь"/>
    <tag k="highway" v="residential"/>
    <tag k="lanes" v="2"/>
    <tag k="name" v="Крюковская площадь"/>
    <tag k="omkum:code" v="12555"/>
    <tag k="oneway" v="yes"/>
    <tag k="sorting_name" v="Крюковская  площадь"/>
  </way>
  <way id="66835686" version="7" timestamp="2011-01-14T16:42:42Z" uid="115477" user="wowik" changeset="6968851">
    <nd ref="253150369"/>
    <nd ref="338466484"/>
    <nd ref="450141719"/>
    <nd ref="253151729"/>
    <nd ref="807758344"/>
    <nd ref="807758345"/>
    <nd ref="807758347"/>
    <nd ref="807758348"/>
    <nd ref="892289549"/>
    <tag k="addr:postcode" v="124681"/>
    <tag k="cladr:code" v="77000002000417100"/>
    <tag k="cladr:name" v="Крюковская"/>
    <tag k="cladr:suffix" v="Площадь"/>
    <tag k="highway" v="residential"/>
    <tag k="lanes" v="2"/>
    <tag k="name" v="Крюковская площадь"/>
    <tag k="omkum:code" v="12555"/>
    <tag k="oneway" v="yes"/>
    <tag k="sorting_name" v="Крюковская  площадь"/>
  </way>
  <way id="66835686" version="8" timestamp="2011-02-20T18:16:44Z" uid="241531" user="dik_man" changeset="7345343">
    <nd ref="253150369"/>
    <nd ref="338466484"/>
    <nd ref="450141719"/>
    <nd ref="253151729"/>
    <nd ref="807758344"/>
    <nd ref="807758345"/>
    <nd ref="1163854496"/>
    <nd ref="807758347"/>
    <nd ref="1163854499"/>
    <nd ref="807758348"/>
    <nd ref="892289549"/>
    <tag k="addr:postcode" v="124681"/>
    <tag k="cladr:code" v="77000002000417100"/>
    <tag k="cladr:name" v="Крюковская"/>
    <tag k="cladr:suffix" v="Площадь"/>
    <tag k="highway" v="residential"/>
    <tag k="lanes" v="2"/>
    <tag k="name" v="Крюковская площадь"/>
    <tag k="omkum:code" v="12555"/>
    <tag k="oneway" v="yes"/>
    <tag k="sorting_name" v="Крюковская  площадь"/>
  </way>
  <way id="66835686" version="9" timestamp="2011-10-29T08:20:30Z" uid="127100" user="kaa" changeset="9682402">
    <nd ref="253150369"/>
    <nd ref="338466484"/>
    <nd ref="450141719"/>
    <nd ref="253151729"/>
    <nd ref="807758344"/>
    <tag k="addr:postcode" v="124681"/>
    <tag k="cladr:code" v="77000002000417100"/>
    <tag k="cladr:name" v="Крюковская"/>
    <tag k="cladr:suffix" v="Площадь"/>
    <tag k="highway" v="residential"/>
    <tag k="lanes" v="2"/>
    <tag k="name" v="Крюковская площадь"/>
    <tag k="omkum:code" v="12555"/>
    <tag k="oneway" v="yes"/>
    <tag k="sorting_name" v="Крюковская  площадь"/>
  </way>
  <way id="66835686" version="10" timestamp="2011-12-08T06:22:06Z" uid="481934" user="iWowik" changeset="10062852">
    <nd ref="253150369"/>
    <nd ref="338466484"/>
    <nd ref="450141719"/>
    <nd ref="253151729"/>
    <nd ref="1536231317"/>
    <nd ref="807758344"/>
    <tag k="addr:postcode" v="124681"/>
    <tag k="cladr:code" v="77000002000417100"/>
    <tag k="cladr:name" v="Крюковская"/>
    <tag k="cladr:suffix" v="Площадь"/>
    <tag k="highway" v="residential"/>
    <tag k="lanes" v="3"/>
    <tag k="name" v="Крюковская площадь"/>
    <tag k="omkum:code" v="12555"/>
    <tag k="oneway" v="yes"/>
    <tag k="sorting_name" v="Крюковская  площадь"/>
  </way>
  <way id="66835687" version="1" timestamp="2010-07-09T10:27:39Z" uid="115477" user="wowik" changeset="5172542">
    <nd ref="807758360"/>
    <nd ref="807758361"/>
    <nd ref="807758363"/>
    <nd ref="807758366"/>
    <nd ref="807758367"/>
    <tag k="highway" v="service"/>
    <tag k="living_street" v="yes"/>
  </way>
  <way id="66835687" version="2" timestamp="2011-05-12T16:37:19Z" uid="241531" user="dik_man" changeset="8123960">
    <nd ref="807758360"/>
    <nd ref="807758361"/>
    <nd ref="807758363"/>
    <nd ref="807758366"/>
    <nd ref="807758367"/>
    <tag k="highway" v="service"/>
    <tag k="living_street" v="yes"/>
    <tag k="service" v="alley"/>
  </way>
  <way id="66835688" version="1" timestamp="2010-07-09T10:27:39Z" uid="115477" user="wowik" changeset="5172542">
    <nd ref="807758370"/>
    <nd ref="807758372"/>
    <nd ref="807758373"/>
    <nd ref="807758375"/>
    <nd ref="807758376"/>
    <tag k="highway" v="service"/>
    <tag k="living_street" v="yes"/>
  </way>
  <way id="66835688" version="2" timestamp="2010-07-09T10:33:45Z" uid="115477" user="wowik" changeset="5172542">
    <nd ref="807763580"/>
    <nd ref="807758372"/>
    <nd ref="807758373"/>
    <nd ref="807758375"/>
    <nd ref="807758376"/>
    <tag k="highway" v="service"/>
    <tag k="living_street" v="yes"/>
  </way>
  <way id="66835688" version="3" timestamp="2011-05-12T16:37:19Z" uid="241531" user="dik_man" changeset="8123960">
    <nd ref="807763580"/>
    <nd ref="807758372"/>
    <nd ref="807758373"/>
    <nd ref="807758375"/>
    <nd ref="807758376"/>
    <tag k="highway" v="service"/>
    <tag k="living_street" v="yes"/>
    <tag k="service" v="alley"/>
  </way>
  <way id="66835689" version="1" timestamp="2010-07-09T10:27:40Z" uid="115477" user="wowik" changeset="5172542">
    <nd ref="807758373"/>
    <nd ref="807758377"/>
    <nd ref="807758378"/>
    <nd ref="807758379"/>
    <nd ref="807758380"/>
    <tag k="highway" v="service"/>
    <tag k="living_street" v="yes"/>
  </way>
  <way id="66835689" version="2" timestamp="2010-11-11T06:59:45Z" uid="115477" user="wowik" changeset="6341405">
    <nd ref="807758373"/>
    <nd ref="807758377"/>
    <tag k="highway" v="service"/>
    <tag k="living_street" v="yes"/>
  </way>
  <way id="66835690" version="1" timestamp="2010-07-09T10:27:41Z" uid="115477" user="wowik" changeset="5172542">
    <nd ref="807758382"/>
    <nd ref="807758383"/>
    <tag k="highway" v="service"/>
    <tag k="living_street" v="yes"/>
  </way>
  <way id="66835691" version="1" timestamp="2010-07-09T10:27:42Z" uid="115477" user="wowik" changeset="5172542">
    <nd ref="807758363"/>
    <nd ref="807758393"/>
    <nd ref="807758395"/>
    <nd ref="807758396"/>
    <nd ref="807758398"/>
    <nd ref="807758399"/>
    <nd ref="807758325"/>
    <nd ref="807758401"/>
    <nd ref="807758403"/>
    <nd ref="807758405"/>
    <nd ref="807758407"/>
    <nd ref="807758408"/>
    <nd ref="807758334"/>
    <nd ref="807758409"/>
    <nd ref="807758411"/>
    <nd ref="807758412"/>
    <nd ref="807758413"/>
    <nd ref="807758415"/>
    <nd ref="807758393"/>
    <tag k="highway" v="service"/>
    <tag k="living_street" v="yes"/>
  </way>
  <way id="66835691" version="2" timestamp="2011-05-12T16:37:19Z" uid="241531" user="dik_man" changeset="8123960">
    <nd ref="807758363"/>
    <nd ref="807758393"/>
    <nd ref="807758395"/>
    <nd ref="807758396"/>
    <nd ref="807758398"/>
    <nd ref="807758399"/>
    <nd ref="807758325"/>
    <nd ref="807758401"/>
    <nd ref="807758403"/>
    <nd ref="807758405"/>
    <nd ref="807758407"/>
    <nd ref="807758408"/>
    <nd ref="807758334"/>
    <nd ref="807758409"/>
    <nd ref="807758411"/>
    <nd ref="807758412"/>
    <nd ref="807758413"/>
    <nd ref="807758415"/>
    <nd ref="807758393"/>
    <tag k="highway" v="service"/>
    <tag k="living_street" v="yes"/>
    <tag k="service" v="alley"/>
  </way>
  <way id="66835692" version="1" timestamp="2010-07-09T10:27:46Z" uid="115477" user="wowik" changeset="5172542">
    <nd ref="807758429"/>
    <nd ref="807758436"/>
    <tag k="highway" v="service"/>
    <tag k="living_street" v="yes"/>
  </way>
  <way id="66835692" version="2" timestamp="2011-05-12T16:37:19Z" uid="241531" user="dik_man" changeset="8123960">
    <nd ref="807758429"/>
    <nd ref="807758436"/>
    <tag k="highway" v="service"/>
    <tag k="living_street" v="yes"/>
    <tag k="service" v="alley"/>
  </way>
  <way id="66835693" version="1" timestamp="2010-07-09T10:27:46Z" uid="115477" user="wowik" changeset="5172542">
    <nd ref="807758383"/>
    <nd ref="807758360"/>
    <tag k="highway" v="service"/>
    <tag k="living_street" v="yes"/>
    <tag k="tunnel" v="yes"/>
  </way>
  <way id="66835694" version="1" timestamp="2010-07-09T10:27:48Z" uid="115477" user="wowik" changeset="5172542">
    <nd ref="807758447"/>
    <nd ref="807758448"/>
    <nd ref="807758450"/>
    <nd ref="807758451"/>
    <nd ref="807758447"/>
    <tag k="addr:city" v="Зеленоград"/>
    <tag k="addr:street" v="8-й Микрорайон"/>
    <tag k="building" v="yes"/>
    <tag k="is_in" v="Russia"/>
  </way>
  <way id="66835694" version="2" timestamp="2010-11-11T06:53:36Z" uid="115477" user="wowik" changeset="6341405">
    <nd ref="807758447"/>
    <nd ref="807758448"/>
    <nd ref="807758450"/>
    <nd ref="807758451"/>
    <nd ref="807758447"/>
    <tag k="addr:city" v="Зеленоград"/>
    <tag k="addr:housenumber" v="841c1"/>
    <tag k="addr:street" v="8-й Микрорайон"/>
    <tag k="building" v="yes"/>
    <tag k="is_in" v="Russia"/>
  </way>
  <way id="66835694" version="3" timestamp="2010-11-22T02:03:24Z" uid="133332" user="AMDmi3" changeset="6428552">
    <nd ref="807758447"/>
    <nd ref="807758448"/>
    <nd ref="807758450"/>
    <nd ref="807758451"/>
    <nd ref="807758447"/>
    <tag k="addr:city" v="Зеленоград"/>
    <tag k="addr:housenumber" v="841с1"/>
    <tag k="addr:street" v="8-й Микрорайон"/>
    <tag k="building" v="yes"/>
    <tag k="is_in" v="Russia"/>
  </way>
  <way id="66835694" version="4" timestamp="2011-01-19T16:57:20Z" uid="70696" user="xybot" changeset="7021015">
    <nd ref="807758447"/>
    <nd ref="807758448"/>
    <nd ref="807758450"/>
    <nd ref="807758451"/>
    <nd ref="807758447"/>
    <tag k="addr:city" v="Зеленоград"/>
    <tag k="addr:housenumber" v="841 с1"/>
    <tag k="addr:street" v="8-й Микрорайон"/>
    <tag k="building" v="yes"/>
    <tag k="is_in" v="Russia"/>
  </way>
  <way id="66835694" version="5" timestamp="2011-06-07T20:45:49Z" uid="133332" user="AMDmi3" changeset="8374030">
    <nd ref="807758447"/>
    <nd ref="807758448"/>
    <nd ref="807758450"/>
    <nd ref="807758451"/>
    <nd ref="807758447"/>
    <tag k="addr:city" v="Зеленоград"/>
    <tag k="addr:housenumber" v="841 с1"/>
    <tag k="addr:street" v="8-й микрорайон"/>
    <tag k="building" v="yes"/>
    <tag k="is_in" v="Russia"/>
  </way>
  <way id="66835694" version="6" timestamp="2011-09-13T10:28:59Z" uid="29320" user="Komяpa" changeset="9288237">
    <nd ref="807758447"/>
    <nd ref="807758448"/>
    <nd ref="807758450"/>
    <nd ref="807758451"/>
    <nd ref="807758447"/>
    <tag k="addr:city" v="Зеленоград"/>
    <tag k="addr:country" v="RU"/>
    <tag k="addr:housenumber" v="841 с1"/>
    <tag k="addr:street" v="8-й микрорайон"/>
    <tag k="building" v="yes"/>
  </way>
  <way id="66835694" version="7" timestamp="2012-03-27T11:46:38Z" uid="481934" user="iWowik" changeset="11115472">
    <nd ref="807758447"/>
    <nd ref="807758448"/>
    <nd ref="807758450"/>
    <nd ref="807758451"/>
    <nd ref="807758447"/>
    <tag k="addr:city" v="Зеленоград"/>
    <tag k="addr:country" v="RU"/>
    <tag k="addr:housenumber" v="841 с1"/>
    <tag k="addr:region" v="Москва"/>
    <tag k="addr:street" v="8-й микрорайон"/>
    <tag k="building" v="yes"/>
  </way>
  <way id="66835695" version="1" timestamp="2010-07-09T10:27:49Z" uid="115477" user="wowik" changeset="5172542">
    <nd ref="807758361"/>
    <nd ref="807758361"/>
    <nd ref="807758456"/>
    <nd ref="807758458"/>
    <nd ref="807758460"/>
    <nd ref="807758429"/>
    <nd ref="807758461"/>
    <nd ref="807758463"/>
    <nd ref="807758382"/>
    <nd ref="807758464"/>
    <nd ref="807758466"/>
    <nd ref="807758341"/>
    <nd ref="807758379"/>
    <tag k="highway" v="service"/>
    <tag k="living_street" v="yes"/>
  </way>
  <way id="66835695" version="2" timestamp="2010-07-09T19:11:04Z" uid="70696" user="xybot" changeset="5175994">
    <nd ref="807758361"/>
    <nd ref="807758456"/>
    <nd ref="807758458"/>
    <nd ref="807758460"/>
    <nd ref="807758429"/>
    <nd ref="807758461"/>
    <nd ref="807758463"/>
    <nd ref="807758382"/>
    <nd ref="807758464"/>
    <nd ref="807758466"/>
    <nd ref="807758341"/>
    <nd ref="807758379"/>
    <tag k="highway" v="service"/>
    <tag k="living_street" v="yes"/>
  </way>
  <way id="66835695" version="3" timestamp="2011-05-12T16:37:20Z" uid="241531" user="dik_man" changeset="8123960">
    <nd ref="807758361"/>
    <nd ref="807758456"/>
    <nd ref="807758458"/>
    <nd ref="807758460"/>
    <nd ref="807758429"/>
    <nd ref="807758461"/>
    <nd ref="807758463"/>
    <nd ref="807758382"/>
    <nd ref="807758464"/>
    <nd ref="807758466"/>
    <nd ref="807758341"/>
    <nd ref="807758379"/>
    <tag k="highway" v="service"/>
    <tag k="living_street" v="yes"/>
    <tag k="service" v="alley"/>
  </way>
  <way id="66835721" version="1" timestamp="2010-07-09T10:28:27Z" uid="115477" user="wowik" changeset="5172542">
    <nd ref="807758344"/>
    <nd ref="253151728"/>
    <nd ref="253151727"/>
    <nd ref="253151726"/>
    <nd ref="807758348"/>
    <tag k="addr:postcode" v="124681"/>
    <tag k="cladr:code" v="77000002000417100"/>
    <tag k="cladr:name" v="Крюковская"/>
    <tag k="cladr:suffix" v="Площадь"/>
    <tag k="highway" v="residential"/>
    <tag k="name" v="Крюковская площадь"/>
    <tag k="omkum:code" v="12555"/>
    <tag k="oneway" v="yes"/>
    <tag k="sorting_name" v="Крюковская  площадь"/>
  </way>
  <way id="66835721" version="2" timestamp="2010-09-02T10:48:11Z" uid="115477" user="wowik" changeset="5661105">
    <nd ref="807758344"/>
    <nd ref="253151728"/>
    <nd ref="253151727"/>
    <nd ref="253151726"/>
    <nd ref="807758348"/>
    <tag k="addr:postcode" v="124681"/>
    <tag k="cladr:code" v="77000002000417100"/>
    <tag k="cladr:name" v="Крюковская"/>
    <tag k="cladr:suffix" v="Площадь"/>
    <tag k="highway" v="residential"/>
    <tag k="lanes" v="2"/>
    <tag k="name" v="Крюковская площадь"/>
    <tag k="omkum:code" v="12555"/>
    <tag k="oneway" v="yes"/>
    <tag k="sorting_name" v="Крюковская  площадь"/>
  </way>
  <way id="66835721" version="3" timestamp="2011-02-20T18:23:59Z" uid="241531" user="dik_man" changeset="7345343">
    <nd ref="807758344"/>
    <nd ref="253151728"/>
    <nd ref="1163863114"/>
    <nd ref="253151727"/>
    <nd ref="1163863111"/>
    <nd ref="253151726"/>
    <nd ref="807758348"/>
    <tag k="addr:postcode" v="124681"/>
    <tag k="cladr:code" v="77000002000417100"/>
    <tag k="cladr:name" v="Крюковская"/>
    <tag k="cladr:suffix" v="Площадь"/>
    <tag k="highway" v="residential"/>
    <tag k="lanes" v="2"/>
    <tag k="name" v="Крюковская площадь"/>
    <tag k="omkum:code" v="12555"/>
    <tag k="oneway" v="yes"/>
    <tag k="sorting_name" v="Крюковская  площадь"/>
  </way>
  <way id="66835721" version="4" timestamp="2011-10-29T08:20:30Z" uid="127100" user="kaa" changeset="9682402">
    <nd ref="807758344"/>
    <nd ref="253151728"/>
    <nd ref="1163863114"/>
    <nd ref="253151727"/>
    <tag k="addr:postcode" v="124681"/>
    <tag k="cladr:code" v="77000002000417100"/>
    <tag k="cladr:name" v="Крюковская"/>
    <tag k="cladr:suffix" v="Площадь"/>
    <tag k="highway" v="residential"/>
    <tag k="lanes" v="2"/>
    <tag k="name" v="Крюковская площадь"/>
    <tag k="omkum:code" v="12555"/>
    <tag k="oneway" v="yes"/>
    <tag k="sorting_name" v="Крюковская  площадь"/>
  </way>
  <way id="66835721" version="5" timestamp="2011-10-29T11:31:31Z" uid="127100" user="kaa" changeset="9683827">
    <nd ref="807758344"/>
    <nd ref="253151728"/>
    <nd ref="1163863114"/>
    <tag k="addr:postcode" v="124681"/>
    <tag k="cladr:code" v="77000002000417100"/>
    <tag k="cladr:name" v="Крюковская"/>
    <tag k="cladr:suffix" v="Площадь"/>
    <tag k="highway" v="residential"/>
    <tag k="lanes" v="2"/>
    <tag k="name" v="Крюковская площадь"/>
    <tag k="omkum:code" v="12555"/>
    <tag k="oneway" v="yes"/>
    <tag k="sorting_name" v="Крюковская  площадь"/>
  </way>
  <way id="66835721" version="6" timestamp="2011-12-08T06:22:04Z" uid="481934" user="iWowik" changeset="10062852">
    <nd ref="807758344"/>
    <nd ref="253151728"/>
    <nd ref="892668505"/>
    <tag k="addr:postcode" v="124681"/>
    <tag k="cladr:code" v="77000002000417100"/>
    <tag k="cladr:name" v="Крюковская"/>
    <tag k="cladr:suffix" v="Площадь"/>
    <tag k="highway" v="residential"/>
    <tag k="lanes" v="3"/>
    <tag k="name" v="Крюковская площадь"/>
    <tag k="omkum:code" v="12555"/>
    <tag k="oneway" v="yes"/>
    <tag k="sorting_name" v="Крюковская  площадь"/>
  </way>
  <way id="66835721" version="7" timestamp="2011-12-08T06:23:24Z" uid="481934" user="iWowik" changeset="10062852">
    <nd ref="807758344"/>
    <nd ref="253151728"/>
    <nd ref="1536232131"/>
    <nd ref="892668505"/>
    <tag k="addr:postcode" v="124681"/>
    <tag k="cladr:code" v="77000002000417100"/>
    <tag k="cladr:name" v="Крюковская"/>
    <tag k="cladr:suffix" v="Площадь"/>
    <tag k="highway" v="residential"/>
    <tag k="lanes" v="3"/>
    <tag k="name" v="Крюковская площадь"/>
    <tag k="omkum:code" v="12555"/>
    <tag k="oneway" v="yes"/>
    <tag k="sorting_name" v="Крюковская  площадь"/>
  </way>
  <way id="66835681" version="2" timestamp="2012-07-20T23:56:33Z" uid="722137" user="OSMF Redaction Account" changeset="12396619"/>
  <way id="66835683" version="2" timestamp="2012-07-20T23:56:33Z" uid="722137" user="OSMF Redaction Account" changeset="12396619"/>
  <way id="66835684" version="5" timestamp="2012-07-20T23:56:33Z" uid="722137" user="OSMF Redaction Account" changeset="12396619"/>
  <way id="66835685" version="4" timestamp="2012-07-20T23:56:46Z" uid="722137" user="OSMF Redaction Account" changeset="12396619"/>
  <way id="66835686" version="11" timestamp="2012-07-20T23:56:55Z" uid="722137" user="OSMF Redaction Account" changeset="12396619"/>
  <way id="66835687" version="3" timestamp="2012-07-20T23:56:37Z" uid="722137" user="OSMF Redaction Account" changeset="12396619"/>
  <way id="66835688" version="4" timestamp="2012-07-20T23:56:46Z" uid="722137" user="OSMF Redaction Account" changeset="12396619"/>
  <way id="66835689" version="3" timestamp="2012-07-20T23:56:41Z" uid="722137" user="OSMF Redaction Account" changeset="12396619"/>
  <way id="66835690" version="2" timestamp="2012-07-20T23:56:38Z" uid="722137" user="OSMF Redaction Account" changeset="12396619"/>
  <way id="66835691" version="3" timestamp="2012-06-16T06:45:42Z" uid="241531" user="dik_man" changeset="11911181">
    <nd ref="807758363"/>
    <nd ref="807758393"/>
    <nd ref="807758395"/>
    <nd ref="807758396"/>
    <nd ref="1789596776"/>
    <nd ref="807758398"/>
    <nd ref="807758399"/>
    <nd ref="807758325"/>
    <nd ref="807758401"/>
    <nd ref="1789596832"/>
    <nd ref="807758403"/>
    <nd ref="807758405"/>
    <nd ref="1789596791"/>
    <nd ref="807758407"/>
    <nd ref="807758408"/>
    <nd ref="807758334"/>
    <nd ref="807758409"/>
    <nd ref="807758411"/>
    <nd ref="807758412"/>
    <nd ref="807758413"/>
    <nd ref="807758415"/>
    <nd ref="807758393"/>
    <tag k="highway" v="service"/>
    <tag k="living_street" v="yes"/>
    <tag k="service" v="alley"/>
  </way>
  <way id="66835691" version="4" timestamp="2012-07-20T23:46:03Z" uid="722137" user="OSMF Redaction Account" changeset="12396430">
    <nd ref="1789596776"/>
    <nd ref="1789596832"/>
    <nd ref="1789596791"/>
    <tag k="service" v="alley"/>
  </way>
  <way id="66835691" version="5" timestamp="2012-07-24T08:14:41Z" uid="241531" user="dik_man" changeset="12461558"/>
  <way id="66835692" version="3" timestamp="2012-07-20T23:56:42Z" uid="722137" user="OSMF Redaction Account" changeset="12396619"/>
  <way id="66835693" version="2" timestamp="2012-07-20T23:56:38Z" uid="722137" user="OSMF Redaction Account" changeset="12396619"/>
  <way id="66835694" version="8" timestamp="2012-07-20T23:56:31Z" uid="722137" user="OSMF Redaction Account" changeset="12396619"/>
  <way id="66835695" version="4" timestamp="2012-07-20T23:56:37Z" uid="722137" user="OSMF Redaction Account" changeset="12396619"/>
  <way id="66835721" version="8" timestamp="2012-07-20T23:48:16Z" uid="722137" user="OSMF Redaction Account" changeset="12396479">
    <nd ref="1536232131"/>
    <nd ref="892668505"/>
    <tag k="lanes" v="3"/>
  </way>
</osm>
