<?xml version='1.0' encoding='UTF-8'?>
<osm version="0.6" generator="libosmium/2.20.0">
  <way id="66941344" version="2" timestamp="2010-07-16T04:08:06Z" uid="4467" user="Rosscoe" changeset="5231873">
    <nd ref="808608184"/>
    <nd ref="808608155"/>
    <nd ref="346182977"/>
    <nd ref="808608179"/>
    <nd ref="808608184"/>
    <tag k="highway" v="tertiary"/>
    <tag k="junction" v="roundabout"/>
  </way>
  <way id="66941584" version="2" timestamp="2010-07-18T02:28:56Z" uid="4467" user="Rosscoe" changeset="5247526">
    <nd ref="808619162"/>
    <nd ref="808619151"/>
    <nd ref="808619145"/>
    <nd ref="808619135"/>
    <nd ref="808619119"/>
    <nd ref="808619045"/>
    <tag k="highway" v="residential"/>
    <tag k="oneway" v="yes"/>
  </way>
  <way id="66941725" version="1" timestamp="2010-07-09T20:40:38Z" uid="33382" user="de_muur" changeset="5176909">
    <nd ref="309678113"/>
    <nd ref="496199405"/>
    <tag k="highway" v="secondary"/>
    <tag k="name" v="Gudower Straße"/>
    <tag k="ref" v="L 205"/>
    <tag k="surface" v="paved"/>
  </way>
  <way id="66941725" version="2" timestamp="2011-04-30T06:45:06Z" uid="33382" user="de_muur" changeset="8008989">
    <nd ref="309678113"/>
    <nd ref="496199268"/>
    <tag k="highway" v="secondary"/>
    <tag k="name" v="Gudower Straße"/>
    <tag k="ref" v="L 205"/>
    <tag k="surface" v="paved"/>
  </way>
  <way id="66941725" version="3" timestamp="2012-03-30T10:37:59Z" uid="46145" user="Jacques_N" changeset="11151050"/>
  <way id="66941726" version="1" timestamp="2010-07-09T20:40:39Z" uid="33382" user="de_muur" changeset="5176909">
    <nd ref="309678146"/>
    <nd ref="309678147"/>
    <nd ref="309678148"/>
    <nd ref="788009969"/>
    <nd ref="309678149"/>
    <nd ref="309678150"/>
    <nd ref="309678151"/>
    <nd ref="788010503"/>
    <tag k="highway" v="tertiary"/>
    <tag k="maxspeed" v="50"/>
    <tag k="name" v="Langenlehster Straße"/>
    <tag k="ref" v="K 28"/>
    <tag k="surface" v="asphalt"/>
  </way>
  <way id="66941727" version="1" timestamp="2010-07-09T20:40:40Z" uid="33382" user="de_muur" changeset="5176909">
    <nd ref="788010554"/>
    <nd ref="309678154"/>
    <nd ref="309678155"/>
    <nd ref="309678156"/>
    <nd ref="309678157"/>
    <nd ref="309678158"/>
    <nd ref="309678159"/>
    <nd ref="309678160"/>
    <nd ref="309678161"/>
    <nd ref="309678162"/>
    <nd ref="496199432"/>
    <nd ref="309678163"/>
    <nd ref="496199434"/>
    <tag k="highway" v="tertiary"/>
    <tag k="name" v="Langenlehster Straße"/>
    <tag k="ref" v="K 28"/>
    <tag k="surface" v="asphalt"/>
  </way>
  <way id="66941727" version="2" timestamp="2010-10-10T16:19:27Z" uid="245788" user="boehring" changeset="6003707">
    <nd ref="788010554"/>
    <nd ref="309678154"/>
    <nd ref="944141432"/>
    <nd ref="309678155"/>
    <nd ref="309678156"/>
    <nd ref="309678157"/>
    <nd ref="309678158"/>
    <nd ref="309678159"/>
    <nd ref="309678160"/>
    <nd ref="309678161"/>
    <nd ref="309678162"/>
    <nd ref="496199432"/>
    <nd ref="309678163"/>
    <nd ref="496199434"/>
    <tag k="highway" v="tertiary"/>
    <tag k="name" v="Langenlehster Straße"/>
    <tag k="ref" v="K 28"/>
    <tag k="surface" v="asphalt"/>
  </way>
  <way id="66941344" version="3" timestamp="2012-07-09T00:13:38Z" uid="717576" user="samuelrussell" changeset="12156783">
    <nd ref="808608184"/>
    <nd ref="808608155"/>
    <nd ref="346182977"/>
    <nd ref="808608179"/>
    <nd ref="808608184"/>
    <tag k="highway" v="tertiary"/>
    <tag k="junction" v="roundabout"/>
    <tag k="rcn" v="yes"/>
  </way>
  <way id="66941584" version="3" timestamp="2012-07-21T14:56:29Z" uid="722137" user="OSMF Redaction Account" changeset="12412516">
    <nd ref="808619045"/>
    <nd ref="808619119"/>
    <nd ref="808619135"/>
    <nd ref="808619145"/>
    <nd ref="808619151"/>
    <nd ref="808619162"/>
    <tag k="highway" v="residential"/>
    <tag k="oneway" v="-1"/>
  </way>
  <way id="66941726" version="2" timestamp="2012-04-20T18:36:05Z" uid="63107" user="brogo" changeset="11367066"/>
  <way id="66941727" version="3" timestamp="2012-04-20T18:36:14Z" uid="63107" user="brogo" changeset="11367066"/>
</osm>
