<?xml version='1.0' encoding='UTF-8'?>
<osm version="0.6" generator="libosmium/2.20.0">
  <way id="67201010" version="2" timestamp="2011-03-12T15:15:37Z" uid="23543" user="jkjk" changeset="7534032"/>
  <way id="67201042" version="1" timestamp="2010-07-11T14:40:44Z" uid="4467" user="Rosscoe" changeset="5191011">
    <nd ref="811488208"/>
    <nd ref="811489953"/>
    <nd ref="811488896"/>
    <tag k="highway" v="service"/>
    <tag k="source" v="nearmap"/>
  </way>
  <way id="67201042" version="2" timestamp="2010-09-04T17:30:36Z" uid="151053" user="Didz" changeset="5680710">
    <nd ref="811488208"/>
    <nd ref="811489953"/>
    <nd ref="811488896"/>
    <tag k="highway" v="residential"/>
    <tag k="name" v="North Parade"/>
    <tag k="oneway" v="no"/>
    <tag k="source" v="nearmap"/>
  </way>
  <way id="67201042" version="3" timestamp="2011-02-03T04:27:01Z" uid="4467" user="Rosscoe" changeset="7170892">
    <nd ref="811488208"/>
    <nd ref="811489953"/>
    <nd ref="811488896"/>
    <tag k="highway" v="residential"/>
    <tag k="name" v="North Parade"/>
    <tag k="source" v="nearmap"/>
  </way>
  <way id="67201043" version="1" timestamp="2010-07-11T14:40:46Z" uid="4467" user="Rosscoe" changeset="5191011">
    <nd ref="180054443"/>
    <nd ref="253708969"/>
    <nd ref="253708968"/>
    <nd ref="253708967"/>
    <nd ref="253708966"/>
    <nd ref="253708993"/>
    <nd ref="253708965"/>
    <nd ref="253708995"/>
    <nd ref="703208812"/>
    <nd ref="360347735"/>
    <nd ref="703200955"/>
    <tag k="highway" v="secondary"/>
    <tag k="maxspeed" v="60"/>
    <tag k="name" v="Clark Terrace"/>
    <tag k="source" v="yahoo"/>
    <tag k="source:name" v="survey"/>
  </way>
  <way id="67201043" version="2" timestamp="2010-07-25T05:35:36Z" uid="151053" user="Didz" changeset="5308777">
    <nd ref="180054443"/>
    <nd ref="253708969"/>
    <nd ref="253708968"/>
    <nd ref="253708967"/>
    <nd ref="253708966"/>
    <nd ref="253708993"/>
    <nd ref="253708965"/>
    <nd ref="832360067"/>
    <nd ref="253708995"/>
    <nd ref="703208812"/>
    <nd ref="360347735"/>
    <nd ref="703200955"/>
    <tag k="highway" v="secondary"/>
    <tag k="maxspeed" v="60"/>
    <tag k="name" v="Clark Terrace"/>
    <tag k="source" v="yahoo"/>
    <tag k="source:name" v="survey"/>
  </way>
  <way id="67201043" version="3" timestamp="2010-10-10T03:32:32Z" uid="151053" user="Didz" changeset="5998594">
    <nd ref="180054443"/>
    <nd ref="253708969"/>
    <nd ref="253708968"/>
    <nd ref="253708967"/>
    <nd ref="253708966"/>
    <nd ref="253708993"/>
    <nd ref="253708965"/>
    <nd ref="832360067"/>
    <nd ref="253708995"/>
    <nd ref="703208812"/>
    <nd ref="360347735"/>
    <nd ref="703200955"/>
    <tag k="highway" v="secondary"/>
    <tag k="maxspeed" v="60"/>
    <tag k="name" v="Clark Terrace"/>
    <tag k="smoothness" v="good"/>
    <tag k="source" v="yahoo"/>
    <tag k="source:name" v="survey"/>
    <tag k="surface" v="asphalt"/>
  </way>
  <way id="67201043" version="4" timestamp="2011-02-03T04:27:06Z" uid="4467" user="Rosscoe" changeset="7170892"/>
  <way id="67201044" version="1" timestamp="2010-07-11T14:40:47Z" uid="4467" user="Rosscoe" changeset="5191011">
    <nd ref="811489380"/>
    <nd ref="253708978"/>
    <nd ref="360069180"/>
    <nd ref="253708982"/>
    <tag k="highway" v="residential"/>
    <tag k="maxspeed" v="50"/>
    <tag k="name" v="Golfers Avenue"/>
    <tag k="source" v="yahoo"/>
    <tag k="source:name" v="survey"/>
  </way>
  <way id="67201044" version="2" timestamp="2010-09-08T21:12:21Z" uid="151053" user="Didz" changeset="5728213">
    <nd ref="811489380"/>
    <nd ref="903572811"/>
    <nd ref="253708978"/>
    <nd ref="360069180"/>
    <nd ref="253708982"/>
    <tag k="highway" v="residential"/>
    <tag k="maxspeed" v="50"/>
    <tag k="name" v="Golfers Avenue"/>
    <tag k="source" v="yahoo"/>
    <tag k="source:name" v="survey"/>
  </way>
  <way id="67201044" version="3" timestamp="2010-10-10T03:13:38Z" uid="151053" user="Didz" changeset="5998594">
    <nd ref="811489380"/>
    <nd ref="903572811"/>
    <nd ref="253708978"/>
    <nd ref="360069180"/>
    <nd ref="253708982"/>
    <tag k="highway" v="residential"/>
    <tag k="maxspeed" v="50"/>
    <tag k="name" v="Golfers Avenue"/>
    <tag k="source" v="yahoo"/>
    <tag k="source:name" v="survey"/>
    <tag k="surface" v="asphalt"/>
  </way>
  <way id="67201044" version="4" timestamp="2011-05-21T17:09:34Z" uid="151053" user="Didz" changeset="8208729">
    <nd ref="811489380"/>
    <nd ref="1295139791"/>
    <nd ref="903572811"/>
    <nd ref="1295139732"/>
    <nd ref="1295139756"/>
    <nd ref="253708978"/>
    <nd ref="1295139678"/>
    <nd ref="1295139725"/>
    <nd ref="360069180"/>
    <nd ref="1295139774"/>
    <nd ref="1295139707"/>
    <nd ref="1295139701"/>
    <nd ref="253708982"/>
    <tag k="highway" v="residential"/>
    <tag k="maxspeed" v="50"/>
    <tag k="name" v="Golfers Avenue"/>
    <tag k="source" v="yahoo"/>
    <tag k="source:name" v="survey"/>
    <tag k="surface" v="asphalt"/>
  </way>
  <way id="67201045" version="1" timestamp="2010-07-11T14:40:48Z" uid="4467" user="Rosscoe" changeset="5191011">
    <nd ref="811490318"/>
    <nd ref="811490429"/>
    <nd ref="811489833"/>
    <nd ref="811489121"/>
    <nd ref="92535559"/>
    <nd ref="811489324"/>
    <nd ref="811489461"/>
    <nd ref="811487991"/>
    <nd ref="250839254"/>
    <tag k="highway" v="trunk"/>
    <tag k="lanes" v="2"/>
    <tag k="name" v="Tapleys Hill Road"/>
    <tag k="oneway" v="yes"/>
    <tag k="postal_code" v="5014"/>
    <tag k="ref" v="A15"/>
    <tag k="source" v="nearmap"/>
  </way>
  <way id="67201045" version="2" timestamp="2010-09-27T01:17:27Z" uid="79475" user="AlexOnTheBus" changeset="5887960">
    <nd ref="811490318"/>
    <nd ref="811490429"/>
    <nd ref="811489833"/>
    <nd ref="811489121"/>
    <nd ref="92535559"/>
    <nd ref="811489324"/>
    <nd ref="811489461"/>
    <nd ref="811487991"/>
    <nd ref="250839254"/>
    <tag k="highway" v="primary"/>
    <tag k="lanes" v="2"/>
    <tag k="name" v="Tapleys Hill Road"/>
    <tag k="oneway" v="yes"/>
    <tag k="postal_code" v="5014"/>
    <tag k="ref" v="A15"/>
    <tag k="source" v="nearmap"/>
  </way>
  <way id="67201045" version="3" timestamp="2010-11-26T06:15:43Z" uid="320632" user="Zulu99" changeset="6459482">
    <nd ref="811490318"/>
    <nd ref="811490429"/>
    <nd ref="811489833"/>
    <nd ref="811489121"/>
    <tag k="highway" v="primary"/>
    <tag k="lanes" v="2"/>
    <tag k="name" v="Tapleys Hill Road"/>
    <tag k="oneway" v="yes"/>
    <tag k="postal_code" v="5014"/>
    <tag k="ref" v="A15"/>
    <tag k="source" v="nearmap"/>
  </way>
  <way id="67201045" version="4" timestamp="2011-08-09T10:33:28Z" uid="428465" user="markinspace" changeset="8965522">
    <nd ref="811490318"/>
    <nd ref="811490429"/>
    <nd ref="811489833"/>
    <nd ref="811489121"/>
    <tag k="highway" v="primary"/>
    <tag k="lanes" v="2"/>
    <tag k="maxspeed" v="60"/>
    <tag k="name" v="Tapleys Hill Road"/>
    <tag k="oneway" v="yes"/>
    <tag k="postal_code" v="5014"/>
    <tag k="ref" v="A15"/>
    <tag k="source" v="nearmap"/>
  </way>
  <way id="67201047" version="1" timestamp="2010-07-11T14:40:49Z" uid="4467" user="Rosscoe" changeset="5191011">
    <nd ref="811490487"/>
    <nd ref="811489911"/>
    <tag k="highway" v="service"/>
    <tag k="oneway" v="yes"/>
    <tag k="source" v="nearmap"/>
  </way>
  <way id="67201047" version="2" timestamp="2010-09-04T17:30:37Z" uid="151053" user="Didz" changeset="5680710">
    <nd ref="811490487"/>
    <nd ref="811489911"/>
    <tag k="highway" v="residential"/>
    <tag k="name" v="North Parade"/>
    <tag k="oneway" v="yes"/>
    <tag k="source" v="nearmap"/>
  </way>
  <way id="67201049" version="1" timestamp="2010-07-11T14:40:50Z" uid="4467" user="Rosscoe" changeset="5191011">
    <nd ref="811488260"/>
    <nd ref="811488692"/>
    <nd ref="253710119"/>
    <nd ref="811489634"/>
    <tag k="highway" v="trunk"/>
    <tag k="is_in" v="Royal Park,South Australia,Australia"/>
    <tag k="lanes" v="2"/>
    <tag k="maxspeed" v="60"/>
    <tag k="name" v="Tapleys Hill Road"/>
    <tag k="oneway" v="yes"/>
    <tag k="postal_code" v="5014"/>
    <tag k="ref" v="A15"/>
    <tag k="source" v="survey;Yahoo"/>
  </way>
  <way id="67201049" version="2" timestamp="2010-09-27T01:17:16Z" uid="79475" user="AlexOnTheBus" changeset="5887960">
    <nd ref="811488260"/>
    <nd ref="811488692"/>
    <nd ref="253710119"/>
    <nd ref="811489634"/>
    <tag k="highway" v="primary"/>
    <tag k="is_in" v="Royal Park,South Australia,Australia"/>
    <tag k="lanes" v="2"/>
    <tag k="maxspeed" v="60"/>
    <tag k="name" v="Tapleys Hill Road"/>
    <tag k="oneway" v="yes"/>
    <tag k="postal_code" v="5014"/>
    <tag k="ref" v="A15"/>
    <tag k="source" v="survey;Yahoo"/>
  </way>
  <way id="67201049" version="3" timestamp="2010-11-26T06:15:27Z" uid="320632" user="Zulu99" changeset="6459482">
    <nd ref="811488260"/>
    <nd ref="811488692"/>
    <nd ref="253710119"/>
    <nd ref="811489634"/>
    <tag k="cycleway" v="lane"/>
    <tag k="highway" v="primary"/>
    <tag k="is_in" v="Royal Park,South Australia,Australia"/>
    <tag k="lanes" v="2"/>
    <tag k="maxspeed" v="60"/>
    <tag k="name" v="Tapleys Hill Road"/>
    <tag k="oneway" v="yes"/>
    <tag k="postal_code" v="5014"/>
    <tag k="ref" v="A15"/>
    <tag k="source" v="survey;Yahoo"/>
  </way>
  <way id="67201050" version="1" timestamp="2010-07-11T14:40:52Z" uid="4467" user="Rosscoe" changeset="5191011">
    <nd ref="253708054"/>
    <nd ref="253708056"/>
    <nd ref="253708058"/>
    <nd ref="253708059"/>
    <tag k="highway" v="service"/>
    <tag k="source" v="yahoo"/>
  </way>
  <way id="67201050" version="2" timestamp="2010-09-14T20:58:19Z" uid="151053" user="Didz" changeset="5782061">
    <nd ref="253708054"/>
    <nd ref="912527446"/>
    <nd ref="912527447"/>
    <tag k="highway" v="service"/>
    <tag k="source" v="yahoo"/>
  </way>
  <way id="67201050" version="3" timestamp="2010-09-14T20:59:01Z" uid="151053" user="Didz" changeset="5782061">
    <nd ref="253708054"/>
    <nd ref="912527446"/>
    <nd ref="912527447"/>
    <tag k="highway" v="service"/>
  </way>
  <way id="67201051" version="1" timestamp="2010-07-11T14:40:53Z" uid="4467" user="Rosscoe" changeset="5191011">
    <nd ref="811488208"/>
    <nd ref="811489214"/>
    <tag k="highway" v="service"/>
    <tag k="oneway" v="yes"/>
    <tag k="source" v="nearmap"/>
  </way>
  <way id="67201051" version="2" timestamp="2010-09-04T17:30:39Z" uid="151053" user="Didz" changeset="5680710">
    <nd ref="811489214"/>
    <nd ref="811488208"/>
    <tag k="highway" v="residential"/>
    <tag k="name" v="North Parade"/>
    <tag k="oneway" v="yes"/>
    <tag k="source" v="nearmap"/>
  </way>
  <way id="67201052" version="1" timestamp="2010-07-11T14:40:54Z" uid="4467" user="Rosscoe" changeset="5191011">
    <nd ref="358477597"/>
    <nd ref="811489521"/>
    <nd ref="811490487"/>
    <nd ref="811488208"/>
    <tag k="highway" v="service"/>
    <tag k="source" v="nearmap"/>
  </way>
  <way id="67201052" version="2" timestamp="2010-09-04T17:30:36Z" uid="151053" user="Didz" changeset="5680710">
    <nd ref="358477597"/>
    <nd ref="811489521"/>
    <nd ref="811490487"/>
    <nd ref="811488208"/>
    <tag k="highway" v="residential"/>
    <tag k="name" v="North Parade"/>
    <tag k="oneway" v="yes"/>
    <tag k="source" v="nearmap"/>
  </way>
  <way id="67201052" version="3" timestamp="2010-12-31T14:01:03Z" uid="4467" user="Rosscoe" changeset="6819942">
    <nd ref="358477597"/>
    <nd ref="811489521"/>
    <nd ref="811490487"/>
    <nd ref="1075303186"/>
    <nd ref="811488208"/>
    <tag k="highway" v="residential"/>
    <tag k="name" v="North Parade"/>
    <tag k="oneway" v="yes"/>
    <tag k="source" v="nearmap"/>
  </way>
  <way id="67201053" version="1" timestamp="2010-07-11T14:40:54Z" uid="4467" user="Rosscoe" changeset="5191011">
    <nd ref="358477592"/>
    <nd ref="358477631"/>
    <nd ref="253710054"/>
    <tag k="highway" v="residential"/>
    <tag k="source" v="nearmap"/>
  </way>
  <way id="67201053" version="2" timestamp="2010-09-15T07:10:22Z" uid="283243" user="wbdeejay" changeset="5784218">
    <nd ref="358477592"/>
    <nd ref="358477631"/>
    <nd ref="253710054"/>
    <tag k="highway" v="residential"/>
    <tag k="name" v="Wattle Avenue"/>
    <tag k="source" v="nearmap"/>
  </way>
  <way id="67201042" version="4" timestamp="2012-07-20T11:11:50Z" uid="722137" user="OSMF Redaction Account" changeset="12372510"/>
  <way id="67201044" version="5" timestamp="2012-07-20T11:02:57Z" uid="722137" user="OSMF Redaction Account" changeset="12372187">
    <nd ref="1295139791"/>
    <nd ref="903572811"/>
    <nd ref="1295139732"/>
    <nd ref="1295139756"/>
    <nd ref="1295139678"/>
    <nd ref="1295139725"/>
    <nd ref="1295139774"/>
    <nd ref="1295139707"/>
    <nd ref="1295139701"/>
    <tag k="surface" v="asphalt"/>
  </way>
  <way id="67201044" version="6" timestamp="2012-09-06T23:15:43Z" uid="418724" user="wintersportler" changeset="13017066">
    <nd ref="1295139791"/>
    <nd ref="903572811"/>
    <nd ref="1295139732"/>
    <nd ref="1295139756"/>
    <nd ref="1903232243"/>
    <nd ref="1295139678"/>
    <nd ref="1295139725"/>
    <nd ref="1295139774"/>
    <nd ref="1295139707"/>
    <nd ref="1295139701"/>
    <nd ref="1903232254"/>
    <tag k="fixme" v="name"/>
    <tag k="highway" v="residential"/>
    <tag k="surface" v="asphalt"/>
  </way>
  <way id="67201045" version="5" timestamp="2012-07-06T13:30:34Z" uid="328538" user="o&apos;cholio" changeset="12130509">
    <nd ref="811490318"/>
    <nd ref="811490429"/>
    <nd ref="811489833"/>
    <nd ref="1814874895"/>
    <nd ref="811489121"/>
    <tag k="highway" v="primary"/>
    <tag k="lanes" v="2"/>
    <tag k="maxspeed" v="60"/>
    <tag k="name" v="Tapleys Hill Road"/>
    <tag k="odbl" v="clean"/>
    <tag k="oneway" v="yes"/>
    <tag k="postal_code" v="5014"/>
    <tag k="ref" v="A15"/>
    <tag k="source" v="nearmap"/>
  </way>
  <way id="67201047" version="3" timestamp="2012-07-20T11:11:50Z" uid="722137" user="OSMF Redaction Account" changeset="12372510"/>
  <way id="67201049" version="4" timestamp="2012-07-06T13:30:36Z" uid="328538" user="o&apos;cholio" changeset="12130509">
    <nd ref="1814874925"/>
    <nd ref="1814874922"/>
    <nd ref="1814874921"/>
    <nd ref="1814874917"/>
    <nd ref="811488692"/>
    <nd ref="253710119"/>
    <nd ref="1814874913"/>
    <tag k="cycleway" v="lane"/>
    <tag k="highway" v="primary"/>
    <tag k="is_in" v="Royal Park,South Australia,Australia"/>
    <tag k="lanes" v="2"/>
    <tag k="maxspeed" v="60"/>
    <tag k="name" v="Tapleys Hill Road"/>
    <tag k="odbl" v="clean"/>
    <tag k="oneway" v="yes"/>
    <tag k="postal_code" v="5014"/>
    <tag k="ref" v="A15"/>
    <tag k="source" v="survey;Yahoo"/>
  </way>
  <way id="67201049" version="5" timestamp="2012-09-06T23:15:30Z" uid="418724" user="wintersportler" changeset="13017066">
    <nd ref="1814874925"/>
    <nd ref="1814874921"/>
    <nd ref="1814874917"/>
    <nd ref="1814874913"/>
    <tag k="cycleway" v="lane"/>
    <tag k="highway" v="primary"/>
    <tag k="is_in" v="Royal Park,South Australia,Australia"/>
    <tag k="lanes" v="2"/>
    <tag k="maxspeed" v="60"/>
    <tag k="name" v="Tapleys Hill Road"/>
    <tag k="oneway" v="yes"/>
    <tag k="postal_code" v="5014"/>
    <tag k="ref" v="A15"/>
    <tag k="source" v="survey;Yahoo"/>
  </way>
  <way id="67201050" version="4" timestamp="2012-07-20T11:07:13Z" uid="722137" user="OSMF Redaction Account" changeset="12372361">
    <nd ref="912527446"/>
    <nd ref="912527447"/>
  </way>
  <way id="67201051" version="3" timestamp="2012-07-20T11:11:50Z" uid="722137" user="OSMF Redaction Account" changeset="12372510"/>
  <way id="67201052" version="4" timestamp="2012-07-20T11:11:50Z" uid="722137" user="OSMF Redaction Account" changeset="12372510"/>
  <way id="67201053" version="3" timestamp="2012-07-20T11:12:13Z" uid="722137" user="OSMF Redaction Account" changeset="12372550"/>
</osm>
