<?xml version='1.0' encoding='UTF-8'?>
<osm version="0.6" generator="libosmium/2.20.0">
  <way id="67271325" version="1" timestamp="2010-07-11T23:53:40Z" uid="20587" user="balrog-kun" changeset="5195140">
    <nd ref="771997504"/>
    <nd ref="812530658"/>
    <nd ref="812530579"/>
    <nd ref="812530649"/>
    <nd ref="771997504"/>
    <tag k="leisure" v="common"/>
  </way>
  <way id="67271327" version="1" timestamp="2010-07-11T23:53:40Z" uid="20587" user="balrog-kun" changeset="5195140">
    <nd ref="812530584"/>
    <nd ref="812530548"/>
    <nd ref="796511640"/>
    <nd ref="812530628"/>
    <nd ref="812530495"/>
    <nd ref="812530584"/>
    <tag k="leisure" v="playground"/>
  </way>
  <way id="67271327" version="2" timestamp="2010-07-19T20:05:43Z" uid="20587" user="balrog-kun" changeset="5264599"/>
  <way id="67271329" version="1" timestamp="2010-07-11T23:53:40Z" uid="20587" user="balrog-kun" changeset="5195140">
    <nd ref="812530495"/>
    <nd ref="812530523"/>
    <tag k="highway" v="footway"/>
  </way>
  <way id="67271329" version="2" timestamp="2010-07-19T20:05:43Z" uid="20587" user="balrog-kun" changeset="5264599"/>
  <way id="67271330" version="1" timestamp="2010-07-11T23:53:40Z" uid="20587" user="balrog-kun" changeset="5195140">
    <nd ref="812530522"/>
    <nd ref="812530580"/>
    <tag k="name" v="Anden 1"/>
    <tag k="railway" v="platform"/>
  </way>
  <way id="67271330" version="2" timestamp="2010-07-19T20:05:07Z" uid="20587" user="balrog-kun" changeset="5264599">
    <nd ref="812530522"/>
    <nd ref="812530580"/>
    <tag k="layer" v="1"/>
    <tag k="name" v="Anden 1"/>
    <tag k="note" v="very approximate"/>
    <tag k="railway" v="platform"/>
  </way>
  <way id="67271334" version="1" timestamp="2010-07-11T23:53:41Z" uid="20587" user="balrog-kun" changeset="5195140">
    <nd ref="812530578"/>
    <nd ref="812530502"/>
    <nd ref="812530621"/>
    <nd ref="812530521"/>
    <nd ref="812530558"/>
    <nd ref="812530668"/>
    <nd ref="812530520"/>
    <nd ref="812530539"/>
    <nd ref="812530605"/>
    <nd ref="812530500"/>
    <nd ref="812530576"/>
    <nd ref="812530597"/>
    <nd ref="812530585"/>
    <nd ref="812530620"/>
    <nd ref="812530519"/>
    <tag k="bicycle" v="yes"/>
    <tag k="highway" v="footway"/>
  </way>
  <way id="67271334" version="2" timestamp="2010-08-07T13:42:36Z" uid="20587" user="balrog-kun" changeset="5424643">
    <nd ref="812530578"/>
    <nd ref="812530502"/>
    <nd ref="812530621"/>
    <nd ref="812530521"/>
    <nd ref="812530558"/>
    <nd ref="848642456"/>
    <nd ref="812530668"/>
    <nd ref="812530520"/>
    <nd ref="812530539"/>
    <tag k="bicycle" v="yes"/>
    <tag k="highway" v="footway"/>
  </way>
  <way id="67271336" version="1" timestamp="2010-07-11T23:53:41Z" uid="20587" user="balrog-kun" changeset="5195140">
    <nd ref="812530640"/>
    <nd ref="812530649"/>
    <nd ref="812530658"/>
    <tag k="highway" v="footway"/>
  </way>
  <way id="67271339" version="1" timestamp="2010-07-11T23:53:41Z" uid="20587" user="balrog-kun" changeset="5195140">
    <nd ref="812530600"/>
    <nd ref="812530624"/>
    <tag k="highway" v="footway"/>
  </way>
  <way id="67271340" version="1" timestamp="2010-07-11T23:53:41Z" uid="20587" user="balrog-kun" changeset="5195140">
    <nd ref="812530464"/>
    <nd ref="812530647"/>
    <nd ref="812530498"/>
    <nd ref="812530619"/>
    <nd ref="812530463"/>
    <nd ref="812530481"/>
    <nd ref="812530544"/>
    <nd ref="812530666"/>
    <nd ref="812530517"/>
    <nd ref="812530538"/>
    <nd ref="812530602"/>
    <nd ref="812530497"/>
    <nd ref="812530564"/>
    <nd ref="812530582"/>
    <nd ref="812530464"/>
    <tag k="landuse" v="construction"/>
  </way>
  <way id="67271342" version="1" timestamp="2010-07-11T23:53:41Z" uid="20587" user="balrog-kun" changeset="5195140">
    <nd ref="812530597"/>
    <nd ref="773374832"/>
    <nd ref="773374812"/>
    <nd ref="773374792"/>
    <nd ref="773374884"/>
    <nd ref="773374901"/>
    <nd ref="773374882"/>
    <nd ref="773374863"/>
    <nd ref="773374843"/>
    <nd ref="772179814"/>
    <nd ref="773374875"/>
    <nd ref="773374857"/>
    <nd ref="773374838"/>
    <nd ref="773374819"/>
    <nd ref="773374851"/>
    <nd ref="773374870"/>
    <nd ref="772189372"/>
    <tag k="highway" v="cycleway"/>
    <tag k="source" v="Ajuntament de Girona"/>
  </way>
  <way id="67271342" version="2" timestamp="2010-07-29T03:41:57Z" uid="20587" user="balrog-kun" changeset="5343513">
    <nd ref="812530597"/>
    <nd ref="773374832"/>
    <nd ref="773374812"/>
    <nd ref="773374792"/>
    <nd ref="773374884"/>
    <nd ref="773374901"/>
    <nd ref="773374882"/>
    <nd ref="773374863"/>
    <nd ref="773374843"/>
    <nd ref="772179814"/>
    <nd ref="773374875"/>
    <nd ref="773374857"/>
    <nd ref="773374838"/>
    <nd ref="837149722"/>
    <nd ref="773374819"/>
    <nd ref="773374851"/>
    <nd ref="773374870"/>
    <nd ref="772189372"/>
    <tag k="highway" v="cycleway"/>
    <tag k="source" v="Ajuntament de Girona"/>
  </way>
  <way id="67271348" version="1" timestamp="2010-07-11T23:53:42Z" uid="20587" user="balrog-kun" changeset="5195140">
    <nd ref="812530484"/>
    <nd ref="812530449"/>
    <tag k="name" v="Anden 2"/>
    <tag k="railway" v="platform"/>
  </way>
  <way id="67271348" version="2" timestamp="2010-07-19T20:05:08Z" uid="20587" user="balrog-kun" changeset="5264599">
    <nd ref="812530484"/>
    <nd ref="812530449"/>
    <tag k="layer" v="1"/>
    <tag k="name" v="Anden 2"/>
    <tag k="note" v="very approximate"/>
    <tag k="railway" v="platform"/>
  </way>
  <way id="67271348" version="3" timestamp="2010-08-07T15:40:11Z" uid="20587" user="balrog-kun" changeset="5425441"/>
  <way id="67271350" version="1" timestamp="2010-07-11T23:53:42Z" uid="20587" user="balrog-kun" changeset="5195140">
    <nd ref="800522068"/>
    <nd ref="771987396"/>
    <nd ref="772098778"/>
    <nd ref="771982514"/>
    <tag k="highway" v="primary"/>
    <tag k="local_code" v="0434"/>
    <tag k="maxspeed" v="50"/>
    <tag k="name" v="Passeig d&apos;Olot"/>
    <tag k="name:ca" v="Passeig d&apos;Olot"/>
    <tag k="oneway" v="yes"/>
    <tag k="ref" v="N-141"/>
    <tag k="source" v="Ajuntament de Girona"/>
  </way>
  <way id="67271354" version="1" timestamp="2010-07-11T23:53:43Z" uid="20587" user="balrog-kun" changeset="5195140">
    <nd ref="800522069"/>
    <nd ref="772188287"/>
    <nd ref="772216058"/>
    <nd ref="772262054"/>
    <tag k="highway" v="primary"/>
    <tag k="local_code" v="0434"/>
    <tag k="maxspeed" v="50"/>
    <tag k="name" v="Passeig d&apos;Olot"/>
    <tag k="name:ca" v="Passeig d&apos;Olot"/>
    <tag k="oneway" v="-1"/>
    <tag k="ref" v="N-141"/>
    <tag k="source" v="Ajuntament de Girona"/>
  </way>
  <way id="67271357" version="1" timestamp="2010-07-11T23:53:43Z" uid="20587" user="balrog-kun" changeset="5195140">
    <nd ref="812530643"/>
    <nd ref="812530540"/>
    <tag k="highway" v="footway"/>
  </way>
  <way id="67271357" version="2" timestamp="2010-07-19T20:05:42Z" uid="20587" user="balrog-kun" changeset="5264599"/>
  <way id="67271362" version="1" timestamp="2010-07-11T23:53:43Z" uid="20587" user="balrog-kun" changeset="5195140">
    <nd ref="812530623"/>
    <nd ref="812530599"/>
    <tag k="name" v="Anden 5"/>
    <tag k="railway" v="platform"/>
  </way>
  <way id="67271362" version="2" timestamp="2010-07-19T20:05:34Z" uid="20587" user="balrog-kun" changeset="5264599">
    <nd ref="812530623"/>
    <nd ref="812530599"/>
    <tag k="layer" v="1"/>
    <tag k="name" v="Anden 5"/>
    <tag k="note" v="very approximate"/>
    <tag k="railway" v="platform"/>
  </way>
  <way id="67271362" version="3" timestamp="2010-08-07T15:40:11Z" uid="20587" user="balrog-kun" changeset="5425441">
    <nd ref="812530623"/>
    <nd ref="812530599"/>
    <tag k="layer" v="1"/>
    <tag k="note" v="very approximate"/>
    <tag k="railway" v="platform"/>
  </way>
  <way id="67271365" version="1" timestamp="2010-07-11T23:53:43Z" uid="20587" user="balrog-kun" changeset="5195140">
    <nd ref="773374895"/>
    <nd ref="773374874"/>
    <nd ref="773374856"/>
    <nd ref="773374836"/>
    <nd ref="773374818"/>
    <nd ref="773374854"/>
    <nd ref="773374834"/>
    <nd ref="773374815"/>
    <nd ref="773374795"/>
    <nd ref="773374906"/>
    <nd ref="773374887"/>
    <nd ref="773374867"/>
    <nd ref="773374846"/>
    <nd ref="773374849"/>
    <nd ref="773374883"/>
    <nd ref="773374864"/>
    <nd ref="773374844"/>
    <nd ref="773374825"/>
    <nd ref="773374805"/>
    <nd ref="773374914"/>
    <nd ref="773374804"/>
    <nd ref="812530578"/>
    <tag k="construction" v="cycleway"/>
    <tag k="highway" v="construction"/>
    <tag k="source" v="Ajuntament de Girona"/>
  </way>
  <way id="67271372" version="1" timestamp="2010-07-11T23:53:44Z" uid="20587" user="balrog-kun" changeset="5195140">
    <nd ref="812530480"/>
    <nd ref="812530543"/>
    <nd ref="812530643"/>
    <nd ref="812530584"/>
    <nd ref="812530495"/>
    <nd ref="812530628"/>
    <nd ref="812530645"/>
    <tag k="highway" v="footway"/>
  </way>
  <way id="67271372" version="2" timestamp="2010-07-19T20:05:43Z" uid="20587" user="balrog-kun" changeset="5264599"/>
  <way id="67271373" version="1" timestamp="2010-07-11T23:53:44Z" uid="20587" user="balrog-kun" changeset="5195140">
    <nd ref="812530503"/>
    <nd ref="812530485"/>
    <nd ref="812530475"/>
    <tag k="name" v="Anden 4"/>
    <tag k="railway" v="platform"/>
  </way>
  <way id="67271373" version="2" timestamp="2010-07-19T20:05:32Z" uid="20587" user="balrog-kun" changeset="5264599">
    <nd ref="812530503"/>
    <nd ref="812530485"/>
    <nd ref="812530475"/>
    <tag k="layer" v="1"/>
    <tag k="name" v="Anden 4"/>
    <tag k="note" v="very approximate"/>
    <tag k="railway" v="platform"/>
  </way>
  <way id="67271373" version="3" timestamp="2010-08-07T15:40:05Z" uid="20587" user="balrog-kun" changeset="5425441">
    <nd ref="812530503"/>
    <nd ref="812530485"/>
    <nd ref="812530475"/>
    <tag k="layer" v="1"/>
    <tag k="note" v="very approximate"/>
    <tag k="railway" v="platform"/>
  </way>
  <way id="67271374" version="1" timestamp="2010-07-11T23:53:44Z" uid="20587" user="balrog-kun" changeset="5195140">
    <nd ref="812530639"/>
    <nd ref="812530501"/>
    <nd ref="812530607"/>
    <tag k="name" v="Anden 3"/>
    <tag k="railway" v="platform"/>
  </way>
  <way id="67271374" version="2" timestamp="2010-07-19T20:05:37Z" uid="20587" user="balrog-kun" changeset="5264599">
    <nd ref="812530639"/>
    <nd ref="812530501"/>
    <nd ref="812530607"/>
    <tag k="layer" v="1"/>
    <tag k="name" v="Anden 3"/>
    <tag k="note" v="very approximate"/>
    <tag k="railway" v="platform"/>
  </way>
  <way id="67271374" version="3" timestamp="2010-08-07T15:40:07Z" uid="20587" user="balrog-kun" changeset="5425441">
    <nd ref="812530639"/>
    <nd ref="812530501"/>
    <nd ref="812530607"/>
    <tag k="layer" v="1"/>
    <tag k="note" v="very approximate"/>
    <tag k="railway" v="platform"/>
  </way>
  <way id="67271380" version="1" timestamp="2010-07-11T23:53:45Z" uid="20587" user="balrog-kun" changeset="5195140">
    <nd ref="812530618"/>
    <nd ref="812530581"/>
    <nd ref="812530644"/>
    <nd ref="812530665"/>
    <nd ref="812530618"/>
    <tag k="amenity" v="fountain"/>
    <tag k="landuse" v="reservoir"/>
  </way>
  <way id="67271381" version="1" timestamp="2010-07-11T23:53:45Z" uid="20587" user="balrog-kun" changeset="5195140">
    <nd ref="812530578"/>
    <nd ref="773374892"/>
    <nd ref="800522070"/>
    <nd ref="800522071"/>
    <nd ref="800522081"/>
    <nd ref="800522116"/>
    <nd ref="800522119"/>
    <nd ref="800522128"/>
    <nd ref="800522130"/>
    <nd ref="800522133"/>
    <nd ref="800522135"/>
    <nd ref="800522137"/>
    <nd ref="800522141"/>
    <nd ref="800522146"/>
    <nd ref="800522152"/>
    <nd ref="800522150"/>
    <nd ref="800522186"/>
    <tag k="highway" v="cycleway"/>
    <tag k="source" v="Ajuntament de Girona"/>
  </way>
  <way id="67271385" version="1" timestamp="2010-07-11T23:53:45Z" uid="20587" user="balrog-kun" changeset="5195140">
    <nd ref="773371413"/>
    <nd ref="812530663"/>
    <nd ref="812530479"/>
    <nd ref="812530601"/>
    <nd ref="812530661"/>
    <nd ref="812530454"/>
    <nd ref="812530524"/>
    <nd ref="812530642"/>
    <nd ref="812530542"/>
    <nd ref="812530608"/>
    <nd ref="812530504"/>
    <nd ref="789089817"/>
    <nd ref="789213454"/>
    <nd ref="789010266"/>
    <nd ref="789149065"/>
    <nd ref="789250349"/>
    <nd ref="789074539"/>
    <nd ref="789208101"/>
    <nd ref="789283906"/>
    <nd ref="789138019"/>
    <nd ref="789243981"/>
    <nd ref="789068379"/>
    <nd ref="789069010"/>
    <nd ref="789127894"/>
    <nd ref="789237776"/>
    <nd ref="812530559"/>
    <nd ref="812530626"/>
    <nd ref="773371382"/>
    <nd ref="773371404"/>
    <nd ref="773371433"/>
    <nd ref="773371492"/>
    <nd ref="773371532"/>
    <nd ref="773371412"/>
    <nd ref="773371477"/>
    <nd ref="773371374"/>
    <nd ref="773371346"/>
    <nd ref="773371371"/>
    <nd ref="773371389"/>
    <nd ref="773371411"/>
    <nd ref="773371474"/>
    <nd ref="773371349"/>
    <nd ref="773371373"/>
    <nd ref="773371393"/>
    <nd ref="773371413"/>
    <tag k="landuse" v="construction"/>
  </way>
  <way id="67271385" version="2" timestamp="2010-07-19T20:05:43Z" uid="20587" user="balrog-kun" changeset="5264599"/>
  <way id="67271394" version="1" timestamp="2010-07-11T23:53:46Z" uid="20587" user="balrog-kun" changeset="5195140">
    <nd ref="812530563"/>
    <nd ref="812530561"/>
    <tag k="addr:interpolation" v="even"/>
  </way>
  <way id="67271395" version="1" timestamp="2010-07-11T23:53:46Z" uid="20587" user="balrog-kun" changeset="5195140">
    <nd ref="772158749"/>
    <nd ref="812530620"/>
    <nd ref="772020887"/>
    <nd ref="772271237"/>
    <nd ref="772169850"/>
    <nd ref="771990957"/>
    <tag k="construction" v="primary"/>
    <tag k="highway" v="construction"/>
    <tag k="local_code" v="0434"/>
    <tag k="maxspeed" v="50"/>
    <tag k="name" v="Passeig d&apos;Olot"/>
    <tag k="name:ca" v="Passeig d&apos;Olot"/>
    <tag k="oneway" v="yes"/>
    <tag k="ref" v="N-141"/>
    <tag k="source" v="Ajuntament de Girona"/>
  </way>
  <way id="67271395" version="2" timestamp="2010-08-07T13:42:36Z" uid="20587" user="balrog-kun" changeset="5424643">
    <nd ref="772158749"/>
    <nd ref="812530620"/>
    <nd ref="772020887"/>
    <nd ref="848642454"/>
    <nd ref="772271237"/>
    <nd ref="772169850"/>
    <nd ref="771990957"/>
    <tag k="construction" v="primary"/>
    <tag k="highway" v="service"/>
    <tag k="local_code" v="0434"/>
    <tag k="maxspeed" v="50"/>
    <tag k="name" v="Passeig d&apos;Olot"/>
    <tag k="name:ca" v="Passeig d&apos;Olot"/>
    <tag k="oneway" v="yes"/>
    <tag k="ref" v="N-141"/>
    <tag k="source" v="Ajuntament de Girona"/>
  </way>
  <way id="67271401" version="1" timestamp="2010-07-11T23:53:47Z" uid="20587" user="balrog-kun" changeset="5195140">
    <nd ref="772161411"/>
    <nd ref="812530585"/>
    <nd ref="772160235"/>
    <nd ref="772261737"/>
    <nd ref="772028347"/>
    <tag k="construction" v="primary"/>
    <tag k="highway" v="construction"/>
    <tag k="local_code" v="0434"/>
    <tag k="maxspeed" v="50"/>
    <tag k="name" v="Passeig d&apos;Olot"/>
    <tag k="name:ca" v="Passeig d&apos;Olot"/>
    <tag k="oneway" v="-1"/>
    <tag k="ref" v="N-141"/>
    <tag k="source" v="Ajuntament de Girona"/>
  </way>
  <way id="67271401" version="2" timestamp="2010-08-07T13:42:34Z" uid="20587" user="balrog-kun" changeset="5424643">
    <nd ref="772161411"/>
    <nd ref="812530585"/>
    <nd ref="848642460"/>
    <nd ref="772160235"/>
    <nd ref="772261737"/>
    <nd ref="772028347"/>
    <tag k="construction" v="primary"/>
    <tag k="highway" v="construction"/>
    <tag k="local_code" v="0434"/>
    <tag k="maxspeed" v="50"/>
    <tag k="name" v="Passeig d&apos;Olot"/>
    <tag k="name:ca" v="Passeig d&apos;Olot"/>
    <tag k="oneway" v="-1"/>
    <tag k="ref" v="N-141"/>
    <tag k="source" v="Ajuntament de Girona"/>
  </way>
  <way id="67271404" version="1" timestamp="2010-07-11T23:53:47Z" uid="20587" user="balrog-kun" changeset="5195140">
    <nd ref="812530624"/>
    <nd ref="812530640"/>
    <tag k="highway" v="footway"/>
    <tag k="tunnel" v="yes"/>
  </way>
  <way id="67271408" version="1" timestamp="2010-07-11T23:53:47Z" uid="20587" user="balrog-kun" changeset="5195140">
    <nd ref="812530452"/>
    <nd ref="812530641"/>
    <nd ref="812530501"/>
    <tag k="highway" v="steps"/>
  </way>
  <way id="67271409" version="1" timestamp="2010-07-11T23:53:47Z" uid="20587" user="balrog-kun" changeset="5195140">
    <nd ref="789237776"/>
    <nd ref="789110420"/>
    <nd ref="789165288"/>
    <nd ref="789263156"/>
    <nd ref="812530630"/>
    <nd ref="812530483"/>
    <nd ref="812530559"/>
    <nd ref="789237776"/>
    <tag k="amenity" v="parking"/>
    <tag k="bicycle" v="designated"/>
    <tag k="fee" v="yes"/>
    <tag k="source" v="Ajuntament de Girona"/>
    <tag k="vehicle" v="no"/>
  </way>
  <way id="67271412" version="1" timestamp="2010-07-11T23:53:48Z" uid="20587" user="balrog-kun" changeset="5195140">
    <nd ref="812530660"/>
    <nd ref="812530541"/>
    <nd ref="812530485"/>
    <tag k="highway" v="steps"/>
  </way>
  <way id="67271350" version="2" timestamp="2012-05-10T12:32:43Z" uid="100124" user="Xevi" changeset="11558390">
    <nd ref="800522068"/>
    <nd ref="771987396"/>
    <nd ref="772098778"/>
    <nd ref="771982514"/>
    <tag k="construction" v="secondary"/>
    <tag k="highway" v="primary"/>
    <tag k="local_code" v="0434"/>
    <tag k="maxspeed" v="50"/>
    <tag k="name" v="Passeig d&apos;Olot"/>
    <tag k="name:ca" v="Passeig d&apos;Olot"/>
    <tag k="oneway" v="yes"/>
    <tag k="ref" v="N-141"/>
    <tag k="source" v="Ajuntament de Girona"/>
  </way>
  <way id="67271350" version="3" timestamp="2012-05-10T12:41:03Z" uid="100124" user="Xevi" changeset="11558451">
    <nd ref="800522068"/>
    <nd ref="771987396"/>
    <nd ref="772098778"/>
    <nd ref="771982514"/>
    <tag k="construction" v="secondary"/>
    <tag k="highway" v="secondary"/>
    <tag k="local_code" v="0434"/>
    <tag k="maxspeed" v="50"/>
    <tag k="name" v="Passeig d&apos;Olot"/>
    <tag k="name:ca" v="Passeig d&apos;Olot"/>
    <tag k="oneway" v="yes"/>
    <tag k="ref" v="N-141"/>
    <tag k="source" v="Ajuntament de Girona"/>
  </way>
  <way id="67271354" version="2" timestamp="2012-05-10T12:32:44Z" uid="100124" user="Xevi" changeset="11558390">
    <nd ref="800522069"/>
    <nd ref="772188287"/>
    <nd ref="772216058"/>
    <nd ref="772262054"/>
    <tag k="construction" v="secondary"/>
    <tag k="highway" v="primary"/>
    <tag k="local_code" v="0434"/>
    <tag k="maxspeed" v="50"/>
    <tag k="name" v="Passeig d&apos;Olot"/>
    <tag k="name:ca" v="Passeig d&apos;Olot"/>
    <tag k="oneway" v="-1"/>
    <tag k="ref" v="N-141"/>
    <tag k="source" v="Ajuntament de Girona"/>
  </way>
  <way id="67271354" version="3" timestamp="2012-05-10T12:41:02Z" uid="100124" user="Xevi" changeset="11558451">
    <nd ref="800522069"/>
    <nd ref="772188287"/>
    <nd ref="772216058"/>
    <nd ref="772262054"/>
    <tag k="construction" v="secondary"/>
    <tag k="highway" v="secondary"/>
    <tag k="local_code" v="0434"/>
    <tag k="maxspeed" v="50"/>
    <tag k="name" v="Passeig d&apos;Olot"/>
    <tag k="name:ca" v="Passeig d&apos;Olot"/>
    <tag k="oneway" v="-1"/>
    <tag k="ref" v="N-141"/>
    <tag k="source" v="Ajuntament de Girona"/>
  </way>
  <way id="67271381" version="2" timestamp="2012-05-30T09:25:55Z" uid="264931" user="Manel Clos" changeset="11746571">
    <nd ref="812530578"/>
    <nd ref="773374892"/>
    <nd ref="800522070"/>
    <nd ref="800522071"/>
    <nd ref="800522081"/>
    <nd ref="800522116"/>
    <nd ref="800522119"/>
    <nd ref="800522128"/>
    <nd ref="800522130"/>
    <nd ref="800522133"/>
    <nd ref="800522135"/>
    <nd ref="800522137"/>
    <nd ref="800522141"/>
    <nd ref="800522146"/>
    <nd ref="800522152"/>
    <nd ref="800522150"/>
    <tag k="highway" v="cycleway"/>
    <tag k="source" v="Ajuntament de Girona"/>
  </way>
  <way id="67271395" version="3" timestamp="2012-05-10T12:32:45Z" uid="100124" user="Xevi" changeset="11558390">
    <nd ref="772158749"/>
    <nd ref="812530620"/>
    <nd ref="772020887"/>
    <nd ref="848642454"/>
    <nd ref="772271237"/>
    <nd ref="772169850"/>
    <nd ref="771990957"/>
    <tag k="construction" v="secondary"/>
    <tag k="highway" v="service"/>
    <tag k="local_code" v="0434"/>
    <tag k="maxspeed" v="50"/>
    <tag k="name" v="Passeig d&apos;Olot"/>
    <tag k="name:ca" v="Passeig d&apos;Olot"/>
    <tag k="oneway" v="yes"/>
    <tag k="ref" v="N-141"/>
    <tag k="source" v="Ajuntament de Girona"/>
  </way>
  <way id="67271401" version="3" timestamp="2012-05-10T12:32:44Z" uid="100124" user="Xevi" changeset="11558390">
    <nd ref="772161411"/>
    <nd ref="812530585"/>
    <nd ref="848642460"/>
    <nd ref="772160235"/>
    <nd ref="772261737"/>
    <nd ref="772028347"/>
    <tag k="construction" v="secondary"/>
    <tag k="highway" v="construction"/>
    <tag k="local_code" v="0434"/>
    <tag k="maxspeed" v="50"/>
    <tag k="name" v="Passeig d&apos;Olot"/>
    <tag k="name:ca" v="Passeig d&apos;Olot"/>
    <tag k="oneway" v="-1"/>
    <tag k="ref" v="N-141"/>
    <tag k="source" v="Ajuntament de Girona"/>
  </way>
</osm>
