<?xml version='1.0' encoding='UTF-8'?>
<osm version="0.6" generator="libosmium/2.20.0">
  <way id="67604411" version="2" timestamp="2010-11-30T14:12:09Z" uid="20587" user="balrog-kun" changeset="6494732">
    <nd ref="346637809"/>
    <nd ref="346637869"/>
    <nd ref="1013430564"/>
    <nd ref="346637730"/>
    <nd ref="346637731"/>
    <nd ref="346637546"/>
    <nd ref="368368452"/>
    <nd ref="346637548"/>
    <nd ref="368368432"/>
    <nd ref="346636649"/>
    <nd ref="346636651"/>
    <nd ref="346636654"/>
    <nd ref="346636655"/>
    <nd ref="346636657"/>
    <nd ref="346636958"/>
    <nd ref="346636658"/>
    <nd ref="347616234"/>
    <tag k="highway" v="tertiary"/>
    <tag k="maxspeed" v="50"/>
    <tag k="name" v="Calle de Sepúlveda"/>
    <tag k="oneway" v="yes"/>
  </way>
  <way id="67604411" version="3" timestamp="2011-01-09T12:58:42Z" uid="89290" user="Álvaro Arranz García" changeset="6914683">
    <nd ref="346637809"/>
    <nd ref="346637869"/>
    <tag k="highway" v="tertiary"/>
    <tag k="maxspeed" v="50"/>
    <tag k="name" v="Calle de Sepúlveda"/>
    <tag k="oneway" v="yes"/>
  </way>
  <way id="67604456" version="1" timestamp="2010-07-14T08:20:01Z" uid="4467" user="Rosscoe" changeset="5214771">
    <nd ref="267514009"/>
    <nd ref="816489322"/>
    <nd ref="661855712"/>
    <nd ref="267514010"/>
    <nd ref="267491372"/>
    <nd ref="267514011"/>
    <nd ref="267514012"/>
    <nd ref="267491179"/>
    <nd ref="267513921"/>
    <tag k="highway" v="tertiary"/>
    <tag k="oneway" v="yes"/>
  </way>
  <way id="67604456" version="2" timestamp="2011-09-02T12:19:23Z" uid="349913" user="Peter W34" changeset="9192681">
    <nd ref="267514009"/>
    <nd ref="816489322"/>
    <nd ref="661855712"/>
    <nd ref="267514010"/>
    <nd ref="267491372"/>
    <nd ref="267514011"/>
    <nd ref="267514012"/>
    <nd ref="267491179"/>
    <nd ref="267513921"/>
    <tag k="highway" v="tertiary"/>
    <tag k="name" v="Station Road"/>
    <tag k="oneway" v="yes"/>
    <tag k="surface" v="asphalt"/>
  </way>
  <way id="67604457" version="1" timestamp="2010-07-14T08:20:03Z" uid="4467" user="Rosscoe" changeset="5214771">
    <nd ref="267514614"/>
    <nd ref="816490337"/>
    <nd ref="816489647"/>
    <nd ref="816490279"/>
    <tag k="highway" v="motorway_link"/>
    <tag k="oneway" v="yes"/>
    <tag k="source" v="nearmap"/>
  </way>
  <way id="67604458" version="1" timestamp="2010-07-14T08:20:04Z" uid="4467" user="Rosscoe" changeset="5214771">
    <nd ref="94537832"/>
    <nd ref="94537833"/>
    <nd ref="94537834"/>
    <nd ref="94537835"/>
    <nd ref="94537776"/>
    <tag k="bridge" v="yes"/>
    <tag k="highway" v="primary"/>
    <tag k="layer" v="1"/>
    <tag k="name" v="Kingston Road"/>
    <tag k="oneway" v="yes"/>
  </way>
  <way id="67604458" version="2" timestamp="2010-12-30T17:24:22Z" uid="4467" user="Rosscoe" changeset="6811901">
    <nd ref="94537832"/>
    <nd ref="94537833"/>
    <nd ref="94537834"/>
    <nd ref="94537835"/>
    <tag k="bridge" v="yes"/>
    <tag k="highway" v="primary"/>
    <tag k="layer" v="1"/>
    <tag k="name" v="Kingston Road"/>
    <tag k="oneway" v="yes"/>
  </way>
  <way id="67604458" version="3" timestamp="2012-01-07T04:28:18Z" uid="67896" user="mrpulley" changeset="10318232">
    <nd ref="94537832"/>
    <nd ref="94537833"/>
    <nd ref="94537834"/>
    <nd ref="94537835"/>
    <tag k="bridge" v="yes"/>
    <tag k="highway" v="primary"/>
    <tag k="layer" v="1"/>
    <tag k="name" v="Kingston Road"/>
    <tag k="oneway" v="yes"/>
    <tag k="ref" v="S95"/>
  </way>
  <way id="67604459" version="1" timestamp="2010-07-14T08:20:05Z" uid="4467" user="Rosscoe" changeset="5214771">
    <nd ref="267489083"/>
    <nd ref="816489789"/>
    <nd ref="267489084"/>
    <nd ref="267489085"/>
    <tag k="highway" v="tertiary"/>
    <tag k="name" v="Battle Street"/>
    <tag k="oneway" v="yes"/>
  </way>
  <way id="67604460" version="1" timestamp="2010-07-14T08:20:07Z" uid="4467" user="Rosscoe" changeset="5214771">
    <nd ref="294101400"/>
    <nd ref="816490154"/>
    <nd ref="661837022"/>
    <tag k="bridge" v="yes"/>
    <tag k="highway" v="primary"/>
    <tag k="layer" v="1"/>
    <tag k="name" v="Kingston Road"/>
    <tag k="oneway" v="yes"/>
  </way>
  <way id="67604460" version="2" timestamp="2012-01-07T04:28:13Z" uid="67896" user="mrpulley" changeset="10318232">
    <nd ref="294101400"/>
    <nd ref="816490154"/>
    <nd ref="661837022"/>
    <tag k="bridge" v="yes"/>
    <tag k="highway" v="primary"/>
    <tag k="layer" v="1"/>
    <tag k="name" v="Kingston Road"/>
    <tag k="oneway" v="yes"/>
    <tag k="ref" v="S95"/>
  </way>
  <way id="67604461" version="1" timestamp="2010-07-14T08:20:08Z" uid="4467" user="Rosscoe" changeset="5214771">
    <nd ref="661845718"/>
    <nd ref="267517289"/>
    <nd ref="267517290"/>
    <tag k="highway" v="secondary"/>
    <tag k="name" v="Kingston Road"/>
    <tag k="oneway" v="yes"/>
  </way>
  <way id="67604461" version="2" timestamp="2010-07-28T12:33:47Z" uid="319765" user="Stuzz" changeset="5337377">
    <nd ref="661845718"/>
    <nd ref="267517289"/>
    <nd ref="267517290"/>
    <tag k="highway" v="secondary"/>
    <tag k="maxspeed" v="70"/>
    <tag k="maxspeed:source" v="survey"/>
    <tag k="name" v="Kingston Road"/>
    <tag k="oneway" v="yes"/>
  </way>
  <way id="67604461" version="3" timestamp="2011-05-22T11:29:47Z" uid="349913" user="Peter W34" changeset="8215080">
    <nd ref="661845718"/>
    <nd ref="267517289"/>
    <nd ref="267517290"/>
    <tag k="highway" v="primary"/>
    <tag k="maxspeed" v="70"/>
    <tag k="maxspeed:source" v="survey"/>
    <tag k="name" v="Kingston Road"/>
    <tag k="oneway" v="yes"/>
  </way>
  <way id="67604461" version="4" timestamp="2011-08-18T10:55:50Z" uid="22094" user="Chadzopkyo" changeset="9055741">
    <nd ref="661845718"/>
    <nd ref="1403173767"/>
    <nd ref="267517289"/>
    <nd ref="1403173779"/>
    <nd ref="267517290"/>
    <tag k="highway" v="primary"/>
    <tag k="maxspeed" v="70"/>
    <tag k="maxspeed:source" v="survey"/>
    <tag k="name" v="Kingston Road"/>
    <tag k="oneway" v="yes"/>
  </way>
  <way id="67604461" version="5" timestamp="2012-01-07T04:28:19Z" uid="67896" user="mrpulley" changeset="10318232">
    <nd ref="661845718"/>
    <nd ref="1403173767"/>
    <nd ref="267517289"/>
    <nd ref="1403173779"/>
    <nd ref="267517290"/>
    <tag k="highway" v="primary"/>
    <tag k="maxspeed" v="70"/>
    <tag k="maxspeed:source" v="survey"/>
    <tag k="name" v="Kingston Road"/>
    <tag k="oneway" v="yes"/>
    <tag k="ref" v="S95"/>
  </way>
  <way id="67604462" version="1" timestamp="2010-07-14T08:20:09Z" uid="4467" user="Rosscoe" changeset="5214771">
    <nd ref="26348618"/>
    <nd ref="816489586"/>
    <nd ref="816490214"/>
    <nd ref="267514617"/>
    <tag k="highway" v="motorway_link"/>
    <tag k="oneway" v="yes"/>
    <tag k="source" v="nearmap"/>
  </way>
  <way id="67604737" version="1" timestamp="2010-07-14T08:34:12Z" uid="4467" user="Rosscoe" changeset="5214882">
    <nd ref="816559538"/>
    <nd ref="268381501"/>
    <tag k="foot" v="yes"/>
    <tag k="highway" v="cycleway"/>
  </way>
  <way id="67604456" version="3" timestamp="2012-07-20T08:20:19Z" uid="722137" user="OSMF Redaction Account" changeset="12368079"/>
  <way id="67604457" version="2" timestamp="2012-07-20T08:20:18Z" uid="722137" user="OSMF Redaction Account" changeset="12368079"/>
  <way id="67604458" version="4" timestamp="2012-07-20T08:20:20Z" uid="722137" user="OSMF Redaction Account" changeset="12368079"/>
  <way id="67604459" version="2" timestamp="2012-07-20T08:20:19Z" uid="722137" user="OSMF Redaction Account" changeset="12368079"/>
  <way id="67604460" version="3" timestamp="2012-07-20T08:20:20Z" uid="722137" user="OSMF Redaction Account" changeset="12368079"/>
  <way id="67604461" version="6" timestamp="2012-07-20T08:18:27Z" uid="722137" user="OSMF Redaction Account" changeset="12367921">
    <nd ref="1403173767"/>
    <nd ref="1403173779"/>
    <tag k="highway" v="primary"/>
    <tag k="maxspeed" v="70"/>
    <tag k="maxspeed:source" v="survey"/>
    <tag k="ref" v="S95"/>
  </way>
  <way id="67604461" version="7" timestamp="2012-08-04T10:28:12Z" uid="349913" user="Peter W34" changeset="12607663"/>
  <way id="67604462" version="2" timestamp="2012-07-20T08:20:19Z" uid="722137" user="OSMF Redaction Account" changeset="12368079"/>
  <way id="67604737" version="2" timestamp="2012-07-19T10:14:25Z" uid="722137" user="OSMF Redaction Account" changeset="12317947"/>
</osm>
