<?xml version='1.0' encoding='UTF-8'?>
<osm version="0.6" generator="libosmium/2.20.0">
  <way id="68034849" version="2" timestamp="2010-07-25T22:02:45Z" uid="4467" user="Rosscoe" changeset="5317120">
    <nd ref="600391359"/>
    <nd ref="304705703"/>
    <nd ref="606742980"/>
    <tag k="bridge" v="yes"/>
    <tag k="highway" v="secondary"/>
    <tag k="layer" v="1"/>
    <tag k="ref" v="C404"/>
  </way>
  <way id="68034849" version="3" timestamp="2011-03-14T10:47:42Z" uid="206929" user="Supt_of_Printing" changeset="7554961">
    <nd ref="600391359"/>
    <nd ref="1201418120"/>
    <nd ref="304705703"/>
    <nd ref="1201418127"/>
    <nd ref="606742980"/>
    <tag k="bridge" v="yes"/>
    <tag k="highway" v="secondary"/>
    <tag k="layer" v="1"/>
    <tag k="ref" v="C404"/>
  </way>
  <way id="68034849" version="5" timestamp="2012-07-19T20:02:19Z" uid="722137" user="OSMF Redaction Account" changeset="12345654">
    <nd ref="600391359"/>
    <nd ref="1201418120"/>
    <nd ref="304705703"/>
    <nd ref="1201418127"/>
    <nd ref="606742980"/>
    <tag k="bridge" v="yes"/>
    <tag k="highway" v="secondary"/>
    <tag k="maxspeed" v="60"/>
    <tag k="ref" v="C404"/>
  </way>
</osm>
