<?xml version='1.0' encoding='UTF-8'?>
<osm version="0.6" generator="libosmium/2.20.0">
  <way id="68542987" version="1" timestamp="2010-07-19T09:24:53Z" uid="171838" user="argrath" changeset="5259114">
    <nd ref="824235517"/>
    <nd ref="258765135"/>
    <nd ref="258765136"/>
    <nd ref="559424322"/>
    <nd ref="258765138"/>
    <nd ref="559424296"/>
    <nd ref="616688682"/>
    <nd ref="258765140"/>
    <nd ref="681320181"/>
    <nd ref="258765141"/>
    <nd ref="561317816"/>
    <nd ref="559424375"/>
    <nd ref="258765142"/>
    <nd ref="559424486"/>
    <nd ref="450298400"/>
    <nd ref="561317824"/>
    <tag k="highway" v="trunk"/>
    <tag k="name" v="国道25号 御堂筋 (Route 25)"/>
    <tag k="name:ja" v="国道25号; 御堂筋"/>
    <tag k="oneway" v="yes"/>
    <tag k="ref" v="25"/>
    <tag k="source" v="MLIT Japan"/>
    <tag k="source:ja" v="国土画像情報（オルソ化空中写真）国土交通省"/>
  </way>
  <way id="68542988" version="1" timestamp="2010-07-19T09:24:54Z" uid="171838" user="argrath" changeset="5259114">
    <nd ref="824235520"/>
    <nd ref="824235517"/>
    <tag k="bridge" v="yes"/>
    <tag k="highway" v="trunk"/>
    <tag k="name" v="国道25号 御堂筋 (Route 25)"/>
    <tag k="name:ja" v="国道25号; 御堂筋"/>
    <tag k="oneway" v="yes"/>
    <tag k="ref" v="25"/>
    <tag k="source" v="MLIT Japan"/>
    <tag k="source:ja" v="国土画像情報（オルソ化空中写真）国土交通省"/>
  </way>
  <way id="68542987" version="2" timestamp="2012-07-15T10:08:29Z" uid="35930" user="Show-ichi" changeset="12225895">
    <nd ref="824235517"/>
    <nd ref="258765135"/>
    <nd ref="559424322"/>
    <nd ref="559424296"/>
    <nd ref="616688682"/>
    <nd ref="258765140"/>
    <nd ref="681320181"/>
    <nd ref="258765141"/>
    <nd ref="559424375"/>
    <nd ref="559424486"/>
    <nd ref="450298400"/>
    <nd ref="258765144"/>
    <tag k="highway" v="trunk"/>
    <tag k="name" v="国道25号 御堂筋 (Route 25)"/>
    <tag k="name:ja" v="国道25号; 御堂筋"/>
    <tag k="oneway" v="yes"/>
    <tag k="ref" v="25"/>
    <tag k="source" v="MLIT Japan"/>
    <tag k="source:ja" v="国土画像情報（オルソ化空中写真）国土交通省"/>
  </way>
  <way id="68542987" version="3" timestamp="2012-07-20T21:55:12Z" uid="212111" user="okilimu" changeset="12393895"/>
  <way id="68542988" version="2" timestamp="2012-07-20T21:55:13Z" uid="212111" user="okilimu" changeset="12393895"/>
</osm>
