<?xml version='1.0' encoding='UTF-8'?>
<osm version="0.6" generator="libosmium/2.20.0">
  <way id="68565885" version="1" timestamp="2010-07-19T12:01:04Z" uid="64977" user="CLoeser" changeset="5260387">
    <nd ref="824387040"/>
    <nd ref="332531757"/>
    <tag k="name" v="Querwettern"/>
    <tag k="note" v="inaccurate"/>
    <tag k="waterway" v="drain"/>
  </way>
  <way id="68565885" version="2" timestamp="2010-12-12T14:51:18Z" uid="66904" user="OSchlÃ¼ter" changeset="6636966">
    <nd ref="824387040"/>
    <nd ref="1035753527"/>
    <tag k="name" v="Querwettern"/>
    <tag k="note" v="inaccurate"/>
    <tag k="waterway" v="drain"/>
  </way>
  <way id="68565987" version="2" timestamp="2010-12-05T05:56:24Z" uid="7617" user="Franc" changeset="6546920">
    <nd ref="12224324"/>
    <nd ref="659711473"/>
    <nd ref="1021751248"/>
    <nd ref="432874547"/>
    <nd ref="12224331"/>
    <nd ref="99655126"/>
    <tag k="highway" v="residential"/>
    <tag k="lcn" v="yes"/>
    <tag k="maxspeed" v="50"/>
    <tag k="maxspeed:source" v="default residential speed limit in Australia"/>
    <tag k="name" v="Punt Road"/>
    <tag k="source" v="survey"/>
  </way>
  <way id="68565987" version="3" timestamp="2012-02-07T00:09:11Z" uid="7523" user="inas" changeset="10608317"/>
  <way id="68565885" version="3" timestamp="2012-07-19T01:37:02Z" uid="722137" user="OSMF Redaction Account" changeset="12304022"/>
</osm>
