<?xml version='1.0' encoding='UTF-8'?>
<osm version="0.6" generator="libosmium/2.20.0">
  <way id="68577549" version="1" timestamp="2010-07-19T14:22:20Z" uid="4467" user="Rosscoe" changeset="5261580">
    <nd ref="171120933"/>
    <nd ref="171120954"/>
    <tag k="highway" v="trunk"/>
    <tag k="is_in" v="Glenelg North,South Australia,Australia"/>
    <tag k="maxspeed" v="60"/>
    <tag k="name" v="Tapleys Hill Road"/>
    <tag k="oneway" v="yes"/>
    <tag k="postal_code" v="5045"/>
    <tag k="ref" v="A15"/>
    <tag k="source" v="survey"/>
  </way>
  <way id="68577549" version="2" timestamp="2010-09-27T01:08:55Z" uid="79475" user="AlexOnTheBus" changeset="5887960">
    <nd ref="171120933"/>
    <nd ref="171120954"/>
    <tag k="highway" v="primary"/>
    <tag k="is_in" v="Glenelg North,South Australia,Australia"/>
    <tag k="maxspeed" v="60"/>
    <tag k="name" v="Tapleys Hill Road"/>
    <tag k="oneway" v="yes"/>
    <tag k="postal_code" v="5045"/>
    <tag k="ref" v="A15"/>
    <tag k="source" v="survey"/>
  </way>
  <way id="68577549" version="3" timestamp="2011-05-05T11:25:01Z" uid="21143" user="hryciuk" changeset="8056469">
    <nd ref="171120933"/>
    <nd ref="1272969672"/>
    <nd ref="171120954"/>
    <tag k="highway" v="primary"/>
    <tag k="is_in" v="Glenelg North,South Australia,Australia"/>
    <tag k="maxspeed" v="60"/>
    <tag k="name" v="Tapleys Hill Road"/>
    <tag k="oneway" v="yes"/>
    <tag k="postal_code" v="5045"/>
    <tag k="ref" v="A15"/>
    <tag k="source" v="survey"/>
  </way>
  <way id="68577549" version="4" timestamp="2011-08-06T08:15:19Z" uid="428465" user="markinspace" changeset="8935292">
    <nd ref="171120933"/>
    <nd ref="1272969672"/>
    <nd ref="171120954"/>
    <tag k="highway" v="primary"/>
    <tag k="is_in" v="Glenelg North,South Australia,Australia"/>
    <tag k="lanes" v="2"/>
    <tag k="maxspeed" v="60"/>
    <tag k="name" v="Tapleys Hill Road"/>
    <tag k="oneway" v="yes"/>
    <tag k="postal_code" v="5045"/>
    <tag k="ref" v="A15"/>
    <tag k="source" v="survey"/>
  </way>
  <way id="68577552" version="1" timestamp="2010-07-19T14:22:21Z" uid="4467" user="Rosscoe" changeset="5261580">
    <nd ref="171121058"/>
    <nd ref="171121033"/>
    <tag k="bridge" v="yes"/>
    <tag k="highway" v="trunk"/>
    <tag k="layer" v="1"/>
    <tag k="name" v="Tapleys Hill Road"/>
    <tag k="ref" v="A15"/>
    <tag k="source" v="survey"/>
  </way>
  <way id="68577552" version="2" timestamp="2010-09-27T01:08:08Z" uid="79475" user="AlexOnTheBus" changeset="5887960">
    <nd ref="171121058"/>
    <nd ref="171121033"/>
    <tag k="bridge" v="yes"/>
    <tag k="highway" v="primary"/>
    <tag k="layer" v="1"/>
    <tag k="name" v="Tapleys Hill Road"/>
    <tag k="oneway" v="yes"/>
    <tag k="ref" v="A15"/>
    <tag k="source" v="survey"/>
  </way>
  <way id="68577552" version="3" timestamp="2011-08-06T08:15:19Z" uid="428465" user="markinspace" changeset="8935292">
    <nd ref="171121058"/>
    <nd ref="171121033"/>
    <tag k="bridge" v="yes"/>
    <tag k="highway" v="primary"/>
    <tag k="lanes" v="2"/>
    <tag k="layer" v="1"/>
    <tag k="maxspeed" v="60"/>
    <tag k="name" v="Tapleys Hill Road"/>
    <tag k="oneway" v="yes"/>
    <tag k="ref" v="A15"/>
    <tag k="source" v="survey"/>
  </way>
  <way id="68577554" version="1" timestamp="2010-07-19T14:22:22Z" uid="4467" user="Rosscoe" changeset="5261580">
    <nd ref="253475207"/>
    <nd ref="824521473"/>
    <nd ref="824521516"/>
    <tag k="highway" v="residential"/>
    <tag k="source" v="nearmap"/>
  </way>
  <way id="68577554" version="2" timestamp="2011-02-06T13:11:39Z" uid="21143" user="hryciuk" changeset="7202893">
    <nd ref="253475207"/>
    <nd ref="824521473"/>
    <nd ref="824521516"/>
    <tag k="highway" v="residential"/>
    <tag k="source" v="nearmap"/>
  </way>
  <way id="68577757" version="2" timestamp="2011-06-15T12:25:25Z" uid="30201" user="rrankin" changeset="8446793">
    <nd ref="824525773"/>
    <nd ref="824525775"/>
    <nd ref="824525777"/>
    <nd ref="824525781"/>
    <nd ref="824525755"/>
    <nd ref="824525784"/>
    <nd ref="824525793"/>
    <nd ref="824525797"/>
    <tag k="highway" v="footway"/>
  </way>
  <way id="68577549" version="5" timestamp="2012-07-07T09:19:03Z" uid="328538" user="o&apos;cholio" changeset="12138149">
    <nd ref="171120933"/>
    <nd ref="1815660423"/>
    <nd ref="1272969672"/>
    <nd ref="171120954"/>
    <tag k="highway" v="primary"/>
    <tag k="is_in" v="Glenelg North,South Australia,Australia"/>
    <tag k="lanes" v="2"/>
    <tag k="maxspeed" v="60"/>
    <tag k="name" v="Tapleys Hill Road"/>
    <tag k="odbl" v="clean"/>
    <tag k="oneway" v="yes"/>
    <tag k="postal_code" v="5045"/>
    <tag k="ref" v="A15"/>
    <tag k="source" v="survey"/>
  </way>
  <way id="68577549" version="6" timestamp="2012-09-09T22:21:24Z" uid="418724" user="wintersportler" changeset="13050842">
    <nd ref="171120933"/>
    <nd ref="1272969672"/>
    <nd ref="171120954"/>
    <tag k="highway" v="primary"/>
    <tag k="is_in" v="Glenelg North,South Australia,Australia"/>
    <tag k="lanes" v="2"/>
    <tag k="maxspeed" v="60"/>
    <tag k="name" v="Tapleys Hill Road"/>
    <tag k="oneway" v="yes"/>
    <tag k="postal_code" v="5045"/>
    <tag k="ref" v="A15"/>
    <tag k="source" v="survey"/>
  </way>
  <way id="68577552" version="4" timestamp="2012-07-07T09:18:58Z" uid="328538" user="o&apos;cholio" changeset="12138149">
    <nd ref="171121058"/>
    <nd ref="171121033"/>
    <tag k="bridge" v="yes"/>
    <tag k="highway" v="primary"/>
    <tag k="lanes" v="2"/>
    <tag k="layer" v="1"/>
    <tag k="maxspeed" v="60"/>
    <tag k="name" v="Tapleys Hill Road"/>
    <tag k="odbl" v="clean"/>
    <tag k="oneway" v="yes"/>
    <tag k="ref" v="A15"/>
    <tag k="source" v="survey"/>
  </way>
  <way id="68577554" version="3" timestamp="2012-07-20T11:10:17Z" uid="722137" user="OSMF Redaction Account" changeset="12372454"/>
  <way id="68577757" version="3" timestamp="2012-07-21T18:11:17Z" uid="722137" user="OSMF Redaction Account" changeset="12416878">
    <nd ref="824525773"/>
    <nd ref="824525775"/>
    <nd ref="824525777"/>
    <nd ref="824525781"/>
    <nd ref="824525784"/>
    <nd ref="824525793"/>
    <nd ref="824525797"/>
    <tag k="highway" v="footway"/>
  </way>
</osm>
