<?xml version='1.0' encoding='UTF-8'?>
<osm version="0.6" generator="libosmium/2.20.0">
  <way id="6883163" version="2" timestamp="2010-07-08T00:04:56Z" uid="74617" user="JohnSmith" changeset="5162525">
    <nd ref="53896542"/>
    <nd ref="53896546"/>
    <tag k="access" v="private"/>
    <tag k="highway" v="residential"/>
    <tag k="maxspeed" v="50"/>
    <tag k="maxspeed:source" v="default residential speed limit in Australia"/>
    <tag k="name" v="Cottonwood Way"/>
    <tag k="source" v="yahoo_imagery"/>
  </way>
  <way id="6883163" version="3" timestamp="2010-07-08T00:15:48Z" uid="74617" user="JohnSmith" changeset="5162525">
    <nd ref="53896542"/>
    <nd ref="53896546"/>
    <tag k="access" v="private"/>
    <tag k="highway" v="residential"/>
    <tag k="maxspeed" v="50"/>
    <tag k="maxspeed:source" v="default residential speed limit in Australia"/>
    <tag k="name" v="Cottonwood Way"/>
    <tag k="source" v="yahoo_imagery"/>
  </way>
  <way id="6883163" version="4" timestamp="2012-01-15T06:23:42Z" uid="147510" user="woodpeck_fixbot" changeset="10394821">
    <nd ref="53896542"/>
    <nd ref="53896546"/>
    <tag k="access" v="private"/>
    <tag k="highway" v="residential"/>
    <tag k="name" v="Cottonwood Way"/>
    <tag k="source" v="yahoo_imagery"/>
  </way>
  <way id="6883163" version="5" timestamp="2012-08-14T11:59:01Z" uid="11321" user="Pecisk" changeset="12725998">
    <nd ref="50967243"/>
    <nd ref="53896546"/>
    <nd ref="1865596924"/>
    <tag k="access" v="private"/>
    <tag k="highway" v="residential"/>
    <tag k="name" v="Cottonwood Way"/>
    <tag k="source" v="yahoo_imagery"/>
  </way>
</osm>
