<?xml version='1.0' encoding='UTF-8'?>
<osm version="0.6" generator="libosmium/2.20.0">
  <way id="6894898" version="4" timestamp="2008-07-03T23:25:56Z" uid="6975" user="ulfl" changeset="386611">
    <nd ref="43926836"/>
    <nd ref="43927765"/>
    <nd ref="43928176"/>
    <tag k="AND_nosr_r" v="15595722; 15595805"/>
    <tag k="highway" v="unclassified"/>
    <tag k="name" v="Einsteinstraat"/>
    <tag k="oneway" v="1"/>
  </way>
  <way id="6894898" version="5" timestamp="2008-09-12T15:13:35Z" uid="57652" user="richardbrinkman" changeset="617074">
    <nd ref="43926836"/>
    <nd ref="43927765"/>
    <nd ref="43928176"/>
    <tag k="AND_nosr_r" v="15595722; 15595805"/>
    <tag k="created_by" v="Merkaartor 0.13"/>
    <tag k="highway" v="unclassified"/>
    <tag k="name" v="Einsteinstraat"/>
    <tag k="oneway" v="yes"/>
  </way>
  <way id="6894898" version="6" timestamp="2009-06-26T09:25:40Z" uid="25231" user="Steven te Brinke" changeset="1638458">
    <nd ref="43926836"/>
    <nd ref="43927765"/>
    <nd ref="43928176"/>
    <tag k="AND_nosr_r" v="15595722; 15595805"/>
    <tag k="created_by" v="Merkaartor 0.13"/>
    <tag k="cycleway" v="opposite"/>
    <tag k="highway" v="unclassified"/>
    <tag k="name" v="Einsteinstraat"/>
    <tag k="oneway" v="yes"/>
  </way>
  <way id="6894898" version="7" timestamp="2010-09-01T21:07:28Z" uid="336874" user="ayke" changeset="5657548">
    <nd ref="43926836"/>
    <nd ref="43927765"/>
    <nd ref="43928176"/>
    <tag k="AND_nosr_r" v="15595722; 15595805"/>
    <tag k="cycleway" v="opposite"/>
    <tag k="highway" v="residential"/>
    <tag k="maxspeed" v="30"/>
    <tag k="name" v="Einsteinstraat"/>
    <tag k="oneway" v="yes"/>
  </way>
</osm>
