<?xml version='1.0' encoding='UTF-8'?>
<osm version="0.6" generator="libosmium/2.20.0">
  <way id="6900028" version="2" timestamp="2008-03-25T13:53:17Z" uid="16922" user="amai" changeset="390170">
    <nd ref="616108"/>
    <nd ref="532269"/>
    <nd ref="447715"/>
    <tag k="TODO" v="yes"/>
    <tag k="created_by" v="Potlatch 0.8"/>
    <tag k="highway" v="unclassified"/>
    <tag k="name" v="Rabenaustraße"/>
  </way>
  <way id="6900028" version="3" timestamp="2008-11-12T18:37:52Z" uid="61927" user="AlexPleiner" changeset="740521">
    <nd ref="616108"/>
    <nd ref="532269"/>
    <nd ref="311584018"/>
    <nd ref="447715"/>
    <tag k="TODO" v="yes"/>
    <tag k="created_by" v="Potlatch 0.8"/>
    <tag k="highway" v="unclassified"/>
    <tag k="name" v="Rabenaustraße"/>
  </way>
  <way id="6900028" version="4" timestamp="2009-02-16T20:24:12Z" uid="23785" user="Simon Kokolakis" changeset="485011">
    <nd ref="616108"/>
    <nd ref="532269"/>
    <nd ref="311584018"/>
    <nd ref="447715"/>
    <tag k="TODO" v="yes"/>
    <tag k="created_by" v="Potlatch 0.10f"/>
    <tag k="highway" v="unclassified"/>
    <tag k="name" v="Rabenaustraße"/>
  </way>
  <way id="6900028" version="5" timestamp="2009-03-11T13:34:17Z" uid="61927" user="AlexPleiner" changeset="789607">
    <nd ref="616108"/>
    <nd ref="532269"/>
    <nd ref="311584018"/>
    <nd ref="447715"/>
    <tag k="created_by" v="Potlatch 0.10f"/>
    <tag k="highway" v="residential"/>
    <tag k="name" v="Mettegangweg"/>
  </way>
  <way id="6900028" version="6" timestamp="2009-09-12T14:15:50Z" uid="22369" user="aylex" changeset="2458417">
    <nd ref="616108"/>
    <nd ref="494213567"/>
    <nd ref="532269"/>
    <nd ref="494213562"/>
    <nd ref="311584018"/>
    <nd ref="494213554"/>
    <nd ref="447715"/>
    <tag k="highway" v="residential"/>
    <tag k="name" v="Mettegangweg"/>
  </way>
  <way id="6900028" version="7" timestamp="2010-04-21T18:37:35Z" uid="239098" user="die4Waldis" changeset="4489384">
    <nd ref="616108"/>
    <nd ref="494213567"/>
    <nd ref="532269"/>
    <nd ref="494213562"/>
    <nd ref="311584018"/>
    <nd ref="494213554"/>
    <nd ref="447715"/>
    <tag k="highway" v="residential"/>
    <tag k="name" v="Mettegangweg"/>
    <tag k="oneway" v="yes"/>
  </way>
  <way id="6900028" version="8" timestamp="2010-05-11T12:59:00Z" uid="64894" user="delfin_6" changeset="4668377">
    <nd ref="616108"/>
    <nd ref="729674847"/>
    <nd ref="494213567"/>
    <nd ref="532269"/>
    <nd ref="494213562"/>
    <nd ref="311584018"/>
    <nd ref="494213554"/>
    <nd ref="447715"/>
    <tag k="highway" v="residential"/>
    <tag k="name" v="Mettegangweg"/>
    <tag k="oneway" v="yes"/>
  </way>
  <way id="6900028" version="9" timestamp="2011-12-07T07:52:57Z" uid="24920" user="Schusch" changeset="10055697">
    <nd ref="616108"/>
    <nd ref="729674847"/>
    <nd ref="494213567"/>
    <nd ref="532269"/>
    <nd ref="494213562"/>
    <nd ref="311584018"/>
    <nd ref="494213554"/>
    <nd ref="447715"/>
    <tag k="highway" v="residential"/>
    <tag k="maxspeed" v="30"/>
    <tag k="name" v="Mettegangweg"/>
    <tag k="oneway" v="yes"/>
    <tag k="source:maxspeed" v="DE:zone"/>
  </way>
  <way id="6900028" version="10" timestamp="2012-02-12T09:10:09Z" uid="55687" user="dschuwa" changeset="10660564"/>
  <way id="6900058" version="2" timestamp="2008-03-25T13:52:08Z" uid="16922" user="amai" changeset="390170">
    <nd ref="532997"/>
    <nd ref="532588"/>
    <nd ref="533668"/>
    <nd ref="447715"/>
    <nd ref="532945"/>
    <nd ref="533038"/>
    <tag k="TODO" v="yes"/>
    <tag k="created_by" v="Potlatch 0.8"/>
    <tag k="highway" v="unclassified"/>
    <tag k="name" v="Traubenweg"/>
  </way>
  <way id="6900058" version="3" timestamp="2008-05-16T20:50:27Z" uid="30867" user="mrewald" changeset="461231">
    <nd ref="264977371"/>
    <nd ref="532997"/>
    <tag k="TODO" v="yes"/>
    <tag k="created_by" v="Potlatch 0.9a"/>
    <tag k="highway" v="unclassified"/>
    <tag k="name" v="Traubenweg"/>
  </way>
  <way id="6900058" version="4" timestamp="2008-05-16T20:51:02Z" uid="30867" user="mrewald" changeset="461231">
    <nd ref="264977371"/>
    <nd ref="532997"/>
    <tag k="created_by" v="Potlatch 0.9a"/>
    <tag k="cycleway" v="track"/>
    <tag k="foot" v="yes"/>
    <tag k="highway" v="cycleway"/>
    <tag k="name" v="Traubenweg"/>
  </way>
  <way id="6900058" version="5" timestamp="2009-01-05T14:32:08Z" uid="64791" user="Steffen Vogel" changeset="740697">
    <nd ref="307446382"/>
    <nd ref="532997"/>
    <tag k="created_by" v="Potlatch 0.9a"/>
    <tag k="cycleway" v="track"/>
    <tag k="foot" v="yes"/>
    <tag k="highway" v="cycleway"/>
    <tag k="name" v="Traubenweg"/>
  </way>
  <way id="6900058" version="6" timestamp="2009-09-09T12:56:44Z" uid="154917" user="forstwald" changeset="2425046">
    <nd ref="307446382"/>
    <nd ref="532997"/>
    <tag k="bicycle" v="designated"/>
    <tag k="cycleway" v="track"/>
    <tag k="foot" v="designated"/>
    <tag k="highway" v="cycleway"/>
    <tag k="name" v="Traubenweg"/>
  </way>
  <way id="6900058" version="7" timestamp="2010-04-12T03:12:03Z" uid="263596" user="Oberförster" changeset="4400878">
    <nd ref="307446382"/>
    <nd ref="532997"/>
    <tag k="bicycle" v="designated"/>
    <tag k="cycleway" v="track"/>
    <tag k="foot" v="designated"/>
    <tag k="highway" v="path"/>
    <tag k="name" v="Traubenweg"/>
    <tag k="segregated" v="no"/>
    <tag k="surface" v="compacted"/>
  </way>
  <way id="6900058" version="8" timestamp="2011-04-19T09:26:36Z" uid="128941" user="Oliver Kiddle" changeset="7904644">
    <nd ref="307446382"/>
    <nd ref="380526254"/>
    <nd ref="532997"/>
    <tag k="bicycle" v="designated"/>
    <tag k="cycleway" v="track"/>
    <tag k="foot" v="designated"/>
    <tag k="highway" v="path"/>
    <tag k="name" v="Traubenweg"/>
    <tag k="segregated" v="no"/>
    <tag k="surface" v="compacted"/>
  </way>
  <way id="6900058" version="9" timestamp="2012-02-12T09:10:10Z" uid="55687" user="dschuwa" changeset="10660564"/>
  <way id="6900060" version="2" timestamp="2008-03-25T13:52:37Z" uid="16922" user="amai" changeset="390170">
    <nd ref="532588"/>
    <nd ref="532595"/>
    <nd ref="532596"/>
    <nd ref="532261"/>
    <nd ref="532259"/>
    <nd ref="533667"/>
    <tag k="TODO" v="yes"/>
    <tag k="created_by" v="Potlatch 0.8"/>
    <tag k="highway" v="unclassified"/>
    <tag k="name" v="Moldenhauerweg"/>
  </way>
  <way id="6900060" version="3" timestamp="2008-03-31T22:47:02Z" uid="23785" user="Simon Kokolakis" changeset="437457">
    <nd ref="532588"/>
    <nd ref="532595"/>
    <nd ref="532259"/>
    <nd ref="533667"/>
    <tag k="TODO" v="yes"/>
    <tag k="created_by" v="Potlatch 0.8a"/>
    <tag k="highway" v="unclassified"/>
    <tag k="name" v="Moldenhauerweg"/>
  </way>
  <way id="6900060" version="4" timestamp="2008-10-30T11:00:26Z" uid="23785" user="Simon Kokolakis" changeset="633223">
    <nd ref="532588"/>
    <nd ref="532595"/>
    <nd ref="532259"/>
    <nd ref="533667"/>
    <tag k="TODO" v="yes"/>
    <tag k="created_by" v="Potlatch 0.10f"/>
    <tag k="highway" v="unclassified"/>
    <tag k="name" v="Moldenhauerweg"/>
  </way>
  <way id="6900060" version="5" timestamp="2008-11-12T18:37:52Z" uid="61927" user="AlexPleiner" changeset="740521">
    <nd ref="532588"/>
    <nd ref="311584022"/>
    <nd ref="532595"/>
    <nd ref="311584021"/>
    <nd ref="532259"/>
    <nd ref="311584019"/>
    <nd ref="533667"/>
    <tag k="TODO" v="yes"/>
    <tag k="created_by" v="Potlatch 0.10f"/>
    <tag k="highway" v="unclassified"/>
    <tag k="name" v="Moldenhauerweg"/>
  </way>
  <way id="6900060" version="6" timestamp="2009-03-11T13:34:10Z" uid="61927" user="AlexPleiner" changeset="789607">
    <nd ref="532588"/>
    <nd ref="311584022"/>
    <nd ref="532595"/>
    <nd ref="311584021"/>
    <nd ref="532259"/>
    <nd ref="311584019"/>
    <nd ref="533667"/>
    <tag k="created_by" v="Potlatch 0.10f"/>
    <tag k="highway" v="residential"/>
    <tag k="name" v="Moldenhauerweg"/>
  </way>
  <way id="6900060" version="7" timestamp="2009-03-11T13:39:36Z" uid="61927" user="AlexPleiner" changeset="789607">
    <nd ref="532588"/>
    <nd ref="311584022"/>
    <nd ref="532595"/>
    <nd ref="311584021"/>
    <nd ref="532259"/>
    <nd ref="358991241"/>
    <nd ref="311584019"/>
    <nd ref="533667"/>
    <tag k="created_by" v="Potlatch 0.10f"/>
    <tag k="highway" v="residential"/>
    <tag k="name" v="Moldenhauerweg"/>
  </way>
  <way id="6900060" version="8" timestamp="2009-12-06T11:33:08Z" uid="154917" user="forstwald" changeset="3303784">
    <nd ref="532588"/>
    <nd ref="311584022"/>
    <nd ref="532595"/>
    <nd ref="311584021"/>
    <nd ref="532259"/>
    <nd ref="358991241"/>
    <nd ref="311584019"/>
    <nd ref="582492063"/>
    <nd ref="533667"/>
    <tag k="highway" v="residential"/>
    <tag k="name" v="Moldenhauerweg"/>
  </way>
  <way id="6900060" version="9" timestamp="2010-02-15T22:39:14Z" uid="91490" user="Heinz_V" changeset="3887856">
    <nd ref="532588"/>
    <nd ref="311584022"/>
    <nd ref="532595"/>
    <nd ref="311584021"/>
    <nd ref="532259"/>
    <nd ref="358991241"/>
    <nd ref="640517161"/>
    <nd ref="582492063"/>
    <nd ref="533667"/>
    <tag k="highway" v="residential"/>
    <tag k="name" v="Moldenhauerweg"/>
  </way>
  <way id="6900060" version="10" timestamp="2011-10-12T15:53:49Z" uid="90589" user="snipermatze" changeset="9539983">
    <nd ref="532588"/>
    <nd ref="311584022"/>
    <nd ref="532595"/>
    <nd ref="1464042563"/>
    <nd ref="311584021"/>
    <nd ref="532259"/>
    <nd ref="358991241"/>
    <nd ref="640517161"/>
    <nd ref="582492063"/>
    <nd ref="533667"/>
    <tag k="highway" v="residential"/>
    <tag k="name" v="Moldenhauerweg"/>
  </way>
  <way id="6900060" version="11" timestamp="2012-02-12T09:10:09Z" uid="55687" user="dschuwa" changeset="10660564"/>
  <way id="6900062" version="2" timestamp="2008-03-25T13:52:04Z" uid="16922" user="amai" changeset="390170"/>
  <way id="6900073" version="3" timestamp="2008-03-01T16:31:13Z" uid="16922" user="amai" changeset="245536">
    <nd ref="473605"/>
    <nd ref="532256"/>
    <tag k="TODO" v="yes"/>
    <tag k="created_by" v="Potlatch 0.7b"/>
    <tag k="highway" v="unclassified"/>
    <tag k="name" v="Wedekindweg"/>
  </way>
  <way id="6900073" version="4" timestamp="2008-03-25T13:51:29Z" uid="16922" user="amai" changeset="390170">
    <nd ref="473605"/>
    <nd ref="532256"/>
    <nd ref="532997"/>
    <tag k="TODO" v="yes"/>
    <tag k="created_by" v="Potlatch 0.8"/>
    <tag k="highway" v="unclassified"/>
    <tag k="name" v="Wedekindweg"/>
  </way>
  <way id="6900073" version="5" timestamp="2009-02-16T20:24:38Z" uid="23785" user="Simon Kokolakis" changeset="485011">
    <nd ref="473605"/>
    <nd ref="532256"/>
    <nd ref="346327213"/>
    <nd ref="532997"/>
    <tag k="TODO" v="yes"/>
    <tag k="created_by" v="Potlatch 0.10f"/>
    <tag k="highway" v="unclassified"/>
    <tag k="name" v="Wedekindweg"/>
  </way>
  <way id="6900073" version="6" timestamp="2009-03-11T13:34:11Z" uid="61927" user="AlexPleiner" changeset="789607">
    <nd ref="473605"/>
    <nd ref="532256"/>
    <nd ref="346327213"/>
    <nd ref="532997"/>
    <tag k="created_by" v="Potlatch 0.10f"/>
    <tag k="highway" v="residential"/>
    <tag k="name" v="Wedekindweg"/>
  </way>
  <way id="6900073" version="7" timestamp="2009-09-12T14:15:54Z" uid="22369" user="aylex" changeset="2458417">
    <nd ref="473605"/>
    <nd ref="494213580"/>
    <nd ref="494213573"/>
    <nd ref="532256"/>
    <nd ref="494213574"/>
    <nd ref="494213576"/>
    <nd ref="346327213"/>
    <nd ref="494213579"/>
    <nd ref="532997"/>
    <tag k="highway" v="residential"/>
    <tag k="name" v="Wedekindweg"/>
  </way>
  <way id="6900073" version="8" timestamp="2009-12-06T11:33:08Z" uid="154917" user="forstwald" changeset="3303784">
    <nd ref="473605"/>
    <nd ref="582492064"/>
    <nd ref="494213580"/>
    <nd ref="494213573"/>
    <nd ref="532256"/>
    <nd ref="494213574"/>
    <nd ref="494213576"/>
    <nd ref="346327213"/>
    <nd ref="494213579"/>
    <nd ref="532997"/>
    <tag k="highway" v="residential"/>
    <tag k="name" v="Wedekindweg"/>
  </way>
  <way id="6900073" version="9" timestamp="2012-02-12T09:10:10Z" uid="55687" user="dschuwa" changeset="10660564"/>
  <way id="6900074" version="1" timestamp="2007-09-18T12:00:16Z" uid="6454" user="B10xxx" changeset="462373">
    <nd ref="2387620"/>
    <nd ref="53486120"/>
    <tag k="created_by" v="JOSM"/>
    <tag k="highway" v="tertiary"/>
  </way>
  <way id="6900074" version="2" timestamp="2008-06-12T14:29:42Z" uid="45389" user="wbnbbr" changeset="139210">
    <nd ref="2387620"/>
    <nd ref="53486120"/>
    <tag k="created_by" v="Potlatch 0.9c"/>
    <tag k="highway" v="tertiary"/>
    <tag k="name" v="Rathenauplatz"/>
  </way>
  <way id="6900074" version="3" timestamp="2008-06-13T17:17:05Z" uid="45389" user="wbnbbr" changeset="154482">
    <nd ref="2387620"/>
    <nd ref="53486120"/>
    <tag k="created_by" v="Potlatch 0.9c"/>
    <tag k="highway" v="tertiary"/>
    <tag k="name" v="Rathenauplatz"/>
    <tag k="oneway" v="yes"/>
  </way>
  <way id="6900074" version="4" timestamp="2012-01-18T23:43:04Z" uid="328555" user="peb12345" changeset="10432950"/>
  <way id="6900083" version="3" timestamp="2008-03-25T13:52:27Z" uid="16922" user="amai" changeset="390170"/>
  <way id="6900087" version="2" timestamp="2008-03-25T13:52:38Z" uid="16922" user="amai" changeset="390170"/>
  <way id="6900090" version="2" timestamp="2008-03-25T13:52:27Z" uid="16922" user="amai" changeset="390170"/>
  <way id="6900096" version="1" timestamp="2007-09-28T20:18:14Z" uid="13367" user="nubok" changeset="531605">
    <nd ref="533241"/>
    <nd ref="533243"/>
    <nd ref="533244"/>
    <nd ref="533245"/>
    <nd ref="533246"/>
    <nd ref="533247"/>
    <nd ref="533248"/>
    <tag k="TODO" v="yes"/>
    <tag k="created_by" v="Potlatch alpha"/>
    <tag k="highway" v="unclassified"/>
  </way>
  <way id="6900096" version="2" timestamp="2007-12-08T01:46:41Z" uid="46" user="FrankM" changeset="180935"/>
  <way id="6900099" version="3" timestamp="2008-03-25T13:52:38Z" uid="16922" user="amai" changeset="390170"/>
  <way id="6900105" version="2" timestamp="2008-03-25T13:53:19Z" uid="16922" user="amai" changeset="390170"/>
  <way id="6900111" version="2" timestamp="2008-03-01T16:31:36Z" uid="16922" user="amai" changeset="245536">
    <nd ref="19066031"/>
    <nd ref="19066041"/>
    <nd ref="19066027"/>
    <nd ref="19066034"/>
    <tag k="TODO" v="yes"/>
    <tag k="created_by" v="Potlatch 0.7b"/>
    <tag k="highway" v="unclassified"/>
    <tag k="name" v="Trierer Straße"/>
  </way>
  <way id="6900111" version="3" timestamp="2008-10-30T11:01:03Z" uid="23785" user="Simon Kokolakis" changeset="633223">
    <nd ref="19066031"/>
    <nd ref="19066027"/>
    <nd ref="19066034"/>
    <tag k="TODO" v="yes"/>
    <tag k="created_by" v="Potlatch 0.10f"/>
    <tag k="highway" v="unclassified"/>
    <tag k="name" v="Trierer Straße"/>
  </way>
  <way id="6900111" version="4" timestamp="2009-03-11T13:34:16Z" uid="61927" user="AlexPleiner" changeset="789607">
    <nd ref="19066031"/>
    <nd ref="19066027"/>
    <nd ref="19066034"/>
    <tag k="created_by" v="Potlatch 0.10f"/>
    <tag k="highway" v="residential"/>
    <tag k="name" v="Trierer Straße"/>
  </way>
  <way id="6900111" version="5" timestamp="2010-05-15T23:06:42Z" uid="128941" user="Oliver Kiddle" changeset="4711456">
    <nd ref="19066031"/>
    <nd ref="735949798"/>
    <nd ref="19066027"/>
    <nd ref="19066034"/>
    <tag k="highway" v="residential"/>
    <tag k="name" v="Trierer Straße"/>
  </way>
  <way id="6900111" version="6" timestamp="2012-02-12T09:10:10Z" uid="55687" user="dschuwa" changeset="10660564"/>
  <way id="6900136" version="2" timestamp="2008-03-25T13:52:27Z" uid="16922" user="amai" changeset="390170"/>
  <way id="6900736" version="47" timestamp="2010-03-23T12:28:15Z" uid="4467" user="Rosscoe" changeset="4211670"/>
  <way id="6900811" version="1" timestamp="2007-09-18T12:05:11Z" uid="7617" user="Franc" changeset="464823">
    <nd ref="26363554"/>
    <nd ref="30677765"/>
    <nd ref="26363571"/>
    <tag k="created_by" v="Potlatch alpha"/>
    <tag k="highway" v="unclassified"/>
    <tag k="name" v="Macaulay Road"/>
  </way>
  <way id="6900811" version="2" timestamp="2007-10-20T02:55:14Z" uid="7617" user="Franc" changeset="259240">
    <nd ref="26363554"/>
    <nd ref="30677765"/>
    <nd ref="26363571"/>
    <tag k="created_by" v="Potlatch alpha"/>
    <tag k="highway" v="residential"/>
    <tag k="name" v="Macaulay Road"/>
  </way>
  <way id="6900811" version="3" timestamp="2008-05-16T10:28:25Z" uid="20949" user="Ebenezer" changeset="460474">
    <nd ref="26363554"/>
    <nd ref="30677765"/>
    <nd ref="26363571"/>
    <tag k="created_by" v="Potlatch 0.9a"/>
    <tag k="highway" v="residential"/>
    <tag k="lcn_ref" v="L1"/>
    <tag k="name" v="Macaulay Road"/>
  </way>
  <way id="6900811" version="4" timestamp="2009-01-02T11:41:40Z" uid="7617" user="Franc" changeset="711760">
    <nd ref="26363554"/>
    <nd ref="30677765"/>
    <nd ref="26363571"/>
    <tag k="created_by" v="Potlatch 0.9a"/>
    <tag k="highway" v="residential"/>
    <tag k="lcn_ref" v="L1"/>
    <tag k="name" v="Macaulay Road"/>
    <tag k="source" v="survey"/>
  </way>
  <way id="6900811" version="5" timestamp="2009-11-14T12:03:50Z" uid="117890" user="Jonathan Trott" changeset="3112508">
    <nd ref="26363554"/>
    <nd ref="30677765"/>
    <nd ref="26363571"/>
    <tag k="highway" v="residential"/>
    <tag k="lcn_ref" v="L1"/>
    <tag k="name" v="Macaulay Road"/>
    <tag k="source" v="survey"/>
  </way>
  <way id="6900811" version="6" timestamp="2010-07-07T22:10:47Z" uid="74617" user="JohnSmith" changeset="5161069">
    <nd ref="26363554"/>
    <nd ref="30677765"/>
    <nd ref="26363571"/>
    <tag k="highway" v="residential"/>
    <tag k="lcn_ref" v="L1"/>
    <tag k="maxspeed" v="50"/>
    <tag k="maxspeed:source" v="default residential speed limit in Australia"/>
    <tag k="name" v="Macaulay Road"/>
    <tag k="source" v="survey"/>
  </way>
  <way id="6900811" version="7" timestamp="2010-11-10T08:44:38Z" uid="7617" user="Franc" changeset="6334080">
    <nd ref="26363554"/>
    <nd ref="30677765"/>
    <nd ref="984048619"/>
    <nd ref="26363571"/>
    <tag k="highway" v="residential"/>
    <tag k="lcn_ref" v="L1"/>
    <tag k="maxspeed" v="50"/>
    <tag k="maxspeed:source" v="default residential speed limit in Australia"/>
    <tag k="name" v="Macaulay Road"/>
    <tag k="source" v="survey"/>
  </way>
  <way id="6900811" version="8" timestamp="2012-01-15T06:24:20Z" uid="147510" user="woodpeck_fixbot" changeset="10394821">
    <nd ref="26363554"/>
    <nd ref="30677765"/>
    <nd ref="984048619"/>
    <nd ref="26363571"/>
    <tag k="highway" v="residential"/>
    <tag k="lcn_ref" v="L1"/>
    <tag k="name" v="Macaulay Road"/>
    <tag k="source" v="survey"/>
  </way>
  <way id="6900845" version="1" timestamp="2007-09-18T12:05:34Z" uid="7617" user="Franc" changeset="464823">
    <nd ref="30677762"/>
    <nd ref="26363538"/>
    <tag k="created_by" v="Potlatch alpha"/>
    <tag k="highway" v="residential"/>
    <tag k="name" v="Macaulay Road"/>
    <tag k="source:name" v="survey"/>
  </way>
  <way id="6900845" version="2" timestamp="2008-02-02T03:52:23Z" uid="7617" user="Franc" changeset="11697">
    <nd ref="30677762"/>
    <nd ref="26363538"/>
    <nd ref="29496351"/>
    <nd ref="33681128"/>
    <nd ref="26363554"/>
    <tag k="created_by" v="Potlatch alpha"/>
    <tag k="highway" v="residential"/>
    <tag k="name" v="Macaulay Road"/>
    <tag k="source" v="survey"/>
  </way>
  <way id="6900845" version="3" timestamp="2008-05-16T10:28:55Z" uid="20949" user="Ebenezer" changeset="460474">
    <nd ref="30677762"/>
    <nd ref="26363538"/>
    <nd ref="29496351"/>
    <nd ref="33681128"/>
    <nd ref="26363554"/>
    <tag k="created_by" v="Potlatch 0.9a"/>
    <tag k="highway" v="residential"/>
    <tag k="lcn_ref" v="L1"/>
    <tag k="name" v="Macaulay Road"/>
    <tag k="source" v="survey"/>
  </way>
  <way id="6900845" version="4" timestamp="2009-03-21T19:23:43Z" uid="20949" user="Ebenezer" changeset="839481">
    <nd ref="30677762"/>
    <nd ref="26363538"/>
    <nd ref="29496351"/>
    <nd ref="33681128"/>
    <nd ref="26363554"/>
    <tag k="created_by" v="Potlatch 0.10f"/>
    <tag k="highway" v="residential"/>
    <tag k="name" v="Macaulay Road"/>
    <tag k="source" v="survey"/>
  </way>
  <way id="6900845" version="5" timestamp="2010-01-24T15:03:06Z" uid="7617" user="Franc" changeset="3701870">
    <nd ref="30677762"/>
    <nd ref="619250307"/>
    <nd ref="26363538"/>
    <nd ref="29496351"/>
    <nd ref="33681128"/>
    <nd ref="26363554"/>
    <tag k="highway" v="residential"/>
    <tag k="name" v="Macaulay Road"/>
    <tag k="source" v="survey"/>
  </way>
  <way id="6900845" version="6" timestamp="2010-07-07T22:10:48Z" uid="74617" user="JohnSmith" changeset="5161069">
    <nd ref="30677762"/>
    <nd ref="619250307"/>
    <nd ref="26363538"/>
    <nd ref="29496351"/>
    <nd ref="33681128"/>
    <nd ref="26363554"/>
    <tag k="highway" v="residential"/>
    <tag k="maxspeed" v="50"/>
    <tag k="maxspeed:source" v="default residential speed limit in Australia"/>
    <tag k="name" v="Macaulay Road"/>
    <tag k="source" v="survey"/>
  </way>
  <way id="6900845" version="7" timestamp="2012-01-15T06:24:26Z" uid="147510" user="woodpeck_fixbot" changeset="10394821">
    <nd ref="30677762"/>
    <nd ref="619250307"/>
    <nd ref="26363538"/>
    <nd ref="29496351"/>
    <nd ref="33681128"/>
    <nd ref="26363554"/>
    <tag k="highway" v="residential"/>
    <tag k="name" v="Macaulay Road"/>
    <tag k="source" v="survey"/>
  </way>
  <way id="6900811" version="9" timestamp="2012-06-24T07:12:49Z" uid="20949" user="Ebenezer" changeset="11996240"/>
  <way id="6900845" version="8" timestamp="2012-06-24T07:12:50Z" uid="20949" user="Ebenezer" changeset="11996240"/>
</osm>
