<?xml version='1.0' encoding='UTF-8'?>
<osm version="0.6" generator="libosmium/2.20.0">
  <way id="69228394" version="1" timestamp="2010-07-23T10:30:14Z" uid="273460" user="oguri-kasugayoung" changeset="5294176">
    <nd ref="829978464"/>
    <nd ref="829978473"/>
    <nd ref="829978476"/>
    <nd ref="829978478"/>
    <nd ref="829978480"/>
    <tag k="highway" v="motorway"/>
    <tag k="motorroad " v="no"/>
    <tag k="name" v="国道9号線浜田道路"/>
    <tag k="ref" v="9"/>
    <tag k="tunnel" v="yes"/>
  </way>
  <way id="69228394" version="2" timestamp="2010-07-23T20:44:05Z" uid="70696" user="xybot" changeset="5298638">
    <nd ref="829978464"/>
    <nd ref="829978473"/>
    <nd ref="829978476"/>
    <nd ref="829978478"/>
    <nd ref="829978480"/>
    <tag k="highway" v="motorway"/>
    <tag k="motorroad" v="no"/>
    <tag k="name" v="国道9号線浜田道路"/>
    <tag k="ref" v="9"/>
    <tag k="tunnel" v="yes"/>
  </way>
  <way id="69228394" version="3" timestamp="2010-07-24T17:17:13Z" uid="171838" user="argrath" changeset="5305600">
    <nd ref="829978464"/>
    <nd ref="829978473"/>
    <nd ref="829978476"/>
    <nd ref="829978478"/>
    <nd ref="829978480"/>
    <tag k="highway" v="motorway"/>
    <tag k="name" v="国道9号線浜田道路"/>
    <tag k="note" v="motorroad=no"/>
    <tag k="ref" v="9"/>
    <tag k="tunnel" v="yes"/>
  </way>
  <way id="69228394" version="4" timestamp="2012-07-23T20:03:16Z" uid="722137" user="OSMF Redaction Account" changeset="12456093">
    <nd ref="829978464"/>
    <nd ref="829978473"/>
    <nd ref="829978476"/>
    <nd ref="829978478"/>
    <nd ref="829978480"/>
    <tag k="highway" v="motorway"/>
    <tag k="name" v="国道9号線浜田道路"/>
    <tag k="ref" v="9"/>
    <tag k="tunnel" v="yes"/>
  </way>
</osm>
