<?xml version='1.0' encoding='UTF-8'?>
<osm version="0.6" generator="libosmium/2.20.0">
  <way id="6926175" version="6" timestamp="2011-02-05T21:38:41Z" uid="9581" user="Lobelt" changeset="7197568">
    <nd ref="30222245"/>
    <nd ref="30222247"/>
    <nd ref="30222249"/>
    <tag k="highway" v="secondary"/>
    <tag k="maxspeed" v="70"/>
    <tag k="ref" v="L 599"/>
  </way>
  <way id="6926175" version="7" timestamp="2012-05-07T18:05:55Z" uid="165061" user="mapper999" changeset="11530766">
    <nd ref="30222245"/>
    <nd ref="1744545850"/>
    <nd ref="30222247"/>
    <nd ref="30222249"/>
    <tag k="highway" v="secondary"/>
    <tag k="maxspeed" v="70"/>
    <tag k="ref" v="L 599"/>
  </way>
  <way id="6926175" version="8" timestamp="2012-07-02T11:49:11Z" uid="165061" user="mapper999" changeset="12086321">
    <nd ref="30222243"/>
    <nd ref="1809854595"/>
    <nd ref="1809854577"/>
    <nd ref="1809854569"/>
    <nd ref="1744546164"/>
    <nd ref="30222245"/>
    <nd ref="1744545850"/>
    <nd ref="30222247"/>
    <nd ref="30222249"/>
    <tag k="highway" v="secondary"/>
    <tag k="lanes" v="2"/>
    <tag k="maxspeed" v="70"/>
    <tag k="ref" v="L 599"/>
    <tag k="source" v="HiRes aerial imagery"/>
  </way>
</osm>
