<?xml version='1.0' encoding='UTF-8'?>
<osm version="0.6" generator="libosmium/2.20.0">
  <way id="69353504" version="3" timestamp="2011-04-26T06:31:55Z" uid="33382" user="de_muur" changeset="7971300">
    <nd ref="831022109"/>
    <nd ref="277761066"/>
    <nd ref="262491900"/>
    <tag k="highway" v="primary"/>
    <tag k="maxspeed" v="50"/>
    <tag k="name" v="Lütauer Chaussee"/>
    <tag k="ref" v="B 209"/>
  </way>
  <way id="69353504" version="4" timestamp="2011-08-11T16:24:28Z" uid="72151" user="GeorgFausB" changeset="8987001">
    <nd ref="831022109"/>
    <nd ref="277761066"/>
    <nd ref="262491900"/>
    <tag k="highway" v="primary"/>
    <tag k="maxspeed" v="50"/>
    <tag k="name" v="Lütauer Chaussee"/>
    <tag k="ref" v="B 209"/>
    <tag k="source:maxspeed" v="DE:urban"/>
    <tag k="zone:traffic" v="DE:urban"/>
  </way>
  <way id="69353504" version="5" timestamp="2012-04-09T17:57:06Z" uid="161619" user="FvGordon" changeset="11242549">
    <nd ref="831022109"/>
    <nd ref="277761066"/>
    <nd ref="1708937085"/>
    <tag k="highway" v="primary"/>
    <tag k="maxspeed" v="50"/>
    <tag k="name" v="Lütauer Chaussee"/>
    <tag k="ref" v="B 209"/>
    <tag k="source:maxspeed" v="DE:urban"/>
    <tag k="zone:traffic" v="DE:urban"/>
  </way>
  <way id="69353504" version="6" timestamp="2012-04-13T11:19:51Z" uid="63107" user="brogo" changeset="11286432"/>
</osm>
