<?xml version='1.0' encoding='UTF-8'?>
<osm version="0.6" generator="libosmium/2.20.0">
  <way id="69588737" version="1" timestamp="2010-07-25T14:07:20Z" uid="33382" user="de_muur" changeset="5312208">
    <nd ref="299611748"/>
    <nd ref="434585994"/>
    <nd ref="416931109"/>
    <nd ref="60806102"/>
    <nd ref="60806103"/>
    <nd ref="356839174"/>
    <nd ref="419815924"/>
    <nd ref="356839208"/>
    <nd ref="434573864"/>
    <nd ref="434574189"/>
    <nd ref="356839213"/>
    <nd ref="434565426"/>
    <nd ref="303979635"/>
    <nd ref="60806104"/>
    <nd ref="323939707"/>
    <tag k="highway" v="secondary"/>
    <tag k="name" v="Große Straße"/>
    <tag k="ref" v="L 168"/>
    <tag k="surface" v="paved"/>
  </way>
  <way id="69588737" version="2" timestamp="2010-11-03T16:05:39Z" uid="33382" user="de_muur" changeset="6277282">
    <nd ref="299611748"/>
    <nd ref="434585994"/>
    <nd ref="416931109"/>
    <nd ref="60806102"/>
    <nd ref="60806103"/>
    <nd ref="356839174"/>
    <nd ref="419815924"/>
    <nd ref="356839208"/>
    <nd ref="434573864"/>
    <nd ref="434574189"/>
    <nd ref="356839213"/>
    <nd ref="975872725"/>
    <tag k="cycleway" v="track"/>
    <tag k="highway" v="secondary"/>
    <tag k="maxspeed" v="50"/>
    <tag k="name" v="Große Straße"/>
    <tag k="ref" v="L 168"/>
    <tag k="surface" v="paved"/>
  </way>
  <way id="69588738" version="1" timestamp="2010-07-25T14:07:20Z" uid="33382" user="de_muur" changeset="5312208">
    <nd ref="434545917"/>
    <nd ref="21524246"/>
    <nd ref="391962327"/>
    <tag k="highway" v="secondary"/>
    <tag k="maxspeed" v="50"/>
    <tag k="name" v="Grosse Straße"/>
    <tag k="ref" v="L 168"/>
    <tag k="surface" v="paved"/>
  </way>
  <way id="69588738" version="2" timestamp="2010-07-27T14:06:41Z" uid="33382" user="de_muur" changeset="5329748">
    <nd ref="434545917"/>
    <nd ref="21524246"/>
    <tag k="cycleway" v="track"/>
    <tag k="highway" v="secondary"/>
    <tag k="maxspeed" v="50"/>
    <tag k="name" v="Grosse Straße"/>
    <tag k="ref" v="L 168"/>
    <tag k="surface" v="paved"/>
  </way>
  <way id="69588739" version="1" timestamp="2010-07-25T14:07:20Z" uid="33382" user="de_muur" changeset="5312208">
    <nd ref="412138279"/>
    <nd ref="412138280"/>
    <nd ref="412138281"/>
    <nd ref="434584984"/>
    <nd ref="412138282"/>
    <nd ref="412138283"/>
    <nd ref="412138284"/>
    <nd ref="416931109"/>
    <nd ref="440977595"/>
    <tag k="highway" v="residential"/>
    <tag k="name" v="Alter Weg"/>
    <tag k="surface" v="paved"/>
    <tag k="width" v="3"/>
  </way>
  <way id="69588740" version="1" timestamp="2010-07-25T14:07:21Z" uid="33382" user="de_muur" changeset="5312208">
    <nd ref="412138279"/>
    <nd ref="299611748"/>
    <tag k="highway" v="living_street"/>
    <tag k="surface" v="paved"/>
  </way>
  <way id="69588741" version="1" timestamp="2010-07-25T14:07:21Z" uid="33382" user="de_muur" changeset="5312208">
    <nd ref="832770111"/>
    <nd ref="30439861"/>
    <nd ref="30439862"/>
    <nd ref="30439863"/>
    <nd ref="30439864"/>
    <nd ref="30439865"/>
    <nd ref="30439866"/>
    <nd ref="30439867"/>
    <nd ref="30439868"/>
    <nd ref="314714575"/>
    <nd ref="30439869"/>
    <nd ref="30439871"/>
    <tag k="highway" v="secondary"/>
    <tag k="name" v="Verdener Straße"/>
    <tag k="ref" v="L 155"/>
    <tag k="surface" v="paved"/>
  </way>
  <way id="69588741" version="2" timestamp="2010-07-25T16:15:49Z" uid="33382" user="de_muur" changeset="5313410">
    <nd ref="832770111"/>
    <nd ref="30439861"/>
    <tag k="cycleway" v="track"/>
    <tag k="highway" v="secondary"/>
    <tag k="name" v="Verdener Straße"/>
    <tag k="ref" v="L 155"/>
    <tag k="surface" v="paved"/>
  </way>
  <way id="69588743" version="1" timestamp="2010-07-25T14:07:22Z" uid="33382" user="de_muur" changeset="5312208">
    <nd ref="30439852"/>
    <nd ref="356838732"/>
    <nd ref="30439853"/>
    <nd ref="314726068"/>
    <nd ref="30439854"/>
    <nd ref="356838749"/>
    <nd ref="30439855"/>
    <nd ref="356838774"/>
    <nd ref="30439856"/>
    <nd ref="30439857"/>
    <nd ref="30439858"/>
    <nd ref="314723795"/>
    <nd ref="30439859"/>
    <tag k="highway" v="secondary"/>
    <tag k="maxspeed" v="50"/>
    <tag k="name" v="Verdener Straße"/>
    <tag k="ref" v="L 155"/>
    <tag k="surface" v="paved"/>
  </way>
  <way id="69588743" version="2" timestamp="2010-07-25T16:16:03Z" uid="33382" user="de_muur" changeset="5313410">
    <nd ref="30439852"/>
    <nd ref="356838732"/>
    <nd ref="30439853"/>
    <nd ref="314726068"/>
    <nd ref="30439854"/>
    <nd ref="356838749"/>
    <nd ref="30439855"/>
    <nd ref="356838774"/>
    <nd ref="30439856"/>
    <tag k="highway" v="secondary"/>
    <tag k="maxspeed" v="50"/>
    <tag k="name" v="Verdener Straße"/>
    <tag k="ref" v="L 155"/>
    <tag k="surface" v="paved"/>
  </way>
  <way id="69588743" version="3" timestamp="2010-07-25T19:45:47Z" uid="35574" user="Schorse" changeset="5315853">
    <nd ref="30439852"/>
    <nd ref="356838732"/>
    <nd ref="30439853"/>
    <nd ref="314726068"/>
    <nd ref="30439854"/>
    <nd ref="356838749"/>
    <nd ref="30439855"/>
    <nd ref="356838774"/>
    <nd ref="30439856"/>
    <tag k="bicycle" v="designated"/>
    <tag k="cycleway" v="track"/>
    <tag k="foot" v="designated"/>
    <tag k="highway" v="secondary"/>
    <tag k="maxspeed" v="50"/>
    <tag k="name" v="Verdener Straße"/>
    <tag k="ref" v="L 155"/>
    <tag k="surface" v="paved"/>
  </way>
  <way id="69588743" version="4" timestamp="2012-03-04T12:17:00Z" uid="45882" user="smarties" changeset="10867635">
    <nd ref="1658909740"/>
    <nd ref="356838732"/>
    <nd ref="30439853"/>
    <nd ref="314726068"/>
    <nd ref="30439854"/>
    <nd ref="356838749"/>
    <nd ref="30439855"/>
    <nd ref="356838774"/>
    <nd ref="30439856"/>
    <tag k="bicycle" v="designated"/>
    <tag k="cycleway" v="track"/>
    <tag k="foot" v="designated"/>
    <tag k="highway" v="secondary"/>
    <tag k="maxspeed" v="50"/>
    <tag k="name" v="Verdener Straße"/>
    <tag k="ref" v="L 155"/>
    <tag k="surface" v="paved"/>
  </way>
  <way id="69588744" version="1" timestamp="2010-07-25T14:07:22Z" uid="33382" user="de_muur" changeset="5312208">
    <nd ref="412138272"/>
    <nd ref="832770106"/>
    <tag k="highway" v="service"/>
    <tag k="service" v="parking_aisle"/>
    <tag k="surface" v="paved"/>
  </way>
  <way id="69588737" version="3" timestamp="2012-07-19T02:12:25Z" uid="722137" user="OSMF Redaction Account" changeset="12304797"/>
  <way id="69588738" version="3" timestamp="2012-07-19T02:12:25Z" uid="722137" user="OSMF Redaction Account" changeset="12304797"/>
  <way id="69588739" version="2" timestamp="2012-07-19T02:12:25Z" uid="722137" user="OSMF Redaction Account" changeset="12304797"/>
  <way id="69588740" version="2" timestamp="2012-07-19T02:12:25Z" uid="722137" user="OSMF Redaction Account" changeset="12304797"/>
  <way id="69588741" version="3" timestamp="2012-07-19T02:12:23Z" uid="722137" user="OSMF Redaction Account" changeset="12304797"/>
  <way id="69588743" version="5" timestamp="2012-07-19T02:12:23Z" uid="722137" user="OSMF Redaction Account" changeset="12304797"/>
  <way id="69588744" version="2" timestamp="2012-07-19T02:12:25Z" uid="722137" user="OSMF Redaction Account" changeset="12304797"/>
</osm>
