<?xml version='1.0' encoding='UTF-8'?>
<osm version="0.6" generator="libosmium/2.20.0">
  <way id="6961069" version="1" timestamp="2007-09-18T16:35:39Z" uid="8328" user="benpre" changeset="463499">
    <nd ref="30268709"/>
    <nd ref="30272083"/>
    <nd ref="30268710"/>
    <tag k="created_by" v="JOSM"/>
    <tag k="highway" v="unclassified"/>
    <tag k="name" v="Rue du Marché-Gare"/>
    <tag k="oneway" v="yes"/>
  </way>
  <way id="6961069" version="2" timestamp="2008-01-06T14:27:09Z" uid="17286" user="Pieren" changeset="551944"/>
  <way id="6961072" version="1" timestamp="2007-09-18T16:35:41Z" uid="8328" user="benpre" changeset="463499">
    <nd ref="30356834"/>
    <nd ref="30356835"/>
    <nd ref="30356836"/>
    <tag k="created_by" v="JOSM"/>
    <tag k="highway" v="residential"/>
    <tag k="name" v="Rue Emile Haag"/>
  </way>
  <way id="6961072" version="2" timestamp="2007-10-15T22:57:12Z" uid="6217" user="Anolnx" changeset="206184">
    <nd ref="30356834"/>
    <nd ref="30356835"/>
    <nd ref="30356836"/>
    <tag k="created_by" v="Potlatch alpha"/>
    <tag k="highway" v="residential"/>
    <tag k="name" v="Rue Emile Haag"/>
  </way>
  <way id="6961072" version="3" timestamp="2009-02-04T20:38:54Z" uid="85516" user="MS BOT" changeset="141469">
    <nd ref="30356834"/>
    <nd ref="30356835"/>
    <nd ref="30356836"/>
    <tag k="created_by" v="Potlatch alpha"/>
    <tag k="highway" v="residential"/>
    <tag k="name" v="Rue Émile Haag"/>
  </way>
  <way id="6961072" version="4" timestamp="2009-06-15T18:23:20Z" uid="85761" user="klausis" changeset="1527649">
    <nd ref="30356834"/>
    <nd ref="30356835"/>
    <nd ref="30356836"/>
    <tag k="highway" v="residential"/>
    <tag k="name" v="Rue Émile Haag"/>
  </way>
  <way id="6961075" version="1" timestamp="2007-09-18T16:35:42Z" uid="8328" user="benpre" changeset="463499">
    <nd ref="30356833"/>
    <nd ref="30356834"/>
    <nd ref="30356849"/>
    <nd ref="30356850"/>
    <nd ref="30356851"/>
    <nd ref="30356852"/>
    <nd ref="30356846"/>
    <tag k="created_by" v="JOSM"/>
    <tag k="highway" v="residential"/>
    <tag k="name" v="Rue Emile Haag"/>
  </way>
  <way id="6961075" version="2" timestamp="2007-10-15T22:57:02Z" uid="6217" user="Anolnx" changeset="206184">
    <nd ref="30356833"/>
    <nd ref="30356834"/>
    <nd ref="30356849"/>
    <nd ref="30356850"/>
    <nd ref="30356851"/>
    <nd ref="30356852"/>
    <nd ref="30356846"/>
    <tag k="created_by" v="Potlatch alpha"/>
    <tag k="highway" v="residential"/>
    <tag k="name" v="Rue Emile Haag"/>
  </way>
  <way id="6961075" version="3" timestamp="2009-02-04T20:38:55Z" uid="85516" user="MS BOT" changeset="141469">
    <nd ref="30356833"/>
    <nd ref="30356834"/>
    <nd ref="30356849"/>
    <nd ref="30356850"/>
    <nd ref="30356851"/>
    <nd ref="30356852"/>
    <nd ref="30356846"/>
    <tag k="created_by" v="Potlatch alpha"/>
    <tag k="highway" v="residential"/>
    <tag k="name" v="Rue Émile Haag"/>
  </way>
  <way id="6961075" version="4" timestamp="2009-06-15T18:23:20Z" uid="85761" user="klausis" changeset="1527649">
    <nd ref="30356833"/>
    <nd ref="30356834"/>
    <nd ref="30356849"/>
    <nd ref="30356850"/>
    <nd ref="30356851"/>
    <nd ref="30356852"/>
    <nd ref="30356846"/>
    <tag k="highway" v="residential"/>
    <tag k="name" v="Rue Émile Haag"/>
  </way>
  <way id="6961075" version="5" timestamp="2009-12-03T00:58:52Z" uid="17286" user="Pieren" changeset="3276594">
    <nd ref="30356833"/>
    <nd ref="30356834"/>
    <nd ref="30356849"/>
    <nd ref="30356850"/>
    <nd ref="30356851"/>
    <nd ref="30356852"/>
    <nd ref="30356846"/>
    <tag k="highway" v="residential"/>
    <tag k="name" v="Rue Émile Haag"/>
    <tag k="source" v="v2; cadastre-dgi-fr source : Direction Générale des Impôts - Cadastre ; mise à jour : 2009"/>
  </way>
  <way id="6961079" version="1" timestamp="2007-09-18T16:35:43Z" uid="8328" user="benpre" changeset="463499">
    <nd ref="30356482"/>
    <nd ref="30356479"/>
    <nd ref="30356483"/>
    <tag k="created_by" v="JOSM"/>
    <tag k="highway" v="tertiary"/>
    <tag k="name" v="Avenue Herrenschmidt"/>
  </way>
  <way id="6961079" version="2" timestamp="2007-12-27T09:03:56Z" uid="22165" user="Denis_Helfer" changeset="438651">
    <nd ref="30356482"/>
    <nd ref="30356479"/>
    <nd ref="30356483"/>
    <tag k="created_by" v="JOSM"/>
    <tag k="highway" v="secondary"/>
    <tag k="name" v="Avenue Herrenschmidt"/>
  </way>
  <way id="6961079" version="3" timestamp="2008-01-05T11:18:16Z" uid="22165" user="Denis_Helfer" changeset="542351"/>
  <way id="6961072" version="5" timestamp="2012-07-18T09:47:23Z" uid="722137" user="OSMF Redaction Account" changeset="12276758"/>
  <way id="6961075" version="6" timestamp="2012-07-18T09:47:23Z" uid="722137" user="OSMF Redaction Account" changeset="12276758"/>
</osm>
