<?xml version='1.0' encoding='UTF-8'?>
<osm version="0.6" generator="libosmium/2.20.0">
  <way id="7033748" version="4" timestamp="2010-03-27T10:21:14Z" uid="20587" user="balrog-kun" changeset="4244079">
    <nd ref="412222802"/>
    <nd ref="54207468"/>
    <nd ref="54207469"/>
    <tag k="highway" v="motorway_link"/>
    <tag k="name" v="Pyrite Street"/>
    <tag k="oneway" v="yes"/>
    <tag k="ref" v="Exit 46 from CA-60 West"/>
    <tag k="tiger:cfcc" v="A63"/>
    <tag k="tiger:county" v="Riverside, CA"/>
    <tag k="tiger:source" v="tiger_import_dch_v0.6_20070809"/>
    <tag k="tiger:tlid" v="194733117:194733125:194733126:194733129:194733152"/>
  </way>
  <way id="7033748" version="5" timestamp="2011-03-21T12:31:07Z" uid="82317" user="AM909" changeset="7626757">
    <nd ref="412222802"/>
    <nd ref="54207468"/>
    <nd ref="1211842139"/>
    <nd ref="1211842134"/>
    <nd ref="54207469"/>
    <tag k="highway" v="motorway_link"/>
    <tag k="name" v="Pyrite Street"/>
    <tag k="oneway" v="yes"/>
    <tag k="ref" v="Exit 46 from CA-60 West"/>
    <tag k="source" v="bing_imagery_0.06m_200706;survey;image;CDOT"/>
    <tag k="source_ref" v="AM909_DSCX2114"/>
    <tag k="tiger:cfcc" v="A63"/>
    <tag k="tiger:county" v="Riverside, CA"/>
    <tag k="tiger:source" v="tiger_import_dch_v0.6_20070809"/>
    <tag k="tiger:tlid" v="194733117:194733125:194733126:194733129:194733152"/>
  </way>
  <way id="7033756" version="5" timestamp="2010-03-27T10:21:15Z" uid="20587" user="balrog-kun" changeset="4244079">
    <nd ref="412222798"/>
    <nd ref="412222799"/>
    <nd ref="54207486"/>
    <nd ref="54207488"/>
    <tag k="highway" v="motorway_link"/>
    <tag k="name" v="Pyrite Street"/>
    <tag k="oneway" v="yes"/>
    <tag k="ref" v="Exit 46 from CA-60 East"/>
    <tag k="tiger:cfcc" v="A63"/>
    <tag k="tiger:county" v="Riverside, CA"/>
    <tag k="tiger:source" v="tiger_import_dch_v0.6_20070809"/>
    <tag k="tiger:tlid" v="194733118:194733144"/>
  </way>
  <way id="7033756" version="6" timestamp="2011-08-29T03:04:43Z" uid="82317" user="AM909" changeset="9153440">
    <nd ref="412222798"/>
    <nd ref="1416824221"/>
    <nd ref="412222799"/>
    <nd ref="1416824332"/>
    <nd ref="54207486"/>
    <nd ref="1416823506"/>
    <nd ref="54207488"/>
    <tag k="highway" v="motorway_link"/>
    <tag k="name" v="Pyrite Street"/>
    <tag k="oneway" v="yes"/>
    <tag k="ref" v="Exit 46 from CA-60 East"/>
    <tag k="source" v="bing_imagery_0.06m_200706;survey;image"/>
    <tag k="source_ref" v="AM909_DSCX7075"/>
    <tag k="tiger:cfcc" v="A63"/>
    <tag k="tiger:county" v="Riverside, CA"/>
    <tag k="tiger:source" v="tiger_import_dch_v0.6_20070809"/>
    <tag k="tiger:tlid" v="194733118:194733144"/>
  </way>
</osm>
