<?xml version='1.0' encoding='UTF-8'?>
<osm version="0.6" generator="libosmium/2.20.0">
  <way id="7047906" version="5" timestamp="2008-12-04T20:15:06Z" uid="6975" user="ulfl" changeset="107048">
    <nd ref="46192878"/>
    <nd ref="46193107"/>
    <nd ref="46193399"/>
    <tag k="AND:importance_level" v="1"/>
    <tag k="AND_nosr_r" v="15468843; 15468844"/>
    <tag k="bridge" v="yes"/>
    <tag k="highway" v="motorway"/>
    <tag k="layer" v="1"/>
    <tag k="name" v="Ringweg Zuid"/>
    <tag k="oneway" v="1"/>
    <tag k="ref" v="A10"/>
  </way>
  <way id="7047906" version="6" timestamp="2009-01-31T19:27:59Z" uid="9176" user="Maarten Deen" changeset="859296">
    <nd ref="46192878"/>
    <nd ref="46193107"/>
    <nd ref="46193399"/>
    <tag k="AND:importance_level" v="1"/>
    <tag k="AND_nosr_r" v="15468843; 15468844"/>
    <tag k="bridge" v="yes"/>
    <tag k="highway" v="motorway"/>
    <tag k="layer" v="1"/>
    <tag k="name" v="Ringweg Zuid"/>
    <tag k="oneway" v="yes"/>
    <tag k="ref" v="A10"/>
  </way>
  <way id="7047906" version="7" timestamp="2009-05-05T13:00:23Z" uid="33338" user="rullzer" changeset="1086540">
    <nd ref="46192878"/>
    <nd ref="46193107"/>
    <nd ref="46193399"/>
    <tag k="AND:importance_level" v="1"/>
    <tag k="AND_nosr_r" v="15468843; 15468844"/>
    <tag k="bridge" v="yes"/>
    <tag k="highway" v="motorway"/>
    <tag k="layer" v="1"/>
    <tag k="maxspeed" v="100"/>
    <tag k="name" v="Ringweg Zuid"/>
    <tag k="oneway" v="yes"/>
    <tag k="ref" v="A10"/>
  </way>
  <way id="7047906" version="8" timestamp="2009-05-05T13:04:57Z" uid="33338" user="rullzer" changeset="1086591">
    <nd ref="46192878"/>
    <nd ref="46193107"/>
    <nd ref="46193399"/>
    <tag k="AND:importance_level" v="1"/>
    <tag k="AND_nosr_r" v="15468843; 15468844"/>
    <tag k="bridge" v="yes"/>
    <tag k="highway" v="motorway"/>
    <tag k="layer" v="1"/>
    <tag k="maxspeed" v="100"/>
    <tag k="name" v="Ringweg Zuid"/>
    <tag k="oneway" v="yes"/>
    <tag k="ref" v="A10"/>
  </way>
  <way id="7047906" version="9" timestamp="2010-08-21T21:17:54Z" uid="161542" user="textlijn" changeset="5555892">
    <nd ref="46192878"/>
    <nd ref="46193107"/>
    <nd ref="46193399"/>
    <tag k="bridge" v="yes"/>
    <tag k="highway" v="motorway"/>
    <tag k="layer" v="1"/>
    <tag k="maxspeed" v="100"/>
    <tag k="name" v="Ringweg Zuid"/>
    <tag k="oneway" v="yes"/>
    <tag k="ref" v="A10"/>
  </way>
  <way id="7047906" version="10" timestamp="2010-09-05T11:39:55Z" uid="161542" user="textlijn" changeset="5686777">
    <nd ref="46192878"/>
    <nd ref="46193107"/>
    <nd ref="46193399"/>
    <tag k="bridge" v="yes"/>
    <tag k="highway" v="motorway"/>
    <tag k="lanes" v="3"/>
    <tag k="layer" v="1"/>
    <tag k="maxspeed" v="100"/>
    <tag k="name" v="Ringweg Zuid"/>
    <tag k="oneway" v="yes"/>
    <tag k="ref" v="A10"/>
  </way>
  <way id="7047906" version="11" timestamp="2010-09-06T21:52:57Z" uid="161542" user="textlijn" changeset="5703237">
    <nd ref="46192878"/>
    <nd ref="46193399"/>
    <tag k="bridge" v="yes"/>
    <tag k="highway" v="motorway"/>
    <tag k="lanes" v="3"/>
    <tag k="layer" v="1"/>
    <tag k="maxspeed" v="100"/>
    <tag k="name" v="Ringweg Zuid"/>
    <tag k="oneway" v="yes"/>
    <tag k="ref" v="A10"/>
  </way>
  <way id="7047906" version="12" timestamp="2011-12-02T08:30:39Z" uid="191979" user="It&apos;s so funny" changeset="10014916"/>
</osm>
