<?xml version='1.0' encoding='UTF-8'?>
<osm version="0.6" generator="libosmium/2.20.0">
  <way id="70995207" version="1" timestamp="2010-08-04T14:41:06Z" uid="33382" user="de_muur" changeset="5399754">
    <nd ref="271919341"/>
    <nd ref="40834941"/>
    <nd ref="40834944"/>
    <nd ref="40834948"/>
    <nd ref="40834951"/>
    <nd ref="469824595"/>
    <nd ref="40834955"/>
    <nd ref="40834959"/>
    <nd ref="40834964"/>
    <nd ref="40834967"/>
    <nd ref="469824596"/>
    <nd ref="40834972"/>
    <nd ref="40834973"/>
    <nd ref="469824594"/>
    <tag k="highway" v="tertiary"/>
    <tag k="maxspeed" v="50"/>
    <tag k="name" v="A.-Paul-Weber-StraÃŸe"/>
    <tag k="ref" v="K 8"/>
    <tag k="surface" v="paved"/>
  </way>
  <way id="70995531" version="1" timestamp="2010-08-04T14:47:21Z" uid="33382" user="de_muur" changeset="5399800">
    <nd ref="469866509"/>
    <nd ref="29378194"/>
    <nd ref="460048993"/>
    <nd ref="29378193"/>
    <nd ref="460048994"/>
    <nd ref="29378192"/>
    <tag k="highway" v="primary"/>
    <tag k="ref" v="B 207"/>
    <tag k="surface" v="paved"/>
  </way>
  <way id="70995531" version="2" timestamp="2010-09-02T21:32:48Z" uid="179890" user="Someone561" changeset="5666371">
    <nd ref="469866509"/>
    <nd ref="29378194"/>
    <nd ref="460048993"/>
    <nd ref="29378193"/>
    <nd ref="460048994"/>
    <nd ref="29378192"/>
    <tag k="highway" v="primary"/>
    <tag k="maxspeed" v="50"/>
    <tag k="ref" v="B 207"/>
    <tag k="surface" v="paved"/>
  </way>
  <way id="70995531" version="3" timestamp="2010-11-28T13:37:42Z" uid="30077" user="ChristianW" changeset="6478100">
    <nd ref="469866509"/>
    <nd ref="29378194"/>
    <nd ref="460048993"/>
    <nd ref="29378193"/>
    <nd ref="460048994"/>
    <nd ref="29378192"/>
    <tag k="highway" v="primary"/>
    <tag k="loc_name" v="Vogelfluglinie"/>
    <tag k="maxspeed" v="50"/>
    <tag k="ref" v="B 207"/>
    <tag k="surface" v="paved"/>
  </way>
  <way id="70995531" version="4" timestamp="2011-01-29T23:57:58Z" uid="77348" user="chrissibo" changeset="7128959">
    <nd ref="469866509"/>
    <nd ref="1127153712"/>
    <tag k="highway" v="primary"/>
    <tag k="loc_name" v="Vogelfluglinie"/>
    <tag k="maxspeed" v="70"/>
    <tag k="ref" v="B 207"/>
    <tag k="surface" v="paved"/>
  </way>
  <way id="70995531" version="5" timestamp="2011-05-06T19:45:40Z" uid="33382" user="de_muur" changeset="8068210">
    <nd ref="469866509"/>
    <nd ref="1127153712"/>
    <tag k="cycleway" v="track"/>
    <tag k="highway" v="primary"/>
    <tag k="loc_name" v="Vogelfluglinie"/>
    <tag k="maxspeed" v="70"/>
    <tag k="ref" v="B 207"/>
    <tag k="surface" v="paved"/>
  </way>
  <way id="70995531" version="6" timestamp="2012-03-13T08:28:55Z" uid="46145" user="Jacques_N" changeset="10964043"/>
  <way id="70995207" version="2" timestamp="2012-04-19T10:43:16Z" uid="63107" user="brogo" changeset="11352544"/>
</osm>
