<?xml version='1.0' encoding='UTF-8'?>
<osm version="0.6" generator="libosmium/2.20.0">
  <way id="71237947" version="2" timestamp="2010-09-05T08:39:39Z" uid="59758" user="rendle" changeset="5685269">
    <nd ref="292226439"/>
    <nd ref="292226443"/>
    <tag k="highway" v="secondary"/>
    <tag k="name" v="Durmebrug"/>
    <tag k="ref" v="N446"/>
  </way>
  <way id="71237947" version="3" timestamp="2010-11-10T19:45:29Z" uid="313884" user="el Vinno" changeset="6338592">
    <nd ref="292226439"/>
    <nd ref="292226443"/>
    <tag k="highway" v="secondary"/>
    <tag k="maxspeed" v="70"/>
    <tag k="name" v="Dendermondseweg"/>
    <tag k="ref" v="N446"/>
  </way>
  <way id="71237947" version="4" timestamp="2012-01-16T23:20:55Z" uid="138772" user="lodde1949" changeset="10413510"/>
  <way id="71237950" version="2" timestamp="2010-09-05T08:39:22Z" uid="59758" user="rendle" changeset="5685269">
    <nd ref="292226443"/>
    <nd ref="847975774"/>
    <tag k="highway" v="secondary"/>
    <tag k="name" v="Durmebrug"/>
    <tag k="ref" v="N446"/>
  </way>
  <way id="71237950" version="3" timestamp="2010-11-10T19:45:28Z" uid="313884" user="el Vinno" changeset="6338592">
    <nd ref="292226443"/>
    <nd ref="847975774"/>
    <tag k="highway" v="secondary"/>
    <tag k="maxspeed" v="70"/>
    <tag k="name" v="Dendermondseweg"/>
    <tag k="ref" v="N446"/>
  </way>
  <way id="71237950" version="4" timestamp="2012-01-16T23:20:55Z" uid="138772" user="lodde1949" changeset="10413510"/>
  <way id="71237951" version="2" timestamp="2010-09-05T08:39:13Z" uid="59758" user="rendle" changeset="5685269">
    <nd ref="847975774"/>
    <nd ref="503418422"/>
    <tag k="highway" v="secondary"/>
    <tag k="name" v="Durmebrug"/>
    <tag k="ref" v="N446"/>
  </way>
  <way id="71237951" version="3" timestamp="2010-11-10T19:45:28Z" uid="313884" user="el Vinno" changeset="6338592">
    <nd ref="847975774"/>
    <nd ref="503418422"/>
    <tag k="highway" v="secondary"/>
    <tag k="maxspeed" v="70"/>
    <tag k="name" v="Dendermondseweg"/>
    <tag k="ref" v="N446"/>
  </way>
  <way id="71237951" version="4" timestamp="2012-01-16T23:20:55Z" uid="138772" user="lodde1949" changeset="10413510"/>
  <way id="71237955" version="2" timestamp="2010-09-05T08:38:51Z" uid="59758" user="rendle" changeset="5685269">
    <nd ref="503418422"/>
    <nd ref="534783292"/>
    <nd ref="534783288"/>
    <nd ref="505820057"/>
    <tag k="highway" v="secondary"/>
    <tag k="name" v="Durmebrug"/>
    <tag k="ref" v="N446"/>
  </way>
  <way id="71237955" version="3" timestamp="2010-11-10T19:46:31Z" uid="313884" user="el Vinno" changeset="6338592"/>
</osm>
