<?xml version='1.0' encoding='UTF-8'?>
<osm version="0.6" generator="libosmium/2.20.0">
  <way id="71283562" version="1" timestamp="2010-08-07T05:12:57Z" uid="61114" user="Trav" changeset="5421994">
    <nd ref="361320866"/>
    <nd ref="361320870"/>
    <nd ref="454912418"/>
    <nd ref="454912425"/>
    <tag k="highway" v="residential"/>
    <tag k="name" v="Voysey Close"/>
    <tag k="source:name" v="survey"/>
  </way>
  <way id="71283563" version="1" timestamp="2010-08-07T05:12:58Z" uid="61114" user="Trav" changeset="5421994">
    <nd ref="361324590"/>
    <nd ref="361324592"/>
    <nd ref="361324594"/>
    <nd ref="361324595"/>
    <nd ref="361324587"/>
    <nd ref="361324626"/>
    <nd ref="361324597"/>
    <nd ref="361324599"/>
    <nd ref="361324601"/>
    <nd ref="361324602"/>
    <tag k="highway" v="residential"/>
    <tag k="name" v="Narcissius Avenue"/>
    <tag k="source:name" v="survey"/>
    <tag k="source;name" v="survey"/>
  </way>
  <way id="71283563" version="2" timestamp="2011-02-05T22:52:32Z" uid="5359" user="user_5359" changeset="7198323">
    <nd ref="361324590"/>
    <nd ref="361324592"/>
    <nd ref="361324594"/>
    <nd ref="361324595"/>
    <nd ref="361324587"/>
    <nd ref="361324626"/>
    <nd ref="361324597"/>
    <nd ref="361324599"/>
    <nd ref="361324601"/>
    <nd ref="361324602"/>
    <tag k="highway" v="residential"/>
    <tag k="name" v="Narcissius Avenue"/>
    <tag k="source:name" v="survey"/>
  </way>
  <way id="71283564" version="1" timestamp="2010-08-07T05:12:59Z" uid="61114" user="Trav" changeset="5421994">
    <nd ref="361324602"/>
    <nd ref="361324604"/>
    <nd ref="361324625"/>
    <nd ref="361324606"/>
    <nd ref="839639244"/>
    <nd ref="361324607"/>
    <nd ref="361324622"/>
    <nd ref="361324609"/>
    <nd ref="361324617"/>
    <nd ref="361324611"/>
    <nd ref="361324613"/>
    <tag k="highway" v="residential"/>
    <tag k="name" v="Fuchsia Crescent"/>
    <tag k="source:name" v="survey"/>
  </way>
  <way id="71283565" version="1" timestamp="2010-08-07T05:13:00Z" uid="61114" user="Trav" changeset="5421994">
    <nd ref="361324722"/>
    <nd ref="361324737"/>
    <nd ref="361324739"/>
    <nd ref="361324740"/>
    <nd ref="839639529"/>
    <nd ref="361324741"/>
    <nd ref="361324743"/>
    <nd ref="361324744"/>
    <nd ref="361324747"/>
    <nd ref="361321998"/>
    <tag k="highway" v="residential"/>
    <tag k="name" v="Lobelia Crescent"/>
    <tag k="source" v="nearmap"/>
    <tag k="source:name" v="survey"/>
  </way>
  <way id="71283566" version="1" timestamp="2010-08-07T05:13:02Z" uid="61114" user="Trav" changeset="5421994">
    <nd ref="361324671"/>
    <nd ref="456705747"/>
    <nd ref="361324689"/>
    <nd ref="361324690"/>
    <nd ref="361324692"/>
    <nd ref="361324693"/>
    <nd ref="361324695"/>
    <nd ref="361324696"/>
    <nd ref="361324698"/>
    <nd ref="361324700"/>
    <nd ref="361324701"/>
    <nd ref="361324702"/>
    <tag k="highway" v="residential"/>
    <tag k="name" v="Jasmine Avenue"/>
    <tag k="source:name" v="survey"/>
  </way>
  <way id="71283567" version="1" timestamp="2010-08-07T05:13:03Z" uid="61114" user="Trav" changeset="5421994">
    <nd ref="361324679"/>
    <nd ref="361324680"/>
    <nd ref="361324682"/>
    <nd ref="361324683"/>
    <nd ref="361324685"/>
    <tag k="highway" v="residential"/>
    <tag k="name" v="Ebony Crescent"/>
    <tag k="source:name" v="extrapolation"/>
  </way>
  <way id="71283568" version="1" timestamp="2010-08-07T05:13:03Z" uid="61114" user="Trav" changeset="5421994">
    <nd ref="361324685"/>
    <nd ref="361324686"/>
    <nd ref="361324688"/>
    <nd ref="361324671"/>
    <tag k="highway" v="residential"/>
    <tag k="name" v="Jasmine Avenue"/>
    <tag k="source:name" v="extrapolation"/>
  </way>
  <way id="71283569" version="1" timestamp="2010-08-07T05:13:05Z" uid="61114" user="Trav" changeset="5421994">
    <nd ref="361324800"/>
    <nd ref="361321638"/>
    <nd ref="361321640"/>
    <tag k="highway" v="residential"/>
    <tag k="name" v="Brook Street"/>
    <tag k="source:name" v="survey"/>
  </way>
  <way id="71283570" version="1" timestamp="2010-08-07T05:13:08Z" uid="61114" user="Trav" changeset="5421994">
    <nd ref="361324902"/>
    <nd ref="848386868"/>
    <tag k="highway" v="footway"/>
    <tag k="source" v="survey;approximation"/>
  </way>
  <way id="71283571" version="1" timestamp="2010-08-07T05:13:13Z" uid="61114" user="Trav" changeset="5421994">
    <nd ref="359779410"/>
    <nd ref="359779411"/>
    <nd ref="839604815"/>
    <nd ref="359779413"/>
    <nd ref="359779414"/>
    <nd ref="359779416"/>
    <nd ref="359779417"/>
    <nd ref="359779418"/>
    <nd ref="359779420"/>
    <nd ref="839604803"/>
    <nd ref="839604802"/>
    <nd ref="359779421"/>
    <nd ref="839604797"/>
    <nd ref="272104730"/>
    <tag k="highway" v="residential"/>
    <tag k="name" v="Railway Road"/>
    <tag k="source" v="nearmap"/>
    <tag k="source:name" v="survey"/>
  </way>
  <way id="71283572" version="1" timestamp="2010-08-07T05:13:15Z" uid="61114" user="Trav" changeset="5421994">
    <nd ref="848386872"/>
    <nd ref="848386873"/>
    <tag k="highway" v="residential"/>
    <tag k="name" v="Goulburn Street"/>
    <tag k="source" v="approximation"/>
    <tag k="source:name" v="survey"/>
  </way>
  <way id="71283835" version="2" timestamp="2010-08-29T11:04:16Z" uid="23543" user="jkjk" changeset="5624384"/>
  <way id="71283926" version="3" timestamp="2010-12-25T21:39:21Z" uid="7617" user="Franc" changeset="6763901">
    <nd ref="848389487"/>
    <nd ref="29150459"/>
    <nd ref="1064601390"/>
    <nd ref="29150452"/>
    <nd ref="28873764"/>
    <nd ref="568338512"/>
    <nd ref="333284175"/>
    <tag k="cycleway" v="lane"/>
    <tag k="highway" v="primary"/>
    <tag k="lcn" v="yes"/>
    <tag k="maxspeed" v="60"/>
    <tag k="name" v="Delhi Road"/>
    <tag k="source" v="nearmap"/>
  </way>
  <way id="71283926" version="4" timestamp="2012-02-02T02:15:21Z" uid="54784" user="Tom Hollander" changeset="10564163">
    <nd ref="848389487"/>
    <nd ref="29150459"/>
    <nd ref="1064601390"/>
    <nd ref="29150452"/>
    <nd ref="28873764"/>
    <nd ref="568338512"/>
    <nd ref="333284175"/>
    <tag k="cycleway" v="lane"/>
    <tag k="highway" v="primary"/>
    <tag k="lcn" v="yes"/>
    <tag k="maxspeed" v="60"/>
    <tag k="name" v="Delhi Road"/>
    <tag k="ref" v="SH29"/>
    <tag k="source" v="nearmap"/>
  </way>
  <way id="71283926" version="5" timestamp="2012-02-10T20:32:17Z" uid="7523" user="inas" changeset="10647107">
    <nd ref="848389487"/>
    <nd ref="1627317682"/>
    <nd ref="1064601390"/>
    <nd ref="29150452"/>
    <nd ref="28873764"/>
    <nd ref="568338512"/>
    <nd ref="333284175"/>
    <tag k="cycleway" v="lane"/>
    <tag k="highway" v="primary"/>
    <tag k="lcn" v="yes"/>
    <tag k="maxspeed" v="60"/>
    <tag k="name" v="Delhi Road"/>
    <tag k="ref" v="SH29"/>
    <tag k="source" v="nearmap"/>
  </way>
  <way id="71283926" version="6" timestamp="2012-02-10T22:40:05Z" uid="7523" user="inas" changeset="10648215">
    <nd ref="848389487"/>
    <nd ref="1627317682"/>
    <nd ref="1064601390"/>
    <nd ref="1627556690"/>
    <nd ref="28873764"/>
    <nd ref="568338512"/>
    <nd ref="333284175"/>
    <tag k="cycleway" v="lane"/>
    <tag k="highway" v="primary"/>
    <tag k="lcn" v="yes"/>
    <tag k="maxspeed" v="60"/>
    <tag k="name" v="Delhi Road"/>
    <tag k="ref" v="SH29"/>
    <tag k="source" v="nearmap"/>
  </way>
  <way id="71283562" version="2" timestamp="2012-07-22T00:20:49Z" uid="722137" user="OSMF Redaction Account" changeset="12423162"/>
  <way id="71283563" version="3" timestamp="2012-07-22T00:20:30Z" uid="722137" user="OSMF Redaction Account" changeset="12423152"/>
  <way id="71283564" version="2" timestamp="2012-07-21T23:05:27Z" uid="722137" user="OSMF Redaction Account" changeset="12422244"/>
  <way id="71283565" version="2" timestamp="2012-07-21T23:05:28Z" uid="722137" user="OSMF Redaction Account" changeset="12422244"/>
  <way id="71283566" version="2" timestamp="2012-07-22T00:20:32Z" uid="722137" user="OSMF Redaction Account" changeset="12423152"/>
  <way id="71283567" version="2" timestamp="2012-07-22T00:20:31Z" uid="722137" user="OSMF Redaction Account" changeset="12423152"/>
  <way id="71283568" version="2" timestamp="2012-07-22T00:20:35Z" uid="722137" user="OSMF Redaction Account" changeset="12423152"/>
  <way id="71283569" version="2" timestamp="2012-07-21T23:05:24Z" uid="722137" user="OSMF Redaction Account" changeset="12422233"/>
  <way id="71283570" version="2" timestamp="2012-07-22T02:32:54Z" uid="722137" user="OSMF Redaction Account" changeset="12424440"/>
  <way id="71283571" version="2" timestamp="2012-07-21T23:00:05Z" uid="722137" user="OSMF Redaction Account" changeset="12422135">
    <nd ref="359779410"/>
    <nd ref="359779411"/>
    <nd ref="839604815"/>
    <nd ref="359779413"/>
    <nd ref="359779414"/>
    <nd ref="359779416"/>
    <nd ref="359779417"/>
    <nd ref="359779418"/>
    <nd ref="359779420"/>
    <nd ref="359779421"/>
    <nd ref="272104730"/>
    <tag k="highway" v="residential"/>
    <tag k="name" v="Railway Road"/>
    <tag k="source" v="nearmap"/>
    <tag k="source:name" v="survey"/>
  </way>
  <way id="71283571" version="3" timestamp="2012-07-22T02:32:56Z" uid="722137" user="OSMF Redaction Account" changeset="12424440"/>
  <way id="71283572" version="2" timestamp="2012-07-21T23:05:20Z" uid="722137" user="OSMF Redaction Account" changeset="12422233"/>
  <way id="71283926" version="7" timestamp="2012-07-19T23:06:04Z" uid="722137" user="OSMF Redaction Account" changeset="12351247">
    <nd ref="848389487"/>
    <nd ref="1627317682"/>
    <nd ref="1627556690"/>
    <nd ref="28873764"/>
    <nd ref="333284175"/>
    <tag k="cycleway" v="lane"/>
    <tag k="highway" v="primary"/>
    <tag k="lcn" v="yes"/>
    <tag k="maxspeed" v="60"/>
    <tag k="name" v="Delhi Road"/>
    <tag k="ref" v="SH29"/>
    <tag k="source" v="nearmap"/>
  </way>
  <way id="71283926" version="8" timestamp="2012-07-25T00:24:41Z" uid="705018" user="woftam" changeset="12478764">
    <nd ref="848389487"/>
    <nd ref="1627317682"/>
    <nd ref="1627556690"/>
    <nd ref="28873764"/>
    <nd ref="1837150119"/>
    <nd ref="333284175"/>
    <tag k="cycleway" v="lane"/>
    <tag k="highway" v="primary"/>
    <tag k="lcn" v="yes"/>
    <tag k="maxspeed" v="60"/>
    <tag k="name" v="Delhi Road"/>
    <tag k="network" v="SH"/>
    <tag k="ref" v="29"/>
    <tag k="source" v="nearmap"/>
  </way>
  <way id="71283926" version="9" timestamp="2012-07-25T00:26:55Z" uid="705018" user="woftam" changeset="12478764">
    <nd ref="848389487"/>
    <nd ref="1627317682"/>
    <nd ref="1627556690"/>
    <nd ref="28873764"/>
    <nd ref="1837150119"/>
    <nd ref="333284175"/>
    <tag k="cycleway" v="lane"/>
    <tag k="highway" v="primary"/>
    <tag k="lcn" v="yes"/>
    <tag k="maxspeed" v="60"/>
    <tag k="name" v="Delhi Road"/>
    <tag k="network" v="SH"/>
    <tag k="ref" v="29"/>
    <tag k="source" v="knowledge"/>
  </way>
  <way id="71283926" version="10" timestamp="2012-07-26T14:05:17Z" uid="67896" user="mrpulley" changeset="12499660">
    <nd ref="848389487"/>
    <nd ref="1627317682"/>
    <nd ref="1627556690"/>
    <nd ref="28873764"/>
    <nd ref="1837150119"/>
    <nd ref="333284175"/>
    <tag k="cycleway" v="lane"/>
    <tag k="highway" v="primary"/>
    <tag k="lcn" v="yes"/>
    <tag k="maxspeed" v="60"/>
    <tag k="name" v="Delhi Road"/>
    <tag k="network" v="S"/>
    <tag k="ref" v="29"/>
    <tag k="source" v="knowledge"/>
  </way>
</osm>
