<?xml version='1.0' encoding='UTF-8'?>
<osm version="0.6" generator="libosmium/2.20.0">
  <way id="71466579" version="1" timestamp="2010-08-09T01:19:09Z" uid="99207" user="Lar Kiesel" changeset="5439494">
    <nd ref="850365065"/>
    <nd ref="850365066"/>
    <tag k="bridge" v="yes"/>
    <tag k="highway" v="motorway"/>
    <tag k="lanes" v="2"/>
    <tag k="layer" v="1"/>
    <tag k="name" v="Mark Clark Expy"/>
    <tag k="oneway" v="yes"/>
    <tag k="ref" v="I 526"/>
  </way>
  <way id="71466579" version="2" timestamp="2011-11-24T22:01:26Z" uid="207745" user="NE2" changeset="9937881">
    <nd ref="850365065"/>
    <nd ref="850365066"/>
    <tag k="bicycle" v="no"/>
    <tag k="bridge" v="yes"/>
    <tag k="foot" v="no"/>
    <tag k="hgv" v="designated"/>
    <tag k="highway" v="motorway"/>
    <tag k="horse" v="no"/>
    <tag k="lanes" v="2"/>
    <tag k="layer" v="1"/>
    <tag k="name" v="Mark Clark Expy"/>
    <tag k="oneway" v="yes"/>
    <tag k="ref" v="I 526"/>
    <tag k="sidewalk" v="none"/>
  </way>
  <way id="71466581" version="1" timestamp="2010-08-09T01:19:10Z" uid="99207" user="Lar Kiesel" changeset="5439494">
    <nd ref="850365067"/>
    <nd ref="850316562"/>
    <nd ref="411288599"/>
    <nd ref="110066535"/>
    <nd ref="411288600"/>
    <nd ref="411288601"/>
    <tag k="highway" v="motorway"/>
    <tag k="lanes" v="2"/>
    <tag k="name" v="Mark Clark Expy"/>
    <tag k="oneway" v="yes"/>
    <tag k="ref" v="I 526"/>
  </way>
  <way id="71466581" version="2" timestamp="2010-09-22T07:12:11Z" uid="252811" user="rickmastfan67" changeset="5842986">
    <nd ref="850365067"/>
    <nd ref="921133376"/>
    <nd ref="850316562"/>
    <nd ref="411288599"/>
    <nd ref="110066535"/>
    <nd ref="411288600"/>
    <nd ref="921133380"/>
    <nd ref="411288601"/>
    <tag k="highway" v="motorway"/>
    <tag k="lanes" v="2"/>
    <tag k="name" v="Mark Clark Expy"/>
    <tag k="oneway" v="yes"/>
    <tag k="ref" v="I 526"/>
  </way>
  <way id="71466581" version="3" timestamp="2011-11-24T22:01:44Z" uid="207745" user="NE2" changeset="9937881">
    <nd ref="850365067"/>
    <nd ref="921133376"/>
    <nd ref="850316562"/>
    <nd ref="411288599"/>
    <nd ref="110066535"/>
    <nd ref="411288600"/>
    <nd ref="921133380"/>
    <nd ref="411288601"/>
    <tag k="bicycle" v="no"/>
    <tag k="foot" v="no"/>
    <tag k="hgv" v="designated"/>
    <tag k="highway" v="motorway"/>
    <tag k="horse" v="no"/>
    <tag k="lanes" v="2"/>
    <tag k="name" v="Mark Clark Expy"/>
    <tag k="oneway" v="yes"/>
    <tag k="ref" v="I 526"/>
    <tag k="sidewalk" v="none"/>
  </way>
  <way id="71466584" version="1" timestamp="2010-08-09T01:19:10Z" uid="99207" user="Lar Kiesel" changeset="5439494">
    <nd ref="850365068"/>
    <nd ref="850365067"/>
    <tag k="bridge" v="yes"/>
    <tag k="highway" v="motorway"/>
    <tag k="lanes" v="2"/>
    <tag k="layer" v="1"/>
    <tag k="name" v="Mark Clark Expy"/>
    <tag k="oneway" v="yes"/>
    <tag k="ref" v="I 526"/>
  </way>
  <way id="71466584" version="2" timestamp="2011-11-24T22:01:27Z" uid="207745" user="NE2" changeset="9937881">
    <nd ref="850365068"/>
    <nd ref="850365067"/>
    <tag k="bicycle" v="no"/>
    <tag k="bridge" v="yes"/>
    <tag k="foot" v="no"/>
    <tag k="hgv" v="designated"/>
    <tag k="highway" v="motorway"/>
    <tag k="horse" v="no"/>
    <tag k="lanes" v="2"/>
    <tag k="layer" v="1"/>
    <tag k="name" v="Mark Clark Expy"/>
    <tag k="oneway" v="yes"/>
    <tag k="ref" v="I 526"/>
    <tag k="sidewalk" v="none"/>
  </way>
  <way id="71466620" version="1" timestamp="2010-08-09T01:19:15Z" uid="99207" user="Lar Kiesel" changeset="5439494">
    <nd ref="850365066"/>
    <nd ref="27131153"/>
    <nd ref="850365081"/>
    <nd ref="850365082"/>
    <nd ref="850365083"/>
    <nd ref="850365084"/>
    <nd ref="411284406"/>
    <nd ref="411284407"/>
    <nd ref="850365085"/>
    <nd ref="850365086"/>
    <nd ref="27131151"/>
    <tag k="highway" v="motorway"/>
    <tag k="lanes" v="2"/>
    <tag k="name" v="Mark Clark Expy"/>
    <tag k="oneway" v="yes"/>
    <tag k="ref" v="I 526"/>
  </way>
  <way id="71466620" version="2" timestamp="2010-09-22T07:12:04Z" uid="252811" user="rickmastfan67" changeset="5842986">
    <nd ref="850365066"/>
    <nd ref="921133275"/>
    <nd ref="27131153"/>
    <nd ref="850365081"/>
    <nd ref="850365082"/>
    <nd ref="850365083"/>
    <nd ref="921133276"/>
    <nd ref="850365084"/>
    <nd ref="411284406"/>
    <nd ref="411284407"/>
    <nd ref="921133277"/>
    <nd ref="850365085"/>
    <nd ref="850365086"/>
    <nd ref="921133278"/>
    <nd ref="27131151"/>
    <tag k="highway" v="motorway"/>
    <tag k="lanes" v="2"/>
    <tag k="name" v="Mark Clark Expy"/>
    <tag k="oneway" v="yes"/>
    <tag k="ref" v="I 526"/>
  </way>
  <way id="71466620" version="3" timestamp="2011-11-24T22:01:03Z" uid="207745" user="NE2" changeset="9937881">
    <nd ref="850365066"/>
    <nd ref="921133275"/>
    <nd ref="27131153"/>
    <nd ref="850365081"/>
    <nd ref="850365082"/>
    <nd ref="850365083"/>
    <nd ref="921133276"/>
    <nd ref="850365084"/>
    <nd ref="411284406"/>
    <nd ref="411284407"/>
    <nd ref="921133277"/>
    <nd ref="850365085"/>
    <nd ref="850365086"/>
    <nd ref="921133278"/>
    <nd ref="27131151"/>
    <tag k="bicycle" v="no"/>
    <tag k="foot" v="no"/>
    <tag k="hgv" v="designated"/>
    <tag k="highway" v="motorway"/>
    <tag k="horse" v="no"/>
    <tag k="lanes" v="2"/>
    <tag k="name" v="Mark Clark Expy"/>
    <tag k="oneway" v="yes"/>
    <tag k="ref" v="I 526"/>
    <tag k="sidewalk" v="none"/>
  </way>
  <way id="71466579" version="3" timestamp="2012-04-06T04:16:26Z" uid="169004" user="oldtopos" changeset="11196606"/>
  <way id="71466581" version="4" timestamp="2012-04-06T04:16:27Z" uid="169004" user="oldtopos" changeset="11196606"/>
  <way id="71466584" version="3" timestamp="2012-04-06T04:16:26Z" uid="169004" user="oldtopos" changeset="11196606"/>
  <way id="71466620" version="4" timestamp="2012-04-06T04:16:30Z" uid="169004" user="oldtopos" changeset="11196606"/>
</osm>
