<?xml version='1.0' encoding='UTF-8'?>
<osm version="0.6" generator="libosmium/2.20.0">
  <way id="71953077" version="2" timestamp="2011-03-26T21:20:40Z" uid="34428" user="usm78-gis" changeset="7680240">
    <nd ref="25894458"/>
    <nd ref="1219708787"/>
    <nd ref="21626365"/>
    <tag k="access" v="no"/>
    <tag k="addr:postcode" v="191060"/>
    <tag k="cladr:code" v="78000000000053200"/>
    <tag k="cladr:name" v="Кваренги"/>
    <tag k="cladr:suffix" v="Переулок"/>
    <tag k="highway" v="residential"/>
    <tag k="name" v="переулок Кваренги"/>
  </way>
  <way id="71953077" version="3" timestamp="2011-09-27T21:58:57Z" uid="143266" user="Sergey Astakhov" changeset="9415254">
    <nd ref="25894458"/>
    <nd ref="1219708787"/>
    <nd ref="21626365"/>
    <tag k="access" v="no"/>
    <tag k="addr:postcode" v="191060"/>
    <tag k="highway" v="residential"/>
    <tag k="name" v="переулок Кваренги"/>
  </way>
  <way id="71953077" version="4" timestamp="2012-01-02T12:14:49Z" uid="392109" user="GaM" changeset="10270021">
    <nd ref="25894458"/>
    <nd ref="1219708787"/>
    <nd ref="21626365"/>
    <tag k="addr:postcode" v="191060"/>
    <tag k="highway" v="residential"/>
    <tag k="name" v="переулок Кваренги"/>
    <tag k="vehicle" v="private"/>
  </way>
  <way id="71953077" version="5" timestamp="2012-04-14T00:08:01Z" uid="39040" user="Dinamik" changeset="11293940">
    <nd ref="25894458"/>
    <nd ref="1219708787"/>
    <nd ref="21626365"/>
    <tag k="addr:postcode" v="191060"/>
    <tag k="highway" v="residential"/>
    <tag k="name" v="переулок Кваренги"/>
    <tag k="vehicle" v="no"/>
  </way>
  <way id="71953077" version="6" timestamp="2012-07-20T08:56:50Z" uid="722137" user="OSMF Redaction Account" changeset="12369114">
    <nd ref="25894458"/>
    <nd ref="21626365"/>
    <tag k="addr:postcode" v="191060"/>
    <tag k="highway" v="residential"/>
    <tag k="name" v="переулок Кваренги"/>
    <tag k="vehicle" v="no"/>
  </way>
</osm>
