<?xml version='1.0' encoding='UTF-8'?>
<osm version="0.6" generator="libosmium/2.20.0">
  <way id="72117641" version="2" timestamp="2010-11-13T07:07:09Z" uid="30632" user="antblant" changeset="6356144">
    <nd ref="443367865"/>
    <nd ref="261998735"/>
    <tag k="highway" v="primary"/>
    <tag k="name" v="Wielicka"/>
    <tag k="oneway" v="yes"/>
  </way>
  <way id="72117641" version="3" timestamp="2010-12-25T13:16:23Z" uid="196804" user="hektor" changeset="6760789">
    <nd ref="443367865"/>
    <nd ref="261998735"/>
    <tag k="foot" v="no"/>
    <tag k="highway" v="primary"/>
    <tag k="name" v="Wielicka"/>
    <tag k="oneway" v="yes"/>
  </way>
  <way id="72117641" version="4" timestamp="2011-04-03T15:13:55Z" uid="9475" user="Slawek Maderak" changeset="7755332">
    <nd ref="443367865"/>
    <nd ref="261998735"/>
    <tag k="foot" v="no"/>
    <tag k="highway" v="primary"/>
    <tag k="maxspeed" v="70"/>
    <tag k="name" v="Wielicka"/>
    <tag k="oneway" v="yes"/>
  </way>
  <way id="72117641" version="5" timestamp="2011-06-19T12:53:05Z" uid="338064" user="bombka190" changeset="8483470">
    <nd ref="443367865"/>
    <nd ref="261998735"/>
    <tag k="foot" v="no"/>
    <tag k="highway" v="primary"/>
    <tag k="maxspeed" v="70"/>
    <tag k="name" v="Wielicka"/>
    <tag k="oneway" v="yes"/>
    <tag k="ref" v="94"/>
  </way>
  <way id="72117641" version="6" timestamp="2011-08-23T13:49:33Z" uid="338064" user="bombka190" changeset="9103877">
    <nd ref="443367865"/>
    <nd ref="261998735"/>
    <tag k="foot" v="no"/>
    <tag k="highway" v="primary"/>
    <tag k="maxspeed" v="70"/>
    <tag k="name" v="Wielicka"/>
    <tag k="oneway" v="yes"/>
  </way>
</osm>
