<?xml version='1.0' encoding='UTF-8'?>
<osm version="0.6" generator="libosmium/2.20.0">
  <way id="72134141" version="2" timestamp="2011-03-02T13:26:29Z" uid="30632" user="antblant" changeset="7437722">
    <nd ref="301669628"/>
    <nd ref="494381082"/>
    <nd ref="301670059"/>
    <tag k="highway" v="primary"/>
    <tag k="name" v="Aleja Grunwaldzka"/>
    <tag k="oneway" v="yes"/>
    <tag k="ref" v="468"/>
    <tag k="source" v="UMP-PL, ./UMP-Gdansk/src/GDANSK.ulice.txt"/>
  </way>
  <way id="72134141" version="3" timestamp="2011-08-05T11:16:08Z" uid="378154" user="rosomak" changeset="8928017">
    <nd ref="301669628"/>
    <nd ref="494381082"/>
    <nd ref="301670059"/>
    <tag k="highway" v="primary"/>
    <tag k="name" v="aleja Grunwaldzka"/>
    <tag k="oneway" v="yes"/>
    <tag k="ref" v="468"/>
  </way>
  <way id="72134141" version="4" timestamp="2011-12-27T10:09:57Z" uid="550476" user="fishcrosser" changeset="10214207">
    <nd ref="301669628"/>
    <nd ref="1563445086"/>
    <nd ref="494381082"/>
    <nd ref="301670059"/>
    <tag k="highway" v="primary"/>
    <tag k="name" v="aleja Grunwaldzka"/>
    <tag k="oneway" v="yes"/>
    <tag k="ref" v="468"/>
  </way>
  <way id="72134141" version="5" timestamp="2012-06-05T10:02:49Z" uid="681295" user="przemas75" changeset="11804524">
    <nd ref="301669628"/>
    <nd ref="1563445086"/>
    <nd ref="494381082"/>
    <nd ref="301670059"/>
    <tag k="highway" v="primary"/>
    <tag k="lanes" v="3"/>
    <tag k="lit" v="yes"/>
    <tag k="name" v="aleja Grunwaldzka"/>
    <tag k="oneway" v="yes"/>
    <tag k="ref" v="468"/>
    <tag k="source" v="survey"/>
    <tag k="surface" v="asphalt"/>
  </way>
  <way id="72134141" version="6" timestamp="2012-07-20T09:23:44Z" uid="681295" user="przemas75" changeset="12369787">
    <nd ref="301669628"/>
    <nd ref="1563445086"/>
    <nd ref="494381082"/>
    <nd ref="301670059"/>
    <tag k="highway" v="primary"/>
    <tag k="lanes" v="3"/>
    <tag k="lit" v="yes"/>
    <tag k="name" v="aleja Grunwaldzka"/>
    <tag k="odbl" v="clean"/>
    <tag k="oneway" v="yes"/>
    <tag k="ref" v="468"/>
    <tag k="source" v="survey"/>
    <tag k="surface" v="asphalt"/>
  </way>
  <way id="72134141" version="7" timestamp="2012-07-24T14:43:47Z" uid="722137" user="OSMF Redaction Account" changeset="12468238">
    <nd ref="301669628"/>
    <nd ref="1563445086"/>
    <nd ref="301670059"/>
    <tag k="highway" v="primary"/>
    <tag k="lanes" v="3"/>
    <tag k="lit" v="yes"/>
    <tag k="name" v="aleja Grunwaldzka"/>
    <tag k="odbl" v="clean"/>
    <tag k="oneway" v="yes"/>
    <tag k="ref" v="468"/>
    <tag k="source" v="survey"/>
    <tag k="surface" v="asphalt"/>
  </way>
  <way id="72134141" version="8" timestamp="2012-08-18T20:55:21Z" uid="505563" user="Wojciech BrzeziÅ„ski" changeset="12777263">
    <nd ref="301669628"/>
    <nd ref="1563445086"/>
    <nd ref="301670059"/>
    <tag k="highway" v="primary"/>
    <tag k="lanes" v="3"/>
    <tag k="lit" v="yes"/>
    <tag k="name" v="Aleja Grunwaldzka"/>
    <tag k="odbl" v="clean"/>
    <tag k="oneway" v="yes"/>
    <tag k="ref" v="468"/>
    <tag k="source" v="survey"/>
    <tag k="surface" v="asphalt"/>
  </way>
</osm>
