<?xml version='1.0' encoding='UTF-8'?>
<osm version="0.6" generator="libosmium/2.20.0">
  <way id="72200494" version="1" timestamp="2010-08-13T08:21:55Z" uid="72235" user="Basstoelpel" changeset="5479695">
    <nd ref="321871677"/>
    <nd ref="31197443"/>
    <tag k="highway" v="secondary"/>
    <tag k="name" v="Fürst-Wolrad-Straße"/>
    <tag k="ref" v="L 370"/>
  </way>
  <way id="72200494" version="2" timestamp="2010-08-15T05:54:20Z" uid="33382" user="de_muur" changeset="5496255">
    <nd ref="321871677"/>
    <nd ref="31197443"/>
    <tag k="highway" v="secondary"/>
    <tag k="name" v="Fürst-Wolrad-Straße"/>
    <tag k="ref" v="L 370"/>
    <tag k="surface" v="paved"/>
  </way>
  <way id="72200494" version="3" timestamp="2010-08-23T18:44:16Z" uid="72235" user="Basstoelpel" changeset="5573746">
    <nd ref="321871677"/>
    <nd ref="31197443"/>
    <tag k="highway" v="secondary"/>
    <tag k="maxspeed" v="100"/>
    <tag k="name" v="Fürst-Wolrad-Straße"/>
    <tag k="ref" v="L 370"/>
    <tag k="surface" v="paved"/>
  </way>
  <way id="72200494" version="4" timestamp="2011-08-25T07:53:54Z" uid="474772" user="AndreasJ42" changeset="9118839">
    <nd ref="321871677"/>
    <nd ref="1411904293"/>
    <nd ref="1411904287"/>
    <nd ref="31197443"/>
    <tag k="highway" v="secondary"/>
    <tag k="maxspeed" v="100"/>
    <tag k="name" v="Fürst-Wolrad-Straße"/>
    <tag k="ref" v="L 370"/>
    <tag k="surface" v="paved"/>
  </way>
  <way id="72200494" version="5" timestamp="2012-03-13T09:16:01Z" uid="72235" user="Basstoelpel" changeset="10964363"/>
</osm>
