<?xml version='1.0' encoding='UTF-8'?>
<osm version="0.6" generator="libosmium/2.20.0">
  <way id="72455638" version="1" timestamp="2010-08-14T15:40:29Z" uid="34428" user="usm78-gis" changeset="5491884">
    <nd ref="860258973"/>
    <nd ref="860258958"/>
    <nd ref="860258971"/>
    <nd ref="860258986"/>
    <nd ref="860258984"/>
    <nd ref="860258977"/>
    <nd ref="860258980"/>
    <nd ref="860258961"/>
    <nd ref="860258975"/>
    <nd ref="860258956"/>
    <nd ref="860258960"/>
    <tag k="highway" v="track"/>
    <tag k="surface" v="concrete"/>
  </way>
  <way id="72455638" version="2" timestamp="2011-09-05T15:55:30Z" uid="122300" user="IsVlad" changeset="9218923">
    <nd ref="860258973"/>
    <nd ref="860258958"/>
    <nd ref="860258971"/>
    <nd ref="860258986"/>
    <nd ref="860258984"/>
    <nd ref="860258977"/>
    <nd ref="860258980"/>
    <nd ref="860258961"/>
    <nd ref="860258975"/>
    <nd ref="860258956"/>
    <nd ref="860258960"/>
    <tag k="highway" v="unclassified"/>
    <tag k="surface" v="concrete"/>
  </way>
  <way id="72455639" version="1" timestamp="2010-08-14T15:40:29Z" uid="34428" user="usm78-gis" changeset="5491884">
    <nd ref="860258973"/>
    <nd ref="620275592"/>
    <tag k="highway" v="primary"/>
    <tag k="name" v="Магистральная"/>
    <tag k="ref" v="A120"/>
    <tag k="surface" v="asphalt"/>
  </way>
  <way id="72455639" version="2" timestamp="2011-09-05T05:10:04Z" uid="122300" user="IsVlad" changeset="9214347">
    <nd ref="860258973"/>
    <nd ref="1423672408"/>
    <nd ref="620275592"/>
    <tag k="highway" v="primary"/>
    <tag k="name" v="Магистральная"/>
    <tag k="ref" v="A120"/>
    <tag k="surface" v="asphalt"/>
  </way>
  <way id="72455639" version="3" timestamp="2011-09-05T16:07:50Z" uid="122300" user="IsVlad" changeset="9219134">
    <nd ref="860258973"/>
    <nd ref="1423672408"/>
    <nd ref="1424167770"/>
    <nd ref="620275592"/>
    <tag k="highway" v="primary"/>
    <tag k="name" v="Магистральная"/>
    <tag k="ref" v="A120"/>
    <tag k="surface" v="asphalt"/>
  </way>
  <way id="72455640" version="1" timestamp="2010-08-14T15:40:29Z" uid="34428" user="usm78-gis" changeset="5491884">
    <nd ref="826063221"/>
    <nd ref="860258983"/>
    <nd ref="860258974"/>
    <nd ref="860258978"/>
    <tag k="highway" v="track"/>
  </way>
  <way id="72455641" version="1" timestamp="2010-08-14T15:40:29Z" uid="34428" user="usm78-gis" changeset="5491884">
    <nd ref="826063221"/>
    <nd ref="826063223"/>
    <nd ref="826063224"/>
    <nd ref="826063229"/>
    <nd ref="826063233"/>
    <nd ref="826063237"/>
    <nd ref="826063238"/>
    <nd ref="826063240"/>
    <nd ref="826063250"/>
    <nd ref="826063251"/>
    <nd ref="826063252"/>
    <nd ref="826063253"/>
    <nd ref="826063254"/>
    <nd ref="826063255"/>
    <tag k="highway" v="track"/>
    <tag k="surface" v="dirt"/>
    <tag k="tracktype" v="grade2"/>
  </way>
  <way id="72455641" version="2" timestamp="2011-02-18T15:40:37Z" uid="177084" user="AlRight" changeset="7323464">
    <nd ref="826063221"/>
    <nd ref="826063223"/>
    <nd ref="826063224"/>
    <nd ref="826063229"/>
    <nd ref="826063233"/>
    <nd ref="826063237"/>
    <nd ref="826063238"/>
    <nd ref="826063240"/>
    <nd ref="826063252"/>
    <tag k="highway" v="track"/>
    <tag k="surface" v="dirt"/>
    <tag k="tracktype" v="grade2"/>
  </way>
  <way id="72455852" version="3" timestamp="2011-02-05T21:19:46Z" uid="96874" user="Quedel" changeset="7197399">
    <nd ref="860261651"/>
    <nd ref="860261648"/>
    <nd ref="860261682"/>
    <nd ref="860261654"/>
    <nd ref="860261651"/>
    <tag k="addr:city" v="Quedlinburg"/>
    <tag k="addr:country" v="DE"/>
    <tag k="addr:housename" v="Kleersturnhalle"/>
    <tag k="addr:housenumber" v="46"/>
    <tag k="addr:postcode" v="06484"/>
    <tag k="addr:street" v="Kleersstraße"/>
    <tag k="building" v="yes"/>
    <tag k="leisure" v="sports_centre"/>
    <tag k="name" v="Kleersturnhalle"/>
    <tag k="sport" v="multi"/>
  </way>
  <way id="72455638" version="3" timestamp="2012-07-22T18:43:29Z" uid="722137" user="OSMF Redaction Account" changeset="12437892"/>
  <way id="72455639" version="4" timestamp="2012-07-22T18:43:16Z" uid="722137" user="OSMF Redaction Account" changeset="12437892">
    <nd ref="1423672408"/>
    <nd ref="1424167770"/>
  </way>
  <way id="72455639" version="5" timestamp="2012-07-23T15:20:57Z" uid="39040" user="Dinamik" changeset="12452077">
    <nd ref="1423672408"/>
    <nd ref="1424167770"/>
    <tag k="highway" v="primary"/>
  </way>
  <way id="72455639" version="6" timestamp="2012-07-30T10:07:52Z" uid="697731" user="Эцелоп" changeset="12545792">
    <nd ref="1423672408"/>
    <nd ref="1424167770"/>
    <tag k="highway" v="tertiary"/>
  </way>
  <way id="72455639" version="7" timestamp="2012-07-30T10:09:43Z" uid="697731" user="Эцелоп" changeset="12545814">
    <nd ref="1423672408"/>
    <nd ref="1424167770"/>
    <tag k="highway" v="secondary"/>
  </way>
  <way id="72455640" version="2" timestamp="2012-07-22T19:28:11Z" uid="722137" user="OSMF Redaction Account" changeset="12438636"/>
  <way id="72455641" version="3" timestamp="2012-07-22T19:28:11Z" uid="722137" user="OSMF Redaction Account" changeset="12438636"/>
  <way id="72455852" version="4" timestamp="2012-07-17T08:31:32Z" uid="722137" user="OSMF Redaction Account" changeset="12260486">
    <nd ref="860261651"/>
    <nd ref="860261648"/>
    <nd ref="860261682"/>
    <nd ref="860261654"/>
    <nd ref="860261651"/>
    <tag k="addr:housenumber" v="46"/>
    <tag k="addr:street" v="Kleersstraße"/>
    <tag k="building" v="yes"/>
    <tag k="leisure" v="sports_centre"/>
    <tag k="name" v="Kleersturnhalle"/>
    <tag k="sport" v="multi"/>
  </way>
</osm>
