<?xml version='1.0' encoding='UTF-8'?>
<osm version="0.6" generator="libosmium/2.20.0">
  <way id="72557468" version="3" timestamp="2010-10-12T12:36:42Z" uid="96874" user="Quedel" changeset="6020479">
    <nd ref="861228594"/>
    <nd ref="861228592"/>
    <nd ref="861228597"/>
    <nd ref="861228600"/>
    <nd ref="861228609"/>
    <nd ref="861228611"/>
    <nd ref="861228550"/>
    <nd ref="861228558"/>
    <nd ref="861228565"/>
    <nd ref="861228572"/>
    <nd ref="861228584"/>
    <nd ref="861228589"/>
    <nd ref="861228594"/>
    <tag k="addr:housenumber" v="11"/>
    <tag k="addr:postcode" v="06484"/>
    <tag k="addr:street" v="Weyhestraße"/>
    <tag k="amenity" v="school"/>
    <tag k="building" v="yes"/>
    <tag k="name" v="Berufsbildende Schulen des Landkreises Quedlinburg &quot;B. B. Mette&quot;"/>
    <tag k="school" v="college"/>
  </way>
  <way id="72557468" version="4" timestamp="2010-10-19T10:49:04Z" uid="96874" user="Quedel" changeset="6096127">
    <nd ref="861228594"/>
    <nd ref="861228592"/>
    <nd ref="861228597"/>
    <nd ref="861228600"/>
    <nd ref="861228609"/>
    <nd ref="861228611"/>
    <nd ref="861228550"/>
    <nd ref="861228558"/>
    <nd ref="861228565"/>
    <nd ref="861228572"/>
    <nd ref="861228584"/>
    <nd ref="861228589"/>
    <nd ref="861228594"/>
    <tag k="addr:housenumber" v="1"/>
    <tag k="addr:postcode" v="06484"/>
    <tag k="addr:street" v="Weyhestraße"/>
    <tag k="amenity" v="school"/>
    <tag k="building" v="yes"/>
    <tag k="name" v="Berufsbildende Schulen des Landkreises Quedlinburg &quot;B. B. Mette&quot;"/>
    <tag k="school" v="college"/>
  </way>
  <way id="72557472" version="2" timestamp="2010-09-30T15:41:36Z" uid="96874" user="Quedel" changeset="5921031">
    <nd ref="861228604"/>
    <nd ref="861228613"/>
    <tag k="access" v="permissive"/>
    <tag k="highway" v="service"/>
  </way>
  <way id="72557472" version="3" timestamp="2010-10-17T21:44:17Z" uid="96874" user="Quedel" changeset="6072345">
    <nd ref="861228604"/>
    <nd ref="955241861"/>
    <nd ref="861228613"/>
    <tag k="access" v="permissive"/>
    <tag k="highway" v="service"/>
  </way>
  <way id="72557741" version="6" timestamp="2011-01-30T00:54:04Z" uid="4467" user="Rosscoe" changeset="7129355">
    <nd ref="920074728"/>
    <nd ref="861230834"/>
    <nd ref="861230845"/>
    <nd ref="864641639"/>
    <tag k="highway" v="residential"/>
    <tag k="name" v="Garrard Street"/>
    <tag k="source" v="extrapolation"/>
    <tag k="surface" v="unpaved"/>
  </way>
  <way id="72557468" version="5" timestamp="2012-07-17T08:31:33Z" uid="722137" user="OSMF Redaction Account" changeset="12260486">
    <nd ref="861228594"/>
    <nd ref="861228592"/>
    <nd ref="861228597"/>
    <nd ref="861228600"/>
    <nd ref="861228609"/>
    <nd ref="861228611"/>
    <nd ref="861228550"/>
    <nd ref="861228558"/>
    <nd ref="861228565"/>
    <nd ref="861228572"/>
    <nd ref="861228584"/>
    <nd ref="861228589"/>
    <nd ref="861228594"/>
    <tag k="addr:housenumber" v="1"/>
    <tag k="amenity" v="school"/>
    <tag k="building" v="yes"/>
  </way>
  <way id="72557472" version="4" timestamp="2012-07-17T08:30:36Z" uid="722137" user="OSMF Redaction Account" changeset="12260486">
    <nd ref="861228604"/>
    <nd ref="861228613"/>
    <tag k="highway" v="service"/>
  </way>
  <way id="72557472" version="5" timestamp="2012-08-17T20:06:27Z" uid="201359" user="wambacher" changeset="12766655"/>
</osm>
