<?xml version='1.0' encoding='UTF-8'?>
<osm version="0.6" generator="libosmium/2.20.0">
  <way id="72685057" version="6" timestamp="2010-08-27T07:39:06Z" uid="33382" user="de_muur" changeset="5605132">
    <nd ref="854507473"/>
    <nd ref="746640574"/>
    <nd ref="262381766"/>
    <nd ref="746640586"/>
    <nd ref="746640546"/>
    <nd ref="262381767"/>
    <nd ref="380887317"/>
    <nd ref="262381768"/>
    <nd ref="746640532"/>
    <tag k="cycleway" v="track"/>
    <tag k="highway" v="tertiary"/>
    <tag k="name" v="Elmenhorster Chaussee"/>
    <tag k="ref" v="K 108"/>
    <tag k="surface" v="paved"/>
  </way>
  <way id="72685057" version="7" timestamp="2010-09-09T20:21:36Z" uid="167616" user="ajeba" changeset="5736062">
    <nd ref="854507473"/>
    <nd ref="746640574"/>
    <nd ref="262381766"/>
    <nd ref="746640586"/>
    <nd ref="746640546"/>
    <nd ref="262381767"/>
    <nd ref="380887317"/>
    <tag k="highway" v="tertiary"/>
    <tag k="name" v="Petersfelde"/>
    <tag k="ref" v="K 108"/>
    <tag k="surface" v="paved"/>
  </way>
  <way id="72685057" version="8" timestamp="2012-04-20T18:36:17Z" uid="63107" user="brogo" changeset="11367066"/>
</osm>
