<?xml version='1.0' encoding='UTF-8'?>
<osm version="0.6" generator="libosmium/2.20.0">
  <way id="73611176" version="2" timestamp="2011-02-06T16:33:33Z" uid="49111" user="Markus B" changeset="7205110">
    <nd ref="872429273"/>
    <nd ref="872431515"/>
    <nd ref="1139369467"/>
    <nd ref="1139354947"/>
    <nd ref="872431518"/>
    <nd ref="872431520"/>
    <tag k="highway" v="tertiary"/>
    <tag k="name" v="לילי"/>
    <tag k="name:en" v="Lily"/>
  </way>
  <way id="73611176" version="3" timestamp="2011-02-20T13:49:17Z" uid="22684" user="Mr_Israel" changeset="7341662">
    <nd ref="872435370"/>
    <nd ref="1163339315"/>
    <nd ref="1163339170"/>
    <nd ref="872431518"/>
    <nd ref="1139354947"/>
    <nd ref="1139369467"/>
    <nd ref="872431515"/>
    <nd ref="1163339288"/>
    <nd ref="872429281"/>
    <tag k="highway" v="tertiary"/>
    <tag k="name" v="לילי"/>
    <tag k="name:en" v="Lily"/>
    <tag k="oneway" v="yes"/>
  </way>
  <way id="73611176" version="4" timestamp="2012-08-29T10:48:32Z" uid="22684" user="Mr_Israel" changeset="12903474">
    <nd ref="872435370"/>
    <nd ref="1163339315"/>
    <nd ref="1163339170"/>
    <nd ref="872431518"/>
    <nd ref="1139354947"/>
    <nd ref="1139369467"/>
    <nd ref="872431515"/>
    <nd ref="1163339288"/>
    <nd ref="872429281"/>
    <tag k="highway" v="tertiary"/>
    <tag k="name" v="לילי"/>
    <tag k="name:en" v="Lily"/>
    <tag k="name:he" v="לילי"/>
    <tag k="oneway" v="yes"/>
  </way>
</osm>
