<?xml version='1.0' encoding='UTF-8'?>
<osm version="0.6" generator="libosmium/2.20.0">
  <way id="73701098" version="2" timestamp="2011-02-07T12:00:10Z" uid="4467" user="Rosscoe" changeset="7215161">
    <nd ref="872802072"/>
    <nd ref="872801999"/>
    <nd ref="872802015"/>
    <nd ref="1140747173"/>
    <nd ref="872802002"/>
    <tag k="highway" v="residential"/>
    <tag k="maxspeed" v="50"/>
    <tag k="name" v="Yarra Gum Place"/>
    <tag k="source" v="nearmap"/>
    <tag k="source:maxspeed" v="default residential speed limit in Australia"/>
    <tag k="surface" v="asphalt"/>
  </way>
  <way id="73701100" version="2" timestamp="2011-02-07T12:00:04Z" uid="4467" user="Rosscoe" changeset="7215161">
    <nd ref="872802015"/>
    <nd ref="872802017"/>
    <tag k="highway" v="residential"/>
    <tag k="maxspeed" v="50"/>
    <tag k="source" v="nearmap"/>
    <tag k="source:maxspeed" v="default residential speed limit in Australia"/>
    <tag k="surface" v="asphalt"/>
  </way>
  <way id="73701103" version="2" timestamp="2011-02-07T11:59:28Z" uid="4467" user="Rosscoe" changeset="7215161">
    <nd ref="872801954"/>
    <nd ref="872801955"/>
    <nd ref="872801958"/>
    <nd ref="872801961"/>
    <nd ref="872802114"/>
    <nd ref="872802120"/>
    <nd ref="872802117"/>
    <nd ref="872802123"/>
    <nd ref="872802126"/>
    <nd ref="872802095"/>
    <nd ref="872802138"/>
    <nd ref="872802139"/>
    <nd ref="872802141"/>
    <nd ref="872802144"/>
    <tag k="highway" v="residential"/>
    <tag k="maxspeed" v="50"/>
    <tag k="name" v="Bradby Avenue"/>
    <tag k="source" v="nearmap"/>
    <tag k="source:maxspeed" v="default residential speed limit in Australia"/>
    <tag k="surface" v="asphalt"/>
  </way>
  <way id="73701106" version="2" timestamp="2011-02-07T12:00:03Z" uid="4467" user="Rosscoe" changeset="7215161">
    <nd ref="872802095"/>
    <nd ref="872802105"/>
    <nd ref="872802107"/>
    <nd ref="872802111"/>
    <nd ref="872802092"/>
    <nd ref="872801963"/>
    <nd ref="872801966"/>
    <nd ref="872801979"/>
    <nd ref="872801961"/>
    <tag k="highway" v="residential"/>
    <tag k="name" v="Melvyn Crescent"/>
  </way>
  <way id="73701108" version="2" timestamp="2011-02-07T11:59:56Z" uid="4467" user="Rosscoe" changeset="7215161">
    <nd ref="872801958"/>
    <nd ref="872801986"/>
    <tag k="highway" v="residential"/>
    <tag k="maxspeed" v="50"/>
    <tag k="name" v="Alwyn Court"/>
    <tag k="source" v="nearmap"/>
    <tag k="source:maxspeed" v="default residential speed limit in Australia"/>
    <tag k="surface" v="asphalt"/>
  </way>
  <way id="73701110" version="2" timestamp="2011-02-07T11:59:48Z" uid="4467" user="Rosscoe" changeset="7215161">
    <nd ref="872801955"/>
    <nd ref="872801989"/>
    <tag k="highway" v="residential"/>
    <tag k="maxspeed" v="50"/>
    <tag k="name" v="Pearl Court"/>
    <tag k="source" v="nearmap"/>
    <tag k="source:maxspeed" v="default residential speed limit in Australia"/>
    <tag k="surface" v="asphalt"/>
  </way>
  <way id="73701117" version="2" timestamp="2011-02-07T11:59:47Z" uid="4467" user="Rosscoe" changeset="7215161">
    <nd ref="872802045"/>
    <nd ref="1140747209"/>
    <nd ref="872802018"/>
    <tag k="highway" v="residential"/>
    <tag k="maxspeed" v="50"/>
    <tag k="name" v="Trezise Lane"/>
    <tag k="source" v="nearmap"/>
    <tag k="source:maxspeed" v="default residential speed limit in Australia"/>
    <tag k="surface" v="asphalt"/>
  </way>
  <way id="73701098" version="3" timestamp="2012-07-19T08:03:51Z" uid="722137" user="OSMF Redaction Account" changeset="12313070">
    <nd ref="872802072"/>
    <nd ref="872801999"/>
    <nd ref="872802015"/>
    <nd ref="872802002"/>
    <tag k="highway" v="residential"/>
    <tag k="maxspeed" v="50"/>
    <tag k="name" v="Yarra Gum Place"/>
    <tag k="source" v="nearmap"/>
    <tag k="source:maxspeed" v="default residential speed limit in Australia"/>
    <tag k="surface" v="asphalt"/>
  </way>
  <way id="73701098" version="4" timestamp="2012-07-19T08:14:22Z" uid="722137" user="OSMF Redaction Account" changeset="12313370">
    <nd ref="872802072"/>
    <nd ref="872801999"/>
    <nd ref="872802015"/>
    <nd ref="872802002"/>
    <tag k="highway" v="residential"/>
    <tag k="name" v="Yarra Gum Place"/>
  </way>
  <way id="73701098" version="5" timestamp="2012-08-01T08:31:47Z" uid="379724" user="bugman" changeset="12571175">
    <nd ref="872802072"/>
    <nd ref="872801999"/>
    <nd ref="1846553498"/>
    <nd ref="1846553502"/>
    <nd ref="1846553508"/>
    <nd ref="872802015"/>
    <nd ref="1846553520"/>
    <nd ref="1846553522"/>
    <nd ref="872802002"/>
    <tag k="highway" v="residential"/>
    <tag k="name" v="Yarra Gum Place"/>
  </way>
  <way id="73701100" version="3" timestamp="2012-07-19T08:03:54Z" uid="722137" user="OSMF Redaction Account" changeset="12313070">
    <nd ref="872802015"/>
    <nd ref="872802017"/>
    <tag k="highway" v="residential"/>
  </way>
  <way id="73701103" version="3" timestamp="2012-07-19T08:14:22Z" uid="722137" user="OSMF Redaction Account" changeset="12313370">
    <nd ref="872801954"/>
    <nd ref="872801955"/>
    <nd ref="872801958"/>
    <nd ref="872801961"/>
    <nd ref="872802114"/>
    <nd ref="872802120"/>
    <nd ref="872802117"/>
    <nd ref="872802123"/>
    <nd ref="872802126"/>
    <nd ref="872802095"/>
    <nd ref="872802138"/>
    <nd ref="872802139"/>
    <nd ref="872802141"/>
    <nd ref="872802144"/>
    <tag k="highway" v="residential"/>
    <tag k="name" v="Bradby Avenue"/>
  </way>
  <way id="73701103" version="4" timestamp="2012-08-01T08:21:12Z" uid="379724" user="bugman" changeset="12571069">
    <nd ref="872801954"/>
    <nd ref="872801955"/>
    <nd ref="1846544563"/>
    <nd ref="872801958"/>
    <nd ref="872801961"/>
    <nd ref="872802114"/>
    <nd ref="872802120"/>
    <nd ref="872802117"/>
    <nd ref="872802123"/>
    <nd ref="872802126"/>
    <nd ref="872802095"/>
    <nd ref="1846544545"/>
    <nd ref="872802138"/>
    <nd ref="872802139"/>
    <nd ref="872802141"/>
    <nd ref="872802144"/>
    <tag k="highway" v="residential"/>
    <tag k="name" v="Bradby Avenue"/>
  </way>
  <way id="73701108" version="3" timestamp="2012-07-19T08:14:23Z" uid="722137" user="OSMF Redaction Account" changeset="12313370">
    <nd ref="872801958"/>
    <nd ref="872801986"/>
    <tag k="highway" v="residential"/>
    <tag k="name" v="Alwyn Court"/>
  </way>
  <way id="73701110" version="3" timestamp="2012-07-19T08:14:22Z" uid="722137" user="OSMF Redaction Account" changeset="12313370">
    <nd ref="872801955"/>
    <nd ref="872801989"/>
    <tag k="highway" v="residential"/>
    <tag k="name" v="Pearl Court"/>
  </way>
  <way id="73701117" version="3" timestamp="2012-07-19T08:14:17Z" uid="722137" user="OSMF Redaction Account" changeset="12313370">
    <nd ref="872802045"/>
    <nd ref="872802018"/>
    <tag k="highway" v="residential"/>
    <tag k="name" v="Trezise Lane"/>
  </way>
  <way id="73701117" version="4" timestamp="2012-08-01T08:31:46Z" uid="379724" user="bugman" changeset="12571175">
    <nd ref="872802045"/>
    <nd ref="1846553491"/>
    <nd ref="1846553495"/>
    <nd ref="1846553528"/>
    <nd ref="872802018"/>
    <tag k="highway" v="residential"/>
    <tag k="name" v="Trezise Lane"/>
  </way>
</osm>
