<?xml version='1.0' encoding='UTF-8'?>
<osm version="0.6" generator="libosmium/2.20.0">
  <way id="74183984" version="4" timestamp="2011-04-24T10:02:51Z" uid="34428" user="usm78-gis" changeset="7951149">
    <nd ref="16479916"/>
    <nd ref="16479867"/>
    <nd ref="16479870"/>
    <nd ref="983391637"/>
    <nd ref="16479873"/>
    <nd ref="983391638"/>
    <nd ref="16479876"/>
    <nd ref="1257798267"/>
    <nd ref="16479879"/>
    <nd ref="16479880"/>
    <nd ref="16479881"/>
    <tag k="highway" v="secondary"/>
    <tag k="maxspeed" v="70"/>
    <tag k="name" v="Münchner Straße"/>
    <tag k="ref" v="St 2068"/>
  </way>
  <way id="74183984" version="5" timestamp="2012-07-18T06:06:34Z" uid="722137" user="OSMF Redaction Account" changeset="12274938">
    <nd ref="16479916"/>
    <nd ref="16479867"/>
    <nd ref="16479870"/>
    <nd ref="983391637"/>
    <nd ref="16479873"/>
    <nd ref="983391638"/>
    <nd ref="16479876"/>
    <nd ref="16479879"/>
    <nd ref="16479880"/>
    <nd ref="16479881"/>
    <tag k="highway" v="secondary"/>
    <tag k="maxspeed" v="70"/>
    <tag k="name" v="Münchner Straße"/>
    <tag k="ref" v="St 2068"/>
  </way>
  <way id="74183984" version="6" timestamp="2012-07-27T09:35:17Z" uid="90439" user="twaldecker" changeset="12509009">
    <nd ref="16479916"/>
    <nd ref="1839625882"/>
    <nd ref="16479867"/>
    <nd ref="16479870"/>
    <nd ref="983391637"/>
    <nd ref="16479873"/>
    <nd ref="983391638"/>
    <nd ref="16479876"/>
    <nd ref="16479879"/>
    <nd ref="16479880"/>
    <nd ref="16479881"/>
    <tag k="highway" v="secondary"/>
    <tag k="maxspeed" v="70"/>
    <tag k="name" v="Münchner Straße"/>
    <tag k="ref" v="St 2068"/>
  </way>
</osm>
