<?xml version='1.0' encoding='UTF-8'?>
<osm version="0.6" generator="libosmium/2.20.0">
  <way id="74452068" version="5" timestamp="2011-04-15T10:44:52Z" uid="4467" user="Rosscoe" changeset="7868461">
    <nd ref="879942042"/>
    <nd ref="879942043"/>
    <nd ref="879942044"/>
    <nd ref="879942045"/>
    <nd ref="879942046"/>
    <nd ref="879942047"/>
    <nd ref="879942048"/>
    <nd ref="879942039"/>
    <nd ref="879942038"/>
    <nd ref="666800622"/>
    <nd ref="666800617"/>
    <nd ref="879942036"/>
    <nd ref="879942085"/>
    <nd ref="879942086"/>
    <nd ref="879942087"/>
    <nd ref="879942088"/>
    <nd ref="879942089"/>
    <tag k="foot" v="yes"/>
    <tag k="highway" v="cycleway"/>
    <tag k="source" v="nearmap"/>
  </way>
  <way id="74452814" version="2" timestamp="2011-04-15T10:45:01Z" uid="4467" user="Rosscoe" changeset="7868461">
    <nd ref="879952636"/>
    <nd ref="879952637"/>
    <nd ref="879952638"/>
    <nd ref="879952639"/>
    <nd ref="879952636"/>
    <tag k="building" v="yes"/>
    <tag k="name" v="Deer Park"/>
    <tag k="railway" v="station"/>
    <tag k="source" v="nearmap"/>
  </way>
  <way id="74452814" version="3" timestamp="2012-06-06T02:10:29Z" uid="320632" user="Zulu99" changeset="11811825">
    <nd ref="879952636"/>
    <nd ref="879952637"/>
    <nd ref="879952638"/>
    <nd ref="879952639"/>
    <nd ref="879952636"/>
    <tag k="building" v="train_station"/>
    <tag k="name" v="Deer Park"/>
    <tag k="railway" v="station"/>
    <tag k="source" v="nearmap"/>
  </way>
  <way id="74452814" version="4" timestamp="2012-06-06T09:21:23Z" uid="320632" user="Zulu99" changeset="11813886">
    <nd ref="879952636"/>
    <nd ref="879952637"/>
    <nd ref="879952638"/>
    <nd ref="879952639"/>
    <nd ref="879952636"/>
    <tag k="building" v="train_station"/>
    <tag k="name" v="Deer Park"/>
    <tag k="public_transport" v="station"/>
    <tag k="railway" v="station"/>
    <tag k="source" v="nearmap"/>
  </way>
  <way id="74452814" version="5" timestamp="2012-06-08T03:05:14Z" uid="320632" user="Zulu99" changeset="11831468">
    <nd ref="879952636"/>
    <nd ref="879952637"/>
    <nd ref="879952638"/>
    <nd ref="879952639"/>
    <nd ref="879952636"/>
    <tag k="building" v="train_station"/>
    <tag k="name" v="Deer Park"/>
    <tag k="operator" v="Public Transport Victoria - Metro"/>
    <tag k="public_transport" v="station"/>
    <tag k="railway" v="station"/>
    <tag k="source" v="nearmap"/>
  </way>
  <way id="74452814" version="6" timestamp="2012-06-08T06:11:29Z" uid="320632" user="Zulu99" changeset="11832001">
    <nd ref="879952636"/>
    <nd ref="879952637"/>
    <nd ref="879952638"/>
    <nd ref="879952639"/>
    <nd ref="879952636"/>
    <tag k="building" v="train_station"/>
    <tag k="name" v="Deer Park"/>
    <tag k="operator" v="Public Transport Victoria - Regional"/>
    <tag k="public_transport" v="station"/>
    <tag k="railway" v="station"/>
    <tag k="source" v="nearmap"/>
  </way>
</osm>
