<?xml version='1.0' encoding='UTF-8'?>
<osm version="0.6" generator="libosmium/2.20.0">
  <way id="74663270" version="1" timestamp="2010-08-27T08:11:08Z" uid="33382" user="de_muur" changeset="5605338">
    <nd ref="380887242"/>
    <nd ref="425807530"/>
    <nd ref="425785001"/>
    <tag k="foot" v="yes"/>
    <tag k="highway" v="cycleway"/>
    <tag k="horse" v="no"/>
    <tag k="name" v="Alte Bahntrasse EBO (Radwanderweg)"/>
    <tag k="surface" v="unpaved"/>
  </way>
  <way id="74663270" version="3" timestamp="2010-09-17T21:29:47Z" uid="167616" user="ajeba" changeset="5807570">
    <nd ref="380887242"/>
    <nd ref="425807530"/>
    <nd ref="894433295"/>
    <nd ref="916063080"/>
    <tag k="bicycle" v="yes"/>
    <tag k="foot" v="yes"/>
    <tag k="highway" v="cycleway"/>
    <tag k="horse" v="no"/>
    <tag k="name" v="Alte Bahntrasse EBO (Radwanderweg)"/>
    <tag k="rcn_ref" v="SR6"/>
    <tag k="surface" v="unpaved"/>
    <tag k="width" v="5"/>
  </way>
  <way id="74663270" version="4" timestamp="2011-10-30T20:03:50Z" uid="423438" user="streele" changeset="9697625">
    <nd ref="380887242"/>
    <nd ref="425807530"/>
    <nd ref="894433295"/>
    <nd ref="916063080"/>
    <tag k="bicycle" v="designated"/>
    <tag k="foot" v="designated"/>
    <tag k="highway" v="cycleway"/>
    <tag k="horse" v="no"/>
    <tag k="name" v="Alte Bahntrasse EBO (Radwanderweg)"/>
    <tag k="rcn_ref" v="SR6"/>
    <tag k="surface" v="unpaved"/>
    <tag k="width" v="5"/>
  </way>
  <way id="74663270" version="5" timestamp="2012-03-13T15:41:06Z" uid="63375" user="Divjo" changeset="10968102"/>
  <way id="74663271" version="1" timestamp="2010-08-27T08:11:08Z" uid="33382" user="de_muur" changeset="5605338">
    <nd ref="32660911"/>
    <nd ref="32660910"/>
    <tag k="highway" v="tertiary"/>
    <tag k="maxspeed" v="50"/>
    <tag k="name" v="Sülfelder Brücke"/>
    <tag k="ref" v="K 103"/>
    <tag k="surface" v="paved"/>
  </way>
  <way id="74663725" version="1" timestamp="2010-08-27T08:22:42Z" uid="33382" user="de_muur" changeset="5605411">
    <nd ref="281077610"/>
    <nd ref="715717316"/>
    <tag k="highway" v="tertiary"/>
    <tag k="name" v="Klingenbrook"/>
    <tag k="ref" v="K 103"/>
    <tag k="surface" v="paved"/>
  </way>
  <way id="74663271" version="2" timestamp="2012-04-17T09:59:24Z" uid="63107" user="brogo" changeset="11330871"/>
  <way id="74663725" version="2" timestamp="2012-04-17T09:59:21Z" uid="63107" user="brogo" changeset="11330871"/>
</osm>
