<?xml version='1.0' encoding='UTF-8'?>
<osm version="0.6" generator="libosmium/2.20.0">
  <way id="7532033" version="2" timestamp="2008-04-30T10:36:26Z" uid="8619" user="cetest" changeset="290668">
    <nd ref="44427456"/>
    <nd ref="44441696"/>
    <nd ref="44448272"/>
    <nd ref="44447782"/>
    <tag k="AND_nosr_r" v="15085099"/>
    <tag k="highway" v="cycleway"/>
  </way>
  <way id="7532033" version="3" timestamp="2010-06-26T11:21:43Z" uid="203114" user="Jeroen Muris" changeset="5080233">
    <nd ref="44427456"/>
    <nd ref="44441696"/>
    <nd ref="44448272"/>
    <tag k="AND_nosr_r" v="15085099"/>
    <tag k="highway" v="cycleway"/>
  </way>
  <way id="7532065" version="2" timestamp="2008-04-30T10:36:41Z" uid="8619" user="cetest" changeset="290668">
    <nd ref="44417487"/>
    <nd ref="44420512"/>
    <nd ref="44421486"/>
    <nd ref="44427456"/>
    <tag k="AND_nosr_r" v="15085069"/>
    <tag k="highway" v="cycleway"/>
  </way>
  <way id="7532065" version="3" timestamp="2010-01-16T15:01:17Z" uid="161542" user="textlijn" changeset="3632286">
    <nd ref="44417487"/>
    <nd ref="44420512"/>
    <nd ref="44421486"/>
    <nd ref="614678619"/>
    <nd ref="44427456"/>
    <tag k="AND_nosr_r" v="15085069"/>
    <tag k="highway" v="cycleway"/>
  </way>
  <way id="7532065" version="4" timestamp="2010-03-24T22:22:28Z" uid="203114" user="Jeroen Muris" changeset="4225350"/>
  <way id="7532084" version="2" timestamp="2008-04-30T10:36:32Z" uid="8619" user="cetest" changeset="290668">
    <nd ref="44432143"/>
    <nd ref="44438248"/>
    <nd ref="44444089"/>
    <nd ref="44448823"/>
    <tag k="AND_nosr_r" v="15085051"/>
    <tag k="highway" v="cycleway"/>
  </way>
  <way id="7532084" version="3" timestamp="2008-08-14T19:10:19Z" uid="8619" user="cetest" changeset="246355">
    <nd ref="44432143"/>
    <nd ref="44438248"/>
    <nd ref="44444089"/>
    <nd ref="287968869"/>
    <nd ref="44448823"/>
    <tag k="AND_nosr_r" v="15085051"/>
    <tag k="highway" v="cycleway"/>
  </way>
  <way id="7532084" version="4" timestamp="2010-01-16T15:01:15Z" uid="161542" user="textlijn" changeset="3632286">
    <nd ref="44432143"/>
    <nd ref="287968869"/>
    <nd ref="44448823"/>
    <tag k="AND_nosr_r" v="15085051"/>
    <tag k="highway" v="cycleway"/>
  </way>
  <way id="7532084" version="5" timestamp="2010-06-19T21:45:37Z" uid="161542" user="textlijn" changeset="5027584">
    <nd ref="44432143"/>
    <nd ref="287968869"/>
    <nd ref="287968940"/>
    <nd ref="287968856"/>
    <nd ref="287968857"/>
    <nd ref="287968858"/>
    <nd ref="673557821"/>
    <nd ref="287968860"/>
    <nd ref="287968861"/>
    <nd ref="287968862"/>
    <nd ref="639955709"/>
    <tag k="AND_nosr_r" v="15085051"/>
    <tag k="highway" v="cycleway"/>
  </way>
  <way id="7532084" version="6" timestamp="2010-06-26T11:22:13Z" uid="203114" user="Jeroen Muris" changeset="5080233">
    <nd ref="44432143"/>
    <nd ref="287968869"/>
    <nd ref="791025710"/>
    <nd ref="791025758"/>
    <nd ref="287968940"/>
    <nd ref="287968856"/>
    <nd ref="287968857"/>
    <nd ref="287968858"/>
    <nd ref="673557821"/>
    <nd ref="287968860"/>
    <nd ref="287968861"/>
    <nd ref="287968862"/>
    <nd ref="639955709"/>
    <tag k="AND_nosr_r" v="15085051"/>
    <tag k="highway" v="cycleway"/>
  </way>
  <way id="7532084" version="7" timestamp="2010-06-29T18:51:46Z" uid="8619" user="cetest" changeset="5108148">
    <nd ref="44432143"/>
    <nd ref="287968869"/>
    <nd ref="791025710"/>
    <nd ref="791025758"/>
    <nd ref="287968940"/>
    <nd ref="287968856"/>
    <nd ref="287968857"/>
    <nd ref="287968858"/>
    <nd ref="673557821"/>
    <tag k="AND_nosr_r" v="15085051"/>
    <tag k="highway" v="cycleway"/>
  </way>
  <way id="7532084" version="8" timestamp="2011-09-15T23:53:47Z" uid="191979" user="It&apos;s so funny" changeset="9312639">
    <nd ref="44432143"/>
    <nd ref="287968869"/>
    <nd ref="791025710"/>
    <nd ref="791025758"/>
    <nd ref="287968940"/>
    <nd ref="1433961972"/>
    <nd ref="287968856"/>
    <nd ref="287968857"/>
    <nd ref="287968858"/>
    <nd ref="673557821"/>
    <tag k="AND_nosr_r" v="15085051"/>
    <tag k="highway" v="cycleway"/>
  </way>
  <way id="7532089" version="2" timestamp="2008-04-30T10:36:45Z" uid="8619" user="cetest" changeset="290668">
    <nd ref="44416522"/>
    <nd ref="44425247"/>
    <nd ref="44432143"/>
    <tag k="AND_nosr_r" v="15085047"/>
    <tag k="highway" v="cycleway"/>
  </way>
  <way id="7532089" version="3" timestamp="2010-03-24T22:21:54Z" uid="203114" user="Jeroen Muris" changeset="4225350">
    <nd ref="44416522"/>
    <nd ref="673767449"/>
    <nd ref="44425247"/>
    <nd ref="44432143"/>
    <tag k="AND_nosr_r" v="15085047"/>
    <tag k="highway" v="cycleway"/>
  </way>
  <way id="7532089" version="4" timestamp="2010-07-04T13:17:01Z" uid="203114" user="Jeroen Muris" changeset="5132798">
    <nd ref="44416522"/>
    <nd ref="673767449"/>
    <nd ref="44425247"/>
    <nd ref="44432143"/>
    <tag k="highway" v="cycleway"/>
  </way>
  <way id="7532248" version="2" timestamp="2008-04-30T10:36:27Z" uid="8619" user="cetest" changeset="290668">
    <nd ref="44431661"/>
    <nd ref="44440652"/>
    <tag k="AND:importance_level" v="4"/>
    <tag k="AND_nosr_r" v="15084911"/>
    <tag k="highway" v="secondary"/>
    <tag k="name" v="Matlingeweg"/>
  </way>
  <way id="7532248" version="3" timestamp="2009-12-07T19:21:28Z" uid="161542" user="textlijn" changeset="3318612"/>
  <way id="7532249" version="2" timestamp="2008-04-30T10:36:44Z" uid="8619" user="cetest" changeset="290668">
    <nd ref="44421488"/>
    <nd ref="44418686"/>
    <tag k="AND:importance_level" v="2"/>
    <tag k="AND_nosr_r" v="15084910"/>
    <tag k="highway" v="secondary"/>
    <tag k="name" v="Matlingeweg"/>
    <tag k="oneway" v="1"/>
  </way>
  <way id="7532249" version="3" timestamp="2010-01-09T17:41:46Z" uid="161542" user="textlijn" changeset="3579962"/>
  <way id="7532250" version="2" timestamp="2008-04-30T10:36:37Z" uid="8619" user="cetest" changeset="290668">
    <nd ref="44416044"/>
    <nd ref="260739548"/>
    <nd ref="260739547"/>
    <nd ref="44421992"/>
    <tag k="AND:importance_level" v="2"/>
    <tag k="AND_nosr_r" v="15084909"/>
    <tag k="highway" v="secondary"/>
    <tag k="name" v="Matlingeweg"/>
    <tag k="oneway" v="1"/>
  </way>
  <way id="7532250" version="3" timestamp="2010-01-16T15:03:11Z" uid="161542" user="textlijn" changeset="3632286"/>
  <way id="7532251" version="2" timestamp="2008-04-30T10:36:42Z" uid="8619" user="cetest" changeset="290668">
    <nd ref="44421992"/>
    <nd ref="44421488"/>
    <tag k="AND:importance_level" v="2"/>
    <tag k="AND_nosr_r" v="15084908"/>
    <tag k="highway" v="secondary"/>
    <tag k="name" v="Matlingeweg"/>
    <tag k="oneway" v="1"/>
  </way>
  <way id="7532251" version="3" timestamp="2010-01-09T17:41:43Z" uid="161542" user="textlijn" changeset="3579962">
    <nd ref="44421992"/>
    <nd ref="44421488"/>
    <nd ref="610452844"/>
    <nd ref="44415484"/>
    <tag k="highway" v="secondary"/>
    <tag k="name" v="Matlingeweg"/>
    <tag k="oneway" v="yes"/>
  </way>
  <way id="7532251" version="4" timestamp="2010-01-09T20:36:39Z" uid="161542" user="textlijn" changeset="3581678">
    <nd ref="44421992"/>
    <nd ref="44421488"/>
    <nd ref="610526750"/>
    <nd ref="44415484"/>
    <tag k="highway" v="secondary"/>
    <tag k="name" v="Matlingeweg"/>
    <tag k="oneway" v="yes"/>
  </way>
  <way id="7532251" version="5" timestamp="2010-01-16T15:03:16Z" uid="161542" user="textlijn" changeset="3632286"/>
  <way id="7532252" version="2" timestamp="2008-04-30T10:36:38Z" uid="8619" user="cetest" changeset="290668">
    <nd ref="44427967"/>
    <nd ref="44431661"/>
    <tag k="AND:importance_level" v="4"/>
    <tag k="AND_nosr_r" v="15084907"/>
    <tag k="highway" v="secondary"/>
    <tag k="name" v="Matlingeweg"/>
  </way>
  <way id="7532252" version="3" timestamp="2009-12-07T19:21:28Z" uid="161542" user="textlijn" changeset="3318612"/>
  <way id="7532253" version="4" timestamp="2008-04-30T10:36:44Z" uid="8619" user="cetest" changeset="290668">
    <nd ref="44415484"/>
    <nd ref="44412311"/>
    <tag k="AND:importance_level" v="2"/>
    <tag k="AND_nosr_r" v="15084906"/>
    <tag k="highway" v="secondary"/>
    <tag k="name" v="Matlingeweg"/>
    <tag k="oneway" v="1"/>
  </way>
  <way id="7532253" version="5" timestamp="2010-02-12T15:16:03Z" uid="204153" user="mfvl" changeset="3857367">
    <nd ref="44415484"/>
    <nd ref="44412311"/>
    <tag k="AND:importance_level" v="2"/>
    <tag k="AND_nosr_r" v="15084906"/>
    <tag k="highway" v="secondary"/>
    <tag k="name" v="Matlingeweg"/>
    <tag k="oneway" v="yes"/>
  </way>
  <way id="7532253" version="6" timestamp="2010-07-04T13:17:18Z" uid="203114" user="Jeroen Muris" changeset="5132798">
    <nd ref="44415484"/>
    <nd ref="44412311"/>
    <tag k="AND:importance_level" v="2"/>
    <tag k="AND_nosr_r" v="15084906"/>
    <tag k="bicycle" v="no"/>
    <tag k="highway" v="secondary"/>
    <tag k="name" v="Matlingeweg"/>
    <tag k="oneway" v="yes"/>
  </way>
  <way id="7532253" version="7" timestamp="2011-02-07T17:23:20Z" uid="12564" user="alexanderpas" changeset="7218313">
    <nd ref="44415484"/>
    <nd ref="44412311"/>
    <tag k="AND:importance_level" v="2"/>
    <tag k="AND_nosr_r" v="15084906"/>
    <tag k="bicycle" v="no"/>
    <tag k="highway" v="secondary"/>
    <tag k="maxspeed" v="50"/>
    <tag k="name" v="Matlingeweg"/>
    <tag k="oneway" v="yes"/>
  </way>
  <way id="7532253" version="8" timestamp="2011-09-15T23:55:10Z" uid="191979" user="It&apos;s so funny" changeset="9312639"/>
  <way id="7532254" version="2" timestamp="2008-04-30T10:36:39Z" uid="8619" user="cetest" changeset="290668">
    <nd ref="44415484"/>
    <nd ref="44416044"/>
    <tag k="AND:importance_level" v="2"/>
    <tag k="AND_nosr_r" v="15084905"/>
    <tag k="highway" v="secondary"/>
  </way>
  <way id="7532254" version="3" timestamp="2010-01-09T20:36:43Z" uid="161542" user="textlijn" changeset="3581679"/>
  <way id="7532255" version="2" timestamp="2008-04-30T10:36:43Z" uid="8619" user="cetest" changeset="290668">
    <nd ref="44421992"/>
    <nd ref="44426875"/>
    <nd ref="44427967"/>
    <tag k="AND:importance_level" v="4"/>
    <tag k="AND_nosr_r" v="15084904"/>
    <tag k="highway" v="secondary"/>
    <tag k="name" v="Matlingeweg"/>
  </way>
  <way id="7532255" version="3" timestamp="2009-12-07T19:21:13Z" uid="161542" user="textlijn" changeset="3318612">
    <nd ref="44421992"/>
    <nd ref="44426875"/>
    <nd ref="44427967"/>
    <nd ref="44431661"/>
    <nd ref="44440652"/>
    <tag k="highway" v="secondary"/>
    <tag k="name" v="Matlingeweg"/>
    <tag k="oneway" v="no"/>
  </way>
  <way id="7532255" version="4" timestamp="2010-01-16T15:03:11Z" uid="161542" user="textlijn" changeset="3632286"/>
  <way id="7532256" version="2" timestamp="2008-04-30T10:36:40Z" uid="8619" user="cetest" changeset="290668">
    <nd ref="44418686"/>
    <nd ref="44415484"/>
    <tag k="AND:importance_level" v="2"/>
    <tag k="AND_nosr_r" v="15084903"/>
    <tag k="highway" v="secondary"/>
    <tag k="name" v="Matlingeweg"/>
    <tag k="oneway" v="1"/>
  </way>
  <way id="7532256" version="3" timestamp="2010-01-09T17:41:46Z" uid="161542" user="textlijn" changeset="3579962"/>
  <way id="7532257" version="4" timestamp="2008-04-30T10:36:39Z" uid="8619" user="cetest" changeset="290668">
    <nd ref="44413417"/>
    <nd ref="44416044"/>
    <tag k="AND:importance_level" v="2"/>
    <tag k="AND_nosr_r" v="15084902"/>
    <tag k="highway" v="secondary"/>
    <tag k="name" v="Matlingeweg"/>
    <tag k="oneway" v="1"/>
  </way>
  <way id="7532257" version="5" timestamp="2010-02-12T15:16:02Z" uid="204153" user="mfvl" changeset="3857367">
    <nd ref="44413417"/>
    <nd ref="44416044"/>
    <tag k="AND:importance_level" v="2"/>
    <tag k="AND_nosr_r" v="15084902"/>
    <tag k="highway" v="secondary"/>
    <tag k="name" v="Matlingeweg"/>
    <tag k="oneway" v="yes"/>
  </way>
  <way id="7532257" version="6" timestamp="2010-07-04T13:16:45Z" uid="203114" user="Jeroen Muris" changeset="5132798">
    <nd ref="44413417"/>
    <nd ref="44416044"/>
    <tag k="AND:importance_level" v="2"/>
    <tag k="AND_nosr_r" v="15084902"/>
    <tag k="bicycle" v="no"/>
    <tag k="highway" v="secondary"/>
    <tag k="name" v="Matlingeweg"/>
    <tag k="oneway" v="yes"/>
  </way>
  <way id="7532257" version="7" timestamp="2011-02-07T17:23:21Z" uid="12564" user="alexanderpas" changeset="7218313">
    <nd ref="44413417"/>
    <nd ref="44416044"/>
    <tag k="AND:importance_level" v="2"/>
    <tag k="AND_nosr_r" v="15084902"/>
    <tag k="bicycle" v="no"/>
    <tag k="highway" v="secondary"/>
    <tag k="maxspeed" v="50"/>
    <tag k="name" v="Matlingeweg"/>
    <tag k="oneway" v="yes"/>
  </way>
  <way id="7532257" version="8" timestamp="2011-09-15T23:55:10Z" uid="191979" user="It&apos;s so funny" changeset="9312639"/>
  <way id="7532279" version="2" timestamp="2008-08-14T19:10:29Z" uid="8619" user="cetest" changeset="246355"/>
  <way id="7532280" version="2" timestamp="2008-08-14T19:10:29Z" uid="8619" user="cetest" changeset="246355"/>
  <way id="7532289" version="2" timestamp="2007-11-25T20:46:55Z" uid="8619" user="cetest" changeset="618336">
    <nd ref="44483987"/>
    <nd ref="44483989"/>
    <nd ref="44484565"/>
    <nd ref="44486776"/>
    <nd ref="44488984"/>
    <nd ref="133031727"/>
    <nd ref="44488985"/>
    <tag k="AND_nosr_r" v="15084877"/>
    <tag k="highway" v="unclassified"/>
    <tag k="name" v="Overschieseweg"/>
  </way>
  <way id="7532289" version="3" timestamp="2010-02-15T16:48:55Z" uid="203114" user="Jeroen Muris" changeset="3884738">
    <nd ref="44483987"/>
    <nd ref="639955720"/>
    <nd ref="44483989"/>
    <nd ref="44484565"/>
    <nd ref="44486776"/>
    <nd ref="44488984"/>
    <nd ref="133031727"/>
    <nd ref="44488985"/>
    <tag k="AND_nosr_r" v="15084877"/>
    <tag k="highway" v="unclassified"/>
    <tag k="name" v="Overschieseweg"/>
  </way>
  <way id="7532289" version="4" timestamp="2010-03-24T22:42:09Z" uid="203114" user="Jeroen Muris" changeset="4225516">
    <nd ref="44483987"/>
    <nd ref="639955720"/>
    <nd ref="44483989"/>
    <nd ref="44484565"/>
    <nd ref="44486291"/>
    <nd ref="673775370"/>
    <nd ref="44488984"/>
    <nd ref="133031727"/>
    <nd ref="44488985"/>
    <tag k="AND_nosr_r" v="15084877"/>
    <tag k="highway" v="unclassified"/>
    <tag k="name" v="Overschieseweg"/>
  </way>
  <way id="7532289" version="5" timestamp="2011-11-18T20:12:01Z" uid="203114" user="Jeroen Muris" changeset="9867313">
    <nd ref="1507736047"/>
    <nd ref="639955720"/>
    <nd ref="1507736050"/>
    <nd ref="1507736056"/>
    <nd ref="1507736057"/>
    <nd ref="44486291"/>
    <nd ref="673775370"/>
    <nd ref="44488984"/>
    <nd ref="1507736058"/>
    <nd ref="44488985"/>
    <tag k="AND_nosr_r" v="15084877"/>
    <tag k="highway" v="unclassified"/>
    <tag k="name" v="Overschieseweg"/>
  </way>
  <way id="7532314" version="2" timestamp="2008-08-14T19:14:26Z" uid="8619" user="cetest" changeset="246355">
    <nd ref="44470760"/>
    <nd ref="44472473"/>
    <tag k="AND_nosr_r" v="15084856"/>
    <tag k="highway" v="cycleway"/>
  </way>
  <way id="7532314" version="3" timestamp="2010-03-24T19:00:47Z" uid="203114" user="Jeroen Muris" changeset="4223592">
    <nd ref="44470760"/>
    <nd ref="44472473"/>
    <nd ref="673549824"/>
    <tag k="AND_nosr_r" v="15084856"/>
    <tag k="highway" v="cycleway"/>
  </way>
  <way id="7532335" version="2" timestamp="2008-08-14T19:14:21Z" uid="8619" user="cetest" changeset="246355">
    <nd ref="44456211"/>
    <nd ref="44460101"/>
    <tag k="AND_nosr_r" v="15084839"/>
    <tag k="highway" v="cycleway"/>
    <tag k="name" v="Delfshavenseweg"/>
  </way>
  <way id="7532338" version="2" timestamp="2008-08-14T19:14:22Z" uid="8619" user="cetest" changeset="246355">
    <nd ref="44460101"/>
    <nd ref="44461178"/>
    <tag k="AND_nosr_r" v="15084836"/>
    <tag k="highway" v="cycleway"/>
  </way>
  <way id="7532338" version="3" timestamp="2010-03-24T19:00:45Z" uid="203114" user="Jeroen Muris" changeset="4223592">
    <nd ref="44460101"/>
    <nd ref="44461178"/>
    <tag k="highway" v="footway"/>
  </way>
  <way id="7532347" version="2" timestamp="2008-08-14T19:10:27Z" uid="8619" user="cetest" changeset="246355">
    <nd ref="44460097"/>
    <nd ref="287968910"/>
    <nd ref="44461167"/>
    <tag k="AND_nosr_r" v="15084829"/>
    <tag k="highway" v="unclassified"/>
    <tag k="name" v="Groothandelsmarkt"/>
  </way>
  <way id="7532347" version="3" timestamp="2011-09-16T23:19:16Z" uid="191979" user="It&apos;s so funny" changeset="9320454">
    <nd ref="1435029199"/>
    <nd ref="287968910"/>
    <nd ref="44461167"/>
    <tag k="AND_nosr_r" v="15084829"/>
    <tag k="highway" v="unclassified"/>
    <tag k="name" v="Groothandelsmarkt"/>
  </way>
  <way id="7532350" version="2" timestamp="2008-08-14T19:10:28Z" uid="8619" user="cetest" changeset="246355">
    <nd ref="44461167"/>
    <nd ref="44460095"/>
    <nd ref="287968850"/>
    <nd ref="44462234"/>
    <tag k="AND_nosr_r" v="15084826"/>
    <tag k="highway" v="unclassified"/>
    <tag k="name" v="Groothandelsmarkt"/>
  </way>
  <way id="7532357" version="2" timestamp="2008-08-14T19:10:18Z" uid="8619" user="cetest" changeset="246355">
    <nd ref="44472473"/>
    <nd ref="287968901"/>
    <nd ref="44473117"/>
    <tag k="AND_nosr_r" v="15084820"/>
    <tag k="highway" v="unclassified"/>
    <tag k="name" v="Blijvenburgstraat"/>
  </way>
  <way id="7532357" version="3" timestamp="2010-03-24T19:00:48Z" uid="203114" user="Jeroen Muris" changeset="4223592"/>
  <way id="7532374" version="2" timestamp="2008-08-14T19:14:20Z" uid="8619" user="cetest" changeset="246355">
    <nd ref="44460101"/>
    <nd ref="44462745"/>
    <nd ref="44470760"/>
    <tag k="AND_nosr_r" v="15084807"/>
    <tag k="highway" v="cycleway"/>
    <tag k="name" v="Delfshavenseweg"/>
  </way>
  <way id="7532374" version="3" timestamp="2010-03-24T19:00:45Z" uid="203114" user="Jeroen Muris" changeset="4223592">
    <nd ref="44460101"/>
    <nd ref="44462745"/>
    <nd ref="673549823"/>
    <nd ref="44470760"/>
    <tag k="AND_nosr_r" v="15084807"/>
    <tag k="highway" v="cycleway"/>
    <tag k="name" v="Delfshavenseweg"/>
  </way>
  <way id="7532377" version="4" timestamp="2008-08-14T19:14:21Z" uid="8619" user="cetest" changeset="246355">
    <nd ref="44470760"/>
    <nd ref="44473110"/>
    <tag k="AND_nosr_r" v="15084805"/>
    <tag k="highway" v="cycleway"/>
    <tag k="name" v="Delfshavenseweg"/>
  </way>
  <way id="7532377" version="5" timestamp="2010-02-15T16:48:58Z" uid="203114" user="Jeroen Muris" changeset="3884738">
    <nd ref="44470760"/>
    <nd ref="639955747"/>
    <nd ref="639955732"/>
    <nd ref="44483993"/>
    <tag k="highway" v="cycleway"/>
    <tag k="name" v="Delfshavenseweg"/>
  </way>
  <way id="7532377" version="6" timestamp="2010-03-24T19:00:47Z" uid="203114" user="Jeroen Muris" changeset="4223592">
    <nd ref="44470760"/>
    <nd ref="639955747"/>
    <nd ref="673549805"/>
    <nd ref="639955732"/>
    <nd ref="44483993"/>
    <tag k="highway" v="cycleway"/>
    <tag k="name" v="Delfshavenseweg"/>
  </way>
  <way id="7532402" version="2" timestamp="2008-08-14T19:14:23Z" uid="8619" user="cetest" changeset="246355">
    <nd ref="44473110"/>
    <nd ref="44483993"/>
    <nd ref="44489581"/>
    <nd ref="44491143"/>
    <tag k="AND_nosr_r" v="15084782"/>
    <tag k="highway" v="cycleway"/>
    <tag k="name" v="Delfshavenseweg"/>
  </way>
  <way id="7532402" version="3" timestamp="2010-02-15T16:49:02Z" uid="203114" user="Jeroen Muris" changeset="3884738"/>
  <way id="7532423" version="2" timestamp="2008-08-14T19:14:25Z" uid="8619" user="cetest" changeset="246355">
    <nd ref="44456211"/>
    <nd ref="44457834"/>
    <tag k="AND_nosr_r" v="15084763"/>
    <tag k="highway" v="cycleway"/>
  </way>
  <way id="7532473" version="2" timestamp="2008-08-14T19:10:30Z" uid="8619" user="cetest" changeset="246355"/>
  <way id="7532474" version="2" timestamp="2008-08-14T19:10:31Z" uid="8619" user="cetest" changeset="246355"/>
  <way id="7532499" version="2" timestamp="2008-08-14T19:10:27Z" uid="8619" user="cetest" changeset="246355">
    <nd ref="44453383"/>
    <nd ref="287968875"/>
    <nd ref="44456775"/>
    <tag k="AND:importance_level" v="5"/>
    <tag k="AND_nosr_r" v="15084696"/>
    <tag k="highway" v="tertiary"/>
    <tag k="name" v="Industrieweg"/>
  </way>
  <way id="7532499" version="3" timestamp="2010-06-19T21:18:37Z" uid="161542" user="textlijn" changeset="5027584"/>
  <way id="7532503" version="2" timestamp="2008-08-14T19:10:16Z" uid="8619" user="cetest" changeset="246355">
    <nd ref="44458303"/>
    <nd ref="287968879"/>
    <nd ref="44461730"/>
    <tag k="AND:importance_level" v="5"/>
    <tag k="AND_nosr_r" v="15084693"/>
    <tag k="highway" v="tertiary"/>
    <tag k="name" v="Industrieweg"/>
  </way>
  <way id="7532503" version="3" timestamp="2010-06-26T11:21:42Z" uid="203114" user="Jeroen Muris" changeset="5080233">
    <nd ref="44458303"/>
    <nd ref="791025831"/>
    <nd ref="44461730"/>
    <tag k="AND:importance_level" v="5"/>
    <tag k="AND_nosr_r" v="15084693"/>
    <tag k="highway" v="tertiary"/>
    <tag k="name" v="Industrieweg"/>
  </way>
  <way id="7532503" version="4" timestamp="2011-09-15T23:55:08Z" uid="191979" user="It&apos;s so funny" changeset="9312639"/>
  <way id="7532511" version="2" timestamp="2008-08-14T19:10:31Z" uid="8619" user="cetest" changeset="246355"/>
  <way id="7532514" version="2" timestamp="2008-08-14T19:10:23Z" uid="8619" user="cetest" changeset="246355">
    <nd ref="44462236"/>
    <nd ref="44464536"/>
    <nd ref="287968811"/>
    <nd ref="44465832"/>
    <tag k="AND:importance_level" v="4"/>
    <tag k="AND_nosr_r" v="15084684"/>
    <tag k="highway" v="tertiary"/>
    <tag k="name" v="Vlaardingweg"/>
    <tag k="oneway" v="1"/>
  </way>
  <way id="7532514" version="3" timestamp="2010-02-12T15:16:06Z" uid="204153" user="mfvl" changeset="3857367">
    <nd ref="44462236"/>
    <nd ref="44464536"/>
    <nd ref="287968811"/>
    <nd ref="44465832"/>
    <tag k="AND:importance_level" v="4"/>
    <tag k="AND_nosr_r" v="15084684"/>
    <tag k="highway" v="tertiary"/>
    <tag k="name" v="Vlaardingweg"/>
    <tag k="oneway" v="yes"/>
  </way>
  <way id="7532514" version="4" timestamp="2010-03-24T19:00:47Z" uid="203114" user="Jeroen Muris" changeset="4223592">
    <nd ref="44462236"/>
    <nd ref="44464536"/>
    <nd ref="673549801"/>
    <nd ref="44465832"/>
    <tag k="AND:importance_level" v="4"/>
    <tag k="AND_nosr_r" v="15084684"/>
    <tag k="highway" v="tertiary"/>
    <tag k="name" v="Vlaardingweg"/>
    <tag k="oneway" v="yes"/>
  </way>
  <way id="7532514" version="5" timestamp="2011-09-16T23:21:44Z" uid="191979" user="It&apos;s so funny" changeset="9320454"/>
  <way id="7532516" version="2" timestamp="2008-08-14T19:10:19Z" uid="8619" user="cetest" changeset="246355">
    <nd ref="44465832"/>
    <nd ref="44466485"/>
    <nd ref="287968810"/>
    <nd ref="44463826"/>
    <tag k="AND:importance_level" v="4"/>
    <tag k="AND_nosr_r" v="15084682"/>
    <tag k="highway" v="tertiary"/>
    <tag k="name" v="Vlaardingweg"/>
    <tag k="oneway" v="1"/>
  </way>
  <way id="7532516" version="3" timestamp="2010-02-12T15:16:06Z" uid="204153" user="mfvl" changeset="3857367">
    <nd ref="44465832"/>
    <nd ref="44466485"/>
    <nd ref="287968810"/>
    <nd ref="44463826"/>
    <tag k="AND:importance_level" v="4"/>
    <tag k="AND_nosr_r" v="15084682"/>
    <tag k="highway" v="tertiary"/>
    <tag k="name" v="Vlaardingweg"/>
    <tag k="oneway" v="yes"/>
  </way>
  <way id="7532516" version="4" timestamp="2010-03-24T19:00:47Z" uid="203114" user="Jeroen Muris" changeset="4223592">
    <nd ref="44465832"/>
    <nd ref="673549799"/>
    <nd ref="287968810"/>
    <nd ref="44463826"/>
    <tag k="AND:importance_level" v="4"/>
    <tag k="AND_nosr_r" v="15084682"/>
    <tag k="highway" v="tertiary"/>
    <tag k="name" v="Vlaardingweg"/>
    <tag k="oneway" v="yes"/>
  </way>
  <way id="7532516" version="5" timestamp="2011-09-16T23:21:45Z" uid="191979" user="It&apos;s so funny" changeset="9320454"/>
  <way id="7532519" version="2" timestamp="2008-08-14T19:10:25Z" uid="8619" user="cetest" changeset="246355">
    <nd ref="44461731"/>
    <nd ref="44460097"/>
    <tag k="AND:importance_level" v="4"/>
    <tag k="AND_nosr_r" v="15084680"/>
    <tag k="highway" v="tertiary"/>
    <tag k="name" v="Vlaardingweg"/>
    <tag k="oneway" v="1"/>
  </way>
  <way id="7532519" version="3" timestamp="2010-02-12T15:15:57Z" uid="204153" user="mfvl" changeset="3857367">
    <nd ref="44461731"/>
    <nd ref="44460097"/>
    <tag k="AND:importance_level" v="4"/>
    <tag k="AND_nosr_r" v="15084680"/>
    <tag k="highway" v="tertiary"/>
    <tag k="name" v="Vlaardingweg"/>
    <tag k="oneway" v="yes"/>
  </way>
  <way id="7532519" version="4" timestamp="2011-09-16T23:21:45Z" uid="191979" user="It&apos;s so funny" changeset="9320454"/>
  <way id="7532537" version="2" timestamp="2011-06-19T08:03:26Z" uid="8619" user="cetest" changeset="8480906">
    <nd ref="44507553"/>
    <nd ref="1330455011"/>
    <nd ref="44510080"/>
    <tag k="AND_nosr_r" v="15084664"/>
    <tag k="highway" v="unclassified"/>
    <tag k="name" v="Bombaystraat"/>
  </way>
  <way id="7532539" version="2" timestamp="2008-04-30T10:36:30Z" uid="8619" user="cetest" changeset="290668">
    <nd ref="44448820"/>
    <nd ref="44447785"/>
    <nd ref="44440652"/>
    <tag k="AND:importance_level" v="4"/>
    <tag k="AND_nosr_r" v="15084663"/>
    <tag k="highway" v="secondary"/>
    <tag k="name" v="Matlingeweg"/>
    <tag k="oneway" v="1"/>
  </way>
  <way id="7532539" version="3" timestamp="2010-01-16T15:01:51Z" uid="161542" user="textlijn" changeset="3632286">
    <nd ref="44448820"/>
    <nd ref="614678496"/>
    <nd ref="614678773"/>
    <nd ref="614678775"/>
    <nd ref="614678777"/>
    <nd ref="44421488"/>
    <nd ref="610526750"/>
    <nd ref="44415484"/>
    <tag k="AND:importance_level" v="4"/>
    <tag k="AND_nosr_r" v="15084663"/>
    <tag k="highway" v="secondary"/>
    <tag k="name" v="Matlingeweg"/>
    <tag k="oneway" v="1; yes"/>
  </way>
  <way id="7532539" version="4" timestamp="2010-01-16T15:06:43Z" uid="161542" user="textlijn" changeset="3632338">
    <nd ref="44448820"/>
    <nd ref="614678496"/>
    <nd ref="614678773"/>
    <nd ref="614678775"/>
    <nd ref="614678777"/>
    <nd ref="44421488"/>
    <nd ref="610526750"/>
    <nd ref="44415484"/>
    <tag k="highway" v="secondary"/>
    <tag k="name" v="Matlingeweg"/>
    <tag k="oneway" v="yes"/>
  </way>
  <way id="7532539" version="5" timestamp="2010-03-24T22:21:59Z" uid="203114" user="Jeroen Muris" changeset="4225350">
    <nd ref="44448820"/>
    <nd ref="614678496"/>
    <nd ref="614678773"/>
    <nd ref="614678775"/>
    <nd ref="614678777"/>
    <nd ref="673767453"/>
    <nd ref="44421488"/>
    <nd ref="610526750"/>
    <nd ref="44415484"/>
    <tag k="bicycle" v="no"/>
    <tag k="highway" v="secondary"/>
    <tag k="name" v="Matlingeweg"/>
    <tag k="oneway" v="yes"/>
  </way>
  <way id="7532539" version="6" timestamp="2010-06-26T11:21:45Z" uid="203114" user="Jeroen Muris" changeset="5080233">
    <nd ref="44448820"/>
    <nd ref="791025532"/>
    <nd ref="614678496"/>
    <nd ref="614678773"/>
    <nd ref="614678775"/>
    <nd ref="614678777"/>
    <nd ref="673767453"/>
    <nd ref="44421488"/>
    <nd ref="610526750"/>
    <nd ref="44415484"/>
    <tag k="bicycle" v="no"/>
    <tag k="highway" v="secondary"/>
    <tag k="name" v="Matlingeweg"/>
    <tag k="oneway" v="yes"/>
  </way>
  <way id="7532539" version="7" timestamp="2010-12-10T01:14:49Z" uid="161542" user="textlijn" changeset="6601449">
    <nd ref="44448820"/>
    <nd ref="791025532"/>
    <nd ref="1030275094"/>
    <nd ref="1030275305"/>
    <nd ref="614678496"/>
    <nd ref="614678773"/>
    <nd ref="614678775"/>
    <nd ref="614678777"/>
    <nd ref="673767453"/>
    <nd ref="44421488"/>
    <nd ref="610526750"/>
    <nd ref="44415484"/>
    <tag k="bicycle" v="no"/>
    <tag k="highway" v="secondary"/>
    <tag k="name" v="Matlingeweg"/>
    <tag k="oneway" v="yes"/>
  </way>
  <way id="7532539" version="8" timestamp="2011-02-07T17:23:21Z" uid="12564" user="alexanderpas" changeset="7218313">
    <nd ref="44448820"/>
    <nd ref="791025532"/>
    <nd ref="1030275094"/>
    <nd ref="1030275305"/>
    <nd ref="614678496"/>
    <nd ref="614678773"/>
    <nd ref="614678775"/>
    <nd ref="614678777"/>
    <nd ref="673767453"/>
    <nd ref="44421488"/>
    <nd ref="610526750"/>
    <nd ref="44415484"/>
    <tag k="bicycle" v="no"/>
    <tag k="highway" v="secondary"/>
    <tag k="maxspeed" v="50"/>
    <tag k="name" v="Matlingeweg"/>
    <tag k="oneway" v="yes"/>
  </way>
  <way id="7532539" version="9" timestamp="2011-08-18T20:20:57Z" uid="385787" user="Tourepel" changeset="9060309">
    <nd ref="44448820"/>
    <nd ref="791025532"/>
    <nd ref="1030275094"/>
    <nd ref="1030275305"/>
    <nd ref="614678496"/>
    <nd ref="614678773"/>
    <nd ref="614678775"/>
    <nd ref="614678777"/>
    <nd ref="673767453"/>
    <nd ref="1403932146"/>
    <nd ref="610526750"/>
    <nd ref="44415484"/>
    <tag k="bicycle" v="no"/>
    <tag k="highway" v="secondary"/>
    <tag k="maxspeed" v="50"/>
    <tag k="name" v="Matlingeweg"/>
    <tag k="oneway" v="yes"/>
  </way>
  <way id="7532539" version="10" timestamp="2011-09-15T23:55:11Z" uid="191979" user="It&apos;s so funny" changeset="9312639"/>
  <way id="7532541" version="2" timestamp="2008-04-30T10:36:33Z" uid="8619" user="cetest" changeset="290668">
    <nd ref="44440652"/>
    <nd ref="44448821"/>
    <tag k="AND:importance_level" v="4"/>
    <tag k="AND_nosr_r" v="15084662"/>
    <tag k="highway" v="secondary"/>
    <tag k="name" v="Matlingeweg"/>
    <tag k="oneway" v="1"/>
  </way>
  <way id="7532541" version="3" timestamp="2010-01-16T15:03:11Z" uid="161542" user="textlijn" changeset="3632286"/>
  <way id="7532550" version="2" timestamp="2008-04-30T10:36:31Z" uid="8619" user="cetest" changeset="290668">
    <nd ref="44444714"/>
    <nd ref="44445682"/>
    <nd ref="44447782"/>
    <tag k="AND_nosr_r" v="15084655"/>
    <tag k="highway" v="cycleway"/>
  </way>
  <way id="7532550" version="3" timestamp="2010-03-24T19:19:52Z" uid="203114" user="Jeroen Muris" changeset="4223768">
    <nd ref="44444714"/>
    <nd ref="673570594"/>
    <nd ref="44445682"/>
    <nd ref="44447782"/>
    <tag k="AND_nosr_r" v="15084655"/>
    <tag k="highway" v="cycleway"/>
  </way>
  <way id="7532550" version="4" timestamp="2010-06-26T11:22:00Z" uid="203114" user="Jeroen Muris" changeset="5080233">
    <nd ref="44444714"/>
    <nd ref="673570594"/>
    <nd ref="791025633"/>
    <nd ref="44445682"/>
    <nd ref="44447782"/>
    <tag k="AND_nosr_r" v="15084655"/>
    <tag k="highway" v="cycleway"/>
  </way>
  <way id="7532552" version="2" timestamp="2008-08-14T19:10:22Z" uid="8619" user="cetest" changeset="246355">
    <nd ref="44462234"/>
    <nd ref="44462742"/>
    <tag k="AND_nosr_r" v="15084653"/>
    <tag k="highway" v="unclassified"/>
    <tag k="name" v="Groothandelsmarkt"/>
  </way>
  <way id="7532555" version="2" timestamp="2008-05-25T10:23:32Z" uid="8619" user="cetest" changeset="515841">
    <nd ref="44501040"/>
    <nd ref="44502196"/>
    <tag k="AND_nosr_r" v="15084650"/>
    <tag k="highway" v="unclassified"/>
    <tag k="name" v="Sevillaweg"/>
    <tag k="oneway" v="true"/>
  </way>
  <way id="7532555" version="3" timestamp="2010-01-16T15:01:30Z" uid="161542" user="textlijn" changeset="3632286">
    <nd ref="44501294"/>
    <nd ref="44501040"/>
    <nd ref="44502196"/>
    <tag k="highway" v="unclassified"/>
    <tag k="name" v="Sevillaweg"/>
    <tag k="oneway" v="yes"/>
  </way>
  <way id="7532555" version="4" timestamp="2010-12-10T01:13:14Z" uid="161542" user="textlijn" changeset="6601449">
    <nd ref="44501294"/>
    <nd ref="44501040"/>
    <nd ref="1030275298"/>
    <nd ref="44502196"/>
    <tag k="highway" v="unclassified"/>
    <tag k="name" v="Sevillaweg"/>
    <tag k="oneway" v="yes"/>
  </way>
  <way id="7532555" version="5" timestamp="2011-09-15T23:53:38Z" uid="191979" user="It&apos;s so funny" changeset="9312639">
    <nd ref="1433962008"/>
    <nd ref="44501040"/>
    <nd ref="1030275298"/>
    <nd ref="44502196"/>
    <tag k="highway" v="unclassified"/>
    <tag k="name" v="Sevillaweg"/>
    <tag k="oneway" v="yes"/>
  </way>
  <way id="7532566" version="2" timestamp="2008-05-25T10:23:33Z" uid="8619" user="cetest" changeset="515841">
    <nd ref="44503616"/>
    <nd ref="266756615"/>
    <nd ref="266756608"/>
    <nd ref="44513032"/>
    <tag k="AND_nosr_r" v="15084641"/>
    <tag k="highway" v="unclassified"/>
    <tag k="name" v="Sheffieldstraat"/>
  </way>
  <way id="7532568" version="2" timestamp="2008-05-25T10:23:31Z" uid="8619" user="cetest" changeset="515841">
    <nd ref="44502196"/>
    <nd ref="44503616"/>
    <tag k="AND_nosr_r" v="15084639"/>
    <tag k="highway" v="unclassified"/>
    <tag k="name" v="Sevillaweg"/>
    <tag k="oneway" v="true"/>
  </way>
  <way id="7532568" version="3" timestamp="2010-02-12T15:16:00Z" uid="204153" user="mfvl" changeset="3857367">
    <nd ref="44502196"/>
    <nd ref="44503616"/>
    <tag k="AND_nosr_r" v="15084639"/>
    <tag k="highway" v="unclassified"/>
    <tag k="name" v="Sevillaweg"/>
    <tag k="oneway" v="yes"/>
  </way>
  <way id="7532570" version="2" timestamp="2008-05-25T10:23:29Z" uid="8619" user="cetest" changeset="515841">
    <nd ref="44503616"/>
    <nd ref="44504054"/>
    <nd ref="44504518"/>
    <tag k="AND_nosr_r" v="15084638"/>
    <tag k="highway" v="unclassified"/>
    <tag k="name" v="Sevillaweg"/>
    <tag k="oneway" v="true"/>
  </way>
  <way id="7532570" version="3" timestamp="2010-02-12T15:16:01Z" uid="204153" user="mfvl" changeset="3857367">
    <nd ref="44503616"/>
    <nd ref="44504054"/>
    <nd ref="44504518"/>
    <tag k="AND_nosr_r" v="15084638"/>
    <tag k="highway" v="unclassified"/>
    <tag k="name" v="Sevillaweg"/>
    <tag k="oneway" v="yes"/>
  </way>
  <way id="7532570" version="4" timestamp="2010-12-10T01:14:21Z" uid="161542" user="textlijn" changeset="6601449">
    <nd ref="44503616"/>
    <nd ref="1030275404"/>
    <nd ref="1030275004"/>
    <nd ref="1030275206"/>
    <nd ref="44504054"/>
    <nd ref="44504518"/>
    <tag k="AND_nosr_r" v="15084638"/>
    <tag k="highway" v="unclassified"/>
    <tag k="name" v="Sevillaweg"/>
    <tag k="oneway" v="yes"/>
  </way>
  <way id="7532578" version="2" timestamp="2008-11-27T20:10:18Z" uid="8619" user="cetest" changeset="800740">
    <nd ref="44479207"/>
    <nd ref="315108688"/>
    <nd ref="44480310"/>
    <nd ref="44480841"/>
    <nd ref="44482329"/>
    <nd ref="44483143"/>
    <tag k="AND_nosr_r" v="15084631"/>
    <tag k="highway" v="unclassified"/>
    <tag k="name" v="Polderweg"/>
  </way>
  <way id="7532578" version="3" timestamp="2011-11-19T17:08:09Z" uid="203114" user="Jeroen Muris" changeset="9874970"/>
  <way id="7532581" version="2" timestamp="2008-02-28T07:30:20Z" uid="8619" user="cetest" changeset="221646">
    <nd ref="44486282"/>
    <nd ref="44487384"/>
    <nd ref="44487896"/>
    <tag k="AND_nosr_r" v="15084629"/>
    <tag k="highway" v="cycleway"/>
    <tag k="name" v="Schiekade"/>
  </way>
  <way id="7532581" version="3" timestamp="2010-03-24T20:39:34Z" uid="203114" user="Jeroen Muris" changeset="4224524">
    <nd ref="44487899"/>
    <nd ref="673661598"/>
    <nd ref="44486284"/>
    <nd ref="44486282"/>
    <nd ref="44487384"/>
    <nd ref="44487896"/>
    <tag k="highway" v="cycleway"/>
    <tag k="name" v="Schiekade"/>
  </way>
  <way id="7532581" version="4" timestamp="2011-11-19T17:08:10Z" uid="203114" user="Jeroen Muris" changeset="9874970"/>
  <way id="7532583" version="2" timestamp="2007-11-25T20:46:56Z" uid="8619" user="cetest" changeset="618336">
    <nd ref="44486273"/>
    <nd ref="44487895"/>
    <nd ref="44487896"/>
    <tag k="AND_nosr_r" v="15084628"/>
    <tag k="highway" v="cycleway"/>
    <tag k="name" v="Schiekade"/>
  </way>
  <way id="7532583" version="3" timestamp="2008-02-28T07:30:20Z" uid="8619" user="cetest" changeset="221646">
    <nd ref="44486273"/>
    <nd ref="44487895"/>
    <nd ref="44487896"/>
    <tag k="AND_nosr_r" v="15084628"/>
    <tag k="highway" v="cycleway"/>
    <tag k="name" v="Schiekade"/>
  </way>
  <way id="7532583" version="4" timestamp="2010-03-24T20:39:34Z" uid="203114" user="Jeroen Muris" changeset="4224524">
    <nd ref="44486273"/>
    <nd ref="44487895"/>
    <nd ref="673661593"/>
    <nd ref="44487896"/>
    <tag k="AND_nosr_r" v="15084628"/>
    <tag k="highway" v="cycleway"/>
    <tag k="name" v="Schiekade"/>
  </way>
  <way id="7532583" version="5" timestamp="2011-11-19T17:08:10Z" uid="203114" user="Jeroen Muris" changeset="9874970"/>
  <way id="7532584" version="2" timestamp="2007-11-25T20:36:36Z" uid="8619" user="cetest" changeset="618336">
    <nd ref="44510083"/>
    <nd ref="44509893"/>
    <tag k="AND_nosr_r" v="15084627"/>
    <tag k="highway" v="unclassified"/>
    <tag k="name" v="Sydneystraat"/>
    <tag k="oneway" v="1"/>
  </way>
  <way id="7532584" version="3" timestamp="2010-01-16T15:03:15Z" uid="161542" user="textlijn" changeset="3632286"/>
  <way id="7532585" version="2" timestamp="2008-05-25T10:23:24Z" uid="8619" user="cetest" changeset="515841">
    <nd ref="44504954"/>
    <nd ref="266756602"/>
    <nd ref="44510083"/>
    <tag k="AND_nosr_r" v="15084626"/>
    <tag k="highway" v="unclassified"/>
    <tag k="name" v="Pittsburghstraat"/>
  </way>
  <way id="7532586" version="2" timestamp="2008-05-25T10:23:22Z" uid="8619" user="cetest" changeset="515841">
    <nd ref="44508319"/>
    <nd ref="44509483"/>
    <nd ref="266756602"/>
    <nd ref="266756603"/>
    <nd ref="266756605"/>
    <tag k="AND_nosr_r" v="15084625"/>
    <tag k="highway" v="unclassified"/>
    <tag k="name" v="Sydneystraat"/>
    <tag k="oneway" v="1"/>
  </way>
  <way id="7532586" version="3" timestamp="2010-01-16T15:01:32Z" uid="161542" user="textlijn" changeset="3632286">
    <nd ref="44508319"/>
    <nd ref="44509483"/>
    <nd ref="266756602"/>
    <nd ref="266756603"/>
    <tag k="highway" v="unclassified"/>
    <tag k="name" v="Sydneystraat"/>
    <tag k="oneway" v="yes"/>
  </way>
  <way id="7532586" version="4" timestamp="2010-12-10T01:13:12Z" uid="161542" user="textlijn" changeset="6601449">
    <nd ref="44508319"/>
    <nd ref="266756602"/>
    <nd ref="1030275237"/>
    <nd ref="266756603"/>
    <tag k="highway" v="unclassified"/>
    <tag k="name" v="Sydneystraat"/>
    <tag k="oneway" v="yes"/>
  </way>
  <way id="7532586" version="5" timestamp="2011-09-15T23:53:40Z" uid="191979" user="It&apos;s so funny" changeset="9312639">
    <nd ref="44508319"/>
    <nd ref="266756602"/>
    <nd ref="1030275237"/>
    <nd ref="1433962011"/>
    <tag k="highway" v="unclassified"/>
    <tag k="name" v="Sydneystraat"/>
    <tag k="oneway" v="yes"/>
  </way>
  <way id="7532590" version="2" timestamp="2007-11-25T20:36:37Z" uid="8619" user="cetest" changeset="618336">
    <nd ref="44509893"/>
    <nd ref="44508736"/>
    <tag k="AND_nosr_r" v="15084623"/>
    <tag k="highway" v="unclassified"/>
    <tag k="name" v="Sydneystraat"/>
    <tag k="oneway" v="1"/>
  </way>
  <way id="7532590" version="3" timestamp="2010-01-16T15:03:14Z" uid="161542" user="textlijn" changeset="3632286"/>
  <way id="7532595" version="2" timestamp="2007-11-25T20:36:37Z" uid="8619" user="cetest" changeset="618336"/>
  <way id="7532597" version="2" timestamp="2008-02-28T07:30:19Z" uid="8619" user="cetest" changeset="221646">
    <nd ref="44492686"/>
    <nd ref="44496923"/>
    <tag k="AND_nosr_r" v="15084617"/>
    <tag k="highway" v="cycleway"/>
  </way>
  <way id="7532597" version="3" timestamp="2011-11-18T20:12:09Z" uid="203114" user="Jeroen Muris" changeset="9867313">
    <nd ref="1507736068"/>
    <nd ref="44496923"/>
    <tag k="AND_nosr_r" v="15084617"/>
    <tag k="highway" v="cycleway"/>
  </way>
  <way id="7532597" version="4" timestamp="2012-03-28T11:44:33Z" uid="203114" user="Jeroen Muris" changeset="11126102"/>
  <way id="7532604" version="2" timestamp="2008-05-25T10:23:09Z" uid="8619" user="cetest" changeset="515841">
    <nd ref="44504518"/>
    <nd ref="266756615"/>
    <nd ref="266756614"/>
    <nd ref="266756613"/>
    <nd ref="266756612"/>
    <tag k="AND_nosr_r" v="15084610"/>
    <tag k="highway" v="unclassified"/>
    <tag k="name" v="Sevillaweg"/>
    <tag k="oneway" v="1"/>
  </way>
  <way id="7532604" version="3" timestamp="2010-01-16T15:01:25Z" uid="161542" user="textlijn" changeset="3632286">
    <nd ref="44504518"/>
    <nd ref="266756615"/>
    <nd ref="266756614"/>
    <nd ref="266756613"/>
    <nd ref="266756612"/>
    <tag k="highway" v="unclassified"/>
    <tag k="name" v="Sevillaweg"/>
    <tag k="oneway" v="yes"/>
  </way>
  <way id="7532604" version="4" timestamp="2010-12-10T01:15:12Z" uid="161542" user="textlijn" changeset="6601449">
    <nd ref="44504518"/>
    <nd ref="266756615"/>
    <nd ref="266756614"/>
    <nd ref="1030275192"/>
    <nd ref="266756613"/>
    <nd ref="266756612"/>
    <tag k="highway" v="unclassified"/>
    <tag k="name" v="Sevillaweg"/>
    <tag k="oneway" v="yes"/>
  </way>
  <way id="7532604" version="5" timestamp="2011-09-15T23:53:39Z" uid="191979" user="It&apos;s so funny" changeset="9312639">
    <nd ref="44504518"/>
    <nd ref="266756615"/>
    <nd ref="266756614"/>
    <nd ref="1030275192"/>
    <nd ref="266756613"/>
    <nd ref="1433962010"/>
    <tag k="highway" v="unclassified"/>
    <tag k="name" v="Sevillaweg"/>
    <tag k="oneway" v="yes"/>
  </way>
  <way id="7532613" version="2" timestamp="2008-11-27T20:10:19Z" uid="8619" user="cetest" changeset="800740">
    <nd ref="44477498"/>
    <nd ref="44478188"/>
    <nd ref="44478715"/>
    <nd ref="315108690"/>
    <nd ref="44479207"/>
    <tag k="AND_nosr_r" v="15084602"/>
    <tag k="highway" v="unclassified"/>
    <tag k="name" v="Polderweg"/>
  </way>
  <way id="7532613" version="3" timestamp="2011-11-19T17:08:10Z" uid="203114" user="Jeroen Muris" changeset="9874970"/>
  <way id="7532620" version="2" timestamp="2008-08-14T19:10:13Z" uid="8619" user="cetest" changeset="246355">
    <nd ref="44461730"/>
    <nd ref="44462234"/>
    <tag k="AND_nosr_r" v="15084595"/>
    <tag k="highway" v="unclassified"/>
  </way>
  <way id="7532628" version="2" timestamp="2007-10-24T18:51:05Z" uid="8619" user="cetest" changeset="305320">
    <nd ref="44496923"/>
    <nd ref="44501040"/>
    <tag k="AND_nosr_r" v="15084588"/>
    <tag k="highway" v="cycleway"/>
  </way>
  <way id="7532639" version="2" timestamp="2008-05-25T10:23:26Z" uid="8619" user="cetest" changeset="515841">
    <nd ref="44513032"/>
    <nd ref="44511512"/>
    <tag k="AND_nosr_r" v="15084579"/>
    <tag k="highway" v="unclassified"/>
    <tag k="name" v="Lyonstraat"/>
    <tag k="oneway" v="true"/>
  </way>
  <way id="7532639" version="3" timestamp="2010-02-12T15:16:00Z" uid="204153" user="mfvl" changeset="3857367">
    <nd ref="44513032"/>
    <nd ref="44511512"/>
    <tag k="AND_nosr_r" v="15084579"/>
    <tag k="highway" v="unclassified"/>
    <tag k="name" v="Lyonstraat"/>
    <tag k="oneway" v="yes"/>
  </way>
  <way id="7532648" version="2" timestamp="2008-05-25T10:23:19Z" uid="8619" user="cetest" changeset="515841">
    <nd ref="44500336"/>
    <nd ref="266756610"/>
    <nd ref="44504954"/>
    <tag k="AND_nosr_r" v="15084571"/>
    <tag k="highway" v="unclassified"/>
    <tag k="name" v="Pittsburghstraat"/>
  </way>
  <way id="7532652" version="2" timestamp="2008-08-14T19:10:12Z" uid="8619" user="cetest" changeset="246355">
    <nd ref="44455660"/>
    <nd ref="44457323"/>
    <tag k="AND_nosr_r" v="15084567"/>
    <tag k="highway" v="unclassified"/>
  </way>
  <way id="7532652" version="3" timestamp="2011-09-16T23:19:48Z" uid="191979" user="It&apos;s so funny" changeset="9320454">
    <nd ref="1435029187"/>
    <nd ref="1435029192"/>
    <tag k="AND_nosr_r" v="15084567"/>
    <tag k="highway" v="unclassified"/>
  </way>
  <way id="7532654" version="2" timestamp="2008-08-14T19:10:20Z" uid="8619" user="cetest" changeset="246355">
    <nd ref="44456772"/>
    <nd ref="287968856"/>
    <nd ref="44457322"/>
    <tag k="AND:importance_level" v="5"/>
    <tag k="AND_nosr_r" v="15084565"/>
    <tag k="highway" v="unclassified"/>
    <tag k="name" v="Amstelstraat"/>
  </way>
  <way id="7532654" version="3" timestamp="2011-09-15T23:52:57Z" uid="191979" user="It&apos;s so funny" changeset="9312639">
    <nd ref="1433961975"/>
    <nd ref="287968856"/>
    <nd ref="44457322"/>
    <tag k="AND:importance_level" v="5"/>
    <tag k="AND_nosr_r" v="15084565"/>
    <tag k="highway" v="unclassified"/>
    <tag k="name" v="Amstelstraat"/>
  </way>
  <way id="7532662" version="2" timestamp="2008-05-25T10:23:34Z" uid="8619" user="cetest" changeset="515841"/>
  <way id="7532665" version="2" timestamp="2007-11-25T20:36:36Z" uid="8619" user="cetest" changeset="618336">
    <nd ref="44507877"/>
    <nd ref="44506203"/>
    <tag k="AND_nosr_r" v="15084557"/>
    <tag k="highway" v="unclassified"/>
    <tag k="name" v="Sydneystraat"/>
    <tag k="oneway" v="1"/>
  </way>
  <way id="7532682" version="2" timestamp="2008-05-25T10:23:00Z" uid="8619" user="cetest" changeset="515841">
    <nd ref="44502196"/>
    <nd ref="266756614"/>
    <nd ref="266756607"/>
    <nd ref="44511512"/>
    <tag k="AND_nosr_r" v="15084543"/>
    <tag k="highway" v="unclassified"/>
    <tag k="name" v="Stuttgartstraat"/>
  </way>
  <way id="7532683" version="2" timestamp="2008-05-25T10:23:23Z" uid="8619" user="cetest" changeset="515841">
    <nd ref="44511512"/>
    <nd ref="44511088"/>
    <tag k="AND_nosr_r" v="15084542"/>
    <tag k="highway" v="unclassified"/>
    <tag k="name" v="Lyonstraat"/>
    <tag k="oneway" v="true"/>
  </way>
  <way id="7532683" version="3" timestamp="2010-01-16T15:01:31Z" uid="161542" user="textlijn" changeset="3632286">
    <nd ref="44511512"/>
    <nd ref="44511088"/>
    <nd ref="44510880"/>
    <nd ref="44510596"/>
    <tag k="highway" v="unclassified"/>
    <tag k="name" v="Lyonstraat"/>
    <tag k="oneway" v="yes"/>
  </way>
  <way id="7532683" version="4" timestamp="2010-12-10T01:15:00Z" uid="161542" user="textlijn" changeset="6601449">
    <nd ref="44511512"/>
    <nd ref="1030275173"/>
    <nd ref="44511088"/>
    <nd ref="44510880"/>
    <nd ref="44510596"/>
    <tag k="highway" v="unclassified"/>
    <tag k="name" v="Lyonstraat"/>
    <tag k="oneway" v="yes"/>
  </way>
  <way id="7532683" version="5" timestamp="2011-09-15T23:53:15Z" uid="191979" user="It&apos;s so funny" changeset="9312639">
    <nd ref="44511512"/>
    <nd ref="1030275173"/>
    <nd ref="44511088"/>
    <nd ref="1433962014"/>
    <nd ref="1433962013"/>
    <tag k="highway" v="unclassified"/>
    <tag k="name" v="Lyonstraat"/>
    <tag k="oneway" v="yes"/>
  </way>
  <way id="7532684" version="2" timestamp="2007-10-24T18:51:09Z" uid="8619" user="cetest" changeset="305320">
    <nd ref="44501040"/>
    <nd ref="44504517"/>
    <nd ref="44506007"/>
    <nd ref="44509026"/>
    <nd ref="44509599"/>
    <nd ref="44511088"/>
    <tag k="AND_nosr_r" v="15084541"/>
    <tag k="highway" v="cycleway"/>
  </way>
  <way id="7532684" version="3" timestamp="2008-05-25T10:23:17Z" uid="8619" user="cetest" changeset="515841">
    <nd ref="44501040"/>
    <nd ref="266756613"/>
    <nd ref="44504517"/>
    <nd ref="44506007"/>
    <nd ref="44509026"/>
    <nd ref="44509599"/>
    <nd ref="266756606"/>
    <nd ref="44511088"/>
    <tag k="AND_nosr_r" v="15084541"/>
    <tag k="highway" v="cycleway"/>
  </way>
  <way id="7532684" version="4" timestamp="2010-01-16T15:01:32Z" uid="161542" user="textlijn" changeset="3632286">
    <nd ref="44501040"/>
    <nd ref="266756613"/>
    <nd ref="614678669"/>
    <nd ref="44504517"/>
    <nd ref="44506007"/>
    <nd ref="44509026"/>
    <nd ref="44509599"/>
    <nd ref="266756606"/>
    <nd ref="44511088"/>
    <tag k="AND_nosr_r" v="15084541"/>
    <tag k="highway" v="cycleway"/>
  </way>
  <way id="7532695" version="3" timestamp="2008-02-28T07:30:19Z" uid="8619" user="cetest" changeset="221646">
    <nd ref="44486282"/>
    <nd ref="44486284"/>
    <tag k="AND_nosr_r" v="15084530"/>
    <tag k="highway" v="cycleway"/>
    <tag k="name" v="Schiekade"/>
  </way>
  <way id="7532695" version="4" timestamp="2010-03-24T20:39:44Z" uid="203114" user="Jeroen Muris" changeset="4224524"/>
  <way id="7532698" version="2" timestamp="2008-02-28T07:30:19Z" uid="8619" user="cetest" changeset="221646">
    <nd ref="44487899"/>
    <nd ref="44492688"/>
    <nd ref="44492686"/>
    <tag k="AND_nosr_r" v="15084527"/>
    <tag k="highway" v="cycleway"/>
    <tag k="name" v="Schiekade"/>
  </way>
  <way id="7532698" version="3" timestamp="2010-03-24T20:39:33Z" uid="203114" user="Jeroen Muris" changeset="4224524">
    <nd ref="44487899"/>
    <nd ref="673661613"/>
    <tag k="highway" v="cycleway"/>
    <tag k="name" v="Schiekade"/>
  </way>
  <way id="7532698" version="4" timestamp="2011-11-19T17:08:10Z" uid="203114" user="Jeroen Muris" changeset="9874970"/>
  <way id="7532705" version="2" timestamp="2008-08-14T19:10:26Z" uid="8619" user="cetest" changeset="246355">
    <nd ref="44451638"/>
    <nd ref="287968851"/>
    <nd ref="44453954"/>
    <tag k="AND_nosr_r" v="15084521"/>
    <tag k="highway" v="unclassified"/>
  </way>
  <way id="7532705" version="3" timestamp="2011-09-16T23:19:53Z" uid="191979" user="It&apos;s so funny" changeset="9320454">
    <nd ref="44451638"/>
    <nd ref="287968851"/>
    <nd ref="1435029184"/>
    <tag k="AND_nosr_r" v="15084521"/>
    <tag k="highway" v="unclassified"/>
  </way>
  <way id="7532711" version="2" timestamp="2008-05-25T10:23:04Z" uid="8619" user="cetest" changeset="515841">
    <nd ref="44511088"/>
    <nd ref="44510880"/>
    <tag k="AND_nosr_r" v="15084515"/>
    <tag k="highway" v="unclassified"/>
    <tag k="name" v="Lyonstraat"/>
    <tag k="oneway" v="true"/>
  </way>
  <way id="7532711" version="3" timestamp="2010-01-16T15:03:14Z" uid="161542" user="textlijn" changeset="3632286"/>
  <way id="7532723" version="2" timestamp="2008-08-14T19:10:14Z" uid="8619" user="cetest" changeset="246355">
    <nd ref="44449381"/>
    <nd ref="287968853"/>
    <nd ref="44451638"/>
    <tag k="AND:importance_level" v="4"/>
    <tag k="AND_nosr_r" v="15084503"/>
    <tag k="highway" v="tertiary"/>
    <tag k="name" v="Vlaardingweg"/>
    <tag k="oneway" v="1"/>
  </way>
  <way id="7532723" version="3" timestamp="2010-02-12T15:15:58Z" uid="204153" user="mfvl" changeset="3857367">
    <nd ref="44449381"/>
    <nd ref="287968853"/>
    <nd ref="44451638"/>
    <tag k="AND:importance_level" v="4"/>
    <tag k="AND_nosr_r" v="15084503"/>
    <tag k="highway" v="tertiary"/>
    <tag k="name" v="Vlaardingweg"/>
    <tag k="oneway" v="yes"/>
  </way>
  <way id="7532723" version="4" timestamp="2010-06-19T21:46:27Z" uid="161542" user="textlijn" changeset="5027584"/>
  <way id="7532728" version="2" timestamp="2008-08-14T19:10:17Z" uid="8619" user="cetest" changeset="246355">
    <nd ref="287968815"/>
    <nd ref="287968848"/>
    <nd ref="287968847"/>
    <nd ref="44457323"/>
    <nd ref="44453954"/>
    <tag k="AND:importance_level" v="4"/>
    <tag k="AND_nosr_r" v="15084498"/>
    <tag k="highway" v="tertiary"/>
    <tag k="name" v="Vlaardingweg"/>
    <tag k="oneway" v="yes"/>
  </way>
  <way id="7532728" version="3" timestamp="2010-06-19T21:16:52Z" uid="161542" user="textlijn" changeset="5027584">
    <nd ref="287968815"/>
    <nd ref="287968847"/>
    <nd ref="44457323"/>
    <nd ref="44453954"/>
    <tag k="AND:importance_level" v="4"/>
    <tag k="AND_nosr_r" v="15084498"/>
    <tag k="highway" v="tertiary"/>
    <tag k="name" v="Vlaardingweg"/>
    <tag k="oneway" v="yes"/>
  </way>
  <way id="7532728" version="4" timestamp="2010-06-19T21:45:36Z" uid="161542" user="textlijn" changeset="5027584">
    <nd ref="287968815"/>
    <nd ref="287968847"/>
    <nd ref="44457323"/>
    <nd ref="44453954"/>
    <nd ref="44450477"/>
    <tag k="AND:importance_level" v="4"/>
    <tag k="AND_nosr_r" v="15084498; 15084494"/>
    <tag k="highway" v="tertiary"/>
    <tag k="name" v="Vlaardingweg"/>
    <tag k="oneway" v="yes"/>
  </way>
  <way id="7532728" version="5" timestamp="2010-06-26T11:21:51Z" uid="203114" user="Jeroen Muris" changeset="5080233">
    <nd ref="287968815"/>
    <nd ref="791025567"/>
    <nd ref="44457323"/>
    <nd ref="44453954"/>
    <nd ref="791025758"/>
    <nd ref="44450477"/>
    <tag k="AND:importance_level" v="4"/>
    <tag k="AND_nosr_r" v="15084498; 15084494"/>
    <tag k="highway" v="tertiary"/>
    <tag k="name" v="Vlaardingweg"/>
    <tag k="oneway" v="yes"/>
  </way>
  <way id="7532728" version="6" timestamp="2011-09-15T23:55:16Z" uid="191979" user="It&apos;s so funny" changeset="9312639"/>
  <way id="7532729" version="2" timestamp="2008-08-14T19:10:23Z" uid="8619" user="cetest" changeset="246355">
    <nd ref="44473108"/>
    <nd ref="287968859"/>
    <nd ref="44473612"/>
    <tag k="AND:importance_level" v="5"/>
    <tag k="AND_nosr_r" v="15084497"/>
    <tag k="highway" v="tertiary"/>
  </way>
  <way id="7532729" version="3" timestamp="2010-03-24T19:13:43Z" uid="203114" user="Jeroen Muris" changeset="4223719">
    <nd ref="673557819"/>
    <nd ref="673557821"/>
    <nd ref="673557823"/>
    <tag k="AND:importance_level" v="5"/>
    <tag k="AND_nosr_r" v="15084497"/>
    <tag k="highway" v="tertiary"/>
    <tag k="name" v="Industrieweg"/>
  </way>
  <way id="7532729" version="4" timestamp="2010-06-29T18:51:48Z" uid="8619" user="cetest" changeset="5108148">
    <nd ref="673557819"/>
    <nd ref="673557821"/>
    <tag k="AND:importance_level" v="5"/>
    <tag k="AND_nosr_r" v="15084497"/>
    <tag k="highway" v="tertiary"/>
    <tag k="name" v="Industrieweg"/>
  </way>
  <way id="7532729" version="5" timestamp="2011-09-26T19:35:36Z" uid="191979" user="It&apos;s so funny" changeset="9405050"/>
  <way id="7532733" version="2" timestamp="2008-08-14T19:10:15Z" uid="8619" user="cetest" changeset="246355">
    <nd ref="44453954"/>
    <nd ref="287968854"/>
    <nd ref="44450477"/>
    <tag k="AND:importance_level" v="4"/>
    <tag k="AND_nosr_r" v="15084494"/>
    <tag k="highway" v="tertiary"/>
    <tag k="name" v="Vlaardingweg"/>
    <tag k="oneway" v="1"/>
  </way>
  <way id="7532733" version="3" timestamp="2010-02-12T15:15:58Z" uid="204153" user="mfvl" changeset="3857367">
    <nd ref="44453954"/>
    <nd ref="287968854"/>
    <nd ref="44450477"/>
    <tag k="AND:importance_level" v="4"/>
    <tag k="AND_nosr_r" v="15084494"/>
    <tag k="highway" v="tertiary"/>
    <tag k="name" v="Vlaardingweg"/>
    <tag k="oneway" v="yes"/>
  </way>
  <way id="7532733" version="4" timestamp="2010-06-19T21:46:27Z" uid="161542" user="textlijn" changeset="5027584"/>
  <way id="7532734" version="2" timestamp="2008-08-14T19:10:15Z" uid="8619" user="cetest" changeset="246355">
    <nd ref="44451638"/>
    <nd ref="44455660"/>
    <tag k="AND:importance_level" v="4"/>
    <tag k="AND_nosr_r" v="15084493"/>
    <tag k="highway" v="tertiary"/>
    <tag k="name" v="Vlaardingweg"/>
    <tag k="oneway" v="1"/>
  </way>
  <way id="7532734" version="3" timestamp="2010-02-12T15:15:57Z" uid="204153" user="mfvl" changeset="3857367">
    <nd ref="44451638"/>
    <nd ref="44455660"/>
    <tag k="AND:importance_level" v="4"/>
    <tag k="AND_nosr_r" v="15084493"/>
    <tag k="highway" v="tertiary"/>
    <tag k="name" v="Vlaardingweg"/>
    <tag k="oneway" v="yes"/>
  </way>
  <way id="7532734" version="4" timestamp="2010-06-19T21:45:35Z" uid="161542" user="textlijn" changeset="5027584">
    <nd ref="44448821"/>
    <nd ref="44449381"/>
    <nd ref="287968853"/>
    <nd ref="44451638"/>
    <nd ref="44455660"/>
    <tag k="AND:importance_level" v="4"/>
    <tag k="AND_nosr_r" v="15084493; 15084503; 15084491; 15084489"/>
    <tag k="highway" v="tertiary"/>
    <tag k="name" v="Vlaardingweg"/>
    <tag k="oneway" v="yes"/>
  </way>
  <way id="7532734" version="5" timestamp="2010-06-26T11:21:50Z" uid="203114" user="Jeroen Muris" changeset="5080233">
    <nd ref="44448821"/>
    <nd ref="791025710"/>
    <nd ref="44449381"/>
    <nd ref="287968853"/>
    <nd ref="44451638"/>
    <nd ref="44455660"/>
    <tag k="AND:importance_level" v="4"/>
    <tag k="AND_nosr_r" v="15084493; 15084503; 15084491; 15084489"/>
    <tag k="highway" v="tertiary"/>
    <tag k="name" v="Vlaardingweg"/>
    <tag k="oneway" v="yes"/>
  </way>
  <way id="7532734" version="6" timestamp="2011-09-16T23:21:44Z" uid="191979" user="It&apos;s so funny" changeset="9320454"/>
  <way id="7532740" version="2" timestamp="2008-04-30T10:36:34Z" uid="8619" user="cetest" changeset="290668">
    <nd ref="44462741"/>
    <nd ref="44461725"/>
    <nd ref="44460091"/>
    <nd ref="44457829"/>
    <nd ref="44456203"/>
    <tag k="AND:importance_level" v="4"/>
    <tag k="AND_nosr_r" v="15084487"/>
    <tag k="highway" v="secondary"/>
    <tag k="name" v="Matlingeweg"/>
    <tag k="oneway" v="1"/>
  </way>
  <way id="7532740" version="3" timestamp="2010-01-16T15:01:51Z" uid="161542" user="textlijn" changeset="3632286">
    <nd ref="614678769"/>
    <nd ref="44461725"/>
    <nd ref="614678770"/>
    <nd ref="44460091"/>
    <nd ref="44457829"/>
    <nd ref="44456203"/>
    <tag k="AND:importance_level" v="4"/>
    <tag k="AND_nosr_r" v="15084487"/>
    <tag k="highway" v="secondary"/>
    <tag k="name" v="Matlingeweg"/>
    <tag k="oneway" v="1"/>
  </way>
  <way id="7532740" version="4" timestamp="2010-02-12T15:15:57Z" uid="204153" user="mfvl" changeset="3857367">
    <nd ref="614678769"/>
    <nd ref="44461725"/>
    <nd ref="614678770"/>
    <nd ref="44460091"/>
    <nd ref="44457829"/>
    <nd ref="44456203"/>
    <tag k="AND:importance_level" v="4"/>
    <tag k="AND_nosr_r" v="15084487"/>
    <tag k="highway" v="secondary"/>
    <tag k="name" v="Matlingeweg"/>
    <tag k="oneway" v="yes"/>
  </way>
  <way id="7532740" version="5" timestamp="2010-03-24T22:21:54Z" uid="203114" user="Jeroen Muris" changeset="4225350">
    <nd ref="614678769"/>
    <nd ref="44461725"/>
    <nd ref="614678770"/>
    <nd ref="44460091"/>
    <nd ref="44457829"/>
    <nd ref="44456203"/>
    <tag k="bicycle" v="no"/>
    <tag k="highway" v="secondary"/>
    <tag k="name" v="Matlingeweg"/>
    <tag k="oneway" v="yes"/>
  </way>
  <way id="7532740" version="6" timestamp="2011-06-17T18:14:45Z" uid="452840" user="mtb-er" changeset="8467078">
    <nd ref="614678769"/>
    <nd ref="44461725"/>
    <nd ref="614678770"/>
    <nd ref="44460091"/>
    <nd ref="44457829"/>
    <nd ref="44456203"/>
    <tag k="bicycle" v="no"/>
    <tag k="highway" v="secondary"/>
    <tag k="name" v="Matlingeweg"/>
    <tag k="oneway" v="yes"/>
  </way>
  <way id="7532740" version="7" timestamp="2011-09-15T23:55:11Z" uid="191979" user="It&apos;s so funny" changeset="9312639"/>
  <way id="7532741" version="2" timestamp="2008-04-30T10:36:35Z" uid="8619" user="cetest" changeset="290668">
    <nd ref="44456772"/>
    <nd ref="44460093"/>
    <nd ref="44462741"/>
    <tag k="AND:importance_level" v="4"/>
    <tag k="AND_nosr_r" v="15084486"/>
    <tag k="highway" v="secondary"/>
    <tag k="name" v="Matlingeweg"/>
    <tag k="oneway" v="1"/>
  </way>
  <way id="7532741" version="3" timestamp="2010-01-16T15:03:12Z" uid="161542" user="textlijn" changeset="3632286"/>
  <way id="7532743" version="2" timestamp="2008-04-30T10:36:29Z" uid="8619" user="cetest" changeset="290668">
    <nd ref="44450477"/>
    <nd ref="44449954"/>
    <tag k="AND:importance_level" v="4"/>
    <tag k="AND_nosr_r" v="15084485"/>
    <tag k="highway" v="secondary"/>
    <tag k="name" v="Vlaardingweg"/>
    <tag k="oneway" v="1"/>
  </way>
  <way id="7532743" version="3" timestamp="2010-02-12T15:15:59Z" uid="204153" user="mfvl" changeset="3857367">
    <nd ref="44450477"/>
    <nd ref="44449954"/>
    <tag k="AND:importance_level" v="4"/>
    <tag k="AND_nosr_r" v="15084485"/>
    <tag k="highway" v="secondary"/>
    <tag k="name" v="Vlaardingweg"/>
    <tag k="oneway" v="yes"/>
  </way>
  <way id="7532743" version="4" timestamp="2011-09-15T23:55:17Z" uid="191979" user="It&apos;s so funny" changeset="9312639"/>
  <way id="7532745" version="2" timestamp="2008-04-30T10:36:47Z" uid="8619" user="cetest" changeset="290668">
    <nd ref="44501294"/>
    <nd ref="44506006"/>
    <tag k="AND:importance_level" v="4"/>
    <tag k="AND_nosr_r" v="15084484"/>
    <tag k="highway" v="secondary"/>
    <tag k="name" v="Matlingeweg"/>
    <tag k="oneway" v="1"/>
  </way>
  <way id="7532745" version="3" timestamp="2008-05-25T10:23:01Z" uid="8619" user="cetest" changeset="515841">
    <nd ref="44501294"/>
    <nd ref="266756612"/>
    <nd ref="44506006"/>
    <tag k="AND:importance_level" v="4"/>
    <tag k="AND_nosr_r" v="15084484"/>
    <tag k="highway" v="secondary"/>
    <tag k="name" v="Matlingeweg"/>
    <tag k="oneway" v="1"/>
  </way>
  <way id="7532745" version="4" timestamp="2010-01-13T18:22:16Z" uid="26230" user="BugBlue" changeset="3611831">
    <nd ref="44501294"/>
    <nd ref="266756612"/>
    <tag k="AND:importance_level" v="4"/>
    <tag k="AND_nosr_r" v="15084484"/>
    <tag k="highway" v="secondary"/>
    <tag k="name" v="Matlingeweg"/>
    <tag k="oneway" v="1"/>
  </way>
  <way id="7532745" version="5" timestamp="2010-01-16T15:03:13Z" uid="161542" user="textlijn" changeset="3632286"/>
  <way id="7532746" version="2" timestamp="2008-04-30T10:36:29Z" uid="8619" user="cetest" changeset="290668">
    <nd ref="44456203"/>
    <nd ref="44452793"/>
    <nd ref="44449954"/>
    <tag k="AND:importance_level" v="4"/>
    <tag k="AND_nosr_r" v="15084483"/>
    <tag k="highway" v="secondary"/>
    <tag k="name" v="Matlingeweg"/>
    <tag k="oneway" v="1"/>
  </way>
  <way id="7532746" version="3" timestamp="2010-02-12T15:15:58Z" uid="204153" user="mfvl" changeset="3857367">
    <nd ref="44456203"/>
    <nd ref="44452793"/>
    <nd ref="44449954"/>
    <tag k="AND:importance_level" v="4"/>
    <tag k="AND_nosr_r" v="15084483"/>
    <tag k="highway" v="secondary"/>
    <tag k="name" v="Matlingeweg"/>
    <tag k="oneway" v="yes"/>
  </way>
  <way id="7532746" version="4" timestamp="2010-03-24T22:22:06Z" uid="203114" user="Jeroen Muris" changeset="4225350">
    <nd ref="44456203"/>
    <nd ref="44452793"/>
    <nd ref="44449954"/>
    <tag k="bicycle" v="no"/>
    <tag k="highway" v="secondary"/>
    <tag k="name" v="Matlingeweg"/>
    <tag k="oneway" v="yes"/>
  </way>
  <way id="7532746" version="5" timestamp="2010-06-26T11:21:43Z" uid="203114" user="Jeroen Muris" changeset="5080233">
    <nd ref="44456203"/>
    <nd ref="44452793"/>
    <nd ref="791025577"/>
    <nd ref="44449954"/>
    <tag k="bicycle" v="no"/>
    <tag k="highway" v="secondary"/>
    <tag k="name" v="Matlingeweg"/>
    <tag k="oneway" v="yes"/>
  </way>
  <way id="7532746" version="6" timestamp="2011-09-15T23:55:11Z" uid="191979" user="It&apos;s so funny" changeset="9312639"/>
  <way id="7532747" version="2" timestamp="2008-04-30T10:36:56Z" uid="8619" user="cetest" changeset="290668">
    <nd ref="44510596"/>
    <nd ref="44505829"/>
    <tag k="AND:importance_level" v="4"/>
    <tag k="AND_nosr_r" v="15084482"/>
    <tag k="highway" v="secondary"/>
    <tag k="name" v="Matlingeweg"/>
    <tag k="oneway" v="1"/>
  </way>
  <way id="7532747" version="3" timestamp="2008-05-25T10:23:23Z" uid="8619" user="cetest" changeset="515841">
    <nd ref="44510596"/>
    <nd ref="266756603"/>
    <nd ref="44505829"/>
    <tag k="AND:importance_level" v="4"/>
    <tag k="AND_nosr_r" v="15084482"/>
    <tag k="highway" v="secondary"/>
    <tag k="name" v="Matlingeweg"/>
    <tag k="oneway" v="1"/>
  </way>
  <way id="7532747" version="4" timestamp="2010-02-12T15:16:00Z" uid="204153" user="mfvl" changeset="3857367">
    <nd ref="44510596"/>
    <nd ref="266756603"/>
    <nd ref="44505829"/>
    <tag k="AND:importance_level" v="4"/>
    <tag k="AND_nosr_r" v="15084482"/>
    <tag k="highway" v="secondary"/>
    <tag k="name" v="Matlingeweg"/>
    <tag k="oneway" v="yes"/>
  </way>
  <way id="7532747" version="5" timestamp="2010-03-24T22:22:28Z" uid="203114" user="Jeroen Muris" changeset="4225350"/>
  <way id="7532748" version="2" timestamp="2008-04-30T10:36:34Z" uid="8619" user="cetest" changeset="290668">
    <nd ref="44448821"/>
    <nd ref="44450477"/>
    <tag k="AND:importance_level" v="4"/>
    <tag k="AND_nosr_r" v="15084481"/>
    <tag k="highway" v="secondary"/>
    <tag k="name" v="Matlingeweg"/>
    <tag k="oneway" v="1"/>
  </way>
  <way id="7532748" version="3" timestamp="2010-01-16T15:03:11Z" uid="161542" user="textlijn" changeset="3632286"/>
  <way id="7532749" version="2" timestamp="2008-04-30T10:36:59Z" uid="8619" user="cetest" changeset="290668">
    <nd ref="44506006"/>
    <nd ref="44507879"/>
    <tag k="AND:importance_level" v="4"/>
    <tag k="AND_nosr_r" v="15084480"/>
    <tag k="highway" v="secondary"/>
    <tag k="name" v="Matlingeweg"/>
    <tag k="oneway" v="1"/>
  </way>
  <way id="7532749" version="3" timestamp="2010-01-16T15:03:13Z" uid="161542" user="textlijn" changeset="3632286"/>
  <way id="7532751" version="2" timestamp="2008-04-30T10:36:28Z" uid="8619" user="cetest" changeset="290668">
    <nd ref="44462741"/>
    <nd ref="44473612"/>
    <tag k="AND:importance_level" v="4"/>
    <tag k="AND_nosr_r" v="15084478"/>
    <tag k="highway" v="secondary"/>
    <tag k="name" v="Matlingeweg"/>
  </way>
  <way id="7532751" version="3" timestamp="2009-12-07T19:21:13Z" uid="161542" user="textlijn" changeset="3318612">
    <nd ref="44462741"/>
    <nd ref="44473612"/>
    <tag k="AND_nosr_r" v="15084478"/>
    <tag k="highway" v="secondary"/>
    <tag k="name" v="Matlingeweg"/>
    <tag k="oneway" v="no"/>
  </way>
  <way id="7532751" version="4" timestamp="2010-01-16T15:03:12Z" uid="161542" user="textlijn" changeset="3632286"/>
  <way id="7532752" version="2" timestamp="2008-04-30T10:36:48Z" uid="8619" user="cetest" changeset="290668">
    <nd ref="44501039"/>
    <nd ref="44493433"/>
    <nd ref="44492685"/>
    <tag k="AND:importance_level" v="4"/>
    <tag k="AND_nosr_r" v="15084477"/>
    <tag k="highway" v="secondary"/>
    <tag k="name" v="Matlingeweg"/>
    <tag k="oneway" v="1"/>
  </way>
  <way id="7532752" version="3" timestamp="2010-01-16T15:01:54Z" uid="161542" user="textlijn" changeset="3632286">
    <nd ref="44501039"/>
    <nd ref="44493433"/>
    <nd ref="614678781"/>
    <nd ref="614678782"/>
    <nd ref="614678783"/>
    <nd ref="614678786"/>
    <tag k="AND:importance_level" v="4"/>
    <tag k="AND_nosr_r" v="15084477"/>
    <tag k="highway" v="secondary"/>
    <tag k="name" v="Matlingeweg"/>
    <tag k="oneway" v="1"/>
  </way>
  <way id="7532752" version="4" timestamp="2010-01-16T19:37:00Z" uid="161542" user="textlijn" changeset="3634866">
    <nd ref="44501039"/>
    <nd ref="614915013"/>
    <nd ref="614915015"/>
    <nd ref="44493433"/>
    <nd ref="614678781"/>
    <nd ref="614678782"/>
    <nd ref="614678783"/>
    <nd ref="614678786"/>
    <tag k="AND:importance_level" v="4"/>
    <tag k="AND_nosr_r" v="15084477"/>
    <tag k="highway" v="secondary"/>
    <tag k="name" v="Matlingeweg"/>
    <tag k="oneway" v="1"/>
  </way>
  <way id="7532752" version="5" timestamp="2010-02-12T15:15:59Z" uid="204153" user="mfvl" changeset="3857367">
    <nd ref="44501039"/>
    <nd ref="614915013"/>
    <nd ref="614915015"/>
    <nd ref="44493433"/>
    <nd ref="614678781"/>
    <nd ref="614678782"/>
    <nd ref="614678783"/>
    <nd ref="614678786"/>
    <tag k="AND:importance_level" v="4"/>
    <tag k="AND_nosr_r" v="15084477"/>
    <tag k="highway" v="secondary"/>
    <tag k="name" v="Matlingeweg"/>
    <tag k="oneway" v="yes"/>
  </way>
  <way id="7532752" version="6" timestamp="2010-02-15T16:48:54Z" uid="203114" user="Jeroen Muris" changeset="3884738">
    <nd ref="44501039"/>
    <nd ref="614915013"/>
    <nd ref="614915015"/>
    <nd ref="44493433"/>
    <nd ref="614678781"/>
    <nd ref="639955714"/>
    <tag k="AND:importance_level" v="4"/>
    <tag k="AND_nosr_r" v="15084477"/>
    <tag k="highway" v="secondary"/>
    <tag k="name" v="Matlingeweg"/>
    <tag k="oneway" v="yes"/>
  </way>
  <way id="7532752" version="7" timestamp="2010-03-24T20:39:33Z" uid="203114" user="Jeroen Muris" changeset="4224524">
    <nd ref="44501039"/>
    <nd ref="614915013"/>
    <nd ref="614915015"/>
    <nd ref="44493433"/>
    <nd ref="673661611"/>
    <nd ref="614678781"/>
    <nd ref="639955714"/>
    <tag k="AND:importance_level" v="4"/>
    <tag k="AND_nosr_r" v="15084477"/>
    <tag k="highway" v="secondary"/>
    <tag k="name" v="Matlingeweg"/>
    <tag k="oneway" v="yes"/>
  </way>
  <way id="7532752" version="8" timestamp="2010-03-24T22:22:28Z" uid="203114" user="Jeroen Muris" changeset="4225350"/>
  <way id="7532753" version="2" timestamp="2008-04-30T10:36:48Z" uid="8619" user="cetest" changeset="290668">
    <nd ref="44492685"/>
    <nd ref="44493406"/>
    <nd ref="44495324"/>
    <nd ref="44500294"/>
    <nd ref="44501294"/>
    <tag k="AND:importance_level" v="4"/>
    <tag k="AND_nosr_r" v="15084476"/>
    <tag k="highway" v="secondary"/>
    <tag k="name" v="Matlingeweg"/>
    <tag k="oneway" v="1"/>
  </way>
  <way id="7532753" version="3" timestamp="2010-01-16T15:03:13Z" uid="161542" user="textlijn" changeset="3632286"/>
  <way id="7532754" version="2" timestamp="2008-04-30T10:36:32Z" uid="8619" user="cetest" changeset="290668">
    <nd ref="44448820"/>
    <nd ref="44448821"/>
    <tag k="AND:importance_level" v="4"/>
    <tag k="AND_nosr_r" v="15084475"/>
    <tag k="highway" v="secondary"/>
    <tag k="name" v="Vlaardingweg"/>
    <tag k="oneway" v="1"/>
  </way>
  <way id="7532754" version="3" timestamp="2010-02-12T15:15:58Z" uid="204153" user="mfvl" changeset="3857367">
    <nd ref="44448820"/>
    <nd ref="44448821"/>
    <tag k="AND:importance_level" v="4"/>
    <tag k="AND_nosr_r" v="15084475"/>
    <tag k="highway" v="secondary"/>
    <tag k="name" v="Vlaardingweg"/>
    <tag k="oneway" v="yes"/>
  </way>
  <way id="7532754" version="4" timestamp="2011-09-15T23:55:17Z" uid="191979" user="It&apos;s so funny" changeset="9312639"/>
  <way id="7532755" version="2" timestamp="2008-04-30T10:36:26Z" uid="8619" user="cetest" changeset="290668">
    <nd ref="44449954"/>
    <nd ref="44448820"/>
    <tag k="AND:importance_level" v="4"/>
    <tag k="AND_nosr_r" v="15084474"/>
    <tag k="highway" v="secondary"/>
    <tag k="name" v="Matlingeweg"/>
    <tag k="oneway" v="1"/>
  </way>
  <way id="7532755" version="3" timestamp="2010-02-12T15:15:59Z" uid="204153" user="mfvl" changeset="3857367">
    <nd ref="44449954"/>
    <nd ref="44448820"/>
    <tag k="AND:importance_level" v="4"/>
    <tag k="AND_nosr_r" v="15084474"/>
    <tag k="highway" v="secondary"/>
    <tag k="name" v="Matlingeweg"/>
    <tag k="oneway" v="yes"/>
  </way>
  <way id="7532755" version="4" timestamp="2010-03-24T22:22:06Z" uid="203114" user="Jeroen Muris" changeset="4225350">
    <nd ref="44449954"/>
    <nd ref="44448820"/>
    <tag k="bicycle" v="no"/>
    <tag k="highway" v="secondary"/>
    <tag k="name" v="Matlingeweg"/>
    <tag k="oneway" v="yes"/>
  </way>
  <way id="7532755" version="5" timestamp="2011-09-15T23:55:10Z" uid="191979" user="It&apos;s so funny" changeset="9312639"/>
  <way id="7532756" version="2" timestamp="2008-04-30T10:36:53Z" uid="8619" user="cetest" changeset="290668">
    <nd ref="44507879"/>
    <nd ref="44510880"/>
    <tag k="AND:importance_level" v="4"/>
    <tag k="AND_nosr_r" v="15084473"/>
    <tag k="highway" v="secondary"/>
    <tag k="name" v="Matlingeweg"/>
    <tag k="oneway" v="1"/>
  </way>
  <way id="7532756" version="3" timestamp="2008-05-25T10:23:11Z" uid="8619" user="cetest" changeset="515841">
    <nd ref="44507879"/>
    <nd ref="266756605"/>
    <nd ref="44510880"/>
    <tag k="AND:importance_level" v="4"/>
    <tag k="AND_nosr_r" v="15084473"/>
    <tag k="highway" v="secondary"/>
    <tag k="name" v="Matlingeweg"/>
    <tag k="oneway" v="1"/>
  </way>
  <way id="7532756" version="4" timestamp="2010-01-13T20:13:43Z" uid="26230" user="BugBlue" changeset="3611831">
    <nd ref="44507879"/>
    <nd ref="266756605"/>
    <tag k="AND:importance_level" v="4"/>
    <tag k="AND_nosr_r" v="15084473"/>
    <tag k="highway" v="secondary"/>
    <tag k="name" v="Matlingeweg"/>
    <tag k="oneway" v="1"/>
  </way>
  <way id="7532756" version="5" timestamp="2010-01-16T15:03:13Z" uid="161542" user="textlijn" changeset="3632286"/>
  <way id="7532757" version="4" timestamp="2008-04-30T10:36:46Z" uid="8619" user="cetest" changeset="290668">
    <nd ref="44482854"/>
    <nd ref="44486771"/>
    <tag k="AND:importance_level" v="4"/>
    <tag k="AND_nosr_r" v="15084472"/>
    <tag k="bridge" v="yes"/>
    <tag k="highway" v="secondary"/>
    <tag k="layer" v="1"/>
    <tag k="name" v="Oost Abtsbrug"/>
  </way>
  <way id="7532757" version="5" timestamp="2009-12-07T19:21:12Z" uid="161542" user="textlijn" changeset="3318612">
    <nd ref="44482854"/>
    <nd ref="44486771"/>
    <tag k="AND_nosr_r" v="15084472"/>
    <tag k="bridge" v="yes"/>
    <tag k="highway" v="secondary"/>
    <tag k="layer" v="1"/>
    <tag k="name" v="Oost Abtsbrug"/>
    <tag k="oneway" v="no"/>
  </way>
  <way id="7532757" version="6" timestamp="2010-01-16T15:03:12Z" uid="161542" user="textlijn" changeset="3632286"/>
  <way id="7532758" version="2" timestamp="2008-04-30T10:36:42Z" uid="8619" user="cetest" changeset="290668">
    <nd ref="44478489"/>
    <nd ref="44482854"/>
    <tag k="AND:importance_level" v="4"/>
    <tag k="AND_nosr_r" v="15084471"/>
    <tag k="highway" v="secondary"/>
    <tag k="name" v="Matlingeweg"/>
  </way>
  <way id="7532758" version="3" timestamp="2009-12-07T19:21:17Z" uid="161542" user="textlijn" changeset="3318612">
    <nd ref="44478489"/>
    <nd ref="44482854"/>
    <tag k="AND_nosr_r" v="15084471"/>
    <tag k="highway" v="secondary"/>
    <tag k="name" v="Matlingeweg"/>
    <tag k="oneway" v="no"/>
  </way>
  <way id="7532758" version="4" timestamp="2010-01-16T15:03:12Z" uid="161542" user="textlijn" changeset="3632286"/>
  <way id="7532760" version="2" timestamp="2008-04-30T10:36:49Z" uid="8619" user="cetest" changeset="290668">
    <nd ref="44505829"/>
    <nd ref="44501039"/>
    <tag k="AND:importance_level" v="4"/>
    <tag k="AND_nosr_r" v="15084470"/>
    <tag k="highway" v="secondary"/>
    <tag k="name" v="Matlingeweg"/>
    <tag k="oneway" v="1"/>
  </way>
  <way id="7532760" version="3" timestamp="2008-05-25T10:23:15Z" uid="8619" user="cetest" changeset="515841">
    <nd ref="44505829"/>
    <nd ref="266756611"/>
    <nd ref="44501039"/>
    <tag k="AND:importance_level" v="4"/>
    <tag k="AND_nosr_r" v="15084470"/>
    <tag k="highway" v="secondary"/>
    <tag k="name" v="Matlingeweg"/>
    <tag k="oneway" v="1"/>
  </way>
  <way id="7532760" version="4" timestamp="2010-02-12T15:16:00Z" uid="204153" user="mfvl" changeset="3857367">
    <nd ref="44505829"/>
    <nd ref="266756611"/>
    <nd ref="44501039"/>
    <tag k="AND:importance_level" v="4"/>
    <tag k="AND_nosr_r" v="15084470"/>
    <tag k="highway" v="secondary"/>
    <tag k="name" v="Matlingeweg"/>
    <tag k="oneway" v="yes"/>
  </way>
  <way id="7532760" version="5" timestamp="2010-03-24T22:22:07Z" uid="203114" user="Jeroen Muris" changeset="4225350">
    <nd ref="44510596"/>
    <nd ref="266756603"/>
    <nd ref="44505829"/>
    <nd ref="266756611"/>
    <nd ref="44501039"/>
    <nd ref="614915013"/>
    <nd ref="614915015"/>
    <nd ref="44493433"/>
    <nd ref="673661611"/>
    <nd ref="614678781"/>
    <nd ref="639955714"/>
    <tag k="AND:importance_level" v="4"/>
    <tag k="bicycle" v="no"/>
    <tag k="highway" v="secondary"/>
    <tag k="name" v="Matlingeweg"/>
    <tag k="oneway" v="yes"/>
  </way>
  <way id="7532760" version="6" timestamp="2010-12-10T01:16:07Z" uid="161542" user="textlijn" changeset="6601449">
    <nd ref="44510596"/>
    <nd ref="266756603"/>
    <nd ref="266756611"/>
    <nd ref="44501039"/>
    <nd ref="614915013"/>
    <nd ref="614915015"/>
    <nd ref="44493433"/>
    <nd ref="673661611"/>
    <nd ref="614678781"/>
    <nd ref="639955714"/>
    <tag k="AND:importance_level" v="4"/>
    <tag k="bicycle" v="no"/>
    <tag k="highway" v="secondary"/>
    <tag k="name" v="Matlingeweg"/>
    <tag k="oneway" v="yes"/>
  </way>
  <way id="7532760" version="7" timestamp="2011-09-15T23:55:11Z" uid="191979" user="It&apos;s so funny" changeset="9312639"/>
  <way id="7532761" version="2" timestamp="2008-04-30T10:36:36Z" uid="8619" user="cetest" changeset="290668">
    <nd ref="44473612"/>
    <nd ref="44475078"/>
    <nd ref="44477263"/>
    <nd ref="44478489"/>
    <tag k="AND:importance_level" v="4"/>
    <tag k="AND_nosr_r" v="15084469"/>
    <tag k="highway" v="secondary"/>
    <tag k="name" v="Matlingeweg"/>
    <tag k="oneway" v="1"/>
  </way>
  <way id="7532761" version="3" timestamp="2010-01-16T15:03:12Z" uid="161542" user="textlijn" changeset="3632286"/>
  <way id="7532762" version="2" timestamp="2008-04-30T10:36:25Z" uid="8619" user="cetest" changeset="290668">
    <nd ref="44450477"/>
    <nd ref="44456772"/>
    <tag k="AND:importance_level" v="4"/>
    <tag k="AND_nosr_r" v="15084468"/>
    <tag k="highway" v="secondary"/>
    <tag k="name" v="Matlingeweg"/>
    <tag k="oneway" v="1"/>
  </way>
  <way id="7532762" version="3" timestamp="2008-08-14T19:10:21Z" uid="8619" user="cetest" changeset="246355">
    <nd ref="44450477"/>
    <nd ref="287968849"/>
    <nd ref="44456772"/>
    <tag k="AND:importance_level" v="4"/>
    <tag k="AND_nosr_r" v="15084468"/>
    <tag k="highway" v="secondary"/>
    <tag k="name" v="Matlingeweg"/>
    <tag k="oneway" v="1"/>
  </way>
  <way id="7532762" version="4" timestamp="2010-01-16T15:03:12Z" uid="161542" user="textlijn" changeset="3632286"/>
  <way id="7532763" version="2" timestamp="2008-04-30T10:36:37Z" uid="8619" user="cetest" changeset="290668">
    <nd ref="44476699"/>
    <nd ref="44475123"/>
    <nd ref="44473612"/>
    <tag k="AND:importance_level" v="4"/>
    <tag k="AND_nosr_r" v="15084467"/>
    <tag k="highway" v="secondary"/>
    <tag k="name" v="Matlingeweg"/>
    <tag k="oneway" v="1"/>
  </way>
  <way id="7532763" version="3" timestamp="2010-01-16T15:01:56Z" uid="161542" user="textlijn" changeset="3632286">
    <nd ref="44476699"/>
    <nd ref="614678806"/>
    <nd ref="614678811"/>
    <nd ref="614678769"/>
    <tag k="AND:importance_level" v="4"/>
    <tag k="AND_nosr_r" v="15084467"/>
    <tag k="highway" v="secondary"/>
    <tag k="name" v="Matlingeweg"/>
    <tag k="oneway" v="1"/>
  </way>
  <way id="7532763" version="4" timestamp="2010-02-12T15:15:59Z" uid="204153" user="mfvl" changeset="3857367">
    <nd ref="44476699"/>
    <nd ref="614678806"/>
    <nd ref="614678811"/>
    <nd ref="614678769"/>
    <tag k="AND:importance_level" v="4"/>
    <tag k="AND_nosr_r" v="15084467"/>
    <tag k="highway" v="secondary"/>
    <tag k="name" v="Matlingeweg"/>
    <tag k="oneway" v="yes"/>
  </way>
  <way id="7532763" version="5" timestamp="2010-03-24T19:13:42Z" uid="203114" user="Jeroen Muris" changeset="4223719">
    <nd ref="44476699"/>
    <nd ref="673557825"/>
    <nd ref="614678811"/>
    <nd ref="614678769"/>
    <tag k="AND:importance_level" v="4"/>
    <tag k="AND_nosr_r" v="15084467"/>
    <tag k="highway" v="secondary"/>
    <tag k="name" v="Matlingeweg"/>
    <tag k="oneway" v="yes"/>
  </way>
  <way id="7532763" version="6" timestamp="2010-03-24T22:22:07Z" uid="203114" user="Jeroen Muris" changeset="4225350">
    <nd ref="44476699"/>
    <nd ref="673557825"/>
    <nd ref="614678811"/>
    <nd ref="614678769"/>
    <tag k="bicycle" v="no"/>
    <tag k="highway" v="secondary"/>
    <tag k="name" v="Matlingeweg"/>
    <tag k="oneway" v="yes"/>
  </way>
  <way id="7532763" version="7" timestamp="2010-03-24T22:56:22Z" uid="203114" user="Jeroen Muris" changeset="4225622">
    <nd ref="44476699"/>
    <nd ref="673778210"/>
    <nd ref="673557825"/>
    <nd ref="614678811"/>
    <nd ref="614678769"/>
    <tag k="bicycle" v="no"/>
    <tag k="highway" v="secondary"/>
    <tag k="name" v="Matlingeweg"/>
    <tag k="oneway" v="yes"/>
  </way>
  <way id="7532763" version="8" timestamp="2010-12-10T01:12:49Z" uid="161542" user="textlijn" changeset="6601449">
    <nd ref="44476699"/>
    <nd ref="673778210"/>
    <nd ref="673557825"/>
    <nd ref="1030275319"/>
    <nd ref="614678811"/>
    <nd ref="1030275410"/>
    <nd ref="614678769"/>
    <tag k="bicycle" v="no"/>
    <tag k="highway" v="secondary"/>
    <tag k="name" v="Matlingeweg"/>
    <tag k="oneway" v="yes"/>
  </way>
  <way id="7532763" version="9" timestamp="2011-06-17T18:14:46Z" uid="452840" user="mtb-er" changeset="8467078">
    <nd ref="44476699"/>
    <nd ref="673778210"/>
    <nd ref="673557825"/>
    <nd ref="1030275319"/>
    <nd ref="614678811"/>
    <nd ref="1030275410"/>
    <nd ref="614678769"/>
    <tag k="bicycle" v="no"/>
    <tag k="highway" v="secondary"/>
    <tag k="name" v="Matlingeweg"/>
    <tag k="oneway" v="yes"/>
  </way>
  <way id="7532763" version="10" timestamp="2011-09-15T23:55:12Z" uid="191979" user="It&apos;s so funny" changeset="9312639"/>
  <way id="7532764" version="2" timestamp="2008-04-30T10:36:47Z" uid="8619" user="cetest" changeset="290668">
    <nd ref="44486771"/>
    <nd ref="44489575"/>
    <nd ref="44492685"/>
    <tag k="AND:importance_level" v="4"/>
    <tag k="AND_nosr_r" v="15084466"/>
    <tag k="highway" v="secondary"/>
    <tag k="name" v="Matlingeweg"/>
  </way>
  <way id="7532764" version="3" timestamp="2009-12-07T19:21:17Z" uid="161542" user="textlijn" changeset="3318612">
    <nd ref="44486771"/>
    <nd ref="44489575"/>
    <nd ref="44492685"/>
    <tag k="AND_nosr_r" v="15084466"/>
    <tag k="highway" v="secondary"/>
    <tag k="name" v="Matlingeweg"/>
    <tag k="oneway" v="no"/>
  </way>
  <way id="7532764" version="4" timestamp="2010-01-16T15:03:13Z" uid="161542" user="textlijn" changeset="3632286"/>
  <way id="7532765" version="2" timestamp="2008-08-14T19:10:24Z" uid="8619" user="cetest" changeset="246355">
    <nd ref="44478489"/>
    <nd ref="44476699"/>
    <tag k="AND:importance_level" v="4"/>
    <tag k="AND_nosr_r" v="15084465"/>
    <tag k="highway" v="secondary"/>
    <tag k="name" v="Matlingeweg"/>
    <tag k="oneway" v="1"/>
  </way>
  <way id="7532765" version="3" timestamp="2010-01-16T15:01:55Z" uid="161542" user="textlijn" changeset="3632286">
    <nd ref="44476699"/>
    <nd ref="614678786"/>
    <tag k="AND:importance_level" v="4"/>
    <tag k="AND_nosr_r" v="15084465"/>
    <tag k="highway" v="secondary"/>
    <tag k="name" v="Matlingeweg"/>
    <tag k="oneway" v="1"/>
  </way>
  <way id="7532765" version="4" timestamp="2010-02-12T15:15:59Z" uid="204153" user="mfvl" changeset="3857367">
    <nd ref="44476699"/>
    <nd ref="614678786"/>
    <tag k="AND:importance_level" v="4"/>
    <tag k="AND_nosr_r" v="15084465"/>
    <tag k="highway" v="secondary"/>
    <tag k="name" v="Matlingeweg"/>
    <tag k="oneway" v="yes"/>
  </way>
  <way id="7532765" version="5" timestamp="2010-03-24T22:22:07Z" uid="203114" user="Jeroen Muris" changeset="4225350">
    <nd ref="44476699"/>
    <nd ref="614678786"/>
    <tag k="bicycle" v="no"/>
    <tag k="highway" v="secondary"/>
    <tag k="name" v="Matlingeweg"/>
    <tag k="oneway" v="yes"/>
  </way>
  <way id="7532765" version="6" timestamp="2010-12-10T01:15:59Z" uid="161542" user="textlijn" changeset="6601449">
    <nd ref="44476699"/>
    <nd ref="1030275118"/>
    <nd ref="614678786"/>
    <tag k="bicycle" v="no"/>
    <tag k="highway" v="secondary"/>
    <tag k="name" v="Matlingeweg"/>
    <tag k="oneway" v="yes"/>
  </way>
  <way id="7532765" version="7" timestamp="2011-06-17T10:35:23Z" uid="452840" user="mtb-er" changeset="8463391">
    <nd ref="614678786"/>
    <nd ref="1030275118"/>
    <nd ref="44476699"/>
    <tag k="bicycle" v="no"/>
    <tag k="highway" v="secondary"/>
    <tag k="name" v="Matlingeweg"/>
    <tag k="oneway" v="yes"/>
  </way>
  <way id="7532765" version="8" timestamp="2011-06-17T18:14:46Z" uid="452840" user="mtb-er" changeset="8467078">
    <nd ref="614678786"/>
    <nd ref="1030275118"/>
    <nd ref="44476699"/>
    <tag k="bicycle" v="no"/>
    <tag k="highway" v="secondary"/>
    <tag k="name" v="Matlingeweg"/>
    <tag k="oneway" v="yes"/>
  </way>
  <way id="7532765" version="9" timestamp="2011-09-15T23:55:11Z" uid="191979" user="It&apos;s so funny" changeset="9312639"/>
  <way id="7532810" version="10" timestamp="2010-11-15T20:13:39Z" uid="8619" user="cetest" changeset="6380249">
    <nd ref="250181081"/>
    <nd ref="250181628"/>
    <nd ref="44409224"/>
    <tag k="AND:importance_level" v="5"/>
    <tag k="AND_nosr_r" v="15084430; 15084427; 15084422; 15084419; 15084386"/>
    <tag k="highway" v="residential"/>
    <tag k="name" v="Parallelweg"/>
  </way>
  <way id="7532810" version="11" timestamp="2011-08-30T08:38:57Z" uid="203114" user="Jeroen Muris" changeset="9164865">
    <nd ref="1417855870"/>
    <nd ref="1417855879"/>
    <nd ref="1417855901"/>
    <nd ref="250181628"/>
    <nd ref="1417855910"/>
    <nd ref="1417855917"/>
    <tag k="highway" v="service"/>
    <tag k="name" v="Parallelweg"/>
    <tag k="service" v="parking_aisle"/>
  </way>
  <way id="7532988" version="1" timestamp="2007-09-20T11:05:01Z" uid="13367" user="nubok" changeset="479434">
    <nd ref="55020466"/>
    <nd ref="55020468"/>
    <nd ref="55020469"/>
    <nd ref="55020041"/>
    <tag k="created_by" v="Potlatch alpha"/>
    <tag k="highway" v="secondary"/>
  </way>
  <way id="7532988" version="2" timestamp="2008-02-15T10:15:21Z" uid="25517" user="Slartibartfast" changeset="128574">
    <nd ref="55020466"/>
    <nd ref="55020468"/>
    <nd ref="55020469"/>
    <nd ref="55020041"/>
    <tag k="created_by" v="Potlatch alpha"/>
    <tag k="highway" v="residential"/>
    <tag k="name" v="Neptunweg"/>
  </way>
  <way id="7532988" version="3" timestamp="2009-01-23T22:22:32Z" uid="13758" user="linuxgeocacher" changeset="827923"/>
  <way id="7532033" version="4" timestamp="2012-07-17T08:14:17Z" uid="722137" user="OSMF Redaction Account" changeset="12260215">
    <nd ref="44427456"/>
    <nd ref="44441696"/>
    <nd ref="44448272"/>
    <tag k="AND_nosr_r" v="15085099"/>
    <tag k="highway" v="pedestrian"/>
  </way>
  <way id="7532084" version="9" timestamp="2012-07-17T08:14:12Z" uid="722137" user="OSMF Redaction Account" changeset="12260215">
    <nd ref="44432143"/>
    <nd ref="791025710"/>
    <nd ref="791025758"/>
    <nd ref="287968940"/>
    <nd ref="1433961972"/>
    <nd ref="287968856"/>
    <nd ref="673557821"/>
    <tag k="AND_nosr_r" v="15085051"/>
    <tag k="highway" v="pedestrian"/>
  </way>
  <way id="7532089" version="5" timestamp="2012-07-17T08:14:17Z" uid="722137" user="OSMF Redaction Account" changeset="12260215">
    <nd ref="44416522"/>
    <nd ref="673767449"/>
    <nd ref="44425247"/>
    <nd ref="44432143"/>
    <tag k="highway" v="pedestrian"/>
  </way>
  <way id="7532289" version="6" timestamp="2012-06-29T09:56:35Z" uid="242798" user="AnkEric" changeset="12054705">
    <nd ref="1507736047"/>
    <nd ref="639955720"/>
    <nd ref="1507736050"/>
    <nd ref="1507736056"/>
    <nd ref="1507736057"/>
    <nd ref="44486291"/>
    <nd ref="673775370"/>
    <nd ref="44488984"/>
    <nd ref="1507736058"/>
    <nd ref="44488985"/>
    <tag k="highway" v="unclassified"/>
    <tag k="name" v="Overschieseweg"/>
  </way>
  <way id="7532289" version="7" timestamp="2012-08-17T21:05:23Z" uid="36080" user="polderrunner" changeset="12766991">
    <nd ref="1507736047"/>
    <nd ref="639955720"/>
    <nd ref="1507736050"/>
    <nd ref="1507736056"/>
    <nd ref="1507736057"/>
    <nd ref="44486291"/>
    <nd ref="673775370"/>
    <nd ref="44488984"/>
    <nd ref="1507736058"/>
    <nd ref="44488985"/>
    <tag k="highway" v="unclassified"/>
    <tag k="name" v="Overschieseweg"/>
    <tag k="surface" v="paving_stones"/>
  </way>
  <way id="7532314" version="4" timestamp="2012-07-17T08:14:19Z" uid="722137" user="OSMF Redaction Account" changeset="12260215">
    <nd ref="44470760"/>
    <nd ref="44472473"/>
    <nd ref="673549824"/>
    <tag k="AND_nosr_r" v="15084856"/>
    <tag k="highway" v="pedestrian"/>
  </way>
  <way id="7532335" version="3" timestamp="2012-07-17T08:14:18Z" uid="722137" user="OSMF Redaction Account" changeset="12260215">
    <nd ref="44456211"/>
    <nd ref="44460101"/>
    <tag k="AND_nosr_r" v="15084839"/>
    <tag k="highway" v="pedestrian"/>
    <tag k="name" v="Delfshavenseweg"/>
  </way>
  <way id="7532335" version="4" timestamp="2012-08-30T21:50:24Z" uid="221961" user="gvb" changeset="12924023"/>
  <way id="7532347" version="4" timestamp="2012-04-10T21:59:31Z" uid="191979" user="It&apos;s so funny" changeset="11258837">
    <nd ref="1435029199"/>
    <nd ref="1710675503"/>
    <nd ref="44461167"/>
    <tag k="highway" v="unclassified"/>
    <tag k="name" v="Groothandelsmarkt"/>
  </way>
  <way id="7532347" version="5" timestamp="2012-07-17T08:14:19Z" uid="722137" user="OSMF Redaction Account" changeset="12260215">
    <nd ref="1435029199"/>
    <nd ref="1710675503"/>
    <nd ref="44461167"/>
    <tag k="highway" v="pedestrian"/>
    <tag k="name" v="Groothandelsmarkt"/>
  </way>
  <way id="7532350" version="3" timestamp="2012-04-10T21:59:31Z" uid="191979" user="It&apos;s so funny" changeset="11258837">
    <nd ref="44461167"/>
    <nd ref="44460095"/>
    <nd ref="44462234"/>
    <tag k="highway" v="unclassified"/>
    <tag k="name" v="Groothandelsmarkt"/>
  </way>
  <way id="7532350" version="4" timestamp="2012-07-17T08:14:19Z" uid="722137" user="OSMF Redaction Account" changeset="12260215">
    <nd ref="44461167"/>
    <nd ref="44460095"/>
    <nd ref="44462234"/>
    <tag k="highway" v="pedestrian"/>
    <tag k="name" v="Groothandelsmarkt"/>
  </way>
  <way id="7532374" version="4" timestamp="2012-07-17T08:14:19Z" uid="722137" user="OSMF Redaction Account" changeset="12260215">
    <nd ref="44460101"/>
    <nd ref="44462745"/>
    <nd ref="673549823"/>
    <nd ref="44470760"/>
    <tag k="AND_nosr_r" v="15084807"/>
    <tag k="highway" v="pedestrian"/>
    <tag k="name" v="Delfshavenseweg"/>
  </way>
  <way id="7532374" version="5" timestamp="2012-08-30T21:50:24Z" uid="221961" user="gvb" changeset="12924023"/>
  <way id="7532377" version="7" timestamp="2012-07-17T08:14:20Z" uid="722137" user="OSMF Redaction Account" changeset="12260215">
    <nd ref="44470760"/>
    <nd ref="639955747"/>
    <nd ref="673549805"/>
    <nd ref="639955732"/>
    <nd ref="44483993"/>
    <tag k="highway" v="pedestrian"/>
    <tag k="name" v="Delfshavenseweg"/>
  </way>
  <way id="7532377" version="8" timestamp="2012-08-30T21:46:32Z" uid="221961" user="gvb" changeset="12924023">
    <nd ref="44470760"/>
    <nd ref="639955747"/>
    <nd ref="673549805"/>
    <nd ref="639955732"/>
    <nd ref="44483993"/>
    <tag k="highway" v="cycleway"/>
    <tag k="name" v="Delfshavenseweg"/>
  </way>
  <way id="7532377" version="9" timestamp="2012-08-30T21:50:24Z" uid="221961" user="gvb" changeset="12924023"/>
  <way id="7532423" version="3" timestamp="2012-07-17T08:14:18Z" uid="722137" user="OSMF Redaction Account" changeset="12260215">
    <nd ref="44456211"/>
    <nd ref="44457834"/>
    <tag k="AND_nosr_r" v="15084763"/>
    <tag k="highway" v="pedestrian"/>
  </way>
  <way id="7532423" version="4" timestamp="2012-08-30T21:50:23Z" uid="221961" user="gvb" changeset="12924023">
    <nd ref="44456211"/>
    <nd ref="44457834"/>
    <tag k="AND_nosr_r" v="15084763"/>
    <tag k="highway" v="cycleway"/>
  </way>
  <way id="7532537" version="3" timestamp="2012-04-10T21:59:08Z" uid="191979" user="It&apos;s so funny" changeset="11258837">
    <nd ref="44507553"/>
    <nd ref="44510080"/>
    <tag k="highway" v="unclassified"/>
    <tag k="name" v="Bombaystraat"/>
  </way>
  <way id="7532537" version="4" timestamp="2012-07-17T18:42:54Z" uid="36080" user="polderrunner" changeset="12270410"/>
  <way id="7532550" version="5" timestamp="2012-07-17T08:14:18Z" uid="722137" user="OSMF Redaction Account" changeset="12260215">
    <nd ref="44444714"/>
    <nd ref="673570594"/>
    <nd ref="791025633"/>
    <nd ref="44445682"/>
    <nd ref="44447782"/>
    <tag k="AND_nosr_r" v="15084655"/>
    <tag k="highway" v="pedestrian"/>
  </way>
  <way id="7532552" version="3" timestamp="2012-04-10T21:59:30Z" uid="191979" user="It&apos;s so funny" changeset="11258837">
    <nd ref="44462234"/>
    <nd ref="44462742"/>
    <tag k="highway" v="unclassified"/>
    <tag k="name" v="Groothandelsmarkt"/>
  </way>
  <way id="7532552" version="4" timestamp="2012-07-17T08:14:19Z" uid="722137" user="OSMF Redaction Account" changeset="12260215">
    <nd ref="44462234"/>
    <nd ref="44462742"/>
    <tag k="highway" v="pedestrian"/>
    <tag k="name" v="Groothandelsmarkt"/>
  </way>
  <way id="7532555" version="6" timestamp="2012-07-17T18:55:25Z" uid="36080" user="polderrunner" changeset="12270410">
    <nd ref="1433962008"/>
    <nd ref="44501040"/>
    <nd ref="1030275298"/>
    <nd ref="44502196"/>
    <nd ref="1828965495"/>
    <nd ref="1828965496"/>
    <nd ref="44503616"/>
    <tag k="highway" v="unclassified"/>
    <tag k="name" v="Sevillaweg"/>
    <tag k="oneway" v="yes"/>
  </way>
  <way id="7532566" version="3" timestamp="2012-04-10T22:00:17Z" uid="191979" user="It&apos;s so funny" changeset="11258837">
    <nd ref="44503616"/>
    <nd ref="266756615"/>
    <nd ref="266756608"/>
    <nd ref="44513032"/>
    <tag k="highway" v="unclassified"/>
    <tag k="name" v="Sheffieldstraat"/>
  </way>
  <way id="7532566" version="4" timestamp="2012-07-17T08:14:21Z" uid="722137" user="OSMF Redaction Account" changeset="12260215">
    <nd ref="44503616"/>
    <nd ref="44513032"/>
    <tag k="highway" v="unclassified"/>
    <tag k="name" v="Sheffieldstraat"/>
  </way>
  <way id="7532566" version="5" timestamp="2012-07-17T18:55:25Z" uid="36080" user="polderrunner" changeset="12270410">
    <nd ref="44503616"/>
    <nd ref="1828965500"/>
    <nd ref="266756608"/>
    <nd ref="44513032"/>
    <tag k="highway" v="unclassified"/>
    <tag k="name" v="Sheffieldstraat"/>
  </way>
  <way id="7532568" version="4" timestamp="2012-04-10T22:00:15Z" uid="191979" user="It&apos;s so funny" changeset="11258837">
    <nd ref="44502196"/>
    <nd ref="44503616"/>
    <tag k="highway" v="unclassified"/>
    <tag k="name" v="Sevillaweg"/>
    <tag k="oneway" v="yes"/>
  </way>
  <way id="7532568" version="5" timestamp="2012-07-17T18:55:30Z" uid="36080" user="polderrunner" changeset="12270410"/>
  <way id="7532570" version="5" timestamp="2012-04-10T22:00:16Z" uid="191979" user="It&apos;s so funny" changeset="11258837">
    <nd ref="44503616"/>
    <nd ref="1030275404"/>
    <nd ref="1030275004"/>
    <nd ref="1030275206"/>
    <nd ref="44504054"/>
    <nd ref="44504518"/>
    <tag k="highway" v="unclassified"/>
    <tag k="name" v="Sevillaweg"/>
    <tag k="oneway" v="yes"/>
  </way>
  <way id="7532570" version="6" timestamp="2012-07-17T18:55:25Z" uid="36080" user="polderrunner" changeset="12270410">
    <nd ref="44503616"/>
    <nd ref="1030275404"/>
    <nd ref="1030275004"/>
    <nd ref="1030275206"/>
    <nd ref="44504518"/>
    <tag k="highway" v="unclassified"/>
    <tag k="name" v="Sevillaweg"/>
    <tag k="oneway" v="yes"/>
  </way>
  <way id="7532585" version="3" timestamp="2012-04-10T22:00:05Z" uid="191979" user="It&apos;s so funny" changeset="11258837">
    <nd ref="44504954"/>
    <nd ref="266756602"/>
    <nd ref="44510083"/>
    <tag k="highway" v="unclassified"/>
    <tag k="name" v="Pittsburghstraat"/>
  </way>
  <way id="7532585" version="4" timestamp="2012-07-17T08:14:21Z" uid="722137" user="OSMF Redaction Account" changeset="12260215">
    <nd ref="44504954"/>
    <nd ref="44510083"/>
    <tag k="highway" v="unclassified"/>
    <tag k="name" v="Pittsburghstraat"/>
  </way>
  <way id="7532585" version="5" timestamp="2012-07-17T18:42:55Z" uid="36080" user="polderrunner" changeset="12270410"/>
  <way id="7532586" version="6" timestamp="2012-07-17T08:14:21Z" uid="722137" user="OSMF Redaction Account" changeset="12260215">
    <nd ref="44508319"/>
    <nd ref="1030275237"/>
    <nd ref="1433962011"/>
    <tag k="highway" v="unclassified"/>
    <tag k="name" v="Sydneystraat"/>
    <tag k="oneway" v="yes"/>
  </way>
  <way id="7532586" version="7" timestamp="2012-07-17T18:42:45Z" uid="36080" user="polderrunner" changeset="12270410">
    <nd ref="44505279"/>
    <nd ref="44506894"/>
    <nd ref="44508319"/>
    <nd ref="1828943084"/>
    <tag k="highway" v="unclassified"/>
    <tag k="name" v="Sydneystraat"/>
    <tag k="oneway" v="yes"/>
  </way>
  <way id="7532586" version="8" timestamp="2012-07-17T18:55:26Z" uid="36080" user="polderrunner" changeset="12270410">
    <nd ref="44505279"/>
    <nd ref="44506894"/>
    <nd ref="44508319"/>
    <nd ref="1828943084"/>
    <tag k="cycleway" v="lane"/>
    <tag k="highway" v="unclassified"/>
    <tag k="name" v="Sydneystraat"/>
    <tag k="oneway" v="yes"/>
  </way>
  <way id="7532604" version="6" timestamp="2012-07-17T08:14:20Z" uid="722137" user="OSMF Redaction Account" changeset="12260215">
    <nd ref="1030275192"/>
    <nd ref="1433962010"/>
    <tag k="highway" v="unclassified"/>
    <tag k="name" v="Sevillaweg"/>
    <tag k="oneway" v="yes"/>
  </way>
  <way id="7532604" version="7" timestamp="2012-07-17T18:55:24Z" uid="36080" user="polderrunner" changeset="12270410">
    <nd ref="266756614"/>
    <nd ref="1030275192"/>
    <nd ref="1433962010"/>
    <tag k="highway" v="unclassified"/>
    <tag k="name" v="Sevillaweg"/>
    <tag k="oneway" v="yes"/>
  </way>
  <way id="7532604" version="8" timestamp="2012-07-17T19:00:50Z" uid="36080" user="polderrunner" changeset="12270410">
    <nd ref="266756614"/>
    <nd ref="1030275192"/>
    <nd ref="1828972259"/>
    <nd ref="1433962010"/>
    <tag k="highway" v="unclassified"/>
    <tag k="name" v="Sevillaweg"/>
    <tag k="oneway" v="yes"/>
  </way>
  <way id="7532620" version="3" timestamp="2012-04-10T22:00:47Z" uid="191979" user="It&apos;s so funny" changeset="11258837">
    <nd ref="44461730"/>
    <nd ref="44462234"/>
    <tag k="highway" v="unclassified"/>
  </way>
  <way id="7532620" version="4" timestamp="2012-07-17T08:14:19Z" uid="722137" user="OSMF Redaction Account" changeset="12260215">
    <nd ref="44461730"/>
    <nd ref="44462234"/>
    <tag k="highway" v="pedestrian"/>
  </way>
  <way id="7532628" version="3" timestamp="2012-07-17T08:14:20Z" uid="722137" user="OSMF Redaction Account" changeset="12260215">
    <nd ref="44496923"/>
    <nd ref="44501040"/>
    <tag k="AND_nosr_r" v="15084588"/>
    <tag k="highway" v="pedestrian"/>
  </way>
  <way id="7532628" version="4" timestamp="2012-07-17T19:00:51Z" uid="36080" user="polderrunner" changeset="12270410"/>
  <way id="7532639" version="4" timestamp="2012-04-10T21:59:50Z" uid="191979" user="It&apos;s so funny" changeset="11258837">
    <nd ref="44513032"/>
    <nd ref="44511512"/>
    <tag k="highway" v="unclassified"/>
    <tag k="name" v="Lyonstraat"/>
    <tag k="oneway" v="yes"/>
  </way>
  <way id="7532639" version="5" timestamp="2012-07-17T08:14:22Z" uid="722137" user="OSMF Redaction Account" changeset="12260215">
    <nd ref="44511512"/>
    <nd ref="44513032"/>
    <tag k="highway" v="unclassified"/>
    <tag k="name" v="Lyonstraat"/>
    <tag k="oneway" v="yes"/>
  </way>
  <way id="7532639" version="6" timestamp="2012-07-17T18:55:24Z" uid="36080" user="polderrunner" changeset="12270410">
    <nd ref="44513032"/>
    <nd ref="1828965522"/>
    <nd ref="44511512"/>
    <tag k="highway" v="unclassified"/>
    <tag k="name" v="Lyonstraat"/>
    <tag k="oneway" v="yes"/>
  </way>
  <way id="7532648" version="3" timestamp="2012-04-10T22:00:05Z" uid="191979" user="It&apos;s so funny" changeset="11258837">
    <nd ref="44500336"/>
    <nd ref="266756610"/>
    <nd ref="44504954"/>
    <tag k="highway" v="unclassified"/>
    <tag k="name" v="Pittsburghstraat"/>
  </way>
  <way id="7532648" version="4" timestamp="2012-07-17T08:14:20Z" uid="722137" user="OSMF Redaction Account" changeset="12260215">
    <nd ref="44500336"/>
    <nd ref="44504954"/>
    <tag k="highway" v="unclassified"/>
    <tag k="name" v="Pittsburghstraat"/>
  </way>
  <way id="7532648" version="5" timestamp="2012-07-17T18:42:43Z" uid="36080" user="polderrunner" changeset="12270410">
    <nd ref="44500336"/>
    <nd ref="266756610"/>
    <nd ref="44504954"/>
    <nd ref="1828943084"/>
    <nd ref="44510083"/>
    <tag k="highway" v="unclassified"/>
    <tag k="name" v="Pittsburghstraat"/>
  </way>
  <way id="7532652" version="4" timestamp="2012-07-17T08:14:18Z" uid="722137" user="OSMF Redaction Account" changeset="12260215">
    <nd ref="1435029187"/>
    <nd ref="1435029192"/>
    <tag k="AND_nosr_r" v="15084567"/>
    <tag k="highway" v="pedestrian"/>
  </way>
  <way id="7532654" version="4" timestamp="2012-07-17T08:14:18Z" uid="722137" user="OSMF Redaction Account" changeset="12260215">
    <nd ref="1433961975"/>
    <nd ref="44457322"/>
    <tag k="AND:importance_level" v="5"/>
    <tag k="AND_nosr_r" v="15084565"/>
    <tag k="highway" v="unclassified"/>
    <tag k="name" v="Amstelstraat"/>
  </way>
  <way id="7532665" version="3" timestamp="2012-04-10T22:00:23Z" uid="191979" user="It&apos;s so funny" changeset="11258837">
    <nd ref="44507877"/>
    <nd ref="44506203"/>
    <tag k="highway" v="unclassified"/>
    <tag k="name" v="Sydneystraat"/>
    <tag k="oneway" v="1"/>
  </way>
  <way id="7532665" version="4" timestamp="2012-07-17T08:15:03Z" uid="722137" user="OSMF Redaction Account" changeset="12260238"/>
  <way id="7532682" version="3" timestamp="2012-04-10T22:00:21Z" uid="191979" user="It&apos;s so funny" changeset="11258837">
    <nd ref="44502196"/>
    <nd ref="266756614"/>
    <nd ref="266756607"/>
    <nd ref="44511512"/>
    <tag k="highway" v="unclassified"/>
    <tag k="name" v="Stuttgartstraat"/>
  </way>
  <way id="7532682" version="4" timestamp="2012-07-17T08:14:21Z" uid="722137" user="OSMF Redaction Account" changeset="12260215">
    <nd ref="44502196"/>
    <nd ref="44511512"/>
    <tag k="highway" v="unclassified"/>
    <tag k="name" v="Stuttgartstraat"/>
  </way>
  <way id="7532682" version="5" timestamp="2012-07-17T18:55:25Z" uid="36080" user="polderrunner" changeset="12270410">
    <nd ref="44502196"/>
    <nd ref="266756614"/>
    <nd ref="266756607"/>
    <nd ref="44511512"/>
    <tag k="highway" v="unclassified"/>
    <tag k="name" v="Stuttgartstraat"/>
  </way>
  <way id="7532683" version="6" timestamp="2012-07-17T08:14:22Z" uid="722137" user="OSMF Redaction Account" changeset="12260215">
    <nd ref="1030275173"/>
    <nd ref="44511088"/>
    <nd ref="44511512"/>
    <nd ref="1433962014"/>
    <nd ref="1433962013"/>
    <tag k="highway" v="unclassified"/>
    <tag k="name" v="Lyonstraat"/>
    <tag k="oneway" v="yes"/>
  </way>
  <way id="7532683" version="7" timestamp="2012-07-17T18:55:24Z" uid="36080" user="polderrunner" changeset="12270410">
    <nd ref="44511512"/>
    <nd ref="1828965518"/>
    <nd ref="1433962014"/>
    <nd ref="1433962013"/>
    <tag k="highway" v="unclassified"/>
    <tag k="name" v="Lyonstraat"/>
    <tag k="oneway" v="yes"/>
  </way>
  <way id="7532683" version="8" timestamp="2012-07-17T19:00:50Z" uid="36080" user="polderrunner" changeset="12270410">
    <nd ref="44511512"/>
    <nd ref="1828965518"/>
    <nd ref="1828972278"/>
    <nd ref="1433962014"/>
    <nd ref="1433962013"/>
    <tag k="highway" v="unclassified"/>
    <tag k="name" v="Lyonstraat"/>
    <tag k="oneway" v="yes"/>
  </way>
  <way id="7532684" version="5" timestamp="2012-07-17T08:14:21Z" uid="722137" user="OSMF Redaction Account" changeset="12260215">
    <nd ref="44501040"/>
    <nd ref="614678669"/>
    <nd ref="44504517"/>
    <nd ref="44506007"/>
    <nd ref="44509026"/>
    <nd ref="44509599"/>
    <nd ref="44511088"/>
    <tag k="AND_nosr_r" v="15084541"/>
    <tag k="highway" v="pedestrian"/>
  </way>
  <way id="7532684" version="6" timestamp="2012-07-17T19:00:51Z" uid="36080" user="polderrunner" changeset="12270410"/>
  <way id="7532705" version="4" timestamp="2012-04-10T22:00:48Z" uid="191979" user="It&apos;s so funny" changeset="11258837">
    <nd ref="44451638"/>
    <nd ref="1435029184"/>
    <tag k="highway" v="unclassified"/>
  </way>
  <way id="7532810" version="12" timestamp="2012-07-17T08:14:16Z" uid="722137" user="OSMF Redaction Account" changeset="12260215">
    <nd ref="1417855870"/>
    <nd ref="1417855879"/>
    <nd ref="1417855901"/>
    <nd ref="1417855910"/>
    <nd ref="1417855917"/>
    <tag k="highway" v="service"/>
    <tag k="name" v="Parallelweg"/>
    <tag k="service" v="parking_aisle"/>
  </way>
  <way id="7532810" version="13" timestamp="2012-08-07T09:38:44Z" uid="203114" user="Jeroen Muris" changeset="12643089">
    <nd ref="1417855870"/>
    <nd ref="1417855879"/>
    <nd ref="1417855901"/>
    <nd ref="250181628"/>
    <nd ref="1417855910"/>
    <nd ref="1417855917"/>
    <tag k="highway" v="service"/>
    <tag k="name" v="Parallelweg"/>
    <tag k="service" v="parking_aisle"/>
  </way>
</osm>
