<?xml version='1.0' encoding='UTF-8'?>
<osm version="0.6" generator="libosmium/2.20.0">
  <way id="75408168" version="1" timestamp="2010-08-31T13:34:20Z" uid="49111" user="Markus B" changeset="5645570">
    <nd ref="315986351"/>
    <nd ref="890434529"/>
    <nd ref="315986352"/>
    <nd ref="890434655"/>
    <nd ref="315986353"/>
    <nd ref="315986354"/>
    <nd ref="315986355"/>
    <nd ref="315986356"/>
    <nd ref="440769434"/>
    <nd ref="315986357"/>
    <nd ref="574311298"/>
    <nd ref="315986358"/>
    <nd ref="315986359"/>
    <nd ref="315986360"/>
    <nd ref="315986361"/>
    <nd ref="431258022"/>
    <nd ref="485747487"/>
    <nd ref="485747486"/>
    <nd ref="315986362"/>
    <nd ref="431258023"/>
    <nd ref="558678664"/>
    <nd ref="431258016"/>
    <nd ref="315986363"/>
    <tag k="highway" v="cycleway"/>
    <tag k="name" v="Hersbrucker Straße"/>
    <tag k="tracktype" v="grade1"/>
  </way>
  <way id="75408168" version="2" timestamp="2011-02-21T20:13:00Z" uid="82877" user="Wankmann" changeset="7357632">
    <nd ref="315986351"/>
    <nd ref="890434529"/>
    <nd ref="315986352"/>
    <nd ref="890434655"/>
    <nd ref="315986353"/>
    <nd ref="315986354"/>
    <tag k="highway" v="cycleway"/>
    <tag k="name" v="Hersbrucker Straße"/>
    <tag k="tracktype" v="grade1"/>
  </way>
  <way id="75408168" version="3" timestamp="2011-04-29T02:54:54Z" uid="84659" user="Kini" changeset="8000085">
    <nd ref="315986351"/>
    <nd ref="890434529"/>
    <nd ref="315986352"/>
    <nd ref="890434655"/>
    <nd ref="315986353"/>
    <nd ref="315986354"/>
    <tag k="highway" v="service"/>
    <tag k="name" v="Hersbrucker Straße"/>
    <tag k="tracktype" v="grade1"/>
  </way>
  <way id="75408169" version="1" timestamp="2010-08-31T13:34:21Z" uid="49111" user="Markus B" changeset="5645570">
    <nd ref="890434553"/>
    <nd ref="890434630"/>
    <nd ref="890434682"/>
    <nd ref="890434576"/>
    <nd ref="890434620"/>
    <nd ref="890434745"/>
    <nd ref="890434559"/>
    <nd ref="890434716"/>
    <nd ref="890434553"/>
    <tag k="amenity" v="restaurant"/>
    <tag k="historic" v="castle"/>
    <tag k="name" v="Schloss-Restaurant"/>
  </way>
  <way id="75408169" version="2" timestamp="2010-10-30T19:12:43Z" uid="202858" user="kellerma" changeset="6232265">
    <nd ref="890434553"/>
    <nd ref="890434630"/>
    <nd ref="890434682"/>
    <nd ref="890434576"/>
    <nd ref="890434620"/>
    <nd ref="890434745"/>
    <nd ref="890434559"/>
    <nd ref="890434716"/>
    <nd ref="890434553"/>
    <tag k="addr:city" v="Reichenschwand"/>
    <tag k="addr:country" v="DE"/>
    <tag k="addr:postcode" v="91244"/>
    <tag k="amenity" v="restaurant"/>
    <tag k="historic" v="castle"/>
    <tag k="name" v="Schloss Reichenschwand"/>
  </way>
  <way id="75408169" version="3" timestamp="2011-07-16T00:46:05Z" uid="70581" user="rsl" changeset="8735795">
    <nd ref="890434553"/>
    <nd ref="890434630"/>
    <nd ref="890434682"/>
    <nd ref="890434576"/>
    <nd ref="890434620"/>
    <nd ref="890434745"/>
    <nd ref="890434559"/>
    <nd ref="890434716"/>
    <nd ref="890434553"/>
    <tag k="addr:city" v="Reichenschwand"/>
    <tag k="addr:country" v="DE"/>
    <tag k="addr:postcode" v="91244"/>
    <tag k="amenity" v="restaurant"/>
    <tag k="historic" v="castle"/>
    <tag k="name" v="Schloss Reichenschwand"/>
    <tag k="wikipedia:de" v="Schloss_Reichenschwand"/>
  </way>
  <way id="75408169" version="4" timestamp="2011-07-16T00:50:39Z" uid="70581" user="rsl" changeset="8735811">
    <nd ref="890434553"/>
    <nd ref="890434630"/>
    <nd ref="890434682"/>
    <nd ref="890434576"/>
    <nd ref="890434620"/>
    <nd ref="890434745"/>
    <nd ref="890434559"/>
    <nd ref="890434716"/>
    <nd ref="890434553"/>
    <tag k="addr:city" v="Reichenschwand"/>
    <tag k="addr:country" v="DE"/>
    <tag k="addr:postcode" v="91244"/>
    <tag k="amenity" v="restaurant"/>
    <tag k="building" v="yes"/>
    <tag k="historic" v="castle"/>
    <tag k="name" v="Schloss Reichenschwand"/>
    <tag k="wikipedia:de" v="Schloss_Reichenschwand"/>
  </way>
  <way id="75408170" version="1" timestamp="2010-08-31T13:34:22Z" uid="49111" user="Markus B" changeset="5645570">
    <nd ref="597627096"/>
    <nd ref="890434706"/>
    <nd ref="890434617"/>
    <nd ref="890434701"/>
    <nd ref="890434610"/>
    <nd ref="890434680"/>
    <tag k="highway" v="residential"/>
    <tag k="name" v="Hersbrucker Straße"/>
  </way>
  <way id="75408171" version="1" timestamp="2010-08-31T13:34:22Z" uid="49111" user="Markus B" changeset="5645570">
    <nd ref="890434680"/>
    <nd ref="315986349"/>
    <nd ref="315986350"/>
    <nd ref="315986351"/>
    <tag k="highway" v="service"/>
    <tag k="name" v="Hersbrucker Straße"/>
  </way>
  <way id="75408173" version="1" timestamp="2010-08-31T13:34:23Z" uid="49111" user="Markus B" changeset="5645570">
    <nd ref="890434694"/>
    <nd ref="890434741"/>
    <nd ref="890434552"/>
    <nd ref="890434705"/>
    <nd ref="890434733"/>
    <nd ref="890434658"/>
    <nd ref="890434696"/>
    <nd ref="890434606"/>
    <nd ref="890434694"/>
    <tag k="amenity" v="biergarten"/>
  </way>
  <way id="75408174" version="1" timestamp="2010-08-31T13:34:24Z" uid="49111" user="Markus B" changeset="5645570">
    <nd ref="890434633"/>
    <nd ref="890434722"/>
    <nd ref="890434623"/>
    <nd ref="890434670"/>
    <nd ref="890434633"/>
    <tag k="addr:city" v="Reichenschwqand"/>
    <tag k="addr:country" v="DE"/>
    <tag k="addr:housenumber" v="1"/>
    <tag k="addr:postcode" v="91224"/>
    <tag k="addr:street" v="Hersbrucker Straße"/>
    <tag k="building" v="yes"/>
  </way>
  <way id="75408174" version="2" timestamp="2010-10-30T19:12:41Z" uid="202858" user="kellerma" changeset="6232265">
    <nd ref="890434633"/>
    <nd ref="890434722"/>
    <nd ref="890434623"/>
    <nd ref="890434670"/>
    <nd ref="890434633"/>
    <tag k="addr:city" v="Reichenschwand"/>
    <tag k="addr:country" v="DE"/>
    <tag k="addr:housenumber" v="1"/>
    <tag k="addr:postcode" v="91244"/>
    <tag k="addr:street" v="Hersbrucker Straße"/>
    <tag k="building" v="yes"/>
  </way>
  <way id="75408177" version="1" timestamp="2010-08-31T13:34:25Z" uid="49111" user="Markus B" changeset="5645570">
    <nd ref="890434686"/>
    <nd ref="890434735"/>
    <nd ref="890434724"/>
    <nd ref="890434744"/>
    <nd ref="890434678"/>
    <nd ref="890434712"/>
    <nd ref="890434686"/>
    <tag k="amenity" v="biergarten"/>
    <tag k="smoking" v="yes"/>
  </way>
  <way id="75408178" version="1" timestamp="2010-08-31T13:34:25Z" uid="49111" user="Markus B" changeset="5645570">
    <nd ref="890434582"/>
    <nd ref="890434663"/>
    <nd ref="890434638"/>
    <nd ref="890434541"/>
    <nd ref="890434582"/>
    <tag k="addr:city" v="Reichenschwqand"/>
    <tag k="addr:country" v="DE"/>
    <tag k="addr:housenumber" v="1 a"/>
    <tag k="addr:postcode" v="91224"/>
    <tag k="addr:street" v="Hersbrucker Straße"/>
    <tag k="building" v="yes"/>
    <tag k="internet_access" v="wlan"/>
    <tag k="name" v="Pension Süß"/>
    <tag k="phone" v="+49 9155 86460"/>
    <tag k="smoking" v="yes"/>
    <tag k="tourism" v="guest_house"/>
    <tag k="website" v="http://landpension-suess.de"/>
  </way>
  <way id="75408178" version="2" timestamp="2010-10-30T19:12:48Z" uid="202858" user="kellerma" changeset="6232265">
    <nd ref="890434582"/>
    <nd ref="890434663"/>
    <nd ref="890434638"/>
    <nd ref="890434541"/>
    <nd ref="890434582"/>
    <tag k="addr:city" v="Reichenschwand"/>
    <tag k="addr:country" v="DE"/>
    <tag k="addr:housenumber" v="1a"/>
    <tag k="addr:postcode" v="91244"/>
    <tag k="addr:street" v="Hersbrucker Straße"/>
    <tag k="building" v="yes"/>
    <tag k="internet_access" v="wlan"/>
    <tag k="name" v="Pension Süß"/>
    <tag k="phone" v="+49 9155 86460"/>
    <tag k="smoking" v="yes"/>
    <tag k="tourism" v="guest_house"/>
    <tag k="website" v="http://landpension-suess.de/"/>
  </way>
  <way id="75408181" version="1" timestamp="2010-08-31T13:34:27Z" uid="49111" user="Markus B" changeset="5645570">
    <nd ref="890434579"/>
    <nd ref="890434662"/>
    <nd ref="890434637"/>
    <nd ref="890434540"/>
    <nd ref="890434604"/>
    <nd ref="890434579"/>
    <tag k="amenity" v="parking"/>
    <tag k="name" v="Fahrschule"/>
  </way>
  <way id="75408769" version="2" timestamp="2011-03-06T03:10:27Z" uid="4467" user="Rosscoe" changeset="7469583">
    <nd ref="890449071"/>
    <nd ref="1188538019"/>
    <nd ref="890449075"/>
    <tag k="highway" v="service"/>
  </way>
  <way id="75408769" version="3" timestamp="2012-07-19T11:43:14Z" uid="722137" user="OSMF Redaction Account" changeset="12322246">
    <nd ref="890449071"/>
    <nd ref="890449075"/>
    <tag k="highway" v="service"/>
  </way>
</osm>
