<?xml version='1.0' encoding='UTF-8'?>
<osm version="0.6" generator="libosmium/2.20.0">
  <way id="75731585" version="2" timestamp="2010-12-01T09:25:48Z" uid="23543" user="jkjk" changeset="6501570">
    <nd ref="1014301231"/>
    <nd ref="894104417"/>
    <nd ref="894104384"/>
    <tag k="man_made" v="pier"/>
  </way>
  <way id="75731585" version="3" timestamp="2012-03-28T14:34:16Z" uid="214969" user="AndrewBuck" changeset="11127714"/>
  <way id="75731845" version="1" timestamp="2010-09-03T11:53:38Z" uid="115477" user="wowik" changeset="5670052">
    <nd ref="894106946"/>
    <nd ref="894106947"/>
    <nd ref="894106948"/>
    <nd ref="894106949"/>
    <nd ref="894106950"/>
    <nd ref="894106951"/>
    <nd ref="894106946"/>
    <tag k="amenity" v="toilets"/>
    <tag k="building" v="yes"/>
  </way>
  <way id="75731845" version="2" timestamp="2010-11-11T12:16:40Z" uid="115477" user="wowik" changeset="6343054">
    <nd ref="894106946"/>
    <nd ref="894106947"/>
    <nd ref="894106948"/>
    <nd ref="894106949"/>
    <nd ref="985233292"/>
    <nd ref="985233311"/>
    <nd ref="985233298"/>
    <nd ref="894106950"/>
    <nd ref="894106951"/>
    <nd ref="894106946"/>
    <tag k="amenity" v="toilets"/>
    <tag k="building" v="yes"/>
  </way>
  <way id="75731845" version="3" timestamp="2010-11-11T12:24:28Z" uid="115477" user="wowik" changeset="6343054">
    <nd ref="894106946"/>
    <nd ref="894106947"/>
    <nd ref="894106948"/>
    <nd ref="894106949"/>
    <nd ref="985233292"/>
    <nd ref="985233311"/>
    <nd ref="985233298"/>
    <nd ref="894106950"/>
    <nd ref="894106951"/>
    <nd ref="894106946"/>
    <tag k="addr:city" v="Зеленоград"/>
    <tag k="addr:housenumber" v="с7"/>
    <tag k="addr:street" v="Привокзальная площадь"/>
    <tag k="amenity" v="toilets"/>
    <tag k="building" v="yes"/>
    <tag k="is_in" v="Russia"/>
    <tag k="name" v="Стационарный общественный туалет"/>
  </way>
  <way id="75731845" version="4" timestamp="2011-09-13T10:31:15Z" uid="29320" user="Komяpa" changeset="9288237">
    <nd ref="894106946"/>
    <nd ref="894106947"/>
    <nd ref="894106948"/>
    <nd ref="894106949"/>
    <nd ref="985233292"/>
    <nd ref="985233311"/>
    <nd ref="985233298"/>
    <nd ref="894106950"/>
    <nd ref="894106951"/>
    <nd ref="894106946"/>
    <tag k="addr:city" v="Зеленоград"/>
    <tag k="addr:country" v="RU"/>
    <tag k="addr:housenumber" v="с7"/>
    <tag k="addr:street" v="Привокзальная площадь"/>
    <tag k="amenity" v="toilets"/>
    <tag k="building" v="yes"/>
    <tag k="name" v="Стационарный общественный туалет"/>
  </way>
  <way id="75731845" version="5" timestamp="2012-03-27T11:47:59Z" uid="481934" user="iWowik" changeset="11115472">
    <nd ref="894106946"/>
    <nd ref="894106947"/>
    <nd ref="894106948"/>
    <nd ref="894106949"/>
    <nd ref="985233292"/>
    <nd ref="985233311"/>
    <nd ref="985233298"/>
    <nd ref="894106950"/>
    <nd ref="894106951"/>
    <nd ref="894106946"/>
    <tag k="addr:city" v="Зеленоград"/>
    <tag k="addr:country" v="RU"/>
    <tag k="addr:housenumber" v="с7"/>
    <tag k="addr:region" v="Москва"/>
    <tag k="addr:street" v="Привокзальная площадь"/>
    <tag k="amenity" v="toilets"/>
    <tag k="building" v="yes"/>
    <tag k="name" v="Стационарный общественный туалет"/>
  </way>
  <way id="75731846" version="1" timestamp="2010-09-03T11:53:38Z" uid="115477" user="wowik" changeset="5670052">
    <nd ref="894106952"/>
    <nd ref="894106953"/>
    <nd ref="894106954"/>
    <nd ref="894106955"/>
    <nd ref="894106952"/>
    <tag k="building" v="yes"/>
  </way>
  <way id="75731846" version="2" timestamp="2010-11-11T12:24:27Z" uid="115477" user="wowik" changeset="6343054">
    <nd ref="894106952"/>
    <nd ref="894106953"/>
    <nd ref="894106954"/>
    <nd ref="894106955"/>
    <nd ref="894106952"/>
    <tag k="addr:city" v="Зеленоград"/>
    <tag k="building" v="yes"/>
    <tag k="is_in" v="Russia"/>
    <tag k="name" v="кассы пригородных поездов"/>
  </way>
  <way id="75731846" version="3" timestamp="2011-09-13T10:32:04Z" uid="29320" user="Komяpa" changeset="9288237">
    <nd ref="894106952"/>
    <nd ref="894106953"/>
    <nd ref="894106954"/>
    <nd ref="894106955"/>
    <nd ref="894106952"/>
    <tag k="addr:city" v="Зеленоград"/>
    <tag k="addr:country" v="RU"/>
    <tag k="building" v="yes"/>
    <tag k="name" v="кассы пригородных поездов"/>
  </way>
  <way id="75731846" version="4" timestamp="2012-03-27T11:56:14Z" uid="481934" user="iWowik" changeset="11115472">
    <nd ref="894106952"/>
    <nd ref="894106953"/>
    <nd ref="894106954"/>
    <nd ref="894106955"/>
    <nd ref="894106952"/>
    <tag k="addr:city" v="Зеленоград"/>
    <tag k="addr:country" v="RU"/>
    <tag k="addr:region" v="Москва"/>
    <tag k="building" v="yes"/>
    <tag k="name" v="кассы пригородных поездов"/>
  </way>
  <way id="75731847" version="1" timestamp="2010-09-03T11:53:38Z" uid="115477" user="wowik" changeset="5670052">
    <nd ref="894106956"/>
    <nd ref="894106957"/>
    <nd ref="894106958"/>
    <nd ref="894106959"/>
    <nd ref="894106956"/>
    <tag k="building" v="yes"/>
  </way>
  <way id="75731847" version="2" timestamp="2010-11-11T12:16:38Z" uid="115477" user="wowik" changeset="6343054">
    <nd ref="894106956"/>
    <nd ref="894106957"/>
    <nd ref="985233317"/>
    <nd ref="985233312"/>
    <nd ref="985233299"/>
    <nd ref="985233316"/>
    <nd ref="894106958"/>
    <nd ref="894106959"/>
    <nd ref="894106956"/>
    <tag k="addr:city" v="Зеленоград"/>
    <tag k="addr:housenumber" v="с5"/>
    <tag k="addr:street" v="Привокзальная площадь"/>
    <tag k="building" v="yes"/>
    <tag k="is_in" v="Russia"/>
  </way>
  <way id="75731847" version="3" timestamp="2011-09-13T10:29:26Z" uid="29320" user="Komяpa" changeset="9288237">
    <nd ref="894106956"/>
    <nd ref="894106957"/>
    <nd ref="985233317"/>
    <nd ref="985233312"/>
    <nd ref="985233299"/>
    <nd ref="985233316"/>
    <nd ref="894106958"/>
    <nd ref="894106959"/>
    <nd ref="894106956"/>
    <tag k="addr:city" v="Зеленоград"/>
    <tag k="addr:country" v="RU"/>
    <tag k="addr:housenumber" v="с5"/>
    <tag k="addr:street" v="Привокзальная площадь"/>
    <tag k="building" v="yes"/>
  </way>
  <way id="75731847" version="4" timestamp="2012-03-27T11:47:19Z" uid="481934" user="iWowik" changeset="11115472">
    <nd ref="894106956"/>
    <nd ref="894106957"/>
    <nd ref="985233317"/>
    <nd ref="985233312"/>
    <nd ref="985233299"/>
    <nd ref="985233316"/>
    <nd ref="894106958"/>
    <nd ref="894106959"/>
    <nd ref="894106956"/>
    <tag k="addr:city" v="Зеленоград"/>
    <tag k="addr:country" v="RU"/>
    <tag k="addr:housenumber" v="с5"/>
    <tag k="addr:region" v="Москва"/>
    <tag k="addr:street" v="Привокзальная площадь"/>
    <tag k="building" v="yes"/>
  </way>
  <way id="75731848" version="1" timestamp="2010-09-03T11:53:39Z" uid="115477" user="wowik" changeset="5670052">
    <nd ref="894106960"/>
    <nd ref="894106961"/>
    <nd ref="894106962"/>
    <nd ref="894106963"/>
    <nd ref="894106960"/>
    <tag k="building" v="yes"/>
  </way>
  <way id="75731848" version="2" timestamp="2010-11-11T12:16:37Z" uid="115477" user="wowik" changeset="6343054">
    <nd ref="894106960"/>
    <nd ref="894106961"/>
    <nd ref="894106962"/>
    <nd ref="985233301"/>
    <nd ref="985233319"/>
    <nd ref="894106963"/>
    <nd ref="985233313"/>
    <nd ref="985233295"/>
    <nd ref="985233308"/>
    <nd ref="985233324"/>
    <nd ref="894106960"/>
    <tag k="building" v="yes"/>
  </way>
  <way id="75731848" version="3" timestamp="2010-11-11T12:24:27Z" uid="115477" user="wowik" changeset="6343054">
    <nd ref="894106960"/>
    <nd ref="894106961"/>
    <nd ref="894106962"/>
    <nd ref="985233301"/>
    <nd ref="985233319"/>
    <nd ref="894106963"/>
    <nd ref="985233313"/>
    <nd ref="985233295"/>
    <nd ref="985233308"/>
    <nd ref="985233324"/>
    <nd ref="894106960"/>
    <tag k="addr:city" v="Зеленоград"/>
    <tag k="addr:housenumber" v="с4"/>
    <tag k="addr:street" v="Привокзальная площадь"/>
    <tag k="building" v="yes"/>
    <tag k="is_in" v="Russia"/>
  </way>
  <way id="75731848" version="4" timestamp="2011-09-13T10:29:26Z" uid="29320" user="Komяpa" changeset="9288237">
    <nd ref="894106960"/>
    <nd ref="894106961"/>
    <nd ref="894106962"/>
    <nd ref="985233301"/>
    <nd ref="985233319"/>
    <nd ref="894106963"/>
    <nd ref="985233313"/>
    <nd ref="985233295"/>
    <nd ref="985233308"/>
    <nd ref="985233324"/>
    <nd ref="894106960"/>
    <tag k="addr:city" v="Зеленоград"/>
    <tag k="addr:country" v="RU"/>
    <tag k="addr:housenumber" v="с4"/>
    <tag k="addr:street" v="Привокзальная площадь"/>
    <tag k="building" v="yes"/>
  </way>
  <way id="75731848" version="5" timestamp="2012-03-27T11:47:18Z" uid="481934" user="iWowik" changeset="11115472">
    <nd ref="894106960"/>
    <nd ref="894106961"/>
    <nd ref="894106962"/>
    <nd ref="985233301"/>
    <nd ref="985233319"/>
    <nd ref="894106963"/>
    <nd ref="985233313"/>
    <nd ref="985233295"/>
    <nd ref="985233308"/>
    <nd ref="985233324"/>
    <nd ref="894106960"/>
    <tag k="addr:city" v="Зеленоград"/>
    <tag k="addr:country" v="RU"/>
    <tag k="addr:housenumber" v="с4"/>
    <tag k="addr:region" v="Москва"/>
    <tag k="addr:street" v="Привокзальная площадь"/>
    <tag k="building" v="yes"/>
  </way>
  <way id="75731859" version="1" timestamp="2010-09-03T11:54:22Z" uid="115477" user="wowik" changeset="5670052">
    <nd ref="894107099"/>
    <nd ref="894107103"/>
    <nd ref="894107105"/>
    <nd ref="894107108"/>
    <nd ref="894107099"/>
    <tag k="building" v="yes"/>
  </way>
  <way id="75731859" version="2" timestamp="2010-11-11T12:02:28Z" uid="115477" user="wowik" changeset="6343054">
    <nd ref="894107099"/>
    <nd ref="894107103"/>
    <nd ref="894107105"/>
    <nd ref="894107108"/>
    <nd ref="894107099"/>
    <tag k="addr:city" v="Зеленоград"/>
    <tag k="addr:housenumber" v="1с2"/>
    <tag k="addr:street" v="Привокзальная площадь"/>
    <tag k="building" v="yes"/>
  </way>
  <way id="75731859" version="3" timestamp="2010-11-11T12:17:46Z" uid="115477" user="wowik" changeset="6343054">
    <nd ref="894107099"/>
    <nd ref="894107103"/>
    <nd ref="894107105"/>
    <nd ref="894107108"/>
    <nd ref="894107099"/>
    <tag k="addr:city" v="Зеленоград"/>
    <tag k="addr:housenumber" v="1с5"/>
    <tag k="addr:street" v="Привокзальная площадь"/>
    <tag k="building" v="yes"/>
  </way>
  <way id="75731859" version="4" timestamp="2011-01-19T16:58:39Z" uid="70696" user="xybot" changeset="7021015">
    <nd ref="894107099"/>
    <nd ref="894107103"/>
    <nd ref="894107105"/>
    <nd ref="894107108"/>
    <nd ref="894107099"/>
    <tag k="addr:city" v="Зеленоград"/>
    <tag k="addr:housenumber" v="1 с5"/>
    <tag k="addr:street" v="Привокзальная площадь"/>
    <tag k="building" v="yes"/>
  </way>
  <way id="75731859" version="5" timestamp="2012-03-27T08:05:04Z" uid="481934" user="iWowik" changeset="11113698">
    <nd ref="894107099"/>
    <nd ref="894107103"/>
    <nd ref="894107105"/>
    <nd ref="894107108"/>
    <nd ref="894107099"/>
    <tag k="addr:city" v="Зеленоград"/>
    <tag k="addr:country" v="RU"/>
    <tag k="addr:housenumber" v="1 с5"/>
    <tag k="addr:street" v="Привокзальная площадь"/>
    <tag k="building" v="yes"/>
  </way>
  <way id="75731859" version="6" timestamp="2012-03-27T11:33:14Z" uid="481934" user="iWowik" changeset="11115472">
    <nd ref="894107099"/>
    <nd ref="894107103"/>
    <nd ref="894107105"/>
    <nd ref="894107108"/>
    <nd ref="894107099"/>
    <tag k="addr:city" v="Зеленоград"/>
    <tag k="addr:country" v="RU"/>
    <tag k="addr:housenumber" v="1 с5"/>
    <tag k="addr:region" v="Москва"/>
    <tag k="addr:street" v="Привокзальная площадь"/>
    <tag k="building" v="yes"/>
  </way>
  <way id="75731860" version="1" timestamp="2010-09-03T11:54:22Z" uid="115477" user="wowik" changeset="5670052">
    <nd ref="894107114"/>
    <nd ref="894107116"/>
    <nd ref="894107117"/>
    <nd ref="894107119"/>
    <nd ref="894107114"/>
    <tag k="building" v="yes"/>
  </way>
  <way id="75731860" version="2" timestamp="2010-11-11T07:23:13Z" uid="115477" user="wowik" changeset="6341405"/>
  <way id="75731886" version="1" timestamp="2010-09-03T11:54:47Z" uid="115477" user="wowik" changeset="5670052">
    <nd ref="894107185"/>
    <nd ref="894107186"/>
    <nd ref="894107187"/>
    <nd ref="894107188"/>
    <nd ref="894107185"/>
    <tag k="building" v="yes"/>
  </way>
  <way id="75731886" version="2" timestamp="2010-11-11T07:23:13Z" uid="115477" user="wowik" changeset="6341405"/>
  <way id="75731887" version="1" timestamp="2010-09-03T11:54:47Z" uid="115477" user="wowik" changeset="5670052">
    <nd ref="894107189"/>
    <nd ref="894107190"/>
    <nd ref="894107191"/>
    <nd ref="894107192"/>
    <nd ref="894107189"/>
    <tag k="building" v="yes"/>
  </way>
  <way id="75731887" version="2" timestamp="2010-11-11T07:23:13Z" uid="115477" user="wowik" changeset="6341405"/>
  <way id="75731845" version="6" timestamp="2012-07-20T23:56:53Z" uid="722137" user="OSMF Redaction Account" changeset="12396619"/>
  <way id="75731846" version="5" timestamp="2012-07-20T23:56:52Z" uid="722137" user="OSMF Redaction Account" changeset="12396619"/>
  <way id="75731847" version="5" timestamp="2012-07-20T23:56:50Z" uid="722137" user="OSMF Redaction Account" changeset="12396619"/>
  <way id="75731848" version="6" timestamp="2012-07-20T23:56:50Z" uid="722137" user="OSMF Redaction Account" changeset="12396619"/>
  <way id="75731859" version="7" timestamp="2012-07-20T23:56:41Z" uid="722137" user="OSMF Redaction Account" changeset="12396619"/>
</osm>
