<?xml version='1.0' encoding='UTF-8'?>
<osm version="0.6" generator="libosmium/2.20.0">
  <way id="7593908" version="7" timestamp="2010-01-29T01:36:54Z" uid="20587" user="balrog-kun" changeset="3740483">
    <nd ref="25935523"/>
    <nd ref="622204580"/>
    <nd ref="55161139"/>
    <nd ref="55161145"/>
    <nd ref="55161154"/>
    <nd ref="55161167"/>
    <tag k="highway" v="secondary"/>
    <tag k="maxspeed" v="50"/>
    <tag k="name" v="Calle del Marqués de Urquijo"/>
    <tag k="oneway" v="yes"/>
  </way>
  <way id="7593908" version="8" timestamp="2011-12-09T09:16:17Z" uid="33103" user="sergionaranja" changeset="10071490">
    <nd ref="25935523"/>
    <nd ref="622204580"/>
    <nd ref="55161139"/>
    <nd ref="55161145"/>
    <nd ref="1537913108"/>
    <nd ref="55161154"/>
    <nd ref="55161167"/>
    <tag k="highway" v="secondary"/>
    <tag k="maxspeed" v="50"/>
    <tag k="name" v="Calle del Marqués de Urquijo"/>
    <tag k="oneway" v="yes"/>
  </way>
  <way id="7593908" version="9" timestamp="2012-04-13T22:42:59Z" uid="644114" user="principio99" changeset="11293250">
    <nd ref="25935523"/>
    <nd ref="622204580"/>
    <nd ref="55161139"/>
    <nd ref="55161145"/>
    <nd ref="1537913108"/>
    <nd ref="55161154"/>
    <nd ref="55161167"/>
    <tag k="highway" v="secondary"/>
    <tag k="lanes" v="2"/>
    <tag k="maxspeed" v="50"/>
    <tag k="name" v="Calle del Marqués de Urquijo"/>
    <tag k="oneway" v="yes"/>
  </way>
</osm>
