<?xml version='1.0' encoding='UTF-8'?>
<osm version="0.6" generator="libosmium/2.20.0">
  <way id="75967577" version="2" timestamp="2011-02-07T11:59:39Z" uid="4467" user="Rosscoe" changeset="7215161">
    <nd ref="896726159"/>
    <nd ref="1140747219"/>
    <nd ref="896726163"/>
    <tag k="highway" v="residential"/>
    <tag k="name" v="Creek View Close"/>
  </way>
  <way id="75967577" version="3" timestamp="2011-08-16T18:53:49Z" uid="379724" user="bugman" changeset="9039897"/>
  <way id="75967579" version="2" timestamp="2011-02-07T11:59:31Z" uid="4467" user="Rosscoe" changeset="7215161">
    <nd ref="896726174"/>
    <nd ref="896726179"/>
    <nd ref="896726176"/>
    <nd ref="896726185"/>
    <tag k="highway" v="residential"/>
    <tag k="maxspeed" v="50"/>
    <tag k="name" v="Pages Court"/>
    <tag k="source" v="nearmap"/>
    <tag k="source:maxspeed" v="default residential speed limit in Australia"/>
    <tag k="surface" v="asphalt"/>
  </way>
  <way id="75967579" version="3" timestamp="2012-07-19T08:14:27Z" uid="722137" user="OSMF Redaction Account" changeset="12313370">
    <nd ref="896726174"/>
    <nd ref="896726179"/>
    <nd ref="896726176"/>
    <nd ref="896726185"/>
    <tag k="highway" v="residential"/>
    <tag k="name" v="Pages Court"/>
  </way>
  <way id="75967579" version="4" timestamp="2012-08-01T09:20:04Z" uid="379724" user="bugman" changeset="12571672">
    <nd ref="896726174"/>
    <nd ref="896726179"/>
    <nd ref="1846598758"/>
    <nd ref="896726176"/>
    <nd ref="1846598757"/>
    <nd ref="896726185"/>
    <tag k="highway" v="residential"/>
    <tag k="name" v="Pages Court"/>
  </way>
</osm>
