<?xml version='1.0' encoding='UTF-8'?>
<osm version="0.6" generator="libosmium/2.20.0">
  <way id="76147121" version="2" timestamp="2011-05-24T09:01:41Z" uid="4467" user="Rosscoe" changeset="8233304">
    <nd ref="898309930"/>
    <nd ref="898309873"/>
    <tag k="highway" v="service"/>
    <tag k="service" v="driveway"/>
  </way>
  <way id="76147123" version="2" timestamp="2011-05-24T09:01:52Z" uid="4467" user="Rosscoe" changeset="8233304">
    <nd ref="898309898"/>
    <nd ref="316203408"/>
    <nd ref="287780875"/>
    <nd ref="287780867"/>
    <nd ref="1298226466"/>
    <nd ref="287780876"/>
    <tag k="highway" v="secondary"/>
    <tag k="name" v="Clarendon Street"/>
    <tag k="oneway" v="yes"/>
  </way>
  <way id="76147124" version="3" timestamp="2011-05-24T09:02:16Z" uid="4467" user="Rosscoe" changeset="8233304">
    <nd ref="898309837"/>
    <nd ref="1298226541"/>
    <nd ref="898309756"/>
    <nd ref="898309828"/>
    <nd ref="898309865"/>
    <nd ref="898309921"/>
    <nd ref="898309837"/>
    <tag k="addr:city" v="Derby"/>
    <tag k="addr:country" v="AU"/>
    <tag k="addr:street" v="Rowan Street"/>
    <tag k="name" v="Kimberley Entrance Caravan Park"/>
    <tag k="phone" v="+61891931055"/>
    <tag k="tourism" v="caravan_site"/>
  </way>
  <way id="76147125" version="2" timestamp="2011-05-24T09:02:14Z" uid="4467" user="Rosscoe" changeset="8233304">
    <nd ref="558250310"/>
    <nd ref="898309753"/>
    <nd ref="898309906"/>
    <nd ref="287780865"/>
    <nd ref="898309853"/>
    <nd ref="898309948"/>
    <nd ref="555855399"/>
    <nd ref="316204707"/>
    <nd ref="316203136"/>
    <nd ref="554267187"/>
    <nd ref="316203407"/>
    <nd ref="287780878"/>
    <nd ref="287780866"/>
    <nd ref="898309869"/>
    <nd ref="316203544"/>
    <tag k="highway" v="primary"/>
    <tag k="name" v="Loch Street"/>
    <tag k="oneway" v="yes"/>
  </way>
  <way id="76147126" version="2" timestamp="2011-05-24T09:02:25Z" uid="4467" user="Rosscoe" changeset="8233304">
    <nd ref="898309869"/>
    <nd ref="898309944"/>
    <nd ref="898309830"/>
    <nd ref="898309969"/>
    <nd ref="898309775"/>
    <nd ref="898309910"/>
    <nd ref="898309956"/>
    <nd ref="898309974"/>
    <nd ref="898309893"/>
    <nd ref="898309943"/>
    <nd ref="898309758"/>
    <nd ref="898309928"/>
    <nd ref="898309947"/>
    <nd ref="898309752"/>
    <nd ref="558250310"/>
    <tag k="highway" v="primary"/>
    <tag k="name" v="Loch Street"/>
    <tag k="oneway" v="yes"/>
  </way>
  <way id="76147123" version="3" timestamp="2012-07-19T16:02:32Z" uid="722137" user="OSMF Redaction Account" changeset="12337464">
    <nd ref="898309898"/>
    <nd ref="316203408"/>
    <nd ref="287780875"/>
    <nd ref="287780867"/>
    <nd ref="287780876"/>
    <tag k="highway" v="secondary"/>
    <tag k="name" v="Clarendon Street"/>
    <tag k="oneway" v="yes"/>
  </way>
  <way id="76147124" version="4" timestamp="2012-07-19T16:02:33Z" uid="722137" user="OSMF Redaction Account" changeset="12337464">
    <nd ref="898309837"/>
    <nd ref="898309756"/>
    <nd ref="898309828"/>
    <nd ref="898309865"/>
    <nd ref="898309921"/>
    <nd ref="898309837"/>
    <tag k="addr:city" v="Derby"/>
    <tag k="addr:country" v="AU"/>
    <tag k="addr:street" v="Rowan Street"/>
    <tag k="name" v="Kimberley Entrance Caravan Park"/>
    <tag k="phone" v="+61891931055"/>
    <tag k="tourism" v="caravan_site"/>
  </way>
</osm>
