<?xml version='1.0' encoding='UTF-8'?>
<osm version="0.6" generator="libosmium/2.20.0">
  <way id="76176296" version="1" timestamp="2010-09-06T08:41:42Z" uid="7617" user="Franc" changeset="5695779">
    <nd ref="898866028"/>
    <nd ref="898866039"/>
    <tag k="addr:interpolation" v="even"/>
  </way>
  <way id="76176296" version="2" timestamp="2012-02-16T03:08:21Z" uid="7523" user="inas" changeset="10698492"/>
  <way id="76176297" version="1" timestamp="2010-09-06T08:41:42Z" uid="7617" user="Franc" changeset="5695779">
    <nd ref="53265713"/>
    <nd ref="33681324"/>
    <nd ref="33681229"/>
    <nd ref="33681252"/>
    <tag k="fixme:sign:no" v="2010-09-06"/>
    <tag k="highway" v="service"/>
    <tag k="source" v="survey"/>
  </way>
  <way id="76176297" version="2" timestamp="2010-09-12T09:50:42Z" uid="237525" user="aharvey" changeset="5757472">
    <nd ref="53265713"/>
    <nd ref="33681324"/>
    <nd ref="33681229"/>
    <nd ref="33681252"/>
    <tag k="fixme:sign:no" v="2010-09-06"/>
    <tag k="highway" v="service"/>
    <tag k="name" v="Bruce Lane West"/>
    <tag k="source" v="survey"/>
    <tag k="source:name" v="historical"/>
  </way>
  <way id="76176299" version="1" timestamp="2010-09-06T08:41:42Z" uid="7617" user="Franc" changeset="5695779">
    <nd ref="898866058"/>
    <nd ref="898866045"/>
    <tag k="addr:interpolation" v="even"/>
  </way>
  <way id="76176299" version="2" timestamp="2010-12-25T21:41:29Z" uid="7617" user="Franc" changeset="6763901"/>
  <way id="76176300" version="1" timestamp="2010-09-06T08:41:42Z" uid="7617" user="Franc" changeset="5695779">
    <nd ref="898866049"/>
    <nd ref="898866048"/>
    <tag k="addr:interpolation" v="even"/>
  </way>
  <way id="76176300" version="2" timestamp="2012-02-13T05:25:07Z" uid="7523" user="inas" changeset="10670291"/>
  <way id="76176301" version="1" timestamp="2010-09-06T08:41:42Z" uid="7617" user="Franc" changeset="5695779">
    <nd ref="898866062"/>
    <nd ref="898866060"/>
    <tag k="addr:interpolation" v="even"/>
  </way>
  <way id="76176301" version="2" timestamp="2012-02-13T05:25:07Z" uid="7523" user="inas" changeset="10670291"/>
  <way id="76176297" version="3" timestamp="2012-07-10T08:56:19Z" uid="713671" user="auspod" changeset="12170744">
    <nd ref="53265713"/>
    <nd ref="33681324"/>
    <nd ref="1819916163"/>
    <nd ref="1819916150"/>
    <tag k="fixme:sign:no" v="2010-09-06"/>
    <tag k="highway" v="service"/>
    <tag k="name" v="Bruce Lane West"/>
    <tag k="source" v="survey"/>
    <tag k="source:name" v="historical"/>
  </way>
  <way id="76176297" version="4" timestamp="2012-07-20T02:42:40Z" uid="722137" user="OSMF Redaction Account" changeset="12358498">
    <nd ref="1819916163"/>
    <nd ref="1819916150"/>
    <tag k="name" v="Bruce Lane West"/>
    <tag k="source:name" v="historical"/>
  </way>
  <way id="76176297" version="5" timestamp="2012-07-25T15:28:21Z" uid="504708" user="HillWithSmallFields" changeset="12488127">
    <nd ref="1837777916"/>
    <nd ref="1819916163"/>
    <nd ref="1819916150"/>
    <tag k="highway" v="service"/>
    <tag k="name" v="Bruce Lane West"/>
    <tag k="source:name" v="historical"/>
  </way>
  <way id="76176297" version="6" timestamp="2012-07-28T16:07:10Z" uid="105255" user="Sven L" changeset="12524629">
    <nd ref="1837777916"/>
    <nd ref="1841534311"/>
    <nd ref="1819916163"/>
    <nd ref="1819916150"/>
    <tag k="highway" v="service"/>
    <tag k="name" v="Bruce Lane West"/>
    <tag k="service" v="alley"/>
    <tag k="source:name" v="historical"/>
  </way>
</osm>
