<?xml version='1.0' encoding='UTF-8'?>
<osm version="0.6" generator="libosmium/2.20.0">
  <way id="7620558" version="4" timestamp="2010-03-27T12:01:57Z" uid="20587" user="balrog-kun" changeset="4245371">
    <nd ref="55201656"/>
    <nd ref="32599417"/>
    <nd ref="32599418"/>
    <nd ref="32581189"/>
    <nd ref="32599420"/>
    <nd ref="55201626"/>
    <nd ref="591660940"/>
    <nd ref="55201628"/>
    <nd ref="55201632"/>
    <tag k="highway" v="motorway"/>
    <tag k="layer" v="1"/>
    <tag k="name" v="Chino Valley Freeway"/>
    <tag k="oneway" v="yes"/>
    <tag k="ref" v="CA 71"/>
  </way>
  <way id="7620558" version="5" timestamp="2011-07-18T19:19:08Z" uid="4951" user="PeterIto" changeset="8761895">
    <nd ref="55201656"/>
    <nd ref="1365814730"/>
    <tag k="highway" v="motorway"/>
    <tag k="layer" v="1"/>
    <tag k="name" v="Chino Valley Freeway"/>
    <tag k="oneway" v="yes"/>
    <tag k="ref" v="CA 71"/>
  </way>
  <way id="7620558" version="6" timestamp="2011-07-22T05:51:18Z" uid="4951" user="PeterIto" changeset="8794689">
    <nd ref="55201656"/>
    <nd ref="1365814730"/>
    <tag k="highway" v="motorway"/>
    <tag k="name" v="Chino Valley Freeway"/>
    <tag k="oneway" v="yes"/>
    <tag k="ref" v="CA 71"/>
  </way>
  <way id="7620558" version="7" timestamp="2011-07-29T09:25:31Z" uid="207745" user="NE2" changeset="8861519">
    <nd ref="55201656"/>
    <nd ref="1365814730"/>
    <tag k="highway" v="motorway"/>
    <tag k="hov" v="lane"/>
    <tag k="lanes" v="4"/>
    <tag k="name" v="Chino Valley Freeway"/>
    <tag k="note:lanes" v="left lane is hov"/>
    <tag k="oneway" v="yes"/>
    <tag k="ref" v="CA 71"/>
  </way>
  <way id="7620562" version="3" timestamp="2010-03-27T12:01:58Z" uid="20587" user="balrog-kun" changeset="4245371">
    <nd ref="55201632"/>
    <nd ref="55201633"/>
    <nd ref="32599426"/>
    <tag k="highway" v="motorway"/>
    <tag k="name" v="Chino Valley Freeway"/>
    <tag k="oneway" v="yes"/>
    <tag k="ref" v="CA 71"/>
  </way>
  <way id="7620562" version="4" timestamp="2011-07-29T09:25:33Z" uid="207745" user="NE2" changeset="8861519">
    <nd ref="55201632"/>
    <nd ref="55201633"/>
    <nd ref="32599426"/>
    <tag k="highway" v="motorway"/>
    <tag k="hov" v="lane"/>
    <tag k="lanes" v="4"/>
    <tag k="name" v="Chino Valley Freeway"/>
    <tag k="note:lanes" v="left lane is hov"/>
    <tag k="oneway" v="yes"/>
    <tag k="ref" v="CA 71"/>
  </way>
  <way id="7620565" version="6" timestamp="2010-03-27T12:01:58Z" uid="20587" user="balrog-kun" changeset="4245371">
    <nd ref="55201659"/>
    <nd ref="585282528"/>
    <nd ref="55214399"/>
    <nd ref="32583661"/>
    <nd ref="32583662"/>
    <tag k="highway" v="motorway"/>
    <tag k="name" v="Chino Valley Freeway"/>
    <tag k="oneway" v="yes"/>
    <tag k="ref" v="CA 71"/>
  </way>
  <way id="7620565" version="7" timestamp="2011-07-29T09:25:35Z" uid="207745" user="NE2" changeset="8861519">
    <nd ref="55201659"/>
    <nd ref="585282528"/>
    <nd ref="55214399"/>
    <nd ref="32583661"/>
    <nd ref="32583662"/>
    <tag k="highway" v="motorway"/>
    <tag k="hov" v="lane"/>
    <tag k="lanes" v="4"/>
    <tag k="name" v="Chino Valley Freeway"/>
    <tag k="note:lanes" v="left lane is hov"/>
    <tag k="oneway" v="yes"/>
    <tag k="ref" v="CA 71"/>
  </way>
  <way id="7620569" version="4" timestamp="2010-03-27T12:01:58Z" uid="20587" user="balrog-kun" changeset="4245371">
    <nd ref="32583658"/>
    <nd ref="591660767"/>
    <nd ref="32583659"/>
    <nd ref="32583660"/>
    <nd ref="32581158"/>
    <nd ref="55201659"/>
    <tag k="highway" v="motorway"/>
    <tag k="layer" v="1"/>
    <tag k="name" v="Chino Valley Freeway"/>
    <tag k="oneway" v="yes"/>
    <tag k="ref" v="CA 71"/>
  </way>
  <way id="7620569" version="5" timestamp="2011-07-18T19:19:08Z" uid="4951" user="PeterIto" changeset="8761895">
    <nd ref="32583658"/>
    <nd ref="1365814711"/>
    <tag k="bridge" v="yes"/>
    <tag k="highway" v="motorway"/>
    <tag k="layer" v="1"/>
    <tag k="name" v="Chino Valley Freeway"/>
    <tag k="oneway" v="yes"/>
    <tag k="ref" v="CA 71"/>
  </way>
  <way id="7620569" version="6" timestamp="2011-07-29T09:25:29Z" uid="207745" user="NE2" changeset="8861519">
    <nd ref="32583658"/>
    <nd ref="1365814711"/>
    <tag k="bridge" v="yes"/>
    <tag k="highway" v="motorway"/>
    <tag k="hov" v="lane"/>
    <tag k="lanes" v="4"/>
    <tag k="layer" v="1"/>
    <tag k="name" v="Chino Valley Freeway"/>
    <tag k="note:lanes" v="left lane is hov"/>
    <tag k="oneway" v="yes"/>
    <tag k="ref" v="CA 71"/>
  </way>
  <way id="7620558" version="8" timestamp="2012-07-18T20:43:49Z" uid="722137" user="OSMF Redaction Account" changeset="12297735"/>
  <way id="7620562" version="5" timestamp="2012-07-19T15:27:41Z" uid="722137" user="OSMF Redaction Account" changeset="12334682"/>
  <way id="7620565" version="8" timestamp="2012-07-18T20:43:49Z" uid="722137" user="OSMF Redaction Account" changeset="12297735"/>
  <way id="7620569" version="7" timestamp="2012-07-19T15:27:41Z" uid="722137" user="OSMF Redaction Account" changeset="12334682"/>
</osm>
