<?xml version='1.0' encoding='UTF-8'?>
<osm version="0.6" generator="libosmium/2.20.0">
  <way id="76233553" version="4" timestamp="2010-12-18T00:32:22Z" uid="34428" user="usm78-gis" changeset="6692245">
    <nd ref="899319584"/>
    <nd ref="262116"/>
    <tag k="highway" v="primary"/>
    <tag k="maxspeed" v="60"/>
    <tag k="name" v="Ленинградское шоссе"/>
    <tag k="ref" v="А129"/>
  </way>
  <way id="76233553" version="5" timestamp="2011-02-28T15:46:16Z" uid="95117" user="one_half_3544" changeset="7421625">
    <nd ref="899319584"/>
    <nd ref="262116"/>
    <tag k="highway" v="primary"/>
    <tag k="maxspeed" v="60"/>
    <tag k="name" v="Ленинградское шоссе"/>
    <tag k="ref" v="А129"/>
    <tag k="snowplowing" v="yes"/>
  </way>
  <way id="76233553" version="6" timestamp="2011-08-17T13:49:22Z" uid="24305" user="ZCC" changeset="9048194">
    <nd ref="899319584"/>
    <nd ref="262116"/>
    <tag k="highway" v="primary"/>
    <tag k="maxspeed" v="RU:urban"/>
    <tag k="name" v="Ленинградское шоссе"/>
    <tag k="ref" v="А129"/>
    <tag k="snowplowing" v="yes"/>
    <tag k="source:maxspeed" v="implicit"/>
  </way>
  <way id="76233553" version="7" timestamp="2012-02-22T01:13:02Z" uid="39040" user="Dinamik" changeset="10755449">
    <nd ref="899319584"/>
    <nd ref="262116"/>
    <nd ref="297537397"/>
    <tag k="highway" v="trunk"/>
    <tag k="maxspeed" v="RU:urban"/>
    <tag k="name" v="Ленинградское шоссе"/>
    <tag k="ref" v="А129"/>
    <tag k="snowplowing" v="yes"/>
    <tag k="source:maxspeed" v="implicit"/>
  </way>
  <way id="76233553" version="8" timestamp="2012-05-21T19:18:18Z" uid="453265" user="EagleX" changeset="11665270">
    <nd ref="899319584"/>
    <nd ref="262116"/>
    <nd ref="1761325623"/>
    <nd ref="297537397"/>
    <tag k="highway" v="trunk"/>
    <tag k="maxspeed" v="RU:urban"/>
    <tag k="name" v="Ленинградское шоссе"/>
    <tag k="ref" v="А129"/>
    <tag k="snowplowing" v="yes"/>
    <tag k="source:maxspeed" v="implicit"/>
  </way>
  <way id="76233553" version="9" timestamp="2012-08-28T13:17:50Z" uid="95117" user="one_half_3544" changeset="12892494">
    <nd ref="899319584"/>
    <nd ref="1886709339"/>
    <nd ref="262116"/>
    <nd ref="1761325623"/>
    <nd ref="297537397"/>
    <tag k="highway" v="trunk"/>
    <tag k="maxspeed" v="RU:urban"/>
    <tag k="name" v="Ленинградское шоссе"/>
    <tag k="ref" v="А129"/>
    <tag k="snowplowing" v="yes"/>
    <tag k="source:maxspeed" v="implicit"/>
  </way>
</osm>
