<?xml version='1.0' encoding='UTF-8'?>
<osm version="0.6" generator="libosmium/2.20.0">
  <way id="76281498" version="2" timestamp="2010-11-04T07:50:50Z" uid="33382" user="de_muur" changeset="6286306">
    <nd ref="320954739"/>
    <nd ref="564313148"/>
    <tag k="highway" v="tertiary"/>
    <tag k="ref" v="K 13"/>
    <tag k="surface" v="paved"/>
  </way>
  <way id="76281498" version="3" timestamp="2010-11-04T08:06:43Z" uid="33382" user="de_muur" changeset="6286393">
    <nd ref="320954739"/>
    <nd ref="564313148"/>
    <tag k="highway" v="tertiary"/>
    <tag k="maxspeed" v="50"/>
    <tag k="ref" v="K 13"/>
    <tag k="surface" v="paved"/>
  </way>
  <way id="76281498" version="4" timestamp="2012-02-06T08:20:37Z" uid="14002" user="Gehrke" changeset="10600811">
    <nd ref="320954739"/>
    <nd ref="564313148"/>
    <tag k="highway" v="tertiary"/>
    <tag k="maxspeed" v="50"/>
    <tag k="name" v="Kükenmoorer Dorfstraße"/>
    <tag k="ref" v="K 13"/>
    <tag k="surface" v="paved"/>
  </way>
  <way id="76281498" version="5" timestamp="2012-02-08T15:50:12Z" uid="45882" user="smarties" changeset="10625786">
    <nd ref="1623986279"/>
    <nd ref="564313148"/>
    <tag k="highway" v="tertiary"/>
    <tag k="maxspeed" v="50"/>
    <tag k="name" v="Kükenmoorer Dorfstraße"/>
    <tag k="ref" v="K 13"/>
    <tag k="surface" v="paved"/>
  </way>
  <way id="76281498" version="6" timestamp="2012-03-18T13:49:26Z" uid="45882" user="smarties" changeset="11018991"/>
  <way id="76281499" version="3" timestamp="2011-04-18T18:46:25Z" uid="33382" user="de_muur" changeset="7899955">
    <nd ref="899836994"/>
    <nd ref="290384515"/>
    <tag k="bridge" v="yes"/>
    <tag k="highway" v="tertiary"/>
    <tag k="layer" v="1"/>
    <tag k="maxspeed" v="50"/>
    <tag k="name" v="Stellichte"/>
    <tag k="ref" v="K 124"/>
    <tag k="surface" v="paved"/>
  </way>
  <way id="76281499" version="4" timestamp="2012-03-07T19:59:48Z" uid="45882" user="smarties" changeset="10903302"/>
  <way id="76281507" version="3" timestamp="2011-04-18T18:46:31Z" uid="33382" user="de_muur" changeset="7899955">
    <nd ref="278263227"/>
    <nd ref="274954593"/>
    <nd ref="274954594"/>
    <nd ref="290382982"/>
    <nd ref="279174812"/>
    <nd ref="29587890"/>
    <tag k="highway" v="tertiary"/>
    <tag k="maxspeed" v="50"/>
    <tag k="name" v="Stellichte"/>
    <tag k="ref" v="K 124"/>
    <tag k="surface" v="paved"/>
  </way>
  <way id="76281507" version="4" timestamp="2012-02-08T14:59:11Z" uid="45882" user="smarties" changeset="10625336">
    <nd ref="278263227"/>
    <nd ref="274954593"/>
    <nd ref="274954594"/>
    <nd ref="290382982"/>
    <nd ref="279174812"/>
    <nd ref="1623939647"/>
    <tag k="highway" v="tertiary"/>
    <tag k="maxspeed" v="50"/>
    <tag k="name" v="Stellichte"/>
    <tag k="ref" v="K 124"/>
    <tag k="surface" v="paved"/>
  </way>
  <way id="76281507" version="5" timestamp="2012-03-07T19:59:47Z" uid="45882" user="smarties" changeset="10903302"/>
  <way id="76281509" version="3" timestamp="2011-04-18T18:46:35Z" uid="33382" user="de_muur" changeset="7899955">
    <nd ref="290384515"/>
    <nd ref="1250294740"/>
    <nd ref="290384521"/>
    <nd ref="278263227"/>
    <tag k="highway" v="tertiary"/>
    <tag k="maxspeed" v="50"/>
    <tag k="name" v="Stellichte"/>
    <tag k="ref" v="K 124"/>
    <tag k="surface" v="paved"/>
  </way>
  <way id="76281509" version="4" timestamp="2012-03-07T19:59:48Z" uid="45882" user="smarties" changeset="10903302"/>
  <way id="76281516" version="3" timestamp="2011-04-18T18:46:28Z" uid="33382" user="de_muur" changeset="7899955">
    <nd ref="280560768"/>
    <nd ref="274954587"/>
    <nd ref="1250294748"/>
    <tag k="highway" v="tertiary"/>
    <tag k="ref" v="K 124"/>
    <tag k="surface" v="paved"/>
  </way>
  <way id="76281516" version="4" timestamp="2012-02-08T14:35:58Z" uid="45882" user="smarties" changeset="10625134"/>
  <way id="76281518" version="2" timestamp="2010-11-04T07:50:49Z" uid="33382" user="de_muur" changeset="6286306">
    <nd ref="564313148"/>
    <nd ref="247383781"/>
    <nd ref="247383780"/>
    <nd ref="607091640"/>
    <nd ref="247383800"/>
    <nd ref="247383801"/>
    <nd ref="247383798"/>
    <tag k="highway" v="tertiary"/>
    <tag k="ref" v="K 13"/>
    <tag k="surface" v="paved"/>
  </way>
  <way id="76281518" version="3" timestamp="2010-11-04T08:06:42Z" uid="33382" user="de_muur" changeset="6286393">
    <nd ref="564313148"/>
    <nd ref="247383781"/>
    <nd ref="247383780"/>
    <nd ref="607091640"/>
    <nd ref="247383800"/>
    <nd ref="247383801"/>
    <nd ref="247383798"/>
    <tag k="highway" v="tertiary"/>
    <tag k="maxspeed" v="50"/>
    <tag k="ref" v="K 13"/>
    <tag k="surface" v="paved"/>
  </way>
  <way id="76281518" version="4" timestamp="2012-02-06T08:20:38Z" uid="14002" user="Gehrke" changeset="10600811">
    <nd ref="564313148"/>
    <nd ref="247383781"/>
    <nd ref="247383780"/>
    <nd ref="607091640"/>
    <nd ref="247383800"/>
    <nd ref="247383801"/>
    <nd ref="247383798"/>
    <tag k="highway" v="tertiary"/>
    <tag k="maxspeed" v="50"/>
    <tag k="name" v="Kükenmoorer Dorfstraße"/>
    <tag k="ref" v="K 13"/>
    <tag k="surface" v="paved"/>
  </way>
  <way id="76281518" version="5" timestamp="2012-03-18T13:49:26Z" uid="45882" user="smarties" changeset="11018991"/>
</osm>
