<?xml version='1.0' encoding='UTF-8'?>
<osm version="0.6" generator="libosmium/2.20.0">
  <way id="7638515" version="4" timestamp="2009-08-03T10:24:23Z" uid="4467" user="Rosscoe" changeset="2023807">
    <nd ref="25841980"/>
    <nd ref="25842009"/>
    <tag k="highway" v="residential"/>
    <tag k="name" v="Peel Street"/>
    <tag k="oneway" v="yes"/>
  </way>
  <way id="7638635" version="7" timestamp="2009-07-31T14:28:13Z" uid="4467" user="Rosscoe" changeset="1995211">
    <nd ref="25775413"/>
    <nd ref="25775374"/>
    <nd ref="25775373"/>
    <nd ref="442883420"/>
    <nd ref="442883388"/>
    <tag k="highway" v="tertiary"/>
    <tag k="name" v="Redmond Street"/>
    <tag k="oneway" v="yes"/>
  </way>
  <way id="7638635" version="8" timestamp="2009-08-30T03:03:39Z" uid="10829" user="myfanwy" changeset="2308400">
    <nd ref="25775413"/>
    <nd ref="25775374"/>
    <nd ref="25775373"/>
    <nd ref="442883388"/>
    <tag k="highway" v="tertiary"/>
    <tag k="name" v="Redmond Street"/>
    <tag k="oneway" v="yes"/>
  </way>
  <way id="7638635" version="9" timestamp="2011-07-07T21:50:09Z" uid="10829" user="myfanwy" changeset="8661544">
    <nd ref="25775413"/>
    <nd ref="1353027532"/>
    <nd ref="1353027537"/>
    <nd ref="1353027524"/>
    <nd ref="1353027534"/>
    <nd ref="25775374"/>
    <nd ref="25775373"/>
    <nd ref="442883388"/>
    <tag k="highway" v="tertiary"/>
    <tag k="name" v="Redmond Street"/>
    <tag k="oneway" v="yes"/>
  </way>
  <way id="7638635" version="10" timestamp="2011-07-24T01:20:06Z" uid="341519" user="lcmortensen" changeset="8811353">
    <nd ref="25775413"/>
    <nd ref="1353027532"/>
    <nd ref="1353027537"/>
    <nd ref="1353027524"/>
    <nd ref="1353027534"/>
    <nd ref="25775374"/>
    <nd ref="25775373"/>
    <nd ref="442883388"/>
    <tag k="highway" v="secondary"/>
    <tag k="name" v="Redmond Street"/>
    <tag k="oneway" v="yes"/>
  </way>
  <way id="7638827" version="5" timestamp="2009-07-31T14:28:12Z" uid="4467" user="Rosscoe" changeset="1995211">
    <nd ref="25775343"/>
    <nd ref="261561936"/>
    <nd ref="25775345"/>
    <nd ref="25775351"/>
    <nd ref="261561508"/>
    <nd ref="25775367"/>
    <tag k="highway" v="residential"/>
    <tag k="name" v="Dedwood Terrace"/>
    <tag k="oneway" v="yes"/>
  </way>
  <way id="7638515" version="5" timestamp="2012-07-21T13:29:36Z" uid="722137" user="OSMF Redaction Account" changeset="12410164">
    <nd ref="25841980"/>
    <nd ref="25842009"/>
    <tag k="highway" v="residential"/>
    <tag k="name" v="Peel Street"/>
    <tag k="oneway" v="true"/>
  </way>
  <way id="7638635" version="11" timestamp="2012-07-21T13:29:38Z" uid="722137" user="OSMF Redaction Account" changeset="12410164">
    <nd ref="25775413"/>
    <nd ref="1353027532"/>
    <nd ref="1353027537"/>
    <nd ref="1353027524"/>
    <nd ref="1353027534"/>
    <nd ref="25775374"/>
    <nd ref="25775373"/>
    <nd ref="442883388"/>
    <tag k="highway" v="secondary"/>
    <tag k="name" v="Redmond Street"/>
    <tag k="oneway" v="true"/>
  </way>
  <way id="7638827" version="6" timestamp="2012-07-21T13:29:40Z" uid="722137" user="OSMF Redaction Account" changeset="12410164">
    <nd ref="25775343"/>
    <nd ref="261561936"/>
    <nd ref="25775345"/>
    <nd ref="25775351"/>
    <nd ref="261561508"/>
    <nd ref="25775367"/>
    <tag k="highway" v="residential"/>
    <tag k="name" v="Dedwood Terrace"/>
    <tag k="oneway" v="true"/>
  </way>
</osm>
