<?xml version='1.0' encoding='UTF-8'?>
<osm version="0.6" generator="libosmium/2.20.0">
  <way id="76525747" version="2" timestamp="2010-11-21T06:00:53Z" uid="7617" user="Franc" changeset="6419954">
    <nd ref="901956467"/>
    <nd ref="997418547"/>
    <nd ref="901956436"/>
    <tag k="cycleway" v="lane"/>
    <tag k="highway" v="residential"/>
    <tag k="source" v="nearmap"/>
  </way>
  <way id="76525747" version="3" timestamp="2010-11-21T06:52:29Z" uid="7617" user="Franc" changeset="6420065">
    <nd ref="901956467"/>
    <nd ref="997418547"/>
    <nd ref="997429740"/>
    <nd ref="901956436"/>
    <tag k="cycleway" v="lane"/>
    <tag k="highway" v="residential"/>
    <tag k="source" v="nearmap"/>
  </way>
  <way id="76525747" version="4" timestamp="2012-03-16T03:55:13Z" uid="611852" user="LenJJ" changeset="10994867">
    <nd ref="901956467"/>
    <nd ref="997418547"/>
    <nd ref="997429740"/>
    <nd ref="901956436"/>
    <tag k="cycleway" v="lane"/>
    <tag k="highway" v="residential"/>
    <tag k="name" v="O&apos;Bryan Street"/>
    <tag k="source" v="nearmap"/>
  </way>
  <way id="76525749" version="2" timestamp="2010-11-21T05:03:49Z" uid="7617" user="Franc" changeset="6419862">
    <nd ref="866075071"/>
    <nd ref="866075112"/>
    <nd ref="866075074"/>
    <nd ref="251225963"/>
    <nd ref="866075075"/>
    <nd ref="251225964"/>
    <nd ref="866075108"/>
    <nd ref="901956445"/>
    <nd ref="251225965"/>
    <nd ref="251225966"/>
    <nd ref="901956469"/>
    <nd ref="901956419"/>
    <nd ref="251225967"/>
    <nd ref="251225975"/>
    <nd ref="251225981"/>
    <nd ref="997415258"/>
    <nd ref="901956453"/>
    <nd ref="251225982"/>
    <nd ref="529778821"/>
    <nd ref="251225983"/>
    <tag k="cycleway" v="lane"/>
    <tag k="highway" v="secondary"/>
    <tag k="name" v="Ranfurly Way"/>
    <tag k="ref" v="C256"/>
    <tag k="source" v="nearmap - cycle lanes"/>
  </way>
  <way id="76525749" version="3" timestamp="2010-11-21T06:31:04Z" uid="7617" user="Franc" changeset="6419999">
    <nd ref="866075071"/>
    <nd ref="866075112"/>
    <nd ref="866075074"/>
    <nd ref="251225963"/>
    <nd ref="866075075"/>
    <nd ref="251225964"/>
    <nd ref="866075108"/>
    <nd ref="901956445"/>
    <nd ref="251225965"/>
    <nd ref="251225966"/>
    <nd ref="997424017"/>
    <nd ref="901956469"/>
    <nd ref="901956419"/>
    <nd ref="251225967"/>
    <nd ref="251225975"/>
    <nd ref="251225981"/>
    <nd ref="997415258"/>
    <nd ref="901956453"/>
    <nd ref="251225982"/>
    <nd ref="529778821"/>
    <nd ref="251225983"/>
    <tag k="cycleway" v="lane"/>
    <tag k="highway" v="secondary"/>
    <tag k="name" v="Ranfurly Way"/>
    <tag k="ref" v="C256"/>
    <tag k="source" v="nearmap - cycle lanes"/>
  </way>
  <way id="76525749" version="4" timestamp="2010-11-21T06:52:30Z" uid="7617" user="Franc" changeset="6420065">
    <nd ref="866075071"/>
    <nd ref="866075112"/>
    <nd ref="866075074"/>
    <nd ref="251225963"/>
    <nd ref="866075075"/>
    <nd ref="251225964"/>
    <nd ref="866075108"/>
    <nd ref="997429714"/>
    <nd ref="901956445"/>
    <nd ref="251225965"/>
    <nd ref="251225966"/>
    <nd ref="997424017"/>
    <nd ref="901956469"/>
    <nd ref="901956419"/>
    <nd ref="997429767"/>
    <nd ref="251225967"/>
    <nd ref="251225975"/>
    <nd ref="251225981"/>
    <nd ref="997415258"/>
    <nd ref="901956453"/>
    <nd ref="251225982"/>
    <nd ref="529778821"/>
    <nd ref="251225983"/>
    <tag k="cycleway" v="lane"/>
    <tag k="highway" v="secondary"/>
    <tag k="name" v="Ranfurly Way"/>
    <tag k="ref" v="C256"/>
    <tag k="source" v="nearmap - cycle lanes"/>
  </way>
  <way id="76525749" version="5" timestamp="2012-03-15T06:06:37Z" uid="611852" user="LenJJ" changeset="10985089">
    <nd ref="866075071"/>
    <nd ref="866075112"/>
    <nd ref="866075074"/>
    <nd ref="251225963"/>
    <nd ref="866075075"/>
    <nd ref="251225964"/>
    <nd ref="866075108"/>
    <nd ref="997429714"/>
    <nd ref="901956445"/>
    <nd ref="251225965"/>
    <nd ref="251225966"/>
    <nd ref="997424017"/>
    <nd ref="901956469"/>
    <nd ref="901956419"/>
    <nd ref="997429767"/>
    <nd ref="251225967"/>
    <nd ref="251225975"/>
    <nd ref="251225981"/>
    <nd ref="997415258"/>
    <nd ref="901956453"/>
    <nd ref="251225982"/>
    <nd ref="529778821"/>
    <nd ref="251225983"/>
    <tag k="cycleway" v="lane"/>
    <tag k="highway" v="secondary"/>
    <tag k="name" v="Ranfurly Way"/>
    <tag k="ref" v="C256"/>
    <tag k="source" v="nearmap - cycle lanes"/>
  </way>
  <way id="76525749" version="6" timestamp="2012-03-15T06:32:28Z" uid="611852" user="LenJJ" changeset="10985089">
    <nd ref="866075071"/>
    <nd ref="866075112"/>
    <nd ref="866075074"/>
    <nd ref="251225963"/>
    <nd ref="866075075"/>
    <nd ref="251225964"/>
    <nd ref="866075108"/>
    <nd ref="997429714"/>
    <nd ref="901956445"/>
    <nd ref="251225965"/>
    <tag k="cycleway" v="lane"/>
    <tag k="highway" v="secondary"/>
    <tag k="name" v="Ranfurly Way"/>
    <tag k="ref" v="C256"/>
    <tag k="source" v="nearmap - cycle lanes"/>
  </way>
  <way id="76525757" version="2" timestamp="2010-11-21T05:32:50Z" uid="7617" user="Franc" changeset="6419901">
    <nd ref="901956447"/>
    <nd ref="997416787"/>
    <nd ref="997416683"/>
    <nd ref="901956449"/>
    <tag k="cycleway" v="lane"/>
    <tag k="highway" v="residential"/>
    <tag k="source" v="nearmap"/>
  </way>
  <way id="76525757" version="3" timestamp="2012-03-15T06:37:06Z" uid="611852" user="LenJJ" changeset="10985089">
    <nd ref="901956447"/>
    <nd ref="997416787"/>
    <nd ref="997416683"/>
    <nd ref="901956449"/>
    <tag k="cycleway" v="lane"/>
    <tag k="highway" v="residential"/>
    <tag k="name" v="Box Street"/>
    <tag k="source" v="nearmap"/>
  </way>
  <way id="76525761" version="2" timestamp="2010-11-21T06:00:53Z" uid="7617" user="Franc" changeset="6419954">
    <nd ref="901956465"/>
    <nd ref="901956468"/>
    <nd ref="997418443"/>
    <nd ref="901956440"/>
    <nd ref="901956431"/>
    <tag k="highway" v="residential"/>
    <tag k="source" v="nearmap"/>
  </way>
  <way id="76525761" version="3" timestamp="2011-05-09T12:38:49Z" uid="6513" user="Glen" changeset="8092162">
    <nd ref="901956465"/>
    <nd ref="901956468"/>
    <nd ref="997418443"/>
    <nd ref="901956440"/>
    <nd ref="1278131714"/>
    <nd ref="901956431"/>
    <tag k="highway" v="residential"/>
    <tag k="source" v="nearmap"/>
  </way>
  <way id="76525761" version="4" timestamp="2012-03-16T03:55:14Z" uid="611852" user="LenJJ" changeset="10994867">
    <nd ref="901956465"/>
    <nd ref="901956468"/>
    <nd ref="997418443"/>
    <nd ref="901956440"/>
    <nd ref="1278131714"/>
    <nd ref="901956431"/>
    <tag k="highway" v="residential"/>
    <tag k="name" v="Smith Street"/>
    <tag k="source" v="nearmap"/>
  </way>
  <way id="76525771" version="2" timestamp="2010-11-21T06:52:28Z" uid="7617" user="Franc" changeset="6420065">
    <nd ref="901956436"/>
    <nd ref="997429857"/>
    <nd ref="901956446"/>
    <tag k="highway" v="residential"/>
    <tag k="source" v="nearmap"/>
  </way>
  <way id="76525771" version="3" timestamp="2011-05-09T12:38:49Z" uid="6513" user="Glen" changeset="8092162">
    <nd ref="901956436"/>
    <nd ref="1278131709"/>
    <nd ref="997429857"/>
    <nd ref="901956446"/>
    <tag k="highway" v="residential"/>
    <tag k="source" v="nearmap"/>
  </way>
  <way id="76525771" version="4" timestamp="2012-03-16T03:55:14Z" uid="611852" user="LenJJ" changeset="10994867">
    <nd ref="901956436"/>
    <nd ref="1278131709"/>
    <nd ref="997429857"/>
    <nd ref="901956446"/>
    <tag k="highway" v="residential"/>
    <tag k="name" v="O&apos;Bryan Street"/>
    <tag k="source" v="nearmap"/>
  </way>
  <way id="76525747" version="5" timestamp="2012-07-19T09:42:34Z" uid="722137" user="OSMF Redaction Account" changeset="12316638">
    <nd ref="901956467"/>
    <nd ref="901956436"/>
    <tag k="cycleway" v="lane"/>
    <tag k="highway" v="residential"/>
    <tag k="name" v="O&apos;Bryan Street"/>
    <tag k="source" v="nearmap"/>
  </way>
  <way id="76525747" version="6" timestamp="2012-08-11T10:14:47Z" uid="168136" user="goldfishxyz" changeset="12688975">
    <nd ref="901956467"/>
    <nd ref="1861373001"/>
    <nd ref="901956436"/>
    <tag k="cycleway" v="lane"/>
    <tag k="highway" v="residential"/>
    <tag k="name" v="O&apos;Bryan Street"/>
    <tag k="source" v="nearmap"/>
  </way>
  <way id="76525749" version="7" timestamp="2012-07-19T09:42:38Z" uid="722137" user="OSMF Redaction Account" changeset="12316638">
    <nd ref="866075071"/>
    <nd ref="866075112"/>
    <nd ref="866075074"/>
    <nd ref="251225963"/>
    <nd ref="866075075"/>
    <nd ref="251225964"/>
    <nd ref="866075108"/>
    <nd ref="901956445"/>
    <nd ref="251225965"/>
    <tag k="cycleway" v="lane"/>
    <tag k="highway" v="secondary"/>
    <tag k="name" v="Ranfurly Way"/>
    <tag k="ref" v="C256"/>
    <tag k="source" v="nearmap - cycle lanes"/>
  </way>
  <way id="76525757" version="4" timestamp="2012-07-19T09:46:30Z" uid="722137" user="OSMF Redaction Account" changeset="12316771">
    <nd ref="901956447"/>
    <nd ref="901956449"/>
    <tag k="cycleway" v="lane"/>
    <tag k="highway" v="residential"/>
    <tag k="name" v="Box Street"/>
    <tag k="source" v="nearmap"/>
  </way>
  <way id="76525761" version="5" timestamp="2012-07-19T09:46:30Z" uid="722137" user="OSMF Redaction Account" changeset="12316771">
    <nd ref="901956465"/>
    <nd ref="901956468"/>
    <nd ref="901956440"/>
    <nd ref="1278131714"/>
    <nd ref="901956431"/>
    <tag k="highway" v="residential"/>
    <tag k="name" v="Smith Street"/>
    <tag k="source" v="nearmap"/>
  </way>
  <way id="76525771" version="5" timestamp="2012-07-19T09:42:35Z" uid="722137" user="OSMF Redaction Account" changeset="12316638">
    <nd ref="901956436"/>
    <nd ref="1278131709"/>
    <nd ref="901956446"/>
    <tag k="highway" v="residential"/>
    <tag k="name" v="O&apos;Bryan Street"/>
    <tag k="source" v="nearmap"/>
  </way>
</osm>
