<?xml version='1.0' encoding='UTF-8'?>
<osm version="0.6" generator="libosmium/2.20.0">
  <way id="7654017" version="2" timestamp="2007-12-25T16:14:02Z" uid="8619" user="cetest" changeset="422543">
    <nd ref="44496403"/>
    <nd ref="44496405"/>
    <tag k="AND_nosr_r" v="15081658"/>
    <tag k="highway" v="cycleway"/>
  </way>
  <way id="7654017" version="3" timestamp="2012-03-22T23:04:35Z" uid="36080" user="polderrunner" changeset="11068870"/>
  <way id="7654018" version="2" timestamp="2007-12-25T16:14:04Z" uid="8619" user="cetest" changeset="422543">
    <nd ref="44495526"/>
    <nd ref="44496403"/>
    <tag k="AND_nosr_r" v="15081656"/>
    <tag k="highway" v="cycleway"/>
  </way>
  <way id="7654018" version="3" timestamp="2012-03-22T23:04:35Z" uid="36080" user="polderrunner" changeset="11068870"/>
  <way id="7654056" version="2" timestamp="2007-10-27T16:30:03Z" uid="13367" user="nubok" changeset="331291">
    <nd ref="53809251"/>
    <nd ref="53809253"/>
    <nd ref="53809254"/>
    <nd ref="53809256"/>
    <nd ref="53809257"/>
    <nd ref="53809266"/>
    <nd ref="53809260"/>
    <nd ref="89136711"/>
    <nd ref="53809269"/>
    <nd ref="53809263"/>
    <nd ref="53809272"/>
    <nd ref="53809274"/>
    <nd ref="53809277"/>
    <nd ref="53809282"/>
    <nd ref="53809285"/>
    <nd ref="53809286"/>
    <nd ref="53809297"/>
    <nd ref="53809304"/>
    <nd ref="53809307"/>
    <nd ref="53809311"/>
    <nd ref="53809314"/>
    <tag k="created_by" v="Potlatch alpha"/>
    <tag k="highway" v="tertiary"/>
  </way>
  <way id="7654056" version="3" timestamp="2008-07-28T12:17:32Z" uid="42123" user="Ropino" changeset="616456"/>
  <way id="7654237" version="14" timestamp="2009-07-26T01:09:50Z" uid="20587" user="balrog-kun" changeset="1939866">
    <nd ref="31723297"/>
    <nd ref="31723888"/>
    <nd ref="253178088"/>
    <nd ref="55493789"/>
    <nd ref="31725321"/>
    <nd ref="31723248"/>
    <nd ref="448077430"/>
    <nd ref="31725327"/>
    <nd ref="253176591"/>
    <nd ref="55465328"/>
    <nd ref="132473150"/>
    <tag k="aeroway" v="runway"/>
    <tag k="name" v="15/33"/>
  </way>
  <way id="7654237" version="15" timestamp="2009-07-29T15:02:10Z" uid="20587" user="balrog-kun" changeset="1976574">
    <nd ref="31723297"/>
    <nd ref="31723888"/>
    <nd ref="253178088"/>
    <nd ref="55493789"/>
    <nd ref="31725321"/>
    <nd ref="31723248"/>
    <nd ref="448077430"/>
    <nd ref="31725327"/>
    <nd ref="253176591"/>
    <nd ref="55465328"/>
    <nd ref="132473150"/>
    <tag k="aeroway" v="runway"/>
    <tag k="ele" v="110"/>
    <tag k="name" v="15/33"/>
    <tag k="surface" v="concrete"/>
    <tag k="width" v="60"/>
  </way>
  <way id="7654237" version="16" timestamp="2011-01-02T05:36:36Z" uid="20587" user="balrog-kun" changeset="6835185">
    <nd ref="31723297"/>
    <nd ref="31723888"/>
    <nd ref="253178088"/>
    <nd ref="1078166515"/>
    <nd ref="55493789"/>
    <nd ref="31725321"/>
    <nd ref="31723248"/>
    <nd ref="448077430"/>
    <nd ref="31725327"/>
    <nd ref="253176591"/>
    <nd ref="55465328"/>
    <nd ref="132473150"/>
    <tag k="aeroway" v="runway"/>
    <tag k="ele" v="110"/>
    <tag k="name" v="15/33"/>
    <tag k="surface" v="concrete"/>
    <tag k="width" v="60"/>
  </way>
  <way id="7654237" version="17" timestamp="2011-01-03T02:49:30Z" uid="20587" user="balrog-kun" changeset="6845880">
    <nd ref="1080046918"/>
    <nd ref="31723297"/>
    <nd ref="31723888"/>
    <nd ref="253178088"/>
    <nd ref="1078166515"/>
    <nd ref="55493789"/>
    <nd ref="31725321"/>
    <nd ref="31723248"/>
    <nd ref="448077430"/>
    <nd ref="31725327"/>
    <nd ref="253176591"/>
    <nd ref="1080047124"/>
    <nd ref="55465328"/>
    <nd ref="132473150"/>
    <tag k="aeroway" v="runway"/>
    <tag k="ele" v="110"/>
    <tag k="name" v="15/33"/>
    <tag k="surface" v="asphalt"/>
    <tag k="width" v="60"/>
  </way>
  <way id="7654237" version="18" timestamp="2011-01-04T11:43:56Z" uid="20587" user="balrog-kun" changeset="6859645">
    <nd ref="1080046918"/>
    <nd ref="31723297"/>
    <nd ref="31723888"/>
    <nd ref="253178088"/>
    <nd ref="1078166515"/>
    <nd ref="55493789"/>
    <nd ref="31725321"/>
    <nd ref="31723248"/>
    <nd ref="448077430"/>
    <nd ref="31725327"/>
    <nd ref="253176591"/>
    <nd ref="1080047124"/>
    <nd ref="55465328"/>
    <nd ref="132473150"/>
    <tag k="aeroway" v="runway"/>
    <tag k="ele" v="110"/>
    <tag k="ref" v="15/33"/>
    <tag k="surface" v="asphalt"/>
    <tag k="width" v="60"/>
  </way>
  <way id="7654240" version="9" timestamp="2009-05-13T21:12:17Z" uid="20587" user="balrog-kun" changeset="1180487">
    <nd ref="31723247"/>
    <nd ref="31723892"/>
    <nd ref="395909743"/>
    <nd ref="31723889"/>
    <nd ref="31723248"/>
    <nd ref="253176736"/>
    <nd ref="55465329"/>
    <nd ref="253177859"/>
    <nd ref="31725320"/>
    <tag k="aeroway" v="runway"/>
    <tag k="created_by" v="Potlatch 0.7b"/>
    <tag k="name" v="11/29"/>
  </way>
  <way id="7654240" version="10" timestamp="2009-07-26T01:09:51Z" uid="20587" user="balrog-kun" changeset="1939866">
    <nd ref="31723247"/>
    <nd ref="31723892"/>
    <nd ref="395909743"/>
    <nd ref="31723889"/>
    <nd ref="448077456"/>
    <nd ref="31723248"/>
    <nd ref="253176736"/>
    <nd ref="55465329"/>
    <nd ref="253177859"/>
    <nd ref="31725320"/>
    <tag k="aeroway" v="runway"/>
    <tag k="name" v="11/29"/>
  </way>
  <way id="7654240" version="11" timestamp="2009-07-29T15:02:11Z" uid="20587" user="balrog-kun" changeset="1976574">
    <nd ref="31723247"/>
    <nd ref="31723892"/>
    <nd ref="395909743"/>
    <nd ref="31723889"/>
    <nd ref="448077456"/>
    <nd ref="31723248"/>
    <nd ref="253176736"/>
    <nd ref="55465329"/>
    <nd ref="253177859"/>
    <nd ref="31725320"/>
    <tag k="aeroway" v="runway"/>
    <tag k="ele" v="110"/>
    <tag k="name" v="11/29"/>
    <tag k="surface" v="concrete"/>
    <tag k="width" v="50"/>
  </way>
  <way id="7654240" version="12" timestamp="2011-01-02T05:36:31Z" uid="20587" user="balrog-kun" changeset="6835185">
    <nd ref="31723247"/>
    <nd ref="31723892"/>
    <nd ref="395909743"/>
    <nd ref="31723889"/>
    <nd ref="448077456"/>
    <nd ref="1078166975"/>
    <nd ref="31723248"/>
    <nd ref="253176736"/>
    <nd ref="55465329"/>
    <nd ref="1078166313"/>
    <tag k="aeroway" v="runway"/>
    <tag k="ele" v="110"/>
    <tag k="name" v="11/29"/>
    <tag k="surface" v="concrete"/>
    <tag k="width" v="50"/>
  </way>
  <way id="7654240" version="13" timestamp="2011-01-03T02:49:50Z" uid="20587" user="balrog-kun" changeset="6845880">
    <nd ref="31723247"/>
    <nd ref="31723892"/>
    <nd ref="395909743"/>
    <nd ref="31723889"/>
    <nd ref="448077456"/>
    <nd ref="1078166975"/>
    <nd ref="31723248"/>
    <nd ref="253176736"/>
    <nd ref="55465329"/>
    <nd ref="1078166313"/>
    <tag k="aeroway" v="runway"/>
    <tag k="ele" v="110"/>
    <tag k="name" v="11/29"/>
    <tag k="surface" v="asphalt"/>
    <tag k="width" v="50"/>
  </way>
  <way id="7654240" version="14" timestamp="2011-01-04T11:43:52Z" uid="20587" user="balrog-kun" changeset="6859645">
    <nd ref="31723247"/>
    <nd ref="31723892"/>
    <nd ref="395909743"/>
    <nd ref="31723889"/>
    <nd ref="448077456"/>
    <nd ref="1078166975"/>
    <nd ref="31723248"/>
    <nd ref="253176736"/>
    <nd ref="55465329"/>
    <nd ref="1078166313"/>
    <tag k="aeroway" v="runway"/>
    <tag k="ele" v="110"/>
    <tag k="ref" v="11/29"/>
    <tag k="surface" v="asphalt"/>
    <tag k="width" v="50"/>
  </way>
  <way id="7654240" version="15" timestamp="2011-02-10T21:38:44Z" uid="91056" user="Yarl" changeset="7249976">
    <nd ref="31723247"/>
    <nd ref="31723892"/>
    <nd ref="395909743"/>
    <nd ref="31723889"/>
    <nd ref="448077456"/>
    <nd ref="1078166975"/>
    <nd ref="31723248"/>
    <nd ref="253176736"/>
    <nd ref="55465329"/>
    <nd ref="1078166313"/>
    <tag k="aeroway" v="runway"/>
    <tag k="ele" v="110"/>
    <tag k="ref" v="11/29"/>
    <tag k="surface" v="asphalt"/>
    <tag k="width" v="50"/>
  </way>
  <way id="7654375" version="1" timestamp="2007-09-20T20:35:16Z" uid="6454" user="B10xxx" changeset="484736">
    <nd ref="26821794"/>
    <nd ref="28629450"/>
    <nd ref="28629500"/>
    <tag k="created_by" v="JOSM"/>
    <tag k="highway" v="pedestrian"/>
    <tag k="name" v="Michelsberg"/>
  </way>
  <way id="7654375" version="2" timestamp="2008-01-18T01:50:09Z" uid="6454" user="B10xxx" changeset="658570">
    <nd ref="26821794"/>
    <nd ref="28629450"/>
    <nd ref="28629500"/>
    <tag k="created_by" v="Potlatch 0.6c"/>
    <tag k="highway" v="pedestrian"/>
    <tag k="name" v="Michelsberg"/>
  </way>
  <way id="7654375" version="3" timestamp="2009-12-12T22:41:26Z" uid="55462" user="Lübeck" changeset="3359361">
    <nd ref="26821794"/>
    <nd ref="28629450"/>
    <nd ref="588135727"/>
    <nd ref="28629500"/>
    <tag k="highway" v="pedestrian"/>
    <tag k="name" v="Michelsberg"/>
  </way>
  <way id="7654375" version="4" timestamp="2009-12-14T09:17:52Z" uid="55462" user="Lübeck" changeset="3369958">
    <nd ref="26821794"/>
    <nd ref="28629450"/>
    <nd ref="588135727"/>
    <nd ref="28629500"/>
    <tag k="addr:city" v="Wiesbaden"/>
    <tag k="addr:country" v="DE"/>
    <tag k="addr:postcode" v="65183"/>
    <tag k="highway" v="pedestrian"/>
    <tag k="name" v="Michelsberg"/>
  </way>
  <way id="7654375" version="5" timestamp="2012-01-08T00:37:42Z" uid="328555" user="peb12345" changeset="10327352">
    <nd ref="26821794"/>
    <nd ref="28629450"/>
    <nd ref="588135727"/>
    <nd ref="1581898376"/>
    <tag k="addr:city" v="Wiesbaden"/>
    <tag k="addr:country" v="DE"/>
    <tag k="addr:postcode" v="65183"/>
    <tag k="highway" v="pedestrian"/>
    <tag k="name" v="Michelsberg"/>
  </way>
  <way id="7654375" version="6" timestamp="2012-01-09T15:00:27Z" uid="328555" user="peb12345" changeset="10342508"/>
  <way id="7654377" version="1" timestamp="2007-09-20T20:35:18Z" uid="6454" user="B10xxx" changeset="484736">
    <nd ref="28629500"/>
    <nd ref="36520319"/>
    <nd ref="36520320"/>
    <nd ref="36520321"/>
    <nd ref="26821787"/>
    <tag k="created_by" v="Potlatch alpha"/>
    <tag k="highway" v="pedestrian"/>
    <tag k="name" v="Langgasse"/>
  </way>
  <way id="7654377" version="2" timestamp="2008-10-29T17:59:02Z" uid="43824" user="JND" changeset="625786">
    <nd ref="28629500"/>
    <nd ref="36520319"/>
    <nd ref="36520320"/>
    <nd ref="308557197"/>
    <nd ref="36520321"/>
    <nd ref="26821787"/>
    <tag k="created_by" v="Potlatch alpha"/>
    <tag k="highway" v="pedestrian"/>
    <tag k="name" v="Langgasse"/>
  </way>
  <way id="7654377" version="3" timestamp="2009-04-15T10:32:34Z" uid="53867" user="Groppe" changeset="564402">
    <nd ref="28629500"/>
    <nd ref="376353464"/>
    <nd ref="36520319"/>
    <nd ref="36520320"/>
    <nd ref="308557197"/>
    <nd ref="36520321"/>
    <nd ref="26821787"/>
    <tag k="created_by" v="Potlatch 0.10f"/>
    <tag k="highway" v="pedestrian"/>
    <tag k="name" v="Langgasse"/>
  </way>
  <way id="7654377" version="4" timestamp="2009-04-15T10:33:58Z" uid="53867" user="Groppe" changeset="564402">
    <nd ref="28629500"/>
    <nd ref="376353464"/>
    <nd ref="36520319"/>
    <nd ref="376353963"/>
    <nd ref="36520320"/>
    <nd ref="308557197"/>
    <nd ref="36520321"/>
    <nd ref="26821787"/>
    <tag k="created_by" v="Potlatch 0.10f"/>
    <tag k="highway" v="pedestrian"/>
    <tag k="name" v="Langgasse"/>
  </way>
  <way id="7654377" version="5" timestamp="2009-09-13T21:33:04Z" uid="94353" user="Fips" changeset="2476149">
    <nd ref="28629500"/>
    <nd ref="376353464"/>
    <nd ref="36520319"/>
    <nd ref="376353963"/>
    <nd ref="36520320"/>
    <nd ref="308557197"/>
    <nd ref="36520321"/>
    <tag k="highway" v="pedestrian"/>
    <tag k="name" v="Langgasse"/>
  </way>
  <way id="7654377" version="6" timestamp="2009-12-12T22:41:26Z" uid="55462" user="Lübeck" changeset="3359361">
    <nd ref="28629500"/>
    <nd ref="588135731"/>
    <nd ref="376353464"/>
    <nd ref="36520319"/>
    <nd ref="376353963"/>
    <nd ref="36520320"/>
    <nd ref="308557197"/>
    <nd ref="36520321"/>
    <tag k="highway" v="pedestrian"/>
    <tag k="name" v="Langgasse"/>
  </way>
  <way id="7654377" version="7" timestamp="2009-12-14T09:17:49Z" uid="55462" user="Lübeck" changeset="3369958">
    <nd ref="28629500"/>
    <nd ref="588135731"/>
    <nd ref="376353464"/>
    <nd ref="36520319"/>
    <nd ref="376353963"/>
    <nd ref="36520320"/>
    <nd ref="308557197"/>
    <nd ref="36520321"/>
    <tag k="addr:city" v="Wiesbaden"/>
    <tag k="addr:country" v="DE"/>
    <tag k="addr:postcode" v="65183"/>
    <tag k="highway" v="pedestrian"/>
    <tag k="name" v="Langgasse"/>
  </way>
  <way id="7654377" version="8" timestamp="2011-04-30T22:03:15Z" uid="212897" user="richtest" changeset="8016073">
    <nd ref="28629500"/>
    <nd ref="588135731"/>
    <nd ref="376353464"/>
    <nd ref="36520319"/>
    <nd ref="376353963"/>
    <nd ref="36520320"/>
    <nd ref="308557197"/>
    <nd ref="1268155056"/>
    <nd ref="36520321"/>
    <tag k="addr:city" v="Wiesbaden"/>
    <tag k="addr:country" v="DE"/>
    <tag k="addr:postcode" v="65183"/>
    <tag k="highway" v="pedestrian"/>
    <tag k="name" v="Langgasse"/>
  </way>
  <way id="7654377" version="9" timestamp="2012-01-08T00:37:38Z" uid="328555" user="peb12345" changeset="10327352">
    <nd ref="1581898376"/>
    <nd ref="588135731"/>
    <nd ref="376353464"/>
    <nd ref="1581898378"/>
    <nd ref="376353963"/>
    <nd ref="1581898386"/>
    <nd ref="1581898394"/>
    <nd ref="1268155056"/>
    <nd ref="1581898398"/>
    <tag k="addr:city" v="Wiesbaden"/>
    <tag k="addr:country" v="DE"/>
    <tag k="addr:postcode" v="65183"/>
    <tag k="highway" v="pedestrian"/>
    <tag k="name" v="Langgasse"/>
  </way>
  <way id="7654377" version="10" timestamp="2012-01-09T15:00:26Z" uid="328555" user="peb12345" changeset="10342508"/>
  <way id="7654391" version="4" timestamp="2008-07-06T00:46:45Z" uid="6975" user="ulfl" changeset="404092">
    <nd ref="55467957"/>
    <nd ref="55467959"/>
    <nd ref="55467960"/>
    <nd ref="55467961"/>
    <nd ref="55467957"/>
    <tag k="amenity" v="place_of_worship"/>
    <tag k="building" v="church"/>
    <tag k="name" v="S:t Eriks Kyrka"/>
    <tag k="religion" v="christian"/>
  </way>
  <way id="7654391" version="5" timestamp="2011-12-31T13:25:19Z" uid="308" user="MichaelCollinson" changeset="10254652"/>
  <way id="7654690" version="1" timestamp="2007-09-20T20:45:02Z" uid="6454" user="B10xxx" changeset="484736">
    <nd ref="27095458"/>
    <nd ref="36520317"/>
    <tag k="created_by" v="JOSM"/>
    <tag k="highway" v="pedestrian"/>
    <tag k="name" v="Faulbrunnengasse"/>
  </way>
  <way id="7654690" version="2" timestamp="2009-11-12T22:11:00Z" uid="101372" user="tanjeff" changeset="3102255">
    <nd ref="27095458"/>
    <nd ref="36520317"/>
    <tag k="highway" v="pedestrian"/>
    <tag k="name" v="Faulbrunnenstraße"/>
  </way>
  <way id="7654690" version="3" timestamp="2010-06-22T11:43:23Z" uid="94353" user="Fips" changeset="5050447">
    <nd ref="27095458"/>
    <nd ref="36520317"/>
    <tag k="highway" v="pedestrian"/>
    <tag k="lit" v="yes"/>
    <tag k="name" v="Faulbrunnenstraße"/>
  </way>
  <way id="7654690" version="4" timestamp="2012-01-08T00:37:27Z" uid="328555" user="peb12345" changeset="10327352">
    <nd ref="27095458"/>
    <nd ref="1581898361"/>
    <tag k="highway" v="pedestrian"/>
    <tag k="lit" v="yes"/>
    <tag k="name" v="Faulbrunnenstraße"/>
  </way>
  <way id="7654690" version="5" timestamp="2012-01-09T15:00:24Z" uid="328555" user="peb12345" changeset="10342508"/>
  <way id="7654988" version="1" timestamp="2007-09-20T20:52:03Z" uid="6454" user="B10xxx" changeset="484736">
    <nd ref="27095470"/>
    <nd ref="36520318"/>
    <tag k="created_by" v="JOSM"/>
    <tag k="highway" v="pedestrian"/>
    <tag k="name" v="Mauritiusgasse"/>
  </way>
  <way id="7654988" version="2" timestamp="2008-01-01T23:07:29Z" uid="6454" user="B10xxx" changeset="516422">
    <nd ref="27095470"/>
    <nd ref="202072887"/>
    <nd ref="36520318"/>
    <tag k="created_by" v="Potlatch 0.6"/>
    <tag k="highway" v="pedestrian"/>
    <tag k="name" v="Mauritiusgasse"/>
  </way>
  <way id="7654988" version="3" timestamp="2008-01-18T01:52:46Z" uid="6454" user="B10xxx" changeset="658570">
    <nd ref="27095470"/>
    <nd ref="236223311"/>
    <nd ref="202072887"/>
    <nd ref="36520318"/>
    <tag k="created_by" v="Potlatch 0.6c"/>
    <tag k="highway" v="pedestrian"/>
    <tag k="name" v="Mauritiusgasse"/>
  </way>
  <way id="7654988" version="4" timestamp="2008-01-18T01:53:29Z" uid="6454" user="B10xxx" changeset="658570">
    <nd ref="27095470"/>
    <nd ref="236223311"/>
    <nd ref="202072887"/>
    <nd ref="36520318"/>
    <tag k="created_by" v="Potlatch 0.6c"/>
    <tag k="highway" v="pedestrian"/>
    <tag k="name" v="Mauritiusgasse"/>
  </way>
  <way id="7654988" version="5" timestamp="2009-11-24T22:24:51Z" uid="101372" user="tanjeff" changeset="3208416">
    <nd ref="27095470"/>
    <nd ref="236223311"/>
    <nd ref="202072887"/>
    <nd ref="36520318"/>
    <tag k="highway" v="pedestrian"/>
    <tag k="name" v="Mauritiusstraße"/>
  </way>
  <way id="7654988" version="6" timestamp="2012-01-08T00:37:42Z" uid="328555" user="peb12345" changeset="10327352">
    <nd ref="1581898370"/>
    <nd ref="236223311"/>
    <nd ref="1581898371"/>
    <nd ref="1581898368"/>
    <tag k="highway" v="pedestrian"/>
    <tag k="name" v="Mauritiusstraße"/>
  </way>
  <way id="7654988" version="7" timestamp="2012-01-09T15:00:26Z" uid="328555" user="peb12345" changeset="10342508"/>
  <way id="7654240" version="16" timestamp="2012-05-24T08:52:26Z" uid="163575" user="JeV" changeset="11687691">
    <nd ref="31723247"/>
    <nd ref="31723892"/>
    <nd ref="395909743"/>
    <nd ref="31723889"/>
    <nd ref="448077456"/>
    <nd ref="1078166975"/>
    <nd ref="31723248"/>
    <nd ref="253176736"/>
    <nd ref="55465329"/>
    <nd ref="1078166313"/>
    <nd ref="31725320"/>
    <tag k="aeroway" v="runway"/>
    <tag k="ele" v="110"/>
    <tag k="ref" v="11/29"/>
    <tag k="surface" v="asphalt"/>
    <tag k="width" v="50"/>
  </way>
</osm>
