<?xml version='1.0' encoding='UTF-8'?>
<osm version="0.6" generator="libosmium/2.20.0">
  <way id="76581006" version="6" timestamp="2011-01-13T16:55:47Z" uid="115477" user="wowik" changeset="6959027">
    <nd ref="902599547"/>
    <nd ref="902600426"/>
    <tag k="highway" v="service"/>
    <tag k="living_street" v="yes"/>
    <tag k="name" v="улица Калинина"/>
    <tag k="surface" v="gravel"/>
  </way>
  <way id="76581008" version="6" timestamp="2011-01-13T16:55:33Z" uid="115477" user="wowik" changeset="6959027">
    <nd ref="902600289"/>
    <nd ref="902599552"/>
    <tag k="highway" v="service"/>
    <tag k="living_street" v="yes"/>
    <tag k="name" v="улица Есенина"/>
    <tag k="surface" v="gravel"/>
  </way>
  <way id="76581030" version="6" timestamp="2011-01-13T16:55:49Z" uid="115477" user="wowik" changeset="6959027">
    <nd ref="902600351"/>
    <nd ref="902599623"/>
    <nd ref="902598913"/>
    <nd ref="902599125"/>
    <nd ref="902599011"/>
    <nd ref="902599934"/>
    <nd ref="902599156"/>
    <nd ref="902600120"/>
    <nd ref="902598949"/>
    <tag k="highway" v="service"/>
    <tag k="living_street" v="yes"/>
    <tag k="name" v="улица Суворова"/>
    <tag k="surface" v="gravel"/>
  </way>
  <way id="76581092" version="6" timestamp="2011-01-13T16:55:54Z" uid="115477" user="wowik" changeset="6959027">
    <nd ref="902599264"/>
    <nd ref="902599898"/>
    <nd ref="902599125"/>
    <nd ref="902600054"/>
    <nd ref="902599301"/>
    <nd ref="902600233"/>
    <nd ref="902599474"/>
    <nd ref="902600372"/>
    <nd ref="902599650"/>
    <tag k="highway" v="service"/>
    <tag k="living_street" v="yes"/>
    <tag k="name" v="улица Калинина"/>
    <tag k="surface" v="gravel"/>
  </way>
  <way id="76581393" version="1" timestamp="2010-09-08T11:59:34Z" uid="43967" user="railsnail" changeset="5716526">
    <nd ref="902604777"/>
    <nd ref="902604771"/>
    <nd ref="902604766"/>
    <nd ref="902604780"/>
    <nd ref="902604769"/>
    <nd ref="902604775"/>
    <nd ref="902604786"/>
    <nd ref="902604790"/>
    <tag k="name" v="Amlach-Sillian"/>
    <tag k="operator" v="TIWAG"/>
    <tag k="power" v="line"/>
    <tag k="voltage" v="110000"/>
  </way>
  <way id="76581393" version="2" timestamp="2010-11-07T17:08:27Z" uid="43967" user="railsnail" changeset="6313504">
    <nd ref="981239602"/>
    <nd ref="981239676"/>
    <nd ref="902604777"/>
    <tag k="name" v="Amlach-Sillian"/>
    <tag k="operator" v="TIWAG"/>
    <tag k="power" v="line"/>
    <tag k="source" v="geoimage.at"/>
    <tag k="voltage" v="110000"/>
  </way>
  <way id="76581393" version="3" timestamp="2011-01-01T11:48:24Z" uid="51987" user="pronti" changeset="6827052"/>
  <way id="76581394" version="1" timestamp="2010-09-08T11:59:35Z" uid="43967" user="railsnail" changeset="5716526">
    <nd ref="902604779"/>
    <nd ref="457101561"/>
    <tag k="layer" v="-1"/>
    <tag k="waterway" v="stream"/>
  </way>
  <way id="76581394" version="2" timestamp="2010-11-07T17:08:28Z" uid="43967" user="railsnail" changeset="6313504">
    <nd ref="981239598"/>
    <nd ref="902604779"/>
    <nd ref="457101561"/>
    <tag k="layer" v="-1"/>
    <tag k="waterway" v="stream"/>
  </way>
  <way id="76581394" version="3" timestamp="2012-03-20T19:23:22Z" uid="598746" user="karl321" changeset="11044253"/>
  <way id="76581395" version="1" timestamp="2010-09-08T11:59:35Z" uid="43967" user="railsnail" changeset="5716526">
    <nd ref="902604782"/>
    <nd ref="902604773"/>
    <tag k="bridge" v="yes"/>
    <tag k="highway" v="track"/>
    <tag k="layer" v="1"/>
  </way>
  <way id="76581006" version="7" timestamp="2012-04-06T10:05:35Z" uid="131244" user="Torx" changeset="11199059">
    <nd ref="692970900"/>
    <nd ref="902600426"/>
    <tag k="highway" v="service"/>
    <tag k="living_street" v="yes"/>
    <tag k="name" v="улица Калинина"/>
    <tag k="surface" v="gravel"/>
  </way>
  <way id="76581006" version="8" timestamp="2012-07-21T01:16:00Z" uid="722137" user="OSMF Redaction Account" changeset="12397810">
    <nd ref="692970900"/>
    <nd ref="902600426"/>
    <tag k="highway" v="service"/>
    <tag k="name" v="улица Калинина"/>
    <tag k="surface" v="gravel"/>
  </way>
  <way id="76581008" version="7" timestamp="2012-07-21T01:15:59Z" uid="722137" user="OSMF Redaction Account" changeset="12397810">
    <nd ref="902600289"/>
    <nd ref="902599552"/>
    <tag k="highway" v="service"/>
    <tag k="name" v="улица Есенина"/>
    <tag k="surface" v="gravel"/>
  </way>
  <way id="76581030" version="7" timestamp="2012-04-06T10:09:41Z" uid="131244" user="Torx" changeset="11199202">
    <nd ref="902600351"/>
    <nd ref="902599125"/>
    <nd ref="902598949"/>
    <tag k="highway" v="service"/>
    <tag k="living_street" v="yes"/>
    <tag k="name" v="улица Суворова"/>
    <tag k="surface" v="gravel"/>
  </way>
  <way id="76581030" version="8" timestamp="2012-07-21T01:15:59Z" uid="722137" user="OSMF Redaction Account" changeset="12397810">
    <nd ref="902600351"/>
    <nd ref="902599125"/>
    <nd ref="902598949"/>
    <tag k="highway" v="service"/>
    <tag k="name" v="улица Суворова"/>
    <tag k="surface" v="gravel"/>
  </way>
  <way id="76581092" version="7" timestamp="2012-04-06T10:09:37Z" uid="131244" user="Torx" changeset="11199202">
    <nd ref="902599264"/>
    <nd ref="902599125"/>
    <nd ref="902600233"/>
    <nd ref="902599650"/>
    <tag k="highway" v="service"/>
    <tag k="living_street" v="yes"/>
    <tag k="name" v="улица Калинина"/>
    <tag k="surface" v="gravel"/>
  </way>
  <way id="76581092" version="8" timestamp="2012-04-17T08:00:16Z" uid="39086" user="AlexeyS" changeset="11329972"/>
  <way id="76581395" version="2" timestamp="2012-04-18T10:21:40Z" uid="45481" user="borisC" changeset="11342221"/>
</osm>
