<?xml version='1.0' encoding='UTF-8'?>
<osm version="0.6" generator="libosmium/2.20.0">
  <way id="76672440" version="2" timestamp="2010-10-04T10:50:46Z" uid="115477" user="wowik" changeset="5952289">
    <nd ref="903552433"/>
    <nd ref="903552428"/>
    <nd ref="903552439"/>
    <nd ref="903552393"/>
    <nd ref="903552433"/>
    <tag k="building" v="train_station"/>
    <tag k="name" v="ЖД станция"/>
    <tag k="name:ru" v="ЖД станция"/>
  </way>
  <way id="76672440" version="3" timestamp="2010-12-01T20:56:16Z" uid="155088" user="mixdm" changeset="6508482">
    <nd ref="903552433"/>
    <nd ref="903552428"/>
    <nd ref="903552439"/>
    <nd ref="903552393"/>
    <nd ref="903552433"/>
    <tag k="building" v="yes"/>
    <tag k="name" v="ЖД станция"/>
    <tag k="name:ru" v="ЖД станция"/>
  </way>
  <way id="76672440" version="4" timestamp="2011-01-14T21:40:56Z" uid="115477" user="wowik" changeset="6971724">
    <nd ref="903552433"/>
    <nd ref="903552428"/>
    <nd ref="903552439"/>
    <nd ref="903552393"/>
    <nd ref="903552433"/>
    <tag k="building" v="train_station"/>
    <tag k="name" v="ЖД станция"/>
    <tag k="name:ru" v="ЖД станция"/>
  </way>
  <way id="76672440" version="5" timestamp="2011-06-19T14:09:21Z" uid="155088" user="mixdm" changeset="8484386">
    <nd ref="903552433"/>
    <nd ref="903552428"/>
    <nd ref="903552439"/>
    <nd ref="903552393"/>
    <nd ref="903552433"/>
    <tag k="building" v="yes"/>
    <tag k="name" v="ЖД вокзал"/>
    <tag k="name:ru" v="ЖД вокзал"/>
  </way>
  <way id="76672441" version="3" timestamp="2010-10-04T10:47:14Z" uid="115477" user="wowik" changeset="5952268">
    <nd ref="903552424"/>
    <nd ref="903552441"/>
    <nd ref="903552429"/>
    <nd ref="903552436"/>
    <nd ref="903552424"/>
    <tag k="addr:housenumber" v="1"/>
    <tag k="addr:street" v="Вокзальная ул."/>
    <tag k="building" v="train_station"/>
  </way>
  <way id="76672441" version="4" timestamp="2010-12-18T18:58:29Z" uid="379768" user="IZT" changeset="6699206">
    <nd ref="903552424"/>
    <nd ref="903552441"/>
    <nd ref="903552429"/>
    <nd ref="903552436"/>
    <nd ref="903552424"/>
    <tag k="addr:street" v="Вокзальная ул."/>
    <tag k="amenity" v="public_building"/>
    <tag k="building" v="yes"/>
    <tag k="name" v="ж\д Вокзал"/>
  </way>
  <way id="76672441" version="5" timestamp="2010-12-18T19:59:14Z" uid="379768" user="IZT" changeset="6699896">
    <nd ref="903552424"/>
    <nd ref="903552441"/>
    <nd ref="903552429"/>
    <nd ref="903552436"/>
    <nd ref="903552424"/>
    <tag k="addr:street" v="Вокзальная ул."/>
    <tag k="building" v="yes"/>
    <tag k="name" v="ж\д Вокзал"/>
  </way>
  <way id="76672441" version="6" timestamp="2012-03-19T13:05:38Z" uid="91828" user="levizna2" changeset="11029417">
    <nd ref="903552424"/>
    <nd ref="903552441"/>
    <nd ref="903552429"/>
    <nd ref="903552436"/>
    <nd ref="903552424"/>
    <tag k="addr:housenumber" v="15"/>
    <tag k="addr:street" v="Вокзальная ул."/>
    <tag k="building" v="yes"/>
    <tag k="name" v="ж\д Вокзал"/>
  </way>
  <way id="76672440" version="6" timestamp="2012-05-21T18:48:59Z" uid="159783" user="andrejczyk" changeset="11664962">
    <nd ref="903552433"/>
    <nd ref="903552428"/>
    <nd ref="903552439"/>
    <nd ref="903552393"/>
    <nd ref="903552433"/>
    <tag k="building" v="yes"/>
    <tag k="name" v="ЖД вокзал"/>
    <tag k="name:be" v="Чыгуначны вакзал"/>
    <tag k="name:ru" v="ЖД вокзал"/>
  </way>
  <way id="76672440" version="7" timestamp="2012-05-21T18:55:45Z" uid="159783" user="andrejczyk" changeset="11665041">
    <nd ref="903552433"/>
    <nd ref="903552428"/>
    <nd ref="903552439"/>
    <nd ref="903552393"/>
    <nd ref="903552433"/>
    <tag k="building" v="yes"/>
    <tag k="name" v="ЖД вокзал"/>
    <tag k="name:be" v="Чыгуначны вакзал"/>
    <tag k="name:ru" v="ЖД вокзал"/>
  </way>
</osm>
