<?xml version='1.0' encoding='UTF-8'?>
<osm version="0.6" generator="libosmium/2.20.0">
  <way id="76854455" version="1" timestamp="2010-09-10T15:58:43Z" uid="10712" user="Kraeml" changeset="5742384">
    <nd ref="288860294"/>
    <nd ref="905353514"/>
    <nd ref="905353518"/>
    <nd ref="905353519"/>
    <nd ref="905353521"/>
    <nd ref="905353532"/>
    <nd ref="905353491"/>
    <nd ref="905353494"/>
    <nd ref="905353510"/>
    <nd ref="905353525"/>
    <nd ref="905353529"/>
    <nd ref="288860294"/>
    <tag k="addr:city" v="Tolmin"/>
    <tag k="addr:country" v="SLO"/>
    <tag k="addr:housenumber" v="64"/>
    <tag k="addr:postcode" v="5220"/>
    <tag k="addr:street" v="Volarije"/>
    <tag k="caravans" v="yes"/>
    <tag k="email" v="campvili@siol.net"/>
    <tag k="maxtents" v="25"/>
    <tag k="name" v="Camp Vili"/>
    <tag k="phone" v="+386(0)581 13 13"/>
    <tag k="tents" v="yes"/>
    <tag k="tourism" v="camp_site"/>
    <tag k="website" v="www.camp-vili.si"/>
  </way>
  <way id="76854455" version="2" timestamp="2010-09-10T16:01:08Z" uid="10712" user="Kraeml" changeset="5742404">
    <nd ref="288860294"/>
    <nd ref="905353514"/>
    <nd ref="905353518"/>
    <nd ref="905353519"/>
    <nd ref="905353521"/>
    <nd ref="905353532"/>
    <nd ref="905353491"/>
    <nd ref="905353494"/>
    <nd ref="905353510"/>
    <nd ref="905353525"/>
    <nd ref="905353529"/>
    <nd ref="288860294"/>
    <tag k="addr:city" v="Tolmin"/>
    <tag k="addr:country" v="SLO"/>
    <tag k="addr:housenumber" v="64"/>
    <tag k="addr:postcode" v="5220"/>
    <tag k="addr:street" v="Volarije"/>
    <tag k="caravans" v="yes"/>
    <tag k="email" v="campvili@siol.net"/>
    <tag k="maxtents" v="25"/>
    <tag k="name" v="Camp Vili"/>
    <tag k="note" v="Auf der WEB-Seite werden max 25 Plätze für Wohnmobile und Zelte angegeben"/>
    <tag k="phone" v="+386(0)581 13 13"/>
    <tag k="tents" v="yes"/>
    <tag k="tourism" v="camp_site"/>
    <tag k="website" v="www.camp-vili.si"/>
  </way>
  <way id="76854455" version="3" timestamp="2010-09-10T16:10:35Z" uid="10712" user="Kraeml" changeset="5742461">
    <nd ref="288860294"/>
    <nd ref="905353514"/>
    <nd ref="905353518"/>
    <nd ref="905353519"/>
    <nd ref="905353521"/>
    <nd ref="905353532"/>
    <nd ref="905353491"/>
    <nd ref="905353494"/>
    <nd ref="905353510"/>
    <nd ref="905353525"/>
    <nd ref="905353529"/>
    <nd ref="288860294"/>
    <tag k="addr:city" v="Tolmin"/>
    <tag k="addr:country" v="SL"/>
    <tag k="addr:housenumber" v="64"/>
    <tag k="addr:postcode" v="5220"/>
    <tag k="addr:street" v="Volarije"/>
    <tag k="caravans" v="yes"/>
    <tag k="email" v="campvili@siol.net"/>
    <tag k="maxtents" v="25"/>
    <tag k="name" v="Camp Vili"/>
    <tag k="note" v="Auf der WEB-Seite werden max 25 Plätze für Wohnmobile und Zelte angegeben"/>
    <tag k="operator" v="Viljem Perdih s.p."/>
    <tag k="phone" v="+386(0)581 13 13"/>
    <tag k="tents" v="yes"/>
    <tag k="tourism" v="camp_site"/>
    <tag k="website" v="www.camp-vili.si"/>
  </way>
  <way id="76854455" version="4" timestamp="2010-09-10T16:17:12Z" uid="10712" user="Kraeml" changeset="5742512">
    <nd ref="288860294"/>
    <nd ref="905353514"/>
    <nd ref="905353518"/>
    <nd ref="905353519"/>
    <nd ref="905353521"/>
    <nd ref="905353532"/>
    <nd ref="905353491"/>
    <nd ref="905353494"/>
    <nd ref="905353510"/>
    <nd ref="905353525"/>
    <nd ref="905353529"/>
    <nd ref="288860294"/>
    <tag k="addr:city" v="Tolmin"/>
    <tag k="addr:country" v="SL"/>
    <tag k="addr:housenumber" v="64"/>
    <tag k="addr:postcode" v="5220"/>
    <tag k="addr:street" v="Volarije"/>
    <tag k="capacity" v="25"/>
    <tag k="caravans" v="yes"/>
    <tag k="email" v="campvili@siol.net"/>
    <tag k="internet_access" v="yes"/>
    <tag k="maxtents" v="25"/>
    <tag k="name" v="Camp Vili"/>
    <tag k="note" v="Auf der WEB-Seite werden max 25 Plätze für Wohnmobile und Zelte angegeben"/>
    <tag k="operator" v="Viljem Perdih s.p."/>
    <tag k="phone" v="+386(0)581 13 13"/>
    <tag k="phone2" v="+386(0)31 711 288"/>
    <tag k="phone3" v="+386(0)31 578 282"/>
    <tag k="tents" v="yes"/>
    <tag k="tourism" v="camp_site"/>
    <tag k="website" v="www.camp-vili.si"/>
  </way>
  <way id="76854455" version="5" timestamp="2010-09-10T16:24:42Z" uid="10712" user="Kraeml" changeset="5742577">
    <nd ref="288860294"/>
    <nd ref="905353514"/>
    <nd ref="905353518"/>
    <nd ref="905353519"/>
    <nd ref="905353521"/>
    <nd ref="905353532"/>
    <nd ref="905353491"/>
    <nd ref="905353494"/>
    <nd ref="905353510"/>
    <nd ref="905353525"/>
    <nd ref="905353529"/>
    <nd ref="288860294"/>
    <tag k="addr:city" v="Tolmin"/>
    <tag k="addr:country" v="SL"/>
    <tag k="addr:housenumber" v="64"/>
    <tag k="addr:postcode" v="5220"/>
    <tag k="addr:street" v="Volarije"/>
    <tag k="capacity" v="25"/>
    <tag k="caravans" v="yes"/>
    <tag k="email" v="campvili@siol.net"/>
    <tag k="internet_access" v="yes"/>
    <tag k="maxtents" v="25"/>
    <tag k="name" v="Camp Vili"/>
    <tag k="note" v="Auf der WEB-Seite werden max 25 Plätze für Wohnmobile und Zelte angegeben"/>
    <tag k="operator" v="Viljem Perdih s.p."/>
    <tag k="phone" v="+386 581 13 13"/>
    <tag k="phone2" v="+386 31 711 288"/>
    <tag k="phone3" v="+386 31 578 282"/>
    <tag k="tents" v="yes"/>
    <tag k="tourism" v="camp_site"/>
    <tag k="website" v="www.camp-vili.si"/>
  </way>
  <way id="76854455" version="6" timestamp="2011-09-29T08:53:32Z" uid="275821" user="Ramzes" changeset="9425529">
    <nd ref="288860294"/>
    <nd ref="905353514"/>
    <nd ref="905353518"/>
    <nd ref="905353519"/>
    <nd ref="905353521"/>
    <nd ref="905353532"/>
    <nd ref="905353491"/>
    <nd ref="905353494"/>
    <nd ref="905353510"/>
    <nd ref="905353525"/>
    <nd ref="905353529"/>
    <nd ref="288860294"/>
    <tag k="addr:city" v="Tolmin"/>
    <tag k="addr:country" v="SI"/>
    <tag k="addr:housenumber" v="64"/>
    <tag k="addr:postcode" v="5220"/>
    <tag k="addr:street" v="Volarije"/>
    <tag k="capacity" v="25"/>
    <tag k="caravans" v="yes"/>
    <tag k="email" v="campvili@siol.net"/>
    <tag k="internet_access" v="yes"/>
    <tag k="maxtents" v="25"/>
    <tag k="name" v="Camp Vili"/>
    <tag k="note" v="Auf der WEB-Seite werden max 25 Plätze für Wohnmobile und Zelte angegeben"/>
    <tag k="operator" v="Viljem Perdih s.p."/>
    <tag k="phone" v="+386 581 13 13"/>
    <tag k="phone2" v="+386 31 711 288"/>
    <tag k="phone3" v="+386 31 578 282"/>
    <tag k="tents" v="yes"/>
    <tag k="tourism" v="camp_site"/>
    <tag k="website" v="www.camp-vili.si"/>
  </way>
  <way id="76854455" version="7" timestamp="2011-12-03T20:01:00Z" uid="92274" user="adjuva" changeset="10024298">
    <nd ref="288860294"/>
    <nd ref="905353514"/>
    <nd ref="905353518"/>
    <nd ref="905353519"/>
    <nd ref="905353521"/>
    <nd ref="905353532"/>
    <nd ref="905353491"/>
    <nd ref="905353494"/>
    <nd ref="905353510"/>
    <nd ref="905353525"/>
    <nd ref="905353529"/>
    <nd ref="288860294"/>
    <tag k="addr:city" v="Tolmin"/>
    <tag k="addr:country" v="SI"/>
    <tag k="addr:housenumber" v="64"/>
    <tag k="addr:postcode" v="5220"/>
    <tag k="addr:street" v="Volarije"/>
    <tag k="capacity" v="25"/>
    <tag k="caravans" v="yes"/>
    <tag k="email" v="campvili@siol.net"/>
    <tag k="internet_access" v="yes"/>
    <tag k="maxtents" v="25"/>
    <tag k="name" v="Camp Vili"/>
    <tag k="note" v="Auf der WEB-Seite werden max 25 Plätze für Wohnmobile und Zelte angegeben"/>
    <tag k="operator" v="Viljem Perdih s.p."/>
    <tag k="phone" v="+386 581 13 13"/>
    <tag k="phone:2" v="+386 31 711 288"/>
    <tag k="phone:3" v="+386 31 578 282"/>
    <tag k="tents" v="yes"/>
    <tag k="tourism" v="camp_site"/>
    <tag k="website" v="www.camp-vili.si"/>
  </way>
  <way id="76854455" version="8" timestamp="2012-05-24T22:51:02Z" uid="398086" user="lesko987" changeset="11694321">
    <nd ref="288860294"/>
    <nd ref="905353514"/>
    <nd ref="905353518"/>
    <nd ref="905353519"/>
    <nd ref="905353521"/>
    <nd ref="905353532"/>
    <nd ref="905353491"/>
    <nd ref="905353494"/>
    <nd ref="905353510"/>
    <nd ref="905353525"/>
    <nd ref="905353529"/>
    <nd ref="288860294"/>
    <tag k="addr:city" v="Tolmin"/>
    <tag k="addr:country" v="SI"/>
    <tag k="addr:housenumber" v="64"/>
    <tag k="addr:postcode" v="5220"/>
    <tag k="addr:street" v="Volarije"/>
    <tag k="capacity" v="25"/>
    <tag k="caravans" v="yes"/>
    <tag k="contact:email" v="campvili@siol.net"/>
    <tag k="contact:mobile" v="+386 31 578 282"/>
    <tag k="contact:mobile2" v="+386 31 711 288"/>
    <tag k="contact:phone" v="+386 581 13 13"/>
    <tag k="contact:website" v="www.camp-vili.si"/>
    <tag k="internet_access" v="yes"/>
    <tag k="maxtents" v="25"/>
    <tag k="name" v="Camp Vili"/>
    <tag k="note" v="Auf der WEB-Seite werden max 25 Plätze für Wohnmobile und Zelte angegeben"/>
    <tag k="operator" v="Viljem Perdih s.p."/>
    <tag k="tents" v="yes"/>
    <tag k="tourism" v="camp_site"/>
  </way>
  <way id="76854455" version="9" timestamp="2012-07-16T13:18:51Z" uid="722137" user="OSMF Redaction Account" changeset="12244906"/>
</osm>
