<?xml version='1.0' encoding='UTF-8'?>
<osm version="0.6" generator="libosmium/2.20.0">
  <way id="76931227" version="3" timestamp="2011-02-05T11:32:33Z" uid="4467" user="Rosscoe" changeset="7191234">
    <nd ref="35081256"/>
    <nd ref="35081257"/>
    <nd ref="35081258"/>
    <tag k="highway" v="primary"/>
    <tag k="maxspeed" v="50"/>
    <tag k="name" v="Wallace Street"/>
    <tag k="ref" v="MR54"/>
  </way>
  <way id="76931227" version="4" timestamp="2011-03-15T10:37:36Z" uid="22094" user="Chadzopkyo" changeset="7564925">
    <nd ref="35081256"/>
    <nd ref="35081258"/>
    <tag k="highway" v="primary"/>
    <tag k="maxspeed" v="50"/>
    <tag k="name" v="Wallace Street"/>
    <tag k="ref" v="MR54"/>
  </way>
  <way id="76931227" version="5" timestamp="2012-07-19T09:01:52Z" uid="722137" user="OSMF Redaction Account" changeset="12315053">
    <nd ref="35081256"/>
    <nd ref="35081258"/>
    <tag k="highway" v="primary"/>
    <tag k="maxspeed" v="50"/>
    <tag k="name" v="Wallace Street"/>
    <tag k="road_number" v="MR54"/>
  </way>
</osm>
