<?xml version='1.0' encoding='UTF-8'?>
<osm version="0.6" generator="libosmium/2.20.0">
  <way id="7695325" version="20" timestamp="2009-11-06T15:48:42Z" uid="64756" user="alegria6208" changeset="3049322">
    <nd ref="11591777"/>
    <nd ref="55891442"/>
    <nd ref="429435853"/>
    <nd ref="324279232"/>
    <nd ref="55891444"/>
    <nd ref="432813988"/>
    <nd ref="429435855"/>
    <nd ref="454042097"/>
    <nd ref="55891449"/>
    <nd ref="452869344"/>
    <nd ref="454042096"/>
    <nd ref="452869362"/>
    <nd ref="442138848"/>
    <nd ref="243861707"/>
    <nd ref="454042094"/>
    <nd ref="452869361"/>
    <nd ref="55891452"/>
    <nd ref="454042092"/>
    <nd ref="442409228"/>
    <nd ref="444207155"/>
    <nd ref="429903058"/>
    <nd ref="443621815"/>
    <nd ref="429903059"/>
    <nd ref="558416637"/>
    <nd ref="55891457"/>
    <tag k="cycleway" v="track"/>
    <tag k="highway" v="residential"/>
    <tag k="maxspeed" v="30"/>
    <tag k="name" v="Birkenstraße"/>
    <tag k="segregated" v="no"/>
  </way>
  <way id="7695325" version="21" timestamp="2009-11-08T03:14:30Z" uid="36809" user="pfoten_weg_!_" changeset="3060646">
    <nd ref="11591777"/>
    <nd ref="55891442"/>
    <nd ref="429435853"/>
    <nd ref="324279232"/>
    <nd ref="55891444"/>
    <nd ref="432813988"/>
    <nd ref="429435855"/>
    <nd ref="454042097"/>
    <nd ref="55891449"/>
    <nd ref="452869344"/>
    <nd ref="454042096"/>
    <nd ref="452869362"/>
    <nd ref="442138848"/>
    <nd ref="243861707"/>
    <nd ref="454042094"/>
    <nd ref="452869361"/>
    <nd ref="55891452"/>
    <nd ref="454042092"/>
    <nd ref="442409228"/>
    <nd ref="444207155"/>
    <nd ref="429903058"/>
    <nd ref="443621815"/>
    <nd ref="429903059"/>
    <nd ref="558416637"/>
    <nd ref="55891457"/>
    <tag k="cycleway" v="track"/>
    <tag k="highway" v="residential"/>
    <tag k="maxspeed" v="30"/>
    <tag k="name" v="Birkenstraße"/>
    <tag k="segregated" v="no"/>
  </way>
  <way id="7695471" version="4" timestamp="2010-07-08T01:46:29Z" uid="74617" user="JohnSmith" changeset="5162525">
    <nd ref="55892496"/>
    <nd ref="141796884"/>
    <nd ref="543387496"/>
    <nd ref="55892522"/>
    <tag k="highway" v="residential"/>
    <tag k="maxspeed" v="50"/>
    <tag k="maxspeed:source" v="default residential speed limit in Australia"/>
    <tag k="source" v="yahoo_imagery"/>
  </way>
  <way id="7695471" version="5" timestamp="2011-04-11T10:38:57Z" uid="7617" user="Franc" changeset="7831678">
    <nd ref="55892496"/>
    <nd ref="141796884"/>
    <nd ref="543387496"/>
    <nd ref="55892522"/>
    <tag k="highway" v="residential"/>
    <tag k="maxspeed" v="50"/>
    <tag k="maxspeed:source" v="default residential speed limit in Australia"/>
    <tag k="name" v="Pemberton Lane"/>
    <tag k="source" v="nearmap"/>
    <tag k="source:name" v="survey"/>
  </way>
  <way id="7695471" version="6" timestamp="2012-01-15T06:28:19Z" uid="147510" user="woodpeck_fixbot" changeset="10394821">
    <nd ref="55892496"/>
    <nd ref="141796884"/>
    <nd ref="543387496"/>
    <nd ref="55892522"/>
    <tag k="highway" v="residential"/>
    <tag k="name" v="Pemberton Lane"/>
    <tag k="source" v="nearmap"/>
    <tag k="source:name" v="survey"/>
  </way>
  <way id="7695629" version="12" timestamp="2010-01-06T05:46:22Z" uid="7617" user="Franc" changeset="3551041">
    <nd ref="47509495"/>
    <nd ref="55896520"/>
    <nd ref="47509653"/>
    <nd ref="606307291"/>
    <tag k="cycleway" v="track"/>
    <tag k="highway" v="unclassified"/>
    <tag k="name" v="South Street"/>
    <tag k="rcn" v="yes"/>
    <tag k="rcn_ref" v="Parramatta River"/>
    <tag k="source" v="yahoo_imagery"/>
  </way>
  <way id="7695629" version="13" timestamp="2010-06-21T11:02:58Z" uid="20949" user="Ebenezer" changeset="5041542">
    <nd ref="47509495"/>
    <nd ref="55896520"/>
    <nd ref="47509653"/>
    <nd ref="606307291"/>
    <tag k="cycleway" v="track"/>
    <tag k="highway" v="unclassified"/>
    <tag k="name" v="South Street"/>
    <tag k="source" v="yahoo_imagery"/>
  </way>
  <way id="7695629" version="14" timestamp="2010-11-18T05:57:05Z" uid="320632" user="Zulu99" changeset="6397734">
    <nd ref="47509495"/>
    <nd ref="55896520"/>
    <nd ref="47509653"/>
    <nd ref="606307291"/>
    <tag k="cycleway" v="lane"/>
    <tag k="highway" v="unclassified"/>
    <tag k="name" v="South Street"/>
    <tag k="source" v="yahoo_imagery"/>
  </way>
  <way id="7695629" version="15" timestamp="2011-09-17T13:17:58Z" uid="523498" user="chandrabala" changeset="9323797">
    <nd ref="47509495"/>
    <nd ref="55896520"/>
    <nd ref="1435400615"/>
    <nd ref="47509653"/>
    <nd ref="1435400616"/>
    <nd ref="606307291"/>
    <tag k="cycleway" v="lane"/>
    <tag k="highway" v="unclassified"/>
    <tag k="name" v="South Street"/>
    <tag k="source" v="yahoo_imagery"/>
  </way>
  <way id="7695659" version="6" timestamp="2009-11-06T14:57:19Z" uid="64756" user="alegria6208" changeset="3048918">
    <nd ref="21273588"/>
    <nd ref="21273519"/>
    <nd ref="21273615"/>
    <nd ref="55896140"/>
    <nd ref="449554703"/>
    <nd ref="55896143"/>
    <nd ref="60232044"/>
    <nd ref="449554734"/>
    <nd ref="55896145"/>
    <nd ref="323094263"/>
    <nd ref="55896146"/>
    <nd ref="449554742"/>
    <nd ref="55896148"/>
    <tag k="highway" v="secondary"/>
    <tag k="name" v="Bahnhofstraße"/>
    <tag k="oneway" v="no"/>
    <tag k="ref" v="St 2370"/>
  </way>
  <way id="7695659" version="7" timestamp="2009-11-08T03:14:12Z" uid="36809" user="pfoten_weg_!_" changeset="3060646">
    <nd ref="21273588"/>
    <nd ref="21273519"/>
    <nd ref="21273615"/>
    <nd ref="55896140"/>
    <nd ref="449554703"/>
    <nd ref="55896143"/>
    <nd ref="60232044"/>
    <nd ref="449554734"/>
    <nd ref="55896145"/>
    <nd ref="323094263"/>
    <nd ref="55896146"/>
    <nd ref="449554742"/>
    <nd ref="55896148"/>
    <tag k="highway" v="secondary"/>
    <tag k="name" v="Bahnhofstraße"/>
    <tag k="oneway" v="no"/>
    <tag k="ref" v="St 2370"/>
  </way>
  <way id="7695659" version="8" timestamp="2009-12-11T11:16:16Z" uid="64756" user="alegria6208" changeset="3348129">
    <nd ref="21273588"/>
    <nd ref="21273519"/>
    <nd ref="21273615"/>
    <nd ref="55896140"/>
    <nd ref="449554703"/>
    <nd ref="55896143"/>
    <nd ref="60232044"/>
    <nd ref="449554734"/>
    <nd ref="55896145"/>
    <nd ref="323094263"/>
    <nd ref="449554742"/>
    <nd ref="55896148"/>
    <tag k="highway" v="secondary"/>
    <tag k="name" v="Bahnhofstraße"/>
    <tag k="oneway" v="no"/>
    <tag k="ref" v="St 2370"/>
  </way>
  <way id="7695659" version="9" timestamp="2011-06-16T15:22:27Z" uid="471786" user="Hnikudr" changeset="8457080">
    <nd ref="21273588"/>
    <nd ref="21273519"/>
    <nd ref="21273615"/>
    <nd ref="55896140"/>
    <nd ref="449554703"/>
    <nd ref="55896143"/>
    <nd ref="60232044"/>
    <nd ref="449554734"/>
    <nd ref="55896145"/>
    <nd ref="323094263"/>
    <nd ref="449554742"/>
    <nd ref="55896148"/>
    <tag k="highway" v="secondary"/>
    <tag k="name" v="Bahnhofstraße"/>
    <tag k="oneway" v="no"/>
    <tag k="ref" v="St 2370"/>
  </way>
  <way id="7695832" version="15" timestamp="2009-11-06T14:25:09Z" uid="64756" user="alegria6208" changeset="3048691">
    <nd ref="55896160"/>
    <nd ref="446011554"/>
    <nd ref="55896927"/>
    <nd ref="446617862"/>
    <nd ref="55896928"/>
    <nd ref="55896930"/>
    <nd ref="55896931"/>
    <nd ref="55896932"/>
    <nd ref="55896933"/>
    <nd ref="55896935"/>
    <nd ref="558317104"/>
    <nd ref="55896936"/>
    <nd ref="55896937"/>
    <nd ref="446011571"/>
    <nd ref="55896938"/>
    <nd ref="55896939"/>
    <nd ref="55896940"/>
    <nd ref="350612504"/>
    <tag k="highway" v="tertiary"/>
    <tag k="name" v="Antdorfer Straße"/>
    <tag k="ref" v="WM 27"/>
  </way>
  <way id="7695832" version="16" timestamp="2009-11-08T03:13:03Z" uid="36809" user="pfoten_weg_!_" changeset="3060646">
    <nd ref="55896160"/>
    <nd ref="446011554"/>
    <nd ref="55896927"/>
    <nd ref="446617862"/>
    <nd ref="55896928"/>
    <nd ref="55896930"/>
    <nd ref="55896931"/>
    <nd ref="55896932"/>
    <nd ref="55896933"/>
    <nd ref="55896935"/>
    <nd ref="558317104"/>
    <nd ref="55896936"/>
    <nd ref="55896937"/>
    <nd ref="446011571"/>
    <nd ref="55896938"/>
    <nd ref="55896939"/>
    <nd ref="55896940"/>
    <nd ref="350612504"/>
    <tag k="highway" v="tertiary"/>
    <tag k="name" v="Antdorfer Straße"/>
    <tag k="ref" v="WM 27"/>
  </way>
  <way id="7695832" version="17" timestamp="2009-12-11T11:16:16Z" uid="64756" user="alegria6208" changeset="3348129">
    <nd ref="55896160"/>
    <nd ref="446011554"/>
    <nd ref="55896927"/>
    <nd ref="446617862"/>
    <nd ref="55896928"/>
    <nd ref="55896930"/>
    <nd ref="55896931"/>
    <tag k="highway" v="tertiary"/>
    <tag k="maxspeed" v="50"/>
    <tag k="name" v="Antdorfer Straße"/>
    <tag k="oneway" v="no"/>
    <tag k="ref" v="WM 27"/>
  </way>
  <way id="7695868" version="8" timestamp="2009-10-18T00:10:54Z" uid="36809" user="pfoten_weg_!_" changeset="2879001">
    <nd ref="55898698"/>
    <nd ref="55899282"/>
    <nd ref="458914867"/>
    <nd ref="467678338"/>
    <nd ref="55899285"/>
    <nd ref="55899286"/>
    <nd ref="55899288"/>
    <tag k="highway" v="secondary"/>
    <tag k="name" v="Hauptstraße"/>
    <tag k="ref" v="St 2038"/>
  </way>
  <way id="7695868" version="9" timestamp="2009-12-10T18:11:19Z" uid="64756" user="alegria6208" changeset="3343810">
    <nd ref="55898698"/>
    <nd ref="55899282"/>
    <nd ref="458914867"/>
    <nd ref="467678338"/>
    <nd ref="55899285"/>
    <nd ref="55899286"/>
    <nd ref="55899288"/>
    <tag k="highway" v="secondary"/>
    <tag k="maxspeed" v="50"/>
    <tag k="name" v="Hauptstraße"/>
    <tag k="ref" v="St 2038"/>
  </way>
  <way id="7695968" version="5" timestamp="2009-07-19T06:00:49Z" uid="7617" user="Franc" changeset="1869567">
    <nd ref="55900106"/>
    <nd ref="443604757"/>
    <nd ref="55900575"/>
    <nd ref="55900577"/>
    <tag k="created_by" v="Potlatch 0.9c"/>
    <tag k="highway" v="unclassified"/>
    <tag k="name" v="Antoine Street"/>
  </way>
  <way id="7695968" version="6" timestamp="2009-08-18T09:15:46Z" uid="139659" user="LiteEarthTreader" changeset="2187416">
    <nd ref="55900106"/>
    <nd ref="443604757"/>
    <tag k="created_by" v="Potlatch 0.9c"/>
    <tag k="highway" v="unclassified"/>
    <tag k="name" v="Antoine Street"/>
    <tag k="rcn" v="yes"/>
    <tag k="rcn_ref" v="Parramatta River"/>
  </way>
  <way id="7695968" version="7" timestamp="2009-08-20T06:14:37Z" uid="152608" user="Robbo" changeset="2208110">
    <nd ref="55900106"/>
    <nd ref="443604757"/>
    <tag k="created_by" v="Potlatch 0.9c"/>
    <tag k="cycleway" v="track"/>
    <tag k="highway" v="unclassified"/>
    <tag k="name" v="Antoine Street"/>
    <tag k="rcn" v="yes"/>
    <tag k="rcn_ref" v="Parramatta River"/>
  </way>
  <way id="7695968" version="8" timestamp="2010-06-21T11:03:04Z" uid="20949" user="Ebenezer" changeset="5041542">
    <nd ref="55900106"/>
    <nd ref="443604757"/>
    <tag k="cycleway" v="track"/>
    <tag k="highway" v="unclassified"/>
    <tag k="name" v="Antoine Street"/>
  </way>
  <way id="7695968" version="9" timestamp="2010-11-18T05:57:04Z" uid="320632" user="Zulu99" changeset="6397734">
    <nd ref="55900106"/>
    <nd ref="443604757"/>
    <tag k="cycleway" v="lane"/>
    <tag k="highway" v="unclassified"/>
    <tag k="name" v="Antoine Street"/>
  </way>
  <way id="7695973" version="7" timestamp="2011-04-23T02:57:37Z" uid="4467" user="Rosscoe" changeset="7940142">
    <nd ref="55900717"/>
    <nd ref="55900719"/>
    <nd ref="55900720"/>
    <nd ref="55900722"/>
    <nd ref="55900724"/>
    <nd ref="55900725"/>
    <nd ref="55931340"/>
    <nd ref="55900726"/>
    <nd ref="55900727"/>
    <nd ref="55900728"/>
    <nd ref="55900729"/>
    <nd ref="55900730"/>
    <nd ref="55900731"/>
    <nd ref="55900732"/>
    <tag k="layer" v="-1"/>
    <tag k="railway" v="rail"/>
    <tag k="tunnel" v="yes"/>
  </way>
  <way id="7695973" version="8" timestamp="2011-09-30T10:27:04Z" uid="11111" user="melb_guy" changeset="9434115">
    <nd ref="55900717"/>
    <nd ref="55900719"/>
    <nd ref="55900720"/>
    <nd ref="55900722"/>
    <nd ref="55900724"/>
    <nd ref="55900725"/>
    <nd ref="55931340"/>
    <nd ref="55900726"/>
    <nd ref="55900727"/>
    <nd ref="55900728"/>
    <nd ref="55900729"/>
    <nd ref="55900730"/>
    <nd ref="55900731"/>
    <nd ref="55900732"/>
    <tag k="layer" v="-1"/>
    <tag k="railway" v="rail"/>
    <tag k="tunnel" v="yes"/>
  </way>
  <way id="7695973" version="9" timestamp="2011-11-03T11:33:38Z" uid="206929" user="Supt_of_Printing" changeset="9729559">
    <nd ref="55900717"/>
    <nd ref="55900719"/>
    <nd ref="55900720"/>
    <nd ref="1490265212"/>
    <nd ref="55900722"/>
    <nd ref="55900724"/>
    <nd ref="55900725"/>
    <nd ref="55931340"/>
    <nd ref="55900726"/>
    <nd ref="55900727"/>
    <nd ref="55900728"/>
    <nd ref="55900729"/>
    <nd ref="55900730"/>
    <nd ref="55900731"/>
    <nd ref="55900732"/>
    <tag k="layer" v="-1"/>
    <tag k="railway" v="subway"/>
    <tag k="tunnel" v="yes"/>
  </way>
  <way id="7695973" version="10" timestamp="2011-11-05T13:31:43Z" uid="42429" user="FK270673" changeset="9746322">
    <nd ref="55900717"/>
    <nd ref="55900719"/>
    <nd ref="55900720"/>
    <nd ref="1490265212"/>
    <nd ref="55900722"/>
    <nd ref="55900724"/>
    <nd ref="55900725"/>
    <nd ref="55931340"/>
    <tag k="electrified" v="contact_line"/>
    <tag k="layer" v="-1"/>
    <tag k="railway" v="subway"/>
    <tag k="tunnel" v="yes"/>
  </way>
  <way id="7695471" version="7" timestamp="2012-07-20T07:11:57Z" uid="722137" user="OSMF Redaction Account" changeset="12365528">
    <nd ref="55892496"/>
    <nd ref="141796884"/>
    <nd ref="543387496"/>
    <nd ref="55892522"/>
    <tag k="highway" v="residential"/>
    <tag k="source" v="yahoo_imagery"/>
  </way>
  <way id="7695629" version="16" timestamp="2012-05-25T22:03:46Z" uid="7523" user="inas" changeset="11702450">
    <nd ref="47509495"/>
    <nd ref="55896520"/>
    <nd ref="1435400615"/>
    <nd ref="47509653"/>
    <nd ref="1435400616"/>
    <nd ref="1765624192"/>
    <tag k="cycleway" v="lane"/>
    <tag k="highway" v="unclassified"/>
    <tag k="name" v="South Street"/>
    <tag k="source" v="yahoo_imagery"/>
  </way>
  <way id="7695629" version="17" timestamp="2012-07-20T07:11:52Z" uid="722137" user="OSMF Redaction Account" changeset="12365528">
    <nd ref="47509495"/>
    <nd ref="55896520"/>
    <nd ref="1435400615"/>
    <nd ref="47509653"/>
    <nd ref="1435400616"/>
    <nd ref="1765624192"/>
    <tag k="cycleway" v="lane"/>
    <tag k="highway" v="unclassified"/>
    <tag k="source" v="yahoo_imagery"/>
  </way>
  <way id="7695868" version="10" timestamp="2012-06-28T18:22:39Z" uid="417684" user="Maler" changeset="12049541">
    <nd ref="55898698"/>
    <nd ref="55899282"/>
    <nd ref="458914867"/>
    <nd ref="459446318"/>
    <nd ref="55899285"/>
    <nd ref="459446316"/>
    <nd ref="55899286"/>
    <nd ref="55899288"/>
    <tag k="highway" v="secondary"/>
    <tag k="maxspeed" v="50"/>
    <tag k="name" v="Hauptstraße"/>
    <tag k="ref" v="St 2038"/>
  </way>
  <way id="7695968" version="10" timestamp="2012-07-20T07:18:34Z" uid="722137" user="OSMF Redaction Account" changeset="12365876"/>
</osm>
