<?xml version='1.0' encoding='UTF-8'?>
<osm version="0.6" generator="libosmium/2.20.0">
  <way id="7734239" version="2" timestamp="2008-12-15T13:32:57Z" uid="27600" user="Islanit" changeset="392576">
    <nd ref="56321465"/>
    <nd ref="56321495"/>
    <nd ref="56321498"/>
    <nd ref="56321502"/>
    <nd ref="56321506"/>
    <nd ref="56321510"/>
    <nd ref="56321513"/>
    <tag k="created_by" v="Potlatch 0.10f"/>
    <tag k="highway" v="secondary"/>
    <tag k="ref" v="SAD 15"/>
  </way>
  <way id="7734239" version="3" timestamp="2008-12-22T20:37:16Z" uid="42429" user="FK270673" changeset="547986">
    <nd ref="56321465"/>
    <nd ref="56321495"/>
    <nd ref="56321498"/>
    <nd ref="56321502"/>
    <nd ref="56321506"/>
    <nd ref="56321510"/>
    <nd ref="56321513"/>
    <tag k="created_by" v="Potlatch 0.10f"/>
    <tag k="highway" v="tertiary"/>
    <tag k="ref" v="SAD 15"/>
  </way>
  <way id="7734239" version="4" timestamp="2008-12-30T13:29:55Z" uid="81297" user="susi0712" changeset="671338">
    <nd ref="56321465"/>
    <nd ref="56321495"/>
    <nd ref="56321498"/>
    <nd ref="56321502"/>
    <nd ref="56321506"/>
    <nd ref="56321510"/>
    <nd ref="56321513"/>
    <tag k="created_by" v="Potlatch 0.10f"/>
    <tag k="highway" v="secondary"/>
    <tag k="ref" v="SAD 15"/>
  </way>
  <way id="7734239" version="5" timestamp="2009-08-31T20:18:41Z" uid="68329" user="Lord-K" changeset="2331209">
    <nd ref="56321465"/>
    <nd ref="56321495"/>
    <nd ref="56321498"/>
    <nd ref="479409239"/>
    <nd ref="56321502"/>
    <nd ref="479409164"/>
    <nd ref="56321506"/>
    <nd ref="479409183"/>
    <nd ref="479409210"/>
    <nd ref="56321510"/>
    <nd ref="56321513"/>
    <tag k="highway" v="secondary"/>
    <tag k="ref" v="SAD 15"/>
  </way>
  <way id="7734239" version="6" timestamp="2009-09-16T23:00:27Z" uid="139564" user="nouba" changeset="2507605">
    <nd ref="56321465"/>
    <nd ref="498590153"/>
    <nd ref="56321495"/>
    <nd ref="56321498"/>
    <nd ref="479409239"/>
    <nd ref="56321502"/>
    <nd ref="479409164"/>
    <nd ref="56321506"/>
    <nd ref="479409183"/>
    <nd ref="479409210"/>
    <nd ref="56321510"/>
    <nd ref="56321513"/>
    <tag k="highway" v="secondary"/>
    <tag k="ref" v="SAD 15"/>
  </way>
  <way id="7734239" version="7" timestamp="2010-03-22T17:52:15Z" uid="152074" user="beweta" changeset="4204970">
    <nd ref="56321465"/>
    <nd ref="498590153"/>
    <nd ref="56321495"/>
    <nd ref="56321498"/>
    <nd ref="479409239"/>
    <nd ref="56321502"/>
    <nd ref="479409164"/>
    <nd ref="56321506"/>
    <nd ref="479409183"/>
    <nd ref="479409210"/>
    <nd ref="56321510"/>
    <nd ref="56321513"/>
    <tag k="highway" v="tertiary"/>
    <tag k="ref" v="SAD 15"/>
  </way>
  <way id="7734241" version="3" timestamp="2008-12-15T13:33:48Z" uid="27600" user="Islanit" changeset="392576">
    <nd ref="56321513"/>
    <nd ref="56321517"/>
    <tag k="bridge" v="yes"/>
    <tag k="created_by" v="Potlatch 0.10f"/>
    <tag k="highway" v="secondary"/>
    <tag k="ref" v="SAD 15"/>
  </way>
  <way id="7734241" version="4" timestamp="2009-08-31T20:18:39Z" uid="68329" user="Lord-K" changeset="2331209">
    <nd ref="56321513"/>
    <nd ref="479409174"/>
    <nd ref="479409167"/>
    <nd ref="479409172"/>
    <nd ref="56321517"/>
    <tag k="bridge" v="yes"/>
    <tag k="highway" v="secondary"/>
    <tag k="ref" v="SAD 15"/>
  </way>
  <way id="7734241" version="5" timestamp="2009-09-02T07:09:47Z" uid="68329" user="Lord-K" changeset="2345629">
    <nd ref="56321513"/>
    <nd ref="479409174"/>
    <nd ref="479409167"/>
    <nd ref="479409172"/>
    <nd ref="56321517"/>
    <tag k="bridge" v="yes"/>
    <tag k="highway" v="secondary"/>
    <tag k="layer" v="1"/>
    <tag k="ref" v="SAD 15"/>
  </way>
  <way id="7734241" version="6" timestamp="2010-03-22T17:52:15Z" uid="152074" user="beweta" changeset="4204970">
    <nd ref="56321513"/>
    <nd ref="479409174"/>
    <nd ref="479409167"/>
    <nd ref="479409172"/>
    <nd ref="56321517"/>
    <tag k="bridge" v="yes"/>
    <tag k="highway" v="tertiary"/>
    <tag k="layer" v="1"/>
    <tag k="ref" v="SAD 15"/>
  </way>
</osm>
