<?xml version='1.0' encoding='UTF-8'?>
<osm version="0.6" generator="libosmium/2.20.0">
  <way id="77433110" version="3" timestamp="2010-09-15T18:54:54Z" uid="23543" user="jkjk" changeset="5789778">
    <nd ref="500368198"/>
    <nd ref="500368196"/>
    <nd ref="500368189"/>
    <nd ref="500368242"/>
    <nd ref="500368182"/>
    <nd ref="500368175"/>
    <nd ref="500368159"/>
    <nd ref="500368152"/>
    <nd ref="544356395"/>
    <nd ref="500368146"/>
    <nd ref="911322617"/>
    <tag k="construction" v="motorway"/>
    <tag k="highway" v="construction"/>
    <tag k="layer" v="-1"/>
    <tag k="name" v="Pražský okruh"/>
    <tag k="note" v="to be finished in 2010"/>
    <tag k="oneway" v="yes"/>
    <tag k="opening_date" v="2010-09-20"/>
  </way>
  <way id="77433110" version="4" timestamp="2010-09-19T23:02:48Z" uid="23543" user="jkjk" changeset="5825108">
    <nd ref="500368198"/>
    <nd ref="500368196"/>
    <nd ref="500368189"/>
    <nd ref="500368242"/>
    <nd ref="500368182"/>
    <nd ref="500368175"/>
    <nd ref="500368159"/>
    <nd ref="500368152"/>
    <nd ref="544356395"/>
    <nd ref="500368146"/>
    <nd ref="911322617"/>
    <tag k="highway" v="motorway"/>
    <tag k="layer" v="-1"/>
    <tag k="name" v="Pražský okruh"/>
    <tag k="oneway" v="yes"/>
    <tag k="ref" v="R1"/>
  </way>
  <way id="77433110" version="5" timestamp="2010-09-22T10:32:59Z" uid="8612" user="Kubajz" changeset="5844235">
    <nd ref="500368198"/>
    <nd ref="500368196"/>
    <nd ref="500368189"/>
    <nd ref="500368242"/>
    <nd ref="500368182"/>
    <nd ref="500368175"/>
    <nd ref="500368159"/>
    <nd ref="500368152"/>
    <nd ref="544356395"/>
    <nd ref="500368146"/>
    <nd ref="911322617"/>
    <tag k="highway" v="trunk"/>
    <tag k="layer" v="-1"/>
    <tag k="name" v="Pražský okruh"/>
    <tag k="oneway" v="yes"/>
    <tag k="ref" v="R1"/>
  </way>
  <way id="77433110" version="6" timestamp="2010-09-26T10:30:44Z" uid="102554" user="Jezevec" changeset="5879082">
    <nd ref="500368198"/>
    <nd ref="500368196"/>
    <nd ref="500368189"/>
    <nd ref="500368242"/>
    <nd ref="500368182"/>
    <nd ref="500368175"/>
    <nd ref="500368159"/>
    <nd ref="500368152"/>
    <nd ref="544356395"/>
    <nd ref="500368146"/>
    <nd ref="911322617"/>
    <tag k="highway" v="trunk"/>
    <tag k="layer" v="-1"/>
    <tag k="motorroad" v="yes"/>
    <tag k="name" v="Pražský okruh"/>
    <tag k="oneway" v="yes"/>
    <tag k="ref" v="R1"/>
  </way>
  <way id="77433110" version="7" timestamp="2010-10-10T16:09:16Z" uid="67020" user="Nibbler" changeset="6003620">
    <nd ref="500368198"/>
    <nd ref="500368196"/>
    <nd ref="500368189"/>
    <nd ref="500368242"/>
    <nd ref="500368182"/>
    <nd ref="500368175"/>
    <nd ref="500368159"/>
    <nd ref="500368152"/>
    <nd ref="544356395"/>
    <nd ref="500368146"/>
    <nd ref="911322617"/>
    <tag k="highway" v="trunk"/>
    <tag k="motorroad" v="yes"/>
    <tag k="name" v="Pražský okruh"/>
    <tag k="oneway" v="yes"/>
    <tag k="ref" v="R1"/>
  </way>
  <way id="77433110" version="8" timestamp="2010-11-19T21:56:24Z" uid="364093" user="JiriStovicek" changeset="6410589">
    <nd ref="500368198"/>
    <nd ref="500368196"/>
    <nd ref="500368189"/>
    <nd ref="500368242"/>
    <nd ref="500368182"/>
    <nd ref="500368175"/>
    <nd ref="500368159"/>
    <nd ref="500368152"/>
    <nd ref="544356395"/>
    <nd ref="500368146"/>
    <nd ref="911322617"/>
    <tag k="highway" v="trunk"/>
    <tag k="maxspeed" v="130"/>
    <tag k="motorroad" v="yes"/>
    <tag k="name" v="Pražský okruh"/>
    <tag k="oneway" v="yes"/>
    <tag k="ref" v="R1"/>
  </way>
  <way id="77433110" version="9" timestamp="2011-02-19T19:16:00Z" uid="217051" user="lpechacek" changeset="7334743">
    <nd ref="500368198"/>
    <nd ref="500368196"/>
    <nd ref="500368189"/>
    <nd ref="500368242"/>
    <nd ref="500368182"/>
    <nd ref="500368175"/>
    <nd ref="500368159"/>
    <nd ref="500368152"/>
    <nd ref="544356395"/>
    <nd ref="500368146"/>
    <nd ref="911322617"/>
    <tag k="highway" v="trunk"/>
    <tag k="maxspeed" v="130"/>
    <tag k="motorroad" v="yes"/>
    <tag k="name" v="Pražský okruh"/>
    <tag k="oneway" v="yes"/>
    <tag k="ref" v="R1"/>
    <tag k="toll" v="yes"/>
  </way>
  <way id="77433110" version="10" timestamp="2011-07-24T07:43:33Z" uid="486838" user="Thargor" changeset="8812657">
    <nd ref="500368198"/>
    <nd ref="500368196"/>
    <nd ref="500368189"/>
    <nd ref="500368242"/>
    <nd ref="500368182"/>
    <nd ref="500368175"/>
    <nd ref="500368159"/>
    <nd ref="500368152"/>
    <nd ref="544356395"/>
    <nd ref="500368146"/>
    <nd ref="911322617"/>
    <tag k="highway" v="motorway"/>
    <tag k="maxspeed" v="130"/>
    <tag k="motorroad" v="yes"/>
    <tag k="name" v="Pražský okruh"/>
    <tag k="oneway" v="yes"/>
    <tag k="ref" v="R1"/>
    <tag k="toll" v="yes"/>
  </way>
  <way id="77433110" version="11" timestamp="2011-08-27T11:41:45Z" uid="102554" user="Jezevec" changeset="9137033">
    <nd ref="500368198"/>
    <nd ref="500368196"/>
    <nd ref="500368189"/>
    <nd ref="500368242"/>
    <nd ref="500368182"/>
    <nd ref="500368175"/>
    <nd ref="500368159"/>
    <nd ref="500368152"/>
    <nd ref="544356395"/>
    <nd ref="500368146"/>
    <nd ref="911322617"/>
    <tag k="highway" v="trunk"/>
    <tag k="maxspeed" v="130"/>
    <tag k="motorroad" v="yes"/>
    <tag k="name" v="Pražský okruh"/>
    <tag k="oneway" v="yes"/>
    <tag k="ref" v="R1"/>
    <tag k="toll" v="yes"/>
  </way>
  <way id="77433112" version="3" timestamp="2010-09-15T18:54:58Z" uid="23543" user="jkjk" changeset="5789778">
    <nd ref="911322613"/>
    <nd ref="250835622"/>
    <nd ref="459394090"/>
    <nd ref="913118101"/>
    <nd ref="913118097"/>
    <nd ref="250835624"/>
    <nd ref="500368121"/>
    <nd ref="500368127"/>
    <tag k="construction" v="motorway"/>
    <tag k="highway" v="construction"/>
    <tag k="layer" v="-2"/>
    <tag k="name" v="Pražský okruh"/>
    <tag k="note" v="to be finished in 2010"/>
    <tag k="oneway" v="yes"/>
    <tag k="opening_date" v="2010-09-20"/>
  </way>
  <way id="77433112" version="4" timestamp="2010-09-19T23:02:49Z" uid="23543" user="jkjk" changeset="5825108">
    <nd ref="911322613"/>
    <nd ref="250835622"/>
    <nd ref="459394090"/>
    <nd ref="913118101"/>
    <nd ref="913118097"/>
    <nd ref="250835624"/>
    <nd ref="500368121"/>
    <nd ref="500368127"/>
    <tag k="highway" v="motorway"/>
    <tag k="layer" v="-2"/>
    <tag k="name" v="Pražský okruh"/>
    <tag k="oneway" v="yes"/>
    <tag k="ref" v="R1"/>
  </way>
  <way id="77433112" version="5" timestamp="2010-09-22T10:32:45Z" uid="8612" user="Kubajz" changeset="5844235">
    <nd ref="911322613"/>
    <nd ref="250835622"/>
    <nd ref="459394090"/>
    <nd ref="913118101"/>
    <nd ref="913118097"/>
    <nd ref="250835624"/>
    <nd ref="500368121"/>
    <nd ref="500368127"/>
    <tag k="highway" v="trunk"/>
    <tag k="layer" v="-2"/>
    <tag k="name" v="Pražský okruh"/>
    <tag k="oneway" v="yes"/>
    <tag k="ref" v="R1"/>
  </way>
  <way id="77433112" version="6" timestamp="2010-09-26T10:31:02Z" uid="102554" user="Jezevec" changeset="5879082">
    <nd ref="911322613"/>
    <nd ref="250835622"/>
    <nd ref="459394090"/>
    <nd ref="913118101"/>
    <nd ref="913118097"/>
    <nd ref="250835624"/>
    <nd ref="500368121"/>
    <nd ref="500368127"/>
    <tag k="highway" v="trunk"/>
    <tag k="layer" v="-2"/>
    <tag k="motorroad" v="yes"/>
    <tag k="name" v="Pražský okruh"/>
    <tag k="oneway" v="yes"/>
    <tag k="ref" v="R1"/>
  </way>
  <way id="77433112" version="7" timestamp="2010-10-10T16:09:13Z" uid="67020" user="Nibbler" changeset="6003620">
    <nd ref="911322613"/>
    <nd ref="250835622"/>
    <nd ref="459394090"/>
    <nd ref="913118101"/>
    <nd ref="913118097"/>
    <nd ref="250835624"/>
    <nd ref="500368121"/>
    <nd ref="500368127"/>
    <tag k="highway" v="trunk"/>
    <tag k="motorroad" v="yes"/>
    <tag k="name" v="Pražský okruh"/>
    <tag k="oneway" v="yes"/>
    <tag k="ref" v="R1"/>
  </way>
  <way id="77433112" version="8" timestamp="2010-10-27T14:18:16Z" uid="25867" user="adamos" changeset="6196461">
    <nd ref="911322613"/>
    <nd ref="250835622"/>
    <nd ref="459394090"/>
    <nd ref="913118101"/>
    <nd ref="913118097"/>
    <nd ref="250835624"/>
    <nd ref="500368121"/>
    <nd ref="966832354"/>
    <nd ref="500368127"/>
    <tag k="highway" v="trunk"/>
    <tag k="motorroad" v="yes"/>
    <tag k="name" v="Pražský okruh"/>
    <tag k="oneway" v="yes"/>
    <tag k="ref" v="R1"/>
  </way>
  <way id="77433112" version="9" timestamp="2010-11-19T21:56:26Z" uid="364093" user="JiriStovicek" changeset="6410589">
    <nd ref="911322613"/>
    <nd ref="250835622"/>
    <nd ref="459394090"/>
    <nd ref="913118101"/>
    <nd ref="913118097"/>
    <nd ref="250835624"/>
    <nd ref="500368121"/>
    <nd ref="966832354"/>
    <nd ref="500368127"/>
    <tag k="highway" v="trunk"/>
    <tag k="maxspeed" v="130"/>
    <tag k="motorroad" v="yes"/>
    <tag k="name" v="Pražský okruh"/>
    <tag k="oneway" v="yes"/>
    <tag k="ref" v="R1"/>
  </way>
  <way id="77433112" version="10" timestamp="2011-02-19T19:13:24Z" uid="217051" user="lpechacek" changeset="7334743">
    <nd ref="911322613"/>
    <nd ref="250835622"/>
    <nd ref="459394090"/>
    <nd ref="913118101"/>
    <nd ref="913118097"/>
    <nd ref="250835624"/>
    <nd ref="500368121"/>
    <nd ref="966832354"/>
    <nd ref="500368127"/>
    <tag k="highway" v="trunk"/>
    <tag k="maxspeed" v="130"/>
    <tag k="motorroad" v="yes"/>
    <tag k="name" v="Pražský okruh"/>
    <tag k="oneway" v="yes"/>
    <tag k="ref" v="R1"/>
    <tag k="toll" v="yes"/>
  </way>
  <way id="77433112" version="11" timestamp="2011-07-24T07:43:34Z" uid="486838" user="Thargor" changeset="8812657">
    <nd ref="911322613"/>
    <nd ref="250835622"/>
    <nd ref="459394090"/>
    <nd ref="913118101"/>
    <nd ref="913118097"/>
    <nd ref="250835624"/>
    <nd ref="500368121"/>
    <nd ref="966832354"/>
    <nd ref="500368127"/>
    <tag k="highway" v="motorway"/>
    <tag k="maxspeed" v="130"/>
    <tag k="motorroad" v="yes"/>
    <tag k="name" v="Pražský okruh"/>
    <tag k="oneway" v="yes"/>
    <tag k="ref" v="R1"/>
    <tag k="toll" v="yes"/>
  </way>
  <way id="77433112" version="12" timestamp="2011-08-27T11:42:00Z" uid="102554" user="Jezevec" changeset="9137033">
    <nd ref="911322613"/>
    <nd ref="250835622"/>
    <nd ref="459394090"/>
    <nd ref="913118101"/>
    <nd ref="913118097"/>
    <nd ref="250835624"/>
    <nd ref="500368121"/>
    <nd ref="966832354"/>
    <nd ref="500368127"/>
    <tag k="highway" v="trunk"/>
    <tag k="maxspeed" v="130"/>
    <tag k="motorroad" v="yes"/>
    <tag k="name" v="Pražský okruh"/>
    <tag k="oneway" v="yes"/>
    <tag k="ref" v="R1"/>
    <tag k="toll" v="yes"/>
  </way>
  <way id="77433113" version="3" timestamp="2010-09-15T18:54:45Z" uid="23543" user="jkjk" changeset="5789778">
    <nd ref="500368133"/>
    <nd ref="500368116"/>
    <nd ref="500368106"/>
    <tag k="construction" v="motorway"/>
    <tag k="highway" v="construction"/>
    <tag k="layer" v="-1"/>
    <tag k="name" v="Pražský okruh"/>
    <tag k="note" v="to be finished in 2010"/>
    <tag k="oneway" v="yes"/>
    <tag k="opening_date" v="2010-09-20"/>
  </way>
  <way id="77433113" version="4" timestamp="2010-09-19T23:02:53Z" uid="23543" user="jkjk" changeset="5825108">
    <nd ref="500368133"/>
    <nd ref="500368116"/>
    <nd ref="500368106"/>
    <tag k="highway" v="motorway"/>
    <tag k="layer" v="-1"/>
    <tag k="name" v="Pražský okruh"/>
    <tag k="oneway" v="yes"/>
    <tag k="ref" v="R1"/>
  </way>
  <way id="77433113" version="5" timestamp="2010-09-22T10:32:53Z" uid="8612" user="Kubajz" changeset="5844235">
    <nd ref="500368133"/>
    <nd ref="500368116"/>
    <nd ref="500368106"/>
    <tag k="highway" v="trunk"/>
    <tag k="layer" v="-1"/>
    <tag k="name" v="Pražský okruh"/>
    <tag k="oneway" v="yes"/>
    <tag k="ref" v="R1"/>
  </way>
  <way id="77433113" version="6" timestamp="2010-09-26T10:29:07Z" uid="102554" user="Jezevec" changeset="5879082">
    <nd ref="500368133"/>
    <nd ref="500368116"/>
    <nd ref="500368106"/>
    <tag k="highway" v="trunk"/>
    <tag k="layer" v="-1"/>
    <tag k="motorroad" v="yes"/>
    <tag k="name" v="Pražský okruh"/>
    <tag k="oneway" v="yes"/>
    <tag k="ref" v="R1"/>
  </way>
  <way id="77433113" version="7" timestamp="2010-10-10T16:09:12Z" uid="67020" user="Nibbler" changeset="6003620">
    <nd ref="500368133"/>
    <nd ref="500368116"/>
    <nd ref="500368106"/>
    <tag k="highway" v="trunk"/>
    <tag k="motorroad" v="yes"/>
    <tag k="name" v="Pražský okruh"/>
    <tag k="oneway" v="yes"/>
    <tag k="ref" v="R1"/>
  </way>
  <way id="77433113" version="8" timestamp="2011-02-19T19:08:40Z" uid="217051" user="lpechacek" changeset="7334743">
    <nd ref="500368133"/>
    <nd ref="500368116"/>
    <nd ref="500368106"/>
    <tag k="highway" v="trunk"/>
    <tag k="motorroad" v="yes"/>
    <tag k="name" v="Pražský okruh"/>
    <tag k="oneway" v="yes"/>
    <tag k="ref" v="R1"/>
    <tag k="toll" v="yes"/>
  </way>
  <way id="77433113" version="9" timestamp="2011-05-16T20:40:55Z" uid="455604" user="Jaroslav Sedláček" changeset="8166506">
    <nd ref="500368133"/>
    <nd ref="500368116"/>
    <nd ref="500368106"/>
    <tag k="foot" v="no"/>
    <tag k="highway" v="trunk"/>
    <tag k="lanes" v="2"/>
    <tag k="maxspeed" v="130"/>
    <tag k="motorroad" v="yes"/>
    <tag k="name" v="Pražský okruh"/>
    <tag k="oneway" v="yes"/>
    <tag k="ref" v="R1"/>
    <tag k="toll" v="yes"/>
  </way>
  <way id="77433113" version="10" timestamp="2011-07-24T07:43:32Z" uid="486838" user="Thargor" changeset="8812657">
    <nd ref="500368133"/>
    <nd ref="500368116"/>
    <nd ref="500368106"/>
    <tag k="foot" v="no"/>
    <tag k="highway" v="motorway"/>
    <tag k="lanes" v="2"/>
    <tag k="maxspeed" v="130"/>
    <tag k="motorroad" v="yes"/>
    <tag k="name" v="Pražský okruh"/>
    <tag k="oneway" v="yes"/>
    <tag k="ref" v="R1"/>
    <tag k="toll" v="yes"/>
  </way>
  <way id="77433113" version="11" timestamp="2011-08-27T11:41:53Z" uid="102554" user="Jezevec" changeset="9137033">
    <nd ref="500368133"/>
    <nd ref="500368116"/>
    <nd ref="500368106"/>
    <tag k="foot" v="no"/>
    <tag k="highway" v="trunk"/>
    <tag k="lanes" v="2"/>
    <tag k="maxspeed" v="130"/>
    <tag k="motorroad" v="yes"/>
    <tag k="name" v="Pražský okruh"/>
    <tag k="oneway" v="yes"/>
    <tag k="ref" v="R1"/>
    <tag k="toll" v="yes"/>
  </way>
  <way id="77433115" version="3" timestamp="2010-09-15T18:54:48Z" uid="23543" user="jkjk" changeset="5789778">
    <nd ref="911322610"/>
    <nd ref="911322613"/>
    <tag k="construction" v="motorway"/>
    <tag k="highway" v="construction"/>
    <tag k="layer" v="-2"/>
    <tag k="name" v="Pražský okruh"/>
    <tag k="note" v="ekodukt"/>
    <tag k="oneway" v="yes"/>
    <tag k="opening_date" v="2010-09-20"/>
    <tag k="tunnel" v="yes"/>
  </way>
  <way id="77433115" version="4" timestamp="2010-09-19T23:02:55Z" uid="23543" user="jkjk" changeset="5825108">
    <nd ref="911322610"/>
    <nd ref="911322613"/>
    <tag k="highway" v="motorway"/>
    <tag k="layer" v="-2"/>
    <tag k="name" v="Pražský okruh"/>
    <tag k="oneway" v="yes"/>
    <tag k="ref" v="R1"/>
    <tag k="tunnel" v="yes"/>
  </way>
  <way id="77433115" version="5" timestamp="2010-09-22T10:32:50Z" uid="8612" user="Kubajz" changeset="5844235">
    <nd ref="911322610"/>
    <nd ref="911322613"/>
    <tag k="highway" v="trunk"/>
    <tag k="layer" v="-2"/>
    <tag k="name" v="Pražský okruh"/>
    <tag k="oneway" v="yes"/>
    <tag k="ref" v="R1"/>
    <tag k="tunnel" v="yes"/>
  </way>
  <way id="77433115" version="6" timestamp="2010-09-26T10:28:29Z" uid="102554" user="Jezevec" changeset="5879082">
    <nd ref="911322610"/>
    <nd ref="911322613"/>
    <tag k="highway" v="trunk"/>
    <tag k="layer" v="-2"/>
    <tag k="motorroad" v="yes"/>
    <tag k="name" v="Pražský okruh"/>
    <tag k="oneway" v="yes"/>
    <tag k="ref" v="R1"/>
    <tag k="tunnel" v="yes"/>
  </way>
  <way id="77433115" version="7" timestamp="2010-10-10T16:09:17Z" uid="67020" user="Nibbler" changeset="6003620">
    <nd ref="911322610"/>
    <nd ref="911322613"/>
    <tag k="highway" v="trunk"/>
    <tag k="layer" v="-1"/>
    <tag k="motorroad" v="yes"/>
    <tag k="name" v="Pražský okruh"/>
    <tag k="oneway" v="yes"/>
    <tag k="ref" v="R1"/>
    <tag k="tunnel" v="yes"/>
  </way>
  <way id="77433115" version="8" timestamp="2011-02-19T19:15:24Z" uid="217051" user="lpechacek" changeset="7334743">
    <nd ref="911322610"/>
    <nd ref="911322613"/>
    <tag k="highway" v="trunk"/>
    <tag k="layer" v="-1"/>
    <tag k="motorroad" v="yes"/>
    <tag k="name" v="Pražský okruh"/>
    <tag k="oneway" v="yes"/>
    <tag k="ref" v="R1"/>
    <tag k="toll" v="yes"/>
    <tag k="tunnel" v="yes"/>
  </way>
  <way id="77433115" version="9" timestamp="2011-07-24T07:43:33Z" uid="486838" user="Thargor" changeset="8812657">
    <nd ref="911322610"/>
    <nd ref="911322613"/>
    <tag k="highway" v="motorway"/>
    <tag k="layer" v="-1"/>
    <tag k="motorroad" v="yes"/>
    <tag k="name" v="Pražský okruh"/>
    <tag k="oneway" v="yes"/>
    <tag k="ref" v="R1"/>
    <tag k="toll" v="yes"/>
    <tag k="tunnel" v="yes"/>
  </way>
  <way id="77433115" version="10" timestamp="2011-08-27T11:41:47Z" uid="102554" user="Jezevec" changeset="9137033">
    <nd ref="911322610"/>
    <nd ref="911322613"/>
    <tag k="highway" v="trunk"/>
    <tag k="layer" v="-1"/>
    <tag k="motorroad" v="yes"/>
    <tag k="name" v="Pražský okruh"/>
    <tag k="oneway" v="yes"/>
    <tag k="ref" v="R1"/>
    <tag k="toll" v="yes"/>
    <tag k="tunnel" v="yes"/>
  </way>
  <way id="77433116" version="3" timestamp="2010-09-15T18:54:40Z" uid="23543" user="jkjk" changeset="5789778">
    <nd ref="911322617"/>
    <nd ref="500368133"/>
    <tag k="construction" v="motorway"/>
    <tag k="highway" v="construction"/>
    <tag k="layer" v="-1"/>
    <tag k="name" v="Pražský okruh"/>
    <tag k="note" v="ekodukt"/>
    <tag k="oneway" v="yes"/>
    <tag k="opening_date" v="2010-09-20"/>
    <tag k="tunnel" v="yes"/>
  </way>
  <way id="77433116" version="4" timestamp="2010-09-19T23:02:54Z" uid="23543" user="jkjk" changeset="5825108">
    <nd ref="911322617"/>
    <nd ref="500368133"/>
    <tag k="highway" v="motorway"/>
    <tag k="layer" v="-1"/>
    <tag k="name" v="Pražský okruh"/>
    <tag k="oneway" v="yes"/>
    <tag k="ref" v="R1"/>
    <tag k="tunnel" v="yes"/>
  </way>
  <way id="77433116" version="5" timestamp="2010-09-22T10:32:51Z" uid="8612" user="Kubajz" changeset="5844235">
    <nd ref="911322617"/>
    <nd ref="500368133"/>
    <tag k="highway" v="trunk"/>
    <tag k="layer" v="-1"/>
    <tag k="name" v="Pražský okruh"/>
    <tag k="oneway" v="yes"/>
    <tag k="ref" v="R1"/>
    <tag k="tunnel" v="yes"/>
  </way>
  <way id="77433116" version="6" timestamp="2010-09-26T10:30:07Z" uid="102554" user="Jezevec" changeset="5879082">
    <nd ref="911322617"/>
    <nd ref="500368133"/>
    <tag k="highway" v="trunk"/>
    <tag k="layer" v="-1"/>
    <tag k="motorroad" v="yes"/>
    <tag k="name" v="Pražský okruh"/>
    <tag k="oneway" v="yes"/>
    <tag k="ref" v="R1"/>
    <tag k="tunnel" v="yes"/>
  </way>
  <way id="77433116" version="7" timestamp="2011-02-19T19:14:59Z" uid="217051" user="lpechacek" changeset="7334743">
    <nd ref="911322617"/>
    <nd ref="500368133"/>
    <tag k="highway" v="trunk"/>
    <tag k="layer" v="-1"/>
    <tag k="motorroad" v="yes"/>
    <tag k="name" v="Pražský okruh"/>
    <tag k="oneway" v="yes"/>
    <tag k="ref" v="R1"/>
    <tag k="toll" v="yes"/>
    <tag k="tunnel" v="yes"/>
  </way>
  <way id="77433116" version="8" timestamp="2011-07-24T07:43:34Z" uid="486838" user="Thargor" changeset="8812657">
    <nd ref="911322617"/>
    <nd ref="500368133"/>
    <tag k="highway" v="motorway"/>
    <tag k="layer" v="-1"/>
    <tag k="motorroad" v="yes"/>
    <tag k="name" v="Pražský okruh"/>
    <tag k="oneway" v="yes"/>
    <tag k="ref" v="R1"/>
    <tag k="toll" v="yes"/>
    <tag k="tunnel" v="yes"/>
  </way>
  <way id="77433116" version="9" timestamp="2011-08-27T11:41:49Z" uid="102554" user="Jezevec" changeset="9137033">
    <nd ref="911322617"/>
    <nd ref="500368133"/>
    <tag k="highway" v="trunk"/>
    <tag k="layer" v="-1"/>
    <tag k="motorroad" v="yes"/>
    <tag k="name" v="Pražský okruh"/>
    <tag k="oneway" v="yes"/>
    <tag k="ref" v="R1"/>
    <tag k="toll" v="yes"/>
    <tag k="tunnel" v="yes"/>
  </way>
  <way id="77433117" version="3" timestamp="2010-09-15T18:54:51Z" uid="23543" user="jkjk" changeset="5789778">
    <nd ref="911322612"/>
    <nd ref="250835620"/>
    <nd ref="911322610"/>
    <tag k="construction" v="motorway"/>
    <tag k="highway" v="construction"/>
    <tag k="layer" v="-2"/>
    <tag k="name" v="Pražský okruh"/>
    <tag k="note" v="to be finished in 2010"/>
    <tag k="oneway" v="yes"/>
    <tag k="opening_date" v="2010-09-20"/>
  </way>
  <way id="77433117" version="4" timestamp="2010-09-19T23:02:49Z" uid="23543" user="jkjk" changeset="5825108">
    <nd ref="911322612"/>
    <nd ref="250835620"/>
    <nd ref="911322610"/>
    <tag k="highway" v="motorway"/>
    <tag k="layer" v="-2"/>
    <tag k="name" v="Pražský okruh"/>
    <tag k="oneway" v="yes"/>
    <tag k="ref" v="R1"/>
  </way>
  <way id="77433117" version="5" timestamp="2010-09-22T10:32:59Z" uid="8612" user="Kubajz" changeset="5844235">
    <nd ref="911322612"/>
    <nd ref="250835620"/>
    <nd ref="911322610"/>
    <tag k="highway" v="trunk"/>
    <tag k="layer" v="-2"/>
    <tag k="name" v="Pražský okruh"/>
    <tag k="oneway" v="yes"/>
    <tag k="ref" v="R1"/>
  </way>
  <way id="77433117" version="6" timestamp="2010-09-26T10:31:22Z" uid="102554" user="Jezevec" changeset="5879082">
    <nd ref="911322612"/>
    <nd ref="250835620"/>
    <nd ref="911322610"/>
    <tag k="highway" v="trunk"/>
    <tag k="layer" v="-2"/>
    <tag k="motorroad" v="yes"/>
    <tag k="name" v="Pražský okruh"/>
    <tag k="oneway" v="yes"/>
    <tag k="ref" v="R1"/>
  </way>
  <way id="77433117" version="7" timestamp="2010-10-10T16:09:22Z" uid="67020" user="Nibbler" changeset="6003620">
    <nd ref="911322612"/>
    <nd ref="250835620"/>
    <nd ref="911322610"/>
    <tag k="highway" v="trunk"/>
    <tag k="motorroad" v="yes"/>
    <tag k="name" v="Pražský okruh"/>
    <tag k="oneway" v="yes"/>
    <tag k="ref" v="R1"/>
  </way>
  <way id="77433117" version="8" timestamp="2011-02-19T19:11:00Z" uid="217051" user="lpechacek" changeset="7334743">
    <nd ref="911322612"/>
    <nd ref="250835620"/>
    <nd ref="911322610"/>
    <tag k="highway" v="trunk"/>
    <tag k="motorroad" v="yes"/>
    <tag k="name" v="Pražský okruh"/>
    <tag k="oneway" v="yes"/>
    <tag k="ref" v="R1"/>
    <tag k="toll" v="yes"/>
  </way>
  <way id="77433117" version="9" timestamp="2011-05-16T20:40:55Z" uid="455604" user="Jaroslav Sedláček" changeset="8166506">
    <nd ref="911322612"/>
    <nd ref="250835620"/>
    <nd ref="911322610"/>
    <tag k="foot" v="no"/>
    <tag k="highway" v="trunk"/>
    <tag k="lanes" v="2"/>
    <tag k="maxspeed" v="130"/>
    <tag k="motorroad" v="yes"/>
    <tag k="name" v="Pražský okruh"/>
    <tag k="oneway" v="yes"/>
    <tag k="ref" v="R1"/>
    <tag k="toll" v="yes"/>
  </way>
  <way id="77433117" version="10" timestamp="2011-07-24T07:43:33Z" uid="486838" user="Thargor" changeset="8812657">
    <nd ref="911322612"/>
    <nd ref="250835620"/>
    <nd ref="911322610"/>
    <tag k="foot" v="no"/>
    <tag k="highway" v="motorway"/>
    <tag k="lanes" v="2"/>
    <tag k="maxspeed" v="130"/>
    <tag k="motorroad" v="yes"/>
    <tag k="name" v="Pražský okruh"/>
    <tag k="oneway" v="yes"/>
    <tag k="ref" v="R1"/>
    <tag k="toll" v="yes"/>
  </way>
  <way id="77433117" version="11" timestamp="2011-08-27T11:41:52Z" uid="102554" user="Jezevec" changeset="9137033">
    <nd ref="911322612"/>
    <nd ref="250835620"/>
    <nd ref="911322610"/>
    <tag k="foot" v="no"/>
    <tag k="highway" v="trunk"/>
    <tag k="lanes" v="2"/>
    <tag k="maxspeed" v="130"/>
    <tag k="motorroad" v="yes"/>
    <tag k="name" v="Pražský okruh"/>
    <tag k="oneway" v="yes"/>
    <tag k="ref" v="R1"/>
    <tag k="toll" v="yes"/>
  </way>
  <way id="77433118" version="3" timestamp="2010-09-15T18:54:42Z" uid="23543" user="jkjk" changeset="5789778">
    <nd ref="911322611"/>
    <nd ref="911322612"/>
    <tag k="construction" v="motorway"/>
    <tag k="highway" v="construction"/>
    <tag k="layer" v="-2"/>
    <tag k="name" v="Pražský okruh"/>
    <tag k="note" v="ekodukt"/>
    <tag k="oneway" v="yes"/>
    <tag k="opening_date" v="2010-09-20"/>
    <tag k="tunnel" v="yes"/>
  </way>
  <way id="77433118" version="4" timestamp="2010-09-19T23:02:48Z" uid="23543" user="jkjk" changeset="5825108">
    <nd ref="911322611"/>
    <nd ref="911322612"/>
    <tag k="highway" v="motorway"/>
    <tag k="layer" v="-2"/>
    <tag k="name" v="Pražský okruh"/>
    <tag k="oneway" v="yes"/>
    <tag k="ref" v="R1"/>
    <tag k="tunnel" v="yes"/>
  </way>
  <way id="77433118" version="5" timestamp="2010-09-22T10:32:50Z" uid="8612" user="Kubajz" changeset="5844235">
    <nd ref="911322611"/>
    <nd ref="911322612"/>
    <tag k="highway" v="trunk"/>
    <tag k="layer" v="-2"/>
    <tag k="name" v="Pražský okruh"/>
    <tag k="oneway" v="yes"/>
    <tag k="ref" v="R1"/>
    <tag k="tunnel" v="yes"/>
  </way>
  <way id="77433118" version="6" timestamp="2010-09-26T10:29:40Z" uid="102554" user="Jezevec" changeset="5879082">
    <nd ref="911322611"/>
    <nd ref="911322612"/>
    <tag k="highway" v="trunk"/>
    <tag k="layer" v="-2"/>
    <tag k="motorroad" v="yes"/>
    <tag k="name" v="Pražský okruh"/>
    <tag k="oneway" v="yes"/>
    <tag k="ref" v="R1"/>
    <tag k="tunnel" v="yes"/>
  </way>
  <way id="77433118" version="7" timestamp="2010-10-10T16:09:13Z" uid="67020" user="Nibbler" changeset="6003620">
    <nd ref="911322611"/>
    <nd ref="911322612"/>
    <tag k="highway" v="trunk"/>
    <tag k="layer" v="-1"/>
    <tag k="motorroad" v="yes"/>
    <tag k="name" v="Pražský okruh"/>
    <tag k="oneway" v="yes"/>
    <tag k="ref" v="R1"/>
    <tag k="tunnel" v="yes"/>
  </way>
  <way id="77433118" version="8" timestamp="2011-02-19T19:18:27Z" uid="217051" user="lpechacek" changeset="7334743">
    <nd ref="911322611"/>
    <nd ref="911322612"/>
    <tag k="highway" v="trunk"/>
    <tag k="layer" v="-1"/>
    <tag k="motorroad" v="yes"/>
    <tag k="name" v="Pražský okruh"/>
    <tag k="oneway" v="yes"/>
    <tag k="ref" v="R1"/>
    <tag k="toll" v="yes"/>
    <tag k="tunnel" v="yes"/>
  </way>
  <way id="77433118" version="9" timestamp="2011-07-24T07:43:33Z" uid="486838" user="Thargor" changeset="8812657">
    <nd ref="911322611"/>
    <nd ref="911322612"/>
    <tag k="highway" v="motorway"/>
    <tag k="layer" v="-1"/>
    <tag k="motorroad" v="yes"/>
    <tag k="name" v="Pražský okruh"/>
    <tag k="oneway" v="yes"/>
    <tag k="ref" v="R1"/>
    <tag k="toll" v="yes"/>
    <tag k="tunnel" v="yes"/>
  </way>
  <way id="77433118" version="10" timestamp="2011-08-27T11:41:47Z" uid="102554" user="Jezevec" changeset="9137033">
    <nd ref="911322611"/>
    <nd ref="911322612"/>
    <tag k="highway" v="trunk"/>
    <tag k="layer" v="-1"/>
    <tag k="motorroad" v="yes"/>
    <tag k="name" v="Pražský okruh"/>
    <tag k="oneway" v="yes"/>
    <tag k="ref" v="R1"/>
    <tag k="toll" v="yes"/>
    <tag k="tunnel" v="yes"/>
  </way>
  <way id="77433119" version="3" timestamp="2010-09-15T18:54:53Z" uid="23543" user="jkjk" changeset="5789778">
    <nd ref="500368106"/>
    <nd ref="911322609"/>
    <tag k="construction" v="motorway"/>
    <tag k="highway" v="construction"/>
    <tag k="layer" v="-1"/>
    <tag k="name" v="Pražský okruh"/>
    <tag k="note" v="ekodukt"/>
    <tag k="oneway" v="yes"/>
    <tag k="opening_date" v="2010-09-20"/>
    <tag k="tunnel" v="yes"/>
  </way>
  <way id="77433119" version="4" timestamp="2010-09-19T23:02:52Z" uid="23543" user="jkjk" changeset="5825108">
    <nd ref="500368106"/>
    <nd ref="911322609"/>
    <tag k="highway" v="motorway"/>
    <tag k="layer" v="-1"/>
    <tag k="name" v="Pražský okruh"/>
    <tag k="oneway" v="yes"/>
    <tag k="ref" v="R1"/>
    <tag k="tunnel" v="yes"/>
  </way>
  <way id="77433119" version="5" timestamp="2010-09-22T10:32:56Z" uid="8612" user="Kubajz" changeset="5844235">
    <nd ref="500368106"/>
    <nd ref="911322609"/>
    <tag k="highway" v="trunk"/>
    <tag k="layer" v="-1"/>
    <tag k="name" v="Pražský okruh"/>
    <tag k="oneway" v="yes"/>
    <tag k="ref" v="R1"/>
    <tag k="tunnel" v="yes"/>
  </way>
  <way id="77433119" version="6" timestamp="2010-09-26T10:30:55Z" uid="102554" user="Jezevec" changeset="5879082">
    <nd ref="500368106"/>
    <nd ref="911322609"/>
    <tag k="highway" v="trunk"/>
    <tag k="layer" v="-1"/>
    <tag k="motorroad" v="yes"/>
    <tag k="name" v="Pražský okruh"/>
    <tag k="oneway" v="yes"/>
    <tag k="ref" v="R1"/>
    <tag k="tunnel" v="yes"/>
  </way>
  <way id="77433119" version="7" timestamp="2011-02-19T19:16:39Z" uid="217051" user="lpechacek" changeset="7334743">
    <nd ref="500368106"/>
    <nd ref="911322609"/>
    <tag k="highway" v="trunk"/>
    <tag k="layer" v="-1"/>
    <tag k="motorroad" v="yes"/>
    <tag k="name" v="Pražský okruh"/>
    <tag k="oneway" v="yes"/>
    <tag k="ref" v="R1"/>
    <tag k="toll" v="yes"/>
    <tag k="tunnel" v="yes"/>
  </way>
  <way id="77433119" version="8" timestamp="2011-07-24T07:43:33Z" uid="486838" user="Thargor" changeset="8812657">
    <nd ref="500368106"/>
    <nd ref="911322609"/>
    <tag k="highway" v="motorway"/>
    <tag k="layer" v="-1"/>
    <tag k="motorroad" v="yes"/>
    <tag k="name" v="Pražský okruh"/>
    <tag k="oneway" v="yes"/>
    <tag k="ref" v="R1"/>
    <tag k="toll" v="yes"/>
    <tag k="tunnel" v="yes"/>
  </way>
  <way id="77433119" version="9" timestamp="2011-08-27T11:41:50Z" uid="102554" user="Jezevec" changeset="9137033">
    <nd ref="500368106"/>
    <nd ref="911322609"/>
    <tag k="highway" v="trunk"/>
    <tag k="layer" v="-1"/>
    <tag k="motorroad" v="yes"/>
    <tag k="name" v="Pražský okruh"/>
    <tag k="oneway" v="yes"/>
    <tag k="ref" v="R1"/>
    <tag k="toll" v="yes"/>
    <tag k="tunnel" v="yes"/>
  </way>
  <way id="77433463" version="2" timestamp="2011-04-05T02:50:39Z" uid="4467" user="Rosscoe" changeset="7771132">
    <nd ref="36713465"/>
    <nd ref="911327660"/>
    <nd ref="1233256412"/>
    <tag k="admin_level" v="10"/>
    <tag k="attribution" v="Based on Australian Bureau of Statistics data"/>
    <tag k="boundary" v="administrative"/>
    <tag k="source" v="ABS_2006"/>
  </way>
  <way id="77433464" version="3" timestamp="2011-04-05T02:50:42Z" uid="4467" user="Rosscoe" changeset="7771132">
    <nd ref="1233256461"/>
    <nd ref="911327662"/>
    <tag k="highway" v="residential"/>
    <tag k="history" v="Retrieved from v11"/>
    <tag k="name" v="Victoria Road"/>
    <tag k="source_ref:name" v="http://osm.beldin.org/2009/02/dscf7135.jpg"/>
  </way>
  <way id="77433465" version="3" timestamp="2011-04-05T02:50:06Z" uid="4467" user="Rosscoe" changeset="7771132">
    <nd ref="911327663"/>
    <nd ref="911327662"/>
    <nd ref="1233256465"/>
    <nd ref="1233256567"/>
    <tag k="highway" v="residential"/>
    <tag k="history" v="Retrieved from v11"/>
    <tag k="name" v="Victoria Road"/>
    <tag k="source_ref:name" v="http://osm.beldin.org/2009/02/dscf7135.jpg"/>
  </way>
  <way id="77433466" version="2" timestamp="2011-04-05T02:51:31Z" uid="4467" user="Rosscoe" changeset="7771132"/>
  <way id="77433494" version="2" timestamp="2010-10-23T12:11:30Z" uid="7617" user="Franc" changeset="6144458">
    <nd ref="8407503"/>
    <nd ref="961424439"/>
    <tag k="highway" v="residential"/>
    <tag k="image" v="80n:dsc04102.jpg"/>
    <tag k="maxspeed" v="50"/>
    <tag k="maxspeed:source" v="default residential speed limit in Australia"/>
    <tag k="name" v="Ocean Avenue"/>
    <tag k="restriction" v="school_zone"/>
  </way>
  <way id="77433573" version="1" timestamp="2010-09-13T23:43:55Z" uid="6269" user="Mueck" changeset="5774651">
    <nd ref="911328276"/>
    <nd ref="911328306"/>
    <nd ref="312836718"/>
  </way>
  <way id="77433573" version="2" timestamp="2010-09-13T23:44:35Z" uid="6269" user="Mueck" changeset="5774651">
    <nd ref="911328276"/>
    <nd ref="911328306"/>
    <nd ref="312836718"/>
    <tag k="bicycle" v="no"/>
    <tag k="foot" v="yes"/>
    <tag k="highway" v="path"/>
  </way>
  <way id="77433617" version="2" timestamp="2011-04-05T02:49:47Z" uid="4467" user="Rosscoe" changeset="7771132">
    <nd ref="1233256688"/>
    <nd ref="1233256567"/>
    <nd ref="36713291"/>
    <nd ref="911328784"/>
    <tag k="highway" v="residential"/>
    <tag k="history" v="Retrieved from v11"/>
    <tag k="name" v="Victoria Road"/>
    <tag k="source_ref:name" v="http://osm.beldin.org/2009/02/dscf7135.jpg"/>
  </way>
  <way id="77433648" version="2" timestamp="2010-11-07T02:35:45Z" uid="7617" user="Franc" changeset="6307957">
    <nd ref="652437229"/>
    <nd ref="32846237"/>
    <nd ref="14280580"/>
    <nd ref="14280582"/>
    <nd ref="14280586"/>
    <nd ref="980013574"/>
    <nd ref="573770111"/>
    <nd ref="14280585"/>
    <nd ref="14693766"/>
    <nd ref="14693767"/>
    <tag k="cycleway" v="lane"/>
    <tag k="highway" v="residential"/>
    <tag k="lcn" v="yes"/>
    <tag k="maxspeed" v="50"/>
    <tag k="maxspeed:source" v="default residential speed limit in Australia"/>
    <tag k="name" v="Craigend Street"/>
    <tag k="oneway" v="yes"/>
  </way>
  <way id="77433110" version="12" timestamp="2012-04-19T21:51:49Z" uid="102554" user="Jezevec" changeset="11358830">
    <nd ref="500368198"/>
    <nd ref="1723353376"/>
    <nd ref="500368196"/>
    <nd ref="500368189"/>
    <nd ref="1723353401"/>
    <nd ref="500368242"/>
    <nd ref="500368182"/>
    <nd ref="1723353403"/>
    <nd ref="500368175"/>
    <nd ref="1723353399"/>
    <nd ref="500368159"/>
    <nd ref="500368152"/>
    <nd ref="544356395"/>
    <nd ref="1723353355"/>
    <nd ref="500368146"/>
    <nd ref="1723353352"/>
    <nd ref="911322617"/>
    <tag k="highway" v="trunk"/>
    <tag k="maxspeed" v="130"/>
    <tag k="motorroad" v="yes"/>
    <tag k="name" v="Pražský okruh"/>
    <tag k="oneway" v="yes"/>
    <tag k="ref" v="R1"/>
    <tag k="toll" v="yes"/>
  </way>
  <way id="77433110" version="13" timestamp="2012-07-17T01:05:39Z" uid="722137" user="OSMF Redaction Account" changeset="12254526">
    <nd ref="500368198"/>
    <nd ref="1723353376"/>
    <nd ref="500368196"/>
    <nd ref="500368189"/>
    <nd ref="1723353401"/>
    <nd ref="500368242"/>
    <nd ref="500368182"/>
    <nd ref="1723353403"/>
    <nd ref="500368175"/>
    <nd ref="1723353399"/>
    <nd ref="500368159"/>
    <nd ref="500368152"/>
    <nd ref="544356395"/>
    <nd ref="1723353355"/>
    <nd ref="500368146"/>
    <nd ref="1723353352"/>
    <nd ref="911322617"/>
    <tag k="highway" v="trunk"/>
    <tag k="maxspeed" v="130"/>
    <tag k="motorroad" v="yes"/>
    <tag k="name" v="Pražský okruh"/>
    <tag k="oneway" v="yes"/>
    <tag k="toll" v="yes"/>
  </way>
  <way id="77433110" version="14" timestamp="2012-07-18T09:18:45Z" uid="364739" user="j123b567" changeset="12276357">
    <nd ref="500368199"/>
    <nd ref="500368198"/>
    <tag k="bridge" v="yes"/>
    <tag k="highway" v="trunk"/>
    <tag k="layer" v="1"/>
    <tag k="maxspeed" v="130"/>
    <tag k="motorroad" v="yes"/>
    <tag k="name" v="Pražský okruh"/>
    <tag k="oneway" v="yes"/>
    <tag k="toll" v="yes"/>
  </way>
  <way id="77433112" version="13" timestamp="2012-04-19T21:51:48Z" uid="102554" user="Jezevec" changeset="11358830">
    <nd ref="911322613"/>
    <nd ref="1723353342"/>
    <nd ref="250835622"/>
    <nd ref="1723353346"/>
    <nd ref="459394090"/>
    <nd ref="913118101"/>
    <nd ref="913118097"/>
    <nd ref="1723353382"/>
    <nd ref="250835624"/>
    <nd ref="1723353397"/>
    <nd ref="1723353395"/>
    <nd ref="500368121"/>
    <nd ref="1723353384"/>
    <nd ref="966832354"/>
    <nd ref="1723353361"/>
    <nd ref="500368127"/>
    <tag k="highway" v="trunk"/>
    <tag k="maxspeed" v="130"/>
    <tag k="motorroad" v="yes"/>
    <tag k="name" v="Pražský okruh"/>
    <tag k="oneway" v="yes"/>
    <tag k="ref" v="R1"/>
    <tag k="toll" v="yes"/>
  </way>
  <way id="77433112" version="14" timestamp="2012-07-17T01:05:40Z" uid="722137" user="OSMF Redaction Account" changeset="12254526">
    <nd ref="911322613"/>
    <nd ref="1723353342"/>
    <nd ref="250835622"/>
    <nd ref="1723353346"/>
    <nd ref="459394090"/>
    <nd ref="913118101"/>
    <nd ref="913118097"/>
    <nd ref="1723353382"/>
    <nd ref="250835624"/>
    <nd ref="1723353397"/>
    <nd ref="1723353395"/>
    <nd ref="500368121"/>
    <nd ref="1723353384"/>
    <nd ref="966832354"/>
    <nd ref="1723353361"/>
    <nd ref="500368127"/>
    <tag k="highway" v="trunk"/>
    <tag k="maxspeed" v="130"/>
    <tag k="motorroad" v="yes"/>
    <tag k="name" v="Pražský okruh"/>
    <tag k="oneway" v="yes"/>
    <tag k="toll" v="yes"/>
  </way>
  <way id="77433112" version="15" timestamp="2012-07-18T09:18:43Z" uid="364739" user="j123b567" changeset="12276357">
    <nd ref="911322613"/>
    <nd ref="1723353342"/>
    <nd ref="250835622"/>
    <nd ref="1723353346"/>
    <nd ref="459394090"/>
    <nd ref="913118101"/>
    <nd ref="913118097"/>
    <nd ref="1723353382"/>
    <nd ref="250835624"/>
    <nd ref="1723353397"/>
    <nd ref="1723353395"/>
    <nd ref="500368121"/>
    <nd ref="1723353384"/>
    <nd ref="966832354"/>
    <nd ref="1723353361"/>
    <nd ref="500368127"/>
    <tag k="highway" v="trunk"/>
    <tag k="maxspeed" v="130"/>
    <tag k="motorroad" v="yes"/>
    <tag k="name" v="Pražský okruh"/>
    <tag k="oneway" v="yes"/>
    <tag k="toll" v="yes"/>
  </way>
  <way id="77433113" version="12" timestamp="2012-04-19T21:51:54Z" uid="102554" user="Jezevec" changeset="11358830">
    <nd ref="500368133"/>
    <nd ref="1723353372"/>
    <nd ref="500368116"/>
    <nd ref="500368106"/>
    <tag k="foot" v="no"/>
    <tag k="highway" v="trunk"/>
    <tag k="lanes" v="2"/>
    <tag k="maxspeed" v="130"/>
    <tag k="motorroad" v="yes"/>
    <tag k="name" v="Pražský okruh"/>
    <tag k="oneway" v="yes"/>
    <tag k="ref" v="R1"/>
    <tag k="toll" v="yes"/>
  </way>
  <way id="77433113" version="13" timestamp="2012-07-17T01:05:40Z" uid="722137" user="OSMF Redaction Account" changeset="12254526">
    <nd ref="500368133"/>
    <nd ref="1723353372"/>
    <nd ref="500368116"/>
    <nd ref="500368106"/>
    <tag k="foot" v="no"/>
    <tag k="highway" v="trunk"/>
    <tag k="lanes" v="2"/>
    <tag k="maxspeed" v="130"/>
    <tag k="motorroad" v="yes"/>
    <tag k="name" v="Pražský okruh"/>
    <tag k="oneway" v="yes"/>
    <tag k="toll" v="yes"/>
  </way>
  <way id="77433115" version="11" timestamp="2012-07-17T01:05:41Z" uid="722137" user="OSMF Redaction Account" changeset="12254526">
    <nd ref="911322610"/>
    <nd ref="911322613"/>
    <tag k="highway" v="trunk"/>
    <tag k="layer" v="-1"/>
    <tag k="motorroad" v="yes"/>
    <tag k="name" v="Pražský okruh"/>
    <tag k="oneway" v="yes"/>
    <tag k="toll" v="yes"/>
    <tag k="tunnel" v="yes"/>
  </way>
  <way id="77433115" version="12" timestamp="2012-07-26T11:21:26Z" uid="364739" user="j123b567" changeset="12497863">
    <nd ref="911322610"/>
    <nd ref="911322613"/>
    <tag k="highway" v="trunk"/>
    <tag k="layer" v="-1"/>
    <tag k="maxspeed" v="130"/>
    <tag k="motorroad" v="yes"/>
    <tag k="name" v="Pražský okruh"/>
    <tag k="oneway" v="yes"/>
    <tag k="toll" v="yes"/>
    <tag k="tunnel" v="yes"/>
  </way>
  <way id="77433116" version="10" timestamp="2012-07-17T01:05:41Z" uid="722137" user="OSMF Redaction Account" changeset="12254526">
    <nd ref="911322617"/>
    <nd ref="500368133"/>
    <tag k="highway" v="trunk"/>
    <tag k="layer" v="-1"/>
    <tag k="motorroad" v="yes"/>
    <tag k="name" v="Pražský okruh"/>
    <tag k="oneway" v="yes"/>
    <tag k="toll" v="yes"/>
    <tag k="tunnel" v="yes"/>
  </way>
  <way id="77433116" version="11" timestamp="2012-07-26T11:21:27Z" uid="364739" user="j123b567" changeset="12497863">
    <nd ref="911322617"/>
    <nd ref="500368133"/>
    <tag k="highway" v="trunk"/>
    <tag k="layer" v="-1"/>
    <tag k="maxspeed" v="130"/>
    <tag k="motorroad" v="yes"/>
    <tag k="name" v="Pražský okruh"/>
    <tag k="oneway" v="yes"/>
    <tag k="toll" v="yes"/>
    <tag k="tunnel" v="yes"/>
  </way>
  <way id="77433117" version="12" timestamp="2012-04-19T21:51:55Z" uid="102554" user="Jezevec" changeset="11358830">
    <nd ref="911322612"/>
    <nd ref="250835620"/>
    <nd ref="1723353350"/>
    <nd ref="911322610"/>
    <tag k="foot" v="no"/>
    <tag k="highway" v="trunk"/>
    <tag k="lanes" v="2"/>
    <tag k="maxspeed" v="130"/>
    <tag k="motorroad" v="yes"/>
    <tag k="name" v="Pražský okruh"/>
    <tag k="oneway" v="yes"/>
    <tag k="ref" v="R1"/>
    <tag k="toll" v="yes"/>
  </way>
  <way id="77433117" version="13" timestamp="2012-07-17T01:05:41Z" uid="722137" user="OSMF Redaction Account" changeset="12254526">
    <nd ref="911322612"/>
    <nd ref="250835620"/>
    <nd ref="1723353350"/>
    <nd ref="911322610"/>
    <tag k="foot" v="no"/>
    <tag k="highway" v="trunk"/>
    <tag k="lanes" v="2"/>
    <tag k="maxspeed" v="130"/>
    <tag k="motorroad" v="yes"/>
    <tag k="name" v="Pražský okruh"/>
    <tag k="oneway" v="yes"/>
    <tag k="toll" v="yes"/>
  </way>
  <way id="77433118" version="11" timestamp="2012-07-17T01:05:41Z" uid="722137" user="OSMF Redaction Account" changeset="12254526">
    <nd ref="911322611"/>
    <nd ref="911322612"/>
    <tag k="highway" v="trunk"/>
    <tag k="layer" v="-1"/>
    <tag k="motorroad" v="yes"/>
    <tag k="name" v="Pražský okruh"/>
    <tag k="oneway" v="yes"/>
    <tag k="toll" v="yes"/>
    <tag k="tunnel" v="yes"/>
  </way>
  <way id="77433118" version="12" timestamp="2012-07-26T11:21:23Z" uid="364739" user="j123b567" changeset="12497863">
    <nd ref="911322611"/>
    <nd ref="911322612"/>
    <tag k="highway" v="trunk"/>
    <tag k="layer" v="-1"/>
    <tag k="maxspeed" v="130"/>
    <tag k="motorroad" v="yes"/>
    <tag k="name" v="Pražský okruh"/>
    <tag k="oneway" v="yes"/>
    <tag k="toll" v="yes"/>
    <tag k="tunnel" v="yes"/>
  </way>
  <way id="77433119" version="10" timestamp="2012-07-17T01:05:42Z" uid="722137" user="OSMF Redaction Account" changeset="12254526">
    <nd ref="500368106"/>
    <nd ref="911322609"/>
    <tag k="highway" v="trunk"/>
    <tag k="layer" v="-1"/>
    <tag k="motorroad" v="yes"/>
    <tag k="name" v="Pražský okruh"/>
    <tag k="oneway" v="yes"/>
    <tag k="toll" v="yes"/>
    <tag k="tunnel" v="yes"/>
  </way>
  <way id="77433119" version="11" timestamp="2012-07-26T11:21:24Z" uid="364739" user="j123b567" changeset="12497863">
    <nd ref="500368106"/>
    <nd ref="911322609"/>
    <tag k="highway" v="trunk"/>
    <tag k="layer" v="-1"/>
    <tag k="maxspeed" v="130"/>
    <tag k="motorroad" v="yes"/>
    <tag k="name" v="Pražský okruh"/>
    <tag k="oneway" v="yes"/>
    <tag k="toll" v="yes"/>
    <tag k="tunnel" v="yes"/>
  </way>
  <way id="77433463" version="3" timestamp="2012-07-20T12:20:55Z" uid="722137" user="OSMF Redaction Account" changeset="12375569">
    <nd ref="36713465"/>
    <nd ref="911327660"/>
    <tag k="admin_level" v="10"/>
    <tag k="attribution" v="Based on Australian Bureau of Statistics data"/>
    <tag k="boundary" v="administrative"/>
    <tag k="source" v="local_knowledge"/>
  </way>
  <way id="77433463" version="4" timestamp="2012-09-10T13:07:17Z" uid="67896" user="mrpulley" changeset="13053950"/>
  <way id="77433464" version="4" timestamp="2012-07-11T11:40:45Z" uid="328538" user="o&apos;cholio" changeset="12184923">
    <nd ref="1233256461"/>
    <nd ref="911327662"/>
    <tag k="highway" v="residential"/>
    <tag k="history" v="Retrieved from v11"/>
    <tag k="name" v="Victoria Road"/>
  </way>
  <way id="77433464" version="5" timestamp="2012-07-20T12:23:43Z" uid="722137" user="OSMF Redaction Account" changeset="12375752"/>
  <way id="77433465" version="4" timestamp="2012-07-20T12:20:55Z" uid="722137" user="OSMF Redaction Account" changeset="12375569">
    <nd ref="911327663"/>
    <nd ref="911327662"/>
    <tag k="highway" v="residential"/>
    <tag k="history" v="Retrieved from v11"/>
    <tag k="name" v="Victoria Road"/>
    <tag k="source_ref:name" v="http://osm.beldin.org/2009/02/dscf7135.jpg"/>
  </way>
  <way id="77433465" version="5" timestamp="2012-07-31T10:46:40Z" uid="67896" user="mrpulley" changeset="12559203">
    <nd ref="911327663"/>
    <nd ref="911327662"/>
    <tag k="highway" v="residential"/>
    <tag k="history" v="Retrieved from v11"/>
    <tag k="name" v="Victoria Road"/>
    <tag k="ref" v="A16"/>
    <tag k="source_ref:name" v="http://osm.beldin.org/2009/02/dscf7135.jpg"/>
  </way>
  <way id="77433465" version="6" timestamp="2012-09-06T03:46:55Z" uid="62202" user="notentirelysure85" changeset="13004717">
    <nd ref="911327663"/>
    <nd ref="911327662"/>
    <nd ref="1901661162"/>
    <nd ref="1901661161"/>
    <nd ref="36713291"/>
    <tag k="highway" v="residential"/>
    <tag k="history" v="Retrieved from v11"/>
    <tag k="name" v="Victoria Road"/>
    <tag k="ref" v="A16"/>
    <tag k="source_ref:name" v="http://osm.beldin.org/2009/02/dscf7135.jpg"/>
  </way>
  <way id="77433494" version="3" timestamp="2012-07-19T21:40:41Z" uid="722137" user="OSMF Redaction Account" changeset="12348758"/>
  <way id="77433573" version="3" timestamp="2012-07-17T10:17:18Z" uid="722137" user="OSMF Redaction Account" changeset="12262778"/>
  <way id="77433617" version="3" timestamp="2012-07-20T12:23:43Z" uid="722137" user="OSMF Redaction Account" changeset="12375752"/>
  <way id="77433648" version="3" timestamp="2012-07-20T00:54:06Z" uid="722137" user="OSMF Redaction Account" changeset="12353530">
    <nd ref="652437229"/>
    <nd ref="32846237"/>
    <nd ref="14280580"/>
    <nd ref="14280582"/>
    <nd ref="14280586"/>
    <nd ref="14280585"/>
    <nd ref="14693766"/>
    <tag k="cycleway" v="lane"/>
    <tag k="highway" v="residential"/>
    <tag k="lcn" v="yes"/>
    <tag k="maxspeed" v="50"/>
    <tag k="maxspeed:source" v="default residential speed limit in Australia"/>
    <tag k="name" v="Craigend Street"/>
    <tag k="oneway" v="yes"/>
  </way>
  <way id="77433648" version="4" timestamp="2012-07-27T17:54:06Z" uid="308" user="MichaelCollinson" changeset="12513989">
    <nd ref="911328346"/>
    <nd ref="652437229"/>
    <nd ref="32846237"/>
    <nd ref="14280580"/>
    <nd ref="14280582"/>
    <nd ref="14280586"/>
    <nd ref="14280585"/>
    <nd ref="14693766"/>
    <tag k="cycleway" v="lane"/>
    <tag k="highway" v="residential"/>
    <tag k="lcn" v="yes"/>
    <tag k="maxspeed" v="50"/>
    <tag k="maxspeed:source" v="default residential speed limit in Australia"/>
    <tag k="name" v="Craigend Street"/>
    <tag k="oneway" v="yes"/>
  </way>
  <way id="77433648" version="5" timestamp="2012-08-14T05:30:00Z" uid="18675" user="JeLuF" changeset="12722476">
    <nd ref="911328346"/>
    <nd ref="652437229"/>
    <nd ref="32846237"/>
    <nd ref="14280580"/>
    <nd ref="14280582"/>
    <nd ref="14280586"/>
    <nd ref="14280585"/>
    <nd ref="14693766"/>
    <nd ref="1865250324"/>
    <tag k="cycleway" v="lane"/>
    <tag k="highway" v="residential"/>
    <tag k="lcn" v="yes"/>
    <tag k="maxspeed" v="50"/>
    <tag k="maxspeed:source" v="default residential speed limit in Australia"/>
    <tag k="name" v="Craigend Street"/>
    <tag k="oneway" v="yes"/>
  </way>
</osm>
