<?xml version='1.0' encoding='UTF-8'?>
<osm version="0.6" generator="libosmium/2.20.0">
  <way id="7821378" version="9" timestamp="2009-07-25T04:15:28Z" uid="74617" user="JohnSmith" changeset="1930637">
    <nd ref="56992759"/>
    <nd ref="76472073"/>
    <tag k="access" v="no"/>
    <tag k="highway" v="bus_guideway"/>
    <tag k="motorcar" v="no"/>
    <tag k="name" v="Adelaide O-Bahn"/>
    <tag k="oneway" v="yes"/>
    <tag k="psv" v="yes"/>
  </way>
  <way id="7821378" version="10" timestamp="2010-04-07T13:53:42Z" uid="79475" user="AlexOnTheBus" changeset="4354916">
    <nd ref="56992759"/>
    <nd ref="687496105"/>
    <tag k="access" v="no"/>
    <tag k="highway" v="service"/>
    <tag k="motorcar" v="no"/>
    <tag k="name" v="Adelaide O-Bahn Onramp"/>
    <tag k="oneway" v="yes"/>
    <tag k="psv" v="yes"/>
  </way>
  <way id="7821378" version="11" timestamp="2010-04-11T02:08:46Z" uid="79475" user="AlexOnTheBus" changeset="4388936">
    <nd ref="56992759"/>
    <nd ref="692496834"/>
    <tag k="access" v="no"/>
    <tag k="highway" v="service"/>
    <tag k="motorcar" v="no"/>
    <tag k="name" v="Adelaide O-Bahn Onramp"/>
    <tag k="oneway" v="yes"/>
    <tag k="psv" v="yes"/>
  </way>
  <way id="7821378" version="12" timestamp="2010-04-11T02:10:20Z" uid="79475" user="AlexOnTheBus" changeset="4388936">
    <nd ref="56992759"/>
    <nd ref="692498380"/>
    <nd ref="692496834"/>
    <tag k="access" v="no"/>
    <tag k="highway" v="service"/>
    <tag k="motorcar" v="no"/>
    <tag k="name" v="Adelaide O-Bahn Onramp"/>
    <tag k="oneway" v="yes"/>
    <tag k="psv" v="yes"/>
  </way>
  <way id="7821975" version="8" timestamp="2008-02-01T15:34:54Z" uid="13367" user="nubok" changeset="7450">
    <nd ref="33483387"/>
    <nd ref="57268601"/>
    <tag k="bridge" v="yes"/>
    <tag k="created_by" v="Potlatch 0.6c"/>
    <tag k="highway" v="trunk"/>
    <tag k="lanes" v="3"/>
    <tag k="layer" v="1"/>
    <tag k="name" v="Magdeburger Ring"/>
    <tag k="oneway" v="yes"/>
    <tag k="ref" v="B71"/>
  </way>
  <way id="7821975" version="9" timestamp="2008-02-11T21:49:35Z" uid="13565" user="hadhuey" changeset="102207">
    <nd ref="33483387"/>
    <nd ref="57268601"/>
    <tag k="bridge" v="yes"/>
    <tag k="created_by" v="Potlatch 0.7"/>
    <tag k="highway" v="trunk"/>
    <tag k="lanes" v="3"/>
    <tag k="layer" v="1"/>
    <tag k="maxspeed" v="80"/>
    <tag k="name" v="Magdeburger Ring"/>
    <tag k="oneway" v="yes"/>
    <tag k="ref" v="B71"/>
  </way>
  <way id="7821975" version="10" timestamp="2008-07-08T02:36:50Z" uid="24920" user="Schusch" changeset="427116">
    <nd ref="33483387"/>
    <nd ref="57268601"/>
    <tag k="bridge" v="yes"/>
    <tag k="created_by" v="Potlatch 0.9c"/>
    <tag k="highway" v="trunk"/>
    <tag k="lanes" v="3"/>
    <tag k="layer" v="1"/>
    <tag k="maxspeed" v="80"/>
    <tag k="name" v="Magdeburger Ring"/>
    <tag k="oneway" v="yes"/>
    <tag k="ref" v="B 71"/>
  </way>
  <way id="7821975" version="11" timestamp="2009-05-13T18:48:10Z" uid="42683" user="riechfield" changeset="1178470">
    <nd ref="33483387"/>
    <nd ref="57268601"/>
    <tag k="bridge" v="yes"/>
    <tag k="highway" v="trunk"/>
    <tag k="lanes" v="3"/>
    <tag k="layer" v="1"/>
    <tag k="maxspeed" v="80"/>
    <tag k="motorroad" v="yes"/>
    <tag k="name" v="Magdeburger Ring"/>
    <tag k="oneway" v="yes"/>
    <tag k="ref" v="B 71"/>
  </way>
  <way id="7821975" version="12" timestamp="2012-01-19T20:54:50Z" uid="13565" user="hadhuey" changeset="10441075"/>
  <way id="7821978" version="5" timestamp="2008-02-01T15:35:31Z" uid="13367" user="nubok" changeset="7450">
    <nd ref="57268601"/>
    <nd ref="33483389"/>
    <nd ref="33483390"/>
    <nd ref="33483392"/>
    <nd ref="33483393"/>
    <nd ref="33483394"/>
    <nd ref="33483396"/>
    <tag k="created_by" v="Potlatch 0.6c"/>
    <tag k="highway" v="trunk"/>
    <tag k="lanes" v="2"/>
    <tag k="nat_ref" v="B71"/>
    <tag k="oneway" v="yes"/>
    <tag k="reg_ref" v="Magdeburger Ring"/>
  </way>
  <way id="7821978" version="7" timestamp="2008-02-11T17:32:55Z" uid="13565" user="hadhuey" changeset="99441">
    <nd ref="57268601"/>
    <nd ref="33483389"/>
    <nd ref="33483390"/>
    <nd ref="33483392"/>
    <nd ref="33483393"/>
    <nd ref="247229348"/>
    <nd ref="33483394"/>
    <nd ref="33483396"/>
    <tag k="created_by" v="Potlatch 0.7"/>
    <tag k="highway" v="trunk"/>
    <tag k="lanes" v="2"/>
    <tag k="oneway" v="yes"/>
    <tag k="ref" v="B71"/>
    <tag k="reg_ref" v="Magdeburger Ring"/>
  </way>
  <way id="7821978" version="8" timestamp="2008-02-11T18:00:49Z" uid="13565" user="hadhuey" changeset="99441">
    <nd ref="57268601"/>
    <nd ref="33483389"/>
    <nd ref="33483390"/>
    <nd ref="247235988"/>
    <nd ref="33483392"/>
    <nd ref="33483393"/>
    <nd ref="247229348"/>
    <nd ref="33483394"/>
    <nd ref="33483396"/>
    <tag k="created_by" v="Potlatch 0.7"/>
    <tag k="highway" v="trunk"/>
    <tag k="lanes" v="2"/>
    <tag k="oneway" v="yes"/>
    <tag k="ref" v="B71"/>
    <tag k="reg_ref" v="Magdeburger Ring"/>
  </way>
  <way id="7821978" version="9" timestamp="2008-02-11T18:01:10Z" uid="13565" user="hadhuey" changeset="99441">
    <nd ref="57268601"/>
    <nd ref="33483389"/>
    <nd ref="33483390"/>
    <nd ref="247235988"/>
    <nd ref="33483392"/>
    <nd ref="33483393"/>
    <nd ref="247229348"/>
    <nd ref="33483394"/>
    <nd ref="33483396"/>
    <tag k="created_by" v="Potlatch 0.7"/>
    <tag k="highway" v="trunk"/>
    <tag k="lanes" v="2"/>
    <tag k="oneway" v="yes"/>
    <tag k="ref" v="B71"/>
    <tag k="reg_ref" v="Magdeburger Ring"/>
  </way>
  <way id="7821978" version="10" timestamp="2008-02-11T18:01:33Z" uid="13565" user="hadhuey" changeset="99441">
    <nd ref="57268601"/>
    <nd ref="33483389"/>
    <nd ref="33483390"/>
    <nd ref="247235988"/>
    <nd ref="33483392"/>
    <nd ref="33483393"/>
    <nd ref="247229348"/>
    <nd ref="33483394"/>
    <nd ref="33483396"/>
    <tag k="created_by" v="Potlatch 0.7"/>
    <tag k="highway" v="trunk"/>
    <tag k="lanes" v="2"/>
    <tag k="oneway" v="yes"/>
    <tag k="ref" v="B71"/>
    <tag k="reg_ref" v="Magdeburger Ring"/>
  </way>
  <way id="7821978" version="11" timestamp="2008-02-11T21:48:16Z" uid="13565" user="hadhuey" changeset="102207">
    <nd ref="57268601"/>
    <nd ref="33483389"/>
    <nd ref="33483390"/>
    <nd ref="247235988"/>
    <nd ref="33483392"/>
    <nd ref="33483393"/>
    <nd ref="247229348"/>
    <nd ref="33483394"/>
    <nd ref="33483396"/>
    <tag k="created_by" v="Potlatch 0.7"/>
    <tag k="highway" v="trunk"/>
    <tag k="lanes" v="2"/>
    <tag k="maxspeed" v="80"/>
    <tag k="oneway" v="yes"/>
    <tag k="ref" v="B71"/>
    <tag k="reg_ref" v="Magdeburger Ring"/>
  </way>
  <way id="7821978" version="12" timestamp="2008-02-12T17:59:30Z" uid="13565" user="hadhuey" changeset="107140">
    <nd ref="57268601"/>
    <nd ref="33483389"/>
    <nd ref="33483390"/>
    <nd ref="247235988"/>
    <nd ref="33483392"/>
    <nd ref="33483393"/>
    <nd ref="247229348"/>
    <nd ref="33483394"/>
    <nd ref="33483396"/>
    <tag k="created_by" v="Potlatch 0.7a"/>
    <tag k="highway" v="trunk"/>
    <tag k="lanes" v="2"/>
    <tag k="maxspeed" v="80"/>
    <tag k="oneway" v="yes"/>
    <tag k="ref" v="B71"/>
    <tag k="reg_ref" v="Magdeburger Ring"/>
  </way>
  <way id="7821978" version="13" timestamp="2008-02-12T23:23:26Z" uid="13565" user="hadhuey" changeset="112570">
    <nd ref="57268601"/>
    <nd ref="33483389"/>
    <nd ref="33483390"/>
    <nd ref="247235988"/>
    <nd ref="33483392"/>
    <nd ref="33483393"/>
    <nd ref="247229348"/>
    <nd ref="33483394"/>
    <nd ref="33483396"/>
    <tag k="created_by" v="Potlatch 0.7a"/>
    <tag k="highway" v="trunk"/>
    <tag k="lanes" v="2"/>
    <tag k="maxspeed" v="80"/>
    <tag k="oneway" v="yes"/>
    <tag k="ref" v="B71"/>
    <tag k="reg_ref" v="Magdeburger Ring"/>
  </way>
  <way id="7821978" version="14" timestamp="2008-07-08T02:36:53Z" uid="24920" user="Schusch" changeset="427116">
    <nd ref="57268601"/>
    <nd ref="33483389"/>
    <nd ref="33483390"/>
    <nd ref="247235988"/>
    <nd ref="33483392"/>
    <nd ref="33483393"/>
    <nd ref="247229348"/>
    <nd ref="33483394"/>
    <nd ref="33483396"/>
    <tag k="created_by" v="Potlatch 0.9c"/>
    <tag k="highway" v="trunk"/>
    <tag k="lanes" v="2"/>
    <tag k="maxspeed" v="80"/>
    <tag k="oneway" v="yes"/>
    <tag k="ref" v="B 71"/>
    <tag k="reg_ref" v="Magdeburger Ring"/>
  </way>
  <way id="7821978" version="15" timestamp="2008-07-27T21:45:26Z" uid="42683" user="riechfield" changeset="611522">
    <nd ref="57268601"/>
    <nd ref="33483389"/>
    <nd ref="33483390"/>
    <nd ref="247235988"/>
    <nd ref="33483392"/>
    <nd ref="33483393"/>
    <nd ref="247229348"/>
    <nd ref="33483394"/>
    <nd ref="33483396"/>
    <tag k="created_by" v="Potlatch 0.9c"/>
    <tag k="highway" v="trunk"/>
    <tag k="lanes" v="2"/>
    <tag k="maxspeed" v="80"/>
    <tag k="name" v="Magdeburger Ring"/>
    <tag k="oneway" v="yes"/>
    <tag k="ref" v="B 71"/>
  </way>
  <way id="7821978" version="16" timestamp="2009-05-13T18:48:11Z" uid="42683" user="riechfield" changeset="1178470">
    <nd ref="57268601"/>
    <nd ref="33483389"/>
    <nd ref="33483390"/>
    <nd ref="247235988"/>
    <nd ref="33483392"/>
    <nd ref="33483393"/>
    <nd ref="247229348"/>
    <nd ref="33483394"/>
    <nd ref="33483396"/>
    <tag k="highway" v="trunk"/>
    <tag k="lanes" v="2"/>
    <tag k="maxspeed" v="80"/>
    <tag k="motorroad" v="yes"/>
    <tag k="name" v="Magdeburger Ring"/>
    <tag k="oneway" v="yes"/>
    <tag k="ref" v="B 71"/>
  </way>
  <way id="7821978" version="17" timestamp="2009-07-25T11:13:30Z" uid="90262" user="ClickKlack" changeset="1933170">
    <nd ref="57268601"/>
    <nd ref="33483389"/>
    <nd ref="33483390"/>
    <tag k="highway" v="trunk"/>
    <tag k="lanes" v="2"/>
    <tag k="maxspeed" v="80"/>
    <tag k="motorroad" v="yes"/>
    <tag k="name" v="Magdeburger Ring"/>
    <tag k="oneway" v="yes"/>
    <tag k="ref" v="B 71"/>
  </way>
  <way id="7821978" version="18" timestamp="2009-07-25T13:50:07Z" uid="13565" user="hadhuey" changeset="1934510">
    <nd ref="57268601"/>
    <nd ref="447837465"/>
    <nd ref="33483389"/>
    <nd ref="33483390"/>
    <tag k="highway" v="trunk"/>
    <tag k="lanes" v="2"/>
    <tag k="maxspeed" v="80"/>
    <tag k="motorroad" v="yes"/>
    <tag k="name" v="Magdeburger Ring"/>
    <tag k="oneway" v="yes"/>
    <tag k="ref" v="B 71"/>
  </way>
  <way id="7821978" version="19" timestamp="2009-07-26T08:07:06Z" uid="90262" user="ClickKlack" changeset="1941777">
    <nd ref="57268601"/>
    <nd ref="447837465"/>
    <tag k="highway" v="trunk"/>
    <tag k="lanes" v="2"/>
    <tag k="maxspeed" v="80"/>
    <tag k="motorroad" v="yes"/>
    <tag k="name" v="Magdeburger Ring"/>
    <tag k="oneway" v="yes"/>
    <tag k="ref" v="B 71"/>
  </way>
  <way id="7821978" version="20" timestamp="2012-01-19T20:54:50Z" uid="13565" user="hadhuey" changeset="10441075"/>
  <way id="7821378" version="13" timestamp="2012-08-06T08:06:01Z" uid="7898" user="Softgrow" changeset="12629893">
    <nd ref="1853934014"/>
    <nd ref="692498380"/>
    <nd ref="1853934013"/>
    <nd ref="1853934011"/>
    <tag k="access" v="no"/>
    <tag k="highway" v="service"/>
    <tag k="motorcar" v="no"/>
    <tag k="name" v="Adelaide O-Bahn Onramp"/>
    <tag k="oneway" v="yes"/>
    <tag k="psv" v="yes"/>
  </way>
  <way id="7821378" version="14" timestamp="2012-08-23T13:05:15Z" uid="328538" user="o&apos;cholio" changeset="12832624">
    <nd ref="56992759"/>
    <nd ref="1853934014"/>
    <nd ref="692498380"/>
    <nd ref="1853934013"/>
    <nd ref="692496834"/>
    <tag k="access" v="no"/>
    <tag k="highway" v="service"/>
    <tag k="motorcar" v="no"/>
    <tag k="name" v="Adelaide O-Bahn Onramp"/>
    <tag k="oneway" v="yes"/>
    <tag k="psv" v="yes"/>
  </way>
</osm>
