<?xml version='1.0' encoding='UTF-8'?>
<osm version="0.6" generator="libosmium/2.20.0">
  <way id="7823145" version="5" timestamp="2007-12-16T11:28:32Z" uid="13367" user="nubok" changeset="330106">
    <nd ref="36796051"/>
    <nd ref="172948696"/>
    <nd ref="36796775"/>
    <tag k="bridge" v="true"/>
    <tag k="created_by" v="Potlatch 0.5d"/>
    <tag k="highway" v="trunk"/>
    <tag k="lanes" v="2"/>
    <tag k="layer" v="1"/>
    <tag k="oneway" v="true"/>
    <tag k="ref" v="B71"/>
    <tag k="reg_ref" v="Magdeburger Ring"/>
  </way>
  <way id="7823145" version="6" timestamp="2008-01-28T21:26:19Z" uid="13565" user="hadhuey" changeset="705220">
    <nd ref="36796051"/>
    <nd ref="36796775"/>
    <tag k="bridge" v="true"/>
    <tag k="created_by" v="Potlatch 0.6c"/>
    <tag k="highway" v="trunk"/>
    <tag k="lanes" v="2"/>
    <tag k="layer" v="1"/>
    <tag k="oneway" v="true"/>
    <tag k="ref" v="B71"/>
    <tag k="reg_ref" v="Magdeburger Ring"/>
  </way>
  <way id="7823145" version="7" timestamp="2008-02-04T16:30:49Z" uid="13367" user="nubok" changeset="38172">
    <nd ref="36796051"/>
    <nd ref="36796775"/>
    <tag k="bridge" v="yes"/>
    <tag k="created_by" v="Potlatch 0.7"/>
    <tag k="highway" v="trunk"/>
    <tag k="lanes" v="2"/>
    <tag k="layer" v="1"/>
    <tag k="oneway" v="yes"/>
    <tag k="ref" v="B71"/>
    <tag k="reg_ref" v="Magdeburger Ring"/>
  </way>
  <way id="7823145" version="8" timestamp="2008-07-27T21:47:03Z" uid="42683" user="riechfield" changeset="611522">
    <nd ref="36796051"/>
    <nd ref="36796775"/>
    <tag k="bridge" v="yes"/>
    <tag k="created_by" v="Potlatch 0.7"/>
    <tag k="highway" v="trunk"/>
    <tag k="lanes" v="2"/>
    <tag k="layer" v="1"/>
    <tag k="name" v="Magdeburger Ring"/>
    <tag k="oneway" v="yes"/>
    <tag k="ref" v="B 71"/>
  </way>
  <way id="7823145" version="9" timestamp="2009-01-16T20:10:22Z" uid="13565" user="hadhuey" changeset="795883">
    <nd ref="36796051"/>
    <nd ref="36796775"/>
    <tag k="bridge" v="yes"/>
    <tag k="created_by" v="Potlatch 0.10f"/>
    <tag k="highway" v="trunk"/>
    <tag k="lanes" v="2"/>
    <tag k="layer" v="1"/>
    <tag k="maxspeed" v="80"/>
    <tag k="name" v="Magdeburger Ring"/>
    <tag k="oneway" v="yes"/>
    <tag k="ref" v="B 71"/>
  </way>
  <way id="7823145" version="10" timestamp="2009-05-13T18:30:12Z" uid="42683" user="riechfield" changeset="1178255">
    <nd ref="36796051"/>
    <nd ref="36796775"/>
    <tag k="bridge" v="yes"/>
    <tag k="highway" v="trunk"/>
    <tag k="lanes" v="2"/>
    <tag k="layer" v="1"/>
    <tag k="maxspeed" v="80"/>
    <tag k="motorroad" v="yes"/>
    <tag k="name" v="Magdeburger Ring"/>
    <tag k="oneway" v="yes"/>
    <tag k="ref" v="B 71"/>
  </way>
  <way id="7823145" version="11" timestamp="2009-07-23T19:57:00Z" uid="123946" user="Luther__" changeset="1919439">
    <nd ref="36796051"/>
    <nd ref="36796775"/>
    <tag k="bridge" v="yes"/>
    <tag k="highway" v="trunk"/>
    <tag k="lanes" v="2"/>
    <tag k="layer" v="1"/>
    <tag k="lit" v="yes"/>
    <tag k="maxspeed" v="80"/>
    <tag k="motorroad" v="yes"/>
    <tag k="name" v="Magdeburger Ring"/>
    <tag k="oneway" v="yes"/>
    <tag k="ref" v="B 71"/>
  </way>
  <way id="7823145" version="12" timestamp="2010-06-05T23:00:46Z" uid="123946" user="Martin_D" changeset="4913134">
    <nd ref="36796051"/>
    <nd ref="36796775"/>
    <tag k="bridge" v="yes"/>
    <tag k="highway" v="trunk"/>
    <tag k="lanes" v="2"/>
    <tag k="layer" v="1"/>
    <tag k="lit" v="yes"/>
    <tag k="maxspeed" v="80"/>
    <tag k="motorroad" v="yes"/>
    <tag k="name" v="Magdeburger Ring"/>
    <tag k="oneway" v="yes"/>
    <tag k="ref" v="B 71"/>
    <tag k="source:maxspeed" v="sign"/>
  </way>
  <way id="7823145" version="13" timestamp="2012-01-19T20:54:52Z" uid="13565" user="hadhuey" changeset="10441075"/>
  <way id="7823185" version="3" timestamp="2007-12-16T11:28:32Z" uid="13367" user="nubok" changeset="330106">
    <nd ref="33483370"/>
    <nd ref="172948693"/>
    <nd ref="33483371"/>
    <tag k="bridge" v="true"/>
    <tag k="created_by" v="Potlatch 0.5d"/>
    <tag k="highway" v="trunk"/>
    <tag k="lanes" v="2"/>
    <tag k="layer" v="1"/>
    <tag k="nat_ref" v="B71"/>
    <tag k="oneway" v="true"/>
    <tag k="reg_ref" v="Magdeburger Ring"/>
  </way>
  <way id="7823185" version="4" timestamp="2008-01-28T21:26:13Z" uid="13565" user="hadhuey" changeset="705220">
    <nd ref="33483370"/>
    <nd ref="33483371"/>
    <tag k="bridge" v="true"/>
    <tag k="created_by" v="Potlatch 0.6c"/>
    <tag k="highway" v="trunk"/>
    <tag k="lanes" v="2"/>
    <tag k="layer" v="1"/>
    <tag k="nat_ref" v="B71"/>
    <tag k="oneway" v="true"/>
    <tag k="reg_ref" v="Magdeburger Ring"/>
  </way>
  <way id="7823185" version="5" timestamp="2008-02-04T16:30:43Z" uid="13367" user="nubok" changeset="38172">
    <nd ref="33483370"/>
    <nd ref="33483371"/>
    <tag k="bridge" v="yes"/>
    <tag k="created_by" v="Potlatch 0.7"/>
    <tag k="highway" v="trunk"/>
    <tag k="lanes" v="2"/>
    <tag k="layer" v="1"/>
    <tag k="nat_ref" v="B71"/>
    <tag k="oneway" v="yes"/>
    <tag k="reg_ref" v="Magdeburger Ring"/>
  </way>
  <way id="7823185" version="6" timestamp="2008-07-27T21:47:03Z" uid="42683" user="riechfield" changeset="611522">
    <nd ref="33483370"/>
    <nd ref="33483371"/>
    <tag k="bridge" v="yes"/>
    <tag k="created_by" v="Potlatch 0.7"/>
    <tag k="highway" v="trunk"/>
    <tag k="lanes" v="2"/>
    <tag k="layer" v="1"/>
    <tag k="oneway" v="yes"/>
    <tag k="ref" v="B 71"/>
    <tag k="reg_ref" v="Magdeburger Ring"/>
  </way>
  <way id="7823185" version="7" timestamp="2008-07-27T21:48:49Z" uid="42683" user="riechfield" changeset="611522">
    <nd ref="33483370"/>
    <nd ref="33483371"/>
    <tag k="bridge" v="yes"/>
    <tag k="created_by" v="Potlatch 0.7"/>
    <tag k="highway" v="trunk"/>
    <tag k="lanes" v="2"/>
    <tag k="layer" v="1"/>
    <tag k="name" v="Magdeburger Ring"/>
    <tag k="oneway" v="yes"/>
    <tag k="ref" v="B 71"/>
  </way>
  <way id="7823185" version="8" timestamp="2009-01-16T20:10:16Z" uid="13565" user="hadhuey" changeset="795883">
    <nd ref="33483370"/>
    <nd ref="33483371"/>
    <tag k="bridge" v="yes"/>
    <tag k="created_by" v="Potlatch 0.10f"/>
    <tag k="highway" v="trunk"/>
    <tag k="lanes" v="2"/>
    <tag k="layer" v="1"/>
    <tag k="maxspeed" v="80"/>
    <tag k="name" v="Magdeburger Ring"/>
    <tag k="oneway" v="yes"/>
    <tag k="ref" v="B 71"/>
  </way>
  <way id="7823185" version="9" timestamp="2009-05-13T18:30:13Z" uid="42683" user="riechfield" changeset="1178255">
    <nd ref="33483370"/>
    <nd ref="33483371"/>
    <tag k="bridge" v="yes"/>
    <tag k="highway" v="trunk"/>
    <tag k="lanes" v="2"/>
    <tag k="layer" v="1"/>
    <tag k="maxspeed" v="80"/>
    <tag k="motorroad" v="yes"/>
    <tag k="name" v="Magdeburger Ring"/>
    <tag k="oneway" v="yes"/>
    <tag k="ref" v="B 71"/>
  </way>
  <way id="7823185" version="10" timestamp="2009-07-23T19:57:01Z" uid="123946" user="Luther__" changeset="1919439">
    <nd ref="33483370"/>
    <nd ref="33483371"/>
    <tag k="bridge" v="yes"/>
    <tag k="highway" v="trunk"/>
    <tag k="lanes" v="2"/>
    <tag k="layer" v="1"/>
    <tag k="lit" v="yes"/>
    <tag k="maxspeed" v="80"/>
    <tag k="motorroad" v="yes"/>
    <tag k="name" v="Magdeburger Ring"/>
    <tag k="oneway" v="yes"/>
    <tag k="ref" v="B 71"/>
  </way>
  <way id="7823185" version="11" timestamp="2010-06-05T23:00:57Z" uid="123946" user="Martin_D" changeset="4913134">
    <nd ref="33483370"/>
    <nd ref="33483371"/>
    <tag k="bridge" v="yes"/>
    <tag k="highway" v="trunk"/>
    <tag k="lanes" v="2"/>
    <tag k="layer" v="1"/>
    <tag k="lit" v="yes"/>
    <tag k="maxspeed" v="80"/>
    <tag k="motorroad" v="yes"/>
    <tag k="name" v="Magdeburger Ring"/>
    <tag k="oneway" v="yes"/>
    <tag k="ref" v="B 71"/>
    <tag k="source:maxspeed" v="sign"/>
  </way>
  <way id="7823185" version="12" timestamp="2012-01-19T20:54:52Z" uid="13565" user="hadhuey" changeset="10441075"/>
  <way id="7823192" version="7" timestamp="2008-02-01T15:35:16Z" uid="13367" user="nubok" changeset="7450">
    <nd ref="33483371"/>
    <nd ref="33483372"/>
    <nd ref="33483373"/>
    <nd ref="33483375"/>
    <nd ref="33483377"/>
    <nd ref="33483378"/>
    <nd ref="33483379"/>
    <nd ref="33483381"/>
    <nd ref="33483382"/>
    <nd ref="33483383"/>
    <nd ref="33483385"/>
    <nd ref="33483386"/>
    <nd ref="33483387"/>
    <tag k="created_by" v="Potlatch 0.6c"/>
    <tag k="highway" v="trunk"/>
    <tag k="lanes" v="2"/>
    <tag k="name" v="Magdeburger Ring"/>
    <tag k="nat_ref" v="B71"/>
    <tag k="oneway" v="yes"/>
  </way>
  <way id="7823192" version="9" timestamp="2008-02-11T21:49:12Z" uid="13565" user="hadhuey" changeset="102207">
    <nd ref="33483371"/>
    <nd ref="33483372"/>
    <nd ref="33483373"/>
    <nd ref="33483375"/>
    <nd ref="33483377"/>
    <nd ref="33483378"/>
    <nd ref="33483379"/>
    <nd ref="33483381"/>
    <nd ref="33483382"/>
    <nd ref="33483383"/>
    <nd ref="33483385"/>
    <nd ref="33483386"/>
    <nd ref="33483387"/>
    <tag k="created_by" v="Potlatch 0.7"/>
    <tag k="highway" v="trunk"/>
    <tag k="lanes" v="2"/>
    <tag k="maxspeed" v="80"/>
    <tag k="name" v="Magdeburger Ring"/>
    <tag k="oneway" v="yes"/>
    <tag k="ref" v="B71"/>
  </way>
  <way id="7823192" version="10" timestamp="2008-07-08T02:36:45Z" uid="24920" user="Schusch" changeset="427116">
    <nd ref="33483371"/>
    <nd ref="33483372"/>
    <nd ref="33483373"/>
    <nd ref="33483375"/>
    <nd ref="33483377"/>
    <nd ref="33483378"/>
    <nd ref="33483379"/>
    <nd ref="33483381"/>
    <nd ref="33483382"/>
    <nd ref="33483383"/>
    <nd ref="33483385"/>
    <nd ref="33483386"/>
    <nd ref="33483387"/>
    <tag k="created_by" v="Potlatch 0.9c"/>
    <tag k="highway" v="trunk"/>
    <tag k="lanes" v="2"/>
    <tag k="maxspeed" v="80"/>
    <tag k="name" v="Magdeburger Ring"/>
    <tag k="oneway" v="yes"/>
    <tag k="ref" v="B 71"/>
  </way>
  <way id="7823192" version="11" timestamp="2008-08-23T14:56:38Z" uid="13565" user="hadhuey" changeset="376251">
    <nd ref="33483371"/>
    <nd ref="33483372"/>
    <nd ref="33483373"/>
    <nd ref="33483375"/>
    <nd ref="33483377"/>
    <nd ref="33483378"/>
    <nd ref="33483379"/>
    <nd ref="33483381"/>
    <nd ref="33483382"/>
    <nd ref="33483383"/>
    <nd ref="33483385"/>
    <nd ref="33483386"/>
    <nd ref="33483387"/>
    <tag k="created_by" v="Potlatch 0.10b"/>
    <tag k="highway" v="trunk"/>
    <tag k="lanes" v="2"/>
    <tag k="maxspeed" v="80"/>
    <tag k="name" v="Magdeburger Ring"/>
    <tag k="oneway" v="yes"/>
    <tag k="ref" v="B 71"/>
  </way>
  <way id="7823192" version="12" timestamp="2008-08-23T14:57:07Z" uid="13565" user="hadhuey" changeset="376251">
    <nd ref="33483371"/>
    <nd ref="33483372"/>
    <nd ref="33483373"/>
    <nd ref="33483375"/>
    <nd ref="290416786"/>
    <nd ref="33483377"/>
    <nd ref="33483378"/>
    <nd ref="33483379"/>
    <nd ref="33483381"/>
    <nd ref="33483382"/>
    <nd ref="33483383"/>
    <nd ref="33483385"/>
    <nd ref="33483386"/>
    <nd ref="33483387"/>
    <tag k="created_by" v="Potlatch 0.10b"/>
    <tag k="highway" v="trunk"/>
    <tag k="lanes" v="2"/>
    <tag k="maxspeed" v="80"/>
    <tag k="name" v="Magdeburger Ring"/>
    <tag k="oneway" v="yes"/>
    <tag k="ref" v="B 71"/>
  </way>
  <way id="7823192" version="13" timestamp="2009-05-13T18:30:13Z" uid="42683" user="riechfield" changeset="1178255">
    <nd ref="33483371"/>
    <nd ref="33483372"/>
    <nd ref="33483373"/>
    <nd ref="33483375"/>
    <nd ref="290416786"/>
    <nd ref="33483377"/>
    <nd ref="33483378"/>
    <nd ref="33483379"/>
    <nd ref="33483381"/>
    <nd ref="33483382"/>
    <nd ref="33483383"/>
    <nd ref="33483385"/>
    <nd ref="33483386"/>
    <nd ref="33483387"/>
    <tag k="highway" v="trunk"/>
    <tag k="lanes" v="2"/>
    <tag k="maxspeed" v="80"/>
    <tag k="motorroad" v="yes"/>
    <tag k="name" v="Magdeburger Ring"/>
    <tag k="oneway" v="yes"/>
    <tag k="ref" v="B 71"/>
  </way>
  <way id="7823192" version="14" timestamp="2009-07-23T19:57:02Z" uid="123946" user="Luther__" changeset="1919439">
    <nd ref="33483371"/>
    <nd ref="33483372"/>
    <nd ref="33483373"/>
    <nd ref="33483375"/>
    <nd ref="290416786"/>
    <nd ref="33483377"/>
    <nd ref="33483378"/>
    <nd ref="33483379"/>
    <nd ref="33483381"/>
    <nd ref="33483382"/>
    <nd ref="33483383"/>
    <nd ref="33483385"/>
    <nd ref="33483386"/>
    <nd ref="33483387"/>
    <tag k="highway" v="trunk"/>
    <tag k="lanes" v="2"/>
    <tag k="lit" v="yes"/>
    <tag k="maxspeed" v="80"/>
    <tag k="motorroad" v="yes"/>
    <tag k="name" v="Magdeburger Ring"/>
    <tag k="oneway" v="yes"/>
    <tag k="ref" v="B 71"/>
  </way>
  <way id="7823192" version="15" timestamp="2009-08-12T18:43:13Z" uid="90262" user="ClickKlack" changeset="2122390">
    <nd ref="33483371"/>
    <nd ref="33483372"/>
    <nd ref="33483373"/>
    <nd ref="33483375"/>
    <nd ref="290416786"/>
    <nd ref="33483377"/>
    <nd ref="33483378"/>
    <nd ref="33483379"/>
    <nd ref="33483381"/>
    <nd ref="33483382"/>
    <nd ref="33483383"/>
    <nd ref="33483385"/>
    <tag k="highway" v="trunk"/>
    <tag k="lanes" v="2"/>
    <tag k="lit" v="yes"/>
    <tag k="maxspeed" v="80"/>
    <tag k="motorroad" v="yes"/>
    <tag k="name" v="Magdeburger Ring"/>
    <tag k="oneway" v="yes"/>
    <tag k="ref" v="B 71"/>
  </way>
  <way id="7823192" version="16" timestamp="2010-06-05T23:01:03Z" uid="123946" user="Martin_D" changeset="4913134">
    <nd ref="33483371"/>
    <nd ref="33483372"/>
    <nd ref="33483373"/>
    <nd ref="33483375"/>
    <nd ref="290416786"/>
    <nd ref="33483377"/>
    <nd ref="33483378"/>
    <nd ref="33483379"/>
    <nd ref="33483381"/>
    <nd ref="33483382"/>
    <nd ref="33483383"/>
    <nd ref="33483385"/>
    <tag k="highway" v="trunk"/>
    <tag k="lanes" v="2"/>
    <tag k="lit" v="yes"/>
    <tag k="maxspeed" v="80"/>
    <tag k="motorroad" v="yes"/>
    <tag k="name" v="Magdeburger Ring"/>
    <tag k="oneway" v="yes"/>
    <tag k="ref" v="B 71"/>
    <tag k="source:maxspeed" v="sign"/>
  </way>
  <way id="7823192" version="17" timestamp="2012-01-19T20:54:52Z" uid="13565" user="hadhuey" changeset="10441075"/>
  <way id="7823649" version="7" timestamp="2008-01-26T15:16:15Z" uid="13367" user="nubok" changeset="697043">
    <nd ref="32881551"/>
    <nd ref="32686576"/>
    <nd ref="36709732"/>
    <tag k="created_by" v="Potlatch 0.6c"/>
    <tag k="highway" v="secondary"/>
    <tag k="name" v="Westring"/>
    <tag k="oneway" v="true"/>
  </way>
  <way id="7823649" version="8" timestamp="2008-05-25T19:33:30Z" uid="13565" user="hadhuey" changeset="519517">
    <nd ref="32881551"/>
    <nd ref="266859121"/>
    <nd ref="32686576"/>
    <nd ref="36709732"/>
    <tag k="created_by" v="Potlatch 0.9a"/>
    <tag k="highway" v="secondary"/>
    <tag k="name" v="Westring"/>
    <tag k="oneway" v="true"/>
  </way>
  <way id="7823649" version="9" timestamp="2008-05-25T19:33:56Z" uid="13565" user="hadhuey" changeset="519517">
    <nd ref="32881551"/>
    <nd ref="266859122"/>
    <nd ref="266859121"/>
    <nd ref="32686576"/>
    <nd ref="36709732"/>
    <tag k="created_by" v="Potlatch 0.9a"/>
    <tag k="highway" v="secondary"/>
    <tag k="name" v="Westring"/>
    <tag k="oneway" v="true"/>
  </way>
  <way id="7823649" version="10" timestamp="2008-08-25T17:17:25Z" uid="13565" user="hadhuey" changeset="399927">
    <nd ref="32881551"/>
    <nd ref="266859122"/>
    <nd ref="266859121"/>
    <nd ref="32686576"/>
    <nd ref="36709732"/>
    <tag k="created_by" v="Potlatch 0.10b"/>
    <tag k="highway" v="secondary"/>
    <tag k="maxspeed" v="50"/>
    <tag k="name" v="Westring"/>
    <tag k="oneway" v="true"/>
  </way>
  <way id="7823649" version="11" timestamp="2008-09-15T13:16:45Z" uid="42683" user="riechfield" changeset="639795">
    <nd ref="32881551"/>
    <nd ref="297217532"/>
    <nd ref="266859122"/>
    <nd ref="266859121"/>
    <nd ref="32686576"/>
    <nd ref="36709732"/>
    <tag k="created_by" v="Potlatch 0.10b"/>
    <tag k="highway" v="secondary"/>
    <tag k="maxspeed" v="50"/>
    <tag k="name" v="Westring"/>
    <tag k="oneway" v="true"/>
  </way>
  <way id="7823649" version="12" timestamp="2008-10-15T23:00:29Z" uid="41889" user="Kurt Krampmeier" changeset="365111">
    <nd ref="32881551"/>
    <nd ref="297217532"/>
    <nd ref="266859122"/>
    <nd ref="266859121"/>
    <nd ref="32686576"/>
    <nd ref="36709732"/>
    <tag k="created_by" v="Potlatch 0.10b"/>
    <tag k="highway" v="secondary"/>
    <tag k="maxspeed" v="50"/>
    <tag k="name" v="Westring"/>
    <tag k="oneway" v="yes"/>
  </way>
  <way id="7823649" version="13" timestamp="2008-12-30T01:45:37Z" uid="42683" user="riechfield" changeset="668116">
    <nd ref="32881551"/>
    <nd ref="297217532"/>
    <nd ref="266859122"/>
    <nd ref="266859121"/>
    <nd ref="32686576"/>
    <tag k="created_by" v="Potlatch 0.10b"/>
    <tag k="highway" v="secondary"/>
    <tag k="maxspeed" v="50"/>
    <tag k="name" v="Westring"/>
    <tag k="oneway" v="yes"/>
  </way>
  <way id="7823649" version="14" timestamp="2009-05-07T15:18:40Z" uid="42683" user="riechfield" changeset="1108163">
    <nd ref="32881551"/>
    <nd ref="297217532"/>
    <nd ref="266859122"/>
    <nd ref="266859121"/>
    <nd ref="392012047"/>
    <nd ref="32686576"/>
    <tag k="created_by" v="Potlatch 0.10b"/>
    <tag k="highway" v="secondary"/>
    <tag k="maxspeed" v="50"/>
    <tag k="name" v="Westring"/>
    <tag k="oneway" v="yes"/>
  </way>
  <way id="7823649" version="15" timestamp="2009-07-25T13:39:11Z" uid="13565" user="hadhuey" changeset="1934382">
    <nd ref="32881551"/>
    <nd ref="297217532"/>
    <nd ref="266859122"/>
    <nd ref="266859121"/>
    <nd ref="392012047"/>
    <nd ref="32686576"/>
    <tag k="created_by" v="Potlatch 0.10b"/>
    <tag k="cycleway" v="no"/>
    <tag k="footway" v="right"/>
    <tag k="highway" v="secondary"/>
    <tag k="maxspeed" v="50"/>
    <tag k="name" v="Westring"/>
    <tag k="oneway" v="yes"/>
  </way>
  <way id="7823649" version="16" timestamp="2009-07-25T15:44:09Z" uid="42683" user="riechfield" changeset="1935537">
    <nd ref="32881551"/>
    <nd ref="297217532"/>
    <nd ref="266859122"/>
    <nd ref="266859121"/>
    <nd ref="392012047"/>
    <nd ref="32686576"/>
    <tag k="cycleway" v="no"/>
    <tag k="footway" v="right"/>
    <tag k="highway" v="secondary"/>
    <tag k="maxspeed" v="50"/>
    <tag k="name" v="Westring"/>
    <tag k="oneway" v="yes"/>
  </way>
  <way id="7823649" version="17" timestamp="2011-02-26T14:56:01Z" uid="41889" user="Kurt Krampmeier" changeset="7400524">
    <nd ref="32881551"/>
    <nd ref="1174839906"/>
    <nd ref="297217532"/>
    <nd ref="266859122"/>
    <nd ref="266859121"/>
    <nd ref="392012047"/>
    <nd ref="32686576"/>
    <tag k="cycleway" v="no"/>
    <tag k="footway" v="right"/>
    <tag k="highway" v="secondary"/>
    <tag k="maxspeed" v="50"/>
    <tag k="name" v="Westring"/>
    <tag k="oneway" v="yes"/>
  </way>
  <way id="7823649" version="18" timestamp="2011-09-27T21:52:19Z" uid="41889" user="Kurt Krampmeier" changeset="9415223">
    <nd ref="32881551"/>
    <nd ref="1174839906"/>
    <nd ref="1447487273"/>
    <nd ref="297217532"/>
    <nd ref="1447487270"/>
    <nd ref="266859122"/>
    <nd ref="266859121"/>
    <nd ref="392012047"/>
    <nd ref="1447487268"/>
    <nd ref="32686576"/>
    <tag k="cycleway" v="no"/>
    <tag k="footway" v="right"/>
    <tag k="highway" v="secondary"/>
    <tag k="maxspeed" v="50"/>
    <tag k="name" v="Westring"/>
    <tag k="oneway" v="yes"/>
  </way>
  <way id="7823649" version="19" timestamp="2012-03-09T14:28:40Z" uid="90262" user="ClickKlack" changeset="10920544">
    <nd ref="32881551"/>
    <nd ref="1667330880"/>
    <nd ref="1667330851"/>
    <nd ref="1174839906"/>
    <nd ref="1447487273"/>
    <nd ref="297217532"/>
    <nd ref="1447487270"/>
    <nd ref="266859122"/>
    <nd ref="266859121"/>
    <nd ref="392012047"/>
    <nd ref="1447487268"/>
    <nd ref="32686576"/>
    <tag k="cycleway" v="no"/>
    <tag k="footway" v="right"/>
    <tag k="highway" v="secondary"/>
    <tag k="maxspeed" v="50"/>
    <tag k="name" v="Westring"/>
    <tag k="oneway" v="yes"/>
  </way>
</osm>
