<?xml version='1.0' encoding='UTF-8'?>
<osm version="0.6" generator="libosmium/2.20.0">
  <way id="78305280" version="2" timestamp="2010-11-13T11:21:00Z" uid="115477" user="wowik" changeset="6356871">
    <nd ref="919430705"/>
    <nd ref="919430706"/>
    <nd ref="919430707"/>
    <nd ref="919430708"/>
    <nd ref="919430705"/>
    <tag k="amenity" v="public_building"/>
    <tag k="building" v="yes"/>
    <tag k="description" v="Единый информационно-расчётный центр"/>
    <tag k="name" v="ЕИРЦ"/>
  </way>
  <way id="78305280" version="3" timestamp="2012-03-27T08:10:20Z" uid="481934" user="iWowik" changeset="11113698">
    <nd ref="919430705"/>
    <nd ref="919430706"/>
    <nd ref="919430707"/>
    <nd ref="919430708"/>
    <nd ref="919430705"/>
    <tag k="addr:city" v="Зеленоград"/>
    <tag k="addr:country" v="RU"/>
    <tag k="amenity" v="public_building"/>
    <tag k="building" v="yes"/>
    <tag k="description" v="Единый информационно-расчётный центр"/>
    <tag k="name" v="ЕИРЦ"/>
  </way>
  <way id="78305280" version="4" timestamp="2012-03-27T11:47:21Z" uid="481934" user="iWowik" changeset="11115472">
    <nd ref="919430705"/>
    <nd ref="919430706"/>
    <nd ref="919430707"/>
    <nd ref="919430708"/>
    <nd ref="919430705"/>
    <tag k="addr:city" v="Зеленоград"/>
    <tag k="addr:country" v="RU"/>
    <tag k="addr:region" v="Москва"/>
    <tag k="amenity" v="public_building"/>
    <tag k="building" v="yes"/>
    <tag k="description" v="Единый информационно-расчётный центр"/>
    <tag k="name" v="ЕИРЦ"/>
  </way>
  <way id="78305648" version="2" timestamp="2011-01-15T07:25:24Z" uid="4467" user="Rosscoe" changeset="6974018">
    <nd ref="373897231"/>
    <nd ref="321571431"/>
    <nd ref="233872415"/>
    <nd ref="589246886"/>
    <tag k="highway" v="secondary"/>
    <tag k="lanes" v="2"/>
    <tag k="maxspeed" v="60"/>
    <tag k="name" v="Wills Street"/>
  </way>
  <way id="78305280" version="5" timestamp="2012-07-20T23:48:00Z" uid="722137" user="OSMF Redaction Account" changeset="12396479">
    <nd ref="919430705"/>
    <nd ref="919430706"/>
    <nd ref="919430707"/>
    <nd ref="919430708"/>
    <nd ref="919430705"/>
    <tag k="addr:city" v="Зеленоград"/>
    <tag k="addr:country" v="RU"/>
    <tag k="addr:region" v="Москва"/>
    <tag k="amenity" v="public_building"/>
    <tag k="building" v="yes"/>
    <tag k="comment" v="Единый информационно-расчётный центр"/>
    <tag k="name" v="ЕИРЦ"/>
  </way>
  <way id="78305648" version="3" timestamp="2012-07-19T06:46:22Z" uid="722137" user="OSMF Redaction Account" changeset="12310701">
    <nd ref="373897231"/>
    <nd ref="233872415"/>
    <tag k="highway" v="secondary"/>
    <tag k="lanes" v="2"/>
    <tag k="maxspeed" v="60"/>
    <tag k="name" v="Wills Street"/>
  </way>
  <way id="78305648" version="4" timestamp="2012-07-19T12:53:56Z" uid="84937" user="Neil Penman" changeset="12327155">
    <nd ref="373897231"/>
    <nd ref="233872415"/>
    <nd ref="1830813501"/>
    <tag k="highway" v="secondary"/>
    <tag k="lanes" v="2"/>
    <tag k="maxspeed" v="60"/>
    <tag k="name" v="Wills Street"/>
  </way>
  <way id="78305648" version="5" timestamp="2012-07-25T02:21:55Z" uid="84937" user="Neil Penman" changeset="12480018">
    <nd ref="393630878"/>
    <nd ref="373897231"/>
    <nd ref="233872415"/>
    <nd ref="1830813501"/>
    <tag k="highway" v="secondary"/>
    <tag k="lanes" v="2"/>
    <tag k="maxspeed" v="60"/>
    <tag k="name" v="Wills Street"/>
  </way>
  <way id="78305648" version="6" timestamp="2012-08-02T11:56:50Z" uid="10906" user="Derringer" changeset="12585006">
    <nd ref="393630878"/>
    <nd ref="373897231"/>
    <nd ref="1848320277"/>
    <nd ref="233872415"/>
    <nd ref="1830813501"/>
    <tag k="highway" v="secondary"/>
    <tag k="lanes" v="2"/>
    <tag k="maxspeed" v="60"/>
    <tag k="name" v="Wills Street"/>
  </way>
  <way id="78305648" version="7" timestamp="2012-09-04T06:40:03Z" uid="95583" user="Geodes" changeset="12977272">
    <nd ref="393630878"/>
    <nd ref="373897231"/>
    <nd ref="1897716472"/>
    <nd ref="1848320277"/>
    <nd ref="233872415"/>
    <nd ref="1830813501"/>
    <tag k="highway" v="secondary"/>
    <tag k="lanes" v="2"/>
    <tag k="maxspeed" v="60"/>
    <tag k="name" v="Wills Street"/>
  </way>
  <way id="78305648" version="8" timestamp="2012-09-05T08:09:01Z" uid="95583" user="Geodes" changeset="12992372">
    <nd ref="393630878"/>
    <nd ref="1899813744"/>
    <nd ref="1899813739"/>
    <nd ref="1899813735"/>
    <nd ref="373897231"/>
    <nd ref="1897716472"/>
    <nd ref="1848320277"/>
    <nd ref="233872415"/>
    <nd ref="1830813501"/>
    <tag k="highway" v="secondary"/>
    <tag k="maxspeed" v="60"/>
    <tag k="name" v="Wills Street"/>
    <tag k="oneway" v="yes"/>
  </way>
</osm>
