<?xml version='1.0' encoding='UTF-8'?>
<osm version="0.6" generator="libosmium/2.20.0">
  <way id="7832197" version="5" timestamp="2009-01-02T15:07:05Z" uid="58091" user="Andreas M" changeset="708469">
    <nd ref="57473395"/>
    <nd ref="57473785"/>
    <tag k="created_by" v="Potlatch alpha"/>
    <tag k="highway" v="secondary"/>
    <tag k="name" v="Schwedenbrücke"/>
    <tag k="railway" v="tram"/>
  </way>
  <way id="7832197" version="6" timestamp="2009-05-31T18:13:30Z" uid="56311" user="Elandrion" changeset="1371947">
    <nd ref="57473395"/>
    <nd ref="57473785"/>
    <tag k="highway" v="secondary"/>
    <tag k="name" v="Schwedenbrücke"/>
    <tag k="railway" v="tram"/>
    <tag k="tracks" v="1"/>
  </way>
  <way id="7832197" version="7" timestamp="2009-10-30T21:57:47Z" uid="177764" user="matknoll" changeset="2993226">
    <nd ref="57473395"/>
    <nd ref="57473785"/>
    <tag k="highway" v="secondary"/>
    <tag k="name" v="Schwedenbrücke"/>
    <tag k="railway" v="tram"/>
    <tag k="tracks" v="1"/>
  </way>
  <way id="7832197" version="8" timestamp="2009-11-05T15:37:09Z" uid="12295" user="mapper_07" changeset="3041327">
    <nd ref="57473395"/>
    <nd ref="57473785"/>
    <tag k="highway" v="secondary"/>
    <tag k="maxspeed" v="50"/>
    <tag k="name" v="Schwedenbrücke"/>
    <tag k="railway" v="tram"/>
    <tag k="tracks" v="1"/>
  </way>
  <way id="7832197" version="9" timestamp="2011-11-08T00:46:51Z" uid="129531" user="almich" changeset="9770160">
    <nd ref="57473395"/>
    <nd ref="57473785"/>
    <tag k="electrified" v="contact_line"/>
    <tag k="frequency" v="0"/>
    <tag k="gauge" v="1435"/>
    <tag k="highway" v="secondary"/>
    <tag k="maxspeed" v="50"/>
    <tag k="name" v="Schwedenbrücke"/>
    <tag k="railway" v="tram"/>
    <tag k="tracks" v="1"/>
    <tag k="voltage" v="600"/>
  </way>
  <way id="7832382" version="4" timestamp="2008-03-09T15:38:25Z" uid="13367" user="nubok" changeset="295497">
    <nd ref="36797660"/>
    <nd ref="57474778"/>
    <tag k="bridge" v="yes"/>
    <tag k="created_by" v="Potlatch 0.7b"/>
    <tag k="highway" v="trunk"/>
    <tag k="lanes" v="2"/>
    <tag k="layer" v="1"/>
    <tag k="name" v="Magdeburger Ring"/>
    <tag k="oneway" v="yes"/>
    <tag k="ref" v="B71"/>
  </way>
  <way id="7832382" version="5" timestamp="2008-09-10T20:55:35Z" uid="42683" user="riechfield" changeset="601074">
    <nd ref="36797660"/>
    <nd ref="57474778"/>
    <tag k="bridge" v="yes"/>
    <tag k="created_by" v="Potlatch 0.7b"/>
    <tag k="highway" v="trunk"/>
    <tag k="lanes" v="2"/>
    <tag k="layer" v="1"/>
    <tag k="name" v="Magdeburger Ring"/>
    <tag k="oneway" v="yes"/>
    <tag k="ref" v="B 71"/>
  </way>
  <way id="7832382" version="6" timestamp="2008-09-12T15:08:20Z" uid="13565" user="hadhuey" changeset="612464">
    <nd ref="36797660"/>
    <nd ref="57474778"/>
    <tag k="bridge" v="yes"/>
    <tag k="created_by" v="Potlatch 0.10b"/>
    <tag k="highway" v="trunk"/>
    <tag k="lanes" v="2"/>
    <tag k="layer" v="1"/>
    <tag k="maxspeed" v="80"/>
    <tag k="name" v="Magdeburger Ring"/>
    <tag k="oneway" v="yes"/>
    <tag k="ref" v="B 71"/>
  </way>
  <way id="7832382" version="7" timestamp="2009-01-20T17:44:02Z" uid="42683" user="riechfield" changeset="816898">
    <nd ref="36797660"/>
    <nd ref="57474778"/>
    <tag k="bridge" v="yes"/>
    <tag k="created_by" v="Potlatch 0.10b"/>
    <tag k="highway" v="trunk"/>
    <tag k="int_ref" v="E 49"/>
    <tag k="lanes" v="2"/>
    <tag k="layer" v="1"/>
    <tag k="maxspeed" v="80"/>
    <tag k="name" v="Magdeburger Ring"/>
    <tag k="oneway" v="yes"/>
    <tag k="ref" v="B 71"/>
  </way>
  <way id="7832382" version="8" timestamp="2009-04-05T14:40:32Z" uid="9176" user="Maarten Deen" changeset="209257">
    <nd ref="36797660"/>
    <nd ref="57474778"/>
    <tag k="bridge" v="yes"/>
    <tag k="created_by" v="Potlatch 0.10b"/>
    <tag k="highway" v="trunk"/>
    <tag k="lanes" v="2"/>
    <tag k="layer" v="1"/>
    <tag k="maxspeed" v="80"/>
    <tag k="name" v="Magdeburger Ring"/>
    <tag k="oneway" v="yes"/>
    <tag k="ref" v="B 71"/>
  </way>
  <way id="7832382" version="9" timestamp="2009-05-13T18:30:15Z" uid="42683" user="riechfield" changeset="1178255">
    <nd ref="36797660"/>
    <nd ref="57474778"/>
    <tag k="bridge" v="yes"/>
    <tag k="highway" v="trunk"/>
    <tag k="lanes" v="2"/>
    <tag k="layer" v="1"/>
    <tag k="maxspeed" v="80"/>
    <tag k="motorroad" v="yes"/>
    <tag k="name" v="Magdeburger Ring"/>
    <tag k="oneway" v="yes"/>
    <tag k="ref" v="B 71"/>
  </way>
  <way id="7832382" version="10" timestamp="2009-07-22T22:31:18Z" uid="123946" user="Luther__" changeset="1909918">
    <nd ref="36797660"/>
    <nd ref="57474778"/>
    <tag k="bridge" v="yes"/>
    <tag k="highway" v="trunk"/>
    <tag k="lanes" v="2"/>
    <tag k="layer" v="1"/>
    <tag k="lit" v="yes"/>
    <tag k="maxspeed" v="80"/>
    <tag k="motorroad" v="yes"/>
    <tag k="name" v="Magdeburger Ring"/>
    <tag k="oneway" v="yes"/>
    <tag k="ref" v="B 71"/>
  </way>
  <way id="7832382" version="11" timestamp="2010-06-05T22:53:51Z" uid="123946" user="Martin_D" changeset="4913134">
    <nd ref="36797660"/>
    <nd ref="57474778"/>
    <tag k="bridge" v="yes"/>
    <tag k="highway" v="trunk"/>
    <tag k="lanes" v="2"/>
    <tag k="layer" v="1"/>
    <tag k="lit" v="yes"/>
    <tag k="maxspeed" v="80"/>
    <tag k="motorroad" v="yes"/>
    <tag k="name" v="Magdeburger Ring"/>
    <tag k="oneway" v="yes"/>
    <tag k="ref" v="B 71"/>
    <tag k="source:maxspeed" v="sign"/>
  </way>
  <way id="7832382" version="12" timestamp="2012-02-25T23:10:45Z" uid="487320" user="MrMaxG95" changeset="10793238">
    <nd ref="36797660"/>
    <nd ref="57474778"/>
    <tag k="bridge" v="yes"/>
    <tag k="highway" v="trunk"/>
    <tag k="lanes" v="2"/>
    <tag k="layer" v="1"/>
    <tag k="lit" v="no"/>
    <tag k="maxspeed" v="80"/>
    <tag k="motorroad" v="yes"/>
    <tag k="name" v="Magdeburger Ring"/>
    <tag k="oneway" v="yes"/>
    <tag k="ref" v="B 71"/>
    <tag k="source:maxspeed" v="sign"/>
  </way>
  <way id="7832760" version="1" timestamp="2007-09-22T15:10:23Z" uid="4667" user="MapZ" changeset="495375">
    <nd ref="21263589"/>
    <nd ref="57479607"/>
    <tag k="amenity" v="parking"/>
    <tag k="created_by" v="JOSM"/>
  </way>
  <way id="7832760" version="2" timestamp="2007-10-23T13:00:13Z" uid="7197" user="user_7197" changeset="294549">
    <nd ref="21263589"/>
    <nd ref="84490750"/>
    <nd ref="84490751"/>
    <tag k="highway" v="residential"/>
    <tag k="maxspeed" v="30"/>
    <tag k="name" v="Bismarck Straße"/>
    <tag k="oneway" v="true"/>
  </way>
  <way id="7832760" version="3" timestamp="2008-03-11T22:48:56Z" uid="26299" user="uboot" changeset="308805">
    <nd ref="21263589"/>
    <nd ref="84490750"/>
    <nd ref="84490751"/>
    <tag k="highway" v="residential"/>
    <tag k="maxspeed" v="30"/>
    <tag k="name" v="Bismarckstraße"/>
    <tag k="oneway" v="true"/>
  </way>
  <way id="7832760" version="4" timestamp="2008-11-12T18:47:58Z" uid="57054" user="26eb5473101d742b174d730717409668" changeset="740363">
    <nd ref="21263589"/>
    <nd ref="84490750"/>
    <nd ref="311586469"/>
    <nd ref="84490751"/>
    <tag k="highway" v="residential"/>
    <tag k="maxspeed" v="30"/>
    <tag k="name" v="Bismarckstraße"/>
    <tag k="oneway" v="true"/>
  </way>
  <way id="7832760" version="5" timestamp="2009-04-17T00:00:57Z" uid="103885" user="logicbot" changeset="603450">
    <nd ref="21263589"/>
    <nd ref="84490750"/>
    <nd ref="311586469"/>
    <nd ref="84490751"/>
    <tag k="highway" v="residential"/>
    <tag k="maxspeed" v="30"/>
    <tag k="name" v="Bismarckstraße"/>
    <tag k="oneway" v="yes"/>
  </way>
  <way id="7832760" version="6" timestamp="2009-11-11T21:28:52Z" uid="26299" user="uboot" changeset="3093867">
    <nd ref="21263589"/>
    <nd ref="84490750"/>
    <nd ref="311586469"/>
    <nd ref="84490751"/>
    <tag k="highway" v="residential"/>
    <tag k="maxspeed" v="30"/>
    <tag k="name" v="Bismarckstraße"/>
    <tag k="oneway" v="yes"/>
  </way>
  <way id="7832760" version="7" timestamp="2009-11-11T21:35:12Z" uid="26299" user="uboot" changeset="3093910">
    <nd ref="21263589"/>
    <nd ref="84490750"/>
    <nd ref="311586469"/>
    <nd ref="84490751"/>
    <tag k="highway" v="residential"/>
    <tag k="maxspeed" v="30"/>
    <tag k="name" v="Bismarckstraße"/>
    <tag k="oneway" v="yes"/>
  </way>
  <way id="7832760" version="8" timestamp="2009-11-11T21:36:23Z" uid="26299" user="uboot" changeset="3093918">
    <nd ref="21263589"/>
    <nd ref="84490750"/>
    <nd ref="311586469"/>
    <nd ref="84490751"/>
    <tag k="highway" v="residential"/>
    <tag k="maxspeed" v="30"/>
    <tag k="name" v="Bismarckstraße"/>
    <tag k="oneway" v="yes"/>
  </way>
  <way id="7832760" version="9" timestamp="2012-01-29T12:30:22Z" uid="11636" user="Hantilles" changeset="10529345"/>
  <way id="7832800" version="4" timestamp="2008-03-09T15:38:21Z" uid="13367" user="nubok" changeset="295497">
    <nd ref="33837549"/>
    <nd ref="57474427"/>
    <tag k="bridge" v="yes"/>
    <tag k="created_by" v="Potlatch 0.7b"/>
    <tag k="highway" v="trunk"/>
    <tag k="name" v="Magdeburger Ring"/>
    <tag k="oneway" v="yes"/>
    <tag k="ref" v="B71"/>
  </way>
  <way id="7832800" version="5" timestamp="2008-08-16T12:08:26Z" uid="52877" user="md-igel" changeset="275157">
    <nd ref="33837549"/>
    <nd ref="288435048"/>
    <nd ref="57474427"/>
    <tag k="bridge" v="yes"/>
    <tag k="created_by" v="Potlatch 0.7b"/>
    <tag k="highway" v="trunk"/>
    <tag k="name" v="Magdeburger Ring"/>
    <tag k="oneway" v="yes"/>
    <tag k="ref" v="B71"/>
  </way>
  <way id="7832800" version="6" timestamp="2008-09-10T20:55:34Z" uid="42683" user="riechfield" changeset="601074">
    <nd ref="33837549"/>
    <nd ref="288435048"/>
    <nd ref="57474427"/>
    <tag k="bridge" v="yes"/>
    <tag k="created_by" v="Potlatch 0.7b"/>
    <tag k="highway" v="trunk"/>
    <tag k="name" v="Magdeburger Ring"/>
    <tag k="oneway" v="yes"/>
    <tag k="ref" v="B 71"/>
  </way>
  <way id="7832800" version="7" timestamp="2008-09-12T15:07:36Z" uid="13565" user="hadhuey" changeset="612464">
    <nd ref="33837549"/>
    <nd ref="57474427"/>
    <tag k="bridge" v="yes"/>
    <tag k="created_by" v="Potlatch 0.10b"/>
    <tag k="highway" v="trunk"/>
    <tag k="lanes" v="2"/>
    <tag k="layer" v="1"/>
    <tag k="name" v="Magdeburger Ring"/>
    <tag k="oneway" v="yes"/>
    <tag k="ref" v="B 71"/>
  </way>
  <way id="7832800" version="8" timestamp="2008-09-12T15:08:09Z" uid="13565" user="hadhuey" changeset="612464">
    <nd ref="33837549"/>
    <nd ref="57474427"/>
    <tag k="bridge" v="yes"/>
    <tag k="created_by" v="Potlatch 0.10b"/>
    <tag k="highway" v="trunk"/>
    <tag k="lanes" v="2"/>
    <tag k="layer" v="1"/>
    <tag k="maxspeed" v="80"/>
    <tag k="name" v="Magdeburger Ring"/>
    <tag k="oneway" v="yes"/>
    <tag k="ref" v="B 71"/>
  </way>
  <way id="7832800" version="9" timestamp="2009-01-20T17:44:03Z" uid="42683" user="riechfield" changeset="816898">
    <nd ref="33837549"/>
    <nd ref="57474427"/>
    <tag k="bridge" v="yes"/>
    <tag k="created_by" v="Potlatch 0.10b"/>
    <tag k="highway" v="trunk"/>
    <tag k="int_ref" v="E 49"/>
    <tag k="lanes" v="2"/>
    <tag k="layer" v="1"/>
    <tag k="maxspeed" v="80"/>
    <tag k="name" v="Magdeburger Ring"/>
    <tag k="oneway" v="yes"/>
    <tag k="ref" v="B 71"/>
  </way>
  <way id="7832800" version="10" timestamp="2009-04-05T14:40:33Z" uid="9176" user="Maarten Deen" changeset="209257">
    <nd ref="33837549"/>
    <nd ref="57474427"/>
    <tag k="bridge" v="yes"/>
    <tag k="created_by" v="Potlatch 0.10b"/>
    <tag k="highway" v="trunk"/>
    <tag k="lanes" v="2"/>
    <tag k="layer" v="1"/>
    <tag k="maxspeed" v="80"/>
    <tag k="name" v="Magdeburger Ring"/>
    <tag k="oneway" v="yes"/>
    <tag k="ref" v="B 71"/>
  </way>
  <way id="7832800" version="11" timestamp="2009-05-13T18:30:15Z" uid="42683" user="riechfield" changeset="1178255">
    <nd ref="33837549"/>
    <nd ref="57474427"/>
    <tag k="bridge" v="yes"/>
    <tag k="highway" v="trunk"/>
    <tag k="lanes" v="2"/>
    <tag k="layer" v="1"/>
    <tag k="maxspeed" v="80"/>
    <tag k="motorroad" v="yes"/>
    <tag k="name" v="Magdeburger Ring"/>
    <tag k="oneway" v="yes"/>
    <tag k="ref" v="B 71"/>
  </way>
  <way id="7832800" version="12" timestamp="2009-07-22T22:31:20Z" uid="123946" user="Luther__" changeset="1909918">
    <nd ref="33837549"/>
    <nd ref="57474427"/>
    <tag k="bridge" v="yes"/>
    <tag k="highway" v="trunk"/>
    <tag k="lanes" v="2"/>
    <tag k="layer" v="1"/>
    <tag k="lit" v="yes"/>
    <tag k="maxspeed" v="80"/>
    <tag k="motorroad" v="yes"/>
    <tag k="name" v="Magdeburger Ring"/>
    <tag k="oneway" v="yes"/>
    <tag k="ref" v="B 71"/>
  </way>
  <way id="7832800" version="13" timestamp="2010-06-05T22:53:44Z" uid="123946" user="Martin_D" changeset="4913134">
    <nd ref="33837549"/>
    <nd ref="57474427"/>
    <tag k="bridge" v="yes"/>
    <tag k="highway" v="trunk"/>
    <tag k="lanes" v="2"/>
    <tag k="layer" v="1"/>
    <tag k="lit" v="yes"/>
    <tag k="maxspeed" v="80"/>
    <tag k="motorroad" v="yes"/>
    <tag k="name" v="Magdeburger Ring"/>
    <tag k="oneway" v="yes"/>
    <tag k="ref" v="B 71"/>
    <tag k="source:maxspeed" v="sign"/>
  </way>
  <way id="7832800" version="14" timestamp="2012-02-25T23:10:51Z" uid="487320" user="MrMaxG95" changeset="10793238">
    <nd ref="33837549"/>
    <nd ref="57474427"/>
    <tag k="bridge" v="yes"/>
    <tag k="highway" v="trunk"/>
    <tag k="lanes" v="2"/>
    <tag k="layer" v="1"/>
    <tag k="lit" v="no"/>
    <tag k="maxspeed" v="80"/>
    <tag k="motorroad" v="yes"/>
    <tag k="name" v="Magdeburger Ring"/>
    <tag k="oneway" v="yes"/>
    <tag k="ref" v="B 71"/>
    <tag k="source:maxspeed" v="sign"/>
  </way>
  <way id="7832880" version="41" timestamp="2008-09-07T06:06:21Z" uid="58091" user="Andreas M" changeset="557625">
    <nd ref="57520639"/>
    <nd ref="95041980"/>
    <nd ref="57520623"/>
    <nd ref="57520626"/>
    <nd ref="57520627"/>
    <nd ref="95042235"/>
    <nd ref="57520629"/>
    <nd ref="57520632"/>
    <nd ref="95042236"/>
    <nd ref="57520633"/>
    <nd ref="57520636"/>
    <nd ref="95042239"/>
    <nd ref="57520638"/>
    <nd ref="95042240"/>
    <nd ref="57520639"/>
    <nd ref="57520640"/>
    <nd ref="95041878"/>
    <nd ref="57520641"/>
    <nd ref="57520644"/>
    <nd ref="57483288"/>
    <nd ref="57483289"/>
    <nd ref="57533463"/>
    <nd ref="57533464"/>
    <nd ref="57533466"/>
    <nd ref="293277424"/>
    <nd ref="57533467"/>
    <nd ref="293277425"/>
    <nd ref="293276611"/>
    <nd ref="57533468"/>
    <nd ref="57533469"/>
    <nd ref="57533470"/>
    <nd ref="57533471"/>
    <nd ref="57533472"/>
    <nd ref="60296215"/>
    <nd ref="60296216"/>
    <nd ref="60296217"/>
    <nd ref="60296218"/>
    <nd ref="60296219"/>
    <nd ref="60296220"/>
    <nd ref="60296221"/>
    <nd ref="60296222"/>
    <nd ref="60296223"/>
    <nd ref="60296224"/>
    <nd ref="60296225"/>
    <nd ref="60296226"/>
    <nd ref="60296227"/>
    <nd ref="60296228"/>
    <nd ref="60296229"/>
    <nd ref="60296230"/>
    <nd ref="294453909"/>
    <nd ref="60296231"/>
    <tag k="created_by" v="Potlatch 0.10b"/>
    <tag k="railway" v="tram"/>
    <tag k="ref" v="31"/>
  </way>
  <way id="7832880" version="42" timestamp="2008-09-07T06:21:24Z" uid="58091" user="Andreas M" changeset="557625">
    <nd ref="57520639"/>
    <nd ref="95041980"/>
    <nd ref="57520623"/>
    <nd ref="57520626"/>
    <nd ref="57520627"/>
    <nd ref="95042235"/>
    <nd ref="57520629"/>
    <nd ref="57520632"/>
    <nd ref="95042236"/>
    <nd ref="57520633"/>
    <nd ref="57520636"/>
    <nd ref="95042239"/>
    <nd ref="57520638"/>
    <nd ref="95042240"/>
    <nd ref="57520639"/>
    <nd ref="57520640"/>
    <nd ref="95041878"/>
    <nd ref="57520641"/>
    <nd ref="57520644"/>
    <nd ref="57483288"/>
    <nd ref="57483289"/>
    <nd ref="57533463"/>
    <nd ref="57533464"/>
    <nd ref="57533466"/>
    <nd ref="293277424"/>
    <nd ref="57533467"/>
    <nd ref="293277425"/>
    <nd ref="293276611"/>
    <nd ref="57533468"/>
    <nd ref="57533469"/>
    <nd ref="57533470"/>
    <nd ref="57533471"/>
    <nd ref="57533472"/>
    <nd ref="60296215"/>
    <nd ref="33301570"/>
    <nd ref="60296216"/>
    <nd ref="60296217"/>
    <nd ref="60296218"/>
    <nd ref="294460757"/>
    <nd ref="60296220"/>
    <nd ref="33254400"/>
    <nd ref="33254405"/>
    <nd ref="294460755"/>
    <nd ref="33254415"/>
    <nd ref="378950"/>
    <nd ref="33254419"/>
    <nd ref="33254423"/>
    <nd ref="274612221"/>
    <nd ref="378904"/>
    <nd ref="274611982"/>
    <nd ref="60296227"/>
    <nd ref="60296228"/>
    <nd ref="25637892"/>
    <nd ref="25637895"/>
    <nd ref="60296230"/>
    <nd ref="294453909"/>
    <nd ref="60296231"/>
    <tag k="created_by" v="Potlatch 0.10b"/>
    <tag k="railway" v="tram"/>
    <tag k="ref" v="31"/>
  </way>
  <way id="7832880" version="43" timestamp="2008-10-09T17:31:32Z" uid="12295" user="mapper_07" changeset="192927">
    <nd ref="57520639"/>
    <nd ref="95041980"/>
    <nd ref="57520623"/>
    <nd ref="57520626"/>
    <nd ref="57520627"/>
    <nd ref="95042235"/>
    <nd ref="57520629"/>
    <nd ref="57520632"/>
    <nd ref="95042236"/>
    <nd ref="57520633"/>
    <nd ref="57520636"/>
    <nd ref="95042239"/>
    <nd ref="57520638"/>
    <nd ref="95042240"/>
    <nd ref="57520639"/>
    <nd ref="57520640"/>
    <nd ref="95041878"/>
    <nd ref="57520641"/>
    <nd ref="57520644"/>
    <nd ref="57483288"/>
    <nd ref="57483289"/>
    <nd ref="57533463"/>
    <nd ref="57533464"/>
    <nd ref="57533466"/>
    <nd ref="293277424"/>
    <nd ref="57533467"/>
    <nd ref="293277425"/>
    <nd ref="293276611"/>
    <nd ref="57533468"/>
    <nd ref="57533469"/>
    <nd ref="57533470"/>
    <nd ref="57533471"/>
    <nd ref="57533472"/>
    <nd ref="303353612"/>
    <nd ref="60296215"/>
    <nd ref="33301570"/>
    <nd ref="60296216"/>
    <nd ref="60296217"/>
    <nd ref="60296218"/>
    <nd ref="294460757"/>
    <nd ref="60296220"/>
    <nd ref="33254400"/>
    <nd ref="33254405"/>
    <nd ref="294460755"/>
    <nd ref="33254415"/>
    <nd ref="378950"/>
    <nd ref="33254419"/>
    <nd ref="33254423"/>
    <nd ref="274612221"/>
    <nd ref="378904"/>
    <nd ref="274611982"/>
    <nd ref="60296227"/>
    <nd ref="60296228"/>
    <nd ref="25637892"/>
    <nd ref="25637895"/>
    <nd ref="60296230"/>
    <nd ref="294453909"/>
    <nd ref="60296231"/>
    <tag k="created_by" v="Potlatch 0.10b"/>
    <tag k="railway" v="tram"/>
    <tag k="ref" v="31"/>
  </way>
  <way id="7832880" version="44" timestamp="2008-10-18T13:47:38Z" uid="54806" user="_al" changeset="425779">
    <nd ref="57520639"/>
    <nd ref="95041980"/>
    <nd ref="57520623"/>
    <nd ref="57520626"/>
    <nd ref="57520627"/>
    <nd ref="95042235"/>
    <nd ref="57520629"/>
    <nd ref="57520632"/>
    <nd ref="95042236"/>
    <nd ref="57520633"/>
    <nd ref="57520636"/>
    <nd ref="95042239"/>
    <nd ref="57520638"/>
    <nd ref="95042240"/>
    <nd ref="57520639"/>
    <nd ref="57520640"/>
    <nd ref="95041878"/>
    <nd ref="57520641"/>
    <nd ref="57520644"/>
    <nd ref="57483288"/>
    <tag k="created_by" v="Potlatch 0.10e"/>
    <tag k="railway" v="tram"/>
    <tag k="ref" v="31"/>
  </way>
  <way id="7832880" version="45" timestamp="2009-01-06T17:11:26Z" uid="28205" user="kelvan" changeset="746337">
    <nd ref="57520639"/>
    <nd ref="95041980"/>
    <nd ref="57520623"/>
    <nd ref="57520626"/>
    <nd ref="57520627"/>
    <nd ref="95042235"/>
    <nd ref="57520629"/>
    <nd ref="329352939"/>
    <nd ref="57520632"/>
    <nd ref="329352935"/>
    <nd ref="95042236"/>
    <nd ref="329352928"/>
    <nd ref="57520633"/>
    <nd ref="329352922"/>
    <nd ref="57520636"/>
    <nd ref="95042239"/>
    <nd ref="57520638"/>
    <nd ref="95042240"/>
    <nd ref="57520639"/>
    <nd ref="57520640"/>
    <nd ref="95041878"/>
    <nd ref="57520641"/>
    <nd ref="57520644"/>
    <nd ref="57483288"/>
    <tag k="created_by" v="Potlatch 0.10e"/>
    <tag k="railway" v="tram"/>
    <tag k="ref" v="31"/>
  </way>
  <way id="7832880" version="46" timestamp="2009-01-09T03:21:26Z" uid="76050" user="Wolfgang_Wasserburger" changeset="759958">
    <nd ref="57483288"/>
    <nd ref="57520644"/>
    <nd ref="57520641"/>
    <nd ref="95041878"/>
    <nd ref="57520640"/>
    <nd ref="57520639"/>
    <nd ref="95042240"/>
    <nd ref="57520638"/>
    <nd ref="95042239"/>
    <nd ref="57520636"/>
    <nd ref="329352922"/>
    <nd ref="57520633"/>
    <nd ref="329352928"/>
    <nd ref="95042236"/>
    <nd ref="329352935"/>
    <nd ref="57520632"/>
    <nd ref="329352939"/>
    <nd ref="57520629"/>
    <nd ref="95042235"/>
    <nd ref="57520627"/>
    <nd ref="57520626"/>
    <nd ref="57520623"/>
    <nd ref="95041980"/>
    <nd ref="57520639"/>
    <tag k="created_by" v="Potlatch 0.10e"/>
    <tag k="railway" v="tram"/>
    <tag k="ref" v="31"/>
  </way>
  <way id="7832880" version="47" timestamp="2009-02-07T11:13:19Z" uid="58091" user="Andreas M" changeset="247803">
    <nd ref="57483288"/>
    <nd ref="57520644"/>
    <nd ref="57520641"/>
    <nd ref="95041878"/>
    <nd ref="57520640"/>
    <nd ref="57520639"/>
    <tag k="created_by" v="Potlatch 0.10e"/>
    <tag k="railway" v="tram"/>
    <tag k="ref" v="31"/>
  </way>
  <way id="7832880" version="48" timestamp="2009-02-27T16:41:01Z" uid="12295" user="mapper_07" changeset="685848">
    <nd ref="57483288"/>
    <nd ref="57520644"/>
    <nd ref="57520641"/>
    <nd ref="95041878"/>
    <nd ref="57520640"/>
    <nd ref="353282301"/>
    <nd ref="57520639"/>
    <tag k="created_by" v="Potlatch 0.10e"/>
    <tag k="railway" v="tram"/>
    <tag k="ref" v="31"/>
  </way>
  <way id="7832880" version="49" timestamp="2009-05-31T18:13:55Z" uid="56311" user="Elandrion" changeset="1371947">
    <nd ref="57483288"/>
    <nd ref="57520644"/>
    <nd ref="57520641"/>
    <nd ref="95041878"/>
    <nd ref="57520640"/>
    <nd ref="413584596"/>
    <nd ref="353282301"/>
    <nd ref="413584595"/>
    <nd ref="57520639"/>
    <tag k="railway" v="tram"/>
    <tag k="ref" v="31"/>
    <tag k="tracks" v="2"/>
  </way>
  <way id="7832880" version="50" timestamp="2010-04-18T20:00:45Z" uid="129531" user="almich" changeset="4462273">
    <nd ref="57483288"/>
    <nd ref="57520644"/>
    <nd ref="57520641"/>
    <nd ref="95041878"/>
    <nd ref="57520640"/>
    <nd ref="413584596"/>
    <nd ref="353282301"/>
    <nd ref="413584595"/>
    <nd ref="57520639"/>
    <tag k="gauge" v="1435"/>
    <tag k="railway" v="tram"/>
    <tag k="ref" v="31"/>
    <tag k="tracks" v="2"/>
  </way>
  <way id="7832880" version="51" timestamp="2010-04-18T20:25:35Z" uid="129531" user="almich" changeset="4462598">
    <nd ref="57483288"/>
    <nd ref="57520644"/>
    <nd ref="57520641"/>
    <nd ref="95041878"/>
    <nd ref="57520640"/>
    <nd ref="413584596"/>
    <nd ref="353282301"/>
    <nd ref="413584595"/>
    <nd ref="57520639"/>
    <tag k="electrified" v="contact_line"/>
    <tag k="frequency" v="0"/>
    <tag k="gauge" v="1435"/>
    <tag k="railway" v="tram"/>
    <tag k="ref" v="31"/>
    <tag k="tracks" v="2"/>
  </way>
  <way id="7832880" version="52" timestamp="2011-02-21T13:27:31Z" uid="321862" user="DanX" changeset="7353649">
    <nd ref="57483288"/>
    <nd ref="57520644"/>
    <nd ref="57520641"/>
    <nd ref="95041878"/>
    <nd ref="57520640"/>
    <nd ref="413584596"/>
    <nd ref="353282301"/>
    <nd ref="413584595"/>
    <nd ref="57520639"/>
    <tag k="electrified" v="contact_line"/>
    <tag k="frequency" v="0"/>
    <tag k="gauge" v="1435"/>
    <tag k="name" v="31"/>
    <tag k="railway" v="tram"/>
    <tag k="ref" v="31"/>
    <tag k="tracks" v="2"/>
  </way>
  <way id="7832880" version="53" timestamp="2011-08-14T19:12:58Z" uid="56501" user="Rudolf_H" changeset="9019810"/>
  <way id="7832197" version="10" timestamp="2012-07-16T23:37:27Z" uid="722137" user="OSMF Redaction Account" changeset="12253552">
    <nd ref="57473395"/>
    <nd ref="57473785"/>
    <tag k="electrified" v="contact_line"/>
    <tag k="frequency" v="0"/>
    <tag k="gauge" v="1435"/>
    <tag k="highway" v="secondary"/>
    <tag k="maxspeed" v="50"/>
    <tag k="name" v="Schwedenbrücke"/>
    <tag k="tracks" v="1"/>
    <tag k="voltage" v="600"/>
  </way>
  <way id="7832197" version="11" timestamp="2012-07-18T16:43:31Z" uid="129531" user="almich" changeset="12289315">
    <nd ref="57473395"/>
    <nd ref="57473785"/>
    <tag k="electrified" v="contact_line"/>
    <tag k="frequency" v="0"/>
    <tag k="gauge" v="1435"/>
    <tag k="highway" v="secondary"/>
    <tag k="maxspeed" v="50"/>
    <tag k="name" v="Schwedenbrücke"/>
    <tag k="railway" v="tram"/>
    <tag k="tracks" v="1"/>
    <tag k="voltage" v="600"/>
  </way>
  <way id="7832382" version="13" timestamp="2012-04-09T11:29:40Z" uid="13565" user="hadhuey" changeset="11236498"/>
  <way id="7832800" version="15" timestamp="2012-04-09T11:29:41Z" uid="13565" user="hadhuey" changeset="11236498"/>
</osm>
