<?xml version='1.0' encoding='UTF-8'?>
<osm version="0.6" generator="libosmium/2.20.0">
  <way id="78643559" version="3" timestamp="2011-03-16T12:47:27Z" uid="4467" user="Rosscoe" changeset="7575323">
    <nd ref="871378407"/>
    <nd ref="252167762"/>
    <nd ref="320554393"/>
    <nd ref="320554372"/>
    <nd ref="755854800"/>
    <nd ref="320554352"/>
    <nd ref="320554294"/>
    <nd ref="598384754"/>
    <nd ref="598384948"/>
    <nd ref="31430533"/>
    <nd ref="598384950"/>
    <nd ref="320554275"/>
    <nd ref="31430532"/>
    <nd ref="598384907"/>
    <nd ref="1204186671"/>
    <nd ref="168879159"/>
    <nd ref="31430531"/>
    <tag k="highway" v="primary"/>
    <tag k="is_in" v="Sturt,South Australia,Australia"/>
    <tag k="name" v="Marion Road"/>
    <tag k="oneway" v="yes"/>
    <tag k="postal_code" v="5047"/>
    <tag k="ref" v="A14"/>
    <tag k="source" v="survey"/>
  </way>
  <way id="78643559" version="4" timestamp="2011-08-06T02:30:15Z" uid="428465" user="markinspace" changeset="8934380">
    <nd ref="871378407"/>
    <nd ref="252167762"/>
    <nd ref="320554393"/>
    <nd ref="320554372"/>
    <nd ref="755854800"/>
    <nd ref="320554352"/>
    <nd ref="320554294"/>
    <nd ref="598384754"/>
    <nd ref="598384948"/>
    <nd ref="31430533"/>
    <nd ref="598384950"/>
    <nd ref="320554275"/>
    <nd ref="31430532"/>
    <nd ref="598384907"/>
    <nd ref="1204186671"/>
    <nd ref="168879159"/>
    <nd ref="31430531"/>
    <tag k="highway" v="primary"/>
    <tag k="is_in" v="Sturt,South Australia,Australia"/>
    <tag k="lanes" v="2"/>
    <tag k="maxspeed" v="60"/>
    <tag k="name" v="Marion Road"/>
    <tag k="oneway" v="yes"/>
    <tag k="postal_code" v="5047"/>
    <tag k="ref" v="A14"/>
    <tag k="source" v="survey"/>
  </way>
  <way id="78643559" version="5" timestamp="2011-08-14T10:12:26Z" uid="320632" user="Zulu99" changeset="9013836">
    <nd ref="871378407"/>
    <nd ref="252167762"/>
    <nd ref="1398433467"/>
    <tag k="highway" v="primary"/>
    <tag k="is_in" v="Sturt,South Australia,Australia"/>
    <tag k="lanes" v="2"/>
    <tag k="maxspeed" v="60"/>
    <tag k="name" v="Marion Road"/>
    <tag k="oneway" v="yes"/>
    <tag k="postal_code" v="5047"/>
    <tag k="ref" v="A14"/>
    <tag k="source" v="survey"/>
  </way>
  <way id="78643573" version="3" timestamp="2011-03-16T12:48:05Z" uid="4467" user="Rosscoe" changeset="7575323"/>
  <way id="78643559" version="6" timestamp="2012-07-19T09:09:12Z" uid="722137" user="OSMF Redaction Account" changeset="12315263">
    <nd ref="871378407"/>
    <nd ref="252167762"/>
    <nd ref="1398433467"/>
    <tag k="highway" v="trunk"/>
    <tag k="lanes" v="2"/>
    <tag k="maxspeed" v="60"/>
    <tag k="oneway" v="yes"/>
    <tag k="source" v="knowledge"/>
  </way>
</osm>
