<?xml version='1.0' encoding='UTF-8'?>
<osm version="0.6" generator="libosmium/2.20.0">
  <way id="78715863" version="2" timestamp="2010-10-09T18:09:10Z" uid="9581" user="Lobelt" changeset="5995663">
    <nd ref="922837045"/>
    <nd ref="922837068"/>
    <tag k="highway" v="residential"/>
    <tag k="name" v="An der Kr端mme"/>
    <tag k="surface" v="asphalt"/>
    <tag k="width" v="4"/>
  </way>
  <way id="78715863" version="3" timestamp="2010-12-30T22:09:11Z" uid="212079" user="atz" changeset="6814695">
    <nd ref="922837045"/>
    <nd ref="922837068"/>
    <nd ref="1073927978"/>
    <tag k="highway" v="residential"/>
    <tag k="name" v="An der Kr端mme"/>
    <tag k="surface" v="asphalt"/>
    <tag k="width" v="4"/>
  </way>
  <way id="78715863" version="4" timestamp="2012-04-11T17:44:59Z" uid="118134" user="scai" changeset="11267907">
    <nd ref="922837045"/>
    <nd ref="922837068"/>
    <nd ref="1698602287"/>
    <tag k="highway" v="residential"/>
    <tag k="name" v="An der Kr端mme"/>
    <tag k="surface" v="asphalt"/>
    <tag k="width" v="4"/>
  </way>
  <way id="78715863" version="5" timestamp="2012-09-09T16:12:04Z" uid="212079" user="atz" changeset="13046301">
    <nd ref="922837045"/>
    <nd ref="922837068"/>
    <nd ref="1698602287"/>
    <tag k="highway" v="residential"/>
    <tag k="maxspeed" v="30"/>
    <tag k="name" v="An der Kr端mme"/>
    <tag k="surface" v="asphalt"/>
    <tag k="width" v="4"/>
  </way>
</osm>
