<?xml version='1.0' encoding='UTF-8'?>
<osm version="0.6" generator="libosmium/2.20.0">
  <way id="78760474" version="2" timestamp="2011-04-23T09:08:42Z" uid="20587" user="balrog-kun" changeset="7941717">
    <nd ref="922998380"/>
    <nd ref="922998351"/>
    <nd ref="922993276"/>
    <nd ref="922998357"/>
    <nd ref="410415390"/>
    <nd ref="922998380"/>
    <tag k="addr:housenumber" v="566"/>
    <tag k="addr:street" v="Emerson Street"/>
    <tag k="alt_name" v="Peninsula Fountain &amp; Grill"/>
    <tag k="amenity" v="restaurant"/>
    <tag k="name" v="Palo Alto Creamery"/>
    <tag k="website" v="http://www.paloaltocreamery.com"/>
  </way>
  <way id="78760474" version="3" timestamp="2011-10-04T01:46:53Z" uid="169004" user="oldtopos" changeset="9465920">
    <nd ref="1454534985"/>
    <nd ref="1454534979"/>
    <nd ref="1454534972"/>
    <nd ref="1454534970"/>
    <nd ref="410415390"/>
    <nd ref="1454534983"/>
    <nd ref="1454534985"/>
    <tag k="addr:housenumber" v="566"/>
    <tag k="addr:street" v="Emerson Street"/>
    <tag k="alt_name" v="Peninsula Fountain &amp; Grill"/>
    <tag k="amenity" v="restaurant"/>
    <tag k="name" v="Palo Alto Creamery"/>
    <tag k="website" v="http://www.paloaltocreamery.com"/>
  </way>
  <way id="78760474" version="4" timestamp="2011-10-08T00:18:22Z" uid="169004" user="oldtopos" changeset="9498690">
    <nd ref="1454534985"/>
    <nd ref="1454534979"/>
    <nd ref="1454534972"/>
    <nd ref="1454534970"/>
    <nd ref="410415390"/>
    <nd ref="1454534983"/>
    <nd ref="1454534985"/>
    <tag k="addr:housenumber" v="566"/>
    <tag k="addr:street" v="Emerson Street"/>
    <tag k="alt_name" v="Peninsula Fountain &amp; Grill"/>
    <tag k="amenity" v="restaurant"/>
    <tag k="building" v="yes"/>
    <tag k="name" v="Palo Alto Creamery"/>
    <tag k="website" v="http://www.paloaltocreamery.com"/>
  </way>
</osm>
