<?xml version='1.0' encoding='UTF-8'?>
<osm version="0.6" generator="libosmium/2.20.0">
  <way id="78773881" version="2" timestamp="2010-10-19T08:52:37Z" uid="115477" user="wowik" changeset="6094657">
    <nd ref="429249769"/>
    <nd ref="956782968"/>
    <nd ref="429247090"/>
    <nd ref="254424686"/>
    <nd ref="254424386"/>
    <tag k="highway" v="primary"/>
    <tag k="lanes" v="2"/>
    <tag k="name" v="пр-т Маркса"/>
    <tag k="oneway" v="yes"/>
  </way>
  <way id="78773881" version="3" timestamp="2010-12-05T22:32:32Z" uid="379047" user="tangar" changeset="6557834">
    <nd ref="429249769"/>
    <nd ref="956782968"/>
    <nd ref="429247090"/>
    <nd ref="254424686"/>
    <nd ref="254424386"/>
    <tag k="highway" v="primary"/>
    <tag k="lanes" v="2"/>
    <tag k="name" v="пр-т Маркса"/>
    <tag k="oneway" v="yes"/>
  </way>
  <way id="78773881" version="4" timestamp="2010-12-12T23:31:54Z" uid="133332" user="AMDmi3" changeset="6643380">
    <nd ref="429249769"/>
    <nd ref="956782968"/>
    <nd ref="429247090"/>
    <nd ref="254424686"/>
    <nd ref="254424386"/>
    <tag k="highway" v="primary"/>
    <tag k="lanes" v="2"/>
    <tag k="name" v="проспект Маркса"/>
    <tag k="oneway" v="yes"/>
  </way>
  <way id="78773881" version="5" timestamp="2010-12-25T10:01:12Z" uid="383200" user="Takuto" changeset="6759610">
    <nd ref="429249769"/>
    <nd ref="1063708829"/>
    <nd ref="956782968"/>
    <nd ref="429247090"/>
    <nd ref="254424686"/>
    <nd ref="254424386"/>
    <tag k="highway" v="primary"/>
    <tag k="lanes" v="2"/>
    <tag k="name" v="проспект Маркса"/>
    <tag k="oneway" v="yes"/>
  </way>
  <way id="78773881" version="6" timestamp="2010-12-28T19:44:38Z" uid="242561" user="_ON_" changeset="6791700">
    <nd ref="254425197"/>
    <nd ref="1063708980"/>
    <nd ref="1043992684"/>
    <nd ref="429249769"/>
    <nd ref="1063708829"/>
    <nd ref="956782968"/>
    <nd ref="429247090"/>
    <nd ref="254424686"/>
    <nd ref="254424386"/>
    <tag k="highway" v="primary"/>
    <tag k="lanes" v="2"/>
    <tag k="name" v="проспект Маркса"/>
    <tag k="oneway" v="yes"/>
  </way>
  <way id="78773881" version="7" timestamp="2012-05-28T09:33:08Z" uid="383200" user="Takuto" changeset="11724539">
    <nd ref="254425197"/>
    <nd ref="1063708980"/>
    <nd ref="1043992684"/>
    <nd ref="429249769"/>
    <nd ref="1063708829"/>
    <nd ref="1768449323"/>
    <nd ref="956782968"/>
    <nd ref="429247090"/>
    <nd ref="254424686"/>
    <nd ref="254424386"/>
    <tag k="highway" v="primary"/>
    <tag k="lanes" v="2"/>
    <tag k="name" v="проспект Маркса"/>
    <tag k="oneway" v="yes"/>
  </way>
  <way id="78773881" version="8" timestamp="2012-07-01T21:40:33Z" uid="336354" user="esaulenka" changeset="12081509"/>
</osm>
