<?xml version='1.0' encoding='UTF-8'?>
<osm version="0.6" generator="libosmium/2.20.0">
  <way id="7898699" version="1" timestamp="2007-09-23T02:41:33Z" uid="7617" user="Franc" changeset="498457">
    <nd ref="58129994"/>
    <nd ref="58129980"/>
    <tag k="created_by" v="JOSM"/>
    <tag k="highway" v="residential"/>
    <tag k="name" v="Francis Street"/>
    <tag k="source" v="survey"/>
  </way>
  <way id="7898699" version="2" timestamp="2010-07-07T21:43:53Z" uid="74617" user="JohnSmith" changeset="5161069">
    <nd ref="58129994"/>
    <nd ref="58129980"/>
    <tag k="highway" v="residential"/>
    <tag k="maxspeed" v="50"/>
    <tag k="maxspeed:source" v="default residential speed limit in Australia"/>
    <tag k="name" v="Francis Street"/>
    <tag k="source" v="survey"/>
  </way>
  <way id="7898699" version="3" timestamp="2012-01-15T06:31:48Z" uid="147510" user="woodpeck_fixbot" changeset="10394821">
    <nd ref="58129994"/>
    <nd ref="58129980"/>
    <tag k="highway" v="residential"/>
    <tag k="name" v="Francis Street"/>
    <tag k="source" v="survey"/>
  </way>
  <way id="7898701" version="1" timestamp="2007-09-23T02:41:34Z" uid="7617" user="Franc" changeset="498457">
    <nd ref="58130029"/>
    <nd ref="58130044"/>
    <tag k="created_by" v="JOSM"/>
    <tag k="highway" v="residential"/>
    <tag k="name" v="Arthur Street"/>
    <tag k="source" v="survey"/>
  </way>
  <way id="7898701" version="2" timestamp="2010-07-07T21:44:47Z" uid="74617" user="JohnSmith" changeset="5161069">
    <nd ref="58130029"/>
    <nd ref="58130044"/>
    <tag k="highway" v="residential"/>
    <tag k="maxspeed" v="50"/>
    <tag k="maxspeed:source" v="default residential speed limit in Australia"/>
    <tag k="name" v="Arthur Street"/>
    <tag k="source" v="survey"/>
  </way>
  <way id="7898701" version="3" timestamp="2012-01-15T06:31:49Z" uid="147510" user="woodpeck_fixbot" changeset="10394821">
    <nd ref="58130029"/>
    <nd ref="58130044"/>
    <tag k="highway" v="residential"/>
    <tag k="name" v="Arthur Street"/>
    <tag k="source" v="survey"/>
  </way>
  <way id="7898702" version="1" timestamp="2007-09-23T02:41:35Z" uid="7617" user="Franc" changeset="498457">
    <nd ref="58130008"/>
    <nd ref="58130162"/>
    <nd ref="56888273"/>
    <tag k="created_by" v="JOSM"/>
    <tag k="highway" v="residential"/>
    <tag k="name" v="David Street"/>
    <tag k="source" v="survey"/>
  </way>
  <way id="7898702" version="2" timestamp="2010-07-07T21:43:20Z" uid="74617" user="JohnSmith" changeset="5161069">
    <nd ref="58130008"/>
    <nd ref="58130162"/>
    <nd ref="56888273"/>
    <tag k="highway" v="residential"/>
    <tag k="maxspeed" v="50"/>
    <tag k="maxspeed:source" v="default residential speed limit in Australia"/>
    <tag k="name" v="David Street"/>
    <tag k="source" v="survey"/>
  </way>
  <way id="7898702" version="3" timestamp="2012-01-15T06:31:51Z" uid="147510" user="woodpeck_fixbot" changeset="10394821">
    <nd ref="58130008"/>
    <nd ref="58130162"/>
    <nd ref="56888273"/>
    <tag k="highway" v="residential"/>
    <tag k="name" v="David Street"/>
    <tag k="source" v="survey"/>
  </way>
  <way id="7898705" version="1" timestamp="2007-09-23T02:41:35Z" uid="7617" user="Franc" changeset="498457">
    <nd ref="58130065"/>
    <nd ref="58129994"/>
    <nd ref="58130029"/>
    <nd ref="58130117"/>
    <nd ref="58130008"/>
    <nd ref="58130082"/>
    <tag k="created_by" v="JOSM"/>
    <tag k="highway" v="residential"/>
    <tag k="name" v="Horner Avenue"/>
    <tag k="source" v="survey"/>
  </way>
  <way id="7898705" version="2" timestamp="2009-12-29T15:01:21Z" uid="12203" user="brainwad" changeset="3481945">
    <nd ref="58130065"/>
    <nd ref="58129994"/>
    <nd ref="58130029"/>
    <nd ref="58130117"/>
    <nd ref="58130008"/>
    <tag k="highway" v="residential"/>
    <tag k="name" v="Horner Avenue"/>
    <tag k="source" v="survey"/>
  </way>
  <way id="7898705" version="3" timestamp="2010-07-07T21:43:53Z" uid="74617" user="JohnSmith" changeset="5161069">
    <nd ref="58130065"/>
    <nd ref="58129994"/>
    <nd ref="58130029"/>
    <nd ref="58130117"/>
    <nd ref="58130008"/>
    <tag k="highway" v="residential"/>
    <tag k="maxspeed" v="50"/>
    <tag k="maxspeed:source" v="default residential speed limit in Australia"/>
    <tag k="name" v="Horner Avenue"/>
    <tag k="source" v="survey"/>
  </way>
  <way id="7898705" version="4" timestamp="2011-03-20T03:32:28Z" uid="7617" user="Franc" changeset="7612474">
    <nd ref="58130065"/>
    <nd ref="58129994"/>
    <nd ref="58130029"/>
    <nd ref="58130117"/>
    <nd ref="58130008"/>
    <nd ref="1210030552"/>
    <tag k="highway" v="residential"/>
    <tag k="maxspeed" v="50"/>
    <tag k="maxspeed:source" v="default residential speed limit in Australia"/>
    <tag k="name" v="Horner Avenue"/>
    <tag k="source" v="survey"/>
  </way>
  <way id="7898705" version="5" timestamp="2012-01-15T06:31:53Z" uid="147510" user="woodpeck_fixbot" changeset="10394821">
    <nd ref="58130065"/>
    <nd ref="58129994"/>
    <nd ref="58130029"/>
    <nd ref="58130117"/>
    <nd ref="58130008"/>
    <nd ref="1210030552"/>
    <tag k="highway" v="residential"/>
    <tag k="name" v="Horner Avenue"/>
    <tag k="source" v="survey"/>
  </way>
  <way id="7898708" version="1" timestamp="2007-09-23T02:41:36Z" uid="7617" user="Franc" changeset="498457">
    <nd ref="58130100"/>
    <nd ref="58130117"/>
    <tag k="created_by" v="JOSM"/>
    <tag k="highway" v="residential"/>
    <tag k="name" v="Linden Street"/>
    <tag k="source" v="survey"/>
  </way>
  <way id="7898708" version="2" timestamp="2010-07-07T21:43:19Z" uid="74617" user="JohnSmith" changeset="5161069">
    <nd ref="58130100"/>
    <nd ref="58130117"/>
    <tag k="highway" v="residential"/>
    <tag k="maxspeed" v="50"/>
    <tag k="maxspeed:source" v="default residential speed limit in Australia"/>
    <tag k="name" v="Linden Street"/>
    <tag k="source" v="survey"/>
  </way>
  <way id="7898708" version="3" timestamp="2011-03-20T03:32:25Z" uid="7617" user="Franc" changeset="7612474">
    <nd ref="58130100"/>
    <nd ref="1210030527"/>
    <nd ref="58130117"/>
    <tag k="highway" v="residential"/>
    <tag k="maxspeed" v="50"/>
    <tag k="maxspeed:source" v="default residential speed limit in Australia"/>
    <tag k="name" v="Linden Street"/>
    <tag k="source" v="survey"/>
  </way>
  <way id="7898708" version="4" timestamp="2012-01-15T06:31:54Z" uid="147510" user="woodpeck_fixbot" changeset="10394821">
    <nd ref="58130100"/>
    <nd ref="1210030527"/>
    <nd ref="58130117"/>
    <tag k="highway" v="residential"/>
    <tag k="name" v="Linden Street"/>
    <tag k="source" v="survey"/>
  </way>
  <way id="7898712" version="1" timestamp="2007-09-23T02:41:37Z" uid="7617" user="Franc" changeset="498457">
    <nd ref="58130162"/>
    <nd ref="58130139"/>
    <tag k="created_by" v="JOSM"/>
    <tag k="highway" v="residential"/>
    <tag k="name" v="Malcolm Street"/>
    <tag k="source" v="survey"/>
  </way>
  <way id="7898712" version="2" timestamp="2010-07-07T21:43:32Z" uid="74617" user="JohnSmith" changeset="5161069">
    <nd ref="58130162"/>
    <nd ref="58130139"/>
    <tag k="highway" v="residential"/>
    <tag k="maxspeed" v="50"/>
    <tag k="maxspeed:source" v="default residential speed limit in Australia"/>
    <tag k="name" v="Malcolm Street"/>
    <tag k="source" v="survey"/>
  </way>
  <way id="7898712" version="3" timestamp="2012-01-15T06:31:55Z" uid="147510" user="woodpeck_fixbot" changeset="10394821">
    <nd ref="58130162"/>
    <nd ref="58130139"/>
    <tag k="highway" v="residential"/>
    <tag k="name" v="Malcolm Street"/>
    <tag k="source" v="survey"/>
  </way>
  <way id="7898715" version="1" timestamp="2007-09-23T02:41:38Z" uid="7617" user="Franc" changeset="498457">
    <nd ref="58130189"/>
    <nd ref="15080328"/>
    <tag k="created_by" v="JOSM"/>
    <tag k="highway" v="residential"/>
    <tag k="name" v="Randolph Street"/>
    <tag k="source" v="Yahoo Imagery"/>
    <tag k="source:name" v="survey"/>
  </way>
  <way id="7898715" version="2" timestamp="2007-12-29T02:28:09Z" uid="7617" user="Franc" changeset="465245">
    <nd ref="58130189"/>
    <nd ref="15080328"/>
    <tag k="created_by" v="JOSM"/>
    <tag k="highway" v="residential"/>
    <tag k="name" v="Randolph Street"/>
    <tag k="source" v="survey"/>
  </way>
  <way id="7898715" version="3" timestamp="2010-07-07T21:44:17Z" uid="74617" user="JohnSmith" changeset="5161069">
    <nd ref="58130189"/>
    <nd ref="15080328"/>
    <tag k="highway" v="residential"/>
    <tag k="maxspeed" v="50"/>
    <tag k="maxspeed:source" v="default residential speed limit in Australia"/>
    <tag k="name" v="Randolph Street"/>
    <tag k="source" v="survey"/>
  </way>
  <way id="7898715" version="4" timestamp="2012-01-15T06:31:57Z" uid="147510" user="woodpeck_fixbot" changeset="10394821">
    <nd ref="58130189"/>
    <nd ref="15080328"/>
    <tag k="highway" v="residential"/>
    <tag k="name" v="Randolph Street"/>
    <tag k="source" v="survey"/>
  </way>
  <way id="7898716" version="1" timestamp="2007-09-23T02:41:39Z" uid="7617" user="Franc" changeset="498457">
    <nd ref="58130178"/>
    <nd ref="58130169"/>
    <tag k="created_by" v="JOSM"/>
    <tag k="highway" v="residential"/>
    <tag k="name" v="Humphrey Street"/>
    <tag k="source" v="Yahoo Imagery"/>
    <tag k="source:name" v="survey"/>
  </way>
  <way id="7898716" version="2" timestamp="2007-12-29T02:28:10Z" uid="7617" user="Franc" changeset="465245">
    <nd ref="58130178"/>
    <nd ref="58130169"/>
    <tag k="created_by" v="JOSM"/>
    <tag k="highway" v="residential"/>
    <tag k="name" v="Humphrey Street"/>
    <tag k="source" v="survey"/>
  </way>
  <way id="7898716" version="3" timestamp="2010-07-07T21:44:04Z" uid="74617" user="JohnSmith" changeset="5161069">
    <nd ref="58130178"/>
    <nd ref="58130169"/>
    <tag k="highway" v="residential"/>
    <tag k="maxspeed" v="50"/>
    <tag k="maxspeed:source" v="default residential speed limit in Australia"/>
    <tag k="name" v="Humphrey Street"/>
    <tag k="source" v="survey"/>
  </way>
  <way id="7898716" version="4" timestamp="2012-01-15T06:31:58Z" uid="147510" user="woodpeck_fixbot" changeset="10394821">
    <nd ref="58130178"/>
    <nd ref="58130169"/>
    <tag k="highway" v="residential"/>
    <tag k="name" v="Humphrey Street"/>
    <tag k="source" v="survey"/>
  </way>
  <way id="7898718" version="1" timestamp="2007-09-23T02:41:39Z" uid="7617" user="Franc" changeset="498457">
    <nd ref="58130190"/>
    <nd ref="58130201"/>
    <tag k="created_by" v="JOSM"/>
    <tag k="highway" v="residential"/>
    <tag k="name" v="Hearne Close"/>
    <tag k="source" v="survey"/>
  </way>
  <way id="7898718" version="2" timestamp="2010-07-07T21:43:49Z" uid="74617" user="JohnSmith" changeset="5161069">
    <nd ref="58130190"/>
    <nd ref="58130201"/>
    <tag k="highway" v="residential"/>
    <tag k="maxspeed" v="50"/>
    <tag k="maxspeed:source" v="default residential speed limit in Australia"/>
    <tag k="name" v="Hearne Close"/>
    <tag k="source" v="survey"/>
  </way>
  <way id="7898718" version="3" timestamp="2012-01-15T06:32:00Z" uid="147510" user="woodpeck_fixbot" changeset="10394821">
    <nd ref="58130190"/>
    <nd ref="58130201"/>
    <tag k="highway" v="residential"/>
    <tag k="name" v="Hearne Close"/>
    <tag k="source" v="survey"/>
  </way>
  <way id="7898699" version="4" timestamp="2012-07-20T01:03:35Z" uid="722137" user="OSMF Redaction Account" changeset="12354149"/>
  <way id="7898701" version="4" timestamp="2012-07-20T01:03:36Z" uid="722137" user="OSMF Redaction Account" changeset="12354149"/>
  <way id="7898702" version="4" timestamp="2012-07-20T01:03:37Z" uid="722137" user="OSMF Redaction Account" changeset="12354149"/>
  <way id="7898705" version="6" timestamp="2012-07-12T14:20:59Z" uid="713671" user="auspod" changeset="12196343">
    <nd ref="1822990474"/>
    <nd ref="58129994"/>
    <nd ref="58130029"/>
    <nd ref="58130117"/>
    <nd ref="58130008"/>
    <nd ref="1210030552"/>
    <tag k="highway" v="residential"/>
    <tag k="name" v="Horner Avenue"/>
    <tag k="source" v="survey"/>
  </way>
  <way id="7898705" version="7" timestamp="2012-07-20T01:03:35Z" uid="722137" user="OSMF Redaction Account" changeset="12354149"/>
  <way id="7898708" version="5" timestamp="2012-07-20T01:03:37Z" uid="722137" user="OSMF Redaction Account" changeset="12354149"/>
  <way id="7898712" version="4" timestamp="2012-07-20T01:03:37Z" uid="722137" user="OSMF Redaction Account" changeset="12354149"/>
  <way id="7898715" version="5" timestamp="2012-07-12T14:20:59Z" uid="713671" user="auspod" changeset="12196343">
    <nd ref="58130189"/>
    <nd ref="1822990181"/>
    <tag k="highway" v="residential"/>
    <tag k="name" v="Randolph Street"/>
    <tag k="source" v="survey"/>
  </way>
  <way id="7898715" version="6" timestamp="2012-07-20T01:03:41Z" uid="722137" user="OSMF Redaction Account" changeset="12354149"/>
  <way id="7898716" version="5" timestamp="2012-07-12T14:21:00Z" uid="713671" user="auspod" changeset="12196343">
    <nd ref="58130178"/>
    <nd ref="1822990360"/>
    <tag k="highway" v="residential"/>
    <tag k="name" v="Humphrey Street"/>
    <tag k="source" v="survey"/>
  </way>
  <way id="7898716" version="6" timestamp="2012-07-20T01:03:40Z" uid="722137" user="OSMF Redaction Account" changeset="12354149"/>
  <way id="7898718" version="4" timestamp="2012-07-12T14:21:00Z" uid="713671" user="auspod" changeset="12196343">
    <nd ref="58130190"/>
    <nd ref="1822990309"/>
    <tag k="highway" v="residential"/>
    <tag k="name" v="Hearne Close"/>
    <tag k="source" v="survey"/>
  </way>
  <way id="7898718" version="5" timestamp="2012-07-20T01:03:42Z" uid="722137" user="OSMF Redaction Account" changeset="12354149"/>
</osm>
