<?xml version='1.0' encoding='UTF-8'?>
<osm version="0.6" generator="libosmium/2.20.0">
  <way id="79009615" version="2" timestamp="2010-12-20T01:11:41Z" uid="6269" user="Mueck" changeset="6712307">
    <nd ref="923894812"/>
    <nd ref="923894810"/>
    <nd ref="923894815"/>
    <nd ref="923894813"/>
    <nd ref="923894816"/>
    <nd ref="923894814"/>
    <tag k="highway" v="service"/>
    <tag k="name" v="Weg 88"/>
  </way>
  <way id="79009615" version="3" timestamp="2010-12-22T19:55:59Z" uid="6269" user="Mueck" changeset="6739163">
    <nd ref="1057477826"/>
    <nd ref="923894812"/>
    <nd ref="923894810"/>
    <nd ref="923894815"/>
    <nd ref="923894813"/>
    <nd ref="923894816"/>
    <nd ref="923894814"/>
    <tag k="highway" v="service"/>
    <tag k="name" v="Weg 88"/>
  </way>
  <way id="79009615" version="4" timestamp="2011-04-03T09:48:06Z" uid="114813" user="Chrisuu" changeset="7751861">
    <nd ref="1057477826"/>
    <nd ref="923894812"/>
    <nd ref="923894810"/>
    <nd ref="923894815"/>
    <nd ref="923894813"/>
    <nd ref="923894816"/>
    <nd ref="1230442789"/>
    <nd ref="923894814"/>
    <tag k="highway" v="service"/>
    <tag k="name" v="Weg 88"/>
  </way>
  <way id="79009615" version="5" timestamp="2011-04-19T06:39:18Z" uid="42429" user="FK270673" changeset="7903579">
    <nd ref="1057477826"/>
    <nd ref="923894812"/>
    <nd ref="923894810"/>
    <nd ref="923894815"/>
    <nd ref="923894813"/>
    <nd ref="923894816"/>
    <nd ref="1230442789"/>
    <nd ref="923894814"/>
    <tag k="access" v="yes"/>
    <tag k="highway" v="service"/>
    <tag k="motor_vehicle" v="permissive"/>
    <tag k="name" v="Weg 88"/>
    <tag k="surface" v="paved"/>
  </way>
  <way id="79009615" version="6" timestamp="2012-07-17T09:41:53Z" uid="722137" user="OSMF Redaction Account" changeset="12261995">
    <nd ref="923894812"/>
    <nd ref="923894810"/>
    <nd ref="923894815"/>
    <nd ref="923894813"/>
    <nd ref="923894816"/>
    <nd ref="1230442789"/>
    <nd ref="923894814"/>
    <tag k="access" v="yes"/>
    <tag k="highway" v="service"/>
    <tag k="motor_vehicle" v="permissive"/>
    <tag k="name" v="Weg 88"/>
    <tag k="surface" v="paved"/>
  </way>
  <way id="79009615" version="7" timestamp="2012-08-09T12:04:32Z" uid="114813" user="Chrisuu" changeset="12667462">
    <nd ref="1858586540"/>
    <nd ref="1858586518"/>
    <nd ref="923894812"/>
    <nd ref="923894810"/>
    <nd ref="923894815"/>
    <nd ref="923894813"/>
    <nd ref="923894816"/>
    <nd ref="1230442789"/>
    <nd ref="923894814"/>
    <tag k="access" v="yes"/>
    <tag k="highway" v="service"/>
    <tag k="motor_vehicle" v="permissive"/>
    <tag k="name" v="Weg 88"/>
    <tag k="surface" v="paved"/>
  </way>
</osm>
