<?xml version='1.0' encoding='UTF-8'?>
<osm version="0.6" generator="libosmium/2.20.0">
  <way id="79166395" version="1" timestamp="2010-09-25T05:45:02Z" uid="7617" user="Franc" changeset="5868200">
    <nd ref="362442740"/>
    <nd ref="60087487"/>
    <tag k="highway" v="trunk"/>
    <tag k="lanes" v="3"/>
    <tag k="maxspeed" v="70"/>
    <tag k="name" v="Pennant Hills Road"/>
    <tag k="oneway" v="yes"/>
    <tag k="source" v="survey"/>
  </way>
  <way id="79166395" version="2" timestamp="2011-06-18T12:35:11Z" uid="7617" user="Franc" changeset="8472865">
    <nd ref="362442740"/>
    <nd ref="1329568074"/>
    <nd ref="60087487"/>
    <tag k="highway" v="trunk"/>
    <tag k="lanes" v="3"/>
    <tag k="maxspeed" v="70"/>
    <tag k="name" v="Pennant Hills Road"/>
    <tag k="oneway" v="yes"/>
    <tag k="source" v="survey"/>
  </way>
  <way id="79166395" version="3" timestamp="2012-02-01T02:06:18Z" uid="54784" user="Tom Hollander" changeset="10555431">
    <nd ref="362442740"/>
    <nd ref="1329568074"/>
    <nd ref="60087487"/>
    <tag k="highway" v="trunk"/>
    <tag k="lanes" v="3"/>
    <tag k="maxspeed" v="70"/>
    <tag k="name" v="Pennant Hills Road"/>
    <tag k="oneway" v="yes"/>
    <tag k="ref" v="MR7"/>
    <tag k="source" v="survey"/>
  </way>
  <way id="79166396" version="1" timestamp="2010-09-25T05:45:02Z" uid="7617" user="Franc" changeset="5868200">
    <nd ref="60087186"/>
    <nd ref="679627288"/>
    <tag k="highway" v="trunk"/>
    <tag k="lanes" v="3"/>
    <tag k="maxspeed" v="70"/>
    <tag k="name" v="Pennant Hills Road"/>
    <tag k="oneway" v="yes"/>
    <tag k="restriction" v="school_zone"/>
    <tag k="source" v="survey"/>
  </way>
  <way id="79166399" version="1" timestamp="2010-09-25T05:45:02Z" uid="7617" user="Franc" changeset="5868200">
    <nd ref="362442740"/>
    <nd ref="679627291"/>
    <nd ref="362442741"/>
    <nd ref="527775745"/>
    <nd ref="527775744"/>
    <nd ref="527775743"/>
    <nd ref="30235627"/>
    <tag k="admin_level" v="10"/>
    <tag k="attribution" v="Based on Australian Bureau of Statistics data"/>
    <tag k="boundary" v="administrative"/>
    <tag k="highway" v="residential"/>
    <tag k="maxspeed" v="50"/>
    <tag k="maxspeed:source" v="default residential speed limit in Australia"/>
    <tag k="name" v="Hinemoa Avenue"/>
    <tag k="source" v="ABS_2006"/>
  </way>
  <way id="79166400" version="1" timestamp="2010-09-25T05:45:02Z" uid="7617" user="Franc" changeset="5868200">
    <nd ref="60087186"/>
    <nd ref="60087488"/>
    <tag k="highway" v="residential"/>
    <tag k="maxspeed" v="50"/>
    <tag k="maxspeed:source" v="default residential speed limit in Australia"/>
    <tag k="name" v="Jasmine Road"/>
    <tag k="restriction" v="school_zone"/>
    <tag k="source" v="nearmap"/>
  </way>
  <way id="79166401" version="1" timestamp="2010-09-25T05:45:03Z" uid="7617" user="Franc" changeset="5868200">
    <nd ref="60087488"/>
    <nd ref="60087489"/>
    <nd ref="60087490"/>
    <nd ref="60087491"/>
    <nd ref="60087492"/>
    <nd ref="60087493"/>
    <nd ref="60087494"/>
    <nd ref="60087495"/>
    <nd ref="601839878"/>
    <nd ref="60087496"/>
    <nd ref="60087497"/>
    <nd ref="60087498"/>
    <nd ref="60087499"/>
    <nd ref="677320171"/>
    <tag k="highway" v="trunk"/>
    <tag k="lanes" v="3"/>
    <tag k="maxspeed" v="70"/>
    <tag k="name" v="Pennant Hills Road"/>
    <tag k="oneway" v="yes"/>
    <tag k="restriction" v="school_zone"/>
    <tag k="source" v="survey"/>
  </way>
  <way id="79166401" version="2" timestamp="2011-03-03T22:33:02Z" uid="32394" user="Ant Burnett" changeset="7450498">
    <nd ref="60087488"/>
    <nd ref="60087489"/>
    <nd ref="60087490"/>
    <nd ref="60087491"/>
    <nd ref="60087492"/>
    <nd ref="60087493"/>
    <nd ref="60087494"/>
    <nd ref="1185128181"/>
    <nd ref="60087495"/>
    <nd ref="601839878"/>
    <nd ref="60087496"/>
    <nd ref="60087497"/>
    <nd ref="60087498"/>
    <nd ref="60087499"/>
    <nd ref="677320171"/>
    <tag k="highway" v="trunk"/>
    <tag k="lanes" v="3"/>
    <tag k="maxspeed" v="70"/>
    <tag k="name" v="Pennant Hills Road"/>
    <tag k="oneway" v="yes"/>
    <tag k="restriction" v="school_zone"/>
    <tag k="source" v="survey"/>
  </way>
  <way id="79166401" version="3" timestamp="2011-04-20T13:11:33Z" uid="7617" user="Franc" changeset="7916137">
    <nd ref="60087488"/>
    <nd ref="60087489"/>
    <nd ref="1252392491"/>
    <nd ref="60087490"/>
    <nd ref="60087491"/>
    <tag k="highway" v="trunk"/>
    <tag k="lanes" v="3"/>
    <tag k="maxspeed" v="70"/>
    <tag k="name" v="Pennant Hills Road"/>
    <tag k="oneway" v="yes"/>
    <tag k="restriction" v="school_zone"/>
    <tag k="source" v="survey"/>
  </way>
  <way id="79166401" version="4" timestamp="2011-06-18T12:35:19Z" uid="7617" user="Franc" changeset="8472865">
    <nd ref="60087488"/>
    <nd ref="1329568077"/>
    <nd ref="60087489"/>
    <nd ref="1252392491"/>
    <nd ref="60087490"/>
    <nd ref="60087491"/>
    <tag k="highway" v="trunk"/>
    <tag k="lanes" v="3"/>
    <tag k="maxspeed" v="70"/>
    <tag k="name" v="Pennant Hills Road"/>
    <tag k="oneway" v="yes"/>
    <tag k="restriction" v="school_zone"/>
    <tag k="source" v="survey"/>
  </way>
  <way id="79166401" version="5" timestamp="2012-02-01T02:06:19Z" uid="54784" user="Tom Hollander" changeset="10555431">
    <nd ref="60087488"/>
    <nd ref="1329568077"/>
    <nd ref="60087489"/>
    <nd ref="1252392491"/>
    <nd ref="60087490"/>
    <nd ref="60087491"/>
    <tag k="highway" v="trunk"/>
    <tag k="lanes" v="3"/>
    <tag k="maxspeed" v="70"/>
    <tag k="name" v="Pennant Hills Road"/>
    <tag k="oneway" v="yes"/>
    <tag k="ref" v="MR7"/>
    <tag k="restriction" v="school_zone"/>
    <tag k="source" v="survey"/>
  </way>
  <way id="79166395" version="4" timestamp="2012-07-19T20:10:55Z" uid="722137" user="OSMF Redaction Account" changeset="12345812"/>
  <way id="79166396" version="2" timestamp="2012-07-19T20:10:55Z" uid="722137" user="OSMF Redaction Account" changeset="12345812"/>
  <way id="79166399" version="2" timestamp="2012-07-19T20:10:55Z" uid="722137" user="OSMF Redaction Account" changeset="12345812"/>
  <way id="79166400" version="2" timestamp="2012-07-19T20:10:55Z" uid="722137" user="OSMF Redaction Account" changeset="12345812"/>
  <way id="79166401" version="6" timestamp="2012-07-19T20:10:55Z" uid="722137" user="OSMF Redaction Account" changeset="12345812"/>
</osm>
