<?xml version='1.0' encoding='UTF-8'?>
<osm version="0.6" generator="libosmium/2.20.0">
  <way id="79352466" version="3" timestamp="2010-12-02T04:52:21Z" uid="4467" user="Rosscoe" changeset="6511120">
    <nd ref="250079912"/>
    <nd ref="764780818"/>
    <nd ref="318146414"/>
    <nd ref="1015425950"/>
    <nd ref="319722033"/>
    <nd ref="1015426025"/>
    <nd ref="319721934"/>
    <nd ref="1015425974"/>
    <nd ref="320156086"/>
    <nd ref="319721958"/>
    <nd ref="320156085"/>
    <nd ref="319719579"/>
    <tag k="cycleway" v="lane"/>
    <tag k="highway" v="primary"/>
    <tag k="name" v="Cross Road"/>
    <tag k="oneway" v="yes"/>
    <tag k="ref" v="A3"/>
    <tag k="source" v="survey"/>
    <tag k="source_ref:name" v="http://osm.beldin.org/2009/03/DSCF8597.JPG"/>
  </way>
  <way id="79352466" version="4" timestamp="2011-07-08T13:45:25Z" uid="428465" user="markinspace" changeset="8666423">
    <nd ref="250079912"/>
    <nd ref="764780818"/>
    <nd ref="318146414"/>
    <nd ref="1015425950"/>
    <nd ref="319722033"/>
    <nd ref="1015426025"/>
    <nd ref="319721934"/>
    <nd ref="1015425974"/>
    <nd ref="320156086"/>
    <nd ref="319721958"/>
    <nd ref="320156085"/>
    <nd ref="319719579"/>
    <tag k="cycleway" v="lane"/>
    <tag k="highway" v="primary"/>
    <tag k="maxspeed" v="60"/>
    <tag k="name" v="Cross Road"/>
    <tag k="oneway" v="yes"/>
    <tag k="ref" v="A3"/>
    <tag k="source" v="survey"/>
    <tag k="source_ref:name" v="http://osm.beldin.org/2009/03/DSCF8597.JPG"/>
  </way>
  <way id="79352466" version="5" timestamp="2011-07-30T12:12:33Z" uid="428465" user="markinspace" changeset="8871326">
    <nd ref="250079912"/>
    <nd ref="764780818"/>
    <nd ref="318146414"/>
    <nd ref="1015425950"/>
    <nd ref="319722033"/>
    <nd ref="1015426025"/>
    <nd ref="319721934"/>
    <nd ref="1015425974"/>
    <nd ref="320156086"/>
    <nd ref="319721958"/>
    <nd ref="320156085"/>
    <nd ref="319719579"/>
    <tag k="cycleway" v="lane"/>
    <tag k="highway" v="primary"/>
    <tag k="lanes" v="2"/>
    <tag k="maxspeed" v="60"/>
    <tag k="name" v="Cross Road"/>
    <tag k="oneway" v="yes"/>
    <tag k="ref" v="A3"/>
    <tag k="source" v="survey"/>
    <tag k="source_ref:name" v="http://osm.beldin.org/2009/03/DSCF8597.JPG"/>
  </way>
  <way id="79352466" version="6" timestamp="2012-06-14T11:58:34Z" uid="328538" user="o&apos;cholio" changeset="11894380">
    <nd ref="250079912"/>
    <nd ref="1787198934"/>
    <nd ref="1787198936"/>
    <nd ref="318146414"/>
    <nd ref="1787198974"/>
    <nd ref="319722033"/>
    <nd ref="1787199004"/>
    <nd ref="1787199007"/>
    <nd ref="1787199011"/>
    <nd ref="319721934"/>
    <nd ref="1787199024"/>
    <nd ref="1787199030"/>
    <nd ref="1787199034"/>
    <nd ref="1787199036"/>
    <nd ref="319721958"/>
    <nd ref="1787199052"/>
    <nd ref="1787199054"/>
    <nd ref="320156085"/>
    <nd ref="1787199057"/>
    <nd ref="319719579"/>
    <tag k="cycleway" v="lane"/>
    <tag k="highway" v="primary"/>
    <tag k="lanes" v="2"/>
    <tag k="maxspeed" v="60"/>
    <tag k="name" v="Cross Road"/>
    <tag k="oneway" v="yes"/>
    <tag k="ref" v="A3"/>
    <tag k="source" v="survey"/>
    <tag k="source_ref:name" v="http://osm.beldin.org/2009/03/DSCF8597.JPG"/>
  </way>
  <way id="79352466" version="7" timestamp="2012-07-01T11:00:19Z" uid="328538" user="o&apos;cholio" changeset="12074401">
    <nd ref="250079912"/>
    <nd ref="1787198934"/>
    <nd ref="1787198936"/>
    <nd ref="318146414"/>
    <nd ref="1787198974"/>
    <nd ref="319722033"/>
    <nd ref="1787199004"/>
    <nd ref="1787199007"/>
    <nd ref="1787199011"/>
    <nd ref="319721934"/>
    <nd ref="1787199024"/>
    <nd ref="1787199030"/>
    <nd ref="1787199034"/>
    <nd ref="1787199036"/>
    <nd ref="319721958"/>
    <nd ref="1787199052"/>
    <nd ref="1787199054"/>
    <nd ref="320156085"/>
    <nd ref="1787199057"/>
    <nd ref="319719579"/>
    <tag k="cycleway" v="lane"/>
    <tag k="highway" v="primary"/>
    <tag k="lanes" v="2"/>
    <tag k="maxspeed" v="60"/>
    <tag k="name" v="Cross Road"/>
    <tag k="odbl" v="clean"/>
    <tag k="oneway" v="yes"/>
    <tag k="ref" v="A3"/>
    <tag k="source" v="survey"/>
  </way>
  <way id="79352466" version="8" timestamp="2012-07-26T13:38:55Z" uid="328538" user="o&apos;cholio" changeset="12499439">
    <nd ref="250079912"/>
    <nd ref="1787198934"/>
    <nd ref="1787198936"/>
    <nd ref="318146414"/>
    <nd ref="1787198974"/>
    <nd ref="319722033"/>
    <nd ref="1787199004"/>
    <nd ref="1787199007"/>
    <nd ref="1787199011"/>
    <nd ref="319721934"/>
    <nd ref="1787199024"/>
    <nd ref="1787199030"/>
    <nd ref="1787199034"/>
    <nd ref="1787199036"/>
    <nd ref="319721958"/>
    <nd ref="1787199052"/>
    <nd ref="1787199054"/>
    <nd ref="320156085"/>
    <nd ref="1787199057"/>
    <nd ref="319719579"/>
    <tag k="cycleway" v="lane"/>
    <tag k="highway" v="trunk"/>
    <tag k="lanes" v="2"/>
    <tag k="maxspeed" v="60"/>
    <tag k="name" v="Cross Road"/>
    <tag k="odbl" v="clean"/>
    <tag k="oneway" v="yes"/>
    <tag k="ref" v="A3"/>
    <tag k="source" v="survey"/>
  </way>
  <way id="79352466" version="9" timestamp="2012-09-09T22:20:29Z" uid="418724" user="wintersportler" changeset="13050842">
    <nd ref="250079912"/>
    <nd ref="1787198934"/>
    <nd ref="318146414"/>
    <nd ref="1907652057"/>
    <nd ref="319722033"/>
    <nd ref="1787199004"/>
    <nd ref="1787199007"/>
    <nd ref="1787199011"/>
    <nd ref="319721934"/>
    <nd ref="1787199024"/>
    <nd ref="1787199030"/>
    <nd ref="1787199034"/>
    <nd ref="1787199036"/>
    <nd ref="319721958"/>
    <nd ref="1787199052"/>
    <nd ref="1787199054"/>
    <nd ref="320156085"/>
    <nd ref="1787199057"/>
    <nd ref="319719579"/>
    <tag k="cycleway" v="lane"/>
    <tag k="highway" v="trunk"/>
    <tag k="lanes" v="2"/>
    <tag k="maxspeed" v="60"/>
    <tag k="name" v="Cross Road"/>
    <tag k="oneway" v="yes"/>
    <tag k="ref" v="A3"/>
    <tag k="source" v="survey"/>
  </way>
  <way id="79352466" version="10" timestamp="2012-09-10T23:23:43Z" uid="418724" user="wintersportler" changeset="13063663">
    <nd ref="250079912"/>
    <nd ref="1787198934"/>
    <nd ref="318146414"/>
    <nd ref="1907652057"/>
    <nd ref="319722033"/>
    <nd ref="1787199007"/>
    <nd ref="319721934"/>
    <nd ref="1787199024"/>
    <nd ref="1787199034"/>
    <nd ref="319721958"/>
    <nd ref="1787199052"/>
    <nd ref="1787199054"/>
    <nd ref="1909309567"/>
    <nd ref="1787199057"/>
    <nd ref="319719579"/>
    <tag k="cycleway" v="lane"/>
    <tag k="highway" v="trunk"/>
    <tag k="lanes" v="2"/>
    <tag k="maxspeed" v="60"/>
    <tag k="name" v="Cross Road"/>
    <tag k="oneway" v="yes"/>
    <tag k="ref" v="A3"/>
    <tag k="source" v="survey"/>
  </way>
</osm>
