<?xml version='1.0' encoding='UTF-8'?>
<osm version="0.6" generator="libosmium/2.20.0">
  <way id="7943295" version="3" timestamp="2007-10-16T22:47:02Z" uid="4667" user="MapZ" changeset="223456">
    <nd ref="26745834"/>
    <nd ref="26745836"/>
    <tag k="created_by" v="MapZ"/>
    <tag k="highway" v="secondary"/>
    <tag k="name" v="Floßwörthstraße"/>
  </way>
  <way id="7943295" version="4" timestamp="2007-10-23T22:16:13Z" uid="4667" user="MapZ" changeset="304670">
    <nd ref="26745834"/>
    <nd ref="26745836"/>
    <tag k="created_by" v="JOSM"/>
    <tag k="highway" v="secondary"/>
    <tag k="name" v="Floßwörthstraße"/>
  </way>
  <way id="7943295" version="5" timestamp="2008-05-18T15:35:45Z" uid="38348" user="Uwe2008" changeset="476523">
    <nd ref="26745834"/>
    <nd ref="26745836"/>
    <nd ref="26745839"/>
    <nd ref="26745841"/>
    <nd ref="26745843"/>
    <nd ref="26745846"/>
    <nd ref="26745848"/>
    <nd ref="26745850"/>
    <tag k="created_by" v="Potlatch 0.9a"/>
    <tag k="highway" v="secondary; residential"/>
    <tag k="name" v="Floßwörthstraße"/>
  </way>
  <way id="7943295" version="6" timestamp="2008-05-18T15:36:29Z" uid="38348" user="Uwe2008" changeset="476523">
    <nd ref="26745834"/>
    <nd ref="26745836"/>
    <nd ref="26745839"/>
    <nd ref="26745841"/>
    <nd ref="26745843"/>
    <nd ref="26745846"/>
    <nd ref="26745848"/>
    <nd ref="26745850"/>
    <tag k="created_by" v="Potlatch 0.9a"/>
    <tag k="highway" v="secondary"/>
    <tag k="name" v="Floßwörthstraße"/>
  </way>
  <way id="7943295" version="7" timestamp="2008-12-01T15:32:41Z" uid="7562" user="LosHawlos" changeset="16929">
    <nd ref="26745834"/>
    <nd ref="26745836"/>
    <tag k="bicycle" v="no"/>
    <tag k="created_by" v="Potlatch 0.9a"/>
    <tag k="highway" v="secondary"/>
    <tag k="name" v="Floßwörthstraße"/>
  </way>
  <way id="7943295" version="8" timestamp="2009-08-02T09:01:49Z" uid="85078" user="querkalender" changeset="2011418">
    <nd ref="26745834"/>
    <nd ref="26745836"/>
    <tag k="bicycle" v="no"/>
    <tag k="highway" v="secondary"/>
    <tag k="layer" v="1"/>
    <tag k="name" v="Floßwörthstraße"/>
  </way>
  <way id="7943295" version="9" timestamp="2009-08-08T13:38:04Z" uid="151834" user="ahone" changeset="2075735">
    <nd ref="26745834"/>
    <nd ref="26745836"/>
    <tag k="bicycle" v="no"/>
    <tag k="highway" v="secondary"/>
    <tag k="layer" v="1"/>
    <tag k="name" v="Floßwörthstraße"/>
  </way>
</osm>
