<?xml version='1.0' encoding='UTF-8'?>
<osm version="0.6" generator="libosmium/2.20.0">
  <way id="7949127" version="2" timestamp="2007-11-20T21:56:16Z" uid="8328" user="benpre" changeset="578796">
    <nd ref="59239508"/>
    <nd ref="60720472"/>
    <nd ref="33756480"/>
    <tag k="created_by" v="Potlatch alpha"/>
    <tag k="highway" v="residential"/>
  </way>
  <way id="7949127" version="3" timestamp="2007-11-27T20:57:46Z" uid="7363" user="user_7363" changeset="634133">
    <nd ref="59239508"/>
    <nd ref="60720472"/>
    <nd ref="33756480"/>
    <tag k="created_by" v="Potlatch 0.5d"/>
    <tag k="highway" v="residential"/>
    <tag k="name" v="Epaminonta"/>
  </way>
  <way id="7949127" version="4" timestamp="2009-01-24T12:13:56Z" uid="61855" user="Zenon" changeset="830170">
    <nd ref="59239508"/>
    <nd ref="60720472"/>
    <nd ref="33756480"/>
    <tag k="created_by" v="Potlatch 0.5d"/>
    <tag k="highway" v="residential"/>
    <tag k="is_in" v="Nicosia"/>
    <tag k="name" v="Epaminonta"/>
  </way>
  <way id="7949231" version="2" timestamp="2007-11-20T21:56:15Z" uid="8328" user="benpre" changeset="578796">
    <nd ref="59246018"/>
    <nd ref="59241201"/>
    <tag k="created_by" v="Potlatch alpha"/>
    <tag k="highway" v="residential"/>
  </way>
  <way id="7949231" version="3" timestamp="2007-11-27T21:02:43Z" uid="7363" user="user_7363" changeset="634133"/>
  <way id="7949286" version="8" timestamp="2010-04-17T06:52:47Z" uid="4467" user="Rosscoe" changeset="4444858">
    <nd ref="59241836"/>
    <nd ref="699572023"/>
    <tag k="highway" v="secondary"/>
    <tag k="name" v="Belmont Avenue"/>
    <tag k="source:name" v="general knowledge"/>
  </way>
  <way id="7949288" version="3" timestamp="2010-06-11T14:01:25Z" uid="4467" user="Rosscoe" changeset="4962793">
    <nd ref="769188161"/>
    <nd ref="59241716"/>
    <nd ref="59241751"/>
    <nd ref="59241784"/>
    <tag k="highway" v="secondary"/>
    <tag k="name" v="Belmont Avenue"/>
    <tag k="source:name" v="general knowledge"/>
  </way>
  <way id="7949289" version="5" timestamp="2010-04-17T06:32:50Z" uid="4467" user="Rosscoe" changeset="4444780">
    <nd ref="59242167"/>
    <nd ref="699567463"/>
    <tag k="highway" v="secondary"/>
    <tag k="name" v="Belmont Avenue"/>
    <tag k="source:name" v="general knowledge"/>
  </way>
  <way id="7949289" version="6" timestamp="2012-01-08T15:11:15Z" uid="142807" user="SDavies" changeset="10332507">
    <nd ref="59242167"/>
    <nd ref="699567463"/>
    <tag k="highway" v="unclassified"/>
    <tag k="name" v="Belmont Avenue"/>
    <tag k="source:name" v="general knowledge"/>
  </way>
  <way id="7949326" version="2" timestamp="2007-11-20T21:56:19Z" uid="8328" user="benpre" changeset="578796">
    <nd ref="59243736"/>
    <nd ref="59243913"/>
    <nd ref="59243000"/>
    <nd ref="59242813"/>
    <nd ref="52792551"/>
    <tag k="created_by" v="Potlatch alpha"/>
    <tag k="highway" v="residential"/>
  </way>
  <way id="7949326" version="3" timestamp="2007-11-27T20:57:04Z" uid="7363" user="user_7363" changeset="634133">
    <nd ref="59243736"/>
    <nd ref="59243913"/>
    <nd ref="59243000"/>
    <nd ref="59242813"/>
    <nd ref="52792551"/>
    <tag k="created_by" v="Potlatch 0.5d"/>
    <tag k="highway" v="unclassified"/>
  </way>
  <way id="7949326" version="4" timestamp="2007-11-27T21:05:39Z" uid="7363" user="user_7363" changeset="634133"/>
  <way id="7949580" version="2" timestamp="2007-11-20T21:56:16Z" uid="8328" user="benpre" changeset="578796">
    <nd ref="59246121"/>
    <nd ref="59246123"/>
    <tag k="created_by" v="Potlatch alpha"/>
    <tag k="highway" v="residential"/>
  </way>
  <way id="7949580" version="3" timestamp="2007-11-27T21:03:53Z" uid="7363" user="user_7363" changeset="634133"/>
  <way id="7949606" version="7" timestamp="2008-12-08T12:02:47Z" uid="27600" user="Islanit" changeset="255247">
    <nd ref="59246288"/>
    <nd ref="59246291"/>
    <nd ref="302920991"/>
    <nd ref="317390528"/>
    <nd ref="59246189"/>
    <nd ref="59246280"/>
    <nd ref="59246216"/>
    <tag k="abutters" v="residential"/>
    <tag k="created_by" v="Potlatch 0.10f"/>
    <tag k="highway" v="residential"/>
    <tag k="maxspeed" v="50"/>
    <tag k="name" v="Alte Petersdorfer Straße"/>
    <tag k="postal_code" v="15517"/>
  </way>
  <way id="7949606" version="8" timestamp="2008-12-08T17:29:38Z" uid="27600" user="Islanit" changeset="259237">
    <nd ref="317430954"/>
    <nd ref="59246288"/>
    <nd ref="59246291"/>
    <nd ref="302920991"/>
    <nd ref="317390528"/>
    <nd ref="59246189"/>
    <nd ref="59246280"/>
    <nd ref="59246216"/>
    <tag k="abutters" v="residential"/>
    <tag k="created_by" v="Potlatch 0.10f"/>
    <tag k="highway" v="residential"/>
    <tag k="maxspeed" v="50"/>
    <tag k="name" v="Alte Petersdorfer Straße"/>
    <tag k="postal_code" v="15517"/>
  </way>
  <way id="7949606" version="9" timestamp="2009-09-28T12:09:16Z" uid="109035" user="Teddy80" changeset="2663725">
    <nd ref="317430954"/>
    <nd ref="59246288"/>
    <nd ref="59246291"/>
    <nd ref="302920991"/>
    <nd ref="317390528"/>
    <nd ref="59246189"/>
    <nd ref="59246280"/>
    <nd ref="59246216"/>
    <tag k="abutters" v="residential"/>
    <tag k="highway" v="residential"/>
    <tag k="maxspeed" v="50"/>
    <tag k="name" v="Alte Petersdorfer Straße"/>
    <tag k="postal_code" v="15517"/>
  </way>
  <way id="7949606" version="10" timestamp="2010-07-06T12:46:38Z" uid="42938" user="Xanadu" changeset="5150257">
    <nd ref="317430954"/>
    <nd ref="59246288"/>
    <nd ref="59246291"/>
    <nd ref="302920991"/>
    <nd ref="317390528"/>
    <nd ref="59246189"/>
    <nd ref="59246280"/>
    <nd ref="59246216"/>
    <tag k="highway" v="residential"/>
    <tag k="maxspeed" v="50"/>
    <tag k="name" v="Alte Petersdorfer Straße"/>
    <tag k="postal_code" v="15517"/>
  </way>
  <way id="7949606" version="11" timestamp="2010-12-24T14:09:59Z" uid="163437" user="r-michael" changeset="6754822">
    <nd ref="317430954"/>
    <nd ref="59246288"/>
    <nd ref="302920991"/>
    <nd ref="317390528"/>
    <nd ref="59246189"/>
    <nd ref="59246280"/>
    <nd ref="59246216"/>
    <tag k="highway" v="residential"/>
    <tag k="maxspeed" v="50"/>
    <tag k="name" v="Alte Petersdorfer Straße"/>
    <tag k="postal_code" v="15517"/>
  </way>
  <way id="7949606" version="12" timestamp="2011-01-21T23:39:49Z" uid="115651" user="Konrad Aust" changeset="7045946">
    <nd ref="317430954"/>
    <nd ref="302920991"/>
    <nd ref="317390528"/>
    <nd ref="59246189"/>
    <nd ref="59246280"/>
    <nd ref="59246216"/>
    <tag k="highway" v="residential"/>
    <tag k="maxspeed" v="50"/>
    <tag k="name" v="Alte Petersdorfer Straße"/>
    <tag k="postal_code" v="15517"/>
  </way>
  <way id="7949606" version="13" timestamp="2011-01-27T02:58:53Z" uid="115651" user="Konrad Aust" changeset="7099952">
    <nd ref="317430954"/>
    <nd ref="302920991"/>
    <nd ref="1122948559"/>
    <nd ref="317390528"/>
    <nd ref="59246189"/>
    <nd ref="59246280"/>
    <nd ref="59246216"/>
    <tag k="highway" v="residential"/>
    <tag k="maxspeed" v="50"/>
    <tag k="name" v="Alte Petersdorfer Straße"/>
    <tag k="postal_code" v="15517"/>
  </way>
  <way id="7949665" version="5" timestamp="2008-12-08T22:08:04Z" uid="27600" user="Islanit" changeset="263827">
    <nd ref="59246201"/>
    <nd ref="52190904"/>
    <tag k="abutters" v="mixed"/>
    <tag k="created_by" v="Potlatch 0.10b"/>
    <tag k="highway" v="residential"/>
    <tag k="maxspeed" v="30"/>
    <tag k="name" v="An der Autobahn"/>
    <tag k="surface" v="unpaved"/>
  </way>
  <way id="7949665" version="6" timestamp="2009-09-28T12:09:57Z" uid="109035" user="Teddy80" changeset="2663725">
    <nd ref="59246201"/>
    <nd ref="52190904"/>
    <tag k="abutters" v="mixed"/>
    <tag k="highway" v="residential"/>
    <tag k="maxspeed" v="30"/>
    <tag k="name" v="An der Autobahn"/>
    <tag k="surface" v="unpaved"/>
  </way>
  <way id="7949665" version="7" timestamp="2011-01-17T01:37:56Z" uid="115651" user="Konrad Aust" changeset="6995665">
    <nd ref="59246201"/>
    <nd ref="1107024437"/>
    <nd ref="1107024615"/>
    <tag k="highway" v="residential"/>
    <tag k="maxspeed" v="30"/>
    <tag k="name" v="An der Autobahn"/>
    <tag k="surface" v="unpaved"/>
  </way>
  <way id="7949839" version="3" timestamp="2008-12-08T12:02:47Z" uid="27600" user="Islanit" changeset="255247">
    <nd ref="59249299"/>
    <nd ref="317390528"/>
    <tag k="abutters" v="residential"/>
    <tag k="created_by" v="Potlatch 0.10f"/>
    <tag k="highway" v="residential"/>
    <tag k="maxspeed" v="30"/>
    <tag k="name" v="Paul-Frost-Ring"/>
    <tag k="oneway" v="false"/>
  </way>
  <way id="7949839" version="4" timestamp="2008-12-09T11:36:55Z" uid="27600" user="Islanit" changeset="282277">
    <nd ref="317390528"/>
    <nd ref="52208812"/>
    <tag k="abutters" v="residential"/>
    <tag k="created_by" v="Potlatch 0.10f"/>
    <tag k="highway" v="residential"/>
    <tag k="maxspeed" v="30"/>
    <tag k="name" v="Paul-Frost-Ring"/>
    <tag k="oneway" v="false"/>
  </way>
  <way id="7949839" version="5" timestamp="2009-04-17T00:01:35Z" uid="103885" user="logicbot" changeset="603450">
    <nd ref="317390528"/>
    <nd ref="52208812"/>
    <tag k="abutters" v="residential"/>
    <tag k="created_by" v="Potlatch 0.10f"/>
    <tag k="highway" v="residential"/>
    <tag k="maxspeed" v="30"/>
    <tag k="name" v="Paul-Frost-Ring"/>
    <tag k="oneway" v="no"/>
  </way>
  <way id="7949839" version="6" timestamp="2009-09-28T12:10:30Z" uid="109035" user="Teddy80" changeset="2663725">
    <nd ref="317390528"/>
    <nd ref="52208812"/>
    <tag k="abutters" v="residential"/>
    <tag k="highway" v="residential"/>
    <tag k="maxspeed" v="30"/>
    <tag k="name" v="Paul-Frost-Ring"/>
    <tag k="oneway" v="no"/>
  </way>
  <way id="7949839" version="7" timestamp="2010-07-06T12:45:44Z" uid="42938" user="Xanadu" changeset="5150257">
    <nd ref="317390528"/>
    <nd ref="52208812"/>
    <tag k="highway" v="residential"/>
    <tag k="maxspeed" v="30"/>
    <tag k="name" v="Paul-Frost-Ring"/>
    <tag k="oneway" v="no"/>
  </way>
  <way id="7949839" version="8" timestamp="2011-01-27T02:58:54Z" uid="115651" user="Konrad Aust" changeset="7099952">
    <nd ref="317390528"/>
    <nd ref="52208812"/>
    <nd ref="1122948501"/>
    <nd ref="1122948619"/>
    <nd ref="1122948621"/>
    <nd ref="1122948607"/>
    <nd ref="1122948489"/>
    <nd ref="1122948487"/>
    <nd ref="1122948492"/>
    <nd ref="1122948517"/>
    <nd ref="1122948588"/>
    <nd ref="1122948550"/>
    <nd ref="1122948556"/>
    <nd ref="1122948563"/>
    <nd ref="1122948557"/>
    <tag k="highway" v="residential"/>
    <tag k="maxspeed" v="30"/>
    <tag k="name" v="Paul-Frost-Ring"/>
    <tag k="oneway" v="no"/>
  </way>
  <way id="7949839" version="9" timestamp="2011-02-02T07:22:17Z" uid="13712" user="TimG" changeset="7161997">
    <nd ref="317390528"/>
    <nd ref="52208812"/>
    <nd ref="1122948501"/>
    <nd ref="1122948619"/>
    <nd ref="1122948621"/>
    <nd ref="317390473"/>
    <nd ref="1122948607"/>
    <nd ref="1122948489"/>
    <nd ref="1122948487"/>
    <nd ref="1122948492"/>
    <nd ref="1122948517"/>
    <nd ref="1122948588"/>
    <nd ref="1122948550"/>
    <nd ref="1122948556"/>
    <nd ref="1122948563"/>
    <nd ref="1122948557"/>
    <tag k="highway" v="residential"/>
    <tag k="maxspeed" v="30"/>
    <tag k="name" v="Paul-Frost-Ring"/>
    <tag k="oneway" v="no"/>
  </way>
  <way id="7949842" version="2" timestamp="2008-12-08T12:02:29Z" uid="27600" user="Islanit" changeset="255247">
    <nd ref="59249242"/>
    <nd ref="59249294"/>
    <nd ref="317390474"/>
    <tag k="abutters" v="mixed"/>
    <tag k="created_by" v="Potlatch 0.10f"/>
    <tag k="highway" v="residential"/>
    <tag k="maxspeed" v="30"/>
    <tag k="name" v="Paul-Frost-Ring"/>
    <tag k="oneway" v="false"/>
  </way>
  <way id="7949842" version="3" timestamp="2008-12-10T20:39:46Z" uid="36894" user="rab" changeset="303094">
    <nd ref="317812691"/>
    <nd ref="317390474"/>
    <tag k="abutters" v="mixed"/>
    <tag k="created_by" v="Potlatch 0.10f"/>
    <tag k="highway" v="residential"/>
    <tag k="maxspeed" v="30"/>
    <tag k="name" v="Paul-Frost-Ring"/>
    <tag k="oneway" v="false"/>
  </way>
  <way id="7949842" version="4" timestamp="2009-04-17T00:01:36Z" uid="103885" user="logicbot" changeset="603450">
    <nd ref="317812691"/>
    <nd ref="317390474"/>
    <tag k="abutters" v="mixed"/>
    <tag k="created_by" v="Potlatch 0.10f"/>
    <tag k="highway" v="residential"/>
    <tag k="maxspeed" v="30"/>
    <tag k="name" v="Paul-Frost-Ring"/>
    <tag k="oneway" v="no"/>
  </way>
  <way id="7949842" version="5" timestamp="2009-09-28T12:10:12Z" uid="109035" user="Teddy80" changeset="2663725">
    <nd ref="317812691"/>
    <nd ref="317390474"/>
    <tag k="abutters" v="mixed"/>
    <tag k="highway" v="residential"/>
    <tag k="maxspeed" v="30"/>
    <tag k="name" v="Paul-Frost-Ring"/>
    <tag k="oneway" v="no"/>
  </way>
  <way id="7949842" version="6" timestamp="2011-01-27T02:58:56Z" uid="115651" user="Konrad Aust" changeset="7099952"/>
  <way id="7949943" version="6" timestamp="2008-12-08T17:29:43Z" uid="27600" user="Islanit" changeset="259237">
    <nd ref="59250762"/>
    <nd ref="59252138"/>
    <nd ref="59246216"/>
    <tag k="abutters" v="residential"/>
    <tag k="created_by" v="Potlatch 0.10d"/>
    <tag k="highway" v="residential"/>
    <tag k="maxspeed" v="50"/>
    <tag k="name" v="Rauener Kirchweg"/>
  </way>
  <way id="7949943" version="7" timestamp="2009-09-28T12:10:16Z" uid="109035" user="Teddy80" changeset="2663725">
    <nd ref="59250762"/>
    <nd ref="59252138"/>
    <nd ref="59246216"/>
    <tag k="abutters" v="residential"/>
    <tag k="highway" v="residential"/>
    <tag k="maxspeed" v="50"/>
    <tag k="name" v="Rauener Kirchweg"/>
  </way>
  <way id="7949943" version="8" timestamp="2010-07-06T12:45:50Z" uid="42938" user="Xanadu" changeset="5150257">
    <nd ref="59250762"/>
    <nd ref="59252138"/>
    <nd ref="59246216"/>
    <tag k="highway" v="residential"/>
    <tag k="maxspeed" v="50"/>
    <tag k="name" v="Rauener Kirchweg"/>
  </way>
  <way id="7949943" version="9" timestamp="2011-01-17T01:37:57Z" uid="115651" user="Konrad Aust" changeset="6995665">
    <nd ref="36265090"/>
    <nd ref="1107024593"/>
    <nd ref="1107024747"/>
    <nd ref="59250762"/>
    <nd ref="1107024504"/>
    <nd ref="1107024707"/>
    <nd ref="1107024800"/>
    <nd ref="1107024447"/>
    <nd ref="59246216"/>
    <tag k="highway" v="residential"/>
    <tag k="maxspeed" v="50"/>
    <tag k="name" v="Rauener Kirchweg"/>
  </way>
  <way id="7949943" version="10" timestamp="2012-03-29T22:54:46Z" uid="460437" user="wirschatzfinder" changeset="11145715"/>
  <way id="7949127" version="5" timestamp="2012-07-20T09:01:56Z" uid="722137" user="OSMF Redaction Account" changeset="12369290">
    <nd ref="59239508"/>
    <nd ref="60720472"/>
    <nd ref="33756480"/>
    <tag k="highway" v="residential"/>
    <tag k="is_in" v="Nicosia"/>
  </way>
  <way id="7949127" version="6" timestamp="2012-08-24T15:19:26Z" uid="11321" user="Pecisk" changeset="12846282">
    <nd ref="59239508"/>
    <nd ref="60720472"/>
    <nd ref="1880987543"/>
    <nd ref="1880987527"/>
    <nd ref="33756480"/>
    <tag k="highway" v="residential"/>
    <tag k="is_in" v="Nicosia"/>
  </way>
  <way id="7949286" version="9" timestamp="2012-07-19T11:32:48Z" uid="722137" user="OSMF Redaction Account" changeset="12321869"/>
  <way id="7949288" version="4" timestamp="2012-07-19T11:29:41Z" uid="722137" user="OSMF Redaction Account" changeset="12321691">
    <nd ref="59241716"/>
    <nd ref="59241751"/>
    <nd ref="59241784"/>
    <tag k="highway" v="secondary"/>
    <tag k="name" v="Belmont Avenue"/>
    <tag k="source:name" v="general knowledge"/>
  </way>
  <way id="7949288" version="5" timestamp="2012-08-26T20:50:30Z" uid="418724" user="wintersportler" changeset="12872094">
    <nd ref="1884447263"/>
    <nd ref="59241716"/>
    <nd ref="59241751"/>
    <nd ref="59241784"/>
    <tag k="highway" v="secondary"/>
    <tag k="name" v="Belmont Avenue"/>
    <tag k="source:name" v="general knowledge"/>
  </way>
  <way id="7949289" version="7" timestamp="2012-07-19T11:32:45Z" uid="722137" user="OSMF Redaction Account" changeset="12321869"/>
  <way id="7949606" version="14" timestamp="2012-07-24T12:48:53Z" uid="722137" user="OSMF Redaction Account" changeset="12465861">
    <nd ref="302920991"/>
    <nd ref="1122948559"/>
    <nd ref="59246189"/>
    <nd ref="59246280"/>
    <nd ref="59246216"/>
    <tag k="highway" v="residential"/>
    <tag k="maxspeed" v="50"/>
    <tag k="name" v="Alte Petersdorfer Straße"/>
    <tag k="postal_code" v="15517"/>
  </way>
  <way id="7949606" version="15" timestamp="2012-08-25T09:53:39Z" uid="43566" user="anbr" changeset="12853368">
    <nd ref="317430954"/>
    <nd ref="302920991"/>
    <nd ref="1122948559"/>
    <nd ref="1882186138"/>
    <nd ref="317390528"/>
    <nd ref="59246189"/>
    <nd ref="59246280"/>
    <nd ref="59246216"/>
    <tag k="highway" v="residential"/>
    <tag k="maxspeed" v="50"/>
    <tag k="name" v="Alte Petersdorfer Straße"/>
    <tag k="postal_code" v="15517"/>
  </way>
  <way id="7949665" version="8" timestamp="2012-07-24T12:48:50Z" uid="722137" user="OSMF Redaction Account" changeset="12465861">
    <nd ref="1107024437"/>
    <nd ref="1107024615"/>
    <tag k="highway" v="residential"/>
    <tag k="maxspeed" v="30"/>
    <tag k="name" v="An der Autobahn"/>
    <tag k="surface" v="unpaved"/>
  </way>
</osm>
