<?xml version='1.0' encoding='UTF-8'?>
<osm version="0.6" generator="libosmium/2.20.0">
  <way id="7952487" version="3" timestamp="2008-12-08T18:12:52Z" uid="27600" user="Islanit" changeset="259237">
    <nd ref="59297033"/>
    <nd ref="59297023"/>
    <nd ref="317438535"/>
    <tag k="abutters" v="residential"/>
    <tag k="created_by" v="JOSM"/>
    <tag k="highway" v="residential"/>
    <tag k="maxspeed" v="50"/>
    <tag k="name" v="Luisenstraße"/>
    <tag k="oneway" v="false"/>
  </way>
  <way id="7952487" version="4" timestamp="2008-12-10T18:44:54Z" uid="36894" user="rab" changeset="303094">
    <nd ref="59297033"/>
    <nd ref="317438535"/>
    <tag k="abutters" v="residential"/>
    <tag k="created_by" v="JOSM"/>
    <tag k="highway" v="residential"/>
    <tag k="maxspeed" v="50"/>
    <tag k="name" v="Luisenstraße"/>
    <tag k="oneway" v="false"/>
  </way>
  <way id="7952487" version="5" timestamp="2009-04-17T00:01:55Z" uid="103885" user="logicbot" changeset="603450">
    <nd ref="59297033"/>
    <nd ref="317438535"/>
    <tag k="abutters" v="residential"/>
    <tag k="created_by" v="JOSM"/>
    <tag k="highway" v="residential"/>
    <tag k="maxspeed" v="50"/>
    <tag k="name" v="Luisenstraße"/>
    <tag k="oneway" v="no"/>
  </way>
  <way id="7952487" version="6" timestamp="2009-09-28T12:10:10Z" uid="109035" user="Teddy80" changeset="2663725">
    <nd ref="59297033"/>
    <nd ref="317438535"/>
    <tag k="abutters" v="residential"/>
    <tag k="highway" v="residential"/>
    <tag k="maxspeed" v="50"/>
    <tag k="name" v="Luisenstraße"/>
    <tag k="oneway" v="no"/>
  </way>
  <way id="7952487" version="7" timestamp="2010-07-06T12:47:10Z" uid="42938" user="Xanadu" changeset="5150257">
    <nd ref="59297033"/>
    <nd ref="317438535"/>
    <tag k="highway" v="residential"/>
    <tag k="maxspeed" v="50"/>
    <tag k="name" v="Luisenstraße"/>
    <tag k="oneway" v="no"/>
  </way>
  <way id="7952873" version="5" timestamp="2008-12-08T18:12:49Z" uid="27600" user="Islanit" changeset="259237">
    <nd ref="59301832"/>
    <nd ref="317438535"/>
    <nd ref="59301632"/>
    <nd ref="59298430"/>
    <nd ref="78498484"/>
    <nd ref="59301677"/>
    <nd ref="59301664"/>
    <nd ref="59301778"/>
    <tag k="abutters" v="residential"/>
    <tag k="created_by" v="JOSM"/>
    <tag k="highway" v="residential"/>
    <tag k="maxspeed" v="50"/>
    <tag k="name" v="Uferstraße"/>
    <tag k="oneway" v="false"/>
  </way>
  <way id="7952873" version="6" timestamp="2008-12-10T20:17:57Z" uid="36894" user="rab" changeset="303094">
    <nd ref="59301832"/>
    <nd ref="317438535"/>
    <nd ref="59301632"/>
    <nd ref="59298430"/>
    <nd ref="78498484"/>
    <nd ref="59301677"/>
    <nd ref="59299701"/>
    <nd ref="59301778"/>
    <tag k="abutters" v="residential"/>
    <tag k="created_by" v="JOSM"/>
    <tag k="highway" v="residential"/>
    <tag k="maxspeed" v="50"/>
    <tag k="name" v="Uferstraße"/>
    <tag k="oneway" v="false"/>
  </way>
  <way id="7952873" version="7" timestamp="2009-04-17T00:01:58Z" uid="103885" user="logicbot" changeset="603450">
    <nd ref="59301832"/>
    <nd ref="317438535"/>
    <nd ref="59301632"/>
    <nd ref="59298430"/>
    <nd ref="78498484"/>
    <nd ref="59301677"/>
    <nd ref="59299701"/>
    <nd ref="59301778"/>
    <tag k="abutters" v="residential"/>
    <tag k="created_by" v="JOSM"/>
    <tag k="highway" v="residential"/>
    <tag k="maxspeed" v="50"/>
    <tag k="name" v="Uferstraße"/>
    <tag k="oneway" v="no"/>
  </way>
  <way id="7952873" version="8" timestamp="2009-09-28T12:10:10Z" uid="109035" user="Teddy80" changeset="2663725">
    <nd ref="59301832"/>
    <nd ref="317438535"/>
    <nd ref="59301632"/>
    <nd ref="59298430"/>
    <nd ref="78498484"/>
    <nd ref="59301677"/>
    <nd ref="59299701"/>
    <nd ref="59301778"/>
    <tag k="abutters" v="residential"/>
    <tag k="highway" v="residential"/>
    <tag k="maxspeed" v="50"/>
    <tag k="name" v="Uferstraße"/>
    <tag k="oneway" v="no"/>
  </way>
  <way id="7952873" version="9" timestamp="2010-07-06T12:45:35Z" uid="42938" user="Xanadu" changeset="5150257">
    <nd ref="59301832"/>
    <nd ref="317438535"/>
    <nd ref="59301632"/>
    <nd ref="59298430"/>
    <nd ref="78498484"/>
    <nd ref="59301677"/>
    <nd ref="59299701"/>
    <nd ref="59301778"/>
    <tag k="highway" v="residential"/>
    <tag k="maxspeed" v="50"/>
    <tag k="name" v="Uferstraße"/>
    <tag k="oneway" v="no"/>
  </way>
  <way id="7952873" version="10" timestamp="2011-01-18T02:01:31Z" uid="115651" user="Konrad Aust" changeset="7006508">
    <nd ref="59301832"/>
    <nd ref="317438535"/>
    <nd ref="59301632"/>
    <nd ref="59298430"/>
    <nd ref="78498484"/>
    <nd ref="59301677"/>
    <nd ref="59299701"/>
    <nd ref="1108486344"/>
    <nd ref="1108486366"/>
    <nd ref="1108486304"/>
    <nd ref="1108486297"/>
    <nd ref="1108486356"/>
    <tag k="highway" v="residential"/>
    <tag k="maxspeed" v="50"/>
    <tag k="name" v="Uferstraße"/>
    <tag k="oneway" v="no"/>
  </way>
  <way id="7952873" version="11" timestamp="2011-01-18T22:10:02Z" uid="115651" user="Konrad Aust" changeset="7015579">
    <nd ref="59301832"/>
    <nd ref="317438535"/>
    <nd ref="59301632"/>
    <nd ref="1109709591"/>
    <nd ref="59298430"/>
    <nd ref="1109709600"/>
    <nd ref="1109709580"/>
    <nd ref="78498484"/>
    <nd ref="59301677"/>
    <nd ref="59299701"/>
    <nd ref="1108486344"/>
    <nd ref="1108486366"/>
    <nd ref="1108486304"/>
    <nd ref="1108486297"/>
    <nd ref="1108486356"/>
    <tag k="highway" v="residential"/>
    <tag k="maxspeed" v="50"/>
    <tag k="name" v="Uferstraße"/>
    <tag k="oneway" v="no"/>
  </way>
  <way id="7952487" version="8" timestamp="2012-04-18T08:06:56Z" uid="5453" user="wasat" changeset="11341138">
    <nd ref="59297033"/>
    <nd ref="1721548062"/>
    <tag k="highway" v="residential"/>
    <tag k="maxspeed" v="50"/>
    <tag k="name" v="Luisenstraße"/>
    <tag k="oneway" v="no"/>
  </way>
  <way id="7952873" version="12" timestamp="2012-04-18T08:06:57Z" uid="5453" user="wasat" changeset="11341138">
    <nd ref="59301832"/>
    <nd ref="1721548062"/>
    <nd ref="59301632"/>
    <nd ref="1109709591"/>
    <nd ref="59298430"/>
    <nd ref="1109709600"/>
    <nd ref="1109709580"/>
    <nd ref="78498484"/>
    <nd ref="59301677"/>
    <nd ref="59299701"/>
    <nd ref="1108486344"/>
    <nd ref="1108486366"/>
    <nd ref="1108486304"/>
    <nd ref="1108486297"/>
    <nd ref="1108486356"/>
    <tag k="highway" v="residential"/>
    <tag k="maxspeed" v="50"/>
    <tag k="name" v="Uferstraße"/>
    <tag k="oneway" v="no"/>
  </way>
  <way id="7952873" version="13" timestamp="2012-06-17T19:52:44Z" uid="43566" user="anbr" changeset="11929558">
    <nd ref="59301832"/>
    <nd ref="1721548062"/>
    <nd ref="59301632"/>
    <nd ref="59298430"/>
    <nd ref="1109709580"/>
    <nd ref="78498484"/>
    <nd ref="59299701"/>
    <nd ref="1108486344"/>
    <nd ref="1108486304"/>
    <nd ref="1108486297"/>
    <nd ref="1108486356"/>
    <tag k="highway" v="residential"/>
    <tag k="maxspeed" v="50"/>
    <tag k="name" v="Uferstraße"/>
    <tag k="oneway" v="no"/>
  </way>
</osm>
