<?xml version='1.0' encoding='UTF-8'?>
<osm version="0.6" generator="libosmium/2.20.0">
  <way id="796678" version="3" timestamp="2008-12-25T01:13:54Z" uid="26515" user="Simon Ward" changeset="594458">
    <nd ref="3450923"/>
    <nd ref="3450925"/>
    <nd ref="3634975"/>
    <nd ref="3636724"/>
    <nd ref="3634973"/>
    <nd ref="3634972"/>
    <nd ref="3450927"/>
    <nd ref="3689582"/>
    <nd ref="3450928"/>
    <nd ref="3450929"/>
    <nd ref="321541070"/>
    <nd ref="321541066"/>
    <nd ref="3450932"/>
    <nd ref="3692923"/>
    <nd ref="32614061"/>
    <nd ref="3560604"/>
    <nd ref="3560606"/>
    <nd ref="3353253"/>
    <nd ref="3353257"/>
    <nd ref="3351381"/>
    <tag k="abutters" v="commercial"/>
    <tag k="created_by" v="JOSM"/>
    <tag k="highway" v="secondary"/>
    <tag k="name" v="Fairfield Street"/>
    <tag k="ref" v="B6469"/>
  </way>
  <way id="796678" version="4" timestamp="2008-12-25T01:20:12Z" uid="26515" user="Simon Ward" changeset="594458">
    <nd ref="3450923"/>
    <nd ref="3450925"/>
    <nd ref="3634975"/>
    <nd ref="3636724"/>
    <nd ref="3634973"/>
    <nd ref="3634972"/>
    <nd ref="3450927"/>
    <nd ref="3689582"/>
    <nd ref="3450928"/>
    <nd ref="3450929"/>
    <nd ref="321541601"/>
    <nd ref="321541070"/>
    <nd ref="321541066"/>
    <nd ref="3450932"/>
    <nd ref="3692923"/>
    <nd ref="32614061"/>
    <nd ref="3560604"/>
    <nd ref="3560606"/>
    <nd ref="3353253"/>
    <nd ref="3353257"/>
    <nd ref="3351381"/>
    <tag k="abutters" v="commercial"/>
    <tag k="created_by" v="JOSM"/>
    <tag k="highway" v="secondary"/>
    <tag k="name" v="Fairfield Street"/>
    <tag k="ref" v="B6469"/>
  </way>
  <way id="796678" version="5" timestamp="2008-12-25T02:33:50Z" uid="26515" user="Simon Ward" changeset="594458">
    <nd ref="3450923"/>
    <nd ref="3450925"/>
    <nd ref="3634975"/>
    <nd ref="3636724"/>
    <nd ref="3634973"/>
    <nd ref="3634972"/>
    <nd ref="3450927"/>
    <nd ref="3689582"/>
    <nd ref="3450928"/>
    <nd ref="3450929"/>
    <tag k="abutters" v="commercial"/>
    <tag k="created_by" v="JOSM"/>
    <tag k="highway" v="secondary"/>
    <tag k="name" v="Fairfield Street"/>
    <tag k="ref" v="B6469"/>
  </way>
  <way id="796678" version="6" timestamp="2008-12-25T02:41:26Z" uid="26515" user="Simon Ward" changeset="594458">
    <nd ref="3450923"/>
    <nd ref="3450925"/>
    <nd ref="3634975"/>
    <nd ref="3636724"/>
    <nd ref="3634973"/>
    <nd ref="3634972"/>
    <nd ref="3450927"/>
    <nd ref="3689582"/>
    <nd ref="3450928"/>
    <nd ref="3450929"/>
    <tag k="abutters" v="commercial"/>
    <tag k="created_by" v="JOSM"/>
    <tag k="highway" v="secondary"/>
    <tag k="lit" v="yes"/>
    <tag k="name" v="Fairfield Street"/>
    <tag k="ref" v="B6469"/>
  </way>
  <way id="796678" version="7" timestamp="2010-08-30T20:17:01Z" uid="47487" user="IJMacD" changeset="5639988">
    <nd ref="3450923"/>
    <nd ref="3450925"/>
    <nd ref="3634975"/>
    <nd ref="3636724"/>
    <nd ref="3634973"/>
    <nd ref="3634972"/>
    <nd ref="889327063"/>
    <nd ref="3450927"/>
    <nd ref="3689582"/>
    <nd ref="3450928"/>
    <nd ref="3450929"/>
    <tag k="abutters" v="commercial"/>
    <tag k="highway" v="secondary"/>
    <tag k="lit" v="yes"/>
    <tag k="name" v="Fairfield Street"/>
    <tag k="ref" v="B6469"/>
  </way>
  <way id="796678" version="8" timestamp="2010-08-30T23:22:30Z" uid="47487" user="IJMacD" changeset="5641431">
    <nd ref="3450923"/>
    <nd ref="889528177"/>
    <nd ref="3450925"/>
    <nd ref="3634975"/>
    <nd ref="3636724"/>
    <nd ref="3634973"/>
    <nd ref="3634972"/>
    <nd ref="889327063"/>
    <nd ref="3450927"/>
    <nd ref="3689582"/>
    <nd ref="3450928"/>
    <nd ref="3450929"/>
    <tag k="abutters" v="commercial"/>
    <tag k="highway" v="secondary"/>
    <tag k="lit" v="yes"/>
    <tag k="name" v="Fairfield Street"/>
    <tag k="ref" v="B6469"/>
  </way>
  <way id="796678" version="9" timestamp="2011-11-06T00:12:38Z" uid="549376" user="Delusion23" changeset="9751773">
    <nd ref="3450923"/>
    <nd ref="889528177"/>
    <nd ref="3450925"/>
    <nd ref="3634975"/>
    <nd ref="3636724"/>
    <nd ref="3634973"/>
    <nd ref="3634972"/>
    <nd ref="889327063"/>
    <nd ref="3450927"/>
    <nd ref="3689582"/>
    <nd ref="1492899499"/>
    <nd ref="1492899363"/>
    <nd ref="3450928"/>
    <nd ref="3450929"/>
    <tag k="abutters" v="commercial"/>
    <tag k="highway" v="secondary"/>
    <tag k="lit" v="yes"/>
    <tag k="name" v="Fairfield Street"/>
    <tag k="ref" v="B6469"/>
  </way>
  <way id="796678" version="10" timestamp="2012-03-14T08:00:18Z" uid="9065" user="brianboru" changeset="10975149">
    <nd ref="3450923"/>
    <nd ref="889528177"/>
    <nd ref="3450925"/>
    <nd ref="3634975"/>
    <nd ref="3636724"/>
    <nd ref="3634973"/>
    <nd ref="3634972"/>
    <nd ref="1674310998"/>
    <nd ref="3450927"/>
    <nd ref="3689582"/>
    <nd ref="1492899499"/>
    <nd ref="1492899363"/>
    <nd ref="3450928"/>
    <nd ref="3450929"/>
    <tag k="abutters" v="commercial"/>
    <tag k="highway" v="secondary"/>
    <tag k="lit" v="yes"/>
    <tag k="name" v="Fairfield Street"/>
    <tag k="ref" v="B6469"/>
  </way>
  <way id="796678" version="11" timestamp="2012-03-19T07:24:27Z" uid="9065" user="brianboru" changeset="11026897"/>
  <way id="796679" version="2" timestamp="2008-12-25T02:07:47Z" uid="26515" user="Simon Ward" changeset="594458">
    <nd ref="3353182"/>
    <nd ref="3353197"/>
    <nd ref="3353196"/>
    <nd ref="3353194"/>
    <nd ref="321543456"/>
    <nd ref="321543455"/>
    <tag k="abutters" v="industrial"/>
    <tag k="created_by" v="JOSM"/>
    <tag k="highway" v="service"/>
    <tag k="name" v="Baring Street"/>
  </way>
  <way id="796679" version="3" timestamp="2008-12-25T02:10:54Z" uid="26515" user="Simon Ward" changeset="594458">
    <nd ref="3353196"/>
    <nd ref="3353197"/>
    <nd ref="3353182"/>
    <tag k="abutters" v="industrial"/>
    <tag k="created_by" v="JOSM"/>
    <tag k="highway" v="service"/>
    <tag k="name" v="Baring Street"/>
    <tag k="oneway" v="yes"/>
  </way>
  <way id="796679" version="4" timestamp="2012-07-13T19:48:21Z" uid="722137" user="OSMF Redaction Account" changeset="12210455">
    <nd ref="3353182"/>
    <nd ref="3353197"/>
    <nd ref="3353196"/>
    <tag k="abutters" v="industrial"/>
    <tag k="highway" v="service"/>
    <tag k="name" v="Baring Street"/>
  </way>
</osm>
