<?xml version='1.0' encoding='UTF-8'?>
<osm version="0.6" generator="libosmium/2.20.0">
  <way id="79611084" version="2" timestamp="2011-01-24T10:25:47Z" uid="61114" user="Trav" changeset="7071370">
    <nd ref="929047772"/>
    <nd ref="111223913"/>
    <nd ref="665791078"/>
    <tag k="highway" v="residential"/>
    <tag k="maxspeed" v="50"/>
    <tag k="maxspeed:source" v="default residential speed limit in Australia"/>
    <tag k="name" v="Crichett Road"/>
    <tag k="source" v="yahoo_imagery"/>
    <tag k="source:name" v="survey"/>
  </way>
  <way id="79611939" version="3" timestamp="2011-01-10T14:35:44Z" uid="4467" user="Rosscoe" changeset="6926879">
    <nd ref="929057247"/>
    <nd ref="929057248"/>
    <tag k="highway" v="unclassified"/>
    <tag k="kref" v="dry weather only"/>
    <tag k="name" v="Harris Road"/>
  </way>
  <way id="79611939" version="4" timestamp="2011-01-10T14:42:07Z" uid="4467" user="Rosscoe" changeset="6926937">
    <nd ref="929057247"/>
    <nd ref="929057248"/>
    <tag k="dry_weather_only" v="yes"/>
    <tag k="highway" v="unclassified"/>
    <tag k="name" v="Harris Road"/>
  </way>
  <way id="79611948" version="3" timestamp="2011-01-10T14:35:43Z" uid="4467" user="Rosscoe" changeset="6926879">
    <nd ref="929057389"/>
    <nd ref="1096389563"/>
    <nd ref="929057390"/>
    <tag k="dry_weather_only" v="yes"/>
    <tag k="highway" v="unclassified"/>
    <tag k="name" v="Mitchell Road"/>
  </way>
  <way id="79611976" version="3" timestamp="2011-01-10T14:35:45Z" uid="4467" user="Rosscoe" changeset="6926879">
    <nd ref="929057541"/>
    <nd ref="1096389563"/>
    <nd ref="929057542"/>
    <nd ref="929057543"/>
    <nd ref="929057544"/>
    <tag k="dry_weather_only" v="yes"/>
    <tag k="highway" v="unclassified"/>
    <tag k="name" v="Forbes Road"/>
  </way>
  <way id="79611084" version="3" timestamp="2012-07-19T23:06:27Z" uid="722137" user="OSMF Redaction Account" changeset="12351247">
    <nd ref="929047772"/>
    <nd ref="111223913"/>
    <tag k="highway" v="residential"/>
    <tag k="maxspeed" v="50"/>
    <tag k="maxspeed:source" v="default residential speed limit in Australia"/>
    <tag k="name" v="Crichett Road"/>
    <tag k="source" v="yahoo_imagery"/>
    <tag k="source:name" v="historical"/>
  </way>
  <way id="79611084" version="4" timestamp="2012-07-29T01:59:18Z" uid="674334" user="Seamus Lee" changeset="12529837">
    <nd ref="929047772"/>
    <nd ref="111223913"/>
    <nd ref="1842132396"/>
    <tag k="highway" v="residential"/>
    <tag k="maxspeed" v="50"/>
    <tag k="maxspeed:source" v="default residential speed limit in Australia"/>
    <tag k="name" v="Crichett Road"/>
    <tag k="source" v="yahoo_imagery"/>
    <tag k="source:name" v="historical"/>
  </way>
  <way id="79611084" version="5" timestamp="2012-07-29T02:01:58Z" uid="674334" user="Seamus Lee" changeset="12529837">
    <nd ref="929047772"/>
    <nd ref="1842132698"/>
    <nd ref="111223913"/>
    <nd ref="1842132396"/>
    <tag k="highway" v="residential"/>
    <tag k="maxspeed" v="50"/>
    <tag k="maxspeed:source" v="default residential speed limit in Australia"/>
    <tag k="name" v="Crichett Road"/>
    <tag k="source" v="yahoo_imagery"/>
    <tag k="source:name" v="historical"/>
  </way>
  <way id="79611939" version="5" timestamp="2012-07-19T06:02:18Z" uid="722137" user="OSMF Redaction Account" changeset="12309878">
    <nd ref="929057247"/>
    <nd ref="929057248"/>
    <tag k="highway" v="unclassified"/>
    <tag k="name" v="Harris Road"/>
  </way>
  <way id="79611948" version="4" timestamp="2012-07-19T06:02:26Z" uid="722137" user="OSMF Redaction Account" changeset="12309880">
    <nd ref="929057389"/>
    <nd ref="929057390"/>
    <tag k="highway" v="unclassified"/>
    <tag k="name" v="Mitchell Road"/>
  </way>
  <way id="79611976" version="4" timestamp="2012-07-19T06:02:18Z" uid="722137" user="OSMF Redaction Account" changeset="12309878">
    <nd ref="929057541"/>
    <nd ref="929057542"/>
    <nd ref="929057543"/>
    <nd ref="929057544"/>
    <tag k="highway" v="unclassified"/>
    <tag k="name" v="Forbes Road"/>
  </way>
</osm>
