<?xml version='1.0' encoding='UTF-8'?>
<osm version="0.6" generator="libosmium/2.20.0">
  <way id="80178109" version="2" timestamp="2011-03-27T18:22:57Z" uid="9581" user="Lobelt" changeset="7689277">
    <nd ref="935349343"/>
    <nd ref="1222041752"/>
    <nd ref="411855990"/>
    <tag k="highway" v="track"/>
    <tag k="source" v="extrapolated"/>
    <tag k="tracktype" v="grade3"/>
  </way>
  <way id="80178133" version="2" timestamp="2011-04-30T11:41:25Z" uid="9581" user="Lobelt" changeset="8010951">
    <nd ref="726655787"/>
    <nd ref="278085679"/>
    <nd ref="273101039"/>
    <nd ref="278085950"/>
    <nd ref="272381505"/>
    <nd ref="1266978836"/>
    <nd ref="272381504"/>
    <nd ref="272381503"/>
    <nd ref="278563028"/>
    <nd ref="272381502"/>
    <nd ref="272381501"/>
    <nd ref="272381499"/>
    <nd ref="272381498"/>
    <nd ref="272381497"/>
    <nd ref="272381496"/>
    <nd ref="272381495"/>
    <nd ref="272381494"/>
    <tag k="highway" v="secondary"/>
    <tag k="maxspeed" v="DE:urban"/>
    <tag k="name" v="Wormser Landstraße"/>
    <tag k="ref" v="L 395"/>
  </way>
  <way id="80178133" version="3" timestamp="2012-03-29T20:28:05Z" uid="123364" user="Tronikon" changeset="11143836">
    <nd ref="726655787"/>
    <nd ref="278085679"/>
    <nd ref="273101039"/>
    <nd ref="278085950"/>
    <nd ref="272381505"/>
    <nd ref="1266978836"/>
    <nd ref="272381504"/>
    <nd ref="272381503"/>
    <nd ref="278563028"/>
    <nd ref="272381502"/>
    <nd ref="272381501"/>
    <nd ref="272381499"/>
    <nd ref="272381498"/>
    <nd ref="272381497"/>
    <nd ref="272381496"/>
    <nd ref="1696740452"/>
    <nd ref="272381495"/>
    <tag k="highway" v="secondary"/>
    <tag k="maxspeed" v="DE:urban"/>
    <tag k="name" v="Wormser Landstraße"/>
    <tag k="ref" v="L 395"/>
  </way>
  <way id="80178109" version="3" timestamp="2012-04-13T18:23:34Z" uid="328555" user="peb12345" changeset="11290651">
    <nd ref="935349343"/>
    <nd ref="1714891169"/>
    <nd ref="411855990"/>
    <tag k="highway" v="track"/>
    <tag k="source" v="extrapolated"/>
    <tag k="tracktype" v="grade3"/>
  </way>
  <way id="80178133" version="4" timestamp="2012-04-07T03:14:14Z" uid="328555" user="peb12345" changeset="11209022">
    <nd ref="726655787"/>
    <nd ref="278085679"/>
    <nd ref="1705334160"/>
    <nd ref="1705334159"/>
    <nd ref="1705334158"/>
    <nd ref="278563027"/>
    <nd ref="1705334157"/>
    <nd ref="1705334156"/>
    <nd ref="1696740452"/>
    <nd ref="272381495"/>
    <tag k="highway" v="secondary"/>
    <tag k="maxspeed" v="DE:urban"/>
    <tag k="name" v="Wormser Landstraße"/>
    <tag k="ref" v="L 395"/>
  </way>
  <way id="80178133" version="5" timestamp="2012-04-22T19:44:35Z" uid="478104" user="schiki" changeset="11388254">
    <nd ref="726655787"/>
    <nd ref="278085679"/>
    <nd ref="1714836498"/>
    <nd ref="1705334159"/>
    <nd ref="1705334158"/>
    <nd ref="278563027"/>
    <nd ref="1705334157"/>
    <nd ref="1705334156"/>
    <nd ref="1696740452"/>
    <nd ref="272381495"/>
    <tag k="highway" v="secondary"/>
    <tag k="maxspeed" v="DE:urban"/>
    <tag k="name" v="Wormser Landstraße"/>
    <tag k="ref" v="L 395"/>
  </way>
  <way id="80178133" version="6" timestamp="2012-04-25T16:30:18Z" uid="478104" user="schiki" changeset="11416633">
    <nd ref="726655787"/>
    <nd ref="278085679"/>
    <nd ref="1714836498"/>
    <nd ref="1705334159"/>
    <nd ref="1705334158"/>
    <nd ref="278563027"/>
    <nd ref="1705334157"/>
    <nd ref="1714836280"/>
    <nd ref="1705334156"/>
    <nd ref="1696740452"/>
    <nd ref="272381495"/>
    <tag k="highway" v="secondary"/>
    <tag k="maxspeed" v="DE:urban"/>
    <tag k="name" v="Wormser Landstraße"/>
    <tag k="ref" v="L 395"/>
  </way>
  <way id="80178133" version="7" timestamp="2012-06-10T23:26:28Z" uid="2675" user="Eckhart Wörner" changeset="11860403">
    <nd ref="726655787"/>
    <nd ref="278085679"/>
    <nd ref="1714836498"/>
    <nd ref="1705334159"/>
    <nd ref="1705334158"/>
    <nd ref="278563027"/>
    <nd ref="1705334157"/>
    <nd ref="1714836280"/>
    <nd ref="1705334156"/>
    <nd ref="1696740452"/>
    <nd ref="272381495"/>
    <tag k="highway" v="secondary"/>
    <tag k="maxspeed" v="50"/>
    <tag k="name" v="Wormser Landstraße"/>
    <tag k="ref" v="L 395"/>
    <tag k="source:maxspeed" v="DE:urban"/>
  </way>
</osm>
