<?xml version='1.0' encoding='UTF-8'?>
<osm version="0.6" generator="libosmium/2.20.0">
  <way id="80280067" version="1" timestamp="2010-10-03T18:17:24Z" uid="9581" user="Lobelt" changeset="5946928">
    <nd ref="282507261"/>
    <nd ref="57505266"/>
    <nd ref="282507262"/>
    <nd ref="282507344"/>
    <nd ref="57505275"/>
    <nd ref="282507264"/>
    <nd ref="282508163"/>
    <nd ref="57505287"/>
    <nd ref="426932267"/>
    <nd ref="282508074"/>
    <nd ref="282508164"/>
    <nd ref="57505296"/>
    <nd ref="282508165"/>
    <nd ref="426932241"/>
    <nd ref="282507349"/>
    <nd ref="57505315"/>
    <nd ref="282507350"/>
    <nd ref="57505323"/>
    <nd ref="937006935"/>
    <tag k="highway" v="secondary"/>
    <tag k="maxspeed" v="70"/>
    <tag k="ref" v="L 534"/>
    <tag k="source" v="survey"/>
  </way>
  <way id="80280067" version="2" timestamp="2012-01-07T04:13:39Z" uid="41172" user="dt2" changeset="10318199"/>
  <way id="80280069" version="1" timestamp="2010-10-03T18:17:25Z" uid="9581" user="Lobelt" changeset="5946928">
    <nd ref="282508166"/>
    <nd ref="282508167"/>
    <nd ref="57505344"/>
    <nd ref="282508168"/>
    <tag k="highway" v="secondary"/>
    <tag k="maxspeed:backward" v="100"/>
    <tag k="maxspeed:forward" v="70"/>
    <tag k="ref" v="L 534"/>
    <tag k="source" v="survey"/>
  </way>
  <way id="80280069" version="2" timestamp="2011-05-29T14:43:54Z" uid="459206" user="henni1998" changeset="8281722"/>
  <way id="80280070" version="1" timestamp="2010-10-03T18:17:25Z" uid="9581" user="Lobelt" changeset="5946928">
    <nd ref="937006932"/>
    <nd ref="57505219"/>
    <nd ref="57505227"/>
    <nd ref="282507001"/>
    <nd ref="295895883"/>
    <nd ref="426932163"/>
    <nd ref="57505234"/>
    <nd ref="282507002"/>
    <nd ref="282508072"/>
    <nd ref="426932166"/>
    <nd ref="57505240"/>
    <nd ref="282507342"/>
    <nd ref="282507060"/>
    <nd ref="282507258"/>
    <nd ref="426932279"/>
    <nd ref="282507343"/>
    <nd ref="426932172"/>
    <nd ref="323663270"/>
    <tag k="highway" v="secondary"/>
    <tag k="maxspeed" v="100"/>
    <tag k="ref" v="L 534"/>
    <tag k="source" v="survey"/>
  </way>
  <way id="80280070" version="2" timestamp="2011-06-14T16:28:23Z" uid="131968" user="changchun_1" changeset="8439112">
    <nd ref="937006932"/>
    <nd ref="1325305012"/>
    <tag k="highway" v="secondary"/>
    <tag k="maxspeed" v="70"/>
    <tag k="ref" v="L 534"/>
    <tag k="source" v="survey"/>
  </way>
  <way id="80280070" version="3" timestamp="2012-03-16T15:09:18Z" uid="136321" user="Teddy73" changeset="10998072"/>
  <way id="80280073" version="1" timestamp="2010-10-03T18:17:26Z" uid="9581" user="Lobelt" changeset="5946928">
    <nd ref="937006935"/>
    <nd ref="57505332"/>
    <nd ref="57505338"/>
    <nd ref="282508077"/>
    <nd ref="282508166"/>
    <tag k="highway" v="secondary"/>
    <tag k="maxspeed" v="100"/>
    <tag k="ref" v="L 534"/>
    <tag k="source" v="survey"/>
  </way>
  <way id="80280073" version="2" timestamp="2011-05-29T14:42:48Z" uid="459206" user="henni1998" changeset="8281722">
    <nd ref="937006935"/>
    <nd ref="57505332"/>
    <nd ref="57505338"/>
    <nd ref="282508077"/>
    <nd ref="282508166"/>
    <tag k="highway" v="secondary"/>
    <tag k="maxspeed" v="70"/>
    <tag k="ref" v="L 534"/>
    <tag k="source" v="survey"/>
  </way>
  <way id="80280073" version="3" timestamp="2011-06-11T09:25:29Z" uid="57645" user="KartoGrapHiti" changeset="8404227">
    <nd ref="937006935"/>
    <nd ref="57505332"/>
    <nd ref="57505338"/>
    <nd ref="282508077"/>
    <nd ref="282508166"/>
    <nd ref="1319851017"/>
    <nd ref="282508168"/>
    <tag k="highway" v="secondary"/>
    <tag k="maxspeed" v="70"/>
    <tag k="ref" v="L 534"/>
    <tag k="source" v="survey"/>
  </way>
  <way id="80280073" version="4" timestamp="2012-01-07T04:13:40Z" uid="41172" user="dt2" changeset="10318199"/>
  <way id="80280797" version="1" timestamp="2010-10-03T18:34:36Z" uid="33382" user="de_muur" changeset="5947131">
    <nd ref="282253782"/>
    <nd ref="282279874"/>
    <nd ref="282279875"/>
    <nd ref="282279876"/>
    <nd ref="282279878"/>
    <nd ref="282279879"/>
    <nd ref="282279880"/>
    <nd ref="282279881"/>
    <nd ref="282279882"/>
    <nd ref="282279884"/>
    <nd ref="282279896"/>
    <nd ref="282279900"/>
    <nd ref="282279901"/>
    <nd ref="282279902"/>
    <nd ref="471763892"/>
    <nd ref="282279903"/>
    <nd ref="282279905"/>
    <nd ref="282279906"/>
    <tag k="highway" v="tertiary"/>
    <tag k="maxspeed" v="50"/>
    <tag k="name" v="Alte Dorfstraße"/>
    <tag k="ref" v="K 27"/>
    <tag k="surface" v="paved"/>
  </way>
  <way id="80280797" version="2" timestamp="2010-11-05T12:35:10Z" uid="33382" user="de_muur" changeset="6294903">
    <nd ref="282253782"/>
    <nd ref="282279874"/>
    <nd ref="282279875"/>
    <nd ref="282279876"/>
    <nd ref="282279878"/>
    <nd ref="282279879"/>
    <nd ref="282279880"/>
    <nd ref="282279881"/>
    <nd ref="282279882"/>
    <nd ref="282279884"/>
    <nd ref="282279896"/>
    <tag k="highway" v="tertiary"/>
    <tag k="maxspeed" v="50"/>
    <tag k="name" v="Alte Dorfstraße"/>
    <tag k="ref" v="K 27"/>
    <tag k="surface" v="paved"/>
  </way>
  <way id="80280797" version="3" timestamp="2011-05-15T11:49:56Z" uid="33382" user="de_muur" changeset="8150785">
    <nd ref="471763915"/>
    <nd ref="471763943"/>
    <nd ref="471763944"/>
    <nd ref="282279876"/>
    <nd ref="282279878"/>
    <nd ref="282279879"/>
    <nd ref="282279880"/>
    <nd ref="282279881"/>
    <nd ref="282279882"/>
    <nd ref="282279884"/>
    <nd ref="282279896"/>
    <tag k="highway" v="tertiary"/>
    <tag k="maxspeed" v="50"/>
    <tag k="name" v="Alte Dorfstraße"/>
    <tag k="ref" v="K 27"/>
    <tag k="surface" v="paved"/>
  </way>
  <way id="80280797" version="4" timestamp="2011-05-16T05:46:19Z" uid="33382" user="de_muur" changeset="8159116">
    <nd ref="471763915"/>
    <nd ref="471763943"/>
    <nd ref="471763944"/>
    <nd ref="471763945"/>
    <nd ref="471763902"/>
    <nd ref="471763947"/>
    <nd ref="471763949"/>
    <nd ref="282279881"/>
    <nd ref="471763905"/>
    <nd ref="471763906"/>
    <nd ref="471763953"/>
    <tag k="highway" v="tertiary"/>
    <tag k="maxspeed" v="50"/>
    <tag k="name" v="Alte Dorfstraße"/>
    <tag k="ref" v="K 27"/>
    <tag k="surface" v="paved"/>
  </way>
  <way id="80280797" version="5" timestamp="2011-07-12T07:44:45Z" uid="55462" user="Lübeck" changeset="8700509">
    <nd ref="471763915"/>
    <nd ref="471763943"/>
    <nd ref="1359039372"/>
    <nd ref="471763944"/>
    <nd ref="471763945"/>
    <nd ref="1359039417"/>
    <nd ref="471763902"/>
    <nd ref="471763947"/>
    <nd ref="471763949"/>
    <nd ref="282279881"/>
    <nd ref="471763905"/>
    <nd ref="471763906"/>
    <nd ref="471763953"/>
    <tag k="highway" v="tertiary"/>
    <tag k="maxspeed" v="50"/>
    <tag k="name" v="Alte Dorfstraße"/>
    <tag k="ref" v="K 27"/>
    <tag k="surface" v="paved"/>
  </way>
  <way id="80280797" version="6" timestamp="2011-11-17T20:03:11Z" uid="555650" user="waldfrhe" changeset="9857282">
    <nd ref="471763915"/>
    <nd ref="471763943"/>
    <nd ref="1359039372"/>
    <nd ref="471763944"/>
    <nd ref="471763945"/>
    <nd ref="1359039417"/>
    <nd ref="471763902"/>
    <nd ref="471763947"/>
    <nd ref="471763949"/>
    <nd ref="282279881"/>
    <nd ref="471763905"/>
    <nd ref="471763906"/>
    <nd ref="471763953"/>
    <tag k="highway" v="tertiary"/>
    <tag k="maxspeed" v="50"/>
    <tag k="name" v="Alte Dorfstraße"/>
    <tag k="ref" v="K 27"/>
    <tag k="surface" v="asphalt"/>
  </way>
  <way id="80280797" version="7" timestamp="2012-03-14T12:02:02Z" uid="63107" user="brogo" changeset="10977002"/>
</osm>
