<?xml version='1.0' encoding='UTF-8'?>
<osm version="0.6" generator="libosmium/2.20.0">
  <way id="8077695" version="6" timestamp="2009-10-20T14:26:26Z" uid="36809" user="pfoten_weg_!_" changeset="2903434">
    <nd ref="34027898"/>
    <nd ref="60470290"/>
    <nd ref="60470291"/>
    <nd ref="201742592"/>
    <nd ref="201742897"/>
    <nd ref="34027907"/>
    <tag k="highway" v="residential"/>
    <tag k="maxspeed" v="30"/>
    <tag k="name" v="Alte Schulstraße"/>
  </way>
  <way id="8077695" version="7" timestamp="2011-03-03T21:27:07Z" uid="386324" user="kogadriver" changeset="7449878">
    <nd ref="34027898"/>
    <nd ref="60470290"/>
    <nd ref="60470291"/>
    <nd ref="201742592"/>
    <nd ref="201742897"/>
    <nd ref="34027907"/>
    <tag k="highway" v="unclassified"/>
    <tag k="maxspeed" v="30"/>
    <tag k="name" v="Alte Schulstraße"/>
  </way>
  <way id="8077695" version="8" timestamp="2012-03-18T12:50:36Z" uid="224490" user="Geo-Tobi" changeset="11018350">
    <nd ref="34027898"/>
    <nd ref="60470290"/>
    <nd ref="60470291"/>
    <nd ref="201742592"/>
    <nd ref="201742897"/>
    <nd ref="34027907"/>
    <tag k="highway" v="unclassified"/>
    <tag k="maxspeed" v="30"/>
    <tag k="name" v="Alte Schulstraße"/>
  </way>
  <way id="8077790" version="4" timestamp="2010-03-27T14:10:45Z" uid="20587" user="balrog-kun" changeset="4245371">
    <nd ref="48894318"/>
    <nd ref="60470345"/>
    <nd ref="60470356"/>
    <nd ref="49266943"/>
    <tag k="bridge" v="yes"/>
    <tag k="created_by" v="Potlatch 0.9c"/>
    <tag k="highway" v="secondary"/>
    <tag k="layer" v="1"/>
    <tag k="name" v="Clairemont Drive"/>
  </way>
  <way id="8077903" version="9" timestamp="2008-12-13T16:19:23Z" uid="58091" user="Andreas M" changeset="358771">
    <nd ref="60470475"/>
    <nd ref="60470476"/>
    <nd ref="60470477"/>
    <nd ref="60470478"/>
    <nd ref="60470475"/>
    <tag k="amenity" v="parking"/>
    <tag k="description" v="480 Stellplätze"/>
    <tag k="fee" v="no"/>
    <tag k="name" v="Park&apos;n Ride"/>
    <tag k="parking" v="park_and_ride"/>
  </way>
  <way id="8077903" version="10" timestamp="2009-02-03T11:01:45Z" uid="70696" user="xybot" changeset="109763">
    <nd ref="60470475"/>
    <nd ref="60470476"/>
    <nd ref="60470477"/>
    <nd ref="60470478"/>
    <nd ref="60470475"/>
    <tag k="amenity" v="parking"/>
    <tag k="description" v="480 Stellplätze"/>
    <tag k="fee" v="no"/>
    <tag k="name" v="Park&apos;n Ride"/>
    <tag k="parking" v="park_and_ride"/>
  </way>
  <way id="8077903" version="11" timestamp="2009-04-03T18:00:40Z" uid="110497" user="martinq" changeset="148425">
    <nd ref="60470475"/>
    <nd ref="60470476"/>
    <nd ref="369496864"/>
    <nd ref="369496868"/>
    <nd ref="60470477"/>
    <nd ref="60470478"/>
    <nd ref="60470475"/>
    <tag k="amenity" v="parking"/>
    <tag k="description" v="480 Stellplätze"/>
    <tag k="fee" v="no"/>
    <tag k="name" v="Park&apos;n Ride"/>
    <tag k="parking" v="park_and_ride"/>
  </way>
  <way id="8077903" version="12" timestamp="2009-08-21T20:58:36Z" uid="51552" user="kfg" changeset="2228666">
    <nd ref="60470475"/>
    <nd ref="60470476"/>
    <nd ref="369496864"/>
    <nd ref="369496868"/>
    <nd ref="60470477"/>
    <nd ref="60470478"/>
    <nd ref="60470475"/>
    <tag k="amenity" v="parking"/>
    <tag k="capacity" v="480"/>
    <tag k="fee" v="no"/>
    <tag k="name" v="Park&apos;n Ride"/>
    <tag k="parking" v="park_and_ride"/>
  </way>
  <way id="8077903" version="13" timestamp="2010-05-03T07:32:06Z" uid="45347" user="eriosw" changeset="4592311">
    <nd ref="60470475"/>
    <nd ref="60470476"/>
    <nd ref="369496864"/>
    <nd ref="369496868"/>
    <nd ref="60470477"/>
    <nd ref="60470478"/>
    <nd ref="60470475"/>
    <tag k="amenity" v="parking"/>
    <tag k="capacity" v="480"/>
    <tag k="fee" v="no"/>
    <tag k="name" v="Park&apos;n Ride"/>
    <tag k="park_ride" v="yes"/>
    <tag k="parking" v="park_and_ride"/>
  </way>
  <way id="8077903" version="14" timestamp="2011-09-29T19:42:18Z" uid="78656" user="Walter Schlögl" changeset="9430197">
    <nd ref="60470475"/>
    <nd ref="60470476"/>
    <nd ref="369496864"/>
    <nd ref="369496868"/>
    <nd ref="60470477"/>
    <nd ref="60470478"/>
    <nd ref="60470475"/>
    <tag k="amenity" v="parking"/>
    <tag k="capacity" v="480"/>
    <tag k="fee" v="no"/>
    <tag k="name" v="Park&apos;n Ride"/>
    <tag k="park_ride" v="train"/>
    <tag k="parking" v="surface"/>
  </way>
  <way id="8077695" version="9" timestamp="2012-05-20T16:16:03Z" uid="8748" user="ToniE" changeset="11653202">
    <nd ref="34027898"/>
    <nd ref="60470290"/>
    <nd ref="60470291"/>
    <nd ref="201742592"/>
    <nd ref="201742897"/>
    <nd ref="34027907"/>
    <tag k="highway" v="unclassified"/>
    <tag k="lit" v="yes"/>
    <tag k="maxspeed" v="30"/>
    <tag k="name" v="Alte Schulstraße"/>
    <tag k="smoothness" v="good"/>
    <tag k="surface" v="asphalt"/>
  </way>
  <way id="8077790" version="5" timestamp="2012-04-10T23:58:03Z" uid="123633" user="stevea" changeset="11259633"/>
</osm>
