<?xml version='1.0' encoding='UTF-8'?>
<osm version="0.6" generator="libosmium/2.20.0">
  <way id="80894572" version="2" timestamp="2011-03-13T15:21:48Z" uid="4467" user="Rosscoe" changeset="7546162">
    <nd ref="18802245"/>
    <nd ref="18804897"/>
    <nd ref="253120624"/>
    <nd ref="339267656"/>
    <nd ref="253268043"/>
    <nd ref="253120623"/>
    <tag k="highway" v="residential"/>
    <tag k="lcn" v="yes"/>
    <tag k="maxspeed" v="50"/>
    <tag k="name" v="Walker Street"/>
    <tag k="source" v="survey;yahoo_imagery"/>
    <tag k="source:maxspeed" v="default residential speed limit in Australia"/>
  </way>
  <way id="80894572" version="3" timestamp="2011-03-14T09:10:07Z" uid="7617" user="Franc" changeset="7554086">
    <nd ref="18802245"/>
    <nd ref="18804897"/>
    <nd ref="253120624"/>
    <nd ref="339267656"/>
    <nd ref="253268043"/>
    <nd ref="1201352924"/>
    <nd ref="253120623"/>
    <tag k="highway" v="residential"/>
    <tag k="lcn" v="yes"/>
    <tag k="maxspeed" v="50"/>
    <tag k="name" v="Walker Street"/>
    <tag k="source" v="survey;yahoo_imagery"/>
    <tag k="source:maxspeed" v="default residential speed limit in Australia"/>
  </way>
  <way id="80894577" version="2" timestamp="2011-03-13T15:22:10Z" uid="4467" user="Rosscoe" changeset="7546162">
    <nd ref="18804960"/>
    <nd ref="310182253"/>
    <nd ref="253268044"/>
    <tag k="highway" v="residential"/>
    <tag k="maxspeed" v="50"/>
    <tag k="name" v="Morehead Street"/>
    <tag k="source" v="survey;yahoo_imagery"/>
    <tag k="source:maxspeed" v="default residential speed limit in Australia"/>
  </way>
  <way id="80894587" version="2" timestamp="2011-03-13T15:21:50Z" uid="4467" user="Rosscoe" changeset="7546162">
    <nd ref="253268049"/>
    <nd ref="253455149"/>
    <nd ref="253455143"/>
    <nd ref="253468106"/>
    <nd ref="18802235"/>
    <nd ref="633211793"/>
    <nd ref="253484910"/>
    <nd ref="622832134"/>
    <tag k="highway" v="residential"/>
    <tag k="maxspeed" v="50"/>
    <tag k="name" v="Pitt Street"/>
    <tag k="source:maxspeed" v="default residential speed limit in Australia"/>
  </way>
  <way id="80894866" version="3" timestamp="2011-04-02T04:30:36Z" uid="4467" user="Rosscoe" changeset="7740975">
    <nd ref="676305515"/>
    <nd ref="676305501"/>
    <nd ref="676305499"/>
    <nd ref="939083888"/>
    <nd ref="1228824829"/>
    <nd ref="1228825254"/>
    <nd ref="1228825036"/>
    <nd ref="676305495"/>
    <nd ref="1228825040"/>
    <nd ref="1228824954"/>
    <nd ref="939083904"/>
    <nd ref="943487643"/>
    <nd ref="676305802"/>
    <tag k="attribution" v="Department of Sustainability and Environment"/>
    <tag k="highway" v="secondary"/>
    <tag k="name" v="Irrewillipe Road"/>
    <tag k="ref" v="C161"/>
    <tag k="source" v="Vicmap Lite (data.vic.gov.au)"/>
  </way>
  <way id="80894866" version="4" timestamp="2012-03-18T10:41:39Z" uid="78837" user="modellerau" changeset="11017099">
    <nd ref="676305515"/>
    <nd ref="676305501"/>
    <nd ref="1679574117"/>
    <nd ref="1679574115"/>
    <nd ref="1679574108"/>
    <nd ref="1679574088"/>
    <nd ref="676305499"/>
    <nd ref="1679574076"/>
    <nd ref="1679574075"/>
    <nd ref="1679574074"/>
    <nd ref="1679574073"/>
    <nd ref="1679574072"/>
    <nd ref="939083888"/>
    <nd ref="1228824829"/>
    <nd ref="1228825254"/>
    <nd ref="1228825036"/>
    <nd ref="676305495"/>
    <nd ref="1228825040"/>
    <nd ref="1228824954"/>
    <nd ref="939083904"/>
    <nd ref="943487643"/>
    <nd ref="676305802"/>
    <tag k="attribution" v="Department of Sustainability and Environment"/>
    <tag k="highway" v="secondary"/>
    <tag k="name" v="Irrewillipe Road"/>
    <tag k="ref" v="C161"/>
    <tag k="source" v="Vicmap Lite (data.vic.gov.au)"/>
  </way>
  <way id="80894572" version="4" timestamp="2012-07-14T20:21:54Z" uid="713671" user="auspod" changeset="12221360">
    <nd ref="1825697501"/>
    <nd ref="18804897"/>
    <nd ref="253120624"/>
    <nd ref="339267656"/>
    <nd ref="253268043"/>
    <nd ref="1201352924"/>
    <nd ref="253120623"/>
    <tag k="highway" v="residential"/>
    <tag k="lcn" v="yes"/>
    <tag k="maxspeed" v="50"/>
    <tag k="name" v="Walker Street"/>
    <tag k="source" v="survey;yahoo_imagery"/>
    <tag k="source:maxspeed" v="default residential speed limit in Australia"/>
  </way>
  <way id="80894572" version="5" timestamp="2012-07-20T00:55:11Z" uid="722137" user="OSMF Redaction Account" changeset="12353530">
    <nd ref="1825697501"/>
    <nd ref="18804897"/>
    <nd ref="253120624"/>
    <tag k="highway" v="residential"/>
    <tag k="lcn" v="yes"/>
    <tag k="maxspeed" v="50"/>
    <tag k="maxspeed:source" v="default residential speed limit in Australia"/>
    <tag k="name" v="Walker Street"/>
    <tag k="source" v="survey;yahoo_imagery"/>
  </way>
  <way id="80894572" version="6" timestamp="2012-07-24T02:33:06Z" uid="755073" user="くさいおしり" changeset="12459538">
    <nd ref="1825697501"/>
    <nd ref="253120624"/>
    <nd ref="1836086369"/>
    <tag k="highway" v="residential"/>
    <tag k="lcn" v="yes"/>
    <tag k="maxspeed" v="50"/>
    <tag k="maxspeed:source" v="default residential speed limit in Australia"/>
    <tag k="name" v="Walker Street"/>
    <tag k="source" v="survey;yahoo_imagery"/>
  </way>
  <way id="80894572" version="7" timestamp="2012-07-24T03:12:34Z" uid="755073" user="くさいおしり" changeset="12459693">
    <nd ref="1825697501"/>
    <nd ref="253120624"/>
    <nd ref="1836086369"/>
    <tag k="highway" v="residential"/>
    <tag k="lcn" v="yes"/>
    <tag k="maxspeed" v="50"/>
    <tag k="maxspeed:source" v="default residential speed limit in Australia"/>
    <tag k="name" v="Walker Street"/>
    <tag k="source" v="survey;yahoo_imagery"/>
  </way>
  <way id="80894572" version="8" timestamp="2012-07-31T16:29:49Z" uid="510836" user="Rub21" changeset="12563640">
    <nd ref="1825697501"/>
    <nd ref="1845619649"/>
    <nd ref="253120624"/>
    <nd ref="1845619602"/>
    <nd ref="1836086369"/>
    <tag k="highway" v="residential"/>
    <tag k="lcn" v="yes"/>
    <tag k="maxspeed" v="50"/>
    <tag k="maxspeed:source" v="default residential speed limit in Australia"/>
    <tag k="name" v="Walker Street"/>
    <tag k="source" v="survey;yahoo_imagery"/>
  </way>
  <way id="80894577" version="3" timestamp="2012-07-20T00:55:15Z" uid="722137" user="OSMF Redaction Account" changeset="12353530">
    <nd ref="310182253"/>
    <nd ref="253268044"/>
    <tag k="highway" v="residential"/>
    <tag k="maxspeed" v="50"/>
    <tag k="maxspeed:source" v="default residential speed limit in Australia"/>
    <tag k="name" v="Morehead Street"/>
    <tag k="source" v="survey;yahoo_imagery"/>
  </way>
  <way id="80894577" version="4" timestamp="2012-08-07T09:28:23Z" uid="755073" user="くさいおしり" changeset="12642968">
    <nd ref="253268044"/>
    <nd ref="310182253"/>
    <nd ref="1845672250"/>
    <nd ref="1845672252"/>
    <nd ref="1845672259"/>
    <nd ref="1825697549"/>
    <nd ref="1845672266"/>
    <nd ref="1845672270"/>
    <tag k="highway" v="residential"/>
    <tag k="maxspeed" v="50"/>
    <tag k="maxspeed:source" v="default residential speed limit in Australia"/>
    <tag k="name" v="Morehead Street"/>
    <tag k="source" v="survey;yahoo_imagery"/>
  </way>
  <way id="80894577" version="5" timestamp="2012-08-08T02:37:22Z" uid="717576" user="samuelrussell" changeset="12652783">
    <nd ref="253268044"/>
    <nd ref="310182253"/>
    <nd ref="1845672250"/>
    <nd ref="1845672252"/>
    <nd ref="1845672259"/>
    <nd ref="1825697549"/>
    <nd ref="1845672266"/>
    <nd ref="1813416508"/>
    <tag k="highway" v="residential"/>
    <tag k="maxspeed" v="50"/>
    <tag k="maxspeed:source" v="default residential speed limit in Australia"/>
    <tag k="name" v="Morehead Street"/>
    <tag k="source" v="survey;yahoo_imagery"/>
  </way>
  <way id="80894587" version="3" timestamp="2012-07-14T20:21:54Z" uid="713671" user="auspod" changeset="12221360">
    <nd ref="253268049"/>
    <nd ref="253455149"/>
    <nd ref="1825697519"/>
    <nd ref="253468106"/>
    <nd ref="18802235"/>
    <nd ref="633211793"/>
    <nd ref="253484910"/>
    <nd ref="1825697537"/>
    <tag k="highway" v="residential"/>
    <tag k="maxspeed" v="50"/>
    <tag k="name" v="Pitt Street"/>
    <tag k="source:maxspeed" v="default residential speed limit in Australia"/>
  </way>
  <way id="80894587" version="4" timestamp="2012-07-20T00:55:26Z" uid="722137" user="OSMF Redaction Account" changeset="12353530">
    <nd ref="253268049"/>
    <nd ref="253455149"/>
    <nd ref="1825697519"/>
    <nd ref="18802235"/>
    <nd ref="1825697537"/>
    <tag k="highway" v="residential"/>
    <tag k="maxspeed" v="50"/>
    <tag k="maxspeed:source" v="default residential speed limit in Australia"/>
    <tag k="name" v="Pitt Street"/>
  </way>
  <way id="80894587" version="5" timestamp="2012-07-22T23:07:07Z" uid="717576" user="samuelrussell" changeset="12441756">
    <nd ref="18825549"/>
    <nd ref="253268047"/>
    <nd ref="18802178"/>
    <nd ref="1834805734"/>
    <nd ref="253268049"/>
    <nd ref="253455149"/>
    <nd ref="1825697519"/>
    <nd ref="18802235"/>
    <nd ref="1825697537"/>
    <tag k="highway" v="residential"/>
    <tag k="maxspeed" v="50"/>
    <tag k="maxspeed:source" v="default residential speed limit in Australia"/>
    <tag k="name" v="Pitt Street"/>
  </way>
  <way id="80894587" version="6" timestamp="2012-07-30T10:51:42Z" uid="717576" user="samuelrussell" changeset="12546285">
    <nd ref="18825549"/>
    <nd ref="1843770394"/>
    <nd ref="253268047"/>
    <nd ref="18802178"/>
    <nd ref="1834805734"/>
    <nd ref="253268049"/>
    <nd ref="253455149"/>
    <nd ref="1825697519"/>
    <nd ref="18802235"/>
    <nd ref="1825697537"/>
    <tag k="highway" v="residential"/>
    <tag k="maxspeed" v="50"/>
    <tag k="maxspeed:source" v="default residential speed limit in Australia"/>
    <tag k="name" v="Pitt Street"/>
  </way>
  <way id="80894587" version="7" timestamp="2012-07-31T16:59:58Z" uid="510836" user="Rub21" changeset="12563984">
    <nd ref="18825549"/>
    <nd ref="1843770394"/>
    <nd ref="253268047"/>
    <nd ref="1845672244"/>
    <nd ref="18802178"/>
    <nd ref="1834805734"/>
    <nd ref="253268049"/>
    <nd ref="253455149"/>
    <nd ref="1825697519"/>
    <nd ref="18802235"/>
    <nd ref="1825697537"/>
    <tag k="highway" v="residential"/>
    <tag k="maxspeed" v="50"/>
    <tag k="maxspeed:source" v="default residential speed limit in Australia"/>
    <tag k="name" v="Pitt Street"/>
  </way>
  <way id="80894866" version="5" timestamp="2012-07-19T06:06:55Z" uid="722137" user="OSMF Redaction Account" changeset="12309971">
    <nd ref="676305515"/>
    <nd ref="676305501"/>
    <nd ref="1679574117"/>
    <nd ref="1679574115"/>
    <nd ref="1679574108"/>
    <nd ref="1679574088"/>
    <nd ref="676305499"/>
    <nd ref="1679574076"/>
    <nd ref="1679574075"/>
    <nd ref="1679574074"/>
    <nd ref="1679574073"/>
    <nd ref="1679574072"/>
    <nd ref="939083888"/>
    <nd ref="676305495"/>
    <nd ref="939083904"/>
    <nd ref="943487643"/>
    <nd ref="676305802"/>
    <tag k="attribution" v="Department of Sustainability and Environment"/>
    <tag k="highway" v="secondary"/>
    <tag k="name" v="Irrewillipe Road"/>
    <tag k="ref" v="C161"/>
    <tag k="source" v="Vicmap Lite (data.vic.gov.au)"/>
  </way>
  <way id="80894866" version="6" timestamp="2012-08-07T04:43:52Z" uid="78837" user="modellerau" changeset="12641094">
    <nd ref="676305515"/>
    <nd ref="676305501"/>
    <nd ref="1679574117"/>
    <nd ref="1679574115"/>
    <nd ref="1679574108"/>
    <nd ref="1679574088"/>
    <nd ref="676305499"/>
    <nd ref="1679574076"/>
    <nd ref="1679574075"/>
    <nd ref="1679574074"/>
    <nd ref="1679574073"/>
    <nd ref="1679574072"/>
    <nd ref="939083888"/>
    <nd ref="1855185603"/>
    <nd ref="1855185602"/>
    <nd ref="1855185601"/>
    <nd ref="1855185600"/>
    <nd ref="676305495"/>
    <nd ref="1855185596"/>
    <nd ref="1855185593"/>
    <nd ref="1855185594"/>
    <nd ref="1855185597"/>
    <nd ref="939083904"/>
    <nd ref="943487643"/>
    <nd ref="676305802"/>
    <tag k="attribution" v="Department of Sustainability and Environment"/>
    <tag k="highway" v="secondary"/>
    <tag k="name" v="Irrewillipe Road"/>
    <tag k="ref" v="C161"/>
    <tag k="source" v="Vicmap Lite (data.vic.gov.au)"/>
  </way>
  <way id="80894866" version="7" timestamp="2012-08-07T07:41:39Z" uid="78837" user="modellerau" changeset="12642083">
    <nd ref="676305515"/>
    <nd ref="1855263038"/>
    <tag k="highway" v="unclassified"/>
    <tag k="name" v="Irrewillipe Road"/>
  </way>
</osm>
