<?xml version='1.0' encoding='UTF-8'?>
<osm version="0.6" generator="libosmium/2.20.0">
  <way id="8089377" version="4" timestamp="2008-09-07T06:28:48Z" uid="58091" user="Andreas M" changeset="557625">
    <nd ref="378960"/>
    <nd ref="29049115"/>
    <nd ref="29049126"/>
    <nd ref="378959"/>
    <nd ref="378958"/>
    <nd ref="33254350"/>
    <nd ref="33254341"/>
    <nd ref="33254352"/>
    <nd ref="33254353"/>
    <nd ref="33254354"/>
    <nd ref="60733317"/>
    <nd ref="60733318"/>
    <nd ref="114206332"/>
    <nd ref="33470652"/>
    <nd ref="60210206"/>
    <nd ref="60210198"/>
    <tag k="created_by" v="Potlatch alpha"/>
    <tag k="highway" v="secondary"/>
    <tag k="name" v="Nordwestbahnstraße"/>
    <tag k="source" v="yahoo"/>
  </way>
  <way id="8089377" version="5" timestamp="2008-12-26T23:07:00Z" uid="76050" user="Wolfgang_Wasserburger" changeset="622088">
    <nd ref="378960"/>
    <nd ref="29049115"/>
    <nd ref="29049126"/>
    <nd ref="378959"/>
    <nd ref="378958"/>
    <nd ref="33254350"/>
    <nd ref="33254341"/>
    <nd ref="33254352"/>
    <nd ref="33254353"/>
    <nd ref="33254354"/>
    <nd ref="60733317"/>
    <nd ref="60733318"/>
    <nd ref="114206332"/>
    <nd ref="33470652"/>
    <tag k="created_by" v="Potlatch alpha"/>
    <tag k="highway" v="secondary"/>
    <tag k="name" v="Nordwestbahnstraße"/>
    <tag k="source" v="yahoo"/>
  </way>
  <way id="8089377" version="6" timestamp="2009-01-01T17:11:50Z" uid="58091" user="Andreas M" changeset="703113">
    <nd ref="378960"/>
    <nd ref="29049115"/>
    <nd ref="29049126"/>
    <nd ref="378959"/>
    <nd ref="378958"/>
    <nd ref="33254350"/>
    <nd ref="33254341"/>
    <nd ref="33254352"/>
    <nd ref="33254353"/>
    <nd ref="33254354"/>
    <nd ref="60733317"/>
    <nd ref="60733318"/>
    <tag k="created_by" v="Potlatch alpha"/>
    <tag k="highway" v="secondary"/>
    <tag k="name" v="Nordwestbahnstraße"/>
    <tag k="source" v="yahoo"/>
  </way>
  <way id="8089377" version="7" timestamp="2009-01-18T01:23:10Z" uid="90349" user="Isaac Thompson" changeset="808734">
    <nd ref="378960"/>
    <nd ref="29049115"/>
    <nd ref="29049126"/>
    <nd ref="378959"/>
    <nd ref="378958"/>
    <nd ref="33254350"/>
    <nd ref="33254341"/>
    <nd ref="33254352"/>
    <nd ref="33254353"/>
    <nd ref="332796042"/>
    <nd ref="33254354"/>
    <nd ref="60733317"/>
    <nd ref="60733318"/>
    <tag k="created_by" v="Potlatch 0.10f"/>
    <tag k="highway" v="secondary"/>
    <tag k="name" v="Nordwestbahnstraße"/>
    <tag k="source" v="yahoo"/>
  </way>
  <way id="8089377" version="8" timestamp="2009-01-19T22:26:47Z" uid="43577" user="dorni74" changeset="812585">
    <nd ref="378960"/>
    <nd ref="29049115"/>
    <nd ref="29049126"/>
    <tag k="created_by" v="Potlatch 0.10f"/>
    <tag k="highway" v="secondary"/>
    <tag k="name" v="Nordwestbahnstraße"/>
    <tag k="source" v="yahoo"/>
  </way>
  <way id="8089377" version="9" timestamp="2010-01-19T21:00:05Z" uid="78656" user="Walter Schlögl" changeset="3662279">
    <nd ref="378960"/>
    <nd ref="29049115"/>
    <nd ref="29049126"/>
    <tag k="highway" v="secondary"/>
    <tag k="maxspeed" v="50"/>
    <tag k="name" v="Nordwestbahnstraße"/>
    <tag k="source" v="yahoo"/>
  </way>
  <way id="8089377" version="10" timestamp="2010-05-12T21:43:18Z" uid="285891" user="Jango" changeset="4681416">
    <nd ref="378960"/>
    <nd ref="29049115"/>
    <nd ref="29049126"/>
    <tag k="cycleway" v="track"/>
    <tag k="highway" v="secondary"/>
    <tag k="lcn" v="yes"/>
    <tag k="maxspeed" v="50"/>
    <tag k="name" v="Nordwestbahnstraße"/>
    <tag k="source" v="yahoo"/>
  </way>
  <way id="8089377" version="11" timestamp="2011-08-13T06:22:01Z" uid="56501" user="Rudolf_H" changeset="9002371">
    <nd ref="378960"/>
    <nd ref="1396669711"/>
    <nd ref="29049115"/>
    <nd ref="29049126"/>
    <tag k="cycleway" v="track"/>
    <tag k="highway" v="secondary"/>
    <tag k="lcn" v="yes"/>
    <tag k="maxspeed" v="50"/>
    <tag k="name" v="Nordwestbahnstraße"/>
    <tag k="source" v="yahoo"/>
  </way>
  <way id="8089377" version="12" timestamp="2011-09-08T16:31:59Z" uid="298560" user="evod" changeset="9247173">
    <nd ref="378960"/>
    <nd ref="1396669711"/>
    <nd ref="29049115"/>
    <nd ref="29049126"/>
    <tag k="cycleway:left" v="track"/>
    <tag k="highway" v="secondary"/>
    <tag k="lcn" v="yes"/>
    <tag k="maxspeed" v="50"/>
    <tag k="name" v="Nordwestbahnstraße"/>
    <tag k="source" v="yahoo"/>
  </way>
  <way id="8089390" version="5" timestamp="2008-09-12T12:02:18Z" uid="58091" user="Andreas M" changeset="611471">
    <nd ref="33344391"/>
    <nd ref="27028192"/>
    <nd ref="27028193"/>
    <nd ref="33344350"/>
    <nd ref="33182077"/>
    <tag k="created_by" v="Potlatch 0.9c"/>
    <tag k="fixme" v="yes"/>
    <tag k="highway" v="residential"/>
    <tag k="is_in" v="Austria, Europe,Vienna,Wien"/>
    <tag k="name" v="Schwarzspanierstraße"/>
    <tag k="source" v="yahoo"/>
  </way>
  <way id="8089390" version="6" timestamp="2008-10-08T19:44:28Z" uid="18825" user="ockham" changeset="168101">
    <nd ref="33344391"/>
    <nd ref="27028192"/>
    <tag k="created_by" v="Potlatch 0.10d"/>
    <tag k="fixme" v="yes"/>
    <tag k="highway" v="residential"/>
    <tag k="is_in" v="Austria, Europe,Vienna,Wien"/>
    <tag k="name" v="Schwarzspanierstraße"/>
    <tag k="source" v="yahoo"/>
  </way>
  <way id="8089390" version="7" timestamp="2010-11-06T17:23:00Z" uid="298560" user="evod" changeset="6304313">
    <nd ref="33344391"/>
    <nd ref="27028192"/>
    <tag k="created_by" v="Potlatch 0.10d"/>
    <tag k="fixme" v="yes"/>
    <tag k="highway" v="residential"/>
    <tag k="is_in" v="Austria, Europe,Vienna,Wien"/>
    <tag k="maxspeed" v="30"/>
    <tag k="name" v="Schwarzspanierstraße"/>
    <tag k="source" v="yahoo"/>
  </way>
  <way id="8089426" version="3" timestamp="2010-07-08T17:48:27Z" uid="74617" user="JohnSmith" changeset="5167338">
    <nd ref="60594877"/>
    <nd ref="62668211"/>
    <nd ref="60594878"/>
    <nd ref="60594879"/>
    <nd ref="60594880"/>
    <nd ref="60594881"/>
    <nd ref="60594882"/>
    <nd ref="60594970"/>
    <nd ref="60594883"/>
    <tag k="highway" v="residential"/>
    <tag k="maxspeed" v="50"/>
    <tag k="maxspeed:source" v="default residential speed limit in Australia"/>
    <tag k="name" v="McMahon Street"/>
  </way>
  <way id="8089426" version="4" timestamp="2012-01-15T07:10:52Z" uid="147510" user="woodpeck_fixbot" changeset="10394821">
    <nd ref="60594877"/>
    <nd ref="62668211"/>
    <nd ref="60594878"/>
    <nd ref="60594879"/>
    <nd ref="60594880"/>
    <nd ref="60594881"/>
    <nd ref="60594882"/>
    <nd ref="60594970"/>
    <nd ref="60594883"/>
    <tag k="highway" v="residential"/>
    <tag k="name" v="McMahon Street"/>
  </way>
  <way id="8089427" version="2" timestamp="2010-07-08T17:47:21Z" uid="74617" user="JohnSmith" changeset="5167338">
    <nd ref="60594881"/>
    <nd ref="60594899"/>
    <nd ref="60594884"/>
    <nd ref="60594886"/>
    <tag k="highway" v="residential"/>
    <tag k="maxspeed" v="50"/>
    <tag k="maxspeed:source" v="default residential speed limit in Australia"/>
    <tag k="name" v="Wren Street"/>
  </way>
  <way id="8089427" version="3" timestamp="2012-01-15T07:10:54Z" uid="147510" user="woodpeck_fixbot" changeset="10394821">
    <nd ref="60594881"/>
    <nd ref="60594899"/>
    <nd ref="60594884"/>
    <nd ref="60594886"/>
    <tag k="highway" v="residential"/>
    <tag k="name" v="Wren Street"/>
  </way>
  <way id="8089428" version="3" timestamp="2010-07-08T17:49:43Z" uid="74617" user="JohnSmith" changeset="5167338">
    <nd ref="60594922"/>
    <nd ref="60594893"/>
    <nd ref="62668231"/>
    <nd ref="60594899"/>
    <tag k="highway" v="residential"/>
    <tag k="maxspeed" v="50"/>
    <tag k="maxspeed:source" v="default residential speed limit in Australia"/>
    <tag k="name" v="Argyle Street"/>
  </way>
  <way id="8089428" version="4" timestamp="2012-01-15T07:10:57Z" uid="147510" user="woodpeck_fixbot" changeset="10394821">
    <nd ref="60594922"/>
    <nd ref="60594893"/>
    <nd ref="62668231"/>
    <nd ref="60594899"/>
    <tag k="highway" v="residential"/>
    <tag k="name" v="Argyle Street"/>
  </way>
  <way id="8089429" version="2" timestamp="2010-07-08T17:48:44Z" uid="74617" user="JohnSmith" changeset="5167338">
    <nd ref="55231613"/>
    <nd ref="60594937"/>
    <nd ref="60594943"/>
    <nd ref="60594948"/>
    <nd ref="60594954"/>
    <nd ref="60594959"/>
    <nd ref="60594965"/>
    <nd ref="60594970"/>
    <tag k="highway" v="residential"/>
    <tag k="maxspeed" v="50"/>
    <tag k="maxspeed:source" v="default residential speed limit in Australia"/>
    <tag k="name" v="Argyle Street"/>
  </way>
  <way id="8089429" version="3" timestamp="2012-01-15T07:11:02Z" uid="147510" user="woodpeck_fixbot" changeset="10394821">
    <nd ref="55231613"/>
    <nd ref="60594937"/>
    <nd ref="60594943"/>
    <nd ref="60594948"/>
    <nd ref="60594954"/>
    <nd ref="60594959"/>
    <nd ref="60594965"/>
    <nd ref="60594970"/>
    <tag k="highway" v="residential"/>
    <tag k="name" v="Argyle Street"/>
  </way>
  <way id="8089430" version="3" timestamp="2010-07-08T17:47:37Z" uid="74617" user="JohnSmith" changeset="5167338">
    <nd ref="60594975"/>
    <nd ref="60594985"/>
    <nd ref="60594992"/>
    <nd ref="60595000"/>
    <nd ref="60595005"/>
    <nd ref="60595010"/>
    <nd ref="60595016"/>
    <nd ref="60595023"/>
    <nd ref="60595030"/>
    <nd ref="60595035"/>
    <nd ref="60594916"/>
    <nd ref="60595040"/>
    <tag k="highway" v="residential"/>
    <tag k="maxspeed" v="50"/>
    <tag k="maxspeed:source" v="default residential speed limit in Australia"/>
    <tag k="name" v="Head Street"/>
  </way>
  <way id="8089430" version="4" timestamp="2012-01-15T07:11:04Z" uid="147510" user="woodpeck_fixbot" changeset="10394821">
    <nd ref="60594975"/>
    <nd ref="60594985"/>
    <nd ref="60594992"/>
    <nd ref="60595000"/>
    <nd ref="60595005"/>
    <nd ref="60595010"/>
    <nd ref="60595016"/>
    <nd ref="60595023"/>
    <nd ref="60595030"/>
    <nd ref="60595035"/>
    <nd ref="60594916"/>
    <nd ref="60595040"/>
    <tag k="highway" v="residential"/>
    <tag k="name" v="Head Street"/>
  </way>
  <way id="8089431" version="2" timestamp="2010-07-08T17:46:39Z" uid="74617" user="JohnSmith" changeset="5167338">
    <nd ref="60595046"/>
    <nd ref="60595051"/>
    <nd ref="60594932"/>
    <nd ref="60594927"/>
    <tag k="highway" v="residential"/>
    <tag k="maxspeed" v="50"/>
    <tag k="maxspeed:source" v="default residential speed limit in Australia"/>
    <tag k="name" v="Argyle Street"/>
  </way>
  <way id="8089431" version="3" timestamp="2012-01-15T07:11:07Z" uid="147510" user="woodpeck_fixbot" changeset="10394821">
    <nd ref="60595046"/>
    <nd ref="60595051"/>
    <nd ref="60594932"/>
    <nd ref="60594927"/>
    <tag k="highway" v="residential"/>
    <tag k="name" v="Argyle Street"/>
  </way>
  <way id="8089472" version="2" timestamp="2008-12-20T11:00:35Z" uid="58091" user="Andreas M" changeset="504586">
    <nd ref="60059989"/>
    <nd ref="60595399"/>
    <tag k="created_by" v="Potlatch alpha"/>
    <tag k="highway" v="residential"/>
    <tag k="name" v="Robert-Blum-Gasse"/>
    <tag k="oneway" v="yes"/>
    <tag k="source" v="yahoo"/>
  </way>
  <way id="8089472" version="3" timestamp="2009-01-26T08:18:27Z" uid="54806" user="_al" changeset="838745">
    <nd ref="60059989"/>
    <nd ref="60595399"/>
    <tag k="created_by" v="Potlatch 0.10f"/>
    <tag k="highway" v="residential"/>
    <tag k="name" v="Robert-Blum-Gasse"/>
    <tag k="oneway" v="yes"/>
    <tag k="source" v="yahoo"/>
  </way>
  <way id="8089472" version="4" timestamp="2009-01-26T08:18:50Z" uid="54806" user="_al" changeset="838745">
    <nd ref="60059989"/>
    <nd ref="60595399"/>
    <tag k="created_by" v="Potlatch 0.10f"/>
    <tag k="highway" v="residential"/>
    <tag k="name" v="Robert-Blum-Gasse"/>
    <tag k="oneway" v="yes"/>
    <tag k="source" v="yahoo"/>
  </way>
  <way id="8089472" version="5" timestamp="2011-08-12T23:18:13Z" uid="56501" user="Rudolf_H" changeset="9000932">
    <nd ref="60059989"/>
    <nd ref="1396560220"/>
    <nd ref="60595399"/>
    <tag k="highway" v="residential"/>
    <tag k="name" v="Robert-Blum-Gasse"/>
    <tag k="oneway" v="yes"/>
    <tag k="source" v="yahoo"/>
  </way>
  <way id="8089507" version="2" timestamp="2008-12-20T11:00:34Z" uid="58091" user="Andreas M" changeset="504586">
    <nd ref="60596332"/>
    <nd ref="60596331"/>
    <tag k="created_by" v="Potlatch alpha"/>
    <tag k="highway" v="residential"/>
    <tag k="name" v="Robert-Blum-Gasse"/>
    <tag k="source" v="yahoo"/>
  </way>
  <way id="8089507" version="3" timestamp="2009-01-18T13:10:40Z" uid="58091" user="Andreas M" changeset="804850">
    <nd ref="333077168"/>
    <nd ref="60596331"/>
    <tag k="created_by" v="Potlatch alpha"/>
    <tag k="highway" v="residential"/>
    <tag k="layer" v="-1"/>
    <tag k="name" v="Robert-Blum-Gasse"/>
    <tag k="source" v="yahoo"/>
  </way>
  <way id="8089507" version="4" timestamp="2009-01-26T08:40:28Z" uid="54806" user="_al" changeset="838745">
    <nd ref="333077168"/>
    <nd ref="60596331"/>
    <tag k="created_by" v="Potlatch 0.10f"/>
    <tag k="highway" v="residential"/>
    <tag k="layer" v="-1"/>
    <tag k="name" v="Robert-Blum-Gasse"/>
    <tag k="source" v="yahoo"/>
  </way>
  <way id="8089507" version="5" timestamp="2009-01-26T08:41:30Z" uid="54806" user="_al" changeset="838745">
    <nd ref="333077168"/>
    <nd ref="60596331"/>
    <tag k="created_by" v="Potlatch 0.10f"/>
    <tag k="highway" v="residential"/>
    <tag k="name" v="Robert-Blum-Gasse"/>
    <tag k="source" v="yahoo"/>
  </way>
  <way id="8089507" version="6" timestamp="2009-01-26T08:41:59Z" uid="54806" user="_al" changeset="838745">
    <nd ref="333077168"/>
    <nd ref="60596331"/>
    <tag k="created_by" v="Potlatch 0.10f"/>
    <tag k="highway" v="residential"/>
    <tag k="name" v="Robert-Blum-Gasse"/>
    <tag k="source" v="yahoo"/>
  </way>
  <way id="8089507" version="7" timestamp="2012-03-29T20:34:21Z" uid="99800" user="wolfbert" changeset="11144149"/>
  <way id="8089517" version="2" timestamp="2008-12-20T11:00:34Z" uid="58091" user="Andreas M" changeset="504586">
    <nd ref="60595878"/>
    <nd ref="60596386"/>
    <nd ref="320135830"/>
    <nd ref="60596387"/>
    <tag k="created_by" v="Potlatch alpha"/>
    <tag k="highway" v="residential"/>
    <tag k="name" v="Griegstraße"/>
    <tag k="source" v="yahoo"/>
  </way>
  <way id="8089517" version="3" timestamp="2009-01-19T22:00:25Z" uid="43577" user="dorni74" changeset="812585">
    <nd ref="60595878"/>
    <nd ref="333772901"/>
    <nd ref="60596386"/>
    <nd ref="320135830"/>
    <nd ref="60596387"/>
    <tag k="created_by" v="Potlatch 0.10f"/>
    <tag k="highway" v="residential"/>
    <tag k="name" v="Griegstraße"/>
    <tag k="source" v="yahoo"/>
  </way>
  <way id="8089517" version="4" timestamp="2009-01-19T22:01:38Z" uid="43577" user="dorni74" changeset="812585">
    <nd ref="60595878"/>
    <nd ref="333772901"/>
    <tag k="created_by" v="Potlatch 0.10f"/>
    <tag k="highway" v="residential"/>
    <tag k="name" v="Griegstraße"/>
    <tag k="source" v="yahoo"/>
  </way>
  <way id="8089517" version="5" timestamp="2009-01-26T08:25:24Z" uid="54806" user="_al" changeset="838745">
    <nd ref="60595878"/>
    <nd ref="333772901"/>
    <tag k="created_by" v="Potlatch 0.10f"/>
    <tag k="highway" v="residential"/>
    <tag k="name" v="Griegstraße"/>
    <tag k="source" v="yahoo"/>
  </way>
  <way id="8089517" version="6" timestamp="2009-01-26T08:27:49Z" uid="54806" user="_al" changeset="838745">
    <nd ref="60595878"/>
    <nd ref="333772901"/>
    <tag k="created_by" v="Potlatch 0.10f"/>
    <tag k="highway" v="residential"/>
    <tag k="name" v="Griegstraße"/>
    <tag k="source" v="yahoo"/>
  </way>
  <way id="8089517" version="7" timestamp="2009-01-26T08:30:23Z" uid="54806" user="_al" changeset="838745">
    <nd ref="60595878"/>
    <nd ref="333772901"/>
    <tag k="created_by" v="Potlatch 0.10f"/>
    <tag k="highway" v="residential"/>
    <tag k="name" v="Griegstraße"/>
    <tag k="source" v="yahoo"/>
  </way>
  <way id="8089517" version="8" timestamp="2009-01-26T08:30:30Z" uid="54806" user="_al" changeset="838745">
    <nd ref="60595878"/>
    <nd ref="333772901"/>
    <tag k="created_by" v="Potlatch 0.10f"/>
    <tag k="highway" v="residential"/>
  </way>
  <way id="8089517" version="9" timestamp="2009-01-26T08:30:54Z" uid="54806" user="_al" changeset="838745">
    <nd ref="60595878"/>
    <nd ref="333772901"/>
    <nd ref="337215272"/>
    <nd ref="332578207"/>
    <nd ref="332578208"/>
    <tag k="created_by" v="Potlatch 0.10f"/>
    <tag k="highway" v="residential"/>
  </way>
  <way id="8089517" version="10" timestamp="2009-01-26T08:33:27Z" uid="54806" user="_al" changeset="838745">
    <nd ref="60595878"/>
    <nd ref="333772901"/>
    <nd ref="337215272"/>
    <nd ref="332578207"/>
    <nd ref="332578208"/>
    <tag k="created_by" v="Potlatch 0.10f"/>
    <tag k="highway" v="residential"/>
  </way>
  <way id="8089517" version="11" timestamp="2009-02-16T10:32:38Z" uid="43577" user="dorni74" changeset="490903">
    <nd ref="332578208"/>
    <nd ref="332578207"/>
    <nd ref="337215272"/>
    <nd ref="333772901"/>
    <nd ref="60595878"/>
    <tag k="created_by" v="Potlatch 0.10f"/>
    <tag k="highway" v="residential"/>
  </way>
  <way id="8089517" version="12" timestamp="2011-08-12T23:06:35Z" uid="56501" user="Rudolf_H" changeset="9000868">
    <nd ref="332578208"/>
    <nd ref="332578207"/>
    <nd ref="337215272"/>
    <nd ref="1396551112"/>
    <nd ref="333772901"/>
    <nd ref="60595878"/>
    <tag k="highway" v="residential"/>
    <tag k="name" v="Griegstraße"/>
  </way>
  <way id="8089517" version="13" timestamp="2011-08-12T23:18:12Z" uid="56501" user="Rudolf_H" changeset="9000932">
    <nd ref="332578208"/>
    <nd ref="1396560241"/>
    <nd ref="332578207"/>
    <nd ref="1396560247"/>
    <nd ref="337215272"/>
    <nd ref="1396551112"/>
    <nd ref="333772901"/>
    <nd ref="1396560249"/>
    <nd ref="60595878"/>
    <tag k="highway" v="residential"/>
    <tag k="name" v="Griegstraße"/>
  </way>
  <way id="8089517" version="14" timestamp="2011-08-12T23:57:33Z" uid="56501" user="Rudolf_H" changeset="9001149">
    <nd ref="332578208"/>
    <nd ref="1396560241"/>
    <nd ref="332578207"/>
    <nd ref="1396560247"/>
    <nd ref="337215272"/>
    <nd ref="1396551112"/>
    <nd ref="333772901"/>
    <nd ref="1396560249"/>
    <tag k="highway" v="residential"/>
    <tag k="name" v="Griegstraße"/>
  </way>
  <way id="8089524" version="4" timestamp="2008-12-20T11:00:35Z" uid="58091" user="Andreas M" changeset="504586">
    <nd ref="69706580"/>
    <nd ref="60595879"/>
    <tag k="created_by" v="Potlatch 0.6a"/>
    <tag k="highway" v="residential"/>
    <tag k="name" v="Griegstraße"/>
    <tag k="oneway" v="yes"/>
    <tag k="source" v="yahoo"/>
  </way>
  <way id="8089636" version="4" timestamp="2009-01-01T13:56:51Z" uid="6975" user="ulfl" changeset="699648">
    <nd ref="60587589"/>
    <nd ref="60598817"/>
    <nd ref="60598823"/>
    <nd ref="60598827"/>
    <nd ref="60598826"/>
    <nd ref="60598824"/>
    <nd ref="60598825"/>
    <tag k="highway" v="residential"/>
    <tag k="name" v="Republikplatz"/>
    <tag k="source" v="image"/>
  </way>
  <way id="8089636" version="5" timestamp="2009-01-01T21:00:05Z" changeset="699776">
    <nd ref="60587589"/>
    <nd ref="60598817"/>
    <nd ref="60598823"/>
    <nd ref="60598827"/>
    <nd ref="60598826"/>
    <nd ref="60598824"/>
    <nd ref="60598825"/>
    <tag k="highway" v="residential"/>
    <tag k="name" v="Republikplatz"/>
    <tag k="source" v="image"/>
  </way>
  <way id="8089636" version="6" timestamp="2009-10-29T10:55:38Z" uid="15686" user="Dimitri_Junker" changeset="2980062">
    <nd ref="60587589"/>
    <nd ref="60598817"/>
    <nd ref="60598823"/>
    <nd ref="60598827"/>
    <nd ref="60598826"/>
    <nd ref="60598824"/>
    <nd ref="321294121"/>
    <tag k="highway" v="residential"/>
    <tag k="name" v="Republikplatz"/>
    <tag k="source" v="image"/>
  </way>
  <way id="8089636" version="7" timestamp="2012-01-03T16:45:31Z" uid="67862" user="HolgerJeromin" changeset="10282986">
    <nd ref="60587589"/>
    <nd ref="60598817"/>
    <nd ref="60598823"/>
    <nd ref="60598827"/>
    <nd ref="60598826"/>
    <nd ref="60598824"/>
    <nd ref="321294121"/>
    <tag k="highway" v="residential"/>
    <tag k="name" v="Republikplatz"/>
    <tag k="odbl" v="clean"/>
    <tag k="source" v="image"/>
  </way>
  <way id="8089636" version="8" timestamp="2012-01-19T10:39:28Z" uid="25504" user="Head" changeset="10435758">
    <nd ref="60587589"/>
    <nd ref="60598817"/>
    <nd ref="60598823"/>
    <nd ref="60598827"/>
    <nd ref="60598826"/>
    <nd ref="60598824"/>
    <nd ref="321294121"/>
    <tag k="highway" v="residential"/>
    <tag k="name" v="Republikplatz"/>
    <tag k="note" v="Beschilderung: nur bahnbezogener Verkehr frei."/>
    <tag k="odbl" v="clean"/>
    <tag k="source" v="image"/>
    <tag k="vehicle" v="destination"/>
  </way>
  <way id="8089636" version="9" timestamp="2012-03-28T10:46:32Z" uid="67862" user="HolgerJeromin" changeset="11125602">
    <nd ref="60587589"/>
    <nd ref="60598817"/>
    <nd ref="60598823"/>
    <nd ref="60598827"/>
    <nd ref="60598826"/>
    <nd ref="60598824"/>
    <nd ref="321294121"/>
    <tag k="highway" v="residential"/>
    <tag k="lit" v="yes"/>
    <tag k="name" v="Republikplatz"/>
    <tag k="note" v="Beschilderung: nur bahnbezogener Verkehr frei."/>
    <tag k="odbl" v="clean"/>
    <tag k="source" v="image"/>
    <tag k="vehicle" v="destination"/>
  </way>
  <way id="8089390" version="8" timestamp="2012-07-17T18:33:39Z" uid="298560" user="evod" changeset="12270302">
    <nd ref="33344391"/>
    <nd ref="27028192"/>
    <tag k="fixme" v="yes"/>
    <tag k="highway" v="residential"/>
    <tag k="is_in" v="Austria, Europe,Vienna,Wien"/>
    <tag k="maxspeed" v="30"/>
    <tag k="name" v="Schwarzspanierstraße"/>
    <tag k="source" v="wien.gv.at"/>
  </way>
  <way id="8089428" version="5" timestamp="2012-06-17T12:39:01Z" uid="637652" user="steve91" changeset="11925201">
    <nd ref="60594922"/>
    <nd ref="60594893"/>
    <nd ref="1791583256"/>
    <nd ref="62668231"/>
    <nd ref="60594899"/>
    <tag k="highway" v="residential"/>
    <tag k="name" v="Argyle Street"/>
  </way>
  <way id="8089472" version="6" timestamp="2012-04-04T14:15:18Z" uid="99800" user="wolfbert" changeset="11177228"/>
  <way id="8089517" version="15" timestamp="2012-04-04T14:15:18Z" uid="99800" user="wolfbert" changeset="11177228"/>
  <way id="8089524" version="5" timestamp="2012-04-04T14:15:18Z" uid="99800" user="wolfbert" changeset="11177228"/>
</osm>
