<?xml version='1.0' encoding='UTF-8'?>
<osm version="0.6" generator="libosmium/2.20.0">
  <way id="81131277" version="2" timestamp="2011-01-06T00:53:24Z" uid="4467" user="Rosscoe" changeset="6878138">
    <nd ref="945445423"/>
    <nd ref="1084655894"/>
    <tag k="highway" v="tertiary"/>
    <tag k="name" v="Eyre Street"/>
  </way>
  <way id="81131286" version="2" timestamp="2011-02-07T11:59:40Z" uid="4467" user="Rosscoe" changeset="7215161">
    <nd ref="945445405"/>
    <nd ref="363998598"/>
    <nd ref="1140747348"/>
    <nd ref="363998599"/>
    <tag k="highway" v="trunk"/>
    <tag k="name" v="Skipton Street"/>
    <tag k="source" v="survey"/>
  </way>
  <way id="81131304" version="4" timestamp="2011-02-07T09:22:39Z" uid="4467" user="Rosscoe" changeset="7213935">
    <nd ref="945445429"/>
    <nd ref="945445457"/>
    <nd ref="363996749"/>
    <nd ref="363996750"/>
    <nd ref="946575739"/>
    <nd ref="363996753"/>
    <nd ref="363996754"/>
    <nd ref="727333649"/>
    <nd ref="727333748"/>
    <nd ref="727333910"/>
    <nd ref="727334003"/>
    <nd ref="363996758"/>
    <tag k="cycleway" v="lane"/>
    <tag k="highway" v="tertiary"/>
    <tag k="name" v="Russell Street"/>
  </way>
  <way id="81131304" version="5" timestamp="2011-08-17T18:17:25Z" uid="379724" user="bugman" changeset="9050167"/>
  <way id="81131277" version="3" timestamp="2012-07-19T08:18:24Z" uid="722137" user="OSMF Redaction Account" changeset="12313555"/>
  <way id="81131286" version="3" timestamp="2012-06-18T14:11:31Z" uid="67896" user="mrpulley" changeset="11937356">
    <nd ref="945445405"/>
    <nd ref="363998598"/>
    <nd ref="1140747348"/>
    <nd ref="363998599"/>
    <tag k="highway" v="trunk"/>
    <tag k="name" v="Skipton Street"/>
    <tag k="ref" v="A300"/>
    <tag k="source" v="survey"/>
  </way>
  <way id="81131286" version="4" timestamp="2012-07-19T08:13:54Z" uid="722137" user="OSMF Redaction Account" changeset="12313370">
    <nd ref="945445405"/>
    <nd ref="363998598"/>
    <nd ref="363998599"/>
    <tag k="highway" v="trunk"/>
    <tag k="name" v="Skipton Street"/>
    <tag k="ref" v="A300"/>
    <tag k="source" v="survey"/>
  </way>
</osm>
