<?xml version='1.0' encoding='UTF-8'?>
<osm version="0.6" generator="libosmium/2.20.0">
  <way id="81135436" version="3" timestamp="2011-02-07T11:14:17Z" uid="4467" user="Rosscoe" changeset="7214726">
    <nd ref="945492262"/>
    <nd ref="945478390"/>
    <nd ref="477076649"/>
    <nd ref="945478396"/>
    <nd ref="945478402"/>
    <nd ref="945478377"/>
    <nd ref="945478386"/>
    <nd ref="477076546"/>
    <nd ref="945478366"/>
    <nd ref="945478399"/>
    <nd ref="477076661"/>
    <nd ref="477076673"/>
    <nd ref="477076676"/>
    <nd ref="356611783"/>
    <nd ref="477076534"/>
    <nd ref="356611792"/>
    <nd ref="477076527"/>
    <nd ref="477076523"/>
    <nd ref="477076515"/>
    <nd ref="477076513"/>
    <nd ref="477076508"/>
    <nd ref="477076501"/>
    <nd ref="946576489"/>
    <nd ref="477076497"/>
    <nd ref="477076494"/>
    <nd ref="477076485"/>
    <tag k="highway" v="residential"/>
    <tag k="maxspeed" v="60"/>
    <tag k="name" v="Humffray Street South"/>
    <tag k="source" v="survey"/>
    <tag k="source:maxspeed" v="sign"/>
  </way>
  <way id="81135436" version="4" timestamp="2011-02-07T11:59:55Z" uid="4467" user="Rosscoe" changeset="7215161">
    <nd ref="945492262"/>
    <nd ref="945478390"/>
    <nd ref="477076649"/>
    <nd ref="945478396"/>
    <nd ref="945478402"/>
    <nd ref="945478377"/>
    <nd ref="945478386"/>
    <nd ref="477076546"/>
    <nd ref="945478366"/>
    <nd ref="945478399"/>
    <nd ref="477076661"/>
    <nd ref="477076673"/>
    <nd ref="477076676"/>
    <nd ref="356611783"/>
    <nd ref="477076534"/>
    <nd ref="356611792"/>
    <nd ref="477076527"/>
    <nd ref="477076523"/>
    <nd ref="477076515"/>
    <nd ref="477076513"/>
    <nd ref="477076508"/>
    <nd ref="477076501"/>
    <nd ref="946576489"/>
    <nd ref="477076497"/>
    <nd ref="1140747245"/>
    <nd ref="477076494"/>
    <nd ref="477076485"/>
    <tag k="highway" v="residential"/>
    <tag k="maxspeed" v="60"/>
    <tag k="name" v="Humffray Street South"/>
    <tag k="source" v="survey"/>
    <tag k="source:maxspeed" v="sign"/>
  </way>
  <way id="81135436" version="5" timestamp="2011-08-17T17:30:59Z" uid="379724" user="bugman" changeset="9049947">
    <nd ref="945492262"/>
    <nd ref="945478390"/>
    <nd ref="477076649"/>
    <nd ref="945478396"/>
    <nd ref="945478402"/>
    <nd ref="945478377"/>
    <nd ref="1402542706"/>
    <nd ref="945478386"/>
    <nd ref="477076546"/>
    <nd ref="945478366"/>
    <nd ref="945478399"/>
    <nd ref="477076661"/>
    <nd ref="477076673"/>
    <nd ref="1402542638"/>
    <nd ref="477076676"/>
    <nd ref="356611783"/>
    <nd ref="477076534"/>
    <nd ref="356611792"/>
    <nd ref="477076527"/>
    <nd ref="477076523"/>
    <nd ref="477076515"/>
    <nd ref="477076513"/>
    <nd ref="477076508"/>
    <nd ref="477076501"/>
    <nd ref="946576489"/>
    <nd ref="477076497"/>
    <nd ref="1140747245"/>
    <nd ref="477076494"/>
    <nd ref="477076485"/>
    <tag k="highway" v="residential"/>
    <tag k="maxspeed" v="60"/>
    <tag k="name" v="Humffray Street South"/>
    <tag k="source" v="survey"/>
    <tag k="source:maxspeed" v="sign"/>
  </way>
  <way id="81135436" version="6" timestamp="2012-02-03T16:06:12Z" uid="379724" user="bugman" changeset="10576699">
    <nd ref="945492262"/>
    <nd ref="1616781198"/>
    <nd ref="945478390"/>
    <nd ref="477076649"/>
    <nd ref="945478396"/>
    <nd ref="945478402"/>
    <nd ref="945478377"/>
    <nd ref="1402542706"/>
    <nd ref="945478386"/>
    <nd ref="477076546"/>
    <tag k="highway" v="residential"/>
    <tag k="maxspeed" v="60"/>
    <tag k="name" v="Humffray Street South"/>
    <tag k="source" v="survey"/>
    <tag k="source:maxspeed" v="sign"/>
  </way>
  <way id="81135436" version="7" timestamp="2012-02-12T11:58:17Z" uid="206929" user="Supt_of_Printing" changeset="10662085">
    <nd ref="945492262"/>
    <nd ref="1616781198"/>
    <nd ref="945478390"/>
    <nd ref="477076649"/>
    <nd ref="945478396"/>
    <nd ref="945478402"/>
    <nd ref="945478377"/>
    <nd ref="1402542706"/>
    <nd ref="1629625075"/>
    <nd ref="945478386"/>
    <nd ref="477076546"/>
    <tag k="highway" v="residential"/>
    <tag k="maxspeed" v="60"/>
    <tag k="name" v="Humffray Street South"/>
    <tag k="source" v="survey"/>
    <tag k="source:maxspeed" v="sign"/>
  </way>
  <way id="81135437" version="2" timestamp="2011-02-07T08:21:07Z" uid="4467" user="Rosscoe" changeset="7213360">
    <nd ref="945492250"/>
    <nd ref="1140474698"/>
    <tag k="highway" v="secondary"/>
    <tag k="name" v="Wiltshire Lane"/>
    <tag k="ref" v="C307"/>
  </way>
  <way id="81135438" version="2" timestamp="2011-02-07T08:21:16Z" uid="4467" user="Rosscoe" changeset="7213360">
    <nd ref="1140475424"/>
    <nd ref="1140474849"/>
    <nd ref="945492252"/>
    <tag k="highway" v="secondary"/>
    <tag k="name" v="Wiltshire Lane"/>
    <tag k="oneway" v="yes"/>
    <tag k="ref" v="C307"/>
    <tag k="source" v="nearmap"/>
  </way>
  <way id="81135439" version="2" timestamp="2011-02-07T11:15:27Z" uid="4467" user="Rosscoe" changeset="7214726">
    <nd ref="945492269"/>
    <nd ref="477076747"/>
    <nd ref="477076756"/>
    <nd ref="945492265"/>
    <nd ref="945492255"/>
    <nd ref="477076760"/>
    <nd ref="945492259"/>
    <nd ref="477076762"/>
    <nd ref="477076763"/>
    <nd ref="945492251"/>
    <nd ref="477076764"/>
    <nd ref="477076765"/>
    <nd ref="945492249"/>
    <tag k="cycleway" v="lane"/>
    <tag k="highway" v="residential"/>
    <tag k="maxspeed" v="50;60"/>
    <tag k="name" v="Elsworth Street West"/>
    <tag k="oneway" v="yes"/>
    <tag k="source:maxspeed" v="default residential speed limit in Australia;sign"/>
  </way>
  <way id="81135439" version="3" timestamp="2011-08-17T17:31:00Z" uid="379724" user="bugman" changeset="9049947">
    <nd ref="945492269"/>
    <nd ref="477076747"/>
    <nd ref="477076756"/>
    <nd ref="1402542694"/>
    <nd ref="945492265"/>
    <nd ref="945492255"/>
    <nd ref="477076760"/>
    <nd ref="945492259"/>
    <nd ref="477076762"/>
    <nd ref="477076763"/>
    <nd ref="945492251"/>
    <nd ref="477076764"/>
    <nd ref="477076765"/>
    <nd ref="945492249"/>
    <tag k="cycleway" v="lane"/>
    <tag k="highway" v="residential"/>
    <tag k="maxspeed" v="50;60"/>
    <tag k="name" v="Elsworth Street West"/>
    <tag k="oneway" v="yes"/>
    <tag k="source:maxspeed" v="default residential speed limit in Australia;sign"/>
  </way>
  <way id="81135439" version="4" timestamp="2012-02-03T16:06:11Z" uid="379724" user="bugman" changeset="10576699">
    <nd ref="945492269"/>
    <nd ref="1616781202"/>
    <nd ref="1402542694"/>
    <nd ref="945492265"/>
    <nd ref="945492255"/>
    <nd ref="477076760"/>
    <nd ref="945492259"/>
    <nd ref="477076762"/>
    <nd ref="477076763"/>
    <nd ref="945492251"/>
    <nd ref="477076764"/>
    <nd ref="477076765"/>
    <nd ref="945492249"/>
    <tag k="cycleway" v="lane"/>
    <tag k="highway" v="residential"/>
    <tag k="maxspeed" v="50;60"/>
    <tag k="name" v="Elsworth Street West"/>
    <tag k="oneway" v="yes"/>
    <tag k="source:maxspeed" v="default residential speed limit in Australia;sign"/>
  </way>
  <way id="81135439" version="5" timestamp="2012-02-03T16:09:33Z" uid="379724" user="bugman" changeset="10576738">
    <nd ref="945492269"/>
    <nd ref="1616781202"/>
    <tag k="cycleway" v="lane"/>
    <tag k="highway" v="residential"/>
    <tag k="maxspeed" v="50;60"/>
    <tag k="name" v="Elsworth Street West"/>
    <tag k="oneway" v="yes"/>
    <tag k="source:maxspeed" v="default residential speed limit in Australia;sign"/>
  </way>
  <way id="81135441" version="2" timestamp="2011-02-07T08:21:10Z" uid="4467" user="Rosscoe" changeset="7213360">
    <nd ref="945492252"/>
    <nd ref="1140474941"/>
    <nd ref="1140475116"/>
    <nd ref="1140474622"/>
    <nd ref="945492254"/>
    <tag k="cycleway" v="lane"/>
    <tag k="highway" v="secondary"/>
    <tag k="name" v="Wiltshire Lane"/>
  </way>
  <way id="81135442" version="3" timestamp="2011-02-07T11:14:15Z" uid="4467" user="Rosscoe" changeset="7214726">
    <nd ref="945492249"/>
    <nd ref="477076769"/>
    <nd ref="436208101"/>
    <nd ref="436208104"/>
    <nd ref="945494003"/>
    <nd ref="945494014"/>
    <nd ref="436208105"/>
    <nd ref="945494028"/>
    <nd ref="945494025"/>
    <tag k="cycleway" v="lane"/>
    <tag k="highway" v="residential"/>
    <tag k="maxspeed" v="50;60"/>
    <tag k="name" v="Elsworth Street West"/>
    <tag k="source:maxspeed" v="default residential speed limit in Australia;sign"/>
  </way>
  <way id="81135442" version="4" timestamp="2011-02-07T11:59:54Z" uid="4467" user="Rosscoe" changeset="7215161">
    <nd ref="945492249"/>
    <nd ref="477076769"/>
    <nd ref="436208101"/>
    <nd ref="436208104"/>
    <nd ref="945494003"/>
    <nd ref="1140747317"/>
    <nd ref="945494014"/>
    <nd ref="436208105"/>
    <nd ref="1140747290"/>
    <nd ref="945494028"/>
    <nd ref="945494025"/>
    <tag k="cycleway" v="lane"/>
    <tag k="highway" v="residential"/>
    <tag k="maxspeed" v="50;60"/>
    <tag k="name" v="Elsworth Street West"/>
    <tag k="source:maxspeed" v="default residential speed limit in Australia;sign"/>
  </way>
  <way id="81135442" version="5" timestamp="2011-08-17T17:30:59Z" uid="379724" user="bugman" changeset="9049947">
    <nd ref="945492249"/>
    <nd ref="1402542687"/>
    <nd ref="477076769"/>
    <nd ref="436208101"/>
    <nd ref="436208104"/>
    <nd ref="945494003"/>
    <nd ref="1140747317"/>
    <nd ref="945494014"/>
    <nd ref="436208105"/>
    <nd ref="1140747290"/>
    <nd ref="945494028"/>
    <nd ref="945494025"/>
    <tag k="cycleway" v="lane"/>
    <tag k="highway" v="residential"/>
    <tag k="maxspeed" v="50;60"/>
    <tag k="name" v="Elsworth Street West"/>
    <tag k="source:maxspeed" v="default residential speed limit in Australia;sign"/>
  </way>
  <way id="81135442" version="6" timestamp="2011-08-27T18:55:08Z" uid="379724" user="bugman" changeset="9140436">
    <nd ref="945492249"/>
    <nd ref="1402542687"/>
    <nd ref="477076769"/>
    <nd ref="436208101"/>
    <nd ref="436208104"/>
    <nd ref="945494003"/>
    <nd ref="1140747317"/>
    <nd ref="945494014"/>
    <nd ref="436208105"/>
    <nd ref="1140747290"/>
    <nd ref="945494028"/>
    <nd ref="945494025"/>
    <tag k="cycleway" v="lane"/>
    <tag k="highway" v="residential"/>
    <tag k="maxspeed" v="50;60"/>
    <tag k="name" v="Elsworth Street West"/>
    <tag k="source:maxspeed" v="default residential speed limit in Australia;sign"/>
  </way>
  <way id="81135442" version="7" timestamp="2011-09-04T06:17:33Z" uid="280147" user="Darthchicken" changeset="9205611">
    <nd ref="945492249"/>
    <nd ref="1402542687"/>
    <nd ref="477076769"/>
    <nd ref="436208101"/>
    <nd ref="1422684134"/>
    <nd ref="436208104"/>
    <nd ref="945494003"/>
    <nd ref="1140747317"/>
    <nd ref="945494014"/>
    <nd ref="436208105"/>
    <nd ref="1140747290"/>
    <nd ref="945494028"/>
    <nd ref="945494025"/>
    <tag k="cycleway" v="lane"/>
    <tag k="highway" v="residential"/>
    <tag k="maxspeed" v="50;60"/>
    <tag k="name" v="Elsworth Street West"/>
    <tag k="source:maxspeed" v="default residential speed limit in Australia;sign"/>
  </way>
  <way id="81135442" version="8" timestamp="2012-02-03T17:08:17Z" uid="379724" user="bugman" changeset="10577241">
    <nd ref="945492249"/>
    <nd ref="1402542687"/>
    <nd ref="477076769"/>
    <tag k="cycleway" v="lane"/>
    <tag k="highway" v="residential"/>
    <tag k="maxspeed" v="50;60"/>
    <tag k="name" v="Elsworth Street West"/>
    <tag k="source:maxspeed" v="default residential speed limit in Australia;sign"/>
  </way>
  <way id="81135443" version="2" timestamp="2011-02-07T08:21:07Z" uid="4467" user="Rosscoe" changeset="7213360">
    <nd ref="945492270"/>
    <nd ref="1140475188"/>
    <nd ref="1140475316"/>
    <nd ref="1140475193"/>
    <nd ref="1140474463"/>
    <nd ref="945492263"/>
    <tag k="cycleway" v="lane"/>
    <tag k="highway" v="secondary"/>
    <tag k="name" v="Wiltshire Lane"/>
    <tag k="ref" v="C307"/>
  </way>
  <way id="81135445" version="2" timestamp="2011-02-07T11:15:26Z" uid="4467" user="Rosscoe" changeset="7214726">
    <nd ref="945492269"/>
    <nd ref="945492267"/>
    <nd ref="945492257"/>
    <nd ref="945492261"/>
    <nd ref="945492253"/>
    <nd ref="945492256"/>
    <nd ref="945492248"/>
    <nd ref="945492247"/>
    <nd ref="945492260"/>
    <nd ref="945492264"/>
    <nd ref="945492249"/>
    <tag k="cycleway" v="lane"/>
    <tag k="highway" v="residential"/>
    <tag k="maxspeed" v="50;60"/>
    <tag k="name" v="Elsworth Street West"/>
    <tag k="oneway" v="yes"/>
    <tag k="source:maxspeed" v="default residential speed limit in Australia;sign"/>
  </way>
  <way id="81135445" version="3" timestamp="2011-08-17T17:31:00Z" uid="379724" user="bugman" changeset="9049947">
    <nd ref="945492269"/>
    <nd ref="945492267"/>
    <nd ref="1402542717"/>
    <nd ref="945492257"/>
    <nd ref="1402542712"/>
    <nd ref="945492261"/>
    <nd ref="945492253"/>
    <nd ref="945492256"/>
    <nd ref="945492248"/>
    <nd ref="945492247"/>
    <nd ref="945492260"/>
    <nd ref="945492264"/>
    <nd ref="1402542647"/>
    <nd ref="945492249"/>
    <tag k="cycleway" v="lane"/>
    <tag k="highway" v="residential"/>
    <tag k="maxspeed" v="50;60"/>
    <tag k="name" v="Elsworth Street West"/>
    <tag k="oneway" v="yes"/>
    <tag k="source:maxspeed" v="default residential speed limit in Australia;sign"/>
  </way>
  <way id="81135445" version="4" timestamp="2012-02-03T16:06:11Z" uid="379724" user="bugman" changeset="10576699">
    <nd ref="945492269"/>
    <nd ref="945492267"/>
    <nd ref="1402542717"/>
    <nd ref="1616781203"/>
    <nd ref="945492257"/>
    <nd ref="1402542712"/>
    <nd ref="945492261"/>
    <nd ref="945492253"/>
    <nd ref="945492256"/>
    <nd ref="945492248"/>
    <nd ref="945492247"/>
    <nd ref="945492260"/>
    <nd ref="945492264"/>
    <nd ref="1402542647"/>
    <nd ref="945492249"/>
    <tag k="cycleway" v="lane"/>
    <tag k="highway" v="residential"/>
    <tag k="maxspeed" v="50;60"/>
    <tag k="name" v="Elsworth Street West"/>
    <tag k="oneway" v="yes"/>
    <tag k="source:maxspeed" v="default residential speed limit in Australia;sign"/>
  </way>
  <way id="81135445" version="5" timestamp="2012-02-03T16:09:33Z" uid="379724" user="bugman" changeset="10576738">
    <nd ref="1402542717"/>
    <nd ref="945492269"/>
    <tag k="cycleway" v="lane"/>
    <tag k="highway" v="residential"/>
    <tag k="maxspeed" v="50;60"/>
    <tag k="name" v="Elsworth Street West"/>
    <tag k="oneway" v="yes"/>
    <tag k="source:maxspeed" v="default residential speed limit in Australia;sign"/>
  </way>
  <way id="81135559" version="5" timestamp="2010-12-03T11:37:24Z" uid="6269" user="Mueck" changeset="6525102"/>
  <way id="81135653" version="2" timestamp="2011-02-07T11:14:53Z" uid="4467" user="Rosscoe" changeset="7214726">
    <nd ref="945494012"/>
    <nd ref="672691047"/>
    <tag k="highway" v="secondary"/>
    <tag k="maxspeed" v="50"/>
    <tag k="name" v="Main Road"/>
    <tag k="ref" v="C294"/>
    <tag k="source" v="survey"/>
    <tag k="source:maxspeed" v="default residential speed limit in Australia"/>
  </way>
  <way id="81135655" version="3" timestamp="2011-02-07T11:14:13Z" uid="4467" user="Rosscoe" changeset="7214726">
    <nd ref="945494001"/>
    <nd ref="655120481"/>
    <nd ref="945494027"/>
    <nd ref="655120482"/>
    <nd ref="945494009"/>
    <nd ref="1034570710"/>
    <nd ref="655120483"/>
    <nd ref="655120484"/>
    <nd ref="945494021"/>
    <tag k="cycleway" v="lane"/>
    <tag k="highway" v="residential"/>
    <tag k="maxspeed" v="60"/>
    <tag k="name" v="Fussell Street"/>
    <tag k="source:maxspeed" v="sign"/>
  </way>
  <way id="81135655" version="4" timestamp="2011-02-07T15:52:25Z" uid="4467" user="Rosscoe" changeset="7217453">
    <nd ref="945494001"/>
    <nd ref="655120481"/>
    <nd ref="945494027"/>
    <nd ref="655120482"/>
    <nd ref="945494009"/>
    <nd ref="1034570710"/>
    <nd ref="655120483"/>
    <nd ref="655120484"/>
    <nd ref="1140913247"/>
    <nd ref="1140913158"/>
    <nd ref="945494021"/>
    <tag k="cycleway" v="lane"/>
    <tag k="highway" v="residential"/>
    <tag k="maxspeed" v="60"/>
    <tag k="name" v="Fussell Street"/>
    <tag k="source:maxspeed" v="sign"/>
  </way>
  <way id="81135655" version="5" timestamp="2011-12-21T02:39:18Z" uid="11111" user="melb_guy" changeset="10168207">
    <nd ref="945494001"/>
    <nd ref="655120481"/>
    <nd ref="945494027"/>
    <nd ref="655120482"/>
    <nd ref="945494009"/>
    <nd ref="1034570710"/>
    <nd ref="655120483"/>
    <nd ref="655120484"/>
    <nd ref="1140913247"/>
    <nd ref="1140913158"/>
    <nd ref="945494021"/>
    <tag k="cycleway" v="lane"/>
    <tag k="highway" v="tertiary"/>
    <tag k="maxspeed" v="60"/>
    <tag k="name" v="Fussell Street"/>
    <tag k="source:maxspeed" v="sign"/>
    <tag k="surface" v="asphalt"/>
  </way>
  <way id="81135655" version="6" timestamp="2012-02-12T10:05:46Z" uid="379724" user="bugman" changeset="10660977">
    <nd ref="945494001"/>
    <nd ref="655120481"/>
    <nd ref="945494027"/>
    <nd ref="655120482"/>
    <nd ref="1629420362"/>
    <nd ref="945494009"/>
    <nd ref="1629420360"/>
    <nd ref="1034570710"/>
    <nd ref="655120483"/>
    <nd ref="655120484"/>
    <nd ref="1140913247"/>
    <nd ref="1140913158"/>
    <nd ref="945494021"/>
    <tag k="cycleway" v="lane"/>
    <tag k="highway" v="tertiary"/>
    <tag k="maxspeed" v="60"/>
    <tag k="name" v="Fussell Street"/>
    <tag k="source:maxspeed" v="sign"/>
    <tag k="surface" v="asphalt"/>
  </way>
  <way id="81135658" version="2" timestamp="2011-02-07T11:15:25Z" uid="4467" user="Rosscoe" changeset="7214726">
    <nd ref="945494004"/>
    <nd ref="655120480"/>
    <nd ref="945494001"/>
    <tag k="highway" v="residential"/>
    <tag k="maxspeed" v="60"/>
    <tag k="name" v="Fussell Street"/>
    <tag k="source:maxspeed" v="sign"/>
  </way>
  <way id="81135658" version="3" timestamp="2011-12-21T02:39:19Z" uid="11111" user="melb_guy" changeset="10168207">
    <nd ref="945494004"/>
    <nd ref="655120480"/>
    <nd ref="945494001"/>
    <tag k="highway" v="tertiary"/>
    <tag k="maxspeed" v="60"/>
    <tag k="name" v="Fussell Street"/>
    <tag k="source:maxspeed" v="sign"/>
    <tag k="surface" v="asphalt"/>
  </way>
  <way id="81135658" version="4" timestamp="2012-02-03T20:40:48Z" uid="379724" user="bugman" changeset="10578977">
    <nd ref="945494004"/>
    <nd ref="655120480"/>
    <tag k="highway" v="tertiary"/>
    <tag k="maxspeed" v="60"/>
    <tag k="name" v="Fussell Street"/>
    <tag k="source:maxspeed" v="sign"/>
    <tag k="surface" v="asphalt"/>
  </way>
  <way id="81135659" version="2" timestamp="2011-02-07T11:12:43Z" uid="4467" user="Rosscoe" changeset="7214726">
    <nd ref="945494021"/>
    <nd ref="364000682"/>
    <tag k="highway" v="residential"/>
    <tag k="maxspeed" v="60"/>
    <tag k="name" v="Fussell Street"/>
    <tag k="source:maxspeed" v="sign"/>
  </way>
  <way id="81135659" version="3" timestamp="2011-12-21T02:39:19Z" uid="11111" user="melb_guy" changeset="10168207">
    <nd ref="945494021"/>
    <nd ref="1556534681"/>
    <tag k="highway" v="tertiary"/>
    <tag k="maxspeed" v="60"/>
    <tag k="name" v="Fussell Street"/>
    <tag k="source:maxspeed" v="sign"/>
    <tag k="surface" v="asphalt"/>
  </way>
  <way id="81135660" version="2" timestamp="2011-02-07T11:59:59Z" uid="4467" user="Rosscoe" changeset="7215161">
    <nd ref="35290047"/>
    <nd ref="655120485"/>
    <nd ref="35290048"/>
    <nd ref="945494002"/>
    <nd ref="35290049"/>
    <nd ref="655120391"/>
    <nd ref="35290050"/>
    <nd ref="1140747275"/>
    <nd ref="608228851"/>
    <nd ref="436208153"/>
    <nd ref="35290051"/>
    <nd ref="436208149"/>
    <nd ref="1140747184"/>
    <nd ref="356613499"/>
    <nd ref="1140747385"/>
    <nd ref="894797760"/>
    <nd ref="35290052"/>
    <nd ref="1140747349"/>
    <nd ref="894797759"/>
    <nd ref="35290053"/>
    <nd ref="902638371"/>
    <nd ref="902638360"/>
    <nd ref="945494010"/>
    <nd ref="945494007"/>
    <nd ref="945494017"/>
    <nd ref="945494019"/>
    <nd ref="945493999"/>
    <tag k="cycleway" v="lane"/>
    <tag k="highway" v="tertiary"/>
    <tag k="name" v="Eureka Street"/>
  </way>
  <way id="81135660" version="3" timestamp="2011-08-16T18:53:44Z" uid="379724" user="bugman" changeset="9039897">
    <nd ref="35290047"/>
    <nd ref="655120485"/>
    <nd ref="35290048"/>
    <nd ref="945494002"/>
    <nd ref="35290049"/>
    <nd ref="655120391"/>
    <nd ref="35290050"/>
    <nd ref="1140747275"/>
    <nd ref="1401367236"/>
    <nd ref="1401367007"/>
    <nd ref="608228851"/>
    <nd ref="436208153"/>
    <nd ref="35290051"/>
    <nd ref="436208149"/>
    <nd ref="1140747184"/>
    <nd ref="356613499"/>
    <nd ref="1140747385"/>
    <nd ref="894797760"/>
    <nd ref="35290052"/>
    <nd ref="1140747349"/>
    <nd ref="894797759"/>
    <nd ref="35290053"/>
    <nd ref="902638371"/>
    <nd ref="902638360"/>
    <nd ref="945494010"/>
    <nd ref="945494007"/>
    <nd ref="945494017"/>
    <nd ref="945494019"/>
    <nd ref="945493999"/>
    <tag k="cycleway" v="lane"/>
    <tag k="highway" v="tertiary"/>
    <tag k="name" v="Eureka Street"/>
  </way>
  <way id="81135660" version="4" timestamp="2011-08-16T20:12:52Z" uid="379724" user="bugman" changeset="9039897">
    <nd ref="35290047"/>
    <nd ref="655120485"/>
    <nd ref="35290048"/>
    <nd ref="945494002"/>
    <nd ref="35290049"/>
    <nd ref="655120391"/>
    <nd ref="35290050"/>
    <nd ref="1140747275"/>
    <nd ref="1401367236"/>
    <nd ref="1401367007"/>
    <nd ref="608228851"/>
    <nd ref="436208153"/>
    <nd ref="35290051"/>
    <nd ref="436208149"/>
    <nd ref="1140747184"/>
    <nd ref="356613499"/>
    <nd ref="1140747385"/>
    <nd ref="894797760"/>
    <nd ref="35290052"/>
    <nd ref="1140747349"/>
    <nd ref="894797759"/>
    <nd ref="1401458751"/>
    <nd ref="35290053"/>
    <nd ref="902638371"/>
    <nd ref="902638360"/>
    <nd ref="945494010"/>
    <nd ref="945494007"/>
    <nd ref="945494017"/>
    <nd ref="945494019"/>
    <nd ref="945493999"/>
    <tag k="cycleway" v="lane"/>
    <tag k="highway" v="tertiary"/>
    <tag k="name" v="Eureka Street"/>
  </way>
  <way id="81135660" version="5" timestamp="2012-02-03T20:40:46Z" uid="379724" user="bugman" changeset="10578977">
    <nd ref="35290047"/>
    <nd ref="1617028663"/>
    <nd ref="1617028659"/>
    <nd ref="1617028649"/>
    <nd ref="1617028644"/>
    <nd ref="1617028640"/>
    <nd ref="655120485"/>
    <nd ref="35290048"/>
    <nd ref="945494002"/>
    <nd ref="35290049"/>
    <nd ref="655120391"/>
    <nd ref="35290050"/>
    <nd ref="1140747275"/>
    <nd ref="1401367236"/>
    <nd ref="1401367007"/>
    <nd ref="608228851"/>
    <nd ref="436208153"/>
    <nd ref="35290051"/>
    <nd ref="436208149"/>
    <nd ref="1140747184"/>
    <nd ref="356613499"/>
    <nd ref="1140747385"/>
    <nd ref="894797760"/>
    <nd ref="35290052"/>
    <nd ref="1140747349"/>
    <nd ref="894797759"/>
    <nd ref="1401458751"/>
    <nd ref="35290053"/>
    <nd ref="902638371"/>
    <nd ref="902638360"/>
    <nd ref="945494010"/>
    <nd ref="945494007"/>
    <nd ref="945494017"/>
    <nd ref="945494019"/>
    <nd ref="945493999"/>
    <tag k="cycleway" v="lane"/>
    <tag k="highway" v="tertiary"/>
    <tag k="name" v="Eureka Street"/>
  </way>
  <way id="81135661" version="2" timestamp="2011-02-07T11:11:46Z" uid="4467" user="Rosscoe" changeset="7214726">
    <nd ref="945494025"/>
    <nd ref="436208107"/>
    <tag k="highway" v="residential"/>
    <tag k="maxspeed" v="50;60"/>
    <tag k="name" v="Elsworth Street West"/>
    <tag k="source:maxspeed" v="default residential speed limit in Australia;sign"/>
  </way>
  <way id="81135661" version="3" timestamp="2011-02-07T11:59:35Z" uid="4467" user="Rosscoe" changeset="7215161">
    <nd ref="945494025"/>
    <nd ref="1140747300"/>
    <tag k="highway" v="residential"/>
    <tag k="maxspeed" v="50;60"/>
    <tag k="name" v="Elsworth Street West"/>
    <tag k="source:maxspeed" v="default residential speed limit in Australia;sign"/>
  </way>
  <way id="81135661" version="4" timestamp="2012-02-03T19:29:28Z" uid="379724" user="bugman" changeset="10578317">
    <nd ref="1616958111"/>
    <nd ref="1140747300"/>
    <tag k="highway" v="residential"/>
    <tag k="maxspeed" v="50;60"/>
    <tag k="name" v="Elsworth Street West"/>
    <tag k="source:maxspeed" v="default residential speed limit in Australia;sign"/>
  </way>
  <way id="81135662" version="2" timestamp="2011-02-07T15:52:21Z" uid="4467" user="Rosscoe" changeset="7217453">
    <nd ref="672691051"/>
    <nd ref="1140914270"/>
    <nd ref="655120355"/>
    <tag k="cycleway" v="lane"/>
    <tag k="highway" v="secondary"/>
    <tag k="name" v="Barkly Street"/>
    <tag k="ref" v="C298"/>
  </way>
  <way id="81135662" version="3" timestamp="2011-08-27T18:18:25Z" uid="379724" user="bugman" changeset="9139194">
    <nd ref="672691051"/>
    <nd ref="1140914270"/>
    <nd ref="1415131263"/>
    <nd ref="655120355"/>
    <tag k="cycleway" v="lane"/>
    <tag k="highway" v="secondary"/>
    <tag k="name" v="Barkly Street"/>
    <tag k="ref" v="C298"/>
  </way>
  <way id="81135663" version="3" timestamp="2011-02-07T11:16:03Z" uid="4467" user="Rosscoe" changeset="7214726">
    <nd ref="945494008"/>
    <nd ref="362398310"/>
    <tag k="highway" v="tertiary"/>
    <tag k="maxspeed" v="50"/>
    <tag k="name" v="Main Road"/>
    <tag k="source" v="survey"/>
    <tag k="source:maxspeed" v="default residential speed limit in Australia"/>
  </way>
  <way id="81135664" version="2" timestamp="2011-02-07T11:15:21Z" uid="4467" user="Rosscoe" changeset="7214726">
    <nd ref="655120387"/>
    <nd ref="902638455"/>
    <nd ref="945494004"/>
    <tag k="cycleway" v="lane"/>
    <tag k="highway" v="residential"/>
    <tag k="maxspeed" v="60"/>
    <tag k="name" v="Fussell Street"/>
    <tag k="source:maxspeed" v="sign"/>
  </way>
  <way id="81135664" version="3" timestamp="2011-08-27T16:55:51Z" uid="379724" user="bugman" changeset="9139194">
    <nd ref="655120387"/>
    <nd ref="1415004254"/>
    <nd ref="902638455"/>
    <nd ref="945494004"/>
    <tag k="cycleway" v="lane"/>
    <tag k="highway" v="residential"/>
    <tag k="maxspeed" v="60"/>
    <tag k="name" v="Fussell Street"/>
    <tag k="source:maxspeed" v="sign"/>
  </way>
  <way id="81135664" version="4" timestamp="2011-12-21T02:39:19Z" uid="11111" user="melb_guy" changeset="10168207">
    <nd ref="655120387"/>
    <nd ref="1415004254"/>
    <nd ref="902638455"/>
    <nd ref="945494004"/>
    <tag k="cycleway" v="lane"/>
    <tag k="highway" v="tertiary"/>
    <tag k="maxspeed" v="60"/>
    <tag k="name" v="Fussell Street"/>
    <tag k="source:maxspeed" v="sign"/>
    <tag k="surface" v="asphalt"/>
  </way>
  <way id="81135665" version="2" timestamp="2011-02-07T11:12:40Z" uid="4467" user="Rosscoe" changeset="7214726">
    <nd ref="945494000"/>
    <nd ref="945494012"/>
    <tag k="cycleway" v="lane"/>
    <tag k="highway" v="secondary"/>
    <tag k="maxspeed" v="50"/>
    <tag k="name" v="Main Road"/>
    <tag k="ref" v="C294"/>
    <tag k="source" v="survey"/>
    <tag k="source:maxspeed" v="default residential speed limit in Australia"/>
  </way>
  <way id="81135436" version="8" timestamp="2012-07-19T08:14:37Z" uid="722137" user="OSMF Redaction Account" changeset="12313370">
    <nd ref="945492262"/>
    <nd ref="1616781198"/>
    <nd ref="945478390"/>
    <nd ref="477076649"/>
    <nd ref="945478396"/>
    <nd ref="945478402"/>
    <nd ref="945478377"/>
    <nd ref="1402542706"/>
    <nd ref="1629625075"/>
    <nd ref="945478386"/>
    <nd ref="477076546"/>
    <tag k="highway" v="residential"/>
    <tag k="maxspeed" v="60"/>
    <tag k="maxspeed:source" v="sign"/>
    <tag k="name" v="Humffray Street South"/>
    <tag k="source" v="survey"/>
  </way>
  <way id="81135437" version="3" timestamp="2012-07-19T08:37:00Z" uid="722137" user="OSMF Redaction Account" changeset="12314166"/>
  <way id="81135438" version="3" timestamp="2012-07-19T08:37:01Z" uid="722137" user="OSMF Redaction Account" changeset="12314166"/>
  <way id="81135439" version="6" timestamp="2012-07-19T08:14:36Z" uid="722137" user="OSMF Redaction Account" changeset="12313370">
    <nd ref="945492269"/>
    <nd ref="1616781202"/>
    <tag k="cycleway" v="lane"/>
    <tag k="highway" v="residential"/>
    <tag k="maxspeed" v="50;60"/>
    <tag k="maxspeed:source" v="default residential speed limit in Australia;sign"/>
    <tag k="name" v="Elsworth Street West"/>
    <tag k="oneway" v="yes"/>
  </way>
  <way id="81135441" version="3" timestamp="2012-07-19T08:36:31Z" uid="722137" user="OSMF Redaction Account" changeset="12314166">
    <nd ref="945492252"/>
    <nd ref="945492254"/>
    <tag k="cycleway" v="lane"/>
    <tag k="highway" v="secondary"/>
    <tag k="name" v="Wiltshire Lane"/>
  </way>
  <way id="81135441" version="4" timestamp="2012-07-28T16:43:00Z" uid="379724" user="bugman" changeset="12525470">
    <nd ref="945492252"/>
    <nd ref="945492254"/>
    <tag k="cycleway" v="lane"/>
    <tag k="highway" v="secondary"/>
    <tag k="name" v="Wiltshire Lane"/>
    <tag k="ref" v="C307"/>
  </way>
  <way id="81135441" version="5" timestamp="2012-07-28T16:50:52Z" uid="379724" user="bugman" changeset="12525553">
    <nd ref="945492252"/>
    <nd ref="1841609014"/>
    <nd ref="1841609005"/>
    <nd ref="1841608997"/>
    <nd ref="945492254"/>
    <tag k="cycleway" v="lane"/>
    <tag k="highway" v="secondary"/>
    <tag k="name" v="Wiltshire Lane"/>
    <tag k="ref" v="C307"/>
  </way>
  <way id="81135441" version="6" timestamp="2012-07-28T16:53:27Z" uid="379724" user="bugman" changeset="12525590">
    <nd ref="1140474558"/>
    <nd ref="1841612644"/>
    <nd ref="1841612637"/>
    <nd ref="1841612632"/>
    <nd ref="945492252"/>
    <nd ref="1841609014"/>
    <nd ref="1841609005"/>
    <nd ref="1841608997"/>
    <nd ref="945492254"/>
    <tag k="cycleway" v="lane"/>
    <tag k="highway" v="secondary"/>
    <tag k="name" v="Wiltshire Lane"/>
    <tag k="ref" v="C307"/>
  </way>
  <way id="81135442" version="9" timestamp="2012-07-19T08:14:35Z" uid="722137" user="OSMF Redaction Account" changeset="12313370">
    <nd ref="945492249"/>
    <nd ref="1402542687"/>
    <nd ref="477076769"/>
    <tag k="cycleway" v="lane"/>
    <tag k="highway" v="residential"/>
    <tag k="maxspeed" v="50;60"/>
    <tag k="maxspeed:source" v="default residential speed limit in Australia;sign"/>
    <tag k="name" v="Elsworth Street West"/>
  </way>
  <way id="81135443" version="3" timestamp="2012-07-19T08:36:31Z" uid="722137" user="OSMF Redaction Account" changeset="12314166">
    <nd ref="945492270"/>
    <nd ref="945492263"/>
    <tag k="cycleway" v="lane"/>
    <tag k="highway" v="secondary"/>
    <tag k="name" v="Wiltshire Lane"/>
    <tag k="ref" v="C307"/>
  </way>
  <way id="81135443" version="4" timestamp="2012-07-28T16:50:51Z" uid="379724" user="bugman" changeset="12525553">
    <nd ref="945492270"/>
    <nd ref="1841609013"/>
    <nd ref="1841609003"/>
    <nd ref="1841608995"/>
    <nd ref="945492263"/>
    <tag k="cycleway" v="lane"/>
    <tag k="highway" v="secondary"/>
    <tag k="name" v="Wiltshire Lane"/>
    <tag k="ref" v="C307"/>
  </way>
  <way id="81135443" version="5" timestamp="2012-07-28T16:53:27Z" uid="379724" user="bugman" changeset="12525590">
    <nd ref="655401555"/>
    <nd ref="1841612647"/>
    <nd ref="1841612640"/>
    <nd ref="1841612634"/>
    <nd ref="1841612629"/>
    <nd ref="945492270"/>
    <nd ref="1841609013"/>
    <nd ref="1841609003"/>
    <nd ref="1841608995"/>
    <nd ref="945492263"/>
    <tag k="cycleway" v="lane"/>
    <tag k="highway" v="secondary"/>
    <tag k="name" v="Wiltshire Lane"/>
    <tag k="ref" v="C307"/>
  </way>
  <way id="81135445" version="6" timestamp="2012-07-19T08:14:36Z" uid="722137" user="OSMF Redaction Account" changeset="12313370">
    <nd ref="1402542717"/>
    <nd ref="945492269"/>
    <tag k="cycleway" v="lane"/>
    <tag k="highway" v="residential"/>
    <tag k="maxspeed" v="50;60"/>
    <tag k="maxspeed:source" v="default residential speed limit in Australia;sign"/>
    <tag k="name" v="Elsworth Street West"/>
    <tag k="oneway" v="yes"/>
  </way>
  <way id="81135653" version="3" timestamp="2012-07-19T08:14:51Z" uid="722137" user="OSMF Redaction Account" changeset="12313370">
    <nd ref="945494012"/>
    <nd ref="672691047"/>
    <tag k="highway" v="secondary"/>
    <tag k="maxspeed" v="50"/>
    <tag k="maxspeed:source" v="default residential speed limit in Australia"/>
    <tag k="name" v="Main Road"/>
    <tag k="ref" v="C294"/>
    <tag k="source" v="survey"/>
  </way>
  <way id="81135655" version="7" timestamp="2012-07-19T08:03:41Z" uid="722137" user="OSMF Redaction Account" changeset="12313070">
    <nd ref="945494001"/>
    <nd ref="655120481"/>
    <nd ref="945494027"/>
    <nd ref="655120482"/>
    <nd ref="1629420362"/>
    <nd ref="945494009"/>
    <nd ref="1629420360"/>
    <nd ref="1034570710"/>
    <nd ref="655120483"/>
    <nd ref="655120484"/>
    <nd ref="945494021"/>
    <tag k="cycleway" v="lane"/>
    <tag k="highway" v="tertiary"/>
    <tag k="maxspeed" v="60"/>
    <tag k="maxspeed:source" v="sign"/>
    <tag k="name" v="Fussell Street"/>
    <tag k="surface" v="asphalt"/>
  </way>
  <way id="81135658" version="5" timestamp="2012-07-19T08:03:58Z" uid="722137" user="OSMF Redaction Account" changeset="12313070">
    <nd ref="945494004"/>
    <nd ref="655120480"/>
    <tag k="highway" v="tertiary"/>
    <tag k="maxspeed" v="60"/>
    <tag k="maxspeed:source" v="sign"/>
    <tag k="name" v="Fussell Street"/>
    <tag k="surface" v="asphalt"/>
  </way>
  <way id="81135659" version="4" timestamp="2012-07-19T08:04:03Z" uid="722137" user="OSMF Redaction Account" changeset="12313070">
    <nd ref="945494021"/>
    <nd ref="1556534681"/>
    <tag k="highway" v="tertiary"/>
    <tag k="maxspeed" v="60"/>
    <tag k="maxspeed:source" v="sign"/>
    <tag k="name" v="Fussell Street"/>
    <tag k="surface" v="asphalt"/>
  </way>
  <way id="81135660" version="6" timestamp="2012-07-19T08:03:43Z" uid="722137" user="OSMF Redaction Account" changeset="12313070">
    <nd ref="35290047"/>
    <nd ref="1617028663"/>
    <nd ref="1617028659"/>
    <nd ref="1617028649"/>
    <nd ref="1617028644"/>
    <nd ref="1617028640"/>
    <nd ref="655120485"/>
    <nd ref="35290048"/>
    <nd ref="945494002"/>
    <nd ref="35290049"/>
    <nd ref="655120391"/>
    <nd ref="35290050"/>
    <nd ref="1401367236"/>
    <nd ref="1401367007"/>
    <nd ref="608228851"/>
    <nd ref="436208153"/>
    <nd ref="35290051"/>
    <nd ref="436208149"/>
    <nd ref="356613499"/>
    <nd ref="894797760"/>
    <nd ref="35290052"/>
    <nd ref="894797759"/>
    <nd ref="1401458751"/>
    <nd ref="35290053"/>
    <nd ref="902638371"/>
    <nd ref="902638360"/>
    <nd ref="945494010"/>
    <nd ref="945494007"/>
    <nd ref="945494017"/>
    <nd ref="945494019"/>
    <nd ref="945493999"/>
    <tag k="cycleway" v="lane"/>
    <tag k="highway" v="tertiary"/>
    <tag k="name" v="Eureka Street"/>
  </way>
  <way id="81135660" version="7" timestamp="2012-07-28T20:57:33Z" uid="379724" user="bugman" changeset="12528282">
    <nd ref="35290047"/>
    <nd ref="1617028663"/>
    <nd ref="1617028659"/>
    <nd ref="1617028649"/>
    <nd ref="1617028644"/>
    <nd ref="1617028640"/>
    <nd ref="655120485"/>
    <nd ref="35290048"/>
    <nd ref="945494002"/>
    <nd ref="35290049"/>
    <nd ref="655120391"/>
    <nd ref="35290050"/>
    <nd ref="1401367236"/>
    <nd ref="1401367007"/>
    <nd ref="608228851"/>
    <nd ref="436208153"/>
    <nd ref="35290051"/>
    <nd ref="436208149"/>
    <nd ref="356613499"/>
    <nd ref="894797760"/>
    <nd ref="35290052"/>
    <nd ref="1841922359"/>
    <nd ref="894797759"/>
    <nd ref="1401458751"/>
    <nd ref="35290053"/>
    <nd ref="902638371"/>
    <nd ref="902638360"/>
    <nd ref="945494010"/>
    <nd ref="945494007"/>
    <nd ref="945494017"/>
    <nd ref="945494019"/>
    <nd ref="945493999"/>
    <tag k="cycleway" v="lane"/>
    <tag k="highway" v="tertiary"/>
    <tag k="name" v="Eureka Street"/>
  </way>
  <way id="81135661" version="5" timestamp="2012-07-19T08:18:11Z" uid="722137" user="OSMF Redaction Account" changeset="12313555"/>
  <way id="81135662" version="4" timestamp="2012-07-19T08:13:52Z" uid="722137" user="OSMF Redaction Account" changeset="12313370">
    <nd ref="672691051"/>
    <nd ref="1415131263"/>
    <nd ref="655120355"/>
    <tag k="cycleway" v="lane"/>
    <tag k="highway" v="secondary"/>
    <tag k="name" v="Barkly Street"/>
    <tag k="ref" v="C298"/>
  </way>
  <way id="81135662" version="5" timestamp="2012-07-28T09:54:40Z" uid="379724" user="bugman" changeset="12521069">
    <nd ref="672691051"/>
    <nd ref="1841056426"/>
    <nd ref="1415131263"/>
    <nd ref="655120355"/>
    <tag k="cycleway" v="lane"/>
    <tag k="highway" v="secondary"/>
    <tag k="name" v="Barkly Street"/>
    <tag k="ref" v="C298"/>
  </way>
  <way id="81135663" version="4" timestamp="2012-07-19T08:14:55Z" uid="722137" user="OSMF Redaction Account" changeset="12313370">
    <nd ref="945494008"/>
    <nd ref="362398310"/>
    <tag k="highway" v="tertiary"/>
    <tag k="maxspeed" v="50"/>
    <tag k="maxspeed:source" v="default residential speed limit in Australia"/>
    <tag k="name" v="Main Road"/>
    <tag k="source" v="survey"/>
  </way>
  <way id="81135663" version="5" timestamp="2012-07-28T09:43:43Z" uid="379724" user="bugman" changeset="12520938">
    <nd ref="1140913612"/>
    <nd ref="945494008"/>
    <nd ref="362398310"/>
    <tag k="highway" v="tertiary"/>
    <tag k="maxspeed" v="50"/>
    <tag k="maxspeed:source" v="default residential speed limit in Australia"/>
    <tag k="name" v="Main Road"/>
    <tag k="source" v="survey"/>
  </way>
  <way id="81135664" version="5" timestamp="2012-07-19T08:03:57Z" uid="722137" user="OSMF Redaction Account" changeset="12313070">
    <nd ref="655120387"/>
    <nd ref="1415004254"/>
    <nd ref="902638455"/>
    <nd ref="945494004"/>
    <tag k="cycleway" v="lane"/>
    <tag k="highway" v="tertiary"/>
    <tag k="maxspeed" v="60"/>
    <tag k="maxspeed:source" v="sign"/>
    <tag k="name" v="Fussell Street"/>
    <tag k="surface" v="asphalt"/>
  </way>
  <way id="81135665" version="3" timestamp="2012-07-19T08:14:53Z" uid="722137" user="OSMF Redaction Account" changeset="12313370">
    <nd ref="945494000"/>
    <nd ref="945494012"/>
    <tag k="cycleway" v="lane"/>
    <tag k="highway" v="secondary"/>
    <tag k="maxspeed" v="50"/>
    <tag k="maxspeed:source" v="default residential speed limit in Australia"/>
    <tag k="name" v="Main Road"/>
    <tag k="ref" v="C294"/>
    <tag k="source" v="survey"/>
  </way>
</osm>
