<?xml version='1.0' encoding='UTF-8'?>
<osm version="0.6" generator="libosmium/2.20.0">
  <way id="81132844" version="2" timestamp="2011-02-08T02:06:48Z" uid="4467" user="Rosscoe" changeset="7222946">
    <nd ref="673064343"/>
    <nd ref="706070141"/>
    <nd ref="706150290"/>
    <nd ref="1141642234"/>
    <nd ref="673064347"/>
    <nd ref="655119015"/>
    <nd ref="673064350"/>
    <nd ref="655119011"/>
    <nd ref="945467557"/>
    <tag k="cycleway" v="lane"/>
    <tag k="highway" v="secondary"/>
    <tag k="name" v="Gillies Street North"/>
    <tag k="oneway" v="yes"/>
    <tag k="ref" v="C307"/>
    <tag k="source" v="survey"/>
  </way>
  <way id="81132844" version="3" timestamp="2012-02-02T15:10:25Z" uid="379724" user="bugman" changeset="10568298">
    <nd ref="673064343"/>
    <nd ref="706070141"/>
    <nd ref="706150290"/>
    <nd ref="1141642234"/>
    <nd ref="673064347"/>
    <nd ref="673064350"/>
    <nd ref="655119011"/>
    <nd ref="1615689291"/>
    <nd ref="945467557"/>
    <tag k="cycleway" v="lane"/>
    <tag k="highway" v="secondary"/>
    <tag k="name" v="Gillies Street North"/>
    <tag k="oneway" v="yes"/>
    <tag k="ref" v="C307"/>
    <tag k="source" v="survey"/>
  </way>
  <way id="81132844" version="4" timestamp="2012-02-04T09:32:08Z" uid="379724" user="bugman" changeset="10582289">
    <nd ref="673064343"/>
    <nd ref="706070141"/>
    <nd ref="706150290"/>
    <nd ref="1141642234"/>
    <nd ref="673064347"/>
    <nd ref="673064350"/>
    <nd ref="655119011"/>
    <tag k="cycleway" v="lane"/>
    <tag k="highway" v="secondary"/>
    <tag k="name" v="Gillies Street North"/>
    <tag k="oneway" v="yes"/>
    <tag k="ref" v="C307"/>
    <tag k="source" v="survey"/>
  </way>
  <way id="81132844" version="5" timestamp="2012-02-05T17:25:30Z" uid="379724" user="bugman" changeset="10595923">
    <nd ref="673064343"/>
    <nd ref="706070141"/>
    <nd ref="706150290"/>
    <nd ref="1141642234"/>
    <nd ref="673064347"/>
    <nd ref="673064350"/>
    <nd ref="1619142309"/>
    <nd ref="655119011"/>
    <tag k="cycleway" v="lane"/>
    <tag k="highway" v="secondary"/>
    <tag k="name" v="Gillies Street North"/>
    <tag k="oneway" v="yes"/>
    <tag k="ref" v="C307"/>
    <tag k="source" v="survey"/>
  </way>
  <way id="81132845" version="2" timestamp="2011-02-07T11:12:14Z" uid="4467" user="Rosscoe" changeset="7214726">
    <nd ref="945467563"/>
    <nd ref="708389128"/>
    <nd ref="571685329"/>
    <nd ref="1140707564"/>
    <nd ref="612083263"/>
    <nd ref="612083267"/>
    <nd ref="612083271"/>
    <nd ref="612083274"/>
    <nd ref="612083277"/>
    <nd ref="612083280"/>
    <nd ref="612083282"/>
    <nd ref="612083285"/>
    <nd ref="612083288"/>
    <nd ref="612083290"/>
    <nd ref="612083293"/>
    <nd ref="612083296"/>
    <tag k="cycleway" v="lane"/>
    <tag k="highway" v="tertiary"/>
    <tag k="name" v="Dowling Street"/>
  </way>
  <way id="81132845" version="3" timestamp="2011-08-27T14:06:53Z" uid="379724" user="bugman" changeset="9137691">
    <nd ref="945467563"/>
    <nd ref="708389128"/>
    <nd ref="571685329"/>
    <nd ref="1414742443"/>
    <nd ref="1414742462"/>
    <nd ref="1414742426"/>
    <nd ref="1140707564"/>
    <nd ref="1414742472"/>
    <nd ref="1414742471"/>
    <nd ref="1414742467"/>
    <nd ref="612083263"/>
    <nd ref="612083267"/>
    <nd ref="612083271"/>
    <nd ref="612083274"/>
    <nd ref="612083277"/>
    <nd ref="612083280"/>
    <nd ref="612083282"/>
    <nd ref="612083285"/>
    <nd ref="612083288"/>
    <nd ref="612083290"/>
    <nd ref="612083293"/>
    <nd ref="612083296"/>
    <tag k="cycleway" v="lane"/>
    <tag k="highway" v="tertiary"/>
    <tag k="name" v="Dowling Street"/>
  </way>
  <way id="81132845" version="4" timestamp="2011-08-27T14:15:23Z" uid="379724" user="bugman" changeset="9137691">
    <nd ref="945467563"/>
    <nd ref="708389128"/>
    <nd ref="1414757304"/>
    <nd ref="1414757280"/>
    <nd ref="571685329"/>
    <nd ref="1414742443"/>
    <nd ref="1414742462"/>
    <nd ref="1414742426"/>
    <nd ref="1140707564"/>
    <nd ref="1414742472"/>
    <nd ref="1414742471"/>
    <nd ref="1414742467"/>
    <nd ref="612083263"/>
    <nd ref="612083267"/>
    <nd ref="1414757319"/>
    <nd ref="612083271"/>
    <nd ref="612083274"/>
    <nd ref="612083277"/>
    <nd ref="612083280"/>
    <nd ref="612083282"/>
    <nd ref="612083285"/>
    <nd ref="612083288"/>
    <nd ref="612083290"/>
    <nd ref="612083293"/>
    <nd ref="612083296"/>
    <tag k="cycleway" v="lane"/>
    <tag k="highway" v="tertiary"/>
    <tag k="name" v="Dowling Street"/>
  </way>
  <way id="81132845" version="5" timestamp="2012-02-04T10:12:52Z" uid="379724" user="bugman" changeset="10582550">
    <nd ref="945467563"/>
    <nd ref="708389128"/>
    <nd ref="1414757304"/>
    <nd ref="1414757280"/>
    <nd ref="571685329"/>
    <nd ref="1414742443"/>
    <nd ref="1414742462"/>
    <nd ref="1414742426"/>
    <nd ref="1414742472"/>
    <nd ref="1414742471"/>
    <nd ref="1414742467"/>
    <nd ref="612083263"/>
    <nd ref="612083267"/>
    <nd ref="1414757319"/>
    <nd ref="612083271"/>
    <nd ref="612083274"/>
    <nd ref="612083277"/>
    <nd ref="612083280"/>
    <nd ref="612083282"/>
    <nd ref="612083285"/>
    <nd ref="612083288"/>
    <nd ref="612083290"/>
    <nd ref="612083293"/>
    <nd ref="612083296"/>
    <tag k="cycleway" v="lane"/>
    <tag k="highway" v="tertiary"/>
    <tag k="name" v="Dowling Street"/>
  </way>
  <way id="81132845" version="6" timestamp="2012-02-05T14:12:17Z" uid="379724" user="bugman" changeset="10593856">
    <nd ref="945467563"/>
    <nd ref="708389128"/>
    <nd ref="1414757304"/>
    <nd ref="1414757280"/>
    <nd ref="571685329"/>
    <nd ref="1414742443"/>
    <nd ref="1414742462"/>
    <nd ref="1414742426"/>
    <nd ref="1618930071"/>
    <nd ref="1414742472"/>
    <nd ref="1414742471"/>
    <nd ref="1414742467"/>
    <nd ref="612083263"/>
    <nd ref="612083267"/>
    <nd ref="1414757319"/>
    <nd ref="612083271"/>
    <nd ref="612083274"/>
    <nd ref="612083277"/>
    <nd ref="612083280"/>
    <nd ref="612083282"/>
    <nd ref="612083285"/>
    <nd ref="612083288"/>
    <nd ref="612083290"/>
    <nd ref="612083293"/>
    <nd ref="612083296"/>
    <tag k="cycleway" v="lane"/>
    <tag k="highway" v="tertiary"/>
    <tag k="name" v="Dowling Street"/>
  </way>
  <way id="81132847" version="2" timestamp="2011-02-06T18:05:09Z" uid="4467" user="Rosscoe" changeset="7207150">
    <nd ref="619741933"/>
    <nd ref="706072525"/>
    <nd ref="619741932"/>
    <nd ref="619741931"/>
    <nd ref="673004417"/>
    <nd ref="1139484839"/>
    <nd ref="619565636"/>
    <tag k="highway" v="secondary"/>
    <tag k="name" v="C287 Learmonth Road"/>
    <tag k="oneway" v="yes"/>
    <tag k="ref" v="C287"/>
    <tag k="source" v="survey"/>
  </way>
  <way id="81132847" version="3" timestamp="2011-05-09T11:53:45Z" uid="46482" user="Leon K" changeset="8092098">
    <nd ref="619741933"/>
    <nd ref="706072525"/>
    <nd ref="619741932"/>
    <nd ref="619741931"/>
    <nd ref="673004417"/>
    <nd ref="1139484839"/>
    <nd ref="619565636"/>
    <tag k="highway" v="secondary"/>
    <tag k="name" v="Learmonth Road"/>
    <tag k="oneway" v="yes"/>
    <tag k="ref" v="C287"/>
    <tag k="source" v="survey"/>
  </way>
  <way id="81132847" version="4" timestamp="2012-02-02T14:29:13Z" uid="379724" user="bugman" changeset="10567888">
    <nd ref="619741933"/>
    <nd ref="706072525"/>
    <nd ref="619741932"/>
    <tag k="highway" v="secondary"/>
    <tag k="name" v="Learmonth Road"/>
    <tag k="oneway" v="yes"/>
    <tag k="ref" v="C287"/>
    <tag k="source" v="survey"/>
  </way>
  <way id="81132848" version="2" timestamp="2011-02-07T11:15:47Z" uid="4467" user="Rosscoe" changeset="7214726">
    <nd ref="945467539"/>
    <nd ref="209774304"/>
    <tag k="cycleway" v="lane"/>
    <tag k="highway" v="secondary"/>
    <tag k="name" v="Gillies Street North"/>
    <tag k="ref" v="C307"/>
    <tag k="source" v="nearmap"/>
  </way>
  <way id="81132855" version="2" timestamp="2011-02-07T11:15:33Z" uid="4467" user="Rosscoe" changeset="7214726">
    <nd ref="945467540"/>
    <nd ref="1140707722"/>
    <tag k="highway" v="tertiary"/>
    <tag k="name" v="Dowling Street"/>
  </way>
  <way id="81132857" version="2" timestamp="2011-02-07T11:14:49Z" uid="4467" user="Rosscoe" changeset="7214726">
    <nd ref="209774304"/>
    <nd ref="466624725"/>
    <nd ref="612083757"/>
    <nd ref="236430589"/>
    <nd ref="475132361"/>
    <tag k="highway" v="secondary"/>
    <tag k="name" v="Gillies Street North"/>
    <tag k="ref" v="C307"/>
    <tag k="source" v="nearmap"/>
  </way>
  <way id="81132858" version="2" timestamp="2011-02-07T11:11:58Z" uid="4467" user="Rosscoe" changeset="7214726">
    <nd ref="945467548"/>
    <nd ref="619590007"/>
    <nd ref="619590005"/>
    <tag k="highway" v="tertiary"/>
    <tag k="name" v="Dowling Street"/>
    <tag k="source" v="survey"/>
  </way>
  <way id="81132862" version="2" timestamp="2011-02-06T18:06:33Z" uid="4467" user="Rosscoe" changeset="7207150">
    <nd ref="945467541"/>
    <nd ref="673004425"/>
    <nd ref="619762166"/>
    <nd ref="619762167"/>
    <nd ref="673004420"/>
    <nd ref="672690993"/>
    <nd ref="619762169"/>
    <nd ref="672690987"/>
    <nd ref="619762174"/>
    <nd ref="619765739"/>
    <nd ref="619764508"/>
    <tag k="highway" v="secondary"/>
    <tag k="name" v="Gillies Street North"/>
    <tag k="oneway" v="yes"/>
    <tag k="ref" v="C307"/>
    <tag k="source" v="survey"/>
  </way>
  <way id="81132862" version="3" timestamp="2011-02-07T11:15:21Z" uid="4467" user="Rosscoe" changeset="7214726">
    <nd ref="945467541"/>
    <nd ref="673004425"/>
    <nd ref="619762166"/>
    <nd ref="619762167"/>
    <nd ref="673004420"/>
    <nd ref="672690993"/>
    <nd ref="619762169"/>
    <nd ref="672690987"/>
    <nd ref="1140707212"/>
    <nd ref="1140707306"/>
    <nd ref="619762174"/>
    <nd ref="619765739"/>
    <nd ref="619764508"/>
    <tag k="highway" v="secondary"/>
    <tag k="name" v="Gillies Street North"/>
    <tag k="oneway" v="yes"/>
    <tag k="ref" v="C307"/>
    <tag k="source" v="survey"/>
  </way>
  <way id="81132862" version="4" timestamp="2011-08-29T09:11:54Z" uid="379724" user="bugman" changeset="9155125">
    <nd ref="945467541"/>
    <nd ref="673004425"/>
    <nd ref="619762166"/>
    <nd ref="619762167"/>
    <nd ref="673004420"/>
    <nd ref="672690993"/>
    <nd ref="1416946873"/>
    <nd ref="619762169"/>
    <nd ref="672690987"/>
    <nd ref="1140707212"/>
    <nd ref="1140707306"/>
    <nd ref="619762174"/>
    <nd ref="619765739"/>
    <nd ref="619764508"/>
    <tag k="highway" v="secondary"/>
    <tag k="name" v="Gillies Street North"/>
    <tag k="oneway" v="yes"/>
    <tag k="ref" v="C307"/>
    <tag k="source" v="survey"/>
  </way>
  <way id="81132862" version="5" timestamp="2012-02-01T22:06:14Z" uid="379724" user="bugman" changeset="10563102">
    <nd ref="945467541"/>
    <nd ref="673004425"/>
    <nd ref="619762166"/>
    <nd ref="619762167"/>
    <nd ref="673004420"/>
    <nd ref="672690993"/>
    <nd ref="1416946873"/>
    <nd ref="619762169"/>
    <nd ref="672690987"/>
    <nd ref="1140707212"/>
    <nd ref="1140707306"/>
    <tag k="highway" v="secondary"/>
    <tag k="name" v="Gillies Street North"/>
    <tag k="oneway" v="yes"/>
    <tag k="ref" v="C307"/>
    <tag k="source" v="survey"/>
  </way>
  <way id="81132862" version="6" timestamp="2012-02-02T14:29:11Z" uid="379724" user="bugman" changeset="10567888">
    <nd ref="945467541"/>
    <nd ref="673004425"/>
    <nd ref="619762166"/>
    <nd ref="619762167"/>
    <tag k="highway" v="secondary"/>
    <tag k="name" v="Gillies Street North"/>
    <tag k="oneway" v="yes"/>
    <tag k="ref" v="C307"/>
    <tag k="source" v="survey"/>
  </way>
  <way id="81132862" version="7" timestamp="2012-02-05T10:04:15Z" uid="379724" user="bugman" changeset="10591857">
    <nd ref="945467541"/>
    <nd ref="673004425"/>
    <tag k="highway" v="secondary"/>
    <tag k="name" v="Gillies Street North"/>
    <tag k="oneway" v="yes"/>
    <tag k="ref" v="C307"/>
    <tag k="source" v="survey"/>
  </way>
  <way id="81132865" version="2" timestamp="2011-02-07T11:13:43Z" uid="4467" user="Rosscoe" changeset="7214726">
    <nd ref="945467562"/>
    <nd ref="1140707228"/>
    <nd ref="706144232"/>
    <nd ref="730760133"/>
    <nd ref="945467561"/>
    <tag k="cycleway" v="lane"/>
    <tag k="highway" v="secondary"/>
    <tag k="name" v="Gillies Street North"/>
    <tag k="ref" v="C307"/>
    <tag k="source" v="nearmap"/>
  </way>
  <way id="81132865" version="3" timestamp="2011-08-27T21:19:11Z" uid="379724" user="bugman" changeset="9141092">
    <nd ref="945467562"/>
    <nd ref="1140707228"/>
    <nd ref="1415343751"/>
    <nd ref="706144232"/>
    <nd ref="1415343772"/>
    <nd ref="730760133"/>
    <nd ref="945467561"/>
    <tag k="cycleway" v="lane"/>
    <tag k="highway" v="secondary"/>
    <tag k="name" v="Gillies Street North"/>
    <tag k="ref" v="C307"/>
    <tag k="source" v="nearmap"/>
  </way>
  <way id="81132866" version="2" timestamp="2011-02-07T11:15:38Z" uid="4467" user="Rosscoe" changeset="7214726">
    <nd ref="945467561"/>
    <nd ref="730760053"/>
    <nd ref="945467539"/>
    <tag k="highway" v="secondary"/>
    <tag k="name" v="Gillies Street North"/>
    <tag k="ref" v="C307"/>
    <tag k="source" v="nearmap"/>
  </way>
  <way id="81132866" version="3" timestamp="2012-02-04T09:41:09Z" uid="379724" user="bugman" changeset="10582347">
    <nd ref="945467561"/>
    <nd ref="730760053"/>
    <tag k="highway" v="secondary"/>
    <tag k="name" v="Gillies Street North"/>
    <tag k="ref" v="C307"/>
    <tag k="source" v="nearmap"/>
  </way>
  <way id="81132844" version="6" timestamp="2012-07-19T08:16:13Z" uid="722137" user="OSMF Redaction Account" changeset="12313472">
    <nd ref="673064343"/>
    <nd ref="706070141"/>
    <nd ref="706150290"/>
    <nd ref="673064347"/>
    <nd ref="673064350"/>
    <nd ref="1619142309"/>
    <nd ref="655119011"/>
    <tag k="cycleway" v="lane"/>
    <tag k="highway" v="secondary"/>
    <tag k="name" v="Gillies Street North"/>
    <tag k="oneway" v="yes"/>
    <tag k="ref" v="C307"/>
    <tag k="source" v="survey"/>
  </way>
  <way id="81132845" version="7" timestamp="2012-07-29T20:51:48Z" uid="379724" user="bugman" changeset="12540483">
    <nd ref="1140707362"/>
    <nd ref="945467563"/>
    <nd ref="708389128"/>
    <nd ref="1414757304"/>
    <nd ref="1414757280"/>
    <nd ref="571685329"/>
    <nd ref="1414742443"/>
    <nd ref="1414742462"/>
    <nd ref="1414742426"/>
    <nd ref="1618930071"/>
    <nd ref="1414742472"/>
    <nd ref="1414742471"/>
    <nd ref="1414742467"/>
    <nd ref="612083263"/>
    <nd ref="612083267"/>
    <nd ref="1414757319"/>
    <nd ref="612083271"/>
    <nd ref="612083274"/>
    <nd ref="612083277"/>
    <nd ref="612083280"/>
    <nd ref="612083282"/>
    <nd ref="612083285"/>
    <nd ref="612083288"/>
    <nd ref="612083290"/>
    <nd ref="612083293"/>
    <nd ref="612083296"/>
    <tag k="cycleway" v="lane"/>
    <tag k="highway" v="tertiary"/>
    <tag k="name" v="Dowling Street"/>
  </way>
  <way id="81132848" version="3" timestamp="2012-07-19T08:16:52Z" uid="722137" user="OSMF Redaction Account" changeset="12313472">
    <nd ref="945467539"/>
    <nd ref="209774304"/>
    <tag k="cycleway" v="lane"/>
    <tag k="highway" v="secondary"/>
    <tag k="name" v="Gillies Street North"/>
    <tag k="ref" v="C307"/>
  </way>
  <way id="81132855" version="3" timestamp="2012-07-19T08:18:46Z" uid="722137" user="OSMF Redaction Account" changeset="12313555"/>
  <way id="81132857" version="3" timestamp="2012-07-19T08:16:54Z" uid="722137" user="OSMF Redaction Account" changeset="12313472">
    <nd ref="209774304"/>
    <nd ref="466624725"/>
    <nd ref="612083757"/>
    <nd ref="236430589"/>
    <nd ref="475132361"/>
    <tag k="highway" v="secondary"/>
    <tag k="name" v="Gillies Street North"/>
    <tag k="ref" v="C307"/>
  </way>
  <way id="81132858" version="3" timestamp="2012-07-19T08:16:08Z" uid="722137" user="OSMF Redaction Account" changeset="12313472">
    <nd ref="945467548"/>
    <nd ref="619590007"/>
    <tag k="highway" v="tertiary"/>
    <tag k="name" v="Dowling Street"/>
    <tag k="source" v="survey"/>
  </way>
  <way id="81132862" version="8" timestamp="2012-07-19T08:17:56Z" uid="722137" user="OSMF Redaction Account" changeset="12313534"/>
  <way id="81132865" version="4" timestamp="2012-07-19T08:16:43Z" uid="722137" user="OSMF Redaction Account" changeset="12313472">
    <nd ref="945467562"/>
    <nd ref="1415343751"/>
    <nd ref="706144232"/>
    <nd ref="1415343772"/>
    <nd ref="730760133"/>
    <nd ref="945467561"/>
    <tag k="cycleway" v="lane"/>
    <tag k="highway" v="secondary"/>
    <tag k="name" v="Gillies Street North"/>
    <tag k="ref" v="C307"/>
  </way>
  <way id="81132866" version="4" timestamp="2012-07-19T08:16:51Z" uid="722137" user="OSMF Redaction Account" changeset="12313472">
    <nd ref="945467561"/>
    <nd ref="730760053"/>
    <tag k="highway" v="secondary"/>
    <tag k="name" v="Gillies Street North"/>
    <tag k="ref" v="C307"/>
  </way>
</osm>
