<?xml version='1.0' encoding='UTF-8'?>
<osm version="0.6" generator="libosmium/2.20.0">
  <way id="8144124" version="1" timestamp="2007-06-27T18:49:52Z" uid="8328" user="benpre" changeset="117279">
    <nd ref="368260"/>
    <nd ref="1237756"/>
    <nd ref="368279"/>
    <tag k="created_by" v="JOSM"/>
    <tag k="highway" v="residential"/>
    <tag k="name" v="Rathenauplatz"/>
    <tag k="oneway" v="true"/>
  </way>
  <way id="8144124" version="2" timestamp="2008-09-24T20:42:50Z" uid="56565" user="amellema" changeset="692323">
    <nd ref="368260"/>
    <nd ref="1237756"/>
    <nd ref="368279"/>
    <tag k="created_by" v="Potlatch 0.10b"/>
    <tag k="highway" v="residential"/>
    <tag k="name" v="Rathenauplatz"/>
    <tag k="oneway" v="yes"/>
  </way>
  <way id="8144124" version="3" timestamp="2009-05-12T20:14:18Z" uid="62510" user="Tuttle" changeset="1169283">
    <nd ref="368260"/>
    <nd ref="1237756"/>
    <nd ref="368279"/>
    <tag k="created_by" v="Potlatch 0.10b"/>
    <tag k="cycleway" v="opposite"/>
    <tag k="highway" v="residential"/>
    <tag k="name" v="Rathenauplatz"/>
    <tag k="oneway" v="yes"/>
  </way>
  <way id="8144124" version="4" timestamp="2009-06-26T15:27:37Z" uid="6390" user="grenzdebil_bonn" changeset="1642041">
    <nd ref="368260"/>
    <nd ref="1237756"/>
    <nd ref="368279"/>
    <tag k="cycleway" v="opposite"/>
    <tag k="highway" v="residential"/>
    <tag k="maxspeed" v="30"/>
    <tag k="name" v="Rathenauplatz"/>
    <tag k="oneway" v="yes"/>
  </way>
  <way id="8144124" version="5" timestamp="2012-02-12T12:51:33Z" uid="6390" user="grenzdebil_bonn" changeset="10662339"/>
  <way id="8144125" version="1" timestamp="2007-06-27T18:49:52Z" uid="8328" user="benpre" changeset="117279">
    <nd ref="368260"/>
    <nd ref="368259"/>
    <tag k="created_by" v="JOSM"/>
    <tag k="highway" v="residential"/>
    <tag k="name" v="Rathenauplatz"/>
    <tag k="oneway" v="true"/>
  </way>
  <way id="8144125" version="2" timestamp="2008-09-26T08:12:57Z" uid="56565" user="amellema" changeset="698713">
    <nd ref="368260"/>
    <nd ref="368259"/>
    <tag k="created_by" v="Potlatch 0.10c"/>
    <tag k="highway" v="residential"/>
    <tag k="name" v="Rathenauplatz"/>
    <tag k="oneway" v="yes"/>
  </way>
  <way id="8144125" version="3" timestamp="2009-05-12T20:14:19Z" uid="62510" user="Tuttle" changeset="1169283">
    <nd ref="368260"/>
    <nd ref="368259"/>
    <tag k="created_by" v="Potlatch 0.10c"/>
    <tag k="cycleway" v="opposite"/>
    <tag k="highway" v="residential"/>
    <tag k="name" v="Rathenauplatz"/>
    <tag k="oneway" v="yes"/>
  </way>
  <way id="8144125" version="4" timestamp="2009-06-26T15:27:37Z" uid="6390" user="grenzdebil_bonn" changeset="1642041">
    <nd ref="368260"/>
    <nd ref="368259"/>
    <tag k="cycleway" v="opposite"/>
    <tag k="highway" v="residential"/>
    <tag k="maxspeed" v="30"/>
    <tag k="name" v="Rathenauplatz"/>
    <tag k="oneway" v="yes"/>
  </way>
  <way id="8144125" version="5" timestamp="2012-02-12T12:51:33Z" uid="6390" user="grenzdebil_bonn" changeset="10662339"/>
  <way id="8144126" version="1" timestamp="2007-06-27T18:49:52Z" uid="8328" user="benpre" changeset="117279">
    <nd ref="359614"/>
    <nd ref="368259"/>
    <tag k="created_by" v="JOSM"/>
    <tag k="highway" v="residential"/>
    <tag k="name" v="Rathenauplatz"/>
    <tag k="oneway" v="true"/>
  </way>
  <way id="8144126" version="2" timestamp="2008-09-24T20:42:45Z" uid="56565" user="amellema" changeset="692323">
    <nd ref="359614"/>
    <nd ref="368259"/>
    <tag k="created_by" v="Potlatch 0.10b"/>
    <tag k="highway" v="residential"/>
    <tag k="name" v="Rathenauplatz"/>
    <tag k="oneway" v="yes"/>
  </way>
  <way id="8144126" version="3" timestamp="2009-05-12T20:14:18Z" uid="62510" user="Tuttle" changeset="1169283">
    <nd ref="359614"/>
    <nd ref="368259"/>
    <tag k="created_by" v="Potlatch 0.10b"/>
    <tag k="cycleway" v="opposite"/>
    <tag k="highway" v="residential"/>
    <tag k="name" v="Rathenauplatz"/>
    <tag k="oneway" v="yes"/>
  </way>
  <way id="8144126" version="4" timestamp="2009-06-26T15:27:36Z" uid="6390" user="grenzdebil_bonn" changeset="1642041">
    <nd ref="359614"/>
    <nd ref="368259"/>
    <tag k="cycleway" v="opposite"/>
    <tag k="highway" v="residential"/>
    <tag k="maxspeed" v="30"/>
    <tag k="name" v="Rathenauplatz"/>
    <tag k="oneway" v="yes"/>
  </way>
  <way id="8144126" version="5" timestamp="2010-09-17T14:40:08Z" uid="6390" user="grenzdebil_bonn" changeset="5804309">
    <nd ref="359614"/>
    <nd ref="915606641"/>
    <nd ref="915606639"/>
    <nd ref="368259"/>
    <tag k="cycleway" v="opposite"/>
    <tag k="highway" v="residential"/>
    <tag k="maxspeed" v="30"/>
    <tag k="name" v="Rathenauplatz"/>
    <tag k="oneway" v="yes"/>
  </way>
  <way id="8144126" version="6" timestamp="2012-02-12T12:51:34Z" uid="6390" user="grenzdebil_bonn" changeset="10662339"/>
  <way id="8144127" version="1" timestamp="2007-06-27T18:49:52Z" uid="8328" user="benpre" changeset="117279">
    <nd ref="368262"/>
    <nd ref="359612"/>
    <tag k="created_by" v="JOSM"/>
    <tag k="highway" v="residential"/>
    <tag k="name" v="Rathenauplatz"/>
    <tag k="oneway" v="true"/>
  </way>
  <way id="8144127" version="2" timestamp="2008-09-24T20:42:54Z" uid="56565" user="amellema" changeset="692323">
    <nd ref="368262"/>
    <nd ref="359612"/>
    <tag k="created_by" v="Potlatch 0.10b"/>
    <tag k="highway" v="residential"/>
    <tag k="name" v="Rathenauplatz"/>
    <tag k="oneway" v="yes"/>
  </way>
  <way id="8144127" version="3" timestamp="2009-05-12T20:37:39Z" uid="62510" user="Tuttle" changeset="1169574">
    <nd ref="368262"/>
    <nd ref="359612"/>
    <tag k="cycleway" v="opposite"/>
    <tag k="highway" v="residential"/>
    <tag k="name" v="Rathenauplatz"/>
    <tag k="oneway" v="yes"/>
  </way>
  <way id="8144127" version="4" timestamp="2009-06-26T15:27:36Z" uid="6390" user="grenzdebil_bonn" changeset="1642041">
    <nd ref="368262"/>
    <nd ref="359612"/>
    <tag k="cycleway" v="opposite"/>
    <tag k="highway" v="residential"/>
    <tag k="maxspeed" v="30"/>
    <tag k="name" v="Rathenauplatz"/>
    <tag k="oneway" v="yes"/>
  </way>
  <way id="8144127" version="5" timestamp="2012-02-12T12:51:34Z" uid="6390" user="grenzdebil_bonn" changeset="10662339"/>
  <way id="8144282" version="5" timestamp="2008-10-23T21:49:23Z" uid="49111" user="Markus B" changeset="546273"/>
  <way id="8144294" version="4" timestamp="2008-07-05T11:33:09Z" uid="6975" user="ulfl" changeset="398437">
    <nd ref="26624610"/>
    <nd ref="26941411"/>
    <nd ref="26624611"/>
    <nd ref="26964700"/>
    <nd ref="26964701"/>
    <nd ref="26964699"/>
    <nd ref="26624610"/>
    <tag k="leisure" v="sports_centre"/>
    <tag k="sport" v="tennis"/>
  </way>
  <way id="8144297" version="14" timestamp="2010-04-12T10:19:12Z" uid="49111" user="Markus B" changeset="4402920">
    <nd ref="26964828"/>
    <nd ref="478497311"/>
    <nd ref="694121657"/>
    <nd ref="26964829"/>
    <nd ref="694121658"/>
    <nd ref="26964830"/>
    <nd ref="26964831"/>
    <nd ref="420746583"/>
    <nd ref="420746576"/>
    <nd ref="26964832"/>
    <nd ref="26964833"/>
    <nd ref="414155290"/>
    <nd ref="26964834"/>
    <nd ref="694121629"/>
    <nd ref="26964835"/>
    <nd ref="26964836"/>
    <nd ref="309275788"/>
    <nd ref="26964837"/>
    <nd ref="309068587"/>
    <nd ref="309068589"/>
    <nd ref="26964839"/>
    <nd ref="26964840"/>
    <nd ref="25235772"/>
    <tag k="highway" v="secondary"/>
    <tag k="name" v="Markgrafenstraße"/>
    <tag k="ref" v="St 2242"/>
  </way>
  <way id="8144297" version="15" timestamp="2010-09-07T15:03:17Z" uid="41113" user="cycling_zno" changeset="5708814">
    <nd ref="26964828"/>
    <nd ref="478497311"/>
    <nd ref="694121657"/>
    <nd ref="26964829"/>
    <nd ref="694121658"/>
    <nd ref="26964830"/>
    <nd ref="26964831"/>
    <nd ref="420746583"/>
    <nd ref="420746576"/>
    <nd ref="26964832"/>
    <nd ref="26964833"/>
    <nd ref="414155290"/>
    <tag k="highway" v="secondary"/>
    <tag k="name" v="Markgrafenstraße"/>
    <tag k="ref" v="St 2242"/>
  </way>
  <way id="8144297" version="16" timestamp="2010-09-07T15:48:08Z" uid="41113" user="cycling_zno" changeset="5709191">
    <nd ref="26964828"/>
    <nd ref="478497311"/>
    <tag k="highway" v="secondary"/>
    <tag k="name" v="Markgrafenstraße"/>
    <tag k="ref" v="St 2242"/>
  </way>
  <way id="8144411" version="2" timestamp="2007-12-28T21:02:59Z" uid="3451" user="sascha_silbe" changeset="453094">
    <nd ref="28150362"/>
    <nd ref="28150382"/>
    <nd ref="28150383"/>
    <nd ref="28150384"/>
    <nd ref="36453640"/>
    <nd ref="26977657"/>
    <nd ref="26977659"/>
    <nd ref="26977660"/>
    <nd ref="28150397"/>
    <nd ref="28150398"/>
    <nd ref="28150399"/>
    <nd ref="26977661"/>
    <nd ref="28150400"/>
    <nd ref="26977662"/>
    <nd ref="28150396"/>
    <nd ref="28150409"/>
    <nd ref="26977663"/>
    <nd ref="28150394"/>
    <nd ref="28150395"/>
    <tag k="created_by" v="JOSM"/>
    <tag k="highway" v="secondary"/>
    <tag k="name" v="Heuchelheimer Straße"/>
    <tag k="oneway" v="true"/>
  </way>
  <way id="8144411" version="3" timestamp="2008-03-08T08:56:04Z" uid="18141" user="Hobby Navigator" changeset="287929">
    <nd ref="28150362"/>
    <nd ref="28150382"/>
    <nd ref="28150383"/>
    <nd ref="28150384"/>
    <nd ref="36453640"/>
    <nd ref="26977657"/>
    <nd ref="26977659"/>
    <nd ref="26977660"/>
    <nd ref="28150397"/>
    <nd ref="28150398"/>
    <nd ref="28150399"/>
    <nd ref="26977661"/>
    <nd ref="28150400"/>
    <nd ref="26977662"/>
    <nd ref="28150396"/>
    <nd ref="28150409"/>
    <nd ref="26977663"/>
    <nd ref="28150394"/>
    <nd ref="28150395"/>
    <tag k="created_by" v="Potlatch 0.7b"/>
    <tag k="highway" v="secondary"/>
    <tag k="name" v="Heuchelheimer Straße"/>
    <tag k="oneway" v="true"/>
  </way>
  <way id="8144411" version="4" timestamp="2008-03-08T09:41:35Z" uid="18141" user="Hobby Navigator" changeset="287929">
    <nd ref="28150362"/>
    <nd ref="28150382"/>
    <nd ref="28150383"/>
    <nd ref="28150384"/>
    <nd ref="36453640"/>
    <nd ref="26977657"/>
    <nd ref="26977659"/>
    <nd ref="26977660"/>
    <nd ref="28150397"/>
    <nd ref="28150398"/>
    <nd ref="28150399"/>
    <nd ref="26977661"/>
    <nd ref="28150400"/>
    <nd ref="26977662"/>
    <nd ref="28150396"/>
    <nd ref="28150409"/>
    <nd ref="26977663"/>
    <tag k="created_by" v="Potlatch 0.7b"/>
    <tag k="highway" v="secondary"/>
    <tag k="name" v="Heuchelheimer Straße"/>
    <tag k="oneway" v="true"/>
  </way>
  <way id="8144411" version="5" timestamp="2008-08-13T15:59:38Z" uid="57645" user="KartoGrapHiti" changeset="222647">
    <nd ref="28150362"/>
    <nd ref="28150382"/>
    <nd ref="28150383"/>
    <nd ref="28150384"/>
    <nd ref="36453640"/>
    <nd ref="26977657"/>
    <nd ref="26977659"/>
    <nd ref="26977660"/>
    <nd ref="28150397"/>
    <nd ref="28150398"/>
    <nd ref="28150399"/>
    <nd ref="26977661"/>
    <nd ref="28150400"/>
    <nd ref="26977662"/>
    <nd ref="28150396"/>
    <nd ref="28150409"/>
    <nd ref="26977663"/>
    <nd ref="287638711"/>
    <nd ref="28150394"/>
    <nd ref="279940901"/>
    <tag k="bridge" v="yes"/>
    <tag k="created_by" v="Potlatch 0.10b"/>
    <tag k="highway" v="secondary"/>
    <tag k="layer" v="1"/>
    <tag k="name" v="Heuchelheimer Straße"/>
    <tag k="oneway" v="true"/>
  </way>
  <way id="8144411" version="6" timestamp="2008-08-13T16:00:17Z" uid="57645" user="KartoGrapHiti" changeset="222647">
    <nd ref="28150362"/>
    <nd ref="28150382"/>
    <nd ref="28150383"/>
    <nd ref="28150384"/>
    <nd ref="36453640"/>
    <nd ref="26977657"/>
    <nd ref="26977659"/>
    <nd ref="26977660"/>
    <nd ref="28150397"/>
    <nd ref="28150398"/>
    <nd ref="28150399"/>
    <nd ref="26977661"/>
    <nd ref="28150400"/>
    <nd ref="26977662"/>
    <nd ref="28150396"/>
    <nd ref="28150409"/>
    <nd ref="26977663"/>
    <nd ref="287638711"/>
    <nd ref="287638913"/>
    <nd ref="28150394"/>
    <nd ref="279940901"/>
    <tag k="bridge" v="yes"/>
    <tag k="created_by" v="Potlatch 0.10b"/>
    <tag k="highway" v="secondary"/>
    <tag k="layer" v="1"/>
    <tag k="name" v="Heuchelheimer Straße"/>
    <tag k="oneway" v="true"/>
  </way>
  <way id="8144411" version="7" timestamp="2008-08-13T16:00:41Z" uid="57645" user="KartoGrapHiti" changeset="222647">
    <nd ref="28150362"/>
    <nd ref="28150382"/>
    <nd ref="28150383"/>
    <nd ref="28150384"/>
    <nd ref="36453640"/>
    <nd ref="26977657"/>
    <nd ref="26977659"/>
    <nd ref="26977660"/>
    <nd ref="28150397"/>
    <nd ref="28150398"/>
    <nd ref="28150399"/>
    <nd ref="26977661"/>
    <nd ref="28150400"/>
    <nd ref="26977662"/>
    <nd ref="28150396"/>
    <nd ref="28150409"/>
    <nd ref="26977663"/>
    <tag k="bridge" v="yes"/>
    <tag k="created_by" v="Potlatch 0.10b"/>
    <tag k="highway" v="secondary"/>
    <tag k="layer" v="1"/>
    <tag k="name" v="Heuchelheimer Straße"/>
    <tag k="oneway" v="true"/>
  </way>
  <way id="8144411" version="8" timestamp="2008-08-13T16:00:47Z" uid="57645" user="KartoGrapHiti" changeset="222647">
    <nd ref="28150362"/>
    <nd ref="28150382"/>
    <nd ref="28150383"/>
    <nd ref="28150384"/>
    <nd ref="36453640"/>
    <nd ref="26977657"/>
    <nd ref="26977659"/>
    <nd ref="26977660"/>
    <nd ref="28150397"/>
    <nd ref="28150398"/>
    <nd ref="28150399"/>
    <nd ref="26977661"/>
    <nd ref="28150400"/>
    <nd ref="26977662"/>
    <nd ref="28150396"/>
    <nd ref="28150409"/>
    <nd ref="26977663"/>
    <tag k="created_by" v="Potlatch 0.10b"/>
    <tag k="highway" v="secondary"/>
    <tag k="layer" v="1"/>
    <tag k="name" v="Heuchelheimer Straße"/>
    <tag k="oneway" v="true"/>
  </way>
  <way id="8144411" version="9" timestamp="2008-08-13T16:02:25Z" uid="57645" user="KartoGrapHiti" changeset="222647">
    <nd ref="28150362"/>
    <nd ref="28150382"/>
    <nd ref="28150383"/>
    <nd ref="28150384"/>
    <nd ref="36453640"/>
    <nd ref="26977657"/>
    <nd ref="26977659"/>
    <nd ref="26977660"/>
    <nd ref="28150397"/>
    <nd ref="28150398"/>
    <nd ref="28150399"/>
    <nd ref="26977661"/>
    <nd ref="28150400"/>
    <nd ref="26977662"/>
    <nd ref="28150396"/>
    <nd ref="28150409"/>
    <nd ref="26977663"/>
    <tag k="bicycle" v="no"/>
    <tag k="created_by" v="Potlatch 0.10b"/>
    <tag k="highway" v="secondary"/>
    <tag k="layer" v="1"/>
    <tag k="name" v="Heuchelheimer Straße"/>
    <tag k="oneway" v="true"/>
  </way>
  <way id="8144411" version="10" timestamp="2008-08-24T10:04:06Z" uid="6879" user="Longbow4u" changeset="389844">
    <nd ref="28150362"/>
    <nd ref="28150382"/>
    <nd ref="28150383"/>
    <nd ref="28150384"/>
    <nd ref="36453640"/>
    <nd ref="26977657"/>
    <nd ref="26977659"/>
    <nd ref="26977660"/>
    <nd ref="28150397"/>
    <nd ref="28150398"/>
    <nd ref="28150399"/>
    <nd ref="26977661"/>
    <nd ref="28150400"/>
    <nd ref="26977662"/>
    <nd ref="28150396"/>
    <nd ref="28150409"/>
    <nd ref="26977663"/>
    <tag k="bicycle" v="no"/>
    <tag k="created_by" v="Potlatch 0.10b"/>
    <tag k="highway" v="secondary"/>
    <tag k="layer" v="1"/>
    <tag k="name" v="Heuchelheimer Straße"/>
    <tag k="oneway" v="true"/>
    <tag k="ref" v="L 3020"/>
  </way>
  <way id="8144411" version="11" timestamp="2008-09-12T21:23:32Z" uid="57645" user="KartoGrapHiti" changeset="617072">
    <nd ref="28150362"/>
    <nd ref="28150382"/>
    <nd ref="28150383"/>
    <nd ref="28150384"/>
    <nd ref="36453640"/>
    <nd ref="26977657"/>
    <nd ref="26977659"/>
    <nd ref="26977660"/>
    <nd ref="28150397"/>
    <nd ref="28150398"/>
    <nd ref="28150399"/>
    <nd ref="26977661"/>
    <nd ref="28150400"/>
    <nd ref="26977662"/>
    <nd ref="28150396"/>
    <nd ref="28150409"/>
    <nd ref="26977663"/>
    <tag k="bicycle" v="no"/>
    <tag k="created_by" v="Potlatch 0.10b"/>
    <tag k="highway" v="secondary"/>
    <tag k="layer" v="1"/>
    <tag k="name" v="Heuchelheimer Straße"/>
    <tag k="oneway" v="true"/>
    <tag k="ref" v="L 3020"/>
  </way>
  <way id="8144411" version="12" timestamp="2008-09-23T18:10:44Z" uid="49317" user="Gary68" changeset="686499">
    <nd ref="28150362"/>
    <nd ref="28150382"/>
    <nd ref="28150383"/>
    <nd ref="28150384"/>
    <nd ref="36453640"/>
    <nd ref="26977657"/>
    <nd ref="26977659"/>
    <nd ref="26977660"/>
    <nd ref="28150397"/>
    <nd ref="28150398"/>
    <nd ref="28150399"/>
    <nd ref="26977661"/>
    <nd ref="28150400"/>
    <nd ref="26977662"/>
    <nd ref="28150396"/>
    <nd ref="28150409"/>
    <nd ref="26977663"/>
    <tag k="bicycle" v="no"/>
    <tag k="created_by" v="Potlatch 0.10b"/>
    <tag k="highway" v="secondary"/>
    <tag k="layer" v="0"/>
    <tag k="name" v="Heuchelheimer Straße"/>
    <tag k="oneway" v="true"/>
    <tag k="ref" v="L 3020"/>
  </way>
  <way id="8144411" version="13" timestamp="2008-11-12T22:14:09Z" uid="57645" user="KartoGrapHiti" changeset="740379">
    <nd ref="28150362"/>
    <nd ref="28150382"/>
    <nd ref="28150383"/>
    <nd ref="28150384"/>
    <nd ref="36453640"/>
    <nd ref="26977657"/>
    <nd ref="26977659"/>
    <nd ref="26977660"/>
    <nd ref="28150397"/>
    <nd ref="28150398"/>
    <nd ref="28150399"/>
    <nd ref="26977661"/>
    <nd ref="28150400"/>
    <nd ref="26977662"/>
    <nd ref="28150396"/>
    <nd ref="28150409"/>
    <nd ref="26977663"/>
    <tag k="bicycle" v="no"/>
    <tag k="created_by" v="Potlatch 0.10b"/>
    <tag k="highway" v="secondary"/>
    <tag k="layer" v="0"/>
    <tag k="name" v="Heuchelheimer Straße"/>
    <tag k="oneway" v="true"/>
    <tag k="postal_code" v="35398"/>
    <tag k="ref" v="L 3020"/>
  </way>
  <way id="8144411" version="14" timestamp="2009-01-07T15:29:29Z" uid="57645" user="KartoGrapHiti" changeset="754048">
    <nd ref="28150362"/>
    <nd ref="28150382"/>
    <nd ref="28150383"/>
    <nd ref="28150384"/>
    <nd ref="36453640"/>
    <nd ref="26977657"/>
    <tag k="bicycle" v="no"/>
    <tag k="created_by" v="Potlatch 0.10f"/>
    <tag k="highway" v="secondary"/>
    <tag k="layer" v="0"/>
    <tag k="name" v="Heuchelheimer Straße"/>
    <tag k="oneway" v="true"/>
    <tag k="postal_code" v="35398"/>
    <tag k="ref" v="L 3020"/>
  </way>
  <way id="8144411" version="15" timestamp="2009-01-14T21:01:29Z" uid="57645" user="KartoGrapHiti" changeset="788403">
    <nd ref="28150362"/>
    <nd ref="28150382"/>
    <nd ref="28150383"/>
    <nd ref="28150384"/>
    <nd ref="36453640"/>
    <nd ref="26977657"/>
    <tag k="bicycle" v="no"/>
    <tag k="created_by" v="Potlatch 0.10f"/>
    <tag k="highway" v="secondary"/>
    <tag k="layer" v="0"/>
    <tag k="name" v="Heuchelheimer Straße"/>
    <tag k="oneway" v="true"/>
    <tag k="postal_code" v="35398"/>
    <tag k="ref" v="L 3020"/>
  </way>
  <way id="8144411" version="16" timestamp="2009-04-17T00:11:55Z" uid="103885" user="logicbot" changeset="603450">
    <nd ref="28150362"/>
    <nd ref="28150382"/>
    <nd ref="28150383"/>
    <nd ref="28150384"/>
    <nd ref="36453640"/>
    <nd ref="26977657"/>
    <tag k="bicycle" v="no"/>
    <tag k="created_by" v="Potlatch 0.10f"/>
    <tag k="highway" v="secondary"/>
    <tag k="layer" v="0"/>
    <tag k="name" v="Heuchelheimer Straße"/>
    <tag k="oneway" v="yes"/>
    <tag k="postal_code" v="35398"/>
    <tag k="ref" v="L 3020"/>
  </way>
  <way id="8144411" version="17" timestamp="2009-11-05T12:41:10Z" uid="57645" user="KartoGrapHiti" changeset="3040129">
    <nd ref="28150362"/>
    <nd ref="28150382"/>
    <nd ref="28150383"/>
    <nd ref="28150384"/>
    <nd ref="556347204"/>
    <nd ref="36453640"/>
    <nd ref="26977657"/>
    <tag k="bicycle" v="no"/>
    <tag k="highway" v="secondary"/>
    <tag k="layer" v="0"/>
    <tag k="name" v="Heuchelheimer Straße"/>
    <tag k="oneway" v="yes"/>
    <tag k="postal_code" v="35398"/>
    <tag k="ref" v="L 3020"/>
  </way>
  <way id="8144411" version="18" timestamp="2011-09-14T17:05:19Z" uid="57645" user="KartoGrapHiti" changeset="9301206">
    <nd ref="28150362"/>
    <nd ref="28150382"/>
    <nd ref="28150383"/>
    <nd ref="28150384"/>
    <nd ref="556347204"/>
    <nd ref="36453640"/>
    <nd ref="26977657"/>
    <tag k="bicycle" v="no"/>
    <tag k="highway" v="secondary"/>
    <tag k="layer" v="0"/>
    <tag k="maxspeed" v="70"/>
    <tag k="name" v="Heuchelheimer Straße"/>
    <tag k="oneway" v="yes"/>
    <tag k="postal_code" v="35398"/>
    <tag k="ref" v="L 3020"/>
  </way>
  <way id="8144411" version="19" timestamp="2011-10-30T12:32:28Z" uid="57645" user="KartoGrapHiti" changeset="9693186">
    <nd ref="28150362"/>
    <nd ref="28150382"/>
    <nd ref="28150383"/>
    <nd ref="28150384"/>
    <nd ref="556347204"/>
    <nd ref="36453640"/>
    <nd ref="26977657"/>
    <tag k="bicycle" v="no"/>
    <tag k="footway" v="no"/>
    <tag k="highway" v="secondary"/>
    <tag k="layer" v="0"/>
    <tag k="maxspeed" v="70"/>
    <tag k="name" v="Heuchelheimer Straße"/>
    <tag k="oneway" v="yes"/>
    <tag k="postal_code" v="35398"/>
    <tag k="ref" v="L 3020"/>
  </way>
  <way id="8144520" version="2" timestamp="2007-12-25T17:19:06Z" uid="8328" user="benpre" changeset="422474">
    <nd ref="28271947"/>
    <nd ref="28256006"/>
    <nd ref="28256008"/>
    <tag k="created_by" v="JOSM"/>
    <tag k="highway" v="secondary"/>
    <tag k="name" v="Wißmarer Weg"/>
  </way>
  <way id="8144520" version="3" timestamp="2008-11-15T23:15:07Z" uid="77292" user="dgdg" changeset="754434">
    <nd ref="28256003"/>
    <nd ref="28256006"/>
    <nd ref="28256008"/>
    <tag k="created_by" v="Potlatch 0.10f"/>
    <tag k="highway" v="secondary"/>
    <tag k="name" v="Wißmarer Weg"/>
  </way>
  <way id="8144520" version="4" timestamp="2009-01-07T14:37:30Z" uid="57645" user="KartoGrapHiti" changeset="754048"/>
  <way id="8144521" version="2" timestamp="2007-12-25T17:19:05Z" uid="8328" user="benpre" changeset="422474">
    <nd ref="28256008"/>
    <nd ref="28256011"/>
    <tag k="created_by" v="JOSM"/>
    <tag k="highway" v="secondary"/>
    <tag k="name" v="Wißmarer Weg"/>
  </way>
  <way id="8144521" version="3" timestamp="2010-11-12T13:04:44Z" uid="57645" user="KartoGrapHiti" changeset="6350595">
    <nd ref="28256008"/>
    <nd ref="28256011"/>
    <tag k="highway" v="secondary"/>
    <tag k="name" v="Wißmarer Weg"/>
  </way>
  <way id="8144521" version="4" timestamp="2010-11-14T20:18:38Z" uid="57645" user="KartoGrapHiti" changeset="6370580">
    <nd ref="28256008"/>
    <nd ref="28256011"/>
    <tag k="highway" v="secondary"/>
    <tag k="maxspeed" v="50"/>
    <tag k="name" v="Wißmarer Weg"/>
  </way>
  <way id="8144521" version="5" timestamp="2011-03-19T23:21:17Z" uid="57645" user="KartoGrapHiti" changeset="7611465">
    <nd ref="28256008"/>
    <nd ref="28256011"/>
    <tag k="highway" v="tertiary"/>
    <tag k="maxspeed" v="50"/>
    <tag k="name" v="Wißmarer Weg"/>
  </way>
  <way id="8144534" version="2" timestamp="2008-06-01T00:09:30Z" uid="34428" user="usm78-gis" changeset="8158"/>
  <way id="8144544" version="2" timestamp="2008-06-01T00:09:43Z" uid="34428" user="usm78-gis" changeset="8158">
    <nd ref="15501535"/>
    <nd ref="15501489"/>
    <nd ref="15501512"/>
    <nd ref="15501519"/>
    <tag k="created_by" v="JOSM"/>
    <tag k="highway" v="service"/>
  </way>
  <way id="8144544" version="3" timestamp="2008-06-01T00:09:57Z" uid="34428" user="usm78-gis" changeset="8158">
    <nd ref="15501535"/>
    <nd ref="15501489"/>
    <nd ref="15501512"/>
    <nd ref="15501519"/>
    <tag k="created_by" v="JOSM"/>
    <tag k="highway" v="service"/>
  </way>
  <way id="8144544" version="4" timestamp="2008-06-01T00:10:11Z" uid="34428" user="usm78-gis" changeset="8158">
    <nd ref="15501535"/>
    <nd ref="15501489"/>
    <nd ref="15501512"/>
    <nd ref="15501519"/>
    <tag k="created_by" v="JOSM"/>
    <tag k="highway" v="service"/>
  </way>
  <way id="8144544" version="5" timestamp="2008-06-09T00:23:22Z" uid="34428" user="usm78-gis" changeset="113273">
    <nd ref="15501535"/>
    <nd ref="15501489"/>
    <tag k="created_by" v="Potlatch 0.9c"/>
    <tag k="highway" v="service"/>
  </way>
  <way id="8144544" version="6" timestamp="2008-06-09T00:23:37Z" uid="34428" user="usm78-gis" changeset="113273">
    <nd ref="15501535"/>
    <nd ref="15501489"/>
    <tag k="created_by" v="Potlatch 0.9c"/>
    <tag k="highway" v="service"/>
  </way>
  <way id="8144544" version="7" timestamp="2011-10-13T16:58:09Z" uid="18776" user="Max Vasilev" changeset="9548524">
    <nd ref="15501535"/>
    <nd ref="15501489"/>
    <tag k="highway" v="service"/>
  </way>
  <way id="8144544" version="8" timestamp="2012-02-23T20:01:29Z" uid="519501" user="parukhin" changeset="10771935">
    <nd ref="15501535"/>
    <nd ref="1644730366"/>
    <tag k="highway" v="service"/>
  </way>
  <way id="8144545" version="2" timestamp="2008-06-01T00:10:25Z" uid="34428" user="usm78-gis" changeset="8158">
    <nd ref="15501479"/>
    <nd ref="15501489"/>
    <tag k="created_by" v="JOSM"/>
    <tag k="highway" v="service"/>
  </way>
  <way id="8144545" version="3" timestamp="2011-10-13T19:06:39Z" uid="18776" user="Max Vasilev" changeset="9548524">
    <nd ref="15501479"/>
    <nd ref="15501489"/>
    <tag k="highway" v="service"/>
  </way>
  <way id="8144546" version="2" timestamp="2008-06-01T00:10:42Z" uid="34428" user="usm78-gis" changeset="8158">
    <nd ref="11149492"/>
    <nd ref="15501512"/>
    <tag k="created_by" v="JOSM"/>
    <tag k="highway" v="service"/>
  </way>
  <way id="8144546" version="3" timestamp="2008-06-09T00:23:00Z" uid="34428" user="usm78-gis" changeset="113273"/>
  <way id="8144580" version="2" timestamp="2008-06-01T00:11:12Z" uid="34428" user="usm78-gis" changeset="8158">
    <nd ref="15224564"/>
    <nd ref="2742515"/>
    <tag k="created_by" v="JOSM"/>
    <tag k="highway" v="trunk"/>
    <tag k="name" v="M20"/>
  </way>
  <way id="8144580" version="3" timestamp="2008-08-10T12:01:58Z" uid="19359" user="Oklums" changeset="173672">
    <nd ref="15224564"/>
    <nd ref="2742515"/>
    <tag k="created_by" v="JOSM"/>
    <tag k="highway" v="trunk"/>
    <tag k="int_ref" v="E95"/>
    <tag k="name" v="E95"/>
    <tag k="ref" v="M20"/>
  </way>
  <way id="8144580" version="4" timestamp="2009-06-02T13:29:47Z" uid="69864" user="Ivan Komarov" changeset="1404044">
    <nd ref="15224564"/>
    <nd ref="2742515"/>
    <tag k="created_by" v="JOSM"/>
    <tag k="highway" v="trunk"/>
    <tag k="int_ref" v="E95"/>
    <tag k="name" v="E95"/>
    <tag k="oneway" v="yes"/>
    <tag k="ref" v="M20"/>
  </way>
  <way id="8144580" version="5" timestamp="2009-06-02T13:33:02Z" uid="69864" user="Ivan Komarov" changeset="1404044">
    <nd ref="2742515"/>
    <nd ref="15224564"/>
    <tag k="created_by" v="JOSM"/>
    <tag k="highway" v="trunk"/>
    <tag k="int_ref" v="E95"/>
    <tag k="name" v="E95"/>
    <tag k="oneway" v="yes"/>
    <tag k="ref" v="M20"/>
  </way>
  <way id="8144580" version="6" timestamp="2009-08-30T13:29:27Z" uid="127606" user="loir" changeset="2313472">
    <nd ref="2742515"/>
    <nd ref="477387189"/>
    <nd ref="477387193"/>
    <nd ref="477387196"/>
    <tag k="highway" v="primary"/>
    <tag k="name" v="Связи пер."/>
    <tag k="oneway" v="yes"/>
  </way>
  <way id="8144580" version="7" timestamp="2009-09-25T02:51:59Z" uid="30590" user="KekcuHa" changeset="2611578">
    <nd ref="2742515"/>
    <nd ref="477387189"/>
    <nd ref="477387193"/>
    <nd ref="477387196"/>
    <tag k="addr:postcode" v="188230"/>
    <tag k="cladr:code" v="47013001000010700"/>
    <tag k="cladr:name" v="Связи"/>
    <tag k="cladr:suffix" v="Переулок"/>
    <tag k="highway" v="primary"/>
    <tag k="name" v="Связи пер."/>
    <tag k="oneway" v="yes"/>
  </way>
  <way id="8144580" version="8" timestamp="2010-09-24T13:33:08Z" uid="290271" user="Zverik" changeset="5862803">
    <nd ref="2742515"/>
    <nd ref="477387189"/>
    <nd ref="477387193"/>
    <nd ref="477387196"/>
    <tag k="addr:postcode" v="188230"/>
    <tag k="cladr:code" v="47013001000010700"/>
    <tag k="cladr:name" v="Связи"/>
    <tag k="cladr:suffix" v="Переулок"/>
    <tag k="highway" v="primary"/>
    <tag k="name" v="Связи пер."/>
    <tag k="oneway" v="yes"/>
    <tag k="surface" v="asphalt"/>
  </way>
  <way id="8144580" version="9" timestamp="2011-04-01T13:29:02Z" uid="43262" user="KonTur" changeset="7735545">
    <nd ref="2742515"/>
    <nd ref="477387189"/>
    <nd ref="477387193"/>
    <nd ref="477387196"/>
    <tag k="addr:postcode" v="188230"/>
    <tag k="cladr:code" v="47013001000010700"/>
    <tag k="cladr:name" v="Связи"/>
    <tag k="cladr:suffix" v="Переулок"/>
    <tag k="highway" v="primary"/>
    <tag k="name" v="переулок Связи"/>
    <tag k="oneway" v="yes"/>
    <tag k="surface" v="asphalt"/>
  </way>
  <way id="8144581" version="2" timestamp="2008-06-01T00:10:58Z" uid="34428" user="usm78-gis" changeset="8158">
    <nd ref="15224564"/>
    <nd ref="2742512"/>
    <tag k="created_by" v="JOSM"/>
    <tag k="highway" v="trunk"/>
    <tag k="name" v="M20"/>
  </way>
  <way id="8144581" version="3" timestamp="2008-08-10T12:01:57Z" uid="19359" user="Oklums" changeset="173672">
    <nd ref="15224564"/>
    <nd ref="2742512"/>
    <tag k="created_by" v="JOSM"/>
    <tag k="highway" v="trunk"/>
    <tag k="int_ref" v="E95"/>
    <tag k="name" v="E95"/>
    <tag k="ref" v="M20"/>
  </way>
  <way id="8144581" version="4" timestamp="2009-06-02T13:29:47Z" uid="69864" user="Ivan Komarov" changeset="1404044">
    <nd ref="15224564"/>
    <nd ref="2742512"/>
    <tag k="created_by" v="JOSM"/>
    <tag k="highway" v="trunk"/>
    <tag k="int_ref" v="E95"/>
    <tag k="name" v="E95"/>
    <tag k="oneway" v="yes"/>
    <tag k="ref" v="M20"/>
  </way>
  <way id="8144581" version="5" timestamp="2009-08-30T13:29:26Z" uid="127606" user="loir" changeset="2313472">
    <nd ref="477387196"/>
    <nd ref="477387199"/>
    <nd ref="2742512"/>
    <nd ref="477387200"/>
    <nd ref="27023203"/>
    <nd ref="283363031"/>
    <nd ref="245666"/>
    <nd ref="2742743"/>
    <tag k="highway" v="primary"/>
    <tag k="name" v="Кирова просп."/>
    <tag k="oneway" v="yes"/>
  </way>
  <way id="8144581" version="6" timestamp="2009-09-25T02:51:59Z" uid="30590" user="KekcuHa" changeset="2611578">
    <nd ref="477387196"/>
    <nd ref="477387199"/>
    <nd ref="2742512"/>
    <nd ref="477387200"/>
    <nd ref="27023203"/>
    <nd ref="283363031"/>
    <nd ref="245666"/>
    <nd ref="2742743"/>
    <tag k="addr:postcode" v="188230"/>
    <tag k="cladr:code" v="47013001000005400"/>
    <tag k="cladr:name" v="Кирова"/>
    <tag k="cladr:suffix" v="Проспект"/>
    <tag k="highway" v="primary"/>
    <tag k="name" v="Кирова просп."/>
    <tag k="oneway" v="yes"/>
  </way>
  <way id="8144581" version="7" timestamp="2010-01-10T06:58:00Z" uid="182473" user="KartaFan" changeset="3584357">
    <nd ref="477387196"/>
    <nd ref="477387199"/>
    <nd ref="2742512"/>
    <nd ref="477387200"/>
    <nd ref="27023203"/>
    <nd ref="283363031"/>
    <nd ref="245666"/>
    <nd ref="610747535"/>
    <nd ref="610747544"/>
    <nd ref="2742743"/>
    <tag k="addr:postcode" v="188230"/>
    <tag k="cladr:code" v="47013001000005400"/>
    <tag k="cladr:name" v="Кирова"/>
    <tag k="cladr:suffix" v="Проспект"/>
    <tag k="highway" v="primary"/>
    <tag k="name" v="Кирова просп."/>
    <tag k="oneway" v="yes"/>
  </way>
  <way id="8144581" version="8" timestamp="2010-09-24T13:29:13Z" uid="290271" user="Zverik" changeset="5862803">
    <nd ref="477387196"/>
    <nd ref="477387199"/>
    <nd ref="2742512"/>
    <nd ref="477387200"/>
    <nd ref="27023203"/>
    <nd ref="283363031"/>
    <nd ref="245666"/>
    <nd ref="610747535"/>
    <nd ref="610747544"/>
    <nd ref="2742743"/>
    <tag k="addr:postcode" v="188230"/>
    <tag k="cladr:code" v="47013001000005400"/>
    <tag k="cladr:name" v="Кирова"/>
    <tag k="cladr:suffix" v="Проспект"/>
    <tag k="highway" v="primary"/>
    <tag k="name" v="Кирова просп."/>
    <tag k="oneway" v="yes"/>
    <tag k="surface" v="asphalt"/>
  </way>
  <way id="8144581" version="9" timestamp="2011-03-22T16:30:35Z" uid="277726" user="dnikitin" changeset="7638548">
    <nd ref="477387196"/>
    <nd ref="477387199"/>
    <nd ref="2742512"/>
    <nd ref="477387200"/>
    <nd ref="27023203"/>
    <nd ref="283363031"/>
    <nd ref="1213529876"/>
    <nd ref="245666"/>
    <nd ref="610747535"/>
    <nd ref="610747544"/>
    <nd ref="2742743"/>
    <tag k="addr:postcode" v="188230"/>
    <tag k="cladr:code" v="47013001000005400"/>
    <tag k="cladr:name" v="Кирова"/>
    <tag k="cladr:suffix" v="Проспект"/>
    <tag k="highway" v="primary"/>
    <tag k="name" v="Кирова просп."/>
    <tag k="oneway" v="yes"/>
    <tag k="surface" v="asphalt"/>
  </way>
  <way id="8144581" version="10" timestamp="2011-04-01T13:29:08Z" uid="43262" user="KonTur" changeset="7735545">
    <nd ref="477387196"/>
    <nd ref="477387199"/>
    <nd ref="2742512"/>
    <nd ref="477387200"/>
    <nd ref="27023203"/>
    <nd ref="283363031"/>
    <nd ref="1213529876"/>
    <nd ref="245666"/>
    <nd ref="610747535"/>
    <nd ref="610747544"/>
    <nd ref="2742743"/>
    <tag k="addr:postcode" v="188230"/>
    <tag k="cladr:code" v="47013001000005400"/>
    <tag k="cladr:name" v="Кирова"/>
    <tag k="cladr:suffix" v="Проспект"/>
    <tag k="highway" v="primary"/>
    <tag k="name" v="проспект Кирова"/>
    <tag k="oneway" v="yes"/>
    <tag k="surface" v="asphalt"/>
  </way>
  <way id="8144581" version="11" timestamp="2011-04-06T16:54:32Z" uid="277726" user="dnikitin" changeset="7786799">
    <nd ref="477387196"/>
    <nd ref="1234856653"/>
    <nd ref="477387199"/>
    <nd ref="2742512"/>
    <nd ref="477387200"/>
    <nd ref="27023203"/>
    <nd ref="283363031"/>
    <nd ref="1213529876"/>
    <nd ref="245666"/>
    <nd ref="610747535"/>
    <nd ref="610747544"/>
    <nd ref="2742743"/>
    <tag k="addr:postcode" v="188230"/>
    <tag k="cladr:code" v="47013001000005400"/>
    <tag k="cladr:name" v="Кирова"/>
    <tag k="cladr:suffix" v="Проспект"/>
    <tag k="highway" v="primary"/>
    <tag k="name" v="проспект Кирова"/>
    <tag k="oneway" v="yes"/>
    <tag k="surface" v="asphalt"/>
  </way>
  <way id="8144581" version="12" timestamp="2011-10-10T14:49:38Z" uid="179855" user="Vasily Danilov" changeset="9522534">
    <nd ref="477387196"/>
    <nd ref="1234856653"/>
    <nd ref="477387199"/>
    <nd ref="2742512"/>
    <nd ref="477387200"/>
    <nd ref="27023203"/>
    <nd ref="1461290181"/>
    <nd ref="283363031"/>
    <nd ref="1213529876"/>
    <nd ref="245666"/>
    <nd ref="610747535"/>
    <nd ref="610747544"/>
    <nd ref="2742743"/>
    <tag k="addr:postcode" v="188230"/>
    <tag k="cladr:code" v="47013001000005400"/>
    <tag k="cladr:name" v="Кирова"/>
    <tag k="cladr:suffix" v="Проспект"/>
    <tag k="highway" v="primary"/>
    <tag k="name" v="проспект Кирова"/>
    <tag k="oneway" v="yes"/>
    <tag k="surface" v="asphalt"/>
  </way>
  <way id="8144593" version="2" timestamp="2007-12-12T18:19:32Z" uid="6454" user="B10xxx" changeset="273542"/>
  <way id="8144852" version="1" timestamp="2007-08-28T01:43:49Z" uid="6454" user="B10xxx" changeset="259179">
    <nd ref="2412823"/>
    <nd ref="27101845"/>
    <tag k="created_by" v="Potlatch alpha"/>
    <tag k="highway" v="tertiary"/>
    <tag k="name" v="Oranienstrasse"/>
    <tag k="oneway" v="yes"/>
  </way>
  <way id="8144852" version="2" timestamp="2008-04-26T21:07:57Z" uid="10622" user="Beebop" changeset="264814">
    <nd ref="2412823"/>
    <nd ref="27101845"/>
    <tag k="highway" v="tertiary"/>
    <tag k="name" v="Oranienstraße"/>
    <tag k="oneway" v="yes"/>
  </way>
  <way id="8144852" version="3" timestamp="2008-07-10T21:46:15Z" uid="17602" user="B10xyz" changeset="453633">
    <nd ref="27101845"/>
    <nd ref="2412823"/>
    <tag k="highway" v="tertiary"/>
    <tag k="name" v="Oranienstraße"/>
    <tag k="oneway" v="yes"/>
  </way>
  <way id="8144852" version="4" timestamp="2009-03-01T17:25:15Z" uid="48641" user="bs5" changeset="717333">
    <nd ref="27101845"/>
    <nd ref="354586311"/>
    <nd ref="2412823"/>
    <nd ref="31193095"/>
    <tag k="highway" v="tertiary"/>
    <tag k="name" v="Oranienstraße"/>
    <tag k="oneway" v="yes"/>
  </way>
  <way id="8144852" version="5" timestamp="2009-05-04T21:27:40Z" uid="39762" user="dartial" changeset="1080686"/>
  <way id="8144853" version="1" timestamp="2007-08-28T01:35:32Z" uid="6454" user="B10xxx" changeset="259179">
    <nd ref="2387277"/>
    <nd ref="2387278"/>
    <nd ref="2387279"/>
    <nd ref="2387280"/>
    <tag k="created_by" v="Potlatch alpha"/>
    <tag k="highway" v="service"/>
  </way>
  <way id="8144853" version="2" timestamp="2012-01-04T13:09:55Z" uid="328555" user="peb12345" changeset="10290638"/>
  <way id="8144874" version="5" timestamp="2008-05-24T07:28:31Z" uid="27600" user="Islanit" changeset="508045">
    <nd ref="21296436"/>
    <nd ref="26795265"/>
    <nd ref="26795264"/>
    <nd ref="26795260"/>
    <nd ref="26795259"/>
    <nd ref="91906479"/>
    <nd ref="18898214"/>
    <tag k="created_by" v="Potlatch 0.4b"/>
    <tag k="highway" v="secondary"/>
    <tag k="name" v="Horner Landstraße"/>
  </way>
  <way id="8144874" version="6" timestamp="2008-06-12T22:00:34Z" uid="11008" user="spacer1971" changeset="148148">
    <nd ref="21296436"/>
    <nd ref="26795265"/>
    <nd ref="26795264"/>
    <nd ref="269989174"/>
    <nd ref="26795260"/>
    <nd ref="26795259"/>
    <nd ref="91906479"/>
    <nd ref="18898214"/>
    <tag k="created_by" v="Potlatch 0.9c"/>
    <tag k="highway" v="secondary"/>
    <tag k="name" v="Horner Landstraße"/>
  </way>
  <way id="8144874" version="7" timestamp="2008-06-12T22:00:37Z" uid="11008" user="spacer1971" changeset="148148">
    <nd ref="21296436"/>
    <nd ref="26795265"/>
    <nd ref="26795264"/>
    <nd ref="269989174"/>
    <tag k="created_by" v="Potlatch 0.9c"/>
    <tag k="highway" v="secondary"/>
    <tag k="name" v="Horner Landstraße"/>
  </way>
  <way id="8144874" version="8" timestamp="2008-06-12T22:00:47Z" uid="11008" user="spacer1971" changeset="148148">
    <nd ref="21296436"/>
    <nd ref="26795265"/>
    <nd ref="26795264"/>
    <tag k="created_by" v="Potlatch 0.9c"/>
    <tag k="highway" v="secondary"/>
    <tag k="name" v="Horner Landstraße"/>
  </way>
  <way id="8144874" version="9" timestamp="2008-06-12T22:03:19Z" uid="11008" user="spacer1971" changeset="148148">
    <nd ref="21296436"/>
    <nd ref="26795265"/>
    <nd ref="269989437"/>
    <tag k="created_by" v="Potlatch 0.9c"/>
    <tag k="highway" v="secondary"/>
    <tag k="name" v="Horner Landstraße"/>
  </way>
  <way id="8144874" version="10" timestamp="2008-06-12T22:03:27Z" uid="11008" user="spacer1971" changeset="148148">
    <nd ref="21296436"/>
    <nd ref="26795265"/>
    <tag k="created_by" v="Potlatch 0.9c"/>
    <tag k="highway" v="secondary"/>
    <tag k="name" v="Horner Landstraße"/>
  </way>
  <way id="8144874" version="11" timestamp="2008-07-04T16:44:50Z" uid="41512" user="Kuddl Klien" changeset="388894">
    <nd ref="21296436"/>
    <nd ref="276218331"/>
    <nd ref="26795265"/>
    <tag k="created_by" v="Potlatch 0.9c"/>
    <tag k="highway" v="secondary"/>
    <tag k="name" v="Horner Landstraße"/>
  </way>
  <way id="8144874" version="12" timestamp="2008-07-04T16:46:25Z" uid="41512" user="Kuddl Klien" changeset="388894">
    <nd ref="21296436"/>
    <nd ref="276218331"/>
    <nd ref="26795265"/>
    <tag k="created_by" v="Potlatch 0.9c"/>
    <tag k="highway" v="secondary"/>
    <tag k="name" v="Horner Landstraße"/>
  </way>
  <way id="8144874" version="13" timestamp="2008-08-16T11:31:18Z" uid="1852" user="Sven Anders" changeset="279124">
    <nd ref="21296436"/>
    <nd ref="276218331"/>
    <nd ref="26795265"/>
    <tag k="created_by" v="Potlatch 0.9c"/>
    <tag k="highway" v="secondary"/>
    <tag k="name" v="Horner Landstraße"/>
    <tag k="postal_code" v="22111"/>
  </way>
  <way id="8144874" version="14" timestamp="2008-08-21T21:53:10Z" uid="41512" user="Kuddl Klien" changeset="361745"/>
  <way id="8144946" version="10" timestamp="2010-08-09T00:16:46Z" uid="99207" user="Lar Kiesel" changeset="5439281">
    <nd ref="411284399"/>
    <nd ref="850281523"/>
    <nd ref="850281524"/>
    <nd ref="850281525"/>
    <nd ref="411284400"/>
    <nd ref="411284401"/>
    <nd ref="411284402"/>
    <tag k="highway" v="motorway_link"/>
    <tag k="oneway" v="yes"/>
  </way>
  <way id="8144946" version="11" timestamp="2010-09-22T07:12:35Z" uid="252811" user="rickmastfan67" changeset="5842986">
    <nd ref="411284399"/>
    <nd ref="850281523"/>
    <nd ref="850281524"/>
    <nd ref="850281525"/>
    <nd ref="411284400"/>
    <nd ref="411284401"/>
    <nd ref="921133533"/>
    <nd ref="411284402"/>
    <tag k="highway" v="motorway_link"/>
    <tag k="oneway" v="yes"/>
  </way>
  <way id="8144411" version="20" timestamp="2012-07-19T03:01:04Z" uid="722137" user="OSMF Redaction Account" changeset="12305945">
    <nd ref="556347204"/>
    <nd ref="26977657"/>
    <nd ref="36453640"/>
    <nd ref="28150384"/>
    <nd ref="28150383"/>
    <nd ref="28150382"/>
    <nd ref="28150362"/>
    <tag k="bicycle" v="no"/>
    <tag k="footway" v="no"/>
    <tag k="highway" v="secondary"/>
    <tag k="layer" v="0"/>
    <tag k="maxspeed" v="70"/>
    <tag k="name" v="Heuchelheimer Straße"/>
    <tag k="oneway" v="yes"/>
    <tag k="postal_code" v="35398"/>
    <tag k="ref" v="L 3020"/>
  </way>
  <way id="8144411" version="21" timestamp="2012-07-21T19:48:05Z" uid="286452" user="TetiSoft" changeset="12418774">
    <nd ref="28150362"/>
    <nd ref="28150382"/>
    <nd ref="28150383"/>
    <nd ref="28150384"/>
    <nd ref="36453640"/>
    <nd ref="26977657"/>
    <nd ref="556347204"/>
    <tag k="bicycle" v="no"/>
    <tag k="footway" v="no"/>
    <tag k="highway" v="secondary"/>
    <tag k="layer" v="0"/>
    <tag k="maxspeed" v="70"/>
    <tag k="name" v="Heuchelheimer Straße"/>
    <tag k="oneway" v="yes"/>
    <tag k="postal_code" v="35398"/>
    <tag k="ref" v="L 3020"/>
  </way>
  <way id="8144411" version="22" timestamp="2012-07-21T19:59:43Z" uid="286452" user="TetiSoft" changeset="12418962">
    <nd ref="28150362"/>
    <nd ref="28150382"/>
    <nd ref="28150383"/>
    <nd ref="28150384"/>
    <nd ref="556347204"/>
    <nd ref="36453640"/>
    <nd ref="26977657"/>
    <tag k="bicycle" v="no"/>
    <tag k="footway" v="no"/>
    <tag k="highway" v="secondary"/>
    <tag k="layer" v="0"/>
    <tag k="maxspeed" v="70"/>
    <tag k="name" v="Heuchelheimer Straße"/>
    <tag k="oneway" v="yes"/>
    <tag k="postal_code" v="35398"/>
    <tag k="ref" v="L 3020"/>
  </way>
  <way id="8144521" version="6" timestamp="2012-07-19T03:01:18Z" uid="722137" user="OSMF Redaction Account" changeset="12305945"/>
  <way id="8144545" version="4" timestamp="2012-07-20T07:16:55Z" uid="722137" user="OSMF Redaction Account" changeset="12365766"/>
  <way id="8144580" version="10" timestamp="2012-04-22T20:40:35Z" uid="95117" user="one_half_3544" changeset="11388936">
    <nd ref="2742515"/>
    <nd ref="477387189"/>
    <nd ref="477387193"/>
    <nd ref="477387196"/>
    <tag k="addr:postcode" v="188230"/>
    <tag k="highway" v="primary"/>
    <tag k="name" v="переулок Связи"/>
    <tag k="oneway" v="yes"/>
    <tag k="surface" v="asphalt"/>
  </way>
  <way id="8144581" version="13" timestamp="2012-04-22T20:40:36Z" uid="95117" user="one_half_3544" changeset="11388936">
    <nd ref="477387196"/>
    <nd ref="1234856653"/>
    <nd ref="477387199"/>
    <nd ref="2742512"/>
    <nd ref="477387200"/>
    <nd ref="27023203"/>
    <nd ref="1461290181"/>
    <nd ref="283363031"/>
    <nd ref="1213529876"/>
    <nd ref="245666"/>
    <nd ref="610747535"/>
    <nd ref="610747544"/>
    <nd ref="2742743"/>
    <tag k="addr:postcode" v="188230"/>
    <tag k="highway" v="primary"/>
    <tag k="name" v="проспект Кирова"/>
    <tag k="oneway" v="yes"/>
    <tag k="surface" v="asphalt"/>
  </way>
  <way id="8144946" version="12" timestamp="2012-04-06T04:16:34Z" uid="169004" user="oldtopos" changeset="11196606"/>
</osm>
