<?xml version='1.0' encoding='UTF-8'?>
<osm version="0.6" generator="libosmium/2.20.0">
  <way id="81609130" version="1" timestamp="2010-10-16T05:26:52Z" uid="7617" user="Franc" changeset="6054570">
    <nd ref="951198486"/>
    <nd ref="951198574"/>
    <nd ref="951198467"/>
    <tag k="highway" v="residential"/>
    <tag k="name" v="Francis Street"/>
    <tag k="oneway" v="yes"/>
    <tag k="source" v="survey"/>
  </way>
  <way id="81609131" version="1" timestamp="2010-10-16T05:26:52Z" uid="7617" user="Franc" changeset="6054570">
    <nd ref="951198521"/>
    <nd ref="951198526"/>
    <nd ref="951198540"/>
    <nd ref="951024859"/>
    <tag k="highway" v="footway"/>
    <tag k="source" v="nearmap"/>
  </way>
  <way id="81609132" version="1" timestamp="2010-10-16T05:26:52Z" uid="7617" user="Franc" changeset="6054570">
    <nd ref="951198528"/>
    <nd ref="951198504"/>
    <nd ref="951198532"/>
    <nd ref="951198510"/>
    <nd ref="951198474"/>
    <nd ref="951198578"/>
    <nd ref="951198576"/>
    <nd ref="951198546"/>
    <nd ref="951198516"/>
    <nd ref="951198484"/>
    <nd ref="951198563"/>
    <nd ref="951198495"/>
    <nd ref="951198573"/>
    <nd ref="951198466"/>
    <nd ref="951198470"/>
    <nd ref="951198533"/>
    <nd ref="951198505"/>
    <nd ref="951198542"/>
    <nd ref="951198513"/>
    <nd ref="951198456"/>
    <nd ref="951198558"/>
    <nd ref="951198530"/>
    <nd ref="951198500"/>
    <nd ref="951198562"/>
    <nd ref="951198528"/>
    <tag k="leisure" v="park"/>
    <tag k="source" v="nearmap"/>
  </way>
  <way id="81609133" version="1" timestamp="2010-10-16T05:26:53Z" uid="7617" user="Franc" changeset="6054570">
    <nd ref="951198490"/>
    <nd ref="951198458"/>
    <nd ref="58282727"/>
    <nd ref="20955138"/>
    <nd ref="334508401"/>
    <nd ref="364341550"/>
    <nd ref="20958825"/>
    <tag k="highway" v="residential"/>
    <tag k="maxspeed" v="50"/>
    <tag k="maxspeed:source" v="default residential speed limit in Australia"/>
    <tag k="name" v="Hollywood Avenue"/>
  </way>
  <way id="81609134" version="1" timestamp="2010-10-16T05:26:53Z" uid="7617" user="Franc" changeset="6054570">
    <nd ref="951198522"/>
    <nd ref="951198518"/>
    <nd ref="951198507"/>
    <nd ref="20955139"/>
    <nd ref="951198547"/>
    <nd ref="58282748"/>
    <nd ref="951198548"/>
    <nd ref="951198490"/>
    <tag k="highway" v="residential"/>
    <tag k="maxspeed" v="50"/>
    <tag k="maxspeed:source" v="default residential speed limit in Australia"/>
    <tag k="name" v="Hollywood Avenue"/>
    <tag k="oneway" v="yes"/>
  </way>
  <way id="81609135" version="1" timestamp="2010-10-16T05:26:53Z" uid="7617" user="Franc" changeset="6054570">
    <nd ref="951198571"/>
    <nd ref="20958841"/>
    <nd ref="334508487"/>
    <tag k="highway" v="residential"/>
    <tag k="maxspeed" v="50"/>
    <tag k="maxspeed:source" v="default residential speed limit in Australia"/>
    <tag k="name" v="Mill Hill Road"/>
    <tag k="source" v="interpolation"/>
  </way>
  <way id="81609136" version="1" timestamp="2010-10-16T05:26:53Z" uid="7617" user="Franc" changeset="6054570">
    <nd ref="951198467"/>
    <nd ref="951198502"/>
    <nd ref="951198506"/>
    <nd ref="951198534"/>
    <tag k="highway" v="residential"/>
    <tag k="name" v="Simpson Street"/>
    <tag k="oneway" v="yes"/>
    <tag k="source" v="survey"/>
  </way>
  <way id="81609137" version="1" timestamp="2010-10-16T05:26:53Z" uid="7617" user="Franc" changeset="6054570">
    <nd ref="951198504"/>
    <nd ref="951198525"/>
    <nd ref="951198554"/>
    <nd ref="951198455"/>
    <nd ref="951198479"/>
    <nd ref="951198537"/>
    <nd ref="951198532"/>
    <nd ref="951198504"/>
    <tag k="leisure" v="playground"/>
    <tag k="source" v="nearmap"/>
  </way>
  <way id="81609138" version="1" timestamp="2010-10-16T05:26:53Z" uid="7617" user="Franc" changeset="6054570">
    <nd ref="951198490"/>
    <nd ref="951198557"/>
    <nd ref="951198478"/>
    <nd ref="951198512"/>
    <nd ref="951198541"/>
    <nd ref="951198572"/>
    <nd ref="951198462"/>
    <nd ref="951198522"/>
    <tag k="highway" v="residential"/>
    <tag k="maxspeed" v="50"/>
    <tag k="maxspeed:source" v="default residential speed limit in Australia"/>
    <tag k="name" v="Hollywood Avenue"/>
    <tag k="oneway" v="yes"/>
  </way>
  <way id="81609322" version="2" timestamp="2011-01-31T11:23:09Z" uid="115477" user="wowik" changeset="7144038">
    <nd ref="951203942"/>
    <nd ref="951203943"/>
    <nd ref="951203945"/>
    <nd ref="951203948"/>
    <nd ref="951203949"/>
    <nd ref="951203950"/>
    <nd ref="951203942"/>
    <tag k="landuse" v="grass"/>
  </way>
  <way id="81609356" version="2" timestamp="2010-11-09T09:58:32Z" uid="115477" user="wowik" changeset="6325744">
    <nd ref="951205020"/>
    <nd ref="951205021"/>
    <nd ref="951205022"/>
    <nd ref="951205023"/>
    <nd ref="983146494"/>
    <nd ref="983146602"/>
    <nd ref="983146543"/>
    <nd ref="983146596"/>
    <nd ref="951205020"/>
    <tag k="addr:city" v="Зеленоград"/>
    <tag k="addr:housenumber" v="12с10"/>
    <tag k="addr:street" v="1-й Западный проезд"/>
    <tag k="building" v="yes"/>
    <tag k="is_in" v="Russia"/>
  </way>
  <way id="81609356" version="3" timestamp="2011-01-14T19:39:24Z" uid="206282" user="Amigo" changeset="6970476">
    <nd ref="951205020"/>
    <nd ref="951205021"/>
    <nd ref="951205022"/>
    <nd ref="951205023"/>
    <nd ref="983146494"/>
    <nd ref="983146602"/>
    <nd ref="983146543"/>
    <nd ref="983146596"/>
    <nd ref="951205020"/>
    <tag k="addr:city" v="Зеленоград"/>
    <tag k="addr:housenumber" v="12 с10"/>
    <tag k="addr:street" v="1-й Западный проезд"/>
    <tag k="building" v="yes"/>
    <tag k="is_in" v="Russia"/>
  </way>
  <way id="81609356" version="4" timestamp="2011-09-13T10:21:51Z" uid="29320" user="Komяpa" changeset="9288237">
    <nd ref="951205020"/>
    <nd ref="951205021"/>
    <nd ref="951205022"/>
    <nd ref="951205023"/>
    <nd ref="983146494"/>
    <nd ref="983146602"/>
    <nd ref="983146543"/>
    <nd ref="983146596"/>
    <nd ref="951205020"/>
    <tag k="addr:city" v="Зеленоград"/>
    <tag k="addr:country" v="RU"/>
    <tag k="addr:housenumber" v="12 с10"/>
    <tag k="addr:street" v="1-й Западный проезд"/>
    <tag k="building" v="yes"/>
  </way>
  <way id="81609357" version="2" timestamp="2010-11-09T09:58:31Z" uid="115477" user="wowik" changeset="6325744">
    <nd ref="951205025"/>
    <nd ref="951205026"/>
    <nd ref="951205027"/>
    <nd ref="951205028"/>
    <nd ref="951205025"/>
    <tag k="addr:city" v="Зеленоград"/>
    <tag k="addr:housenumber" v="12с11"/>
    <tag k="addr:street" v="1-й Западный проезд"/>
    <tag k="building" v="yes"/>
    <tag k="is_in" v="Russia"/>
  </way>
  <way id="81609357" version="3" timestamp="2011-01-14T19:39:28Z" uid="206282" user="Amigo" changeset="6970476">
    <nd ref="951205025"/>
    <nd ref="951205026"/>
    <nd ref="951205027"/>
    <nd ref="951205028"/>
    <nd ref="951205025"/>
    <tag k="addr:city" v="Зеленоград"/>
    <tag k="addr:housenumber" v="12 с11"/>
    <tag k="addr:street" v="1-й Западный проезд"/>
    <tag k="building" v="yes"/>
    <tag k="is_in" v="Russia"/>
  </way>
  <way id="81609357" version="4" timestamp="2011-09-13T10:21:52Z" uid="29320" user="Komяpa" changeset="9288237">
    <nd ref="951205025"/>
    <nd ref="951205026"/>
    <nd ref="951205027"/>
    <nd ref="951205028"/>
    <nd ref="951205025"/>
    <tag k="addr:city" v="Зеленоград"/>
    <tag k="addr:country" v="RU"/>
    <tag k="addr:housenumber" v="12 с11"/>
    <tag k="addr:street" v="1-й Западный проезд"/>
    <tag k="building" v="yes"/>
  </way>
  <way id="81609130" version="2" timestamp="2012-07-11T08:20:54Z" uid="713671" user="auspod" changeset="12183020">
    <nd ref="1821178878"/>
    <nd ref="951198574"/>
    <nd ref="1821178826"/>
    <tag k="highway" v="residential"/>
    <tag k="name" v="Francis Street"/>
    <tag k="oneway" v="yes"/>
    <tag k="source" v="survey"/>
  </way>
  <way id="81609130" version="3" timestamp="2012-07-19T17:33:09Z" uid="722137" user="OSMF Redaction Account" changeset="12341917">
    <nd ref="1821178878"/>
    <nd ref="1821178826"/>
  </way>
  <way id="81609130" version="4" timestamp="2012-07-31T17:16:34Z" uid="510836" user="Rub21" changeset="12564172">
    <nd ref="1821178878"/>
    <nd ref="1821178826"/>
    <tag k="highway" v="residential"/>
  </way>
  <way id="81609131" version="2" timestamp="2012-07-19T17:36:02Z" uid="722137" user="OSMF Redaction Account" changeset="12342011"/>
  <way id="81609132" version="2" timestamp="2012-06-23T05:28:39Z" uid="7523" user="inas" changeset="11985395"/>
  <way id="81609133" version="2" timestamp="2012-07-19T17:36:08Z" uid="722137" user="OSMF Redaction Account" changeset="12342011"/>
  <way id="81609134" version="2" timestamp="2012-07-19T17:36:09Z" uid="722137" user="OSMF Redaction Account" changeset="12342011"/>
  <way id="81609135" version="2" timestamp="2012-07-20T01:04:41Z" uid="722137" user="OSMF Redaction Account" changeset="12354173"/>
  <way id="81609136" version="2" timestamp="2012-07-11T08:20:54Z" uid="713671" user="auspod" changeset="12183020">
    <nd ref="1821178826"/>
    <nd ref="1821178785"/>
    <nd ref="1821178857"/>
    <nd ref="1821178770"/>
    <tag k="highway" v="residential"/>
    <tag k="name" v="Simpson Street"/>
    <tag k="oneway" v="yes"/>
    <tag k="source" v="survey"/>
  </way>
  <way id="81609136" version="3" timestamp="2012-07-19T17:34:26Z" uid="722137" user="OSMF Redaction Account" changeset="12341917">
    <nd ref="1821178826"/>
    <nd ref="1821178785"/>
    <nd ref="1821178857"/>
    <nd ref="1821178770"/>
  </way>
  <way id="81609136" version="4" timestamp="2012-07-31T17:16:34Z" uid="510836" user="Rub21" changeset="12564172">
    <nd ref="1821178826"/>
    <nd ref="1821178785"/>
    <nd ref="1821178857"/>
    <nd ref="1821178770"/>
    <tag k="highway" v="residential"/>
  </way>
  <way id="81609137" version="2" timestamp="2012-06-24T05:06:59Z" uid="7523" user="inas" changeset="11995521"/>
  <way id="81609138" version="2" timestamp="2012-07-19T17:36:09Z" uid="722137" user="OSMF Redaction Account" changeset="12342011"/>
  <way id="81609322" version="3" timestamp="2012-07-20T15:46:54Z" uid="722137" user="OSMF Redaction Account" changeset="12381662">
    <nd ref="951203942"/>
    <nd ref="951203943"/>
    <nd ref="951203945"/>
    <nd ref="951203948"/>
    <nd ref="951203949"/>
    <nd ref="951203950"/>
    <tag k="landuse" v="grass"/>
  </way>
  <way id="81609356" version="5" timestamp="2012-07-20T15:45:28Z" uid="722137" user="OSMF Redaction Account" changeset="12381662">
    <nd ref="951205020"/>
    <nd ref="951205021"/>
    <nd ref="951205022"/>
    <nd ref="951205023"/>
    <nd ref="951205020"/>
    <tag k="addr:country" v="RU"/>
    <tag k="building" v="yes"/>
  </way>
  <way id="81609357" version="5" timestamp="2012-07-20T15:46:58Z" uid="722137" user="OSMF Redaction Account" changeset="12381662">
    <nd ref="951205025"/>
    <nd ref="951205026"/>
    <nd ref="951205027"/>
    <nd ref="951205028"/>
    <nd ref="951205025"/>
    <tag k="addr:country" v="RU"/>
    <tag k="building" v="yes"/>
  </way>
</osm>
