<?xml version='1.0' encoding='UTF-8'?>
<osm version="0.6" generator="libosmium/2.20.0">
  <way id="82134819" version="1" timestamp="2010-10-18T21:00:22Z" uid="59758" user="rendle" changeset="6087015">
    <nd ref="554907023"/>
    <nd ref="475596263"/>
    <tag k="highway" v="residential"/>
    <tag k="name" v="Vredeshof"/>
  </way>
  <way id="82134819" version="2" timestamp="2010-10-18T21:00:36Z" uid="59758" user="rendle" changeset="6087015">
    <nd ref="554907023"/>
    <nd ref="475596263"/>
    <tag k="highway" v="residential"/>
    <tag k="name" v="Brugstraat"/>
  </way>
  <way id="82134819" version="3" timestamp="2010-11-06T17:40:30Z" uid="313884" user="el Vinno" changeset="6304476"/>
  <way id="82134866" version="1" timestamp="2010-10-18T21:01:49Z" uid="34428" user="usm78-gis" changeset="6087043">
    <nd ref="956408354"/>
    <nd ref="956408357"/>
    <nd ref="956408356"/>
    <nd ref="956408352"/>
    <nd ref="956408354"/>
    <tag k="amenity" v="cinema"/>
    <tag k="name" v="Карелия"/>
  </way>
  <way id="82134866" version="2" timestamp="2010-12-14T18:15:50Z" uid="127299" user="Batareikin" changeset="6660754">
    <nd ref="1038435635"/>
    <nd ref="1038435953"/>
    <nd ref="956408356"/>
    <nd ref="956408357"/>
    <nd ref="956408354"/>
    <nd ref="1038437088"/>
    <nd ref="1038436588"/>
    <nd ref="1038436174"/>
    <nd ref="1038435635"/>
    <tag k="amenity" v="cinema"/>
    <tag k="building" v="yes"/>
    <tag k="name" v="Карелия"/>
  </way>
  <way id="82134866" version="3" timestamp="2010-12-29T23:29:08Z" uid="219757" user="Алексей Александрович" changeset="6804558">
    <nd ref="1038435635"/>
    <nd ref="1038435953"/>
    <nd ref="956408356"/>
    <nd ref="956408357"/>
    <nd ref="956408354"/>
    <nd ref="1038437088"/>
    <nd ref="1038436588"/>
    <nd ref="1038436174"/>
    <nd ref="1038435635"/>
    <tag k="amenity" v="cinema"/>
    <tag k="building" v="yes"/>
    <tag k="name" v="Бывший кинотеатр Карелия"/>
  </way>
  <way id="82134866" version="4" timestamp="2011-03-24T06:50:22Z" uid="219757" user="Алексей Александрович" changeset="7653077">
    <nd ref="1038435635"/>
    <nd ref="1038436174"/>
    <nd ref="1038436588"/>
    <nd ref="1038437088"/>
    <nd ref="956408354"/>
    <nd ref="956408357"/>
    <nd ref="956408356"/>
    <nd ref="1038435953"/>
    <nd ref="1038435635"/>
    <tag k="building" v="yes"/>
    <tag k="name" v="зоомагазин"/>
    <tag k="old_name" v="Бывший кинотеатр Карелия"/>
  </way>
  <way id="82134866" version="5" timestamp="2011-08-31T16:11:04Z" uid="219757" user="Алексей Александрович" changeset="9177328">
    <nd ref="1038435635"/>
    <nd ref="1038436174"/>
    <nd ref="1038436588"/>
    <nd ref="1038437088"/>
    <nd ref="956408354"/>
    <nd ref="956408357"/>
    <nd ref="956408356"/>
    <nd ref="1038435953"/>
    <nd ref="1038435635"/>
    <tag k="building" v="yes"/>
    <tag k="name" v="зоомагазин"/>
    <tag k="old_name" v="Бывший кинотеатр Карелия"/>
    <tag k="shop" v="pet"/>
  </way>
  <way id="82134866" version="6" timestamp="2011-12-13T07:05:44Z" uid="126304" user="TarzanASG" changeset="10105192">
    <nd ref="1038435635"/>
    <nd ref="1038436174"/>
    <nd ref="1038436588"/>
    <nd ref="1038437088"/>
    <nd ref="956408354"/>
    <nd ref="956408357"/>
    <nd ref="956408356"/>
    <nd ref="1038435953"/>
    <nd ref="1038435635"/>
    <tag k="building" v="retail"/>
    <tag k="name" v="зоомагазин"/>
    <tag k="old_name" v="Бывший кинотеатр Карелия"/>
    <tag k="shop" v="pet"/>
  </way>
  <way id="82134866" version="7" timestamp="2011-12-14T06:45:16Z" uid="143266" user="Sergey Astakhov" changeset="10113313">
    <nd ref="1038435635"/>
    <nd ref="1038436174"/>
    <nd ref="1038436588"/>
    <nd ref="1038437088"/>
    <nd ref="956408354"/>
    <nd ref="956408357"/>
    <nd ref="956408356"/>
    <nd ref="1038435953"/>
    <nd ref="1038435635"/>
    <tag k="building" v="yes"/>
    <tag k="name" v="зоомагазин"/>
    <tag k="old_name" v="Бывший кинотеатр Карелия"/>
    <tag k="shop" v="pet"/>
  </way>
  <way id="82134866" version="8" timestamp="2012-01-14T00:12:39Z" uid="219757" user="Алексей Александрович" changeset="10384156">
    <nd ref="1038435635"/>
    <nd ref="1038436174"/>
    <nd ref="1038436588"/>
    <nd ref="1038437088"/>
    <nd ref="956408354"/>
    <nd ref="956408357"/>
    <nd ref="956408356"/>
    <nd ref="1038435953"/>
    <nd ref="1038435635"/>
    <tag k="building" v="yes"/>
    <tag k="building:levels" v="2"/>
    <tag k="name" v="зоомагазин"/>
    <tag k="old_name" v="Бывший кинотеатр Карелия"/>
    <tag k="shop" v="pet"/>
  </way>
  <way id="82134917" version="1" timestamp="2010-10-18T21:03:53Z" uid="59758" user="rendle" changeset="6087057">
    <nd ref="956409000"/>
    <nd ref="956409001"/>
    <nd ref="956409002"/>
    <nd ref="956409003"/>
    <nd ref="956409004"/>
    <nd ref="956409005"/>
    <nd ref="956409000"/>
    <tag k="amenity" v="parking"/>
  </way>
  <way id="82134917" version="2" timestamp="2012-01-11T10:36:22Z" uid="138772" user="lodde1949" changeset="10359337"/>
  <way id="82134979" version="1" timestamp="2010-10-18T21:07:44Z" uid="59758" user="rendle" changeset="6087057">
    <nd ref="956410605"/>
    <nd ref="956410607"/>
    <nd ref="956410610"/>
    <nd ref="956410612"/>
    <tag k="highway" v="service"/>
    <tag k="service" v="parking_aisle"/>
  </way>
  <way id="82134979" version="2" timestamp="2012-01-12T10:46:45Z" uid="138772" user="lodde1949" changeset="10368329"/>
  <way id="82134866" version="9" timestamp="2012-04-23T18:21:12Z" uid="219757" user="Алексей Александрович" changeset="11398161">
    <nd ref="1038435635"/>
    <nd ref="1038436174"/>
    <nd ref="1038436588"/>
    <nd ref="1038437088"/>
    <nd ref="956408354"/>
    <nd ref="956408357"/>
    <nd ref="956408356"/>
    <nd ref="1038435953"/>
    <nd ref="1038435635"/>
    <tag k="addr:housenumber" v="4"/>
    <tag k="addr:street" v="улица Филиппова"/>
    <tag k="building" v="yes"/>
    <tag k="building:levels" v="2"/>
    <tag k="name" v="зоомагазин"/>
    <tag k="old_name" v="Бывший кинотеатр Карелия"/>
    <tag k="shop" v="pet"/>
  </way>
  <way id="82134866" version="10" timestamp="2012-05-21T07:25:42Z" uid="316868" user="LexIgnatov" changeset="11659080">
    <nd ref="1038435635"/>
    <nd ref="1038436174"/>
    <nd ref="1038436588"/>
    <nd ref="1038437088"/>
    <nd ref="956408354"/>
    <nd ref="956408357"/>
    <nd ref="956408356"/>
    <nd ref="1038435953"/>
    <nd ref="1038435635"/>
    <tag k="addr:housenumber" v="4"/>
    <tag k="addr:street" v="улица Филиппова"/>
    <tag k="building" v="yes"/>
    <tag k="building:levels" v="2"/>
    <tag k="name" v="зоомагазин"/>
    <tag k="old_name" v="Кинотеатр Карелия"/>
    <tag k="shop" v="pet"/>
  </way>
  <way id="82134866" version="11" timestamp="2012-05-23T17:01:09Z" uid="219757" user="Алексей Александрович" changeset="11682453">
    <nd ref="1038435635"/>
    <nd ref="1038436174"/>
    <nd ref="1038436588"/>
    <nd ref="1038437088"/>
    <nd ref="956408354"/>
    <nd ref="956408357"/>
    <nd ref="956408356"/>
    <nd ref="1038435953"/>
    <nd ref="1038435635"/>
    <tag k="addr:housenumber" v="4"/>
    <tag k="addr:street" v="улица Филиппова"/>
    <tag k="building" v="yes"/>
    <tag k="building:levels" v="2"/>
    <tag k="old_name" v="Кинотеатр Карелия"/>
  </way>
  <way id="82134866" version="12" timestamp="2012-07-19T17:52:02Z" uid="697731" user="Эцелоп" changeset="12342406">
    <nd ref="1038435635"/>
    <nd ref="1038436174"/>
    <nd ref="1038436588"/>
    <nd ref="1038437088"/>
    <nd ref="956408354"/>
    <nd ref="1831225179"/>
    <nd ref="956408357"/>
    <nd ref="956408356"/>
    <nd ref="1038435953"/>
    <nd ref="1038435635"/>
    <tag k="addr:housenumber" v="4"/>
    <tag k="addr:street" v="улица Филиппова"/>
    <tag k="building" v="yes"/>
    <tag k="building:levels" v="2"/>
    <tag k="old_name" v="Кинотеатр Карелия"/>
  </way>
  <way id="82134866" version="13" timestamp="2012-07-23T00:01:18Z" uid="722137" user="OSMF Redaction Account" changeset="12442331">
    <nd ref="1038435635"/>
    <nd ref="1038436174"/>
    <nd ref="1038436588"/>
    <nd ref="1038437088"/>
    <nd ref="1831225179"/>
    <nd ref="1038435953"/>
    <nd ref="1038435635"/>
    <tag k="addr:housenumber" v="4"/>
    <tag k="addr:street" v="улица Филиппова"/>
    <tag k="building" v="yes"/>
    <tag k="building:levels" v="2"/>
    <tag k="old_name" v="Кинотеатр Карелия"/>
  </way>
  <way id="82134866" version="14" timestamp="2012-08-19T08:32:24Z" uid="697731" user="Эцелоп" changeset="12780725"/>
</osm>
