<?xml version='1.0' encoding='UTF-8'?>
<osm version="0.6" generator="libosmium/2.20.0">
  <way id="82205646" version="1" timestamp="2010-10-19T14:25:33Z" uid="33382" user="de_muur" changeset="6099755">
    <nd ref="316285457"/>
    <nd ref="302318635"/>
    <nd ref="440687454"/>
    <tag k="cycleway" v="track"/>
    <tag k="highway" v="secondary"/>
    <tag k="maxspeed" v="50"/>
    <tag k="name" v="Alte LandstraÃŸe"/>
    <tag k="old_ref" v="B 5"/>
    <tag k="postal_code" v="21039"/>
    <tag k="ref" v="L 208"/>
    <tag k="surface" v="paved"/>
  </way>
  <way id="82205646" version="2" timestamp="2012-03-16T11:42:25Z" uid="63375" user="Divjo" changeset="10997446"/>
  <way id="82205647" version="1" timestamp="2010-10-19T14:25:34Z" uid="33382" user="de_muur" changeset="6099755">
    <nd ref="31821147"/>
    <nd ref="957085496"/>
    <tag k="highway" v="primary_link"/>
    <tag k="oneway" v="yes"/>
    <tag k="ref" v="B 404"/>
  </way>
  <way id="82205647" version="2" timestamp="2010-12-06T18:55:48Z" uid="33382" user="de_muur" changeset="6566910"/>
  <way id="82205648" version="1" timestamp="2010-10-19T14:25:34Z" uid="33382" user="de_muur" changeset="6099755">
    <nd ref="957085496"/>
    <nd ref="95920427"/>
    <tag k="highway" v="primary_link"/>
    <tag k="oneway" v="yes"/>
    <tag k="ref" v="B 404"/>
  </way>
  <way id="82205648" version="2" timestamp="2010-12-06T18:55:47Z" uid="33382" user="de_muur" changeset="6566910"/>
</osm>
