<?xml version='1.0' encoding='UTF-8'?>
<osm version="0.6" generator="libosmium/2.20.0">
  <way id="82626595" version="2" timestamp="2011-03-12T23:13:14Z" uid="30632" user="antblant" changeset="7539417">
    <nd ref="961600503"/>
    <nd ref="961600739"/>
    <nd ref="961600280"/>
    <nd ref="961599923"/>
    <nd ref="961600503"/>
    <tag k="building" v="yes"/>
  </way>
  <way id="82626808" version="1" timestamp="2010-10-23T14:35:36Z" uid="30632" user="antblant" changeset="6145966">
    <nd ref="961605240"/>
    <nd ref="961605310"/>
    <tag k="bridge" v="yes"/>
    <tag k="highway" v="footway"/>
    <tag k="layer" v="1"/>
  </way>
  <way id="82626808" version="2" timestamp="2012-02-24T15:52:46Z" uid="467703" user="Zbigniew Czernik" changeset="10779190">
    <nd ref="961605240"/>
    <nd ref="1645672084"/>
    <tag k="highway" v="footway"/>
  </way>
  <way id="82626809" version="1" timestamp="2010-10-23T14:35:36Z" uid="30632" user="antblant" changeset="6145966">
    <nd ref="961605154"/>
    <nd ref="961605263"/>
    <tag k="bridge" v="yes"/>
    <tag k="highway" v="road"/>
    <tag k="layer" v="1"/>
  </way>
  <way id="82626809" version="2" timestamp="2011-05-30T14:22:40Z" uid="9475" user="Slawek Maderak" changeset="8292606">
    <nd ref="961605154"/>
    <nd ref="1305840053"/>
    <tag k="bridge" v="yes"/>
    <tag k="highway" v="road"/>
    <tag k="layer" v="1"/>
  </way>
  <way id="82626810" version="1" timestamp="2010-10-23T14:35:36Z" uid="30632" user="antblant" changeset="6145966">
    <nd ref="961605226"/>
    <nd ref="961605287"/>
    <tag k="bridge" v="yes"/>
    <tag k="highway" v="road"/>
    <tag k="layer" v="1"/>
    <tag k="maxweight" v="6"/>
  </way>
  <way id="82626810" version="2" timestamp="2011-05-08T17:07:32Z" uid="419230" user="Tomek_" changeset="8084896">
    <nd ref="393368306"/>
    <nd ref="1277341388"/>
    <nd ref="1277341375"/>
    <nd ref="1277341244"/>
    <nd ref="1277341234"/>
    <nd ref="1277341291"/>
    <nd ref="1277341275"/>
    <nd ref="1277341395"/>
    <nd ref="1277341391"/>
    <nd ref="1277341249"/>
    <nd ref="1277341240"/>
    <nd ref="1277341293"/>
    <nd ref="1277341277"/>
    <nd ref="1277341335"/>
    <nd ref="1277341317"/>
    <nd ref="1277341254"/>
    <nd ref="1277341242"/>
    <nd ref="1277341295"/>
    <nd ref="1277341282"/>
    <nd ref="1277341344"/>
    <nd ref="1277341322"/>
    <nd ref="1277341382"/>
    <nd ref="1277341354"/>
    <nd ref="1277341302"/>
    <nd ref="1277341286"/>
    <nd ref="1277341350"/>
    <nd ref="1277341332"/>
    <nd ref="1277341385"/>
    <nd ref="1277341369"/>
    <nd ref="1277341227"/>
    <nd ref="961605226"/>
    <tag k="highway" v="path"/>
    <tag k="marked_trail_green" v="yes"/>
    <tag k="name" v="zielony szlak"/>
    <tag k="name:en" v="green trail"/>
    <tag k="name:fr" v="sentier vert"/>
    <tag k="name:pl" v="zielony szlak"/>
    <tag k="name:ru" v="зеленая тропа"/>
    <tag k="name:zh" v="綠色"/>
    <tag k="source" v="gps"/>
  </way>
</osm>
