<?xml version='1.0' encoding='UTF-8'?>
<osm version="0.6" generator="libosmium/2.20.0">
  <way id="82897227" version="2" timestamp="2011-02-07T12:22:10Z" uid="4467" user="Rosscoe" changeset="7215340">
    <nd ref="964804604"/>
    <nd ref="964804572"/>
    <nd ref="964804945"/>
    <tag k="highway" v="residential"/>
    <tag k="maxspeed" v="50"/>
    <tag k="name" v="Hakea Court"/>
    <tag k="source" v="nearmap"/>
    <tag k="source:maxspeed" v="default residential speed limit in Australia"/>
    <tag k="surface" v="asphalt"/>
  </way>
  <way id="82897229" version="2" timestamp="2011-02-07T12:22:01Z" uid="4467" user="Rosscoe" changeset="7215340">
    <nd ref="964804671"/>
    <nd ref="964804649"/>
    <nd ref="964804620"/>
    <nd ref="964805020"/>
    <nd ref="964804532"/>
    <nd ref="964805005"/>
    <nd ref="964804778"/>
    <nd ref="964804739"/>
    <nd ref="1140763108"/>
    <nd ref="1140763114"/>
    <nd ref="964804594"/>
    <tag k="highway" v="residential"/>
    <tag k="maxspeed" v="50"/>
    <tag k="name" v="Ploughshare Drive"/>
    <tag k="source" v="nearmap"/>
    <tag k="source:maxspeed" v="default residential speed limit in Australia"/>
    <tag k="surface" v="asphalt"/>
  </way>
  <way id="82897231" version="2" timestamp="2011-02-07T12:21:48Z" uid="4467" user="Rosscoe" changeset="7215340">
    <nd ref="964804873"/>
    <nd ref="1140763104"/>
    <nd ref="964804677"/>
    <nd ref="964804660"/>
    <nd ref="964804543"/>
    <nd ref="1140763113"/>
    <tag k="highway" v="residential"/>
    <tag k="maxspeed" v="50"/>
    <tag k="name" v="The Horizon"/>
    <tag k="source" v="nearmap"/>
    <tag k="source:maxspeed" v="default residential speed limit in Australia"/>
    <tag k="surface" v="asphalt"/>
  </way>
  <way id="82897232" version="2" timestamp="2011-02-07T11:59:36Z" uid="4467" user="Rosscoe" changeset="7215161">
    <nd ref="964804906"/>
    <nd ref="964804823"/>
    <tag k="highway" v="residential"/>
    <tag k="maxspeed" v="50"/>
    <tag k="name" v="Bellbird Court"/>
    <tag k="source" v="nearmap"/>
    <tag k="source:maxspeed" v="default residential speed limit in Australia"/>
    <tag k="surface" v="asphalt"/>
  </way>
  <way id="82897234" version="2" timestamp="2011-02-07T12:21:44Z" uid="4467" user="Rosscoe" changeset="7215340">
    <nd ref="964804620"/>
    <nd ref="964804636"/>
    <tag k="highway" v="residential"/>
    <tag k="maxspeed" v="50"/>
    <tag k="name" v="Correa Court"/>
    <tag k="source" v="nearmap"/>
    <tag k="source:maxspeed" v="default residential speed limit in Australia"/>
    <tag k="surface" v="asphalt"/>
  </way>
  <way id="82897235" version="2" timestamp="2011-02-07T12:22:00Z" uid="4467" user="Rosscoe" changeset="7215340">
    <nd ref="964804594"/>
    <nd ref="964804641"/>
    <nd ref="964804598"/>
    <nd ref="964804992"/>
    <tag k="highway" v="residential"/>
    <tag k="maxspeed" v="50"/>
    <tag k="name" v="Woodland Drive"/>
    <tag k="source" v="nearmap"/>
    <tag k="source:maxspeed" v="default residential speed limit in Australia"/>
    <tag k="surface" v="asphalt"/>
  </way>
  <way id="82897235" version="3" timestamp="2011-10-25T12:42:16Z" uid="206929" user="Supt_of_Printing" changeset="9651958">
    <nd ref="964804594"/>
    <nd ref="964804641"/>
    <nd ref="1480121039"/>
    <nd ref="1480121053"/>
    <nd ref="1480121048"/>
    <nd ref="1480121049"/>
    <nd ref="1480121037"/>
    <nd ref="1480121052"/>
    <nd ref="1480121033"/>
    <nd ref="964804598"/>
    <nd ref="964804992"/>
    <tag k="highway" v="residential"/>
    <tag k="maxspeed" v="50"/>
    <tag k="name" v="Woodland Drive"/>
    <tag k="source" v="nearmap"/>
    <tag k="source:maxspeed" v="default residential speed limit in Australia"/>
    <tag k="surface" v="asphalt"/>
  </way>
  <way id="82897236" version="2" timestamp="2011-02-07T12:22:13Z" uid="4467" user="Rosscoe" changeset="7215340">
    <nd ref="964804991"/>
    <nd ref="964804917"/>
    <nd ref="964804703"/>
    <nd ref="964804728"/>
    <tag k="highway" v="residential"/>
    <tag k="maxspeed" v="50"/>
    <tag k="name" v="Wirilda Court"/>
    <tag k="source" v="nearmap"/>
    <tag k="source:maxspeed" v="default residential speed limit in Australia"/>
    <tag k="surface" v="asphalt"/>
  </way>
  <way id="82897237" version="2" timestamp="2011-02-07T11:59:40Z" uid="4467" user="Rosscoe" changeset="7215161">
    <nd ref="964804574"/>
    <nd ref="964804952"/>
    <nd ref="964804961"/>
    <nd ref="1140747234"/>
    <nd ref="964804729"/>
    <nd ref="964804694"/>
    <nd ref="964804906"/>
    <nd ref="964804580"/>
    <nd ref="1140747269"/>
    <nd ref="964804619"/>
    <tag k="highway" v="residential"/>
    <tag k="maxspeed" v="50"/>
    <tag k="name" v="Park Lane"/>
    <tag k="source" v="nearmap"/>
    <tag k="source:maxspeed" v="default residential speed limit in Australia"/>
    <tag k="surface" v="asphalt"/>
  </way>
  <way id="82897239" version="2" timestamp="2011-02-07T12:21:47Z" uid="4467" user="Rosscoe" changeset="7215340">
    <nd ref="964804778"/>
    <nd ref="964804605"/>
    <tag k="highway" v="residential"/>
    <tag k="maxspeed" v="50"/>
    <tag k="name" v="Kookaburra Court"/>
    <tag k="source" v="nearmap"/>
    <tag k="source:maxspeed" v="default residential speed limit in Australia"/>
    <tag k="surface" v="asphalt"/>
  </way>
  <way id="82897242" version="2" timestamp="2011-02-07T11:59:44Z" uid="4467" user="Rosscoe" changeset="7215161">
    <nd ref="964804625"/>
    <nd ref="964805011"/>
    <nd ref="964804991"/>
    <nd ref="964805029"/>
    <nd ref="964804812"/>
    <nd ref="1140747253"/>
    <nd ref="964804604"/>
    <nd ref="964804766"/>
    <nd ref="964804640"/>
    <nd ref="964804873"/>
    <nd ref="964804594"/>
    <tag k="highway" v="residential"/>
    <tag k="name" v="Wattletree Drive"/>
  </way>
  <way id="82897242" version="3" timestamp="2011-02-07T12:21:52Z" uid="4467" user="Rosscoe" changeset="7215340">
    <nd ref="964804625"/>
    <nd ref="964805011"/>
    <nd ref="964804991"/>
    <nd ref="964805029"/>
    <nd ref="964804812"/>
    <nd ref="1140747253"/>
    <nd ref="964804604"/>
    <nd ref="964804766"/>
    <nd ref="964804640"/>
    <nd ref="1140763106"/>
    <nd ref="964804873"/>
    <nd ref="964804594"/>
    <tag k="highway" v="residential"/>
    <tag k="maxspeed" v="50"/>
    <tag k="name" v="Wattletree Drive"/>
    <tag k="source" v="nearmap"/>
    <tag k="source:maxspeed" v="default residential speed limit in Australia"/>
    <tag k="surface" v="asphalt"/>
  </way>
  <way id="82897246" version="2" timestamp="2011-02-07T11:59:30Z" uid="4467" user="Rosscoe" changeset="7215161">
    <nd ref="964804522"/>
    <nd ref="964804830"/>
    <nd ref="964804774"/>
    <nd ref="964804654"/>
    <nd ref="964804645"/>
    <nd ref="964804619"/>
    <nd ref="964805003"/>
    <nd ref="964805012"/>
    <nd ref="964804807"/>
    <nd ref="964804748"/>
    <nd ref="964804804"/>
    <nd ref="964804631"/>
    <tag k="highway" v="residential"/>
    <tag k="maxspeed" v="50"/>
    <tag k="name" v="Oakband Drive"/>
    <tag k="source" v="nearmap"/>
    <tag k="source:maxspeed" v="default residential speed limit in Australia"/>
    <tag k="surface" v="asphalt"/>
  </way>
  <way id="82897251" version="2" timestamp="2011-02-07T12:00:02Z" uid="4467" user="Rosscoe" changeset="7215161">
    <nd ref="964804830"/>
    <nd ref="964805014"/>
    <nd ref="964804966"/>
    <tag k="highway" v="residential"/>
    <tag k="maxspeed" v="50"/>
    <tag k="name" v="Rosewood Drive"/>
    <tag k="source" v="nearmap"/>
    <tag k="source:maxspeed" v="default residential speed limit in Australia"/>
    <tag k="surface" v="asphalt"/>
  </way>
  <way id="82897257" version="2" timestamp="2011-02-07T12:21:49Z" uid="4467" user="Rosscoe" changeset="7215340">
    <nd ref="964805020"/>
    <nd ref="964804980"/>
    <tag k="highway" v="residential"/>
    <tag k="maxspeed" v="50"/>
    <tag k="name" v="Viola Court"/>
    <tag k="source" v="nearmap"/>
    <tag k="source:maxspeed" v="default residential speed limit in Australia"/>
    <tag k="surface" v="asphalt"/>
  </way>
  <way id="82897268" version="2" timestamp="2011-02-07T11:59:45Z" uid="4467" user="Rosscoe" changeset="7215161">
    <nd ref="964804804"/>
    <nd ref="964804634"/>
    <tag k="highway" v="residential"/>
    <tag k="maxspeed" v="50"/>
    <tag k="name" v="Redwood Court"/>
    <tag k="source" v="nearmap"/>
    <tag k="source:maxspeed" v="default residential speed limit in Australia"/>
    <tag k="surface" v="asphalt"/>
  </way>
  <way id="82897271" version="2" timestamp="2011-02-07T12:00:13Z" uid="4467" user="Rosscoe" changeset="7215161"/>
  <way id="82897275" version="2" timestamp="2011-02-07T11:59:43Z" uid="4467" user="Rosscoe" changeset="7215161">
    <nd ref="964804654"/>
    <nd ref="964804536"/>
    <nd ref="964805009"/>
    <tag k="highway" v="residential"/>
    <tag k="maxspeed" v="50"/>
    <tag k="name" v="Mayfair Court"/>
    <tag k="source" v="nearmap"/>
    <tag k="source:maxspeed" v="default residential speed limit in Australia"/>
    <tag k="surface" v="asphalt"/>
  </way>
  <way id="82897227" version="3" timestamp="2012-07-19T08:03:53Z" uid="722137" user="OSMF Redaction Account" changeset="12313070">
    <nd ref="964804604"/>
    <nd ref="964804572"/>
    <nd ref="964804945"/>
    <tag k="highway" v="residential"/>
    <tag k="name" v="Hakea Court"/>
  </way>
  <way id="82897227" version="4" timestamp="2012-07-31T16:49:36Z" uid="379724" user="bugman" changeset="12563869">
    <nd ref="964804604"/>
    <nd ref="1845655583"/>
    <nd ref="964804572"/>
    <nd ref="1845655586"/>
    <nd ref="964804945"/>
    <tag k="highway" v="residential"/>
    <tag k="name" v="Hakea Court"/>
  </way>
  <way id="82897229" version="3" timestamp="2012-07-19T08:03:52Z" uid="722137" user="OSMF Redaction Account" changeset="12313070">
    <nd ref="964804671"/>
    <nd ref="964804649"/>
    <nd ref="964804620"/>
    <nd ref="964805020"/>
    <nd ref="964804532"/>
    <nd ref="964805005"/>
    <nd ref="964804778"/>
    <nd ref="964804739"/>
    <tag k="highway" v="residential"/>
    <tag k="name" v="Ploughshare Drive"/>
  </way>
  <way id="82897229" version="4" timestamp="2012-07-31T16:46:43Z" uid="379724" user="bugman" changeset="12563836">
    <nd ref="964804671"/>
    <nd ref="964804649"/>
    <nd ref="964804620"/>
    <nd ref="964805020"/>
    <nd ref="964804532"/>
    <nd ref="1845648839"/>
    <nd ref="1845648843"/>
    <nd ref="964805005"/>
    <nd ref="1845648837"/>
    <nd ref="1845648831"/>
    <nd ref="964804778"/>
    <nd ref="964804739"/>
    <tag k="highway" v="residential"/>
    <tag k="name" v="Ploughshare Drive"/>
  </way>
  <way id="82897229" version="5" timestamp="2012-07-31T16:49:37Z" uid="379724" user="bugman" changeset="12563869">
    <nd ref="964804671"/>
    <nd ref="1845655590"/>
    <nd ref="964804649"/>
    <nd ref="964804620"/>
    <nd ref="964805020"/>
    <nd ref="964804532"/>
    <nd ref="1845648839"/>
    <nd ref="1845648843"/>
    <nd ref="964805005"/>
    <nd ref="1845648837"/>
    <nd ref="1845648831"/>
    <nd ref="964804778"/>
    <nd ref="964804739"/>
    <tag k="highway" v="residential"/>
    <tag k="name" v="Ploughshare Drive"/>
  </way>
  <way id="82897231" version="3" timestamp="2012-07-19T08:03:52Z" uid="722137" user="OSMF Redaction Account" changeset="12313070">
    <nd ref="964804873"/>
    <nd ref="964804677"/>
    <nd ref="964804660"/>
    <nd ref="964804543"/>
    <tag k="highway" v="residential"/>
    <tag k="name" v="The Horizon"/>
  </way>
  <way id="82897231" version="4" timestamp="2012-07-31T16:58:36Z" uid="379724" user="bugman" changeset="12563974">
    <nd ref="964804873"/>
    <nd ref="1845671400"/>
    <nd ref="964804677"/>
    <nd ref="1845671401"/>
    <nd ref="964804660"/>
    <nd ref="1845671403"/>
    <nd ref="964804543"/>
    <tag k="highway" v="residential"/>
    <tag k="name" v="The Horizon"/>
  </way>
  <way id="82897232" version="3" timestamp="2012-07-19T08:03:53Z" uid="722137" user="OSMF Redaction Account" changeset="12313070">
    <nd ref="964804906"/>
    <nd ref="964804823"/>
    <tag k="highway" v="residential"/>
    <tag k="name" v="Bellbird Court"/>
  </way>
  <way id="82897234" version="3" timestamp="2012-07-19T08:03:52Z" uid="722137" user="OSMF Redaction Account" changeset="12313070">
    <nd ref="964804620"/>
    <nd ref="964804636"/>
    <tag k="highway" v="residential"/>
    <tag k="name" v="Correa Court"/>
  </way>
  <way id="82897235" version="4" timestamp="2012-07-19T08:03:53Z" uid="722137" user="OSMF Redaction Account" changeset="12313070">
    <nd ref="964804594"/>
    <nd ref="964804641"/>
    <nd ref="1480121039"/>
    <nd ref="1480121053"/>
    <nd ref="1480121048"/>
    <nd ref="1480121049"/>
    <nd ref="1480121037"/>
    <nd ref="1480121052"/>
    <nd ref="1480121033"/>
    <nd ref="964804598"/>
    <nd ref="964804992"/>
    <tag k="highway" v="residential"/>
    <tag k="name" v="Woodland Drive"/>
  </way>
  <way id="82897236" version="3" timestamp="2012-07-19T08:03:53Z" uid="722137" user="OSMF Redaction Account" changeset="12313070">
    <nd ref="964804991"/>
    <nd ref="964804917"/>
    <nd ref="964804703"/>
    <nd ref="964804728"/>
    <tag k="highway" v="residential"/>
    <tag k="name" v="Wirilda Court"/>
  </way>
  <way id="82897236" version="4" timestamp="2012-07-31T16:49:37Z" uid="379724" user="bugman" changeset="12563869">
    <nd ref="964804991"/>
    <nd ref="1845655584"/>
    <nd ref="964804917"/>
    <nd ref="964804703"/>
    <nd ref="964804728"/>
    <tag k="highway" v="residential"/>
    <tag k="name" v="Wirilda Court"/>
  </way>
  <way id="82897237" version="3" timestamp="2012-07-19T08:03:51Z" uid="722137" user="OSMF Redaction Account" changeset="12313070">
    <nd ref="964804574"/>
    <nd ref="964804952"/>
    <nd ref="964804961"/>
    <nd ref="964804729"/>
    <nd ref="964804694"/>
    <nd ref="964804906"/>
    <nd ref="964804580"/>
    <nd ref="964804619"/>
    <tag k="highway" v="residential"/>
    <tag k="name" v="Park Lane"/>
  </way>
  <way id="82897237" version="4" timestamp="2012-07-31T16:49:36Z" uid="379724" user="bugman" changeset="12563869">
    <nd ref="964804574"/>
    <nd ref="964804952"/>
    <nd ref="964804961"/>
    <nd ref="1845655544"/>
    <nd ref="1845655552"/>
    <nd ref="1845655549"/>
    <nd ref="964804729"/>
    <nd ref="1845655524"/>
    <nd ref="964804694"/>
    <nd ref="964804906"/>
    <nd ref="964804580"/>
    <nd ref="1845655538"/>
    <nd ref="1845655535"/>
    <nd ref="964804619"/>
    <tag k="highway" v="residential"/>
    <tag k="name" v="Park Lane"/>
  </way>
  <way id="82897239" version="3" timestamp="2012-07-19T08:03:52Z" uid="722137" user="OSMF Redaction Account" changeset="12313070">
    <nd ref="964804778"/>
    <nd ref="964804605"/>
    <tag k="highway" v="residential"/>
    <tag k="name" v="Kookaburra Court"/>
  </way>
  <way id="82897239" version="4" timestamp="2012-07-31T16:45:44Z" uid="379724" user="bugman" changeset="12563826">
    <nd ref="964804778"/>
    <nd ref="1845645413"/>
    <nd ref="964804605"/>
    <tag k="highway" v="residential"/>
    <tag k="name" v="Kookaburra Court"/>
  </way>
  <way id="82897242" version="4" timestamp="2012-07-19T08:03:52Z" uid="722137" user="OSMF Redaction Account" changeset="12313070">
    <nd ref="964804625"/>
    <nd ref="964805011"/>
    <nd ref="964804991"/>
    <nd ref="964805029"/>
    <nd ref="964804812"/>
    <nd ref="964804604"/>
    <nd ref="964804766"/>
    <nd ref="964804640"/>
    <nd ref="964804873"/>
    <nd ref="964804594"/>
    <tag k="highway" v="residential"/>
    <tag k="name" v="Wattletree Drive"/>
  </way>
  <way id="82897242" version="5" timestamp="2012-07-31T16:45:44Z" uid="379724" user="bugman" changeset="12563826">
    <nd ref="964804625"/>
    <nd ref="964805011"/>
    <nd ref="964804991"/>
    <nd ref="964805029"/>
    <nd ref="964804812"/>
    <nd ref="964804604"/>
    <nd ref="964804766"/>
    <nd ref="964804640"/>
    <nd ref="964804873"/>
    <nd ref="964804594"/>
    <nd ref="1845645406"/>
    <nd ref="1845645409"/>
    <nd ref="964804739"/>
    <tag k="highway" v="residential"/>
    <tag k="name" v="Wattletree Drive"/>
  </way>
  <way id="82897242" version="6" timestamp="2012-07-31T16:49:37Z" uid="379724" user="bugman" changeset="12563869">
    <nd ref="964804625"/>
    <nd ref="1845655589"/>
    <nd ref="964805011"/>
    <nd ref="964804991"/>
    <nd ref="964805029"/>
    <nd ref="1845655581"/>
    <nd ref="964804812"/>
    <nd ref="1845655579"/>
    <nd ref="964804604"/>
    <nd ref="964804766"/>
    <nd ref="964804640"/>
    <nd ref="964804873"/>
    <nd ref="964804594"/>
    <nd ref="1845645406"/>
    <nd ref="1845645409"/>
    <nd ref="964804739"/>
    <tag k="highway" v="residential"/>
    <tag k="name" v="Wattletree Drive"/>
  </way>
  <way id="82897242" version="7" timestamp="2012-07-31T16:59:44Z" uid="379724" user="bugman" changeset="12563988">
    <nd ref="964804625"/>
    <nd ref="1845655589"/>
    <nd ref="964805011"/>
    <nd ref="964804991"/>
    <nd ref="964805029"/>
    <nd ref="1845655581"/>
    <nd ref="964804812"/>
    <nd ref="1845655579"/>
    <nd ref="964804604"/>
    <nd ref="964804766"/>
    <nd ref="1845672404"/>
    <nd ref="1845672402"/>
    <nd ref="1845672400"/>
    <nd ref="964804640"/>
    <nd ref="1845672401"/>
    <nd ref="1845672403"/>
    <nd ref="964804873"/>
    <nd ref="1845672405"/>
    <nd ref="964804594"/>
    <nd ref="1845645406"/>
    <nd ref="1845645409"/>
    <nd ref="964804739"/>
    <tag k="highway" v="residential"/>
    <tag k="name" v="Wattletree Drive"/>
  </way>
  <way id="82897246" version="3" timestamp="2012-07-19T08:03:54Z" uid="722137" user="OSMF Redaction Account" changeset="12313070">
    <nd ref="964804522"/>
    <nd ref="964804830"/>
    <nd ref="964804774"/>
    <nd ref="964804654"/>
    <nd ref="964804645"/>
    <nd ref="964804619"/>
    <nd ref="964805003"/>
    <nd ref="964805012"/>
    <nd ref="964804807"/>
    <nd ref="964804748"/>
    <nd ref="964804804"/>
    <nd ref="964804631"/>
    <tag k="highway" v="residential"/>
    <tag k="name" v="Oakband Drive"/>
  </way>
  <way id="82897246" version="4" timestamp="2012-07-31T16:50:47Z" uid="379724" user="bugman" changeset="12563888">
    <nd ref="964804522"/>
    <nd ref="964804830"/>
    <nd ref="964804774"/>
    <nd ref="964804654"/>
    <nd ref="1845658133"/>
    <nd ref="964804645"/>
    <nd ref="964804619"/>
    <nd ref="1845658138"/>
    <nd ref="964805003"/>
    <nd ref="1845658143"/>
    <nd ref="964805012"/>
    <nd ref="1845658140"/>
    <nd ref="964804807"/>
    <nd ref="1845658135"/>
    <nd ref="964804748"/>
    <nd ref="964804804"/>
    <nd ref="964804631"/>
    <tag k="highway" v="residential"/>
    <tag k="name" v="Oakband Drive"/>
  </way>
  <way id="82897251" version="3" timestamp="2012-07-19T08:03:54Z" uid="722137" user="OSMF Redaction Account" changeset="12313070">
    <nd ref="964804830"/>
    <nd ref="964805014"/>
    <nd ref="964804966"/>
    <tag k="highway" v="residential"/>
    <tag k="name" v="Rosewood Drive"/>
  </way>
  <way id="82897251" version="4" timestamp="2012-07-31T16:50:47Z" uid="379724" user="bugman" changeset="12563888">
    <nd ref="964804830"/>
    <nd ref="964805014"/>
    <nd ref="1845658127"/>
    <nd ref="964804966"/>
    <tag k="highway" v="residential"/>
    <tag k="name" v="Rosewood Drive"/>
  </way>
  <way id="82897257" version="3" timestamp="2012-07-19T08:03:52Z" uid="722137" user="OSMF Redaction Account" changeset="12313070">
    <nd ref="964805020"/>
    <nd ref="964804980"/>
    <tag k="highway" v="residential"/>
    <tag k="name" v="Viola Court"/>
  </way>
  <way id="82897268" version="3" timestamp="2012-07-19T08:03:53Z" uid="722137" user="OSMF Redaction Account" changeset="12313070">
    <nd ref="964804804"/>
    <nd ref="964804634"/>
    <tag k="highway" v="residential"/>
    <tag k="name" v="Redwood Court"/>
  </way>
  <way id="82897275" version="3" timestamp="2012-07-19T08:03:54Z" uid="722137" user="OSMF Redaction Account" changeset="12313070">
    <nd ref="964804654"/>
    <nd ref="964804536"/>
    <nd ref="964805009"/>
    <tag k="highway" v="residential"/>
    <tag k="name" v="Mayfair Court"/>
  </way>
  <way id="82897275" version="4" timestamp="2012-07-31T16:50:47Z" uid="379724" user="bugman" changeset="12563888">
    <nd ref="964804654"/>
    <nd ref="1845658130"/>
    <nd ref="964804536"/>
    <nd ref="1845658132"/>
    <nd ref="964805009"/>
    <tag k="highway" v="residential"/>
    <tag k="name" v="Mayfair Court"/>
  </way>
</osm>
