<?xml version='1.0' encoding='UTF-8'?>
<osm version="0.6" generator="libosmium/2.20.0">
  <way id="82954632" version="2" timestamp="2011-04-25T20:19:19Z" uid="33382" user="de_muur" changeset="7968417">
    <nd ref="262491933"/>
    <nd ref="262491769"/>
    <tag k="highway" v="tertiary"/>
    <tag k="maxspeed" v="50"/>
    <tag k="maxspeed:hgv" v="30"/>
    <tag k="name" v="DorfstraÃŸe"/>
    <tag k="ref" v="K 41"/>
    <tag k="surface" v="paved"/>
  </way>
  <way id="82954633" version="3" timestamp="2011-06-05T19:52:33Z" uid="33382" user="de_muur" changeset="8353494">
    <nd ref="271396686"/>
    <nd ref="299457042"/>
    <nd ref="299484302"/>
    <nd ref="271396685"/>
    <nd ref="271396684"/>
    <nd ref="271396683"/>
    <nd ref="1196638769"/>
    <nd ref="271396325"/>
    <nd ref="271396324"/>
    <nd ref="279566739"/>
    <nd ref="271396322"/>
    <nd ref="280521433"/>
    <tag k="highway" v="secondary"/>
    <tag k="maxspeed" v="100"/>
    <tag k="ref" v="L 200"/>
    <tag k="surface" v="paved"/>
  </way>
  <way id="82954632" version="3" timestamp="2012-04-25T11:11:31Z" uid="63107" user="brogo" changeset="11413582"/>
  <way id="82954633" version="4" timestamp="2012-04-13T07:06:06Z" uid="63107" user="brogo" changeset="11284262"/>
</osm>
