<?xml version='1.0' encoding='UTF-8'?>
<osm version="0.6" generator="libosmium/2.20.0">
  <way id="83283931" version="1" timestamp="2010-10-29T19:12:50Z" uid="171838" user="argrath" changeset="6221369">
    <nd ref="252996510"/>
    <nd ref="252996511"/>
    <nd ref="252996512"/>
    <nd ref="252996513"/>
    <nd ref="258073930"/>
    <nd ref="252996514"/>
    <nd ref="762324382"/>
    <tag k="bridge" v="yes"/>
    <tag k="highway" v="trunk"/>
    <tag k="ref" v="24"/>
  </way>
  <way id="83283931" version="2" timestamp="2011-02-18T10:27:03Z" uid="359289" user="nissyyu" changeset="7321042"/>
  <way id="83283932" version="1" timestamp="2010-10-29T19:12:50Z" uid="171838" user="argrath" changeset="6221369">
    <nd ref="762324382"/>
    <nd ref="614991263"/>
    <nd ref="252996515"/>
    <nd ref="252996516"/>
    <nd ref="252996517"/>
    <nd ref="252996546"/>
    <nd ref="252996518"/>
    <nd ref="252996519"/>
    <nd ref="252996520"/>
    <nd ref="346114568"/>
    <nd ref="346114569"/>
    <nd ref="252996521"/>
    <nd ref="252996522"/>
    <nd ref="252996523"/>
    <nd ref="346114570"/>
    <nd ref="346114571"/>
    <nd ref="252996524"/>
    <nd ref="252996525"/>
    <nd ref="252997586"/>
    <nd ref="252996526"/>
    <nd ref="346114572"/>
    <nd ref="252996527"/>
    <nd ref="287031017"/>
    <nd ref="252996528"/>
    <nd ref="252996529"/>
    <nd ref="252996530"/>
    <nd ref="252996531"/>
    <nd ref="252996532"/>
    <nd ref="252996533"/>
    <nd ref="346114664"/>
    <nd ref="252996534"/>
    <nd ref="252996535"/>
    <nd ref="252996536"/>
    <nd ref="252997600"/>
    <nd ref="252997601"/>
    <nd ref="252997602"/>
    <nd ref="252997603"/>
    <nd ref="252997604"/>
    <nd ref="252997605"/>
    <nd ref="252997606"/>
    <nd ref="252997607"/>
    <nd ref="252997608"/>
    <nd ref="252997609"/>
    <nd ref="252997610"/>
    <nd ref="252997611"/>
    <nd ref="252997612"/>
    <nd ref="252997613"/>
    <nd ref="254451174"/>
    <nd ref="252997614"/>
    <nd ref="252997615"/>
    <nd ref="252997616"/>
    <nd ref="252997617"/>
    <nd ref="252997618"/>
    <nd ref="253197999"/>
    <nd ref="252997619"/>
    <nd ref="252997620"/>
    <nd ref="252997621"/>
    <nd ref="252997622"/>
    <nd ref="252997623"/>
    <nd ref="252997624"/>
    <nd ref="253031973"/>
    <nd ref="252997625"/>
    <nd ref="828661451"/>
    <nd ref="828661475"/>
    <nd ref="828661469"/>
    <nd ref="252997626"/>
    <nd ref="252997647"/>
    <tag k="highway" v="trunk"/>
    <tag k="name" v="国道24号"/>
    <tag k="ref" v="24"/>
  </way>
  <way id="83283932" version="2" timestamp="2010-10-29T19:22:38Z" uid="171838" user="argrath" changeset="6221463">
    <nd ref="762324382"/>
    <nd ref="614991263"/>
    <nd ref="252996515"/>
    <nd ref="252996516"/>
    <nd ref="252996517"/>
    <nd ref="252996546"/>
    <nd ref="252996518"/>
    <nd ref="252996519"/>
    <nd ref="252996520"/>
    <nd ref="346114568"/>
    <nd ref="346114569"/>
    <nd ref="252996521"/>
    <nd ref="252996522"/>
    <nd ref="252996523"/>
    <nd ref="346114570"/>
    <nd ref="346114571"/>
    <nd ref="252996524"/>
    <nd ref="252996525"/>
    <nd ref="252997586"/>
    <nd ref="252996526"/>
    <nd ref="346114572"/>
    <nd ref="252996527"/>
    <nd ref="287031017"/>
    <tag k="highway" v="trunk"/>
    <tag k="name" v="国道24号"/>
    <tag k="ref" v="24"/>
  </way>
  <way id="83283932" version="3" timestamp="2011-02-18T10:26:51Z" uid="359289" user="nissyyu" changeset="7321042">
    <nd ref="252996510"/>
    <nd ref="1158869243"/>
    <nd ref="762328591"/>
    <nd ref="762328594"/>
    <nd ref="762328598"/>
    <nd ref="762328600"/>
    <nd ref="762328615"/>
    <nd ref="762324382"/>
    <nd ref="614991263"/>
    <tag k="highway" v="trunk"/>
    <tag k="lanes" v="2"/>
    <tag k="layer" v="1"/>
    <tag k="name" v="国道24号"/>
    <tag k="name:en" v="Route 24"/>
    <tag k="name:ja" v="国道 24号"/>
    <tag k="oneway" v="yes"/>
    <tag k="ref" v="24"/>
  </way>
  <way id="83283932" version="4" timestamp="2011-02-22T09:32:43Z" uid="359289" user="nissyyu" changeset="7361552">
    <nd ref="252996510"/>
    <nd ref="1158869243"/>
    <nd ref="762328591"/>
    <nd ref="762328594"/>
    <nd ref="762328598"/>
    <nd ref="762328600"/>
    <nd ref="762328615"/>
    <nd ref="762324382"/>
    <tag k="bridge" v="yes"/>
    <tag k="highway" v="trunk"/>
    <tag k="lanes" v="2"/>
    <tag k="layer" v="1"/>
    <tag k="name" v="国道24号"/>
    <tag k="name:en" v="Route 24"/>
    <tag k="name:ja" v="国道 24号"/>
    <tag k="oneway" v="yes"/>
    <tag k="ref" v="24"/>
  </way>
  <way id="83283932" version="5" timestamp="2012-07-21T04:32:37Z" uid="722137" user="OSMF Redaction Account" changeset="12400075">
    <nd ref="252996510"/>
    <nd ref="1158869243"/>
    <nd ref="762328591"/>
    <nd ref="762328594"/>
    <nd ref="762328598"/>
    <nd ref="762328600"/>
    <nd ref="762328615"/>
    <tag k="bridge" v="yes"/>
    <tag k="lanes" v="2"/>
    <tag k="layer" v="1"/>
    <tag k="name:en" v="Route 24"/>
    <tag k="name:ja" v="国道 24号"/>
    <tag k="oneway" v="yes"/>
  </way>
  <way id="83283932" version="6" timestamp="2012-08-17T00:23:34Z" uid="353860" user="kp61" changeset="12757048">
    <nd ref="252996510"/>
    <nd ref="1158869243"/>
    <nd ref="762328591"/>
    <nd ref="762328594"/>
    <nd ref="762328598"/>
    <nd ref="762328600"/>
    <nd ref="762328615"/>
    <nd ref="762324382"/>
    <tag k="bridge" v="yes"/>
    <tag k="highway" v="trunk"/>
    <tag k="lanes" v="2"/>
    <tag k="layer" v="1"/>
    <tag k="name" v="国道24号"/>
    <tag k="name:en" v="Route 24"/>
    <tag k="name:ja" v="国道 24号"/>
    <tag k="oneway" v="yes"/>
    <tag k="ref" v="24"/>
  </way>
</osm>
