<?xml version='1.0' encoding='UTF-8'?>
<osm version="0.6" generator="libosmium/2.20.0">
  <way id="83329539" version="3" timestamp="2011-03-24T00:47:00Z" uid="4467" user="Rosscoe" changeset="7652113">
    <nd ref="969629436"/>
    <nd ref="969629291"/>
    <nd ref="969629346"/>
    <tag k="highway" v="residential"/>
    <tag k="source" v="nearmap"/>
  </way>
  <way id="83329539" version="4" timestamp="2012-01-26T10:05:29Z" uid="211505" user="Pierce" changeset="10501496">
    <nd ref="969629436"/>
    <nd ref="969629291"/>
    <nd ref="969629346"/>
    <tag k="highway" v="residential"/>
    <tag k="name" v="Darter Court"/>
    <tag k="source" v="nearmap"/>
  </way>
  <way id="83329539" version="5" timestamp="2012-03-01T04:35:01Z" uid="211505" user="Pierce" changeset="10834377">
    <nd ref="969629436"/>
    <nd ref="969629291"/>
    <nd ref="1653917635"/>
    <tag k="highway" v="residential"/>
    <tag k="name" v="Darter Court"/>
    <tag k="source" v="nearmap"/>
  </way>
  <way id="83329555" version="3" timestamp="2011-03-24T00:47:03Z" uid="4467" user="Rosscoe" changeset="7652113">
    <nd ref="969629450"/>
    <nd ref="969629308"/>
    <nd ref="969629408"/>
    <tag k="highway" v="residential"/>
    <tag k="source" v="nearmap"/>
  </way>
  <way id="83329555" version="4" timestamp="2012-01-26T10:05:30Z" uid="211505" user="Pierce" changeset="10501496">
    <nd ref="969629450"/>
    <nd ref="969629308"/>
    <nd ref="969629408"/>
    <tag k="highway" v="residential"/>
    <tag k="name" v="Bittern Court"/>
    <tag k="source" v="nearmap"/>
  </way>
  <way id="83329555" version="5" timestamp="2012-03-01T04:35:02Z" uid="211505" user="Pierce" changeset="10834377">
    <nd ref="969629450"/>
    <nd ref="1653918024"/>
    <nd ref="1653918067"/>
    <nd ref="969629308"/>
    <nd ref="1653917780"/>
    <nd ref="969629408"/>
    <tag k="highway" v="residential"/>
    <tag k="name" v="Bittern Court"/>
    <tag k="source" v="nearmap"/>
  </way>
  <way id="83329575" version="2" timestamp="2011-03-24T00:46:51Z" uid="4467" user="Rosscoe" changeset="7652113">
    <nd ref="969629395"/>
    <nd ref="969629322"/>
    <tag k="highway" v="residential"/>
  </way>
  <way id="83329575" version="3" timestamp="2012-01-12T09:41:04Z" uid="11111" user="melb_guy" changeset="10367622"/>
  <way id="83329578" version="2" timestamp="2011-03-24T00:46:53Z" uid="4467" user="Rosscoe" changeset="7652113">
    <nd ref="969629485"/>
    <nd ref="969629382"/>
    <nd ref="969629405"/>
    <tag k="highway" v="residential"/>
    <tag k="source" v="nearmap"/>
  </way>
  <way id="83329578" version="3" timestamp="2012-01-26T07:42:25Z" uid="211505" user="Pierce" changeset="10500531">
    <nd ref="969629485"/>
    <nd ref="969629382"/>
    <nd ref="969629405"/>
    <tag k="highway" v="residential"/>
    <tag k="name" v="Nankeen Avenue"/>
    <tag k="source" v="nearmap"/>
  </way>
  <way id="83329578" version="4" timestamp="2012-03-01T04:35:03Z" uid="211505" user="Pierce" changeset="10834377">
    <nd ref="969629485"/>
    <nd ref="1653918178"/>
    <nd ref="969629382"/>
    <nd ref="1653918091"/>
    <nd ref="969629405"/>
    <tag k="highway" v="residential"/>
    <tag k="name" v="Nankeen Avenue"/>
    <tag k="source" v="nearmap"/>
  </way>
  <way id="83329579" version="3" timestamp="2011-03-24T00:46:59Z" uid="4467" user="Rosscoe" changeset="7652113">
    <nd ref="969629490"/>
    <nd ref="969629382"/>
    <nd ref="969629291"/>
    <tag k="highway" v="residential"/>
    <tag k="source" v="nearmap"/>
  </way>
  <way id="83329579" version="4" timestamp="2012-01-26T07:42:24Z" uid="211505" user="Pierce" changeset="10500531">
    <nd ref="969629490"/>
    <nd ref="969629382"/>
    <tag k="highway" v="residential"/>
    <tag k="name" v="Mallard Court"/>
    <tag k="source" v="nearmap"/>
  </way>
  <way id="83329579" version="5" timestamp="2012-03-01T04:35:04Z" uid="211505" user="Pierce" changeset="10834377">
    <nd ref="969629490"/>
    <nd ref="1653917973"/>
    <nd ref="969629382"/>
    <tag k="highway" v="residential"/>
    <tag k="name" v="Mallard Court"/>
    <tag k="source" v="nearmap"/>
  </way>
  <way id="83329583" version="3" timestamp="2011-03-24T00:46:56Z" uid="4467" user="Rosscoe" changeset="7652113">
    <nd ref="969629341"/>
    <nd ref="969629372"/>
    <nd ref="1215567707"/>
    <nd ref="969629333"/>
    <nd ref="1215567708"/>
    <nd ref="969629395"/>
    <tag k="highway" v="residential"/>
    <tag k="source" v="nearmap"/>
  </way>
  <way id="83329583" version="4" timestamp="2012-01-26T07:42:24Z" uid="211505" user="Pierce" changeset="10500531">
    <nd ref="969629341"/>
    <nd ref="969629372"/>
    <nd ref="1215567707"/>
    <nd ref="969629333"/>
    <nd ref="1215567708"/>
    <nd ref="969629395"/>
    <tag k="highway" v="residential"/>
    <tag k="name" v="Barnong Way"/>
    <tag k="source" v="nearmap"/>
  </way>
  <way id="83329583" version="5" timestamp="2012-03-01T04:35:05Z" uid="211505" user="Pierce" changeset="10834377">
    <nd ref="969629341"/>
    <nd ref="1653917440"/>
    <nd ref="969629372"/>
    <nd ref="1653918154"/>
    <nd ref="1215567707"/>
    <nd ref="1653917679"/>
    <nd ref="969629333"/>
    <nd ref="1215567708"/>
    <nd ref="1653917407"/>
    <nd ref="969629395"/>
    <tag k="highway" v="residential"/>
    <tag k="name" v="Barnong Way"/>
    <tag k="source" v="nearmap"/>
  </way>
  <way id="83329539" version="6" timestamp="2012-07-19T04:22:24Z" uid="722137" user="OSMF Redaction Account" changeset="12307988">
    <nd ref="969629436"/>
    <nd ref="969629291"/>
    <nd ref="1653917635"/>
    <tag k="highway" v="construction"/>
    <tag k="name" v="Darter Court"/>
  </way>
  <way id="83329555" version="6" timestamp="2012-07-19T04:22:24Z" uid="722137" user="OSMF Redaction Account" changeset="12307988">
    <nd ref="969629450"/>
    <nd ref="1653918024"/>
    <nd ref="1653918067"/>
    <nd ref="969629308"/>
    <nd ref="1653917780"/>
    <nd ref="969629408"/>
    <tag k="highway" v="construction"/>
    <tag k="name" v="Bittern Court"/>
  </way>
  <way id="83329578" version="5" timestamp="2012-07-19T04:22:22Z" uid="722137" user="OSMF Redaction Account" changeset="12307988">
    <nd ref="969629485"/>
    <nd ref="1653918178"/>
    <nd ref="969629382"/>
    <nd ref="1653918091"/>
    <nd ref="969629405"/>
    <tag k="highway" v="construction"/>
    <tag k="name" v="Nankeen Avenue"/>
  </way>
  <way id="83329579" version="6" timestamp="2012-07-19T04:22:24Z" uid="722137" user="OSMF Redaction Account" changeset="12307988">
    <nd ref="969629490"/>
    <nd ref="1653917973"/>
    <nd ref="969629382"/>
    <tag k="highway" v="construction"/>
    <tag k="name" v="Mallard Court"/>
  </way>
  <way id="83329583" version="6" timestamp="2012-07-19T04:22:05Z" uid="722137" user="OSMF Redaction Account" changeset="12307988">
    <nd ref="969629341"/>
    <nd ref="1653917440"/>
    <nd ref="969629372"/>
    <nd ref="1653918154"/>
    <nd ref="1653917679"/>
    <nd ref="969629333"/>
    <nd ref="1653917407"/>
    <nd ref="969629395"/>
    <tag k="highway" v="construction"/>
    <tag k="name" v="Barnong Way"/>
  </way>
</osm>
