<?xml version='1.0' encoding='UTF-8'?>
<osm version="0.6" generator="libosmium/2.20.0">
  <way id="83485388" version="2" timestamp="2010-12-06T00:29:27Z" uid="6269" user="Mueck" changeset="6558663">
    <nd ref="119101575"/>
    <nd ref="288448902"/>
    <tag k="highway" v="residential"/>
    <tag k="name" v="Luise-Riegger-Straße"/>
  </way>
  <way id="83485388" version="3" timestamp="2011-11-28T12:38:31Z" uid="551178" user="Timo1981" changeset="9977413">
    <nd ref="119101575"/>
    <nd ref="1521021338"/>
    <nd ref="288448902"/>
    <tag k="highway" v="residential"/>
    <tag k="name" v="Luise-Riegger-Straße"/>
    <tag k="surface" v="asphalt"/>
  </way>
  <way id="83485389" version="2" timestamp="2010-12-06T00:29:27Z" uid="6269" user="Mueck" changeset="6558663">
    <nd ref="119101586"/>
    <nd ref="469078613"/>
    <nd ref="469078632"/>
    <nd ref="119101597"/>
    <tag k="construction" v="residential"/>
    <tag k="highway" v="construction"/>
    <tag k="name" v="Marie-Juchacz-Straße"/>
    <tag k="oneway" v="yes"/>
  </way>
  <way id="83485389" version="3" timestamp="2011-10-25T09:36:41Z" uid="442210" user="dwausr" changeset="9650178"/>
  <way id="83485388" version="4" timestamp="2012-04-17T21:24:20Z" uid="35468" user="Blunauer" changeset="11338246">
    <nd ref="1721144389"/>
    <nd ref="1521021338"/>
    <nd ref="288448902"/>
    <tag k="highway" v="residential"/>
    <tag k="name" v="Luise-Riegger-Straße"/>
    <tag k="surface" v="asphalt"/>
  </way>
</osm>
