<?xml version='1.0' encoding='UTF-8'?>
<osm version="0.6" generator="libosmium/2.20.0">
  <way id="83568631" version="1" timestamp="2010-11-01T00:08:36Z" uid="34428" user="usm78-gis" changeset="6249816">
    <nd ref="307611"/>
    <nd ref="21626366"/>
    <tag k="addr:postcode" v="191124"/>
    <tag k="cladr:code" v="78000000000129300"/>
    <tag k="cladr:name" v="Смольный"/>
    <tag k="cladr:suffix" v="Проезд"/>
    <tag k="highway" v="residential"/>
    <tag k="name" v="Смольный проспект"/>
  </way>
  <way id="83568631" version="2" timestamp="2011-09-27T22:02:14Z" uid="143266" user="Sergey Astakhov" changeset="9415287">
    <nd ref="307611"/>
    <nd ref="21626366"/>
    <tag k="addr:postcode" v="191124"/>
    <tag k="highway" v="residential"/>
    <tag k="name" v="Смольный проспект"/>
  </way>
  <way id="83568633" version="1" timestamp="2010-11-01T00:08:36Z" uid="34428" user="usm78-gis" changeset="6249816">
    <nd ref="973131928"/>
    <nd ref="973131884"/>
    <nd ref="973131912"/>
    <nd ref="973131866"/>
    <tag k="highway" v="service"/>
  </way>
  <way id="83568634" version="1" timestamp="2010-11-01T00:08:37Z" uid="34428" user="usm78-gis" changeset="6249816">
    <nd ref="21597029"/>
    <nd ref="973131925"/>
    <nd ref="80397746"/>
    <nd ref="352254"/>
    <tag k="addr:postcode" v="191124"/>
    <tag k="cladr:code" v="78000000000129300"/>
    <tag k="cladr:name" v="Смольный"/>
    <tag k="cladr:suffix" v="Проезд"/>
    <tag k="highway" v="residential"/>
    <tag k="name" v="Смольный проспект"/>
  </way>
  <way id="83568634" version="2" timestamp="2011-09-27T22:02:14Z" uid="143266" user="Sergey Astakhov" changeset="9415287">
    <nd ref="21597029"/>
    <nd ref="973131925"/>
    <nd ref="80397746"/>
    <nd ref="352254"/>
    <tag k="addr:postcode" v="191124"/>
    <tag k="highway" v="residential"/>
    <tag k="name" v="Смольный проспект"/>
  </way>
  <way id="83568634" version="3" timestamp="2012-01-19T02:22:49Z" uid="437809" user="Anton Khorev" changeset="10433546">
    <nd ref="21597029"/>
    <nd ref="973131925"/>
    <nd ref="80397746"/>
    <nd ref="1597034876"/>
    <tag k="addr:postcode" v="191124"/>
    <tag k="highway" v="residential"/>
    <tag k="name" v="Смольный проспект"/>
  </way>
  <way id="83568634" version="4" timestamp="2012-01-19T05:10:58Z" uid="437809" user="Anton Khorev" changeset="10433871">
    <nd ref="21597029"/>
    <nd ref="973131925"/>
    <nd ref="80397746"/>
    <nd ref="1597241495"/>
    <nd ref="1597034876"/>
    <tag k="addr:postcode" v="191124"/>
    <tag k="highway" v="residential"/>
    <tag k="name" v="Смольный проспект"/>
  </way>
  <way id="83568634" version="5" timestamp="2012-01-19T07:13:42Z" uid="437809" user="Anton Khorev" changeset="10434293"/>
  <way id="83568636" version="1" timestamp="2010-11-01T00:08:37Z" uid="34428" user="usm78-gis" changeset="6249816">
    <nd ref="649594805"/>
    <nd ref="649594807"/>
    <nd ref="649594808"/>
    <nd ref="649594809"/>
    <nd ref="649594810"/>
    <tag k="highway" v="service"/>
  </way>
  <way id="83568638" version="1" timestamp="2010-11-01T00:08:37Z" uid="34428" user="usm78-gis" changeset="6249816">
    <nd ref="15487440"/>
    <nd ref="973131828"/>
    <nd ref="973131862"/>
    <tag k="highway" v="track"/>
  </way>
  <way id="83568639" version="1" timestamp="2010-11-01T00:08:37Z" uid="34428" user="usm78-gis" changeset="6249816">
    <nd ref="973131901"/>
    <nd ref="959221367"/>
    <tag k="cladr:code" v="78000000000017500"/>
    <tag k="cladr:name" v="Богатырский"/>
    <tag k="cladr:suffix" v="Проспект"/>
    <tag k="highway" v="residential"/>
    <tag k="name" v="Богатырский проспект"/>
    <tag k="oneway" v="yes"/>
  </way>
  <way id="83568639" version="2" timestamp="2011-07-23T13:21:53Z" uid="39040" user="Dinamik" changeset="8806221">
    <nd ref="259231"/>
    <nd ref="973131901"/>
    <nd ref="959221367"/>
    <tag k="cladr:code" v="78000000000017500"/>
    <tag k="cladr:name" v="Богатырский"/>
    <tag k="cladr:suffix" v="Проспект"/>
    <tag k="highway" v="secondary"/>
    <tag k="name" v="Богатырский проспект"/>
    <tag k="oneway" v="yes"/>
  </way>
  <way id="83568639" version="3" timestamp="2011-09-03T09:07:47Z" uid="399728" user="Autopro" changeset="9199006">
    <nd ref="259231"/>
    <nd ref="973131901"/>
    <nd ref="959221367"/>
    <tag k="cladr:code" v="78000000000017500"/>
    <tag k="cladr:name" v="Богатырский"/>
    <tag k="cladr:suffix" v="Проспект"/>
    <tag k="construction" v="secondary"/>
    <tag k="highway" v="construction"/>
    <tag k="name" v="Богатырский проспект"/>
    <tag k="oneway" v="yes"/>
  </way>
  <way id="83568639" version="4" timestamp="2011-09-05T11:52:03Z" uid="39040" user="Dinamik" changeset="9216938"/>
  <way id="83568640" version="1" timestamp="2010-11-01T00:08:37Z" uid="34428" user="usm78-gis" changeset="6249816">
    <nd ref="649594839"/>
    <nd ref="973131857"/>
    <tag k="highway" v="service"/>
  </way>
  <way id="83568643" version="1" timestamp="2010-11-01T00:08:38Z" uid="34428" user="usm78-gis" changeset="6249816">
    <nd ref="973131844"/>
    <nd ref="973131886"/>
    <nd ref="973131873"/>
    <nd ref="973131935"/>
    <nd ref="973131855"/>
    <nd ref="973131919"/>
    <nd ref="973131882"/>
    <tag k="access" v="private"/>
    <tag k="highway" v="service"/>
  </way>
  <way id="83568644" version="1" timestamp="2010-11-01T00:08:38Z" uid="34428" user="usm78-gis" changeset="6249816">
    <nd ref="973131914"/>
    <nd ref="352254"/>
    <tag k="addr:postcode" v="191124"/>
    <tag k="cladr:code" v="78000000000114200"/>
    <tag k="cladr:name" v="Пролетарской Диктатуры"/>
    <tag k="cladr:suffix" v="Улица"/>
    <tag k="highway" v="secondary"/>
    <tag k="name" v="улица Пролетарской Диктатуры"/>
    <tag k="trolley_wire" v="yes"/>
  </way>
  <way id="83568644" version="2" timestamp="2011-09-27T19:30:52Z" uid="143266" user="Sergey Astakhov" changeset="9413826">
    <nd ref="973131914"/>
    <nd ref="352254"/>
    <tag k="addr:postcode" v="191124"/>
    <tag k="highway" v="secondary"/>
    <tag k="name" v="улица Пролетарской Диктатуры"/>
    <tag k="trolley_wire" v="yes"/>
  </way>
  <way id="83568644" version="3" timestamp="2012-01-19T02:23:07Z" uid="437809" user="Anton Khorev" changeset="10433546"/>
  <way id="83568645" version="1" timestamp="2010-11-01T00:08:38Z" uid="34428" user="usm78-gis" changeset="6249816">
    <nd ref="973131910"/>
    <nd ref="21597029"/>
    <tag k="addr:postcode" v="191124"/>
    <tag k="cladr:code" v="78000000000129300"/>
    <tag k="cladr:name" v="Смольный"/>
    <tag k="cladr:suffix" v="Проезд"/>
    <tag k="highway" v="residential"/>
    <tag k="name" v="Смольный проспект"/>
  </way>
  <way id="83568645" version="2" timestamp="2011-09-27T22:02:14Z" uid="143266" user="Sergey Astakhov" changeset="9415287">
    <nd ref="973131910"/>
    <nd ref="21597029"/>
    <tag k="addr:postcode" v="191124"/>
    <tag k="highway" v="residential"/>
    <tag k="name" v="Смольный проспект"/>
  </way>
  <way id="83568645" version="3" timestamp="2012-01-19T07:13:42Z" uid="437809" user="Anton Khorev" changeset="10434293"/>
  <way id="83568646" version="1" timestamp="2010-11-01T00:08:38Z" uid="34428" user="usm78-gis" changeset="6249816">
    <nd ref="244913"/>
    <nd ref="973131838"/>
    <nd ref="973131902"/>
    <nd ref="973131931"/>
    <nd ref="973131889"/>
    <nd ref="973131875"/>
    <nd ref="973131937"/>
    <nd ref="973131858"/>
    <nd ref="973131920"/>
    <nd ref="973131929"/>
    <nd ref="973131885"/>
    <nd ref="973131913"/>
    <nd ref="973131868"/>
    <nd ref="973131854"/>
    <nd ref="973131917"/>
    <nd ref="973131834"/>
    <nd ref="973131900"/>
    <nd ref="973131864"/>
    <nd ref="973131927"/>
    <nd ref="973131849"/>
    <nd ref="973131909"/>
    <nd ref="973131896"/>
    <nd ref="973131852"/>
    <nd ref="973131881"/>
    <nd ref="973131830"/>
    <nd ref="973131848"/>
    <nd ref="973131908"/>
    <nd ref="973131939"/>
    <tag k="highway" v="residential"/>
  </way>
  <way id="83568646" version="2" timestamp="2011-02-25T19:29:16Z" uid="395588" user="Danidin9" changeset="7393465">
    <nd ref="244913"/>
    <nd ref="973131838"/>
    <nd ref="1172804242"/>
    <nd ref="973131902"/>
    <nd ref="973131931"/>
    <nd ref="973131889"/>
    <nd ref="1172804866"/>
    <nd ref="973131875"/>
    <nd ref="973131937"/>
    <nd ref="973131858"/>
    <nd ref="973131920"/>
    <nd ref="973131929"/>
    <nd ref="973131885"/>
    <tag k="highway" v="unclassified"/>
  </way>
  <way id="83568647" version="1" timestamp="2010-11-01T00:08:39Z" uid="34428" user="usm78-gis" changeset="6249816">
    <nd ref="16380127"/>
    <nd ref="973131940"/>
    <nd ref="973131894"/>
    <nd ref="973131880"/>
    <nd ref="973131829"/>
    <nd ref="973131863"/>
    <nd ref="973131926"/>
    <nd ref="973131892"/>
    <nd ref="973131841"/>
    <nd ref="973131874"/>
    <nd ref="973131936"/>
    <nd ref="973131924"/>
    <nd ref="973131879"/>
    <nd ref="973131905"/>
    <nd ref="973131861"/>
    <nd ref="973131871"/>
    <nd ref="973131933"/>
    <nd ref="973131853"/>
    <nd ref="973131916"/>
    <nd ref="973131904"/>
    <nd ref="973131860"/>
    <nd ref="973131890"/>
    <tag k="highway" v="track"/>
  </way>
  <way id="83568647" version="2" timestamp="2010-11-24T02:14:42Z" uid="34428" user="usm78-gis" changeset="6444046">
    <nd ref="16380127"/>
    <nd ref="973131940"/>
    <nd ref="973131894"/>
    <nd ref="973131880"/>
    <nd ref="973131829"/>
    <nd ref="973131863"/>
    <nd ref="973131926"/>
    <nd ref="973131892"/>
    <nd ref="973131841"/>
    <nd ref="973131874"/>
    <nd ref="973131936"/>
    <nd ref="973131924"/>
    <nd ref="973131879"/>
    <nd ref="973131905"/>
    <nd ref="973131861"/>
    <nd ref="973131871"/>
    <nd ref="973131933"/>
    <nd ref="973131853"/>
    <nd ref="973131916"/>
    <nd ref="973131904"/>
    <nd ref="973131860"/>
    <nd ref="973131890"/>
    <nd ref="1001622020"/>
    <nd ref="1001622386"/>
    <nd ref="1001621899"/>
    <tag k="highway" v="track"/>
  </way>
  <way id="83568648" version="1" timestamp="2010-11-01T00:08:39Z" uid="34428" user="usm78-gis" changeset="6249816">
    <nd ref="21626358"/>
    <nd ref="855269478"/>
    <nd ref="21626366"/>
    <tag k="access" v="no"/>
    <tag k="addr:postcode" v="191124"/>
    <tag k="cladr:code" v="78000000000129300"/>
    <tag k="cladr:name" v="Смольный"/>
    <tag k="cladr:suffix" v="Проезд"/>
    <tag k="highway" v="unclassified"/>
    <tag k="name" v="Смольный проезд"/>
  </way>
  <way id="83568648" version="2" timestamp="2011-09-27T22:13:47Z" uid="143266" user="Sergey Astakhov" changeset="9415328">
    <nd ref="21626358"/>
    <nd ref="855269478"/>
    <nd ref="21626366"/>
    <tag k="access" v="no"/>
    <tag k="addr:postcode" v="191124"/>
    <tag k="highway" v="unclassified"/>
    <tag k="name" v="Смольный проезд"/>
  </way>
  <way id="83568648" version="3" timestamp="2012-01-19T02:22:48Z" uid="437809" user="Anton Khorev" changeset="10433546">
    <nd ref="1597034955"/>
    <nd ref="855269478"/>
    <nd ref="21626366"/>
    <tag k="access" v="no"/>
    <tag k="addr:postcode" v="191124"/>
    <tag k="highway" v="unclassified"/>
    <tag k="name" v="Смольный проезд"/>
  </way>
  <way id="83568649" version="1" timestamp="2010-11-01T00:08:40Z" uid="34428" user="usm78-gis" changeset="6249816">
    <nd ref="973131928"/>
    <nd ref="973131910"/>
    <tag k="addr:postcode" v="191124"/>
    <tag k="cladr:code" v="78000000000129300"/>
    <tag k="cladr:name" v="Смольный"/>
    <tag k="cladr:suffix" v="Проезд"/>
    <tag k="highway" v="residential"/>
    <tag k="name" v="Смольный проспект"/>
  </way>
  <way id="83568649" version="2" timestamp="2011-09-27T22:02:13Z" uid="143266" user="Sergey Astakhov" changeset="9415287">
    <nd ref="973131928"/>
    <nd ref="973131910"/>
    <tag k="addr:postcode" v="191124"/>
    <tag k="highway" v="residential"/>
    <tag k="name" v="Смольный проспект"/>
  </way>
  <way id="83568649" version="3" timestamp="2012-01-19T07:13:23Z" uid="437809" user="Anton Khorev" changeset="10434293">
    <nd ref="973131928"/>
    <nd ref="1597346031"/>
    <nd ref="1597346032"/>
    <nd ref="973131925"/>
    <nd ref="1597241495"/>
    <nd ref="1597346040"/>
    <tag k="addr:postcode" v="191124"/>
    <tag k="highway" v="residential"/>
    <tag k="name" v="Смольный проспект"/>
  </way>
  <way id="83568650" version="1" timestamp="2010-11-01T00:08:40Z" uid="34428" user="usm78-gis" changeset="6249816">
    <nd ref="973131910"/>
    <nd ref="973131865"/>
    <nd ref="973131867"/>
    <nd ref="973131895"/>
    <nd ref="973131851"/>
    <tag k="highway" v="footway"/>
  </way>
  <way id="83568650" version="2" timestamp="2012-01-19T07:13:26Z" uid="437809" user="Anton Khorev" changeset="10434293">
    <nd ref="1597346041"/>
    <nd ref="973131865"/>
    <nd ref="973131867"/>
    <nd ref="973131895"/>
    <nd ref="973131851"/>
    <tag k="highway" v="footway"/>
  </way>
  <way id="83568652" version="1" timestamp="2010-11-01T00:08:40Z" uid="34428" user="usm78-gis" changeset="6249816">
    <nd ref="21626366"/>
    <nd ref="973131928"/>
    <tag k="addr:postcode" v="191124"/>
    <tag k="cladr:code" v="78000000000129300"/>
    <tag k="cladr:name" v="Смольный"/>
    <tag k="cladr:suffix" v="Проезд"/>
    <tag k="highway" v="residential"/>
    <tag k="name" v="Смольный проспект"/>
  </way>
  <way id="83568652" version="2" timestamp="2011-09-27T22:02:14Z" uid="143266" user="Sergey Astakhov" changeset="9415287">
    <nd ref="21626366"/>
    <nd ref="973131928"/>
    <tag k="addr:postcode" v="191124"/>
    <tag k="highway" v="residential"/>
    <tag k="name" v="Смольный проспект"/>
  </way>
  <way id="83568653" version="1" timestamp="2010-11-01T00:08:40Z" uid="34428" user="usm78-gis" changeset="6249816">
    <nd ref="649594805"/>
    <nd ref="649594810"/>
    <nd ref="973131846"/>
    <nd ref="973131878"/>
    <tag k="highway" v="service"/>
  </way>
  <way id="83568655" version="1" timestamp="2010-11-01T00:08:41Z" uid="34428" user="usm78-gis" changeset="6249816">
    <nd ref="973131925"/>
    <nd ref="973131843"/>
    <nd ref="973131906"/>
    <nd ref="973131921"/>
    <nd ref="973131876"/>
    <tag k="highway" v="service"/>
  </way>
  <way id="83568655" version="2" timestamp="2012-01-19T07:13:26Z" uid="437809" user="Anton Khorev" changeset="10434293">
    <nd ref="973131925"/>
    <nd ref="1597346043"/>
    <nd ref="973131843"/>
    <nd ref="973131906"/>
    <nd ref="973131921"/>
    <nd ref="973131876"/>
    <tag k="highway" v="service"/>
  </way>
  <way id="83568656" version="1" timestamp="2010-11-01T00:08:41Z" uid="34428" user="usm78-gis" changeset="6249816">
    <nd ref="15487440"/>
    <nd ref="15487449"/>
    <nd ref="15487457"/>
    <tag k="highway" v="trunk_link"/>
    <tag k="surface" v="asphalt"/>
  </way>
  <way id="83568658" version="1" timestamp="2010-11-01T00:08:41Z" uid="34428" user="usm78-gis" changeset="6249816">
    <nd ref="973131901"/>
    <nd ref="973131907"/>
    <nd ref="973131835"/>
    <nd ref="973131934"/>
    <nd ref="973131891"/>
    <nd ref="973131918"/>
    <nd ref="973131872"/>
    <tag k="highway" v="service"/>
  </way>
  <way id="83568658" version="2" timestamp="2011-08-10T22:56:00Z" uid="395588" user="Danidin9" changeset="8981378"/>
  <way id="83568659" version="1" timestamp="2010-11-01T00:08:41Z" uid="34428" user="usm78-gis" changeset="6249816">
    <nd ref="649594839"/>
    <nd ref="649594840"/>
    <nd ref="649594841"/>
    <tag k="highway" v="service"/>
  </way>
  <way id="83568661" version="1" timestamp="2010-11-01T00:08:41Z" uid="34428" user="usm78-gis" changeset="6249816">
    <nd ref="973131914"/>
    <nd ref="973131847"/>
    <nd ref="973131832"/>
    <nd ref="973131899"/>
    <nd ref="973131876"/>
    <tag k="highway" v="service"/>
  </way>
  <way id="83568661" version="2" timestamp="2012-01-19T02:22:53Z" uid="437809" user="Anton Khorev" changeset="10433546">
    <nd ref="1597034877"/>
    <nd ref="973131847"/>
    <nd ref="973131832"/>
    <nd ref="973131899"/>
    <nd ref="973131876"/>
    <tag k="highway" v="service"/>
  </way>
  <way id="83568661" version="3" timestamp="2012-01-19T05:11:02Z" uid="437809" user="Anton Khorev" changeset="10433871">
    <nd ref="1597034877"/>
    <nd ref="1597241518"/>
    <nd ref="973131847"/>
    <nd ref="973131832"/>
    <nd ref="973131899"/>
    <nd ref="973131876"/>
    <tag k="highway" v="service"/>
  </way>
  <way id="83568631" version="3" timestamp="2012-07-20T08:58:19Z" uid="722137" user="OSMF Redaction Account" changeset="12369194"/>
  <way id="83568633" version="2" timestamp="2012-07-20T08:58:20Z" uid="722137" user="OSMF Redaction Account" changeset="12369194"/>
  <way id="83568636" version="2" timestamp="2012-07-20T08:58:39Z" uid="722137" user="OSMF Redaction Account" changeset="12369194"/>
  <way id="83568638" version="2" timestamp="2012-07-23T19:03:58Z" uid="722137" user="OSMF Redaction Account" changeset="12455192"/>
  <way id="83568640" version="2" timestamp="2012-07-20T08:58:39Z" uid="722137" user="OSMF Redaction Account" changeset="12369194"/>
  <way id="83568643" version="2" timestamp="2012-07-20T08:39:50Z" uid="722137" user="OSMF Redaction Account" changeset="12368644"/>
  <way id="83568646" version="3" timestamp="2012-07-23T19:03:50Z" uid="722137" user="OSMF Redaction Account" changeset="12455192">
    <nd ref="1172804242"/>
    <nd ref="1172804866"/>
    <tag k="highway" v="unclassified"/>
  </way>
  <way id="83568646" version="4" timestamp="2012-08-08T05:25:18Z" uid="539987" user="Cd_spb" changeset="12653331"/>
  <way id="83568647" version="3" timestamp="2012-07-23T17:48:37Z" uid="722137" user="OSMF Redaction Account" changeset="12454153">
    <nd ref="16380127"/>
    <nd ref="973131940"/>
    <tag k="highway" v="track"/>
  </way>
  <way id="83568647" version="4" timestamp="2012-07-23T18:28:20Z" uid="722137" user="OSMF Redaction Account" changeset="12454676"/>
  <way id="83568648" version="4" timestamp="2012-04-14T00:08:00Z" uid="39040" user="Dinamik" changeset="11293940">
    <nd ref="1597034955"/>
    <nd ref="855269478"/>
    <nd ref="21626366"/>
    <tag k="access" v="no"/>
    <tag k="addr:postcode" v="191124"/>
    <tag k="highway" v="unclassified"/>
    <tag k="name" v="Смольный проезд"/>
    <tag k="vehicle" v="no"/>
  </way>
  <way id="83568648" version="5" timestamp="2012-07-09T21:10:55Z" uid="392109" user="GaM" changeset="12167137">
    <nd ref="1597034955"/>
    <nd ref="855269478"/>
    <nd ref="21626366"/>
    <tag k="addr:postcode" v="191124"/>
    <tag k="highway" v="unclassified"/>
    <tag k="motor_vehicle" v="private"/>
    <tag k="name" v="Смольный проезд"/>
  </way>
  <way id="83568648" version="6" timestamp="2012-07-09T21:11:09Z" uid="392109" user="GaM" changeset="12167177">
    <nd ref="1597034955"/>
    <nd ref="855269478"/>
    <tag k="addr:postcode" v="191124"/>
    <tag k="highway" v="unclassified"/>
    <tag k="motor_vehicle" v="private"/>
    <tag k="name" v="Смольный проезд"/>
  </way>
  <way id="83568648" version="7" timestamp="2012-07-19T12:38:24Z" uid="336663" user="PavelRus" changeset="12325668">
    <nd ref="1597034955"/>
    <nd ref="1830785991"/>
    <nd ref="855269478"/>
    <tag k="addr:postcode" v="191124"/>
    <tag k="highway" v="unclassified"/>
    <tag k="motor_vehicle" v="private"/>
    <tag k="name" v="Смольный проезд"/>
  </way>
  <way id="83568648" version="8" timestamp="2012-07-20T08:56:46Z" uid="722137" user="OSMF Redaction Account" changeset="12369114">
    <nd ref="1597034955"/>
    <nd ref="1830785991"/>
    <tag k="motor_vehicle" v="private"/>
  </way>
  <way id="83568648" version="9" timestamp="2012-07-23T06:40:47Z" uid="217275" user="Алексей Шифрин" changeset="12445079">
    <nd ref="1597034955"/>
    <nd ref="1830785991"/>
    <tag k="highway" v="unclassified"/>
    <tag k="motor_vehicle" v="private"/>
    <tag k="name" v="Смольный проезд"/>
  </way>
  <way id="83568649" version="4" timestamp="2012-07-13T11:45:39Z" uid="39040" user="Dinamik" changeset="12205712">
    <nd ref="973131928"/>
    <nd ref="1597346031"/>
    <nd ref="1597346032"/>
    <tag k="addr:postcode" v="191124"/>
    <tag k="highway" v="residential"/>
    <tag k="name" v="Смольный проспект"/>
  </way>
  <way id="83568649" version="5" timestamp="2012-07-20T08:56:42Z" uid="722137" user="OSMF Redaction Account" changeset="12369114">
    <nd ref="1597346031"/>
    <nd ref="1597346032"/>
  </way>
  <way id="83568649" version="6" timestamp="2012-07-23T06:40:47Z" uid="217275" user="Алексей Шифрин" changeset="12445079">
    <nd ref="307611"/>
    <nd ref="21626366"/>
    <nd ref="973131928"/>
    <nd ref="1597346031"/>
    <nd ref="1597346032"/>
    <tag k="highway" v="residential"/>
    <tag k="name" v="Смольный проспект"/>
  </way>
  <way id="83568649" version="7" timestamp="2012-08-31T04:38:05Z" uid="760215" user="pnorman redaction revert" changeset="12926016">
    <nd ref="307611"/>
    <nd ref="21626366"/>
    <nd ref="1597346031"/>
    <nd ref="1597346032"/>
    <tag k="highway" v="residential"/>
    <tag k="name" v="Смольный проспект"/>
  </way>
  <way id="83568650" version="3" timestamp="2012-04-13T19:00:16Z" uid="288925" user="BoomEngine" changeset="11291016">
    <nd ref="1597346041"/>
    <nd ref="973131865"/>
    <nd ref="973131851"/>
    <tag k="highway" v="footway"/>
  </way>
  <way id="83568650" version="4" timestamp="2012-07-20T08:58:20Z" uid="722137" user="OSMF Redaction Account" changeset="12369194"/>
  <way id="83568652" version="3" timestamp="2012-07-20T08:58:20Z" uid="722137" user="OSMF Redaction Account" changeset="12369194"/>
  <way id="83568653" version="2" timestamp="2012-07-20T08:58:39Z" uid="722137" user="OSMF Redaction Account" changeset="12369194"/>
  <way id="83568655" version="3" timestamp="2012-07-20T08:58:20Z" uid="722137" user="OSMF Redaction Account" changeset="12369194"/>
  <way id="83568656" version="2" timestamp="2012-07-23T19:03:58Z" uid="722137" user="OSMF Redaction Account" changeset="12455192"/>
  <way id="83568659" version="2" timestamp="2012-07-20T08:58:39Z" uid="722137" user="OSMF Redaction Account" changeset="12369194"/>
  <way id="83568661" version="4" timestamp="2012-07-20T08:56:44Z" uid="722137" user="OSMF Redaction Account" changeset="12369114">
    <nd ref="1597034877"/>
    <nd ref="1597241518"/>
  </way>
  <way id="83568661" version="5" timestamp="2012-08-10T10:25:22Z" uid="623185" user="coho" changeset="12678337">
    <nd ref="1597034877"/>
    <nd ref="1597241518"/>
    <nd ref="973131847"/>
    <nd ref="973131832"/>
    <nd ref="973131899"/>
    <nd ref="973131876"/>
    <nd ref="973131921"/>
    <nd ref="1597346043"/>
    <nd ref="973131925"/>
    <tag k="highway" v="service"/>
  </way>
  <way id="83568661" version="6" timestamp="2012-08-31T04:38:05Z" uid="760215" user="pnorman redaction revert" changeset="12926016">
    <nd ref="1597034877"/>
    <nd ref="1597241518"/>
    <nd ref="973131847"/>
    <nd ref="973131832"/>
    <nd ref="973131899"/>
    <nd ref="973131876"/>
    <nd ref="1597346043"/>
    <tag k="highway" v="service"/>
  </way>
</osm>
