<?xml version='1.0' encoding='UTF-8'?>
<osm version="0.6" generator="libosmium/2.20.0">
  <way id="83628020" version="2" timestamp="2010-12-05T19:56:02Z" uid="8619" user="cetest" changeset="6555696">
    <nd ref="973807751"/>
    <nd ref="973808998"/>
    <nd ref="1023535247"/>
    <nd ref="973808999"/>
    <tag k="highway" v="residential"/>
    <tag k="note" v="fixme"/>
  </way>
  <way id="83628020" version="3" timestamp="2012-02-18T08:24:53Z" uid="22684" user="Mr_Israel" changeset="10717708">
    <nd ref="973807751"/>
    <nd ref="1637425458"/>
    <nd ref="973808998"/>
    <nd ref="1023535247"/>
    <nd ref="973808999"/>
    <tag k="highway" v="residential"/>
    <tag k="note" v="fixme"/>
  </way>
  <way id="83628020" version="4" timestamp="2012-02-19T10:32:41Z" uid="22684" user="Mr_Israel" changeset="10728288"/>
  <way id="83628110" version="2" timestamp="2010-12-05T19:56:48Z" uid="8619" user="cetest" changeset="6555696">
    <nd ref="973781360"/>
    <nd ref="1023535073"/>
    <nd ref="1023535158"/>
    <nd ref="662812348"/>
    <tag k="highway" v="residential"/>
    <tag k="note" v="FIXME"/>
  </way>
  <way id="83628110" version="3" timestamp="2011-05-17T13:24:36Z" uid="455973" user="RB1" changeset="8171545">
    <nd ref="973781360"/>
    <nd ref="1023535073"/>
    <nd ref="1023535158"/>
    <nd ref="662812348"/>
    <tag k="highway" v="residential"/>
    <tag k="name" v="השושנה"/>
    <tag k="note" v="FIXME"/>
  </way>
  <way id="83628110" version="4" timestamp="2011-05-17T13:25:34Z" uid="455973" user="RB1" changeset="8171545">
    <nd ref="973781360"/>
    <nd ref="1023535073"/>
    <nd ref="1023535158"/>
    <nd ref="1289025807"/>
    <nd ref="662812348"/>
    <tag k="highway" v="residential"/>
    <tag k="name" v="השושנה"/>
    <tag k="note" v="FIXME"/>
  </way>
  <way id="83628110" version="5" timestamp="2011-05-17T13:27:16Z" uid="455973" user="RB1" changeset="8171545">
    <nd ref="973781360"/>
    <nd ref="1023535073"/>
    <nd ref="1289026310"/>
    <nd ref="1023535158"/>
    <nd ref="1289025807"/>
    <nd ref="662812348"/>
    <tag k="highway" v="residential"/>
    <tag k="name" v="השושנה"/>
    <tag k="note" v="FIXME"/>
  </way>
  <way id="83628110" version="6" timestamp="2011-05-19T12:58:08Z" uid="90980" user="talkat" changeset="8189623">
    <nd ref="973781360"/>
    <nd ref="1023535073"/>
    <nd ref="1289026310"/>
    <nd ref="1023535158"/>
    <nd ref="1289025807"/>
    <nd ref="662812348"/>
    <tag k="highway" v="residential"/>
    <tag k="name" v="השושנה"/>
    <tag k="name:en" v="HaShoshana"/>
    <tag k="note" v="FIXME"/>
  </way>
  <way id="83628110" version="7" timestamp="2012-02-18T08:00:10Z" uid="22684" user="Mr_Israel" changeset="10717597">
    <nd ref="973781360"/>
    <nd ref="1637415032"/>
    <nd ref="1289026310"/>
    <nd ref="1637414998"/>
    <nd ref="1289025807"/>
    <nd ref="1637414986"/>
    <nd ref="662812348"/>
    <tag k="highway" v="residential"/>
    <tag k="name" v="השושנה"/>
    <tag k="name:en" v="HaShoshana"/>
    <tag k="note" v="FIXME"/>
  </way>
  <way id="83628110" version="8" timestamp="2012-02-20T08:59:57Z" uid="22684" user="Mr_Israel" changeset="10738286"/>
  <way id="83628206" version="2" timestamp="2010-12-05T19:56:44Z" uid="8619" user="cetest" changeset="6555696">
    <nd ref="973801789"/>
    <nd ref="973810576"/>
    <nd ref="973810577"/>
    <nd ref="973810578"/>
    <nd ref="973810580"/>
    <nd ref="1023535733"/>
    <nd ref="1023535867"/>
    <nd ref="1023535947"/>
    <nd ref="1023535294"/>
    <nd ref="1023535472"/>
    <nd ref="1023535642"/>
    <tag k="highway" v="residential"/>
    <tag k="note" v="fixme"/>
  </way>
  <way id="83628206" version="3" timestamp="2012-02-17T16:53:28Z" uid="22684" user="Mr_Israel" changeset="10712948"/>
  <way id="83628444" version="1" timestamp="2010-11-01T16:11:02Z" uid="9581" user="Lobelt" changeset="6256728">
    <nd ref="464246"/>
    <nd ref="305512142"/>
    <nd ref="249134444"/>
    <tag k="highway" v="motorway"/>
    <tag k="int_ref" v="E 451"/>
    <tag k="maxspeed" v="120"/>
    <tag k="oneway" v="yes"/>
    <tag k="ref" v="A 5"/>
  </way>
  <way id="83628444" version="2" timestamp="2011-01-30T22:36:31Z" uid="370437" user="bjoernchr74" changeset="7140650">
    <nd ref="464246"/>
    <nd ref="305512142"/>
    <nd ref="249134444"/>
    <tag k="highway" v="motorway"/>
    <tag k="int_ref" v="E 451"/>
    <tag k="maxspeed" v="signals"/>
    <tag k="oneway" v="yes"/>
    <tag k="ref" v="A 5"/>
  </way>
  <way id="83628444" version="3" timestamp="2011-08-21T08:53:01Z" uid="30077" user="ChristianW" changeset="9081783">
    <nd ref="464246"/>
    <nd ref="305512142"/>
    <nd ref="249134444"/>
    <tag k="highway" v="motorway"/>
    <tag k="int_ref" v="E 451"/>
    <tag k="lit" v="no"/>
    <tag k="maxspeed" v="signals"/>
    <tag k="oneway" v="yes"/>
    <tag k="ref" v="A 5"/>
    <tag k="source:lit" v="http://www.autobahn-bilder.de"/>
  </way>
  <way id="83628444" version="4" timestamp="2011-12-27T21:14:42Z" uid="302852" user="be-ju" changeset="10219874"/>
  <way id="83628445" version="1" timestamp="2010-11-01T16:11:03Z" uid="9581" user="Lobelt" changeset="6256728">
    <nd ref="973813090"/>
    <nd ref="973813071"/>
    <nd ref="286354652"/>
    <nd ref="481058"/>
    <tag k="highway" v="motorway"/>
    <tag k="int_ref" v="E 451"/>
    <tag k="lanes" v="2"/>
    <tag k="maxspeed" v="no"/>
    <tag k="oneway" v="yes"/>
    <tag k="ref" v="A 5"/>
  </way>
  <way id="83628445" version="2" timestamp="2011-01-30T18:32:32Z" uid="370437" user="bjoernchr74" changeset="7137641">
    <nd ref="973813090"/>
    <nd ref="973813071"/>
    <nd ref="286354652"/>
    <nd ref="481058"/>
    <tag k="highway" v="motorway"/>
    <tag k="int_ref" v="E 451"/>
    <tag k="lanes" v="2"/>
    <tag k="maxspeed" v="none"/>
    <tag k="oneway" v="yes"/>
    <tag k="ref" v="A 5"/>
  </way>
  <way id="83628445" version="3" timestamp="2011-08-21T08:53:56Z" uid="30077" user="ChristianW" changeset="9081783">
    <nd ref="973813090"/>
    <nd ref="973813071"/>
    <nd ref="286354652"/>
    <nd ref="481058"/>
    <tag k="highway" v="motorway"/>
    <tag k="int_ref" v="E 451"/>
    <tag k="lanes" v="2"/>
    <tag k="lit" v="no"/>
    <tag k="maxspeed" v="none"/>
    <tag k="oneway" v="yes"/>
    <tag k="ref" v="A 5"/>
    <tag k="source:lit" v="http://www.autobahn-bilder.de"/>
  </way>
  <way id="83628445" version="4" timestamp="2011-12-29T22:04:57Z" uid="302852" user="be-ju" changeset="10240361"/>
  <way id="83628446" version="1" timestamp="2010-11-01T16:11:03Z" uid="9581" user="Lobelt" changeset="6256728">
    <nd ref="973813053"/>
    <nd ref="973813072"/>
    <tag k="highway" v="motorway"/>
    <tag k="int_ref" v="E 451"/>
    <tag k="maxspeed" v="no"/>
    <tag k="oneway" v="yes"/>
    <tag k="ref" v="A 5"/>
  </way>
  <way id="83628446" version="2" timestamp="2010-11-01T16:27:18Z" uid="9581" user="Lobelt" changeset="6256966">
    <nd ref="973813053"/>
    <nd ref="973813072"/>
    <tag k="highway" v="motorway"/>
    <tag k="int_ref" v="E 451"/>
    <tag k="maxspeed" v="signals"/>
    <tag k="oneway" v="yes"/>
    <tag k="ref" v="A 5"/>
  </way>
  <way id="83628446" version="3" timestamp="2011-08-21T08:51:35Z" uid="30077" user="ChristianW" changeset="9081783">
    <nd ref="973813053"/>
    <nd ref="973813072"/>
    <tag k="highway" v="motorway"/>
    <tag k="int_ref" v="E 451"/>
    <tag k="lit" v="no"/>
    <tag k="maxspeed" v="signals"/>
    <tag k="oneway" v="yes"/>
    <tag k="ref" v="A 5"/>
    <tag k="source:lit" v="http://www.autobahn-bilder.de"/>
  </way>
  <way id="83628446" version="4" timestamp="2011-12-29T22:04:58Z" uid="302852" user="be-ju" changeset="10240361"/>
  <way id="83628447" version="1" timestamp="2010-11-01T16:11:04Z" uid="9581" user="Lobelt" changeset="6256728">
    <nd ref="973813096"/>
    <nd ref="973813074"/>
    <tag k="highway" v="motorway"/>
    <tag k="int_ref" v="E 451"/>
    <tag k="lanes" v="2"/>
    <tag k="maxspeed" v="no"/>
    <tag k="oneway" v="yes"/>
    <tag k="ref" v="A 5"/>
  </way>
  <way id="83628447" version="2" timestamp="2011-08-21T08:52:17Z" uid="30077" user="ChristianW" changeset="9081783">
    <nd ref="973813096"/>
    <nd ref="973813074"/>
    <tag k="highway" v="motorway"/>
    <tag k="int_ref" v="E 451"/>
    <tag k="lanes" v="2"/>
    <tag k="lit" v="no"/>
    <tag k="maxspeed" v="no"/>
    <tag k="oneway" v="yes"/>
    <tag k="ref" v="A 5"/>
    <tag k="source:lit" v="http://www.autobahn-bilder.de"/>
  </way>
  <way id="83628447" version="3" timestamp="2011-12-29T22:04:56Z" uid="302852" user="be-ju" changeset="10240361"/>
  <way id="83628449" version="1" timestamp="2010-11-01T16:11:04Z" uid="9581" user="Lobelt" changeset="6256728">
    <nd ref="973813074"/>
    <nd ref="973813090"/>
    <tag k="bridge" v="yes"/>
    <tag k="highway" v="motorway"/>
    <tag k="int_ref" v="E 451"/>
    <tag k="lanes" v="2"/>
    <tag k="layer" v="1"/>
    <tag k="maxspeed" v="no"/>
    <tag k="oneway" v="yes"/>
    <tag k="ref" v="A 5"/>
  </way>
  <way id="83628449" version="2" timestamp="2011-08-21T08:51:25Z" uid="30077" user="ChristianW" changeset="9081783">
    <nd ref="973813074"/>
    <nd ref="973813090"/>
    <tag k="bridge" v="yes"/>
    <tag k="highway" v="motorway"/>
    <tag k="int_ref" v="E 451"/>
    <tag k="lanes" v="2"/>
    <tag k="layer" v="1"/>
    <tag k="lit" v="no"/>
    <tag k="maxspeed" v="no"/>
    <tag k="oneway" v="yes"/>
    <tag k="ref" v="A 5"/>
    <tag k="source:lit" v="http://www.autobahn-bilder.de"/>
  </way>
  <way id="83628449" version="3" timestamp="2011-12-29T22:04:56Z" uid="302852" user="be-ju" changeset="10240361"/>
  <way id="83628451" version="1" timestamp="2010-11-01T16:11:05Z" uid="9581" user="Lobelt" changeset="6256728">
    <nd ref="973813089"/>
    <nd ref="973813068"/>
    <nd ref="466418"/>
    <nd ref="464245"/>
    <tag k="highway" v="motorway"/>
    <tag k="int_ref" v="E 451"/>
    <tag k="maxspeed" v="no"/>
    <tag k="oneway" v="yes"/>
    <tag k="ref" v="A 5"/>
  </way>
  <way id="83628451" version="2" timestamp="2010-11-01T16:26:39Z" uid="9581" user="Lobelt" changeset="6256966">
    <nd ref="973813089"/>
    <nd ref="973813068"/>
    <nd ref="466418"/>
    <nd ref="464245"/>
    <tag k="highway" v="motorway"/>
    <tag k="int_ref" v="E 451"/>
    <tag k="maxspeed" v="signals"/>
    <tag k="oneway" v="yes"/>
    <tag k="ref" v="A 5"/>
  </way>
  <way id="83628451" version="3" timestamp="2011-08-21T08:54:08Z" uid="30077" user="ChristianW" changeset="9081783">
    <nd ref="973813089"/>
    <nd ref="973813068"/>
    <nd ref="466418"/>
    <nd ref="464245"/>
    <tag k="highway" v="motorway"/>
    <tag k="int_ref" v="E 451"/>
    <tag k="lit" v="no"/>
    <tag k="maxspeed" v="signals"/>
    <tag k="oneway" v="yes"/>
    <tag k="ref" v="A 5"/>
    <tag k="source:lit" v="http://www.autobahn-bilder.de"/>
  </way>
  <way id="83628451" version="4" timestamp="2011-12-27T21:14:42Z" uid="302852" user="be-ju" changeset="10219874"/>
  <way id="83628454" version="1" timestamp="2010-11-01T16:11:05Z" uid="9581" user="Lobelt" changeset="6256728">
    <nd ref="973813061"/>
    <nd ref="973813053"/>
    <tag k="bridge" v="yes"/>
    <tag k="highway" v="motorway"/>
    <tag k="int_ref" v="E 451"/>
    <tag k="layer" v="1"/>
    <tag k="maxspeed" v="no"/>
    <tag k="oneway" v="yes"/>
    <tag k="ref" v="A 5"/>
  </way>
  <way id="83628454" version="2" timestamp="2010-11-01T16:25:45Z" uid="9581" user="Lobelt" changeset="6256966">
    <nd ref="973813061"/>
    <nd ref="973813053"/>
    <tag k="bridge" v="yes"/>
    <tag k="highway" v="motorway"/>
    <tag k="int_ref" v="E 451"/>
    <tag k="layer" v="1"/>
    <tag k="maxspeed" v="signals"/>
    <tag k="oneway" v="yes"/>
    <tag k="ref" v="A 5"/>
  </way>
  <way id="83628454" version="3" timestamp="2011-08-21T08:52:09Z" uid="30077" user="ChristianW" changeset="9081783">
    <nd ref="973813061"/>
    <nd ref="973813053"/>
    <tag k="bridge" v="yes"/>
    <tag k="highway" v="motorway"/>
    <tag k="int_ref" v="E 451"/>
    <tag k="layer" v="1"/>
    <tag k="lit" v="no"/>
    <tag k="maxspeed" v="signals"/>
    <tag k="oneway" v="yes"/>
    <tag k="ref" v="A 5"/>
    <tag k="source:lit" v="http://www.autobahn-bilder.de"/>
  </way>
  <way id="83628454" version="4" timestamp="2011-12-29T22:04:55Z" uid="302852" user="be-ju" changeset="10240361"/>
  <way id="83628455" version="1" timestamp="2010-11-01T16:11:06Z" uid="9581" user="Lobelt" changeset="6256728">
    <nd ref="973813059"/>
    <nd ref="973813096"/>
    <tag k="bridge" v="yes"/>
    <tag k="highway" v="motorway"/>
    <tag k="int_ref" v="E 451"/>
    <tag k="lanes" v="2"/>
    <tag k="layer" v="1"/>
    <tag k="maxspeed" v="no"/>
    <tag k="oneway" v="yes"/>
    <tag k="ref" v="A 5"/>
  </way>
  <way id="83628455" version="2" timestamp="2011-08-21T08:50:14Z" uid="30077" user="ChristianW" changeset="9081783">
    <nd ref="973813059"/>
    <nd ref="973813096"/>
    <tag k="bridge" v="yes"/>
    <tag k="highway" v="motorway"/>
    <tag k="int_ref" v="E 451"/>
    <tag k="lanes" v="2"/>
    <tag k="layer" v="1"/>
    <tag k="lit" v="no"/>
    <tag k="maxspeed" v="no"/>
    <tag k="oneway" v="yes"/>
    <tag k="ref" v="A 5"/>
    <tag k="source:lit" v="http://www.autobahn-bilder.de"/>
  </way>
  <way id="83628455" version="3" timestamp="2011-12-29T22:04:57Z" uid="302852" user="be-ju" changeset="10240361"/>
  <way id="83628456" version="1" timestamp="2010-11-01T16:11:06Z" uid="9581" user="Lobelt" changeset="6256728">
    <nd ref="973813072"/>
    <nd ref="973813089"/>
    <tag k="bridge" v="yes"/>
    <tag k="highway" v="motorway"/>
    <tag k="int_ref" v="E 451"/>
    <tag k="layer" v="1"/>
    <tag k="maxspeed" v="no"/>
    <tag k="oneway" v="yes"/>
    <tag k="ref" v="A 5"/>
  </way>
  <way id="83628456" version="2" timestamp="2010-11-01T16:26:18Z" uid="9581" user="Lobelt" changeset="6256966">
    <nd ref="973813072"/>
    <nd ref="973813089"/>
    <tag k="bridge" v="yes"/>
    <tag k="highway" v="motorway"/>
    <tag k="int_ref" v="E 451"/>
    <tag k="layer" v="1"/>
    <tag k="maxspeed" v="signals"/>
    <tag k="oneway" v="yes"/>
    <tag k="ref" v="A 5"/>
  </way>
  <way id="83628456" version="3" timestamp="2011-08-21T08:51:46Z" uid="30077" user="ChristianW" changeset="9081783">
    <nd ref="973813072"/>
    <nd ref="973813089"/>
    <tag k="bridge" v="yes"/>
    <tag k="highway" v="motorway"/>
    <tag k="int_ref" v="E 451"/>
    <tag k="layer" v="1"/>
    <tag k="lit" v="no"/>
    <tag k="maxspeed" v="signals"/>
    <tag k="oneway" v="yes"/>
    <tag k="ref" v="A 5"/>
    <tag k="source:lit" v="http://www.autobahn-bilder.de"/>
  </way>
  <way id="83628456" version="4" timestamp="2011-12-29T22:04:55Z" uid="302852" user="be-ju" changeset="10240361"/>
</osm>
