<?xml version='1.0' encoding='UTF-8'?>
<osm version="0.6" generator="libosmium/2.20.0">
  <way id="83899429" version="1" timestamp="2010-11-04T13:53:56Z" uid="20587" user="balrog-kun" changeset="6288680">
    <nd ref="248675437"/>
    <nd ref="248675421"/>
    <tag k="highway" v="residential"/>
    <tag k="lanes" v="2"/>
    <tag k="name" v="Omulewska"/>
    <tag k="smoothness" v="bad"/>
  </way>
  <way id="83899430" version="1" timestamp="2010-11-04T13:53:56Z" uid="20587" user="balrog-kun" changeset="6288680">
    <nd ref="310645443"/>
    <nd ref="318495429"/>
    <nd ref="310645420"/>
    <nd ref="248675437"/>
    <tag k="hgv" v="no"/>
    <tag k="highway" v="residential"/>
    <tag k="lanes" v="2"/>
    <tag k="name" v="Omulewska"/>
    <tag k="smoothness" v="bad"/>
  </way>
  <way id="83899429" version="2" timestamp="2012-07-13T11:31:25Z" uid="98542" user="wajak" changeset="12205585">
    <nd ref="248675437"/>
    <nd ref="248675421"/>
    <tag k="highway" v="residential"/>
    <tag k="lanes" v="2"/>
    <tag k="name" v="Omulewska"/>
    <tag k="oneway" v="yes"/>
    <tag k="smoothness" v="bad"/>
  </way>
</osm>
