<?xml version='1.0' encoding='UTF-8'?>
<osm version="0.6" generator="libosmium/2.20.0">
  <way id="84575044" version="1" timestamp="2010-11-08T17:29:56Z" uid="115477" user="wowik" changeset="6322246">
    <nd ref="982638133"/>
    <nd ref="982638132"/>
    <nd ref="982638166"/>
    <nd ref="982638160"/>
    <nd ref="982638133"/>
    <tag k="addr:city" v="Зеленоград"/>
    <tag k="addr:housenumber" v="407с2"/>
    <tag k="addr:street" v="4-й Микрорайон"/>
    <tag k="building" v="yes"/>
    <tag k="is_in" v="Russia"/>
    <tag k="landuse" v="service"/>
  </way>
  <way id="84575044" version="2" timestamp="2010-11-30T16:56:47Z" uid="115477" user="wowik" changeset="6495856">
    <nd ref="982638133"/>
    <nd ref="982638132"/>
    <nd ref="982638166"/>
    <nd ref="982638160"/>
    <nd ref="982638133"/>
    <tag k="addr:city" v="Зеленоград"/>
    <tag k="addr:country" v="RU"/>
    <tag k="addr:housenumber" v="407с2"/>
    <tag k="addr:region" v="Москва"/>
    <tag k="addr:street" v="4-й Микрорайон"/>
    <tag k="building" v="yes"/>
    <tag k="is_in" v="Russia"/>
    <tag k="landuse" v="service"/>
  </way>
  <way id="84575044" version="3" timestamp="2011-01-19T17:02:46Z" uid="70696" user="xybot" changeset="7021015">
    <nd ref="982638133"/>
    <nd ref="982638132"/>
    <nd ref="982638166"/>
    <nd ref="982638160"/>
    <nd ref="982638133"/>
    <tag k="addr:city" v="Зеленоград"/>
    <tag k="addr:country" v="RU"/>
    <tag k="addr:housenumber" v="407 с2"/>
    <tag k="addr:region" v="Москва"/>
    <tag k="addr:street" v="4-й Микрорайон"/>
    <tag k="building" v="yes"/>
    <tag k="is_in" v="Russia"/>
    <tag k="landuse" v="service"/>
  </way>
  <way id="84575044" version="4" timestamp="2011-02-02T13:46:50Z" uid="115477" user="wowik" changeset="7164841">
    <nd ref="982638133"/>
    <nd ref="982638132"/>
    <nd ref="982638166"/>
    <nd ref="982638160"/>
    <nd ref="982638133"/>
    <tag k="addr:city" v="Зеленоград"/>
    <tag k="addr:country" v="RU"/>
    <tag k="addr:housenumber" v="407 с2"/>
    <tag k="addr:region" v="Москва"/>
    <tag k="addr:street" v="4-й Микрорайон"/>
    <tag k="building" v="yes"/>
    <tag k="building:levels" v="1"/>
    <tag k="is_in" v="Russia"/>
    <tag k="landuse" v="service"/>
  </way>
  <way id="84575044" version="5" timestamp="2011-06-07T20:46:23Z" uid="133332" user="AMDmi3" changeset="8374030">
    <nd ref="982638133"/>
    <nd ref="982638132"/>
    <nd ref="982638166"/>
    <nd ref="982638160"/>
    <nd ref="982638133"/>
    <tag k="addr:city" v="Зеленоград"/>
    <tag k="addr:country" v="RU"/>
    <tag k="addr:housenumber" v="407 с2"/>
    <tag k="addr:region" v="Москва"/>
    <tag k="addr:street" v="4-й микрорайон"/>
    <tag k="building" v="yes"/>
    <tag k="building:levels" v="1"/>
    <tag k="is_in" v="Russia"/>
    <tag k="landuse" v="service"/>
  </way>
  <way id="84575044" version="6" timestamp="2011-09-13T10:26:43Z" uid="29320" user="Komяpa" changeset="9288237">
    <nd ref="982638133"/>
    <nd ref="982638132"/>
    <nd ref="982638166"/>
    <nd ref="982638160"/>
    <nd ref="982638133"/>
    <tag k="addr:city" v="Зеленоград"/>
    <tag k="addr:country" v="RU"/>
    <tag k="addr:housenumber" v="407 с2"/>
    <tag k="addr:region" v="Москва"/>
    <tag k="addr:street" v="4-й микрорайон"/>
    <tag k="building" v="service"/>
    <tag k="building:levels" v="1"/>
  </way>
  <way id="84575044" version="7" timestamp="2011-10-28T10:31:52Z" uid="481934" user="iWowik" changeset="9675276">
    <nd ref="982638133"/>
    <nd ref="982638132"/>
    <nd ref="982638166"/>
    <nd ref="982638160"/>
    <nd ref="982638133"/>
    <tag k="addr:city" v="Зеленоград"/>
    <tag k="addr:country" v="RU"/>
    <tag k="addr:housenumber" v="407 с2"/>
    <tag k="addr:region" v="Москва"/>
    <tag k="addr:street" v="4-й Микрорайон"/>
    <tag k="building" v="service"/>
    <tag k="building:levels" v="1"/>
  </way>
  <way id="84575044" version="8" timestamp="2011-11-14T20:33:07Z" uid="133332" user="AMDmi3" changeset="9828527">
    <nd ref="982638133"/>
    <nd ref="982638132"/>
    <nd ref="982638166"/>
    <nd ref="982638160"/>
    <nd ref="982638133"/>
    <tag k="addr:city" v="Зеленоград"/>
    <tag k="addr:country" v="RU"/>
    <tag k="addr:housenumber" v="407 с2"/>
    <tag k="addr:region" v="Москва"/>
    <tag k="addr:street" v="4-й микрорайон"/>
    <tag k="building" v="service"/>
    <tag k="building:levels" v="1"/>
  </way>
  <way id="84575045" version="1" timestamp="2010-11-08T17:29:56Z" uid="115477" user="wowik" changeset="6322246">
    <nd ref="982638142"/>
    <nd ref="982638128"/>
    <nd ref="982638124"/>
    <nd ref="982638155"/>
    <nd ref="982638142"/>
    <tag k="addr:city" v="Зеленоград"/>
    <tag k="addr:street" v="4-й Микрорайон"/>
    <tag k="building" v="yes"/>
    <tag k="is_in" v="Russia"/>
    <tag k="landuse" v="service"/>
  </way>
  <way id="84575045" version="2" timestamp="2011-02-02T13:47:23Z" uid="115477" user="wowik" changeset="7164848">
    <nd ref="982638142"/>
    <nd ref="982638128"/>
    <nd ref="982638124"/>
    <nd ref="982638155"/>
    <nd ref="982638142"/>
    <tag k="addr:city" v="Зеленоград"/>
    <tag k="addr:street" v="4-й Микрорайон"/>
    <tag k="building" v="yes"/>
    <tag k="building:levels" v="1"/>
    <tag k="is_in" v="Russia"/>
    <tag k="landuse" v="service"/>
  </way>
  <way id="84575045" version="3" timestamp="2011-06-07T20:46:23Z" uid="133332" user="AMDmi3" changeset="8374030">
    <nd ref="982638142"/>
    <nd ref="982638128"/>
    <nd ref="982638124"/>
    <nd ref="982638155"/>
    <nd ref="982638142"/>
    <tag k="addr:city" v="Зеленоград"/>
    <tag k="addr:street" v="4-й микрорайон"/>
    <tag k="building" v="yes"/>
    <tag k="building:levels" v="1"/>
    <tag k="is_in" v="Russia"/>
    <tag k="landuse" v="service"/>
  </way>
  <way id="84575045" version="4" timestamp="2011-09-13T10:37:09Z" uid="29320" user="Komяpa" changeset="9288237">
    <nd ref="982638142"/>
    <nd ref="982638128"/>
    <nd ref="982638124"/>
    <nd ref="982638155"/>
    <nd ref="982638142"/>
    <tag k="addr:city" v="Зеленоград"/>
    <tag k="addr:country" v="RU"/>
    <tag k="addr:street" v="4-й микрорайон"/>
    <tag k="building" v="service"/>
    <tag k="building:levels" v="1"/>
  </way>
  <way id="84575045" version="5" timestamp="2011-10-13T06:01:40Z" uid="481934" user="iWowik" changeset="9544394">
    <nd ref="982638142"/>
    <nd ref="982638128"/>
    <nd ref="982638124"/>
    <nd ref="982638155"/>
    <nd ref="982638142"/>
    <tag k="addr:city" v="Зеленоград"/>
    <tag k="addr:country" v="RU"/>
    <tag k="addr:street" v="4-й микрорайон"/>
    <tag k="building" v="service"/>
    <tag k="building:levels" v="1"/>
    <tag k="power" v="sub_station"/>
  </way>
  <way id="84575045" version="6" timestamp="2011-10-28T10:32:20Z" uid="481934" user="iWowik" changeset="9675276">
    <nd ref="982638142"/>
    <nd ref="982638128"/>
    <nd ref="982638124"/>
    <nd ref="982638155"/>
    <nd ref="982638142"/>
    <tag k="addr:city" v="Зеленоград"/>
    <tag k="addr:country" v="RU"/>
    <tag k="addr:street" v="4-й Микрорайон"/>
    <tag k="building" v="service"/>
    <tag k="building:levels" v="1"/>
    <tag k="power" v="sub_station"/>
  </way>
  <way id="84575045" version="7" timestamp="2011-11-14T20:35:55Z" uid="133332" user="AMDmi3" changeset="9828527">
    <nd ref="982638142"/>
    <nd ref="982638128"/>
    <nd ref="982638124"/>
    <nd ref="982638155"/>
    <nd ref="982638142"/>
    <tag k="addr:city" v="Зеленоград"/>
    <tag k="addr:country" v="RU"/>
    <tag k="addr:street" v="4-й микрорайон"/>
    <tag k="building" v="service"/>
    <tag k="building:levels" v="1"/>
    <tag k="power" v="sub_station"/>
  </way>
  <way id="84575045" version="8" timestamp="2012-03-27T11:50:09Z" uid="481934" user="iWowik" changeset="11115472">
    <nd ref="982638142"/>
    <nd ref="982638128"/>
    <nd ref="982638124"/>
    <nd ref="982638155"/>
    <nd ref="982638142"/>
    <tag k="addr:city" v="Зеленоград"/>
    <tag k="addr:country" v="RU"/>
    <tag k="addr:region" v="Москва"/>
    <tag k="addr:street" v="4-й микрорайон"/>
    <tag k="building" v="service"/>
    <tag k="building:levels" v="1"/>
    <tag k="power" v="sub_station"/>
  </way>
  <way id="84575046" version="1" timestamp="2010-11-08T17:29:57Z" uid="115477" user="wowik" changeset="6322246">
    <nd ref="428146812"/>
    <nd ref="982638154"/>
    <tag k="barrier" v="wall"/>
  </way>
  <way id="84575047" version="1" timestamp="2010-11-08T17:29:57Z" uid="115477" user="wowik" changeset="6322246">
    <nd ref="982638136"/>
    <nd ref="982638171"/>
    <nd ref="724169822"/>
    <nd ref="724169823"/>
    <nd ref="982638168"/>
    <nd ref="982638146"/>
    <nd ref="724169824"/>
    <nd ref="428147121"/>
    <nd ref="982638136"/>
    <tag k="addr:city" v="Зеленоград"/>
    <tag k="addr:housenumber" v="426Ас3"/>
    <tag k="addr:street" v="4-й Микрорайон"/>
    <tag k="building" v="yes"/>
    <tag k="building:levels" v="1"/>
    <tag k="is_in" v="Russia"/>
  </way>
  <way id="84575047" version="2" timestamp="2011-01-19T18:06:25Z" uid="70696" user="xybot" changeset="7022960">
    <nd ref="982638136"/>
    <nd ref="982638171"/>
    <nd ref="724169822"/>
    <nd ref="724169823"/>
    <nd ref="982638168"/>
    <nd ref="982638146"/>
    <nd ref="724169824"/>
    <nd ref="428147121"/>
    <nd ref="982638136"/>
    <tag k="addr:city" v="Зеленоград"/>
    <tag k="addr:housenumber" v="426А с3"/>
    <tag k="addr:street" v="4-й Микрорайон"/>
    <tag k="building" v="yes"/>
    <tag k="building:levels" v="1"/>
    <tag k="is_in" v="Russia"/>
  </way>
  <way id="84575047" version="3" timestamp="2011-06-07T20:46:24Z" uid="133332" user="AMDmi3" changeset="8374030">
    <nd ref="982638136"/>
    <nd ref="982638171"/>
    <nd ref="724169822"/>
    <nd ref="724169823"/>
    <nd ref="982638168"/>
    <nd ref="982638146"/>
    <nd ref="724169824"/>
    <nd ref="428147121"/>
    <nd ref="982638136"/>
    <tag k="addr:city" v="Зеленоград"/>
    <tag k="addr:housenumber" v="426А с3"/>
    <tag k="addr:street" v="4-й микрорайон"/>
    <tag k="building" v="yes"/>
    <tag k="building:levels" v="1"/>
    <tag k="is_in" v="Russia"/>
  </way>
  <way id="84575047" version="4" timestamp="2011-09-13T10:26:53Z" uid="29320" user="Komяpa" changeset="9288237">
    <nd ref="982638136"/>
    <nd ref="982638171"/>
    <nd ref="724169822"/>
    <nd ref="724169823"/>
    <nd ref="982638168"/>
    <nd ref="982638146"/>
    <nd ref="724169824"/>
    <nd ref="428147121"/>
    <nd ref="982638136"/>
    <tag k="addr:city" v="Зеленоград"/>
    <tag k="addr:country" v="RU"/>
    <tag k="addr:housenumber" v="426А с3"/>
    <tag k="addr:street" v="4-й микрорайон"/>
    <tag k="building" v="yes"/>
    <tag k="building:levels" v="1"/>
  </way>
  <way id="84575047" version="5" timestamp="2011-10-28T10:31:59Z" uid="481934" user="iWowik" changeset="9675276">
    <nd ref="982638136"/>
    <nd ref="982638171"/>
    <nd ref="724169822"/>
    <nd ref="724169823"/>
    <nd ref="982638168"/>
    <nd ref="982638146"/>
    <nd ref="724169824"/>
    <nd ref="428147121"/>
    <nd ref="982638136"/>
    <tag k="addr:city" v="Зеленоград"/>
    <tag k="addr:country" v="RU"/>
    <tag k="addr:housenumber" v="426А с3"/>
    <tag k="addr:street" v="4-й Микрорайон"/>
    <tag k="building" v="yes"/>
    <tag k="building:levels" v="1"/>
  </way>
  <way id="84575047" version="6" timestamp="2011-11-14T20:33:14Z" uid="133332" user="AMDmi3" changeset="9828527">
    <nd ref="982638136"/>
    <nd ref="982638171"/>
    <nd ref="724169822"/>
    <nd ref="724169823"/>
    <nd ref="982638168"/>
    <nd ref="982638146"/>
    <nd ref="724169824"/>
    <nd ref="428147121"/>
    <nd ref="982638136"/>
    <tag k="addr:city" v="Зеленоград"/>
    <tag k="addr:country" v="RU"/>
    <tag k="addr:housenumber" v="426А с3"/>
    <tag k="addr:street" v="4-й микрорайон"/>
    <tag k="building" v="yes"/>
    <tag k="building:levels" v="1"/>
  </way>
  <way id="84575047" version="7" timestamp="2012-03-27T11:43:19Z" uid="481934" user="iWowik" changeset="11115472">
    <nd ref="982638136"/>
    <nd ref="982638171"/>
    <nd ref="724169822"/>
    <nd ref="724169823"/>
    <nd ref="982638168"/>
    <nd ref="982638146"/>
    <nd ref="724169824"/>
    <nd ref="428147121"/>
    <nd ref="982638136"/>
    <tag k="addr:city" v="Зеленоград"/>
    <tag k="addr:country" v="RU"/>
    <tag k="addr:housenumber" v="426А с3"/>
    <tag k="addr:region" v="Москва"/>
    <tag k="addr:street" v="4-й микрорайон"/>
    <tag k="building" v="yes"/>
    <tag k="building:levels" v="1"/>
  </way>
  <way id="84575424" version="3" timestamp="2010-11-22T22:25:45Z" uid="27600" user="Islanit" changeset="6435770">
    <nd ref="1000114663"/>
    <nd ref="982647047"/>
    <nd ref="982647049"/>
    <nd ref="982647051"/>
    <nd ref="982647053"/>
    <nd ref="982647055"/>
    <tag k="access" v="private"/>
    <tag k="highway" v="service"/>
  </way>
  <way id="84575424" version="4" timestamp="2012-03-27T16:51:29Z" uid="63375" user="Divjo" changeset="11118090">
    <nd ref="1693429850"/>
    <nd ref="982647047"/>
    <nd ref="982647049"/>
    <nd ref="982647051"/>
    <nd ref="982647053"/>
    <nd ref="982647055"/>
    <tag k="access" v="private"/>
    <tag k="highway" v="service"/>
  </way>
  <way id="84575909" version="1" timestamp="2010-11-08T17:52:07Z" uid="115477" user="wowik" changeset="6322246">
    <nd ref="982657773"/>
    <nd ref="982657665"/>
    <nd ref="982657648"/>
    <nd ref="982657848"/>
    <nd ref="982657773"/>
    <tag k="addr:city" v="Зеленоград"/>
    <tag k="addr:housenumber" v="2с1"/>
    <tag k="addr:street" v="площадь Юности"/>
    <tag k="building" v="yes"/>
    <tag k="cladr:code" v="77000002000319700"/>
    <tag k="is_in" v="Russia"/>
    <tag k="landuse" v="service"/>
  </way>
  <way id="84575909" version="2" timestamp="2010-11-10T16:08:55Z" uid="115477" user="wowik" changeset="6337013">
    <nd ref="982657773"/>
    <nd ref="982657665"/>
    <nd ref="982657648"/>
    <nd ref="982657848"/>
    <nd ref="982657773"/>
    <tag k="addr:city" v="Зеленоград"/>
    <tag k="addr:housenumber" v="2с3"/>
    <tag k="addr:street" v="площадь Юности"/>
    <tag k="building" v="yes"/>
    <tag k="cladr:code" v="77000002000319700"/>
    <tag k="is_in" v="Russia"/>
    <tag k="landuse" v="service"/>
  </way>
  <way id="84575909" version="3" timestamp="2010-11-10T16:14:23Z" uid="115477" user="wowik" changeset="6337013">
    <nd ref="982657773"/>
    <nd ref="982657665"/>
    <nd ref="982657648"/>
    <nd ref="982657848"/>
    <nd ref="982657773"/>
    <tag k="addr:city" v="Зеленоград"/>
    <tag k="addr:housenumber" v="3A"/>
    <tag k="addr:street" v="площадь Юности"/>
    <tag k="building" v="yes"/>
    <tag k="cladr:code" v="77000002000319700"/>
    <tag k="is_in" v="Russia"/>
    <tag k="landuse" v="service"/>
  </way>
  <way id="84575909" version="4" timestamp="2010-11-10T16:20:19Z" uid="115477" user="wowik" changeset="6337013">
    <nd ref="982657773"/>
    <nd ref="982657665"/>
    <nd ref="982657648"/>
    <nd ref="982657848"/>
    <nd ref="982657773"/>
    <tag k="addr:city" v="Зеленоград"/>
    <tag k="addr:housenumber" v="3c1"/>
    <tag k="addr:street" v="площадь Юности"/>
    <tag k="building" v="yes"/>
    <tag k="cladr:code" v="77000002000319700"/>
    <tag k="is_in" v="Russia"/>
    <tag k="landuse" v="service"/>
  </way>
  <way id="84575909" version="5" timestamp="2010-11-22T02:07:19Z" uid="133332" user="AMDmi3" changeset="6428552">
    <nd ref="982657773"/>
    <nd ref="982657665"/>
    <nd ref="982657648"/>
    <nd ref="982657848"/>
    <nd ref="982657773"/>
    <tag k="addr:city" v="Зеленоград"/>
    <tag k="addr:housenumber" v="3с1"/>
    <tag k="addr:street" v="площадь Юности"/>
    <tag k="building" v="yes"/>
    <tag k="cladr:code" v="77000002000319700"/>
    <tag k="is_in" v="Russia"/>
    <tag k="landuse" v="service"/>
  </way>
  <way id="84575909" version="6" timestamp="2011-01-19T17:02:46Z" uid="70696" user="xybot" changeset="7021015">
    <nd ref="982657773"/>
    <nd ref="982657665"/>
    <nd ref="982657648"/>
    <nd ref="982657848"/>
    <nd ref="982657773"/>
    <tag k="addr:city" v="Зеленоград"/>
    <tag k="addr:housenumber" v="3 с1"/>
    <tag k="addr:street" v="площадь Юности"/>
    <tag k="building" v="yes"/>
    <tag k="cladr:code" v="77000002000319700"/>
    <tag k="is_in" v="Russia"/>
    <tag k="landuse" v="service"/>
  </way>
  <way id="84575909" version="7" timestamp="2011-09-13T10:25:27Z" uid="29320" user="Komяpa" changeset="9288237">
    <nd ref="982657773"/>
    <nd ref="982657665"/>
    <nd ref="982657648"/>
    <nd ref="982657848"/>
    <nd ref="982657773"/>
    <tag k="addr:city" v="Зеленоград"/>
    <tag k="addr:country" v="RU"/>
    <tag k="addr:housenumber" v="3 с1"/>
    <tag k="addr:street" v="площадь Юности"/>
    <tag k="building" v="service"/>
    <tag k="cladr:code" v="77000002000319700"/>
  </way>
  <way id="84575909" version="8" timestamp="2012-03-27T11:40:52Z" uid="481934" user="iWowik" changeset="11115472">
    <nd ref="982657773"/>
    <nd ref="982657665"/>
    <nd ref="982657648"/>
    <nd ref="982657848"/>
    <nd ref="982657773"/>
    <tag k="addr:city" v="Зеленоград"/>
    <tag k="addr:country" v="RU"/>
    <tag k="addr:housenumber" v="3 с1"/>
    <tag k="addr:region" v="Москва"/>
    <tag k="addr:street" v="площадь Юности"/>
    <tag k="building" v="service"/>
    <tag k="cladr:code" v="77000002000319700"/>
  </way>
  <way id="84575910" version="1" timestamp="2010-11-08T17:52:08Z" uid="115477" user="wowik" changeset="6322246">
    <nd ref="982657749"/>
    <nd ref="982657704"/>
    <nd ref="982657686"/>
    <nd ref="982657871"/>
    <nd ref="982657749"/>
    <tag k="addr:city" v="Зеленоград"/>
    <tag k="addr:housenumber" v="3с1"/>
    <tag k="addr:street" v="площадь Юности"/>
    <tag k="building" v="yes"/>
    <tag k="cladr:code" v="77000002000319700"/>
    <tag k="is_in" v="Russia"/>
    <tag k="landuse" v="service"/>
  </way>
  <way id="84575910" version="2" timestamp="2010-11-10T16:20:19Z" uid="115477" user="wowik" changeset="6337013">
    <nd ref="982657749"/>
    <nd ref="982657704"/>
    <nd ref="982657686"/>
    <nd ref="982657871"/>
    <nd ref="982657749"/>
    <tag k="addr:city" v="Зеленоград"/>
    <tag k="addr:housenumber" v="3А"/>
    <tag k="addr:street" v="площадь Юности"/>
    <tag k="building" v="yes"/>
    <tag k="cladr:code" v="77000002000319700"/>
    <tag k="is_in" v="Russia"/>
    <tag k="landuse" v="service"/>
  </way>
  <way id="84575910" version="3" timestamp="2011-09-13T10:26:22Z" uid="29320" user="Komяpa" changeset="9288237">
    <nd ref="982657749"/>
    <nd ref="982657704"/>
    <nd ref="982657686"/>
    <nd ref="982657871"/>
    <nd ref="982657749"/>
    <tag k="addr:city" v="Зеленоград"/>
    <tag k="addr:country" v="RU"/>
    <tag k="addr:housenumber" v="3А"/>
    <tag k="addr:street" v="площадь Юности"/>
    <tag k="building" v="service"/>
    <tag k="cladr:code" v="77000002000319700"/>
  </way>
  <way id="84575910" version="4" timestamp="2012-03-27T11:42:27Z" uid="481934" user="iWowik" changeset="11115472">
    <nd ref="982657749"/>
    <nd ref="982657704"/>
    <nd ref="982657686"/>
    <nd ref="982657871"/>
    <nd ref="982657749"/>
    <tag k="addr:city" v="Зеленоград"/>
    <tag k="addr:country" v="RU"/>
    <tag k="addr:housenumber" v="3А"/>
    <tag k="addr:region" v="Москва"/>
    <tag k="addr:street" v="площадь Юности"/>
    <tag k="building" v="service"/>
    <tag k="cladr:code" v="77000002000319700"/>
  </way>
  <way id="84575911" version="1" timestamp="2010-11-08T17:52:08Z" uid="115477" user="wowik" changeset="6322246">
    <nd ref="982657757"/>
    <nd ref="982657733"/>
    <nd ref="982657633"/>
    <nd ref="982657888"/>
    <nd ref="982657757"/>
    <tag k="addr:city" v="Зеленоград"/>
    <tag k="addr:housenumber" v="1с1"/>
    <tag k="addr:street" v="площадь Юности"/>
    <tag k="building" v="yes"/>
    <tag k="cladr:code" v="77000002000319700"/>
    <tag k="is_in" v="Russia"/>
    <tag k="landuse" v="service"/>
  </way>
  <way id="84575911" version="2" timestamp="2010-11-30T05:36:48Z" uid="115477" user="wowik" changeset="6491687">
    <nd ref="982657757"/>
    <nd ref="982657733"/>
    <nd ref="982657633"/>
    <nd ref="982657888"/>
    <nd ref="982657757"/>
    <tag k="addr:city" v="Зеленоград"/>
    <tag k="addr:housenumber" v="1с1"/>
    <tag k="addr:street" v="улица Николая Злобина"/>
    <tag k="building" v="yes"/>
    <tag k="is_in" v="Russia"/>
    <tag k="landuse" v="service"/>
  </way>
  <way id="84575911" version="3" timestamp="2011-01-19T17:02:47Z" uid="70696" user="xybot" changeset="7021015">
    <nd ref="982657757"/>
    <nd ref="982657733"/>
    <nd ref="982657633"/>
    <nd ref="982657888"/>
    <nd ref="982657757"/>
    <tag k="addr:city" v="Зеленоград"/>
    <tag k="addr:housenumber" v="1 с1"/>
    <tag k="addr:street" v="улица Николая Злобина"/>
    <tag k="building" v="yes"/>
    <tag k="is_in" v="Russia"/>
    <tag k="landuse" v="service"/>
  </way>
  <way id="84575911" version="4" timestamp="2011-09-13T10:20:37Z" uid="29320" user="Komяpa" changeset="9288237">
    <nd ref="982657757"/>
    <nd ref="982657733"/>
    <nd ref="982657633"/>
    <nd ref="982657888"/>
    <nd ref="982657757"/>
    <tag k="addr:city" v="Зеленоград"/>
    <tag k="addr:country" v="RU"/>
    <tag k="addr:housenumber" v="1 с1"/>
    <tag k="addr:street" v="улица Николая Злобина"/>
    <tag k="building" v="service"/>
  </way>
  <way id="84575911" version="5" timestamp="2012-03-27T11:32:50Z" uid="481934" user="iWowik" changeset="11115472">
    <nd ref="982657757"/>
    <nd ref="982657733"/>
    <nd ref="982657633"/>
    <nd ref="982657888"/>
    <nd ref="982657757"/>
    <tag k="addr:city" v="Зеленоград"/>
    <tag k="addr:country" v="RU"/>
    <tag k="addr:housenumber" v="1 с1"/>
    <tag k="addr:region" v="Москва"/>
    <tag k="addr:street" v="улица Николая Злобина"/>
    <tag k="building" v="service"/>
  </way>
  <way id="84575912" version="1" timestamp="2010-11-08T17:52:08Z" uid="115477" user="wowik" changeset="6322246">
    <nd ref="982657770"/>
    <nd ref="982657707"/>
    <nd ref="982657875"/>
    <nd ref="982657787"/>
    <nd ref="982657823"/>
    <nd ref="982657661"/>
    <nd ref="982657643"/>
    <nd ref="982657844"/>
    <nd ref="982657770"/>
    <tag k="addr:city" v="Зеленоград"/>
    <tag k="addr:housenumber" v="4с1"/>
    <tag k="addr:street" v="площадь Юности"/>
    <tag k="building" v="yes"/>
    <tag k="cladr:code" v="77000002000319700"/>
    <tag k="is_in" v="Russia"/>
    <tag k="landuse" v="service"/>
  </way>
  <way id="84575912" version="2" timestamp="2011-01-19T17:02:48Z" uid="70696" user="xybot" changeset="7021015">
    <nd ref="982657770"/>
    <nd ref="982657707"/>
    <nd ref="982657875"/>
    <nd ref="982657787"/>
    <nd ref="982657823"/>
    <nd ref="982657661"/>
    <nd ref="982657643"/>
    <nd ref="982657844"/>
    <nd ref="982657770"/>
    <tag k="addr:city" v="Зеленоград"/>
    <tag k="addr:housenumber" v="4 с1"/>
    <tag k="addr:street" v="площадь Юности"/>
    <tag k="building" v="yes"/>
    <tag k="cladr:code" v="77000002000319700"/>
    <tag k="is_in" v="Russia"/>
    <tag k="landuse" v="service"/>
  </way>
  <way id="84575912" version="3" timestamp="2011-09-13T10:26:31Z" uid="29320" user="Komяpa" changeset="9288237">
    <nd ref="982657770"/>
    <nd ref="982657707"/>
    <nd ref="982657875"/>
    <nd ref="982657787"/>
    <nd ref="982657823"/>
    <nd ref="982657661"/>
    <nd ref="982657643"/>
    <nd ref="982657844"/>
    <nd ref="982657770"/>
    <tag k="addr:city" v="Зеленоград"/>
    <tag k="addr:country" v="RU"/>
    <tag k="addr:housenumber" v="4 с1"/>
    <tag k="addr:street" v="площадь Юности"/>
    <tag k="building" v="service"/>
    <tag k="cladr:code" v="77000002000319700"/>
  </way>
  <way id="84575912" version="4" timestamp="2012-03-27T11:42:39Z" uid="481934" user="iWowik" changeset="11115472">
    <nd ref="982657770"/>
    <nd ref="982657707"/>
    <nd ref="982657875"/>
    <nd ref="982657787"/>
    <nd ref="982657823"/>
    <nd ref="982657661"/>
    <nd ref="982657643"/>
    <nd ref="982657844"/>
    <nd ref="982657770"/>
    <tag k="addr:city" v="Зеленоград"/>
    <tag k="addr:country" v="RU"/>
    <tag k="addr:housenumber" v="4 с1"/>
    <tag k="addr:region" v="Москва"/>
    <tag k="addr:street" v="площадь Юности"/>
    <tag k="building" v="service"/>
    <tag k="cladr:code" v="77000002000319700"/>
  </way>
  <way id="84575913" version="1" timestamp="2010-11-08T17:52:09Z" uid="115477" user="wowik" changeset="6322246">
    <nd ref="982657688"/>
    <nd ref="982657653"/>
    <nd ref="982657857"/>
    <nd ref="982657835"/>
    <nd ref="982657766"/>
    <nd ref="982657734"/>
    <nd ref="982657638"/>
    <nd ref="982657663"/>
    <nd ref="982657864"/>
    <nd ref="982657846"/>
    <nd ref="982657772"/>
    <nd ref="982657751"/>
    <nd ref="982657647"/>
    <nd ref="982657627"/>
    <nd ref="982657829"/>
    <nd ref="982657810"/>
    <nd ref="982657719"/>
    <nd ref="982657691"/>
    <nd ref="982657880"/>
    <nd ref="982657861"/>
    <nd ref="982657688"/>
    <tag k="addr:city" v="Зеленоград"/>
    <tag k="addr:housenumber" v="4"/>
    <tag k="addr:street" v="площадь Юности"/>
    <tag k="building" v="yes"/>
    <tag k="cladr:code" v="77000002000319700"/>
    <tag k="is_in" v="Russia"/>
  </way>
  <way id="84575913" version="2" timestamp="2011-09-13T10:26:26Z" uid="29320" user="Komяpa" changeset="9288237">
    <nd ref="982657688"/>
    <nd ref="982657653"/>
    <nd ref="982657857"/>
    <nd ref="982657835"/>
    <nd ref="982657766"/>
    <nd ref="982657734"/>
    <nd ref="982657638"/>
    <nd ref="982657663"/>
    <nd ref="982657864"/>
    <nd ref="982657846"/>
    <nd ref="982657772"/>
    <nd ref="982657751"/>
    <nd ref="982657647"/>
    <nd ref="982657627"/>
    <nd ref="982657829"/>
    <nd ref="982657810"/>
    <nd ref="982657719"/>
    <nd ref="982657691"/>
    <nd ref="982657880"/>
    <nd ref="982657861"/>
    <nd ref="982657688"/>
    <tag k="addr:city" v="Зеленоград"/>
    <tag k="addr:country" v="RU"/>
    <tag k="addr:housenumber" v="4"/>
    <tag k="addr:street" v="площадь Юности"/>
    <tag k="building" v="yes"/>
    <tag k="cladr:code" v="77000002000319700"/>
  </way>
  <way id="84575913" version="3" timestamp="2012-03-27T11:42:33Z" uid="481934" user="iWowik" changeset="11115472">
    <nd ref="982657688"/>
    <nd ref="982657653"/>
    <nd ref="982657857"/>
    <nd ref="982657835"/>
    <nd ref="982657766"/>
    <nd ref="982657734"/>
    <nd ref="982657638"/>
    <nd ref="982657663"/>
    <nd ref="982657864"/>
    <nd ref="982657846"/>
    <nd ref="982657772"/>
    <nd ref="982657751"/>
    <nd ref="982657647"/>
    <nd ref="982657627"/>
    <nd ref="982657829"/>
    <nd ref="982657810"/>
    <nd ref="982657719"/>
    <nd ref="982657691"/>
    <nd ref="982657880"/>
    <nd ref="982657861"/>
    <nd ref="982657688"/>
    <tag k="addr:city" v="Зеленоград"/>
    <tag k="addr:country" v="RU"/>
    <tag k="addr:housenumber" v="4"/>
    <tag k="addr:region" v="Москва"/>
    <tag k="addr:street" v="площадь Юности"/>
    <tag k="building" v="yes"/>
    <tag k="cladr:code" v="77000002000319700"/>
  </way>
  <way id="84575914" version="1" timestamp="2010-11-08T17:52:09Z" uid="115477" user="wowik" changeset="6322246">
    <nd ref="982657690"/>
    <nd ref="982657877"/>
    <nd ref="982657859"/>
    <nd ref="982657790"/>
    <nd ref="982657690"/>
    <tag k="addr:city" v="Зеленоград"/>
    <tag k="addr:housenumber" v="1с2"/>
    <tag k="addr:street" v="площадь Юности"/>
    <tag k="building" v="yes"/>
    <tag k="cladr:code" v="77000002000319700"/>
    <tag k="is_in" v="Russia"/>
    <tag k="landuse" v="service"/>
  </way>
  <way id="84575914" version="2" timestamp="2010-11-30T05:36:49Z" uid="115477" user="wowik" changeset="6491687">
    <nd ref="982657690"/>
    <nd ref="982657877"/>
    <nd ref="982657859"/>
    <nd ref="982657790"/>
    <nd ref="982657690"/>
    <tag k="addr:city" v="Зеленоград"/>
    <tag k="addr:housenumber" v="1с2"/>
    <tag k="addr:street" v="улица Николая Злобина"/>
    <tag k="building" v="yes"/>
    <tag k="is_in" v="Russia"/>
    <tag k="landuse" v="service"/>
  </way>
  <way id="84575914" version="3" timestamp="2011-01-19T17:02:49Z" uid="70696" user="xybot" changeset="7021015">
    <nd ref="982657690"/>
    <nd ref="982657877"/>
    <nd ref="982657859"/>
    <nd ref="982657790"/>
    <nd ref="982657690"/>
    <tag k="addr:city" v="Зеленоград"/>
    <tag k="addr:housenumber" v="1 с2"/>
    <tag k="addr:street" v="улица Николая Злобина"/>
    <tag k="building" v="yes"/>
    <tag k="is_in" v="Russia"/>
    <tag k="landuse" v="service"/>
  </way>
  <way id="84575914" version="4" timestamp="2011-09-13T10:20:43Z" uid="29320" user="Komяpa" changeset="9288237">
    <nd ref="982657690"/>
    <nd ref="982657877"/>
    <nd ref="982657859"/>
    <nd ref="982657790"/>
    <nd ref="982657690"/>
    <tag k="addr:city" v="Зеленоград"/>
    <tag k="addr:country" v="RU"/>
    <tag k="addr:housenumber" v="1 с2"/>
    <tag k="addr:street" v="улица Николая Злобина"/>
    <tag k="building" v="service"/>
  </way>
  <way id="84575914" version="5" timestamp="2012-03-27T11:33:02Z" uid="481934" user="iWowik" changeset="11115472">
    <nd ref="982657690"/>
    <nd ref="982657877"/>
    <nd ref="982657859"/>
    <nd ref="982657790"/>
    <nd ref="982657690"/>
    <tag k="addr:city" v="Зеленоград"/>
    <tag k="addr:country" v="RU"/>
    <tag k="addr:housenumber" v="1 с2"/>
    <tag k="addr:region" v="Москва"/>
    <tag k="addr:street" v="улица Николая Злобина"/>
    <tag k="building" v="service"/>
  </way>
  <way id="84575915" version="1" timestamp="2010-11-08T17:52:10Z" uid="115477" user="wowik" changeset="6322246">
    <nd ref="982657776"/>
    <nd ref="982657677"/>
    <nd ref="982657649"/>
    <nd ref="982657851"/>
    <nd ref="982657833"/>
    <nd ref="982657754"/>
    <nd ref="982657728"/>
    <nd ref="982657631"/>
    <nd ref="982657884"/>
    <nd ref="982657813"/>
    <nd ref="982657794"/>
    <nd ref="982657697"/>
    <nd ref="982657736"/>
    <nd ref="982657640"/>
    <nd ref="982657890"/>
    <nd ref="982657816"/>
    <nd ref="982657803"/>
    <nd ref="982657702"/>
    <nd ref="982657680"/>
    <nd ref="982657868"/>
    <nd ref="982657776"/>
    <tag k="addr:city" v="Зеленоград"/>
    <tag k="addr:housenumber" v="5"/>
    <tag k="addr:street" v="площадь Юности"/>
    <tag k="building" v="yes"/>
    <tag k="cladr:code" v="77000002000319700"/>
    <tag k="is_in" v="Russia"/>
  </way>
  <way id="84575915" version="2" timestamp="2010-12-21T22:45:49Z" uid="380194" user="ac-trash" changeset="6731005">
    <nd ref="982657776"/>
    <nd ref="982657677"/>
    <nd ref="982657649"/>
    <nd ref="982657851"/>
    <nd ref="982657833"/>
    <nd ref="982657754"/>
    <nd ref="1055522468"/>
    <nd ref="982657728"/>
    <nd ref="982657631"/>
    <nd ref="982657884"/>
    <nd ref="982657813"/>
    <nd ref="982657794"/>
    <nd ref="1055522350"/>
    <nd ref="982657697"/>
    <nd ref="982657736"/>
    <nd ref="982657640"/>
    <nd ref="982657890"/>
    <nd ref="982657816"/>
    <nd ref="982657803"/>
    <nd ref="982657702"/>
    <nd ref="982657680"/>
    <nd ref="982657868"/>
    <nd ref="982657776"/>
    <tag k="addr:city" v="Зеленоград"/>
    <tag k="addr:housenumber" v="5"/>
    <tag k="addr:street" v="площадь Юности"/>
    <tag k="building" v="yes"/>
    <tag k="cladr:code" v="77000002000319700"/>
    <tag k="is_in" v="Russia"/>
  </way>
  <way id="84575915" version="3" timestamp="2011-09-13T10:27:19Z" uid="29320" user="Komяpa" changeset="9288237">
    <nd ref="982657776"/>
    <nd ref="982657677"/>
    <nd ref="982657649"/>
    <nd ref="982657851"/>
    <nd ref="982657833"/>
    <nd ref="982657754"/>
    <nd ref="1055522468"/>
    <nd ref="982657728"/>
    <nd ref="982657631"/>
    <nd ref="982657884"/>
    <nd ref="982657813"/>
    <nd ref="982657794"/>
    <nd ref="1055522350"/>
    <nd ref="982657697"/>
    <nd ref="982657736"/>
    <nd ref="982657640"/>
    <nd ref="982657890"/>
    <nd ref="982657816"/>
    <nd ref="982657803"/>
    <nd ref="982657702"/>
    <nd ref="982657680"/>
    <nd ref="982657868"/>
    <nd ref="982657776"/>
    <tag k="addr:city" v="Зеленоград"/>
    <tag k="addr:country" v="RU"/>
    <tag k="addr:housenumber" v="5"/>
    <tag k="addr:street" v="площадь Юности"/>
    <tag k="building" v="yes"/>
    <tag k="cladr:code" v="77000002000319700"/>
  </way>
  <way id="84575915" version="4" timestamp="2012-03-27T11:44:08Z" uid="481934" user="iWowik" changeset="11115472">
    <nd ref="982657776"/>
    <nd ref="982657677"/>
    <nd ref="982657649"/>
    <nd ref="982657851"/>
    <nd ref="982657833"/>
    <nd ref="982657754"/>
    <nd ref="1055522468"/>
    <nd ref="982657728"/>
    <nd ref="982657631"/>
    <nd ref="982657884"/>
    <nd ref="982657813"/>
    <nd ref="982657794"/>
    <nd ref="1055522350"/>
    <nd ref="982657697"/>
    <nd ref="982657736"/>
    <nd ref="982657640"/>
    <nd ref="982657890"/>
    <nd ref="982657816"/>
    <nd ref="982657803"/>
    <nd ref="982657702"/>
    <nd ref="982657680"/>
    <nd ref="982657868"/>
    <nd ref="982657776"/>
    <tag k="addr:city" v="Зеленоград"/>
    <tag k="addr:country" v="RU"/>
    <tag k="addr:housenumber" v="5"/>
    <tag k="addr:region" v="Москва"/>
    <tag k="addr:street" v="площадь Юности"/>
    <tag k="building" v="yes"/>
    <tag k="cladr:code" v="77000002000319700"/>
  </way>
  <way id="84575044" version="9" timestamp="2012-07-20T22:18:00Z" uid="722137" user="OSMF Redaction Account" changeset="12394559"/>
  <way id="84575045" version="9" timestamp="2012-07-20T22:17:45Z" uid="722137" user="OSMF Redaction Account" changeset="12394539"/>
  <way id="84575046" version="2" timestamp="2012-07-20T22:17:47Z" uid="722137" user="OSMF Redaction Account" changeset="12394539"/>
  <way id="84575047" version="8" timestamp="2012-05-26T15:52:42Z" uid="109327" user="OverQuantum" changeset="11707753">
    <nd ref="982638136"/>
    <nd ref="982638171"/>
    <nd ref="724169822"/>
    <nd ref="724169823"/>
    <nd ref="982638168"/>
    <nd ref="982638146"/>
    <nd ref="724169808"/>
    <nd ref="724169824"/>
    <nd ref="1766383504"/>
    <nd ref="1766383508"/>
    <nd ref="428147121"/>
    <nd ref="982638136"/>
    <tag k="addr:city" v="Зеленоград"/>
    <tag k="addr:country" v="RU"/>
    <tag k="addr:housenumber" v="426А с3"/>
    <tag k="addr:region" v="Москва"/>
    <tag k="addr:street" v="4-й микрорайон"/>
    <tag k="building" v="yes"/>
    <tag k="building:levels" v="1"/>
  </way>
  <way id="84575047" version="9" timestamp="2012-07-20T22:07:13Z" uid="722137" user="OSMF Redaction Account" changeset="12394207">
    <nd ref="724169808"/>
    <nd ref="1766383504"/>
    <nd ref="1766383508"/>
    <tag k="addr:country" v="RU"/>
    <tag k="addr:region" v="Москва"/>
    <tag k="addr:street" v="4-й микрорайон"/>
  </way>
  <way id="84575047" version="10" timestamp="2012-07-29T20:06:16Z" uid="109327" user="OverQuantum" changeset="12539833"/>
  <way id="84575909" version="9" timestamp="2012-07-20T15:48:53Z" uid="722137" user="OSMF Redaction Account" changeset="12381812"/>
  <way id="84575910" version="5" timestamp="2012-07-20T15:48:49Z" uid="722137" user="OSMF Redaction Account" changeset="12381812"/>
  <way id="84575911" version="6" timestamp="2012-07-20T15:48:55Z" uid="722137" user="OSMF Redaction Account" changeset="12381812"/>
  <way id="84575912" version="5" timestamp="2012-07-20T15:48:45Z" uid="722137" user="OSMF Redaction Account" changeset="12381812"/>
  <way id="84575913" version="4" timestamp="2012-07-20T15:48:46Z" uid="722137" user="OSMF Redaction Account" changeset="12381812"/>
  <way id="84575914" version="6" timestamp="2012-07-20T15:48:54Z" uid="722137" user="OSMF Redaction Account" changeset="12381812"/>
  <way id="84575915" version="5" timestamp="2012-07-20T15:46:14Z" uid="722137" user="OSMF Redaction Account" changeset="12381662">
    <nd ref="1055522468"/>
    <nd ref="1055522350"/>
    <tag k="addr:country" v="RU"/>
    <tag k="addr:region" v="Москва"/>
  </way>
  <way id="84575915" version="6" timestamp="2012-08-13T21:47:57Z" uid="109327" user="OverQuantum" changeset="12720316"/>
</osm>
