<?xml version='1.0' encoding='UTF-8'?>
<osm version="0.6" generator="libosmium/2.20.0">
  <way id="84645608" version="1" timestamp="2010-11-09T12:23:10Z" uid="115477" user="wowik" changeset="6327211">
    <nd ref="429283193"/>
    <nd ref="983309232"/>
    <nd ref="983309240"/>
    <nd ref="983309230"/>
    <nd ref="983309233"/>
    <nd ref="429283203"/>
    <nd ref="429283107"/>
    <nd ref="983309235"/>
    <nd ref="429283337"/>
    <nd ref="983309236"/>
    <nd ref="983309234"/>
    <nd ref="983309238"/>
    <nd ref="429283193"/>
    <tag k="addr:city" v="Зеленоград"/>
    <tag k="addr:housenumber" v="225с1"/>
    <tag k="addr:street" v="2-й Микрорайон"/>
    <tag k="amenity" v="hospital"/>
    <tag k="building" v="yes"/>
    <tag k="comment" v="Поликлиника №152"/>
    <tag k="is_in" v="Russia"/>
    <tag k="name" v="П-ка №152"/>
  </way>
  <way id="84645608" version="2" timestamp="2011-01-12T11:08:31Z" uid="115477" user="wowik" changeset="6945967">
    <nd ref="429283193"/>
    <nd ref="983309232"/>
    <nd ref="983309240"/>
    <nd ref="983309230"/>
    <nd ref="983309233"/>
    <nd ref="429283203"/>
    <nd ref="429283107"/>
    <nd ref="983309235"/>
    <nd ref="429283337"/>
    <nd ref="983309236"/>
    <nd ref="983309234"/>
    <nd ref="983309238"/>
    <nd ref="1099603003"/>
    <nd ref="429283193"/>
    <tag k="addr:city" v="Зеленоград"/>
    <tag k="addr:housenumber" v="225с1"/>
    <tag k="addr:street" v="2-й Микрорайон"/>
    <tag k="amenity" v="hospital"/>
    <tag k="building" v="yes"/>
    <tag k="comment" v="Поликлиника №152"/>
    <tag k="is_in" v="Russia"/>
    <tag k="name" v="П-ка №152"/>
  </way>
  <way id="84645608" version="3" timestamp="2011-01-19T17:03:04Z" uid="70696" user="xybot" changeset="7021015">
    <nd ref="429283193"/>
    <nd ref="983309232"/>
    <nd ref="983309240"/>
    <nd ref="983309230"/>
    <nd ref="983309233"/>
    <nd ref="429283203"/>
    <nd ref="429283107"/>
    <nd ref="983309235"/>
    <nd ref="429283337"/>
    <nd ref="983309236"/>
    <nd ref="983309234"/>
    <nd ref="983309238"/>
    <nd ref="1099603003"/>
    <nd ref="429283193"/>
    <tag k="addr:city" v="Зеленоград"/>
    <tag k="addr:housenumber" v="225 с1"/>
    <tag k="addr:street" v="2-й Микрорайон"/>
    <tag k="amenity" v="hospital"/>
    <tag k="building" v="yes"/>
    <tag k="comment" v="Поликлиника №152"/>
    <tag k="is_in" v="Russia"/>
    <tag k="name" v="П-ка №152"/>
  </way>
  <way id="84645608" version="4" timestamp="2011-02-18T21:09:20Z" uid="206282" user="Amigo" changeset="7326520">
    <nd ref="429283193"/>
    <nd ref="983309232"/>
    <nd ref="983309240"/>
    <nd ref="983309230"/>
    <nd ref="983309233"/>
    <nd ref="429283203"/>
    <nd ref="429283107"/>
    <nd ref="983309235"/>
    <nd ref="429283337"/>
    <nd ref="983309236"/>
    <nd ref="983309234"/>
    <nd ref="983309238"/>
    <nd ref="1099603003"/>
    <nd ref="429283193"/>
    <tag k="addr:city" v="Зеленоград"/>
    <tag k="addr:housenumber" v="225 с1"/>
    <tag k="addr:street" v="2-й Микрорайон"/>
    <tag k="building" v="yes"/>
    <tag k="healthcare" v="clinic"/>
    <tag k="is_in" v="Russia"/>
    <tag k="name" v="Поликлиника №152"/>
  </way>
  <way id="84645608" version="5" timestamp="2011-02-18T21:09:59Z" uid="206282" user="Amigo" changeset="7326520">
    <nd ref="429283193"/>
    <nd ref="983309232"/>
    <nd ref="983309240"/>
    <nd ref="983309230"/>
    <nd ref="983309233"/>
    <nd ref="429283203"/>
    <nd ref="429283107"/>
    <nd ref="983309235"/>
    <nd ref="429283337"/>
    <nd ref="983309236"/>
    <nd ref="983309234"/>
    <nd ref="983309238"/>
    <nd ref="1099603003"/>
    <nd ref="429283193"/>
    <tag k="addr:city" v="Зеленоград"/>
    <tag k="addr:housenumber" v="225 с1"/>
    <tag k="addr:street" v="2-й Микрорайон"/>
    <tag k="building" v="yes"/>
    <tag k="is_in" v="Russia"/>
  </way>
  <way id="84645608" version="6" timestamp="2011-06-07T20:48:54Z" uid="133332" user="AMDmi3" changeset="8374030">
    <nd ref="429283193"/>
    <nd ref="983309232"/>
    <nd ref="983309240"/>
    <nd ref="983309230"/>
    <nd ref="983309233"/>
    <nd ref="429283203"/>
    <nd ref="429283107"/>
    <nd ref="983309235"/>
    <nd ref="429283337"/>
    <nd ref="983309236"/>
    <nd ref="983309234"/>
    <nd ref="983309238"/>
    <nd ref="1099603003"/>
    <nd ref="429283193"/>
    <tag k="addr:city" v="Зеленоград"/>
    <tag k="addr:housenumber" v="225 с1"/>
    <tag k="addr:street" v="2-й микрорайон"/>
    <tag k="building" v="yes"/>
    <tag k="is_in" v="Russia"/>
  </way>
  <way id="84645608" version="7" timestamp="2011-09-13T10:24:50Z" uid="29320" user="Komяpa" changeset="9288237">
    <nd ref="429283193"/>
    <nd ref="983309232"/>
    <nd ref="983309240"/>
    <nd ref="983309230"/>
    <nd ref="983309233"/>
    <nd ref="429283203"/>
    <nd ref="429283107"/>
    <nd ref="983309235"/>
    <nd ref="429283337"/>
    <nd ref="983309236"/>
    <nd ref="983309234"/>
    <nd ref="983309238"/>
    <nd ref="1099603003"/>
    <nd ref="429283193"/>
    <tag k="addr:city" v="Зеленоград"/>
    <tag k="addr:country" v="RU"/>
    <tag k="addr:housenumber" v="225 с1"/>
    <tag k="addr:street" v="2-й микрорайон"/>
    <tag k="building" v="yes"/>
  </way>
  <way id="84645608" version="8" timestamp="2011-10-28T10:34:45Z" uid="481934" user="iWowik" changeset="9675276">
    <nd ref="429283193"/>
    <nd ref="983309232"/>
    <nd ref="983309240"/>
    <nd ref="983309230"/>
    <nd ref="983309233"/>
    <nd ref="429283203"/>
    <nd ref="429283107"/>
    <nd ref="983309235"/>
    <nd ref="429283337"/>
    <nd ref="983309236"/>
    <nd ref="983309234"/>
    <nd ref="983309238"/>
    <nd ref="1099603003"/>
    <nd ref="429283193"/>
    <tag k="addr:city" v="Зеленоград"/>
    <tag k="addr:country" v="RU"/>
    <tag k="addr:housenumber" v="225 с1"/>
    <tag k="addr:street" v="2-й Микрорайон"/>
    <tag k="building" v="yes"/>
  </way>
  <way id="84645608" version="9" timestamp="2011-11-14T20:32:00Z" uid="133332" user="AMDmi3" changeset="9828527">
    <nd ref="429283193"/>
    <nd ref="983309232"/>
    <nd ref="983309240"/>
    <nd ref="983309230"/>
    <nd ref="983309233"/>
    <nd ref="429283203"/>
    <nd ref="429283107"/>
    <nd ref="983309235"/>
    <nd ref="429283337"/>
    <nd ref="983309236"/>
    <nd ref="983309234"/>
    <nd ref="983309238"/>
    <nd ref="1099603003"/>
    <nd ref="429283193"/>
    <tag k="addr:city" v="Зеленоград"/>
    <tag k="addr:country" v="RU"/>
    <tag k="addr:housenumber" v="225 с1"/>
    <tag k="addr:street" v="2-й микрорайон"/>
    <tag k="building" v="yes"/>
  </way>
  <way id="84645608" version="10" timestamp="2012-03-27T11:39:51Z" uid="481934" user="iWowik" changeset="11115472">
    <nd ref="429283193"/>
    <nd ref="983309232"/>
    <nd ref="983309240"/>
    <nd ref="983309230"/>
    <nd ref="983309233"/>
    <nd ref="429283203"/>
    <nd ref="429283107"/>
    <nd ref="983309235"/>
    <nd ref="429283337"/>
    <nd ref="983309236"/>
    <nd ref="983309234"/>
    <nd ref="983309238"/>
    <nd ref="1099603003"/>
    <nd ref="429283193"/>
    <tag k="addr:city" v="Зеленоград"/>
    <tag k="addr:country" v="RU"/>
    <tag k="addr:housenumber" v="225 с1"/>
    <tag k="addr:region" v="Москва"/>
    <tag k="addr:street" v="2-й микрорайон"/>
    <tag k="building" v="yes"/>
  </way>
  <way id="84645608" version="11" timestamp="2012-07-20T15:48:40Z" uid="722137" user="OSMF Redaction Account" changeset="12381812"/>
</osm>
