<?xml version='1.0' encoding='UTF-8'?>
<osm version="0.6" generator="libosmium/2.20.0">
  <way id="84657085" version="1" timestamp="2010-11-09T14:53:34Z" uid="115477" user="wowik" changeset="6327211">
    <nd ref="983415090"/>
    <nd ref="983415073"/>
    <nd ref="983414918"/>
    <nd ref="983414882"/>
    <nd ref="983415090"/>
    <tag k="addr:city" v="Зеленоград"/>
    <tag k="addr:street" v="2-й Западный проезд"/>
    <tag k="building" v="yes"/>
    <tag k="is_in" v="Russia"/>
  </way>
  <way id="84657085" version="2" timestamp="2011-09-13T10:37:32Z" uid="29320" user="Komяpa" changeset="9288237">
    <nd ref="983415090"/>
    <nd ref="983415073"/>
    <nd ref="983414918"/>
    <nd ref="983414882"/>
    <nd ref="983415090"/>
    <tag k="addr:city" v="Зеленоград"/>
    <tag k="addr:country" v="RU"/>
    <tag k="addr:street" v="2-й Западный проезд"/>
    <tag k="building" v="yes"/>
  </way>
  <way id="84657085" version="3" timestamp="2012-03-27T11:51:50Z" uid="481934" user="iWowik" changeset="11115472">
    <nd ref="983415090"/>
    <nd ref="983415073"/>
    <nd ref="983414918"/>
    <nd ref="983414882"/>
    <nd ref="983415090"/>
    <tag k="addr:city" v="Зеленоград"/>
    <tag k="addr:country" v="RU"/>
    <tag k="addr:region" v="Москва"/>
    <tag k="addr:street" v="2-й Западный проезд"/>
    <tag k="building" v="yes"/>
  </way>
  <way id="84657090" version="1" timestamp="2010-11-09T14:53:36Z" uid="115477" user="wowik" changeset="6327211">
    <nd ref="983415017"/>
    <nd ref="983415005"/>
    <nd ref="983415068"/>
    <nd ref="983414872"/>
    <nd ref="983415017"/>
    <tag k="addr:city" v="Зеленоград"/>
    <tag k="addr:street" v="2-й Западный проезд"/>
    <tag k="building" v="yes"/>
    <tag k="is_in" v="Russia"/>
  </way>
  <way id="84657090" version="2" timestamp="2011-09-13T10:37:32Z" uid="29320" user="Komяpa" changeset="9288237">
    <nd ref="983415017"/>
    <nd ref="983415005"/>
    <nd ref="983415068"/>
    <nd ref="983414872"/>
    <nd ref="983415017"/>
    <tag k="addr:city" v="Зеленоград"/>
    <tag k="addr:country" v="RU"/>
    <tag k="addr:street" v="2-й Западный проезд"/>
    <tag k="building" v="yes"/>
  </way>
  <way id="84657090" version="3" timestamp="2012-03-27T11:49:55Z" uid="481934" user="iWowik" changeset="11115472">
    <nd ref="983415017"/>
    <nd ref="983415005"/>
    <nd ref="983415068"/>
    <nd ref="983414872"/>
    <nd ref="983415017"/>
    <tag k="addr:city" v="Зеленоград"/>
    <tag k="addr:country" v="RU"/>
    <tag k="addr:region" v="Москва"/>
    <tag k="addr:street" v="2-й Западный проезд"/>
    <tag k="building" v="yes"/>
  </way>
  <way id="84657091" version="1" timestamp="2010-11-09T14:53:36Z" uid="115477" user="wowik" changeset="6327211">
    <nd ref="983415015"/>
    <nd ref="983414969"/>
    <nd ref="983415035"/>
    <nd ref="983414883"/>
    <nd ref="983415015"/>
    <tag k="addr:city" v="Зеленоград"/>
    <tag k="addr:street" v="2-й Западный проезд"/>
    <tag k="building" v="yes"/>
    <tag k="is_in" v="Russia"/>
  </way>
  <way id="84657091" version="2" timestamp="2011-09-13T10:37:32Z" uid="29320" user="Komяpa" changeset="9288237">
    <nd ref="983415015"/>
    <nd ref="983414969"/>
    <nd ref="983415035"/>
    <nd ref="983414883"/>
    <nd ref="983415015"/>
    <tag k="addr:city" v="Зеленоград"/>
    <tag k="addr:country" v="RU"/>
    <tag k="addr:street" v="2-й Западный проезд"/>
    <tag k="building" v="yes"/>
  </way>
  <way id="84657091" version="3" timestamp="2012-03-27T11:51:57Z" uid="481934" user="iWowik" changeset="11115472">
    <nd ref="983415015"/>
    <nd ref="983414969"/>
    <nd ref="983415035"/>
    <nd ref="983414883"/>
    <nd ref="983415015"/>
    <tag k="addr:city" v="Зеленоград"/>
    <tag k="addr:country" v="RU"/>
    <tag k="addr:region" v="Москва"/>
    <tag k="addr:street" v="2-й Западный проезд"/>
    <tag k="building" v="yes"/>
  </way>
  <way id="84657095" version="1" timestamp="2010-11-09T14:53:37Z" uid="115477" user="wowik" changeset="6327211">
    <nd ref="983414908"/>
    <nd ref="983415031"/>
    <nd ref="983415092"/>
    <nd ref="983414941"/>
    <nd ref="983414908"/>
    <tag k="addr:city" v="Зеленоград"/>
    <tag k="addr:housenumber" v="2Фс4"/>
    <tag k="addr:street" v="2-й Западный проезд"/>
    <tag k="building" v="yes"/>
    <tag k="is_in" v="Russia"/>
  </way>
  <way id="84657095" version="2" timestamp="2011-01-15T17:27:02Z" uid="206282" user="Amigo" changeset="6979675">
    <nd ref="983414908"/>
    <nd ref="983415031"/>
    <nd ref="983415092"/>
    <nd ref="983414941"/>
    <nd ref="983414908"/>
    <tag k="addr:city" v="Зеленоград"/>
    <tag k="addr:housenumber" v="2Ф с4"/>
    <tag k="addr:street" v="2-й Западный проезд"/>
    <tag k="building" v="yes"/>
    <tag k="is_in" v="Russia"/>
  </way>
  <way id="84657095" version="3" timestamp="2011-01-17T06:10:43Z" uid="314211" user="OldIvantey" changeset="6996300">
    <nd ref="983414908"/>
    <nd ref="983415031"/>
    <nd ref="983415092"/>
    <nd ref="983414941"/>
    <nd ref="983414908"/>
    <tag k="addr:city" v="Зеленоград"/>
    <tag k="addr:housenumber" v="2А с4"/>
    <tag k="addr:street" v="2-й Западный проезд"/>
    <tag k="building" v="yes"/>
    <tag k="is_in" v="Russia"/>
  </way>
  <way id="84657095" version="4" timestamp="2011-09-13T10:25:17Z" uid="29320" user="Komяpa" changeset="9288237">
    <nd ref="983414908"/>
    <nd ref="983415031"/>
    <nd ref="983415092"/>
    <nd ref="983414941"/>
    <nd ref="983414908"/>
    <tag k="addr:city" v="Зеленоград"/>
    <tag k="addr:country" v="RU"/>
    <tag k="addr:housenumber" v="2А с4"/>
    <tag k="addr:street" v="2-й Западный проезд"/>
    <tag k="building" v="yes"/>
  </way>
  <way id="84657095" version="5" timestamp="2012-03-27T11:40:37Z" uid="481934" user="iWowik" changeset="11115472">
    <nd ref="983414908"/>
    <nd ref="983415031"/>
    <nd ref="983415092"/>
    <nd ref="983414941"/>
    <nd ref="983414908"/>
    <tag k="addr:city" v="Зеленоград"/>
    <tag k="addr:country" v="RU"/>
    <tag k="addr:housenumber" v="2А с4"/>
    <tag k="addr:region" v="Москва"/>
    <tag k="addr:street" v="2-й Западный проезд"/>
    <tag k="building" v="yes"/>
  </way>
  <way id="84657096" version="1" timestamp="2010-11-09T14:53:37Z" uid="115477" user="wowik" changeset="6327211">
    <nd ref="983414920"/>
    <nd ref="983415043"/>
    <nd ref="983415095"/>
    <nd ref="983414951"/>
    <nd ref="983415027"/>
    <nd ref="983415089"/>
    <nd ref="983414920"/>
    <tag k="addr:city" v="Зеленоград"/>
    <tag k="addr:housenumber" v="2Ас3"/>
    <tag k="addr:street" v="2-й Западный проезд"/>
    <tag k="building" v="yes"/>
    <tag k="is_in" v="Russia"/>
  </way>
  <way id="84657096" version="2" timestamp="2011-01-15T17:26:58Z" uid="206282" user="Amigo" changeset="6979675">
    <nd ref="983414920"/>
    <nd ref="983415043"/>
    <nd ref="983415095"/>
    <nd ref="983414951"/>
    <nd ref="983415027"/>
    <nd ref="983415089"/>
    <nd ref="983414920"/>
    <tag k="addr:city" v="Зеленоград"/>
    <tag k="addr:housenumber" v="2А с3"/>
    <tag k="addr:street" v="2-й Западный проезд"/>
    <tag k="building" v="yes"/>
    <tag k="is_in" v="Russia"/>
  </way>
  <way id="84657096" version="3" timestamp="2011-02-02T14:49:42Z" uid="241531" user="dik_man" changeset="7165428">
    <nd ref="983414920"/>
    <nd ref="983415043"/>
    <nd ref="983415095"/>
    <nd ref="983414951"/>
    <nd ref="983415027"/>
    <nd ref="983415089"/>
    <nd ref="983414920"/>
    <tag k="addr:city" v="Зеленоград"/>
    <tag k="addr:street" v="2-й Западный проезд"/>
    <tag k="building" v="yes"/>
    <tag k="is_in" v="Russia"/>
    <tag k="note" v="2А с3 адрес уществует!!??"/>
  </way>
  <way id="84657096" version="4" timestamp="2011-02-02T15:58:24Z" uid="115477" user="wowik" changeset="7165948">
    <nd ref="983414920"/>
    <nd ref="983415043"/>
    <nd ref="983415095"/>
    <nd ref="983414951"/>
    <nd ref="983415027"/>
    <nd ref="983415089"/>
    <nd ref="983414920"/>
    <tag k="addr:city" v="Зеленоград"/>
    <tag k="addr:street" v="2-й Западный проезд"/>
    <tag k="building" v="yes"/>
    <tag k="is_in" v="Russia"/>
    <tag k="note" v="2А с3 адрес уже существует!!??"/>
  </way>
  <way id="84657096" version="5" timestamp="2011-02-09T15:50:09Z" uid="115477" user="wowik" changeset="7237209">
    <nd ref="983414920"/>
    <nd ref="983415043"/>
    <nd ref="983415095"/>
    <nd ref="983414951"/>
    <nd ref="983415027"/>
    <nd ref="983415089"/>
    <nd ref="983414920"/>
    <tag k="addr:city" v="Зеленоград"/>
    <tag k="addr:housenumber" v="2А с3"/>
    <tag k="addr:street" v="2-й Западный проезд"/>
    <tag k="building" v="yes"/>
    <tag k="is_in" v="Russia"/>
  </way>
  <way id="84657096" version="6" timestamp="2011-09-13T10:25:16Z" uid="29320" user="Komяpa" changeset="9288237">
    <nd ref="983414920"/>
    <nd ref="983415043"/>
    <nd ref="983415095"/>
    <nd ref="983414951"/>
    <nd ref="983415027"/>
    <nd ref="983415089"/>
    <nd ref="983414920"/>
    <tag k="addr:city" v="Зеленоград"/>
    <tag k="addr:country" v="RU"/>
    <tag k="addr:housenumber" v="2А с3"/>
    <tag k="addr:street" v="2-й Западный проезд"/>
    <tag k="building" v="yes"/>
  </way>
  <way id="84657096" version="7" timestamp="2012-03-27T11:40:37Z" uid="481934" user="iWowik" changeset="11115472">
    <nd ref="983414920"/>
    <nd ref="983415043"/>
    <nd ref="983415095"/>
    <nd ref="983414951"/>
    <nd ref="983415027"/>
    <nd ref="983415089"/>
    <nd ref="983414920"/>
    <tag k="addr:city" v="Зеленоград"/>
    <tag k="addr:country" v="RU"/>
    <tag k="addr:housenumber" v="2А с3"/>
    <tag k="addr:region" v="Москва"/>
    <tag k="addr:street" v="2-й Западный проезд"/>
    <tag k="building" v="yes"/>
  </way>
  <way id="84657099" version="1" timestamp="2010-11-09T14:53:38Z" uid="115477" user="wowik" changeset="6327211">
    <nd ref="983415084"/>
    <nd ref="983415058"/>
    <nd ref="983414905"/>
    <nd ref="983415078"/>
    <nd ref="983415011"/>
    <nd ref="983415096"/>
    <nd ref="983415084"/>
    <tag k="addr:city" v="Зеленоград"/>
    <tag k="addr:housenumber" v="1с13"/>
    <tag k="addr:street" v="2-й Западный проезд"/>
    <tag k="building" v="yes"/>
    <tag k="is_in" v="Russia"/>
  </way>
  <way id="84657099" version="2" timestamp="2010-11-09T15:26:31Z" uid="115477" user="wowik" changeset="6327211">
    <nd ref="983415084"/>
    <nd ref="983415058"/>
    <nd ref="983414905"/>
    <nd ref="983415078"/>
    <nd ref="983415011"/>
    <nd ref="983415096"/>
    <nd ref="983415084"/>
    <tag k="addr:city" v="Зеленоград"/>
    <tag k="addr:housenumber" v="1с13"/>
    <tag k="addr:street" v="2-й Западный проезд"/>
    <tag k="building" v="yes"/>
    <tag k="is_in" v="Russia"/>
    <tag k="shop" v="convenience"/>
  </way>
  <way id="84657099" version="3" timestamp="2011-01-15T17:27:01Z" uid="206282" user="Amigo" changeset="6979675">
    <nd ref="983415084"/>
    <nd ref="983415058"/>
    <nd ref="983414905"/>
    <nd ref="983415078"/>
    <nd ref="983415011"/>
    <nd ref="983415096"/>
    <nd ref="983415084"/>
    <tag k="addr:city" v="Зеленоград"/>
    <tag k="addr:housenumber" v="1 с13"/>
    <tag k="addr:street" v="2-й Западный проезд"/>
    <tag k="building" v="yes"/>
    <tag k="is_in" v="Russia"/>
    <tag k="shop" v="convenience"/>
  </way>
  <way id="84657099" version="4" timestamp="2011-09-13T10:20:38Z" uid="29320" user="Komяpa" changeset="9288237">
    <nd ref="983415084"/>
    <nd ref="983415058"/>
    <nd ref="983414905"/>
    <nd ref="983415078"/>
    <nd ref="983415011"/>
    <nd ref="983415096"/>
    <nd ref="983415084"/>
    <tag k="addr:city" v="Зеленоград"/>
    <tag k="addr:country" v="RU"/>
    <tag k="addr:housenumber" v="1 с13"/>
    <tag k="addr:street" v="2-й Западный проезд"/>
    <tag k="building" v="yes"/>
    <tag k="shop" v="convenience"/>
  </way>
  <way id="84657099" version="5" timestamp="2011-12-12T17:49:15Z" uid="126304" user="TarzanASG" changeset="10100388">
    <nd ref="983415084"/>
    <nd ref="983415058"/>
    <nd ref="983414905"/>
    <nd ref="983415078"/>
    <nd ref="983415011"/>
    <nd ref="983415096"/>
    <nd ref="983415084"/>
    <tag k="addr:city" v="Зеленоград"/>
    <tag k="addr:country" v="RU"/>
    <tag k="addr:housenumber" v="1 с13"/>
    <tag k="addr:street" v="2-й Западный проезд"/>
    <tag k="building" v="retail"/>
    <tag k="shop" v="convenience"/>
  </way>
  <way id="84657099" version="6" timestamp="2011-12-14T13:08:01Z" uid="143266" user="Sergey Astakhov" changeset="10115724">
    <nd ref="983415084"/>
    <nd ref="983415058"/>
    <nd ref="983414905"/>
    <nd ref="983415078"/>
    <nd ref="983415011"/>
    <nd ref="983415096"/>
    <nd ref="983415084"/>
    <tag k="addr:city" v="Зеленоград"/>
    <tag k="addr:country" v="RU"/>
    <tag k="addr:housenumber" v="1 с13"/>
    <tag k="addr:street" v="2-й Западный проезд"/>
    <tag k="building" v="yes"/>
    <tag k="shop" v="convenience"/>
  </way>
  <way id="84657099" version="7" timestamp="2012-03-27T11:32:53Z" uid="481934" user="iWowik" changeset="11115472">
    <nd ref="983415084"/>
    <nd ref="983415058"/>
    <nd ref="983414905"/>
    <nd ref="983415078"/>
    <nd ref="983415011"/>
    <nd ref="983415096"/>
    <nd ref="983415084"/>
    <tag k="addr:city" v="Зеленоград"/>
    <tag k="addr:country" v="RU"/>
    <tag k="addr:housenumber" v="1 с13"/>
    <tag k="addr:region" v="Москва"/>
    <tag k="addr:street" v="2-й Западный проезд"/>
    <tag k="building" v="yes"/>
    <tag k="shop" v="convenience"/>
  </way>
  <way id="84657100" version="1" timestamp="2010-11-09T14:53:38Z" uid="115477" user="wowik" changeset="6327211">
    <nd ref="983414944"/>
    <nd ref="983414891"/>
    <nd ref="983414979"/>
    <nd ref="983415062"/>
    <nd ref="983414944"/>
    <tag k="addr:city" v="Зеленоград"/>
    <tag k="addr:housenumber" v="1с11"/>
    <tag k="addr:street" v="2-й Западный проезд"/>
    <tag k="building" v="yes"/>
    <tag k="is_in" v="Russia"/>
  </way>
  <way id="84657100" version="2" timestamp="2011-01-15T17:27:01Z" uid="206282" user="Amigo" changeset="6979675">
    <nd ref="983414944"/>
    <nd ref="983414891"/>
    <nd ref="983414979"/>
    <nd ref="983415062"/>
    <nd ref="983414944"/>
    <tag k="addr:city" v="Зеленоград"/>
    <tag k="addr:housenumber" v="1 с11"/>
    <tag k="addr:street" v="2-й Западный проезд"/>
    <tag k="building" v="yes"/>
    <tag k="is_in" v="Russia"/>
  </way>
  <way id="84657100" version="3" timestamp="2011-09-13T10:20:38Z" uid="29320" user="Komяpa" changeset="9288237">
    <nd ref="983414944"/>
    <nd ref="983414891"/>
    <nd ref="983414979"/>
    <nd ref="983415062"/>
    <nd ref="983414944"/>
    <tag k="addr:city" v="Зеленоград"/>
    <tag k="addr:country" v="RU"/>
    <tag k="addr:housenumber" v="1 с11"/>
    <tag k="addr:street" v="2-й Западный проезд"/>
    <tag k="building" v="yes"/>
  </way>
  <way id="84657100" version="4" timestamp="2012-03-27T11:32:51Z" uid="481934" user="iWowik" changeset="11115472">
    <nd ref="983414944"/>
    <nd ref="983414891"/>
    <nd ref="983414979"/>
    <nd ref="983415062"/>
    <nd ref="983414944"/>
    <tag k="addr:city" v="Зеленоград"/>
    <tag k="addr:country" v="RU"/>
    <tag k="addr:housenumber" v="1 с11"/>
    <tag k="addr:region" v="Москва"/>
    <tag k="addr:street" v="2-й Западный проезд"/>
    <tag k="building" v="yes"/>
  </way>
  <way id="84657102" version="1" timestamp="2010-11-09T14:53:39Z" uid="115477" user="wowik" changeset="6327211">
    <nd ref="983415086"/>
    <nd ref="983415060"/>
    <nd ref="983414868"/>
    <nd ref="983414954"/>
    <nd ref="983415086"/>
    <tag k="addr:city" v="Зеленоград"/>
    <tag k="addr:housenumber" v="2Ас6"/>
    <tag k="addr:street" v="2-й Западный проезд"/>
    <tag k="building" v="yes"/>
    <tag k="is_in" v="Russia"/>
  </way>
  <way id="84657102" version="2" timestamp="2011-01-15T17:26:58Z" uid="206282" user="Amigo" changeset="6979675">
    <nd ref="983415086"/>
    <nd ref="983415060"/>
    <nd ref="983414868"/>
    <nd ref="983414954"/>
    <nd ref="983415086"/>
    <tag k="addr:city" v="Зеленоград"/>
    <tag k="addr:housenumber" v="2А с6"/>
    <tag k="addr:street" v="2-й Западный проезд"/>
    <tag k="building" v="yes"/>
    <tag k="is_in" v="Russia"/>
  </way>
  <way id="84657102" version="3" timestamp="2011-09-13T10:25:17Z" uid="29320" user="Komяpa" changeset="9288237">
    <nd ref="983415086"/>
    <nd ref="983415060"/>
    <nd ref="983414868"/>
    <nd ref="983414954"/>
    <nd ref="983415086"/>
    <tag k="addr:city" v="Зеленоград"/>
    <tag k="addr:country" v="RU"/>
    <tag k="addr:housenumber" v="2А с6"/>
    <tag k="addr:street" v="2-й Западный проезд"/>
    <tag k="building" v="yes"/>
  </way>
  <way id="84657102" version="4" timestamp="2012-03-27T11:40:38Z" uid="481934" user="iWowik" changeset="11115472">
    <nd ref="983415086"/>
    <nd ref="983415060"/>
    <nd ref="983414868"/>
    <nd ref="983414954"/>
    <nd ref="983415086"/>
    <tag k="addr:city" v="Зеленоград"/>
    <tag k="addr:country" v="RU"/>
    <tag k="addr:housenumber" v="2А с6"/>
    <tag k="addr:region" v="Москва"/>
    <tag k="addr:street" v="2-й Западный проезд"/>
    <tag k="building" v="yes"/>
  </way>
  <way id="84657104" version="1" timestamp="2010-11-09T14:53:39Z" uid="115477" user="wowik" changeset="6327211">
    <nd ref="983415085"/>
    <nd ref="983414982"/>
    <nd ref="983415064"/>
    <nd ref="983414871"/>
    <nd ref="983415085"/>
    <tag k="addr:city" v="Зеленоград"/>
    <tag k="addr:housenumber" v="2Ас3"/>
    <tag k="addr:street" v="2-й Западный проезд"/>
    <tag k="building" v="yes"/>
    <tag k="is_in" v="Russia"/>
  </way>
  <way id="84657104" version="2" timestamp="2011-01-15T17:26:58Z" uid="206282" user="Amigo" changeset="6979675">
    <nd ref="983415085"/>
    <nd ref="983414982"/>
    <nd ref="983415064"/>
    <nd ref="983414871"/>
    <nd ref="983415085"/>
    <tag k="addr:city" v="Зеленоград"/>
    <tag k="addr:housenumber" v="2А с3"/>
    <tag k="addr:street" v="2-й Западный проезд"/>
    <tag k="building" v="yes"/>
    <tag k="is_in" v="Russia"/>
  </way>
  <way id="84657104" version="3" timestamp="2011-02-09T15:49:54Z" uid="115477" user="wowik" changeset="7237209">
    <nd ref="983415085"/>
    <nd ref="983414982"/>
    <nd ref="983415064"/>
    <nd ref="983414871"/>
    <nd ref="983415085"/>
    <tag k="addr:city" v="Зеленоград"/>
    <tag k="addr:street" v="2-й Западный проезд"/>
    <tag k="building" v="yes"/>
    <tag k="is_in" v="Russia"/>
    <tag k="note" v="2А с3 адрес уже существует!!??"/>
  </way>
  <way id="84657104" version="4" timestamp="2011-09-13T10:37:33Z" uid="29320" user="Komяpa" changeset="9288237">
    <nd ref="983415085"/>
    <nd ref="983414982"/>
    <nd ref="983415064"/>
    <nd ref="983414871"/>
    <nd ref="983415085"/>
    <tag k="addr:city" v="Зеленоград"/>
    <tag k="addr:country" v="RU"/>
    <tag k="addr:street" v="2-й Западный проезд"/>
    <tag k="building" v="yes"/>
    <tag k="note" v="2А с3 адрес уже существует!!??"/>
  </way>
  <way id="84657104" version="5" timestamp="2012-03-27T11:50:23Z" uid="481934" user="iWowik" changeset="11115472">
    <nd ref="983415085"/>
    <nd ref="983414982"/>
    <nd ref="983415064"/>
    <nd ref="983414871"/>
    <nd ref="983415085"/>
    <tag k="addr:city" v="Зеленоград"/>
    <tag k="addr:country" v="RU"/>
    <tag k="addr:region" v="Москва"/>
    <tag k="addr:street" v="2-й Западный проезд"/>
    <tag k="building" v="yes"/>
    <tag k="note" v="2А с3 адрес уже существует!!??"/>
  </way>
  <way id="84657106" version="1" timestamp="2010-11-09T14:53:39Z" uid="115477" user="wowik" changeset="6327211">
    <nd ref="983414906"/>
    <nd ref="983415028"/>
    <nd ref="983415013"/>
    <nd ref="983414957"/>
    <nd ref="983414906"/>
    <tag k="addr:city" v="Зеленоград"/>
    <tag k="addr:housenumber" v="2с2"/>
    <tag k="addr:street" v="2-й Западный проезд"/>
    <tag k="building" v="yes"/>
    <tag k="is_in" v="Russia"/>
  </way>
  <way id="84657106" version="2" timestamp="2011-01-15T17:27:02Z" uid="206282" user="Amigo" changeset="6979675">
    <nd ref="983414906"/>
    <nd ref="983415028"/>
    <nd ref="983415013"/>
    <nd ref="983414957"/>
    <nd ref="983414906"/>
    <tag k="addr:city" v="Зеленоград"/>
    <tag k="addr:housenumber" v="2 с2"/>
    <tag k="addr:street" v="2-й Западный проезд"/>
    <tag k="building" v="yes"/>
    <tag k="is_in" v="Russia"/>
  </way>
  <way id="84657106" version="3" timestamp="2011-02-09T15:50:08Z" uid="115477" user="wowik" changeset="7237209">
    <nd ref="983414906"/>
    <nd ref="1143961121"/>
    <nd ref="983415028"/>
    <nd ref="983415013"/>
    <nd ref="1143960923"/>
    <nd ref="983414957"/>
    <nd ref="983414906"/>
    <tag k="addr:city" v="Зеленоград"/>
    <tag k="addr:housenumber" v="2 с2"/>
    <tag k="addr:street" v="2-й Западный проезд"/>
    <tag k="building" v="yes"/>
    <tag k="is_in" v="Russia"/>
  </way>
  <way id="84657106" version="4" timestamp="2011-09-13T10:24:13Z" uid="29320" user="Komяpa" changeset="9288237">
    <nd ref="983414906"/>
    <nd ref="1143961121"/>
    <nd ref="983415028"/>
    <nd ref="983415013"/>
    <nd ref="1143960923"/>
    <nd ref="983414957"/>
    <nd ref="983414906"/>
    <tag k="addr:city" v="Зеленоград"/>
    <tag k="addr:country" v="RU"/>
    <tag k="addr:housenumber" v="2 с2"/>
    <tag k="addr:street" v="2-й Западный проезд"/>
    <tag k="building" v="yes"/>
  </way>
  <way id="84657106" version="5" timestamp="2012-03-27T11:38:49Z" uid="481934" user="iWowik" changeset="11115472">
    <nd ref="983414906"/>
    <nd ref="1143961121"/>
    <nd ref="983415028"/>
    <nd ref="983415013"/>
    <nd ref="1143960923"/>
    <nd ref="983414957"/>
    <nd ref="983414906"/>
    <tag k="addr:city" v="Зеленоград"/>
    <tag k="addr:country" v="RU"/>
    <tag k="addr:housenumber" v="2 с2"/>
    <tag k="addr:region" v="Москва"/>
    <tag k="addr:street" v="2-й Западный проезд"/>
    <tag k="building" v="yes"/>
  </way>
  <way id="84657109" version="1" timestamp="2010-11-09T14:53:40Z" uid="115477" user="wowik" changeset="6327211">
    <nd ref="983415038"/>
    <nd ref="983414896"/>
    <nd ref="983415008"/>
    <nd ref="983415072"/>
    <nd ref="983415038"/>
    <tag k="addr:city" v="Зеленоград"/>
    <tag k="addr:street" v="2-й Западный проезд"/>
    <tag k="building" v="yes"/>
    <tag k="is_in" v="Russia"/>
  </way>
  <way id="84657109" version="2" timestamp="2011-09-13T10:37:33Z" uid="29320" user="Komяpa" changeset="9288237">
    <nd ref="983415038"/>
    <nd ref="983414896"/>
    <nd ref="983415008"/>
    <nd ref="983415072"/>
    <nd ref="983415038"/>
    <tag k="addr:city" v="Зеленоград"/>
    <tag k="addr:country" v="RU"/>
    <tag k="addr:street" v="2-й Западный проезд"/>
    <tag k="building" v="yes"/>
  </way>
  <way id="84657109" version="3" timestamp="2012-03-27T11:54:00Z" uid="481934" user="iWowik" changeset="11115472">
    <nd ref="983415038"/>
    <nd ref="983414896"/>
    <nd ref="983415008"/>
    <nd ref="983415072"/>
    <nd ref="983415038"/>
    <tag k="addr:city" v="Зеленоград"/>
    <tag k="addr:country" v="RU"/>
    <tag k="addr:region" v="Москва"/>
    <tag k="addr:street" v="2-й Западный проезд"/>
    <tag k="building" v="yes"/>
  </way>
  <way id="84657110" version="1" timestamp="2010-11-09T14:53:40Z" uid="115477" user="wowik" changeset="6327211">
    <nd ref="983414873"/>
    <nd ref="983415088"/>
    <nd ref="983414972"/>
    <nd ref="983414915"/>
    <nd ref="983414873"/>
    <tag k="addr:city" v="Зеленоград"/>
    <tag k="addr:housenumber" v="1с9"/>
    <tag k="addr:street" v="2-й Западный проезд"/>
    <tag k="building" v="yes"/>
    <tag k="is_in" v="Russia"/>
  </way>
  <way id="84657110" version="2" timestamp="2011-01-15T17:27:07Z" uid="206282" user="Amigo" changeset="6979675">
    <nd ref="983414873"/>
    <nd ref="983415088"/>
    <nd ref="983414972"/>
    <nd ref="983414915"/>
    <nd ref="983414873"/>
    <tag k="addr:city" v="Зеленоград"/>
    <tag k="addr:housenumber" v="1 с9"/>
    <tag k="addr:street" v="2-й Западный проезд"/>
    <tag k="building" v="yes"/>
    <tag k="is_in" v="Russia"/>
  </way>
  <way id="84657110" version="3" timestamp="2011-09-13T10:20:50Z" uid="29320" user="Komяpa" changeset="9288237">
    <nd ref="983414873"/>
    <nd ref="983415088"/>
    <nd ref="983414972"/>
    <nd ref="983414915"/>
    <nd ref="983414873"/>
    <tag k="addr:city" v="Зеленоград"/>
    <tag k="addr:country" v="RU"/>
    <tag k="addr:housenumber" v="1 с9"/>
    <tag k="addr:street" v="2-й Западный проезд"/>
    <tag k="building" v="yes"/>
  </way>
  <way id="84657110" version="4" timestamp="2012-03-27T11:33:19Z" uid="481934" user="iWowik" changeset="11115472">
    <nd ref="983414873"/>
    <nd ref="983415088"/>
    <nd ref="983414972"/>
    <nd ref="983414915"/>
    <nd ref="983414873"/>
    <tag k="addr:city" v="Зеленоград"/>
    <tag k="addr:country" v="RU"/>
    <tag k="addr:housenumber" v="1 с9"/>
    <tag k="addr:region" v="Москва"/>
    <tag k="addr:street" v="2-й Западный проезд"/>
    <tag k="building" v="yes"/>
  </way>
  <way id="84657113" version="1" timestamp="2010-11-09T14:53:40Z" uid="115477" user="wowik" changeset="6327211">
    <nd ref="983415081"/>
    <nd ref="983414948"/>
    <nd ref="983415041"/>
    <nd ref="983415094"/>
    <nd ref="983415081"/>
    <tag k="addr:city" v="Зеленоград"/>
    <tag k="addr:street" v="2-й Западный проезд"/>
    <tag k="building" v="yes"/>
    <tag k="is_in" v="Russia"/>
  </way>
  <way id="84657113" version="2" timestamp="2011-09-13T10:37:33Z" uid="29320" user="Komяpa" changeset="9288237">
    <nd ref="983415081"/>
    <nd ref="983414948"/>
    <nd ref="983415041"/>
    <nd ref="983415094"/>
    <nd ref="983415081"/>
    <tag k="addr:city" v="Зеленоград"/>
    <tag k="addr:country" v="RU"/>
    <tag k="addr:street" v="2-й Западный проезд"/>
    <tag k="building" v="yes"/>
  </way>
  <way id="84657113" version="3" timestamp="2012-03-27T11:51:39Z" uid="481934" user="iWowik" changeset="11115472">
    <nd ref="983415081"/>
    <nd ref="983414948"/>
    <nd ref="983415041"/>
    <nd ref="983415094"/>
    <nd ref="983415081"/>
    <tag k="addr:city" v="Зеленоград"/>
    <tag k="addr:country" v="RU"/>
    <tag k="addr:region" v="Москва"/>
    <tag k="addr:street" v="2-й Западный проезд"/>
    <tag k="building" v="yes"/>
  </way>
  <way id="84657114" version="1" timestamp="2010-11-09T14:53:41Z" uid="115477" user="wowik" changeset="6327211">
    <nd ref="983415093"/>
    <nd ref="983415082"/>
    <nd ref="983414975"/>
    <nd ref="983414937"/>
    <nd ref="983415093"/>
    <tag k="addr:city" v="Зеленоград"/>
    <tag k="addr:housenumber" v="1с23"/>
    <tag k="addr:street" v="2-й Западный проезд"/>
    <tag k="building" v="yes"/>
    <tag k="is_in" v="Russia"/>
  </way>
  <way id="84657114" version="2" timestamp="2011-01-15T17:27:02Z" uid="206282" user="Amigo" changeset="6979675">
    <nd ref="983415093"/>
    <nd ref="983415082"/>
    <nd ref="983414975"/>
    <nd ref="983414937"/>
    <nd ref="983415093"/>
    <tag k="addr:city" v="Зеленоград"/>
    <tag k="addr:housenumber" v="1 с23"/>
    <tag k="addr:street" v="2-й Западный проезд"/>
    <tag k="building" v="yes"/>
    <tag k="is_in" v="Russia"/>
  </way>
  <way id="84657114" version="3" timestamp="2011-09-13T10:20:43Z" uid="29320" user="Komяpa" changeset="9288237">
    <nd ref="983415093"/>
    <nd ref="983415082"/>
    <nd ref="983414975"/>
    <nd ref="983414937"/>
    <nd ref="983415093"/>
    <tag k="addr:city" v="Зеленоград"/>
    <tag k="addr:country" v="RU"/>
    <tag k="addr:housenumber" v="1 с23"/>
    <tag k="addr:street" v="2-й Западный проезд"/>
    <tag k="building" v="yes"/>
  </way>
  <way id="84657114" version="4" timestamp="2012-03-27T11:33:03Z" uid="481934" user="iWowik" changeset="11115472">
    <nd ref="983415093"/>
    <nd ref="983415082"/>
    <nd ref="983414975"/>
    <nd ref="983414937"/>
    <nd ref="983415093"/>
    <tag k="addr:city" v="Зеленоград"/>
    <tag k="addr:country" v="RU"/>
    <tag k="addr:housenumber" v="1 с23"/>
    <tag k="addr:region" v="Москва"/>
    <tag k="addr:street" v="2-й Западный проезд"/>
    <tag k="building" v="yes"/>
  </way>
  <way id="84657118" version="1" timestamp="2010-11-09T14:53:41Z" uid="115477" user="wowik" changeset="6327211">
    <nd ref="983414884"/>
    <nd ref="983415091"/>
    <nd ref="983414939"/>
    <nd ref="983415016"/>
    <nd ref="983414884"/>
    <tag k="addr:city" v="Зеленоград"/>
    <tag k="addr:housenumber" v="2Ас7"/>
    <tag k="addr:street" v="2-й Западный проезд"/>
    <tag k="building" v="yes"/>
    <tag k="is_in" v="Russia"/>
  </way>
  <way id="84657118" version="2" timestamp="2011-01-15T17:27:04Z" uid="206282" user="Amigo" changeset="6979675">
    <nd ref="983414884"/>
    <nd ref="983415091"/>
    <nd ref="983414939"/>
    <nd ref="983415016"/>
    <nd ref="983414884"/>
    <tag k="addr:city" v="Зеленоград"/>
    <tag k="addr:housenumber" v="2А с7"/>
    <tag k="addr:street" v="2-й Западный проезд"/>
    <tag k="building" v="yes"/>
    <tag k="is_in" v="Russia"/>
  </way>
  <way id="84657118" version="3" timestamp="2011-09-13T10:25:17Z" uid="29320" user="Komяpa" changeset="9288237">
    <nd ref="983414884"/>
    <nd ref="983415091"/>
    <nd ref="983414939"/>
    <nd ref="983415016"/>
    <nd ref="983414884"/>
    <tag k="addr:city" v="Зеленоград"/>
    <tag k="addr:country" v="RU"/>
    <tag k="addr:housenumber" v="2А с7"/>
    <tag k="addr:street" v="2-й Западный проезд"/>
    <tag k="building" v="yes"/>
  </way>
  <way id="84657118" version="4" timestamp="2012-03-27T11:40:38Z" uid="481934" user="iWowik" changeset="11115472">
    <nd ref="983414884"/>
    <nd ref="983415091"/>
    <nd ref="983414939"/>
    <nd ref="983415016"/>
    <nd ref="983414884"/>
    <tag k="addr:city" v="Зеленоград"/>
    <tag k="addr:country" v="RU"/>
    <tag k="addr:housenumber" v="2А с7"/>
    <tag k="addr:region" v="Москва"/>
    <tag k="addr:street" v="2-й Западный проезд"/>
    <tag k="building" v="yes"/>
  </way>
  <way id="84657409" version="1" timestamp="2010-11-09T15:01:57Z" uid="115477" user="wowik" changeset="6327211">
    <nd ref="983423070"/>
    <nd ref="305295657"/>
    <tag k="highway" v="service"/>
  </way>
  <way id="84657418" version="2" timestamp="2011-02-26T22:06:53Z" uid="7617" user="Franc" changeset="7405050">
    <nd ref="1175746660"/>
    <nd ref="983422261"/>
    <nd ref="983422924"/>
    <nd ref="983422503"/>
    <nd ref="983422107"/>
    <nd ref="983421957"/>
    <nd ref="1175746276"/>
    <nd ref="1175746341"/>
    <nd ref="1175746308"/>
    <nd ref="1175746517"/>
    <nd ref="1175746778"/>
    <nd ref="1175746812"/>
    <nd ref="1175746653"/>
    <nd ref="1175746708"/>
    <nd ref="1175746334"/>
    <nd ref="1175746557"/>
    <nd ref="1175746545"/>
    <nd ref="1175746660"/>
    <tag k="name" v="Augusta Caravan Park"/>
    <tag k="source" v="nearmap"/>
    <tag k="tourism" v="caravan_site"/>
  </way>
  <way id="84657418" version="3" timestamp="2011-02-26T22:53:08Z" uid="7617" user="Franc" changeset="7405463">
    <nd ref="1175746660"/>
    <nd ref="983422261"/>
    <nd ref="983422924"/>
    <nd ref="983422503"/>
    <nd ref="983422107"/>
    <nd ref="983421957"/>
    <nd ref="1175746276"/>
    <nd ref="1175746308"/>
    <nd ref="1175746778"/>
    <nd ref="1175746812"/>
    <nd ref="1175746653"/>
    <nd ref="1175746708"/>
    <nd ref="1175746334"/>
    <nd ref="1175746557"/>
    <nd ref="1175746545"/>
    <nd ref="1175746660"/>
    <tag k="name" v="Augusta Caravan Park"/>
    <tag k="source" v="nearmap"/>
    <tag k="tourism" v="caravan_site"/>
  </way>
  <way id="84657419" version="2" timestamp="2011-02-26T22:06:37Z" uid="7617" user="Franc" changeset="7405050">
    <nd ref="983422172"/>
    <nd ref="983422818"/>
    <nd ref="983422609"/>
    <nd ref="983422205"/>
    <nd ref="983422862"/>
    <nd ref="983422435"/>
    <nd ref="983422062"/>
    <nd ref="983422683"/>
    <nd ref="983422266"/>
    <nd ref="983422929"/>
    <nd ref="983422715"/>
    <nd ref="983422306"/>
    <nd ref="983421964"/>
    <nd ref="983422543"/>
    <nd ref="983422137"/>
    <nd ref="983422769"/>
    <nd ref="983422358"/>
    <nd ref="983422009"/>
    <nd ref="983422823"/>
    <nd ref="983422409"/>
    <nd ref="983422040"/>
    <nd ref="983422654"/>
    <nd ref="983422239"/>
    <nd ref="983422903"/>
    <nd ref="983422481"/>
    <nd ref="983422090"/>
    <tag k="highway" v="track"/>
    <tag k="source" v="GPS"/>
    <tag k="surface" v="gravel"/>
  </way>
  <way id="84657421" version="2" timestamp="2011-02-26T22:06:27Z" uid="7617" user="Franc" changeset="7405050">
    <nd ref="1175746861"/>
    <nd ref="983422028"/>
    <nd ref="983422639"/>
    <nd ref="983422226"/>
    <nd ref="983422887"/>
    <nd ref="983422468"/>
    <nd ref="983422088"/>
    <nd ref="983422712"/>
    <nd ref="983422292"/>
    <nd ref="1175746655"/>
    <nd ref="1175746861"/>
    <tag k="source" v="nearmap"/>
    <tag k="tourism" v="caravan_site"/>
  </way>
  <way id="84657516" version="1" timestamp="2010-11-09T15:04:38Z" uid="115477" user="wowik" changeset="6327211">
    <nd ref="792281604"/>
    <nd ref="724099165"/>
    <tag k="access" v="private"/>
    <tag k="highway" v="service"/>
  </way>
  <way id="84657598" version="3" timestamp="2011-01-21T10:45:20Z" uid="115477" user="wowik" changeset="7038966">
    <nd ref="605272698"/>
    <nd ref="1112883219"/>
    <nd ref="1112883262"/>
    <nd ref="1112883305"/>
    <nd ref="1112883178"/>
    <nd ref="1112883527"/>
    <nd ref="1112883089"/>
    <nd ref="1112883012"/>
    <nd ref="1112883135"/>
    <nd ref="1112883175"/>
    <nd ref="1112883304"/>
    <nd ref="1112883394"/>
    <nd ref="1112883211"/>
    <nd ref="605272684"/>
    <nd ref="1112883253"/>
    <nd ref="1112883344"/>
    <nd ref="605272686"/>
    <nd ref="605272681"/>
    <nd ref="1112883206"/>
    <nd ref="1112883129"/>
    <nd ref="1112883043"/>
    <nd ref="605272687"/>
    <nd ref="605272688"/>
    <nd ref="1112883167"/>
    <nd ref="605272680"/>
    <nd ref="1112883011"/>
    <nd ref="1112883355"/>
    <nd ref="1112883441"/>
    <nd ref="1112883087"/>
    <nd ref="1112883485"/>
    <nd ref="1112883528"/>
    <nd ref="1112883049"/>
    <nd ref="1112883210"/>
    <nd ref="1112883303"/>
    <nd ref="1112883354"/>
    <nd ref="1112883435"/>
    <nd ref="1112883260"/>
    <nd ref="605272726"/>
    <nd ref="1112883134"/>
    <nd ref="605272727"/>
    <nd ref="1112883001"/>
    <nd ref="605272698"/>
    <tag k="addr:city" v="Зеленоград"/>
    <tag k="addr:housenumber" v="1504"/>
    <tag k="addr:street" v="15-й Микрорайон"/>
    <tag k="building" v="yes"/>
    <tag k="building:use" v="residential"/>
    <tag k="is_in" v="Russia"/>
  </way>
  <way id="84657598" version="4" timestamp="2011-06-07T20:46:26Z" uid="133332" user="AMDmi3" changeset="8374030">
    <nd ref="605272698"/>
    <nd ref="1112883219"/>
    <nd ref="1112883262"/>
    <nd ref="1112883305"/>
    <nd ref="1112883178"/>
    <nd ref="1112883527"/>
    <nd ref="1112883089"/>
    <nd ref="1112883012"/>
    <nd ref="1112883135"/>
    <nd ref="1112883175"/>
    <nd ref="1112883304"/>
    <nd ref="1112883394"/>
    <nd ref="1112883211"/>
    <nd ref="605272684"/>
    <nd ref="1112883253"/>
    <nd ref="1112883344"/>
    <nd ref="605272686"/>
    <nd ref="605272681"/>
    <nd ref="1112883206"/>
    <nd ref="1112883129"/>
    <nd ref="1112883043"/>
    <nd ref="605272687"/>
    <nd ref="605272688"/>
    <nd ref="1112883167"/>
    <nd ref="605272680"/>
    <nd ref="1112883011"/>
    <nd ref="1112883355"/>
    <nd ref="1112883441"/>
    <nd ref="1112883087"/>
    <nd ref="1112883485"/>
    <nd ref="1112883528"/>
    <nd ref="1112883049"/>
    <nd ref="1112883210"/>
    <nd ref="1112883303"/>
    <nd ref="1112883354"/>
    <nd ref="1112883435"/>
    <nd ref="1112883260"/>
    <nd ref="605272726"/>
    <nd ref="1112883134"/>
    <nd ref="605272727"/>
    <nd ref="1112883001"/>
    <nd ref="605272698"/>
    <tag k="addr:city" v="Зеленоград"/>
    <tag k="addr:housenumber" v="1504"/>
    <tag k="addr:street" v="15-й микрорайон"/>
    <tag k="building" v="yes"/>
    <tag k="building:use" v="residential"/>
    <tag k="is_in" v="Russia"/>
  </way>
  <way id="84657598" version="5" timestamp="2011-09-13T10:22:38Z" uid="29320" user="Komяpa" changeset="9288237">
    <nd ref="605272698"/>
    <nd ref="1112883219"/>
    <nd ref="1112883262"/>
    <nd ref="1112883305"/>
    <nd ref="1112883178"/>
    <nd ref="1112883527"/>
    <nd ref="1112883089"/>
    <nd ref="1112883012"/>
    <nd ref="1112883135"/>
    <nd ref="1112883175"/>
    <nd ref="1112883304"/>
    <nd ref="1112883394"/>
    <nd ref="1112883211"/>
    <nd ref="605272684"/>
    <nd ref="1112883253"/>
    <nd ref="1112883344"/>
    <nd ref="605272686"/>
    <nd ref="605272681"/>
    <nd ref="1112883206"/>
    <nd ref="1112883129"/>
    <nd ref="1112883043"/>
    <nd ref="605272687"/>
    <nd ref="605272688"/>
    <nd ref="1112883167"/>
    <nd ref="605272680"/>
    <nd ref="1112883011"/>
    <nd ref="1112883355"/>
    <nd ref="1112883441"/>
    <nd ref="1112883087"/>
    <nd ref="1112883485"/>
    <nd ref="1112883528"/>
    <nd ref="1112883049"/>
    <nd ref="1112883210"/>
    <nd ref="1112883303"/>
    <nd ref="1112883354"/>
    <nd ref="1112883435"/>
    <nd ref="1112883260"/>
    <nd ref="605272726"/>
    <nd ref="1112883134"/>
    <nd ref="605272727"/>
    <nd ref="1112883001"/>
    <nd ref="605272698"/>
    <tag k="addr:city" v="Зеленоград"/>
    <tag k="addr:country" v="RU"/>
    <tag k="addr:housenumber" v="1504"/>
    <tag k="addr:street" v="15-й микрорайон"/>
    <tag k="building" v="yes"/>
    <tag k="building:use" v="residential"/>
  </way>
  <way id="84657598" version="6" timestamp="2012-03-27T11:35:58Z" uid="481934" user="iWowik" changeset="11115472">
    <nd ref="605272698"/>
    <nd ref="1112883219"/>
    <nd ref="1112883262"/>
    <nd ref="1112883305"/>
    <nd ref="1112883178"/>
    <nd ref="1112883527"/>
    <nd ref="1112883089"/>
    <nd ref="1112883012"/>
    <nd ref="1112883135"/>
    <nd ref="1112883175"/>
    <nd ref="1112883304"/>
    <nd ref="1112883394"/>
    <nd ref="1112883211"/>
    <nd ref="605272684"/>
    <nd ref="1112883253"/>
    <nd ref="1112883344"/>
    <nd ref="605272686"/>
    <nd ref="605272681"/>
    <nd ref="1112883206"/>
    <nd ref="1112883129"/>
    <nd ref="1112883043"/>
    <nd ref="605272687"/>
    <nd ref="605272688"/>
    <nd ref="1112883167"/>
    <nd ref="605272680"/>
    <nd ref="1112883011"/>
    <nd ref="1112883355"/>
    <nd ref="1112883441"/>
    <nd ref="1112883087"/>
    <nd ref="1112883485"/>
    <nd ref="1112883528"/>
    <nd ref="1112883049"/>
    <nd ref="1112883210"/>
    <nd ref="1112883303"/>
    <nd ref="1112883354"/>
    <nd ref="1112883435"/>
    <nd ref="1112883260"/>
    <nd ref="605272726"/>
    <nd ref="1112883134"/>
    <nd ref="605272727"/>
    <nd ref="1112883001"/>
    <nd ref="605272698"/>
    <tag k="addr:city" v="Зеленоград"/>
    <tag k="addr:country" v="RU"/>
    <tag k="addr:housenumber" v="1504"/>
    <tag k="addr:region" v="Москва"/>
    <tag k="addr:street" v="15-й микрорайон"/>
    <tag k="building" v="yes"/>
    <tag k="building:use" v="residential"/>
  </way>
  <way id="84657638" version="1" timestamp="2010-11-09T15:10:18Z" uid="115477" user="wowik" changeset="6327211">
    <nd ref="983432615"/>
    <nd ref="983432673"/>
    <nd ref="983432625"/>
    <nd ref="983432653"/>
    <nd ref="983432615"/>
    <tag k="addr:city" v="Зеленоград"/>
    <tag k="addr:housenumber" v="1с16"/>
    <tag k="addr:street" v="2-й Западный проезд"/>
    <tag k="building" v="yes"/>
    <tag k="is_in" v="Russia"/>
  </way>
  <way id="84657638" version="2" timestamp="2011-01-15T17:27:07Z" uid="206282" user="Amigo" changeset="6979675">
    <nd ref="983432615"/>
    <nd ref="983432673"/>
    <nd ref="983432625"/>
    <nd ref="983432653"/>
    <nd ref="983432615"/>
    <tag k="addr:city" v="Зеленоград"/>
    <tag k="addr:housenumber" v="1 с16"/>
    <tag k="addr:street" v="2-й Западный проезд"/>
    <tag k="building" v="yes"/>
    <tag k="is_in" v="Russia"/>
  </way>
  <way id="84657638" version="3" timestamp="2011-09-13T10:20:39Z" uid="29320" user="Komяpa" changeset="9288237">
    <nd ref="983432615"/>
    <nd ref="983432673"/>
    <nd ref="983432625"/>
    <nd ref="983432653"/>
    <nd ref="983432615"/>
    <tag k="addr:city" v="Зеленоград"/>
    <tag k="addr:country" v="RU"/>
    <tag k="addr:housenumber" v="1 с16"/>
    <tag k="addr:street" v="2-й Западный проезд"/>
    <tag k="building" v="yes"/>
  </way>
  <way id="84657638" version="4" timestamp="2012-03-27T11:32:56Z" uid="481934" user="iWowik" changeset="11115472">
    <nd ref="983432615"/>
    <nd ref="983432673"/>
    <nd ref="983432625"/>
    <nd ref="983432653"/>
    <nd ref="983432615"/>
    <tag k="addr:city" v="Зеленоград"/>
    <tag k="addr:country" v="RU"/>
    <tag k="addr:housenumber" v="1 с16"/>
    <tag k="addr:region" v="Москва"/>
    <tag k="addr:street" v="2-й Западный проезд"/>
    <tag k="building" v="yes"/>
  </way>
  <way id="84657639" version="1" timestamp="2010-11-09T15:10:18Z" uid="115477" user="wowik" changeset="6327211">
    <nd ref="983432680"/>
    <nd ref="983432660"/>
    <nd ref="983432622"/>
    <nd ref="983432651"/>
    <nd ref="983432680"/>
    <tag k="addr:city" v="Зеленоград"/>
    <tag k="addr:street" v="2-й Западный проезд"/>
    <tag k="building" v="yes"/>
    <tag k="is_in" v="Russia"/>
  </way>
  <way id="84657639" version="2" timestamp="2011-09-13T10:37:33Z" uid="29320" user="Komяpa" changeset="9288237">
    <nd ref="983432680"/>
    <nd ref="983432660"/>
    <nd ref="983432622"/>
    <nd ref="983432651"/>
    <nd ref="983432680"/>
    <tag k="addr:city" v="Зеленоград"/>
    <tag k="addr:country" v="RU"/>
    <tag k="addr:street" v="2-й Западный проезд"/>
    <tag k="building" v="yes"/>
  </way>
  <way id="84657640" version="1" timestamp="2010-11-09T15:10:18Z" uid="115477" user="wowik" changeset="6327211">
    <nd ref="983432635"/>
    <nd ref="983432618"/>
    <nd ref="983432640"/>
    <nd ref="983432658"/>
    <nd ref="983432635"/>
    <tag k="addr:city" v="Зеленоград"/>
    <tag k="addr:housenumber" v="1с27"/>
    <tag k="addr:street" v="2-й Западный проезд"/>
    <tag k="building" v="yes"/>
    <tag k="is_in" v="Russia"/>
  </way>
  <way id="84657640" version="2" timestamp="2011-01-15T17:27:08Z" uid="206282" user="Amigo" changeset="6979675">
    <nd ref="983432635"/>
    <nd ref="983432618"/>
    <nd ref="983432640"/>
    <nd ref="983432658"/>
    <nd ref="983432635"/>
    <tag k="addr:city" v="Зеленоград"/>
    <tag k="addr:housenumber" v="1 с27"/>
    <tag k="addr:street" v="2-й Западный проезд"/>
    <tag k="building" v="yes"/>
    <tag k="is_in" v="Russia"/>
  </way>
  <way id="84657640" version="3" timestamp="2011-09-13T10:20:43Z" uid="29320" user="Komяpa" changeset="9288237">
    <nd ref="983432635"/>
    <nd ref="983432618"/>
    <nd ref="983432640"/>
    <nd ref="983432658"/>
    <nd ref="983432635"/>
    <tag k="addr:city" v="Зеленоград"/>
    <tag k="addr:country" v="RU"/>
    <tag k="addr:housenumber" v="1 с27"/>
    <tag k="addr:street" v="2-й Западный проезд"/>
    <tag k="building" v="yes"/>
  </way>
  <way id="84657640" version="4" timestamp="2012-03-27T11:33:03Z" uid="481934" user="iWowik" changeset="11115472">
    <nd ref="983432635"/>
    <nd ref="983432618"/>
    <nd ref="983432640"/>
    <nd ref="983432658"/>
    <nd ref="983432635"/>
    <tag k="addr:city" v="Зеленоград"/>
    <tag k="addr:country" v="RU"/>
    <tag k="addr:housenumber" v="1 с27"/>
    <tag k="addr:region" v="Москва"/>
    <tag k="addr:street" v="2-й Западный проезд"/>
    <tag k="building" v="yes"/>
  </way>
  <way id="84657641" version="1" timestamp="2010-11-09T15:10:19Z" uid="115477" user="wowik" changeset="6327211">
    <nd ref="983432636"/>
    <nd ref="983432669"/>
    <nd ref="983432620"/>
    <nd ref="983432643"/>
    <nd ref="983432636"/>
    <tag k="addr:city" v="Зеленоград"/>
    <tag k="addr:housenumber" v="1с15"/>
    <tag k="addr:street" v="2-й Западный проезд"/>
    <tag k="building" v="yes"/>
    <tag k="is_in" v="Russia"/>
  </way>
  <way id="84657641" version="2" timestamp="2011-01-15T17:27:05Z" uid="206282" user="Amigo" changeset="6979675">
    <nd ref="983432636"/>
    <nd ref="983432669"/>
    <nd ref="983432620"/>
    <nd ref="983432643"/>
    <nd ref="983432636"/>
    <tag k="addr:city" v="Зеленоград"/>
    <tag k="addr:housenumber" v="1 с15"/>
    <tag k="addr:street" v="2-й Западный проезд"/>
    <tag k="building" v="yes"/>
    <tag k="is_in" v="Russia"/>
  </way>
  <way id="84657641" version="3" timestamp="2011-09-13T10:20:39Z" uid="29320" user="Komяpa" changeset="9288237">
    <nd ref="983432636"/>
    <nd ref="983432669"/>
    <nd ref="983432620"/>
    <nd ref="983432643"/>
    <nd ref="983432636"/>
    <tag k="addr:city" v="Зеленоград"/>
    <tag k="addr:country" v="RU"/>
    <tag k="addr:housenumber" v="1 с15"/>
    <tag k="addr:street" v="2-й Западный проезд"/>
    <tag k="building" v="yes"/>
  </way>
  <way id="84657641" version="4" timestamp="2012-03-27T11:32:55Z" uid="481934" user="iWowik" changeset="11115472">
    <nd ref="983432636"/>
    <nd ref="983432669"/>
    <nd ref="983432620"/>
    <nd ref="983432643"/>
    <nd ref="983432636"/>
    <tag k="addr:city" v="Зеленоград"/>
    <tag k="addr:country" v="RU"/>
    <tag k="addr:housenumber" v="1 с15"/>
    <tag k="addr:region" v="Москва"/>
    <tag k="addr:street" v="2-й Западный проезд"/>
    <tag k="building" v="yes"/>
  </way>
  <way id="84657642" version="1" timestamp="2010-11-09T15:10:20Z" uid="115477" user="wowik" changeset="6327211">
    <nd ref="983432677"/>
    <nd ref="983432638"/>
    <nd ref="983432662"/>
    <nd ref="983432616"/>
    <nd ref="983432677"/>
    <tag k="addr:city" v="Зеленоград"/>
    <tag k="addr:street" v="2-й Западный проезд"/>
    <tag k="building" v="yes"/>
    <tag k="is_in" v="Russia"/>
  </way>
  <way id="84657642" version="2" timestamp="2011-09-13T10:37:33Z" uid="29320" user="Komяpa" changeset="9288237">
    <nd ref="983432677"/>
    <nd ref="983432638"/>
    <nd ref="983432662"/>
    <nd ref="983432616"/>
    <nd ref="983432677"/>
    <tag k="addr:city" v="Зеленоград"/>
    <tag k="addr:country" v="RU"/>
    <tag k="addr:street" v="2-й Западный проезд"/>
    <tag k="building" v="yes"/>
  </way>
  <way id="84657642" version="3" timestamp="2012-03-27T11:52:55Z" uid="481934" user="iWowik" changeset="11115472">
    <nd ref="983432677"/>
    <nd ref="983432638"/>
    <nd ref="983432662"/>
    <nd ref="983432616"/>
    <nd ref="983432677"/>
    <tag k="addr:city" v="Зеленоград"/>
    <tag k="addr:country" v="RU"/>
    <tag k="addr:region" v="Москва"/>
    <tag k="addr:street" v="2-й Западный проезд"/>
    <tag k="building" v="yes"/>
  </way>
  <way id="84657643" version="1" timestamp="2010-11-09T15:10:20Z" uid="115477" user="wowik" changeset="6327211">
    <nd ref="983432644"/>
    <nd ref="983432675"/>
    <nd ref="983432632"/>
    <nd ref="983432654"/>
    <nd ref="983432670"/>
    <nd ref="983432633"/>
    <nd ref="983432656"/>
    <nd ref="983432672"/>
    <nd ref="983432644"/>
    <tag k="addr:city" v="Зеленоград"/>
    <tag k="addr:street" v="2-й Западный проезд"/>
    <tag k="building" v="yes"/>
    <tag k="is_in" v="Russia"/>
  </way>
  <way id="84657643" version="2" timestamp="2011-09-13T10:37:34Z" uid="29320" user="Komяpa" changeset="9288237">
    <nd ref="983432644"/>
    <nd ref="983432675"/>
    <nd ref="983432632"/>
    <nd ref="983432654"/>
    <nd ref="983432670"/>
    <nd ref="983432633"/>
    <nd ref="983432656"/>
    <nd ref="983432672"/>
    <nd ref="983432644"/>
    <tag k="addr:city" v="Зеленоград"/>
    <tag k="addr:country" v="RU"/>
    <tag k="addr:street" v="2-й Западный проезд"/>
    <tag k="building" v="yes"/>
  </way>
  <way id="84657643" version="3" timestamp="2012-03-27T11:55:36Z" uid="481934" user="iWowik" changeset="11115472">
    <nd ref="983432644"/>
    <nd ref="983432675"/>
    <nd ref="983432632"/>
    <nd ref="983432654"/>
    <nd ref="983432670"/>
    <nd ref="983432633"/>
    <nd ref="983432656"/>
    <nd ref="983432672"/>
    <nd ref="983432644"/>
    <tag k="addr:city" v="Зеленоград"/>
    <tag k="addr:country" v="RU"/>
    <tag k="addr:region" v="Москва"/>
    <tag k="addr:street" v="2-й Западный проезд"/>
    <tag k="building" v="yes"/>
  </way>
  <way id="84657670" version="1" timestamp="2010-11-09T15:13:09Z" uid="115477" user="wowik" changeset="6327211">
    <nd ref="983434042"/>
    <nd ref="983432633"/>
    <nd ref="983432656"/>
    <nd ref="983432636"/>
    <nd ref="983432669"/>
    <nd ref="983434042"/>
    <tag k="addr:city" v="Зеленоград"/>
    <tag k="addr:street" v="2-й Западный проезд"/>
    <tag k="building" v="yes"/>
    <tag k="is_in" v="Russia"/>
  </way>
  <way id="84657670" version="2" timestamp="2011-09-13T10:37:34Z" uid="29320" user="Komяpa" changeset="9288237">
    <nd ref="983434042"/>
    <nd ref="983432633"/>
    <nd ref="983432656"/>
    <nd ref="983432636"/>
    <nd ref="983432669"/>
    <nd ref="983434042"/>
    <tag k="addr:city" v="Зеленоград"/>
    <tag k="addr:country" v="RU"/>
    <tag k="addr:street" v="2-й Западный проезд"/>
    <tag k="building" v="yes"/>
  </way>
  <way id="84657670" version="3" timestamp="2012-03-27T11:54:37Z" uid="481934" user="iWowik" changeset="11115472">
    <nd ref="983434042"/>
    <nd ref="983432633"/>
    <nd ref="983432656"/>
    <nd ref="983432636"/>
    <nd ref="983432669"/>
    <nd ref="983434042"/>
    <tag k="addr:city" v="Зеленоград"/>
    <tag k="addr:country" v="RU"/>
    <tag k="addr:region" v="Москва"/>
    <tag k="addr:street" v="2-й Западный проезд"/>
    <tag k="building" v="yes"/>
  </way>
  <way id="84657672" version="2" timestamp="2011-01-21T10:45:34Z" uid="115477" user="wowik" changeset="7038966">
    <nd ref="605272856"/>
    <nd ref="1112883507"/>
    <nd ref="1112883027"/>
    <nd ref="605272852"/>
    <nd ref="1112882984"/>
    <nd ref="1112883391"/>
    <nd ref="1112883477"/>
    <nd ref="605272850"/>
    <nd ref="1112883240"/>
    <nd ref="1112882997"/>
    <nd ref="1112883524"/>
    <nd ref="1112883418"/>
    <nd ref="1112883045"/>
    <nd ref="1112883173"/>
    <nd ref="1112883255"/>
    <nd ref="1112883207"/>
    <nd ref="1112883193"/>
    <nd ref="1112883345"/>
    <nd ref="1112883433"/>
    <nd ref="1112883288"/>
    <nd ref="605272888"/>
    <nd ref="1112883113"/>
    <nd ref="605272881"/>
    <nd ref="1112883151"/>
    <nd ref="605272895"/>
    <nd ref="605272883"/>
    <nd ref="1112883545"/>
    <nd ref="1112883067"/>
    <nd ref="605272897"/>
    <nd ref="1112883033"/>
    <nd ref="1112883121"/>
    <nd ref="605272885"/>
    <nd ref="1112883511"/>
    <nd ref="1112883427"/>
    <nd ref="1112883466"/>
    <nd ref="1112883164"/>
    <nd ref="1112883339"/>
    <nd ref="1112883297"/>
    <nd ref="1112883080"/>
    <nd ref="1112883246"/>
    <nd ref="1112883483"/>
    <nd ref="1112883002"/>
    <nd ref="1112883393"/>
    <nd ref="605272854"/>
    <nd ref="1112883085"/>
    <nd ref="605272856"/>
    <tag k="addr:city" v="Зеленоград"/>
    <tag k="addr:housenumber" v="1512"/>
    <tag k="addr:street" v="15-й Микрорайон"/>
    <tag k="building" v="yes"/>
    <tag k="building:use" v="residential"/>
    <tag k="is_in" v="Russia"/>
  </way>
  <way id="84657672" version="3" timestamp="2011-06-07T20:44:40Z" uid="133332" user="AMDmi3" changeset="8374030">
    <nd ref="605272856"/>
    <nd ref="1112883507"/>
    <nd ref="1112883027"/>
    <nd ref="605272852"/>
    <nd ref="1112882984"/>
    <nd ref="1112883391"/>
    <nd ref="1112883477"/>
    <nd ref="605272850"/>
    <nd ref="1112883240"/>
    <nd ref="1112882997"/>
    <nd ref="1112883524"/>
    <nd ref="1112883418"/>
    <nd ref="1112883045"/>
    <nd ref="1112883173"/>
    <nd ref="1112883255"/>
    <nd ref="1112883207"/>
    <nd ref="1112883193"/>
    <nd ref="1112883345"/>
    <nd ref="1112883433"/>
    <nd ref="1112883288"/>
    <nd ref="605272888"/>
    <nd ref="1112883113"/>
    <nd ref="605272881"/>
    <nd ref="1112883151"/>
    <nd ref="605272895"/>
    <nd ref="605272883"/>
    <nd ref="1112883545"/>
    <nd ref="1112883067"/>
    <nd ref="605272897"/>
    <nd ref="1112883033"/>
    <nd ref="1112883121"/>
    <nd ref="605272885"/>
    <nd ref="1112883511"/>
    <nd ref="1112883427"/>
    <nd ref="1112883466"/>
    <nd ref="1112883164"/>
    <nd ref="1112883339"/>
    <nd ref="1112883297"/>
    <nd ref="1112883080"/>
    <nd ref="1112883246"/>
    <nd ref="1112883483"/>
    <nd ref="1112883002"/>
    <nd ref="1112883393"/>
    <nd ref="605272854"/>
    <nd ref="1112883085"/>
    <nd ref="605272856"/>
    <tag k="addr:city" v="Зеленоград"/>
    <tag k="addr:housenumber" v="1512"/>
    <tag k="addr:street" v="15-й микрорайон"/>
    <tag k="building" v="yes"/>
    <tag k="building:use" v="residential"/>
    <tag k="is_in" v="Russia"/>
  </way>
  <way id="84657672" version="4" timestamp="2011-09-13T10:22:43Z" uid="29320" user="Komяpa" changeset="9288237">
    <nd ref="605272856"/>
    <nd ref="1112883507"/>
    <nd ref="1112883027"/>
    <nd ref="605272852"/>
    <nd ref="1112882984"/>
    <nd ref="1112883391"/>
    <nd ref="1112883477"/>
    <nd ref="605272850"/>
    <nd ref="1112883240"/>
    <nd ref="1112882997"/>
    <nd ref="1112883524"/>
    <nd ref="1112883418"/>
    <nd ref="1112883045"/>
    <nd ref="1112883173"/>
    <nd ref="1112883255"/>
    <nd ref="1112883207"/>
    <nd ref="1112883193"/>
    <nd ref="1112883345"/>
    <nd ref="1112883433"/>
    <nd ref="1112883288"/>
    <nd ref="605272888"/>
    <nd ref="1112883113"/>
    <nd ref="605272881"/>
    <nd ref="1112883151"/>
    <nd ref="605272895"/>
    <nd ref="605272883"/>
    <nd ref="1112883545"/>
    <nd ref="1112883067"/>
    <nd ref="605272897"/>
    <nd ref="1112883033"/>
    <nd ref="1112883121"/>
    <nd ref="605272885"/>
    <nd ref="1112883511"/>
    <nd ref="1112883427"/>
    <nd ref="1112883466"/>
    <nd ref="1112883164"/>
    <nd ref="1112883339"/>
    <nd ref="1112883297"/>
    <nd ref="1112883080"/>
    <nd ref="1112883246"/>
    <nd ref="1112883483"/>
    <nd ref="1112883002"/>
    <nd ref="1112883393"/>
    <nd ref="605272854"/>
    <nd ref="1112883085"/>
    <nd ref="605272856"/>
    <tag k="addr:city" v="Зеленоград"/>
    <tag k="addr:country" v="RU"/>
    <tag k="addr:housenumber" v="1512"/>
    <tag k="addr:street" v="15-й микрорайон"/>
    <tag k="building" v="yes"/>
    <tag k="building:use" v="residential"/>
  </way>
  <way id="84657672" version="5" timestamp="2012-03-27T11:36:04Z" uid="481934" user="iWowik" changeset="11115472">
    <nd ref="605272856"/>
    <nd ref="1112883507"/>
    <nd ref="1112883027"/>
    <nd ref="605272852"/>
    <nd ref="1112882984"/>
    <nd ref="1112883391"/>
    <nd ref="1112883477"/>
    <nd ref="605272850"/>
    <nd ref="1112883240"/>
    <nd ref="1112882997"/>
    <nd ref="1112883524"/>
    <nd ref="1112883418"/>
    <nd ref="1112883045"/>
    <nd ref="1112883173"/>
    <nd ref="1112883255"/>
    <nd ref="1112883207"/>
    <nd ref="1112883193"/>
    <nd ref="1112883345"/>
    <nd ref="1112883433"/>
    <nd ref="1112883288"/>
    <nd ref="605272888"/>
    <nd ref="1112883113"/>
    <nd ref="605272881"/>
    <nd ref="1112883151"/>
    <nd ref="605272895"/>
    <nd ref="605272883"/>
    <nd ref="1112883545"/>
    <nd ref="1112883067"/>
    <nd ref="605272897"/>
    <nd ref="1112883033"/>
    <nd ref="1112883121"/>
    <nd ref="605272885"/>
    <nd ref="1112883511"/>
    <nd ref="1112883427"/>
    <nd ref="1112883466"/>
    <nd ref="1112883164"/>
    <nd ref="1112883339"/>
    <nd ref="1112883297"/>
    <nd ref="1112883080"/>
    <nd ref="1112883246"/>
    <nd ref="1112883483"/>
    <nd ref="1112883002"/>
    <nd ref="1112883393"/>
    <nd ref="605272854"/>
    <nd ref="1112883085"/>
    <nd ref="605272856"/>
    <tag k="addr:city" v="Зеленоград"/>
    <tag k="addr:country" v="RU"/>
    <tag k="addr:housenumber" v="1512"/>
    <tag k="addr:region" v="Москва"/>
    <tag k="addr:street" v="15-й микрорайон"/>
    <tag k="building" v="yes"/>
    <tag k="building:use" v="residential"/>
  </way>
  <way id="84657720" version="3" timestamp="2011-01-21T10:45:27Z" uid="115477" user="wowik" changeset="7038966">
    <nd ref="605272985"/>
    <nd ref="605272987"/>
    <nd ref="1112883131"/>
    <nd ref="1112883346"/>
    <nd ref="1112883434"/>
    <nd ref="1112883165"/>
    <nd ref="1112883020"/>
    <nd ref="1112883069"/>
    <nd ref="1112883236"/>
    <nd ref="1112883329"/>
    <nd ref="1112883161"/>
    <nd ref="1112883107"/>
    <nd ref="1112883379"/>
    <nd ref="1112883248"/>
    <nd ref="1112883292"/>
    <nd ref="1112883290"/>
    <nd ref="1112882987"/>
    <nd ref="1112883196"/>
    <nd ref="1112883122"/>
    <nd ref="1112883473"/>
    <nd ref="605272969"/>
    <nd ref="1112883425"/>
    <nd ref="1112883382"/>
    <nd ref="605272971"/>
    <nd ref="605272966"/>
    <nd ref="1112883337"/>
    <nd ref="1112883244"/>
    <nd ref="1112883278"/>
    <nd ref="605272968"/>
    <nd ref="605272970"/>
    <nd ref="1112883195"/>
    <nd ref="605272967"/>
    <nd ref="1112883163"/>
    <nd ref="1112883078"/>
    <nd ref="1112883037"/>
    <nd ref="1112883119"/>
    <nd ref="1112883031"/>
    <nd ref="1112883429"/>
    <nd ref="1112883516"/>
    <nd ref="1112883342"/>
    <nd ref="1112883372"/>
    <nd ref="1112882999"/>
    <nd ref="1112883479"/>
    <nd ref="1112883464"/>
    <nd ref="1112882981"/>
    <nd ref="1112883460"/>
    <nd ref="1112883081"/>
    <nd ref="1112883302"/>
    <nd ref="1112883392"/>
    <nd ref="1112883208"/>
    <nd ref="605272988"/>
    <nd ref="1112883503"/>
    <nd ref="1112883413"/>
    <nd ref="605272985"/>
    <tag k="addr:city" v="Зеленоград"/>
    <tag k="addr:housenumber" v="1519"/>
    <tag k="addr:street" v="15-й Микрорайон"/>
    <tag k="building" v="yes"/>
    <tag k="building:use" v="residential"/>
    <tag k="is_in" v="Russia"/>
  </way>
  <way id="84657720" version="4" timestamp="2011-06-07T20:44:36Z" uid="133332" user="AMDmi3" changeset="8374030">
    <nd ref="605272985"/>
    <nd ref="605272987"/>
    <nd ref="1112883131"/>
    <nd ref="1112883346"/>
    <nd ref="1112883434"/>
    <nd ref="1112883165"/>
    <nd ref="1112883020"/>
    <nd ref="1112883069"/>
    <nd ref="1112883236"/>
    <nd ref="1112883329"/>
    <nd ref="1112883161"/>
    <nd ref="1112883107"/>
    <nd ref="1112883379"/>
    <nd ref="1112883248"/>
    <nd ref="1112883292"/>
    <nd ref="1112883290"/>
    <nd ref="1112882987"/>
    <nd ref="1112883196"/>
    <nd ref="1112883122"/>
    <nd ref="1112883473"/>
    <nd ref="605272969"/>
    <nd ref="1112883425"/>
    <nd ref="1112883382"/>
    <nd ref="605272971"/>
    <nd ref="605272966"/>
    <nd ref="1112883337"/>
    <nd ref="1112883244"/>
    <nd ref="1112883278"/>
    <nd ref="605272968"/>
    <nd ref="605272970"/>
    <nd ref="1112883195"/>
    <nd ref="605272967"/>
    <nd ref="1112883163"/>
    <nd ref="1112883078"/>
    <nd ref="1112883037"/>
    <nd ref="1112883119"/>
    <nd ref="1112883031"/>
    <nd ref="1112883429"/>
    <nd ref="1112883516"/>
    <nd ref="1112883342"/>
    <nd ref="1112883372"/>
    <nd ref="1112882999"/>
    <nd ref="1112883479"/>
    <nd ref="1112883464"/>
    <nd ref="1112882981"/>
    <nd ref="1112883460"/>
    <nd ref="1112883081"/>
    <nd ref="1112883302"/>
    <nd ref="1112883392"/>
    <nd ref="1112883208"/>
    <nd ref="605272988"/>
    <nd ref="1112883503"/>
    <nd ref="1112883413"/>
    <nd ref="605272985"/>
    <tag k="addr:city" v="Зеленоград"/>
    <tag k="addr:housenumber" v="1519"/>
    <tag k="addr:street" v="15-й микрорайон"/>
    <tag k="building" v="yes"/>
    <tag k="building:use" v="residential"/>
    <tag k="is_in" v="Russia"/>
  </way>
  <way id="84657720" version="5" timestamp="2011-09-13T10:22:47Z" uid="29320" user="Komяpa" changeset="9288237">
    <nd ref="605272985"/>
    <nd ref="605272987"/>
    <nd ref="1112883131"/>
    <nd ref="1112883346"/>
    <nd ref="1112883434"/>
    <nd ref="1112883165"/>
    <nd ref="1112883020"/>
    <nd ref="1112883069"/>
    <nd ref="1112883236"/>
    <nd ref="1112883329"/>
    <nd ref="1112883161"/>
    <nd ref="1112883107"/>
    <nd ref="1112883379"/>
    <nd ref="1112883248"/>
    <nd ref="1112883292"/>
    <nd ref="1112883290"/>
    <nd ref="1112882987"/>
    <nd ref="1112883196"/>
    <nd ref="1112883122"/>
    <nd ref="1112883473"/>
    <nd ref="605272969"/>
    <nd ref="1112883425"/>
    <nd ref="1112883382"/>
    <nd ref="605272971"/>
    <nd ref="605272966"/>
    <nd ref="1112883337"/>
    <nd ref="1112883244"/>
    <nd ref="1112883278"/>
    <nd ref="605272968"/>
    <nd ref="605272970"/>
    <nd ref="1112883195"/>
    <nd ref="605272967"/>
    <nd ref="1112883163"/>
    <nd ref="1112883078"/>
    <nd ref="1112883037"/>
    <nd ref="1112883119"/>
    <nd ref="1112883031"/>
    <nd ref="1112883429"/>
    <nd ref="1112883516"/>
    <nd ref="1112883342"/>
    <nd ref="1112883372"/>
    <nd ref="1112882999"/>
    <nd ref="1112883479"/>
    <nd ref="1112883464"/>
    <nd ref="1112882981"/>
    <nd ref="1112883460"/>
    <nd ref="1112883081"/>
    <nd ref="1112883302"/>
    <nd ref="1112883392"/>
    <nd ref="1112883208"/>
    <nd ref="605272988"/>
    <nd ref="1112883503"/>
    <nd ref="1112883413"/>
    <nd ref="605272985"/>
    <tag k="addr:city" v="Зеленоград"/>
    <tag k="addr:country" v="RU"/>
    <tag k="addr:housenumber" v="1519"/>
    <tag k="addr:street" v="15-й микрорайон"/>
    <tag k="building" v="yes"/>
    <tag k="building:use" v="residential"/>
  </way>
  <way id="84657720" version="6" timestamp="2012-03-27T11:36:08Z" uid="481934" user="iWowik" changeset="11115472">
    <nd ref="605272985"/>
    <nd ref="605272987"/>
    <nd ref="1112883131"/>
    <nd ref="1112883346"/>
    <nd ref="1112883434"/>
    <nd ref="1112883165"/>
    <nd ref="1112883020"/>
    <nd ref="1112883069"/>
    <nd ref="1112883236"/>
    <nd ref="1112883329"/>
    <nd ref="1112883161"/>
    <nd ref="1112883107"/>
    <nd ref="1112883379"/>
    <nd ref="1112883248"/>
    <nd ref="1112883292"/>
    <nd ref="1112883290"/>
    <nd ref="1112882987"/>
    <nd ref="1112883196"/>
    <nd ref="1112883122"/>
    <nd ref="1112883473"/>
    <nd ref="605272969"/>
    <nd ref="1112883425"/>
    <nd ref="1112883382"/>
    <nd ref="605272971"/>
    <nd ref="605272966"/>
    <nd ref="1112883337"/>
    <nd ref="1112883244"/>
    <nd ref="1112883278"/>
    <nd ref="605272968"/>
    <nd ref="605272970"/>
    <nd ref="1112883195"/>
    <nd ref="605272967"/>
    <nd ref="1112883163"/>
    <nd ref="1112883078"/>
    <nd ref="1112883037"/>
    <nd ref="1112883119"/>
    <nd ref="1112883031"/>
    <nd ref="1112883429"/>
    <nd ref="1112883516"/>
    <nd ref="1112883342"/>
    <nd ref="1112883372"/>
    <nd ref="1112882999"/>
    <nd ref="1112883479"/>
    <nd ref="1112883464"/>
    <nd ref="1112882981"/>
    <nd ref="1112883460"/>
    <nd ref="1112883081"/>
    <nd ref="1112883302"/>
    <nd ref="1112883392"/>
    <nd ref="1112883208"/>
    <nd ref="605272988"/>
    <nd ref="1112883503"/>
    <nd ref="1112883413"/>
    <nd ref="605272985"/>
    <tag k="addr:city" v="Зеленоград"/>
    <tag k="addr:country" v="RU"/>
    <tag k="addr:housenumber" v="1519"/>
    <tag k="addr:region" v="Москва"/>
    <tag k="addr:street" v="15-й микрорайон"/>
    <tag k="building" v="yes"/>
    <tag k="building:use" v="residential"/>
  </way>
  <way id="84657881" version="2" timestamp="2011-01-21T19:27:04Z" uid="115477" user="wowik" changeset="7043561">
    <nd ref="605272908"/>
    <nd ref="1113613448"/>
    <nd ref="605272901"/>
    <nd ref="1113614340"/>
    <nd ref="1113614740"/>
    <nd ref="1113615070"/>
    <nd ref="1113613655"/>
    <nd ref="605272899"/>
    <nd ref="1113614026"/>
    <nd ref="1113613694"/>
    <nd ref="605272906"/>
    <nd ref="1113613333"/>
    <nd ref="1113615473"/>
    <nd ref="1113616178"/>
    <nd ref="1113616757"/>
    <nd ref="1113612796"/>
    <nd ref="1113617054"/>
    <nd ref="605272904"/>
    <nd ref="605272908"/>
    <tag k="addr:city" v="Зеленоград"/>
    <tag k="addr:housenumber" v="1524"/>
    <tag k="addr:street" v="15-й Микрорайон"/>
    <tag k="building" v="yes"/>
    <tag k="is_in" v="Russia"/>
  </way>
  <way id="84657881" version="3" timestamp="2011-06-07T20:44:29Z" uid="133332" user="AMDmi3" changeset="8374030">
    <nd ref="605272908"/>
    <nd ref="1113613448"/>
    <nd ref="605272901"/>
    <nd ref="1113614340"/>
    <nd ref="1113614740"/>
    <nd ref="1113615070"/>
    <nd ref="1113613655"/>
    <nd ref="605272899"/>
    <nd ref="1113614026"/>
    <nd ref="1113613694"/>
    <nd ref="605272906"/>
    <nd ref="1113613333"/>
    <nd ref="1113615473"/>
    <nd ref="1113616178"/>
    <nd ref="1113616757"/>
    <nd ref="1113612796"/>
    <nd ref="1113617054"/>
    <nd ref="605272904"/>
    <nd ref="605272908"/>
    <tag k="addr:city" v="Зеленоград"/>
    <tag k="addr:housenumber" v="1524"/>
    <tag k="addr:street" v="15-й микрорайон"/>
    <tag k="building" v="yes"/>
    <tag k="is_in" v="Russia"/>
  </way>
  <way id="84657881" version="4" timestamp="2011-09-13T10:22:49Z" uid="29320" user="Komяpa" changeset="9288237">
    <nd ref="605272908"/>
    <nd ref="1113613448"/>
    <nd ref="605272901"/>
    <nd ref="1113614340"/>
    <nd ref="1113614740"/>
    <nd ref="1113615070"/>
    <nd ref="1113613655"/>
    <nd ref="605272899"/>
    <nd ref="1113614026"/>
    <nd ref="1113613694"/>
    <nd ref="605272906"/>
    <nd ref="1113613333"/>
    <nd ref="1113615473"/>
    <nd ref="1113616178"/>
    <nd ref="1113616757"/>
    <nd ref="1113612796"/>
    <nd ref="1113617054"/>
    <nd ref="605272904"/>
    <nd ref="605272908"/>
    <tag k="addr:city" v="Зеленоград"/>
    <tag k="addr:country" v="RU"/>
    <tag k="addr:housenumber" v="1524"/>
    <tag k="addr:street" v="15-й микрорайон"/>
    <tag k="building" v="yes"/>
  </way>
  <way id="84657881" version="5" timestamp="2012-03-27T11:36:11Z" uid="481934" user="iWowik" changeset="11115472">
    <nd ref="605272908"/>
    <nd ref="1113613448"/>
    <nd ref="605272901"/>
    <nd ref="1113614340"/>
    <nd ref="1113614740"/>
    <nd ref="1113615070"/>
    <nd ref="1113613655"/>
    <nd ref="605272899"/>
    <nd ref="1113614026"/>
    <nd ref="1113613694"/>
    <nd ref="605272906"/>
    <nd ref="1113613333"/>
    <nd ref="1113615473"/>
    <nd ref="1113616178"/>
    <nd ref="1113616757"/>
    <nd ref="1113612796"/>
    <nd ref="1113617054"/>
    <nd ref="605272904"/>
    <nd ref="605272908"/>
    <tag k="addr:city" v="Зеленоград"/>
    <tag k="addr:country" v="RU"/>
    <tag k="addr:housenumber" v="1524"/>
    <tag k="addr:region" v="Москва"/>
    <tag k="addr:street" v="15-й микрорайон"/>
    <tag k="building" v="yes"/>
  </way>
  <way id="84657991" version="2" timestamp="2011-01-21T19:27:52Z" uid="115477" user="wowik" changeset="7043561">
    <nd ref="522816940"/>
    <nd ref="1113612960"/>
    <nd ref="1113616943"/>
    <nd ref="1113616439"/>
    <nd ref="1113613239"/>
    <nd ref="1113613499"/>
    <nd ref="1113616007"/>
    <nd ref="1113616901"/>
    <nd ref="1113613174"/>
    <nd ref="1113617134"/>
    <nd ref="1113616386"/>
    <nd ref="522816957"/>
    <nd ref="522816965"/>
    <nd ref="522816969"/>
    <nd ref="1113615248"/>
    <nd ref="1113616928"/>
    <nd ref="1113615967"/>
    <nd ref="1113615620"/>
    <nd ref="1113612915"/>
    <nd ref="1113617153"/>
    <nd ref="522816972"/>
    <nd ref="522816975"/>
    <nd ref="1113613793"/>
    <nd ref="1113613443"/>
    <nd ref="522816981"/>
    <nd ref="1113613196"/>
    <nd ref="1113613831"/>
    <nd ref="1113614522"/>
    <nd ref="1113614174"/>
    <nd ref="1113614886"/>
    <nd ref="1113614232"/>
    <nd ref="1113615665"/>
    <nd ref="1113614924"/>
    <nd ref="522816985"/>
    <nd ref="522816940"/>
    <tag k="addr:city" v="Зеленоград"/>
    <tag k="addr:housenumber" v="1537"/>
    <tag k="addr:street" v="15-й Микрорайон"/>
    <tag k="building" v="yes"/>
    <tag k="is_in" v="Russia"/>
  </way>
  <way id="84657991" version="3" timestamp="2011-06-07T20:45:43Z" uid="133332" user="AMDmi3" changeset="8374030">
    <nd ref="522816940"/>
    <nd ref="1113612960"/>
    <nd ref="1113616943"/>
    <nd ref="1113616439"/>
    <nd ref="1113613239"/>
    <nd ref="1113613499"/>
    <nd ref="1113616007"/>
    <nd ref="1113616901"/>
    <nd ref="1113613174"/>
    <nd ref="1113617134"/>
    <nd ref="1113616386"/>
    <nd ref="522816957"/>
    <nd ref="522816965"/>
    <nd ref="522816969"/>
    <nd ref="1113615248"/>
    <nd ref="1113616928"/>
    <nd ref="1113615967"/>
    <nd ref="1113615620"/>
    <nd ref="1113612915"/>
    <nd ref="1113617153"/>
    <nd ref="522816972"/>
    <nd ref="522816975"/>
    <nd ref="1113613793"/>
    <nd ref="1113613443"/>
    <nd ref="522816981"/>
    <nd ref="1113613196"/>
    <nd ref="1113613831"/>
    <nd ref="1113614522"/>
    <nd ref="1113614174"/>
    <nd ref="1113614886"/>
    <nd ref="1113614232"/>
    <nd ref="1113615665"/>
    <nd ref="1113614924"/>
    <nd ref="522816985"/>
    <nd ref="522816940"/>
    <tag k="addr:city" v="Зеленоград"/>
    <tag k="addr:housenumber" v="1537"/>
    <tag k="addr:street" v="15-й микрорайон"/>
    <tag k="building" v="yes"/>
    <tag k="is_in" v="Russia"/>
  </way>
  <way id="84657991" version="4" timestamp="2011-09-13T10:22:53Z" uid="29320" user="Komяpa" changeset="9288237">
    <nd ref="522816940"/>
    <nd ref="1113612960"/>
    <nd ref="1113616943"/>
    <nd ref="1113616439"/>
    <nd ref="1113613239"/>
    <nd ref="1113613499"/>
    <nd ref="1113616007"/>
    <nd ref="1113616901"/>
    <nd ref="1113613174"/>
    <nd ref="1113617134"/>
    <nd ref="1113616386"/>
    <nd ref="522816957"/>
    <nd ref="522816965"/>
    <nd ref="522816969"/>
    <nd ref="1113615248"/>
    <nd ref="1113616928"/>
    <nd ref="1113615967"/>
    <nd ref="1113615620"/>
    <nd ref="1113612915"/>
    <nd ref="1113617153"/>
    <nd ref="522816972"/>
    <nd ref="522816975"/>
    <nd ref="1113613793"/>
    <nd ref="1113613443"/>
    <nd ref="522816981"/>
    <nd ref="1113613196"/>
    <nd ref="1113613831"/>
    <nd ref="1113614522"/>
    <nd ref="1113614174"/>
    <nd ref="1113614886"/>
    <nd ref="1113614232"/>
    <nd ref="1113615665"/>
    <nd ref="1113614924"/>
    <nd ref="522816985"/>
    <nd ref="522816940"/>
    <tag k="addr:city" v="Зеленоград"/>
    <tag k="addr:country" v="RU"/>
    <tag k="addr:housenumber" v="1537"/>
    <tag k="addr:street" v="15-й микрорайон"/>
    <tag k="building" v="yes"/>
  </way>
  <way id="84657991" version="5" timestamp="2012-03-27T11:36:15Z" uid="481934" user="iWowik" changeset="11115472">
    <nd ref="522816940"/>
    <nd ref="1113612960"/>
    <nd ref="1113616943"/>
    <nd ref="1113616439"/>
    <nd ref="1113613239"/>
    <nd ref="1113613499"/>
    <nd ref="1113616007"/>
    <nd ref="1113616901"/>
    <nd ref="1113613174"/>
    <nd ref="1113617134"/>
    <nd ref="1113616386"/>
    <nd ref="522816957"/>
    <nd ref="522816965"/>
    <nd ref="522816969"/>
    <nd ref="1113615248"/>
    <nd ref="1113616928"/>
    <nd ref="1113615967"/>
    <nd ref="1113615620"/>
    <nd ref="1113612915"/>
    <nd ref="1113617153"/>
    <nd ref="522816972"/>
    <nd ref="522816975"/>
    <nd ref="1113613793"/>
    <nd ref="1113613443"/>
    <nd ref="522816981"/>
    <nd ref="1113613196"/>
    <nd ref="1113613831"/>
    <nd ref="1113614522"/>
    <nd ref="1113614174"/>
    <nd ref="1113614886"/>
    <nd ref="1113614232"/>
    <nd ref="1113615665"/>
    <nd ref="1113614924"/>
    <nd ref="522816985"/>
    <nd ref="522816940"/>
    <tag k="addr:city" v="Зеленоград"/>
    <tag k="addr:country" v="RU"/>
    <tag k="addr:housenumber" v="1537"/>
    <tag k="addr:region" v="Москва"/>
    <tag k="addr:street" v="15-й микрорайон"/>
    <tag k="building" v="yes"/>
  </way>
  <way id="84657085" version="4" timestamp="2012-07-20T15:49:04Z" uid="722137" user="OSMF Redaction Account" changeset="12381812"/>
  <way id="84657090" version="4" timestamp="2012-07-20T15:49:08Z" uid="722137" user="OSMF Redaction Account" changeset="12381812"/>
  <way id="84657091" version="4" timestamp="2012-07-20T15:49:05Z" uid="722137" user="OSMF Redaction Account" changeset="12381812"/>
  <way id="84657095" version="6" timestamp="2012-07-20T15:49:06Z" uid="722137" user="OSMF Redaction Account" changeset="12381812"/>
  <way id="84657096" version="8" timestamp="2012-07-20T16:38:58Z" uid="722137" user="OSMF Redaction Account" changeset="12383703"/>
  <way id="84657099" version="8" timestamp="2012-07-20T15:49:04Z" uid="722137" user="OSMF Redaction Account" changeset="12381812"/>
  <way id="84657100" version="5" timestamp="2012-07-20T15:49:05Z" uid="722137" user="OSMF Redaction Account" changeset="12381812"/>
  <way id="84657102" version="5" timestamp="2012-07-20T15:49:07Z" uid="722137" user="OSMF Redaction Account" changeset="12381812"/>
  <way id="84657104" version="6" timestamp="2012-07-20T15:49:06Z" uid="722137" user="OSMF Redaction Account" changeset="12381812"/>
  <way id="84657106" version="6" timestamp="2012-07-20T15:49:03Z" uid="722137" user="OSMF Redaction Account" changeset="12381812"/>
  <way id="84657109" version="4" timestamp="2012-07-20T15:49:08Z" uid="722137" user="OSMF Redaction Account" changeset="12381812"/>
  <way id="84657110" version="5" timestamp="2012-07-20T15:49:06Z" uid="722137" user="OSMF Redaction Account" changeset="12381812"/>
  <way id="84657113" version="4" timestamp="2012-07-20T15:49:06Z" uid="722137" user="OSMF Redaction Account" changeset="12381812"/>
  <way id="84657114" version="5" timestamp="2012-07-20T15:49:04Z" uid="722137" user="OSMF Redaction Account" changeset="12381812"/>
  <way id="84657118" version="5" timestamp="2012-07-20T15:49:06Z" uid="722137" user="OSMF Redaction Account" changeset="12381812"/>
  <way id="84657409" version="2" timestamp="2012-07-20T15:49:05Z" uid="722137" user="OSMF Redaction Account" changeset="12381812"/>
  <way id="84657418" version="4" timestamp="2012-07-19T08:04:09Z" uid="722137" user="OSMF Redaction Account" changeset="12313104">
    <nd ref="983422261"/>
    <nd ref="983422924"/>
    <nd ref="983422503"/>
    <nd ref="983422107"/>
    <nd ref="983421957"/>
    <tag k="name" v="Augusta Caravan Park"/>
    <tag k="source" v="nearmap"/>
    <tag k="tourism" v="caravan_site"/>
  </way>
  <way id="84657418" version="5" timestamp="2012-08-08T18:48:10Z" uid="418724" user="wintersportler" changeset="12660493">
    <nd ref="983422261"/>
    <nd ref="983422924"/>
    <nd ref="983422503"/>
    <nd ref="983422107"/>
    <nd ref="983421957"/>
    <nd ref="1857606395"/>
    <nd ref="1857606401"/>
    <nd ref="1857606405"/>
    <nd ref="1857606417"/>
    <nd ref="983422261"/>
    <tag k="name" v="Augusta Caravan Park"/>
    <tag k="source" v="nearmap"/>
    <tag k="tourism" v="caravan_site"/>
  </way>
  <way id="84657419" version="3" timestamp="2012-08-10T00:26:38Z" uid="418724" user="wintersportler" changeset="12675073">
    <nd ref="983422172"/>
    <nd ref="983422818"/>
    <nd ref="983422609"/>
    <nd ref="983422205"/>
    <nd ref="983422862"/>
    <nd ref="983422435"/>
    <nd ref="983422062"/>
    <nd ref="983422683"/>
    <nd ref="983422266"/>
    <nd ref="983422929"/>
    <nd ref="983422715"/>
    <nd ref="983422306"/>
    <nd ref="983421964"/>
    <nd ref="983422543"/>
    <nd ref="983422137"/>
    <nd ref="983422769"/>
    <nd ref="983422358"/>
    <nd ref="983422009"/>
    <nd ref="983422823"/>
    <nd ref="983422409"/>
    <nd ref="983422040"/>
    <nd ref="983422654"/>
    <nd ref="983422239"/>
    <nd ref="983422903"/>
    <nd ref="983422481"/>
    <nd ref="983422090"/>
    <tag k="highway" v="track"/>
    <tag k="source" v="GPS"/>
    <tag k="surface" v="gravel"/>
    <tag k="tracktype" v="grade3"/>
  </way>
  <way id="84657421" version="3" timestamp="2012-07-19T08:04:13Z" uid="722137" user="OSMF Redaction Account" changeset="12313104">
    <nd ref="983422028"/>
    <nd ref="983422639"/>
    <nd ref="983422226"/>
    <nd ref="983422887"/>
    <nd ref="983422468"/>
    <nd ref="983422088"/>
    <nd ref="983422712"/>
    <nd ref="983422292"/>
    <tag k="source" v="nearmap"/>
    <tag k="tourism" v="caravan_site"/>
  </way>
  <way id="84657421" version="4" timestamp="2012-08-08T18:48:25Z" uid="418724" user="wintersportler" changeset="12660493">
    <nd ref="983422639"/>
    <nd ref="983422226"/>
    <nd ref="983422887"/>
    <nd ref="983422468"/>
    <nd ref="983422088"/>
    <nd ref="983422712"/>
    <nd ref="983422292"/>
    <nd ref="983422639"/>
    <tag k="source" v="nearmap"/>
    <tag k="tourism" v="caravan_site"/>
  </way>
  <way id="84657421" version="5" timestamp="2012-08-21T17:40:05Z" uid="418724" user="wintersportler" changeset="12811309">
    <nd ref="983422639"/>
    <nd ref="983422226"/>
    <nd ref="983422887"/>
    <nd ref="983422468"/>
    <nd ref="983422088"/>
    <nd ref="983422712"/>
    <nd ref="983422292"/>
    <nd ref="1876426743"/>
    <nd ref="983422639"/>
    <tag k="source" v="nearmap"/>
    <tag k="tourism" v="caravan_site"/>
  </way>
  <way id="84657516" version="2" timestamp="2012-07-20T15:49:04Z" uid="722137" user="OSMF Redaction Account" changeset="12381812"/>
  <way id="84657598" version="7" timestamp="2012-07-20T23:48:40Z" uid="722137" user="OSMF Redaction Account" changeset="12396479">
    <nd ref="605272698"/>
    <nd ref="605272684"/>
    <nd ref="605272686"/>
    <nd ref="605272681"/>
    <nd ref="605272687"/>
    <nd ref="605272688"/>
    <nd ref="605272680"/>
    <nd ref="605272726"/>
    <nd ref="605272727"/>
    <nd ref="605272698"/>
    <tag k="addr:city" v="Зеленоград"/>
    <tag k="addr:country" v="RU"/>
    <tag k="addr:housenumber" v="1504"/>
    <tag k="addr:region" v="Москва"/>
    <tag k="addr:street" v="15-й микрорайон"/>
    <tag k="building" v="yes"/>
  </way>
  <way id="84657638" version="5" timestamp="2012-07-20T15:49:09Z" uid="722137" user="OSMF Redaction Account" changeset="12381812"/>
  <way id="84657639" version="3" timestamp="2012-07-20T15:49:10Z" uid="722137" user="OSMF Redaction Account" changeset="12381812"/>
  <way id="84657640" version="5" timestamp="2012-07-20T15:49:08Z" uid="722137" user="OSMF Redaction Account" changeset="12381812"/>
  <way id="84657641" version="5" timestamp="2012-07-20T15:49:08Z" uid="722137" user="OSMF Redaction Account" changeset="12381812"/>
  <way id="84657642" version="4" timestamp="2012-07-20T15:49:07Z" uid="722137" user="OSMF Redaction Account" changeset="12381812"/>
  <way id="84657643" version="4" timestamp="2012-07-20T15:49:09Z" uid="722137" user="OSMF Redaction Account" changeset="12381812"/>
  <way id="84657670" version="4" timestamp="2012-07-20T15:49:08Z" uid="722137" user="OSMF Redaction Account" changeset="12381812"/>
  <way id="84657672" version="6" timestamp="2012-07-20T23:48:39Z" uid="722137" user="OSMF Redaction Account" changeset="12396479">
    <nd ref="605272856"/>
    <nd ref="605272852"/>
    <nd ref="605272850"/>
    <nd ref="605272888"/>
    <nd ref="605272881"/>
    <nd ref="605272895"/>
    <nd ref="605272883"/>
    <nd ref="605272897"/>
    <nd ref="605272885"/>
    <nd ref="605272854"/>
    <nd ref="605272856"/>
    <tag k="addr:city" v="Зеленоград"/>
    <tag k="addr:country" v="RU"/>
    <tag k="addr:housenumber" v="1512"/>
    <tag k="addr:region" v="Москва"/>
    <tag k="addr:street" v="15-й микрорайон"/>
    <tag k="building" v="yes"/>
  </way>
  <way id="84657720" version="7" timestamp="2012-07-20T23:48:39Z" uid="722137" user="OSMF Redaction Account" changeset="12396479">
    <nd ref="605272985"/>
    <nd ref="605272987"/>
    <nd ref="605272969"/>
    <nd ref="605272971"/>
    <nd ref="605272966"/>
    <nd ref="605272968"/>
    <nd ref="605272970"/>
    <nd ref="605272967"/>
    <nd ref="605272988"/>
    <nd ref="605272985"/>
    <tag k="addr:city" v="Зеленоград"/>
    <tag k="addr:country" v="RU"/>
    <tag k="addr:housenumber" v="1519"/>
    <tag k="addr:region" v="Москва"/>
    <tag k="addr:street" v="15-й микрорайон"/>
    <tag k="building" v="yes"/>
  </way>
  <way id="84657881" version="6" timestamp="2012-07-20T23:48:12Z" uid="722137" user="OSMF Redaction Account" changeset="12396479">
    <nd ref="605272908"/>
    <nd ref="605272901"/>
    <nd ref="605272899"/>
    <nd ref="605272906"/>
    <nd ref="605272904"/>
    <nd ref="605272908"/>
    <tag k="addr:country" v="RU"/>
    <tag k="addr:region" v="Москва"/>
    <tag k="addr:street" v="15-й микрорайон"/>
    <tag k="building" v="yes"/>
  </way>
  <way id="84657991" version="6" timestamp="2012-07-20T23:47:54Z" uid="722137" user="OSMF Redaction Account" changeset="12396479">
    <nd ref="522816940"/>
    <nd ref="522816957"/>
    <nd ref="522816965"/>
    <nd ref="522816969"/>
    <nd ref="522816972"/>
    <nd ref="522816975"/>
    <nd ref="522816981"/>
    <nd ref="522816985"/>
    <nd ref="522816940"/>
    <tag k="addr:city" v="Зеленоград"/>
    <tag k="addr:country" v="RU"/>
    <tag k="addr:housenumber" v="1537"/>
    <tag k="addr:region" v="Москва"/>
    <tag k="addr:street" v="15-й микрорайон"/>
    <tag k="building" v="yes"/>
  </way>
</osm>
