<?xml version='1.0' encoding='UTF-8'?>
<osm version="0.6" generator="libosmium/2.20.0">
  <way id="84832579" version="1" timestamp="2010-11-11T06:27:29Z" uid="115477" user="wowik" changeset="6341308">
    <nd ref="890216920"/>
    <nd ref="890216952"/>
    <nd ref="891692050"/>
    <nd ref="890205559"/>
    <nd ref="914216549"/>
    <nd ref="890224668"/>
    <nd ref="890205583"/>
    <tag k="highway" v="secondary"/>
    <tag k="lanes" v="2"/>
    <tag k="layer" v="0"/>
    <tag k="name" v="Новокрюковская улица"/>
    <tag k="omkum:code" v="21954"/>
    <tag k="omkum:old_name" v="Проектируемый проезд N 623"/>
    <tag k="oneway" v="yes"/>
    <tag k="sorting_name" v="Новокрюковская  улица"/>
  </way>
  <way id="84832579" version="2" timestamp="2010-12-18T20:34:16Z" uid="380194" user="ac-trash" changeset="6700217">
    <nd ref="890216920"/>
    <nd ref="890216952"/>
    <nd ref="891692050"/>
    <nd ref="890205559"/>
    <nd ref="1046118745"/>
    <nd ref="914216549"/>
    <nd ref="890224668"/>
    <nd ref="890205583"/>
    <tag k="highway" v="secondary"/>
    <tag k="lanes" v="2"/>
    <tag k="layer" v="0"/>
    <tag k="name" v="Новокрюковская улица"/>
    <tag k="omkum:code" v="21954"/>
    <tag k="omkum:old_name" v="Проектируемый проезд N 623"/>
    <tag k="oneway" v="yes"/>
    <tag k="sorting_name" v="Новокрюковская  улица"/>
  </way>
  <way id="84832579" version="3" timestamp="2010-12-19T23:25:31Z" uid="380194" user="ac-trash" changeset="6711873">
    <nd ref="890216920"/>
    <nd ref="890216952"/>
    <nd ref="891692050"/>
    <nd ref="890205559"/>
    <nd ref="1050231548"/>
    <nd ref="1046118745"/>
    <nd ref="914216549"/>
    <nd ref="1050231555"/>
    <nd ref="890224668"/>
    <nd ref="1050231561"/>
    <nd ref="890205583"/>
    <tag k="highway" v="secondary"/>
    <tag k="lanes" v="2"/>
    <tag k="layer" v="0"/>
    <tag k="name" v="Новокрюковская улица"/>
    <tag k="omkum:code" v="21954"/>
    <tag k="omkum:old_name" v="Проектируемый проезд N 623"/>
    <tag k="oneway" v="yes"/>
    <tag k="sorting_name" v="Новокрюковская  улица"/>
  </way>
  <way id="84832579" version="4" timestamp="2011-01-24T13:18:27Z" uid="115477" user="wowik" changeset="7072902">
    <nd ref="890216920"/>
    <nd ref="890216952"/>
    <nd ref="891692050"/>
    <nd ref="890205559"/>
    <nd ref="1050231548"/>
    <nd ref="1046118745"/>
    <nd ref="914216549"/>
    <nd ref="1050231555"/>
    <nd ref="1118673127"/>
    <nd ref="890224668"/>
    <nd ref="1050231561"/>
    <nd ref="1118673129"/>
    <nd ref="890205583"/>
    <tag k="highway" v="secondary"/>
    <tag k="lanes" v="2"/>
    <tag k="layer" v="0"/>
    <tag k="name" v="Новокрюковская улица"/>
    <tag k="omkum:code" v="21954"/>
    <tag k="omkum:old_name" v="Проектируемый проезд N 623"/>
    <tag k="oneway" v="yes"/>
    <tag k="sorting_name" v="Новокрюковская  улица"/>
  </way>
  <way id="84832579" version="5" timestamp="2011-11-06T09:33:27Z" uid="518169" user="kosatov" changeset="9753619">
    <nd ref="890216920"/>
    <nd ref="891692050"/>
    <nd ref="890205559"/>
    <nd ref="1050231548"/>
    <nd ref="1046118745"/>
    <nd ref="914216549"/>
    <nd ref="1050231555"/>
    <nd ref="1118673127"/>
    <nd ref="890224668"/>
    <nd ref="1050231561"/>
    <nd ref="1118673129"/>
    <nd ref="890205583"/>
    <nd ref="838396590"/>
    <tag k="highway" v="secondary"/>
    <tag k="lanes" v="2"/>
    <tag k="layer" v="0"/>
    <tag k="name" v="Новокрюковская улица"/>
    <tag k="omkum:code" v="21954"/>
    <tag k="omkum:old_name" v="Проектируемый проезд N 623"/>
    <tag k="oneway" v="yes"/>
    <tag k="sorting_name" v="Новокрюковская  улица"/>
  </way>
  <way id="84832580" version="1" timestamp="2010-11-11T06:27:29Z" uid="115477" user="wowik" changeset="6341308">
    <nd ref="984970629"/>
    <nd ref="432432360"/>
    <nd ref="305052664"/>
    <nd ref="892833826"/>
    <nd ref="877214051"/>
    <nd ref="892667608"/>
    <nd ref="305052665"/>
    <tag k="highway" v="secondary"/>
    <tag k="lanes" v="2"/>
    <tag k="layer" v="0"/>
    <tag k="name" v="улица Ленина"/>
    <tag k="oneway" v="yes"/>
  </way>
  <way id="84832580" version="2" timestamp="2011-09-06T17:10:29Z" uid="206282" user="Amigo" changeset="9229501">
    <nd ref="1425307316"/>
    <nd ref="1425307317"/>
    <nd ref="432432360"/>
    <nd ref="305052664"/>
    <nd ref="892833826"/>
    <nd ref="877214051"/>
    <nd ref="892667608"/>
    <nd ref="305052665"/>
    <tag k="highway" v="secondary"/>
    <tag k="lanes" v="2"/>
    <tag k="layer" v="0"/>
    <tag k="name" v="улица Ленина"/>
    <tag k="oneway" v="yes"/>
  </way>
  <way id="84832580" version="3" timestamp="2011-11-05T22:18:50Z" uid="518169" user="kosatov" changeset="9751192">
    <nd ref="1425307316"/>
    <nd ref="892833826"/>
    <nd ref="877214051"/>
    <nd ref="892667608"/>
    <nd ref="305052665"/>
    <tag k="highway" v="secondary"/>
    <tag k="lanes" v="2"/>
    <tag k="layer" v="0"/>
    <tag k="name" v="улица Ленина"/>
    <tag k="oneway" v="yes"/>
  </way>
  <way id="84832581" version="1" timestamp="2010-11-11T06:27:29Z" uid="115477" user="wowik" changeset="6341308">
    <nd ref="451737650"/>
    <nd ref="890216909"/>
    <tag k="highway" v="secondary"/>
    <tag k="lanes" v="2"/>
    <tag k="layer" v="0"/>
    <tag k="name" v="Заводская улица"/>
    <tag k="omkum:code" v="07547"/>
    <tag k="oneway" v="yes"/>
    <tag k="sorting_name" v="Заводская  улица"/>
  </way>
  <way id="84832582" version="1" timestamp="2010-11-11T06:27:29Z" uid="115477" user="wowik" changeset="6341308">
    <nd ref="891845119"/>
    <nd ref="890216934"/>
    <nd ref="892783518"/>
    <nd ref="890216940"/>
    <tag k="highway" v="secondary"/>
    <tag k="lanes" v="2"/>
    <tag k="name" v="улица Ленина"/>
    <tag k="oneway" v="yes"/>
  </way>
  <way id="84832652" version="1" timestamp="2010-11-11T06:35:15Z" uid="115477" user="wowik" changeset="6341387">
    <nd ref="984973800"/>
    <nd ref="984973804"/>
    <nd ref="984973798"/>
    <nd ref="984973789"/>
    <nd ref="984973788"/>
    <nd ref="984973806"/>
    <nd ref="984973801"/>
    <nd ref="984973791"/>
    <nd ref="984973803"/>
    <nd ref="984973796"/>
    <nd ref="984973800"/>
    <tag k="leisure" v="pitch"/>
  </way>
  <way id="84832974" version="1" timestamp="2010-11-11T06:51:58Z" uid="115477" user="wowik" changeset="6341405">
    <nd ref="984980000"/>
    <nd ref="984980008"/>
    <nd ref="984980012"/>
    <nd ref="984980005"/>
    <nd ref="984980000"/>
    <tag k="addr:city" v="Зеленоград"/>
    <tag k="addr:housenumber" v="838c1"/>
    <tag k="addr:street" v="8-й Микрорайон"/>
    <tag k="building" v="yes"/>
    <tag k="is_in" v="Russia"/>
  </way>
  <way id="84832974" version="2" timestamp="2010-11-22T02:08:13Z" uid="133332" user="AMDmi3" changeset="6428552">
    <nd ref="984980000"/>
    <nd ref="984980008"/>
    <nd ref="984980012"/>
    <nd ref="984980005"/>
    <nd ref="984980000"/>
    <tag k="addr:city" v="Зеленоград"/>
    <tag k="addr:housenumber" v="838с1"/>
    <tag k="addr:street" v="8-й Микрорайон"/>
    <tag k="building" v="yes"/>
    <tag k="is_in" v="Russia"/>
  </way>
  <way id="84832974" version="3" timestamp="2011-01-19T17:03:10Z" uid="70696" user="xybot" changeset="7021015">
    <nd ref="984980000"/>
    <nd ref="984980008"/>
    <nd ref="984980012"/>
    <nd ref="984980005"/>
    <nd ref="984980000"/>
    <tag k="addr:city" v="Зеленоград"/>
    <tag k="addr:housenumber" v="838 с1"/>
    <tag k="addr:street" v="8-й Микрорайон"/>
    <tag k="building" v="yes"/>
    <tag k="is_in" v="Russia"/>
  </way>
  <way id="84832974" version="4" timestamp="2011-06-07T20:47:40Z" uid="133332" user="AMDmi3" changeset="8374030">
    <nd ref="984980000"/>
    <nd ref="984980008"/>
    <nd ref="984980012"/>
    <nd ref="984980005"/>
    <nd ref="984980000"/>
    <tag k="addr:city" v="Зеленоград"/>
    <tag k="addr:housenumber" v="838 с1"/>
    <tag k="addr:street" v="8-й микрорайон"/>
    <tag k="building" v="yes"/>
    <tag k="is_in" v="Russia"/>
  </way>
  <way id="84832974" version="5" timestamp="2011-09-13T10:28:57Z" uid="29320" user="Komяpa" changeset="9288237">
    <nd ref="984980000"/>
    <nd ref="984980008"/>
    <nd ref="984980012"/>
    <nd ref="984980005"/>
    <nd ref="984980000"/>
    <tag k="addr:city" v="Зеленоград"/>
    <tag k="addr:country" v="RU"/>
    <tag k="addr:housenumber" v="838 с1"/>
    <tag k="addr:street" v="8-й микрорайон"/>
    <tag k="building" v="yes"/>
  </way>
  <way id="84832974" version="6" timestamp="2012-03-27T11:46:35Z" uid="481934" user="iWowik" changeset="11115472">
    <nd ref="984980000"/>
    <nd ref="984980008"/>
    <nd ref="984980012"/>
    <nd ref="984980005"/>
    <nd ref="984980000"/>
    <tag k="addr:city" v="Зеленоград"/>
    <tag k="addr:country" v="RU"/>
    <tag k="addr:housenumber" v="838 с1"/>
    <tag k="addr:region" v="Москва"/>
    <tag k="addr:street" v="8-й микрорайон"/>
    <tag k="building" v="yes"/>
  </way>
  <way id="84832579" version="6" timestamp="2012-07-20T23:47:59Z" uid="722137" user="OSMF Redaction Account" changeset="12396479">
    <nd ref="1050231548"/>
    <nd ref="1046118745"/>
    <nd ref="1050231555"/>
    <nd ref="1050231561"/>
    <nd ref="838396590"/>
  </way>
  <way id="84832579" version="7" timestamp="2012-07-21T07:11:48Z" uid="316868" user="LexIgnatov" changeset="12402176">
    <nd ref="1050231548"/>
    <nd ref="1046118745"/>
    <nd ref="1050231555"/>
    <nd ref="1050231561"/>
    <nd ref="838396590"/>
    <tag k="highway" v="secondary"/>
    <tag k="lanes" v="2"/>
    <tag k="layer" v="0"/>
    <tag k="maxspeed" v="60"/>
    <tag k="name" v="Новокрюковская улица"/>
    <tag k="omkum:code" v="21954"/>
    <tag k="omkum:old_name" v="Проектируемый проезд N 623"/>
    <tag k="oneway" v="yes"/>
    <tag k="sorting_name" v="Новокрюковская  улица"/>
  </way>
  <way id="84832579" version="8" timestamp="2012-07-21T10:17:41Z" uid="397326" user="trolleway" changeset="12405724">
    <nd ref="877220355"/>
    <nd ref="877214066"/>
    <nd ref="890216920"/>
    <nd ref="891692050"/>
    <nd ref="890205559"/>
    <nd ref="1050231548"/>
    <nd ref="1046118745"/>
    <nd ref="1050231555"/>
    <nd ref="1050231561"/>
    <nd ref="838396590"/>
    <tag k="highway" v="secondary"/>
    <tag k="lanes" v="2"/>
    <tag k="layer" v="0"/>
    <tag k="maxspeed" v="60"/>
    <tag k="name" v="Новокрюковская улица"/>
    <tag k="omkum:code" v="21954"/>
    <tag k="omkum:old_name" v="Проектируемый проезд N 623"/>
    <tag k="oneway" v="yes"/>
    <tag k="sorting_name" v="Новокрюковская  улица"/>
  </way>
  <way id="84832579" version="9" timestamp="2012-07-24T08:35:12Z" uid="241531" user="dik_man" changeset="12461558">
    <nd ref="877220355"/>
    <nd ref="1836258543"/>
    <nd ref="877214066"/>
    <nd ref="890216920"/>
    <nd ref="891692050"/>
    <nd ref="890205559"/>
    <nd ref="1050231548"/>
    <nd ref="1046118745"/>
    <nd ref="1050231555"/>
    <nd ref="1050231561"/>
    <nd ref="838396590"/>
    <tag k="highway" v="secondary"/>
    <tag k="lanes" v="2"/>
    <tag k="layer" v="0"/>
    <tag k="maxspeed" v="60"/>
    <tag k="name" v="Новокрюковская улица"/>
    <tag k="omkum:code" v="21954"/>
    <tag k="omkum:old_name" v="Проектируемый проезд N 623"/>
    <tag k="oneway" v="yes"/>
    <tag k="sorting_name" v="Новокрюковская  улица"/>
  </way>
  <way id="84832579" version="10" timestamp="2012-07-31T05:34:07Z" uid="760861" user="croc_20000" changeset="12556723">
    <nd ref="877220355"/>
    <nd ref="1836258543"/>
    <nd ref="877214066"/>
    <nd ref="890216920"/>
    <nd ref="891692050"/>
    <nd ref="890205559"/>
    <nd ref="1050231548"/>
    <nd ref="1046118745"/>
    <nd ref="1844886527"/>
    <nd ref="1050231555"/>
    <nd ref="1050231561"/>
    <nd ref="838396590"/>
    <tag k="highway" v="secondary"/>
    <tag k="lanes" v="2"/>
    <tag k="layer" v="0"/>
    <tag k="maxspeed" v="60"/>
    <tag k="name" v="Новокрюковская улица"/>
    <tag k="omkum:code" v="21954"/>
    <tag k="omkum:old_name" v="Проектируемый проезд N 623"/>
    <tag k="oneway" v="yes"/>
    <tag k="sorting_name" v="Новокрюковская  улица"/>
  </way>
  <way id="84832579" version="11" timestamp="2012-07-31T06:16:42Z" uid="760861" user="croc_20000" changeset="12557008">
    <nd ref="877220355"/>
    <nd ref="1836258543"/>
    <nd ref="877214066"/>
    <nd ref="890216920"/>
    <nd ref="891692050"/>
    <nd ref="890205559"/>
    <nd ref="1050231548"/>
    <nd ref="1046118745"/>
    <nd ref="1844886527"/>
    <nd ref="1050231555"/>
    <nd ref="1050231561"/>
    <nd ref="1844912857"/>
    <nd ref="838396590"/>
    <tag k="highway" v="secondary"/>
    <tag k="lanes" v="2"/>
    <tag k="layer" v="0"/>
    <tag k="maxspeed" v="60"/>
    <tag k="name" v="Новокрюковская улица"/>
    <tag k="omkum:code" v="21954"/>
    <tag k="omkum:old_name" v="Проектируемый проезд N 623"/>
    <tag k="oneway" v="yes"/>
    <tag k="sorting_name" v="Новокрюковская  улица"/>
  </way>
  <way id="84832580" version="4" timestamp="2012-07-20T23:56:48Z" uid="722137" user="OSMF Redaction Account" changeset="12396619"/>
  <way id="84832581" version="2" timestamp="2012-07-20T23:56:38Z" uid="722137" user="OSMF Redaction Account" changeset="12396619"/>
  <way id="84832582" version="2" timestamp="2012-07-20T23:56:39Z" uid="722137" user="OSMF Redaction Account" changeset="12396619"/>
  <way id="84832652" version="2" timestamp="2012-07-20T23:56:44Z" uid="722137" user="OSMF Redaction Account" changeset="12396619"/>
  <way id="84832974" version="7" timestamp="2012-07-20T23:56:43Z" uid="722137" user="OSMF Redaction Account" changeset="12396619"/>
</osm>
