<?xml version='1.0' encoding='UTF-8'?>
<osm version="0.6" generator="libosmium/2.20.0">
  <way id="84893967" version="1" timestamp="2010-11-11T16:07:58Z" uid="9176" user="Maarten Deen" changeset="6344650">
    <nd ref="258134949"/>
    <nd ref="258135065"/>
    <nd ref="258135078"/>
    <nd ref="258134934"/>
    <tag k="highway" v="primary"/>
    <tag k="int_ref" v="E 28"/>
    <tag k="junction" v="roundabout"/>
    <tag k="name" v="Kuklińskiego"/>
    <tag k="ref" v="6"/>
    <tag k="source" v="UMP-PL, ./UMP-Koszalin/src/SLUPSK.ulice.txt"/>
  </way>
  <way id="84893967" version="2" timestamp="2010-11-12T00:06:51Z" uid="30632" user="antblant" changeset="6348047">
    <nd ref="258134949"/>
    <nd ref="258135065"/>
    <nd ref="258135078"/>
    <nd ref="258134934"/>
    <tag k="highway" v="tertiary"/>
    <tag k="junction" v="roundabout"/>
    <tag k="name" v="Kuklińskiego"/>
    <tag k="source" v="UMP-PL, ./UMP-Koszalin/src/SLUPSK.ulice.txt"/>
  </way>
  <way id="84893967" version="3" timestamp="2010-12-13T17:46:27Z" uid="383006" user="legolas1293" changeset="6649339">
    <nd ref="258134949"/>
    <nd ref="258135065"/>
    <nd ref="258135078"/>
    <nd ref="258134934"/>
    <tag k="highway" v="primary"/>
    <tag k="int_ref" v="E28"/>
    <tag k="junction" v="roundabout"/>
    <tag k="maxspeed" v="50"/>
    <tag k="name" v="Kuklińskiego"/>
    <tag k="ref" v="6"/>
    <tag k="source" v="UMP-PL, ./UMP-Koszalin/src/SLUPSK.ulice.txt"/>
  </way>
  <way id="84893967" version="4" timestamp="2011-03-13T21:49:10Z" uid="30632" user="antblant" changeset="7550942">
    <nd ref="258134949"/>
    <nd ref="258135065"/>
    <nd ref="258135078"/>
    <nd ref="258134934"/>
    <tag k="highway" v="tertiary"/>
    <tag k="junction" v="roundabout"/>
    <tag k="maxspeed" v="50"/>
    <tag k="name" v="Kuklińskiego"/>
    <tag k="source" v="UMP-PL, ./UMP-Koszalin/src/SLUPSK.ulice.txt"/>
  </way>
  <way id="84893967" version="5" timestamp="2011-03-18T07:49:19Z" uid="383006" user="legolas1293" changeset="7592559">
    <nd ref="258134949"/>
    <nd ref="258135065"/>
    <nd ref="258135078"/>
    <nd ref="258134934"/>
    <tag k="highway" v="primary"/>
    <tag k="junction" v="roundabout"/>
    <tag k="maxspeed" v="50"/>
    <tag k="name" v="Kuklińskiego"/>
    <tag k="source" v="UMP-PL, ./UMP-Koszalin/src/SLUPSK.ulice.txt"/>
  </way>
  <way id="84893967" version="6" timestamp="2011-06-14T12:42:34Z" uid="383006" user="legolas1293" changeset="8437021"/>
  <way id="84893969" version="1" timestamp="2010-11-11T16:07:58Z" uid="9176" user="Maarten Deen" changeset="6344650">
    <nd ref="258135086"/>
    <nd ref="258134949"/>
    <tag k="highway" v="primary"/>
    <tag k="junction" v="roundabout"/>
    <tag k="name" v="Kuklińskiego"/>
    <tag k="ref" v="6"/>
    <tag k="source" v="UMP-PL, ./UMP-Koszalin/src/SLUPSK.ulice.txt"/>
  </way>
  <way id="84893969" version="2" timestamp="2010-11-12T00:06:58Z" uid="30632" user="antblant" changeset="6348047">
    <nd ref="258135086"/>
    <nd ref="258134949"/>
    <tag k="highway" v="tertiary"/>
    <tag k="junction" v="roundabout"/>
    <tag k="name" v="Kuklińskiego"/>
    <tag k="source" v="UMP-PL, ./UMP-Koszalin/src/SLUPSK.ulice.txt"/>
  </way>
  <way id="84893969" version="3" timestamp="2010-12-13T17:46:26Z" uid="383006" user="legolas1293" changeset="6649339">
    <nd ref="258135086"/>
    <nd ref="258134949"/>
    <tag k="highway" v="primary"/>
    <tag k="int_ref" v="E28"/>
    <tag k="junction" v="roundabout"/>
    <tag k="maxspeed" v="50"/>
    <tag k="name" v="Kuklińskiego"/>
    <tag k="ref" v="6"/>
    <tag k="source" v="UMP-PL, ./UMP-Koszalin/src/SLUPSK.ulice.txt"/>
  </way>
  <way id="84893969" version="4" timestamp="2011-03-13T21:49:11Z" uid="30632" user="antblant" changeset="7550942">
    <nd ref="258135086"/>
    <nd ref="258134949"/>
    <tag k="highway" v="tertiary"/>
    <tag k="junction" v="roundabout"/>
    <tag k="maxspeed" v="50"/>
    <tag k="name" v="Kuklińskiego"/>
    <tag k="source" v="UMP-PL, ./UMP-Koszalin/src/SLUPSK.ulice.txt"/>
  </way>
  <way id="84893969" version="5" timestamp="2011-03-18T07:49:21Z" uid="383006" user="legolas1293" changeset="7592559">
    <nd ref="258135086"/>
    <nd ref="258134949"/>
    <tag k="highway" v="primary"/>
    <tag k="junction" v="roundabout"/>
    <tag k="maxspeed" v="50"/>
    <tag k="name" v="Kuklińskiego"/>
    <tag k="source" v="UMP-PL, ./UMP-Koszalin/src/SLUPSK.ulice.txt"/>
  </way>
  <way id="84893969" version="6" timestamp="2011-06-14T12:42:34Z" uid="383006" user="legolas1293" changeset="8437021"/>
</osm>
