<?xml version='1.0' encoding='UTF-8'?>
<osm version="0.6" generator="libosmium/2.20.0">
  <way id="84960057" version="1" timestamp="2010-11-11T22:10:07Z" uid="30632" user="antblant" changeset="6347466">
    <nd ref="781539425"/>
    <nd ref="132676075"/>
    <nd ref="132676076"/>
    <nd ref="132676078"/>
    <nd ref="132676082"/>
    <nd ref="132676083"/>
    <nd ref="132676085"/>
    <nd ref="132676087"/>
    <nd ref="132676088"/>
    <nd ref="132676089"/>
    <nd ref="132676090"/>
    <tag k="highway" v="primary"/>
    <tag k="history" v="Retrieved from v2"/>
    <tag k="name" v="Towarowa"/>
    <tag k="ref" v="16"/>
  </way>
  <way id="84960057" version="2" timestamp="2011-03-20T19:08:44Z" uid="338611" user="marek kleciak" changeset="7618166">
    <nd ref="781539425"/>
    <nd ref="132676075"/>
    <nd ref="132676076"/>
    <nd ref="132676078"/>
    <nd ref="132676082"/>
    <nd ref="132676083"/>
    <nd ref="1210927857"/>
    <nd ref="1210926764"/>
    <nd ref="132676085"/>
    <nd ref="1210927393"/>
    <nd ref="1210928370"/>
    <nd ref="1210928688"/>
    <nd ref="132676087"/>
    <nd ref="132676088"/>
    <nd ref="1210927388"/>
    <nd ref="1210928487"/>
    <nd ref="132676089"/>
    <nd ref="1210927543"/>
    <nd ref="132676090"/>
    <tag k="highway" v="primary"/>
    <tag k="history" v="Retrieved from v2"/>
    <tag k="name" v="Towarowa"/>
    <tag k="ref" v="16"/>
  </way>
  <way id="84960057" version="3" timestamp="2012-03-15T11:23:01Z" uid="445142" user="arco" changeset="10987303">
    <nd ref="781539425"/>
    <nd ref="132676075"/>
    <nd ref="132676076"/>
    <nd ref="132676078"/>
    <nd ref="132676082"/>
    <nd ref="1675666878"/>
    <tag k="highway" v="primary"/>
    <tag k="history" v="Retrieved from v2"/>
    <tag k="name" v="Towarowa"/>
    <tag k="ref" v="16"/>
  </way>
  <way id="84960576" version="1" timestamp="2010-11-11T22:16:07Z" uid="30632" user="antblant" changeset="6347466">
    <nd ref="729620526"/>
    <nd ref="729622915"/>
    <nd ref="729617335"/>
    <nd ref="729619391"/>
    <tag k="highway" v="primary"/>
    <tag k="name" v="Kajki"/>
    <tag k="oneway" v="1"/>
    <tag k="ref" v="16;65"/>
    <tag k="source" v="http://ump.waw.pl/ retrieved 16:02:22 01/18/10 (UMP-Suwalki/src/ELK.ulice.txt)"/>
  </way>
  <way id="84960576" version="2" timestamp="2010-11-16T07:24:19Z" uid="30632" user="antblant" changeset="6382958">
    <nd ref="729620526"/>
    <nd ref="729622915"/>
    <nd ref="729617335"/>
    <tag k="highway" v="primary"/>
    <tag k="name" v="Kajki"/>
    <tag k="oneway" v="1"/>
    <tag k="ref" v="16;65"/>
    <tag k="source" v="http://ump.waw.pl/ retrieved 16:02:22 01/18/10 (UMP-Suwalki/src/ELK.ulice.txt)"/>
  </way>
  <way id="84960576" version="3" timestamp="2012-01-17T13:17:49Z" uid="536107" user="RoboD" changeset="10417555">
    <nd ref="729620526"/>
    <nd ref="729622915"/>
    <nd ref="729617335"/>
    <tag k="highway" v="primary"/>
    <tag k="name" v="Wojska Polskiego"/>
    <tag k="oneway" v="1"/>
    <tag k="ref" v="16;65"/>
    <tag k="source" v="http://ump.waw.pl/ retrieved 16:02:22 01/18/10 (UMP-Suwalki/src/ELK.ulice.txt)"/>
  </way>
  <way id="84960576" version="4" timestamp="2012-02-23T20:10:13Z" uid="536107" user="RoboD" changeset="10772022">
    <nd ref="729620526"/>
    <nd ref="729622915"/>
    <nd ref="729617335"/>
    <tag k="highway" v="primary"/>
    <tag k="name" v="Wojska Polskiego"/>
    <tag k="oneway" v="1"/>
    <tag k="ref" v="16;65"/>
  </way>
  <way id="84960576" version="5" timestamp="2012-03-05T11:18:48Z" uid="536107" user="RoboD" changeset="10878200">
    <nd ref="729620526"/>
    <nd ref="729622915"/>
    <nd ref="729617335"/>
    <tag k="highway" v="primary"/>
    <tag k="lanes" v="2"/>
    <tag k="name" v="Wojska Polskiego"/>
    <tag k="oneway" v="1"/>
    <tag k="ref" v="16;65"/>
  </way>
  <way id="84960576" version="6" timestamp="2012-07-08T23:07:09Z" uid="536107" user="RoboD" changeset="12156477">
    <nd ref="729620526"/>
    <nd ref="729622915"/>
    <nd ref="729617335"/>
    <tag k="highway" v="tertiary"/>
    <tag k="lanes" v="2"/>
    <tag k="name" v="Wojska Polskiego"/>
    <tag k="oneway" v="1"/>
    <tag k="ref" v="16;65"/>
  </way>
  <way id="84960576" version="7" timestamp="2012-07-23T08:40:05Z" uid="681295" user="przemas75" changeset="12446630">
    <nd ref="729620526"/>
    <nd ref="729622915"/>
    <nd ref="729617335"/>
    <tag k="highway" v="tertiary"/>
    <tag k="lanes" v="2"/>
    <tag k="name" v="Wojska Polskiego"/>
    <tag k="oneway" v="1"/>
    <tag k="ref" v="65"/>
  </way>
  <way id="84960576" version="8" timestamp="2012-07-23T10:38:34Z" uid="681295" user="przemas75" changeset="12448233">
    <nd ref="729620526"/>
    <nd ref="729622915"/>
    <nd ref="729617335"/>
    <tag k="highway" v="tertiary"/>
    <tag k="lanes" v="2"/>
    <tag k="name" v="Wojska Polskiego"/>
    <tag k="oneway" v="1"/>
    <tag k="ref" v="16;65"/>
  </way>
  <way id="84960576" version="9" timestamp="2012-07-26T08:04:47Z" uid="536107" user="RoboD" changeset="12495702">
    <nd ref="729620526"/>
    <nd ref="729622915"/>
    <nd ref="729617335"/>
    <tag k="highway" v="tertiary"/>
    <tag k="lanes" v="2"/>
    <tag k="name" v="Wojska Polskiego"/>
    <tag k="oneway" v="1"/>
  </way>
</osm>
