<?xml version='1.0' encoding='UTF-8'?>
<osm version="0.6" generator="libosmium/2.20.0">
  <way id="85033020" version="2" timestamp="2011-01-31T11:33:30Z" uid="115477" user="wowik" changeset="7144093">
    <nd ref="983253510"/>
    <nd ref="986781062"/>
    <nd ref="986781063"/>
    <nd ref="986781065"/>
    <tag k="barrier" v="wall"/>
  </way>
  <way id="85033028" version="2" timestamp="2011-01-31T11:33:31Z" uid="115477" user="wowik" changeset="7144093">
    <nd ref="986781097"/>
    <nd ref="986781111"/>
    <tag k="barrier" v="wall"/>
  </way>
  <way id="85033095" version="2" timestamp="2011-01-12T10:25:20Z" uid="115477" user="wowik" changeset="6945653">
    <nd ref="428146906"/>
    <nd ref="428146971"/>
    <nd ref="428146743"/>
    <nd ref="428147025"/>
    <nd ref="428146906"/>
    <tag k="building" v="yes"/>
    <tag k="building:use" v="residential"/>
  </way>
  <way id="85033095" version="3" timestamp="2011-09-10T10:07:14Z" uid="518169" user="kosatov" changeset="9260810"/>
  <way id="85033261" version="3" timestamp="2011-01-30T18:20:28Z" uid="115477" user="wowik" changeset="7137533">
    <nd ref="429590596"/>
    <nd ref="429590522"/>
    <nd ref="429590697"/>
    <nd ref="429590564"/>
    <nd ref="429590813"/>
    <nd ref="429590463"/>
    <nd ref="429590596"/>
    <tag k="building" v="yes"/>
  </way>
  <way id="85033261" version="4" timestamp="2011-09-10T09:02:24Z" uid="518169" user="kosatov" changeset="9260125"/>
  <way id="85033284" version="2" timestamp="2011-01-31T11:03:29Z" uid="115477" user="wowik" changeset="7143926">
    <nd ref="429590879"/>
    <nd ref="429590772"/>
    <nd ref="429590914"/>
    <nd ref="429590638"/>
    <nd ref="429590879"/>
    <tag k="addr:city" v="Зеленоград"/>
    <tag k="addr:housenumber" v="126"/>
    <tag k="addr:street" v="1-й Микрорайон"/>
    <tag k="building" v="yes"/>
    <tag k="is_in" v="Russia"/>
  </way>
  <way id="85033284" version="3" timestamp="2011-06-07T20:49:28Z" uid="133332" user="AMDmi3" changeset="8374030">
    <nd ref="429590879"/>
    <nd ref="429590772"/>
    <nd ref="429590914"/>
    <nd ref="429590638"/>
    <nd ref="429590879"/>
    <tag k="addr:city" v="Зеленоград"/>
    <tag k="addr:housenumber" v="126"/>
    <tag k="addr:street" v="1-й микрорайон"/>
    <tag k="building" v="yes"/>
    <tag k="is_in" v="Russia"/>
  </way>
  <way id="85033284" version="4" timestamp="2011-09-10T08:54:13Z" uid="518169" user="kosatov" changeset="9260125">
    <nd ref="429590879"/>
    <nd ref="429590772"/>
    <nd ref="429590914"/>
    <nd ref="429590638"/>
    <nd ref="1428662773"/>
    <nd ref="1428662772"/>
    <nd ref="429590879"/>
    <tag k="addr:city" v="Зеленоград"/>
    <tag k="addr:housenumber" v="126"/>
    <tag k="addr:street" v="1-й микрорайон"/>
    <tag k="building" v="yes"/>
    <tag k="is_in" v="Russia"/>
  </way>
  <way id="85033284" version="5" timestamp="2011-09-13T10:22:08Z" uid="29320" user="Komяpa" changeset="9288237">
    <nd ref="429590879"/>
    <nd ref="429590772"/>
    <nd ref="429590914"/>
    <nd ref="429590638"/>
    <nd ref="1428662773"/>
    <nd ref="1428662772"/>
    <nd ref="429590879"/>
    <tag k="addr:city" v="Зеленоград"/>
    <tag k="addr:country" v="RU"/>
    <tag k="addr:housenumber" v="126"/>
    <tag k="addr:street" v="1-й микрорайон"/>
    <tag k="building" v="yes"/>
  </way>
  <way id="85033284" version="6" timestamp="2011-10-28T10:33:37Z" uid="481934" user="iWowik" changeset="9675276">
    <nd ref="429590879"/>
    <nd ref="429590772"/>
    <nd ref="429590914"/>
    <nd ref="429590638"/>
    <nd ref="1428662773"/>
    <nd ref="1428662772"/>
    <nd ref="429590879"/>
    <tag k="addr:city" v="Зеленоград"/>
    <tag k="addr:country" v="RU"/>
    <tag k="addr:housenumber" v="126"/>
    <tag k="addr:street" v="1-й Микрорайон"/>
    <tag k="building" v="yes"/>
  </way>
  <way id="85033284" version="7" timestamp="2011-11-14T20:31:38Z" uid="133332" user="AMDmi3" changeset="9828527">
    <nd ref="429590879"/>
    <nd ref="429590772"/>
    <nd ref="429590914"/>
    <nd ref="429590638"/>
    <nd ref="1428662773"/>
    <nd ref="1428662772"/>
    <nd ref="429590879"/>
    <tag k="addr:city" v="Зеленоград"/>
    <tag k="addr:country" v="RU"/>
    <tag k="addr:housenumber" v="126"/>
    <tag k="addr:street" v="1-й микрорайон"/>
    <tag k="building" v="yes"/>
  </way>
  <way id="85033284" version="8" timestamp="2011-11-15T16:21:25Z" uid="481934" user="iWowik" changeset="9836117">
    <nd ref="429590879"/>
    <nd ref="429590772"/>
    <nd ref="429590914"/>
    <nd ref="1504086847"/>
    <nd ref="429590638"/>
    <nd ref="1428662772"/>
    <nd ref="429590879"/>
    <tag k="addr:city" v="Зеленоград"/>
    <tag k="addr:country" v="RU"/>
    <tag k="addr:housenumber" v="126"/>
    <tag k="addr:street" v="1-й микрорайон"/>
    <tag k="building" v="yes"/>
  </way>
  <way id="85033284" version="9" timestamp="2012-03-27T11:35:02Z" uid="481934" user="iWowik" changeset="11115472">
    <nd ref="429590879"/>
    <nd ref="429590772"/>
    <nd ref="429590914"/>
    <nd ref="1504086847"/>
    <nd ref="429590638"/>
    <nd ref="1428662772"/>
    <nd ref="429590879"/>
    <tag k="addr:city" v="Зеленоград"/>
    <tag k="addr:country" v="RU"/>
    <tag k="addr:housenumber" v="126"/>
    <tag k="addr:region" v="Москва"/>
    <tag k="addr:street" v="1-й микрорайон"/>
    <tag k="building" v="yes"/>
  </way>
  <way id="85033517" version="3" timestamp="2010-11-13T09:40:17Z" uid="115477" user="wowik" changeset="6356660">
    <nd ref="429591039"/>
    <nd ref="983105202"/>
    <nd ref="429590927"/>
    <nd ref="429590420"/>
    <nd ref="429591039"/>
    <tag k="addr:city" v="Зеленоград"/>
    <tag k="addr:housenumber" v="106"/>
    <tag k="addr:street" v="1-й Микрорайон"/>
    <tag k="building" v="yes"/>
    <tag k="is_in" v="Russia"/>
  </way>
  <way id="85033517" version="4" timestamp="2011-04-01T17:48:03Z" uid="115477" user="wowik" changeset="7737524">
    <nd ref="429591039"/>
    <nd ref="983105202"/>
    <nd ref="429590927"/>
    <nd ref="429590420"/>
    <nd ref="429591039"/>
    <tag k="building" v="yes"/>
  </way>
  <way id="85033517" version="5" timestamp="2011-09-10T08:48:57Z" uid="518169" user="kosatov" changeset="9260125"/>
  <way id="85033841" version="2" timestamp="2011-01-12T10:25:15Z" uid="115477" user="wowik" changeset="6945653">
    <nd ref="428590051"/>
    <nd ref="428589956"/>
    <nd ref="982632206"/>
    <nd ref="982632372"/>
    <nd ref="428589973"/>
    <nd ref="428590220"/>
    <nd ref="982632146"/>
    <nd ref="982632231"/>
    <nd ref="982632400"/>
    <nd ref="982632129"/>
    <nd ref="428590241"/>
    <nd ref="428589882"/>
    <nd ref="982632472"/>
    <nd ref="982632300"/>
    <nd ref="428589931"/>
    <nd ref="428589880"/>
    <nd ref="428590326"/>
    <nd ref="428590051"/>
    <tag k="building" v="yes"/>
    <tag k="building:use" v="residential"/>
  </way>
  <way id="85033841" version="3" timestamp="2011-01-12T16:44:42Z" uid="115477" user="wowik" changeset="6948926">
    <nd ref="428590051"/>
    <nd ref="428589956"/>
    <nd ref="982632206"/>
    <nd ref="982632372"/>
    <nd ref="428589973"/>
    <nd ref="428590220"/>
    <nd ref="982632146"/>
    <nd ref="982632231"/>
    <nd ref="982632400"/>
    <nd ref="982632129"/>
    <nd ref="428590241"/>
    <nd ref="428589882"/>
    <nd ref="982632472"/>
    <nd ref="982632300"/>
    <nd ref="428589931"/>
    <nd ref="428589880"/>
    <nd ref="428590326"/>
    <nd ref="428590051"/>
    <tag k="addr:postcode" v="124482"/>
    <tag k="building" v="yes"/>
    <tag k="building:use" v="residential"/>
  </way>
  <way id="85033841" version="4" timestamp="2011-09-12T17:08:54Z" uid="518169" user="kosatov" changeset="9281941"/>
  <way id="85033020" version="3" timestamp="2012-07-20T16:35:36Z" uid="722137" user="OSMF Redaction Account" changeset="12383572">
    <nd ref="986781062"/>
    <nd ref="986781063"/>
    <nd ref="986781065"/>
    <tag k="barrier" v="wall"/>
  </way>
  <way id="85033028" version="3" timestamp="2012-07-20T15:49:26Z" uid="722137" user="OSMF Redaction Account" changeset="12381828"/>
  <way id="85033284" version="10" timestamp="2012-08-14T21:18:37Z" uid="109327" user="OverQuantum" changeset="12732120">
    <nd ref="429590879"/>
    <nd ref="429590772"/>
    <nd ref="429590914"/>
    <nd ref="1504086847"/>
    <nd ref="429590638"/>
    <nd ref="1428662772"/>
    <nd ref="429590879"/>
    <tag k="addr:city" v="Зеленоград"/>
    <tag k="addr:country" v="RU"/>
    <tag k="addr:housenumber" v="126"/>
    <tag k="addr:region" v="Москва"/>
    <tag k="addr:street" v="1-й микрорайон"/>
    <tag k="building" v="yes"/>
    <tag k="building:use" v="residential"/>
  </way>
</osm>
