<?xml version='1.0' encoding='UTF-8'?>
<osm version="0.6" generator="libosmium/2.20.0">
  <way id="85105443" version="1" timestamp="2010-11-13T03:48:59Z" uid="30632" user="antblant" changeset="6355746">
    <nd ref="987289562"/>
    <nd ref="507006311"/>
    <nd ref="507006314"/>
    <nd ref="455895274"/>
    <tag k="highway" v="primary"/>
    <tag k="int_ref" v="E77"/>
    <tag k="oneway" v="yes"/>
    <tag k="ref" v="7"/>
    <tag k="source:name" v="landsat"/>
  </way>
  <way id="85105444" version="1" timestamp="2010-11-13T03:48:59Z" uid="30632" user="antblant" changeset="6355746">
    <nd ref="455925131"/>
    <nd ref="147743311"/>
    <nd ref="276774695"/>
    <nd ref="147743305"/>
    <nd ref="147743301"/>
    <nd ref="276774697"/>
    <nd ref="147743299"/>
    <nd ref="276774698"/>
    <nd ref="276774699"/>
    <nd ref="276774701"/>
    <nd ref="965085039"/>
    <nd ref="965084591"/>
    <nd ref="147743293"/>
    <nd ref="276774702"/>
    <nd ref="147743289"/>
    <nd ref="276774704"/>
    <nd ref="147743285"/>
    <nd ref="276774706"/>
    <nd ref="130711429"/>
    <nd ref="147743280"/>
    <nd ref="276774708"/>
    <nd ref="147743274"/>
    <nd ref="147743269"/>
    <nd ref="276774710"/>
    <nd ref="147743264"/>
    <nd ref="276774712"/>
    <nd ref="147743259"/>
    <nd ref="276774718"/>
    <nd ref="276774715"/>
    <nd ref="147743254"/>
    <nd ref="147743250"/>
    <nd ref="147743246"/>
    <nd ref="147743242"/>
    <nd ref="147743238"/>
    <nd ref="147743234"/>
    <nd ref="276774720"/>
    <nd ref="147743228"/>
    <nd ref="147743222"/>
    <nd ref="326239432"/>
    <nd ref="147743216"/>
    <nd ref="276774722"/>
    <nd ref="147743210"/>
    <nd ref="147743206"/>
    <nd ref="147743202"/>
    <nd ref="276774723"/>
    <nd ref="276774725"/>
    <tag k="highway" v="primary"/>
    <tag k="int_ref" v="E77"/>
    <tag k="ref" v="7"/>
  </way>
  <way id="85105444" version="2" timestamp="2011-02-23T16:52:53Z" uid="163896" user="Zbigniew Czernik" changeset="7374112">
    <nd ref="455925131"/>
    <nd ref="147743311"/>
    <nd ref="276774695"/>
    <nd ref="1168497287"/>
    <nd ref="147743305"/>
    <nd ref="147743301"/>
    <nd ref="276774697"/>
    <nd ref="147743299"/>
    <nd ref="276774698"/>
    <nd ref="276774699"/>
    <nd ref="276774701"/>
    <nd ref="965085039"/>
    <nd ref="965084591"/>
    <nd ref="147743293"/>
    <nd ref="276774702"/>
    <nd ref="147743289"/>
    <nd ref="276774704"/>
    <nd ref="147743285"/>
    <nd ref="276774706"/>
    <nd ref="130711429"/>
    <nd ref="147743280"/>
    <nd ref="276774708"/>
    <nd ref="147743274"/>
    <nd ref="147743269"/>
    <nd ref="276774710"/>
    <nd ref="147743264"/>
    <nd ref="276774712"/>
    <nd ref="147743259"/>
    <nd ref="276774718"/>
    <nd ref="276774715"/>
    <nd ref="147743254"/>
    <nd ref="147743250"/>
    <nd ref="147743246"/>
    <nd ref="147743242"/>
    <nd ref="147743238"/>
    <nd ref="147743234"/>
    <nd ref="276774720"/>
    <nd ref="147743228"/>
    <nd ref="147743222"/>
    <nd ref="326239432"/>
    <nd ref="147743216"/>
    <nd ref="276774722"/>
    <nd ref="147743210"/>
    <nd ref="147743206"/>
    <nd ref="147743202"/>
    <nd ref="276774723"/>
    <nd ref="276774725"/>
    <tag k="highway" v="primary"/>
    <tag k="int_ref" v="E77"/>
    <tag k="ref" v="7"/>
  </way>
  <way id="85105444" version="3" timestamp="2011-02-23T19:05:02Z" uid="163896" user="Zbigniew Czernik" changeset="7375313">
    <nd ref="455925131"/>
    <nd ref="147743311"/>
    <nd ref="276774695"/>
    <nd ref="1168497287"/>
    <nd ref="147743305"/>
    <nd ref="147743301"/>
    <nd ref="276774697"/>
    <nd ref="147743299"/>
    <nd ref="276774698"/>
    <nd ref="276774699"/>
    <nd ref="276774701"/>
    <nd ref="965085039"/>
    <nd ref="965084591"/>
    <nd ref="147743293"/>
    <nd ref="276774702"/>
    <nd ref="147743289"/>
    <nd ref="276774704"/>
    <nd ref="147743285"/>
    <nd ref="276774706"/>
    <nd ref="130711429"/>
    <nd ref="147743280"/>
    <nd ref="276774708"/>
    <nd ref="147743274"/>
    <nd ref="147743269"/>
    <nd ref="276774710"/>
    <nd ref="147743264"/>
    <nd ref="276774712"/>
    <nd ref="147743259"/>
    <nd ref="276774718"/>
    <nd ref="276774715"/>
    <nd ref="147743254"/>
    <nd ref="147743250"/>
    <nd ref="147743246"/>
    <nd ref="147743242"/>
    <nd ref="147743238"/>
    <nd ref="147743234"/>
    <nd ref="276774720"/>
    <nd ref="147743228"/>
    <nd ref="147743222"/>
    <nd ref="326239432"/>
    <nd ref="147743216"/>
    <nd ref="276774722"/>
    <nd ref="147743210"/>
    <nd ref="1168665929"/>
    <nd ref="147743206"/>
    <nd ref="147743202"/>
    <nd ref="276774723"/>
    <nd ref="276774725"/>
    <tag k="highway" v="primary"/>
    <tag k="int_ref" v="E77"/>
    <tag k="ref" v="7"/>
  </way>
  <way id="85105445" version="1" timestamp="2010-11-13T03:49:00Z" uid="30632" user="antblant" changeset="6355746">
    <nd ref="987289565"/>
    <nd ref="507006307"/>
    <nd ref="507006309"/>
    <nd ref="507006306"/>
    <nd ref="507006310"/>
    <nd ref="455895273"/>
    <nd ref="507006299"/>
    <nd ref="455895272"/>
    <nd ref="507006298"/>
    <nd ref="507006295"/>
    <nd ref="455895271"/>
    <tag k="highway" v="primary"/>
    <tag k="int_ref" v="E77"/>
    <tag k="oneway" v="yes"/>
    <tag k="ref" v="59"/>
    <tag k="source:name" v="landsat"/>
  </way>
  <way id="85105529" version="1" timestamp="2010-11-13T03:52:37Z" uid="30632" user="antblant" changeset="6355749">
    <nd ref="341920875"/>
    <nd ref="430671964"/>
    <nd ref="243691149"/>
    <nd ref="276754972"/>
    <nd ref="243691150"/>
    <tag k="highway" v="trunk_link"/>
    <tag k="lanes" v="2"/>
    <tag k="oneway" v="yes"/>
  </way>
  <way id="85105529" version="2" timestamp="2011-03-09T00:38:36Z" uid="163896" user="Zbigniew Czernik" changeset="7500134">
    <nd ref="341920875"/>
    <nd ref="1193675446"/>
    <nd ref="430671964"/>
    <nd ref="243691149"/>
    <nd ref="276754972"/>
    <nd ref="1193674166"/>
    <nd ref="243691150"/>
    <tag k="highway" v="trunk_link"/>
    <tag k="lanes" v="2"/>
    <tag k="oneway" v="yes"/>
  </way>
  <way id="85105529" version="3" timestamp="2011-06-19T13:05:34Z" uid="163896" user="Zbigniew Czernik" changeset="8483639">
    <nd ref="341920875"/>
    <nd ref="1193675446"/>
    <nd ref="430671964"/>
    <nd ref="243691149"/>
    <nd ref="276754972"/>
    <nd ref="1193674166"/>
    <nd ref="243691150"/>
    <tag k="highway" v="secondary_link"/>
    <tag k="lanes" v="2"/>
    <tag k="oneway" v="yes"/>
  </way>
  <way id="85105529" version="4" timestamp="2011-06-19T13:07:34Z" uid="163896" user="Zbigniew Czernik" changeset="8483639">
    <nd ref="1330790313"/>
    <nd ref="1330790321"/>
    <nd ref="1193675446"/>
    <nd ref="430671964"/>
    <nd ref="243691149"/>
    <nd ref="276754972"/>
    <nd ref="1193674166"/>
    <nd ref="1330790323"/>
    <nd ref="1330790316"/>
    <tag k="highway" v="secondary_link"/>
    <tag k="lanes" v="2"/>
    <tag k="oneway" v="yes"/>
  </way>
  <way id="85105529" version="5" timestamp="2011-07-15T17:00:26Z" uid="383893" user="Diddy2010" changeset="8732950"/>
  <way id="85105530" version="1" timestamp="2010-11-13T03:52:38Z" uid="30632" user="antblant" changeset="6355749">
    <nd ref="147784826"/>
    <nd ref="276754971"/>
    <nd ref="147766295"/>
    <nd ref="430671960"/>
    <nd ref="276754962"/>
    <nd ref="276754960"/>
    <tag k="highway" v="trunk_link"/>
    <tag k="lanes" v="2"/>
    <tag k="oneway" v="yes"/>
  </way>
  <way id="85105530" version="2" timestamp="2011-03-09T00:37:55Z" uid="163896" user="Zbigniew Czernik" changeset="7500134">
    <nd ref="147784826"/>
    <nd ref="276754971"/>
    <nd ref="147766295"/>
    <nd ref="430671960"/>
    <nd ref="276754962"/>
    <nd ref="1193673368"/>
    <nd ref="276754960"/>
    <tag k="highway" v="trunk_link"/>
    <tag k="lanes" v="2"/>
    <tag k="oneway" v="yes"/>
  </way>
  <way id="85105530" version="3" timestamp="2011-06-19T13:05:34Z" uid="163896" user="Zbigniew Czernik" changeset="8483639">
    <nd ref="147784826"/>
    <nd ref="276754971"/>
    <nd ref="147766295"/>
    <nd ref="430671960"/>
    <nd ref="276754962"/>
    <nd ref="1193673368"/>
    <nd ref="276754960"/>
    <tag k="highway" v="secondary_link"/>
    <tag k="lanes" v="2"/>
    <tag k="oneway" v="yes"/>
  </way>
  <way id="85105530" version="4" timestamp="2011-06-19T13:07:34Z" uid="163896" user="Zbigniew Czernik" changeset="8483639">
    <nd ref="1330790312"/>
    <nd ref="1330790311"/>
    <nd ref="276754971"/>
    <nd ref="147766295"/>
    <nd ref="430671960"/>
    <nd ref="276754962"/>
    <nd ref="1193673368"/>
    <nd ref="1330790309"/>
    <nd ref="1330790324"/>
    <tag k="highway" v="secondary_link"/>
    <tag k="lanes" v="2"/>
    <tag k="oneway" v="yes"/>
  </way>
  <way id="85105530" version="5" timestamp="2011-07-15T17:00:26Z" uid="383893" user="Diddy2010" changeset="8732950">
    <nd ref="1330790312"/>
    <nd ref="1330790311"/>
    <nd ref="276754971"/>
    <nd ref="147766295"/>
    <tag k="highway" v="trunk_link"/>
    <tag k="lanes" v="2"/>
    <tag k="oneway" v="yes"/>
  </way>
  <way id="85105530" version="6" timestamp="2011-07-21T18:37:33Z" uid="338064" user="bombka190" changeset="8791248">
    <nd ref="1330790312"/>
    <nd ref="1330790311"/>
    <nd ref="276754971"/>
    <nd ref="147766295"/>
    <tag k="highway" v="trunk_link"/>
    <tag k="lanes" v="2"/>
    <tag k="name" v="Węzeł Myślenice-Centrum"/>
    <tag k="oneway" v="yes"/>
  </way>
  <way id="85105530" version="7" timestamp="2011-12-14T09:37:01Z" uid="383893" user="Diddy2010" changeset="10114261">
    <nd ref="1330790312"/>
    <nd ref="1330790311"/>
    <nd ref="276754971"/>
    <nd ref="147766295"/>
    <tag k="highway" v="trunk_link"/>
    <tag k="lanes" v="2"/>
    <tag k="oneway" v="yes"/>
  </way>
  <way id="85105531" version="1" timestamp="2010-11-13T03:52:38Z" uid="30632" user="antblant" changeset="6355749">
    <nd ref="276754960"/>
    <nd ref="243691126"/>
    <tag k="highway" v="trunk"/>
    <tag k="int_ref" v="E77"/>
    <tag k="lanes" v="2"/>
    <tag k="oneway" v="yes"/>
    <tag k="ref" v="S7"/>
  </way>
  <way id="85105531" version="2" timestamp="2011-03-09T00:38:09Z" uid="163896" user="Zbigniew Czernik" changeset="7500134">
    <nd ref="276754960"/>
    <nd ref="243691126"/>
    <tag k="highway" v="trunk"/>
    <tag k="int_ref" v="E77"/>
    <tag k="lanes" v="2"/>
    <tag k="name" v="Krakowska"/>
    <tag k="oneway" v="yes"/>
    <tag k="ref" v="S7"/>
  </way>
  <way id="85105531" version="3" timestamp="2011-06-19T13:07:33Z" uid="163896" user="Zbigniew Czernik" changeset="8483639">
    <nd ref="276754960"/>
    <nd ref="1330790324"/>
    <nd ref="243691126"/>
    <tag k="highway" v="trunk"/>
    <tag k="int_ref" v="E77"/>
    <tag k="lanes" v="2"/>
    <tag k="name" v="Krakowska"/>
    <tag k="oneway" v="yes"/>
    <tag k="ref" v="S7"/>
  </way>
  <way id="85105532" version="1" timestamp="2010-11-13T03:52:38Z" uid="30632" user="antblant" changeset="6355749">
    <nd ref="243691150"/>
    <nd ref="243691151"/>
    <nd ref="276754974"/>
    <tag k="highway" v="trunk"/>
    <tag k="int_ref" v="E77"/>
    <tag k="lanes" v="2"/>
    <tag k="oneway" v="yes"/>
    <tag k="ref" v="S7"/>
  </way>
  <way id="85105532" version="2" timestamp="2011-03-09T00:38:05Z" uid="163896" user="Zbigniew Czernik" changeset="7500134">
    <nd ref="243691150"/>
    <nd ref="243691151"/>
    <nd ref="276754974"/>
    <tag k="highway" v="trunk"/>
    <tag k="int_ref" v="E77"/>
    <tag k="lanes" v="2"/>
    <tag k="name" v="Krakowska"/>
    <tag k="oneway" v="yes"/>
    <tag k="ref" v="S7"/>
  </way>
  <way id="85105532" version="3" timestamp="2011-06-19T13:07:33Z" uid="163896" user="Zbigniew Czernik" changeset="8483639">
    <nd ref="243691150"/>
    <nd ref="1330790316"/>
    <nd ref="243691151"/>
    <nd ref="276754974"/>
    <tag k="highway" v="trunk"/>
    <tag k="int_ref" v="E77"/>
    <tag k="lanes" v="2"/>
    <tag k="name" v="Krakowska"/>
    <tag k="oneway" v="yes"/>
    <tag k="ref" v="S7"/>
  </way>
  <way id="85105532" version="4" timestamp="2011-06-19T13:21:41Z" uid="163896" user="Zbigniew Czernik" changeset="8483639">
    <nd ref="243691150"/>
    <nd ref="1330790316"/>
    <nd ref="243691151"/>
    <nd ref="1330802541"/>
    <nd ref="276754974"/>
    <tag k="highway" v="trunk"/>
    <tag k="int_ref" v="E77"/>
    <tag k="lanes" v="2"/>
    <tag k="name" v="Krakowska"/>
    <tag k="oneway" v="yes"/>
    <tag k="ref" v="S7"/>
  </way>
  <way id="85105734" version="1" timestamp="2010-11-13T04:06:01Z" uid="30632" user="antblant" changeset="6355769">
    <nd ref="206343893"/>
    <nd ref="206343914"/>
    <nd ref="271111416"/>
    <nd ref="206343915"/>
    <tag k="highway" v="primary"/>
    <tag k="int_ref" v="E77"/>
    <tag k="lanes" v="2"/>
    <tag k="name" v="rondo Ofiar Katynia"/>
    <tag k="oneway" v="yes"/>
    <tag k="ref" v="79, 94"/>
  </way>
  <way id="85105734" version="2" timestamp="2011-08-23T14:04:06Z" uid="338064" user="bombka190" changeset="9103987">
    <nd ref="206343893"/>
    <nd ref="206343914"/>
    <nd ref="271111416"/>
    <nd ref="206343915"/>
    <tag k="highway" v="primary"/>
    <tag k="int_ref" v="E77"/>
    <tag k="lanes" v="2"/>
    <tag k="name" v="rondo Ofiar Katynia"/>
    <tag k="oneway" v="yes"/>
    <tag k="ref" v="79"/>
  </way>
  <way id="85105734" version="3" timestamp="2011-10-15T12:32:15Z" uid="416579" user="Freddie Chopin" changeset="9563087">
    <nd ref="206343893"/>
    <nd ref="271111416"/>
    <nd ref="206343915"/>
    <tag k="highway" v="primary"/>
    <tag k="int_ref" v="E77"/>
    <tag k="lanes" v="2"/>
    <tag k="name" v="rondo Ofiar Katynia"/>
    <tag k="oneway" v="yes"/>
    <tag k="ref" v="79"/>
  </way>
  <way id="85105734" version="4" timestamp="2011-10-28T20:28:08Z" uid="529455" user="JaMar" changeset="9680056">
    <nd ref="206343893"/>
    <nd ref="271111416"/>
    <nd ref="206343915"/>
    <tag k="highway" v="primary"/>
    <tag k="int_ref" v="E77"/>
    <tag k="lanes" v="3"/>
    <tag k="name" v="Rondo Ofiar Katynia"/>
    <tag k="oneway" v="yes"/>
    <tag k="ref" v="79, 94, 7"/>
  </way>
  <way id="85105734" version="5" timestamp="2011-11-16T09:07:14Z" uid="529455" user="JaMar" changeset="9842346"/>
  <way id="85105735" version="1" timestamp="2010-11-13T04:06:02Z" uid="30632" user="antblant" changeset="6355769">
    <nd ref="206226748"/>
    <nd ref="206226747"/>
    <nd ref="206226746"/>
    <nd ref="206226745"/>
    <nd ref="206226744"/>
    <nd ref="206226742"/>
    <tag k="highway" v="motorway"/>
    <tag k="int_ref" v="E 40"/>
    <tag k="oneway" v="yes"/>
    <tag k="ref" v="A4"/>
  </way>
  <way id="85105736" version="1" timestamp="2010-11-13T04:06:02Z" uid="30632" user="antblant" changeset="6355769">
    <nd ref="316696432"/>
    <nd ref="264756253"/>
    <nd ref="264756254"/>
    <nd ref="264756255"/>
    <nd ref="264756256"/>
    <nd ref="264756258"/>
    <nd ref="236178229"/>
    <tag k="highway" v="primary_link"/>
    <tag k="oneway" v="yes"/>
  </way>
  <way id="85105736" version="2" timestamp="2011-10-13T00:01:05Z" uid="164910" user="ppece" changeset="9543609">
    <nd ref="316696432"/>
    <nd ref="1464599458"/>
    <nd ref="264756253"/>
    <nd ref="1464599453"/>
    <nd ref="264756254"/>
    <nd ref="1464599452"/>
    <nd ref="264756255"/>
    <nd ref="1464599451"/>
    <nd ref="264756256"/>
    <nd ref="1464599450"/>
    <nd ref="264756258"/>
    <nd ref="236178229"/>
    <tag k="highway" v="primary_link"/>
    <tag k="oneway" v="yes"/>
  </way>
  <way id="85105736" version="3" timestamp="2011-12-12T17:28:21Z" uid="524053" user="k11" changeset="10101064">
    <nd ref="316696432"/>
    <nd ref="1464599458"/>
    <nd ref="264756253"/>
    <nd ref="1464599453"/>
    <nd ref="264756254"/>
    <nd ref="1464599452"/>
    <nd ref="264756255"/>
    <nd ref="1464599451"/>
    <nd ref="264756256"/>
    <nd ref="1464599450"/>
    <nd ref="264756258"/>
    <nd ref="236178229"/>
    <tag k="highway" v="secondary_link"/>
    <tag k="oneway" v="yes"/>
  </way>
  <way id="85105737" version="1" timestamp="2010-11-13T04:06:02Z" uid="30632" user="antblant" changeset="6355769">
    <nd ref="264756248"/>
    <nd ref="264756249"/>
    <nd ref="322921009"/>
    <nd ref="264756250"/>
    <nd ref="264756251"/>
    <tag k="highway" v="primary_link"/>
    <tag k="oneway" v="yes"/>
    <tag k="ref" v="7"/>
  </way>
  <way id="85105737" version="2" timestamp="2011-12-12T17:28:21Z" uid="524053" user="k11" changeset="10101064">
    <nd ref="264756248"/>
    <nd ref="264756249"/>
    <nd ref="322921009"/>
    <nd ref="264756250"/>
    <nd ref="264756251"/>
    <tag k="highway" v="secondary_link"/>
    <tag k="oneway" v="yes"/>
    <tag k="ref" v="7"/>
  </way>
  <way id="85105738" version="1" timestamp="2010-11-13T04:06:02Z" uid="30632" user="antblant" changeset="6355769">
    <nd ref="316696432"/>
    <nd ref="316696431"/>
    <nd ref="316696430"/>
    <nd ref="321373873"/>
    <nd ref="322065409"/>
    <nd ref="322065410"/>
    <nd ref="769195142"/>
    <nd ref="322065411"/>
    <nd ref="322512869"/>
    <nd ref="322634503"/>
    <nd ref="322065413"/>
    <nd ref="322065414"/>
    <nd ref="243381406"/>
    <tag k="highway" v="primary"/>
    <tag k="int_ref" v="E77"/>
    <tag k="name" v="aleja 29-go Listopada"/>
    <tag k="oneway" v="yes"/>
    <tag k="ref" v="7"/>
  </way>
  <way id="85105738" version="2" timestamp="2011-01-03T21:33:40Z" uid="163896" user="Zbigniew Czernik" changeset="6855074">
    <nd ref="316696432"/>
    <nd ref="316696431"/>
    <nd ref="316696430"/>
    <nd ref="321373873"/>
    <nd ref="322065409"/>
    <nd ref="322065410"/>
    <nd ref="769195142"/>
    <nd ref="322065411"/>
    <nd ref="322512869"/>
    <nd ref="1081064173"/>
    <nd ref="322634503"/>
    <nd ref="322065413"/>
    <nd ref="322065414"/>
    <nd ref="243381406"/>
    <tag k="highway" v="primary"/>
    <tag k="int_ref" v="E77"/>
    <tag k="name" v="aleja 29-go Listopada"/>
    <tag k="oneway" v="yes"/>
    <tag k="ref" v="7"/>
  </way>
  <way id="85105738" version="3" timestamp="2011-04-10T22:43:14Z" uid="164910" user="ppece" changeset="7828470">
    <nd ref="316696432"/>
    <nd ref="316696431"/>
    <nd ref="316696430"/>
    <nd ref="321373873"/>
    <nd ref="1240403611"/>
    <nd ref="322065409"/>
    <nd ref="322065410"/>
    <nd ref="769195142"/>
    <nd ref="322065411"/>
    <nd ref="322512869"/>
    <nd ref="1081064173"/>
    <nd ref="322634503"/>
    <nd ref="322065413"/>
    <nd ref="322065414"/>
    <nd ref="243381406"/>
    <tag k="highway" v="primary"/>
    <tag k="int_ref" v="E77"/>
    <tag k="name" v="aleja 29-go Listopada"/>
    <tag k="oneway" v="yes"/>
    <tag k="ref" v="7"/>
  </way>
  <way id="85105738" version="4" timestamp="2011-06-15T20:14:05Z" uid="466450" user="mcik" changeset="8450092">
    <nd ref="316696432"/>
    <nd ref="316696431"/>
    <nd ref="316696430"/>
    <nd ref="321373873"/>
    <nd ref="1240403611"/>
    <nd ref="322065409"/>
    <nd ref="322065410"/>
    <nd ref="1326821282"/>
    <nd ref="769195142"/>
    <nd ref="322065411"/>
    <nd ref="322512869"/>
    <nd ref="1081064173"/>
    <nd ref="322634503"/>
    <nd ref="322065413"/>
    <nd ref="322065414"/>
    <nd ref="243381406"/>
    <tag k="highway" v="primary"/>
    <tag k="int_ref" v="E77"/>
    <tag k="name" v="aleja 29-go Listopada"/>
    <tag k="oneway" v="yes"/>
    <tag k="ref" v="7"/>
  </way>
  <way id="85105738" version="5" timestamp="2011-07-24T21:06:42Z" uid="452548" user="yerry_b" changeset="8821156">
    <nd ref="316696432"/>
    <nd ref="316696431"/>
    <nd ref="316696430"/>
    <nd ref="321373873"/>
    <nd ref="1240403611"/>
    <nd ref="322065409"/>
    <nd ref="322065410"/>
    <nd ref="1326821282"/>
    <nd ref="769195142"/>
    <nd ref="322065411"/>
    <nd ref="322512869"/>
    <nd ref="1081064173"/>
    <nd ref="322634503"/>
    <nd ref="322065413"/>
    <nd ref="322065414"/>
    <nd ref="243381406"/>
    <tag k="highway" v="primary"/>
    <tag k="int_ref" v="E77"/>
    <tag k="name" v="Aleja 29 Listopada"/>
    <tag k="oneway" v="yes"/>
    <tag k="ref" v="7"/>
  </way>
  <way id="85105738" version="6" timestamp="2011-09-27T00:07:47Z" uid="467703" user="Zbigniew Czernik" changeset="9406907">
    <nd ref="316696432"/>
    <nd ref="316696431"/>
    <nd ref="316696430"/>
    <nd ref="1446680228"/>
    <nd ref="321373873"/>
    <nd ref="1240403611"/>
    <nd ref="322065409"/>
    <nd ref="322065410"/>
    <nd ref="1326821282"/>
    <nd ref="769195142"/>
    <nd ref="322065411"/>
    <nd ref="322512869"/>
    <nd ref="1081064173"/>
    <nd ref="322634503"/>
    <nd ref="322065413"/>
    <nd ref="322065414"/>
    <nd ref="243381406"/>
    <tag k="highway" v="primary"/>
    <tag k="int_ref" v="E77"/>
    <tag k="name" v="Aleja 29 Listopada"/>
    <tag k="oneway" v="yes"/>
    <tag k="ref" v="7"/>
  </way>
  <way id="85105739" version="1" timestamp="2010-11-13T04:06:03Z" uid="30632" user="antblant" changeset="6355769">
    <nd ref="264756248"/>
    <nd ref="32063393"/>
    <nd ref="236228199"/>
    <tag k="highway" v="primary"/>
    <tag k="name" v="aleja 29-go Listopada"/>
    <tag k="oneway" v="yes"/>
  </way>
  <way id="85105739" version="2" timestamp="2011-08-26T20:36:20Z" uid="452548" user="yerry_b" changeset="9132837">
    <nd ref="264756248"/>
    <nd ref="32063393"/>
    <nd ref="236228199"/>
    <tag k="highway" v="primary"/>
    <tag k="name" v="Aleja 29 Listopada"/>
    <tag k="oneway" v="yes"/>
  </way>
  <way id="85105738" version="7" timestamp="2012-05-08T19:23:16Z" uid="9475" user="Slawek Maderak" changeset="11542734">
    <nd ref="316696432"/>
    <nd ref="316696431"/>
    <tag k="highway" v="primary"/>
    <tag k="int_ref" v="E77"/>
    <tag k="name" v="Aleja 29 Listopada"/>
    <tag k="oneway" v="yes"/>
    <tag k="ref" v="7"/>
  </way>
  <way id="85105738" version="8" timestamp="2012-05-08T21:54:22Z" uid="9475" user="Slawek Maderak" changeset="11544417">
    <nd ref="316696432"/>
    <nd ref="1746093505"/>
    <nd ref="316696431"/>
    <tag k="highway" v="primary"/>
    <tag k="int_ref" v="E77"/>
    <tag k="name" v="Aleja 29 Listopada"/>
    <tag k="oneway" v="yes"/>
    <tag k="ref" v="7"/>
  </way>
  <way id="85105739" version="3" timestamp="2012-05-08T21:54:23Z" uid="9475" user="Slawek Maderak" changeset="11544417">
    <nd ref="264756248"/>
    <nd ref="1746093504"/>
    <nd ref="32063393"/>
    <tag k="highway" v="primary"/>
    <tag k="name" v="Aleja 29 Listopada"/>
    <tag k="oneway" v="yes"/>
  </way>
</osm>
