<?xml version='1.0' encoding='UTF-8'?>
<osm version="0.6" generator="libosmium/2.20.0">
  <way id="85106527" version="4" timestamp="2011-01-06T02:46:26Z" uid="4467" user="Rosscoe" changeset="6878457">
    <nd ref="986542338"/>
    <nd ref="986542376"/>
    <nd ref="986542383"/>
    <nd ref="986542384"/>
    <nd ref="986542387"/>
    <nd ref="986542389"/>
    <nd ref="986542392"/>
    <nd ref="986542395"/>
    <nd ref="986542397"/>
    <nd ref="986542398"/>
    <nd ref="986542399"/>
    <nd ref="986542400"/>
    <tag k="highway" v="unclassified"/>
    <tag k="name" v="Water Race Hill Track"/>
    <tag k="surface" v="dirt"/>
  </way>
  <way id="85106947" version="2" timestamp="2011-01-14T16:45:04Z" uid="115477" user="wowik" changeset="6968851">
    <nd ref="461009509"/>
    <nd ref="1103423306"/>
    <nd ref="461008667"/>
    <nd ref="1103422925"/>
    <nd ref="461009014"/>
    <nd ref="461008408"/>
    <nd ref="461009509"/>
    <tag k="addr:city" v="Зеленоград"/>
    <tag k="addr:housenumber" v="828"/>
    <tag k="addr:street" v="8-й Микрорайон"/>
    <tag k="building" v="yes"/>
    <tag k="is_in" v="Russia"/>
  </way>
  <way id="85106947" version="3" timestamp="2011-06-07T20:46:05Z" uid="133332" user="AMDmi3" changeset="8374030">
    <nd ref="461009509"/>
    <nd ref="1103423306"/>
    <nd ref="461008667"/>
    <nd ref="1103422925"/>
    <nd ref="461009014"/>
    <nd ref="461008408"/>
    <nd ref="461009509"/>
    <tag k="addr:city" v="Зеленоград"/>
    <tag k="addr:housenumber" v="828"/>
    <tag k="addr:street" v="8-й микрорайон"/>
    <tag k="building" v="yes"/>
    <tag k="is_in" v="Russia"/>
  </way>
  <way id="85106947" version="4" timestamp="2011-09-13T10:28:51Z" uid="29320" user="Komяpa" changeset="9288237">
    <nd ref="461009509"/>
    <nd ref="1103423306"/>
    <nd ref="461008667"/>
    <nd ref="1103422925"/>
    <nd ref="461009014"/>
    <nd ref="461008408"/>
    <nd ref="461009509"/>
    <tag k="addr:city" v="Зеленоград"/>
    <tag k="addr:country" v="RU"/>
    <tag k="addr:housenumber" v="828"/>
    <tag k="addr:street" v="8-й микрорайон"/>
    <tag k="building" v="yes"/>
  </way>
  <way id="85106947" version="5" timestamp="2012-03-27T11:46:29Z" uid="481934" user="iWowik" changeset="11115472">
    <nd ref="461009509"/>
    <nd ref="1103423306"/>
    <nd ref="461008667"/>
    <nd ref="1103422925"/>
    <nd ref="461009014"/>
    <nd ref="461008408"/>
    <nd ref="461009509"/>
    <tag k="addr:city" v="Зеленоград"/>
    <tag k="addr:country" v="RU"/>
    <tag k="addr:housenumber" v="828"/>
    <tag k="addr:region" v="Москва"/>
    <tag k="addr:street" v="8-й микрорайон"/>
    <tag k="building" v="yes"/>
  </way>
  <way id="85106527" version="5" timestamp="2012-07-19T16:35:55Z" uid="722137" user="OSMF Redaction Account" changeset="12339728">
    <nd ref="986542338"/>
    <nd ref="986542376"/>
    <nd ref="986542383"/>
    <nd ref="986542384"/>
    <nd ref="986542387"/>
    <nd ref="986542389"/>
    <nd ref="986542392"/>
    <nd ref="986542395"/>
    <nd ref="986542397"/>
    <nd ref="986542398"/>
    <nd ref="986542399"/>
    <nd ref="986542400"/>
    <tag k="highway" v="unclassified"/>
    <tag k="name" v="Water Race Hill Tk"/>
    <tag k="surface" v="dirt"/>
  </way>
  <way id="85106947" version="6" timestamp="2012-07-20T23:48:10Z" uid="722137" user="OSMF Redaction Account" changeset="12396479">
    <nd ref="461009509"/>
    <nd ref="461008667"/>
    <nd ref="461009014"/>
    <nd ref="461008408"/>
    <nd ref="461009509"/>
    <tag k="addr:city" v="Зеленоград"/>
    <tag k="addr:country" v="RU"/>
    <tag k="addr:housenumber" v="828"/>
    <tag k="addr:region" v="Москва"/>
    <tag k="addr:street" v="8-й микрорайон"/>
    <tag k="building" v="yes"/>
  </way>
</osm>
