<?xml version='1.0' encoding='UTF-8'?>
<osm version="0.6" generator="libosmium/2.20.0">
  <way id="85385264" version="2" timestamp="2011-03-18T14:44:36Z" uid="115477" user="wowik" changeset="7595576">
    <nd ref="989914881"/>
    <nd ref="989914904"/>
    <nd ref="989914687"/>
    <nd ref="989914524"/>
    <nd ref="989914641"/>
    <nd ref="989914771"/>
    <nd ref="989914660"/>
    <nd ref="989914575"/>
    <nd ref="989914881"/>
    <tag k="amenity" v="fuel"/>
    <tag k="building" v="yes"/>
    <tag k="name" v="Лукойл"/>
    <tag k="operator" v="Лукойл"/>
  </way>
  <way id="85385264" version="3" timestamp="2011-09-07T04:19:13Z" uid="126304" user="TarzanASG" changeset="9233167">
    <nd ref="989914881"/>
    <nd ref="989914904"/>
    <nd ref="989914687"/>
    <nd ref="989914524"/>
    <nd ref="989914641"/>
    <nd ref="989914771"/>
    <nd ref="989914660"/>
    <nd ref="989914575"/>
    <nd ref="989914881"/>
    <tag k="amenity" v="fuel"/>
    <tag k="building" v="yes"/>
    <tag k="name" v="Лукойл"/>
    <tag k="operator" v="Лукойл"/>
    <tag k="website" v="http://www.lukoil.ru/"/>
  </way>
  <way id="85385264" version="4" timestamp="2012-03-16T21:36:55Z" uid="336354" user="esaulenka" changeset="11002720"/>
</osm>
