<?xml version='1.0' encoding='UTF-8'?>
<osm version="0.6" generator="libosmium/2.20.0">
  <way id="8608138" version="4" timestamp="2010-07-08T09:21:52Z" uid="74617" user="JohnSmith" changeset="5164427">
    <nd ref="60813695"/>
    <nd ref="60189296"/>
    <tag k="highway" v="residential"/>
    <tag k="maxspeed" v="50"/>
    <tag k="maxspeed:source" v="default residential speed limit in Australia"/>
    <tag k="name" v="Thurston Street"/>
    <tag k="source" v="survey"/>
  </way>
  <way id="8608138" version="5" timestamp="2012-01-15T07:47:16Z" uid="147510" user="woodpeck_fixbot" changeset="10394821">
    <nd ref="60813695"/>
    <nd ref="60189296"/>
    <tag k="highway" v="residential"/>
    <tag k="name" v="Thurston Street"/>
    <tag k="source" v="survey"/>
  </way>
  <way id="8608143" version="2" timestamp="2010-07-08T09:24:15Z" uid="74617" user="JohnSmith" changeset="5164427">
    <nd ref="60189206"/>
    <nd ref="61239379"/>
    <nd ref="61239387"/>
    <nd ref="61239401"/>
    <nd ref="61239415"/>
    <nd ref="61239442"/>
    <nd ref="61239467"/>
    <nd ref="61239489"/>
    <nd ref="61239494"/>
    <nd ref="61239520"/>
    <nd ref="60813709"/>
    <tag k="highway" v="residential"/>
    <tag k="maxspeed" v="50"/>
    <tag k="maxspeed:source" v="default residential speed limit in Australia"/>
    <tag k="name" v="Denham Terrace"/>
    <tag k="source" v="survey"/>
  </way>
  <way id="8608143" version="3" timestamp="2012-01-15T07:47:17Z" uid="147510" user="woodpeck_fixbot" changeset="10394821">
    <nd ref="60189206"/>
    <nd ref="61239379"/>
    <nd ref="61239387"/>
    <nd ref="61239401"/>
    <nd ref="61239415"/>
    <nd ref="61239442"/>
    <nd ref="61239467"/>
    <nd ref="61239489"/>
    <nd ref="61239494"/>
    <nd ref="61239520"/>
    <nd ref="60813709"/>
    <tag k="highway" v="residential"/>
    <tag k="name" v="Denham Terrace"/>
    <tag k="source" v="survey"/>
  </way>
  <way id="8608145" version="3" timestamp="2010-07-08T09:24:06Z" uid="74617" user="JohnSmith" changeset="5164427">
    <nd ref="60688825"/>
    <nd ref="60820826"/>
    <tag k="highway" v="residential"/>
    <tag k="maxspeed" v="50"/>
    <tag k="maxspeed:source" v="default residential speed limit in Australia"/>
    <tag k="name" v="Connolly Street"/>
    <tag k="source" v="survey"/>
  </way>
  <way id="8608145" version="4" timestamp="2012-01-15T07:47:18Z" uid="147510" user="woodpeck_fixbot" changeset="10394821">
    <nd ref="60688825"/>
    <nd ref="60820826"/>
    <tag k="highway" v="residential"/>
    <tag k="name" v="Connolly Street"/>
    <tag k="source" v="survey"/>
  </way>
  <way id="8608147" version="3" timestamp="2009-06-28T00:23:02Z" uid="4467" user="Rosscoe" changeset="1656004">
    <nd ref="60189296"/>
    <nd ref="60189201"/>
    <tag k="created_by" v="JOSM"/>
    <tag k="highway" v="tertiary"/>
    <tag k="name" v="Thurston Street"/>
    <tag k="oneway" v="no"/>
    <tag k="source" v="survey"/>
  </way>
  <way id="8608147" version="4" timestamp="2009-08-03T13:51:46Z" uid="4467" user="Rosscoe" changeset="2025703">
    <nd ref="60189296"/>
    <nd ref="60189201"/>
    <tag k="highway" v="tertiary"/>
    <tag k="name" v="Thurston Street"/>
    <tag k="source" v="survey"/>
  </way>
  <way id="8608151" version="2" timestamp="2009-06-28T00:23:02Z" uid="4467" user="Rosscoe" changeset="1656004">
    <nd ref="60189260"/>
    <nd ref="60189211"/>
    <tag k="created_by" v="JOSM"/>
    <tag k="highway" v="tertiary"/>
    <tag k="name" v="Thurston Lane"/>
    <tag k="oneway" v="no"/>
    <tag k="source" v="survey"/>
  </way>
  <way id="8608151" version="3" timestamp="2009-08-03T13:51:45Z" uid="4467" user="Rosscoe" changeset="2025703">
    <nd ref="60189260"/>
    <nd ref="60189211"/>
    <tag k="highway" v="tertiary"/>
    <tag k="name" v="Thurston Lane"/>
    <tag k="source" v="survey"/>
  </way>
  <way id="8608152" version="3" timestamp="2010-07-08T09:23:28Z" uid="74617" user="JohnSmith" changeset="5164427">
    <nd ref="60820827"/>
    <nd ref="60910471"/>
    <tag k="highway" v="residential"/>
    <tag k="maxspeed" v="50"/>
    <tag k="maxspeed:source" v="default residential speed limit in Australia"/>
    <tag k="name" v="Weinholt Street"/>
    <tag k="source" v="survey"/>
  </way>
  <way id="8608152" version="4" timestamp="2012-01-15T07:47:19Z" uid="147510" user="woodpeck_fixbot" changeset="10394821">
    <nd ref="60820827"/>
    <nd ref="60910471"/>
    <tag k="highway" v="residential"/>
    <tag k="name" v="Weinholt Street"/>
    <tag k="source" v="survey"/>
  </way>
  <way id="8608156" version="3" timestamp="2010-07-08T09:18:42Z" uid="74617" user="JohnSmith" changeset="5164427">
    <nd ref="60816648"/>
    <nd ref="60816651"/>
    <tag k="highway" v="residential"/>
    <tag k="maxspeed" v="50"/>
    <tag k="maxspeed:source" v="default residential speed limit in Australia"/>
    <tag k="name" v="Patrick Street"/>
    <tag k="source" v="survey"/>
  </way>
  <way id="8608156" version="4" timestamp="2012-01-15T07:47:20Z" uid="147510" user="woodpeck_fixbot" changeset="10394821">
    <nd ref="60816648"/>
    <nd ref="60816651"/>
    <tag k="highway" v="residential"/>
    <tag k="name" v="Patrick Street"/>
    <tag k="source" v="survey"/>
  </way>
  <way id="8608160" version="2" timestamp="2009-06-28T00:23:03Z" uid="4467" user="Rosscoe" changeset="1656004">
    <nd ref="61239542"/>
    <nd ref="60189206"/>
    <tag k="created_by" v="JOSM"/>
    <tag k="highway" v="tertiary"/>
    <tag k="name" v="Denham Terrace"/>
    <tag k="oneway" v="no"/>
    <tag k="source" v="survey"/>
  </way>
  <way id="8608160" version="3" timestamp="2009-08-03T13:51:46Z" uid="4467" user="Rosscoe" changeset="2025703">
    <nd ref="61239542"/>
    <nd ref="60189206"/>
    <tag k="highway" v="tertiary"/>
    <tag k="name" v="Denham Terrace"/>
    <tag k="source" v="survey"/>
  </way>
  <way id="8608163" version="3" timestamp="2009-06-28T00:23:03Z" uid="4467" user="Rosscoe" changeset="1656004">
    <nd ref="60189322"/>
    <nd ref="60189175"/>
    <tag k="created_by" v="JOSM"/>
    <tag k="highway" v="residential"/>
    <tag k="name" v="Arnold Street"/>
    <tag k="source" v="survey"/>
  </way>
  <way id="8608163" version="4" timestamp="2010-07-08T09:21:40Z" uid="74617" user="JohnSmith" changeset="5164427">
    <nd ref="60189322"/>
    <nd ref="60189175"/>
    <tag k="highway" v="residential"/>
    <tag k="maxspeed" v="50"/>
    <tag k="maxspeed:source" v="default residential speed limit in Australia"/>
    <tag k="name" v="Arnold Street"/>
    <tag k="source" v="survey"/>
  </way>
  <way id="8608163" version="5" timestamp="2012-01-15T07:47:21Z" uid="147510" user="woodpeck_fixbot" changeset="10394821">
    <nd ref="60189322"/>
    <nd ref="60189175"/>
    <tag k="highway" v="residential"/>
    <tag k="name" v="Arnold Street"/>
    <tag k="source" v="survey"/>
  </way>
  <way id="8608369" version="3" timestamp="2009-10-18T10:31:45Z" uid="36809" user="pfoten_weg_!_" changeset="2881738">
    <nd ref="61244337"/>
    <nd ref="388519664"/>
    <nd ref="388519665"/>
    <nd ref="388519667"/>
    <tag k="highway" v="residential"/>
    <tag k="layer" v="0"/>
    <tag k="name" v="Mühlgasse"/>
    <tag k="oneway" v="yes"/>
    <tag k="surface" v="paved"/>
  </way>
  <way id="8608370" version="3" timestamp="2009-10-18T10:31:45Z" uid="36809" user="pfoten_weg_!_" changeset="2881738">
    <nd ref="61244362"/>
    <nd ref="61244365"/>
    <nd ref="388519668"/>
    <nd ref="388519669"/>
    <nd ref="388519670"/>
    <nd ref="410753"/>
    <tag k="highway" v="residential"/>
    <tag k="layer" v="0"/>
    <tag k="name" v="Floriangasse"/>
    <tag k="surface" v="paved"/>
  </way>
  <way id="8608370" version="4" timestamp="2011-03-29T17:27:28Z" uid="417684" user="Maler" changeset="7708147">
    <nd ref="61244362"/>
    <nd ref="61244365"/>
    <nd ref="388519668"/>
    <nd ref="388519669"/>
    <nd ref="388519670"/>
    <nd ref="1224449138"/>
    <nd ref="410753"/>
    <tag k="highway" v="residential"/>
    <tag k="layer" v="0"/>
    <tag k="name" v="Floriangasse"/>
    <tag k="surface" v="paved"/>
  </way>
  <way id="8608373" version="8" timestamp="2009-10-18T10:31:54Z" uid="36809" user="pfoten_weg_!_" changeset="2881738">
    <nd ref="61244285"/>
    <nd ref="61244295"/>
    <nd ref="61244302"/>
    <nd ref="61244309"/>
    <nd ref="61244315"/>
    <nd ref="61244316"/>
    <nd ref="61244319"/>
    <nd ref="61244328"/>
    <tag k="highway" v="residential"/>
    <tag k="name" v="Salzstraße"/>
  </way>
  <way id="8608373" version="9" timestamp="2009-12-01T12:29:59Z" uid="189353" user="RettungsElch" changeset="3263701"/>
  <way id="8608377" version="3" timestamp="2009-10-18T10:31:44Z" uid="36809" user="pfoten_weg_!_" changeset="2881738">
    <nd ref="61244328"/>
    <nd ref="61244337"/>
    <nd ref="61244344"/>
    <nd ref="61244353"/>
    <nd ref="61244355"/>
    <tag k="highway" v="residential"/>
  </way>
  <way id="8608377" version="4" timestamp="2009-12-01T12:29:40Z" uid="189353" user="RettungsElch" changeset="3263701">
    <nd ref="61244285"/>
    <nd ref="61244295"/>
    <nd ref="61244302"/>
    <nd ref="61244309"/>
    <nd ref="61244315"/>
    <nd ref="61244316"/>
    <nd ref="61244319"/>
    <nd ref="61244328"/>
    <nd ref="61244337"/>
    <tag k="highway" v="residential"/>
    <tag k="name" v="Salzstraße"/>
  </way>
  <way id="8608377" version="5" timestamp="2011-03-29T17:17:59Z" uid="417684" user="Maler" changeset="7708147">
    <nd ref="61244285"/>
    <nd ref="61244295"/>
    <nd ref="61244302"/>
    <nd ref="61244309"/>
    <nd ref="1224439440"/>
    <nd ref="61244315"/>
    <nd ref="61244316"/>
    <nd ref="61244319"/>
    <nd ref="61244328"/>
    <nd ref="61244337"/>
    <tag k="highway" v="residential"/>
    <tag k="name" v="Salzstraße"/>
  </way>
  <way id="8608632" version="3" timestamp="2008-10-28T00:57:06Z" uid="20587" user="balrog-kun" changeset="606345">
    <nd ref="61249742"/>
    <nd ref="61249782"/>
    <nd ref="61249764"/>
    <nd ref="61253018"/>
    <nd ref="61253023"/>
    <nd ref="61249758"/>
    <nd ref="308139111"/>
    <nd ref="308139109"/>
    <nd ref="61249760"/>
    <nd ref="61249761"/>
    <tag k="created_by" v="JOSM"/>
    <tag k="highway" v="residential"/>
    <tag k="name" v="Rodziny Hiszpańskich"/>
  </way>
  <way id="8608632" version="4" timestamp="2009-06-21T10:00:37Z" uid="20587" user="balrog-kun" changeset="1581238">
    <nd ref="61249742"/>
    <nd ref="427529248"/>
    <nd ref="427529245"/>
    <nd ref="427529246"/>
    <nd ref="427529247"/>
    <nd ref="427529244"/>
    <nd ref="61249782"/>
    <nd ref="61249764"/>
    <nd ref="61253018"/>
    <nd ref="61253023"/>
    <nd ref="61249758"/>
    <nd ref="308139111"/>
    <nd ref="308139109"/>
    <nd ref="61249760"/>
    <nd ref="61249761"/>
    <tag k="created_by" v="JOSM"/>
    <tag k="highway" v="residential"/>
    <tag k="name" v="Rodziny Hiszpańskich"/>
  </way>
  <way id="8608632" version="5" timestamp="2009-12-17T21:02:26Z" uid="23411" user="Rart" changeset="3396725">
    <nd ref="61249742"/>
    <nd ref="427529248"/>
    <nd ref="427529245"/>
    <nd ref="427529246"/>
    <nd ref="427529247"/>
    <nd ref="427529244"/>
    <nd ref="61249782"/>
    <nd ref="61249764"/>
    <nd ref="61253018"/>
    <nd ref="61253023"/>
    <nd ref="61249758"/>
    <nd ref="308139111"/>
    <nd ref="308139109"/>
    <nd ref="61249760"/>
    <nd ref="595400672"/>
    <nd ref="61249761"/>
    <tag k="highway" v="residential"/>
    <tag k="name" v="Rodziny Hiszpańskich"/>
  </way>
  <way id="8608632" version="6" timestamp="2011-02-09T01:54:42Z" uid="165509" user="koszatek" changeset="7232505">
    <nd ref="1143264242"/>
    <nd ref="61249742"/>
    <nd ref="427529248"/>
    <nd ref="427529245"/>
    <nd ref="427529246"/>
    <nd ref="427529247"/>
    <nd ref="427529244"/>
    <tag k="highway" v="residential"/>
    <tag k="name" v="Rodziny Hiszpańskich"/>
    <tag k="oneway" v="yes"/>
  </way>
  <way id="8608634" version="2" timestamp="2008-02-16T01:23:30Z" uid="20587" user="balrog-kun" changeset="135401">
    <nd ref="61249763"/>
    <nd ref="247807133"/>
    <nd ref="61249768"/>
    <nd ref="61249765"/>
    <nd ref="61249764"/>
    <tag k="created_by" v="JOSM"/>
    <tag k="highway" v="residential"/>
  </way>
  <way id="8608634" version="3" timestamp="2008-10-28T00:57:05Z" uid="20587" user="balrog-kun" changeset="606345">
    <nd ref="61249763"/>
    <nd ref="247807133"/>
    <nd ref="61249768"/>
    <nd ref="61249765"/>
    <nd ref="61249764"/>
    <tag k="created_by" v="JOSM"/>
    <tag k="highway" v="residential"/>
    <tag k="name" v="Antoniego Uniechowskiego"/>
  </way>
  <way id="8608634" version="4" timestamp="2011-02-09T01:53:54Z" uid="165509" user="koszatek" changeset="7232505">
    <nd ref="61249763"/>
    <nd ref="247807133"/>
    <nd ref="61249768"/>
    <nd ref="1143264088"/>
    <tag k="highway" v="residential"/>
    <tag k="name" v="Antoniego Uniechowskiego"/>
    <tag k="oneway" v="yes"/>
  </way>
  <way id="8608635" version="2" timestamp="2008-10-28T00:57:05Z" uid="20587" user="balrog-kun" changeset="606345">
    <nd ref="61249762"/>
    <nd ref="308139107"/>
    <nd ref="308139108"/>
    <nd ref="61249763"/>
    <tag k="created_by" v="JOSM"/>
    <tag k="highway" v="residential"/>
    <tag k="oneway" v="yes"/>
  </way>
  <way id="8608635" version="3" timestamp="2009-01-31T11:03:42Z" uid="59223" user="Briquollo" changeset="857831">
    <nd ref="61249762"/>
    <nd ref="308139107"/>
    <nd ref="308139108"/>
    <nd ref="61249763"/>
    <tag k="created_by" v="JOSM"/>
    <tag k="highway" v="residential"/>
    <tag k="name" v="Antoniego Uniechowskiego"/>
    <tag k="oneway" v="yes"/>
  </way>
  <way id="8608635" version="4" timestamp="2011-10-05T11:12:22Z" uid="37370" user="amateja" changeset="9477153">
    <nd ref="61249762"/>
    <nd ref="1455819465"/>
    <nd ref="308139107"/>
    <nd ref="61249763"/>
    <tag k="highway" v="residential"/>
    <tag k="name" v="Antoniego Uniechowskiego"/>
    <tag k="oneway" v="yes"/>
  </way>
  <way id="8608975" version="2" timestamp="2009-02-12T07:17:46Z" uid="20587" user="balrog-kun" changeset="366239">
    <nd ref="61258269"/>
    <nd ref="344583889"/>
    <nd ref="31908323"/>
    <tag k="created_by" v="JOSM"/>
    <tag k="highway" v="residential"/>
    <tag k="name" v="Cybernetyki"/>
  </way>
  <way id="8608975" version="3" timestamp="2009-12-17T20:47:07Z" uid="23411" user="Rart" changeset="3396725">
    <nd ref="61258269"/>
    <nd ref="344583889"/>
    <nd ref="31908323"/>
    <tag k="highway" v="residential"/>
    <tag k="name" v="Cybernetyki"/>
  </way>
  <way id="8608975" version="4" timestamp="2009-12-17T20:49:07Z" uid="23411" user="Rart" changeset="3396725">
    <nd ref="61258269"/>
    <nd ref="344583889"/>
    <tag k="highway" v="residential"/>
    <tag k="name" v="Cybernetyki"/>
  </way>
  <way id="8608975" version="5" timestamp="2009-12-17T20:56:15Z" uid="23411" user="Rart" changeset="3396725">
    <nd ref="61258269"/>
    <nd ref="344583889"/>
    <nd ref="595397998"/>
    <tag k="highway" v="residential"/>
    <tag k="name" v="Cybernetyki"/>
  </way>
  <way id="8608975" version="6" timestamp="2011-11-19T18:49:15Z" uid="477744" user="hormel" changeset="9876007">
    <nd ref="61258269"/>
    <nd ref="344583889"/>
    <tag k="highway" v="residential"/>
    <tag k="name" v="Cybernetyki"/>
  </way>
  <way id="8608976" version="7" timestamp="2008-08-10T19:24:52Z" uid="20587" user="balrog-kun" changeset="173836">
    <nd ref="26966294"/>
    <nd ref="61258277"/>
    <nd ref="61258274"/>
    <nd ref="206300378"/>
    <nd ref="61258270"/>
    <nd ref="61258269"/>
    <nd ref="206301014"/>
    <nd ref="206301015"/>
    <nd ref="260059770"/>
    <nd ref="206301017"/>
    <nd ref="206301018"/>
    <nd ref="206301019"/>
    <nd ref="257704701"/>
    <nd ref="206345637"/>
    <nd ref="32049077"/>
    <nd ref="206345637"/>
    <tag k="created_by" v="Potlatch 0.6a"/>
    <tag k="highway" v="residential"/>
    <tag k="name" v="Orzycka"/>
  </way>
  <way id="8608976" version="8" timestamp="2009-02-12T07:13:56Z" uid="20587" user="balrog-kun" changeset="366239">
    <nd ref="26966294"/>
    <nd ref="344583330"/>
    <nd ref="344583331"/>
    <nd ref="61258277"/>
    <nd ref="61258274"/>
    <nd ref="206300378"/>
    <nd ref="61258270"/>
    <nd ref="61258269"/>
    <nd ref="206301014"/>
    <nd ref="206301015"/>
    <nd ref="260059770"/>
    <nd ref="206301017"/>
    <nd ref="206301018"/>
    <nd ref="206301019"/>
    <nd ref="257704701"/>
    <nd ref="206345637"/>
    <nd ref="32049077"/>
    <nd ref="206345637"/>
    <tag k="created_by" v="Potlatch 0.6a"/>
    <tag k="highway" v="residential"/>
    <tag k="name" v="Orzycka"/>
  </way>
  <way id="8608976" version="9" timestamp="2009-02-12T07:57:12Z" uid="20587" user="balrog-kun" changeset="366239">
    <nd ref="26966294"/>
    <nd ref="344583330"/>
    <nd ref="344587112"/>
    <nd ref="344583331"/>
    <nd ref="61258277"/>
    <nd ref="61258274"/>
    <nd ref="206300378"/>
    <nd ref="61258270"/>
    <nd ref="61258269"/>
    <nd ref="206301014"/>
    <nd ref="344587240"/>
    <nd ref="206301015"/>
    <nd ref="260059770"/>
    <nd ref="206301017"/>
    <nd ref="206301018"/>
    <nd ref="206301019"/>
    <nd ref="257704701"/>
    <nd ref="206345637"/>
    <nd ref="32049077"/>
    <nd ref="206345637"/>
    <tag k="created_by" v="Potlatch 0.6a"/>
    <tag k="highway" v="residential"/>
    <tag k="name" v="Orzycka"/>
  </way>
  <way id="8608976" version="10" timestamp="2012-07-19T07:47:29Z" uid="407593" user="Polanin" changeset="12312546">
    <nd ref="26966294"/>
    <nd ref="344583330"/>
    <nd ref="344587112"/>
    <nd ref="344583331"/>
    <nd ref="61258277"/>
    <nd ref="61258274"/>
    <nd ref="206300378"/>
    <nd ref="61258270"/>
    <nd ref="61258269"/>
    <nd ref="206301014"/>
    <nd ref="344587240"/>
    <nd ref="206301015"/>
    <nd ref="260059770"/>
    <nd ref="206301017"/>
    <nd ref="206301018"/>
    <nd ref="206301019"/>
    <nd ref="257704701"/>
    <nd ref="206345637"/>
    <nd ref="1830503347"/>
    <nd ref="32049077"/>
    <nd ref="206345637"/>
    <tag k="highway" v="residential"/>
    <tag k="name" v="Orzycka"/>
  </way>
  <way id="8608976" version="11" timestamp="2012-07-24T20:05:42Z" uid="722137" user="OSMF Redaction Account" changeset="12475329">
    <nd ref="26966294"/>
    <nd ref="344587112"/>
    <nd ref="61258277"/>
    <nd ref="61258274"/>
    <nd ref="206300378"/>
    <nd ref="61258270"/>
    <nd ref="61258269"/>
    <nd ref="206301014"/>
    <nd ref="344587240"/>
    <nd ref="206301015"/>
    <nd ref="260059770"/>
    <nd ref="206301017"/>
    <nd ref="206301018"/>
    <nd ref="206301019"/>
    <nd ref="257704701"/>
    <nd ref="206345637"/>
    <nd ref="1830503347"/>
    <nd ref="32049077"/>
    <nd ref="206345637"/>
    <tag k="highway" v="residential"/>
    <tag k="name" v="Orzycka"/>
  </way>
  <way id="8608976" version="12" timestamp="2012-08-23T09:02:38Z" uid="407593" user="Polanin" changeset="12829487">
    <nd ref="26966294"/>
    <nd ref="344587112"/>
    <nd ref="61258277"/>
    <nd ref="61258274"/>
    <nd ref="206300378"/>
    <nd ref="61258270"/>
    <nd ref="61258269"/>
    <nd ref="206301014"/>
    <nd ref="344587240"/>
    <nd ref="206301015"/>
    <nd ref="260059770"/>
    <nd ref="206301017"/>
    <nd ref="206301018"/>
    <nd ref="206301019"/>
    <nd ref="257704701"/>
    <tag k="highway" v="residential"/>
    <tag k="name" v="Orzycka"/>
  </way>
</osm>
