<?xml version='1.0' encoding='UTF-8'?>
<osm version="0.6" generator="libosmium/2.20.0">
  <way id="8616277" version="3" timestamp="2010-07-07T09:37:23Z" uid="74617" user="JohnSmith" changeset="5156250">
    <nd ref="61334911"/>
    <nd ref="61336663"/>
    <nd ref="61336655"/>
    <nd ref="61336659"/>
    <nd ref="61336651"/>
    <nd ref="61336647"/>
    <nd ref="61336643"/>
    <nd ref="61336639"/>
    <nd ref="61336635"/>
    <nd ref="61336631"/>
    <nd ref="61336628"/>
    <nd ref="61336624"/>
    <nd ref="61336667"/>
    <nd ref="61336620"/>
    <nd ref="61336616"/>
    <nd ref="61336612"/>
    <nd ref="61336608"/>
    <nd ref="61336606"/>
    <nd ref="61336602"/>
    <nd ref="61336598"/>
    <nd ref="61336594"/>
    <nd ref="61336591"/>
    <nd ref="61336587"/>
    <nd ref="61336583"/>
    <nd ref="61336579"/>
    <nd ref="61336575"/>
    <nd ref="61336572"/>
    <nd ref="61336568"/>
    <nd ref="61336563"/>
    <nd ref="61336559"/>
    <nd ref="61336555"/>
    <nd ref="61336552"/>
    <nd ref="61336548"/>
    <nd ref="61336544"/>
    <nd ref="61336540"/>
    <nd ref="61336536"/>
    <nd ref="61336533"/>
    <nd ref="61336529"/>
    <nd ref="61336525"/>
    <nd ref="61336521"/>
    <nd ref="664331930"/>
    <nd ref="61336517"/>
    <nd ref="664331926"/>
    <nd ref="61334854"/>
    <tag k="highway" v="residential"/>
    <tag k="maxspeed" v="50"/>
    <tag k="maxspeed:source" v="default residential speed limit in Australia"/>
    <tag k="name" v="River Drive"/>
  </way>
  <way id="8616277" version="4" timestamp="2012-01-15T07:47:50Z" uid="147510" user="woodpeck_fixbot" changeset="10394821">
    <nd ref="61334911"/>
    <nd ref="61336663"/>
    <nd ref="61336655"/>
    <nd ref="61336659"/>
    <nd ref="61336651"/>
    <nd ref="61336647"/>
    <nd ref="61336643"/>
    <nd ref="61336639"/>
    <nd ref="61336635"/>
    <nd ref="61336631"/>
    <nd ref="61336628"/>
    <nd ref="61336624"/>
    <nd ref="61336667"/>
    <nd ref="61336620"/>
    <nd ref="61336616"/>
    <nd ref="61336612"/>
    <nd ref="61336608"/>
    <nd ref="61336606"/>
    <nd ref="61336602"/>
    <nd ref="61336598"/>
    <nd ref="61336594"/>
    <nd ref="61336591"/>
    <nd ref="61336587"/>
    <nd ref="61336583"/>
    <nd ref="61336579"/>
    <nd ref="61336575"/>
    <nd ref="61336572"/>
    <nd ref="61336568"/>
    <nd ref="61336563"/>
    <nd ref="61336559"/>
    <nd ref="61336555"/>
    <nd ref="61336552"/>
    <nd ref="61336548"/>
    <nd ref="61336544"/>
    <nd ref="61336540"/>
    <nd ref="61336536"/>
    <nd ref="61336533"/>
    <nd ref="61336529"/>
    <nd ref="61336525"/>
    <nd ref="61336521"/>
    <nd ref="664331930"/>
    <nd ref="61336517"/>
    <nd ref="664331926"/>
    <nd ref="61334854"/>
    <tag k="highway" v="residential"/>
    <tag k="name" v="River Drive"/>
  </way>
  <way id="8616430" version="2" timestamp="2007-10-15T21:51:06Z" uid="4515" user="Elrond" changeset="204320">
    <nd ref="21686958"/>
    <nd ref="21686960"/>
    <nd ref="21686964"/>
    <nd ref="21686965"/>
    <nd ref="21686967"/>
    <nd ref="21686970"/>
    <nd ref="74048032"/>
    <nd ref="21686973"/>
    <nd ref="21686974"/>
    <nd ref="21686977"/>
    <nd ref="21686978"/>
    <nd ref="21686979"/>
    <nd ref="21686981"/>
    <nd ref="21686983"/>
    <nd ref="21686984"/>
    <nd ref="21686986"/>
    <nd ref="21686987"/>
    <nd ref="21686989"/>
    <nd ref="21686990"/>
    <nd ref="21686991"/>
    <nd ref="21686992"/>
    <nd ref="21686996"/>
    <tag k="created_by" v="JOSM"/>
    <tag k="highway" v="secondary"/>
    <tag k="name" v="Ladenburger Straße"/>
  </way>
  <way id="8616430" version="3" timestamp="2007-10-15T22:06:50Z" uid="4515" user="Elrond" changeset="204320">
    <nd ref="21686958"/>
    <nd ref="21686960"/>
    <nd ref="21686964"/>
    <nd ref="21686965"/>
    <nd ref="21686967"/>
    <nd ref="74064775"/>
    <nd ref="21686970"/>
    <nd ref="74048032"/>
    <nd ref="21686973"/>
    <nd ref="21686974"/>
    <nd ref="21686977"/>
    <nd ref="21686978"/>
    <nd ref="21686979"/>
    <nd ref="21686981"/>
    <nd ref="21686983"/>
    <nd ref="21686984"/>
    <nd ref="21686986"/>
    <nd ref="21686987"/>
    <nd ref="21686989"/>
    <nd ref="21686990"/>
    <nd ref="21686991"/>
    <nd ref="21686992"/>
    <nd ref="21686996"/>
    <tag k="created_by" v="JOSM"/>
    <tag k="highway" v="secondary"/>
    <tag k="name" v="Ladenburger Straße"/>
  </way>
  <way id="8616430" version="4" timestamp="2007-10-16T22:50:13Z" uid="4667" user="MapZ" changeset="223456">
    <nd ref="21686958"/>
    <nd ref="21686960"/>
    <nd ref="21686964"/>
    <nd ref="21686965"/>
    <nd ref="21686967"/>
    <nd ref="74064775"/>
    <nd ref="21686970"/>
    <nd ref="74048032"/>
    <nd ref="21686973"/>
    <nd ref="21686974"/>
    <nd ref="21686977"/>
    <nd ref="21686978"/>
    <nd ref="21686979"/>
    <nd ref="21686981"/>
    <nd ref="21686983"/>
    <nd ref="21686984"/>
    <nd ref="21686986"/>
    <nd ref="21686987"/>
    <nd ref="21686989"/>
    <nd ref="21686990"/>
    <nd ref="21686991"/>
    <nd ref="21686992"/>
    <nd ref="21686996"/>
    <tag k="created_by" v="MapZ"/>
    <tag k="highway" v="secondary"/>
    <tag k="name" v="Ladenburger Straße"/>
  </way>
  <way id="8616430" version="5" timestamp="2007-11-03T14:43:24Z" uid="11027" user="ulegan" changeset="396428">
    <nd ref="21686958"/>
    <nd ref="21686960"/>
    <nd ref="21686964"/>
    <nd ref="21686965"/>
    <nd ref="21686967"/>
    <nd ref="96641096"/>
    <nd ref="74064775"/>
    <nd ref="21686970"/>
    <nd ref="74048032"/>
    <nd ref="21686973"/>
    <nd ref="21686974"/>
    <nd ref="21686977"/>
    <nd ref="21686978"/>
    <nd ref="21686979"/>
    <nd ref="21686981"/>
    <nd ref="21686983"/>
    <nd ref="21686984"/>
    <nd ref="21686986"/>
    <nd ref="21686987"/>
    <nd ref="21686989"/>
    <nd ref="21686990"/>
    <nd ref="21686991"/>
    <nd ref="21686992"/>
    <nd ref="21686996"/>
    <tag k="created_by" v="MapZ"/>
    <tag k="highway" v="secondary"/>
    <tag k="name" v="Ladenburger Straße"/>
  </way>
  <way id="8616430" version="6" timestamp="2008-05-23T09:25:36Z" uid="36981" user="akr75" changeset="507241">
    <nd ref="21686958"/>
    <nd ref="21686960"/>
    <nd ref="21686964"/>
    <nd ref="21686965"/>
    <nd ref="21686967"/>
    <nd ref="96641096"/>
    <nd ref="74064775"/>
    <nd ref="21686970"/>
    <nd ref="74048032"/>
    <nd ref="21686973"/>
    <nd ref="21686974"/>
    <nd ref="21686977"/>
    <nd ref="21686978"/>
    <nd ref="21686979"/>
    <nd ref="21686981"/>
    <nd ref="21686983"/>
    <nd ref="21686984"/>
    <nd ref="21686986"/>
    <nd ref="21686987"/>
    <nd ref="21686989"/>
    <nd ref="21686990"/>
    <nd ref="21686991"/>
    <nd ref="21686992"/>
    <nd ref="21686996"/>
    <tag k="bicycle" v="yes"/>
    <tag k="created_by" v="Potlatch 0.9a"/>
    <tag k="foot" v="yes"/>
    <tag k="highway" v="footway"/>
    <tag k="name" v="Ladenburger Straße"/>
  </way>
  <way id="8616430" version="7" timestamp="2008-05-23T09:25:43Z" uid="36981" user="akr75" changeset="507241">
    <nd ref="21686958"/>
    <nd ref="21686960"/>
    <nd ref="21686964"/>
    <nd ref="21686965"/>
    <nd ref="21686967"/>
    <nd ref="96641096"/>
    <nd ref="74064775"/>
    <nd ref="21686970"/>
    <nd ref="74048032"/>
    <nd ref="21686973"/>
    <nd ref="21686974"/>
    <nd ref="21686977"/>
    <nd ref="21686978"/>
    <nd ref="21686979"/>
    <nd ref="21686981"/>
    <nd ref="21686983"/>
    <nd ref="21686984"/>
    <nd ref="21686986"/>
    <nd ref="21686987"/>
    <nd ref="21686989"/>
    <nd ref="21686990"/>
    <nd ref="21686991"/>
    <nd ref="21686992"/>
    <nd ref="21686996"/>
    <tag k="created_by" v="Potlatch 0.9a"/>
    <tag k="highway" v="secondary"/>
    <tag k="name" v="Ladenburger Straße"/>
  </way>
  <way id="8616430" version="8" timestamp="2008-12-16T21:42:17Z" uid="7562" user="LosHawlos" changeset="418802">
    <nd ref="21686958"/>
    <nd ref="21686960"/>
    <nd ref="21686964"/>
    <nd ref="21686965"/>
    <nd ref="21686967"/>
    <nd ref="96641096"/>
    <nd ref="74064775"/>
    <tag k="created_by" v="Potlatch 0.9a"/>
    <tag k="highway" v="secondary"/>
    <tag k="name" v="Ladenburger Straße"/>
  </way>
  <way id="8616430" version="9" timestamp="2009-04-07T21:57:19Z" changeset="311363">
    <nd ref="21686958"/>
    <nd ref="21686960"/>
    <nd ref="21686964"/>
    <nd ref="21686965"/>
    <nd ref="21686967"/>
    <nd ref="96641096"/>
    <nd ref="74064775"/>
    <tag k="created_by" v="Potlatch 0.9a"/>
    <tag k="highway" v="secondary"/>
    <tag k="maxspeed" v="50"/>
    <tag k="name" v="Ladenburger Straße"/>
  </way>
  <way id="8616430" version="10" timestamp="2009-04-07T22:29:16Z" changeset="311363">
    <nd ref="21686958"/>
    <nd ref="21686960"/>
    <nd ref="21686964"/>
    <nd ref="21686965"/>
    <nd ref="21686967"/>
    <nd ref="96641096"/>
    <nd ref="74064775"/>
    <tag k="created_by" v="Potlatch 0.9a"/>
    <tag k="highway" v="secondary"/>
    <tag k="maxspeed" v="50"/>
    <tag k="name" v="Ladenburger Straße"/>
    <tag k="ref" v="L542"/>
  </way>
  <way id="8616430" version="11" timestamp="2009-04-08T18:08:09Z" changeset="322770">
    <nd ref="21686958"/>
    <nd ref="21686960"/>
    <nd ref="21686964"/>
    <nd ref="370887695"/>
    <nd ref="21686965"/>
    <nd ref="370887705"/>
    <tag k="created_by" v="Potlatch 0.9a"/>
    <tag k="highway" v="secondary"/>
    <tag k="maxspeed" v="50"/>
    <tag k="name" v="Ladenburger Straße"/>
    <tag k="ref" v="L542"/>
  </way>
  <way id="8616430" version="12" timestamp="2009-05-13T17:50:36Z" uid="110263" user="werner2101" changeset="1177758">
    <nd ref="21686958"/>
    <nd ref="21686960"/>
    <nd ref="21686964"/>
    <nd ref="370887695"/>
    <nd ref="21686965"/>
    <nd ref="370887705"/>
    <tag k="created_by" v="Potlatch 0.9a"/>
    <tag k="highway" v="secondary"/>
    <tag k="maxspeed" v="50"/>
    <tag k="name" v="Ladenburger Straße"/>
    <tag k="ref" v="L 542"/>
  </way>
  <way id="8616430" version="13" timestamp="2010-03-15T21:34:53Z" uid="31231" user="Andre68" changeset="4138922"/>
  <way id="8616431" version="3" timestamp="2010-07-07T09:38:21Z" uid="74617" user="JohnSmith" changeset="5156250">
    <nd ref="61334879"/>
    <nd ref="61337525"/>
    <nd ref="61337526"/>
    <nd ref="61337527"/>
    <nd ref="61337528"/>
    <nd ref="61337529"/>
    <nd ref="61337530"/>
    <nd ref="61337531"/>
    <nd ref="61337532"/>
    <nd ref="61337533"/>
    <nd ref="61337534"/>
    <nd ref="61337535"/>
    <nd ref="61337536"/>
    <nd ref="61337537"/>
    <nd ref="61336575"/>
    <tag k="highway" v="residential"/>
    <tag k="maxspeed" v="50"/>
    <tag k="maxspeed:source" v="default residential speed limit in Australia"/>
    <tag k="name" v="Noonan Street"/>
  </way>
  <way id="8616431" version="4" timestamp="2012-01-15T07:47:52Z" uid="147510" user="woodpeck_fixbot" changeset="10394821">
    <nd ref="61334879"/>
    <nd ref="61337525"/>
    <nd ref="61337526"/>
    <nd ref="61337527"/>
    <nd ref="61337528"/>
    <nd ref="61337529"/>
    <nd ref="61337530"/>
    <nd ref="61337531"/>
    <nd ref="61337532"/>
    <nd ref="61337533"/>
    <nd ref="61337534"/>
    <nd ref="61337535"/>
    <nd ref="61337536"/>
    <nd ref="61337537"/>
    <nd ref="61336575"/>
    <tag k="highway" v="residential"/>
    <tag k="name" v="Noonan Street"/>
  </way>
  <way id="8616432" version="3" timestamp="2010-07-07T09:37:51Z" uid="74617" user="JohnSmith" changeset="5156250">
    <nd ref="61337533"/>
    <nd ref="61337538"/>
    <tag k="highway" v="residential"/>
    <tag k="maxspeed" v="50"/>
    <tag k="maxspeed:source" v="default residential speed limit in Australia"/>
    <tag k="name" v="Noonan Place"/>
  </way>
  <way id="8616432" version="4" timestamp="2012-01-15T07:47:53Z" uid="147510" user="woodpeck_fixbot" changeset="10394821">
    <nd ref="61337533"/>
    <nd ref="61337538"/>
    <tag k="highway" v="residential"/>
    <tag k="name" v="Noonan Place"/>
  </way>
  <way id="8616433" version="3" timestamp="2010-07-07T09:38:19Z" uid="74617" user="JohnSmith" changeset="5156250">
    <nd ref="61337528"/>
    <nd ref="61337541"/>
    <nd ref="61337542"/>
    <nd ref="61337543"/>
    <nd ref="61337544"/>
    <nd ref="61337545"/>
    <nd ref="61337546"/>
    <nd ref="61337547"/>
    <nd ref="61337548"/>
    <nd ref="61337549"/>
    <tag k="highway" v="residential"/>
    <tag k="maxspeed" v="50"/>
    <tag k="maxspeed:source" v="default residential speed limit in Australia"/>
    <tag k="name" v="Cantle Place"/>
  </way>
  <way id="8616433" version="4" timestamp="2012-01-15T07:47:55Z" uid="147510" user="woodpeck_fixbot" changeset="10394821">
    <nd ref="61337528"/>
    <nd ref="61337541"/>
    <nd ref="61337542"/>
    <nd ref="61337543"/>
    <nd ref="61337544"/>
    <nd ref="61337545"/>
    <nd ref="61337546"/>
    <nd ref="61337547"/>
    <nd ref="61337548"/>
    <nd ref="61337549"/>
    <tag k="highway" v="residential"/>
    <tag k="name" v="Cantle Place"/>
  </way>
  <way id="8616434" version="4" timestamp="2009-09-30T12:55:17Z" uid="36809" user="pfoten_weg_!_" changeset="2687909">
    <nd ref="60867255"/>
    <nd ref="130174"/>
    <tag k="highway" v="residential"/>
    <tag k="maxspeed" v="30"/>
    <tag k="name" v="Doktor-Blaich-Straße"/>
  </way>
  <way id="8616434" version="5" timestamp="2009-10-07T17:34:57Z" uid="7596" user="ck3d" changeset="2774264">
    <nd ref="60867255"/>
    <nd ref="130174"/>
    <tag k="highway" v="residential"/>
    <tag k="lit" v="yes"/>
    <tag k="maxspeed" v="30"/>
    <tag k="name" v="Doktor-Blaich-Straße"/>
    <tag k="zone:traffic" v="DE:urban"/>
  </way>
  <way id="8616434" version="6" timestamp="2010-08-08T09:41:25Z" uid="7596" user="ck3d" changeset="5431044">
    <nd ref="60867255"/>
    <nd ref="849412384"/>
    <nd ref="130174"/>
    <tag k="highway" v="residential"/>
    <tag k="lit" v="yes"/>
    <tag k="maxspeed" v="30"/>
    <tag k="name" v="Doktor-Blaich-Straße"/>
    <tag k="zone:traffic" v="DE:urban"/>
  </way>
  <way id="8616434" version="7" timestamp="2010-08-12T12:28:48Z" uid="7596" user="ck3d" changeset="5472762">
    <nd ref="60867255"/>
    <nd ref="849412384"/>
    <nd ref="130174"/>
    <tag k="highway" v="residential"/>
    <tag k="lit" v="automatic"/>
    <tag k="maxspeed" v="30"/>
    <tag k="name" v="Doktor-Blaich-Straße"/>
    <tag k="zone:traffic" v="DE:urban"/>
  </way>
  <way id="8616434" version="8" timestamp="2010-08-14T10:06:38Z" uid="7596" user="ck3d" changeset="5488990">
    <nd ref="60867255"/>
    <nd ref="849412384"/>
    <nd ref="130174"/>
    <tag k="highway" v="residential"/>
    <tag k="lit" v="yes"/>
    <tag k="maxspeed" v="30"/>
    <tag k="name" v="Doktor-Blaich-Straße"/>
    <tag k="zone:traffic" v="DE:urban"/>
  </way>
  <way id="8616436" version="5" timestamp="2009-09-30T12:55:18Z" uid="36809" user="pfoten_weg_!_" changeset="2687909">
    <nd ref="130172"/>
    <nd ref="61337560"/>
    <nd ref="61337559"/>
    <tag k="highway" v="residential"/>
    <tag k="maxspeed" v="30"/>
    <tag k="name" v="Hindenburgstraße"/>
  </way>
  <way id="8616436" version="6" timestamp="2009-10-02T07:11:07Z" uid="7596" user="ck3d" changeset="2709128">
    <nd ref="130172"/>
    <nd ref="61337560"/>
    <nd ref="61337559"/>
    <tag k="highway" v="residential"/>
    <tag k="maxspeed" v="30"/>
    <tag k="name" v="Hindenburgstraße"/>
    <tag k="zone:traffic" v="DE:urban"/>
  </way>
  <way id="8616436" version="7" timestamp="2010-03-15T19:51:00Z" uid="7596" user="ck3d" changeset="4137773">
    <nd ref="130172"/>
    <nd ref="667044996"/>
    <nd ref="61337560"/>
    <nd ref="61337559"/>
    <tag k="highway" v="residential"/>
    <tag k="maxspeed" v="30"/>
    <tag k="name" v="Hindenburgstraße"/>
    <tag k="zone:traffic" v="DE:urban"/>
  </way>
  <way id="8616437" version="5" timestamp="2009-09-30T12:55:19Z" uid="36809" user="pfoten_weg_!_" changeset="2687909">
    <nd ref="60867259"/>
    <nd ref="293925234"/>
    <nd ref="61337562"/>
    <nd ref="61337567"/>
    <nd ref="234773"/>
    <tag k="highway" v="residential"/>
    <tag k="maxspeed" v="30"/>
    <tag k="name" v="Sinzingerstraße"/>
  </way>
  <way id="8616437" version="6" timestamp="2009-10-07T17:34:57Z" uid="7596" user="ck3d" changeset="2774264">
    <nd ref="60867259"/>
    <nd ref="293925234"/>
    <nd ref="61337562"/>
    <nd ref="61337567"/>
    <nd ref="234773"/>
    <tag k="highway" v="residential"/>
    <tag k="lit" v="yes"/>
    <tag k="maxspeed" v="30"/>
    <tag k="name" v="Sinzingerstraße"/>
    <tag k="zone:traffic" v="DE:urban"/>
  </way>
  <way id="8616437" version="7" timestamp="2010-08-12T12:29:25Z" uid="7596" user="ck3d" changeset="5472762">
    <nd ref="60867259"/>
    <nd ref="293925234"/>
    <nd ref="61337562"/>
    <nd ref="61337567"/>
    <nd ref="234773"/>
    <tag k="highway" v="residential"/>
    <tag k="lit" v="automatic"/>
    <tag k="maxspeed" v="30"/>
    <tag k="name" v="Sinzingerstraße"/>
    <tag k="zone:traffic" v="DE:urban"/>
  </way>
  <way id="8616437" version="8" timestamp="2010-08-14T10:06:21Z" uid="7596" user="ck3d" changeset="5488990">
    <nd ref="60867259"/>
    <nd ref="293925234"/>
    <nd ref="61337562"/>
    <nd ref="61337567"/>
    <nd ref="234773"/>
    <tag k="highway" v="residential"/>
    <tag k="lit" v="yes"/>
    <tag k="maxspeed" v="30"/>
    <tag k="name" v="Sinzingerstraße"/>
    <tag k="zone:traffic" v="DE:urban"/>
  </way>
  <way id="8616437" version="9" timestamp="2011-02-12T14:51:03Z" uid="7596" user="ck3d" changeset="7265593">
    <nd ref="60867259"/>
    <nd ref="293925234"/>
    <nd ref="61337567"/>
    <nd ref="234773"/>
    <tag k="highway" v="residential"/>
    <tag k="lit" v="yes"/>
    <tag k="maxspeed" v="30"/>
    <tag k="name" v="Sinzingerstraße"/>
    <tag k="zone:traffic" v="DE:urban"/>
  </way>
  <way id="8616438" version="6" timestamp="2009-09-30T12:55:21Z" uid="36809" user="pfoten_weg_!_" changeset="2687909">
    <nd ref="61337569"/>
    <nd ref="61337566"/>
    <nd ref="266683459"/>
    <nd ref="61337565"/>
    <nd ref="61337564"/>
    <nd ref="61337563"/>
    <tag k="highway" v="residential"/>
    <tag k="maxspeed" v="30"/>
    <tag k="name" v="Karl-Robiczek-Straße"/>
  </way>
  <way id="8616438" version="7" timestamp="2009-10-07T17:34:57Z" uid="7596" user="ck3d" changeset="2774264">
    <nd ref="61337569"/>
    <nd ref="61337566"/>
    <nd ref="266683459"/>
    <nd ref="61337565"/>
    <nd ref="61337564"/>
    <nd ref="61337563"/>
    <tag k="highway" v="residential"/>
    <tag k="lit" v="yes"/>
    <tag k="maxspeed" v="30"/>
    <tag k="name" v="Karl-Robiczek-Straße"/>
    <tag k="zone:traffic" v="DE:urban"/>
  </way>
  <way id="8616438" version="8" timestamp="2010-08-12T12:28:23Z" uid="7596" user="ck3d" changeset="5472762">
    <nd ref="61337569"/>
    <nd ref="61337566"/>
    <nd ref="266683459"/>
    <nd ref="61337565"/>
    <nd ref="61337564"/>
    <nd ref="61337563"/>
    <tag k="highway" v="residential"/>
    <tag k="lit" v="automatic"/>
    <tag k="maxspeed" v="30"/>
    <tag k="name" v="Karl-Robiczek-Straße"/>
    <tag k="zone:traffic" v="DE:urban"/>
  </way>
  <way id="8616438" version="9" timestamp="2010-08-14T10:06:31Z" uid="7596" user="ck3d" changeset="5488990">
    <nd ref="61337569"/>
    <nd ref="61337566"/>
    <nd ref="266683459"/>
    <nd ref="61337565"/>
    <nd ref="61337564"/>
    <nd ref="61337563"/>
    <tag k="highway" v="residential"/>
    <tag k="lit" v="yes"/>
    <tag k="maxspeed" v="30"/>
    <tag k="name" v="Karl-Robiczek-Straße"/>
    <tag k="zone:traffic" v="DE:urban"/>
  </way>
  <way id="8616438" version="10" timestamp="2010-08-29T19:26:39Z" uid="160316" user="nobi2" changeset="5629827">
    <nd ref="61337569"/>
    <nd ref="61337566"/>
    <nd ref="266683459"/>
    <nd ref="61337565"/>
    <nd ref="886650213"/>
    <nd ref="886650182"/>
    <nd ref="886650190"/>
    <nd ref="61337564"/>
    <nd ref="61337563"/>
    <tag k="highway" v="residential"/>
    <tag k="lit" v="yes"/>
    <tag k="maxspeed" v="30"/>
    <tag k="name" v="Karl-Robiczek-Straße"/>
    <tag k="zone:traffic" v="DE:urban"/>
  </way>
  <way id="8616438" version="11" timestamp="2011-02-12T14:48:36Z" uid="7596" user="ck3d" changeset="7265559">
    <nd ref="61337569"/>
    <nd ref="61337566"/>
    <nd ref="266683459"/>
    <nd ref="886650213"/>
    <nd ref="886650182"/>
    <nd ref="886650190"/>
    <nd ref="61337564"/>
    <nd ref="61337563"/>
    <tag k="highway" v="residential"/>
    <tag k="lit" v="yes"/>
    <tag k="maxspeed" v="30"/>
    <tag k="name" v="Karl-Robiczek-Straße"/>
    <tag k="zone:traffic" v="DE:urban"/>
  </way>
  <way id="8616454" version="3" timestamp="2010-07-07T09:38:05Z" uid="74617" user="JohnSmith" changeset="5156250">
    <nd ref="61336602"/>
    <nd ref="61337647"/>
    <nd ref="61337648"/>
    <nd ref="61337649"/>
    <nd ref="61337650"/>
    <nd ref="61337651"/>
    <nd ref="61337652"/>
    <nd ref="61337653"/>
    <nd ref="61337654"/>
    <nd ref="61337655"/>
    <nd ref="61337656"/>
    <nd ref="61337657"/>
    <nd ref="61337658"/>
    <nd ref="61337659"/>
    <nd ref="61337660"/>
    <nd ref="61337661"/>
    <nd ref="61337662"/>
    <nd ref="61337663"/>
    <nd ref="61337664"/>
    <nd ref="61337665"/>
    <nd ref="61337666"/>
    <nd ref="61337673"/>
    <nd ref="61337675"/>
    <nd ref="61337677"/>
    <nd ref="61337679"/>
    <nd ref="61337681"/>
    <nd ref="61337683"/>
    <nd ref="61337685"/>
    <nd ref="61337687"/>
    <nd ref="61334896"/>
    <tag k="highway" v="residential"/>
    <tag k="maxspeed" v="50"/>
    <tag k="maxspeed:source" v="default residential speed limit in Australia"/>
    <tag k="name" v="Emery Crescent"/>
  </way>
  <way id="8616454" version="4" timestamp="2012-01-15T07:47:56Z" uid="147510" user="woodpeck_fixbot" changeset="10394821">
    <nd ref="61336602"/>
    <nd ref="61337647"/>
    <nd ref="61337648"/>
    <nd ref="61337649"/>
    <nd ref="61337650"/>
    <nd ref="61337651"/>
    <nd ref="61337652"/>
    <nd ref="61337653"/>
    <nd ref="61337654"/>
    <nd ref="61337655"/>
    <nd ref="61337656"/>
    <nd ref="61337657"/>
    <nd ref="61337658"/>
    <nd ref="61337659"/>
    <nd ref="61337660"/>
    <nd ref="61337661"/>
    <nd ref="61337662"/>
    <nd ref="61337663"/>
    <nd ref="61337664"/>
    <nd ref="61337665"/>
    <nd ref="61337666"/>
    <nd ref="61337673"/>
    <nd ref="61337675"/>
    <nd ref="61337677"/>
    <nd ref="61337679"/>
    <nd ref="61337681"/>
    <nd ref="61337683"/>
    <nd ref="61337685"/>
    <nd ref="61337687"/>
    <nd ref="61334896"/>
    <tag k="highway" v="residential"/>
    <tag k="name" v="Emery Crescent"/>
  </way>
  <way id="8616455" version="2" timestamp="2010-07-07T09:38:34Z" uid="74617" user="JohnSmith" changeset="5156250">
    <nd ref="61337662"/>
    <nd ref="61337672"/>
    <nd ref="61337671"/>
    <nd ref="61337691"/>
    <nd ref="61337670"/>
    <nd ref="61337669"/>
    <nd ref="61337693"/>
    <nd ref="61337668"/>
    <nd ref="61337667"/>
    <nd ref="61337689"/>
    <nd ref="61337664"/>
    <tag k="highway" v="residential"/>
    <tag k="maxspeed" v="50"/>
    <tag k="maxspeed:source" v="default residential speed limit in Australia"/>
    <tag k="name" v="Emery Crescent"/>
  </way>
  <way id="8616455" version="3" timestamp="2012-01-15T07:47:58Z" uid="147510" user="woodpeck_fixbot" changeset="10394821">
    <nd ref="61337662"/>
    <nd ref="61337672"/>
    <nd ref="61337671"/>
    <nd ref="61337691"/>
    <nd ref="61337670"/>
    <nd ref="61337669"/>
    <nd ref="61337693"/>
    <nd ref="61337668"/>
    <nd ref="61337667"/>
    <nd ref="61337689"/>
    <nd ref="61337664"/>
    <tag k="highway" v="residential"/>
    <tag k="name" v="Emery Crescent"/>
  </way>
  <way id="8616460" version="3" timestamp="2009-09-30T12:56:57Z" uid="36809" user="pfoten_weg_!_" changeset="2687909">
    <nd ref="142595530"/>
    <nd ref="312492795"/>
    <nd ref="142596602"/>
    <nd ref="142595728"/>
    <nd ref="315874901"/>
    <nd ref="142595729"/>
    <nd ref="142595730"/>
    <nd ref="61338066"/>
    <nd ref="61338067"/>
    <tag k="highway" v="residential"/>
    <tag k="maxspeed" v="30"/>
    <tag k="name" v="Waldstraße"/>
  </way>
  <way id="8616460" version="4" timestamp="2009-10-07T17:35:02Z" uid="7596" user="ck3d" changeset="2774264">
    <nd ref="142595530"/>
    <nd ref="312492795"/>
    <nd ref="142596602"/>
    <nd ref="142595728"/>
    <nd ref="315874901"/>
    <nd ref="142595729"/>
    <nd ref="142595730"/>
    <nd ref="61338066"/>
    <nd ref="61338067"/>
    <tag k="highway" v="residential"/>
    <tag k="maxspeed" v="30"/>
    <tag k="name" v="Waldstraße"/>
    <tag k="zone:traffic" v="DE:urban"/>
  </way>
  <way id="8616461" version="4" timestamp="2009-09-30T12:56:58Z" uid="36809" user="pfoten_weg_!_" changeset="2687909">
    <nd ref="61338065"/>
    <nd ref="293944558"/>
    <nd ref="315874897"/>
    <nd ref="61338066"/>
    <tag k="highway" v="residential"/>
    <tag k="maxspeed" v="30"/>
    <tag k="name" v="Neufeldstraße"/>
  </way>
  <way id="8616461" version="5" timestamp="2009-10-07T17:35:03Z" uid="7596" user="ck3d" changeset="2774264">
    <nd ref="61338065"/>
    <nd ref="293944558"/>
    <nd ref="315874897"/>
    <nd ref="61338066"/>
    <tag k="highway" v="residential"/>
    <tag k="maxspeed" v="30"/>
    <tag k="name" v="Neufeldstraße"/>
    <tag k="zone:traffic" v="DE:urban"/>
  </way>
  <way id="8616466" version="3" timestamp="2010-07-07T09:38:20Z" uid="74617" user="JohnSmith" changeset="5156250">
    <nd ref="61336612"/>
    <nd ref="61338350"/>
    <nd ref="61338354"/>
    <nd ref="61338358"/>
    <nd ref="626480620"/>
    <tag k="highway" v="residential"/>
    <tag k="maxspeed" v="50"/>
    <tag k="maxspeed:source" v="default residential speed limit in Australia"/>
    <tag k="name" v="Wild Place"/>
  </way>
  <way id="8616466" version="4" timestamp="2012-01-15T07:47:59Z" uid="147510" user="woodpeck_fixbot" changeset="10394821">
    <nd ref="61336612"/>
    <nd ref="61338350"/>
    <nd ref="61338354"/>
    <nd ref="61338358"/>
    <nd ref="626480620"/>
    <tag k="highway" v="residential"/>
    <tag k="name" v="Wild Place"/>
  </way>
  <way id="8616467" version="4" timestamp="2010-07-07T09:38:46Z" uid="74617" user="JohnSmith" changeset="5156250">
    <nd ref="61336631"/>
    <nd ref="61338319"/>
    <nd ref="61338323"/>
    <nd ref="61338327"/>
    <nd ref="61338331"/>
    <nd ref="664331643"/>
    <nd ref="61338335"/>
    <nd ref="664331644"/>
    <nd ref="626480623"/>
    <tag k="highway" v="residential"/>
    <tag k="maxspeed" v="50"/>
    <tag k="maxspeed:source" v="default residential speed limit in Australia"/>
    <tag k="name" v="Ling Place"/>
  </way>
  <way id="8616467" version="5" timestamp="2012-01-15T07:48:01Z" uid="147510" user="woodpeck_fixbot" changeset="10394821">
    <nd ref="61336631"/>
    <nd ref="61338319"/>
    <nd ref="61338323"/>
    <nd ref="61338327"/>
    <nd ref="61338331"/>
    <nd ref="664331643"/>
    <nd ref="61338335"/>
    <nd ref="664331644"/>
    <nd ref="626480623"/>
    <tag k="highway" v="residential"/>
    <tag k="name" v="Ling Place"/>
  </way>
  <way id="8616468" version="3" timestamp="2010-07-07T09:38:33Z" uid="74617" user="JohnSmith" changeset="5156250">
    <nd ref="61336587"/>
    <nd ref="61338374"/>
    <nd ref="61338378"/>
    <nd ref="61338382"/>
    <tag k="highway" v="residential"/>
    <tag k="maxspeed" v="50"/>
    <tag k="maxspeed:source" v="default residential speed limit in Australia"/>
    <tag k="name" v="Swan Place"/>
  </way>
  <way id="8616468" version="4" timestamp="2012-01-15T07:48:01Z" uid="147510" user="woodpeck_fixbot" changeset="10394821">
    <nd ref="61336587"/>
    <nd ref="61338374"/>
    <nd ref="61338378"/>
    <nd ref="61338382"/>
    <tag k="highway" v="residential"/>
    <tag k="name" v="Swan Place"/>
  </way>
  <way id="8616469" version="5" timestamp="2010-07-07T09:39:05Z" uid="74617" user="JohnSmith" changeset="5156250">
    <nd ref="61336552"/>
    <nd ref="61338397"/>
    <nd ref="687455291"/>
    <nd ref="61338401"/>
    <nd ref="687455097"/>
    <nd ref="61338405"/>
    <nd ref="61338409"/>
    <nd ref="61338413"/>
    <nd ref="61338417"/>
    <nd ref="626480616"/>
    <nd ref="61338421"/>
    <nd ref="626480618"/>
    <tag k="highway" v="residential"/>
    <tag k="maxspeed" v="50"/>
    <tag k="maxspeed:source" v="default residential speed limit in Australia"/>
    <tag k="name" v="Kenny Place"/>
  </way>
  <way id="8616469" version="6" timestamp="2012-01-15T07:48:02Z" uid="147510" user="woodpeck_fixbot" changeset="10394821">
    <nd ref="61336552"/>
    <nd ref="61338397"/>
    <nd ref="687455291"/>
    <nd ref="61338401"/>
    <nd ref="687455097"/>
    <nd ref="61338405"/>
    <nd ref="61338409"/>
    <nd ref="61338413"/>
    <nd ref="61338417"/>
    <nd ref="626480616"/>
    <nd ref="61338421"/>
    <nd ref="626480618"/>
    <tag k="highway" v="residential"/>
    <tag k="name" v="Kenny Place"/>
  </way>
  <way id="8616470" version="4" timestamp="2010-07-07T09:39:32Z" uid="74617" user="JohnSmith" changeset="5156250">
    <nd ref="61334871"/>
    <nd ref="61338437"/>
    <nd ref="664334025"/>
    <nd ref="61338440"/>
    <nd ref="61338444"/>
    <nd ref="61338448"/>
    <nd ref="626480604"/>
    <nd ref="61338452"/>
    <nd ref="61338456"/>
    <nd ref="61338460"/>
    <nd ref="61338464"/>
    <nd ref="61338468"/>
    <nd ref="61338472"/>
    <nd ref="61338475"/>
    <nd ref="61338479"/>
    <tag k="highway" v="residential"/>
    <tag k="maxspeed" v="50"/>
    <tag k="maxspeed:source" v="default residential speed limit in Australia"/>
    <tag k="name" v="Doyle Place"/>
  </way>
  <way id="8616470" version="5" timestamp="2012-01-15T07:48:04Z" uid="147510" user="woodpeck_fixbot" changeset="10394821">
    <nd ref="61334871"/>
    <nd ref="61338437"/>
    <nd ref="664334025"/>
    <nd ref="61338440"/>
    <nd ref="61338444"/>
    <nd ref="61338448"/>
    <nd ref="626480604"/>
    <nd ref="61338452"/>
    <nd ref="61338456"/>
    <nd ref="61338460"/>
    <nd ref="61338464"/>
    <nd ref="61338468"/>
    <nd ref="61338472"/>
    <nd ref="61338475"/>
    <nd ref="61338479"/>
    <tag k="highway" v="residential"/>
    <tag k="name" v="Doyle Place"/>
  </way>
  <way id="8616851" version="5" timestamp="2010-07-07T09:38:13Z" uid="74617" user="JohnSmith" changeset="5156250">
    <nd ref="61334929"/>
    <nd ref="61343719"/>
    <nd ref="61343727"/>
    <nd ref="61343734"/>
    <nd ref="61343741"/>
    <nd ref="61343750"/>
    <nd ref="664331882"/>
    <nd ref="61343757"/>
    <nd ref="61343764"/>
    <nd ref="61343771"/>
    <nd ref="61343778"/>
    <nd ref="664331907"/>
    <nd ref="61343786"/>
    <nd ref="61343793"/>
    <nd ref="61343800"/>
    <nd ref="61343807"/>
    <nd ref="626480610"/>
    <tag k="highway" v="residential"/>
    <tag k="maxspeed" v="50"/>
    <tag k="maxspeed:source" v="default residential speed limit in Australia"/>
    <tag k="name" v="Doeberl Place"/>
  </way>
  <way id="8616851" version="6" timestamp="2012-01-15T07:48:05Z" uid="147510" user="woodpeck_fixbot" changeset="10394821">
    <nd ref="61334929"/>
    <nd ref="61343719"/>
    <nd ref="61343727"/>
    <nd ref="61343734"/>
    <nd ref="61343741"/>
    <nd ref="61343750"/>
    <nd ref="664331882"/>
    <nd ref="61343757"/>
    <nd ref="61343764"/>
    <nd ref="61343771"/>
    <nd ref="61343778"/>
    <nd ref="664331907"/>
    <nd ref="61343786"/>
    <nd ref="61343793"/>
    <nd ref="61343800"/>
    <nd ref="61343807"/>
    <nd ref="626480610"/>
    <tag k="highway" v="residential"/>
    <tag k="name" v="Doeberl Place"/>
  </way>
  <way id="8616853" version="3" timestamp="2010-07-07T09:38:30Z" uid="74617" user="JohnSmith" changeset="5156250">
    <nd ref="61343741"/>
    <nd ref="61343836"/>
    <tag k="highway" v="residential"/>
    <tag k="maxspeed" v="50"/>
    <tag k="maxspeed:source" v="default residential speed limit in Australia"/>
    <tag k="name" v="Anand Place"/>
  </way>
  <way id="8616853" version="4" timestamp="2012-01-15T07:48:07Z" uid="147510" user="woodpeck_fixbot" changeset="10394821">
    <nd ref="61343741"/>
    <nd ref="61343836"/>
    <tag k="highway" v="residential"/>
    <tag k="name" v="Anand Place"/>
  </way>
  <way id="8616854" version="3" timestamp="2010-07-07T09:38:57Z" uid="74617" user="JohnSmith" changeset="5156250">
    <nd ref="61334880"/>
    <nd ref="626480607"/>
    <nd ref="61343865"/>
    <tag k="highway" v="residential"/>
    <tag k="maxspeed" v="50"/>
    <tag k="maxspeed:source" v="default residential speed limit in Australia"/>
    <tag k="name" v="Webber Place"/>
  </way>
  <way id="8616854" version="4" timestamp="2012-01-15T07:48:08Z" uid="147510" user="woodpeck_fixbot" changeset="10394821">
    <nd ref="61334880"/>
    <nd ref="626480607"/>
    <nd ref="61343865"/>
    <tag k="highway" v="residential"/>
    <tag k="name" v="Webber Place"/>
  </way>
  <way id="8616855" version="3" timestamp="2010-07-07T09:39:27Z" uid="74617" user="JohnSmith" changeset="5156250">
    <nd ref="61334878"/>
    <nd ref="61343895"/>
    <nd ref="61343903"/>
    <nd ref="61343910"/>
    <nd ref="61343918"/>
    <tag k="highway" v="residential"/>
    <tag k="maxspeed" v="50"/>
    <tag k="maxspeed:source" v="default residential speed limit in Australia"/>
    <tag k="name" v="Fitzgibbon Place"/>
  </way>
  <way id="8616855" version="4" timestamp="2012-01-15T07:48:10Z" uid="147510" user="woodpeck_fixbot" changeset="10394821">
    <nd ref="61334878"/>
    <nd ref="61343895"/>
    <nd ref="61343903"/>
    <nd ref="61343910"/>
    <nd ref="61343918"/>
    <tag k="highway" v="residential"/>
    <tag k="name" v="Fitzgibbon Place"/>
  </way>
  <way id="8616856" version="3" timestamp="2010-07-07T09:39:15Z" uid="74617" user="JohnSmith" changeset="5156250">
    <nd ref="61334877"/>
    <nd ref="61343948"/>
    <nd ref="61343955"/>
    <nd ref="61343963"/>
    <nd ref="61343970"/>
    <nd ref="61343978"/>
    <nd ref="61343985"/>
    <nd ref="61343993"/>
    <nd ref="61344001"/>
    <nd ref="61344008"/>
    <nd ref="61344015"/>
    <nd ref="61344022"/>
    <nd ref="61344030"/>
    <tag k="highway" v="residential"/>
    <tag k="maxspeed" v="50"/>
    <tag k="maxspeed:source" v="default residential speed limit in Australia"/>
    <tag k="name" v="Caroline Place"/>
  </way>
  <way id="8616856" version="4" timestamp="2012-01-15T07:48:11Z" uid="147510" user="woodpeck_fixbot" changeset="10394821">
    <nd ref="61334877"/>
    <nd ref="61343948"/>
    <nd ref="61343955"/>
    <nd ref="61343963"/>
    <nd ref="61343970"/>
    <nd ref="61343978"/>
    <nd ref="61343985"/>
    <nd ref="61343993"/>
    <nd ref="61344001"/>
    <nd ref="61344008"/>
    <nd ref="61344015"/>
    <nd ref="61344022"/>
    <nd ref="61344030"/>
    <tag k="highway" v="residential"/>
    <tag k="name" v="Caroline Place"/>
  </way>
  <way id="8616857" version="4" timestamp="2010-07-07T09:39:38Z" uid="74617" user="JohnSmith" changeset="5156250">
    <nd ref="61334867"/>
    <nd ref="664331485"/>
    <nd ref="61344061"/>
    <nd ref="61344068"/>
    <nd ref="61344076"/>
    <nd ref="61344091"/>
    <nd ref="61344083"/>
    <tag k="highway" v="residential"/>
    <tag k="maxspeed" v="50"/>
    <tag k="maxspeed:source" v="default residential speed limit in Australia"/>
    <tag k="name" v="Alfred Place"/>
  </way>
  <way id="8616857" version="5" timestamp="2012-01-15T07:48:13Z" uid="147510" user="woodpeck_fixbot" changeset="10394821">
    <nd ref="61334867"/>
    <nd ref="664331485"/>
    <nd ref="61344061"/>
    <nd ref="61344068"/>
    <nd ref="61344076"/>
    <nd ref="61344091"/>
    <nd ref="61344083"/>
    <tag k="highway" v="residential"/>
    <tag k="name" v="Alfred Place"/>
  </way>
  <way id="8616924" version="2" timestamp="2010-07-07T09:39:41Z" uid="74617" user="JohnSmith" changeset="5156250">
    <nd ref="61334860"/>
    <nd ref="61349595"/>
    <nd ref="61349602"/>
    <nd ref="61349610"/>
    <nd ref="61349617"/>
    <nd ref="61349624"/>
    <nd ref="61349631"/>
    <tag k="highway" v="residential"/>
    <tag k="maxspeed" v="50"/>
    <tag k="maxspeed:source" v="default residential speed limit in Australia"/>
    <tag k="name" v="McInnes Street"/>
  </way>
  <way id="8616924" version="3" timestamp="2012-01-15T07:48:14Z" uid="147510" user="woodpeck_fixbot" changeset="10394821">
    <nd ref="61334860"/>
    <nd ref="61349595"/>
    <nd ref="61349602"/>
    <nd ref="61349610"/>
    <nd ref="61349617"/>
    <nd ref="61349624"/>
    <nd ref="61349631"/>
    <tag k="highway" v="residential"/>
    <tag k="name" v="McInnes Street"/>
  </way>
  <way id="8616925" version="3" timestamp="2010-07-07T09:37:13Z" uid="74617" user="JohnSmith" changeset="5156250">
    <nd ref="61349631"/>
    <nd ref="61349639"/>
    <nd ref="61349646"/>
    <nd ref="626436706"/>
    <tag k="highway" v="residential"/>
    <tag k="maxspeed" v="50"/>
    <tag k="maxspeed:source" v="default residential speed limit in Australia"/>
    <tag k="name" v="McInnes Place"/>
  </way>
  <way id="8616925" version="4" timestamp="2012-01-15T07:48:15Z" uid="147510" user="woodpeck_fixbot" changeset="10394821">
    <nd ref="61349631"/>
    <nd ref="61349639"/>
    <nd ref="61349646"/>
    <nd ref="626436706"/>
    <tag k="highway" v="residential"/>
    <tag k="name" v="McInnes Place"/>
  </way>
  <way id="8616926" version="3" timestamp="2010-07-07T09:37:40Z" uid="74617" user="JohnSmith" changeset="5156250">
    <nd ref="61349602"/>
    <nd ref="61349675"/>
    <nd ref="61349683"/>
    <nd ref="61349690"/>
    <nd ref="61349697"/>
    <nd ref="61349705"/>
    <nd ref="61349712"/>
    <nd ref="61349719"/>
    <nd ref="61349726"/>
    <nd ref="626436704"/>
    <tag k="highway" v="residential"/>
    <tag k="maxspeed" v="50"/>
    <tag k="maxspeed:source" v="default residential speed limit in Australia"/>
    <tag k="name" v="Monk Place"/>
  </way>
  <way id="8616926" version="4" timestamp="2012-01-15T07:48:16Z" uid="147510" user="woodpeck_fixbot" changeset="10394821">
    <nd ref="61349602"/>
    <nd ref="61349675"/>
    <nd ref="61349683"/>
    <nd ref="61349690"/>
    <nd ref="61349697"/>
    <nd ref="61349705"/>
    <nd ref="61349712"/>
    <nd ref="61349719"/>
    <nd ref="61349726"/>
    <nd ref="626436704"/>
    <tag k="highway" v="residential"/>
    <tag k="name" v="Monk Place"/>
  </way>
  <way id="8616927" version="3" timestamp="2010-07-07T09:38:06Z" uid="74617" user="JohnSmith" changeset="5156250">
    <nd ref="61334858"/>
    <nd ref="61349756"/>
    <nd ref="61349764"/>
    <nd ref="61349771"/>
    <nd ref="61349778"/>
    <nd ref="61349786"/>
    <nd ref="61349793"/>
    <nd ref="61349800"/>
    <nd ref="61349807"/>
    <nd ref="61349851"/>
    <nd ref="626436724"/>
    <tag k="highway" v="residential"/>
    <tag k="maxspeed" v="50"/>
    <tag k="maxspeed:source" v="default residential speed limit in Australia"/>
    <tag k="name" v="Southwell Place"/>
  </way>
  <way id="8616927" version="4" timestamp="2012-01-15T07:48:17Z" uid="147510" user="woodpeck_fixbot" changeset="10394821">
    <nd ref="61334858"/>
    <nd ref="61349756"/>
    <nd ref="61349764"/>
    <nd ref="61349771"/>
    <nd ref="61349778"/>
    <nd ref="61349786"/>
    <nd ref="61349793"/>
    <nd ref="61349800"/>
    <nd ref="61349807"/>
    <nd ref="61349851"/>
    <nd ref="626436724"/>
    <tag k="highway" v="residential"/>
    <tag k="name" v="Southwell Place"/>
  </way>
  <way id="8616928" version="3" timestamp="2010-07-07T09:38:10Z" uid="74617" user="JohnSmith" changeset="5156250">
    <nd ref="61349807"/>
    <nd ref="61349814"/>
    <nd ref="61349822"/>
    <tag k="highway" v="residential"/>
    <tag k="maxspeed" v="50"/>
    <tag k="maxspeed:source" v="default residential speed limit in Australia"/>
    <tag k="name" v="Southwell Place"/>
  </way>
  <way id="8616928" version="4" timestamp="2012-01-15T07:48:18Z" uid="147510" user="woodpeck_fixbot" changeset="10394821">
    <nd ref="61349807"/>
    <nd ref="61349814"/>
    <nd ref="61349822"/>
    <tag k="highway" v="residential"/>
    <tag k="name" v="Southwell Place"/>
  </way>
  <way id="8616929" version="3" timestamp="2010-07-07T09:38:40Z" uid="74617" user="JohnSmith" changeset="5156250">
    <nd ref="61336517"/>
    <nd ref="61349877"/>
    <nd ref="61349885"/>
    <nd ref="61349892"/>
    <nd ref="61349899"/>
    <nd ref="61349907"/>
    <nd ref="61349915"/>
    <nd ref="61349922"/>
    <tag k="highway" v="residential"/>
    <tag k="maxspeed" v="50"/>
    <tag k="maxspeed:source" v="default residential speed limit in Australia"/>
    <tag k="name" v="Russell Place"/>
  </way>
  <way id="8616929" version="4" timestamp="2012-01-15T07:48:19Z" uid="147510" user="woodpeck_fixbot" changeset="10394821">
    <nd ref="61336517"/>
    <nd ref="61349877"/>
    <nd ref="61349885"/>
    <nd ref="61349892"/>
    <nd ref="61349899"/>
    <nd ref="61349907"/>
    <nd ref="61349915"/>
    <nd ref="61349922"/>
    <tag k="highway" v="residential"/>
    <tag k="name" v="Russell Place"/>
  </way>
  <way id="8616930" version="3" timestamp="2010-07-07T09:39:12Z" uid="74617" user="JohnSmith" changeset="5156250">
    <nd ref="61336525"/>
    <nd ref="61349951"/>
    <nd ref="61349967"/>
    <nd ref="61349974"/>
    <nd ref="61349982"/>
    <nd ref="61349989"/>
    <nd ref="61349997"/>
    <nd ref="61350022"/>
    <nd ref="626436726"/>
    <tag k="highway" v="residential"/>
    <tag k="maxspeed" v="50"/>
    <tag k="maxspeed:source" v="default residential speed limit in Australia"/>
    <tag k="name" v="Lochiel Street"/>
  </way>
  <way id="8616930" version="4" timestamp="2012-01-15T07:48:21Z" uid="147510" user="woodpeck_fixbot" changeset="10394821">
    <nd ref="61336525"/>
    <nd ref="61349951"/>
    <nd ref="61349967"/>
    <nd ref="61349974"/>
    <nd ref="61349982"/>
    <nd ref="61349989"/>
    <nd ref="61349997"/>
    <nd ref="61350022"/>
    <nd ref="626436726"/>
    <tag k="highway" v="residential"/>
    <tag k="name" v="Lochiel Street"/>
  </way>
</osm>
