<?xml version='1.0' encoding='UTF-8'?>
<osm version="0.6" generator="libosmium/2.20.0">
  <way id="86206533" version="3" timestamp="2011-03-30T21:26:09Z" uid="6269" user="Mueck" changeset="7720894">
    <nd ref="1225981719"/>
    <nd ref="1225981754"/>
    <nd ref="1225981809"/>
    <nd ref="1225981738"/>
    <nd ref="1018877622"/>
    <tag k="highway" v="residential"/>
    <tag k="name" v="Wilhelm-Baur-Straße"/>
    <tag k="oneway" v="yes"/>
  </way>
  <way id="86206533" version="4" timestamp="2011-12-27T10:09:34Z" uid="118352" user="kamarc" changeset="10214206">
    <nd ref="1225981719"/>
    <nd ref="1225981754"/>
    <nd ref="1225981809"/>
    <nd ref="1225981738"/>
    <nd ref="1018877622"/>
    <tag k="highway" v="residential"/>
    <tag k="maxspeed" v="30"/>
    <tag k="name" v="Wilhelm-Baur-Straße"/>
    <tag k="oneway" v="yes"/>
  </way>
  <way id="86206533" version="5" timestamp="2012-02-03T09:11:16Z" uid="165061" user="keinname" changeset="10574354">
    <nd ref="1225981719"/>
    <nd ref="1225981754"/>
    <nd ref="1225981809"/>
    <nd ref="1225981738"/>
    <nd ref="1018877622"/>
    <tag k="highway" v="residential"/>
    <tag k="maxspeed" v="30"/>
    <tag k="name" v="Wilhelm-Baur-Straße"/>
    <tag k="oneway" v="yes"/>
    <tag k="parking:lane:right" v="inline"/>
  </way>
  <way id="86206533" version="6" timestamp="2012-07-17T14:57:23Z" uid="722137" user="OSMF Redaction Account" changeset="12267828"/>
</osm>
