<?xml version='1.0' encoding='UTF-8'?>
<osm version="0.6" generator="libosmium/2.20.0">
  <way id="86217061" version="2" timestamp="2011-01-25T12:49:34Z" uid="115477" user="wowik" changeset="7083302">
    <nd ref="1000797040"/>
    <nd ref="1000797041"/>
    <nd ref="1000797043"/>
    <nd ref="1000797044"/>
    <nd ref="1000797040"/>
    <tag k="addr:housenumber" v="12 к1 с1"/>
    <tag k="addr:street" v="улица Фомичёвой"/>
    <tag k="building" v="yes"/>
    <tag k="building:levels" v="1"/>
  </way>
  <way id="86217061" version="3" timestamp="2012-03-28T06:12:49Z" uid="481934" user="iWowik" changeset="11123401">
    <nd ref="1000797040"/>
    <nd ref="1000797041"/>
    <nd ref="1000797043"/>
    <nd ref="1000797044"/>
    <nd ref="1000797040"/>
    <tag k="addr:city" v="Москва"/>
    <tag k="addr:country" v="RU"/>
    <tag k="addr:housenumber" v="12 к1 с1"/>
    <tag k="addr:street" v="улица Фомичёвой"/>
    <tag k="building" v="yes"/>
    <tag k="building:levels" v="1"/>
  </way>
  <way id="86217112" version="2" timestamp="2011-01-25T12:49:34Z" uid="115477" user="wowik" changeset="7083302">
    <nd ref="1000798368"/>
    <nd ref="1000798370"/>
    <nd ref="1000798371"/>
    <nd ref="1000798373"/>
    <nd ref="1000798368"/>
    <tag k="addr:housenumber" v="14 к3 с1"/>
    <tag k="addr:street" v="улица Фомичёвой"/>
    <tag k="building" v="yes"/>
    <tag k="building:levels" v="1"/>
  </way>
  <way id="86217112" version="3" timestamp="2012-03-28T06:13:16Z" uid="481934" user="iWowik" changeset="11123401">
    <nd ref="1000798368"/>
    <nd ref="1000798370"/>
    <nd ref="1000798371"/>
    <nd ref="1000798373"/>
    <nd ref="1000798368"/>
    <tag k="addr:city" v="Москва"/>
    <tag k="addr:country" v="RU"/>
    <tag k="addr:housenumber" v="14 к3 с1"/>
    <tag k="addr:street" v="улица Фомичёвой"/>
    <tag k="building" v="yes"/>
    <tag k="building:levels" v="1"/>
  </way>
  <way id="86217134" version="1" timestamp="2010-11-23T12:40:19Z" uid="115477" user="wowik" changeset="6438744">
    <nd ref="1000800185"/>
    <nd ref="695215460"/>
    <nd ref="373370411"/>
    <nd ref="373370423"/>
    <nd ref="1000791914"/>
    <nd ref="373369367"/>
    <tag k="highway" v="tertiary"/>
  </way>
  <way id="86217135" version="1" timestamp="2010-11-23T12:40:19Z" uid="115477" user="wowik" changeset="6438744">
    <nd ref="1000800145"/>
    <nd ref="373369463"/>
    <tag k="bridge" v="yes"/>
    <tag k="highway" v="primary"/>
    <tag k="layer" v="1"/>
  </way>
  <way id="86217136" version="1" timestamp="2010-11-23T12:40:19Z" uid="115477" user="wowik" changeset="6438744">
    <nd ref="1000800387"/>
    <nd ref="1000800185"/>
    <tag k="bridge" v="yes"/>
    <tag k="highway" v="tertiary"/>
    <tag k="layer" v="1"/>
  </way>
  <way id="86217327" version="2" timestamp="2011-01-25T12:49:35Z" uid="115477" user="wowik" changeset="7083302">
    <nd ref="1000801986"/>
    <nd ref="1000801990"/>
    <nd ref="1000801992"/>
    <nd ref="1000802001"/>
    <nd ref="1000801986"/>
    <tag k="addr:housenumber" v="14 к3 с2"/>
    <tag k="addr:street" v="улица Фомичёвой"/>
    <tag k="building" v="yes"/>
    <tag k="building:levels" v="1"/>
  </way>
  <way id="86217327" version="3" timestamp="2012-03-28T06:13:16Z" uid="481934" user="iWowik" changeset="11123401">
    <nd ref="1000801986"/>
    <nd ref="1000801990"/>
    <nd ref="1000801992"/>
    <nd ref="1000802001"/>
    <nd ref="1000801986"/>
    <tag k="addr:city" v="Москва"/>
    <tag k="addr:country" v="RU"/>
    <tag k="addr:housenumber" v="14 к3 с2"/>
    <tag k="addr:street" v="улица Фомичёвой"/>
    <tag k="building" v="yes"/>
    <tag k="building:levels" v="1"/>
  </way>
  <way id="86217457" version="2" timestamp="2011-01-25T12:49:34Z" uid="115477" user="wowik" changeset="7083302">
    <nd ref="1000805411"/>
    <nd ref="1000805414"/>
    <nd ref="1000805415"/>
    <nd ref="1000805416"/>
    <nd ref="1000805411"/>
    <tag k="addr:housenumber" v="16 к5 с1"/>
    <tag k="addr:street" v="улица Фомичёвой"/>
    <tag k="building" v="yes"/>
    <tag k="building:levels" v="1"/>
  </way>
  <way id="86217457" version="3" timestamp="2012-03-28T06:13:40Z" uid="481934" user="iWowik" changeset="11123401">
    <nd ref="1000805411"/>
    <nd ref="1000805414"/>
    <nd ref="1000805415"/>
    <nd ref="1000805416"/>
    <nd ref="1000805411"/>
    <tag k="addr:city" v="Москва"/>
    <tag k="addr:country" v="RU"/>
    <tag k="addr:housenumber" v="16 к5 с1"/>
    <tag k="addr:street" v="улица Фомичёвой"/>
    <tag k="building" v="yes"/>
    <tag k="building:levels" v="1"/>
  </way>
  <way id="86217061" version="4" timestamp="2012-07-21T06:47:30Z" uid="722137" user="OSMF Redaction Account" changeset="12401780">
    <nd ref="1000797040"/>
    <nd ref="1000797041"/>
    <nd ref="1000797043"/>
    <nd ref="1000797044"/>
    <nd ref="1000797040"/>
    <tag k="addr:city" v="Москва"/>
    <tag k="addr:country" v="RU"/>
    <tag k="addr:housenumber" v="12 к1 с1"/>
    <tag k="addr:street" v="улица Фомичёвой"/>
    <tag k="building" v="yes"/>
  </way>
  <way id="86217112" version="4" timestamp="2012-07-21T06:47:41Z" uid="722137" user="OSMF Redaction Account" changeset="12401780">
    <nd ref="1000798368"/>
    <nd ref="1000798370"/>
    <nd ref="1000798371"/>
    <nd ref="1000798373"/>
    <nd ref="1000798368"/>
    <tag k="addr:city" v="Москва"/>
    <tag k="addr:country" v="RU"/>
    <tag k="addr:housenumber" v="14 к3 с1"/>
    <tag k="addr:street" v="улица Фомичёвой"/>
    <tag k="building" v="yes"/>
  </way>
  <way id="86217134" version="2" timestamp="2012-06-13T16:06:47Z" uid="313053" user="ValentinAK" changeset="11886598">
    <nd ref="1000800185"/>
    <nd ref="695215460"/>
    <nd ref="373370411"/>
    <nd ref="373370423"/>
    <nd ref="1000791914"/>
    <nd ref="373369367"/>
    <tag k="highway" v="primary"/>
  </way>
  <way id="86217134" version="3" timestamp="2012-07-20T11:19:09Z" uid="722137" user="OSMF Redaction Account" changeset="12372850"/>
  <way id="86217135" version="2" timestamp="2012-06-13T16:06:46Z" uid="313053" user="ValentinAK" changeset="11886598">
    <nd ref="1000800145"/>
    <nd ref="373369463"/>
    <tag k="bridge" v="yes"/>
    <tag k="highway" v="secondary"/>
    <tag k="layer" v="1"/>
  </way>
  <way id="86217135" version="3" timestamp="2012-07-09T06:34:52Z" uid="563357" user="lenux" changeset="12158148">
    <nd ref="1000800145"/>
    <nd ref="373369463"/>
    <tag k="bridge" v="yes"/>
    <tag k="highway" v="residential"/>
    <tag k="layer" v="1"/>
  </way>
  <way id="86217135" version="4" timestamp="2012-07-16T11:29:19Z" uid="127606" user="loir" changeset="12243449">
    <nd ref="1000800145"/>
    <nd ref="373369463"/>
    <tag k="bridge" v="yes"/>
    <tag k="highway" v="secondary"/>
    <tag k="layer" v="1"/>
  </way>
  <way id="86217135" version="5" timestamp="2012-07-20T11:19:07Z" uid="722137" user="OSMF Redaction Account" changeset="12372850"/>
  <way id="86217136" version="2" timestamp="2012-06-13T16:06:46Z" uid="313053" user="ValentinAK" changeset="11886598">
    <nd ref="1000800387"/>
    <nd ref="1000800185"/>
    <tag k="bridge" v="yes"/>
    <tag k="highway" v="primary"/>
    <tag k="layer" v="1"/>
  </way>
  <way id="86217136" version="3" timestamp="2012-07-20T11:19:09Z" uid="722137" user="OSMF Redaction Account" changeset="12372850"/>
  <way id="86217327" version="4" timestamp="2012-07-21T06:47:43Z" uid="722137" user="OSMF Redaction Account" changeset="12401780">
    <nd ref="1000801986"/>
    <nd ref="1000801990"/>
    <nd ref="1000801992"/>
    <nd ref="1000802001"/>
    <nd ref="1000801986"/>
    <tag k="addr:city" v="Москва"/>
    <tag k="addr:country" v="RU"/>
    <tag k="addr:housenumber" v="14 к3 с2"/>
    <tag k="addr:street" v="улица Фомичёвой"/>
    <tag k="building" v="yes"/>
  </way>
  <way id="86217457" version="4" timestamp="2012-07-21T06:47:38Z" uid="722137" user="OSMF Redaction Account" changeset="12401780">
    <nd ref="1000805411"/>
    <nd ref="1000805414"/>
    <nd ref="1000805415"/>
    <nd ref="1000805416"/>
    <nd ref="1000805411"/>
    <tag k="addr:city" v="Москва"/>
    <tag k="addr:country" v="RU"/>
    <tag k="addr:housenumber" v="16 к5 с1"/>
    <tag k="addr:street" v="улица Фомичёвой"/>
    <tag k="building" v="yes"/>
  </way>
</osm>
