<?xml version='1.0' encoding='UTF-8'?>
<osm version="0.6" generator="libosmium/2.20.0">
  <way id="86296389" version="2" timestamp="2011-03-10T10:13:23Z" uid="4467" user="Rosscoe" changeset="7512457">
    <nd ref="1001756444"/>
    <nd ref="279121160"/>
    <nd ref="279121128"/>
    <nd ref="279121303"/>
    <nd ref="1195205305"/>
    <nd ref="279119501"/>
    <tag k="highway" v="residential"/>
    <tag k="maxspeed" v="50"/>
    <tag k="maxspeed:source" v="default residential speed limit in Australia"/>
    <tag k="name" v="Sandhurst Road"/>
  </way>
  <way id="86296389" version="3" timestamp="2011-09-12T13:03:55Z" uid="11111" user="melb_guy" changeset="9279750">
    <nd ref="1001756444"/>
    <nd ref="279121160"/>
    <nd ref="279121128"/>
    <nd ref="279121303"/>
    <nd ref="1430931565"/>
    <tag k="highway" v="residential"/>
    <tag k="maxspeed" v="50"/>
    <tag k="maxspeed:source" v="default residential speed limit in Australia"/>
    <tag k="name" v="Sandhurst Road"/>
  </way>
  <way id="86296389" version="4" timestamp="2012-02-28T05:54:10Z" uid="11111" user="melb_guy" changeset="10815882">
    <nd ref="1001756444"/>
    <nd ref="279121160"/>
    <nd ref="279121128"/>
    <nd ref="279121303"/>
    <nd ref="1430931565"/>
    <tag k="highway" v="residential"/>
    <tag k="lanes" v="2"/>
    <tag k="maxspeed" v="50"/>
    <tag k="name" v="Sandhurst Road"/>
    <tag k="surface" v="asphalt"/>
  </way>
  <way id="86296389" version="5" timestamp="2012-02-28T05:58:31Z" uid="11111" user="melb_guy" changeset="10815882">
    <nd ref="1001756444"/>
    <nd ref="279121160"/>
    <nd ref="279121128"/>
    <nd ref="279121303"/>
    <nd ref="1430931565"/>
    <tag k="highway" v="residential"/>
    <tag k="lanes" v="2"/>
    <tag k="maxspeed" v="50"/>
    <tag k="name" v="Sandhurst Road"/>
    <tag k="surface" v="asphalt"/>
  </way>
</osm>
