<?xml version='1.0' encoding='UTF-8'?>
<osm version="0.6" generator="libosmium/2.20.0">
  <way id="86433994" version="1" timestamp="2010-11-25T20:28:19Z" uid="8619" user="cetest" changeset="6457388">
    <nd ref="90572103"/>
    <nd ref="90572106"/>
    <nd ref="246806309"/>
    <tag k="highway" v="cycleway"/>
    <tag k="name" v="Nassaukade"/>
  </way>
  <way id="86433994" version="2" timestamp="2012-01-11T09:09:10Z" uid="334075" user="eggie" changeset="10358722"/>
  <way id="86433995" version="1" timestamp="2010-11-25T20:28:20Z" uid="8619" user="cetest" changeset="6457388">
    <nd ref="44558456"/>
    <nd ref="44558948"/>
    <tag k="AND:importance_level" v="4"/>
    <tag k="AND_nosr_r" v="15287014"/>
    <tag k="highway" v="tertiary"/>
    <tag k="maxspeed" v="30"/>
    <tag k="name" v="H.A.Schreuderstraat"/>
  </way>
  <way id="86433995" version="2" timestamp="2011-04-13T20:07:08Z" uid="203114" user="Jeroen Muris" changeset="7855405">
    <nd ref="44558456"/>
    <nd ref="1243697857"/>
    <tag k="AND:importance_level" v="4"/>
    <tag k="AND_nosr_r" v="15287014"/>
    <tag k="highway" v="tertiary"/>
    <tag k="maxspeed" v="30"/>
    <tag k="name" v="H.A.Schreuderstraat"/>
  </way>
  <way id="86433995" version="3" timestamp="2012-01-12T22:13:18Z" uid="191979" user="It&apos;s so funny" changeset="10374202"/>
</osm>
