<?xml version='1.0' encoding='UTF-8'?>
<osm version="0.6" generator="libosmium/2.20.0">
  <way id="86445431" version="2" timestamp="2011-04-14T15:43:08Z" uid="4467" user="Rosscoe" changeset="7861959">
    <nd ref="356535973"/>
    <nd ref="363084800"/>
    <tag k="admin_level" v="8"/>
    <tag k="attribution" v="Based on Australian Bureau of Statistics data"/>
    <tag k="boundary" v="administrative"/>
    <tag k="source" v="ABS_2006"/>
  </way>
  <way id="86445440" version="3" timestamp="2011-04-25T10:49:01Z" uid="4467" user="Rosscoe" changeset="7961858">
    <nd ref="253000393"/>
    <nd ref="253000394"/>
    <nd ref="1246886575"/>
    <nd ref="253000395"/>
    <nd ref="253000396"/>
    <nd ref="1246886639"/>
    <nd ref="253000397"/>
    <nd ref="1259355714"/>
    <nd ref="253000375"/>
    <tag k="cycleway" v="lane"/>
    <tag k="highway" v="primary"/>
    <tag k="name" v="Gorge Road"/>
    <tag k="ref" v="B31"/>
    <tag k="source" v="survey"/>
  </way>
  <way id="86445440" version="4" timestamp="2011-07-08T13:21:26Z" uid="428465" user="markinspace" changeset="8665899">
    <nd ref="253000393"/>
    <nd ref="253000394"/>
    <nd ref="1246886575"/>
    <nd ref="253000395"/>
    <nd ref="253000396"/>
    <nd ref="1246886639"/>
    <nd ref="253000397"/>
    <nd ref="1259355714"/>
    <nd ref="253000375"/>
    <tag k="cycleway" v="lane"/>
    <tag k="highway" v="primary"/>
    <tag k="maxspeed" v="60"/>
    <tag k="name" v="Gorge Road"/>
    <tag k="ref" v="B31"/>
    <tag k="source" v="survey"/>
  </way>
  <way id="86445447" version="2" timestamp="2011-04-14T15:43:34Z" uid="4467" user="Rosscoe" changeset="7861959">
    <nd ref="1004477681"/>
    <nd ref="597117956"/>
    <nd ref="597117984"/>
    <nd ref="252858106"/>
    <nd ref="597117992"/>
    <nd ref="252858107"/>
    <nd ref="597117999"/>
    <nd ref="597117634"/>
    <nd ref="252858108"/>
    <nd ref="597117865"/>
    <nd ref="955857270"/>
    <nd ref="361083128"/>
    <tag k="admin_level" v="8"/>
    <tag k="attribution" v="Based on Australian Bureau of Statistics data"/>
    <tag k="boundary" v="administrative"/>
    <tag k="source" v="ABS_2006"/>
  </way>
  <way id="86445451" version="3" timestamp="2011-04-14T15:47:22Z" uid="4467" user="Rosscoe" changeset="7861959">
    <nd ref="253000293"/>
    <nd ref="56324249"/>
    <nd ref="317066387"/>
    <nd ref="1244437758"/>
    <nd ref="1244436958"/>
    <nd ref="1244437874"/>
    <nd ref="1244437006"/>
    <nd ref="1244436540"/>
    <nd ref="1244436731"/>
    <nd ref="1244436545"/>
    <nd ref="1244436447"/>
    <nd ref="1244436544"/>
    <nd ref="252991696"/>
    <nd ref="252991697"/>
    <nd ref="252991698"/>
    <nd ref="252991699"/>
    <nd ref="252991700"/>
    <nd ref="252991701"/>
    <nd ref="1004477716"/>
    <nd ref="252991703"/>
    <tag k="cycleway" v="lane"/>
    <tag k="highway" v="secondary"/>
    <tag k="maxspeed" v="60"/>
    <tag k="name" v="Awoonga Road"/>
    <tag k="source" v="survey"/>
  </way>
  <way id="86445455" version="2" timestamp="2011-04-14T15:47:28Z" uid="4467" user="Rosscoe" changeset="7861959"/>
  <way id="86445431" version="3" timestamp="2012-06-24T09:21:27Z" uid="328538" user="o&apos;cholio" changeset="11997292"/>
  <way id="86445440" version="5" timestamp="2012-07-19T18:15:20Z" uid="722137" user="OSMF Redaction Account" changeset="12342908">
    <nd ref="253000393"/>
    <nd ref="1246886575"/>
    <nd ref="1246886639"/>
    <nd ref="253000375"/>
    <tag k="cycleway" v="lane"/>
    <tag k="highway" v="primary"/>
    <tag k="maxspeed" v="60"/>
    <tag k="name" v="Gorge Road"/>
    <tag k="ref" v="B31"/>
    <tag k="source" v="survey"/>
  </way>
  <way id="86445440" version="6" timestamp="2012-07-19T18:31:02Z" uid="722137" user="OSMF Redaction Account" changeset="12343236">
    <nd ref="253000393"/>
    <nd ref="1246886575"/>
    <nd ref="1246886639"/>
    <tag k="cycleway" v="lane"/>
    <tag k="highway" v="primary"/>
    <tag k="maxspeed" v="60"/>
    <tag k="name" v="Gorge Road"/>
    <tag k="ref" v="B31"/>
    <tag k="source" v="survey"/>
  </way>
  <way id="86445440" version="7" timestamp="2012-07-28T03:10:31Z" uid="328538" user="o&apos;cholio" changeset="12518608">
    <nd ref="1840724519"/>
    <nd ref="1840724516"/>
    <nd ref="1840724515"/>
    <nd ref="1840724511"/>
    <nd ref="253000393"/>
    <nd ref="1840724513"/>
    <nd ref="1840724514"/>
    <nd ref="1246886575"/>
    <nd ref="1840724506"/>
    <nd ref="1246886639"/>
    <tag k="cycleway" v="lane"/>
    <tag k="highway" v="primary"/>
    <tag k="maxspeed" v="60"/>
    <tag k="name" v="Gorge Road"/>
    <tag k="ref" v="B31"/>
    <tag k="source" v="survey"/>
  </way>
  <way id="86445440" version="8" timestamp="2012-07-28T09:09:11Z" uid="328538" user="o&apos;cholio" changeset="12520540">
    <nd ref="1840724519"/>
    <nd ref="1840724516"/>
    <nd ref="1840724515"/>
    <nd ref="1840724511"/>
    <nd ref="253000393"/>
    <nd ref="1840724513"/>
    <nd ref="1840724514"/>
    <nd ref="1246886575"/>
    <nd ref="1840724506"/>
    <nd ref="1246886639"/>
    <tag k="cycleway" v="lane"/>
    <tag k="highway" v="primary"/>
    <tag k="maxspeed" v="60"/>
    <tag k="name" v="Gorge Road"/>
    <tag k="oneway" v="yes"/>
    <tag k="ref" v="B31"/>
    <tag k="source" v="survey"/>
  </way>
  <way id="86445447" version="3" timestamp="2012-07-19T15:04:38Z" uid="722137" user="OSMF Redaction Account" changeset="12332938">
    <nd ref="1004477681"/>
    <nd ref="597117956"/>
    <nd ref="597117984"/>
    <nd ref="597117992"/>
    <nd ref="597117999"/>
    <nd ref="597117634"/>
    <nd ref="597117865"/>
    <nd ref="955857270"/>
    <tag k="admin_level" v="8"/>
    <tag k="attribution" v="Based on Australian Bureau of Statistics data"/>
    <tag k="boundary" v="administrative"/>
    <tag k="source" v="survey"/>
  </way>
  <way id="86445447" version="4" timestamp="2012-08-02T13:26:20Z" uid="328538" user="o&apos;cholio" changeset="12585773"/>
  <way id="86445451" version="4" timestamp="2012-06-24T09:20:27Z" uid="328538" user="o&apos;cholio" changeset="11997292">
    <nd ref="56324249"/>
    <nd ref="1800314985"/>
    <nd ref="1800314981"/>
    <nd ref="1800314966"/>
    <nd ref="1800314965"/>
    <nd ref="1244436958"/>
    <nd ref="1244437874"/>
    <nd ref="1244437006"/>
    <nd ref="1244436540"/>
    <nd ref="1244436731"/>
    <nd ref="1244436545"/>
    <nd ref="1244436447"/>
    <nd ref="1244436544"/>
    <nd ref="252991696"/>
    <nd ref="252991697"/>
    <nd ref="252991698"/>
    <nd ref="252991699"/>
    <nd ref="252991700"/>
    <nd ref="252991701"/>
    <nd ref="1004477716"/>
    <nd ref="252991703"/>
    <tag k="cycleway" v="lane"/>
    <tag k="highway" v="secondary"/>
    <tag k="maxspeed" v="60"/>
    <tag k="name" v="Awoonga Road"/>
    <tag k="odbl" v="clean"/>
    <tag k="source" v="survey"/>
  </way>
  <way id="86445451" version="5" timestamp="2012-07-19T15:05:01Z" uid="722137" user="OSMF Redaction Account" changeset="12332938">
    <nd ref="56324249"/>
    <nd ref="1800314985"/>
    <nd ref="1800314981"/>
    <nd ref="1800314966"/>
    <nd ref="1800314965"/>
    <nd ref="1004477716"/>
    <nd ref="252991703"/>
    <tag k="cycleway" v="lane"/>
    <tag k="highway" v="secondary"/>
    <tag k="maxspeed" v="60"/>
    <tag k="name" v="Awoonga Road"/>
    <tag k="odbl" v="clean"/>
    <tag k="source" v="survey"/>
  </way>
  <way id="86445451" version="6" timestamp="2012-08-21T15:03:42Z" uid="57380" user="JennyH" changeset="12809040">
    <nd ref="56324249"/>
    <nd ref="1800314985"/>
    <nd ref="1800314981"/>
    <nd ref="1800314966"/>
    <nd ref="1800314965"/>
    <nd ref="1876176502"/>
    <nd ref="1004477716"/>
    <nd ref="252991703"/>
    <tag k="cycleway" v="lane"/>
    <tag k="highway" v="secondary"/>
    <tag k="maxspeed" v="60"/>
    <tag k="name" v="Awoonga Road"/>
    <tag k="odbl" v="clean"/>
    <tag k="source" v="survey"/>
  </way>
  <way id="86445451" version="7" timestamp="2012-08-21T15:58:23Z" uid="57380" user="JennyH" changeset="12809040">
    <nd ref="56324249"/>
    <nd ref="1800314985"/>
    <nd ref="1800314981"/>
    <nd ref="1800314966"/>
    <nd ref="1800314965"/>
    <nd ref="1876261565"/>
    <nd ref="1876176502"/>
    <nd ref="1004477716"/>
    <nd ref="252991703"/>
    <tag k="cycleway" v="lane"/>
    <tag k="highway" v="secondary"/>
    <tag k="maxspeed" v="60"/>
    <tag k="name" v="Awoonga Road"/>
    <tag k="odbl" v="clean"/>
    <tag k="source" v="survey"/>
  </way>
</osm>
