<?xml version='1.0' encoding='UTF-8'?>
<osm version="0.6" generator="libosmium/2.20.0">
  <way id="86463278" version="2" timestamp="2011-04-03T16:49:07Z" uid="4467" user="Rosscoe" changeset="7756305">
    <nd ref="1004607599"/>
    <nd ref="252348047"/>
    <nd ref="253335775"/>
    <tag k="highway" v="trunk"/>
    <tag k="maxspeed" v="60"/>
    <tag k="name" v="Portrush Road"/>
    <tag k="oneway" v="yes"/>
    <tag k="ref" v="NH A17"/>
    <tag k="source" v="survey"/>
    <tag k="source_ref:name" v="http://osm.beldin.org/2008/10/dscf3522.jpg"/>
  </way>
  <way id="86463278" version="3" timestamp="2012-05-30T14:07:28Z" uid="328538" user="o&apos;cholio" changeset="11749023">
    <nd ref="1004607599"/>
    <nd ref="252348047"/>
    <nd ref="253335775"/>
    <tag k="highway" v="trunk"/>
    <tag k="maxspeed" v="60"/>
    <tag k="name" v="Portrush Road"/>
    <tag k="oneway" v="yes"/>
    <tag k="ref" v="A17"/>
    <tag k="source" v="survey"/>
    <tag k="source_ref:name" v="http://osm.beldin.org/2008/10/dscf3522.jpg"/>
  </way>
  <way id="86463278" version="4" timestamp="2012-06-06T13:11:44Z" uid="328538" user="o&apos;cholio" changeset="11815679"/>
</osm>
