<?xml version='1.0' encoding='UTF-8'?>
<osm version="0.6" generator="libosmium/2.20.0">
  <way id="86498603" version="1" timestamp="2010-11-26T13:13:45Z" uid="115477" user="wowik" changeset="6461958">
    <nd ref="710640891"/>
    <nd ref="1005375366"/>
    <nd ref="1005375367"/>
    <nd ref="1005375369"/>
    <nd ref="524054167"/>
    <tag k="highway" v="track"/>
  </way>
  <way id="86498603" version="2" timestamp="2011-03-20T14:20:30Z" uid="65083" user="deep125" changeset="7617004">
    <nd ref="710640891"/>
    <nd ref="1005375366"/>
    <nd ref="1005375367"/>
    <nd ref="1210540282"/>
    <nd ref="1005375369"/>
    <nd ref="524054167"/>
    <tag k="highway" v="track"/>
  </way>
  <way id="86498604" version="1" timestamp="2010-11-26T13:13:45Z" uid="115477" user="wowik" changeset="6461958">
    <nd ref="1005375376"/>
    <nd ref="1005375372"/>
    <tag k="highway" v="track"/>
  </way>
  <way id="86498605" version="1" timestamp="2010-11-26T13:13:46Z" uid="115477" user="wowik" changeset="6461958">
    <nd ref="1005375377"/>
    <nd ref="993615522"/>
    <tag k="highway" v="track"/>
  </way>
  <way id="86498607" version="1" timestamp="2010-11-26T13:13:46Z" uid="115477" user="wowik" changeset="6461958">
    <nd ref="1005375379"/>
    <nd ref="1005375380"/>
    <nd ref="1005375382"/>
    <nd ref="1005375383"/>
    <nd ref="1005375385"/>
    <nd ref="1005375388"/>
    <nd ref="1005375390"/>
    <nd ref="1005375393"/>
    <nd ref="1005375396"/>
    <nd ref="1005375400"/>
    <nd ref="1005375369"/>
    <tag k="highway" v="path"/>
  </way>
  <way id="86498627" version="1" timestamp="2010-11-26T13:15:29Z" uid="115477" user="wowik" changeset="6461958">
    <nd ref="1005376510"/>
    <nd ref="1005376514"/>
    <nd ref="1005376517"/>
    <nd ref="1005376521"/>
    <nd ref="1005376510"/>
    <tag k="building" v="yes"/>
  </way>
  <way id="86498627" version="2" timestamp="2010-11-26T14:28:06Z" uid="115477" user="wowik" changeset="6462263">
    <nd ref="1005376510"/>
    <nd ref="1005376514"/>
    <nd ref="1005376517"/>
    <nd ref="1005376521"/>
    <nd ref="1005376510"/>
    <tag k="abandoned" v="yes"/>
    <tag k="building" v="yes"/>
  </way>
  <way id="86498627" version="3" timestamp="2012-03-27T08:13:43Z" uid="481934" user="iWowik" changeset="11113698">
    <nd ref="1005376510"/>
    <nd ref="1005376514"/>
    <nd ref="1005376517"/>
    <nd ref="1005376521"/>
    <nd ref="1005376510"/>
    <tag k="abandoned" v="yes"/>
    <tag k="addr:city" v="Зеленоград"/>
    <tag k="addr:country" v="RU"/>
    <tag k="building" v="yes"/>
  </way>
  <way id="86498627" version="4" timestamp="2012-03-27T11:52:11Z" uid="481934" user="iWowik" changeset="11115472">
    <nd ref="1005376510"/>
    <nd ref="1005376514"/>
    <nd ref="1005376517"/>
    <nd ref="1005376521"/>
    <nd ref="1005376510"/>
    <tag k="abandoned" v="yes"/>
    <tag k="addr:city" v="Зеленоград"/>
    <tag k="addr:country" v="RU"/>
    <tag k="addr:region" v="Москва"/>
    <tag k="building" v="yes"/>
  </way>
  <way id="86498629" version="1" timestamp="2010-11-26T13:15:30Z" uid="115477" user="wowik" changeset="6461958">
    <nd ref="1005376528"/>
    <nd ref="1005376530"/>
    <nd ref="1005376533"/>
    <nd ref="1005376534"/>
    <nd ref="1005376528"/>
    <tag k="building" v="yes"/>
  </way>
  <way id="86498629" version="2" timestamp="2010-11-26T14:28:08Z" uid="115477" user="wowik" changeset="6462263"/>
  <way id="86498757" version="2" timestamp="2011-01-28T12:49:17Z" uid="115477" user="wowik" changeset="7112607">
    <nd ref="1005376835"/>
    <nd ref="1005376836"/>
    <nd ref="1005376838"/>
    <nd ref="1005376839"/>
    <nd ref="1005376835"/>
    <tag k="amenity" v="cafe"/>
    <tag k="building" v="yes"/>
  </way>
  <way id="86498757" version="3" timestamp="2011-08-04T06:23:18Z" uid="465700" user="Tomasina" changeset="8916598">
    <nd ref="1005376835"/>
    <nd ref="1005376836"/>
    <nd ref="1005376838"/>
    <nd ref="1005376839"/>
    <nd ref="1005376835"/>
    <tag k="addr:city" v="Зеленоград"/>
    <tag k="addr:housenumber" v="2A"/>
    <tag k="addr:street" v="Савёлкинский проезд"/>
    <tag k="amenity" v="cafe"/>
    <tag k="building" v="yes"/>
    <tag k="is_in" v="Russia"/>
  </way>
  <way id="86498757" version="4" timestamp="2011-09-13T10:25:14Z" uid="29320" user="Komяpa" changeset="9288237">
    <nd ref="1005376835"/>
    <nd ref="1005376836"/>
    <nd ref="1005376838"/>
    <nd ref="1005376839"/>
    <nd ref="1005376835"/>
    <tag k="addr:city" v="Зеленоград"/>
    <tag k="addr:country" v="RU"/>
    <tag k="addr:housenumber" v="2A"/>
    <tag k="addr:street" v="Савёлкинский проезд"/>
    <tag k="amenity" v="cafe"/>
    <tag k="building" v="yes"/>
  </way>
  <way id="86498757" version="5" timestamp="2012-03-27T11:40:34Z" uid="481934" user="iWowik" changeset="11115472">
    <nd ref="1005376835"/>
    <nd ref="1005376836"/>
    <nd ref="1005376838"/>
    <nd ref="1005376839"/>
    <nd ref="1005376835"/>
    <tag k="addr:city" v="Зеленоград"/>
    <tag k="addr:country" v="RU"/>
    <tag k="addr:housenumber" v="2A"/>
    <tag k="addr:region" v="Москва"/>
    <tag k="addr:street" v="Савёлкинский проезд"/>
    <tag k="amenity" v="cafe"/>
    <tag k="building" v="yes"/>
  </way>
  <way id="86498871" version="1" timestamp="2010-11-26T13:18:47Z" uid="115477" user="wowik" changeset="6461958">
    <nd ref="1005378323"/>
    <nd ref="1005378324"/>
    <nd ref="1005378326"/>
    <nd ref="1005378315"/>
    <tag k="highway" v="service"/>
    <tag k="living_street" v="yes"/>
  </way>
  <way id="86498603" version="3" timestamp="2012-07-20T23:55:30Z" uid="722137" user="OSMF Redaction Account" changeset="12396600"/>
  <way id="86498604" version="2" timestamp="2012-07-20T23:55:27Z" uid="722137" user="OSMF Redaction Account" changeset="12396600"/>
  <way id="86498605" version="2" timestamp="2012-07-20T23:55:23Z" uid="722137" user="OSMF Redaction Account" changeset="12396600"/>
  <way id="86498607" version="2" timestamp="2012-07-20T23:55:48Z" uid="722137" user="OSMF Redaction Account" changeset="12396604"/>
  <way id="86498627" version="5" timestamp="2012-07-20T23:55:38Z" uid="722137" user="OSMF Redaction Account" changeset="12396600"/>
  <way id="86498757" version="6" timestamp="2012-07-20T22:09:37Z" uid="722137" user="OSMF Redaction Account" changeset="12394292">
    <nd ref="1005376835"/>
    <nd ref="1005376836"/>
    <nd ref="1005376838"/>
    <nd ref="1005376839"/>
    <nd ref="1005376835"/>
    <tag k="addr:city" v="Зеленоград"/>
    <tag k="addr:country" v="RU"/>
    <tag k="addr:housenumber" v="2A"/>
    <tag k="addr:region" v="Москва"/>
    <tag k="addr:street" v="Савёлкинский проезд"/>
    <tag k="building" v="yes"/>
  </way>
  <way id="86498757" version="7" timestamp="2012-08-28T21:03:23Z" uid="109327" user="OverQuantum" changeset="12898197">
    <nd ref="1005376835"/>
    <nd ref="1005376836"/>
    <nd ref="1005376838"/>
    <nd ref="1005376839"/>
    <nd ref="1005376835"/>
    <tag k="addr:city" v="Зеленоград"/>
    <tag k="addr:country" v="RU"/>
    <tag k="addr:housenumber" v="2A"/>
    <tag k="addr:region" v="Москва"/>
    <tag k="addr:street" v="Савёлкинский проезд"/>
    <tag k="building" v="yes"/>
    <tag k="building:levels" v="2"/>
  </way>
  <way id="86498871" version="2" timestamp="2012-07-20T23:55:18Z" uid="722137" user="OSMF Redaction Account" changeset="12396600"/>
</osm>
