<?xml version='1.0' encoding='UTF-8'?>
<osm version="0.6" generator="libosmium/2.20.0">
  <way id="86578281" version="2" timestamp="2011-04-05T02:49:58Z" uid="4467" user="Rosscoe" changeset="7771132">
    <nd ref="1006275195"/>
    <nd ref="1233256481"/>
    <tag k="highway" v="secondary"/>
    <tag k="maxspeed" v="60"/>
    <tag k="name" v="Lady Gowrie Drive"/>
    <tag k="source" v="survey"/>
  </way>
  <way id="86578284" version="2" timestamp="2011-04-05T02:51:09Z" uid="4467" user="Rosscoe" changeset="7771132">
    <nd ref="1233256645"/>
    <nd ref="683769898"/>
    <tag k="cycleway" v="lane"/>
    <tag k="highway" v="trunk"/>
    <tag k="maxspeed" v="60"/>
    <tag k="name" v="Victoria Road"/>
    <tag k="oneway" v="yes"/>
    <tag k="ref" v="A16"/>
    <tag k="source" v="survey"/>
    <tag k="source_ref:name" v="http://osm.beldin.org/2009/02/dscf7135.jpg"/>
  </way>
  <way id="86578284" version="3" timestamp="2011-07-30T00:51:54Z" uid="320632" user="Zulu99" changeset="8868362">
    <nd ref="1233256645"/>
    <nd ref="1378107122"/>
    <nd ref="1378107124"/>
    <tag k="cycleway" v="lane"/>
    <tag k="highway" v="trunk"/>
    <tag k="maxspeed" v="60"/>
    <tag k="name" v="Victoria Road"/>
    <tag k="oneway" v="yes"/>
    <tag k="ref" v="A16"/>
    <tag k="source" v="survey"/>
    <tag k="source_ref:name" v="http://osm.beldin.org/2009/02/dscf7135.jpg"/>
  </way>
  <way id="86578286" version="2" timestamp="2011-04-05T02:50:17Z" uid="4467" user="Rosscoe" changeset="7771132">
    <nd ref="31326765"/>
    <nd ref="683769914"/>
    <nd ref="31325540"/>
    <nd ref="683769894"/>
    <nd ref="31326767"/>
    <nd ref="31326768"/>
    <nd ref="683770033"/>
    <nd ref="683770034"/>
    <nd ref="31326769"/>
    <nd ref="31326770"/>
    <nd ref="31326771"/>
    <nd ref="1233256731"/>
    <nd ref="31395341"/>
    <nd ref="683770076"/>
    <nd ref="31395334"/>
    <nd ref="683770077"/>
    <nd ref="31323281"/>
    <nd ref="279428707"/>
    <nd ref="1006275197"/>
    <tag k="cycleway" v="lane"/>
    <tag k="highway" v="tertiary"/>
    <tag k="name" v="Osborne Road"/>
    <tag k="oneway" v="yes"/>
  </way>
  <way id="86578286" version="3" timestamp="2011-08-10T07:23:21Z" uid="320632" user="Zulu99" changeset="8973675">
    <nd ref="31326765"/>
    <nd ref="683769914"/>
    <nd ref="31325540"/>
    <nd ref="683769894"/>
    <nd ref="31326767"/>
    <nd ref="31326768"/>
    <nd ref="683770033"/>
    <nd ref="1393395345"/>
    <nd ref="683770034"/>
    <nd ref="31326769"/>
    <nd ref="31326770"/>
    <nd ref="31326771"/>
    <nd ref="1233256731"/>
    <nd ref="31395341"/>
    <nd ref="683770076"/>
    <nd ref="31395334"/>
    <nd ref="683770077"/>
    <nd ref="31323281"/>
    <nd ref="279428707"/>
    <nd ref="1006275197"/>
    <tag k="cycleway" v="lane"/>
    <tag k="highway" v="tertiary"/>
    <tag k="name" v="Osborne Road"/>
    <tag k="oneway" v="yes"/>
  </way>
  <way id="86578288" version="2" timestamp="2011-04-05T02:51:23Z" uid="4467" user="Rosscoe" changeset="7771132">
    <nd ref="31393953"/>
    <nd ref="485605438"/>
    <nd ref="1233256744"/>
    <nd ref="620208728"/>
    <nd ref="699801247"/>
    <nd ref="31393954"/>
    <nd ref="31393955"/>
    <nd ref="31393956"/>
    <nd ref="279426862"/>
    <nd ref="31393958"/>
    <nd ref="166227273"/>
    <nd ref="279422506"/>
    <nd ref="31393959"/>
    <nd ref="279412375"/>
    <nd ref="31393961"/>
    <nd ref="31393962"/>
    <nd ref="31393963"/>
    <nd ref="31393964"/>
    <nd ref="1006275195"/>
    <tag k="cycleway" v="lane"/>
    <tag k="highway" v="secondary"/>
    <tag k="maxspeed" v="60"/>
    <tag k="name" v="Lady Gowrie Drive"/>
    <tag k="source" v="survey"/>
  </way>
  <way id="86578289" version="2" timestamp="2011-01-01T01:22:25Z" uid="4467" user="Rosscoe" changeset="6824653">
    <nd ref="683769898"/>
    <nd ref="31289441"/>
    <nd ref="893745552"/>
    <nd ref="277899296"/>
    <nd ref="31289442"/>
    <nd ref="277898534"/>
    <nd ref="31289443"/>
    <nd ref="36823850"/>
    <nd ref="31289444"/>
    <nd ref="277899768"/>
    <nd ref="277899955"/>
    <nd ref="31289445"/>
    <nd ref="277901754"/>
    <nd ref="31289446"/>
    <nd ref="277901180"/>
    <nd ref="31289494"/>
    <nd ref="277901128"/>
    <nd ref="277904299"/>
    <nd ref="31289495"/>
    <nd ref="31393966"/>
    <nd ref="283114304"/>
    <nd ref="345544003"/>
    <nd ref="345544011"/>
    <nd ref="345544027"/>
    <nd ref="31289497"/>
    <tag k="highway" v="trunk"/>
    <tag k="maxspeed" v="60"/>
    <tag k="name" v="Victoria Road"/>
    <tag k="oneway" v="yes"/>
    <tag k="ref" v="A16"/>
    <tag k="source" v="survey"/>
    <tag k="source_ref:name" v="http://osm.beldin.org/2009/02/dscf7135.jpg"/>
  </way>
  <way id="86578289" version="3" timestamp="2011-04-05T02:50:38Z" uid="4467" user="Rosscoe" changeset="7771132">
    <nd ref="683769898"/>
    <nd ref="31289441"/>
    <nd ref="893745552"/>
    <nd ref="277899296"/>
    <nd ref="31289442"/>
    <nd ref="277898534"/>
    <nd ref="31289443"/>
    <nd ref="36823850"/>
    <nd ref="31289444"/>
    <nd ref="277899768"/>
    <nd ref="277899955"/>
    <nd ref="31289445"/>
    <nd ref="277901754"/>
    <nd ref="1233256304"/>
    <nd ref="31289446"/>
    <nd ref="277901180"/>
    <nd ref="31289494"/>
    <nd ref="277901128"/>
    <nd ref="277904299"/>
    <nd ref="31393966"/>
    <nd ref="283114304"/>
    <nd ref="345544003"/>
    <nd ref="345544011"/>
    <nd ref="345544027"/>
    <nd ref="31289497"/>
    <tag k="highway" v="trunk"/>
    <tag k="maxspeed" v="60"/>
    <tag k="name" v="Victoria Road"/>
    <tag k="oneway" v="yes"/>
    <tag k="ref" v="A16"/>
    <tag k="source" v="survey"/>
    <tag k="source_ref:name" v="http://osm.beldin.org/2009/02/dscf7135.jpg"/>
  </way>
  <way id="86578289" version="4" timestamp="2011-07-30T00:51:55Z" uid="320632" user="Zulu99" changeset="8868362">
    <nd ref="683769898"/>
    <nd ref="31289441"/>
    <nd ref="893745552"/>
    <nd ref="277899296"/>
    <nd ref="31289442"/>
    <nd ref="1378107136"/>
    <tag k="highway" v="trunk"/>
    <tag k="maxspeed" v="60"/>
    <tag k="name" v="Victoria Road"/>
    <tag k="oneway" v="yes"/>
    <tag k="ref" v="A16"/>
    <tag k="source" v="survey"/>
    <tag k="source_ref:name" v="http://osm.beldin.org/2009/02/dscf7135.jpg"/>
  </way>
  <way id="86578294" version="2" timestamp="2011-04-05T02:51:05Z" uid="4467" user="Rosscoe" changeset="7771132">
    <nd ref="683770078"/>
    <nd ref="683770035"/>
    <nd ref="31395334"/>
    <nd ref="683769912"/>
    <tag k="highway" v="tertiary"/>
    <tag k="name" v="Military Road"/>
    <tag k="oneway" v="yes"/>
  </way>
  <way id="86578295" version="2" timestamp="2011-01-01T01:22:27Z" uid="4467" user="Rosscoe" changeset="6824653"/>
  <way id="86578296" version="2" timestamp="2011-04-05T02:51:31Z" uid="4467" user="Rosscoe" changeset="7771132"/>
  <way id="86578297" version="2" timestamp="2011-04-05T02:49:48Z" uid="4467" user="Rosscoe" changeset="7771132">
    <nd ref="1006275191"/>
    <nd ref="279426883"/>
    <nd ref="31395327"/>
    <nd ref="31395328"/>
    <nd ref="279426878"/>
    <nd ref="31395329"/>
    <nd ref="279431454"/>
    <nd ref="279431040"/>
    <nd ref="279428689"/>
    <nd ref="31395335"/>
    <nd ref="31395336"/>
    <nd ref="279427325"/>
    <nd ref="31395337"/>
    <nd ref="1233256532"/>
    <nd ref="31395338"/>
    <nd ref="31395339"/>
    <nd ref="683770032"/>
    <nd ref="683770078"/>
    <tag k="cycleway" v="lane"/>
    <tag k="highway" v="tertiary"/>
    <tag k="name" v="Military Road"/>
    <tag k="oneway" v="yes"/>
  </way>
  <way id="86578281" version="3" timestamp="2012-07-20T12:23:45Z" uid="722137" user="OSMF Redaction Account" changeset="12375752"/>
  <way id="86578284" version="4" timestamp="2012-07-19T20:44:13Z" uid="722137" user="OSMF Redaction Account" changeset="12346724">
    <nd ref="1378107122"/>
    <nd ref="1378107124"/>
    <tag k="cycleway" v="lane"/>
    <tag k="highway" v="trunk"/>
    <tag k="maxspeed" v="60"/>
    <tag k="name" v="Victoria Road"/>
    <tag k="oneway" v="yes"/>
    <tag k="ref" v="A16"/>
    <tag k="source" v="survey"/>
    <tag k="source_ref:name" v="http://osm.beldin.org/2009/02/dscf7135.jpg"/>
  </way>
  <way id="86578284" version="5" timestamp="2012-07-28T16:37:43Z" uid="328538" user="o&apos;cholio" changeset="12525409">
    <nd ref="1233256645"/>
    <nd ref="1378107122"/>
    <nd ref="1378107124"/>
    <tag k="cycleway" v="lane"/>
    <tag k="highway" v="trunk"/>
    <tag k="maxspeed" v="60"/>
    <tag k="name" v="Victoria Road"/>
    <tag k="oneway" v="yes"/>
    <tag k="ref" v="A16"/>
    <tag k="source" v="survey"/>
    <tag k="source_ref:name" v="http://osm.beldin.org/2009/02/dscf7135.jpg"/>
  </way>
  <way id="86578286" version="4" timestamp="2012-07-19T20:44:11Z" uid="722137" user="OSMF Redaction Account" changeset="12346724">
    <nd ref="31326765"/>
    <nd ref="683769914"/>
    <nd ref="31325540"/>
    <nd ref="683769894"/>
    <nd ref="31326767"/>
    <nd ref="31326768"/>
    <nd ref="683770033"/>
    <nd ref="1393395345"/>
    <nd ref="683770034"/>
    <nd ref="31326769"/>
    <nd ref="31326770"/>
    <nd ref="31326771"/>
    <nd ref="31395341"/>
    <nd ref="683770076"/>
    <nd ref="31395334"/>
    <nd ref="683770077"/>
    <nd ref="31323281"/>
    <nd ref="279428707"/>
    <nd ref="1006275197"/>
    <tag k="cycleway" v="lane"/>
    <tag k="highway" v="tertiary"/>
    <tag k="name" v="Osborne Road"/>
    <tag k="oneway" v="yes"/>
  </way>
  <way id="86578288" version="3" timestamp="2012-07-20T12:20:50Z" uid="722137" user="OSMF Redaction Account" changeset="12375569">
    <nd ref="31393954"/>
    <nd ref="31393955"/>
    <nd ref="31393956"/>
    <nd ref="31393958"/>
    <nd ref="166227273"/>
    <nd ref="31393959"/>
    <nd ref="31393961"/>
    <nd ref="31393962"/>
    <nd ref="31393963"/>
    <nd ref="31393964"/>
    <nd ref="1006275195"/>
    <tag k="cycleway" v="lane"/>
    <tag k="highway" v="secondary"/>
    <tag k="maxspeed" v="60"/>
    <tag k="name" v="Lady Gowrie Drive"/>
    <tag k="source" v="survey"/>
  </way>
  <way id="86578288" version="4" timestamp="2012-07-28T16:37:34Z" uid="328538" user="o&apos;cholio" changeset="12525409">
    <nd ref="31393954"/>
    <nd ref="31393955"/>
    <nd ref="31393956"/>
    <nd ref="31393958"/>
    <nd ref="166227273"/>
    <nd ref="31393959"/>
    <nd ref="31393961"/>
    <nd ref="31393962"/>
    <nd ref="31393963"/>
    <nd ref="31393964"/>
    <nd ref="1006275195"/>
    <nd ref="1841590880"/>
    <tag k="cycleway" v="lane"/>
    <tag k="highway" v="secondary"/>
    <tag k="maxspeed" v="60"/>
    <tag k="name" v="Lady Gowrie Drive"/>
    <tag k="source" v="survey"/>
  </way>
  <way id="86578288" version="5" timestamp="2012-09-02T10:19:45Z" uid="328538" user="o&apos;cholio" changeset="12951630">
    <nd ref="31393954"/>
    <nd ref="1894346447"/>
    <nd ref="31393955"/>
    <nd ref="31393956"/>
    <nd ref="1894346525"/>
    <nd ref="1894346529"/>
    <nd ref="1894346548"/>
    <nd ref="31393958"/>
    <nd ref="166227273"/>
    <nd ref="31393959"/>
    <nd ref="1894346762"/>
    <nd ref="31393961"/>
    <nd ref="31393962"/>
    <nd ref="31393963"/>
    <nd ref="31393964"/>
    <nd ref="1006275195"/>
    <nd ref="1841590880"/>
    <tag k="cycleway" v="lane"/>
    <tag k="highway" v="secondary"/>
    <tag k="maxspeed" v="60"/>
    <tag k="name" v="Lady Gowrie Drive"/>
    <tag k="source" v="survey"/>
  </way>
  <way id="86578289" version="5" timestamp="2012-07-11T11:40:49Z" uid="328538" user="o&apos;cholio" changeset="12184923">
    <nd ref="683769898"/>
    <nd ref="31289441"/>
    <nd ref="893745552"/>
    <nd ref="277899296"/>
    <nd ref="31289442"/>
    <nd ref="1378107136"/>
    <tag k="cycleway" v="lane"/>
    <tag k="highway" v="trunk"/>
    <tag k="maxspeed" v="60"/>
    <tag k="name" v="Victoria Road"/>
    <tag k="oneway" v="yes"/>
    <tag k="ref" v="A16"/>
    <tag k="source" v="survey"/>
  </way>
  <way id="86578289" version="6" timestamp="2012-07-19T20:44:12Z" uid="722137" user="OSMF Redaction Account" changeset="12346724">
    <nd ref="683769898"/>
    <nd ref="31289441"/>
    <nd ref="277899296"/>
    <nd ref="31289442"/>
    <nd ref="1378107136"/>
    <tag k="cycleway" v="lane"/>
    <tag k="highway" v="trunk"/>
    <tag k="maxspeed" v="60"/>
    <tag k="name" v="Victoria Road"/>
    <tag k="oneway" v="yes"/>
    <tag k="ref" v="A16"/>
    <tag k="source" v="survey"/>
  </way>
  <way id="86578294" version="3" timestamp="2012-07-20T12:21:56Z" uid="722137" user="OSMF Redaction Account" changeset="12375569">
    <nd ref="683770078"/>
    <nd ref="683770035"/>
    <nd ref="31395334"/>
    <tag k="highway" v="tertiary"/>
    <tag k="name" v="Military Road"/>
    <tag k="oneway" v="yes"/>
  </way>
  <way id="86578297" version="3" timestamp="2012-07-20T12:20:49Z" uid="722137" user="OSMF Redaction Account" changeset="12375569">
    <nd ref="1006275191"/>
    <nd ref="31395327"/>
    <nd ref="31395328"/>
    <nd ref="31395329"/>
    <nd ref="31395335"/>
    <nd ref="31395336"/>
    <nd ref="31395337"/>
    <nd ref="31395338"/>
    <nd ref="31395339"/>
    <nd ref="683770032"/>
    <nd ref="683770078"/>
    <tag k="cycleway" v="lane"/>
    <tag k="highway" v="tertiary"/>
    <tag k="name" v="Military Road"/>
    <tag k="oneway" v="yes"/>
  </way>
  <way id="86578297" version="4" timestamp="2012-08-03T03:39:07Z" uid="304319" user="peterpuk" changeset="12592567">
    <nd ref="166229356"/>
    <nd ref="1006275191"/>
    <nd ref="31395327"/>
    <nd ref="31395328"/>
    <nd ref="31395329"/>
    <nd ref="1849317955"/>
    <nd ref="31395335"/>
    <nd ref="31395336"/>
    <nd ref="31395337"/>
    <nd ref="31395338"/>
    <nd ref="31395339"/>
    <nd ref="683770032"/>
    <nd ref="683770078"/>
    <tag k="cycleway" v="lane"/>
    <tag k="highway" v="tertiary"/>
    <tag k="name" v="Military Road"/>
    <tag k="oneway" v="yes"/>
  </way>
  <way id="86578297" version="5" timestamp="2012-09-02T10:19:47Z" uid="328538" user="o&apos;cholio" changeset="12951630">
    <nd ref="166229356"/>
    <nd ref="1006275191"/>
    <nd ref="1894346587"/>
    <nd ref="31395327"/>
    <nd ref="1894346551"/>
    <nd ref="31395328"/>
    <nd ref="1894346540"/>
    <nd ref="31395329"/>
    <nd ref="1894346523"/>
    <nd ref="1849317955"/>
    <nd ref="1894346516"/>
    <nd ref="1894346461"/>
    <nd ref="1894346440"/>
    <nd ref="1894346310"/>
    <nd ref="31395336"/>
    <nd ref="1894346156"/>
    <nd ref="31395337"/>
    <nd ref="31395338"/>
    <nd ref="1894345138"/>
    <nd ref="31395339"/>
    <nd ref="683770032"/>
    <nd ref="683770078"/>
    <tag k="cycleway" v="lane"/>
    <tag k="highway" v="tertiary"/>
    <tag k="name" v="Military Road"/>
    <tag k="oneway" v="yes"/>
  </way>
</osm>
