<?xml version='1.0' encoding='UTF-8'?>
<osm version="0.6" generator="libosmium/2.20.0">
  <way id="86580053" version="2" timestamp="2011-01-12T12:31:36Z" uid="115477" user="wowik" changeset="6946620">
    <nd ref="1006443373"/>
    <nd ref="1006443376"/>
    <nd ref="1006443381"/>
    <nd ref="1006443384"/>
    <nd ref="1006443386"/>
    <nd ref="1006443390"/>
    <nd ref="1006443373"/>
    <tag k="addr:city" v="Зеленоград"/>
    <tag k="addr:housenumber" v="1925А"/>
    <tag k="building" v="yes"/>
    <tag k="building:use" v="residential"/>
    <tag k="is_in" v="Zelenograd,Moscow,Russia"/>
  </way>
  <way id="86580053" version="3" timestamp="2011-01-12T12:38:01Z" uid="115477" user="wowik" changeset="6946685">
    <nd ref="1006443373"/>
    <nd ref="1006443376"/>
    <nd ref="1006443381"/>
    <nd ref="1006443384"/>
    <nd ref="1006443386"/>
    <nd ref="1006443390"/>
    <nd ref="1006443373"/>
    <tag k="addr:city" v="Зеленоград"/>
    <tag k="addr:housenumber" v="1925А"/>
    <tag k="building" v="yes"/>
    <tag k="building:use" v="residential"/>
    <tag k="is_in" v="Russia"/>
  </way>
  <way id="86580053" version="4" timestamp="2011-01-12T17:31:15Z" uid="115477" user="wowik" changeset="6949358">
    <nd ref="1006443373"/>
    <nd ref="1006443376"/>
    <nd ref="1006443381"/>
    <nd ref="1006443384"/>
    <nd ref="1006443386"/>
    <nd ref="1006443390"/>
    <nd ref="1006443373"/>
    <tag k="addr:city" v="Зеленоград"/>
    <tag k="addr:housenumber" v="1925А"/>
    <tag k="building" v="yes"/>
    <tag k="building:levels" v="1"/>
    <tag k="is_in" v="Russia"/>
  </way>
  <way id="86580053" version="5" timestamp="2011-01-13T14:29:26Z" uid="115477" user="wowik" changeset="6957620">
    <nd ref="1006443373"/>
    <nd ref="1006443376"/>
    <nd ref="1006443381"/>
    <nd ref="1006443384"/>
    <nd ref="1006443386"/>
    <nd ref="1006443390"/>
    <nd ref="1006443373"/>
    <tag k="addr:city" v="Зеленоград"/>
    <tag k="addr:housenumber" v="1925А"/>
    <tag k="addr:street" v="19-й Микрорайон"/>
    <tag k="building" v="yes"/>
    <tag k="building:levels" v="1"/>
    <tag k="is_in" v="Russia"/>
  </way>
  <way id="86580053" version="6" timestamp="2011-06-07T20:53:43Z" uid="133332" user="AMDmi3" changeset="8374030">
    <nd ref="1006443373"/>
    <nd ref="1006443376"/>
    <nd ref="1006443381"/>
    <nd ref="1006443384"/>
    <nd ref="1006443386"/>
    <nd ref="1006443390"/>
    <nd ref="1006443373"/>
    <tag k="addr:city" v="Зеленоград"/>
    <tag k="addr:housenumber" v="1925А"/>
    <tag k="addr:street" v="19-й микрорайон"/>
    <tag k="building" v="yes"/>
    <tag k="building:levels" v="1"/>
    <tag k="is_in" v="Russia"/>
  </way>
  <way id="86580053" version="7" timestamp="2011-09-13T10:23:57Z" uid="29320" user="Komяpa" changeset="9288237">
    <nd ref="1006443373"/>
    <nd ref="1006443376"/>
    <nd ref="1006443381"/>
    <nd ref="1006443384"/>
    <nd ref="1006443386"/>
    <nd ref="1006443390"/>
    <nd ref="1006443373"/>
    <tag k="addr:city" v="Зеленоград"/>
    <tag k="addr:country" v="RU"/>
    <tag k="addr:housenumber" v="1925А"/>
    <tag k="addr:street" v="19-й микрорайон"/>
    <tag k="building" v="yes"/>
    <tag k="building:levels" v="1"/>
  </way>
  <way id="86580053" version="8" timestamp="2012-03-27T11:38:21Z" uid="481934" user="iWowik" changeset="11115472">
    <nd ref="1006443373"/>
    <nd ref="1006443376"/>
    <nd ref="1006443381"/>
    <nd ref="1006443384"/>
    <nd ref="1006443386"/>
    <nd ref="1006443390"/>
    <nd ref="1006443373"/>
    <tag k="addr:city" v="Зеленоград"/>
    <tag k="addr:country" v="RU"/>
    <tag k="addr:housenumber" v="1925А"/>
    <tag k="addr:region" v="Москва"/>
    <tag k="addr:street" v="19-й микрорайон"/>
    <tag k="building" v="yes"/>
    <tag k="building:levels" v="1"/>
  </way>
  <way id="86580188" version="2" timestamp="2011-01-17T15:14:20Z" uid="115477" user="wowik" changeset="7000395">
    <nd ref="1006453779"/>
    <nd ref="1006453784"/>
    <nd ref="1006453786"/>
    <nd ref="1006453790"/>
    <nd ref="1006453792"/>
    <nd ref="1006453793"/>
    <nd ref="1006453779"/>
    <tag k="addr:city" v="Зеленоград"/>
    <tag k="addr:housenumber" v="19"/>
    <tag k="addr:street" v="Овражная улица"/>
    <tag k="building" v="yes"/>
  </way>
  <way id="86580188" version="3" timestamp="2012-03-27T08:07:18Z" uid="481934" user="iWowik" changeset="11113698">
    <nd ref="1006453779"/>
    <nd ref="1006453784"/>
    <nd ref="1006453786"/>
    <nd ref="1006453790"/>
    <nd ref="1006453792"/>
    <nd ref="1006453793"/>
    <nd ref="1006453779"/>
    <tag k="addr:city" v="Зеленоград"/>
    <tag k="addr:country" v="RU"/>
    <tag k="addr:housenumber" v="19"/>
    <tag k="addr:street" v="Овражная улица"/>
    <tag k="building" v="yes"/>
  </way>
  <way id="86580188" version="4" timestamp="2012-03-27T11:38:14Z" uid="481934" user="iWowik" changeset="11115472">
    <nd ref="1006453779"/>
    <nd ref="1006453784"/>
    <nd ref="1006453786"/>
    <nd ref="1006453790"/>
    <nd ref="1006453792"/>
    <nd ref="1006453793"/>
    <nd ref="1006453779"/>
    <tag k="addr:city" v="Зеленоград"/>
    <tag k="addr:country" v="RU"/>
    <tag k="addr:housenumber" v="19"/>
    <tag k="addr:region" v="Москва"/>
    <tag k="addr:street" v="Овражная улица"/>
    <tag k="building" v="yes"/>
  </way>
  <way id="86580197" version="1" timestamp="2010-11-27T06:27:59Z" uid="241531" user="dik_man" changeset="6467097">
    <nd ref="1006456452"/>
    <nd ref="1006456455"/>
    <nd ref="1006456457"/>
    <nd ref="1006456459"/>
    <nd ref="1006456452"/>
    <tag k="addr:housenumber" v="19"/>
    <tag k="building" v="yes"/>
  </way>
  <way id="86580197" version="2" timestamp="2010-11-30T05:46:46Z" uid="115477" user="wowik" changeset="6491708">
    <nd ref="1006456452"/>
    <nd ref="1006456455"/>
    <nd ref="1006456457"/>
    <nd ref="1006456459"/>
    <nd ref="1006456452"/>
    <tag k="addr:city" v="Зеленоград"/>
    <tag k="addr:housenumber" v="19"/>
    <tag k="addr:street" v="Заводская улица"/>
    <tag k="building" v="yes"/>
  </way>
  <way id="86580197" version="3" timestamp="2010-11-30T05:47:15Z" uid="115477" user="wowik" changeset="6491708">
    <nd ref="1006456452"/>
    <nd ref="1006456455"/>
    <nd ref="1006456457"/>
    <nd ref="1006456459"/>
    <nd ref="1006456452"/>
    <tag k="addr:city" v="Зеленоград"/>
    <tag k="addr:housenumber" v="19"/>
    <tag k="building" v="yes"/>
  </way>
  <way id="86580197" version="4" timestamp="2011-01-17T15:13:35Z" uid="115477" user="wowik" changeset="7000395">
    <nd ref="1006456452"/>
    <nd ref="1006456455"/>
    <nd ref="1006456457"/>
    <nd ref="1006456459"/>
    <nd ref="1006456452"/>
    <tag k="addr:city" v="Зеленоград"/>
    <tag k="addr:street" v="Овражная улица"/>
    <tag k="building" v="yes"/>
  </way>
  <way id="86580197" version="5" timestamp="2012-03-27T08:12:56Z" uid="481934" user="iWowik" changeset="11113698">
    <nd ref="1006456452"/>
    <nd ref="1006456455"/>
    <nd ref="1006456457"/>
    <nd ref="1006456459"/>
    <nd ref="1006456452"/>
    <tag k="addr:city" v="Зеленоград"/>
    <tag k="addr:country" v="RU"/>
    <tag k="addr:street" v="Овражная улица"/>
    <tag k="building" v="yes"/>
  </way>
  <way id="86580197" version="6" timestamp="2012-03-27T11:51:20Z" uid="481934" user="iWowik" changeset="11115472">
    <nd ref="1006456452"/>
    <nd ref="1006456455"/>
    <nd ref="1006456457"/>
    <nd ref="1006456459"/>
    <nd ref="1006456452"/>
    <tag k="addr:city" v="Зеленоград"/>
    <tag k="addr:country" v="RU"/>
    <tag k="addr:region" v="Москва"/>
    <tag k="addr:street" v="Овражная улица"/>
    <tag k="building" v="yes"/>
  </way>
  <way id="86580365" version="2" timestamp="2011-03-18T15:18:01Z" uid="4467" user="Rosscoe" changeset="7596265">
    <nd ref="170351162"/>
    <nd ref="170351181"/>
    <nd ref="170351195"/>
    <nd ref="170351211"/>
    <nd ref="170351229"/>
    <nd ref="170351251"/>
    <nd ref="170351272"/>
    <nd ref="170351298"/>
    <nd ref="170351323"/>
    <nd ref="170351399"/>
    <nd ref="170351478"/>
    <nd ref="871515169"/>
    <nd ref="170351563"/>
    <nd ref="170351621"/>
    <tag k="cycleway" v="lane"/>
    <tag k="highway" v="secondary"/>
    <tag k="is_in" v="Oaklands Park,South Australia,Australia"/>
    <tag k="lanes" v="2"/>
    <tag k="maxspeed" v="60"/>
    <tag k="name" v="Sturt Road"/>
    <tag k="oneway" v="yes"/>
    <tag k="postal_code" v="5046"/>
    <tag k="source" v="survey"/>
  </way>
  <way id="86580367" version="3" timestamp="2011-03-16T12:47:18Z" uid="4467" user="Rosscoe" changeset="7575323">
    <nd ref="598384852"/>
    <nd ref="598384871"/>
    <nd ref="1149142637"/>
    <nd ref="598384870"/>
    <nd ref="275590782"/>
    <nd ref="598384865"/>
    <nd ref="598384868"/>
    <nd ref="598384862"/>
    <nd ref="1204186608"/>
    <nd ref="598384864"/>
    <tag k="cycleway" v="lane"/>
    <tag k="highway" v="tertiary"/>
    <tag k="maxspeed" v="50"/>
    <tag k="name" v="Miller Street"/>
    <tag k="source" v="yahoo"/>
    <tag k="source:name" v="survey"/>
  </way>
  <way id="86580369" version="2" timestamp="2011-03-16T14:28:38Z" uid="4467" user="Rosscoe" changeset="7576235">
    <nd ref="168805645"/>
    <nd ref="168805690"/>
    <nd ref="168805717"/>
    <nd ref="168805749"/>
    <tag k="highway" v="secondary"/>
    <tag k="is_in" v="Bedford Park,South Australia,Australia"/>
    <tag k="lanes" v="2"/>
    <tag k="maxspeed" v="60"/>
    <tag k="name" v="Shepherds Hill Road"/>
    <tag k="oneway" v="yes"/>
    <tag k="postal_code" v="5042"/>
    <tag k="source" v="survey"/>
  </way>
  <way id="86580369" version="3" timestamp="2011-08-11T11:56:49Z" uid="428465" user="markinspace" changeset="8984769">
    <nd ref="168805645"/>
    <nd ref="168805690"/>
    <nd ref="168805749"/>
    <tag k="highway" v="secondary"/>
    <tag k="is_in" v="Bedford Park,South Australia,Australia"/>
    <tag k="lanes" v="2"/>
    <tag k="maxspeed" v="60"/>
    <tag k="name" v="Shepherds Hill Road"/>
    <tag k="oneway" v="yes"/>
    <tag k="postal_code" v="5042"/>
    <tag k="source" v="survey"/>
  </way>
  <way id="86580369" version="4" timestamp="2011-08-11T12:18:05Z" uid="428465" user="markinspace" changeset="8985058"/>
  <way id="86580371" version="2" timestamp="2011-03-18T15:16:19Z" uid="4467" user="Rosscoe" changeset="7596265">
    <nd ref="1006515462"/>
    <nd ref="997741285"/>
    <nd ref="170394290"/>
    <nd ref="170394358"/>
    <nd ref="170394387"/>
    <tag k="highway" v="secondary"/>
    <tag k="is_in" v="Brighton,South Australia,Australia"/>
    <tag k="lanes" v="2"/>
    <tag k="maxspeed" v="60"/>
    <tag k="name" v="Sturt Road"/>
    <tag k="oneway" v="yes"/>
    <tag k="postal_code" v="5048"/>
    <tag k="source" v="survey"/>
  </way>
  <way id="86580372" version="2" timestamp="2011-03-18T15:16:48Z" uid="4467" user="Rosscoe" changeset="7596265">
    <nd ref="170350365"/>
    <nd ref="322506030"/>
    <nd ref="170350458"/>
    <nd ref="170350480"/>
    <nd ref="322506032"/>
    <nd ref="170350550"/>
    <nd ref="370246649"/>
    <nd ref="170350713"/>
    <nd ref="1207409966"/>
    <nd ref="170350811"/>
    <nd ref="170350866"/>
    <nd ref="170350907"/>
    <tag k="cycleway" v="lane"/>
    <tag k="highway" v="secondary"/>
    <tag k="is_in" v="Seacombe Gardens,South Australia,Australia"/>
    <tag k="lanes" v="2"/>
    <tag k="maxspeed" v="60"/>
    <tag k="name" v="Sturt Road"/>
    <tag k="oneway" v="yes"/>
    <tag k="postal_code" v="5047"/>
    <tag k="source" v="survey"/>
  </way>
  <way id="86580374" version="2" timestamp="2011-03-16T12:47:49Z" uid="4467" user="Rosscoe" changeset="7575323">
    <nd ref="871298418"/>
    <nd ref="168879095"/>
    <nd ref="871298427"/>
    <nd ref="168834445"/>
    <tag k="highway" v="secondary"/>
    <tag k="is_in" v="Marion,South Australia,Australia"/>
    <tag k="maxspeed" v="60"/>
    <tag k="name" v="Sturt Road"/>
    <tag k="oneway" v="yes"/>
    <tag k="postal_code" v="5043"/>
    <tag k="source" v="survey"/>
  </way>
  <way id="86580380" version="2" timestamp="2011-03-16T12:46:46Z" uid="4467" user="Rosscoe" changeset="7575323">
    <nd ref="168806658"/>
    <nd ref="168806677"/>
    <nd ref="168806695"/>
    <nd ref="168806784"/>
    <nd ref="168806858"/>
    <nd ref="31431070"/>
    <tag k="cycleway" v="lane"/>
    <tag k="highway" v="trunk"/>
    <tag k="is_in" v="Bedford Park,South Australia,Australia"/>
    <tag k="lanes" v="4"/>
    <tag k="maxspeed" v="70"/>
    <tag k="name" v="Main South Road"/>
    <tag k="oneway" v="yes"/>
    <tag k="postal_code" v="5042"/>
    <tag k="ref" v="A13"/>
    <tag k="source" v="survey"/>
  </way>
  <way id="86580384" version="2" timestamp="2011-03-16T12:48:04Z" uid="4467" user="Rosscoe" changeset="7575323"/>
  <way id="86580391" version="2" timestamp="2011-03-16T12:48:06Z" uid="4467" user="Rosscoe" changeset="7575323"/>
  <way id="86580393" version="2" timestamp="2011-03-18T11:13:38Z" uid="4467" user="Rosscoe" changeset="7594093">
    <nd ref="1006515497"/>
    <nd ref="252179884"/>
    <nd ref="252179886"/>
    <nd ref="252179892"/>
    <nd ref="234167755"/>
    <nd ref="252179887"/>
    <nd ref="31430620"/>
    <nd ref="252179890"/>
    <nd ref="252179891"/>
    <nd ref="252179894"/>
    <nd ref="252179897"/>
    <nd ref="1207174888"/>
    <nd ref="252180001"/>
    <nd ref="252180002"/>
    <nd ref="252180008"/>
    <nd ref="252180009"/>
    <nd ref="252180010"/>
    <nd ref="31430622"/>
    <nd ref="252180015"/>
    <nd ref="319213120"/>
    <nd ref="31430623"/>
    <tag k="cycleway" v="lane"/>
    <tag k="highway" v="trunk"/>
    <tag k="is_in" v="St Marys,South Australia,Australia"/>
    <tag k="maxspeed" v="60"/>
    <tag k="name" v="South Road"/>
    <tag k="oneway" v="yes"/>
    <tag k="postal_code" v="5042"/>
    <tag k="ref" v="A13"/>
    <tag k="source" v="survey"/>
  </way>
  <way id="86580393" version="3" timestamp="2011-07-30T13:16:08Z" uid="428465" user="markinspace" changeset="8872105">
    <nd ref="1006515497"/>
    <nd ref="252179884"/>
    <nd ref="252179886"/>
    <nd ref="252179892"/>
    <nd ref="234167755"/>
    <nd ref="252179887"/>
    <nd ref="31430620"/>
    <nd ref="252179890"/>
    <nd ref="252179891"/>
    <nd ref="252179894"/>
    <nd ref="252179897"/>
    <nd ref="1207174888"/>
    <nd ref="252180001"/>
    <nd ref="252180002"/>
    <nd ref="252180008"/>
    <nd ref="252180009"/>
    <nd ref="252180010"/>
    <nd ref="31430622"/>
    <nd ref="252180015"/>
    <nd ref="319213120"/>
    <nd ref="31430623"/>
    <tag k="cycleway" v="lane"/>
    <tag k="highway" v="trunk"/>
    <tag k="is_in" v="St Marys,South Australia,Australia"/>
    <tag k="lanes" v="2"/>
    <tag k="maxspeed" v="60"/>
    <tag k="name" v="South Road"/>
    <tag k="oneway" v="yes"/>
    <tag k="postal_code" v="5042"/>
    <tag k="ref" v="A13"/>
    <tag k="source" v="survey"/>
  </way>
  <way id="86580393" version="4" timestamp="2012-01-29T12:06:07Z" uid="21143" user="hryciuk" changeset="10529102">
    <nd ref="1006515497"/>
    <nd ref="252179884"/>
    <nd ref="252179886"/>
    <nd ref="252179892"/>
    <nd ref="234167755"/>
    <nd ref="252179887"/>
    <nd ref="31430620"/>
    <nd ref="1610208490"/>
    <nd ref="252179890"/>
    <nd ref="252179891"/>
    <nd ref="252179894"/>
    <nd ref="252179897"/>
    <nd ref="1207174888"/>
    <nd ref="252180001"/>
    <nd ref="252180002"/>
    <nd ref="252180008"/>
    <nd ref="252180009"/>
    <nd ref="252180010"/>
    <nd ref="31430622"/>
    <nd ref="252180015"/>
    <nd ref="319213120"/>
    <nd ref="31430623"/>
    <tag k="cycleway" v="lane"/>
    <tag k="highway" v="trunk"/>
    <tag k="is_in" v="St Marys,South Australia,Australia"/>
    <tag k="lanes" v="2"/>
    <tag k="maxspeed" v="60"/>
    <tag k="name" v="South Road"/>
    <tag k="oneway" v="yes"/>
    <tag k="postal_code" v="5042"/>
    <tag k="ref" v="A13"/>
    <tag k="source" v="survey"/>
  </way>
  <way id="86580397" version="2" timestamp="2011-03-18T15:17:53Z" uid="4467" user="Rosscoe" changeset="7596265">
    <nd ref="319221419"/>
    <nd ref="319221420"/>
    <nd ref="319221421"/>
    <nd ref="319221422"/>
    <nd ref="319221423"/>
    <nd ref="319221424"/>
    <nd ref="319221978"/>
    <nd ref="247897195"/>
    <nd ref="247897216"/>
    <tag k="highway" v="residential"/>
    <tag k="maxspeed" v="50"/>
    <tag k="name" v="Waterman Avenue"/>
    <tag k="note" v="Not 100% sure about this name, only saw as I went around the corner."/>
    <tag k="source" v="yahoo"/>
  </way>
  <way id="86580397" version="3" timestamp="2011-05-22T02:49:53Z" uid="331504" user="normangerman" changeset="8212039">
    <nd ref="319221419"/>
    <nd ref="319221420"/>
    <nd ref="1295604536"/>
    <nd ref="319221421"/>
    <nd ref="319221422"/>
    <nd ref="319221423"/>
    <nd ref="319221424"/>
    <nd ref="319221978"/>
    <nd ref="247897195"/>
    <nd ref="247897216"/>
    <tag k="highway" v="residential"/>
    <tag k="maxspeed" v="50"/>
    <tag k="name" v="Waterman Avenue"/>
    <tag k="note" v="Not 100% sure about this name, only saw as I went around the corner."/>
    <tag k="source" v="yahoo"/>
  </way>
  <way id="86580399" version="2" timestamp="2011-03-18T11:13:41Z" uid="4467" user="Rosscoe" changeset="7594093">
    <nd ref="1006515520"/>
    <nd ref="336814520"/>
    <nd ref="252179881"/>
    <nd ref="252179882"/>
    <tag k="highway" v="trunk"/>
    <tag k="is_in" v="Clovelly Park,South Australia,Australia"/>
    <tag k="lanes" v="3"/>
    <tag k="maxspeed" v="60"/>
    <tag k="name" v="South Road"/>
    <tag k="oneway" v="yes"/>
    <tag k="postal_code" v="5042"/>
    <tag k="ref" v="A13"/>
    <tag k="source" v="survey"/>
  </way>
  <way id="86580402" version="2" timestamp="2011-03-16T12:47:43Z" uid="4467" user="Rosscoe" changeset="7575323">
    <nd ref="1006515451"/>
    <nd ref="252164385"/>
    <nd ref="241863486"/>
    <nd ref="241863487"/>
    <nd ref="241863488"/>
    <nd ref="241863489"/>
    <nd ref="354837162"/>
    <nd ref="354837157"/>
    <nd ref="274429279"/>
    <nd ref="241863364"/>
    <tag k="highway" v="secondary"/>
    <tag k="is_in" v="St Marys,South Australia,Australia"/>
    <tag k="lanes" v="2"/>
    <tag k="maxspeed" v="60"/>
    <tag k="name" v="Shepherds Hill Road"/>
    <tag k="oneway" v="yes"/>
    <tag k="postal_code" v="5042"/>
    <tag k="source" v="survey"/>
  </way>
  <way id="86580403" version="2" timestamp="2011-03-18T15:18:05Z" uid="4467" user="Rosscoe" changeset="7596265">
    <nd ref="1006515509"/>
    <nd ref="170392298"/>
    <nd ref="1207409856"/>
    <nd ref="170392446"/>
    <nd ref="1207409885"/>
    <nd ref="170392585"/>
    <nd ref="1207409800"/>
    <nd ref="170392955"/>
    <nd ref="170393093"/>
    <nd ref="170393242"/>
    <nd ref="170393413"/>
    <nd ref="170393547"/>
    <nd ref="1207409828"/>
    <nd ref="170393587"/>
    <tag k="cycleway" v="lane"/>
    <tag k="highway" v="secondary"/>
    <tag k="is_in" v="Dover Gardens,South Australia,Australia"/>
    <tag k="lanes" v="2"/>
    <tag k="maxspeed" v="60"/>
    <tag k="name" v="Sturt Road"/>
    <tag k="oneway" v="yes"/>
    <tag k="postal_code" v="5048"/>
    <tag k="source" v="survey"/>
  </way>
  <way id="86580660" version="2" timestamp="2011-01-30T17:50:11Z" uid="115477" user="wowik" changeset="7137180">
    <nd ref="1006576307"/>
    <nd ref="1006576335"/>
    <nd ref="1006576281"/>
    <tag k="bicycle" v="yes"/>
    <tag k="foot" v="yes"/>
    <tag k="footway" v="sidewalk"/>
    <tag k="highway" v="footway"/>
    <tag k="motorcar" v="no"/>
    <tag k="surface" v="paved"/>
  </way>
  <way id="86580660" version="3" timestamp="2011-09-08T21:42:16Z" uid="518169" user="kosatov" changeset="9249228">
    <nd ref="1006576307"/>
    <nd ref="1006576335"/>
    <nd ref="1006576281"/>
    <tag k="footway" v="sidewalk"/>
    <tag k="highway" v="footway"/>
    <tag k="motorcar" v="no"/>
  </way>
  <way id="86580661" version="2" timestamp="2011-01-28T16:20:12Z" uid="115477" user="wowik" changeset="7114397">
    <nd ref="1006576346"/>
    <nd ref="1006576349"/>
    <nd ref="1006576353"/>
    <nd ref="1006576356"/>
    <nd ref="1006576361"/>
    <nd ref="1006576365"/>
    <nd ref="1006576367"/>
    <nd ref="1006576369"/>
    <nd ref="1006576372"/>
    <nd ref="1006576377"/>
    <nd ref="1006576394"/>
    <nd ref="1006576397"/>
    <nd ref="1006576400"/>
    <nd ref="1006576404"/>
    <nd ref="1006576408"/>
    <nd ref="1006576411"/>
    <nd ref="1006576413"/>
    <nd ref="1006576418"/>
    <nd ref="1006576420"/>
    <nd ref="1006576422"/>
    <nd ref="1006576424"/>
    <nd ref="1006576427"/>
    <nd ref="1006576430"/>
    <nd ref="1006576432"/>
    <nd ref="1006576436"/>
    <nd ref="1006576438"/>
    <nd ref="1006576440"/>
    <nd ref="1006576441"/>
    <nd ref="1006576451"/>
    <nd ref="1006576454"/>
    <nd ref="1006576455"/>
    <nd ref="1006576456"/>
    <nd ref="1006576459"/>
    <nd ref="1006576461"/>
    <nd ref="1006576464"/>
    <nd ref="1006576468"/>
    <nd ref="1006576470"/>
    <nd ref="1006576473"/>
    <nd ref="1006576475"/>
    <nd ref="1006576476"/>
    <nd ref="1006576477"/>
    <nd ref="1006576346"/>
    <tag k="landuse" v="grass"/>
  </way>
  <way id="86580053" version="9" timestamp="2012-07-20T23:47:17Z" uid="722137" user="OSMF Redaction Account" changeset="12396430">
    <nd ref="1006443373"/>
    <nd ref="1006443376"/>
    <nd ref="1006443381"/>
    <nd ref="1006443384"/>
    <nd ref="1006443386"/>
    <nd ref="1006443390"/>
    <nd ref="1006443373"/>
    <tag k="addr:country" v="RU"/>
    <tag k="addr:housenumber" v="1925А"/>
    <tag k="addr:region" v="Москва"/>
    <tag k="addr:street" v="19-й микрорайон"/>
    <tag k="building" v="yes"/>
  </way>
  <way id="86580188" version="5" timestamp="2012-07-20T23:47:09Z" uid="722137" user="OSMF Redaction Account" changeset="12396430">
    <nd ref="1006453779"/>
    <nd ref="1006453784"/>
    <nd ref="1006453786"/>
    <nd ref="1006453790"/>
    <nd ref="1006453792"/>
    <nd ref="1006453793"/>
    <nd ref="1006453779"/>
    <tag k="addr:country" v="RU"/>
    <tag k="addr:region" v="Москва"/>
    <tag k="building" v="yes"/>
  </way>
  <way id="86580197" version="7" timestamp="2012-07-20T23:47:11Z" uid="722137" user="OSMF Redaction Account" changeset="12396430">
    <nd ref="1006456452"/>
    <nd ref="1006456455"/>
    <nd ref="1006456457"/>
    <nd ref="1006456459"/>
    <nd ref="1006456452"/>
    <tag k="addr:country" v="RU"/>
    <tag k="addr:region" v="Москва"/>
    <tag k="building" v="yes"/>
  </way>
  <way id="86580365" version="3" timestamp="2012-09-10T23:24:31Z" uid="418724" user="wintersportler" changeset="13063663">
    <nd ref="170351162"/>
    <nd ref="170351181"/>
    <nd ref="1909310603"/>
    <nd ref="170351195"/>
    <nd ref="1909310600"/>
    <nd ref="170351211"/>
    <nd ref="1909310597"/>
    <nd ref="170351229"/>
    <nd ref="170351251"/>
    <nd ref="170351272"/>
    <nd ref="170351298"/>
    <nd ref="170351323"/>
    <nd ref="170351478"/>
    <nd ref="871515169"/>
    <nd ref="170351563"/>
    <nd ref="170351621"/>
    <tag k="cycleway" v="lane"/>
    <tag k="highway" v="secondary"/>
    <tag k="is_in" v="Oaklands Park,South Australia,Australia"/>
    <tag k="lanes" v="2"/>
    <tag k="maxspeed" v="60"/>
    <tag k="name" v="Sturt Road"/>
    <tag k="oneway" v="yes"/>
    <tag k="postal_code" v="5046"/>
    <tag k="source" v="survey"/>
  </way>
  <way id="86580367" version="4" timestamp="2012-07-19T09:08:08Z" uid="722137" user="OSMF Redaction Account" changeset="12315263">
    <nd ref="598384852"/>
    <nd ref="598384871"/>
    <nd ref="1149142637"/>
    <nd ref="598384870"/>
    <nd ref="275590782"/>
    <nd ref="598384865"/>
    <nd ref="598384868"/>
    <nd ref="598384862"/>
    <nd ref="598384864"/>
    <tag k="cycleway" v="lane"/>
    <tag k="highway" v="tertiary"/>
    <tag k="maxspeed" v="50"/>
    <tag k="name" v="Miller Street"/>
    <tag k="source" v="yahoo"/>
    <tag k="source:name" v="survey"/>
  </way>
  <way id="86580367" version="5" timestamp="2012-08-15T08:03:06Z" uid="801691" user="djwdjw" changeset="12735368">
    <nd ref="598384852"/>
    <nd ref="598384871"/>
    <nd ref="1149142637"/>
    <nd ref="598384870"/>
    <nd ref="275590782"/>
    <nd ref="598384865"/>
    <nd ref="598384868"/>
    <nd ref="598384862"/>
    <nd ref="598384864"/>
    <tag k="cycleway" v="lane"/>
    <tag k="highway" v="tertiary"/>
    <tag k="maxspeed" v="50"/>
    <tag k="name" v="Miller Street"/>
    <tag k="oneway" v="no"/>
    <tag k="source" v="yahoo"/>
    <tag k="source:name" v="survey"/>
  </way>
  <way id="86580367" version="6" timestamp="2012-09-07T13:05:40Z" uid="57380" user="JennyH" changeset="13022776"/>
  <way id="86580371" version="3" timestamp="2012-07-07T15:30:24Z" uid="328538" user="o&apos;cholio" changeset="12141058">
    <nd ref="1006515462"/>
    <nd ref="997741285"/>
    <nd ref="170394290"/>
    <nd ref="1816084116"/>
    <nd ref="1816084122"/>
    <nd ref="170394358"/>
    <nd ref="170394387"/>
    <tag k="highway" v="secondary"/>
    <tag k="is_in" v="Brighton,South Australia,Australia"/>
    <tag k="lanes" v="2"/>
    <tag k="maxspeed" v="60"/>
    <tag k="name" v="Sturt Road"/>
    <tag k="odbl" v="clean"/>
    <tag k="oneway" v="yes"/>
    <tag k="postal_code" v="5048"/>
    <tag k="source" v="survey"/>
  </way>
  <way id="86580372" version="3" timestamp="2012-07-19T09:08:03Z" uid="722137" user="OSMF Redaction Account" changeset="12315263">
    <nd ref="170350365"/>
    <nd ref="322506030"/>
    <nd ref="170350458"/>
    <nd ref="170350480"/>
    <nd ref="322506032"/>
    <nd ref="170350550"/>
    <nd ref="370246649"/>
    <nd ref="170350713"/>
    <nd ref="170350811"/>
    <nd ref="170350866"/>
    <nd ref="170350907"/>
    <tag k="cycleway" v="lane"/>
    <tag k="highway" v="secondary"/>
    <tag k="is_in" v="Seacombe Gardens,South Australia,Australia"/>
    <tag k="lanes" v="2"/>
    <tag k="maxspeed" v="60"/>
    <tag k="name" v="Sturt Road"/>
    <tag k="oneway" v="yes"/>
    <tag k="postal_code" v="5047"/>
    <tag k="source" v="survey"/>
  </way>
  <way id="86580372" version="4" timestamp="2012-09-07T13:05:34Z" uid="57380" user="JennyH" changeset="13022776">
    <nd ref="170350365"/>
    <nd ref="322506030"/>
    <nd ref="170350458"/>
    <nd ref="170350480"/>
    <nd ref="322506032"/>
    <nd ref="170350550"/>
    <nd ref="370246649"/>
    <nd ref="170350713"/>
    <nd ref="170350811"/>
    <nd ref="1904181942"/>
    <nd ref="170350866"/>
    <nd ref="170350907"/>
    <tag k="cycleway" v="lane"/>
    <tag k="highway" v="secondary"/>
    <tag k="is_in" v="Seacombe Gardens,South Australia,Australia"/>
    <tag k="lanes" v="2"/>
    <tag k="maxspeed" v="60"/>
    <tag k="name" v="Sturt Road"/>
    <tag k="oneway" v="yes"/>
    <tag k="postal_code" v="5047"/>
    <tag k="source" v="survey"/>
  </way>
  <way id="86580372" version="5" timestamp="2012-09-10T23:24:34Z" uid="418724" user="wintersportler" changeset="13063663">
    <nd ref="170350365"/>
    <nd ref="1909310583"/>
    <nd ref="370246649"/>
    <nd ref="1909310596"/>
    <nd ref="1904181942"/>
    <nd ref="170350907"/>
    <tag k="cycleway" v="lane"/>
    <tag k="highway" v="secondary"/>
    <tag k="is_in" v="Seacombe Gardens,South Australia,Australia"/>
    <tag k="lanes" v="2"/>
    <tag k="maxspeed" v="60"/>
    <tag k="name" v="Sturt Road"/>
    <tag k="oneway" v="yes"/>
    <tag k="postal_code" v="5047"/>
    <tag k="source" v="survey"/>
  </way>
  <way id="86580374" version="3" timestamp="2012-07-04T12:26:44Z" uid="328538" user="o&apos;cholio" changeset="12110022">
    <nd ref="871298418"/>
    <nd ref="168879095"/>
    <nd ref="871298427"/>
    <nd ref="1812435989"/>
    <nd ref="1812435986"/>
    <nd ref="168834445"/>
    <tag k="highway" v="secondary"/>
    <tag k="is_in" v="Marion,South Australia,Australia"/>
    <tag k="maxspeed" v="60"/>
    <tag k="name" v="Sturt Road"/>
    <tag k="oneway" v="yes"/>
    <tag k="postal_code" v="5043"/>
    <tag k="source" v="survey"/>
  </way>
  <way id="86580374" version="4" timestamp="2012-07-19T09:09:31Z" uid="722137" user="OSMF Redaction Account" changeset="12315263">
    <nd ref="871298418"/>
    <nd ref="168879095"/>
    <nd ref="1812435989"/>
    <nd ref="1812435986"/>
    <nd ref="168834445"/>
    <tag k="highway" v="secondary"/>
    <tag k="is_in" v="Marion,South Australia,Australia"/>
    <tag k="maxspeed" v="60"/>
    <tag k="name" v="Sturt Road"/>
    <tag k="oneway" v="yes"/>
    <tag k="postal_code" v="5043"/>
    <tag k="source" v="survey"/>
  </way>
  <way id="86580374" version="5" timestamp="2012-07-27T15:30:22Z" uid="328538" user="o&apos;cholio" changeset="12512942">
    <nd ref="871298418"/>
    <nd ref="168879095"/>
    <nd ref="1839949561"/>
    <nd ref="1812435989"/>
    <nd ref="1812435986"/>
    <nd ref="168834445"/>
    <tag k="highway" v="secondary"/>
    <tag k="is_in" v="Marion,South Australia,Australia"/>
    <tag k="maxspeed" v="60"/>
    <tag k="name" v="Sturt Road"/>
    <tag k="oneway" v="yes"/>
    <tag k="postal_code" v="5043"/>
    <tag k="source" v="survey"/>
  </way>
  <way id="86580380" version="3" timestamp="2012-07-03T12:54:14Z" uid="328538" user="o&apos;cholio" changeset="12099828">
    <nd ref="1811229578"/>
    <nd ref="1811229602"/>
    <nd ref="1811229606"/>
    <nd ref="1811229608"/>
    <nd ref="168806695"/>
    <nd ref="1811229609"/>
    <nd ref="168806784"/>
    <nd ref="168806858"/>
    <nd ref="1811229617"/>
    <nd ref="31431070"/>
    <tag k="cycleway" v="lane"/>
    <tag k="highway" v="trunk"/>
    <tag k="is_in" v="Bedford Park,South Australia,Australia"/>
    <tag k="lanes" v="4"/>
    <tag k="maxspeed" v="70"/>
    <tag k="name" v="Main South Road"/>
    <tag k="odbl" v="clean"/>
    <tag k="oneway" v="yes"/>
    <tag k="postal_code" v="5042"/>
    <tag k="ref" v="A13"/>
    <tag k="source" v="survey"/>
  </way>
  <way id="86580380" version="4" timestamp="2012-09-09T22:20:49Z" uid="418724" user="wintersportler" changeset="13050842">
    <nd ref="1811229578"/>
    <nd ref="1811229602"/>
    <nd ref="1811229606"/>
    <nd ref="1811229608"/>
    <nd ref="168806695"/>
    <nd ref="1811229609"/>
    <nd ref="1811229617"/>
    <nd ref="31431070"/>
    <tag k="cycleway" v="lane"/>
    <tag k="highway" v="trunk"/>
    <tag k="is_in" v="Bedford Park,South Australia,Australia"/>
    <tag k="lanes" v="4"/>
    <tag k="maxspeed" v="70"/>
    <tag k="name" v="Main South Road"/>
    <tag k="oneway" v="yes"/>
    <tag k="postal_code" v="5042"/>
    <tag k="ref" v="A13"/>
    <tag k="source" v="survey"/>
  </way>
  <way id="86580393" version="5" timestamp="2012-07-03T12:54:29Z" uid="328538" user="o&apos;cholio" changeset="12099828">
    <nd ref="1006515497"/>
    <nd ref="1811229361"/>
    <nd ref="1811229367"/>
    <nd ref="1811229370"/>
    <nd ref="1811229373"/>
    <nd ref="1811229378"/>
    <nd ref="1811229383"/>
    <nd ref="1610208490"/>
    <nd ref="252179890"/>
    <nd ref="1811229392"/>
    <nd ref="1811229394"/>
    <nd ref="1811229395"/>
    <nd ref="252179894"/>
    <nd ref="1811229409"/>
    <nd ref="1811229413"/>
    <nd ref="1811229418"/>
    <nd ref="1811229420"/>
    <nd ref="1811229428"/>
    <nd ref="252180009"/>
    <nd ref="1811229435"/>
    <nd ref="1811229444"/>
    <nd ref="1811229453"/>
    <nd ref="252180015"/>
    <nd ref="1811229461"/>
    <nd ref="31430623"/>
    <tag k="cycleway" v="lane"/>
    <tag k="highway" v="trunk"/>
    <tag k="is_in" v="St Marys,South Australia,Australia"/>
    <tag k="lanes" v="2"/>
    <tag k="maxspeed" v="60"/>
    <tag k="name" v="South Road"/>
    <tag k="odbl" v="clean"/>
    <tag k="oneway" v="yes"/>
    <tag k="postal_code" v="5042"/>
    <tag k="ref" v="A13"/>
    <tag k="source" v="survey"/>
  </way>
  <way id="86580393" version="6" timestamp="2012-09-01T10:08:50Z" uid="171576" user="Conquest" changeset="12940582">
    <nd ref="1006515497"/>
    <nd ref="1811229361"/>
    <nd ref="1811229367"/>
    <nd ref="1811229370"/>
    <nd ref="1811229373"/>
    <nd ref="1892918506"/>
    <nd ref="1811229378"/>
    <nd ref="1811229383"/>
    <nd ref="1610208490"/>
    <nd ref="252179890"/>
    <nd ref="1811229392"/>
    <nd ref="1811229394"/>
    <nd ref="1811229395"/>
    <nd ref="252179894"/>
    <nd ref="1811229409"/>
    <nd ref="1811229413"/>
    <nd ref="1811229418"/>
    <nd ref="1811229420"/>
    <nd ref="1811229428"/>
    <nd ref="252180009"/>
    <nd ref="1811229435"/>
    <nd ref="1811229444"/>
    <nd ref="1811229453"/>
    <nd ref="252180015"/>
    <nd ref="1811229461"/>
    <nd ref="31430623"/>
    <tag k="cycleway" v="lane"/>
    <tag k="highway" v="trunk"/>
    <tag k="is_in" v="St Marys,South Australia,Australia"/>
    <tag k="lanes" v="2"/>
    <tag k="maxspeed" v="60"/>
    <tag k="name" v="South Road"/>
    <tag k="odbl" v="clean"/>
    <tag k="oneway" v="yes"/>
    <tag k="postal_code" v="5042"/>
    <tag k="ref" v="A13"/>
    <tag k="source" v="survey"/>
  </way>
  <way id="86580393" version="7" timestamp="2012-09-09T22:21:20Z" uid="418724" user="wintersportler" changeset="13050842">
    <nd ref="1006515497"/>
    <nd ref="1811229361"/>
    <nd ref="1811229367"/>
    <nd ref="1811229370"/>
    <nd ref="1811229373"/>
    <nd ref="1892918506"/>
    <nd ref="1907652789"/>
    <nd ref="1907652806"/>
    <nd ref="1907652822"/>
    <nd ref="1811229383"/>
    <nd ref="1610208490"/>
    <nd ref="252179890"/>
    <nd ref="1811229392"/>
    <nd ref="1811229394"/>
    <nd ref="1811229395"/>
    <nd ref="252179894"/>
    <nd ref="1811229409"/>
    <nd ref="1811229413"/>
    <nd ref="1811229418"/>
    <nd ref="1811229420"/>
    <nd ref="1811229428"/>
    <nd ref="252180009"/>
    <nd ref="1811229435"/>
    <nd ref="1811229444"/>
    <nd ref="1811229453"/>
    <nd ref="252180015"/>
    <nd ref="1811229461"/>
    <nd ref="31430623"/>
    <tag k="cycleway" v="lane"/>
    <tag k="highway" v="trunk"/>
    <tag k="is_in" v="St Marys,South Australia,Australia"/>
    <tag k="lanes" v="2"/>
    <tag k="maxspeed" v="60"/>
    <tag k="name" v="South Road"/>
    <tag k="oneway" v="yes"/>
    <tag k="postal_code" v="5042"/>
    <tag k="ref" v="A13"/>
    <tag k="source" v="survey"/>
  </way>
  <way id="86580397" version="4" timestamp="2012-07-19T08:48:54Z" uid="722137" user="OSMF Redaction Account" changeset="12314499">
    <nd ref="319221419"/>
    <nd ref="319221420"/>
    <nd ref="1295604536"/>
    <nd ref="319221421"/>
    <nd ref="319221422"/>
    <nd ref="319221423"/>
    <nd ref="319221424"/>
    <nd ref="319221978"/>
    <nd ref="247897195"/>
    <tag k="highway" v="residential"/>
    <tag k="maxspeed" v="50"/>
    <tag k="name" v="Waterman Avenue"/>
    <tag k="note" v="Not 100% sure about this name, only saw as I went around the corner."/>
    <tag k="source" v="yahoo"/>
  </way>
  <way id="86580397" version="5" timestamp="2012-09-09T22:21:28Z" uid="418724" user="wintersportler" changeset="13050842">
    <nd ref="319221419"/>
    <nd ref="319221420"/>
    <nd ref="1295604536"/>
    <nd ref="319221421"/>
    <nd ref="319221422"/>
    <nd ref="319221423"/>
    <nd ref="319221424"/>
    <nd ref="319221978"/>
    <nd ref="247897195"/>
    <nd ref="1907652825"/>
    <tag k="highway" v="residential"/>
    <tag k="maxspeed" v="50"/>
    <tag k="name" v="Waterman Avenue"/>
    <tag k="note" v="Not 100% sure about this name, only saw as I went around the corner."/>
    <tag k="source" v="yahoo"/>
  </way>
  <way id="86580399" version="3" timestamp="2012-07-01T11:00:43Z" uid="328538" user="o&apos;cholio" changeset="12074401">
    <nd ref="1006515520"/>
    <nd ref="1808640423"/>
    <nd ref="336814520"/>
    <nd ref="1808640422"/>
    <nd ref="1808640421"/>
    <nd ref="252179881"/>
    <nd ref="252179882"/>
    <tag k="highway" v="trunk"/>
    <tag k="is_in" v="Clovelly Park,South Australia,Australia"/>
    <tag k="lanes" v="3"/>
    <tag k="maxspeed" v="60"/>
    <tag k="name" v="South Road"/>
    <tag k="odbl" v="clean"/>
    <tag k="oneway" v="yes"/>
    <tag k="postal_code" v="5042"/>
    <tag k="ref" v="A13"/>
    <tag k="source" v="survey"/>
  </way>
  <way id="86580399" version="4" timestamp="2012-07-03T12:54:28Z" uid="328538" user="o&apos;cholio" changeset="12099828">
    <nd ref="168805212"/>
    <nd ref="1811229493"/>
    <nd ref="1811229492"/>
    <nd ref="1811229490"/>
    <nd ref="1811229487"/>
    <nd ref="1811229484"/>
    <nd ref="1811229469"/>
    <nd ref="1811229460"/>
    <nd ref="1811229454"/>
    <nd ref="1811229452"/>
    <nd ref="1811229451"/>
    <nd ref="1811229438"/>
    <nd ref="1811229437"/>
    <nd ref="1811229436"/>
    <nd ref="1811229432"/>
    <tag k="cycleway" v="lane"/>
    <tag k="highway" v="trunk"/>
    <tag k="lanes" v="3"/>
    <tag k="maxspeed" v="60"/>
    <tag k="name" v="South Road"/>
    <tag k="odbl" v="clean"/>
    <tag k="oneway" v="yes"/>
    <tag k="ref" v="A13"/>
    <tag k="source" v="Bing"/>
  </way>
  <way id="86580399" version="5" timestamp="2012-09-09T22:21:18Z" uid="418724" user="wintersportler" changeset="13050842">
    <nd ref="168805212"/>
    <nd ref="1811229493"/>
    <nd ref="1811229492"/>
    <nd ref="1811229490"/>
    <nd ref="1811229487"/>
    <nd ref="1811229484"/>
    <nd ref="1811229469"/>
    <nd ref="1811229460"/>
    <nd ref="1811229454"/>
    <nd ref="1811229452"/>
    <nd ref="1811229451"/>
    <nd ref="1811229438"/>
    <nd ref="1811229436"/>
    <nd ref="1811229432"/>
    <tag k="cycleway" v="lane"/>
    <tag k="highway" v="trunk"/>
    <tag k="lanes" v="3"/>
    <tag k="maxspeed" v="60"/>
    <tag k="name" v="South Road"/>
    <tag k="oneway" v="yes"/>
    <tag k="ref" v="A13"/>
    <tag k="source" v="Bing"/>
  </way>
  <way id="86580402" version="3" timestamp="2012-07-19T08:47:06Z" uid="722137" user="OSMF Redaction Account" changeset="12314499">
    <nd ref="1006515451"/>
    <nd ref="252164385"/>
    <nd ref="274429279"/>
    <tag k="highway" v="secondary"/>
    <tag k="is_in" v="St Marys,South Australia,Australia"/>
    <tag k="lanes" v="2"/>
    <tag k="maxspeed" v="60"/>
    <tag k="name" v="Shepherds Hill Road"/>
    <tag k="oneway" v="yes"/>
    <tag k="postal_code" v="5042"/>
    <tag k="source" v="survey"/>
  </way>
  <way id="86580402" version="4" timestamp="2012-08-15T09:46:21Z" uid="801691" user="djwdjw" changeset="12736538">
    <nd ref="1006515451"/>
    <nd ref="252164385"/>
    <nd ref="1867066821"/>
    <nd ref="1867066826"/>
    <nd ref="1867066820"/>
    <nd ref="1867066829"/>
    <nd ref="1867066835"/>
    <nd ref="274429279"/>
    <nd ref="1866924673"/>
    <tag k="highway" v="secondary"/>
    <tag k="is_in" v="St Marys,South Australia,Australia"/>
    <tag k="lanes" v="2"/>
    <tag k="maxspeed" v="60"/>
    <tag k="name" v="Shepherds Hill Road"/>
    <tag k="oneway" v="yes"/>
    <tag k="postal_code" v="5042"/>
    <tag k="source" v="survey"/>
  </way>
  <way id="86580402" version="5" timestamp="2012-08-15T09:56:23Z" uid="801691" user="djwdjw" changeset="12736538"/>
  <way id="86580403" version="3" timestamp="2012-07-19T09:08:05Z" uid="722137" user="OSMF Redaction Account" changeset="12315263">
    <nd ref="1006515509"/>
    <nd ref="170392298"/>
    <nd ref="170392446"/>
    <nd ref="170392585"/>
    <nd ref="170392955"/>
    <nd ref="170393093"/>
    <nd ref="170393242"/>
    <nd ref="170393413"/>
    <nd ref="170393547"/>
    <nd ref="170393587"/>
    <tag k="cycleway" v="lane"/>
    <tag k="highway" v="secondary"/>
    <tag k="is_in" v="Dover Gardens,South Australia,Australia"/>
    <tag k="lanes" v="2"/>
    <tag k="maxspeed" v="60"/>
    <tag k="name" v="Sturt Road"/>
    <tag k="oneway" v="yes"/>
    <tag k="postal_code" v="5048"/>
    <tag k="source" v="survey"/>
  </way>
  <way id="86580403" version="4" timestamp="2012-09-10T23:24:30Z" uid="418724" user="wintersportler" changeset="13063663">
    <nd ref="1006515509"/>
    <nd ref="170392298"/>
    <nd ref="170392446"/>
    <nd ref="1909310609"/>
    <nd ref="170392585"/>
    <nd ref="1909310610"/>
    <nd ref="170392955"/>
    <nd ref="1909310611"/>
    <nd ref="1909310613"/>
    <nd ref="170393413"/>
    <nd ref="170393547"/>
    <nd ref="1909310615"/>
    <nd ref="170393587"/>
    <tag k="cycleway" v="lane"/>
    <tag k="highway" v="secondary"/>
    <tag k="is_in" v="Dover Gardens,South Australia,Australia"/>
    <tag k="lanes" v="2"/>
    <tag k="maxspeed" v="60"/>
    <tag k="name" v="Sturt Road"/>
    <tag k="oneway" v="yes"/>
    <tag k="postal_code" v="5048"/>
    <tag k="source" v="survey"/>
  </way>
  <way id="86580660" version="4" timestamp="2012-08-07T22:46:41Z" uid="109327" user="OverQuantum" changeset="12651786">
    <nd ref="1856369150"/>
    <nd ref="1856369147"/>
    <nd ref="1006576307"/>
    <nd ref="1006576335"/>
    <nd ref="1006576281"/>
    <tag k="footway" v="sidewalk"/>
    <tag k="highway" v="footway"/>
    <tag k="motorcar" v="no"/>
  </way>
</osm>
