<?xml version='1.0' encoding='UTF-8'?>
<osm version="0.6" generator="libosmium/2.20.0">
  <way id="86633937" version="5" timestamp="2011-05-30T19:21:55Z" uid="34428" user="usm78-gis" changeset="8295330">
    <nd ref="1007527297"/>
    <nd ref="1007523699"/>
    <nd ref="1007517705"/>
    <nd ref="1007529380"/>
    <nd ref="1007527297"/>
    <tag k="addr:city" v="Выборг"/>
    <tag k="addr:country" v="RU"/>
    <tag k="addr:housenumber" v="1А"/>
    <tag k="addr:state" v="Ленинградская область"/>
    <tag k="addr:street" v="Песочная улица"/>
    <tag k="building" v="yes"/>
    <tag k="name" v="Северо-Западное лесничество"/>
  </way>
  <way id="86633964" version="4" timestamp="2011-05-30T19:22:19Z" uid="34428" user="usm78-gis" changeset="8295330">
    <nd ref="1007525588"/>
    <nd ref="1007521621"/>
    <nd ref="1181251917"/>
    <nd ref="1181251972"/>
    <tag k="highway" v="service"/>
  </way>
  <way id="86633937" version="6" timestamp="2012-07-21T05:16:40Z" uid="722137" user="OSMF Redaction Account" changeset="12400557">
    <nd ref="1007527297"/>
    <nd ref="1007523699"/>
    <nd ref="1007517705"/>
    <nd ref="1007529380"/>
    <nd ref="1007527297"/>
    <tag k="addr:city" v="Выборг"/>
    <tag k="addr:country" v="RU"/>
    <tag k="addr:housenumber" v="1А"/>
    <tag k="addr:state" v="Ленинградская область"/>
    <tag k="addr:street" v="Песочная улица"/>
    <tag k="building" v="yes"/>
  </way>
</osm>
