<?xml version='1.0' encoding='UTF-8'?>
<osm version="0.6" generator="libosmium/2.20.0">
  <way id="8682248" version="3" timestamp="2008-03-09T14:08:07Z" uid="16922" user="amai" changeset="293394">
    <nd ref="62018290"/>
    <nd ref="62018319"/>
    <nd ref="62018323"/>
    <nd ref="62018325"/>
    <nd ref="62018437"/>
    <nd ref="62018440"/>
    <nd ref="62018444"/>
    <nd ref="62018448"/>
    <nd ref="62018451"/>
    <nd ref="62018452"/>
    <nd ref="62018456"/>
    <nd ref="62018460"/>
    <nd ref="62019423"/>
    <nd ref="21424711"/>
    <tag k="created_by" v="Potlatch 0.7b"/>
    <tag k="highway" v="residential"/>
    <tag k="name" v="Wiesenstraße"/>
  </way>
  <way id="8682248" version="4" timestamp="2010-04-25T18:25:07Z" uid="274147" user="WinnerDA" changeset="4524752">
    <nd ref="62018290"/>
    <nd ref="62018319"/>
    <nd ref="62018323"/>
    <nd ref="62018325"/>
    <nd ref="62018437"/>
    <nd ref="62018440"/>
    <nd ref="62018444"/>
    <nd ref="62018448"/>
    <nd ref="62018451"/>
    <nd ref="62018452"/>
    <nd ref="62018456"/>
    <nd ref="62018460"/>
    <nd ref="62019423"/>
    <nd ref="21424711"/>
    <nd ref="706516011"/>
    <nd ref="706515947"/>
    <nd ref="706515924"/>
    <nd ref="706515887"/>
    <nd ref="21424713"/>
    <tag k="highway" v="residential"/>
    <tag k="name" v="Wiesenstraße"/>
  </way>
  <way id="8682248" version="5" timestamp="2012-01-26T08:05:09Z" uid="157286" user="SGiersch" changeset="10500683">
    <nd ref="62018290"/>
    <nd ref="62018319"/>
    <nd ref="62018323"/>
    <nd ref="62018325"/>
    <nd ref="62018437"/>
    <nd ref="62018440"/>
    <nd ref="62018444"/>
    <nd ref="62018448"/>
    <nd ref="62018451"/>
    <nd ref="62018452"/>
    <nd ref="62018456"/>
    <nd ref="62018460"/>
    <nd ref="62019423"/>
    <nd ref="21424711"/>
    <nd ref="1606173111"/>
    <nd ref="1606173113"/>
    <nd ref="1606173116"/>
    <nd ref="1606173114"/>
    <nd ref="21424713"/>
    <tag k="highway" v="residential"/>
    <tag k="name" v="Wiesenstraße"/>
  </way>
  <way id="8682543" version="5" timestamp="2009-11-10T15:43:25Z" uid="23543" user="jkjk" changeset="3082914">
    <nd ref="252059"/>
    <nd ref="252068"/>
    <nd ref="21312335"/>
    <nd ref="21312401"/>
    <tag k="highway" v="motorway"/>
    <tag k="lanes" v="2"/>
    <tag k="maxspeed" v="130"/>
    <tag k="oneway" v="yes"/>
    <tag k="ref" v="D5"/>
  </way>
  <way id="8682543" version="6" timestamp="2010-10-27T14:16:30Z" uid="248441" user="Jandrs" changeset="6196615">
    <nd ref="252059"/>
    <nd ref="252068"/>
    <nd ref="21312335"/>
    <nd ref="21312401"/>
    <tag k="highway" v="trunk"/>
    <tag k="lanes" v="2"/>
    <tag k="maxspeed" v="130"/>
    <tag k="motorroad" v="yes"/>
    <tag k="oneway" v="yes"/>
    <tag k="ref" v="5"/>
  </way>
  <way id="8682543" version="7" timestamp="2011-04-18T17:49:01Z" uid="17615" user="Petr Dlouhý" changeset="7899354">
    <nd ref="252059"/>
    <nd ref="252068"/>
    <nd ref="1250224577"/>
    <nd ref="1250225024"/>
    <nd ref="21312335"/>
    <nd ref="1250224857"/>
    <nd ref="21312401"/>
    <tag k="highway" v="trunk"/>
    <tag k="lanes" v="2"/>
    <tag k="maxspeed" v="130"/>
    <tag k="motorroad" v="yes"/>
    <tag k="oneway" v="yes"/>
    <tag k="ref" v="5"/>
  </way>
  <way id="8682543" version="8" timestamp="2011-12-20T19:10:03Z" uid="572321" user="L324" changeset="10165558">
    <nd ref="252059"/>
    <nd ref="252068"/>
    <nd ref="1250224577"/>
    <nd ref="1250225024"/>
    <nd ref="21312335"/>
    <nd ref="1250224857"/>
    <nd ref="21312401"/>
    <tag k="highway" v="trunk"/>
    <tag k="lanes" v="2"/>
    <tag k="maxspeed" v="130"/>
    <tag k="motorroad" v="yes"/>
    <tag k="name" v="Rozvadovská spojka"/>
    <tag k="oneway" v="yes"/>
    <tag k="ref" v="R5"/>
  </way>
  <way id="8682806" version="2" timestamp="2008-03-09T14:08:44Z" uid="16922" user="amai" changeset="293394">
    <nd ref="62022112"/>
    <nd ref="62022108"/>
    <nd ref="62022106"/>
    <nd ref="62022102"/>
    <nd ref="62022099"/>
    <nd ref="62022094"/>
    <nd ref="62022090"/>
    <nd ref="62022085"/>
    <nd ref="62022080"/>
    <nd ref="62022077"/>
    <nd ref="62022073"/>
    <nd ref="62022067"/>
    <nd ref="62018290"/>
    <tag k="created_by" v="Potlatch 0.7b"/>
    <tag k="highway" v="residential"/>
  </way>
  <way id="8682806" version="3" timestamp="2008-03-09T14:09:31Z" uid="16922" user="amai" changeset="293394">
    <nd ref="62022112"/>
    <nd ref="62022108"/>
    <nd ref="62022106"/>
    <nd ref="62022102"/>
    <nd ref="62022099"/>
    <nd ref="62022094"/>
    <nd ref="62022090"/>
    <nd ref="62022085"/>
    <nd ref="62022080"/>
    <nd ref="62022077"/>
    <nd ref="62022073"/>
    <nd ref="62022067"/>
    <nd ref="62018290"/>
    <tag k="created_by" v="Potlatch 0.7b"/>
    <tag k="highway" v="residential"/>
    <tag k="name" v="Meßbacher Straße"/>
  </way>
  <way id="8682806" version="4" timestamp="2010-07-31T16:47:57Z" uid="130630" user="uli1969" changeset="5364027"/>
  <way id="8682248" version="6" timestamp="2012-07-16T23:17:23Z" uid="722137" user="OSMF Redaction Account" changeset="12253291">
    <nd ref="62018290"/>
    <nd ref="62018319"/>
    <nd ref="62018323"/>
    <nd ref="62018325"/>
    <nd ref="62018437"/>
    <nd ref="62018440"/>
    <nd ref="62018444"/>
    <nd ref="62018448"/>
    <nd ref="62018451"/>
    <nd ref="62018452"/>
    <nd ref="62018456"/>
    <nd ref="62018460"/>
    <nd ref="62019423"/>
    <nd ref="21424711"/>
    <nd ref="1606173111"/>
    <nd ref="1606173113"/>
    <nd ref="1606173116"/>
    <nd ref="1606173114"/>
    <nd ref="21424713"/>
    <tag k="highway" v="residential"/>
  </way>
  <way id="8682543" version="9" timestamp="2012-07-20T20:59:20Z" uid="10353" user="gorn" changeset="12391498">
    <nd ref="252059"/>
    <nd ref="252068"/>
    <nd ref="1250224577"/>
    <nd ref="1250225024"/>
    <nd ref="21312335"/>
    <nd ref="1250224857"/>
    <nd ref="21312401"/>
    <tag k="highway" v="trunk"/>
    <tag k="lanes" v="2"/>
    <tag k="maxspeed" v="130"/>
    <tag k="motorroad" v="yes"/>
    <tag k="name" v="Rozvadovská spojka"/>
    <tag k="oneway" v="yes"/>
    <tag k="ref" v="5"/>
    <tag k="source:ref" v="rsd_cr"/>
  </way>
  <way id="8682543" version="10" timestamp="2012-07-24T14:27:33Z" uid="722137" user="OSMF Redaction Account" changeset="12467836">
    <nd ref="252059"/>
    <nd ref="1250224577"/>
    <nd ref="1250225024"/>
    <nd ref="21312335"/>
    <nd ref="1250224857"/>
    <nd ref="21312401"/>
    <tag k="highway" v="trunk"/>
    <tag k="lanes" v="2"/>
    <tag k="maxspeed" v="130"/>
    <tag k="motorroad" v="yes"/>
    <tag k="name" v="Rozvadovská spojka"/>
    <tag k="oneway" v="yes"/>
    <tag k="ref" v="5"/>
    <tag k="source:ref" v="rsd_cr"/>
  </way>
  <way id="8682543" version="11" timestamp="2012-07-25T20:06:41Z" uid="72020" user="Petr1868" changeset="12491376">
    <nd ref="252059"/>
    <nd ref="1250224577"/>
    <nd ref="1250225024"/>
    <nd ref="21312335"/>
    <nd ref="1250224857"/>
    <nd ref="1838099511"/>
    <nd ref="21312401"/>
    <nd ref="1838099489"/>
    <nd ref="1838099579"/>
    <nd ref="1838099574"/>
    <nd ref="21312421"/>
    <tag k="highway" v="trunk"/>
    <tag k="lanes" v="2"/>
    <tag k="maxspeed" v="130"/>
    <tag k="motorroad" v="yes"/>
    <tag k="name" v="Rozvadovská spojka"/>
    <tag k="oneway" v="yes"/>
    <tag k="ref" v="5"/>
    <tag k="source:ref" v="rsd_cr"/>
  </way>
</osm>
