<?xml version='1.0' encoding='UTF-8'?>
<osm version="0.6" generator="libosmium/2.20.0">
  <way id="87887526" version="1" timestamp="2010-12-05T01:30:10Z" uid="107674" user="GeoCounter" changeset="6546201">
    <nd ref="1021390441"/>
    <nd ref="1021390246"/>
    <nd ref="1021390369"/>
    <nd ref="1021390562"/>
    <nd ref="1021390441"/>
    <tag k="building" v="yes"/>
  </way>
  <way id="87887526" version="2" timestamp="2011-06-10T18:28:39Z" uid="107674" user="GeoCounter" changeset="8399639">
    <nd ref="1021390441"/>
    <nd ref="1021390246"/>
    <nd ref="1021390369"/>
    <nd ref="1021390562"/>
    <nd ref="1021390441"/>
    <tag k="addr:city" v="Heusenstamm"/>
    <tag k="addr:country" v="DE"/>
    <tag k="addr:housenumber" v="26"/>
    <tag k="addr:postcode" v="63150"/>
    <tag k="addr:street" v="Weiskircher Weg"/>
    <tag k="building" v="yes"/>
    <tag k="contact:website" v="http://www.soccer-center-heusenstamm.de/"/>
    <tag k="leisure" v="sports_centre"/>
    <tag k="name" v="Soccer Center Heusenstamm"/>
    <tag k="sport" v="soccer"/>
  </way>
  <way id="87887526" version="3" timestamp="2012-01-02T15:29:37Z" uid="91490" user="Heinz_V" changeset="10271775">
    <nd ref="1021390441"/>
    <nd ref="1021390246"/>
    <nd ref="1021390369"/>
    <nd ref="1021390562"/>
    <nd ref="1021390441"/>
    <tag k="addr:city" v="Heusenstamm"/>
    <tag k="addr:country" v="DE"/>
    <tag k="addr:housenumber" v="26"/>
    <tag k="addr:postcode" v="63150"/>
    <tag k="addr:street" v="Weiskircher Weg"/>
    <tag k="building" v="yes"/>
    <tag k="contact:website" v="http://www.soccer-center-heusenstamm.de/"/>
    <tag k="leisure" v="sports_centre"/>
    <tag k="name" v="Soccer Center Heusenstamm"/>
    <tag k="odbl" v="clean"/>
    <tag k="sport" v="soccer"/>
  </way>
  <way id="87887527" version="1" timestamp="2010-12-05T01:30:11Z" uid="107674" user="GeoCounter" changeset="6546201">
    <nd ref="1021390650"/>
    <nd ref="1021390438"/>
    <nd ref="1021390535"/>
    <nd ref="1021390641"/>
    <nd ref="1021390650"/>
    <tag k="building" v="yes"/>
  </way>
  <way id="87887527" version="2" timestamp="2012-01-02T15:29:12Z" uid="91490" user="Heinz_V" changeset="10271775">
    <nd ref="1021390650"/>
    <nd ref="1021390438"/>
    <nd ref="1021390535"/>
    <nd ref="1021390641"/>
    <nd ref="1021390650"/>
    <tag k="building" v="yes"/>
    <tag k="odbl" v="clean"/>
  </way>
  <way id="87887528" version="1" timestamp="2010-12-05T01:30:11Z" uid="107674" user="GeoCounter" changeset="6546201">
    <nd ref="1021390673"/>
    <nd ref="1021390436"/>
    <nd ref="1021390587"/>
    <nd ref="1021390683"/>
    <nd ref="1021390673"/>
    <tag k="leisure" v="pitch"/>
    <tag k="sport" v="tennis"/>
  </way>
  <way id="87887528" version="2" timestamp="2011-06-10T18:28:40Z" uid="107674" user="GeoCounter" changeset="8399639"/>
  <way id="87887529" version="1" timestamp="2010-12-05T01:30:11Z" uid="107674" user="GeoCounter" changeset="6546201">
    <nd ref="1021390622"/>
    <nd ref="1021390408"/>
    <nd ref="1021390543"/>
    <nd ref="1021390674"/>
    <nd ref="1021390622"/>
    <tag k="building" v="yes"/>
  </way>
  <way id="87887529" version="2" timestamp="2012-01-02T15:29:00Z" uid="91490" user="Heinz_V" changeset="10271775">
    <nd ref="1021390622"/>
    <nd ref="1021390408"/>
    <nd ref="1021390543"/>
    <nd ref="1021390674"/>
    <nd ref="1021390622"/>
    <tag k="building" v="yes"/>
    <tag k="odbl" v="clean"/>
  </way>
  <way id="87887530" version="1" timestamp="2010-12-05T01:30:11Z" uid="107674" user="GeoCounter" changeset="6546201">
    <nd ref="1021390321"/>
    <nd ref="1021390643"/>
    <nd ref="1021390614"/>
    <nd ref="1021390677"/>
    <nd ref="1021390321"/>
    <tag k="leisure" v="pitch"/>
    <tag k="sport" v="tennis"/>
  </way>
  <way id="87887530" version="2" timestamp="2011-06-10T18:28:40Z" uid="107674" user="GeoCounter" changeset="8399639"/>
  <way id="87887531" version="1" timestamp="2010-12-05T01:30:11Z" uid="107674" user="GeoCounter" changeset="6546201">
    <nd ref="1021390483"/>
    <nd ref="1021390687"/>
    <nd ref="1021390336"/>
    <nd ref="1021390514"/>
    <nd ref="1021390637"/>
    <nd ref="1021390670"/>
    <nd ref="1021390291"/>
    <nd ref="1021390457"/>
    <nd ref="1021390591"/>
    <nd ref="1021390541"/>
    <nd ref="1021390645"/>
    <nd ref="1021390302"/>
    <nd ref="1021390483"/>
    <tag k="addr:city" v="Heusenstamm"/>
    <tag k="addr:country" v="DE"/>
    <tag k="addr:housenumber" v="15"/>
    <tag k="addr:postcode" v="63150"/>
    <tag k="addr:street" v="Weiskircher Weg"/>
    <tag k="amenity" v="place_of_worship"/>
    <tag k="building" v="yes"/>
    <tag k="contact:website" v="http://www.heusenstamm.feg.de/"/>
    <tag k="denomination" v="protestant"/>
    <tag k="name" v="Freie Evangelische Gemeinde Heusenstamm"/>
    <tag k="religion" v="christian"/>
    <tag k="service_times" v="Su 10:00+"/>
  </way>
  <way id="87887531" version="2" timestamp="2010-12-14T18:13:55Z" uid="107674" user="GeoCounter" changeset="6660768">
    <nd ref="1021390483"/>
    <nd ref="1021390687"/>
    <nd ref="1021390336"/>
    <nd ref="1021390514"/>
    <nd ref="1021390637"/>
    <nd ref="1021390670"/>
    <nd ref="1021390291"/>
    <nd ref="1021390457"/>
    <nd ref="1021390591"/>
    <nd ref="1021390541"/>
    <nd ref="1021390645"/>
    <nd ref="1021390302"/>
    <nd ref="1021390483"/>
    <tag k="addr:city" v="Heusenstamm"/>
    <tag k="addr:country" v="DE"/>
    <tag k="addr:housenumber" v="15"/>
    <tag k="addr:postcode" v="63150"/>
    <tag k="addr:street" v="Weiskircher Weg"/>
    <tag k="amenity" v="place_of_worship"/>
    <tag k="building" v="yes"/>
    <tag k="contact:website" v="http://www.heusenstamm.feg.de/"/>
    <tag k="denomination" v="protestant"/>
    <tag k="name" v="Freie Evangelische Gemeinde Heusenstamm"/>
    <tag k="religion" v="christian"/>
    <tag k="service_times" v="Su 10:00"/>
  </way>
  <way id="87887531" version="3" timestamp="2010-12-14T22:00:30Z" uid="107674" user="GeoCounter" changeset="6663087">
    <nd ref="1021390483"/>
    <nd ref="1021390687"/>
    <nd ref="1021390336"/>
    <nd ref="1021390514"/>
    <nd ref="1021390637"/>
    <nd ref="1021390670"/>
    <nd ref="1021390291"/>
    <nd ref="1021390457"/>
    <nd ref="1021390591"/>
    <nd ref="1021390541"/>
    <nd ref="1021390645"/>
    <nd ref="1021390302"/>
    <nd ref="1021390483"/>
    <tag k="addr:city" v="Heusenstamm"/>
    <tag k="addr:country" v="DE"/>
    <tag k="addr:housenumber" v="15"/>
    <tag k="addr:postcode" v="63150"/>
    <tag k="addr:street" v="Weiskircher Weg"/>
    <tag k="amenity" v="place_of_worship"/>
    <tag k="building" v="yes"/>
    <tag k="contact:website" v="http://www.heusenstamm.feg.de/"/>
    <tag k="denomination" v="protestant"/>
    <tag k="name" v="Freie evangelische Gemeinde Heusenstamm"/>
    <tag k="religion" v="christian"/>
    <tag k="service_times" v="Su 10:00 &quot;Gottesdienst mit Kindergottesdienst/Kleinkindbetreuung&quot;; Su[-1] 10:00 &quot;Gottesdienst mit Abendmahl und Kindergottesdienst/Kleinkindbetreuung&quot;"/>
  </way>
  <way id="87887531" version="4" timestamp="2011-04-26T14:55:41Z" uid="107674" user="GeoCounter" changeset="7975634">
    <nd ref="1021390483"/>
    <nd ref="1021390687"/>
    <nd ref="1021390336"/>
    <nd ref="1021390514"/>
    <nd ref="1021390637"/>
    <nd ref="1021390670"/>
    <nd ref="1021390291"/>
    <nd ref="1021390457"/>
    <nd ref="1021390591"/>
    <nd ref="1021390541"/>
    <nd ref="1021390645"/>
    <nd ref="1021390302"/>
    <nd ref="1021390483"/>
    <tag k="addr:city" v="Heusenstamm"/>
    <tag k="addr:country" v="DE"/>
    <tag k="addr:housenumber" v="15"/>
    <tag k="addr:postcode" v="63150"/>
    <tag k="addr:street" v="Weiskircher Weg"/>
    <tag k="amenity" v="place_of_worship"/>
    <tag k="building" v="yes"/>
    <tag k="contact:website" v="http://www.heusenstamm.feg.de/"/>
    <tag k="denomination" v="protestant"/>
    <tag k="name" v="Freie evangelische Gemeinde Heusenstamm (FeG)"/>
    <tag k="religion" v="christian"/>
    <tag k="service_times" v="Su 10:00 &quot;Gottesdienst mit Kindergottesdienst/Kleinkindbetreuung&quot;; Su[-1] 10:00 &quot;Gottesdienst mit Abendmahl und Kindergottesdienst/Kleinkindbetreuung&quot;"/>
  </way>
  <way id="87887531" version="5" timestamp="2012-01-02T15:28:48Z" uid="91490" user="Heinz_V" changeset="10271775">
    <nd ref="1021390483"/>
    <nd ref="1021390687"/>
    <nd ref="1021390336"/>
    <nd ref="1021390514"/>
    <nd ref="1021390637"/>
    <nd ref="1021390670"/>
    <nd ref="1021390291"/>
    <nd ref="1021390457"/>
    <nd ref="1021390591"/>
    <nd ref="1021390541"/>
    <nd ref="1021390645"/>
    <nd ref="1021390302"/>
    <nd ref="1021390483"/>
    <tag k="addr:city" v="Heusenstamm"/>
    <tag k="addr:country" v="DE"/>
    <tag k="addr:housenumber" v="15"/>
    <tag k="addr:postcode" v="63150"/>
    <tag k="addr:street" v="Weiskircher Weg"/>
    <tag k="amenity" v="place_of_worship"/>
    <tag k="building" v="yes"/>
    <tag k="contact:website" v="http://www.heusenstamm.feg.de/"/>
    <tag k="denomination" v="protestant"/>
    <tag k="name" v="Freie evangelische Gemeinde Heusenstamm (FeG)"/>
    <tag k="odbl" v="clean"/>
    <tag k="religion" v="christian"/>
    <tag k="service_times" v="Su 10:00 &quot;Gottesdienst mit Kindergottesdienst/Kleinkindbetreuung&quot;; Su[-1] 10:00 &quot;Gottesdienst mit Abendmahl und Kindergottesdienst/Kleinkindbetreuung&quot;"/>
  </way>
  <way id="87887532" version="1" timestamp="2010-12-05T01:30:11Z" uid="107674" user="GeoCounter" changeset="6546201">
    <nd ref="1021390341"/>
    <nd ref="1021390651"/>
    <nd ref="1021390259"/>
    <nd ref="1021390415"/>
    <nd ref="1021390341"/>
    <tag k="building" v="yes"/>
  </way>
  <way id="87887532" version="2" timestamp="2012-01-02T15:29:08Z" uid="91490" user="Heinz_V" changeset="10271775">
    <nd ref="1021390341"/>
    <nd ref="1021390651"/>
    <nd ref="1021390259"/>
    <nd ref="1021390415"/>
    <nd ref="1021390341"/>
    <tag k="building" v="yes"/>
    <tag k="odbl" v="clean"/>
  </way>
  <way id="87887533" version="1" timestamp="2010-12-05T01:30:12Z" uid="107674" user="GeoCounter" changeset="6546201">
    <nd ref="1021390693"/>
    <nd ref="1021390567"/>
    <nd ref="1021390513"/>
    <nd ref="1021390636"/>
    <nd ref="1021390270"/>
    <nd ref="1021390387"/>
    <nd ref="1021390455"/>
    <nd ref="1021390590"/>
    <nd ref="1021390693"/>
    <tag k="building" v="yes"/>
  </way>
  <way id="87887533" version="2" timestamp="2012-01-02T15:28:38Z" uid="91490" user="Heinz_V" changeset="10271775">
    <nd ref="1021390693"/>
    <nd ref="1021390567"/>
    <nd ref="1021390513"/>
    <nd ref="1021390636"/>
    <nd ref="1021390270"/>
    <nd ref="1021390387"/>
    <nd ref="1021390455"/>
    <nd ref="1021390590"/>
    <nd ref="1021390693"/>
    <tag k="building" v="yes"/>
    <tag k="odbl" v="clean"/>
  </way>
  <way id="87887534" version="1" timestamp="2010-12-05T01:30:12Z" uid="107674" user="GeoCounter" changeset="6546201">
    <nd ref="1021390509"/>
    <nd ref="1021390511"/>
    <nd ref="1021390633"/>
    <nd ref="1021390267"/>
    <nd ref="1021390509"/>
    <tag k="building" v="yes"/>
  </way>
  <way id="87887534" version="2" timestamp="2012-01-02T15:28:57Z" uid="91490" user="Heinz_V" changeset="10271775">
    <nd ref="1021390509"/>
    <nd ref="1021390511"/>
    <nd ref="1021390633"/>
    <nd ref="1021390267"/>
    <nd ref="1021390509"/>
    <tag k="building" v="yes"/>
    <tag k="odbl" v="clean"/>
  </way>
  <way id="87887535" version="1" timestamp="2010-12-05T01:30:12Z" uid="107674" user="GeoCounter" changeset="6546201">
    <nd ref="1021390419"/>
    <nd ref="1021390690"/>
    <nd ref="1021390296"/>
    <nd ref="1021390405"/>
    <nd ref="1021390419"/>
    <tag k="leisure" v="pitch"/>
    <tag k="sport" v="tennis"/>
  </way>
  <way id="87887535" version="2" timestamp="2011-06-10T18:28:40Z" uid="107674" user="GeoCounter" changeset="8399639"/>
  <way id="87887536" version="1" timestamp="2010-12-05T01:30:12Z" uid="107674" user="GeoCounter" changeset="6546201">
    <nd ref="1021390681"/>
    <nd ref="1021390536"/>
    <nd ref="1021390666"/>
    <nd ref="1021390288"/>
    <nd ref="1021390347"/>
    <nd ref="1021390468"/>
    <nd ref="1021390681"/>
    <tag k="building" v="yes"/>
  </way>
  <way id="87887536" version="2" timestamp="2012-01-02T15:29:19Z" uid="91490" user="Heinz_V" changeset="10271775">
    <nd ref="1021390681"/>
    <nd ref="1021390536"/>
    <nd ref="1021390666"/>
    <nd ref="1021390288"/>
    <nd ref="1021390347"/>
    <nd ref="1021390468"/>
    <nd ref="1021390681"/>
    <tag k="building" v="yes"/>
    <tag k="odbl" v="clean"/>
  </way>
  <way id="87887536" version="3" timestamp="2012-01-05T13:46:41Z" uid="65364" user="Harry99" changeset="10300355">
    <nd ref="1021390681"/>
    <nd ref="1021390536"/>
    <nd ref="1021390666"/>
    <nd ref="1021390288"/>
    <nd ref="1021390347"/>
    <nd ref="1021390468"/>
    <nd ref="1021390681"/>
    <tag k="building" v="yes"/>
    <tag k="odbl" v="clean"/>
  </way>
  <way id="87887537" version="1" timestamp="2010-12-05T01:30:12Z" uid="107674" user="GeoCounter" changeset="6546201">
    <nd ref="1021390394"/>
    <nd ref="1021390658"/>
    <nd ref="1021390263"/>
    <nd ref="1021390429"/>
    <nd ref="1021390394"/>
    <tag k="building" v="yes"/>
  </way>
  <way id="87887537" version="2" timestamp="2012-01-02T15:28:47Z" uid="91490" user="Heinz_V" changeset="10271775">
    <nd ref="1021390394"/>
    <nd ref="1021390658"/>
    <nd ref="1021390263"/>
    <nd ref="1021390429"/>
    <nd ref="1021390394"/>
    <tag k="building" v="yes"/>
    <tag k="odbl" v="clean"/>
  </way>
  <way id="87887538" version="1" timestamp="2010-12-05T01:30:12Z" uid="107674" user="GeoCounter" changeset="6546201">
    <nd ref="1021390461"/>
    <nd ref="1021390261"/>
    <nd ref="1021390378"/>
    <nd ref="1021390563"/>
    <nd ref="1021390655"/>
    <nd ref="1021390461"/>
  </way>
  <way id="87887538" version="2" timestamp="2012-01-02T15:29:08Z" uid="91490" user="Heinz_V" changeset="10271775">
    <nd ref="1021390461"/>
    <nd ref="1021390261"/>
    <nd ref="1021390378"/>
    <nd ref="1021390563"/>
    <nd ref="1021390655"/>
    <nd ref="1021390461"/>
    <tag k="odbl" v="clean"/>
  </way>
  <way id="87887538" version="3" timestamp="2012-01-04T06:15:55Z" uid="179033" user="Radeln" changeset="10288242">
    <nd ref="1021390461"/>
    <nd ref="1021390261"/>
    <nd ref="1021390378"/>
    <nd ref="1021390563"/>
    <nd ref="1021390655"/>
    <nd ref="1021390461"/>
  </way>
  <way id="87887538" version="4" timestamp="2012-01-24T12:29:54Z" uid="91490" user="Heinz_V" changeset="10483975"/>
  <way id="87887539" version="1" timestamp="2010-12-05T01:30:13Z" uid="107674" user="GeoCounter" changeset="6546201">
    <nd ref="1021390256"/>
    <nd ref="1021390588"/>
    <nd ref="1021390686"/>
    <nd ref="1021390327"/>
    <nd ref="1021390396"/>
    <nd ref="1021390537"/>
    <nd ref="1021390667"/>
    <nd ref="1021390289"/>
    <nd ref="1021390355"/>
    <nd ref="1021390479"/>
    <nd ref="1021390256"/>
    <tag k="building" v="yes"/>
  </way>
  <way id="87887539" version="2" timestamp="2012-01-02T15:28:37Z" uid="91490" user="Heinz_V" changeset="10271775">
    <nd ref="1021390256"/>
    <nd ref="1021390588"/>
    <nd ref="1021390686"/>
    <nd ref="1021390327"/>
    <nd ref="1021390396"/>
    <nd ref="1021390537"/>
    <nd ref="1021390667"/>
    <nd ref="1021390289"/>
    <nd ref="1021390355"/>
    <nd ref="1021390479"/>
    <nd ref="1021390256"/>
    <tag k="building" v="yes"/>
    <tag k="odbl" v="clean"/>
  </way>
  <way id="87887540" version="1" timestamp="2010-12-05T01:30:13Z" uid="107674" user="GeoCounter" changeset="6546201">
    <nd ref="1021390694"/>
    <nd ref="1021390568"/>
    <nd ref="1021390627"/>
    <nd ref="1021390684"/>
    <nd ref="1021390694"/>
    <tag k="building" v="yes"/>
  </way>
  <way id="87887540" version="2" timestamp="2012-01-02T15:28:57Z" uid="91490" user="Heinz_V" changeset="10271775">
    <nd ref="1021390694"/>
    <nd ref="1021390568"/>
    <nd ref="1021390627"/>
    <nd ref="1021390684"/>
    <nd ref="1021390694"/>
    <tag k="building" v="yes"/>
    <tag k="odbl" v="clean"/>
  </way>
  <way id="87887541" version="1" timestamp="2010-12-05T01:30:13Z" uid="107674" user="GeoCounter" changeset="6546201">
    <nd ref="1021390652"/>
    <nd ref="1021390460"/>
    <nd ref="1021390638"/>
    <nd ref="1021390688"/>
    <nd ref="1021390675"/>
    <nd ref="1021390307"/>
    <nd ref="1021390465"/>
    <nd ref="1021390595"/>
    <nd ref="1021390649"/>
    <nd ref="1021390239"/>
    <nd ref="1021390410"/>
    <nd ref="1021390546"/>
    <nd ref="1021390615"/>
    <nd ref="1021390534"/>
    <nd ref="1021390665"/>
    <nd ref="1021390282"/>
    <nd ref="1021390345"/>
    <nd ref="1021390463"/>
    <nd ref="1021390640"/>
    <nd ref="1021390691"/>
    <nd ref="1021390676"/>
    <nd ref="1021390311"/>
    <nd ref="1021390481"/>
    <nd ref="1021390652"/>
    <tag k="building" v="yes"/>
  </way>
  <way id="87887541" version="2" timestamp="2012-01-03T12:14:12Z" uid="91490" user="Heinz_V" changeset="10280528">
    <nd ref="1021390652"/>
    <nd ref="1021390460"/>
    <nd ref="1021390638"/>
    <nd ref="1021390688"/>
    <nd ref="1021390675"/>
    <nd ref="1021390307"/>
    <nd ref="1021390465"/>
    <nd ref="1021390595"/>
    <nd ref="1021390649"/>
    <nd ref="1021390239"/>
    <nd ref="1021390410"/>
    <nd ref="1021390546"/>
    <nd ref="1021390615"/>
    <nd ref="1021390534"/>
    <nd ref="1021390665"/>
    <nd ref="1021390282"/>
    <nd ref="1021390345"/>
    <nd ref="1021390463"/>
    <nd ref="1021390640"/>
    <nd ref="1021390691"/>
    <nd ref="1021390676"/>
    <nd ref="1021390311"/>
    <nd ref="1021390481"/>
    <nd ref="1021390652"/>
    <tag k="building" v="yes"/>
    <tag k="odbl" v="clean"/>
  </way>
  <way id="87887542" version="1" timestamp="2010-12-05T01:30:13Z" uid="107674" user="GeoCounter" changeset="6546201">
    <nd ref="1021390439"/>
    <nd ref="1021390244"/>
    <nd ref="1021390413"/>
    <nd ref="1021390561"/>
    <nd ref="1021390618"/>
    <nd ref="1021390680"/>
    <nd ref="1021390366"/>
    <nd ref="1021390487"/>
    <nd ref="1021390566"/>
    <nd ref="1021390659"/>
    <nd ref="1021390320"/>
    <nd ref="1021390431"/>
    <nd ref="1021390384"/>
    <nd ref="1021390512"/>
    <nd ref="1021390662"/>
    <nd ref="1021390269"/>
    <nd ref="1021390330"/>
    <nd ref="1021390443"/>
    <nd ref="1021390439"/>
    <tag k="addr:city" v="Heusenstamm"/>
    <tag k="addr:country" v="DE"/>
    <tag k="addr:housenumber" v="2-4"/>
    <tag k="addr:postcode" v="63150"/>
    <tag k="addr:street" v="Rembrücker Straße"/>
    <tag k="amenity" v="fire_station"/>
    <tag k="building" v="yes"/>
    <tag k="contact:website" v="http://www.feuerwehr-heusenstamm.de/"/>
    <tag k="name" v="Freiwillige Feuerwehr Heusenstamm"/>
  </way>
  <way id="87887542" version="2" timestamp="2012-01-02T15:28:44Z" uid="91490" user="Heinz_V" changeset="10271775">
    <nd ref="1021390439"/>
    <nd ref="1021390244"/>
    <nd ref="1021390413"/>
    <nd ref="1021390561"/>
    <nd ref="1021390618"/>
    <nd ref="1021390680"/>
    <nd ref="1021390366"/>
    <nd ref="1021390487"/>
    <nd ref="1021390566"/>
    <nd ref="1021390659"/>
    <nd ref="1021390320"/>
    <nd ref="1021390431"/>
    <nd ref="1021390384"/>
    <nd ref="1021390512"/>
    <nd ref="1021390662"/>
    <nd ref="1021390269"/>
    <nd ref="1021390330"/>
    <nd ref="1021390443"/>
    <nd ref="1021390439"/>
    <tag k="addr:city" v="Heusenstamm"/>
    <tag k="addr:country" v="DE"/>
    <tag k="addr:housenumber" v="2-4"/>
    <tag k="addr:postcode" v="63150"/>
    <tag k="addr:street" v="Rembrücker Straße"/>
    <tag k="amenity" v="fire_station"/>
    <tag k="building" v="yes"/>
    <tag k="contact:website" v="http://www.feuerwehr-heusenstamm.de/"/>
    <tag k="name" v="Freiwillige Feuerwehr Heusenstamm"/>
    <tag k="odbl" v="clean"/>
  </way>
  <way id="87887543" version="1" timestamp="2010-12-05T01:30:14Z" uid="107674" user="GeoCounter" changeset="6546201">
    <nd ref="1021390521"/>
    <nd ref="1021390315"/>
    <nd ref="1021390372"/>
    <nd ref="1021390491"/>
    <nd ref="1021390653"/>
    <nd ref="1021390521"/>
    <tag k="landuse" v="greenfield"/>
  </way>
  <way id="87887543" version="2" timestamp="2012-01-02T15:29:26Z" uid="91490" user="Heinz_V" changeset="10271775">
    <nd ref="1021390521"/>
    <nd ref="1021390315"/>
    <nd ref="1021390372"/>
    <nd ref="1021390491"/>
    <nd ref="1021390653"/>
    <nd ref="1021390521"/>
    <tag k="landuse" v="greenfield"/>
    <tag k="odbl" v="clean"/>
  </way>
  <way id="87887543" version="3" timestamp="2012-01-05T15:30:58Z" uid="65364" user="Harry99" changeset="10300355"/>
  <way id="87887544" version="1" timestamp="2010-12-05T01:30:14Z" uid="107674" user="GeoCounter" changeset="6546201">
    <nd ref="1021390596"/>
    <nd ref="1021390390"/>
    <nd ref="1021390516"/>
    <nd ref="1021390593"/>
    <nd ref="1021390671"/>
    <nd ref="1021390338"/>
    <nd ref="1021390458"/>
    <nd ref="1021390538"/>
    <nd ref="1021390642"/>
    <nd ref="1021390294"/>
    <nd ref="1021390402"/>
    <nd ref="1021390357"/>
    <nd ref="1021390484"/>
    <nd ref="1021390648"/>
    <nd ref="1021390697"/>
    <nd ref="1021390318"/>
    <nd ref="1021390417"/>
    <nd ref="1021390600"/>
    <nd ref="1021390596"/>
  </way>
  <way id="87887544" version="2" timestamp="2012-01-02T15:29:43Z" uid="91490" user="Heinz_V" changeset="10271775">
    <nd ref="1021390596"/>
    <nd ref="1021390390"/>
    <nd ref="1021390516"/>
    <nd ref="1021390593"/>
    <nd ref="1021390671"/>
    <nd ref="1021390338"/>
    <nd ref="1021390458"/>
    <nd ref="1021390538"/>
    <nd ref="1021390642"/>
    <nd ref="1021390294"/>
    <nd ref="1021390402"/>
    <nd ref="1021390357"/>
    <nd ref="1021390484"/>
    <nd ref="1021390648"/>
    <nd ref="1021390697"/>
    <nd ref="1021390318"/>
    <nd ref="1021390417"/>
    <nd ref="1021390600"/>
    <nd ref="1021390596"/>
    <tag k="odbl" v="clean"/>
  </way>
  <way id="87887544" version="3" timestamp="2012-01-04T06:15:55Z" uid="179033" user="Radeln" changeset="10288242">
    <nd ref="1021390596"/>
    <nd ref="1021390390"/>
    <nd ref="1021390516"/>
    <nd ref="1021390593"/>
    <nd ref="1021390671"/>
    <nd ref="1021390338"/>
    <nd ref="1021390458"/>
    <nd ref="1021390538"/>
    <nd ref="1021390642"/>
    <nd ref="1021390294"/>
    <nd ref="1021390402"/>
    <nd ref="1021390357"/>
    <nd ref="1021390484"/>
    <nd ref="1021390648"/>
    <nd ref="1021390697"/>
    <nd ref="1021390318"/>
    <nd ref="1021390417"/>
    <nd ref="1021390600"/>
    <nd ref="1021390596"/>
  </way>
  <way id="87887544" version="4" timestamp="2012-01-24T12:29:54Z" uid="91490" user="Heinz_V" changeset="10483975"/>
  <way id="87887545" version="1" timestamp="2010-12-05T01:30:14Z" uid="107674" user="GeoCounter" changeset="6546201">
    <nd ref="1021390285"/>
    <nd ref="1021390616"/>
    <nd ref="1021390678"/>
    <nd ref="1021390364"/>
    <nd ref="1021390285"/>
    <tag k="leisure" v="pitch"/>
    <tag k="sport" v="tennis"/>
  </way>
  <way id="87887545" version="2" timestamp="2011-06-10T18:28:40Z" uid="107674" user="GeoCounter" changeset="8399639"/>
  <way id="87887546" version="1" timestamp="2010-12-05T01:30:14Z" uid="107674" user="GeoCounter" changeset="6546201">
    <nd ref="1021390495"/>
    <nd ref="1021390295"/>
    <nd ref="1021390241"/>
    <nd ref="1021390361"/>
    <nd ref="1021390495"/>
    <tag k="building" v="yes"/>
  </way>
  <way id="87887546" version="2" timestamp="2012-01-02T15:29:33Z" uid="91490" user="Heinz_V" changeset="10271775">
    <nd ref="1021390495"/>
    <nd ref="1021390295"/>
    <nd ref="1021390241"/>
    <nd ref="1021390361"/>
    <nd ref="1021390495"/>
    <tag k="building" v="yes"/>
    <tag k="odbl" v="clean"/>
  </way>
  <way id="87887547" version="1" timestamp="2010-12-05T01:30:14Z" uid="107674" user="GeoCounter" changeset="6546201">
    <nd ref="1021390304"/>
    <nd ref="1021390624"/>
    <nd ref="1021390265"/>
    <nd ref="1021390381"/>
    <nd ref="1021390304"/>
    <tag k="building" v="yes"/>
  </way>
  <way id="87887547" version="2" timestamp="2012-01-02T15:29:07Z" uid="91490" user="Heinz_V" changeset="10271775">
    <nd ref="1021390304"/>
    <nd ref="1021390624"/>
    <nd ref="1021390265"/>
    <nd ref="1021390381"/>
    <nd ref="1021390304"/>
    <tag k="building" v="yes"/>
    <tag k="odbl" v="clean"/>
  </way>
  <way id="87887548" version="1" timestamp="2010-12-05T01:30:14Z" uid="107674" user="GeoCounter" changeset="6546201">
    <nd ref="1021390333"/>
    <nd ref="1021390621"/>
    <nd ref="1021390682"/>
    <nd ref="1021390371"/>
    <nd ref="1021390489"/>
    <nd ref="1021390569"/>
    <nd ref="1021390661"/>
    <nd ref="1021390433"/>
    <nd ref="1021390393"/>
    <nd ref="1021390518"/>
    <nd ref="1021390333"/>
    <tag k="building" v="yes"/>
  </way>
  <way id="87887548" version="2" timestamp="2012-01-02T15:29:24Z" uid="91490" user="Heinz_V" changeset="10271775">
    <nd ref="1021390333"/>
    <nd ref="1021390621"/>
    <nd ref="1021390682"/>
    <nd ref="1021390371"/>
    <nd ref="1021390489"/>
    <nd ref="1021390569"/>
    <nd ref="1021390661"/>
    <nd ref="1021390433"/>
    <nd ref="1021390393"/>
    <nd ref="1021390518"/>
    <nd ref="1021390333"/>
    <tag k="building" v="yes"/>
    <tag k="odbl" v="clean"/>
  </way>
  <way id="87887549" version="1" timestamp="2010-12-05T01:30:15Z" uid="107674" user="GeoCounter" changeset="6546201">
    <nd ref="1021390664"/>
    <nd ref="1021390485"/>
    <nd ref="1021390564"/>
    <nd ref="1021390656"/>
    <nd ref="1021390664"/>
    <tag k="leisure" v="pitch"/>
    <tag k="sport" v="tennis"/>
  </way>
  <way id="87887549" version="2" timestamp="2011-06-10T18:28:40Z" uid="107674" user="GeoCounter" changeset="8399639"/>
  <way id="87887907" version="1" timestamp="2010-12-05T01:34:15Z" uid="6269" user="Mueck" changeset="6546217">
    <nd ref="257737499"/>
    <nd ref="257737542"/>
    <nd ref="257737545"/>
    <nd ref="257737550"/>
    <nd ref="257737762"/>
    <nd ref="257737553"/>
    <nd ref="257737557"/>
    <nd ref="257737561"/>
    <nd ref="257737565"/>
    <nd ref="257737571"/>
    <nd ref="257938104"/>
    <nd ref="257737581"/>
    <nd ref="257737585"/>
    <nd ref="257737586"/>
    <nd ref="257737587"/>
    <tag k="highway" v="footway"/>
  </way>
  <way id="87887907" version="2" timestamp="2010-12-05T02:06:25Z" uid="6269" user="Mueck" changeset="6546367">
    <nd ref="257737499"/>
    <nd ref="257737542"/>
    <nd ref="257737545"/>
    <nd ref="257737550"/>
    <nd ref="257737762"/>
    <nd ref="257737553"/>
    <nd ref="257737557"/>
    <nd ref="257737561"/>
    <nd ref="257737565"/>
    <nd ref="1021416446"/>
    <nd ref="257737571"/>
    <nd ref="257938104"/>
    <nd ref="257737581"/>
    <nd ref="257737585"/>
    <nd ref="257737586"/>
    <nd ref="257737587"/>
    <tag k="highway" v="footway"/>
  </way>
  <way id="87887907" version="3" timestamp="2012-07-17T10:16:47Z" uid="722137" user="OSMF Redaction Account" changeset="12262778"/>
</osm>
