<?xml version='1.0' encoding='UTF-8'?>
<osm version="0.6" generator="libosmium/2.20.0">
  <way id="8804908" version="5" timestamp="2008-03-09T15:38:03Z" uid="13367" user="nubok" changeset="295497">
    <nd ref="63309740"/>
    <nd ref="33837678"/>
    <tag k="bridge" v="yes"/>
    <tag k="created_by" v="Potlatch 0.7b"/>
    <tag k="highway" v="primary"/>
    <tag k="name" v="Salbker Chaussee"/>
    <tag k="ref" v="B71"/>
  </way>
  <way id="8804908" version="6" timestamp="2008-07-03T07:36:37Z" uid="42683" user="riechfield" changeset="375609">
    <nd ref="63309740"/>
    <nd ref="33837678"/>
    <tag k="bridge" v="yes"/>
    <tag k="created_by" v="Potlatch 0.9c"/>
    <tag k="highway" v="primary"/>
    <tag k="name" v="Salbker Chaussee"/>
    <tag k="ref" v="B71"/>
  </way>
  <way id="8804908" version="7" timestamp="2008-07-03T07:43:55Z" uid="42683" user="riechfield" changeset="375609">
    <nd ref="63309740"/>
    <nd ref="33837678"/>
    <tag k="bridge" v="yes"/>
    <tag k="construction" v="primary"/>
    <tag k="created_by" v="Potlatch 0.9c"/>
    <tag k="highway" v="primary"/>
    <tag k="name" v="Salbker Chaussee"/>
    <tag k="ref" v="B71"/>
  </way>
  <way id="8804908" version="8" timestamp="2008-07-03T07:44:10Z" uid="42683" user="riechfield" changeset="375609">
    <nd ref="63309740"/>
    <nd ref="33837678"/>
    <tag k="bridge" v="yes"/>
    <tag k="construction" v="primary"/>
    <tag k="created_by" v="Potlatch 0.9c"/>
    <tag k="highway" v="construction"/>
    <tag k="name" v="Salbker Chaussee"/>
    <tag k="ref" v="B71"/>
  </way>
  <way id="8804908" version="9" timestamp="2008-07-03T07:44:40Z" uid="42683" user="riechfield" changeset="375609">
    <nd ref="63309740"/>
    <nd ref="33837678"/>
    <tag k="bridge" v="yes"/>
    <tag k="construction" v="primary"/>
    <tag k="created_by" v="Potlatch 0.9c"/>
    <tag k="highway" v="construction"/>
    <tag k="layer" v="1"/>
    <tag k="name" v="Salbker Chaussee"/>
    <tag k="ref" v="B71"/>
  </way>
  <way id="8804908" version="10" timestamp="2008-07-03T07:45:48Z" uid="42683" user="riechfield" changeset="375609">
    <nd ref="63309740"/>
    <nd ref="33837678"/>
    <tag k="bridge" v="yes"/>
    <tag k="construction" v="primary"/>
    <tag k="created_by" v="Potlatch 0.9c"/>
    <tag k="highway" v="construction"/>
    <tag k="layer" v="1"/>
    <tag k="name" v="Salbker Chaussee"/>
    <tag k="opening_date" v="31.12.2008"/>
    <tag k="ref" v="B71"/>
  </way>
  <way id="8804908" version="11" timestamp="2008-07-03T07:48:13Z" uid="42683" user="riechfield" changeset="375609">
    <nd ref="63309740"/>
    <nd ref="33837678"/>
    <tag k="bridge" v="yes"/>
    <tag k="construction" v="primary"/>
    <tag k="created_by" v="Potlatch 0.9c"/>
    <tag k="highway" v="construction"/>
    <tag k="layer" v="1"/>
    <tag k="name" v="Salbker Chaussee"/>
    <tag k="opening_date" v="31.12.2008"/>
    <tag k="ref" v="B 71"/>
  </way>
  <way id="8804908" version="12" timestamp="2008-12-14T16:08:22Z" uid="13565" user="hadhuey" changeset="370450">
    <nd ref="63309740"/>
    <nd ref="33837678"/>
    <tag k="bridge" v="yes"/>
    <tag k="created_by" v="Potlatch 0.10f"/>
    <tag k="highway" v="primary"/>
    <tag k="layer" v="1"/>
    <tag k="name" v="Salbker Chaussee"/>
    <tag k="ref" v="B 71"/>
  </way>
  <way id="8804908" version="13" timestamp="2009-01-16T20:37:18Z" uid="13565" user="hadhuey" changeset="795883">
    <nd ref="63309740"/>
    <nd ref="33837678"/>
    <tag k="bridge" v="yes"/>
    <tag k="created_by" v="Potlatch 0.10f"/>
    <tag k="highway" v="primary"/>
    <tag k="layer" v="1"/>
    <tag k="maxspeed" v="50"/>
    <tag k="name" v="Salbker Chaussee"/>
    <tag k="ref" v="B 71"/>
  </way>
  <way id="8804908" version="14" timestamp="2009-09-13T22:18:47Z" uid="90262" user="ClickKlack" changeset="2476416">
    <nd ref="63309740"/>
    <nd ref="33837678"/>
    <tag k="bridge" v="yes"/>
    <tag k="highway" v="primary"/>
    <tag k="layer" v="1"/>
    <tag k="maxspeed" v="50"/>
    <tag k="name" v="Salbker Chaussee"/>
  </way>
  <way id="8804908" version="15" timestamp="2009-09-14T07:45:16Z" uid="42683" user="riechfield" changeset="2478620">
    <nd ref="63309740"/>
    <nd ref="33837678"/>
    <tag k="bridge" v="yes"/>
    <tag k="highway" v="primary"/>
    <tag k="layer" v="1"/>
    <tag k="maxspeed" v="50"/>
    <tag k="name" v="Salbker Chaussee"/>
    <tag k="ref" v="L 50"/>
  </way>
  <way id="8804908" version="16" timestamp="2009-09-22T10:14:42Z" uid="42683" user="riechfield" changeset="2567926">
    <nd ref="63309740"/>
    <nd ref="33837678"/>
    <tag k="bridge" v="yes"/>
    <tag k="highway" v="secondary"/>
    <tag k="layer" v="1"/>
    <tag k="maxspeed" v="50"/>
    <tag k="name" v="Salbker Chaussee"/>
    <tag k="ref" v="L 50"/>
  </way>
  <way id="8804908" version="17" timestamp="2012-01-08T16:03:20Z" uid="13565" user="hadhuey" changeset="10333088"/>
</osm>
