<?xml version='1.0' encoding='UTF-8'?>
<osm version="0.6" generator="libosmium/2.20.0">
  <way id="88193523" version="2" timestamp="2011-06-11T13:35:33Z" uid="66036" user="h4v" changeset="8406012">
    <nd ref="1024748812"/>
    <nd ref="1024748933"/>
    <nd ref="1024748928"/>
    <nd ref="1024748886"/>
    <nd ref="1024748783"/>
    <nd ref="1024748828"/>
    <nd ref="1024748812"/>
    <tag k="addr:housenumber" v="245"/>
    <tag k="building" v="yes"/>
    <tag k="heritage" v="2"/>
    <tag k="heritage:operator" v="nid"/>
    <tag k="historic" v="heritage"/>
    <tag k="name" v="Dawna zajezdnia Dąbrowskiego"/>
    <tag k="ref:nid" v="A/88"/>
  </way>
  <way id="88193549" version="2" timestamp="2011-04-08T12:06:02Z" uid="66036" user="h4v" changeset="7803500">
    <nd ref="1024748914"/>
    <nd ref="1024748836"/>
    <nd ref="1024748915"/>
    <nd ref="1024748825"/>
    <nd ref="1024748914"/>
    <tag k="building" v="yes"/>
  </way>
  <way id="88193559" version="4" timestamp="2011-04-08T12:06:02Z" uid="66036" user="h4v" changeset="7803500">
    <nd ref="1024748832"/>
    <nd ref="1024748908"/>
    <nd ref="1024748794"/>
    <nd ref="1024748855"/>
    <nd ref="1213474246"/>
    <nd ref="1213474081"/>
    <tag k="highway" v="tertiary"/>
    <tag k="level" v="0"/>
    <tag k="name" v="Kilińskiego"/>
    <tag k="oneway" v="yes"/>
    <tag k="source" v="bing"/>
  </way>
  <way id="88193559" version="5" timestamp="2011-06-07T09:08:45Z" uid="66036" user="h4v" changeset="8368162">
    <nd ref="1024748832"/>
    <nd ref="1024748908"/>
    <nd ref="1024748794"/>
    <nd ref="1024748855"/>
    <nd ref="1213474246"/>
    <nd ref="1213474081"/>
    <tag k="highway" v="tertiary"/>
    <tag k="name" v="Jana Kilińskiego"/>
    <tag k="oneway" v="yes"/>
    <tag k="source" v="bing"/>
  </way>
  <way id="88193570" version="2" timestamp="2011-03-14T13:21:13Z" uid="66036" user="h4v" changeset="7556234">
    <nd ref="1024748889"/>
    <nd ref="1024748779"/>
    <nd ref="1024748806"/>
    <nd ref="1024748887"/>
    <nd ref="1024748786"/>
    <nd ref="1024748763"/>
    <nd ref="1024748910"/>
    <nd ref="1024748895"/>
    <nd ref="1024748869"/>
    <nd ref="1024748858"/>
    <nd ref="1024748889"/>
    <tag k="building" v="yes"/>
    <tag k="name" v="Lidl"/>
    <tag k="shop" v="supermarket"/>
  </way>
  <way id="88193570" version="3" timestamp="2012-03-02T14:13:07Z" uid="607553" user="Duke83" changeset="10848727">
    <nd ref="1024748889"/>
    <nd ref="1024748779"/>
    <nd ref="1024748806"/>
    <nd ref="1024748887"/>
    <nd ref="1024748786"/>
    <nd ref="1024748763"/>
    <nd ref="1024748910"/>
    <nd ref="1024748895"/>
    <nd ref="1024748869"/>
    <nd ref="1024748858"/>
    <nd ref="1024748889"/>
    <tag k="addr:housenumber" v="17/21"/>
    <tag k="addr:street" v="Jana Henryka Dąbrowskiego"/>
    <tag k="building" v="yes"/>
    <tag k="building:levels" v="1"/>
    <tag k="name" v="Lidl"/>
    <tag k="shop" v="supermarket"/>
    <tag k="source" v="survey"/>
  </way>
  <way id="88193523" version="3" timestamp="2012-06-25T08:06:15Z" uid="147230" user="SQ9NIT" changeset="12008177">
    <nd ref="1024748812"/>
    <nd ref="1024748933"/>
    <nd ref="1024748928"/>
    <nd ref="1024748886"/>
    <nd ref="1024748783"/>
    <nd ref="1024748828"/>
    <nd ref="1024748812"/>
    <tag k="addr:housenumber" v="245"/>
    <tag k="building" v="yes"/>
    <tag k="heritage" v="2"/>
    <tag k="heritage:operator" v="nid"/>
    <tag k="historic" v="transportation"/>
    <tag k="name" v="Dawna zajezdnia Dąbrowskiego"/>
    <tag k="ref:nid" v="A/88"/>
  </way>
  <way id="88193523" version="4" timestamp="2012-07-24T14:55:54Z" uid="722137" user="OSMF Redaction Account" changeset="12468457">
    <nd ref="1024748812"/>
    <nd ref="1024748933"/>
    <nd ref="1024748928"/>
    <nd ref="1024748886"/>
    <nd ref="1024748783"/>
    <nd ref="1024748828"/>
    <nd ref="1024748812"/>
    <tag k="building" v="yes"/>
    <tag k="historic" v="transportation"/>
  </way>
  <way id="88193559" version="6" timestamp="2012-07-24T14:55:48Z" uid="722137" user="OSMF Redaction Account" changeset="12468457">
    <nd ref="1024748832"/>
    <nd ref="1024748908"/>
    <nd ref="1024748794"/>
    <nd ref="1024748855"/>
    <nd ref="1213474246"/>
    <tag k="highway" v="tertiary"/>
    <tag k="name" v="Kilińskiego"/>
    <tag k="oneway" v="yes"/>
    <tag k="source" v="bing"/>
  </way>
  <way id="88193559" version="7" timestamp="2012-07-26T10:31:32Z" uid="607553" user="Duke83" changeset="12497313">
    <nd ref="1024748832"/>
    <nd ref="1024748908"/>
    <nd ref="1024748794"/>
    <nd ref="1024748855"/>
    <nd ref="1213474246"/>
    <tag k="highway" v="tertiary"/>
    <tag k="name" v="Kilińskiego"/>
    <tag k="oneway" v="yes"/>
    <tag k="source" v="bing"/>
  </way>
  <way id="88193559" version="8" timestamp="2012-07-26T10:33:23Z" uid="607553" user="Duke83" changeset="12497313">
    <nd ref="1024748832"/>
    <nd ref="1024748908"/>
    <nd ref="1024748794"/>
    <nd ref="1024748855"/>
    <tag k="highway" v="tertiary"/>
    <tag k="name" v="Kilińskiego"/>
    <tag k="oneway" v="yes"/>
    <tag k="source" v="bing"/>
  </way>
  <way id="88193570" version="4" timestamp="2012-07-24T14:55:49Z" uid="722137" user="OSMF Redaction Account" changeset="12468457">
    <nd ref="1024748889"/>
    <nd ref="1024748779"/>
    <nd ref="1024748806"/>
    <nd ref="1024748887"/>
    <nd ref="1024748786"/>
    <nd ref="1024748763"/>
    <nd ref="1024748910"/>
    <nd ref="1024748895"/>
    <nd ref="1024748869"/>
    <nd ref="1024748858"/>
    <nd ref="1024748889"/>
    <tag k="addr:housenumber" v="17/21"/>
    <tag k="addr:street" v="Jana Henryka Dąbrowskiego"/>
    <tag k="building" v="yes"/>
    <tag k="building:levels" v="1"/>
    <tag k="name" v="Lidl"/>
    <tag k="source" v="survey"/>
  </way>
  <way id="88193570" version="5" timestamp="2012-08-01T14:47:12Z" uid="607553" user="Duke83" changeset="12575249">
    <nd ref="1024748889"/>
    <nd ref="1024748779"/>
    <nd ref="1024748806"/>
    <nd ref="1024748887"/>
    <nd ref="1024748786"/>
    <nd ref="1024748763"/>
    <nd ref="1024748910"/>
    <nd ref="1024748895"/>
    <nd ref="1024748869"/>
    <nd ref="1024748858"/>
    <nd ref="1024748889"/>
    <tag k="addr:housenumber" v="17/21"/>
    <tag k="addr:street" v="Jana Henryka Dąbrowskiego"/>
    <tag k="building" v="yes"/>
    <tag k="building:levels" v="1"/>
    <tag k="name" v="Lidl"/>
    <tag k="shop" v="supermarket"/>
    <tag k="source" v="survey"/>
  </way>
</osm>
