<?xml version='1.0' encoding='UTF-8'?>
<osm version="0.6" generator="libosmium/2.20.0">
  <way id="88223447" version="2" timestamp="2011-01-05T13:52:35Z" uid="9581" user="Lobelt" changeset="6871859">
    <nd ref="1025041028"/>
    <nd ref="1025041041"/>
    <nd ref="1025041037"/>
    <nd ref="1025041048"/>
    <nd ref="1025041028"/>
    <tag k="addr:city" v="Kahla"/>
    <tag k="addr:housenumber" v="6"/>
    <tag k="addr:postcode" v="07768"/>
    <tag k="addr:street" v="Bachstraße"/>
    <tag k="building" v="yes"/>
  </way>
  <way id="88223447" version="3" timestamp="2012-01-30T10:47:39Z" uid="55011" user="RaZoR88" changeset="10538566"/>
  <way id="88223448" version="2" timestamp="2011-01-05T13:52:44Z" uid="9581" user="Lobelt" changeset="6871859">
    <nd ref="1025041026"/>
    <nd ref="1025041030"/>
    <nd ref="1025041033"/>
    <nd ref="1025041035"/>
    <nd ref="1025041026"/>
    <tag k="addr:city" v="Kahla"/>
    <tag k="addr:housenumber" v="8"/>
    <tag k="addr:postcode" v="07768"/>
    <tag k="addr:street" v="Bachstraße"/>
    <tag k="building" v="yes"/>
  </way>
  <way id="88223448" version="3" timestamp="2012-01-30T10:47:39Z" uid="55011" user="RaZoR88" changeset="10538566"/>
</osm>
