<?xml version='1.0' encoding='UTF-8'?>
<osm version="0.6" generator="libosmium/2.20.0">
  <way id="88303821" version="2" timestamp="2011-04-03T16:49:36Z" uid="4467" user="Rosscoe" changeset="7756305">
    <nd ref="315264047"/>
    <nd ref="1231096404"/>
    <tag k="highway" v="secondary"/>
    <tag k="lanes" v="2"/>
    <tag k="maxspeed" v="50"/>
    <tag k="name" v="The Parade"/>
    <tag k="oneway" v="yes"/>
    <tag k="source" v="yahoo"/>
  </way>
  <way id="88303824" version="2" timestamp="2011-04-04T01:59:51Z" uid="4467" user="Rosscoe" changeset="7760508">
    <nd ref="1025634644"/>
    <nd ref="1025634592"/>
    <tag k="cycleway" v="lane"/>
    <tag k="highway" v="residential"/>
    <tag k="maxspeed" v="50"/>
    <tag k="name" v="King William Street"/>
    <tag k="source" v="survey;Yahoo"/>
    <tag k="source:maxspeed" v="default residential speed limit in Australia"/>
  </way>
  <way id="88303826" version="2" timestamp="2011-04-04T02:16:06Z" uid="4467" user="Rosscoe" changeset="7760538">
    <nd ref="1025634745"/>
    <nd ref="1231772320"/>
    <tag k="highway" v="residential"/>
    <tag k="maxspeed" v="50"/>
    <tag k="name" v="William Street"/>
    <tag k="source" v="nearmap"/>
    <tag k="source:name" v="survey"/>
  </way>
  <way id="88303832" version="2" timestamp="2011-04-03T16:50:45Z" uid="4467" user="Rosscoe" changeset="7756305"/>
  <way id="88303835" version="2" timestamp="2011-04-03T16:49:28Z" uid="4467" user="Rosscoe" changeset="7756305">
    <nd ref="1025634611"/>
    <nd ref="1231096862"/>
    <tag k="cycleway" v="lane"/>
    <tag k="highway" v="residential"/>
    <tag k="maxspeed" v="50"/>
    <tag k="name" v="Beulah Road"/>
    <tag k="source:name" v="survey"/>
  </way>
  <way id="88303838" version="3" timestamp="2011-04-04T02:16:15Z" uid="4467" user="Rosscoe" changeset="7760538">
    <nd ref="1025634627"/>
    <nd ref="100011250"/>
    <tag k="highway" v="residential"/>
    <tag k="maxspeed" v="50"/>
    <tag k="name" v="William Street"/>
    <tag k="source" v="nearmap"/>
    <tag k="source:name" v="survey"/>
  </way>
  <way id="88303843" version="3" timestamp="2011-04-04T02:16:12Z" uid="4467" user="Rosscoe" changeset="7760538">
    <nd ref="1231772318"/>
    <nd ref="1104196109"/>
    <nd ref="1025634627"/>
    <tag k="cycleway" v="lane"/>
    <tag k="highway" v="residential"/>
    <tag k="maxspeed" v="50"/>
    <tag k="name" v="William Street"/>
    <tag k="source" v="nearmap"/>
    <tag k="source:name" v="survey"/>
  </way>
  <way id="88303846" version="2" timestamp="2011-04-04T02:16:05Z" uid="4467" user="Rosscoe" changeset="7760538">
    <nd ref="1025634580"/>
    <nd ref="137563059"/>
    <nd ref="1025634668"/>
    <tag k="cycleway" v="lane"/>
    <tag k="highway" v="residential"/>
    <tag k="maxspeed" v="50"/>
    <tag k="name" v="William Street"/>
    <tag k="source" v="nearmap"/>
    <tag k="source:name" v="survey"/>
  </way>
  <way id="88303849" version="2" timestamp="2011-03-12T10:17:18Z" uid="4467" user="Rosscoe" changeset="7531438">
    <nd ref="1025634810"/>
    <nd ref="56992758"/>
    <tag k="admin_level" v="10"/>
    <tag k="attribution" v="Based on Australian Bureau of Statistics data"/>
    <tag k="boundary" v="administrative"/>
    <tag k="source" v="ABS_2006"/>
  </way>
  <way id="88303853" version="2" timestamp="2011-04-04T02:16:13Z" uid="4467" user="Rosscoe" changeset="7760538">
    <nd ref="1025634600"/>
    <nd ref="1231772339"/>
    <tag k="highway" v="residential"/>
    <tag k="maxspeed" v="50"/>
    <tag k="name" v="William Street"/>
    <tag k="source" v="nearmap"/>
    <tag k="source:name" v="survey"/>
  </way>
  <way id="88303858" version="2" timestamp="2011-04-04T02:16:17Z" uid="4467" user="Rosscoe" changeset="7760538"/>
  <way id="88303864" version="2" timestamp="2011-04-04T02:16:15Z" uid="4467" user="Rosscoe" changeset="7760538">
    <nd ref="1025634762"/>
    <nd ref="1231772309"/>
    <tag k="highway" v="residential"/>
    <tag k="maxspeed" v="50"/>
    <tag k="name" v="Sydenham Road"/>
    <tag k="source:name" v="survey"/>
  </way>
  <way id="88303865" version="2" timestamp="2011-04-03T16:46:02Z" uid="4467" user="Rosscoe" changeset="7756305">
    <nd ref="1025634641"/>
    <nd ref="1231096974"/>
    <nd ref="56277562"/>
    <nd ref="56277563"/>
    <nd ref="1231096821"/>
    <nd ref="314929102"/>
    <nd ref="150553840"/>
    <nd ref="283089989"/>
    <nd ref="150554189"/>
    <nd ref="150553800"/>
    <nd ref="1231097116"/>
    <nd ref="315256503"/>
    <nd ref="150554025"/>
    <nd ref="314928637"/>
    <nd ref="1231096213"/>
    <tag k="highway" v="tertiary"/>
    <tag k="maxspeed" v="60"/>
    <tag k="name" v="The Parade"/>
  </way>
  <way id="88303874" version="3" timestamp="2011-04-04T02:16:14Z" uid="4467" user="Rosscoe" changeset="7760538">
    <nd ref="1025634637"/>
    <nd ref="1104196110"/>
    <nd ref="1025634600"/>
    <tag k="cycleway" v="lane"/>
    <tag k="highway" v="residential"/>
    <tag k="maxspeed" v="50"/>
    <tag k="name" v="William Street"/>
    <tag k="source" v="nearmap"/>
    <tag k="source:name" v="survey"/>
  </way>
  <way id="88303875" version="3" timestamp="2011-04-04T02:16:08Z" uid="4467" user="Rosscoe" changeset="7760538">
    <nd ref="1025634755"/>
    <nd ref="315301658"/>
    <nd ref="1104196107"/>
    <nd ref="1025634745"/>
    <tag k="cycleway" v="lane"/>
    <tag k="highway" v="residential"/>
    <tag k="maxspeed" v="50"/>
    <tag k="name" v="William Street"/>
    <tag k="source" v="nearmap"/>
    <tag k="source:name" v="survey"/>
  </way>
  <way id="88303881" version="2" timestamp="2011-04-03T16:48:16Z" uid="4467" user="Rosscoe" changeset="7756305">
    <nd ref="1025634707"/>
    <nd ref="315303963"/>
    <nd ref="1231096794"/>
    <nd ref="1025634657"/>
    <tag k="cycleway" v="lane"/>
    <tag k="highway" v="residential"/>
    <tag k="maxspeed" v="50"/>
    <tag k="name" v="William Street"/>
    <tag k="source" v="yahoo"/>
    <tag k="source:name" v="survey"/>
  </way>
  <way id="88303881" version="3" timestamp="2011-04-04T02:16:07Z" uid="4467" user="Rosscoe" changeset="7760538">
    <nd ref="1025634707"/>
    <nd ref="315303963"/>
    <nd ref="1231096794"/>
    <nd ref="1025634657"/>
    <tag k="cycleway" v="lane"/>
    <tag k="highway" v="residential"/>
    <tag k="maxspeed" v="50"/>
    <tag k="name" v="William Street"/>
    <tag k="source" v="nearmap"/>
    <tag k="source:name" v="survey"/>
  </way>
  <way id="88303883" version="2" timestamp="2011-04-03T16:49:34Z" uid="4467" user="Rosscoe" changeset="7756305">
    <nd ref="1025634650"/>
    <nd ref="315265102"/>
    <nd ref="315264725"/>
    <nd ref="300833402"/>
    <nd ref="300833400"/>
    <nd ref="1231096404"/>
    <tag k="highway" v="tertiary"/>
    <tag k="is_in" v="Kent Town,South Australia,Australia"/>
    <tag k="maxspeed" v="50"/>
    <tag k="name" v="The Parade West"/>
    <tag k="oneway" v="yes"/>
    <tag k="postal_code" v="5067"/>
  </way>
  <way id="88303893" version="2" timestamp="2011-04-04T02:16:05Z" uid="4467" user="Rosscoe" changeset="7760538">
    <nd ref="1025634608"/>
    <nd ref="253420384"/>
    <tag k="highway" v="residential"/>
    <tag k="maxspeed" v="50"/>
    <tag k="name" v="William Street"/>
    <tag k="source" v="nearmap"/>
    <tag k="source:name" v="survey"/>
  </way>
  <way id="88303896" version="2" timestamp="2011-04-04T02:16:13Z" uid="4467" user="Rosscoe" changeset="7760538">
    <nd ref="1025634668"/>
    <nd ref="253420387"/>
    <tag k="highway" v="residential"/>
    <tag k="maxspeed" v="50"/>
    <tag k="name" v="William Street"/>
    <tag k="source" v="nearmap"/>
    <tag k="source:name" v="survey"/>
  </way>
  <way id="88303904" version="2" timestamp="2011-04-04T02:16:16Z" uid="4467" user="Rosscoe" changeset="7760538">
    <nd ref="1025634683"/>
    <nd ref="1025634722"/>
    <nd ref="1025634608"/>
    <tag k="cycleway" v="lane"/>
    <tag k="highway" v="residential"/>
    <tag k="maxspeed" v="50"/>
    <tag k="name" v="William Street"/>
    <tag k="source" v="nearmap"/>
    <tag k="source:name" v="survey"/>
  </way>
  <way id="88303916" version="2" timestamp="2011-04-04T02:16:11Z" uid="4467" user="Rosscoe" changeset="7760538">
    <nd ref="1025634645"/>
    <nd ref="253420381"/>
    <tag k="highway" v="residential"/>
    <tag k="maxspeed" v="50"/>
    <tag k="name" v="William Street"/>
    <tag k="source" v="nearmap"/>
    <tag k="source_ref:name" v="http://osm.beldin.org/2009/05/DSCF9543.JPG"/>
  </way>
  <way id="88303920" version="2" timestamp="2011-04-03T16:45:31Z" uid="4467" user="Rosscoe" changeset="7756305">
    <nd ref="1025634670"/>
    <nd ref="132386554"/>
    <nd ref="310890249"/>
    <nd ref="132387563"/>
    <nd ref="1231097133"/>
    <nd ref="57221418"/>
    <nd ref="1231096276"/>
    <nd ref="1025634650"/>
    <tag k="cycleway" v="lane"/>
    <tag k="highway" v="tertiary"/>
    <tag k="is_in" v="Kent Town,South Australia,Australia"/>
    <tag k="maxspeed" v="50"/>
    <tag k="name" v="The Parade West"/>
    <tag k="oneway" v="yes"/>
    <tag k="postal_code" v="5067"/>
  </way>
  <way id="88303940" version="2" timestamp="2011-04-03T16:50:49Z" uid="4467" user="Rosscoe" changeset="7756305"/>
  <way id="88303944" version="2" timestamp="2011-04-04T02:16:05Z" uid="4467" user="Rosscoe" changeset="7760538">
    <nd ref="1025634612"/>
    <nd ref="315259674"/>
    <nd ref="1025634645"/>
    <tag k="cycleway" v="lane"/>
    <tag k="highway" v="residential"/>
    <tag k="maxspeed" v="50"/>
    <tag k="name" v="William Street"/>
    <tag k="source" v="nearmap"/>
    <tag k="source_ref:name" v="http://osm.beldin.org/2009/05/DSCF9543.JPG"/>
  </way>
  <way id="88303946" version="2" timestamp="2011-04-04T02:16:14Z" uid="4467" user="Rosscoe" changeset="7760538">
    <nd ref="1025634610"/>
    <nd ref="1025634698"/>
    <nd ref="1231772324"/>
    <tag k="cycleway" v="lane"/>
    <tag k="highway" v="residential"/>
    <tag k="maxspeed" v="50"/>
    <tag k="name" v="William Street"/>
    <tag k="source" v="nearmap"/>
    <tag k="source:name" v="survey"/>
  </way>
  <way id="88303950" version="2" timestamp="2011-04-03T16:45:27Z" uid="4467" user="Rosscoe" changeset="7756305">
    <nd ref="1025634592"/>
    <nd ref="1231097059"/>
    <tag k="highway" v="residential"/>
    <tag k="maxspeed" v="50"/>
    <tag k="maxspeed:source" v="default residential speed limit in Australia"/>
    <tag k="name" v="King William Street"/>
    <tag k="source" v="survey;Yahoo"/>
  </way>
  <way id="88303950" version="3" timestamp="2011-04-04T01:59:16Z" uid="4467" user="Rosscoe" changeset="7760508">
    <nd ref="1025634592"/>
    <nd ref="1231097059"/>
    <tag k="highway" v="residential"/>
    <tag k="maxspeed" v="50"/>
    <tag k="name" v="King William Street"/>
    <tag k="source" v="survey;Yahoo"/>
    <tag k="source:maxspeed" v="default residential speed limit in Australia"/>
  </way>
  <way id="88303969" version="2" timestamp="2011-04-03T16:50:46Z" uid="4467" user="Rosscoe" changeset="7756305"/>
  <way id="88303978" version="3" timestamp="2011-04-03T16:46:28Z" uid="4467" user="Rosscoe" changeset="7756305">
    <nd ref="1231096932"/>
    <nd ref="1104473374"/>
    <nd ref="1104473372"/>
    <nd ref="1104473382"/>
    <nd ref="1025634618"/>
    <tag k="cycleway" v="lane"/>
    <tag k="highway" v="residential"/>
    <tag k="maxspeed" v="50"/>
    <tag k="name" v="George Street"/>
  </way>
  <way id="88303821" version="3" timestamp="2012-07-19T23:00:23Z" uid="722137" user="OSMF Redaction Account" changeset="12351176"/>
  <way id="88303824" version="3" timestamp="2012-07-19T22:53:34Z" uid="722137" user="OSMF Redaction Account" changeset="12351027">
    <nd ref="1025634644"/>
    <nd ref="1025634592"/>
    <tag k="cycleway" v="lane"/>
    <tag k="highway" v="residential"/>
    <tag k="maxspeed" v="50"/>
    <tag k="maxspeed:source" v="default residential speed limit in Australia"/>
    <tag k="name" v="King William Street"/>
    <tag k="source" v="survey;Yahoo"/>
  </way>
  <way id="88303824" version="4" timestamp="2012-08-15T13:07:46Z" uid="801691" user="djwdjw" changeset="12738828">
    <nd ref="1025634644"/>
    <nd ref="1867262291"/>
    <tag k="cycleway" v="lane"/>
    <tag k="highway" v="residential"/>
    <tag k="maxspeed" v="50"/>
    <tag k="maxspeed:source" v="default residential speed limit in Australia"/>
    <tag k="name" v="King William Street"/>
    <tag k="source" v="survey;Yahoo"/>
  </way>
  <way id="88303824" version="5" timestamp="2012-08-25T13:18:07Z" uid="328538" user="o&apos;cholio" changeset="12855226">
    <nd ref="1025634644"/>
    <nd ref="1882134874"/>
    <nd ref="1867262291"/>
    <tag k="cycleway" v="lane"/>
    <tag k="highway" v="residential"/>
    <tag k="maxspeed" v="50"/>
    <tag k="name" v="King William Street"/>
    <tag k="source" v="survey;Yahoo"/>
  </way>
  <way id="88303826" version="3" timestamp="2012-07-19T18:35:29Z" uid="722137" user="OSMF Redaction Account" changeset="12343371"/>
  <way id="88303835" version="3" timestamp="2012-06-06T13:10:44Z" uid="328538" user="o&apos;cholio" changeset="11815679">
    <nd ref="1025634611"/>
    <nd ref="1778031493"/>
    <tag k="cycleway" v="lane"/>
    <tag k="highway" v="residential"/>
    <tag k="maxspeed" v="50"/>
    <tag k="name" v="Beulah Road"/>
    <tag k="source:name" v="survey"/>
  </way>
  <way id="88303835" version="4" timestamp="2012-08-23T13:05:19Z" uid="328538" user="o&apos;cholio" changeset="12832624">
    <nd ref="1879317281"/>
    <nd ref="1025634611"/>
    <nd ref="1778031493"/>
    <tag k="cycleway" v="lane"/>
    <tag k="highway" v="residential"/>
    <tag k="maxspeed" v="50"/>
    <tag k="name" v="Beulah Road"/>
    <tag k="source:name" v="survey"/>
  </way>
  <way id="88303838" version="4" timestamp="2012-07-19T18:33:30Z" uid="722137" user="OSMF Redaction Account" changeset="12343304">
    <nd ref="1025634627"/>
    <nd ref="100011250"/>
    <tag k="highway" v="residential"/>
    <tag k="maxspeed" v="50"/>
    <tag k="name" v="William Street"/>
    <tag k="source" v="yahoo"/>
    <tag k="source:name" v="survey"/>
  </way>
  <way id="88303843" version="4" timestamp="2012-07-19T18:31:38Z" uid="722137" user="OSMF Redaction Account" changeset="12343236">
    <nd ref="1104196109"/>
    <nd ref="1025634627"/>
    <tag k="cycleway" v="lane"/>
    <tag k="highway" v="residential"/>
    <tag k="maxspeed" v="50"/>
    <tag k="name" v="William Street"/>
    <tag k="source" v="yahoo"/>
    <tag k="source:name" v="survey"/>
  </way>
  <way id="88303843" version="5" timestamp="2012-08-04T14:06:17Z" uid="171576" user="Conquest" changeset="12609787">
    <nd ref="1851592222"/>
    <nd ref="1104196109"/>
    <nd ref="1025634627"/>
    <tag k="cycleway" v="lane"/>
    <tag k="highway" v="residential"/>
    <tag k="maxspeed" v="50"/>
    <tag k="name" v="William Street"/>
    <tag k="source" v="yahoo"/>
    <tag k="source:name" v="survey"/>
  </way>
  <way id="88303846" version="3" timestamp="2012-07-19T18:33:31Z" uid="722137" user="OSMF Redaction Account" changeset="12343304">
    <nd ref="1025634580"/>
    <nd ref="137563059"/>
    <nd ref="1025634668"/>
    <tag k="cycleway" v="lane"/>
    <tag k="highway" v="residential"/>
    <tag k="maxspeed" v="50"/>
    <tag k="name" v="William Street"/>
    <tag k="source" v="yahoo"/>
    <tag k="source:name" v="survey"/>
  </way>
  <way id="88303849" version="3" timestamp="2012-07-19T22:53:46Z" uid="722137" user="OSMF Redaction Account" changeset="12351066">
    <nd ref="1025634810"/>
    <nd ref="56992758"/>
    <tag k="admin_level" v="10"/>
    <tag k="attribution" v="Based on Australian Bureau of Statistics data"/>
    <tag k="boundary" v="administrative"/>
    <tag k="source" v="survey"/>
  </way>
  <way id="88303849" version="4" timestamp="2012-09-10T13:08:44Z" uid="67896" user="mrpulley" changeset="13053950"/>
  <way id="88303853" version="3" timestamp="2012-07-19T18:35:30Z" uid="722137" user="OSMF Redaction Account" changeset="12343371"/>
  <way id="88303864" version="3" timestamp="2012-07-19T18:35:30Z" uid="722137" user="OSMF Redaction Account" changeset="12343371"/>
  <way id="88303865" version="3" timestamp="2012-06-06T13:11:32Z" uid="328538" user="o&apos;cholio" changeset="11815679">
    <nd ref="1025634641"/>
    <nd ref="1231096974"/>
    <nd ref="56277562"/>
    <nd ref="56277563"/>
    <nd ref="1231096821"/>
    <nd ref="314929102"/>
    <nd ref="150553840"/>
    <nd ref="283089989"/>
    <nd ref="150554189"/>
    <nd ref="150553800"/>
    <nd ref="1231097116"/>
    <nd ref="315256503"/>
    <nd ref="150554025"/>
    <nd ref="314928637"/>
    <nd ref="1778031538"/>
    <tag k="highway" v="tertiary"/>
    <tag k="maxspeed" v="60"/>
    <tag k="name" v="The Parade"/>
  </way>
  <way id="88303865" version="4" timestamp="2012-07-19T18:31:33Z" uid="722137" user="OSMF Redaction Account" changeset="12343236">
    <nd ref="1025634641"/>
    <nd ref="56277562"/>
    <nd ref="56277563"/>
    <nd ref="314929102"/>
    <nd ref="150553840"/>
    <nd ref="283089989"/>
    <nd ref="150554189"/>
    <nd ref="150553800"/>
    <nd ref="315256503"/>
    <nd ref="150554025"/>
    <nd ref="314928637"/>
    <nd ref="1778031538"/>
    <tag k="highway" v="tertiary"/>
    <tag k="maxspeed" v="60"/>
    <tag k="name" v="The Parade"/>
  </way>
  <way id="88303865" version="5" timestamp="2012-08-04T06:02:48Z" uid="171576" user="Conquest" changeset="12605337">
    <nd ref="1025634641"/>
    <nd ref="56277562"/>
    <nd ref="56277563"/>
    <nd ref="314929102"/>
    <nd ref="150553840"/>
    <nd ref="283089989"/>
    <nd ref="150554189"/>
    <nd ref="150553800"/>
    <nd ref="1851042007"/>
    <nd ref="315256503"/>
    <nd ref="150554025"/>
    <nd ref="314928637"/>
    <nd ref="1778031538"/>
    <tag k="highway" v="tertiary"/>
    <tag k="maxspeed" v="60"/>
    <tag k="name" v="The Parade"/>
  </way>
  <way id="88303874" version="4" timestamp="2012-07-19T18:33:29Z" uid="722137" user="OSMF Redaction Account" changeset="12343304">
    <nd ref="1025634637"/>
    <nd ref="1104196110"/>
    <nd ref="1025634600"/>
    <tag k="cycleway" v="lane"/>
    <tag k="highway" v="residential"/>
    <tag k="maxspeed" v="50"/>
    <tag k="name" v="William Street"/>
    <tag k="source" v="yahoo"/>
    <tag k="source:name" v="survey"/>
  </way>
  <way id="88303875" version="4" timestamp="2012-07-19T22:53:19Z" uid="722137" user="OSMF Redaction Account" changeset="12351027">
    <nd ref="1025634755"/>
    <nd ref="315301658"/>
    <nd ref="1104196107"/>
    <nd ref="1025634745"/>
    <tag k="cycleway" v="lane"/>
    <tag k="highway" v="residential"/>
    <tag k="maxspeed" v="50"/>
    <tag k="name" v="William Street"/>
    <tag k="source" v="yahoo"/>
    <tag k="source:name" v="survey"/>
  </way>
  <way id="88303875" version="5" timestamp="2012-08-04T14:06:17Z" uid="171576" user="Conquest" changeset="12609787">
    <nd ref="1025634755"/>
    <nd ref="315301658"/>
    <nd ref="1104196107"/>
    <nd ref="1851592220"/>
    <tag k="cycleway" v="lane"/>
    <tag k="highway" v="residential"/>
    <tag k="maxspeed" v="50"/>
    <tag k="name" v="William Street"/>
    <tag k="source" v="yahoo"/>
    <tag k="source:name" v="survey"/>
  </way>
  <way id="88303881" version="4" timestamp="2012-06-06T13:11:35Z" uid="328538" user="o&apos;cholio" changeset="11815679">
    <nd ref="1025634707"/>
    <nd ref="315303963"/>
    <nd ref="1778031584"/>
    <nd ref="1025634657"/>
    <tag k="cycleway" v="lane"/>
    <tag k="highway" v="residential"/>
    <tag k="maxspeed" v="50"/>
    <tag k="name" v="William Street"/>
    <tag k="source" v="nearmap"/>
    <tag k="source:name" v="survey"/>
  </way>
  <way id="88303881" version="5" timestamp="2012-07-19T18:33:31Z" uid="722137" user="OSMF Redaction Account" changeset="12343304">
    <nd ref="1025634707"/>
    <nd ref="315303963"/>
    <nd ref="1778031584"/>
    <nd ref="1025634657"/>
    <tag k="cycleway" v="lane"/>
    <tag k="highway" v="residential"/>
    <tag k="maxspeed" v="50"/>
    <tag k="name" v="William Street"/>
    <tag k="source" v="yahoo"/>
    <tag k="source:name" v="survey"/>
  </way>
  <way id="88303881" version="6" timestamp="2012-08-04T13:45:41Z" uid="171576" user="Conquest" changeset="12609608">
    <nd ref="1851546181"/>
    <nd ref="315303963"/>
    <nd ref="1778031584"/>
    <nd ref="1025634657"/>
    <tag k="cycleway" v="lane"/>
    <tag k="highway" v="residential"/>
    <tag k="maxspeed" v="50"/>
    <tag k="name" v="William Street"/>
    <tag k="source" v="yahoo"/>
    <tag k="source:name" v="survey"/>
  </way>
  <way id="88303883" version="3" timestamp="2012-07-19T22:48:34Z" uid="722137" user="OSMF Redaction Account" changeset="12350943">
    <nd ref="1025634650"/>
    <nd ref="315265102"/>
    <nd ref="315264725"/>
    <nd ref="300833402"/>
    <nd ref="300833400"/>
    <tag k="highway" v="tertiary"/>
    <tag k="is_in" v="Kent Town,South Australia,Australia"/>
    <tag k="maxspeed" v="50"/>
    <tag k="name" v="The Parade West"/>
    <tag k="oneway" v="yes"/>
    <tag k="postal_code" v="5067"/>
  </way>
  <way id="88303883" version="4" timestamp="2012-08-04T06:02:53Z" uid="171576" user="Conquest" changeset="12605337"/>
  <way id="88303893" version="3" timestamp="2012-07-19T18:33:31Z" uid="722137" user="OSMF Redaction Account" changeset="12343304">
    <nd ref="1025634608"/>
    <nd ref="253420384"/>
    <tag k="highway" v="residential"/>
    <tag k="maxspeed" v="50"/>
    <tag k="name" v="William Street"/>
    <tag k="source" v="yahoo"/>
    <tag k="source:name" v="survey"/>
  </way>
  <way id="88303893" version="4" timestamp="2012-08-04T13:56:14Z" uid="171576" user="Conquest" changeset="12609608"/>
  <way id="88303896" version="3" timestamp="2012-07-19T18:33:31Z" uid="722137" user="OSMF Redaction Account" changeset="12343304">
    <nd ref="1025634668"/>
    <nd ref="253420387"/>
    <tag k="highway" v="residential"/>
    <tag k="maxspeed" v="50"/>
    <tag k="name" v="William Street"/>
    <tag k="source" v="yahoo"/>
    <tag k="source:name" v="survey"/>
  </way>
  <way id="88303904" version="3" timestamp="2012-07-19T18:33:31Z" uid="722137" user="OSMF Redaction Account" changeset="12343304">
    <nd ref="1025634683"/>
    <nd ref="1025634722"/>
    <nd ref="1025634608"/>
    <tag k="cycleway" v="lane"/>
    <tag k="highway" v="residential"/>
    <tag k="maxspeed" v="50"/>
    <tag k="name" v="William Street"/>
    <tag k="source" v="yahoo"/>
    <tag k="source:name" v="survey"/>
  </way>
  <way id="88303904" version="4" timestamp="2012-08-04T13:56:14Z" uid="171576" user="Conquest" changeset="12609608">
    <nd ref="1851572407"/>
    <nd ref="1025634722"/>
    <nd ref="1851572476"/>
    <tag k="cycleway" v="lane"/>
    <tag k="highway" v="residential"/>
    <tag k="maxspeed" v="50"/>
    <tag k="name" v="William Street"/>
    <tag k="source" v="yahoo"/>
    <tag k="source:name" v="survey"/>
  </way>
  <way id="88303904" version="5" timestamp="2012-08-04T14:06:17Z" uid="171576" user="Conquest" changeset="12609787">
    <nd ref="1851572407"/>
    <nd ref="1025634722"/>
    <nd ref="1851572476"/>
    <tag k="cycleway" v="lane"/>
    <tag k="highway" v="residential"/>
    <tag k="maxspeed" v="50"/>
    <tag k="name" v="William Street"/>
    <tag k="source" v="yahoo"/>
    <tag k="source:name" v="survey"/>
  </way>
  <way id="88303916" version="3" timestamp="2012-07-19T18:33:31Z" uid="722137" user="OSMF Redaction Account" changeset="12343304">
    <nd ref="1025634645"/>
    <nd ref="253420381"/>
    <tag k="highway" v="residential"/>
    <tag k="maxspeed" v="50"/>
    <tag k="name" v="William Street"/>
    <tag k="source" v="yahoo"/>
    <tag k="source_ref:name" v="http://osm.beldin.org/2009/05/DSCF9543.JPG"/>
  </way>
  <way id="88303920" version="3" timestamp="2012-07-19T22:48:33Z" uid="722137" user="OSMF Redaction Account" changeset="12350943">
    <nd ref="1025634670"/>
    <nd ref="132386554"/>
    <nd ref="310890249"/>
    <nd ref="132387563"/>
    <nd ref="57221418"/>
    <nd ref="1025634650"/>
    <tag k="cycleway" v="lane"/>
    <tag k="highway" v="tertiary"/>
    <tag k="is_in" v="Kent Town,South Australia,Australia"/>
    <tag k="maxspeed" v="50"/>
    <tag k="name" v="The Parade West"/>
    <tag k="oneway" v="yes"/>
    <tag k="postal_code" v="5067"/>
  </way>
  <way id="88303920" version="4" timestamp="2012-08-04T06:02:48Z" uid="171576" user="Conquest" changeset="12605337">
    <nd ref="1025634670"/>
    <nd ref="132386554"/>
    <nd ref="310890249"/>
    <nd ref="132387563"/>
    <nd ref="57221418"/>
    <nd ref="1851042011"/>
    <nd ref="315265102"/>
    <nd ref="315264725"/>
    <nd ref="300833400"/>
    <tag k="cycleway" v="lane"/>
    <tag k="highway" v="tertiary"/>
    <tag k="is_in" v="Kent Town,South Australia,Australia"/>
    <tag k="maxspeed" v="50"/>
    <tag k="name" v="The Parade West"/>
    <tag k="oneway" v="yes"/>
    <tag k="postal_code" v="5067"/>
  </way>
  <way id="88303944" version="3" timestamp="2012-07-19T18:33:30Z" uid="722137" user="OSMF Redaction Account" changeset="12343304">
    <nd ref="1025634612"/>
    <nd ref="315259674"/>
    <nd ref="1025634645"/>
    <tag k="cycleway" v="lane"/>
    <tag k="highway" v="residential"/>
    <tag k="maxspeed" v="50"/>
    <tag k="name" v="William Street"/>
    <tag k="source" v="yahoo"/>
    <tag k="source_ref:name" v="http://osm.beldin.org/2009/05/DSCF9543.JPG"/>
  </way>
  <way id="88303946" version="3" timestamp="2012-07-19T18:31:38Z" uid="722137" user="OSMF Redaction Account" changeset="12343236">
    <nd ref="1025634610"/>
    <nd ref="1025634698"/>
    <tag k="cycleway" v="lane"/>
    <tag k="highway" v="residential"/>
    <tag k="maxspeed" v="50"/>
    <tag k="name" v="William Street"/>
    <tag k="source" v="yahoo"/>
    <tag k="source:name" v="survey"/>
  </way>
  <way id="88303946" version="4" timestamp="2012-08-04T14:06:18Z" uid="171576" user="Conquest" changeset="12609787">
    <nd ref="1025634610"/>
    <nd ref="1025634698"/>
    <nd ref="1851592070"/>
    <tag k="cycleway" v="lane"/>
    <tag k="highway" v="residential"/>
    <tag k="maxspeed" v="50"/>
    <tag k="name" v="William Street"/>
    <tag k="source" v="yahoo"/>
    <tag k="source:name" v="survey"/>
  </way>
  <way id="88303950" version="4" timestamp="2012-07-19T23:01:13Z" uid="722137" user="OSMF Redaction Account" changeset="12351200"/>
  <way id="88303978" version="4" timestamp="2012-07-19T18:31:33Z" uid="722137" user="OSMF Redaction Account" changeset="12343236">
    <nd ref="1104473374"/>
    <nd ref="1104473372"/>
    <nd ref="1104473382"/>
    <nd ref="1025634618"/>
    <tag k="cycleway" v="lane"/>
    <tag k="highway" v="residential"/>
    <tag k="maxspeed" v="50"/>
    <tag k="name" v="George Street"/>
  </way>
  <way id="88303978" version="5" timestamp="2012-08-04T13:48:13Z" uid="171576" user="Conquest" changeset="12609608">
    <nd ref="1851553241"/>
    <nd ref="1104473374"/>
    <nd ref="1104473372"/>
    <nd ref="1104473382"/>
    <nd ref="1025634618"/>
    <tag k="cycleway" v="lane"/>
    <tag k="highway" v="residential"/>
    <tag k="maxspeed" v="50"/>
    <tag k="name" v="George Street"/>
  </way>
  <way id="88303978" version="6" timestamp="2012-08-23T13:05:23Z" uid="328538" user="o&apos;cholio" changeset="12832624">
    <nd ref="1851553241"/>
    <nd ref="1104473374"/>
    <nd ref="1104473372"/>
    <nd ref="1104473382"/>
    <nd ref="1025634618"/>
    <nd ref="1879317494"/>
    <tag k="cycleway" v="lane"/>
    <tag k="highway" v="residential"/>
    <tag k="maxspeed" v="50"/>
    <tag k="name" v="George Street"/>
  </way>
</osm>
