<?xml version='1.0' encoding='UTF-8'?>
<osm version="0.6" generator="libosmium/2.20.0">
  <way id="88355826" version="1" timestamp="2010-12-07T11:03:49Z" uid="171838" user="argrath" changeset="6573289">
    <nd ref="675924682"/>
    <nd ref="1026305601"/>
    <nd ref="1026305604"/>
    <nd ref="1026305607"/>
    <nd ref="1026305610"/>
    <nd ref="1026305612"/>
    <nd ref="258765312"/>
    <tag k="highway" v="trunk_link"/>
  </way>
  <way id="88355838" version="1" timestamp="2010-12-07T11:03:52Z" uid="171838" user="argrath" changeset="6573289">
    <nd ref="675925016"/>
    <nd ref="258765325"/>
    <tag k="highway" v="unclassified"/>
    <tag k="source" v="Bing"/>
  </way>
  <way id="88355838" version="2" timestamp="2010-12-07T11:43:18Z" uid="171838" user="argrath" changeset="6573602">
    <nd ref="675925016"/>
    <nd ref="1026348278"/>
    <nd ref="258765325"/>
    <tag k="highway" v="unclassified"/>
    <tag k="source" v="Bing"/>
  </way>
  <way id="88355876" version="1" timestamp="2010-12-07T11:03:58Z" uid="171838" user="argrath" changeset="6573289">
    <nd ref="1026305685"/>
    <nd ref="1026305690"/>
    <nd ref="675924796"/>
    <nd ref="1026305693"/>
    <nd ref="1026305694"/>
    <nd ref="1026305696"/>
    <nd ref="675924838"/>
    <nd ref="1026305698"/>
    <nd ref="1026305700"/>
    <nd ref="1026305701"/>
    <nd ref="675924433"/>
    <nd ref="1026305705"/>
    <nd ref="1026305706"/>
    <nd ref="1026305707"/>
    <nd ref="258765321"/>
    <tag k="highway" v="primary"/>
    <tag k="source" v="Bing"/>
  </way>
  <way id="88355892" version="1" timestamp="2010-12-07T11:04:00Z" uid="171838" user="argrath" changeset="6573289">
    <nd ref="853764063"/>
    <nd ref="1026305720"/>
    <nd ref="1026305721"/>
    <nd ref="1026305722"/>
    <nd ref="1026305723"/>
    <nd ref="1026305725"/>
    <nd ref="1026305690"/>
    <tag k="highway" v="tertiary"/>
  </way>
  <way id="88355904" version="1" timestamp="2010-12-07T11:04:03Z" uid="171838" user="argrath" changeset="6573289">
    <nd ref="1026305733"/>
    <nd ref="1026305738"/>
    <nd ref="1026305739"/>
    <nd ref="1026305740"/>
    <nd ref="1026305733"/>
    <tag k="building" v="yes"/>
    <tag k="source" v="Bing"/>
  </way>
  <way id="88355826" version="2" timestamp="2012-07-12T20:32:03Z" uid="651065" user="gaiazu" changeset="12199637"/>
  <way id="88355838" version="3" timestamp="2012-07-21T05:38:01Z" uid="722137" user="OSMF Redaction Account" changeset="12400854"/>
  <way id="88355876" version="2" timestamp="2012-04-17T22:25:12Z" uid="421504" user="u_kubota" changeset="11338711">
    <nd ref="266728381"/>
    <nd ref="1721212735"/>
    <nd ref="1026305685"/>
    <nd ref="1026305690"/>
    <nd ref="675924796"/>
    <nd ref="1026305693"/>
    <nd ref="1026305694"/>
    <nd ref="1026305696"/>
    <nd ref="675924838"/>
    <nd ref="1026305698"/>
    <nd ref="1026305700"/>
    <nd ref="1026305701"/>
    <nd ref="675924433"/>
    <nd ref="1026305705"/>
    <nd ref="1026305706"/>
    <nd ref="1026305707"/>
    <nd ref="258765321"/>
    <tag k="highway" v="primary"/>
    <tag k="source" v="Bing"/>
  </way>
  <way id="88355876" version="3" timestamp="2012-07-09T05:18:56Z" uid="651065" user="gaiazu" changeset="12157811">
    <nd ref="266728381"/>
    <nd ref="1721212735"/>
    <nd ref="1026305685"/>
    <nd ref="1818510501"/>
    <nd ref="1026305690"/>
    <nd ref="675924796"/>
    <nd ref="1026305693"/>
    <nd ref="1026305694"/>
    <nd ref="1026305696"/>
    <nd ref="675924838"/>
    <nd ref="1026305698"/>
    <nd ref="1026305700"/>
    <nd ref="1026305701"/>
    <nd ref="675924433"/>
    <nd ref="1026305705"/>
    <nd ref="1026305706"/>
    <nd ref="1026305707"/>
    <nd ref="258765321"/>
    <tag k="highway" v="primary"/>
    <tag k="lanes" v="3"/>
    <tag k="name" v="大阪和泉泉南線 (Osaka-Izumi-Sennanse-Line)"/>
    <tag k="ref" v="30"/>
    <tag k="source" v="Bing"/>
    <tag k="surface" v="paved"/>
  </way>
  <way id="88355876" version="4" timestamp="2012-07-09T05:33:33Z" uid="651065" user="gaiazu" changeset="12157811">
    <nd ref="266728381"/>
    <nd ref="1721212735"/>
    <nd ref="1026305685"/>
    <nd ref="1818510501"/>
    <nd ref="1026305690"/>
    <nd ref="675924796"/>
    <nd ref="1026305693"/>
    <nd ref="1026305694"/>
    <nd ref="1026305696"/>
    <nd ref="675924838"/>
    <nd ref="1026305698"/>
    <nd ref="1026305700"/>
    <nd ref="1026305701"/>
    <nd ref="675924433"/>
    <nd ref="1026305705"/>
    <nd ref="1026305706"/>
    <nd ref="1026305707"/>
    <nd ref="258765321"/>
    <nd ref="1818517354"/>
    <nd ref="1818517355"/>
    <nd ref="1818517351"/>
    <nd ref="1818517366"/>
    <nd ref="1818517362"/>
    <nd ref="1818517367"/>
    <nd ref="1818517349"/>
    <nd ref="1818517350"/>
    <nd ref="1818517365"/>
    <nd ref="411669988"/>
    <tag k="highway" v="primary"/>
    <tag k="lanes" v="3"/>
    <tag k="name" v="大阪和泉泉南線 (Osaka-Izumi-Sennanse-Line)"/>
    <tag k="oneway" v="yes"/>
    <tag k="ref" v="30"/>
    <tag k="source" v="Bing"/>
    <tag k="surface" v="paved"/>
  </way>
  <way id="88355876" version="5" timestamp="2012-07-09T05:45:16Z" uid="651065" user="gaiazu" changeset="12157929">
    <nd ref="266728381"/>
    <nd ref="1721212735"/>
    <nd ref="1026305685"/>
    <nd ref="1818510501"/>
    <nd ref="1026305690"/>
    <nd ref="675924796"/>
    <nd ref="1026305693"/>
    <nd ref="1026305694"/>
    <nd ref="1026305696"/>
    <nd ref="675924838"/>
    <nd ref="1026305698"/>
    <nd ref="1026305700"/>
    <nd ref="1026305701"/>
    <nd ref="675924433"/>
    <nd ref="1026305705"/>
    <nd ref="1026305706"/>
    <nd ref="1026305707"/>
    <nd ref="258765321"/>
    <nd ref="1818517354"/>
    <nd ref="1818517355"/>
    <nd ref="1818517351"/>
    <nd ref="1818517366"/>
    <nd ref="1818517362"/>
    <nd ref="1818517367"/>
    <nd ref="1818517349"/>
    <nd ref="1818517350"/>
    <nd ref="1818517365"/>
    <nd ref="411669988"/>
    <tag k="highway" v="primary"/>
    <tag k="lanes" v="3"/>
    <tag k="name" v="大阪和泉泉南線 (Osaka-Izumi-Sennanse-Line)"/>
    <tag k="name:en" v="Osaka-Izumi-Sennanse-Line"/>
    <tag k="name:ja" v="大阪府道30号大阪和泉泉南線"/>
    <tag k="oneway" v="yes"/>
    <tag k="ref" v="30"/>
    <tag k="source" v="Bing 2007"/>
    <tag k="surface" v="paved"/>
  </way>
  <way id="88355876" version="6" timestamp="2012-07-13T22:53:06Z" uid="651065" user="gaiazu" changeset="12212214">
    <nd ref="266728381"/>
    <nd ref="1721212735"/>
    <nd ref="1026305685"/>
    <nd ref="1818510501"/>
    <nd ref="1026305690"/>
    <nd ref="675924796"/>
    <nd ref="1026305693"/>
    <nd ref="1026305694"/>
    <nd ref="1026305696"/>
    <nd ref="675924838"/>
    <nd ref="1026305698"/>
    <nd ref="1026305700"/>
    <nd ref="1026305701"/>
    <nd ref="675924433"/>
    <nd ref="1026305705"/>
    <nd ref="1026305706"/>
    <nd ref="1026305707"/>
    <nd ref="258765321"/>
    <tag k="highway" v="primary"/>
    <tag k="lanes" v="3"/>
    <tag k="name" v="大阪和泉泉南線 (Osaka-Izumi-Sennanse-Line)"/>
    <tag k="name:en" v="Osaka-Izumi-Sennanse-Line"/>
    <tag k="name:ja" v="大阪府道30号大阪和泉泉南線"/>
    <tag k="oneway" v="yes"/>
    <tag k="ref" v="30"/>
    <tag k="source" v="Bing 2007"/>
    <tag k="surface" v="paved"/>
  </way>
  <way id="88355876" version="7" timestamp="2012-07-13T23:03:58Z" uid="651065" user="gaiazu" changeset="12212214">
    <nd ref="266728381"/>
    <nd ref="1721212735"/>
    <nd ref="1026305685"/>
    <nd ref="1818510501"/>
    <nd ref="1026305690"/>
    <tag k="highway" v="primary"/>
    <tag k="lanes" v="3"/>
    <tag k="name" v="大阪和泉泉南線 (Osaka-Izumi-Sennanse-Line)"/>
    <tag k="name:en" v="Osaka-Izumi-Sennanse-Line"/>
    <tag k="name:ja" v="大阪府道30号大阪和泉泉南線"/>
    <tag k="oneway" v="yes"/>
    <tag k="ref" v="30"/>
    <tag k="source" v="Bing 2007"/>
    <tag k="surface" v="paved"/>
  </way>
  <way id="88355876" version="8" timestamp="2012-07-13T23:19:01Z" uid="651065" user="gaiazu" changeset="12212214">
    <nd ref="266728381"/>
    <nd ref="1721212735"/>
    <nd ref="1026305685"/>
    <tag k="highway" v="primary"/>
    <tag k="lanes" v="3"/>
    <tag k="name" v="大阪和泉泉南線 (Osaka-Izumi-Sennanse-Line)"/>
    <tag k="name:en" v="Osaka-Izumi-Sennanse-Line"/>
    <tag k="name:ja" v="大阪府道30号大阪和泉泉南線"/>
    <tag k="oneway" v="yes"/>
    <tag k="ref" v="30"/>
    <tag k="source" v="Bing 2007"/>
    <tag k="surface" v="paved"/>
  </way>
  <way id="88355876" version="9" timestamp="2012-07-21T05:36:22Z" uid="722137" user="OSMF Redaction Account" changeset="12400822">
    <nd ref="266728381"/>
    <nd ref="1721212735"/>
    <tag k="lanes" v="3"/>
    <tag k="name" v="大阪和泉泉南線 (Osaka-Izumi-Sennanse-Line)"/>
    <tag k="name:en" v="Osaka-Izumi-Sennanse-Line"/>
    <tag k="name:ja" v="大阪府道30号大阪和泉泉南線"/>
    <tag k="oneway" v="yes"/>
    <tag k="ref" v="30"/>
    <tag k="source" v="Bing 2007"/>
    <tag k="surface" v="paved"/>
  </way>
  <way id="88355892" version="2" timestamp="2012-07-20T09:08:46Z" uid="212111" user="okilimu" changeset="12369526">
    <nd ref="1831852770"/>
    <nd ref="1026305720"/>
    <nd ref="1026305721"/>
    <nd ref="1026305722"/>
    <nd ref="1026305723"/>
    <nd ref="1026305725"/>
    <nd ref="1026305690"/>
    <tag k="highway" v="tertiary"/>
  </way>
  <way id="88355892" version="3" timestamp="2012-07-21T05:37:57Z" uid="722137" user="OSMF Redaction Account" changeset="12400854"/>
  <way id="88355904" version="2" timestamp="2012-07-21T05:37:59Z" uid="722137" user="OSMF Redaction Account" changeset="12400854"/>
</osm>
