<?xml version='1.0' encoding='UTF-8'?>
<osm version="0.6" generator="libosmium/2.20.0">
  <way id="88816176" version="1" timestamp="2010-12-10T12:30:10Z" uid="49111" user="Markus B" changeset="6604701">
    <nd ref="1030662399"/>
    <nd ref="1030662398"/>
    <nd ref="1030662404"/>
    <nd ref="1030662401"/>
    <nd ref="1030662399"/>
    <tag k="building" v="yes"/>
  </way>
  <way id="88816177" version="1" timestamp="2010-12-10T12:30:10Z" uid="49111" user="Markus B" changeset="6604701">
    <nd ref="1030662397"/>
    <nd ref="1030662396"/>
    <tag k="highway" v="service"/>
  </way>
  <way id="88816177" version="2" timestamp="2010-12-10T12:31:28Z" uid="49111" user="Markus B" changeset="6604710">
    <nd ref="1030662397"/>
    <nd ref="1030663099"/>
    <nd ref="1030662396"/>
    <tag k="highway" v="service"/>
    <tag k="note" v="FIXME"/>
  </way>
  <way id="88816178" version="1" timestamp="2010-12-10T12:30:10Z" uid="49111" user="Markus B" changeset="6604701">
    <nd ref="1030662403"/>
    <nd ref="1030662400"/>
    <nd ref="1030662395"/>
    <nd ref="1030662402"/>
    <nd ref="1030662403"/>
    <tag k="addr:city" v="Simmelsdorf-Unterachtel"/>
    <tag k="addr:country" v="DE"/>
    <tag k="addr:housenumber" v="40"/>
    <tag k="addr:postcode" v="91245"/>
    <tag k="addr:street" v="AchtelstraÃŸe"/>
    <tag k="building" v="yes"/>
    <tag k="name" v="Seniorenheim Haus Aktivitas"/>
    <tag k="phone" v="+49 9155 817"/>
    <tag k="website" v="http://haus-aktivitas.de/"/>
  </way>
  <way id="88816179" version="1" timestamp="2010-12-10T12:30:10Z" uid="49111" user="Markus B" changeset="6604701">
    <nd ref="286797690"/>
    <nd ref="276813255"/>
    <nd ref="309792838"/>
    <nd ref="309792841"/>
    <nd ref="309792836"/>
    <nd ref="309792853"/>
    <nd ref="389036778"/>
    <nd ref="389036779"/>
    <nd ref="276813256"/>
    <nd ref="286797584"/>
    <nd ref="286797586"/>
    <nd ref="309792851"/>
    <nd ref="309792848"/>
    <nd ref="276814040"/>
    <tag k="boat" v="no"/>
    <tag k="name" v="Schnaittach"/>
    <tag k="note" v="checkit"/>
    <tag k="waterway" v="river"/>
    <tag k="width" v="2"/>
  </way>
  <way id="88816179" version="2" timestamp="2010-12-30T23:51:21Z" uid="49111" user="Markus B" changeset="6815421">
    <nd ref="286797690"/>
    <nd ref="276813255"/>
    <nd ref="309792838"/>
    <nd ref="309792841"/>
    <nd ref="1074161887"/>
    <nd ref="309792836"/>
    <nd ref="309792853"/>
    <nd ref="389036778"/>
    <nd ref="389036779"/>
    <nd ref="276813256"/>
    <nd ref="286797584"/>
    <nd ref="286797586"/>
    <nd ref="309792851"/>
    <nd ref="309792848"/>
    <nd ref="276814040"/>
    <tag k="boat" v="no"/>
    <tag k="name" v="Schnaittach"/>
    <tag k="note" v="checkit"/>
    <tag k="waterway" v="river"/>
    <tag k="width" v="2"/>
  </way>
  <way id="88816179" version="3" timestamp="2011-09-23T20:54:04Z" uid="479256" user="geodreieck4711" changeset="9380004">
    <nd ref="286797690"/>
    <nd ref="276813255"/>
    <nd ref="309792838"/>
    <nd ref="309792841"/>
    <nd ref="1074161887"/>
    <nd ref="309792836"/>
    <nd ref="309792853"/>
    <nd ref="389036778"/>
    <nd ref="389036779"/>
    <tag k="boat" v="no"/>
    <tag k="name" v="Schnaittach"/>
    <tag k="note" v="checkit"/>
    <tag k="waterway" v="river"/>
    <tag k="width" v="2"/>
  </way>
  <way id="88816973" version="2" timestamp="2011-03-06T18:27:41Z" uid="9581" user="Lobelt" changeset="7476738">
    <nd ref="1030668035"/>
    <nd ref="1030668282"/>
    <nd ref="1030668297"/>
    <nd ref="1030668055"/>
    <nd ref="1030668043"/>
    <nd ref="1030668047"/>
    <nd ref="1030668122"/>
    <nd ref="1030668294"/>
    <nd ref="1030668300"/>
    <nd ref="1030668355"/>
    <tag k="highway" v="track"/>
  </way>
</osm>
