<?xml version='1.0' encoding='UTF-8'?>
<osm version="0.6" generator="libosmium/2.20.0">
  <way id="8882016" version="2" timestamp="2008-09-16T10:14:38Z" uid="1066" user="pavel" changeset="646258">
    <nd ref="33432600"/>
    <nd ref="64809852"/>
    <nd ref="64809855"/>
    <tag k="created_by" v="Potlatch alpha"/>
    <tag k="highway" v="residential"/>
    <tag k="name" v="Na Pankráci"/>
    <tag k="name:source" v="nameit/uir-adr"/>
  </way>
  <way id="8882016" version="3" timestamp="2009-03-12T12:35:07Z" uid="3516" user="BiIbo" changeset="792772">
    <nd ref="33432600"/>
    <nd ref="64809852"/>
    <nd ref="64809855"/>
    <tag k="highway" v="residential"/>
    <tag k="name" v="Na Pankráci"/>
    <tag k="source:name" v="nameit/uir-adr"/>
  </way>
  <way id="8882016" version="4" timestamp="2010-02-02T22:03:25Z" uid="5547" user="voda" changeset="3779533">
    <nd ref="33432600"/>
    <nd ref="64809852"/>
    <nd ref="627015477"/>
    <nd ref="64809855"/>
    <tag k="highway" v="residential"/>
    <tag k="name" v="Na Pankráci"/>
    <tag k="source:name" v="nameit/uir-adr"/>
  </way>
  <way id="8882016" version="5" timestamp="2011-12-03T18:51:39Z" uid="507276" user="FuckOSMFandODbL" changeset="10027316">
    <nd ref="33432600"/>
    <nd ref="1529912002"/>
    <nd ref="64809852"/>
    <nd ref="627015477"/>
    <nd ref="64809855"/>
    <tag k="highway" v="residential"/>
    <tag k="name" v="Na Pankráci"/>
    <tag k="source:name" v="nameit/uir-adr"/>
  </way>
  <way id="8882018" version="5" timestamp="2008-09-16T10:14:24Z" uid="1066" user="pavel" changeset="646258">
    <nd ref="30929597"/>
    <nd ref="277086822"/>
    <nd ref="30929598"/>
    <nd ref="266942418"/>
    <nd ref="30929546"/>
    <tag k="created_by" v="Potlatch 0.9c"/>
    <tag k="highway" v="residential"/>
    <tag k="name" v="Dačického"/>
    <tag k="name:source" v="nameit/uir-adr"/>
  </way>
  <way id="8882018" version="6" timestamp="2008-10-26T04:21:52Z" uid="3516" user="BiIbo" changeset="582911">
    <nd ref="30929597"/>
    <nd ref="277086822"/>
    <nd ref="30929598"/>
    <nd ref="266942418"/>
    <nd ref="30929546"/>
    <tag k="created_by" v="Potlatch 0.9c"/>
    <tag k="highway" v="residential"/>
    <tag k="name" v="Dačického"/>
    <tag k="source:name" v="nameit/uir-adr"/>
  </way>
  <way id="8882018" version="7" timestamp="2011-12-18T11:52:07Z" uid="527259" user="Vratislav Filler" changeset="10145694">
    <nd ref="30929597"/>
    <nd ref="1551811100"/>
    <nd ref="277086822"/>
    <nd ref="30929598"/>
    <nd ref="266942418"/>
    <nd ref="30929546"/>
    <tag k="highway" v="residential"/>
    <tag k="name" v="Dačického"/>
    <tag k="source:name" v="nameit/uir-adr"/>
  </way>
  <way id="8882021" version="3" timestamp="2008-09-16T10:14:06Z" uid="1066" user="pavel" changeset="646258">
    <nd ref="64809852"/>
    <nd ref="64809898"/>
    <nd ref="64809901"/>
    <tag k="highway" v="residential"/>
    <tag k="name" v="Hradeckých"/>
    <tag k="name:source" v="nameit/uir-adr"/>
  </way>
  <way id="8882021" version="4" timestamp="2009-03-12T12:35:07Z" uid="3516" user="BiIbo" changeset="792772">
    <nd ref="64809852"/>
    <nd ref="64809898"/>
    <nd ref="64809901"/>
    <tag k="highway" v="residential"/>
    <tag k="name" v="Hradeckých"/>
    <tag k="source:name" v="nameit/uir-adr"/>
  </way>
  <way id="8882021" version="5" timestamp="2010-02-04T12:29:48Z" uid="5547" user="voda" changeset="3789926">
    <nd ref="64809852"/>
    <nd ref="64809898"/>
    <nd ref="64809901"/>
    <nd ref="628825557"/>
    <nd ref="628825556"/>
    <tag k="highway" v="residential"/>
    <tag k="name" v="Hradeckých"/>
    <tag k="source:name" v="nameit/uir-adr"/>
  </way>
  <way id="8882021" version="6" timestamp="2011-12-18T11:52:09Z" uid="527259" user="Vratislav Filler" changeset="10145694">
    <nd ref="64809852"/>
    <nd ref="1551811151"/>
    <nd ref="64809898"/>
    <nd ref="64809901"/>
    <nd ref="628825557"/>
    <nd ref="628825556"/>
    <tag k="highway" v="residential"/>
    <tag k="name" v="Hradeckých"/>
    <tag k="source:name" v="nameit/uir-adr"/>
  </way>
  <way id="8882023" version="7" timestamp="2008-09-16T10:14:11Z" uid="1066" user="pavel" changeset="646258">
    <nd ref="704118"/>
    <nd ref="245799583"/>
    <nd ref="64809906"/>
    <nd ref="273505896"/>
    <nd ref="64809907"/>
    <nd ref="64809909"/>
    <nd ref="64809912"/>
    <nd ref="64809914"/>
    <tag k="created_by" v="Potlatch 0.9c"/>
    <tag k="highway" v="residential"/>
    <tag k="history" v="Retrieved from v3"/>
    <tag k="name" v="nám. Hrdinů"/>
    <tag k="name:source" v="nameit/uir-adr"/>
  </way>
  <way id="8882023" version="8" timestamp="2009-02-26T06:51:52Z" uid="17615" user="Petr Dlouhý" changeset="675815">
    <nd ref="704118"/>
    <nd ref="245799583"/>
    <nd ref="64809906"/>
    <nd ref="273505896"/>
    <nd ref="64809907"/>
    <nd ref="64809909"/>
    <nd ref="64809912"/>
    <nd ref="64809914"/>
    <tag k="created_by" v="Potlatch 0.9c"/>
    <tag k="highway" v="residential"/>
    <tag k="history" v="Retrieved from v3"/>
    <tag k="name" v="náměstí Hrdinů"/>
    <tag k="name:source" v="nameit/uir-adr"/>
  </way>
  <way id="8882023" version="9" timestamp="2009-03-12T12:35:06Z" uid="3516" user="BiIbo" changeset="792772">
    <nd ref="704118"/>
    <nd ref="245799583"/>
    <nd ref="64809906"/>
    <nd ref="273505896"/>
    <nd ref="64809907"/>
    <nd ref="64809909"/>
    <nd ref="64809912"/>
    <nd ref="64809914"/>
    <tag k="highway" v="residential"/>
    <tag k="history" v="Retrieved from v3"/>
    <tag k="name" v="náměstí Hrdinů"/>
    <tag k="source:name" v="nameit/uir-adr"/>
  </way>
  <way id="8882023" version="10" timestamp="2011-02-28T20:04:22Z" uid="25867" user="adamos" changeset="7423867">
    <nd ref="704118"/>
    <nd ref="245799583"/>
    <nd ref="64809906"/>
    <nd ref="1179460791"/>
    <nd ref="273505896"/>
    <nd ref="64809907"/>
    <nd ref="64809909"/>
    <nd ref="1179460905"/>
    <nd ref="64809912"/>
    <nd ref="64809914"/>
    <tag k="highway" v="residential"/>
    <tag k="history" v="Retrieved from v3"/>
    <tag k="name" v="náměstí Hrdinů"/>
    <tag k="oneway" v="yes"/>
    <tag k="source:name" v="nameit/uir-adr"/>
  </way>
  <way id="8882023" version="11" timestamp="2011-09-30T17:30:04Z" uid="527259" user="Vratislav Filler" changeset="9437117">
    <nd ref="704118"/>
    <nd ref="245799583"/>
    <nd ref="64809906"/>
    <nd ref="1179460791"/>
    <nd ref="273505896"/>
    <tag k="highway" v="tertiary"/>
    <tag k="history" v="Retrieved from v3"/>
    <tag k="name" v="náměstí Hrdinů"/>
    <tag k="oneway" v="yes"/>
    <tag k="source:name" v="nameit/uir-adr"/>
  </way>
  <way id="8882023" version="12" timestamp="2011-10-01T18:20:35Z" uid="527259" user="Vratislav Filler" changeset="9444695">
    <nd ref="704118"/>
    <nd ref="245799583"/>
    <nd ref="64809906"/>
    <nd ref="1179460791"/>
    <nd ref="273505896"/>
    <tag k="highway" v="secondary"/>
    <tag k="history" v="Retrieved from v3"/>
    <tag k="name" v="náměstí Hrdinů"/>
    <tag k="oneway" v="yes"/>
    <tag k="source:name" v="nameit/uir-adr"/>
  </way>
  <way id="8882023" version="13" timestamp="2011-12-07T15:59:14Z" uid="527259" user="Vratislav Filler" changeset="10058665">
    <nd ref="704118"/>
    <nd ref="245799583"/>
    <nd ref="64809906"/>
    <nd ref="1179460791"/>
    <nd ref="1535368354"/>
    <nd ref="273505896"/>
    <tag k="highway" v="secondary"/>
    <tag k="history" v="Retrieved from v3"/>
    <tag k="name" v="náměstí Hrdinů"/>
    <tag k="oneway" v="yes"/>
    <tag k="source:name" v="nameit/uir-adr"/>
  </way>
  <way id="8882023" version="14" timestamp="2011-12-08T20:58:08Z" uid="507276" user="FuckOSMFandODbL" changeset="10068689">
    <nd ref="704118"/>
    <nd ref="245799583"/>
    <nd ref="64809906"/>
    <tag k="highway" v="secondary"/>
    <tag k="history" v="Retrieved from v3"/>
    <tag k="name" v="náměstí Hrdinů"/>
    <tag k="oneway" v="yes"/>
    <tag k="source:name" v="nameit/uir-adr"/>
  </way>
  <way id="8882024" version="14" timestamp="2008-09-16T10:13:39Z" uid="1066" user="pavel" changeset="646258">
    <nd ref="273505481"/>
    <nd ref="64809925"/>
    <nd ref="64809923"/>
    <nd ref="64809920"/>
    <nd ref="64809919"/>
    <nd ref="273519087"/>
    <nd ref="64809916"/>
    <nd ref="64809902"/>
    <nd ref="245799584"/>
    <nd ref="273505570"/>
    <tag k="created_by" v="Potlatch 0.9c"/>
    <tag k="highway" v="residential"/>
    <tag k="history" v="Retrieved from v3"/>
    <tag k="name" v="nám. Hrdinů"/>
    <tag k="name:source" v="nameit/uir-adr"/>
  </way>
  <way id="8882024" version="15" timestamp="2009-02-26T06:51:52Z" uid="17615" user="Petr Dlouhý" changeset="675815">
    <nd ref="273505481"/>
    <nd ref="64809925"/>
    <nd ref="64809923"/>
    <nd ref="64809920"/>
    <nd ref="64809919"/>
    <nd ref="273519087"/>
    <nd ref="64809916"/>
    <nd ref="64809902"/>
    <nd ref="245799584"/>
    <nd ref="273505570"/>
    <tag k="created_by" v="Potlatch 0.9c"/>
    <tag k="highway" v="residential"/>
    <tag k="history" v="Retrieved from v3"/>
    <tag k="name" v="náměstí Hrdinů"/>
    <tag k="name:source" v="nameit/uir-adr"/>
  </way>
  <way id="8882024" version="16" timestamp="2009-03-12T12:35:06Z" uid="3516" user="BiIbo" changeset="792772">
    <nd ref="273505481"/>
    <nd ref="64809925"/>
    <nd ref="64809923"/>
    <nd ref="64809920"/>
    <nd ref="64809919"/>
    <nd ref="273519087"/>
    <nd ref="273497692"/>
    <nd ref="64809902"/>
    <nd ref="245799584"/>
    <nd ref="273505570"/>
    <tag k="highway" v="residential"/>
    <tag k="history" v="Retrieved from v3"/>
    <tag k="name" v="náměstí Hrdinů"/>
    <tag k="source:name" v="nameit/uir-adr"/>
  </way>
  <way id="8882024" version="17" timestamp="2011-02-28T20:04:22Z" uid="25867" user="adamos" changeset="7423867">
    <nd ref="273505481"/>
    <nd ref="64809925"/>
    <nd ref="64809923"/>
    <nd ref="64809920"/>
    <nd ref="64809919"/>
    <nd ref="273519087"/>
    <nd ref="273497692"/>
    <nd ref="64809902"/>
    <nd ref="245799584"/>
    <nd ref="273505570"/>
    <tag k="highway" v="residential"/>
    <tag k="history" v="Retrieved from v3"/>
    <tag k="name" v="náměstí Hrdinů"/>
    <tag k="oneway" v="yes"/>
    <tag k="source:name" v="nameit/uir-adr"/>
  </way>
  <way id="8882024" version="18" timestamp="2011-09-30T17:30:04Z" uid="527259" user="Vratislav Filler" changeset="9437117">
    <nd ref="273505481"/>
    <nd ref="64809925"/>
    <nd ref="64809923"/>
    <nd ref="64809920"/>
    <nd ref="64809919"/>
    <nd ref="273519087"/>
    <nd ref="273497692"/>
    <nd ref="64809902"/>
    <nd ref="245799584"/>
    <nd ref="273505570"/>
    <tag k="highway" v="trunk_link"/>
    <tag k="history" v="Retrieved from v3"/>
    <tag k="name" v="náměstí Hrdinů"/>
    <tag k="oneway" v="yes"/>
    <tag k="source:name" v="nameit/uir-adr"/>
  </way>
  <way id="8882024" version="19" timestamp="2012-01-11T14:43:04Z" uid="10345" user="Mormegil" changeset="10361111">
    <nd ref="273505481"/>
    <nd ref="64809925"/>
    <nd ref="64809923"/>
    <nd ref="64809920"/>
    <nd ref="64809919"/>
    <nd ref="273519087"/>
    <nd ref="273497692"/>
    <nd ref="64809902"/>
    <tag k="highway" v="trunk_link"/>
    <tag k="history" v="Retrieved from v3"/>
    <tag k="name" v="náměstí Hrdinů"/>
    <tag k="oneway" v="yes"/>
    <tag k="source:name" v="nameit/uir-adr"/>
  </way>
  <way id="8882027" version="5" timestamp="2008-09-16T10:11:01Z" uid="1066" user="pavel" changeset="646258">
    <nd ref="722833"/>
    <nd ref="722834"/>
    <nd ref="64810006"/>
    <nd ref="64810008"/>
    <nd ref="723515"/>
    <nd ref="245798522"/>
    <nd ref="723514"/>
    <nd ref="245798531"/>
    <nd ref="723513"/>
    <nd ref="64810009"/>
    <nd ref="723511"/>
    <nd ref="245798532"/>
    <nd ref="64810011"/>
    <nd ref="245802257"/>
    <nd ref="245802256"/>
    <nd ref="723510"/>
    <tag k="created_by" v="Potlatch alpha"/>
    <tag k="highway" v="residential"/>
    <tag k="name" v="Pod Klaudiánkou"/>
    <tag k="name:source" v="nameit/uir-adr"/>
  </way>
  <way id="8882027" version="6" timestamp="2008-10-26T04:21:44Z" uid="3516" user="BiIbo" changeset="582911">
    <nd ref="722833"/>
    <nd ref="722834"/>
    <nd ref="64810006"/>
    <nd ref="64810008"/>
    <nd ref="723515"/>
    <nd ref="245798522"/>
    <nd ref="723514"/>
    <nd ref="245798531"/>
    <nd ref="723513"/>
    <nd ref="64810009"/>
    <nd ref="723511"/>
    <nd ref="245798532"/>
    <nd ref="64810011"/>
    <nd ref="245802257"/>
    <nd ref="245802256"/>
    <nd ref="723510"/>
    <tag k="created_by" v="Potlatch alpha"/>
    <tag k="highway" v="residential"/>
    <tag k="name" v="Pod Klaudiánkou"/>
    <tag k="source:name" v="nameit/uir-adr"/>
  </way>
  <way id="8882027" version="7" timestamp="2010-02-08T20:54:41Z" uid="17615" user="Petr Dlouhý" changeset="3826962">
    <nd ref="722833"/>
    <nd ref="722834"/>
    <nd ref="633613697"/>
    <nd ref="64810006"/>
    <nd ref="64810008"/>
    <nd ref="723515"/>
    <nd ref="245798522"/>
    <nd ref="723514"/>
    <nd ref="245798531"/>
    <nd ref="723513"/>
    <nd ref="64810009"/>
    <nd ref="723511"/>
    <nd ref="245798532"/>
    <nd ref="64810011"/>
    <nd ref="245802257"/>
    <nd ref="245802256"/>
    <nd ref="723510"/>
    <tag k="highway" v="residential"/>
    <tag k="name" v="Pod Klaudiánkou"/>
    <tag k="source:name" v="nameit/uir-adr"/>
  </way>
  <way id="8882027" version="8" timestamp="2011-02-21T22:50:27Z" uid="3516" user="BiIbo" changeset="7357800">
    <nd ref="722833"/>
    <nd ref="722834"/>
    <nd ref="633613697"/>
    <nd ref="64810006"/>
    <nd ref="64810008"/>
    <nd ref="723515"/>
    <nd ref="245798522"/>
    <nd ref="723514"/>
    <nd ref="245798531"/>
    <nd ref="723513"/>
    <nd ref="1165911177"/>
    <nd ref="64810009"/>
    <nd ref="1165911181"/>
    <nd ref="723511"/>
    <nd ref="245798532"/>
    <nd ref="64810011"/>
    <nd ref="245802257"/>
    <nd ref="245802256"/>
    <nd ref="723510"/>
    <tag k="highway" v="residential"/>
    <tag k="name" v="Pod Klaudiánkou"/>
    <tag k="source:name" v="nameit/uir-adr"/>
  </way>
  <way id="8882027" version="9" timestamp="2012-02-14T10:01:04Z" uid="348511" user="Jiří" changeset="10681187">
    <nd ref="722833"/>
    <nd ref="722834"/>
    <nd ref="633613697"/>
    <nd ref="64810006"/>
    <nd ref="64810008"/>
    <nd ref="723515"/>
    <nd ref="245798522"/>
    <nd ref="723514"/>
    <nd ref="245798531"/>
    <nd ref="723513"/>
    <nd ref="1165911177"/>
    <nd ref="64810009"/>
    <tag k="highway" v="residential"/>
    <tag k="name" v="Pod Klaudiánkou"/>
    <tag k="source:name" v="nameit/uir-adr"/>
  </way>
  <way id="8882028" version="6" timestamp="2008-09-16T10:14:08Z" uid="1066" user="pavel" changeset="646258">
    <nd ref="722833"/>
    <nd ref="245798554"/>
    <nd ref="266913412"/>
    <nd ref="245798697"/>
    <nd ref="704113"/>
    <tag k="created_by" v="Potlatch 0.9a"/>
    <tag k="highway" v="residential"/>
    <tag k="name" v="Na Klaudiánce"/>
    <tag k="name:source" v="nameit/uir-adr"/>
  </way>
  <way id="8882028" version="7" timestamp="2008-09-16T15:41:47Z" uid="3516" user="BiIbo" changeset="647015">
    <nd ref="722833"/>
    <nd ref="245798554"/>
    <nd ref="266913412"/>
    <nd ref="245798697"/>
    <tag k="created_by" v="Potlatch 0.9a"/>
    <tag k="highway" v="residential"/>
    <tag k="name" v="Na Klaudiánce"/>
    <tag k="name:source" v="nameit/uir-adr"/>
  </way>
  <way id="8882028" version="8" timestamp="2008-10-26T04:21:43Z" uid="3516" user="BiIbo" changeset="582911">
    <nd ref="722833"/>
    <nd ref="245798554"/>
    <nd ref="266913412"/>
    <nd ref="245798697"/>
    <tag k="created_by" v="Potlatch 0.9a"/>
    <tag k="highway" v="residential"/>
    <tag k="name" v="Na Klaudiánce"/>
    <tag k="source:name" v="nameit/uir-adr"/>
  </way>
  <way id="8882028" version="9" timestamp="2009-10-18T16:16:05Z" uid="168630" user="Jakub Dvořák" changeset="2885515">
    <nd ref="722833"/>
    <nd ref="245798554"/>
    <nd ref="266913412"/>
    <nd ref="534788429"/>
    <nd ref="245798697"/>
    <tag k="highway" v="residential"/>
    <tag k="name" v="Na Klaudiánce"/>
    <tag k="source:name" v="nameit/uir-adr"/>
  </way>
  <way id="8882035" version="4" timestamp="2008-09-16T10:12:11Z" uid="1066" user="pavel" changeset="646258">
    <nd ref="722833"/>
    <nd ref="29745902"/>
    <tag k="highway" v="residential"/>
    <tag k="name" v="Na Klaudiánce"/>
    <tag k="name:source" v="nameit/uir-adr"/>
  </way>
  <way id="8882035" version="5" timestamp="2008-10-26T04:21:40Z" uid="3516" user="BiIbo" changeset="582911">
    <nd ref="722833"/>
    <nd ref="29745902"/>
    <tag k="highway" v="residential"/>
    <tag k="name" v="Na Klaudiánce"/>
    <tag k="source:name" v="nameit/uir-adr"/>
  </way>
  <way id="8882035" version="6" timestamp="2009-10-18T16:15:46Z" uid="168630" user="Jakub Dvořák" changeset="2885515">
    <nd ref="722833"/>
    <nd ref="534788329"/>
    <nd ref="29745902"/>
    <tag k="highway" v="residential"/>
    <tag k="name" v="Na Klaudiánce"/>
    <tag k="source:name" v="nameit/uir-adr"/>
  </way>
  <way id="8882035" version="7" timestamp="2012-02-14T10:01:05Z" uid="348511" user="Jiří" changeset="10681187">
    <nd ref="722833"/>
    <nd ref="534788329"/>
    <nd ref="29745902"/>
    <tag k="highway" v="residential"/>
    <tag k="name" v="U Podolského hřbitova"/>
    <tag k="source:name" v="nameit/uir-adr"/>
  </way>
  <way id="8882036" version="3" timestamp="2008-09-16T10:15:13Z" uid="1066" user="pavel" changeset="646258">
    <nd ref="723507"/>
    <nd ref="64809999"/>
    <nd ref="723506"/>
    <tag k="created_by" v="Potlatch alpha"/>
    <tag k="highway" v="residential"/>
    <tag k="name" v="Sinkulova"/>
    <tag k="name:source" v="nameit/uir-adr"/>
  </way>
  <way id="8882036" version="4" timestamp="2008-10-26T04:21:39Z" uid="3516" user="BiIbo" changeset="582911">
    <nd ref="723507"/>
    <nd ref="64809999"/>
    <nd ref="723506"/>
    <tag k="created_by" v="Potlatch alpha"/>
    <tag k="highway" v="residential"/>
    <tag k="name" v="Sinkulova"/>
    <tag k="source:name" v="nameit/uir-adr"/>
  </way>
  <way id="8882036" version="5" timestamp="2009-09-20T14:49:34Z" uid="17615" user="Petr Dlouhý" changeset="2546554">
    <nd ref="723507"/>
    <nd ref="64809999"/>
    <nd ref="503341669"/>
    <nd ref="723506"/>
    <tag k="highway" v="residential"/>
    <tag k="name" v="Sinkulova"/>
    <tag k="source:name" v="nameit/uir-adr"/>
  </way>
  <way id="8882036" version="6" timestamp="2012-02-23T19:46:04Z" uid="527259" user="Vratislav Filler" changeset="10771759">
    <nd ref="723507"/>
    <nd ref="64809999"/>
    <nd ref="503341669"/>
    <nd ref="723506"/>
    <tag k="highway" v="residential"/>
    <tag k="name" v="Sinkulova"/>
    <tag k="oneway" v="yes"/>
    <tag k="source:name" v="nameit/uir-adr"/>
  </way>
  <way id="8882038" version="4" timestamp="2008-09-16T10:10:10Z" uid="1066" user="pavel" changeset="646258">
    <nd ref="64809977"/>
    <nd ref="64809979"/>
    <nd ref="273508553"/>
    <nd ref="64809985"/>
    <tag k="created_by" v="Potlatch 0.9c"/>
    <tag k="highway" v="residential"/>
    <tag k="name" v="Viktorinova"/>
    <tag k="name:source" v="nameit/uir-adr"/>
  </way>
  <way id="8882038" version="5" timestamp="2008-10-26T04:21:38Z" uid="3516" user="BiIbo" changeset="582911">
    <nd ref="64809977"/>
    <nd ref="64809979"/>
    <nd ref="273508553"/>
    <nd ref="64809985"/>
    <tag k="created_by" v="Potlatch 0.9c"/>
    <tag k="highway" v="residential"/>
    <tag k="name" v="Viktorinova"/>
    <tag k="source:name" v="nameit/uir-adr"/>
  </way>
  <way id="8882038" version="6" timestamp="2011-12-07T15:59:13Z" uid="527259" user="Vratislav Filler" changeset="10058665">
    <nd ref="64809977"/>
    <nd ref="64809979"/>
    <tag k="highway" v="residential"/>
    <tag k="name" v="Viktorinova"/>
    <tag k="source:name" v="nameit/uir-adr"/>
  </way>
  <way id="8882038" version="7" timestamp="2011-12-18T11:52:26Z" uid="527259" user="Vratislav Filler" changeset="10145694">
    <nd ref="64809977"/>
    <nd ref="1551811224"/>
    <nd ref="64809979"/>
    <tag k="highway" v="residential"/>
    <tag k="name" v="Viktorinova"/>
    <tag k="source:name" v="nameit/uir-adr"/>
  </way>
  <way id="8882039" version="3" timestamp="2008-09-16T10:12:00Z" uid="1066" user="pavel" changeset="646258">
    <nd ref="64809980"/>
    <nd ref="64809987"/>
    <tag k="highway" v="residential"/>
    <tag k="name" v="U gymnázia"/>
    <tag k="name:source" v="nameit/uir-adr"/>
  </way>
  <way id="8882039" version="4" timestamp="2008-10-26T04:21:38Z" uid="3516" user="BiIbo" changeset="582911">
    <nd ref="64809980"/>
    <nd ref="64809987"/>
    <tag k="highway" v="residential"/>
    <tag k="name" v="U gymnázia"/>
    <tag k="source:name" v="nameit/uir-adr"/>
  </way>
  <way id="8882039" version="5" timestamp="2009-02-23T15:41:52Z" uid="3516" user="BiIbo" changeset="633633">
    <nd ref="64809980"/>
    <nd ref="64809987"/>
    <tag k="highway" v="residential"/>
    <tag k="name" v="U Gymnázia"/>
    <tag k="source:name" v="nameit/uir-adr"/>
  </way>
  <way id="8882041" version="3" timestamp="2008-09-16T10:13:52Z" uid="1066" user="pavel" changeset="646258">
    <nd ref="64809979"/>
    <nd ref="64809980"/>
    <nd ref="64809982"/>
    <nd ref="64809984"/>
    <tag k="highway" v="residential"/>
    <tag k="name" v="Na bitevní pláni"/>
    <tag k="name:source" v="nameit/uir-adr"/>
  </way>
  <way id="8882041" version="4" timestamp="2008-10-26T04:21:37Z" uid="3516" user="BiIbo" changeset="582911">
    <nd ref="64809979"/>
    <nd ref="64809980"/>
    <nd ref="64809982"/>
    <nd ref="64809984"/>
    <tag k="highway" v="residential"/>
    <tag k="name" v="Na bitevní pláni"/>
    <tag k="source:name" v="nameit/uir-adr"/>
  </way>
  <way id="8882041" version="5" timestamp="2008-10-26T04:23:13Z" uid="3516" user="BiIbo" changeset="582911">
    <nd ref="64809979"/>
    <nd ref="64809980"/>
    <nd ref="64809982"/>
    <nd ref="64809984"/>
    <tag k="highway" v="residential"/>
    <tag k="name" v="Na Bitevní pláni"/>
    <tag k="source:name" v="nameit/uir-adr"/>
  </way>
  <way id="8882046" version="3" timestamp="2008-09-16T10:09:44Z" uid="1066" user="pavel" changeset="646258">
    <nd ref="29745901"/>
    <nd ref="29745908"/>
    <nd ref="29745902"/>
    <tag k="created_by" v="Potlatch alpha"/>
    <tag k="highway" v="residential"/>
    <tag k="name" v="Doudova"/>
    <tag k="name:source" v="nameit/uir-adr"/>
  </way>
  <way id="8882046" version="4" timestamp="2008-10-26T04:21:33Z" uid="3516" user="BiIbo" changeset="582911">
    <nd ref="29745901"/>
    <nd ref="29745908"/>
    <nd ref="29745902"/>
    <tag k="created_by" v="Potlatch alpha"/>
    <tag k="highway" v="residential"/>
    <tag k="name" v="Doudova"/>
    <tag k="source:name" v="nameit/uir-adr"/>
  </way>
  <way id="8882047" version="3" timestamp="2008-09-16T10:13:42Z" uid="1066" user="pavel" changeset="646258">
    <nd ref="29745901"/>
    <nd ref="64810004"/>
    <tag k="highway" v="residential"/>
    <tag k="name" v="Na lysině"/>
    <tag k="name:source" v="nameit/uir-adr"/>
  </way>
  <way id="8882047" version="4" timestamp="2008-10-26T04:21:34Z" uid="3516" user="BiIbo" changeset="582911">
    <nd ref="29745901"/>
    <nd ref="64810004"/>
    <tag k="highway" v="residential"/>
    <tag k="name" v="Na lysině"/>
    <tag k="source:name" v="nameit/uir-adr"/>
  </way>
  <way id="8882047" version="5" timestamp="2009-02-23T14:04:13Z" uid="3516" user="BiIbo" changeset="630842">
    <nd ref="29745899"/>
    <nd ref="29745900"/>
    <nd ref="29745901"/>
    <nd ref="64810004"/>
    <tag k="highway" v="residential"/>
    <tag k="name" v="Na Lysině"/>
    <tag k="source:name" v="nameit/uir-adr"/>
  </way>
  <way id="8882047" version="6" timestamp="2009-10-18T16:15:58Z" uid="168630" user="Jakub Dvořák" changeset="2885515">
    <nd ref="29745899"/>
    <nd ref="29745900"/>
    <nd ref="29745901"/>
    <nd ref="534788349"/>
    <nd ref="534788324"/>
    <nd ref="64810004"/>
    <tag k="highway" v="residential"/>
    <tag k="name" v="Na Lysině"/>
    <tag k="source:name" v="nameit/uir-adr"/>
  </way>
  <way id="8882047" version="7" timestamp="2010-02-08T20:54:42Z" uid="17615" user="Petr Dlouhý" changeset="3826962">
    <nd ref="29745899"/>
    <nd ref="29745900"/>
    <nd ref="29745901"/>
    <nd ref="534788324"/>
    <nd ref="64810004"/>
    <tag k="highway" v="residential"/>
    <tag k="name" v="Na Lysině"/>
    <tag k="source:name" v="nameit/uir-adr"/>
  </way>
  <way id="8882047" version="8" timestamp="2011-04-19T21:53:56Z" uid="364739" user="j123b567" changeset="7911472">
    <nd ref="29745899"/>
    <nd ref="1251821092"/>
    <nd ref="29745900"/>
    <nd ref="29745901"/>
    <nd ref="534788324"/>
    <nd ref="64810004"/>
    <tag k="highway" v="residential"/>
    <tag k="name" v="Na Lysině"/>
    <tag k="source:name" v="nameit/uir-adr"/>
  </way>
  <way id="8882047" version="9" timestamp="2011-04-19T22:07:07Z" uid="364739" user="j123b567" changeset="7911544">
    <nd ref="29745899"/>
    <nd ref="1251821092"/>
    <nd ref="29745900"/>
    <nd ref="1251834272"/>
    <nd ref="29745901"/>
    <nd ref="534788324"/>
    <nd ref="64810004"/>
    <tag k="highway" v="residential"/>
    <tag k="name" v="Na Lysině"/>
    <tag k="source:name" v="nameit/uir-adr"/>
  </way>
  <way id="8882048" version="2" timestamp="2008-09-16T10:10:29Z" uid="1066" user="pavel" changeset="646258">
    <nd ref="722832"/>
    <nd ref="64809973"/>
    <nd ref="722833"/>
    <tag k="created_by" v="Potlatch alpha"/>
    <tag k="highway" v="residential"/>
    <tag k="name" v="Na Klaudiánce"/>
    <tag k="name:source" v="nameit/uir-adr"/>
  </way>
  <way id="8882048" version="3" timestamp="2008-10-26T04:21:28Z" uid="3516" user="BiIbo" changeset="582911">
    <nd ref="722832"/>
    <nd ref="64809973"/>
    <nd ref="722833"/>
    <tag k="created_by" v="Potlatch alpha"/>
    <tag k="highway" v="residential"/>
    <tag k="name" v="Na Klaudiánce"/>
    <tag k="source:name" v="nameit/uir-adr"/>
  </way>
  <way id="8882048" version="4" timestamp="2009-10-18T16:15:38Z" uid="168630" user="Jakub Dvořák" changeset="2885515">
    <nd ref="722832"/>
    <nd ref="534788292"/>
    <nd ref="64809973"/>
    <nd ref="722833"/>
    <tag k="highway" v="residential"/>
    <tag k="name" v="Na Klaudiánce"/>
    <tag k="source:name" v="nameit/uir-adr"/>
  </way>
  <way id="8882629" version="3" timestamp="2008-09-16T10:10:53Z" uid="1066" user="pavel" changeset="646258">
    <nd ref="26231281"/>
    <nd ref="26231282"/>
    <nd ref="26231283"/>
    <tag k="highway" v="residential"/>
    <tag k="name" v="Nedvědovo nám."/>
    <tag k="name:source" v="nameit/uir-adr"/>
  </way>
  <way id="8882629" version="4" timestamp="2008-10-26T04:21:41Z" uid="3516" user="BiIbo" changeset="582911">
    <nd ref="26231281"/>
    <nd ref="26231282"/>
    <nd ref="26231283"/>
    <tag k="highway" v="residential"/>
    <tag k="name" v="Nedvědovo nám."/>
    <tag k="source:name" v="nameit/uir-adr"/>
  </way>
  <way id="8882629" version="5" timestamp="2009-02-23T15:41:51Z" uid="3516" user="BiIbo" changeset="633633">
    <nd ref="26231281"/>
    <nd ref="26231282"/>
    <nd ref="26231283"/>
    <tag k="highway" v="residential"/>
    <tag k="name" v="Nedvědovo náměstí"/>
    <tag k="source:name" v="nameit/uir-adr"/>
  </way>
  <way id="8882629" version="6" timestamp="2011-02-21T22:04:14Z" uid="3516" user="BiIbo" changeset="7357800">
    <nd ref="26231281"/>
    <nd ref="1165832692"/>
    <nd ref="26231282"/>
    <nd ref="1165832741"/>
    <nd ref="26231283"/>
    <tag k="highway" v="residential"/>
    <tag k="name" v="Nedvědovo náměstí"/>
    <tag k="source:name" v="nameit/uir-adr"/>
  </way>
  <way id="8882629" version="7" timestamp="2011-02-21T23:03:12Z" uid="3516" user="BiIbo" changeset="7357800">
    <nd ref="26231281"/>
    <nd ref="1165832692"/>
    <nd ref="1165934928"/>
    <nd ref="26231282"/>
    <nd ref="1165832741"/>
    <nd ref="26231283"/>
    <tag k="highway" v="residential"/>
    <tag k="name" v="Nedvědovo náměstí"/>
    <tag k="source:name" v="nameit/uir-adr"/>
  </way>
  <way id="8882642" version="3" timestamp="2008-09-16T10:10:36Z" uid="1066" user="pavel" changeset="646258">
    <nd ref="26231283"/>
    <nd ref="26231284"/>
    <nd ref="26231285"/>
    <tag k="highway" v="residential"/>
    <tag k="name" v="Nedvědovo nám."/>
    <tag k="name:source" v="nameit/uir-adr"/>
  </way>
  <way id="8882642" version="4" timestamp="2008-10-26T04:21:49Z" uid="3516" user="BiIbo" changeset="582911">
    <nd ref="26231283"/>
    <nd ref="26231284"/>
    <nd ref="26231285"/>
    <tag k="highway" v="residential"/>
    <tag k="name" v="Nedvědovo nám."/>
    <tag k="source:name" v="nameit/uir-adr"/>
  </way>
  <way id="8882642" version="5" timestamp="2009-02-23T15:41:52Z" uid="3516" user="BiIbo" changeset="633633">
    <nd ref="26231283"/>
    <nd ref="26231284"/>
    <nd ref="26231285"/>
    <tag k="highway" v="residential"/>
    <tag k="name" v="Nedvědovo náměstí"/>
    <tag k="source:name" v="nameit/uir-adr"/>
  </way>
  <way id="8882642" version="6" timestamp="2011-02-21T22:03:15Z" uid="3516" user="BiIbo" changeset="7357800">
    <nd ref="26231283"/>
    <nd ref="1165833369"/>
    <nd ref="26231284"/>
    <tag k="highway" v="residential"/>
    <tag k="name" v="Nedvědovo náměstí"/>
    <tag k="source:name" v="nameit/uir-adr"/>
  </way>
  <way id="8882642" version="7" timestamp="2011-02-21T23:03:10Z" uid="3516" user="BiIbo" changeset="7357800">
    <nd ref="26231283"/>
    <nd ref="1165934968"/>
    <nd ref="1165833369"/>
    <nd ref="26231284"/>
    <tag k="highway" v="residential"/>
    <tag k="name" v="Nedvědovo náměstí"/>
    <tag k="source:name" v="nameit/uir-adr"/>
  </way>
  <way id="8882643" version="3" timestamp="2008-09-16T10:11:30Z" uid="1066" user="pavel" changeset="646258">
    <nd ref="64815111"/>
    <nd ref="64815157"/>
    <tag k="highway" v="residential"/>
    <tag k="name" v="Doudova"/>
    <tag k="name:source" v="nameit/uir-adr"/>
  </way>
  <way id="8882643" version="4" timestamp="2008-10-26T04:21:48Z" uid="3516" user="BiIbo" changeset="582911">
    <nd ref="64815111"/>
    <nd ref="64815157"/>
    <tag k="highway" v="residential"/>
    <tag k="name" v="Doudova"/>
    <tag k="source:name" v="nameit/uir-adr"/>
  </way>
  <way id="8882643" version="5" timestamp="2011-12-18T11:52:08Z" uid="527259" user="Vratislav Filler" changeset="10145694">
    <nd ref="64815111"/>
    <nd ref="1551811157"/>
    <nd ref="64815157"/>
    <tag k="highway" v="residential"/>
    <tag k="name" v="Doudova"/>
    <tag k="source:name" v="nameit/uir-adr"/>
  </way>
  <way id="8882644" version="3" timestamp="2008-09-16T10:14:21Z" uid="1066" user="pavel" changeset="646258">
    <nd ref="64815157"/>
    <nd ref="723507"/>
    <tag k="highway" v="residential"/>
    <tag k="name" v="Sinkulova"/>
    <tag k="name:source" v="nameit/uir-adr"/>
  </way>
  <way id="8882644" version="4" timestamp="2008-10-26T04:21:52Z" uid="3516" user="BiIbo" changeset="582911">
    <nd ref="64815157"/>
    <nd ref="723507"/>
    <tag k="highway" v="residential"/>
    <tag k="name" v="Sinkulova"/>
    <tag k="source:name" v="nameit/uir-adr"/>
  </way>
  <way id="8882644" version="5" timestamp="2011-02-21T22:50:27Z" uid="3516" user="BiIbo" changeset="7357800">
    <nd ref="64815157"/>
    <nd ref="1165911179"/>
    <nd ref="723507"/>
    <tag k="highway" v="residential"/>
    <tag k="name" v="Sinkulova"/>
    <tag k="source:name" v="nameit/uir-adr"/>
  </way>
  <way id="8882644" version="6" timestamp="2012-02-23T19:46:03Z" uid="527259" user="Vratislav Filler" changeset="10771759">
    <nd ref="64815157"/>
    <nd ref="1165911179"/>
    <nd ref="723507"/>
    <tag k="highway" v="residential"/>
    <tag k="name" v="Sinkulova"/>
    <tag k="oneway" v="yes"/>
    <tag k="source:name" v="nameit/uir-adr"/>
  </way>
  <way id="8882647" version="2" timestamp="2008-09-16T10:11:32Z" uid="1066" user="pavel" changeset="646258">
    <nd ref="723510"/>
    <nd ref="723509"/>
    <nd ref="64810001"/>
    <tag k="created_by" v="Potlatch alpha"/>
    <tag k="highway" v="residential"/>
    <tag k="name" v="Na Zlatnici"/>
    <tag k="name:source" v="nameit/uir-adr"/>
  </way>
  <way id="8882647" version="3" timestamp="2008-10-26T04:21:52Z" uid="3516" user="BiIbo" changeset="582911">
    <nd ref="723510"/>
    <nd ref="723509"/>
    <nd ref="64810001"/>
    <tag k="created_by" v="Potlatch alpha"/>
    <tag k="highway" v="residential"/>
    <tag k="name" v="Na Zlatnici"/>
    <tag k="source:name" v="nameit/uir-adr"/>
  </way>
  <way id="8882647" version="4" timestamp="2011-02-21T22:03:19Z" uid="3516" user="BiIbo" changeset="7357800">
    <nd ref="723510"/>
    <nd ref="1165832954"/>
    <nd ref="723509"/>
    <nd ref="1165832961"/>
    <nd ref="64810001"/>
    <tag k="highway" v="residential"/>
    <tag k="name" v="Na Zlatnici"/>
    <tag k="source:name" v="nameit/uir-adr"/>
  </way>
  <way id="8882648" version="2" timestamp="2008-09-16T10:14:33Z" uid="1066" user="pavel" changeset="646258">
    <nd ref="64810001"/>
    <nd ref="723508"/>
    <nd ref="723507"/>
    <tag k="created_by" v="Potlatch alpha"/>
    <tag k="highway" v="residential"/>
    <tag k="name" v="Na Zlatnici"/>
    <tag k="name:source" v="nameit/uir-adr"/>
  </way>
  <way id="8882648" version="3" timestamp="2008-10-26T04:21:42Z" uid="3516" user="BiIbo" changeset="582911">
    <nd ref="64810001"/>
    <nd ref="723508"/>
    <nd ref="723507"/>
    <tag k="created_by" v="Potlatch alpha"/>
    <tag k="highway" v="residential"/>
    <tag k="name" v="Na Zlatnici"/>
    <tag k="source:name" v="nameit/uir-adr"/>
  </way>
  <way id="8882648" version="4" timestamp="2011-02-21T22:50:26Z" uid="3516" user="BiIbo" changeset="7357800">
    <nd ref="64810001"/>
    <nd ref="723508"/>
    <nd ref="1165911175"/>
    <nd ref="723507"/>
    <tag k="highway" v="residential"/>
    <tag k="name" v="Na Zlatnici"/>
    <tag k="source:name" v="nameit/uir-adr"/>
  </way>
  <way id="8882650" version="3" timestamp="2008-09-16T10:14:43Z" uid="1066" user="pavel" changeset="646258">
    <nd ref="29745901"/>
    <nd ref="64815160"/>
    <nd ref="64815165"/>
    <nd ref="64810013"/>
    <tag k="highway" v="residential"/>
    <tag k="name" v="Doudova"/>
    <tag k="name:source" v="nameit/uir-adr"/>
  </way>
  <way id="8882650" version="4" timestamp="2008-10-26T04:21:43Z" uid="3516" user="BiIbo" changeset="582911">
    <nd ref="29745901"/>
    <nd ref="64815160"/>
    <nd ref="64815165"/>
    <nd ref="64810013"/>
    <tag k="highway" v="residential"/>
    <tag k="name" v="Doudova"/>
    <tag k="source:name" v="nameit/uir-adr"/>
  </way>
  <way id="8882651" version="3" timestamp="2008-09-16T10:11:47Z" uid="1066" user="pavel" changeset="646258">
    <nd ref="64815172"/>
    <nd ref="64815160"/>
    <tag k="highway" v="residential"/>
    <tag k="name" v="Voráčovská"/>
    <tag k="name:source" v="nameit/uir-adr"/>
  </way>
  <way id="8882651" version="4" timestamp="2008-10-26T04:21:42Z" uid="3516" user="BiIbo" changeset="582911">
    <nd ref="64815172"/>
    <nd ref="64815160"/>
    <tag k="highway" v="residential"/>
    <tag k="name" v="Voráčovská"/>
    <tag k="source:name" v="nameit/uir-adr"/>
  </way>
  <way id="8882652" version="3" timestamp="2008-09-16T10:15:01Z" uid="1066" user="pavel" changeset="646258">
    <nd ref="64815169"/>
    <nd ref="64815165"/>
    <tag k="highway" v="residential"/>
    <tag k="name" v="Nad spádem"/>
    <tag k="name:source" v="nameit/uir-adr"/>
  </way>
  <way id="8882652" version="4" timestamp="2008-10-26T04:21:46Z" uid="3516" user="BiIbo" changeset="582911">
    <nd ref="64815169"/>
    <nd ref="64815165"/>
    <tag k="highway" v="residential"/>
    <tag k="name" v="Nad spádem"/>
    <tag k="source:name" v="nameit/uir-adr"/>
  </way>
  <way id="8882652" version="5" timestamp="2009-02-23T14:05:12Z" uid="3516" user="BiIbo" changeset="630842">
    <nd ref="64815169"/>
    <nd ref="64815165"/>
    <tag k="highway" v="residential"/>
    <tag k="name" v="Nad Spádem"/>
    <tag k="source:name" v="nameit/uir-adr"/>
  </way>
  <way id="8882652" version="6" timestamp="2010-02-08T20:00:21Z" uid="17615" user="Petr Dlouhý" changeset="3826460">
    <nd ref="64815169"/>
    <nd ref="633559210"/>
    <nd ref="64815165"/>
    <tag k="highway" v="residential"/>
    <tag k="name" v="Nad Spádem"/>
    <tag k="source:name" v="nameit/uir-adr"/>
  </way>
  <way id="8882653" version="3" timestamp="2008-09-16T10:10:03Z" uid="1066" user="pavel" changeset="646258">
    <nd ref="722824"/>
    <nd ref="64815179"/>
    <nd ref="64815182"/>
    <nd ref="64815183"/>
    <nd ref="64815165"/>
    <tag k="highway" v="residential"/>
    <tag k="name" v="Nad spádem"/>
    <tag k="name:source" v="nameit/uir-adr"/>
  </way>
  <way id="8882653" version="4" timestamp="2008-10-26T04:21:44Z" uid="3516" user="BiIbo" changeset="582911">
    <nd ref="722824"/>
    <nd ref="64815179"/>
    <nd ref="64815182"/>
    <nd ref="64815183"/>
    <nd ref="64815165"/>
    <tag k="highway" v="residential"/>
    <tag k="name" v="Nad spádem"/>
    <tag k="source:name" v="nameit/uir-adr"/>
  </way>
  <way id="8882653" version="5" timestamp="2009-02-23T14:05:12Z" uid="3516" user="BiIbo" changeset="630842">
    <nd ref="722824"/>
    <nd ref="64815179"/>
    <nd ref="64815182"/>
    <nd ref="64815183"/>
    <nd ref="64815165"/>
    <tag k="highway" v="residential"/>
    <tag k="name" v="Nad Spádem"/>
    <tag k="source:name" v="nameit/uir-adr"/>
  </way>
  <way id="8882653" version="6" timestamp="2010-02-08T20:00:22Z" uid="17615" user="Petr Dlouhý" changeset="3826460">
    <nd ref="722824"/>
    <nd ref="64815179"/>
    <nd ref="64815182"/>
    <nd ref="633559430"/>
    <nd ref="64815183"/>
    <nd ref="64815165"/>
    <tag k="highway" v="residential"/>
    <tag k="name" v="Nad Spádem"/>
    <tag k="source:name" v="nameit/uir-adr"/>
  </way>
  <way id="8882655" version="3" timestamp="2008-09-16T10:09:43Z" uid="1066" user="pavel" changeset="646258">
    <nd ref="64815182"/>
    <nd ref="64815185"/>
    <nd ref="64815190"/>
    <nd ref="29745900"/>
    <tag k="highway" v="residential"/>
    <tag k="name" v="Na sypčině"/>
    <tag k="name:source" v="nameit/uir-adr"/>
  </way>
  <way id="8882655" version="4" timestamp="2008-10-26T04:21:46Z" uid="3516" user="BiIbo" changeset="582911">
    <nd ref="64815182"/>
    <nd ref="64815185"/>
    <nd ref="64815190"/>
    <nd ref="29745900"/>
    <tag k="highway" v="residential"/>
    <tag k="name" v="Na sypčině"/>
    <tag k="source:name" v="nameit/uir-adr"/>
  </way>
  <way id="8882655" version="5" timestamp="2009-02-23T15:41:51Z" uid="3516" user="BiIbo" changeset="633633">
    <nd ref="64815182"/>
    <nd ref="64815185"/>
    <nd ref="64815190"/>
    <nd ref="29745900"/>
    <tag k="highway" v="residential"/>
    <tag k="name" v="Na Sypčině"/>
    <tag k="source:name" v="nameit/uir-adr"/>
  </way>
  <way id="8882655" version="6" timestamp="2010-02-08T20:54:44Z" uid="17615" user="Petr Dlouhý" changeset="3826962">
    <nd ref="64815182"/>
    <nd ref="633614773"/>
    <nd ref="64815185"/>
    <nd ref="64815190"/>
    <nd ref="29745900"/>
    <tag k="highway" v="residential"/>
    <tag k="name" v="Na Sypčině"/>
    <tag k="source:name" v="nameit/uir-adr"/>
  </way>
  <way id="8882656" version="3" timestamp="2008-09-16T10:12:40Z" uid="1066" user="pavel" changeset="646258">
    <nd ref="64815190"/>
    <nd ref="64815160"/>
    <tag k="highway" v="residential"/>
    <tag k="name" v="Voráčovská"/>
    <tag k="name:source" v="nameit/uir-adr"/>
  </way>
  <way id="8882656" version="4" timestamp="2008-10-26T04:21:27Z" uid="3516" user="BiIbo" changeset="582911">
    <nd ref="64815190"/>
    <nd ref="64815160"/>
    <tag k="highway" v="residential"/>
    <tag k="name" v="Voráčovská"/>
    <tag k="source:name" v="nameit/uir-adr"/>
  </way>
  <way id="8882657" version="4" timestamp="2008-09-16T10:12:44Z" uid="1066" user="pavel" changeset="646258">
    <nd ref="722828"/>
    <nd ref="64815194"/>
    <nd ref="64815199"/>
    <nd ref="64815202"/>
    <nd ref="64815055"/>
    <tag k="highway" v="residential"/>
    <tag k="name" v="Lopatecká"/>
    <tag k="name:source" v="nameit/uir-adr"/>
  </way>
  <way id="8882657" version="5" timestamp="2008-10-26T04:21:28Z" uid="3516" user="BiIbo" changeset="582911">
    <nd ref="722828"/>
    <nd ref="64815194"/>
    <nd ref="64815199"/>
    <nd ref="64815202"/>
    <nd ref="64815055"/>
    <tag k="highway" v="residential"/>
    <tag k="name" v="Lopatecká"/>
    <tag k="source:name" v="nameit/uir-adr"/>
  </way>
  <way id="8882657" version="6" timestamp="2010-02-12T23:40:26Z" uid="10345" user="Mormegil" changeset="3861291">
    <nd ref="64815055"/>
    <nd ref="64815202"/>
    <nd ref="64815199"/>
    <nd ref="64815194"/>
    <nd ref="722828"/>
    <nd ref="64810013"/>
    <nd ref="722830"/>
    <nd ref="64810015"/>
    <nd ref="633559536"/>
    <nd ref="722831"/>
    <nd ref="64810003"/>
    <nd ref="64815169"/>
    <nd ref="64815172"/>
    <nd ref="64810004"/>
    <nd ref="245798530"/>
    <nd ref="534788298"/>
    <nd ref="722832"/>
    <tag k="highway" v="residential"/>
    <tag k="name" v="Lopatecká"/>
    <tag k="source:name" v="nameit/uir-adr"/>
  </way>
  <way id="8882657" version="7" timestamp="2011-12-18T11:52:13Z" uid="527259" user="Vratislav Filler" changeset="10145694">
    <nd ref="64815055"/>
    <nd ref="1551811132"/>
    <nd ref="64815202"/>
    <nd ref="64815199"/>
    <nd ref="64815194"/>
    <nd ref="722828"/>
    <nd ref="64810013"/>
    <nd ref="722830"/>
    <nd ref="64810015"/>
    <nd ref="633559536"/>
    <nd ref="722831"/>
    <nd ref="64810003"/>
    <nd ref="64815169"/>
    <nd ref="64815172"/>
    <nd ref="64810004"/>
    <nd ref="245798530"/>
    <nd ref="534788298"/>
    <nd ref="722832"/>
    <tag k="highway" v="residential"/>
    <tag k="name" v="Lopatecká"/>
    <tag k="source:name" v="nameit/uir-adr"/>
  </way>
  <way id="8882018" version="8" timestamp="2012-08-12T20:10:20Z" uid="527259" user="Vratislav Filler" changeset="12706446">
    <nd ref="30929597"/>
    <nd ref="1551811100"/>
    <nd ref="277086822"/>
    <nd ref="30929598"/>
    <nd ref="266942418"/>
    <nd ref="1776661863"/>
    <nd ref="30929546"/>
    <tag k="highway" v="residential"/>
    <tag k="name" v="Dačického"/>
    <tag k="source:name" v="nameit/uir-adr"/>
  </way>
  <way id="8882018" version="9" timestamp="2012-09-05T02:50:05Z" uid="488732" user="montardo" changeset="12989968">
    <nd ref="30929597"/>
    <nd ref="1551811100"/>
    <nd ref="30929598"/>
    <nd ref="1899429463"/>
    <nd ref="266942418"/>
    <nd ref="1776661863"/>
    <nd ref="30929546"/>
    <tag k="highway" v="residential"/>
    <tag k="name" v="Dačického"/>
    <tag k="source:name" v="nameit/uir-adr"/>
  </way>
  <way id="8882024" version="20" timestamp="2012-07-01T16:05:06Z" uid="527259" user="Vratislav Filler" changeset="12077922">
    <nd ref="273505481"/>
    <nd ref="64809925"/>
    <nd ref="64809923"/>
    <nd ref="64809920"/>
    <nd ref="64809919"/>
    <nd ref="273519087"/>
    <nd ref="1808960592"/>
    <nd ref="273497692"/>
    <nd ref="64809902"/>
    <tag k="highway" v="trunk_link"/>
    <tag k="history" v="Retrieved from v3"/>
    <tag k="name" v="náměstí Hrdinů"/>
    <tag k="oneway" v="yes"/>
    <tag k="source:name" v="nameit/uir-adr"/>
  </way>
  <way id="8882024" version="21" timestamp="2012-08-12T20:10:21Z" uid="527259" user="Vratislav Filler" changeset="12706446">
    <nd ref="273505481"/>
    <nd ref="64809925"/>
    <nd ref="64809923"/>
    <nd ref="64809920"/>
    <nd ref="64809919"/>
    <tag k="highway" v="trunk_link"/>
    <tag k="history" v="Retrieved from v3"/>
    <tag k="name" v="náměstí Hrdinů"/>
    <tag k="oneway" v="yes"/>
    <tag k="source:name" v="nameit/uir-adr"/>
  </way>
  <way id="8882629" version="8" timestamp="2012-07-11T16:23:25Z" uid="653914" user="Tomada" changeset="12187683">
    <nd ref="26231281"/>
    <nd ref="1165832692"/>
    <nd ref="1165934928"/>
    <nd ref="26231282"/>
    <tag k="highway" v="residential"/>
    <tag k="name" v="Nedvědovo náměstí"/>
    <tag k="source:name" v="nameit/uir-adr"/>
  </way>
  <way id="8882642" version="8" timestamp="2012-07-11T16:23:25Z" uid="653914" user="Tomada" changeset="12187683">
    <nd ref="26231283"/>
    <nd ref="1165934968"/>
    <nd ref="1165833369"/>
    <nd ref="26231284"/>
    <tag k="highway" v="residential"/>
    <tag k="name" v="Nedvědovo náměstí"/>
    <tag k="oneway" v="yes"/>
    <tag k="source:name" v="nameit/uir-adr"/>
  </way>
</osm>
