<?xml version='1.0' encoding='UTF-8'?>
<osm version="0.6" generator="libosmium/2.20.0">
  <way id="88828042" version="1" timestamp="2010-12-10T14:41:15Z" uid="6269" user="Mueck" changeset="6605715">
    <nd ref="1027427973"/>
    <nd ref="1027427949"/>
    <nd ref="1027427923"/>
    <nd ref="1027427972"/>
    <tag k="electrified" v="no"/>
    <tag k="name" v="Elbe-Weser-Bahn"/>
    <tag k="operator" v="EVB"/>
    <tag k="railway" v="rail"/>
    <tag k="source" v="Landsat/Yahoo"/>
    <tag k="usage" v="branch"/>
  </way>
  <way id="88828042" version="2" timestamp="2010-12-10T14:41:37Z" uid="6269" user="Mueck" changeset="6605715">
    <nd ref="1027427973"/>
    <nd ref="1027427949"/>
    <nd ref="1027427923"/>
    <nd ref="1027427972"/>
    <tag k="electrified" v="no"/>
    <tag k="name" v="Elbe-Weser-Bahn"/>
    <tag k="operator" v="EVB"/>
    <tag k="railway" v="rail"/>
    <tag k="source" v="bing"/>
    <tag k="usage" v="branch"/>
  </way>
  <way id="88828042" version="3" timestamp="2011-11-05T11:34:16Z" uid="42429" user="FK270673" changeset="9745285">
    <nd ref="1027427973"/>
    <nd ref="1027427949"/>
    <nd ref="1027427923"/>
    <nd ref="1027427972"/>
    <tag k="electrified" v="no"/>
    <tag k="gauge" v="1435"/>
    <tag k="name" v="Elbe-Weser-Bahn"/>
    <tag k="operator" v="EVB"/>
    <tag k="railway" v="rail"/>
    <tag k="source" v="bing"/>
    <tag k="usage" v="branch"/>
  </way>
  <way id="88828853" version="1" timestamp="2010-12-10T14:48:11Z" uid="115477" user="wowik" changeset="6605965">
    <nd ref="1029591316"/>
    <nd ref="1030857404"/>
    <nd ref="1030857391"/>
    <nd ref="1030857402"/>
    <nd ref="1029591309"/>
    <tag k="highway" v="service"/>
    <tag k="oneway" v="yes"/>
    <tag k="service" v="driveway"/>
  </way>
  <way id="88828853" version="2" timestamp="2011-10-03T10:56:14Z" uid="464416" user="Dante McDock" changeset="9458957"/>
  <way id="88828042" version="4" timestamp="2012-07-17T10:16:16Z" uid="722137" user="OSMF Redaction Account" changeset="12262766"/>
</osm>
