<?xml version='1.0' encoding='UTF-8'?>
<osm version="0.6" generator="libosmium/2.20.0">
  <way id="8885086" version="4" timestamp="2010-07-09T20:58:21Z" uid="74617" user="JohnSmith" changeset="5176956">
    <nd ref="64843045"/>
    <nd ref="68127989"/>
    <nd ref="64843069"/>
    <tag k="highway" v="residential"/>
    <tag k="maxspeed" v="50"/>
    <tag k="maxspeed:source" v="default residential speed limit in Australia"/>
    <tag k="name" v="Irwin Street"/>
  </way>
  <way id="8885086" version="5" timestamp="2010-10-21T14:26:01Z" uid="192584" user="ORYX" changeset="6127059">
    <nd ref="30767018"/>
    <nd ref="959460332"/>
    <nd ref="68127989"/>
    <nd ref="64843045"/>
    <tag k="highway" v="residential"/>
    <tag k="maxspeed" v="50"/>
    <tag k="maxspeed:source" v="default residential speed limit in Australia"/>
    <tag k="name" v="Irwin Street"/>
    <tag k="oneway" v="yes"/>
  </way>
  <way id="8885086" version="6" timestamp="2012-01-15T08:06:22Z" uid="147510" user="woodpeck_fixbot" changeset="10394821">
    <nd ref="30767018"/>
    <nd ref="959460332"/>
    <nd ref="68127989"/>
    <nd ref="64843045"/>
    <tag k="highway" v="residential"/>
    <tag k="name" v="Irwin Street"/>
    <tag k="oneway" v="yes"/>
  </way>
  <way id="8885138" version="3" timestamp="2010-12-23T00:00:16Z" uid="34428" user="usm78-gis" changeset="6741409">
    <nd ref="1057897621"/>
    <nd ref="64844943"/>
    <nd ref="64844944"/>
    <nd ref="64844945"/>
    <nd ref="64844946"/>
    <nd ref="64844947"/>
    <nd ref="64844948"/>
    <nd ref="64844950"/>
    <tag k="power" v="line"/>
  </way>
  <way id="8885152" version="2" timestamp="2010-10-04T21:30:34Z" uid="34428" user="usm78-gis" changeset="5957622"/>
  <way id="8885159" version="2" timestamp="2010-10-04T21:30:33Z" uid="34428" user="usm78-gis" changeset="5957622"/>
  <way id="8885165" version="2" timestamp="2010-12-23T00:00:21Z" uid="34428" user="usm78-gis" changeset="6741409">
    <nd ref="61986316"/>
    <nd ref="64847014"/>
    <nd ref="64847016"/>
    <nd ref="64847017"/>
    <nd ref="64846577"/>
    <tag k="power" v="line"/>
  </way>
  <way id="8885167" version="2" timestamp="2010-12-23T00:00:41Z" uid="34428" user="usm78-gis" changeset="6741409">
    <nd ref="64846577"/>
    <nd ref="64847277"/>
    <tag k="power" v="line"/>
  </way>
  <way id="8885170" version="2" timestamp="2010-12-23T00:01:09Z" uid="34428" user="usm78-gis" changeset="6741409">
    <nd ref="64846200"/>
    <nd ref="64847710"/>
    <nd ref="64847277"/>
    <tag k="power" v="line"/>
  </way>
  <way id="8885172" version="2" timestamp="2010-12-23T00:00:28Z" uid="34428" user="usm78-gis" changeset="6741409">
    <nd ref="64847277"/>
    <nd ref="64847855"/>
    <tag k="power" v="line"/>
  </way>
  <way id="8885541" version="3" timestamp="2008-09-16T10:10:59Z" uid="1066" user="pavel" changeset="646258">
    <nd ref="64815157"/>
    <nd ref="64860472"/>
    <tag k="highway" v="residential"/>
    <tag k="name" v="Sinkulova"/>
    <tag k="name:source" v="nameit/uir-adr"/>
  </way>
  <way id="8885541" version="4" timestamp="2008-10-26T04:21:51Z" uid="3516" user="BiIbo" changeset="582911">
    <nd ref="64815157"/>
    <nd ref="64860472"/>
    <tag k="highway" v="residential"/>
    <tag k="name" v="Sinkulova"/>
    <tag k="source:name" v="nameit/uir-adr"/>
  </way>
  <way id="8885541" version="5" timestamp="2011-12-18T11:52:24Z" uid="527259" user="Vratislav Filler" changeset="10145694">
    <nd ref="64815157"/>
    <nd ref="1551811202"/>
    <nd ref="64860472"/>
    <tag k="highway" v="residential"/>
    <tag k="name" v="Sinkulova"/>
    <tag k="source:name" v="nameit/uir-adr"/>
  </way>
  <way id="8885541" version="6" timestamp="2012-02-23T19:46:03Z" uid="527259" user="Vratislav Filler" changeset="10771759">
    <nd ref="64860472"/>
    <nd ref="1551811202"/>
    <nd ref="64815157"/>
    <tag k="highway" v="residential"/>
    <tag k="name" v="Sinkulova"/>
    <tag k="oneway" v="yes"/>
    <tag k="source:name" v="nameit/uir-adr"/>
  </way>
  <way id="8885542" version="3" timestamp="2008-09-16T10:14:14Z" uid="1066" user="pavel" changeset="646258">
    <nd ref="64815109"/>
    <nd ref="64860472"/>
    <tag k="highway" v="residential"/>
    <tag k="name" v="Brabcova"/>
    <tag k="name:source" v="nameit/uir-adr"/>
  </way>
  <way id="8885542" version="4" timestamp="2008-10-26T04:21:47Z" uid="3516" user="BiIbo" changeset="582911">
    <nd ref="64815109"/>
    <nd ref="64860472"/>
    <tag k="highway" v="residential"/>
    <tag k="name" v="Brabcova"/>
    <tag k="source:name" v="nameit/uir-adr"/>
  </way>
  <way id="8885542" version="5" timestamp="2011-12-18T11:52:07Z" uid="527259" user="Vratislav Filler" changeset="10145694">
    <nd ref="64815109"/>
    <nd ref="1551811161"/>
    <nd ref="64860472"/>
    <tag k="highway" v="residential"/>
    <tag k="name" v="Brabcova"/>
    <tag k="source:name" v="nameit/uir-adr"/>
  </way>
  <way id="8885543" version="3" timestamp="2008-09-16T10:11:02Z" uid="1066" user="pavel" changeset="646258">
    <nd ref="64815055"/>
    <nd ref="64860476"/>
    <nd ref="64860487"/>
    <nd ref="64860493"/>
    <nd ref="64860502"/>
    <nd ref="64860506"/>
    <nd ref="64860512"/>
    <nd ref="64860520"/>
    <nd ref="64860527"/>
    <nd ref="33432030"/>
    <tag k="highway" v="residential"/>
    <tag k="name" v="Na Topolce"/>
    <tag k="name:source" v="nameit/uir-adr"/>
  </way>
  <way id="8885543" version="4" timestamp="2008-10-26T04:21:48Z" uid="3516" user="BiIbo" changeset="582911">
    <nd ref="64815055"/>
    <nd ref="64860476"/>
    <nd ref="64860487"/>
    <nd ref="64860493"/>
    <nd ref="64860502"/>
    <nd ref="64860506"/>
    <nd ref="64860512"/>
    <nd ref="64860520"/>
    <nd ref="64860527"/>
    <nd ref="33432030"/>
    <tag k="highway" v="residential"/>
    <tag k="name" v="Na Topolce"/>
    <tag k="source:name" v="nameit/uir-adr"/>
  </way>
  <way id="8885543" version="5" timestamp="2010-02-07T23:22:07Z" uid="3516" user="BiIbo" changeset="3819226">
    <nd ref="64815055"/>
    <nd ref="64860476"/>
    <nd ref="64860487"/>
    <nd ref="64860493"/>
    <nd ref="64860502"/>
    <nd ref="64860506"/>
    <nd ref="64860512"/>
    <nd ref="64860520"/>
    <nd ref="633017685"/>
    <nd ref="64860527"/>
    <nd ref="33432030"/>
    <tag k="highway" v="residential"/>
    <tag k="name" v="Na Topolce"/>
    <tag k="source:name" v="nameit/uir-adr"/>
  </way>
  <way id="8885543" version="6" timestamp="2011-12-18T11:52:17Z" uid="527259" user="Vratislav Filler" changeset="10145694">
    <nd ref="64815055"/>
    <nd ref="1551811153"/>
    <nd ref="64860476"/>
    <nd ref="64860487"/>
    <nd ref="1551811186"/>
    <nd ref="64860493"/>
    <nd ref="64860502"/>
    <nd ref="64860506"/>
    <nd ref="64860512"/>
    <nd ref="64860520"/>
    <nd ref="633017685"/>
    <nd ref="64860527"/>
    <nd ref="33432030"/>
    <tag k="highway" v="residential"/>
    <tag k="name" v="Na Topolce"/>
    <tag k="source:name" v="nameit/uir-adr"/>
  </way>
  <way id="8885548" version="3" timestamp="2008-09-16T10:13:54Z" uid="1066" user="pavel" changeset="646258">
    <nd ref="64815004"/>
    <nd ref="64860542"/>
    <tag k="highway" v="residential"/>
    <tag k="name" v="Na Klikovce"/>
    <tag k="name:source" v="nameit/uir-adr"/>
  </way>
  <way id="8885548" version="4" timestamp="2008-10-26T04:21:42Z" uid="3516" user="BiIbo" changeset="582911">
    <nd ref="64815004"/>
    <nd ref="64860542"/>
    <tag k="highway" v="residential"/>
    <tag k="name" v="Na Klikovce"/>
    <tag k="source:name" v="nameit/uir-adr"/>
  </way>
  <way id="8885548" version="5" timestamp="2010-02-02T22:03:25Z" uid="5547" user="voda" changeset="3779533">
    <nd ref="64815004"/>
    <nd ref="627014998"/>
    <nd ref="64860542"/>
    <tag k="highway" v="residential"/>
    <tag k="name" v="Na Klikovce"/>
    <tag k="source:name" v="nameit/uir-adr"/>
  </way>
  <way id="8885548" version="6" timestamp="2011-12-18T11:52:16Z" uid="527259" user="Vratislav Filler" changeset="10145694">
    <nd ref="64815004"/>
    <nd ref="1551811121"/>
    <nd ref="627014998"/>
    <nd ref="64860542"/>
    <tag k="highway" v="residential"/>
    <tag k="name" v="Na Klikovce"/>
    <tag k="source:name" v="nameit/uir-adr"/>
  </way>
  <way id="8885553" version="3" timestamp="2008-09-16T10:12:50Z" uid="1066" user="pavel" changeset="646258">
    <nd ref="723505"/>
    <nd ref="64860552"/>
    <tag k="highway" v="residential"/>
    <tag k="name" v="Pod Vyšehradem"/>
    <tag k="name:source" v="nameit/uir-adr"/>
  </way>
  <way id="8885553" version="4" timestamp="2008-10-26T04:21:41Z" uid="3516" user="BiIbo" changeset="582911">
    <nd ref="723505"/>
    <nd ref="64860552"/>
    <tag k="highway" v="residential"/>
    <tag k="name" v="Pod Vyšehradem"/>
    <tag k="source:name" v="nameit/uir-adr"/>
  </way>
  <way id="8885553" version="5" timestamp="2008-12-05T11:43:10Z" uid="3516" user="BiIbo" changeset="123529">
    <nd ref="723505"/>
    <nd ref="64860552"/>
    <nd ref="316759391"/>
    <nd ref="316759390"/>
    <nd ref="316759362"/>
    <nd ref="316759388"/>
    <nd ref="316759386"/>
    <nd ref="316759384"/>
    <nd ref="316759378"/>
    <tag k="highway" v="residential"/>
    <tag k="name" v="Pod Vyšehradem"/>
    <tag k="source" v="cuzk:km"/>
    <tag k="source:name" v="nameit/uir-adr"/>
  </way>
  <way id="8885553" version="6" timestamp="2011-02-21T22:03:08Z" uid="3516" user="BiIbo" changeset="7357800">
    <nd ref="723505"/>
    <nd ref="1165832897"/>
    <nd ref="64860552"/>
    <nd ref="316759391"/>
    <nd ref="316759390"/>
    <nd ref="316759362"/>
    <nd ref="316759388"/>
    <nd ref="316759386"/>
    <nd ref="316759384"/>
    <nd ref="316759378"/>
    <tag k="highway" v="residential"/>
    <tag k="name" v="Pod Vyšehradem"/>
    <tag k="source" v="cuzk:km"/>
    <tag k="source:name" v="nameit/uir-adr"/>
  </way>
  <way id="8885553" version="7" timestamp="2011-04-10T17:57:38Z" uid="17615" user="Petr Dlouhý" changeset="7825630">
    <nd ref="723505"/>
    <nd ref="1165832897"/>
    <nd ref="64860552"/>
    <nd ref="316759391"/>
    <nd ref="1240148154"/>
    <nd ref="316759390"/>
    <nd ref="316759362"/>
    <nd ref="316759388"/>
    <nd ref="316759386"/>
    <nd ref="316759384"/>
    <nd ref="316759378"/>
    <tag k="highway" v="residential"/>
    <tag k="name" v="Pod Vyšehradem"/>
    <tag k="source" v="cuzk:km"/>
    <tag k="source:name" v="nameit/uir-adr"/>
  </way>
  <way id="8885554" version="3" timestamp="2008-09-16T10:09:38Z" uid="1066" user="pavel" changeset="646258">
    <nd ref="26231284"/>
    <nd ref="64860554"/>
    <tag k="highway" v="residential"/>
    <tag k="name" v="Nedvědovo nám."/>
    <tag k="name:source" v="nameit/uir-adr"/>
  </way>
  <way id="8885554" version="4" timestamp="2008-10-26T04:21:40Z" uid="3516" user="BiIbo" changeset="582911">
    <nd ref="26231284"/>
    <nd ref="64860554"/>
    <tag k="highway" v="residential"/>
    <tag k="name" v="Nedvědovo nám."/>
    <tag k="source:name" v="nameit/uir-adr"/>
  </way>
  <way id="8885554" version="5" timestamp="2009-02-23T15:41:50Z" uid="3516" user="BiIbo" changeset="633633">
    <nd ref="26231284"/>
    <nd ref="64860554"/>
    <tag k="highway" v="residential"/>
    <tag k="name" v="Nedvědovo náměstí"/>
    <tag k="source:name" v="nameit/uir-adr"/>
  </way>
  <way id="8885554" version="6" timestamp="2011-02-21T22:03:20Z" uid="3516" user="BiIbo" changeset="7357800">
    <nd ref="26231284"/>
    <nd ref="1165832625"/>
    <nd ref="64860554"/>
    <tag k="highway" v="residential"/>
    <tag k="name" v="Nedvědovo náměstí"/>
    <tag k="source:name" v="nameit/uir-adr"/>
  </way>
  <way id="8885554" version="7" timestamp="2011-02-21T23:03:11Z" uid="3516" user="BiIbo" changeset="7357800">
    <nd ref="26231284"/>
    <nd ref="1165934938"/>
    <nd ref="1165832625"/>
    <nd ref="64860554"/>
    <tag k="highway" v="residential"/>
    <tag k="name" v="Nedvědovo náměstí"/>
    <tag k="source:name" v="nameit/uir-adr"/>
  </way>
  <way id="8885554" version="8" timestamp="2011-02-21T23:03:54Z" uid="3516" user="BiIbo" changeset="7357800">
    <nd ref="26231284"/>
    <nd ref="1165936921"/>
    <nd ref="1165934938"/>
    <nd ref="1165832625"/>
    <nd ref="64860554"/>
    <tag k="highway" v="residential"/>
    <tag k="name" v="Nedvědovo náměstí"/>
    <tag k="source:name" v="nameit/uir-adr"/>
  </way>
  <way id="8885555" version="3" timestamp="2008-09-16T10:13:19Z" uid="1066" user="pavel" changeset="646258">
    <nd ref="26781655"/>
    <nd ref="64860559"/>
    <nd ref="64860563"/>
    <nd ref="64860566"/>
    <nd ref="64860567"/>
    <nd ref="64860572"/>
    <nd ref="26781657"/>
    <nd ref="26781656"/>
    <tag k="highway" v="residential"/>
    <tag k="name" v="U vápenné skály"/>
    <tag k="name:source" v="nameit/uir-adr"/>
  </way>
  <way id="8885555" version="4" timestamp="2008-09-16T13:19:49Z" uid="3516" user="BiIbo" changeset="646590">
    <nd ref="26781655"/>
    <nd ref="64860559"/>
    <nd ref="64860563"/>
    <nd ref="64860566"/>
    <nd ref="64860567"/>
    <nd ref="64860572"/>
    <nd ref="26781657"/>
    <nd ref="26781656"/>
    <tag k="highway" v="residential"/>
    <tag k="name" v="U Vápenné skály"/>
    <tag k="name:source" v="nameit/uir-adr"/>
  </way>
  <way id="8885555" version="5" timestamp="2008-10-26T04:21:40Z" uid="3516" user="BiIbo" changeset="582911">
    <nd ref="26781655"/>
    <nd ref="64860559"/>
    <nd ref="64860563"/>
    <nd ref="64860566"/>
    <nd ref="64860567"/>
    <nd ref="64860572"/>
    <nd ref="26781657"/>
    <nd ref="26781656"/>
    <tag k="highway" v="residential"/>
    <tag k="name" v="U Vápenné skály"/>
    <tag k="source:name" v="nameit/uir-adr"/>
  </way>
  <way id="8885555" version="6" timestamp="2010-02-08T20:54:41Z" uid="17615" user="Petr Dlouhý" changeset="3826962">
    <nd ref="26781655"/>
    <nd ref="64860559"/>
    <nd ref="633612031"/>
    <nd ref="64860563"/>
    <nd ref="633612078"/>
    <nd ref="64860566"/>
    <nd ref="64860567"/>
    <nd ref="64860572"/>
    <nd ref="26781657"/>
    <nd ref="26781656"/>
    <tag k="highway" v="residential"/>
    <tag k="name" v="U Vápenné skály"/>
    <tag k="source:name" v="nameit/uir-adr"/>
  </way>
  <way id="8885556" version="3" timestamp="2008-09-16T10:10:08Z" uid="1066" user="pavel" changeset="646258">
    <nd ref="26781653"/>
    <nd ref="64860576"/>
    <nd ref="64860579"/>
    <nd ref="64860582"/>
    <nd ref="64860585"/>
    <nd ref="64860588"/>
    <nd ref="64860847"/>
    <nd ref="64860840"/>
    <tag k="highway" v="residential"/>
    <tag k="name" v="Podolská"/>
    <tag k="name:source" v="nameit/uir-adr"/>
  </way>
  <way id="8885556" version="4" timestamp="2008-10-26T04:21:39Z" uid="3516" user="BiIbo" changeset="582911">
    <nd ref="26781653"/>
    <nd ref="64860576"/>
    <nd ref="64860579"/>
    <nd ref="64860582"/>
    <nd ref="64860585"/>
    <nd ref="64860588"/>
    <nd ref="64860847"/>
    <nd ref="64860840"/>
    <tag k="highway" v="residential"/>
    <tag k="name" v="Podolská"/>
    <tag k="source:name" v="nameit/uir-adr"/>
  </way>
  <way id="8885556" version="5" timestamp="2008-12-05T02:38:40Z" uid="3516" user="BiIbo" changeset="120598">
    <nd ref="26781653"/>
    <nd ref="64860576"/>
    <nd ref="64860579"/>
    <nd ref="64860582"/>
    <nd ref="64860585"/>
    <nd ref="64860588"/>
    <nd ref="64860847"/>
    <nd ref="64860840"/>
    <nd ref="316728988"/>
    <nd ref="316728987"/>
    <nd ref="316728986"/>
    <nd ref="316728985"/>
    <nd ref="316728984"/>
    <nd ref="316728983"/>
    <tag k="highway" v="residential"/>
    <tag k="name" v="Podolská"/>
    <tag k="source:name" v="nameit/uir-adr"/>
  </way>
  <way id="8885556" version="6" timestamp="2008-12-05T02:40:11Z" uid="3516" user="BiIbo" changeset="120598">
    <nd ref="26781653"/>
    <nd ref="64860576"/>
    <nd ref="64860579"/>
    <nd ref="64860582"/>
    <nd ref="64860585"/>
    <nd ref="64860588"/>
    <nd ref="64860847"/>
    <nd ref="64860840"/>
    <nd ref="316729069"/>
    <nd ref="316728988"/>
    <nd ref="316728987"/>
    <nd ref="316728986"/>
    <nd ref="316728985"/>
    <nd ref="316728984"/>
    <nd ref="316728983"/>
    <tag k="highway" v="residential"/>
    <tag k="name" v="Podolská"/>
    <tag k="source:name" v="nameit/uir-adr"/>
  </way>
  <way id="8885556" version="7" timestamp="2008-12-05T12:29:14Z" uid="3516" user="BiIbo" changeset="123529">
    <nd ref="26781653"/>
    <nd ref="64860576"/>
    <nd ref="316775547"/>
    <nd ref="316775546"/>
    <nd ref="64860579"/>
    <nd ref="64860582"/>
    <nd ref="64860585"/>
    <nd ref="316775545"/>
    <nd ref="64860588"/>
    <nd ref="64860847"/>
    <nd ref="64860840"/>
    <nd ref="316729069"/>
    <nd ref="316728988"/>
    <nd ref="316728987"/>
    <nd ref="316728986"/>
    <nd ref="316728985"/>
    <nd ref="316728984"/>
    <nd ref="316728983"/>
    <tag k="highway" v="residential"/>
    <tag k="name" v="Podolská"/>
    <tag k="source:name" v="nameit/uir-adr"/>
  </way>
  <way id="8885556" version="8" timestamp="2009-04-26T19:30:37Z" uid="8007" user="vrabcak" changeset="980052">
    <nd ref="26781653"/>
    <nd ref="64860576"/>
    <nd ref="316775547"/>
    <nd ref="316775546"/>
    <nd ref="64860579"/>
    <nd ref="64860582"/>
    <nd ref="64860585"/>
    <nd ref="316775545"/>
    <nd ref="64860588"/>
    <nd ref="64860847"/>
    <nd ref="64860840"/>
    <tag k="highway" v="residential"/>
    <tag k="name" v="Podolská"/>
    <tag k="source:name" v="nameit/uir-adr"/>
  </way>
  <way id="8885556" version="9" timestamp="2009-04-26T19:31:11Z" uid="8007" user="vrabcak" changeset="980052">
    <nd ref="26781653"/>
    <nd ref="64860576"/>
    <nd ref="316775547"/>
    <nd ref="316775546"/>
    <nd ref="64860579"/>
    <nd ref="64860582"/>
    <nd ref="64860585"/>
    <nd ref="316775545"/>
    <nd ref="64860588"/>
    <tag k="highway" v="residential"/>
    <tag k="name" v="Podolská"/>
    <tag k="source:name" v="nameit/uir-adr"/>
  </way>
  <way id="8885556" version="10" timestamp="2011-12-18T11:52:19Z" uid="527259" user="Vratislav Filler" changeset="10145694">
    <nd ref="26781653"/>
    <nd ref="64860576"/>
    <nd ref="316775547"/>
    <nd ref="316775546"/>
    <nd ref="64860579"/>
    <nd ref="64860582"/>
    <nd ref="64860585"/>
    <nd ref="316775545"/>
    <nd ref="1551810995"/>
    <nd ref="64860588"/>
    <tag k="highway" v="residential"/>
    <tag k="name" v="Podolská"/>
    <tag k="source:name" v="nameit/uir-adr"/>
  </way>
  <way id="8885560" version="3" timestamp="2008-09-16T10:11:33Z" uid="1066" user="pavel" changeset="646258">
    <nd ref="64860881"/>
    <nd ref="64860871"/>
    <nd ref="64860863"/>
    <nd ref="64860854"/>
    <nd ref="64860847"/>
    <tag k="highway" v="residential"/>
    <tag k="name" v="Jeremenkova"/>
    <tag k="name:source" v="nameit/uir-adr"/>
  </way>
  <way id="8885560" version="4" timestamp="2009-03-14T17:04:22Z" uid="3516" user="BiIbo" changeset="807112">
    <nd ref="64860881"/>
    <nd ref="64860871"/>
    <nd ref="64860863"/>
    <nd ref="64860854"/>
    <nd ref="64860847"/>
    <tag k="highway" v="residential"/>
    <tag k="name" v="Jeremenkova"/>
    <tag k="source:name" v="nameit/uir-adr"/>
  </way>
  <way id="8885560" version="5" timestamp="2009-04-26T19:30:22Z" uid="8007" user="vrabcak" changeset="980052">
    <nd ref="64860881"/>
    <nd ref="64860871"/>
    <nd ref="64860863"/>
    <nd ref="64860854"/>
    <nd ref="64860847"/>
    <tag k="highway" v="residential"/>
    <tag k="name" v="Jeremenkova"/>
    <tag k="oneway" v="yes"/>
    <tag k="source:name" v="nameit/uir-adr"/>
  </way>
  <way id="8885560" version="6" timestamp="2009-04-26T20:33:02Z" uid="8007" user="vrabcak" changeset="981133">
    <nd ref="64860881"/>
    <nd ref="385559414"/>
    <nd ref="64860871"/>
    <nd ref="64860863"/>
    <nd ref="64860854"/>
    <nd ref="64860847"/>
    <tag k="highway" v="residential"/>
    <tag k="name" v="Jeremenkova"/>
    <tag k="oneway" v="yes"/>
    <tag k="source:name" v="nameit/uir-adr"/>
  </way>
  <way id="8885560" version="7" timestamp="2011-03-09T21:50:00Z" uid="162736" user="honzour" changeset="7509118">
    <nd ref="64860881"/>
    <nd ref="385559414"/>
    <nd ref="1194657244"/>
    <nd ref="64860871"/>
    <nd ref="64860863"/>
    <nd ref="64860854"/>
    <nd ref="64860847"/>
    <tag k="highway" v="residential"/>
    <tag k="name" v="Jeremenkova"/>
    <tag k="oneway" v="yes"/>
    <tag k="source:name" v="nameit/uir-adr"/>
  </way>
  <way id="8885561" version="3" timestamp="2008-09-16T10:15:26Z" uid="1066" user="pavel" changeset="646258">
    <nd ref="64860871"/>
    <nd ref="64860891"/>
    <nd ref="64860894"/>
    <nd ref="64860588"/>
    <tag k="highway" v="residential"/>
    <tag k="name" v="Podolská"/>
    <tag k="name:source" v="nameit/uir-adr"/>
  </way>
  <way id="8885561" version="4" timestamp="2009-03-14T17:04:22Z" uid="3516" user="BiIbo" changeset="807112">
    <nd ref="64860871"/>
    <nd ref="64860891"/>
    <nd ref="64860894"/>
    <nd ref="64860588"/>
    <tag k="highway" v="residential"/>
    <tag k="name" v="Podolská"/>
    <tag k="source:name" v="nameit/uir-adr"/>
  </way>
  <way id="8885561" version="5" timestamp="2009-04-26T19:30:31Z" uid="8007" user="vrabcak" changeset="980052">
    <nd ref="64860871"/>
    <nd ref="64860891"/>
    <nd ref="64860894"/>
    <nd ref="64860588"/>
    <tag k="highway" v="residential"/>
    <tag k="name" v="Podolská"/>
    <tag k="oneway" v="yes"/>
    <tag k="source:name" v="nameit/uir-adr"/>
  </way>
  <way id="8885562" version="3" timestamp="2008-09-16T10:12:17Z" uid="1066" user="pavel" changeset="646258">
    <nd ref="26781663"/>
    <nd ref="64860901"/>
    <nd ref="64860909"/>
    <nd ref="64860914"/>
    <nd ref="64860921"/>
    <nd ref="26231281"/>
    <tag k="highway" v="residential"/>
    <tag k="name" v="Podolská"/>
    <tag k="name:source" v="nameit/uir-adr"/>
  </way>
  <way id="8885562" version="4" timestamp="2008-10-26T04:21:36Z" uid="3516" user="BiIbo" changeset="582911">
    <nd ref="26781663"/>
    <nd ref="64860901"/>
    <nd ref="64860909"/>
    <nd ref="64860914"/>
    <nd ref="64860921"/>
    <nd ref="26231281"/>
    <tag k="highway" v="residential"/>
    <tag k="name" v="Podolská"/>
    <tag k="source:name" v="nameit/uir-adr"/>
  </way>
  <way id="8885562" version="5" timestamp="2011-02-21T22:03:02Z" uid="3516" user="BiIbo" changeset="7357800">
    <nd ref="26781663"/>
    <nd ref="64860901"/>
    <nd ref="64860909"/>
    <nd ref="64860914"/>
    <nd ref="1165833406"/>
    <nd ref="64860921"/>
    <nd ref="26231281"/>
    <tag k="highway" v="residential"/>
    <tag k="name" v="Podolská"/>
    <tag k="source:name" v="nameit/uir-adr"/>
  </way>
  <way id="8885562" version="6" timestamp="2011-12-18T11:52:20Z" uid="527259" user="Vratislav Filler" changeset="10145694">
    <nd ref="26781663"/>
    <nd ref="1551811067"/>
    <nd ref="64860901"/>
    <nd ref="1551811075"/>
    <nd ref="64860909"/>
    <nd ref="64860914"/>
    <nd ref="1165833406"/>
    <nd ref="64860921"/>
    <nd ref="26231281"/>
    <tag k="highway" v="residential"/>
    <tag k="name" v="Podolská"/>
    <tag k="source:name" v="nameit/uir-adr"/>
  </way>
  <way id="8885563" version="4" timestamp="2008-09-16T10:12:41Z" uid="1066" user="pavel" changeset="646258">
    <nd ref="64815125"/>
    <nd ref="64860931"/>
    <nd ref="64860937"/>
    <nd ref="64860945"/>
    <nd ref="64860955"/>
    <nd ref="64860961"/>
    <nd ref="64860969"/>
    <nd ref="64860978"/>
    <nd ref="64815143"/>
    <tag k="highway" v="residential"/>
    <tag k="name" v="Levá"/>
    <tag k="name:source" v="nameit/uir-adr"/>
  </way>
  <way id="8885563" version="5" timestamp="2008-10-26T04:21:36Z" uid="3516" user="BiIbo" changeset="582911">
    <nd ref="64815125"/>
    <nd ref="64860931"/>
    <nd ref="64860937"/>
    <nd ref="64860945"/>
    <nd ref="64860955"/>
    <nd ref="64860961"/>
    <nd ref="64860969"/>
    <nd ref="64860978"/>
    <nd ref="64815143"/>
    <tag k="highway" v="residential"/>
    <tag k="name" v="Levá"/>
    <tag k="source:name" v="nameit/uir-adr"/>
  </way>
  <way id="8885563" version="6" timestamp="2010-05-16T18:37:43Z" uid="17615" user="Petr Dlouhý" changeset="4720857">
    <nd ref="64815125"/>
    <nd ref="64860931"/>
    <nd ref="64860937"/>
    <nd ref="64860945"/>
    <nd ref="64860955"/>
    <nd ref="64860961"/>
    <nd ref="64860969"/>
    <tag k="highway" v="residential"/>
    <tag k="name" v="Levá"/>
    <tag k="source:name" v="nameit/uir-adr"/>
  </way>
  <way id="8885563" version="7" timestamp="2011-02-21T22:03:13Z" uid="3516" user="BiIbo" changeset="7357800">
    <nd ref="64815125"/>
    <nd ref="64860931"/>
    <nd ref="1165832734"/>
    <nd ref="64860937"/>
    <nd ref="1165833408"/>
    <nd ref="64860945"/>
    <nd ref="1165832669"/>
    <nd ref="64860955"/>
    <nd ref="64860961"/>
    <nd ref="64860969"/>
    <tag k="highway" v="residential"/>
    <tag k="name" v="Levá"/>
    <tag k="source:name" v="nameit/uir-adr"/>
  </way>
  <way id="8885563" version="8" timestamp="2011-02-21T23:01:03Z" uid="3516" user="BiIbo" changeset="7357800">
    <nd ref="64815125"/>
    <nd ref="64860931"/>
    <nd ref="1165929329"/>
    <nd ref="1165832734"/>
    <nd ref="64860937"/>
    <nd ref="1165833408"/>
    <nd ref="1165929385"/>
    <nd ref="64860945"/>
    <nd ref="1165832669"/>
    <nd ref="64860955"/>
    <nd ref="64860961"/>
    <nd ref="64860969"/>
    <tag k="highway" v="residential"/>
    <tag k="name" v="Levá"/>
    <tag k="source:name" v="nameit/uir-adr"/>
  </way>
  <way id="8885563" version="9" timestamp="2012-02-23T19:46:02Z" uid="527259" user="Vratislav Filler" changeset="10771759">
    <nd ref="64815125"/>
    <nd ref="64860931"/>
    <nd ref="1165929329"/>
    <nd ref="1165832734"/>
    <nd ref="64860937"/>
    <nd ref="1165833408"/>
    <nd ref="1165929385"/>
    <nd ref="64860945"/>
    <nd ref="1165832669"/>
    <nd ref="64860955"/>
    <tag k="highway" v="residential"/>
    <tag k="name" v="Levá"/>
    <tag k="oneway" v="yes"/>
    <tag k="source:name" v="nameit/uir-adr"/>
  </way>
  <way id="8885564" version="3" timestamp="2008-09-16T10:10:15Z" uid="1066" user="pavel" changeset="646258">
    <nd ref="26231282"/>
    <nd ref="64860955"/>
    <tag k="highway" v="residential"/>
    <tag k="name" v="Výchozí"/>
    <tag k="name:source" v="nameit/uir-adr"/>
  </way>
  <way id="8885564" version="4" timestamp="2008-10-26T04:21:35Z" uid="3516" user="BiIbo" changeset="582911">
    <nd ref="26231282"/>
    <nd ref="64860955"/>
    <tag k="highway" v="residential"/>
    <tag k="name" v="Výchozí"/>
    <tag k="source:name" v="nameit/uir-adr"/>
  </way>
  <way id="8885565" version="3" timestamp="2008-09-16T10:15:18Z" uid="1066" user="pavel" changeset="646258">
    <nd ref="64860961"/>
    <nd ref="64860914"/>
    <tag k="highway" v="residential"/>
    <tag k="name" v="Podolská"/>
    <tag k="name:source" v="nameit/uir-adr"/>
  </way>
  <way id="8885565" version="4" timestamp="2008-10-26T04:21:34Z" uid="3516" user="BiIbo" changeset="582911">
    <nd ref="64860961"/>
    <nd ref="64860914"/>
    <tag k="highway" v="residential"/>
    <tag k="name" v="Podolská"/>
    <tag k="source:name" v="nameit/uir-adr"/>
  </way>
  <way id="8885566" version="3" timestamp="2008-09-16T10:12:31Z" uid="1066" user="pavel" changeset="646258">
    <nd ref="64860909"/>
    <nd ref="64860969"/>
    <tag k="highway" v="residential"/>
    <tag k="name" v="Pravá"/>
    <tag k="name:source" v="nameit/uir-adr"/>
  </way>
  <way id="8885566" version="4" timestamp="2008-10-26T04:21:34Z" uid="3516" user="BiIbo" changeset="582911">
    <nd ref="64860909"/>
    <nd ref="64860969"/>
    <tag k="highway" v="residential"/>
    <tag k="name" v="Pravá"/>
    <tag k="source:name" v="nameit/uir-adr"/>
  </way>
  <way id="8885568" version="3" timestamp="2008-09-01T21:13:06Z" uid="1066" user="pavel" changeset="487002">
    <nd ref="64861126"/>
    <nd ref="64861131"/>
    <tag k="highway" v="residential"/>
    <tag k="layer" v="-1"/>
    <tag k="name" v="V pevnosti"/>
    <tag k="name:source" v="nameit/uir-adr"/>
    <tag k="tunnel" v="yes"/>
  </way>
  <way id="8885568" version="4" timestamp="2008-09-01T21:14:43Z" uid="11629" user="Stanislav Brabec" changeset="487998">
    <nd ref="64861126"/>
    <nd ref="64861131"/>
    <tag k="highway" v="residential"/>
    <tag k="layer" v="-1"/>
    <tag k="motorcar" v="destination"/>
    <tag k="tunnel" v="yes"/>
  </way>
  <way id="8885568" version="5" timestamp="2008-09-04T23:25:18Z" uid="1066" user="pavel" changeset="533817">
    <nd ref="64861126"/>
    <nd ref="64861131"/>
    <tag k="highway" v="residential"/>
    <tag k="layer" v="-1"/>
    <tag k="motorcar" v="destination"/>
    <tag k="name" v="V pevnosti"/>
    <tag k="name:source" v="nameit/uir-adr"/>
    <tag k="tunnel" v="yes"/>
  </way>
  <way id="8885568" version="6" timestamp="2008-09-16T12:58:42Z" uid="3516" user="BiIbo" changeset="646590">
    <nd ref="64861126"/>
    <nd ref="64861131"/>
    <tag k="highway" v="residential"/>
    <tag k="layer" v="-1"/>
    <tag k="motorcar" v="destination"/>
    <tag k="name" v="V Pevnosti"/>
    <tag k="name:source" v="nameit/uir-adr"/>
    <tag k="tunnel" v="yes"/>
  </way>
  <way id="8885568" version="7" timestamp="2008-10-06T07:51:39Z" uid="11629" user="Stanislav Brabec" changeset="105872">
    <nd ref="64861126"/>
    <nd ref="64861131"/>
    <tag k="highway" v="residential"/>
    <tag k="layer" v="-1"/>
    <tag k="motorcar" v="private"/>
    <tag k="name" v="V Pevnosti"/>
    <tag k="name:source" v="nameit/uir-adr"/>
    <tag k="oneway" v="yes"/>
    <tag k="tunnel" v="yes"/>
  </way>
  <way id="8885568" version="8" timestamp="2008-10-15T19:43:32Z" uid="11629" user="Stanislav Brabec" changeset="354368">
    <nd ref="64861126"/>
    <nd ref="64861131"/>
    <tag k="access" v="private"/>
    <tag k="foot" v="yes"/>
    <tag k="highway" v="residential"/>
    <tag k="layer" v="-1"/>
    <tag k="name" v="V Pevnosti"/>
    <tag k="name:source" v="nameit/uir-adr"/>
    <tag k="oneway" v="yes"/>
    <tag k="surface" v="cobblestone"/>
    <tag k="tunnel" v="yes"/>
  </way>
  <way id="8885568" version="9" timestamp="2009-03-14T18:04:05Z" uid="3516" user="BiIbo" changeset="807112">
    <nd ref="64861126"/>
    <nd ref="64861131"/>
    <tag k="access" v="private"/>
    <tag k="foot" v="yes"/>
    <tag k="highway" v="residential"/>
    <tag k="layer" v="-1"/>
    <tag k="name" v="V Pevnosti"/>
    <tag k="oneway" v="yes"/>
    <tag k="source:name" v="nameit/uir-adr"/>
    <tag k="surface" v="cobblestone"/>
    <tag k="tunnel" v="yes"/>
  </way>
  <way id="8885568" version="10" timestamp="2010-03-04T08:58:18Z" uid="11629" user="Stanislav Brabec" changeset="4030979">
    <nd ref="64861126"/>
    <nd ref="64861131"/>
    <tag k="access" v="private"/>
    <tag k="foot" v="yes"/>
    <tag k="highway" v="residential"/>
    <tag k="layer" v="-1"/>
    <tag k="oneway" v="yes"/>
    <tag k="source:name" v="nameit/uir-adr"/>
    <tag k="surface" v="cobblestone"/>
    <tag k="tunnel" v="yes"/>
  </way>
  <way id="8885568" version="11" timestamp="2010-03-08T18:47:16Z" uid="11629" user="Stanislav Brabec" changeset="4074487">
    <nd ref="64861126"/>
    <nd ref="64861131"/>
    <tag k="access" v="private"/>
    <tag k="foot" v="yes"/>
    <tag k="highway" v="residential"/>
    <tag k="oneway" v="yes"/>
    <tag k="source:name" v="nameit/uir-adr"/>
    <tag k="surface" v="cobblestone"/>
  </way>
  <way id="8885568" version="12" timestamp="2010-03-28T15:54:39Z" uid="3516" user="BiIbo" changeset="4258303">
    <nd ref="64861126"/>
    <nd ref="676786955"/>
    <tag k="access" v="private"/>
    <tag k="foot" v="yes"/>
    <tag k="highway" v="residential"/>
    <tag k="oneway" v="yes"/>
    <tag k="source:name" v="nameit/uir-adr"/>
    <tag k="surface" v="cobblestone"/>
  </way>
  <way id="8885570" version="3" timestamp="2008-09-16T10:13:35Z" uid="1066" user="pavel" changeset="646258">
    <nd ref="33432030"/>
    <nd ref="64861158"/>
    <nd ref="64861163"/>
    <nd ref="64861168"/>
    <tag k="highway" v="residential"/>
    <tag k="name" v="Na Topolce"/>
    <tag k="name:source" v="nameit/uir-adr"/>
  </way>
  <way id="8885570" version="4" timestamp="2008-10-26T04:21:31Z" uid="3516" user="BiIbo" changeset="582911">
    <nd ref="33432030"/>
    <nd ref="64861158"/>
    <nd ref="64861163"/>
    <nd ref="64861168"/>
    <tag k="highway" v="residential"/>
    <tag k="name" v="Na Topolce"/>
    <tag k="source:name" v="nameit/uir-adr"/>
  </way>
  <way id="8885570" version="5" timestamp="2009-03-14T18:04:06Z" uid="3516" user="BiIbo" changeset="807112">
    <nd ref="33432030"/>
    <nd ref="64861158"/>
    <nd ref="64861163"/>
    <nd ref="316769669"/>
    <tag k="highway" v="residential"/>
    <tag k="name" v="Na Topolce"/>
    <tag k="source:name" v="nameit/uir-adr"/>
  </way>
  <way id="8885570" version="6" timestamp="2009-09-20T14:49:34Z" uid="17615" user="Petr Dlouhý" changeset="2546554">
    <nd ref="33432030"/>
    <nd ref="64861158"/>
    <nd ref="64861163"/>
    <nd ref="316769669"/>
    <nd ref="503341675"/>
    <nd ref="503341676"/>
    <tag k="highway" v="residential"/>
    <tag k="name" v="Na Topolce"/>
    <tag k="source:name" v="nameit/uir-adr"/>
  </way>
  <way id="8885572" version="5" timestamp="2008-09-16T10:13:49Z" uid="1066" user="pavel" changeset="646258">
    <nd ref="266942418"/>
    <nd ref="266942860"/>
    <nd ref="64861183"/>
    <tag k="created_by" v="Potlatch 0.9a"/>
    <tag k="highway" v="residential"/>
    <tag k="name" v="Dačického"/>
    <tag k="name:source" v="nameit/uir-adr"/>
  </way>
  <way id="8885572" version="6" timestamp="2008-10-26T04:21:32Z" uid="3516" user="BiIbo" changeset="582911">
    <nd ref="266942418"/>
    <nd ref="266942860"/>
    <nd ref="64861183"/>
    <tag k="created_by" v="Potlatch 0.9a"/>
    <tag k="highway" v="residential"/>
    <tag k="name" v="Dačického"/>
    <tag k="source:name" v="nameit/uir-adr"/>
  </way>
  <way id="8885572" version="7" timestamp="2009-02-23T15:50:34Z" uid="3516" user="BiIbo" changeset="633633">
    <nd ref="266942418"/>
    <nd ref="266942860"/>
    <nd ref="64861183"/>
    <tag k="created_by" v="Potlatch 0.9a"/>
    <tag k="highway" v="residential"/>
    <tag k="name" v="Dačického"/>
    <tag k="source:name" v="nameit/uir-adr"/>
  </way>
  <way id="8885572" version="8" timestamp="2010-02-15T20:34:14Z" uid="5547" user="voda" changeset="3886634">
    <nd ref="266942418"/>
    <nd ref="640397673"/>
    <nd ref="266942860"/>
    <nd ref="64861183"/>
    <tag k="highway" v="residential"/>
    <tag k="name" v="Dačického"/>
    <tag k="source:name" v="nameit/uir-adr"/>
  </way>
  <way id="8885576" version="6" timestamp="2009-10-07T16:27:18Z" uid="86259" user="hasse_osm_korinthenkacker" changeset="2773374">
    <nd ref="64861755"/>
    <nd ref="64861768"/>
    <nd ref="269871290"/>
    <nd ref="64861779"/>
    <nd ref="72852104"/>
    <tag k="highway" v="secondary"/>
    <tag k="name" v="Buscherbahn"/>
    <tag k="ref" v="L 227"/>
  </way>
  <way id="8885576" version="7" timestamp="2010-02-06T07:27:54Z" uid="46828" user="GB_Germany_Vie" changeset="3803002">
    <nd ref="64861755"/>
    <nd ref="631421963"/>
    <nd ref="64861768"/>
    <nd ref="269871290"/>
    <nd ref="64861779"/>
    <nd ref="72852104"/>
    <tag k="highway" v="secondary"/>
    <tag k="name" v="Buscherbahn"/>
    <tag k="ref" v="L 227"/>
  </way>
  <way id="8885576" version="8" timestamp="2010-12-27T18:33:20Z" uid="367219" user="seymour38" changeset="6780714">
    <nd ref="64861755"/>
    <nd ref="631421963"/>
    <nd ref="64861768"/>
    <nd ref="269871290"/>
    <tag k="highway" v="secondary"/>
    <tag k="name" v="Buscherbahn"/>
    <tag k="ref" v="L 227"/>
  </way>
  <way id="8885576" version="9" timestamp="2010-12-28T14:38:06Z" uid="48890" user="langerweher" changeset="6788867">
    <nd ref="64861755"/>
    <nd ref="1069244854"/>
    <nd ref="631421963"/>
    <nd ref="64861768"/>
    <nd ref="269871290"/>
    <tag k="highway" v="secondary"/>
    <tag k="name" v="Buscherbahn"/>
    <tag k="ref" v="L 227"/>
  </way>
  <way id="8885576" version="10" timestamp="2010-12-28T15:11:28Z" uid="48890" user="langerweher" changeset="6789176">
    <nd ref="64861755"/>
    <nd ref="1069244854"/>
    <nd ref="631421963"/>
    <nd ref="64861768"/>
    <nd ref="1069280656"/>
    <nd ref="1069280774"/>
    <nd ref="269871290"/>
    <tag k="highway" v="secondary"/>
    <tag k="name" v="Buscherbahn"/>
    <tag k="ref" v="L 227"/>
  </way>
  <way id="8885577" version="2" timestamp="2009-10-07T16:27:18Z" uid="86259" user="hasse_osm_korinthenkacker" changeset="2773374">
    <nd ref="64861779"/>
    <nd ref="64861871"/>
    <nd ref="64861858"/>
    <tag k="highway" v="residential"/>
    <tag k="maxspeed" v="30"/>
    <tag k="name" v="Danziger Straße"/>
  </way>
  <way id="8885577" version="3" timestamp="2010-12-28T14:38:07Z" uid="48890" user="langerweher" changeset="6788867">
    <nd ref="64861779"/>
    <nd ref="64861871"/>
    <nd ref="64861858"/>
    <nd ref="357894039"/>
    <tag k="highway" v="residential"/>
    <tag k="maxspeed" v="30"/>
    <tag k="name" v="Danziger Straße"/>
  </way>
  <way id="8885578" version="2" timestamp="2009-10-07T16:27:18Z" uid="86259" user="hasse_osm_korinthenkacker" changeset="2773374">
    <nd ref="64861791"/>
    <nd ref="64861824"/>
    <nd ref="64861844"/>
    <nd ref="64861835"/>
    <nd ref="64861850"/>
    <nd ref="64861811"/>
    <nd ref="64861791"/>
    <tag k="amenity" v="parking"/>
  </way>
  <way id="8885580" version="2" timestamp="2009-10-07T16:27:18Z" uid="86259" user="hasse_osm_korinthenkacker" changeset="2773374">
    <nd ref="64861844"/>
    <nd ref="64861799"/>
    <tag k="highway" v="service"/>
  </way>
  <way id="8885581" version="2" timestamp="2009-10-07T16:27:18Z" uid="86259" user="hasse_osm_korinthenkacker" changeset="2773374">
    <nd ref="64861858"/>
    <nd ref="64861850"/>
    <tag k="highway" v="service"/>
  </way>
  <way id="8885138" version="4" timestamp="2012-07-21T13:24:03Z" uid="722137" user="OSMF Redaction Account" changeset="12410012">
    <nd ref="1057897621"/>
    <nd ref="64844943"/>
    <nd ref="64844944"/>
    <nd ref="64844945"/>
    <nd ref="64844946"/>
    <nd ref="64844947"/>
    <nd ref="64844948"/>
    <tag k="power" v="line"/>
  </way>
  <way id="8885138" version="5" timestamp="2012-07-21T14:58:42Z" uid="722137" user="OSMF Redaction Account" changeset="12412605"/>
  <way id="8885165" version="3" timestamp="2012-07-21T14:34:06Z" uid="722137" user="OSMF Redaction Account" changeset="12411986"/>
  <way id="8885167" version="3" timestamp="2012-07-21T14:34:05Z" uid="722137" user="OSMF Redaction Account" changeset="12411986"/>
  <way id="8885170" version="3" timestamp="2012-07-01T17:29:06Z" uid="339232" user="Micogen" changeset="12078906">
    <nd ref="64846200"/>
    <nd ref="1809090323"/>
    <nd ref="64847710"/>
    <nd ref="64847277"/>
    <tag k="power" v="line"/>
  </way>
  <way id="8885170" version="4" timestamp="2012-07-21T14:34:05Z" uid="722137" user="OSMF Redaction Account" changeset="12411986"/>
  <way id="8885172" version="3" timestamp="2012-07-01T17:29:06Z" uid="339232" user="Micogen" changeset="12078906">
    <nd ref="64847277"/>
    <nd ref="1809090322"/>
    <nd ref="64847855"/>
    <tag k="power" v="line"/>
  </way>
  <way id="8885172" version="4" timestamp="2012-07-21T15:16:52Z" uid="722137" user="OSMF Redaction Account" changeset="12413131"/>
  <way id="8885554" version="9" timestamp="2012-07-11T16:23:25Z" uid="653914" user="Tomada" changeset="12187683">
    <nd ref="26231284"/>
    <nd ref="1165936921"/>
    <nd ref="1165934938"/>
    <nd ref="1165832625"/>
    <nd ref="64860554"/>
    <tag k="highway" v="residential"/>
    <tag k="name" v="Nedvědovo náměstí"/>
    <tag k="oneway" v="yes"/>
    <tag k="source:name" v="nameit/uir-adr"/>
  </way>
  <way id="8885555" version="7" timestamp="2012-09-04T07:29:23Z" uid="774982" user="pardak" changeset="12977765">
    <nd ref="26781655"/>
    <nd ref="64860559"/>
    <nd ref="633612031"/>
    <nd ref="64860563"/>
    <nd ref="633612078"/>
    <nd ref="64860566"/>
    <nd ref="64860567"/>
    <nd ref="64860572"/>
    <nd ref="26781657"/>
    <nd ref="26781656"/>
    <tag k="access" v="no"/>
    <tag k="bicycle" v="no"/>
    <tag k="foot" v="no"/>
    <tag k="highway" v="residential"/>
    <tag k="motor_vehicle" v="no"/>
    <tag k="source:name" v="nameit/uir-adr"/>
  </way>
  <way id="8885556" version="11" timestamp="2012-07-08T09:55:35Z" uid="527259" user="Vratislav Filler" changeset="12147798">
    <nd ref="26781653"/>
    <nd ref="64860576"/>
    <nd ref="316775547"/>
    <nd ref="316775546"/>
    <nd ref="64860579"/>
    <nd ref="64860582"/>
    <nd ref="64860585"/>
    <nd ref="316775545"/>
    <nd ref="64860588"/>
    <tag k="highway" v="residential"/>
    <tag k="name" v="Podolská"/>
    <tag k="oneway" v="yes"/>
    <tag k="source:name" v="nameit/uir-adr"/>
  </way>
  <way id="8885560" version="8" timestamp="2012-08-21T18:49:43Z" uid="100163" user="Hlav" changeset="12812130">
    <nd ref="64860881"/>
    <nd ref="385559414"/>
    <tag k="highway" v="residential"/>
    <tag k="name" v="Jeremenkova"/>
    <tag k="source:name" v="nameit/uir-adr"/>
  </way>
  <way id="8885562" version="7" timestamp="2012-07-12T11:59:33Z" uid="653914" user="Tomada" changeset="12195154">
    <nd ref="26781663"/>
    <nd ref="1551811067"/>
    <nd ref="64860901"/>
    <nd ref="1551811075"/>
    <nd ref="64860909"/>
    <nd ref="64860914"/>
    <nd ref="1165833406"/>
    <nd ref="26231281"/>
    <tag k="highway" v="residential"/>
    <tag k="name" v="Podolská"/>
    <tag k="source:name" v="nameit/uir-adr"/>
  </way>
  <way id="8885564" version="5" timestamp="2012-07-11T16:26:25Z" uid="653914" user="Tomada" changeset="12187684">
    <nd ref="26231282"/>
    <nd ref="64860955"/>
    <tag k="highway" v="residential"/>
    <tag k="name" v="Výchozí"/>
    <tag k="oneway" v="-1"/>
    <tag k="source:name" v="nameit/uir-adr"/>
  </way>
</osm>
