<?xml version='1.0' encoding='UTF-8'?>
<osm version="0.6" generator="libosmium/2.20.0">
  <way id="89091002" version="1" timestamp="2010-12-11T18:13:38Z" uid="151899" user="Bikeman2000" changeset="6627636">
    <nd ref="1033649657"/>
    <nd ref="1033649976"/>
    <nd ref="1033649809"/>
    <nd ref="1033650579"/>
    <nd ref="1033649657"/>
    <tag k="building" v="yes"/>
  </way>
  <way id="89091002" version="2" timestamp="2011-11-27T19:06:44Z" uid="173844" user="Antikalk" changeset="9970668">
    <nd ref="1033649657"/>
    <nd ref="1033649976"/>
    <nd ref="1520065577"/>
    <nd ref="1033649809"/>
    <nd ref="1033650579"/>
    <nd ref="1033649657"/>
    <tag k="addr:city" v="Duesseldorf"/>
    <tag k="addr:country" v="DE"/>
    <tag k="addr:housenumber" v="150"/>
    <tag k="addr:postcode" v="40545"/>
    <tag k="addr:street" v="Niederkasseler Kirchweg"/>
    <tag k="building" v="yes"/>
    <tag k="source" v="Bing Sat"/>
  </way>
  <way id="89091002" version="3" timestamp="2011-11-28T02:20:41Z" uid="173844" user="Antikalk" changeset="9973944">
    <nd ref="1033649657"/>
    <nd ref="1033649976"/>
    <nd ref="1520065577"/>
    <nd ref="1033649809"/>
    <nd ref="1033650579"/>
    <nd ref="1033649657"/>
    <tag k="addr:city" v="Duesseldorf"/>
    <tag k="addr:country" v="DE"/>
    <tag k="addr:housenumber" v="150"/>
    <tag k="addr:postcode" v="40547"/>
    <tag k="addr:street" v="Niederkasseler Kirchweg"/>
    <tag k="building" v="yes"/>
    <tag k="source" v="Bing Sat"/>
  </way>
  <way id="89091002" version="4" timestamp="2011-12-10T20:21:34Z" uid="173844" user="Antikalk" changeset="10084537">
    <nd ref="1033649657"/>
    <nd ref="1033649976"/>
    <nd ref="1520065577"/>
    <nd ref="1033649809"/>
    <nd ref="1033650579"/>
    <nd ref="1033649657"/>
    <tag k="addr:city" v="Düsseldorf"/>
    <tag k="addr:country" v="DE"/>
    <tag k="addr:housenumber" v="150"/>
    <tag k="addr:postcode" v="40547"/>
    <tag k="addr:street" v="Niederkasseler Kirchweg"/>
    <tag k="building" v="yes"/>
    <tag k="source" v="Bing Sat"/>
  </way>
  <way id="89091002" version="5" timestamp="2011-12-23T22:07:21Z" uid="173844" user="Antikalk" changeset="10190558"/>
  <way id="89091009" version="1" timestamp="2010-12-11T18:13:39Z" uid="151899" user="Bikeman2000" changeset="6627636">
    <nd ref="1033649726"/>
    <nd ref="1033650027"/>
    <nd ref="1033649859"/>
    <nd ref="1033649876"/>
    <nd ref="1033649655"/>
    <nd ref="1033650163"/>
    <nd ref="1033649940"/>
    <nd ref="1033649726"/>
    <tag k="building" v="yes"/>
  </way>
  <way id="89091009" version="2" timestamp="2011-01-07T09:16:02Z" uid="151899" user="Bikeman2000" changeset="6890505">
    <nd ref="1033649726"/>
    <nd ref="1033650027"/>
    <nd ref="1033649859"/>
    <nd ref="1033649876"/>
    <nd ref="1033649655"/>
    <nd ref="1088014393"/>
    <nd ref="1033650163"/>
    <nd ref="1033649940"/>
    <nd ref="1033649726"/>
    <tag k="building" v="yes"/>
  </way>
  <way id="89091009" version="3" timestamp="2011-11-27T19:06:49Z" uid="173844" user="Antikalk" changeset="9970668">
    <nd ref="1033649726"/>
    <nd ref="1033650027"/>
    <nd ref="1520065433"/>
    <nd ref="1033649859"/>
    <nd ref="1033649876"/>
    <nd ref="1033649655"/>
    <nd ref="1088014393"/>
    <nd ref="1033650163"/>
    <nd ref="1033649940"/>
    <nd ref="1033649726"/>
    <tag k="addr:city" v="Duesseldorf"/>
    <tag k="addr:country" v="DE"/>
    <tag k="addr:housenumber" v="87"/>
    <tag k="addr:postcode" v="40545"/>
    <tag k="addr:street" v="Niederkasseler Kirchweg"/>
    <tag k="building" v="yes"/>
    <tag k="source" v="Bing Sat"/>
  </way>
  <way id="89091009" version="4" timestamp="2011-11-28T02:22:17Z" uid="173844" user="Antikalk" changeset="9973944">
    <nd ref="1033649726"/>
    <nd ref="1033650027"/>
    <nd ref="1520065433"/>
    <nd ref="1033649859"/>
    <nd ref="1033649876"/>
    <nd ref="1033649655"/>
    <nd ref="1088014393"/>
    <nd ref="1033650163"/>
    <nd ref="1033649940"/>
    <nd ref="1033649726"/>
    <tag k="addr:city" v="Duesseldorf"/>
    <tag k="addr:country" v="DE"/>
    <tag k="addr:housenumber" v="87"/>
    <tag k="addr:postcode" v="40547"/>
    <tag k="addr:street" v="Niederkasseler Kirchweg"/>
    <tag k="building" v="yes"/>
    <tag k="source" v="Bing Sat"/>
  </way>
  <way id="89091009" version="5" timestamp="2011-12-10T20:22:36Z" uid="173844" user="Antikalk" changeset="10084537">
    <nd ref="1033649726"/>
    <nd ref="1033650027"/>
    <nd ref="1520065433"/>
    <nd ref="1033649859"/>
    <nd ref="1033649876"/>
    <nd ref="1033649655"/>
    <nd ref="1033650163"/>
    <nd ref="1033649940"/>
    <nd ref="1033649726"/>
    <tag k="addr:city" v="Düsseldorf"/>
    <tag k="addr:country" v="DE"/>
    <tag k="addr:housenumber" v="87"/>
    <tag k="addr:postcode" v="40547"/>
    <tag k="addr:street" v="Niederkasseler Kirchweg"/>
    <tag k="building" v="yes"/>
    <tag k="source" v="Bing Sat"/>
  </way>
  <way id="89091009" version="6" timestamp="2011-12-23T15:56:54Z" uid="173844" user="Antikalk" changeset="10188011"/>
  <way id="89091012" version="1" timestamp="2010-12-11T18:13:39Z" uid="151899" user="Bikeman2000" changeset="6627636">
    <nd ref="1033650154"/>
    <nd ref="1033650585"/>
    <nd ref="1033650435"/>
    <nd ref="1033649692"/>
    <nd ref="1033650154"/>
    <tag k="building" v="yes"/>
  </way>
  <way id="89091012" version="2" timestamp="2011-11-27T19:06:59Z" uid="173844" user="Antikalk" changeset="9970668"/>
  <way id="89091016" version="1" timestamp="2010-12-11T18:13:40Z" uid="151899" user="Bikeman2000" changeset="6627636">
    <nd ref="1033650616"/>
    <nd ref="1033649946"/>
    <nd ref="1033649787"/>
    <nd ref="1033650521"/>
    <nd ref="1033650616"/>
    <tag k="building" v="yes"/>
  </way>
  <way id="89091016" version="2" timestamp="2011-11-27T19:06:43Z" uid="173844" user="Antikalk" changeset="9970668">
    <nd ref="1033650616"/>
    <nd ref="1033649946"/>
    <nd ref="1033649787"/>
    <nd ref="1033650521"/>
    <nd ref="1520065608"/>
    <nd ref="1033650616"/>
    <tag k="addr:city" v="Duesseldorf"/>
    <tag k="addr:country" v="DE"/>
    <tag k="addr:housenumber" v="144"/>
    <tag k="addr:postcode" v="40545"/>
    <tag k="addr:street" v="Niederkasseler Kirchweg"/>
    <tag k="building" v="yes"/>
    <tag k="source" v="Bing Sat"/>
  </way>
  <way id="89091016" version="3" timestamp="2011-11-28T02:20:38Z" uid="173844" user="Antikalk" changeset="9973944">
    <nd ref="1033650616"/>
    <nd ref="1033649946"/>
    <nd ref="1033649787"/>
    <nd ref="1033650521"/>
    <nd ref="1520065608"/>
    <nd ref="1033650616"/>
    <tag k="addr:city" v="Duesseldorf"/>
    <tag k="addr:country" v="DE"/>
    <tag k="addr:housenumber" v="144"/>
    <tag k="addr:postcode" v="40547"/>
    <tag k="addr:street" v="Niederkasseler Kirchweg"/>
    <tag k="building" v="yes"/>
    <tag k="source" v="Bing Sat"/>
  </way>
  <way id="89091016" version="4" timestamp="2011-12-10T20:21:32Z" uid="173844" user="Antikalk" changeset="10084537">
    <nd ref="1033650616"/>
    <nd ref="1033649946"/>
    <nd ref="1033649787"/>
    <nd ref="1033650521"/>
    <nd ref="1520065608"/>
    <nd ref="1033650616"/>
    <tag k="addr:city" v="Düsseldorf"/>
    <tag k="addr:country" v="DE"/>
    <tag k="addr:housenumber" v="144"/>
    <tag k="addr:postcode" v="40547"/>
    <tag k="addr:street" v="Niederkasseler Kirchweg"/>
    <tag k="building" v="yes"/>
    <tag k="source" v="Bing Sat"/>
  </way>
  <way id="89091016" version="5" timestamp="2011-12-23T22:07:20Z" uid="173844" user="Antikalk" changeset="10190558"/>
  <way id="89091018" version="1" timestamp="2010-12-11T18:13:40Z" uid="151899" user="Bikeman2000" changeset="6627636">
    <nd ref="1033649891"/>
    <nd ref="1033650273"/>
    <nd ref="1033650359"/>
    <nd ref="1033649955"/>
    <nd ref="1033649891"/>
    <tag k="building" v="yes"/>
  </way>
  <way id="89091018" version="2" timestamp="2011-11-27T19:06:42Z" uid="173844" user="Antikalk" changeset="9970668">
    <nd ref="1033649891"/>
    <nd ref="1033650273"/>
    <nd ref="1520065617"/>
    <nd ref="1033650359"/>
    <nd ref="1033649955"/>
    <nd ref="1033649891"/>
    <tag k="addr:city" v="Duesseldorf"/>
    <tag k="addr:country" v="DE"/>
    <tag k="addr:housenumber" v="138"/>
    <tag k="addr:postcode" v="40545"/>
    <tag k="addr:street" v="Niederkasseler Kirchweg"/>
    <tag k="building" v="yes"/>
    <tag k="source" v="Bing Sat"/>
  </way>
  <way id="89091018" version="3" timestamp="2011-11-28T02:20:33Z" uid="173844" user="Antikalk" changeset="9973944">
    <nd ref="1033649891"/>
    <nd ref="1033650273"/>
    <nd ref="1520065617"/>
    <nd ref="1033650359"/>
    <nd ref="1033649955"/>
    <nd ref="1033649891"/>
    <tag k="addr:city" v="Duesseldorf"/>
    <tag k="addr:country" v="DE"/>
    <tag k="addr:housenumber" v="138"/>
    <tag k="addr:postcode" v="40547"/>
    <tag k="addr:street" v="Niederkasseler Kirchweg"/>
    <tag k="building" v="yes"/>
    <tag k="source" v="Bing Sat"/>
  </way>
  <way id="89091018" version="4" timestamp="2011-12-10T20:21:29Z" uid="173844" user="Antikalk" changeset="10084537">
    <nd ref="1033649891"/>
    <nd ref="1033650273"/>
    <nd ref="1520065617"/>
    <nd ref="1033650359"/>
    <nd ref="1033649955"/>
    <nd ref="1033649891"/>
    <tag k="addr:city" v="Düsseldorf"/>
    <tag k="addr:country" v="DE"/>
    <tag k="addr:housenumber" v="138"/>
    <tag k="addr:postcode" v="40547"/>
    <tag k="addr:street" v="Niederkasseler Kirchweg"/>
    <tag k="building" v="yes"/>
    <tag k="source" v="Bing Sat"/>
  </way>
  <way id="89091018" version="5" timestamp="2011-12-23T22:07:20Z" uid="173844" user="Antikalk" changeset="10190558"/>
  <way id="89091020" version="1" timestamp="2010-12-11T18:13:40Z" uid="151899" user="Bikeman2000" changeset="6627636">
    <nd ref="1033649740"/>
    <nd ref="1033650579"/>
    <nd ref="1033649809"/>
    <nd ref="1033649864"/>
    <nd ref="1033649740"/>
    <tag k="building" v="yes"/>
  </way>
  <way id="89091020" version="2" timestamp="2011-11-27T19:06:44Z" uid="173844" user="Antikalk" changeset="9970668">
    <nd ref="1033649740"/>
    <nd ref="1033650579"/>
    <nd ref="1033649809"/>
    <nd ref="1520065582"/>
    <nd ref="1033649864"/>
    <nd ref="1033649740"/>
    <tag k="addr:city" v="Duesseldorf"/>
    <tag k="addr:country" v="DE"/>
    <tag k="addr:housenumber" v="148"/>
    <tag k="addr:postcode" v="40545"/>
    <tag k="addr:street" v="Niederkasseler Kirchweg"/>
    <tag k="building" v="yes"/>
    <tag k="source" v="Bing Sat"/>
  </way>
  <way id="89091020" version="3" timestamp="2011-11-28T02:20:39Z" uid="173844" user="Antikalk" changeset="9973944">
    <nd ref="1033649740"/>
    <nd ref="1033650579"/>
    <nd ref="1033649809"/>
    <nd ref="1520065582"/>
    <nd ref="1033649864"/>
    <nd ref="1033649740"/>
    <tag k="addr:city" v="Duesseldorf"/>
    <tag k="addr:country" v="DE"/>
    <tag k="addr:housenumber" v="148"/>
    <tag k="addr:postcode" v="40547"/>
    <tag k="addr:street" v="Niederkasseler Kirchweg"/>
    <tag k="building" v="yes"/>
    <tag k="source" v="Bing Sat"/>
  </way>
  <way id="89091020" version="4" timestamp="2011-12-10T20:21:32Z" uid="173844" user="Antikalk" changeset="10084537">
    <nd ref="1033649740"/>
    <nd ref="1033650579"/>
    <nd ref="1033649809"/>
    <nd ref="1520065582"/>
    <nd ref="1033649864"/>
    <nd ref="1033649740"/>
    <tag k="addr:city" v="Düsseldorf"/>
    <tag k="addr:country" v="DE"/>
    <tag k="addr:housenumber" v="148"/>
    <tag k="addr:postcode" v="40547"/>
    <tag k="addr:street" v="Niederkasseler Kirchweg"/>
    <tag k="building" v="yes"/>
    <tag k="source" v="Bing Sat"/>
  </way>
  <way id="89091020" version="5" timestamp="2011-12-23T22:07:21Z" uid="173844" user="Antikalk" changeset="10190558"/>
  <way id="89091026" version="1" timestamp="2010-12-11T18:13:41Z" uid="151899" user="Bikeman2000" changeset="6627636">
    <nd ref="1033649991"/>
    <nd ref="1033650197"/>
    <nd ref="1033650318"/>
    <nd ref="1033649789"/>
    <nd ref="1033649991"/>
    <tag k="building" v="yes"/>
  </way>
  <way id="89091026" version="2" timestamp="2011-12-23T22:07:23Z" uid="173844" user="Antikalk" changeset="10190558"/>
  <way id="89091027" version="1" timestamp="2010-12-11T18:13:41Z" uid="151899" user="Bikeman2000" changeset="6627636">
    <nd ref="1033650082"/>
    <nd ref="1033650495"/>
    <nd ref="1033649893"/>
    <nd ref="1033649698"/>
    <nd ref="1033650441"/>
    <nd ref="1033650204"/>
    <nd ref="1033649824"/>
    <nd ref="1033650591"/>
    <nd ref="1033650082"/>
    <tag k="building" v="yes"/>
  </way>
  <way id="89091027" version="2" timestamp="2011-01-07T09:16:01Z" uid="151899" user="Bikeman2000" changeset="6890505">
    <nd ref="1033650082"/>
    <nd ref="1088014325"/>
    <nd ref="1033650495"/>
    <nd ref="1033649893"/>
    <nd ref="1033649698"/>
    <nd ref="1088014392"/>
    <nd ref="1033650441"/>
    <nd ref="1033650204"/>
    <nd ref="1088014382"/>
    <nd ref="1033649824"/>
    <nd ref="1033650591"/>
    <nd ref="1033650082"/>
    <tag k="building" v="yes"/>
  </way>
  <way id="89091027" version="3" timestamp="2011-11-26T20:00:20Z" uid="173844" user="Antikalk" changeset="9960108">
    <nd ref="1518374564"/>
    <nd ref="1033650441"/>
    <nd ref="1033650204"/>
    <nd ref="1088014382"/>
    <nd ref="1033649824"/>
    <nd ref="1033650591"/>
    <nd ref="1033650082"/>
    <nd ref="1088014325"/>
    <nd ref="1033650495"/>
    <nd ref="1518374561"/>
    <nd ref="1518374564"/>
    <tag k="addr:city" v="Duesseldorf"/>
    <tag k="addr:country" v="DE"/>
    <tag k="addr:housenumber" v="100a"/>
    <tag k="addr:postcode" v="40545"/>
    <tag k="addr:street" v="Schorlemerstraße"/>
    <tag k="building" v="yes"/>
    <tag k="source" v="Bing Sat"/>
  </way>
  <way id="89091027" version="4" timestamp="2011-11-28T02:20:10Z" uid="173844" user="Antikalk" changeset="9973944">
    <nd ref="1518374564"/>
    <nd ref="1033650441"/>
    <nd ref="1033650204"/>
    <nd ref="1088014382"/>
    <nd ref="1033649824"/>
    <nd ref="1033650591"/>
    <nd ref="1033650082"/>
    <nd ref="1088014325"/>
    <nd ref="1033650495"/>
    <nd ref="1518374561"/>
    <nd ref="1518374564"/>
    <tag k="addr:city" v="Duesseldorf"/>
    <tag k="addr:country" v="DE"/>
    <tag k="addr:housenumber" v="100a"/>
    <tag k="addr:postcode" v="40547"/>
    <tag k="addr:street" v="Schorlemerstraße"/>
    <tag k="building" v="yes"/>
    <tag k="source" v="Bing Sat"/>
  </way>
  <way id="89091027" version="5" timestamp="2011-12-10T20:21:13Z" uid="173844" user="Antikalk" changeset="10084537">
    <nd ref="1518374564"/>
    <nd ref="1033650441"/>
    <nd ref="1033650204"/>
    <nd ref="1088014382"/>
    <nd ref="1033649824"/>
    <nd ref="1033650591"/>
    <nd ref="1033650082"/>
    <nd ref="1088014325"/>
    <nd ref="1033650495"/>
    <nd ref="1518374561"/>
    <nd ref="1518374564"/>
    <tag k="addr:city" v="Düsseldorf"/>
    <tag k="addr:country" v="DE"/>
    <tag k="addr:housenumber" v="100a"/>
    <tag k="addr:postcode" v="40547"/>
    <tag k="addr:street" v="Schorlemerstraße"/>
    <tag k="building" v="yes"/>
    <tag k="source" v="Bing Sat"/>
  </way>
  <way id="89091027" version="6" timestamp="2011-12-23T15:56:41Z" uid="173844" user="Antikalk" changeset="10188011"/>
  <way id="89091031" version="1" timestamp="2010-12-11T18:13:42Z" uid="151899" user="Bikeman2000" changeset="6627636">
    <nd ref="1033650314"/>
    <nd ref="1033649752"/>
    <nd ref="1033650489"/>
    <nd ref="1033650265"/>
    <nd ref="1033650314"/>
    <tag k="building" v="yes"/>
  </way>
  <way id="89091031" version="2" timestamp="2011-11-20T10:38:59Z" uid="173844" user="Antikalk" changeset="9882240"/>
  <way id="89091034" version="1" timestamp="2010-12-11T18:13:42Z" uid="151899" user="Bikeman2000" changeset="6627636">
    <nd ref="1033649817"/>
    <nd ref="1033650156"/>
    <nd ref="1033649933"/>
    <nd ref="1033649849"/>
    <nd ref="1033649913"/>
    <nd ref="1033649817"/>
    <tag k="building" v="yes"/>
  </way>
  <way id="89091034" version="2" timestamp="2011-11-27T19:06:41Z" uid="173844" user="Antikalk" changeset="9970668">
    <nd ref="1033649817"/>
    <nd ref="1033650156"/>
    <nd ref="1520065609"/>
    <nd ref="1033649933"/>
    <nd ref="1033649849"/>
    <nd ref="1033649913"/>
    <nd ref="1033649817"/>
    <tag k="addr:city" v="Duesseldorf"/>
    <tag k="addr:country" v="DE"/>
    <tag k="addr:housenumber" v="134"/>
    <tag k="addr:postcode" v="40545"/>
    <tag k="addr:street" v="Niederkasseler Kirchweg"/>
    <tag k="building" v="yes"/>
    <tag k="source" v="Bing Sat"/>
  </way>
  <way id="89091034" version="3" timestamp="2011-11-28T02:20:31Z" uid="173844" user="Antikalk" changeset="9973944">
    <nd ref="1033649817"/>
    <nd ref="1033650156"/>
    <nd ref="1520065609"/>
    <nd ref="1033649933"/>
    <nd ref="1033649849"/>
    <nd ref="1033649913"/>
    <nd ref="1033649817"/>
    <tag k="addr:city" v="Duesseldorf"/>
    <tag k="addr:country" v="DE"/>
    <tag k="addr:housenumber" v="134"/>
    <tag k="addr:postcode" v="40547"/>
    <tag k="addr:street" v="Niederkasseler Kirchweg"/>
    <tag k="building" v="yes"/>
    <tag k="source" v="Bing Sat"/>
  </way>
  <way id="89091034" version="4" timestamp="2011-12-10T20:21:28Z" uid="173844" user="Antikalk" changeset="10084537">
    <nd ref="1033649817"/>
    <nd ref="1033650156"/>
    <nd ref="1520065609"/>
    <nd ref="1033649933"/>
    <nd ref="1033649849"/>
    <nd ref="1033649913"/>
    <nd ref="1033649817"/>
    <tag k="addr:city" v="Düsseldorf"/>
    <tag k="addr:country" v="DE"/>
    <tag k="addr:housenumber" v="134"/>
    <tag k="addr:postcode" v="40547"/>
    <tag k="addr:street" v="Niederkasseler Kirchweg"/>
    <tag k="building" v="yes"/>
    <tag k="source" v="Bing Sat"/>
  </way>
  <way id="89091034" version="5" timestamp="2011-12-23T22:07:19Z" uid="173844" user="Antikalk" changeset="10190558"/>
  <way id="89091036" version="1" timestamp="2010-12-11T18:13:43Z" uid="151899" user="Bikeman2000" changeset="6627636">
    <nd ref="1033649868"/>
    <nd ref="1033650239"/>
    <nd ref="1033649663"/>
    <nd ref="1033650000"/>
    <nd ref="1033649868"/>
    <tag k="building" v="yes"/>
  </way>
  <way id="89091036" version="2" timestamp="2011-06-11T07:40:02Z" uid="330630" user="Dranuhl" changeset="8403533"/>
  <way id="89091039" version="1" timestamp="2010-12-11T18:13:43Z" uid="151899" user="Bikeman2000" changeset="6627636">
    <nd ref="1033649900"/>
    <nd ref="1033649655"/>
    <nd ref="1033649876"/>
    <nd ref="1033650008"/>
    <nd ref="1033649840"/>
    <nd ref="1033649900"/>
    <tag k="building" v="yes"/>
  </way>
  <way id="89091039" version="2" timestamp="2011-01-07T09:16:03Z" uid="151899" user="Bikeman2000" changeset="6890505">
    <nd ref="1033649900"/>
    <nd ref="1033649655"/>
    <nd ref="1033649876"/>
    <nd ref="1088014296"/>
    <nd ref="1088014381"/>
    <nd ref="1033650008"/>
    <nd ref="1033649840"/>
    <nd ref="1033649900"/>
    <tag k="building" v="yes"/>
  </way>
  <way id="89091039" version="3" timestamp="2011-11-27T19:06:49Z" uid="173844" user="Antikalk" changeset="9970668">
    <nd ref="1033649900"/>
    <nd ref="1033649655"/>
    <nd ref="1033649876"/>
    <nd ref="1088014296"/>
    <nd ref="1088014381"/>
    <nd ref="1033650008"/>
    <nd ref="1033649840"/>
    <nd ref="1033649900"/>
    <tag k="addr:city" v="Duesseldorf"/>
    <tag k="addr:country" v="DE"/>
    <tag k="addr:housenumber" v="85"/>
    <tag k="addr:postcode" v="40545"/>
    <tag k="addr:street" v="Niederkasseler Kirchweg"/>
    <tag k="building" v="yes"/>
    <tag k="source" v="Bing Sat"/>
  </way>
  <way id="89091039" version="4" timestamp="2011-11-28T02:22:15Z" uid="173844" user="Antikalk" changeset="9973944">
    <nd ref="1033649900"/>
    <nd ref="1033649655"/>
    <nd ref="1033649876"/>
    <nd ref="1088014296"/>
    <nd ref="1088014381"/>
    <nd ref="1033650008"/>
    <nd ref="1033649840"/>
    <nd ref="1033649900"/>
    <tag k="addr:city" v="Duesseldorf"/>
    <tag k="addr:country" v="DE"/>
    <tag k="addr:housenumber" v="85"/>
    <tag k="addr:postcode" v="40547"/>
    <tag k="addr:street" v="Niederkasseler Kirchweg"/>
    <tag k="building" v="yes"/>
    <tag k="source" v="Bing Sat"/>
  </way>
  <way id="89091039" version="5" timestamp="2011-12-10T20:22:35Z" uid="173844" user="Antikalk" changeset="10084537">
    <nd ref="1033649900"/>
    <nd ref="1033649655"/>
    <nd ref="1033649876"/>
    <nd ref="1088014296"/>
    <nd ref="1088014381"/>
    <nd ref="1033650008"/>
    <nd ref="1033649840"/>
    <nd ref="1033649900"/>
    <tag k="addr:city" v="Düsseldorf"/>
    <tag k="addr:country" v="DE"/>
    <tag k="addr:housenumber" v="85"/>
    <tag k="addr:postcode" v="40547"/>
    <tag k="addr:street" v="Niederkasseler Kirchweg"/>
    <tag k="building" v="yes"/>
    <tag k="source" v="Bing Sat"/>
  </way>
  <way id="89091039" version="6" timestamp="2011-12-23T15:56:54Z" uid="173844" user="Antikalk" changeset="10188011"/>
  <way id="89091040" version="1" timestamp="2010-12-11T18:13:43Z" uid="151899" user="Bikeman2000" changeset="6627636">
    <nd ref="1033649955"/>
    <nd ref="1033650359"/>
    <nd ref="1033650231"/>
    <nd ref="1033650056"/>
    <nd ref="1033649955"/>
    <tag k="building" v="yes"/>
  </way>
  <way id="89091040" version="2" timestamp="2011-11-27T19:06:43Z" uid="173844" user="Antikalk" changeset="9970668">
    <nd ref="1033649955"/>
    <nd ref="1033650359"/>
    <nd ref="1520065614"/>
    <nd ref="1033650231"/>
    <nd ref="1033650056"/>
    <nd ref="1033649955"/>
    <tag k="addr:city" v="Duesseldorf"/>
    <tag k="addr:country" v="DE"/>
    <tag k="addr:housenumber" v="140"/>
    <tag k="addr:postcode" v="40545"/>
    <tag k="addr:street" v="Niederkasseler Kirchweg"/>
    <tag k="building" v="yes"/>
    <tag k="source" v="Bing Sat"/>
  </way>
  <way id="89091040" version="3" timestamp="2011-11-28T02:20:36Z" uid="173844" user="Antikalk" changeset="9973944">
    <nd ref="1033649955"/>
    <nd ref="1033650359"/>
    <nd ref="1520065614"/>
    <nd ref="1033650231"/>
    <nd ref="1033650056"/>
    <nd ref="1033649955"/>
    <tag k="addr:city" v="Duesseldorf"/>
    <tag k="addr:country" v="DE"/>
    <tag k="addr:housenumber" v="140"/>
    <tag k="addr:postcode" v="40547"/>
    <tag k="addr:street" v="Niederkasseler Kirchweg"/>
    <tag k="building" v="yes"/>
    <tag k="source" v="Bing Sat"/>
  </way>
  <way id="89091040" version="4" timestamp="2011-12-10T20:21:31Z" uid="173844" user="Antikalk" changeset="10084537">
    <nd ref="1033649955"/>
    <nd ref="1033650359"/>
    <nd ref="1520065614"/>
    <nd ref="1033650231"/>
    <nd ref="1033650056"/>
    <nd ref="1033649955"/>
    <tag k="addr:city" v="Düsseldorf"/>
    <tag k="addr:country" v="DE"/>
    <tag k="addr:housenumber" v="140"/>
    <tag k="addr:postcode" v="40547"/>
    <tag k="addr:street" v="Niederkasseler Kirchweg"/>
    <tag k="building" v="yes"/>
    <tag k="source" v="Bing Sat"/>
  </way>
  <way id="89091040" version="5" timestamp="2011-12-23T22:07:20Z" uid="173844" user="Antikalk" changeset="10190558"/>
  <way id="89091042" version="1" timestamp="2010-12-11T18:13:44Z" uid="151899" user="Bikeman2000" changeset="6627636">
    <nd ref="1033649793"/>
    <nd ref="1033650020"/>
    <nd ref="1033649992"/>
    <nd ref="1033649767"/>
    <nd ref="1033650510"/>
    <nd ref="1033650268"/>
    <nd ref="1033650022"/>
    <nd ref="1033650446"/>
    <nd ref="1033650223"/>
    <nd ref="1033649973"/>
    <nd ref="1033650092"/>
    <nd ref="1033649805"/>
    <nd ref="1033650327"/>
    <nd ref="1033650087"/>
    <nd ref="1033649898"/>
    <nd ref="1033649708"/>
    <nd ref="1033649793"/>
    <tag k="building" v="yes"/>
  </way>
  <way id="89091042" version="2" timestamp="2011-01-07T09:16:09Z" uid="151899" user="Bikeman2000" changeset="6890505">
    <nd ref="1033649793"/>
    <nd ref="1033650020"/>
    <nd ref="1033649992"/>
    <nd ref="1033649767"/>
    <nd ref="1033650510"/>
    <nd ref="1033650268"/>
    <nd ref="1033650022"/>
    <nd ref="1033650446"/>
    <nd ref="1033650223"/>
    <nd ref="1033649973"/>
    <nd ref="1033650092"/>
    <nd ref="1033649805"/>
    <nd ref="1033650327"/>
    <nd ref="1033650087"/>
    <nd ref="1088014303"/>
    <nd ref="1088014406"/>
    <nd ref="1088014328"/>
    <nd ref="1033649898"/>
    <nd ref="1033649708"/>
    <nd ref="1033649793"/>
    <tag k="building" v="yes"/>
  </way>
  <way id="89091042" version="3" timestamp="2011-11-26T20:00:41Z" uid="173844" user="Antikalk" changeset="9960108">
    <nd ref="1033649793"/>
    <nd ref="1033650020"/>
    <nd ref="1033649992"/>
    <nd ref="1033649767"/>
    <nd ref="1033650510"/>
    <nd ref="1033650268"/>
    <nd ref="1033650022"/>
    <nd ref="1033650446"/>
    <nd ref="1033650223"/>
    <nd ref="1033649973"/>
    <nd ref="1033650092"/>
    <nd ref="1033649805"/>
    <nd ref="1033650327"/>
    <nd ref="1033650087"/>
    <nd ref="1088014303"/>
    <nd ref="1088014406"/>
    <nd ref="1088014328"/>
    <nd ref="1033649898"/>
    <nd ref="1033649708"/>
    <nd ref="1033649793"/>
    <tag k="addr:city" v="Duesseldorf"/>
    <tag k="addr:country" v="DE"/>
    <tag k="addr:housenumber" v="88"/>
    <tag k="addr:postcode" v="40545"/>
    <tag k="addr:street" v="Schorlemerstraße"/>
    <tag k="building" v="yes"/>
    <tag k="source" v="Bing Sat"/>
  </way>
  <way id="89091042" version="4" timestamp="2011-11-28T02:22:18Z" uid="173844" user="Antikalk" changeset="9973944">
    <nd ref="1033649793"/>
    <nd ref="1033650020"/>
    <nd ref="1033649992"/>
    <nd ref="1033649767"/>
    <nd ref="1033650510"/>
    <nd ref="1033650268"/>
    <nd ref="1033650022"/>
    <nd ref="1033650446"/>
    <nd ref="1033650223"/>
    <nd ref="1033649973"/>
    <nd ref="1033650092"/>
    <nd ref="1033649805"/>
    <nd ref="1033650327"/>
    <nd ref="1033650087"/>
    <nd ref="1088014303"/>
    <nd ref="1088014406"/>
    <nd ref="1088014328"/>
    <nd ref="1033649898"/>
    <nd ref="1033649708"/>
    <nd ref="1033649793"/>
    <tag k="addr:city" v="Duesseldorf"/>
    <tag k="addr:country" v="DE"/>
    <tag k="addr:housenumber" v="88"/>
    <tag k="addr:postcode" v="40547"/>
    <tag k="addr:street" v="Schorlemerstraße"/>
    <tag k="building" v="yes"/>
    <tag k="source" v="Bing Sat"/>
  </way>
  <way id="89091042" version="5" timestamp="2011-12-10T20:22:36Z" uid="173844" user="Antikalk" changeset="10084537">
    <nd ref="1033649793"/>
    <nd ref="1033650020"/>
    <nd ref="1033649992"/>
    <nd ref="1033649767"/>
    <nd ref="1033650510"/>
    <nd ref="1033650268"/>
    <nd ref="1033650022"/>
    <nd ref="1033650446"/>
    <nd ref="1033650223"/>
    <nd ref="1033649973"/>
    <nd ref="1033650092"/>
    <nd ref="1033649805"/>
    <nd ref="1033650327"/>
    <nd ref="1033650087"/>
    <nd ref="1088014406"/>
    <nd ref="1033649898"/>
    <nd ref="1033649708"/>
    <nd ref="1033649793"/>
    <tag k="addr:city" v="Düsseldorf"/>
    <tag k="addr:country" v="DE"/>
    <tag k="addr:housenumber" v="88"/>
    <tag k="addr:postcode" v="40547"/>
    <tag k="addr:street" v="Schorlemerstraße"/>
    <tag k="building" v="yes"/>
    <tag k="source" v="Bing Sat"/>
  </way>
  <way id="89091042" version="6" timestamp="2011-12-23T15:56:55Z" uid="173844" user="Antikalk" changeset="10188011"/>
  <way id="89091044" version="1" timestamp="2010-12-11T18:13:45Z" uid="151899" user="Bikeman2000" changeset="6627636">
    <nd ref="1033650554"/>
    <nd ref="1033649812"/>
    <nd ref="1033650054"/>
    <nd ref="1033650125"/>
    <nd ref="1033650554"/>
    <tag k="building" v="yes"/>
  </way>
  <way id="89091044" version="2" timestamp="2011-12-23T15:57:07Z" uid="173844" user="Antikalk" changeset="10188011"/>
  <way id="89091046" version="1" timestamp="2010-12-11T18:13:45Z" uid="151899" user="Bikeman2000" changeset="6627636">
    <nd ref="1033650260"/>
    <nd ref="1033649668"/>
    <nd ref="1033650405"/>
    <nd ref="1033650165"/>
    <nd ref="1033650260"/>
    <tag k="building" v="yes"/>
  </way>
  <way id="89091046" version="2" timestamp="2011-11-20T10:38:59Z" uid="173844" user="Antikalk" changeset="9882240"/>
  <way id="89091047" version="1" timestamp="2010-12-11T18:13:46Z" uid="151899" user="Bikeman2000" changeset="6627636">
    <nd ref="1033649983"/>
    <nd ref="1033650389"/>
    <nd ref="1033650152"/>
    <nd ref="1033649786"/>
    <nd ref="1033650519"/>
    <nd ref="1033650306"/>
    <nd ref="1033650045"/>
    <nd ref="1033650454"/>
    <nd ref="1033650228"/>
    <nd ref="1033649995"/>
    <nd ref="1033649814"/>
    <nd ref="1033650566"/>
    <nd ref="1033650356"/>
    <nd ref="1033649983"/>
    <tag k="building" v="yes"/>
  </way>
  <way id="89091047" version="2" timestamp="2011-01-07T09:16:11Z" uid="151899" user="Bikeman2000" changeset="6890505">
    <nd ref="1033649983"/>
    <nd ref="1033650389"/>
    <nd ref="1033650152"/>
    <nd ref="1033649786"/>
    <nd ref="1033650519"/>
    <nd ref="1033650306"/>
    <nd ref="1033650045"/>
    <nd ref="1033650454"/>
    <nd ref="1033650228"/>
    <nd ref="1033649995"/>
    <nd ref="1033649814"/>
    <nd ref="1033650566"/>
    <nd ref="1033650356"/>
    <nd ref="1088014337"/>
    <nd ref="1088014268"/>
    <nd ref="1088014367"/>
    <nd ref="1088014384"/>
    <nd ref="1033649983"/>
    <tag k="building" v="yes"/>
  </way>
  <way id="89091047" version="3" timestamp="2011-12-04T07:52:01Z" uid="173844" user="Antikalk" changeset="10030622">
    <nd ref="1530686888"/>
    <nd ref="1088014367"/>
    <nd ref="1530686887"/>
    <nd ref="1088014384"/>
    <nd ref="1033649983"/>
    <nd ref="1033650389"/>
    <nd ref="1033650152"/>
    <nd ref="1033649786"/>
    <nd ref="1033650519"/>
    <nd ref="1033650306"/>
    <nd ref="1530686893"/>
    <nd ref="1530686888"/>
    <tag k="addr:city" v="Duesseldorf"/>
    <tag k="addr:country" v="DE"/>
    <tag k="addr:housenumber" v="11"/>
    <tag k="addr:postcode" v="40547"/>
    <tag k="addr:street" v="Peter-Roos-Straße"/>
    <tag k="building" v="yes"/>
    <tag k="source" v="Bing Sat"/>
  </way>
  <way id="89091047" version="4" timestamp="2011-12-10T20:21:17Z" uid="173844" user="Antikalk" changeset="10084537">
    <nd ref="1530686888"/>
    <nd ref="1530686887"/>
    <nd ref="1033649983"/>
    <nd ref="1033650389"/>
    <nd ref="1033650152"/>
    <nd ref="1033649786"/>
    <nd ref="1033650519"/>
    <nd ref="1033650306"/>
    <nd ref="1530686893"/>
    <nd ref="1530686888"/>
    <tag k="addr:city" v="Düsseldorf"/>
    <tag k="addr:country" v="DE"/>
    <tag k="addr:housenumber" v="11"/>
    <tag k="addr:postcode" v="40547"/>
    <tag k="addr:street" v="Peter-Roos-Straße"/>
    <tag k="building" v="yes"/>
    <tag k="source" v="Bing Sat"/>
  </way>
  <way id="89091047" version="5" timestamp="2011-12-23T15:56:41Z" uid="173844" user="Antikalk" changeset="10188011"/>
  <way id="89091051" version="1" timestamp="2010-12-11T18:13:46Z" uid="151899" user="Bikeman2000" changeset="6627636">
    <nd ref="1033650056"/>
    <nd ref="1033649787"/>
    <nd ref="1033650521"/>
    <nd ref="1033650231"/>
    <nd ref="1033650056"/>
    <tag k="building" v="yes"/>
  </way>
  <way id="89091051" version="2" timestamp="2011-11-27T19:06:43Z" uid="173844" user="Antikalk" changeset="9970668">
    <nd ref="1033650056"/>
    <nd ref="1033649787"/>
    <nd ref="1033650521"/>
    <nd ref="1520065611"/>
    <nd ref="1033650231"/>
    <nd ref="1033650056"/>
    <tag k="addr:city" v="Duesseldorf"/>
    <tag k="addr:country" v="DE"/>
    <tag k="addr:housenumber" v="142"/>
    <tag k="addr:postcode" v="40545"/>
    <tag k="addr:street" v="Niederkasseler Kirchweg"/>
    <tag k="building" v="yes"/>
    <tag k="source" v="Bing Sat"/>
  </way>
  <way id="89091051" version="3" timestamp="2011-11-28T02:20:37Z" uid="173844" user="Antikalk" changeset="9973944">
    <nd ref="1033650056"/>
    <nd ref="1033649787"/>
    <nd ref="1033650521"/>
    <nd ref="1520065611"/>
    <nd ref="1033650231"/>
    <nd ref="1033650056"/>
    <tag k="addr:city" v="Duesseldorf"/>
    <tag k="addr:country" v="DE"/>
    <tag k="addr:housenumber" v="142"/>
    <tag k="addr:postcode" v="40547"/>
    <tag k="addr:street" v="Niederkasseler Kirchweg"/>
    <tag k="building" v="yes"/>
    <tag k="source" v="Bing Sat"/>
  </way>
  <way id="89091051" version="4" timestamp="2011-12-10T20:21:32Z" uid="173844" user="Antikalk" changeset="10084537">
    <nd ref="1033650056"/>
    <nd ref="1033649787"/>
    <nd ref="1033650521"/>
    <nd ref="1520065611"/>
    <nd ref="1033650231"/>
    <nd ref="1033650056"/>
    <tag k="addr:city" v="Düsseldorf"/>
    <tag k="addr:country" v="DE"/>
    <tag k="addr:housenumber" v="142"/>
    <tag k="addr:postcode" v="40547"/>
    <tag k="addr:street" v="Niederkasseler Kirchweg"/>
    <tag k="building" v="yes"/>
    <tag k="source" v="Bing Sat"/>
  </way>
  <way id="89091051" version="5" timestamp="2011-12-23T22:07:20Z" uid="173844" user="Antikalk" changeset="10190558"/>
  <way id="89091052" version="1" timestamp="2010-12-11T18:13:47Z" uid="151899" user="Bikeman2000" changeset="6627636">
    <nd ref="1033649827"/>
    <nd ref="1033650160"/>
    <nd ref="1033650604"/>
    <nd ref="1033649802"/>
    <nd ref="1033649827"/>
    <tag k="building" v="yes"/>
  </way>
  <way id="89091052" version="2" timestamp="2011-11-20T10:38:59Z" uid="173844" user="Antikalk" changeset="9882240"/>
  <way id="89091055" version="1" timestamp="2010-12-11T18:13:47Z" uid="151899" user="Bikeman2000" changeset="6627636">
    <nd ref="1033650517"/>
    <nd ref="1033649980"/>
    <nd ref="1033649896"/>
    <nd ref="1033649704"/>
    <nd ref="1033649785"/>
    <nd ref="1033650041"/>
    <nd ref="1033650517"/>
    <tag k="building" v="yes"/>
  </way>
  <way id="89091055" version="2" timestamp="2011-01-07T09:15:59Z" uid="151899" user="Bikeman2000" changeset="6890505">
    <nd ref="1033650517"/>
    <nd ref="1033649980"/>
    <nd ref="1033649896"/>
    <nd ref="1088014279"/>
    <nd ref="1033649704"/>
    <nd ref="1033649785"/>
    <nd ref="1033650041"/>
    <nd ref="1033650517"/>
    <tag k="building" v="yes"/>
  </way>
  <way id="89091055" version="3" timestamp="2011-11-26T20:00:53Z" uid="173844" user="Antikalk" changeset="9960108"/>
  <way id="89091569" version="1" timestamp="2010-12-11T18:16:54Z" uid="151899" user="Bikeman2000" changeset="6627686">
    <nd ref="1033656135"/>
    <nd ref="1033656044"/>
    <nd ref="1033656172"/>
    <nd ref="1033655922"/>
    <nd ref="1033656120"/>
    <nd ref="1033656135"/>
    <tag k="building" v="yes"/>
  </way>
  <way id="89091569" version="2" timestamp="2011-01-04T15:30:22Z" uid="151899" user="Bikeman2000" changeset="6861885">
    <nd ref="1033656135"/>
    <nd ref="1033656044"/>
    <nd ref="1082264460"/>
    <nd ref="1033656172"/>
    <nd ref="1033655922"/>
    <nd ref="1033656120"/>
    <nd ref="1033656135"/>
    <tag k="building" v="yes"/>
  </way>
  <way id="89091569" version="3" timestamp="2011-11-27T19:06:37Z" uid="173844" user="Antikalk" changeset="9970668">
    <nd ref="1033656135"/>
    <nd ref="1033656044"/>
    <nd ref="1082264460"/>
    <nd ref="1033656172"/>
    <nd ref="1033655922"/>
    <nd ref="1033656120"/>
    <nd ref="1033656135"/>
    <tag k="addr:city" v="Duesseldorf"/>
    <tag k="addr:country" v="DE"/>
    <tag k="addr:housenumber" v="118"/>
    <tag k="addr:postcode" v="40545"/>
    <tag k="addr:street" v="Niederkasseler Kirchweg"/>
    <tag k="building" v="yes"/>
    <tag k="source" v="Bing Sat"/>
  </way>
  <way id="89091569" version="4" timestamp="2011-11-28T02:20:23Z" uid="173844" user="Antikalk" changeset="9973944">
    <nd ref="1033656135"/>
    <nd ref="1033656044"/>
    <nd ref="1082264460"/>
    <nd ref="1033656172"/>
    <nd ref="1033655922"/>
    <nd ref="1033656120"/>
    <nd ref="1033656135"/>
    <tag k="addr:city" v="Duesseldorf"/>
    <tag k="addr:country" v="DE"/>
    <tag k="addr:housenumber" v="118"/>
    <tag k="addr:postcode" v="40547"/>
    <tag k="addr:street" v="Niederkasseler Kirchweg"/>
    <tag k="building" v="yes"/>
    <tag k="source" v="Bing Sat"/>
  </way>
  <way id="89091569" version="5" timestamp="2011-12-10T20:21:21Z" uid="173844" user="Antikalk" changeset="10084537">
    <nd ref="1033656135"/>
    <nd ref="1033656044"/>
    <nd ref="1082264460"/>
    <nd ref="1033656172"/>
    <nd ref="1033655922"/>
    <nd ref="1033656120"/>
    <nd ref="1033656135"/>
    <tag k="addr:city" v="Düsseldorf"/>
    <tag k="addr:country" v="DE"/>
    <tag k="addr:housenumber" v="118"/>
    <tag k="addr:postcode" v="40547"/>
    <tag k="addr:street" v="Niederkasseler Kirchweg"/>
    <tag k="building" v="yes"/>
    <tag k="source" v="Bing Sat"/>
  </way>
  <way id="89091569" version="6" timestamp="2011-12-23T22:07:17Z" uid="173844" user="Antikalk" changeset="10190558"/>
  <way id="89091571" version="1" timestamp="2010-12-11T18:16:55Z" uid="151899" user="Bikeman2000" changeset="6627686">
    <nd ref="1033655872"/>
    <nd ref="1033656106"/>
    <nd ref="1033655987"/>
    <nd ref="1033656289"/>
    <nd ref="1033655872"/>
    <tag k="building" v="yes"/>
  </way>
  <way id="89091571" version="2" timestamp="2011-11-27T19:06:36Z" uid="173844" user="Antikalk" changeset="9970668">
    <nd ref="1033655872"/>
    <nd ref="1520065475"/>
    <nd ref="1033656106"/>
    <nd ref="1033655987"/>
    <nd ref="1033656289"/>
    <nd ref="1033655872"/>
    <tag k="addr:city" v="Duesseldorf"/>
    <tag k="addr:country" v="DE"/>
    <tag k="addr:housenumber" v="114"/>
    <tag k="addr:postcode" v="40545"/>
    <tag k="addr:street" v="Niederkasseler Kirchweg"/>
    <tag k="building" v="yes"/>
    <tag k="source" v="Bing Sat"/>
  </way>
  <way id="89091571" version="3" timestamp="2011-11-28T02:20:20Z" uid="173844" user="Antikalk" changeset="9973944">
    <nd ref="1033655872"/>
    <nd ref="1520065475"/>
    <nd ref="1033656106"/>
    <nd ref="1033655987"/>
    <nd ref="1033656289"/>
    <nd ref="1033655872"/>
    <tag k="addr:city" v="Duesseldorf"/>
    <tag k="addr:country" v="DE"/>
    <tag k="addr:housenumber" v="114"/>
    <tag k="addr:postcode" v="40547"/>
    <tag k="addr:street" v="Niederkasseler Kirchweg"/>
    <tag k="building" v="yes"/>
    <tag k="source" v="Bing Sat"/>
  </way>
  <way id="89091571" version="4" timestamp="2011-12-10T20:21:20Z" uid="173844" user="Antikalk" changeset="10084537">
    <nd ref="1033655872"/>
    <nd ref="1520065475"/>
    <nd ref="1033656106"/>
    <nd ref="1033655987"/>
    <nd ref="1033656289"/>
    <nd ref="1033655872"/>
    <tag k="addr:city" v="Düsseldorf"/>
    <tag k="addr:country" v="DE"/>
    <tag k="addr:housenumber" v="114"/>
    <tag k="addr:postcode" v="40547"/>
    <tag k="addr:street" v="Niederkasseler Kirchweg"/>
    <tag k="building" v="yes"/>
    <tag k="source" v="Bing Sat"/>
  </way>
  <way id="89091571" version="5" timestamp="2011-12-23T15:56:42Z" uid="173844" user="Antikalk" changeset="10188011"/>
  <way id="89091572" version="1" timestamp="2010-12-11T18:16:55Z" uid="151899" user="Bikeman2000" changeset="6627686">
    <nd ref="1033656159"/>
    <nd ref="1033656278"/>
    <nd ref="1033656082"/>
    <nd ref="1033656232"/>
    <nd ref="1033656056"/>
    <nd ref="1033656159"/>
    <tag k="building" v="yes"/>
  </way>
  <way id="89091572" version="2" timestamp="2011-01-04T15:30:23Z" uid="151899" user="Bikeman2000" changeset="6861885">
    <nd ref="1033656159"/>
    <nd ref="1033656278"/>
    <nd ref="1082264455"/>
    <nd ref="1033656082"/>
    <nd ref="1033656232"/>
    <nd ref="1033656056"/>
    <nd ref="1033656159"/>
    <tag k="building" v="yes"/>
  </way>
  <way id="89091572" version="3" timestamp="2011-11-27T19:06:38Z" uid="173844" user="Antikalk" changeset="9970668">
    <nd ref="1033656159"/>
    <nd ref="1033656278"/>
    <nd ref="1082264455"/>
    <nd ref="1033656082"/>
    <nd ref="1033656232"/>
    <nd ref="1033656056"/>
    <nd ref="1033656159"/>
    <tag k="addr:city" v="Duesseldorf"/>
    <tag k="addr:country" v="DE"/>
    <tag k="addr:housenumber" v="122"/>
    <tag k="addr:postcode" v="40545"/>
    <tag k="addr:street" v="Niederkasseler Kirchweg"/>
    <tag k="building" v="yes"/>
    <tag k="source" v="Bing Sat"/>
  </way>
  <way id="89091572" version="4" timestamp="2011-11-28T02:20:25Z" uid="173844" user="Antikalk" changeset="9973944">
    <nd ref="1033656159"/>
    <nd ref="1033656278"/>
    <nd ref="1082264455"/>
    <nd ref="1033656082"/>
    <nd ref="1033656232"/>
    <nd ref="1033656056"/>
    <nd ref="1033656159"/>
    <tag k="addr:city" v="Duesseldorf"/>
    <tag k="addr:country" v="DE"/>
    <tag k="addr:housenumber" v="122"/>
    <tag k="addr:postcode" v="40547"/>
    <tag k="addr:street" v="Niederkasseler Kirchweg"/>
    <tag k="building" v="yes"/>
    <tag k="source" v="Bing Sat"/>
  </way>
  <way id="89091572" version="5" timestamp="2011-12-10T20:21:23Z" uid="173844" user="Antikalk" changeset="10084537">
    <nd ref="1033656159"/>
    <nd ref="1033656278"/>
    <nd ref="1082264455"/>
    <nd ref="1033656082"/>
    <nd ref="1033656232"/>
    <nd ref="1033656056"/>
    <nd ref="1033656159"/>
    <tag k="addr:city" v="Düsseldorf"/>
    <tag k="addr:country" v="DE"/>
    <tag k="addr:housenumber" v="122"/>
    <tag k="addr:postcode" v="40547"/>
    <tag k="addr:street" v="Niederkasseler Kirchweg"/>
    <tag k="building" v="yes"/>
    <tag k="source" v="Bing Sat"/>
  </way>
  <way id="89091572" version="6" timestamp="2011-12-23T22:07:18Z" uid="173844" user="Antikalk" changeset="10190558"/>
  <way id="89091575" version="1" timestamp="2010-12-11T18:16:56Z" uid="151899" user="Bikeman2000" changeset="6627686">
    <nd ref="1033655852"/>
    <nd ref="1033656066"/>
    <nd ref="1033655951"/>
    <nd ref="1033656273"/>
    <nd ref="1033655852"/>
    <tag k="building" v="yes"/>
  </way>
  <way id="89091575" version="2" timestamp="2011-11-27T19:06:35Z" uid="173844" user="Antikalk" changeset="9970668">
    <nd ref="1033655852"/>
    <nd ref="1033656066"/>
    <nd ref="1520065456"/>
    <nd ref="1033655951"/>
    <nd ref="1033656273"/>
    <nd ref="1033655852"/>
    <tag k="addr:city" v="Duesseldorf"/>
    <tag k="addr:country" v="DE"/>
    <tag k="addr:housenumber" v="110"/>
    <tag k="addr:postcode" v="40545"/>
    <tag k="addr:street" v="Niederkasseler Kirchweg"/>
    <tag k="building" v="yes"/>
    <tag k="source" v="Bing Sat"/>
  </way>
  <way id="89091575" version="3" timestamp="2011-11-28T02:20:17Z" uid="173844" user="Antikalk" changeset="9973944">
    <nd ref="1033655852"/>
    <nd ref="1033656066"/>
    <nd ref="1520065456"/>
    <nd ref="1033655951"/>
    <nd ref="1033656273"/>
    <nd ref="1033655852"/>
    <tag k="addr:city" v="Duesseldorf"/>
    <tag k="addr:country" v="DE"/>
    <tag k="addr:housenumber" v="110"/>
    <tag k="addr:postcode" v="40547"/>
    <tag k="addr:street" v="Niederkasseler Kirchweg"/>
    <tag k="building" v="yes"/>
    <tag k="source" v="Bing Sat"/>
  </way>
  <way id="89091575" version="4" timestamp="2011-12-10T20:21:18Z" uid="173844" user="Antikalk" changeset="10084537">
    <nd ref="1033655852"/>
    <nd ref="1033656066"/>
    <nd ref="1520065456"/>
    <nd ref="1033655951"/>
    <nd ref="1033656273"/>
    <nd ref="1033655852"/>
    <tag k="addr:city" v="Düsseldorf"/>
    <tag k="addr:country" v="DE"/>
    <tag k="addr:housenumber" v="110"/>
    <tag k="addr:postcode" v="40547"/>
    <tag k="addr:street" v="Niederkasseler Kirchweg"/>
    <tag k="building" v="yes"/>
    <tag k="source" v="Bing Sat"/>
  </way>
  <way id="89091575" version="5" timestamp="2011-12-23T15:56:41Z" uid="173844" user="Antikalk" changeset="10188011"/>
  <way id="89091578" version="1" timestamp="2010-12-11T18:16:56Z" uid="151899" user="Bikeman2000" changeset="6627686">
    <nd ref="1033656124"/>
    <nd ref="1033656115"/>
    <nd ref="1033656235"/>
    <nd ref="1033655999"/>
    <nd ref="1033656163"/>
    <nd ref="1033656238"/>
    <nd ref="1033656124"/>
    <tag k="building" v="yes"/>
  </way>
  <way id="89091578" version="2" timestamp="2011-01-04T15:30:25Z" uid="151899" user="Bikeman2000" changeset="6861885">
    <nd ref="1033656124"/>
    <nd ref="1082264477"/>
    <nd ref="1033656115"/>
    <nd ref="1033656235"/>
    <nd ref="1033655999"/>
    <nd ref="1033656163"/>
    <nd ref="1033656238"/>
    <nd ref="1033656124"/>
    <tag k="building" v="yes"/>
  </way>
  <way id="89091578" version="3" timestamp="2011-11-27T19:06:40Z" uid="173844" user="Antikalk" changeset="9970668">
    <nd ref="1033656124"/>
    <nd ref="1082264477"/>
    <nd ref="1033656115"/>
    <nd ref="1033656235"/>
    <nd ref="1033655999"/>
    <nd ref="1033656163"/>
    <nd ref="1033656238"/>
    <nd ref="1033656124"/>
    <tag k="addr:city" v="Duesseldorf"/>
    <tag k="addr:country" v="DE"/>
    <tag k="addr:housenumber" v="126"/>
    <tag k="addr:postcode" v="40545"/>
    <tag k="addr:street" v="Niederkasseler Kirchweg"/>
    <tag k="building" v="yes"/>
    <tag k="source" v="Bing Sat"/>
  </way>
  <way id="89091578" version="4" timestamp="2011-11-28T02:20:27Z" uid="173844" user="Antikalk" changeset="9973944">
    <nd ref="1033656124"/>
    <nd ref="1082264477"/>
    <nd ref="1033656115"/>
    <nd ref="1033656235"/>
    <nd ref="1033655999"/>
    <nd ref="1033656163"/>
    <nd ref="1033656238"/>
    <nd ref="1033656124"/>
    <tag k="addr:city" v="Duesseldorf"/>
    <tag k="addr:country" v="DE"/>
    <tag k="addr:housenumber" v="126"/>
    <tag k="addr:postcode" v="40547"/>
    <tag k="addr:street" v="Niederkasseler Kirchweg"/>
    <tag k="building" v="yes"/>
    <tag k="source" v="Bing Sat"/>
  </way>
  <way id="89091578" version="5" timestamp="2011-12-10T20:21:24Z" uid="173844" user="Antikalk" changeset="10084537">
    <nd ref="1033656124"/>
    <nd ref="1082264477"/>
    <nd ref="1033656115"/>
    <nd ref="1033656235"/>
    <nd ref="1033655999"/>
    <nd ref="1033656163"/>
    <nd ref="1033656238"/>
    <nd ref="1033656124"/>
    <tag k="addr:city" v="Düsseldorf"/>
    <tag k="addr:country" v="DE"/>
    <tag k="addr:housenumber" v="126"/>
    <tag k="addr:postcode" v="40547"/>
    <tag k="addr:street" v="Niederkasseler Kirchweg"/>
    <tag k="building" v="yes"/>
    <tag k="source" v="Bing Sat"/>
  </way>
  <way id="89091578" version="6" timestamp="2011-12-23T22:07:18Z" uid="173844" user="Antikalk" changeset="10190558"/>
  <way id="89091581" version="1" timestamp="2010-12-11T18:16:57Z" uid="151899" user="Bikeman2000" changeset="6627686">
    <nd ref="1033656219"/>
    <nd ref="1033655947"/>
    <nd ref="1033656243"/>
    <nd ref="1033656179"/>
    <nd ref="1033656009"/>
    <nd ref="1033655867"/>
    <nd ref="1033656219"/>
    <tag k="building" v="yes"/>
  </way>
  <way id="89091581" version="2" timestamp="2011-11-27T19:06:59Z" uid="173844" user="Antikalk" changeset="9970668"/>
  <way id="89091583" version="1" timestamp="2010-12-11T18:16:57Z" uid="151899" user="Bikeman2000" changeset="6627686">
    <nd ref="1033655922"/>
    <nd ref="1033655856"/>
    <nd ref="1033656082"/>
    <nd ref="1033656232"/>
    <nd ref="1033655983"/>
    <nd ref="1033656120"/>
    <nd ref="1033655922"/>
    <tag k="building" v="yes"/>
  </way>
  <way id="89091583" version="2" timestamp="2011-01-04T15:30:32Z" uid="151899" user="Bikeman2000" changeset="6861885">
    <nd ref="1033655922"/>
    <nd ref="1082264515"/>
    <nd ref="1033655856"/>
    <nd ref="1033656082"/>
    <nd ref="1033656232"/>
    <nd ref="1033655983"/>
    <nd ref="1033656120"/>
    <nd ref="1033655922"/>
    <tag k="building" v="yes"/>
  </way>
  <way id="89091583" version="3" timestamp="2011-11-27T19:06:38Z" uid="173844" user="Antikalk" changeset="9970668">
    <nd ref="1033655922"/>
    <nd ref="1082264515"/>
    <nd ref="1033655856"/>
    <nd ref="1033656082"/>
    <nd ref="1033656232"/>
    <nd ref="1033655983"/>
    <nd ref="1033656120"/>
    <nd ref="1033655922"/>
    <tag k="addr:city" v="Duesseldorf"/>
    <tag k="addr:country" v="DE"/>
    <tag k="addr:housenumber" v="120"/>
    <tag k="addr:postcode" v="40545"/>
    <tag k="addr:street" v="Niederkasseler Kirchweg"/>
    <tag k="building" v="yes"/>
    <tag k="source" v="Bing Sat"/>
  </way>
  <way id="89091583" version="4" timestamp="2011-11-28T02:20:25Z" uid="173844" user="Antikalk" changeset="9973944">
    <nd ref="1033655922"/>
    <nd ref="1082264515"/>
    <nd ref="1033655856"/>
    <nd ref="1033656082"/>
    <nd ref="1033656232"/>
    <nd ref="1033655983"/>
    <nd ref="1033656120"/>
    <nd ref="1033655922"/>
    <tag k="addr:city" v="Duesseldorf"/>
    <tag k="addr:country" v="DE"/>
    <tag k="addr:housenumber" v="120"/>
    <tag k="addr:postcode" v="40547"/>
    <tag k="addr:street" v="Niederkasseler Kirchweg"/>
    <tag k="building" v="yes"/>
    <tag k="source" v="Bing Sat"/>
  </way>
  <way id="89091583" version="5" timestamp="2011-12-10T20:21:23Z" uid="173844" user="Antikalk" changeset="10084537">
    <nd ref="1033655922"/>
    <nd ref="1082264515"/>
    <nd ref="1033655856"/>
    <nd ref="1033656082"/>
    <nd ref="1033656232"/>
    <nd ref="1033655983"/>
    <nd ref="1033656120"/>
    <nd ref="1033655922"/>
    <tag k="addr:city" v="Düsseldorf"/>
    <tag k="addr:country" v="DE"/>
    <tag k="addr:housenumber" v="120"/>
    <tag k="addr:postcode" v="40547"/>
    <tag k="addr:street" v="Niederkasseler Kirchweg"/>
    <tag k="building" v="yes"/>
    <tag k="source" v="Bing Sat"/>
  </way>
  <way id="89091583" version="6" timestamp="2011-12-23T22:07:17Z" uid="173844" user="Antikalk" changeset="10190558"/>
  <way id="89091584" version="1" timestamp="2010-12-11T18:16:58Z" uid="151899" user="Bikeman2000" changeset="6627686">
    <nd ref="1033656283"/>
    <nd ref="1033656219"/>
    <nd ref="1033655947"/>
    <nd ref="1033656051"/>
    <nd ref="1033655934"/>
    <nd ref="1033656240"/>
    <nd ref="1033656283"/>
    <tag k="building" v="yes"/>
  </way>
  <way id="89091584" version="2" timestamp="2011-11-27T19:06:47Z" uid="173844" user="Antikalk" changeset="9970668">
    <nd ref="1033655947"/>
    <nd ref="1033656051"/>
    <nd ref="1033655934"/>
    <nd ref="1033656240"/>
    <nd ref="1033656283"/>
    <nd ref="1033655867"/>
    <nd ref="1033656009"/>
    <nd ref="1033656179"/>
    <nd ref="1033656243"/>
    <nd ref="1033655947"/>
    <tag k="addr:city" v="Duesseldorf"/>
    <tag k="addr:country" v="DE"/>
    <tag k="addr:housenumber" v="30"/>
    <tag k="addr:postcode" v="40545"/>
    <tag k="addr:street" v="Brüggener Weg"/>
    <tag k="building" v="yes"/>
    <tag k="source" v="Bing Sat"/>
  </way>
  <way id="89091584" version="3" timestamp="2011-11-28T02:21:06Z" uid="173844" user="Antikalk" changeset="9973944">
    <nd ref="1033655947"/>
    <nd ref="1033656051"/>
    <nd ref="1033655934"/>
    <nd ref="1033656240"/>
    <nd ref="1033656283"/>
    <nd ref="1033655867"/>
    <nd ref="1033656009"/>
    <nd ref="1033656179"/>
    <nd ref="1033656243"/>
    <nd ref="1033655947"/>
    <tag k="addr:city" v="Duesseldorf"/>
    <tag k="addr:country" v="DE"/>
    <tag k="addr:housenumber" v="30"/>
    <tag k="addr:postcode" v="40547"/>
    <tag k="addr:street" v="Brüggener Weg"/>
    <tag k="building" v="yes"/>
    <tag k="source" v="Bing Sat"/>
  </way>
  <way id="89091584" version="4" timestamp="2011-12-10T20:21:56Z" uid="173844" user="Antikalk" changeset="10084537">
    <nd ref="1033655947"/>
    <nd ref="1033656051"/>
    <nd ref="1033655934"/>
    <nd ref="1033656240"/>
    <nd ref="1033656283"/>
    <nd ref="1033655867"/>
    <nd ref="1033656009"/>
    <nd ref="1033656179"/>
    <nd ref="1033656243"/>
    <nd ref="1033655947"/>
    <tag k="addr:city" v="Düsseldorf"/>
    <tag k="addr:country" v="DE"/>
    <tag k="addr:housenumber" v="30"/>
    <tag k="addr:postcode" v="40547"/>
    <tag k="addr:street" v="Brüggener Weg"/>
    <tag k="building" v="yes"/>
    <tag k="source" v="Bing Sat"/>
  </way>
  <way id="89091584" version="5" timestamp="2011-12-23T21:59:16Z" uid="173844" user="Antikalk" changeset="10190493"/>
  <way id="89091587" version="1" timestamp="2010-12-11T18:16:58Z" uid="151899" user="Bikeman2000" changeset="6627686">
    <nd ref="1033656007"/>
    <nd ref="1033656108"/>
    <nd ref="1033655992"/>
    <nd ref="1033656293"/>
    <nd ref="1033656223"/>
    <nd ref="1033656188"/>
    <nd ref="1033656131"/>
    <nd ref="1033656013"/>
    <nd ref="1033655912"/>
    <nd ref="1033656166"/>
    <nd ref="1033656075"/>
    <nd ref="1033655977"/>
    <nd ref="1033656007"/>
    <tag k="building" v="yes"/>
  </way>
  <way id="89091587" version="2" timestamp="2011-01-04T15:30:22Z" uid="151899" user="Bikeman2000" changeset="6861885">
    <nd ref="1033656007"/>
    <nd ref="1033656108"/>
    <nd ref="1033655992"/>
    <nd ref="1033656293"/>
    <nd ref="1033656223"/>
    <nd ref="1033656188"/>
    <nd ref="1033656131"/>
    <nd ref="1033656013"/>
    <nd ref="1033655912"/>
    <nd ref="1082264463"/>
    <nd ref="1033656166"/>
    <nd ref="1033656075"/>
    <nd ref="1033655977"/>
    <nd ref="1033656007"/>
    <tag k="building" v="yes"/>
  </way>
  <way id="89091587" version="3" timestamp="2011-11-27T19:06:47Z" uid="173844" user="Antikalk" changeset="9970668">
    <nd ref="1033656007"/>
    <nd ref="1033656108"/>
    <nd ref="1033655992"/>
    <nd ref="1033656293"/>
    <nd ref="1033656223"/>
    <nd ref="1033656188"/>
    <nd ref="1033656131"/>
    <nd ref="1033656013"/>
    <nd ref="1033655912"/>
    <nd ref="1082264463"/>
    <nd ref="1033656166"/>
    <nd ref="1033656075"/>
    <nd ref="1033655977"/>
    <nd ref="1033656007"/>
    <tag k="addr:city" v="Duesseldorf"/>
    <tag k="addr:country" v="DE"/>
    <tag k="addr:housenumber" v="28"/>
    <tag k="addr:postcode" v="40545"/>
    <tag k="addr:street" v="Brüggener Weg"/>
    <tag k="building" v="yes"/>
    <tag k="source" v="Bing Sat"/>
  </way>
  <way id="89091587" version="4" timestamp="2011-11-28T02:21:02Z" uid="173844" user="Antikalk" changeset="9973944">
    <nd ref="1033656007"/>
    <nd ref="1033656108"/>
    <nd ref="1033655992"/>
    <nd ref="1033656293"/>
    <nd ref="1033656223"/>
    <nd ref="1033656188"/>
    <nd ref="1033656131"/>
    <nd ref="1033656013"/>
    <nd ref="1033655912"/>
    <nd ref="1082264463"/>
    <nd ref="1033656166"/>
    <nd ref="1033656075"/>
    <nd ref="1033655977"/>
    <nd ref="1033656007"/>
    <tag k="addr:city" v="Duesseldorf"/>
    <tag k="addr:country" v="DE"/>
    <tag k="addr:housenumber" v="28"/>
    <tag k="addr:postcode" v="40547"/>
    <tag k="addr:street" v="Brüggener Weg"/>
    <tag k="building" v="yes"/>
    <tag k="source" v="Bing Sat"/>
  </way>
  <way id="89091587" version="5" timestamp="2011-12-10T20:21:52Z" uid="173844" user="Antikalk" changeset="10084537">
    <nd ref="1033656007"/>
    <nd ref="1033656108"/>
    <nd ref="1033655992"/>
    <nd ref="1033656293"/>
    <nd ref="1033656223"/>
    <nd ref="1033656188"/>
    <nd ref="1033656131"/>
    <nd ref="1033656013"/>
    <nd ref="1033655912"/>
    <nd ref="1082264463"/>
    <nd ref="1033656166"/>
    <nd ref="1033656075"/>
    <nd ref="1033655977"/>
    <nd ref="1033656007"/>
    <tag k="addr:city" v="Düsseldorf"/>
    <tag k="addr:country" v="DE"/>
    <tag k="addr:housenumber" v="28"/>
    <tag k="addr:postcode" v="40547"/>
    <tag k="addr:street" v="Brüggener Weg"/>
    <tag k="building" v="yes"/>
    <tag k="source" v="Bing Sat"/>
  </way>
  <way id="89091587" version="6" timestamp="2011-12-23T21:59:15Z" uid="173844" user="Antikalk" changeset="10190493"/>
  <way id="89091588" version="1" timestamp="2010-12-11T18:16:59Z" uid="151899" user="Bikeman2000" changeset="6627686">
    <nd ref="1033656270"/>
    <nd ref="1033656183"/>
    <nd ref="1033655926"/>
    <nd ref="1033656124"/>
    <nd ref="1033656238"/>
    <nd ref="1033656270"/>
    <tag k="building" v="yes"/>
  </way>
  <way id="89091588" version="2" timestamp="2011-01-04T15:30:26Z" uid="151899" user="Bikeman2000" changeset="6861885">
    <nd ref="1033656270"/>
    <nd ref="1033656183"/>
    <nd ref="1082264497"/>
    <nd ref="1033655926"/>
    <nd ref="1033656124"/>
    <nd ref="1033656238"/>
    <nd ref="1033656270"/>
    <tag k="building" v="yes"/>
  </way>
  <way id="89091588" version="3" timestamp="2011-11-27T19:06:39Z" uid="173844" user="Antikalk" changeset="9970668">
    <nd ref="1033656270"/>
    <nd ref="1033656183"/>
    <nd ref="1082264497"/>
    <nd ref="1033655926"/>
    <nd ref="1033656124"/>
    <nd ref="1033656238"/>
    <nd ref="1033656270"/>
    <tag k="addr:city" v="Duesseldorf"/>
    <tag k="addr:country" v="DE"/>
    <tag k="addr:housenumber" v="124"/>
    <tag k="addr:postcode" v="40545"/>
    <tag k="addr:street" v="Niederkasseler Kirchweg"/>
    <tag k="building" v="yes"/>
    <tag k="source" v="Bing Sat"/>
  </way>
  <way id="89091588" version="4" timestamp="2011-11-28T02:20:27Z" uid="173844" user="Antikalk" changeset="9973944">
    <nd ref="1033656270"/>
    <nd ref="1033656183"/>
    <nd ref="1082264497"/>
    <nd ref="1033655926"/>
    <nd ref="1033656124"/>
    <nd ref="1033656238"/>
    <nd ref="1033656270"/>
    <tag k="addr:city" v="Duesseldorf"/>
    <tag k="addr:country" v="DE"/>
    <tag k="addr:housenumber" v="124"/>
    <tag k="addr:postcode" v="40547"/>
    <tag k="addr:street" v="Niederkasseler Kirchweg"/>
    <tag k="building" v="yes"/>
    <tag k="source" v="Bing Sat"/>
  </way>
  <way id="89091588" version="5" timestamp="2011-12-10T20:21:24Z" uid="173844" user="Antikalk" changeset="10084537">
    <nd ref="1033656270"/>
    <nd ref="1033656183"/>
    <nd ref="1082264497"/>
    <nd ref="1033655926"/>
    <nd ref="1033656124"/>
    <nd ref="1033656238"/>
    <nd ref="1033656270"/>
    <tag k="addr:city" v="Düsseldorf"/>
    <tag k="addr:country" v="DE"/>
    <tag k="addr:housenumber" v="124"/>
    <tag k="addr:postcode" v="40547"/>
    <tag k="addr:street" v="Niederkasseler Kirchweg"/>
    <tag k="building" v="yes"/>
    <tag k="source" v="Bing Sat"/>
  </way>
  <way id="89091588" version="6" timestamp="2011-12-23T22:07:18Z" uid="173844" user="Antikalk" changeset="10190558"/>
  <way id="89091591" version="1" timestamp="2010-12-11T18:17:00Z" uid="151899" user="Bikeman2000" changeset="6627686">
    <nd ref="1033655850"/>
    <nd ref="1033656062"/>
    <nd ref="1033656235"/>
    <nd ref="1033655999"/>
    <nd ref="1033656226"/>
    <nd ref="1033655850"/>
    <tag k="building" v="yes"/>
  </way>
  <way id="89091591" version="2" timestamp="2011-01-04T15:30:26Z" uid="151899" user="Bikeman2000" changeset="6861885">
    <nd ref="1033655850"/>
    <nd ref="1033656062"/>
    <nd ref="1082264431"/>
    <nd ref="1082264458"/>
    <nd ref="1033656235"/>
    <nd ref="1033655999"/>
    <nd ref="1033656226"/>
    <nd ref="1033655850"/>
    <tag k="building" v="yes"/>
  </way>
  <way id="89091591" version="3" timestamp="2011-11-27T19:06:40Z" uid="173844" user="Antikalk" changeset="9970668">
    <nd ref="1033655850"/>
    <nd ref="1033656062"/>
    <nd ref="1082264431"/>
    <nd ref="1082264458"/>
    <nd ref="1033656235"/>
    <nd ref="1033655999"/>
    <nd ref="1033656226"/>
    <nd ref="1033655850"/>
    <tag k="addr:city" v="Duesseldorf"/>
    <tag k="addr:country" v="DE"/>
    <tag k="addr:housenumber" v="128"/>
    <tag k="addr:postcode" v="40545"/>
    <tag k="addr:street" v="Niederkasseler Kirchweg"/>
    <tag k="building" v="yes"/>
    <tag k="source" v="Bing Sat"/>
  </way>
  <way id="89091591" version="4" timestamp="2011-11-28T02:20:27Z" uid="173844" user="Antikalk" changeset="9973944">
    <nd ref="1033655850"/>
    <nd ref="1033656062"/>
    <nd ref="1082264431"/>
    <nd ref="1082264458"/>
    <nd ref="1033656235"/>
    <nd ref="1033655999"/>
    <nd ref="1033656226"/>
    <nd ref="1033655850"/>
    <tag k="addr:city" v="Duesseldorf"/>
    <tag k="addr:country" v="DE"/>
    <tag k="addr:housenumber" v="128"/>
    <tag k="addr:postcode" v="40547"/>
    <tag k="addr:street" v="Niederkasseler Kirchweg"/>
    <tag k="building" v="yes"/>
    <tag k="source" v="Bing Sat"/>
  </way>
  <way id="89091591" version="5" timestamp="2011-12-07T20:28:15Z" uid="173844" user="Antikalk" changeset="10060777">
    <nd ref="1033655850"/>
    <nd ref="1033656062"/>
    <nd ref="1082264431"/>
    <nd ref="1033656235"/>
    <nd ref="1033655999"/>
    <nd ref="1033656226"/>
    <nd ref="1033655850"/>
    <tag k="addr:city" v="Duesseldorf"/>
    <tag k="addr:country" v="DE"/>
    <tag k="addr:housenumber" v="128"/>
    <tag k="addr:postcode" v="40547"/>
    <tag k="addr:street" v="Niederkasseler Kirchweg"/>
    <tag k="building" v="yes"/>
    <tag k="source" v="Bing Sat"/>
  </way>
  <way id="89091591" version="6" timestamp="2011-12-10T20:21:25Z" uid="173844" user="Antikalk" changeset="10084537">
    <nd ref="1033655850"/>
    <nd ref="1033656062"/>
    <nd ref="1082264431"/>
    <nd ref="1033656235"/>
    <nd ref="1033655999"/>
    <nd ref="1033656226"/>
    <nd ref="1033655850"/>
    <tag k="addr:city" v="Düsseldorf"/>
    <tag k="addr:country" v="DE"/>
    <tag k="addr:housenumber" v="128"/>
    <tag k="addr:postcode" v="40547"/>
    <tag k="addr:street" v="Niederkasseler Kirchweg"/>
    <tag k="building" v="yes"/>
    <tag k="source" v="Bing Sat"/>
  </way>
  <way id="89091591" version="7" timestamp="2011-12-23T22:07:19Z" uid="173844" user="Antikalk" changeset="10190558"/>
  <way id="89091593" version="1" timestamp="2010-12-11T18:17:00Z" uid="151899" user="Bikeman2000" changeset="6627686">
    <nd ref="1033655941"/>
    <nd ref="1033656127"/>
    <nd ref="1033656106"/>
    <nd ref="1033655987"/>
    <nd ref="1033655941"/>
    <tag k="building" v="yes"/>
  </way>
  <way id="89091593" version="2" timestamp="2011-11-27T19:06:35Z" uid="173844" user="Antikalk" changeset="9970668">
    <nd ref="1033655941"/>
    <nd ref="1033656127"/>
    <nd ref="1520065471"/>
    <nd ref="1033656106"/>
    <nd ref="1033655987"/>
    <nd ref="1033655941"/>
    <tag k="addr:city" v="Duesseldorf"/>
    <tag k="addr:country" v="DE"/>
    <tag k="addr:housenumber" v="112"/>
    <tag k="addr:postcode" v="40545"/>
    <tag k="addr:street" v="Niederkasseler Kirchweg"/>
    <tag k="building" v="yes"/>
    <tag k="source" v="Bing Sat"/>
  </way>
  <way id="89091593" version="3" timestamp="2011-11-28T02:20:19Z" uid="173844" user="Antikalk" changeset="9973944">
    <nd ref="1033655941"/>
    <nd ref="1033656127"/>
    <nd ref="1520065471"/>
    <nd ref="1033656106"/>
    <nd ref="1033655987"/>
    <nd ref="1033655941"/>
    <tag k="addr:city" v="Duesseldorf"/>
    <tag k="addr:country" v="DE"/>
    <tag k="addr:housenumber" v="112"/>
    <tag k="addr:postcode" v="40547"/>
    <tag k="addr:street" v="Niederkasseler Kirchweg"/>
    <tag k="building" v="yes"/>
    <tag k="source" v="Bing Sat"/>
  </way>
  <way id="89091593" version="4" timestamp="2011-12-10T20:21:19Z" uid="173844" user="Antikalk" changeset="10084537">
    <nd ref="1033655941"/>
    <nd ref="1033656127"/>
    <nd ref="1520065471"/>
    <nd ref="1033656106"/>
    <nd ref="1033655987"/>
    <nd ref="1033655941"/>
    <tag k="addr:city" v="Düsseldorf"/>
    <tag k="addr:country" v="DE"/>
    <tag k="addr:housenumber" v="112"/>
    <tag k="addr:postcode" v="40547"/>
    <tag k="addr:street" v="Niederkasseler Kirchweg"/>
    <tag k="building" v="yes"/>
    <tag k="source" v="Bing Sat"/>
  </way>
  <way id="89091593" version="5" timestamp="2011-12-23T15:56:42Z" uid="173844" user="Antikalk" changeset="10188011"/>
</osm>
