<?xml version='1.0' encoding='UTF-8'?>
<osm version="0.6" generator="libosmium/2.20.0">
  <way id="89713146" version="1" timestamp="2010-12-15T19:20:18Z" uid="151899" user="Bikeman2000" changeset="6670605">
    <nd ref="1039668002"/>
    <nd ref="1039667995"/>
    <nd ref="1039667994"/>
    <nd ref="1039667999"/>
    <nd ref="1039668002"/>
    <tag k="building" v="yes"/>
  </way>
  <way id="89713146" version="2" timestamp="2011-11-26T11:49:12Z" uid="173844" user="Antikalk" changeset="9954506"/>
  <way id="89713147" version="1" timestamp="2010-12-15T19:20:18Z" uid="151899" user="Bikeman2000" changeset="6670605">
    <nd ref="1039667995"/>
    <nd ref="1039667991"/>
    <nd ref="1039668036"/>
    <nd ref="1039668028"/>
    <nd ref="1039667994"/>
    <nd ref="1039667995"/>
    <tag k="building" v="yes"/>
  </way>
  <way id="89713147" version="2" timestamp="2011-11-26T11:49:08Z" uid="173844" user="Antikalk" changeset="9954506">
    <nd ref="1039667995"/>
    <nd ref="1517598384"/>
    <nd ref="1039667991"/>
    <nd ref="1039668036"/>
    <nd ref="1517598387"/>
    <nd ref="1517598389"/>
    <nd ref="1517598394"/>
    <nd ref="1517598393"/>
    <nd ref="1039668028"/>
    <nd ref="1039667994"/>
    <nd ref="1517598391"/>
    <nd ref="1039667995"/>
    <tag k="addr:city" v="Düsseldorf"/>
    <tag k="addr:country" v="DE"/>
    <tag k="addr:housenumber" v="94"/>
    <tag k="addr:postcode" v="40545"/>
    <tag k="addr:street" v="Oberkasseler Straße"/>
    <tag k="building" v="yes"/>
    <tag k="source" v="Bing Sat"/>
  </way>
  <way id="89713147" version="3" timestamp="2011-12-22T06:52:10Z" uid="173844" user="Antikalk" changeset="10177195"/>
  <way id="89713150" version="1" timestamp="2010-12-15T19:20:19Z" uid="151899" user="Bikeman2000" changeset="6670605">
    <nd ref="1039667991"/>
    <nd ref="1039668036"/>
    <nd ref="1039658488"/>
    <nd ref="1039658464"/>
    <nd ref="1039667991"/>
    <tag k="building" v="yes"/>
  </way>
  <way id="89713150" version="2" timestamp="2011-11-26T11:49:07Z" uid="173844" user="Antikalk" changeset="9954506">
    <nd ref="1039667991"/>
    <nd ref="1039668036"/>
    <nd ref="1517598376"/>
    <nd ref="1039658488"/>
    <nd ref="1039658464"/>
    <nd ref="1517598377"/>
    <nd ref="1039667991"/>
    <tag k="addr:city" v="Düsseldorf"/>
    <tag k="addr:country" v="DE"/>
    <tag k="addr:housenumber" v="90"/>
    <tag k="addr:postcode" v="40545"/>
    <tag k="addr:street" v="Oberkasseler Straße"/>
    <tag k="building" v="yes"/>
    <tag k="source" v="Bing Sat"/>
  </way>
  <way id="89713150" version="3" timestamp="2011-12-22T06:52:09Z" uid="173844" user="Antikalk" changeset="10177195"/>
  <way id="89713358" version="1" timestamp="2010-12-15T19:21:58Z" uid="151899" user="Bikeman2000" changeset="6670623">
    <nd ref="1039670108"/>
    <nd ref="1039670090"/>
    <nd ref="1039670066"/>
    <nd ref="1039670043"/>
    <nd ref="1039670073"/>
    <nd ref="1039670108"/>
    <tag k="building" v="yes"/>
  </way>
  <way id="89713358" version="2" timestamp="2011-11-26T02:45:35Z" uid="173844" user="Antikalk" changeset="9951022">
    <nd ref="1039670108"/>
    <nd ref="1039670090"/>
    <nd ref="1039670066"/>
    <nd ref="1039670043"/>
    <nd ref="1039670073"/>
    <nd ref="1517317268"/>
    <nd ref="1039670108"/>
    <tag k="addr:city" v="Duesseldorf"/>
    <tag k="addr:country" v="DE"/>
    <tag k="addr:housenumber" v="8"/>
    <tag k="addr:postcode" v="40545"/>
    <tag k="addr:street" v="Joachimstraße"/>
    <tag k="building" v="yes"/>
    <tag k="source" v="Bing Sat"/>
  </way>
  <way id="89713358" version="3" timestamp="2011-12-18T06:46:37Z" uid="173844" user="Antikalk" changeset="10143964"/>
  <way id="89713359" version="1" timestamp="2010-12-15T19:21:59Z" uid="151899" user="Bikeman2000" changeset="6670623">
    <nd ref="1039670082"/>
    <nd ref="1039670117"/>
    <nd ref="1039670073"/>
    <nd ref="1039670043"/>
    <nd ref="1039670082"/>
    <tag k="building" v="yes"/>
  </way>
  <way id="89713359" version="2" timestamp="2011-11-26T02:45:33Z" uid="173844" user="Antikalk" changeset="9951022">
    <nd ref="1039670082"/>
    <nd ref="1039670117"/>
    <nd ref="1517317263"/>
    <nd ref="1039670073"/>
    <nd ref="1039670043"/>
    <nd ref="1039670082"/>
    <tag k="addr:city" v="Duesseldorf"/>
    <tag k="addr:country" v="DE"/>
    <tag k="addr:housenumber" v="6"/>
    <tag k="addr:postcode" v="40545"/>
    <tag k="addr:street" v="Joachimstraße"/>
    <tag k="building" v="yes"/>
    <tag k="source" v="Bing Sat"/>
  </way>
  <way id="89713359" version="3" timestamp="2011-12-18T06:46:37Z" uid="173844" user="Antikalk" changeset="10143964"/>
  <way id="89713361" version="1" timestamp="2010-12-15T19:21:59Z" uid="151899" user="Bikeman2000" changeset="6670623">
    <nd ref="1039670105"/>
    <nd ref="1039670052"/>
    <nd ref="1039670117"/>
    <nd ref="1039670082"/>
    <nd ref="1039670105"/>
    <tag k="building" v="yes"/>
  </way>
  <way id="89713361" version="2" timestamp="2011-11-26T02:45:31Z" uid="173844" user="Antikalk" changeset="9951022">
    <nd ref="1039670105"/>
    <nd ref="1039670052"/>
    <nd ref="1517317260"/>
    <nd ref="1039670117"/>
    <nd ref="1039670082"/>
    <nd ref="1039670105"/>
    <tag k="addr:city" v="Duesseldorf"/>
    <tag k="addr:country" v="DE"/>
    <tag k="addr:housenumber" v="4"/>
    <tag k="addr:postcode" v="40545"/>
    <tag k="addr:street" v="Joachimstraße"/>
    <tag k="building" v="yes"/>
    <tag k="source" v="Bing Sat"/>
  </way>
  <way id="89713361" version="3" timestamp="2011-12-18T06:46:36Z" uid="173844" user="Antikalk" changeset="10143964"/>
  <way id="89713364" version="1" timestamp="2010-12-15T19:22:00Z" uid="151899" user="Bikeman2000" changeset="6670623">
    <nd ref="1039670112"/>
    <nd ref="1039670077"/>
    <nd ref="1039670052"/>
    <nd ref="1039670105"/>
    <nd ref="1039670112"/>
    <tag k="building" v="yes"/>
  </way>
  <way id="89713364" version="2" timestamp="2011-11-26T02:45:25Z" uid="173844" user="Antikalk" changeset="9951022">
    <nd ref="1039670112"/>
    <nd ref="1039670077"/>
    <nd ref="1517317255"/>
    <nd ref="1039670052"/>
    <nd ref="1039670105"/>
    <nd ref="1039670112"/>
    <tag k="addr:city" v="Duesseldorf"/>
    <tag k="addr:country" v="DE"/>
    <tag k="addr:housenumber" v="2"/>
    <tag k="addr:postcode" v="40545"/>
    <tag k="addr:street" v="Joachimstraße"/>
    <tag k="building" v="yes"/>
    <tag k="source" v="Bing Sat"/>
  </way>
  <way id="89713364" version="3" timestamp="2011-12-18T06:46:35Z" uid="173844" user="Antikalk" changeset="10143964"/>
  <way id="89713365" version="1" timestamp="2010-12-15T19:22:00Z" uid="151899" user="Bikeman2000" changeset="6670623">
    <nd ref="1039670088"/>
    <nd ref="1039670066"/>
    <nd ref="1039670090"/>
    <nd ref="1039670045"/>
    <nd ref="1039670088"/>
    <tag k="building" v="yes"/>
  </way>
  <way id="89713365" version="2" timestamp="2011-12-18T06:46:39Z" uid="173844" user="Antikalk" changeset="10143964"/>
  <way id="89713367" version="1" timestamp="2010-12-15T19:22:01Z" uid="151899" user="Bikeman2000" changeset="6670623">
    <nd ref="1039670121"/>
    <nd ref="1039670099"/>
    <nd ref="1039670049"/>
    <nd ref="1039670115"/>
    <nd ref="1039670086"/>
    <nd ref="1039670112"/>
    <nd ref="1039670077"/>
    <nd ref="1039670070"/>
    <nd ref="1039670121"/>
    <tag k="building" v="yes"/>
  </way>
  <way id="89713367" version="2" timestamp="2011-11-19T19:34:17Z" uid="173844" user="Antikalk" changeset="9876452">
    <nd ref="1039670121"/>
    <nd ref="1039670099"/>
    <nd ref="1039670049"/>
    <nd ref="1039670115"/>
    <nd ref="1039670086"/>
    <nd ref="1039670112"/>
    <nd ref="1039670077"/>
    <nd ref="1039670070"/>
    <nd ref="1039670121"/>
    <tag k="addr:city" v="Duesseldorf"/>
    <tag k="addr:country" v="DE"/>
    <tag k="addr:housenumber" v="22"/>
    <tag k="addr:postcode" v="40545"/>
    <tag k="addr:street" v="Luegallee"/>
    <tag k="building" v="yes"/>
    <tag k="source" v="Bing Sat"/>
  </way>
  <way id="89713367" version="3" timestamp="2011-11-19T19:46:13Z" uid="173844" user="Antikalk" changeset="9876596">
    <nd ref="1039670121"/>
    <nd ref="1039670099"/>
    <nd ref="1039670049"/>
    <nd ref="1039670115"/>
    <nd ref="1039670086"/>
    <nd ref="1039670112"/>
    <nd ref="1039670077"/>
    <nd ref="1039670070"/>
    <nd ref="1508915661"/>
    <nd ref="1039670121"/>
    <tag k="addr:city" v="Duesseldorf"/>
    <tag k="addr:country" v="DE"/>
    <tag k="addr:housenumber" v="22"/>
    <tag k="addr:postcode" v="40545"/>
    <tag k="addr:street" v="Luegallee"/>
    <tag k="building" v="yes"/>
    <tag k="source" v="Bing Sat"/>
  </way>
  <way id="89713367" version="4" timestamp="2011-12-18T06:46:36Z" uid="173844" user="Antikalk" changeset="10143964"/>
</osm>
