<?xml version='1.0' encoding='UTF-8'?>
<osm version="0.6" generator="libosmium/2.20.0">
  <way id="89781227" version="2" timestamp="2011-01-14T08:49:15Z" uid="4467" user="Rosscoe" changeset="6965044"/>
  <way id="89781228" version="2" timestamp="2011-01-14T08:49:09Z" uid="4467" user="Rosscoe" changeset="6965044">
    <nd ref="1102986863"/>
    <nd ref="1040466893"/>
    <nd ref="757569197"/>
    <tag k="highway" v="secondary"/>
    <tag k="name" v="Remisko Drive"/>
    <tag k="oneway" v="yes"/>
  </way>
  <way id="89781229" version="2" timestamp="2011-01-14T08:49:15Z" uid="4467" user="Rosscoe" changeset="6965044"/>
  <way id="89781230" version="2" timestamp="2011-01-14T08:49:15Z" uid="4467" user="Rosscoe" changeset="6965044"/>
  <way id="89781228" version="3" timestamp="2012-07-19T16:13:56Z" uid="722137" user="OSMF Redaction Account" changeset="12338264">
    <nd ref="1040466893"/>
    <nd ref="757569197"/>
    <tag k="highway" v="secondary"/>
    <tag k="name" v="Remisko Drive"/>
    <tag k="oneway" v="yes"/>
  </way>
  <way id="89781228" version="4" timestamp="2012-07-24T15:09:28Z" uid="61942" user="SomeoneElse" changeset="12468776">
    <nd ref="245091340"/>
    <nd ref="1040466893"/>
    <nd ref="757569197"/>
    <tag k="highway" v="secondary"/>
    <tag k="name" v="Remisko Drive"/>
    <tag k="oneway" v="yes"/>
    <tag k="source" v="Unknown;Bing"/>
  </way>
</osm>
