<?xml version='1.0' encoding='UTF-8'?>
<osm version="0.6" generator="libosmium/2.20.0">
  <way id="89836083" version="3" timestamp="2011-05-11T15:38:18Z" uid="66036" user="h4v" changeset="8113443">
    <nd ref="1041317132"/>
    <nd ref="1041316547"/>
    <nd ref="1041317547"/>
    <nd ref="1280355550"/>
    <tag k="highway" v="primary"/>
    <tag k="name" v="Wolborska"/>
    <tag k="ref" v="91"/>
    <tag k="source" v="GPS"/>
  </way>
  <way id="89836100" version="2" timestamp="2011-05-11T15:38:35Z" uid="66036" user="h4v" changeset="8113443">
    <nd ref="1041319912"/>
    <nd ref="1041316238"/>
    <nd ref="1041320065"/>
    <nd ref="1280355546"/>
    <tag k="highway" v="tertiary"/>
    <tag k="name" v="Wierzejska"/>
    <tag k="source" v="http://ump.waw.pl/ retrieved 01:44:10 12/16/10 (pc_PL/UMP-Lodz/src/PIOTRKOW_TRYBUNALSKI.ulice.txt)"/>
  </way>
  <way id="89836100" version="3" timestamp="2012-02-26T12:15:25Z" uid="86504" user="Thomas8122" changeset="10797302"/>
  <way id="89836083" version="4" timestamp="2012-07-24T12:59:43Z" uid="722137" user="OSMF Redaction Account" changeset="12466104">
    <nd ref="1041317132"/>
    <nd ref="1041316547"/>
    <nd ref="1041317547"/>
    <tag k="highway" v="primary"/>
    <tag k="name" v="Wolborska"/>
    <tag k="ref" v="91"/>
    <tag k="source" v="GPS"/>
  </way>
  <way id="89836083" version="5" timestamp="2012-07-25T15:13:43Z" uid="86504" user="Thomas8122" changeset="12488151">
    <nd ref="1041317132"/>
    <nd ref="1041316547"/>
    <nd ref="1041317547"/>
    <nd ref="1837765669"/>
    <tag k="highway" v="primary"/>
    <tag k="name" v="Wolborska"/>
    <tag k="ref" v="91"/>
    <tag k="source" v="GPS"/>
  </way>
  <way id="89836083" version="6" timestamp="2012-08-12T15:39:20Z" uid="44414" user="marimil" changeset="12703129">
    <nd ref="1041317132"/>
    <nd ref="1041316547"/>
    <nd ref="1041317547"/>
    <tag k="highway" v="primary"/>
    <tag k="name" v="Wolborska"/>
    <tag k="ref" v="91"/>
    <tag k="source" v="GPS"/>
  </way>
</osm>
