<?xml version='1.0' encoding='UTF-8'?>
<osm version="0.6" generator="libosmium/2.20.0">
  <way id="89850193" version="3" timestamp="2011-05-25T16:55:37Z" uid="107674" user="GeoCounter" changeset="8246463">
    <nd ref="1041525990"/>
    <nd ref="1041526007"/>
    <nd ref="1041525815"/>
    <nd ref="1041525763"/>
    <nd ref="1041525990"/>
    <tag k="addr:housenumber" v="12"/>
    <tag k="addr:street" v="Carl-Zeiss-Straße"/>
    <tag k="amenity" v="place_of_worship"/>
    <tag k="building" v="yes"/>
    <tag k="contact:website" v="http://www.roedermark.feg.de"/>
    <tag k="denomination" v="protestant"/>
    <tag k="name" v="Freie evangelische Gemeinde Rödermark (FeG)"/>
    <tag k="religion" v="christian"/>
  </way>
  <way id="89850193" version="4" timestamp="2012-03-20T12:41:12Z" uid="162016" user="Neil Dewhurst" changeset="11040818">
    <nd ref="1041525990"/>
    <nd ref="1041526007"/>
    <nd ref="1041525815"/>
    <nd ref="1041525763"/>
    <nd ref="1041525990"/>
    <tag k="addr:housenumber" v="12"/>
    <tag k="amenity" v="place_of_worship"/>
    <tag k="building" v="yes"/>
    <tag k="contact:website" v="http://www.roedermark.feg.de"/>
    <tag k="denomination" v="protestant"/>
    <tag k="name" v="Freie evangelische Gemeinde Rödermark (FeG)"/>
    <tag k="religion" v="christian"/>
  </way>
  <way id="89850193" version="5" timestamp="2012-04-18T07:28:53Z" uid="162016" user="Neil Dewhurst" changeset="11340889">
    <nd ref="1041525990"/>
    <nd ref="1041526007"/>
    <nd ref="1041525815"/>
    <nd ref="1041525763"/>
    <nd ref="1041525990"/>
    <tag k="addr:housenumber" v="12"/>
    <tag k="addr:street" v="Carl-Zeiss-Straße"/>
    <tag k="amenity" v="place_of_worship"/>
    <tag k="building" v="yes"/>
    <tag k="contact:website" v="http://www.roedermark.feg.de"/>
    <tag k="denomination" v="protestant"/>
    <tag k="name" v="Freie evangelische Gemeinde Rödermark (FeG)"/>
    <tag k="religion" v="christian"/>
  </way>
  <way id="89850193" version="6" timestamp="2012-07-16T21:42:46Z" uid="722137" user="OSMF Redaction Account" changeset="12252267">
    <nd ref="1041525990"/>
    <nd ref="1041526007"/>
    <nd ref="1041525815"/>
    <nd ref="1041525763"/>
    <nd ref="1041525990"/>
    <tag k="addr:housenumber" v="12"/>
    <tag k="addr:street" v="Carl-Zeiss-Straße"/>
    <tag k="building" v="yes"/>
  </way>
  <way id="89850193" version="7" timestamp="2012-07-26T14:53:28Z" uid="11008" user="spacer1971" changeset="12500238">
    <nd ref="1041525990"/>
    <nd ref="1041526007"/>
    <nd ref="1041525815"/>
    <nd ref="1041525763"/>
    <nd ref="1041525990"/>
    <tag k="addr:housenumber" v="12"/>
    <tag k="addr:street" v="Carl-Zeiss-Straße"/>
    <tag k="building" v="yes"/>
  </way>
</osm>
