<?xml version='1.0' encoding='UTF-8'?>
<osm version="0.6" generator="libosmium/2.20.0">
  <way id="90078785" version="1" timestamp="2010-12-18T00:03:47Z" uid="151899" user="Bikeman2000" changeset="6692111">
    <nd ref="1044036842"/>
    <nd ref="1044036958"/>
    <nd ref="1044036840"/>
    <nd ref="1044037095"/>
    <nd ref="1044036893"/>
    <nd ref="1044036842"/>
    <tag k="building" v="yes"/>
  </way>
  <way id="90078785" version="2" timestamp="2011-11-19T18:53:05Z" uid="173844" user="Antikalk" changeset="9876029">
    <nd ref="1044036842"/>
    <nd ref="1044036958"/>
    <nd ref="1044036840"/>
    <nd ref="1044037095"/>
    <nd ref="1044036893"/>
    <nd ref="1044036842"/>
    <tag k="building" v="yes"/>
    <tag k="source" v="Bing Sat"/>
  </way>
  <way id="90078785" version="3" timestamp="2011-12-09T07:11:28Z" uid="173844" user="Antikalk" changeset="10070854">
    <nd ref="1044036842"/>
    <nd ref="1537835452"/>
    <nd ref="1044036958"/>
    <nd ref="1044036840"/>
    <nd ref="1044037095"/>
    <nd ref="1044036893"/>
    <nd ref="1044036842"/>
    <tag k="addr:city" v="Düsseldorf"/>
    <tag k="addr:country" v="DE"/>
    <tag k="addr:housenumber" v="20"/>
    <tag k="addr:postcode" v="40545"/>
    <tag k="addr:street" v="Schanzenstraße"/>
    <tag k="building" v="yes"/>
    <tag k="source" v="Bing Sat"/>
  </way>
  <way id="90078785" version="4" timestamp="2011-12-10T07:49:11Z" uid="173844" user="Antikalk" changeset="10078862">
    <nd ref="1044036842"/>
    <nd ref="1537835452"/>
    <nd ref="1044036958"/>
    <nd ref="1044036840"/>
    <nd ref="1044037095"/>
    <nd ref="1044036893"/>
    <nd ref="1044036842"/>
    <tag k="addr:city" v="Düsseldorf"/>
    <tag k="addr:country" v="DE"/>
    <tag k="addr:housenumber" v="20"/>
    <tag k="addr:postcode" v="40549"/>
    <tag k="addr:street" v="Schanzenstraße"/>
    <tag k="building" v="yes"/>
    <tag k="source" v="Bing Sat"/>
  </way>
  <way id="90078785" version="5" timestamp="2011-12-18T09:56:56Z" uid="173844" user="Antikalk" changeset="10144833"/>
  <way id="90078786" version="1" timestamp="2010-12-18T00:03:47Z" uid="151899" user="Bikeman2000" changeset="6692111">
    <nd ref="1044037029"/>
    <nd ref="1044037194"/>
    <nd ref="1044037002"/>
    <nd ref="1044036926"/>
    <nd ref="1044037073"/>
    <nd ref="1044036869"/>
    <nd ref="1044037029"/>
    <tag k="building" v="yes"/>
  </way>
  <way id="90078786" version="2" timestamp="2011-11-19T18:53:06Z" uid="173844" user="Antikalk" changeset="9876029">
    <nd ref="1044037029"/>
    <nd ref="1044037194"/>
    <nd ref="1044037002"/>
    <nd ref="1044036926"/>
    <nd ref="1044037073"/>
    <nd ref="1044036869"/>
    <nd ref="1044037029"/>
    <tag k="building" v="yes"/>
    <tag k="source" v="Bing Sat"/>
  </way>
  <way id="90078786" version="3" timestamp="2011-12-09T07:11:36Z" uid="173844" user="Antikalk" changeset="10070854">
    <nd ref="1044037029"/>
    <nd ref="1044037194"/>
    <nd ref="1044037002"/>
    <nd ref="1537835612"/>
    <nd ref="1044036926"/>
    <nd ref="1044037073"/>
    <nd ref="1044036869"/>
    <nd ref="1044037029"/>
    <tag k="addr:city" v="Düsseldorf"/>
    <tag k="addr:country" v="DE"/>
    <tag k="addr:housenumber" v="50"/>
    <tag k="addr:postcode" v="40545"/>
    <tag k="addr:street" v="Schanzenstraße"/>
    <tag k="building" v="yes"/>
    <tag k="source" v="Bing Sat"/>
  </way>
  <way id="90078786" version="4" timestamp="2011-12-10T07:49:29Z" uid="173844" user="Antikalk" changeset="10078862">
    <nd ref="1044037029"/>
    <nd ref="1044037194"/>
    <nd ref="1044037002"/>
    <nd ref="1537835612"/>
    <nd ref="1044036926"/>
    <nd ref="1044037073"/>
    <nd ref="1044036869"/>
    <nd ref="1044037029"/>
    <tag k="addr:city" v="Düsseldorf"/>
    <tag k="addr:country" v="DE"/>
    <tag k="addr:housenumber" v="50"/>
    <tag k="addr:postcode" v="40549"/>
    <tag k="addr:street" v="Schanzenstraße"/>
    <tag k="building" v="yes"/>
    <tag k="source" v="Bing Sat"/>
  </way>
  <way id="90078786" version="5" timestamp="2011-12-18T09:56:58Z" uid="173844" user="Antikalk" changeset="10144833"/>
  <way id="90078787" version="1" timestamp="2010-12-18T00:03:47Z" uid="151899" user="Bikeman2000" changeset="6692111">
    <nd ref="1044037002"/>
    <nd ref="1044037248"/>
    <nd ref="1044037165"/>
    <nd ref="1044037048"/>
    <nd ref="1044036954"/>
    <nd ref="1044037194"/>
    <nd ref="1044037002"/>
    <tag k="building" v="yes"/>
  </way>
  <way id="90078787" version="2" timestamp="2011-11-19T18:53:06Z" uid="173844" user="Antikalk" changeset="9876029">
    <nd ref="1044037002"/>
    <nd ref="1044037248"/>
    <nd ref="1044037165"/>
    <nd ref="1044037048"/>
    <nd ref="1044036954"/>
    <nd ref="1044037194"/>
    <nd ref="1044037002"/>
    <tag k="building" v="yes"/>
    <tag k="source" v="Bing Sat"/>
  </way>
  <way id="90078787" version="3" timestamp="2011-12-09T07:11:36Z" uid="173844" user="Antikalk" changeset="10070854">
    <nd ref="1044037002"/>
    <nd ref="1537835593"/>
    <nd ref="1044037248"/>
    <nd ref="1044037165"/>
    <nd ref="1044037048"/>
    <nd ref="1044036954"/>
    <nd ref="1044037194"/>
    <nd ref="1044037002"/>
    <tag k="addr:city" v="Düsseldorf"/>
    <tag k="addr:country" v="DE"/>
    <tag k="addr:housenumber" v="48"/>
    <tag k="addr:postcode" v="40545"/>
    <tag k="addr:street" v="Schanzenstraße"/>
    <tag k="building" v="yes"/>
    <tag k="source" v="Bing Sat"/>
  </way>
  <way id="90078787" version="4" timestamp="2011-12-10T07:49:28Z" uid="173844" user="Antikalk" changeset="10078862">
    <nd ref="1044037002"/>
    <nd ref="1537835593"/>
    <nd ref="1044037248"/>
    <nd ref="1044037165"/>
    <nd ref="1044037048"/>
    <nd ref="1044036954"/>
    <nd ref="1044037194"/>
    <nd ref="1044037002"/>
    <tag k="addr:city" v="Düsseldorf"/>
    <tag k="addr:country" v="DE"/>
    <tag k="addr:housenumber" v="48"/>
    <tag k="addr:postcode" v="40549"/>
    <tag k="addr:street" v="Schanzenstraße"/>
    <tag k="building" v="yes"/>
    <tag k="source" v="Bing Sat"/>
  </way>
  <way id="90078787" version="5" timestamp="2011-12-18T09:56:58Z" uid="173844" user="Antikalk" changeset="10144833"/>
  <way id="90078788" version="1" timestamp="2010-12-18T00:03:47Z" uid="151899" user="Bikeman2000" changeset="6692111">
    <nd ref="1044036860"/>
    <nd ref="1044037186"/>
    <nd ref="1044036867"/>
    <nd ref="1044037100"/>
    <nd ref="1044036860"/>
    <tag k="building" v="yes"/>
  </way>
  <way id="90078788" version="2" timestamp="2011-11-19T18:53:06Z" uid="173844" user="Antikalk" changeset="9876029">
    <nd ref="1044036860"/>
    <nd ref="1044037186"/>
    <nd ref="1044036867"/>
    <nd ref="1044037100"/>
    <nd ref="1044036860"/>
    <tag k="building" v="yes"/>
    <tag k="source" v="Bing Sat"/>
  </way>
  <way id="90078788" version="3" timestamp="2011-12-09T07:11:33Z" uid="173844" user="Antikalk" changeset="10070854">
    <nd ref="1044036860"/>
    <nd ref="1537835580"/>
    <nd ref="1044037186"/>
    <nd ref="1044036867"/>
    <nd ref="1537835586"/>
    <nd ref="1044037100"/>
    <nd ref="1044036860"/>
    <tag k="addr:city" v="Düsseldorf"/>
    <tag k="addr:country" v="DE"/>
    <tag k="addr:housenumber" v="38"/>
    <tag k="addr:postcode" v="40545"/>
    <tag k="addr:street" v="Schanzenstraße"/>
    <tag k="building" v="yes"/>
    <tag k="source" v="Bing Sat"/>
  </way>
  <way id="90078788" version="4" timestamp="2011-12-10T07:49:23Z" uid="173844" user="Antikalk" changeset="10078862">
    <nd ref="1044036860"/>
    <nd ref="1537835580"/>
    <nd ref="1044037186"/>
    <nd ref="1044036867"/>
    <nd ref="1537835586"/>
    <nd ref="1044037100"/>
    <nd ref="1044036860"/>
    <tag k="addr:city" v="Düsseldorf"/>
    <tag k="addr:country" v="DE"/>
    <tag k="addr:housenumber" v="38"/>
    <tag k="addr:postcode" v="40549"/>
    <tag k="addr:street" v="Schanzenstraße"/>
    <tag k="building" v="yes"/>
    <tag k="source" v="Bing Sat"/>
  </way>
  <way id="90078788" version="5" timestamp="2011-12-18T09:56:57Z" uid="173844" user="Antikalk" changeset="10144833"/>
  <way id="90078789" version="1" timestamp="2010-12-18T00:03:48Z" uid="151899" user="Bikeman2000" changeset="6692111">
    <nd ref="1044037146"/>
    <nd ref="1044037239"/>
    <nd ref="1044036817"/>
    <nd ref="1044037210"/>
    <nd ref="1044037011"/>
    <nd ref="1044037146"/>
    <tag k="building" v="yes"/>
  </way>
  <way id="90078789" version="2" timestamp="2011-11-19T18:53:06Z" uid="173844" user="Antikalk" changeset="9876029">
    <nd ref="1044037146"/>
    <nd ref="1044037239"/>
    <nd ref="1044036817"/>
    <nd ref="1044037210"/>
    <nd ref="1044037011"/>
    <nd ref="1044037146"/>
    <tag k="building" v="yes"/>
    <tag k="source" v="Bing Sat"/>
  </way>
  <way id="90078789" version="3" timestamp="2011-12-09T07:11:31Z" uid="173844" user="Antikalk" changeset="10070854">
    <nd ref="1044037146"/>
    <nd ref="1537835563"/>
    <nd ref="1044037239"/>
    <nd ref="1044036817"/>
    <nd ref="1044037210"/>
    <nd ref="1044037011"/>
    <nd ref="1044037146"/>
    <tag k="addr:city" v="Düsseldorf"/>
    <tag k="addr:country" v="DE"/>
    <tag k="addr:housenumber" v="30"/>
    <tag k="addr:postcode" v="40545"/>
    <tag k="addr:street" v="Schanzenstraße"/>
    <tag k="building" v="yes"/>
    <tag k="source" v="Bing Sat"/>
  </way>
  <way id="90078789" version="4" timestamp="2011-12-10T07:49:18Z" uid="173844" user="Antikalk" changeset="10078862">
    <nd ref="1044037146"/>
    <nd ref="1537835563"/>
    <nd ref="1044037239"/>
    <nd ref="1044036817"/>
    <nd ref="1044037210"/>
    <nd ref="1044037011"/>
    <nd ref="1044037146"/>
    <tag k="addr:city" v="Düsseldorf"/>
    <tag k="addr:country" v="DE"/>
    <tag k="addr:housenumber" v="30"/>
    <tag k="addr:postcode" v="40549"/>
    <tag k="addr:street" v="Schanzenstraße"/>
    <tag k="building" v="yes"/>
    <tag k="source" v="Bing Sat"/>
  </way>
  <way id="90078789" version="5" timestamp="2011-12-18T09:56:57Z" uid="173844" user="Antikalk" changeset="10144833"/>
  <way id="90078790" version="1" timestamp="2010-12-18T00:03:48Z" uid="151899" user="Bikeman2000" changeset="6692111">
    <nd ref="1044036867"/>
    <nd ref="1044037124"/>
    <nd ref="1044036991"/>
    <nd ref="1044037186"/>
    <nd ref="1044036867"/>
    <tag k="building" v="yes"/>
  </way>
  <way id="90078790" version="2" timestamp="2011-11-19T18:53:07Z" uid="173844" user="Antikalk" changeset="9876029">
    <nd ref="1044036867"/>
    <nd ref="1044037124"/>
    <nd ref="1044036991"/>
    <nd ref="1044037186"/>
    <nd ref="1044036867"/>
    <tag k="building" v="yes"/>
    <tag k="source" v="Bing Sat"/>
  </way>
  <way id="90078790" version="3" timestamp="2011-12-09T07:11:32Z" uid="173844" user="Antikalk" changeset="10070854">
    <nd ref="1044036867"/>
    <nd ref="1044037124"/>
    <nd ref="1044036991"/>
    <nd ref="1537835577"/>
    <nd ref="1044037186"/>
    <nd ref="1044036867"/>
    <tag k="addr:city" v="Düsseldorf"/>
    <tag k="addr:country" v="DE"/>
    <tag k="addr:housenumber" v="36"/>
    <tag k="addr:postcode" v="40545"/>
    <tag k="addr:street" v="Schanzenstraße"/>
    <tag k="building" v="yes"/>
    <tag k="source" v="Bing Sat"/>
  </way>
  <way id="90078790" version="4" timestamp="2011-12-10T07:49:22Z" uid="173844" user="Antikalk" changeset="10078862">
    <nd ref="1044036867"/>
    <nd ref="1044037124"/>
    <nd ref="1044036991"/>
    <nd ref="1537835577"/>
    <nd ref="1044037186"/>
    <nd ref="1044036867"/>
    <tag k="addr:city" v="Düsseldorf"/>
    <tag k="addr:country" v="DE"/>
    <tag k="addr:housenumber" v="36"/>
    <tag k="addr:postcode" v="40549"/>
    <tag k="addr:street" v="Schanzenstraße"/>
    <tag k="building" v="yes"/>
    <tag k="source" v="Bing Sat"/>
  </way>
  <way id="90078790" version="5" timestamp="2011-12-18T09:56:57Z" uid="173844" user="Antikalk" changeset="10144833"/>
  <way id="90078791" version="1" timestamp="2010-12-18T00:03:48Z" uid="151899" user="Bikeman2000" changeset="6692111">
    <nd ref="1044037240"/>
    <nd ref="1044036895"/>
    <nd ref="1044036844"/>
    <nd ref="1044037038"/>
    <nd ref="1044037240"/>
    <tag k="building" v="yes"/>
  </way>
  <way id="90078791" version="2" timestamp="2011-11-19T18:53:07Z" uid="173844" user="Antikalk" changeset="9876029">
    <nd ref="1044037240"/>
    <nd ref="1044036895"/>
    <nd ref="1044036844"/>
    <nd ref="1044037038"/>
    <nd ref="1044037240"/>
    <tag k="building" v="yes"/>
    <tag k="source" v="Bing Sat"/>
  </way>
  <way id="90078791" version="3" timestamp="2011-12-09T07:11:37Z" uid="173844" user="Antikalk" changeset="10070854">
    <nd ref="1044037240"/>
    <nd ref="1044036895"/>
    <nd ref="1044036844"/>
    <nd ref="1537835636"/>
    <nd ref="1044037038"/>
    <nd ref="1044037240"/>
    <tag k="addr:city" v="Düsseldorf"/>
    <tag k="addr:country" v="DE"/>
    <tag k="addr:housenumber" v="54"/>
    <tag k="addr:postcode" v="40545"/>
    <tag k="addr:street" v="Schanzenstraße"/>
    <tag k="building" v="yes"/>
    <tag k="source" v="Bing Sat"/>
  </way>
  <way id="90078791" version="4" timestamp="2011-12-10T07:49:31Z" uid="173844" user="Antikalk" changeset="10078862">
    <nd ref="1044037240"/>
    <nd ref="1044036895"/>
    <nd ref="1044036844"/>
    <nd ref="1537835636"/>
    <nd ref="1044037038"/>
    <nd ref="1044037240"/>
    <tag k="addr:city" v="Düsseldorf"/>
    <tag k="addr:country" v="DE"/>
    <tag k="addr:housenumber" v="54"/>
    <tag k="addr:postcode" v="40549"/>
    <tag k="addr:street" v="Schanzenstraße"/>
    <tag k="building" v="yes"/>
    <tag k="source" v="Bing Sat"/>
  </way>
  <way id="90078791" version="5" timestamp="2011-12-18T09:56:58Z" uid="173844" user="Antikalk" changeset="10144833"/>
  <way id="90078792" version="1" timestamp="2010-12-18T00:03:48Z" uid="151899" user="Bikeman2000" changeset="6692111">
    <nd ref="1044037161"/>
    <nd ref="1044036950"/>
    <nd ref="1044037041"/>
    <nd ref="1044037017"/>
    <nd ref="1044036889"/>
    <nd ref="1044037138"/>
    <nd ref="1044036849"/>
    <nd ref="1044037090"/>
    <nd ref="1044037161"/>
    <tag k="building" v="yes"/>
  </way>
  <way id="90078792" version="2" timestamp="2011-11-19T18:53:07Z" uid="173844" user="Antikalk" changeset="9876029">
    <nd ref="1044037161"/>
    <nd ref="1044036950"/>
    <nd ref="1044037041"/>
    <nd ref="1044037017"/>
    <nd ref="1044036889"/>
    <nd ref="1044037138"/>
    <nd ref="1044036849"/>
    <nd ref="1044037090"/>
    <nd ref="1044037161"/>
    <tag k="building" v="yes"/>
    <tag k="source" v="Bing Sat"/>
  </way>
  <way id="90078792" version="3" timestamp="2011-11-24T22:25:02Z" uid="173844" user="Antikalk" changeset="9938343">
    <nd ref="1044037161"/>
    <nd ref="1044036950"/>
    <nd ref="1044037041"/>
    <nd ref="1515981144"/>
    <nd ref="1044037017"/>
    <nd ref="1044036889"/>
    <nd ref="1044037138"/>
    <nd ref="1044036849"/>
    <nd ref="1044037090"/>
    <nd ref="1044037161"/>
    <tag k="addr:city" v="Düsseldorf"/>
    <tag k="addr:country" v="DE"/>
    <tag k="addr:housenumber" v="6"/>
    <tag k="addr:postcode" v="40545"/>
    <tag k="addr:street" v="Belsenstraße"/>
    <tag k="building" v="yes"/>
    <tag k="source" v="Bing Sat"/>
  </way>
  <way id="90078792" version="4" timestamp="2011-12-18T10:07:17Z" uid="173844" user="Antikalk" changeset="10144888"/>
  <way id="90078793" version="1" timestamp="2010-12-18T00:03:48Z" uid="151899" user="Bikeman2000" changeset="6692111">
    <nd ref="1044036950"/>
    <nd ref="1044037041"/>
    <nd ref="1044037245"/>
    <nd ref="1044036814"/>
    <nd ref="1044037176"/>
    <nd ref="1044036977"/>
    <nd ref="1044037117"/>
    <nd ref="1044036932"/>
    <nd ref="1044036950"/>
    <tag k="building" v="yes"/>
  </way>
  <way id="90078793" version="2" timestamp="2011-11-19T18:53:07Z" uid="173844" user="Antikalk" changeset="9876029">
    <nd ref="1044036950"/>
    <nd ref="1044037041"/>
    <nd ref="1044037245"/>
    <nd ref="1044036814"/>
    <nd ref="1044037176"/>
    <nd ref="1044036977"/>
    <nd ref="1044037117"/>
    <nd ref="1044036932"/>
    <nd ref="1044036950"/>
    <tag k="building" v="yes"/>
    <tag k="source" v="Bing Sat"/>
  </way>
  <way id="90078793" version="3" timestamp="2011-11-24T22:25:01Z" uid="173844" user="Antikalk" changeset="9938343">
    <nd ref="1044036950"/>
    <nd ref="1044037041"/>
    <nd ref="1515981147"/>
    <nd ref="1044037245"/>
    <nd ref="1044036814"/>
    <nd ref="1044037176"/>
    <nd ref="1044036977"/>
    <nd ref="1044037117"/>
    <nd ref="1044036932"/>
    <nd ref="1044036950"/>
    <tag k="addr:city" v="Düsseldorf"/>
    <tag k="addr:country" v="DE"/>
    <tag k="addr:housenumber" v="4"/>
    <tag k="addr:postcode" v="40545"/>
    <tag k="addr:street" v="Belsenstraße"/>
    <tag k="building" v="yes"/>
    <tag k="source" v="Bing Sat"/>
  </way>
  <way id="90078793" version="4" timestamp="2011-12-18T10:07:17Z" uid="173844" user="Antikalk" changeset="10144888"/>
  <way id="90078794" version="1" timestamp="2010-12-18T00:03:48Z" uid="151899" user="Bikeman2000" changeset="6692111">
    <nd ref="1044037215"/>
    <nd ref="1044036864"/>
    <nd ref="1044037212"/>
    <nd ref="1044037260"/>
    <nd ref="1044037215"/>
    <tag k="building" v="yes"/>
  </way>
  <way id="90078794" version="2" timestamp="2011-11-19T18:53:08Z" uid="173844" user="Antikalk" changeset="9876029">
    <nd ref="1044037215"/>
    <nd ref="1044036864"/>
    <nd ref="1044037212"/>
    <nd ref="1044037260"/>
    <nd ref="1044037215"/>
    <tag k="building" v="yes"/>
    <tag k="source" v="Bing Sat"/>
  </way>
  <way id="90078794" version="3" timestamp="2011-12-09T07:11:38Z" uid="173844" user="Antikalk" changeset="10070854">
    <nd ref="1044037215"/>
    <nd ref="1044036864"/>
    <nd ref="1044037212"/>
    <nd ref="1537835647"/>
    <nd ref="1044037260"/>
    <nd ref="1044037215"/>
    <tag k="addr:city" v="Düsseldorf"/>
    <tag k="addr:country" v="DE"/>
    <tag k="addr:housenumber" v="58"/>
    <tag k="addr:postcode" v="40545"/>
    <tag k="addr:street" v="Schanzenstraße"/>
    <tag k="building" v="yes"/>
    <tag k="source" v="Bing Sat"/>
  </way>
  <way id="90078794" version="4" timestamp="2011-12-10T07:49:32Z" uid="173844" user="Antikalk" changeset="10078862">
    <nd ref="1044037215"/>
    <nd ref="1044036864"/>
    <nd ref="1044037212"/>
    <nd ref="1537835647"/>
    <nd ref="1044037260"/>
    <nd ref="1044037215"/>
    <tag k="addr:city" v="Düsseldorf"/>
    <tag k="addr:country" v="DE"/>
    <tag k="addr:housenumber" v="58"/>
    <tag k="addr:postcode" v="40549"/>
    <tag k="addr:street" v="Schanzenstraße"/>
    <tag k="building" v="yes"/>
    <tag k="source" v="Bing Sat"/>
  </way>
  <way id="90078794" version="5" timestamp="2011-12-18T09:56:58Z" uid="173844" user="Antikalk" changeset="10144833"/>
  <way id="90078795" version="1" timestamp="2010-12-18T00:03:48Z" uid="151899" user="Bikeman2000" changeset="6692111">
    <nd ref="1044036943"/>
    <nd ref="1044037030"/>
    <nd ref="1044036814"/>
    <nd ref="1044037245"/>
    <nd ref="1044036943"/>
    <tag k="building" v="yes"/>
  </way>
  <way id="90078795" version="2" timestamp="2011-11-19T18:53:08Z" uid="173844" user="Antikalk" changeset="9876029">
    <nd ref="1044036943"/>
    <nd ref="1044037030"/>
    <nd ref="1044036814"/>
    <nd ref="1044037245"/>
    <nd ref="1044036943"/>
    <tag k="building" v="yes"/>
    <tag k="source" v="Bing Sat"/>
  </way>
  <way id="90078795" version="3" timestamp="2011-11-24T22:25:00Z" uid="173844" user="Antikalk" changeset="9938343">
    <nd ref="1044036943"/>
    <nd ref="1044037030"/>
    <nd ref="1044036814"/>
    <nd ref="1044037245"/>
    <nd ref="1515981149"/>
    <nd ref="1044036943"/>
    <tag k="addr:city" v="Düsseldorf"/>
    <tag k="addr:country" v="DE"/>
    <tag k="addr:housenumber" v="2"/>
    <tag k="addr:postcode" v="40545"/>
    <tag k="addr:street" v="Belsenstraße"/>
    <tag k="building" v="yes"/>
    <tag k="source" v="Bing Sat"/>
  </way>
  <way id="90078795" version="4" timestamp="2011-12-18T10:07:17Z" uid="173844" user="Antikalk" changeset="10144888"/>
  <way id="90078796" version="1" timestamp="2010-12-18T00:03:49Z" uid="151899" user="Bikeman2000" changeset="6692111">
    <nd ref="1044037167"/>
    <nd ref="1044037243"/>
    <nd ref="1044037222"/>
    <nd ref="1044037218"/>
    <nd ref="1044037198"/>
    <nd ref="1044036998"/>
    <nd ref="1044037149"/>
    <nd ref="1044036965"/>
    <nd ref="1044036836"/>
    <nd ref="1044037167"/>
    <tag k="building" v="yes"/>
  </way>
  <way id="90078796" version="2" timestamp="2011-12-09T09:58:47Z" uid="173844" user="Antikalk" changeset="10071698">
    <nd ref="1044037167"/>
    <nd ref="1537944002"/>
    <nd ref="1044037243"/>
    <nd ref="1044037222"/>
    <nd ref="1537943953"/>
    <nd ref="1044037218"/>
    <nd ref="1044037198"/>
    <nd ref="1044036998"/>
    <nd ref="1044037149"/>
    <nd ref="1537944036"/>
    <nd ref="1044036965"/>
    <nd ref="1044036836"/>
    <nd ref="1044037167"/>
    <tag k="addr:city" v="Düsseldorf"/>
    <tag k="addr:country" v="DE"/>
    <tag k="addr:housenumber" v="84"/>
    <tag k="addr:postcode" v="40545"/>
    <tag k="addr:street" v="Schanzenstraße"/>
    <tag k="building" v="yes"/>
    <tag k="source" v="Bing Sat"/>
  </way>
  <way id="90078796" version="3" timestamp="2011-12-10T07:49:41Z" uid="173844" user="Antikalk" changeset="10078862">
    <nd ref="1044037167"/>
    <nd ref="1537944002"/>
    <nd ref="1044037243"/>
    <nd ref="1044037222"/>
    <nd ref="1537943953"/>
    <nd ref="1044037218"/>
    <nd ref="1044037198"/>
    <nd ref="1044036998"/>
    <nd ref="1044037149"/>
    <nd ref="1537944036"/>
    <nd ref="1044036965"/>
    <nd ref="1044036836"/>
    <nd ref="1044037167"/>
    <tag k="addr:city" v="Düsseldorf"/>
    <tag k="addr:country" v="DE"/>
    <tag k="addr:housenumber" v="84"/>
    <tag k="addr:postcode" v="40549"/>
    <tag k="addr:street" v="Schanzenstraße"/>
    <tag k="building" v="yes"/>
    <tag k="source" v="Bing Sat"/>
  </way>
  <way id="90078796" version="4" timestamp="2011-12-18T00:21:42Z" uid="173844" user="Antikalk" changeset="10143118"/>
  <way id="90078797" version="1" timestamp="2010-12-18T00:03:49Z" uid="151899" user="Bikeman2000" changeset="6692111">
    <nd ref="1044037201"/>
    <nd ref="1044037103"/>
    <nd ref="1044036981"/>
    <nd ref="1044037024"/>
    <nd ref="1044037201"/>
    <tag k="building" v="yes"/>
  </way>
  <way id="90078797" version="2" timestamp="2011-11-19T18:53:08Z" uid="173844" user="Antikalk" changeset="9876029">
    <nd ref="1044037201"/>
    <nd ref="1044037103"/>
    <nd ref="1044036981"/>
    <nd ref="1044037024"/>
    <nd ref="1044037201"/>
    <tag k="building" v="yes"/>
    <tag k="source" v="Bing Sat"/>
  </way>
  <way id="90078797" version="3" timestamp="2011-12-09T07:11:48Z" uid="173844" user="Antikalk" changeset="10070854"/>
  <way id="90078798" version="1" timestamp="2010-12-18T00:03:49Z" uid="151899" user="Bikeman2000" changeset="6692111">
    <nd ref="1044037131"/>
    <nd ref="1044036834"/>
    <nd ref="1044036996"/>
    <nd ref="1044037092"/>
    <nd ref="1044036901"/>
    <nd ref="1044037111"/>
    <nd ref="1044037131"/>
    <tag k="building" v="yes"/>
  </way>
  <way id="90078798" version="2" timestamp="2011-11-19T18:53:08Z" uid="173844" user="Antikalk" changeset="9876029">
    <nd ref="1044037131"/>
    <nd ref="1044036834"/>
    <nd ref="1044036996"/>
    <nd ref="1044037092"/>
    <nd ref="1044036901"/>
    <nd ref="1044037111"/>
    <nd ref="1044037131"/>
    <tag k="building" v="yes"/>
    <tag k="source" v="Bing Sat"/>
  </way>
  <way id="90078798" version="3" timestamp="2011-12-09T07:11:39Z" uid="173844" user="Antikalk" changeset="10070854">
    <nd ref="1044037131"/>
    <nd ref="1044036834"/>
    <nd ref="1044036996"/>
    <nd ref="1044037092"/>
    <nd ref="1044036901"/>
    <nd ref="1537835653"/>
    <nd ref="1044037111"/>
    <nd ref="1044037131"/>
    <tag k="addr:city" v="Düsseldorf"/>
    <tag k="addr:country" v="DE"/>
    <tag k="addr:housenumber" v="76"/>
    <tag k="addr:postcode" v="40545"/>
    <tag k="addr:street" v="Schanzenstraße"/>
    <tag k="building" v="yes"/>
    <tag k="source" v="Bing Sat"/>
  </way>
  <way id="90078798" version="4" timestamp="2011-12-10T07:49:37Z" uid="173844" user="Antikalk" changeset="10078862">
    <nd ref="1044037131"/>
    <nd ref="1044036834"/>
    <nd ref="1044036996"/>
    <nd ref="1044037092"/>
    <nd ref="1044036901"/>
    <nd ref="1537835653"/>
    <nd ref="1044037111"/>
    <nd ref="1044037131"/>
    <tag k="addr:city" v="Düsseldorf"/>
    <tag k="addr:country" v="DE"/>
    <tag k="addr:housenumber" v="76"/>
    <tag k="addr:postcode" v="40549"/>
    <tag k="addr:street" v="Schanzenstraße"/>
    <tag k="building" v="yes"/>
    <tag k="source" v="Bing Sat"/>
  </way>
  <way id="90078798" version="5" timestamp="2011-12-18T09:56:59Z" uid="173844" user="Antikalk" changeset="10144833"/>
  <way id="90078799" version="1" timestamp="2010-12-18T00:03:49Z" uid="151899" user="Bikeman2000" changeset="6692111">
    <nd ref="1044036898"/>
    <nd ref="1044037134"/>
    <nd ref="1044036931"/>
    <nd ref="1044037086"/>
    <nd ref="1044036886"/>
    <nd ref="1044036973"/>
    <nd ref="1044036898"/>
    <tag k="building" v="yes"/>
  </way>
  <way id="90078799" version="2" timestamp="2011-11-19T18:53:09Z" uid="173844" user="Antikalk" changeset="9876029">
    <nd ref="1044036898"/>
    <nd ref="1044037134"/>
    <nd ref="1044036931"/>
    <nd ref="1044037086"/>
    <nd ref="1044036886"/>
    <nd ref="1044036973"/>
    <nd ref="1044036898"/>
    <tag k="building" v="yes"/>
    <tag k="source" v="Bing Sat"/>
  </way>
  <way id="90078799" version="3" timestamp="2011-12-09T07:11:30Z" uid="173844" user="Antikalk" changeset="10070854">
    <nd ref="1044036898"/>
    <nd ref="1537835556"/>
    <nd ref="1044037134"/>
    <nd ref="1044036931"/>
    <nd ref="1044037086"/>
    <nd ref="1044036886"/>
    <nd ref="1044036973"/>
    <nd ref="1044036898"/>
    <tag k="addr:city" v="Düsseldorf"/>
    <tag k="addr:country" v="DE"/>
    <tag k="addr:housenumber" v="26"/>
    <tag k="addr:postcode" v="40545"/>
    <tag k="addr:street" v="Schanzenstraße"/>
    <tag k="building" v="yes"/>
    <tag k="source" v="Bing Sat"/>
  </way>
  <way id="90078799" version="4" timestamp="2011-12-10T07:49:16Z" uid="173844" user="Antikalk" changeset="10078862">
    <nd ref="1044036898"/>
    <nd ref="1537835556"/>
    <nd ref="1044037134"/>
    <nd ref="1044036931"/>
    <nd ref="1044037086"/>
    <nd ref="1044036886"/>
    <nd ref="1044036973"/>
    <nd ref="1044036898"/>
    <tag k="addr:city" v="Düsseldorf"/>
    <tag k="addr:country" v="DE"/>
    <tag k="addr:housenumber" v="26"/>
    <tag k="addr:postcode" v="40549"/>
    <tag k="addr:street" v="Schanzenstraße"/>
    <tag k="building" v="yes"/>
    <tag k="source" v="Bing Sat"/>
  </way>
  <way id="90078799" version="5" timestamp="2011-12-18T09:56:57Z" uid="173844" user="Antikalk" changeset="10144833"/>
  <way id="90078800" version="1" timestamp="2010-12-18T00:03:50Z" uid="151899" user="Bikeman2000" changeset="6692111">
    <nd ref="1044037241"/>
    <nd ref="1044037123"/>
    <nd ref="1044037046"/>
    <nd ref="1044037172"/>
    <nd ref="1044037083"/>
    <nd ref="1044036871"/>
    <nd ref="1044037241"/>
    <tag k="building" v="yes"/>
  </way>
  <way id="90078800" version="2" timestamp="2011-11-19T18:53:09Z" uid="173844" user="Antikalk" changeset="9876029">
    <nd ref="1044037241"/>
    <nd ref="1044037123"/>
    <nd ref="1044037046"/>
    <nd ref="1044037172"/>
    <nd ref="1044037083"/>
    <nd ref="1044036871"/>
    <nd ref="1044037241"/>
    <tag k="building" v="yes"/>
    <tag k="source" v="Bing Sat"/>
  </way>
  <way id="90078800" version="3" timestamp="2011-12-09T07:11:27Z" uid="173844" user="Antikalk" changeset="10070854">
    <nd ref="1044037241"/>
    <nd ref="1044037123"/>
    <nd ref="1537835344"/>
    <nd ref="1044037046"/>
    <nd ref="1044037172"/>
    <nd ref="1044037083"/>
    <nd ref="1044036871"/>
    <nd ref="1044037241"/>
    <tag k="addr:city" v="Düsseldorf"/>
    <tag k="addr:country" v="DE"/>
    <tag k="addr:housenumber" v="2"/>
    <tag k="addr:postcode" v="40545"/>
    <tag k="addr:street" v="Schanzenstraße"/>
    <tag k="building" v="yes"/>
    <tag k="source" v="Bing Sat"/>
  </way>
  <way id="90078800" version="4" timestamp="2011-12-10T07:49:10Z" uid="173844" user="Antikalk" changeset="10078862">
    <nd ref="1044037241"/>
    <nd ref="1044037123"/>
    <nd ref="1537835344"/>
    <nd ref="1044037046"/>
    <nd ref="1044037172"/>
    <nd ref="1044037083"/>
    <nd ref="1044036871"/>
    <nd ref="1044037241"/>
    <tag k="addr:city" v="Düsseldorf"/>
    <tag k="addr:country" v="DE"/>
    <tag k="addr:housenumber" v="2"/>
    <tag k="addr:postcode" v="40549"/>
    <tag k="addr:street" v="Schanzenstraße"/>
    <tag k="building" v="yes"/>
    <tag k="source" v="Bing Sat"/>
  </way>
  <way id="90078800" version="5" timestamp="2011-12-18T10:07:17Z" uid="173844" user="Antikalk" changeset="10144888"/>
  <way id="90078801" version="1" timestamp="2010-12-18T00:03:50Z" uid="151899" user="Bikeman2000" changeset="6692111">
    <nd ref="1044037070"/>
    <nd ref="1044037119"/>
    <nd ref="1044036934"/>
    <nd ref="1044037258"/>
    <nd ref="1044037052"/>
    <nd ref="1044037220"/>
    <nd ref="1044037026"/>
    <nd ref="1044037007"/>
    <nd ref="1044037070"/>
    <tag k="building" v="yes"/>
  </way>
  <way id="90078801" version="2" timestamp="2011-12-09T09:58:45Z" uid="173844" user="Antikalk" changeset="10071698">
    <nd ref="1044037070"/>
    <nd ref="1537943731"/>
    <nd ref="1044037119"/>
    <nd ref="1044036934"/>
    <nd ref="1044037258"/>
    <nd ref="1044037052"/>
    <nd ref="1044037220"/>
    <nd ref="1044037026"/>
    <nd ref="1044037007"/>
    <nd ref="1044037070"/>
    <tag k="addr:city" v="Düsseldorf"/>
    <tag k="addr:country" v="DE"/>
    <tag k="addr:housenumber" v="78"/>
    <tag k="addr:postcode" v="40545"/>
    <tag k="addr:street" v="Schanzenstraße"/>
    <tag k="building" v="yes"/>
    <tag k="source" v="Bing Sat"/>
  </way>
  <way id="90078801" version="3" timestamp="2011-12-10T07:49:38Z" uid="173844" user="Antikalk" changeset="10078862">
    <nd ref="1044037070"/>
    <nd ref="1537943731"/>
    <nd ref="1044037119"/>
    <nd ref="1044036934"/>
    <nd ref="1044037258"/>
    <nd ref="1044037052"/>
    <nd ref="1044037220"/>
    <nd ref="1044037026"/>
    <nd ref="1044037007"/>
    <nd ref="1044037070"/>
    <tag k="addr:city" v="Düsseldorf"/>
    <tag k="addr:country" v="DE"/>
    <tag k="addr:housenumber" v="78"/>
    <tag k="addr:postcode" v="40549"/>
    <tag k="addr:street" v="Schanzenstraße"/>
    <tag k="building" v="yes"/>
    <tag k="source" v="Bing Sat"/>
  </way>
  <way id="90078801" version="4" timestamp="2011-12-18T00:21:41Z" uid="173844" user="Antikalk" changeset="10143118"/>
  <way id="90078802" version="1" timestamp="2010-12-18T00:03:50Z" uid="151899" user="Bikeman2000" changeset="6692111">
    <nd ref="1044037248"/>
    <nd ref="1044037262"/>
    <nd ref="1044037191"/>
    <nd ref="1044037066"/>
    <nd ref="1044037165"/>
    <nd ref="1044037248"/>
    <tag k="building" v="yes"/>
  </way>
  <way id="90078802" version="2" timestamp="2011-11-19T18:53:09Z" uid="173844" user="Antikalk" changeset="9876029">
    <nd ref="1044037248"/>
    <nd ref="1044037262"/>
    <nd ref="1044037191"/>
    <nd ref="1044037066"/>
    <nd ref="1044037165"/>
    <nd ref="1044037248"/>
    <tag k="building" v="yes"/>
    <tag k="source" v="Bing Sat"/>
  </way>
  <way id="90078802" version="3" timestamp="2011-12-09T07:11:35Z" uid="173844" user="Antikalk" changeset="10070854">
    <nd ref="1044037248"/>
    <nd ref="1537835588"/>
    <nd ref="1044037262"/>
    <nd ref="1044037191"/>
    <nd ref="1044037165"/>
    <nd ref="1044037248"/>
    <tag k="addr:city" v="Düsseldorf"/>
    <tag k="addr:country" v="DE"/>
    <tag k="addr:housenumber" v="42"/>
    <tag k="addr:postcode" v="40545"/>
    <tag k="addr:street" v="Schanzenstraße"/>
    <tag k="building" v="yes"/>
    <tag k="source" v="Bing Sat"/>
  </way>
  <way id="90078802" version="4" timestamp="2011-12-10T07:49:26Z" uid="173844" user="Antikalk" changeset="10078862">
    <nd ref="1044037248"/>
    <nd ref="1537835588"/>
    <nd ref="1044037262"/>
    <nd ref="1044037191"/>
    <nd ref="1044037165"/>
    <nd ref="1044037248"/>
    <tag k="addr:city" v="Düsseldorf"/>
    <tag k="addr:country" v="DE"/>
    <tag k="addr:housenumber" v="42"/>
    <tag k="addr:postcode" v="40549"/>
    <tag k="addr:street" v="Schanzenstraße"/>
    <tag k="building" v="yes"/>
    <tag k="source" v="Bing Sat"/>
  </way>
  <way id="90078802" version="5" timestamp="2011-12-18T09:56:57Z" uid="173844" user="Antikalk" changeset="10144833"/>
  <way id="90078803" version="1" timestamp="2010-12-18T00:03:50Z" uid="151899" user="Bikeman2000" changeset="6692111">
    <nd ref="1044037097"/>
    <nd ref="1044037017"/>
    <nd ref="1044036889"/>
    <nd ref="1044036920"/>
    <nd ref="1044037172"/>
    <nd ref="1044037046"/>
    <nd ref="1044036846"/>
    <nd ref="1044037097"/>
    <tag k="building" v="yes"/>
  </way>
  <way id="90078803" version="2" timestamp="2011-11-19T18:53:09Z" uid="173844" user="Antikalk" changeset="9876029">
    <nd ref="1044037097"/>
    <nd ref="1044037017"/>
    <nd ref="1044036889"/>
    <nd ref="1044036920"/>
    <nd ref="1044037172"/>
    <nd ref="1044037046"/>
    <nd ref="1044036846"/>
    <nd ref="1044037097"/>
    <tag k="building" v="yes"/>
    <tag k="source" v="Bing Sat"/>
  </way>
  <way id="90078803" version="3" timestamp="2011-11-24T22:25:02Z" uid="173844" user="Antikalk" changeset="9938343">
    <nd ref="1044037097"/>
    <nd ref="1044037017"/>
    <nd ref="1044036889"/>
    <nd ref="1044036920"/>
    <nd ref="1044037172"/>
    <nd ref="1044037046"/>
    <nd ref="1044036846"/>
    <nd ref="1515981137"/>
    <nd ref="1044037097"/>
    <tag k="addr:city" v="Düsseldorf"/>
    <tag k="addr:country" v="DE"/>
    <tag k="addr:housenumber" v="8"/>
    <tag k="addr:postcode" v="40545"/>
    <tag k="addr:street" v="Belsenstraße"/>
    <tag k="building" v="yes"/>
    <tag k="source" v="Bing Sat"/>
  </way>
  <way id="90078803" version="4" timestamp="2011-12-18T10:07:18Z" uid="173844" user="Antikalk" changeset="10144888"/>
  <way id="90078804" version="1" timestamp="2010-12-18T00:03:50Z" uid="151899" user="Bikeman2000" changeset="6692111">
    <nd ref="1044036968"/>
    <nd ref="1044037050"/>
    <nd ref="1044036858"/>
    <nd ref="1044037197"/>
    <nd ref="1044036983"/>
    <nd ref="1044037143"/>
    <nd ref="1044036968"/>
    <tag k="building" v="yes"/>
  </way>
  <way id="90078804" version="2" timestamp="2011-12-09T09:58:46Z" uid="173844" user="Antikalk" changeset="10071698">
    <nd ref="1044036968"/>
    <nd ref="1044037050"/>
    <nd ref="1537943817"/>
    <nd ref="1044036858"/>
    <nd ref="1044037197"/>
    <nd ref="1044036983"/>
    <nd ref="1044037143"/>
    <nd ref="1044036968"/>
    <tag k="addr:city" v="Düsseldorf"/>
    <tag k="addr:country" v="DE"/>
    <tag k="addr:housenumber" v="80"/>
    <tag k="addr:postcode" v="40545"/>
    <tag k="addr:street" v="Schanzenstraße"/>
    <tag k="building" v="yes"/>
    <tag k="source" v="Bing Sat"/>
  </way>
  <way id="90078804" version="3" timestamp="2011-12-10T07:49:39Z" uid="173844" user="Antikalk" changeset="10078862">
    <nd ref="1044036968"/>
    <nd ref="1044037050"/>
    <nd ref="1537943817"/>
    <nd ref="1044036858"/>
    <nd ref="1044037197"/>
    <nd ref="1044036983"/>
    <nd ref="1044037143"/>
    <nd ref="1044036968"/>
    <tag k="addr:city" v="Düsseldorf"/>
    <tag k="addr:country" v="DE"/>
    <tag k="addr:housenumber" v="80"/>
    <tag k="addr:postcode" v="40549"/>
    <tag k="addr:street" v="Schanzenstraße"/>
    <tag k="building" v="yes"/>
    <tag k="source" v="Bing Sat"/>
  </way>
  <way id="90078804" version="4" timestamp="2011-12-18T00:21:41Z" uid="173844" user="Antikalk" changeset="10143118"/>
  <way id="90078805" version="1" timestamp="2010-12-18T00:03:50Z" uid="151899" user="Bikeman2000" changeset="6692111">
    <nd ref="1044037191"/>
    <nd ref="1044037262"/>
    <nd ref="1044036860"/>
    <nd ref="1044037100"/>
    <nd ref="1044037191"/>
    <tag k="building" v="yes"/>
  </way>
  <way id="90078805" version="2" timestamp="2011-11-19T18:53:09Z" uid="173844" user="Antikalk" changeset="9876029">
    <nd ref="1044037191"/>
    <nd ref="1044037262"/>
    <nd ref="1044036860"/>
    <nd ref="1044037100"/>
    <nd ref="1044037191"/>
    <tag k="building" v="yes"/>
    <tag k="source" v="Bing Sat"/>
  </way>
  <way id="90078805" version="3" timestamp="2011-12-09T07:11:34Z" uid="173844" user="Antikalk" changeset="10070854">
    <nd ref="1044037191"/>
    <nd ref="1044037262"/>
    <nd ref="1537835584"/>
    <nd ref="1537835582"/>
    <nd ref="1044036860"/>
    <nd ref="1044037100"/>
    <nd ref="1537835603"/>
    <nd ref="1537835605"/>
    <nd ref="1537835609"/>
    <nd ref="1044037191"/>
    <tag k="addr:city" v="Düsseldorf"/>
    <tag k="addr:country" v="DE"/>
    <tag k="addr:housenumber" v="40"/>
    <tag k="addr:postcode" v="40545"/>
    <tag k="addr:street" v="Schanzenstraße"/>
    <tag k="building" v="yes"/>
    <tag k="source" v="Bing Sat"/>
  </way>
  <way id="90078805" version="4" timestamp="2011-12-10T07:49:25Z" uid="173844" user="Antikalk" changeset="10078862">
    <nd ref="1044037191"/>
    <nd ref="1044037262"/>
    <nd ref="1537835584"/>
    <nd ref="1537835582"/>
    <nd ref="1044036860"/>
    <nd ref="1044037100"/>
    <nd ref="1537835603"/>
    <nd ref="1537835605"/>
    <nd ref="1537835609"/>
    <nd ref="1044037191"/>
    <tag k="addr:city" v="Düsseldorf"/>
    <tag k="addr:country" v="DE"/>
    <tag k="addr:housenumber" v="40"/>
    <tag k="addr:postcode" v="40549"/>
    <tag k="addr:street" v="Schanzenstraße"/>
    <tag k="building" v="yes"/>
    <tag k="source" v="Bing Sat"/>
  </way>
  <way id="90078805" version="5" timestamp="2011-12-18T09:56:57Z" uid="173844" user="Antikalk" changeset="10144833"/>
  <way id="90078806" version="1" timestamp="2010-12-18T00:03:51Z" uid="151899" user="Bikeman2000" changeset="6692111">
    <nd ref="1044037076"/>
    <nd ref="1044037193"/>
    <nd ref="1044037131"/>
    <nd ref="1044036834"/>
    <nd ref="1044037076"/>
  </way>
  <way id="90078806" version="2" timestamp="2010-12-18T00:05:18Z" uid="151899" user="Bikeman2000" changeset="6692122">
    <nd ref="1044037076"/>
    <nd ref="1044037193"/>
    <nd ref="1044037131"/>
    <nd ref="1044036834"/>
    <nd ref="1044037076"/>
    <tag k="building" v="yes"/>
  </way>
  <way id="90078806" version="3" timestamp="2011-11-19T18:53:10Z" uid="173844" user="Antikalk" changeset="9876029">
    <nd ref="1044037076"/>
    <nd ref="1044037193"/>
    <nd ref="1044037131"/>
    <nd ref="1044036834"/>
    <nd ref="1044037076"/>
    <tag k="building" v="yes"/>
    <tag k="source" v="Bing Sat"/>
  </way>
  <way id="90078806" version="4" timestamp="2011-12-18T09:56:59Z" uid="173844" user="Antikalk" changeset="10144833"/>
  <way id="90078807" version="1" timestamp="2010-12-18T00:03:51Z" uid="151899" user="Bikeman2000" changeset="6692111">
    <nd ref="1044037124"/>
    <nd ref="1044037011"/>
    <nd ref="1044037146"/>
    <nd ref="1044036991"/>
    <nd ref="1044037124"/>
    <tag k="building" v="yes"/>
  </way>
  <way id="90078807" version="2" timestamp="2011-11-19T18:53:10Z" uid="173844" user="Antikalk" changeset="9876029">
    <nd ref="1044037124"/>
    <nd ref="1044037011"/>
    <nd ref="1044037146"/>
    <nd ref="1044036991"/>
    <nd ref="1044037124"/>
    <tag k="building" v="yes"/>
    <tag k="source" v="Bing Sat"/>
  </way>
  <way id="90078807" version="3" timestamp="2011-12-09T07:11:32Z" uid="173844" user="Antikalk" changeset="10070854">
    <nd ref="1044037124"/>
    <nd ref="1537835581"/>
    <nd ref="1044037011"/>
    <nd ref="1044037146"/>
    <nd ref="1537835575"/>
    <nd ref="1044036991"/>
    <nd ref="1044037124"/>
    <tag k="addr:city" v="Düsseldorf"/>
    <tag k="addr:country" v="DE"/>
    <tag k="addr:housenumber" v="34"/>
    <tag k="addr:postcode" v="40545"/>
    <tag k="addr:street" v="Schanzenstraße"/>
    <tag k="building" v="yes"/>
    <tag k="source" v="Bing Sat"/>
  </way>
  <way id="90078807" version="4" timestamp="2011-12-10T07:49:21Z" uid="173844" user="Antikalk" changeset="10078862">
    <nd ref="1044037124"/>
    <nd ref="1537835581"/>
    <nd ref="1044037011"/>
    <nd ref="1044037146"/>
    <nd ref="1537835575"/>
    <nd ref="1044036991"/>
    <nd ref="1044037124"/>
    <tag k="addr:city" v="Düsseldorf"/>
    <tag k="addr:country" v="DE"/>
    <tag k="addr:housenumber" v="34"/>
    <tag k="addr:postcode" v="40549"/>
    <tag k="addr:street" v="Schanzenstraße"/>
    <tag k="building" v="yes"/>
    <tag k="source" v="Bing Sat"/>
  </way>
  <way id="90078807" version="5" timestamp="2011-12-18T09:56:57Z" uid="173844" user="Antikalk" changeset="10144833"/>
  <way id="90078808" version="1" timestamp="2010-12-18T00:03:51Z" uid="151899" user="Bikeman2000" changeset="6692111">
    <nd ref="1044037113"/>
    <nd ref="1044037095"/>
    <nd ref="1044036840"/>
    <nd ref="1044036866"/>
    <nd ref="1044037151"/>
    <nd ref="1044037113"/>
    <tag k="building" v="yes"/>
  </way>
  <way id="90078808" version="2" timestamp="2011-11-19T18:53:10Z" uid="173844" user="Antikalk" changeset="9876029">
    <nd ref="1044037113"/>
    <nd ref="1044037095"/>
    <nd ref="1044036840"/>
    <nd ref="1044036866"/>
    <nd ref="1044037151"/>
    <nd ref="1044037113"/>
    <tag k="building" v="yes"/>
    <tag k="source" v="Bing Sat"/>
  </way>
  <way id="90078808" version="3" timestamp="2011-12-09T07:11:29Z" uid="173844" user="Antikalk" changeset="10070854">
    <nd ref="1044037113"/>
    <nd ref="1044037095"/>
    <nd ref="1044036840"/>
    <nd ref="1537835490"/>
    <nd ref="1044036866"/>
    <nd ref="1044037151"/>
    <nd ref="1044037113"/>
    <tag k="addr:city" v="Düsseldorf"/>
    <tag k="addr:country" v="DE"/>
    <tag k="addr:housenumber" v="22"/>
    <tag k="addr:postcode" v="40545"/>
    <tag k="addr:street" v="Schanzenstraße"/>
    <tag k="building" v="yes"/>
    <tag k="source" v="Bing Sat"/>
  </way>
  <way id="90078808" version="4" timestamp="2011-12-10T07:49:13Z" uid="173844" user="Antikalk" changeset="10078862">
    <nd ref="1044037113"/>
    <nd ref="1044037095"/>
    <nd ref="1044036840"/>
    <nd ref="1537835490"/>
    <nd ref="1044036866"/>
    <nd ref="1044037151"/>
    <nd ref="1044037113"/>
    <tag k="addr:city" v="Düsseldorf"/>
    <tag k="addr:country" v="DE"/>
    <tag k="addr:housenumber" v="22"/>
    <tag k="addr:postcode" v="40549"/>
    <tag k="addr:street" v="Schanzenstraße"/>
    <tag k="building" v="yes"/>
    <tag k="source" v="Bing Sat"/>
  </way>
  <way id="90078808" version="5" timestamp="2011-12-18T09:56:57Z" uid="173844" user="Antikalk" changeset="10144833"/>
  <way id="90078809" version="1" timestamp="2010-12-18T00:03:51Z" uid="151899" user="Bikeman2000" changeset="6692111">
    <nd ref="1044037103"/>
    <nd ref="1044037241"/>
    <nd ref="1044037123"/>
    <nd ref="1044036981"/>
    <nd ref="1044037103"/>
    <tag k="building" v="yes"/>
  </way>
  <way id="90078809" version="2" timestamp="2011-11-19T18:53:10Z" uid="173844" user="Antikalk" changeset="9876029">
    <nd ref="1044037103"/>
    <nd ref="1044037241"/>
    <nd ref="1044037123"/>
    <nd ref="1044036981"/>
    <nd ref="1044037103"/>
    <tag k="building" v="yes"/>
    <tag k="source" v="Bing Sat"/>
  </way>
  <way id="90078809" version="3" timestamp="2011-12-09T07:11:33Z" uid="173844" user="Antikalk" changeset="10070854">
    <nd ref="1044037103"/>
    <nd ref="1044037241"/>
    <nd ref="1044037123"/>
    <nd ref="1537835370"/>
    <nd ref="1044036981"/>
    <nd ref="1044037103"/>
    <tag k="addr:city" v="Düsseldorf"/>
    <tag k="addr:country" v="DE"/>
    <tag k="addr:housenumber" v="4"/>
    <tag k="addr:postcode" v="40545"/>
    <tag k="addr:street" v="Schanzenstraße"/>
    <tag k="building" v="yes"/>
    <tag k="source" v="Bing Sat"/>
  </way>
  <way id="90078809" version="4" timestamp="2011-12-10T07:49:25Z" uid="173844" user="Antikalk" changeset="10078862">
    <nd ref="1044037103"/>
    <nd ref="1044037241"/>
    <nd ref="1044037123"/>
    <nd ref="1537835370"/>
    <nd ref="1044036981"/>
    <nd ref="1044037103"/>
    <tag k="addr:city" v="Düsseldorf"/>
    <tag k="addr:country" v="DE"/>
    <tag k="addr:housenumber" v="4"/>
    <tag k="addr:postcode" v="40549"/>
    <tag k="addr:street" v="Schanzenstraße"/>
    <tag k="building" v="yes"/>
    <tag k="source" v="Bing Sat"/>
  </way>
  <way id="90078809" version="5" timestamp="2011-12-18T10:07:17Z" uid="173844" user="Antikalk" changeset="10144888"/>
  <way id="90078810" version="1" timestamp="2010-12-18T00:03:51Z" uid="151899" user="Bikeman2000" changeset="6692111">
    <nd ref="1044036979"/>
    <nd ref="1044036864"/>
    <nd ref="1044037212"/>
    <nd ref="1044036917"/>
    <nd ref="1044036993"/>
    <nd ref="1044037169"/>
    <nd ref="1044036971"/>
    <nd ref="1044036955"/>
    <nd ref="1044037196"/>
    <nd ref="1044036979"/>
    <tag k="building" v="yes"/>
  </way>
  <way id="90078810" version="2" timestamp="2011-11-19T18:53:11Z" uid="173844" user="Antikalk" changeset="9876029">
    <nd ref="1044036979"/>
    <nd ref="1044036864"/>
    <nd ref="1044037212"/>
    <nd ref="1044036917"/>
    <nd ref="1044036993"/>
    <nd ref="1044037169"/>
    <nd ref="1044036971"/>
    <nd ref="1044036955"/>
    <nd ref="1044037196"/>
    <nd ref="1044036979"/>
    <tag k="building" v="yes"/>
    <tag k="source" v="Bing Sat"/>
  </way>
  <way id="90078810" version="3" timestamp="2011-12-09T07:11:47Z" uid="173844" user="Antikalk" changeset="10070854"/>
  <way id="90078811" version="1" timestamp="2010-12-18T00:03:51Z" uid="151899" user="Bikeman2000" changeset="6692111">
    <nd ref="1044036931"/>
    <nd ref="1044037064"/>
    <nd ref="1044037113"/>
    <nd ref="1044037151"/>
    <nd ref="1044037014"/>
    <nd ref="1044037134"/>
    <nd ref="1044036931"/>
    <tag k="building" v="yes"/>
  </way>
  <way id="90078811" version="2" timestamp="2011-11-19T18:53:11Z" uid="173844" user="Antikalk" changeset="9876029">
    <nd ref="1044036931"/>
    <nd ref="1044037064"/>
    <nd ref="1044037113"/>
    <nd ref="1044037151"/>
    <nd ref="1044037014"/>
    <nd ref="1044037134"/>
    <nd ref="1044036931"/>
    <tag k="building" v="yes"/>
    <tag k="source" v="Bing Sat"/>
  </way>
  <way id="90078811" version="3" timestamp="2011-12-09T07:11:30Z" uid="173844" user="Antikalk" changeset="10070854">
    <nd ref="1044036931"/>
    <nd ref="1044037064"/>
    <nd ref="1044037113"/>
    <nd ref="1044037151"/>
    <nd ref="1537835541"/>
    <nd ref="1044037014"/>
    <nd ref="1044037134"/>
    <nd ref="1044036931"/>
    <tag k="addr:city" v="Düsseldorf"/>
    <tag k="addr:country" v="DE"/>
    <tag k="addr:housenumber" v="24"/>
    <tag k="addr:postcode" v="40545"/>
    <tag k="addr:street" v="Schanzenstraße"/>
    <tag k="building" v="yes"/>
    <tag k="source" v="Bing Sat"/>
  </way>
  <way id="90078811" version="4" timestamp="2011-12-10T07:49:14Z" uid="173844" user="Antikalk" changeset="10078862">
    <nd ref="1044036931"/>
    <nd ref="1044037064"/>
    <nd ref="1044037113"/>
    <nd ref="1044037151"/>
    <nd ref="1537835541"/>
    <nd ref="1044037014"/>
    <nd ref="1044037134"/>
    <nd ref="1044036931"/>
    <tag k="addr:city" v="Düsseldorf"/>
    <tag k="addr:country" v="DE"/>
    <tag k="addr:housenumber" v="24"/>
    <tag k="addr:postcode" v="40549"/>
    <tag k="addr:street" v="Schanzenstraße"/>
    <tag k="building" v="yes"/>
    <tag k="source" v="Bing Sat"/>
  </way>
  <way id="90078811" version="5" timestamp="2011-12-18T09:56:57Z" uid="173844" user="Antikalk" changeset="10144833"/>
  <way id="90078812" version="1" timestamp="2010-12-18T00:03:52Z" uid="151899" user="Bikeman2000" changeset="6692111">
    <nd ref="1044036929"/>
    <nd ref="1044037061"/>
    <nd ref="1044037243"/>
    <nd ref="1044037222"/>
    <nd ref="1044036858"/>
    <nd ref="1044037197"/>
    <nd ref="1044036929"/>
    <tag k="building" v="yes"/>
  </way>
  <way id="90078812" version="2" timestamp="2011-12-09T09:58:46Z" uid="173844" user="Antikalk" changeset="10071698">
    <nd ref="1044036929"/>
    <nd ref="1044037061"/>
    <nd ref="1044037243"/>
    <nd ref="1044037222"/>
    <nd ref="1537943863"/>
    <nd ref="1044036858"/>
    <nd ref="1044037197"/>
    <nd ref="1044036929"/>
    <tag k="addr:city" v="Düsseldorf"/>
    <tag k="addr:country" v="DE"/>
    <tag k="addr:housenumber" v="82"/>
    <tag k="addr:postcode" v="40545"/>
    <tag k="addr:street" v="Schanzenstraße"/>
    <tag k="building" v="yes"/>
    <tag k="source" v="Bing Sat"/>
  </way>
  <way id="90078812" version="3" timestamp="2011-12-10T07:49:40Z" uid="173844" user="Antikalk" changeset="10078862">
    <nd ref="1044036929"/>
    <nd ref="1044037061"/>
    <nd ref="1044037243"/>
    <nd ref="1044037222"/>
    <nd ref="1537943863"/>
    <nd ref="1044036858"/>
    <nd ref="1044037197"/>
    <nd ref="1044036929"/>
    <tag k="addr:city" v="Düsseldorf"/>
    <tag k="addr:country" v="DE"/>
    <tag k="addr:housenumber" v="82"/>
    <tag k="addr:postcode" v="40549"/>
    <tag k="addr:street" v="Schanzenstraße"/>
    <tag k="building" v="yes"/>
    <tag k="source" v="Bing Sat"/>
  </way>
  <way id="90078812" version="4" timestamp="2011-12-18T00:21:41Z" uid="173844" user="Antikalk" changeset="10143118"/>
  <way id="90078813" version="1" timestamp="2010-12-18T00:03:52Z" uid="151899" user="Bikeman2000" changeset="6692111">
    <nd ref="1044037219"/>
    <nd ref="1044036904"/>
    <nd ref="1044037235"/>
    <nd ref="1044037043"/>
    <nd ref="1044037219"/>
    <tag k="building" v="yes"/>
  </way>
  <way id="90078813" version="2" timestamp="2011-11-19T18:53:11Z" uid="173844" user="Antikalk" changeset="9876029">
    <nd ref="1044037219"/>
    <nd ref="1044036904"/>
    <nd ref="1044037235"/>
    <nd ref="1044037043"/>
    <nd ref="1044037219"/>
    <tag k="building" v="yes"/>
    <tag k="source" v="Bing Sat"/>
  </way>
  <way id="90078813" version="3" timestamp="2011-12-18T10:07:18Z" uid="173844" user="Antikalk" changeset="10144888"/>
  <way id="90078814" version="1" timestamp="2010-12-18T00:03:52Z" uid="151899" user="Bikeman2000" changeset="6692111">
    <nd ref="1044037004"/>
    <nd ref="1044037142"/>
    <nd ref="1044037196"/>
    <nd ref="1044036955"/>
    <nd ref="1044036971"/>
    <nd ref="1044037169"/>
    <nd ref="1044037004"/>
    <tag k="building" v="yes"/>
  </way>
  <way id="90078814" version="2" timestamp="2011-11-19T18:53:11Z" uid="173844" user="Antikalk" changeset="9876029">
    <nd ref="1044037004"/>
    <nd ref="1044037142"/>
    <nd ref="1044037196"/>
    <nd ref="1044036955"/>
    <nd ref="1044036971"/>
    <nd ref="1044037169"/>
    <nd ref="1044037004"/>
    <tag k="building" v="yes"/>
    <tag k="source" v="Bing Sat"/>
  </way>
  <way id="90078814" version="3" timestamp="2011-12-09T07:11:38Z" uid="173844" user="Antikalk" changeset="10070854">
    <nd ref="1044037196"/>
    <nd ref="1044036979"/>
    <nd ref="1044036864"/>
    <nd ref="1044037212"/>
    <nd ref="1537835641"/>
    <nd ref="1044037038"/>
    <nd ref="1044037240"/>
    <nd ref="1044037126"/>
    <nd ref="1044037169"/>
    <nd ref="1044037004"/>
    <nd ref="1044037142"/>
    <nd ref="1044037196"/>
    <tag k="addr:city" v="Düsseldorf"/>
    <tag k="addr:country" v="DE"/>
    <tag k="addr:housenumber" v="56"/>
    <tag k="addr:postcode" v="40545"/>
    <tag k="addr:street" v="Schanzenstraße"/>
    <tag k="building" v="yes"/>
    <tag k="source" v="Bing Sat"/>
  </way>
  <way id="90078814" version="4" timestamp="2011-12-10T07:49:32Z" uid="173844" user="Antikalk" changeset="10078862">
    <nd ref="1044037196"/>
    <nd ref="1044036979"/>
    <nd ref="1044036864"/>
    <nd ref="1044037212"/>
    <nd ref="1537835641"/>
    <nd ref="1044037038"/>
    <nd ref="1044037240"/>
    <nd ref="1044037126"/>
    <nd ref="1044037169"/>
    <nd ref="1044037004"/>
    <nd ref="1044037142"/>
    <nd ref="1044037196"/>
    <tag k="addr:city" v="Düsseldorf"/>
    <tag k="addr:country" v="DE"/>
    <tag k="addr:housenumber" v="56"/>
    <tag k="addr:postcode" v="40549"/>
    <tag k="addr:street" v="Schanzenstraße"/>
    <tag k="building" v="yes"/>
    <tag k="source" v="Bing Sat"/>
  </way>
  <way id="90078814" version="5" timestamp="2011-12-18T09:56:58Z" uid="173844" user="Antikalk" changeset="10144833"/>
  <way id="90078815" version="1" timestamp="2010-12-18T00:03:52Z" uid="151899" user="Bikeman2000" changeset="6692111">
    <nd ref="1044036993"/>
    <nd ref="1044037126"/>
    <nd ref="1044037240"/>
    <nd ref="1044037038"/>
    <nd ref="1044036917"/>
    <nd ref="1044036993"/>
    <tag k="building" v="yes"/>
  </way>
  <way id="90078815" version="2" timestamp="2011-11-19T18:53:12Z" uid="173844" user="Antikalk" changeset="9876029">
    <nd ref="1044036993"/>
    <nd ref="1044037126"/>
    <nd ref="1044037240"/>
    <nd ref="1044037038"/>
    <nd ref="1044036917"/>
    <nd ref="1044036993"/>
    <tag k="building" v="yes"/>
    <tag k="source" v="Bing Sat"/>
  </way>
  <way id="90078815" version="3" timestamp="2011-12-09T07:11:47Z" uid="173844" user="Antikalk" changeset="10070854"/>
  <way id="90078816" version="1" timestamp="2010-12-18T00:03:52Z" uid="151899" user="Bikeman2000" changeset="6692111">
    <nd ref="1044036817"/>
    <nd ref="1044036945"/>
    <nd ref="1044036886"/>
    <nd ref="1044036973"/>
    <nd ref="1044036862"/>
    <nd ref="1044037239"/>
    <nd ref="1044036817"/>
    <tag k="building" v="yes"/>
  </way>
  <way id="90078816" version="2" timestamp="2011-11-19T18:53:12Z" uid="173844" user="Antikalk" changeset="9876029">
    <nd ref="1044036817"/>
    <nd ref="1044036945"/>
    <nd ref="1044036886"/>
    <nd ref="1044036973"/>
    <nd ref="1044036862"/>
    <nd ref="1044037239"/>
    <nd ref="1044036817"/>
    <tag k="building" v="yes"/>
    <tag k="source" v="Bing Sat"/>
  </way>
  <way id="90078816" version="3" timestamp="2011-12-09T07:11:31Z" uid="173844" user="Antikalk" changeset="10070854">
    <nd ref="1044036817"/>
    <nd ref="1044036945"/>
    <nd ref="1044036886"/>
    <nd ref="1044036973"/>
    <nd ref="1537835561"/>
    <nd ref="1044036862"/>
    <nd ref="1044037239"/>
    <nd ref="1044036817"/>
    <tag k="addr:city" v="Düsseldorf"/>
    <tag k="addr:country" v="DE"/>
    <tag k="addr:housenumber" v="28"/>
    <tag k="addr:postcode" v="40545"/>
    <tag k="addr:street" v="Schanzenstraße"/>
    <tag k="building" v="yes"/>
    <tag k="source" v="Bing Sat"/>
  </way>
  <way id="90078816" version="4" timestamp="2011-12-10T07:49:17Z" uid="173844" user="Antikalk" changeset="10078862">
    <nd ref="1044036817"/>
    <nd ref="1044036945"/>
    <nd ref="1044036886"/>
    <nd ref="1044036973"/>
    <nd ref="1537835561"/>
    <nd ref="1044036862"/>
    <nd ref="1044037239"/>
    <nd ref="1044036817"/>
    <tag k="addr:city" v="Düsseldorf"/>
    <tag k="addr:country" v="DE"/>
    <tag k="addr:housenumber" v="28"/>
    <tag k="addr:postcode" v="40549"/>
    <tag k="addr:street" v="Schanzenstraße"/>
    <tag k="building" v="yes"/>
    <tag k="source" v="Bing Sat"/>
  </way>
  <way id="90078816" version="5" timestamp="2011-12-18T09:56:57Z" uid="173844" user="Antikalk" changeset="10144833"/>
  <way id="90078817" version="1" timestamp="2010-12-18T00:03:53Z" uid="151899" user="Bikeman2000" changeset="6692111">
    <nd ref="1044037092"/>
    <nd ref="1044037215"/>
    <nd ref="1044037260"/>
    <nd ref="1044036901"/>
    <nd ref="1044037092"/>
    <tag k="building" v="yes"/>
  </way>
  <way id="90078817" version="2" timestamp="2011-11-19T18:53:12Z" uid="173844" user="Antikalk" changeset="9876029">
    <nd ref="1044037092"/>
    <nd ref="1044037215"/>
    <nd ref="1044037260"/>
    <nd ref="1044036901"/>
    <nd ref="1044037092"/>
    <tag k="building" v="yes"/>
    <tag k="source" v="Bing Sat"/>
  </way>
  <way id="90078817" version="3" timestamp="2011-12-09T07:11:38Z" uid="173844" user="Antikalk" changeset="10070854">
    <nd ref="1044037092"/>
    <nd ref="1044037215"/>
    <nd ref="1044037260"/>
    <nd ref="1537835652"/>
    <nd ref="1044036901"/>
    <nd ref="1044037092"/>
    <tag k="addr:city" v="Düsseldorf"/>
    <tag k="addr:country" v="DE"/>
    <tag k="addr:housenumber" v="74"/>
    <tag k="addr:postcode" v="40545"/>
    <tag k="addr:street" v="Schanzenstraße"/>
    <tag k="building" v="yes"/>
    <tag k="source" v="Bing Sat"/>
  </way>
  <way id="90078817" version="4" timestamp="2011-12-10T07:49:36Z" uid="173844" user="Antikalk" changeset="10078862">
    <nd ref="1044037092"/>
    <nd ref="1044037215"/>
    <nd ref="1044037260"/>
    <nd ref="1537835652"/>
    <nd ref="1044036901"/>
    <nd ref="1044037092"/>
    <tag k="addr:city" v="Düsseldorf"/>
    <tag k="addr:country" v="DE"/>
    <tag k="addr:housenumber" v="74"/>
    <tag k="addr:postcode" v="40549"/>
    <tag k="addr:street" v="Schanzenstraße"/>
    <tag k="building" v="yes"/>
    <tag k="source" v="Bing Sat"/>
  </way>
  <way id="90078817" version="5" timestamp="2011-12-18T09:56:58Z" uid="173844" user="Antikalk" changeset="10144833"/>
  <way id="90078818" version="1" timestamp="2010-12-18T00:03:53Z" uid="151899" user="Bikeman2000" changeset="6692111">
    <nd ref="1044037232"/>
    <nd ref="1044036948"/>
    <nd ref="1044036923"/>
    <nd ref="1044037173"/>
    <nd ref="1044037232"/>
    <tag k="building" v="yes"/>
  </way>
  <way id="90078818" version="2" timestamp="2011-12-09T09:58:56Z" uid="173844" user="Antikalk" changeset="10071698"/>
  <way id="90078819" version="1" timestamp="2010-12-18T00:03:53Z" uid="151899" user="Bikeman2000" changeset="6692111">
    <nd ref="1044037020"/>
    <nd ref="1044037059"/>
    <nd ref="1044037073"/>
    <nd ref="1044036926"/>
    <nd ref="1044036844"/>
    <nd ref="1044036895"/>
    <nd ref="1044037020"/>
    <tag k="building" v="yes"/>
  </way>
  <way id="90078819" version="2" timestamp="2011-11-19T18:53:12Z" uid="173844" user="Antikalk" changeset="9876029">
    <nd ref="1044037020"/>
    <nd ref="1044037059"/>
    <nd ref="1044037073"/>
    <nd ref="1044036926"/>
    <nd ref="1044036844"/>
    <nd ref="1044036895"/>
    <nd ref="1044037020"/>
    <tag k="building" v="yes"/>
    <tag k="source" v="Bing Sat"/>
  </way>
  <way id="90078819" version="3" timestamp="2011-12-09T07:11:36Z" uid="173844" user="Antikalk" changeset="10070854">
    <nd ref="1044037020"/>
    <nd ref="1044037059"/>
    <nd ref="1044037073"/>
    <nd ref="1044036926"/>
    <nd ref="1537835619"/>
    <nd ref="1044036844"/>
    <nd ref="1044036895"/>
    <nd ref="1044037020"/>
    <tag k="addr:city" v="Düsseldorf"/>
    <tag k="addr:country" v="DE"/>
    <tag k="addr:housenumber" v="52"/>
    <tag k="addr:postcode" v="40545"/>
    <tag k="addr:street" v="Schanzenstraße"/>
    <tag k="building" v="yes"/>
    <tag k="source" v="Bing Sat"/>
  </way>
  <way id="90078819" version="4" timestamp="2011-12-10T07:49:30Z" uid="173844" user="Antikalk" changeset="10078862">
    <nd ref="1044037020"/>
    <nd ref="1044037059"/>
    <nd ref="1044037073"/>
    <nd ref="1044036926"/>
    <nd ref="1537835619"/>
    <nd ref="1044036844"/>
    <nd ref="1044036895"/>
    <nd ref="1044037020"/>
    <tag k="addr:city" v="Düsseldorf"/>
    <tag k="addr:country" v="DE"/>
    <tag k="addr:housenumber" v="52"/>
    <tag k="addr:postcode" v="40549"/>
    <tag k="addr:street" v="Schanzenstraße"/>
    <tag k="building" v="yes"/>
    <tag k="source" v="Bing Sat"/>
  </way>
  <way id="90078819" version="5" timestamp="2011-12-18T09:56:58Z" uid="173844" user="Antikalk" changeset="10144833"/>
</osm>
