<?xml version='1.0' encoding='UTF-8'?>
<osm version="0.6" generator="libosmium/2.20.0">
  <way id="90113500" version="2" timestamp="2010-12-21T07:19:44Z" uid="99207" user="Lar Kiesel" changeset="6722614">
    <nd ref="1044649082"/>
    <nd ref="560636967"/>
    <nd ref="560636968"/>
    <nd ref="560636931"/>
    <tag k="highway" v="trunk"/>
    <tag k="lanes" v="2"/>
    <tag k="name" v="Cross Island Pky"/>
    <tag k="name_1" v="United States Highway 278"/>
    <tag k="oneway" v="yes"/>
    <tag k="ref" v="US 278"/>
    <tag k="toll" v="yes"/>
  </way>
  <way id="90113500" version="3" timestamp="2011-05-08T13:46:57Z" uid="207745" user="NE2" changeset="8082761">
    <nd ref="1044649082"/>
    <nd ref="560636967"/>
    <nd ref="560636968"/>
    <nd ref="560636931"/>
    <tag k="highway" v="motorway"/>
    <tag k="lanes" v="2"/>
    <tag k="name" v="Cross Island Pky"/>
    <tag k="name_1" v="United States Highway 278"/>
    <tag k="oneway" v="yes"/>
    <tag k="ref" v="US 278"/>
    <tag k="toll" v="yes"/>
  </way>
  <way id="90113500" version="4" timestamp="2011-06-16T16:58:30Z" uid="207745" user="NE2" changeset="8457565">
    <nd ref="1044649082"/>
    <nd ref="560636967"/>
    <nd ref="560636968"/>
    <nd ref="560636931"/>
    <tag k="highway" v="motorway"/>
    <tag k="lanes" v="2"/>
    <tag k="name" v="Cross Island Pky"/>
    <tag k="oneway" v="yes"/>
    <tag k="ref" v="US 278"/>
    <tag k="toll" v="yes"/>
  </way>
  <way id="90113500" version="5" timestamp="2011-07-08T08:29:58Z" uid="473471" user="NE3" changeset="8663933">
    <nd ref="1044649082"/>
    <nd ref="560636967"/>
    <nd ref="560636968"/>
    <nd ref="560636931"/>
    <tag k="NHS" v="yes"/>
    <tag k="highway" v="motorway"/>
    <tag k="lanes" v="2"/>
    <tag k="name" v="Cross Island Pky"/>
    <tag k="oneway" v="yes"/>
    <tag k="ref" v="US 278"/>
    <tag k="toll" v="yes"/>
  </way>
  <way id="90113516" version="2" timestamp="2011-04-06T18:22:01Z" uid="6269" user="Mueck" changeset="7787656">
    <nd ref="1044649665"/>
    <nd ref="1234952284"/>
    <tag k="highway" v="track"/>
    <tag k="smoothness" v="very_bad"/>
    <tag k="surface" v="grass"/>
    <tag k="tracktype" v="grade5"/>
  </way>
  <way id="90113967" version="1" timestamp="2010-12-18T10:37:12Z" uid="19626" user="Swamp" changeset="6694304">
    <nd ref="1044653300"/>
    <nd ref="1044653298"/>
    <tag k="highway" v="unclassified"/>
    <tag k="maxspeed" v="100"/>
    <tag k="name" v="Carlisle Park Road"/>
  </way>
  <way id="90113967" version="2" timestamp="2010-12-18T11:45:42Z" uid="19626" user="Swamp" changeset="6694886">
    <nd ref="1044653300"/>
    <nd ref="1044653298"/>
    <nd ref="1044781167"/>
    <tag k="highway" v="unclassified"/>
    <tag k="maxspeed" v="100"/>
    <tag k="name" v="Carlisle Park Road"/>
    <tag k="source" v="survey / landsat"/>
    <tag k="surface" v="unpaved"/>
  </way>
  <way id="90113970" version="1" timestamp="2010-12-18T10:37:13Z" uid="19626" user="Swamp" changeset="6694304">
    <nd ref="1044653296"/>
    <nd ref="1044653300"/>
    <tag k="highway" v="unclassified"/>
    <tag k="name" v="Plemings Lane"/>
    <tag k="source" v="gps fix"/>
    <tag k="surface" v="unpaved"/>
  </way>
  <way id="90113970" version="2" timestamp="2010-12-18T11:45:41Z" uid="19626" user="Swamp" changeset="6694886">
    <nd ref="1044781168"/>
    <nd ref="1044653296"/>
    <nd ref="1044653300"/>
    <tag k="highway" v="unclassified"/>
    <tag k="name" v="Plemings Lane"/>
    <tag k="source" v="survey / landsat"/>
    <tag k="surface" v="unpaved"/>
  </way>
  <way id="90113972" version="1" timestamp="2010-12-18T10:37:14Z" uid="19626" user="Swamp" changeset="6694304">
    <nd ref="1044653285"/>
    <nd ref="1044653294"/>
    <tag k="highway" v="unclassified"/>
    <tag k="maxspeed" v="100"/>
    <tag k="name" v="Settlers Lane"/>
  </way>
  <way id="90113972" version="2" timestamp="2010-12-18T11:45:39Z" uid="19626" user="Swamp" changeset="6694886">
    <nd ref="1044653285"/>
    <nd ref="1044653294"/>
    <nd ref="1044781166"/>
    <nd ref="1044781161"/>
    <tag k="highway" v="unclassified"/>
    <tag k="maxspeed" v="100"/>
    <tag k="name" v="Settlers Lane"/>
    <tag k="source" v="survey / landsat"/>
  </way>
  <way id="90113974" version="1" timestamp="2010-12-18T10:37:15Z" uid="19626" user="Swamp" changeset="6694304">
    <nd ref="1044653292"/>
    <nd ref="1044653290"/>
    <tag k="highway" v="unclassified"/>
    <tag k="maxspeed" v="100"/>
    <tag k="name" v="Lucas Lane"/>
    <tag k="source" v="gps fix"/>
  </way>
  <way id="90113974" version="2" timestamp="2010-12-18T11:45:40Z" uid="19626" user="Swamp" changeset="6694886">
    <nd ref="1044653292"/>
    <nd ref="1044653290"/>
    <tag k="highway" v="unclassified"/>
    <tag k="maxspeed" v="100"/>
    <tag k="name" v="Lucas Lane"/>
    <tag k="source" v="survey / landsat"/>
  </way>
  <way id="90113500" version="6" timestamp="2012-04-08T15:35:52Z" uid="169004" user="oldtopos" changeset="11226578"/>
  <way id="90113516" version="3" timestamp="2012-04-23T17:52:06Z" uid="35468" user="Blunauer" changeset="11397872"/>
  <way id="90113967" version="3" timestamp="2012-07-19T11:36:43Z" uid="722137" user="OSMF Redaction Account" changeset="12322100"/>
  <way id="90113970" version="3" timestamp="2012-07-19T11:36:43Z" uid="722137" user="OSMF Redaction Account" changeset="12322100"/>
  <way id="90113972" version="3" timestamp="2012-07-19T11:36:42Z" uid="722137" user="OSMF Redaction Account" changeset="12322100"/>
  <way id="90113974" version="3" timestamp="2012-07-19T11:35:37Z" uid="722137" user="OSMF Redaction Account" changeset="12322033"/>
</osm>
