<?xml version='1.0' encoding='UTF-8'?>
<osm version="0.6" generator="libosmium/2.20.0">
  <way id="90156006" version="1" timestamp="2010-12-18T15:14:49Z" uid="151899" user="Bikeman2000" changeset="6696743">
    <nd ref="1045194054"/>
    <nd ref="1045194030"/>
    <nd ref="1045194050"/>
    <nd ref="1045184065"/>
    <nd ref="1045184153"/>
    <nd ref="1045193989"/>
    <nd ref="1045194058"/>
    <nd ref="1045194099"/>
    <nd ref="1045194054"/>
    <tag k="building" v="yes"/>
  </way>
  <way id="90156006" version="2" timestamp="2011-11-23T23:01:35Z" uid="173844" user="Antikalk" changeset="9927592">
    <nd ref="1045194054"/>
    <nd ref="1045194030"/>
    <nd ref="1045194050"/>
    <nd ref="1045184065"/>
    <nd ref="1045184153"/>
    <nd ref="1045193989"/>
    <nd ref="1514677020"/>
    <nd ref="1045194058"/>
    <nd ref="1045194099"/>
    <nd ref="1045194054"/>
    <tag k="addr:city" v="Düsseldorf"/>
    <tag k="addr:country" v="DE"/>
    <tag k="addr:housenumber" v="25"/>
    <tag k="addr:postcode" v="40545"/>
    <tag k="addr:street" v="Dominikanerstraße"/>
    <tag k="building" v="yes"/>
    <tag k="source" v="Bing Sat"/>
  </way>
  <way id="90156006" version="3" timestamp="2011-12-18T21:21:12Z" uid="173844" user="Antikalk" changeset="10150964"/>
  <way id="90156007" version="1" timestamp="2010-12-18T15:14:49Z" uid="151899" user="Bikeman2000" changeset="6696743">
    <nd ref="1045194003"/>
    <nd ref="1045194099"/>
    <nd ref="1045194058"/>
    <nd ref="1045194045"/>
    <nd ref="1045194067"/>
    <nd ref="1045194003"/>
    <tag k="building" v="yes"/>
  </way>
  <way id="90156007" version="2" timestamp="2011-11-23T23:01:36Z" uid="173844" user="Antikalk" changeset="9927592">
    <nd ref="1045194003"/>
    <nd ref="1045194099"/>
    <nd ref="1045194058"/>
    <nd ref="1514676996"/>
    <nd ref="1045194045"/>
    <nd ref="1045194067"/>
    <nd ref="1045194003"/>
    <tag k="addr:city" v="Düsseldorf"/>
    <tag k="addr:country" v="DE"/>
    <tag k="addr:housenumber" v="29"/>
    <tag k="addr:postcode" v="40545"/>
    <tag k="addr:street" v="Dominikanerstraße"/>
    <tag k="building" v="yes"/>
    <tag k="source" v="Bing Sat"/>
  </way>
  <way id="90156007" version="3" timestamp="2011-12-18T21:21:12Z" uid="173844" user="Antikalk" changeset="10150964"/>
  <way id="90156009" version="1" timestamp="2010-12-18T15:14:49Z" uid="151899" user="Bikeman2000" changeset="6696743">
    <nd ref="1045194001"/>
    <nd ref="1045193992"/>
    <nd ref="1045194067"/>
    <nd ref="1045194045"/>
    <nd ref="1045194036"/>
    <nd ref="1045194063"/>
    <nd ref="1045193997"/>
    <nd ref="1045194001"/>
    <tag k="building" v="yes"/>
  </way>
  <way id="90156009" version="2" timestamp="2011-11-23T22:48:22Z" uid="173844" user="Antikalk" changeset="9927438">
    <nd ref="1045194063"/>
    <nd ref="1514656866"/>
    <nd ref="1045193997"/>
    <nd ref="1045194001"/>
    <nd ref="1514656973"/>
    <nd ref="1045194063"/>
    <tag k="addr:city" v="Düsseldorf"/>
    <tag k="addr:country" v="DE"/>
    <tag k="addr:housenumber" v="86"/>
    <tag k="addr:postcode" v="40545"/>
    <tag k="addr:street" v="Wildenbruchstraße"/>
    <tag k="building" v="yes"/>
    <tag k="source" v="Bing Sat"/>
  </way>
  <way id="90156009" version="3" timestamp="2011-12-18T21:21:16Z" uid="173844" user="Antikalk" changeset="10150964"/>
</osm>
