<?xml version='1.0' encoding='UTF-8'?>
<osm version="0.6" generator="libosmium/2.20.0">
  <way id="90182083" version="1" timestamp="2010-12-18T17:07:24Z" uid="164966" user="linuss1" changeset="6698030">
    <nd ref="1045527170"/>
    <nd ref="1045527190"/>
    <nd ref="1045527184"/>
    <tag k="highway" v="track"/>
    <tag k="source" v="bing"/>
  </way>
  <way id="90182083" version="2" timestamp="2011-01-02T19:53:35Z" uid="323886" user="hermann51" changeset="6842752">
    <nd ref="1045527170"/>
    <nd ref="1045527190"/>
    <nd ref="1045527184"/>
    <tag k="highway" v="service"/>
    <tag k="name" v="Graf-Anton-Günther-Straße"/>
    <tag k="service" v="driveway"/>
    <tag k="source" v="bing"/>
  </way>
  <way id="90182083" version="3" timestamp="2012-02-07T19:59:34Z" uid="323886" user="hermann51" changeset="10615862">
    <nd ref="1045527170"/>
    <nd ref="1045527190"/>
    <nd ref="1045527184"/>
    <tag k="highway" v="service"/>
    <tag k="name" v="Graf-Anton-Günther-Straße"/>
    <tag k="service" v="alley"/>
    <tag k="source" v="bing"/>
  </way>
  <way id="90182084" version="1" timestamp="2010-12-18T17:07:24Z" uid="164966" user="linuss1" changeset="6698030">
    <nd ref="1045527149"/>
    <nd ref="1045527159"/>
    <tag k="highway" v="residential"/>
    <tag k="name" v="Herrenesch"/>
    <tag k="source" v="bing"/>
  </way>
  <way id="90182084" version="2" timestamp="2011-07-26T19:10:10Z" uid="73563" user="drich" changeset="8838904">
    <nd ref="1045527149"/>
    <nd ref="1045527159"/>
    <tag k="highway" v="residential"/>
    <tag k="name" v="Herrenesch"/>
    <tag k="source" v="bing"/>
  </way>
  <way id="90182086" version="1" timestamp="2010-12-18T17:07:24Z" uid="164966" user="linuss1" changeset="6698030">
    <nd ref="1045527162"/>
    <nd ref="1045527209"/>
    <nd ref="1045527154"/>
    <nd ref="1045527166"/>
    <nd ref="1045527179"/>
    <nd ref="1045527180"/>
    <nd ref="1045527187"/>
    <nd ref="1045527209"/>
    <tag k="highway" v="residential"/>
    <tag k="source" v="bing"/>
  </way>
  <way id="90182086" version="2" timestamp="2011-01-02T19:31:10Z" uid="323886" user="hermann51" changeset="6842445">
    <nd ref="1045527162"/>
    <nd ref="1045527209"/>
    <tag k="highway" v="residential"/>
    <tag k="source" v="bing"/>
  </way>
  <way id="90182086" version="3" timestamp="2011-10-18T20:12:12Z" uid="38735" user="GPS-Wolf" changeset="9594724">
    <nd ref="1045527162"/>
    <nd ref="1472353295"/>
    <nd ref="1045527209"/>
    <tag k="highway" v="residential"/>
    <tag k="name" v="Am Urwald"/>
    <tag k="source" v="bing"/>
  </way>
  <way id="90182087" version="1" timestamp="2010-12-18T17:07:24Z" uid="164966" user="linuss1" changeset="6698030">
    <nd ref="1045527179"/>
    <nd ref="1045527181"/>
    <nd ref="1045527192"/>
    <tag k="highway" v="residential"/>
    <tag k="source" v="bing"/>
  </way>
  <way id="90182087" version="2" timestamp="2011-01-02T19:31:15Z" uid="323886" user="hermann51" changeset="6842445">
    <nd ref="1045527179"/>
    <nd ref="1045527181"/>
    <nd ref="1045527192"/>
    <tag k="highway" v="residential"/>
    <tag k="name" v="Am Urwald"/>
    <tag k="source" v="bing"/>
  </way>
  <way id="90182083" version="4" timestamp="2012-04-13T21:50:31Z" uid="323886" user="hermann51" changeset="11292993">
    <nd ref="1045527170"/>
    <nd ref="1715265995"/>
    <nd ref="1045527190"/>
    <nd ref="1045527184"/>
    <tag k="highway" v="service"/>
    <tag k="name" v="Graf-Anton-Günther-Straße"/>
    <tag k="service" v="alley"/>
  </way>
  <way id="90182086" version="4" timestamp="2012-04-13T21:50:30Z" uid="323886" user="hermann51" changeset="11292993">
    <nd ref="1045527162"/>
    <nd ref="1472353295"/>
    <nd ref="1715265983"/>
    <nd ref="1045527209"/>
    <tag k="highway" v="residential"/>
    <tag k="name" v="Am Urwald"/>
  </way>
  <way id="90182087" version="3" timestamp="2012-04-13T21:50:30Z" uid="323886" user="hermann51" changeset="11292993">
    <nd ref="1045527179"/>
    <nd ref="1715266004"/>
    <nd ref="1045527181"/>
    <nd ref="1715266011"/>
    <nd ref="1715266012"/>
    <nd ref="1045527192"/>
    <tag k="highway" v="residential"/>
    <tag k="name" v="Am Urwald"/>
  </way>
</osm>
