<?xml version='1.0' encoding='UTF-8'?>
<osm version="0.6" generator="libosmium/2.20.0">
  <way id="90584586" version="1" timestamp="2010-12-20T10:25:37Z" uid="30632" user="antblant" changeset="6714472">
    <nd ref="1051272263"/>
    <nd ref="1051272269"/>
    <tag k="highway" v="residential"/>
    <tag k="name" v="Wielkopolska"/>
    <tag k="parking:lane:left" v="orthogonal"/>
  </way>
  <way id="90584587" version="1" timestamp="2010-12-20T10:25:37Z" uid="30632" user="antblant" changeset="6714472">
    <nd ref="1051272281"/>
    <nd ref="254066565"/>
    <tag k="highway" v="secondary"/>
    <tag k="name" v="Marszałka Józefa Piłsudskiego"/>
    <tag k="oneway" v="yes"/>
    <tag k="ref" v="115"/>
    <tag k="source" v="UMP-PL, ./UMP-Szczecin/src/SZCZECIN.ulice.txt"/>
    <tag k="wikipedia" v="pl:Aleja marsz. Józefa Piłsudskiego w Szczecinie"/>
  </way>
  <way id="90584588" version="1" timestamp="2010-12-20T10:25:37Z" uid="30632" user="antblant" changeset="6714472">
    <nd ref="1051272274"/>
    <nd ref="254069073"/>
    <tag k="highway" v="secondary"/>
    <tag k="name" v="Marszałka Józefa Piłsudskiego"/>
    <tag k="old_name" v="Karlstraße"/>
    <tag k="oneway" v="yes"/>
    <tag k="ref" v="115"/>
    <tag k="source" v="UMP-PL, ./UMP-Szczecin/src/SZCZECIN.ulice.txt"/>
    <tag k="wikipedia" v="pl:Aleja marsz. Józefa Piłsudskiego w Szczecinie"/>
  </way>
  <way id="90584589" version="1" timestamp="2010-12-20T10:25:38Z" uid="30632" user="antblant" changeset="6714472">
    <nd ref="1051272273"/>
    <nd ref="1051272266"/>
    <tag k="highway" v="residential"/>
    <tag k="name" v="Wąska"/>
    <tag k="parking:lane:right" v="orthogonal"/>
    <tag k="source" v="UMP-PL, ./UMP-Szczecin/src/SZCZECIN.ulice.txt"/>
  </way>
  <way id="90584590" version="1" timestamp="2010-12-20T10:25:39Z" uid="30632" user="antblant" changeset="6714472">
    <nd ref="1051272292"/>
    <nd ref="1051272294"/>
    <tag k="highway" v="secondary"/>
    <tag k="name" v="Marszałka Józefa Piłsudskiego"/>
    <tag k="oneway" v="yes"/>
    <tag k="parking:lane:right" v="inline"/>
    <tag k="ref" v="115"/>
    <tag k="source" v="UMP-PL, ./UMP-Szczecin/src/SZCZECIN.ulice.txt"/>
    <tag k="wikipedia" v="pl:Aleja marsz. Józefa Piłsudskiego w Szczecinie"/>
  </way>
  <way id="90584591" version="1" timestamp="2010-12-20T10:25:39Z" uid="30632" user="antblant" changeset="6714472">
    <nd ref="1051272270"/>
    <nd ref="1051272283"/>
    <tag k="highway" v="secondary"/>
    <tag k="name" v="Marszałka Józefa Piłsudskiego"/>
    <tag k="old_name" v="Karlstraße"/>
    <tag k="oneway" v="yes"/>
    <tag k="parking:lane:right" v="inline"/>
    <tag k="ref" v="115"/>
    <tag k="source" v="UMP-PL, ./UMP-Szczecin/src/SZCZECIN.ulice.txt"/>
    <tag k="wikipedia" v="pl:Aleja marsz. Józefa Piłsudskiego w Szczecinie"/>
  </way>
  <way id="90584592" version="1" timestamp="2010-12-20T10:25:40Z" uid="30632" user="antblant" changeset="6714472">
    <nd ref="1051272269"/>
    <nd ref="254059572"/>
    <nd ref="559822777"/>
    <nd ref="254059571"/>
    <nd ref="254059570"/>
    <nd ref="254059569"/>
    <tag k="highway" v="residential"/>
    <tag k="name" v="Wielkopolska"/>
  </way>
  <way id="90584593" version="1" timestamp="2010-12-20T10:25:41Z" uid="30632" user="antblant" changeset="6714472">
    <nd ref="1051272266"/>
    <nd ref="254067478"/>
    <nd ref="981698281"/>
    <nd ref="254067477"/>
    <tag k="highway" v="residential"/>
    <tag k="name" v="Wąska"/>
    <tag k="source" v="UMP-PL, ./UMP-Szczecin/src/SZCZECIN.ulice.txt"/>
  </way>
  <way id="90584594" version="1" timestamp="2010-12-20T10:25:41Z" uid="30632" user="antblant" changeset="6714472">
    <nd ref="1051272294"/>
    <nd ref="254059564"/>
    <tag k="highway" v="secondary"/>
    <tag k="name" v="Marszałka Józefa Piłsudskiego"/>
    <tag k="oneway" v="yes"/>
    <tag k="ref" v="115"/>
    <tag k="source" v="UMP-PL, ./UMP-Szczecin/src/SZCZECIN.ulice.txt"/>
    <tag k="wikipedia" v="pl:Aleja marsz. Józefa Piłsudskiego w Szczecinie"/>
  </way>
  <way id="90584595" version="1" timestamp="2010-12-20T10:25:41Z" uid="30632" user="antblant" changeset="6714472">
    <nd ref="1051272283"/>
    <nd ref="254067374"/>
    <tag k="highway" v="secondary"/>
    <tag k="name" v="Marszałka Józefa Piłsudskiego"/>
    <tag k="old_name" v="Karlstraße"/>
    <tag k="oneway" v="yes"/>
    <tag k="ref" v="115"/>
    <tag k="source" v="UMP-PL, ./UMP-Szczecin/src/SZCZECIN.ulice.txt"/>
    <tag k="wikipedia" v="pl:Aleja marsz. Józefa Piłsudskiego w Szczecinie"/>
  </way>
  <way id="90584595" version="2" timestamp="2012-02-26T17:00:44Z" uid="603523" user="diverpl" changeset="10800474">
    <nd ref="1051272283"/>
    <nd ref="1648910223"/>
    <tag k="highway" v="secondary"/>
    <tag k="name" v="Marszałka Józefa Piłsudskiego"/>
    <tag k="old_name" v="Karlstraße"/>
    <tag k="oneway" v="yes"/>
    <tag k="ref" v="115"/>
    <tag k="source" v="UMP-PL, ./UMP-Szczecin/src/SZCZECIN.ulice.txt"/>
    <tag k="wikipedia" v="pl:Aleja marsz. Józefa Piłsudskiego w Szczecinie"/>
  </way>
  <way id="90584596" version="1" timestamp="2010-12-20T10:25:42Z" uid="30632" user="antblant" changeset="6714472">
    <nd ref="1051272275"/>
    <nd ref="1051272281"/>
    <tag k="highway" v="secondary"/>
    <tag k="name" v="Marszałka Józefa Piłsudskiego"/>
    <tag k="oneway" v="yes"/>
    <tag k="parking:lane:right" v="inline"/>
    <tag k="ref" v="115"/>
    <tag k="source" v="UMP-PL, ./UMP-Szczecin/src/SZCZECIN.ulice.txt"/>
    <tag k="wikipedia" v="pl:Aleja marsz. Józefa Piłsudskiego w Szczecinie"/>
  </way>
  <way id="90584597" version="1" timestamp="2010-12-20T10:25:43Z" uid="30632" user="antblant" changeset="6714472">
    <nd ref="1051272278"/>
    <nd ref="1051272274"/>
    <tag k="highway" v="secondary"/>
    <tag k="name" v="Marszałka Józefa Piłsudskiego"/>
    <tag k="old_name" v="Karlstraße"/>
    <tag k="oneway" v="yes"/>
    <tag k="parking:lane:right" v="inline"/>
    <tag k="ref" v="115"/>
    <tag k="source" v="UMP-PL, ./UMP-Szczecin/src/SZCZECIN.ulice.txt"/>
    <tag k="wikipedia" v="pl:Aleja marsz. Józefa Piłsudskiego w Szczecinie"/>
  </way>
  <way id="90584588" version="2" timestamp="2012-04-16T10:26:44Z" uid="315015" user="WernerP" changeset="11320245"/>
  <way id="90584589" version="2" timestamp="2012-07-03T16:44:05Z" uid="473784" user="antblant" changeset="12102008">
    <nd ref="1051272273"/>
    <nd ref="1051272266"/>
    <tag k="highway" v="residential"/>
    <tag k="lanes" v="2"/>
    <tag k="name" v="Wąska"/>
    <tag k="parking:lane:right" v="orthogonal"/>
    <tag k="source" v="UMP-PL, ./UMP-Szczecin/src/SZCZECIN.ulice.txt"/>
  </way>
  <way id="90584590" version="2" timestamp="2012-05-12T12:09:29Z" uid="473784" user="antblant" changeset="11575963">
    <nd ref="1051272292"/>
    <nd ref="1749585053"/>
    <nd ref="1749585068"/>
    <nd ref="1051272294"/>
    <tag k="highway" v="secondary"/>
    <tag k="name" v="Marszałka Józefa Piłsudskiego"/>
    <tag k="oneway" v="yes"/>
    <tag k="parking:lane:right" v="inline"/>
    <tag k="ref" v="115"/>
    <tag k="source" v="UMP-PL, ./UMP-Szczecin/src/SZCZECIN.ulice.txt"/>
    <tag k="wikipedia" v="pl:Aleja marsz. Józefa Piłsudskiego w Szczecinie"/>
  </way>
  <way id="90584590" version="3" timestamp="2012-07-18T20:00:28Z" uid="473784" user="antblant" changeset="12296106">
    <nd ref="1051272292"/>
    <nd ref="1749585053"/>
    <nd ref="1749585068"/>
    <nd ref="1051272294"/>
    <tag k="highway" v="secondary"/>
    <tag k="name" v="Marszałka Józefa Piłsudskiego"/>
    <tag k="oneway" v="yes"/>
    <tag k="parking:lane:right" v="inline"/>
    <tag k="ref" v="115"/>
    <tag k="wikipedia" v="pl:Aleja marsz. Józefa Piłsudskiego w Szczecinie"/>
  </way>
  <way id="90584591" version="2" timestamp="2012-04-16T10:26:45Z" uid="315015" user="WernerP" changeset="11320245"/>
  <way id="90584592" version="2" timestamp="2012-05-07T10:38:13Z" uid="676157" user="Facundo Arana" changeset="11526607">
    <nd ref="1051272269"/>
    <nd ref="1744107420"/>
    <nd ref="254059572"/>
    <nd ref="1744107431"/>
    <nd ref="559822777"/>
    <nd ref="254059571"/>
    <nd ref="254059570"/>
    <nd ref="254059569"/>
    <tag k="highway" v="residential"/>
    <tag k="name" v="Wielkopolska"/>
  </way>
  <way id="90584592" version="3" timestamp="2012-06-03T13:54:49Z" uid="686375" user="hajduczka" changeset="11786884">
    <nd ref="1051272269"/>
    <nd ref="1744107420"/>
    <nd ref="254059572"/>
    <nd ref="1744107431"/>
    <nd ref="559822777"/>
    <nd ref="254059571"/>
    <nd ref="254059570"/>
    <nd ref="254059569"/>
    <nd ref="1774800312"/>
    <nd ref="1774800313"/>
    <tag k="highway" v="residential"/>
    <tag k="name" v="Wielkopolska"/>
  </way>
  <way id="90584593" version="2" timestamp="2012-05-11T12:19:30Z" uid="338611" user="marek kleciak" changeset="11567401">
    <nd ref="1051272266"/>
    <nd ref="254067478"/>
    <nd ref="981698281"/>
    <nd ref="1748524131"/>
    <nd ref="254067477"/>
    <tag k="highway" v="residential"/>
    <tag k="name" v="Wąska"/>
    <tag k="source" v="UMP-PL, ./UMP-Szczecin/src/SZCZECIN.ulice.txt"/>
  </way>
  <way id="90584593" version="3" timestamp="2012-06-01T20:21:32Z" uid="473784" user="antblant" changeset="11771507">
    <nd ref="1051272266"/>
    <nd ref="254067478"/>
    <nd ref="981698281"/>
    <nd ref="1772971487"/>
    <nd ref="1748524131"/>
    <nd ref="254067477"/>
    <tag k="highway" v="residential"/>
    <tag k="name" v="Wąska"/>
    <tag k="source" v="UMP-PL, ./UMP-Szczecin/src/SZCZECIN.ulice.txt"/>
  </way>
  <way id="90584593" version="4" timestamp="2012-07-03T09:49:48Z" uid="473784" user="antblant" changeset="12098263">
    <nd ref="1051272266"/>
    <nd ref="254067478"/>
    <nd ref="1811065835"/>
    <nd ref="981698281"/>
    <nd ref="1772971487"/>
    <nd ref="1748524131"/>
    <nd ref="254067477"/>
    <tag k="highway" v="residential"/>
    <tag k="name" v="Wąska"/>
    <tag k="source" v="UMP-PL, ./UMP-Szczecin/src/SZCZECIN.ulice.txt"/>
  </way>
  <way id="90584593" version="5" timestamp="2012-07-03T10:11:36Z" uid="473784" user="antblant" changeset="12098407">
    <nd ref="1051272266"/>
    <nd ref="1811084048"/>
    <nd ref="254067478"/>
    <nd ref="1811084129"/>
    <nd ref="1811065835"/>
    <nd ref="1811084132"/>
    <nd ref="981698281"/>
    <nd ref="1772971487"/>
    <nd ref="1748524131"/>
    <nd ref="254067477"/>
    <tag k="highway" v="residential"/>
    <tag k="name" v="Wąska"/>
    <tag k="source" v="UMP-PL, ./UMP-Szczecin/src/SZCZECIN.ulice.txt"/>
  </way>
  <way id="90584593" version="6" timestamp="2012-07-03T16:44:05Z" uid="473784" user="antblant" changeset="12102008">
    <nd ref="1051272266"/>
    <nd ref="1811084048"/>
    <nd ref="254067478"/>
    <nd ref="1811084129"/>
    <nd ref="1811065835"/>
    <nd ref="1811084132"/>
    <nd ref="981698281"/>
    <nd ref="1772971487"/>
    <nd ref="1748524131"/>
    <nd ref="254067477"/>
    <tag k="highway" v="residential"/>
    <tag k="lanes" v="2"/>
    <tag k="name" v="Wąska"/>
  </way>
  <way id="90584594" version="2" timestamp="2012-07-18T20:00:27Z" uid="473784" user="antblant" changeset="12296106">
    <nd ref="1051272294"/>
    <nd ref="254059564"/>
    <tag k="highway" v="secondary"/>
    <tag k="name" v="Marszałka Józefa Piłsudskiego"/>
    <tag k="oneway" v="yes"/>
    <tag k="ref" v="115"/>
    <tag k="wikipedia" v="pl:Aleja marsz. Józefa Piłsudskiego w Szczecinie"/>
  </way>
  <way id="90584595" version="3" timestamp="2012-04-16T10:26:44Z" uid="315015" user="WernerP" changeset="11320245"/>
  <way id="90584596" version="2" timestamp="2012-05-12T12:09:29Z" uid="473784" user="antblant" changeset="11575963">
    <nd ref="1051272275"/>
    <nd ref="1749585038"/>
    <nd ref="1749585028"/>
    <nd ref="1051272281"/>
    <tag k="highway" v="secondary"/>
    <tag k="name" v="Marszałka Józefa Piłsudskiego"/>
    <tag k="oneway" v="yes"/>
    <tag k="parking:lane:right" v="inline"/>
    <tag k="ref" v="115"/>
    <tag k="source" v="UMP-PL, ./UMP-Szczecin/src/SZCZECIN.ulice.txt"/>
    <tag k="wikipedia" v="pl:Aleja marsz. Józefa Piłsudskiego w Szczecinie"/>
  </way>
  <way id="90584596" version="3" timestamp="2012-08-10T11:12:00Z" uid="413484" user="sznik" changeset="12678792"/>
  <way id="90584597" version="2" timestamp="2012-04-16T10:26:45Z" uid="315015" user="WernerP" changeset="11320245"/>
</osm>
