<?xml version='1.0' encoding='UTF-8'?>
<osm version="0.6" generator="libosmium/2.20.0">
  <way id="9084586" version="9" timestamp="2010-11-16T14:09:02Z" uid="20587" user="balrog-kun" changeset="6385303">
    <nd ref="67071227"/>
    <nd ref="67071221"/>
    <nd ref="355146344"/>
    <nd ref="991294917"/>
    <nd ref="991295140"/>
    <nd ref="67071196"/>
    <tag k="highway" v="residential"/>
    <tag k="maxspeed" v="50"/>
    <tag k="name" v="Clyde Road"/>
    <tag k="name:en" v="Clyde Road"/>
    <tag k="name:ga" v="Bóthar Cluaidh"/>
  </way>
  <way id="9084586" version="10" timestamp="2011-04-26T15:02:58Z" uid="166593" user="Nick Burrett" changeset="7975720">
    <nd ref="67071227"/>
    <nd ref="67071221"/>
    <nd ref="355146344"/>
    <nd ref="67071196"/>
    <tag k="highway" v="residential"/>
    <tag k="maxspeed" v="50"/>
    <tag k="name" v="Clyde Road"/>
    <tag k="name:en" v="Clyde Road"/>
    <tag k="name:ga" v="Bóthar Cluaidh"/>
  </way>
  <way id="9084586" version="11" timestamp="2011-09-01T14:46:27Z" uid="166593" user="Nick Burrett" changeset="9185200"/>
</osm>
