<?xml version='1.0' encoding='UTF-8'?>
<osm version="0.6" generator="libosmium/2.20.0">
  <way id="9106162" version="5" timestamp="2010-04-22T08:06:28Z" uid="4467" user="Rosscoe" changeset="4493312">
    <nd ref="67357765"/>
    <nd ref="67357766"/>
    <nd ref="67357770"/>
    <nd ref="703590320"/>
    <tag k="highway" v="residential"/>
    <tag k="name" v="Moon Place"/>
  </way>
  <way id="9106162" version="6" timestamp="2010-07-07T09:11:07Z" uid="74617" user="JohnSmith" changeset="5156250">
    <nd ref="67357765"/>
    <nd ref="67357766"/>
    <nd ref="67357770"/>
    <nd ref="703590320"/>
    <tag k="highway" v="residential"/>
    <tag k="maxspeed" v="50"/>
    <tag k="maxspeed:source" v="default residential speed limit in Australia"/>
    <tag k="name" v="Moon Place"/>
  </way>
  <way id="9106162" version="7" timestamp="2012-01-06T09:53:09Z" uid="12434" user="nm7s9" changeset="10309485">
    <nd ref="67357765"/>
    <nd ref="67357766"/>
    <nd ref="67357770"/>
    <nd ref="1579294534"/>
    <tag k="highway" v="residential"/>
    <tag k="maxspeed" v="50"/>
    <tag k="maxspeed:source" v="default residential speed limit in Australia"/>
    <tag k="name" v="Moon Place"/>
  </way>
  <way id="9106162" version="8" timestamp="2012-01-15T08:13:40Z" uid="147510" user="woodpeck_fixbot" changeset="10395278">
    <nd ref="67357765"/>
    <nd ref="67357766"/>
    <nd ref="67357770"/>
    <nd ref="1579294534"/>
    <tag k="highway" v="residential"/>
    <tag k="name" v="Moon Place"/>
  </way>
  <way id="9106164" version="4" timestamp="2010-04-22T08:06:30Z" uid="4467" user="Rosscoe" changeset="4493312">
    <nd ref="703590312"/>
    <nd ref="703590313"/>
    <tag k="highway" v="residential"/>
    <tag k="name" v="Travers Street"/>
  </way>
  <way id="9106164" version="5" timestamp="2010-07-07T09:18:09Z" uid="74617" user="JohnSmith" changeset="5156250">
    <nd ref="703590312"/>
    <nd ref="703590313"/>
    <tag k="highway" v="residential"/>
    <tag k="maxspeed" v="50"/>
    <tag k="maxspeed:source" v="default residential speed limit in Australia"/>
    <tag k="name" v="Travers Street"/>
  </way>
  <way id="9106164" version="6" timestamp="2012-01-06T09:28:54Z" uid="12434" user="nm7s9" changeset="10309304">
    <nd ref="1579286527"/>
    <nd ref="703590313"/>
    <tag k="highway" v="residential"/>
    <tag k="maxspeed" v="50"/>
    <tag k="maxspeed:source" v="default residential speed limit in Australia"/>
    <tag k="name" v="Travers Street"/>
  </way>
  <way id="9106164" version="7" timestamp="2012-01-06T09:53:09Z" uid="12434" user="nm7s9" changeset="10309485">
    <nd ref="1579286527"/>
    <nd ref="1579294545"/>
    <tag k="highway" v="residential"/>
    <tag k="maxspeed" v="50"/>
    <tag k="maxspeed:source" v="default residential speed limit in Australia"/>
    <tag k="name" v="Travers Street"/>
  </way>
  <way id="9106164" version="8" timestamp="2012-01-06T10:09:49Z" uid="12434" user="nm7s9" changeset="10309637">
    <nd ref="1579286528"/>
    <nd ref="1579286527"/>
    <nd ref="1579294545"/>
    <tag k="highway" v="residential"/>
    <tag k="maxspeed" v="50"/>
    <tag k="maxspeed:source" v="default residential speed limit in Australia"/>
    <tag k="name" v="Travers Street"/>
  </way>
  <way id="9106164" version="9" timestamp="2012-01-15T08:13:41Z" uid="147510" user="woodpeck_fixbot" changeset="10395278">
    <nd ref="1579286528"/>
    <nd ref="1579286527"/>
    <nd ref="1579294545"/>
    <tag k="highway" v="residential"/>
    <tag k="name" v="Travers Street"/>
  </way>
  <way id="9106684" version="4" timestamp="2008-07-15T01:42:00Z" uid="6975" user="ulfl" changeset="496348">
    <nd ref="65080575"/>
    <nd ref="66549367"/>
    <nd ref="10395858"/>
    <nd ref="10395860"/>
    <nd ref="67731182"/>
    <nd ref="67731167"/>
    <nd ref="67080273"/>
    <nd ref="66549369"/>
    <nd ref="66549373"/>
    <nd ref="67080344"/>
    <nd ref="10395865"/>
    <nd ref="10395866"/>
    <nd ref="10395867"/>
    <nd ref="66549376"/>
    <nd ref="66549709"/>
    <nd ref="10395868"/>
    <nd ref="67797193"/>
    <nd ref="67797090"/>
    <nd ref="67797173"/>
    <nd ref="66549377"/>
    <tag k="highway" v="unclassified"/>
    <tag k="maxspeed" v="48"/>
    <tag k="name" v="High Street"/>
  </way>
  <way id="9106684" version="5" timestamp="2010-02-27T18:16:25Z" uid="91657" user="Pink Duck" changeset="3990785">
    <nd ref="65080575"/>
    <nd ref="66549367"/>
    <nd ref="10395858"/>
    <nd ref="10395860"/>
    <nd ref="67731182"/>
    <nd ref="67731167"/>
    <nd ref="67080273"/>
    <nd ref="66549369"/>
    <nd ref="66549373"/>
    <nd ref="67080344"/>
    <nd ref="10395865"/>
    <nd ref="10395866"/>
    <nd ref="10395867"/>
    <nd ref="66549376"/>
    <nd ref="66549709"/>
    <nd ref="10395868"/>
    <nd ref="67797193"/>
    <nd ref="67797090"/>
    <nd ref="67797173"/>
    <nd ref="66549377"/>
    <tag k="highway" v="unclassified"/>
    <tag k="maxspeed" v="30 mph"/>
    <tag k="name" v="High Street"/>
  </way>
  <way id="9106684" version="6" timestamp="2010-02-27T19:29:47Z" uid="91657" user="Pink Duck" changeset="3990785">
    <nd ref="65080575"/>
    <nd ref="66549367"/>
    <nd ref="10395858"/>
    <nd ref="10395860"/>
    <nd ref="67731182"/>
    <nd ref="67731167"/>
    <nd ref="67080273"/>
    <nd ref="66549369"/>
    <nd ref="66549373"/>
    <nd ref="67080344"/>
    <nd ref="10395865"/>
    <nd ref="10395866"/>
    <nd ref="10395867"/>
    <nd ref="66549376"/>
    <nd ref="66549709"/>
    <nd ref="10395868"/>
    <nd ref="67797193"/>
    <nd ref="67797090"/>
    <nd ref="67797173"/>
    <nd ref="66549377"/>
    <tag k="highway" v="unclassified"/>
    <tag k="maxspeed" v="30 mph"/>
    <tag k="name" v="High Street"/>
  </way>
</osm>
