<?xml version='1.0' encoding='UTF-8'?>
<osm version="0.6" generator="libosmium/2.20.0">
  <way id="9110001" version="3" timestamp="2008-09-16T10:39:53Z" uid="1066" user="pavel" changeset="646258">
    <nd ref="67399650"/>
    <nd ref="67408856"/>
    <nd ref="67408859"/>
    <nd ref="67402869"/>
    <tag k="highway" v="residential"/>
    <tag k="name" v="Brdlíkova"/>
    <tag k="name:source" v="nameit/uir-adr"/>
  </way>
  <way id="9110001" version="4" timestamp="2009-03-14T20:53:47Z" uid="3516" user="BiIbo" changeset="807112">
    <nd ref="67399650"/>
    <nd ref="67408856"/>
    <nd ref="67408859"/>
    <nd ref="67402869"/>
    <tag k="highway" v="residential"/>
    <tag k="name" v="Brdlíkova"/>
    <tag k="source:name" v="nameit/uir-adr"/>
  </way>
  <way id="9110001" version="5" timestamp="2011-04-15T10:17:17Z" uid="17615" user="Petr Dlouhý" changeset="7868264">
    <nd ref="67399650"/>
    <nd ref="1245372341"/>
    <nd ref="67408856"/>
    <nd ref="67408859"/>
    <nd ref="67402869"/>
    <tag k="highway" v="residential"/>
    <tag k="name" v="Brdlíkova"/>
    <tag k="source:name" v="nameit/uir-adr"/>
  </way>
  <way id="9110001" version="6" timestamp="2011-08-15T19:06:47Z" uid="17615" user="Petr Dlouhý" changeset="9030311">
    <nd ref="67399650"/>
    <nd ref="1245372341"/>
    <nd ref="67408856"/>
    <tag k="highway" v="residential"/>
    <tag k="name" v="Brdlíkova"/>
    <tag k="oneway" v="yes"/>
    <tag k="source:name" v="nameit/uir-adr"/>
  </way>
  <way id="9110002" version="3" timestamp="2008-09-16T10:36:54Z" uid="1066" user="pavel" changeset="646258">
    <nd ref="67408856"/>
    <nd ref="67408863"/>
    <nd ref="67402872"/>
    <tag k="highway" v="residential"/>
    <tag k="name" v="Hennerova"/>
    <tag k="name:source" v="nameit/uir-adr"/>
  </way>
  <way id="9110002" version="4" timestamp="2009-03-14T20:53:46Z" uid="3516" user="BiIbo" changeset="807112">
    <nd ref="67408856"/>
    <nd ref="67408863"/>
    <nd ref="67402872"/>
    <tag k="highway" v="residential"/>
    <tag k="name" v="Hennerova"/>
    <tag k="source:name" v="nameit/uir-adr"/>
  </way>
  <way id="9110002" version="5" timestamp="2011-08-15T19:06:48Z" uid="17615" user="Petr Dlouhý" changeset="9030311">
    <nd ref="67408856"/>
    <nd ref="67408863"/>
    <nd ref="67402872"/>
    <tag k="highway" v="residential"/>
    <tag k="name" v="Hennerova"/>
    <tag k="source:name" v="nameit/uir-adr"/>
  </way>
  <way id="9110004" version="3" timestamp="2008-09-16T10:36:08Z" uid="1066" user="pavel" changeset="646258">
    <nd ref="67396592"/>
    <nd ref="67408939"/>
    <nd ref="67399862"/>
    <tag k="highway" v="residential"/>
    <tag k="name" v="Zahradníčkova"/>
    <tag k="name:source" v="nameit/uir-adr"/>
  </way>
  <way id="9110004" version="4" timestamp="2009-03-14T20:53:46Z" uid="3516" user="BiIbo" changeset="807112">
    <nd ref="67396592"/>
    <nd ref="67408939"/>
    <nd ref="67399862"/>
    <tag k="highway" v="residential"/>
    <tag k="name" v="Zahradníčkova"/>
    <tag k="source:name" v="nameit/uir-adr"/>
  </way>
  <way id="9110006" version="4" timestamp="2008-09-16T10:35:59Z" uid="1066" user="pavel" changeset="646258">
    <nd ref="67399862"/>
    <nd ref="67408941"/>
    <nd ref="67408945"/>
    <nd ref="67409033"/>
    <nd ref="67409037"/>
    <nd ref="67409044"/>
    <nd ref="67409129"/>
    <nd ref="67409201"/>
    <nd ref="67409202"/>
    <nd ref="130128492"/>
    <nd ref="130128483"/>
    <nd ref="130128484"/>
    <nd ref="130128485"/>
    <nd ref="130128482"/>
    <tag k="highway" v="residential"/>
    <tag k="name" v="Zahradníčkova"/>
    <tag k="name:source" v="nameit/uir-adr"/>
  </way>
  <way id="9110006" version="5" timestamp="2009-03-09T02:52:07Z" uid="3516" user="BiIbo" changeset="766878">
    <nd ref="67399862"/>
    <nd ref="67408941"/>
    <nd ref="67408945"/>
    <nd ref="67409033"/>
    <nd ref="67409037"/>
    <nd ref="67409044"/>
    <nd ref="67409129"/>
    <nd ref="67409201"/>
    <nd ref="67409202"/>
    <nd ref="130128492"/>
    <nd ref="130128483"/>
    <nd ref="130128484"/>
    <nd ref="130128485"/>
    <nd ref="130128482"/>
    <tag k="highway" v="residential"/>
    <tag k="name" v="Zahradníčkova"/>
    <tag k="source:name" v="nameit/uir-adr"/>
  </way>
  <way id="9110006" version="6" timestamp="2009-04-05T13:11:55Z" uid="17615" user="Petr Dlouhý" changeset="211600">
    <nd ref="67399862"/>
    <nd ref="67408941"/>
    <tag k="highway" v="residential"/>
    <tag k="name" v="Zahradníčkova"/>
    <tag k="source:name" v="nameit/uir-adr"/>
  </way>
</osm>
