<?xml version='1.0' encoding='UTF-8'?>
<osm version="0.6" generator="libosmium/2.20.0">
  <way id="9131041" version="9" timestamp="2010-07-09T02:58:45Z" uid="74617" user="JohnSmith" changeset="5170739">
    <nd ref="67681781"/>
    <nd ref="67694895"/>
    <nd ref="67685758"/>
    <tag k="highway" v="residential"/>
    <tag k="maxspeed" v="50"/>
    <tag k="maxspeed:source" v="default residential speed limit in Australia"/>
    <tag k="name" v="The Ridgeway"/>
    <tag k="source" v="yahoo"/>
    <tag k="source:name" v="survey"/>
  </way>
  <way id="9131041" version="10" timestamp="2012-01-15T08:15:13Z" uid="147510" user="woodpeck_fixbot" changeset="10395278">
    <nd ref="67681781"/>
    <nd ref="67694895"/>
    <nd ref="67685758"/>
    <tag k="highway" v="residential"/>
    <tag k="name" v="The Ridgeway"/>
    <tag k="source" v="yahoo"/>
    <tag k="source:name" v="survey"/>
  </way>
  <way id="9131133" version="6" timestamp="2010-07-09T02:55:43Z" uid="74617" user="JohnSmith" changeset="5170739">
    <nd ref="67680891"/>
    <nd ref="67695526"/>
    <nd ref="67681781"/>
    <nd ref="67695150"/>
    <tag k="highway" v="residential"/>
    <tag k="maxspeed" v="50"/>
    <tag k="maxspeed:source" v="default residential speed limit in Australia"/>
    <tag k="name" v="Cairncross Lane"/>
    <tag k="source" v="Yahoo"/>
    <tag k="source:name" v="photo"/>
  </way>
  <way id="9131133" version="7" timestamp="2012-01-15T08:15:15Z" uid="147510" user="woodpeck_fixbot" changeset="10395278">
    <nd ref="67680891"/>
    <nd ref="67695526"/>
    <nd ref="67681781"/>
    <nd ref="67695150"/>
    <tag k="highway" v="residential"/>
    <tag k="name" v="Cairncross Lane"/>
    <tag k="source" v="Yahoo"/>
    <tag k="source:name" v="photo"/>
  </way>
</osm>
