<?xml version='1.0' encoding='UTF-8'?>
<osm version="0.6" generator="libosmium/2.20.0">
  <way id="9140373" version="3" timestamp="2010-03-14T14:08:07Z" uid="9719" user="dvaey" changeset="4123615">
    <nd ref="67803425"/>
    <nd ref="67803669"/>
    <tag k="highway" v="residential"/>
  </way>
  <way id="9140373" version="4" timestamp="2010-03-14T14:09:50Z" uid="9719" user="dvaey" changeset="4123615">
    <nd ref="67803425"/>
    <nd ref="67803669"/>
    <tag k="highway" v="service"/>
  </way>
  <way id="9140511" version="4" timestamp="2010-07-09T02:59:19Z" uid="74617" user="JohnSmith" changeset="5170739">
    <nd ref="67804615"/>
    <nd ref="67803831"/>
    <nd ref="67804116"/>
    <nd ref="67803833"/>
    <nd ref="67804617"/>
    <nd ref="67804618"/>
    <tag k="highway" v="residential"/>
    <tag k="maxspeed" v="50"/>
    <tag k="maxspeed:source" v="default residential speed limit in Australia"/>
    <tag k="name" v="Gordon Crescent"/>
    <tag k="source" v="Yahoo"/>
    <tag k="source:name" v="photo"/>
  </way>
  <way id="9140511" version="5" timestamp="2012-01-15T08:16:18Z" uid="147510" user="woodpeck_fixbot" changeset="10395278">
    <nd ref="67804615"/>
    <nd ref="67803831"/>
    <nd ref="67804116"/>
    <nd ref="67803833"/>
    <nd ref="67804617"/>
    <nd ref="67804618"/>
    <tag k="highway" v="residential"/>
    <tag k="name" v="Gordon Crescent"/>
    <tag k="source" v="Yahoo"/>
    <tag k="source:name" v="photo"/>
  </way>
  <way id="9140525" version="5" timestamp="2010-10-15T06:06:38Z" uid="4467" user="Rosscoe" changeset="6046373">
    <nd ref="67804691"/>
    <nd ref="949451638"/>
    <nd ref="67804706"/>
    <tag k="highway" v="service"/>
  </way>
  <way id="9140529" version="6" timestamp="2010-07-09T03:01:55Z" uid="74617" user="JohnSmith" changeset="5170739">
    <nd ref="67804706"/>
    <nd ref="67804763"/>
    <tag k="highway" v="residential"/>
    <tag k="maxspeed" v="50"/>
    <tag k="maxspeed:source" v="default residential speed limit in Australia"/>
    <tag k="name" v="Percy Street"/>
  </way>
  <way id="9140529" version="7" timestamp="2012-01-15T08:16:20Z" uid="147510" user="woodpeck_fixbot" changeset="10395278">
    <nd ref="67804706"/>
    <nd ref="67804763"/>
    <tag k="highway" v="residential"/>
    <tag k="name" v="Percy Street"/>
  </way>
  <way id="9140530" version="4" timestamp="2010-07-09T02:53:48Z" uid="74617" user="JohnSmith" changeset="5170739">
    <nd ref="67804754"/>
    <nd ref="67804716"/>
    <nd ref="67804717"/>
    <nd ref="67804719"/>
    <nd ref="67804721"/>
    <tag k="highway" v="residential"/>
    <tag k="maxspeed" v="50"/>
    <tag k="maxspeed:source" v="default residential speed limit in Australia"/>
    <tag k="name" v="Harper Street"/>
    <tag k="source" v="Yahoo"/>
    <tag k="source:name" v="photo"/>
  </way>
  <way id="9140530" version="5" timestamp="2012-01-15T08:16:22Z" uid="147510" user="woodpeck_fixbot" changeset="10395278">
    <nd ref="67804754"/>
    <nd ref="67804716"/>
    <nd ref="67804717"/>
    <nd ref="67804719"/>
    <nd ref="67804721"/>
    <tag k="highway" v="residential"/>
    <tag k="name" v="Harper Street"/>
    <tag k="source" v="Yahoo"/>
    <tag k="source:name" v="photo"/>
  </way>
  <way id="9140531" version="5" timestamp="2010-07-09T02:56:07Z" uid="74617" user="JohnSmith" changeset="5170739">
    <nd ref="67804723"/>
    <nd ref="67804724"/>
    <nd ref="67804725"/>
    <nd ref="67804726"/>
    <nd ref="67804727"/>
    <nd ref="67804728"/>
    <nd ref="67804730"/>
    <nd ref="67804721"/>
    <nd ref="67804779"/>
    <tag k="highway" v="residential"/>
    <tag k="maxspeed" v="50"/>
    <tag k="maxspeed:source" v="default residential speed limit in Australia"/>
    <tag k="name" v="Hopetoun Street"/>
    <tag k="source" v="yahoo"/>
    <tag k="source:name" v="survey"/>
  </way>
  <way id="9140531" version="6" timestamp="2012-01-15T08:16:23Z" uid="147510" user="woodpeck_fixbot" changeset="10395278">
    <nd ref="67804723"/>
    <nd ref="67804724"/>
    <nd ref="67804725"/>
    <nd ref="67804726"/>
    <nd ref="67804727"/>
    <nd ref="67804728"/>
    <nd ref="67804730"/>
    <nd ref="67804721"/>
    <nd ref="67804779"/>
    <tag k="highway" v="residential"/>
    <tag k="name" v="Hopetoun Street"/>
    <tag k="source" v="yahoo"/>
    <tag k="source:name" v="survey"/>
  </way>
  <way id="9140588" version="2" timestamp="2010-03-27T12:59:05Z" uid="20587" user="balrog-kun" changeset="4245390">
    <nd ref="67805498"/>
    <nd ref="67805032"/>
    <tag k="bridge" v="yes"/>
    <tag k="created_by" v="JOSM"/>
    <tag k="highway" v="primary"/>
    <tag k="layer" v="1"/>
    <tag k="name" v="Avalon Boulevard"/>
  </way>
  <way id="9140591" version="4" timestamp="2010-03-27T12:59:06Z" uid="20587" user="balrog-kun" changeset="4245390">
    <nd ref="67805032"/>
    <nd ref="67805021"/>
    <nd ref="67805014"/>
    <nd ref="67805008"/>
    <nd ref="67805001"/>
    <nd ref="67804997"/>
    <nd ref="67804982"/>
    <nd ref="67804975"/>
    <nd ref="67804962"/>
    <tag k="created_by" v="Potlatch 0.10f"/>
    <tag k="highway" v="primary"/>
    <tag k="name" v="Avalon Boulevard"/>
  </way>
  <way id="9140591" version="5" timestamp="2010-08-28T01:24:02Z" uid="194231" user="Chris Bell in California" changeset="5612610">
    <nd ref="67805032"/>
    <nd ref="67805021"/>
    <nd ref="67805014"/>
    <nd ref="67805008"/>
    <nd ref="67805001"/>
    <nd ref="67804997"/>
    <nd ref="67804982"/>
    <nd ref="883671834"/>
    <nd ref="67804975"/>
    <nd ref="67804962"/>
    <tag k="highway" v="primary"/>
    <tag k="name" v="Avalon Boulevard"/>
  </way>
  <way id="9140655" version="9" timestamp="2010-07-09T02:56:29Z" uid="74617" user="JohnSmith" changeset="5170739">
    <nd ref="67755820"/>
    <nd ref="67808593"/>
    <nd ref="67808121"/>
    <nd ref="67809158"/>
    <tag k="highway" v="residential"/>
    <tag k="maxspeed" v="50"/>
    <tag k="maxspeed:source" v="default residential speed limit in Australia"/>
    <tag k="name" v="Deveney Street"/>
  </way>
  <way id="9140655" version="10" timestamp="2010-10-14T07:41:22Z" uid="4467" user="Rosscoe" changeset="6037516">
    <nd ref="67755820"/>
    <nd ref="947948629"/>
    <nd ref="67808593"/>
    <nd ref="67808121"/>
    <nd ref="67809158"/>
    <tag k="highway" v="residential"/>
    <tag k="maxspeed" v="50"/>
    <tag k="maxspeed:source" v="default residential speed limit in Australia"/>
    <tag k="name" v="Deveney Street"/>
  </way>
  <way id="9140655" version="11" timestamp="2010-10-15T06:06:31Z" uid="4467" user="Rosscoe" changeset="6046373">
    <nd ref="67755820"/>
    <nd ref="947948629"/>
    <nd ref="949451553"/>
    <nd ref="67808593"/>
    <nd ref="67808121"/>
    <nd ref="949451583"/>
    <nd ref="67809158"/>
    <tag k="highway" v="residential"/>
    <tag k="maxspeed" v="50"/>
    <tag k="maxspeed:source" v="default residential speed limit in Australia"/>
    <tag k="name" v="Deveney Street"/>
  </way>
  <way id="9140655" version="12" timestamp="2010-10-26T01:56:53Z" uid="4467" user="Rosscoe" changeset="6178718">
    <nd ref="67755820"/>
    <nd ref="947948629"/>
    <nd ref="949451553"/>
    <nd ref="67808593"/>
    <nd ref="67808121"/>
    <nd ref="949451583"/>
    <nd ref="67809158"/>
    <tag k="highway" v="residential"/>
    <tag k="maxspeed" v="50"/>
    <tag k="name" v="Deveney Street"/>
    <tag k="source:maxspeed" v="default residential speed limit in Australia"/>
  </way>
  <way id="9140655" version="13" timestamp="2010-12-30T09:37:59Z" uid="371324" user="Rudi Heitbaum" changeset="6806974">
    <nd ref="67755820"/>
    <nd ref="947948629"/>
    <nd ref="1072501059"/>
    <nd ref="949451553"/>
    <nd ref="67808593"/>
    <nd ref="67808121"/>
    <nd ref="949451583"/>
    <nd ref="67809158"/>
    <tag k="highway" v="residential"/>
    <tag k="maxspeed" v="50"/>
    <tag k="name" v="Deveney Street"/>
    <tag k="source:maxspeed" v="default residential speed limit in Australia"/>
  </way>
  <way id="9140655" version="14" timestamp="2012-01-15T08:16:25Z" uid="147510" user="woodpeck_fixbot" changeset="10395278">
    <nd ref="67755820"/>
    <nd ref="947948629"/>
    <nd ref="1072501059"/>
    <nd ref="949451553"/>
    <nd ref="67808593"/>
    <nd ref="67808121"/>
    <nd ref="949451583"/>
    <nd ref="67809158"/>
    <tag k="highway" v="residential"/>
    <tag k="name" v="Deveney Street"/>
    <tag k="source:maxspeed" v="default residential speed limit in Australia"/>
  </way>
  <way id="9140799" version="4" timestamp="2008-09-30T21:04:11Z" uid="1066" user="pavel" changeset="721761">
    <nd ref="67804157"/>
    <nd ref="67804162"/>
    <nd ref="67804165"/>
    <nd ref="67804232"/>
    <nd ref="279018035"/>
    <nd ref="279018037"/>
    <nd ref="279018038"/>
    <nd ref="279018039"/>
    <tag k="created_by" v="Potlatch 0.9c"/>
    <tag k="highway" v="residential"/>
    <tag k="name" v="Türkova"/>
    <tag k="name:source" v="nameit/uir-adr"/>
  </way>
  <way id="9140799" version="5" timestamp="2008-10-06T20:30:44Z" uid="10345" user="Mormegil" changeset="105641">
    <nd ref="67804157"/>
    <nd ref="67804162"/>
    <nd ref="67804165"/>
    <tag k="created_by" v="Potlatch 0.10d"/>
    <tag k="highway" v="residential"/>
    <tag k="name" v="Türkova"/>
    <tag k="name:source" v="nameit/uir-adr"/>
  </way>
  <way id="9140799" version="6" timestamp="2008-10-06T20:38:49Z" uid="10345" user="Mormegil" changeset="105641">
    <nd ref="67804157"/>
    <nd ref="67804162"/>
    <nd ref="67804165"/>
    <tag k="created_by" v="Potlatch 0.10d"/>
    <tag k="highway" v="residential"/>
    <tag k="name" v="Türkova"/>
    <tag k="name:source" v="nameit/uir-adr"/>
  </way>
  <way id="9140799" version="7" timestamp="2009-03-14T12:04:29Z" uid="3516" user="BiIbo" changeset="804731">
    <nd ref="67804157"/>
    <nd ref="67804162"/>
    <nd ref="67804165"/>
    <tag k="highway" v="residential"/>
    <tag k="name" v="Türkova"/>
    <tag k="source:name" v="nameit/uir-adr"/>
  </way>
  <way id="9140799" version="8" timestamp="2011-02-07T15:24:40Z" uid="3516" user="BiIbo" changeset="7215631">
    <nd ref="67804157"/>
    <nd ref="1140896958"/>
    <nd ref="67804162"/>
    <nd ref="67804165"/>
    <tag k="highway" v="residential"/>
    <tag k="name" v="Türkova"/>
    <tag k="source:name" v="nameit/uir-adr"/>
  </way>
  <way id="9140799" version="9" timestamp="2011-10-15T13:47:04Z" uid="527259" user="Vratislav Filler" changeset="9563635">
    <nd ref="67804157"/>
    <nd ref="1140896958"/>
    <tag k="highway" v="residential"/>
    <tag k="name" v="Türkova"/>
    <tag k="source:name" v="nameit/uir-adr"/>
  </way>
  <way id="9140800" version="3" timestamp="2008-09-30T21:06:05Z" uid="1066" user="pavel" changeset="721761">
    <nd ref="67794874"/>
    <nd ref="67809374"/>
    <nd ref="67809377"/>
    <tag k="highway" v="residential"/>
    <tag k="name" v="Blažimská"/>
    <tag k="name:source" v="nameit/uir-adr"/>
  </way>
  <way id="9140800" version="4" timestamp="2009-03-14T12:04:26Z" uid="3516" user="BiIbo" changeset="804731">
    <nd ref="67794874"/>
    <nd ref="67809374"/>
    <nd ref="67809377"/>
    <tag k="highway" v="residential"/>
    <tag k="name" v="Blažimská"/>
    <tag k="source:name" v="nameit/uir-adr"/>
  </way>
  <way id="9140800" version="5" timestamp="2010-09-23T19:57:40Z" uid="348021" user="Tom9k" changeset="5857356">
    <nd ref="67794874"/>
    <nd ref="67809374"/>
    <tag k="highway" v="residential"/>
    <tag k="name" v="Blažimská"/>
    <tag k="source:name" v="nameit/uir-adr"/>
  </way>
  <way id="9140800" version="6" timestamp="2010-09-25T23:24:10Z" uid="348021" user="Tom9k" changeset="5875293">
    <nd ref="67794874"/>
    <nd ref="67809374"/>
    <tag k="highway" v="residential"/>
    <tag k="name" v="Blažimská"/>
  </way>
  <way id="9140800" version="7" timestamp="2011-04-10T18:06:09Z" uid="17615" user="Petr Dlouhý" changeset="7825716">
    <nd ref="67794874"/>
    <nd ref="1240164033"/>
    <nd ref="67809374"/>
    <tag k="highway" v="residential"/>
    <tag k="name" v="Blažimská"/>
  </way>
  <way id="9140373" version="5" timestamp="2012-07-19T11:49:48Z" uid="722137" user="OSMF Redaction Account" changeset="12322854">
    <nd ref="67803425"/>
    <nd ref="67803669"/>
    <tag k="highway" v="residential"/>
  </way>
  <way id="9140525" version="6" timestamp="2012-07-19T12:46:49Z" uid="722137" user="OSMF Redaction Account" changeset="12326399">
    <nd ref="67804691"/>
    <nd ref="67804706"/>
    <tag k="highway" v="service"/>
  </way>
  <way id="9140588" version="3" timestamp="2012-07-18T18:21:56Z" uid="722137" user="OSMF Redaction Account" changeset="12292154"/>
  <way id="9140591" version="6" timestamp="2012-04-19T18:34:57Z" uid="28775" user="StellanL" changeset="11356822"/>
  <way id="9140655" version="15" timestamp="2012-07-19T12:46:38Z" uid="722137" user="OSMF Redaction Account" changeset="12326399">
    <nd ref="67755820"/>
    <nd ref="1072501059"/>
    <nd ref="67808593"/>
    <nd ref="67808121"/>
    <nd ref="67809158"/>
    <tag k="highway" v="residential"/>
    <tag k="name" v="Deveney Street"/>
  </way>
  <way id="9140800" version="8" timestamp="2012-04-23T17:30:18Z" uid="488732" user="montardo" changeset="11397611">
    <nd ref="67794874"/>
    <nd ref="1240164033"/>
    <nd ref="1728192443"/>
    <nd ref="67809374"/>
    <tag k="highway" v="residential"/>
    <tag k="name" v="Blažimská"/>
  </way>
</osm>
