<?xml version='1.0' encoding='UTF-8'?>
<osm version="0.6" generator="libosmium/2.20.0">
  <way id="9142378" version="5" timestamp="2010-07-07T11:30:42Z" uid="23543" user="jkjk" changeset="5157803">
    <nd ref="67825677"/>
    <nd ref="67836597"/>
    <nd ref="67836820"/>
    <nd ref="67836824"/>
    <nd ref="67836594"/>
    <nd ref="67836589"/>
    <nd ref="804970193"/>
    <tag k="highway" v="residential"/>
    <tag k="name" v="Zimákova"/>
  </way>
  <way id="9142378" version="6" timestamp="2011-02-07T14:57:17Z" uid="3516" user="BiIbo" changeset="7215631">
    <nd ref="67825677"/>
    <nd ref="67836597"/>
    <nd ref="67836820"/>
    <nd ref="67836824"/>
    <nd ref="1140877098"/>
    <nd ref="67836594"/>
    <nd ref="67836589"/>
    <nd ref="804970193"/>
    <tag k="highway" v="residential"/>
    <tag k="name" v="Zimákova"/>
  </way>
  <way id="9142380" version="5" timestamp="2010-07-07T11:30:40Z" uid="23543" user="jkjk" changeset="5157803">
    <nd ref="67829214"/>
    <nd ref="67836581"/>
    <nd ref="804970133"/>
    <nd ref="67836594"/>
    <tag k="highway" v="residential"/>
    <tag k="name" v="Vápeníkova"/>
  </way>
  <way id="9142466" version="9" timestamp="2010-07-09T02:56:43Z" uid="74617" user="JohnSmith" changeset="5170739">
    <nd ref="67841435"/>
    <nd ref="282635599"/>
    <nd ref="67841071"/>
    <tag k="highway" v="residential"/>
    <tag k="maxspeed" v="50"/>
    <tag k="maxspeed:source" v="default residential speed limit in Australia"/>
    <tag k="name" v="Unley Grove"/>
    <tag k="source" v="yahoo"/>
    <tag k="source:name" v="survey"/>
  </way>
  <way id="9142466" version="10" timestamp="2012-01-15T08:16:40Z" uid="147510" user="woodpeck_fixbot" changeset="10395278">
    <nd ref="67841435"/>
    <nd ref="282635599"/>
    <nd ref="67841071"/>
    <tag k="highway" v="residential"/>
    <tag k="name" v="Unley Grove"/>
    <tag k="source" v="yahoo"/>
    <tag k="source:name" v="survey"/>
  </way>
  <way id="9142808" version="3" timestamp="2008-09-30T21:06:13Z" uid="1066" user="pavel" changeset="721761">
    <nd ref="67843467"/>
    <nd ref="67836977"/>
    <tag k="highway" v="residential"/>
    <tag k="name" v="Volkovova"/>
    <tag k="name:source" v="nameit/uir-adr"/>
  </way>
  <way id="9142808" version="4" timestamp="2009-03-14T12:03:33Z" uid="3516" user="BiIbo" changeset="804731">
    <nd ref="67843467"/>
    <nd ref="67836977"/>
    <tag k="highway" v="residential"/>
    <tag k="name" v="Volkovova"/>
    <tag k="source:name" v="nameit/uir-adr"/>
  </way>
  <way id="9142832" version="7" timestamp="2009-12-30T12:57:37Z" uid="23543" user="jkjk" changeset="3489601">
    <nd ref="67843510"/>
    <nd ref="601446689"/>
    <tag k="highway" v="residential"/>
    <tag k="name" v="Švecova"/>
  </way>
  <way id="9142919" version="4" timestamp="2010-01-29T20:20:15Z" uid="99207" user="Lar Kiesel" changeset="3746117">
    <nd ref="87522856"/>
    <nd ref="87522857"/>
    <nd ref="67844752"/>
    <nd ref="67844754"/>
    <nd ref="67844756"/>
    <nd ref="67844758"/>
    <nd ref="67843391"/>
    <tag k="highway" v="residential"/>
    <tag k="name" v="Glenn Falls"/>
    <tag k="tiger:cfcc" v="A41"/>
    <tag k="tiger:county" v="Columbia, GA"/>
    <tag k="tiger:name_base" v="Glenn Falls"/>
    <tag k="tiger:reviewed" v="no"/>
    <tag k="tiger:separated" v="no"/>
    <tag k="tiger:source" v="tiger_import_dch_v0.6_20070809"/>
    <tag k="tiger:tlid" v="55386336"/>
    <tag k="tiger:upload_uuid" v="bulk_upload.pl-30f349d6-b8fd-4e4c-8320-747040d6ff0e"/>
    <tag k="tiger:zip_left" v="30813"/>
    <tag k="tiger:zip_right" v="30813"/>
  </way>
  <way id="9142378" version="7" timestamp="2012-07-24T11:26:00Z" uid="722137" user="OSMF Redaction Account" changeset="12464256">
    <nd ref="67825677"/>
    <nd ref="67836597"/>
    <nd ref="67836820"/>
    <nd ref="67836824"/>
    <nd ref="1140877098"/>
    <nd ref="67836594"/>
    <nd ref="67836589"/>
    <tag k="highway" v="residential"/>
    <tag k="name" v="Zimákova"/>
  </way>
  <way id="9142378" version="8" timestamp="2012-09-04T15:56:25Z" uid="488732" user="montardo" changeset="12983655">
    <nd ref="67825677"/>
    <nd ref="67836597"/>
    <nd ref="67836820"/>
    <nd ref="67836824"/>
    <nd ref="67836594"/>
    <nd ref="67836589"/>
    <nd ref="1898529267"/>
    <tag k="highway" v="residential"/>
    <tag k="name" v="Zimákova"/>
  </way>
  <way id="9142380" version="6" timestamp="2012-07-24T11:26:00Z" uid="722137" user="OSMF Redaction Account" changeset="12464256">
    <nd ref="67829214"/>
    <nd ref="67836581"/>
    <nd ref="67836594"/>
    <tag k="highway" v="residential"/>
    <tag k="name" v="Vápeníkova"/>
  </way>
  <way id="9142380" version="7" timestamp="2012-08-31T14:25:50Z" uid="190711" user="Zulu" changeset="12931678">
    <nd ref="67829214"/>
    <nd ref="67836581"/>
    <nd ref="1891614854"/>
    <nd ref="67836594"/>
    <tag k="highway" v="residential"/>
    <tag k="name" v="Vápeníkova"/>
  </way>
  <way id="9142808" version="5" timestamp="2012-07-24T22:21:19Z" uid="527259" user="Vratislav Filler" changeset="12477759">
    <nd ref="67848251"/>
    <nd ref="601446800"/>
    <nd ref="1140877150"/>
    <nd ref="67843467"/>
    <tag k="highway" v="residential"/>
    <tag k="name" v="Matúškova"/>
    <tag k="source:name" v="nameit/uir-adr"/>
  </way>
  <way id="9142832" version="8" timestamp="2012-07-24T11:28:27Z" uid="722137" user="OSMF Redaction Account" changeset="12464321"/>
</osm>
