<?xml version='1.0' encoding='UTF-8'?>
<osm version="0.6" generator="libosmium/2.20.0">
  <way id="91505964" version="1" timestamp="2010-12-24T22:10:50Z" uid="151899" user="Bikeman2000" changeset="6757635">
    <nd ref="1062794717"/>
    <nd ref="1062794749"/>
    <nd ref="1062794745"/>
    <nd ref="1062794756"/>
    <nd ref="1062794712"/>
    <nd ref="1062794734"/>
    <nd ref="1062794717"/>
    <tag k="building" v="yes"/>
  </way>
  <way id="91505964" version="2" timestamp="2011-12-05T22:06:50Z" uid="173844" user="Antikalk" changeset="10046054">
    <nd ref="1062794717"/>
    <nd ref="1062794749"/>
    <nd ref="1062794745"/>
    <nd ref="1062794756"/>
    <nd ref="1062794712"/>
    <nd ref="1062794734"/>
    <nd ref="1062794717"/>
    <tag k="building" v="yes"/>
    <tag k="source" v="Bing Sat"/>
  </way>
  <way id="91505964" version="3" timestamp="2011-12-10T19:40:00Z" uid="173844" user="Antikalk" changeset="10084222">
    <nd ref="1062794717"/>
    <nd ref="1062794749"/>
    <nd ref="1062794745"/>
    <nd ref="1062794756"/>
    <nd ref="1062794712"/>
    <nd ref="1539937055"/>
    <nd ref="1062794734"/>
    <nd ref="1062794717"/>
    <tag k="addr:city" v="Düsseldorf"/>
    <tag k="addr:country" v="DE"/>
    <tag k="addr:housenumber" v="1"/>
    <tag k="addr:postcode" v="40547"/>
    <tag k="addr:street" v="Schwalmstraße"/>
    <tag k="building" v="yes"/>
    <tag k="source" v="Bing Sat"/>
  </way>
  <way id="91505964" version="4" timestamp="2011-12-24T00:26:30Z" uid="173844" user="Antikalk" changeset="10191206"/>
  <way id="91505967" version="1" timestamp="2010-12-24T22:10:50Z" uid="151899" user="Bikeman2000" changeset="6757635">
    <nd ref="1062794769"/>
    <nd ref="1062794728"/>
    <tag k="access" v="private"/>
    <tag k="highway" v="service"/>
  </way>
  <way id="91505967" version="2" timestamp="2011-12-24T00:26:38Z" uid="173844" user="Antikalk" changeset="10191206"/>
  <way id="91505968" version="1" timestamp="2010-12-24T22:10:50Z" uid="151899" user="Bikeman2000" changeset="6757635">
    <nd ref="1062794693"/>
    <nd ref="1062794774"/>
    <nd ref="1062794707"/>
    <nd ref="1062794726"/>
    <nd ref="1062794715"/>
    <nd ref="1062794693"/>
    <tag k="building" v="yes"/>
  </way>
  <way id="91505968" version="2" timestamp="2011-01-04T23:21:10Z" uid="151899" user="Bikeman2000" changeset="6867216">
    <nd ref="1062794693"/>
    <nd ref="1062794774"/>
    <nd ref="1062794707"/>
    <nd ref="1062794726"/>
    <nd ref="1062794715"/>
    <nd ref="1082944721"/>
    <nd ref="1062794693"/>
    <tag k="building" v="yes"/>
  </way>
  <way id="91505968" version="3" timestamp="2011-12-07T20:28:23Z" uid="173844" user="Antikalk" changeset="10060777">
    <nd ref="1062794693"/>
    <nd ref="1535747940"/>
    <nd ref="1062794774"/>
    <nd ref="1062794707"/>
    <nd ref="1062794726"/>
    <nd ref="1062794715"/>
    <nd ref="1082944721"/>
    <nd ref="1062794693"/>
    <tag k="addr:city" v="Duesseldorf"/>
    <tag k="addr:country" v="DE"/>
    <tag k="addr:housenumber" v="8"/>
    <tag k="addr:postcode" v="40547"/>
    <tag k="addr:street" v="Niederkasseler Kirchweg"/>
    <tag k="building" v="yes"/>
    <tag k="source" v="Bing Sat"/>
  </way>
  <way id="91505968" version="4" timestamp="2011-12-10T19:40:23Z" uid="173844" user="Antikalk" changeset="10084222">
    <nd ref="1062794693"/>
    <nd ref="1535747940"/>
    <nd ref="1062794774"/>
    <nd ref="1062794707"/>
    <nd ref="1062794726"/>
    <nd ref="1062794715"/>
    <nd ref="1082944721"/>
    <nd ref="1062794693"/>
    <tag k="addr:city" v="Düsseldorf"/>
    <tag k="addr:country" v="DE"/>
    <tag k="addr:housenumber" v="8"/>
    <tag k="addr:postcode" v="40547"/>
    <tag k="addr:street" v="Niederkasseler Kirchweg"/>
    <tag k="building" v="yes"/>
    <tag k="source" v="Bing Sat"/>
  </way>
  <way id="91505968" version="5" timestamp="2011-12-24T00:26:37Z" uid="173844" user="Antikalk" changeset="10191206"/>
  <way id="91505969" version="1" timestamp="2010-12-24T22:10:50Z" uid="151899" user="Bikeman2000" changeset="6757635">
    <nd ref="1062794730"/>
    <nd ref="1062794717"/>
    <nd ref="1062794734"/>
    <nd ref="1062794751"/>
    <nd ref="1062794730"/>
    <tag k="building" v="yes"/>
  </way>
  <way id="91505969" version="2" timestamp="2011-12-05T22:06:51Z" uid="173844" user="Antikalk" changeset="10046054">
    <nd ref="1062794730"/>
    <nd ref="1062794717"/>
    <nd ref="1062794734"/>
    <nd ref="1062794751"/>
    <nd ref="1062794730"/>
    <tag k="building" v="yes"/>
    <tag k="source" v="Bing Sat"/>
  </way>
  <way id="91505969" version="3" timestamp="2011-12-10T19:40:17Z" uid="173844" user="Antikalk" changeset="10084222">
    <nd ref="1062794730"/>
    <nd ref="1062794717"/>
    <nd ref="1062794734"/>
    <nd ref="1539937060"/>
    <nd ref="1062794751"/>
    <nd ref="1062794730"/>
    <tag k="addr:city" v="Düsseldorf"/>
    <tag k="addr:country" v="DE"/>
    <tag k="addr:housenumber" v="3"/>
    <tag k="addr:postcode" v="40547"/>
    <tag k="addr:street" v="Schwalmstraße"/>
    <tag k="building" v="yes"/>
    <tag k="source" v="Bing Sat"/>
  </way>
  <way id="91505969" version="4" timestamp="2011-12-24T00:26:35Z" uid="173844" user="Antikalk" changeset="10191206"/>
  <way id="91505972" version="1" timestamp="2010-12-24T22:10:51Z" uid="151899" user="Bikeman2000" changeset="6757635">
    <nd ref="1062794690"/>
    <nd ref="1062794767"/>
    <nd ref="1062794688"/>
    <nd ref="1062794724"/>
    <nd ref="1062794758"/>
    <nd ref="1062794711"/>
    <nd ref="1062794700"/>
    <nd ref="1062794695"/>
    <nd ref="1062794771"/>
    <nd ref="1062794690"/>
    <tag k="building" v="yes"/>
  </way>
  <way id="91505972" version="2" timestamp="2011-12-05T22:06:52Z" uid="173844" user="Antikalk" changeset="10046054">
    <nd ref="1062794690"/>
    <nd ref="1062794767"/>
    <nd ref="1062794688"/>
    <nd ref="1062794724"/>
    <nd ref="1062794758"/>
    <nd ref="1062794711"/>
    <nd ref="1062794700"/>
    <nd ref="1062794695"/>
    <nd ref="1062794771"/>
    <nd ref="1062794690"/>
    <tag k="building" v="yes"/>
    <tag k="source" v="Bing Sat"/>
  </way>
  <way id="91505972" version="3" timestamp="2011-12-07T20:28:21Z" uid="173844" user="Antikalk" changeset="10060777">
    <nd ref="1062794690"/>
    <nd ref="1062794767"/>
    <nd ref="1062794688"/>
    <nd ref="1535747934"/>
    <nd ref="1062794724"/>
    <nd ref="1062794758"/>
    <nd ref="1062794711"/>
    <nd ref="1062794700"/>
    <nd ref="1062794695"/>
    <nd ref="1062794771"/>
    <nd ref="1062794690"/>
    <tag k="addr:city" v="Duesseldorf"/>
    <tag k="addr:country" v="DE"/>
    <tag k="addr:housenumber" v="4"/>
    <tag k="addr:postcode" v="40547"/>
    <tag k="addr:street" v="Niederkasseler Kirchweg"/>
    <tag k="building" v="yes"/>
    <tag k="source" v="Bing Sat"/>
  </way>
  <way id="91505972" version="4" timestamp="2011-12-10T19:40:18Z" uid="173844" user="Antikalk" changeset="10084222">
    <nd ref="1062794690"/>
    <nd ref="1062794767"/>
    <nd ref="1062794688"/>
    <nd ref="1535747934"/>
    <nd ref="1062794724"/>
    <nd ref="1062794758"/>
    <nd ref="1062794711"/>
    <nd ref="1062794700"/>
    <nd ref="1062794695"/>
    <nd ref="1062794771"/>
    <nd ref="1062794690"/>
    <tag k="addr:city" v="Düsseldorf"/>
    <tag k="addr:country" v="DE"/>
    <tag k="addr:housenumber" v="4"/>
    <tag k="addr:postcode" v="40547"/>
    <tag k="addr:street" v="Niederkasseler Kirchweg"/>
    <tag k="building" v="yes"/>
    <tag k="source" v="Bing Sat"/>
  </way>
  <way id="91505972" version="5" timestamp="2011-12-24T00:26:35Z" uid="173844" user="Antikalk" changeset="10191206"/>
  <way id="91505973" version="1" timestamp="2010-12-24T22:10:51Z" uid="151899" user="Bikeman2000" changeset="6757635">
    <nd ref="1062794774"/>
    <nd ref="1062794724"/>
    <nd ref="1062794758"/>
    <nd ref="1062794707"/>
    <nd ref="1062794774"/>
    <tag k="building" v="yes"/>
  </way>
  <way id="91505973" version="2" timestamp="2011-12-05T22:06:52Z" uid="173844" user="Antikalk" changeset="10046054">
    <nd ref="1062794774"/>
    <nd ref="1062794724"/>
    <nd ref="1062794758"/>
    <nd ref="1062794707"/>
    <nd ref="1062794774"/>
    <tag k="building" v="yes"/>
    <tag k="source" v="Bing Sat"/>
  </way>
  <way id="91505973" version="3" timestamp="2011-12-07T20:28:22Z" uid="173844" user="Antikalk" changeset="10060777">
    <nd ref="1062794774"/>
    <nd ref="1535747937"/>
    <nd ref="1062794724"/>
    <nd ref="1062794758"/>
    <nd ref="1062794707"/>
    <nd ref="1062794774"/>
    <tag k="addr:city" v="Duesseldorf"/>
    <tag k="addr:country" v="DE"/>
    <tag k="addr:housenumber" v="6"/>
    <tag k="addr:postcode" v="40547"/>
    <tag k="addr:street" v="Niederkasseler Kirchweg"/>
    <tag k="building" v="yes"/>
    <tag k="source" v="Bing Sat"/>
  </way>
  <way id="91505973" version="4" timestamp="2011-12-10T19:40:20Z" uid="173844" user="Antikalk" changeset="10084222">
    <nd ref="1062794774"/>
    <nd ref="1535747937"/>
    <nd ref="1062794724"/>
    <nd ref="1062794758"/>
    <nd ref="1062794707"/>
    <nd ref="1062794774"/>
    <tag k="addr:city" v="Düsseldorf"/>
    <tag k="addr:country" v="DE"/>
    <tag k="addr:housenumber" v="6"/>
    <tag k="addr:postcode" v="40547"/>
    <tag k="addr:street" v="Niederkasseler Kirchweg"/>
    <tag k="building" v="yes"/>
    <tag k="source" v="Bing Sat"/>
  </way>
  <way id="91505973" version="5" timestamp="2011-12-24T00:26:36Z" uid="173844" user="Antikalk" changeset="10191206"/>
  <way id="91505974" version="1" timestamp="2010-12-24T22:10:51Z" uid="151899" user="Bikeman2000" changeset="6757635">
    <nd ref="1062794756"/>
    <nd ref="1062794712"/>
    <nd ref="1062794704"/>
    <nd ref="1062794697"/>
    <nd ref="1062794688"/>
    <nd ref="1062794767"/>
    <nd ref="1062794754"/>
    <nd ref="1062794747"/>
    <nd ref="1062794742"/>
    <nd ref="1062794736"/>
    <nd ref="1062794756"/>
    <tag k="building" v="yes"/>
  </way>
  <way id="91505974" version="2" timestamp="2011-12-05T22:06:52Z" uid="173844" user="Antikalk" changeset="10046054">
    <nd ref="1062794756"/>
    <nd ref="1062794712"/>
    <nd ref="1062794704"/>
    <nd ref="1062794697"/>
    <nd ref="1062794688"/>
    <nd ref="1062794767"/>
    <nd ref="1062794754"/>
    <nd ref="1062794747"/>
    <nd ref="1062794742"/>
    <nd ref="1062794736"/>
    <nd ref="1062794756"/>
    <tag k="building" v="yes"/>
    <tag k="source" v="Bing Sat"/>
  </way>
  <way id="91505974" version="3" timestamp="2011-12-07T20:28:18Z" uid="173844" user="Antikalk" changeset="10060777">
    <nd ref="1062794756"/>
    <nd ref="1062794712"/>
    <nd ref="1062794704"/>
    <nd ref="1062794697"/>
    <nd ref="1535747931"/>
    <nd ref="1062794688"/>
    <nd ref="1062794767"/>
    <nd ref="1062794754"/>
    <nd ref="1062794747"/>
    <nd ref="1062794742"/>
    <nd ref="1062794736"/>
    <nd ref="1062794756"/>
    <tag k="addr:city" v="Duesseldorf"/>
    <tag k="addr:country" v="DE"/>
    <tag k="addr:housenumber" v="2"/>
    <tag k="addr:postcode" v="40547"/>
    <tag k="addr:street" v="Niederkasseler Kirchweg"/>
    <tag k="building" v="yes"/>
    <tag k="source" v="Bing Sat"/>
  </way>
  <way id="91505974" version="4" timestamp="2011-12-10T19:40:12Z" uid="173844" user="Antikalk" changeset="10084222">
    <nd ref="1062794756"/>
    <nd ref="1062794712"/>
    <nd ref="1062794704"/>
    <nd ref="1062794697"/>
    <nd ref="1535747931"/>
    <nd ref="1062794688"/>
    <nd ref="1062794767"/>
    <nd ref="1062794754"/>
    <nd ref="1062794747"/>
    <nd ref="1062794742"/>
    <nd ref="1062794736"/>
    <nd ref="1062794756"/>
    <tag k="addr:city" v="Düsseldorf"/>
    <tag k="addr:country" v="DE"/>
    <tag k="addr:housenumber" v="2"/>
    <tag k="addr:postcode" v="40547"/>
    <tag k="addr:street" v="Niederkasseler Kirchweg"/>
    <tag k="building" v="yes"/>
    <tag k="source" v="Bing Sat"/>
  </way>
  <way id="91505974" version="5" timestamp="2011-12-24T00:26:33Z" uid="173844" user="Antikalk" changeset="10191206"/>
  <way id="91505978" version="1" timestamp="2010-12-24T22:10:51Z" uid="151899" user="Bikeman2000" changeset="6757635">
    <nd ref="1062794738"/>
    <nd ref="1062794732"/>
    <nd ref="1062794719"/>
    <nd ref="1062794709"/>
    <nd ref="1062794738"/>
    <tag k="building" v="yes"/>
  </way>
  <way id="91505978" version="2" timestamp="2011-12-05T22:06:53Z" uid="173844" user="Antikalk" changeset="10046054">
    <nd ref="1062794738"/>
    <nd ref="1062794732"/>
    <nd ref="1062794719"/>
    <nd ref="1062794709"/>
    <nd ref="1062794738"/>
    <tag k="building" v="yes"/>
    <tag k="source" v="Bing Sat"/>
  </way>
  <way id="91505978" version="3" timestamp="2011-12-24T00:26:39Z" uid="173844" user="Antikalk" changeset="10191206"/>
</osm>
