<?xml version='1.0' encoding='UTF-8'?>
<osm version="0.6" generator="libosmium/2.20.0">
  <way id="91891233" version="5" timestamp="2011-06-01T15:18:11Z" uid="33382" user="de_muur" changeset="8311163">
    <nd ref="1067773071"/>
    <nd ref="1192287080"/>
    <nd ref="1192287168"/>
    <nd ref="1192286935"/>
    <nd ref="1192286957"/>
    <nd ref="1192287150"/>
    <nd ref="1067773060"/>
    <nd ref="1192286940"/>
    <nd ref="1192287163"/>
    <nd ref="1192287097"/>
    <nd ref="1192287141"/>
    <nd ref="1192286972"/>
    <nd ref="1067773070"/>
    <nd ref="1067773061"/>
    <nd ref="1192287178"/>
    <nd ref="1067773071"/>
    <tag k="barrier" v="fence"/>
    <tag k="fenced" v="yes"/>
    <tag k="name" v="Wolfcenter"/>
    <tag k="phone" v="04234 934402"/>
    <tag k="tourism" v="zoo"/>
    <tag k="url" v="http://www.wolfcenter.de/"/>
  </way>
  <way id="91891233" version="6" timestamp="2012-07-18T14:38:32Z" uid="722137" user="OSMF Redaction Account" changeset="12285349">
    <nd ref="1067773071"/>
    <nd ref="1192287080"/>
    <nd ref="1192287168"/>
    <nd ref="1192286935"/>
    <nd ref="1192286957"/>
    <nd ref="1192287150"/>
    <nd ref="1067773060"/>
    <nd ref="1192286940"/>
    <nd ref="1192287163"/>
    <nd ref="1192287097"/>
    <nd ref="1192287141"/>
    <nd ref="1192286972"/>
    <nd ref="1067773070"/>
    <nd ref="1067773061"/>
    <nd ref="1192287178"/>
    <nd ref="1067773071"/>
    <tag k="barrier" v="fence"/>
    <tag k="fenced" v="yes"/>
    <tag k="name" v="Wolfcenter"/>
    <tag k="phone" v="04234 934402"/>
    <tag k="tourism" v="attraction"/>
    <tag k="url" v="http://www.wolfcenter.de/"/>
  </way>
</osm>
