<?xml version='1.0' encoding='UTF-8'?>
<osm version="0.6" generator="libosmium/2.20.0">
  <way id="9209186" version="34" timestamp="2010-02-15T06:08:53Z" uid="74617" user="JohnSmith" changeset="3880328">
    <nd ref="21457643"/>
    <nd ref="332816740"/>
    <tag k="highway" v="motorway"/>
    <tag k="name" v="Warrego Highway"/>
    <tag k="oneway" v="yes"/>
    <tag k="ref" v="M2"/>
  </way>
  <way id="9209186" version="35" timestamp="2010-03-15T02:11:08Z" uid="74617" user="JohnSmith" changeset="4131538">
    <nd ref="21457643"/>
    <nd ref="332816740"/>
    <tag k="highway" v="motorway"/>
    <tag k="oneway" v="yes"/>
  </way>
  <way id="9209186" version="36" timestamp="2010-07-15T03:09:17Z" uid="163497" user="Iteration" changeset="5223259">
    <nd ref="21457643"/>
    <nd ref="332816740"/>
    <tag k="highway" v="motorway"/>
    <tag k="name" v="Warrego Highway"/>
    <tag k="oneway" v="yes"/>
  </way>
  <way id="9209186" version="37" timestamp="2010-07-16T07:06:07Z" uid="163497" user="Iteration" changeset="5232509">
    <nd ref="21457643"/>
    <nd ref="332816740"/>
    <tag k="highway" v="motorway"/>
    <tag k="oneway" v="yes"/>
  </way>
  <way id="9209186" version="38" timestamp="2010-12-08T08:22:10Z" uid="22094" user="Chadzopkyo" changeset="6582620">
    <nd ref="21457643"/>
    <nd ref="332816740"/>
    <tag k="highway" v="motorway"/>
    <tag k="oneway" v="yes"/>
    <tag k="source" v="GPS"/>
  </way>
  <way id="9209186" version="39" timestamp="2012-01-03T05:06:28Z" uid="103574" user="Here is the repulsant snozzcumber!" changeset="10278349">
    <nd ref="21457643"/>
    <nd ref="332816740"/>
    <tag k="highway" v="motorway"/>
    <tag k="name" v="Warrego Highway"/>
    <tag k="oneway" v="yes"/>
    <tag k="source" v="GPS"/>
  </way>
  <way id="9209190" version="7" timestamp="2010-02-15T06:02:12Z" uid="74617" user="JohnSmith" changeset="3880328">
    <nd ref="68742307"/>
    <nd ref="330770666"/>
    <nd ref="68824790"/>
    <nd ref="268744105"/>
    <nd ref="268744106"/>
    <nd ref="268744107"/>
    <nd ref="330771442"/>
    <nd ref="68742625"/>
    <tag k="highway" v="tertiary"/>
    <tag k="name" v="Byrne Road"/>
  </way>
  <way id="9209190" version="8" timestamp="2010-06-26T07:52:40Z" uid="74617" user="JohnSmith" changeset="5078709">
    <nd ref="330769599"/>
    <nd ref="68742307"/>
    <nd ref="330770666"/>
    <nd ref="68824790"/>
    <nd ref="268744105"/>
    <nd ref="268744106"/>
    <nd ref="268744107"/>
    <nd ref="330771442"/>
    <nd ref="68742625"/>
    <tag k="highway" v="tertiary"/>
    <tag k="name" v="Byrne Road"/>
  </way>
  <way id="9209190" version="9" timestamp="2010-07-14T00:54:10Z" uid="163497" user="Iteration" changeset="5213535">
    <nd ref="330769599"/>
    <nd ref="68742307"/>
    <nd ref="330770666"/>
    <nd ref="68824790"/>
    <nd ref="268744105"/>
    <nd ref="268744106"/>
    <nd ref="268744107"/>
    <nd ref="330771442"/>
    <nd ref="68742625"/>
    <tag k="highway" v="tertiary"/>
    <tag k="name" v="Byrne Street"/>
  </way>
  <way id="9209204" version="18" timestamp="2011-03-21T10:23:12Z" uid="4467" user="Rosscoe" changeset="7625676">
    <nd ref="68742671"/>
    <nd ref="101056577"/>
    <tag k="highway" v="secondary"/>
    <tag k="name" v="Wacol Station Road"/>
  </way>
  <way id="9209208" version="7" timestamp="2009-08-03T23:33:14Z" uid="4467" user="Rosscoe" changeset="2031099">
    <nd ref="269279681"/>
    <nd ref="269279431"/>
    <nd ref="68743119"/>
    <nd ref="68743103"/>
    <nd ref="194927934"/>
    <nd ref="194927935"/>
    <nd ref="194927936"/>
    <nd ref="21477486"/>
    <tag k="highway" v="motorway_link"/>
    <tag k="oneway" v="yes"/>
  </way>
  <way id="9209208" version="8" timestamp="2010-04-26T01:29:51Z" uid="211951" user="Dr Paul Martin" changeset="4527922">
    <nd ref="269279681"/>
    <nd ref="706903505"/>
    <nd ref="269279431"/>
    <nd ref="68743119"/>
    <nd ref="68743103"/>
    <nd ref="194927934"/>
    <nd ref="194927935"/>
    <nd ref="194927936"/>
    <nd ref="21477486"/>
    <tag k="highway" v="motorway_link"/>
    <tag k="oneway" v="yes"/>
  </way>
  <way id="9209208" version="9" timestamp="2010-04-26T01:30:37Z" uid="211951" user="Dr Paul Martin" changeset="4527922">
    <nd ref="269279681"/>
    <nd ref="706903505"/>
    <nd ref="269279431"/>
    <nd ref="68743119"/>
    <nd ref="68743103"/>
    <nd ref="706903535"/>
    <nd ref="194927934"/>
    <nd ref="194927935"/>
    <nd ref="194927936"/>
    <nd ref="21477486"/>
    <tag k="highway" v="motorway_link"/>
    <tag k="oneway" v="yes"/>
  </way>
  <way id="9209441" version="3" timestamp="2010-03-16T15:18:16Z" uid="23543" user="jkjk" changeset="4144051"/>
  <way id="9209186" version="40" timestamp="2012-07-19T21:34:36Z" uid="722137" user="OSMF Redaction Account" changeset="12348520">
    <nd ref="21457643"/>
    <nd ref="332816740"/>
    <tag k="highway" v="trunk"/>
    <tag k="name" v="Warrego Highway"/>
    <tag k="oneway" v="yes"/>
    <tag k="source" v="GPS"/>
  </way>
  <way id="9209186" version="41" timestamp="2012-08-02T23:18:50Z" uid="288568" user="nickbarker" changeset="12592147">
    <nd ref="21457643"/>
    <nd ref="332816740"/>
    <tag k="highway" v="motorway"/>
    <tag k="name" v="Warrego Highway"/>
    <tag k="oneway" v="yes"/>
    <tag k="source" v="GPS"/>
  </way>
  <way id="9209186" version="42" timestamp="2012-08-25T12:54:42Z" uid="67896" user="mrpulley" changeset="12854922">
    <nd ref="21457643"/>
    <nd ref="332816740"/>
    <tag k="highway" v="motorway"/>
    <tag k="name" v="Warrego Highway"/>
    <tag k="oneway" v="yes"/>
    <tag k="ref" v="A2"/>
    <tag k="source" v="GPS"/>
  </way>
  <way id="9209190" version="10" timestamp="2012-07-19T21:42:01Z" uid="722137" user="OSMF Redaction Account" changeset="12348792">
    <nd ref="68742307"/>
    <nd ref="330770666"/>
    <nd ref="68824790"/>
    <nd ref="268744105"/>
    <nd ref="268744106"/>
    <nd ref="268744107"/>
    <nd ref="330771442"/>
    <nd ref="68742625"/>
    <tag k="highway" v="tertiary"/>
    <tag k="name" v="Byrne Street"/>
  </way>
  <way id="9209190" version="11" timestamp="2012-08-18T08:59:20Z" uid="206339" user="chas66" changeset="12770623">
    <nd ref="68742307"/>
    <nd ref="330770666"/>
    <nd ref="68824790"/>
    <nd ref="1871047118"/>
    <nd ref="268744105"/>
    <nd ref="268744106"/>
    <nd ref="268744107"/>
    <nd ref="330771442"/>
    <nd ref="68742625"/>
    <tag k="highway" v="tertiary"/>
    <tag k="name" v="Byrne Street"/>
  </way>
  <way id="9209208" version="10" timestamp="2012-07-19T20:43:11Z" uid="722137" user="OSMF Redaction Account" changeset="12346679">
    <nd ref="269279681"/>
    <nd ref="706903505"/>
    <nd ref="269279431"/>
    <nd ref="68743119"/>
    <nd ref="68743103"/>
    <nd ref="706903535"/>
    <nd ref="194927934"/>
    <nd ref="194927935"/>
    <nd ref="194927936"/>
    <nd ref="21477486"/>
    <tag k="highway" v="motorway_link"/>
  </way>
</osm>
