<?xml version='1.0' encoding='UTF-8'?>
<osm version="0.6" generator="libosmium/2.20.0">
  <way id="9271286" version="4" timestamp="2010-07-09T05:31:03Z" uid="74617" user="JohnSmith" changeset="5170972">
    <nd ref="69567586"/>
    <nd ref="296739432"/>
    <nd ref="59714843"/>
    <tag k="highway" v="residential"/>
    <tag k="maxspeed" v="50"/>
    <tag k="maxspeed:source" v="default residential speed limit in Australia"/>
    <tag k="name" v="Harding Street"/>
  </way>
  <way id="9271286" version="5" timestamp="2010-07-09T05:38:36Z" uid="74617" user="JohnSmith" changeset="5170972">
    <nd ref="69567586"/>
    <nd ref="296739432"/>
    <nd ref="59714843"/>
    <tag k="highway" v="residential"/>
    <tag k="maxspeed" v="50"/>
    <tag k="maxspeed:source" v="default residential speed limit in Australia"/>
    <tag k="name" v="Harding Street"/>
  </way>
  <way id="9271286" version="6" timestamp="2012-01-15T08:22:32Z" uid="147510" user="woodpeck_fixbot" changeset="10395278">
    <nd ref="69567586"/>
    <nd ref="296739432"/>
    <nd ref="59714843"/>
    <tag k="highway" v="residential"/>
    <tag k="name" v="Harding Street"/>
  </way>
  <way id="9271288" version="4" timestamp="2008-09-14T18:15:01Z" uid="6975" user="ulfl" changeset="640534">
    <nd ref="69567702"/>
    <nd ref="296739413"/>
    <nd ref="69567616"/>
    <tag k="highway" v="residential"/>
    <tag k="name" v="Oakley Street"/>
  </way>
  <way id="9271288" version="5" timestamp="2010-07-09T05:32:14Z" uid="74617" user="JohnSmith" changeset="5170972">
    <nd ref="69567702"/>
    <nd ref="296739413"/>
    <nd ref="69567616"/>
    <tag k="highway" v="residential"/>
    <tag k="maxspeed" v="50"/>
    <tag k="maxspeed:source" v="default residential speed limit in Australia"/>
    <tag k="name" v="Oakley Street"/>
  </way>
  <way id="9271288" version="6" timestamp="2010-07-09T05:39:46Z" uid="74617" user="JohnSmith" changeset="5170972">
    <nd ref="69567702"/>
    <nd ref="296739413"/>
    <nd ref="69567616"/>
    <tag k="highway" v="residential"/>
    <tag k="maxspeed" v="50"/>
    <tag k="maxspeed:source" v="default residential speed limit in Australia"/>
    <tag k="name" v="Oakley Street"/>
  </way>
  <way id="9271288" version="7" timestamp="2011-09-28T11:46:55Z" uid="349913" user="Peter W34" changeset="9418911">
    <nd ref="69567702"/>
    <nd ref="1447947098"/>
    <nd ref="296739413"/>
    <nd ref="69567616"/>
    <tag k="highway" v="residential"/>
    <tag k="maxspeed" v="50"/>
    <tag k="maxspeed:source" v="default residential speed limit in Australia"/>
    <tag k="name" v="Oakley Street"/>
  </way>
  <way id="9271288" version="8" timestamp="2012-01-15T08:22:33Z" uid="147510" user="woodpeck_fixbot" changeset="10395278">
    <nd ref="69567702"/>
    <nd ref="1447947098"/>
    <nd ref="296739413"/>
    <nd ref="69567616"/>
    <tag k="highway" v="residential"/>
    <tag k="name" v="Oakley Street"/>
  </way>
  <way id="9271294" version="3" timestamp="2008-09-14T18:15:04Z" uid="6975" user="ulfl" changeset="640534">
    <nd ref="69567785"/>
    <nd ref="69567616"/>
    <nd ref="69567648"/>
    <nd ref="69567674"/>
    <tag k="highway" v="residential"/>
    <tag k="name" v="Douglas Street"/>
  </way>
  <way id="9271294" version="4" timestamp="2010-07-09T05:33:06Z" uid="74617" user="JohnSmith" changeset="5170972">
    <nd ref="69567785"/>
    <nd ref="69567616"/>
    <nd ref="69567648"/>
    <nd ref="69567674"/>
    <tag k="highway" v="residential"/>
    <tag k="maxspeed" v="50"/>
    <tag k="maxspeed:source" v="default residential speed limit in Australia"/>
    <tag k="name" v="Douglas Street"/>
  </way>
  <way id="9271294" version="5" timestamp="2010-07-09T05:40:31Z" uid="74617" user="JohnSmith" changeset="5170972">
    <nd ref="69567785"/>
    <nd ref="69567616"/>
    <nd ref="69567648"/>
    <nd ref="69567674"/>
    <tag k="highway" v="residential"/>
    <tag k="maxspeed" v="50"/>
    <tag k="maxspeed:source" v="default residential speed limit in Australia"/>
    <tag k="name" v="Douglas Street"/>
  </way>
  <way id="9271294" version="6" timestamp="2012-01-15T08:22:35Z" uid="147510" user="woodpeck_fixbot" changeset="10395278">
    <nd ref="69567785"/>
    <nd ref="69567616"/>
    <nd ref="69567648"/>
    <nd ref="69567674"/>
    <tag k="highway" v="residential"/>
    <tag k="name" v="Douglas Street"/>
  </way>
  <way id="9271297" version="3" timestamp="2008-09-14T18:14:59Z" uid="6975" user="ulfl" changeset="640534">
    <nd ref="69567729"/>
    <nd ref="59714849"/>
    <tag k="highway" v="residential"/>
    <tag k="name" v="Honara Avenue"/>
  </way>
  <way id="9271297" version="4" timestamp="2010-07-09T05:29:05Z" uid="74617" user="JohnSmith" changeset="5170972">
    <nd ref="69567729"/>
    <nd ref="59714849"/>
    <tag k="highway" v="residential"/>
    <tag k="maxspeed" v="50"/>
    <tag k="maxspeed:source" v="default residential speed limit in Australia"/>
    <tag k="name" v="Honara Avenue"/>
  </way>
  <way id="9271297" version="5" timestamp="2010-07-09T05:36:45Z" uid="74617" user="JohnSmith" changeset="5170972">
    <nd ref="69567729"/>
    <nd ref="59714849"/>
    <tag k="highway" v="residential"/>
    <tag k="maxspeed" v="50"/>
    <tag k="maxspeed:source" v="default residential speed limit in Australia"/>
    <tag k="name" v="Honara Avenue"/>
  </way>
  <way id="9271297" version="6" timestamp="2012-01-15T08:22:37Z" uid="147510" user="woodpeck_fixbot" changeset="10395278">
    <nd ref="69567729"/>
    <nd ref="59714849"/>
    <tag k="highway" v="residential"/>
    <tag k="name" v="Honara Avenue"/>
  </way>
  <way id="9271302" version="4" timestamp="2008-09-14T18:15:03Z" uid="6975" user="ulfl" changeset="640534">
    <nd ref="69567757"/>
    <nd ref="69567674"/>
    <nd ref="296741147"/>
    <nd ref="69567729"/>
    <nd ref="69567741"/>
    <tag k="highway" v="residential"/>
    <tag k="name" v="Bedford Street"/>
  </way>
  <way id="9271302" version="5" timestamp="2010-07-09T05:33:06Z" uid="74617" user="JohnSmith" changeset="5170972">
    <nd ref="69567757"/>
    <nd ref="69567674"/>
    <nd ref="296741147"/>
    <nd ref="69567729"/>
    <nd ref="69567741"/>
    <tag k="highway" v="residential"/>
    <tag k="maxspeed" v="50"/>
    <tag k="maxspeed:source" v="default residential speed limit in Australia"/>
    <tag k="name" v="Bedford Street"/>
  </way>
  <way id="9271302" version="6" timestamp="2010-07-09T05:40:32Z" uid="74617" user="JohnSmith" changeset="5170972">
    <nd ref="69567757"/>
    <nd ref="69567674"/>
    <nd ref="296741147"/>
    <nd ref="69567729"/>
    <nd ref="69567741"/>
    <tag k="highway" v="residential"/>
    <tag k="maxspeed" v="50"/>
    <tag k="maxspeed:source" v="default residential speed limit in Australia"/>
    <tag k="name" v="Bedford Street"/>
  </way>
  <way id="9271302" version="7" timestamp="2012-01-15T08:22:39Z" uid="147510" user="woodpeck_fixbot" changeset="10395278">
    <nd ref="69567757"/>
    <nd ref="69567674"/>
    <nd ref="296741147"/>
    <nd ref="69567729"/>
    <nd ref="69567741"/>
    <tag k="highway" v="residential"/>
    <tag k="name" v="Bedford Street"/>
  </way>
  <way id="9271307" version="2" timestamp="2010-07-09T05:30:28Z" uid="74617" user="JohnSmith" changeset="5170972">
    <nd ref="69567741"/>
    <nd ref="59714820"/>
    <tag k="highway" v="residential"/>
    <tag k="maxspeed" v="50"/>
    <tag k="maxspeed:source" v="default residential speed limit in Australia"/>
  </way>
  <way id="9271307" version="3" timestamp="2010-07-09T05:38:02Z" uid="74617" user="JohnSmith" changeset="5170972">
    <nd ref="69567741"/>
    <nd ref="59714820"/>
    <tag k="highway" v="residential"/>
    <tag k="maxspeed" v="50"/>
    <tag k="maxspeed:source" v="default residential speed limit in Australia"/>
  </way>
  <way id="9271307" version="4" timestamp="2012-01-15T08:22:40Z" uid="147510" user="woodpeck_fixbot" changeset="10395278">
    <nd ref="69567741"/>
    <nd ref="59714820"/>
    <tag k="highway" v="residential"/>
  </way>
  <way id="9271311" version="6" timestamp="2010-07-09T05:32:04Z" uid="74617" user="JohnSmith" changeset="5170972">
    <nd ref="69567814"/>
    <nd ref="69567864"/>
    <nd ref="69567785"/>
    <nd ref="69567835"/>
    <nd ref="69574540"/>
    <tag k="highway" v="residential"/>
    <tag k="maxspeed" v="50"/>
    <tag k="maxspeed:source" v="default residential speed limit in Australia"/>
    <tag k="name" v="Montagu Street"/>
  </way>
  <way id="9271311" version="7" timestamp="2010-07-09T05:39:37Z" uid="74617" user="JohnSmith" changeset="5170972">
    <nd ref="69567814"/>
    <nd ref="69567864"/>
    <nd ref="69567785"/>
    <nd ref="69567835"/>
    <nd ref="69574540"/>
    <tag k="highway" v="residential"/>
    <tag k="maxspeed" v="50"/>
    <tag k="maxspeed:source" v="default residential speed limit in Australia"/>
    <tag k="name" v="Montagu Street"/>
  </way>
  <way id="9271311" version="8" timestamp="2012-01-15T08:22:41Z" uid="147510" user="woodpeck_fixbot" changeset="10395278">
    <nd ref="69567814"/>
    <nd ref="69567864"/>
    <nd ref="69567785"/>
    <nd ref="69567835"/>
    <nd ref="69574540"/>
    <tag k="highway" v="residential"/>
    <tag k="name" v="Montagu Street"/>
  </way>
  <way id="9271314" version="4" timestamp="2008-09-14T18:14:54Z" uid="6975" user="ulfl" changeset="640534">
    <nd ref="69567846"/>
    <nd ref="69567864"/>
    <nd ref="296739413"/>
    <tag k="highway" v="residential"/>
    <tag k="name" v="Sorell Street"/>
  </way>
  <way id="9271314" version="5" timestamp="2010-07-09T05:32:39Z" uid="74617" user="JohnSmith" changeset="5170972">
    <nd ref="69567846"/>
    <nd ref="69567864"/>
    <nd ref="296739413"/>
    <tag k="highway" v="residential"/>
    <tag k="maxspeed" v="50"/>
    <tag k="maxspeed:source" v="default residential speed limit in Australia"/>
    <tag k="name" v="Sorell Street"/>
  </way>
  <way id="9271314" version="6" timestamp="2010-07-09T05:40:08Z" uid="74617" user="JohnSmith" changeset="5170972">
    <nd ref="69567846"/>
    <nd ref="69567864"/>
    <nd ref="296739413"/>
    <tag k="highway" v="residential"/>
    <tag k="maxspeed" v="50"/>
    <tag k="maxspeed:source" v="default residential speed limit in Australia"/>
    <tag k="name" v="Sorell Street"/>
  </way>
  <way id="9271314" version="7" timestamp="2012-01-15T08:22:42Z" uid="147510" user="woodpeck_fixbot" changeset="10395278">
    <nd ref="69567846"/>
    <nd ref="69567864"/>
    <nd ref="296739413"/>
    <tag k="highway" v="residential"/>
    <tag k="name" v="Sorell Street"/>
  </way>
  <way id="9271492" version="1" timestamp="2007-10-14T00:17:27Z" uid="6454" user="B10xxx" changeset="154656">
    <nd ref="69568944"/>
    <nd ref="69569386"/>
    <nd ref="31192876"/>
    <tag k="created_by" v="Potlatch alpha"/>
    <tag k="highway" v="residential"/>
  </way>
  <way id="9271492" version="2" timestamp="2008-12-14T17:23:10Z" uid="78909" user="Meista42" changeset="385320">
    <nd ref="69568944"/>
    <nd ref="69569386"/>
    <nd ref="31192876"/>
    <tag k="created_by" v="Potlatch 0.10f"/>
    <tag k="highway" v="residential"/>
    <tag k="name" v="Mittelheimerstraße"/>
  </way>
  <way id="9271492" version="3" timestamp="2009-11-27T11:54:55Z" uid="101372" user="tanjeff" changeset="3227373">
    <nd ref="69568944"/>
    <nd ref="69569386"/>
    <nd ref="31192876"/>
    <tag k="highway" v="residential"/>
    <tag k="name" v="Mittelheimer Straße"/>
  </way>
  <way id="9271492" version="4" timestamp="2012-01-04T00:49:34Z" uid="328555" user="peb12345" changeset="10287518">
    <nd ref="69568944"/>
    <nd ref="1576304064"/>
    <nd ref="31192876"/>
    <tag k="highway" v="residential"/>
    <tag k="name" v="Mittelheimer Straße"/>
  </way>
  <way id="9271492" version="5" timestamp="2012-01-06T11:29:10Z" uid="53867" user="Groppe" changeset="10310133">
    <nd ref="69568944"/>
    <nd ref="1576304064"/>
    <nd ref="31192876"/>
    <tag k="cycleway" v="opposite"/>
    <tag k="highway" v="residential"/>
    <tag k="name" v="Mittelheimer Straße"/>
    <tag k="oneway" v="yes"/>
  </way>
  <way id="9271492" version="6" timestamp="2012-01-18T16:58:54Z" uid="328555" user="peb12345" changeset="10429175"/>
  <way id="9271547" version="1" timestamp="2007-10-14T00:17:43Z" uid="6454" user="B10xxx" changeset="154656">
    <nd ref="27088746"/>
    <nd ref="69569865"/>
    <nd ref="69569866"/>
    <tag k="created_by" v="Potlatch alpha"/>
    <tag k="highway" v="residential"/>
  </way>
  <way id="9271547" version="2" timestamp="2008-01-01T23:17:04Z" uid="6454" user="B10xxx" changeset="516422">
    <nd ref="27088746"/>
    <nd ref="69569865"/>
    <nd ref="69569866"/>
    <tag k="created_by" v="Potlatch 0.6"/>
    <tag k="highway" v="residential"/>
  </way>
  <way id="9271547" version="3" timestamp="2008-05-31T12:56:35Z" uid="17602" user="B10xyz" changeset="559609">
    <nd ref="28573767"/>
    <nd ref="27088792"/>
    <nd ref="28573812"/>
    <nd ref="27088746"/>
    <nd ref="69569865"/>
    <nd ref="69569866"/>
    <tag k="created_by" v="JOSM"/>
    <tag k="highway" v="residential"/>
    <tag k="name" v="Oestricher Straße"/>
    <tag k="oneway" v="yes"/>
  </way>
  <way id="9271547" version="4" timestamp="2010-06-16T16:43:11Z" uid="40023" user="ALE!" changeset="5002070">
    <nd ref="28573767"/>
    <nd ref="27088792"/>
    <nd ref="28573812"/>
    <nd ref="27088746"/>
    <nd ref="69569865"/>
    <nd ref="69569866"/>
    <tag k="highway" v="residential"/>
    <tag k="name" v="Oestricher Straße"/>
    <tag k="oneway" v="yes"/>
  </way>
  <way id="9271547" version="5" timestamp="2011-08-03T08:43:51Z" uid="27803" user="xavax" changeset="8907962">
    <nd ref="28573767"/>
    <nd ref="27088792"/>
    <nd ref="28573812"/>
    <nd ref="27088746"/>
    <nd ref="69569865"/>
    <nd ref="69569866"/>
    <tag k="highway" v="residential"/>
    <tag k="maxspeed" v="30"/>
    <tag k="name" v="Oestricher Straße"/>
    <tag k="oneway" v="yes"/>
  </way>
  <way id="9271547" version="6" timestamp="2012-01-04T00:49:45Z" uid="328555" user="peb12345" changeset="10287518"/>
  <way id="9271754" version="1" timestamp="2007-10-14T00:18:42Z" uid="6454" user="B10xxx" changeset="154656">
    <nd ref="69571716"/>
    <nd ref="69571718"/>
    <nd ref="69571719"/>
    <tag k="created_by" v="Potlatch alpha"/>
    <tag k="highway" v="residential"/>
  </way>
  <way id="9271754" version="2" timestamp="2008-01-07T23:10:33Z" uid="6454" user="B10xxx" changeset="576931">
    <nd ref="209152617"/>
    <nd ref="69571716"/>
    <nd ref="69571718"/>
    <nd ref="69571719"/>
    <tag k="created_by" v="Potlatch alpha"/>
    <tag k="highway" v="residential"/>
  </way>
  <way id="9271754" version="3" timestamp="2008-06-13T21:50:43Z" uid="17602" user="B10xyz" changeset="155382">
    <nd ref="69571719"/>
    <nd ref="69571718"/>
    <nd ref="69571716"/>
    <nd ref="209152617"/>
    <tag k="created_by" v="Potlatch alpha"/>
    <tag k="highway" v="residential"/>
  </way>
  <way id="9271754" version="4" timestamp="2008-06-15T22:22:46Z" uid="17602" user="B10xyz" changeset="179150">
    <nd ref="69571719"/>
    <nd ref="69571718"/>
    <nd ref="69571716"/>
    <nd ref="209152617"/>
    <tag k="created_by" v="Potlatch alpha"/>
    <tag k="cycleway" v="opposite"/>
    <tag k="highway" v="residential"/>
    <tag k="name" v="Kauber Straße"/>
    <tag k="oneway" v="yes"/>
  </way>
  <way id="9271754" version="5" timestamp="2010-06-16T16:43:12Z" uid="40023" user="ALE!" changeset="5002070">
    <nd ref="69571719"/>
    <nd ref="69571718"/>
    <nd ref="69571716"/>
    <nd ref="209152617"/>
    <tag k="cycleway" v="opposite"/>
    <tag k="highway" v="residential"/>
    <tag k="name" v="Kauber Straße"/>
    <tag k="oneway" v="yes"/>
  </way>
  <way id="9271754" version="6" timestamp="2012-01-04T00:49:44Z" uid="328555" user="peb12345" changeset="10287518"/>
  <way id="9271294" version="7" timestamp="2012-08-21T12:19:06Z" uid="408202" user="BFX" changeset="12806942">
    <nd ref="69567785"/>
    <nd ref="69567616"/>
    <nd ref="1875963314"/>
    <nd ref="69567648"/>
    <nd ref="69567674"/>
    <tag k="highway" v="residential"/>
    <tag k="name" v="Douglas Street"/>
  </way>
  <way id="9271307" version="5" timestamp="2012-08-21T12:19:07Z" uid="408202" user="BFX" changeset="12806942">
    <nd ref="69567741"/>
    <nd ref="1875963340"/>
    <nd ref="1875963393"/>
    <nd ref="59714820"/>
    <nd ref="1875963403"/>
    <tag k="highway" v="residential"/>
  </way>
  <way id="9271311" version="9" timestamp="2012-08-07T12:08:11Z" uid="1649" user="Chuq" changeset="12644619">
    <nd ref="1855498099"/>
    <nd ref="69567814"/>
    <nd ref="69567864"/>
    <nd ref="69567785"/>
    <nd ref="69567835"/>
    <nd ref="69574540"/>
    <tag k="highway" v="residential"/>
    <tag k="name" v="Montagu Street"/>
  </way>
</osm>
