<?xml version='1.0' encoding='UTF-8'?>
<osm version="0.6" generator="libosmium/2.20.0">
  <way id="9302143" version="1" timestamp="2007-10-14T04:32:46Z" uid="7617" user="Franc" changeset="165865">
    <nd ref="70012148"/>
    <nd ref="69611101"/>
    <tag k="created_by" v="JOSM"/>
    <tag k="highway" v="stairs"/>
  </way>
  <way id="9302143" version="2" timestamp="2008-03-18T07:07:19Z" uid="7617" user="Franc" changeset="343791">
    <nd ref="70012148"/>
    <nd ref="69611101"/>
    <tag k="created_by" v="JOSM"/>
    <tag k="highway" v="steps"/>
  </way>
  <way id="9302143" version="3" timestamp="2012-03-08T05:59:02Z" uid="7523" user="inas" changeset="10906275">
    <nd ref="70012148"/>
    <nd ref="69611101"/>
    <tag k="highway" v="steps"/>
  </way>
  <way id="9302145" version="1" timestamp="2007-10-14T04:32:46Z" uid="7617" user="Franc" changeset="165865">
    <nd ref="70012168"/>
    <nd ref="70012191"/>
    <nd ref="70012223"/>
    <nd ref="70012243"/>
    <nd ref="70012168"/>
    <tag k="amenity" v="school"/>
    <tag k="created_by" v="JOSM"/>
    <tag k="layer" v="-1"/>
    <tag k="name" v="Our Lady of Lourdes Primary School"/>
    <tag k="source" v="survey"/>
  </way>
  <way id="9302145" version="2" timestamp="2010-03-01T05:05:31Z" uid="7617" user="Franc" changeset="4005804">
    <nd ref="70012168"/>
    <nd ref="657516826"/>
    <nd ref="70012191"/>
    <nd ref="70012223"/>
    <nd ref="70012243"/>
    <nd ref="70012168"/>
    <tag k="amenity" v="school"/>
    <tag k="layer" v="-1"/>
    <tag k="name" v="Our Lady of Lourdes Primary School"/>
    <tag k="source" v="survey"/>
  </way>
  <way id="9302775" version="3" timestamp="2010-07-08T01:56:37Z" uid="74617" user="JohnSmith" changeset="5162525">
    <nd ref="70022486"/>
    <nd ref="70022511"/>
    <nd ref="70022489"/>
    <nd ref="70022491"/>
    <nd ref="70022493"/>
    <nd ref="70022495"/>
    <tag k="highway" v="residential"/>
    <tag k="maxspeed" v="50"/>
    <tag k="maxspeed:source" v="default residential speed limit in Australia"/>
    <tag k="name" v="Gladstone Street"/>
  </way>
  <way id="9302775" version="4" timestamp="2012-01-15T08:27:04Z" uid="147510" user="woodpeck_fixbot" changeset="10395278">
    <nd ref="70022486"/>
    <nd ref="70022511"/>
    <nd ref="70022489"/>
    <nd ref="70022491"/>
    <nd ref="70022493"/>
    <nd ref="70022495"/>
    <tag k="highway" v="residential"/>
    <tag k="name" v="Gladstone Street"/>
  </way>
  <way id="9302867" version="6" timestamp="2009-12-05T08:18:16Z" uid="7617" user="Franc" changeset="3293565">
    <nd ref="69801437"/>
    <nd ref="70024581"/>
    <nd ref="70024582"/>
    <tag k="highway" v="service"/>
    <tag k="name" v="Chatham Street"/>
  </way>
  <way id="9302143" version="4" timestamp="2012-07-20T08:37:41Z" uid="722137" user="OSMF Redaction Account" changeset="12368562"/>
  <way id="9302145" version="3" timestamp="2012-05-27T11:05:58Z" uid="31660" user="M Hurwood" changeset="11714667">
    <nd ref="70012243"/>
    <nd ref="657516826"/>
    <nd ref="70012191"/>
    <nd ref="70012223"/>
    <nd ref="1767446226"/>
    <nd ref="70012243"/>
    <tag k="amenity" v="school"/>
    <tag k="layer" v="-1"/>
    <tag k="name" v="Our Lady of Lourdes Primary School"/>
    <tag k="source" v="survey"/>
  </way>
  <way id="9302145" version="4" timestamp="2012-06-20T00:48:40Z" uid="7523" user="inas" changeset="11954065"/>
  <way id="9302867" version="7" timestamp="2012-07-22T04:15:02Z" uid="722137" user="OSMF Redaction Account" changeset="12425221">
    <nd ref="69801437"/>
    <nd ref="70024581"/>
    <nd ref="70024582"/>
    <tag k="highway" v="track"/>
    <tag k="name" v="Chatham Street"/>
  </way>
  <way id="9302867" version="8" timestamp="2012-08-15T09:47:16Z" uid="62882" user="friedl" changeset="12736637">
    <nd ref="1867066928"/>
    <nd ref="1867066933"/>
    <nd ref="1867066935"/>
    <nd ref="70024581"/>
    <tag k="highway" v="service"/>
    <tag k="name" v="Chatham Street"/>
  </way>
</osm>
