<?xml version='1.0' encoding='UTF-8'?>
<osm version="0.6" generator="libosmium/2.20.0">
  <way id="93074559" version="1" timestamp="2011-01-02T15:26:40Z" uid="151899" user="Bikeman2000" changeset="6839422">
    <nd ref="1078822480"/>
    <nd ref="1078822413"/>
    <nd ref="1078822509"/>
    <nd ref="1078822499"/>
    <nd ref="1078822422"/>
    <nd ref="1078822493"/>
    <nd ref="1078822478"/>
    <nd ref="1078822480"/>
    <tag k="building" v="yes"/>
  </way>
  <way id="93074559" version="2" timestamp="2011-07-23T14:20:04Z" uid="19602" user="PL61" changeset="8806749">
    <nd ref="1078822480"/>
    <nd ref="1078822413"/>
    <nd ref="1078822509"/>
    <nd ref="1078822499"/>
    <nd ref="1078822422"/>
    <nd ref="1078822493"/>
    <nd ref="1078822478"/>
    <nd ref="1078822480"/>
    <tag k="addr:housenumber" v="46"/>
    <tag k="building" v="yes"/>
  </way>
  <way id="93074559" version="3" timestamp="2011-11-27T10:55:40Z" uid="173844" user="Antikalk" changeset="9965127">
    <nd ref="1078822480"/>
    <nd ref="1078822413"/>
    <nd ref="1078822509"/>
    <nd ref="1078822499"/>
    <nd ref="1519317718"/>
    <nd ref="1078822422"/>
    <nd ref="1078822493"/>
    <nd ref="1078822478"/>
    <nd ref="1078822480"/>
    <tag k="addr:city" v="Duesseldorf"/>
    <tag k="addr:country" v="DE"/>
    <tag k="addr:housenumber" v="46"/>
    <tag k="addr:postcode" v="40545"/>
    <tag k="addr:street" v="Niederkasseler Kirchweg"/>
    <tag k="building" v="yes"/>
    <tag k="source" v="Bing Sat"/>
  </way>
  <way id="93074559" version="4" timestamp="2011-11-28T02:21:21Z" uid="173844" user="Antikalk" changeset="9973944">
    <nd ref="1078822480"/>
    <nd ref="1078822413"/>
    <nd ref="1078822509"/>
    <nd ref="1078822499"/>
    <nd ref="1519317718"/>
    <nd ref="1078822422"/>
    <nd ref="1078822493"/>
    <nd ref="1078822478"/>
    <nd ref="1078822480"/>
    <tag k="addr:city" v="Duesseldorf"/>
    <tag k="addr:country" v="DE"/>
    <tag k="addr:housenumber" v="46"/>
    <tag k="addr:postcode" v="40547"/>
    <tag k="addr:street" v="Niederkasseler Kirchweg"/>
    <tag k="building" v="yes"/>
    <tag k="source" v="Bing Sat"/>
  </way>
  <way id="93074559" version="5" timestamp="2011-12-10T20:22:21Z" uid="173844" user="Antikalk" changeset="10084537">
    <nd ref="1078822480"/>
    <nd ref="1078822413"/>
    <nd ref="1078822509"/>
    <nd ref="1078822499"/>
    <nd ref="1519317718"/>
    <nd ref="1078822422"/>
    <nd ref="1078822493"/>
    <nd ref="1078822478"/>
    <nd ref="1078822480"/>
    <tag k="addr:city" v="Düsseldorf"/>
    <tag k="addr:country" v="DE"/>
    <tag k="addr:housenumber" v="46"/>
    <tag k="addr:postcode" v="40547"/>
    <tag k="addr:street" v="Niederkasseler Kirchweg"/>
    <tag k="building" v="yes"/>
    <tag k="source" v="Bing Sat"/>
  </way>
  <way id="93074559" version="6" timestamp="2011-12-23T15:56:50Z" uid="173844" user="Antikalk" changeset="10188011"/>
  <way id="93074560" version="1" timestamp="2011-01-02T15:26:41Z" uid="151899" user="Bikeman2000" changeset="6839422">
    <nd ref="1078822497"/>
    <nd ref="1078822411"/>
    <nd ref="1078822459"/>
    <nd ref="1078822399"/>
    <nd ref="1078822361"/>
    <nd ref="1078822441"/>
    <tag k="highway" v="footway"/>
  </way>
  <way id="93074560" version="2" timestamp="2011-12-23T15:57:01Z" uid="173844" user="Antikalk" changeset="10188011"/>
  <way id="93074561" version="1" timestamp="2011-01-02T15:26:41Z" uid="151899" user="Bikeman2000" changeset="6839422">
    <nd ref="1078822398"/>
    <nd ref="1078822390"/>
    <nd ref="1078822364"/>
    <nd ref="1078822414"/>
    <nd ref="1078822404"/>
    <nd ref="1078822398"/>
    <tag k="building" v="yes"/>
  </way>
  <way id="93074561" version="2" timestamp="2011-07-23T14:20:05Z" uid="19602" user="PL61" changeset="8806749">
    <nd ref="1078822398"/>
    <nd ref="1078822390"/>
    <nd ref="1078822364"/>
    <nd ref="1078822414"/>
    <nd ref="1078822404"/>
    <nd ref="1078822398"/>
    <tag k="addr:housenumber" v="56"/>
    <tag k="building" v="yes"/>
  </way>
  <way id="93074561" version="3" timestamp="2011-11-27T10:55:43Z" uid="173844" user="Antikalk" changeset="9965127">
    <nd ref="1078822398"/>
    <nd ref="1078822390"/>
    <nd ref="1078822364"/>
    <nd ref="1519317729"/>
    <nd ref="1078822414"/>
    <nd ref="1078822404"/>
    <nd ref="1078822398"/>
    <tag k="addr:city" v="Duesseldorf"/>
    <tag k="addr:country" v="DE"/>
    <tag k="addr:housenumber" v="56"/>
    <tag k="addr:postcode" v="40545"/>
    <tag k="addr:street" v="Niederkasseler Kirchweg"/>
    <tag k="building" v="yes"/>
    <tag k="source" v="Bing Sat"/>
  </way>
  <way id="93074561" version="4" timestamp="2011-11-28T02:21:35Z" uid="173844" user="Antikalk" changeset="9973944">
    <nd ref="1078822398"/>
    <nd ref="1078822390"/>
    <nd ref="1078822364"/>
    <nd ref="1519317729"/>
    <nd ref="1078822414"/>
    <nd ref="1078822404"/>
    <nd ref="1078822398"/>
    <tag k="addr:city" v="Duesseldorf"/>
    <tag k="addr:country" v="DE"/>
    <tag k="addr:housenumber" v="56"/>
    <tag k="addr:postcode" v="40547"/>
    <tag k="addr:street" v="Niederkasseler Kirchweg"/>
    <tag k="building" v="yes"/>
    <tag k="source" v="Bing Sat"/>
  </way>
  <way id="93074561" version="5" timestamp="2011-12-10T20:22:25Z" uid="173844" user="Antikalk" changeset="10084537">
    <nd ref="1078822398"/>
    <nd ref="1078822390"/>
    <nd ref="1078822364"/>
    <nd ref="1519317729"/>
    <nd ref="1078822414"/>
    <nd ref="1078822404"/>
    <nd ref="1078822398"/>
    <tag k="addr:city" v="Düsseldorf"/>
    <tag k="addr:country" v="DE"/>
    <tag k="addr:housenumber" v="56"/>
    <tag k="addr:postcode" v="40547"/>
    <tag k="addr:street" v="Niederkasseler Kirchweg"/>
    <tag k="building" v="yes"/>
    <tag k="source" v="Bing Sat"/>
  </way>
  <way id="93074561" version="6" timestamp="2011-12-23T15:56:52Z" uid="173844" user="Antikalk" changeset="10188011"/>
  <way id="93074562" version="1" timestamp="2011-01-02T15:26:41Z" uid="151899" user="Bikeman2000" changeset="6839422">
    <nd ref="1078822381"/>
    <nd ref="1078822478"/>
    <nd ref="1078822493"/>
    <nd ref="1078822517"/>
    <nd ref="1078822460"/>
    <nd ref="1078822439"/>
    <nd ref="1078822381"/>
    <tag k="building" v="yes"/>
  </way>
  <way id="93074562" version="2" timestamp="2011-07-23T14:20:04Z" uid="19602" user="PL61" changeset="8806749">
    <nd ref="1078822381"/>
    <nd ref="1078822478"/>
    <nd ref="1078822493"/>
    <nd ref="1078822517"/>
    <nd ref="1078822460"/>
    <nd ref="1078822439"/>
    <nd ref="1078822381"/>
    <tag k="addr:housenumber" v="48"/>
    <tag k="building" v="yes"/>
  </way>
  <way id="93074562" version="3" timestamp="2011-11-27T10:55:41Z" uid="173844" user="Antikalk" changeset="9965127">
    <nd ref="1078822381"/>
    <nd ref="1078822478"/>
    <nd ref="1078822493"/>
    <nd ref="1519317720"/>
    <nd ref="1078822517"/>
    <nd ref="1078822460"/>
    <nd ref="1078822439"/>
    <nd ref="1078822381"/>
    <tag k="addr:city" v="Duesseldorf"/>
    <tag k="addr:country" v="DE"/>
    <tag k="addr:housenumber" v="48"/>
    <tag k="addr:postcode" v="40545"/>
    <tag k="addr:street" v="Niederkasseler Kirchweg"/>
    <tag k="building" v="yes"/>
    <tag k="source" v="Bing Sat"/>
  </way>
  <way id="93074562" version="4" timestamp="2011-11-28T02:21:23Z" uid="173844" user="Antikalk" changeset="9973944">
    <nd ref="1078822381"/>
    <nd ref="1078822478"/>
    <nd ref="1078822493"/>
    <nd ref="1519317720"/>
    <nd ref="1078822517"/>
    <nd ref="1078822460"/>
    <nd ref="1078822439"/>
    <nd ref="1078822381"/>
    <tag k="addr:city" v="Duesseldorf"/>
    <tag k="addr:country" v="DE"/>
    <tag k="addr:housenumber" v="48"/>
    <tag k="addr:postcode" v="40547"/>
    <tag k="addr:street" v="Niederkasseler Kirchweg"/>
    <tag k="building" v="yes"/>
    <tag k="source" v="Bing Sat"/>
  </way>
  <way id="93074562" version="5" timestamp="2011-12-10T20:22:21Z" uid="173844" user="Antikalk" changeset="10084537">
    <nd ref="1078822381"/>
    <nd ref="1078822478"/>
    <nd ref="1078822493"/>
    <nd ref="1519317720"/>
    <nd ref="1078822517"/>
    <nd ref="1078822460"/>
    <nd ref="1078822439"/>
    <nd ref="1078822381"/>
    <tag k="addr:city" v="Düsseldorf"/>
    <tag k="addr:country" v="DE"/>
    <tag k="addr:housenumber" v="48"/>
    <tag k="addr:postcode" v="40547"/>
    <tag k="addr:street" v="Niederkasseler Kirchweg"/>
    <tag k="building" v="yes"/>
    <tag k="source" v="Bing Sat"/>
  </way>
  <way id="93074562" version="6" timestamp="2011-12-23T15:56:50Z" uid="173844" user="Antikalk" changeset="10188011"/>
  <way id="93074563" version="1" timestamp="2011-01-02T15:26:42Z" uid="151899" user="Bikeman2000" changeset="6839422">
    <nd ref="1078822433"/>
    <nd ref="1078822390"/>
    <nd ref="1078822398"/>
    <nd ref="1078822383"/>
    <nd ref="1078822437"/>
    <nd ref="1078822379"/>
    <nd ref="1078822433"/>
    <tag k="building" v="yes"/>
  </way>
  <way id="93074563" version="2" timestamp="2011-01-02T15:29:25Z" uid="151899" user="Bikeman2000" changeset="6839450">
    <nd ref="1078822433"/>
    <nd ref="1078827306"/>
    <nd ref="1078822390"/>
    <nd ref="1078822398"/>
    <nd ref="1078822383"/>
    <nd ref="1078822437"/>
    <nd ref="1078822379"/>
    <nd ref="1078822433"/>
    <tag k="building" v="yes"/>
  </way>
  <way id="93074563" version="3" timestamp="2011-07-23T14:20:05Z" uid="19602" user="PL61" changeset="8806749">
    <nd ref="1078822433"/>
    <nd ref="1078827306"/>
    <nd ref="1078822390"/>
    <nd ref="1078822398"/>
    <nd ref="1078822383"/>
    <nd ref="1078822437"/>
    <nd ref="1078822379"/>
    <nd ref="1078822433"/>
    <tag k="addr:housenumber" v="58"/>
    <tag k="building" v="yes"/>
  </way>
  <way id="93074563" version="4" timestamp="2011-11-27T10:55:44Z" uid="173844" user="Antikalk" changeset="9965127">
    <nd ref="1078822433"/>
    <nd ref="1078827306"/>
    <nd ref="1078822390"/>
    <nd ref="1078822398"/>
    <nd ref="1078822383"/>
    <nd ref="1078822437"/>
    <nd ref="1078822379"/>
    <nd ref="1078822433"/>
    <tag k="addr:city" v="Duesseldorf"/>
    <tag k="addr:country" v="DE"/>
    <tag k="addr:housenumber" v="58"/>
    <tag k="addr:postcode" v="40545"/>
    <tag k="addr:street" v="Niederkasseler Kirchweg"/>
    <tag k="building" v="yes"/>
    <tag k="source" v="Bing Sat"/>
  </way>
  <way id="93074563" version="5" timestamp="2011-11-28T02:21:39Z" uid="173844" user="Antikalk" changeset="9973944">
    <nd ref="1078822433"/>
    <nd ref="1078827306"/>
    <nd ref="1078822390"/>
    <nd ref="1078822398"/>
    <nd ref="1078822383"/>
    <nd ref="1078822437"/>
    <nd ref="1078822379"/>
    <nd ref="1078822433"/>
    <tag k="addr:city" v="Duesseldorf"/>
    <tag k="addr:country" v="DE"/>
    <tag k="addr:housenumber" v="58"/>
    <tag k="addr:postcode" v="40547"/>
    <tag k="addr:street" v="Niederkasseler Kirchweg"/>
    <tag k="building" v="yes"/>
    <tag k="source" v="Bing Sat"/>
  </way>
  <way id="93074563" version="6" timestamp="2011-12-10T20:22:26Z" uid="173844" user="Antikalk" changeset="10084537">
    <nd ref="1078822433"/>
    <nd ref="1078827306"/>
    <nd ref="1078822390"/>
    <nd ref="1078822398"/>
    <nd ref="1078822383"/>
    <nd ref="1078822437"/>
    <nd ref="1078822379"/>
    <nd ref="1078822433"/>
    <tag k="addr:city" v="Düsseldorf"/>
    <tag k="addr:country" v="DE"/>
    <tag k="addr:housenumber" v="58"/>
    <tag k="addr:postcode" v="40547"/>
    <tag k="addr:street" v="Niederkasseler Kirchweg"/>
    <tag k="building" v="yes"/>
    <tag k="source" v="Bing Sat"/>
  </way>
  <way id="93074563" version="7" timestamp="2011-12-23T15:56:52Z" uid="173844" user="Antikalk" changeset="10188011"/>
  <way id="93074564" version="1" timestamp="2011-01-02T15:26:42Z" uid="151899" user="Bikeman2000" changeset="6839422">
    <nd ref="1078822519"/>
    <nd ref="1078822500"/>
    <nd ref="1078822386"/>
    <nd ref="1078822474"/>
    <nd ref="1078822437"/>
    <nd ref="1078822379"/>
    <nd ref="1078822417"/>
    <nd ref="1078822519"/>
    <tag k="building" v="yes"/>
  </way>
  <way id="93074564" version="2" timestamp="2011-07-23T14:20:05Z" uid="19602" user="PL61" changeset="8806749">
    <nd ref="1078822519"/>
    <nd ref="1078822500"/>
    <nd ref="1078822386"/>
    <nd ref="1078822474"/>
    <nd ref="1078822437"/>
    <nd ref="1078822379"/>
    <nd ref="1078822417"/>
    <nd ref="1078822519"/>
    <tag k="addr:housenumber" v="60"/>
    <tag k="building" v="yes"/>
  </way>
  <way id="93074564" version="3" timestamp="2011-11-27T10:55:46Z" uid="173844" user="Antikalk" changeset="9965127">
    <nd ref="1078822519"/>
    <nd ref="1078822500"/>
    <nd ref="1078822386"/>
    <nd ref="1078822474"/>
    <nd ref="1078822437"/>
    <nd ref="1078822379"/>
    <nd ref="1078822417"/>
    <nd ref="1519317724"/>
    <nd ref="1078822519"/>
    <tag k="addr:city" v="Duesseldorf"/>
    <tag k="addr:country" v="DE"/>
    <tag k="addr:housenumber" v="60"/>
    <tag k="addr:postcode" v="40545"/>
    <tag k="addr:street" v="Niederkasseler Kirchweg"/>
    <tag k="building" v="yes"/>
    <tag k="source" v="Bing Sat"/>
  </way>
  <way id="93074564" version="4" timestamp="2011-11-28T02:21:44Z" uid="173844" user="Antikalk" changeset="9973944">
    <nd ref="1078822519"/>
    <nd ref="1078822500"/>
    <nd ref="1078822386"/>
    <nd ref="1078822474"/>
    <nd ref="1078822437"/>
    <nd ref="1078822379"/>
    <nd ref="1078822417"/>
    <nd ref="1519317724"/>
    <nd ref="1078822519"/>
    <tag k="addr:city" v="Duesseldorf"/>
    <tag k="addr:country" v="DE"/>
    <tag k="addr:housenumber" v="60"/>
    <tag k="addr:postcode" v="40547"/>
    <tag k="addr:street" v="Niederkasseler Kirchweg"/>
    <tag k="building" v="yes"/>
    <tag k="source" v="Bing Sat"/>
  </way>
  <way id="93074564" version="5" timestamp="2011-12-10T20:22:31Z" uid="173844" user="Antikalk" changeset="10084537">
    <nd ref="1078822519"/>
    <nd ref="1078822500"/>
    <nd ref="1078822386"/>
    <nd ref="1078822474"/>
    <nd ref="1078822437"/>
    <nd ref="1078822379"/>
    <nd ref="1078822417"/>
    <nd ref="1519317724"/>
    <nd ref="1078822519"/>
    <tag k="addr:city" v="Düsseldorf"/>
    <tag k="addr:country" v="DE"/>
    <tag k="addr:housenumber" v="60"/>
    <tag k="addr:postcode" v="40547"/>
    <tag k="addr:street" v="Niederkasseler Kirchweg"/>
    <tag k="building" v="yes"/>
    <tag k="source" v="Bing Sat"/>
  </way>
  <way id="93074564" version="6" timestamp="2011-12-23T15:56:53Z" uid="173844" user="Antikalk" changeset="10188011"/>
  <way id="93074565" version="1" timestamp="2011-01-02T15:26:42Z" uid="151899" user="Bikeman2000" changeset="6839422">
    <nd ref="1078822451"/>
    <nd ref="1078822412"/>
    <nd ref="1078822481"/>
    <nd ref="1078822496"/>
    <nd ref="1078822419"/>
    <nd ref="1078822455"/>
    <nd ref="1078822451"/>
    <tag k="building" v="yes"/>
  </way>
  <way id="93074565" version="2" timestamp="2011-07-23T14:20:04Z" uid="19602" user="PL61" changeset="8806749">
    <nd ref="1078822451"/>
    <nd ref="1078822412"/>
    <nd ref="1078822481"/>
    <nd ref="1078822496"/>
    <nd ref="1078822419"/>
    <nd ref="1078822455"/>
    <nd ref="1078822451"/>
    <tag k="addr:housenumber" v="52"/>
    <tag k="building" v="yes"/>
  </way>
  <way id="93074565" version="3" timestamp="2011-11-27T10:55:42Z" uid="173844" user="Antikalk" changeset="9965127">
    <nd ref="1078822451"/>
    <nd ref="1078822412"/>
    <nd ref="1078822481"/>
    <nd ref="1078822496"/>
    <nd ref="1519317726"/>
    <nd ref="1078822419"/>
    <nd ref="1078822455"/>
    <nd ref="1078822451"/>
    <tag k="addr:city" v="Duesseldorf"/>
    <tag k="addr:country" v="DE"/>
    <tag k="addr:housenumber" v="52"/>
    <tag k="addr:postcode" v="40545"/>
    <tag k="addr:street" v="Niederkasseler Kirchweg"/>
    <tag k="building" v="yes"/>
    <tag k="source" v="Bing Sat"/>
  </way>
  <way id="93074565" version="4" timestamp="2011-11-28T02:21:29Z" uid="173844" user="Antikalk" changeset="9973944">
    <nd ref="1078822451"/>
    <nd ref="1078822412"/>
    <nd ref="1078822481"/>
    <nd ref="1078822496"/>
    <nd ref="1519317726"/>
    <nd ref="1078822419"/>
    <nd ref="1078822455"/>
    <nd ref="1078822451"/>
    <tag k="addr:city" v="Duesseldorf"/>
    <tag k="addr:country" v="DE"/>
    <tag k="addr:housenumber" v="52"/>
    <tag k="addr:postcode" v="40547"/>
    <tag k="addr:street" v="Niederkasseler Kirchweg"/>
    <tag k="building" v="yes"/>
    <tag k="source" v="Bing Sat"/>
  </way>
  <way id="93074565" version="5" timestamp="2011-12-10T20:22:24Z" uid="173844" user="Antikalk" changeset="10084537">
    <nd ref="1078822451"/>
    <nd ref="1078822412"/>
    <nd ref="1078822481"/>
    <nd ref="1078822496"/>
    <nd ref="1519317726"/>
    <nd ref="1078822419"/>
    <nd ref="1078822455"/>
    <nd ref="1078822451"/>
    <tag k="addr:city" v="Düsseldorf"/>
    <tag k="addr:country" v="DE"/>
    <tag k="addr:housenumber" v="52"/>
    <tag k="addr:postcode" v="40547"/>
    <tag k="addr:street" v="Niederkasseler Kirchweg"/>
    <tag k="building" v="yes"/>
    <tag k="source" v="Bing Sat"/>
  </way>
  <way id="93074565" version="6" timestamp="2011-12-23T15:56:51Z" uid="173844" user="Antikalk" changeset="10188011"/>
  <way id="93074566" version="1" timestamp="2011-01-02T15:26:43Z" uid="151899" user="Bikeman2000" changeset="6839422">
    <nd ref="1078822457"/>
    <nd ref="1078822434"/>
    <nd ref="1078822418"/>
    <nd ref="1078822511"/>
    <nd ref="1078822403"/>
    <nd ref="1078822494"/>
    <nd ref="1078822454"/>
    <nd ref="1078822387"/>
    <nd ref="1078822438"/>
    <nd ref="1078822378"/>
    <nd ref="1078822363"/>
    <nd ref="1078822449"/>
    <nd ref="1078822507"/>
    <nd ref="1078822436"/>
    <nd ref="1078822457"/>
    <tag k="leisure" v="playground"/>
  </way>
  <way id="93074566" version="2" timestamp="2011-12-23T15:57:07Z" uid="173844" user="Antikalk" changeset="10188011"/>
  <way id="93074567" version="1" timestamp="2011-01-02T15:26:43Z" uid="151899" user="Bikeman2000" changeset="6839422">
    <nd ref="1078822435"/>
    <nd ref="1078822421"/>
    <nd ref="1078822514"/>
    <nd ref="1078822490"/>
    <nd ref="1078822405"/>
    <nd ref="1078822415"/>
    <nd ref="1078822497"/>
    <nd ref="1078822456"/>
    <tag k="highway" v="footway"/>
  </way>
  <way id="93074567" version="2" timestamp="2011-11-27T10:55:48Z" uid="173844" user="Antikalk" changeset="9965127">
    <nd ref="1078822435"/>
    <nd ref="1519317719"/>
    <nd ref="1078822421"/>
    <nd ref="1078822514"/>
    <nd ref="1078822490"/>
    <nd ref="1078822405"/>
    <nd ref="1078822415"/>
    <nd ref="1078822497"/>
    <nd ref="1519317721"/>
    <nd ref="1078822456"/>
    <tag k="highway" v="footway"/>
  </way>
  <way id="93074567" version="3" timestamp="2011-12-23T15:57:01Z" uid="173844" user="Antikalk" changeset="10188011"/>
  <way id="93074568" version="1" timestamp="2011-01-02T15:26:43Z" uid="151899" user="Bikeman2000" changeset="6839422">
    <nd ref="1078822431"/>
    <nd ref="1078822474"/>
    <nd ref="1078822437"/>
    <nd ref="1078822383"/>
    <nd ref="1078822398"/>
    <nd ref="1078822404"/>
    <nd ref="1078822400"/>
    <nd ref="1078822451"/>
    <nd ref="1078822412"/>
    <nd ref="1078822365"/>
    <nd ref="1078822439"/>
    <nd ref="1078822381"/>
    <nd ref="1078822478"/>
    <nd ref="1078822480"/>
    <nd ref="1078822479"/>
    <nd ref="1078822431"/>
    <tag k="leisure" v="garden"/>
  </way>
  <way id="93074568" version="2" timestamp="2011-11-27T10:55:49Z" uid="173844" user="Antikalk" changeset="9965127">
    <nd ref="1078822431"/>
    <nd ref="1078822474"/>
    <nd ref="1078822437"/>
    <nd ref="1078822383"/>
    <nd ref="1078822398"/>
    <nd ref="1078822404"/>
    <nd ref="1078822400"/>
    <nd ref="1078822451"/>
    <nd ref="1078822412"/>
    <nd ref="1078822365"/>
    <nd ref="1078822439"/>
    <nd ref="1078822381"/>
    <nd ref="1078822478"/>
    <nd ref="1078822480"/>
    <nd ref="1078822479"/>
    <nd ref="1519317719"/>
    <nd ref="1519317721"/>
    <nd ref="1078822431"/>
    <tag k="leisure" v="garden"/>
  </way>
  <way id="93074568" version="3" timestamp="2011-12-23T15:57:08Z" uid="173844" user="Antikalk" changeset="10188011"/>
  <way id="93074570" version="1" timestamp="2011-01-02T15:26:44Z" uid="151899" user="Bikeman2000" changeset="6839422">
    <nd ref="1078822395"/>
    <nd ref="1078822477"/>
    <nd ref="1078822385"/>
    <nd ref="1078822389"/>
    <nd ref="1078822458"/>
    <tag k="access" v="private"/>
    <tag k="highway" v="service"/>
  </way>
  <way id="93074570" version="2" timestamp="2011-12-23T15:57:02Z" uid="173844" user="Antikalk" changeset="10188011"/>
  <way id="93074572" version="1" timestamp="2011-01-02T15:26:44Z" uid="151899" user="Bikeman2000" changeset="6839422">
    <nd ref="1078822473"/>
    <nd ref="1078822401"/>
    <nd ref="1078822367"/>
    <nd ref="1078822453"/>
    <nd ref="457019267"/>
    <tag k="highway" v="footway"/>
  </way>
  <way id="93074572" version="2" timestamp="2011-12-23T15:57:02Z" uid="173844" user="Antikalk" changeset="10188011"/>
  <way id="93074574" version="1" timestamp="2011-01-02T15:26:44Z" uid="151899" user="Bikeman2000" changeset="6839422">
    <nd ref="1078822365"/>
    <nd ref="1078822412"/>
    <nd ref="1078822481"/>
    <nd ref="1078822388"/>
    <nd ref="1078822460"/>
    <nd ref="1078822439"/>
    <nd ref="1078822365"/>
    <tag k="building" v="yes"/>
  </way>
  <way id="93074574" version="2" timestamp="2011-07-23T14:20:04Z" uid="19602" user="PL61" changeset="8806749">
    <nd ref="1078822365"/>
    <nd ref="1078822412"/>
    <nd ref="1078822481"/>
    <nd ref="1078822388"/>
    <nd ref="1078822460"/>
    <nd ref="1078822439"/>
    <nd ref="1078822365"/>
    <tag k="addr:housenumber" v="50"/>
    <tag k="building" v="yes"/>
  </way>
  <way id="93074574" version="3" timestamp="2011-11-27T10:55:41Z" uid="173844" user="Antikalk" changeset="9965127">
    <nd ref="1078822365"/>
    <nd ref="1078822412"/>
    <nd ref="1078822481"/>
    <nd ref="1519317723"/>
    <nd ref="1078822388"/>
    <nd ref="1078822460"/>
    <nd ref="1078822439"/>
    <nd ref="1078822365"/>
    <tag k="addr:city" v="Duesseldorf"/>
    <tag k="addr:country" v="DE"/>
    <tag k="addr:housenumber" v="50"/>
    <tag k="addr:postcode" v="40545"/>
    <tag k="addr:street" v="Niederkasseler Kirchweg"/>
    <tag k="building" v="yes"/>
    <tag k="source" v="Bing Sat"/>
  </way>
  <way id="93074574" version="4" timestamp="2011-11-28T02:21:27Z" uid="173844" user="Antikalk" changeset="9973944">
    <nd ref="1078822365"/>
    <nd ref="1078822412"/>
    <nd ref="1078822481"/>
    <nd ref="1519317723"/>
    <nd ref="1078822388"/>
    <nd ref="1078822460"/>
    <nd ref="1078822439"/>
    <nd ref="1078822365"/>
    <tag k="addr:city" v="Duesseldorf"/>
    <tag k="addr:country" v="DE"/>
    <tag k="addr:housenumber" v="50"/>
    <tag k="addr:postcode" v="40547"/>
    <tag k="addr:street" v="Niederkasseler Kirchweg"/>
    <tag k="building" v="yes"/>
    <tag k="source" v="Bing Sat"/>
  </way>
  <way id="93074574" version="5" timestamp="2011-12-10T20:22:23Z" uid="173844" user="Antikalk" changeset="10084537">
    <nd ref="1078822365"/>
    <nd ref="1078822412"/>
    <nd ref="1078822481"/>
    <nd ref="1519317723"/>
    <nd ref="1078822388"/>
    <nd ref="1078822460"/>
    <nd ref="1078822439"/>
    <nd ref="1078822365"/>
    <tag k="addr:city" v="Düsseldorf"/>
    <tag k="addr:country" v="DE"/>
    <tag k="addr:housenumber" v="50"/>
    <tag k="addr:postcode" v="40547"/>
    <tag k="addr:street" v="Niederkasseler Kirchweg"/>
    <tag k="building" v="yes"/>
    <tag k="source" v="Bing Sat"/>
  </way>
  <way id="93074574" version="6" timestamp="2011-12-23T15:56:51Z" uid="173844" user="Antikalk" changeset="10188011"/>
  <way id="93074576" version="1" timestamp="2011-01-02T15:26:45Z" uid="151899" user="Bikeman2000" changeset="6839422">
    <nd ref="1078822475"/>
    <nd ref="1078822406"/>
    <nd ref="1078822505"/>
    <nd ref="1078822492"/>
    <nd ref="1078822473"/>
    <nd ref="1078822475"/>
    <tag k="amenity" v="parking"/>
  </way>
  <way id="93074576" version="2" timestamp="2011-01-08T20:09:42Z" uid="151899" user="Bikeman2000" changeset="6908256">
    <nd ref="1078822475"/>
    <nd ref="1078822406"/>
    <nd ref="1078822505"/>
    <nd ref="1078822492"/>
    <nd ref="1078822473"/>
    <nd ref="1092198097"/>
    <nd ref="1078822475"/>
    <tag k="amenity" v="parking"/>
  </way>
  <way id="93074576" version="3" timestamp="2011-12-23T15:57:08Z" uid="173844" user="Antikalk" changeset="10188011"/>
  <way id="93074579" version="1" timestamp="2011-01-02T15:26:45Z" uid="151899" user="Bikeman2000" changeset="6839422">
    <nd ref="1078822404"/>
    <nd ref="1078822400"/>
    <nd ref="1078822451"/>
    <nd ref="1078822455"/>
    <nd ref="1078822472"/>
    <nd ref="1078822414"/>
    <nd ref="1078822404"/>
    <tag k="building" v="yes"/>
  </way>
  <way id="93074579" version="2" timestamp="2011-07-23T14:20:04Z" uid="19602" user="PL61" changeset="8806749">
    <nd ref="1078822404"/>
    <nd ref="1078822400"/>
    <nd ref="1078822451"/>
    <nd ref="1078822455"/>
    <nd ref="1078822472"/>
    <nd ref="1078822414"/>
    <nd ref="1078822404"/>
    <tag k="addr:housenumber" v="54"/>
    <tag k="building" v="yes"/>
  </way>
  <way id="93074579" version="3" timestamp="2011-11-27T10:55:42Z" uid="173844" user="Antikalk" changeset="9965127">
    <nd ref="1078822404"/>
    <nd ref="1078822400"/>
    <nd ref="1078822451"/>
    <nd ref="1078822455"/>
    <nd ref="1519317728"/>
    <nd ref="1078822472"/>
    <nd ref="1078822414"/>
    <nd ref="1078822404"/>
    <tag k="addr:city" v="Duesseldorf"/>
    <tag k="addr:country" v="DE"/>
    <tag k="addr:housenumber" v="54"/>
    <tag k="addr:postcode" v="40545"/>
    <tag k="addr:street" v="Niederkasseler Kirchweg"/>
    <tag k="building" v="yes"/>
    <tag k="source" v="Bing Sat"/>
  </way>
  <way id="93074579" version="4" timestamp="2011-11-28T02:21:32Z" uid="173844" user="Antikalk" changeset="9973944">
    <nd ref="1078822404"/>
    <nd ref="1078822400"/>
    <nd ref="1078822451"/>
    <nd ref="1078822455"/>
    <nd ref="1519317728"/>
    <nd ref="1078822472"/>
    <nd ref="1078822414"/>
    <nd ref="1078822404"/>
    <tag k="addr:city" v="Duesseldorf"/>
    <tag k="addr:country" v="DE"/>
    <tag k="addr:housenumber" v="54"/>
    <tag k="addr:postcode" v="40547"/>
    <tag k="addr:street" v="Niederkasseler Kirchweg"/>
    <tag k="building" v="yes"/>
    <tag k="source" v="Bing Sat"/>
  </way>
  <way id="93074579" version="5" timestamp="2011-12-10T20:22:24Z" uid="173844" user="Antikalk" changeset="10084537">
    <nd ref="1078822404"/>
    <nd ref="1078822400"/>
    <nd ref="1078822451"/>
    <nd ref="1078822455"/>
    <nd ref="1519317728"/>
    <nd ref="1078822472"/>
    <nd ref="1078822414"/>
    <nd ref="1078822404"/>
    <tag k="addr:city" v="Düsseldorf"/>
    <tag k="addr:country" v="DE"/>
    <tag k="addr:housenumber" v="54"/>
    <tag k="addr:postcode" v="40547"/>
    <tag k="addr:street" v="Niederkasseler Kirchweg"/>
    <tag k="building" v="yes"/>
    <tag k="source" v="Bing Sat"/>
  </way>
  <way id="93074579" version="6" timestamp="2011-12-23T15:56:51Z" uid="173844" user="Antikalk" changeset="10188011"/>
  <way id="93074605" version="1" timestamp="2011-01-02T15:28:18Z" uid="151899" user="Bikeman2000" changeset="6839438">
    <nd ref="1078825410"/>
    <nd ref="1078825399"/>
    <nd ref="1078825385"/>
    <nd ref="1078825418"/>
    <nd ref="1078825378"/>
    <nd ref="1078825407"/>
    <nd ref="1078825436"/>
    <nd ref="1078825403"/>
    <nd ref="1078825427"/>
    <nd ref="1078825410"/>
    <tag k="leisure" v="garden"/>
  </way>
  <way id="93074605" version="2" timestamp="2011-01-08T20:09:42Z" uid="151899" user="Bikeman2000" changeset="6908256">
    <nd ref="1078825410"/>
    <nd ref="1078825399"/>
    <nd ref="1078825385"/>
    <nd ref="1078825418"/>
    <nd ref="1078825378"/>
    <nd ref="1078825407"/>
    <nd ref="1078825436"/>
    <nd ref="1078825403"/>
    <nd ref="1078811780"/>
    <nd ref="1078811866"/>
    <nd ref="1078825410"/>
    <tag k="leisure" v="garden"/>
  </way>
  <way id="93074605" version="3" timestamp="2011-11-27T10:55:50Z" uid="173844" user="Antikalk" changeset="9965127">
    <nd ref="1078825410"/>
    <nd ref="1078825399"/>
    <nd ref="1078825385"/>
    <nd ref="1078825418"/>
    <nd ref="1078825378"/>
    <nd ref="1078825407"/>
    <nd ref="1078825436"/>
    <nd ref="1519317736"/>
    <nd ref="1519317735"/>
    <nd ref="1519317733"/>
    <nd ref="1078825403"/>
    <nd ref="1078811780"/>
    <nd ref="1078811866"/>
    <nd ref="1078825410"/>
    <tag k="leisure" v="garden"/>
  </way>
  <way id="93074605" version="4" timestamp="2011-12-23T15:57:08Z" uid="173844" user="Antikalk" changeset="10188011"/>
  <way id="93074606" version="1" timestamp="2011-01-02T15:28:19Z" uid="151899" user="Bikeman2000" changeset="6839438">
    <nd ref="1078825381"/>
    <nd ref="1078825387"/>
    <nd ref="1078825434"/>
    <nd ref="1078825397"/>
    <nd ref="1078825431"/>
    <nd ref="1078825421"/>
    <nd ref="1078825389"/>
    <nd ref="1078825393"/>
    <nd ref="1078825391"/>
    <nd ref="1078825405"/>
    <nd ref="1078825429"/>
    <nd ref="1078825383"/>
    <nd ref="1078825413"/>
    <nd ref="1078825416"/>
    <nd ref="1078825420"/>
    <nd ref="1078825381"/>
    <tag k="leisure" v="playground"/>
  </way>
  <way id="93074606" version="2" timestamp="2011-12-23T15:57:09Z" uid="173844" user="Antikalk" changeset="10188011"/>
  <way id="93074998" version="1" timestamp="2011-01-02T15:29:24Z" uid="151899" user="Bikeman2000" changeset="6839450">
    <nd ref="1078827302"/>
    <nd ref="1078827311"/>
    <nd ref="1078827329"/>
    <nd ref="1078827306"/>
    <tag k="highway" v="footway"/>
  </way>
  <way id="93074998" version="2" timestamp="2011-11-04T20:50:33Z" uid="161619" user="FvGordon" changeset="9741919">
    <nd ref="1078827302"/>
    <nd ref="1078827329"/>
    <nd ref="1078827306"/>
    <tag k="highway" v="footway"/>
  </way>
  <way id="93074998" version="3" timestamp="2011-12-10T20:23:01Z" uid="173844" user="Antikalk" changeset="10084537"/>
  <way id="93074999" version="1" timestamp="2011-01-02T15:29:24Z" uid="151899" user="Bikeman2000" changeset="6839450">
    <nd ref="1078827308"/>
    <nd ref="1078827304"/>
    <nd ref="1078827326"/>
    <nd ref="1078827300"/>
    <nd ref="1078827327"/>
    <nd ref="1078827308"/>
    <tag k="landuse" v="village_green"/>
  </way>
  <way id="93074999" version="2" timestamp="2011-01-03T12:36:03Z" uid="151899" user="Bikeman2000" changeset="6849108">
    <nd ref="1078827308"/>
    <nd ref="1080455059"/>
    <nd ref="1080455085"/>
    <nd ref="1078827304"/>
    <nd ref="1078827326"/>
    <nd ref="1078827300"/>
    <nd ref="1078827327"/>
    <nd ref="1078827308"/>
    <tag k="landuse" v="village_green"/>
  </way>
  <way id="93074999" version="3" timestamp="2011-11-27T10:55:46Z" uid="173844" user="Antikalk" changeset="9965127">
    <nd ref="1078827308"/>
    <nd ref="1080455059"/>
    <nd ref="1080455085"/>
    <nd ref="1078827304"/>
    <nd ref="1078827326"/>
    <nd ref="1519317731"/>
    <nd ref="1519317730"/>
    <nd ref="1078827300"/>
    <nd ref="1078827327"/>
    <nd ref="1078827308"/>
    <tag k="landuse" v="village_green"/>
  </way>
  <way id="93074999" version="4" timestamp="2011-12-23T15:56:57Z" uid="173844" user="Antikalk" changeset="10188011"/>
</osm>
