<?xml version='1.0' encoding='UTF-8'?>
<osm version="0.6" generator="libosmium/2.20.0">
  <way id="9317029" version="4" timestamp="2010-07-09T18:20:46Z" uid="74617" user="JohnSmith" changeset="5175333">
    <nd ref="60168243"/>
    <nd ref="732186654"/>
    <nd ref="732186648"/>
    <nd ref="419645926"/>
    <tag k="highway" v="residential"/>
    <tag k="maxspeed" v="50"/>
    <tag k="maxspeed:source" v="default residential speed limit in Australia"/>
    <tag k="name" v="Richardson Street"/>
  </way>
  <way id="9317029" version="5" timestamp="2012-01-15T08:27:41Z" uid="147510" user="woodpeck_fixbot" changeset="10395278">
    <nd ref="60168243"/>
    <nd ref="732186654"/>
    <nd ref="732186648"/>
    <nd ref="419645926"/>
    <tag k="highway" v="residential"/>
    <tag k="name" v="Richardson Street"/>
  </way>
  <way id="9317030" version="2" timestamp="2010-07-09T18:15:08Z" uid="74617" user="JohnSmith" changeset="5175333">
    <nd ref="60168239"/>
    <nd ref="70251969"/>
    <tag k="highway" v="residential"/>
    <tag k="maxspeed" v="50"/>
    <tag k="maxspeed:source" v="default residential speed limit in Australia"/>
    <tag k="name" v="Charles Street"/>
  </way>
  <way id="9317030" version="3" timestamp="2012-01-15T08:27:42Z" uid="147510" user="woodpeck_fixbot" changeset="10395278">
    <nd ref="60168239"/>
    <nd ref="70251969"/>
    <tag k="highway" v="residential"/>
    <tag k="name" v="Charles Street"/>
  </way>
  <way id="9317032" version="2" timestamp="2010-07-09T18:15:33Z" uid="74617" user="JohnSmith" changeset="5175333">
    <nd ref="60168232"/>
    <nd ref="70251998"/>
    <tag k="highway" v="residential"/>
    <tag k="maxspeed" v="50"/>
    <tag k="maxspeed:source" v="default residential speed limit in Australia"/>
    <tag k="name" v="Lyall Street"/>
  </way>
  <way id="9317032" version="3" timestamp="2012-01-15T08:27:43Z" uid="147510" user="woodpeck_fixbot" changeset="10395278">
    <nd ref="60168232"/>
    <nd ref="70251998"/>
    <tag k="highway" v="residential"/>
    <tag k="name" v="Lyall Street"/>
  </way>
  <way id="9317034" version="3" timestamp="2010-07-09T18:18:42Z" uid="74617" user="JohnSmith" changeset="5175333">
    <nd ref="60168236"/>
    <nd ref="70252024"/>
    <tag k="highway" v="residential"/>
    <tag k="maxspeed" v="50"/>
    <tag k="maxspeed:source" v="default residential speed limit in Australia"/>
    <tag k="name" v="Hardy Street"/>
  </way>
  <way id="9317034" version="4" timestamp="2012-01-15T08:27:45Z" uid="147510" user="woodpeck_fixbot" changeset="10395278">
    <nd ref="60168236"/>
    <nd ref="70252024"/>
    <tag k="highway" v="residential"/>
    <tag k="name" v="Hardy Street"/>
  </way>
  <way id="9317036" version="2" timestamp="2010-07-09T18:13:54Z" uid="74617" user="JohnSmith" changeset="5175333">
    <nd ref="60168222"/>
    <nd ref="70252049"/>
    <tag k="highway" v="residential"/>
    <tag k="maxspeed" v="50"/>
    <tag k="maxspeed:source" v="default residential speed limit in Australia"/>
    <tag k="name" v="Bowman Street"/>
  </way>
  <way id="9317036" version="3" timestamp="2012-01-15T08:27:46Z" uid="147510" user="woodpeck_fixbot" changeset="10395278">
    <nd ref="60168222"/>
    <nd ref="70252049"/>
    <tag k="highway" v="residential"/>
    <tag k="name" v="Bowman Street"/>
  </way>
  <way id="9317038" version="5" timestamp="2010-07-09T18:17:42Z" uid="74617" user="JohnSmith" changeset="5175333">
    <nd ref="569912045"/>
    <nd ref="569912046"/>
    <nd ref="70252057"/>
    <nd ref="70252067"/>
    <nd ref="70252078"/>
    <nd ref="569912047"/>
    <nd ref="70252049"/>
    <nd ref="70251998"/>
    <nd ref="70252024"/>
    <nd ref="732186714"/>
    <tag k="highway" v="residential"/>
    <tag k="maxspeed" v="50"/>
    <tag k="maxspeed:source" v="default residential speed limit in Australia"/>
    <tag k="name" v="Melville Parade"/>
    <tag k="source" v="nearmap"/>
  </way>
  <way id="9317038" version="6" timestamp="2012-01-15T08:27:48Z" uid="147510" user="woodpeck_fixbot" changeset="10395278">
    <nd ref="569912045"/>
    <nd ref="569912046"/>
    <nd ref="70252057"/>
    <nd ref="70252067"/>
    <nd ref="70252078"/>
    <nd ref="569912047"/>
    <nd ref="70252049"/>
    <nd ref="70251998"/>
    <nd ref="70252024"/>
    <nd ref="732186714"/>
    <tag k="highway" v="residential"/>
    <tag k="name" v="Melville Parade"/>
    <tag k="source" v="nearmap"/>
  </way>
  <way id="9317045" version="2" timestamp="2010-06-11T01:52:23Z" uid="4467" user="Rosscoe" changeset="4959360">
    <nd ref="70252312"/>
    <nd ref="768959230"/>
    <nd ref="70252279"/>
    <nd ref="768959271"/>
    <nd ref="70252295"/>
    <nd ref="768959055"/>
    <nd ref="70188831"/>
    <nd ref="768959251"/>
    <nd ref="70252312"/>
    <tag k="highway" v="tertiary"/>
    <tag k="junction" v="roundabout"/>
    <tag k="source" v="nearmap"/>
  </way>
  <way id="9317050" version="2" timestamp="2010-06-11T01:12:24Z" uid="4467" user="Rosscoe" changeset="4959333">
    <nd ref="70252279"/>
    <nd ref="70252331"/>
    <nd ref="70252360"/>
    <nd ref="768959279"/>
    <nd ref="768959285"/>
    <nd ref="768959064"/>
    <nd ref="70252377"/>
    <nd ref="768959260"/>
    <tag k="highway" v="tertiary"/>
    <tag k="name" v="Hensman Street"/>
  </way>
  <way id="9317050" version="3" timestamp="2010-06-11T01:35:03Z" uid="4467" user="Rosscoe" changeset="4959360">
    <nd ref="70252279"/>
    <nd ref="70252331"/>
    <nd ref="70252360"/>
    <nd ref="768959279"/>
    <nd ref="768959285"/>
    <nd ref="768959064"/>
    <nd ref="70252377"/>
    <nd ref="768959260"/>
    <tag k="highway" v="tertiary"/>
    <tag k="name" v="Hensman Street"/>
  </way>
  <way id="9317050" version="4" timestamp="2010-06-11T01:50:57Z" uid="4467" user="Rosscoe" changeset="4959360">
    <nd ref="70252279"/>
    <nd ref="70252331"/>
    <nd ref="70252360"/>
    <nd ref="768959279"/>
    <nd ref="768959285"/>
    <nd ref="768959064"/>
    <nd ref="70252377"/>
    <nd ref="768959260"/>
    <tag k="highway" v="tertiary"/>
    <tag k="name" v="Hensman Street"/>
  </way>
  <way id="9317059" version="3" timestamp="2010-04-23T06:39:38Z" uid="4467" user="Rosscoe" changeset="4500929">
    <nd ref="704298757"/>
    <nd ref="704298758"/>
    <nd ref="70252715"/>
    <nd ref="367718246"/>
    <nd ref="70252496"/>
    <nd ref="70252737"/>
    <tag k="highway" v="tertiary"/>
    <tag k="name" v="David Street"/>
  </way>
  <way id="9317059" version="4" timestamp="2010-06-02T07:25:11Z" uid="4467" user="Rosscoe" changeset="4881471">
    <nd ref="704298757"/>
    <nd ref="704298758"/>
    <nd ref="70252715"/>
    <nd ref="761957199"/>
    <nd ref="367718246"/>
    <nd ref="761958069"/>
    <nd ref="70252496"/>
    <nd ref="761957244"/>
    <nd ref="70252737"/>
    <tag k="highway" v="tertiary"/>
    <tag k="name" v="David Street"/>
  </way>
  <way id="9317062" version="4" timestamp="2010-06-02T07:24:47Z" uid="4467" user="Rosscoe" changeset="4881471">
    <nd ref="70252754"/>
    <nd ref="70252715"/>
    <nd ref="70252786"/>
    <nd ref="70252810"/>
    <nd ref="70252832"/>
    <nd ref="70252862"/>
    <nd ref="761957166"/>
    <nd ref="70252887"/>
    <tag k="highway" v="residential"/>
    <tag k="name" v="Mabel Street"/>
    <tag k="source" v="yahoo"/>
  </way>
  <way id="9317062" version="5" timestamp="2010-07-09T18:17:49Z" uid="74617" user="JohnSmith" changeset="5175333">
    <nd ref="70252754"/>
    <nd ref="70252715"/>
    <nd ref="70252786"/>
    <nd ref="70252810"/>
    <nd ref="70252832"/>
    <nd ref="70252862"/>
    <nd ref="761957166"/>
    <nd ref="70252887"/>
    <tag k="highway" v="residential"/>
    <tag k="maxspeed" v="50"/>
    <tag k="maxspeed:source" v="default residential speed limit in Australia"/>
    <tag k="name" v="Mabel Street"/>
    <tag k="source" v="yahoo"/>
  </way>
  <way id="9317062" version="6" timestamp="2012-01-15T08:27:50Z" uid="147510" user="woodpeck_fixbot" changeset="10395278">
    <nd ref="70252754"/>
    <nd ref="70252715"/>
    <nd ref="70252786"/>
    <nd ref="70252810"/>
    <nd ref="70252832"/>
    <nd ref="70252862"/>
    <nd ref="761957166"/>
    <nd ref="70252887"/>
    <tag k="highway" v="residential"/>
    <tag k="name" v="Mabel Street"/>
    <tag k="source" v="yahoo"/>
  </way>
  <way id="9317067" version="3" timestamp="2010-07-09T18:15:03Z" uid="74617" user="JohnSmith" changeset="5175333">
    <nd ref="70252947"/>
    <nd ref="70253096"/>
    <nd ref="70253120"/>
    <nd ref="70253145"/>
    <nd ref="70189116"/>
    <tag k="highway" v="residential"/>
    <tag k="maxspeed" v="50"/>
    <tag k="maxspeed:source" v="default residential speed limit in Australia"/>
    <tag k="name" v="Elizabeth Street"/>
  </way>
  <way id="9317067" version="4" timestamp="2012-01-15T08:27:53Z" uid="147510" user="woodpeck_fixbot" changeset="10395278">
    <nd ref="70252947"/>
    <nd ref="70253096"/>
    <nd ref="70253120"/>
    <nd ref="70253145"/>
    <nd ref="70189116"/>
    <tag k="highway" v="residential"/>
    <tag k="name" v="Elizabeth Street"/>
  </way>
  <way id="9317069" version="2" timestamp="2010-07-09T18:18:30Z" uid="74617" user="JohnSmith" changeset="5175333">
    <nd ref="70253009"/>
    <nd ref="70253206"/>
    <nd ref="70253229"/>
    <nd ref="70253250"/>
    <nd ref="70253145"/>
    <tag k="highway" v="residential"/>
    <tag k="maxspeed" v="50"/>
    <tag k="maxspeed:source" v="default residential speed limit in Australia"/>
    <tag k="name" v="Milson Street"/>
  </way>
  <way id="9317069" version="3" timestamp="2012-01-15T08:27:54Z" uid="147510" user="woodpeck_fixbot" changeset="10395278">
    <nd ref="70253009"/>
    <nd ref="70253206"/>
    <nd ref="70253229"/>
    <nd ref="70253250"/>
    <nd ref="70253145"/>
    <tag k="highway" v="residential"/>
    <tag k="name" v="Milson Street"/>
  </way>
  <way id="9317070" version="2" timestamp="2010-07-09T18:19:50Z" uid="74617" user="JohnSmith" changeset="5175333">
    <nd ref="70252331"/>
    <nd ref="70253206"/>
    <nd ref="70253096"/>
    <tag k="highway" v="residential"/>
    <tag k="maxspeed" v="50"/>
    <tag k="maxspeed:source" v="default residential speed limit in Australia"/>
    <tag k="name" v="High Street"/>
  </way>
  <way id="9317070" version="3" timestamp="2012-01-15T08:27:56Z" uid="147510" user="woodpeck_fixbot" changeset="10395278">
    <nd ref="70252331"/>
    <nd ref="70253206"/>
    <nd ref="70253096"/>
    <tag k="highway" v="residential"/>
    <tag k="name" v="High Street"/>
  </way>
  <way id="9317071" version="3" timestamp="2010-04-19T12:06:42Z" uid="4467" user="Rosscoe" changeset="4467241">
    <nd ref="70252360"/>
    <nd ref="70253229"/>
    <nd ref="70253120"/>
    <nd ref="70253269"/>
    <nd ref="701825028"/>
    <tag k="highway" v="residential"/>
    <tag k="name" v="Addison Street"/>
  </way>
  <way id="9317071" version="4" timestamp="2010-07-09T18:13:32Z" uid="74617" user="JohnSmith" changeset="5175333">
    <nd ref="70252360"/>
    <nd ref="70253229"/>
    <nd ref="70253120"/>
    <nd ref="70253269"/>
    <nd ref="701825028"/>
    <tag k="highway" v="residential"/>
    <tag k="maxspeed" v="50"/>
    <tag k="maxspeed:source" v="default residential speed limit in Australia"/>
    <tag k="name" v="Addison Street"/>
  </way>
  <way id="9317071" version="5" timestamp="2012-01-15T08:27:58Z" uid="147510" user="woodpeck_fixbot" changeset="10395278">
    <nd ref="70252360"/>
    <nd ref="70253229"/>
    <nd ref="70253120"/>
    <nd ref="70253269"/>
    <nd ref="701825028"/>
    <tag k="highway" v="residential"/>
    <tag k="name" v="Addison Street"/>
  </way>
  <way id="9317073" version="2" timestamp="2010-07-09T18:19:59Z" uid="74617" user="JohnSmith" changeset="5175333">
    <nd ref="70252920"/>
    <nd ref="70253269"/>
    <nd ref="70253312"/>
    <nd ref="70253335"/>
    <nd ref="70189075"/>
    <tag k="highway" v="residential"/>
    <tag k="maxspeed" v="50"/>
    <tag k="maxspeed:source" v="default residential speed limit in Australia"/>
    <tag k="name" v="Hampden Street"/>
  </way>
  <way id="9317073" version="3" timestamp="2012-01-15T08:27:59Z" uid="147510" user="woodpeck_fixbot" changeset="10395278">
    <nd ref="70252920"/>
    <nd ref="70253269"/>
    <nd ref="70253312"/>
    <nd ref="70253335"/>
    <nd ref="70189075"/>
    <tag k="highway" v="residential"/>
    <tag k="name" v="Hampden Street"/>
  </way>
  <way id="9317075" version="2" timestamp="2010-07-09T18:16:06Z" uid="74617" user="JohnSmith" changeset="5175333">
    <nd ref="70252977"/>
    <nd ref="70253366"/>
    <nd ref="70253395"/>
    <nd ref="70253417"/>
    <tag k="highway" v="residential"/>
    <tag k="maxspeed" v="50"/>
    <tag k="maxspeed:source" v="default residential speed limit in Australia"/>
    <tag k="name" v="Carr Street"/>
  </way>
  <way id="9317075" version="3" timestamp="2012-01-15T08:28:00Z" uid="147510" user="woodpeck_fixbot" changeset="10395278">
    <nd ref="70252977"/>
    <nd ref="70253366"/>
    <nd ref="70253395"/>
    <nd ref="70253417"/>
    <tag k="highway" v="residential"/>
    <tag k="name" v="Carr Street"/>
  </way>
  <way id="9317077" version="2" timestamp="2010-07-09T18:18:59Z" uid="74617" user="JohnSmith" changeset="5175333">
    <nd ref="70253366"/>
    <nd ref="70188881"/>
    <tag k="highway" v="residential"/>
    <tag k="maxspeed" v="50"/>
    <tag k="maxspeed:source" v="default residential speed limit in Australia"/>
    <tag k="name" v="Wattle Street"/>
  </way>
  <way id="9317077" version="3" timestamp="2012-01-15T08:28:02Z" uid="147510" user="woodpeck_fixbot" changeset="10395278">
    <nd ref="70253366"/>
    <nd ref="70188881"/>
    <tag k="highway" v="residential"/>
    <tag k="name" v="Wattle Street"/>
  </way>
  <way id="9317081" version="5" timestamp="2010-04-16T15:29:31Z" uid="4467" user="Rosscoe" changeset="4439633">
    <nd ref="25608835"/>
    <nd ref="25608837"/>
    <nd ref="25608987"/>
    <nd ref="25608985"/>
    <nd ref="25608989"/>
    <nd ref="70253439"/>
    <nd ref="698790257"/>
    <tag k="highway" v="residential"/>
    <tag k="name" v="Comer Street"/>
  </way>
  <way id="9317081" version="6" timestamp="2010-07-09T18:14:42Z" uid="74617" user="JohnSmith" changeset="5175333">
    <nd ref="25608835"/>
    <nd ref="25608837"/>
    <nd ref="25608987"/>
    <nd ref="25608985"/>
    <nd ref="25608989"/>
    <nd ref="70253439"/>
    <nd ref="698790257"/>
    <tag k="highway" v="residential"/>
    <tag k="maxspeed" v="50"/>
    <tag k="maxspeed:source" v="default residential speed limit in Australia"/>
    <tag k="name" v="Comer Street"/>
  </way>
  <way id="9317081" version="7" timestamp="2012-01-15T08:28:04Z" uid="147510" user="woodpeck_fixbot" changeset="10395278">
    <nd ref="25608835"/>
    <nd ref="25608837"/>
    <nd ref="25608987"/>
    <nd ref="25608985"/>
    <nd ref="25608989"/>
    <nd ref="70253439"/>
    <nd ref="698790257"/>
    <tag k="highway" v="residential"/>
    <tag k="name" v="Comer Street"/>
  </way>
  <way id="9317083" version="2" timestamp="2010-07-09T18:18:11Z" uid="74617" user="JohnSmith" changeset="5175333">
    <nd ref="70189162"/>
    <nd ref="70253469"/>
    <nd ref="70253495"/>
    <tag k="highway" v="residential"/>
    <tag k="maxspeed" v="50"/>
    <tag k="maxspeed:source" v="default residential speed limit in Australia"/>
    <tag k="name" v="Swan Street"/>
  </way>
  <way id="9317083" version="3" timestamp="2012-01-15T08:28:05Z" uid="147510" user="woodpeck_fixbot" changeset="10395278">
    <nd ref="70189162"/>
    <nd ref="70253469"/>
    <nd ref="70253495"/>
    <tag k="highway" v="residential"/>
    <tag k="name" v="Swan Street"/>
  </way>
  <way id="9317087" version="2" timestamp="2010-07-09T18:17:15Z" uid="74617" user="JohnSmith" changeset="5175333">
    <nd ref="60168270"/>
    <nd ref="70253495"/>
    <tag k="highway" v="residential"/>
    <tag k="maxspeed" v="50"/>
    <tag k="maxspeed:source" v="default residential speed limit in Australia"/>
    <tag k="name" v="Leane Street"/>
  </way>
  <way id="9317087" version="3" timestamp="2012-01-15T08:28:06Z" uid="147510" user="woodpeck_fixbot" changeset="10395278">
    <nd ref="60168270"/>
    <nd ref="70253495"/>
    <tag k="highway" v="residential"/>
    <tag k="name" v="Leane Street"/>
  </way>
  <way id="9317091" version="3" timestamp="2010-04-19T12:06:41Z" uid="4467" user="Rosscoe" changeset="4467241">
    <nd ref="70189137"/>
    <nd ref="70253581"/>
    <nd ref="701825023"/>
    <tag k="highway" v="residential"/>
    <tag k="name" v="Anthony Street"/>
  </way>
  <way id="9317091" version="4" timestamp="2010-07-09T18:14:16Z" uid="74617" user="JohnSmith" changeset="5175333">
    <nd ref="70189137"/>
    <nd ref="70253581"/>
    <nd ref="701825023"/>
    <tag k="highway" v="residential"/>
    <tag k="maxspeed" v="50"/>
    <tag k="maxspeed:source" v="default residential speed limit in Australia"/>
    <tag k="name" v="Anthony Street"/>
  </way>
  <way id="9317091" version="5" timestamp="2012-01-15T08:28:07Z" uid="147510" user="woodpeck_fixbot" changeset="10395278">
    <nd ref="70189137"/>
    <nd ref="70253581"/>
    <nd ref="701825023"/>
    <tag k="highway" v="residential"/>
    <tag k="name" v="Anthony Street"/>
  </way>
  <way id="9317323" version="5" timestamp="2009-12-28T05:45:30Z" uid="7617" user="Franc" changeset="3468830">
    <nd ref="70257498"/>
    <nd ref="600241982"/>
    <nd ref="600241983"/>
    <nd ref="158180292"/>
    <nd ref="70251504"/>
    <tag k="highway" v="residential"/>
    <tag k="name" v="Potter Street"/>
  </way>
  <way id="9317323" version="6" timestamp="2010-07-08T01:34:15Z" uid="74617" user="JohnSmith" changeset="5162525">
    <nd ref="70257498"/>
    <nd ref="600241982"/>
    <nd ref="600241983"/>
    <nd ref="158180292"/>
    <nd ref="70251504"/>
    <tag k="highway" v="residential"/>
    <tag k="maxspeed" v="50"/>
    <tag k="maxspeed:source" v="default residential speed limit in Australia"/>
    <tag k="name" v="Potter Street"/>
  </way>
  <way id="9317323" version="7" timestamp="2012-01-15T08:28:08Z" uid="147510" user="woodpeck_fixbot" changeset="10395278">
    <nd ref="70257498"/>
    <nd ref="600241982"/>
    <nd ref="600241983"/>
    <nd ref="158180292"/>
    <nd ref="70251504"/>
    <tag k="highway" v="residential"/>
    <tag k="name" v="Potter Street"/>
  </way>
  <way id="9317045" version="3" timestamp="2012-07-19T12:38:29Z" uid="722137" user="OSMF Redaction Account" changeset="12325642">
    <nd ref="70252312"/>
    <nd ref="70252279"/>
    <nd ref="70252295"/>
    <nd ref="70188831"/>
    <nd ref="70252312"/>
    <tag k="highway" v="tertiary"/>
    <tag k="junction" v="roundabout"/>
  </way>
  <way id="9317045" version="4" timestamp="2012-08-01T14:32:57Z" uid="142807" user="SDavies" changeset="12575152">
    <nd ref="70252312"/>
    <nd ref="1846910351"/>
    <nd ref="70252279"/>
    <nd ref="1846910355"/>
    <nd ref="70252295"/>
    <nd ref="1846910353"/>
    <nd ref="70188831"/>
    <nd ref="1846910349"/>
    <nd ref="70252312"/>
    <tag k="highway" v="tertiary"/>
    <tag k="junction" v="roundabout"/>
  </way>
  <way id="9317045" version="5" timestamp="2012-08-23T22:08:20Z" uid="418724" user="wintersportler" changeset="12838726">
    <nd ref="70252312"/>
    <nd ref="1846910351"/>
    <nd ref="70252279"/>
    <nd ref="1846910355"/>
    <nd ref="70252295"/>
    <nd ref="1846910353"/>
    <nd ref="70188831"/>
    <nd ref="1846910349"/>
    <nd ref="70252312"/>
    <tag k="fixme" v="name"/>
    <tag k="highway" v="tertiary"/>
    <tag k="junction" v="roundabout"/>
  </way>
  <way id="9317045" version="6" timestamp="2012-08-26T20:50:35Z" uid="418724" user="wintersportler" changeset="12872094">
    <nd ref="70252312"/>
    <nd ref="1846910351"/>
    <nd ref="1884447381"/>
    <nd ref="70252279"/>
    <nd ref="1884447382"/>
    <nd ref="1846910355"/>
    <nd ref="70252295"/>
    <nd ref="1884447383"/>
    <nd ref="1846910353"/>
    <nd ref="70188831"/>
    <nd ref="1884447380"/>
    <nd ref="1846910349"/>
    <nd ref="70252312"/>
    <tag k="fixme" v="name"/>
    <tag k="highway" v="tertiary"/>
    <tag k="junction" v="roundabout"/>
  </way>
  <way id="9317050" version="5" timestamp="2012-04-19T04:33:16Z" uid="189263" user="wildmyron" changeset="11350443">
    <nd ref="70252279"/>
    <nd ref="70252331"/>
    <nd ref="70252360"/>
    <nd ref="768959279"/>
    <nd ref="768959285"/>
    <nd ref="768959064"/>
    <nd ref="70252377"/>
    <nd ref="1722525953"/>
    <tag k="highway" v="tertiary"/>
    <tag k="name" v="Hensman Street"/>
  </way>
  <way id="9317050" version="6" timestamp="2012-07-19T12:38:29Z" uid="722137" user="OSMF Redaction Account" changeset="12325642">
    <nd ref="70252279"/>
    <nd ref="70252331"/>
    <nd ref="70252360"/>
    <nd ref="70252377"/>
    <nd ref="1722525953"/>
    <tag k="highway" v="tertiary"/>
    <tag k="name" v="Hensman Street"/>
  </way>
  <way id="9317059" version="5" timestamp="2012-07-19T11:30:01Z" uid="722137" user="OSMF Redaction Account" changeset="12321691">
    <nd ref="704298757"/>
    <nd ref="70252715"/>
    <nd ref="367718246"/>
    <nd ref="70252496"/>
    <nd ref="70252737"/>
    <tag k="highway" v="tertiary"/>
    <tag k="name" v="David Street"/>
  </way>
  <way id="9317059" version="6" timestamp="2012-07-19T12:38:30Z" uid="722137" user="OSMF Redaction Account" changeset="12325642">
    <nd ref="70252715"/>
    <nd ref="367718246"/>
    <nd ref="70252496"/>
    <nd ref="70252737"/>
    <tag k="highway" v="tertiary"/>
    <tag k="name" v="David Street"/>
  </way>
  <way id="9317059" version="7" timestamp="2012-07-27T07:40:39Z" uid="142807" user="SDavies" changeset="12507806">
    <nd ref="1839526178"/>
    <nd ref="1839526148"/>
    <nd ref="70252715"/>
    <nd ref="367718246"/>
    <nd ref="1839526162"/>
    <nd ref="70252737"/>
    <tag k="highway" v="tertiary"/>
    <tag k="name" v="David Street"/>
  </way>
  <way id="9317062" version="7" timestamp="2012-07-19T11:30:02Z" uid="722137" user="OSMF Redaction Account" changeset="12321691">
    <nd ref="70252754"/>
    <nd ref="70252715"/>
    <nd ref="70252786"/>
    <nd ref="70252810"/>
    <nd ref="70252832"/>
    <nd ref="70252862"/>
    <nd ref="70252887"/>
    <tag k="highway" v="residential"/>
    <tag k="name" v="Mabel Street"/>
    <tag k="source" v="yahoo"/>
  </way>
  <way id="9317071" version="6" timestamp="2012-07-19T12:38:28Z" uid="722137" user="OSMF Redaction Account" changeset="12325642">
    <nd ref="70252360"/>
    <nd ref="70253229"/>
    <nd ref="70253120"/>
    <nd ref="70253269"/>
    <tag k="highway" v="residential"/>
    <tag k="name" v="Addison Street"/>
  </way>
  <way id="9317071" version="7" timestamp="2012-07-27T07:29:10Z" uid="142807" user="SDavies" changeset="12507712">
    <nd ref="70252360"/>
    <nd ref="70253229"/>
    <nd ref="70253120"/>
    <nd ref="70253269"/>
    <nd ref="1839514297"/>
    <tag k="highway" v="residential"/>
    <tag k="name" v="Addison Street"/>
  </way>
  <way id="9317081" version="8" timestamp="2012-07-19T12:38:31Z" uid="722137" user="OSMF Redaction Account" changeset="12325642">
    <nd ref="25608835"/>
    <nd ref="25608837"/>
    <nd ref="25608987"/>
    <nd ref="25608985"/>
    <nd ref="25608989"/>
    <nd ref="70253439"/>
    <tag k="highway" v="residential"/>
    <tag k="name" v="Comer Street"/>
  </way>
  <way id="9317081" version="9" timestamp="2012-07-30T15:02:18Z" uid="57380" user="JennyH" changeset="12549273">
    <nd ref="25608835"/>
    <nd ref="25608837"/>
    <nd ref="25608987"/>
    <nd ref="1844103449"/>
    <nd ref="1844103428"/>
    <tag k="highway" v="residential"/>
    <tag k="name" v="Comer Street"/>
  </way>
  <way id="9317091" version="6" timestamp="2012-07-19T12:38:27Z" uid="722137" user="OSMF Redaction Account" changeset="12325642">
    <nd ref="70189137"/>
    <nd ref="70253581"/>
    <tag k="highway" v="residential"/>
    <tag k="name" v="Anthony Street"/>
  </way>
  <way id="9317091" version="7" timestamp="2012-07-27T07:29:10Z" uid="142807" user="SDavies" changeset="12507712">
    <nd ref="70189137"/>
    <nd ref="70253581"/>
    <nd ref="1839514274"/>
    <tag k="highway" v="residential"/>
    <tag k="name" v="Anthony Street"/>
  </way>
  <way id="9317323" version="8" timestamp="2012-07-22T01:15:40Z" uid="722137" user="OSMF Redaction Account" changeset="12423743">
    <nd ref="70257498"/>
    <nd ref="158180292"/>
    <nd ref="70251504"/>
    <tag k="highway" v="residential"/>
    <tag k="name" v="Potter Street"/>
  </way>
</osm>
