<?xml version='1.0' encoding='UTF-8'?>
<osm version="0.6" generator="libosmium/2.20.0">
  <way id="9337001" version="9" timestamp="2010-07-09T05:15:17Z" uid="74617" user="JohnSmith" changeset="5170986">
    <nd ref="70524475"/>
    <nd ref="339589619"/>
    <nd ref="339590145"/>
    <nd ref="339580670"/>
    <nd ref="339590177"/>
    <nd ref="70525034"/>
    <nd ref="339588863"/>
    <nd ref="339588864"/>
    <nd ref="339588865"/>
    <tag k="highway" v="residential"/>
    <tag k="maxspeed" v="50"/>
    <tag k="maxspeed:source" v="default residential speed limit in Australia"/>
    <tag k="name" v="Milne Road"/>
    <tag k="source" v="Yahoo"/>
    <tag k="source:name" v="Collins 1936"/>
  </way>
  <way id="9337001" version="10" timestamp="2010-07-28T12:36:52Z" uid="46482" user="Leon K" changeset="5337659">
    <nd ref="70524475"/>
    <nd ref="339589619"/>
    <nd ref="339590145"/>
    <nd ref="339580670"/>
    <nd ref="339590177"/>
    <nd ref="836243477"/>
    <nd ref="70525034"/>
    <nd ref="339588863"/>
    <nd ref="339588864"/>
    <nd ref="339588865"/>
    <tag k="highway" v="residential"/>
    <tag k="maxspeed" v="50"/>
    <tag k="maxspeed:source" v="default residential speed limit in Australia"/>
    <tag k="name" v="Milne Road"/>
    <tag k="source" v="Yahoo"/>
    <tag k="source:name" v="Collins 1936"/>
  </way>
  <way id="9337001" version="11" timestamp="2010-07-28T12:38:11Z" uid="46482" user="Leon K" changeset="5337659">
    <nd ref="70524475"/>
    <nd ref="836244716"/>
    <nd ref="339589619"/>
    <nd ref="339590145"/>
    <nd ref="339580670"/>
    <nd ref="339590177"/>
    <nd ref="836243477"/>
    <nd ref="70525034"/>
    <nd ref="339588863"/>
    <nd ref="339588864"/>
    <nd ref="339588865"/>
    <tag k="highway" v="residential"/>
    <tag k="maxspeed" v="50"/>
    <tag k="maxspeed:source" v="default residential speed limit in Australia"/>
    <tag k="name" v="Milne Road"/>
    <tag k="source" v="Yahoo"/>
    <tag k="source:name" v="Collins 1936"/>
  </way>
  <way id="9337001" version="12" timestamp="2012-01-15T08:29:02Z" uid="147510" user="woodpeck_fixbot" changeset="10395278">
    <nd ref="70524475"/>
    <nd ref="836244716"/>
    <nd ref="339589619"/>
    <nd ref="339590145"/>
    <nd ref="339580670"/>
    <nd ref="339590177"/>
    <nd ref="836243477"/>
    <nd ref="70525034"/>
    <nd ref="339588863"/>
    <nd ref="339588864"/>
    <nd ref="339588865"/>
    <tag k="highway" v="residential"/>
    <tag k="name" v="Milne Road"/>
    <tag k="source" v="Yahoo"/>
    <tag k="source:name" v="Collins 1936"/>
  </way>
  <way id="9337017" version="13" timestamp="2010-07-09T05:20:16Z" uid="74617" user="JohnSmith" changeset="5170986">
    <nd ref="30949018"/>
    <nd ref="317677278"/>
    <nd ref="272694112"/>
    <nd ref="317668765"/>
    <nd ref="272358663"/>
    <nd ref="571425646"/>
    <nd ref="582553544"/>
    <nd ref="317668177"/>
    <nd ref="70525374"/>
    <tag k="highway" v="residential"/>
    <tag k="maxspeed" v="50"/>
    <tag k="maxspeed:source" v="default residential speed limit in Australia"/>
    <tag k="name" v="Boondara Road"/>
    <tag k="source" v="MMBW"/>
  </way>
  <way id="9337017" version="14" timestamp="2012-01-15T08:29:03Z" uid="147510" user="woodpeck_fixbot" changeset="10395278">
    <nd ref="30949018"/>
    <nd ref="317677278"/>
    <nd ref="272694112"/>
    <nd ref="317668765"/>
    <nd ref="272358663"/>
    <nd ref="571425646"/>
    <nd ref="582553544"/>
    <nd ref="317668177"/>
    <nd ref="70525374"/>
    <tag k="highway" v="residential"/>
    <tag k="name" v="Boondara Road"/>
    <tag k="source" v="MMBW"/>
  </way>
  <way id="9337037" version="7" timestamp="2010-07-09T05:13:55Z" uid="74617" user="JohnSmith" changeset="5170986">
    <nd ref="70525458"/>
    <nd ref="582558506"/>
    <nd ref="582558507"/>
    <nd ref="70525989"/>
    <nd ref="317677372"/>
    <tag k="highway" v="residential"/>
    <tag k="maxspeed" v="50"/>
    <tag k="maxspeed:source" v="default residential speed limit in Australia"/>
    <tag k="name" v="Lorraine Avenue"/>
    <tag k="source" v="Yahoo"/>
    <tag k="source:name" v="Collins 1936"/>
  </way>
  <way id="9337037" version="8" timestamp="2012-01-15T08:29:05Z" uid="147510" user="woodpeck_fixbot" changeset="10395278">
    <nd ref="70525458"/>
    <nd ref="582558506"/>
    <nd ref="582558507"/>
    <nd ref="70525989"/>
    <nd ref="317677372"/>
    <tag k="highway" v="residential"/>
    <tag k="name" v="Lorraine Avenue"/>
    <tag k="source" v="Yahoo"/>
    <tag k="source:name" v="Collins 1936"/>
  </way>
  <way id="9337153" version="2" timestamp="2008-12-20T13:40:23Z" uid="7617" user="Franc" changeset="496725">
    <nd ref="70528133"/>
    <nd ref="70528796"/>
    <nd ref="70528797"/>
    <tag k="created_by" v="Potlatch alpha"/>
    <tag k="highway" v="residential"/>
    <tag k="name" v="Curtis Avenue"/>
    <tag k="source" v="survey"/>
  </way>
  <way id="9337153" version="3" timestamp="2008-12-21T05:55:29Z" uid="7617" user="Franc" changeset="509418">
    <nd ref="70528133"/>
    <nd ref="70528796"/>
    <nd ref="70528797"/>
    <tag k="created_by" v="Potlatch alpha"/>
    <tag k="highway" v="residential"/>
    <tag k="name" v="Curtis Avenue"/>
    <tag k="source" v="survey"/>
    <tag k="source:sport" v="survey"/>
  </way>
  <way id="9337153" version="4" timestamp="2009-08-14T06:28:15Z" uid="4467" user="Rosscoe" changeset="2138970">
    <nd ref="70528133"/>
    <nd ref="70528796"/>
    <nd ref="70528797"/>
    <tag k="highway" v="residential"/>
    <tag k="name" v="Curtis Avenue"/>
    <tag k="source" v="survey"/>
  </way>
  <way id="9337153" version="5" timestamp="2009-11-26T08:11:51Z" uid="7617" user="Franc" changeset="3218360">
    <nd ref="70528133"/>
    <nd ref="70528796"/>
    <nd ref="571362807"/>
    <nd ref="571362809"/>
    <nd ref="70528797"/>
    <tag k="highway" v="residential"/>
    <tag k="name" v="Curtis Avenue"/>
    <tag k="source" v="survey"/>
  </way>
  <way id="9337153" version="6" timestamp="2010-03-01T08:30:34Z" uid="20949" user="Ebenezer" changeset="4006540">
    <nd ref="657812490"/>
    <nd ref="70528796"/>
    <nd ref="571362807"/>
    <nd ref="571362809"/>
    <nd ref="70528797"/>
    <tag k="highway" v="residential"/>
    <tag k="name" v="Curtis Avenue"/>
    <tag k="source" v="survey"/>
  </way>
  <way id="9337153" version="7" timestamp="2010-07-07T21:36:08Z" uid="74617" user="JohnSmith" changeset="5161069">
    <nd ref="657812490"/>
    <nd ref="70528796"/>
    <nd ref="571362807"/>
    <nd ref="571362809"/>
    <nd ref="70528797"/>
    <tag k="highway" v="residential"/>
    <tag k="maxspeed" v="50"/>
    <tag k="maxspeed:source" v="default residential speed limit in Australia"/>
    <tag k="name" v="Curtis Avenue"/>
    <tag k="source" v="survey"/>
  </way>
  <way id="9337153" version="8" timestamp="2012-01-15T08:29:06Z" uid="147510" user="woodpeck_fixbot" changeset="10395278">
    <nd ref="657812490"/>
    <nd ref="70528796"/>
    <nd ref="571362807"/>
    <nd ref="571362809"/>
    <nd ref="70528797"/>
    <tag k="highway" v="residential"/>
    <tag k="name" v="Curtis Avenue"/>
    <tag k="source" v="survey"/>
  </way>
  <way id="9337153" version="9" timestamp="2012-03-02T21:04:33Z" uid="7523" user="inas" changeset="10852413">
    <nd ref="657812490"/>
    <nd ref="70528796"/>
    <nd ref="571362809"/>
    <nd ref="70528797"/>
    <tag k="highway" v="residential"/>
    <tag k="name" v="Curtis Avenue"/>
    <tag k="source" v="survey"/>
  </way>
  <way id="9337214" version="5" timestamp="2010-07-09T05:14:31Z" uid="74617" user="JohnSmith" changeset="5170986">
    <nd ref="70529634"/>
    <nd ref="70530409"/>
    <tag k="highway" v="residential"/>
    <tag k="maxspeed" v="50"/>
    <tag k="maxspeed:source" v="default residential speed limit in Australia"/>
    <tag k="name" v="Willow Street"/>
  </way>
  <way id="9337214" version="6" timestamp="2012-01-15T08:29:08Z" uid="147510" user="woodpeck_fixbot" changeset="10395278">
    <nd ref="70529634"/>
    <nd ref="70530409"/>
    <tag k="highway" v="residential"/>
    <tag k="name" v="Willow Street"/>
  </way>
  <way id="9337544" version="11" timestamp="2008-07-02T10:08:21Z" uid="13367" user="nubok" changeset="370087">
    <nd ref="33554064"/>
    <nd ref="33554062"/>
    <nd ref="33554061"/>
    <nd ref="33554060"/>
    <nd ref="33554059"/>
    <nd ref="78078782"/>
    <nd ref="60041214"/>
    <tag k="created_by" v="Potlatch 0.9c"/>
    <tag k="highway" v="secondary"/>
    <tag k="name" v="Kastanienstraße"/>
    <tag k="oneway" v="yes"/>
  </way>
  <way id="9337544" version="12" timestamp="2008-07-02T10:08:25Z" uid="13367" user="nubok" changeset="370087">
    <nd ref="33554064"/>
    <nd ref="33554062"/>
    <nd ref="33554061"/>
    <nd ref="33554060"/>
    <nd ref="33554059"/>
    <nd ref="78078782"/>
    <nd ref="60041214"/>
    <tag k="created_by" v="Potlatch 0.9c"/>
    <tag k="highway" v="secondary"/>
    <tag k="name" v="Kastanienstraße"/>
    <tag k="oneway" v="yes"/>
  </way>
  <way id="9337544" version="13" timestamp="2008-07-02T10:08:34Z" uid="13367" user="nubok" changeset="370087">
    <nd ref="33554064"/>
    <nd ref="33554062"/>
    <nd ref="33554061"/>
    <nd ref="33554060"/>
    <nd ref="33554059"/>
    <nd ref="78078782"/>
    <nd ref="60041214"/>
    <tag k="created_by" v="Potlatch 0.9c"/>
    <tag k="highway" v="secondary"/>
    <tag k="name" v="Kastanienstraße"/>
    <tag k="oneway" v="yes"/>
  </way>
  <way id="9337544" version="14" timestamp="2008-08-15T15:25:22Z" uid="13367" user="nubok" changeset="266089"/>
  <way id="9337017" version="15" timestamp="2012-07-20T00:02:39Z" uid="722137" user="OSMF Redaction Account" changeset="12351914">
    <nd ref="30949018"/>
    <nd ref="317677278"/>
    <nd ref="317668765"/>
    <nd ref="571425646"/>
    <nd ref="582553544"/>
    <nd ref="317668177"/>
    <nd ref="70525374"/>
    <tag k="highway" v="residential"/>
    <tag k="name" v="Boondara Road"/>
    <tag k="source" v="MMBW"/>
  </way>
  <way id="9337017" version="16" timestamp="2012-07-25T06:51:03Z" uid="211804" user="KenS" changeset="12482001">
    <nd ref="30949018"/>
    <nd ref="317677278"/>
    <nd ref="272694112"/>
    <nd ref="317668765"/>
    <nd ref="571425646"/>
    <nd ref="582553544"/>
    <nd ref="317668177"/>
    <nd ref="70525374"/>
    <tag k="highway" v="residential"/>
    <tag k="name" v="Boondara Road"/>
    <tag k="source" v="MMBW"/>
  </way>
  <way id="9337153" version="10" timestamp="2012-07-19T09:39:44Z" uid="722137" user="OSMF Redaction Account" changeset="12316510">
    <nd ref="657812490"/>
    <nd ref="70528796"/>
    <nd ref="70528797"/>
    <tag k="highway" v="residential"/>
    <tag k="source" v="yahoo_imagery"/>
  </way>
</osm>
