<?xml version='1.0' encoding='UTF-8'?>
<osm version="0.6" generator="libosmium/2.20.0">
  <way id="93437551" version="1" timestamp="2011-01-05T09:23:34Z" uid="6269" user="Mueck" changeset="6869562">
    <nd ref="1073083722"/>
    <nd ref="302697567"/>
    <nd ref="29760223"/>
    <nd ref="993674504"/>
    <tag k="highway" v="primary"/>
    <tag k="name" v="Lloydstraße"/>
    <tag k="oneway" v="yes"/>
    <tag k="ref" v="B 212"/>
  </way>
  <way id="93437551" version="2" timestamp="2011-03-02T19:32:06Z" uid="114813" user="Chrisuu" changeset="7440210">
    <nd ref="1073083722"/>
    <nd ref="302697567"/>
    <nd ref="29760223"/>
    <nd ref="993674504"/>
    <tag k="cycleway" v="track"/>
    <tag k="highway" v="primary"/>
    <tag k="name" v="Lloydstraße"/>
    <tag k="oneway" v="yes"/>
    <tag k="ref" v="B 212"/>
  </way>
  <way id="93437551" version="3" timestamp="2011-07-20T19:31:24Z" uid="114813" user="Chrisuu" changeset="8781379">
    <nd ref="1073083722"/>
    <nd ref="302697567"/>
    <nd ref="29760223"/>
    <nd ref="993674504"/>
    <tag k="cycleway" v="track"/>
    <tag k="highway" v="primary"/>
    <tag k="maxspeed" v="50"/>
    <tag k="name" v="Lloydstraße"/>
    <tag k="oneway" v="yes"/>
    <tag k="ref" v="B 212"/>
  </way>
  <way id="93437551" version="4" timestamp="2011-07-20T19:34:55Z" uid="114813" user="Chrisuu" changeset="8781379">
    <nd ref="1073083722"/>
    <nd ref="302697567"/>
    <nd ref="29760223"/>
    <nd ref="993674504"/>
    <tag k="cycleway" v="track"/>
    <tag k="highway" v="primary"/>
    <tag k="maxspeed" v="50"/>
    <tag k="name" v="Lloydstraße"/>
    <tag k="oneway" v="yes"/>
    <tag k="ref" v="B 212"/>
    <tag k="surface" v="asphalt"/>
  </way>
  <way id="93437551" version="5" timestamp="2012-07-10T14:48:03Z" uid="131670" user="Ana Luisa" changeset="12174569"/>
</osm>
