<?xml version='1.0' encoding='UTF-8'?>
<osm version="0.6" generator="libosmium/2.20.0">
  <way id="93444124" version="1" timestamp="2011-01-05T09:40:57Z" uid="6269" user="Mueck" changeset="6869671">
    <nd ref="1083322287"/>
    <nd ref="1073083727"/>
    <nd ref="1073083653"/>
    <tag k="highway" v="primary"/>
    <tag k="name" v="Freigebiet"/>
    <tag k="note" v="Freigebiet ist nur 10 Meterlang und hat nur ein Haus"/>
    <tag k="ref" v="B 212"/>
  </way>
  <way id="93444124" version="2" timestamp="2011-01-05T09:41:58Z" uid="6269" user="Mueck" changeset="6869694">
    <nd ref="1083322287"/>
    <nd ref="1073083727"/>
    <nd ref="1073083653"/>
    <tag k="highway" v="primary"/>
    <tag k="name" v="Freigebiet"/>
    <tag k="note" v="Freigebiet ist nur 10 Meterlang und hat nur ein Haus"/>
    <tag k="oneway" v="yes"/>
    <tag k="ref" v="B 212"/>
  </way>
  <way id="93444124" version="3" timestamp="2011-07-20T19:31:24Z" uid="114813" user="Chrisuu" changeset="8781379">
    <nd ref="1083322287"/>
    <nd ref="1073083727"/>
    <nd ref="1073083653"/>
    <tag k="highway" v="primary"/>
    <tag k="maxspeed" v="50"/>
    <tag k="name" v="Freigebiet"/>
    <tag k="note" v="Freigebiet ist nur 10 Meterlang und hat nur ein Haus"/>
    <tag k="oneway" v="yes"/>
    <tag k="ref" v="B 212"/>
  </way>
  <way id="93444124" version="4" timestamp="2012-07-10T14:48:02Z" uid="131670" user="Ana Luisa" changeset="12174569"/>
</osm>
