<?xml version='1.0' encoding='UTF-8'?>
<osm version="0.6" generator="libosmium/2.20.0">
  <way id="93577233" version="1" timestamp="2011-01-06T11:12:31Z" uid="30201" user="rrankin" changeset="6880826">
    <nd ref="276374834"/>
    <nd ref="276374833"/>
    <nd ref="895696946"/>
    <nd ref="661009308"/>
    <nd ref="276371616"/>
    <nd ref="276371619"/>
    <nd ref="259746079"/>
    <nd ref="276371620"/>
    <nd ref="661009288"/>
    <nd ref="276371622"/>
    <nd ref="276567073"/>
    <nd ref="276567057"/>
    <tag k="highway" v="secondary"/>
    <tag k="name" v="Northcliff Drive"/>
    <tag k="oneway" v="yes"/>
  </way>
  <way id="93577576" version="2" timestamp="2011-04-09T04:52:40Z" uid="7617" user="Franc" changeset="7809774">
    <nd ref="1085401908"/>
    <nd ref="1238038211"/>
    <nd ref="1238038204"/>
    <nd ref="1085401909"/>
    <tag k="highway" v="residential"/>
    <tag k="name" v="Morton Parade"/>
    <tag k="source" v="survey"/>
  </way>
  <way id="93577578" version="2" timestamp="2011-04-09T04:52:46Z" uid="7617" user="Franc" changeset="7809774">
    <nd ref="1085401899"/>
    <nd ref="1238038449"/>
    <nd ref="1085401900"/>
    <tag k="highway" v="residential"/>
    <tag k="name" v="Grant Street"/>
    <tag k="source" v="survey"/>
  </way>
  <way id="93577579" version="2" timestamp="2011-04-09T04:52:33Z" uid="7617" user="Franc" changeset="7809774">
    <nd ref="245808673"/>
    <nd ref="1080411171"/>
    <nd ref="1238038299"/>
    <tag k="highway" v="residential"/>
    <tag k="maxspeed" v="50"/>
    <tag k="maxspeed:source" v="default residential speed limit in Australia"/>
    <tag k="name" v="Jervis Street"/>
    <tag k="source" v="survey"/>
  </way>
  <way id="93577233" version="2" timestamp="2012-07-21T16:47:46Z" uid="722137" user="OSMF Redaction Account" changeset="12415146"/>
  <way id="93577576" version="3" timestamp="2012-07-21T20:15:36Z" uid="722137" user="OSMF Redaction Account" changeset="12419246">
    <nd ref="1085401908"/>
    <nd ref="1085401909"/>
    <tag k="highway" v="residential"/>
    <tag k="name" v="Morton Parade"/>
    <tag k="source" v="survey"/>
  </way>
  <way id="93577576" version="4" timestamp="2012-07-28T15:35:42Z" uid="8296" user="kuede" changeset="12524699">
    <nd ref="1085401908"/>
    <nd ref="1085401909"/>
    <nd ref="274248861"/>
    <nd ref="1841490051"/>
    <nd ref="38439401"/>
    <tag k="highway" v="residential"/>
    <tag k="name" v="Morton Parade"/>
    <tag k="source" v="survey"/>
  </way>
  <way id="93577578" version="3" timestamp="2012-07-21T20:15:37Z" uid="722137" user="OSMF Redaction Account" changeset="12419246">
    <nd ref="1085401899"/>
    <nd ref="1085401900"/>
    <tag k="highway" v="residential"/>
    <tag k="name" v="Grant Street"/>
    <tag k="source" v="survey"/>
  </way>
  <way id="93577579" version="3" timestamp="2012-07-21T20:16:44Z" uid="722137" user="OSMF Redaction Account" changeset="12419269"/>
</osm>
