<?xml version='1.0' encoding='UTF-8'?>
<osm version="0.6" generator="libosmium/2.20.0">
  <way id="93785428" version="3" timestamp="2011-02-07T19:27:54Z" uid="9581" user="Lobelt" changeset="7219776">
    <nd ref="164931631"/>
    <nd ref="33810629"/>
    <nd ref="96562707"/>
    <nd ref="1119794586"/>
    <nd ref="272626240"/>
    <nd ref="11244354"/>
    <tag k="highway" v="secondary"/>
    <tag k="lanes" v="2"/>
    <tag k="maxspeed" v="70"/>
    <tag k="name" v="Speyerer Straße"/>
    <tag k="oneway" v="yes"/>
    <tag k="ref" v="L 600a"/>
    <tag k="source:maxspeed" v="sign"/>
  </way>
  <way id="93785428" version="4" timestamp="2011-04-18T15:15:16Z" uid="245137" user="maurice2010" changeset="7897953">
    <nd ref="164931631"/>
    <nd ref="33810629"/>
    <nd ref="96562707"/>
    <nd ref="1119794586"/>
    <nd ref="272626240"/>
    <nd ref="1249998802"/>
    <nd ref="11244354"/>
    <tag k="highway" v="secondary"/>
    <tag k="lanes" v="2"/>
    <tag k="maxspeed" v="70"/>
    <tag k="name" v="Speyerer Straße"/>
    <tag k="oneway" v="yes"/>
    <tag k="ref" v="L 600a"/>
    <tag k="source:maxspeed" v="sign"/>
  </way>
  <way id="93785428" version="5" timestamp="2011-09-19T10:18:18Z" uid="6326" user="mike_hd" changeset="9341075">
    <nd ref="164931631"/>
    <nd ref="33810629"/>
    <nd ref="96562707"/>
    <nd ref="1119794586"/>
    <nd ref="1437345304"/>
    <nd ref="1249998802"/>
    <nd ref="11244354"/>
    <tag k="highway" v="secondary"/>
    <tag k="lanes" v="2"/>
    <tag k="maxspeed" v="70"/>
    <tag k="name" v="Speyerer Straße"/>
    <tag k="oneway" v="yes"/>
    <tag k="ref" v="L 600a"/>
    <tag k="source:maxspeed" v="sign"/>
  </way>
  <way id="93785428" version="6" timestamp="2012-02-10T22:52:27Z" uid="185168" user="jOE" changeset="10648290">
    <nd ref="164931631"/>
    <nd ref="33810629"/>
    <nd ref="96562707"/>
    <nd ref="1119794586"/>
    <nd ref="1437345304"/>
    <nd ref="1249998802"/>
    <nd ref="11244354"/>
    <tag k="highway" v="primary"/>
    <tag k="lanes" v="2"/>
    <tag k="maxspeed" v="70"/>
    <tag k="name" v="Speyerer Straße"/>
    <tag k="oneway" v="yes"/>
    <tag k="ref" v="L 600a"/>
    <tag k="source:maxspeed" v="sign"/>
  </way>
  <way id="93785450" version="2" timestamp="2011-02-27T01:18:56Z" uid="410505" user="Udini" changeset="7406323">
    <nd ref="297885317"/>
    <nd ref="20978201"/>
    <nd ref="831589070"/>
    <tag k="highway" v="trunk"/>
    <tag k="lanes" v="2"/>
    <tag k="maxspeed" v="70"/>
    <tag k="motorroad" v="yes"/>
    <tag k="name" v="Wilhelm-Varnholt-Allee"/>
    <tag k="oneway" v="yes"/>
    <tag k="ref" v="B 37"/>
    <tag k="source:maxspeed" v="sign"/>
  </way>
  <way id="93785450" version="3" timestamp="2011-03-04T21:21:27Z" uid="9581" user="Lobelt" changeset="7458182">
    <nd ref="297885317"/>
    <nd ref="20978201"/>
    <nd ref="831589070"/>
    <tag k="highway" v="primary"/>
    <tag k="lanes" v="2"/>
    <tag k="maxspeed" v="70"/>
    <tag k="motorroad" v="yes"/>
    <tag k="name" v="Wilhelm-Varnholt-Allee"/>
    <tag k="oneway" v="yes"/>
    <tag k="ref" v="B 37"/>
    <tag k="source:maxspeed" v="sign"/>
  </way>
  <way id="93785450" version="4" timestamp="2011-11-12T08:39:14Z" uid="110838" user="Bernhard W" changeset="9802491">
    <nd ref="297885317"/>
    <nd ref="831589070"/>
    <tag k="highway" v="primary"/>
    <tag k="lanes" v="2"/>
    <tag k="maxspeed" v="70"/>
    <tag k="motorroad" v="yes"/>
    <tag k="name" v="Wilhelm-Varnholt-Allee"/>
    <tag k="oneway" v="yes"/>
    <tag k="ref" v="B 37"/>
    <tag k="source:maxspeed" v="sign"/>
  </way>
  <way id="93785450" version="5" timestamp="2011-11-12T08:58:14Z" uid="110838" user="Bernhard W" changeset="9802568">
    <nd ref="297885317"/>
    <nd ref="1499681453"/>
    <nd ref="831589070"/>
    <tag k="highway" v="primary"/>
    <tag k="lanes" v="2"/>
    <tag k="maxspeed" v="70"/>
    <tag k="motorroad" v="yes"/>
    <tag k="name" v="Wilhelm-Varnholt-Allee"/>
    <tag k="oneway" v="yes"/>
    <tag k="ref" v="B 37"/>
    <tag k="source:maxspeed" v="sign"/>
  </way>
  <way id="93785468" version="2" timestamp="2011-02-07T19:27:53Z" uid="9581" user="Lobelt" changeset="7219776">
    <nd ref="11244353"/>
    <nd ref="1141151481"/>
    <nd ref="1141151482"/>
    <nd ref="617303270"/>
    <nd ref="301373420"/>
    <nd ref="272626241"/>
    <nd ref="278034317"/>
    <nd ref="463170106"/>
    <tag k="addr:city" v="Heidelberg"/>
    <tag k="addr:country" v="DE"/>
    <tag k="highway" v="secondary"/>
    <tag k="lanes" v="2"/>
    <tag k="maxspeed" v="70"/>
    <tag k="name" v="Speyerer Straße"/>
    <tag k="oneway" v="yes"/>
    <tag k="ref" v="L 600a"/>
    <tag k="source:maxspeed" v="sign"/>
  </way>
  <way id="93785468" version="3" timestamp="2011-04-18T15:15:16Z" uid="245137" user="maurice2010" changeset="7897953">
    <nd ref="11244353"/>
    <nd ref="1141151481"/>
    <nd ref="1249998958"/>
    <nd ref="1141151482"/>
    <nd ref="1249998897"/>
    <nd ref="617303270"/>
    <nd ref="1249998822"/>
    <nd ref="301373420"/>
    <nd ref="272626241"/>
    <nd ref="278034317"/>
    <nd ref="463170106"/>
    <tag k="addr:city" v="Heidelberg"/>
    <tag k="addr:country" v="DE"/>
    <tag k="highway" v="secondary"/>
    <tag k="lanes" v="2"/>
    <tag k="maxspeed" v="70"/>
    <tag k="name" v="Speyerer Straße"/>
    <tag k="oneway" v="yes"/>
    <tag k="ref" v="L 600a"/>
    <tag k="source:maxspeed" v="sign"/>
  </way>
  <way id="93785468" version="4" timestamp="2011-04-18T16:48:35Z" uid="245137" user="maurice2010" changeset="7898766">
    <nd ref="11244353"/>
    <nd ref="1141151481"/>
    <nd ref="1249998958"/>
    <nd ref="1141151482"/>
    <nd ref="1249998897"/>
    <nd ref="617303270"/>
    <nd ref="1250156365"/>
    <nd ref="1249998822"/>
    <nd ref="301373420"/>
    <nd ref="272626241"/>
    <nd ref="278034317"/>
    <nd ref="463170106"/>
    <tag k="addr:city" v="Heidelberg"/>
    <tag k="addr:country" v="DE"/>
    <tag k="highway" v="secondary"/>
    <tag k="lanes" v="2"/>
    <tag k="maxspeed" v="70"/>
    <tag k="name" v="Speyerer Straße"/>
    <tag k="oneway" v="yes"/>
    <tag k="ref" v="L 600a"/>
    <tag k="source:maxspeed" v="sign"/>
  </way>
  <way id="93785468" version="5" timestamp="2011-04-30T09:14:13Z" uid="160164" user="mahau" changeset="8009928">
    <nd ref="11244353"/>
    <nd ref="1141151481"/>
    <nd ref="1249998958"/>
    <nd ref="1249998897"/>
    <nd ref="617303270"/>
    <nd ref="1250156365"/>
    <nd ref="1249998822"/>
    <nd ref="301373420"/>
    <nd ref="272626241"/>
    <nd ref="278034317"/>
    <nd ref="463170106"/>
    <tag k="addr:city" v="Heidelberg"/>
    <tag k="addr:country" v="DE"/>
    <tag k="highway" v="secondary"/>
    <tag k="lanes" v="2"/>
    <tag k="maxspeed" v="70"/>
    <tag k="name" v="Speyerer Straße"/>
    <tag k="oneway" v="yes"/>
    <tag k="ref" v="L 600a"/>
    <tag k="source:maxspeed" v="sign"/>
  </way>
  <way id="93785468" version="6" timestamp="2012-02-10T22:52:27Z" uid="185168" user="jOE" changeset="10648290">
    <nd ref="11244353"/>
    <nd ref="1141151481"/>
    <nd ref="1249998958"/>
    <nd ref="1249998897"/>
    <nd ref="617303270"/>
    <nd ref="1250156365"/>
    <nd ref="1249998822"/>
    <nd ref="301373420"/>
    <nd ref="272626241"/>
    <nd ref="278034317"/>
    <nd ref="463170106"/>
    <tag k="addr:city" v="Heidelberg"/>
    <tag k="addr:country" v="DE"/>
    <tag k="highway" v="primary"/>
    <tag k="lanes" v="2"/>
    <tag k="maxspeed" v="70"/>
    <tag k="name" v="Speyerer Straße"/>
    <tag k="oneway" v="yes"/>
    <tag k="ref" v="L 600a"/>
    <tag k="source:maxspeed" v="sign"/>
  </way>
  <way id="93785472" version="2" timestamp="2011-02-07T19:27:49Z" uid="9581" user="Lobelt" changeset="7219776">
    <nd ref="262579562"/>
    <nd ref="61090368"/>
    <nd ref="273696426"/>
    <nd ref="273695608"/>
    <nd ref="264046959"/>
    <nd ref="11244355"/>
    <nd ref="272631525"/>
    <nd ref="262579721"/>
    <nd ref="1141151521"/>
    <nd ref="11244353"/>
    <tag k="addr:city" v="Heidelberg"/>
    <tag k="addr:country" v="DE"/>
    <tag k="highway" v="secondary"/>
    <tag k="lanes" v="2"/>
    <tag k="maxspeed" v="50"/>
    <tag k="name" v="Speyerer Straße"/>
    <tag k="oneway" v="yes"/>
    <tag k="ref" v="L 600a"/>
    <tag k="source:maxspeed" v="DE:urban"/>
  </way>
  <way id="93785472" version="3" timestamp="2011-04-18T15:15:16Z" uid="245137" user="maurice2010" changeset="7897953">
    <nd ref="262579562"/>
    <nd ref="61090368"/>
    <nd ref="273696426"/>
    <nd ref="273695608"/>
    <nd ref="264046959"/>
    <nd ref="11244355"/>
    <nd ref="272631525"/>
    <nd ref="262579721"/>
    <nd ref="1141151521"/>
    <nd ref="1249998834"/>
    <nd ref="1249998931"/>
    <nd ref="1249998893"/>
    <nd ref="11244353"/>
    <tag k="addr:city" v="Heidelberg"/>
    <tag k="addr:country" v="DE"/>
    <tag k="highway" v="secondary"/>
    <tag k="lanes" v="2"/>
    <tag k="maxspeed" v="50"/>
    <tag k="name" v="Speyerer Straße"/>
    <tag k="oneway" v="yes"/>
    <tag k="ref" v="L 600a"/>
    <tag k="source:maxspeed" v="DE:urban"/>
  </way>
  <way id="93785472" version="4" timestamp="2011-04-18T16:48:36Z" uid="245137" user="maurice2010" changeset="7898766">
    <nd ref="262579562"/>
    <nd ref="61090368"/>
    <nd ref="273696426"/>
    <nd ref="273695608"/>
    <nd ref="264046959"/>
    <nd ref="1250156391"/>
    <nd ref="1250156327"/>
    <nd ref="11244355"/>
    <nd ref="272631525"/>
    <nd ref="262579721"/>
    <nd ref="1141151521"/>
    <nd ref="1249998834"/>
    <nd ref="1249998931"/>
    <nd ref="1249998893"/>
    <nd ref="11244353"/>
    <tag k="addr:city" v="Heidelberg"/>
    <tag k="addr:country" v="DE"/>
    <tag k="highway" v="secondary"/>
    <tag k="lanes" v="2"/>
    <tag k="maxspeed" v="50"/>
    <tag k="name" v="Speyerer Straße"/>
    <tag k="oneway" v="yes"/>
    <tag k="ref" v="L 600a"/>
    <tag k="source:maxspeed" v="DE:urban"/>
  </way>
  <way id="93785472" version="5" timestamp="2011-04-30T09:14:57Z" uid="160164" user="mahau" changeset="8009928">
    <nd ref="262579562"/>
    <nd ref="61090368"/>
    <nd ref="273696426"/>
    <nd ref="273695608"/>
    <nd ref="1266585728"/>
    <nd ref="1266586146"/>
    <nd ref="264046959"/>
    <nd ref="1250156391"/>
    <nd ref="1250156327"/>
    <nd ref="11244355"/>
    <nd ref="1266586397"/>
    <nd ref="272631525"/>
    <nd ref="262579721"/>
    <nd ref="1141151521"/>
    <nd ref="1249998834"/>
    <nd ref="1249998931"/>
    <nd ref="1249998893"/>
    <nd ref="11244353"/>
    <tag k="addr:city" v="Heidelberg"/>
    <tag k="addr:country" v="DE"/>
    <tag k="highway" v="secondary"/>
    <tag k="lanes" v="2"/>
    <tag k="maxspeed" v="50"/>
    <tag k="name" v="Speyerer Straße"/>
    <tag k="oneway" v="yes"/>
    <tag k="ref" v="L 600a"/>
    <tag k="source:maxspeed" v="DE:urban"/>
  </way>
  <way id="93785472" version="6" timestamp="2011-05-01T17:58:16Z" uid="160164" user="mahau" changeset="8023977">
    <nd ref="262579562"/>
    <nd ref="61090368"/>
    <nd ref="273696426"/>
    <nd ref="1269339450"/>
    <nd ref="273695608"/>
    <nd ref="1266585728"/>
    <nd ref="1266586146"/>
    <nd ref="264046959"/>
    <nd ref="1250156391"/>
    <nd ref="1250156327"/>
    <nd ref="11244355"/>
    <nd ref="1266586397"/>
    <nd ref="272631525"/>
    <nd ref="262579721"/>
    <nd ref="1141151521"/>
    <nd ref="1249998834"/>
    <nd ref="1249998931"/>
    <nd ref="1249998893"/>
    <nd ref="11244353"/>
    <tag k="addr:city" v="Heidelberg"/>
    <tag k="addr:country" v="DE"/>
    <tag k="highway" v="secondary"/>
    <tag k="lanes" v="2"/>
    <tag k="maxspeed" v="50"/>
    <tag k="name" v="Speyerer Straße"/>
    <tag k="oneway" v="yes"/>
    <tag k="ref" v="L 600a"/>
    <tag k="source:maxspeed" v="DE:urban"/>
  </way>
  <way id="93785472" version="7" timestamp="2011-05-30T13:57:08Z" uid="160164" user="mahau" changeset="8292406">
    <nd ref="262579562"/>
    <nd ref="61090368"/>
    <nd ref="273696426"/>
    <nd ref="1305821516"/>
    <nd ref="1269339450"/>
    <nd ref="273695608"/>
    <nd ref="1266585728"/>
    <nd ref="1266586146"/>
    <nd ref="264046959"/>
    <nd ref="1250156391"/>
    <nd ref="1250156327"/>
    <nd ref="11244355"/>
    <nd ref="1266586397"/>
    <nd ref="272631525"/>
    <nd ref="262579721"/>
    <nd ref="1141151521"/>
    <nd ref="1249998834"/>
    <nd ref="1249998931"/>
    <nd ref="1249998893"/>
    <nd ref="11244353"/>
    <tag k="addr:city" v="Heidelberg"/>
    <tag k="addr:country" v="DE"/>
    <tag k="highway" v="secondary"/>
    <tag k="lanes" v="2"/>
    <tag k="maxspeed" v="50"/>
    <tag k="name" v="Speyerer Straße"/>
    <tag k="oneway" v="yes"/>
    <tag k="ref" v="L 600a"/>
    <tag k="source:maxspeed" v="DE:urban"/>
  </way>
  <way id="93785472" version="8" timestamp="2011-06-12T21:44:47Z" uid="160164" user="mahau" changeset="8420317">
    <nd ref="262579562"/>
    <nd ref="61090368"/>
    <nd ref="273696426"/>
    <nd ref="1305821516"/>
    <nd ref="1269339450"/>
    <nd ref="273695608"/>
    <nd ref="1266585728"/>
    <nd ref="1266586146"/>
    <nd ref="264046959"/>
    <nd ref="1250156391"/>
    <nd ref="1250156327"/>
    <nd ref="11244355"/>
    <nd ref="1266586397"/>
    <nd ref="272631525"/>
    <nd ref="1322894936"/>
    <nd ref="262579721"/>
    <nd ref="1141151521"/>
    <nd ref="1249998834"/>
    <nd ref="1249998931"/>
    <nd ref="1249998893"/>
    <nd ref="11244353"/>
    <tag k="addr:city" v="Heidelberg"/>
    <tag k="addr:country" v="DE"/>
    <tag k="highway" v="secondary"/>
    <tag k="lanes" v="2"/>
    <tag k="maxspeed" v="50"/>
    <tag k="name" v="Speyerer Straße"/>
    <tag k="oneway" v="yes"/>
    <tag k="ref" v="L 600a"/>
    <tag k="source:maxspeed" v="DE:urban"/>
  </way>
  <way id="93785472" version="9" timestamp="2011-10-12T17:50:41Z" uid="34555" user="Max--" changeset="9540845">
    <nd ref="262579562"/>
    <nd ref="1464163776"/>
    <nd ref="61090368"/>
    <nd ref="273696426"/>
    <nd ref="1305821516"/>
    <nd ref="1269339450"/>
    <nd ref="273695608"/>
    <nd ref="1266585728"/>
    <nd ref="1266586146"/>
    <nd ref="264046959"/>
    <nd ref="1250156391"/>
    <nd ref="1250156327"/>
    <nd ref="11244355"/>
    <nd ref="1266586397"/>
    <nd ref="272631525"/>
    <nd ref="1322894936"/>
    <nd ref="262579721"/>
    <nd ref="1141151521"/>
    <nd ref="1249998834"/>
    <nd ref="1249998931"/>
    <nd ref="1249998893"/>
    <nd ref="11244353"/>
    <tag k="addr:city" v="Heidelberg"/>
    <tag k="addr:country" v="DE"/>
    <tag k="highway" v="secondary"/>
    <tag k="lanes" v="2"/>
    <tag k="maxspeed" v="50"/>
    <tag k="name" v="Speyerer Straße"/>
    <tag k="oneway" v="yes"/>
    <tag k="ref" v="L 600a"/>
    <tag k="source:maxspeed" v="DE:urban"/>
  </way>
  <way id="93785472" version="10" timestamp="2011-10-22T18:39:27Z" uid="131968" user="changchun_1" changeset="9626743">
    <nd ref="262579562"/>
    <nd ref="1464163776"/>
    <nd ref="61090368"/>
    <nd ref="273696426"/>
    <nd ref="1305821516"/>
    <nd ref="1269339450"/>
    <nd ref="273695608"/>
    <nd ref="1266585728"/>
    <nd ref="1266586146"/>
    <nd ref="264046959"/>
    <tag k="addr:city" v="Heidelberg"/>
    <tag k="addr:country" v="DE"/>
    <tag k="highway" v="secondary"/>
    <tag k="lanes" v="2"/>
    <tag k="maxspeed" v="50"/>
    <tag k="name" v="Speyerer Straße"/>
    <tag k="oneway" v="yes"/>
    <tag k="ref" v="L 600a"/>
    <tag k="source:maxspeed" v="DE:urban"/>
  </way>
  <way id="93785472" version="11" timestamp="2011-11-01T15:59:32Z" uid="245137" user="maurice2010" changeset="9713765">
    <nd ref="262579562"/>
    <nd ref="1464163776"/>
    <nd ref="61090368"/>
    <nd ref="1488673301"/>
    <nd ref="273696426"/>
    <nd ref="1488673312"/>
    <nd ref="1305821516"/>
    <nd ref="1269339450"/>
    <nd ref="1488673287"/>
    <nd ref="273695608"/>
    <nd ref="1266585728"/>
    <nd ref="1488673314"/>
    <nd ref="1488673376"/>
    <nd ref="264046959"/>
    <tag k="addr:city" v="Heidelberg"/>
    <tag k="addr:country" v="DE"/>
    <tag k="highway" v="secondary"/>
    <tag k="lanes" v="2"/>
    <tag k="maxspeed" v="50"/>
    <tag k="name" v="Speyerer Straße"/>
    <tag k="oneway" v="yes"/>
    <tag k="ref" v="L 600a"/>
    <tag k="source:maxspeed" v="DE:urban"/>
  </way>
  <way id="93785472" version="12" timestamp="2012-02-10T22:52:19Z" uid="185168" user="jOE" changeset="10648290">
    <nd ref="262579562"/>
    <nd ref="1464163776"/>
    <nd ref="61090368"/>
    <nd ref="1488673301"/>
    <nd ref="273696426"/>
    <nd ref="1488673312"/>
    <nd ref="1305821516"/>
    <nd ref="1269339450"/>
    <nd ref="1488673287"/>
    <nd ref="273695608"/>
    <nd ref="1266585728"/>
    <nd ref="1488673314"/>
    <nd ref="1488673376"/>
    <nd ref="264046959"/>
    <tag k="addr:city" v="Heidelberg"/>
    <tag k="addr:country" v="DE"/>
    <tag k="highway" v="primary"/>
    <tag k="lanes" v="2"/>
    <tag k="maxspeed" v="50"/>
    <tag k="name" v="Speyerer Straße"/>
    <tag k="oneway" v="yes"/>
    <tag k="ref" v="L 600a"/>
    <tag k="source:maxspeed" v="DE:urban"/>
  </way>
  <way id="93785472" version="13" timestamp="2012-03-15T22:57:20Z" uid="136321" user="Teddy73" changeset="10992640"/>
  <way id="93785428" version="7" timestamp="2012-05-13T23:52:17Z" uid="123364" user="Tronikon" changeset="11591690">
    <nd ref="164931631"/>
    <nd ref="33810629"/>
    <nd ref="96562707"/>
    <nd ref="1119794586"/>
    <nd ref="1437345304"/>
    <nd ref="1249998802"/>
    <nd ref="1751845417"/>
    <nd ref="1751845420"/>
    <nd ref="1751845421"/>
    <nd ref="262167771"/>
    <nd ref="1751845422"/>
    <nd ref="1751845423"/>
    <nd ref="1751845424"/>
    <nd ref="1751845425"/>
    <nd ref="1751845426"/>
    <nd ref="1751845427"/>
    <tag k="highway" v="primary"/>
    <tag k="lanes" v="2"/>
    <tag k="maxspeed" v="70"/>
    <tag k="name" v="Speyerer Straße"/>
    <tag k="oneway" v="yes"/>
    <tag k="ref" v="L 600a"/>
    <tag k="source:maxspeed" v="sign"/>
  </way>
  <way id="93785450" version="6" timestamp="2012-05-13T14:32:31Z" uid="110838" user="Bernhard W" changeset="11586397">
    <nd ref="297885317"/>
    <nd ref="1499681453"/>
    <nd ref="831589070"/>
    <tag k="bicycle" v="no"/>
    <tag k="foot" v="no"/>
    <tag k="highway" v="primary"/>
    <tag k="lanes" v="2"/>
    <tag k="lit" v="no"/>
    <tag k="maxspeed" v="70"/>
    <tag k="motorroad" v="yes"/>
    <tag k="name" v="Wilhelm-Varnholt-Allee"/>
    <tag k="oneway" v="yes"/>
    <tag k="ref" v="B 37"/>
    <tag k="source:maxspeed" v="sign"/>
  </way>
  <way id="93785450" version="7" timestamp="2012-06-30T16:28:27Z" uid="165061" user="mapper999" changeset="12067550">
    <nd ref="297885317"/>
    <nd ref="1499681453"/>
    <nd ref="1807668951"/>
    <tag k="bicycle" v="no"/>
    <tag k="foot" v="no"/>
    <tag k="highway" v="primary"/>
    <tag k="lanes" v="3"/>
    <tag k="lanes:through" v="2"/>
    <tag k="lanes:turnleft" v="1"/>
    <tag k="lit" v="no"/>
    <tag k="maxspeed" v="70"/>
    <tag k="motorroad" v="yes"/>
    <tag k="name" v="Wilhelm-Varnholt-Allee"/>
    <tag k="oneway" v="yes"/>
    <tag k="ref" v="B 37"/>
    <tag k="source:maxspeed" v="sign"/>
  </way>
  <way id="93785450" version="8" timestamp="2012-07-17T07:45:45Z" uid="722137" user="OSMF Redaction Account" changeset="12259770">
    <nd ref="297885317"/>
    <nd ref="1499681453"/>
    <nd ref="1807668951"/>
    <tag k="bicycle" v="no"/>
    <tag k="foot" v="no"/>
    <tag k="highway" v="trunk"/>
    <tag k="lanes" v="3"/>
    <tag k="lanes:through" v="2"/>
    <tag k="lanes:turnleft" v="1"/>
    <tag k="lit" v="no"/>
    <tag k="maxspeed" v="70"/>
    <tag k="motorroad" v="yes"/>
    <tag k="name" v="Wilhelm-Varnholt-Allee"/>
    <tag k="oneway" v="yes"/>
    <tag k="ref" v="B 37"/>
    <tag k="source:maxspeed" v="sign"/>
  </way>
  <way id="93785450" version="9" timestamp="2012-07-19T15:02:41Z" uid="165061" user="mapper999" changeset="12318312">
    <nd ref="297885317"/>
    <nd ref="1499681453"/>
    <nd ref="1807668951"/>
    <tag k="bicycle" v="no"/>
    <tag k="foot" v="no"/>
    <tag k="highway" v="primary"/>
    <tag k="lanes" v="3"/>
    <tag k="lanes:through" v="2"/>
    <tag k="lanes:turnleft" v="1"/>
    <tag k="lit" v="no"/>
    <tag k="maxspeed" v="70"/>
    <tag k="motorroad" v="yes"/>
    <tag k="name" v="Wilhelm-Varnholt-Allee"/>
    <tag k="oneway" v="yes"/>
    <tag k="ref" v="B 37"/>
    <tag k="source:maxspeed" v="sign"/>
  </way>
  <way id="93785468" version="7" timestamp="2012-07-17T05:24:52Z" uid="722137" user="OSMF Redaction Account" changeset="12257655">
    <nd ref="11244353"/>
    <nd ref="1249998958"/>
    <nd ref="1249998897"/>
    <nd ref="617303270"/>
    <nd ref="1250156365"/>
    <nd ref="1249998822"/>
    <nd ref="301373420"/>
    <nd ref="272626241"/>
    <nd ref="278034317"/>
    <nd ref="463170106"/>
    <tag k="addr:city" v="Heidelberg"/>
    <tag k="addr:country" v="DE"/>
    <tag k="highway" v="primary"/>
    <tag k="lanes" v="2"/>
    <tag k="maxspeed" v="70"/>
    <tag k="name" v="Speyerer Straße"/>
    <tag k="oneway" v="yes"/>
    <tag k="ref" v="L 600a"/>
    <tag k="source:maxspeed" v="sign"/>
  </way>
</osm>
