<?xml version='1.0' encoding='UTF-8'?>
<osm version="0.6" generator="libosmium/2.20.0">
  <way id="93959709" version="2" timestamp="2011-06-15T18:28:42Z" uid="88880" user="firsttimelinux" changeset="8449589">
    <nd ref="259201998"/>
    <nd ref="1092338807"/>
    <nd ref="259201999"/>
    <nd ref="539400615"/>
    <tag k="highway" v="service"/>
    <tag k="name" v="Bärenweg"/>
    <tag k="service" v="parking_aisle"/>
  </way>
  <way id="93959709" version="3" timestamp="2011-07-02T15:05:07Z" uid="334389" user="ueliw0" changeset="8608836">
    <nd ref="259201998"/>
    <nd ref="1346975793"/>
    <nd ref="1092338807"/>
    <nd ref="259201999"/>
    <nd ref="539400615"/>
    <tag k="highway" v="service"/>
    <tag k="name" v="Bärenweg"/>
    <tag k="service" v="parking_aisle"/>
  </way>
  <way id="93959709" version="4" timestamp="2012-04-24T10:45:48Z" uid="44456" user="twalter" changeset="11403764">
    <nd ref="259201998"/>
    <nd ref="1346975793"/>
    <nd ref="1092338807"/>
    <nd ref="259201999"/>
    <nd ref="539400615"/>
    <nd ref="539400610"/>
    <nd ref="60635034"/>
    <tag k="highway" v="service"/>
    <tag k="name" v="Bärenweg"/>
    <tag k="service" v="parking_aisle"/>
  </way>
</osm>
