<?xml version='1.0' encoding='UTF-8'?>
<osm version="0.6" generator="libosmium/2.20.0">
  <way id="94226093" version="1" timestamp="2011-01-09T20:11:36Z" uid="9581" user="Lobelt" changeset="6920075">
    <nd ref="1095028115"/>
    <nd ref="1046187632"/>
    <nd ref="1046185088"/>
    <nd ref="1095028085"/>
    <nd ref="1095028115"/>
    <tag k="addr:city" v="Heidelberg"/>
    <tag k="addr:housenumber" v="34"/>
    <tag k="addr:street" v="Moltkestraße"/>
    <tag k="building" v="yes"/>
  </way>
  <way id="94226093" version="2" timestamp="2011-03-23T15:04:19Z" uid="426119" user="Fürst Oslek" changeset="7647210">
    <nd ref="1095028115"/>
    <nd ref="1046187632"/>
    <nd ref="1046185088"/>
    <nd ref="1095028085"/>
    <nd ref="1095028115"/>
    <tag k="addr:city" v="Heidelberg"/>
    <tag k="addr:housenumber" v="34"/>
    <tag k="addr:street" v="Moltkestraße"/>
    <tag k="building" v="yes"/>
    <tag k="building:roof" v="hipped"/>
    <tag k="building:roof:colour" v="ada395"/>
  </way>
  <way id="94226096" version="1" timestamp="2011-01-09T20:11:37Z" uid="9581" user="Lobelt" changeset="6920075">
    <nd ref="1095028148"/>
    <nd ref="1095028180"/>
    <nd ref="1046183551"/>
    <nd ref="1046185658"/>
    <nd ref="1095028148"/>
    <tag k="addr:city" v="Heidelberg"/>
    <tag k="addr:housenumber" v="28"/>
    <tag k="addr:street" v="Moltkestraße"/>
    <tag k="building" v="yes"/>
  </way>
  <way id="94226096" version="2" timestamp="2011-03-23T15:05:05Z" uid="426119" user="Fürst Oslek" changeset="7647210">
    <nd ref="1095028148"/>
    <nd ref="1095028180"/>
    <nd ref="1046183551"/>
    <nd ref="1046185658"/>
    <nd ref="1095028148"/>
    <tag k="addr:city" v="Heidelberg"/>
    <tag k="addr:housenumber" v="28"/>
    <tag k="addr:street" v="Moltkestraße"/>
    <tag k="building" v="yes"/>
    <tag k="building:roof" v="hipped"/>
    <tag k="building:roof:colour" v="eecfaf"/>
  </way>
  <way id="94226099" version="1" timestamp="2011-01-09T20:11:37Z" uid="9581" user="Lobelt" changeset="6920075">
    <nd ref="1095028182"/>
    <nd ref="1095028143"/>
    <nd ref="1095028151"/>
    <nd ref="1095028202"/>
    <nd ref="1095028236"/>
    <nd ref="1095028154"/>
    <nd ref="1095028208"/>
    <nd ref="1095028240"/>
    <nd ref="1095028099"/>
    <nd ref="1095028212"/>
    <nd ref="1095028070"/>
    <nd ref="1095028104"/>
    <nd ref="1095028146"/>
    <nd ref="1095028073"/>
    <nd ref="1095028182"/>
    <tag k="addr:city" v="Heidelberg"/>
    <tag k="addr:housenumber" v="83"/>
    <tag k="addr:street" v="Keplerstraße"/>
    <tag k="building" v="yes"/>
  </way>
  <way id="94226099" version="2" timestamp="2011-03-23T15:01:18Z" uid="426119" user="Fürst Oslek" changeset="7647210">
    <nd ref="1095028182"/>
    <nd ref="1095028143"/>
    <nd ref="1095028151"/>
    <nd ref="1095028202"/>
    <nd ref="1095028236"/>
    <nd ref="1095028154"/>
    <nd ref="1095028208"/>
    <nd ref="1095028240"/>
    <nd ref="1095028099"/>
    <nd ref="1095028212"/>
    <nd ref="1095028070"/>
    <nd ref="1095028104"/>
    <nd ref="1095028146"/>
    <nd ref="1095028073"/>
    <nd ref="1095028182"/>
    <tag k="addr:city" v="Heidelberg"/>
    <tag k="addr:housenumber" v="83"/>
    <tag k="addr:street" v="Keplerstraße"/>
    <tag k="building" v="yes"/>
    <tag k="building:roof:colour" v="ada395"/>
  </way>
  <way id="94226101" version="1" timestamp="2011-01-09T20:11:38Z" uid="9581" user="Lobelt" changeset="6920075">
    <nd ref="1095028213"/>
    <nd ref="1095028186"/>
    <nd ref="1095028217"/>
    <nd ref="1095028089"/>
    <nd ref="1095028118"/>
    <nd ref="1095028232"/>
    <nd ref="1095028093"/>
    <nd ref="1095028119"/>
    <nd ref="1095028213"/>
    <tag k="addr:city" v="Heidelberg"/>
    <tag k="addr:housenumber" v="87"/>
    <tag k="addr:street" v="Keplerstraße"/>
    <tag k="amenity" v="university"/>
    <tag k="name" v="Pädagogische Hochschule Heidelberg"/>
  </way>
  <way id="94226105" version="1" timestamp="2011-01-09T20:11:38Z" uid="9581" user="Lobelt" changeset="6920075">
    <nd ref="1095028242"/>
    <nd ref="1095028173"/>
    <nd ref="1095028102"/>
    <nd ref="1095028145"/>
    <nd ref="1095028153"/>
    <tag k="access" v="private"/>
    <tag k="highway" v="service"/>
    <tag k="service" v="parking_aisle"/>
  </way>
  <way id="94226107" version="1" timestamp="2011-01-09T20:11:38Z" uid="9581" user="Lobelt" changeset="6920075">
    <nd ref="1095028210"/>
    <nd ref="1095028183"/>
    <nd ref="1095028117"/>
    <nd ref="1095028150"/>
    <nd ref="1095028210"/>
    <tag k="access" v="private"/>
    <tag k="amenity" v="parking"/>
    <tag k="parking" v="surface"/>
  </way>
  <way id="94226109" version="1" timestamp="2011-01-09T20:11:39Z" uid="9581" user="Lobelt" changeset="6920075">
    <nd ref="1095028102"/>
    <nd ref="1095028114"/>
    <tag k="access" v="private"/>
    <tag k="highway" v="service"/>
    <tag k="service" v="parking_aisle"/>
  </way>
  <way id="94226093" version="3" timestamp="2012-07-17T05:27:15Z" uid="722137" user="OSMF Redaction Account" changeset="12257724"/>
  <way id="94226096" version="3" timestamp="2012-07-17T05:27:15Z" uid="722137" user="OSMF Redaction Account" changeset="12257724"/>
  <way id="94226099" version="3" timestamp="2012-07-17T05:27:15Z" uid="722137" user="OSMF Redaction Account" changeset="12257724"/>
  <way id="94226101" version="2" timestamp="2012-07-17T05:27:15Z" uid="722137" user="OSMF Redaction Account" changeset="12257724"/>
  <way id="94226105" version="2" timestamp="2012-07-17T05:27:15Z" uid="722137" user="OSMF Redaction Account" changeset="12257724"/>
  <way id="94226107" version="2" timestamp="2012-07-17T05:27:15Z" uid="722137" user="OSMF Redaction Account" changeset="12257724"/>
  <way id="94226109" version="2" timestamp="2012-07-17T05:27:15Z" uid="722137" user="OSMF Redaction Account" changeset="12257724"/>
</osm>
