<?xml version='1.0' encoding='UTF-8'?>
<osm version="0.6" generator="libosmium/2.20.0">
  <way id="9457507" version="6" timestamp="2010-03-27T12:59:22Z" uid="20587" user="balrog-kun" changeset="4245390">
    <nd ref="72346211"/>
    <nd ref="80476051"/>
    <tag k="bridge" v="yes"/>
    <tag k="created_by" v="Potlatch 0.10d"/>
    <tag k="highway" v="motorway"/>
    <tag k="layer" v="1"/>
    <tag k="name" v="Napa-Vallejo Highway"/>
    <tag k="name_1" v="State Highway 121"/>
    <tag k="name_2" v="State Highway 29"/>
    <tag k="oneway" v="yes"/>
    <tag k="tiger:cfcc" v="A11"/>
    <tag k="tiger:county" v="Napa, CA"/>
    <tag k="tiger:name_base" v="Napa-Vallejo"/>
    <tag k="tiger:name_base_1" v="State Highway 121"/>
    <tag k="tiger:name_base_2" v="State Highway 29"/>
    <tag k="tiger:name_direction_prefix" v="S"/>
    <tag k="tiger:name_type" v="Hwy"/>
    <tag k="tiger:reviewed" v="no"/>
    <tag k="tiger:separated" v="no"/>
    <tag k="tiger:source" v="tiger_import_dch_v0.6_20070809"/>
    <tag k="tiger:tlid" v="67416851:67416922:67423970:67416849"/>
  </way>
  <way id="9457507" version="7" timestamp="2010-12-02T23:33:38Z" uid="14293" user="dahveed76" changeset="6521130">
    <nd ref="72346211"/>
    <nd ref="1016953525"/>
    <tag k="bridge" v="yes"/>
    <tag k="highway" v="motorway"/>
    <tag k="layer" v="1"/>
    <tag k="name" v="Napa-Vallejo Highway"/>
    <tag k="name_1" v="State Highway 121"/>
    <tag k="name_2" v="State Highway 29"/>
    <tag k="oneway" v="yes"/>
    <tag k="tiger:cfcc" v="A11"/>
    <tag k="tiger:county" v="Napa, CA"/>
    <tag k="tiger:name_base" v="Napa-Vallejo"/>
    <tag k="tiger:name_base_1" v="State Highway 121"/>
    <tag k="tiger:name_base_2" v="State Highway 29"/>
    <tag k="tiger:name_direction_prefix" v="S"/>
    <tag k="tiger:name_type" v="Hwy"/>
    <tag k="tiger:reviewed" v="no"/>
    <tag k="tiger:separated" v="no"/>
    <tag k="tiger:source" v="tiger_import_dch_v0.6_20070809"/>
    <tag k="tiger:tlid" v="67416851:67416922:67423970:67416849"/>
  </way>
  <way id="9457507" version="8" timestamp="2011-06-27T13:28:16Z" uid="473471" user="NE3" changeset="8562081">
    <nd ref="72346211"/>
    <nd ref="1016953525"/>
    <tag k="bridge" v="yes"/>
    <tag k="highway" v="motorway"/>
    <tag k="lanes" v="2"/>
    <tag k="layer" v="1"/>
    <tag k="name" v="Napa-Vallejo Highway"/>
    <tag k="name_1" v="State Highway 121"/>
    <tag k="name_2" v="State Highway 29"/>
    <tag k="oneway" v="yes"/>
    <tag k="tiger:cfcc" v="A11"/>
    <tag k="tiger:county" v="Napa, CA"/>
    <tag k="tiger:name_base" v="Napa-Vallejo"/>
    <tag k="tiger:name_base_1" v="State Highway 121"/>
    <tag k="tiger:name_base_2" v="State Highway 29"/>
    <tag k="tiger:name_direction_prefix" v="S"/>
    <tag k="tiger:name_type" v="Hwy"/>
    <tag k="tiger:reviewed" v="no"/>
    <tag k="tiger:separated" v="no"/>
    <tag k="tiger:source" v="tiger_import_dch_v0.6_20070809"/>
    <tag k="tiger:tlid" v="67416851:67416922:67423970:67416849"/>
  </way>
  <way id="9457507" version="9" timestamp="2011-06-28T18:55:59Z" uid="473471" user="NE3" changeset="8574121">
    <nd ref="72346211"/>
    <nd ref="1016953525"/>
    <tag k="bridge" v="yes"/>
    <tag k="highway" v="motorway"/>
    <tag k="lanes" v="2"/>
    <tag k="layer" v="1"/>
    <tag k="name" v="Napa-Vallejo Highway"/>
    <tag k="oneway" v="yes"/>
    <tag k="ref" v="SR 29;SR 121"/>
    <tag k="tiger:cfcc" v="A11"/>
    <tag k="tiger:county" v="Napa, CA"/>
    <tag k="tiger:name_base" v="Napa-Vallejo"/>
    <tag k="tiger:name_base_1" v="State Highway 121"/>
    <tag k="tiger:name_base_2" v="State Highway 29"/>
    <tag k="tiger:name_direction_prefix" v="S"/>
    <tag k="tiger:name_type" v="Hwy"/>
    <tag k="tiger:reviewed" v="no"/>
    <tag k="tiger:separated" v="no"/>
    <tag k="tiger:source" v="tiger_import_dch_v0.6_20070809"/>
    <tag k="tiger:tlid" v="67416851:67416922:67423970:67416849"/>
  </way>
  <way id="9457518" version="16" timestamp="2010-03-27T12:59:22Z" uid="20587" user="balrog-kun" changeset="4245390">
    <nd ref="72344380"/>
    <nd ref="569782405"/>
    <nd ref="303687746"/>
    <nd ref="72344481"/>
    <nd ref="303687728"/>
    <nd ref="303687729"/>
    <nd ref="303687730"/>
    <tag k="highway" v="trunk"/>
    <tag k="name" v="Napa-Vallejo Highway"/>
    <tag k="name_1" v="State Highway 121"/>
    <tag k="name_2" v="State Highway 29"/>
    <tag k="ref" v="CA 29; CA 121"/>
  </way>
  <way id="9457518" version="17" timestamp="2010-12-02T23:12:39Z" uid="14293" user="dahveed76" changeset="6520774">
    <nd ref="72344380"/>
    <nd ref="569782405"/>
    <nd ref="72344481"/>
    <nd ref="303687728"/>
    <nd ref="303687729"/>
    <nd ref="303687730"/>
    <tag k="highway" v="trunk"/>
    <tag k="name" v="Napa-Vallejo Highway"/>
    <tag k="name_1" v="State Highway 121"/>
    <tag k="name_2" v="State Highway 29"/>
    <tag k="ref" v="CA 29; CA 121"/>
  </way>
  <way id="9457518" version="18" timestamp="2010-12-02T23:19:32Z" uid="14293" user="dahveed76" changeset="6520774">
    <nd ref="72344380"/>
    <nd ref="569782405"/>
    <nd ref="72344481"/>
    <nd ref="303687728"/>
    <nd ref="303687729"/>
    <nd ref="1016910584"/>
    <nd ref="303687730"/>
    <tag k="highway" v="trunk"/>
    <tag k="name" v="Napa-Vallejo Highway"/>
    <tag k="name_1" v="State Highway 121"/>
    <tag k="name_2" v="State Highway 29"/>
    <tag k="oneway" v="yes"/>
    <tag k="ref" v="CA 29; CA 121"/>
  </way>
  <way id="9457518" version="19" timestamp="2010-12-04T00:10:20Z" uid="14293" user="dahveed76" changeset="6533361">
    <nd ref="569782405"/>
    <nd ref="72344481"/>
    <nd ref="303687728"/>
    <nd ref="303687729"/>
    <nd ref="1016910584"/>
    <nd ref="303687730"/>
    <tag k="highway" v="trunk"/>
    <tag k="name" v="Napa-Vallejo Highway"/>
    <tag k="name_1" v="State Highway 121"/>
    <tag k="name_2" v="State Highway 29"/>
    <tag k="oneway" v="yes"/>
    <tag k="ref" v="CA 29; CA 121"/>
  </way>
  <way id="9457518" version="20" timestamp="2011-06-23T18:56:03Z" uid="473471" user="NE3" changeset="8525401">
    <nd ref="569782405"/>
    <nd ref="72344481"/>
    <nd ref="303687728"/>
    <nd ref="303687729"/>
    <nd ref="1016910584"/>
    <nd ref="303687730"/>
    <tag k="highway" v="motorway"/>
    <tag k="lanes" v="2"/>
    <tag k="name" v="Napa-Vallejo Highway"/>
    <tag k="name_1" v="State Highway 121"/>
    <tag k="name_2" v="State Highway 29"/>
    <tag k="oneway" v="yes"/>
    <tag k="ref" v="CA 29; CA 121"/>
  </way>
  <way id="9457518" version="21" timestamp="2011-08-07T11:42:10Z" uid="207745" user="NE2" changeset="8945765">
    <nd ref="569782405"/>
    <nd ref="72344481"/>
    <nd ref="303687728"/>
    <nd ref="303687729"/>
    <nd ref="1016910584"/>
    <nd ref="303687730"/>
    <tag k="highway" v="motorway"/>
    <tag k="lanes" v="2"/>
    <tag k="name" v="Napa-Vallejo Highway"/>
    <tag k="oneway" v="yes"/>
    <tag k="ref" v="CA 29; CA 121"/>
  </way>
  <way id="9457551" version="11" timestamp="2009-12-21T03:39:05Z" uid="30201" user="rrankin" changeset="3418254">
    <nd ref="77272875"/>
    <nd ref="72349141"/>
    <nd ref="72349155"/>
    <nd ref="72349170"/>
    <nd ref="311934613"/>
    <nd ref="311951991"/>
    <nd ref="597549223"/>
    <nd ref="72349212"/>
    <nd ref="72349232"/>
    <nd ref="597549231"/>
    <nd ref="311952944"/>
    <nd ref="311934598"/>
    <nd ref="72349241"/>
    <nd ref="311953070"/>
    <nd ref="311947010"/>
    <nd ref="313287033"/>
    <nd ref="72349256"/>
    <nd ref="597549240"/>
    <nd ref="50571298"/>
    <nd ref="313287037"/>
    <nd ref="50569423"/>
    <nd ref="72349279"/>
    <tag k="highway" v="secondary"/>
    <tag k="name" v="Bringelly Road"/>
  </way>
  <way id="9457551" version="12" timestamp="2010-02-01T05:50:43Z" uid="30201" user="rrankin" changeset="3765122">
    <nd ref="77272875"/>
    <nd ref="72349141"/>
    <nd ref="72349155"/>
    <nd ref="72349170"/>
    <nd ref="311934613"/>
    <nd ref="311951991"/>
    <nd ref="597549223"/>
    <nd ref="72349212"/>
    <nd ref="72349232"/>
    <nd ref="597549231"/>
    <nd ref="311952944"/>
    <nd ref="311934598"/>
    <nd ref="72349241"/>
    <nd ref="311953070"/>
    <nd ref="311947010"/>
    <nd ref="313287033"/>
    <nd ref="72349256"/>
    <nd ref="597549240"/>
    <nd ref="50571298"/>
    <nd ref="313287037"/>
    <nd ref="50569423"/>
    <nd ref="625089823"/>
    <tag k="highway" v="secondary"/>
    <tag k="name" v="Bringelly Road"/>
  </way>
  <way id="9457551" version="13" timestamp="2010-10-04T05:52:35Z" uid="61114" user="Trav" changeset="5950478">
    <nd ref="77272875"/>
    <nd ref="72349141"/>
    <nd ref="72349155"/>
    <nd ref="72349170"/>
    <nd ref="311934613"/>
    <nd ref="311951991"/>
    <nd ref="597549223"/>
    <nd ref="72349212"/>
    <nd ref="72349232"/>
    <nd ref="597549231"/>
    <nd ref="311952944"/>
    <nd ref="311934598"/>
    <nd ref="72349241"/>
    <nd ref="311953070"/>
    <nd ref="311947010"/>
    <nd ref="313287033"/>
    <nd ref="72349256"/>
    <nd ref="597549240"/>
    <nd ref="50571298"/>
    <nd ref="313287037"/>
    <nd ref="50569423"/>
    <nd ref="625089823"/>
    <tag k="highway" v="secondary"/>
    <tag k="name" v="Bringelly Road"/>
    <tag k="source:name" v="survey"/>
  </way>
  <way id="9457991" version="5" timestamp="2010-07-07T22:46:36Z" uid="74617" user="JohnSmith" changeset="5162525">
    <nd ref="72359988"/>
    <nd ref="72360012"/>
    <nd ref="72360034"/>
    <tag k="highway" v="residential"/>
    <tag k="maxspeed" v="50"/>
    <tag k="maxspeed:source" v="default residential speed limit in Australia"/>
    <tag k="source" v="survey"/>
  </way>
  <way id="9457991" version="6" timestamp="2012-01-15T08:33:00Z" uid="147510" user="woodpeck_fixbot" changeset="10395278">
    <nd ref="72359988"/>
    <nd ref="72360012"/>
    <nd ref="72360034"/>
    <tag k="highway" v="residential"/>
    <tag k="source" v="survey"/>
  </way>
  <way id="9457507" version="10" timestamp="2012-08-21T13:49:07Z" uid="643201" user="lbacud" changeset="12808700">
    <nd ref="72346211"/>
    <nd ref="1016953525"/>
    <tag k="bridge" v="yes"/>
    <tag k="highway" v="motorway"/>
    <tag k="lanes" v="2"/>
    <tag k="layer" v="1"/>
    <tag k="name" v="Napa-Vallejo Highway"/>
    <tag k="oneway" v="yes"/>
    <tag k="ref" v="CA 29;CA 121"/>
    <tag k="tiger:cfcc" v="A11"/>
    <tag k="tiger:county" v="Napa, CA"/>
    <tag k="tiger:name_base" v="Napa-Vallejo"/>
    <tag k="tiger:name_base_1" v="State Highway 121"/>
    <tag k="tiger:name_base_2" v="State Highway 29"/>
    <tag k="tiger:name_direction_prefix" v="S"/>
    <tag k="tiger:name_type" v="Hwy"/>
    <tag k="tiger:reviewed" v="no"/>
    <tag k="tiger:separated" v="no"/>
    <tag k="tiger:source" v="tiger_import_dch_v0.6_20070809"/>
    <tag k="tiger:tlid" v="67416851:67416922:67423970:67416849"/>
  </way>
  <way id="9457518" version="22" timestamp="2012-07-19T00:23:51Z" uid="722137" user="OSMF Redaction Account" changeset="12302285">
    <nd ref="72344481"/>
    <nd ref="303687728"/>
    <nd ref="303687729"/>
    <nd ref="1016910584"/>
    <nd ref="303687730"/>
    <tag k="highway" v="motorway"/>
    <tag k="lanes" v="2"/>
    <tag k="name" v="Napa-Vallejo Highway"/>
    <tag k="oneway" v="yes"/>
    <tag k="ref" v="CA 29; CA 121"/>
  </way>
  <way id="9457518" version="23" timestamp="2012-08-21T13:56:09Z" uid="643201" user="lbacud" changeset="12808901">
    <nd ref="569782405"/>
    <nd ref="72344481"/>
    <nd ref="303687728"/>
    <nd ref="303687729"/>
    <nd ref="1016910584"/>
    <nd ref="303687730"/>
    <tag k="highway" v="motorway"/>
    <tag k="lanes" v="2"/>
    <tag k="name" v="Napa-Vallejo Highway"/>
    <tag k="oneway" v="yes"/>
    <tag k="ref" v="CA 29; CA 121"/>
  </way>
  <way id="9457551" version="14" timestamp="2012-07-22T08:34:36Z" uid="722137" user="OSMF Redaction Account" changeset="12427980">
    <nd ref="77272875"/>
    <nd ref="72349141"/>
    <nd ref="72349155"/>
    <nd ref="72349170"/>
    <nd ref="311934613"/>
    <nd ref="311951991"/>
    <nd ref="72349212"/>
    <nd ref="72349232"/>
    <nd ref="311952944"/>
    <nd ref="311934598"/>
    <nd ref="72349241"/>
    <nd ref="311953070"/>
    <nd ref="311947010"/>
    <nd ref="313287033"/>
    <nd ref="72349256"/>
    <nd ref="50571298"/>
    <nd ref="313287037"/>
    <nd ref="50569423"/>
    <tag k="highway" v="secondary"/>
    <tag k="name" v="Bringelly Road"/>
  </way>
  <way id="9457551" version="15" timestamp="2012-07-23T04:18:05Z" uid="47167" user="MCH" changeset="12443705">
    <nd ref="77272875"/>
    <nd ref="72349141"/>
    <nd ref="72349155"/>
    <nd ref="72349170"/>
    <nd ref="311934613"/>
    <nd ref="311951991"/>
    <nd ref="72349212"/>
    <nd ref="72349232"/>
    <nd ref="311952944"/>
    <nd ref="311934598"/>
    <nd ref="72349241"/>
    <nd ref="311953070"/>
    <nd ref="311947010"/>
    <nd ref="313287033"/>
    <nd ref="72349256"/>
    <nd ref="50571298"/>
    <nd ref="313287037"/>
    <nd ref="50569423"/>
    <nd ref="1834910469"/>
    <tag k="highway" v="secondary"/>
    <tag k="name" v="Bringelly Road"/>
  </way>
  <way id="9457551" version="16" timestamp="2012-07-23T05:28:40Z" uid="751139" user="Hampsterman" changeset="12444094">
    <nd ref="1834940829"/>
    <nd ref="72349141"/>
    <nd ref="72349155"/>
    <nd ref="72349170"/>
    <nd ref="311934613"/>
    <nd ref="311951991"/>
    <nd ref="72349212"/>
    <nd ref="72349232"/>
    <nd ref="311952944"/>
    <nd ref="311934598"/>
    <nd ref="72349241"/>
    <nd ref="311953070"/>
    <nd ref="311947010"/>
    <nd ref="313287033"/>
    <nd ref="72349256"/>
    <nd ref="50571298"/>
    <nd ref="313287037"/>
    <nd ref="50569423"/>
    <nd ref="1834910469"/>
    <tag k="highway" v="secondary"/>
    <tag k="name" v="Bringelly Road"/>
  </way>
  <way id="9457551" version="17" timestamp="2012-07-23T05:48:17Z" uid="751139" user="Hampsterman" changeset="12444094">
    <nd ref="1834940829"/>
    <nd ref="72349141"/>
    <nd ref="72349155"/>
    <nd ref="72349170"/>
    <nd ref="311934613"/>
    <nd ref="311951991"/>
    <nd ref="72349212"/>
    <nd ref="72349232"/>
    <nd ref="1834948481"/>
    <nd ref="311952944"/>
    <nd ref="311934598"/>
    <nd ref="72349241"/>
    <nd ref="311953070"/>
    <nd ref="311947010"/>
    <nd ref="313287033"/>
    <nd ref="72349256"/>
    <nd ref="50571298"/>
    <nd ref="313287037"/>
    <nd ref="50569423"/>
    <nd ref="1834910469"/>
    <tag k="highway" v="secondary"/>
    <tag k="name" v="Bringelly Road"/>
  </way>
  <way id="9457551" version="18" timestamp="2012-07-25T07:43:29Z" uid="47167" user="MCH" changeset="12482706">
    <nd ref="1834940839"/>
    <nd ref="1834940829"/>
    <nd ref="72349141"/>
    <nd ref="1837341837"/>
    <nd ref="1837341879"/>
    <nd ref="72349155"/>
    <nd ref="1837341844"/>
    <nd ref="311934613"/>
    <nd ref="311951991"/>
    <nd ref="1837341790"/>
    <nd ref="72349212"/>
    <nd ref="1837341800"/>
    <nd ref="72349232"/>
    <nd ref="1834948481"/>
    <nd ref="311952944"/>
    <nd ref="311934598"/>
    <nd ref="72349241"/>
    <nd ref="311953070"/>
    <nd ref="311947010"/>
    <nd ref="313287033"/>
    <nd ref="72349256"/>
    <nd ref="50571298"/>
    <nd ref="313287037"/>
    <nd ref="50569423"/>
    <nd ref="1834910469"/>
    <tag k="highway" v="secondary"/>
    <tag k="name" v="Bringelly Road"/>
  </way>
</osm>
