<?xml version='1.0' encoding='UTF-8'?>
<osm version="0.6" generator="libosmium/2.20.0">
  <way id="9472565" version="7" timestamp="2010-02-14T17:11:34Z" uid="74617" user="JohnSmith" changeset="3875836">
    <nd ref="21592036"/>
    <nd ref="72665681"/>
    <nd ref="72665683"/>
    <nd ref="72665065"/>
    <tag k="highway" v="tertiary"/>
    <tag k="name" v="Turbot Street"/>
    <tag k="oneway" v="yes"/>
  </way>
  <way id="9472565" version="8" timestamp="2012-03-10T10:18:44Z" uid="103574" user="Here is the repulsant snozzcumber!" changeset="10929956"/>
  <way id="9472604" version="33" timestamp="2010-02-07T09:55:44Z" uid="164966" user="linuss1" changeset="3812218">
    <nd ref="632238163"/>
    <nd ref="632238161"/>
    <nd ref="305216460"/>
    <nd ref="69341390"/>
    <nd ref="321434195"/>
    <nd ref="305216480"/>
    <nd ref="286927711"/>
    <nd ref="72832315"/>
    <nd ref="68826632"/>
    <tag k="highway" v="tertiary"/>
    <tag k="maxspeed" v="50"/>
    <tag k="name" v="Feldstraße"/>
  </way>
  <way id="9472604" version="34" timestamp="2010-02-10T21:47:51Z" uid="16214" user="josias" changeset="3843996">
    <nd ref="632238163"/>
    <nd ref="632238161"/>
    <nd ref="635342514"/>
    <nd ref="635342504"/>
    <nd ref="305216460"/>
    <nd ref="635342492"/>
    <nd ref="69341390"/>
    <nd ref="635342469"/>
    <nd ref="635342455"/>
    <nd ref="305216480"/>
    <nd ref="286927711"/>
    <nd ref="72832315"/>
    <nd ref="68826632"/>
    <tag k="highway" v="tertiary"/>
    <tag k="maxspeed" v="50"/>
    <tag k="name" v="Feldstraße"/>
  </way>
  <way id="9472604" version="35" timestamp="2010-08-19T20:38:14Z" uid="164966" user="linuss1" changeset="5538843">
    <nd ref="632238163"/>
    <nd ref="632238161"/>
    <nd ref="635342514"/>
    <nd ref="635342504"/>
    <nd ref="305216460"/>
    <nd ref="635342492"/>
    <nd ref="69341390"/>
    <nd ref="635342469"/>
    <nd ref="635342455"/>
    <nd ref="305216480"/>
    <nd ref="286927711"/>
    <nd ref="72832315"/>
    <nd ref="68826632"/>
    <tag k="cycleway" v="lane"/>
    <tag k="highway" v="tertiary"/>
    <tag k="maxspeed" v="50"/>
    <tag k="name" v="Feldstraße"/>
  </way>
  <way id="9472604" version="36" timestamp="2010-12-19T00:20:42Z" uid="179890" user="Someone561" changeset="6701992">
    <nd ref="68666292"/>
    <nd ref="632238161"/>
    <nd ref="635342514"/>
    <nd ref="635342504"/>
    <nd ref="305216460"/>
    <nd ref="635342492"/>
    <nd ref="69341390"/>
    <nd ref="635342469"/>
    <nd ref="635342455"/>
    <nd ref="305216480"/>
    <nd ref="286927711"/>
    <nd ref="72832315"/>
    <nd ref="68826632"/>
    <tag k="cycleway" v="lane"/>
    <tag k="highway" v="tertiary"/>
    <tag k="maxspeed" v="50"/>
    <tag k="name" v="Feldstraße"/>
  </way>
  <way id="9472604" version="37" timestamp="2011-04-14T20:52:56Z" uid="16214" user="josias" changeset="7865011">
    <nd ref="68666292"/>
    <nd ref="632238161"/>
    <tag k="cycleway" v="lane"/>
    <tag k="highway" v="tertiary"/>
    <tag k="maxspeed" v="50"/>
    <tag k="name" v="Feldstraße"/>
  </way>
  <way id="9472604" version="38" timestamp="2012-01-13T09:59:27Z" uid="208474" user="Joke123" changeset="10376759">
    <nd ref="68666292"/>
    <nd ref="1588212210"/>
    <nd ref="632238161"/>
    <tag k="cycleway" v="lane"/>
    <tag k="highway" v="tertiary"/>
    <tag k="maxspeed" v="50"/>
    <tag k="name" v="Feldstraße"/>
  </way>
  <way id="9472982" version="7" timestamp="2010-02-14T17:05:06Z" uid="74617" user="JohnSmith" changeset="3875836">
    <nd ref="255828101"/>
    <nd ref="72680867"/>
    <nd ref="255828581"/>
    <nd ref="26336100"/>
    <tag k="layer" v="-1"/>
    <tag k="name" v="Gold Coast Railway"/>
    <tag k="railway" v="rail"/>
    <tag k="tunnel" v="yes"/>
  </way>
</osm>
