<?xml version='1.0' encoding='UTF-8'?>
<osm version="0.6" generator="libosmium/2.20.0">
  <way id="94767054" version="1" timestamp="2011-01-12T17:23:25Z" uid="115477" user="wowik" changeset="6949292">
    <nd ref="1100305398"/>
    <nd ref="1100305636"/>
    <nd ref="1100305576"/>
    <nd ref="1100305168"/>
    <nd ref="1100305398"/>
    <tag k="addr:city" v="Зеленоград"/>
    <tag k="addr:housenumber" v="1с1"/>
    <tag k="addr:street" v="улица Крупской"/>
    <tag k="building" v="yes"/>
    <tag k="is_in" v="Russia"/>
  </way>
  <way id="94767054" version="2" timestamp="2011-01-17T15:14:03Z" uid="115477" user="wowik" changeset="7000395">
    <nd ref="1100305398"/>
    <nd ref="1100305636"/>
    <nd ref="1100305576"/>
    <nd ref="1100305168"/>
    <nd ref="1100305398"/>
    <tag k="addr:city" v="Зеленоград"/>
    <tag k="addr:housenumber" v="1с2"/>
    <tag k="addr:street" v="улица Крупской"/>
    <tag k="building" v="yes"/>
    <tag k="is_in" v="Russia"/>
  </way>
  <way id="94767054" version="3" timestamp="2011-01-19T17:07:41Z" uid="70696" user="xybot" changeset="7021015">
    <nd ref="1100305398"/>
    <nd ref="1100305636"/>
    <nd ref="1100305576"/>
    <nd ref="1100305168"/>
    <nd ref="1100305398"/>
    <tag k="addr:city" v="Зеленоград"/>
    <tag k="addr:housenumber" v="1 с2"/>
    <tag k="addr:street" v="улица Крупской"/>
    <tag k="building" v="yes"/>
    <tag k="is_in" v="Russia"/>
  </way>
  <way id="94767054" version="4" timestamp="2011-09-13T10:20:42Z" uid="29320" user="Komяpa" changeset="9288237">
    <nd ref="1100305398"/>
    <nd ref="1100305636"/>
    <nd ref="1100305576"/>
    <nd ref="1100305168"/>
    <nd ref="1100305398"/>
    <tag k="addr:city" v="Зеленоград"/>
    <tag k="addr:country" v="RU"/>
    <tag k="addr:housenumber" v="1 с2"/>
    <tag k="addr:street" v="улица Крупской"/>
    <tag k="building" v="yes"/>
  </way>
  <way id="94767054" version="5" timestamp="2012-03-27T11:33:02Z" uid="481934" user="iWowik" changeset="11115472">
    <nd ref="1100305398"/>
    <nd ref="1100305636"/>
    <nd ref="1100305576"/>
    <nd ref="1100305168"/>
    <nd ref="1100305398"/>
    <tag k="addr:city" v="Зеленоград"/>
    <tag k="addr:country" v="RU"/>
    <tag k="addr:housenumber" v="1 с2"/>
    <tag k="addr:region" v="Москва"/>
    <tag k="addr:street" v="улица Крупской"/>
    <tag k="building" v="yes"/>
  </way>
  <way id="94767058" version="1" timestamp="2011-01-12T17:23:26Z" uid="115477" user="wowik" changeset="6949292">
    <nd ref="1100305585"/>
    <nd ref="1100305239"/>
    <nd ref="1100305512"/>
    <nd ref="1100305131"/>
    <nd ref="1100305585"/>
    <tag k="leisure" v="pitch"/>
  </way>
  <way id="94767061" version="1" timestamp="2011-01-12T17:23:26Z" uid="115477" user="wowik" changeset="6949292">
    <nd ref="1100305624"/>
    <nd ref="1100305282"/>
    <nd ref="1100305104"/>
    <nd ref="1100305404"/>
    <nd ref="1100305624"/>
    <tag k="addr:city" v="Зеленоград"/>
    <tag k="addr:housenumber" v="1с3"/>
    <tag k="addr:street" v="улица Крупской"/>
    <tag k="building" v="yes"/>
    <tag k="is_in" v="Russia"/>
  </way>
  <way id="94767061" version="2" timestamp="2011-01-19T17:07:41Z" uid="70696" user="xybot" changeset="7021015">
    <nd ref="1100305624"/>
    <nd ref="1100305282"/>
    <nd ref="1100305104"/>
    <nd ref="1100305404"/>
    <nd ref="1100305624"/>
    <tag k="addr:city" v="Зеленоград"/>
    <tag k="addr:housenumber" v="1 с3"/>
    <tag k="addr:street" v="улица Крупской"/>
    <tag k="building" v="yes"/>
    <tag k="is_in" v="Russia"/>
  </way>
  <way id="94767061" version="3" timestamp="2011-09-13T10:20:46Z" uid="29320" user="Komяpa" changeset="9288237">
    <nd ref="1100305624"/>
    <nd ref="1100305282"/>
    <nd ref="1100305104"/>
    <nd ref="1100305404"/>
    <nd ref="1100305624"/>
    <tag k="addr:city" v="Зеленоград"/>
    <tag k="addr:country" v="RU"/>
    <tag k="addr:housenumber" v="1 с3"/>
    <tag k="addr:street" v="улица Крупской"/>
    <tag k="building" v="yes"/>
  </way>
  <way id="94767061" version="4" timestamp="2012-03-27T11:33:07Z" uid="481934" user="iWowik" changeset="11115472">
    <nd ref="1100305624"/>
    <nd ref="1100305282"/>
    <nd ref="1100305104"/>
    <nd ref="1100305404"/>
    <nd ref="1100305624"/>
    <tag k="addr:city" v="Зеленоград"/>
    <tag k="addr:country" v="RU"/>
    <tag k="addr:housenumber" v="1 с3"/>
    <tag k="addr:region" v="Москва"/>
    <tag k="addr:street" v="улица Крупской"/>
    <tag k="building" v="yes"/>
  </way>
  <way id="94767066" version="1" timestamp="2011-01-12T17:23:26Z" uid="115477" user="wowik" changeset="6949292">
    <nd ref="1100305209"/>
    <nd ref="1100305501"/>
    <nd ref="1100305094"/>
    <nd ref="1100305395"/>
    <nd ref="1100305209"/>
    <tag k="addr:city" v="Зеленоград"/>
    <tag k="addr:housenumber" v="3с1"/>
    <tag k="addr:street" v="улица 1 Мая"/>
    <tag k="building" v="yes"/>
    <tag k="building:levels" v="1"/>
    <tag k="is_in" v="Russia"/>
  </way>
  <way id="94767066" version="2" timestamp="2011-01-19T17:07:42Z" uid="70696" user="xybot" changeset="7021015">
    <nd ref="1100305209"/>
    <nd ref="1100305501"/>
    <nd ref="1100305094"/>
    <nd ref="1100305395"/>
    <nd ref="1100305209"/>
    <tag k="addr:city" v="Зеленоград"/>
    <tag k="addr:housenumber" v="3 с1"/>
    <tag k="addr:street" v="улица 1 Мая"/>
    <tag k="building" v="yes"/>
    <tag k="building:levels" v="1"/>
    <tag k="is_in" v="Russia"/>
  </way>
  <way id="94767066" version="3" timestamp="2011-09-13T10:25:27Z" uid="29320" user="Komяpa" changeset="9288237">
    <nd ref="1100305209"/>
    <nd ref="1100305501"/>
    <nd ref="1100305094"/>
    <nd ref="1100305395"/>
    <nd ref="1100305209"/>
    <tag k="addr:city" v="Зеленоград"/>
    <tag k="addr:country" v="RU"/>
    <tag k="addr:housenumber" v="3 с1"/>
    <tag k="addr:street" v="улица 1 Мая"/>
    <tag k="building" v="yes"/>
    <tag k="building:levels" v="1"/>
  </way>
  <way id="94767066" version="4" timestamp="2012-03-27T11:40:52Z" uid="481934" user="iWowik" changeset="11115472">
    <nd ref="1100305209"/>
    <nd ref="1100305501"/>
    <nd ref="1100305094"/>
    <nd ref="1100305395"/>
    <nd ref="1100305209"/>
    <tag k="addr:city" v="Зеленоград"/>
    <tag k="addr:country" v="RU"/>
    <tag k="addr:housenumber" v="3 с1"/>
    <tag k="addr:region" v="Москва"/>
    <tag k="addr:street" v="улица 1 Мая"/>
    <tag k="building" v="yes"/>
    <tag k="building:levels" v="1"/>
  </way>
  <way id="94767068" version="1" timestamp="2011-01-12T17:23:27Z" uid="115477" user="wowik" changeset="6949292">
    <nd ref="1100305212"/>
    <nd ref="1100305502"/>
    <nd ref="1100305096"/>
    <nd ref="1100305400"/>
    <nd ref="1100305212"/>
    <tag k="addr:city" v="Зеленоград"/>
    <tag k="addr:housenumber" v="6Ас1?"/>
    <tag k="addr:street" v="улица Крупской"/>
    <tag k="building" v="yes"/>
    <tag k="building:levels" v="1"/>
    <tag k="is_in" v="Russia"/>
  </way>
  <way id="94767068" version="2" timestamp="2011-01-17T15:14:14Z" uid="115477" user="wowik" changeset="7000395">
    <nd ref="1100305212"/>
    <nd ref="1100305502"/>
    <nd ref="1100305096"/>
    <nd ref="1100305400"/>
    <nd ref="1100305212"/>
    <tag k="addr:city" v="Зеленоград"/>
    <tag k="addr:street" v="улица Крупской"/>
    <tag k="building" v="yes"/>
    <tag k="building:levels" v="1"/>
    <tag k="is_in" v="Russia"/>
  </way>
  <way id="94767068" version="3" timestamp="2011-09-13T10:37:48Z" uid="29320" user="Komяpa" changeset="9288237">
    <nd ref="1100305212"/>
    <nd ref="1100305502"/>
    <nd ref="1100305096"/>
    <nd ref="1100305400"/>
    <nd ref="1100305212"/>
    <tag k="addr:city" v="Зеленоград"/>
    <tag k="addr:country" v="RU"/>
    <tag k="addr:street" v="улица Крупской"/>
    <tag k="building" v="yes"/>
    <tag k="building:levels" v="1"/>
  </way>
  <way id="94767068" version="4" timestamp="2012-03-27T11:50:58Z" uid="481934" user="iWowik" changeset="11115472">
    <nd ref="1100305212"/>
    <nd ref="1100305502"/>
    <nd ref="1100305096"/>
    <nd ref="1100305400"/>
    <nd ref="1100305212"/>
    <tag k="addr:city" v="Зеленоград"/>
    <tag k="addr:country" v="RU"/>
    <tag k="addr:region" v="Москва"/>
    <tag k="addr:street" v="улица Крупской"/>
    <tag k="building" v="yes"/>
    <tag k="building:levels" v="1"/>
  </way>
  <way id="94767073" version="1" timestamp="2011-01-12T17:23:27Z" uid="115477" user="wowik" changeset="6949292">
    <nd ref="1100305534"/>
    <nd ref="1100305220"/>
    <nd ref="1100305324"/>
    <nd ref="1100305498"/>
    <nd ref="1100305370"/>
    <nd ref="1100305136"/>
    <nd ref="1100305414"/>
    <nd ref="1100305020"/>
    <nd ref="1100305534"/>
    <tag k="addr:city" v="Зеленоград"/>
    <tag k="addr:housenumber" v="7"/>
    <tag k="addr:street" v="улица 1 Мая"/>
    <tag k="building" v="yes"/>
    <tag k="building:use" v="residential"/>
    <tag k="is_in" v="Russia"/>
    <tag k="note" v="abandoned?"/>
  </way>
  <way id="94767073" version="2" timestamp="2011-09-13T10:28:16Z" uid="29320" user="Komяpa" changeset="9288237">
    <nd ref="1100305534"/>
    <nd ref="1100305220"/>
    <nd ref="1100305324"/>
    <nd ref="1100305498"/>
    <nd ref="1100305370"/>
    <nd ref="1100305136"/>
    <nd ref="1100305414"/>
    <nd ref="1100305020"/>
    <nd ref="1100305534"/>
    <tag k="addr:city" v="Зеленоград"/>
    <tag k="addr:country" v="RU"/>
    <tag k="addr:housenumber" v="7"/>
    <tag k="addr:street" v="улица 1 Мая"/>
    <tag k="building" v="yes"/>
    <tag k="building:use" v="residential"/>
    <tag k="note" v="abandoned?"/>
  </way>
  <way id="94767073" version="3" timestamp="2012-03-27T11:45:50Z" uid="481934" user="iWowik" changeset="11115472">
    <nd ref="1100305534"/>
    <nd ref="1100305220"/>
    <nd ref="1100305324"/>
    <nd ref="1100305498"/>
    <nd ref="1100305370"/>
    <nd ref="1100305136"/>
    <nd ref="1100305414"/>
    <nd ref="1100305020"/>
    <nd ref="1100305534"/>
    <tag k="addr:city" v="Зеленоград"/>
    <tag k="addr:country" v="RU"/>
    <tag k="addr:housenumber" v="7"/>
    <tag k="addr:region" v="Москва"/>
    <tag k="addr:street" v="улица 1 Мая"/>
    <tag k="building" v="yes"/>
    <tag k="building:use" v="residential"/>
    <tag k="note" v="abandoned?"/>
  </way>
  <way id="94767077" version="1" timestamp="2011-01-12T17:23:28Z" uid="115477" user="wowik" changeset="6949292">
    <nd ref="1100305641"/>
    <nd ref="1100305319"/>
    <nd ref="1100305582"/>
    <nd ref="1100305218"/>
    <nd ref="1100305641"/>
    <tag k="leisure" v="pitch"/>
  </way>
  <way id="94767081" version="1" timestamp="2011-01-12T17:23:29Z" uid="115477" user="wowik" changeset="6949292">
    <nd ref="1100305050"/>
    <nd ref="1100305348"/>
    <nd ref="1100305603"/>
    <nd ref="1100305272"/>
    <nd ref="1100305050"/>
    <tag k="building" v="yes"/>
  </way>
  <way id="94767081" version="2" timestamp="2012-03-27T08:12:52Z" uid="481934" user="iWowik" changeset="11113698">
    <nd ref="1100305050"/>
    <nd ref="1100305348"/>
    <nd ref="1100305603"/>
    <nd ref="1100305272"/>
    <nd ref="1100305050"/>
    <tag k="addr:city" v="Зеленоград"/>
    <tag k="addr:country" v="RU"/>
    <tag k="building" v="yes"/>
  </way>
  <way id="94767081" version="3" timestamp="2012-03-27T11:51:15Z" uid="481934" user="iWowik" changeset="11115472">
    <nd ref="1100305050"/>
    <nd ref="1100305348"/>
    <nd ref="1100305603"/>
    <nd ref="1100305272"/>
    <nd ref="1100305050"/>
    <tag k="addr:city" v="Зеленоград"/>
    <tag k="addr:country" v="RU"/>
    <tag k="addr:region" v="Москва"/>
    <tag k="building" v="yes"/>
  </way>
  <way id="94767082" version="1" timestamp="2011-01-12T17:23:29Z" uid="115477" user="wowik" changeset="6949292">
    <nd ref="1100305537"/>
    <nd ref="1100305166"/>
    <nd ref="1100305449"/>
    <nd ref="1100305045"/>
    <nd ref="1100305537"/>
    <tag k="addr:city" v="Зеленоград"/>
    <tag k="addr:housenumber" v="10с1"/>
    <tag k="addr:street" v="Заводская улица"/>
    <tag k="building" v="yes"/>
    <tag k="building:levels" v="1"/>
    <tag k="is_in" v="Russia"/>
  </way>
  <way id="94767082" version="2" timestamp="2011-01-19T17:07:43Z" uid="70696" user="xybot" changeset="7021015">
    <nd ref="1100305537"/>
    <nd ref="1100305166"/>
    <nd ref="1100305449"/>
    <nd ref="1100305045"/>
    <nd ref="1100305537"/>
    <tag k="addr:city" v="Зеленоград"/>
    <tag k="addr:housenumber" v="10 с1"/>
    <tag k="addr:street" v="Заводская улица"/>
    <tag k="building" v="yes"/>
    <tag k="building:levels" v="1"/>
    <tag k="is_in" v="Russia"/>
  </way>
  <way id="94767082" version="3" timestamp="2011-09-13T10:20:58Z" uid="29320" user="Komяpa" changeset="9288237">
    <nd ref="1100305537"/>
    <nd ref="1100305166"/>
    <nd ref="1100305449"/>
    <nd ref="1100305045"/>
    <nd ref="1100305537"/>
    <tag k="addr:city" v="Зеленоград"/>
    <tag k="addr:country" v="RU"/>
    <tag k="addr:housenumber" v="10 с1"/>
    <tag k="addr:street" v="Заводская улица"/>
    <tag k="building" v="yes"/>
    <tag k="building:levels" v="1"/>
  </way>
  <way id="94767082" version="4" timestamp="2012-03-27T11:33:29Z" uid="481934" user="iWowik" changeset="11115472">
    <nd ref="1100305537"/>
    <nd ref="1100305166"/>
    <nd ref="1100305449"/>
    <nd ref="1100305045"/>
    <nd ref="1100305537"/>
    <tag k="addr:city" v="Зеленоград"/>
    <tag k="addr:country" v="RU"/>
    <tag k="addr:housenumber" v="10 с1"/>
    <tag k="addr:region" v="Москва"/>
    <tag k="addr:street" v="Заводская улица"/>
    <tag k="building" v="yes"/>
    <tag k="building:levels" v="1"/>
  </way>
  <way id="94767087" version="1" timestamp="2011-01-12T17:23:30Z" uid="115477" user="wowik" changeset="6949292">
    <nd ref="1100305052"/>
    <nd ref="1100305139"/>
    <nd ref="1100305062"/>
    <tag k="barrier" v="fence"/>
  </way>
  <way id="94767089" version="1" timestamp="2011-01-12T17:23:30Z" uid="115477" user="wowik" changeset="6949292">
    <nd ref="1100305137"/>
    <nd ref="1100305419"/>
    <nd ref="1100305022"/>
    <nd ref="1100305326"/>
    <nd ref="1100305137"/>
    <tag k="building" v="yes"/>
  </way>
  <way id="94767089" version="2" timestamp="2012-03-27T08:12:39Z" uid="481934" user="iWowik" changeset="11113698">
    <nd ref="1100305137"/>
    <nd ref="1100305419"/>
    <nd ref="1100305022"/>
    <nd ref="1100305326"/>
    <nd ref="1100305137"/>
    <tag k="addr:city" v="Зеленоград"/>
    <tag k="addr:country" v="RU"/>
    <tag k="building" v="yes"/>
  </way>
  <way id="94767089" version="3" timestamp="2012-03-27T11:53:11Z" uid="481934" user="iWowik" changeset="11115472">
    <nd ref="1100305137"/>
    <nd ref="1100305419"/>
    <nd ref="1100305022"/>
    <nd ref="1100305326"/>
    <nd ref="1100305137"/>
    <tag k="addr:city" v="Зеленоград"/>
    <tag k="addr:country" v="RU"/>
    <tag k="addr:region" v="Москва"/>
    <tag k="building" v="yes"/>
  </way>
  <way id="94767091" version="1" timestamp="2011-01-12T17:23:30Z" uid="115477" user="wowik" changeset="6949292">
    <nd ref="1100305356"/>
    <nd ref="1100305618"/>
    <nd ref="1100305278"/>
    <nd ref="1100305269"/>
    <nd ref="1100305356"/>
    <tag k="addr:city" v="Зеленоград"/>
    <tag k="addr:housenumber" v="14Г"/>
    <tag k="addr:street" v="Заводская улица"/>
    <tag k="building" v="yes"/>
    <tag k="building:levels" v="1"/>
    <tag k="is_in" v="Russia"/>
  </way>
  <way id="94767091" version="2" timestamp="2011-09-13T10:22:32Z" uid="29320" user="Komяpa" changeset="9288237">
    <nd ref="1100305356"/>
    <nd ref="1100305618"/>
    <nd ref="1100305278"/>
    <nd ref="1100305269"/>
    <nd ref="1100305356"/>
    <tag k="addr:city" v="Зеленоград"/>
    <tag k="addr:country" v="RU"/>
    <tag k="addr:housenumber" v="14Г"/>
    <tag k="addr:street" v="Заводская улица"/>
    <tag k="building" v="yes"/>
    <tag k="building:levels" v="1"/>
  </way>
  <way id="94767091" version="3" timestamp="2012-03-27T11:35:53Z" uid="481934" user="iWowik" changeset="11115472">
    <nd ref="1100305356"/>
    <nd ref="1100305618"/>
    <nd ref="1100305278"/>
    <nd ref="1100305269"/>
    <nd ref="1100305356"/>
    <tag k="addr:city" v="Зеленоград"/>
    <tag k="addr:country" v="RU"/>
    <tag k="addr:housenumber" v="14Г"/>
    <tag k="addr:region" v="Москва"/>
    <tag k="addr:street" v="Заводская улица"/>
    <tag k="building" v="yes"/>
    <tag k="building:levels" v="1"/>
  </way>
  <way id="94767096" version="1" timestamp="2011-01-12T17:23:31Z" uid="115477" user="wowik" changeset="6949292">
    <nd ref="1100305571"/>
    <nd ref="1100305189"/>
    <nd ref="1100305473"/>
    <nd ref="1100305065"/>
    <nd ref="1100305571"/>
    <tag k="addr:city" v="Зеленоград"/>
    <tag k="addr:housenumber" v="14с1"/>
    <tag k="addr:street" v="Заводская улица"/>
    <tag k="building" v="yes"/>
    <tag k="building:levels" v="1"/>
    <tag k="is_in" v="Russia"/>
  </way>
  <way id="94767096" version="2" timestamp="2011-01-19T17:07:43Z" uid="70696" user="xybot" changeset="7021015">
    <nd ref="1100305571"/>
    <nd ref="1100305189"/>
    <nd ref="1100305473"/>
    <nd ref="1100305065"/>
    <nd ref="1100305571"/>
    <tag k="addr:city" v="Зеленоград"/>
    <tag k="addr:housenumber" v="14 с1"/>
    <tag k="addr:street" v="Заводская улица"/>
    <tag k="building" v="yes"/>
    <tag k="building:levels" v="1"/>
    <tag k="is_in" v="Russia"/>
  </way>
  <way id="94767096" version="3" timestamp="2011-09-13T10:22:21Z" uid="29320" user="Komяpa" changeset="9288237">
    <nd ref="1100305571"/>
    <nd ref="1100305189"/>
    <nd ref="1100305473"/>
    <nd ref="1100305065"/>
    <nd ref="1100305571"/>
    <tag k="addr:city" v="Зеленоград"/>
    <tag k="addr:country" v="RU"/>
    <tag k="addr:housenumber" v="14 с1"/>
    <tag k="addr:street" v="Заводская улица"/>
    <tag k="building" v="yes"/>
    <tag k="building:levels" v="1"/>
  </way>
  <way id="94767096" version="4" timestamp="2012-03-27T11:35:23Z" uid="481934" user="iWowik" changeset="11115472">
    <nd ref="1100305571"/>
    <nd ref="1100305189"/>
    <nd ref="1100305473"/>
    <nd ref="1100305065"/>
    <nd ref="1100305571"/>
    <tag k="addr:city" v="Зеленоград"/>
    <tag k="addr:country" v="RU"/>
    <tag k="addr:housenumber" v="14 с1"/>
    <tag k="addr:region" v="Москва"/>
    <tag k="addr:street" v="Заводская улица"/>
    <tag k="building" v="yes"/>
    <tag k="building:levels" v="1"/>
  </way>
  <way id="94767100" version="1" timestamp="2011-01-12T17:23:31Z" uid="115477" user="wowik" changeset="6949292">
    <nd ref="1100305359"/>
    <nd ref="1100305621"/>
    <nd ref="1100305279"/>
    <nd ref="1100305538"/>
    <nd ref="1100305359"/>
    <tag k="building" v="yes"/>
  </way>
  <way id="94767100" version="2" timestamp="2012-03-27T08:12:01Z" uid="481934" user="iWowik" changeset="11113698">
    <nd ref="1100305359"/>
    <nd ref="1100305621"/>
    <nd ref="1100305279"/>
    <nd ref="1100305538"/>
    <nd ref="1100305359"/>
    <tag k="addr:city" v="Зеленоград"/>
    <tag k="addr:country" v="RU"/>
    <tag k="building" v="yes"/>
  </way>
  <way id="94767100" version="3" timestamp="2012-03-27T11:52:46Z" uid="481934" user="iWowik" changeset="11115472">
    <nd ref="1100305359"/>
    <nd ref="1100305621"/>
    <nd ref="1100305279"/>
    <nd ref="1100305538"/>
    <nd ref="1100305359"/>
    <tag k="addr:city" v="Зеленоград"/>
    <tag k="addr:country" v="RU"/>
    <tag k="addr:region" v="Москва"/>
    <tag k="building" v="yes"/>
  </way>
  <way id="94767105" version="1" timestamp="2011-01-12T17:23:32Z" uid="115477" user="wowik" changeset="6949292">
    <nd ref="1100305476"/>
    <nd ref="1100305088"/>
    <nd ref="1100305368"/>
    <nd ref="1100305631"/>
    <nd ref="1100305476"/>
    <tag k="addr:city" v="Зеленоград"/>
    <tag k="building" v="yes"/>
    <tag k="building:levels" v="1"/>
    <tag k="is_in" v="Russia"/>
  </way>
  <way id="94767105" version="2" timestamp="2011-09-13T10:37:49Z" uid="29320" user="Komяpa" changeset="9288237">
    <nd ref="1100305476"/>
    <nd ref="1100305088"/>
    <nd ref="1100305368"/>
    <nd ref="1100305631"/>
    <nd ref="1100305476"/>
    <tag k="addr:city" v="Зеленоград"/>
    <tag k="addr:country" v="RU"/>
    <tag k="building" v="yes"/>
    <tag k="building:levels" v="1"/>
  </way>
  <way id="94767105" version="3" timestamp="2012-03-27T11:53:04Z" uid="481934" user="iWowik" changeset="11115472">
    <nd ref="1100305476"/>
    <nd ref="1100305088"/>
    <nd ref="1100305368"/>
    <nd ref="1100305631"/>
    <nd ref="1100305476"/>
    <tag k="addr:city" v="Зеленоград"/>
    <tag k="addr:country" v="RU"/>
    <tag k="addr:region" v="Москва"/>
    <tag k="building" v="yes"/>
    <tag k="building:levels" v="1"/>
  </way>
  <way id="94767107" version="1" timestamp="2011-01-12T17:23:32Z" uid="115477" user="wowik" changeset="6949292">
    <nd ref="1100305041"/>
    <nd ref="1100305328"/>
    <nd ref="1100305230"/>
    <nd ref="1100305127"/>
    <nd ref="1100305041"/>
    <tag k="leisure" v="pitch"/>
  </way>
  <way id="94767108" version="1" timestamp="2011-01-12T17:23:32Z" uid="115477" user="wowik" changeset="6949292">
    <nd ref="1100305480"/>
    <nd ref="1100305193"/>
    <nd ref="1100305313"/>
    <nd ref="764615109"/>
    <tag k="highway" v="service"/>
    <tag k="living_street" v="yes"/>
  </way>
  <way id="94767116" version="1" timestamp="2011-01-12T17:23:33Z" uid="115477" user="wowik" changeset="6949292">
    <nd ref="1100305600"/>
    <nd ref="1100305057"/>
    <nd ref="1100305354"/>
    <nd ref="1100305611"/>
    <nd ref="1100305600"/>
    <tag k="addr:city" v="Зеленоград"/>
    <tag k="addr:housenumber" v="14Бс1"/>
    <tag k="addr:street" v="Заводская улица"/>
    <tag k="building" v="yes"/>
    <tag k="building:levels" v="1"/>
    <tag k="is_in" v="Russia"/>
  </way>
  <way id="94767116" version="2" timestamp="2011-01-20T08:04:02Z" uid="70696" user="xybot" changeset="7027691">
    <nd ref="1100305600"/>
    <nd ref="1100305057"/>
    <nd ref="1100305354"/>
    <nd ref="1100305611"/>
    <nd ref="1100305600"/>
    <tag k="addr:city" v="Зеленоград"/>
    <tag k="addr:housenumber" v="14Б с1"/>
    <tag k="addr:street" v="Заводская улица"/>
    <tag k="building" v="yes"/>
    <tag k="building:levels" v="1"/>
    <tag k="is_in" v="Russia"/>
  </way>
  <way id="94767116" version="3" timestamp="2011-09-13T10:22:32Z" uid="29320" user="Komяpa" changeset="9288237">
    <nd ref="1100305600"/>
    <nd ref="1100305057"/>
    <nd ref="1100305354"/>
    <nd ref="1100305611"/>
    <nd ref="1100305600"/>
    <tag k="addr:city" v="Зеленоград"/>
    <tag k="addr:country" v="RU"/>
    <tag k="addr:housenumber" v="14Б с1"/>
    <tag k="addr:street" v="Заводская улица"/>
    <tag k="building" v="yes"/>
    <tag k="building:levels" v="1"/>
  </way>
  <way id="94767116" version="4" timestamp="2012-03-27T11:35:53Z" uid="481934" user="iWowik" changeset="11115472">
    <nd ref="1100305600"/>
    <nd ref="1100305057"/>
    <nd ref="1100305354"/>
    <nd ref="1100305611"/>
    <nd ref="1100305600"/>
    <tag k="addr:city" v="Зеленоград"/>
    <tag k="addr:country" v="RU"/>
    <tag k="addr:housenumber" v="14Б с1"/>
    <tag k="addr:region" v="Москва"/>
    <tag k="addr:street" v="Заводская улица"/>
    <tag k="building" v="yes"/>
    <tag k="building:levels" v="1"/>
  </way>
  <way id="94767118" version="1" timestamp="2011-01-12T17:23:33Z" uid="115477" user="wowik" changeset="6949292">
    <nd ref="1100305584"/>
    <nd ref="1100305224"/>
    <nd ref="1100305506"/>
    <nd ref="1100305125"/>
    <nd ref="1100305584"/>
    <tag k="addr:city" v="Зеленоград"/>
    <tag k="building" v="yes"/>
    <tag k="building:levels" v="1"/>
    <tag k="is_in" v="Russia"/>
  </way>
  <way id="94767118" version="2" timestamp="2011-09-13T10:37:49Z" uid="29320" user="Komяpa" changeset="9288237">
    <nd ref="1100305584"/>
    <nd ref="1100305224"/>
    <nd ref="1100305506"/>
    <nd ref="1100305125"/>
    <nd ref="1100305584"/>
    <tag k="addr:city" v="Зеленоград"/>
    <tag k="addr:country" v="RU"/>
    <tag k="building" v="yes"/>
    <tag k="building:levels" v="1"/>
  </way>
  <way id="94767118" version="3" timestamp="2012-03-27T11:53:28Z" uid="481934" user="iWowik" changeset="11115472">
    <nd ref="1100305584"/>
    <nd ref="1100305224"/>
    <nd ref="1100305506"/>
    <nd ref="1100305125"/>
    <nd ref="1100305584"/>
    <tag k="addr:city" v="Зеленоград"/>
    <tag k="addr:country" v="RU"/>
    <tag k="addr:region" v="Москва"/>
    <tag k="building" v="yes"/>
    <tag k="building:levels" v="1"/>
  </way>
  <way id="94767127" version="1" timestamp="2011-01-12T17:23:35Z" uid="115477" user="wowik" changeset="6949292">
    <nd ref="1100305285"/>
    <nd ref="1100305541"/>
    <nd ref="1100305173"/>
    <nd ref="1100305457"/>
    <nd ref="1100305285"/>
    <tag k="addr:city" v="Зеленоград"/>
    <tag k="building" v="yes"/>
    <tag k="building:levels" v="1"/>
    <tag k="is_in" v="Russia"/>
  </way>
  <way id="94767127" version="2" timestamp="2011-09-13T10:37:49Z" uid="29320" user="Komяpa" changeset="9288237">
    <nd ref="1100305285"/>
    <nd ref="1100305541"/>
    <nd ref="1100305173"/>
    <nd ref="1100305457"/>
    <nd ref="1100305285"/>
    <tag k="addr:city" v="Зеленоград"/>
    <tag k="addr:country" v="RU"/>
    <tag k="building" v="yes"/>
    <tag k="building:levels" v="1"/>
  </way>
  <way id="94767127" version="3" timestamp="2012-03-27T11:52:52Z" uid="481934" user="iWowik" changeset="11115472">
    <nd ref="1100305285"/>
    <nd ref="1100305541"/>
    <nd ref="1100305173"/>
    <nd ref="1100305457"/>
    <nd ref="1100305285"/>
    <tag k="addr:city" v="Зеленоград"/>
    <tag k="addr:country" v="RU"/>
    <tag k="addr:region" v="Москва"/>
    <tag k="building" v="yes"/>
    <tag k="building:levels" v="1"/>
  </way>
  <way id="94767131" version="1" timestamp="2011-01-12T17:23:35Z" uid="115477" user="wowik" changeset="6949292">
    <nd ref="1100305546"/>
    <nd ref="1100305181"/>
    <nd ref="1100305468"/>
    <nd ref="1100305056"/>
    <nd ref="1100305546"/>
    <tag k="addr:city" v="Зеленоград"/>
    <tag k="addr:housenumber" v="1с4"/>
    <tag k="addr:street" v="улица Крупской"/>
    <tag k="building" v="yes"/>
    <tag k="is_in" v="Russia"/>
  </way>
  <way id="94767131" version="2" timestamp="2011-01-19T17:07:44Z" uid="70696" user="xybot" changeset="7021015">
    <nd ref="1100305546"/>
    <nd ref="1100305181"/>
    <nd ref="1100305468"/>
    <nd ref="1100305056"/>
    <nd ref="1100305546"/>
    <tag k="addr:city" v="Зеленоград"/>
    <tag k="addr:housenumber" v="1 с4"/>
    <tag k="addr:street" v="улица Крупской"/>
    <tag k="building" v="yes"/>
    <tag k="is_in" v="Russia"/>
  </way>
  <way id="94767131" version="3" timestamp="2011-09-13T10:20:47Z" uid="29320" user="Komяpa" changeset="9288237">
    <nd ref="1100305546"/>
    <nd ref="1100305181"/>
    <nd ref="1100305468"/>
    <nd ref="1100305056"/>
    <nd ref="1100305546"/>
    <tag k="addr:city" v="Зеленоград"/>
    <tag k="addr:country" v="RU"/>
    <tag k="addr:housenumber" v="1 с4"/>
    <tag k="addr:street" v="улица Крупской"/>
    <tag k="building" v="yes"/>
  </way>
  <way id="94767131" version="4" timestamp="2012-03-27T11:33:13Z" uid="481934" user="iWowik" changeset="11115472">
    <nd ref="1100305546"/>
    <nd ref="1100305181"/>
    <nd ref="1100305468"/>
    <nd ref="1100305056"/>
    <nd ref="1100305546"/>
    <tag k="addr:city" v="Зеленоград"/>
    <tag k="addr:country" v="RU"/>
    <tag k="addr:housenumber" v="1 с4"/>
    <tag k="addr:region" v="Москва"/>
    <tag k="addr:street" v="улица Крупской"/>
    <tag k="building" v="yes"/>
  </way>
  <way id="94767140" version="1" timestamp="2011-01-12T17:23:36Z" uid="115477" user="wowik" changeset="6949292">
    <nd ref="1100305083"/>
    <nd ref="1100305365"/>
    <nd ref="1100305626"/>
    <nd ref="1100305286"/>
    <nd ref="1100305083"/>
    <tag k="building" v="yes"/>
  </way>
  <way id="94767140" version="2" timestamp="2012-03-27T08:12:04Z" uid="481934" user="iWowik" changeset="11113698">
    <nd ref="1100305083"/>
    <nd ref="1100305365"/>
    <nd ref="1100305626"/>
    <nd ref="1100305286"/>
    <nd ref="1100305083"/>
    <tag k="addr:city" v="Зеленоград"/>
    <tag k="addr:country" v="RU"/>
    <tag k="building" v="yes"/>
  </way>
  <way id="94767140" version="3" timestamp="2012-03-27T11:50:24Z" uid="481934" user="iWowik" changeset="11115472">
    <nd ref="1100305083"/>
    <nd ref="1100305365"/>
    <nd ref="1100305626"/>
    <nd ref="1100305286"/>
    <nd ref="1100305083"/>
    <tag k="addr:city" v="Зеленоград"/>
    <tag k="addr:country" v="RU"/>
    <tag k="addr:region" v="Москва"/>
    <tag k="building" v="yes"/>
  </way>
  <way id="94767141" version="1" timestamp="2011-01-12T17:23:36Z" uid="115477" user="wowik" changeset="6949292">
    <nd ref="1100305310"/>
    <nd ref="1100305544"/>
    <nd ref="1100305176"/>
    <nd ref="1100305462"/>
    <nd ref="1100305310"/>
    <tag k="addr:city" v="Зеленоград"/>
    <tag k="building" v="yes"/>
    <tag k="building:levels" v="1"/>
    <tag k="is_in" v="Russia"/>
  </way>
  <way id="94767141" version="2" timestamp="2011-09-13T10:37:49Z" uid="29320" user="Komяpa" changeset="9288237">
    <nd ref="1100305310"/>
    <nd ref="1100305544"/>
    <nd ref="1100305176"/>
    <nd ref="1100305462"/>
    <nd ref="1100305310"/>
    <tag k="addr:city" v="Зеленоград"/>
    <tag k="addr:country" v="RU"/>
    <tag k="building" v="yes"/>
    <tag k="building:levels" v="1"/>
  </way>
  <way id="94767141" version="3" timestamp="2012-03-27T11:52:17Z" uid="481934" user="iWowik" changeset="11115472">
    <nd ref="1100305310"/>
    <nd ref="1100305544"/>
    <nd ref="1100305176"/>
    <nd ref="1100305462"/>
    <nd ref="1100305310"/>
    <tag k="addr:city" v="Зеленоград"/>
    <tag k="addr:country" v="RU"/>
    <tag k="addr:region" v="Москва"/>
    <tag k="building" v="yes"/>
    <tag k="building:levels" v="1"/>
  </way>
  <way id="94767145" version="1" timestamp="2011-01-12T17:23:37Z" uid="115477" user="wowik" changeset="6949292">
    <nd ref="1100305454"/>
    <nd ref="1100305048"/>
    <nd ref="1100305332"/>
    <nd ref="1100305596"/>
    <nd ref="1100305454"/>
    <tag k="building" v="yes"/>
  </way>
  <way id="94767145" version="2" timestamp="2012-03-27T08:13:35Z" uid="481934" user="iWowik" changeset="11113698">
    <nd ref="1100305454"/>
    <nd ref="1100305048"/>
    <nd ref="1100305332"/>
    <nd ref="1100305596"/>
    <nd ref="1100305454"/>
    <tag k="addr:city" v="Зеленоград"/>
    <tag k="addr:country" v="RU"/>
    <tag k="building" v="yes"/>
  </way>
  <way id="94767145" version="3" timestamp="2012-03-27T11:54:04Z" uid="481934" user="iWowik" changeset="11115472">
    <nd ref="1100305454"/>
    <nd ref="1100305048"/>
    <nd ref="1100305332"/>
    <nd ref="1100305596"/>
    <nd ref="1100305454"/>
    <tag k="addr:city" v="Зеленоград"/>
    <tag k="addr:country" v="RU"/>
    <tag k="addr:region" v="Москва"/>
    <tag k="building" v="yes"/>
  </way>
  <way id="94767148" version="1" timestamp="2011-01-12T17:23:37Z" uid="115477" user="wowik" changeset="6949292">
    <nd ref="1100305533"/>
    <nd ref="1100305509"/>
    <nd ref="1100305320"/>
    <nd ref="1100305133"/>
    <nd ref="1100305410"/>
    <nd ref="1100305019"/>
    <nd ref="1100305533"/>
    <tag k="building" v="yes"/>
  </way>
  <way id="94767148" version="2" timestamp="2012-03-27T08:14:21Z" uid="481934" user="iWowik" changeset="11113698">
    <nd ref="1100305533"/>
    <nd ref="1100305509"/>
    <nd ref="1100305320"/>
    <nd ref="1100305133"/>
    <nd ref="1100305410"/>
    <nd ref="1100305019"/>
    <nd ref="1100305533"/>
    <tag k="addr:city" v="Зеленоград"/>
    <tag k="addr:country" v="RU"/>
    <tag k="building" v="yes"/>
  </way>
  <way id="94767148" version="3" timestamp="2012-03-27T11:55:27Z" uid="481934" user="iWowik" changeset="11115472">
    <nd ref="1100305533"/>
    <nd ref="1100305509"/>
    <nd ref="1100305320"/>
    <nd ref="1100305133"/>
    <nd ref="1100305410"/>
    <nd ref="1100305019"/>
    <nd ref="1100305533"/>
    <tag k="addr:city" v="Зеленоград"/>
    <tag k="addr:country" v="RU"/>
    <tag k="addr:region" v="Москва"/>
    <tag k="building" v="yes"/>
  </way>
  <way id="94767150" version="1" timestamp="2011-01-12T17:23:37Z" uid="115477" user="wowik" changeset="6949292">
    <nd ref="1100305634"/>
    <nd ref="1100305574"/>
    <tag k="barrier" v="fence"/>
  </way>
  <way id="94767153" version="1" timestamp="2011-01-12T17:23:38Z" uid="115477" user="wowik" changeset="6949292">
    <nd ref="1100305350"/>
    <nd ref="1100305607"/>
    <nd ref="1100305274"/>
    <nd ref="1100305535"/>
    <nd ref="1100305350"/>
    <tag k="leisure" v="pitch"/>
  </way>
  <way id="94767160" version="1" timestamp="2011-01-12T17:23:40Z" uid="9581" user="Lobelt" changeset="6949301">
    <nd ref="1100306035"/>
    <nd ref="1100306040"/>
    <nd ref="1100306009"/>
    <nd ref="317646412"/>
    <nd ref="1100306038"/>
    <nd ref="1100306044"/>
    <nd ref="1100306033"/>
    <tag k="highway" v="service"/>
  </way>
  <way id="94767054" version="6" timestamp="2012-07-20T23:56:25Z" uid="722137" user="OSMF Redaction Account" changeset="12396604"/>
  <way id="94767058" version="2" timestamp="2012-07-20T23:56:15Z" uid="722137" user="OSMF Redaction Account" changeset="12396604"/>
  <way id="94767061" version="5" timestamp="2012-07-20T23:56:25Z" uid="722137" user="OSMF Redaction Account" changeset="12396604"/>
  <way id="94767066" version="5" timestamp="2012-07-20T23:56:30Z" uid="722137" user="OSMF Redaction Account" changeset="12396619"/>
  <way id="94767068" version="5" timestamp="2012-07-20T23:56:19Z" uid="722137" user="OSMF Redaction Account" changeset="12396604"/>
  <way id="94767073" version="4" timestamp="2012-07-20T23:56:26Z" uid="722137" user="OSMF Redaction Account" changeset="12396604"/>
  <way id="94767077" version="2" timestamp="2012-07-20T23:56:12Z" uid="722137" user="OSMF Redaction Account" changeset="12396604"/>
  <way id="94767081" version="4" timestamp="2012-07-20T23:56:43Z" uid="722137" user="OSMF Redaction Account" changeset="12396619"/>
  <way id="94767082" version="5" timestamp="2012-07-20T23:56:24Z" uid="722137" user="OSMF Redaction Account" changeset="12396604"/>
  <way id="94767087" version="2" timestamp="2012-07-20T23:56:22Z" uid="722137" user="OSMF Redaction Account" changeset="12396604"/>
  <way id="94767089" version="4" timestamp="2012-07-20T23:56:40Z" uid="722137" user="OSMF Redaction Account" changeset="12396619"/>
  <way id="94767091" version="4" timestamp="2012-07-20T23:56:12Z" uid="722137" user="OSMF Redaction Account" changeset="12396604"/>
  <way id="94767096" version="5" timestamp="2012-07-20T23:56:22Z" uid="722137" user="OSMF Redaction Account" changeset="12396604"/>
  <way id="94767100" version="4" timestamp="2012-07-20T23:56:40Z" uid="722137" user="OSMF Redaction Account" changeset="12396619"/>
  <way id="94767105" version="4" timestamp="2012-07-20T23:56:39Z" uid="722137" user="OSMF Redaction Account" changeset="12396619"/>
  <way id="94767107" version="2" timestamp="2012-07-20T23:56:34Z" uid="722137" user="OSMF Redaction Account" changeset="12396619"/>
  <way id="94767108" version="2" timestamp="2012-07-20T23:56:32Z" uid="722137" user="OSMF Redaction Account" changeset="12396619"/>
  <way id="94767116" version="5" timestamp="2012-07-20T23:56:18Z" uid="722137" user="OSMF Redaction Account" changeset="12396604"/>
  <way id="94767118" version="4" timestamp="2012-07-20T23:56:32Z" uid="722137" user="OSMF Redaction Account" changeset="12396619"/>
  <way id="94767127" version="4" timestamp="2012-07-20T23:56:34Z" uid="722137" user="OSMF Redaction Account" changeset="12396619"/>
  <way id="94767131" version="5" timestamp="2012-07-20T23:56:26Z" uid="722137" user="OSMF Redaction Account" changeset="12396604"/>
  <way id="94767140" version="4" timestamp="2012-07-20T23:56:39Z" uid="722137" user="OSMF Redaction Account" changeset="12396619"/>
  <way id="94767141" version="4" timestamp="2012-07-20T23:56:38Z" uid="722137" user="OSMF Redaction Account" changeset="12396619"/>
  <way id="94767145" version="4" timestamp="2012-07-20T23:56:40Z" uid="722137" user="OSMF Redaction Account" changeset="12396619"/>
  <way id="94767148" version="4" timestamp="2012-07-20T23:56:39Z" uid="722137" user="OSMF Redaction Account" changeset="12396619"/>
  <way id="94767150" version="2" timestamp="2012-07-20T23:56:21Z" uid="722137" user="OSMF Redaction Account" changeset="12396604"/>
  <way id="94767153" version="2" timestamp="2012-07-20T23:56:32Z" uid="722137" user="OSMF Redaction Account" changeset="12396619"/>
  <way id="94767160" version="2" timestamp="2012-04-20T22:03:10Z" uid="136321" user="Teddy73" changeset="11367821"/>
</osm>
