<?xml version='1.0' encoding='UTF-8'?>
<osm version="0.6" generator="libosmium/2.20.0">
  <way id="9490078" version="13" timestamp="2010-02-14T15:45:26Z" uid="74617" user="JohnSmith" changeset="3874884">
    <nd ref="72954896"/>
    <nd ref="72954865"/>
    <nd ref="26337675"/>
    <nd ref="72954926"/>
    <nd ref="353179759"/>
    <nd ref="26337676"/>
    <nd ref="26337677"/>
    <nd ref="72911512"/>
    <nd ref="72911501"/>
    <nd ref="26337679"/>
    <nd ref="72473360"/>
    <tag k="highway" v="trunk"/>
    <tag k="maxspeed" v="60"/>
    <tag k="name" v="Lutwyche Road"/>
    <tag k="ref" v="A3"/>
  </way>
  <way id="9490078" version="14" timestamp="2010-02-26T17:45:36Z" uid="74617" user="JohnSmith" changeset="3982219">
    <nd ref="72954896"/>
    <nd ref="72954865"/>
    <nd ref="26337675"/>
    <nd ref="72954926"/>
    <nd ref="353179759"/>
    <nd ref="26337676"/>
    <nd ref="26337677"/>
    <nd ref="72911512"/>
    <nd ref="72911501"/>
    <nd ref="26337679"/>
    <nd ref="72473360"/>
    <tag k="highway" v="trunk"/>
    <tag k="maxspeed" v="60"/>
    <tag k="name" v="Lutwyche Road"/>
  </way>
  <way id="9490084" version="6" timestamp="2010-02-14T15:45:26Z" uid="74617" user="JohnSmith" changeset="3874884">
    <nd ref="26337400"/>
    <nd ref="333663659"/>
    <nd ref="26337399"/>
    <nd ref="26337435"/>
    <nd ref="321726414"/>
    <nd ref="72911546"/>
    <tag k="highway" v="secondary"/>
    <tag k="name" v="Albion Road"/>
  </way>
  <way id="9490084" version="7" timestamp="2011-05-23T04:56:21Z" uid="129262" user="ElderKorean" changeset="8222964"/>
  <way id="9490100" version="8" timestamp="2010-02-14T15:45:29Z" uid="74617" user="JohnSmith" changeset="3874884">
    <nd ref="26338157"/>
    <nd ref="278953261"/>
    <nd ref="72481483"/>
    <nd ref="72481481"/>
    <nd ref="72475867"/>
    <tag k="highway" v="trunk"/>
    <tag k="maxspeed" v="60"/>
    <tag k="name" v="Lutwyche Road"/>
    <tag k="oneway" v="yes"/>
    <tag k="ref" v="A3"/>
  </way>
  <way id="9490100" version="9" timestamp="2010-02-26T17:45:37Z" uid="74617" user="JohnSmith" changeset="3982219">
    <nd ref="26338157"/>
    <nd ref="278953261"/>
    <nd ref="72481483"/>
    <nd ref="72481481"/>
    <nd ref="72475867"/>
    <tag k="highway" v="trunk"/>
    <tag k="maxspeed" v="60"/>
    <tag k="name" v="Lutwyche Road"/>
    <tag k="oneway" v="yes"/>
  </way>
  <way id="9490403" version="3" timestamp="2010-07-07T08:32:30Z" uid="74617" user="JohnSmith" changeset="5156250">
    <nd ref="72913382"/>
    <nd ref="72913975"/>
    <tag k="highway" v="residential"/>
    <tag k="maxspeed" v="50"/>
    <tag k="maxspeed:source" v="default residential speed limit in Australia"/>
    <tag k="name" v="Kaline Circuit"/>
  </way>
  <way id="9490403" version="4" timestamp="2012-01-15T08:33:57Z" uid="147510" user="woodpeck_fixbot" changeset="10395278">
    <nd ref="72913382"/>
    <nd ref="72913975"/>
    <tag k="highway" v="residential"/>
    <tag k="name" v="Kaline Circuit"/>
  </way>
  <way id="9490583" version="5" timestamp="2010-07-07T08:32:54Z" uid="74617" user="JohnSmith" changeset="5156250">
    <nd ref="72915525"/>
    <nd ref="72915835"/>
    <nd ref="72915836"/>
    <nd ref="72915200"/>
    <tag k="highway" v="residential"/>
    <tag k="maxspeed" v="50"/>
    <tag k="maxspeed:source" v="default residential speed limit in Australia"/>
    <tag k="name" v="Dextor Street"/>
  </way>
  <way id="9490583" version="6" timestamp="2011-11-09T23:33:19Z" uid="552001" user="Peter Wilkinson" changeset="9785787">
    <nd ref="72915525"/>
    <nd ref="72915835"/>
    <nd ref="72915836"/>
    <nd ref="72915200"/>
    <tag k="highway" v="residential"/>
    <tag k="maxspeed" v="50"/>
    <tag k="maxspeed:source" v="default residential speed limit in Australia"/>
    <tag k="name" v="Dexter Street"/>
  </way>
  <way id="9490583" version="7" timestamp="2012-01-15T08:33:58Z" uid="147510" user="woodpeck_fixbot" changeset="10395278">
    <nd ref="72915525"/>
    <nd ref="72915835"/>
    <nd ref="72915836"/>
    <nd ref="72915200"/>
    <tag k="highway" v="residential"/>
    <tag k="name" v="Dexter Street"/>
  </way>
  <way id="9490644" version="3" timestamp="2010-07-07T08:34:36Z" uid="74617" user="JohnSmith" changeset="5156250">
    <nd ref="33233240"/>
    <nd ref="72916872"/>
    <nd ref="72916873"/>
    <nd ref="72916874"/>
    <nd ref="72916875"/>
    <nd ref="72916876"/>
    <nd ref="72916877"/>
    <nd ref="72916341"/>
    <tag k="highway" v="residential"/>
    <tag k="maxspeed" v="50"/>
    <tag k="maxspeed:source" v="default residential speed limit in Australia"/>
    <tag k="name" v="The Cresent"/>
  </way>
  <way id="9490644" version="4" timestamp="2012-01-15T08:34:00Z" uid="147510" user="woodpeck_fixbot" changeset="10395278">
    <nd ref="33233240"/>
    <nd ref="72916872"/>
    <nd ref="72916873"/>
    <nd ref="72916874"/>
    <nd ref="72916875"/>
    <nd ref="72916876"/>
    <nd ref="72916877"/>
    <nd ref="72916341"/>
    <tag k="highway" v="residential"/>
    <tag k="name" v="The Cresent"/>
  </way>
  <way id="9490709" version="4" timestamp="2010-07-07T08:38:58Z" uid="74617" user="JohnSmith" changeset="5156250">
    <nd ref="33233237"/>
    <nd ref="72918091"/>
    <nd ref="72918093"/>
    <nd ref="72918094"/>
    <nd ref="72918096"/>
    <nd ref="72918097"/>
    <nd ref="72918099"/>
    <nd ref="72918100"/>
    <nd ref="72918103"/>
    <nd ref="33233238"/>
    <tag k="highway" v="residential"/>
    <tag k="maxspeed" v="50"/>
    <tag k="maxspeed:source" v="default residential speed limit in Australia"/>
    <tag k="name" v="Sexton Street"/>
  </way>
  <way id="9490709" version="5" timestamp="2012-01-15T08:34:00Z" uid="147510" user="woodpeck_fixbot" changeset="10395278">
    <nd ref="33233237"/>
    <nd ref="72918091"/>
    <nd ref="72918093"/>
    <nd ref="72918094"/>
    <nd ref="72918096"/>
    <nd ref="72918097"/>
    <nd ref="72918099"/>
    <nd ref="72918100"/>
    <nd ref="72918103"/>
    <nd ref="33233238"/>
    <tag k="highway" v="residential"/>
    <tag k="name" v="Sexton Street"/>
  </way>
  <way id="9490771" version="2" timestamp="2010-07-07T08:33:00Z" uid="74617" user="JohnSmith" changeset="5156250">
    <nd ref="72918179"/>
    <nd ref="72918955"/>
    <nd ref="72918956"/>
    <nd ref="72918959"/>
    <tag k="highway" v="residential"/>
    <tag k="maxspeed" v="50"/>
    <tag k="maxspeed:source" v="default residential speed limit in Australia"/>
    <tag k="name" v="Vega Circuit"/>
  </way>
  <way id="9490771" version="3" timestamp="2012-01-15T08:34:02Z" uid="147510" user="woodpeck_fixbot" changeset="10395278">
    <nd ref="72918179"/>
    <nd ref="72918955"/>
    <nd ref="72918956"/>
    <nd ref="72918959"/>
    <tag k="highway" v="residential"/>
    <tag k="name" v="Vega Circuit"/>
  </way>
  <way id="9490895" version="9" timestamp="2010-02-14T15:44:56Z" uid="74617" user="JohnSmith" changeset="3874884">
    <nd ref="26337461"/>
    <nd ref="198424654"/>
    <nd ref="26337470"/>
    <nd ref="198413407"/>
    <nd ref="198412831"/>
    <nd ref="72920613"/>
    <nd ref="198384484"/>
    <tag k="highway" v="residential"/>
    <tag k="maxspeed" v="50"/>
    <tag k="name" v="Le Geyt Street"/>
  </way>
  <way id="9490895" version="10" timestamp="2012-01-15T08:34:03Z" uid="147510" user="woodpeck_fixbot" changeset="10395278">
    <nd ref="26337461"/>
    <nd ref="198424654"/>
    <nd ref="26337470"/>
    <nd ref="198413407"/>
    <nd ref="198412831"/>
    <nd ref="72920613"/>
    <nd ref="198384484"/>
    <tag k="highway" v="residential"/>
    <tag k="name" v="Le Geyt Street"/>
  </way>
  <way id="9490921" version="2" timestamp="2010-07-07T08:36:32Z" uid="74617" user="JohnSmith" changeset="5156250">
    <nd ref="72920466"/>
    <nd ref="72921229"/>
    <nd ref="72921230"/>
    <nd ref="72921233"/>
    <nd ref="72921234"/>
    <nd ref="72921236"/>
    <nd ref="72921237"/>
    <nd ref="72920389"/>
    <tag k="highway" v="residential"/>
    <tag k="maxspeed" v="50"/>
    <tag k="maxspeed:source" v="default residential speed limit in Australia"/>
    <tag k="name" v="Kumm Place"/>
  </way>
  <way id="9490921" version="3" timestamp="2012-01-15T08:34:05Z" uid="147510" user="woodpeck_fixbot" changeset="10395278">
    <nd ref="72920466"/>
    <nd ref="72921229"/>
    <nd ref="72921230"/>
    <nd ref="72921233"/>
    <nd ref="72921234"/>
    <nd ref="72921236"/>
    <nd ref="72921237"/>
    <nd ref="72920389"/>
    <tag k="highway" v="residential"/>
    <tag k="name" v="Kumm Place"/>
  </way>
  <way id="9490948" version="2" timestamp="2010-07-07T08:33:10Z" uid="74617" user="JohnSmith" changeset="5156250">
    <nd ref="72921535"/>
    <nd ref="72921961"/>
    <tag k="highway" v="residential"/>
    <tag k="maxspeed" v="50"/>
    <tag k="maxspeed:source" v="default residential speed limit in Australia"/>
    <tag k="name" v="Downing Place"/>
  </way>
  <way id="9490948" version="3" timestamp="2012-01-15T08:34:07Z" uid="147510" user="woodpeck_fixbot" changeset="10395278">
    <nd ref="72921535"/>
    <nd ref="72921961"/>
    <tag k="highway" v="residential"/>
    <tag k="name" v="Downing Place"/>
  </way>
  <way id="9490984" version="2" timestamp="2010-07-07T08:35:35Z" uid="74617" user="JohnSmith" changeset="5156250">
    <nd ref="72922020"/>
    <nd ref="72922482"/>
    <tag k="highway" v="residential"/>
    <tag k="maxspeed" v="50"/>
    <tag k="maxspeed:source" v="default residential speed limit in Australia"/>
    <tag k="name" v="Tipper Place"/>
  </way>
  <way id="9490984" version="3" timestamp="2012-01-15T08:34:09Z" uid="147510" user="woodpeck_fixbot" changeset="10395278">
    <nd ref="72922020"/>
    <nd ref="72922482"/>
    <tag k="highway" v="residential"/>
    <tag k="name" v="Tipper Place"/>
  </way>
</osm>
