<?xml version='1.0' encoding='UTF-8'?>
<osm version="0.6" generator="libosmium/2.20.0">
  <way id="94950637" version="1" timestamp="2011-01-13T14:28:51Z" uid="115477" user="wowik" changeset="6957620">
    <nd ref="1102072726"/>
    <nd ref="1102072671"/>
    <nd ref="1102072986"/>
    <nd ref="1102072918"/>
    <nd ref="1102072726"/>
    <tag k="addr:city" v="Зеленоград"/>
    <tag k="addr:housenumber" v="20"/>
    <tag k="addr:street" v="Заводской переулок"/>
    <tag k="building" v="yes"/>
  </way>
  <way id="94950637" version="2" timestamp="2012-03-27T08:07:30Z" uid="481934" user="iWowik" changeset="11113698">
    <nd ref="1102072726"/>
    <nd ref="1102072671"/>
    <nd ref="1102072986"/>
    <nd ref="1102072918"/>
    <nd ref="1102072726"/>
    <tag k="addr:city" v="Зеленоград"/>
    <tag k="addr:country" v="RU"/>
    <tag k="addr:housenumber" v="20"/>
    <tag k="addr:street" v="Заводской переулок"/>
    <tag k="building" v="yes"/>
  </way>
  <way id="94950637" version="3" timestamp="2012-03-27T11:39:01Z" uid="481934" user="iWowik" changeset="11115472">
    <nd ref="1102072726"/>
    <nd ref="1102072671"/>
    <nd ref="1102072986"/>
    <nd ref="1102072918"/>
    <nd ref="1102072726"/>
    <tag k="addr:city" v="Зеленоград"/>
    <tag k="addr:country" v="RU"/>
    <tag k="addr:housenumber" v="20"/>
    <tag k="addr:region" v="Москва"/>
    <tag k="addr:street" v="Заводской переулок"/>
    <tag k="building" v="yes"/>
  </way>
  <way id="94950639" version="1" timestamp="2011-01-13T14:28:51Z" uid="115477" user="wowik" changeset="6957620">
    <nd ref="1102073014"/>
    <nd ref="1102072879"/>
    <nd ref="1102072825"/>
    <nd ref="1102072801"/>
    <nd ref="1102073014"/>
    <tag k="addr:city" v="Зеленоград"/>
    <tag k="addr:housenumber" v="17"/>
    <tag k="addr:street" v="Заводской тупик"/>
    <tag k="building" v="yes"/>
    <tag k="note" v="что-то 17-х домов многовато"/>
  </way>
  <way id="94950639" version="2" timestamp="2011-01-13T16:26:41Z" uid="115477" user="wowik" changeset="6958660">
    <nd ref="1102073014"/>
    <nd ref="1102072879"/>
    <nd ref="1102072825"/>
    <nd ref="1102072801"/>
    <nd ref="1102073014"/>
    <tag k="addr:city" v="Зеленоград"/>
    <tag k="addr:housenumber" v="17"/>
    <tag k="addr:street" v="Заводской тупик"/>
    <tag k="building" v="yes"/>
  </way>
  <way id="94950639" version="3" timestamp="2012-03-27T08:07:07Z" uid="481934" user="iWowik" changeset="11113698">
    <nd ref="1102073014"/>
    <nd ref="1102072879"/>
    <nd ref="1102072825"/>
    <nd ref="1102072801"/>
    <nd ref="1102073014"/>
    <tag k="addr:city" v="Зеленоград"/>
    <tag k="addr:country" v="RU"/>
    <tag k="addr:housenumber" v="17"/>
    <tag k="addr:street" v="Заводской тупик"/>
    <tag k="building" v="yes"/>
  </way>
  <way id="94950639" version="4" timestamp="2012-03-27T11:37:47Z" uid="481934" user="iWowik" changeset="11115472">
    <nd ref="1102073014"/>
    <nd ref="1102072879"/>
    <nd ref="1102072825"/>
    <nd ref="1102072801"/>
    <nd ref="1102073014"/>
    <tag k="addr:city" v="Зеленоград"/>
    <tag k="addr:country" v="RU"/>
    <tag k="addr:housenumber" v="17"/>
    <tag k="addr:region" v="Москва"/>
    <tag k="addr:street" v="Заводской тупик"/>
    <tag k="building" v="yes"/>
  </way>
  <way id="94950641" version="1" timestamp="2011-01-13T14:28:52Z" uid="115477" user="wowik" changeset="6957620">
    <nd ref="1102072906"/>
    <nd ref="1102072847"/>
    <nd ref="1102072877"/>
    <nd ref="1102072821"/>
    <nd ref="1102072906"/>
    <tag k="addr:city" v="Зеленоград"/>
    <tag k="addr:housenumber" v="1Б с1"/>
    <tag k="addr:street" v="Заводская улица"/>
    <tag k="building" v="yes"/>
  </way>
  <way id="94950641" version="2" timestamp="2012-03-27T08:07:20Z" uid="481934" user="iWowik" changeset="11113698">
    <nd ref="1102072906"/>
    <nd ref="1102072847"/>
    <nd ref="1102072877"/>
    <nd ref="1102072821"/>
    <nd ref="1102072906"/>
    <tag k="addr:city" v="Зеленоград"/>
    <tag k="addr:country" v="RU"/>
    <tag k="addr:housenumber" v="1Б с1"/>
    <tag k="addr:street" v="Заводская улица"/>
    <tag k="building" v="yes"/>
  </way>
  <way id="94950641" version="3" timestamp="2012-03-27T11:38:24Z" uid="481934" user="iWowik" changeset="11115472">
    <nd ref="1102072906"/>
    <nd ref="1102072847"/>
    <nd ref="1102072877"/>
    <nd ref="1102072821"/>
    <nd ref="1102072906"/>
    <tag k="addr:city" v="Зеленоград"/>
    <tag k="addr:country" v="RU"/>
    <tag k="addr:housenumber" v="1Б с1"/>
    <tag k="addr:region" v="Москва"/>
    <tag k="addr:street" v="Заводская улица"/>
    <tag k="building" v="yes"/>
  </way>
  <way id="94950644" version="1" timestamp="2011-01-13T14:28:53Z" uid="115477" user="wowik" changeset="6957620">
    <nd ref="1102072904"/>
    <nd ref="1102072765"/>
    <nd ref="1102072922"/>
    <nd ref="1102072963"/>
    <nd ref="1102072709"/>
    <nd ref="1102073051"/>
    <nd ref="1102072904"/>
    <tag k="addr:city" v="Зеленоград"/>
    <tag k="addr:housenumber" v="15"/>
    <tag k="addr:street" v="Заводской тупик"/>
    <tag k="building" v="yes"/>
  </way>
  <way id="94950644" version="2" timestamp="2011-01-13T16:25:02Z" uid="115477" user="wowik" changeset="6958660">
    <nd ref="1102072904"/>
    <nd ref="1102072765"/>
    <nd ref="1102072922"/>
    <nd ref="1102072963"/>
    <nd ref="1102072709"/>
    <nd ref="1102073051"/>
    <nd ref="1102072904"/>
    <tag k="addr:city" v="Зеленоград"/>
    <tag k="addr:housenumber" v="15"/>
    <tag k="addr:street" v="Заводская улица"/>
    <tag k="building" v="yes"/>
    <tag k="note" v="от куда его от улицы заесло"/>
  </way>
  <way id="94950644" version="3" timestamp="2012-03-27T08:06:31Z" uid="481934" user="iWowik" changeset="11113698">
    <nd ref="1102072904"/>
    <nd ref="1102072765"/>
    <nd ref="1102072922"/>
    <nd ref="1102072963"/>
    <nd ref="1102072709"/>
    <nd ref="1102073051"/>
    <nd ref="1102072904"/>
    <tag k="addr:city" v="Зеленоград"/>
    <tag k="addr:country" v="RU"/>
    <tag k="addr:housenumber" v="15"/>
    <tag k="addr:street" v="Заводская улица"/>
    <tag k="building" v="yes"/>
    <tag k="note" v="от куда его от улицы заесло"/>
  </way>
  <way id="94950644" version="4" timestamp="2012-03-27T11:35:54Z" uid="481934" user="iWowik" changeset="11115472">
    <nd ref="1102072904"/>
    <nd ref="1102072765"/>
    <nd ref="1102072922"/>
    <nd ref="1102072963"/>
    <nd ref="1102072709"/>
    <nd ref="1102073051"/>
    <nd ref="1102072904"/>
    <tag k="addr:city" v="Зеленоград"/>
    <tag k="addr:country" v="RU"/>
    <tag k="addr:housenumber" v="15"/>
    <tag k="addr:region" v="Москва"/>
    <tag k="addr:street" v="Заводская улица"/>
    <tag k="building" v="yes"/>
    <tag k="note" v="от куда его от улицы заесло"/>
  </way>
  <way id="94950645" version="1" timestamp="2011-01-13T14:28:53Z" uid="115477" user="wowik" changeset="6957620">
    <nd ref="1102072846"/>
    <nd ref="1102072794"/>
    <nd ref="1102072819"/>
    <nd ref="1102072878"/>
    <nd ref="1102072712"/>
    <nd ref="1102072769"/>
    <nd ref="1102072846"/>
    <tag k="addr:city" v="Зеленоград"/>
    <tag k="addr:housenumber" v="4"/>
    <tag k="addr:street" v="Заводской переулок"/>
    <tag k="building" v="yes"/>
  </way>
  <way id="94950645" version="2" timestamp="2012-03-27T08:09:06Z" uid="481934" user="iWowik" changeset="11113698">
    <nd ref="1102072846"/>
    <nd ref="1102072794"/>
    <nd ref="1102072819"/>
    <nd ref="1102072878"/>
    <nd ref="1102072712"/>
    <nd ref="1102072769"/>
    <nd ref="1102072846"/>
    <tag k="addr:city" v="Зеленоград"/>
    <tag k="addr:country" v="RU"/>
    <tag k="addr:housenumber" v="4"/>
    <tag k="addr:street" v="Заводской переулок"/>
    <tag k="building" v="yes"/>
  </way>
  <way id="94950645" version="3" timestamp="2012-03-27T11:42:31Z" uid="481934" user="iWowik" changeset="11115472">
    <nd ref="1102072846"/>
    <nd ref="1102072794"/>
    <nd ref="1102072819"/>
    <nd ref="1102072878"/>
    <nd ref="1102072712"/>
    <nd ref="1102072769"/>
    <nd ref="1102072846"/>
    <tag k="addr:city" v="Зеленоград"/>
    <tag k="addr:country" v="RU"/>
    <tag k="addr:housenumber" v="4"/>
    <tag k="addr:region" v="Москва"/>
    <tag k="addr:street" v="Заводской переулок"/>
    <tag k="building" v="yes"/>
  </way>
  <way id="94950647" version="1" timestamp="2011-01-13T14:28:54Z" uid="115477" user="wowik" changeset="6957620">
    <nd ref="1102072844"/>
    <nd ref="1102072787"/>
    <nd ref="1102072732"/>
    <nd ref="1102072969"/>
    <nd ref="1102072844"/>
    <tag k="addr:city" v="Зеленоград"/>
    <tag k="addr:housenumber" v="6"/>
    <tag k="addr:street" v="Заводской переулок"/>
    <tag k="building" v="yes"/>
  </way>
  <way id="94950647" version="2" timestamp="2012-03-27T08:09:37Z" uid="481934" user="iWowik" changeset="11113698">
    <nd ref="1102072844"/>
    <nd ref="1102072787"/>
    <nd ref="1102072732"/>
    <nd ref="1102072969"/>
    <nd ref="1102072844"/>
    <tag k="addr:city" v="Зеленоград"/>
    <tag k="addr:country" v="RU"/>
    <tag k="addr:housenumber" v="6"/>
    <tag k="addr:street" v="Заводской переулок"/>
    <tag k="building" v="yes"/>
  </way>
  <way id="94950647" version="3" timestamp="2012-03-27T11:44:56Z" uid="481934" user="iWowik" changeset="11115472">
    <nd ref="1102072844"/>
    <nd ref="1102072787"/>
    <nd ref="1102072732"/>
    <nd ref="1102072969"/>
    <nd ref="1102072844"/>
    <tag k="addr:city" v="Зеленоград"/>
    <tag k="addr:country" v="RU"/>
    <tag k="addr:housenumber" v="6"/>
    <tag k="addr:region" v="Москва"/>
    <tag k="addr:street" v="Заводской переулок"/>
    <tag k="building" v="yes"/>
  </way>
  <way id="94950649" version="1" timestamp="2011-01-13T14:28:55Z" uid="115477" user="wowik" changeset="6957620">
    <nd ref="1102072828"/>
    <nd ref="1102072777"/>
    <nd ref="1102072804"/>
    <nd ref="1102072740"/>
    <nd ref="1102072828"/>
    <tag k="addr:city" v="Зеленоград"/>
    <tag k="building" v="yes"/>
  </way>
  <way id="94950649" version="2" timestamp="2012-03-27T08:13:36Z" uid="481934" user="iWowik" changeset="11113698">
    <nd ref="1102072828"/>
    <nd ref="1102072777"/>
    <nd ref="1102072804"/>
    <nd ref="1102072740"/>
    <nd ref="1102072828"/>
    <tag k="addr:city" v="Зеленоград"/>
    <tag k="addr:country" v="RU"/>
    <tag k="building" v="yes"/>
  </way>
  <way id="94950649" version="3" timestamp="2012-03-27T11:52:03Z" uid="481934" user="iWowik" changeset="11115472">
    <nd ref="1102072828"/>
    <nd ref="1102072777"/>
    <nd ref="1102072804"/>
    <nd ref="1102072740"/>
    <nd ref="1102072828"/>
    <tag k="addr:city" v="Зеленоград"/>
    <tag k="addr:country" v="RU"/>
    <tag k="addr:region" v="Москва"/>
    <tag k="building" v="yes"/>
  </way>
  <way id="94950652" version="1" timestamp="2011-01-13T14:28:55Z" uid="115477" user="wowik" changeset="6957620">
    <nd ref="1102072720"/>
    <nd ref="1102072651"/>
    <nd ref="1102072981"/>
    <nd ref="1102073016"/>
    <nd ref="1102072720"/>
    <tag k="addr:city" v="Зеленоград"/>
    <tag k="addr:housenumber" v="16"/>
    <tag k="addr:street" v="Заводской переулок"/>
    <tag k="building" v="yes"/>
  </way>
  <way id="94950652" version="2" timestamp="2012-03-27T08:06:44Z" uid="481934" user="iWowik" changeset="11113698">
    <nd ref="1102072720"/>
    <nd ref="1102072651"/>
    <nd ref="1102072981"/>
    <nd ref="1102073016"/>
    <nd ref="1102072720"/>
    <tag k="addr:city" v="Зеленоград"/>
    <tag k="addr:country" v="RU"/>
    <tag k="addr:housenumber" v="16"/>
    <tag k="addr:street" v="Заводской переулок"/>
    <tag k="building" v="yes"/>
  </way>
  <way id="94950652" version="3" timestamp="2012-03-27T11:36:50Z" uid="481934" user="iWowik" changeset="11115472">
    <nd ref="1102072720"/>
    <nd ref="1102072651"/>
    <nd ref="1102072981"/>
    <nd ref="1102073016"/>
    <nd ref="1102072720"/>
    <tag k="addr:city" v="Зеленоград"/>
    <tag k="addr:country" v="RU"/>
    <tag k="addr:housenumber" v="16"/>
    <tag k="addr:region" v="Москва"/>
    <tag k="addr:street" v="Заводской переулок"/>
    <tag k="building" v="yes"/>
  </way>
  <way id="94950653" version="1" timestamp="2011-01-13T14:28:56Z" uid="115477" user="wowik" changeset="6957620">
    <nd ref="1102072689"/>
    <nd ref="1102073024"/>
    <nd ref="1102072792"/>
    <nd ref="1102072683"/>
    <nd ref="1102073004"/>
    <nd ref="1102072715"/>
    <nd ref="1102072978"/>
    <nd ref="1102072943"/>
    <nd ref="1102073053"/>
    <nd ref="1102072967"/>
    <nd ref="1102072689"/>
    <tag k="addr:city" v="Зеленоград"/>
    <tag k="addr:housenumber" v="17"/>
    <tag k="addr:street" v="Заводской тупик"/>
    <tag k="building" v="yes"/>
    <tag k="note" v="что-то 17-х домов многовато, логичнее был бы 7"/>
  </way>
  <way id="94950653" version="2" timestamp="2011-01-13T16:24:29Z" uid="115477" user="wowik" changeset="6958660">
    <nd ref="1102072689"/>
    <nd ref="1102073024"/>
    <nd ref="1102072792"/>
    <nd ref="1102072683"/>
    <nd ref="1102073004"/>
    <nd ref="1102072715"/>
    <nd ref="1102072978"/>
    <nd ref="1102072943"/>
    <nd ref="1102073053"/>
    <nd ref="1102072967"/>
    <nd ref="1102072689"/>
    <tag k="addr:city" v="Зеленоград"/>
    <tag k="addr:housenumber" v="17"/>
    <tag k="addr:street" v="Заводской тупик"/>
    <tag k="building" v="yes"/>
  </way>
  <way id="94950653" version="3" timestamp="2012-03-27T08:07:07Z" uid="481934" user="iWowik" changeset="11113698">
    <nd ref="1102072689"/>
    <nd ref="1102073024"/>
    <nd ref="1102072792"/>
    <nd ref="1102072683"/>
    <nd ref="1102073004"/>
    <nd ref="1102072715"/>
    <nd ref="1102072978"/>
    <nd ref="1102072943"/>
    <nd ref="1102073053"/>
    <nd ref="1102072967"/>
    <nd ref="1102072689"/>
    <tag k="addr:city" v="Зеленоград"/>
    <tag k="addr:country" v="RU"/>
    <tag k="addr:housenumber" v="17"/>
    <tag k="addr:street" v="Заводской тупик"/>
    <tag k="building" v="yes"/>
  </way>
  <way id="94950653" version="4" timestamp="2012-03-27T11:37:46Z" uid="481934" user="iWowik" changeset="11115472">
    <nd ref="1102072689"/>
    <nd ref="1102073024"/>
    <nd ref="1102072792"/>
    <nd ref="1102072683"/>
    <nd ref="1102073004"/>
    <nd ref="1102072715"/>
    <nd ref="1102072978"/>
    <nd ref="1102072943"/>
    <nd ref="1102073053"/>
    <nd ref="1102072967"/>
    <nd ref="1102072689"/>
    <tag k="addr:city" v="Зеленоград"/>
    <tag k="addr:country" v="RU"/>
    <tag k="addr:housenumber" v="17"/>
    <tag k="addr:region" v="Москва"/>
    <tag k="addr:street" v="Заводской тупик"/>
    <tag k="building" v="yes"/>
  </way>
  <way id="94950655" version="1" timestamp="2011-01-13T14:28:57Z" uid="115477" user="wowik" changeset="6957620">
    <nd ref="1102072679"/>
    <nd ref="1102072992"/>
    <nd ref="1102072923"/>
    <nd ref="1102072872"/>
    <nd ref="1102072679"/>
    <tag k="addr:city" v="Зеленоград"/>
    <tag k="addr:housenumber" v="8"/>
    <tag k="addr:street" v="Заводской переулок"/>
    <tag k="building" v="yes"/>
  </way>
  <way id="94950655" version="2" timestamp="2012-03-27T08:09:57Z" uid="481934" user="iWowik" changeset="11113698">
    <nd ref="1102072679"/>
    <nd ref="1102072992"/>
    <nd ref="1102072923"/>
    <nd ref="1102072872"/>
    <nd ref="1102072679"/>
    <tag k="addr:city" v="Зеленоград"/>
    <tag k="addr:country" v="RU"/>
    <tag k="addr:housenumber" v="8"/>
    <tag k="addr:street" v="Заводской переулок"/>
    <tag k="building" v="yes"/>
  </way>
  <way id="94950655" version="3" timestamp="2012-03-27T11:46:08Z" uid="481934" user="iWowik" changeset="11115472">
    <nd ref="1102072679"/>
    <nd ref="1102072992"/>
    <nd ref="1102072923"/>
    <nd ref="1102072872"/>
    <nd ref="1102072679"/>
    <tag k="addr:city" v="Зеленоград"/>
    <tag k="addr:country" v="RU"/>
    <tag k="addr:housenumber" v="8"/>
    <tag k="addr:region" v="Москва"/>
    <tag k="addr:street" v="Заводской переулок"/>
    <tag k="building" v="yes"/>
  </way>
  <way id="94950656" version="1" timestamp="2011-01-13T14:28:57Z" uid="115477" user="wowik" changeset="6957620">
    <nd ref="1102072717"/>
    <nd ref="1102073055"/>
    <nd ref="1102072979"/>
    <nd ref="1102072909"/>
    <nd ref="1102072717"/>
    <tag k="addr:city" v="Зеленоград"/>
    <tag k="addr:housenumber" v="18"/>
    <tag k="addr:street" v="Заводской переулок"/>
    <tag k="building" v="yes"/>
  </way>
  <way id="94950656" version="2" timestamp="2012-03-27T08:07:15Z" uid="481934" user="iWowik" changeset="11113698">
    <nd ref="1102072717"/>
    <nd ref="1102073055"/>
    <nd ref="1102072979"/>
    <nd ref="1102072909"/>
    <nd ref="1102072717"/>
    <tag k="addr:city" v="Зеленоград"/>
    <tag k="addr:country" v="RU"/>
    <tag k="addr:housenumber" v="18"/>
    <tag k="addr:street" v="Заводской переулок"/>
    <tag k="building" v="yes"/>
  </way>
  <way id="94950656" version="3" timestamp="2012-03-27T11:37:54Z" uid="481934" user="iWowik" changeset="11115472">
    <nd ref="1102072717"/>
    <nd ref="1102073055"/>
    <nd ref="1102072979"/>
    <nd ref="1102072909"/>
    <nd ref="1102072717"/>
    <tag k="addr:city" v="Зеленоград"/>
    <tag k="addr:country" v="RU"/>
    <tag k="addr:housenumber" v="18"/>
    <tag k="addr:region" v="Москва"/>
    <tag k="addr:street" v="Заводской переулок"/>
    <tag k="building" v="yes"/>
  </way>
  <way id="94950660" version="1" timestamp="2011-01-13T14:28:58Z" uid="115477" user="wowik" changeset="6957620">
    <nd ref="1102073009"/>
    <nd ref="1102072849"/>
    <nd ref="1102072802"/>
    <nd ref="1102072736"/>
    <nd ref="1102073009"/>
    <tag k="addr:city" v="Зеленоград"/>
    <tag k="addr:housenumber" v="26"/>
    <tag k="addr:street" v="Заводской переулок"/>
    <tag k="building" v="yes"/>
    <tag k="note" v="они там в базе напутали и написали тупик? логичнее переулок"/>
  </way>
  <way id="94950660" version="2" timestamp="2011-01-25T14:28:05Z" uid="115477" user="wowik" changeset="7084094">
    <nd ref="1102073009"/>
    <nd ref="1102072849"/>
    <nd ref="1102072802"/>
    <nd ref="1102072736"/>
    <nd ref="1102073009"/>
    <tag k="addr:city" v="Зеленоград"/>
    <tag k="addr:housenumber" v="26"/>
    <tag k="addr:housnumber2" v="26"/>
    <tag k="addr:street" v="Заводской переулок"/>
    <tag k="addr:street2" v="Заводской тупик"/>
    <tag k="building" v="yes"/>
    <tag k="note" v="они там в базе напутали и написали тупик? логичнее переулок"/>
  </way>
  <way id="94950660" version="3" timestamp="2011-07-26T05:39:53Z" uid="383137" user="ErshKUS" changeset="8832199">
    <nd ref="1102073009"/>
    <nd ref="1102072849"/>
    <nd ref="1102072802"/>
    <nd ref="1102072736"/>
    <nd ref="1102073009"/>
    <tag k="addr:city" v="Зеленоград"/>
    <tag k="addr:housenumber" v="26"/>
    <tag k="addr:housenumber2" v="26"/>
    <tag k="addr:street" v="Заводской переулок"/>
    <tag k="addr:street2" v="Заводской тупик"/>
    <tag k="building" v="yes"/>
    <tag k="note" v="они там в базе напутали и написали тупик? логичнее переулок"/>
  </way>
  <way id="94950660" version="4" timestamp="2012-03-27T08:07:54Z" uid="481934" user="iWowik" changeset="11113698">
    <nd ref="1102073009"/>
    <nd ref="1102072849"/>
    <nd ref="1102072802"/>
    <nd ref="1102072736"/>
    <nd ref="1102073009"/>
    <tag k="addr:city" v="Зеленоград"/>
    <tag k="addr:country" v="RU"/>
    <tag k="addr:housenumber" v="26"/>
    <tag k="addr:housenumber2" v="26"/>
    <tag k="addr:street" v="Заводской переулок"/>
    <tag k="addr:street2" v="Заводской тупик"/>
    <tag k="building" v="yes"/>
    <tag k="note" v="они там в базе напутали и написали тупик? логичнее переулок"/>
  </way>
  <way id="94950660" version="5" timestamp="2012-03-27T11:40:19Z" uid="481934" user="iWowik" changeset="11115472">
    <nd ref="1102073009"/>
    <nd ref="1102072849"/>
    <nd ref="1102072802"/>
    <nd ref="1102072736"/>
    <nd ref="1102073009"/>
    <tag k="addr:city" v="Зеленоград"/>
    <tag k="addr:country" v="RU"/>
    <tag k="addr:housenumber" v="26"/>
    <tag k="addr:housenumber2" v="26"/>
    <tag k="addr:region" v="Москва"/>
    <tag k="addr:street" v="Заводской переулок"/>
    <tag k="addr:street2" v="Заводской тупик"/>
    <tag k="building" v="yes"/>
    <tag k="note" v="они там в базе напутали и написали тупик? логичнее переулок"/>
  </way>
  <way id="94950661" version="1" timestamp="2011-01-13T14:28:58Z" uid="115477" user="wowik" changeset="6957620">
    <nd ref="1101996809"/>
    <nd ref="1102072731"/>
    <nd ref="914341081"/>
    <nd ref="914341080"/>
    <nd ref="1102000414"/>
    <nd ref="1101998836"/>
    <nd ref="1101998303"/>
    <nd ref="1101996809"/>
    <tag k="addr:city" v="Зеленоград"/>
    <tag k="addr:housenumber" v="1Б с4"/>
    <tag k="addr:street" v="Заводская улица"/>
    <tag k="building" v="yes"/>
  </way>
  <way id="94950661" version="2" timestamp="2012-03-27T08:07:21Z" uid="481934" user="iWowik" changeset="11113698">
    <nd ref="1101996809"/>
    <nd ref="1102072731"/>
    <nd ref="914341081"/>
    <nd ref="914341080"/>
    <nd ref="1102000414"/>
    <nd ref="1101998836"/>
    <nd ref="1101998303"/>
    <nd ref="1101996809"/>
    <tag k="addr:city" v="Зеленоград"/>
    <tag k="addr:country" v="RU"/>
    <tag k="addr:housenumber" v="1Б с4"/>
    <tag k="addr:street" v="Заводская улица"/>
    <tag k="building" v="yes"/>
  </way>
  <way id="94950661" version="3" timestamp="2012-03-27T11:38:25Z" uid="481934" user="iWowik" changeset="11115472">
    <nd ref="1101996809"/>
    <nd ref="1102072731"/>
    <nd ref="914341081"/>
    <nd ref="914341080"/>
    <nd ref="1102000414"/>
    <nd ref="1101998836"/>
    <nd ref="1101998303"/>
    <nd ref="1101996809"/>
    <tag k="addr:city" v="Зеленоград"/>
    <tag k="addr:country" v="RU"/>
    <tag k="addr:housenumber" v="1Б с4"/>
    <tag k="addr:region" v="Москва"/>
    <tag k="addr:street" v="Заводская улица"/>
    <tag k="building" v="yes"/>
  </way>
  <way id="94950663" version="1" timestamp="2011-01-13T14:28:59Z" uid="115477" user="wowik" changeset="6957620">
    <nd ref="1102072693"/>
    <nd ref="1102073043"/>
    <nd ref="1102072957"/>
    <nd ref="1102072869"/>
    <nd ref="1102072693"/>
    <tag k="addr:city" v="Зеленоград"/>
    <tag k="addr:housenumber" v="12"/>
    <tag k="addr:street" v="Заводской переулок"/>
    <tag k="building" v="yes"/>
  </way>
  <way id="94950663" version="2" timestamp="2012-03-27T08:05:28Z" uid="481934" user="iWowik" changeset="11113698">
    <nd ref="1102072693"/>
    <nd ref="1102073043"/>
    <nd ref="1102072957"/>
    <nd ref="1102072869"/>
    <nd ref="1102072693"/>
    <tag k="addr:city" v="Зеленоград"/>
    <tag k="addr:country" v="RU"/>
    <tag k="addr:housenumber" v="12"/>
    <tag k="addr:street" v="Заводской переулок"/>
    <tag k="building" v="yes"/>
  </way>
  <way id="94950663" version="3" timestamp="2012-03-27T11:34:42Z" uid="481934" user="iWowik" changeset="11115472">
    <nd ref="1102072693"/>
    <nd ref="1102073043"/>
    <nd ref="1102072957"/>
    <nd ref="1102072869"/>
    <nd ref="1102072693"/>
    <tag k="addr:city" v="Зеленоград"/>
    <tag k="addr:country" v="RU"/>
    <tag k="addr:housenumber" v="12"/>
    <tag k="addr:region" v="Москва"/>
    <tag k="addr:street" v="Заводской переулок"/>
    <tag k="building" v="yes"/>
  </way>
  <way id="94950665" version="1" timestamp="2011-01-13T14:29:00Z" uid="115477" user="wowik" changeset="6957620">
    <nd ref="1102072952"/>
    <nd ref="1102072884"/>
    <nd ref="1102072760"/>
    <nd ref="1102072653"/>
    <nd ref="1102073023"/>
    <nd ref="1102072982"/>
    <nd ref="1102072851"/>
    <nd ref="1102072687"/>
    <nd ref="1102072952"/>
    <tag k="addr:city" v="Зеленоград"/>
    <tag k="addr:housenumber" v="17"/>
    <tag k="addr:street" v="Заводской тупик"/>
    <tag k="building" v="yes"/>
  </way>
  <way id="94950665" version="2" timestamp="2011-01-13T16:27:06Z" uid="115477" user="wowik" changeset="6958660">
    <nd ref="1102072952"/>
    <nd ref="1102072884"/>
    <nd ref="1102072760"/>
    <nd ref="1102072653"/>
    <nd ref="1102073023"/>
    <nd ref="1102072982"/>
    <nd ref="1102072851"/>
    <nd ref="1102072687"/>
    <nd ref="1102072952"/>
    <tag k="addr:city" v="Зеленоград"/>
    <tag k="addr:housenumber" v="17"/>
    <tag k="addr:street" v="Заводская улица"/>
    <tag k="building" v="yes"/>
    <tag k="note" v="от куда его от улицы заесло"/>
  </way>
  <way id="94950665" version="3" timestamp="2012-03-27T08:07:07Z" uid="481934" user="iWowik" changeset="11113698">
    <nd ref="1102072952"/>
    <nd ref="1102072884"/>
    <nd ref="1102072760"/>
    <nd ref="1102072653"/>
    <nd ref="1102073023"/>
    <nd ref="1102072982"/>
    <nd ref="1102072851"/>
    <nd ref="1102072687"/>
    <nd ref="1102072952"/>
    <tag k="addr:city" v="Зеленоград"/>
    <tag k="addr:country" v="RU"/>
    <tag k="addr:housenumber" v="17"/>
    <tag k="addr:street" v="Заводская улица"/>
    <tag k="building" v="yes"/>
    <tag k="note" v="от куда его от улицы заесло"/>
  </way>
  <way id="94950665" version="4" timestamp="2012-03-27T11:37:46Z" uid="481934" user="iWowik" changeset="11115472">
    <nd ref="1102072952"/>
    <nd ref="1102072884"/>
    <nd ref="1102072760"/>
    <nd ref="1102072653"/>
    <nd ref="1102073023"/>
    <nd ref="1102072982"/>
    <nd ref="1102072851"/>
    <nd ref="1102072687"/>
    <nd ref="1102072952"/>
    <tag k="addr:city" v="Зеленоград"/>
    <tag k="addr:country" v="RU"/>
    <tag k="addr:housenumber" v="17"/>
    <tag k="addr:region" v="Москва"/>
    <tag k="addr:street" v="Заводская улица"/>
    <tag k="building" v="yes"/>
    <tag k="note" v="от куда его от улицы заесло"/>
  </way>
  <way id="94950667" version="1" timestamp="2011-01-13T14:29:01Z" uid="115477" user="wowik" changeset="6957620">
    <nd ref="1102072891"/>
    <nd ref="1102072841"/>
    <nd ref="1102072780"/>
    <nd ref="1102072947"/>
    <nd ref="1102072891"/>
    <tag k="addr:city" v="Зеленоград"/>
    <tag k="addr:housenumber" v="22"/>
    <tag k="addr:street" v="Заводской переулок"/>
    <tag k="building" v="yes"/>
  </way>
  <way id="94950667" version="2" timestamp="2012-03-27T08:07:33Z" uid="481934" user="iWowik" changeset="11113698">
    <nd ref="1102072891"/>
    <nd ref="1102072841"/>
    <nd ref="1102072780"/>
    <nd ref="1102072947"/>
    <nd ref="1102072891"/>
    <tag k="addr:city" v="Зеленоград"/>
    <tag k="addr:country" v="RU"/>
    <tag k="addr:housenumber" v="22"/>
    <tag k="addr:street" v="Заводской переулок"/>
    <tag k="building" v="yes"/>
  </way>
  <way id="94950667" version="3" timestamp="2012-03-27T11:39:49Z" uid="481934" user="iWowik" changeset="11115472">
    <nd ref="1102072891"/>
    <nd ref="1102072841"/>
    <nd ref="1102072780"/>
    <nd ref="1102072947"/>
    <nd ref="1102072891"/>
    <tag k="addr:city" v="Зеленоград"/>
    <tag k="addr:country" v="RU"/>
    <tag k="addr:housenumber" v="22"/>
    <tag k="addr:region" v="Москва"/>
    <tag k="addr:street" v="Заводской переулок"/>
    <tag k="building" v="yes"/>
  </way>
  <way id="94950669" version="1" timestamp="2011-01-13T14:29:01Z" uid="115477" user="wowik" changeset="6957620">
    <nd ref="1102073019"/>
    <nd ref="1102072857"/>
    <nd ref="1102072814"/>
    <nd ref="1102072762"/>
    <nd ref="1102073019"/>
    <tag k="addr:city" v="Зеленоград"/>
    <tag k="building" v="yes"/>
  </way>
  <way id="94950669" version="2" timestamp="2012-03-27T08:11:24Z" uid="481934" user="iWowik" changeset="11113698">
    <nd ref="1102073019"/>
    <nd ref="1102072857"/>
    <nd ref="1102072814"/>
    <nd ref="1102072762"/>
    <nd ref="1102073019"/>
    <tag k="addr:city" v="Зеленоград"/>
    <tag k="addr:country" v="RU"/>
    <tag k="building" v="yes"/>
  </way>
  <way id="94950669" version="3" timestamp="2012-03-27T11:50:02Z" uid="481934" user="iWowik" changeset="11115472">
    <nd ref="1102073019"/>
    <nd ref="1102072857"/>
    <nd ref="1102072814"/>
    <nd ref="1102072762"/>
    <nd ref="1102073019"/>
    <tag k="addr:city" v="Зеленоград"/>
    <tag k="addr:country" v="RU"/>
    <tag k="addr:region" v="Москва"/>
    <tag k="building" v="yes"/>
  </way>
  <way id="94950670" version="1" timestamp="2011-01-13T14:29:02Z" uid="115477" user="wowik" changeset="6957620">
    <nd ref="1102072888"/>
    <nd ref="1102072912"/>
    <nd ref="1102072734"/>
    <nd ref="1102072850"/>
    <nd ref="1102072945"/>
    <nd ref="1102072806"/>
    <nd ref="1102072888"/>
    <tag k="addr:city" v="Зеленоград"/>
    <tag k="addr:housenumber" v="10"/>
    <tag k="addr:street" v="Заводской переулок"/>
    <tag k="building" v="yes"/>
  </way>
  <way id="94950670" version="2" timestamp="2012-03-27T08:05:07Z" uid="481934" user="iWowik" changeset="11113698">
    <nd ref="1102072888"/>
    <nd ref="1102072912"/>
    <nd ref="1102072734"/>
    <nd ref="1102072850"/>
    <nd ref="1102072945"/>
    <nd ref="1102072806"/>
    <nd ref="1102072888"/>
    <tag k="addr:city" v="Зеленоград"/>
    <tag k="addr:country" v="RU"/>
    <tag k="addr:housenumber" v="10"/>
    <tag k="addr:street" v="Заводской переулок"/>
    <tag k="building" v="yes"/>
  </way>
  <way id="94950670" version="3" timestamp="2012-03-27T11:33:22Z" uid="481934" user="iWowik" changeset="11115472">
    <nd ref="1102072888"/>
    <nd ref="1102072912"/>
    <nd ref="1102072734"/>
    <nd ref="1102072850"/>
    <nd ref="1102072945"/>
    <nd ref="1102072806"/>
    <nd ref="1102072888"/>
    <tag k="addr:city" v="Зеленоград"/>
    <tag k="addr:country" v="RU"/>
    <tag k="addr:housenumber" v="10"/>
    <tag k="addr:region" v="Москва"/>
    <tag k="addr:street" v="Заводской переулок"/>
    <tag k="building" v="yes"/>
  </way>
  <way id="94950672" version="1" timestamp="2011-01-13T14:29:02Z" uid="115477" user="wowik" changeset="6957620">
    <nd ref="1102072881"/>
    <nd ref="1102072827"/>
    <nd ref="1102072684"/>
    <nd ref="1102073021"/>
    <nd ref="1102072881"/>
    <tag k="addr:city" v="Зеленоград"/>
    <tag k="addr:housenumber" v="2"/>
    <tag k="addr:street" v="Заводской переулок"/>
    <tag k="building" v="yes"/>
  </way>
  <way id="94950672" version="2" timestamp="2011-01-25T14:28:04Z" uid="115477" user="wowik" changeset="7084094">
    <nd ref="1102072881"/>
    <nd ref="1102072827"/>
    <nd ref="1102072684"/>
    <nd ref="1102073021"/>
    <nd ref="1102072881"/>
    <tag k="addr:city" v="Зеленоград"/>
    <tag k="addr:housenumber" v="14"/>
    <tag k="addr:street" v="Заводской переулок"/>
    <tag k="building" v="yes"/>
  </way>
  <way id="94950672" version="3" timestamp="2012-03-27T08:05:55Z" uid="481934" user="iWowik" changeset="11113698">
    <nd ref="1102072881"/>
    <nd ref="1102072827"/>
    <nd ref="1102072684"/>
    <nd ref="1102073021"/>
    <nd ref="1102072881"/>
    <tag k="addr:city" v="Зеленоград"/>
    <tag k="addr:country" v="RU"/>
    <tag k="addr:housenumber" v="14"/>
    <tag k="addr:street" v="Заводской переулок"/>
    <tag k="building" v="yes"/>
  </way>
  <way id="94950672" version="4" timestamp="2012-03-27T11:35:11Z" uid="481934" user="iWowik" changeset="11115472">
    <nd ref="1102072881"/>
    <nd ref="1102072827"/>
    <nd ref="1102072684"/>
    <nd ref="1102073021"/>
    <nd ref="1102072881"/>
    <tag k="addr:city" v="Зеленоград"/>
    <tag k="addr:country" v="RU"/>
    <tag k="addr:housenumber" v="14"/>
    <tag k="addr:region" v="Москва"/>
    <tag k="addr:street" v="Заводской переулок"/>
    <tag k="building" v="yes"/>
  </way>
  <way id="94950675" version="1" timestamp="2011-01-13T14:29:03Z" uid="115477" user="wowik" changeset="6957620">
    <nd ref="894108942"/>
    <nd ref="1102072729"/>
    <nd ref="1102072989"/>
    <nd ref="894108943"/>
    <nd ref="894108942"/>
    <tag k="addr:city" v="Зеленоград"/>
    <tag k="addr:housenumber" v="1Б с5"/>
    <tag k="addr:street" v="Заводская улица"/>
    <tag k="building" v="yes"/>
  </way>
  <way id="94950675" version="2" timestamp="2012-03-27T08:07:21Z" uid="481934" user="iWowik" changeset="11113698">
    <nd ref="894108942"/>
    <nd ref="1102072729"/>
    <nd ref="1102072989"/>
    <nd ref="894108943"/>
    <nd ref="894108942"/>
    <tag k="addr:city" v="Зеленоград"/>
    <tag k="addr:country" v="RU"/>
    <tag k="addr:housenumber" v="1Б с5"/>
    <tag k="addr:street" v="Заводская улица"/>
    <tag k="building" v="yes"/>
  </way>
  <way id="94950675" version="3" timestamp="2012-03-27T11:38:25Z" uid="481934" user="iWowik" changeset="11115472">
    <nd ref="894108942"/>
    <nd ref="1102072729"/>
    <nd ref="1102072989"/>
    <nd ref="894108943"/>
    <nd ref="894108942"/>
    <tag k="addr:city" v="Зеленоград"/>
    <tag k="addr:country" v="RU"/>
    <tag k="addr:housenumber" v="1Б с5"/>
    <tag k="addr:region" v="Москва"/>
    <tag k="addr:street" v="Заводская улица"/>
    <tag k="building" v="yes"/>
  </way>
  <way id="94950676" version="1" timestamp="2011-01-13T14:29:04Z" uid="115477" user="wowik" changeset="6957620">
    <nd ref="1102072824"/>
    <nd ref="1102072772"/>
    <nd ref="1102072797"/>
    <nd ref="1102072733"/>
    <nd ref="1102072824"/>
    <tag k="addr:city" v="Зеленоград"/>
    <tag k="addr:housenumber" v="24"/>
    <tag k="addr:street" v="Заводской переулок"/>
    <tag k="building" v="yes"/>
  </way>
  <way id="94950676" version="2" timestamp="2012-03-27T08:07:38Z" uid="481934" user="iWowik" changeset="11113698">
    <nd ref="1102072824"/>
    <nd ref="1102072772"/>
    <nd ref="1102072797"/>
    <nd ref="1102072733"/>
    <nd ref="1102072824"/>
    <tag k="addr:city" v="Зеленоград"/>
    <tag k="addr:country" v="RU"/>
    <tag k="addr:housenumber" v="24"/>
    <tag k="addr:street" v="Заводской переулок"/>
    <tag k="building" v="yes"/>
  </way>
  <way id="94950676" version="3" timestamp="2012-03-27T11:40:03Z" uid="481934" user="iWowik" changeset="11115472">
    <nd ref="1102072824"/>
    <nd ref="1102072772"/>
    <nd ref="1102072797"/>
    <nd ref="1102072733"/>
    <nd ref="1102072824"/>
    <tag k="addr:city" v="Зеленоград"/>
    <tag k="addr:country" v="RU"/>
    <tag k="addr:housenumber" v="24"/>
    <tag k="addr:region" v="Москва"/>
    <tag k="addr:street" v="Заводской переулок"/>
    <tag k="building" v="yes"/>
  </way>
  <way id="94950637" version="4" timestamp="2012-07-20T22:16:32Z" uid="722137" user="OSMF Redaction Account" changeset="12394520"/>
  <way id="94950639" version="5" timestamp="2012-07-20T22:16:32Z" uid="722137" user="OSMF Redaction Account" changeset="12394520"/>
  <way id="94950641" version="4" timestamp="2012-07-20T23:56:13Z" uid="722137" user="OSMF Redaction Account" changeset="12396604"/>
  <way id="94950644" version="5" timestamp="2012-07-20T22:16:30Z" uid="722137" user="OSMF Redaction Account" changeset="12394520"/>
  <way id="94950645" version="4" timestamp="2012-07-20T23:56:07Z" uid="722137" user="OSMF Redaction Account" changeset="12396604"/>
  <way id="94950647" version="4" timestamp="2012-07-20T23:56:07Z" uid="722137" user="OSMF Redaction Account" changeset="12396604"/>
  <way id="94950649" version="4" timestamp="2012-07-20T22:16:33Z" uid="722137" user="OSMF Redaction Account" changeset="12394520"/>
  <way id="94950652" version="4" timestamp="2012-07-20T23:56:08Z" uid="722137" user="OSMF Redaction Account" changeset="12396604"/>
  <way id="94950653" version="5" timestamp="2012-07-20T22:16:32Z" uid="722137" user="OSMF Redaction Account" changeset="12394520"/>
  <way id="94950655" version="4" timestamp="2012-07-20T23:56:08Z" uid="722137" user="OSMF Redaction Account" changeset="12396604"/>
  <way id="94950656" version="4" timestamp="2012-07-20T22:16:33Z" uid="722137" user="OSMF Redaction Account" changeset="12394520"/>
  <way id="94950660" version="6" timestamp="2012-07-20T22:16:32Z" uid="722137" user="OSMF Redaction Account" changeset="12394520"/>
  <way id="94950661" version="4" timestamp="2012-07-20T23:56:12Z" uid="722137" user="OSMF Redaction Account" changeset="12396604"/>
  <way id="94950663" version="4" timestamp="2012-07-20T23:56:09Z" uid="722137" user="OSMF Redaction Account" changeset="12396604"/>
  <way id="94950665" version="5" timestamp="2012-07-20T22:16:30Z" uid="722137" user="OSMF Redaction Account" changeset="12394520"/>
  <way id="94950667" version="4" timestamp="2012-07-20T22:16:32Z" uid="722137" user="OSMF Redaction Account" changeset="12394520"/>
  <way id="94950669" version="4" timestamp="2012-07-20T22:16:33Z" uid="722137" user="OSMF Redaction Account" changeset="12394520"/>
  <way id="94950670" version="4" timestamp="2012-07-20T23:56:09Z" uid="722137" user="OSMF Redaction Account" changeset="12396604"/>
  <way id="94950672" version="5" timestamp="2012-07-20T23:56:09Z" uid="722137" user="OSMF Redaction Account" changeset="12396604"/>
  <way id="94950675" version="4" timestamp="2012-07-20T23:56:08Z" uid="722137" user="OSMF Redaction Account" changeset="12396604"/>
  <way id="94950676" version="4" timestamp="2012-07-20T22:16:32Z" uid="722137" user="OSMF Redaction Account" changeset="12394520"/>
</osm>
