<?xml version='1.0' encoding='UTF-8'?>
<osm version="0.6" generator="libosmium/2.20.0">
  <way id="94980803" version="1" timestamp="2011-01-13T17:56:16Z" uid="115477" user="wowik" changeset="6959624">
    <nd ref="1102308148"/>
    <nd ref="1102308161"/>
    <nd ref="1102308168"/>
    <nd ref="1102308140"/>
    <nd ref="1102308148"/>
    <tag k="addr:city" v="Зеленоград"/>
    <tag k="addr:housenumber" v="99"/>
    <tag k="addr:street" v="Лесная улица"/>
    <tag k="addr:suburb" v="Малино"/>
    <tag k="building" v="yes"/>
    <tag k="building:use" v="residential"/>
  </way>
  <way id="94980803" version="2" timestamp="2011-01-14T11:07:12Z" uid="115477" user="wowik" changeset="6966068">
    <nd ref="1102308148"/>
    <nd ref="1102308161"/>
    <nd ref="1102308168"/>
    <nd ref="1102308140"/>
    <nd ref="1102308148"/>
    <tag k="addr:city" v="Зеленоград"/>
    <tag k="addr:housenumber" v="99"/>
    <tag k="addr:street" v="Малинская улица"/>
    <tag k="building" v="yes"/>
    <tag k="building:use" v="residential"/>
  </way>
  <way id="94980804" version="1" timestamp="2011-01-13T17:56:16Z" uid="115477" user="wowik" changeset="6959624">
    <nd ref="1102308144"/>
    <nd ref="1102308164"/>
    <nd ref="1102308137"/>
    <nd ref="1102308162"/>
    <nd ref="1102308144"/>
    <tag k="addr:city" v="Зеленоград"/>
    <tag k="addr:housenumber" v="100"/>
    <tag k="addr:street" v="Малинская улица"/>
    <tag k="addr:suburb" v="Малино"/>
    <tag k="building" v="yes"/>
    <tag k="building:use" v="residential"/>
  </way>
  <way id="94980804" version="2" timestamp="2011-01-14T11:07:14Z" uid="115477" user="wowik" changeset="6966068">
    <nd ref="1102308144"/>
    <nd ref="1102308164"/>
    <nd ref="1102308137"/>
    <nd ref="1102308162"/>
    <nd ref="1102308144"/>
    <tag k="addr:city" v="Зеленоград"/>
    <tag k="addr:housenumber" v="100"/>
    <tag k="addr:street" v="Малинская улица"/>
    <tag k="building" v="yes"/>
    <tag k="building:use" v="residential"/>
  </way>
  <way id="94980803" version="3" timestamp="2012-07-20T22:15:04Z" uid="722137" user="OSMF Redaction Account" changeset="12394459"/>
  <way id="94980804" version="3" timestamp="2012-07-20T22:15:04Z" uid="722137" user="OSMF Redaction Account" changeset="12394459"/>
</osm>
