<?xml version='1.0' encoding='UTF-8'?>
<osm version="0.6" generator="libosmium/2.20.0">
  <way id="9516139" version="2" timestamp="2010-02-15T03:20:53Z" uid="103576" user="DiverCTH" changeset="3879939">
    <nd ref="202761377"/>
    <nd ref="73328084"/>
    <nd ref="73328086"/>
    <nd ref="73328089"/>
    <tag k="highway" v="residential"/>
    <tag k="name" v="Mc Farland"/>
    <tag k="tiger:cfcc" v="A41"/>
    <tag k="tiger:county" v="Walker, GA"/>
    <tag k="tiger:name_base" v="Mc Farland"/>
    <tag k="tiger:reviewed" v="no"/>
    <tag k="tiger:separated" v="no"/>
    <tag k="tiger:source" v="tiger_import_dch_v0.6_20070809"/>
    <tag k="tiger:tlid" v="66736054:66719707"/>
    <tag k="tiger:upload_uuid" v="bulk_upload.pl-ca4dcc0a-e2ef-4f06-a0b1-806ef2e8ae79"/>
  </way>
  <way id="9516402" version="26" timestamp="2010-05-02T09:21:01Z" uid="151899" user="Bikeman2000" changeset="4582538">
    <nd ref="27157992"/>
    <nd ref="716744135"/>
    <nd ref="27157981"/>
    <nd ref="258329748"/>
    <nd ref="27157983"/>
    <nd ref="267886837"/>
    <nd ref="267885827"/>
    <nd ref="27157985"/>
    <nd ref="30366072"/>
    <nd ref="267172224"/>
    <tag k="highway" v="primary"/>
    <tag k="name" v="Vautierstraße"/>
    <tag k="ref" v="B 7"/>
  </way>
  <way id="9516402" version="27" timestamp="2010-06-10T12:11:20Z" uid="120715" user="ruhri2010" changeset="4953497">
    <nd ref="27157992"/>
    <nd ref="716744135"/>
    <nd ref="27157981"/>
    <nd ref="258329748"/>
    <nd ref="768554327"/>
    <nd ref="27157983"/>
    <nd ref="267886837"/>
    <nd ref="267885827"/>
    <nd ref="27157985"/>
    <nd ref="30366072"/>
    <nd ref="267172224"/>
    <tag k="highway" v="primary"/>
    <tag k="name" v="Vautierstraße"/>
    <tag k="ref" v="B 7"/>
  </way>
  <way id="9516402" version="28" timestamp="2010-09-11T21:40:30Z" uid="12610" user="Burkhard" changeset="5754142">
    <nd ref="27157992"/>
    <nd ref="716744135"/>
    <nd ref="27157981"/>
    <nd ref="258329748"/>
    <nd ref="907393541"/>
    <nd ref="768554327"/>
    <nd ref="27157983"/>
    <nd ref="267886837"/>
    <nd ref="267885827"/>
    <nd ref="27157985"/>
    <nd ref="30366072"/>
    <nd ref="267172224"/>
    <tag k="highway" v="primary"/>
    <tag k="name" v="Vautierstraße"/>
    <tag k="ref" v="B 7"/>
  </way>
  <way id="9516402" version="29" timestamp="2011-01-07T23:17:50Z" uid="18130" user="black_bike" changeset="6898770">
    <nd ref="27157992"/>
    <nd ref="716744135"/>
    <nd ref="27157981"/>
    <nd ref="258329748"/>
    <nd ref="907393541"/>
    <nd ref="768554327"/>
    <nd ref="27157983"/>
    <nd ref="267886837"/>
    <nd ref="267885827"/>
    <nd ref="27157985"/>
    <nd ref="30366072"/>
    <nd ref="267172224"/>
    <tag k="highway" v="primary"/>
    <tag k="lit" v="yes"/>
    <tag k="lit_by_gaslight" v="no"/>
    <tag k="name" v="Vautierstraße"/>
    <tag k="ref" v="B 7"/>
    <tag k="surface" v="asphalt"/>
  </way>
  <way id="9516402" version="30" timestamp="2012-01-21T13:24:26Z" uid="12614" user="rabenkind" changeset="10455353"/>
  <way id="9516550" version="5" timestamp="2007-12-04T21:23:59Z" uid="17602" user="B10xyz" changeset="79249">
    <nd ref="31524242"/>
    <nd ref="31524243"/>
    <nd ref="31492399"/>
    <nd ref="31524244"/>
    <nd ref="31524245"/>
    <nd ref="31524246"/>
    <nd ref="31524247"/>
    <nd ref="31524248"/>
    <nd ref="86033021"/>
    <nd ref="31524249"/>
    <nd ref="86033023"/>
    <nd ref="86033025"/>
    <nd ref="73315412"/>
    <tag k="created_by" v="Potlatch alpha"/>
    <tag k="highway" v="secondary"/>
    <tag k="name" v="Seelenbinderstrasse"/>
  </way>
  <way id="9516550" version="6" timestamp="2008-05-24T20:19:06Z" uid="26296" user="gorgum" changeset="510369">
    <nd ref="31524242"/>
    <nd ref="31524243"/>
    <nd ref="31492399"/>
    <nd ref="31524244"/>
    <nd ref="31524245"/>
    <nd ref="31524246"/>
    <nd ref="31524247"/>
    <nd ref="31524248"/>
    <nd ref="86033021"/>
    <nd ref="31524249"/>
    <nd ref="86033023"/>
    <nd ref="86033025"/>
    <nd ref="73315412"/>
    <tag k="created_by" v="Potlatch 0.9a"/>
    <tag k="highway" v="secondary"/>
    <tag k="name" v="Seelenbinderstraße"/>
  </way>
  <way id="9516550" version="7" timestamp="2008-06-12T18:34:24Z" uid="43566" user="anbr" changeset="145794">
    <nd ref="31524242"/>
    <nd ref="31524243"/>
    <nd ref="31492399"/>
    <tag k="created_by" v="Potlatch 0.9a"/>
    <tag k="highway" v="residential"/>
    <tag k="name" v="Seelenbinderstraße"/>
  </way>
  <way id="9516550" version="8" timestamp="2009-02-15T10:43:34Z" uid="43566" user="anbr" changeset="465259">
    <nd ref="31524242"/>
    <nd ref="31524243"/>
    <nd ref="31492399"/>
    <tag k="created_by" v="Potlatch 0.9a"/>
    <tag k="highway" v="residential"/>
    <tag k="maxspeed" v="30"/>
    <tag k="name" v="Seelenbinderstraße"/>
  </way>
  <way id="9516550" version="9" timestamp="2009-07-18T08:41:44Z" uid="6669" user="Elwood" changeset="1861323">
    <nd ref="31524242"/>
    <nd ref="31524243"/>
    <nd ref="31492399"/>
    <tag k="highway" v="residential"/>
    <tag k="maxspeed" v="30"/>
    <tag k="name" v="Seelenbinderstraße"/>
    <tag k="postal_code" v="12555"/>
  </way>
  <way id="9516550" version="10" timestamp="2011-12-11T10:13:31Z" uid="43566" user="anbr" changeset="10087814"/>
  <way id="9516831" version="7" timestamp="2010-05-02T09:53:59Z" uid="151899" user="Bikeman2000" changeset="4582859">
    <nd ref="278990970"/>
    <nd ref="716797090"/>
    <nd ref="278990976"/>
    <nd ref="716797106"/>
    <nd ref="278990973"/>
    <nd ref="716797133"/>
    <nd ref="73349341"/>
    <nd ref="73349342"/>
    <nd ref="278991005"/>
    <nd ref="278990972"/>
    <nd ref="278990968"/>
    <nd ref="716797185"/>
    <nd ref="278990977"/>
    <nd ref="73349344"/>
    <nd ref="278990979"/>
    <nd ref="716797236"/>
    <nd ref="278990974"/>
    <nd ref="716797256"/>
    <nd ref="278990969"/>
    <nd ref="716797274"/>
    <nd ref="278990975"/>
    <nd ref="716797323"/>
    <nd ref="278990970"/>
    <tag k="highway" v="residential"/>
    <tag k="junction" v="roundabout"/>
    <tag k="name" v="Walter-Eucken-Straße"/>
  </way>
  <way id="9516831" version="8" timestamp="2012-01-19T16:24:40Z" uid="12614" user="rabenkind" changeset="10438786"/>
  <way id="9516139" version="3" timestamp="2012-07-18T15:17:50Z" uid="722137" user="OSMF Redaction Account" changeset="12286582">
    <nd ref="73328084"/>
    <nd ref="73328086"/>
    <nd ref="73328089"/>
    <tag k="highway" v="residential"/>
    <tag k="name" v="Mc Farland"/>
    <tag k="tiger:cfcc" v="A41"/>
    <tag k="tiger:county" v="Walker, GA"/>
    <tag k="tiger:name_base" v="Mc Farland"/>
    <tag k="tiger:reviewed" v="no"/>
    <tag k="tiger:separated" v="no"/>
    <tag k="tiger:source" v="tiger_import_dch_v0.6_20070809"/>
    <tag k="tiger:tlid" v="66736054:66719707"/>
    <tag k="tiger:upload_uuid" v="bulk_upload.pl-ca4dcc0a-e2ef-4f06-a0b1-806ef2e8ae79"/>
  </way>
</osm>
