<?xml version='1.0' encoding='UTF-8'?>
<osm version="0.6" generator="libosmium/2.20.0">
  <way id="9528661" version="19" timestamp="2010-06-17T13:34:19Z" uid="151899" user="Bikeman2000" changeset="5008916">
    <nd ref="73546363"/>
    <nd ref="459491992"/>
    <nd ref="253969720"/>
    <nd ref="340305036"/>
    <nd ref="47961734"/>
    <nd ref="774763235"/>
    <nd ref="47961740"/>
    <nd ref="57893150"/>
    <nd ref="47961745"/>
    <nd ref="47961794"/>
    <nd ref="73548495"/>
    <tag k="cycleway" v="track"/>
    <tag k="highway" v="primary"/>
    <tag k="maxspeed" v="60"/>
    <tag k="name" v="Heinrich-Ehrhardt-Straße"/>
    <tag k="oneway" v="yes"/>
    <tag k="ref" v="B 1;B 7;B 8"/>
  </way>
  <way id="9528661" version="20" timestamp="2010-06-17T13:35:38Z" uid="151899" user="Bikeman2000" changeset="5008927">
    <nd ref="73546363"/>
    <nd ref="459491992"/>
    <nd ref="253969720"/>
    <nd ref="340305036"/>
    <nd ref="47961734"/>
    <nd ref="774763235"/>
    <nd ref="47961740"/>
    <nd ref="774765295"/>
    <nd ref="57893150"/>
    <nd ref="47961745"/>
    <nd ref="47961794"/>
    <nd ref="73548495"/>
    <tag k="cycleway" v="track"/>
    <tag k="highway" v="primary"/>
    <tag k="maxspeed" v="60"/>
    <tag k="name" v="Heinrich-Ehrhardt-Straße"/>
    <tag k="oneway" v="yes"/>
    <tag k="ref" v="B 1;B 7;B 8"/>
  </way>
  <way id="9528661" version="21" timestamp="2010-06-17T14:48:18Z" uid="151899" user="Bikeman2000" changeset="5009379">
    <nd ref="73546363"/>
    <nd ref="459491992"/>
    <nd ref="253969720"/>
    <nd ref="340305036"/>
    <nd ref="47961734"/>
    <nd ref="774894059"/>
    <nd ref="774763235"/>
    <nd ref="774765295"/>
    <nd ref="57893150"/>
    <nd ref="47961745"/>
    <nd ref="47961794"/>
    <nd ref="73548495"/>
    <tag k="cycleway" v="track"/>
    <tag k="highway" v="primary"/>
    <tag k="maxspeed" v="60"/>
    <tag k="name" v="Heinrich-Ehrhardt-Straße"/>
    <tag k="oneway" v="yes"/>
    <tag k="ref" v="B 1;B 7;B 8"/>
  </way>
  <way id="9528661" version="22" timestamp="2010-11-21T10:05:31Z" uid="81244" user="rurseekatze" changeset="6420935">
    <nd ref="73546363"/>
    <nd ref="459491992"/>
    <nd ref="253969720"/>
    <nd ref="340305036"/>
    <nd ref="47961734"/>
    <nd ref="774894059"/>
    <nd ref="774763235"/>
    <nd ref="774765295"/>
    <nd ref="57893150"/>
    <nd ref="47961745"/>
    <nd ref="47961794"/>
    <nd ref="997560902"/>
    <nd ref="73548495"/>
    <tag k="cycleway" v="track"/>
    <tag k="highway" v="primary"/>
    <tag k="lit" v="yes"/>
    <tag k="maxspeed" v="60"/>
    <tag k="name" v="Heinrich-Ehrhardt-Straße"/>
    <tag k="oneway" v="yes"/>
    <tag k="ref" v="B 1;B 7;B 8"/>
  </way>
  <way id="9528661" version="23" timestamp="2010-11-21T11:00:52Z" uid="81244" user="rurseekatze" changeset="6421342">
    <nd ref="73546363"/>
    <nd ref="459491992"/>
    <nd ref="253969720"/>
    <nd ref="340305036"/>
    <nd ref="47961734"/>
    <nd ref="774894059"/>
    <nd ref="774763235"/>
    <nd ref="774765295"/>
    <nd ref="997603686"/>
    <nd ref="57893150"/>
    <nd ref="997603723"/>
    <nd ref="47961745"/>
    <nd ref="47961794"/>
    <nd ref="997560902"/>
    <nd ref="73548495"/>
    <tag k="cycleway" v="track"/>
    <tag k="highway" v="primary"/>
    <tag k="lit" v="yes"/>
    <tag k="maxspeed" v="60"/>
    <tag k="name" v="Heinrich-Ehrhardt-Straße"/>
    <tag k="oneway" v="yes"/>
    <tag k="ref" v="B 1;B 7;B 8"/>
  </way>
  <way id="9528661" version="24" timestamp="2011-05-25T21:44:09Z" uid="105839" user="jotzt" changeset="8249063">
    <nd ref="73546363"/>
    <nd ref="459491992"/>
    <nd ref="253969720"/>
    <nd ref="340305036"/>
    <nd ref="47961734"/>
    <nd ref="774894059"/>
    <nd ref="774763235"/>
    <nd ref="774765295"/>
    <nd ref="997603686"/>
    <nd ref="57893150"/>
    <nd ref="997603723"/>
    <nd ref="47961745"/>
    <nd ref="47961794"/>
    <nd ref="997560902"/>
    <nd ref="73548495"/>
    <tag k="cycleway" v="track"/>
    <tag k="highway" v="primary"/>
    <tag k="lanes" v="3"/>
    <tag k="lit" v="yes"/>
    <tag k="maxspeed" v="60"/>
    <tag k="name" v="Heinrich-Ehrhardt-Straße"/>
    <tag k="oneway" v="yes"/>
    <tag k="ref" v="B 1;B 7;B 8"/>
  </way>
  <way id="9528661" version="25" timestamp="2011-11-04T11:41:39Z" uid="153031" user="ajoessen" changeset="9737666">
    <nd ref="73546363"/>
    <nd ref="459491992"/>
    <nd ref="253969720"/>
    <nd ref="340305036"/>
    <nd ref="47961734"/>
    <nd ref="774894059"/>
    <nd ref="774763235"/>
    <nd ref="774765295"/>
    <nd ref="997603686"/>
    <nd ref="57893150"/>
    <nd ref="997603723"/>
    <nd ref="47961745"/>
    <nd ref="47961794"/>
    <nd ref="997560902"/>
    <tag k="cycleway" v="track"/>
    <tag k="highway" v="primary"/>
    <tag k="lanes" v="3"/>
    <tag k="lit" v="yes"/>
    <tag k="maxspeed" v="60"/>
    <tag k="name" v="Heinrich-Ehrhardt-Straße"/>
    <tag k="oneway" v="yes"/>
    <tag k="ref" v="B 1;B 7;B 8"/>
  </way>
  <way id="9528661" version="26" timestamp="2011-11-04T11:48:24Z" uid="153031" user="ajoessen" changeset="9737731">
    <nd ref="73546363"/>
    <nd ref="459491992"/>
    <nd ref="253969720"/>
    <nd ref="340305036"/>
    <nd ref="47961734"/>
    <nd ref="774894059"/>
    <nd ref="774763235"/>
    <nd ref="774765295"/>
    <nd ref="997603686"/>
    <nd ref="57893150"/>
    <nd ref="997603723"/>
    <nd ref="47961745"/>
    <nd ref="47961794"/>
    <nd ref="997560902"/>
    <nd ref="1491276729"/>
    <tag k="cycleway" v="track"/>
    <tag k="highway" v="primary"/>
    <tag k="lanes" v="3"/>
    <tag k="lit" v="yes"/>
    <tag k="maxspeed" v="60"/>
    <tag k="name" v="Heinrich-Ehrhardt-Straße"/>
    <tag k="oneway" v="yes"/>
    <tag k="ref" v="B 1;B 7;B 8"/>
  </way>
  <way id="9528661" version="27" timestamp="2012-01-22T16:56:25Z" uid="173844" user="Antikalk" changeset="10466568"/>
</osm>
