<?xml version='1.0' encoding='UTF-8'?>
<osm version="0.6" generator="libosmium/2.20.0">
  <way id="95506646" version="1" timestamp="2011-01-17T11:33:58Z" uid="6269" user="Mueck" changeset="6998396">
    <nd ref="1107471379"/>
    <nd ref="1107471381"/>
    <nd ref="1107471380"/>
    <tag k="highway" v="service"/>
  </way>
  <way id="95506861" version="2" timestamp="2011-02-24T16:09:32Z" uid="49111" user="Markus B" changeset="7382771">
    <nd ref="448474458"/>
    <nd ref="448480987"/>
    <nd ref="448480471"/>
    <nd ref="448476023"/>
    <nd ref="448473847"/>
    <nd ref="448474259"/>
    <nd ref="448473235"/>
    <nd ref="448477689"/>
    <nd ref="448485034"/>
    <nd ref="448481533"/>
    <nd ref="448472186"/>
    <nd ref="448481975"/>
    <nd ref="448476878"/>
    <nd ref="448477848"/>
    <nd ref="448471031"/>
    <nd ref="448484428"/>
    <nd ref="448474179"/>
    <nd ref="1170441908"/>
    <tag k="admin_level" v="8"/>
    <tag k="boundary" v="administrative"/>
    <tag k="source" v="cadastre-dgi-fr source : Direction Générale des Impôts - Cadastre ; mise à jour : 2009"/>
  </way>
  <way id="95506926" version="1" timestamp="2011-01-17T11:38:43Z" uid="115477" user="wowik" changeset="6998441">
    <nd ref="1107473355"/>
    <nd ref="1107473652"/>
    <nd ref="1107473726"/>
    <nd ref="1107473313"/>
    <nd ref="1107473355"/>
    <tag k="addr:city" v="Зеленоград"/>
    <tag k="addr:housenumber" v="30"/>
    <tag k="addr:street" v="Заречная улица"/>
    <tag k="building" v="yes"/>
    <tag k="building:levels" v="1"/>
    <tag k="building:use" v="residential"/>
    <tag k="is_in" v="Russia"/>
  </way>
  <way id="95506926" version="2" timestamp="2011-09-13T10:25:36Z" uid="29320" user="Komяpa" changeset="9288237">
    <nd ref="1107473355"/>
    <nd ref="1107473652"/>
    <nd ref="1107473726"/>
    <nd ref="1107473313"/>
    <nd ref="1107473355"/>
    <tag k="addr:city" v="Зеленоград"/>
    <tag k="addr:country" v="RU"/>
    <tag k="addr:housenumber" v="30"/>
    <tag k="addr:street" v="Заречная улица"/>
    <tag k="building" v="yes"/>
    <tag k="building:levels" v="1"/>
    <tag k="building:use" v="residential"/>
  </way>
  <way id="95506926" version="3" timestamp="2012-03-27T11:41:17Z" uid="481934" user="iWowik" changeset="11115472">
    <nd ref="1107473355"/>
    <nd ref="1107473652"/>
    <nd ref="1107473726"/>
    <nd ref="1107473313"/>
    <nd ref="1107473355"/>
    <tag k="addr:city" v="Зеленоград"/>
    <tag k="addr:country" v="RU"/>
    <tag k="addr:housenumber" v="30"/>
    <tag k="addr:region" v="Москва"/>
    <tag k="addr:street" v="Заречная улица"/>
    <tag k="building" v="yes"/>
    <tag k="building:levels" v="1"/>
    <tag k="building:use" v="residential"/>
  </way>
  <way id="95506927" version="1" timestamp="2011-01-17T11:38:44Z" uid="115477" user="wowik" changeset="6998441">
    <nd ref="1107473342"/>
    <nd ref="1107473501"/>
    <nd ref="1107473642"/>
    <nd ref="1107473461"/>
    <nd ref="1107473403"/>
    <nd ref="1107473697"/>
    <nd ref="1107473319"/>
    <nd ref="1107473691"/>
    <nd ref="1107473655"/>
    <nd ref="1107473554"/>
    <nd ref="1107473342"/>
    <tag k="addr:city" v="Зеленоград"/>
    <tag k="addr:housenumber" v="12"/>
    <tag k="addr:street" v="Заречная улица"/>
    <tag k="building" v="yes"/>
    <tag k="building:levels" v="1"/>
    <tag k="building:use" v="residential"/>
    <tag k="is_in" v="Russia"/>
  </way>
  <way id="95506927" version="2" timestamp="2011-09-13T10:21:48Z" uid="29320" user="Komяpa" changeset="9288237">
    <nd ref="1107473342"/>
    <nd ref="1107473501"/>
    <nd ref="1107473642"/>
    <nd ref="1107473461"/>
    <nd ref="1107473403"/>
    <nd ref="1107473697"/>
    <nd ref="1107473319"/>
    <nd ref="1107473691"/>
    <nd ref="1107473655"/>
    <nd ref="1107473554"/>
    <nd ref="1107473342"/>
    <tag k="addr:city" v="Зеленоград"/>
    <tag k="addr:country" v="RU"/>
    <tag k="addr:housenumber" v="12"/>
    <tag k="addr:street" v="Заречная улица"/>
    <tag k="building" v="yes"/>
    <tag k="building:levels" v="1"/>
    <tag k="building:use" v="residential"/>
  </way>
  <way id="95506927" version="3" timestamp="2012-03-27T11:34:43Z" uid="481934" user="iWowik" changeset="11115472">
    <nd ref="1107473342"/>
    <nd ref="1107473501"/>
    <nd ref="1107473642"/>
    <nd ref="1107473461"/>
    <nd ref="1107473403"/>
    <nd ref="1107473697"/>
    <nd ref="1107473319"/>
    <nd ref="1107473691"/>
    <nd ref="1107473655"/>
    <nd ref="1107473554"/>
    <nd ref="1107473342"/>
    <tag k="addr:city" v="Зеленоград"/>
    <tag k="addr:country" v="RU"/>
    <tag k="addr:housenumber" v="12"/>
    <tag k="addr:region" v="Москва"/>
    <tag k="addr:street" v="Заречная улица"/>
    <tag k="building" v="yes"/>
    <tag k="building:levels" v="1"/>
    <tag k="building:use" v="residential"/>
  </way>
  <way id="95506929" version="1" timestamp="2011-01-17T11:38:44Z" uid="115477" user="wowik" changeset="6998441">
    <nd ref="1107473722"/>
    <nd ref="1107473521"/>
    <nd ref="751020246"/>
    <nd ref="1107473378"/>
    <nd ref="1107473795"/>
    <nd ref="1107473764"/>
    <nd ref="1107473465"/>
    <nd ref="1107473722"/>
    <tag k="building" v="yes"/>
  </way>
  <way id="95506929" version="2" timestamp="2012-03-27T08:14:29Z" uid="481934" user="iWowik" changeset="11113698">
    <nd ref="1107473722"/>
    <nd ref="1107473521"/>
    <nd ref="751020246"/>
    <nd ref="1107473378"/>
    <nd ref="1107473795"/>
    <nd ref="1107473764"/>
    <nd ref="1107473465"/>
    <nd ref="1107473722"/>
    <tag k="addr:city" v="Зеленоград"/>
    <tag k="addr:country" v="RU"/>
    <tag k="building" v="yes"/>
  </way>
  <way id="95506929" version="3" timestamp="2012-03-27T11:55:34Z" uid="481934" user="iWowik" changeset="11115472">
    <nd ref="1107473722"/>
    <nd ref="1107473521"/>
    <nd ref="751020246"/>
    <nd ref="1107473378"/>
    <nd ref="1107473795"/>
    <nd ref="1107473764"/>
    <nd ref="1107473465"/>
    <nd ref="1107473722"/>
    <tag k="addr:city" v="Зеленоград"/>
    <tag k="addr:country" v="RU"/>
    <tag k="addr:region" v="Москва"/>
    <tag k="building" v="yes"/>
  </way>
  <way id="95506933" version="1" timestamp="2011-01-17T11:38:44Z" uid="115477" user="wowik" changeset="6998441">
    <nd ref="1107473375"/>
    <nd ref="1107473494"/>
    <nd ref="1107473620"/>
    <nd ref="1107473585"/>
    <nd ref="1107473375"/>
    <tag k="addr:city" v="Зеленоград"/>
    <tag k="building" v="yes"/>
    <tag k="building:levels" v="1"/>
  </way>
  <way id="95506933" version="2" timestamp="2012-03-27T08:13:29Z" uid="481934" user="iWowik" changeset="11113698">
    <nd ref="1107473375"/>
    <nd ref="1107473494"/>
    <nd ref="1107473620"/>
    <nd ref="1107473585"/>
    <nd ref="1107473375"/>
    <tag k="addr:city" v="Зеленоград"/>
    <tag k="addr:country" v="RU"/>
    <tag k="building" v="yes"/>
    <tag k="building:levels" v="1"/>
  </way>
  <way id="95506933" version="3" timestamp="2012-03-27T11:51:58Z" uid="481934" user="iWowik" changeset="11115472">
    <nd ref="1107473375"/>
    <nd ref="1107473494"/>
    <nd ref="1107473620"/>
    <nd ref="1107473585"/>
    <nd ref="1107473375"/>
    <tag k="addr:city" v="Зеленоград"/>
    <tag k="addr:country" v="RU"/>
    <tag k="addr:region" v="Москва"/>
    <tag k="building" v="yes"/>
    <tag k="building:levels" v="1"/>
  </way>
  <way id="95506935" version="1" timestamp="2011-01-17T11:38:45Z" uid="115477" user="wowik" changeset="6998441">
    <nd ref="1107473358"/>
    <nd ref="1107473490"/>
    <nd ref="1107473415"/>
    <nd ref="1107473578"/>
    <nd ref="1107473358"/>
    <tag k="addr:city" v="Зеленоград"/>
    <tag k="addr:housenumber" v="21"/>
    <tag k="addr:street" v="Заречная улица"/>
    <tag k="building" v="yes"/>
    <tag k="building:levels" v="1"/>
    <tag k="building:use" v="residential"/>
    <tag k="is_in" v="Russia"/>
  </way>
  <way id="95506935" version="2" timestamp="2011-09-13T10:24:34Z" uid="29320" user="Komяpa" changeset="9288237">
    <nd ref="1107473358"/>
    <nd ref="1107473490"/>
    <nd ref="1107473415"/>
    <nd ref="1107473578"/>
    <nd ref="1107473358"/>
    <tag k="addr:city" v="Зеленоград"/>
    <tag k="addr:country" v="RU"/>
    <tag k="addr:housenumber" v="21"/>
    <tag k="addr:street" v="Заречная улица"/>
    <tag k="building" v="yes"/>
    <tag k="building:levels" v="1"/>
    <tag k="building:use" v="residential"/>
  </way>
  <way id="95506935" version="3" timestamp="2012-03-27T11:39:23Z" uid="481934" user="iWowik" changeset="11115472">
    <nd ref="1107473358"/>
    <nd ref="1107473490"/>
    <nd ref="1107473415"/>
    <nd ref="1107473578"/>
    <nd ref="1107473358"/>
    <tag k="addr:city" v="Зеленоград"/>
    <tag k="addr:country" v="RU"/>
    <tag k="addr:housenumber" v="21"/>
    <tag k="addr:region" v="Москва"/>
    <tag k="addr:street" v="Заречная улица"/>
    <tag k="building" v="yes"/>
    <tag k="building:levels" v="1"/>
    <tag k="building:use" v="residential"/>
  </way>
  <way id="95506937" version="1" timestamp="2011-01-17T11:38:45Z" uid="115477" user="wowik" changeset="6998441">
    <nd ref="1107473387"/>
    <nd ref="1107473530"/>
    <nd ref="1107473634"/>
    <nd ref="1107473718"/>
    <nd ref="1107473387"/>
    <tag k="addr:city" v="Зеленоград"/>
    <tag k="addr:housenumber" v="14"/>
    <tag k="addr:street" v="Заречная улица"/>
    <tag k="building" v="yes"/>
    <tag k="building:levels" v="1"/>
    <tag k="building:use" v="residential"/>
    <tag k="is_in" v="Russia"/>
  </way>
  <way id="95506937" version="2" timestamp="2011-09-13T10:22:19Z" uid="29320" user="Komяpa" changeset="9288237">
    <nd ref="1107473387"/>
    <nd ref="1107473530"/>
    <nd ref="1107473634"/>
    <nd ref="1107473718"/>
    <nd ref="1107473387"/>
    <tag k="addr:city" v="Зеленоград"/>
    <tag k="addr:country" v="RU"/>
    <tag k="addr:housenumber" v="14"/>
    <tag k="addr:street" v="Заречная улица"/>
    <tag k="building" v="yes"/>
    <tag k="building:levels" v="1"/>
    <tag k="building:use" v="residential"/>
  </way>
  <way id="95506937" version="3" timestamp="2012-03-27T11:35:12Z" uid="481934" user="iWowik" changeset="11115472">
    <nd ref="1107473387"/>
    <nd ref="1107473530"/>
    <nd ref="1107473634"/>
    <nd ref="1107473718"/>
    <nd ref="1107473387"/>
    <tag k="addr:city" v="Зеленоград"/>
    <tag k="addr:country" v="RU"/>
    <tag k="addr:housenumber" v="14"/>
    <tag k="addr:region" v="Москва"/>
    <tag k="addr:street" v="Заречная улица"/>
    <tag k="building" v="yes"/>
    <tag k="building:levels" v="1"/>
    <tag k="building:use" v="residential"/>
  </way>
  <way id="95506938" version="1" timestamp="2011-01-17T11:38:45Z" uid="115477" user="wowik" changeset="6998441">
    <nd ref="1107473745"/>
    <nd ref="1107473338"/>
    <nd ref="1107473456"/>
    <nd ref="1107473702"/>
    <nd ref="1107473745"/>
    <tag k="addr:city" v="Зеленоград"/>
    <tag k="addr:housenumber" v="4"/>
    <tag k="addr:street" v="Заречная улица"/>
    <tag k="building" v="yes"/>
    <tag k="building:levels" v="1"/>
    <tag k="building:use" v="residential"/>
    <tag k="is_in" v="Russia"/>
  </way>
  <way id="95506938" version="2" timestamp="2011-09-13T10:26:24Z" uid="29320" user="Komяpa" changeset="9288237">
    <nd ref="1107473745"/>
    <nd ref="1107473338"/>
    <nd ref="1107473456"/>
    <nd ref="1107473702"/>
    <nd ref="1107473745"/>
    <tag k="addr:city" v="Зеленоград"/>
    <tag k="addr:country" v="RU"/>
    <tag k="addr:housenumber" v="4"/>
    <tag k="addr:street" v="Заречная улица"/>
    <tag k="building" v="yes"/>
    <tag k="building:levels" v="1"/>
    <tag k="building:use" v="residential"/>
  </way>
  <way id="95506938" version="3" timestamp="2012-03-27T11:42:32Z" uid="481934" user="iWowik" changeset="11115472">
    <nd ref="1107473745"/>
    <nd ref="1107473338"/>
    <nd ref="1107473456"/>
    <nd ref="1107473702"/>
    <nd ref="1107473745"/>
    <tag k="addr:city" v="Зеленоград"/>
    <tag k="addr:country" v="RU"/>
    <tag k="addr:housenumber" v="4"/>
    <tag k="addr:region" v="Москва"/>
    <tag k="addr:street" v="Заречная улица"/>
    <tag k="building" v="yes"/>
    <tag k="building:levels" v="1"/>
    <tag k="building:use" v="residential"/>
  </way>
  <way id="95506940" version="1" timestamp="2011-01-17T11:38:46Z" uid="115477" user="wowik" changeset="6998441">
    <nd ref="1107473788"/>
    <nd ref="1107473467"/>
    <nd ref="1107473605"/>
    <nd ref="1107473675"/>
    <nd ref="1107473788"/>
    <tag k="addr:city" v="Зеленоград"/>
    <tag k="addr:housenumber" v="28"/>
    <tag k="addr:street" v="Заречная улица"/>
    <tag k="building" v="yes"/>
    <tag k="building:levels" v="1"/>
    <tag k="building:use" v="residential"/>
    <tag k="is_in" v="Russia"/>
  </way>
  <way id="95506940" version="2" timestamp="2011-09-13T10:25:09Z" uid="29320" user="Komяpa" changeset="9288237">
    <nd ref="1107473788"/>
    <nd ref="1107473467"/>
    <nd ref="1107473605"/>
    <nd ref="1107473675"/>
    <nd ref="1107473788"/>
    <tag k="addr:city" v="Зеленоград"/>
    <tag k="addr:country" v="RU"/>
    <tag k="addr:housenumber" v="28"/>
    <tag k="addr:street" v="Заречная улица"/>
    <tag k="building" v="yes"/>
    <tag k="building:levels" v="1"/>
    <tag k="building:use" v="residential"/>
  </way>
  <way id="95506940" version="3" timestamp="2012-03-27T11:40:25Z" uid="481934" user="iWowik" changeset="11115472">
    <nd ref="1107473788"/>
    <nd ref="1107473467"/>
    <nd ref="1107473605"/>
    <nd ref="1107473675"/>
    <nd ref="1107473788"/>
    <tag k="addr:city" v="Зеленоград"/>
    <tag k="addr:country" v="RU"/>
    <tag k="addr:housenumber" v="28"/>
    <tag k="addr:region" v="Москва"/>
    <tag k="addr:street" v="Заречная улица"/>
    <tag k="building" v="yes"/>
    <tag k="building:levels" v="1"/>
    <tag k="building:use" v="residential"/>
  </way>
  <way id="95506941" version="1" timestamp="2011-01-17T11:38:46Z" uid="115477" user="wowik" changeset="6998441">
    <nd ref="1107473527"/>
    <nd ref="1107473633"/>
    <nd ref="1107473713"/>
    <nd ref="1107473499"/>
    <nd ref="1107473777"/>
    <nd ref="1107473801"/>
    <nd ref="1107473527"/>
    <tag k="addr:city" v="Зеленоград"/>
    <tag k="addr:housenumber" v="23"/>
    <tag k="addr:street" v="Заречная улица"/>
    <tag k="building" v="yes"/>
    <tag k="building:levels" v="1"/>
    <tag k="building:use" v="residential"/>
    <tag k="is_in" v="Russia"/>
  </way>
  <way id="95506941" version="2" timestamp="2011-09-13T10:24:51Z" uid="29320" user="Komяpa" changeset="9288237">
    <nd ref="1107473527"/>
    <nd ref="1107473633"/>
    <nd ref="1107473713"/>
    <nd ref="1107473499"/>
    <nd ref="1107473777"/>
    <nd ref="1107473801"/>
    <nd ref="1107473527"/>
    <tag k="addr:city" v="Зеленоград"/>
    <tag k="addr:country" v="RU"/>
    <tag k="addr:housenumber" v="23"/>
    <tag k="addr:street" v="Заречная улица"/>
    <tag k="building" v="yes"/>
    <tag k="building:levels" v="1"/>
    <tag k="building:use" v="residential"/>
  </way>
  <way id="95506941" version="3" timestamp="2012-03-27T11:39:52Z" uid="481934" user="iWowik" changeset="11115472">
    <nd ref="1107473527"/>
    <nd ref="1107473633"/>
    <nd ref="1107473713"/>
    <nd ref="1107473499"/>
    <nd ref="1107473777"/>
    <nd ref="1107473801"/>
    <nd ref="1107473527"/>
    <tag k="addr:city" v="Зеленоград"/>
    <tag k="addr:country" v="RU"/>
    <tag k="addr:housenumber" v="23"/>
    <tag k="addr:region" v="Москва"/>
    <tag k="addr:street" v="Заречная улица"/>
    <tag k="building" v="yes"/>
    <tag k="building:levels" v="1"/>
    <tag k="building:use" v="residential"/>
  </way>
  <way id="95506942" version="1" timestamp="2011-01-17T11:38:46Z" uid="115477" user="wowik" changeset="6998441">
    <nd ref="1107473774"/>
    <nd ref="1107473564"/>
    <nd ref="1107473659"/>
    <nd ref="1107473742"/>
    <nd ref="1107473774"/>
    <tag k="addr:city" v="Зеленоград"/>
    <tag k="addr:housenumber" v="7А"/>
    <tag k="addr:street" v="Заречная улица"/>
    <tag k="building" v="yes"/>
    <tag k="building:levels" v="1"/>
    <tag k="building:use" v="residential"/>
    <tag k="is_in" v="Russia"/>
  </way>
  <way id="95506942" version="2" timestamp="2011-09-13T10:28:26Z" uid="29320" user="Komяpa" changeset="9288237">
    <nd ref="1107473774"/>
    <nd ref="1107473564"/>
    <nd ref="1107473659"/>
    <nd ref="1107473742"/>
    <nd ref="1107473774"/>
    <tag k="addr:city" v="Зеленоград"/>
    <tag k="addr:country" v="RU"/>
    <tag k="addr:housenumber" v="7А"/>
    <tag k="addr:street" v="Заречная улица"/>
    <tag k="building" v="yes"/>
    <tag k="building:levels" v="1"/>
    <tag k="building:use" v="residential"/>
  </way>
  <way id="95506942" version="3" timestamp="2012-03-27T11:46:07Z" uid="481934" user="iWowik" changeset="11115472">
    <nd ref="1107473774"/>
    <nd ref="1107473564"/>
    <nd ref="1107473659"/>
    <nd ref="1107473742"/>
    <nd ref="1107473774"/>
    <tag k="addr:city" v="Зеленоград"/>
    <tag k="addr:country" v="RU"/>
    <tag k="addr:housenumber" v="7А"/>
    <tag k="addr:region" v="Москва"/>
    <tag k="addr:street" v="Заречная улица"/>
    <tag k="building" v="yes"/>
    <tag k="building:levels" v="1"/>
    <tag k="building:use" v="residential"/>
  </way>
  <way id="95506944" version="1" timestamp="2011-01-17T11:38:47Z" uid="115477" user="wowik" changeset="6998441">
    <nd ref="1107473701"/>
    <nd ref="1107473799"/>
    <nd ref="1107473412"/>
    <nd ref="1107473567"/>
    <nd ref="1107473701"/>
    <tag k="addr:city" v="Зеленоград"/>
    <tag k="addr:housenumber" v="17"/>
    <tag k="addr:street" v="Заречная улица"/>
    <tag k="building" v="yes"/>
    <tag k="building:levels" v="1"/>
    <tag k="building:use" v="residential"/>
    <tag k="is_in" v="Russia"/>
  </way>
  <way id="95506944" version="2" timestamp="2011-09-13T10:23:38Z" uid="29320" user="Komяpa" changeset="9288237">
    <nd ref="1107473701"/>
    <nd ref="1107473799"/>
    <nd ref="1107473412"/>
    <nd ref="1107473567"/>
    <nd ref="1107473701"/>
    <tag k="addr:city" v="Зеленоград"/>
    <tag k="addr:country" v="RU"/>
    <tag k="addr:housenumber" v="17"/>
    <tag k="addr:street" v="Заречная улица"/>
    <tag k="building" v="yes"/>
    <tag k="building:levels" v="1"/>
    <tag k="building:use" v="residential"/>
  </way>
  <way id="95506944" version="3" timestamp="2012-03-27T11:37:48Z" uid="481934" user="iWowik" changeset="11115472">
    <nd ref="1107473701"/>
    <nd ref="1107473799"/>
    <nd ref="1107473412"/>
    <nd ref="1107473567"/>
    <nd ref="1107473701"/>
    <tag k="addr:city" v="Зеленоград"/>
    <tag k="addr:country" v="RU"/>
    <tag k="addr:housenumber" v="17"/>
    <tag k="addr:region" v="Москва"/>
    <tag k="addr:street" v="Заречная улица"/>
    <tag k="building" v="yes"/>
    <tag k="building:levels" v="1"/>
    <tag k="building:use" v="residential"/>
  </way>
  <way id="95506945" version="1" timestamp="2011-01-17T11:38:47Z" uid="115477" user="wowik" changeset="6998441">
    <nd ref="1107473693"/>
    <nd ref="1107473796"/>
    <nd ref="1107473406"/>
    <nd ref="1107473558"/>
    <nd ref="1107473693"/>
    <tag k="addr:city" v="Зеленоград"/>
    <tag k="building" v="yes"/>
    <tag k="building:levels" v="1"/>
  </way>
  <way id="95506945" version="2" timestamp="2012-03-27T08:12:21Z" uid="481934" user="iWowik" changeset="11113698">
    <nd ref="1107473693"/>
    <nd ref="1107473796"/>
    <nd ref="1107473406"/>
    <nd ref="1107473558"/>
    <nd ref="1107473693"/>
    <tag k="addr:city" v="Зеленоград"/>
    <tag k="addr:country" v="RU"/>
    <tag k="building" v="yes"/>
    <tag k="building:levels" v="1"/>
  </way>
  <way id="95506945" version="3" timestamp="2012-03-27T11:50:47Z" uid="481934" user="iWowik" changeset="11115472">
    <nd ref="1107473693"/>
    <nd ref="1107473796"/>
    <nd ref="1107473406"/>
    <nd ref="1107473558"/>
    <nd ref="1107473693"/>
    <tag k="addr:city" v="Зеленоград"/>
    <tag k="addr:country" v="RU"/>
    <tag k="addr:region" v="Москва"/>
    <tag k="building" v="yes"/>
    <tag k="building:levels" v="1"/>
  </way>
  <way id="95506947" version="1" timestamp="2011-01-17T11:38:47Z" uid="115477" user="wowik" changeset="6998441">
    <nd ref="1107473738"/>
    <nd ref="1107473314"/>
    <nd ref="1107473623"/>
    <nd ref="1107473724"/>
    <nd ref="1107473555"/>
    <nd ref="1107473435"/>
    <nd ref="1107473606"/>
    <nd ref="1107473352"/>
    <nd ref="1107473794"/>
    <nd ref="1107473644"/>
    <nd ref="1107473738"/>
    <tag k="addr:city" v="Зеленоград"/>
    <tag k="addr:housenumber" v="16"/>
    <tag k="addr:street" v="Заречная улица"/>
    <tag k="building" v="yes"/>
    <tag k="building:levels" v="1"/>
    <tag k="building:use" v="residential"/>
    <tag k="is_in" v="Russia"/>
  </way>
  <way id="95506947" version="2" timestamp="2011-09-13T10:23:10Z" uid="29320" user="Komяpa" changeset="9288237">
    <nd ref="1107473738"/>
    <nd ref="1107473314"/>
    <nd ref="1107473623"/>
    <nd ref="1107473724"/>
    <nd ref="1107473555"/>
    <nd ref="1107473435"/>
    <nd ref="1107473606"/>
    <nd ref="1107473352"/>
    <nd ref="1107473794"/>
    <nd ref="1107473644"/>
    <nd ref="1107473738"/>
    <tag k="addr:city" v="Зеленоград"/>
    <tag k="addr:country" v="RU"/>
    <tag k="addr:housenumber" v="16"/>
    <tag k="addr:street" v="Заречная улица"/>
    <tag k="building" v="yes"/>
    <tag k="building:levels" v="1"/>
    <tag k="building:use" v="residential"/>
  </way>
  <way id="95506947" version="3" timestamp="2012-03-27T11:36:50Z" uid="481934" user="iWowik" changeset="11115472">
    <nd ref="1107473738"/>
    <nd ref="1107473314"/>
    <nd ref="1107473623"/>
    <nd ref="1107473724"/>
    <nd ref="1107473555"/>
    <nd ref="1107473435"/>
    <nd ref="1107473606"/>
    <nd ref="1107473352"/>
    <nd ref="1107473794"/>
    <nd ref="1107473644"/>
    <nd ref="1107473738"/>
    <tag k="addr:city" v="Зеленоград"/>
    <tag k="addr:country" v="RU"/>
    <tag k="addr:housenumber" v="16"/>
    <tag k="addr:region" v="Москва"/>
    <tag k="addr:street" v="Заречная улица"/>
    <tag k="building" v="yes"/>
    <tag k="building:levels" v="1"/>
    <tag k="building:use" v="residential"/>
  </way>
  <way id="95506948" version="1" timestamp="2011-01-17T11:38:47Z" uid="115477" user="wowik" changeset="6998441">
    <nd ref="1107473798"/>
    <nd ref="1107473384"/>
    <nd ref="1107473439"/>
    <nd ref="1107473409"/>
    <nd ref="1107473677"/>
    <nd ref="1107473784"/>
    <nd ref="1107473798"/>
    <tag k="addr:city" v="Зеленоград"/>
    <tag k="addr:housenumber" v="14"/>
    <tag k="addr:street" v="Заречная улица"/>
    <tag k="building" v="yes"/>
    <tag k="building:levels" v="1"/>
    <tag k="building:use" v="residential"/>
    <tag k="is_in" v="Russia"/>
  </way>
  <way id="95506948" version="2" timestamp="2011-01-25T15:13:07Z" uid="115477" user="wowik" changeset="7084515">
    <nd ref="1107473798"/>
    <nd ref="1107473384"/>
    <nd ref="1107473439"/>
    <nd ref="1107473409"/>
    <nd ref="1107473677"/>
    <nd ref="1107473784"/>
    <nd ref="1107473798"/>
    <tag k="addr:city" v="Зеленоград"/>
    <tag k="addr:housenumber" v="2"/>
    <tag k="addr:street" v="Заречная улица"/>
    <tag k="building" v="yes"/>
    <tag k="building:levels" v="1"/>
    <tag k="building:use" v="residential"/>
    <tag k="is_in" v="Russia"/>
  </way>
  <way id="95506948" version="3" timestamp="2011-09-13T10:24:01Z" uid="29320" user="Komяpa" changeset="9288237">
    <nd ref="1107473798"/>
    <nd ref="1107473384"/>
    <nd ref="1107473439"/>
    <nd ref="1107473409"/>
    <nd ref="1107473677"/>
    <nd ref="1107473784"/>
    <nd ref="1107473798"/>
    <tag k="addr:city" v="Зеленоград"/>
    <tag k="addr:country" v="RU"/>
    <tag k="addr:housenumber" v="2"/>
    <tag k="addr:street" v="Заречная улица"/>
    <tag k="building" v="yes"/>
    <tag k="building:levels" v="1"/>
    <tag k="building:use" v="residential"/>
  </way>
  <way id="95506948" version="4" timestamp="2012-03-27T11:38:29Z" uid="481934" user="iWowik" changeset="11115472">
    <nd ref="1107473798"/>
    <nd ref="1107473384"/>
    <nd ref="1107473439"/>
    <nd ref="1107473409"/>
    <nd ref="1107473677"/>
    <nd ref="1107473784"/>
    <nd ref="1107473798"/>
    <tag k="addr:city" v="Зеленоград"/>
    <tag k="addr:country" v="RU"/>
    <tag k="addr:housenumber" v="2"/>
    <tag k="addr:region" v="Москва"/>
    <tag k="addr:street" v="Заречная улица"/>
    <tag k="building" v="yes"/>
    <tag k="building:levels" v="1"/>
    <tag k="building:use" v="residential"/>
  </way>
  <way id="95506949" version="1" timestamp="2011-01-17T11:38:48Z" uid="115477" user="wowik" changeset="6998441">
    <nd ref="1107473767"/>
    <nd ref="1107473363"/>
    <nd ref="1107473803"/>
    <nd ref="1107473426"/>
    <nd ref="1107473767"/>
    <tag k="addr:city" v="Зеленоград"/>
    <tag k="addr:housenumber" v="13"/>
    <tag k="addr:street" v="Заречная улица"/>
    <tag k="building" v="yes"/>
    <tag k="building:levels" v="1"/>
    <tag k="building:use" v="residential"/>
    <tag k="is_in" v="Russia"/>
  </way>
  <way id="95506949" version="2" timestamp="2011-09-13T10:22:13Z" uid="29320" user="Komяpa" changeset="9288237">
    <nd ref="1107473767"/>
    <nd ref="1107473363"/>
    <nd ref="1107473803"/>
    <nd ref="1107473426"/>
    <nd ref="1107473767"/>
    <tag k="addr:city" v="Зеленоград"/>
    <tag k="addr:country" v="RU"/>
    <tag k="addr:housenumber" v="13"/>
    <tag k="addr:street" v="Заречная улица"/>
    <tag k="building" v="yes"/>
    <tag k="building:levels" v="1"/>
    <tag k="building:use" v="residential"/>
  </way>
  <way id="95506949" version="3" timestamp="2012-03-27T11:35:06Z" uid="481934" user="iWowik" changeset="11115472">
    <nd ref="1107473767"/>
    <nd ref="1107473363"/>
    <nd ref="1107473803"/>
    <nd ref="1107473426"/>
    <nd ref="1107473767"/>
    <tag k="addr:city" v="Зеленоград"/>
    <tag k="addr:country" v="RU"/>
    <tag k="addr:housenumber" v="13"/>
    <tag k="addr:region" v="Москва"/>
    <tag k="addr:street" v="Заречная улица"/>
    <tag k="building" v="yes"/>
    <tag k="building:levels" v="1"/>
    <tag k="building:use" v="residential"/>
  </way>
  <way id="95506950" version="1" timestamp="2011-01-17T11:38:48Z" uid="115477" user="wowik" changeset="6998441">
    <nd ref="1107473751"/>
    <nd ref="1107473348"/>
    <nd ref="1107473640"/>
    <nd ref="1107473720"/>
    <nd ref="1107473751"/>
    <tag k="addr:city" v="Зеленоград"/>
    <tag k="building" v="yes"/>
    <tag k="building:levels" v="1"/>
  </way>
  <way id="95506950" version="2" timestamp="2012-03-27T08:13:28Z" uid="481934" user="iWowik" changeset="11113698">
    <nd ref="1107473751"/>
    <nd ref="1107473348"/>
    <nd ref="1107473640"/>
    <nd ref="1107473720"/>
    <nd ref="1107473751"/>
    <tag k="addr:city" v="Зеленоград"/>
    <tag k="addr:country" v="RU"/>
    <tag k="building" v="yes"/>
    <tag k="building:levels" v="1"/>
  </way>
  <way id="95506950" version="3" timestamp="2012-03-27T11:51:56Z" uid="481934" user="iWowik" changeset="11115472">
    <nd ref="1107473751"/>
    <nd ref="1107473348"/>
    <nd ref="1107473640"/>
    <nd ref="1107473720"/>
    <nd ref="1107473751"/>
    <tag k="addr:city" v="Зеленоград"/>
    <tag k="addr:country" v="RU"/>
    <tag k="addr:region" v="Москва"/>
    <tag k="building" v="yes"/>
    <tag k="building:levels" v="1"/>
  </way>
  <way id="95506951" version="1" timestamp="2011-01-17T11:38:48Z" uid="115477" user="wowik" changeset="6998441">
    <nd ref="1107473683"/>
    <nd ref="1107473792"/>
    <nd ref="1107473399"/>
    <nd ref="1107473553"/>
    <nd ref="1107473683"/>
    <tag k="addr:city" v="Зеленоград"/>
    <tag k="building" v="yes"/>
    <tag k="building:levels" v="1"/>
  </way>
  <way id="95506951" version="2" timestamp="2012-03-27T08:13:00Z" uid="481934" user="iWowik" changeset="11113698">
    <nd ref="1107473683"/>
    <nd ref="1107473792"/>
    <nd ref="1107473399"/>
    <nd ref="1107473553"/>
    <nd ref="1107473683"/>
    <tag k="addr:city" v="Зеленоград"/>
    <tag k="addr:country" v="RU"/>
    <tag k="building" v="yes"/>
    <tag k="building:levels" v="1"/>
  </way>
  <way id="95506951" version="3" timestamp="2012-03-27T11:53:33Z" uid="481934" user="iWowik" changeset="11115472">
    <nd ref="1107473683"/>
    <nd ref="1107473792"/>
    <nd ref="1107473399"/>
    <nd ref="1107473553"/>
    <nd ref="1107473683"/>
    <tag k="addr:city" v="Зеленоград"/>
    <tag k="addr:country" v="RU"/>
    <tag k="addr:region" v="Москва"/>
    <tag k="building" v="yes"/>
    <tag k="building:levels" v="1"/>
  </way>
  <way id="95506952" version="1" timestamp="2011-01-17T11:38:48Z" uid="115477" user="wowik" changeset="6998441">
    <nd ref="1107473765"/>
    <nd ref="1107473715"/>
    <nd ref="1107473802"/>
    <nd ref="1107473423"/>
    <nd ref="1107473765"/>
    <tag k="addr:city" v="Зеленоград"/>
    <tag k="addr:housenumber" v="10"/>
    <tag k="addr:street" v="Заречная улица"/>
    <tag k="building" v="yes"/>
    <tag k="building:levels" v="1"/>
    <tag k="building:use" v="residential"/>
    <tag k="is_in" v="Russia"/>
  </way>
  <way id="95506952" version="2" timestamp="2011-09-13T10:20:54Z" uid="29320" user="Komяpa" changeset="9288237">
    <nd ref="1107473765"/>
    <nd ref="1107473715"/>
    <nd ref="1107473802"/>
    <nd ref="1107473423"/>
    <nd ref="1107473765"/>
    <tag k="addr:city" v="Зеленоград"/>
    <tag k="addr:country" v="RU"/>
    <tag k="addr:housenumber" v="10"/>
    <tag k="addr:street" v="Заречная улица"/>
    <tag k="building" v="yes"/>
    <tag k="building:levels" v="1"/>
    <tag k="building:use" v="residential"/>
  </way>
  <way id="95506952" version="3" timestamp="2012-03-27T11:33:26Z" uid="481934" user="iWowik" changeset="11115472">
    <nd ref="1107473765"/>
    <nd ref="1107473715"/>
    <nd ref="1107473802"/>
    <nd ref="1107473423"/>
    <nd ref="1107473765"/>
    <tag k="addr:city" v="Зеленоград"/>
    <tag k="addr:country" v="RU"/>
    <tag k="addr:housenumber" v="10"/>
    <tag k="addr:region" v="Москва"/>
    <tag k="addr:street" v="Заречная улица"/>
    <tag k="building" v="yes"/>
    <tag k="building:levels" v="1"/>
    <tag k="building:use" v="residential"/>
  </way>
  <way id="95506953" version="1" timestamp="2011-01-17T11:38:48Z" uid="115477" user="wowik" changeset="6998441">
    <nd ref="1107473604"/>
    <nd ref="1107473747"/>
    <nd ref="1107473340"/>
    <nd ref="1107473459"/>
    <nd ref="1107473604"/>
    <tag k="addr:city" v="Зеленоград"/>
    <tag k="addr:housenumber" v="15"/>
    <tag k="addr:street" v="Заречная улица"/>
    <tag k="building" v="yes"/>
    <tag k="building:levels" v="1"/>
    <tag k="building:use" v="residential"/>
    <tag k="is_in" v="Russia"/>
  </way>
  <way id="95506953" version="2" timestamp="2011-09-13T10:22:34Z" uid="29320" user="Komяpa" changeset="9288237">
    <nd ref="1107473604"/>
    <nd ref="1107473747"/>
    <nd ref="1107473340"/>
    <nd ref="1107473459"/>
    <nd ref="1107473604"/>
    <tag k="addr:city" v="Зеленоград"/>
    <tag k="addr:country" v="RU"/>
    <tag k="addr:housenumber" v="15"/>
    <tag k="addr:street" v="Заречная улица"/>
    <tag k="building" v="yes"/>
    <tag k="building:levels" v="1"/>
    <tag k="building:use" v="residential"/>
  </way>
  <way id="95506953" version="3" timestamp="2012-03-27T11:35:54Z" uid="481934" user="iWowik" changeset="11115472">
    <nd ref="1107473604"/>
    <nd ref="1107473747"/>
    <nd ref="1107473340"/>
    <nd ref="1107473459"/>
    <nd ref="1107473604"/>
    <tag k="addr:city" v="Зеленоград"/>
    <tag k="addr:country" v="RU"/>
    <tag k="addr:housenumber" v="15"/>
    <tag k="addr:region" v="Москва"/>
    <tag k="addr:street" v="Заречная улица"/>
    <tag k="building" v="yes"/>
    <tag k="building:levels" v="1"/>
    <tag k="building:use" v="residential"/>
  </way>
  <way id="95506954" version="1" timestamp="2011-01-17T11:38:49Z" uid="115477" user="wowik" changeset="6998441">
    <nd ref="1107473699"/>
    <nd ref="1107473493"/>
    <nd ref="1107473333"/>
    <nd ref="1107473667"/>
    <nd ref="1107473771"/>
    <nd ref="1107473365"/>
    <nd ref="1107473593"/>
    <nd ref="1107473636"/>
    <nd ref="1107473699"/>
    <tag k="addr:city" v="Зеленоград"/>
    <tag k="building" v="yes"/>
    <tag k="building:levels" v="1"/>
  </way>
  <way id="95506954" version="2" timestamp="2012-03-27T08:14:36Z" uid="481934" user="iWowik" changeset="11113698">
    <nd ref="1107473699"/>
    <nd ref="1107473493"/>
    <nd ref="1107473333"/>
    <nd ref="1107473667"/>
    <nd ref="1107473771"/>
    <nd ref="1107473365"/>
    <nd ref="1107473593"/>
    <nd ref="1107473636"/>
    <nd ref="1107473699"/>
    <tag k="addr:city" v="Зеленоград"/>
    <tag k="addr:country" v="RU"/>
    <tag k="building" v="yes"/>
    <tag k="building:levels" v="1"/>
  </way>
  <way id="95506954" version="3" timestamp="2012-03-27T11:55:52Z" uid="481934" user="iWowik" changeset="11115472">
    <nd ref="1107473699"/>
    <nd ref="1107473493"/>
    <nd ref="1107473333"/>
    <nd ref="1107473667"/>
    <nd ref="1107473771"/>
    <nd ref="1107473365"/>
    <nd ref="1107473593"/>
    <nd ref="1107473636"/>
    <nd ref="1107473699"/>
    <tag k="addr:city" v="Зеленоград"/>
    <tag k="addr:country" v="RU"/>
    <tag k="addr:region" v="Москва"/>
    <tag k="building" v="yes"/>
    <tag k="building:levels" v="1"/>
  </way>
  <way id="95506955" version="1" timestamp="2011-01-17T11:38:49Z" uid="115477" user="wowik" changeset="6998441">
    <nd ref="1107473560"/>
    <nd ref="1107473653"/>
    <nd ref="1107473344"/>
    <nd ref="1107473463"/>
    <nd ref="1107473560"/>
    <tag k="addr:city" v="Зеленоград"/>
    <tag k="building" v="yes"/>
    <tag k="building:levels" v="1"/>
  </way>
  <way id="95506955" version="2" timestamp="2012-03-27T08:12:38Z" uid="481934" user="iWowik" changeset="11113698">
    <nd ref="1107473560"/>
    <nd ref="1107473653"/>
    <nd ref="1107473344"/>
    <nd ref="1107473463"/>
    <nd ref="1107473560"/>
    <tag k="addr:city" v="Зеленоград"/>
    <tag k="addr:country" v="RU"/>
    <tag k="building" v="yes"/>
    <tag k="building:levels" v="1"/>
  </way>
  <way id="95506955" version="3" timestamp="2012-03-27T11:51:00Z" uid="481934" user="iWowik" changeset="11115472">
    <nd ref="1107473560"/>
    <nd ref="1107473653"/>
    <nd ref="1107473344"/>
    <nd ref="1107473463"/>
    <nd ref="1107473560"/>
    <tag k="addr:city" v="Зеленоград"/>
    <tag k="addr:country" v="RU"/>
    <tag k="addr:region" v="Москва"/>
    <tag k="building" v="yes"/>
    <tag k="building:levels" v="1"/>
  </way>
  <way id="95506957" version="1" timestamp="2011-01-17T11:38:49Z" uid="115477" user="wowik" changeset="6998441">
    <nd ref="1107473491"/>
    <nd ref="1107473611"/>
    <nd ref="1107473679"/>
    <nd ref="1107473791"/>
    <nd ref="1107473491"/>
    <tag k="addr:city" v="Зеленоград"/>
    <tag k="addr:housenumber" v="12А"/>
    <tag k="addr:street" v="Заречная улица"/>
    <tag k="building" v="yes"/>
    <tag k="building:levels" v="1"/>
    <tag k="building:use" v="residential"/>
    <tag k="is_in" v="Russia"/>
  </way>
  <way id="95506957" version="2" timestamp="2011-09-13T10:22:10Z" uid="29320" user="Komяpa" changeset="9288237">
    <nd ref="1107473491"/>
    <nd ref="1107473611"/>
    <nd ref="1107473679"/>
    <nd ref="1107473791"/>
    <nd ref="1107473491"/>
    <tag k="addr:city" v="Зеленоград"/>
    <tag k="addr:country" v="RU"/>
    <tag k="addr:housenumber" v="12А"/>
    <tag k="addr:street" v="Заречная улица"/>
    <tag k="building" v="yes"/>
    <tag k="building:levels" v="1"/>
    <tag k="building:use" v="residential"/>
  </way>
  <way id="95506957" version="3" timestamp="2012-03-27T11:35:05Z" uid="481934" user="iWowik" changeset="11115472">
    <nd ref="1107473491"/>
    <nd ref="1107473611"/>
    <nd ref="1107473679"/>
    <nd ref="1107473791"/>
    <nd ref="1107473491"/>
    <tag k="addr:city" v="Зеленоград"/>
    <tag k="addr:country" v="RU"/>
    <tag k="addr:housenumber" v="12А"/>
    <tag k="addr:region" v="Москва"/>
    <tag k="addr:street" v="Заречная улица"/>
    <tag k="building" v="yes"/>
    <tag k="building:levels" v="1"/>
    <tag k="building:use" v="residential"/>
  </way>
  <way id="95506958" version="1" timestamp="2011-01-17T11:38:49Z" uid="115477" user="wowik" changeset="6998441">
    <nd ref="1107473673"/>
    <nd ref="1107473429"/>
    <nd ref="1107473582"/>
    <nd ref="1107473664"/>
    <nd ref="1107473673"/>
    <tag k="addr:city" v="Зеленоград"/>
    <tag k="building" v="yes"/>
    <tag k="building:levels" v="1"/>
  </way>
  <way id="95506958" version="2" timestamp="2012-03-27T08:12:45Z" uid="481934" user="iWowik" changeset="11113698">
    <nd ref="1107473673"/>
    <nd ref="1107473429"/>
    <nd ref="1107473582"/>
    <nd ref="1107473664"/>
    <nd ref="1107473673"/>
    <tag k="addr:city" v="Зеленоград"/>
    <tag k="addr:country" v="RU"/>
    <tag k="building" v="yes"/>
    <tag k="building:levels" v="1"/>
  </way>
  <way id="95506958" version="3" timestamp="2012-03-27T11:51:07Z" uid="481934" user="iWowik" changeset="11115472">
    <nd ref="1107473673"/>
    <nd ref="1107473429"/>
    <nd ref="1107473582"/>
    <nd ref="1107473664"/>
    <nd ref="1107473673"/>
    <tag k="addr:city" v="Зеленоград"/>
    <tag k="addr:country" v="RU"/>
    <tag k="addr:region" v="Москва"/>
    <tag k="building" v="yes"/>
    <tag k="building:levels" v="1"/>
  </way>
  <way id="95506959" version="1" timestamp="2011-01-17T11:38:50Z" uid="115477" user="wowik" changeset="6998441">
    <nd ref="1107473350"/>
    <nd ref="1107473391"/>
    <nd ref="1107473536"/>
    <nd ref="1107473618"/>
    <nd ref="1107473350"/>
    <tag k="addr:city" v="Зеленоград"/>
    <tag k="addr:housenumber" v="1с1"/>
    <tag k="addr:street" v="Проезд N 657"/>
    <tag k="building" v="yes"/>
    <tag k="is_in" v="Russia"/>
  </way>
  <way id="95506959" version="2" timestamp="2011-01-19T17:09:26Z" uid="70696" user="xybot" changeset="7021015">
    <nd ref="1107473350"/>
    <nd ref="1107473391"/>
    <nd ref="1107473536"/>
    <nd ref="1107473618"/>
    <nd ref="1107473350"/>
    <tag k="addr:city" v="Зеленоград"/>
    <tag k="addr:housenumber" v="1 с1"/>
    <tag k="addr:street" v="Проезд N 657"/>
    <tag k="building" v="yes"/>
    <tag k="is_in" v="Russia"/>
  </way>
  <way id="95506959" version="3" timestamp="2011-09-13T10:20:35Z" uid="29320" user="Komяpa" changeset="9288237">
    <nd ref="1107473350"/>
    <nd ref="1107473391"/>
    <nd ref="1107473536"/>
    <nd ref="1107473618"/>
    <nd ref="1107473350"/>
    <tag k="addr:city" v="Зеленоград"/>
    <tag k="addr:country" v="RU"/>
    <tag k="addr:housenumber" v="1 с1"/>
    <tag k="addr:street" v="Проезд N 657"/>
    <tag k="building" v="yes"/>
  </way>
  <way id="95506959" version="4" timestamp="2012-03-27T11:32:46Z" uid="481934" user="iWowik" changeset="11115472">
    <nd ref="1107473350"/>
    <nd ref="1107473391"/>
    <nd ref="1107473536"/>
    <nd ref="1107473618"/>
    <nd ref="1107473350"/>
    <tag k="addr:city" v="Зеленоград"/>
    <tag k="addr:country" v="RU"/>
    <tag k="addr:housenumber" v="1 с1"/>
    <tag k="addr:region" v="Москва"/>
    <tag k="addr:street" v="Проезд N 657"/>
    <tag k="building" v="yes"/>
  </way>
  <way id="95506960" version="1" timestamp="2011-01-17T11:38:50Z" uid="115477" user="wowik" changeset="6998441">
    <nd ref="1107473525"/>
    <nd ref="1107473629"/>
    <nd ref="1107473709"/>
    <nd ref="1107473489"/>
    <nd ref="1107473525"/>
    <tag k="addr:city" v="Зеленоград"/>
    <tag k="addr:housenumber" v="29"/>
    <tag k="addr:street" v="Заречная улица"/>
    <tag k="building" v="yes"/>
    <tag k="building:levels" v="1"/>
    <tag k="building:use" v="residential"/>
    <tag k="is_in" v="Russia"/>
  </way>
  <way id="95506960" version="2" timestamp="2011-09-13T10:25:11Z" uid="29320" user="Komяpa" changeset="9288237">
    <nd ref="1107473525"/>
    <nd ref="1107473629"/>
    <nd ref="1107473709"/>
    <nd ref="1107473489"/>
    <nd ref="1107473525"/>
    <tag k="addr:city" v="Зеленоград"/>
    <tag k="addr:country" v="RU"/>
    <tag k="addr:housenumber" v="29"/>
    <tag k="addr:street" v="Заречная улица"/>
    <tag k="building" v="yes"/>
    <tag k="building:levels" v="1"/>
    <tag k="building:use" v="residential"/>
  </way>
  <way id="95506960" version="3" timestamp="2012-03-27T11:40:30Z" uid="481934" user="iWowik" changeset="11115472">
    <nd ref="1107473525"/>
    <nd ref="1107473629"/>
    <nd ref="1107473709"/>
    <nd ref="1107473489"/>
    <nd ref="1107473525"/>
    <tag k="addr:city" v="Зеленоград"/>
    <tag k="addr:country" v="RU"/>
    <tag k="addr:housenumber" v="29"/>
    <tag k="addr:region" v="Москва"/>
    <tag k="addr:street" v="Заречная улица"/>
    <tag k="building" v="yes"/>
    <tag k="building:levels" v="1"/>
    <tag k="building:use" v="residential"/>
  </way>
  <way id="95506961" version="1" timestamp="2011-01-17T11:38:50Z" uid="115477" user="wowik" changeset="6998441">
    <nd ref="1107473524"/>
    <nd ref="1107473627"/>
    <nd ref="1107473601"/>
    <nd ref="1107473670"/>
    <nd ref="1107473524"/>
    <tag k="addr:city" v="Зеленоград"/>
    <tag k="addr:housenumber" v="18"/>
    <tag k="addr:street" v="Заречная улица"/>
    <tag k="building" v="yes"/>
    <tag k="building:levels" v="1"/>
    <tag k="building:use" v="residential"/>
    <tag k="is_in" v="Russia"/>
  </way>
  <way id="95506961" version="2" timestamp="2011-09-13T10:23:40Z" uid="29320" user="Komяpa" changeset="9288237">
    <nd ref="1107473524"/>
    <nd ref="1107473627"/>
    <nd ref="1107473601"/>
    <nd ref="1107473670"/>
    <nd ref="1107473524"/>
    <tag k="addr:city" v="Зеленоград"/>
    <tag k="addr:country" v="RU"/>
    <tag k="addr:housenumber" v="18"/>
    <tag k="addr:street" v="Заречная улица"/>
    <tag k="building" v="yes"/>
    <tag k="building:levels" v="1"/>
    <tag k="building:use" v="residential"/>
  </way>
  <way id="95506961" version="3" timestamp="2012-03-27T11:37:54Z" uid="481934" user="iWowik" changeset="11115472">
    <nd ref="1107473524"/>
    <nd ref="1107473627"/>
    <nd ref="1107473601"/>
    <nd ref="1107473670"/>
    <nd ref="1107473524"/>
    <tag k="addr:city" v="Зеленоград"/>
    <tag k="addr:country" v="RU"/>
    <tag k="addr:housenumber" v="18"/>
    <tag k="addr:region" v="Москва"/>
    <tag k="addr:street" v="Заречная улица"/>
    <tag k="building" v="yes"/>
    <tag k="building:levels" v="1"/>
    <tag k="building:use" v="residential"/>
  </way>
  <way id="95506962" version="1" timestamp="2011-01-17T11:38:50Z" uid="115477" user="wowik" changeset="6998441">
    <nd ref="1107473378"/>
    <nd ref="1107473741"/>
    <nd ref="751020141"/>
    <nd ref="1107473695"/>
    <nd ref="1107473625"/>
    <nd ref="1107473795"/>
    <nd ref="1107473378"/>
    <tag k="building" v="yes"/>
  </way>
  <way id="95506962" version="2" timestamp="2012-03-27T08:14:13Z" uid="481934" user="iWowik" changeset="11113698">
    <nd ref="1107473378"/>
    <nd ref="1107473741"/>
    <nd ref="751020141"/>
    <nd ref="1107473695"/>
    <nd ref="1107473625"/>
    <nd ref="1107473795"/>
    <nd ref="1107473378"/>
    <tag k="addr:city" v="Зеленоград"/>
    <tag k="addr:country" v="RU"/>
    <tag k="building" v="yes"/>
  </way>
  <way id="95506962" version="3" timestamp="2012-03-27T11:54:57Z" uid="481934" user="iWowik" changeset="11115472">
    <nd ref="1107473378"/>
    <nd ref="1107473741"/>
    <nd ref="751020141"/>
    <nd ref="1107473695"/>
    <nd ref="1107473625"/>
    <nd ref="1107473795"/>
    <nd ref="1107473378"/>
    <tag k="addr:city" v="Зеленоград"/>
    <tag k="addr:country" v="RU"/>
    <tag k="addr:region" v="Москва"/>
    <tag k="building" v="yes"/>
  </way>
  <way id="95506963" version="1" timestamp="2011-01-17T11:38:50Z" uid="115477" user="wowik" changeset="6998441">
    <nd ref="1107473432"/>
    <nd ref="1107473689"/>
    <nd ref="1107473793"/>
    <nd ref="1107473401"/>
    <nd ref="1107473432"/>
    <tag k="addr:city" v="Зеленоград"/>
    <tag k="building" v="yes"/>
    <tag k="building:levels" v="1"/>
  </way>
  <way id="95506963" version="2" timestamp="2012-03-27T08:12:26Z" uid="481934" user="iWowik" changeset="11113698">
    <nd ref="1107473432"/>
    <nd ref="1107473689"/>
    <nd ref="1107473793"/>
    <nd ref="1107473401"/>
    <nd ref="1107473432"/>
    <tag k="addr:city" v="Зеленоград"/>
    <tag k="addr:country" v="RU"/>
    <tag k="building" v="yes"/>
    <tag k="building:levels" v="1"/>
  </way>
  <way id="95506963" version="3" timestamp="2012-03-27T11:53:01Z" uid="481934" user="iWowik" changeset="11115472">
    <nd ref="1107473432"/>
    <nd ref="1107473689"/>
    <nd ref="1107473793"/>
    <nd ref="1107473401"/>
    <nd ref="1107473432"/>
    <tag k="addr:city" v="Зеленоград"/>
    <tag k="addr:country" v="RU"/>
    <tag k="addr:region" v="Москва"/>
    <tag k="building" v="yes"/>
    <tag k="building:levels" v="1"/>
  </way>
  <way id="95506964" version="1" timestamp="2011-01-17T11:38:50Z" uid="115477" user="wowik" changeset="6998441">
    <nd ref="1107473662"/>
    <nd ref="1107473790"/>
    <nd ref="1107473607"/>
    <nd ref="1107473744"/>
    <nd ref="1107473335"/>
    <nd ref="1107473452"/>
    <nd ref="1107473662"/>
    <tag k="addr:city" v="Зеленоград"/>
    <tag k="addr:housenumber" v="20"/>
    <tag k="addr:street" v="Заречная улица"/>
    <tag k="building" v="yes"/>
    <tag k="building:levels" v="1"/>
    <tag k="building:use" v="residential"/>
    <tag k="is_in" v="Russia"/>
  </way>
  <way id="95506964" version="2" timestamp="2011-09-13T10:24:19Z" uid="29320" user="Komяpa" changeset="9288237">
    <nd ref="1107473662"/>
    <nd ref="1107473790"/>
    <nd ref="1107473607"/>
    <nd ref="1107473744"/>
    <nd ref="1107473335"/>
    <nd ref="1107473452"/>
    <nd ref="1107473662"/>
    <tag k="addr:city" v="Зеленоград"/>
    <tag k="addr:country" v="RU"/>
    <tag k="addr:housenumber" v="20"/>
    <tag k="addr:street" v="Заречная улица"/>
    <tag k="building" v="yes"/>
    <tag k="building:levels" v="1"/>
    <tag k="building:use" v="residential"/>
  </way>
  <way id="95506964" version="3" timestamp="2012-03-27T11:39:02Z" uid="481934" user="iWowik" changeset="11115472">
    <nd ref="1107473662"/>
    <nd ref="1107473790"/>
    <nd ref="1107473607"/>
    <nd ref="1107473744"/>
    <nd ref="1107473335"/>
    <nd ref="1107473452"/>
    <nd ref="1107473662"/>
    <tag k="addr:city" v="Зеленоград"/>
    <tag k="addr:country" v="RU"/>
    <tag k="addr:housenumber" v="20"/>
    <tag k="addr:region" v="Москва"/>
    <tag k="addr:street" v="Заречная улица"/>
    <tag k="building" v="yes"/>
    <tag k="building:levels" v="1"/>
    <tag k="building:use" v="residential"/>
  </way>
  <way id="95506965" version="1" timestamp="2011-01-17T11:38:51Z" uid="115477" user="wowik" changeset="6998441">
    <nd ref="1107473561"/>
    <nd ref="1107473657"/>
    <nd ref="1107473381"/>
    <nd ref="1107473523"/>
    <nd ref="1107473561"/>
    <tag k="addr:city" v="Зеленоград"/>
    <tag k="building" v="yes"/>
    <tag k="building:levels" v="1"/>
  </way>
  <way id="95506965" version="2" timestamp="2012-03-27T08:13:24Z" uid="481934" user="iWowik" changeset="11113698">
    <nd ref="1107473561"/>
    <nd ref="1107473657"/>
    <nd ref="1107473381"/>
    <nd ref="1107473523"/>
    <nd ref="1107473561"/>
    <tag k="addr:city" v="Зеленоград"/>
    <tag k="addr:country" v="RU"/>
    <tag k="building" v="yes"/>
    <tag k="building:levels" v="1"/>
  </way>
  <way id="95506965" version="3" timestamp="2012-03-27T11:53:52Z" uid="481934" user="iWowik" changeset="11115472">
    <nd ref="1107473561"/>
    <nd ref="1107473657"/>
    <nd ref="1107473381"/>
    <nd ref="1107473523"/>
    <nd ref="1107473561"/>
    <tag k="addr:city" v="Зеленоград"/>
    <tag k="addr:country" v="RU"/>
    <tag k="addr:region" v="Москва"/>
    <tag k="building" v="yes"/>
    <tag k="building:levels" v="1"/>
  </way>
  <way id="95506966" version="1" timestamp="2011-01-17T11:38:51Z" uid="115477" user="wowik" changeset="6998441">
    <nd ref="1107473390"/>
    <nd ref="1107473533"/>
    <nd ref="1107473438"/>
    <nd ref="1107473609"/>
    <nd ref="1107473638"/>
    <nd ref="1107473617"/>
    <nd ref="1107473361"/>
    <nd ref="1107473373"/>
    <nd ref="1107473390"/>
    <tag k="addr:city" v="Зеленоград"/>
    <tag k="addr:housenumber" v="11"/>
    <tag k="addr:street" v="Заречная улица"/>
    <tag k="building" v="yes"/>
    <tag k="building:levels" v="1"/>
    <tag k="building:use" v="residential"/>
    <tag k="is_in" v="Russia"/>
  </way>
  <way id="95506966" version="2" timestamp="2011-09-13T10:21:18Z" uid="29320" user="Komяpa" changeset="9288237">
    <nd ref="1107473390"/>
    <nd ref="1107473533"/>
    <nd ref="1107473438"/>
    <nd ref="1107473609"/>
    <nd ref="1107473638"/>
    <nd ref="1107473617"/>
    <nd ref="1107473361"/>
    <nd ref="1107473373"/>
    <nd ref="1107473390"/>
    <tag k="addr:city" v="Зеленоград"/>
    <tag k="addr:country" v="RU"/>
    <tag k="addr:housenumber" v="11"/>
    <tag k="addr:street" v="Заречная улица"/>
    <tag k="building" v="yes"/>
    <tag k="building:levels" v="1"/>
    <tag k="building:use" v="residential"/>
  </way>
  <way id="95506966" version="3" timestamp="2012-03-27T11:33:53Z" uid="481934" user="iWowik" changeset="11115472">
    <nd ref="1107473390"/>
    <nd ref="1107473533"/>
    <nd ref="1107473438"/>
    <nd ref="1107473609"/>
    <nd ref="1107473638"/>
    <nd ref="1107473617"/>
    <nd ref="1107473361"/>
    <nd ref="1107473373"/>
    <nd ref="1107473390"/>
    <tag k="addr:city" v="Зеленоград"/>
    <tag k="addr:country" v="RU"/>
    <tag k="addr:housenumber" v="11"/>
    <tag k="addr:region" v="Москва"/>
    <tag k="addr:street" v="Заречная улица"/>
    <tag k="building" v="yes"/>
    <tag k="building:levels" v="1"/>
    <tag k="building:use" v="residential"/>
  </way>
  <way id="95506967" version="1" timestamp="2011-01-17T11:38:51Z" uid="115477" user="wowik" changeset="6998441">
    <nd ref="1107473316"/>
    <nd ref="1107473437"/>
    <nd ref="1107473587"/>
    <nd ref="1107473797"/>
    <nd ref="1107473316"/>
    <tag k="addr:city" v="Зеленоград"/>
    <tag k="building" v="yes"/>
    <tag k="building:levels" v="1"/>
  </way>
  <way id="95506967" version="2" timestamp="2012-03-27T08:12:02Z" uid="481934" user="iWowik" changeset="11113698">
    <nd ref="1107473316"/>
    <nd ref="1107473437"/>
    <nd ref="1107473587"/>
    <nd ref="1107473797"/>
    <nd ref="1107473316"/>
    <tag k="addr:city" v="Зеленоград"/>
    <tag k="addr:country" v="RU"/>
    <tag k="building" v="yes"/>
    <tag k="building:levels" v="1"/>
  </way>
  <way id="95506967" version="3" timestamp="2012-03-27T11:50:22Z" uid="481934" user="iWowik" changeset="11115472">
    <nd ref="1107473316"/>
    <nd ref="1107473437"/>
    <nd ref="1107473587"/>
    <nd ref="1107473797"/>
    <nd ref="1107473316"/>
    <tag k="addr:city" v="Зеленоград"/>
    <tag k="addr:country" v="RU"/>
    <tag k="addr:region" v="Москва"/>
    <tag k="building" v="yes"/>
    <tag k="building:levels" v="1"/>
  </way>
  <way id="95506646" version="2" timestamp="2012-07-17T10:17:25Z" uid="722137" user="OSMF Redaction Account" changeset="12262778"/>
  <way id="95506861" version="3" timestamp="2012-05-22T11:38:57Z" uid="137583" user="ralfherm" changeset="11670617">
    <nd ref="448474458"/>
    <nd ref="448480987"/>
    <nd ref="448480471"/>
    <nd ref="448476023"/>
    <nd ref="448473847"/>
    <nd ref="448474259"/>
    <nd ref="448473235"/>
    <nd ref="448477689"/>
    <nd ref="448485034"/>
    <nd ref="448481533"/>
    <nd ref="448472186"/>
    <nd ref="448481975"/>
    <nd ref="448476878"/>
    <nd ref="448477848"/>
    <nd ref="448471031"/>
    <nd ref="448484428"/>
    <nd ref="448474179"/>
    <nd ref="1170441908"/>
    <tag k="admin_level" v="7"/>
    <tag k="boundary" v="administrative"/>
    <tag k="source" v="cadastre-dgi-fr source : Direction Générale des Impôts - Cadastre ; mise à jour : 2009"/>
  </way>
  <way id="95506926" version="4" timestamp="2012-07-20T23:55:38Z" uid="722137" user="OSMF Redaction Account" changeset="12396600"/>
  <way id="95506927" version="4" timestamp="2012-07-20T23:55:39Z" uid="722137" user="OSMF Redaction Account" changeset="12396600"/>
  <way id="95506929" version="4" timestamp="2012-07-20T23:55:34Z" uid="722137" user="OSMF Redaction Account" changeset="12396600"/>
  <way id="95506933" version="4" timestamp="2012-07-20T23:55:37Z" uid="722137" user="OSMF Redaction Account" changeset="12396600"/>
  <way id="95506935" version="4" timestamp="2012-07-20T23:55:46Z" uid="722137" user="OSMF Redaction Account" changeset="12396604"/>
  <way id="95506937" version="4" timestamp="2012-07-20T23:55:41Z" uid="722137" user="OSMF Redaction Account" changeset="12396604"/>
  <way id="95506938" version="4" timestamp="2012-07-20T23:55:37Z" uid="722137" user="OSMF Redaction Account" changeset="12396600"/>
  <way id="95506940" version="4" timestamp="2012-07-20T23:55:39Z" uid="722137" user="OSMF Redaction Account" changeset="12396600"/>
  <way id="95506941" version="4" timestamp="2012-07-20T23:55:47Z" uid="722137" user="OSMF Redaction Account" changeset="12396604"/>
  <way id="95506942" version="4" timestamp="2012-07-20T23:55:37Z" uid="722137" user="OSMF Redaction Account" changeset="12396600"/>
  <way id="95506944" version="4" timestamp="2012-07-20T23:55:43Z" uid="722137" user="OSMF Redaction Account" changeset="12396604"/>
  <way id="95506945" version="4" timestamp="2012-07-20T23:55:36Z" uid="722137" user="OSMF Redaction Account" changeset="12396600"/>
  <way id="95506947" version="4" timestamp="2012-07-20T23:55:42Z" uid="722137" user="OSMF Redaction Account" changeset="12396604"/>
  <way id="95506948" version="5" timestamp="2012-07-20T23:55:38Z" uid="722137" user="OSMF Redaction Account" changeset="12396600"/>
  <way id="95506949" version="4" timestamp="2012-07-20T23:55:39Z" uid="722137" user="OSMF Redaction Account" changeset="12396600"/>
  <way id="95506950" version="4" timestamp="2012-07-20T23:55:38Z" uid="722137" user="OSMF Redaction Account" changeset="12396600"/>
  <way id="95506951" version="4" timestamp="2012-07-20T23:55:37Z" uid="722137" user="OSMF Redaction Account" changeset="12396600"/>
  <way id="95506952" version="4" timestamp="2012-07-20T23:55:38Z" uid="722137" user="OSMF Redaction Account" changeset="12396600"/>
  <way id="95506953" version="4" timestamp="2012-07-20T23:55:41Z" uid="722137" user="OSMF Redaction Account" changeset="12396604"/>
  <way id="95506954" version="4" timestamp="2012-07-20T23:55:41Z" uid="722137" user="OSMF Redaction Account" changeset="12396604"/>
  <way id="95506955" version="4" timestamp="2012-07-20T23:55:36Z" uid="722137" user="OSMF Redaction Account" changeset="12396600"/>
  <way id="95506957" version="4" timestamp="2012-07-20T23:55:39Z" uid="722137" user="OSMF Redaction Account" changeset="12396600"/>
  <way id="95506958" version="4" timestamp="2012-07-20T23:55:36Z" uid="722137" user="OSMF Redaction Account" changeset="12396600"/>
  <way id="95506959" version="5" timestamp="2012-07-20T23:55:47Z" uid="722137" user="OSMF Redaction Account" changeset="12396604"/>
  <way id="95506960" version="4" timestamp="2012-07-20T23:55:39Z" uid="722137" user="OSMF Redaction Account" changeset="12396600"/>
  <way id="95506961" version="4" timestamp="2012-07-20T23:55:43Z" uid="722137" user="OSMF Redaction Account" changeset="12396604"/>
  <way id="95506962" version="4" timestamp="2012-07-20T23:55:34Z" uid="722137" user="OSMF Redaction Account" changeset="12396600"/>
  <way id="95506963" version="4" timestamp="2012-07-20T23:55:37Z" uid="722137" user="OSMF Redaction Account" changeset="12396600"/>
  <way id="95506964" version="4" timestamp="2012-07-20T23:55:44Z" uid="722137" user="OSMF Redaction Account" changeset="12396604"/>
  <way id="95506965" version="4" timestamp="2012-07-20T23:55:39Z" uid="722137" user="OSMF Redaction Account" changeset="12396600"/>
  <way id="95506966" version="4" timestamp="2012-07-20T23:55:37Z" uid="722137" user="OSMF Redaction Account" changeset="12396600"/>
  <way id="95506967" version="4" timestamp="2012-07-20T23:55:38Z" uid="722137" user="OSMF Redaction Account" changeset="12396600"/>
</osm>
