<?xml version='1.0' encoding='UTF-8'?>
<osm version="0.6" generator="libosmium/2.20.0">
  <way id="95532771" version="1" timestamp="2011-01-17T17:06:30Z" uid="33382" user="de_muur" changeset="7001452">
    <nd ref="1107780382"/>
    <nd ref="1107780395"/>
    <nd ref="1107780398"/>
    <nd ref="1107780404"/>
    <nd ref="248035550"/>
    <tag k="highway" v="service"/>
    <tag k="service" v="parking_aisle"/>
    <tag k="surface" v="paved"/>
  </way>
  <way id="95532772" version="1" timestamp="2011-01-17T17:06:30Z" uid="33382" user="de_muur" changeset="7001452">
    <nd ref="1107780384"/>
    <nd ref="93007712"/>
    <tag k="highway" v="tertiary"/>
    <tag k="maxspeed" v="50"/>
    <tag k="ref" v="K 25"/>
    <tag k="surface" v="paved"/>
  </way>
  <way id="95532772" version="2" timestamp="2012-02-04T11:40:37Z" uid="14002" user="Gehrke" changeset="10583206">
    <nd ref="1107780384"/>
    <nd ref="93007712"/>
    <tag k="highway" v="tertiary"/>
    <tag k="maxspeed" v="50"/>
    <tag k="name" v="Süderwalseder Straße"/>
    <tag k="ref" v="K 25"/>
    <tag k="surface" v="paved"/>
  </way>
  <way id="95532773" version="1" timestamp="2011-01-17T17:06:30Z" uid="33382" user="de_muur" changeset="7001452">
    <nd ref="1107780401"/>
    <nd ref="93007712"/>
    <tag k="cycleway" v="track"/>
    <tag k="highway" v="tertiary"/>
    <tag k="maxspeed" v="50"/>
    <tag k="ref" v="K 18"/>
    <tag k="surface" v="paved"/>
  </way>
  <way id="95532773" version="2" timestamp="2012-02-04T11:40:56Z" uid="14002" user="Gehrke" changeset="10583206"/>
  <way id="95532774" version="1" timestamp="2011-01-17T17:06:31Z" uid="33382" user="de_muur" changeset="7001452">
    <nd ref="253944739"/>
    <nd ref="253944740"/>
    <nd ref="1107780359"/>
    <tag k="cycleway" v="track"/>
    <tag k="highway" v="tertiary"/>
    <tag k="maxspeed" v="50"/>
    <tag k="name" v="Kreepener Straße"/>
    <tag k="ref" v="K 18"/>
    <tag k="surface" v="paved"/>
  </way>
  <way id="95532774" version="2" timestamp="2011-01-17T22:24:02Z" uid="57645" user="KartoGrapHiti" changeset="7005280">
    <nd ref="253944739"/>
    <nd ref="253944740"/>
    <nd ref="1108328064"/>
    <nd ref="1107780359"/>
    <tag k="cycleway" v="track"/>
    <tag k="highway" v="tertiary"/>
    <tag k="maxspeed" v="50"/>
    <tag k="name" v="Kreepener Straße"/>
    <tag k="ref" v="K 18"/>
    <tag k="surface" v="paved"/>
  </way>
  <way id="95532774" version="3" timestamp="2012-02-04T11:40:38Z" uid="14002" user="Gehrke" changeset="10583206">
    <nd ref="253944739"/>
    <nd ref="253944740"/>
    <nd ref="1108328064"/>
    <nd ref="1107780359"/>
    <tag k="cycleway" v="track"/>
    <tag k="highway" v="tertiary"/>
    <tag k="maxspeed" v="50"/>
    <tag k="name" v="Kreepener Hauptstraße"/>
    <tag k="ref" v="K 18"/>
    <tag k="surface" v="paved"/>
  </way>
  <way id="95532774" version="4" timestamp="2012-03-18T13:49:25Z" uid="45882" user="smarties" changeset="11018991"/>
  <way id="95532775" version="1" timestamp="2011-01-17T17:06:31Z" uid="33382" user="de_muur" changeset="7001452">
    <nd ref="1107780359"/>
    <nd ref="93007706"/>
    <nd ref="93007709"/>
    <nd ref="261178337"/>
    <nd ref="93007726"/>
    <nd ref="1107780392"/>
    <nd ref="93007731"/>
    <tag k="cycleway" v="track"/>
    <tag k="highway" v="tertiary"/>
    <tag k="name" v="Kreepener Straße"/>
    <tag k="ref" v="K 18"/>
    <tag k="surface" v="paved"/>
  </way>
  <way id="95532775" version="2" timestamp="2012-02-04T11:40:38Z" uid="14002" user="Gehrke" changeset="10583206">
    <nd ref="1107780359"/>
    <nd ref="93007706"/>
    <tag k="cycleway" v="track"/>
    <tag k="highway" v="tertiary"/>
    <tag k="name" v="Kreepener Hauptstraße"/>
    <tag k="ref" v="K 18"/>
    <tag k="surface" v="paved"/>
  </way>
  <way id="95532775" version="3" timestamp="2012-03-18T13:49:26Z" uid="45882" user="smarties" changeset="11018991"/>
  <way id="95532771" version="2" timestamp="2012-07-18T14:18:19Z" uid="722137" user="OSMF Redaction Account" changeset="12284794"/>
  <way id="95532772" version="3" timestamp="2012-07-18T14:18:19Z" uid="722137" user="OSMF Redaction Account" changeset="12284794"/>
</osm>
