<?xml version='1.0' encoding='UTF-8'?>
<osm version="0.6" generator="libosmium/2.20.0">
  <way id="95535442" version="1" timestamp="2011-01-17T17:33:31Z" uid="43863" user="Rundling" changeset="7001788">
    <nd ref="1107815710"/>
    <nd ref="1107815722"/>
    <nd ref="1107815733"/>
    <nd ref="1107815747"/>
    <nd ref="1107815710"/>
    <tag k="building" v="yes"/>
  </way>
  <way id="95535444" version="1" timestamp="2011-01-17T17:33:31Z" uid="43863" user="Rundling" changeset="7001788">
    <nd ref="1107815697"/>
    <nd ref="1107815736"/>
    <nd ref="1107815750"/>
    <nd ref="1107815772"/>
    <nd ref="1107815697"/>
    <tag k="building" v="yes"/>
  </way>
  <way id="95535444" version="2" timestamp="2011-01-17T18:27:21Z" uid="43863" user="Rundling" changeset="7002431">
    <nd ref="1107815697"/>
    <nd ref="1107815736"/>
    <nd ref="1107895849"/>
    <nd ref="1107895975"/>
    <nd ref="1107895875"/>
    <nd ref="1107895917"/>
    <nd ref="1107815750"/>
    <nd ref="1107815772"/>
    <nd ref="1107815697"/>
    <tag k="building" v="yes"/>
  </way>
  <way id="95535445" version="1" timestamp="2011-01-17T17:33:32Z" uid="43863" user="Rundling" changeset="7001788">
    <nd ref="1107815713"/>
    <nd ref="1107815669"/>
    <nd ref="1107815727"/>
    <nd ref="1107815643"/>
    <nd ref="1107815739"/>
    <nd ref="1107815725"/>
    <nd ref="1107815713"/>
    <tag k="building" v="yes"/>
  </way>
  <way id="95535446" version="1" timestamp="2011-01-17T17:33:32Z" uid="43863" user="Rundling" changeset="7001788">
    <nd ref="1107815661"/>
    <nd ref="1107815698"/>
    <nd ref="1107815686"/>
    <nd ref="1107815667"/>
    <nd ref="1107815661"/>
    <tag k="building" v="yes"/>
  </way>
  <way id="95535447" version="1" timestamp="2011-01-17T17:33:32Z" uid="43863" user="Rundling" changeset="7001788">
    <nd ref="1107815645"/>
    <nd ref="1107815694"/>
    <nd ref="1107815708"/>
    <nd ref="1107815719"/>
    <nd ref="1107815645"/>
    <tag k="building" v="yes"/>
  </way>
  <way id="95535448" version="1" timestamp="2011-01-17T17:33:32Z" uid="43863" user="Rundling" changeset="7001788">
    <nd ref="432508020"/>
    <nd ref="1107815716"/>
    <nd ref="432508018"/>
    <tag k="highway" v="service"/>
    <tag k="service" v="driveway"/>
    <tag k="surface" v="paved"/>
  </way>
  <way id="95535449" version="1" timestamp="2011-01-17T17:33:32Z" uid="43863" user="Rundling" changeset="7001788">
    <nd ref="1107815753"/>
    <nd ref="1107815634"/>
    <nd ref="1107815658"/>
    <nd ref="1107815666"/>
    <nd ref="1107815753"/>
    <tag k="building" v="yes"/>
  </way>
  <way id="95535449" version="2" timestamp="2011-01-17T18:27:21Z" uid="43863" user="Rundling" changeset="7002431">
    <nd ref="1107815753"/>
    <nd ref="1107815634"/>
    <nd ref="1107895874"/>
    <nd ref="1107896022"/>
    <nd ref="1107895959"/>
    <nd ref="1107895900"/>
    <nd ref="1107815658"/>
    <nd ref="1107815666"/>
    <nd ref="1107815753"/>
    <tag k="building" v="yes"/>
  </way>
  <way id="95535450" version="1" timestamp="2011-01-17T17:33:32Z" uid="43863" user="Rundling" changeset="7001788">
    <nd ref="1107815751"/>
    <nd ref="1107815631"/>
    <nd ref="1107815641"/>
    <nd ref="1107815688"/>
    <nd ref="1107815751"/>
    <tag k="building" v="yes"/>
  </way>
  <way id="95535451" version="1" timestamp="2011-01-17T17:33:32Z" uid="43863" user="Rundling" changeset="7001788">
    <nd ref="1107815768"/>
    <nd ref="1107815636"/>
    <nd ref="1107815682"/>
    <nd ref="1107815695"/>
    <nd ref="1107815768"/>
    <tag k="building" v="yes"/>
  </way>
  <way id="95535451" version="2" timestamp="2011-01-17T18:27:21Z" uid="43863" user="Rundling" changeset="7002431">
    <nd ref="1107815768"/>
    <nd ref="1107815636"/>
    <nd ref="1107815682"/>
    <nd ref="1107815695"/>
    <nd ref="1107896037"/>
    <nd ref="1107896029"/>
    <nd ref="1107895933"/>
    <nd ref="1107895878"/>
    <nd ref="1107815768"/>
    <tag k="building" v="yes"/>
  </way>
  <way id="95535452" version="1" timestamp="2011-01-17T17:33:32Z" uid="43863" user="Rundling" changeset="7001788">
    <nd ref="1107815691"/>
    <nd ref="1107815706"/>
    <nd ref="1107815745"/>
    <nd ref="1107815759"/>
    <nd ref="1107815691"/>
    <tag k="building" v="yes"/>
  </way>
  <way id="95535452" version="2" timestamp="2011-01-17T18:27:20Z" uid="43863" user="Rundling" changeset="7002431">
    <nd ref="1107815691"/>
    <nd ref="1107815706"/>
    <nd ref="1107815745"/>
    <nd ref="1107815759"/>
    <nd ref="1107815691"/>
    <tag k="building" v="yes"/>
  </way>
  <way id="95535453" version="1" timestamp="2011-01-17T17:33:33Z" uid="43863" user="Rundling" changeset="7001788">
    <nd ref="1107815730"/>
    <nd ref="1107815740"/>
    <nd ref="1107815755"/>
    <nd ref="1107815663"/>
    <nd ref="1107815730"/>
    <tag k="building" v="yes"/>
  </way>
  <way id="95535454" version="1" timestamp="2011-01-17T17:33:33Z" uid="43863" user="Rundling" changeset="7001788">
    <nd ref="1107815720"/>
    <nd ref="1107815771"/>
    <nd ref="1107815638"/>
    <nd ref="1107815648"/>
    <nd ref="1107815720"/>
    <tag k="building" v="yes"/>
  </way>
  <way id="95535454" version="2" timestamp="2011-01-17T18:27:21Z" uid="43863" user="Rundling" changeset="7002431">
    <nd ref="1107815720"/>
    <nd ref="1107815771"/>
    <nd ref="1107896005"/>
    <nd ref="1107895859"/>
    <nd ref="1107895996"/>
    <nd ref="1107896054"/>
    <nd ref="1107815638"/>
    <nd ref="1107815648"/>
    <nd ref="1107815720"/>
    <tag k="building" v="yes"/>
  </way>
  <way id="95535801" version="1" timestamp="2011-01-17T17:36:22Z" uid="115477" user="wowik" changeset="7001640">
    <nd ref="1107818588"/>
    <nd ref="1107818523"/>
    <nd ref="1107818458"/>
    <nd ref="1107818506"/>
    <nd ref="1107818558"/>
    <nd ref="1107818480"/>
    <nd ref="1107818588"/>
    <tag k="addr:city" v="Зеленоград"/>
    <tag k="building" v="yes"/>
    <tag k="building:levels" v="1"/>
  </way>
  <way id="95535801" version="2" timestamp="2012-03-27T08:14:22Z" uid="481934" user="iWowik" changeset="11113698">
    <nd ref="1107818588"/>
    <nd ref="1107818523"/>
    <nd ref="1107818458"/>
    <nd ref="1107818506"/>
    <nd ref="1107818558"/>
    <nd ref="1107818480"/>
    <nd ref="1107818588"/>
    <tag k="addr:city" v="Зеленоград"/>
    <tag k="addr:country" v="RU"/>
    <tag k="building" v="yes"/>
    <tag k="building:levels" v="1"/>
  </way>
  <way id="95535801" version="3" timestamp="2012-03-27T11:55:29Z" uid="481934" user="iWowik" changeset="11115472">
    <nd ref="1107818588"/>
    <nd ref="1107818523"/>
    <nd ref="1107818458"/>
    <nd ref="1107818506"/>
    <nd ref="1107818558"/>
    <nd ref="1107818480"/>
    <nd ref="1107818588"/>
    <tag k="addr:city" v="Зеленоград"/>
    <tag k="addr:country" v="RU"/>
    <tag k="addr:region" v="Москва"/>
    <tag k="building" v="yes"/>
    <tag k="building:levels" v="1"/>
  </way>
  <way id="95535803" version="1" timestamp="2011-01-17T17:36:23Z" uid="115477" user="wowik" changeset="7001640">
    <nd ref="1107818556"/>
    <nd ref="1107818597"/>
    <nd ref="1107818457"/>
    <nd ref="1107818535"/>
    <nd ref="1107818556"/>
    <tag k="addr:city" v="Зеленоград"/>
    <tag k="building" v="yes"/>
    <tag k="building:levels" v="1"/>
    <tag k="is_in" v="Russia"/>
  </way>
  <way id="95535803" version="2" timestamp="2011-09-13T10:38:00Z" uid="29320" user="Komяpa" changeset="9288237">
    <nd ref="1107818556"/>
    <nd ref="1107818597"/>
    <nd ref="1107818457"/>
    <nd ref="1107818535"/>
    <nd ref="1107818556"/>
    <tag k="addr:city" v="Зеленоград"/>
    <tag k="addr:country" v="RU"/>
    <tag k="building" v="yes"/>
    <tag k="building:levels" v="1"/>
  </way>
  <way id="95535803" version="3" timestamp="2012-03-27T11:50:55Z" uid="481934" user="iWowik" changeset="11115472">
    <nd ref="1107818556"/>
    <nd ref="1107818597"/>
    <nd ref="1107818457"/>
    <nd ref="1107818535"/>
    <nd ref="1107818556"/>
    <tag k="addr:city" v="Зеленоград"/>
    <tag k="addr:country" v="RU"/>
    <tag k="addr:region" v="Москва"/>
    <tag k="building" v="yes"/>
    <tag k="building:levels" v="1"/>
  </way>
  <way id="95535804" version="1" timestamp="2011-01-17T17:36:23Z" uid="115477" user="wowik" changeset="7001640">
    <nd ref="1107818484"/>
    <nd ref="1107818522"/>
    <nd ref="1107818560"/>
    <nd ref="1107818627"/>
    <nd ref="1107818484"/>
    <tag k="addr:city" v="Зеленоград"/>
    <tag k="building" v="yes"/>
    <tag k="building:levels" v="1"/>
    <tag k="is_in" v="Russia"/>
  </way>
  <way id="95535804" version="2" timestamp="2011-01-18T13:03:14Z" uid="115477" user="wowik" changeset="7010197">
    <nd ref="1107818484"/>
    <nd ref="1107818522"/>
    <nd ref="1107818560"/>
    <nd ref="1107818627"/>
    <nd ref="1107818484"/>
    <tag k="addr:city" v="Зеленоград"/>
    <tag k="addr:housenumber" v="28Ас2"/>
    <tag k="addr:street" v="улица Панфилова"/>
    <tag k="building" v="yes"/>
    <tag k="building:levels" v="1"/>
    <tag k="is_in" v="Russia"/>
  </way>
  <way id="95535804" version="3" timestamp="2011-01-19T18:06:44Z" uid="70696" user="xybot" changeset="7022960">
    <nd ref="1107818484"/>
    <nd ref="1107818522"/>
    <nd ref="1107818560"/>
    <nd ref="1107818627"/>
    <nd ref="1107818484"/>
    <tag k="addr:city" v="Зеленоград"/>
    <tag k="addr:housenumber" v="28А с2"/>
    <tag k="addr:street" v="улица Панфилова"/>
    <tag k="building" v="yes"/>
    <tag k="building:levels" v="1"/>
    <tag k="is_in" v="Russia"/>
  </way>
  <way id="95535804" version="4" timestamp="2011-09-13T10:25:11Z" uid="29320" user="Komяpa" changeset="9288237">
    <nd ref="1107818484"/>
    <nd ref="1107818522"/>
    <nd ref="1107818560"/>
    <nd ref="1107818627"/>
    <nd ref="1107818484"/>
    <tag k="addr:city" v="Зеленоград"/>
    <tag k="addr:country" v="RU"/>
    <tag k="addr:housenumber" v="28А с2"/>
    <tag k="addr:street" v="улица Панфилова"/>
    <tag k="building" v="yes"/>
    <tag k="building:levels" v="1"/>
  </way>
  <way id="95535804" version="5" timestamp="2012-03-27T11:40:28Z" uid="481934" user="iWowik" changeset="11115472">
    <nd ref="1107818484"/>
    <nd ref="1107818522"/>
    <nd ref="1107818560"/>
    <nd ref="1107818627"/>
    <nd ref="1107818484"/>
    <tag k="addr:city" v="Зеленоград"/>
    <tag k="addr:country" v="RU"/>
    <tag k="addr:housenumber" v="28А с2"/>
    <tag k="addr:region" v="Москва"/>
    <tag k="addr:street" v="улица Панфилова"/>
    <tag k="building" v="yes"/>
    <tag k="building:levels" v="1"/>
  </way>
  <way id="95535805" version="1" timestamp="2011-01-17T17:36:24Z" uid="115477" user="wowik" changeset="7001640">
    <nd ref="1107818433"/>
    <nd ref="1107818551"/>
    <nd ref="1107818601"/>
    <nd ref="1107818514"/>
    <nd ref="1107818433"/>
    <tag k="addr:city" v="Зеленоград"/>
    <tag k="addr:street" v="улица Панфилова"/>
    <tag k="building" v="yes"/>
    <tag k="is_in" v="Russia"/>
  </way>
  <way id="95535805" version="2" timestamp="2011-09-13T10:38:00Z" uid="29320" user="Komяpa" changeset="9288237">
    <nd ref="1107818433"/>
    <nd ref="1107818551"/>
    <nd ref="1107818601"/>
    <nd ref="1107818514"/>
    <nd ref="1107818433"/>
    <tag k="addr:city" v="Зеленоград"/>
    <tag k="addr:country" v="RU"/>
    <tag k="addr:street" v="улица Панфилова"/>
    <tag k="building" v="yes"/>
  </way>
  <way id="95535805" version="3" timestamp="2012-03-27T11:51:58Z" uid="481934" user="iWowik" changeset="11115472">
    <nd ref="1107818433"/>
    <nd ref="1107818551"/>
    <nd ref="1107818601"/>
    <nd ref="1107818514"/>
    <nd ref="1107818433"/>
    <tag k="addr:city" v="Зеленоград"/>
    <tag k="addr:country" v="RU"/>
    <tag k="addr:region" v="Москва"/>
    <tag k="addr:street" v="улица Панфилова"/>
    <tag k="building" v="yes"/>
  </way>
  <way id="95535806" version="1" timestamp="2011-01-17T17:36:25Z" uid="115477" user="wowik" changeset="7001640">
    <nd ref="1107818563"/>
    <nd ref="1107818490"/>
    <nd ref="1107818429"/>
    <nd ref="1107818537"/>
    <nd ref="1107818563"/>
    <tag k="addr:city" v="Зеленоград"/>
    <tag k="addr:housenumber" v="21с35"/>
    <tag k="addr:street" v="улица Панфилова"/>
    <tag k="amenity" v="prison"/>
    <tag k="building" v="yes"/>
    <tag k="is_in" v="Russia"/>
  </way>
  <way id="95535806" version="2" timestamp="2011-01-19T17:09:47Z" uid="70696" user="xybot" changeset="7021015">
    <nd ref="1107818563"/>
    <nd ref="1107818490"/>
    <nd ref="1107818429"/>
    <nd ref="1107818537"/>
    <nd ref="1107818563"/>
    <tag k="addr:city" v="Зеленоград"/>
    <tag k="addr:housenumber" v="21 с35"/>
    <tag k="addr:street" v="улица Панфилова"/>
    <tag k="amenity" v="prison"/>
    <tag k="building" v="yes"/>
    <tag k="is_in" v="Russia"/>
  </way>
  <way id="95535806" version="3" timestamp="2011-09-13T10:24:44Z" uid="29320" user="Komяpa" changeset="9288237">
    <nd ref="1107818563"/>
    <nd ref="1107818490"/>
    <nd ref="1107818429"/>
    <nd ref="1107818537"/>
    <nd ref="1107818563"/>
    <tag k="addr:city" v="Зеленоград"/>
    <tag k="addr:country" v="RU"/>
    <tag k="addr:housenumber" v="21 с35"/>
    <tag k="addr:street" v="улица Панфилова"/>
    <tag k="amenity" v="prison"/>
    <tag k="building" v="yes"/>
  </way>
  <way id="95535806" version="4" timestamp="2012-03-27T11:39:37Z" uid="481934" user="iWowik" changeset="11115472">
    <nd ref="1107818563"/>
    <nd ref="1107818490"/>
    <nd ref="1107818429"/>
    <nd ref="1107818537"/>
    <nd ref="1107818563"/>
    <tag k="addr:city" v="Зеленоград"/>
    <tag k="addr:country" v="RU"/>
    <tag k="addr:housenumber" v="21 с35"/>
    <tag k="addr:region" v="Москва"/>
    <tag k="addr:street" v="улица Панфилова"/>
    <tag k="amenity" v="prison"/>
    <tag k="building" v="yes"/>
  </way>
  <way id="95535808" version="1" timestamp="2011-01-17T17:36:26Z" uid="115477" user="wowik" changeset="7001640">
    <nd ref="1107818466"/>
    <nd ref="1107818508"/>
    <nd ref="1107818424"/>
    <nd ref="1107818482"/>
    <nd ref="1107818590"/>
    <nd ref="1107818462"/>
    <nd ref="1107818559"/>
    <nd ref="1107818645"/>
    <nd ref="1107818527"/>
    <nd ref="1107818466"/>
    <tag k="natural" v="water"/>
  </way>
  <way id="95535809" version="1" timestamp="2011-01-17T17:36:26Z" uid="115477" user="wowik" changeset="7001640">
    <nd ref="461009230"/>
    <nd ref="1107818529"/>
    <nd ref="1107818464"/>
    <nd ref="1107818507"/>
    <nd ref="1107818420"/>
    <nd ref="461008565"/>
    <nd ref="461009230"/>
    <tag k="addr:city" v="Зеленоград"/>
    <tag k="addr:housenumber" v="830с1"/>
    <tag k="addr:street" v="8-й Микрорайон"/>
    <tag k="building" v="yes"/>
    <tag k="building:levels" v="1"/>
    <tag k="is_in" v="Russia"/>
  </way>
  <way id="95535809" version="2" timestamp="2011-01-19T17:09:48Z" uid="70696" user="xybot" changeset="7021015">
    <nd ref="461009230"/>
    <nd ref="1107818529"/>
    <nd ref="1107818464"/>
    <nd ref="1107818507"/>
    <nd ref="1107818420"/>
    <nd ref="461008565"/>
    <nd ref="461009230"/>
    <tag k="addr:city" v="Зеленоград"/>
    <tag k="addr:housenumber" v="830 с1"/>
    <tag k="addr:street" v="8-й Микрорайон"/>
    <tag k="building" v="yes"/>
    <tag k="building:levels" v="1"/>
    <tag k="is_in" v="Russia"/>
  </way>
  <way id="95535809" version="3" timestamp="2011-06-07T20:46:26Z" uid="133332" user="AMDmi3" changeset="8374030">
    <nd ref="461009230"/>
    <nd ref="1107818529"/>
    <nd ref="1107818464"/>
    <nd ref="1107818507"/>
    <nd ref="1107818420"/>
    <nd ref="461008565"/>
    <nd ref="461009230"/>
    <tag k="addr:city" v="Зеленоград"/>
    <tag k="addr:housenumber" v="830 с1"/>
    <tag k="addr:street" v="8-й микрорайон"/>
    <tag k="building" v="yes"/>
    <tag k="building:levels" v="1"/>
    <tag k="is_in" v="Russia"/>
  </way>
  <way id="95535809" version="4" timestamp="2011-09-13T10:28:53Z" uid="29320" user="Komяpa" changeset="9288237">
    <nd ref="461009230"/>
    <nd ref="1107818529"/>
    <nd ref="1107818464"/>
    <nd ref="1107818507"/>
    <nd ref="1107818420"/>
    <nd ref="461008565"/>
    <nd ref="461009230"/>
    <tag k="addr:city" v="Зеленоград"/>
    <tag k="addr:country" v="RU"/>
    <tag k="addr:housenumber" v="830 с1"/>
    <tag k="addr:street" v="8-й микрорайон"/>
    <tag k="building" v="yes"/>
    <tag k="building:levels" v="1"/>
  </way>
  <way id="95535809" version="5" timestamp="2012-03-27T11:46:31Z" uid="481934" user="iWowik" changeset="11115472">
    <nd ref="461009230"/>
    <nd ref="1107818529"/>
    <nd ref="1107818464"/>
    <nd ref="1107818507"/>
    <nd ref="1107818420"/>
    <nd ref="461008565"/>
    <nd ref="461009230"/>
    <tag k="addr:city" v="Зеленоград"/>
    <tag k="addr:country" v="RU"/>
    <tag k="addr:housenumber" v="830 с1"/>
    <tag k="addr:region" v="Москва"/>
    <tag k="addr:street" v="8-й микрорайон"/>
    <tag k="building" v="yes"/>
    <tag k="building:levels" v="1"/>
  </way>
  <way id="95535812" version="1" timestamp="2011-01-17T17:36:28Z" uid="115477" user="wowik" changeset="7001640">
    <nd ref="1107818427"/>
    <nd ref="1107818478"/>
    <nd ref="1107818576"/>
    <nd ref="1107818642"/>
    <nd ref="1107818427"/>
    <tag k="addr:city" v="Зеленоград"/>
    <tag k="building" v="yes"/>
    <tag k="building:levels" v="1"/>
    <tag k="is_in" v="Russia"/>
  </way>
  <way id="95535812" version="2" timestamp="2011-09-13T10:38:01Z" uid="29320" user="Komяpa" changeset="9288237">
    <nd ref="1107818427"/>
    <nd ref="1107818478"/>
    <nd ref="1107818576"/>
    <nd ref="1107818642"/>
    <nd ref="1107818427"/>
    <tag k="addr:city" v="Зеленоград"/>
    <tag k="addr:country" v="RU"/>
    <tag k="building" v="yes"/>
    <tag k="building:levels" v="1"/>
  </way>
  <way id="95535812" version="3" timestamp="2012-03-27T11:51:07Z" uid="481934" user="iWowik" changeset="11115472">
    <nd ref="1107818427"/>
    <nd ref="1107818478"/>
    <nd ref="1107818576"/>
    <nd ref="1107818642"/>
    <nd ref="1107818427"/>
    <tag k="addr:city" v="Зеленоград"/>
    <tag k="addr:country" v="RU"/>
    <tag k="addr:region" v="Москва"/>
    <tag k="building" v="yes"/>
    <tag k="building:levels" v="1"/>
  </way>
  <way id="95535813" version="1" timestamp="2011-01-17T17:36:29Z" uid="115477" user="wowik" changeset="7001640">
    <nd ref="1107818505"/>
    <nd ref="1107818624"/>
    <nd ref="1107818460"/>
    <nd ref="1107818491"/>
    <nd ref="1107818505"/>
    <tag k="addr:city" v="Зеленоград"/>
    <tag k="building" v="yes"/>
    <tag k="building:levels" v="1"/>
    <tag k="is_in" v="Russia"/>
  </way>
  <way id="95535813" version="2" timestamp="2011-09-13T10:38:01Z" uid="29320" user="Komяpa" changeset="9288237">
    <nd ref="1107818505"/>
    <nd ref="1107818624"/>
    <nd ref="1107818460"/>
    <nd ref="1107818491"/>
    <nd ref="1107818505"/>
    <tag k="addr:city" v="Зеленоград"/>
    <tag k="addr:country" v="RU"/>
    <tag k="building" v="yes"/>
    <tag k="building:levels" v="1"/>
  </way>
  <way id="95535813" version="3" timestamp="2012-03-27T11:52:54Z" uid="481934" user="iWowik" changeset="11115472">
    <nd ref="1107818505"/>
    <nd ref="1107818624"/>
    <nd ref="1107818460"/>
    <nd ref="1107818491"/>
    <nd ref="1107818505"/>
    <tag k="addr:city" v="Зеленоград"/>
    <tag k="addr:country" v="RU"/>
    <tag k="addr:region" v="Москва"/>
    <tag k="building" v="yes"/>
    <tag k="building:levels" v="1"/>
  </way>
  <way id="95535816" version="1" timestamp="2011-01-17T17:36:29Z" uid="115477" user="wowik" changeset="7001640">
    <nd ref="1107818512"/>
    <nd ref="1107818561"/>
    <nd ref="1107818486"/>
    <nd ref="1107818531"/>
    <nd ref="1107818512"/>
    <tag k="building" v="yes"/>
  </way>
  <way id="95535816" version="2" timestamp="2011-10-12T06:32:19Z" uid="481934" user="iWowik" changeset="9535964">
    <nd ref="1107818512"/>
    <nd ref="1107818561"/>
    <nd ref="1107818486"/>
    <nd ref="1107818531"/>
    <nd ref="1107818512"/>
    <tag k="building" v="no"/>
    <tag k="note" v="снести должны"/>
  </way>
  <way id="95535819" version="1" timestamp="2011-01-17T17:36:30Z" uid="115477" user="wowik" changeset="7001640">
    <nd ref="1107818493"/>
    <nd ref="1107818633"/>
    <nd ref="1107818468"/>
    <nd ref="1107818580"/>
    <nd ref="1107818493"/>
    <tag k="addr:city" v="Зеленоград"/>
    <tag k="addr:street" v="улица Панфилова"/>
    <tag k="building" v="yes"/>
    <tag k="is_in" v="Russia"/>
  </way>
  <way id="95535819" version="2" timestamp="2011-09-13T10:38:01Z" uid="29320" user="Komяpa" changeset="9288237">
    <nd ref="1107818493"/>
    <nd ref="1107818633"/>
    <nd ref="1107818468"/>
    <nd ref="1107818580"/>
    <nd ref="1107818493"/>
    <tag k="addr:city" v="Зеленоград"/>
    <tag k="addr:country" v="RU"/>
    <tag k="addr:street" v="улица Панфилова"/>
    <tag k="building" v="yes"/>
  </way>
  <way id="95535819" version="3" timestamp="2012-03-27T11:51:18Z" uid="481934" user="iWowik" changeset="11115472">
    <nd ref="1107818493"/>
    <nd ref="1107818633"/>
    <nd ref="1107818468"/>
    <nd ref="1107818580"/>
    <nd ref="1107818493"/>
    <tag k="addr:city" v="Зеленоград"/>
    <tag k="addr:country" v="RU"/>
    <tag k="addr:region" v="Москва"/>
    <tag k="addr:street" v="улица Панфилова"/>
    <tag k="building" v="yes"/>
  </way>
  <way id="95535820" version="1" timestamp="2011-01-17T17:36:30Z" uid="115477" user="wowik" changeset="7001640">
    <nd ref="1107818510"/>
    <nd ref="1107818553"/>
    <nd ref="1107818593"/>
    <nd ref="1107818504"/>
    <nd ref="1107818510"/>
    <tag k="addr:city" v="Зеленоград"/>
    <tag k="building" v="yes"/>
    <tag k="building:levels" v="1"/>
    <tag k="is_in" v="Russia"/>
  </way>
  <way id="95535820" version="2" timestamp="2011-09-13T10:38:02Z" uid="29320" user="Komяpa" changeset="9288237">
    <nd ref="1107818510"/>
    <nd ref="1107818553"/>
    <nd ref="1107818593"/>
    <nd ref="1107818504"/>
    <nd ref="1107818510"/>
    <tag k="addr:city" v="Зеленоград"/>
    <tag k="addr:country" v="RU"/>
    <tag k="building" v="yes"/>
    <tag k="building:levels" v="1"/>
  </way>
  <way id="95535820" version="3" timestamp="2012-03-27T11:50:19Z" uid="481934" user="iWowik" changeset="11115472">
    <nd ref="1107818510"/>
    <nd ref="1107818553"/>
    <nd ref="1107818593"/>
    <nd ref="1107818504"/>
    <nd ref="1107818510"/>
    <tag k="addr:city" v="Зеленоград"/>
    <tag k="addr:country" v="RU"/>
    <tag k="addr:region" v="Москва"/>
    <tag k="building" v="yes"/>
    <tag k="building:levels" v="1"/>
  </way>
  <way id="95535442" version="2" timestamp="2012-07-18T20:45:40Z" uid="722137" user="OSMF Redaction Account" changeset="12297766"/>
  <way id="95535444" version="3" timestamp="2012-07-18T20:45:41Z" uid="722137" user="OSMF Redaction Account" changeset="12297766"/>
  <way id="95535445" version="2" timestamp="2012-07-18T20:45:39Z" uid="722137" user="OSMF Redaction Account" changeset="12297766"/>
  <way id="95535446" version="2" timestamp="2012-07-18T20:45:37Z" uid="722137" user="OSMF Redaction Account" changeset="12297766"/>
  <way id="95535447" version="2" timestamp="2012-07-18T20:45:39Z" uid="722137" user="OSMF Redaction Account" changeset="12297766"/>
  <way id="95535448" version="2" timestamp="2012-07-18T20:45:38Z" uid="722137" user="OSMF Redaction Account" changeset="12297766"/>
  <way id="95535449" version="3" timestamp="2012-07-18T20:45:41Z" uid="722137" user="OSMF Redaction Account" changeset="12297766"/>
  <way id="95535450" version="2" timestamp="2012-07-18T20:45:37Z" uid="722137" user="OSMF Redaction Account" changeset="12297766"/>
  <way id="95535451" version="3" timestamp="2012-07-18T20:45:39Z" uid="722137" user="OSMF Redaction Account" changeset="12297766"/>
  <way id="95535452" version="3" timestamp="2012-07-18T20:45:39Z" uid="722137" user="OSMF Redaction Account" changeset="12297766"/>
  <way id="95535453" version="2" timestamp="2012-07-18T20:45:39Z" uid="722137" user="OSMF Redaction Account" changeset="12297766"/>
  <way id="95535454" version="3" timestamp="2012-07-18T20:45:39Z" uid="722137" user="OSMF Redaction Account" changeset="12297766"/>
  <way id="95535801" version="4" timestamp="2012-07-20T23:57:04Z" uid="722137" user="OSMF Redaction Account" changeset="12396619"/>
  <way id="95535803" version="4" timestamp="2012-07-20T23:57:05Z" uid="722137" user="OSMF Redaction Account" changeset="12396619"/>
  <way id="95535804" version="6" timestamp="2012-07-20T23:57:05Z" uid="722137" user="OSMF Redaction Account" changeset="12396619"/>
  <way id="95535805" version="4" timestamp="2012-07-20T23:57:20Z" uid="722137" user="OSMF Redaction Account" changeset="12396639"/>
  <way id="95535806" version="5" timestamp="2012-07-20T23:57:20Z" uid="722137" user="OSMF Redaction Account" changeset="12396639"/>
  <way id="95535808" version="2" timestamp="2012-07-20T23:57:44Z" uid="722137" user="OSMF Redaction Account" changeset="12396639"/>
  <way id="95535809" version="6" timestamp="2012-07-20T23:56:55Z" uid="722137" user="OSMF Redaction Account" changeset="12396619"/>
  <way id="95535812" version="4" timestamp="2012-07-20T23:57:03Z" uid="722137" user="OSMF Redaction Account" changeset="12396619"/>
  <way id="95535813" version="4" timestamp="2012-07-20T23:57:03Z" uid="722137" user="OSMF Redaction Account" changeset="12396619"/>
  <way id="95535816" version="3" timestamp="2012-07-20T23:57:43Z" uid="722137" user="OSMF Redaction Account" changeset="12396639"/>
  <way id="95535819" version="4" timestamp="2012-07-20T23:57:20Z" uid="722137" user="OSMF Redaction Account" changeset="12396639"/>
  <way id="95535820" version="4" timestamp="2012-07-20T23:57:01Z" uid="722137" user="OSMF Redaction Account" changeset="12396619"/>
</osm>
