<?xml version='1.0' encoding='UTF-8'?>
<osm version="0.6" generator="libosmium/2.20.0">
  <way id="95542750" version="1" timestamp="2011-01-17T18:50:30Z" uid="115477" user="wowik" changeset="7002711">
    <nd ref="1107931930"/>
    <nd ref="1107932021"/>
    <nd ref="1107932318"/>
    <nd ref="1107932063"/>
    <nd ref="1107931930"/>
    <tag k="leisure" v="pitch"/>
  </way>
  <way id="95542757" version="1" timestamp="2011-01-17T18:50:30Z" uid="115477" user="wowik" changeset="7002711">
    <nd ref="1107932310"/>
    <nd ref="1107932007"/>
    <nd ref="1107932062"/>
    <nd ref="1107932292"/>
    <nd ref="1107932310"/>
    <tag k="addr:city" v="Зеленоград"/>
    <tag k="addr:street" v="18-й Микрорайон"/>
    <tag k="building" v="yes"/>
    <tag k="is_in" v="Russia"/>
    <tag k="landuse" v="service"/>
  </way>
  <way id="95542757" version="2" timestamp="2011-06-07T20:48:49Z" uid="133332" user="AMDmi3" changeset="8374030">
    <nd ref="1107932310"/>
    <nd ref="1107932007"/>
    <nd ref="1107932062"/>
    <nd ref="1107932292"/>
    <nd ref="1107932310"/>
    <tag k="addr:city" v="Зеленоград"/>
    <tag k="addr:street" v="18-й микрорайон"/>
    <tag k="building" v="yes"/>
    <tag k="is_in" v="Russia"/>
    <tag k="landuse" v="service"/>
  </way>
  <way id="95542757" version="3" timestamp="2011-09-13T10:38:02Z" uid="29320" user="Komяpa" changeset="9288237">
    <nd ref="1107932310"/>
    <nd ref="1107932007"/>
    <nd ref="1107932062"/>
    <nd ref="1107932292"/>
    <nd ref="1107932310"/>
    <tag k="addr:city" v="Зеленоград"/>
    <tag k="addr:country" v="RU"/>
    <tag k="addr:street" v="18-й микрорайон"/>
    <tag k="building" v="service"/>
  </way>
  <way id="95542757" version="4" timestamp="2012-03-27T11:53:55Z" uid="481934" user="iWowik" changeset="11115472">
    <nd ref="1107932310"/>
    <nd ref="1107932007"/>
    <nd ref="1107932062"/>
    <nd ref="1107932292"/>
    <nd ref="1107932310"/>
    <tag k="addr:city" v="Зеленоград"/>
    <tag k="addr:country" v="RU"/>
    <tag k="addr:region" v="Москва"/>
    <tag k="addr:street" v="18-й микрорайон"/>
    <tag k="building" v="service"/>
  </way>
  <way id="95542759" version="1" timestamp="2011-01-17T18:50:30Z" uid="115477" user="wowik" changeset="7002711">
    <nd ref="1107932123"/>
    <nd ref="1107932107"/>
    <nd ref="1107932181"/>
    <nd ref="1107932321"/>
    <nd ref="1107932123"/>
    <tag k="addr:city" v="Зеленоград"/>
    <tag k="addr:street" v="18-й Микрорайон"/>
    <tag k="building" v="yes"/>
    <tag k="is_in" v="Russia"/>
    <tag k="landuse" v="service"/>
  </way>
  <way id="95542759" version="2" timestamp="2011-06-07T20:48:49Z" uid="133332" user="AMDmi3" changeset="8374030">
    <nd ref="1107932123"/>
    <nd ref="1107932107"/>
    <nd ref="1107932181"/>
    <nd ref="1107932321"/>
    <nd ref="1107932123"/>
    <tag k="addr:city" v="Зеленоград"/>
    <tag k="addr:street" v="18-й микрорайон"/>
    <tag k="building" v="yes"/>
    <tag k="is_in" v="Russia"/>
    <tag k="landuse" v="service"/>
  </way>
  <way id="95542759" version="3" timestamp="2011-09-13T10:38:02Z" uid="29320" user="Komяpa" changeset="9288237">
    <nd ref="1107932123"/>
    <nd ref="1107932107"/>
    <nd ref="1107932181"/>
    <nd ref="1107932321"/>
    <nd ref="1107932123"/>
    <tag k="addr:city" v="Зеленоград"/>
    <tag k="addr:country" v="RU"/>
    <tag k="addr:street" v="18-й микрорайон"/>
    <tag k="building" v="service"/>
  </way>
  <way id="95542759" version="4" timestamp="2012-03-27T11:50:25Z" uid="481934" user="iWowik" changeset="11115472">
    <nd ref="1107932123"/>
    <nd ref="1107932107"/>
    <nd ref="1107932181"/>
    <nd ref="1107932321"/>
    <nd ref="1107932123"/>
    <tag k="addr:city" v="Зеленоград"/>
    <tag k="addr:country" v="RU"/>
    <tag k="addr:region" v="Москва"/>
    <tag k="addr:street" v="18-й микрорайон"/>
    <tag k="building" v="service"/>
  </way>
  <way id="95542763" version="1" timestamp="2011-01-17T18:50:31Z" uid="115477" user="wowik" changeset="7002711">
    <nd ref="1107932243"/>
    <nd ref="1107931960"/>
    <nd ref="1107932025"/>
    <nd ref="1107932074"/>
    <nd ref="1107932097"/>
    <nd ref="1107932325"/>
    <nd ref="1107932243"/>
    <tag k="addr:city" v="Зеленоград"/>
    <tag k="addr:street" v="18-й Микрорайон"/>
    <tag k="building" v="yes"/>
    <tag k="is_in" v="Russia"/>
    <tag k="landuse" v="service"/>
  </way>
  <way id="95542763" version="2" timestamp="2011-06-07T20:48:50Z" uid="133332" user="AMDmi3" changeset="8374030">
    <nd ref="1107932243"/>
    <nd ref="1107931960"/>
    <nd ref="1107932025"/>
    <nd ref="1107932074"/>
    <nd ref="1107932097"/>
    <nd ref="1107932325"/>
    <nd ref="1107932243"/>
    <tag k="addr:city" v="Зеленоград"/>
    <tag k="addr:street" v="18-й микрорайон"/>
    <tag k="building" v="yes"/>
    <tag k="is_in" v="Russia"/>
    <tag k="landuse" v="service"/>
  </way>
  <way id="95542763" version="3" timestamp="2011-09-13T10:38:02Z" uid="29320" user="Komяpa" changeset="9288237">
    <nd ref="1107932243"/>
    <nd ref="1107931960"/>
    <nd ref="1107932025"/>
    <nd ref="1107932074"/>
    <nd ref="1107932097"/>
    <nd ref="1107932325"/>
    <nd ref="1107932243"/>
    <tag k="addr:city" v="Зеленоград"/>
    <tag k="addr:country" v="RU"/>
    <tag k="addr:street" v="18-й микрорайон"/>
    <tag k="building" v="service"/>
  </way>
  <way id="95542763" version="4" timestamp="2012-03-27T11:55:13Z" uid="481934" user="iWowik" changeset="11115472">
    <nd ref="1107932243"/>
    <nd ref="1107931960"/>
    <nd ref="1107932025"/>
    <nd ref="1107932074"/>
    <nd ref="1107932097"/>
    <nd ref="1107932325"/>
    <nd ref="1107932243"/>
    <tag k="addr:city" v="Зеленоград"/>
    <tag k="addr:country" v="RU"/>
    <tag k="addr:region" v="Москва"/>
    <tag k="addr:street" v="18-й микрорайон"/>
    <tag k="building" v="service"/>
  </way>
  <way id="95542764" version="1" timestamp="2011-01-17T18:50:31Z" uid="115477" user="wowik" changeset="7002711">
    <nd ref="1107932045"/>
    <nd ref="1107932110"/>
    <nd ref="1107932189"/>
    <nd ref="1107932026"/>
    <nd ref="1107932045"/>
    <tag k="addr:city" v="Зеленоград"/>
    <tag k="addr:street" v="18-й Микрорайон"/>
    <tag k="building" v="yes"/>
    <tag k="is_in" v="Russia"/>
  </way>
  <way id="95542764" version="2" timestamp="2011-06-07T20:48:51Z" uid="133332" user="AMDmi3" changeset="8374030">
    <nd ref="1107932045"/>
    <nd ref="1107932110"/>
    <nd ref="1107932189"/>
    <nd ref="1107932026"/>
    <nd ref="1107932045"/>
    <tag k="addr:city" v="Зеленоград"/>
    <tag k="addr:street" v="18-й микрорайон"/>
    <tag k="building" v="yes"/>
    <tag k="is_in" v="Russia"/>
  </way>
  <way id="95542764" version="3" timestamp="2011-09-13T10:38:02Z" uid="29320" user="Komяpa" changeset="9288237">
    <nd ref="1107932045"/>
    <nd ref="1107932110"/>
    <nd ref="1107932189"/>
    <nd ref="1107932026"/>
    <nd ref="1107932045"/>
    <tag k="addr:city" v="Зеленоград"/>
    <tag k="addr:country" v="RU"/>
    <tag k="addr:street" v="18-й микрорайон"/>
    <tag k="building" v="yes"/>
  </way>
  <way id="95542764" version="4" timestamp="2012-03-27T11:51:42Z" uid="481934" user="iWowik" changeset="11115472">
    <nd ref="1107932045"/>
    <nd ref="1107932110"/>
    <nd ref="1107932189"/>
    <nd ref="1107932026"/>
    <nd ref="1107932045"/>
    <tag k="addr:city" v="Зеленоград"/>
    <tag k="addr:country" v="RU"/>
    <tag k="addr:region" v="Москва"/>
    <tag k="addr:street" v="18-й микрорайон"/>
    <tag k="building" v="yes"/>
  </way>
  <way id="95542765" version="1" timestamp="2011-01-17T18:50:32Z" uid="115477" user="wowik" changeset="7002711">
    <nd ref="1107932151"/>
    <nd ref="1107932247"/>
    <nd ref="1107932303"/>
    <nd ref="1107932115"/>
    <nd ref="1107932077"/>
    <nd ref="1107932327"/>
    <nd ref="1107932142"/>
    <nd ref="1107932000"/>
    <nd ref="1107932176"/>
    <nd ref="1107932151"/>
    <tag k="addr:city" v="Зеленоград"/>
    <tag k="addr:street" v="18-й Микрорайон"/>
    <tag k="building" v="yes"/>
    <tag k="is_in" v="Russia"/>
  </way>
  <way id="95542765" version="2" timestamp="2011-06-07T20:48:50Z" uid="133332" user="AMDmi3" changeset="8374030">
    <nd ref="1107932151"/>
    <nd ref="1107932247"/>
    <nd ref="1107932303"/>
    <nd ref="1107932115"/>
    <nd ref="1107932077"/>
    <nd ref="1107932327"/>
    <nd ref="1107932142"/>
    <nd ref="1107932000"/>
    <nd ref="1107932176"/>
    <nd ref="1107932151"/>
    <tag k="addr:city" v="Зеленоград"/>
    <tag k="addr:street" v="18-й микрорайон"/>
    <tag k="building" v="yes"/>
    <tag k="is_in" v="Russia"/>
  </way>
  <way id="95542765" version="3" timestamp="2011-09-13T10:38:03Z" uid="29320" user="Komяpa" changeset="9288237">
    <nd ref="1107932151"/>
    <nd ref="1107932247"/>
    <nd ref="1107932303"/>
    <nd ref="1107932115"/>
    <nd ref="1107932077"/>
    <nd ref="1107932327"/>
    <nd ref="1107932142"/>
    <nd ref="1107932000"/>
    <nd ref="1107932176"/>
    <nd ref="1107932151"/>
    <tag k="addr:city" v="Зеленоград"/>
    <tag k="addr:country" v="RU"/>
    <tag k="addr:street" v="18-й микрорайон"/>
    <tag k="building" v="yes"/>
  </way>
  <way id="95542765" version="4" timestamp="2012-03-27T11:56:03Z" uid="481934" user="iWowik" changeset="11115472">
    <nd ref="1107932151"/>
    <nd ref="1107932247"/>
    <nd ref="1107932303"/>
    <nd ref="1107932115"/>
    <nd ref="1107932077"/>
    <nd ref="1107932327"/>
    <nd ref="1107932142"/>
    <nd ref="1107932000"/>
    <nd ref="1107932176"/>
    <nd ref="1107932151"/>
    <tag k="addr:city" v="Зеленоград"/>
    <tag k="addr:country" v="RU"/>
    <tag k="addr:region" v="Москва"/>
    <tag k="addr:street" v="18-й микрорайон"/>
    <tag k="building" v="yes"/>
  </way>
  <way id="95542767" version="1" timestamp="2011-01-17T18:50:32Z" uid="115477" user="wowik" changeset="7002711">
    <nd ref="1107932073"/>
    <nd ref="1107932140"/>
    <nd ref="1107931990"/>
    <nd ref="1107932057"/>
    <nd ref="1107932073"/>
    <tag k="addr:city" v="Зеленоград"/>
    <tag k="addr:street" v="18-й Микрорайон"/>
    <tag k="building" v="yes"/>
    <tag k="is_in" v="Russia"/>
    <tag k="landuse" v="service"/>
  </way>
  <way id="95542767" version="2" timestamp="2011-01-24T13:27:27Z" uid="115477" user="wowik" changeset="7073020">
    <nd ref="1107932073"/>
    <nd ref="1107932140"/>
    <nd ref="1107931990"/>
    <nd ref="1107932057"/>
    <nd ref="1107932073"/>
    <tag k="addr:city" v="Зеленоград"/>
    <tag k="addr:street" v="18-й Микрорайон"/>
    <tag k="building" v="yes"/>
    <tag k="is_in" v="Russia"/>
    <tag k="landuse" v="garages"/>
  </way>
  <way id="95542767" version="3" timestamp="2011-06-07T20:48:51Z" uid="133332" user="AMDmi3" changeset="8374030">
    <nd ref="1107932073"/>
    <nd ref="1107932140"/>
    <nd ref="1107931990"/>
    <nd ref="1107932057"/>
    <nd ref="1107932073"/>
    <tag k="addr:city" v="Зеленоград"/>
    <tag k="addr:street" v="18-й микрорайон"/>
    <tag k="building" v="yes"/>
    <tag k="is_in" v="Russia"/>
    <tag k="landuse" v="garages"/>
  </way>
  <way id="95542767" version="4" timestamp="2011-09-13T10:38:03Z" uid="29320" user="Komяpa" changeset="9288237">
    <nd ref="1107932073"/>
    <nd ref="1107932140"/>
    <nd ref="1107931990"/>
    <nd ref="1107932057"/>
    <nd ref="1107932073"/>
    <tag k="addr:city" v="Зеленоград"/>
    <tag k="addr:country" v="RU"/>
    <tag k="addr:street" v="18-й микрорайон"/>
    <tag k="building" v="garages"/>
  </way>
  <way id="95542767" version="5" timestamp="2012-03-27T11:54:15Z" uid="481934" user="iWowik" changeset="11115472">
    <nd ref="1107932073"/>
    <nd ref="1107932140"/>
    <nd ref="1107931990"/>
    <nd ref="1107932057"/>
    <nd ref="1107932073"/>
    <tag k="addr:city" v="Зеленоград"/>
    <tag k="addr:country" v="RU"/>
    <tag k="addr:region" v="Москва"/>
    <tag k="addr:street" v="18-й микрорайон"/>
    <tag k="building" v="garages"/>
  </way>
  <way id="95542768" version="1" timestamp="2011-01-17T18:50:33Z" uid="115477" user="wowik" changeset="7002711">
    <nd ref="1107932066"/>
    <nd ref="1107932130"/>
    <nd ref="1107932236"/>
    <nd ref="1107932051"/>
    <nd ref="1107932066"/>
    <tag k="addr:city" v="Зеленоград"/>
    <tag k="addr:housenumber" v="1804Бс1"/>
    <tag k="addr:street" v="18-й Микрорайон"/>
    <tag k="building" v="yes"/>
    <tag k="building:levels" v="24"/>
    <tag k="is_in" v="Russia"/>
  </way>
  <way id="95542768" version="2" timestamp="2011-01-20T08:04:04Z" uid="70696" user="xybot" changeset="7027691">
    <nd ref="1107932066"/>
    <nd ref="1107932130"/>
    <nd ref="1107932236"/>
    <nd ref="1107932051"/>
    <nd ref="1107932066"/>
    <tag k="addr:city" v="Зеленоград"/>
    <tag k="addr:housenumber" v="1804Б с1"/>
    <tag k="addr:street" v="18-й Микрорайон"/>
    <tag k="building" v="yes"/>
    <tag k="building:levels" v="24"/>
    <tag k="is_in" v="Russia"/>
  </way>
  <way id="95542768" version="3" timestamp="2011-06-07T20:48:51Z" uid="133332" user="AMDmi3" changeset="8374030">
    <nd ref="1107932066"/>
    <nd ref="1107932130"/>
    <nd ref="1107932236"/>
    <nd ref="1107932051"/>
    <nd ref="1107932066"/>
    <tag k="addr:city" v="Зеленоград"/>
    <tag k="addr:housenumber" v="1804Б с1"/>
    <tag k="addr:street" v="18-й микрорайон"/>
    <tag k="building" v="yes"/>
    <tag k="building:levels" v="24"/>
    <tag k="is_in" v="Russia"/>
  </way>
  <way id="95542768" version="4" timestamp="2011-09-13T10:23:46Z" uid="29320" user="Komяpa" changeset="9288237">
    <nd ref="1107932066"/>
    <nd ref="1107932130"/>
    <nd ref="1107932236"/>
    <nd ref="1107932051"/>
    <nd ref="1107932066"/>
    <tag k="addr:city" v="Зеленоград"/>
    <tag k="addr:country" v="RU"/>
    <tag k="addr:housenumber" v="1804Б с1"/>
    <tag k="addr:street" v="18-й микрорайон"/>
    <tag k="building" v="yes"/>
    <tag k="building:levels" v="24"/>
  </way>
  <way id="95542768" version="5" timestamp="2012-03-27T11:38:05Z" uid="481934" user="iWowik" changeset="11115472">
    <nd ref="1107932066"/>
    <nd ref="1107932130"/>
    <nd ref="1107932236"/>
    <nd ref="1107932051"/>
    <nd ref="1107932066"/>
    <tag k="addr:city" v="Зеленоград"/>
    <tag k="addr:country" v="RU"/>
    <tag k="addr:housenumber" v="1804Б с1"/>
    <tag k="addr:region" v="Москва"/>
    <tag k="addr:street" v="18-й микрорайон"/>
    <tag k="building" v="yes"/>
    <tag k="building:levels" v="24"/>
  </way>
  <way id="95542774" version="1" timestamp="2011-01-17T18:50:33Z" uid="115477" user="wowik" changeset="7002711">
    <nd ref="1107932111"/>
    <nd ref="1107932203"/>
    <nd ref="1107932306"/>
    <nd ref="1107931988"/>
    <nd ref="1107932111"/>
    <tag k="addr:city" v="Зеленоград"/>
    <tag k="addr:housenumber" v="1807с1"/>
    <tag k="addr:street" v="18-й Микрорайон"/>
    <tag k="building" v="yes"/>
    <tag k="is_in" v="Russia"/>
    <tag k="landuse" v="service"/>
  </way>
  <way id="95542774" version="2" timestamp="2011-01-19T17:09:50Z" uid="70696" user="xybot" changeset="7021015">
    <nd ref="1107932111"/>
    <nd ref="1107932203"/>
    <nd ref="1107932306"/>
    <nd ref="1107931988"/>
    <nd ref="1107932111"/>
    <tag k="addr:city" v="Зеленоград"/>
    <tag k="addr:housenumber" v="1807 с1"/>
    <tag k="addr:street" v="18-й Микрорайон"/>
    <tag k="building" v="yes"/>
    <tag k="is_in" v="Russia"/>
    <tag k="landuse" v="service"/>
  </way>
  <way id="95542774" version="3" timestamp="2011-06-07T20:48:52Z" uid="133332" user="AMDmi3" changeset="8374030">
    <nd ref="1107932111"/>
    <nd ref="1107932203"/>
    <nd ref="1107932306"/>
    <nd ref="1107931988"/>
    <nd ref="1107932111"/>
    <tag k="addr:city" v="Зеленоград"/>
    <tag k="addr:housenumber" v="1807 с1"/>
    <tag k="addr:street" v="18-й микрорайон"/>
    <tag k="building" v="yes"/>
    <tag k="is_in" v="Russia"/>
    <tag k="landuse" v="service"/>
  </way>
  <way id="95542774" version="4" timestamp="2011-09-13T10:23:48Z" uid="29320" user="Komяpa" changeset="9288237">
    <nd ref="1107932111"/>
    <nd ref="1107932203"/>
    <nd ref="1107932306"/>
    <nd ref="1107931988"/>
    <nd ref="1107932111"/>
    <tag k="addr:city" v="Зеленоград"/>
    <tag k="addr:country" v="RU"/>
    <tag k="addr:housenumber" v="1807 с1"/>
    <tag k="addr:street" v="18-й микрорайон"/>
    <tag k="building" v="service"/>
  </way>
  <way id="95542774" version="5" timestamp="2012-03-27T11:38:07Z" uid="481934" user="iWowik" changeset="11115472">
    <nd ref="1107932111"/>
    <nd ref="1107932203"/>
    <nd ref="1107932306"/>
    <nd ref="1107931988"/>
    <nd ref="1107932111"/>
    <tag k="addr:city" v="Зеленоград"/>
    <tag k="addr:country" v="RU"/>
    <tag k="addr:housenumber" v="1807 с1"/>
    <tag k="addr:region" v="Москва"/>
    <tag k="addr:street" v="18-й микрорайон"/>
    <tag k="building" v="service"/>
  </way>
  <way id="95542774" version="6" timestamp="2012-03-30T11:10:13Z" uid="643559" user="filimonic" changeset="11151668">
    <nd ref="1107932111"/>
    <nd ref="1107932203"/>
    <nd ref="1107932306"/>
    <nd ref="1107931988"/>
    <nd ref="1107932111"/>
    <tag k="addr:city" v="Зеленоград"/>
    <tag k="addr:country" v="RU"/>
    <tag k="addr:housenumber" v="1807 с1"/>
    <tag k="addr:region" v="Москва"/>
    <tag k="addr:street" v="18-й микрорайон"/>
    <tag k="amenity" v="police"/>
  </way>
  <way id="95542775" version="1" timestamp="2011-01-17T18:50:33Z" uid="115477" user="wowik" changeset="7002711">
    <nd ref="1107932079"/>
    <nd ref="1107932091"/>
    <nd ref="1107932287"/>
    <nd ref="1107932147"/>
    <nd ref="1107932005"/>
    <nd ref="1107932060"/>
    <nd ref="1107932079"/>
    <tag k="addr:city" v="Зеленоград"/>
    <tag k="addr:street" v="18-й Микрорайон"/>
    <tag k="building" v="yes"/>
    <tag k="is_in" v="Russia"/>
    <tag k="landuse" v="service"/>
  </way>
  <way id="95542775" version="2" timestamp="2011-06-07T20:48:52Z" uid="133332" user="AMDmi3" changeset="8374030">
    <nd ref="1107932079"/>
    <nd ref="1107932091"/>
    <nd ref="1107932287"/>
    <nd ref="1107932147"/>
    <nd ref="1107932005"/>
    <nd ref="1107932060"/>
    <nd ref="1107932079"/>
    <tag k="addr:city" v="Зеленоград"/>
    <tag k="addr:street" v="18-й микрорайон"/>
    <tag k="building" v="yes"/>
    <tag k="is_in" v="Russia"/>
    <tag k="landuse" v="service"/>
  </way>
  <way id="95542775" version="3" timestamp="2011-09-13T10:38:03Z" uid="29320" user="Komяpa" changeset="9288237">
    <nd ref="1107932079"/>
    <nd ref="1107932091"/>
    <nd ref="1107932287"/>
    <nd ref="1107932147"/>
    <nd ref="1107932005"/>
    <nd ref="1107932060"/>
    <nd ref="1107932079"/>
    <tag k="addr:city" v="Зеленоград"/>
    <tag k="addr:country" v="RU"/>
    <tag k="addr:street" v="18-й микрорайон"/>
    <tag k="building" v="service"/>
  </way>
  <way id="95542775" version="4" timestamp="2012-03-27T11:55:06Z" uid="481934" user="iWowik" changeset="11115472">
    <nd ref="1107932079"/>
    <nd ref="1107932091"/>
    <nd ref="1107932287"/>
    <nd ref="1107932147"/>
    <nd ref="1107932005"/>
    <nd ref="1107932060"/>
    <nd ref="1107932079"/>
    <tag k="addr:city" v="Зеленоград"/>
    <tag k="addr:country" v="RU"/>
    <tag k="addr:region" v="Москва"/>
    <tag k="addr:street" v="18-й микрорайон"/>
    <tag k="building" v="service"/>
  </way>
  <way id="95542780" version="1" timestamp="2011-01-17T18:50:34Z" uid="115477" user="wowik" changeset="7002711">
    <nd ref="1107932064"/>
    <nd ref="1107932128"/>
    <nd ref="1107931981"/>
    <nd ref="1107932049"/>
    <nd ref="1107932064"/>
    <tag k="addr:city" v="Зеленоград"/>
    <tag k="addr:street" v="18-й Микрорайон"/>
    <tag k="building" v="yes"/>
    <tag k="is_in" v="Russia"/>
    <tag k="landuse" v="service"/>
  </way>
  <way id="95542780" version="2" timestamp="2011-06-07T20:48:52Z" uid="133332" user="AMDmi3" changeset="8374030">
    <nd ref="1107932064"/>
    <nd ref="1107932128"/>
    <nd ref="1107931981"/>
    <nd ref="1107932049"/>
    <nd ref="1107932064"/>
    <tag k="addr:city" v="Зеленоград"/>
    <tag k="addr:street" v="18-й микрорайон"/>
    <tag k="building" v="yes"/>
    <tag k="is_in" v="Russia"/>
    <tag k="landuse" v="service"/>
  </way>
  <way id="95542780" version="3" timestamp="2011-09-13T10:38:04Z" uid="29320" user="Komяpa" changeset="9288237">
    <nd ref="1107932064"/>
    <nd ref="1107932128"/>
    <nd ref="1107931981"/>
    <nd ref="1107932049"/>
    <nd ref="1107932064"/>
    <tag k="addr:city" v="Зеленоград"/>
    <tag k="addr:country" v="RU"/>
    <tag k="addr:street" v="18-й микрорайон"/>
    <tag k="building" v="service"/>
  </way>
  <way id="95542780" version="4" timestamp="2012-03-27T11:52:58Z" uid="481934" user="iWowik" changeset="11115472">
    <nd ref="1107932064"/>
    <nd ref="1107932128"/>
    <nd ref="1107931981"/>
    <nd ref="1107932049"/>
    <nd ref="1107932064"/>
    <tag k="addr:city" v="Зеленоград"/>
    <tag k="addr:country" v="RU"/>
    <tag k="addr:region" v="Москва"/>
    <tag k="addr:street" v="18-й микрорайон"/>
    <tag k="building" v="service"/>
  </way>
  <way id="95542781" version="1" timestamp="2011-01-17T18:50:34Z" uid="115477" user="wowik" changeset="7002711">
    <nd ref="1107932188"/>
    <nd ref="1107932023"/>
    <nd ref="1107932095"/>
    <nd ref="1107932141"/>
    <nd ref="1107932301"/>
    <nd ref="1107932150"/>
    <nd ref="1107932188"/>
    <tag k="addr:city" v="Зеленоград"/>
    <tag k="addr:street" v="18-й Микрорайон"/>
    <tag k="building" v="yes"/>
    <tag k="building:levels" v="1"/>
    <tag k="is_in" v="Russia"/>
  </way>
  <way id="95542781" version="2" timestamp="2011-06-07T20:48:53Z" uid="133332" user="AMDmi3" changeset="8374030">
    <nd ref="1107932188"/>
    <nd ref="1107932023"/>
    <nd ref="1107932095"/>
    <nd ref="1107932141"/>
    <nd ref="1107932301"/>
    <nd ref="1107932150"/>
    <nd ref="1107932188"/>
    <tag k="addr:city" v="Зеленоград"/>
    <tag k="addr:street" v="18-й микрорайон"/>
    <tag k="building" v="yes"/>
    <tag k="building:levels" v="1"/>
    <tag k="is_in" v="Russia"/>
  </way>
  <way id="95542781" version="3" timestamp="2011-09-13T10:38:04Z" uid="29320" user="Komяpa" changeset="9288237">
    <nd ref="1107932188"/>
    <nd ref="1107932023"/>
    <nd ref="1107932095"/>
    <nd ref="1107932141"/>
    <nd ref="1107932301"/>
    <nd ref="1107932150"/>
    <nd ref="1107932188"/>
    <tag k="addr:city" v="Зеленоград"/>
    <tag k="addr:country" v="RU"/>
    <tag k="addr:street" v="18-й микрорайон"/>
    <tag k="building" v="yes"/>
    <tag k="building:levels" v="1"/>
  </way>
  <way id="95542781" version="4" timestamp="2012-03-27T11:54:49Z" uid="481934" user="iWowik" changeset="11115472">
    <nd ref="1107932188"/>
    <nd ref="1107932023"/>
    <nd ref="1107932095"/>
    <nd ref="1107932141"/>
    <nd ref="1107932301"/>
    <nd ref="1107932150"/>
    <nd ref="1107932188"/>
    <tag k="addr:city" v="Зеленоград"/>
    <tag k="addr:country" v="RU"/>
    <tag k="addr:region" v="Москва"/>
    <tag k="addr:street" v="18-й микрорайон"/>
    <tag k="building" v="yes"/>
    <tag k="building:levels" v="1"/>
  </way>
  <way id="95542782" version="1" timestamp="2011-01-17T18:50:35Z" uid="115477" user="wowik" changeset="7002711">
    <nd ref="1107932132"/>
    <nd ref="1107931956"/>
    <nd ref="1107932208"/>
    <nd ref="1107932322"/>
    <nd ref="1107932132"/>
    <tag k="addr:city" v="Зеленоград"/>
    <tag k="addr:street" v="18-й Микрорайон"/>
    <tag k="building" v="yes"/>
    <tag k="is_in" v="Russia"/>
  </way>
  <way id="95542782" version="2" timestamp="2011-01-24T13:27:27Z" uid="115477" user="wowik" changeset="7073020">
    <nd ref="1107932132"/>
    <nd ref="1107931956"/>
    <nd ref="1107932208"/>
    <nd ref="1107932322"/>
    <nd ref="1107932132"/>
    <tag k="addr:city" v="Зеленоград"/>
    <tag k="addr:street" v="18-й Микрорайон"/>
    <tag k="building" v="yes"/>
    <tag k="is_in" v="Russia"/>
    <tag k="landuse" v="garages"/>
  </way>
  <way id="95542782" version="3" timestamp="2011-06-07T20:48:53Z" uid="133332" user="AMDmi3" changeset="8374030">
    <nd ref="1107932132"/>
    <nd ref="1107931956"/>
    <nd ref="1107932208"/>
    <nd ref="1107932322"/>
    <nd ref="1107932132"/>
    <tag k="addr:city" v="Зеленоград"/>
    <tag k="addr:street" v="18-й микрорайон"/>
    <tag k="building" v="yes"/>
    <tag k="is_in" v="Russia"/>
    <tag k="landuse" v="garages"/>
  </way>
  <way id="95542782" version="4" timestamp="2011-09-13T10:38:04Z" uid="29320" user="Komяpa" changeset="9288237">
    <nd ref="1107932132"/>
    <nd ref="1107931956"/>
    <nd ref="1107932208"/>
    <nd ref="1107932322"/>
    <nd ref="1107932132"/>
    <tag k="addr:city" v="Зеленоград"/>
    <tag k="addr:country" v="RU"/>
    <tag k="addr:street" v="18-й микрорайон"/>
    <tag k="building" v="garages"/>
  </way>
  <way id="95542782" version="5" timestamp="2012-03-27T11:53:46Z" uid="481934" user="iWowik" changeset="11115472">
    <nd ref="1107932132"/>
    <nd ref="1107931956"/>
    <nd ref="1107932208"/>
    <nd ref="1107932322"/>
    <nd ref="1107932132"/>
    <tag k="addr:city" v="Зеленоград"/>
    <tag k="addr:country" v="RU"/>
    <tag k="addr:region" v="Москва"/>
    <tag k="addr:street" v="18-й микрорайон"/>
    <tag k="building" v="garages"/>
  </way>
  <way id="95542783" version="1" timestamp="2011-01-17T18:50:35Z" uid="115477" user="wowik" changeset="7002711">
    <nd ref="1107932309"/>
    <nd ref="1107931991"/>
    <nd ref="1107932149"/>
    <nd ref="1107932275"/>
    <nd ref="1107932309"/>
    <tag k="addr:city" v="Зеленоград"/>
    <tag k="addr:street" v="18-й Микрорайон"/>
    <tag k="building" v="yes"/>
    <tag k="is_in" v="Russia"/>
  </way>
  <way id="95542783" version="2" timestamp="2011-01-24T13:27:28Z" uid="115477" user="wowik" changeset="7073020">
    <nd ref="1107932309"/>
    <nd ref="1107931991"/>
    <nd ref="1107932149"/>
    <nd ref="1107932275"/>
    <nd ref="1107932309"/>
    <tag k="addr:city" v="Зеленоград"/>
    <tag k="addr:street" v="18-й Микрорайон"/>
    <tag k="building" v="yes"/>
    <tag k="is_in" v="Russia"/>
    <tag k="landuse" v="garages"/>
  </way>
  <way id="95542783" version="3" timestamp="2011-06-07T20:48:53Z" uid="133332" user="AMDmi3" changeset="8374030">
    <nd ref="1107932309"/>
    <nd ref="1107931991"/>
    <nd ref="1107932149"/>
    <nd ref="1107932275"/>
    <nd ref="1107932309"/>
    <tag k="addr:city" v="Зеленоград"/>
    <tag k="addr:street" v="18-й микрорайон"/>
    <tag k="building" v="yes"/>
    <tag k="is_in" v="Russia"/>
    <tag k="landuse" v="garages"/>
  </way>
  <way id="95542783" version="4" timestamp="2011-09-13T10:38:04Z" uid="29320" user="Komяpa" changeset="9288237">
    <nd ref="1107932309"/>
    <nd ref="1107931991"/>
    <nd ref="1107932149"/>
    <nd ref="1107932275"/>
    <nd ref="1107932309"/>
    <tag k="addr:city" v="Зеленоград"/>
    <tag k="addr:country" v="RU"/>
    <tag k="addr:street" v="18-й микрорайон"/>
    <tag k="building" v="garages"/>
  </way>
  <way id="95542783" version="5" timestamp="2012-03-27T11:51:15Z" uid="481934" user="iWowik" changeset="11115472">
    <nd ref="1107932309"/>
    <nd ref="1107931991"/>
    <nd ref="1107932149"/>
    <nd ref="1107932275"/>
    <nd ref="1107932309"/>
    <tag k="addr:city" v="Зеленоград"/>
    <tag k="addr:country" v="RU"/>
    <tag k="addr:region" v="Москва"/>
    <tag k="addr:street" v="18-й микрорайон"/>
    <tag k="building" v="garages"/>
  </way>
  <way id="95542784" version="1" timestamp="2011-01-17T18:50:35Z" uid="115477" user="wowik" changeset="7002711">
    <nd ref="1107932043"/>
    <nd ref="1107932108"/>
    <nd ref="1107931959"/>
    <nd ref="1107931950"/>
    <nd ref="1107932043"/>
    <tag k="addr:city" v="Зеленоград"/>
    <tag k="addr:street" v="18-й Микрорайон"/>
    <tag k="building" v="yes"/>
    <tag k="is_in" v="Russia"/>
  </way>
  <way id="95542784" version="2" timestamp="2011-06-07T20:49:02Z" uid="133332" user="AMDmi3" changeset="8374030">
    <nd ref="1107932043"/>
    <nd ref="1107932108"/>
    <nd ref="1107931959"/>
    <nd ref="1107931950"/>
    <nd ref="1107932043"/>
    <tag k="addr:city" v="Зеленоград"/>
    <tag k="addr:street" v="18-й микрорайон"/>
    <tag k="building" v="yes"/>
    <tag k="is_in" v="Russia"/>
  </way>
  <way id="95542784" version="3" timestamp="2011-09-13T10:38:04Z" uid="29320" user="Komяpa" changeset="9288237">
    <nd ref="1107932043"/>
    <nd ref="1107932108"/>
    <nd ref="1107931959"/>
    <nd ref="1107931950"/>
    <nd ref="1107932043"/>
    <tag k="addr:city" v="Зеленоград"/>
    <tag k="addr:country" v="RU"/>
    <tag k="addr:street" v="18-й микрорайон"/>
    <tag k="building" v="yes"/>
  </way>
  <way id="95542784" version="4" timestamp="2012-03-27T11:52:37Z" uid="481934" user="iWowik" changeset="11115472">
    <nd ref="1107932043"/>
    <nd ref="1107932108"/>
    <nd ref="1107931959"/>
    <nd ref="1107931950"/>
    <nd ref="1107932043"/>
    <tag k="addr:city" v="Зеленоград"/>
    <tag k="addr:country" v="RU"/>
    <tag k="addr:region" v="Москва"/>
    <tag k="addr:street" v="18-й микрорайон"/>
    <tag k="building" v="yes"/>
  </way>
  <way id="95542785" version="1" timestamp="2011-01-17T18:50:35Z" uid="115477" user="wowik" changeset="7002711">
    <nd ref="1107932038"/>
    <nd ref="1107932101"/>
    <nd ref="1107931958"/>
    <nd ref="1107932022"/>
    <nd ref="1107932038"/>
    <tag k="addr:city" v="Зеленоград"/>
    <tag k="addr:street" v="18-й Микрорайон"/>
    <tag k="building" v="yes"/>
    <tag k="is_in" v="Russia"/>
    <tag k="landuse" v="service"/>
  </way>
  <way id="95542785" version="2" timestamp="2011-06-07T20:49:02Z" uid="133332" user="AMDmi3" changeset="8374030">
    <nd ref="1107932038"/>
    <nd ref="1107932101"/>
    <nd ref="1107931958"/>
    <nd ref="1107932022"/>
    <nd ref="1107932038"/>
    <tag k="addr:city" v="Зеленоград"/>
    <tag k="addr:street" v="18-й микрорайон"/>
    <tag k="building" v="yes"/>
    <tag k="is_in" v="Russia"/>
    <tag k="landuse" v="service"/>
  </way>
  <way id="95542785" version="3" timestamp="2011-09-13T10:38:04Z" uid="29320" user="Komяpa" changeset="9288237">
    <nd ref="1107932038"/>
    <nd ref="1107932101"/>
    <nd ref="1107931958"/>
    <nd ref="1107932022"/>
    <nd ref="1107932038"/>
    <tag k="addr:city" v="Зеленоград"/>
    <tag k="addr:country" v="RU"/>
    <tag k="addr:street" v="18-й микрорайон"/>
    <tag k="building" v="service"/>
  </way>
  <way id="95542785" version="4" timestamp="2012-03-27T11:54:17Z" uid="481934" user="iWowik" changeset="11115472">
    <nd ref="1107932038"/>
    <nd ref="1107932101"/>
    <nd ref="1107931958"/>
    <nd ref="1107932022"/>
    <nd ref="1107932038"/>
    <tag k="addr:city" v="Зеленоград"/>
    <tag k="addr:country" v="RU"/>
    <tag k="addr:region" v="Москва"/>
    <tag k="addr:street" v="18-й микрорайон"/>
    <tag k="building" v="service"/>
  </way>
  <way id="95542786" version="1" timestamp="2011-01-17T18:50:36Z" uid="115477" user="wowik" changeset="7002711">
    <nd ref="1107932146"/>
    <nd ref="1107932251"/>
    <nd ref="1107932221"/>
    <nd ref="1107932330"/>
    <nd ref="1107932146"/>
    <tag k="addr:city" v="Зеленоград"/>
    <tag k="addr:street" v="18-й Микрорайон"/>
    <tag k="building" v="yes"/>
    <tag k="building:levels" v="1"/>
    <tag k="is_in" v="Russia"/>
  </way>
  <way id="95542786" version="2" timestamp="2011-06-07T20:49:03Z" uid="133332" user="AMDmi3" changeset="8374030">
    <nd ref="1107932146"/>
    <nd ref="1107932251"/>
    <nd ref="1107932221"/>
    <nd ref="1107932330"/>
    <nd ref="1107932146"/>
    <tag k="addr:city" v="Зеленоград"/>
    <tag k="addr:street" v="18-й микрорайон"/>
    <tag k="building" v="yes"/>
    <tag k="building:levels" v="1"/>
    <tag k="is_in" v="Russia"/>
  </way>
  <way id="95542786" version="3" timestamp="2011-09-13T10:38:05Z" uid="29320" user="Komяpa" changeset="9288237">
    <nd ref="1107932146"/>
    <nd ref="1107932251"/>
    <nd ref="1107932221"/>
    <nd ref="1107932330"/>
    <nd ref="1107932146"/>
    <tag k="addr:city" v="Зеленоград"/>
    <tag k="addr:country" v="RU"/>
    <tag k="addr:street" v="18-й микрорайон"/>
    <tag k="building" v="yes"/>
    <tag k="building:levels" v="1"/>
  </way>
  <way id="95542786" version="4" timestamp="2012-03-27T11:53:26Z" uid="481934" user="iWowik" changeset="11115472">
    <nd ref="1107932146"/>
    <nd ref="1107932251"/>
    <nd ref="1107932221"/>
    <nd ref="1107932330"/>
    <nd ref="1107932146"/>
    <tag k="addr:city" v="Зеленоград"/>
    <tag k="addr:country" v="RU"/>
    <tag k="addr:region" v="Москва"/>
    <tag k="addr:street" v="18-й микрорайон"/>
    <tag k="building" v="yes"/>
    <tag k="building:levels" v="1"/>
  </way>
  <way id="95542750" version="2" timestamp="2012-07-20T23:56:58Z" uid="722137" user="OSMF Redaction Account" changeset="12396619"/>
  <way id="95542757" version="5" timestamp="2012-07-20T23:57:00Z" uid="722137" user="OSMF Redaction Account" changeset="12396619"/>
  <way id="95542759" version="5" timestamp="2012-07-20T23:56:37Z" uid="722137" user="OSMF Redaction Account" changeset="12396619"/>
  <way id="95542763" version="5" timestamp="2012-07-20T23:56:50Z" uid="722137" user="OSMF Redaction Account" changeset="12396619"/>
  <way id="95542764" version="5" timestamp="2012-07-20T23:56:53Z" uid="722137" user="OSMF Redaction Account" changeset="12396619"/>
  <way id="95542765" version="5" timestamp="2012-07-20T23:56:54Z" uid="722137" user="OSMF Redaction Account" changeset="12396619"/>
  <way id="95542767" version="6" timestamp="2012-07-20T23:56:36Z" uid="722137" user="OSMF Redaction Account" changeset="12396619"/>
  <way id="95542768" version="6" timestamp="2012-07-20T23:56:41Z" uid="722137" user="OSMF Redaction Account" changeset="12396619"/>
  <way id="95542774" version="7" timestamp="2012-07-20T23:56:53Z" uid="722137" user="OSMF Redaction Account" changeset="12396619"/>
  <way id="95542775" version="5" timestamp="2012-07-20T23:56:43Z" uid="722137" user="OSMF Redaction Account" changeset="12396619"/>
  <way id="95542780" version="5" timestamp="2012-07-20T23:56:54Z" uid="722137" user="OSMF Redaction Account" changeset="12396619"/>
  <way id="95542781" version="5" timestamp="2012-07-20T23:56:56Z" uid="722137" user="OSMF Redaction Account" changeset="12396619"/>
  <way id="95542782" version="6" timestamp="2012-07-20T23:56:39Z" uid="722137" user="OSMF Redaction Account" changeset="12396619"/>
  <way id="95542783" version="6" timestamp="2012-07-20T23:56:39Z" uid="722137" user="OSMF Redaction Account" changeset="12396619"/>
  <way id="95542784" version="5" timestamp="2012-07-20T23:56:53Z" uid="722137" user="OSMF Redaction Account" changeset="12396619"/>
  <way id="95542785" version="5" timestamp="2012-07-20T23:57:00Z" uid="722137" user="OSMF Redaction Account" changeset="12396619"/>
  <way id="95542786" version="5" timestamp="2012-07-20T23:56:55Z" uid="722137" user="OSMF Redaction Account" changeset="12396619"/>
</osm>
