<?xml version='1.0' encoding='UTF-8'?>
<osm version="0.6" generator="libosmium/2.20.0">
  <way id="9603337" version="4" timestamp="2010-02-14T15:44:01Z" uid="74617" user="JohnSmith" changeset="3874884">
    <nd ref="74771135"/>
    <nd ref="74773999"/>
    <nd ref="74774000"/>
    <tag k="highway" v="residential"/>
    <tag k="maxspeed" v="50"/>
    <tag k="name" v="Laurence Street"/>
  </way>
  <way id="9603337" version="5" timestamp="2012-01-15T08:37:35Z" uid="147510" user="woodpeck_fixbot" changeset="10395278">
    <nd ref="74771135"/>
    <nd ref="74773999"/>
    <nd ref="74774000"/>
    <tag k="highway" v="residential"/>
    <tag k="name" v="Laurence Street"/>
  </way>
  <way id="9603360" version="4" timestamp="2010-02-14T15:44:01Z" uid="74617" user="JohnSmith" changeset="3874884">
    <nd ref="74774000"/>
    <nd ref="74774119"/>
    <nd ref="74774120"/>
    <tag k="highway" v="residential"/>
    <tag k="maxspeed" v="50"/>
    <tag k="name" v="Laurence Street"/>
  </way>
  <way id="9603360" version="5" timestamp="2012-01-15T08:37:36Z" uid="147510" user="woodpeck_fixbot" changeset="10395278">
    <nd ref="74774000"/>
    <nd ref="74774119"/>
    <nd ref="74774120"/>
    <tag k="highway" v="residential"/>
    <tag k="name" v="Laurence Street"/>
  </way>
  <way id="9603420" version="12" timestamp="2010-07-09T02:55:21Z" uid="74617" user="JohnSmith" changeset="5170739">
    <nd ref="74914670"/>
    <nd ref="36244050"/>
    <tag k="highway" v="residential"/>
    <tag k="maxspeed" v="50"/>
    <tag k="maxspeed:source" v="default residential speed limit in Australia"/>
    <tag k="name" v="McPherson Street"/>
    <tag k="source" v="yahoo"/>
    <tag k="source:name" v="survey"/>
  </way>
  <way id="9603420" version="13" timestamp="2012-01-15T08:37:37Z" uid="147510" user="woodpeck_fixbot" changeset="10395278">
    <nd ref="74914670"/>
    <nd ref="36244050"/>
    <tag k="highway" v="residential"/>
    <tag k="name" v="McPherson Street"/>
    <tag k="source" v="yahoo"/>
    <tag k="source:name" v="survey"/>
  </way>
  <way id="9603503" version="4" timestamp="2010-02-14T15:43:59Z" uid="74617" user="JohnSmith" changeset="3874884">
    <nd ref="60016603"/>
    <nd ref="74775085"/>
    <nd ref="74775086"/>
    <tag k="highway" v="residential"/>
    <tag k="maxspeed" v="50"/>
    <tag k="name" v="Kate Street"/>
  </way>
  <way id="9603503" version="5" timestamp="2012-01-15T08:37:38Z" uid="147510" user="woodpeck_fixbot" changeset="10395278">
    <nd ref="60016603"/>
    <nd ref="74775085"/>
    <nd ref="74775086"/>
    <tag k="highway" v="residential"/>
    <tag k="name" v="Kate Street"/>
  </way>
  <way id="9603527" version="6" timestamp="2010-02-14T15:43:59Z" uid="74617" user="JohnSmith" changeset="3874884">
    <nd ref="60016612"/>
    <nd ref="74775086"/>
    <nd ref="79711610"/>
    <nd ref="74775226"/>
    <tag k="highway" v="residential"/>
    <tag k="maxspeed" v="50"/>
    <tag k="name" v="Trackson Street"/>
  </way>
  <way id="9603527" version="7" timestamp="2012-01-15T08:37:39Z" uid="147510" user="woodpeck_fixbot" changeset="10395278">
    <nd ref="60016612"/>
    <nd ref="74775086"/>
    <nd ref="79711610"/>
    <nd ref="74775226"/>
    <tag k="highway" v="residential"/>
    <tag k="name" v="Trackson Street"/>
  </way>
  <way id="9603760" version="6" timestamp="2010-07-09T02:59:46Z" uid="74617" user="JohnSmith" changeset="5170739">
    <nd ref="74776453"/>
    <nd ref="75022925"/>
    <nd ref="32555811"/>
    <tag k="highway" v="residential"/>
    <tag k="maxspeed" v="50"/>
    <tag k="maxspeed:source" v="default residential speed limit in Australia"/>
    <tag k="name" v="Fanny Street"/>
    <tag k="source" v="yahoo"/>
    <tag k="source:name" v="survey"/>
  </way>
  <way id="9603760" version="7" timestamp="2012-01-15T08:37:42Z" uid="147510" user="woodpeck_fixbot" changeset="10395278">
    <nd ref="74776453"/>
    <nd ref="75022925"/>
    <nd ref="32555811"/>
    <tag k="highway" v="residential"/>
    <tag k="name" v="Fanny Street"/>
    <tag k="source" v="yahoo"/>
    <tag k="source:name" v="survey"/>
  </way>
  <way id="9603777" version="10" timestamp="2010-07-09T02:59:01Z" uid="74617" user="JohnSmith" changeset="5170739">
    <nd ref="74776529"/>
    <nd ref="74772928"/>
    <nd ref="74777933"/>
    <tag k="highway" v="residential"/>
    <tag k="maxspeed" v="50"/>
    <tag k="maxspeed:source" v="default residential speed limit in Australia"/>
    <tag k="name" v="Bent Street"/>
    <tag k="source" v="yahoo"/>
    <tag k="source:name" v="survey"/>
  </way>
  <way id="9603777" version="11" timestamp="2010-10-13T10:46:50Z" uid="4467" user="Rosscoe" changeset="6028045">
    <nd ref="74776529"/>
    <nd ref="74772928"/>
    <nd ref="74777933"/>
    <tag k="highway" v="residential"/>
    <tag k="maxspeed" v="50"/>
    <tag k="name" v="Bent Street"/>
    <tag k="source" v="yahoo"/>
    <tag k="source:maxspeed" v="default residential speed limit in Australia"/>
    <tag k="source:name" v="survey"/>
  </way>
  <way id="9603777" version="12" timestamp="2012-01-15T08:37:43Z" uid="147510" user="woodpeck_fixbot" changeset="10395278">
    <nd ref="74776529"/>
    <nd ref="74772928"/>
    <nd ref="74777933"/>
    <tag k="highway" v="residential"/>
    <tag k="name" v="Bent Street"/>
    <tag k="source" v="yahoo"/>
    <tag k="source:maxspeed" v="default residential speed limit in Australia"/>
    <tag k="source:name" v="survey"/>
  </way>
  <way id="9603923" version="4" timestamp="2010-07-09T03:00:20Z" uid="74617" user="JohnSmith" changeset="5170739">
    <nd ref="74776453"/>
    <nd ref="74776528"/>
    <nd ref="74776452"/>
    <nd ref="74776529"/>
    <nd ref="74776453"/>
    <tag k="highway" v="residential"/>
    <tag k="junction" v="roundabout"/>
    <tag k="maxspeed" v="50"/>
    <tag k="maxspeed:source" v="default residential speed limit in Australia"/>
  </way>
  <way id="9603923" version="5" timestamp="2012-01-15T08:37:47Z" uid="147510" user="woodpeck_fixbot" changeset="10395278">
    <nd ref="74776453"/>
    <nd ref="74776528"/>
    <nd ref="74776452"/>
    <nd ref="74776529"/>
    <nd ref="74776453"/>
    <tag k="highway" v="residential"/>
    <tag k="junction" v="roundabout"/>
  </way>
  <way id="9603947" version="15" timestamp="2010-07-09T02:53:01Z" uid="74617" user="JohnSmith" changeset="5170739">
    <nd ref="74777934"/>
    <nd ref="75019252"/>
    <nd ref="35914036"/>
    <nd ref="75018957"/>
    <nd ref="75011310"/>
    <tag k="highway" v="residential"/>
    <tag k="maxspeed" v="50"/>
    <tag k="maxspeed:source" v="default residential speed limit in Australia"/>
    <tag k="name" v="Bent Street"/>
    <tag k="source" v="yahoo"/>
    <tag k="source:name" v="survey"/>
  </way>
  <way id="9603947" version="16" timestamp="2010-10-13T10:46:55Z" uid="4467" user="Rosscoe" changeset="6028045">
    <nd ref="74777934"/>
    <nd ref="75019252"/>
    <nd ref="35914036"/>
    <nd ref="75018957"/>
    <nd ref="75011310"/>
    <tag k="highway" v="residential"/>
    <tag k="maxspeed" v="50"/>
    <tag k="name" v="Bent Street"/>
    <tag k="source" v="yahoo"/>
    <tag k="source:maxspeed" v="default residential speed limit in Australia"/>
    <tag k="source:name" v="survey"/>
  </way>
  <way id="9603947" version="17" timestamp="2012-01-15T08:37:49Z" uid="147510" user="woodpeck_fixbot" changeset="10395278">
    <nd ref="74777934"/>
    <nd ref="75019252"/>
    <nd ref="35914036"/>
    <nd ref="75018957"/>
    <nd ref="75011310"/>
    <tag k="highway" v="residential"/>
    <tag k="name" v="Bent Street"/>
    <tag k="source" v="yahoo"/>
    <tag k="source:maxspeed" v="default residential speed limit in Australia"/>
    <tag k="source:name" v="survey"/>
  </way>
  <way id="9603957" version="8" timestamp="2010-07-09T02:56:53Z" uid="74617" user="JohnSmith" changeset="5170739">
    <nd ref="74777844"/>
    <nd ref="75021896"/>
    <nd ref="75018620"/>
    <nd ref="32555818"/>
    <tag k="highway" v="residential"/>
    <tag k="maxspeed" v="50"/>
    <tag k="maxspeed:source" v="default residential speed limit in Australia"/>
    <tag k="name" v="Capulet Street"/>
    <tag k="source" v="yahoo"/>
    <tag k="source:name" v="survey"/>
  </way>
  <way id="9603957" version="9" timestamp="2010-10-13T10:46:39Z" uid="4467" user="Rosscoe" changeset="6028045">
    <nd ref="74777844"/>
    <nd ref="75021896"/>
    <nd ref="75018620"/>
    <nd ref="32555818"/>
    <tag k="highway" v="residential"/>
    <tag k="maxspeed" v="50"/>
    <tag k="name" v="Capulet Street"/>
    <tag k="source" v="yahoo"/>
    <tag k="source:maxspeed" v="default residential speed limit in Australia"/>
    <tag k="source:name" v="survey"/>
  </way>
  <way id="9603957" version="10" timestamp="2012-01-15T08:37:53Z" uid="147510" user="woodpeck_fixbot" changeset="10395278">
    <nd ref="74777844"/>
    <nd ref="75021896"/>
    <nd ref="75018620"/>
    <nd ref="32555818"/>
    <tag k="highway" v="residential"/>
    <tag k="name" v="Capulet Street"/>
    <tag k="source" v="yahoo"/>
    <tag k="source:maxspeed" v="default residential speed limit in Australia"/>
    <tag k="source:name" v="survey"/>
  </way>
  <way id="9603777" version="13" timestamp="2012-07-19T12:51:40Z" uid="722137" user="OSMF Redaction Account" changeset="12326864">
    <nd ref="74776529"/>
    <nd ref="74772928"/>
    <nd ref="74777933"/>
    <tag k="highway" v="residential"/>
    <tag k="name" v="Bent Street"/>
    <tag k="source" v="yahoo"/>
    <tag k="source:name" v="survey"/>
  </way>
  <way id="9603947" version="18" timestamp="2012-07-19T12:51:40Z" uid="722137" user="OSMF Redaction Account" changeset="12326864">
    <nd ref="74777934"/>
    <nd ref="75019252"/>
    <nd ref="35914036"/>
    <nd ref="75018957"/>
    <nd ref="75011310"/>
    <tag k="highway" v="residential"/>
    <tag k="name" v="Bent Street"/>
    <tag k="source" v="yahoo"/>
    <tag k="source:name" v="survey"/>
  </way>
  <way id="9603957" version="11" timestamp="2012-07-19T12:51:41Z" uid="722137" user="OSMF Redaction Account" changeset="12326864">
    <nd ref="74777844"/>
    <nd ref="75021896"/>
    <nd ref="75018620"/>
    <nd ref="32555818"/>
    <tag k="highway" v="residential"/>
    <tag k="name" v="Capulet Street"/>
    <tag k="source" v="yahoo"/>
    <tag k="source:name" v="survey"/>
  </way>
</osm>
