<?xml version='1.0' encoding='UTF-8'?>
<osm version="0.6" generator="libosmium/2.20.0">
  <way id="96051577" version="1" timestamp="2011-01-21T10:45:17Z" uid="115477" user="wowik" changeset="7038966">
    <nd ref="605272698"/>
    <nd ref="1112883001"/>
    <nd ref="605272699"/>
    <nd ref="1112883397"/>
    <nd ref="1112883273"/>
    <nd ref="1112883359"/>
    <nd ref="1112883495"/>
    <nd ref="1112883531"/>
    <nd ref="1112883448"/>
    <nd ref="1112883532"/>
    <nd ref="1112883054"/>
    <nd ref="1112883307"/>
    <nd ref="1112883499"/>
    <nd ref="1112883014"/>
    <nd ref="1112883013"/>
    <nd ref="1112883396"/>
    <nd ref="1112883099"/>
    <nd ref="1112883186"/>
    <nd ref="1112883493"/>
    <nd ref="605272689"/>
    <nd ref="1112883446"/>
    <nd ref="605272690"/>
    <nd ref="1112883530"/>
    <nd ref="605272692"/>
    <nd ref="1112883490"/>
    <nd ref="1112883395"/>
    <nd ref="605272691"/>
    <nd ref="1112883053"/>
    <nd ref="1112883136"/>
    <nd ref="605272695"/>
    <nd ref="1112883179"/>
    <nd ref="1112883095"/>
    <nd ref="1112883356"/>
    <nd ref="1112883263"/>
    <nd ref="605272697"/>
    <nd ref="1112883180"/>
    <nd ref="1112883224"/>
    <nd ref="1112883149"/>
    <nd ref="1112883220"/>
    <nd ref="1112883137"/>
    <nd ref="1112883309"/>
    <nd ref="1112883221"/>
    <nd ref="1112883357"/>
    <nd ref="1112883264"/>
    <nd ref="1112883145"/>
    <nd ref="1112883055"/>
    <nd ref="1112883447"/>
    <nd ref="605272698"/>
    <tag k="addr:city" v="Зеленоград"/>
    <tag k="addr:housenumber" v="1504"/>
    <tag k="addr:street" v="15-й Микрорайон"/>
    <tag k="building" v="yes"/>
    <tag k="building:use" v="residential"/>
    <tag k="is_in" v="Russia"/>
  </way>
  <way id="96051577" version="2" timestamp="2011-06-07T20:49:35Z" uid="133332" user="AMDmi3" changeset="8374030">
    <nd ref="605272698"/>
    <nd ref="1112883001"/>
    <nd ref="605272699"/>
    <nd ref="1112883397"/>
    <nd ref="1112883273"/>
    <nd ref="1112883359"/>
    <nd ref="1112883495"/>
    <nd ref="1112883531"/>
    <nd ref="1112883448"/>
    <nd ref="1112883532"/>
    <nd ref="1112883054"/>
    <nd ref="1112883307"/>
    <nd ref="1112883499"/>
    <nd ref="1112883014"/>
    <nd ref="1112883013"/>
    <nd ref="1112883396"/>
    <nd ref="1112883099"/>
    <nd ref="1112883186"/>
    <nd ref="1112883493"/>
    <nd ref="605272689"/>
    <nd ref="1112883446"/>
    <nd ref="605272690"/>
    <nd ref="1112883530"/>
    <nd ref="605272692"/>
    <nd ref="1112883490"/>
    <nd ref="1112883395"/>
    <nd ref="605272691"/>
    <nd ref="1112883053"/>
    <nd ref="1112883136"/>
    <nd ref="605272695"/>
    <nd ref="1112883179"/>
    <nd ref="1112883095"/>
    <nd ref="1112883356"/>
    <nd ref="1112883263"/>
    <nd ref="605272697"/>
    <nd ref="1112883180"/>
    <nd ref="1112883224"/>
    <nd ref="1112883149"/>
    <nd ref="1112883220"/>
    <nd ref="1112883137"/>
    <nd ref="1112883309"/>
    <nd ref="1112883221"/>
    <nd ref="1112883357"/>
    <nd ref="1112883264"/>
    <nd ref="1112883145"/>
    <nd ref="1112883055"/>
    <nd ref="1112883447"/>
    <nd ref="605272698"/>
    <tag k="addr:city" v="Зеленоград"/>
    <tag k="addr:housenumber" v="1504"/>
    <tag k="addr:street" v="15-й микрорайон"/>
    <tag k="building" v="yes"/>
    <tag k="building:use" v="residential"/>
    <tag k="is_in" v="Russia"/>
  </way>
  <way id="96051577" version="3" timestamp="2011-09-13T10:22:39Z" uid="29320" user="Komяpa" changeset="9288237">
    <nd ref="605272698"/>
    <nd ref="1112883001"/>
    <nd ref="605272699"/>
    <nd ref="1112883397"/>
    <nd ref="1112883273"/>
    <nd ref="1112883359"/>
    <nd ref="1112883495"/>
    <nd ref="1112883531"/>
    <nd ref="1112883448"/>
    <nd ref="1112883532"/>
    <nd ref="1112883054"/>
    <nd ref="1112883307"/>
    <nd ref="1112883499"/>
    <nd ref="1112883014"/>
    <nd ref="1112883013"/>
    <nd ref="1112883396"/>
    <nd ref="1112883099"/>
    <nd ref="1112883186"/>
    <nd ref="1112883493"/>
    <nd ref="605272689"/>
    <nd ref="1112883446"/>
    <nd ref="605272690"/>
    <nd ref="1112883530"/>
    <nd ref="605272692"/>
    <nd ref="1112883490"/>
    <nd ref="1112883395"/>
    <nd ref="605272691"/>
    <nd ref="1112883053"/>
    <nd ref="1112883136"/>
    <nd ref="605272695"/>
    <nd ref="1112883179"/>
    <nd ref="1112883095"/>
    <nd ref="1112883356"/>
    <nd ref="1112883263"/>
    <nd ref="605272697"/>
    <nd ref="1112883180"/>
    <nd ref="1112883224"/>
    <nd ref="1112883149"/>
    <nd ref="1112883220"/>
    <nd ref="1112883137"/>
    <nd ref="1112883309"/>
    <nd ref="1112883221"/>
    <nd ref="1112883357"/>
    <nd ref="1112883264"/>
    <nd ref="1112883145"/>
    <nd ref="1112883055"/>
    <nd ref="1112883447"/>
    <nd ref="605272698"/>
    <tag k="addr:city" v="Зеленоград"/>
    <tag k="addr:country" v="RU"/>
    <tag k="addr:housenumber" v="1504"/>
    <tag k="addr:street" v="15-й микрорайон"/>
    <tag k="building" v="yes"/>
    <tag k="building:use" v="residential"/>
  </way>
  <way id="96051577" version="4" timestamp="2012-03-27T11:35:59Z" uid="481934" user="iWowik" changeset="11115472">
    <nd ref="605272698"/>
    <nd ref="1112883001"/>
    <nd ref="605272699"/>
    <nd ref="1112883397"/>
    <nd ref="1112883273"/>
    <nd ref="1112883359"/>
    <nd ref="1112883495"/>
    <nd ref="1112883531"/>
    <nd ref="1112883448"/>
    <nd ref="1112883532"/>
    <nd ref="1112883054"/>
    <nd ref="1112883307"/>
    <nd ref="1112883499"/>
    <nd ref="1112883014"/>
    <nd ref="1112883013"/>
    <nd ref="1112883396"/>
    <nd ref="1112883099"/>
    <nd ref="1112883186"/>
    <nd ref="1112883493"/>
    <nd ref="605272689"/>
    <nd ref="1112883446"/>
    <nd ref="605272690"/>
    <nd ref="1112883530"/>
    <nd ref="605272692"/>
    <nd ref="1112883490"/>
    <nd ref="1112883395"/>
    <nd ref="605272691"/>
    <nd ref="1112883053"/>
    <nd ref="1112883136"/>
    <nd ref="605272695"/>
    <nd ref="1112883179"/>
    <nd ref="1112883095"/>
    <nd ref="1112883356"/>
    <nd ref="1112883263"/>
    <nd ref="605272697"/>
    <nd ref="1112883180"/>
    <nd ref="1112883224"/>
    <nd ref="1112883149"/>
    <nd ref="1112883220"/>
    <nd ref="1112883137"/>
    <nd ref="1112883309"/>
    <nd ref="1112883221"/>
    <nd ref="1112883357"/>
    <nd ref="1112883264"/>
    <nd ref="1112883145"/>
    <nd ref="1112883055"/>
    <nd ref="1112883447"/>
    <nd ref="605272698"/>
    <tag k="addr:city" v="Зеленоград"/>
    <tag k="addr:country" v="RU"/>
    <tag k="addr:housenumber" v="1504"/>
    <tag k="addr:region" v="Москва"/>
    <tag k="addr:street" v="15-й микрорайон"/>
    <tag k="building" v="yes"/>
    <tag k="building:use" v="residential"/>
  </way>
  <way id="96051578" version="1" timestamp="2011-01-21T10:45:18Z" uid="115477" user="wowik" changeset="7038966">
    <nd ref="1112883488"/>
    <nd ref="1112883154"/>
    <nd ref="1112883051"/>
    <nd ref="1112883529"/>
    <nd ref="1112883444"/>
    <nd ref="1112883117"/>
    <nd ref="1112883488"/>
    <tag k="addr:city" v="Зеленоград"/>
    <tag k="addr:housenumber" v="1504 с1"/>
    <tag k="addr:street" v="15-й Микрорайон"/>
    <tag k="building" v="yes"/>
    <tag k="building:levels" v="1"/>
    <tag k="is_in" v="Russia"/>
    <tag k="shop" v="yes"/>
  </way>
  <way id="96051578" version="2" timestamp="2011-06-07T20:49:35Z" uid="133332" user="AMDmi3" changeset="8374030">
    <nd ref="1112883488"/>
    <nd ref="1112883154"/>
    <nd ref="1112883051"/>
    <nd ref="1112883529"/>
    <nd ref="1112883444"/>
    <nd ref="1112883117"/>
    <nd ref="1112883488"/>
    <tag k="addr:city" v="Зеленоград"/>
    <tag k="addr:housenumber" v="1504 с1"/>
    <tag k="addr:street" v="15-й микрорайон"/>
    <tag k="building" v="yes"/>
    <tag k="building:levels" v="1"/>
    <tag k="is_in" v="Russia"/>
    <tag k="shop" v="yes"/>
  </way>
  <way id="96051578" version="3" timestamp="2011-09-13T10:22:40Z" uid="29320" user="Komяpa" changeset="9288237">
    <nd ref="1112883488"/>
    <nd ref="1112883154"/>
    <nd ref="1112883051"/>
    <nd ref="1112883529"/>
    <nd ref="1112883444"/>
    <nd ref="1112883117"/>
    <nd ref="1112883488"/>
    <tag k="addr:city" v="Зеленоград"/>
    <tag k="addr:country" v="RU"/>
    <tag k="addr:housenumber" v="1504 с1"/>
    <tag k="addr:street" v="15-й микрорайон"/>
    <tag k="building" v="yes"/>
    <tag k="building:levels" v="1"/>
    <tag k="shop" v="yes"/>
  </way>
  <way id="96051578" version="4" timestamp="2011-12-12T17:51:10Z" uid="126304" user="TarzanASG" changeset="10100388">
    <nd ref="1112883488"/>
    <nd ref="1112883154"/>
    <nd ref="1112883051"/>
    <nd ref="1112883529"/>
    <nd ref="1112883444"/>
    <nd ref="1112883117"/>
    <nd ref="1112883488"/>
    <tag k="addr:city" v="Зеленоград"/>
    <tag k="addr:country" v="RU"/>
    <tag k="addr:housenumber" v="1504 с1"/>
    <tag k="addr:street" v="15-й микрорайон"/>
    <tag k="building" v="retail"/>
    <tag k="building:levels" v="1"/>
    <tag k="shop" v="yes"/>
  </way>
  <way id="96051578" version="5" timestamp="2011-12-14T13:10:26Z" uid="143266" user="Sergey Astakhov" changeset="10115724">
    <nd ref="1112883488"/>
    <nd ref="1112883154"/>
    <nd ref="1112883051"/>
    <nd ref="1112883529"/>
    <nd ref="1112883444"/>
    <nd ref="1112883117"/>
    <nd ref="1112883488"/>
    <tag k="addr:city" v="Зеленоград"/>
    <tag k="addr:country" v="RU"/>
    <tag k="addr:housenumber" v="1504 с1"/>
    <tag k="addr:street" v="15-й микрорайон"/>
    <tag k="building" v="yes"/>
    <tag k="building:levels" v="1"/>
    <tag k="shop" v="yes"/>
  </way>
  <way id="96051578" version="6" timestamp="2012-03-27T11:36:00Z" uid="481934" user="iWowik" changeset="11115472">
    <nd ref="1112883488"/>
    <nd ref="1112883154"/>
    <nd ref="1112883051"/>
    <nd ref="1112883529"/>
    <nd ref="1112883444"/>
    <nd ref="1112883117"/>
    <nd ref="1112883488"/>
    <tag k="addr:city" v="Зеленоград"/>
    <tag k="addr:country" v="RU"/>
    <tag k="addr:housenumber" v="1504 с1"/>
    <tag k="addr:region" v="Москва"/>
    <tag k="addr:street" v="15-й микрорайон"/>
    <tag k="building" v="yes"/>
    <tag k="building:levels" v="1"/>
    <tag k="shop" v="yes"/>
  </way>
  <way id="96051579" version="1" timestamp="2011-01-21T10:45:18Z" uid="115477" user="wowik" changeset="7038966">
    <nd ref="1112883439"/>
    <nd ref="1112883275"/>
    <nd ref="1112883177"/>
    <nd ref="1112883322"/>
    <nd ref="1112883439"/>
    <tag k="addr:city" v="Зеленоград"/>
    <tag k="addr:housenumber" v="1512 с2"/>
    <tag k="addr:street" v="15-й Микрорайон"/>
    <tag k="building" v="yes"/>
    <tag k="building:levels" v="1"/>
    <tag k="is_in" v="Russia"/>
    <tag k="shop" v="yes"/>
  </way>
  <way id="96051579" version="2" timestamp="2011-04-08T13:58:12Z" uid="115477" user="wowik" changeset="7804359">
    <nd ref="1112883439"/>
    <nd ref="1112883275"/>
    <nd ref="1112883177"/>
    <nd ref="1112883322"/>
    <nd ref="1112883439"/>
    <tag k="addr:city" v="Зеленоград"/>
    <tag k="addr:housenumber" v="1512 с2"/>
    <tag k="addr:street" v="15-й Микрорайон"/>
    <tag k="building" v="yes"/>
    <tag k="building:levels" v="1"/>
    <tag k="is_in" v="Russia"/>
    <tag k="name" v="24 часа"/>
    <tag k="shop" v="alcohol"/>
  </way>
  <way id="96051579" version="3" timestamp="2011-06-07T20:49:35Z" uid="133332" user="AMDmi3" changeset="8374030">
    <nd ref="1112883439"/>
    <nd ref="1112883275"/>
    <nd ref="1112883177"/>
    <nd ref="1112883322"/>
    <nd ref="1112883439"/>
    <tag k="addr:city" v="Зеленоград"/>
    <tag k="addr:housenumber" v="1512 с2"/>
    <tag k="addr:street" v="15-й микрорайон"/>
    <tag k="building" v="yes"/>
    <tag k="building:levels" v="1"/>
    <tag k="is_in" v="Russia"/>
    <tag k="name" v="24 часа"/>
    <tag k="shop" v="alcohol"/>
  </way>
  <way id="96051579" version="4" timestamp="2011-09-13T10:32:54Z" uid="29320" user="Komяpa" changeset="9288237">
    <nd ref="1112883439"/>
    <nd ref="1112883275"/>
    <nd ref="1112883177"/>
    <nd ref="1112883322"/>
    <nd ref="1112883439"/>
    <tag k="addr:city" v="Зеленоград"/>
    <tag k="addr:country" v="RU"/>
    <tag k="addr:housenumber" v="1512 с2"/>
    <tag k="addr:street" v="15-й микрорайон"/>
    <tag k="building" v="yes"/>
    <tag k="building:levels" v="1"/>
    <tag k="name" v="24 часа"/>
    <tag k="shop" v="alcohol"/>
  </way>
  <way id="96051579" version="5" timestamp="2011-12-13T07:15:34Z" uid="126304" user="TarzanASG" changeset="10105192">
    <nd ref="1112883439"/>
    <nd ref="1112883275"/>
    <nd ref="1112883177"/>
    <nd ref="1112883322"/>
    <nd ref="1112883439"/>
    <tag k="addr:city" v="Зеленоград"/>
    <tag k="addr:country" v="RU"/>
    <tag k="addr:housenumber" v="1512 с2"/>
    <tag k="addr:street" v="15-й микрорайон"/>
    <tag k="building" v="retail"/>
    <tag k="building:levels" v="1"/>
    <tag k="name" v="24 часа"/>
    <tag k="shop" v="alcohol"/>
  </way>
  <way id="96051579" version="6" timestamp="2011-12-14T07:05:38Z" uid="143266" user="Sergey Astakhov" changeset="10113313">
    <nd ref="1112883439"/>
    <nd ref="1112883275"/>
    <nd ref="1112883177"/>
    <nd ref="1112883322"/>
    <nd ref="1112883439"/>
    <tag k="addr:city" v="Зеленоград"/>
    <tag k="addr:country" v="RU"/>
    <tag k="addr:housenumber" v="1512 с2"/>
    <tag k="addr:street" v="15-й микрорайон"/>
    <tag k="building" v="yes"/>
    <tag k="building:levels" v="1"/>
    <tag k="name" v="24 часа"/>
    <tag k="shop" v="alcohol"/>
  </way>
  <way id="96051579" version="7" timestamp="2012-03-27T11:56:38Z" uid="481934" user="iWowik" changeset="11115472">
    <nd ref="1112883439"/>
    <nd ref="1112883275"/>
    <nd ref="1112883177"/>
    <nd ref="1112883322"/>
    <nd ref="1112883439"/>
    <tag k="addr:city" v="Зеленоград"/>
    <tag k="addr:country" v="RU"/>
    <tag k="addr:housenumber" v="1512 с2"/>
    <tag k="addr:region" v="Москва"/>
    <tag k="addr:street" v="15-й микрорайон"/>
    <tag k="building" v="yes"/>
    <tag k="building:levels" v="1"/>
    <tag k="name" v="24 часа"/>
    <tag k="shop" v="alcohol"/>
  </way>
  <way id="96051580" version="1" timestamp="2011-01-21T10:45:19Z" uid="115477" user="wowik" changeset="7038966">
    <nd ref="1112883047"/>
    <nd ref="1112883277"/>
    <nd ref="1112883232"/>
    <nd ref="1112883327"/>
    <nd ref="1112883047"/>
    <tag k="building" v="yes"/>
    <tag k="building:levels" v="1"/>
  </way>
  <way id="96051580" version="2" timestamp="2012-03-27T08:11:58Z" uid="481934" user="iWowik" changeset="11113698">
    <nd ref="1112883047"/>
    <nd ref="1112883277"/>
    <nd ref="1112883232"/>
    <nd ref="1112883327"/>
    <nd ref="1112883047"/>
    <tag k="addr:city" v="Зеленоград"/>
    <tag k="addr:country" v="RU"/>
    <tag k="building" v="yes"/>
    <tag k="building:levels" v="1"/>
  </way>
  <way id="96051580" version="3" timestamp="2012-03-27T11:52:44Z" uid="481934" user="iWowik" changeset="11115472">
    <nd ref="1112883047"/>
    <nd ref="1112883277"/>
    <nd ref="1112883232"/>
    <nd ref="1112883327"/>
    <nd ref="1112883047"/>
    <tag k="addr:city" v="Зеленоград"/>
    <tag k="addr:country" v="RU"/>
    <tag k="addr:region" v="Москва"/>
    <tag k="building" v="yes"/>
    <tag k="building:levels" v="1"/>
  </way>
  <way id="96051581" version="1" timestamp="2011-01-21T10:45:19Z" uid="115477" user="wowik" changeset="7038966">
    <nd ref="1112883258"/>
    <nd ref="1112883097"/>
    <nd ref="1112883003"/>
    <nd ref="1112883147"/>
    <nd ref="1112883258"/>
    <tag k="addr:city" v="Зеленоград"/>
    <tag k="addr:housenumber" v="1502 с1"/>
    <tag k="addr:street" v="15-й Микрорайон"/>
    <tag k="building" v="yes"/>
    <tag k="building:levels" v="1"/>
    <tag k="is_in" v="Russia"/>
  </way>
  <way id="96051581" version="2" timestamp="2011-03-27T09:24:50Z" uid="241531" user="dik_man" changeset="7683764">
    <nd ref="1112883258"/>
    <nd ref="1221182515"/>
    <nd ref="1221182502"/>
    <nd ref="1221182504"/>
    <nd ref="1221182506"/>
    <nd ref="1221182511"/>
    <nd ref="1221182505"/>
    <nd ref="1112883097"/>
    <nd ref="1112883003"/>
    <nd ref="1112883147"/>
    <nd ref="1221182503"/>
    <nd ref="1221182514"/>
    <nd ref="1221182516"/>
    <nd ref="1221182513"/>
    <nd ref="1221182501"/>
    <nd ref="1112883258"/>
    <tag k="addr:city" v="Зеленоград"/>
    <tag k="addr:housenumber" v="1502 с1"/>
    <tag k="addr:street" v="15-й Микрорайон"/>
    <tag k="building" v="yes"/>
    <tag k="building:levels" v="1"/>
    <tag k="is_in" v="Russia"/>
  </way>
  <way id="96051581" version="3" timestamp="2011-03-27T09:25:12Z" uid="241531" user="dik_man" changeset="7683764">
    <nd ref="1112883258"/>
    <nd ref="1221182515"/>
    <nd ref="1221182502"/>
    <nd ref="1221182504"/>
    <nd ref="1221182506"/>
    <nd ref="1221182511"/>
    <nd ref="1221182505"/>
    <nd ref="1112883097"/>
    <nd ref="1112883003"/>
    <nd ref="1112883147"/>
    <nd ref="1221182503"/>
    <nd ref="1221182514"/>
    <nd ref="1221182516"/>
    <nd ref="1221182513"/>
    <nd ref="1221182501"/>
    <nd ref="1112883258"/>
    <tag k="addr:city" v="Зеленоград"/>
    <tag k="addr:housenumber" v="1502 с1"/>
    <tag k="addr:street" v="15-й Микрорайон"/>
    <tag k="building" v="yes"/>
    <tag k="building:levels" v="1"/>
    <tag k="is_in" v="Russia"/>
    <tag k="name" v="ГСК"/>
  </way>
  <way id="96051581" version="4" timestamp="2011-05-11T14:14:57Z" uid="241531" user="dik_man" changeset="8112701">
    <nd ref="1112883258"/>
    <nd ref="1221182515"/>
    <nd ref="1221182502"/>
    <nd ref="1221182504"/>
    <nd ref="1221182506"/>
    <nd ref="1221182511"/>
    <nd ref="1221182505"/>
    <nd ref="1112883097"/>
    <nd ref="1112883003"/>
    <nd ref="1112883147"/>
    <nd ref="1221182503"/>
    <nd ref="1221182514"/>
    <nd ref="1221182516"/>
    <nd ref="1221182513"/>
    <nd ref="1221182501"/>
    <nd ref="1112883258"/>
    <tag k="addr:city" v="Зеленоград"/>
    <tag k="addr:housenumber" v="1502 с1"/>
    <tag k="addr:street" v="15-й Микрорайон"/>
    <tag k="amenity" v="parking"/>
    <tag k="building" v="yes"/>
    <tag k="building:levels" v="1"/>
    <tag k="is_in" v="Russia"/>
    <tag k="name" v="ГСК"/>
  </way>
  <way id="96051581" version="5" timestamp="2011-06-07T20:49:34Z" uid="133332" user="AMDmi3" changeset="8374030">
    <nd ref="1112883258"/>
    <nd ref="1221182515"/>
    <nd ref="1221182502"/>
    <nd ref="1221182504"/>
    <nd ref="1221182506"/>
    <nd ref="1221182511"/>
    <nd ref="1221182505"/>
    <nd ref="1112883097"/>
    <nd ref="1112883003"/>
    <nd ref="1112883147"/>
    <nd ref="1221182503"/>
    <nd ref="1221182514"/>
    <nd ref="1221182516"/>
    <nd ref="1221182513"/>
    <nd ref="1221182501"/>
    <nd ref="1112883258"/>
    <tag k="addr:city" v="Зеленоград"/>
    <tag k="addr:housenumber" v="1502 с1"/>
    <tag k="addr:street" v="15-й микрорайон"/>
    <tag k="amenity" v="parking"/>
    <tag k="building" v="yes"/>
    <tag k="building:levels" v="1"/>
    <tag k="is_in" v="Russia"/>
    <tag k="name" v="ГСК"/>
  </way>
  <way id="96051581" version="6" timestamp="2011-09-13T10:29:48Z" uid="29320" user="Komяpa" changeset="9288237">
    <nd ref="1112883258"/>
    <nd ref="1221182515"/>
    <nd ref="1221182502"/>
    <nd ref="1221182504"/>
    <nd ref="1221182506"/>
    <nd ref="1221182511"/>
    <nd ref="1221182505"/>
    <nd ref="1112883097"/>
    <nd ref="1112883003"/>
    <nd ref="1112883147"/>
    <nd ref="1221182503"/>
    <nd ref="1221182514"/>
    <nd ref="1221182516"/>
    <nd ref="1221182513"/>
    <nd ref="1221182501"/>
    <nd ref="1112883258"/>
    <tag k="addr:city" v="Зеленоград"/>
    <tag k="addr:country" v="RU"/>
    <tag k="addr:housenumber" v="1502 с1"/>
    <tag k="addr:street" v="15-й микрорайон"/>
    <tag k="amenity" v="parking"/>
    <tag k="building" v="yes"/>
    <tag k="building:levels" v="1"/>
    <tag k="name" v="ГСК"/>
  </way>
  <way id="96051581" version="7" timestamp="2012-03-27T11:31:45Z" uid="481934" user="iWowik" changeset="11115472">
    <nd ref="1112883258"/>
    <nd ref="1221182515"/>
    <nd ref="1221182502"/>
    <nd ref="1221182504"/>
    <nd ref="1221182506"/>
    <nd ref="1221182511"/>
    <nd ref="1221182505"/>
    <nd ref="1112883097"/>
    <nd ref="1112883003"/>
    <nd ref="1112883147"/>
    <nd ref="1221182503"/>
    <nd ref="1221182514"/>
    <nd ref="1221182516"/>
    <nd ref="1221182513"/>
    <nd ref="1221182501"/>
    <nd ref="1112883258"/>
    <tag k="addr:city" v="Зеленоград"/>
    <tag k="addr:country" v="RU"/>
    <tag k="addr:housenumber" v="1502 с1"/>
    <tag k="addr:region" v="Москва"/>
    <tag k="addr:street" v="15-й микрорайон"/>
    <tag k="amenity" v="parking"/>
    <tag k="building" v="yes"/>
    <tag k="building:levels" v="1"/>
    <tag k="name" v="ГСК"/>
  </way>
  <way id="96051639" version="4" timestamp="2011-04-20T07:24:16Z" uid="9581" user="Lobelt" changeset="7913486">
    <nd ref="1123676794"/>
    <nd ref="1123676793"/>
    <nd ref="1123676801"/>
    <nd ref="1144018074"/>
    <nd ref="1123676796"/>
    <nd ref="1112885854"/>
    <nd ref="1112885862"/>
    <nd ref="1112885856"/>
    <nd ref="1112885866"/>
    <nd ref="1112885869"/>
    <tag k="waterway" v="ditch"/>
  </way>
  <way id="96051577" version="5" timestamp="2012-07-20T23:57:02Z" uid="722137" user="OSMF Redaction Account" changeset="12396619"/>
  <way id="96051578" version="7" timestamp="2012-07-20T23:57:03Z" uid="722137" user="OSMF Redaction Account" changeset="12396619"/>
  <way id="96051579" version="8" timestamp="2012-07-20T23:57:03Z" uid="722137" user="OSMF Redaction Account" changeset="12396619"/>
  <way id="96051580" version="4" timestamp="2012-07-20T23:57:03Z" uid="722137" user="OSMF Redaction Account" changeset="12396619"/>
  <way id="96051581" version="8" timestamp="2012-07-20T23:48:38Z" uid="722137" user="OSMF Redaction Account" changeset="12396479">
    <nd ref="1221182515"/>
    <nd ref="1221182502"/>
    <nd ref="1221182504"/>
    <nd ref="1221182506"/>
    <nd ref="1221182511"/>
    <nd ref="1221182505"/>
    <nd ref="1221182503"/>
    <nd ref="1221182514"/>
    <nd ref="1221182516"/>
    <nd ref="1221182513"/>
    <nd ref="1221182501"/>
    <tag k="addr:country" v="RU"/>
    <tag k="addr:region" v="Москва"/>
    <tag k="addr:street" v="15-й микрорайон"/>
    <tag k="amenity" v="parking"/>
    <tag k="name" v="ГСК"/>
  </way>
</osm>
