<?xml version='1.0' encoding='UTF-8'?>
<osm version="0.6" generator="libosmium/2.20.0">
  <way id="96431344" version="4" timestamp="2011-05-04T10:34:52Z" uid="9581" user="Lobelt" changeset="8047645">
    <nd ref="549332109"/>
    <nd ref="549336630"/>
    <nd ref="549357089"/>
    <nd ref="529963560"/>
    <nd ref="529965117"/>
    <nd ref="529823928"/>
    <nd ref="529822294"/>
    <nd ref="529821617"/>
    <nd ref="569945000"/>
    <nd ref="529948828"/>
    <tag k="cables" v="4"/>
    <tag k="frequency" v="50"/>
    <tag k="name" v="0276;HOER146"/>
    <tag k="note" v="ein Leiter ohne Funktion; HOER146=blau"/>
    <tag k="operator" v="RWE"/>
    <tag k="power" v="line"/>
    <tag k="ref" v="0276;HOER146"/>
    <tag k="voltage" v="110000"/>
    <tag k="wires" v="single"/>
  </way>
  <way id="96431348" version="2" timestamp="2011-05-04T10:34:53Z" uid="9581" user="Lobelt" changeset="8047645">
    <nd ref="566229028"/>
    <nd ref="529948828"/>
    <tag k="cables" v="3"/>
    <tag k="frequency" v="50"/>
    <tag k="name" v="0276;HOER146"/>
    <tag k="note" v="ein Leiter ohne Funktion; HOER146=blau"/>
    <tag k="operator" v="RWE"/>
    <tag k="power" v="line"/>
    <tag k="ref" v="0276;HOER146"/>
    <tag k="voltage" v="110000"/>
    <tag k="wires" v="single"/>
  </way>
  <way id="96431344" version="5" timestamp="2012-06-03T09:34:22Z" uid="384060" user="aliponte" changeset="11784288">
    <nd ref="549332109"/>
    <nd ref="549336630"/>
    <nd ref="549357089"/>
    <nd ref="529963560"/>
    <nd ref="529965117"/>
    <nd ref="529823928"/>
    <nd ref="529822294"/>
    <nd ref="529821617"/>
    <nd ref="569945000"/>
    <nd ref="529948828"/>
    <tag k="cables" v="4"/>
    <tag k="name" v="0276;HOER146"/>
    <tag k="note" v="ein Leiter ohne Funktion; HOER146=blau"/>
    <tag k="operator" v="RWE"/>
    <tag k="power" v="line"/>
    <tag k="ref" v="0276;HOER146"/>
    <tag k="voltage" v="110000"/>
    <tag k="wires" v="single"/>
  </way>
  <way id="96431344" version="6" timestamp="2012-06-03T09:50:09Z" uid="384060" user="aliponte" changeset="11784436">
    <nd ref="549332109"/>
    <nd ref="549336630"/>
    <nd ref="1774459692"/>
    <nd ref="549357089"/>
    <nd ref="1774459695"/>
    <nd ref="529963560"/>
    <nd ref="1774459697"/>
    <nd ref="529965117"/>
    <nd ref="1774459699"/>
    <nd ref="529823928"/>
    <nd ref="529822294"/>
    <nd ref="529821617"/>
    <nd ref="569945000"/>
    <nd ref="529948828"/>
    <tag k="cables" v="4"/>
    <tag k="name" v="0276;HOER146"/>
    <tag k="note" v="ein Leiter ohne Funktion; HOER146=blau"/>
    <tag k="operator" v="RWE"/>
    <tag k="power" v="line"/>
    <tag k="ref" v="0276;HOER146"/>
    <tag k="voltage" v="110000"/>
    <tag k="wires" v="single"/>
  </way>
  <way id="96431348" version="3" timestamp="2012-06-03T09:34:22Z" uid="384060" user="aliponte" changeset="11784288">
    <nd ref="566229028"/>
    <nd ref="529948828"/>
    <tag k="cables" v="3"/>
    <tag k="name" v="0276;HOER146"/>
    <tag k="note" v="ein Leiter ohne Funktion; HOER146=blau"/>
    <tag k="operator" v="RWE"/>
    <tag k="power" v="line"/>
    <tag k="ref" v="0276;HOER146"/>
    <tag k="voltage" v="110000"/>
    <tag k="wires" v="single"/>
  </way>
</osm>
