<?xml version='1.0' encoding='UTF-8'?>
<osm version="0.6" generator="libosmium/2.20.0">
  <way id="96611001" version="1" timestamp="2011-01-24T18:13:38Z" uid="115477" user="wowik" changeset="7075929">
    <nd ref="1119018430"/>
    <nd ref="1119017766"/>
    <nd ref="1119018043"/>
    <nd ref="1119018348"/>
    <nd ref="1119018430"/>
    <tag k="building" v="yes"/>
    <tag k="building:levels" v="1"/>
  </way>
  <way id="96611001" version="2" timestamp="2012-03-27T08:12:55Z" uid="481934" user="iWowik" changeset="11113698">
    <nd ref="1119018430"/>
    <nd ref="1119017766"/>
    <nd ref="1119018043"/>
    <nd ref="1119018348"/>
    <nd ref="1119018430"/>
    <tag k="addr:city" v="Зеленоград"/>
    <tag k="addr:country" v="RU"/>
    <tag k="building" v="yes"/>
    <tag k="building:levels" v="1"/>
  </way>
  <way id="96611001" version="3" timestamp="2012-03-27T11:53:27Z" uid="481934" user="iWowik" changeset="11115472">
    <nd ref="1119018430"/>
    <nd ref="1119017766"/>
    <nd ref="1119018043"/>
    <nd ref="1119018348"/>
    <nd ref="1119018430"/>
    <tag k="addr:city" v="Зеленоград"/>
    <tag k="addr:country" v="RU"/>
    <tag k="addr:region" v="Москва"/>
    <tag k="building" v="yes"/>
    <tag k="building:levels" v="1"/>
  </way>
  <way id="96611004" version="1" timestamp="2011-01-24T18:13:39Z" uid="115477" user="wowik" changeset="7075929">
    <nd ref="1119018568"/>
    <nd ref="1119017905"/>
    <nd ref="1119018217"/>
    <nd ref="1119018489"/>
    <nd ref="1119018568"/>
    <tag k="building" v="yes"/>
    <tag k="building:levels" v="1"/>
    <tag k="landuse" v="garages"/>
  </way>
  <way id="96611004" version="2" timestamp="2011-09-13T10:38:30Z" uid="29320" user="Komяpa" changeset="9288237">
    <nd ref="1119018568"/>
    <nd ref="1119017905"/>
    <nd ref="1119018217"/>
    <nd ref="1119018489"/>
    <nd ref="1119018568"/>
    <tag k="building" v="garages"/>
    <tag k="building:levels" v="1"/>
  </way>
  <way id="96611005" version="1" timestamp="2011-01-24T18:13:39Z" uid="115477" user="wowik" changeset="7075929">
    <nd ref="1119017800"/>
    <nd ref="1119018095"/>
    <nd ref="1119018400"/>
    <nd ref="1119017750"/>
    <nd ref="1119017800"/>
    <tag k="building" v="yes"/>
    <tag k="building:levels" v="1"/>
    <tag k="landuse" v="garages"/>
  </way>
  <way id="96611005" version="2" timestamp="2011-09-13T10:38:31Z" uid="29320" user="Komяpa" changeset="9288237">
    <nd ref="1119017800"/>
    <nd ref="1119018095"/>
    <nd ref="1119018400"/>
    <nd ref="1119017750"/>
    <nd ref="1119017800"/>
    <tag k="building" v="garages"/>
    <tag k="building:levels" v="1"/>
  </way>
  <way id="96611008" version="1" timestamp="2011-01-24T18:13:39Z" uid="115477" user="wowik" changeset="7075929">
    <nd ref="1119018200"/>
    <nd ref="1119018483"/>
    <nd ref="1119017815"/>
    <nd ref="1119018116"/>
    <nd ref="1119018200"/>
    <tag k="building" v="yes"/>
    <tag k="building:levels" v="1"/>
    <tag k="landuse" v="garages"/>
  </way>
  <way id="96611008" version="2" timestamp="2011-09-13T10:38:31Z" uid="29320" user="Komяpa" changeset="9288237">
    <nd ref="1119018200"/>
    <nd ref="1119018483"/>
    <nd ref="1119017815"/>
    <nd ref="1119018116"/>
    <nd ref="1119018200"/>
    <tag k="building" v="garages"/>
    <tag k="building:levels" v="1"/>
  </way>
  <way id="96611010" version="1" timestamp="2011-01-24T18:13:39Z" uid="115477" user="wowik" changeset="7075929">
    <nd ref="1119018160"/>
    <nd ref="1119018443"/>
    <nd ref="1119017754"/>
    <nd ref="1119018035"/>
    <nd ref="1119018160"/>
    <tag k="building" v="yes"/>
    <tag k="building:levels" v="1"/>
  </way>
  <way id="96611010" version="2" timestamp="2012-03-27T08:13:07Z" uid="481934" user="iWowik" changeset="11113698">
    <nd ref="1119018160"/>
    <nd ref="1119018443"/>
    <nd ref="1119017754"/>
    <nd ref="1119018035"/>
    <nd ref="1119018160"/>
    <tag k="addr:city" v="Зеленоград"/>
    <tag k="addr:country" v="RU"/>
    <tag k="building" v="yes"/>
    <tag k="building:levels" v="1"/>
  </way>
  <way id="96611010" version="3" timestamp="2012-03-27T11:53:39Z" uid="481934" user="iWowik" changeset="11115472">
    <nd ref="1119018160"/>
    <nd ref="1119018443"/>
    <nd ref="1119017754"/>
    <nd ref="1119018035"/>
    <nd ref="1119018160"/>
    <tag k="addr:city" v="Зеленоград"/>
    <tag k="addr:country" v="RU"/>
    <tag k="addr:region" v="Москва"/>
    <tag k="building" v="yes"/>
    <tag k="building:levels" v="1"/>
  </way>
  <way id="96611011" version="1" timestamp="2011-01-24T18:13:39Z" uid="115477" user="wowik" changeset="7075929">
    <nd ref="1119017988"/>
    <nd ref="1119018270"/>
    <nd ref="1119018550"/>
    <nd ref="1119017880"/>
    <nd ref="1119017988"/>
    <tag k="building" v="yes"/>
    <tag k="building:levels" v="1"/>
  </way>
  <way id="96611011" version="2" timestamp="2012-03-27T08:12:39Z" uid="481934" user="iWowik" changeset="11113698">
    <nd ref="1119017988"/>
    <nd ref="1119018270"/>
    <nd ref="1119018550"/>
    <nd ref="1119017880"/>
    <nd ref="1119017988"/>
    <tag k="addr:city" v="Зеленоград"/>
    <tag k="addr:country" v="RU"/>
    <tag k="building" v="yes"/>
    <tag k="building:levels" v="1"/>
  </way>
  <way id="96611011" version="3" timestamp="2012-03-27T11:51:00Z" uid="481934" user="iWowik" changeset="11115472">
    <nd ref="1119017988"/>
    <nd ref="1119018270"/>
    <nd ref="1119018550"/>
    <nd ref="1119017880"/>
    <nd ref="1119017988"/>
    <tag k="addr:city" v="Зеленоград"/>
    <tag k="addr:country" v="RU"/>
    <tag k="addr:region" v="Москва"/>
    <tag k="building" v="yes"/>
    <tag k="building:levels" v="1"/>
  </way>
  <way id="96611015" version="1" timestamp="2011-01-24T18:13:40Z" uid="115477" user="wowik" changeset="7075929">
    <nd ref="1119018181"/>
    <nd ref="1119018470"/>
    <nd ref="1119017813"/>
    <nd ref="1119018301"/>
    <nd ref="1119018181"/>
    <tag k="addr:city" v="Зеленоград"/>
    <tag k="addr:housenumber" v="1616 с1"/>
    <tag k="addr:street" v="16-й Микрорайон"/>
    <tag k="building" v="yes"/>
    <tag k="building:levels" v="1"/>
    <tag k="is_in" v="Russia"/>
    <tag k="landuse" v="service"/>
    <tag k="note" v="addr:housenumber не точен"/>
  </way>
  <way id="96611015" version="2" timestamp="2011-06-07T20:48:37Z" uid="133332" user="AMDmi3" changeset="8374030">
    <nd ref="1119018181"/>
    <nd ref="1119018470"/>
    <nd ref="1119017813"/>
    <nd ref="1119018301"/>
    <nd ref="1119018181"/>
    <tag k="addr:city" v="Зеленоград"/>
    <tag k="addr:housenumber" v="1616 с1"/>
    <tag k="addr:street" v="16-й микрорайон"/>
    <tag k="building" v="yes"/>
    <tag k="building:levels" v="1"/>
    <tag k="is_in" v="Russia"/>
    <tag k="landuse" v="service"/>
    <tag k="note" v="addr:housenumber не точен"/>
  </way>
  <way id="96611015" version="3" timestamp="2011-09-13T10:23:21Z" uid="29320" user="Komяpa" changeset="9288237">
    <nd ref="1119018181"/>
    <nd ref="1119018470"/>
    <nd ref="1119017813"/>
    <nd ref="1119018301"/>
    <nd ref="1119018181"/>
    <tag k="addr:city" v="Зеленоград"/>
    <tag k="addr:country" v="RU"/>
    <tag k="addr:housenumber" v="1616 с1"/>
    <tag k="addr:street" v="16-й микрорайон"/>
    <tag k="building" v="service"/>
    <tag k="building:levels" v="1"/>
    <tag k="note" v="addr:housenumber не точен"/>
  </way>
  <way id="96611015" version="4" timestamp="2012-03-27T11:37:08Z" uid="481934" user="iWowik" changeset="11115472">
    <nd ref="1119018181"/>
    <nd ref="1119018470"/>
    <nd ref="1119017813"/>
    <nd ref="1119018301"/>
    <nd ref="1119018181"/>
    <tag k="addr:city" v="Зеленоград"/>
    <tag k="addr:country" v="RU"/>
    <tag k="addr:housenumber" v="1616 с1"/>
    <tag k="addr:region" v="Москва"/>
    <tag k="addr:street" v="16-й микрорайон"/>
    <tag k="building" v="service"/>
    <tag k="building:levels" v="1"/>
    <tag k="note" v="addr:housenumber не точен"/>
  </way>
  <way id="96611019" version="1" timestamp="2011-01-24T18:13:40Z" uid="115477" user="wowik" changeset="7075929">
    <nd ref="1119018128"/>
    <nd ref="1119018410"/>
    <nd ref="1119017764"/>
    <nd ref="1119018042"/>
    <nd ref="1119018128"/>
    <tag k="building" v="yes"/>
    <tag k="building:levels" v="1"/>
    <tag k="landuse" v="garages"/>
  </way>
  <way id="96611019" version="2" timestamp="2011-09-13T10:38:31Z" uid="29320" user="Komяpa" changeset="9288237">
    <nd ref="1119018128"/>
    <nd ref="1119018410"/>
    <nd ref="1119017764"/>
    <nd ref="1119018042"/>
    <nd ref="1119018128"/>
    <tag k="building" v="garages"/>
    <tag k="building:levels" v="1"/>
  </way>
  <way id="96611020" version="1" timestamp="2011-01-24T18:13:40Z" uid="115477" user="wowik" changeset="7075929">
    <nd ref="1119018305"/>
    <nd ref="1119018572"/>
    <nd ref="1119017930"/>
    <nd ref="1119018237"/>
    <nd ref="1119018305"/>
    <tag k="building" v="yes"/>
    <tag k="building:levels" v="1"/>
  </way>
  <way id="96611020" version="2" timestamp="2012-03-27T08:13:23Z" uid="481934" user="iWowik" changeset="11113698">
    <nd ref="1119018305"/>
    <nd ref="1119018572"/>
    <nd ref="1119017930"/>
    <nd ref="1119018237"/>
    <nd ref="1119018305"/>
    <tag k="addr:city" v="Зеленоград"/>
    <tag k="addr:country" v="RU"/>
    <tag k="building" v="yes"/>
    <tag k="building:levels" v="1"/>
  </way>
  <way id="96611020" version="3" timestamp="2012-03-27T11:53:51Z" uid="481934" user="iWowik" changeset="11115472">
    <nd ref="1119018305"/>
    <nd ref="1119018572"/>
    <nd ref="1119017930"/>
    <nd ref="1119018237"/>
    <nd ref="1119018305"/>
    <tag k="addr:city" v="Зеленоград"/>
    <tag k="addr:country" v="RU"/>
    <tag k="addr:region" v="Москва"/>
    <tag k="building" v="yes"/>
    <tag k="building:levels" v="1"/>
  </way>
  <way id="96611022" version="1" timestamp="2011-01-24T18:13:40Z" uid="115477" user="wowik" changeset="7075929">
    <nd ref="1119018532"/>
    <nd ref="1119017866"/>
    <nd ref="1119018175"/>
    <nd ref="1119018459"/>
    <nd ref="1119018532"/>
    <tag k="building" v="yes"/>
    <tag k="building:levels" v="1"/>
  </way>
  <way id="96611022" version="2" timestamp="2012-03-27T08:12:01Z" uid="481934" user="iWowik" changeset="11113698">
    <nd ref="1119018532"/>
    <nd ref="1119017866"/>
    <nd ref="1119018175"/>
    <nd ref="1119018459"/>
    <nd ref="1119018532"/>
    <tag k="addr:city" v="Зеленоград"/>
    <tag k="addr:country" v="RU"/>
    <tag k="building" v="yes"/>
    <tag k="building:levels" v="1"/>
  </way>
  <way id="96611022" version="3" timestamp="2012-03-27T11:50:21Z" uid="481934" user="iWowik" changeset="11115472">
    <nd ref="1119018532"/>
    <nd ref="1119017866"/>
    <nd ref="1119018175"/>
    <nd ref="1119018459"/>
    <nd ref="1119018532"/>
    <tag k="addr:city" v="Зеленоград"/>
    <tag k="addr:country" v="RU"/>
    <tag k="addr:region" v="Москва"/>
    <tag k="building" v="yes"/>
    <tag k="building:levels" v="1"/>
  </way>
  <way id="96611001" version="4" timestamp="2012-07-20T23:56:29Z" uid="722137" user="OSMF Redaction Account" changeset="12396619"/>
  <way id="96611004" version="3" timestamp="2012-07-20T23:56:05Z" uid="722137" user="OSMF Redaction Account" changeset="12396604"/>
  <way id="96611005" version="3" timestamp="2012-07-20T23:56:14Z" uid="722137" user="OSMF Redaction Account" changeset="12396604"/>
  <way id="96611008" version="3" timestamp="2012-07-18T07:13:33Z" uid="741473" user="Abyr" changeset="12275342">
    <nd ref="1119018200"/>
    <nd ref="1119018483"/>
    <nd ref="1119017815"/>
    <nd ref="1119018116"/>
    <nd ref="1119018200"/>
    <tag k="amenity" v="parking"/>
    <tag k="building:levels" v="1"/>
    <tag k="parking" v="garage_boxes"/>
  </way>
  <way id="96611008" version="4" timestamp="2012-07-20T23:56:22Z" uid="722137" user="OSMF Redaction Account" changeset="12396604"/>
  <way id="96611010" version="4" timestamp="2012-07-20T23:56:30Z" uid="722137" user="OSMF Redaction Account" changeset="12396619"/>
  <way id="96611011" version="4" timestamp="2012-07-20T23:56:30Z" uid="722137" user="OSMF Redaction Account" changeset="12396619"/>
  <way id="96611015" version="5" timestamp="2012-07-20T23:56:06Z" uid="722137" user="OSMF Redaction Account" changeset="12396604"/>
  <way id="96611019" version="3" timestamp="2012-07-20T23:56:07Z" uid="722137" user="OSMF Redaction Account" changeset="12396604"/>
  <way id="96611020" version="4" timestamp="2012-07-20T23:56:28Z" uid="722137" user="OSMF Redaction Account" changeset="12396619"/>
  <way id="96611022" version="4" timestamp="2012-07-20T23:56:20Z" uid="722137" user="OSMF Redaction Account" changeset="12396604"/>
</osm>
