<?xml version='1.0' encoding='UTF-8'?>
<osm version="0.6" generator="libosmium/2.20.0">
  <way id="9676189" version="3" timestamp="2007-11-04T20:07:24Z" uid="8328" user="benpre" changeset="405847">
    <nd ref="75995123"/>
    <nd ref="75996289"/>
    <nd ref="75992841"/>
    <tag k="created_by" v="Potlatch alpha"/>
    <tag k="highway" v="residential"/>
    <tag k="name" v="Álfabakki"/>
  </way>
  <way id="9676189" version="4" timestamp="2008-01-21T20:10:56Z" uid="12671" user="sladen" changeset="680130">
    <nd ref="75995123"/>
    <nd ref="75996289"/>
    <nd ref="241759184"/>
    <nd ref="75992841"/>
    <tag k="created_by" v="Potlatch 0.6c"/>
    <tag k="highway" v="residential"/>
    <tag k="name" v="Álfabakki"/>
  </way>
  <way id="9676189" version="5" timestamp="2008-09-27T15:58:11Z" uid="21585" user="DaníelG" changeset="706519">
    <nd ref="75995123"/>
    <nd ref="75996289"/>
    <nd ref="241759184"/>
    <nd ref="75992841"/>
    <nd ref="300363779"/>
    <nd ref="300363781"/>
    <nd ref="300363784"/>
    <tag k="created_by" v="Potlatch 0.6c"/>
    <tag k="highway" v="residential"/>
    <tag k="name" v="Álfabakki"/>
  </way>
  <way id="9676189" version="6" timestamp="2009-08-31T01:19:30Z" uid="165062" user="RR8" changeset="2321399">
    <nd ref="75995123"/>
    <nd ref="75996289"/>
    <nd ref="241759184"/>
    <nd ref="75992841"/>
    <nd ref="300363779"/>
    <nd ref="300363781"/>
    <nd ref="300363784"/>
    <tag k="created_by" v="Potlatch 0.6c"/>
    <tag k="highway" v="tertiary"/>
    <tag k="name" v="Álfabakki"/>
  </way>
  <way id="9676189" version="7" timestamp="2009-09-02T19:32:40Z" uid="145231" user="woodpeck_repair" changeset="2352857">
    <nd ref="75995123"/>
    <nd ref="75996289"/>
    <nd ref="241759184"/>
    <nd ref="75992841"/>
    <nd ref="300363779"/>
    <nd ref="300363781"/>
    <nd ref="300363784"/>
    <tag k="created_by" v="Potlatch 0.6c"/>
    <tag k="highway" v="residential"/>
    <tag k="name" v="Álfabakki"/>
  </way>
  <way id="9676189" version="8" timestamp="2010-11-03T01:04:40Z" uid="50061" user="Baldvin" changeset="6272962">
    <nd ref="75995123"/>
    <nd ref="975512839"/>
    <nd ref="75996289"/>
    <nd ref="975512833"/>
    <nd ref="975512853"/>
    <nd ref="241759184"/>
    <nd ref="75992841"/>
    <nd ref="975512838"/>
    <nd ref="300363779"/>
    <nd ref="300363781"/>
    <nd ref="300363784"/>
    <tag k="highway" v="residential"/>
    <tag k="name" v="Álfabakki"/>
  </way>
  <way id="9676189" version="9" timestamp="2010-12-02T12:02:38Z" uid="118353" user="arnid65" changeset="6513898">
    <nd ref="75995123"/>
    <nd ref="975512839"/>
    <nd ref="75996289"/>
    <nd ref="975512833"/>
    <nd ref="975512853"/>
    <nd ref="241759184"/>
    <nd ref="75992841"/>
    <nd ref="975512838"/>
    <nd ref="1015791730"/>
    <nd ref="1015791700"/>
    <nd ref="1015791729"/>
    <nd ref="300363779"/>
    <nd ref="1015791741"/>
    <nd ref="1015791706"/>
    <nd ref="1015791720"/>
    <nd ref="1015791678"/>
    <nd ref="300363781"/>
    <nd ref="300363784"/>
    <tag k="highway" v="residential"/>
    <tag k="name" v="Álfabakki"/>
  </way>
  <way id="9676189" version="10" timestamp="2011-01-14T14:56:42Z" uid="53579" user="Davíð Jakobsson" changeset="6967983">
    <nd ref="75995123"/>
    <nd ref="975512839"/>
    <nd ref="75996289"/>
    <nd ref="975512833"/>
    <nd ref="975512853"/>
    <nd ref="241759184"/>
    <nd ref="75992841"/>
    <nd ref="975512838"/>
    <nd ref="1015791730"/>
    <nd ref="1015791700"/>
    <nd ref="1015791729"/>
    <nd ref="1103301838"/>
    <nd ref="300363779"/>
    <nd ref="1015791741"/>
    <nd ref="1015791706"/>
    <nd ref="1015791720"/>
    <nd ref="1015791678"/>
    <nd ref="300363781"/>
    <nd ref="300363784"/>
    <tag k="highway" v="residential"/>
    <tag k="name" v="Álfabakki"/>
  </way>
  <way id="9676189" version="11" timestamp="2011-03-15T17:27:56Z" uid="209717" user="Kjarrval" changeset="7568205">
    <nd ref="75995123"/>
    <nd ref="975512839"/>
    <nd ref="75996289"/>
    <nd ref="975512833"/>
    <nd ref="975512853"/>
    <nd ref="241759184"/>
    <nd ref="75992841"/>
    <nd ref="975512838"/>
    <nd ref="1015791730"/>
    <nd ref="1015791700"/>
    <nd ref="1015791729"/>
    <nd ref="1103301838"/>
    <nd ref="300363779"/>
    <nd ref="1203320086"/>
    <nd ref="1015791741"/>
    <nd ref="1015791706"/>
    <nd ref="1015791720"/>
    <nd ref="1015791678"/>
    <nd ref="300363781"/>
    <nd ref="1203320123"/>
    <nd ref="1203320088"/>
    <nd ref="300363784"/>
    <tag k="highway" v="residential"/>
    <tag k="name" v="Álfabakki"/>
  </way>
  <way id="9676861" version="2" timestamp="2007-12-25T22:35:20Z" uid="1066" user="pavel" changeset="421816">
    <nd ref="32667430"/>
    <nd ref="75735033"/>
    <nd ref="7908718"/>
    <tag k="created_by" v="JOSM"/>
    <tag k="highway" v="residential"/>
  </way>
  <way id="9676861" version="3" timestamp="2008-08-02T05:59:48Z" uid="54190" user="McMurdo" changeset="30141">
    <nd ref="32667430"/>
    <nd ref="75735033"/>
    <nd ref="7908718"/>
    <tag k="created_by" v="Potlatch 0.10b"/>
    <tag k="highway" v="residential"/>
    <tag k="name" v="Běluňská"/>
  </way>
  <way id="9676861" version="4" timestamp="2011-02-07T19:07:02Z" uid="3516" user="BiIbo" changeset="7215631">
    <nd ref="32667430"/>
    <nd ref="75735033"/>
    <nd ref="1141130236"/>
    <nd ref="1141130352"/>
    <nd ref="7908718"/>
    <tag k="highway" v="residential"/>
    <tag k="name" v="Běluňská"/>
  </way>
  <way id="9676863" version="2" timestamp="2007-12-25T22:35:17Z" uid="1066" user="pavel" changeset="421816">
    <nd ref="30233399"/>
    <nd ref="6935836"/>
    <nd ref="76007288"/>
    <tag k="created_by" v="JOSM"/>
    <tag k="highway" v="residential"/>
  </way>
  <way id="9676863" version="3" timestamp="2008-09-05T10:54:13Z" uid="1066" user="pavel" changeset="539695">
    <nd ref="30233399"/>
    <nd ref="6935836"/>
    <nd ref="76007288"/>
    <tag k="created_by" v="JOSM"/>
    <tag k="highway" v="residential"/>
    <tag k="name" v="Lukavecká"/>
    <tag k="name:source" v="nameit/uir-adr"/>
  </way>
  <way id="9676863" version="4" timestamp="2009-03-09T03:19:33Z" uid="3516" user="BiIbo" changeset="766878">
    <nd ref="30233399"/>
    <nd ref="6935836"/>
    <nd ref="76007288"/>
    <tag k="created_by" v="JOSM"/>
    <tag k="highway" v="residential"/>
    <tag k="name" v="Lukavecká"/>
    <tag k="source:name" v="nameit/uir-adr"/>
  </way>
  <way id="9676863" version="5" timestamp="2011-02-07T18:26:33Z" uid="3516" user="BiIbo" changeset="7215631">
    <nd ref="30233399"/>
    <nd ref="1141088643"/>
    <nd ref="6935836"/>
    <nd ref="1141088699"/>
    <nd ref="76007288"/>
    <tag k="highway" v="residential"/>
    <tag k="name" v="Lukavecká"/>
    <tag k="source:name" v="nameit/uir-adr"/>
  </way>
  <way id="9676873" version="2" timestamp="2007-12-25T22:35:40Z" uid="1066" user="pavel" changeset="421816">
    <nd ref="30233404"/>
    <nd ref="76007209"/>
    <tag k="created_by" v="JOSM"/>
    <tag k="highway" v="residential"/>
  </way>
  <way id="9676873" version="3" timestamp="2008-08-02T00:05:57Z" uid="3516" user="BiIbo" changeset="23164">
    <nd ref="281192975"/>
    <nd ref="76007209"/>
    <tag k="created_by" v="JOSM"/>
    <tag k="highway" v="residential"/>
  </way>
  <way id="9676873" version="4" timestamp="2008-09-05T10:55:13Z" uid="1066" user="pavel" changeset="539695">
    <nd ref="281192975"/>
    <nd ref="76007209"/>
    <tag k="created_by" v="JOSM"/>
    <tag k="highway" v="residential"/>
    <tag k="name" v="Otovická"/>
    <tag k="name:source" v="nameit/uir-adr"/>
  </way>
  <way id="9676873" version="5" timestamp="2009-03-09T03:19:12Z" uid="3516" user="BiIbo" changeset="766878">
    <nd ref="281192975"/>
    <nd ref="76007209"/>
    <tag k="created_by" v="JOSM"/>
    <tag k="highway" v="residential"/>
    <tag k="name" v="Otovická"/>
    <tag k="source:name" v="nameit/uir-adr"/>
  </way>
  <way id="9676874" version="2" timestamp="2007-12-25T22:35:25Z" uid="1066" user="pavel" changeset="421816">
    <nd ref="76007209"/>
    <nd ref="76007213"/>
    <tag k="created_by" v="JOSM"/>
    <tag k="highway" v="residential"/>
  </way>
  <way id="9676874" version="3" timestamp="2008-09-05T10:54:32Z" uid="1066" user="pavel" changeset="539695">
    <nd ref="76007209"/>
    <nd ref="76007213"/>
    <tag k="created_by" v="JOSM"/>
    <tag k="highway" v="residential"/>
    <tag k="name" v="Dobšická"/>
    <tag k="name:source" v="nameit/uir-adr"/>
  </way>
  <way id="9676874" version="4" timestamp="2009-03-09T03:19:10Z" uid="3516" user="BiIbo" changeset="766878">
    <nd ref="76007209"/>
    <nd ref="76007213"/>
    <tag k="created_by" v="JOSM"/>
    <tag k="highway" v="residential"/>
    <tag k="name" v="Dobšická"/>
    <tag k="source:name" v="nameit/uir-adr"/>
  </way>
  <way id="9676874" version="5" timestamp="2010-07-04T12:45:24Z" uid="162287" user="zby-cz" changeset="5132469">
    <nd ref="76007213"/>
    <nd ref="76007209"/>
    <nd ref="800407815"/>
    <tag k="highway" v="residential"/>
    <tag k="name" v="Dobšická"/>
    <tag k="source:name" v="nameit/uir-adr"/>
  </way>
  <way id="9676874" version="6" timestamp="2011-02-07T19:07:05Z" uid="3516" user="BiIbo" changeset="7215631">
    <nd ref="76007213"/>
    <nd ref="1141130180"/>
    <nd ref="76007209"/>
    <nd ref="800407815"/>
    <tag k="highway" v="residential"/>
    <tag k="name" v="Dobšická"/>
    <tag k="source:name" v="nameit/uir-adr"/>
  </way>
  <way id="9676876" version="3" timestamp="2007-12-25T22:34:13Z" uid="1066" user="pavel" changeset="421816">
    <nd ref="76007213"/>
    <nd ref="76007216"/>
    <nd ref="76012844"/>
    <nd ref="76007218"/>
    <nd ref="76007275"/>
    <nd ref="76007278"/>
    <tag k="created_by" v="JOSM"/>
    <tag k="highway" v="residential"/>
  </way>
  <way id="9676876" version="4" timestamp="2008-09-05T10:53:17Z" uid="1066" user="pavel" changeset="539695">
    <nd ref="76007213"/>
    <nd ref="76007216"/>
    <nd ref="76012844"/>
    <nd ref="76007218"/>
    <nd ref="76007275"/>
    <nd ref="76007278"/>
    <tag k="created_by" v="JOSM"/>
    <tag k="highway" v="residential"/>
    <tag k="name" v="Dobšická"/>
    <tag k="name:source" v="nameit/uir-adr"/>
  </way>
  <way id="9676876" version="5" timestamp="2009-03-09T03:19:07Z" uid="3516" user="BiIbo" changeset="766878">
    <nd ref="76007213"/>
    <nd ref="76007216"/>
    <nd ref="76012844"/>
    <nd ref="76007218"/>
    <nd ref="76007275"/>
    <nd ref="76007278"/>
    <tag k="created_by" v="JOSM"/>
    <tag k="highway" v="residential"/>
    <tag k="name" v="Dobšická"/>
    <tag k="source:name" v="nameit/uir-adr"/>
  </way>
  <way id="9676876" version="6" timestamp="2011-02-07T18:26:28Z" uid="3516" user="BiIbo" changeset="7215631">
    <nd ref="76007213"/>
    <nd ref="76007216"/>
    <nd ref="76012844"/>
    <nd ref="76007218"/>
    <nd ref="76007275"/>
    <nd ref="1141088667"/>
    <nd ref="76007278"/>
    <tag k="highway" v="residential"/>
    <tag k="name" v="Dobšická"/>
    <tag k="source:name" v="nameit/uir-adr"/>
  </way>
  <way id="9676876" version="7" timestamp="2011-02-07T19:07:00Z" uid="3516" user="BiIbo" changeset="7215631">
    <nd ref="76007213"/>
    <nd ref="1141130360"/>
    <nd ref="76007216"/>
    <nd ref="76012844"/>
    <nd ref="76007218"/>
    <nd ref="76007275"/>
    <nd ref="1141088667"/>
    <nd ref="76007278"/>
    <tag k="highway" v="residential"/>
    <tag k="name" v="Dobšická"/>
    <tag k="source:name" v="nameit/uir-adr"/>
  </way>
  <way id="9676877" version="3" timestamp="2007-12-25T22:35:37Z" uid="1066" user="pavel" changeset="421816">
    <nd ref="7908697"/>
    <nd ref="76012876"/>
    <nd ref="76012872"/>
    <nd ref="75734848"/>
    <nd ref="75734874"/>
    <nd ref="30233366"/>
    <tag k="created_by" v="JOSM"/>
    <tag k="highway" v="residential"/>
  </way>
  <way id="9676877" version="4" timestamp="2008-07-26T12:24:21Z" uid="54190" user="McMurdo" changeset="602990">
    <nd ref="7908697"/>
    <nd ref="281191936"/>
    <nd ref="76012876"/>
    <nd ref="76012872"/>
    <nd ref="75734848"/>
    <nd ref="75734874"/>
    <nd ref="30233366"/>
    <tag k="created_by" v="Potlatch 0.10"/>
    <tag k="highway" v="residential"/>
  </way>
  <way id="9676877" version="5" timestamp="2008-08-02T05:50:46Z" uid="54190" user="McMurdo" changeset="30141">
    <nd ref="7908697"/>
    <nd ref="281191936"/>
    <nd ref="76012876"/>
    <nd ref="76012872"/>
    <nd ref="75734848"/>
    <nd ref="75734874"/>
    <nd ref="30233366"/>
    <tag k="created_by" v="Potlatch 0.10b"/>
    <tag k="highway" v="residential"/>
    <tag k="name" v="Komárovská"/>
  </way>
  <way id="9676877" version="6" timestamp="2009-03-09T03:19:08Z" uid="3516" user="BiIbo" changeset="766878">
    <nd ref="7908697"/>
    <nd ref="281191936"/>
    <nd ref="281192355"/>
    <nd ref="76012872"/>
    <nd ref="75734848"/>
    <nd ref="75734874"/>
    <nd ref="30233366"/>
    <tag k="created_by" v="Potlatch 0.10b"/>
    <tag k="highway" v="residential"/>
    <tag k="name" v="Komárovská"/>
  </way>
  <way id="9676877" version="7" timestamp="2011-02-07T18:26:35Z" uid="3516" user="BiIbo" changeset="7215631">
    <nd ref="7908697"/>
    <nd ref="281191936"/>
    <nd ref="281192355"/>
    <nd ref="76012872"/>
    <nd ref="75734848"/>
    <nd ref="1141088702"/>
    <nd ref="75734874"/>
    <nd ref="30233366"/>
    <tag k="highway" v="residential"/>
    <tag k="name" v="Komárovská"/>
  </way>
  <way id="9676878" version="3" timestamp="2007-12-25T22:35:26Z" uid="1066" user="pavel" changeset="421816">
    <nd ref="30233367"/>
    <nd ref="76012847"/>
    <nd ref="76007289"/>
    <tag k="created_by" v="JOSM"/>
    <tag k="highway" v="residential"/>
  </way>
  <way id="9676878" version="4" timestamp="2008-09-05T10:54:34Z" uid="1066" user="pavel" changeset="539695">
    <nd ref="30233367"/>
    <nd ref="76012847"/>
    <nd ref="76007289"/>
    <tag k="created_by" v="JOSM"/>
    <tag k="highway" v="residential"/>
    <tag k="name" v="Komárovská"/>
    <tag k="name:source" v="nameit/uir-adr"/>
  </way>
  <way id="9676878" version="5" timestamp="2009-03-09T03:19:06Z" uid="3516" user="BiIbo" changeset="766878">
    <nd ref="30233367"/>
    <nd ref="76012847"/>
    <nd ref="281194267"/>
    <tag k="created_by" v="JOSM"/>
    <tag k="highway" v="residential"/>
    <tag k="name" v="Komárovská"/>
    <tag k="source:name" v="nameit/uir-adr"/>
  </way>
  <way id="9676878" version="6" timestamp="2009-11-02T22:53:32Z" uid="3516" user="BiIbo" changeset="3020638">
    <nd ref="30233367"/>
    <nd ref="76012847"/>
    <nd ref="552461288"/>
    <nd ref="281194267"/>
    <tag k="highway" v="residential"/>
    <tag k="name" v="Komárovská"/>
    <tag k="source:name" v="nameit/uir-adr"/>
  </way>
  <way id="9676878" version="7" timestamp="2011-02-07T18:19:17Z" uid="3516" user="BiIbo" changeset="7215631">
    <nd ref="30233367"/>
    <nd ref="1141073804"/>
    <nd ref="76012847"/>
    <nd ref="1141073803"/>
    <nd ref="552461288"/>
    <nd ref="281194267"/>
    <tag k="highway" v="residential"/>
    <tag k="name" v="Komárovská"/>
    <tag k="source:name" v="nameit/uir-adr"/>
  </way>
  <way id="9676879" version="2" timestamp="2007-12-25T22:35:08Z" uid="1066" user="pavel" changeset="421816">
    <nd ref="76007275"/>
    <nd ref="75734840"/>
    <tag k="created_by" v="JOSM"/>
    <tag k="highway" v="residential"/>
  </way>
  <way id="9676879" version="3" timestamp="2008-09-05T10:53:44Z" uid="1066" user="pavel" changeset="539695">
    <nd ref="76007275"/>
    <nd ref="75734840"/>
    <tag k="created_by" v="JOSM"/>
    <tag k="highway" v="residential"/>
    <tag k="name" v="Běchorská"/>
    <tag k="name:source" v="nameit/uir-adr"/>
  </way>
  <way id="9676879" version="4" timestamp="2009-03-09T03:19:07Z" uid="3516" user="BiIbo" changeset="766878">
    <nd ref="76007275"/>
    <nd ref="280808786"/>
    <tag k="created_by" v="JOSM"/>
    <tag k="highway" v="residential"/>
    <tag k="name" v="Běchorská"/>
    <tag k="source:name" v="nameit/uir-adr"/>
  </way>
  <way id="9676189" version="12" timestamp="2012-05-07T12:33:03Z" uid="392336" user="Mister Kanister" changeset="11528443">
    <nd ref="75995123"/>
    <nd ref="975512839"/>
    <nd ref="75996289"/>
    <nd ref="975512833"/>
    <nd ref="975512853"/>
    <nd ref="241759184"/>
    <nd ref="75992841"/>
    <nd ref="975512838"/>
    <nd ref="1015791730"/>
    <nd ref="1015791700"/>
    <nd ref="1015791729"/>
    <nd ref="1103301838"/>
    <tag k="highway" v="residential"/>
    <tag k="name" v="Álfabakki"/>
  </way>
  <way id="9676189" version="13" timestamp="2012-05-29T22:25:31Z" uid="683380" user="valliv8" changeset="11743299">
    <nd ref="75995123"/>
    <nd ref="1770032639"/>
    <nd ref="1770032504"/>
    <nd ref="975512839"/>
    <nd ref="75996289"/>
    <nd ref="975512833"/>
    <nd ref="975512853"/>
    <nd ref="241759184"/>
    <nd ref="75992841"/>
    <nd ref="975512838"/>
    <nd ref="1015791730"/>
    <nd ref="1015791700"/>
    <nd ref="1015791729"/>
    <nd ref="1770032524"/>
    <nd ref="1103301838"/>
    <tag k="highway" v="residential"/>
    <tag k="name" v="Álfabakki"/>
  </way>
  <way id="9676189" version="14" timestamp="2012-06-02T19:26:28Z" uid="392336" user="Mister Kanister" changeset="11780014">
    <nd ref="75995123"/>
    <nd ref="1770032639"/>
    <nd ref="1770032504"/>
    <nd ref="975512839"/>
    <nd ref="75996289"/>
    <nd ref="975512833"/>
    <nd ref="975512853"/>
    <nd ref="241759184"/>
    <nd ref="75992841"/>
    <nd ref="975512838"/>
    <nd ref="1015791730"/>
    <nd ref="1015791700"/>
    <nd ref="1015791729"/>
    <nd ref="1770032524"/>
    <tag k="highway" v="residential"/>
    <tag k="name" v="Álfabakki"/>
  </way>
  <way id="9676189" version="15" timestamp="2012-07-20T00:18:32Z" uid="722137" user="OSMF Redaction Account" changeset="12352113">
    <nd ref="75995123"/>
    <nd ref="1770032639"/>
    <nd ref="1770032504"/>
    <nd ref="975512839"/>
    <nd ref="975512833"/>
    <nd ref="975512853"/>
    <nd ref="241759184"/>
    <nd ref="75992841"/>
    <nd ref="975512838"/>
    <nd ref="1015791730"/>
    <nd ref="1015791700"/>
    <nd ref="1015791729"/>
    <nd ref="1770032524"/>
    <tag k="highway" v="residential"/>
    <tag k="name" v="Álfabakki"/>
  </way>
  <way id="9676861" version="5" timestamp="2012-04-30T08:46:11Z" uid="305367" user="Tomas Pajonk" changeset="11457460">
    <nd ref="32667430"/>
    <nd ref="75735033"/>
    <nd ref="1141130236"/>
    <nd ref="1141130352"/>
    <nd ref="7908718"/>
    <tag k="hgv" v="destination"/>
    <tag k="highway" v="residential"/>
    <tag k="name" v="Běluňská"/>
  </way>
  <way id="9676863" version="6" timestamp="2012-04-30T08:45:58Z" uid="305367" user="Tomas Pajonk" changeset="11457460">
    <nd ref="30233399"/>
    <nd ref="1141088643"/>
    <nd ref="6935836"/>
    <nd ref="1141088699"/>
    <nd ref="76007288"/>
    <tag k="hgv" v="destination"/>
    <tag k="highway" v="residential"/>
    <tag k="name" v="Lukavecká"/>
    <tag k="source:name" v="nameit/uir-adr"/>
  </way>
  <way id="9676873" version="6" timestamp="2012-04-30T08:45:56Z" uid="305367" user="Tomas Pajonk" changeset="11457460">
    <nd ref="281192975"/>
    <nd ref="76007209"/>
    <tag k="hgv" v="destination"/>
    <tag k="highway" v="residential"/>
    <tag k="name" v="Otovická"/>
    <tag k="source:name" v="nameit/uir-adr"/>
  </way>
  <way id="9676874" version="7" timestamp="2012-04-30T08:45:56Z" uid="305367" user="Tomas Pajonk" changeset="11457460">
    <nd ref="76007213"/>
    <nd ref="1141130180"/>
    <nd ref="76007209"/>
    <nd ref="800407815"/>
    <tag k="hgv" v="destination"/>
    <tag k="highway" v="residential"/>
    <tag k="name" v="Dobšická"/>
    <tag k="source:name" v="nameit/uir-adr"/>
  </way>
  <way id="9676876" version="8" timestamp="2012-04-30T08:45:56Z" uid="305367" user="Tomas Pajonk" changeset="11457460">
    <nd ref="76007213"/>
    <nd ref="1141130360"/>
    <nd ref="76007216"/>
    <nd ref="76012844"/>
    <nd ref="76007218"/>
    <nd ref="76007275"/>
    <nd ref="1141088667"/>
    <nd ref="76007278"/>
    <tag k="hgv" v="destination"/>
    <tag k="highway" v="residential"/>
    <tag k="name" v="Dobšická"/>
    <tag k="source:name" v="nameit/uir-adr"/>
  </way>
  <way id="9676877" version="8" timestamp="2012-04-30T08:46:08Z" uid="305367" user="Tomas Pajonk" changeset="11457460">
    <nd ref="7908697"/>
    <nd ref="281191936"/>
    <nd ref="281192355"/>
    <nd ref="76012872"/>
    <nd ref="75734848"/>
    <nd ref="1141088702"/>
    <nd ref="75734874"/>
    <nd ref="30233366"/>
    <tag k="hgv" v="destination"/>
    <tag k="highway" v="residential"/>
    <tag k="name" v="Komárovská"/>
  </way>
  <way id="9676878" version="8" timestamp="2012-04-30T08:45:59Z" uid="305367" user="Tomas Pajonk" changeset="11457460">
    <nd ref="30233367"/>
    <nd ref="1141073804"/>
    <nd ref="76012847"/>
    <nd ref="1141073803"/>
    <nd ref="552461288"/>
    <nd ref="281194267"/>
    <tag k="hgv" v="destination"/>
    <tag k="highway" v="residential"/>
    <tag k="name" v="Komárovská"/>
    <tag k="source:name" v="nameit/uir-adr"/>
  </way>
  <way id="9676879" version="5" timestamp="2012-04-30T08:46:10Z" uid="305367" user="Tomas Pajonk" changeset="11457460">
    <nd ref="76007275"/>
    <nd ref="280808786"/>
    <tag k="hgv" v="destination"/>
    <tag k="highway" v="residential"/>
    <tag k="name" v="Běchorská"/>
    <tag k="source:name" v="nameit/uir-adr"/>
  </way>
</osm>
