<?xml version='1.0' encoding='UTF-8'?>
<osm version="0.6" generator="libosmium/2.20.0">
  <way id="9677201" version="2" timestamp="2007-12-25T22:35:44Z" uid="1066" user="pavel" changeset="421816">
    <nd ref="76007209"/>
    <nd ref="76012842"/>
    <tag k="created_by" v="JOSM"/>
    <tag k="highway" v="residential"/>
  </way>
  <way id="9677201" version="3" timestamp="2008-09-05T10:55:24Z" uid="1066" user="pavel" changeset="539695">
    <nd ref="76007209"/>
    <nd ref="76012842"/>
    <tag k="created_by" v="JOSM"/>
    <tag k="highway" v="residential"/>
    <tag k="name" v="Otovická"/>
    <tag k="name:source" v="nameit/uir-adr"/>
  </way>
  <way id="9677201" version="4" timestamp="2009-03-09T03:19:36Z" uid="3516" user="BiIbo" changeset="766878">
    <nd ref="76007209"/>
    <nd ref="76012842"/>
    <tag k="created_by" v="JOSM"/>
    <tag k="highway" v="residential"/>
    <tag k="name" v="Otovická"/>
    <tag k="source:name" v="nameit/uir-adr"/>
  </way>
  <way id="9677202" version="2" timestamp="2007-12-25T22:35:30Z" uid="1066" user="pavel" changeset="421816">
    <nd ref="75734915"/>
    <nd ref="76007218"/>
    <tag k="created_by" v="JOSM"/>
    <tag k="highway" v="residential"/>
  </way>
  <way id="9677202" version="3" timestamp="2008-09-05T10:54:46Z" uid="1066" user="pavel" changeset="539695">
    <nd ref="75734915"/>
    <nd ref="76007218"/>
    <tag k="created_by" v="JOSM"/>
    <tag k="highway" v="residential"/>
    <tag k="name" v="Jívanská"/>
    <tag k="name:source" v="nameit/uir-adr"/>
  </way>
  <way id="9677202" version="4" timestamp="2009-03-09T03:19:36Z" uid="3516" user="BiIbo" changeset="766878">
    <nd ref="75734915"/>
    <nd ref="76007218"/>
    <tag k="created_by" v="JOSM"/>
    <tag k="highway" v="residential"/>
    <tag k="name" v="Jívanská"/>
    <tag k="source:name" v="nameit/uir-adr"/>
  </way>
  <way id="9677204" version="2" timestamp="2007-12-25T22:34:14Z" uid="1066" user="pavel" changeset="421816">
    <nd ref="6935817"/>
    <nd ref="76007216"/>
    <nd ref="75734814"/>
    <nd ref="76007288"/>
    <tag k="created_by" v="JOSM"/>
    <tag k="highway" v="residential"/>
  </way>
  <way id="9677204" version="3" timestamp="2008-08-06T20:21:41Z" uid="54190" user="McMurdo" changeset="112061">
    <nd ref="6935817"/>
    <nd ref="76007216"/>
    <nd ref="75734814"/>
    <nd ref="76007288"/>
    <tag k="created_by" v="Potlatch 0.10b"/>
    <tag k="highway" v="residential"/>
    <tag k="name" v="Mezilesí"/>
  </way>
  <way id="9677205" version="2" timestamp="2007-12-25T22:35:22Z" uid="1066" user="pavel" changeset="421816">
    <nd ref="32667427"/>
    <nd ref="75734947"/>
    <nd ref="76012844"/>
    <nd ref="75734826"/>
    <nd ref="76012848"/>
    <tag k="created_by" v="JOSM"/>
    <tag k="highway" v="residential"/>
  </way>
  <way id="9677205" version="3" timestamp="2008-09-05T10:54:24Z" uid="1066" user="pavel" changeset="539695">
    <nd ref="32667427"/>
    <nd ref="75734947"/>
    <nd ref="76012844"/>
    <nd ref="75734826"/>
    <nd ref="76012848"/>
    <tag k="created_by" v="JOSM"/>
    <tag k="highway" v="residential"/>
    <tag k="name" v="Třebešovská"/>
    <tag k="name:source" v="nameit/uir-adr"/>
  </way>
  <way id="9677205" version="4" timestamp="2009-03-09T03:19:38Z" uid="3516" user="BiIbo" changeset="766878">
    <nd ref="32667427"/>
    <nd ref="75734947"/>
    <nd ref="76012844"/>
    <nd ref="75734826"/>
    <nd ref="76012848"/>
    <tag k="created_by" v="JOSM"/>
    <tag k="highway" v="residential"/>
    <tag k="name" v="Třebešovská"/>
    <tag k="source:name" v="nameit/uir-adr"/>
  </way>
  <way id="9677206" version="2" timestamp="2007-12-25T22:35:38Z" uid="1066" user="pavel" changeset="421816">
    <nd ref="76007288"/>
    <nd ref="76012847"/>
    <tag k="created_by" v="JOSM"/>
    <tag k="highway" v="residential"/>
  </way>
  <way id="9677206" version="3" timestamp="2008-09-05T10:55:00Z" uid="1066" user="pavel" changeset="539695">
    <nd ref="76007288"/>
    <nd ref="76012847"/>
    <tag k="created_by" v="JOSM"/>
    <tag k="highway" v="residential"/>
    <tag k="name" v="Mezilesí"/>
    <tag k="name:source" v="nameit/uir-adr"/>
  </way>
  <way id="9677206" version="4" timestamp="2009-03-09T03:19:40Z" uid="3516" user="BiIbo" changeset="766878">
    <nd ref="76007288"/>
    <nd ref="76012847"/>
    <tag k="created_by" v="JOSM"/>
    <tag k="highway" v="residential"/>
    <tag k="name" v="Mezilesí"/>
    <tag k="source:name" v="nameit/uir-adr"/>
  </way>
  <way id="9677207" version="2" timestamp="2007-12-25T22:35:43Z" uid="1066" user="pavel" changeset="421816">
    <nd ref="76012848"/>
    <nd ref="30233367"/>
    <tag k="created_by" v="JOSM"/>
    <tag k="highway" v="residential"/>
  </way>
  <way id="9677207" version="3" timestamp="2008-09-05T10:55:24Z" uid="1066" user="pavel" changeset="539695">
    <nd ref="76012848"/>
    <nd ref="30233367"/>
    <tag k="created_by" v="JOSM"/>
    <tag k="highway" v="residential"/>
    <tag k="name" v="Třebešovská"/>
    <tag k="name:source" v="nameit/uir-adr"/>
  </way>
  <way id="9677207" version="4" timestamp="2009-03-09T03:19:41Z" uid="3516" user="BiIbo" changeset="766878">
    <nd ref="76012848"/>
    <nd ref="30233367"/>
    <tag k="created_by" v="JOSM"/>
    <tag k="highway" v="residential"/>
    <tag k="name" v="Třebešovská"/>
    <tag k="source:name" v="nameit/uir-adr"/>
  </way>
  <way id="9677207" version="5" timestamp="2011-02-07T18:26:29Z" uid="3516" user="BiIbo" changeset="7215631">
    <nd ref="76012848"/>
    <nd ref="1141088657"/>
    <nd ref="30233367"/>
    <tag k="highway" v="residential"/>
    <tag k="name" v="Třebešovská"/>
    <tag k="source:name" v="nameit/uir-adr"/>
  </way>
  <way id="9677208" version="3" timestamp="2007-12-25T22:35:12Z" uid="1066" user="pavel" changeset="421816">
    <nd ref="75734856"/>
    <nd ref="76012853"/>
    <nd ref="76012856"/>
    <nd ref="6935930"/>
    <tag k="created_by" v="JOSM"/>
    <tag k="highway" v="residential"/>
  </way>
  <way id="9677208" version="4" timestamp="2008-08-31T19:19:14Z" uid="54190" user="McMurdo" changeset="478752">
    <nd ref="75734856"/>
    <nd ref="76012853"/>
    <nd ref="76012856"/>
    <nd ref="6935930"/>
    <tag k="created_by" v="Potlatch 0.10b"/>
    <tag k="highway" v="residential"/>
    <tag k="name" v="Běluňská"/>
  </way>
  <way id="9677208" version="5" timestamp="2009-11-02T22:53:33Z" uid="3516" user="BiIbo" changeset="3020638">
    <nd ref="75734856"/>
    <nd ref="76012853"/>
    <nd ref="76012856"/>
    <nd ref="552461355"/>
    <nd ref="6935930"/>
    <tag k="highway" v="residential"/>
    <tag k="name" v="Běluňská"/>
  </way>
  <way id="9677210" version="2" timestamp="2007-12-25T22:35:30Z" uid="1066" user="pavel" changeset="421816">
    <nd ref="76012856"/>
    <nd ref="76012862"/>
    <nd ref="76012867"/>
    <tag k="created_by" v="JOSM"/>
    <tag k="highway" v="residential"/>
  </way>
  <way id="9677210" version="3" timestamp="2008-08-31T19:19:32Z" uid="54190" user="McMurdo" changeset="478752">
    <nd ref="76012856"/>
    <nd ref="76012862"/>
    <nd ref="76012867"/>
    <tag k="created_by" v="Potlatch 0.10b"/>
    <tag k="highway" v="residential"/>
    <tag k="name" v="Čechurova"/>
  </way>
  <way id="9677210" version="4" timestamp="2008-08-31T19:22:44Z" uid="54190" user="McMurdo" changeset="478752">
    <nd ref="76012856"/>
    <nd ref="76012862"/>
    <nd ref="76012867"/>
    <nd ref="292690354"/>
    <tag k="created_by" v="Potlatch 0.10b"/>
    <tag k="highway" v="residential"/>
    <tag k="name" v="Čechurova"/>
  </way>
  <way id="9677210" version="5" timestamp="2009-03-09T03:28:39Z" uid="3516" user="BiIbo" changeset="766878">
    <nd ref="76012856"/>
    <nd ref="76012862"/>
    <nd ref="76012867"/>
    <nd ref="292690354"/>
    <tag k="created_by" v="Potlatch 0.10b"/>
    <tag k="highway" v="residential"/>
    <tag k="name" v="Čechurova"/>
  </way>
  <way id="9677211" version="2" timestamp="2007-12-25T22:35:47Z" uid="1066" user="pavel" changeset="421816">
    <nd ref="76012872"/>
    <nd ref="76012881"/>
    <tag k="created_by" v="JOSM"/>
    <tag k="highway" v="residential"/>
  </way>
  <way id="9677211" version="3" timestamp="2008-08-02T06:22:22Z" uid="54190" user="McMurdo" changeset="30141">
    <nd ref="76012872"/>
    <nd ref="76012881"/>
    <tag k="created_by" v="Potlatch 0.10b"/>
    <tag k="highway" v="residential"/>
    <tag k="name" v="U Jeslí"/>
  </way>
  <way id="9677211" version="4" timestamp="2009-03-09T03:19:35Z" uid="3516" user="BiIbo" changeset="766878">
    <nd ref="76012872"/>
    <nd ref="280811044"/>
    <nd ref="76012881"/>
    <tag k="created_by" v="Potlatch 0.10b"/>
    <tag k="highway" v="residential"/>
    <tag k="name" v="U Jeslí"/>
  </way>
  <way id="9677213" version="2" timestamp="2007-12-25T22:35:16Z" uid="1066" user="pavel" changeset="421816">
    <nd ref="76012848"/>
    <nd ref="76007288"/>
    <tag k="created_by" v="JOSM"/>
    <tag k="highway" v="residential"/>
  </way>
  <way id="9677213" version="3" timestamp="2008-09-05T10:54:12Z" uid="1066" user="pavel" changeset="539695">
    <nd ref="76012848"/>
    <nd ref="76007288"/>
    <tag k="created_by" v="JOSM"/>
    <tag k="highway" v="residential"/>
    <tag k="name" v="Lukavecká"/>
    <tag k="name:source" v="nameit/uir-adr"/>
  </way>
  <way id="9677213" version="4" timestamp="2009-03-09T03:19:36Z" uid="3516" user="BiIbo" changeset="766878">
    <nd ref="76012848"/>
    <nd ref="76007288"/>
    <tag k="created_by" v="JOSM"/>
    <tag k="highway" v="residential"/>
    <tag k="name" v="Lukavecká"/>
    <tag k="source:name" v="nameit/uir-adr"/>
  </way>
  <way id="9677703" version="2" timestamp="2007-12-25T22:35:21Z" uid="1066" user="pavel" changeset="421816">
    <nd ref="30233414"/>
    <nd ref="76018613"/>
    <tag k="created_by" v="JOSM"/>
    <tag k="highway" v="residential"/>
  </way>
  <way id="9677703" version="3" timestamp="2008-08-02T05:51:40Z" uid="54190" user="McMurdo" changeset="30141">
    <nd ref="30233414"/>
    <nd ref="76018613"/>
    <tag k="created_by" v="Potlatch 0.10b"/>
    <tag k="highway" v="residential"/>
    <tag k="name" v="Krčínská"/>
  </way>
  <way id="9677703" version="4" timestamp="2011-02-07T18:26:36Z" uid="3516" user="BiIbo" changeset="7215631">
    <nd ref="30233414"/>
    <nd ref="1141088677"/>
    <nd ref="76018613"/>
    <tag k="highway" v="residential"/>
    <tag k="name" v="Krčínská"/>
  </way>
  <way id="9677704" version="2" timestamp="2007-12-25T22:35:08Z" uid="1066" user="pavel" changeset="421816">
    <nd ref="76018613"/>
    <nd ref="30233391"/>
    <tag k="created_by" v="JOSM"/>
    <tag k="highway" v="residential"/>
  </way>
  <way id="9677704" version="3" timestamp="2008-08-31T19:21:01Z" uid="54190" user="McMurdo" changeset="478752">
    <nd ref="76018613"/>
    <nd ref="292689765"/>
    <tag k="created_by" v="Potlatch 0.10b"/>
    <tag k="highway" v="residential"/>
    <tag k="name" v="Mečovská"/>
  </way>
  <way id="9677704" version="4" timestamp="2009-03-09T03:19:27Z" uid="3516" user="BiIbo" changeset="766878">
    <nd ref="76018613"/>
    <nd ref="30233391"/>
    <nd ref="292689765"/>
    <tag k="created_by" v="Potlatch 0.10b"/>
    <tag k="highway" v="residential"/>
    <tag k="name" v="Mečovská"/>
  </way>
  <way id="9677705" version="2" timestamp="2007-12-25T22:35:06Z" uid="1066" user="pavel" changeset="421816">
    <nd ref="30233386"/>
    <nd ref="76012853"/>
    <tag k="created_by" v="JOSM"/>
    <tag k="highway" v="residential"/>
  </way>
  <way id="9677705" version="3" timestamp="2008-09-05T10:53:41Z" uid="1066" user="pavel" changeset="539695">
    <nd ref="30233386"/>
    <nd ref="76012853"/>
    <tag k="created_by" v="JOSM"/>
    <tag k="highway" v="residential"/>
    <tag k="name" v="Hrdoňovická"/>
    <tag k="name:source" v="nameit/uir-adr"/>
  </way>
  <way id="9677705" version="4" timestamp="2009-03-09T03:19:27Z" uid="3516" user="BiIbo" changeset="766878">
    <nd ref="30233386"/>
    <nd ref="76012853"/>
    <tag k="created_by" v="JOSM"/>
    <tag k="highway" v="residential"/>
    <tag k="name" v="Hrdoňovická"/>
    <tag k="source:name" v="nameit/uir-adr"/>
  </way>
  <way id="9677706" version="2" timestamp="2007-12-25T22:35:46Z" uid="1066" user="pavel" changeset="421816">
    <nd ref="30233384"/>
    <nd ref="76012856"/>
    <tag k="created_by" v="JOSM"/>
    <tag k="highway" v="residential"/>
  </way>
  <way id="9677706" version="3" timestamp="2008-09-05T10:55:30Z" uid="1066" user="pavel" changeset="539695">
    <nd ref="30233384"/>
    <nd ref="76012856"/>
    <tag k="created_by" v="JOSM"/>
    <tag k="highway" v="residential"/>
    <tag k="name" v="Čechurova"/>
    <tag k="name:source" v="nameit/uir-adr"/>
  </way>
  <way id="9677706" version="4" timestamp="2009-03-04T15:38:13Z" uid="3516" user="BiIbo" changeset="734836">
    <nd ref="30233384"/>
    <nd ref="76012856"/>
    <tag k="created_by" v="JOSM"/>
    <tag k="highway" v="residential"/>
    <tag k="name" v="Čechurova"/>
    <tag k="source:name" v="nameit/uir-adr"/>
  </way>
  <way id="9677708" version="2" timestamp="2007-12-25T22:35:18Z" uid="1066" user="pavel" changeset="421816">
    <nd ref="76012876"/>
    <nd ref="76018683"/>
    <nd ref="76012867"/>
    <tag k="created_by" v="JOSM"/>
    <tag k="highway" v="residential"/>
  </way>
  <way id="9677708" version="3" timestamp="2008-08-06T20:16:13Z" uid="54190" user="McMurdo" changeset="112061">
    <nd ref="76012876"/>
    <nd ref="76018683"/>
    <nd ref="76012867"/>
    <tag k="created_by" v="Potlatch 0.10b"/>
    <tag k="highway" v="residential"/>
    <tag k="name" v="Štverákova"/>
  </way>
  <way id="9677708" version="4" timestamp="2009-03-09T03:19:24Z" uid="3516" user="BiIbo" changeset="766878">
    <nd ref="281192355"/>
    <nd ref="285550848"/>
    <nd ref="76012867"/>
    <tag k="created_by" v="Potlatch 0.10b"/>
    <tag k="highway" v="residential"/>
    <tag k="name" v="Štverákova"/>
  </way>
  <way id="9677708" version="5" timestamp="2009-07-25T07:20:57Z" uid="54190" user="McMurdo" changeset="1931349">
    <nd ref="281192355"/>
    <nd ref="285550848"/>
    <nd ref="76012867"/>
    <nd ref="447728397"/>
    <nd ref="447728398"/>
    <tag k="created_by" v="Potlatch 0.10b"/>
    <tag k="highway" v="residential"/>
    <tag k="name" v="Štverákova"/>
  </way>
  <way id="9677708" version="6" timestamp="2009-11-02T22:31:18Z" uid="3516" user="BiIbo" changeset="3020638">
    <nd ref="281192355"/>
    <nd ref="285550848"/>
    <nd ref="76012867"/>
    <nd ref="552446885"/>
    <nd ref="447728397"/>
    <nd ref="447728398"/>
    <tag k="highway" v="residential"/>
    <tag k="name" v="Štverákova"/>
  </way>
  <way id="9677708" version="7" timestamp="2009-11-02T22:53:33Z" uid="3516" user="BiIbo" changeset="3020638">
    <nd ref="281192355"/>
    <nd ref="285550848"/>
    <nd ref="76012867"/>
    <nd ref="552446885"/>
    <nd ref="552461340"/>
    <nd ref="447728397"/>
    <nd ref="447728398"/>
    <tag k="highway" v="residential"/>
    <tag k="name" v="Štverákova"/>
  </way>
  <way id="9677708" version="8" timestamp="2010-07-04T12:45:23Z" uid="162287" user="zby-cz" changeset="5132469">
    <nd ref="281192355"/>
    <nd ref="285550848"/>
    <nd ref="76012867"/>
    <nd ref="552446885"/>
    <nd ref="552461340"/>
    <nd ref="447728397"/>
    <nd ref="800407717"/>
    <nd ref="447728398"/>
    <nd ref="800407681"/>
    <nd ref="800407765"/>
    <tag k="highway" v="residential"/>
    <tag k="name" v="Štverákova"/>
  </way>
  <way id="9677708" version="9" timestamp="2011-08-14T11:35:04Z" uid="17615" user="Petr Dlouhý" changeset="9014796">
    <nd ref="281192355"/>
    <nd ref="285550848"/>
    <nd ref="76012867"/>
    <nd ref="552446885"/>
    <nd ref="552461340"/>
    <nd ref="447728397"/>
    <nd ref="1398494551"/>
    <nd ref="800407717"/>
    <nd ref="447728398"/>
    <nd ref="800407681"/>
    <nd ref="800407765"/>
    <tag k="highway" v="residential"/>
    <tag k="name" v="Štverákova"/>
  </way>
  <way id="9677709" version="2" timestamp="2007-12-25T22:34:14Z" uid="1066" user="pavel" changeset="421816">
    <nd ref="76012867"/>
    <nd ref="76018685"/>
    <tag k="created_by" v="JOSM"/>
    <tag k="highway" v="residential"/>
  </way>
  <way id="9677709" version="3" timestamp="2008-09-05T10:53:34Z" uid="1066" user="pavel" changeset="539695">
    <nd ref="76012867"/>
    <nd ref="76018685"/>
    <tag k="created_by" v="JOSM"/>
    <tag k="highway" v="residential"/>
    <tag k="name" v="Ve žlíbku"/>
    <tag k="name:source" v="nameit/uir-adr"/>
  </way>
  <way id="9677709" version="4" timestamp="2009-03-04T15:38:11Z" uid="3516" user="BiIbo" changeset="734836">
    <nd ref="76012867"/>
    <nd ref="76018685"/>
    <tag k="created_by" v="JOSM"/>
    <tag k="highway" v="residential"/>
    <tag k="name" v="Ve Žlíbku"/>
    <tag k="source:name" v="nameit/uir-adr"/>
  </way>
  <way id="9677709" version="5" timestamp="2009-07-25T07:20:30Z" uid="54190" user="McMurdo" changeset="1931349"/>
  <way id="9677710" version="3" timestamp="2007-12-24T22:39:04Z" uid="1066" user="pavel" changeset="420681">
    <nd ref="76018661"/>
    <nd ref="76018660"/>
    <nd ref="6935859"/>
    <nd ref="7908689"/>
    <nd ref="76018616"/>
    <nd ref="6935858"/>
    <nd ref="6935716"/>
    <tag k="created_by" v="JOSM"/>
    <tag k="highway" v="tertiary"/>
    <tag k="name" v="spojka Horni - Dolni pocernice"/>
  </way>
  <way id="9677710" version="4" timestamp="2007-12-27T14:24:46Z" uid="1066" user="pavel" changeset="441974">
    <nd ref="76018661"/>
    <nd ref="76018660"/>
    <nd ref="6935859"/>
    <nd ref="7908689"/>
    <nd ref="76018616"/>
    <nd ref="6935858"/>
    <nd ref="192203451"/>
    <nd ref="6935716"/>
    <tag k="created_by" v="JOSM"/>
    <tag k="highway" v="tertiary"/>
    <tag k="name" v="spojka Horni - Dolni pocernice"/>
  </way>
  <way id="9677710" version="5" timestamp="2008-05-28T19:12:33Z" uid="8007" user="vrabcak" changeset="540049">
    <nd ref="76018661"/>
    <nd ref="76018660"/>
    <nd ref="6935859"/>
    <nd ref="7908689"/>
    <nd ref="76018616"/>
    <nd ref="6935858"/>
    <nd ref="192203451"/>
    <nd ref="6935716"/>
    <tag k="created_by" v="Potlatch 0.9b"/>
    <tag k="highway" v="tertiary"/>
  </way>
  <way id="9677710" version="6" timestamp="2008-08-06T20:25:42Z" uid="54190" user="McMurdo" changeset="112061">
    <nd ref="76018661"/>
    <nd ref="76018660"/>
    <nd ref="6935859"/>
    <nd ref="7908689"/>
    <nd ref="76018616"/>
    <nd ref="6935858"/>
    <nd ref="192203451"/>
    <nd ref="6935716"/>
    <tag k="created_by" v="Potlatch 0.10b"/>
    <tag k="highway" v="residential"/>
  </way>
  <way id="9677710" version="7" timestamp="2008-08-31T19:22:17Z" uid="54190" user="McMurdo" changeset="478752">
    <nd ref="76018661"/>
    <nd ref="76018660"/>
    <nd ref="6935859"/>
    <nd ref="7908689"/>
    <nd ref="76018616"/>
    <nd ref="6935858"/>
    <nd ref="192203451"/>
    <nd ref="6935716"/>
    <tag k="created_by" v="Potlatch 0.10b"/>
    <tag k="highway" v="residential"/>
    <tag k="name" v="Ve Žlíbku"/>
  </way>
  <way id="9677710" version="8" timestamp="2009-03-09T03:20:08Z" uid="3516" user="BiIbo" changeset="766878"/>
  <way id="9677929" version="2" timestamp="2007-12-25T22:34:12Z" uid="1066" user="pavel" changeset="421816">
    <nd ref="75734856"/>
    <nd ref="76022189"/>
    <nd ref="76018683"/>
    <tag k="created_by" v="JOSM"/>
    <tag k="highway" v="residential"/>
  </way>
  <way id="9677929" version="3" timestamp="2008-08-31T19:21:36Z" uid="54190" user="McMurdo" changeset="478752">
    <nd ref="75734856"/>
    <nd ref="76022189"/>
    <nd ref="76018683"/>
    <tag k="created_by" v="Potlatch 0.10b"/>
    <tag k="highway" v="residential"/>
    <tag k="name" v="Votuzská"/>
  </way>
  <way id="9677929" version="4" timestamp="2009-03-09T03:19:22Z" uid="3516" user="BiIbo" changeset="766878">
    <nd ref="75734856"/>
    <nd ref="76022189"/>
    <nd ref="285550848"/>
    <tag k="created_by" v="Potlatch 0.10b"/>
    <tag k="highway" v="residential"/>
    <tag k="name" v="Votuzská"/>
  </way>
  <way id="9677929" version="5" timestamp="2009-10-24T00:49:41Z" uid="3516" user="BiIbo" changeset="2934160"/>
  <way id="9677930" version="2" timestamp="2007-12-25T22:35:13Z" uid="1066" user="pavel" changeset="421816">
    <nd ref="76022189"/>
    <nd ref="76012862"/>
    <tag k="created_by" v="JOSM"/>
    <tag k="highway" v="residential"/>
  </way>
  <way id="9677930" version="3" timestamp="2008-08-31T19:21:54Z" uid="54190" user="McMurdo" changeset="478752">
    <nd ref="76022189"/>
    <nd ref="76012862"/>
    <tag k="created_by" v="Potlatch 0.10b"/>
    <tag k="highway" v="residential"/>
    <tag k="name" v="U Jeslí"/>
  </way>
  <way id="9677931" version="2" timestamp="2007-12-25T22:35:19Z" uid="1066" user="pavel" changeset="421816">
    <nd ref="76022206"/>
    <nd ref="76022192"/>
    <nd ref="76022201"/>
    <tag k="created_by" v="JOSM"/>
    <tag k="highway" v="residential"/>
  </way>
  <way id="9677931" version="3" timestamp="2008-08-31T19:18:29Z" uid="54190" user="McMurdo" changeset="478752">
    <nd ref="76022206"/>
    <nd ref="76022192"/>
    <nd ref="76022201"/>
    <tag k="created_by" v="Potlatch 0.10b"/>
    <tag k="highway" v="residential"/>
    <tag k="name" v="Karla Tomáše"/>
  </way>
  <way id="9677932" version="2" timestamp="2007-12-25T22:35:36Z" uid="1066" user="pavel" changeset="421816">
    <nd ref="6935957"/>
    <nd ref="76022206"/>
    <nd ref="76022209"/>
    <tag k="created_by" v="JOSM"/>
    <tag k="highway" v="residential"/>
  </way>
  <way id="9677932" version="3" timestamp="2008-09-05T10:54:56Z" uid="1066" user="pavel" changeset="539695">
    <nd ref="6935957"/>
    <nd ref="76022206"/>
    <nd ref="76022209"/>
    <tag k="created_by" v="JOSM"/>
    <tag k="highway" v="residential"/>
    <tag k="name" v="U věže"/>
    <tag k="name:source" v="nameit/uir-adr"/>
  </way>
  <way id="9677932" version="4" timestamp="2009-03-09T03:19:21Z" uid="3516" user="BiIbo" changeset="766878">
    <nd ref="6935957"/>
    <nd ref="76022206"/>
    <nd ref="76022209"/>
    <tag k="created_by" v="JOSM"/>
    <tag k="highway" v="residential"/>
    <tag k="name" v="U Věže"/>
    <tag k="source:name" v="nameit/uir-adr"/>
  </way>
  <way id="9677933" version="2" timestamp="2007-12-25T22:34:11Z" uid="1066" user="pavel" changeset="421816">
    <nd ref="76022209"/>
    <nd ref="76022197"/>
    <nd ref="6935925"/>
    <tag k="created_by" v="JOSM"/>
    <tag k="highway" v="residential"/>
  </way>
  <way id="9677933" version="3" timestamp="2008-08-31T19:17:46Z" uid="54190" user="McMurdo" changeset="478752">
    <nd ref="76022209"/>
    <nd ref="76022197"/>
    <nd ref="6935925"/>
    <tag k="created_by" v="Potlatch 0.10b"/>
    <tag k="highway" v="residential"/>
    <tag k="name" v="Tikovská"/>
  </way>
  <way id="9677934" version="2" timestamp="2007-12-25T22:35:11Z" uid="1066" user="pavel" changeset="421816">
    <nd ref="6935930"/>
    <nd ref="76022192"/>
    <nd ref="76022197"/>
    <tag k="created_by" v="JOSM"/>
    <tag k="highway" v="residential"/>
  </way>
  <way id="9677934" version="3" timestamp="2008-08-31T19:18:44Z" uid="54190" user="McMurdo" changeset="478752">
    <nd ref="6935930"/>
    <nd ref="76022192"/>
    <nd ref="76022197"/>
    <tag k="created_by" v="Potlatch 0.10b"/>
    <tag k="highway" v="residential"/>
    <tag k="name" v="Běluňská"/>
  </way>
  <way id="9677201" version="5" timestamp="2012-04-30T08:45:52Z" uid="305367" user="Tomas Pajonk" changeset="11457460">
    <nd ref="76007209"/>
    <nd ref="76012842"/>
    <tag k="hgv" v="destination"/>
    <tag k="highway" v="residential"/>
    <tag k="name" v="Otovická"/>
    <tag k="source:name" v="nameit/uir-adr"/>
  </way>
  <way id="9677202" version="5" timestamp="2012-04-30T08:46:10Z" uid="305367" user="Tomas Pajonk" changeset="11457460">
    <nd ref="75734915"/>
    <nd ref="76007218"/>
    <tag k="hgv" v="destination"/>
    <tag k="highway" v="residential"/>
    <tag k="name" v="Jívanská"/>
    <tag k="source:name" v="nameit/uir-adr"/>
  </way>
  <way id="9677204" version="4" timestamp="2012-04-30T08:45:56Z" uid="305367" user="Tomas Pajonk" changeset="11457460">
    <nd ref="6935817"/>
    <nd ref="76007216"/>
    <nd ref="75734814"/>
    <nd ref="76007288"/>
    <tag k="hgv" v="destination"/>
    <tag k="highway" v="residential"/>
    <tag k="name" v="Mezilesí"/>
  </way>
  <way id="9677205" version="5" timestamp="2012-04-30T08:45:55Z" uid="305367" user="Tomas Pajonk" changeset="11457460">
    <nd ref="32667427"/>
    <nd ref="75734947"/>
    <nd ref="76012844"/>
    <nd ref="75734826"/>
    <nd ref="76012848"/>
    <tag k="hgv" v="destination"/>
    <tag k="highway" v="residential"/>
    <tag k="name" v="Třebešovská"/>
    <tag k="source:name" v="nameit/uir-adr"/>
  </way>
  <way id="9677206" version="5" timestamp="2012-04-30T08:45:58Z" uid="305367" user="Tomas Pajonk" changeset="11457460">
    <nd ref="76007288"/>
    <nd ref="76012847"/>
    <tag k="hgv" v="destination"/>
    <tag k="highway" v="residential"/>
    <tag k="name" v="Mezilesí"/>
    <tag k="source:name" v="nameit/uir-adr"/>
  </way>
  <way id="9677207" version="6" timestamp="2012-04-30T08:46:09Z" uid="305367" user="Tomas Pajonk" changeset="11457460">
    <nd ref="76012848"/>
    <nd ref="1141088657"/>
    <nd ref="30233367"/>
    <tag k="hgv" v="destination"/>
    <tag k="highway" v="residential"/>
    <tag k="name" v="Třebešovská"/>
    <tag k="source:name" v="nameit/uir-adr"/>
  </way>
  <way id="9677208" version="6" timestamp="2012-04-30T08:46:04Z" uid="305367" user="Tomas Pajonk" changeset="11457460">
    <nd ref="75734856"/>
    <nd ref="76012853"/>
    <nd ref="76012856"/>
    <nd ref="552461355"/>
    <nd ref="6935930"/>
    <tag k="hgv" v="destination"/>
    <tag k="highway" v="residential"/>
    <tag k="name" v="Běluňská"/>
  </way>
  <way id="9677210" version="6" timestamp="2012-04-30T08:46:04Z" uid="305367" user="Tomas Pajonk" changeset="11457460">
    <nd ref="76012856"/>
    <nd ref="76012862"/>
    <nd ref="76012867"/>
    <nd ref="292690354"/>
    <tag k="hgv" v="destination"/>
    <tag k="highway" v="residential"/>
    <tag k="name" v="Čechurova"/>
  </way>
  <way id="9677211" version="5" timestamp="2012-04-30T08:46:32Z" uid="305367" user="Tomas Pajonk" changeset="11457460">
    <nd ref="76012872"/>
    <nd ref="280811044"/>
    <nd ref="76012881"/>
    <tag k="hgv" v="destination"/>
    <tag k="highway" v="residential"/>
    <tag k="name" v="U Jeslí"/>
  </way>
  <way id="9677213" version="5" timestamp="2012-04-30T08:46:09Z" uid="305367" user="Tomas Pajonk" changeset="11457460">
    <nd ref="76012848"/>
    <nd ref="76007288"/>
    <tag k="hgv" v="destination"/>
    <tag k="highway" v="residential"/>
    <tag k="name" v="Lukavecká"/>
    <tag k="source:name" v="nameit/uir-adr"/>
  </way>
  <way id="9677703" version="5" timestamp="2012-04-30T08:46:00Z" uid="305367" user="Tomas Pajonk" changeset="11457460">
    <nd ref="30233414"/>
    <nd ref="1141088677"/>
    <nd ref="76018613"/>
    <tag k="hgv" v="destination"/>
    <tag k="highway" v="residential"/>
    <tag k="name" v="Krčínská"/>
  </way>
  <way id="9677704" version="5" timestamp="2012-04-30T08:45:59Z" uid="305367" user="Tomas Pajonk" changeset="11457460">
    <nd ref="76018613"/>
    <nd ref="30233391"/>
    <nd ref="292689765"/>
    <tag k="hgv" v="destination"/>
    <tag k="highway" v="residential"/>
    <tag k="name" v="Mečovská"/>
  </way>
  <way id="9677705" version="5" timestamp="2012-04-30T08:46:03Z" uid="305367" user="Tomas Pajonk" changeset="11457460">
    <nd ref="30233386"/>
    <nd ref="76012853"/>
    <tag k="hgv" v="destination"/>
    <tag k="highway" v="residential"/>
    <tag k="name" v="Hrdoňovická"/>
    <tag k="source:name" v="nameit/uir-adr"/>
  </way>
  <way id="9677706" version="5" timestamp="2012-04-30T08:46:03Z" uid="305367" user="Tomas Pajonk" changeset="11457460">
    <nd ref="30233384"/>
    <nd ref="76012856"/>
    <tag k="hgv" v="destination"/>
    <tag k="highway" v="residential"/>
    <tag k="name" v="Čechurova"/>
    <tag k="source:name" v="nameit/uir-adr"/>
  </way>
  <way id="9677708" version="10" timestamp="2012-04-30T08:46:06Z" uid="305367" user="Tomas Pajonk" changeset="11457460">
    <nd ref="281192355"/>
    <nd ref="285550848"/>
    <nd ref="76012867"/>
    <nd ref="552446885"/>
    <nd ref="552461340"/>
    <nd ref="447728397"/>
    <nd ref="1398494551"/>
    <nd ref="800407717"/>
    <nd ref="447728398"/>
    <nd ref="800407681"/>
    <nd ref="800407765"/>
    <tag k="hgv" v="destination"/>
    <tag k="highway" v="residential"/>
    <tag k="name" v="Štverákova"/>
  </way>
  <way id="9677930" version="4" timestamp="2012-04-30T08:46:07Z" uid="305367" user="Tomas Pajonk" changeset="11457460">
    <nd ref="76022189"/>
    <nd ref="76012862"/>
    <tag k="hgv" v="destination"/>
    <tag k="highway" v="residential"/>
    <tag k="name" v="U Jeslí"/>
  </way>
  <way id="9677931" version="4" timestamp="2012-04-30T08:46:05Z" uid="305367" user="Tomas Pajonk" changeset="11457460">
    <nd ref="76022206"/>
    <nd ref="76022192"/>
    <nd ref="76022201"/>
    <tag k="hgv" v="destination"/>
    <tag k="highway" v="residential"/>
    <tag k="name" v="Karla Tomáše"/>
  </way>
  <way id="9677932" version="5" timestamp="2012-04-30T08:46:05Z" uid="305367" user="Tomas Pajonk" changeset="11457460">
    <nd ref="6935957"/>
    <nd ref="76022206"/>
    <nd ref="76022209"/>
    <tag k="hgv" v="destination"/>
    <tag k="highway" v="residential"/>
    <tag k="name" v="U Věže"/>
    <tag k="source:name" v="nameit/uir-adr"/>
  </way>
  <way id="9677932" version="6" timestamp="2012-05-12T11:11:22Z" uid="576633" user="nily" changeset="11575539">
    <nd ref="6935957"/>
    <nd ref="1749547419"/>
    <nd ref="76022206"/>
    <nd ref="76022209"/>
    <tag k="hgv" v="destination"/>
    <tag k="highway" v="residential"/>
    <tag k="name" v="U Věže"/>
    <tag k="source:name" v="nameit/uir-adr"/>
  </way>
  <way id="9677933" version="4" timestamp="2012-04-30T08:46:05Z" uid="305367" user="Tomas Pajonk" changeset="11457460">
    <nd ref="76022209"/>
    <nd ref="76022197"/>
    <nd ref="6935925"/>
    <tag k="hgv" v="destination"/>
    <tag k="highway" v="residential"/>
    <tag k="name" v="Tikovská"/>
  </way>
  <way id="9677934" version="4" timestamp="2012-04-30T08:46:05Z" uid="305367" user="Tomas Pajonk" changeset="11457460">
    <nd ref="6935930"/>
    <nd ref="76022192"/>
    <nd ref="76022197"/>
    <tag k="hgv" v="destination"/>
    <tag k="highway" v="residential"/>
    <tag k="name" v="Běluňská"/>
  </way>
  <way id="9677934" version="5" timestamp="2012-05-12T11:11:21Z" uid="576633" user="nily" changeset="11575539">
    <nd ref="6935930"/>
    <nd ref="1749547418"/>
    <nd ref="76022192"/>
    <nd ref="76022197"/>
    <tag k="hgv" v="destination"/>
    <tag k="highway" v="residential"/>
    <tag k="name" v="Běluňská"/>
  </way>
</osm>
