<?xml version='1.0' encoding='UTF-8'?>
<osm version="0.6" generator="libosmium/2.20.0">
  <way id="9681031" version="7" timestamp="2010-04-22T15:53:42Z" uid="23543" user="jkjk" changeset="4496180">
    <nd ref="21456613"/>
    <nd ref="523637089"/>
    <nd ref="703733473"/>
    <nd ref="290036010"/>
    <nd ref="523637086"/>
    <nd ref="21456614"/>
    <tag k="highway" v="primary"/>
    <tag k="name" v="Karlovo náměstí"/>
    <tag k="name:ru" v="Карлова площадь"/>
    <tag k="oneway" v="yes"/>
    <tag k="railway" v="tram"/>
  </way>
  <way id="9681031" version="8" timestamp="2011-02-28T20:49:18Z" uid="42429" user="FK270673" changeset="7424353">
    <nd ref="21456613"/>
    <nd ref="523637089"/>
    <nd ref="703733473"/>
    <nd ref="290036010"/>
    <nd ref="523637086"/>
    <nd ref="21456614"/>
    <tag k="highway" v="primary"/>
    <tag k="name" v="Karlovo náměstí"/>
    <tag k="name:de" v="Karlsplatz"/>
    <tag k="name:ru" v="Карлова площадь"/>
    <tag k="oneway" v="yes"/>
    <tag k="railway" v="tram"/>
  </way>
  <way id="9681031" version="9" timestamp="2011-04-19T14:44:38Z" uid="11629" user="Stanislav Brabec" changeset="7907211">
    <nd ref="21456613"/>
    <nd ref="523637089"/>
    <nd ref="703733473"/>
    <nd ref="290036010"/>
    <nd ref="523637086"/>
    <nd ref="1251239849"/>
    <nd ref="21456614"/>
    <tag k="highway" v="primary"/>
    <tag k="name" v="Karlovo náměstí"/>
    <tag k="name:de" v="Karlsplatz"/>
    <tag k="name:ru" v="Карлова площадь"/>
    <tag k="oneway" v="yes"/>
    <tag k="railway" v="tram"/>
  </way>
  <way id="9681031" version="10" timestamp="2011-05-04T23:26:28Z" uid="248441" user="Jandrs" changeset="8053573">
    <nd ref="21456613"/>
    <nd ref="523637089"/>
    <nd ref="703733473"/>
    <nd ref="290036010"/>
    <nd ref="523637086"/>
    <nd ref="1251239849"/>
    <nd ref="1272589338"/>
    <nd ref="21456614"/>
    <tag k="railway" v="tram"/>
  </way>
  <way id="9681031" version="11" timestamp="2012-02-17T19:50:00Z" uid="595326" user="viduka" changeset="10714488">
    <nd ref="21456613"/>
    <nd ref="1636909680"/>
    <nd ref="523637089"/>
    <nd ref="290036010"/>
    <nd ref="1636909673"/>
    <nd ref="523637086"/>
    <nd ref="1251239849"/>
    <nd ref="1272589338"/>
    <nd ref="21456614"/>
    <tag k="railway" v="tram"/>
  </way>
  <way id="9681031" version="12" timestamp="2012-02-17T19:58:39Z" uid="595326" user="viduka" changeset="10714591">
    <nd ref="21456613"/>
    <nd ref="1636909680"/>
    <nd ref="523637089"/>
    <nd ref="290036010"/>
    <nd ref="1636909673"/>
    <nd ref="523637086"/>
    <nd ref="1251239849"/>
    <nd ref="1272589338"/>
    <nd ref="21456614"/>
    <tag k="railway" v="tram"/>
    <tag k="source" v="bing;cuzk"/>
  </way>
  <way id="9681033" version="4" timestamp="2008-08-31T22:59:24Z" uid="1066" user="pavel" changeset="485373">
    <nd ref="247776"/>
    <nd ref="292756490"/>
    <nd ref="292756411"/>
    <nd ref="8810024"/>
    <nd ref="25685118"/>
    <nd ref="8810025"/>
    <nd ref="8810026"/>
    <nd ref="247765"/>
    <tag k="highway" v="tertiary"/>
    <tag k="name" v="Dvořákovo nábřeží"/>
  </way>
  <way id="9681033" version="5" timestamp="2009-03-01T22:10:30Z" uid="17615" user="Petr Dlouhý" changeset="715487">
    <nd ref="247776"/>
    <nd ref="292756490"/>
    <nd ref="292756411"/>
    <nd ref="354686128"/>
    <nd ref="8810024"/>
    <nd ref="354686141"/>
    <nd ref="25685118"/>
    <nd ref="354686134"/>
    <nd ref="8810025"/>
    <nd ref="8810026"/>
    <nd ref="247765"/>
    <tag k="highway" v="tertiary"/>
    <tag k="name" v="Dvořákovo nábřeží"/>
  </way>
  <way id="9681033" version="6" timestamp="2010-04-15T16:38:58Z" uid="23543" user="jkjk" changeset="4432193">
    <nd ref="247776"/>
    <nd ref="292756490"/>
    <nd ref="292756411"/>
    <nd ref="354686128"/>
    <nd ref="8810024"/>
    <nd ref="354686141"/>
    <nd ref="25685118"/>
    <nd ref="354686134"/>
    <nd ref="8810025"/>
    <nd ref="8810026"/>
    <nd ref="697456622"/>
    <nd ref="247765"/>
    <tag k="highway" v="tertiary"/>
    <tag k="name" v="Dvořákovo nábřeží"/>
  </way>
  <way id="9681033" version="7" timestamp="2010-12-02T18:07:07Z" uid="17615" user="Petr Dlouhý" changeset="6517481">
    <nd ref="247776"/>
    <nd ref="292756490"/>
    <nd ref="292756411"/>
    <nd ref="1016303311"/>
    <nd ref="354686128"/>
    <nd ref="8810024"/>
    <nd ref="354686141"/>
    <nd ref="25685118"/>
    <nd ref="1016303733"/>
    <nd ref="354686134"/>
    <nd ref="1016303584"/>
    <nd ref="8810025"/>
    <nd ref="8810026"/>
    <nd ref="697456622"/>
    <nd ref="247765"/>
    <tag k="highway" v="tertiary"/>
    <tag k="name" v="Dvořákovo nábřeží"/>
  </way>
  <way id="9681033" version="8" timestamp="2011-01-07T12:01:08Z" uid="17615" user="Petr Dlouhý" changeset="6891883">
    <nd ref="247776"/>
    <nd ref="292756490"/>
    <nd ref="292756411"/>
    <tag k="highway" v="tertiary"/>
    <tag k="name" v="Dvořákovo nábřeží"/>
  </way>
  <way id="9681033" version="9" timestamp="2011-03-30T14:34:07Z" uid="248441" user="Jandrs" changeset="7716711">
    <nd ref="247776"/>
    <nd ref="292756490"/>
    <nd ref="292756411"/>
    <tag k="highway" v="secondary"/>
    <tag k="name" v="Dvořákovo nábřeží"/>
  </way>
  <way id="9681033" version="10" timestamp="2012-06-20T06:56:32Z" uid="127170" user="Ilis" changeset="11955265">
    <nd ref="247776"/>
    <nd ref="292756490"/>
    <nd ref="292756411"/>
    <tag k="highway" v="secondary"/>
    <tag k="name" v="Dvořákovo nábřeží"/>
    <tag k="name:ru" v="набережная Дворжака"/>
  </way>
  <way id="9681033" version="11" timestamp="2012-06-25T07:42:51Z" uid="17615" user="Petr Dlouhý" changeset="12007953">
    <nd ref="247776"/>
    <nd ref="292756490"/>
    <nd ref="292756411"/>
    <tag k="highway" v="secondary"/>
    <tag k="name" v="Dvořákovo nábřeží"/>
    <tag k="name:ru" v="набережная Дворжака"/>
    <tag k="surface" v="cobblestone"/>
  </way>
  <way id="9681033" version="12" timestamp="2012-07-15T07:57:24Z" uid="527259" user="Vratislav Filler" changeset="12224504">
    <nd ref="247776"/>
    <nd ref="292756490"/>
    <nd ref="1825997273"/>
    <nd ref="292756411"/>
    <tag k="highway" v="secondary"/>
    <tag k="name" v="Dvořákovo nábřeží"/>
    <tag k="name:ru" v="набережная Дворжака"/>
    <tag k="surface" v="cobblestone"/>
  </way>
  <way id="9681033" version="13" timestamp="2012-07-24T09:01:43Z" uid="17615" user="Petr Dlouhý" changeset="12462169">
    <nd ref="247776"/>
    <nd ref="292756490"/>
    <nd ref="1836299195"/>
    <nd ref="1825997273"/>
    <nd ref="292756411"/>
    <tag k="highway" v="secondary"/>
    <tag k="lanes" v="4"/>
    <tag k="name" v="Dvořákovo nábřeží"/>
    <tag k="name:ru" v="набережная Дворжака"/>
    <tag k="surface" v="cobblestone"/>
  </way>
  <way id="9681033" version="14" timestamp="2012-07-24T09:16:09Z" uid="17615" user="Petr Dlouhý" changeset="12462337">
    <nd ref="247776"/>
    <nd ref="1836309233"/>
    <tag k="highway" v="secondary"/>
    <tag k="lanes" v="4"/>
    <tag k="name" v="Dvořákovo nábřeží"/>
    <tag k="name:ru" v="набережная Дворжака"/>
    <tag k="surface" v="cobblestone"/>
  </way>
</osm>
