<?xml version='1.0' encoding='UTF-8'?>
<osm version="0.6" generator="libosmium/2.20.0">
  <way id="96844881" version="1" timestamp="2011-01-26T18:24:03Z" uid="115477" user="wowik" changeset="7096167">
    <nd ref="1122178070"/>
    <nd ref="1122176920"/>
    <nd ref="1122179079"/>
    <nd ref="1122177173"/>
    <nd ref="1122178070"/>
    <tag k="addr:city" v="Зеленоград"/>
    <tag k="addr:housenumber" v="40"/>
    <tag k="addr:street" v="улица Щербакова"/>
    <tag k="building" v="yes"/>
    <tag k="building:levels" v="1"/>
    <tag k="building:use" v="residential"/>
    <tag k="is_in" v="Russia"/>
  </way>
  <way id="96844881" version="2" timestamp="2011-09-13T10:26:40Z" uid="29320" user="Komяpa" changeset="9288237">
    <nd ref="1122178070"/>
    <nd ref="1122176920"/>
    <nd ref="1122179079"/>
    <nd ref="1122177173"/>
    <nd ref="1122178070"/>
    <tag k="addr:city" v="Зеленоград"/>
    <tag k="addr:country" v="RU"/>
    <tag k="addr:housenumber" v="40"/>
    <tag k="addr:street" v="улица Щербакова"/>
    <tag k="building" v="yes"/>
    <tag k="building:levels" v="1"/>
    <tag k="building:use" v="residential"/>
  </way>
  <way id="96844881" version="3" timestamp="2012-03-27T11:43:01Z" uid="481934" user="iWowik" changeset="11115472">
    <nd ref="1122178070"/>
    <nd ref="1122176920"/>
    <nd ref="1122179079"/>
    <nd ref="1122177173"/>
    <nd ref="1122178070"/>
    <tag k="addr:city" v="Зеленоград"/>
    <tag k="addr:country" v="RU"/>
    <tag k="addr:housenumber" v="40"/>
    <tag k="addr:region" v="Москва"/>
    <tag k="addr:street" v="улица Щербакова"/>
    <tag k="building" v="yes"/>
    <tag k="building:levels" v="1"/>
    <tag k="building:use" v="residential"/>
  </way>
  <way id="96844885" version="1" timestamp="2011-01-26T18:24:03Z" uid="115477" user="wowik" changeset="7096167">
    <nd ref="1122178164"/>
    <nd ref="1122177034"/>
    <nd ref="1122179170"/>
    <nd ref="1122177278"/>
    <nd ref="1122178164"/>
    <tag k="addr:city" v="Зеленоград"/>
    <tag k="addr:housenumber" v="42"/>
    <tag k="addr:street" v="улица Щербакова"/>
    <tag k="building" v="yes"/>
    <tag k="building:levels" v="1"/>
    <tag k="building:use" v="residential"/>
    <tag k="is_in" v="Russia"/>
  </way>
  <way id="96844885" version="2" timestamp="2011-09-13T10:26:49Z" uid="29320" user="Komяpa" changeset="9288237">
    <nd ref="1122178164"/>
    <nd ref="1122177034"/>
    <nd ref="1122179170"/>
    <nd ref="1122177278"/>
    <nd ref="1122178164"/>
    <tag k="addr:city" v="Зеленоград"/>
    <tag k="addr:country" v="RU"/>
    <tag k="addr:housenumber" v="42"/>
    <tag k="addr:street" v="улица Щербакова"/>
    <tag k="building" v="yes"/>
    <tag k="building:levels" v="1"/>
    <tag k="building:use" v="residential"/>
  </way>
  <way id="96844885" version="3" timestamp="2012-03-27T11:43:13Z" uid="481934" user="iWowik" changeset="11115472">
    <nd ref="1122178164"/>
    <nd ref="1122177034"/>
    <nd ref="1122179170"/>
    <nd ref="1122177278"/>
    <nd ref="1122178164"/>
    <tag k="addr:city" v="Зеленоград"/>
    <tag k="addr:country" v="RU"/>
    <tag k="addr:housenumber" v="42"/>
    <tag k="addr:region" v="Москва"/>
    <tag k="addr:street" v="улица Щербакова"/>
    <tag k="building" v="yes"/>
    <tag k="building:levels" v="1"/>
    <tag k="building:use" v="residential"/>
  </way>
  <way id="96844889" version="1" timestamp="2011-01-26T18:24:03Z" uid="115477" user="wowik" changeset="7096167">
    <nd ref="1122178124"/>
    <nd ref="1122177010"/>
    <nd ref="1122177468"/>
    <nd ref="1122177850"/>
    <nd ref="1122178124"/>
    <tag k="addr:city" v="Зеленоград"/>
    <tag k="addr:street" v="улица Щербакова"/>
    <tag k="building" v="yes"/>
    <tag k="building:levels" v="1"/>
    <tag k="is_in" v="Russia"/>
  </way>
  <way id="96844889" version="2" timestamp="2011-02-08T09:25:46Z" uid="115477" user="wowik" changeset="7224641">
    <nd ref="1122178124"/>
    <nd ref="1122177010"/>
    <nd ref="1122177468"/>
    <nd ref="1122177850"/>
    <nd ref="1122178124"/>
    <tag k="addr:city" v="Зеленоград"/>
    <tag k="building" v="yes"/>
    <tag k="building:levels" v="1"/>
    <tag k="is_in" v="Russia"/>
  </way>
  <way id="96844889" version="3" timestamp="2011-09-13T10:38:39Z" uid="29320" user="Komяpa" changeset="9288237">
    <nd ref="1122178124"/>
    <nd ref="1122177010"/>
    <nd ref="1122177468"/>
    <nd ref="1122177850"/>
    <nd ref="1122178124"/>
    <tag k="addr:city" v="Зеленоград"/>
    <tag k="addr:country" v="RU"/>
    <tag k="building" v="yes"/>
    <tag k="building:levels" v="1"/>
  </way>
  <way id="96844889" version="4" timestamp="2012-03-27T11:53:31Z" uid="481934" user="iWowik" changeset="11115472">
    <nd ref="1122178124"/>
    <nd ref="1122177010"/>
    <nd ref="1122177468"/>
    <nd ref="1122177850"/>
    <nd ref="1122178124"/>
    <tag k="addr:city" v="Зеленоград"/>
    <tag k="addr:country" v="RU"/>
    <tag k="addr:region" v="Москва"/>
    <tag k="building" v="yes"/>
    <tag k="building:levels" v="1"/>
  </way>
  <way id="96844892" version="1" timestamp="2011-01-26T18:24:04Z" uid="115477" user="wowik" changeset="7096167">
    <nd ref="1122177686"/>
    <nd ref="1122178962"/>
    <nd ref="1122178755"/>
    <nd ref="1122179129"/>
    <nd ref="1122177686"/>
    <tag k="addr:city" v="Зеленоград"/>
    <tag k="addr:housenumber" v="35 с3А"/>
    <tag k="addr:street" v="улица Калинина"/>
    <tag k="building" v="yes"/>
    <tag k="building:levels" v="1"/>
    <tag k="is_in" v="Russia"/>
  </way>
  <way id="96844892" version="2" timestamp="2011-09-13T10:26:09Z" uid="29320" user="Komяpa" changeset="9288237">
    <nd ref="1122177686"/>
    <nd ref="1122178962"/>
    <nd ref="1122178755"/>
    <nd ref="1122179129"/>
    <nd ref="1122177686"/>
    <tag k="addr:city" v="Зеленоград"/>
    <tag k="addr:country" v="RU"/>
    <tag k="addr:housenumber" v="35 с3А"/>
    <tag k="addr:street" v="улица Калинина"/>
    <tag k="building" v="yes"/>
    <tag k="building:levels" v="1"/>
  </way>
  <way id="96844892" version="3" timestamp="2012-03-27T11:42:11Z" uid="481934" user="iWowik" changeset="11115472">
    <nd ref="1122177686"/>
    <nd ref="1122178962"/>
    <nd ref="1122178755"/>
    <nd ref="1122179129"/>
    <nd ref="1122177686"/>
    <tag k="addr:city" v="Зеленоград"/>
    <tag k="addr:country" v="RU"/>
    <tag k="addr:housenumber" v="35 с3А"/>
    <tag k="addr:region" v="Москва"/>
    <tag k="addr:street" v="улица Калинина"/>
    <tag k="building" v="yes"/>
    <tag k="building:levels" v="1"/>
  </way>
  <way id="96844893" version="1" timestamp="2011-01-26T18:24:04Z" uid="115477" user="wowik" changeset="7096167">
    <nd ref="1122178044"/>
    <nd ref="1122176847"/>
    <nd ref="1122177329"/>
    <nd ref="1122177701"/>
    <nd ref="1122178044"/>
    <tag k="addr:city" v="Зеленоград"/>
    <tag k="addr:street" v="улица Щербакова"/>
    <tag k="building" v="yes"/>
    <tag k="building:levels" v="1"/>
    <tag k="is_in" v="Russia"/>
  </way>
  <way id="96844893" version="2" timestamp="2011-02-08T09:25:45Z" uid="115477" user="wowik" changeset="7224641">
    <nd ref="1122178044"/>
    <nd ref="1122176847"/>
    <nd ref="1122177329"/>
    <nd ref="1122177701"/>
    <nd ref="1122178044"/>
    <tag k="addr:city" v="Зеленоград"/>
    <tag k="building" v="yes"/>
    <tag k="building:levels" v="1"/>
    <tag k="is_in" v="Russia"/>
  </way>
  <way id="96844893" version="3" timestamp="2011-09-13T10:38:40Z" uid="29320" user="Komяpa" changeset="9288237">
    <nd ref="1122178044"/>
    <nd ref="1122176847"/>
    <nd ref="1122177329"/>
    <nd ref="1122177701"/>
    <nd ref="1122178044"/>
    <tag k="addr:city" v="Зеленоград"/>
    <tag k="addr:country" v="RU"/>
    <tag k="building" v="yes"/>
    <tag k="building:levels" v="1"/>
  </way>
  <way id="96844893" version="4" timestamp="2012-03-27T11:50:59Z" uid="481934" user="iWowik" changeset="11115472">
    <nd ref="1122178044"/>
    <nd ref="1122176847"/>
    <nd ref="1122177329"/>
    <nd ref="1122177701"/>
    <nd ref="1122178044"/>
    <tag k="addr:city" v="Зеленоград"/>
    <tag k="addr:country" v="RU"/>
    <tag k="addr:region" v="Москва"/>
    <tag k="building" v="yes"/>
    <tag k="building:levels" v="1"/>
  </way>
  <way id="96844894" version="1" timestamp="2011-01-26T18:24:04Z" uid="115477" user="wowik" changeset="7096167">
    <nd ref="1122178530"/>
    <nd ref="1122177647"/>
    <nd ref="1122178916"/>
    <nd ref="1122178069"/>
    <nd ref="1122178530"/>
    <tag k="addr:city" v="Зеленоград"/>
    <tag k="addr:housenumber" v="18 с4"/>
    <tag k="addr:street" v="Панфиловский проспект"/>
    <tag k="building" v="yes"/>
    <tag k="is_in" v="Russia"/>
  </way>
  <way id="96844894" version="2" timestamp="2011-02-04T10:33:24Z" uid="115477" user="wowik" changeset="7181742">
    <nd ref="1122178530"/>
    <nd ref="1122177647"/>
    <nd ref="1122178916"/>
    <nd ref="1122178069"/>
    <nd ref="1122178530"/>
    <tag k="addr:city" v="Зеленоград"/>
    <tag k="addr:housenumber" v="18 с5"/>
    <tag k="addr:street" v="Панфиловский проспект"/>
    <tag k="building" v="yes"/>
    <tag k="is_in" v="Russia"/>
  </way>
  <way id="96844894" version="3" timestamp="2011-09-13T10:23:44Z" uid="29320" user="Komяpa" changeset="9288237">
    <nd ref="1122178530"/>
    <nd ref="1122177647"/>
    <nd ref="1122178916"/>
    <nd ref="1122178069"/>
    <nd ref="1122178530"/>
    <tag k="addr:city" v="Зеленоград"/>
    <tag k="addr:country" v="RU"/>
    <tag k="addr:housenumber" v="18 с5"/>
    <tag k="addr:street" v="Панфиловский проспект"/>
    <tag k="building" v="yes"/>
  </way>
  <way id="96844894" version="4" timestamp="2012-03-27T11:38:00Z" uid="481934" user="iWowik" changeset="11115472">
    <nd ref="1122178530"/>
    <nd ref="1122177647"/>
    <nd ref="1122178916"/>
    <nd ref="1122178069"/>
    <nd ref="1122178530"/>
    <tag k="addr:city" v="Зеленоград"/>
    <tag k="addr:country" v="RU"/>
    <tag k="addr:housenumber" v="18 с5"/>
    <tag k="addr:region" v="Москва"/>
    <tag k="addr:street" v="Панфиловский проспект"/>
    <tag k="building" v="yes"/>
  </way>
  <way id="96844899" version="1" timestamp="2011-01-26T18:24:05Z" uid="115477" user="wowik" changeset="7096167">
    <nd ref="1122178323"/>
    <nd ref="1122177252"/>
    <nd ref="1122177639"/>
    <nd ref="1122177492"/>
    <nd ref="1122178323"/>
    <tag k="addr:city" v="Зеленоград"/>
    <tag k="addr:housenumber" v="21"/>
    <tag k="addr:street" v="Рабочая улица"/>
    <tag k="building" v="yes"/>
    <tag k="building:levels" v="1"/>
    <tag k="building:use" v="residential"/>
    <tag k="is_in" v="Russia"/>
  </way>
  <way id="96844899" version="2" timestamp="2011-09-13T10:24:35Z" uid="29320" user="Komяpa" changeset="9288237">
    <nd ref="1122178323"/>
    <nd ref="1122177252"/>
    <nd ref="1122177639"/>
    <nd ref="1122177492"/>
    <nd ref="1122178323"/>
    <tag k="addr:city" v="Зеленоград"/>
    <tag k="addr:country" v="RU"/>
    <tag k="addr:housenumber" v="21"/>
    <tag k="addr:street" v="Рабочая улица"/>
    <tag k="building" v="yes"/>
    <tag k="building:levels" v="1"/>
    <tag k="building:use" v="residential"/>
  </way>
  <way id="96844899" version="3" timestamp="2012-03-27T11:39:25Z" uid="481934" user="iWowik" changeset="11115472">
    <nd ref="1122178323"/>
    <nd ref="1122177252"/>
    <nd ref="1122177639"/>
    <nd ref="1122177492"/>
    <nd ref="1122178323"/>
    <tag k="addr:city" v="Зеленоград"/>
    <tag k="addr:country" v="RU"/>
    <tag k="addr:housenumber" v="21"/>
    <tag k="addr:region" v="Москва"/>
    <tag k="addr:street" v="Рабочая улица"/>
    <tag k="building" v="yes"/>
    <tag k="building:levels" v="1"/>
    <tag k="building:use" v="residential"/>
  </way>
  <way id="96844903" version="1" timestamp="2011-01-26T18:24:05Z" uid="115477" user="wowik" changeset="7096167">
    <nd ref="1122177964"/>
    <nd ref="1122179163"/>
    <nd ref="1122177255"/>
    <nd ref="1122177641"/>
    <nd ref="1122177964"/>
    <tag k="addr:city" v="Зеленоград"/>
    <tag k="addr:street" v="улица Щербакова"/>
    <tag k="building" v="yes"/>
    <tag k="building:levels" v="1"/>
    <tag k="is_in" v="Russia"/>
  </way>
  <way id="96844903" version="2" timestamp="2011-09-13T10:38:40Z" uid="29320" user="Komяpa" changeset="9288237">
    <nd ref="1122177964"/>
    <nd ref="1122179163"/>
    <nd ref="1122177255"/>
    <nd ref="1122177641"/>
    <nd ref="1122177964"/>
    <tag k="addr:city" v="Зеленоград"/>
    <tag k="addr:country" v="RU"/>
    <tag k="addr:street" v="улица Щербакова"/>
    <tag k="building" v="yes"/>
    <tag k="building:levels" v="1"/>
  </way>
  <way id="96844903" version="3" timestamp="2012-03-27T11:52:58Z" uid="481934" user="iWowik" changeset="11115472">
    <nd ref="1122177964"/>
    <nd ref="1122179163"/>
    <nd ref="1122177255"/>
    <nd ref="1122177641"/>
    <nd ref="1122177964"/>
    <tag k="addr:city" v="Зеленоград"/>
    <tag k="addr:country" v="RU"/>
    <tag k="addr:region" v="Москва"/>
    <tag k="addr:street" v="улица Щербакова"/>
    <tag k="building" v="yes"/>
    <tag k="building:levels" v="1"/>
  </way>
  <way id="96844905" version="1" timestamp="2011-01-26T18:24:05Z" uid="115477" user="wowik" changeset="7096167">
    <nd ref="1122178268"/>
    <nd ref="1122177786"/>
    <nd ref="1122177170"/>
    <nd ref="1122178468"/>
    <nd ref="1122178184"/>
    <nd ref="1122177570"/>
    <nd ref="1122178428"/>
    <nd ref="1122178802"/>
    <nd ref="1122177427"/>
    <nd ref="1122178268"/>
    <tag k="leisure" v="playground"/>
  </way>
  <way id="96844910" version="1" timestamp="2011-01-26T18:24:06Z" uid="115477" user="wowik" changeset="7096167">
    <nd ref="1122178638"/>
    <nd ref="1122177821"/>
    <nd ref="1122177599"/>
    <nd ref="1122178035"/>
    <nd ref="1122178638"/>
    <tag k="addr:city" v="Зеленоград"/>
    <tag k="addr:street" v="улица Щербакова"/>
    <tag k="building" v="yes"/>
    <tag k="building:levels" v="1"/>
    <tag k="is_in" v="Russia"/>
  </way>
  <way id="96844910" version="2" timestamp="2011-02-08T09:25:46Z" uid="115477" user="wowik" changeset="7224641">
    <nd ref="1122178638"/>
    <nd ref="1122177821"/>
    <nd ref="1122177599"/>
    <nd ref="1122178035"/>
    <nd ref="1122178638"/>
    <tag k="addr:city" v="Зеленоград"/>
    <tag k="building" v="yes"/>
    <tag k="building:levels" v="1"/>
    <tag k="is_in" v="Russia"/>
  </way>
  <way id="96844910" version="3" timestamp="2011-09-13T10:38:40Z" uid="29320" user="Komяpa" changeset="9288237">
    <nd ref="1122178638"/>
    <nd ref="1122177821"/>
    <nd ref="1122177599"/>
    <nd ref="1122178035"/>
    <nd ref="1122178638"/>
    <tag k="addr:city" v="Зеленоград"/>
    <tag k="addr:country" v="RU"/>
    <tag k="building" v="yes"/>
    <tag k="building:levels" v="1"/>
  </way>
  <way id="96844910" version="4" timestamp="2012-03-27T11:50:26Z" uid="481934" user="iWowik" changeset="11115472">
    <nd ref="1122178638"/>
    <nd ref="1122177821"/>
    <nd ref="1122177599"/>
    <nd ref="1122178035"/>
    <nd ref="1122178638"/>
    <tag k="addr:city" v="Зеленоград"/>
    <tag k="addr:country" v="RU"/>
    <tag k="addr:region" v="Москва"/>
    <tag k="building" v="yes"/>
    <tag k="building:levels" v="1"/>
  </way>
  <way id="96844914" version="1" timestamp="2011-01-26T18:24:06Z" uid="115477" user="wowik" changeset="7096167">
    <nd ref="1122177765"/>
    <nd ref="1122179003"/>
    <nd ref="1122177054"/>
    <nd ref="1122177493"/>
    <nd ref="1122177765"/>
    <tag k="addr:city" v="Зеленоград"/>
    <tag k="addr:housenumber" v="29?"/>
    <tag k="addr:street" v="Рабочая улица"/>
    <tag k="building" v="yes"/>
    <tag k="building:levels" v="1"/>
    <tag k="building:use" v="residential"/>
    <tag k="is_in" v="Russia"/>
  </way>
  <way id="96844914" version="2" timestamp="2011-09-13T10:25:13Z" uid="29320" user="Komяpa" changeset="9288237">
    <nd ref="1122177765"/>
    <nd ref="1122179003"/>
    <nd ref="1122177054"/>
    <nd ref="1122177493"/>
    <nd ref="1122177765"/>
    <tag k="addr:city" v="Зеленоград"/>
    <tag k="addr:country" v="RU"/>
    <tag k="addr:housenumber" v="29?"/>
    <tag k="addr:street" v="Рабочая улица"/>
    <tag k="building" v="yes"/>
    <tag k="building:levels" v="1"/>
    <tag k="building:use" v="residential"/>
  </way>
  <way id="96844914" version="3" timestamp="2012-03-27T11:40:33Z" uid="481934" user="iWowik" changeset="11115472">
    <nd ref="1122177765"/>
    <nd ref="1122179003"/>
    <nd ref="1122177054"/>
    <nd ref="1122177493"/>
    <nd ref="1122177765"/>
    <tag k="addr:city" v="Зеленоград"/>
    <tag k="addr:country" v="RU"/>
    <tag k="addr:housenumber" v="29?"/>
    <tag k="addr:region" v="Москва"/>
    <tag k="addr:street" v="Рабочая улица"/>
    <tag k="building" v="yes"/>
    <tag k="building:levels" v="1"/>
    <tag k="building:use" v="residential"/>
  </way>
  <way id="96844918" version="1" timestamp="2011-01-26T18:24:06Z" uid="115477" user="wowik" changeset="7096167">
    <nd ref="1122178566"/>
    <nd ref="1122177091"/>
    <nd ref="1122177526"/>
    <nd ref="1122177921"/>
    <nd ref="1122178566"/>
    <tag k="addr:city" v="Зеленоград"/>
    <tag k="addr:housenumber" v="43"/>
    <tag k="addr:street" v="улица Щербакова"/>
    <tag k="building" v="yes"/>
    <tag k="building:levels" v="1"/>
    <tag k="building:use" v="residential"/>
    <tag k="is_in" v="Russia"/>
  </way>
  <way id="96844918" version="2" timestamp="2011-09-13T10:26:56Z" uid="29320" user="Komяpa" changeset="9288237">
    <nd ref="1122178566"/>
    <nd ref="1122177091"/>
    <nd ref="1122177526"/>
    <nd ref="1122177921"/>
    <nd ref="1122178566"/>
    <tag k="addr:city" v="Зеленоград"/>
    <tag k="addr:country" v="RU"/>
    <tag k="addr:housenumber" v="43"/>
    <tag k="addr:street" v="улица Щербакова"/>
    <tag k="building" v="yes"/>
    <tag k="building:levels" v="1"/>
    <tag k="building:use" v="residential"/>
  </way>
  <way id="96844918" version="3" timestamp="2012-03-27T11:43:26Z" uid="481934" user="iWowik" changeset="11115472">
    <nd ref="1122178566"/>
    <nd ref="1122177091"/>
    <nd ref="1122177526"/>
    <nd ref="1122177921"/>
    <nd ref="1122178566"/>
    <tag k="addr:city" v="Зеленоград"/>
    <tag k="addr:country" v="RU"/>
    <tag k="addr:housenumber" v="43"/>
    <tag k="addr:region" v="Москва"/>
    <tag k="addr:street" v="улица Щербакова"/>
    <tag k="building" v="yes"/>
    <tag k="building:levels" v="1"/>
    <tag k="building:use" v="residential"/>
  </way>
  <way id="96844924" version="1" timestamp="2011-01-26T18:24:07Z" uid="115477" user="wowik" changeset="7096167">
    <nd ref="1122178990"/>
    <nd ref="1122178131"/>
    <nd ref="1122178406"/>
    <nd ref="1122178673"/>
    <nd ref="1122178515"/>
    <nd ref="1122178890"/>
    <nd ref="1122176883"/>
    <nd ref="1122177366"/>
    <nd ref="1122177139"/>
    <nd ref="1122177557"/>
    <nd ref="1122177954"/>
    <nd ref="1122178990"/>
    <tag k="building" v="yes"/>
  </way>
  <way id="96844924" version="2" timestamp="2012-03-27T11:48:56Z" uid="481934" user="iWowik" changeset="11115472">
    <nd ref="1122178990"/>
    <nd ref="1122178131"/>
    <nd ref="1122178406"/>
    <nd ref="1122178673"/>
    <nd ref="1122178515"/>
    <nd ref="1122178890"/>
    <nd ref="1122176883"/>
    <nd ref="1122177366"/>
    <nd ref="1122177139"/>
    <nd ref="1122177557"/>
    <nd ref="1122177954"/>
    <nd ref="1122178990"/>
    <tag k="addr:city" v="Зеленоград"/>
    <tag k="addr:country" v="RU"/>
    <tag k="addr:region" v="Москва"/>
    <tag k="building" v="yes"/>
  </way>
  <way id="96844925" version="1" timestamp="2011-01-26T18:24:07Z" uid="115477" user="wowik" changeset="7096167">
    <nd ref="338463411"/>
    <nd ref="338463414"/>
    <nd ref="338463416"/>
    <nd ref="338463424"/>
    <tag k="highway" v="living_street"/>
    <tag k="name" v="Рабочая улица"/>
    <tag k="omkum:code" v="65524"/>
    <tag k="sorting_name" v="Рабочая  улица"/>
  </way>
  <way id="96844925" version="2" timestamp="2011-11-16T07:44:02Z" uid="481934" user="iWowik" changeset="9841495">
    <nd ref="338463411"/>
    <nd ref="338463414"/>
    <nd ref="338463416"/>
    <nd ref="1504814012"/>
    <nd ref="338463424"/>
    <tag k="highway" v="living_street"/>
    <tag k="name" v="Рабочая улица"/>
    <tag k="omkum:code" v="65524"/>
    <tag k="sorting_name" v="Рабочая  улица"/>
  </way>
  <way id="96844931" version="1" timestamp="2011-01-26T18:24:07Z" uid="115477" user="wowik" changeset="7096167">
    <nd ref="1122178215"/>
    <nd ref="1122177086"/>
    <nd ref="1122177521"/>
    <nd ref="1122177918"/>
    <nd ref="1122178215"/>
    <tag k="addr:city" v="Зеленоград"/>
    <tag k="addr:housenumber" v="25"/>
    <tag k="addr:street" v="Рабочая улица"/>
    <tag k="building" v="yes"/>
    <tag k="building:levels" v="1"/>
    <tag k="building:use" v="residential"/>
    <tag k="is_in" v="Russia"/>
  </way>
  <way id="96844931" version="2" timestamp="2011-09-13T10:25:03Z" uid="29320" user="Komяpa" changeset="9288237">
    <nd ref="1122178215"/>
    <nd ref="1122177086"/>
    <nd ref="1122177521"/>
    <nd ref="1122177918"/>
    <nd ref="1122178215"/>
    <tag k="addr:city" v="Зеленоград"/>
    <tag k="addr:country" v="RU"/>
    <tag k="addr:housenumber" v="25"/>
    <tag k="addr:street" v="Рабочая улица"/>
    <tag k="building" v="yes"/>
    <tag k="building:levels" v="1"/>
    <tag k="building:use" v="residential"/>
  </way>
  <way id="96844931" version="3" timestamp="2012-03-27T11:40:12Z" uid="481934" user="iWowik" changeset="11115472">
    <nd ref="1122178215"/>
    <nd ref="1122177086"/>
    <nd ref="1122177521"/>
    <nd ref="1122177918"/>
    <nd ref="1122178215"/>
    <tag k="addr:city" v="Зеленоград"/>
    <tag k="addr:country" v="RU"/>
    <tag k="addr:housenumber" v="25"/>
    <tag k="addr:region" v="Москва"/>
    <tag k="addr:street" v="Рабочая улица"/>
    <tag k="building" v="yes"/>
    <tag k="building:levels" v="1"/>
    <tag k="building:use" v="residential"/>
  </way>
  <way id="96844934" version="1" timestamp="2011-01-26T18:24:08Z" uid="115477" user="wowik" changeset="7096167">
    <nd ref="1122178282"/>
    <nd ref="1122177196"/>
    <nd ref="1122177584"/>
    <nd ref="1122178006"/>
    <nd ref="1122178282"/>
    <tag k="addr:city" v="Зеленоград"/>
    <tag k="addr:housenumber" v="39"/>
    <tag k="addr:street" v="улица Щербакова"/>
    <tag k="building" v="yes"/>
    <tag k="building:levels" v="1"/>
    <tag k="building:use" v="residential"/>
    <tag k="is_in" v="Russia"/>
  </way>
  <way id="96844934" version="2" timestamp="2011-09-13T10:26:20Z" uid="29320" user="Komяpa" changeset="9288237">
    <nd ref="1122178282"/>
    <nd ref="1122177196"/>
    <nd ref="1122177584"/>
    <nd ref="1122178006"/>
    <nd ref="1122178282"/>
    <tag k="addr:city" v="Зеленоград"/>
    <tag k="addr:country" v="RU"/>
    <tag k="addr:housenumber" v="39"/>
    <tag k="addr:street" v="улица Щербакова"/>
    <tag k="building" v="yes"/>
    <tag k="building:levels" v="1"/>
    <tag k="building:use" v="residential"/>
  </way>
  <way id="96844934" version="3" timestamp="2012-03-27T11:42:25Z" uid="481934" user="iWowik" changeset="11115472">
    <nd ref="1122178282"/>
    <nd ref="1122177196"/>
    <nd ref="1122177584"/>
    <nd ref="1122178006"/>
    <nd ref="1122178282"/>
    <tag k="addr:city" v="Зеленоград"/>
    <tag k="addr:country" v="RU"/>
    <tag k="addr:housenumber" v="39"/>
    <tag k="addr:region" v="Москва"/>
    <tag k="addr:street" v="улица Щербакова"/>
    <tag k="building" v="yes"/>
    <tag k="building:levels" v="1"/>
    <tag k="building:use" v="residential"/>
  </way>
  <way id="96844937" version="1" timestamp="2011-01-26T18:24:08Z" uid="115477" user="wowik" changeset="7096167">
    <nd ref="1122177893"/>
    <nd ref="1122179100"/>
    <nd ref="1122178963"/>
    <nd ref="1122176995"/>
    <nd ref="1122177893"/>
    <tag k="addr:city" v="Зеленоград"/>
    <tag k="addr:housenumber" v="1130 с1"/>
    <tag k="addr:street" v="11-й Микрорайон"/>
    <tag k="building" v="yes"/>
    <tag k="is_in" v="Russia"/>
    <tag k="landuse" v="service"/>
  </way>
  <way id="96844937" version="2" timestamp="2011-06-07T20:48:38Z" uid="133332" user="AMDmi3" changeset="8374030">
    <nd ref="1122177893"/>
    <nd ref="1122179100"/>
    <nd ref="1122178963"/>
    <nd ref="1122176995"/>
    <nd ref="1122177893"/>
    <tag k="addr:city" v="Зеленоград"/>
    <tag k="addr:housenumber" v="1130 с1"/>
    <tag k="addr:street" v="11-й микрорайон"/>
    <tag k="building" v="yes"/>
    <tag k="is_in" v="Russia"/>
    <tag k="landuse" v="service"/>
  </way>
  <way id="96844937" version="3" timestamp="2011-09-13T10:21:39Z" uid="29320" user="Komяpa" changeset="9288237">
    <nd ref="1122177893"/>
    <nd ref="1122179100"/>
    <nd ref="1122178963"/>
    <nd ref="1122176995"/>
    <nd ref="1122177893"/>
    <tag k="addr:city" v="Зеленоград"/>
    <tag k="addr:country" v="RU"/>
    <tag k="addr:housenumber" v="1130 с1"/>
    <tag k="addr:street" v="11-й микрорайон"/>
    <tag k="building" v="service"/>
  </way>
  <way id="96844937" version="4" timestamp="2011-10-28T10:36:35Z" uid="481934" user="iWowik" changeset="9675303">
    <nd ref="1122177893"/>
    <nd ref="1122179100"/>
    <nd ref="1122178963"/>
    <nd ref="1122176995"/>
    <nd ref="1122177893"/>
    <tag k="addr:city" v="Зеленоград"/>
    <tag k="addr:country" v="RU"/>
    <tag k="addr:housenumber" v="1130 с1"/>
    <tag k="addr:street" v="11-й Микрорайон"/>
    <tag k="building" v="service"/>
  </way>
  <way id="96844937" version="5" timestamp="2011-11-14T20:31:20Z" uid="133332" user="AMDmi3" changeset="9828527">
    <nd ref="1122177893"/>
    <nd ref="1122179100"/>
    <nd ref="1122178963"/>
    <nd ref="1122176995"/>
    <nd ref="1122177893"/>
    <tag k="addr:city" v="Зеленоград"/>
    <tag k="addr:country" v="RU"/>
    <tag k="addr:housenumber" v="1130 с1"/>
    <tag k="addr:street" v="11-й микрорайон"/>
    <tag k="building" v="service"/>
  </way>
  <way id="96844937" version="6" timestamp="2012-03-27T11:34:29Z" uid="481934" user="iWowik" changeset="11115472">
    <nd ref="1122177893"/>
    <nd ref="1122179100"/>
    <nd ref="1122178963"/>
    <nd ref="1122176995"/>
    <nd ref="1122177893"/>
    <tag k="addr:city" v="Зеленоград"/>
    <tag k="addr:country" v="RU"/>
    <tag k="addr:housenumber" v="1130 с1"/>
    <tag k="addr:region" v="Москва"/>
    <tag k="addr:street" v="11-й микрорайон"/>
    <tag k="building" v="service"/>
  </way>
  <way id="96844942" version="1" timestamp="2011-01-26T18:24:08Z" uid="115477" user="wowik" changeset="7096167">
    <nd ref="1122178231"/>
    <nd ref="1122177089"/>
    <nd ref="1122176841"/>
    <nd ref="1122177324"/>
    <nd ref="1122177694"/>
    <nd ref="1122178103"/>
    <nd ref="1122178231"/>
    <tag k="addr:city" v="Зеленоград"/>
    <tag k="addr:housenumber" v="43А"/>
    <tag k="addr:street" v="улица Калинина"/>
    <tag k="building" v="yes"/>
    <tag k="building:levels" v="1"/>
    <tag k="building:use" v="residential"/>
    <tag k="is_in" v="Russia"/>
  </way>
  <way id="96844942" version="2" timestamp="2011-09-13T10:27:00Z" uid="29320" user="Komяpa" changeset="9288237">
    <nd ref="1122178231"/>
    <nd ref="1122177089"/>
    <nd ref="1122176841"/>
    <nd ref="1122177324"/>
    <nd ref="1122177694"/>
    <nd ref="1122178103"/>
    <nd ref="1122178231"/>
    <tag k="addr:city" v="Зеленоград"/>
    <tag k="addr:country" v="RU"/>
    <tag k="addr:housenumber" v="43А"/>
    <tag k="addr:street" v="улица Калинина"/>
    <tag k="building" v="yes"/>
    <tag k="building:levels" v="1"/>
    <tag k="building:use" v="residential"/>
  </way>
  <way id="96844942" version="3" timestamp="2012-03-27T11:43:33Z" uid="481934" user="iWowik" changeset="11115472">
    <nd ref="1122178231"/>
    <nd ref="1122177089"/>
    <nd ref="1122176841"/>
    <nd ref="1122177324"/>
    <nd ref="1122177694"/>
    <nd ref="1122178103"/>
    <nd ref="1122178231"/>
    <tag k="addr:city" v="Зеленоград"/>
    <tag k="addr:country" v="RU"/>
    <tag k="addr:housenumber" v="43А"/>
    <tag k="addr:region" v="Москва"/>
    <tag k="addr:street" v="улица Калинина"/>
    <tag k="building" v="yes"/>
    <tag k="building:levels" v="1"/>
    <tag k="building:use" v="residential"/>
  </way>
  <way id="96844944" version="1" timestamp="2011-01-26T18:24:09Z" uid="115477" user="wowik" changeset="7096167">
    <nd ref="1122178493"/>
    <nd ref="1122177624"/>
    <nd ref="1122178671"/>
    <nd ref="1122178239"/>
    <nd ref="1122178493"/>
    <tag k="building" v="yes"/>
    <tag k="building:levels" v="1"/>
    <tag k="shop" v="yes"/>
  </way>
  <way id="96844944" version="2" timestamp="2011-12-13T07:27:51Z" uid="126304" user="TarzanASG" changeset="10105192">
    <nd ref="1122178493"/>
    <nd ref="1122177624"/>
    <nd ref="1122178671"/>
    <nd ref="1122178239"/>
    <nd ref="1122178493"/>
    <tag k="building" v="retail"/>
    <tag k="building:levels" v="1"/>
    <tag k="shop" v="yes"/>
  </way>
  <way id="96844944" version="3" timestamp="2011-12-14T07:41:55Z" uid="143266" user="Sergey Astakhov" changeset="10113313">
    <nd ref="1122178493"/>
    <nd ref="1122177624"/>
    <nd ref="1122178671"/>
    <nd ref="1122178239"/>
    <nd ref="1122178493"/>
    <tag k="building" v="yes"/>
    <tag k="building:levels" v="1"/>
    <tag k="shop" v="yes"/>
  </way>
  <way id="96844944" version="4" timestamp="2012-03-27T11:51:01Z" uid="481934" user="iWowik" changeset="11115472">
    <nd ref="1122178493"/>
    <nd ref="1122177624"/>
    <nd ref="1122178671"/>
    <nd ref="1122178239"/>
    <nd ref="1122178493"/>
    <tag k="addr:city" v="Зеленоград"/>
    <tag k="addr:country" v="RU"/>
    <tag k="addr:region" v="Москва"/>
    <tag k="building" v="yes"/>
    <tag k="building:levels" v="1"/>
    <tag k="shop" v="yes"/>
  </way>
  <way id="96844947" version="1" timestamp="2011-01-26T18:24:09Z" uid="115477" user="wowik" changeset="7096167">
    <nd ref="1122178430"/>
    <nd ref="1122177505"/>
    <nd ref="1122178717"/>
    <nd ref="1122177883"/>
    <nd ref="1122179084"/>
    <nd ref="1122178274"/>
    <nd ref="1122177175"/>
    <nd ref="1122178091"/>
    <nd ref="1122176964"/>
    <nd ref="1122178397"/>
    <nd ref="1122177432"/>
    <nd ref="1122178430"/>
    <tag k="building" v="yes"/>
  </way>
  <way id="96844947" version="2" timestamp="2012-03-27T11:48:57Z" uid="481934" user="iWowik" changeset="11115472">
    <nd ref="1122178430"/>
    <nd ref="1122177505"/>
    <nd ref="1122178717"/>
    <nd ref="1122177883"/>
    <nd ref="1122179084"/>
    <nd ref="1122178274"/>
    <nd ref="1122177175"/>
    <nd ref="1122178091"/>
    <nd ref="1122176964"/>
    <nd ref="1122178397"/>
    <nd ref="1122177432"/>
    <nd ref="1122178430"/>
    <tag k="addr:city" v="Зеленоград"/>
    <tag k="addr:country" v="RU"/>
    <tag k="addr:region" v="Москва"/>
    <tag k="building" v="yes"/>
  </way>
  <way id="96844949" version="1" timestamp="2011-01-26T18:24:09Z" uid="115477" user="wowik" changeset="7096167">
    <nd ref="1122178721"/>
    <nd ref="1122177888"/>
    <nd ref="1122177671"/>
    <nd ref="1122178092"/>
    <nd ref="1122178721"/>
    <tag k="addr:city" v="Зеленоград"/>
    <tag k="addr:street" v="улица Щербакова"/>
    <tag k="building" v="yes"/>
    <tag k="building:levels" v="1"/>
    <tag k="is_in" v="Russia"/>
  </way>
  <way id="96844949" version="2" timestamp="2011-02-08T09:25:42Z" uid="115477" user="wowik" changeset="7224641">
    <nd ref="1122178721"/>
    <nd ref="1122177888"/>
    <nd ref="1122177671"/>
    <nd ref="1122178092"/>
    <nd ref="1122178721"/>
    <tag k="addr:city" v="Зеленоград"/>
    <tag k="building" v="yes"/>
    <tag k="building:levels" v="1"/>
    <tag k="is_in" v="Russia"/>
  </way>
  <way id="96844949" version="3" timestamp="2011-09-13T10:38:40Z" uid="29320" user="Komяpa" changeset="9288237">
    <nd ref="1122178721"/>
    <nd ref="1122177888"/>
    <nd ref="1122177671"/>
    <nd ref="1122178092"/>
    <nd ref="1122178721"/>
    <tag k="addr:city" v="Зеленоград"/>
    <tag k="addr:country" v="RU"/>
    <tag k="building" v="yes"/>
    <tag k="building:levels" v="1"/>
  </way>
  <way id="96844949" version="4" timestamp="2012-03-27T11:50:09Z" uid="481934" user="iWowik" changeset="11115472">
    <nd ref="1122178721"/>
    <nd ref="1122177888"/>
    <nd ref="1122177671"/>
    <nd ref="1122178092"/>
    <nd ref="1122178721"/>
    <tag k="addr:city" v="Зеленоград"/>
    <tag k="addr:country" v="RU"/>
    <tag k="addr:region" v="Москва"/>
    <tag k="building" v="yes"/>
    <tag k="building:levels" v="1"/>
  </way>
  <way id="96844953" version="1" timestamp="2011-01-26T18:24:10Z" uid="115477" user="wowik" changeset="7096167">
    <nd ref="1122176799"/>
    <nd ref="1122178345"/>
    <nd ref="1122178548"/>
    <nd ref="1122178940"/>
    <nd ref="1122176941"/>
    <nd ref="1122179090"/>
    <nd ref="1122177197"/>
    <nd ref="1122176799"/>
    <tag k="leisure" v="playground"/>
  </way>
  <way id="96844956" version="1" timestamp="2011-01-26T18:24:10Z" uid="115477" user="wowik" changeset="7096167">
    <nd ref="1122178153"/>
    <nd ref="1122177029"/>
    <nd ref="1122177490"/>
    <nd ref="1122177259"/>
    <nd ref="1122178153"/>
    <tag k="building" v="yes"/>
    <tag k="building:levels" v="1"/>
  </way>
  <way id="96844956" version="2" timestamp="2012-03-27T11:52:16Z" uid="481934" user="iWowik" changeset="11115472">
    <nd ref="1122178153"/>
    <nd ref="1122177029"/>
    <nd ref="1122177490"/>
    <nd ref="1122177259"/>
    <nd ref="1122178153"/>
    <tag k="addr:city" v="Зеленоград"/>
    <tag k="addr:country" v="RU"/>
    <tag k="addr:region" v="Москва"/>
    <tag k="building" v="yes"/>
    <tag k="building:levels" v="1"/>
  </way>
  <way id="96844960" version="1" timestamp="2011-01-26T18:24:10Z" uid="115477" user="wowik" changeset="7096167">
    <nd ref="1122178915"/>
    <nd ref="1122178068"/>
    <nd ref="1122177880"/>
    <nd ref="1122178270"/>
    <nd ref="1122178476"/>
    <nd ref="1122178807"/>
    <nd ref="1122178629"/>
    <nd ref="1122179006"/>
    <nd ref="1122178915"/>
    <tag k="addr:city" v="Зеленоград"/>
    <tag k="addr:street" v="улица Щербакова"/>
    <tag k="building" v="yes"/>
    <tag k="building:levels" v="1"/>
    <tag k="is_in" v="Russia"/>
  </way>
  <way id="96844960" version="2" timestamp="2011-01-31T10:11:19Z" uid="115477" user="wowik" changeset="7143563">
    <nd ref="1122178915"/>
    <nd ref="1122178068"/>
    <nd ref="1122177880"/>
    <nd ref="1122178270"/>
    <nd ref="1122178476"/>
    <nd ref="1122178807"/>
    <nd ref="1122178629"/>
    <nd ref="1122179006"/>
    <nd ref="1122178915"/>
    <tag k="addr:city" v="Зеленоград"/>
    <tag k="addr:housenumber" v="33А"/>
    <tag k="addr:street" v="улица Щербакова"/>
    <tag k="building" v="yes"/>
    <tag k="building:use" v="residential"/>
    <tag k="is_in" v="Russia"/>
  </way>
  <way id="96844960" version="3" timestamp="2011-09-13T10:25:59Z" uid="29320" user="Komяpa" changeset="9288237">
    <nd ref="1122178915"/>
    <nd ref="1122178068"/>
    <nd ref="1122177880"/>
    <nd ref="1122178270"/>
    <nd ref="1122178476"/>
    <nd ref="1122178807"/>
    <nd ref="1122178629"/>
    <nd ref="1122179006"/>
    <nd ref="1122178915"/>
    <tag k="addr:city" v="Зеленоград"/>
    <tag k="addr:country" v="RU"/>
    <tag k="addr:housenumber" v="33А"/>
    <tag k="addr:street" v="улица Щербакова"/>
    <tag k="building" v="yes"/>
    <tag k="building:use" v="residential"/>
  </way>
  <way id="96844960" version="4" timestamp="2012-03-27T11:41:54Z" uid="481934" user="iWowik" changeset="11115472">
    <nd ref="1122178915"/>
    <nd ref="1122178068"/>
    <nd ref="1122177880"/>
    <nd ref="1122178270"/>
    <nd ref="1122178476"/>
    <nd ref="1122178807"/>
    <nd ref="1122178629"/>
    <nd ref="1122179006"/>
    <nd ref="1122178915"/>
    <tag k="addr:city" v="Зеленоград"/>
    <tag k="addr:country" v="RU"/>
    <tag k="addr:housenumber" v="33А"/>
    <tag k="addr:region" v="Москва"/>
    <tag k="addr:street" v="улица Щербакова"/>
    <tag k="building" v="yes"/>
    <tag k="building:use" v="residential"/>
  </way>
  <way id="96844965" version="1" timestamp="2011-01-26T18:24:10Z" uid="115477" user="wowik" changeset="7096167">
    <nd ref="1122178797"/>
    <nd ref="1122177951"/>
    <nd ref="1122179158"/>
    <nd ref="1122177758"/>
    <nd ref="1122178797"/>
    <tag k="addr:city" v="Зеленоград"/>
    <tag k="addr:housenumber" v="18 с4"/>
    <tag k="addr:street" v="Панфиловский проспект"/>
    <tag k="building" v="yes"/>
    <tag k="is_in" v="Russia"/>
  </way>
  <way id="96844965" version="2" timestamp="2011-02-04T10:33:25Z" uid="115477" user="wowik" changeset="7181742">
    <nd ref="1122178797"/>
    <nd ref="1122177951"/>
    <nd ref="1122179158"/>
    <nd ref="1122177758"/>
    <nd ref="1122178797"/>
    <tag k="addr:city" v="Зеленоград"/>
    <tag k="addr:housenumber" v="18 с6"/>
    <tag k="addr:street" v="Панфиловский проспект"/>
    <tag k="building" v="yes"/>
    <tag k="is_in" v="Russia"/>
  </way>
  <way id="96844965" version="3" timestamp="2011-09-13T10:23:44Z" uid="29320" user="Komяpa" changeset="9288237">
    <nd ref="1122178797"/>
    <nd ref="1122177951"/>
    <nd ref="1122179158"/>
    <nd ref="1122177758"/>
    <nd ref="1122178797"/>
    <tag k="addr:city" v="Зеленоград"/>
    <tag k="addr:country" v="RU"/>
    <tag k="addr:housenumber" v="18 с6"/>
    <tag k="addr:street" v="Панфиловский проспект"/>
    <tag k="building" v="yes"/>
  </way>
  <way id="96844965" version="4" timestamp="2012-03-27T11:38:00Z" uid="481934" user="iWowik" changeset="11115472">
    <nd ref="1122178797"/>
    <nd ref="1122177951"/>
    <nd ref="1122179158"/>
    <nd ref="1122177758"/>
    <nd ref="1122178797"/>
    <tag k="addr:city" v="Зеленоград"/>
    <tag k="addr:country" v="RU"/>
    <tag k="addr:housenumber" v="18 с6"/>
    <tag k="addr:region" v="Москва"/>
    <tag k="addr:street" v="Панфиловский проспект"/>
    <tag k="building" v="yes"/>
  </way>
  <way id="96844968" version="1" timestamp="2011-01-26T18:24:11Z" uid="115477" user="wowik" changeset="7096167">
    <nd ref="1122178098"/>
    <nd ref="1122176978"/>
    <nd ref="1122179132"/>
    <nd ref="1122177216"/>
    <nd ref="1122178098"/>
    <tag k="addr:city" v="Зеленоград"/>
    <tag k="addr:housenumber" v="40"/>
    <tag k="addr:street" v="Панфиловский проспект"/>
    <tag k="building" v="yes"/>
    <tag k="building:levels" v="1"/>
    <tag k="building:use" v="residential"/>
    <tag k="is_in" v="Russia"/>
  </way>
  <way id="96844968" version="2" timestamp="2011-09-13T10:26:39Z" uid="29320" user="Komяpa" changeset="9288237">
    <nd ref="1122178098"/>
    <nd ref="1122176978"/>
    <nd ref="1122179132"/>
    <nd ref="1122177216"/>
    <nd ref="1122178098"/>
    <tag k="addr:city" v="Зеленоград"/>
    <tag k="addr:country" v="RU"/>
    <tag k="addr:housenumber" v="40"/>
    <tag k="addr:street" v="Панфиловский проспект"/>
    <tag k="building" v="yes"/>
    <tag k="building:levels" v="1"/>
    <tag k="building:use" v="residential"/>
  </way>
  <way id="96844968" version="3" timestamp="2012-03-27T11:43:00Z" uid="481934" user="iWowik" changeset="11115472">
    <nd ref="1122178098"/>
    <nd ref="1122176978"/>
    <nd ref="1122179132"/>
    <nd ref="1122177216"/>
    <nd ref="1122178098"/>
    <tag k="addr:city" v="Зеленоград"/>
    <tag k="addr:country" v="RU"/>
    <tag k="addr:housenumber" v="40"/>
    <tag k="addr:region" v="Москва"/>
    <tag k="addr:street" v="Панфиловский проспект"/>
    <tag k="building" v="yes"/>
    <tag k="building:levels" v="1"/>
    <tag k="building:use" v="residential"/>
  </way>
  <way id="96844973" version="1" timestamp="2011-01-26T18:24:11Z" uid="115477" user="wowik" changeset="7096167">
    <nd ref="1122176815"/>
    <nd ref="1122177513"/>
    <nd ref="1122177667"/>
    <nd ref="1122178350"/>
    <nd ref="1122177900"/>
    <nd ref="1122178290"/>
    <nd ref="1122177301"/>
    <nd ref="1122178553"/>
    <nd ref="1122176815"/>
    <tag k="addr:city" v="Зеленоград"/>
    <tag k="addr:housenumber" v="18 с4"/>
    <tag k="addr:street" v="Панфиловский проспект"/>
    <tag k="building" v="yes"/>
    <tag k="is_in" v="Russia"/>
  </way>
  <way id="96844973" version="2" timestamp="2011-09-13T10:23:43Z" uid="29320" user="Komяpa" changeset="9288237">
    <nd ref="1122176815"/>
    <nd ref="1122177513"/>
    <nd ref="1122177667"/>
    <nd ref="1122178350"/>
    <nd ref="1122177900"/>
    <nd ref="1122178290"/>
    <nd ref="1122177301"/>
    <nd ref="1122178553"/>
    <nd ref="1122176815"/>
    <tag k="addr:city" v="Зеленоград"/>
    <tag k="addr:country" v="RU"/>
    <tag k="addr:housenumber" v="18 с4"/>
    <tag k="addr:street" v="Панфиловский проспект"/>
    <tag k="building" v="yes"/>
  </way>
  <way id="96844973" version="3" timestamp="2012-03-27T11:37:59Z" uid="481934" user="iWowik" changeset="11115472">
    <nd ref="1122176815"/>
    <nd ref="1122177513"/>
    <nd ref="1122177667"/>
    <nd ref="1122178350"/>
    <nd ref="1122177900"/>
    <nd ref="1122178290"/>
    <nd ref="1122177301"/>
    <nd ref="1122178553"/>
    <nd ref="1122176815"/>
    <tag k="addr:city" v="Зеленоград"/>
    <tag k="addr:country" v="RU"/>
    <tag k="addr:housenumber" v="18 с4"/>
    <tag k="addr:region" v="Москва"/>
    <tag k="addr:street" v="Панфиловский проспект"/>
    <tag k="building" v="yes"/>
  </way>
  <way id="96844978" version="1" timestamp="2011-01-26T18:24:11Z" uid="115477" user="wowik" changeset="7096167">
    <nd ref="1122178367"/>
    <nd ref="1122177313"/>
    <nd ref="1122177690"/>
    <nd ref="1122177533"/>
    <nd ref="1122178367"/>
    <tag k="addr:city" v="Зеленоград"/>
    <tag k="addr:street" v="улица Щербакова"/>
    <tag k="building" v="yes"/>
    <tag k="building:levels" v="1"/>
    <tag k="is_in" v="Russia"/>
  </way>
  <way id="96844978" version="2" timestamp="2011-02-08T09:25:44Z" uid="115477" user="wowik" changeset="7224641">
    <nd ref="1122178367"/>
    <nd ref="1122177313"/>
    <nd ref="1122177690"/>
    <nd ref="1122177533"/>
    <nd ref="1122178367"/>
    <tag k="addr:city" v="Зеленоград"/>
    <tag k="building" v="yes"/>
    <tag k="building:levels" v="1"/>
    <tag k="is_in" v="Russia"/>
  </way>
  <way id="96844978" version="3" timestamp="2011-09-13T10:38:40Z" uid="29320" user="Komяpa" changeset="9288237">
    <nd ref="1122178367"/>
    <nd ref="1122177313"/>
    <nd ref="1122177690"/>
    <nd ref="1122177533"/>
    <nd ref="1122178367"/>
    <tag k="addr:city" v="Зеленоград"/>
    <tag k="addr:country" v="RU"/>
    <tag k="building" v="yes"/>
    <tag k="building:levels" v="1"/>
  </way>
  <way id="96844978" version="4" timestamp="2012-03-27T11:53:38Z" uid="481934" user="iWowik" changeset="11115472">
    <nd ref="1122178367"/>
    <nd ref="1122177313"/>
    <nd ref="1122177690"/>
    <nd ref="1122177533"/>
    <nd ref="1122178367"/>
    <tag k="addr:city" v="Зеленоград"/>
    <tag k="addr:country" v="RU"/>
    <tag k="addr:region" v="Москва"/>
    <tag k="building" v="yes"/>
    <tag k="building:levels" v="1"/>
  </way>
  <way id="96844983" version="1" timestamp="2011-01-26T18:24:12Z" uid="115477" user="wowik" changeset="7096167">
    <nd ref="1122177333"/>
    <nd ref="1122178585"/>
    <nd ref="1122178978"/>
    <nd ref="1122177023"/>
    <nd ref="1122177473"/>
    <nd ref="1122177243"/>
    <nd ref="1122177638"/>
    <nd ref="1122178045"/>
    <nd ref="1122178375"/>
    <nd ref="1122178246"/>
    <nd ref="1122178457"/>
    <nd ref="1122178780"/>
    <nd ref="1122177333"/>
    <tag k="addr:city" v="Зеленоград"/>
    <tag k="addr:housenumber" v="33"/>
    <tag k="addr:street" v="улица Калинина"/>
    <tag k="building" v="yes"/>
    <tag k="building:levels" v="1"/>
    <tag k="building:use" v="residential"/>
    <tag k="is_in" v="Russia"/>
  </way>
  <way id="96844983" version="2" timestamp="2011-09-13T10:25:55Z" uid="29320" user="Komяpa" changeset="9288237">
    <nd ref="1122177333"/>
    <nd ref="1122178585"/>
    <nd ref="1122178978"/>
    <nd ref="1122177023"/>
    <nd ref="1122177473"/>
    <nd ref="1122177243"/>
    <nd ref="1122177638"/>
    <nd ref="1122178045"/>
    <nd ref="1122178375"/>
    <nd ref="1122178246"/>
    <nd ref="1122178457"/>
    <nd ref="1122178780"/>
    <nd ref="1122177333"/>
    <tag k="addr:city" v="Зеленоград"/>
    <tag k="addr:country" v="RU"/>
    <tag k="addr:housenumber" v="33"/>
    <tag k="addr:street" v="улица Калинина"/>
    <tag k="building" v="yes"/>
    <tag k="building:levels" v="1"/>
    <tag k="building:use" v="residential"/>
  </way>
  <way id="96844983" version="3" timestamp="2012-03-27T11:41:46Z" uid="481934" user="iWowik" changeset="11115472">
    <nd ref="1122177333"/>
    <nd ref="1122178585"/>
    <nd ref="1122178978"/>
    <nd ref="1122177023"/>
    <nd ref="1122177473"/>
    <nd ref="1122177243"/>
    <nd ref="1122177638"/>
    <nd ref="1122178045"/>
    <nd ref="1122178375"/>
    <nd ref="1122178246"/>
    <nd ref="1122178457"/>
    <nd ref="1122178780"/>
    <nd ref="1122177333"/>
    <tag k="addr:city" v="Зеленоград"/>
    <tag k="addr:country" v="RU"/>
    <tag k="addr:housenumber" v="33"/>
    <tag k="addr:region" v="Москва"/>
    <tag k="addr:street" v="улица Калинина"/>
    <tag k="building" v="yes"/>
    <tag k="building:levels" v="1"/>
    <tag k="building:use" v="residential"/>
  </way>
  <way id="96844990" version="1" timestamp="2011-01-26T18:24:12Z" uid="115477" user="wowik" changeset="7096167">
    <nd ref="476391482"/>
    <nd ref="1122177514"/>
    <nd ref="1122177916"/>
    <nd ref="1122178291"/>
    <nd ref="476391482"/>
    <tag k="building" v="yes"/>
    <tag k="building:levels" v="1"/>
    <tag k="shop" v="yes"/>
  </way>
  <way id="96844990" version="2" timestamp="2011-12-13T07:27:52Z" uid="126304" user="TarzanASG" changeset="10105192">
    <nd ref="476391482"/>
    <nd ref="1122177514"/>
    <nd ref="1122177916"/>
    <nd ref="1122178291"/>
    <nd ref="476391482"/>
    <tag k="building" v="retail"/>
    <tag k="building:levels" v="1"/>
    <tag k="shop" v="yes"/>
  </way>
  <way id="96844990" version="3" timestamp="2011-12-14T07:41:56Z" uid="143266" user="Sergey Astakhov" changeset="10113313">
    <nd ref="476391482"/>
    <nd ref="1122177514"/>
    <nd ref="1122177916"/>
    <nd ref="1122178291"/>
    <nd ref="476391482"/>
    <tag k="building" v="yes"/>
    <tag k="building:levels" v="1"/>
    <tag k="shop" v="yes"/>
  </way>
  <way id="96844990" version="4" timestamp="2012-03-27T11:50:20Z" uid="481934" user="iWowik" changeset="11115472">
    <nd ref="476391482"/>
    <nd ref="1122177514"/>
    <nd ref="1122177916"/>
    <nd ref="1122178291"/>
    <nd ref="476391482"/>
    <tag k="addr:city" v="Зеленоград"/>
    <tag k="addr:country" v="RU"/>
    <tag k="addr:region" v="Москва"/>
    <tag k="building" v="yes"/>
    <tag k="building:levels" v="1"/>
    <tag k="shop" v="yes"/>
  </way>
  <way id="96844992" version="1" timestamp="2011-01-26T18:24:12Z" uid="115477" user="wowik" changeset="7096167">
    <nd ref="1122178801"/>
    <nd ref="1122177981"/>
    <nd ref="1122177783"/>
    <nd ref="1122178182"/>
    <nd ref="1122178801"/>
    <tag k="addr:city" v="Зеленоград"/>
    <tag k="addr:housenumber" v="37"/>
    <tag k="addr:street" v="улица Щербакова"/>
    <tag k="building" v="yes"/>
    <tag k="building:levels" v="1"/>
    <tag k="building:use" v="residential"/>
    <tag k="is_in" v="Russia"/>
  </way>
  <way id="96844992" version="2" timestamp="2011-09-13T10:26:17Z" uid="29320" user="Komяpa" changeset="9288237">
    <nd ref="1122178801"/>
    <nd ref="1122177981"/>
    <nd ref="1122177783"/>
    <nd ref="1122178182"/>
    <nd ref="1122178801"/>
    <tag k="addr:city" v="Зеленоград"/>
    <tag k="addr:country" v="RU"/>
    <tag k="addr:housenumber" v="37"/>
    <tag k="addr:street" v="улица Щербакова"/>
    <tag k="building" v="yes"/>
    <tag k="building:levels" v="1"/>
    <tag k="building:use" v="residential"/>
  </way>
  <way id="96844992" version="3" timestamp="2012-03-27T11:42:22Z" uid="481934" user="iWowik" changeset="11115472">
    <nd ref="1122178801"/>
    <nd ref="1122177981"/>
    <nd ref="1122177783"/>
    <nd ref="1122178182"/>
    <nd ref="1122178801"/>
    <tag k="addr:city" v="Зеленоград"/>
    <tag k="addr:country" v="RU"/>
    <tag k="addr:housenumber" v="37"/>
    <tag k="addr:region" v="Москва"/>
    <tag k="addr:street" v="улица Щербакова"/>
    <tag k="building" v="yes"/>
    <tag k="building:levels" v="1"/>
    <tag k="building:use" v="residential"/>
  </way>
  <way id="96844881" version="4" timestamp="2012-07-20T22:17:17Z" uid="722137" user="OSMF Redaction Account" changeset="12394539"/>
  <way id="96844885" version="4" timestamp="2012-07-20T22:17:17Z" uid="722137" user="OSMF Redaction Account" changeset="12394539"/>
  <way id="96844889" version="5" timestamp="2012-07-20T22:17:24Z" uid="722137" user="OSMF Redaction Account" changeset="12394539"/>
  <way id="96844892" version="4" timestamp="2012-07-20T23:57:22Z" uid="722137" user="OSMF Redaction Account" changeset="12396639"/>
  <way id="96844893" version="5" timestamp="2012-07-20T22:17:24Z" uid="722137" user="OSMF Redaction Account" changeset="12394539"/>
  <way id="96844894" version="5" timestamp="2012-07-20T15:49:01Z" uid="722137" user="OSMF Redaction Account" changeset="12381812"/>
  <way id="96844899" version="4" timestamp="2012-07-20T22:17:18Z" uid="722137" user="OSMF Redaction Account" changeset="12394539"/>
  <way id="96844903" version="4" timestamp="2012-07-20T22:17:25Z" uid="722137" user="OSMF Redaction Account" changeset="12394539"/>
  <way id="96844905" version="2" timestamp="2012-07-20T23:57:43Z" uid="722137" user="OSMF Redaction Account" changeset="12396639"/>
  <way id="96844910" version="5" timestamp="2012-07-20T22:17:24Z" uid="722137" user="OSMF Redaction Account" changeset="12394539"/>
  <way id="96844914" version="4" timestamp="2012-07-20T22:17:24Z" uid="722137" user="OSMF Redaction Account" changeset="12394539"/>
  <way id="96844918" version="4" timestamp="2012-07-20T22:17:24Z" uid="722137" user="OSMF Redaction Account" changeset="12394539"/>
  <way id="96844924" version="3" timestamp="2012-07-20T15:49:02Z" uid="722137" user="OSMF Redaction Account" changeset="12381812"/>
  <way id="96844925" version="3" timestamp="2012-07-20T22:17:16Z" uid="722137" user="OSMF Redaction Account" changeset="12394539"/>
  <way id="96844931" version="4" timestamp="2012-07-20T22:17:21Z" uid="722137" user="OSMF Redaction Account" changeset="12394539"/>
  <way id="96844934" version="4" timestamp="2012-07-20T22:17:21Z" uid="722137" user="OSMF Redaction Account" changeset="12394539"/>
  <way id="96844937" version="7" timestamp="2012-07-20T23:57:43Z" uid="722137" user="OSMF Redaction Account" changeset="12396639"/>
  <way id="96844942" version="4" timestamp="2012-07-20T22:17:19Z" uid="722137" user="OSMF Redaction Account" changeset="12394539"/>
  <way id="96844944" version="5" timestamp="2012-07-20T22:17:56Z" uid="722137" user="OSMF Redaction Account" changeset="12394559"/>
  <way id="96844947" version="3" timestamp="2012-07-20T15:49:01Z" uid="722137" user="OSMF Redaction Account" changeset="12381812"/>
  <way id="96844949" version="5" timestamp="2012-07-20T22:17:22Z" uid="722137" user="OSMF Redaction Account" changeset="12394539"/>
  <way id="96844953" version="2" timestamp="2012-07-20T23:57:34Z" uid="722137" user="OSMF Redaction Account" changeset="12396639"/>
  <way id="96844956" version="3" timestamp="2012-07-20T23:57:26Z" uid="722137" user="OSMF Redaction Account" changeset="12396639"/>
  <way id="96844960" version="5" timestamp="2012-07-20T22:17:13Z" uid="722137" user="OSMF Redaction Account" changeset="12394539"/>
  <way id="96844965" version="5" timestamp="2012-07-20T15:49:02Z" uid="722137" user="OSMF Redaction Account" changeset="12381812"/>
  <way id="96844968" version="4" timestamp="2012-07-20T23:57:23Z" uid="722137" user="OSMF Redaction Account" changeset="12396639"/>
  <way id="96844973" version="4" timestamp="2012-07-20T15:49:00Z" uid="722137" user="OSMF Redaction Account" changeset="12381812"/>
  <way id="96844978" version="5" timestamp="2012-07-20T22:17:20Z" uid="722137" user="OSMF Redaction Account" changeset="12394539"/>
  <way id="96844983" version="4" timestamp="2012-07-20T23:57:22Z" uid="722137" user="OSMF Redaction Account" changeset="12396639"/>
  <way id="96844990" version="5" timestamp="2012-07-20T22:17:48Z" uid="722137" user="OSMF Redaction Account" changeset="12394539"/>
  <way id="96844992" version="4" timestamp="2012-07-20T22:17:20Z" uid="722137" user="OSMF Redaction Account" changeset="12394539"/>
</osm>
