<?xml version='1.0' encoding='UTF-8'?>
<osm version="0.6" generator="libosmium/2.20.0">
  <way id="96934251" version="1" timestamp="2011-01-27T12:12:49Z" uid="115477" user="wowik" changeset="7102995">
    <nd ref="1123332095"/>
    <nd ref="1123331764"/>
    <nd ref="1123330943"/>
    <nd ref="1123332682"/>
    <nd ref="1123332095"/>
    <tag k="addr:city" v="Зеленоград"/>
    <tag k="addr:country" v="RU"/>
    <tag k="addr:housenumber" v="6 с8"/>
    <tag k="addr:street" v="Сосновая аллея"/>
    <tag k="building" v="yes"/>
    <tag k="building:levels" v="1"/>
  </way>
  <way id="96934251" version="2" timestamp="2012-03-27T11:45:17Z" uid="481934" user="iWowik" changeset="11115472">
    <nd ref="1123332095"/>
    <nd ref="1123331764"/>
    <nd ref="1123330943"/>
    <nd ref="1123332682"/>
    <nd ref="1123332095"/>
    <tag k="addr:city" v="Зеленоград"/>
    <tag k="addr:country" v="RU"/>
    <tag k="addr:housenumber" v="6 с8"/>
    <tag k="addr:region" v="Москва"/>
    <tag k="addr:street" v="Сосновая аллея"/>
    <tag k="building" v="yes"/>
    <tag k="building:levels" v="1"/>
  </way>
  <way id="96934252" version="1" timestamp="2011-01-27T12:12:49Z" uid="115477" user="wowik" changeset="7102995">
    <nd ref="1123330964"/>
    <nd ref="1123332661"/>
    <nd ref="1123332428"/>
    <nd ref="1123331927"/>
    <tag k="highway" v="service"/>
  </way>
  <way id="96934252" version="2" timestamp="2011-04-27T11:46:16Z" uid="241531" user="dik_man" changeset="7984168">
    <nd ref="1123330964"/>
    <nd ref="1123332661"/>
    <nd ref="1123332428"/>
    <tag k="bicycle" v="private"/>
    <tag k="highway" v="service"/>
  </way>
  <way id="96934253" version="1" timestamp="2011-01-27T12:12:49Z" uid="115477" user="wowik" changeset="7102995">
    <nd ref="1123331149"/>
    <nd ref="1123332635"/>
    <nd ref="1123332569"/>
    <nd ref="1123331800"/>
    <nd ref="1123331002"/>
    <nd ref="1123332045"/>
    <nd ref="1123331979"/>
    <nd ref="1123331204"/>
    <nd ref="1123331149"/>
    <tag k="addr:city" v="Зеленоград"/>
    <tag k="addr:country" v="RU"/>
    <tag k="addr:housenumber" v="79"/>
    <tag k="addr:street" v="посёлок Назарьево"/>
    <tag k="building" v="yes"/>
    <tag k="building:levels" v="1"/>
    <tag k="building:use" v="residential"/>
  </way>
  <way id="96934254" version="1" timestamp="2011-01-27T12:12:50Z" uid="115477" user="wowik" changeset="7102995">
    <nd ref="1123331092"/>
    <nd ref="1123332589"/>
    <nd ref="1123331804"/>
    <nd ref="1123331779"/>
    <nd ref="1123330959"/>
    <nd ref="1123331991"/>
    <nd ref="1123331092"/>
  </way>
  <way id="96934254" version="2" timestamp="2011-04-01T18:23:31Z" uid="115477" user="wowik" changeset="7737524">
    <nd ref="1123331092"/>
    <nd ref="1123332589"/>
    <nd ref="1123331804"/>
    <nd ref="1123331779"/>
    <nd ref="1123330959"/>
    <nd ref="1123331991"/>
    <nd ref="1123331092"/>
    <tag k="building" v="yes"/>
    <tag k="building:levels" v="1"/>
  </way>
  <way id="96934255" version="1" timestamp="2011-01-27T12:12:50Z" uid="115477" user="wowik" changeset="7102995">
    <nd ref="1123331592"/>
    <nd ref="1123331103"/>
    <nd ref="1123332224"/>
    <nd ref="1123331429"/>
    <nd ref="1123331592"/>
    <tag k="addr:city" v="Зеленоград"/>
    <tag k="addr:country" v="RU"/>
    <tag k="addr:street" v="посёлок Назарьево"/>
    <tag k="building" v="yes"/>
    <tag k="building:levels" v="1"/>
  </way>
  <way id="96934256" version="1" timestamp="2011-01-27T12:12:50Z" uid="115477" user="wowik" changeset="7102995">
    <nd ref="1123332420"/>
    <nd ref="1123331992"/>
    <nd ref="1123331694"/>
    <nd ref="1123331215"/>
    <nd ref="1123332420"/>
    <tag k="addr:city" v="Зеленоград"/>
    <tag k="addr:country" v="RU"/>
    <tag k="addr:housenumber" v="11 с1"/>
    <tag k="addr:street" v="Сосновая аллея"/>
    <tag k="building" v="yes"/>
    <tag k="building:levels" v="1"/>
  </way>
  <way id="96934256" version="2" timestamp="2012-03-27T11:33:55Z" uid="481934" user="iWowik" changeset="11115472">
    <nd ref="1123332420"/>
    <nd ref="1123331992"/>
    <nd ref="1123331694"/>
    <nd ref="1123331215"/>
    <nd ref="1123332420"/>
    <tag k="addr:city" v="Зеленоград"/>
    <tag k="addr:country" v="RU"/>
    <tag k="addr:housenumber" v="11 с1"/>
    <tag k="addr:region" v="Москва"/>
    <tag k="addr:street" v="Сосновая аллея"/>
    <tag k="building" v="yes"/>
    <tag k="building:levels" v="1"/>
  </way>
  <way id="96934257" version="1" timestamp="2011-01-27T12:12:50Z" uid="115477" user="wowik" changeset="7102995">
    <nd ref="993726859"/>
    <nd ref="1123332132"/>
    <nd ref="1123331376"/>
    <nd ref="993726725"/>
    <nd ref="993726678"/>
    <nd ref="993726773"/>
    <nd ref="993726859"/>
    <tag k="building" v="yes"/>
  </way>
  <way id="96934258" version="1" timestamp="2011-01-27T12:12:50Z" uid="115477" user="wowik" changeset="7102995">
    <nd ref="1123332539"/>
    <nd ref="1123332271"/>
    <tag k="highway" v="service"/>
    <tag k="service" v="parking_aisle"/>
  </way>
  <way id="96934259" version="1" timestamp="2011-01-27T12:12:51Z" uid="115477" user="wowik" changeset="7102995">
    <nd ref="1123331439"/>
    <nd ref="1123331027"/>
    <nd ref="1123332091"/>
    <nd ref="1123331317"/>
    <nd ref="1123331439"/>
    <tag k="building" v="yes"/>
    <tag k="building:levels" v="1"/>
    <tag k="landuse" v="garages"/>
  </way>
  <way id="96934259" version="2" timestamp="2011-09-13T10:38:44Z" uid="29320" user="Komяpa" changeset="9288237">
    <nd ref="1123331439"/>
    <nd ref="1123331027"/>
    <nd ref="1123332091"/>
    <nd ref="1123331317"/>
    <nd ref="1123331439"/>
    <tag k="building" v="garages"/>
    <tag k="building:levels" v="1"/>
  </way>
  <way id="96934260" version="1" timestamp="2011-01-27T12:12:51Z" uid="115477" user="wowik" changeset="7102995">
    <nd ref="1123332371"/>
    <nd ref="1123331937"/>
    <nd ref="1123331877"/>
    <nd ref="1123331081"/>
    <nd ref="1123332192"/>
    <nd ref="1123331425"/>
    <nd ref="1123332371"/>
    <tag k="addr:city" v="Зеленоград"/>
    <tag k="addr:country" v="RU"/>
    <tag k="addr:street" v="посёлок Назарьево"/>
    <tag k="building" v="yes"/>
    <tag k="building:levels" v="1"/>
    <tag k="building:use" v="residential"/>
  </way>
  <way id="96934261" version="1" timestamp="2011-01-27T12:12:51Z" uid="115477" user="wowik" changeset="7102995">
    <nd ref="1123330911"/>
    <nd ref="1123332369"/>
    <nd ref="1123332300"/>
    <nd ref="1123331550"/>
    <nd ref="1123330911"/>
    <tag k="addr:city" v="Зеленоград"/>
    <tag k="addr:country" v="RU"/>
    <tag k="addr:street" v="посёлок Назарьево"/>
    <tag k="building" v="yes"/>
    <tag k="building:levels" v="1"/>
  </way>
  <way id="96934262" version="1" timestamp="2011-01-27T12:12:51Z" uid="115477" user="wowik" changeset="7102995">
    <nd ref="1123331291"/>
    <nd ref="1123330928"/>
    <nd ref="1123332675"/>
    <nd ref="1123331887"/>
    <nd ref="1123331093"/>
    <nd ref="1123332206"/>
    <nd ref="1123332121"/>
    <nd ref="1123331351"/>
    <nd ref="1123332417"/>
    <nd ref="1123331693"/>
    <nd ref="1123331291"/>
    <tag k="addr:city" v="Зеленоград"/>
    <tag k="addr:country" v="RU"/>
    <tag k="addr:housenumber" v="74"/>
    <tag k="addr:street" v="посёлок Назарьево"/>
    <tag k="building" v="yes"/>
    <tag k="building:levels" v="1"/>
    <tag k="building:use" v="residential"/>
  </way>
  <way id="96934263" version="1" timestamp="2011-01-27T12:12:51Z" uid="115477" user="wowik" changeset="7102995">
    <nd ref="1123331148"/>
    <nd ref="1123332634"/>
    <nd ref="1123332568"/>
    <nd ref="1123331799"/>
    <nd ref="1123331001"/>
    <nd ref="1123332044"/>
    <nd ref="1123331148"/>
    <tag k="addr:city" v="Зеленоград"/>
    <tag k="addr:country" v="RU"/>
    <tag k="addr:street" v="посёлок Назарьево"/>
    <tag k="building" v="yes"/>
    <tag k="building:levels" v="1"/>
    <tag k="building:use" v="residential"/>
  </way>
  <way id="96934264" version="1" timestamp="2011-01-27T12:12:52Z" uid="115477" user="wowik" changeset="7102995">
    <nd ref="1123331959"/>
    <nd ref="1123332071"/>
    <nd ref="1123331760"/>
    <nd ref="1123330938"/>
    <nd ref="1123331959"/>
    <tag k="addr:city" v="Зеленоград"/>
    <tag k="addr:country" v="RU"/>
    <tag k="addr:street" v="посёлок Назарьево"/>
    <tag k="building" v="yes"/>
    <tag k="building:levels" v="1"/>
  </way>
  <way id="96934265" version="1" timestamp="2011-01-27T12:12:52Z" uid="115477" user="wowik" changeset="7102995">
    <nd ref="1123332348"/>
    <nd ref="1123332649"/>
    <nd ref="1123331854"/>
    <nd ref="1123331059"/>
    <nd ref="1123332168"/>
    <nd ref="1123332069"/>
    <nd ref="1123331297"/>
    <nd ref="1123332384"/>
    <nd ref="1123332348"/>
    <tag k="addr:city" v="Зеленоград"/>
    <tag k="addr:country" v="RU"/>
    <tag k="addr:housenumber" v="89"/>
    <tag k="addr:street" v="посёлок Назарьево"/>
    <tag k="building" v="yes"/>
    <tag k="building:levels" v="1"/>
    <tag k="building:use" v="residential"/>
  </way>
  <way id="96934266" version="1" timestamp="2011-01-27T12:12:52Z" uid="115477" user="wowik" changeset="7102995">
    <nd ref="450653201"/>
    <nd ref="1123331023"/>
    <nd ref="1123332082"/>
    <nd ref="1123331313"/>
    <nd ref="450653201"/>
    <tag k="building" v="yes"/>
    <tag k="building:levels" v="1"/>
  </way>
  <way id="96934266" version="2" timestamp="2012-03-27T11:51:28Z" uid="481934" user="iWowik" changeset="11115472">
    <nd ref="450653201"/>
    <nd ref="1123331023"/>
    <nd ref="1123332082"/>
    <nd ref="1123331313"/>
    <nd ref="450653201"/>
    <tag k="addr:city" v="Зеленоград"/>
    <tag k="addr:country" v="RU"/>
    <tag k="addr:region" v="Москва"/>
    <tag k="building" v="yes"/>
    <tag k="building:levels" v="1"/>
  </way>
  <way id="96934267" version="1" timestamp="2011-01-27T12:12:52Z" uid="115477" user="wowik" changeset="7102995">
    <nd ref="1123331772"/>
    <nd ref="1123331077"/>
    <nd ref="1123332563"/>
    <nd ref="1123332494"/>
    <nd ref="1123331772"/>
    <tag k="addr:city" v="Зеленоград"/>
    <tag k="addr:country" v="RU"/>
    <tag k="addr:housenumber" v="5 с2"/>
    <tag k="addr:street" v="Сосновая аллея"/>
    <tag k="building" v="yes"/>
    <tag k="building:levels" v="1"/>
  </way>
  <way id="96934267" version="2" timestamp="2012-03-27T11:44:24Z" uid="481934" user="iWowik" changeset="11115472">
    <nd ref="1123331772"/>
    <nd ref="1123331077"/>
    <nd ref="1123332563"/>
    <nd ref="1123332494"/>
    <nd ref="1123331772"/>
    <tag k="addr:city" v="Зеленоград"/>
    <tag k="addr:country" v="RU"/>
    <tag k="addr:housenumber" v="5 с2"/>
    <tag k="addr:region" v="Москва"/>
    <tag k="addr:street" v="Сосновая аллея"/>
    <tag k="building" v="yes"/>
    <tag k="building:levels" v="1"/>
  </way>
  <way id="96934268" version="1" timestamp="2011-01-27T12:12:53Z" uid="115477" user="wowik" changeset="7102995">
    <nd ref="1123332059"/>
    <nd ref="1123331752"/>
    <nd ref="1123330927"/>
    <nd ref="1123332668"/>
    <nd ref="1123332059"/>
  </way>
  <way id="96934268" version="2" timestamp="2011-04-01T18:23:32Z" uid="115477" user="wowik" changeset="7737524">
    <nd ref="1123332059"/>
    <nd ref="1123331752"/>
    <nd ref="1123330927"/>
    <nd ref="1123332668"/>
    <nd ref="1123332059"/>
    <tag k="building" v="yes"/>
    <tag k="building:levels" v="1"/>
  </way>
  <way id="96934269" version="1" timestamp="2011-01-27T12:12:53Z" uid="115477" user="wowik" changeset="7102995">
    <nd ref="1123332482"/>
    <nd ref="1123332075"/>
    <nd ref="1123331298"/>
    <nd ref="1123331226"/>
    <nd ref="1123332323"/>
    <nd ref="1123331590"/>
    <nd ref="1123332604"/>
    <nd ref="1123332521"/>
    <nd ref="1123332482"/>
    <tag k="addr:city" v="Зеленоград"/>
    <tag k="addr:country" v="RU"/>
    <tag k="addr:housenumber" v="124"/>
    <tag k="addr:street" v="посёлок Назарьево"/>
    <tag k="building" v="yes"/>
    <tag k="building:levels" v="1"/>
    <tag k="building:use" v="residential"/>
  </way>
  <way id="96934270" version="1" timestamp="2011-01-27T12:12:53Z" uid="115477" user="wowik" changeset="7102995">
    <nd ref="1123331728"/>
    <nd ref="1123332180"/>
    <nd ref="1123331072"/>
    <nd ref="1123332032"/>
    <nd ref="1123331728"/>
    <tag k="addr:city" v="Зеленоград"/>
    <tag k="addr:country" v="RU"/>
    <tag k="addr:street" v="посёлок Назарьево"/>
    <tag k="building" v="yes"/>
    <tag k="building:levels" v="1"/>
  </way>
  <way id="96934271" version="1" timestamp="2011-01-27T12:12:53Z" uid="115477" user="wowik" changeset="7102995">
    <nd ref="1123331594"/>
    <nd ref="1123331813"/>
    <nd ref="1123331783"/>
    <nd ref="1123330970"/>
    <nd ref="1123332006"/>
    <nd ref="1123331594"/>
    <tag k="building" v="yes"/>
    <tag k="building:levels" v="1"/>
  </way>
  <way id="96934271" version="2" timestamp="2012-03-27T11:54:32Z" uid="481934" user="iWowik" changeset="11115472">
    <nd ref="1123331594"/>
    <nd ref="1123331813"/>
    <nd ref="1123331783"/>
    <nd ref="1123330970"/>
    <nd ref="1123332006"/>
    <nd ref="1123331594"/>
    <tag k="addr:city" v="Зеленоград"/>
    <tag k="addr:country" v="RU"/>
    <tag k="addr:region" v="Москва"/>
    <tag k="building" v="yes"/>
    <tag k="building:levels" v="1"/>
  </way>
  <way id="96934272" version="1" timestamp="2011-01-27T12:12:53Z" uid="115477" user="wowik" changeset="7102995">
    <nd ref="1123332661"/>
    <nd ref="1123331870"/>
    <tag k="highway" v="service"/>
    <tag k="service" v="parking_aisle"/>
  </way>
  <way id="96934272" version="2" timestamp="2011-04-27T11:46:16Z" uid="241531" user="dik_man" changeset="7984168">
    <nd ref="1123332661"/>
    <nd ref="1123331870"/>
    <tag k="bicycle" v="private"/>
    <tag k="highway" v="service"/>
    <tag k="service" v="parking_aisle"/>
  </way>
  <way id="96934273" version="1" timestamp="2011-01-27T12:12:54Z" uid="115477" user="wowik" changeset="7102995">
    <nd ref="1123332226"/>
    <nd ref="1123331814"/>
    <nd ref="1123331025"/>
    <nd ref="1123332087"/>
    <nd ref="1123332226"/>
    <tag k="addr:city" v="Зеленоград"/>
    <tag k="addr:country" v="RU"/>
    <tag k="addr:street" v="посёлок Назарьево"/>
    <tag k="building" v="yes"/>
    <tag k="building:levels" v="1"/>
  </way>
  <way id="96934274" version="1" timestamp="2011-01-27T12:12:54Z" uid="115477" user="wowik" changeset="7102995">
    <nd ref="1123332217"/>
    <nd ref="1123331809"/>
    <nd ref="1123332131"/>
    <nd ref="1123331781"/>
    <nd ref="1123332217"/>
    <tag k="addr:city" v="Зеленоград"/>
    <tag k="addr:street" v="Проезд N 4921"/>
    <tag k="building" v="yes"/>
    <tag k="building:levels" v="1"/>
  </way>
  <way id="96934274" version="2" timestamp="2012-03-27T11:52:04Z" uid="481934" user="iWowik" changeset="11115472">
    <nd ref="1123332217"/>
    <nd ref="1123331809"/>
    <nd ref="1123332131"/>
    <nd ref="1123331781"/>
    <nd ref="1123332217"/>
    <tag k="addr:city" v="Зеленоград"/>
    <tag k="addr:country" v="RU"/>
    <tag k="addr:region" v="Москва"/>
    <tag k="addr:street" v="Проезд N 4921"/>
    <tag k="building" v="yes"/>
    <tag k="building:levels" v="1"/>
  </way>
  <way id="96934275" version="1" timestamp="2011-01-27T12:12:54Z" uid="115477" user="wowik" changeset="7102995">
    <nd ref="1123331551"/>
    <nd ref="1123332244"/>
    <nd ref="1123331475"/>
    <nd ref="1123332502"/>
    <nd ref="1123331551"/>
    <tag k="addr:city" v="Зеленоград"/>
    <tag k="addr:country" v="RU"/>
    <tag k="addr:street" v="посёлок Назарьево"/>
    <tag k="building" v="yes"/>
    <tag k="building:levels" v="1"/>
  </way>
  <way id="96934276" version="1" timestamp="2011-01-27T12:12:54Z" uid="115477" user="wowik" changeset="7102995">
    <nd ref="1123332096"/>
    <nd ref="1123331770"/>
    <nd ref="1123331713"/>
    <nd ref="1123332691"/>
    <nd ref="1123331905"/>
    <nd ref="1123331113"/>
    <nd ref="1123331055"/>
    <nd ref="1123332159"/>
    <nd ref="1123331388"/>
    <nd ref="1123332440"/>
    <nd ref="1123332383"/>
    <nd ref="1123331655"/>
    <nd ref="1123332645"/>
    <nd ref="1123331850"/>
    <nd ref="1123331805"/>
    <nd ref="1123331012"/>
    <nd ref="1123332096"/>
    <tag k="addr:city" v="Зеленоград"/>
    <tag k="addr:country" v="RU"/>
    <tag k="addr:housenumber" v="72"/>
    <tag k="addr:street" v="посёлок Назарьево"/>
    <tag k="building" v="yes"/>
    <tag k="building:levels" v="1"/>
    <tag k="building:use" v="residential"/>
  </way>
  <way id="96934277" version="1" timestamp="2011-01-27T12:12:55Z" uid="115477" user="wowik" changeset="7102995">
    <nd ref="1123331625"/>
    <nd ref="1123331133"/>
    <nd ref="1123332253"/>
    <nd ref="1123332181"/>
    <nd ref="1123331408"/>
    <nd ref="1123332456"/>
    <nd ref="1123331736"/>
    <nd ref="1123331660"/>
    <nd ref="1123331625"/>
    <tag k="addr:city" v="Зеленоград"/>
    <tag k="addr:country" v="RU"/>
    <tag k="addr:street" v="посёлок Назарьево"/>
    <tag k="building" v="yes"/>
    <tag k="building:levels" v="1"/>
  </way>
  <way id="96934279" version="1" timestamp="2011-01-27T12:12:55Z" uid="115477" user="wowik" changeset="7102995">
    <nd ref="1123331763"/>
    <nd ref="1123331300"/>
    <nd ref="1123331228"/>
    <nd ref="1123332325"/>
    <nd ref="1123331763"/>
    <tag k="addr:city" v="Зеленоград"/>
    <tag k="addr:housenumber" v="2 с21"/>
    <tag k="addr:street" v="Проезд N 4807"/>
    <tag k="building" v="yes"/>
    <tag k="building:levels" v="1"/>
  </way>
  <way id="96934279" version="2" timestamp="2012-03-27T11:38:54Z" uid="481934" user="iWowik" changeset="11115472">
    <nd ref="1123331763"/>
    <nd ref="1123331300"/>
    <nd ref="1123331228"/>
    <nd ref="1123332325"/>
    <nd ref="1123331763"/>
    <tag k="addr:city" v="Зеленоград"/>
    <tag k="addr:country" v="RU"/>
    <tag k="addr:housenumber" v="2 с21"/>
    <tag k="addr:region" v="Москва"/>
    <tag k="addr:street" v="Проезд N 4807"/>
    <tag k="building" v="yes"/>
    <tag k="building:levels" v="1"/>
  </way>
  <way id="96934280" version="1" timestamp="2011-01-27T12:12:55Z" uid="115477" user="wowik" changeset="7102995">
    <nd ref="1123331820"/>
    <nd ref="1123331469"/>
    <nd ref="1123332498"/>
    <nd ref="1123331775"/>
    <nd ref="1123331724"/>
    <nd ref="1123332698"/>
    <nd ref="1123331914"/>
    <nd ref="1123331119"/>
    <nd ref="1123331820"/>
    <tag k="addr:city" v="Зеленоград"/>
    <tag k="addr:country" v="RU"/>
    <tag k="addr:street" v="посёлок Назарьево"/>
    <tag k="building" v="yes"/>
    <tag k="building:levels" v="1"/>
    <tag k="building:use" v="residential"/>
  </way>
  <way id="96934281" version="1" timestamp="2011-01-27T12:12:55Z" uid="115477" user="wowik" changeset="7102995">
    <nd ref="1123331316"/>
    <nd ref="1123331709"/>
    <nd ref="1123332680"/>
    <nd ref="1123331898"/>
    <nd ref="1123331316"/>
    <tag k="addr:city" v="Зеленоград"/>
    <tag k="addr:country" v="RU"/>
    <tag k="addr:housenumber" v="11 с6"/>
    <tag k="addr:street" v="Сосновая аллея"/>
    <tag k="building" v="yes"/>
    <tag k="building:levels" v="1"/>
  </way>
  <way id="96934281" version="2" timestamp="2012-03-27T11:34:09Z" uid="481934" user="iWowik" changeset="11115472">
    <nd ref="1123331316"/>
    <nd ref="1123331709"/>
    <nd ref="1123332680"/>
    <nd ref="1123331898"/>
    <nd ref="1123331316"/>
    <tag k="addr:city" v="Зеленоград"/>
    <tag k="addr:country" v="RU"/>
    <tag k="addr:housenumber" v="11 с6"/>
    <tag k="addr:region" v="Москва"/>
    <tag k="addr:street" v="Сосновая аллея"/>
    <tag k="building" v="yes"/>
    <tag k="building:levels" v="1"/>
  </way>
  <way id="96934282" version="1" timestamp="2011-01-27T12:12:56Z" uid="115477" user="wowik" changeset="7102995">
    <nd ref="704570480"/>
    <nd ref="1123331751"/>
    <nd ref="1123330923"/>
    <nd ref="1123331942"/>
    <tag k="barrier" v="wall"/>
  </way>
  <way id="96934283" version="1" timestamp="2011-01-27T12:12:56Z" uid="115477" user="wowik" changeset="7102995">
    <nd ref="1123331619"/>
    <nd ref="1123331120"/>
    <nd ref="1123332243"/>
    <nd ref="1123332167"/>
    <nd ref="1123331619"/>
    <tag k="addr:city" v="Зеленоград"/>
    <tag k="addr:country" v="RU"/>
    <tag k="addr:housenumber" v="103"/>
    <tag k="addr:street" v="посёлок Назарьево"/>
    <tag k="building" v="yes"/>
    <tag k="building:levels" v="1"/>
    <tag k="building:use" v="residential"/>
  </way>
  <way id="96934284" version="1" timestamp="2011-01-27T12:12:56Z" uid="115477" user="wowik" changeset="7102995">
    <nd ref="1123331907"/>
    <nd ref="1123331606"/>
    <nd ref="1123332615"/>
    <nd ref="1123331817"/>
    <nd ref="1123331907"/>
    <tag k="addr:city" v="Зеленоград"/>
    <tag k="addr:country" v="RU"/>
    <tag k="addr:housenumber" v="11 с5"/>
    <tag k="addr:street" v="Сосновая аллея"/>
    <tag k="building" v="yes"/>
    <tag k="building:levels" v="1"/>
  </way>
  <way id="96934284" version="2" timestamp="2012-03-27T11:34:08Z" uid="481934" user="iWowik" changeset="11115472">
    <nd ref="1123331907"/>
    <nd ref="1123331606"/>
    <nd ref="1123332615"/>
    <nd ref="1123331817"/>
    <nd ref="1123331907"/>
    <tag k="addr:city" v="Зеленоград"/>
    <tag k="addr:country" v="RU"/>
    <tag k="addr:housenumber" v="11 с5"/>
    <tag k="addr:region" v="Москва"/>
    <tag k="addr:street" v="Сосновая аллея"/>
    <tag k="building" v="yes"/>
    <tag k="building:levels" v="1"/>
  </way>
  <way id="96934285" version="1" timestamp="2011-01-27T12:12:56Z" uid="115477" user="wowik" changeset="7102995">
    <nd ref="1123332041"/>
    <nd ref="1123331740"/>
    <nd ref="1123331677"/>
    <nd ref="1123332664"/>
    <nd ref="1123332041"/>
    <tag k="building" v="yes"/>
    <tag k="building:levels" v="1"/>
  </way>
  <way id="96934285" version="2" timestamp="2012-03-27T11:53:55Z" uid="481934" user="iWowik" changeset="11115472">
    <nd ref="1123332041"/>
    <nd ref="1123331740"/>
    <nd ref="1123331677"/>
    <nd ref="1123332664"/>
    <nd ref="1123332041"/>
    <tag k="addr:city" v="Зеленоград"/>
    <tag k="addr:country" v="RU"/>
    <tag k="addr:region" v="Москва"/>
    <tag k="building" v="yes"/>
    <tag k="building:levels" v="1"/>
  </way>
  <way id="96934286" version="1" timestamp="2011-01-27T12:12:56Z" uid="115477" user="wowik" changeset="7102995">
    <nd ref="1123331938"/>
    <nd ref="1123331641"/>
    <nd ref="1123332637"/>
    <nd ref="1123331841"/>
    <nd ref="1123331802"/>
    <nd ref="1123331007"/>
    <nd ref="1123332047"/>
    <nd ref="1123331271"/>
    <nd ref="1123331938"/>
    <tag k="addr:city" v="Зеленоград"/>
    <tag k="addr:country" v="RU"/>
    <tag k="addr:street" v="посёлок Назарьево"/>
    <tag k="building" v="yes"/>
    <tag k="building:levels" v="1"/>
    <tag k="building:use" v="residential"/>
  </way>
  <way id="96934287" version="1" timestamp="2011-01-27T12:12:56Z" uid="115477" user="wowik" changeset="7102995">
    <nd ref="1123331777"/>
    <nd ref="1123331342"/>
    <nd ref="1123332407"/>
    <nd ref="1123331682"/>
    <nd ref="1123331777"/>
    <tag k="building" v="yes"/>
    <tag k="building:levels" v="1"/>
    <tag k="landuse" v="garages"/>
  </way>
  <way id="96934287" version="2" timestamp="2011-09-13T10:38:45Z" uid="29320" user="Komяpa" changeset="9288237">
    <nd ref="1123331777"/>
    <nd ref="1123331342"/>
    <nd ref="1123332407"/>
    <nd ref="1123331682"/>
    <nd ref="1123331777"/>
    <tag k="building" v="garages"/>
    <tag k="building:levels" v="1"/>
  </way>
  <way id="96934288" version="1" timestamp="2011-01-27T12:12:57Z" uid="115477" user="wowik" changeset="7102995">
    <nd ref="1123330906"/>
    <nd ref="1123332357"/>
    <nd ref="1123331624"/>
    <nd ref="1123332620"/>
    <nd ref="1123331823"/>
    <nd ref="1123331795"/>
    <nd ref="1123330995"/>
    <nd ref="1123332030"/>
    <nd ref="1123331252"/>
    <nd ref="1123331177"/>
    <nd ref="1123332287"/>
    <nd ref="1123331540"/>
    <nd ref="1123330906"/>
    <tag k="addr:city" v="Зеленоград"/>
    <tag k="addr:country" v="RU"/>
    <tag k="addr:housenumber" v="119"/>
    <tag k="addr:street" v="посёлок Назарьево"/>
    <tag k="building" v="yes"/>
    <tag k="building:levels" v="1"/>
    <tag k="building:use" v="residential"/>
  </way>
  <way id="96934289" version="1" timestamp="2011-01-27T12:12:57Z" uid="115477" user="wowik" changeset="7102995">
    <nd ref="1123332245"/>
    <nd ref="1123331821"/>
    <nd ref="1123331987"/>
    <nd ref="1123330988"/>
    <nd ref="1123332022"/>
    <nd ref="1123332245"/>
    <tag k="addr:city" v="Зеленоград"/>
    <tag k="addr:country" v="RU"/>
    <tag k="addr:street" v="посёлок Назарьево"/>
    <tag k="building" v="yes"/>
    <tag k="building:levels" v="1"/>
  </way>
  <way id="96934290" version="1" timestamp="2011-01-27T12:12:57Z" uid="115477" user="wowik" changeset="7102995">
    <nd ref="704558129"/>
    <nd ref="1123332009"/>
    <nd ref="1123331028"/>
    <nd ref="1122292584"/>
    <tag k="barrier" v="wall"/>
  </way>
  <way id="96934291" version="1" timestamp="2011-01-27T12:12:58Z" uid="115477" user="wowik" changeset="7102995">
    <nd ref="1123331161"/>
    <nd ref="1123332647"/>
    <nd ref="1123332598"/>
    <nd ref="1123331807"/>
    <nd ref="1123331161"/>
    <tag k="addr:city" v="Зеленоград"/>
    <tag k="addr:country" v="RU"/>
    <tag k="addr:street" v="посёлок Назарьево"/>
    <tag k="building" v="yes"/>
    <tag k="building:levels" v="1"/>
  </way>
  <way id="96934292" version="1" timestamp="2011-01-27T12:12:58Z" uid="115477" user="wowik" changeset="7102995">
    <nd ref="1123331165"/>
    <nd ref="1123332652"/>
    <nd ref="1123331860"/>
    <nd ref="1123331062"/>
    <nd ref="1123331165"/>
    <tag k="addr:city" v="Зеленоград"/>
    <tag k="addr:country" v="RU"/>
    <tag k="addr:street" v="посёлок Назарьево"/>
    <tag k="building" v="yes"/>
    <tag k="building:levels" v="1"/>
  </way>
  <way id="96934293" version="1" timestamp="2011-01-27T12:12:58Z" uid="115477" user="wowik" changeset="7102995">
    <nd ref="894853090"/>
    <nd ref="1123332565"/>
    <nd ref="1123331797"/>
    <nd ref="894853079"/>
    <nd ref="894853090"/>
    <tag k="building" v="yes"/>
    <tag k="building:levels" v="1"/>
  </way>
  <way id="96934294" version="1" timestamp="2011-01-27T12:12:58Z" uid="115477" user="wowik" changeset="7102995">
    <nd ref="1123332107"/>
    <nd ref="1123331776"/>
    <nd ref="1123331332"/>
    <nd ref="1123330954"/>
    <nd ref="1123332107"/>
    <tag k="addr:city" v="Зеленоград"/>
    <tag k="addr:housenumber" v="7 с17"/>
    <tag k="addr:street" v="Проезд N 4921"/>
    <tag k="building" v="yes"/>
    <tag k="building:levels" v="1"/>
  </way>
  <way id="96934294" version="2" timestamp="2011-01-27T12:57:30Z" uid="115477" user="wowik" changeset="7103336">
    <nd ref="1123332107"/>
    <nd ref="1123331776"/>
    <nd ref="1123331332"/>
    <nd ref="1123330954"/>
    <nd ref="1123332107"/>
    <tag k="addr:city" v="Зеленоград"/>
    <tag k="addr:street" v="Проезд N 4921"/>
    <tag k="building" v="yes"/>
    <tag k="building:levels" v="1"/>
  </way>
  <way id="96934294" version="3" timestamp="2012-03-27T11:50:52Z" uid="481934" user="iWowik" changeset="11115472">
    <nd ref="1123332107"/>
    <nd ref="1123331776"/>
    <nd ref="1123331332"/>
    <nd ref="1123330954"/>
    <nd ref="1123332107"/>
    <tag k="addr:city" v="Зеленоград"/>
    <tag k="addr:country" v="RU"/>
    <tag k="addr:region" v="Москва"/>
    <tag k="addr:street" v="Проезд N 4921"/>
    <tag k="building" v="yes"/>
    <tag k="building:levels" v="1"/>
  </way>
  <way id="96934295" version="1" timestamp="2011-01-27T12:12:58Z" uid="115477" user="wowik" changeset="7102995">
    <nd ref="1123332046"/>
    <nd ref="1123332403"/>
    <nd ref="1123331980"/>
    <nd ref="1123331205"/>
    <nd ref="1123331557"/>
    <nd ref="1123331473"/>
    <nd ref="1123332306"/>
    <nd ref="1123331680"/>
    <nd ref="1123332046"/>
    <tag k="addr:city" v="Зеленоград"/>
    <tag k="addr:housenumber" v="7 с17"/>
    <tag k="addr:street" v="Проезд N 4921"/>
    <tag k="building" v="yes"/>
    <tag k="building:levels" v="1"/>
  </way>
  <way id="96934295" version="2" timestamp="2011-01-27T12:57:31Z" uid="115477" user="wowik" changeset="7103336">
    <nd ref="1123332046"/>
    <nd ref="1123332403"/>
    <nd ref="1123331980"/>
    <nd ref="1123331205"/>
    <nd ref="1123331557"/>
    <nd ref="1123331473"/>
    <nd ref="1123332306"/>
    <nd ref="1123331680"/>
    <nd ref="1123332046"/>
    <tag k="addr:city" v="Зеленоград"/>
    <tag k="addr:street" v="Проезд N 4921"/>
    <tag k="building" v="yes"/>
    <tag k="building:levels" v="1"/>
  </way>
  <way id="96934295" version="3" timestamp="2012-03-27T11:55:46Z" uid="481934" user="iWowik" changeset="11115472">
    <nd ref="1123332046"/>
    <nd ref="1123332403"/>
    <nd ref="1123331980"/>
    <nd ref="1123331205"/>
    <nd ref="1123331557"/>
    <nd ref="1123331473"/>
    <nd ref="1123332306"/>
    <nd ref="1123331680"/>
    <nd ref="1123332046"/>
    <tag k="addr:city" v="Зеленоград"/>
    <tag k="addr:country" v="RU"/>
    <tag k="addr:region" v="Москва"/>
    <tag k="addr:street" v="Проезд N 4921"/>
    <tag k="building" v="yes"/>
    <tag k="building:levels" v="1"/>
  </way>
  <way id="96934296" version="1" timestamp="2011-01-27T12:12:59Z" uid="115477" user="wowik" changeset="7102995">
    <nd ref="1123331537"/>
    <nd ref="1123331812"/>
    <nd ref="1123331019"/>
    <nd ref="1123332077"/>
    <nd ref="1123331299"/>
    <nd ref="1123331227"/>
    <nd ref="1123331537"/>
    <tag k="building" v="yes"/>
    <tag k="building:levels" v="1"/>
  </way>
  <way id="96934296" version="2" timestamp="2012-03-27T11:55:05Z" uid="481934" user="iWowik" changeset="11115472">
    <nd ref="1123331537"/>
    <nd ref="1123331812"/>
    <nd ref="1123331019"/>
    <nd ref="1123332077"/>
    <nd ref="1123331299"/>
    <nd ref="1123331227"/>
    <nd ref="1123331537"/>
    <tag k="addr:city" v="Зеленоград"/>
    <tag k="addr:country" v="RU"/>
    <tag k="addr:region" v="Москва"/>
    <tag k="building" v="yes"/>
    <tag k="building:levels" v="1"/>
  </way>
  <way id="96934297" version="1" timestamp="2011-01-27T12:12:59Z" uid="115477" user="wowik" changeset="7102995">
    <nd ref="1123331811"/>
    <nd ref="1123331018"/>
    <nd ref="1123332073"/>
    <nd ref="1123332004"/>
    <nd ref="1123331225"/>
    <nd ref="1123332321"/>
    <nd ref="1123331588"/>
    <nd ref="1123331503"/>
    <nd ref="450653128"/>
    <nd ref="450653129"/>
    <nd ref="1123331811"/>
    <tag k="building" v="yes"/>
    <tag k="building:levels" v="1"/>
  </way>
  <way id="96934297" version="2" timestamp="2012-03-27T11:48:52Z" uid="481934" user="iWowik" changeset="11115472">
    <nd ref="1123331811"/>
    <nd ref="1123331018"/>
    <nd ref="1123332073"/>
    <nd ref="1123332004"/>
    <nd ref="1123331225"/>
    <nd ref="1123332321"/>
    <nd ref="1123331588"/>
    <nd ref="1123331503"/>
    <nd ref="450653128"/>
    <nd ref="450653129"/>
    <nd ref="1123331811"/>
    <tag k="addr:city" v="Зеленоград"/>
    <tag k="addr:country" v="RU"/>
    <tag k="addr:region" v="Москва"/>
    <tag k="building" v="yes"/>
    <tag k="building:levels" v="1"/>
  </way>
  <way id="96934298" version="1" timestamp="2011-01-27T12:12:59Z" uid="115477" user="wowik" changeset="7102995">
    <nd ref="1123332684"/>
    <nd ref="1123332009"/>
    <nd ref="1123332271"/>
    <tag k="highway" v="service"/>
  </way>
  <way id="96934298" version="2" timestamp="2011-04-27T11:46:17Z" uid="241531" user="dik_man" changeset="7984168">
    <nd ref="1123332684"/>
    <nd ref="1123332009"/>
    <tag k="highway" v="service"/>
  </way>
  <way id="96934299" version="1" timestamp="2011-01-27T12:12:59Z" uid="115477" user="wowik" changeset="7102995">
    <nd ref="1123332145"/>
    <nd ref="1123331520"/>
    <nd ref="1123331324"/>
    <nd ref="1123331786"/>
    <nd ref="1123332372"/>
    <nd ref="1123331269"/>
    <nd ref="1123331382"/>
    <nd ref="1123331639"/>
    <nd ref="1123332636"/>
    <nd ref="1123331743"/>
    <nd ref="1123332145"/>
    <tag k="addr:city" v="Зеленоград"/>
    <tag k="addr:housenumber" v="7 с17"/>
    <tag k="addr:street" v="Проезд N 4921"/>
    <tag k="building" v="yes"/>
    <tag k="building:levels" v="1"/>
  </way>
  <way id="96934299" version="2" timestamp="2011-01-27T12:57:31Z" uid="115477" user="wowik" changeset="7103336">
    <nd ref="1123332145"/>
    <nd ref="1123331520"/>
    <nd ref="1123331324"/>
    <nd ref="1123331786"/>
    <nd ref="1123332372"/>
    <nd ref="1123331269"/>
    <nd ref="1123331382"/>
    <nd ref="1123331639"/>
    <nd ref="1123332636"/>
    <nd ref="1123331743"/>
    <nd ref="1123332145"/>
    <tag k="addr:city" v="Зеленоград"/>
    <tag k="addr:housenumber" v="7 с10"/>
    <tag k="addr:street" v="Проезд N 4921"/>
    <tag k="building" v="yes"/>
    <tag k="building:levels" v="1"/>
  </way>
  <way id="96934299" version="3" timestamp="2012-03-27T11:45:54Z" uid="481934" user="iWowik" changeset="11115472">
    <nd ref="1123332145"/>
    <nd ref="1123331520"/>
    <nd ref="1123331324"/>
    <nd ref="1123331786"/>
    <nd ref="1123332372"/>
    <nd ref="1123331269"/>
    <nd ref="1123331382"/>
    <nd ref="1123331639"/>
    <nd ref="1123332636"/>
    <nd ref="1123331743"/>
    <nd ref="1123332145"/>
    <tag k="addr:city" v="Зеленоград"/>
    <tag k="addr:country" v="RU"/>
    <tag k="addr:housenumber" v="7 с10"/>
    <tag k="addr:region" v="Москва"/>
    <tag k="addr:street" v="Проезд N 4921"/>
    <tag k="building" v="yes"/>
    <tag k="building:levels" v="1"/>
  </way>
  <way id="96934300" version="1" timestamp="2011-01-27T12:13:00Z" uid="115477" user="wowik" changeset="7102995">
    <nd ref="1123332469"/>
    <nd ref="1123332057"/>
    <nd ref="1123331286"/>
    <nd ref="1123332375"/>
    <nd ref="1123332469"/>
    <tag k="addr:city" v="Зеленоград"/>
    <tag k="addr:country" v="RU"/>
    <tag k="addr:street" v="посёлок Назарьево"/>
    <tag k="building" v="yes"/>
    <tag k="building:levels" v="1"/>
  </way>
  <way id="96934301" version="1" timestamp="2011-01-27T12:13:00Z" uid="115477" user="wowik" changeset="7102995">
    <nd ref="1123331183"/>
    <nd ref="1123332653"/>
    <nd ref="1123331868"/>
    <nd ref="1123331815"/>
    <nd ref="1123331183"/>
    <tag k="addr:city" v="Зеленоград"/>
    <tag k="addr:country" v="RU"/>
    <tag k="addr:housenumber" v="6 с7"/>
    <tag k="addr:street" v="Сосновая аллея"/>
    <tag k="building" v="yes"/>
    <tag k="building:levels" v="1"/>
  </way>
  <way id="96934301" version="2" timestamp="2012-03-27T11:45:17Z" uid="481934" user="iWowik" changeset="11115472">
    <nd ref="1123331183"/>
    <nd ref="1123332653"/>
    <nd ref="1123331868"/>
    <nd ref="1123331815"/>
    <nd ref="1123331183"/>
    <tag k="addr:city" v="Зеленоград"/>
    <tag k="addr:country" v="RU"/>
    <tag k="addr:housenumber" v="6 с7"/>
    <tag k="addr:region" v="Москва"/>
    <tag k="addr:street" v="Сосновая аллея"/>
    <tag k="building" v="yes"/>
    <tag k="building:levels" v="1"/>
  </way>
  <way id="96934302" version="1" timestamp="2011-01-27T12:13:00Z" uid="115477" user="wowik" changeset="7102995">
    <nd ref="1123332164"/>
    <nd ref="1123331789"/>
    <nd ref="1123331754"/>
    <nd ref="1123330929"/>
    <nd ref="1123332164"/>
    <tag k="addr:city" v="Зеленоград"/>
    <tag k="addr:country" v="RU"/>
    <tag k="addr:street" v="посёлок Назарьево"/>
    <tag k="building" v="yes"/>
    <tag k="building:levels" v="1"/>
  </way>
  <way id="96934303" version="1" timestamp="2011-01-27T12:13:00Z" uid="115477" user="wowik" changeset="7102995">
    <nd ref="1123332547"/>
    <nd ref="1123332185"/>
    <nd ref="1123332089"/>
    <nd ref="1123331315"/>
    <nd ref="1123332386"/>
    <nd ref="1123331662"/>
    <nd ref="1123332547"/>
    <tag k="addr:city" v="Зеленоград"/>
    <tag k="addr:country" v="RU"/>
    <tag k="addr:street" v="посёлок Назарьево"/>
    <tag k="building" v="yes"/>
    <tag k="building:levels" v="1"/>
  </way>
  <way id="96934304" version="1" timestamp="2011-01-27T12:13:00Z" uid="115477" user="wowik" changeset="7102995">
    <nd ref="1123331936"/>
    <nd ref="1123331635"/>
    <nd ref="1123332632"/>
    <nd ref="1123331832"/>
    <nd ref="1123331936"/>
    <tag k="building" v="yes"/>
    <tag k="building:levels" v="1"/>
  </way>
  <way id="96934304" version="2" timestamp="2011-01-27T17:04:17Z" uid="115477" user="wowik" changeset="7105390">
    <nd ref="1123331936"/>
    <nd ref="1123331635"/>
    <nd ref="1123332632"/>
    <nd ref="1123331832"/>
    <nd ref="1123331936"/>
    <tag k="addr:city" v="Зеленоград"/>
    <tag k="addr:country" v="RU"/>
    <tag k="addr:housenumber" v="5 с3"/>
    <tag k="addr:street" v="Сосновая аллея"/>
    <tag k="building" v="yes"/>
    <tag k="building:levels" v="1"/>
    <tag k="note" v="addr:housemunber неточен"/>
  </way>
  <way id="96934304" version="3" timestamp="2012-03-27T11:44:32Z" uid="481934" user="iWowik" changeset="11115472">
    <nd ref="1123331936"/>
    <nd ref="1123331635"/>
    <nd ref="1123332632"/>
    <nd ref="1123331832"/>
    <nd ref="1123331936"/>
    <tag k="addr:city" v="Зеленоград"/>
    <tag k="addr:country" v="RU"/>
    <tag k="addr:housenumber" v="5 с3"/>
    <tag k="addr:region" v="Москва"/>
    <tag k="addr:street" v="Сосновая аллея"/>
    <tag k="building" v="yes"/>
    <tag k="building:levels" v="1"/>
    <tag k="note" v="addr:housemunber неточен"/>
  </way>
  <way id="96934305" version="1" timestamp="2011-01-27T12:13:01Z" uid="115477" user="wowik" changeset="7102995">
    <nd ref="1123330970"/>
    <nd ref="1123331147"/>
    <nd ref="1123332259"/>
    <nd ref="450653209"/>
    <nd ref="1123332006"/>
    <nd ref="1123330970"/>
    <tag k="building" v="yes"/>
    <tag k="building:levels" v="1"/>
  </way>
  <way id="96934305" version="2" timestamp="2012-03-27T11:54:31Z" uid="481934" user="iWowik" changeset="11115472">
    <nd ref="1123330970"/>
    <nd ref="1123331147"/>
    <nd ref="1123332259"/>
    <nd ref="450653209"/>
    <nd ref="1123332006"/>
    <nd ref="1123330970"/>
    <tag k="addr:city" v="Зеленоград"/>
    <tag k="addr:country" v="RU"/>
    <tag k="addr:region" v="Москва"/>
    <tag k="building" v="yes"/>
    <tag k="building:levels" v="1"/>
  </way>
  <way id="96934306" version="1" timestamp="2011-01-27T12:13:01Z" uid="115477" user="wowik" changeset="7102995">
    <nd ref="1123332559"/>
    <nd ref="1123332190"/>
    <nd ref="1123331412"/>
    <nd ref="1123332464"/>
    <nd ref="1123332388"/>
    <nd ref="1123331664"/>
    <nd ref="1123332559"/>
    <tag k="addr:city" v="Зеленоград"/>
    <tag k="addr:country" v="RU"/>
    <tag k="addr:housenumber" v="110 с2"/>
    <tag k="addr:street" v="посёлок Назарьево"/>
    <tag k="building" v="yes"/>
    <tag k="building:levels" v="1"/>
    <tag k="building:use" v="residential"/>
  </way>
  <way id="96934307" version="1" timestamp="2011-01-27T12:13:01Z" uid="115477" user="wowik" changeset="7102995">
    <nd ref="1123332355"/>
    <nd ref="1123331922"/>
    <nd ref="1123331862"/>
    <nd ref="1123331068"/>
    <nd ref="1123332355"/>
    <tag k="addr:city" v="Зеленоград"/>
    <tag k="addr:country" v="RU"/>
    <tag k="building" v="yes"/>
    <tag k="building:levels" v="1"/>
  </way>
  <way id="96934308" version="1" timestamp="2011-01-27T12:13:01Z" uid="115477" user="wowik" changeset="7102995">
    <nd ref="1123331479"/>
    <nd ref="1123331041"/>
    <nd ref="1123330989"/>
    <nd ref="1123332024"/>
    <nd ref="1123331249"/>
    <nd ref="1123332352"/>
    <nd ref="1123331479"/>
    <tag k="addr:city" v="Зеленоград"/>
    <tag k="addr:country" v="RU"/>
    <tag k="addr:street" v="посёлок Назарьево"/>
    <tag k="building" v="yes"/>
    <tag k="building:levels" v="1"/>
  </way>
  <way id="96934309" version="1" timestamp="2011-01-27T12:13:02Z" uid="115477" user="wowik" changeset="7102995">
    <nd ref="1123332525"/>
    <nd ref="1123332148"/>
    <nd ref="1123331387"/>
    <nd ref="1123332438"/>
    <nd ref="1123332525"/>
    <tag k="addr:city" v="Зеленоград"/>
    <tag k="addr:country" v="RU"/>
    <tag k="addr:street" v="посёлок Назарьево"/>
    <tag k="building" v="yes"/>
    <tag k="building:levels" v="1"/>
  </way>
  <way id="96934310" version="1" timestamp="2011-01-27T12:13:02Z" uid="115477" user="wowik" changeset="7102995">
    <nd ref="1123331692"/>
    <nd ref="1123331208"/>
    <nd ref="1123332316"/>
    <nd ref="1123331567"/>
    <nd ref="1123331692"/>
    <tag k="addr:city" v="Зеленоград"/>
    <tag k="addr:street" v="Проезд N 4921"/>
    <tag k="building" v="yes"/>
    <tag k="landuse" v="garages"/>
  </way>
  <way id="96934310" version="2" timestamp="2011-09-13T10:38:45Z" uid="29320" user="Komяpa" changeset="9288237">
    <nd ref="1123331692"/>
    <nd ref="1123331208"/>
    <nd ref="1123332316"/>
    <nd ref="1123331567"/>
    <nd ref="1123331692"/>
    <tag k="addr:city" v="Зеленоград"/>
    <tag k="addr:street" v="Проезд N 4921"/>
    <tag k="building" v="garages"/>
  </way>
  <way id="96934310" version="3" timestamp="2012-03-27T11:51:09Z" uid="481934" user="iWowik" changeset="11115472">
    <nd ref="1123331692"/>
    <nd ref="1123331208"/>
    <nd ref="1123332316"/>
    <nd ref="1123331567"/>
    <nd ref="1123331692"/>
    <tag k="addr:city" v="Зеленоград"/>
    <tag k="addr:country" v="RU"/>
    <tag k="addr:region" v="Москва"/>
    <tag k="addr:street" v="Проезд N 4921"/>
    <tag k="building" v="garages"/>
  </way>
  <way id="96934311" version="1" timestamp="2011-01-27T12:13:02Z" uid="115477" user="wowik" changeset="7102995">
    <nd ref="1123331889"/>
    <nd ref="1123331571"/>
    <nd ref="1123331097"/>
    <nd ref="1123332593"/>
    <nd ref="1123331889"/>
    <tag k="addr:city" v="Зеленоград"/>
    <tag k="addr:country" v="RU"/>
    <tag k="addr:housenumber" v="11 с3"/>
    <tag k="addr:street" v="Сосновая аллея"/>
    <tag k="building" v="yes"/>
    <tag k="building:levels" v="1"/>
  </way>
  <way id="96934311" version="2" timestamp="2012-03-27T11:34:02Z" uid="481934" user="iWowik" changeset="11115472">
    <nd ref="1123331889"/>
    <nd ref="1123331571"/>
    <nd ref="1123331097"/>
    <nd ref="1123332593"/>
    <nd ref="1123331889"/>
    <tag k="addr:city" v="Зеленоград"/>
    <tag k="addr:country" v="RU"/>
    <tag k="addr:housenumber" v="11 с3"/>
    <tag k="addr:region" v="Москва"/>
    <tag k="addr:street" v="Сосновая аллея"/>
    <tag k="building" v="yes"/>
    <tag k="building:levels" v="1"/>
  </way>
  <way id="96934312" version="1" timestamp="2011-01-27T12:13:02Z" uid="115477" user="wowik" changeset="7102995">
    <nd ref="1123331738"/>
    <nd ref="1123331971"/>
    <nd ref="1123331181"/>
    <nd ref="1123332289"/>
    <nd ref="1123331738"/>
    <tag k="building" v="yes"/>
    <tag k="building:levels" v="1"/>
    <tag k="landuse" v="garages"/>
  </way>
  <way id="96934312" version="2" timestamp="2011-09-13T10:38:45Z" uid="29320" user="Komяpa" changeset="9288237">
    <nd ref="1123331738"/>
    <nd ref="1123331971"/>
    <nd ref="1123331181"/>
    <nd ref="1123332289"/>
    <nd ref="1123331738"/>
    <tag k="building" v="garages"/>
    <tag k="building:levels" v="1"/>
  </way>
  <way id="96934313" version="1" timestamp="2011-01-27T12:13:02Z" uid="115477" user="wowik" changeset="7102995">
    <nd ref="1123332297"/>
    <nd ref="1123331872"/>
    <nd ref="1123332234"/>
    <nd ref="1123331445"/>
    <nd ref="1123332297"/>
    <tag k="addr:city" v="Зеленоград"/>
    <tag k="addr:country" v="RU"/>
    <tag k="addr:housenumber" v="9 с1"/>
    <tag k="addr:street" v="Сосновая аллея"/>
    <tag k="building" v="yes"/>
    <tag k="building:levels" v="1"/>
  </way>
  <way id="96934313" version="2" timestamp="2012-03-27T11:46:47Z" uid="481934" user="iWowik" changeset="11115472">
    <nd ref="1123332297"/>
    <nd ref="1123331872"/>
    <nd ref="1123332234"/>
    <nd ref="1123331445"/>
    <nd ref="1123332297"/>
    <tag k="addr:city" v="Зеленоград"/>
    <tag k="addr:country" v="RU"/>
    <tag k="addr:housenumber" v="9 с1"/>
    <tag k="addr:region" v="Москва"/>
    <tag k="addr:street" v="Сосновая аллея"/>
    <tag k="building" v="yes"/>
    <tag k="building:levels" v="1"/>
  </way>
  <way id="96934314" version="1" timestamp="2011-01-27T12:13:03Z" uid="115477" user="wowik" changeset="7102995">
    <nd ref="1123331710"/>
    <nd ref="1123331233"/>
    <nd ref="1123331150"/>
    <nd ref="1123332267"/>
    <nd ref="1123331710"/>
    <tag k="building" v="yes"/>
    <tag k="building:levels" v="1"/>
    <tag k="landuse" v="garages"/>
  </way>
  <way id="96934314" version="2" timestamp="2011-09-13T10:38:45Z" uid="29320" user="Komяpa" changeset="9288237">
    <nd ref="1123331710"/>
    <nd ref="1123331233"/>
    <nd ref="1123331150"/>
    <nd ref="1123332267"/>
    <nd ref="1123331710"/>
    <tag k="building" v="garages"/>
    <tag k="building:levels" v="1"/>
  </way>
  <way id="96934315" version="1" timestamp="2011-01-27T12:13:03Z" uid="115477" user="wowik" changeset="7102995">
    <nd ref="450653205"/>
    <nd ref="1123332331"/>
    <nd ref="1123331594"/>
    <nd ref="1123332006"/>
    <nd ref="450653209"/>
    <nd ref="450653205"/>
    <tag k="building" v="yes"/>
    <tag k="building:levels" v="1"/>
  </way>
  <way id="96934315" version="2" timestamp="2012-03-27T11:54:31Z" uid="481934" user="iWowik" changeset="11115472">
    <nd ref="450653205"/>
    <nd ref="1123332331"/>
    <nd ref="1123331594"/>
    <nd ref="1123332006"/>
    <nd ref="450653209"/>
    <nd ref="450653205"/>
    <tag k="addr:city" v="Зеленоград"/>
    <tag k="addr:country" v="RU"/>
    <tag k="addr:region" v="Москва"/>
    <tag k="building" v="yes"/>
    <tag k="building:levels" v="1"/>
  </way>
  <way id="96934316" version="1" timestamp="2011-01-27T12:13:03Z" uid="115477" user="wowik" changeset="7102995">
    <nd ref="1123331102"/>
    <nd ref="1123332602"/>
    <nd ref="1123332519"/>
    <nd ref="1123331782"/>
    <nd ref="1123331102"/>
    <tag k="addr:city" v="Зеленоград"/>
    <tag k="addr:country" v="RU"/>
    <tag k="addr:housenumber" v="71"/>
    <tag k="addr:street" v="посёлок Назарьево"/>
    <tag k="building" v="yes"/>
    <tag k="building:levels" v="1"/>
    <tag k="building:use" v="residential"/>
  </way>
  <way id="96934317" version="1" timestamp="2011-01-27T12:13:03Z" uid="115477" user="wowik" changeset="7102995">
    <nd ref="1123332367"/>
    <nd ref="1123331929"/>
    <nd ref="1123331145"/>
    <nd ref="1123331076"/>
    <nd ref="1123332367"/>
    <tag k="addr:city" v="Зеленоград"/>
    <tag k="addr:country" v="RU"/>
    <tag k="addr:housenumber" v="9 с2"/>
    <tag k="addr:street" v="Сосновая аллея"/>
    <tag k="building" v="yes"/>
    <tag k="building:levels" v="1"/>
  </way>
  <way id="96934317" version="2" timestamp="2012-03-27T11:46:49Z" uid="481934" user="iWowik" changeset="11115472">
    <nd ref="1123332367"/>
    <nd ref="1123331929"/>
    <nd ref="1123331145"/>
    <nd ref="1123331076"/>
    <nd ref="1123332367"/>
    <tag k="addr:city" v="Зеленоград"/>
    <tag k="addr:country" v="RU"/>
    <tag k="addr:housenumber" v="9 с2"/>
    <tag k="addr:region" v="Москва"/>
    <tag k="addr:street" v="Сосновая аллея"/>
    <tag k="building" v="yes"/>
    <tag k="building:levels" v="1"/>
  </way>
  <way id="96934318" version="1" timestamp="2011-01-27T12:13:03Z" uid="115477" user="wowik" changeset="7102995">
    <nd ref="1123331957"/>
    <nd ref="1123331658"/>
    <nd ref="1123332651"/>
    <nd ref="1123331858"/>
    <nd ref="1123331810"/>
    <nd ref="1123331016"/>
    <nd ref="1123331957"/>
    <tag k="addr:city" v="Зеленоград"/>
    <tag k="addr:country" v="RU"/>
    <tag k="addr:housenumber" v="89"/>
    <tag k="addr:street" v="посёлок Назарьево"/>
    <tag k="building" v="yes"/>
    <tag k="building:levels" v="1"/>
    <tag k="building:use" v="residential"/>
  </way>
  <way id="96934318" version="2" timestamp="2011-01-30T16:12:36Z" uid="115477" user="wowik" changeset="7135898">
    <nd ref="1123331957"/>
    <nd ref="1123331658"/>
    <nd ref="1123332651"/>
    <nd ref="1123331858"/>
    <nd ref="1123331810"/>
    <nd ref="1123331016"/>
    <nd ref="1123331957"/>
    <tag k="addr:city" v="Зеленоград"/>
    <tag k="addr:country" v="RU"/>
    <tag k="addr:housenumber" v="75"/>
    <tag k="addr:street" v="посёлок Назарьево"/>
    <tag k="building" v="yes"/>
    <tag k="building:levels" v="1"/>
    <tag k="building:use" v="residential"/>
  </way>
  <way id="96934320" version="1" timestamp="2011-01-27T12:13:04Z" uid="115477" user="wowik" changeset="7102995">
    <nd ref="1123331766"/>
    <nd ref="911779557"/>
    <tag k="barrier" v="wall"/>
  </way>
  <way id="96934321" version="1" timestamp="2011-01-27T12:13:04Z" uid="115477" user="wowik" changeset="7102995">
    <nd ref="1123331405"/>
    <nd ref="1123330983"/>
    <nd ref="1123332454"/>
    <nd ref="1123332020"/>
    <nd ref="1123331405"/>
    <tag k="addr:city" v="Зеленоград"/>
    <tag k="addr:housenumber" v="7 с14"/>
    <tag k="addr:street" v="Проезд N 4921"/>
    <tag k="building" v="yes"/>
    <tag k="building:levels" v="1"/>
  </way>
  <way id="96934321" version="2" timestamp="2012-03-27T11:45:56Z" uid="481934" user="iWowik" changeset="11115472">
    <nd ref="1123331405"/>
    <nd ref="1123330983"/>
    <nd ref="1123332454"/>
    <nd ref="1123332020"/>
    <nd ref="1123331405"/>
    <tag k="addr:city" v="Зеленоград"/>
    <tag k="addr:country" v="RU"/>
    <tag k="addr:housenumber" v="7 с14"/>
    <tag k="addr:region" v="Москва"/>
    <tag k="addr:street" v="Проезд N 4921"/>
    <tag k="building" v="yes"/>
    <tag k="building:levels" v="1"/>
  </way>
  <way id="96934322" version="1" timestamp="2011-01-27T12:13:04Z" uid="115477" user="wowik" changeset="7102995">
    <nd ref="1123331654"/>
    <nd ref="1123331159"/>
    <nd ref="1123332638"/>
    <nd ref="1123332273"/>
    <nd ref="1123331846"/>
    <nd ref="1123331523"/>
    <nd ref="1123331654"/>
    <tag k="addr:city" v="Зеленоград"/>
    <tag k="addr:country" v="RU"/>
    <tag k="addr:housenumber" v="91"/>
    <tag k="addr:street" v="посёлок Назарьево"/>
    <tag k="building" v="yes"/>
    <tag k="building:levels" v="1"/>
    <tag k="building:use" v="residential"/>
  </way>
  <way id="96934323" version="1" timestamp="2011-01-27T12:13:04Z" uid="115477" user="wowik" changeset="7102995">
    <nd ref="1123331603"/>
    <nd ref="1123331845"/>
    <nd ref="1123331053"/>
    <nd ref="1123332150"/>
    <nd ref="1123330925"/>
    <nd ref="1123331944"/>
    <nd ref="1123331603"/>
    <tag k="addr:city" v="Зеленоград"/>
    <tag k="addr:country" v="RU"/>
    <tag k="addr:street" v="посёлок Назарьево"/>
    <tag k="building" v="yes"/>
    <tag k="building:levels" v="1"/>
  </way>
  <way id="96934324" version="1" timestamp="2011-01-27T12:13:05Z" uid="115477" user="wowik" changeset="7102995">
    <nd ref="1123332455"/>
    <nd ref="1123332026"/>
    <nd ref="1123331961"/>
    <nd ref="1123331166"/>
    <nd ref="1123332285"/>
    <nd ref="1123331530"/>
    <nd ref="1123332455"/>
    <tag k="addr:city" v="Зеленоград"/>
    <tag k="addr:country" v="RU"/>
    <tag k="addr:street" v="посёлок Назарьево"/>
    <tag k="building" v="yes"/>
    <tag k="building:levels" v="1"/>
  </way>
  <way id="96934325" version="1" timestamp="2011-01-27T12:13:05Z" uid="115477" user="wowik" changeset="7102995">
    <nd ref="1123330941"/>
    <nd ref="1123331235"/>
    <nd ref="1123332337"/>
    <nd ref="1123331595"/>
    <nd ref="1123330941"/>
    <tag k="addr:city" v="Зеленоград"/>
    <tag k="addr:country" v="RU"/>
    <tag k="addr:housenumber" v="110 с1"/>
    <tag k="addr:street" v="посёлок Назарьево"/>
    <tag k="building" v="yes"/>
    <tag k="building:levels" v="1"/>
    <tag k="building:use" v="residential"/>
  </way>
  <way id="96934326" version="1" timestamp="2011-01-27T12:13:05Z" uid="115477" user="wowik" changeset="7102995">
    <nd ref="1123331623"/>
    <nd ref="1123331131"/>
    <nd ref="1123331070"/>
    <nd ref="1123332179"/>
    <nd ref="1123331623"/>
    <tag k="addr:city" v="Зеленоград"/>
    <tag k="addr:country" v="RU"/>
    <tag k="addr:housenumber" v="96Б"/>
    <tag k="addr:street" v="посёлок Назарьево"/>
    <tag k="building" v="yes"/>
    <tag k="building:levels" v="1"/>
    <tag k="building:use" v="residential"/>
  </way>
  <way id="96934327" version="1" timestamp="2011-01-27T12:13:05Z" uid="115477" user="wowik" changeset="7102995">
    <nd ref="1123331132"/>
    <nd ref="1123332621"/>
    <nd ref="1123331825"/>
    <nd ref="1123331043"/>
    <nd ref="1123331132"/>
  </way>
  <way id="96934327" version="2" timestamp="2011-01-30T16:12:35Z" uid="115477" user="wowik" changeset="7135898">
    <nd ref="1123331132"/>
    <nd ref="1123332621"/>
    <nd ref="1123331825"/>
    <nd ref="1123331043"/>
    <nd ref="1123331132"/>
    <tag k="building" v="yes"/>
    <tag k="building:levels" v="1"/>
  </way>
  <way id="96934328" version="1" timestamp="2011-01-27T12:13:05Z" uid="115477" user="wowik" changeset="7102995">
    <nd ref="1123331951"/>
    <nd ref="837571306"/>
    <nd ref="692713212"/>
    <tag k="barrier" v="wall"/>
  </way>
  <way id="96934329" version="1" timestamp="2011-01-27T12:13:06Z" uid="115477" user="wowik" changeset="7102995">
    <nd ref="1123331447"/>
    <nd ref="1123331032"/>
    <nd ref="1123332097"/>
    <nd ref="1123331328"/>
    <nd ref="1123331447"/>
  </way>
  <way id="96934329" version="2" timestamp="2011-01-27T13:21:25Z" uid="115477" user="wowik" changeset="7103523">
    <nd ref="1123331447"/>
    <nd ref="1123331032"/>
    <nd ref="1123332097"/>
    <nd ref="1123331328"/>
    <nd ref="1123331447"/>
    <tag k="building" v="yes"/>
    <tag k="building:levels" v="1"/>
  </way>
  <way id="96934330" version="1" timestamp="2011-01-27T12:13:06Z" uid="115477" user="wowik" changeset="7102995">
    <nd ref="1123332453"/>
    <nd ref="1123332013"/>
    <nd ref="1123331952"/>
    <nd ref="1123331163"/>
    <nd ref="1123332283"/>
    <nd ref="1123331527"/>
    <nd ref="1123332453"/>
    <tag k="addr:city" v="Зеленоград"/>
    <tag k="addr:country" v="RU"/>
    <tag k="addr:street" v="посёлок Назарьево"/>
    <tag k="building" v="yes"/>
    <tag k="building:levels" v="1"/>
    <tag k="building:use" v="residential"/>
  </way>
  <way id="96934332" version="1" timestamp="2011-01-27T12:13:06Z" uid="115477" user="wowik" changeset="7102995">
    <nd ref="1123331737"/>
    <nd ref="1123331253"/>
    <nd ref="1123332359"/>
    <nd ref="1123332288"/>
    <nd ref="1123331737"/>
    <tag k="addr:city" v="Зеленоград"/>
    <tag k="addr:country" v="RU"/>
    <tag k="addr:housenumber" v="83"/>
    <tag k="addr:street" v="посёлок Назарьево"/>
    <tag k="building" v="yes"/>
    <tag k="building:levels" v="1"/>
    <tag k="building:use" v="residential"/>
  </way>
  <way id="96934333" version="1" timestamp="2011-01-27T12:13:06Z" uid="115477" user="wowik" changeset="7102995">
    <nd ref="1123331262"/>
    <nd ref="1123330908"/>
    <nd ref="1123331924"/>
    <nd ref="1123331134"/>
    <nd ref="1123331262"/>
    <tag k="addr:city" v="Зеленоград"/>
    <tag k="addr:country" v="RU"/>
    <tag k="addr:street" v="посёлок Назарьево"/>
    <tag k="building" v="yes"/>
    <tag k="building:levels" v="1"/>
  </way>
  <way id="96934334" version="1" timestamp="2011-01-27T12:13:06Z" uid="115477" user="wowik" changeset="7102995">
    <nd ref="1123332334"/>
    <nd ref="1123331903"/>
    <nd ref="1123331843"/>
    <nd ref="1123331050"/>
    <nd ref="1123332147"/>
    <nd ref="1123331386"/>
    <nd ref="1123331274"/>
    <nd ref="1123332374"/>
    <nd ref="1123332334"/>
    <tag k="building" v="yes"/>
    <tag k="building:levels" v="1"/>
  </way>
  <way id="96934334" version="2" timestamp="2012-03-27T11:55:44Z" uid="481934" user="iWowik" changeset="11115472">
    <nd ref="1123332334"/>
    <nd ref="1123331903"/>
    <nd ref="1123331843"/>
    <nd ref="1123331050"/>
    <nd ref="1123332147"/>
    <nd ref="1123331386"/>
    <nd ref="1123331274"/>
    <nd ref="1123332374"/>
    <nd ref="1123332334"/>
    <tag k="addr:city" v="Зеленоград"/>
    <tag k="addr:country" v="RU"/>
    <tag k="addr:region" v="Москва"/>
    <tag k="building" v="yes"/>
    <tag k="building:levels" v="1"/>
  </way>
  <way id="96934335" version="1" timestamp="2011-01-27T12:13:07Z" uid="115477" user="wowik" changeset="7102995">
    <nd ref="1123332500"/>
    <nd ref="1123332105"/>
    <nd ref="1123331331"/>
    <nd ref="1123331244"/>
    <nd ref="1123332500"/>
    <tag k="addr:city" v="Зеленоград"/>
    <tag k="addr:country" v="RU"/>
    <tag k="addr:housenumber" v="101"/>
    <tag k="addr:street" v="посёлок Назарьево"/>
    <tag k="building" v="yes"/>
    <tag k="building:levels" v="1"/>
    <tag k="building:use" v="residential"/>
  </way>
  <way id="96934336" version="1" timestamp="2011-01-27T12:13:07Z" uid="115477" user="wowik" changeset="7102995">
    <nd ref="1123331928"/>
    <nd ref="1123331634"/>
    <nd ref="1123331137"/>
    <nd ref="1123332630"/>
    <nd ref="1123332392"/>
    <nd ref="1123332466"/>
    <nd ref="1123331074"/>
    <nd ref="1123332561"/>
    <nd ref="1123332191"/>
    <nd ref="1123331796"/>
    <nd ref="1123331928"/>
    <tag k="addr:city" v="Зеленоград"/>
    <tag k="addr:country" v="RU"/>
    <tag k="addr:housenumber" v="87"/>
    <tag k="addr:street" v="посёлок Назарьево"/>
    <tag k="building" v="yes"/>
    <tag k="building:levels" v="1"/>
    <tag k="building:use" v="residential"/>
  </way>
  <way id="96934337" version="1" timestamp="2011-01-27T12:13:07Z" uid="115477" user="wowik" changeset="7102995">
    <nd ref="1123331477"/>
    <nd ref="1123331039"/>
    <nd ref="1123332108"/>
    <nd ref="1123331345"/>
    <nd ref="1123331477"/>
    <tag k="building" v="yes"/>
    <tag k="building:levels" v="1"/>
  </way>
  <way id="96934337" version="2" timestamp="2012-03-27T11:51:56Z" uid="481934" user="iWowik" changeset="11115472">
    <nd ref="1123331477"/>
    <nd ref="1123331039"/>
    <nd ref="1123332108"/>
    <nd ref="1123331345"/>
    <nd ref="1123331477"/>
    <tag k="addr:city" v="Зеленоград"/>
    <tag k="addr:country" v="RU"/>
    <tag k="addr:region" v="Москва"/>
    <tag k="building" v="yes"/>
    <tag k="building:levels" v="1"/>
  </way>
  <way id="96934339" version="1" timestamp="2011-01-27T12:13:07Z" uid="115477" user="wowik" changeset="7102995">
    <nd ref="1123331511"/>
    <nd ref="1123331047"/>
    <nd ref="1123332134"/>
    <nd ref="1123332043"/>
    <nd ref="1123331511"/>
    <tag k="addr:city" v="Зеленоград"/>
    <tag k="addr:country" v="RU"/>
    <tag k="addr:street" v="посёлок Назарьево"/>
    <tag k="building" v="yes"/>
    <tag k="building:levels" v="1"/>
  </way>
  <way id="96934340" version="1" timestamp="2011-01-27T12:13:07Z" uid="115477" user="wowik" changeset="7102995">
    <nd ref="1123332436"/>
    <nd ref="1123332005"/>
    <nd ref="1123331229"/>
    <nd ref="1123331146"/>
    <nd ref="1123332436"/>
    <tag k="addr:city" v="Зеленоград"/>
    <tag k="addr:country" v="RU"/>
    <tag k="addr:street" v="посёлок Назарьево"/>
    <tag k="building" v="yes"/>
    <tag k="building:levels" v="1"/>
  </way>
  <way id="96934341" version="1" timestamp="2011-01-27T12:13:08Z" uid="115477" user="wowik" changeset="7102995">
    <nd ref="1123332700"/>
    <nd ref="1123332346"/>
    <nd ref="1123331918"/>
    <nd ref="1123331620"/>
    <nd ref="1123332700"/>
    <tag k="addr:city" v="Зеленоград"/>
    <tag k="addr:housenumber" v="7 с13"/>
    <tag k="addr:street" v="Проезд N 4921"/>
    <tag k="building" v="yes"/>
    <tag k="building:levels" v="1"/>
  </way>
  <way id="96934341" version="2" timestamp="2012-03-27T11:45:55Z" uid="481934" user="iWowik" changeset="11115472">
    <nd ref="1123332700"/>
    <nd ref="1123332346"/>
    <nd ref="1123331918"/>
    <nd ref="1123331620"/>
    <nd ref="1123332700"/>
    <tag k="addr:city" v="Зеленоград"/>
    <tag k="addr:country" v="RU"/>
    <tag k="addr:housenumber" v="7 с13"/>
    <tag k="addr:region" v="Москва"/>
    <tag k="addr:street" v="Проезд N 4921"/>
    <tag k="building" v="yes"/>
    <tag k="building:levels" v="1"/>
  </way>
  <way id="96934342" version="1" timestamp="2011-01-27T12:13:08Z" uid="115477" user="wowik" changeset="7102995">
    <nd ref="1123332144"/>
    <nd ref="1123331785"/>
    <nd ref="1123331741"/>
    <nd ref="1123330916"/>
    <nd ref="1123332144"/>
    <tag k="addr:city" v="Зеленоград"/>
    <tag k="addr:country" v="RU"/>
    <tag k="addr:housenumber" v="81"/>
    <tag k="addr:street" v="посёлок Назарьево"/>
    <tag k="building" v="yes"/>
    <tag k="building:levels" v="1"/>
    <tag k="building:use" v="residential"/>
  </way>
  <way id="96934343" version="1" timestamp="2011-01-27T12:13:08Z" uid="115477" user="wowik" changeset="7102995">
    <nd ref="1123332142"/>
    <nd ref="1123331784"/>
    <nd ref="1123330972"/>
    <nd ref="1123330913"/>
    <nd ref="1123332142"/>
    <tag k="addr:city" v="Зеленоград"/>
    <tag k="addr:country" v="RU"/>
    <tag k="addr:street" v="посёлок Назарьево"/>
    <tag k="building" v="yes"/>
    <tag k="building:levels" v="1"/>
  </way>
  <way id="96934344" version="1" timestamp="2011-01-27T12:13:08Z" uid="115477" user="wowik" changeset="7102995">
    <nd ref="1123331942"/>
    <nd ref="1123330958"/>
    <nd ref="1123331091"/>
    <nd ref="1123331691"/>
    <nd ref="1123332667"/>
    <nd ref="1123331942"/>
    <tag k="addr:city" v="Зеленоград"/>
    <tag k="addr:housenumber" v="2 с4"/>
    <tag k="addr:street" v="Проезд N 4807"/>
    <tag k="building" v="yes"/>
    <tag k="building:levels" v="2"/>
  </way>
  <way id="96934344" version="2" timestamp="2012-03-27T11:38:56Z" uid="481934" user="iWowik" changeset="11115472">
    <nd ref="1123331942"/>
    <nd ref="1123330958"/>
    <nd ref="1123331091"/>
    <nd ref="1123331691"/>
    <nd ref="1123332667"/>
    <nd ref="1123331942"/>
    <tag k="addr:city" v="Зеленоград"/>
    <tag k="addr:country" v="RU"/>
    <tag k="addr:housenumber" v="2 с4"/>
    <tag k="addr:region" v="Москва"/>
    <tag k="addr:street" v="Проезд N 4807"/>
    <tag k="building" v="yes"/>
    <tag k="building:levels" v="2"/>
  </way>
  <way id="96934345" version="1" timestamp="2011-01-27T12:13:08Z" uid="115477" user="wowik" changeset="7102995">
    <nd ref="1123331324"/>
    <nd ref="1123332390"/>
    <nd ref="1123331676"/>
    <nd ref="1123332663"/>
    <nd ref="1123332613"/>
    <nd ref="1123331816"/>
    <nd ref="1123331030"/>
    <nd ref="1123331517"/>
    <nd ref="1123332011"/>
    <nd ref="1123331240"/>
    <nd ref="1123332339"/>
    <nd ref="1123331604"/>
    <nd ref="1123331520"/>
    <nd ref="1123331324"/>
    <tag k="addr:city" v="Зеленоград"/>
    <tag k="addr:street" v="Проезд N 4921"/>
    <tag k="building" v="yes"/>
    <tag k="building:levels" v="1"/>
  </way>
  <way id="96934345" version="2" timestamp="2012-03-27T11:49:08Z" uid="481934" user="iWowik" changeset="11115472">
    <nd ref="1123331324"/>
    <nd ref="1123332390"/>
    <nd ref="1123331676"/>
    <nd ref="1123332663"/>
    <nd ref="1123332613"/>
    <nd ref="1123331816"/>
    <nd ref="1123331030"/>
    <nd ref="1123331517"/>
    <nd ref="1123332011"/>
    <nd ref="1123331240"/>
    <nd ref="1123332339"/>
    <nd ref="1123331604"/>
    <nd ref="1123331520"/>
    <nd ref="1123331324"/>
    <tag k="addr:city" v="Зеленоград"/>
    <tag k="addr:country" v="RU"/>
    <tag k="addr:region" v="Москва"/>
    <tag k="addr:street" v="Проезд N 4921"/>
    <tag k="building" v="yes"/>
    <tag k="building:levels" v="1"/>
  </way>
  <way id="96934346" version="1" timestamp="2011-01-27T12:13:09Z" uid="115477" user="wowik" changeset="7102995">
    <nd ref="1123332483"/>
    <nd ref="1123332079"/>
    <nd ref="1123331311"/>
    <nd ref="1123332385"/>
    <nd ref="1123332483"/>
    <tag k="addr:city" v="Зеленоград"/>
    <tag k="addr:country" v="RU"/>
    <tag k="addr:street" v="посёлок Назарьево"/>
    <tag k="building" v="yes"/>
    <tag k="building:levels" v="1"/>
  </way>
  <way id="96934347" version="1" timestamp="2011-01-27T12:13:09Z" uid="115477" user="wowik" changeset="7102995">
    <nd ref="1123332452"/>
    <nd ref="1123330936"/>
    <nd ref="1123331951"/>
    <nd ref="1123331162"/>
    <nd ref="1123332275"/>
    <nd ref="1123332213"/>
    <nd ref="1123332452"/>
    <tag k="building" v="yes"/>
    <tag k="building:levels" v="1"/>
  </way>
  <way id="96934347" version="2" timestamp="2012-03-27T11:55:08Z" uid="481934" user="iWowik" changeset="11115472">
    <nd ref="1123332452"/>
    <nd ref="1123330936"/>
    <nd ref="1123331951"/>
    <nd ref="1123331162"/>
    <nd ref="1123332275"/>
    <nd ref="1123332213"/>
    <nd ref="1123332452"/>
    <tag k="addr:city" v="Зеленоград"/>
    <tag k="addr:country" v="RU"/>
    <tag k="addr:region" v="Москва"/>
    <tag k="building" v="yes"/>
    <tag k="building:levels" v="1"/>
  </way>
  <way id="96934348" version="1" timestamp="2011-01-27T12:13:09Z" uid="115477" user="wowik" changeset="7102995">
    <nd ref="1123331768"/>
    <nd ref="1123331326"/>
    <nd ref="1123330945"/>
    <nd ref="1123331241"/>
    <nd ref="1123332690"/>
    <nd ref="1123331605"/>
    <nd ref="1123331768"/>
    <tag k="addr:city" v="Зеленоград"/>
    <tag k="addr:country" v="RU"/>
    <tag k="addr:housenumber" v="89А"/>
    <tag k="addr:street" v="посёлок Назарьево"/>
    <tag k="building" v="yes"/>
    <tag k="building:levels" v="1"/>
    <tag k="building:use" v="residential"/>
  </way>
  <way id="96934349" version="1" timestamp="2011-01-27T12:13:09Z" uid="115477" user="wowik" changeset="7102995">
    <nd ref="1123331798"/>
    <nd ref="1123332103"/>
    <nd ref="1123331330"/>
    <nd ref="1123332399"/>
    <nd ref="1123331678"/>
    <nd ref="1123331607"/>
    <nd ref="1123331798"/>
    <tag k="addr:city" v="Зеленоград"/>
    <tag k="addr:country" v="RU"/>
    <tag k="addr:housenumber" v="104"/>
    <tag k="addr:street" v="посёлок Назарьево"/>
    <tag k="building" v="yes"/>
    <tag k="building:levels" v="1"/>
    <tag k="building:use" v="residential"/>
  </way>
  <way id="96934350" version="1" timestamp="2011-01-27T12:13:09Z" uid="115477" user="wowik" changeset="7102995">
    <nd ref="1123330948"/>
    <nd ref="1123332400"/>
    <nd ref="1123332665"/>
    <nd ref="1123331608"/>
    <nd ref="1123332238"/>
    <nd ref="1123331463"/>
    <nd ref="1123330948"/>
    <tag k="building" v="yes"/>
    <tag k="building:levels" v="1"/>
  </way>
  <way id="96934350" version="2" timestamp="2012-03-27T11:55:09Z" uid="481934" user="iWowik" changeset="11115472">
    <nd ref="1123330948"/>
    <nd ref="1123332400"/>
    <nd ref="1123332665"/>
    <nd ref="1123331608"/>
    <nd ref="1123332238"/>
    <nd ref="1123331463"/>
    <nd ref="1123330948"/>
    <tag k="addr:city" v="Зеленоград"/>
    <tag k="addr:country" v="RU"/>
    <tag k="addr:region" v="Москва"/>
    <tag k="building" v="yes"/>
    <tag k="building:levels" v="1"/>
  </way>
  <way id="96934351" version="1" timestamp="2011-01-27T12:13:10Z" uid="115477" user="wowik" changeset="7102995">
    <nd ref="1123331835"/>
    <nd ref="1123331505"/>
    <nd ref="1123331422"/>
    <nd ref="1123332467"/>
    <nd ref="1123331835"/>
    <tag k="addr:city" v="Зеленоград"/>
    <tag k="addr:country" v="RU"/>
    <tag k="addr:street" v="посёлок Назарьево"/>
    <tag k="building" v="yes"/>
    <tag k="building:levels" v="1"/>
  </way>
  <way id="96934352" version="1" timestamp="2011-01-27T12:13:10Z" uid="115477" user="wowik" changeset="7102995">
    <nd ref="1123330975"/>
    <nd ref="1123332446"/>
    <nd ref="1123331720"/>
    <nd ref="1123332692"/>
    <nd ref="1123330975"/>
    <tag k="addr:city" v="Зеленоград"/>
    <tag k="addr:country" v="RU"/>
    <tag k="addr:housenumber" v="11 с4"/>
    <tag k="addr:street" v="Сосновая аллея"/>
    <tag k="building" v="yes"/>
    <tag k="building:levels" v="1"/>
  </way>
  <way id="96934352" version="2" timestamp="2012-03-27T11:34:04Z" uid="481934" user="iWowik" changeset="11115472">
    <nd ref="1123330975"/>
    <nd ref="1123332446"/>
    <nd ref="1123331720"/>
    <nd ref="1123332692"/>
    <nd ref="1123330975"/>
    <tag k="addr:city" v="Зеленоград"/>
    <tag k="addr:country" v="RU"/>
    <tag k="addr:housenumber" v="11 с4"/>
    <tag k="addr:region" v="Москва"/>
    <tag k="addr:street" v="Сосновая аллея"/>
    <tag k="building" v="yes"/>
    <tag k="building:levels" v="1"/>
  </way>
  <way id="96934353" version="1" timestamp="2011-01-27T12:13:10Z" uid="115477" user="wowik" changeset="7102995">
    <nd ref="1123332402"/>
    <nd ref="1123331978"/>
    <nd ref="1123331186"/>
    <nd ref="1123332304"/>
    <nd ref="1123332402"/>
    <tag k="addr:city" v="Зеленоград"/>
    <tag k="addr:country" v="RU"/>
    <tag k="addr:street" v="посёлок Назарьево"/>
    <tag k="building" v="yes"/>
    <tag k="building:levels" v="1"/>
  </way>
  <way id="96934354" version="1" timestamp="2011-01-27T12:13:10Z" uid="115477" user="wowik" changeset="7102995">
    <nd ref="1123331231"/>
    <nd ref="1123332678"/>
    <nd ref="1123331895"/>
    <nd ref="1123331837"/>
    <nd ref="1123331231"/>
    <tag k="addr:city" v="Зеленоград"/>
    <tag k="addr:country" v="RU"/>
    <tag k="addr:street" v="посёлок Назарьево"/>
    <tag k="building" v="yes"/>
    <tag k="building:levels" v="1"/>
  </way>
  <way id="96934355" version="1" timestamp="2011-01-27T12:13:10Z" uid="115477" user="wowik" changeset="7102995">
    <nd ref="1123330966"/>
    <nd ref="1123332431"/>
    <nd ref="1123331996"/>
    <nd ref="1123331698"/>
    <nd ref="1123330966"/>
    <tag k="addr:city" v="Зеленоград"/>
    <tag k="addr:housenumber" v="7 с17"/>
    <tag k="addr:street" v="Проезд N 4921"/>
    <tag k="building" v="yes"/>
    <tag k="building:levels" v="1"/>
  </way>
  <way id="96934355" version="2" timestamp="2012-03-27T11:45:57Z" uid="481934" user="iWowik" changeset="11115472">
    <nd ref="1123330966"/>
    <nd ref="1123332431"/>
    <nd ref="1123331996"/>
    <nd ref="1123331698"/>
    <nd ref="1123330966"/>
    <tag k="addr:city" v="Зеленоград"/>
    <tag k="addr:country" v="RU"/>
    <tag k="addr:housenumber" v="7 с17"/>
    <tag k="addr:region" v="Москва"/>
    <tag k="addr:street" v="Проезд N 4921"/>
    <tag k="building" v="yes"/>
    <tag k="building:levels" v="1"/>
  </way>
  <way id="96934356" version="1" timestamp="2011-01-27T12:13:11Z" uid="115477" user="wowik" changeset="7102995">
    <nd ref="1123331188"/>
    <nd ref="1123332666"/>
    <nd ref="1123331879"/>
    <nd ref="1123331085"/>
    <nd ref="1123331188"/>
    <tag k="addr:city" v="Зеленоград"/>
    <tag k="addr:country" v="RU"/>
    <tag k="addr:housenumber" v="97"/>
    <tag k="addr:street" v="посёлок Назарьево"/>
    <tag k="building" v="yes"/>
    <tag k="building:levels" v="1"/>
    <tag k="building:use" v="residential"/>
  </way>
  <way id="96934357" version="1" timestamp="2011-01-27T12:13:11Z" uid="115477" user="wowik" changeset="7102995">
    <nd ref="1123331314"/>
    <nd ref="1123330940"/>
    <nd ref="1123331965"/>
    <nd ref="1123331179"/>
    <nd ref="1123331314"/>
    <tag k="addr:city" v="Зеленоград"/>
    <tag k="addr:country" v="RU"/>
    <tag k="addr:street" v="посёлок Назарьево"/>
    <tag k="building" v="yes"/>
    <tag k="building:levels" v="1"/>
  </way>
  <way id="96934358" version="1" timestamp="2011-01-27T12:13:11Z" uid="115477" user="wowik" changeset="7102995">
    <nd ref="1123331334"/>
    <nd ref="1123330956"/>
    <nd ref="1123331821"/>
    <nd ref="1123331987"/>
    <nd ref="1123331920"/>
    <nd ref="1123331334"/>
    <tag k="addr:city" v="Зеленоград"/>
    <tag k="addr:country" v="RU"/>
    <tag k="addr:street" v="посёлок Назарьево"/>
    <tag k="building" v="yes"/>
    <tag k="building:levels" v="1"/>
  </way>
  <way id="96934359" version="1" timestamp="2011-01-27T12:13:11Z" uid="115477" user="wowik" changeset="7102995">
    <nd ref="1123331946"/>
    <nd ref="911776781"/>
    <nd ref="1123332110"/>
    <nd ref="1123332343"/>
    <nd ref="1123332274"/>
    <nd ref="1123331525"/>
    <nd ref="1123332541"/>
    <nd ref="1123331791"/>
    <nd ref="1123331756"/>
    <nd ref="1123330930"/>
    <nd ref="1123331946"/>
    <tag k="addr:city" v="Зеленоград"/>
    <tag k="addr:country" v="RU"/>
    <tag k="addr:street" v="Сосновая аллея"/>
    <tag k="building" v="yes"/>
    <tag k="building:levels" v="1"/>
  </way>
  <way id="96934359" version="2" timestamp="2012-03-27T11:48:47Z" uid="481934" user="iWowik" changeset="11115472">
    <nd ref="1123331946"/>
    <nd ref="911776781"/>
    <nd ref="1123332110"/>
    <nd ref="1123332343"/>
    <nd ref="1123332274"/>
    <nd ref="1123331525"/>
    <nd ref="1123332541"/>
    <nd ref="1123331791"/>
    <nd ref="1123331756"/>
    <nd ref="1123330930"/>
    <nd ref="1123331946"/>
    <tag k="addr:city" v="Зеленоград"/>
    <tag k="addr:country" v="RU"/>
    <tag k="addr:region" v="Москва"/>
    <tag k="addr:street" v="Сосновая аллея"/>
    <tag k="building" v="yes"/>
    <tag k="building:levels" v="1"/>
  </way>
  <way id="96934360" version="1" timestamp="2011-01-27T12:13:11Z" uid="115477" user="wowik" changeset="7102995">
    <nd ref="1123331818"/>
    <nd ref="1123331449"/>
    <nd ref="1123332495"/>
    <nd ref="1123332451"/>
    <nd ref="1123331722"/>
    <nd ref="1123332694"/>
    <nd ref="1123331911"/>
    <nd ref="1123331852"/>
    <nd ref="1123331818"/>
    <tag k="addr:city" v="Зеленоград"/>
    <tag k="addr:country" v="RU"/>
    <tag k="addr:street" v="посёлок Назарьево"/>
    <tag k="building" v="yes"/>
    <tag k="building:levels" v="1"/>
  </way>
  <way id="96934361" version="1" timestamp="2011-01-27T12:13:12Z" uid="115477" user="wowik" changeset="7102995">
    <nd ref="1123331111"/>
    <nd ref="1123332608"/>
    <nd ref="1123332534"/>
    <nd ref="1123331787"/>
    <nd ref="1123331111"/>
    <tag k="addr:city" v="Зеленоград"/>
    <tag k="addr:country" v="RU"/>
    <tag k="addr:housenumber" v="6 с9"/>
    <tag k="addr:street" v="Сосновая аллея"/>
    <tag k="building" v="yes"/>
    <tag k="building:levels" v="1"/>
  </way>
  <way id="96934361" version="2" timestamp="2012-03-27T11:45:18Z" uid="481934" user="iWowik" changeset="11115472">
    <nd ref="1123331111"/>
    <nd ref="1123332608"/>
    <nd ref="1123332534"/>
    <nd ref="1123331787"/>
    <nd ref="1123331111"/>
    <tag k="addr:city" v="Зеленоград"/>
    <tag k="addr:country" v="RU"/>
    <tag k="addr:housenumber" v="6 с9"/>
    <tag k="addr:region" v="Москва"/>
    <tag k="addr:street" v="Сосновая аллея"/>
    <tag k="building" v="yes"/>
    <tag k="building:levels" v="1"/>
  </way>
  <way id="96934362" version="1" timestamp="2011-01-27T12:13:12Z" uid="115477" user="wowik" changeset="7102995">
    <nd ref="1123331121"/>
    <nd ref="671189220"/>
    <tag k="highway" v="service"/>
  </way>
  <way id="96934363" version="1" timestamp="2011-01-27T12:13:12Z" uid="115477" user="wowik" changeset="7102995">
    <nd ref="1123332061"/>
    <nd ref="1123332422"/>
    <nd ref="1123331695"/>
    <nd ref="1123332677"/>
    <nd ref="1123331892"/>
    <nd ref="1123331827"/>
    <nd ref="1123331045"/>
    <nd ref="1123332127"/>
    <nd ref="1123332061"/>
    <tag k="addr:city" v="Зеленоград"/>
    <tag k="addr:country" v="RU"/>
    <tag k="addr:housenumber" v="108"/>
    <tag k="addr:street" v="посёлок Назарьево"/>
    <tag k="building" v="yes"/>
    <tag k="building:levels" v="1"/>
    <tag k="building:use" v="residential"/>
  </way>
  <way id="96934364" version="1" timestamp="2011-01-27T12:13:12Z" uid="115477" user="wowik" changeset="7102995">
    <nd ref="1123330952"/>
    <nd ref="1123332401"/>
    <nd ref="1123331679"/>
    <nd ref="1123331609"/>
    <nd ref="1123332617"/>
    <nd ref="1123331819"/>
    <nd ref="1123331033"/>
    <nd ref="1123330979"/>
    <nd ref="1123330952"/>
    <tag k="addr:city" v="Зеленоград"/>
    <tag k="addr:country" v="RU"/>
    <tag k="addr:street" v="Сосновая аллея"/>
    <tag k="building" v="yes"/>
    <tag k="building:levels" v="1"/>
  </way>
  <way id="96934364" version="2" timestamp="2012-03-27T11:55:46Z" uid="481934" user="iWowik" changeset="11115472">
    <nd ref="1123330952"/>
    <nd ref="1123332401"/>
    <nd ref="1123331679"/>
    <nd ref="1123331609"/>
    <nd ref="1123332617"/>
    <nd ref="1123331819"/>
    <nd ref="1123331033"/>
    <nd ref="1123330979"/>
    <nd ref="1123330952"/>
    <tag k="addr:city" v="Зеленоград"/>
    <tag k="addr:country" v="RU"/>
    <tag k="addr:region" v="Москва"/>
    <tag k="addr:street" v="Сосновая аллея"/>
    <tag k="building" v="yes"/>
    <tag k="building:levels" v="1"/>
  </way>
  <way id="96934365" version="1" timestamp="2011-01-27T12:13:12Z" uid="115477" user="wowik" changeset="7102995">
    <nd ref="1123332202"/>
    <nd ref="1123331801"/>
    <nd ref="1123331426"/>
    <nd ref="1123331003"/>
    <nd ref="1123332202"/>
    <tag k="addr:city" v="Зеленоград"/>
    <tag k="addr:housenumber" v="7 с17"/>
    <tag k="addr:street" v="Проезд N 4921"/>
    <tag k="building" v="yes"/>
    <tag k="building:levels" v="1"/>
  </way>
  <way id="96934365" version="2" timestamp="2011-01-27T12:57:30Z" uid="115477" user="wowik" changeset="7103336">
    <nd ref="1123332202"/>
    <nd ref="1123331801"/>
    <nd ref="1123331426"/>
    <nd ref="1123331003"/>
    <nd ref="1123332202"/>
    <tag k="addr:city" v="Зеленоград"/>
    <tag k="addr:street" v="Проезд N 4921"/>
    <tag k="building" v="yes"/>
    <tag k="building:levels" v="1"/>
  </way>
  <way id="96934365" version="3" timestamp="2012-03-27T11:54:21Z" uid="481934" user="iWowik" changeset="11115472">
    <nd ref="1123332202"/>
    <nd ref="1123331801"/>
    <nd ref="1123331426"/>
    <nd ref="1123331003"/>
    <nd ref="1123332202"/>
    <tag k="addr:city" v="Зеленоград"/>
    <tag k="addr:country" v="RU"/>
    <tag k="addr:region" v="Москва"/>
    <tag k="addr:street" v="Проезд N 4921"/>
    <tag k="building" v="yes"/>
    <tag k="building:levels" v="1"/>
  </way>
  <way id="96934366" version="1" timestamp="2011-01-27T12:13:13Z" uid="115477" user="wowik" changeset="7102995">
    <nd ref="1123331585"/>
    <nd ref="1123331099"/>
    <nd ref="1123332600"/>
    <nd ref="1123332208"/>
    <nd ref="1123332514"/>
    <nd ref="1123332130"/>
    <nd ref="1123331780"/>
    <nd ref="1123331354"/>
    <nd ref="1123330960"/>
    <nd ref="1123332424"/>
    <nd ref="1123331696"/>
    <nd ref="1123331926"/>
    <nd ref="1123331633"/>
    <nd ref="1123331135"/>
    <nd ref="1123332623"/>
    <nd ref="1123332256"/>
    <nd ref="1123331829"/>
    <nd ref="1123331498"/>
    <nd ref="1123330997"/>
    <nd ref="1123331585"/>
    <tag k="natural" v="water"/>
  </way>
  <way id="96934367" version="1" timestamp="2011-01-27T12:13:13Z" uid="115477" user="wowik" changeset="7102995">
    <nd ref="1123331622"/>
    <nd ref="1123331122"/>
    <nd ref="1123332250"/>
    <nd ref="1123332545"/>
    <nd ref="1123331794"/>
    <nd ref="1123330993"/>
    <nd ref="1123332028"/>
    <nd ref="1123331963"/>
    <nd ref="1123331622"/>
    <tag k="building" v="yes"/>
    <tag k="building:levels" v="1"/>
  </way>
  <way id="96934367" version="2" timestamp="2012-03-27T11:55:38Z" uid="481934" user="iWowik" changeset="11115472">
    <nd ref="1123331622"/>
    <nd ref="1123331122"/>
    <nd ref="1123332250"/>
    <nd ref="1123332545"/>
    <nd ref="1123331794"/>
    <nd ref="1123330993"/>
    <nd ref="1123332028"/>
    <nd ref="1123331963"/>
    <nd ref="1123331622"/>
    <tag k="addr:city" v="Зеленоград"/>
    <tag k="addr:country" v="RU"/>
    <tag k="addr:region" v="Москва"/>
    <tag k="building" v="yes"/>
    <tag k="building:levels" v="1"/>
  </way>
  <way id="96934368" version="1" timestamp="2011-01-27T12:13:13Z" uid="115477" user="wowik" changeset="7102995">
    <nd ref="1123332166"/>
    <nd ref="1123331792"/>
    <nd ref="1123330981"/>
    <nd ref="1123330934"/>
    <nd ref="1123332166"/>
    <tag k="addr:city" v="Зеленоград"/>
    <tag k="addr:country" v="RU"/>
    <tag k="addr:street" v="посёлок Назарьево"/>
    <tag k="building" v="yes"/>
    <tag k="building:levels" v="1"/>
  </way>
  <way id="96934369" version="1" timestamp="2011-01-27T12:13:13Z" uid="115477" user="wowik" changeset="7102995">
    <nd ref="1123332320"/>
    <nd ref="1123331893"/>
    <nd ref="1123331587"/>
    <nd ref="1123331100"/>
    <nd ref="1123332320"/>
    <tag k="addr:city" v="Зеленоград"/>
    <tag k="addr:housenumber" v="7 с7"/>
    <tag k="addr:street" v="Проезд N 4921"/>
    <tag k="building" v="yes"/>
    <tag k="building:levels" v="1"/>
  </way>
  <way id="96934369" version="2" timestamp="2012-03-27T11:46:00Z" uid="481934" user="iWowik" changeset="11115472">
    <nd ref="1123332320"/>
    <nd ref="1123331893"/>
    <nd ref="1123331587"/>
    <nd ref="1123331100"/>
    <nd ref="1123332320"/>
    <tag k="addr:city" v="Зеленоград"/>
    <tag k="addr:country" v="RU"/>
    <tag k="addr:housenumber" v="7 с7"/>
    <tag k="addr:region" v="Москва"/>
    <tag k="addr:street" v="Проезд N 4921"/>
    <tag k="building" v="yes"/>
    <tag k="building:levels" v="1"/>
  </way>
  <way id="96934370" version="1" timestamp="2011-01-27T12:13:13Z" uid="115477" user="wowik" changeset="7102995">
    <nd ref="769087779"/>
    <nd ref="769087138"/>
    <tag k="access" v="permissive"/>
  </way>
  <way id="96934371" version="1" timestamp="2011-01-27T12:13:13Z" uid="115477" user="wowik" changeset="7102995">
    <nd ref="1123332260"/>
    <nd ref="1123331839"/>
    <nd ref="1123331030"/>
    <nd ref="1123331517"/>
    <nd ref="1123331048"/>
    <nd ref="1123332260"/>
    <tag k="addr:city" v="Зеленоград"/>
    <tag k="addr:housenumber" v="7 с17"/>
    <tag k="addr:street" v="Проезд N 4921"/>
    <tag k="building" v="yes"/>
    <tag k="building:levels" v="1"/>
  </way>
  <way id="96934371" version="2" timestamp="2011-01-27T12:57:30Z" uid="115477" user="wowik" changeset="7103336">
    <nd ref="1123332260"/>
    <nd ref="1123331839"/>
    <nd ref="1123331030"/>
    <nd ref="1123331517"/>
    <nd ref="1123331048"/>
    <nd ref="1123332260"/>
    <tag k="addr:city" v="Зеленоград"/>
    <tag k="addr:housenumber" v="7 с12"/>
    <tag k="addr:street" v="Проезд N 4921"/>
    <tag k="building" v="yes"/>
    <tag k="building:levels" v="1"/>
  </way>
  <way id="96934371" version="3" timestamp="2012-03-27T11:45:55Z" uid="481934" user="iWowik" changeset="11115472">
    <nd ref="1123332260"/>
    <nd ref="1123331839"/>
    <nd ref="1123331030"/>
    <nd ref="1123331517"/>
    <nd ref="1123331048"/>
    <nd ref="1123332260"/>
    <tag k="addr:city" v="Зеленоград"/>
    <tag k="addr:country" v="RU"/>
    <tag k="addr:housenumber" v="7 с12"/>
    <tag k="addr:region" v="Москва"/>
    <tag k="addr:street" v="Проезд N 4921"/>
    <tag k="building" v="yes"/>
    <tag k="building:levels" v="1"/>
  </way>
  <way id="96934372" version="1" timestamp="2011-01-27T12:13:14Z" uid="115477" user="wowik" changeset="7102995">
    <nd ref="1123332332"/>
    <nd ref="1123331899"/>
    <nd ref="1123331105"/>
    <nd ref="1123332230"/>
    <nd ref="1123332146"/>
    <nd ref="1123331385"/>
    <nd ref="1123332332"/>
    <tag k="building" v="yes"/>
    <tag k="building:levels" v="1"/>
    <tag k="landuse" v="garages"/>
  </way>
  <way id="96934372" version="2" timestamp="2011-09-13T10:38:46Z" uid="29320" user="Komяpa" changeset="9288237">
    <nd ref="1123332332"/>
    <nd ref="1123331899"/>
    <nd ref="1123331105"/>
    <nd ref="1123332230"/>
    <nd ref="1123332146"/>
    <nd ref="1123331385"/>
    <nd ref="1123332332"/>
    <tag k="building" v="garages"/>
    <tag k="building:levels" v="1"/>
  </way>
  <way id="96934373" version="1" timestamp="2011-01-27T12:13:14Z" uid="115477" user="wowik" changeset="7102995">
    <nd ref="1123332307"/>
    <nd ref="1123331880"/>
    <nd ref="1123331087"/>
    <nd ref="1123331036"/>
    <nd ref="1123332307"/>
    <tag k="addr:city" v="Зеленоград"/>
    <tag k="addr:country" v="RU"/>
    <tag k="addr:street" v="посёлок Назарьево"/>
    <tag k="building" v="yes"/>
    <tag k="building:levels" v="1"/>
  </way>
  <way id="96934374" version="1" timestamp="2011-01-27T12:13:14Z" uid="115477" user="wowik" changeset="7102995">
    <nd ref="1123331955"/>
    <nd ref="1123331656"/>
    <nd ref="1123331164"/>
    <nd ref="1123332648"/>
    <nd ref="1123331955"/>
    <tag k="addr:city" v="Зеленоград"/>
    <tag k="addr:housenumber" v="7 с15"/>
    <tag k="addr:street" v="Проезд N 4921"/>
    <tag k="building" v="yes"/>
    <tag k="building:levels" v="1"/>
  </way>
  <way id="96934374" version="2" timestamp="2012-03-27T11:45:56Z" uid="481934" user="iWowik" changeset="11115472">
    <nd ref="1123331955"/>
    <nd ref="1123331656"/>
    <nd ref="1123331164"/>
    <nd ref="1123332648"/>
    <nd ref="1123331955"/>
    <tag k="addr:city" v="Зеленоград"/>
    <tag k="addr:country" v="RU"/>
    <tag k="addr:housenumber" v="7 с15"/>
    <tag k="addr:region" v="Москва"/>
    <tag k="addr:street" v="Проезд N 4921"/>
    <tag k="building" v="yes"/>
    <tag k="building:levels" v="1"/>
  </way>
  <way id="96934375" version="1" timestamp="2011-01-27T12:13:14Z" uid="115477" user="wowik" changeset="7102995">
    <nd ref="1123331266"/>
    <nd ref="1123331608"/>
    <nd ref="1123332665"/>
    <nd ref="1123332400"/>
    <nd ref="1123331874"/>
    <nd ref="1123331078"/>
    <nd ref="1123331266"/>
    <tag k="building" v="yes"/>
    <tag k="building:levels" v="3"/>
  </way>
  <way id="96934375" version="2" timestamp="2011-01-28T11:21:29Z" uid="115477" user="wowik" changeset="7111979">
    <nd ref="1123331266"/>
    <nd ref="1123331608"/>
    <nd ref="1123332665"/>
    <nd ref="1123332400"/>
    <nd ref="1123331874"/>
    <nd ref="1123331078"/>
    <nd ref="1123331266"/>
    <tag k="addr:city" v="Зеленоград"/>
    <tag k="addr:country" v="RU"/>
    <tag k="addr:housenumber" v="2 с1"/>
    <tag k="addr:postcode" v="124489"/>
    <tag k="addr:street" v="Проезд N 5526"/>
    <tag k="building" v="yes"/>
    <tag k="building:levels" v="3"/>
    <tag k="note" v="addr:housemunber неточен"/>
  </way>
  <way id="96934375" version="3" timestamp="2012-03-27T11:38:41Z" uid="481934" user="iWowik" changeset="11115472">
    <nd ref="1123331266"/>
    <nd ref="1123331608"/>
    <nd ref="1123332665"/>
    <nd ref="1123332400"/>
    <nd ref="1123331874"/>
    <nd ref="1123331078"/>
    <nd ref="1123331266"/>
    <tag k="addr:city" v="Зеленоград"/>
    <tag k="addr:country" v="RU"/>
    <tag k="addr:housenumber" v="2 с1"/>
    <tag k="addr:postcode" v="124489"/>
    <tag k="addr:region" v="Москва"/>
    <tag k="addr:street" v="Проезд N 5526"/>
    <tag k="building" v="yes"/>
    <tag k="building:levels" v="3"/>
    <tag k="note" v="addr:housemunber неточен"/>
  </way>
  <way id="96934376" version="1" timestamp="2011-01-27T12:13:14Z" uid="115477" user="wowik" changeset="7102995">
    <nd ref="1123332511"/>
    <nd ref="1123332120"/>
    <nd ref="1123331348"/>
    <nd ref="1123332415"/>
    <nd ref="1123332511"/>
    <tag k="addr:city" v="Зеленоград"/>
    <tag k="addr:street" v="Проезд N 4921"/>
    <tag k="building" v="yes"/>
    <tag k="landuse" v="garages"/>
  </way>
  <way id="96934376" version="2" timestamp="2011-09-13T10:38:46Z" uid="29320" user="Komяpa" changeset="9288237">
    <nd ref="1123332511"/>
    <nd ref="1123332120"/>
    <nd ref="1123331348"/>
    <nd ref="1123332415"/>
    <nd ref="1123332511"/>
    <tag k="addr:city" v="Зеленоград"/>
    <tag k="addr:street" v="Проезд N 4921"/>
    <tag k="building" v="garages"/>
  </way>
  <way id="96934376" version="3" timestamp="2012-03-27T11:51:04Z" uid="481934" user="iWowik" changeset="11115472">
    <nd ref="1123332511"/>
    <nd ref="1123332120"/>
    <nd ref="1123331348"/>
    <nd ref="1123332415"/>
    <nd ref="1123332511"/>
    <tag k="addr:city" v="Зеленоград"/>
    <tag k="addr:country" v="RU"/>
    <tag k="addr:region" v="Москва"/>
    <tag k="addr:street" v="Проезд N 4921"/>
    <tag k="building" v="garages"/>
  </way>
  <way id="96934377" version="1" timestamp="2011-01-27T12:13:14Z" uid="115477" user="wowik" changeset="7102995">
    <nd ref="1123331708"/>
    <nd ref="1123332679"/>
    <tag k="highway" v="service"/>
    <tag k="living_street" v="yes"/>
  </way>
  <way id="96934378" version="1" timestamp="2011-01-27T12:13:15Z" uid="115477" user="wowik" changeset="7102995">
    <nd ref="1123332622"/>
    <nd ref="1123332255"/>
    <nd ref="1123331496"/>
    <nd ref="1123331410"/>
    <nd ref="1123332622"/>
    <tag k="addr:city" v="Зеленоград"/>
    <tag k="addr:country" v="RU"/>
    <tag k="addr:street" v="посёлок Назарьево"/>
    <tag k="building" v="yes"/>
    <tag k="building:levels" v="1"/>
  </way>
  <way id="96934379" version="1" timestamp="2011-01-27T12:13:15Z" uid="115477" user="wowik" changeset="7102995">
    <nd ref="1123331726"/>
    <nd ref="1123331246"/>
    <nd ref="1123332350"/>
    <nd ref="1123331621"/>
    <nd ref="1123332619"/>
    <nd ref="1123332543"/>
    <nd ref="1123331793"/>
    <nd ref="1123330987"/>
    <nd ref="1123331726"/>
    <tag k="addr:city" v="Зеленоград"/>
    <tag k="addr:country" v="RU"/>
    <tag k="addr:housenumber" v="77"/>
    <tag k="addr:street" v="посёлок Назарьево"/>
    <tag k="building" v="yes"/>
    <tag k="building:levels" v="1"/>
    <tag k="building:use" v="residential"/>
  </way>
  <way id="96934380" version="1" timestamp="2011-01-27T12:13:15Z" uid="115477" user="wowik" changeset="7102995">
    <nd ref="1123332413"/>
    <nd ref="1123331989"/>
    <nd ref="1123331206"/>
    <nd ref="1123331130"/>
    <nd ref="1123332413"/>
    <tag k="addr:city" v="Зеленоград"/>
    <tag k="addr:country" v="RU"/>
    <tag k="addr:street" v="посёлок Назарьево"/>
    <tag k="building" v="yes"/>
    <tag k="building:levels" v="1"/>
  </way>
  <way id="96934381" version="1" timestamp="2011-01-27T12:13:15Z" uid="115477" user="wowik" changeset="7102995">
    <nd ref="1123331563"/>
    <nd ref="1123331089"/>
    <nd ref="1123332203"/>
    <nd ref="1123332109"/>
    <nd ref="1123331563"/>
    <tag k="addr:city" v="Зеленоград"/>
    <tag k="addr:country" v="RU"/>
    <tag k="addr:street" v="посёлок Назарьево"/>
    <tag k="building" v="yes"/>
    <tag k="building:levels" v="1"/>
  </way>
  <way id="96934382" version="1" timestamp="2011-01-27T12:13:15Z" uid="115477" user="wowik" changeset="7102995">
    <nd ref="1123332272"/>
    <nd ref="1123332586"/>
    <nd ref="1123331803"/>
    <nd ref="1123331010"/>
    <nd ref="1123332058"/>
    <nd ref="1123331990"/>
    <nd ref="1123331207"/>
    <nd ref="1123332310"/>
    <nd ref="1123331565"/>
    <nd ref="1123331481"/>
    <nd ref="1123332504"/>
    <nd ref="1123331778"/>
    <nd ref="1123332272"/>
    <tag k="addr:city" v="Зеленоград"/>
    <tag k="addr:country" v="RU"/>
    <tag k="addr:housenumber" v="117"/>
    <tag k="addr:street" v="посёлок Назарьево"/>
    <tag k="building" v="yes"/>
    <tag k="building:levels" v="1"/>
    <tag k="building:use" v="residential"/>
  </way>
  <way id="96934383" version="1" timestamp="2011-01-27T12:13:16Z" uid="115477" user="wowik" changeset="7102995">
    <nd ref="1123332588"/>
    <nd ref="1123332204"/>
    <nd ref="1123331427"/>
    <nd ref="1123332479"/>
    <nd ref="1123332588"/>
    <tag k="addr:city" v="Зеленоград"/>
    <tag k="addr:street" v="Проезд N 4921"/>
    <tag k="building" v="yes"/>
    <tag k="landuse" v="garages"/>
  </way>
  <way id="96934383" version="2" timestamp="2011-09-13T10:38:46Z" uid="29320" user="Komяpa" changeset="9288237">
    <nd ref="1123332588"/>
    <nd ref="1123332204"/>
    <nd ref="1123331427"/>
    <nd ref="1123332479"/>
    <nd ref="1123332588"/>
    <tag k="addr:city" v="Зеленоград"/>
    <tag k="addr:street" v="Проезд N 4921"/>
    <tag k="building" v="garages"/>
  </way>
  <way id="96934383" version="3" timestamp="2012-03-27T11:51:17Z" uid="481934" user="iWowik" changeset="11115472">
    <nd ref="1123332588"/>
    <nd ref="1123332204"/>
    <nd ref="1123331427"/>
    <nd ref="1123332479"/>
    <nd ref="1123332588"/>
    <tag k="addr:city" v="Зеленоград"/>
    <tag k="addr:country" v="RU"/>
    <tag k="addr:region" v="Москва"/>
    <tag k="addr:street" v="Проезд N 4921"/>
    <tag k="building" v="garages"/>
  </way>
  <way id="96934387" version="1" timestamp="2011-01-27T12:13:16Z" uid="115477" user="wowik" changeset="7102995">
    <nd ref="1123331420"/>
    <nd ref="1123330999"/>
    <nd ref="1123332039"/>
    <nd ref="1123331975"/>
    <nd ref="1123331420"/>
    <tag k="addr:city" v="Зеленоград"/>
    <tag k="addr:country" v="RU"/>
    <tag k="addr:housenumber" v="9 с3?"/>
    <tag k="addr:street" v="Сосновая аллея"/>
    <tag k="building" v="yes"/>
    <tag k="building:levels" v="1"/>
  </way>
  <way id="96934387" version="2" timestamp="2012-03-27T11:46:50Z" uid="481934" user="iWowik" changeset="11115472">
    <nd ref="1123331420"/>
    <nd ref="1123330999"/>
    <nd ref="1123332039"/>
    <nd ref="1123331975"/>
    <nd ref="1123331420"/>
    <tag k="addr:city" v="Зеленоград"/>
    <tag k="addr:country" v="RU"/>
    <tag k="addr:housenumber" v="9 с3?"/>
    <tag k="addr:region" v="Москва"/>
    <tag k="addr:street" v="Сосновая аллея"/>
    <tag k="building" v="yes"/>
    <tag k="building:levels" v="1"/>
  </way>
  <way id="96934388" version="1" timestamp="2011-01-27T12:13:16Z" uid="115477" user="wowik" changeset="7102995">
    <nd ref="1123331643"/>
    <nd ref="1123331151"/>
    <nd ref="1123332269"/>
    <nd ref="1123331518"/>
    <nd ref="1123331643"/>
    <tag k="addr:city" v="Зеленоград"/>
    <tag k="addr:country" v="RU"/>
    <tag k="addr:street" v="посёлок Назарьево"/>
    <tag k="building" v="yes"/>
    <tag k="building:levels" v="1"/>
  </way>
  <way id="96934390" version="1" timestamp="2011-01-27T12:13:16Z" uid="115477" user="wowik" changeset="7102995">
    <nd ref="1123330968"/>
    <nd ref="1123332433"/>
    <nd ref="1123331706"/>
    <nd ref="1123331637"/>
    <nd ref="1123330968"/>
    <tag k="addr:city" v="Зеленоград"/>
    <tag k="addr:country" v="RU"/>
    <tag k="addr:street" v="посёлок Назарьево"/>
    <tag k="building" v="yes"/>
    <tag k="building:levels" v="1"/>
  </way>
  <way id="96934394" version="1" timestamp="2011-01-27T12:13:17Z" uid="115477" user="wowik" changeset="7102995">
    <nd ref="1123331806"/>
    <nd ref="1123331428"/>
    <nd ref="1123331014"/>
    <nd ref="1123331353"/>
    <nd ref="1123331806"/>
    <tag k="addr:city" v="Зеленоград"/>
    <tag k="addr:country" v="RU"/>
    <tag k="addr:housenumber" v="11 с2"/>
    <tag k="addr:street" v="Сосновая аллея"/>
    <tag k="building" v="yes"/>
    <tag k="building:levels" v="1"/>
  </way>
  <way id="96934394" version="2" timestamp="2012-03-27T11:34:00Z" uid="481934" user="iWowik" changeset="11115472">
    <nd ref="1123331806"/>
    <nd ref="1123331428"/>
    <nd ref="1123331014"/>
    <nd ref="1123331353"/>
    <nd ref="1123331806"/>
    <tag k="addr:city" v="Зеленоград"/>
    <tag k="addr:country" v="RU"/>
    <tag k="addr:housenumber" v="11 с2"/>
    <tag k="addr:region" v="Москва"/>
    <tag k="addr:street" v="Сосновая аллея"/>
    <tag k="building" v="yes"/>
    <tag k="building:levels" v="1"/>
  </way>
  <way id="96934396" version="1" timestamp="2011-01-27T12:13:17Z" uid="115477" user="wowik" changeset="7102995">
    <nd ref="1123331831"/>
    <nd ref="1123331501"/>
    <nd ref="1123331413"/>
    <nd ref="1123332465"/>
    <nd ref="1123331831"/>
    <tag k="building" v="yes"/>
    <tag k="building:levels" v="1"/>
  </way>
  <way id="96934396" version="2" timestamp="2012-03-27T11:54:20Z" uid="481934" user="iWowik" changeset="11115472">
    <nd ref="1123331831"/>
    <nd ref="1123331501"/>
    <nd ref="1123331413"/>
    <nd ref="1123332465"/>
    <nd ref="1123331831"/>
    <tag k="addr:city" v="Зеленоград"/>
    <tag k="addr:country" v="RU"/>
    <tag k="addr:region" v="Москва"/>
    <tag k="building" v="yes"/>
    <tag k="building:levels" v="1"/>
  </way>
  <way id="96934401" version="1" timestamp="2011-01-27T12:13:17Z" uid="115477" user="wowik" changeset="7102995">
    <nd ref="1123332606"/>
    <nd ref="1123332220"/>
    <nd ref="1123332133"/>
    <nd ref="1123331378"/>
    <nd ref="1123332435"/>
    <nd ref="1123331707"/>
    <nd ref="1123332606"/>
    <tag k="building" v="yes"/>
    <tag k="building:levels" v="1"/>
  </way>
  <way id="96934401" version="2" timestamp="2012-03-27T11:54:56Z" uid="481934" user="iWowik" changeset="11115472">
    <nd ref="1123332606"/>
    <nd ref="1123332220"/>
    <nd ref="1123332133"/>
    <nd ref="1123331378"/>
    <nd ref="1123332435"/>
    <nd ref="1123331707"/>
    <nd ref="1123332606"/>
    <tag k="addr:city" v="Зеленоград"/>
    <tag k="addr:country" v="RU"/>
    <tag k="addr:region" v="Москва"/>
    <tag k="building" v="yes"/>
    <tag k="building:levels" v="1"/>
  </way>
  <way id="96934402" version="1" timestamp="2011-01-27T12:13:17Z" uid="115477" user="wowik" changeset="7102995">
    <nd ref="1123332523"/>
    <nd ref="1123331009"/>
    <nd ref="1123332056"/>
    <nd ref="1123331272"/>
    <nd ref="1123332373"/>
    <nd ref="1123332308"/>
    <nd ref="1123331560"/>
    <nd ref="1123332582"/>
    <nd ref="1123332523"/>
    <tag k="building" v="yes"/>
    <tag k="building:levels" v="1"/>
    <tag k="landuse" v="garages"/>
  </way>
  <way id="96934402" version="2" timestamp="2011-09-13T10:38:46Z" uid="29320" user="Komяpa" changeset="9288237">
    <nd ref="1123332523"/>
    <nd ref="1123331009"/>
    <nd ref="1123332056"/>
    <nd ref="1123331272"/>
    <nd ref="1123332373"/>
    <nd ref="1123332308"/>
    <nd ref="1123331560"/>
    <nd ref="1123332582"/>
    <nd ref="1123332523"/>
    <tag k="building" v="garages"/>
    <tag k="building:levels" v="1"/>
  </way>
  <way id="96934405" version="1" timestamp="2011-01-27T12:13:17Z" uid="115477" user="wowik" changeset="7102995">
    <nd ref="1123332210"/>
    <nd ref="1123331808"/>
    <nd ref="911776779"/>
    <nd ref="1123332480"/>
    <nd ref="1123331994"/>
    <nd ref="1123332210"/>
    <tag k="addr:city" v="Зеленоград"/>
    <tag k="addr:country" v="RU"/>
    <tag k="addr:street" v="Сосновая аллея"/>
    <tag k="building" v="yes"/>
    <tag k="building:levels" v="1"/>
  </way>
  <way id="96934405" version="2" timestamp="2012-03-27T11:54:37Z" uid="481934" user="iWowik" changeset="11115472">
    <nd ref="1123332210"/>
    <nd ref="1123331808"/>
    <nd ref="911776779"/>
    <nd ref="1123332480"/>
    <nd ref="1123331994"/>
    <nd ref="1123332210"/>
    <tag k="addr:city" v="Зеленоград"/>
    <tag k="addr:country" v="RU"/>
    <tag k="addr:region" v="Москва"/>
    <tag k="addr:street" v="Сосновая аллея"/>
    <tag k="building" v="yes"/>
    <tag k="building:levels" v="1"/>
  </way>
  <way id="96934407" version="1" timestamp="2011-01-27T12:13:17Z" uid="115477" user="wowik" changeset="7102995">
    <nd ref="1123332481"/>
    <nd ref="1123332063"/>
    <nd ref="1123331758"/>
    <nd ref="1123331295"/>
    <nd ref="1123332481"/>
    <tag k="addr:city" v="Зеленоград"/>
    <tag k="addr:housenumber" v="7 с16"/>
    <tag k="addr:street" v="Проезд N 4921"/>
    <tag k="building" v="yes"/>
    <tag k="building:levels" v="1"/>
  </way>
  <way id="96934407" version="2" timestamp="2012-03-27T11:45:57Z" uid="481934" user="iWowik" changeset="11115472">
    <nd ref="1123332481"/>
    <nd ref="1123332063"/>
    <nd ref="1123331758"/>
    <nd ref="1123331295"/>
    <nd ref="1123332481"/>
    <tag k="addr:city" v="Зеленоград"/>
    <tag k="addr:country" v="RU"/>
    <tag k="addr:housenumber" v="7 с16"/>
    <tag k="addr:region" v="Москва"/>
    <tag k="addr:street" v="Проезд N 4921"/>
    <tag k="building" v="yes"/>
    <tag k="building:levels" v="1"/>
  </way>
  <way id="96934408" version="1" timestamp="2011-01-27T12:13:18Z" uid="115477" user="wowik" changeset="7102995">
    <nd ref="1122291620"/>
    <nd ref="1123332584"/>
    <nd ref="1123331667"/>
    <nd ref="911779521"/>
    <nd ref="1123331380"/>
    <tag k="barrier" v="wall"/>
  </way>
  <way id="96934410" version="1" timestamp="2011-01-27T12:13:18Z" uid="115477" user="wowik" changeset="7102995">
    <nd ref="1123331091"/>
    <nd ref="1123332584"/>
    <tag k="barrier" v="wall"/>
  </way>
  <way id="96934413" version="1" timestamp="2011-01-27T12:13:18Z" uid="115477" user="wowik" changeset="7102995">
    <nd ref="1123332607"/>
    <nd ref="1123332228"/>
    <nd ref="1123331437"/>
    <nd ref="1123332485"/>
    <nd ref="1123332607"/>
    <tag k="addr:city" v="Зеленоград"/>
    <tag k="addr:country" v="RU"/>
    <tag k="addr:street" v="посёлок Назарьево"/>
    <tag k="building" v="yes"/>
    <tag k="building:levels" v="1"/>
  </way>
  <way id="96934415" version="1" timestamp="2011-01-27T12:13:18Z" uid="115477" user="wowik" changeset="7102995">
    <nd ref="1123331863"/>
    <nd ref="1123331544"/>
    <nd ref="1123331443"/>
    <nd ref="1123332489"/>
    <nd ref="1123331863"/>
    <tag k="addr:city" v="Зеленоград"/>
    <tag k="addr:country" v="RU"/>
    <tag k="addr:street" v="посёлок Назарьево"/>
    <tag k="building" v="yes"/>
    <tag k="building:levels" v="1"/>
  </way>
  <way id="96934420" version="1" timestamp="2011-01-27T12:13:18Z" uid="115477" user="wowik" changeset="7102995">
    <nd ref="1123331529"/>
    <nd ref="1123331063"/>
    <nd ref="1123332171"/>
    <nd ref="1123331407"/>
    <nd ref="1123331529"/>
    <tag k="addr:city" v="Зеленоград"/>
    <tag k="addr:country" v="RU"/>
    <tag k="addr:street" v="посёлок Назарьево"/>
    <tag k="building" v="yes"/>
    <tag k="building:levels" v="1"/>
  </way>
  <way id="96934421" version="1" timestamp="2011-01-27T12:13:18Z" uid="115477" user="wowik" changeset="7102995">
    <nd ref="450653178"/>
    <nd ref="1123331569"/>
    <nd ref="1123332591"/>
    <nd ref="1123332512"/>
    <nd ref="450653178"/>
    <tag k="addr:city" v="Зеленоград"/>
    <tag k="addr:street" v="Проезд N 4921"/>
    <tag k="building" v="yes"/>
    <tag k="building:levels" v="1"/>
  </way>
  <way id="96934421" version="2" timestamp="2012-03-27T11:54:26Z" uid="481934" user="iWowik" changeset="11115472">
    <nd ref="450653178"/>
    <nd ref="1123331569"/>
    <nd ref="1123332591"/>
    <nd ref="1123332512"/>
    <nd ref="450653178"/>
    <tag k="addr:city" v="Зеленоград"/>
    <tag k="addr:country" v="RU"/>
    <tag k="addr:region" v="Москва"/>
    <tag k="addr:street" v="Проезд N 4921"/>
    <tag k="building" v="yes"/>
    <tag k="building:levels" v="1"/>
  </way>
  <way id="96934426" version="1" timestamp="2011-01-27T12:13:19Z" uid="115477" user="wowik" changeset="7102995">
    <nd ref="1123332341"/>
    <nd ref="1123331909"/>
    <nd ref="1123331116"/>
    <nd ref="1123332236"/>
    <nd ref="1123332162"/>
    <nd ref="1123331402"/>
    <nd ref="1123332448"/>
    <nd ref="1123331721"/>
    <nd ref="1123332341"/>
    <tag k="addr:city" v="Зеленоград"/>
    <tag k="addr:country" v="RU"/>
    <tag k="addr:housenumber" v="89"/>
    <tag k="addr:street" v="посёлок Назарьево"/>
    <tag k="building" v="yes"/>
    <tag k="building:levels" v="1"/>
    <tag k="building:use" v="residential"/>
  </way>
  <way id="96934426" version="2" timestamp="2011-01-30T16:12:35Z" uid="115477" user="wowik" changeset="7135898">
    <nd ref="1123332341"/>
    <nd ref="1123331909"/>
    <nd ref="1123331116"/>
    <nd ref="1123332236"/>
    <nd ref="1123332162"/>
    <nd ref="1123331402"/>
    <nd ref="1123332448"/>
    <nd ref="1123331721"/>
    <nd ref="1123332341"/>
    <tag k="addr:city" v="Зеленоград"/>
    <tag k="addr:country" v="RU"/>
    <tag k="addr:housenumber" v="59"/>
    <tag k="addr:street" v="посёлок Назарьево"/>
    <tag k="building" v="yes"/>
    <tag k="building:levels" v="1"/>
    <tag k="building:use" v="residential"/>
  </way>
  <way id="96934827" version="2" timestamp="2011-02-22T15:05:17Z" uid="49111" user="Markus B" changeset="7364190">
    <nd ref="1123338993"/>
    <nd ref="1123338891"/>
    <nd ref="1123339012"/>
    <nd ref="1123338911"/>
    <tag k="highway" v="residential"/>
    <tag k="source" v="Bing"/>
  </way>
  <way id="96934827" version="3" timestamp="2012-01-14T20:31:27Z" uid="585797" user="IECE" changeset="10391506"/>
  <way id="96934830" version="2" timestamp="2011-02-22T15:05:24Z" uid="49111" user="Markus B" changeset="7364190">
    <nd ref="1121810578"/>
    <nd ref="1123338973"/>
    <nd ref="1123338909"/>
    <nd ref="1123338991"/>
    <nd ref="1123338931"/>
    <nd ref="301960845"/>
    <tag k="highway" v="residential"/>
    <tag k="source" v="Bing"/>
  </way>
  <way id="96934830" version="3" timestamp="2012-01-14T14:31:33Z" uid="585797" user="IECE" changeset="10388027">
    <nd ref="1121810578"/>
    <nd ref="1123338973"/>
    <tag k="highway" v="residential"/>
    <tag k="oneway" v="yes"/>
    <tag k="source" v="Bing"/>
  </way>
  <way id="96934830" version="4" timestamp="2012-01-15T13:14:39Z" uid="585797" user="IECE" changeset="10397710">
    <nd ref="1121810578"/>
    <nd ref="1123338973"/>
    <tag k="highway" v="secondary"/>
    <tag k="oneway" v="yes"/>
    <tag k="source" v="Bing"/>
  </way>
  <way id="96934833" version="2" timestamp="2011-02-22T15:05:16Z" uid="49111" user="Markus B" changeset="7364190">
    <nd ref="1123338868"/>
    <nd ref="1123338925"/>
    <nd ref="1123339024"/>
    <tag k="highway" v="residential"/>
    <tag k="source" v="Bing"/>
  </way>
  <way id="96934833" version="3" timestamp="2012-01-14T23:39:42Z" uid="585797" user="IECE" changeset="10393241">
    <nd ref="1123339024"/>
    <nd ref="1123338925"/>
    <nd ref="1123338868"/>
    <tag k="highway" v="residential"/>
    <tag k="oneway" v="yes"/>
    <tag k="source" v="Bing"/>
  </way>
  <way id="96934836" version="2" timestamp="2011-02-22T15:05:23Z" uid="49111" user="Markus B" changeset="7364190">
    <nd ref="1123338963"/>
    <nd ref="1123338932"/>
    <nd ref="1123338929"/>
    <nd ref="1123338900"/>
    <nd ref="795889109"/>
    <nd ref="1123338949"/>
    <nd ref="1123338898"/>
    <nd ref="1123338980"/>
    <nd ref="1123338918"/>
    <tag k="highway" v="residential"/>
    <tag k="source" v="Bing"/>
  </way>
  <way id="96934836" version="3" timestamp="2012-01-14T20:31:14Z" uid="585797" user="IECE" changeset="10391506">
    <nd ref="1123338963"/>
    <nd ref="1123338932"/>
    <nd ref="1123338929"/>
    <nd ref="1123338900"/>
    <nd ref="795889109"/>
    <nd ref="1123338949"/>
    <nd ref="1123338898"/>
    <nd ref="1589966411"/>
    <nd ref="1589966533"/>
    <tag k="highway" v="residential"/>
    <tag k="source" v="Bing"/>
  </way>
  <way id="96934836" version="4" timestamp="2012-01-14T20:50:19Z" uid="585797" user="IECE" changeset="10391506">
    <nd ref="1123338963"/>
    <nd ref="1123338932"/>
    <nd ref="1123338929"/>
    <nd ref="1123338900"/>
    <nd ref="795889109"/>
    <nd ref="1123338949"/>
    <nd ref="1123338898"/>
    <nd ref="1589966411"/>
    <nd ref="1589966533"/>
    <tag k="highway" v="residential"/>
    <tag k="name" v="Rua Dr. Mendonça Corte Real"/>
    <tag k="source" v="Bing"/>
  </way>
  <way id="96934836" version="5" timestamp="2012-01-14T23:39:42Z" uid="585797" user="IECE" changeset="10393241">
    <nd ref="1589966533"/>
    <nd ref="1589966411"/>
    <nd ref="1123338898"/>
    <nd ref="1123338949"/>
    <nd ref="795889109"/>
    <nd ref="1123338900"/>
    <nd ref="1123338929"/>
    <nd ref="1123338932"/>
    <nd ref="1123338963"/>
    <tag k="highway" v="residential"/>
    <tag k="name" v="Rua Dr. Mendonça Corte Real"/>
    <tag k="oneway" v="yes"/>
    <tag k="source" v="Bing"/>
  </way>
  <way id="96934836" version="6" timestamp="2012-01-16T20:05:48Z" uid="585797" user="IECE" changeset="10411068">
    <nd ref="1589966533"/>
    <nd ref="1589966411"/>
    <nd ref="1123338898"/>
    <nd ref="1123338949"/>
    <nd ref="795889109"/>
    <nd ref="1123338900"/>
    <nd ref="1123338929"/>
    <nd ref="1123338932"/>
    <nd ref="1123338963"/>
    <tag k="highway" v="residential"/>
    <tag k="name" v="Rua Dr. Mendonça Corte Real"/>
    <tag k="oneway" v="yes"/>
    <tag k="source" v="Bing"/>
  </way>
  <way id="96934840" version="2" timestamp="2011-02-22T15:05:20Z" uid="49111" user="Markus B" changeset="7364190">
    <nd ref="795889114"/>
    <nd ref="1123338905"/>
    <nd ref="795889109"/>
    <nd ref="1123338959"/>
    <tag k="highway" v="residential"/>
    <tag k="source" v="Bing"/>
  </way>
  <way id="96934840" version="3" timestamp="2012-01-14T20:31:14Z" uid="585797" user="IECE" changeset="10391506">
    <nd ref="795889114"/>
    <nd ref="1589966469"/>
    <nd ref="1123338905"/>
    <nd ref="795889109"/>
    <nd ref="1123338959"/>
    <tag k="highway" v="residential"/>
    <tag k="source" v="Bing"/>
  </way>
  <way id="96934842" version="2" timestamp="2011-02-22T15:05:22Z" uid="49111" user="Markus B" changeset="7364190">
    <nd ref="1123338923"/>
    <nd ref="1123338880"/>
    <nd ref="301960849"/>
    <nd ref="1123339007"/>
    <nd ref="301960850"/>
    <nd ref="301960851"/>
    <nd ref="301960852"/>
    <tag k="highway" v="residential"/>
  </way>
  <way id="96934842" version="3" timestamp="2012-01-14T14:12:25Z" uid="585797" user="IECE" changeset="10388027">
    <nd ref="1589604706"/>
    <nd ref="1123338923"/>
    <tag k="highway" v="residential"/>
    <tag k="oneway" v="yes"/>
  </way>
  <way id="96934842" version="4" timestamp="2012-01-15T13:14:40Z" uid="585797" user="IECE" changeset="10397710">
    <nd ref="1589604706"/>
    <nd ref="1123338923"/>
    <tag k="highway" v="secondary"/>
    <tag k="oneway" v="yes"/>
  </way>
  <way id="96934843" version="2" timestamp="2011-02-22T15:05:18Z" uid="49111" user="Markus B" changeset="7364190">
    <nd ref="1123338895"/>
    <nd ref="1123338900"/>
    <nd ref="1123339021"/>
    <tag k="highway" v="residential"/>
    <tag k="source" v="Bing"/>
  </way>
  <way id="96934843" version="3" timestamp="2012-01-14T20:31:15Z" uid="585797" user="IECE" changeset="10391506">
    <nd ref="1123338895"/>
    <nd ref="1123338900"/>
    <nd ref="1123339021"/>
    <tag k="highway" v="residential"/>
    <tag k="name" v="Rua Domingos do Ó"/>
    <tag k="source" v="Bing"/>
  </way>
  <way id="96934844" version="2" timestamp="2011-02-22T15:05:24Z" uid="49111" user="Markus B" changeset="7364190">
    <nd ref="1123338885"/>
    <nd ref="1123338905"/>
    <nd ref="1123339021"/>
    <nd ref="1123339003"/>
    <nd ref="1123338942"/>
    <nd ref="1123338880"/>
    <tag k="highway" v="residential"/>
    <tag k="source" v="Bing"/>
  </way>
  <way id="96934844" version="3" timestamp="2012-01-14T14:12:26Z" uid="585797" user="IECE" changeset="10388027">
    <nd ref="1123338885"/>
    <nd ref="1123338905"/>
    <nd ref="1123339021"/>
    <nd ref="1123339003"/>
    <nd ref="1123338942"/>
    <nd ref="1589604703"/>
    <tag k="highway" v="residential"/>
    <tag k="source" v="Bing"/>
  </way>
  <way id="96934844" version="4" timestamp="2012-01-14T20:31:16Z" uid="585797" user="IECE" changeset="10391506">
    <nd ref="1123338885"/>
    <nd ref="1123338905"/>
    <nd ref="1589966541"/>
    <nd ref="1123339021"/>
    <nd ref="1123339003"/>
    <nd ref="1123338942"/>
    <nd ref="1589604703"/>
    <tag k="highway" v="residential"/>
    <tag k="source" v="Bing"/>
  </way>
  <way id="96934844" version="5" timestamp="2012-01-14T20:50:20Z" uid="585797" user="IECE" changeset="10391506">
    <nd ref="1123338885"/>
    <nd ref="1123338905"/>
    <nd ref="1589966541"/>
    <nd ref="1123339021"/>
    <nd ref="1123339003"/>
    <nd ref="1123338942"/>
    <nd ref="1589604703"/>
    <tag k="highway" v="residential"/>
    <tag k="name" v="Rua José Francisco Leonardo"/>
    <tag k="source" v="Bing"/>
  </way>
  <way id="96934844" version="6" timestamp="2012-01-16T20:05:48Z" uid="585797" user="IECE" changeset="10411068">
    <nd ref="1589604703"/>
    <nd ref="1123338942"/>
    <nd ref="1123339003"/>
    <nd ref="1123339021"/>
    <nd ref="1589966541"/>
    <nd ref="1123338905"/>
    <nd ref="1123338885"/>
    <tag k="highway" v="residential"/>
    <tag k="name" v="Rua José Francisco Leonardo"/>
    <tag k="oneway" v="yes"/>
    <tag k="source" v="Bing"/>
  </way>
  <way id="96934848" version="2" timestamp="2011-02-22T15:05:19Z" uid="49111" user="Markus B" changeset="7364190">
    <nd ref="1123338932"/>
    <nd ref="1123338952"/>
    <nd ref="1123338872"/>
    <nd ref="1123338987"/>
    <nd ref="1123338882"/>
    <nd ref="1123339007"/>
    <tag k="highway" v="residential"/>
    <tag k="source" v="Bing"/>
  </way>
  <way id="96934848" version="3" timestamp="2012-01-14T14:12:26Z" uid="585797" user="IECE" changeset="10388027">
    <nd ref="1123338932"/>
    <nd ref="1123338952"/>
    <nd ref="1123338872"/>
    <nd ref="1123338987"/>
    <nd ref="1123338882"/>
    <nd ref="1589604684"/>
    <tag k="highway" v="residential"/>
    <tag k="oneway" v="yes"/>
    <tag k="source" v="Bing"/>
  </way>
  <way id="96934848" version="4" timestamp="2012-01-14T20:31:15Z" uid="585797" user="IECE" changeset="10391506">
    <nd ref="1123338932"/>
    <nd ref="1123338952"/>
    <nd ref="1123338872"/>
    <nd ref="1123338987"/>
    <nd ref="1123338882"/>
    <nd ref="1589604684"/>
    <tag k="highway" v="residential"/>
    <tag k="name" v="Rua dos Lavadores"/>
    <tag k="oneway" v="yes"/>
    <tag k="source" v="Bing"/>
  </way>
  <way id="96934848" version="5" timestamp="2012-01-15T00:03:13Z" uid="585797" user="IECE" changeset="10393241"/>
  <way id="96934849" version="2" timestamp="2011-02-22T15:05:16Z" uid="49111" user="Markus B" changeset="7364190">
    <nd ref="1121810578"/>
    <nd ref="1123338996"/>
    <tag k="highway" v="residential"/>
  </way>
  <way id="96934849" version="3" timestamp="2012-01-14T14:12:26Z" uid="585797" user="IECE" changeset="10388027">
    <nd ref="1121810578"/>
    <nd ref="1123338996"/>
    <nd ref="1123338923"/>
    <nd ref="301960849"/>
    <nd ref="1123339007"/>
    <nd ref="301960850"/>
    <nd ref="301960851"/>
    <nd ref="301960852"/>
    <tag k="highway" v="residential"/>
    <tag k="oneway" v="-1"/>
  </way>
  <way id="96934849" version="4" timestamp="2012-01-14T15:47:10Z" uid="585797" user="IECE" changeset="10389021"/>
  <way id="96934850" version="2" timestamp="2011-02-22T15:05:21Z" uid="49111" user="Markus B" changeset="7364190">
    <nd ref="1123338884"/>
    <nd ref="1123338911"/>
    <nd ref="1123338971"/>
    <nd ref="1123338908"/>
    <nd ref="1123338925"/>
    <tag k="highway" v="residential"/>
    <tag k="source" v="Bing"/>
  </way>
  <way id="96934850" version="3" timestamp="2012-01-14T20:50:22Z" uid="585797" user="IECE" changeset="10391506"/>
  <way id="96934851" version="2" timestamp="2011-02-22T15:05:17Z" uid="49111" user="Markus B" changeset="7364190">
    <nd ref="1123338929"/>
    <nd ref="1123338866"/>
    <nd ref="1123338942"/>
    <nd ref="1123338924"/>
    <nd ref="1123339004"/>
    <nd ref="1123338940"/>
    <nd ref="1123339023"/>
    <nd ref="1123338922"/>
    <nd ref="1123339000"/>
    <tag k="highway" v="residential"/>
    <tag k="source" v="Bing"/>
  </way>
  <way id="96934851" version="3" timestamp="2012-01-14T18:20:33Z" uid="585797" user="IECE" changeset="10390726">
    <nd ref="1123338929"/>
    <nd ref="1123338866"/>
    <nd ref="1123338942"/>
    <nd ref="1123338924"/>
    <nd ref="1123339004"/>
    <nd ref="1589808607"/>
    <nd ref="1123338940"/>
    <nd ref="1123339023"/>
    <nd ref="1589808374"/>
    <nd ref="1123338922"/>
    <nd ref="1123339000"/>
    <tag k="highway" v="residential"/>
    <tag k="source" v="Bing"/>
  </way>
  <way id="96934851" version="4" timestamp="2012-01-14T20:31:16Z" uid="585797" user="IECE" changeset="10391506">
    <nd ref="1123338929"/>
    <nd ref="1123338866"/>
    <nd ref="1123338942"/>
    <nd ref="1123338924"/>
    <nd ref="1123339004"/>
    <nd ref="1589808607"/>
    <nd ref="1123338940"/>
    <nd ref="1123339023"/>
    <nd ref="1589808374"/>
    <nd ref="1589966489"/>
    <nd ref="1123338922"/>
    <nd ref="1123339000"/>
    <tag k="highway" v="residential"/>
    <tag k="name" v="Rua Carlos da Maia"/>
    <tag k="source" v="Bing"/>
  </way>
  <way id="96934851" version="5" timestamp="2012-01-14T20:50:20Z" uid="585797" user="IECE" changeset="10391506">
    <nd ref="1123338929"/>
    <nd ref="1123338866"/>
    <nd ref="1123338942"/>
    <nd ref="1123338924"/>
    <nd ref="1123339004"/>
    <nd ref="1589808607"/>
    <tag k="highway" v="residential"/>
    <tag k="name" v="Rua das Lavadeiras"/>
    <tag k="source" v="Bing"/>
  </way>
  <way id="96934851" version="6" timestamp="2012-01-14T23:39:43Z" uid="585797" user="IECE" changeset="10393241">
    <nd ref="1589808607"/>
    <nd ref="1590129792"/>
    <nd ref="1590129813"/>
    <nd ref="1123339004"/>
    <nd ref="1123338924"/>
    <nd ref="1123338942"/>
    <nd ref="1123338866"/>
    <nd ref="1123338929"/>
    <tag k="highway" v="residential"/>
    <tag k="name" v="Rua das Lavadeiras"/>
    <tag k="oneway" v="yes"/>
    <tag k="source" v="Bing"/>
  </way>
  <way id="96934852" version="3" timestamp="2011-02-22T15:05:23Z" uid="49111" user="Markus B" changeset="7364190">
    <nd ref="1123338876"/>
    <nd ref="1123339030"/>
    <nd ref="1123338996"/>
    <nd ref="1166505664"/>
    <nd ref="1123339015"/>
    <nd ref="1166505786"/>
    <nd ref="1123338934"/>
    <nd ref="795889111"/>
    <nd ref="1123338923"/>
    <nd ref="1123338985"/>
    <nd ref="1123338876"/>
    <tag k="highway" v="unclassified"/>
    <tag k="junction" v="roundabout"/>
  </way>
  <way id="96934852" version="4" timestamp="2012-01-14T14:12:28Z" uid="585797" user="IECE" changeset="10388027"/>
  <way id="96934854" version="2" timestamp="2011-02-22T15:05:17Z" uid="49111" user="Markus B" changeset="7364190">
    <nd ref="1123338966"/>
    <nd ref="1123339024"/>
    <nd ref="795889108"/>
    <nd ref="1123339010"/>
    <nd ref="795889114"/>
    <nd ref="1123338993"/>
    <nd ref="1123338984"/>
    <tag k="highway" v="residential"/>
    <tag k="source" v="Bing"/>
  </way>
  <way id="96934854" version="3" timestamp="2012-01-14T20:50:21Z" uid="585797" user="IECE" changeset="10391506">
    <nd ref="1123338966"/>
    <nd ref="1123339024"/>
    <nd ref="795889108"/>
    <nd ref="1123339010"/>
    <nd ref="795889114"/>
    <nd ref="1123338993"/>
    <nd ref="1123338984"/>
    <tag k="highway" v="residential"/>
    <tag k="name" v="Rua Francisco Menezes"/>
    <tag k="source" v="Bing"/>
  </way>
  <way id="96934858" version="2" timestamp="2011-02-22T15:05:21Z" uid="49111" user="Markus B" changeset="7364190">
    <nd ref="1123338888"/>
    <nd ref="1123338970"/>
    <nd ref="1123338974"/>
    <nd ref="1123338949"/>
    <nd ref="1123338885"/>
    <nd ref="1123339010"/>
    <tag k="highway" v="residential"/>
    <tag k="source" v="Bing"/>
  </way>
  <way id="96934858" version="3" timestamp="2012-01-14T20:31:16Z" uid="585797" user="IECE" changeset="10391506">
    <nd ref="1123338888"/>
    <nd ref="1123338970"/>
    <nd ref="1123338974"/>
    <nd ref="1123338949"/>
    <nd ref="1123338885"/>
    <nd ref="1123339010"/>
    <tag k="highway" v="residential"/>
    <tag k="name" v="Rua Gil Eanes"/>
    <tag k="source" v="Bing"/>
  </way>
  <way id="96934858" version="4" timestamp="2012-01-14T23:39:47Z" uid="585797" user="IECE" changeset="10393241"/>
  <way id="96934864" version="2" timestamp="2011-02-22T15:05:20Z" uid="49111" user="Markus B" changeset="7364190">
    <nd ref="1123338984"/>
    <nd ref="1123339003"/>
    <tag k="highway" v="residential"/>
    <tag k="source" v="Bing"/>
  </way>
  <way id="96934864" version="3" timestamp="2012-01-14T20:31:27Z" uid="585797" user="IECE" changeset="10391506"/>
  <way id="96934251" version="3" timestamp="2012-07-20T20:26:09Z" uid="722137" user="OSMF Redaction Account" changeset="12390378"/>
  <way id="96934252" version="3" timestamp="2012-07-20T20:26:11Z" uid="722137" user="OSMF Redaction Account" changeset="12390378"/>
  <way id="96934253" version="2" timestamp="2012-07-20T20:25:55Z" uid="722137" user="OSMF Redaction Account" changeset="12390378"/>
  <way id="96934254" version="3" timestamp="2012-07-20T20:25:53Z" uid="722137" user="OSMF Redaction Account" changeset="12390378"/>
  <way id="96934255" version="2" timestamp="2012-07-20T20:25:46Z" uid="722137" user="OSMF Redaction Account" changeset="12390357"/>
  <way id="96934256" version="3" timestamp="2012-07-20T20:26:22Z" uid="722137" user="OSMF Redaction Account" changeset="12390378"/>
  <way id="96934257" version="2" timestamp="2012-07-20T20:26:01Z" uid="722137" user="OSMF Redaction Account" changeset="12390378"/>
  <way id="96934258" version="2" timestamp="2012-07-20T20:26:11Z" uid="722137" user="OSMF Redaction Account" changeset="12390378"/>
  <way id="96934259" version="3" timestamp="2012-07-20T22:16:42Z" uid="722137" user="OSMF Redaction Account" changeset="12394520"/>
  <way id="96934260" version="2" timestamp="2012-07-20T20:25:47Z" uid="722137" user="OSMF Redaction Account" changeset="12390357"/>
  <way id="96934261" version="2" timestamp="2012-07-20T20:25:50Z" uid="722137" user="OSMF Redaction Account" changeset="12390378"/>
  <way id="96934262" version="2" timestamp="2012-07-20T20:25:55Z" uid="722137" user="OSMF Redaction Account" changeset="12390378"/>
  <way id="96934263" version="2" timestamp="2012-07-20T20:25:50Z" uid="722137" user="OSMF Redaction Account" changeset="12390378"/>
  <way id="96934264" version="2" timestamp="2012-07-20T20:25:52Z" uid="722137" user="OSMF Redaction Account" changeset="12390378"/>
  <way id="96934265" version="2" timestamp="2012-07-20T20:25:53Z" uid="722137" user="OSMF Redaction Account" changeset="12390378"/>
  <way id="96934266" version="3" timestamp="2012-07-20T20:26:19Z" uid="722137" user="OSMF Redaction Account" changeset="12390378"/>
  <way id="96934267" version="3" timestamp="2012-07-20T22:16:54Z" uid="722137" user="OSMF Redaction Account" changeset="12394520"/>
  <way id="96934268" version="3" timestamp="2012-07-20T20:25:53Z" uid="722137" user="OSMF Redaction Account" changeset="12390378"/>
  <way id="96934269" version="2" timestamp="2012-07-20T20:25:50Z" uid="722137" user="OSMF Redaction Account" changeset="12390378"/>
  <way id="96934270" version="2" timestamp="2012-07-20T20:25:53Z" uid="722137" user="OSMF Redaction Account" changeset="12390378"/>
  <way id="96934271" version="3" timestamp="2012-07-20T20:26:16Z" uid="722137" user="OSMF Redaction Account" changeset="12390378"/>
  <way id="96934272" version="3" timestamp="2012-07-20T20:26:12Z" uid="722137" user="OSMF Redaction Account" changeset="12390378"/>
  <way id="96934273" version="2" timestamp="2012-07-20T20:25:52Z" uid="722137" user="OSMF Redaction Account" changeset="12390378"/>
  <way id="96934274" version="3" timestamp="2012-07-20T20:26:20Z" uid="722137" user="OSMF Redaction Account" changeset="12390378"/>
  <way id="96934275" version="2" timestamp="2012-07-20T20:25:55Z" uid="722137" user="OSMF Redaction Account" changeset="12390378"/>
  <way id="96934276" version="2" timestamp="2012-07-20T20:25:56Z" uid="722137" user="OSMF Redaction Account" changeset="12390378"/>
  <way id="96934277" version="2" timestamp="2012-07-20T20:25:57Z" uid="722137" user="OSMF Redaction Account" changeset="12390378"/>
  <way id="96934279" version="3" timestamp="2012-07-20T20:26:10Z" uid="722137" user="OSMF Redaction Account" changeset="12390378"/>
  <way id="96934280" version="2" timestamp="2012-07-20T20:25:46Z" uid="722137" user="OSMF Redaction Account" changeset="12390357"/>
  <way id="96934281" version="3" timestamp="2012-07-20T22:16:51Z" uid="722137" user="OSMF Redaction Account" changeset="12394520"/>
  <way id="96934282" version="2" timestamp="2012-07-20T20:26:11Z" uid="722137" user="OSMF Redaction Account" changeset="12390378"/>
  <way id="96934283" version="2" timestamp="2012-07-20T20:25:49Z" uid="722137" user="OSMF Redaction Account" changeset="12390378"/>
  <way id="96934284" version="3" timestamp="2012-07-20T22:16:54Z" uid="722137" user="OSMF Redaction Account" changeset="12394520"/>
  <way id="96934285" version="3" timestamp="2012-07-20T22:16:53Z" uid="722137" user="OSMF Redaction Account" changeset="12394520"/>
  <way id="96934286" version="2" timestamp="2012-07-20T20:25:52Z" uid="722137" user="OSMF Redaction Account" changeset="12390378"/>
  <way id="96934287" version="3" timestamp="2012-07-20T22:16:43Z" uid="722137" user="OSMF Redaction Account" changeset="12394520"/>
  <way id="96934288" version="2" timestamp="2012-07-20T20:25:45Z" uid="722137" user="OSMF Redaction Account" changeset="12390357"/>
  <way id="96934289" version="2" timestamp="2012-07-20T20:25:52Z" uid="722137" user="OSMF Redaction Account" changeset="12390378"/>
  <way id="96934290" version="2" timestamp="2012-07-20T20:26:13Z" uid="722137" user="OSMF Redaction Account" changeset="12390378"/>
  <way id="96934291" version="2" timestamp="2012-07-20T20:25:51Z" uid="722137" user="OSMF Redaction Account" changeset="12390378"/>
  <way id="96934292" version="2" timestamp="2012-07-20T20:25:51Z" uid="722137" user="OSMF Redaction Account" changeset="12390378"/>
  <way id="96934293" version="2" timestamp="2012-07-20T20:26:01Z" uid="722137" user="OSMF Redaction Account" changeset="12390378"/>
  <way id="96934294" version="4" timestamp="2012-07-20T20:26:20Z" uid="722137" user="OSMF Redaction Account" changeset="12390378"/>
  <way id="96934295" version="4" timestamp="2012-07-20T20:26:21Z" uid="722137" user="OSMF Redaction Account" changeset="12390378"/>
  <way id="96934296" version="3" timestamp="2012-07-20T22:16:38Z" uid="722137" user="OSMF Redaction Account" changeset="12394520"/>
  <way id="96934297" version="3" timestamp="2012-07-20T22:16:50Z" uid="722137" user="OSMF Redaction Account" changeset="12394520"/>
  <way id="96934298" version="3" timestamp="2012-07-20T20:26:13Z" uid="722137" user="OSMF Redaction Account" changeset="12390378"/>
  <way id="96934299" version="4" timestamp="2012-07-20T20:26:22Z" uid="722137" user="OSMF Redaction Account" changeset="12390378"/>
  <way id="96934300" version="2" timestamp="2012-07-20T20:25:49Z" uid="722137" user="OSMF Redaction Account" changeset="12390378"/>
  <way id="96934301" version="3" timestamp="2012-07-20T20:26:10Z" uid="722137" user="OSMF Redaction Account" changeset="12390378"/>
  <way id="96934302" version="2" timestamp="2012-07-20T20:25:50Z" uid="722137" user="OSMF Redaction Account" changeset="12390378"/>
  <way id="96934303" version="2" timestamp="2012-07-20T20:25:54Z" uid="722137" user="OSMF Redaction Account" changeset="12390378"/>
  <way id="96934304" version="4" timestamp="2012-07-20T22:16:54Z" uid="722137" user="OSMF Redaction Account" changeset="12394520"/>
  <way id="96934305" version="3" timestamp="2012-07-20T20:26:16Z" uid="722137" user="OSMF Redaction Account" changeset="12390378"/>
  <way id="96934306" version="2" timestamp="2012-07-20T20:25:51Z" uid="722137" user="OSMF Redaction Account" changeset="12390378"/>
  <way id="96934307" version="2" timestamp="2012-07-20T20:26:07Z" uid="722137" user="OSMF Redaction Account" changeset="12390378"/>
  <way id="96934308" version="2" timestamp="2012-07-20T20:25:52Z" uid="722137" user="OSMF Redaction Account" changeset="12390378"/>
  <way id="96934309" version="2" timestamp="2012-07-20T20:25:48Z" uid="722137" user="OSMF Redaction Account" changeset="12390378"/>
  <way id="96934310" version="4" timestamp="2012-07-20T20:26:25Z" uid="722137" user="OSMF Redaction Account" changeset="12390378"/>
  <way id="96934311" version="3" timestamp="2012-07-20T20:26:23Z" uid="722137" user="OSMF Redaction Account" changeset="12390378"/>
  <way id="96934312" version="3" timestamp="2012-07-20T22:16:42Z" uid="722137" user="OSMF Redaction Account" changeset="12394520"/>
  <way id="96934313" version="3" timestamp="2012-07-20T20:26:21Z" uid="722137" user="OSMF Redaction Account" changeset="12390378"/>
  <way id="96934314" version="3" timestamp="2012-07-20T22:16:44Z" uid="722137" user="OSMF Redaction Account" changeset="12394520"/>
  <way id="96934315" version="3" timestamp="2012-07-20T20:26:17Z" uid="722137" user="OSMF Redaction Account" changeset="12390378"/>
  <way id="96934316" version="2" timestamp="2012-07-20T20:25:57Z" uid="722137" user="OSMF Redaction Account" changeset="12390378"/>
  <way id="96934317" version="3" timestamp="2012-07-20T22:16:51Z" uid="722137" user="OSMF Redaction Account" changeset="12394520"/>
  <way id="96934318" version="3" timestamp="2012-07-20T20:25:56Z" uid="722137" user="OSMF Redaction Account" changeset="12390378"/>
  <way id="96934320" version="2" timestamp="2012-07-20T20:26:10Z" uid="722137" user="OSMF Redaction Account" changeset="12390378"/>
  <way id="96934321" version="3" timestamp="2012-07-20T20:26:22Z" uid="722137" user="OSMF Redaction Account" changeset="12390378"/>
  <way id="96934322" version="2" timestamp="2012-07-20T20:25:53Z" uid="722137" user="OSMF Redaction Account" changeset="12390378"/>
  <way id="96934323" version="2" timestamp="2012-07-20T20:25:46Z" uid="722137" user="OSMF Redaction Account" changeset="12390357"/>
  <way id="96934324" version="2" timestamp="2012-07-20T20:25:49Z" uid="722137" user="OSMF Redaction Account" changeset="12390378"/>
  <way id="96934325" version="2" timestamp="2012-07-20T20:25:50Z" uid="722137" user="OSMF Redaction Account" changeset="12390378"/>
  <way id="96934326" version="2" timestamp="2012-07-20T20:25:46Z" uid="722137" user="OSMF Redaction Account" changeset="12390357"/>
  <way id="96934327" version="3" timestamp="2012-07-20T20:25:53Z" uid="722137" user="OSMF Redaction Account" changeset="12390378"/>
  <way id="96934328" version="2" timestamp="2012-07-20T20:26:17Z" uid="722137" user="OSMF Redaction Account" changeset="12390378"/>
  <way id="96934329" version="3" timestamp="2012-07-20T20:25:59Z" uid="722137" user="OSMF Redaction Account" changeset="12390378"/>
  <way id="96934330" version="2" timestamp="2012-07-20T20:25:46Z" uid="722137" user="OSMF Redaction Account" changeset="12390357"/>
  <way id="96934332" version="2" timestamp="2012-07-20T20:25:54Z" uid="722137" user="OSMF Redaction Account" changeset="12390378"/>
  <way id="96934333" version="2" timestamp="2012-07-20T20:25:50Z" uid="722137" user="OSMF Redaction Account" changeset="12390378"/>
  <way id="96934334" version="3" timestamp="2012-07-20T22:16:45Z" uid="722137" user="OSMF Redaction Account" changeset="12394520"/>
  <way id="96934335" version="2" timestamp="2012-07-20T20:25:50Z" uid="722137" user="OSMF Redaction Account" changeset="12390378"/>
  <way id="96934336" version="2" timestamp="2012-07-20T20:25:54Z" uid="722137" user="OSMF Redaction Account" changeset="12390378"/>
  <way id="96934337" version="3" timestamp="2012-07-20T22:16:37Z" uid="722137" user="OSMF Redaction Account" changeset="12394520"/>
  <way id="96934339" version="2" timestamp="2012-07-20T20:25:47Z" uid="722137" user="OSMF Redaction Account" changeset="12390357"/>
  <way id="96934340" version="2" timestamp="2012-07-20T20:25:46Z" uid="722137" user="OSMF Redaction Account" changeset="12390357"/>
  <way id="96934341" version="3" timestamp="2012-07-20T20:26:20Z" uid="722137" user="OSMF Redaction Account" changeset="12390378"/>
  <way id="96934342" version="2" timestamp="2012-07-20T20:25:55Z" uid="722137" user="OSMF Redaction Account" changeset="12390378"/>
  <way id="96934343" version="2" timestamp="2012-07-20T20:25:51Z" uid="722137" user="OSMF Redaction Account" changeset="12390378"/>
  <way id="96934344" version="3" timestamp="2012-07-20T20:26:11Z" uid="722137" user="OSMF Redaction Account" changeset="12390378"/>
  <way id="96934345" version="3" timestamp="2012-07-20T20:26:22Z" uid="722137" user="OSMF Redaction Account" changeset="12390378"/>
  <way id="96934346" version="2" timestamp="2012-07-20T20:25:45Z" uid="722137" user="OSMF Redaction Account" changeset="12390357"/>
  <way id="96934347" version="3" timestamp="2012-07-20T20:26:17Z" uid="722137" user="OSMF Redaction Account" changeset="12390378"/>
  <way id="96934348" version="2" timestamp="2012-07-20T20:25:53Z" uid="722137" user="OSMF Redaction Account" changeset="12390378"/>
  <way id="96934349" version="2" timestamp="2012-07-20T20:25:50Z" uid="722137" user="OSMF Redaction Account" changeset="12390378"/>
  <way id="96934350" version="3" timestamp="2012-07-20T22:16:39Z" uid="722137" user="OSMF Redaction Account" changeset="12394520"/>
  <way id="96934351" version="2" timestamp="2012-07-20T20:25:49Z" uid="722137" user="OSMF Redaction Account" changeset="12390378"/>
  <way id="96934352" version="3" timestamp="2012-07-20T20:26:23Z" uid="722137" user="OSMF Redaction Account" changeset="12390378"/>
  <way id="96934353" version="2" timestamp="2012-07-20T20:25:46Z" uid="722137" user="OSMF Redaction Account" changeset="12390357"/>
  <way id="96934354" version="2" timestamp="2012-07-20T20:25:52Z" uid="722137" user="OSMF Redaction Account" changeset="12390378"/>
  <way id="96934355" version="3" timestamp="2012-07-20T20:26:19Z" uid="722137" user="OSMF Redaction Account" changeset="12390378"/>
  <way id="96934356" version="2" timestamp="2012-07-20T20:25:51Z" uid="722137" user="OSMF Redaction Account" changeset="12390378"/>
  <way id="96934357" version="2" timestamp="2012-07-20T20:25:52Z" uid="722137" user="OSMF Redaction Account" changeset="12390378"/>
  <way id="96934358" version="2" timestamp="2012-07-20T20:25:52Z" uid="722137" user="OSMF Redaction Account" changeset="12390378"/>
  <way id="96934359" version="3" timestamp="2012-07-20T20:26:13Z" uid="722137" user="OSMF Redaction Account" changeset="12390378"/>
  <way id="96934360" version="2" timestamp="2012-07-20T20:25:50Z" uid="722137" user="OSMF Redaction Account" changeset="12390378"/>
  <way id="96934361" version="3" timestamp="2012-07-20T20:26:09Z" uid="722137" user="OSMF Redaction Account" changeset="12390378"/>
  <way id="96934362" version="2" timestamp="2012-07-20T22:16:52Z" uid="722137" user="OSMF Redaction Account" changeset="12394520"/>
  <way id="96934363" version="2" timestamp="2012-07-20T20:25:50Z" uid="722137" user="OSMF Redaction Account" changeset="12390378"/>
  <way id="96934364" version="3" timestamp="2012-07-20T20:26:11Z" uid="722137" user="OSMF Redaction Account" changeset="12390378"/>
  <way id="96934365" version="4" timestamp="2012-07-20T20:26:22Z" uid="722137" user="OSMF Redaction Account" changeset="12390378"/>
  <way id="96934366" version="2" timestamp="2012-07-20T22:16:36Z" uid="722137" user="OSMF Redaction Account" changeset="12394520"/>
  <way id="96934367" version="3" timestamp="2012-07-20T22:16:40Z" uid="722137" user="OSMF Redaction Account" changeset="12394520"/>
  <way id="96934368" version="2" timestamp="2012-07-20T20:25:46Z" uid="722137" user="OSMF Redaction Account" changeset="12390357"/>
  <way id="96934369" version="3" timestamp="2012-07-20T20:26:20Z" uid="722137" user="OSMF Redaction Account" changeset="12390378"/>
  <way id="96934370" version="2" timestamp="2012-07-20T20:25:56Z" uid="722137" user="OSMF Redaction Account" changeset="12390378"/>
  <way id="96934371" version="4" timestamp="2012-07-20T20:26:23Z" uid="722137" user="OSMF Redaction Account" changeset="12390378"/>
  <way id="96934372" version="3" timestamp="2012-07-20T22:16:42Z" uid="722137" user="OSMF Redaction Account" changeset="12394520"/>
  <way id="96934373" version="2" timestamp="2012-07-20T20:25:51Z" uid="722137" user="OSMF Redaction Account" changeset="12390378"/>
  <way id="96934374" version="3" timestamp="2012-07-20T20:26:22Z" uid="722137" user="OSMF Redaction Account" changeset="12390378"/>
  <way id="96934375" version="4" timestamp="2012-07-20T22:16:40Z" uid="722137" user="OSMF Redaction Account" changeset="12394520"/>
  <way id="96934376" version="4" timestamp="2012-07-20T20:26:25Z" uid="722137" user="OSMF Redaction Account" changeset="12390378"/>
  <way id="96934377" version="2" timestamp="2012-07-20T20:25:53Z" uid="722137" user="OSMF Redaction Account" changeset="12390378"/>
  <way id="96934378" version="2" timestamp="2012-07-20T20:25:56Z" uid="722137" user="OSMF Redaction Account" changeset="12390378"/>
  <way id="96934379" version="2" timestamp="2012-07-20T20:25:55Z" uid="722137" user="OSMF Redaction Account" changeset="12390378"/>
  <way id="96934380" version="2" timestamp="2012-07-20T20:25:50Z" uid="722137" user="OSMF Redaction Account" changeset="12390378"/>
  <way id="96934381" version="2" timestamp="2012-07-20T20:25:49Z" uid="722137" user="OSMF Redaction Account" changeset="12390378"/>
  <way id="96934382" version="2" timestamp="2012-07-20T20:25:45Z" uid="722137" user="OSMF Redaction Account" changeset="12390357"/>
  <way id="96934383" version="4" timestamp="2012-07-20T20:26:25Z" uid="722137" user="OSMF Redaction Account" changeset="12390378"/>
  <way id="96934387" version="3" timestamp="2012-07-20T22:16:50Z" uid="722137" user="OSMF Redaction Account" changeset="12394520"/>
  <way id="96934388" version="2" timestamp="2012-07-20T20:25:50Z" uid="722137" user="OSMF Redaction Account" changeset="12390378"/>
  <way id="96934390" version="2" timestamp="2012-07-20T20:25:49Z" uid="722137" user="OSMF Redaction Account" changeset="12390378"/>
  <way id="96934394" version="3" timestamp="2012-07-20T20:26:23Z" uid="722137" user="OSMF Redaction Account" changeset="12390378"/>
  <way id="96934396" version="3" timestamp="2012-07-20T20:26:12Z" uid="722137" user="OSMF Redaction Account" changeset="12390378"/>
  <way id="96934401" version="3" timestamp="2012-07-20T22:16:39Z" uid="722137" user="OSMF Redaction Account" changeset="12394520"/>
  <way id="96934402" version="3" timestamp="2012-07-20T22:16:43Z" uid="722137" user="OSMF Redaction Account" changeset="12394520"/>
  <way id="96934405" version="3" timestamp="2012-07-20T20:26:14Z" uid="722137" user="OSMF Redaction Account" changeset="12390378"/>
  <way id="96934407" version="3" timestamp="2012-07-20T20:26:22Z" uid="722137" user="OSMF Redaction Account" changeset="12390378"/>
  <way id="96934408" version="2" timestamp="2012-07-20T20:26:10Z" uid="722137" user="OSMF Redaction Account" changeset="12390378"/>
  <way id="96934410" version="2" timestamp="2012-07-20T20:26:10Z" uid="722137" user="OSMF Redaction Account" changeset="12390378"/>
  <way id="96934413" version="2" timestamp="2012-07-20T20:25:54Z" uid="722137" user="OSMF Redaction Account" changeset="12390378"/>
  <way id="96934415" version="2" timestamp="2012-07-20T20:25:51Z" uid="722137" user="OSMF Redaction Account" changeset="12390378"/>
  <way id="96934420" version="2" timestamp="2012-07-20T20:25:52Z" uid="722137" user="OSMF Redaction Account" changeset="12390378"/>
  <way id="96934421" version="3" timestamp="2012-07-20T20:26:22Z" uid="722137" user="OSMF Redaction Account" changeset="12390378"/>
  <way id="96934426" version="3" timestamp="2012-07-20T20:25:58Z" uid="722137" user="OSMF Redaction Account" changeset="12390378"/>
</osm>
