<?xml version='1.0' encoding='UTF-8'?>
<osm version="0.6" generator="libosmium/2.20.0">
  <way id="96986126" version="1" timestamp="2011-01-27T19:26:07Z" uid="115477" user="wowik" changeset="7106689">
    <nd ref="1123745359"/>
    <nd ref="1123745281"/>
    <nd ref="1123745262"/>
    <nd ref="1123745486"/>
    <nd ref="1123745359"/>
    <tag k="addr:city" v="Зеленоград"/>
    <tag k="addr:housenumber" v="4 с7"/>
    <tag k="addr:street" v="Проезд N 4922"/>
    <tag k="building" v="yes"/>
    <tag k="is_in" v="Russia"/>
  </way>
  <way id="96986126" version="2" timestamp="2011-09-13T10:26:37Z" uid="29320" user="Komяpa" changeset="9288237">
    <nd ref="1123745359"/>
    <nd ref="1123745281"/>
    <nd ref="1123745262"/>
    <nd ref="1123745486"/>
    <nd ref="1123745359"/>
    <tag k="addr:city" v="Зеленоград"/>
    <tag k="addr:country" v="RU"/>
    <tag k="addr:housenumber" v="4 с7"/>
    <tag k="addr:street" v="Проезд N 4922"/>
    <tag k="building" v="yes"/>
  </way>
  <way id="96986126" version="3" timestamp="2012-03-27T11:42:58Z" uid="481934" user="iWowik" changeset="11115472">
    <nd ref="1123745359"/>
    <nd ref="1123745281"/>
    <nd ref="1123745262"/>
    <nd ref="1123745486"/>
    <nd ref="1123745359"/>
    <tag k="addr:city" v="Зеленоград"/>
    <tag k="addr:country" v="RU"/>
    <tag k="addr:housenumber" v="4 с7"/>
    <tag k="addr:region" v="Москва"/>
    <tag k="addr:street" v="Проезд N 4922"/>
    <tag k="building" v="yes"/>
  </way>
  <way id="96986127" version="1" timestamp="2011-01-27T19:26:07Z" uid="115477" user="wowik" changeset="7106689">
    <nd ref="1123745279"/>
    <nd ref="1123745484"/>
    <nd ref="1123745323"/>
    <nd ref="1123745543"/>
    <nd ref="1123745279"/>
    <tag k="building" v="yes"/>
  </way>
  <way id="96986127" version="2" timestamp="2011-01-28T15:07:32Z" uid="241531" user="dik_man" changeset="7113716"/>
  <way id="96986128" version="1" timestamp="2011-01-27T19:26:07Z" uid="115477" user="wowik" changeset="7106689">
    <nd ref="1123745365"/>
    <nd ref="428893571"/>
    <nd ref="428893548"/>
    <nd ref="1123745480"/>
    <nd ref="1123745365"/>
    <tag k="addr:city" v="Зеленоград"/>
    <tag k="addr:housenumber" v="5 с19"/>
    <tag k="addr:street" v="Проезд N 4806"/>
    <tag k="amenity" v="university"/>
    <tag k="building" v="yes"/>
    <tag k="is_in" v="Russia"/>
    <tag k="leisure" v="sports_centre"/>
  </way>
  <way id="96986128" version="2" timestamp="2011-01-28T08:45:54Z" uid="241531" user="dik_man" changeset="7110830">
    <nd ref="1123745365"/>
    <nd ref="428893571"/>
    <nd ref="428893548"/>
    <nd ref="1123745480"/>
    <nd ref="1123745365"/>
    <tag k="addr:city" v="Зеленоград"/>
    <tag k="addr:housenumber" v="5 с19"/>
    <tag k="addr:street" v="Проезд N 4806"/>
    <tag k="amenity" v="university"/>
    <tag k="building" v="yes"/>
    <tag k="is_in" v="Russia"/>
  </way>
  <way id="96986128" version="3" timestamp="2011-09-13T10:27:24Z" uid="29320" user="Komяpa" changeset="9288237">
    <nd ref="1123745365"/>
    <nd ref="428893571"/>
    <nd ref="428893548"/>
    <nd ref="1123745480"/>
    <nd ref="1123745365"/>
    <tag k="addr:city" v="Зеленоград"/>
    <tag k="addr:country" v="RU"/>
    <tag k="addr:housenumber" v="5 с19"/>
    <tag k="addr:street" v="Проезд N 4806"/>
    <tag k="amenity" v="university"/>
    <tag k="building" v="yes"/>
  </way>
  <way id="96986128" version="4" timestamp="2012-03-27T11:44:20Z" uid="481934" user="iWowik" changeset="11115472">
    <nd ref="1123745365"/>
    <nd ref="428893571"/>
    <nd ref="428893548"/>
    <nd ref="1123745480"/>
    <nd ref="1123745365"/>
    <tag k="addr:city" v="Зеленоград"/>
    <tag k="addr:country" v="RU"/>
    <tag k="addr:housenumber" v="5 с19"/>
    <tag k="addr:region" v="Москва"/>
    <tag k="addr:street" v="Проезд N 4806"/>
    <tag k="amenity" v="university"/>
    <tag k="building" v="yes"/>
  </way>
  <way id="96986129" version="1" timestamp="2011-01-27T19:26:07Z" uid="115477" user="wowik" changeset="7106689">
    <nd ref="1123745343"/>
    <nd ref="425870243"/>
    <nd ref="1123745566"/>
    <nd ref="1123745550"/>
    <nd ref="1123745385"/>
    <nd ref="1123745179"/>
    <nd ref="1123745445"/>
    <nd ref="1123745426"/>
    <nd ref="1123745343"/>
    <tag k="addr:city" v="Зеленоград"/>
    <tag k="addr:housenumber" v="5 с17"/>
    <tag k="addr:street" v="Проезд N 4806"/>
    <tag k="amenity" v="university"/>
    <tag k="building" v="yes"/>
    <tag k="is_in" v="Russia"/>
  </way>
  <way id="96986129" version="2" timestamp="2011-09-13T10:27:24Z" uid="29320" user="Komяpa" changeset="9288237">
    <nd ref="1123745343"/>
    <nd ref="425870243"/>
    <nd ref="1123745566"/>
    <nd ref="1123745550"/>
    <nd ref="1123745385"/>
    <nd ref="1123745179"/>
    <nd ref="1123745445"/>
    <nd ref="1123745426"/>
    <nd ref="1123745343"/>
    <tag k="addr:city" v="Зеленоград"/>
    <tag k="addr:country" v="RU"/>
    <tag k="addr:housenumber" v="5 с17"/>
    <tag k="addr:street" v="Проезд N 4806"/>
    <tag k="amenity" v="university"/>
    <tag k="building" v="yes"/>
  </way>
  <way id="96986129" version="3" timestamp="2012-03-27T11:44:20Z" uid="481934" user="iWowik" changeset="11115472">
    <nd ref="1123745343"/>
    <nd ref="425870243"/>
    <nd ref="1123745566"/>
    <nd ref="1123745550"/>
    <nd ref="1123745385"/>
    <nd ref="1123745179"/>
    <nd ref="1123745445"/>
    <nd ref="1123745426"/>
    <nd ref="1123745343"/>
    <tag k="addr:city" v="Зеленоград"/>
    <tag k="addr:country" v="RU"/>
    <tag k="addr:housenumber" v="5 с17"/>
    <tag k="addr:region" v="Москва"/>
    <tag k="addr:street" v="Проезд N 4806"/>
    <tag k="amenity" v="university"/>
    <tag k="building" v="yes"/>
  </way>
  <way id="96986130" version="1" timestamp="2011-01-27T19:26:08Z" uid="115477" user="wowik" changeset="7106689">
    <nd ref="1123745304"/>
    <nd ref="1123745177"/>
    <nd ref="1123745444"/>
    <nd ref="1123745285"/>
    <nd ref="1123745304"/>
    <tag k="building" v="yes"/>
  </way>
  <way id="96986130" version="2" timestamp="2012-03-27T11:51:25Z" uid="481934" user="iWowik" changeset="11115472">
    <nd ref="1123745304"/>
    <nd ref="1123745177"/>
    <nd ref="1123745444"/>
    <nd ref="1123745285"/>
    <nd ref="1123745304"/>
    <tag k="addr:city" v="Зеленоград"/>
    <tag k="addr:country" v="RU"/>
    <tag k="addr:region" v="Москва"/>
    <tag k="building" v="yes"/>
  </way>
  <way id="96986131" version="1" timestamp="2011-01-27T19:26:08Z" uid="115477" user="wowik" changeset="7106689">
    <nd ref="1123745465"/>
    <nd ref="1123745380"/>
    <nd ref="1123745164"/>
    <nd ref="1123745436"/>
    <nd ref="1123745465"/>
    <tag k="addr:city" v="Зеленоград"/>
    <tag k="addr:street" v="Проезд N 4922"/>
    <tag k="building" v="yes"/>
    <tag k="is_in" v="Russia"/>
  </way>
  <way id="96986131" version="2" timestamp="2011-09-13T10:38:48Z" uid="29320" user="Komяpa" changeset="9288237">
    <nd ref="1123745465"/>
    <nd ref="1123745380"/>
    <nd ref="1123745164"/>
    <nd ref="1123745436"/>
    <nd ref="1123745465"/>
    <tag k="addr:city" v="Зеленоград"/>
    <tag k="addr:country" v="RU"/>
    <tag k="addr:street" v="Проезд N 4922"/>
    <tag k="building" v="yes"/>
  </way>
  <way id="96986131" version="3" timestamp="2012-03-27T11:53:05Z" uid="481934" user="iWowik" changeset="11115472">
    <nd ref="1123745465"/>
    <nd ref="1123745380"/>
    <nd ref="1123745164"/>
    <nd ref="1123745436"/>
    <nd ref="1123745465"/>
    <tag k="addr:city" v="Зеленоград"/>
    <tag k="addr:country" v="RU"/>
    <tag k="addr:region" v="Москва"/>
    <tag k="addr:street" v="Проезд N 4922"/>
    <tag k="building" v="yes"/>
  </way>
  <way id="96986132" version="1" timestamp="2011-01-27T19:26:08Z" uid="115477" user="wowik" changeset="7106689">
    <nd ref="1123745300"/>
    <nd ref="1123745169"/>
    <nd ref="1123745137"/>
    <nd ref="1123745423"/>
    <nd ref="1123745267"/>
    <nd ref="1123745488"/>
    <nd ref="1123745475"/>
    <nd ref="1123745312"/>
    <nd ref="1123745300"/>
    <tag k="building" v="yes"/>
  </way>
  <way id="96986132" version="2" timestamp="2012-03-27T11:55:45Z" uid="481934" user="iWowik" changeset="11115472">
    <nd ref="1123745300"/>
    <nd ref="1123745169"/>
    <nd ref="1123745137"/>
    <nd ref="1123745423"/>
    <nd ref="1123745267"/>
    <nd ref="1123745488"/>
    <nd ref="1123745475"/>
    <nd ref="1123745312"/>
    <nd ref="1123745300"/>
    <tag k="addr:city" v="Зеленоград"/>
    <tag k="addr:country" v="RU"/>
    <tag k="addr:region" v="Москва"/>
    <tag k="building" v="yes"/>
  </way>
  <way id="96986133" version="1" timestamp="2011-01-27T19:26:08Z" uid="115477" user="wowik" changeset="7106689">
    <nd ref="1012270617"/>
    <nd ref="1012270627"/>
    <nd ref="1012270628"/>
    <nd ref="1012270629"/>
    <nd ref="1012270630"/>
    <nd ref="1012270632"/>
    <nd ref="1012270595"/>
    <nd ref="1012270596"/>
    <nd ref="1012270597"/>
    <nd ref="1012270599"/>
    <nd ref="1012270601"/>
    <nd ref="1012270608"/>
    <nd ref="1012270609"/>
    <nd ref="1012270611"/>
    <nd ref="1012270615"/>
    <nd ref="1012270616"/>
    <nd ref="1012270617"/>
    <tag k="landuse" v="grass"/>
  </way>
  <way id="96986134" version="1" timestamp="2011-01-27T19:26:08Z" uid="115477" user="wowik" changeset="7106689">
    <nd ref="1123745316"/>
    <nd ref="1123745208"/>
    <nd ref="1123745460"/>
    <nd ref="1123745440"/>
    <nd ref="1123745316"/>
    <tag k="building" v="yes"/>
  </way>
  <way id="96986134" version="2" timestamp="2012-03-27T11:53:10Z" uid="481934" user="iWowik" changeset="11115472">
    <nd ref="1123745316"/>
    <nd ref="1123745208"/>
    <nd ref="1123745460"/>
    <nd ref="1123745440"/>
    <nd ref="1123745316"/>
    <tag k="addr:city" v="Зеленоград"/>
    <tag k="addr:country" v="RU"/>
    <tag k="addr:region" v="Москва"/>
    <tag k="building" v="yes"/>
  </way>
  <way id="96986135" version="1" timestamp="2011-01-27T19:26:08Z" uid="115477" user="wowik" changeset="7106689">
    <nd ref="1123745403"/>
    <nd ref="1123745322"/>
    <nd ref="1123745542"/>
    <nd ref="1123745529"/>
    <nd ref="1123745403"/>
    <tag k="addr:city" v="Зеленоград"/>
    <tag k="addr:street" v="Проезд N 4806"/>
    <tag k="building" v="yes"/>
    <tag k="building:levels" v="1"/>
    <tag k="cladr:code" v="77000002000453700"/>
    <tag k="is_in" v="Russia"/>
  </way>
  <way id="96986135" version="2" timestamp="2011-09-13T10:38:48Z" uid="29320" user="Komяpa" changeset="9288237">
    <nd ref="1123745403"/>
    <nd ref="1123745322"/>
    <nd ref="1123745542"/>
    <nd ref="1123745529"/>
    <nd ref="1123745403"/>
    <tag k="addr:city" v="Зеленоград"/>
    <tag k="addr:country" v="RU"/>
    <tag k="addr:street" v="Проезд N 4806"/>
    <tag k="building" v="yes"/>
    <tag k="building:levels" v="1"/>
    <tag k="cladr:code" v="77000002000453700"/>
  </way>
  <way id="96986135" version="3" timestamp="2012-03-27T11:50:27Z" uid="481934" user="iWowik" changeset="11115472">
    <nd ref="1123745403"/>
    <nd ref="1123745322"/>
    <nd ref="1123745542"/>
    <nd ref="1123745529"/>
    <nd ref="1123745403"/>
    <tag k="addr:city" v="Зеленоград"/>
    <tag k="addr:country" v="RU"/>
    <tag k="addr:region" v="Москва"/>
    <tag k="addr:street" v="Проезд N 4806"/>
    <tag k="building" v="yes"/>
    <tag k="building:levels" v="1"/>
    <tag k="cladr:code" v="77000002000453700"/>
  </way>
  <way id="96986136" version="1" timestamp="2011-01-27T19:26:08Z" uid="115477" user="wowik" changeset="7106689">
    <nd ref="1123745242"/>
    <nd ref="1123745551"/>
    <nd ref="1123745350"/>
    <nd ref="1123745143"/>
    <nd ref="428893618"/>
    <nd ref="428893489"/>
    <nd ref="428893674"/>
    <nd ref="428893622"/>
    <nd ref="428893490"/>
    <nd ref="1123745416"/>
    <nd ref="1123745242"/>
    <tag k="addr:city" v="Зеленоград"/>
    <tag k="addr:housenumber" v="5 с6"/>
    <tag k="addr:street" v="Проезд N 4806"/>
    <tag k="building" v="yes"/>
    <tag k="is_in" v="Russia"/>
    <tag k="man_made" v="works"/>
  </way>
  <way id="96986136" version="2" timestamp="2011-09-13T10:27:28Z" uid="29320" user="Komяpa" changeset="9288237">
    <nd ref="1123745242"/>
    <nd ref="1123745551"/>
    <nd ref="1123745350"/>
    <nd ref="1123745143"/>
    <nd ref="428893618"/>
    <nd ref="428893489"/>
    <nd ref="428893674"/>
    <nd ref="428893622"/>
    <nd ref="428893490"/>
    <nd ref="1123745416"/>
    <nd ref="1123745242"/>
    <tag k="addr:city" v="Зеленоград"/>
    <tag k="addr:country" v="RU"/>
    <tag k="addr:housenumber" v="5 с6"/>
    <tag k="addr:street" v="Проезд N 4806"/>
    <tag k="building" v="yes"/>
    <tag k="man_made" v="works"/>
  </way>
  <way id="96986136" version="3" timestamp="2012-03-27T11:44:36Z" uid="481934" user="iWowik" changeset="11115472">
    <nd ref="1123745242"/>
    <nd ref="1123745551"/>
    <nd ref="1123745350"/>
    <nd ref="1123745143"/>
    <nd ref="428893618"/>
    <nd ref="428893489"/>
    <nd ref="428893674"/>
    <nd ref="428893622"/>
    <nd ref="428893490"/>
    <nd ref="1123745416"/>
    <nd ref="1123745242"/>
    <tag k="addr:city" v="Зеленоград"/>
    <tag k="addr:country" v="RU"/>
    <tag k="addr:housenumber" v="5 с6"/>
    <tag k="addr:region" v="Москва"/>
    <tag k="addr:street" v="Проезд N 4806"/>
    <tag k="building" v="yes"/>
    <tag k="man_made" v="works"/>
  </way>
  <way id="96986137" version="1" timestamp="2011-01-27T19:26:09Z" uid="115477" user="wowik" changeset="7106689">
    <nd ref="1123745509"/>
    <nd ref="1123745424"/>
    <nd ref="1123745270"/>
    <nd ref="1123745490"/>
    <nd ref="1123745509"/>
    <tag k="addr:city" v="Зеленоград"/>
    <tag k="addr:street" v="Проезд N 4922"/>
    <tag k="building" v="yes"/>
    <tag k="is_in" v="Russia"/>
  </way>
  <way id="96986137" version="2" timestamp="2011-09-13T10:38:48Z" uid="29320" user="Komяpa" changeset="9288237">
    <nd ref="1123745509"/>
    <nd ref="1123745424"/>
    <nd ref="1123745270"/>
    <nd ref="1123745490"/>
    <nd ref="1123745509"/>
    <tag k="addr:city" v="Зеленоград"/>
    <tag k="addr:country" v="RU"/>
    <tag k="addr:street" v="Проезд N 4922"/>
    <tag k="building" v="yes"/>
  </way>
  <way id="96986137" version="3" timestamp="2012-03-27T11:51:33Z" uid="481934" user="iWowik" changeset="11115472">
    <nd ref="1123745509"/>
    <nd ref="1123745424"/>
    <nd ref="1123745270"/>
    <nd ref="1123745490"/>
    <nd ref="1123745509"/>
    <tag k="addr:city" v="Зеленоград"/>
    <tag k="addr:country" v="RU"/>
    <tag k="addr:region" v="Москва"/>
    <tag k="addr:street" v="Проезд N 4922"/>
    <tag k="building" v="yes"/>
  </way>
  <way id="96986138" version="1" timestamp="2011-01-27T19:26:09Z" uid="115477" user="wowik" changeset="7106689">
    <nd ref="1123745567"/>
    <nd ref="1123745481"/>
    <nd ref="1123745471"/>
    <nd ref="1123745307"/>
    <nd ref="1123745567"/>
    <tag k="addr:city" v="Зеленоград"/>
    <tag k="addr:street" v="Проезд N 4922"/>
    <tag k="building" v="yes"/>
    <tag k="is_in" v="Russia"/>
  </way>
  <way id="96986138" version="2" timestamp="2011-09-13T10:38:48Z" uid="29320" user="Komяpa" changeset="9288237">
    <nd ref="1123745567"/>
    <nd ref="1123745481"/>
    <nd ref="1123745471"/>
    <nd ref="1123745307"/>
    <nd ref="1123745567"/>
    <tag k="addr:city" v="Зеленоград"/>
    <tag k="addr:country" v="RU"/>
    <tag k="addr:street" v="Проезд N 4922"/>
    <tag k="building" v="yes"/>
  </way>
  <way id="96986138" version="3" timestamp="2012-03-27T11:50:44Z" uid="481934" user="iWowik" changeset="11115472">
    <nd ref="1123745567"/>
    <nd ref="1123745481"/>
    <nd ref="1123745471"/>
    <nd ref="1123745307"/>
    <nd ref="1123745567"/>
    <tag k="addr:city" v="Зеленоград"/>
    <tag k="addr:country" v="RU"/>
    <tag k="addr:region" v="Москва"/>
    <tag k="addr:street" v="Проезд N 4922"/>
    <tag k="building" v="yes"/>
  </way>
  <way id="96986139" version="1" timestamp="2011-01-27T19:26:09Z" uid="115477" user="wowik" changeset="7106689">
    <nd ref="1123745443"/>
    <nd ref="1123745362"/>
    <nd ref="1123745505"/>
    <nd ref="1123745246"/>
    <nd ref="1123745443"/>
    <tag k="building" v="yes"/>
  </way>
  <way id="96986139" version="2" timestamp="2012-03-27T11:52:28Z" uid="481934" user="iWowik" changeset="11115472">
    <nd ref="1123745443"/>
    <nd ref="1123745362"/>
    <nd ref="1123745505"/>
    <nd ref="1123745246"/>
    <nd ref="1123745443"/>
    <tag k="addr:city" v="Зеленоград"/>
    <tag k="addr:country" v="RU"/>
    <tag k="addr:region" v="Москва"/>
    <tag k="building" v="yes"/>
  </way>
  <way id="96986140" version="1" timestamp="2011-01-27T19:26:09Z" uid="115477" user="wowik" changeset="7106689">
    <nd ref="1123745295"/>
    <nd ref="1123745150"/>
    <nd ref="1123745130"/>
    <nd ref="1123745411"/>
    <nd ref="1123745295"/>
    <tag k="addr:city" v="Зеленоград"/>
    <tag k="addr:street" v="Проезд N 4922"/>
    <tag k="building" v="yes"/>
    <tag k="is_in" v="Russia"/>
  </way>
  <way id="96986140" version="2" timestamp="2011-09-13T10:38:48Z" uid="29320" user="Komяpa" changeset="9288237">
    <nd ref="1123745295"/>
    <nd ref="1123745150"/>
    <nd ref="1123745130"/>
    <nd ref="1123745411"/>
    <nd ref="1123745295"/>
    <tag k="addr:city" v="Зеленоград"/>
    <tag k="addr:country" v="RU"/>
    <tag k="addr:street" v="Проезд N 4922"/>
    <tag k="building" v="yes"/>
  </way>
  <way id="96986140" version="3" timestamp="2012-03-27T11:51:44Z" uid="481934" user="iWowik" changeset="11115472">
    <nd ref="1123745295"/>
    <nd ref="1123745150"/>
    <nd ref="1123745130"/>
    <nd ref="1123745411"/>
    <nd ref="1123745295"/>
    <tag k="addr:city" v="Зеленоград"/>
    <tag k="addr:country" v="RU"/>
    <tag k="addr:region" v="Москва"/>
    <tag k="addr:street" v="Проезд N 4922"/>
    <tag k="building" v="yes"/>
  </way>
  <way id="96986141" version="1" timestamp="2011-01-27T19:26:09Z" uid="115477" user="wowik" changeset="7106689">
    <nd ref="1123745450"/>
    <nd ref="1123745370"/>
    <nd ref="1123745357"/>
    <nd ref="1123745128"/>
    <nd ref="1123745450"/>
    <tag k="building" v="yes"/>
    <tag k="note" v="tribune"/>
  </way>
  <way id="96986141" version="2" timestamp="2012-03-27T11:53:18Z" uid="481934" user="iWowik" changeset="11115472">
    <nd ref="1123745450"/>
    <nd ref="1123745370"/>
    <nd ref="1123745357"/>
    <nd ref="1123745128"/>
    <nd ref="1123745450"/>
    <tag k="addr:city" v="Зеленоград"/>
    <tag k="addr:country" v="RU"/>
    <tag k="addr:region" v="Москва"/>
    <tag k="building" v="yes"/>
    <tag k="note" v="tribune"/>
  </way>
  <way id="96986142" version="1" timestamp="2011-01-27T19:26:09Z" uid="115477" user="wowik" changeset="7106689">
    <nd ref="1123745449"/>
    <nd ref="1123745517"/>
    <nd ref="1123745356"/>
    <nd ref="1123745127"/>
    <nd ref="1123745410"/>
    <nd ref="1123745400"/>
    <nd ref="1123745215"/>
    <nd ref="1123745463"/>
    <nd ref="1123745449"/>
    <tag k="addr:city" v="Зеленоград"/>
    <tag k="addr:street" v="Проезд N 4922"/>
    <tag k="building" v="yes"/>
    <tag k="is_in" v="Russia"/>
  </way>
  <way id="96986142" version="2" timestamp="2011-09-13T10:38:49Z" uid="29320" user="Komяpa" changeset="9288237">
    <nd ref="1123745449"/>
    <nd ref="1123745517"/>
    <nd ref="1123745356"/>
    <nd ref="1123745127"/>
    <nd ref="1123745410"/>
    <nd ref="1123745400"/>
    <nd ref="1123745215"/>
    <nd ref="1123745463"/>
    <nd ref="1123745449"/>
    <tag k="addr:city" v="Зеленоград"/>
    <tag k="addr:country" v="RU"/>
    <tag k="addr:street" v="Проезд N 4922"/>
    <tag k="building" v="yes"/>
  </way>
  <way id="96986142" version="3" timestamp="2012-03-27T11:55:46Z" uid="481934" user="iWowik" changeset="11115472">
    <nd ref="1123745449"/>
    <nd ref="1123745517"/>
    <nd ref="1123745356"/>
    <nd ref="1123745127"/>
    <nd ref="1123745410"/>
    <nd ref="1123745400"/>
    <nd ref="1123745215"/>
    <nd ref="1123745463"/>
    <nd ref="1123745449"/>
    <tag k="addr:city" v="Зеленоград"/>
    <tag k="addr:country" v="RU"/>
    <tag k="addr:region" v="Москва"/>
    <tag k="addr:street" v="Проезд N 4922"/>
    <tag k="building" v="yes"/>
  </way>
  <way id="96986143" version="1" timestamp="2011-01-27T19:26:10Z" uid="115477" user="wowik" changeset="7106689">
    <nd ref="1123745454"/>
    <nd ref="1123745372"/>
    <nd ref="1123745358"/>
    <nd ref="1123745129"/>
    <nd ref="1123745454"/>
    <tag k="addr:city" v="Зеленоград"/>
    <tag k="addr:housenumber" v="3"/>
    <tag k="addr:street" v="Проезд N 4806"/>
    <tag k="building" v="yes"/>
    <tag k="cladr:code" v="77000002000453700"/>
    <tag k="is_in" v="Russia"/>
  </way>
  <way id="96986143" version="2" timestamp="2011-09-13T10:25:20Z" uid="29320" user="Komяpa" changeset="9288237">
    <nd ref="1123745454"/>
    <nd ref="1123745372"/>
    <nd ref="1123745358"/>
    <nd ref="1123745129"/>
    <nd ref="1123745454"/>
    <tag k="addr:city" v="Зеленоград"/>
    <tag k="addr:country" v="RU"/>
    <tag k="addr:housenumber" v="3"/>
    <tag k="addr:street" v="Проезд N 4806"/>
    <tag k="building" v="yes"/>
    <tag k="cladr:code" v="77000002000453700"/>
  </way>
  <way id="96986143" version="3" timestamp="2012-03-27T11:40:41Z" uid="481934" user="iWowik" changeset="11115472">
    <nd ref="1123745454"/>
    <nd ref="1123745372"/>
    <nd ref="1123745358"/>
    <nd ref="1123745129"/>
    <nd ref="1123745454"/>
    <tag k="addr:city" v="Зеленоград"/>
    <tag k="addr:country" v="RU"/>
    <tag k="addr:housenumber" v="3"/>
    <tag k="addr:region" v="Москва"/>
    <tag k="addr:street" v="Проезд N 4806"/>
    <tag k="building" v="yes"/>
    <tag k="cladr:code" v="77000002000453700"/>
  </way>
  <way id="96986144" version="1" timestamp="2011-01-27T19:26:10Z" uid="115477" user="wowik" changeset="7106689">
    <nd ref="1123745308"/>
    <nd ref="1123745183"/>
    <nd ref="1123745447"/>
    <nd ref="1123745286"/>
    <nd ref="1123745308"/>
    <tag k="building" v="yes"/>
  </way>
  <way id="96986144" version="2" timestamp="2012-03-27T11:50:50Z" uid="481934" user="iWowik" changeset="11115472">
    <nd ref="1123745308"/>
    <nd ref="1123745183"/>
    <nd ref="1123745447"/>
    <nd ref="1123745286"/>
    <nd ref="1123745308"/>
    <tag k="addr:city" v="Зеленоград"/>
    <tag k="addr:country" v="RU"/>
    <tag k="addr:region" v="Москва"/>
    <tag k="building" v="yes"/>
  </way>
  <way id="96986145" version="1" timestamp="2011-01-27T19:26:10Z" uid="115477" user="wowik" changeset="7106689">
    <nd ref="1123745122"/>
    <nd ref="1123745493"/>
    <nd ref="1123745331"/>
    <nd ref="1123745553"/>
    <nd ref="1123745122"/>
    <tag k="building" v="yes"/>
  </way>
  <way id="96986145" version="2" timestamp="2012-03-27T11:52:36Z" uid="481934" user="iWowik" changeset="11115472">
    <nd ref="1123745122"/>
    <nd ref="1123745493"/>
    <nd ref="1123745331"/>
    <nd ref="1123745553"/>
    <nd ref="1123745122"/>
    <tag k="addr:city" v="Зеленоград"/>
    <tag k="addr:country" v="RU"/>
    <tag k="addr:region" v="Москва"/>
    <tag k="building" v="yes"/>
  </way>
  <way id="96986146" version="1" timestamp="2011-01-27T19:26:10Z" uid="115477" user="wowik" changeset="7106689">
    <nd ref="1123745256"/>
    <nd ref="1123745568"/>
    <nd ref="1123745402"/>
    <nd ref="1123745222"/>
    <nd ref="1123745256"/>
    <tag k="addr:city" v="Зеленоград"/>
    <tag k="addr:street" v="Проезд N 4922"/>
    <tag k="building" v="yes"/>
    <tag k="is_in" v="Russia"/>
  </way>
  <way id="96986146" version="2" timestamp="2011-09-13T10:38:49Z" uid="29320" user="Komяpa" changeset="9288237">
    <nd ref="1123745256"/>
    <nd ref="1123745568"/>
    <nd ref="1123745402"/>
    <nd ref="1123745222"/>
    <nd ref="1123745256"/>
    <tag k="addr:city" v="Зеленоград"/>
    <tag k="addr:country" v="RU"/>
    <tag k="addr:street" v="Проезд N 4922"/>
    <tag k="building" v="yes"/>
  </way>
  <way id="96986146" version="3" timestamp="2012-03-27T11:51:49Z" uid="481934" user="iWowik" changeset="11115472">
    <nd ref="1123745256"/>
    <nd ref="1123745568"/>
    <nd ref="1123745402"/>
    <nd ref="1123745222"/>
    <nd ref="1123745256"/>
    <tag k="addr:city" v="Зеленоград"/>
    <tag k="addr:country" v="RU"/>
    <tag k="addr:region" v="Москва"/>
    <tag k="addr:street" v="Проезд N 4922"/>
    <tag k="building" v="yes"/>
  </way>
  <way id="96986147" version="1" timestamp="2011-01-27T19:26:10Z" uid="115477" user="wowik" changeset="7106689">
    <nd ref="1123745329"/>
    <nd ref="1123745393"/>
    <nd ref="1123745194"/>
    <nd ref="1123745453"/>
    <nd ref="1123745329"/>
    <tag k="addr:city" v="Зеленоград"/>
    <tag k="addr:street" v="Проезд N 4922"/>
    <tag k="building" v="yes"/>
    <tag k="is_in" v="Russia"/>
  </way>
  <way id="96986147" version="2" timestamp="2011-09-13T10:38:49Z" uid="29320" user="Komяpa" changeset="9288237">
    <nd ref="1123745329"/>
    <nd ref="1123745393"/>
    <nd ref="1123745194"/>
    <nd ref="1123745453"/>
    <nd ref="1123745329"/>
    <tag k="addr:city" v="Зеленоград"/>
    <tag k="addr:country" v="RU"/>
    <tag k="addr:street" v="Проезд N 4922"/>
    <tag k="building" v="yes"/>
  </way>
  <way id="96986147" version="3" timestamp="2012-03-27T11:53:26Z" uid="481934" user="iWowik" changeset="11115472">
    <nd ref="1123745329"/>
    <nd ref="1123745393"/>
    <nd ref="1123745194"/>
    <nd ref="1123745453"/>
    <nd ref="1123745329"/>
    <tag k="addr:city" v="Зеленоград"/>
    <tag k="addr:country" v="RU"/>
    <tag k="addr:region" v="Москва"/>
    <tag k="addr:street" v="Проезд N 4922"/>
    <tag k="building" v="yes"/>
  </way>
  <way id="96986148" version="1" timestamp="2011-01-27T19:26:10Z" uid="115477" user="wowik" changeset="7106689">
    <nd ref="1123745407"/>
    <nd ref="1123745330"/>
    <nd ref="1123745552"/>
    <nd ref="1123745202"/>
    <nd ref="1123745407"/>
    <tag k="addr:city" v="Зеленоград"/>
    <tag k="addr:street" v="Проезд N 4922"/>
    <tag k="building" v="yes"/>
    <tag k="is_in" v="Russia"/>
  </way>
  <way id="96986148" version="2" timestamp="2011-09-13T10:38:49Z" uid="29320" user="Komяpa" changeset="9288237">
    <nd ref="1123745407"/>
    <nd ref="1123745330"/>
    <nd ref="1123745552"/>
    <nd ref="1123745202"/>
    <nd ref="1123745407"/>
    <tag k="addr:city" v="Зеленоград"/>
    <tag k="addr:country" v="RU"/>
    <tag k="addr:street" v="Проезд N 4922"/>
    <tag k="building" v="yes"/>
  </way>
  <way id="96986148" version="3" timestamp="2012-03-27T11:52:44Z" uid="481934" user="iWowik" changeset="11115472">
    <nd ref="1123745407"/>
    <nd ref="1123745330"/>
    <nd ref="1123745552"/>
    <nd ref="1123745202"/>
    <nd ref="1123745407"/>
    <tag k="addr:city" v="Зеленоград"/>
    <tag k="addr:country" v="RU"/>
    <tag k="addr:region" v="Москва"/>
    <tag k="addr:street" v="Проезд N 4922"/>
    <tag k="building" v="yes"/>
  </way>
  <way id="96986149" version="1" timestamp="2011-01-27T19:26:11Z" uid="115477" user="wowik" changeset="7106689">
    <nd ref="1123745521"/>
    <nd ref="1123745439"/>
    <nd ref="1123745282"/>
    <nd ref="1123745503"/>
    <nd ref="1123745487"/>
    <nd ref="1123745325"/>
    <nd ref="1123745546"/>
    <nd ref="1123745383"/>
    <nd ref="1123745521"/>
    <tag k="leisure" v="pitch"/>
  </way>
  <way id="96986150" version="1" timestamp="2011-01-27T19:26:11Z" uid="115477" user="wowik" changeset="7106689">
    <nd ref="1123745320"/>
    <nd ref="1123745217"/>
    <nd ref="1123745418"/>
    <nd ref="1123745155"/>
    <nd ref="1123745446"/>
    <nd ref="1123745320"/>
    <tag k="addr:street" v="Проезд N 4922"/>
    <tag k="building" v="yes"/>
  </way>
  <way id="96986150" version="2" timestamp="2012-03-27T11:54:38Z" uid="481934" user="iWowik" changeset="11115472">
    <nd ref="1123745320"/>
    <nd ref="1123745217"/>
    <nd ref="1123745418"/>
    <nd ref="1123745155"/>
    <nd ref="1123745446"/>
    <nd ref="1123745320"/>
    <tag k="addr:city" v="Зеленоград"/>
    <tag k="addr:country" v="RU"/>
    <tag k="addr:region" v="Москва"/>
    <tag k="addr:street" v="Проезд N 4922"/>
    <tag k="building" v="yes"/>
  </way>
  <way id="96986151" version="1" timestamp="2011-01-27T19:26:11Z" uid="115477" user="wowik" changeset="7106689">
    <nd ref="1123745541"/>
    <nd ref="1123745464"/>
    <nd ref="1123745299"/>
    <nd ref="1123745519"/>
    <nd ref="1123745541"/>
    <tag k="addr:city" v="Зеленоград"/>
    <tag k="addr:street" v="Проезд N 4922"/>
    <tag k="building" v="yes"/>
    <tag k="is_in" v="Russia"/>
  </way>
  <way id="96986151" version="2" timestamp="2011-09-13T10:38:50Z" uid="29320" user="Komяpa" changeset="9288237">
    <nd ref="1123745541"/>
    <nd ref="1123745464"/>
    <nd ref="1123745299"/>
    <nd ref="1123745519"/>
    <nd ref="1123745541"/>
    <tag k="addr:city" v="Зеленоград"/>
    <tag k="addr:country" v="RU"/>
    <tag k="addr:street" v="Проезд N 4922"/>
    <tag k="building" v="yes"/>
  </way>
  <way id="96986151" version="3" timestamp="2012-03-27T11:50:56Z" uid="481934" user="iWowik" changeset="11115472">
    <nd ref="1123745541"/>
    <nd ref="1123745464"/>
    <nd ref="1123745299"/>
    <nd ref="1123745519"/>
    <nd ref="1123745541"/>
    <tag k="addr:city" v="Зеленоград"/>
    <tag k="addr:country" v="RU"/>
    <tag k="addr:region" v="Москва"/>
    <tag k="addr:street" v="Проезд N 4922"/>
    <tag k="building" v="yes"/>
  </way>
  <way id="96986152" version="1" timestamp="2011-01-27T19:26:11Z" uid="115477" user="wowik" changeset="7106689">
    <nd ref="1123745389"/>
    <nd ref="1123745309"/>
    <nd ref="1123745528"/>
    <nd ref="1123745367"/>
    <nd ref="1123745389"/>
    <tag k="addr:city" v="Зеленоград"/>
    <tag k="addr:street" v="Проезд N 4922"/>
    <tag k="building" v="yes"/>
    <tag k="is_in" v="Russia"/>
  </way>
  <way id="96986152" version="2" timestamp="2011-09-13T10:38:50Z" uid="29320" user="Komяpa" changeset="9288237">
    <nd ref="1123745389"/>
    <nd ref="1123745309"/>
    <nd ref="1123745528"/>
    <nd ref="1123745367"/>
    <nd ref="1123745389"/>
    <tag k="addr:city" v="Зеленоград"/>
    <tag k="addr:country" v="RU"/>
    <tag k="addr:street" v="Проезд N 4922"/>
    <tag k="building" v="yes"/>
  </way>
  <way id="96986152" version="3" timestamp="2012-03-27T11:49:59Z" uid="481934" user="iWowik" changeset="11115472">
    <nd ref="1123745389"/>
    <nd ref="1123745309"/>
    <nd ref="1123745528"/>
    <nd ref="1123745367"/>
    <nd ref="1123745389"/>
    <tag k="addr:city" v="Зеленоград"/>
    <tag k="addr:country" v="RU"/>
    <tag k="addr:region" v="Москва"/>
    <tag k="addr:street" v="Проезд N 4922"/>
    <tag k="building" v="yes"/>
  </way>
  <way id="96986153" version="1" timestamp="2011-01-27T19:26:11Z" uid="115477" user="wowik" changeset="7106689">
    <nd ref="1123745549"/>
    <nd ref="1123745467"/>
    <nd ref="1123745303"/>
    <nd ref="1123745523"/>
    <nd ref="1123745549"/>
    <tag k="natural" v="water"/>
  </way>
  <way id="96986154" version="1" timestamp="2011-01-27T19:26:11Z" uid="115477" user="wowik" changeset="7106689">
    <nd ref="1123745216"/>
    <nd ref="1123745536"/>
    <nd ref="1123745376"/>
    <nd ref="1123745153"/>
    <nd ref="1123745216"/>
    <tag k="building" v="yes"/>
    <tag k="note" v="tribune"/>
  </way>
  <way id="96986154" version="2" timestamp="2012-03-27T11:51:01Z" uid="481934" user="iWowik" changeset="11115472">
    <nd ref="1123745216"/>
    <nd ref="1123745536"/>
    <nd ref="1123745376"/>
    <nd ref="1123745153"/>
    <nd ref="1123745216"/>
    <tag k="addr:city" v="Зеленоград"/>
    <tag k="addr:country" v="RU"/>
    <tag k="addr:region" v="Москва"/>
    <tag k="building" v="yes"/>
    <tag k="note" v="tribune"/>
  </way>
  <way id="96986155" version="1" timestamp="2011-01-27T19:26:12Z" uid="115477" user="wowik" changeset="7106689">
    <nd ref="1123745504"/>
    <nd ref="1123745412"/>
    <nd ref="1123745244"/>
    <nd ref="1123745224"/>
    <nd ref="1123745504"/>
    <tag k="building" v="yes"/>
  </way>
  <way id="96986155" version="2" timestamp="2012-03-27T11:52:48Z" uid="481934" user="iWowik" changeset="11115472">
    <nd ref="1123745504"/>
    <nd ref="1123745412"/>
    <nd ref="1123745244"/>
    <nd ref="1123745224"/>
    <nd ref="1123745504"/>
    <tag k="addr:city" v="Зеленоград"/>
    <tag k="addr:country" v="RU"/>
    <tag k="addr:region" v="Москва"/>
    <tag k="building" v="yes"/>
  </way>
  <way id="96986156" version="1" timestamp="2011-01-27T19:26:12Z" uid="115477" user="wowik" changeset="7106689">
    <nd ref="1123745492"/>
    <nd ref="1123745405"/>
    <nd ref="1123745228"/>
    <nd ref="1123745197"/>
    <nd ref="1123745492"/>
    <tag k="building" v="yes"/>
  </way>
  <way id="96986156" version="2" timestamp="2012-03-27T11:52:03Z" uid="481934" user="iWowik" changeset="11115472">
    <nd ref="1123745492"/>
    <nd ref="1123745405"/>
    <nd ref="1123745228"/>
    <nd ref="1123745197"/>
    <nd ref="1123745492"/>
    <tag k="addr:city" v="Зеленоград"/>
    <tag k="addr:country" v="RU"/>
    <tag k="addr:region" v="Москва"/>
    <tag k="building" v="yes"/>
  </way>
  <way id="96986157" version="1" timestamp="2011-01-27T19:26:12Z" uid="115477" user="wowik" changeset="7106689">
    <nd ref="1123745240"/>
    <nd ref="1123745277"/>
    <nd ref="1123745500"/>
    <nd ref="1123745483"/>
    <nd ref="1123745240"/>
    <tag k="landuse" v="grass"/>
  </way>
  <way id="96986158" version="1" timestamp="2011-01-27T19:26:12Z" uid="115477" user="wowik" changeset="7106689">
    <nd ref="1123745479"/>
    <nd ref="1123745532"/>
    <nd ref="1123745452"/>
    <nd ref="1123745290"/>
    <nd ref="1123745508"/>
    <nd ref="1123745346"/>
    <nd ref="1123745336"/>
    <nd ref="1123745557"/>
    <nd ref="1123745391"/>
    <nd ref="1123745192"/>
    <nd ref="1123745154"/>
    <nd ref="1123745431"/>
    <nd ref="1123745319"/>
    <nd ref="1123745538"/>
    <nd ref="1123745377"/>
    <nd ref="1123745364"/>
    <nd ref="1123745133"/>
    <nd ref="1123745417"/>
    <nd ref="1123745248"/>
    <nd ref="1123745231"/>
    <nd ref="1123745470"/>
    <nd ref="1123745306"/>
    <nd ref="1123745525"/>
    <nd ref="1123745512"/>
    <nd ref="1123745351"/>
    <nd ref="1123745121"/>
    <nd ref="1123745406"/>
    <nd ref="1123745396"/>
    <nd ref="1123745201"/>
    <nd ref="1123745458"/>
    <nd ref="1123745294"/>
    <nd ref="1123745280"/>
    <nd ref="1123745502"/>
    <nd ref="1123745340"/>
    <nd ref="1123745561"/>
    <nd ref="1123745544"/>
    <nd ref="1123745381"/>
    <nd ref="1123745167"/>
    <nd ref="1123745438"/>
    <nd ref="1123745421"/>
    <nd ref="1123745261"/>
    <nd ref="1123745485"/>
    <nd ref="1123745324"/>
    <nd ref="1123745311"/>
    <nd ref="1123745531"/>
    <nd ref="1123745369"/>
    <nd ref="1123745135"/>
    <nd ref="1123745126"/>
    <nd ref="1123745409"/>
    <nd ref="1123745238"/>
    <nd ref="1123745474"/>
    <nd ref="1123745462"/>
    <nd ref="1123745297"/>
    <nd ref="1123745516"/>
    <nd ref="1123745355"/>
    <nd ref="1123745415"/>
    <nd ref="1123745247"/>
    <nd ref="1123745479"/>
    <nd ref="1123745318"/>
    <nd ref="1123745305"/>
    <nd ref="1123745524"/>
    <nd ref="1123745363"/>
    <nd ref="1123745132"/>
    <nd ref="1123745479"/>
    <tag k="natural" v="water"/>
  </way>
  <way id="96986158" version="2" timestamp="2011-03-05T19:34:06Z" uid="386508" user="Ordin" changeset="7466975">
    <nd ref="1123745479"/>
    <nd ref="1123745532"/>
    <nd ref="1123745452"/>
    <nd ref="1123745290"/>
    <nd ref="1123745508"/>
    <nd ref="1123745346"/>
    <nd ref="1123745336"/>
    <nd ref="1123745557"/>
    <nd ref="1123745391"/>
    <nd ref="1123745192"/>
    <nd ref="1123745154"/>
    <nd ref="1123745431"/>
    <nd ref="1123745319"/>
    <nd ref="1123745538"/>
    <nd ref="1123745377"/>
    <nd ref="1123745364"/>
    <nd ref="1123745133"/>
    <nd ref="1123745417"/>
    <nd ref="1123745248"/>
    <nd ref="1123745231"/>
    <nd ref="1123745470"/>
    <nd ref="1123745306"/>
    <nd ref="1123745525"/>
    <nd ref="1123745512"/>
    <nd ref="1123745351"/>
    <nd ref="1123745121"/>
    <nd ref="1123745406"/>
    <nd ref="1123745396"/>
    <nd ref="1123745201"/>
    <nd ref="1123745458"/>
    <nd ref="1123745294"/>
    <nd ref="1123745280"/>
    <nd ref="1123745502"/>
    <nd ref="1123745340"/>
    <nd ref="1123745561"/>
    <nd ref="1123745544"/>
    <nd ref="1123745381"/>
    <nd ref="1123745167"/>
    <nd ref="1123745438"/>
    <nd ref="1123745421"/>
    <nd ref="1123745261"/>
    <nd ref="1123745485"/>
    <nd ref="1123745324"/>
    <nd ref="1123745311"/>
    <nd ref="1123745531"/>
    <nd ref="1123745369"/>
    <nd ref="1123745135"/>
    <nd ref="1123745126"/>
    <nd ref="1123745409"/>
    <nd ref="1123745238"/>
    <nd ref="1123745474"/>
    <nd ref="1123745462"/>
    <nd ref="1123745297"/>
    <nd ref="1123745516"/>
    <nd ref="1123745355"/>
    <nd ref="1123745415"/>
    <nd ref="1123745247"/>
    <nd ref="1123745479"/>
    <tag k="natural" v="water"/>
  </way>
  <way id="96986159" version="1" timestamp="2011-01-27T19:26:13Z" uid="115477" user="wowik" changeset="7106689">
    <nd ref="1123745477"/>
    <nd ref="1123745397"/>
    <nd ref="1123745382"/>
    <nd ref="1123745168"/>
    <nd ref="1123745477"/>
    <tag k="addr:city" v="Зеленоград"/>
    <tag k="addr:street" v="Проезд N 4922"/>
    <tag k="building" v="yes"/>
    <tag k="is_in" v="Russia"/>
  </way>
  <way id="96986159" version="2" timestamp="2011-09-13T10:38:50Z" uid="29320" user="Komяpa" changeset="9288237">
    <nd ref="1123745477"/>
    <nd ref="1123745397"/>
    <nd ref="1123745382"/>
    <nd ref="1123745168"/>
    <nd ref="1123745477"/>
    <tag k="addr:city" v="Зеленоград"/>
    <tag k="addr:country" v="RU"/>
    <tag k="addr:street" v="Проезд N 4922"/>
    <tag k="building" v="yes"/>
  </way>
  <way id="96986159" version="3" timestamp="2012-03-27T11:50:04Z" uid="481934" user="iWowik" changeset="11115472">
    <nd ref="1123745477"/>
    <nd ref="1123745397"/>
    <nd ref="1123745382"/>
    <nd ref="1123745168"/>
    <nd ref="1123745477"/>
    <tag k="addr:city" v="Зеленоград"/>
    <tag k="addr:country" v="RU"/>
    <tag k="addr:region" v="Москва"/>
    <tag k="addr:street" v="Проезд N 4922"/>
    <tag k="building" v="yes"/>
  </way>
  <way id="96986160" version="1" timestamp="2011-01-27T19:26:13Z" uid="115477" user="wowik" changeset="7106689">
    <nd ref="1123745206"/>
    <nd ref="1123745533"/>
    <nd ref="1123745520"/>
    <nd ref="1123745360"/>
    <nd ref="1123745206"/>
    <tag k="addr:city" v="Зеленоград"/>
    <tag k="addr:housenumber" v="4 с9"/>
    <tag k="addr:street" v="Проезд N 4806"/>
    <tag k="building" v="yes"/>
    <tag k="is_in" v="Russia"/>
  </way>
  <way id="96986160" version="2" timestamp="2011-09-13T10:26:39Z" uid="29320" user="Komяpa" changeset="9288237">
    <nd ref="1123745206"/>
    <nd ref="1123745533"/>
    <nd ref="1123745520"/>
    <nd ref="1123745360"/>
    <nd ref="1123745206"/>
    <tag k="addr:city" v="Зеленоград"/>
    <tag k="addr:country" v="RU"/>
    <tag k="addr:housenumber" v="4 с9"/>
    <tag k="addr:street" v="Проезд N 4806"/>
    <tag k="building" v="yes"/>
  </way>
  <way id="96986160" version="3" timestamp="2012-03-27T11:42:59Z" uid="481934" user="iWowik" changeset="11115472">
    <nd ref="1123745206"/>
    <nd ref="1123745533"/>
    <nd ref="1123745520"/>
    <nd ref="1123745360"/>
    <nd ref="1123745206"/>
    <tag k="addr:city" v="Зеленоград"/>
    <tag k="addr:country" v="RU"/>
    <tag k="addr:housenumber" v="4 с9"/>
    <tag k="addr:region" v="Москва"/>
    <tag k="addr:street" v="Проезд N 4806"/>
    <tag k="building" v="yes"/>
  </way>
  <way id="96986161" version="1" timestamp="2011-01-27T19:26:13Z" uid="115477" user="wowik" changeset="7106689">
    <nd ref="1123745545"/>
    <nd ref="1123745186"/>
    <nd ref="1123745448"/>
    <nd ref="1123745288"/>
    <nd ref="1123745507"/>
    <nd ref="1123745497"/>
    <nd ref="1123745545"/>
    <tag k="addr:city" v="Зеленоград"/>
    <tag k="addr:street" v="Проезд N 4922"/>
    <tag k="building" v="yes"/>
    <tag k="is_in" v="Russia"/>
  </way>
  <way id="96986161" version="2" timestamp="2011-09-13T10:38:51Z" uid="29320" user="Komяpa" changeset="9288237">
    <nd ref="1123745545"/>
    <nd ref="1123745186"/>
    <nd ref="1123745448"/>
    <nd ref="1123745288"/>
    <nd ref="1123745507"/>
    <nd ref="1123745497"/>
    <nd ref="1123745545"/>
    <tag k="addr:city" v="Зеленоград"/>
    <tag k="addr:country" v="RU"/>
    <tag k="addr:street" v="Проезд N 4922"/>
    <tag k="building" v="yes"/>
  </way>
  <way id="96986161" version="3" timestamp="2012-03-27T11:55:24Z" uid="481934" user="iWowik" changeset="11115472">
    <nd ref="1123745545"/>
    <nd ref="1123745186"/>
    <nd ref="1123745448"/>
    <nd ref="1123745288"/>
    <nd ref="1123745507"/>
    <nd ref="1123745497"/>
    <nd ref="1123745545"/>
    <tag k="addr:city" v="Зеленоград"/>
    <tag k="addr:country" v="RU"/>
    <tag k="addr:region" v="Москва"/>
    <tag k="addr:street" v="Проезд N 4922"/>
    <tag k="building" v="yes"/>
  </way>
  <way id="96986162" version="1" timestamp="2011-01-27T19:26:13Z" uid="115477" user="wowik" changeset="7106689">
    <nd ref="1123745562"/>
    <nd ref="1123745428"/>
    <nd ref="1123745352"/>
    <nd ref="1123745341"/>
    <nd ref="1123745562"/>
    <tag k="building" v="yes"/>
    <tag k="note" v="tribune"/>
  </way>
  <way id="96986162" version="2" timestamp="2012-03-27T11:53:03Z" uid="481934" user="iWowik" changeset="11115472">
    <nd ref="1123745562"/>
    <nd ref="1123745428"/>
    <nd ref="1123745352"/>
    <nd ref="1123745341"/>
    <nd ref="1123745562"/>
    <tag k="addr:city" v="Зеленоград"/>
    <tag k="addr:country" v="RU"/>
    <tag k="addr:region" v="Москва"/>
    <tag k="building" v="yes"/>
    <tag k="note" v="tribune"/>
  </way>
  <way id="96986163" version="1" timestamp="2011-01-27T19:26:13Z" uid="115477" user="wowik" changeset="7106689">
    <nd ref="1123745414"/>
    <nd ref="1123745342"/>
    <nd ref="1123745328"/>
    <nd ref="1123745548"/>
    <nd ref="1123745414"/>
    <tag k="addr:street" v="Проезд N 4922"/>
    <tag k="building" v="yes"/>
  </way>
  <way id="96986163" version="2" timestamp="2012-03-27T11:50:16Z" uid="481934" user="iWowik" changeset="11115472">
    <nd ref="1123745414"/>
    <nd ref="1123745342"/>
    <nd ref="1123745328"/>
    <nd ref="1123745548"/>
    <nd ref="1123745414"/>
    <tag k="addr:city" v="Зеленоград"/>
    <tag k="addr:country" v="RU"/>
    <tag k="addr:region" v="Москва"/>
    <tag k="addr:street" v="Проезд N 4922"/>
    <tag k="building" v="yes"/>
  </way>
  <way id="96986164" version="1" timestamp="2011-01-27T19:26:13Z" uid="115477" user="wowik" changeset="7106689">
    <nd ref="1123745211"/>
    <nd ref="1123745535"/>
    <nd ref="1123745522"/>
    <nd ref="1123745361"/>
    <nd ref="1123745211"/>
    <tag k="addr:street" v="Проезд N 4922"/>
    <tag k="building" v="yes"/>
  </way>
  <way id="96986164" version="2" timestamp="2012-03-27T11:53:55Z" uid="481934" user="iWowik" changeset="11115472">
    <nd ref="1123745211"/>
    <nd ref="1123745535"/>
    <nd ref="1123745522"/>
    <nd ref="1123745361"/>
    <nd ref="1123745211"/>
    <tag k="addr:city" v="Зеленоград"/>
    <tag k="addr:country" v="RU"/>
    <tag k="addr:region" v="Москва"/>
    <tag k="addr:street" v="Проезд N 4922"/>
    <tag k="building" v="yes"/>
  </way>
  <way id="96986165" version="1" timestamp="2011-01-27T19:26:14Z" uid="115477" user="wowik" changeset="7106689">
    <nd ref="1123745419"/>
    <nd ref="1123745344"/>
    <nd ref="1123745333"/>
    <nd ref="1123745554"/>
    <nd ref="1123745388"/>
    <nd ref="1123745184"/>
    <nd ref="1123745151"/>
    <nd ref="1123745429"/>
    <nd ref="1123745272"/>
    <nd ref="1123745494"/>
    <nd ref="1123745419"/>
    <tag k="building" v="yes"/>
  </way>
  <way id="96986165" version="2" timestamp="2012-03-27T11:48:46Z" uid="481934" user="iWowik" changeset="11115472">
    <nd ref="1123745419"/>
    <nd ref="1123745344"/>
    <nd ref="1123745333"/>
    <nd ref="1123745554"/>
    <nd ref="1123745388"/>
    <nd ref="1123745184"/>
    <nd ref="1123745151"/>
    <nd ref="1123745429"/>
    <nd ref="1123745272"/>
    <nd ref="1123745494"/>
    <nd ref="1123745419"/>
    <tag k="addr:city" v="Зеленоград"/>
    <tag k="addr:country" v="RU"/>
    <tag k="addr:region" v="Москва"/>
    <tag k="building" v="yes"/>
  </way>
  <way id="96986166" version="1" timestamp="2011-01-27T19:26:14Z" uid="115477" user="wowik" changeset="7106689">
    <nd ref="1123745283"/>
    <nd ref="1123745131"/>
    <nd ref="1123745413"/>
    <nd ref="1123745563"/>
    <nd ref="1123745466"/>
    <nd ref="1123745302"/>
    <nd ref="1123745441"/>
    <nd ref="1123745345"/>
    <nd ref="1123745118"/>
    <nd ref="1123745404"/>
    <nd ref="1123745390"/>
    <nd ref="1123745187"/>
    <nd ref="1123745451"/>
    <nd ref="1123745289"/>
    <nd ref="1123745283"/>
    <tag k="building" v="yes"/>
  </way>
  <way id="96986166" version="2" timestamp="2012-03-27T08:10:48Z" uid="481934" user="iWowik" changeset="11113698">
    <nd ref="1123745283"/>
    <nd ref="1123745131"/>
    <nd ref="1123745413"/>
    <nd ref="1123745563"/>
    <nd ref="1123745466"/>
    <nd ref="1123745302"/>
    <nd ref="1123745441"/>
    <nd ref="1123745345"/>
    <nd ref="1123745118"/>
    <nd ref="1123745404"/>
    <nd ref="1123745390"/>
    <nd ref="1123745187"/>
    <nd ref="1123745451"/>
    <nd ref="1123745289"/>
    <nd ref="1123745283"/>
    <tag k="addr:city" v="Зеленоград"/>
    <tag k="addr:country" v="RU"/>
    <tag k="building" v="yes"/>
  </way>
  <way id="96986166" version="3" timestamp="2012-03-27T11:49:13Z" uid="481934" user="iWowik" changeset="11115472">
    <nd ref="1123745283"/>
    <nd ref="1123745131"/>
    <nd ref="1123745413"/>
    <nd ref="1123745563"/>
    <nd ref="1123745466"/>
    <nd ref="1123745302"/>
    <nd ref="1123745441"/>
    <nd ref="1123745345"/>
    <nd ref="1123745118"/>
    <nd ref="1123745404"/>
    <nd ref="1123745390"/>
    <nd ref="1123745187"/>
    <nd ref="1123745451"/>
    <nd ref="1123745289"/>
    <nd ref="1123745283"/>
    <tag k="addr:city" v="Зеленоград"/>
    <tag k="addr:country" v="RU"/>
    <tag k="addr:region" v="Москва"/>
    <tag k="building" v="yes"/>
  </way>
  <way id="96986167" version="1" timestamp="2011-01-27T19:26:14Z" uid="115477" user="wowik" changeset="7106689">
    <nd ref="1123745332"/>
    <nd ref="1123745232"/>
    <nd ref="1123745472"/>
    <nd ref="1123745459"/>
    <nd ref="1123745332"/>
    <tag k="building" v="yes"/>
    <tag k="note" v="tribune"/>
  </way>
  <way id="96986167" version="2" timestamp="2012-03-27T11:52:17Z" uid="481934" user="iWowik" changeset="11115472">
    <nd ref="1123745332"/>
    <nd ref="1123745232"/>
    <nd ref="1123745472"/>
    <nd ref="1123745459"/>
    <nd ref="1123745332"/>
    <tag k="addr:city" v="Зеленоград"/>
    <tag k="addr:country" v="RU"/>
    <tag k="addr:region" v="Москва"/>
    <tag k="building" v="yes"/>
    <tag k="note" v="tribune"/>
  </way>
  <way id="96986168" version="1" timestamp="2011-01-27T19:26:14Z" uid="115477" user="wowik" changeset="7106689">
    <nd ref="1123745469"/>
    <nd ref="1123745386"/>
    <nd ref="1123745181"/>
    <nd ref="1123745141"/>
    <nd ref="1123745469"/>
    <tag k="addr:city" v="Зеленоград"/>
    <tag k="addr:street" v="Проезд N 4922"/>
    <tag k="building" v="yes"/>
    <tag k="is_in" v="Russia"/>
  </way>
  <way id="96986168" version="2" timestamp="2011-09-13T10:38:51Z" uid="29320" user="Komяpa" changeset="9288237">
    <nd ref="1123745469"/>
    <nd ref="1123745386"/>
    <nd ref="1123745181"/>
    <nd ref="1123745141"/>
    <nd ref="1123745469"/>
    <tag k="addr:city" v="Зеленоград"/>
    <tag k="addr:country" v="RU"/>
    <tag k="addr:street" v="Проезд N 4922"/>
    <tag k="building" v="yes"/>
  </way>
  <way id="96986168" version="3" timestamp="2012-03-27T11:51:30Z" uid="481934" user="iWowik" changeset="11115472">
    <nd ref="1123745469"/>
    <nd ref="1123745386"/>
    <nd ref="1123745181"/>
    <nd ref="1123745141"/>
    <nd ref="1123745469"/>
    <tag k="addr:city" v="Зеленоград"/>
    <tag k="addr:country" v="RU"/>
    <tag k="addr:region" v="Москва"/>
    <tag k="addr:street" v="Проезд N 4922"/>
    <tag k="building" v="yes"/>
  </way>
  <way id="96986169" version="1" timestamp="2011-01-27T19:26:14Z" uid="115477" user="wowik" changeset="7106689">
    <nd ref="1123745315"/>
    <nd ref="1123745200"/>
    <nd ref="1123745457"/>
    <nd ref="1123745435"/>
    <nd ref="1123745315"/>
    <tag k="addr:city" v="Зеленоград"/>
    <tag k="addr:street" v="Проезд N 4922"/>
    <tag k="building" v="yes"/>
    <tag k="is_in" v="Russia"/>
  </way>
  <way id="96986169" version="2" timestamp="2011-09-13T10:38:51Z" uid="29320" user="Komяpa" changeset="9288237">
    <nd ref="1123745315"/>
    <nd ref="1123745200"/>
    <nd ref="1123745457"/>
    <nd ref="1123745435"/>
    <nd ref="1123745315"/>
    <tag k="addr:city" v="Зеленоград"/>
    <tag k="addr:country" v="RU"/>
    <tag k="addr:street" v="Проезд N 4922"/>
    <tag k="building" v="yes"/>
  </way>
  <way id="96986169" version="3" timestamp="2012-03-27T11:53:08Z" uid="481934" user="iWowik" changeset="11115472">
    <nd ref="1123745315"/>
    <nd ref="1123745200"/>
    <nd ref="1123745457"/>
    <nd ref="1123745435"/>
    <nd ref="1123745315"/>
    <tag k="addr:city" v="Зеленоград"/>
    <tag k="addr:country" v="RU"/>
    <tag k="addr:region" v="Москва"/>
    <tag k="addr:street" v="Проезд N 4922"/>
    <tag k="building" v="yes"/>
  </way>
  <way id="96986170" version="1" timestamp="2011-01-27T19:26:14Z" uid="115477" user="wowik" changeset="7106689">
    <nd ref="1123745392"/>
    <nd ref="1123745313"/>
    <nd ref="1123745298"/>
    <nd ref="1123745518"/>
    <nd ref="1123745392"/>
    <tag k="building" v="yes"/>
  </way>
  <way id="96986170" version="2" timestamp="2012-03-27T11:52:25Z" uid="481934" user="iWowik" changeset="11115472">
    <nd ref="1123745392"/>
    <nd ref="1123745313"/>
    <nd ref="1123745298"/>
    <nd ref="1123745518"/>
    <nd ref="1123745392"/>
    <tag k="addr:city" v="Зеленоград"/>
    <tag k="addr:country" v="RU"/>
    <tag k="addr:region" v="Москва"/>
    <tag k="building" v="yes"/>
  </way>
  <way id="96986126" version="4" timestamp="2012-07-20T22:16:50Z" uid="722137" user="OSMF Redaction Account" changeset="12394520"/>
  <way id="96986128" version="5" timestamp="2012-07-20T22:17:00Z" uid="722137" user="OSMF Redaction Account" changeset="12394520"/>
  <way id="96986129" version="4" timestamp="2012-07-20T22:17:01Z" uid="722137" user="OSMF Redaction Account" changeset="12394520"/>
  <way id="96986130" version="3" timestamp="2012-07-20T22:16:36Z" uid="722137" user="OSMF Redaction Account" changeset="12394520"/>
  <way id="96986131" version="4" timestamp="2012-07-20T22:16:39Z" uid="722137" user="OSMF Redaction Account" changeset="12394520"/>
  <way id="96986132" version="3" timestamp="2012-07-20T22:16:38Z" uid="722137" user="OSMF Redaction Account" changeset="12394520"/>
  <way id="96986133" version="2" timestamp="2012-07-20T22:16:49Z" uid="722137" user="OSMF Redaction Account" changeset="12394520"/>
  <way id="96986134" version="3" timestamp="2012-07-20T22:16:37Z" uid="722137" user="OSMF Redaction Account" changeset="12394520"/>
  <way id="96986135" version="4" timestamp="2012-07-20T22:16:36Z" uid="722137" user="OSMF Redaction Account" changeset="12394520"/>
  <way id="96986136" version="4" timestamp="2012-07-20T22:16:49Z" uid="722137" user="OSMF Redaction Account" changeset="12394520"/>
  <way id="96986137" version="4" timestamp="2012-07-20T22:16:47Z" uid="722137" user="OSMF Redaction Account" changeset="12394520"/>
  <way id="96986138" version="4" timestamp="2012-07-20T22:16:46Z" uid="722137" user="OSMF Redaction Account" changeset="12394520"/>
  <way id="96986139" version="3" timestamp="2012-07-20T22:16:35Z" uid="722137" user="OSMF Redaction Account" changeset="12394520"/>
  <way id="96986140" version="4" timestamp="2012-07-20T22:16:51Z" uid="722137" user="OSMF Redaction Account" changeset="12394520"/>
  <way id="96986141" version="3" timestamp="2012-07-20T22:17:06Z" uid="722137" user="OSMF Redaction Account" changeset="12394520"/>
  <way id="96986142" version="4" timestamp="2012-07-20T22:16:53Z" uid="722137" user="OSMF Redaction Account" changeset="12394520"/>
  <way id="96986143" version="4" timestamp="2012-07-20T22:16:36Z" uid="722137" user="OSMF Redaction Account" changeset="12394520"/>
  <way id="96986144" version="3" timestamp="2012-07-20T22:16:37Z" uid="722137" user="OSMF Redaction Account" changeset="12394520"/>
  <way id="96986145" version="3" timestamp="2012-07-20T22:16:43Z" uid="722137" user="OSMF Redaction Account" changeset="12394520"/>
  <way id="96986146" version="4" timestamp="2012-07-20T22:16:40Z" uid="722137" user="OSMF Redaction Account" changeset="12394520"/>
  <way id="96986147" version="4" timestamp="2012-07-20T22:16:40Z" uid="722137" user="OSMF Redaction Account" changeset="12394520"/>
  <way id="96986148" version="4" timestamp="2012-07-20T22:16:50Z" uid="722137" user="OSMF Redaction Account" changeset="12394520"/>
  <way id="96986149" version="2" timestamp="2012-07-20T22:16:50Z" uid="722137" user="OSMF Redaction Account" changeset="12394520"/>
  <way id="96986150" version="3" timestamp="2012-07-20T22:16:43Z" uid="722137" user="OSMF Redaction Account" changeset="12394520"/>
  <way id="96986151" version="4" timestamp="2012-07-20T22:16:53Z" uid="722137" user="OSMF Redaction Account" changeset="12394520"/>
  <way id="96986152" version="4" timestamp="2012-07-20T22:16:55Z" uid="722137" user="OSMF Redaction Account" changeset="12394520"/>
  <way id="96986153" version="2" timestamp="2012-07-20T22:16:44Z" uid="722137" user="OSMF Redaction Account" changeset="12394520"/>
  <way id="96986154" version="3" timestamp="2012-07-20T22:17:02Z" uid="722137" user="OSMF Redaction Account" changeset="12394520"/>
  <way id="96986155" version="3" timestamp="2012-07-20T22:16:37Z" uid="722137" user="OSMF Redaction Account" changeset="12394520"/>
  <way id="96986156" version="3" timestamp="2012-07-20T22:16:37Z" uid="722137" user="OSMF Redaction Account" changeset="12394520"/>
  <way id="96986157" version="2" timestamp="2012-07-20T22:16:49Z" uid="722137" user="OSMF Redaction Account" changeset="12394520"/>
  <way id="96986158" version="3" timestamp="2012-07-20T22:16:35Z" uid="722137" user="OSMF Redaction Account" changeset="12394520"/>
  <way id="96986159" version="4" timestamp="2012-07-20T22:16:51Z" uid="722137" user="OSMF Redaction Account" changeset="12394520"/>
  <way id="96986160" version="4" timestamp="2012-07-20T22:16:53Z" uid="722137" user="OSMF Redaction Account" changeset="12394520"/>
  <way id="96986161" version="4" timestamp="2012-07-20T22:16:50Z" uid="722137" user="OSMF Redaction Account" changeset="12394520"/>
  <way id="96986162" version="3" timestamp="2012-07-20T22:16:51Z" uid="722137" user="OSMF Redaction Account" changeset="12394520"/>
  <way id="96986163" version="3" timestamp="2012-07-20T22:16:48Z" uid="722137" user="OSMF Redaction Account" changeset="12394520"/>
  <way id="96986164" version="3" timestamp="2012-07-20T22:16:49Z" uid="722137" user="OSMF Redaction Account" changeset="12394520"/>
  <way id="96986165" version="3" timestamp="2012-07-20T22:16:38Z" uid="722137" user="OSMF Redaction Account" changeset="12394520"/>
  <way id="96986166" version="4" timestamp="2012-06-16T06:06:59Z" uid="241531" user="dik_man" changeset="11911181">
    <nd ref="1123745283"/>
    <nd ref="1123745131"/>
    <nd ref="1789578543"/>
    <nd ref="1789578540"/>
    <nd ref="1789578538"/>
    <nd ref="1789578537"/>
    <nd ref="1123745413"/>
    <nd ref="1123745563"/>
    <nd ref="1123745466"/>
    <nd ref="1123745302"/>
    <nd ref="1123745441"/>
    <nd ref="1123745345"/>
    <nd ref="1123745118"/>
    <nd ref="1123745404"/>
    <nd ref="1123745390"/>
    <nd ref="1123745187"/>
    <nd ref="1123745451"/>
    <nd ref="1123745289"/>
    <nd ref="1123745283"/>
    <tag k="addr:city" v="Зеленоград"/>
    <tag k="addr:country" v="RU"/>
    <tag k="addr:region" v="Москва"/>
    <tag k="building" v="yes"/>
  </way>
  <way id="96986166" version="5" timestamp="2012-07-20T22:09:11Z" uid="722137" user="OSMF Redaction Account" changeset="12394292">
    <nd ref="1789578543"/>
    <nd ref="1789578540"/>
    <nd ref="1789578538"/>
    <nd ref="1789578537"/>
    <tag k="addr:city" v="Зеленоград"/>
    <tag k="addr:country" v="RU"/>
    <tag k="addr:region" v="Москва"/>
  </way>
  <way id="96986166" version="6" timestamp="2012-08-01T20:53:36Z" uid="109327" user="OverQuantum" changeset="12578822">
    <nd ref="1789578537"/>
    <nd ref="1123745413"/>
    <nd ref="1123745563"/>
    <nd ref="1123745466"/>
    <nd ref="1123745302"/>
    <nd ref="1123745441"/>
    <nd ref="1123745345"/>
    <nd ref="1123745118"/>
    <nd ref="1123745404"/>
    <nd ref="1123745390"/>
    <nd ref="1123745187"/>
    <nd ref="1123745451"/>
    <nd ref="1123745289"/>
    <nd ref="1123745283"/>
    <nd ref="1123745131"/>
    <nd ref="1789578543"/>
    <nd ref="1789578540"/>
    <nd ref="1789578538"/>
    <nd ref="1789578537"/>
    <tag k="addr:city" v="Зеленоград"/>
    <tag k="addr:country" v="RU"/>
    <tag k="addr:region" v="Москва"/>
    <tag k="building" v="yes"/>
  </way>
  <way id="96986167" version="3" timestamp="2012-07-20T22:16:57Z" uid="722137" user="OSMF Redaction Account" changeset="12394520"/>
  <way id="96986168" version="4" timestamp="2012-07-20T22:16:52Z" uid="722137" user="OSMF Redaction Account" changeset="12394520"/>
  <way id="96986169" version="4" timestamp="2012-07-20T22:16:53Z" uid="722137" user="OSMF Redaction Account" changeset="12394520"/>
  <way id="96986170" version="3" timestamp="2012-07-20T22:16:59Z" uid="722137" user="OSMF Redaction Account" changeset="12394520"/>
</osm>
