<?xml version='1.0' encoding='UTF-8'?>
<osm version="0.6" generator="libosmium/2.20.0">
  <way id="97479576" version="1" timestamp="2011-01-30T22:29:02Z" uid="30632" user="antblant" changeset="7140610">
    <nd ref="1128828064"/>
    <nd ref="1128828067"/>
    <nd ref="1128828060"/>
    <nd ref="1128828079"/>
    <tag k="highway" v="living_street"/>
    <tag k="name" v="Zamojska"/>
    <tag k="note" v="fixme"/>
    <tag k="source" v="gis.um.szczecin.pl"/>
  </way>
  <way id="97479576" version="2" timestamp="2012-03-17T15:54:47Z" uid="603523" user="diverpl" changeset="11009117">
    <nd ref="1128828079"/>
    <nd ref="1128828060"/>
    <nd ref="1128828067"/>
    <nd ref="1128828064"/>
    <nd ref="254061413"/>
    <nd ref="1678337000"/>
    <tag k="highway" v="living_street"/>
    <tag k="name" v="Zamojska"/>
    <tag k="note" v="fixme"/>
    <tag k="source" v="gis.um.szczecin.pl"/>
  </way>
  <way id="97479576" version="3" timestamp="2012-07-27T12:37:29Z" uid="338611" user="marek kleciak" changeset="12510938">
    <nd ref="1128828079"/>
    <nd ref="1839783187"/>
    <nd ref="1128828060"/>
    <nd ref="1128828067"/>
    <nd ref="1128828064"/>
    <nd ref="254061413"/>
    <nd ref="1839783174"/>
    <nd ref="1678337000"/>
    <tag k="highway" v="living_street"/>
    <tag k="name" v="Zamojska"/>
    <tag k="note" v="fixme"/>
    <tag k="source" v="gis.um.szczecin.pl"/>
  </way>
</osm>
