<?xml version='1.0' encoding='UTF-8'?>
<osm version="0.6" generator="libosmium/2.20.0">
  <way id="97549189" version="1" timestamp="2011-01-31T13:43:31Z" uid="115477" user="wowik" changeset="7145124">
    <nd ref="1129409585"/>
    <nd ref="1129409856"/>
    <nd ref="1129409795"/>
    <nd ref="1129409729"/>
    <nd ref="1129409585"/>
    <tag k="building" v="yes"/>
  </way>
  <way id="97549189" version="2" timestamp="2011-01-31T14:04:10Z" uid="115477" user="wowik" changeset="7145302">
    <nd ref="1129409585"/>
    <nd ref="1129409856"/>
    <nd ref="1129409795"/>
    <nd ref="1129409729"/>
    <nd ref="1129409585"/>
    <tag k="addr:city" v="Зеленоград"/>
    <tag k="addr:housenumber" v="34 с2"/>
    <tag k="addr:street" v="Заводская улица"/>
    <tag k="building" v="yes"/>
  </way>
  <way id="97549189" version="3" timestamp="2012-03-27T08:08:51Z" uid="481934" user="iWowik" changeset="11113698">
    <nd ref="1129409585"/>
    <nd ref="1129409856"/>
    <nd ref="1129409795"/>
    <nd ref="1129409729"/>
    <nd ref="1129409585"/>
    <tag k="addr:city" v="Зеленоград"/>
    <tag k="addr:country" v="RU"/>
    <tag k="addr:housenumber" v="34 с2"/>
    <tag k="addr:street" v="Заводская улица"/>
    <tag k="building" v="yes"/>
  </way>
  <way id="97549189" version="4" timestamp="2012-03-27T11:41:55Z" uid="481934" user="iWowik" changeset="11115472">
    <nd ref="1129409585"/>
    <nd ref="1129409856"/>
    <nd ref="1129409795"/>
    <nd ref="1129409729"/>
    <nd ref="1129409585"/>
    <tag k="addr:city" v="Зеленоград"/>
    <tag k="addr:country" v="RU"/>
    <tag k="addr:housenumber" v="34 с2"/>
    <tag k="addr:region" v="Москва"/>
    <tag k="addr:street" v="Заводская улица"/>
    <tag k="building" v="yes"/>
  </way>
  <way id="97549190" version="1" timestamp="2011-01-31T13:43:32Z" uid="115477" user="wowik" changeset="7145124">
    <nd ref="1129409958"/>
    <nd ref="1129409783"/>
    <nd ref="1129409819"/>
    <nd ref="1129409750"/>
    <nd ref="1129409663"/>
    <nd ref="1129409588"/>
    <nd ref="1129409623"/>
    <nd ref="1129409557"/>
    <nd ref="1129409940"/>
    <nd ref="1129409876"/>
    <nd ref="1129409906"/>
    <nd ref="1129409843"/>
    <nd ref="1129409779"/>
    <nd ref="1129409707"/>
    <nd ref="1129409744"/>
    <nd ref="1129409659"/>
    <nd ref="1129409586"/>
    <nd ref="1129409523"/>
    <nd ref="1129409552"/>
    <nd ref="1129409938"/>
    <nd ref="1129409872"/>
    <nd ref="1129409814"/>
    <nd ref="1129409958"/>
    <tag k="building" v="yes"/>
    <tag k="building:levels" v="1"/>
    <tag k="landuse" v="garages"/>
  </way>
  <way id="97549190" version="2" timestamp="2011-09-13T10:38:51Z" uid="29320" user="Komяpa" changeset="9288237">
    <nd ref="1129409958"/>
    <nd ref="1129409783"/>
    <nd ref="1129409819"/>
    <nd ref="1129409750"/>
    <nd ref="1129409663"/>
    <nd ref="1129409588"/>
    <nd ref="1129409623"/>
    <nd ref="1129409557"/>
    <nd ref="1129409940"/>
    <nd ref="1129409876"/>
    <nd ref="1129409906"/>
    <nd ref="1129409843"/>
    <nd ref="1129409779"/>
    <nd ref="1129409707"/>
    <nd ref="1129409744"/>
    <nd ref="1129409659"/>
    <nd ref="1129409586"/>
    <nd ref="1129409523"/>
    <nd ref="1129409552"/>
    <nd ref="1129409938"/>
    <nd ref="1129409872"/>
    <nd ref="1129409814"/>
    <nd ref="1129409958"/>
    <tag k="building" v="garages"/>
    <tag k="building:levels" v="1"/>
  </way>
  <way id="97549191" version="1" timestamp="2011-01-31T13:43:32Z" uid="115477" user="wowik" changeset="7145124">
    <nd ref="1129409601"/>
    <nd ref="1129409869"/>
    <nd ref="1129409810"/>
    <nd ref="1129409839"/>
    <nd ref="1129409601"/>
    <tag k="building" v="yes"/>
  </way>
  <way id="97549191" version="2" timestamp="2012-03-27T08:13:42Z" uid="481934" user="iWowik" changeset="11113698">
    <nd ref="1129409601"/>
    <nd ref="1129409869"/>
    <nd ref="1129409810"/>
    <nd ref="1129409839"/>
    <nd ref="1129409601"/>
    <tag k="addr:city" v="Зеленоград"/>
    <tag k="addr:country" v="RU"/>
    <tag k="building" v="yes"/>
  </way>
  <way id="97549191" version="3" timestamp="2012-03-27T11:52:10Z" uid="481934" user="iWowik" changeset="11115472">
    <nd ref="1129409601"/>
    <nd ref="1129409869"/>
    <nd ref="1129409810"/>
    <nd ref="1129409839"/>
    <nd ref="1129409601"/>
    <tag k="addr:city" v="Зеленоград"/>
    <tag k="addr:country" v="RU"/>
    <tag k="addr:region" v="Москва"/>
    <tag k="building" v="yes"/>
  </way>
  <way id="97549192" version="1" timestamp="2011-01-31T13:43:32Z" uid="115477" user="wowik" changeset="7145124">
    <nd ref="1129409581"/>
    <nd ref="1129409720"/>
    <nd ref="1129409636"/>
    <nd ref="1129409676"/>
    <nd ref="1129409581"/>
    <tag k="addr:city" v="Зеленоград"/>
    <tag k="building" v="yes"/>
  </way>
  <way id="97549192" version="2" timestamp="2012-03-27T08:12:56Z" uid="481934" user="iWowik" changeset="11113698">
    <nd ref="1129409581"/>
    <nd ref="1129409720"/>
    <nd ref="1129409636"/>
    <nd ref="1129409676"/>
    <nd ref="1129409581"/>
    <tag k="addr:city" v="Зеленоград"/>
    <tag k="addr:country" v="RU"/>
    <tag k="building" v="yes"/>
  </way>
  <way id="97549192" version="3" timestamp="2012-03-27T11:51:20Z" uid="481934" user="iWowik" changeset="11115472">
    <nd ref="1129409581"/>
    <nd ref="1129409720"/>
    <nd ref="1129409636"/>
    <nd ref="1129409676"/>
    <nd ref="1129409581"/>
    <tag k="addr:city" v="Зеленоград"/>
    <tag k="addr:country" v="RU"/>
    <tag k="addr:region" v="Москва"/>
    <tag k="building" v="yes"/>
  </way>
  <way id="97549193" version="1" timestamp="2011-01-31T13:43:33Z" uid="115477" user="wowik" changeset="7145124">
    <nd ref="1129409884"/>
    <nd ref="1129409546"/>
    <nd ref="1129409823"/>
    <nd ref="1129409932"/>
    <nd ref="1129409884"/>
    <tag k="building" v="yes"/>
    <tag k="building:levels" v="1"/>
    <tag k="landuse" v="garages"/>
  </way>
  <way id="97549193" version="2" timestamp="2011-09-13T10:38:52Z" uid="29320" user="Komяpa" changeset="9288237">
    <nd ref="1129409884"/>
    <nd ref="1129409546"/>
    <nd ref="1129409823"/>
    <nd ref="1129409932"/>
    <nd ref="1129409884"/>
    <tag k="building" v="garages"/>
    <tag k="building:levels" v="1"/>
  </way>
  <way id="97549194" version="1" timestamp="2011-01-31T13:43:33Z" uid="115477" user="wowik" changeset="7145124">
    <nd ref="1129409760"/>
    <nd ref="1129409551"/>
    <nd ref="1129409582"/>
    <nd ref="1129409521"/>
    <nd ref="1129409760"/>
    <tag k="building" v="yes"/>
  </way>
  <way id="97549194" version="2" timestamp="2012-03-27T08:13:48Z" uid="481934" user="iWowik" changeset="11113698">
    <nd ref="1129409760"/>
    <nd ref="1129409551"/>
    <nd ref="1129409582"/>
    <nd ref="1129409521"/>
    <nd ref="1129409760"/>
    <tag k="addr:city" v="Зеленоград"/>
    <tag k="addr:country" v="RU"/>
    <tag k="building" v="yes"/>
  </way>
  <way id="97549194" version="3" timestamp="2012-03-27T11:52:15Z" uid="481934" user="iWowik" changeset="11115472">
    <nd ref="1129409760"/>
    <nd ref="1129409551"/>
    <nd ref="1129409582"/>
    <nd ref="1129409521"/>
    <nd ref="1129409760"/>
    <tag k="addr:city" v="Зеленоград"/>
    <tag k="addr:country" v="RU"/>
    <tag k="addr:region" v="Москва"/>
    <tag k="building" v="yes"/>
  </way>
  <way id="97549195" version="1" timestamp="2011-01-31T13:43:33Z" uid="115477" user="wowik" changeset="7145124">
    <nd ref="1129409835"/>
    <nd ref="1129409631"/>
    <nd ref="1129409566"/>
    <nd ref="1129409948"/>
    <nd ref="1129409835"/>
    <tag k="building" v="yes"/>
  </way>
  <way id="97549195" version="2" timestamp="2012-03-27T08:13:24Z" uid="481934" user="iWowik" changeset="11113698">
    <nd ref="1129409835"/>
    <nd ref="1129409631"/>
    <nd ref="1129409566"/>
    <nd ref="1129409948"/>
    <nd ref="1129409835"/>
    <tag k="addr:city" v="Зеленоград"/>
    <tag k="addr:country" v="RU"/>
    <tag k="building" v="yes"/>
  </way>
  <way id="97549195" version="3" timestamp="2012-03-27T11:53:52Z" uid="481934" user="iWowik" changeset="11115472">
    <nd ref="1129409835"/>
    <nd ref="1129409631"/>
    <nd ref="1129409566"/>
    <nd ref="1129409948"/>
    <nd ref="1129409835"/>
    <tag k="addr:city" v="Зеленоград"/>
    <tag k="addr:country" v="RU"/>
    <tag k="addr:region" v="Москва"/>
    <tag k="building" v="yes"/>
  </way>
  <way id="97549196" version="1" timestamp="2011-01-31T13:43:33Z" uid="115477" user="wowik" changeset="7145124">
    <nd ref="1129409708"/>
    <nd ref="1129409833"/>
    <nd ref="1129409858"/>
    <nd ref="1129409797"/>
    <nd ref="1129409731"/>
    <nd ref="1129409643"/>
    <nd ref="1129409693"/>
    <nd ref="1129409603"/>
    <nd ref="1129409708"/>
    <tag k="building" v="yes"/>
  </way>
  <way id="97549196" version="2" timestamp="2012-03-27T08:14:34Z" uid="481934" user="iWowik" changeset="11113698">
    <nd ref="1129409708"/>
    <nd ref="1129409833"/>
    <nd ref="1129409858"/>
    <nd ref="1129409797"/>
    <nd ref="1129409731"/>
    <nd ref="1129409643"/>
    <nd ref="1129409693"/>
    <nd ref="1129409603"/>
    <nd ref="1129409708"/>
    <tag k="addr:city" v="Зеленоград"/>
    <tag k="addr:country" v="RU"/>
    <tag k="building" v="yes"/>
  </way>
  <way id="97549196" version="3" timestamp="2012-03-27T11:55:49Z" uid="481934" user="iWowik" changeset="11115472">
    <nd ref="1129409708"/>
    <nd ref="1129409833"/>
    <nd ref="1129409858"/>
    <nd ref="1129409797"/>
    <nd ref="1129409731"/>
    <nd ref="1129409643"/>
    <nd ref="1129409693"/>
    <nd ref="1129409603"/>
    <nd ref="1129409708"/>
    <tag k="addr:city" v="Зеленоград"/>
    <tag k="addr:country" v="RU"/>
    <tag k="addr:region" v="Москва"/>
    <tag k="building" v="yes"/>
  </way>
  <way id="97549197" version="1" timestamp="2011-01-31T13:43:33Z" uid="115477" user="wowik" changeset="7145124">
    <nd ref="1129409903"/>
    <nd ref="1129409726"/>
    <nd ref="1129409641"/>
    <nd ref="1129409690"/>
    <nd ref="1129409903"/>
    <tag k="building" v="yes"/>
  </way>
  <way id="97549197" version="2" timestamp="2012-03-27T08:12:02Z" uid="481934" user="iWowik" changeset="11113698">
    <nd ref="1129409903"/>
    <nd ref="1129409726"/>
    <nd ref="1129409641"/>
    <nd ref="1129409690"/>
    <nd ref="1129409903"/>
    <tag k="addr:city" v="Зеленоград"/>
    <tag k="addr:country" v="RU"/>
    <tag k="building" v="yes"/>
  </way>
  <way id="97549197" version="3" timestamp="2012-03-27T11:50:22Z" uid="481934" user="iWowik" changeset="11115472">
    <nd ref="1129409903"/>
    <nd ref="1129409726"/>
    <nd ref="1129409641"/>
    <nd ref="1129409690"/>
    <nd ref="1129409903"/>
    <tag k="addr:city" v="Зеленоград"/>
    <tag k="addr:country" v="RU"/>
    <tag k="addr:region" v="Москва"/>
    <tag k="building" v="yes"/>
  </way>
  <way id="97549198" version="1" timestamp="2011-01-31T13:43:34Z" uid="115477" user="wowik" changeset="7145124">
    <nd ref="1129409889"/>
    <nd ref="1129409550"/>
    <nd ref="1129409936"/>
    <nd ref="1129409963"/>
    <nd ref="1129409889"/>
    <tag k="building" v="yes"/>
  </way>
  <way id="97549198" version="2" timestamp="2012-03-27T08:13:33Z" uid="481934" user="iWowik" changeset="11113698">
    <nd ref="1129409889"/>
    <nd ref="1129409550"/>
    <nd ref="1129409936"/>
    <nd ref="1129409963"/>
    <nd ref="1129409889"/>
    <tag k="addr:city" v="Зеленоград"/>
    <tag k="addr:country" v="RU"/>
    <tag k="building" v="yes"/>
  </way>
  <way id="97549198" version="3" timestamp="2012-03-27T11:54:00Z" uid="481934" user="iWowik" changeset="11115472">
    <nd ref="1129409889"/>
    <nd ref="1129409550"/>
    <nd ref="1129409936"/>
    <nd ref="1129409963"/>
    <nd ref="1129409889"/>
    <tag k="addr:city" v="Зеленоград"/>
    <tag k="addr:country" v="RU"/>
    <tag k="addr:region" v="Москва"/>
    <tag k="building" v="yes"/>
  </way>
  <way id="97549199" version="1" timestamp="2011-01-31T13:43:34Z" uid="115477" user="wowik" changeset="7145124">
    <nd ref="1129409562"/>
    <nd ref="1129409556"/>
    <nd ref="1129409671"/>
    <nd ref="1129409591"/>
    <nd ref="1129409627"/>
    <nd ref="1129409562"/>
    <tag k="building" v="yes"/>
    <tag k="building:levels" v="1"/>
  </way>
  <way id="97549199" version="2" timestamp="2011-01-31T13:58:37Z" uid="115477" user="wowik" changeset="7145251">
    <nd ref="1129409562"/>
    <nd ref="1129409556"/>
    <nd ref="1129409671"/>
    <nd ref="1129409591"/>
    <nd ref="1129409627"/>
    <nd ref="1129409562"/>
    <tag k="addr:city" v="Зеленоград"/>
    <tag k="addr:housenumber" v="29 с2"/>
    <tag k="addr:street" v="Заводская улица"/>
    <tag k="building" v="yes"/>
    <tag k="building:levels" v="1"/>
  </way>
  <way id="97549199" version="3" timestamp="2012-03-27T08:08:25Z" uid="481934" user="iWowik" changeset="11113698">
    <nd ref="1129409562"/>
    <nd ref="1129409556"/>
    <nd ref="1129409671"/>
    <nd ref="1129409591"/>
    <nd ref="1129409627"/>
    <nd ref="1129409562"/>
    <tag k="addr:city" v="Зеленоград"/>
    <tag k="addr:country" v="RU"/>
    <tag k="addr:housenumber" v="29 с2"/>
    <tag k="addr:street" v="Заводская улица"/>
    <tag k="building" v="yes"/>
    <tag k="building:levels" v="1"/>
  </way>
  <way id="97549199" version="4" timestamp="2012-03-27T11:40:33Z" uid="481934" user="iWowik" changeset="11115472">
    <nd ref="1129409562"/>
    <nd ref="1129409556"/>
    <nd ref="1129409671"/>
    <nd ref="1129409591"/>
    <nd ref="1129409627"/>
    <nd ref="1129409562"/>
    <tag k="addr:city" v="Зеленоград"/>
    <tag k="addr:country" v="RU"/>
    <tag k="addr:housenumber" v="29 с2"/>
    <tag k="addr:region" v="Москва"/>
    <tag k="addr:street" v="Заводская улица"/>
    <tag k="building" v="yes"/>
    <tag k="building:levels" v="1"/>
  </way>
  <way id="97549200" version="1" timestamp="2011-01-31T13:43:34Z" uid="115477" user="wowik" changeset="7145124">
    <nd ref="1129409834"/>
    <nd ref="1129409767"/>
    <tag k="highway" v="service"/>
  </way>
  <way id="97549201" version="1" timestamp="2011-01-31T13:43:34Z" uid="115477" user="wowik" changeset="7145124">
    <nd ref="1129409728"/>
    <nd ref="1129409522"/>
    <nd ref="1129409905"/>
    <nd ref="1129409937"/>
    <nd ref="1129409728"/>
  </way>
  <way id="97549201" version="2" timestamp="2011-01-31T14:04:09Z" uid="115477" user="wowik" changeset="7145302">
    <nd ref="1129409728"/>
    <nd ref="1129409522"/>
    <nd ref="1129409905"/>
    <nd ref="1129409937"/>
    <nd ref="1129409728"/>
    <tag k="building" v="yes"/>
  </way>
  <way id="97549201" version="3" timestamp="2012-03-27T08:12:15Z" uid="481934" user="iWowik" changeset="11113698">
    <nd ref="1129409728"/>
    <nd ref="1129409522"/>
    <nd ref="1129409905"/>
    <nd ref="1129409937"/>
    <nd ref="1129409728"/>
    <tag k="addr:city" v="Зеленоград"/>
    <tag k="addr:country" v="RU"/>
    <tag k="building" v="yes"/>
  </way>
  <way id="97549201" version="4" timestamp="2012-03-27T11:50:37Z" uid="481934" user="iWowik" changeset="11115472">
    <nd ref="1129409728"/>
    <nd ref="1129409522"/>
    <nd ref="1129409905"/>
    <nd ref="1129409937"/>
    <nd ref="1129409728"/>
    <tag k="addr:city" v="Зеленоград"/>
    <tag k="addr:country" v="RU"/>
    <tag k="addr:region" v="Москва"/>
    <tag k="building" v="yes"/>
  </way>
  <way id="97549202" version="1" timestamp="2011-01-31T13:43:34Z" uid="115477" user="wowik" changeset="7145124">
    <nd ref="1129409632"/>
    <nd ref="1129409900"/>
    <nd ref="1129409837"/>
    <nd ref="1129409770"/>
    <nd ref="1129409804"/>
    <nd ref="1129409736"/>
    <nd ref="1129409632"/>
    <tag k="building" v="yes"/>
    <tag k="building:levels" v="1"/>
    <tag k="landuse" v="garages"/>
  </way>
  <way id="97549202" version="2" timestamp="2011-09-13T10:38:52Z" uid="29320" user="Komяpa" changeset="9288237">
    <nd ref="1129409632"/>
    <nd ref="1129409900"/>
    <nd ref="1129409837"/>
    <nd ref="1129409770"/>
    <nd ref="1129409804"/>
    <nd ref="1129409736"/>
    <nd ref="1129409632"/>
    <tag k="building" v="garages"/>
    <tag k="building:levels" v="1"/>
  </way>
  <way id="97549203" version="1" timestamp="2011-01-31T13:43:35Z" uid="115477" user="wowik" changeset="7145124">
    <nd ref="1129409664"/>
    <nd ref="1129409800"/>
    <nd ref="1129409732"/>
    <nd ref="1129409765"/>
    <nd ref="1129409664"/>
    <tag k="building" v="yes"/>
  </way>
  <way id="97549203" version="2" timestamp="2012-03-27T08:13:11Z" uid="481934" user="iWowik" changeset="11113698">
    <nd ref="1129409664"/>
    <nd ref="1129409800"/>
    <nd ref="1129409732"/>
    <nd ref="1129409765"/>
    <nd ref="1129409664"/>
    <tag k="addr:city" v="Зеленоград"/>
    <tag k="addr:country" v="RU"/>
    <tag k="building" v="yes"/>
  </way>
  <way id="97549203" version="3" timestamp="2012-03-27T11:51:43Z" uid="481934" user="iWowik" changeset="11115472">
    <nd ref="1129409664"/>
    <nd ref="1129409800"/>
    <nd ref="1129409732"/>
    <nd ref="1129409765"/>
    <nd ref="1129409664"/>
    <tag k="addr:city" v="Зеленоград"/>
    <tag k="addr:country" v="RU"/>
    <tag k="addr:region" v="Москва"/>
    <tag k="building" v="yes"/>
  </way>
  <way id="97549204" version="1" timestamp="2011-01-31T13:43:35Z" uid="115477" user="wowik" changeset="7145124">
    <nd ref="1129409562"/>
    <nd ref="1129409944"/>
    <nd ref="1129409881"/>
    <nd ref="1129409910"/>
    <nd ref="1129409577"/>
    <nd ref="1129409822"/>
    <nd ref="1129409556"/>
    <nd ref="1129409562"/>
    <tag k="building" v="yes"/>
    <tag k="building:levels" v="1"/>
    <tag k="landuse" v="garages"/>
  </way>
  <way id="97549204" version="2" timestamp="2011-09-13T10:38:52Z" uid="29320" user="Komяpa" changeset="9288237">
    <nd ref="1129409562"/>
    <nd ref="1129409944"/>
    <nd ref="1129409881"/>
    <nd ref="1129409910"/>
    <nd ref="1129409577"/>
    <nd ref="1129409822"/>
    <nd ref="1129409556"/>
    <nd ref="1129409562"/>
    <tag k="building" v="garages"/>
    <tag k="building:levels" v="1"/>
  </way>
  <way id="97549205" version="1" timestamp="2011-01-31T13:43:35Z" uid="115477" user="wowik" changeset="7145124">
    <nd ref="1129409599"/>
    <nd ref="1129409868"/>
    <nd ref="1129409809"/>
    <nd ref="1129409741"/>
    <nd ref="1129409599"/>
    <tag k="building" v="yes"/>
  </way>
  <way id="97549205" version="2" timestamp="2012-03-27T08:11:50Z" uid="481934" user="iWowik" changeset="11113698">
    <nd ref="1129409599"/>
    <nd ref="1129409868"/>
    <nd ref="1129409809"/>
    <nd ref="1129409741"/>
    <nd ref="1129409599"/>
    <tag k="addr:city" v="Зеленоград"/>
    <tag k="addr:country" v="RU"/>
    <tag k="building" v="yes"/>
  </way>
  <way id="97549205" version="3" timestamp="2012-03-27T11:52:36Z" uid="481934" user="iWowik" changeset="11115472">
    <nd ref="1129409599"/>
    <nd ref="1129409868"/>
    <nd ref="1129409809"/>
    <nd ref="1129409741"/>
    <nd ref="1129409599"/>
    <tag k="addr:city" v="Зеленоград"/>
    <tag k="addr:country" v="RU"/>
    <tag k="addr:region" v="Москва"/>
    <tag k="building" v="yes"/>
  </way>
  <way id="97549206" version="1" timestamp="2011-01-31T13:43:35Z" uid="115477" user="wowik" changeset="7145124">
    <nd ref="1129409695"/>
    <nd ref="1129409818"/>
    <nd ref="1129409842"/>
    <nd ref="1129409778"/>
    <nd ref="1129409695"/>
    <tag k="building" v="yes"/>
    <tag k="building:levels" v="1"/>
    <tag k="landuse" v="garages"/>
  </way>
  <way id="97549206" version="2" timestamp="2011-09-13T10:38:52Z" uid="29320" user="Komяpa" changeset="9288237">
    <nd ref="1129409695"/>
    <nd ref="1129409818"/>
    <nd ref="1129409842"/>
    <nd ref="1129409778"/>
    <nd ref="1129409695"/>
    <tag k="building" v="garages"/>
    <tag k="building:levels" v="1"/>
  </way>
  <way id="97549207" version="1" timestamp="2011-01-31T13:43:35Z" uid="115477" user="wowik" changeset="7145124">
    <nd ref="1129409942"/>
    <nd ref="1129409609"/>
    <nd ref="1129409645"/>
    <nd ref="1129409573"/>
    <nd ref="1129409942"/>
    <tag k="building" v="yes"/>
  </way>
  <way id="97549207" version="2" timestamp="2012-03-27T08:12:54Z" uid="481934" user="iWowik" changeset="11113698">
    <nd ref="1129409942"/>
    <nd ref="1129409609"/>
    <nd ref="1129409645"/>
    <nd ref="1129409573"/>
    <nd ref="1129409942"/>
    <tag k="addr:city" v="Зеленоград"/>
    <tag k="addr:country" v="RU"/>
    <tag k="building" v="yes"/>
  </way>
  <way id="97549207" version="3" timestamp="2012-03-27T11:53:25Z" uid="481934" user="iWowik" changeset="11115472">
    <nd ref="1129409942"/>
    <nd ref="1129409609"/>
    <nd ref="1129409645"/>
    <nd ref="1129409573"/>
    <nd ref="1129409942"/>
    <tag k="addr:city" v="Зеленоград"/>
    <tag k="addr:country" v="RU"/>
    <tag k="addr:region" v="Москва"/>
    <tag k="building" v="yes"/>
  </way>
  <way id="97549208" version="1" timestamp="2011-01-31T13:43:36Z" uid="115477" user="wowik" changeset="7145124">
    <nd ref="1129409691"/>
    <nd ref="1129409812"/>
    <nd ref="1129409742"/>
    <nd ref="1129409773"/>
    <nd ref="1129409691"/>
    <tag k="building" v="yes"/>
  </way>
  <way id="97549208" version="2" timestamp="2011-01-31T14:04:09Z" uid="115477" user="wowik" changeset="7145302">
    <nd ref="1129409691"/>
    <nd ref="1129409812"/>
    <nd ref="1129409742"/>
    <nd ref="1129409773"/>
    <nd ref="1129409691"/>
    <tag k="addr:city" v="Зеленоград"/>
    <tag k="addr:housenumber" v="34 с4"/>
    <tag k="addr:street" v="Заводская улица"/>
    <tag k="building" v="yes"/>
  </way>
  <way id="97549208" version="3" timestamp="2012-03-27T08:08:53Z" uid="481934" user="iWowik" changeset="11113698">
    <nd ref="1129409691"/>
    <nd ref="1129409812"/>
    <nd ref="1129409742"/>
    <nd ref="1129409773"/>
    <nd ref="1129409691"/>
    <tag k="addr:city" v="Зеленоград"/>
    <tag k="addr:country" v="RU"/>
    <tag k="addr:housenumber" v="34 с4"/>
    <tag k="addr:street" v="Заводская улица"/>
    <tag k="building" v="yes"/>
  </way>
  <way id="97549208" version="4" timestamp="2012-03-27T11:41:56Z" uid="481934" user="iWowik" changeset="11115472">
    <nd ref="1129409691"/>
    <nd ref="1129409812"/>
    <nd ref="1129409742"/>
    <nd ref="1129409773"/>
    <nd ref="1129409691"/>
    <tag k="addr:city" v="Зеленоград"/>
    <tag k="addr:country" v="RU"/>
    <tag k="addr:housenumber" v="34 с4"/>
    <tag k="addr:region" v="Москва"/>
    <tag k="addr:street" v="Заводская улица"/>
    <tag k="building" v="yes"/>
  </way>
  <way id="97549209" version="1" timestamp="2011-01-31T13:43:36Z" uid="115477" user="wowik" changeset="7145124">
    <nd ref="1129409959"/>
    <nd ref="1129409629"/>
    <nd ref="1129409564"/>
    <nd ref="1129409946"/>
    <nd ref="1129409959"/>
    <tag k="building" v="yes"/>
    <tag k="building:levels" v="1"/>
    <tag k="landuse" v="garages"/>
  </way>
  <way id="97549209" version="2" timestamp="2011-09-13T10:38:53Z" uid="29320" user="Komяpa" changeset="9288237">
    <nd ref="1129409959"/>
    <nd ref="1129409629"/>
    <nd ref="1129409564"/>
    <nd ref="1129409946"/>
    <nd ref="1129409959"/>
    <tag k="building" v="garages"/>
    <tag k="building:levels" v="1"/>
  </way>
  <way id="97549210" version="1" timestamp="2011-01-31T13:43:36Z" uid="115477" user="wowik" changeset="7145124">
    <nd ref="1129409928"/>
    <nd ref="1129409589"/>
    <nd ref="1129409528"/>
    <nd ref="1129409559"/>
    <nd ref="1129409928"/>
    <tag k="building" v="yes"/>
  </way>
  <way id="97549210" version="2" timestamp="2012-03-27T08:13:02Z" uid="481934" user="iWowik" changeset="11113698">
    <nd ref="1129409928"/>
    <nd ref="1129409589"/>
    <nd ref="1129409528"/>
    <nd ref="1129409559"/>
    <nd ref="1129409928"/>
    <tag k="addr:city" v="Зеленоград"/>
    <tag k="addr:country" v="RU"/>
    <tag k="building" v="yes"/>
  </way>
  <way id="97549210" version="3" timestamp="2012-03-27T11:53:33Z" uid="481934" user="iWowik" changeset="11115472">
    <nd ref="1129409928"/>
    <nd ref="1129409589"/>
    <nd ref="1129409528"/>
    <nd ref="1129409559"/>
    <nd ref="1129409928"/>
    <tag k="addr:city" v="Зеленоград"/>
    <tag k="addr:country" v="RU"/>
    <tag k="addr:region" v="Москва"/>
    <tag k="building" v="yes"/>
  </way>
  <way id="97549211" version="1" timestamp="2011-01-31T13:43:36Z" uid="115477" user="wowik" changeset="7145124">
    <nd ref="1129409532"/>
    <nd ref="1129409807"/>
    <nd ref="1129409740"/>
    <nd ref="1129409769"/>
    <nd ref="1129409532"/>
    <tag k="addr:city" v="Зеленоград"/>
    <tag k="building" v="yes"/>
  </way>
  <way id="97549211" version="2" timestamp="2012-03-27T08:12:34Z" uid="481934" user="iWowik" changeset="11113698">
    <nd ref="1129409532"/>
    <nd ref="1129409807"/>
    <nd ref="1129409740"/>
    <nd ref="1129409769"/>
    <nd ref="1129409532"/>
    <tag k="addr:city" v="Зеленоград"/>
    <tag k="addr:country" v="RU"/>
    <tag k="building" v="yes"/>
  </way>
  <way id="97549211" version="3" timestamp="2012-03-27T11:50:56Z" uid="481934" user="iWowik" changeset="11115472">
    <nd ref="1129409532"/>
    <nd ref="1129409807"/>
    <nd ref="1129409740"/>
    <nd ref="1129409769"/>
    <nd ref="1129409532"/>
    <tag k="addr:city" v="Зеленоград"/>
    <tag k="addr:country" v="RU"/>
    <tag k="addr:region" v="Москва"/>
    <tag k="building" v="yes"/>
  </way>
  <way id="97549212" version="1" timestamp="2011-01-31T13:43:37Z" uid="115477" user="wowik" changeset="7145124">
    <nd ref="1129409735"/>
    <nd ref="1129409529"/>
    <nd ref="1129409647"/>
    <nd ref="1129409913"/>
    <nd ref="1129409735"/>
    <tag k="building" v="yes"/>
    <tag k="building:levels" v="1"/>
    <tag k="landuse" v="garages"/>
  </way>
  <way id="97549212" version="2" timestamp="2011-09-13T10:38:53Z" uid="29320" user="Komяpa" changeset="9288237">
    <nd ref="1129409735"/>
    <nd ref="1129409529"/>
    <nd ref="1129409647"/>
    <nd ref="1129409913"/>
    <nd ref="1129409735"/>
    <tag k="building" v="garages"/>
    <tag k="building:levels" v="1"/>
  </way>
  <way id="97549213" version="1" timestamp="2011-01-31T13:43:37Z" uid="115477" user="wowik" changeset="7145124">
    <nd ref="1129409864"/>
    <nd ref="1129409834"/>
    <nd ref="1129409673"/>
    <tag k="highway" v="service"/>
  </way>
  <way id="97549214" version="1" timestamp="2011-01-31T13:43:37Z" uid="115477" user="wowik" changeset="7145124">
    <nd ref="1129409766"/>
    <nd ref="1129409878"/>
    <nd ref="1129409907"/>
    <nd ref="1129409845"/>
    <nd ref="1129409780"/>
    <nd ref="1129409709"/>
    <nd ref="1129409746"/>
    <nd ref="1129409660"/>
    <nd ref="1129409766"/>
    <tag k="addr:city" v="Зеленоград"/>
    <tag k="building" v="yes"/>
  </way>
  <way id="97549214" version="2" timestamp="2012-03-27T08:14:34Z" uid="481934" user="iWowik" changeset="11113698">
    <nd ref="1129409766"/>
    <nd ref="1129409878"/>
    <nd ref="1129409907"/>
    <nd ref="1129409845"/>
    <nd ref="1129409780"/>
    <nd ref="1129409709"/>
    <nd ref="1129409746"/>
    <nd ref="1129409660"/>
    <nd ref="1129409766"/>
    <tag k="addr:city" v="Зеленоград"/>
    <tag k="addr:country" v="RU"/>
    <tag k="building" v="yes"/>
  </way>
  <way id="97549214" version="3" timestamp="2012-03-27T11:55:40Z" uid="481934" user="iWowik" changeset="11115472">
    <nd ref="1129409766"/>
    <nd ref="1129409878"/>
    <nd ref="1129409907"/>
    <nd ref="1129409845"/>
    <nd ref="1129409780"/>
    <nd ref="1129409709"/>
    <nd ref="1129409746"/>
    <nd ref="1129409660"/>
    <nd ref="1129409766"/>
    <tag k="addr:city" v="Зеленоград"/>
    <tag k="addr:country" v="RU"/>
    <tag k="addr:region" v="Москва"/>
    <tag k="building" v="yes"/>
  </way>
  <way id="97549215" version="1" timestamp="2011-01-31T13:43:37Z" uid="115477" user="wowik" changeset="7145124">
    <nd ref="1129409580"/>
    <nd ref="1129409851"/>
    <nd ref="1129409789"/>
    <nd ref="1129409719"/>
    <nd ref="1129409580"/>
    <tag k="building" v="yes"/>
    <tag k="building:levels" v="1"/>
    <tag k="landuse" v="garages"/>
  </way>
  <way id="97549215" version="2" timestamp="2011-09-13T10:38:53Z" uid="29320" user="Komяpa" changeset="9288237">
    <nd ref="1129409580"/>
    <nd ref="1129409851"/>
    <nd ref="1129409789"/>
    <nd ref="1129409719"/>
    <nd ref="1129409580"/>
    <tag k="building" v="garages"/>
    <tag k="building:levels" v="1"/>
  </way>
  <way id="97549216" version="1" timestamp="2011-01-31T13:43:37Z" uid="115477" user="wowik" changeset="7145124">
    <nd ref="1129409914"/>
    <nd ref="1129409576"/>
    <nd ref="1129409961"/>
    <nd ref="1129409543"/>
    <nd ref="1129409914"/>
    <tag k="building" v="yes"/>
  </way>
  <way id="97549216" version="2" timestamp="2012-03-27T08:13:07Z" uid="481934" user="iWowik" changeset="11113698">
    <nd ref="1129409914"/>
    <nd ref="1129409576"/>
    <nd ref="1129409961"/>
    <nd ref="1129409543"/>
    <nd ref="1129409914"/>
    <tag k="addr:city" v="Зеленоград"/>
    <tag k="addr:country" v="RU"/>
    <tag k="building" v="yes"/>
  </way>
  <way id="97549216" version="3" timestamp="2012-03-27T11:53:38Z" uid="481934" user="iWowik" changeset="11115472">
    <nd ref="1129409914"/>
    <nd ref="1129409576"/>
    <nd ref="1129409961"/>
    <nd ref="1129409543"/>
    <nd ref="1129409914"/>
    <tag k="addr:city" v="Зеленоград"/>
    <tag k="addr:country" v="RU"/>
    <tag k="addr:region" v="Москва"/>
    <tag k="building" v="yes"/>
  </way>
  <way id="97549217" version="1" timestamp="2011-01-31T13:43:38Z" uid="115477" user="wowik" changeset="7145124">
    <nd ref="1129409642"/>
    <nd ref="1129409777"/>
    <nd ref="1129409706"/>
    <nd ref="1129409621"/>
    <nd ref="1129409642"/>
  </way>
  <way id="97549217" version="2" timestamp="2011-01-31T14:04:09Z" uid="115477" user="wowik" changeset="7145302">
    <nd ref="1129409642"/>
    <nd ref="1129409777"/>
    <nd ref="1129409706"/>
    <nd ref="1129409621"/>
    <nd ref="1129409642"/>
    <tag k="addr:city" v="Зеленоград"/>
    <tag k="addr:housenumber" v="26 с2?"/>
    <tag k="addr:street" v="Заводская улица"/>
    <tag k="building" v="yes"/>
  </way>
  <way id="97549217" version="3" timestamp="2012-03-27T08:07:55Z" uid="481934" user="iWowik" changeset="11113698">
    <nd ref="1129409642"/>
    <nd ref="1129409777"/>
    <nd ref="1129409706"/>
    <nd ref="1129409621"/>
    <nd ref="1129409642"/>
    <tag k="addr:city" v="Зеленоград"/>
    <tag k="addr:country" v="RU"/>
    <tag k="addr:housenumber" v="26 с2?"/>
    <tag k="addr:street" v="Заводская улица"/>
    <tag k="building" v="yes"/>
  </way>
  <way id="97549217" version="4" timestamp="2012-03-27T11:40:20Z" uid="481934" user="iWowik" changeset="11115472">
    <nd ref="1129409642"/>
    <nd ref="1129409777"/>
    <nd ref="1129409706"/>
    <nd ref="1129409621"/>
    <nd ref="1129409642"/>
    <tag k="addr:city" v="Зеленоград"/>
    <tag k="addr:country" v="RU"/>
    <tag k="addr:housenumber" v="26 с2?"/>
    <tag k="addr:region" v="Москва"/>
    <tag k="addr:street" v="Заводская улица"/>
    <tag k="building" v="yes"/>
  </way>
  <way id="97549218" version="1" timestamp="2011-01-31T13:43:38Z" uid="115477" user="wowik" changeset="7145124">
    <nd ref="1129409657"/>
    <nd ref="1129409794"/>
    <nd ref="1129409727"/>
    <nd ref="1129409759"/>
    <nd ref="1129409657"/>
    <tag k="building" v="yes"/>
  </way>
  <way id="97549218" version="2" timestamp="2012-03-27T08:11:25Z" uid="481934" user="iWowik" changeset="11113698">
    <nd ref="1129409657"/>
    <nd ref="1129409794"/>
    <nd ref="1129409727"/>
    <nd ref="1129409759"/>
    <nd ref="1129409657"/>
    <tag k="addr:city" v="Зеленоград"/>
    <tag k="addr:country" v="RU"/>
    <tag k="building" v="yes"/>
  </way>
  <way id="97549218" version="3" timestamp="2012-03-27T11:50:02Z" uid="481934" user="iWowik" changeset="11115472">
    <nd ref="1129409657"/>
    <nd ref="1129409794"/>
    <nd ref="1129409727"/>
    <nd ref="1129409759"/>
    <nd ref="1129409657"/>
    <tag k="addr:city" v="Зеленоград"/>
    <tag k="addr:country" v="RU"/>
    <tag k="addr:region" v="Москва"/>
    <tag k="building" v="yes"/>
  </way>
  <way id="97549219" version="1" timestamp="2011-01-31T13:43:38Z" uid="115477" user="wowik" changeset="7145124">
    <nd ref="1129409537"/>
    <nd ref="1129409656"/>
    <nd ref="1129409870"/>
    <nd ref="1129409813"/>
    <nd ref="1129409743"/>
    <nd ref="1129409658"/>
    <nd ref="1129409537"/>
    <tag k="building" v="yes"/>
  </way>
  <way id="97549219" version="2" timestamp="2012-03-27T08:14:20Z" uid="481934" user="iWowik" changeset="11113698">
    <nd ref="1129409537"/>
    <nd ref="1129409656"/>
    <nd ref="1129409870"/>
    <nd ref="1129409813"/>
    <nd ref="1129409743"/>
    <nd ref="1129409658"/>
    <nd ref="1129409537"/>
    <tag k="addr:city" v="Зеленоград"/>
    <tag k="addr:country" v="RU"/>
    <tag k="building" v="yes"/>
  </way>
  <way id="97549219" version="3" timestamp="2012-03-27T11:55:06Z" uid="481934" user="iWowik" changeset="11115472">
    <nd ref="1129409537"/>
    <nd ref="1129409656"/>
    <nd ref="1129409870"/>
    <nd ref="1129409813"/>
    <nd ref="1129409743"/>
    <nd ref="1129409658"/>
    <nd ref="1129409537"/>
    <tag k="addr:city" v="Зеленоград"/>
    <tag k="addr:country" v="RU"/>
    <tag k="addr:region" v="Москва"/>
    <tag k="building" v="yes"/>
  </way>
  <way id="97549220" version="1" timestamp="2011-01-31T13:43:38Z" uid="115477" user="wowik" changeset="7145124">
    <nd ref="1129409838"/>
    <nd ref="1129409635"/>
    <nd ref="1129409569"/>
    <nd ref="1129409594"/>
    <nd ref="1129409531"/>
    <nd ref="1129409916"/>
    <nd ref="1129409838"/>
    <tag k="building" v="yes"/>
  </way>
  <way id="97549220" version="2" timestamp="2011-01-31T14:04:10Z" uid="115477" user="wowik" changeset="7145302">
    <nd ref="1129409838"/>
    <nd ref="1129409635"/>
    <nd ref="1129409569"/>
    <nd ref="1129409594"/>
    <nd ref="1129409531"/>
    <nd ref="1129409916"/>
    <nd ref="1129409838"/>
    <tag k="addr:city" v="Зеленоград"/>
    <tag k="addr:housenumber" v="28 с2"/>
    <tag k="addr:street" v="Заводская улица"/>
    <tag k="building" v="yes"/>
  </way>
  <way id="97549220" version="3" timestamp="2012-03-27T08:08:04Z" uid="481934" user="iWowik" changeset="11113698">
    <nd ref="1129409838"/>
    <nd ref="1129409635"/>
    <nd ref="1129409569"/>
    <nd ref="1129409594"/>
    <nd ref="1129409531"/>
    <nd ref="1129409916"/>
    <nd ref="1129409838"/>
    <tag k="addr:city" v="Зеленоград"/>
    <tag k="addr:country" v="RU"/>
    <tag k="addr:housenumber" v="28 с2"/>
    <tag k="addr:street" v="Заводская улица"/>
    <tag k="building" v="yes"/>
  </way>
  <way id="97549220" version="4" timestamp="2012-03-27T11:40:27Z" uid="481934" user="iWowik" changeset="11115472">
    <nd ref="1129409838"/>
    <nd ref="1129409635"/>
    <nd ref="1129409569"/>
    <nd ref="1129409594"/>
    <nd ref="1129409531"/>
    <nd ref="1129409916"/>
    <nd ref="1129409838"/>
    <tag k="addr:city" v="Зеленоград"/>
    <tag k="addr:country" v="RU"/>
    <tag k="addr:housenumber" v="28 с2"/>
    <tag k="addr:region" v="Москва"/>
    <tag k="addr:street" v="Заводская улица"/>
    <tag k="building" v="yes"/>
  </way>
  <way id="97549221" version="1" timestamp="2011-01-31T13:43:38Z" uid="115477" user="wowik" changeset="7145124">
    <nd ref="1129409811"/>
    <nd ref="1129409922"/>
    <nd ref="1129409952"/>
    <nd ref="1129409890"/>
    <nd ref="1129409811"/>
  </way>
  <way id="97549221" version="2" timestamp="2011-01-31T14:04:10Z" uid="115477" user="wowik" changeset="7145302">
    <nd ref="1129409811"/>
    <nd ref="1129409922"/>
    <nd ref="1129409952"/>
    <nd ref="1129409890"/>
    <nd ref="1129409811"/>
    <tag k="addr:city" v="Зеленоград"/>
    <tag k="addr:housenumber" v="36 с2"/>
    <tag k="addr:street" v="Заводская улица"/>
    <tag k="building" v="yes"/>
    <tag k="building:levels" v="1"/>
  </way>
  <way id="97549221" version="3" timestamp="2012-03-27T08:08:59Z" uid="481934" user="iWowik" changeset="11113698">
    <nd ref="1129409811"/>
    <nd ref="1129409922"/>
    <nd ref="1129409952"/>
    <nd ref="1129409890"/>
    <nd ref="1129409811"/>
    <tag k="addr:city" v="Зеленоград"/>
    <tag k="addr:country" v="RU"/>
    <tag k="addr:housenumber" v="36 с2"/>
    <tag k="addr:street" v="Заводская улица"/>
    <tag k="building" v="yes"/>
    <tag k="building:levels" v="1"/>
  </way>
  <way id="97549221" version="4" timestamp="2012-03-27T11:42:17Z" uid="481934" user="iWowik" changeset="11115472">
    <nd ref="1129409811"/>
    <nd ref="1129409922"/>
    <nd ref="1129409952"/>
    <nd ref="1129409890"/>
    <nd ref="1129409811"/>
    <tag k="addr:city" v="Зеленоград"/>
    <tag k="addr:country" v="RU"/>
    <tag k="addr:housenumber" v="36 с2"/>
    <tag k="addr:region" v="Москва"/>
    <tag k="addr:street" v="Заводская улица"/>
    <tag k="building" v="yes"/>
    <tag k="building:levels" v="1"/>
  </way>
  <way id="97549222" version="1" timestamp="2011-01-31T13:43:38Z" uid="115477" user="wowik" changeset="7145124">
    <nd ref="1129409902"/>
    <nd ref="1129409725"/>
    <nd ref="1129409758"/>
    <nd ref="1129409689"/>
    <nd ref="1129409902"/>
    <tag k="building" v="yes"/>
    <tag k="building:levels" v="1"/>
    <tag k="landuse" v="garages"/>
  </way>
  <way id="97549222" version="2" timestamp="2011-09-13T10:38:53Z" uid="29320" user="Komяpa" changeset="9288237">
    <nd ref="1129409902"/>
    <nd ref="1129409725"/>
    <nd ref="1129409758"/>
    <nd ref="1129409689"/>
    <nd ref="1129409902"/>
    <tag k="building" v="garages"/>
    <tag k="building:levels" v="1"/>
  </way>
  <way id="97549223" version="1" timestamp="2011-01-31T13:43:38Z" uid="115477" user="wowik" changeset="7145124">
    <nd ref="1129409885"/>
    <nd ref="1129409547"/>
    <nd ref="1129409933"/>
    <nd ref="1129409867"/>
    <nd ref="1129409885"/>
    <tag k="building" v="yes"/>
  </way>
  <way id="97549223" version="2" timestamp="2012-03-27T08:13:12Z" uid="481934" user="iWowik" changeset="11113698">
    <nd ref="1129409885"/>
    <nd ref="1129409547"/>
    <nd ref="1129409933"/>
    <nd ref="1129409867"/>
    <nd ref="1129409885"/>
    <tag k="addr:city" v="Зеленоград"/>
    <tag k="addr:country" v="RU"/>
    <tag k="building" v="yes"/>
  </way>
  <way id="97549223" version="3" timestamp="2012-03-27T11:53:43Z" uid="481934" user="iWowik" changeset="11115472">
    <nd ref="1129409885"/>
    <nd ref="1129409547"/>
    <nd ref="1129409933"/>
    <nd ref="1129409867"/>
    <nd ref="1129409885"/>
    <tag k="addr:city" v="Зеленоград"/>
    <tag k="addr:country" v="RU"/>
    <tag k="addr:region" v="Москва"/>
    <tag k="building" v="yes"/>
  </way>
  <way id="97549224" version="1" timestamp="2011-01-31T13:43:39Z" uid="115477" user="wowik" changeset="7145124">
    <nd ref="1129409901"/>
    <nd ref="1129409717"/>
    <nd ref="1129409633"/>
    <nd ref="1129409568"/>
    <nd ref="1129409901"/>
    <tag k="building" v="yes"/>
    <tag k="building:levels" v="1"/>
  </way>
  <way id="97549224" version="2" timestamp="2011-01-31T13:58:34Z" uid="115477" user="wowik" changeset="7145251">
    <nd ref="1129409901"/>
    <nd ref="1129409717"/>
    <nd ref="1129409633"/>
    <nd ref="1129409568"/>
    <nd ref="1129409901"/>
    <tag k="addr:city" v="Зеленоград"/>
    <tag k="addr:housenumber" v="29 с1"/>
    <tag k="addr:street" v="Заводская улица"/>
    <tag k="building" v="yes"/>
    <tag k="building:levels" v="1"/>
  </way>
  <way id="97549224" version="3" timestamp="2012-03-27T08:08:24Z" uid="481934" user="iWowik" changeset="11113698">
    <nd ref="1129409901"/>
    <nd ref="1129409717"/>
    <nd ref="1129409633"/>
    <nd ref="1129409568"/>
    <nd ref="1129409901"/>
    <tag k="addr:city" v="Зеленоград"/>
    <tag k="addr:country" v="RU"/>
    <tag k="addr:housenumber" v="29 с1"/>
    <tag k="addr:street" v="Заводская улица"/>
    <tag k="building" v="yes"/>
    <tag k="building:levels" v="1"/>
  </way>
  <way id="97549224" version="4" timestamp="2012-03-27T11:40:31Z" uid="481934" user="iWowik" changeset="11115472">
    <nd ref="1129409901"/>
    <nd ref="1129409717"/>
    <nd ref="1129409633"/>
    <nd ref="1129409568"/>
    <nd ref="1129409901"/>
    <tag k="addr:city" v="Зеленоград"/>
    <tag k="addr:country" v="RU"/>
    <tag k="addr:housenumber" v="29 с1"/>
    <tag k="addr:region" v="Москва"/>
    <tag k="addr:street" v="Заводская улица"/>
    <tag k="building" v="yes"/>
    <tag k="building:levels" v="1"/>
  </way>
  <way id="97549225" version="1" timestamp="2011-01-31T13:43:39Z" uid="115477" user="wowik" changeset="7145124">
    <nd ref="1129409605"/>
    <nd ref="1129409877"/>
    <nd ref="1129409820"/>
    <nd ref="1129409844"/>
    <nd ref="1129409605"/>
    <tag k="building" v="yes"/>
  </way>
  <way id="97549225" version="2" timestamp="2012-03-27T08:11:53Z" uid="481934" user="iWowik" changeset="11113698">
    <nd ref="1129409605"/>
    <nd ref="1129409877"/>
    <nd ref="1129409820"/>
    <nd ref="1129409844"/>
    <nd ref="1129409605"/>
    <tag k="addr:city" v="Зеленоград"/>
    <tag k="addr:country" v="RU"/>
    <tag k="building" v="yes"/>
  </way>
  <way id="97549225" version="3" timestamp="2012-03-27T11:50:13Z" uid="481934" user="iWowik" changeset="11115472">
    <nd ref="1129409605"/>
    <nd ref="1129409877"/>
    <nd ref="1129409820"/>
    <nd ref="1129409844"/>
    <nd ref="1129409605"/>
    <tag k="addr:city" v="Зеленоград"/>
    <tag k="addr:country" v="RU"/>
    <tag k="addr:region" v="Москва"/>
    <tag k="building" v="yes"/>
  </way>
  <way id="97549226" version="1" timestamp="2011-01-31T13:43:39Z" uid="115477" user="wowik" changeset="7145124">
    <nd ref="1129409955"/>
    <nd ref="1129409619"/>
    <nd ref="1129409554"/>
    <nd ref="1129409584"/>
    <nd ref="1129409955"/>
    <tag k="building" v="yes"/>
  </way>
  <way id="97549226" version="2" timestamp="2012-03-27T08:13:22Z" uid="481934" user="iWowik" changeset="11113698">
    <nd ref="1129409955"/>
    <nd ref="1129409619"/>
    <nd ref="1129409554"/>
    <nd ref="1129409584"/>
    <nd ref="1129409955"/>
    <tag k="addr:city" v="Зеленоград"/>
    <tag k="addr:country" v="RU"/>
    <tag k="building" v="yes"/>
  </way>
  <way id="97549226" version="3" timestamp="2012-03-27T11:53:51Z" uid="481934" user="iWowik" changeset="11115472">
    <nd ref="1129409955"/>
    <nd ref="1129409619"/>
    <nd ref="1129409554"/>
    <nd ref="1129409584"/>
    <nd ref="1129409955"/>
    <tag k="addr:city" v="Зеленоград"/>
    <tag k="addr:country" v="RU"/>
    <tag k="addr:region" v="Москва"/>
    <tag k="building" v="yes"/>
  </way>
  <way id="97549227" version="1" timestamp="2011-01-31T13:43:39Z" uid="115477" user="wowik" changeset="7145124">
    <nd ref="1129409879"/>
    <nd ref="1129409696"/>
    <nd ref="1129409607"/>
    <nd ref="1129409644"/>
    <nd ref="1129409572"/>
    <nd ref="1129409956"/>
    <nd ref="1129409897"/>
    <nd ref="1129409925"/>
    <nd ref="1129409859"/>
    <nd ref="1129409798"/>
    <nd ref="1129409879"/>
    <tag k="building" v="yes"/>
  </way>
  <way id="97549227" version="2" timestamp="2012-03-27T08:10:37Z" uid="481934" user="iWowik" changeset="11113698">
    <nd ref="1129409879"/>
    <nd ref="1129409696"/>
    <nd ref="1129409607"/>
    <nd ref="1129409644"/>
    <nd ref="1129409572"/>
    <nd ref="1129409956"/>
    <nd ref="1129409897"/>
    <nd ref="1129409925"/>
    <nd ref="1129409859"/>
    <nd ref="1129409798"/>
    <nd ref="1129409879"/>
    <tag k="addr:city" v="Зеленоград"/>
    <tag k="addr:country" v="RU"/>
    <tag k="building" v="yes"/>
  </way>
  <way id="97549227" version="3" timestamp="2012-03-27T11:48:45Z" uid="481934" user="iWowik" changeset="11115472">
    <nd ref="1129409879"/>
    <nd ref="1129409696"/>
    <nd ref="1129409607"/>
    <nd ref="1129409644"/>
    <nd ref="1129409572"/>
    <nd ref="1129409956"/>
    <nd ref="1129409897"/>
    <nd ref="1129409925"/>
    <nd ref="1129409859"/>
    <nd ref="1129409798"/>
    <nd ref="1129409879"/>
    <tag k="addr:city" v="Зеленоград"/>
    <tag k="addr:country" v="RU"/>
    <tag k="addr:region" v="Москва"/>
    <tag k="building" v="yes"/>
  </way>
  <way id="97549228" version="1" timestamp="2011-01-31T13:43:40Z" uid="115477" user="wowik" changeset="7145124">
    <nd ref="1129409774"/>
    <nd ref="1129409894"/>
    <nd ref="1129409830"/>
    <nd ref="1129409855"/>
    <nd ref="1129409792"/>
    <nd ref="1129409723"/>
    <nd ref="1129409639"/>
    <nd ref="1129409686"/>
    <nd ref="1129409598"/>
    <nd ref="1129409535"/>
    <nd ref="1129409921"/>
    <nd ref="1129409949"/>
    <nd ref="1129409888"/>
    <nd ref="1129409825"/>
    <nd ref="1129409756"/>
    <nd ref="1129409788"/>
    <nd ref="1129409718"/>
    <nd ref="1129409634"/>
    <nd ref="1129409774"/>
    <tag k="building" v="yes"/>
    <tag k="building:levels" v="1"/>
    <tag k="landuse" v="garages"/>
  </way>
  <way id="97549228" version="2" timestamp="2011-09-13T10:38:53Z" uid="29320" user="Komяpa" changeset="9288237">
    <nd ref="1129409774"/>
    <nd ref="1129409894"/>
    <nd ref="1129409830"/>
    <nd ref="1129409855"/>
    <nd ref="1129409792"/>
    <nd ref="1129409723"/>
    <nd ref="1129409639"/>
    <nd ref="1129409686"/>
    <nd ref="1129409598"/>
    <nd ref="1129409535"/>
    <nd ref="1129409921"/>
    <nd ref="1129409949"/>
    <nd ref="1129409888"/>
    <nd ref="1129409825"/>
    <nd ref="1129409756"/>
    <nd ref="1129409788"/>
    <nd ref="1129409718"/>
    <nd ref="1129409634"/>
    <nd ref="1129409774"/>
    <tag k="building" v="garages"/>
    <tag k="building:levels" v="1"/>
  </way>
  <way id="97549229" version="1" timestamp="2011-01-31T13:43:40Z" uid="115477" user="wowik" changeset="7145124">
    <nd ref="1129409924"/>
    <nd ref="1129409745"/>
    <nd ref="1129409775"/>
    <nd ref="1129409704"/>
    <nd ref="1129409617"/>
    <nd ref="1129409553"/>
    <nd ref="1129409710"/>
    <nd ref="1129409624"/>
    <nd ref="1129409560"/>
    <nd ref="1129409941"/>
    <nd ref="1129409524"/>
    <nd ref="1129409908"/>
    <nd ref="1129409846"/>
    <nd ref="1129409781"/>
    <nd ref="1129409816"/>
    <nd ref="1129409748"/>
    <nd ref="1129409661"/>
    <nd ref="1129409587"/>
    <nd ref="1129409620"/>
    <nd ref="1129409555"/>
    <nd ref="1129409939"/>
    <nd ref="1129409875"/>
    <nd ref="1129409904"/>
    <nd ref="1129409841"/>
    <nd ref="1129409776"/>
    <nd ref="1129409705"/>
    <nd ref="1129409924"/>
    <tag k="building" v="yes"/>
  </way>
  <way id="97549229" version="2" timestamp="2012-03-27T08:11:14Z" uid="481934" user="iWowik" changeset="11113698">
    <nd ref="1129409924"/>
    <nd ref="1129409745"/>
    <nd ref="1129409775"/>
    <nd ref="1129409704"/>
    <nd ref="1129409617"/>
    <nd ref="1129409553"/>
    <nd ref="1129409710"/>
    <nd ref="1129409624"/>
    <nd ref="1129409560"/>
    <nd ref="1129409941"/>
    <nd ref="1129409524"/>
    <nd ref="1129409908"/>
    <nd ref="1129409846"/>
    <nd ref="1129409781"/>
    <nd ref="1129409816"/>
    <nd ref="1129409748"/>
    <nd ref="1129409661"/>
    <nd ref="1129409587"/>
    <nd ref="1129409620"/>
    <nd ref="1129409555"/>
    <nd ref="1129409939"/>
    <nd ref="1129409875"/>
    <nd ref="1129409904"/>
    <nd ref="1129409841"/>
    <nd ref="1129409776"/>
    <nd ref="1129409705"/>
    <nd ref="1129409924"/>
    <tag k="addr:city" v="Зеленоград"/>
    <tag k="addr:country" v="RU"/>
    <tag k="building" v="yes"/>
  </way>
  <way id="97549229" version="3" timestamp="2012-03-27T11:49:42Z" uid="481934" user="iWowik" changeset="11115472">
    <nd ref="1129409924"/>
    <nd ref="1129409745"/>
    <nd ref="1129409775"/>
    <nd ref="1129409704"/>
    <nd ref="1129409617"/>
    <nd ref="1129409553"/>
    <nd ref="1129409710"/>
    <nd ref="1129409624"/>
    <nd ref="1129409560"/>
    <nd ref="1129409941"/>
    <nd ref="1129409524"/>
    <nd ref="1129409908"/>
    <nd ref="1129409846"/>
    <nd ref="1129409781"/>
    <nd ref="1129409816"/>
    <nd ref="1129409748"/>
    <nd ref="1129409661"/>
    <nd ref="1129409587"/>
    <nd ref="1129409620"/>
    <nd ref="1129409555"/>
    <nd ref="1129409939"/>
    <nd ref="1129409875"/>
    <nd ref="1129409904"/>
    <nd ref="1129409841"/>
    <nd ref="1129409776"/>
    <nd ref="1129409705"/>
    <nd ref="1129409924"/>
    <tag k="addr:city" v="Зеленоград"/>
    <tag k="addr:country" v="RU"/>
    <tag k="addr:region" v="Москва"/>
    <tag k="building" v="yes"/>
  </way>
  <way id="97549230" version="1" timestamp="2011-01-31T13:43:41Z" uid="115477" user="wowik" changeset="7145124">
    <nd ref="1129409919"/>
    <nd ref="1129409699"/>
    <nd ref="1129409613"/>
    <nd ref="1129409549"/>
    <nd ref="1129409935"/>
    <nd ref="1129409919"/>
    <tag k="building" v="yes"/>
    <tag k="building:levels" v="1"/>
    <tag k="landuse" v="garages"/>
  </way>
  <way id="97549230" version="2" timestamp="2011-09-13T10:38:54Z" uid="29320" user="Komяpa" changeset="9288237">
    <nd ref="1129409919"/>
    <nd ref="1129409699"/>
    <nd ref="1129409613"/>
    <nd ref="1129409549"/>
    <nd ref="1129409935"/>
    <nd ref="1129409919"/>
    <tag k="building" v="garages"/>
    <tag k="building:levels" v="1"/>
  </way>
  <way id="97549231" version="1" timestamp="2011-01-31T13:43:41Z" uid="115477" user="wowik" changeset="7145124">
    <nd ref="1129409525"/>
    <nd ref="1129409764"/>
    <nd ref="1129409694"/>
    <nd ref="1129409604"/>
    <nd ref="1129409525"/>
    <tag k="building" v="yes"/>
  </way>
  <way id="97549231" version="2" timestamp="2012-03-27T08:12:36Z" uid="481934" user="iWowik" changeset="11113698">
    <nd ref="1129409525"/>
    <nd ref="1129409764"/>
    <nd ref="1129409694"/>
    <nd ref="1129409604"/>
    <nd ref="1129409525"/>
    <tag k="addr:city" v="Зеленоград"/>
    <tag k="addr:country" v="RU"/>
    <tag k="building" v="yes"/>
  </way>
  <way id="97549231" version="3" timestamp="2012-03-27T11:53:06Z" uid="481934" user="iWowik" changeset="11115472">
    <nd ref="1129409525"/>
    <nd ref="1129409764"/>
    <nd ref="1129409694"/>
    <nd ref="1129409604"/>
    <nd ref="1129409525"/>
    <tag k="addr:city" v="Зеленоград"/>
    <tag k="addr:country" v="RU"/>
    <tag k="addr:region" v="Москва"/>
    <tag k="building" v="yes"/>
  </way>
  <way id="97549232" version="1" timestamp="2011-01-31T13:43:41Z" uid="115477" user="wowik" changeset="7145124">
    <nd ref="1129409536"/>
    <nd ref="1129409772"/>
    <nd ref="1129409701"/>
    <nd ref="1129409614"/>
    <nd ref="1129409536"/>
    <tag k="building" v="yes"/>
    <tag k="building:levels" v="1"/>
    <tag k="landuse" v="garages"/>
  </way>
  <way id="97549232" version="2" timestamp="2011-09-13T10:38:54Z" uid="29320" user="Komяpa" changeset="9288237">
    <nd ref="1129409536"/>
    <nd ref="1129409772"/>
    <nd ref="1129409701"/>
    <nd ref="1129409614"/>
    <nd ref="1129409536"/>
    <tag k="building" v="garages"/>
    <tag k="building:levels" v="1"/>
  </way>
  <way id="97549233" version="1" timestamp="2011-01-31T13:43:41Z" uid="115477" user="wowik" changeset="7145124">
    <nd ref="1129409616"/>
    <nd ref="1129409893"/>
    <nd ref="1129409829"/>
    <nd ref="1129409762"/>
    <nd ref="1129409791"/>
    <nd ref="1129409722"/>
    <nd ref="1129409638"/>
    <nd ref="1129409571"/>
    <nd ref="1129409597"/>
    <nd ref="1129409534"/>
    <nd ref="1129409920"/>
    <nd ref="1129409854"/>
    <nd ref="1129409887"/>
    <nd ref="1129409824"/>
    <nd ref="1129409755"/>
    <nd ref="1129409679"/>
    <nd ref="1129409616"/>
    <tag k="building" v="yes"/>
  </way>
  <way id="97549233" version="2" timestamp="2012-03-27T08:10:54Z" uid="481934" user="iWowik" changeset="11113698">
    <nd ref="1129409616"/>
    <nd ref="1129409893"/>
    <nd ref="1129409829"/>
    <nd ref="1129409762"/>
    <nd ref="1129409791"/>
    <nd ref="1129409722"/>
    <nd ref="1129409638"/>
    <nd ref="1129409571"/>
    <nd ref="1129409597"/>
    <nd ref="1129409534"/>
    <nd ref="1129409920"/>
    <nd ref="1129409854"/>
    <nd ref="1129409887"/>
    <nd ref="1129409824"/>
    <nd ref="1129409755"/>
    <nd ref="1129409679"/>
    <nd ref="1129409616"/>
    <tag k="addr:city" v="Зеленоград"/>
    <tag k="addr:country" v="RU"/>
    <tag k="building" v="yes"/>
  </way>
  <way id="97549233" version="3" timestamp="2012-03-27T11:49:21Z" uid="481934" user="iWowik" changeset="11115472">
    <nd ref="1129409616"/>
    <nd ref="1129409893"/>
    <nd ref="1129409829"/>
    <nd ref="1129409762"/>
    <nd ref="1129409791"/>
    <nd ref="1129409722"/>
    <nd ref="1129409638"/>
    <nd ref="1129409571"/>
    <nd ref="1129409597"/>
    <nd ref="1129409534"/>
    <nd ref="1129409920"/>
    <nd ref="1129409854"/>
    <nd ref="1129409887"/>
    <nd ref="1129409824"/>
    <nd ref="1129409755"/>
    <nd ref="1129409679"/>
    <nd ref="1129409616"/>
    <tag k="addr:city" v="Зеленоград"/>
    <tag k="addr:country" v="RU"/>
    <tag k="addr:region" v="Москва"/>
    <tag k="building" v="yes"/>
  </way>
  <way id="97549234" version="1" timestamp="2011-01-31T13:43:42Z" uid="115477" user="wowik" changeset="7145124">
    <nd ref="1129409808"/>
    <nd ref="1129409595"/>
    <nd ref="1129409533"/>
    <nd ref="1129409918"/>
    <nd ref="1129409808"/>
    <tag k="building" v="yes"/>
  </way>
  <way id="97549234" version="2" timestamp="2012-03-27T08:13:10Z" uid="481934" user="iWowik" changeset="11113698">
    <nd ref="1129409808"/>
    <nd ref="1129409595"/>
    <nd ref="1129409533"/>
    <nd ref="1129409918"/>
    <nd ref="1129409808"/>
    <tag k="addr:city" v="Зеленоград"/>
    <tag k="addr:country" v="RU"/>
    <tag k="building" v="yes"/>
  </way>
  <way id="97549234" version="3" timestamp="2012-03-27T11:51:38Z" uid="481934" user="iWowik" changeset="11115472">
    <nd ref="1129409808"/>
    <nd ref="1129409595"/>
    <nd ref="1129409533"/>
    <nd ref="1129409918"/>
    <nd ref="1129409808"/>
    <tag k="addr:city" v="Зеленоград"/>
    <tag k="addr:country" v="RU"/>
    <tag k="addr:region" v="Москва"/>
    <tag k="building" v="yes"/>
  </way>
  <way id="97549235" version="1" timestamp="2011-01-31T13:43:42Z" uid="115477" user="wowik" changeset="7145124">
    <nd ref="1129409527"/>
    <nd ref="1129409801"/>
    <nd ref="1129409734"/>
    <nd ref="1129409646"/>
    <nd ref="1129409575"/>
    <nd ref="1129409606"/>
    <nd ref="1129409540"/>
    <nd ref="1129409927"/>
    <nd ref="1129409861"/>
    <nd ref="1129409896"/>
    <nd ref="1129409527"/>
    <tag k="addr:city" v="Зеленоград"/>
    <tag k="building" v="yes"/>
  </way>
  <way id="97549235" version="2" timestamp="2012-03-27T08:10:36Z" uid="481934" user="iWowik" changeset="11113698">
    <nd ref="1129409527"/>
    <nd ref="1129409801"/>
    <nd ref="1129409734"/>
    <nd ref="1129409646"/>
    <nd ref="1129409575"/>
    <nd ref="1129409606"/>
    <nd ref="1129409540"/>
    <nd ref="1129409927"/>
    <nd ref="1129409861"/>
    <nd ref="1129409896"/>
    <nd ref="1129409527"/>
    <tag k="addr:city" v="Зеленоград"/>
    <tag k="addr:country" v="RU"/>
    <tag k="building" v="yes"/>
  </way>
  <way id="97549235" version="3" timestamp="2012-03-27T11:48:52Z" uid="481934" user="iWowik" changeset="11115472">
    <nd ref="1129409527"/>
    <nd ref="1129409801"/>
    <nd ref="1129409734"/>
    <nd ref="1129409646"/>
    <nd ref="1129409575"/>
    <nd ref="1129409606"/>
    <nd ref="1129409540"/>
    <nd ref="1129409927"/>
    <nd ref="1129409861"/>
    <nd ref="1129409896"/>
    <nd ref="1129409527"/>
    <tag k="addr:city" v="Зеленоград"/>
    <tag k="addr:country" v="RU"/>
    <tag k="addr:region" v="Москва"/>
    <tag k="building" v="yes"/>
  </way>
  <way id="97549236" version="1" timestamp="2011-01-31T13:43:42Z" uid="115477" user="wowik" changeset="7145124">
    <nd ref="1129409747"/>
    <nd ref="1129409763"/>
    <nd ref="1129409873"/>
    <nd ref="1129409815"/>
    <nd ref="1129409747"/>
    <tag k="building" v="yes"/>
  </way>
  <way id="97549236" version="2" timestamp="2012-03-27T08:11:28Z" uid="481934" user="iWowik" changeset="11113698">
    <nd ref="1129409747"/>
    <nd ref="1129409763"/>
    <nd ref="1129409873"/>
    <nd ref="1129409815"/>
    <nd ref="1129409747"/>
    <tag k="addr:city" v="Зеленоград"/>
    <tag k="addr:country" v="RU"/>
    <tag k="building" v="yes"/>
  </way>
  <way id="97549236" version="3" timestamp="2012-03-27T11:52:31Z" uid="481934" user="iWowik" changeset="11115472">
    <nd ref="1129409747"/>
    <nd ref="1129409763"/>
    <nd ref="1129409873"/>
    <nd ref="1129409815"/>
    <nd ref="1129409747"/>
    <tag k="addr:city" v="Зеленоград"/>
    <tag k="addr:country" v="RU"/>
    <tag k="addr:region" v="Москва"/>
    <tag k="building" v="yes"/>
  </way>
  <way id="97549237" version="1" timestamp="2011-01-31T13:43:42Z" uid="115477" user="wowik" changeset="7145124">
    <nd ref="1129409654"/>
    <nd ref="1129409915"/>
    <nd ref="1129409698"/>
    <nd ref="1129409947"/>
    <nd ref="1129409654"/>
    <tag k="building" v="yes"/>
    <tag k="building:levels" v="1"/>
    <tag k="landuse" v="garages"/>
  </way>
  <way id="97549237" version="2" timestamp="2011-09-13T10:38:54Z" uid="29320" user="Komяpa" changeset="9288237">
    <nd ref="1129409654"/>
    <nd ref="1129409915"/>
    <nd ref="1129409698"/>
    <nd ref="1129409947"/>
    <nd ref="1129409654"/>
    <tag k="building" v="garages"/>
    <tag k="building:levels" v="1"/>
  </way>
  <way id="97549238" version="1" timestamp="2011-01-31T13:43:43Z" uid="115477" user="wowik" changeset="7145124">
    <nd ref="1129409530"/>
    <nd ref="1129409651"/>
    <nd ref="1129409578"/>
    <nd ref="1129409962"/>
    <nd ref="1129409530"/>
  </way>
  <way id="97549238" version="2" timestamp="2011-04-01T18:16:52Z" uid="115477" user="wowik" changeset="7737524">
    <nd ref="1129409530"/>
    <nd ref="1129409651"/>
    <nd ref="1129409578"/>
    <nd ref="1129409962"/>
    <nd ref="1129409530"/>
    <tag k="building" v="yes"/>
  </way>
  <way id="97549238" version="3" timestamp="2012-01-09T11:37:56Z" uid="177747" user="Vadim Zudkin" changeset="10340897">
    <nd ref="1129409530"/>
    <nd ref="1583655305"/>
    <nd ref="1129409651"/>
    <nd ref="1129409578"/>
    <nd ref="1129409962"/>
    <nd ref="1129409530"/>
    <tag k="building" v="yes"/>
  </way>
  <way id="97549238" version="4" timestamp="2012-03-27T08:13:56Z" uid="481934" user="iWowik" changeset="11113698">
    <nd ref="1129409530"/>
    <nd ref="1583655305"/>
    <nd ref="1129409651"/>
    <nd ref="1129409578"/>
    <nd ref="1129409962"/>
    <nd ref="1129409530"/>
    <tag k="addr:city" v="Зеленоград"/>
    <tag k="addr:country" v="RU"/>
    <tag k="building" v="yes"/>
  </way>
  <way id="97549238" version="5" timestamp="2012-03-27T11:54:38Z" uid="481934" user="iWowik" changeset="11115472">
    <nd ref="1129409530"/>
    <nd ref="1583655305"/>
    <nd ref="1129409651"/>
    <nd ref="1129409578"/>
    <nd ref="1129409962"/>
    <nd ref="1129409530"/>
    <tag k="addr:city" v="Зеленоград"/>
    <tag k="addr:country" v="RU"/>
    <tag k="addr:region" v="Москва"/>
    <tag k="building" v="yes"/>
  </way>
  <way id="97549239" version="1" timestamp="2011-01-31T13:43:43Z" uid="115477" user="wowik" changeset="7145124">
    <nd ref="1129409567"/>
    <nd ref="1129409836"/>
    <nd ref="1129409863"/>
    <nd ref="1129409803"/>
    <nd ref="1129409567"/>
    <tag k="addr:city" v="Зеленоград"/>
    <tag k="building" v="yes"/>
  </way>
  <way id="97549239" version="2" timestamp="2012-03-27T08:12:21Z" uid="481934" user="iWowik" changeset="11113698">
    <nd ref="1129409567"/>
    <nd ref="1129409836"/>
    <nd ref="1129409863"/>
    <nd ref="1129409803"/>
    <nd ref="1129409567"/>
    <tag k="addr:city" v="Зеленоград"/>
    <tag k="addr:country" v="RU"/>
    <tag k="building" v="yes"/>
  </way>
  <way id="97549239" version="3" timestamp="2012-03-27T11:50:47Z" uid="481934" user="iWowik" changeset="11115472">
    <nd ref="1129409567"/>
    <nd ref="1129409836"/>
    <nd ref="1129409863"/>
    <nd ref="1129409803"/>
    <nd ref="1129409567"/>
    <tag k="addr:city" v="Зеленоград"/>
    <tag k="addr:country" v="RU"/>
    <tag k="addr:region" v="Москва"/>
    <tag k="building" v="yes"/>
  </way>
  <way id="97549240" version="1" timestamp="2011-01-31T13:43:43Z" uid="115477" user="wowik" changeset="7145124">
    <nd ref="1129409622"/>
    <nd ref="1129409895"/>
    <nd ref="1129409923"/>
    <nd ref="1129409857"/>
    <nd ref="1129409796"/>
    <nd ref="1129409730"/>
    <nd ref="1129409761"/>
    <nd ref="1129409692"/>
    <nd ref="1129409602"/>
    <nd ref="1129409538"/>
    <nd ref="1129409570"/>
    <nd ref="1129409953"/>
    <nd ref="1129409892"/>
    <nd ref="1129409828"/>
    <nd ref="1129409853"/>
    <nd ref="1129409790"/>
    <nd ref="1129409721"/>
    <nd ref="1129409637"/>
    <nd ref="1129409678"/>
    <nd ref="1129409596"/>
    <nd ref="1129409622"/>
    <tag k="building" v="yes"/>
    <tag k="building:levels" v="1"/>
    <tag k="landuse" v="garages"/>
  </way>
  <way id="97549240" version="2" timestamp="2011-01-31T13:58:34Z" uid="115477" user="wowik" changeset="7145251">
    <nd ref="1129409853"/>
    <nd ref="1129409790"/>
    <nd ref="1129409721"/>
    <nd ref="1129409637"/>
    <nd ref="1129409678"/>
    <nd ref="1129409596"/>
    <nd ref="1129409622"/>
    <nd ref="1129409895"/>
    <nd ref="1129409923"/>
    <nd ref="1129409857"/>
    <nd ref="1129409796"/>
    <nd ref="1129409730"/>
    <nd ref="1129409761"/>
    <nd ref="1129409692"/>
    <nd ref="1129409602"/>
    <nd ref="1129409538"/>
    <nd ref="1129419258"/>
    <nd ref="1129409853"/>
    <tag k="addr:city" v="Зеленоград"/>
    <tag k="addr:street" v="Заводская улица"/>
    <tag k="building" v="yes"/>
    <tag k="building:levels" v="1"/>
    <tag k="landuse" v="garages"/>
  </way>
  <way id="97549240" version="3" timestamp="2011-09-13T10:38:54Z" uid="29320" user="Komяpa" changeset="9288237">
    <nd ref="1129409853"/>
    <nd ref="1129409790"/>
    <nd ref="1129409721"/>
    <nd ref="1129409637"/>
    <nd ref="1129409678"/>
    <nd ref="1129409596"/>
    <nd ref="1129409622"/>
    <nd ref="1129409895"/>
    <nd ref="1129409923"/>
    <nd ref="1129409857"/>
    <nd ref="1129409796"/>
    <nd ref="1129409730"/>
    <nd ref="1129409761"/>
    <nd ref="1129409692"/>
    <nd ref="1129409602"/>
    <nd ref="1129409538"/>
    <nd ref="1129419258"/>
    <nd ref="1129409853"/>
    <tag k="addr:city" v="Зеленоград"/>
    <tag k="addr:street" v="Заводская улица"/>
    <tag k="building" v="garages"/>
    <tag k="building:levels" v="1"/>
  </way>
  <way id="97549240" version="4" timestamp="2012-03-27T11:49:27Z" uid="481934" user="iWowik" changeset="11115472">
    <nd ref="1129409853"/>
    <nd ref="1129409790"/>
    <nd ref="1129409721"/>
    <nd ref="1129409637"/>
    <nd ref="1129409678"/>
    <nd ref="1129409596"/>
    <nd ref="1129409622"/>
    <nd ref="1129409895"/>
    <nd ref="1129409923"/>
    <nd ref="1129409857"/>
    <nd ref="1129409796"/>
    <nd ref="1129409730"/>
    <nd ref="1129409761"/>
    <nd ref="1129409692"/>
    <nd ref="1129409602"/>
    <nd ref="1129409538"/>
    <nd ref="1129419258"/>
    <nd ref="1129409853"/>
    <tag k="addr:city" v="Зеленоград"/>
    <tag k="addr:country" v="RU"/>
    <tag k="addr:region" v="Москва"/>
    <tag k="addr:street" v="Заводская улица"/>
    <tag k="building" v="garages"/>
    <tag k="building:levels" v="1"/>
  </way>
  <way id="97549241" version="1" timestamp="2011-01-31T13:43:43Z" uid="115477" user="wowik" changeset="7145124">
    <nd ref="1129409898"/>
    <nd ref="1129409711"/>
    <nd ref="1129409749"/>
    <nd ref="1129409662"/>
    <nd ref="1129409898"/>
    <tag k="building" v="yes"/>
  </way>
  <way id="97549241" version="2" timestamp="2012-03-27T08:13:15Z" uid="481934" user="iWowik" changeset="11113698">
    <nd ref="1129409898"/>
    <nd ref="1129409711"/>
    <nd ref="1129409749"/>
    <nd ref="1129409662"/>
    <nd ref="1129409898"/>
    <tag k="addr:city" v="Зеленоград"/>
    <tag k="addr:country" v="RU"/>
    <tag k="building" v="yes"/>
  </way>
  <way id="97549241" version="3" timestamp="2012-03-27T11:51:48Z" uid="481934" user="iWowik" changeset="11115472">
    <nd ref="1129409898"/>
    <nd ref="1129409711"/>
    <nd ref="1129409749"/>
    <nd ref="1129409662"/>
    <nd ref="1129409898"/>
    <tag k="addr:city" v="Зеленоград"/>
    <tag k="addr:country" v="RU"/>
    <tag k="addr:region" v="Москва"/>
    <tag k="building" v="yes"/>
  </way>
  <way id="97549242" version="1" timestamp="2011-01-31T13:43:44Z" uid="115477" user="wowik" changeset="7145124">
    <nd ref="1129409886"/>
    <nd ref="1129409548"/>
    <nd ref="1129409934"/>
    <nd ref="1129409703"/>
    <nd ref="1129409886"/>
    <tag k="building" v="yes"/>
  </way>
  <way id="97549242" version="2" timestamp="2011-01-31T14:04:09Z" uid="115477" user="wowik" changeset="7145302">
    <nd ref="1129409886"/>
    <nd ref="1129409548"/>
    <nd ref="1129409934"/>
    <nd ref="1129409703"/>
    <nd ref="1129409886"/>
    <tag k="addr:city" v="Зеленоград"/>
    <tag k="addr:housenumber" v="34 с3"/>
    <tag k="addr:street" v="Заводская улица"/>
    <tag k="building" v="yes"/>
  </way>
  <way id="97549242" version="3" timestamp="2012-03-27T08:08:53Z" uid="481934" user="iWowik" changeset="11113698">
    <nd ref="1129409886"/>
    <nd ref="1129409548"/>
    <nd ref="1129409934"/>
    <nd ref="1129409703"/>
    <nd ref="1129409886"/>
    <tag k="addr:city" v="Зеленоград"/>
    <tag k="addr:country" v="RU"/>
    <tag k="addr:housenumber" v="34 с3"/>
    <tag k="addr:street" v="Заводская улица"/>
    <tag k="building" v="yes"/>
  </way>
  <way id="97549242" version="4" timestamp="2012-03-27T11:41:56Z" uid="481934" user="iWowik" changeset="11115472">
    <nd ref="1129409886"/>
    <nd ref="1129409548"/>
    <nd ref="1129409934"/>
    <nd ref="1129409703"/>
    <nd ref="1129409886"/>
    <tag k="addr:city" v="Зеленоград"/>
    <tag k="addr:country" v="RU"/>
    <tag k="addr:housenumber" v="34 с3"/>
    <tag k="addr:region" v="Москва"/>
    <tag k="addr:street" v="Заводская улица"/>
    <tag k="building" v="yes"/>
  </way>
  <way id="97549243" version="1" timestamp="2011-01-31T13:43:44Z" uid="115477" user="wowik" changeset="7145124">
    <nd ref="1129409954"/>
    <nd ref="1129409618"/>
    <nd ref="1129409655"/>
    <nd ref="1129409583"/>
    <nd ref="1129409954"/>
    <tag k="building" v="yes"/>
    <tag k="building:levels" v="1"/>
    <tag k="landuse" v="garages"/>
  </way>
  <way id="97549243" version="2" timestamp="2011-09-13T10:38:55Z" uid="29320" user="Komяpa" changeset="9288237">
    <nd ref="1129409954"/>
    <nd ref="1129409618"/>
    <nd ref="1129409655"/>
    <nd ref="1129409583"/>
    <nd ref="1129409954"/>
    <tag k="building" v="garages"/>
    <tag k="building:levels" v="1"/>
  </way>
  <way id="97549244" version="1" timestamp="2011-01-31T13:43:44Z" uid="115477" user="wowik" changeset="7145124">
    <nd ref="1129409630"/>
    <nd ref="1129409768"/>
    <nd ref="1129409565"/>
    <nd ref="1129409802"/>
    <nd ref="1129409630"/>
    <tag k="building" v="yes"/>
    <tag k="building:levels" v="1"/>
    <tag k="landuse" v="garages"/>
  </way>
  <way id="97549244" version="2" timestamp="2011-09-13T10:38:55Z" uid="29320" user="Komяpa" changeset="9288237">
    <nd ref="1129409630"/>
    <nd ref="1129409768"/>
    <nd ref="1129409565"/>
    <nd ref="1129409802"/>
    <nd ref="1129409630"/>
    <tag k="building" v="garages"/>
    <tag k="building:levels" v="1"/>
  </way>
  <way id="97549245" version="1" timestamp="2011-01-31T13:43:44Z" uid="115477" user="wowik" changeset="7145124">
    <nd ref="1129409782"/>
    <nd ref="1129409574"/>
    <nd ref="1129409957"/>
    <nd ref="1129409539"/>
    <nd ref="1129409926"/>
    <nd ref="1129409860"/>
    <nd ref="1129409799"/>
    <nd ref="1129409831"/>
    <nd ref="1129409782"/>
    <tag k="building" v="yes"/>
    <tag k="building:levels" v="1"/>
    <tag k="landuse" v="garages"/>
  </way>
  <way id="97549245" version="2" timestamp="2011-09-13T10:38:55Z" uid="29320" user="Komяpa" changeset="9288237">
    <nd ref="1129409782"/>
    <nd ref="1129409574"/>
    <nd ref="1129409957"/>
    <nd ref="1129409539"/>
    <nd ref="1129409926"/>
    <nd ref="1129409860"/>
    <nd ref="1129409799"/>
    <nd ref="1129409831"/>
    <nd ref="1129409782"/>
    <tag k="building" v="garages"/>
    <tag k="building:levels" v="1"/>
  </way>
  <way id="97549246" version="1" timestamp="2011-01-31T13:43:45Z" uid="115477" user="wowik" changeset="7145124">
    <nd ref="1129409593"/>
    <nd ref="1129409865"/>
    <nd ref="1129409805"/>
    <nd ref="1129409738"/>
    <nd ref="1129409652"/>
    <nd ref="1129409697"/>
    <nd ref="1129409610"/>
    <nd ref="1129409544"/>
    <nd ref="1129409593"/>
    <tag k="building" v="yes"/>
    <tag k="building:levels" v="1"/>
    <tag k="landuse" v="garages"/>
  </way>
  <way id="97549246" version="2" timestamp="2011-09-13T10:38:56Z" uid="29320" user="Komяpa" changeset="9288237">
    <nd ref="1129409593"/>
    <nd ref="1129409865"/>
    <nd ref="1129409805"/>
    <nd ref="1129409738"/>
    <nd ref="1129409652"/>
    <nd ref="1129409697"/>
    <nd ref="1129409610"/>
    <nd ref="1129409544"/>
    <nd ref="1129409593"/>
    <tag k="building" v="garages"/>
    <tag k="building:levels" v="1"/>
  </way>
  <way id="97549247" version="1" timestamp="2011-01-31T13:43:45Z" uid="115477" user="wowik" changeset="7145124">
    <nd ref="1129409850"/>
    <nd ref="1129409608"/>
    <nd ref="1129409541"/>
    <nd ref="1129409929"/>
    <nd ref="1129409850"/>
    <tag k="building" v="yes"/>
    <tag k="building:levels" v="1"/>
    <tag k="landuse" v="garages"/>
  </way>
  <way id="97549247" version="2" timestamp="2011-09-13T10:38:56Z" uid="29320" user="Komяpa" changeset="9288237">
    <nd ref="1129409850"/>
    <nd ref="1129409608"/>
    <nd ref="1129409541"/>
    <nd ref="1129409929"/>
    <nd ref="1129409850"/>
    <tag k="building" v="garages"/>
    <tag k="building:levels" v="1"/>
  </way>
  <way id="97549248" version="1" timestamp="2011-01-31T13:43:45Z" uid="115477" user="wowik" changeset="7145124">
    <nd ref="1129409930"/>
    <nd ref="1129409753"/>
    <nd ref="1129409675"/>
    <nd ref="1129409592"/>
    <nd ref="1129409628"/>
    <nd ref="1129409563"/>
    <nd ref="1129409945"/>
    <nd ref="1129409883"/>
    <nd ref="1129409911"/>
    <nd ref="1129409848"/>
    <nd ref="1129409785"/>
    <nd ref="1129409713"/>
    <nd ref="1129409930"/>
    <tag k="building" v="yes"/>
  </way>
  <way id="97549248" version="2" timestamp="2012-03-27T08:10:43Z" uid="481934" user="iWowik" changeset="11113698">
    <nd ref="1129409930"/>
    <nd ref="1129409753"/>
    <nd ref="1129409675"/>
    <nd ref="1129409592"/>
    <nd ref="1129409628"/>
    <nd ref="1129409563"/>
    <nd ref="1129409945"/>
    <nd ref="1129409883"/>
    <nd ref="1129409911"/>
    <nd ref="1129409848"/>
    <nd ref="1129409785"/>
    <nd ref="1129409713"/>
    <nd ref="1129409930"/>
    <tag k="addr:city" v="Зеленоград"/>
    <tag k="addr:country" v="RU"/>
    <tag k="building" v="yes"/>
  </way>
  <way id="97549248" version="3" timestamp="2012-03-27T11:49:00Z" uid="481934" user="iWowik" changeset="11115472">
    <nd ref="1129409930"/>
    <nd ref="1129409753"/>
    <nd ref="1129409675"/>
    <nd ref="1129409592"/>
    <nd ref="1129409628"/>
    <nd ref="1129409563"/>
    <nd ref="1129409945"/>
    <nd ref="1129409883"/>
    <nd ref="1129409911"/>
    <nd ref="1129409848"/>
    <nd ref="1129409785"/>
    <nd ref="1129409713"/>
    <nd ref="1129409930"/>
    <tag k="addr:city" v="Зеленоград"/>
    <tag k="addr:country" v="RU"/>
    <tag k="addr:region" v="Москва"/>
    <tag k="building" v="yes"/>
  </way>
  <way id="97549249" version="1" timestamp="2011-01-31T13:43:45Z" uid="115477" user="wowik" changeset="7145124">
    <nd ref="1129409648"/>
    <nd ref="1129409880"/>
    <nd ref="1129409821"/>
    <nd ref="1129409752"/>
    <nd ref="1129409670"/>
    <nd ref="1129409712"/>
    <nd ref="1129409626"/>
    <nd ref="1129409561"/>
    <nd ref="1129409943"/>
    <nd ref="1129409526"/>
    <nd ref="1129409909"/>
    <nd ref="1129409847"/>
    <nd ref="1129409648"/>
    <tag k="addr:city" v="Зеленоград"/>
    <tag k="building" v="yes"/>
  </way>
  <way id="97549249" version="2" timestamp="2012-03-27T08:10:40Z" uid="481934" user="iWowik" changeset="11113698">
    <nd ref="1129409648"/>
    <nd ref="1129409880"/>
    <nd ref="1129409821"/>
    <nd ref="1129409752"/>
    <nd ref="1129409670"/>
    <nd ref="1129409712"/>
    <nd ref="1129409626"/>
    <nd ref="1129409561"/>
    <nd ref="1129409943"/>
    <nd ref="1129409526"/>
    <nd ref="1129409909"/>
    <nd ref="1129409847"/>
    <nd ref="1129409648"/>
    <tag k="addr:city" v="Зеленоград"/>
    <tag k="addr:country" v="RU"/>
    <tag k="building" v="yes"/>
  </way>
  <way id="97549249" version="3" timestamp="2012-03-27T11:49:03Z" uid="481934" user="iWowik" changeset="11115472">
    <nd ref="1129409648"/>
    <nd ref="1129409880"/>
    <nd ref="1129409821"/>
    <nd ref="1129409752"/>
    <nd ref="1129409670"/>
    <nd ref="1129409712"/>
    <nd ref="1129409626"/>
    <nd ref="1129409561"/>
    <nd ref="1129409943"/>
    <nd ref="1129409526"/>
    <nd ref="1129409909"/>
    <nd ref="1129409847"/>
    <nd ref="1129409648"/>
    <tag k="addr:city" v="Зеленоград"/>
    <tag k="addr:country" v="RU"/>
    <tag k="addr:region" v="Москва"/>
    <tag k="building" v="yes"/>
  </way>
  <way id="97549250" version="1" timestamp="2011-01-31T13:43:46Z" uid="115477" user="wowik" changeset="7145124">
    <nd ref="1129409960"/>
    <nd ref="1129409786"/>
    <nd ref="1129409899"/>
    <nd ref="1129409715"/>
    <nd ref="1129409960"/>
    <tag k="building" v="yes"/>
    <tag k="building:levels" v="1"/>
    <tag k="landuse" v="garages"/>
  </way>
  <way id="97549250" version="2" timestamp="2011-09-13T10:38:56Z" uid="29320" user="Komяpa" changeset="9288237">
    <nd ref="1129409960"/>
    <nd ref="1129409786"/>
    <nd ref="1129409899"/>
    <nd ref="1129409715"/>
    <nd ref="1129409960"/>
    <tag k="building" v="garages"/>
    <tag k="building:levels" v="1"/>
  </way>
  <way id="97549251" version="1" timestamp="2011-01-31T13:43:46Z" uid="115477" user="wowik" changeset="7145124">
    <nd ref="1129409700"/>
    <nd ref="1129409826"/>
    <nd ref="1129409757"/>
    <nd ref="1129409688"/>
    <nd ref="1129409700"/>
    <tag k="building" v="yes"/>
  </way>
  <way id="97549251" version="2" timestamp="2011-01-31T14:05:35Z" uid="115477" user="wowik" changeset="7145313">
    <nd ref="1129409700"/>
    <nd ref="1129409826"/>
    <nd ref="1129409757"/>
    <nd ref="1129409688"/>
    <nd ref="1129409700"/>
    <tag k="addr:city" v="Зеленоград"/>
    <tag k="addr:housenumber" v="31 с3"/>
    <tag k="addr:street" v="Заводская улица"/>
    <tag k="building" v="yes"/>
  </way>
  <way id="97549251" version="3" timestamp="2012-03-27T08:08:42Z" uid="481934" user="iWowik" changeset="11113698">
    <nd ref="1129409700"/>
    <nd ref="1129409826"/>
    <nd ref="1129409757"/>
    <nd ref="1129409688"/>
    <nd ref="1129409700"/>
    <tag k="addr:city" v="Зеленоград"/>
    <tag k="addr:country" v="RU"/>
    <tag k="addr:housenumber" v="31 с3"/>
    <tag k="addr:street" v="Заводская улица"/>
    <tag k="building" v="yes"/>
  </way>
  <way id="97549251" version="4" timestamp="2012-03-27T11:41:33Z" uid="481934" user="iWowik" changeset="11115472">
    <nd ref="1129409700"/>
    <nd ref="1129409826"/>
    <nd ref="1129409757"/>
    <nd ref="1129409688"/>
    <nd ref="1129409700"/>
    <tag k="addr:city" v="Зеленоград"/>
    <tag k="addr:country" v="RU"/>
    <tag k="addr:housenumber" v="31 с3"/>
    <tag k="addr:region" v="Москва"/>
    <tag k="addr:street" v="Заводская улица"/>
    <tag k="building" v="yes"/>
  </way>
  <way id="97549252" version="1" timestamp="2011-01-31T13:43:46Z" uid="115477" user="wowik" changeset="7145124">
    <nd ref="1129409615"/>
    <nd ref="1129409891"/>
    <nd ref="1129409827"/>
    <nd ref="1129409852"/>
    <nd ref="1129409615"/>
    <tag k="addr:city" v="Зеленоград"/>
    <tag k="addr:housenumber" v="36 с1"/>
    <tag k="addr:street" v="Заводская улица"/>
    <tag k="building" v="yes"/>
  </way>
  <way id="97549252" version="2" timestamp="2012-03-27T08:08:59Z" uid="481934" user="iWowik" changeset="11113698">
    <nd ref="1129409615"/>
    <nd ref="1129409891"/>
    <nd ref="1129409827"/>
    <nd ref="1129409852"/>
    <nd ref="1129409615"/>
    <tag k="addr:city" v="Зеленоград"/>
    <tag k="addr:country" v="RU"/>
    <tag k="addr:housenumber" v="36 с1"/>
    <tag k="addr:street" v="Заводская улица"/>
    <tag k="building" v="yes"/>
  </way>
  <way id="97549252" version="3" timestamp="2012-03-27T11:42:16Z" uid="481934" user="iWowik" changeset="11115472">
    <nd ref="1129409615"/>
    <nd ref="1129409891"/>
    <nd ref="1129409827"/>
    <nd ref="1129409852"/>
    <nd ref="1129409615"/>
    <tag k="addr:city" v="Зеленоград"/>
    <tag k="addr:country" v="RU"/>
    <tag k="addr:housenumber" v="36 с1"/>
    <tag k="addr:region" v="Москва"/>
    <tag k="addr:street" v="Заводская улица"/>
    <tag k="building" v="yes"/>
  </way>
  <way id="97549253" version="1" timestamp="2011-01-31T13:43:46Z" uid="115477" user="wowik" changeset="7145124">
    <nd ref="1129409612"/>
    <nd ref="1129409754"/>
    <nd ref="1129409787"/>
    <nd ref="1129409716"/>
    <nd ref="1129409612"/>
    <tag k="addr:city" v="Зеленоград"/>
    <tag k="building" v="yes"/>
  </way>
  <way id="97549253" version="2" timestamp="2012-03-27T08:11:24Z" uid="481934" user="iWowik" changeset="11113698">
    <nd ref="1129409612"/>
    <nd ref="1129409754"/>
    <nd ref="1129409787"/>
    <nd ref="1129409716"/>
    <nd ref="1129409612"/>
    <tag k="addr:city" v="Зеленоград"/>
    <tag k="addr:country" v="RU"/>
    <tag k="building" v="yes"/>
  </way>
  <way id="97549253" version="3" timestamp="2012-03-27T11:50:01Z" uid="481934" user="iWowik" changeset="11115472">
    <nd ref="1129409612"/>
    <nd ref="1129409754"/>
    <nd ref="1129409787"/>
    <nd ref="1129409716"/>
    <nd ref="1129409612"/>
    <tag k="addr:city" v="Зеленоград"/>
    <tag k="addr:country" v="RU"/>
    <tag k="addr:region" v="Москва"/>
    <tag k="building" v="yes"/>
  </way>
  <way id="97549254" version="1" timestamp="2011-01-31T13:43:46Z" uid="115477" user="wowik" changeset="7145124">
    <nd ref="1129409950"/>
    <nd ref="1129409771"/>
    <nd ref="1129409806"/>
    <nd ref="1129409739"/>
    <nd ref="1129409653"/>
    <nd ref="1129409579"/>
    <nd ref="1129409611"/>
    <nd ref="1129409545"/>
    <nd ref="1129409931"/>
    <nd ref="1129409866"/>
    <nd ref="1129409950"/>
    <tag k="addr:city" v="Зеленоград"/>
    <tag k="addr:housenumber" v="31 с2"/>
    <tag k="addr:street" v="Заводская улица"/>
    <tag k="building" v="yes"/>
  </way>
  <way id="97549254" version="2" timestamp="2012-03-27T08:08:42Z" uid="481934" user="iWowik" changeset="11113698">
    <nd ref="1129409950"/>
    <nd ref="1129409771"/>
    <nd ref="1129409806"/>
    <nd ref="1129409739"/>
    <nd ref="1129409653"/>
    <nd ref="1129409579"/>
    <nd ref="1129409611"/>
    <nd ref="1129409545"/>
    <nd ref="1129409931"/>
    <nd ref="1129409866"/>
    <nd ref="1129409950"/>
    <tag k="addr:city" v="Зеленоград"/>
    <tag k="addr:country" v="RU"/>
    <tag k="addr:housenumber" v="31 с2"/>
    <tag k="addr:street" v="Заводская улица"/>
    <tag k="building" v="yes"/>
  </way>
  <way id="97549254" version="3" timestamp="2012-03-27T11:41:33Z" uid="481934" user="iWowik" changeset="11115472">
    <nd ref="1129409950"/>
    <nd ref="1129409771"/>
    <nd ref="1129409806"/>
    <nd ref="1129409739"/>
    <nd ref="1129409653"/>
    <nd ref="1129409579"/>
    <nd ref="1129409611"/>
    <nd ref="1129409545"/>
    <nd ref="1129409931"/>
    <nd ref="1129409866"/>
    <nd ref="1129409950"/>
    <tag k="addr:city" v="Зеленоград"/>
    <tag k="addr:country" v="RU"/>
    <tag k="addr:housenumber" v="31 с2"/>
    <tag k="addr:region" v="Москва"/>
    <tag k="addr:street" v="Заводская улица"/>
    <tag k="building" v="yes"/>
  </way>
  <way id="97549255" version="1" timestamp="2011-01-31T13:43:47Z" uid="115477" user="wowik" changeset="7145124">
    <nd ref="1129409840"/>
    <nd ref="1129409793"/>
    <nd ref="1129409724"/>
    <nd ref="1129409640"/>
    <nd ref="1129409840"/>
    <tag k="building" v="yes"/>
  </way>
  <way id="97549255" version="2" timestamp="2012-03-27T08:12:43Z" uid="481934" user="iWowik" changeset="11113698">
    <nd ref="1129409840"/>
    <nd ref="1129409793"/>
    <nd ref="1129409724"/>
    <nd ref="1129409640"/>
    <nd ref="1129409840"/>
    <tag k="addr:city" v="Зеленоград"/>
    <tag k="addr:country" v="RU"/>
    <tag k="building" v="yes"/>
  </way>
  <way id="97549255" version="3" timestamp="2012-03-27T11:51:04Z" uid="481934" user="iWowik" changeset="11115472">
    <nd ref="1129409840"/>
    <nd ref="1129409793"/>
    <nd ref="1129409724"/>
    <nd ref="1129409640"/>
    <nd ref="1129409840"/>
    <tag k="addr:city" v="Зеленоград"/>
    <tag k="addr:country" v="RU"/>
    <tag k="addr:region" v="Москва"/>
    <tag k="building" v="yes"/>
  </way>
  <way id="97549256" version="1" timestamp="2011-01-31T13:43:47Z" uid="115477" user="wowik" changeset="7145124">
    <nd ref="1129409862"/>
    <nd ref="1129409665"/>
    <nd ref="1129409590"/>
    <nd ref="1129409625"/>
    <nd ref="1129409862"/>
    <tag k="building" v="yes"/>
  </way>
  <way id="97549256" version="2" timestamp="2012-03-27T08:11:30Z" uid="481934" user="iWowik" changeset="11113698">
    <nd ref="1129409862"/>
    <nd ref="1129409665"/>
    <nd ref="1129409590"/>
    <nd ref="1129409625"/>
    <nd ref="1129409862"/>
    <tag k="addr:city" v="Зеленоград"/>
    <tag k="addr:country" v="RU"/>
    <tag k="building" v="yes"/>
  </way>
  <way id="97549256" version="3" timestamp="2012-03-27T11:50:10Z" uid="481934" user="iWowik" changeset="11115472">
    <nd ref="1129409862"/>
    <nd ref="1129409665"/>
    <nd ref="1129409590"/>
    <nd ref="1129409625"/>
    <nd ref="1129409862"/>
    <tag k="addr:city" v="Зеленоград"/>
    <tag k="addr:country" v="RU"/>
    <tag k="addr:region" v="Москва"/>
    <tag k="building" v="yes"/>
  </way>
  <way id="97549474" version="2" timestamp="2011-02-10T21:13:49Z" uid="16922" user="amai" changeset="7249531">
    <nd ref="1119865278"/>
    <nd ref="1119865322"/>
    <nd ref="1119865325"/>
    <nd ref="1119865264"/>
    <nd ref="1119865251"/>
    <nd ref="1119865332"/>
    <nd ref="1094103518"/>
    <nd ref="1094103768"/>
    <nd ref="1145990583"/>
    <nd ref="1094103711"/>
    <nd ref="1094102802"/>
    <nd ref="1094102816"/>
    <nd ref="1101167513"/>
    <nd ref="1094102964"/>
    <nd ref="1094103653"/>
    <nd ref="1094102908"/>
    <nd ref="1094103722"/>
    <nd ref="1094103723"/>
    <nd ref="1094103080"/>
    <nd ref="1094103534"/>
    <nd ref="1094103374"/>
    <nd ref="1094103283"/>
    <nd ref="1094103764"/>
    <nd ref="1094103239"/>
    <nd ref="1094103529"/>
    <nd ref="1094103594"/>
    <nd ref="1094103449"/>
    <nd ref="1094102948"/>
    <nd ref="1094103499"/>
    <nd ref="1094103235"/>
    <nd ref="1094103642"/>
    <nd ref="1094103526"/>
    <nd ref="1094102867"/>
    <nd ref="1094102974"/>
    <nd ref="1094102966"/>
    <nd ref="1094102941"/>
    <nd ref="1094103074"/>
    <nd ref="1094103597"/>
    <nd ref="1097702402"/>
    <nd ref="1097702465"/>
    <nd ref="1094103658"/>
    <nd ref="1094103092"/>
    <nd ref="1094103296"/>
    <nd ref="1094103780"/>
    <nd ref="1094102796"/>
    <nd ref="1094103578"/>
    <nd ref="1094103714"/>
    <nd ref="1094103302"/>
    <nd ref="1094103610"/>
    <nd ref="1094103756"/>
    <nd ref="1094102971"/>
    <nd ref="1094102956"/>
    <nd ref="1094103169"/>
    <nd ref="1094103290"/>
    <nd ref="1094103255"/>
    <nd ref="1094103717"/>
    <nd ref="1094103097"/>
    <nd ref="1094103384"/>
    <nd ref="1094103585"/>
    <nd ref="1094103312"/>
    <nd ref="1094103647"/>
    <nd ref="1094102959"/>
    <nd ref="1094103836"/>
    <nd ref="1094103491"/>
    <nd ref="1094103017"/>
    <nd ref="1094103148"/>
    <nd ref="1094103152"/>
    <nd ref="1094103221"/>
    <nd ref="1094103381"/>
    <nd ref="1094103179"/>
    <nd ref="1094103324"/>
    <nd ref="1094103505"/>
    <nd ref="1094103287"/>
    <nd ref="1094103027"/>
    <nd ref="1094102997"/>
    <nd ref="1094103002"/>
    <nd ref="1094103371"/>
    <nd ref="1094103101"/>
    <nd ref="1094103032"/>
    <tag k="highway" v="secondary"/>
    <tag k="int_name" v="Bangkhunthian Road"/>
    <tag k="name" v="บางขุนเทียน"/>
    <tag k="name:en" v="Bangkhunthian Road"/>
    <tag k="name:th" v="ถนนบางขุนเทียน"/>
  </way>
  <way id="97549474" version="3" timestamp="2011-02-10T22:20:18Z" uid="16922" user="amai" changeset="7250392">
    <nd ref="1119865278"/>
    <nd ref="1119865322"/>
    <nd ref="1119865325"/>
    <nd ref="1119865264"/>
    <nd ref="1119865251"/>
    <nd ref="1119865332"/>
    <nd ref="1094103518"/>
    <nd ref="1146174723"/>
    <nd ref="1094103768"/>
    <nd ref="1145990583"/>
    <nd ref="1146174788"/>
    <nd ref="1094103711"/>
    <nd ref="1094102802"/>
    <nd ref="1094102816"/>
    <nd ref="1101167513"/>
    <nd ref="1094102964"/>
    <nd ref="1094103653"/>
    <nd ref="1094102908"/>
    <nd ref="1146174622"/>
    <nd ref="1094103722"/>
    <nd ref="1094103723"/>
    <nd ref="1094103080"/>
    <nd ref="1094103534"/>
    <nd ref="1094103374"/>
    <nd ref="1094103283"/>
    <nd ref="1094103764"/>
    <nd ref="1146173907"/>
    <nd ref="1094103239"/>
    <nd ref="1094103529"/>
    <nd ref="1094103594"/>
    <nd ref="1146173317"/>
    <nd ref="1094103449"/>
    <nd ref="1094102948"/>
    <nd ref="1094103499"/>
    <nd ref="1146173974"/>
    <nd ref="1094103235"/>
    <nd ref="1146174061"/>
    <nd ref="1094103642"/>
    <nd ref="1094103526"/>
    <nd ref="1094102867"/>
    <nd ref="1094102974"/>
    <nd ref="1094102966"/>
    <nd ref="1094102941"/>
    <nd ref="1094103074"/>
    <nd ref="1094103597"/>
    <nd ref="1097702402"/>
    <nd ref="1097702465"/>
    <nd ref="1094103658"/>
    <nd ref="1094103092"/>
    <nd ref="1094103296"/>
    <nd ref="1094103780"/>
    <nd ref="1094102796"/>
    <nd ref="1094103578"/>
    <nd ref="1094103714"/>
    <nd ref="1094103302"/>
    <nd ref="1094103610"/>
    <nd ref="1094103756"/>
    <nd ref="1094102971"/>
    <nd ref="1094102956"/>
    <nd ref="1094103169"/>
    <nd ref="1094103290"/>
    <nd ref="1094103255"/>
    <nd ref="1094103717"/>
    <nd ref="1094103097"/>
    <nd ref="1094103384"/>
    <nd ref="1094103585"/>
    <nd ref="1094103312"/>
    <nd ref="1094103647"/>
    <nd ref="1094102959"/>
    <nd ref="1094103836"/>
    <nd ref="1094103491"/>
    <nd ref="1094103017"/>
    <nd ref="1094103148"/>
    <nd ref="1094103152"/>
    <nd ref="1094103221"/>
    <nd ref="1094103381"/>
    <nd ref="1094103179"/>
    <nd ref="1094103324"/>
    <nd ref="1094103505"/>
    <nd ref="1094103287"/>
    <nd ref="1094103027"/>
    <nd ref="1094102997"/>
    <nd ref="1094103002"/>
    <nd ref="1094103371"/>
    <nd ref="1094103101"/>
    <nd ref="1094103032"/>
    <tag k="highway" v="secondary"/>
    <tag k="int_name" v="Bangkhunthian Road"/>
    <tag k="name" v="บางขุนเทียน"/>
    <tag k="name:en" v="Bangkhunthian Road"/>
    <tag k="name:th" v="ถนนบางขุนเทียน"/>
  </way>
  <way id="97549474" version="4" timestamp="2011-11-30T06:50:28Z" uid="328321" user="medecember" changeset="9996043">
    <nd ref="1524338636"/>
    <nd ref="1524338641"/>
    <nd ref="1524338662"/>
    <nd ref="1524338642"/>
    <nd ref="1524338653"/>
    <nd ref="1524338658"/>
    <nd ref="1524338619"/>
    <nd ref="1524338659"/>
    <nd ref="1524338634"/>
    <nd ref="1524338628"/>
    <nd ref="1524338664"/>
    <nd ref="1524338649"/>
    <nd ref="1524338648"/>
    <nd ref="1524338625"/>
    <nd ref="1524338657"/>
    <nd ref="1524338644"/>
    <nd ref="1524338645"/>
    <nd ref="1524338654"/>
    <nd ref="1524338629"/>
    <nd ref="1524338639"/>
    <nd ref="1524338660"/>
    <nd ref="1524338663"/>
    <nd ref="1524338637"/>
    <nd ref="1524338638"/>
    <nd ref="1524338632"/>
    <nd ref="1524338635"/>
    <nd ref="1524338622"/>
    <nd ref="1524338655"/>
    <nd ref="1524338647"/>
    <nd ref="1524338623"/>
    <nd ref="1524338621"/>
    <nd ref="1524338626"/>
    <nd ref="1524338661"/>
    <nd ref="1524338633"/>
    <nd ref="1524338665"/>
    <nd ref="1524338646"/>
    <nd ref="1524338643"/>
    <nd ref="1524338620"/>
    <nd ref="1524338651"/>
    <nd ref="1524338652"/>
    <nd ref="1524338656"/>
    <nd ref="1524338650"/>
    <nd ref="1524338627"/>
    <nd ref="1524338630"/>
    <nd ref="1524338631"/>
    <nd ref="1094102966"/>
    <nd ref="1094102974"/>
    <nd ref="1094102867"/>
    <nd ref="1094103526"/>
    <nd ref="1094103642"/>
    <nd ref="1146174061"/>
    <nd ref="1094103235"/>
    <nd ref="1146173974"/>
    <nd ref="1094103499"/>
    <nd ref="1094102948"/>
    <nd ref="1094103449"/>
    <nd ref="1146173317"/>
    <nd ref="1094103594"/>
    <nd ref="1094103529"/>
    <nd ref="1094103239"/>
    <nd ref="1146173907"/>
    <nd ref="1094103764"/>
    <nd ref="1094103283"/>
    <nd ref="1094103374"/>
    <nd ref="1094103534"/>
    <nd ref="1094103080"/>
    <nd ref="1094103723"/>
    <nd ref="1094103722"/>
    <nd ref="1146174622"/>
    <nd ref="1094102908"/>
    <nd ref="1094103653"/>
    <nd ref="1094102964"/>
    <nd ref="1101167513"/>
    <nd ref="1094102816"/>
    <nd ref="1094102802"/>
    <nd ref="1094103711"/>
    <nd ref="1146174788"/>
    <nd ref="1145990583"/>
    <nd ref="1094103768"/>
    <nd ref="1146174723"/>
    <nd ref="1094103518"/>
    <nd ref="1119865332"/>
    <nd ref="1119865251"/>
    <nd ref="1119865264"/>
    <nd ref="1119865325"/>
    <nd ref="1119865322"/>
    <nd ref="1119865278"/>
    <tag k="highway" v="secondary"/>
    <tag k="int_name" v="Bangkhunthian Road"/>
    <tag k="name" v="ถนนบางขุนเทียน"/>
    <tag k="name:en" v="Bangkhunthian Road"/>
    <tag k="name:th" v="ถนนบางขุนเทียน"/>
    <tag k="oneway" v="yes"/>
  </way>
  <way id="97549474" version="5" timestamp="2011-11-30T06:53:44Z" uid="328321" user="medecember" changeset="9996043">
    <nd ref="1524338636"/>
    <nd ref="1524338641"/>
    <nd ref="1524338662"/>
    <nd ref="1524338642"/>
    <nd ref="1524338653"/>
    <nd ref="1524338658"/>
    <nd ref="1524338619"/>
    <nd ref="1524338659"/>
    <nd ref="1524338634"/>
    <nd ref="1524338628"/>
    <nd ref="1524338664"/>
    <nd ref="1524338649"/>
    <nd ref="1524338648"/>
    <nd ref="1524338625"/>
    <nd ref="1524338657"/>
    <nd ref="1524338644"/>
    <tag k="highway" v="secondary"/>
    <tag k="int_name" v="Bangkhunthian Road"/>
    <tag k="name" v="ถนนบางขุนเทียน"/>
    <tag k="name:en" v="Bangkhunthian Road"/>
    <tag k="name:th" v="ถนนบางขุนเทียน"/>
    <tag k="oneway" v="yes"/>
  </way>
  <way id="97549474" version="6" timestamp="2011-11-30T07:49:35Z" uid="328321" user="medecember" changeset="9996257"/>
  <way id="97549189" version="5" timestamp="2012-07-20T22:16:23Z" uid="722137" user="OSMF Redaction Account" changeset="12394520"/>
  <way id="97549190" version="3" timestamp="2012-07-20T22:16:31Z" uid="722137" user="OSMF Redaction Account" changeset="12394520"/>
  <way id="97549191" version="4" timestamp="2012-07-20T22:16:25Z" uid="722137" user="OSMF Redaction Account" changeset="12394520"/>
  <way id="97549192" version="4" timestamp="2012-07-20T22:16:27Z" uid="722137" user="OSMF Redaction Account" changeset="12394520"/>
  <way id="97549193" version="3" timestamp="2012-07-20T22:16:32Z" uid="722137" user="OSMF Redaction Account" changeset="12394520"/>
  <way id="97549194" version="4" timestamp="2012-07-20T22:16:18Z" uid="722137" user="OSMF Redaction Account" changeset="12394489"/>
  <way id="97549195" version="4" timestamp="2012-07-20T22:16:17Z" uid="722137" user="OSMF Redaction Account" changeset="12394489"/>
  <way id="97549196" version="4" timestamp="2012-07-20T22:16:27Z" uid="722137" user="OSMF Redaction Account" changeset="12394520"/>
  <way id="97549197" version="4" timestamp="2012-07-20T22:16:24Z" uid="722137" user="OSMF Redaction Account" changeset="12394520"/>
  <way id="97549198" version="4" timestamp="2012-07-20T22:16:21Z" uid="722137" user="OSMF Redaction Account" changeset="12394520"/>
  <way id="97549199" version="5" timestamp="2012-07-20T22:16:29Z" uid="722137" user="OSMF Redaction Account" changeset="12394520"/>
  <way id="97549200" version="2" timestamp="2012-07-20T22:16:31Z" uid="722137" user="OSMF Redaction Account" changeset="12394520"/>
  <way id="97549201" version="5" timestamp="2012-07-20T22:16:21Z" uid="722137" user="OSMF Redaction Account" changeset="12394520"/>
  <way id="97549202" version="3" timestamp="2012-07-20T22:16:31Z" uid="722137" user="OSMF Redaction Account" changeset="12394520"/>
  <way id="97549203" version="4" timestamp="2012-07-20T22:16:25Z" uid="722137" user="OSMF Redaction Account" changeset="12394520"/>
  <way id="97549204" version="3" timestamp="2012-07-20T22:16:29Z" uid="722137" user="OSMF Redaction Account" changeset="12394520"/>
  <way id="97549205" version="4" timestamp="2012-07-20T22:16:18Z" uid="722137" user="OSMF Redaction Account" changeset="12394489"/>
  <way id="97549206" version="3" timestamp="2012-07-20T22:16:29Z" uid="722137" user="OSMF Redaction Account" changeset="12394520"/>
  <way id="97549207" version="4" timestamp="2012-07-20T22:16:17Z" uid="722137" user="OSMF Redaction Account" changeset="12394489"/>
  <way id="97549208" version="5" timestamp="2012-07-20T22:16:23Z" uid="722137" user="OSMF Redaction Account" changeset="12394520"/>
  <way id="97549209" version="3" timestamp="2012-07-20T22:16:31Z" uid="722137" user="OSMF Redaction Account" changeset="12394520"/>
  <way id="97549210" version="4" timestamp="2012-07-20T22:16:23Z" uid="722137" user="OSMF Redaction Account" changeset="12394520"/>
  <way id="97549211" version="4" timestamp="2012-07-20T22:16:28Z" uid="722137" user="OSMF Redaction Account" changeset="12394520"/>
  <way id="97549212" version="3" timestamp="2012-07-20T22:16:33Z" uid="722137" user="OSMF Redaction Account" changeset="12394520"/>
  <way id="97549213" version="2" timestamp="2012-07-20T22:16:30Z" uid="722137" user="OSMF Redaction Account" changeset="12394520"/>
  <way id="97549214" version="4" timestamp="2012-07-20T22:16:29Z" uid="722137" user="OSMF Redaction Account" changeset="12394520"/>
  <way id="97549215" version="3" timestamp="2012-07-20T22:16:31Z" uid="722137" user="OSMF Redaction Account" changeset="12394520"/>
  <way id="97549216" version="4" timestamp="2012-07-20T22:16:16Z" uid="722137" user="OSMF Redaction Account" changeset="12394489"/>
  <way id="97549217" version="5" timestamp="2012-07-20T22:16:24Z" uid="722137" user="OSMF Redaction Account" changeset="12394520"/>
  <way id="97549218" version="4" timestamp="2012-07-20T22:16:26Z" uid="722137" user="OSMF Redaction Account" changeset="12394520"/>
  <way id="97549219" version="4" timestamp="2012-07-20T22:16:24Z" uid="722137" user="OSMF Redaction Account" changeset="12394520"/>
  <way id="97549220" version="5" timestamp="2012-07-20T22:16:20Z" uid="722137" user="OSMF Redaction Account" changeset="12394520"/>
  <way id="97549221" version="5" timestamp="2012-07-20T22:16:22Z" uid="722137" user="OSMF Redaction Account" changeset="12394520"/>
  <way id="97549222" version="3" timestamp="2012-07-20T22:16:30Z" uid="722137" user="OSMF Redaction Account" changeset="12394520"/>
  <way id="97549223" version="4" timestamp="2012-07-20T22:16:18Z" uid="722137" user="OSMF Redaction Account" changeset="12394489"/>
  <way id="97549224" version="5" timestamp="2012-07-20T22:16:28Z" uid="722137" user="OSMF Redaction Account" changeset="12394520"/>
  <way id="97549225" version="4" timestamp="2012-07-20T22:16:25Z" uid="722137" user="OSMF Redaction Account" changeset="12394520"/>
  <way id="97549226" version="4" timestamp="2012-07-20T22:16:23Z" uid="722137" user="OSMF Redaction Account" changeset="12394520"/>
  <way id="97549227" version="4" timestamp="2012-07-20T22:16:23Z" uid="722137" user="OSMF Redaction Account" changeset="12394520"/>
  <way id="97549228" version="3" timestamp="2012-07-20T22:16:29Z" uid="722137" user="OSMF Redaction Account" changeset="12394520"/>
  <way id="97549229" version="4" timestamp="2012-07-20T22:16:27Z" uid="722137" user="OSMF Redaction Account" changeset="12394520"/>
  <way id="97549230" version="3" timestamp="2012-07-20T22:16:27Z" uid="722137" user="OSMF Redaction Account" changeset="12394520"/>
  <way id="97549231" version="4" timestamp="2012-07-20T22:16:17Z" uid="722137" user="OSMF Redaction Account" changeset="12394489"/>
  <way id="97549232" version="3" timestamp="2012-07-20T22:16:31Z" uid="722137" user="OSMF Redaction Account" changeset="12394520"/>
  <way id="97549233" version="4" timestamp="2012-07-20T22:16:24Z" uid="722137" user="OSMF Redaction Account" changeset="12394520"/>
  <way id="97549234" version="4" timestamp="2012-07-20T22:16:22Z" uid="722137" user="OSMF Redaction Account" changeset="12394520"/>
  <way id="97549235" version="4" timestamp="2012-07-20T22:16:29Z" uid="722137" user="OSMF Redaction Account" changeset="12394520"/>
  <way id="97549236" version="4" timestamp="2012-07-20T22:16:24Z" uid="722137" user="OSMF Redaction Account" changeset="12394520"/>
  <way id="97549237" version="3" timestamp="2012-07-20T22:16:32Z" uid="722137" user="OSMF Redaction Account" changeset="12394520"/>
  <way id="97549238" version="6" timestamp="2012-07-20T22:16:25Z" uid="722137" user="OSMF Redaction Account" changeset="12394520"/>
  <way id="97549239" version="4" timestamp="2012-07-20T22:16:26Z" uid="722137" user="OSMF Redaction Account" changeset="12394520"/>
  <way id="97549240" version="5" timestamp="2012-07-20T22:16:29Z" uid="722137" user="OSMF Redaction Account" changeset="12394520"/>
  <way id="97549241" version="4" timestamp="2012-07-20T22:16:17Z" uid="722137" user="OSMF Redaction Account" changeset="12394489"/>
  <way id="97549242" version="5" timestamp="2012-07-20T22:16:22Z" uid="722137" user="OSMF Redaction Account" changeset="12394520"/>
  <way id="97549243" version="3" timestamp="2012-07-20T22:16:31Z" uid="722137" user="OSMF Redaction Account" changeset="12394520"/>
  <way id="97549244" version="3" timestamp="2012-07-20T22:16:32Z" uid="722137" user="OSMF Redaction Account" changeset="12394520"/>
  <way id="97549245" version="3" timestamp="2012-07-20T22:16:30Z" uid="722137" user="OSMF Redaction Account" changeset="12394520"/>
  <way id="97549246" version="3" timestamp="2012-07-20T22:16:31Z" uid="722137" user="OSMF Redaction Account" changeset="12394520"/>
  <way id="97549247" version="3" timestamp="2012-07-20T22:16:33Z" uid="722137" user="OSMF Redaction Account" changeset="12394520"/>
  <way id="97549248" version="4" timestamp="2012-07-20T22:16:26Z" uid="722137" user="OSMF Redaction Account" changeset="12394520"/>
  <way id="97549249" version="4" timestamp="2012-07-20T22:16:29Z" uid="722137" user="OSMF Redaction Account" changeset="12394520"/>
  <way id="97549250" version="3" timestamp="2012-07-20T22:16:32Z" uid="722137" user="OSMF Redaction Account" changeset="12394520"/>
  <way id="97549251" version="5" timestamp="2012-07-20T22:16:18Z" uid="722137" user="OSMF Redaction Account" changeset="12394489"/>
  <way id="97549252" version="4" timestamp="2012-07-20T22:16:23Z" uid="722137" user="OSMF Redaction Account" changeset="12394520"/>
  <way id="97549253" version="4" timestamp="2012-07-20T22:16:28Z" uid="722137" user="OSMF Redaction Account" changeset="12394520"/>
  <way id="97549254" version="4" timestamp="2012-07-20T22:16:17Z" uid="722137" user="OSMF Redaction Account" changeset="12394489"/>
  <way id="97549255" version="4" timestamp="2012-07-20T22:16:18Z" uid="722137" user="OSMF Redaction Account" changeset="12394489"/>
  <way id="97549256" version="4" timestamp="2012-07-20T22:16:17Z" uid="722137" user="OSMF Redaction Account" changeset="12394489"/>
</osm>
