<?xml version='1.0' encoding='UTF-8'?>
<osm version="0.6" generator="libosmium/2.20.0">
  <way id="97858501" version="1" timestamp="2011-02-02T19:30:35Z" uid="115477" user="wowik" changeset="7167748">
    <nd ref="1132653251"/>
    <nd ref="1132653020"/>
    <nd ref="1132652971"/>
    <nd ref="1132653624"/>
    <nd ref="1132653251"/>
    <tag k="building" v="yes"/>
  </way>
  <way id="97858501" version="2" timestamp="2011-02-02T20:08:50Z" uid="115477" user="wowik" changeset="7168176">
    <nd ref="1132653251"/>
    <nd ref="1132653020"/>
    <nd ref="1132652971"/>
    <nd ref="1132653624"/>
    <nd ref="1132653251"/>
    <tag k="addr:city" v="Зеленоград"/>
    <tag k="addr:country" v="RU"/>
    <tag k="addr:housenumber" v="17 с6"/>
    <tag k="addr:street" v="3-й Западный проезд"/>
    <tag k="building" v="yes"/>
  </way>
  <way id="97858501" version="3" timestamp="2012-03-27T11:37:52Z" uid="481934" user="iWowik" changeset="11115472">
    <nd ref="1132653251"/>
    <nd ref="1132653020"/>
    <nd ref="1132652971"/>
    <nd ref="1132653624"/>
    <nd ref="1132653251"/>
    <tag k="addr:city" v="Зеленоград"/>
    <tag k="addr:country" v="RU"/>
    <tag k="addr:housenumber" v="17 с6"/>
    <tag k="addr:region" v="Москва"/>
    <tag k="addr:street" v="3-й Западный проезд"/>
    <tag k="building" v="yes"/>
  </way>
  <way id="97858502" version="1" timestamp="2011-02-02T19:30:35Z" uid="115477" user="wowik" changeset="7167748">
    <nd ref="1132653238"/>
    <nd ref="1132653009"/>
    <nd ref="1132653655"/>
    <nd ref="1132653181"/>
    <nd ref="1132653238"/>
    <tag k="building" v="yes"/>
  </way>
  <way id="97858502" version="2" timestamp="2011-02-02T20:08:48Z" uid="115477" user="wowik" changeset="7168176">
    <nd ref="1132653238"/>
    <nd ref="1132653009"/>
    <nd ref="1132653655"/>
    <nd ref="1132653181"/>
    <nd ref="1132653238"/>
    <tag k="addr:city" v="Зеленоград"/>
    <tag k="addr:country" v="RU"/>
    <tag k="addr:housenumber" v="11 с4А"/>
    <tag k="addr:street" v="3-й Западный проезд"/>
    <tag k="building" v="yes"/>
  </way>
  <way id="97858502" version="3" timestamp="2012-03-27T11:34:07Z" uid="481934" user="iWowik" changeset="11115472">
    <nd ref="1132653238"/>
    <nd ref="1132653009"/>
    <nd ref="1132653655"/>
    <nd ref="1132653181"/>
    <nd ref="1132653238"/>
    <tag k="addr:city" v="Зеленоград"/>
    <tag k="addr:country" v="RU"/>
    <tag k="addr:housenumber" v="11 с4А"/>
    <tag k="addr:region" v="Москва"/>
    <tag k="addr:street" v="3-й Западный проезд"/>
    <tag k="building" v="yes"/>
  </way>
  <way id="97858506" version="1" timestamp="2011-02-02T19:30:35Z" uid="115477" user="wowik" changeset="7167748">
    <nd ref="1132653454"/>
    <nd ref="1132653244"/>
    <nd ref="1132652814"/>
    <nd ref="1132652778"/>
    <nd ref="1132653454"/>
    <tag k="building" v="yes"/>
  </way>
  <way id="97858507" version="1" timestamp="2011-02-02T19:30:35Z" uid="115477" user="wowik" changeset="7167748">
    <nd ref="1132652761"/>
    <nd ref="1132653668"/>
    <nd ref="1132653193"/>
    <nd ref="1132652771"/>
    <nd ref="1132652761"/>
    <tag k="building" v="yes"/>
  </way>
  <way id="97858507" version="2" timestamp="2012-03-27T11:52:54Z" uid="481934" user="iWowik" changeset="11115472">
    <nd ref="1132652761"/>
    <nd ref="1132653668"/>
    <nd ref="1132653193"/>
    <nd ref="1132652771"/>
    <nd ref="1132652761"/>
    <tag k="addr:city" v="Зеленоград"/>
    <tag k="addr:country" v="RU"/>
    <tag k="addr:region" v="Москва"/>
    <tag k="building" v="yes"/>
  </way>
  <way id="97858508" version="1" timestamp="2011-02-02T19:30:36Z" uid="115477" user="wowik" changeset="7167748">
    <nd ref="1132653025"/>
    <nd ref="1132653223"/>
    <nd ref="1132652793"/>
    <nd ref="1132653363"/>
    <nd ref="1132653025"/>
    <tag k="building" v="yes"/>
  </way>
  <way id="97858512" version="1" timestamp="2011-02-02T19:30:36Z" uid="115477" user="wowik" changeset="7167748">
    <nd ref="1132653413"/>
    <nd ref="1132653219"/>
    <nd ref="1132653537"/>
    <nd ref="1132653090"/>
    <nd ref="1132653413"/>
    <tag k="building" v="yes"/>
  </way>
  <way id="97858512" version="2" timestamp="2012-03-27T11:52:16Z" uid="481934" user="iWowik" changeset="11115472">
    <nd ref="1132653413"/>
    <nd ref="1132653219"/>
    <nd ref="1132653537"/>
    <nd ref="1132653090"/>
    <nd ref="1132653413"/>
    <tag k="addr:city" v="Зеленоград"/>
    <tag k="addr:country" v="RU"/>
    <tag k="addr:region" v="Москва"/>
    <tag k="building" v="yes"/>
  </way>
  <way id="97858513" version="1" timestamp="2011-02-02T19:30:36Z" uid="115477" user="wowik" changeset="7167748">
    <nd ref="699864927"/>
    <nd ref="699864919"/>
    <nd ref="1132653277"/>
    <nd ref="1132652836"/>
    <nd ref="699864922"/>
    <nd ref="699864925"/>
    <nd ref="1132653371"/>
    <nd ref="1132652801"/>
    <nd ref="699864927"/>
    <tag k="addr:city" v="Зеленоград"/>
    <tag k="addr:country" v="RU"/>
    <tag k="addr:housenumber" v="15 с2"/>
    <tag k="addr:street" v="3-й Западный проезд"/>
    <tag k="building" v="yes"/>
  </way>
  <way id="97858517" version="1" timestamp="2011-02-02T19:30:36Z" uid="115477" user="wowik" changeset="7167748">
    <nd ref="1132652806"/>
    <nd ref="1132653646"/>
    <nd ref="1132653594"/>
    <nd ref="1132653138"/>
    <nd ref="1132653052"/>
    <nd ref="1132653769"/>
    <nd ref="1132653480"/>
    <nd ref="1132652806"/>
    <tag k="building" v="yes"/>
  </way>
  <way id="97858517" version="2" timestamp="2012-03-27T11:55:31Z" uid="481934" user="iWowik" changeset="11115472">
    <nd ref="1132652806"/>
    <nd ref="1132653646"/>
    <nd ref="1132653594"/>
    <nd ref="1132653138"/>
    <nd ref="1132653052"/>
    <nd ref="1132653769"/>
    <nd ref="1132653480"/>
    <nd ref="1132652806"/>
    <tag k="addr:city" v="Зеленоград"/>
    <tag k="addr:country" v="RU"/>
    <tag k="addr:region" v="Москва"/>
    <tag k="building" v="yes"/>
  </way>
  <way id="97858519" version="1" timestamp="2011-02-02T19:30:36Z" uid="115477" user="wowik" changeset="7167748">
    <nd ref="1132653017"/>
    <nd ref="1132652948"/>
    <nd ref="1132653589"/>
    <nd ref="1132653125"/>
    <nd ref="1132653017"/>
    <tag k="building" v="yes"/>
  </way>
  <way id="97858519" version="2" timestamp="2012-03-27T11:52:23Z" uid="481934" user="iWowik" changeset="11115472">
    <nd ref="1132653017"/>
    <nd ref="1132652948"/>
    <nd ref="1132653589"/>
    <nd ref="1132653125"/>
    <nd ref="1132653017"/>
    <tag k="addr:city" v="Зеленоград"/>
    <tag k="addr:country" v="RU"/>
    <tag k="addr:region" v="Москва"/>
    <tag k="building" v="yes"/>
  </way>
  <way id="97858520" version="1" timestamp="2011-02-02T19:30:37Z" uid="115477" user="wowik" changeset="7167748">
    <nd ref="1132652997"/>
    <nd ref="1132652802"/>
    <nd ref="1132653380"/>
    <nd ref="1132652937"/>
    <nd ref="1132652997"/>
    <tag k="building" v="yes"/>
  </way>
  <way id="97858522" version="1" timestamp="2011-02-02T19:30:37Z" uid="115477" user="wowik" changeset="7167748">
    <nd ref="1132652784"/>
    <nd ref="1132653615"/>
    <nd ref="1132653153"/>
    <nd ref="1132653786"/>
    <nd ref="1132652784"/>
    <tag k="building" v="yes"/>
  </way>
  <way id="97858522" version="2" timestamp="2011-02-09T14:38:20Z" uid="115477" user="wowik" changeset="7236618">
    <nd ref="1132652784"/>
    <nd ref="1132653615"/>
    <nd ref="1132653153"/>
    <nd ref="1132653786"/>
    <nd ref="1132652784"/>
    <tag k="addr:city" v="Зеленоград"/>
    <tag k="addr:country" v="RU"/>
    <tag k="addr:housenumber" v="12 с?"/>
    <tag k="addr:street" v="3-й Западный проезд"/>
    <tag k="building" v="yes"/>
  </way>
  <way id="97858524" version="1" timestamp="2011-02-02T19:30:37Z" uid="115477" user="wowik" changeset="7167748">
    <nd ref="1132653532"/>
    <nd ref="1132653667"/>
    <nd ref="1132653018"/>
    <nd ref="1132652876"/>
    <nd ref="1132653532"/>
    <tag k="addr:city" v="Зеленоград"/>
    <tag k="addr:country" v="RU"/>
    <tag k="addr:housenumber" v="8 с6"/>
    <tag k="addr:street" v="3-й Западный проезд"/>
    <tag k="building" v="yes"/>
  </way>
  <way id="97858526" version="1" timestamp="2011-02-02T19:30:37Z" uid="115477" user="wowik" changeset="7167748">
    <nd ref="1132653788"/>
    <nd ref="1132653515"/>
    <nd ref="1132653075"/>
    <nd ref="1132653726"/>
    <nd ref="1132653788"/>
    <tag k="building" v="yes"/>
  </way>
  <way id="97858528" version="1" timestamp="2011-02-02T19:30:37Z" uid="115477" user="wowik" changeset="7167748">
    <nd ref="1132653790"/>
    <nd ref="1132653527"/>
    <nd ref="1132653766"/>
    <nd ref="1132653291"/>
    <nd ref="1132652849"/>
    <nd ref="1132653418"/>
    <nd ref="1132653790"/>
    <tag k="building" v="yes"/>
  </way>
  <way id="97858528" version="2" timestamp="2011-02-02T20:08:49Z" uid="115477" user="wowik" changeset="7168176">
    <nd ref="1132653790"/>
    <nd ref="1132653527"/>
    <nd ref="1132653766"/>
    <nd ref="1132653291"/>
    <nd ref="1132652849"/>
    <nd ref="1132653418"/>
    <nd ref="1132653790"/>
    <tag k="addr:city" v="Зеленоград"/>
    <tag k="addr:country" v="RU"/>
    <tag k="addr:housenumber" v="17 с4"/>
    <tag k="addr:street" v="3-й Западный проезд"/>
    <tag k="building" v="yes"/>
  </way>
  <way id="97858528" version="3" timestamp="2012-03-27T11:37:52Z" uid="481934" user="iWowik" changeset="11115472">
    <nd ref="1132653790"/>
    <nd ref="1132653527"/>
    <nd ref="1132653766"/>
    <nd ref="1132653291"/>
    <nd ref="1132652849"/>
    <nd ref="1132653418"/>
    <nd ref="1132653790"/>
    <tag k="addr:city" v="Зеленоград"/>
    <tag k="addr:country" v="RU"/>
    <tag k="addr:housenumber" v="17 с4"/>
    <tag k="addr:region" v="Москва"/>
    <tag k="addr:street" v="3-й Западный проезд"/>
    <tag k="building" v="yes"/>
  </way>
  <way id="97858531" version="1" timestamp="2011-02-02T19:30:38Z" uid="115477" user="wowik" changeset="7167748">
    <nd ref="1132653482"/>
    <nd ref="1132653283"/>
    <nd ref="1132652846"/>
    <nd ref="1132653399"/>
    <nd ref="1132653160"/>
    <nd ref="1132652723"/>
    <nd ref="1132653318"/>
    <nd ref="1132652881"/>
    <nd ref="1132653482"/>
  </way>
  <way id="97858531" version="2" timestamp="2011-02-02T20:08:51Z" uid="115477" user="wowik" changeset="7168176">
    <nd ref="1132653482"/>
    <nd ref="1132653283"/>
    <nd ref="1132652846"/>
    <nd ref="1132653399"/>
    <nd ref="1132653160"/>
    <nd ref="1132652723"/>
    <nd ref="1132653318"/>
    <nd ref="1132652881"/>
    <nd ref="1132653482"/>
    <tag k="addr:city" v="Зеленоград"/>
    <tag k="addr:country" v="RU"/>
    <tag k="addr:housenumber" v="58"/>
    <tag k="addr:street" v="Колхозная улица"/>
    <tag k="building" v="yes"/>
    <tag k="building:use" v="residential"/>
  </way>
  <way id="97858532" version="1" timestamp="2011-02-02T19:30:38Z" uid="115477" user="wowik" changeset="7167748">
    <nd ref="1132653317"/>
    <nd ref="1132653097"/>
    <tag k="barrier" v="wall"/>
  </way>
  <way id="97858537" version="1" timestamp="2011-02-02T19:30:38Z" uid="115477" user="wowik" changeset="7167748">
    <nd ref="1132653285"/>
    <nd ref="1132653741"/>
    <nd ref="1132653269"/>
    <nd ref="1132652833"/>
    <nd ref="1132653285"/>
    <tag k="building" v="yes"/>
  </way>
  <way id="97858538" version="1" timestamp="2011-02-02T19:30:38Z" uid="115477" user="wowik" changeset="7167748">
    <nd ref="1132652953"/>
    <nd ref="1132653609"/>
    <nd ref="1132653146"/>
    <nd ref="1132653092"/>
    <nd ref="1132653746"/>
    <nd ref="922525826"/>
    <nd ref="1132652953"/>
    <tag k="addr:city" v="Зеленоград"/>
    <tag k="addr:country" v="RU"/>
    <tag k="addr:housenumber" v="10 с1"/>
    <tag k="addr:street" v="3-й Западный проезд"/>
    <tag k="building" v="yes"/>
  </way>
  <way id="97858541" version="1" timestamp="2011-02-02T19:30:38Z" uid="115477" user="wowik" changeset="7167748">
    <nd ref="1132653382"/>
    <nd ref="1132652786"/>
    <nd ref="1132653351"/>
    <nd ref="1132652915"/>
    <nd ref="1132653382"/>
    <tag k="leisure" v="pitch"/>
  </way>
  <way id="97858542" version="1" timestamp="2011-02-02T19:30:38Z" uid="115477" user="wowik" changeset="7167748">
    <nd ref="1132653709"/>
    <nd ref="1132653414"/>
    <nd ref="1132652983"/>
    <nd ref="1132652945"/>
    <nd ref="1132653709"/>
    <tag k="addr:city" v="Зеленоград"/>
    <tag k="addr:country" v="RU"/>
    <tag k="addr:housenumber" v="11 с10"/>
    <tag k="addr:street" v="3-й Западный проезд"/>
    <tag k="building" v="yes"/>
  </way>
  <way id="97858542" version="2" timestamp="2012-03-27T11:33:57Z" uid="481934" user="iWowik" changeset="11115472">
    <nd ref="1132653709"/>
    <nd ref="1132653414"/>
    <nd ref="1132652983"/>
    <nd ref="1132652945"/>
    <nd ref="1132653709"/>
    <tag k="addr:city" v="Зеленоград"/>
    <tag k="addr:country" v="RU"/>
    <tag k="addr:housenumber" v="11 с10"/>
    <tag k="addr:region" v="Москва"/>
    <tag k="addr:street" v="3-й Западный проезд"/>
    <tag k="building" v="yes"/>
  </way>
  <way id="97858543" version="1" timestamp="2011-02-02T19:30:39Z" uid="115477" user="wowik" changeset="7167748">
    <nd ref="1132653686"/>
    <nd ref="1132653397"/>
    <nd ref="1132652965"/>
    <nd ref="1132653614"/>
    <nd ref="1132653686"/>
    <tag k="building" v="yes"/>
  </way>
  <way id="97858544" version="1" timestamp="2011-02-02T19:30:39Z" uid="115477" user="wowik" changeset="7167748">
    <nd ref="1132652985"/>
    <nd ref="1132652799"/>
    <nd ref="1132653367"/>
    <nd ref="1132652933"/>
    <nd ref="1132652985"/>
  </way>
  <way id="97858544" version="2" timestamp="2011-04-01T18:16:52Z" uid="115477" user="wowik" changeset="7737524">
    <nd ref="1132652985"/>
    <nd ref="1132652799"/>
    <nd ref="1132653367"/>
    <nd ref="1132652933"/>
    <nd ref="1132652985"/>
    <tag k="building" v="yes"/>
    <tag k="building:levels" v="1"/>
  </way>
  <way id="97858544" version="3" timestamp="2012-03-27T11:53:51Z" uid="481934" user="iWowik" changeset="11115472">
    <nd ref="1132652985"/>
    <nd ref="1132652799"/>
    <nd ref="1132653367"/>
    <nd ref="1132652933"/>
    <nd ref="1132652985"/>
    <tag k="addr:city" v="Зеленоград"/>
    <tag k="addr:country" v="RU"/>
    <tag k="addr:region" v="Москва"/>
    <tag k="building" v="yes"/>
    <tag k="building:levels" v="1"/>
  </way>
  <way id="97858545" version="1" timestamp="2011-02-02T19:30:39Z" uid="115477" user="wowik" changeset="7167748">
    <nd ref="1132652815"/>
    <nd ref="1132653666"/>
    <nd ref="1132653187"/>
    <nd ref="1132653148"/>
    <nd ref="1132652815"/>
    <tag k="building" v="yes"/>
  </way>
  <way id="97858546" version="1" timestamp="2011-02-02T19:30:39Z" uid="115477" user="wowik" changeset="7167748">
    <nd ref="1132652770"/>
    <nd ref="1132653587"/>
    <nd ref="1132653122"/>
    <nd ref="1132653767"/>
    <nd ref="1132652770"/>
    <tag k="building" v="yes"/>
  </way>
  <way id="97858546" version="2" timestamp="2012-03-27T11:50:20Z" uid="481934" user="iWowik" changeset="11115472">
    <nd ref="1132652770"/>
    <nd ref="1132653587"/>
    <nd ref="1132653122"/>
    <nd ref="1132653767"/>
    <nd ref="1132652770"/>
    <tag k="addr:city" v="Зеленоград"/>
    <tag k="addr:country" v="RU"/>
    <tag k="addr:region" v="Москва"/>
    <tag k="building" v="yes"/>
  </way>
  <way id="97858547" version="1" timestamp="2011-02-02T19:30:39Z" uid="115477" user="wowik" changeset="7167748">
    <nd ref="1132653247"/>
    <nd ref="1132653396"/>
    <nd ref="1132652962"/>
    <nd ref="1132653612"/>
    <nd ref="1132653247"/>
    <tag k="natural" v="water"/>
  </way>
  <way id="97858548" version="1" timestamp="2011-02-02T19:30:39Z" uid="115477" user="wowik" changeset="7167748">
    <nd ref="1132653503"/>
    <nd ref="1132653380"/>
    <nd ref="1132653067"/>
    <nd ref="1132653713"/>
    <nd ref="1132653503"/>
    <tag k="building" v="yes"/>
  </way>
  <way id="97858548" version="2" timestamp="2012-03-27T11:51:27Z" uid="481934" user="iWowik" changeset="11115472">
    <nd ref="1132653503"/>
    <nd ref="1132653380"/>
    <nd ref="1132653067"/>
    <nd ref="1132653713"/>
    <nd ref="1132653503"/>
    <tag k="addr:city" v="Зеленоград"/>
    <tag k="addr:country" v="RU"/>
    <tag k="addr:region" v="Москва"/>
    <tag k="building" v="yes"/>
  </way>
  <way id="97858549" version="1" timestamp="2011-02-02T19:30:40Z" uid="115477" user="wowik" changeset="7167748">
    <nd ref="1132653628"/>
    <nd ref="1132653365"/>
    <nd ref="1132653595"/>
    <nd ref="1132653141"/>
    <nd ref="1132653628"/>
    <tag k="building" v="yes"/>
  </way>
  <way id="97858550" version="1" timestamp="2011-02-02T19:30:40Z" uid="115477" user="wowik" changeset="7167748">
    <nd ref="1132653450"/>
    <nd ref="1132653236"/>
    <nd ref="1132652813"/>
    <nd ref="1132652982"/>
    <nd ref="1132653450"/>
    <tag k="building" v="yes"/>
  </way>
  <way id="97858550" version="2" timestamp="2012-03-27T11:52:21Z" uid="481934" user="iWowik" changeset="11115472">
    <nd ref="1132653450"/>
    <nd ref="1132653236"/>
    <nd ref="1132652813"/>
    <nd ref="1132652982"/>
    <nd ref="1132653450"/>
    <tag k="addr:city" v="Зеленоград"/>
    <tag k="addr:country" v="RU"/>
    <tag k="addr:region" v="Москва"/>
    <tag k="building" v="yes"/>
  </way>
  <way id="97858553" version="1" timestamp="2011-02-02T19:30:40Z" uid="115477" user="wowik" changeset="7167748">
    <nd ref="1132652844"/>
    <nd ref="1132653689"/>
    <nd ref="1132652816"/>
    <nd ref="1132653383"/>
    <nd ref="1132652844"/>
    <tag k="building" v="yes"/>
  </way>
  <way id="97858553" version="2" timestamp="2012-03-27T11:50:33Z" uid="481934" user="iWowik" changeset="11115472">
    <nd ref="1132652844"/>
    <nd ref="1132653689"/>
    <nd ref="1132652816"/>
    <nd ref="1132653383"/>
    <nd ref="1132652844"/>
    <tag k="addr:city" v="Зеленоград"/>
    <tag k="addr:country" v="RU"/>
    <tag k="addr:region" v="Москва"/>
    <tag k="building" v="yes"/>
  </way>
  <way id="97858554" version="1" timestamp="2011-02-02T19:30:40Z" uid="115477" user="wowik" changeset="7167748">
    <nd ref="1132653722"/>
    <nd ref="1132652835"/>
    <nd ref="1132653394"/>
    <nd ref="1132652951"/>
    <nd ref="1132653607"/>
    <nd ref="1132653207"/>
    <nd ref="1132653722"/>
    <tag k="building" v="yes"/>
  </way>
  <way id="97858554" version="2" timestamp="2012-03-27T11:55:27Z" uid="481934" user="iWowik" changeset="11115472">
    <nd ref="1132653722"/>
    <nd ref="1132652835"/>
    <nd ref="1132653394"/>
    <nd ref="1132652951"/>
    <nd ref="1132653607"/>
    <nd ref="1132653207"/>
    <nd ref="1132653722"/>
    <tag k="addr:city" v="Зеленоград"/>
    <tag k="addr:country" v="RU"/>
    <tag k="addr:region" v="Москва"/>
    <tag k="building" v="yes"/>
  </way>
  <way id="97858555" version="1" timestamp="2011-02-02T19:30:40Z" uid="115477" user="wowik" changeset="7167748">
    <nd ref="1132653019"/>
    <nd ref="1132652817"/>
    <nd ref="1132653384"/>
    <nd ref="1132653135"/>
    <nd ref="1132653019"/>
    <tag k="building" v="yes"/>
  </way>
  <way id="97858558" version="1" timestamp="2011-02-02T19:30:40Z" uid="115477" user="wowik" changeset="7167748">
    <nd ref="1132653707"/>
    <nd ref="1132653412"/>
    <nd ref="1132653061"/>
    <nd ref="1132653711"/>
    <nd ref="1132653707"/>
    <tag k="building" v="yes"/>
  </way>
  <way id="97858559" version="1" timestamp="2011-02-02T19:30:40Z" uid="115477" user="wowik" changeset="7167748">
    <nd ref="1132653705"/>
    <nd ref="1132653400"/>
    <nd ref="1132652976"/>
    <nd ref="1132653627"/>
    <nd ref="1132653705"/>
    <tag k="building" v="yes"/>
  </way>
  <way id="97858559" version="2" timestamp="2012-03-27T11:53:22Z" uid="481934" user="iWowik" changeset="11115472">
    <nd ref="1132653705"/>
    <nd ref="1132653400"/>
    <nd ref="1132652976"/>
    <nd ref="1132653627"/>
    <nd ref="1132653705"/>
    <tag k="addr:city" v="Зеленоград"/>
    <tag k="addr:country" v="RU"/>
    <tag k="addr:region" v="Москва"/>
    <tag k="building" v="yes"/>
  </way>
  <way id="97858560" version="1" timestamp="2011-02-02T19:30:40Z" uid="115477" user="wowik" changeset="7167748">
    <nd ref="1132653241"/>
    <nd ref="1132653395"/>
    <nd ref="1132652960"/>
    <nd ref="1132653610"/>
    <nd ref="1132653241"/>
    <tag k="building" v="yes"/>
  </way>
  <way id="97858561" version="1" timestamp="2011-02-02T19:30:41Z" uid="115477" user="wowik" changeset="7167748">
    <nd ref="1132652773"/>
    <nd ref="1132653593"/>
    <nd ref="1132652746"/>
    <nd ref="1132653322"/>
    <nd ref="1132652773"/>
    <tag k="building" v="yes"/>
  </way>
  <way id="97858562" version="1" timestamp="2011-02-02T19:30:41Z" uid="115477" user="wowik" changeset="7167748">
    <nd ref="1132652759"/>
    <nd ref="1132653556"/>
    <nd ref="1132653106"/>
    <nd ref="1132653754"/>
    <nd ref="1132652759"/>
    <tag k="building" v="yes"/>
  </way>
  <way id="97858562" version="2" timestamp="2012-03-27T11:52:14Z" uid="481934" user="iWowik" changeset="11115472">
    <nd ref="1132652759"/>
    <nd ref="1132653556"/>
    <nd ref="1132653106"/>
    <nd ref="1132653754"/>
    <nd ref="1132652759"/>
    <tag k="addr:city" v="Зеленоград"/>
    <tag k="addr:country" v="RU"/>
    <tag k="addr:region" v="Москва"/>
    <tag k="building" v="yes"/>
  </way>
  <way id="97858564" version="1" timestamp="2011-02-02T19:30:41Z" uid="115477" user="wowik" changeset="7167748">
    <nd ref="1132652744"/>
    <nd ref="1132653544"/>
    <nd ref="1132653093"/>
    <nd ref="1132653306"/>
    <nd ref="1132652744"/>
    <tag k="building" v="yes"/>
  </way>
  <way id="97858565" version="1" timestamp="2011-02-02T19:30:41Z" uid="115477" user="wowik" changeset="7167748">
    <nd ref="1132653300"/>
    <nd ref="1132653070"/>
    <nd ref="1132653034"/>
    <nd ref="1132653672"/>
    <nd ref="1132653300"/>
    <tag k="building" v="yes"/>
  </way>
  <way id="97858566" version="1" timestamp="2011-02-02T19:30:41Z" uid="115477" user="wowik" changeset="7167748">
    <nd ref="1132652927"/>
    <nd ref="1132653796"/>
    <nd ref="1132653315"/>
    <nd ref="1132652878"/>
    <nd ref="1132652927"/>
    <tag k="building" v="yes"/>
  </way>
  <way id="97858566" version="2" timestamp="2012-03-27T11:53:59Z" uid="481934" user="iWowik" changeset="11115472">
    <nd ref="1132652927"/>
    <nd ref="1132653796"/>
    <nd ref="1132653315"/>
    <nd ref="1132652878"/>
    <nd ref="1132652927"/>
    <tag k="addr:city" v="Зеленоград"/>
    <tag k="addr:country" v="RU"/>
    <tag k="addr:region" v="Москва"/>
    <tag k="building" v="yes"/>
  </way>
  <way id="97858569" version="1" timestamp="2011-02-02T19:30:41Z" uid="115477" user="wowik" changeset="7167748">
    <nd ref="1132653566"/>
    <nd ref="1132653340"/>
    <nd ref="1132653398"/>
    <nd ref="1132652868"/>
    <nd ref="1132653456"/>
    <nd ref="1132653018"/>
    <nd ref="1132653667"/>
    <nd ref="1132653257"/>
    <nd ref="1132653566"/>
    <tag k="addr:city" v="Зеленоград"/>
    <tag k="addr:country" v="RU"/>
    <tag k="addr:housenumber" v="8 с7"/>
    <tag k="addr:street" v="3-й Западный проезд"/>
    <tag k="building" v="yes"/>
  </way>
  <way id="97858571" version="1" timestamp="2011-02-02T19:30:42Z" uid="115477" user="wowik" changeset="7167748">
    <nd ref="1132653563"/>
    <nd ref="1132653338"/>
    <nd ref="1132653310"/>
    <nd ref="1132652867"/>
    <nd ref="1132653563"/>
    <tag k="building" v="yes"/>
  </way>
  <way id="97858574" version="1" timestamp="2011-02-02T19:30:42Z" uid="115477" user="wowik" changeset="7167748">
    <nd ref="1132652911"/>
    <nd ref="1132653783"/>
    <nd ref="1132653349"/>
    <nd ref="1132652913"/>
    <nd ref="1132653512"/>
    <nd ref="1132653073"/>
    <nd ref="1132653044"/>
    <nd ref="1132653692"/>
    <nd ref="1132653209"/>
    <nd ref="1132652785"/>
    <nd ref="1132652911"/>
    <tag k="building" v="yes"/>
  </way>
  <way id="97858576" version="1" timestamp="2011-02-02T19:30:42Z" uid="115477" user="wowik" changeset="7167748">
    <nd ref="1132653314"/>
    <nd ref="1132653084"/>
    <nd ref="1132653733"/>
    <nd ref="1132653259"/>
    <nd ref="1132653314"/>
    <tag k="building" v="yes"/>
  </way>
  <way id="97858576" version="2" timestamp="2012-03-27T11:52:41Z" uid="481934" user="iWowik" changeset="11115472">
    <nd ref="1132653314"/>
    <nd ref="1132653084"/>
    <nd ref="1132653733"/>
    <nd ref="1132653259"/>
    <nd ref="1132653314"/>
    <tag k="addr:city" v="Зеленоград"/>
    <tag k="addr:country" v="RU"/>
    <tag k="addr:region" v="Москва"/>
    <tag k="building" v="yes"/>
  </way>
  <way id="97858578" version="1" timestamp="2011-02-02T19:30:42Z" uid="115477" user="wowik" changeset="7167748">
    <nd ref="1132653385"/>
    <nd ref="1132653205"/>
    <nd ref="1132652777"/>
    <nd ref="1132652736"/>
    <nd ref="1132653385"/>
    <tag k="addr:city" v="Зеленоград"/>
    <tag k="addr:country" v="RU"/>
    <tag k="addr:housenumber" v="11 с6"/>
    <tag k="addr:street" v="3-й Западный проезд"/>
    <tag k="building" v="yes"/>
  </way>
  <way id="97858580" version="1" timestamp="2011-02-02T19:30:42Z" uid="115477" user="wowik" changeset="7167748">
    <nd ref="1132653748"/>
    <nd ref="1132653471"/>
    <nd ref="1132653039"/>
    <nd ref="1132653682"/>
    <nd ref="1132653748"/>
    <tag k="building" v="yes"/>
  </way>
  <way id="97858582" version="1" timestamp="2011-02-02T19:30:43Z" uid="115477" user="wowik" changeset="7167748">
    <nd ref="1132653068"/>
    <nd ref="1132653271"/>
    <nd ref="1132653714"/>
    <nd ref="1132653233"/>
    <nd ref="1132653201"/>
    <nd ref="1132652774"/>
    <nd ref="1132653068"/>
    <tag k="addr:city" v="Зеленоград"/>
    <tag k="addr:country" v="RU"/>
    <tag k="addr:housenumber" v="9 с2"/>
    <tag k="addr:street" v="3-й Западный проезд"/>
    <tag k="building" v="yes"/>
  </way>
  <way id="97858582" version="2" timestamp="2012-03-27T11:46:48Z" uid="481934" user="iWowik" changeset="11115472">
    <nd ref="1132653068"/>
    <nd ref="1132653271"/>
    <nd ref="1132653714"/>
    <nd ref="1132653233"/>
    <nd ref="1132653201"/>
    <nd ref="1132652774"/>
    <nd ref="1132653068"/>
    <tag k="addr:city" v="Зеленоград"/>
    <tag k="addr:country" v="RU"/>
    <tag k="addr:housenumber" v="9 с2"/>
    <tag k="addr:region" v="Москва"/>
    <tag k="addr:street" v="3-й Западный проезд"/>
    <tag k="building" v="yes"/>
  </way>
  <way id="97858585" version="1" timestamp="2011-02-02T19:30:43Z" uid="115477" user="wowik" changeset="7167748">
    <nd ref="1132652883"/>
    <nd ref="1132653743"/>
    <nd ref="1132653712"/>
    <nd ref="1132653227"/>
    <nd ref="1132652883"/>
    <tag k="addr:city" v="Зеленоград"/>
    <tag k="addr:country" v="RU"/>
    <tag k="building" v="yes"/>
  </way>
  <way id="97858585" version="2" timestamp="2012-03-27T11:53:37Z" uid="481934" user="iWowik" changeset="11115472">
    <nd ref="1132652883"/>
    <nd ref="1132653743"/>
    <nd ref="1132653712"/>
    <nd ref="1132653227"/>
    <nd ref="1132652883"/>
    <tag k="addr:city" v="Зеленоград"/>
    <tag k="addr:country" v="RU"/>
    <tag k="addr:region" v="Москва"/>
    <tag k="building" v="yes"/>
  </way>
  <way id="97858589" version="1" timestamp="2011-02-02T19:30:43Z" uid="115477" user="wowik" changeset="7167748">
    <nd ref="1132653736"/>
    <nd ref="1132653458"/>
    <nd ref="1132653023"/>
    <nd ref="1132653669"/>
    <nd ref="1132653195"/>
    <nd ref="1132653373"/>
    <nd ref="1132653736"/>
    <tag k="building" v="yes"/>
  </way>
  <way id="97858589" version="2" timestamp="2011-02-02T20:08:47Z" uid="115477" user="wowik" changeset="7168176">
    <nd ref="1132653373"/>
    <nd ref="1132653736"/>
    <nd ref="1132653458"/>
    <nd ref="1132718143"/>
    <nd ref="1132718274"/>
    <nd ref="1132653373"/>
    <tag k="addr:city" v="Зеленоград"/>
    <tag k="addr:country" v="RU"/>
    <tag k="addr:housenumber" v="11 с13"/>
    <tag k="addr:street" v="3-й Западный проезд"/>
    <tag k="building" v="yes"/>
  </way>
  <way id="97858589" version="3" timestamp="2012-03-27T11:33:59Z" uid="481934" user="iWowik" changeset="11115472">
    <nd ref="1132653373"/>
    <nd ref="1132653736"/>
    <nd ref="1132653458"/>
    <nd ref="1132718143"/>
    <nd ref="1132718274"/>
    <nd ref="1132653373"/>
    <tag k="addr:city" v="Зеленоград"/>
    <tag k="addr:country" v="RU"/>
    <tag k="addr:housenumber" v="11 с13"/>
    <tag k="addr:region" v="Москва"/>
    <tag k="addr:street" v="3-й Западный проезд"/>
    <tag k="building" v="yes"/>
  </way>
  <way id="97858591" version="1" timestamp="2011-02-02T19:30:43Z" uid="115477" user="wowik" changeset="7167748">
    <nd ref="1132653273"/>
    <nd ref="1132653037"/>
    <nd ref="1132652990"/>
    <nd ref="1132653633"/>
    <nd ref="1132653167"/>
    <nd ref="1132652739"/>
    <nd ref="1132652904"/>
    <nd ref="1132653507"/>
    <nd ref="1132653273"/>
    <tag k="building" v="yes"/>
  </way>
  <way id="97858591" version="2" timestamp="2012-03-27T11:55:45Z" uid="481934" user="iWowik" changeset="11115472">
    <nd ref="1132653273"/>
    <nd ref="1132653037"/>
    <nd ref="1132652990"/>
    <nd ref="1132653633"/>
    <nd ref="1132653167"/>
    <nd ref="1132652739"/>
    <nd ref="1132652904"/>
    <nd ref="1132653507"/>
    <nd ref="1132653273"/>
    <tag k="addr:city" v="Зеленоград"/>
    <tag k="addr:country" v="RU"/>
    <tag k="addr:region" v="Москва"/>
    <tag k="building" v="yes"/>
  </way>
  <way id="97858595" version="1" timestamp="2011-02-02T19:30:43Z" uid="115477" user="wowik" changeset="7167748">
    <nd ref="1132653475"/>
    <nd ref="1132653279"/>
    <nd ref="1132653231"/>
    <nd ref="1132652804"/>
    <nd ref="1132653381"/>
    <nd ref="1132652940"/>
    <nd ref="1132653651"/>
    <nd ref="1132653176"/>
    <nd ref="1132653475"/>
    <tag k="addr:city" v="Зеленоград"/>
    <tag k="addr:country" v="RU"/>
    <tag k="addr:housenumber" v="9 с3"/>
    <tag k="addr:street" v="3-й Западный проезд"/>
    <tag k="building" v="yes"/>
  </way>
  <way id="97858601" version="1" timestamp="2011-02-02T19:30:44Z" uid="115477" user="wowik" changeset="7167748">
    <nd ref="1132653459"/>
    <nd ref="1132653267"/>
    <nd ref="1132652832"/>
    <nd ref="1132652797"/>
    <nd ref="1132653364"/>
    <nd ref="1132652930"/>
    <nd ref="1132653459"/>
    <tag k="addr:city" v="Зеленоград"/>
    <tag k="addr:country" v="RU"/>
    <tag k="addr:housenumber" v="11 с11"/>
    <tag k="addr:street" v="3-й Западный проезд"/>
    <tag k="building" v="yes"/>
  </way>
  <way id="97858601" version="2" timestamp="2012-03-27T11:33:58Z" uid="481934" user="iWowik" changeset="11115472">
    <nd ref="1132653459"/>
    <nd ref="1132653267"/>
    <nd ref="1132652832"/>
    <nd ref="1132652797"/>
    <nd ref="1132653364"/>
    <nd ref="1132652930"/>
    <nd ref="1132653459"/>
    <tag k="addr:city" v="Зеленоград"/>
    <tag k="addr:country" v="RU"/>
    <tag k="addr:housenumber" v="11 с11"/>
    <tag k="addr:region" v="Москва"/>
    <tag k="addr:street" v="3-й Западный проезд"/>
    <tag k="building" v="yes"/>
  </way>
  <way id="97858603" version="1" timestamp="2011-02-02T19:30:44Z" uid="115477" user="wowik" changeset="7167748">
    <nd ref="1132653064"/>
    <nd ref="1132653250"/>
    <nd ref="1132652818"/>
    <nd ref="1132652899"/>
    <nd ref="1132653064"/>
    <tag k="building" v="yes"/>
  </way>
  <way id="97858605" version="1" timestamp="2011-02-02T19:30:44Z" uid="115477" user="wowik" changeset="7167748">
    <nd ref="1132652974"/>
    <nd ref="1132652790"/>
    <nd ref="1132653356"/>
    <nd ref="1132652919"/>
    <nd ref="1132652974"/>
    <tag k="building" v="yes"/>
  </way>
  <way id="97858606" version="1" timestamp="2011-02-02T19:30:44Z" uid="115477" user="wowik" changeset="7167748">
    <nd ref="1132653052"/>
    <nd ref="1132653694"/>
    <nd ref="1132653213"/>
    <nd ref="1132653171"/>
    <nd ref="1132653138"/>
    <nd ref="1132653052"/>
    <tag k="building" v="yes"/>
  </way>
  <way id="97858606" version="2" timestamp="2012-03-27T11:54:32Z" uid="481934" user="iWowik" changeset="11115472">
    <nd ref="1132653052"/>
    <nd ref="1132653694"/>
    <nd ref="1132653213"/>
    <nd ref="1132653171"/>
    <nd ref="1132653138"/>
    <nd ref="1132653052"/>
    <tag k="addr:city" v="Зеленоград"/>
    <tag k="addr:country" v="RU"/>
    <tag k="addr:region" v="Москва"/>
    <tag k="building" v="yes"/>
  </way>
  <way id="97858609" version="1" timestamp="2011-02-02T19:30:44Z" uid="115477" user="wowik" changeset="7167748">
    <nd ref="1132653332"/>
    <nd ref="1132653104"/>
    <nd ref="1132653753"/>
    <nd ref="1132652877"/>
    <nd ref="1132653457"/>
    <nd ref="1132653021"/>
    <nd ref="1132653332"/>
    <tag k="natural" v="water"/>
  </way>
  <way id="97858613" version="1" timestamp="2011-02-02T19:30:44Z" uid="115477" user="wowik" changeset="7167748">
    <nd ref="1132653211"/>
    <nd ref="1132652969"/>
    <nd ref="1132653616"/>
    <nd ref="1132653154"/>
    <nd ref="1132653211"/>
    <tag k="building" v="yes"/>
  </way>
  <way id="97858615" version="1" timestamp="2011-02-02T19:30:44Z" uid="115477" user="wowik" changeset="7167748">
    <nd ref="1132652798"/>
    <nd ref="1132653629"/>
    <nd ref="1132653559"/>
    <nd ref="1132653111"/>
    <nd ref="1132652798"/>
    <tag k="building" v="yes"/>
  </way>
  <way id="97858617" version="1" timestamp="2011-02-02T19:30:45Z" uid="115477" user="wowik" changeset="7167748">
    <nd ref="1132653366"/>
    <nd ref="1132653158"/>
    <nd ref="1132652722"/>
    <nd ref="1132653316"/>
    <nd ref="1132653366"/>
    <tag k="building" v="yes"/>
  </way>
  <way id="97858618" version="1" timestamp="2011-02-02T19:30:45Z" uid="115477" user="wowik" changeset="7167748">
    <nd ref="1132652769"/>
    <nd ref="1132653581"/>
    <nd ref="1132653114"/>
    <nd ref="1132652859"/>
    <nd ref="1132652769"/>
    <tag k="building" v="yes"/>
  </way>
  <way id="97858618" version="2" timestamp="2012-03-27T11:50:01Z" uid="481934" user="iWowik" changeset="11115472">
    <nd ref="1132652769"/>
    <nd ref="1132653581"/>
    <nd ref="1132653114"/>
    <nd ref="1132652859"/>
    <nd ref="1132652769"/>
    <tag k="addr:city" v="Зеленоград"/>
    <tag k="addr:country" v="RU"/>
    <tag k="addr:region" v="Москва"/>
    <tag k="building" v="yes"/>
  </way>
  <way id="97858619" version="1" timestamp="2011-02-02T19:30:45Z" uid="115477" user="wowik" changeset="7167748">
    <nd ref="1132653095"/>
    <nd ref="1132652884"/>
    <nd ref="1132653473"/>
    <nd ref="1132653040"/>
    <nd ref="1132653095"/>
    <tag k="building" v="yes"/>
  </way>
  <way id="97858621" version="1" timestamp="2011-02-02T19:30:45Z" uid="115477" user="wowik" changeset="7167748">
    <nd ref="1132653498"/>
    <nd ref="1132653287"/>
    <nd ref="1132652847"/>
    <nd ref="1132653036"/>
    <nd ref="1132653498"/>
    <tag k="addr:city" v="Зеленоград"/>
    <tag k="addr:country" v="RU"/>
    <tag k="addr:housenumber" v="9 с1"/>
    <tag k="addr:street" v="3-й Западный проезд"/>
    <tag k="building" v="yes"/>
  </way>
  <way id="97858621" version="2" timestamp="2012-03-27T11:46:46Z" uid="481934" user="iWowik" changeset="11115472">
    <nd ref="1132653498"/>
    <nd ref="1132653287"/>
    <nd ref="1132652847"/>
    <nd ref="1132653036"/>
    <nd ref="1132653498"/>
    <tag k="addr:city" v="Зеленоград"/>
    <tag k="addr:country" v="RU"/>
    <tag k="addr:housenumber" v="9 с1"/>
    <tag k="addr:region" v="Москва"/>
    <tag k="addr:street" v="3-й Западный проезд"/>
    <tag k="building" v="yes"/>
  </way>
  <way id="97858622" version="1" timestamp="2011-02-02T19:30:45Z" uid="115477" user="wowik" changeset="7167748">
    <nd ref="1132653308"/>
    <nd ref="1132653071"/>
    <nd ref="1132653723"/>
    <nd ref="1132653764"/>
    <nd ref="1132653308"/>
    <tag k="building" v="yes"/>
  </way>
  <way id="97858623" version="1" timestamp="2011-02-02T19:30:45Z" uid="115477" user="wowik" changeset="7167748">
    <nd ref="1132653041"/>
    <nd ref="1132652845"/>
    <nd ref="1132653398"/>
    <nd ref="1132653340"/>
    <nd ref="1132652967"/>
    <nd ref="1132653041"/>
    <tag k="building" v="yes"/>
  </way>
  <way id="97858623" version="2" timestamp="2011-02-02T20:08:49Z" uid="115477" user="wowik" changeset="7168176">
    <nd ref="1132653041"/>
    <nd ref="1132652845"/>
    <nd ref="1132653398"/>
    <nd ref="1132653340"/>
    <nd ref="1132652967"/>
    <nd ref="1132653041"/>
    <tag k="addr:city" v="Зеленоград"/>
    <tag k="addr:country" v="RU"/>
    <tag k="addr:housenumber" v="8 с8"/>
    <tag k="addr:street" v="3-й Западный проезд"/>
    <tag k="building" v="yes"/>
  </way>
  <way id="97858624" version="1" timestamp="2011-02-02T19:30:45Z" uid="115477" user="wowik" changeset="7167748">
    <nd ref="1132653434"/>
    <nd ref="1132653235"/>
    <nd ref="1132653402"/>
    <nd ref="1132652981"/>
    <nd ref="1132653434"/>
    <tag k="building" v="yes"/>
  </way>
  <way id="97858625" version="1" timestamp="2011-02-02T19:30:45Z" uid="115477" user="wowik" changeset="7167748">
    <nd ref="1132653281"/>
    <nd ref="1132653045"/>
    <nd ref="1132652999"/>
    <nd ref="1132653643"/>
    <nd ref="1132653281"/>
    <tag k="addr:city" v="Зеленоград"/>
    <tag k="addr:country" v="RU"/>
    <tag k="addr:housenumber" v="11 с9"/>
    <tag k="addr:street" v="3-й Западный проезд"/>
    <tag k="building" v="yes"/>
  </way>
  <way id="97858625" version="2" timestamp="2012-03-27T11:34:10Z" uid="481934" user="iWowik" changeset="11115472">
    <nd ref="1132653281"/>
    <nd ref="1132653045"/>
    <nd ref="1132652999"/>
    <nd ref="1132653643"/>
    <nd ref="1132653281"/>
    <tag k="addr:city" v="Зеленоград"/>
    <tag k="addr:country" v="RU"/>
    <tag k="addr:housenumber" v="11 с9"/>
    <tag k="addr:region" v="Москва"/>
    <tag k="addr:street" v="3-й Западный проезд"/>
    <tag k="building" v="yes"/>
  </way>
  <way id="97858626" version="1" timestamp="2011-02-02T19:30:46Z" uid="115477" user="wowik" changeset="7167748">
    <nd ref="1132653088"/>
    <nd ref="1132652879"/>
    <nd ref="1132653460"/>
    <nd ref="1132653415"/>
    <nd ref="1132653088"/>
    <tag k="building" v="yes"/>
  </way>
  <way id="97858627" version="1" timestamp="2011-02-02T19:30:46Z" uid="115477" user="wowik" changeset="7167748">
    <nd ref="1132652941"/>
    <nd ref="1132652756"/>
    <nd ref="1132653333"/>
    <nd ref="1132652893"/>
    <nd ref="1132652941"/>
    <tag k="building" v="yes"/>
  </way>
  <way id="97858627" version="2" timestamp="2012-03-27T11:52:58Z" uid="481934" user="iWowik" changeset="11115472">
    <nd ref="1132652941"/>
    <nd ref="1132652756"/>
    <nd ref="1132653333"/>
    <nd ref="1132652893"/>
    <nd ref="1132652941"/>
    <tag k="addr:city" v="Зеленоград"/>
    <tag k="addr:country" v="RU"/>
    <tag k="addr:region" v="Москва"/>
    <tag k="building" v="yes"/>
  </way>
  <way id="97858628" version="1" timestamp="2011-02-02T19:30:46Z" uid="115477" user="wowik" changeset="7167748">
    <nd ref="1132653347"/>
    <nd ref="1132653149"/>
    <nd ref="1132653784"/>
    <nd ref="1132653751"/>
    <nd ref="1132653347"/>
    <tag k="building" v="yes"/>
  </way>
  <way id="97858628" version="2" timestamp="2012-03-27T11:52:11Z" uid="481934" user="iWowik" changeset="11115472">
    <nd ref="1132653347"/>
    <nd ref="1132653149"/>
    <nd ref="1132653784"/>
    <nd ref="1132653751"/>
    <nd ref="1132653347"/>
    <tag k="addr:city" v="Зеленоград"/>
    <tag k="addr:country" v="RU"/>
    <tag k="addr:region" v="Москва"/>
    <tag k="building" v="yes"/>
  </way>
  <way id="97858629" version="1" timestamp="2011-02-02T19:30:46Z" uid="115477" user="wowik" changeset="7167748">
    <nd ref="1132653428"/>
    <nd ref="1132653234"/>
    <nd ref="1132653000"/>
    <nd ref="1132652812"/>
    <nd ref="1132653428"/>
    <tag k="addr:city" v="Зеленоград"/>
    <tag k="addr:country" v="RU"/>
    <tag k="addr:housenumber" v="10 с2"/>
    <tag k="addr:street" v="3-й Западный проезд"/>
    <tag k="building" v="yes"/>
  </way>
  <way id="97858631" version="1" timestamp="2011-02-02T19:30:46Z" uid="115477" user="wowik" changeset="7167748">
    <nd ref="1132653099"/>
    <nd ref="1132652891"/>
    <nd ref="1132652863"/>
    <nd ref="1132653430"/>
    <nd ref="1132653099"/>
    <tag k="building" v="yes"/>
  </way>
  <way id="97858632" version="1" timestamp="2011-02-02T19:30:47Z" uid="115477" user="wowik" changeset="7167748">
    <nd ref="1132653568"/>
    <nd ref="1132653342"/>
    <nd ref="1132652897"/>
    <nd ref="1132653500"/>
    <nd ref="1132653568"/>
    <tag k="building" v="yes"/>
  </way>
  <way id="97858633" version="1" timestamp="2011-02-02T19:30:47Z" uid="115477" user="wowik" changeset="7167748">
    <nd ref="1132653156"/>
    <nd ref="1132652922"/>
    <nd ref="1132653533"/>
    <nd ref="1132653487"/>
    <nd ref="1132653156"/>
    <tag k="building" v="yes"/>
  </way>
  <way id="97858633" version="2" timestamp="2011-02-02T20:08:46Z" uid="115477" user="wowik" changeset="7168176">
    <nd ref="1132653156"/>
    <nd ref="1132652922"/>
    <nd ref="1132653533"/>
    <nd ref="1132653487"/>
    <nd ref="1132653156"/>
    <tag k="addr:city" v="Зеленоград"/>
    <tag k="addr:country" v="RU"/>
    <tag k="addr:housenumber" v="11 с8"/>
    <tag k="addr:street" v="3-й Западный проезд"/>
    <tag k="building" v="yes"/>
  </way>
  <way id="97858633" version="3" timestamp="2012-03-27T11:34:10Z" uid="481934" user="iWowik" changeset="11115472">
    <nd ref="1132653156"/>
    <nd ref="1132652922"/>
    <nd ref="1132653533"/>
    <nd ref="1132653487"/>
    <nd ref="1132653156"/>
    <tag k="addr:city" v="Зеленоград"/>
    <tag k="addr:country" v="RU"/>
    <tag k="addr:housenumber" v="11 с8"/>
    <tag k="addr:region" v="Москва"/>
    <tag k="addr:street" v="3-й Западный проезд"/>
    <tag k="building" v="yes"/>
  </way>
  <way id="97858634" version="1" timestamp="2011-02-02T19:30:47Z" uid="115477" user="wowik" changeset="7167748">
    <nd ref="1132653282"/>
    <nd ref="1132653054"/>
    <nd ref="1132653695"/>
    <nd ref="1132652932"/>
    <nd ref="1132653282"/>
    <tag k="building" v="yes"/>
  </way>
  <way id="97858635" version="1" timestamp="2011-02-02T19:30:47Z" uid="115477" user="wowik" changeset="7167748">
    <nd ref="1132653120"/>
    <nd ref="1132652901"/>
    <nd ref="1132653592"/>
    <nd ref="1132653127"/>
    <nd ref="1132653768"/>
    <nd ref="1132653299"/>
    <nd ref="1132653261"/>
    <nd ref="1132652831"/>
    <nd ref="1132653120"/>
    <tag k="addr:city" v="Зеленоград"/>
    <tag k="addr:country" v="RU"/>
    <tag k="addr:housenumber" v="12 с5"/>
    <tag k="addr:street" v="3-й Западный проезд"/>
    <tag k="building" v="yes"/>
  </way>
  <way id="97858636" version="1" timestamp="2011-02-02T19:30:47Z" uid="115477" user="wowik" changeset="7167748">
    <nd ref="1132653101"/>
    <nd ref="1132652892"/>
    <nd ref="1132653485"/>
    <nd ref="1132653057"/>
    <nd ref="1132653101"/>
    <tag k="building" v="yes"/>
  </way>
  <way id="97858636" version="2" timestamp="2011-02-02T20:08:49Z" uid="115477" user="wowik" changeset="7168176">
    <nd ref="1132653101"/>
    <nd ref="1132652892"/>
    <nd ref="1132653485"/>
    <nd ref="1132653057"/>
    <nd ref="1132653101"/>
    <tag k="addr:city" v="Зеленоград"/>
    <tag k="addr:country" v="RU"/>
    <tag k="addr:housenumber" v="17 с5"/>
    <tag k="addr:street" v="3-й Западный проезд"/>
    <tag k="building" v="yes"/>
  </way>
  <way id="97858636" version="3" timestamp="2012-03-27T11:37:52Z" uid="481934" user="iWowik" changeset="11115472">
    <nd ref="1132653101"/>
    <nd ref="1132652892"/>
    <nd ref="1132653485"/>
    <nd ref="1132653057"/>
    <nd ref="1132653101"/>
    <tag k="addr:city" v="Зеленоград"/>
    <tag k="addr:country" v="RU"/>
    <tag k="addr:housenumber" v="17 с5"/>
    <tag k="addr:region" v="Москва"/>
    <tag k="addr:street" v="3-й Западный проезд"/>
    <tag k="building" v="yes"/>
  </way>
  <way id="97858637" version="1" timestamp="2011-02-02T19:30:47Z" uid="115477" user="wowik" changeset="7167748">
    <nd ref="1132653416"/>
    <nd ref="1132653225"/>
    <nd ref="1132652800"/>
    <nd ref="1132653368"/>
    <nd ref="1132653416"/>
  </way>
  <way id="97858637" version="2" timestamp="2011-04-01T18:16:48Z" uid="115477" user="wowik" changeset="7737524">
    <nd ref="1132653416"/>
    <nd ref="1132653225"/>
    <nd ref="1132652800"/>
    <nd ref="1132653368"/>
    <nd ref="1132653416"/>
    <tag k="building" v="yes"/>
    <tag k="building:levels" v="1"/>
  </way>
  <way id="97858501" version="4" timestamp="2012-07-20T16:38:55Z" uid="722137" user="OSMF Redaction Account" changeset="12383703"/>
  <way id="97858502" version="4" timestamp="2012-07-20T16:38:55Z" uid="722137" user="OSMF Redaction Account" changeset="12383703"/>
  <way id="97858506" version="2" timestamp="2012-07-20T16:39:04Z" uid="722137" user="OSMF Redaction Account" changeset="12383703"/>
  <way id="97858507" version="3" timestamp="2012-07-20T16:39:02Z" uid="722137" user="OSMF Redaction Account" changeset="12383703"/>
  <way id="97858508" version="2" timestamp="2012-07-20T16:39:04Z" uid="722137" user="OSMF Redaction Account" changeset="12383703"/>
  <way id="97858512" version="3" timestamp="2012-07-20T16:38:55Z" uid="722137" user="OSMF Redaction Account" changeset="12383703"/>
  <way id="97858513" version="2" timestamp="2012-07-20T16:39:05Z" uid="722137" user="OSMF Redaction Account" changeset="12383703"/>
  <way id="97858517" version="3" timestamp="2012-07-20T16:38:55Z" uid="722137" user="OSMF Redaction Account" changeset="12383703"/>
  <way id="97858519" version="3" timestamp="2012-07-20T16:38:57Z" uid="722137" user="OSMF Redaction Account" changeset="12383703"/>
  <way id="97858520" version="2" timestamp="2012-07-20T16:39:03Z" uid="722137" user="OSMF Redaction Account" changeset="12383703"/>
  <way id="97858522" version="3" timestamp="2012-07-20T16:39:14Z" uid="722137" user="OSMF Redaction Account" changeset="12383703"/>
  <way id="97858524" version="2" timestamp="2012-07-20T16:39:08Z" uid="722137" user="OSMF Redaction Account" changeset="12383703"/>
  <way id="97858526" version="2" timestamp="2012-07-20T16:39:03Z" uid="722137" user="OSMF Redaction Account" changeset="12383703"/>
  <way id="97858528" version="4" timestamp="2012-07-20T16:38:54Z" uid="722137" user="OSMF Redaction Account" changeset="12383703"/>
  <way id="97858531" version="3" timestamp="2012-07-20T16:39:08Z" uid="722137" user="OSMF Redaction Account" changeset="12383703"/>
  <way id="97858532" version="2" timestamp="2012-07-20T16:38:59Z" uid="722137" user="OSMF Redaction Account" changeset="12383703"/>
  <way id="97858537" version="2" timestamp="2012-07-20T16:38:58Z" uid="722137" user="OSMF Redaction Account" changeset="12383703"/>
  <way id="97858538" version="2" timestamp="2012-07-20T16:39:11Z" uid="722137" user="OSMF Redaction Account" changeset="12383703"/>
  <way id="97858541" version="2" timestamp="2012-07-20T16:39:16Z" uid="722137" user="OSMF Redaction Account" changeset="12383703"/>
  <way id="97858542" version="3" timestamp="2012-07-20T16:38:58Z" uid="722137" user="OSMF Redaction Account" changeset="12383703"/>
  <way id="97858543" version="2" timestamp="2012-07-20T16:39:00Z" uid="722137" user="OSMF Redaction Account" changeset="12383703"/>
  <way id="97858544" version="4" timestamp="2012-07-20T16:38:57Z" uid="722137" user="OSMF Redaction Account" changeset="12383703"/>
  <way id="97858545" version="2" timestamp="2012-07-20T16:39:01Z" uid="722137" user="OSMF Redaction Account" changeset="12383703"/>
  <way id="97858546" version="3" timestamp="2012-07-20T16:38:53Z" uid="722137" user="OSMF Redaction Account" changeset="12383703"/>
  <way id="97858547" version="2" timestamp="2012-07-20T16:38:56Z" uid="722137" user="OSMF Redaction Account" changeset="12383703"/>
  <way id="97858548" version="3" timestamp="2012-07-20T16:39:02Z" uid="722137" user="OSMF Redaction Account" changeset="12383703"/>
  <way id="97858549" version="2" timestamp="2012-07-20T16:39:13Z" uid="722137" user="OSMF Redaction Account" changeset="12383703"/>
  <way id="97858550" version="3" timestamp="2012-07-20T16:39:01Z" uid="722137" user="OSMF Redaction Account" changeset="12383703"/>
  <way id="97858553" version="3" timestamp="2012-07-20T16:38:55Z" uid="722137" user="OSMF Redaction Account" changeset="12383703"/>
  <way id="97858554" version="3" timestamp="2012-07-20T16:38:54Z" uid="722137" user="OSMF Redaction Account" changeset="12383703"/>
  <way id="97858555" version="2" timestamp="2012-07-20T16:39:02Z" uid="722137" user="OSMF Redaction Account" changeset="12383703"/>
  <way id="97858558" version="2" timestamp="2012-07-20T16:38:58Z" uid="722137" user="OSMF Redaction Account" changeset="12383703"/>
  <way id="97858559" version="3" timestamp="2012-07-20T16:38:53Z" uid="722137" user="OSMF Redaction Account" changeset="12383703"/>
  <way id="97858560" version="2" timestamp="2012-07-20T16:39:04Z" uid="722137" user="OSMF Redaction Account" changeset="12383703"/>
  <way id="97858561" version="2" timestamp="2012-07-20T16:39:09Z" uid="722137" user="OSMF Redaction Account" changeset="12383703"/>
  <way id="97858562" version="3" timestamp="2012-07-20T16:38:56Z" uid="722137" user="OSMF Redaction Account" changeset="12383703"/>
  <way id="97858564" version="2" timestamp="2012-07-20T16:39:04Z" uid="722137" user="OSMF Redaction Account" changeset="12383703"/>
  <way id="97858565" version="2" timestamp="2012-07-20T16:39:12Z" uid="722137" user="OSMF Redaction Account" changeset="12383703"/>
  <way id="97858566" version="3" timestamp="2012-07-20T16:38:55Z" uid="722137" user="OSMF Redaction Account" changeset="12383703"/>
  <way id="97858569" version="2" timestamp="2012-07-20T16:39:06Z" uid="722137" user="OSMF Redaction Account" changeset="12383703"/>
  <way id="97858571" version="2" timestamp="2012-07-20T16:38:56Z" uid="722137" user="OSMF Redaction Account" changeset="12383703"/>
  <way id="97858574" version="2" timestamp="2012-07-20T16:39:04Z" uid="722137" user="OSMF Redaction Account" changeset="12383703"/>
  <way id="97858576" version="3" timestamp="2012-07-20T16:39:03Z" uid="722137" user="OSMF Redaction Account" changeset="12383703"/>
  <way id="97858578" version="2" timestamp="2012-07-20T16:38:59Z" uid="722137" user="OSMF Redaction Account" changeset="12383703"/>
  <way id="97858580" version="2" timestamp="2012-07-20T16:39:05Z" uid="722137" user="OSMF Redaction Account" changeset="12383703"/>
  <way id="97858582" version="3" timestamp="2012-07-20T16:38:58Z" uid="722137" user="OSMF Redaction Account" changeset="12383703"/>
  <way id="97858585" version="3" timestamp="2012-07-20T16:39:00Z" uid="722137" user="OSMF Redaction Account" changeset="12383703"/>
  <way id="97858589" version="4" timestamp="2012-07-20T16:38:57Z" uid="722137" user="OSMF Redaction Account" changeset="12383703"/>
  <way id="97858591" version="3" timestamp="2012-07-20T16:38:55Z" uid="722137" user="OSMF Redaction Account" changeset="12383703"/>
  <way id="97858595" version="2" timestamp="2012-07-20T16:39:08Z" uid="722137" user="OSMF Redaction Account" changeset="12383703"/>
  <way id="97858601" version="3" timestamp="2012-07-20T16:39:00Z" uid="722137" user="OSMF Redaction Account" changeset="12383703"/>
  <way id="97858603" version="2" timestamp="2012-07-20T16:39:03Z" uid="722137" user="OSMF Redaction Account" changeset="12383703"/>
  <way id="97858605" version="2" timestamp="2012-07-20T16:39:05Z" uid="722137" user="OSMF Redaction Account" changeset="12383703"/>
  <way id="97858606" version="3" timestamp="2012-07-20T16:38:56Z" uid="722137" user="OSMF Redaction Account" changeset="12383703"/>
  <way id="97858609" version="2" timestamp="2012-07-20T16:38:58Z" uid="722137" user="OSMF Redaction Account" changeset="12383703"/>
  <way id="97858613" version="2" timestamp="2012-07-20T16:39:03Z" uid="722137" user="OSMF Redaction Account" changeset="12383703"/>
  <way id="97858615" version="2" timestamp="2012-07-20T16:38:58Z" uid="722137" user="OSMF Redaction Account" changeset="12383703"/>
  <way id="97858617" version="2" timestamp="2012-07-20T16:38:58Z" uid="722137" user="OSMF Redaction Account" changeset="12383703"/>
  <way id="97858618" version="3" timestamp="2012-07-20T16:38:55Z" uid="722137" user="OSMF Redaction Account" changeset="12383703"/>
  <way id="97858619" version="2" timestamp="2012-07-20T16:39:00Z" uid="722137" user="OSMF Redaction Account" changeset="12383703"/>
  <way id="97858621" version="3" timestamp="2012-07-20T16:38:56Z" uid="722137" user="OSMF Redaction Account" changeset="12383703"/>
  <way id="97858622" version="2" timestamp="2012-07-20T16:39:02Z" uid="722137" user="OSMF Redaction Account" changeset="12383703"/>
  <way id="97858623" version="3" timestamp="2012-07-20T16:39:06Z" uid="722137" user="OSMF Redaction Account" changeset="12383703"/>
  <way id="97858624" version="2" timestamp="2012-07-20T16:39:08Z" uid="722137" user="OSMF Redaction Account" changeset="12383703"/>
  <way id="97858625" version="3" timestamp="2012-07-20T16:38:57Z" uid="722137" user="OSMF Redaction Account" changeset="12383703"/>
  <way id="97858626" version="2" timestamp="2012-07-20T16:39:13Z" uid="722137" user="OSMF Redaction Account" changeset="12383703"/>
  <way id="97858627" version="3" timestamp="2012-07-20T16:39:01Z" uid="722137" user="OSMF Redaction Account" changeset="12383703"/>
  <way id="97858628" version="3" timestamp="2012-07-20T16:38:56Z" uid="722137" user="OSMF Redaction Account" changeset="12383703"/>
  <way id="97858629" version="2" timestamp="2012-07-20T16:39:15Z" uid="722137" user="OSMF Redaction Account" changeset="12383703"/>
  <way id="97858631" version="2" timestamp="2012-07-20T16:39:05Z" uid="722137" user="OSMF Redaction Account" changeset="12383703"/>
  <way id="97858632" version="2" timestamp="2012-07-20T16:39:03Z" uid="722137" user="OSMF Redaction Account" changeset="12383703"/>
  <way id="97858633" version="4" timestamp="2012-07-20T16:39:01Z" uid="722137" user="OSMF Redaction Account" changeset="12383703"/>
  <way id="97858634" version="2" timestamp="2012-07-20T16:39:14Z" uid="722137" user="OSMF Redaction Account" changeset="12383703"/>
  <way id="97858635" version="2" timestamp="2012-07-20T16:39:13Z" uid="722137" user="OSMF Redaction Account" changeset="12383703"/>
  <way id="97858636" version="4" timestamp="2012-07-20T16:38:54Z" uid="722137" user="OSMF Redaction Account" changeset="12383703"/>
  <way id="97858637" version="3" timestamp="2012-07-20T16:39:09Z" uid="722137" user="OSMF Redaction Account" changeset="12383703"/>
</osm>
