<?xml version='1.0' encoding='UTF-8'?>
<osm version="0.6" generator="libosmium/2.20.0">
  <way id="97864000" version="1" timestamp="2011-02-02T20:07:51Z" uid="43863" user="Rundling" changeset="7168160">
    <nd ref="1132717002"/>
    <nd ref="1132717171"/>
    <nd ref="1132717176"/>
    <nd ref="1132717135"/>
    <nd ref="1132717024"/>
    <nd ref="1132716914"/>
    <nd ref="1132717002"/>
    <tag k="building" v="yes"/>
  </way>
  <way id="97864002" version="1" timestamp="2011-02-02T20:07:51Z" uid="43863" user="Rundling" changeset="7168160">
    <nd ref="1132716909"/>
    <nd ref="1132717099"/>
    <nd ref="1132717009"/>
    <nd ref="1132717174"/>
    <nd ref="1132716909"/>
    <tag k="building" v="yes"/>
  </way>
  <way id="97864006" version="1" timestamp="2011-02-02T20:07:51Z" uid="43863" user="Rundling" changeset="7168160">
    <nd ref="1132716999"/>
    <nd ref="1132717169"/>
    <nd ref="1132717175"/>
    <nd ref="1132716911"/>
    <nd ref="1132716999"/>
    <tag k="building" v="yes"/>
  </way>
  <way id="97864008" version="1" timestamp="2011-02-02T20:07:51Z" uid="43863" user="Rundling" changeset="7168160">
    <nd ref="1132716876"/>
    <nd ref="1132717152"/>
    <nd ref="1132716971"/>
    <nd ref="1132717076"/>
    <nd ref="1132716876"/>
    <tag k="building" v="yes"/>
  </way>
  <way id="97864011" version="1" timestamp="2011-02-02T20:07:52Z" uid="43863" user="Rundling" changeset="7168160">
    <nd ref="1132717096"/>
    <nd ref="1132716801"/>
    <nd ref="1132717167"/>
    <nd ref="1132716897"/>
    <nd ref="1132717096"/>
    <tag k="building" v="yes"/>
  </way>
  <way id="97864396" version="1" timestamp="2011-02-02T20:08:36Z" uid="115477" user="wowik" changeset="7168176">
    <nd ref="1132718001"/>
    <nd ref="1132718304"/>
    <nd ref="1132718098"/>
    <nd ref="1132718365"/>
    <nd ref="1132718184"/>
    <nd ref="1132718411"/>
    <nd ref="1132718306"/>
    <nd ref="1132718112"/>
    <nd ref="1132718292"/>
    <nd ref="1132718197"/>
    <nd ref="1132718001"/>
    <tag k="building" v="yes"/>
  </way>
  <way id="97864400" version="1" timestamp="2011-02-02T20:08:36Z" uid="115477" user="wowik" changeset="7168176">
    <nd ref="1132718292"/>
    <nd ref="1132718197"/>
    <nd ref="1132718001"/>
    <nd ref="1132718081"/>
    <nd ref="1132718292"/>
    <tag k="addr:city" v="Зеленоград"/>
    <tag k="addr:country" v="RU"/>
    <tag k="addr:housenumber" v="8 с9"/>
    <tag k="addr:street" v="3-й Западный проезд"/>
    <tag k="building" v="yes"/>
  </way>
  <way id="97864402" version="1" timestamp="2011-02-02T20:08:36Z" uid="115477" user="wowik" changeset="7168176">
    <nd ref="1132718291"/>
    <nd ref="1132718193"/>
    <nd ref="1132718000"/>
    <nd ref="1132718270"/>
    <nd ref="1132718291"/>
    <tag k="building" v="yes"/>
  </way>
  <way id="97864403" version="1" timestamp="2011-02-02T20:08:36Z" uid="115477" user="wowik" changeset="7168176">
    <nd ref="1132718096"/>
    <nd ref="1132718003"/>
    <nd ref="1132718088"/>
    <nd ref="1132718345"/>
    <nd ref="1132718179"/>
    <nd ref="1132718410"/>
    <nd ref="1132718096"/>
    <tag k="addr:city" v="Зеленоград"/>
    <tag k="addr:country" v="RU"/>
    <tag k="addr:housenumber" v="82"/>
    <tag k="addr:street" v="Колхозная улица"/>
    <tag k="building" v="yes"/>
    <tag k="building:use" v="residential"/>
  </way>
  <way id="97864405" version="1" timestamp="2011-02-02T20:08:36Z" uid="115477" user="wowik" changeset="7168176">
    <nd ref="1132717999"/>
    <nd ref="1132718348"/>
    <nd ref="1132718332"/>
    <nd ref="1132718148"/>
    <nd ref="1132718397"/>
    <nd ref="1132718229"/>
    <nd ref="1132717999"/>
    <tag k="building" v="yes"/>
  </way>
  <way id="97864408" version="1" timestamp="2011-02-02T20:08:37Z" uid="115477" user="wowik" changeset="7168176">
    <nd ref="1132718363"/>
    <nd ref="1132718282"/>
    <nd ref="1132718076"/>
    <nd ref="1132718339"/>
    <nd ref="1132718363"/>
    <tag k="building" v="yes"/>
  </way>
  <way id="97864409" version="1" timestamp="2011-02-02T20:08:37Z" uid="115477" user="wowik" changeset="7168176">
    <nd ref="1132717994"/>
    <nd ref="1132718336"/>
    <nd ref="1132718164"/>
    <nd ref="1132718131"/>
    <nd ref="1132718383"/>
    <nd ref="847076463"/>
    <nd ref="1132717994"/>
    <tag k="barrier" v="wall"/>
  </way>
  <way id="97864411" version="1" timestamp="2011-02-02T20:08:37Z" uid="115477" user="wowik" changeset="7168176">
    <nd ref="1132718334"/>
    <nd ref="1132718255"/>
    <nd ref="1132718053"/>
    <nd ref="1132718307"/>
    <nd ref="1132718334"/>
    <tag k="addr:city" v="Зеленоград"/>
    <tag k="addr:country" v="RU"/>
    <tag k="addr:housenumber" v="8 с12"/>
    <tag k="addr:street" v="3-й Западный проезд"/>
    <tag k="building" v="yes"/>
  </way>
  <way id="97864414" version="1" timestamp="2011-02-02T20:08:37Z" uid="115477" user="wowik" changeset="7168176">
    <nd ref="1132718137"/>
    <nd ref="1132718235"/>
    <nd ref="1132718035"/>
    <nd ref="1132718294"/>
    <nd ref="1132718092"/>
    <nd ref="1132718417"/>
    <nd ref="1132718250"/>
    <nd ref="1132718044"/>
    <nd ref="1132718137"/>
    <tag k="natural" v="water"/>
  </way>
  <way id="97864415" version="1" timestamp="2011-02-02T20:08:37Z" uid="115477" user="wowik" changeset="7168176">
    <nd ref="1132718133"/>
    <nd ref="1132718101"/>
    <nd ref="1132718369"/>
    <nd ref="1132718186"/>
    <nd ref="1132718133"/>
    <tag k="addr:city" v="Зеленоград"/>
    <tag k="addr:country" v="RU"/>
    <tag k="addr:housenumber" v="90"/>
    <tag k="addr:street" v="Колхозная улица"/>
    <tag k="building" v="yes"/>
    <tag k="building:use" v="residential"/>
  </way>
  <way id="97864417" version="1" timestamp="2011-02-02T20:08:37Z" uid="115477" user="wowik" changeset="7168176">
    <nd ref="1132718374"/>
    <nd ref="1132718037"/>
    <nd ref="1132718298"/>
    <nd ref="1132718094"/>
    <nd ref="1132718374"/>
    <tag k="addr:city" v="Зеленоград"/>
    <tag k="addr:country" v="RU"/>
    <tag k="addr:housenumber" v="11 с4А"/>
    <tag k="addr:street" v="3-й Западный проезд"/>
    <tag k="building" v="yes"/>
  </way>
  <way id="97864417" version="2" timestamp="2012-03-27T11:34:07Z" uid="481934" user="iWowik" changeset="11115472">
    <nd ref="1132718374"/>
    <nd ref="1132718037"/>
    <nd ref="1132718298"/>
    <nd ref="1132718094"/>
    <nd ref="1132718374"/>
    <tag k="addr:city" v="Зеленоград"/>
    <tag k="addr:country" v="RU"/>
    <tag k="addr:housenumber" v="11 с4А"/>
    <tag k="addr:region" v="Москва"/>
    <tag k="addr:street" v="3-й Западный проезд"/>
    <tag k="building" v="yes"/>
  </way>
  <way id="97864420" version="1" timestamp="2011-02-02T20:08:38Z" uid="115477" user="wowik" changeset="7168176">
    <nd ref="1132718302"/>
    <nd ref="1132718216"/>
    <nd ref="1132718019"/>
    <nd ref="1132717998"/>
    <nd ref="1132718302"/>
    <tag k="addr:city" v="Зеленоград"/>
    <tag k="addr:country" v="RU"/>
    <tag k="addr:housenumber" v="8 с11"/>
    <tag k="addr:street" v="3-й Западный проезд"/>
    <tag k="building" v="yes"/>
  </way>
  <way id="97864423" version="1" timestamp="2011-02-02T20:08:38Z" uid="115477" user="wowik" changeset="7168176">
    <nd ref="1132718201"/>
    <nd ref="1132718287"/>
    <nd ref="1132718086"/>
    <nd ref="1132718343"/>
    <nd ref="1132718201"/>
    <tag k="addr:city" v="Зеленоград"/>
    <tag k="addr:country" v="RU"/>
    <tag k="addr:housenumber" v="4А"/>
    <tag k="addr:street" v="?"/>
    <tag k="building" v="yes"/>
    <tag k="building:use" v="residential"/>
  </way>
  <way id="97864423" version="2" timestamp="2011-02-16T09:23:09Z" uid="133332" user="AMDmi3" changeset="7302121">
    <nd ref="1132718201"/>
    <nd ref="1132718287"/>
    <nd ref="1132718086"/>
    <nd ref="1132718343"/>
    <nd ref="1132718201"/>
    <tag k="addr:city" v="Зеленоград"/>
    <tag k="addr:country" v="RU"/>
    <tag k="addr:housenumber" v="4А"/>
    <tag k="building" v="yes"/>
    <tag k="building:use" v="residential"/>
  </way>
  <way id="97864423" version="3" timestamp="2011-02-20T11:26:40Z" uid="115477" user="wowik" changeset="7341035">
    <nd ref="1132718201"/>
    <nd ref="1132718287"/>
    <nd ref="1132718086"/>
    <nd ref="1132718343"/>
    <nd ref="1132718201"/>
    <tag k="addr:city" v="Зеленоград"/>
    <tag k="addr:country" v="RU"/>
    <tag k="addr:housenumber" v="4А"/>
    <tag k="building" v="yes"/>
    <tag k="building:use" v="residential"/>
    <tag k="note" v="addr:street неточен"/>
  </way>
  <way id="97864423" version="4" timestamp="2011-02-21T10:44:03Z" uid="115477" user="wowik" changeset="7352270">
    <nd ref="1132718201"/>
    <nd ref="1132718287"/>
    <nd ref="1132718086"/>
    <nd ref="1132718343"/>
    <nd ref="1132718201"/>
    <tag k="addr:city" v="Зеленоград"/>
    <tag k="addr:country" v="RU"/>
    <tag k="addr:housenumber" v="4А"/>
    <tag k="addr:street" v="&#x9;Проектируемый проезд N 684"/>
    <tag k="building" v="yes"/>
    <tag k="building:use" v="residential"/>
    <tag k="note" v="addr:street неточен"/>
  </way>
  <way id="97864423" version="5" timestamp="2011-02-21T21:36:43Z" uid="70696" user="xybot" changeset="7358394">
    <nd ref="1132718201"/>
    <nd ref="1132718287"/>
    <nd ref="1132718086"/>
    <nd ref="1132718343"/>
    <nd ref="1132718201"/>
    <tag k="addr:city" v="Зеленоград"/>
    <tag k="addr:country" v="RU"/>
    <tag k="addr:housenumber" v="4А"/>
    <tag k="addr:street" v="Проектируемый проезд N 684"/>
    <tag k="building" v="yes"/>
    <tag k="building:use" v="residential"/>
    <tag k="note" v="addr:street неточен"/>
  </way>
  <way id="97864426" version="1" timestamp="2011-02-02T20:08:38Z" uid="115477" user="wowik" changeset="7168176">
    <nd ref="1132718013"/>
    <nd ref="1132718360"/>
    <nd ref="1132718259"/>
    <nd ref="1132718057"/>
    <nd ref="1132718013"/>
    <tag k="building" v="yes"/>
    <tag k="building:levels" v="1"/>
  </way>
  <way id="97864427" version="1" timestamp="2011-02-02T20:08:38Z" uid="115477" user="wowik" changeset="7168176">
    <nd ref="1132718354"/>
    <nd ref="1132718271"/>
    <nd ref="1132718068"/>
    <nd ref="1132718033"/>
    <nd ref="1132718320"/>
    <nd ref="1132718354"/>
    <tag k="building" v="yes"/>
  </way>
  <way id="97864429" version="1" timestamp="2011-02-02T20:08:38Z" uid="115477" user="wowik" changeset="7168176">
    <nd ref="1132718178"/>
    <nd ref="1132718247"/>
    <nd ref="1132718043"/>
    <nd ref="1132718305"/>
    <nd ref="1132718178"/>
    <tag k="addr:city" v="Зеленоград"/>
    <tag k="addr:country" v="RU"/>
    <tag k="addr:housenumber" v="2 с4"/>
    <tag k="addr:street" v="Проектируемый проезд N ?"/>
    <tag k="building" v="yes"/>
  </way>
  <way id="97864429" version="2" timestamp="2011-02-04T10:09:18Z" uid="115477" user="wowik" changeset="7181581">
    <nd ref="1132718178"/>
    <nd ref="1132718247"/>
    <nd ref="1132718043"/>
    <nd ref="1132718305"/>
    <nd ref="1132718178"/>
    <tag k="addr:city" v="Зеленоград"/>
    <tag k="addr:country" v="RU"/>
    <tag k="addr:housenumber" v="2 с4"/>
    <tag k="addr:street" v="Проектируемый проезд N 684"/>
    <tag k="building" v="yes"/>
  </way>
  <way id="97864431" version="1" timestamp="2011-02-02T20:08:38Z" uid="115477" user="wowik" changeset="7168176">
    <nd ref="1132718265"/>
    <nd ref="1132718173"/>
    <nd ref="1132718405"/>
    <nd ref="1132718240"/>
    <nd ref="1132718038"/>
    <nd ref="1132718045"/>
    <nd ref="1132718265"/>
    <tag k="building" v="yes"/>
    <tag k="building:levels" v="1"/>
  </way>
  <way id="97864434" version="1" timestamp="2011-02-02T20:08:39Z" uid="115477" user="wowik" changeset="7168176">
    <nd ref="1132718415"/>
    <nd ref="1132718325"/>
    <nd ref="1132718142"/>
    <nd ref="1132718032"/>
    <nd ref="1132718415"/>
    <tag k="building" v="yes"/>
  </way>
  <way id="97864434" version="2" timestamp="2011-11-11T12:10:17Z" uid="481934" user="iWowik" changeset="9795294">
    <nd ref="1132718415"/>
    <nd ref="1498562396"/>
    <nd ref="1498562398"/>
    <nd ref="1132718325"/>
    <nd ref="1132718142"/>
    <nd ref="1132718032"/>
    <nd ref="1132718415"/>
    <tag k="addr:city" v="Зеленоград"/>
    <tag k="addr:country" v="RU"/>
    <tag k="building" v="yes"/>
  </way>
  <way id="97864436" version="1" timestamp="2011-02-02T20:08:39Z" uid="115477" user="wowik" changeset="7168176">
    <nd ref="1132718071"/>
    <nd ref="1132718414"/>
    <nd ref="1132718411"/>
    <nd ref="1132718306"/>
    <nd ref="1132718112"/>
    <nd ref="1132718071"/>
    <tag k="addr:city" v="Зеленоград"/>
    <tag k="addr:country" v="RU"/>
    <tag k="addr:housenumber" v="8 с10"/>
    <tag k="addr:street" v="3-й Западный проезд"/>
    <tag k="building" v="yes"/>
  </way>
  <way id="97864437" version="1" timestamp="2011-02-02T20:08:39Z" uid="115477" user="wowik" changeset="7168176">
    <nd ref="1132718257"/>
    <nd ref="1132718161"/>
    <nd ref="1132718401"/>
    <nd ref="1132718299"/>
    <nd ref="1132718257"/>
    <tag k="addr:city" v="Зеленоград"/>
    <tag k="addr:country" v="RU"/>
    <tag k="addr:housenumber" v="27"/>
    <tag k="addr:street" v="Колхозная улица"/>
    <tag k="building" v="yes"/>
  </way>
  <way id="97864440" version="1" timestamp="2011-02-02T20:08:39Z" uid="115477" user="wowik" changeset="7168176">
    <nd ref="1132718122"/>
    <nd ref="1132718036"/>
    <nd ref="1132718017"/>
    <nd ref="1132718280"/>
    <nd ref="1132718122"/>
    <tag k="building" v="yes"/>
    <tag k="building:levels" v="1"/>
  </way>
  <way id="97864442" version="1" timestamp="2011-02-02T20:08:39Z" uid="115477" user="wowik" changeset="7168176">
    <nd ref="1132718238"/>
    <nd ref="1132718209"/>
    <nd ref="1132718016"/>
    <nd ref="1132718278"/>
    <nd ref="1132718074"/>
    <nd ref="1132718062"/>
    <nd ref="1132718238"/>
    <tag k="addr:city" v="Зеленоград"/>
    <tag k="addr:country" v="RU"/>
    <tag k="addr:housenumber" v="1 с3"/>
    <tag k="addr:street" v="Проектируемый проезд N ?"/>
    <tag k="building" v="yes"/>
  </way>
  <way id="97864442" version="2" timestamp="2011-02-03T17:58:17Z" uid="115477" user="wowik" changeset="7176113">
    <nd ref="1132718238"/>
    <nd ref="1132718209"/>
    <nd ref="1132718016"/>
    <nd ref="1132718278"/>
    <nd ref="1132718074"/>
    <nd ref="1132718062"/>
    <nd ref="1132718238"/>
    <tag k="addr:city" v="Зеленоград"/>
    <tag k="addr:country" v="RU"/>
    <tag k="addr:housenumber" v="1 с3"/>
    <tag k="addr:street" v="Проектируемый проезд N 5557"/>
    <tag k="building" v="yes"/>
  </way>
  <way id="97864444" version="1" timestamp="2011-02-02T20:08:39Z" uid="115477" user="wowik" changeset="7168176">
    <nd ref="1132718233"/>
    <nd ref="1132718117"/>
    <nd ref="1132718372"/>
    <nd ref="1132718361"/>
    <nd ref="1132718233"/>
    <tag k="building" v="yes"/>
  </way>
  <way id="97864445" version="1" timestamp="2011-02-02T20:08:39Z" uid="115477" user="wowik" changeset="7168176">
    <nd ref="1132718226"/>
    <nd ref="1132718108"/>
    <nd ref="1132718371"/>
    <nd ref="1132718228"/>
    <nd ref="1132718031"/>
    <nd ref="1132718290"/>
    <nd ref="1132718226"/>
    <tag k="addr:city" v="Зеленоград"/>
    <tag k="addr:country" v="RU"/>
    <tag k="addr:housenumber" v="77"/>
    <tag k="addr:street" v="Колхозная улица"/>
    <tag k="building" v="yes"/>
    <tag k="building:use" v="residential"/>
  </way>
  <way id="97864448" version="1" timestamp="2011-02-02T20:08:40Z" uid="115477" user="wowik" changeset="7168176">
    <nd ref="1132718213"/>
    <nd ref="1132718289"/>
    <nd ref="1132718089"/>
    <nd ref="1132718347"/>
    <nd ref="1132718213"/>
    <tag k="building" v="yes"/>
    <tag k="building:levels" v="1"/>
  </way>
  <way id="97864450" version="1" timestamp="2011-02-02T20:08:40Z" uid="115477" user="wowik" changeset="7168176">
    <nd ref="1132718274"/>
    <nd ref="1132653669"/>
    <nd ref="1132653195"/>
    <nd ref="1132653373"/>
    <nd ref="1132718274"/>
    <tag k="addr:city" v="Зеленоград"/>
    <tag k="addr:country" v="RU"/>
    <tag k="addr:housenumber" v="11 с12"/>
    <tag k="addr:street" v="3-й Западный проезд"/>
    <tag k="building" v="yes"/>
  </way>
  <way id="97864450" version="2" timestamp="2012-03-27T11:33:58Z" uid="481934" user="iWowik" changeset="11115472">
    <nd ref="1132718274"/>
    <nd ref="1132653669"/>
    <nd ref="1132653195"/>
    <nd ref="1132653373"/>
    <nd ref="1132718274"/>
    <tag k="addr:city" v="Зеленоград"/>
    <tag k="addr:country" v="RU"/>
    <tag k="addr:housenumber" v="11 с12"/>
    <tag k="addr:region" v="Москва"/>
    <tag k="addr:street" v="3-й Западный проезд"/>
    <tag k="building" v="yes"/>
  </way>
  <way id="97864453" version="1" timestamp="2011-02-02T20:08:40Z" uid="115477" user="wowik" changeset="7168176">
    <nd ref="1132718198"/>
    <nd ref="1132718097"/>
    <nd ref="1132718084"/>
    <nd ref="1132718341"/>
    <nd ref="1132718198"/>
    <tag k="building" v="yes"/>
    <tag k="building:levels" v="1"/>
  </way>
  <way id="97864454" version="1" timestamp="2011-02-02T20:08:40Z" uid="115477" user="wowik" changeset="7168176">
    <nd ref="1132718272"/>
    <nd ref="1132718180"/>
    <nd ref="1132718412"/>
    <nd ref="1132718243"/>
    <nd ref="1132718312"/>
    <nd ref="1132718128"/>
    <nd ref="1132718272"/>
    <tag k="addr:city" v="Зеленоград"/>
    <tag k="addr:country" v="RU"/>
    <tag k="addr:street" v="Колхозная улица"/>
    <tag k="building" v="yes"/>
    <tag k="building:use" v="residential"/>
  </way>
  <way id="97864455" version="1" timestamp="2011-02-02T20:08:40Z" uid="115477" user="wowik" changeset="7168176">
    <nd ref="1132718181"/>
    <nd ref="1132718073"/>
    <nd ref="1132718333"/>
    <nd ref="1132718314"/>
    <nd ref="1132718181"/>
    <tag k="building" v="yes"/>
  </way>
  <way id="97864456" version="1" timestamp="2011-02-02T20:08:40Z" uid="115477" user="wowik" changeset="7168176">
    <nd ref="1132507861"/>
    <nd ref="1132718169"/>
    <nd ref="1132718404"/>
    <nd ref="1132718236"/>
    <nd ref="1132506858"/>
    <nd ref="1132507861"/>
    <tag k="addr:city" v="Зеленоград"/>
    <tag k="addr:country" v="RU"/>
    <tag k="addr:housenumber" v="2 с1"/>
    <tag k="addr:street" v="Проектируемый проезд N ?"/>
    <tag k="building" v="yes"/>
    <tag k="note" v="addr:housenumber нeточен"/>
  </way>
  <way id="97864456" version="2" timestamp="2011-02-03T17:58:17Z" uid="115477" user="wowik" changeset="7176113">
    <nd ref="1132507861"/>
    <nd ref="1132718169"/>
    <nd ref="1132718404"/>
    <nd ref="1132718236"/>
    <nd ref="1132506858"/>
    <nd ref="1132507861"/>
    <tag k="addr:city" v="Зеленоград"/>
    <tag k="addr:country" v="RU"/>
    <tag k="addr:housenumber" v="2 с1"/>
    <tag k="addr:street" v="Проектируемый проезд N 684"/>
    <tag k="building" v="yes"/>
    <tag k="note" v="addr:housenumber нeточен"/>
  </way>
  <way id="97864461" version="1" timestamp="2011-02-02T20:08:41Z" uid="115477" user="wowik" changeset="7168176">
    <nd ref="1132718064"/>
    <nd ref="1132718408"/>
    <nd ref="1132718242"/>
    <nd ref="1132718309"/>
    <nd ref="1132718064"/>
    <tag k="addr:city" v="Зеленоград"/>
    <tag k="addr:country" v="RU"/>
    <tag k="addr:housenumber" v="25 с1"/>
    <tag k="addr:street" v="Колхозная улица"/>
    <tag k="building" v="yes"/>
  </way>
  <way id="97864461" version="2" timestamp="2011-02-03T17:04:12Z" uid="115477" user="wowik" changeset="7175629">
    <nd ref="1132718064"/>
    <nd ref="1132718408"/>
    <nd ref="1132718242"/>
    <nd ref="1132718309"/>
    <nd ref="1132718064"/>
    <tag k="addr:city" v="Зеленоград"/>
    <tag k="addr:country" v="RU"/>
    <tag k="addr:housenumber" v="25 с1"/>
    <tag k="addr:street" v="Проектируемый проезд N 4803"/>
    <tag k="building" v="yes"/>
  </way>
  <way id="97864463" version="1" timestamp="2011-02-02T20:08:41Z" uid="115477" user="wowik" changeset="7168176">
    <nd ref="1132718054"/>
    <nd ref="1132718402"/>
    <nd ref="1132718384"/>
    <nd ref="1132718215"/>
    <nd ref="1132718054"/>
    <tag k="building" v="yes"/>
  </way>
  <way id="97864464" version="1" timestamp="2011-02-02T20:08:41Z" uid="115477" user="wowik" changeset="7168176">
    <nd ref="1132718051"/>
    <nd ref="1132718398"/>
    <nd ref="1132718231"/>
    <nd ref="1132718034"/>
    <nd ref="1132718051"/>
    <tag k="building" v="yes"/>
  </way>
  <way id="97864465" version="1" timestamp="2011-02-02T20:08:41Z" uid="115477" user="wowik" changeset="7168176">
    <nd ref="1132718134"/>
    <nd ref="1132718040"/>
    <nd ref="1132718303"/>
    <nd ref="1132718191"/>
    <nd ref="1132718134"/>
    <tag k="building" v="yes"/>
  </way>
  <way id="97864467" version="1" timestamp="2011-02-02T20:08:41Z" uid="115477" user="wowik" changeset="7168176">
    <nd ref="1132718222"/>
    <nd ref="1132718099"/>
    <nd ref="1132718366"/>
    <nd ref="1132718222"/>
    <tag k="addr:city" v="Зеленоград"/>
    <tag k="addr:country" v="RU"/>
    <tag k="addr:housenumber" v="1 с5"/>
    <tag k="addr:street" v="Проектируемый проезд N ?"/>
    <tag k="building" v="yes"/>
  </way>
  <way id="97864467" version="2" timestamp="2011-02-03T17:58:17Z" uid="115477" user="wowik" changeset="7176113">
    <nd ref="1132718222"/>
    <nd ref="1132718099"/>
    <nd ref="1132718366"/>
    <nd ref="1132718222"/>
    <tag k="addr:city" v="Зеленоград"/>
    <tag k="addr:country" v="RU"/>
    <tag k="addr:housenumber" v="1 с5"/>
    <tag k="addr:street" v="Проектируемый проезд N 5557"/>
    <tag k="building" v="yes"/>
  </way>
  <way id="97864469" version="1" timestamp="2011-02-02T20:08:41Z" uid="115477" user="wowik" changeset="7168176">
    <nd ref="1132718279"/>
    <nd ref="1132718182"/>
    <nd ref="1132718273"/>
    <nd ref="1132718069"/>
    <nd ref="1132718279"/>
    <tag k="addr:city" v="Зеленоград"/>
    <tag k="addr:country" v="RU"/>
    <tag k="addr:housenumber" v="105"/>
    <tag k="addr:street" v="Колхозная улица"/>
    <tag k="building" v="yes"/>
  </way>
  <way id="97864472" version="1" timestamp="2011-02-02T20:08:42Z" uid="115477" user="wowik" changeset="7168176">
    <nd ref="700727377"/>
    <nd ref="1132718338"/>
    <nd ref="1132718167"/>
    <nd ref="700727378"/>
    <nd ref="700727377"/>
    <tag k="addr:city" v="Зеленоград"/>
    <tag k="addr:country" v="RU"/>
    <tag k="addr:housenumber" v="13 с2"/>
    <tag k="addr:street" v="3-й Западный проезд"/>
    <tag k="building" v="yes"/>
  </way>
  <way id="97864473" version="1" timestamp="2011-02-02T20:08:42Z" uid="115477" user="wowik" changeset="7168176">
    <nd ref="1132718253"/>
    <nd ref="1132718156"/>
    <nd ref="1132718400"/>
    <nd ref="1132718381"/>
    <nd ref="1132718253"/>
    <tag k="building" v="yes"/>
    <tag k="building:levels" v="1"/>
  </way>
  <way id="97864476" version="1" timestamp="2011-02-02T20:08:42Z" uid="115477" user="wowik" changeset="7168176">
    <nd ref="1132718248"/>
    <nd ref="1132718147"/>
    <nd ref="1132718396"/>
    <nd ref="1132718225"/>
    <nd ref="1132718248"/>
    <tag k="building" v="yes"/>
  </way>
  <way id="97864477" version="1" timestamp="2011-02-02T20:08:42Z" uid="115477" user="wowik" changeset="7168176">
    <nd ref="1132718130"/>
    <nd ref="1132718039"/>
    <nd ref="1132718300"/>
    <nd ref="1132718373"/>
    <nd ref="1132718130"/>
    <tag k="addr:city" v="Зеленоград"/>
    <tag k="addr:country" v="RU"/>
    <tag k="addr:housenumber" v="1 с4"/>
    <tag k="addr:street" v="Проектируемый проезд N ?"/>
    <tag k="building" v="yes"/>
  </way>
  <way id="97864477" version="2" timestamp="2011-02-03T17:58:15Z" uid="115477" user="wowik" changeset="7176113">
    <nd ref="1132718130"/>
    <nd ref="1132718039"/>
    <nd ref="1132718300"/>
    <nd ref="1132718373"/>
    <nd ref="1132718130"/>
    <tag k="addr:city" v="Зеленоград"/>
    <tag k="addr:country" v="RU"/>
    <tag k="addr:housenumber" v="1 с4"/>
    <tag k="addr:street" v="Проектируемый проезд N 5557"/>
    <tag k="building" v="yes"/>
  </way>
  <way id="97864480" version="1" timestamp="2011-02-02T20:08:42Z" uid="115477" user="wowik" changeset="7168176">
    <nd ref="1132718058"/>
    <nd ref="1132718136"/>
    <nd ref="1132718387"/>
    <nd ref="1132718217"/>
    <nd ref="1132718058"/>
    <tag k="building" v="yes"/>
  </way>
  <way id="97864482" version="1" timestamp="2011-02-02T20:08:42Z" uid="115477" user="wowik" changeset="7168176">
    <nd ref="1132718389"/>
    <nd ref="1132718129"/>
    <nd ref="1132718376"/>
    <nd ref="1132718389"/>
    <tag k="addr:city" v="Зеленоград"/>
    <tag k="addr:country" v="RU"/>
    <tag k="addr:housenumber" v="1 с6"/>
    <tag k="addr:street" v="Проектируемый проезд N ?"/>
    <tag k="building" v="yes"/>
    <tag k="note" v="addr:housenumber нeточен"/>
  </way>
  <way id="97864482" version="2" timestamp="2011-02-03T17:58:13Z" uid="115477" user="wowik" changeset="7176113">
    <nd ref="1132718389"/>
    <nd ref="1132718129"/>
    <nd ref="1132718376"/>
    <nd ref="1132718389"/>
    <tag k="addr:city" v="Зеленоград"/>
    <tag k="addr:country" v="RU"/>
    <tag k="addr:housenumber" v="1 с6"/>
    <tag k="addr:street" v="Проектируемый проезд N 5557"/>
    <tag k="building" v="yes"/>
    <tag k="note" v="addr:housenumber нeточен"/>
  </way>
  <way id="97864483" version="1" timestamp="2011-02-02T20:08:43Z" uid="115477" user="wowik" changeset="7168176">
    <nd ref="1132718115"/>
    <nd ref="1132718033"/>
    <nd ref="1132718194"/>
    <nd ref="1132718283"/>
    <nd ref="1132718115"/>
    <tag k="building" v="yes"/>
  </way>
  <way id="97864484" version="1" timestamp="2011-02-02T20:08:43Z" uid="115477" user="wowik" changeset="7168176">
    <nd ref="1132718110"/>
    <nd ref="1132718030"/>
    <nd ref="1132718004"/>
    <nd ref="1132718276"/>
    <nd ref="1132718110"/>
    <tag k="building" v="yes"/>
    <tag k="building:levels" v="1"/>
  </way>
  <way id="97864488" version="1" timestamp="2011-02-02T20:08:43Z" uid="115477" user="wowik" changeset="7168176">
    <nd ref="1132718223"/>
    <nd ref="1132718380"/>
    <nd ref="1132718200"/>
    <nd ref="1132718012"/>
    <nd ref="1132718223"/>
    <tag k="building" v="yes"/>
    <tag k="building:levels" v="1"/>
  </way>
  <way id="97864490" version="1" timestamp="2011-02-02T20:08:43Z" uid="115477" user="wowik" changeset="7168176">
    <nd ref="1132718095"/>
    <nd ref="1132718002"/>
    <nd ref="1132718275"/>
    <nd ref="1132718072"/>
    <nd ref="1132718328"/>
    <nd ref="1132718311"/>
    <nd ref="1132718127"/>
    <nd ref="1132718375"/>
    <nd ref="1132718095"/>
    <tag k="addr:city" v="Зеленоград"/>
    <tag k="addr:country" v="RU"/>
    <tag k="addr:housenumber" v="73"/>
    <tag k="addr:street" v="Колхозная улица"/>
    <tag k="building" v="yes"/>
    <tag k="building:use" v="residential"/>
  </way>
  <way id="97864492" version="1" timestamp="2011-02-02T20:08:43Z" uid="115477" user="wowik" changeset="7168176">
    <nd ref="1132718091"/>
    <nd ref="1132717994"/>
    <nd ref="1132718355"/>
    <tag k="highway" v="service"/>
  </way>
  <way id="97864494" version="1" timestamp="2011-02-02T20:08:43Z" uid="115477" user="wowik" changeset="7168176">
    <nd ref="1132718010"/>
    <nd ref="1132718357"/>
    <nd ref="1132718342"/>
    <nd ref="1132718171"/>
    <nd ref="1132718010"/>
    <tag k="addr:city" v="Зеленоград"/>
    <tag k="addr:country" v="RU"/>
    <tag k="addr:housenumber" v="1 с2"/>
    <tag k="addr:street" v="Проектируемый проезд N ?"/>
    <tag k="building" v="yes"/>
  </way>
  <way id="97864494" version="2" timestamp="2011-02-03T17:58:15Z" uid="115477" user="wowik" changeset="7176113">
    <nd ref="1132718010"/>
    <nd ref="1132718357"/>
    <nd ref="1132718342"/>
    <nd ref="1132718171"/>
    <nd ref="1132718010"/>
    <tag k="addr:city" v="Зеленоград"/>
    <tag k="addr:country" v="RU"/>
    <tag k="addr:housenumber" v="1 с2"/>
    <tag k="addr:street" v="Проектируемый проезд N 5557"/>
    <tag k="building" v="yes"/>
  </way>
  <way id="97864496" version="1" timestamp="2011-02-02T20:08:43Z" uid="115477" user="wowik" changeset="7168176">
    <nd ref="1132718185"/>
    <nd ref="1132718083"/>
    <nd ref="1132718370"/>
    <nd ref="1132718190"/>
    <nd ref="1132718185"/>
    <tag k="building" v="yes"/>
  </way>
  <way id="97864499" version="1" timestamp="2011-02-02T20:08:44Z" uid="115477" user="wowik" changeset="7168176">
    <nd ref="1132718344"/>
    <nd ref="1132718268"/>
    <nd ref="1132718061"/>
    <nd ref="1132718315"/>
    <nd ref="1132718344"/>
    <tag k="building" v="yes"/>
  </way>
  <way id="97864501" version="1" timestamp="2011-02-02T20:08:44Z" uid="115477" user="wowik" changeset="7168176">
    <nd ref="1132718337"/>
    <nd ref="1132718070"/>
    <nd ref="1132718324"/>
    <nd ref="1132718141"/>
    <nd ref="1132718337"/>
    <tag k="building" v="yes"/>
    <tag k="building:levels" v="1"/>
  </way>
  <way id="97864502" version="1" timestamp="2011-02-02T20:08:44Z" uid="115477" user="wowik" changeset="7168176">
    <nd ref="1132718419"/>
    <nd ref="1132718335"/>
    <nd ref="1132718159"/>
    <nd ref="1132717997"/>
    <nd ref="1132718419"/>
    <tag k="building" v="yes"/>
  </way>
  <way id="97864503" version="1" timestamp="2011-02-02T20:08:44Z" uid="115477" user="wowik" changeset="7168176">
    <nd ref="1132718329"/>
    <nd ref="1132718252"/>
    <nd ref="1132718319"/>
    <nd ref="1132718132"/>
    <nd ref="1132718329"/>
    <tag k="building" v="yes"/>
    <tag k="building:levels" v="1"/>
  </way>
  <way id="97864505" version="1" timestamp="2011-02-02T20:08:44Z" uid="115477" user="wowik" changeset="7168176">
    <nd ref="1132718416"/>
    <nd ref="1132718326"/>
    <nd ref="1132718145"/>
    <nd ref="1132718391"/>
    <nd ref="1132718407"/>
    <nd ref="1132718241"/>
    <nd ref="1132718416"/>
    <tag k="natural" v="water"/>
  </way>
  <way id="97864510" version="1" timestamp="2011-02-02T20:08:44Z" uid="115477" user="wowik" changeset="7168176">
    <nd ref="1132718413"/>
    <nd ref="1132718322"/>
    <nd ref="1132718310"/>
    <nd ref="1132718120"/>
    <nd ref="1132718413"/>
    <tag k="addr:city" v="Зеленоград"/>
    <tag k="addr:country" v="RU"/>
    <tag k="addr:housenumber" v="2 с3"/>
    <tag k="addr:street" v="Проектируемый проезд N ?"/>
    <tag k="building" v="yes"/>
    <tag k="note" v="addr:housenumber нeточен"/>
  </way>
  <way id="97864510" version="2" timestamp="2011-02-03T17:58:13Z" uid="115477" user="wowik" changeset="7176113">
    <nd ref="1132718413"/>
    <nd ref="1132718322"/>
    <nd ref="1132718310"/>
    <nd ref="1132718120"/>
    <nd ref="1132718413"/>
    <tag k="addr:city" v="Зеленоград"/>
    <tag k="addr:country" v="RU"/>
    <tag k="addr:housenumber" v="2 с3"/>
    <tag k="addr:street" v="Проектируемый проезд N 684"/>
    <tag k="building" v="yes"/>
    <tag k="note" v="addr:housenumber нeточен"/>
  </way>
  <way id="97864511" version="1" timestamp="2011-02-02T20:08:45Z" uid="115477" user="wowik" changeset="7168176">
    <nd ref="1132718042"/>
    <nd ref="1132718388"/>
    <nd ref="1132718218"/>
    <nd ref="1132718022"/>
    <nd ref="1132718042"/>
    <tag k="building" v="yes"/>
    <tag k="building:levels" v="1"/>
  </way>
  <way id="97864514" version="1" timestamp="2011-02-02T20:08:45Z" uid="115477" user="wowik" changeset="7168176">
    <nd ref="1132718224"/>
    <nd ref="1132718267"/>
    <nd ref="1132718024"/>
    <nd ref="1132718286"/>
    <nd ref="1132718224"/>
    <tag k="building" v="yes"/>
  </way>
  <way id="97864515" version="1" timestamp="2011-02-02T20:08:45Z" uid="115477" user="wowik" changeset="7168176">
    <nd ref="1132718301"/>
    <nd ref="1132718211"/>
    <nd ref="1132718293"/>
    <nd ref="1132718090"/>
    <nd ref="1132718301"/>
    <tag k="addr:city" v="Зеленоград"/>
    <tag k="addr:country" v="RU"/>
    <tag k="addr:housenumber" v="74"/>
    <tag k="addr:street" v="Колхозная улица"/>
    <tag k="building" v="yes"/>
    <tag k="building:use" v="residential"/>
  </way>
  <way id="97864991" version="1" timestamp="2011-02-02T20:09:51Z" uid="137033" user="lubomir" changeset="7168185">
    <nd ref="1132719969"/>
    <nd ref="1132719824"/>
    <nd ref="1132719707"/>
    <nd ref="1132719503"/>
    <nd ref="1132719913"/>
    <tag k="highway" v="track"/>
  </way>
  <way id="97864991" version="2" timestamp="2011-08-31T09:12:39Z" uid="444762" user="nobonn2" changeset="9174460">
    <nd ref="1132719969"/>
    <nd ref="1132719824"/>
    <nd ref="1132719707"/>
    <nd ref="1132719503"/>
    <nd ref="1132719913"/>
    <tag k="highway" v="service"/>
  </way>
  <way id="97864993" version="1" timestamp="2011-02-02T20:09:51Z" uid="137033" user="lubomir" changeset="7168185">
    <nd ref="1132719959"/>
    <nd ref="1132719347"/>
    <nd ref="1132719377"/>
    <nd ref="1132720016"/>
    <tag k="highway" v="residential"/>
  </way>
  <way id="97864996" version="1" timestamp="2011-02-02T20:09:51Z" uid="137033" user="lubomir" changeset="7168185">
    <nd ref="1132720032"/>
    <nd ref="1132719540"/>
    <nd ref="1132719667"/>
    <nd ref="1132719975"/>
    <nd ref="1132719656"/>
    <nd ref="1132719809"/>
    <nd ref="1132719411"/>
    <tag k="highway" v="residential"/>
  </way>
  <way id="97864999" version="1" timestamp="2011-02-02T20:09:52Z" uid="137033" user="lubomir" changeset="7168185">
    <nd ref="1132719500"/>
    <nd ref="1132719331"/>
    <nd ref="1132720007"/>
    <nd ref="1132719840"/>
    <nd ref="1132720066"/>
    <nd ref="1132719959"/>
    <nd ref="1132719733"/>
    <nd ref="1132719634"/>
    <nd ref="1132719600"/>
    <nd ref="1132719323"/>
    <nd ref="1132719730"/>
    <tag k="highway" v="residential"/>
  </way>
  <way id="97864000" version="2" timestamp="2012-07-17T07:10:50Z" uid="722137" user="OSMF Redaction Account" changeset="12259198"/>
  <way id="97864002" version="2" timestamp="2012-07-17T07:10:52Z" uid="722137" user="OSMF Redaction Account" changeset="12259198"/>
  <way id="97864006" version="2" timestamp="2012-07-17T07:10:51Z" uid="722137" user="OSMF Redaction Account" changeset="12259198"/>
  <way id="97864008" version="2" timestamp="2012-07-17T07:10:51Z" uid="722137" user="OSMF Redaction Account" changeset="12259198"/>
  <way id="97864011" version="2" timestamp="2012-07-17T07:10:52Z" uid="722137" user="OSMF Redaction Account" changeset="12259198"/>
  <way id="97864396" version="2" timestamp="2012-07-20T16:39:05Z" uid="722137" user="OSMF Redaction Account" changeset="12383703"/>
  <way id="97864400" version="2" timestamp="2012-07-20T16:39:06Z" uid="722137" user="OSMF Redaction Account" changeset="12383703"/>
  <way id="97864402" version="2" timestamp="2012-07-20T16:38:57Z" uid="722137" user="OSMF Redaction Account" changeset="12383703"/>
  <way id="97864403" version="2" timestamp="2012-07-20T16:39:16Z" uid="722137" user="OSMF Redaction Account" changeset="12383703"/>
  <way id="97864405" version="2" timestamp="2012-07-20T16:38:48Z" uid="722137" user="OSMF Redaction Account" changeset="12383703"/>
  <way id="97864408" version="2" timestamp="2012-07-20T16:38:55Z" uid="722137" user="OSMF Redaction Account" changeset="12383703"/>
  <way id="97864409" version="2" timestamp="2012-07-20T16:38:47Z" uid="722137" user="OSMF Redaction Account" changeset="12383703"/>
  <way id="97864411" version="2" timestamp="2012-07-20T16:39:04Z" uid="722137" user="OSMF Redaction Account" changeset="12383703"/>
  <way id="97864414" version="2" timestamp="2012-07-20T16:39:13Z" uid="722137" user="OSMF Redaction Account" changeset="12383703"/>
  <way id="97864415" version="2" timestamp="2012-07-20T16:39:18Z" uid="722137" user="OSMF Redaction Account" changeset="12383703"/>
  <way id="97864417" version="3" timestamp="2012-07-20T16:38:59Z" uid="722137" user="OSMF Redaction Account" changeset="12383703"/>
  <way id="97864420" version="2" timestamp="2012-07-20T16:39:05Z" uid="722137" user="OSMF Redaction Account" changeset="12383703"/>
  <way id="97864423" version="6" timestamp="2012-07-20T16:38:57Z" uid="722137" user="OSMF Redaction Account" changeset="12383703"/>
  <way id="97864426" version="2" timestamp="2012-07-20T16:39:18Z" uid="722137" user="OSMF Redaction Account" changeset="12383703"/>
  <way id="97864427" version="2" timestamp="2012-07-20T16:39:18Z" uid="722137" user="OSMF Redaction Account" changeset="12383703"/>
  <way id="97864429" version="3" timestamp="2012-07-20T16:38:47Z" uid="722137" user="OSMF Redaction Account" changeset="12383703"/>
  <way id="97864431" version="2" timestamp="2012-07-20T16:39:15Z" uid="722137" user="OSMF Redaction Account" changeset="12383703"/>
  <way id="97864434" version="3" timestamp="2012-07-20T16:36:18Z" uid="722137" user="OSMF Redaction Account" changeset="12383572">
    <nd ref="1498562396"/>
    <nd ref="1498562398"/>
    <tag k="addr:city" v="Зеленоград"/>
    <tag k="addr:country" v="RU"/>
  </way>
  <way id="97864436" version="2" timestamp="2012-07-20T16:39:05Z" uid="722137" user="OSMF Redaction Account" changeset="12383703"/>
  <way id="97864437" version="2" timestamp="2012-07-20T16:38:59Z" uid="722137" user="OSMF Redaction Account" changeset="12383703"/>
  <way id="97864440" version="2" timestamp="2012-07-20T16:39:18Z" uid="722137" user="OSMF Redaction Account" changeset="12383703"/>
  <way id="97864442" version="3" timestamp="2012-07-20T16:39:14Z" uid="722137" user="OSMF Redaction Account" changeset="12383703"/>
  <way id="97864444" version="2" timestamp="2012-07-20T16:39:12Z" uid="722137" user="OSMF Redaction Account" changeset="12383703"/>
  <way id="97864445" version="2" timestamp="2012-07-20T16:39:17Z" uid="722137" user="OSMF Redaction Account" changeset="12383703"/>
  <way id="97864448" version="2" timestamp="2012-07-20T16:39:16Z" uid="722137" user="OSMF Redaction Account" changeset="12383703"/>
  <way id="97864450" version="3" timestamp="2012-07-20T16:38:57Z" uid="722137" user="OSMF Redaction Account" changeset="12383703"/>
  <way id="97864453" version="2" timestamp="2012-07-20T16:39:15Z" uid="722137" user="OSMF Redaction Account" changeset="12383703"/>
  <way id="97864454" version="2" timestamp="2012-07-20T16:39:15Z" uid="722137" user="OSMF Redaction Account" changeset="12383703"/>
  <way id="97864455" version="2" timestamp="2012-07-20T16:38:52Z" uid="722137" user="OSMF Redaction Account" changeset="12383703"/>
  <way id="97864456" version="3" timestamp="2012-07-20T16:38:48Z" uid="722137" user="OSMF Redaction Account" changeset="12383703"/>
  <way id="97864461" version="3" timestamp="2012-07-20T16:39:04Z" uid="722137" user="OSMF Redaction Account" changeset="12383703"/>
  <way id="97864463" version="2" timestamp="2012-07-20T16:39:12Z" uid="722137" user="OSMF Redaction Account" changeset="12383703"/>
  <way id="97864464" version="2" timestamp="2012-07-20T16:38:57Z" uid="722137" user="OSMF Redaction Account" changeset="12383703"/>
  <way id="97864465" version="2" timestamp="2012-07-20T16:38:56Z" uid="722137" user="OSMF Redaction Account" changeset="12383703"/>
  <way id="97864467" version="3" timestamp="2012-07-20T16:39:19Z" uid="722137" user="OSMF Redaction Account" changeset="12383703"/>
  <way id="97864469" version="2" timestamp="2012-07-20T16:39:12Z" uid="722137" user="OSMF Redaction Account" changeset="12383703"/>
  <way id="97864472" version="2" timestamp="2012-07-20T16:39:07Z" uid="722137" user="OSMF Redaction Account" changeset="12383703"/>
  <way id="97864473" version="2" timestamp="2012-07-20T16:39:16Z" uid="722137" user="OSMF Redaction Account" changeset="12383703"/>
  <way id="97864476" version="2" timestamp="2012-07-20T16:39:18Z" uid="722137" user="OSMF Redaction Account" changeset="12383703"/>
  <way id="97864477" version="3" timestamp="2012-07-20T16:39:16Z" uid="722137" user="OSMF Redaction Account" changeset="12383703"/>
  <way id="97864480" version="2" timestamp="2012-07-20T16:39:18Z" uid="722137" user="OSMF Redaction Account" changeset="12383703"/>
  <way id="97864482" version="3" timestamp="2012-07-20T16:39:12Z" uid="722137" user="OSMF Redaction Account" changeset="12383703"/>
  <way id="97864483" version="2" timestamp="2012-07-20T16:39:18Z" uid="722137" user="OSMF Redaction Account" changeset="12383703"/>
  <way id="97864484" version="2" timestamp="2012-07-20T16:39:15Z" uid="722137" user="OSMF Redaction Account" changeset="12383703"/>
  <way id="97864488" version="2" timestamp="2012-07-20T16:39:15Z" uid="722137" user="OSMF Redaction Account" changeset="12383703"/>
  <way id="97864490" version="2" timestamp="2012-07-20T16:39:16Z" uid="722137" user="OSMF Redaction Account" changeset="12383703"/>
  <way id="97864492" version="2" timestamp="2012-07-20T16:38:47Z" uid="722137" user="OSMF Redaction Account" changeset="12383703"/>
  <way id="97864494" version="3" timestamp="2012-07-20T16:39:14Z" uid="722137" user="OSMF Redaction Account" changeset="12383703"/>
  <way id="97864496" version="2" timestamp="2012-07-20T16:38:50Z" uid="722137" user="OSMF Redaction Account" changeset="12383703"/>
  <way id="97864499" version="2" timestamp="2012-07-20T16:39:11Z" uid="722137" user="OSMF Redaction Account" changeset="12383703"/>
  <way id="97864501" version="2" timestamp="2012-07-20T16:39:18Z" uid="722137" user="OSMF Redaction Account" changeset="12383703"/>
  <way id="97864502" version="2" timestamp="2012-07-20T16:39:12Z" uid="722137" user="OSMF Redaction Account" changeset="12383703"/>
  <way id="97864503" version="2" timestamp="2012-07-20T16:39:15Z" uid="722137" user="OSMF Redaction Account" changeset="12383703"/>
  <way id="97864505" version="2" timestamp="2012-07-20T16:38:51Z" uid="722137" user="OSMF Redaction Account" changeset="12383703"/>
  <way id="97864510" version="3" timestamp="2012-07-20T16:38:49Z" uid="722137" user="OSMF Redaction Account" changeset="12383703"/>
  <way id="97864511" version="2" timestamp="2012-07-20T16:39:16Z" uid="722137" user="OSMF Redaction Account" changeset="12383703"/>
  <way id="97864514" version="2" timestamp="2012-07-20T16:38:55Z" uid="722137" user="OSMF Redaction Account" changeset="12383703"/>
  <way id="97864515" version="2" timestamp="2012-07-20T16:39:15Z" uid="722137" user="OSMF Redaction Account" changeset="12383703"/>
  <way id="97864991" version="3" timestamp="2012-07-24T15:07:43Z" uid="722137" user="OSMF Redaction Account" changeset="12468748"/>
  <way id="97864993" version="2" timestamp="2012-07-24T15:07:43Z" uid="722137" user="OSMF Redaction Account" changeset="12468748"/>
  <way id="97864996" version="2" timestamp="2012-07-24T15:07:42Z" uid="722137" user="OSMF Redaction Account" changeset="12468748"/>
  <way id="97864999" version="2" timestamp="2012-07-24T15:07:42Z" uid="722137" user="OSMF Redaction Account" changeset="12468748"/>
</osm>
