<?xml version='1.0' encoding='UTF-8'?>
<osm version="0.6" generator="libosmium/2.20.0">
  <way id="98858056" version="1" timestamp="2011-02-09T10:44:30Z" uid="61114" user="Trav" changeset="7234762">
    <nd ref="1143678650"/>
    <nd ref="1143678651"/>
    <nd ref="1143678653"/>
    <nd ref="1143678654"/>
    <nd ref="1143678655"/>
    <nd ref="1143678656"/>
    <nd ref="1143678657"/>
    <nd ref="1143678658"/>
    <nd ref="1143678650"/>
    <tag k="building" v="yes"/>
    <tag k="building:use" v="residential"/>
    <tag k="source" v="nearmap"/>
    <tag k="source:building:use" v="knowledge"/>
  </way>
  <way id="98858056" version="2" timestamp="2012-03-12T05:21:52Z" uid="7523" user="inas" changeset="10950679"/>
  <way id="98858057" version="1" timestamp="2011-02-09T10:44:33Z" uid="61114" user="Trav" changeset="7234762">
    <nd ref="1143678659"/>
    <nd ref="1143678660"/>
    <nd ref="1143678662"/>
    <nd ref="1143678663"/>
    <nd ref="1143678664"/>
    <nd ref="1143678665"/>
    <nd ref="1143678666"/>
    <nd ref="1143678667"/>
    <nd ref="1143678669"/>
    <nd ref="1143678670"/>
    <nd ref="1143678671"/>
    <nd ref="1143678672"/>
    <nd ref="1143678674"/>
    <nd ref="1143678675"/>
    <nd ref="1143678676"/>
    <nd ref="1143678677"/>
    <nd ref="1143678679"/>
    <nd ref="1143678680"/>
    <nd ref="1143678659"/>
    <tag k="building" v="yes"/>
    <tag k="building:use" v="residential"/>
    <tag k="source" v="nearmap;extrapolation"/>
    <tag k="source:building:use" v="knowledge"/>
  </way>
  <way id="98858057" version="2" timestamp="2012-03-12T05:22:02Z" uid="7523" user="inas" changeset="10950679"/>
  <way id="98858397" version="4" timestamp="2011-04-20T12:57:51Z" uid="115477" user="wowik" changeset="7916018">
    <nd ref="1143682728"/>
    <nd ref="1143682743"/>
    <nd ref="1143682734"/>
    <nd ref="1143682736"/>
    <nd ref="1143682742"/>
    <nd ref="1143682745"/>
    <nd ref="1143682744"/>
    <nd ref="1143682732"/>
    <nd ref="1143682725"/>
    <nd ref="1143682730"/>
    <nd ref="1143682728"/>
    <tag k="addr:city" v="Москва"/>
    <tag k="addr:country" v="RU"/>
    <tag k="addr:housenumber" v="1"/>
    <tag k="addr:street" v="Большая Никитская улица"/>
    <tag k="amenity" v="place_of_worship"/>
    <tag k="building" v="yes"/>
    <tag k="denomination" v="russian_orthodox"/>
    <tag k="int_name" v="MSU Orthodox church of Tatiana"/>
    <tag k="name" v="Храм мученицы Татианы при МГУ"/>
    <tag k="religion" v="christian"/>
  </way>
  <way id="98858397" version="5" timestamp="2011-12-12T08:44:15Z" uid="126304" user="TarzanASG" changeset="10096498">
    <nd ref="1143682728"/>
    <nd ref="1143682743"/>
    <nd ref="1143682734"/>
    <nd ref="1143682736"/>
    <nd ref="1143682742"/>
    <nd ref="1143682745"/>
    <nd ref="1143682744"/>
    <nd ref="1143682732"/>
    <nd ref="1143682725"/>
    <nd ref="1143682730"/>
    <nd ref="1143682728"/>
    <tag k="addr:city" v="Москва"/>
    <tag k="addr:country" v="RU"/>
    <tag k="addr:housenumber" v="1"/>
    <tag k="addr:street" v="Большая Никитская улица"/>
    <tag k="amenity" v="place_of_worship"/>
    <tag k="building" v="church"/>
    <tag k="denomination" v="russian_orthodox"/>
    <tag k="int_name" v="MSU Orthodox church of Tatiana"/>
    <tag k="name" v="Храм мученицы Татианы при МГУ"/>
    <tag k="religion" v="christian"/>
  </way>
  <way id="98858397" version="6" timestamp="2011-12-14T15:20:06Z" uid="143266" user="Sergey Astakhov" changeset="10116697">
    <nd ref="1143682728"/>
    <nd ref="1143682743"/>
    <nd ref="1143682734"/>
    <nd ref="1143682736"/>
    <nd ref="1143682742"/>
    <nd ref="1143682745"/>
    <nd ref="1143682744"/>
    <nd ref="1143682732"/>
    <nd ref="1143682725"/>
    <nd ref="1143682730"/>
    <nd ref="1143682728"/>
    <tag k="addr:city" v="Москва"/>
    <tag k="addr:country" v="RU"/>
    <tag k="addr:housenumber" v="1"/>
    <tag k="addr:street" v="Большая Никитская улица"/>
    <tag k="amenity" v="place_of_worship"/>
    <tag k="building" v="yes"/>
    <tag k="denomination" v="russian_orthodox"/>
    <tag k="int_name" v="MSU Orthodox church of Tatiana"/>
    <tag k="name" v="Храм мученицы Татианы при МГУ"/>
    <tag k="religion" v="christian"/>
  </way>
  <way id="98858397" version="7" timestamp="2012-07-20T11:53:56Z" uid="722137" user="OSMF Redaction Account" changeset="12374348">
    <nd ref="1143682728"/>
    <nd ref="1143682743"/>
    <nd ref="1143682734"/>
    <nd ref="1143682736"/>
    <nd ref="1143682742"/>
    <nd ref="1143682745"/>
    <nd ref="1143682744"/>
    <nd ref="1143682732"/>
    <nd ref="1143682725"/>
    <nd ref="1143682730"/>
    <nd ref="1143682728"/>
    <tag k="addr:housenumber" v="1"/>
    <tag k="addr:street" v="Большая Никитская улица"/>
    <tag k="amenity" v="place_of_worship"/>
    <tag k="building" v="yes"/>
    <tag k="denomination" v="russian_orthodox"/>
    <tag k="int_name" v="MSU Orthodox church of Tatiana"/>
    <tag k="name" v="Храм мученицы Татианы при МГУ"/>
    <tag k="religion" v="christian"/>
  </way>
</osm>
