<?xml version='1.0' encoding='UTF-8'?>
<osm version="0.6" generator="libosmium/2.20.0">
  <way id="9892576" version="7" timestamp="2009-02-01T18:32:47Z" uid="34428" user="usm78-gis" changeset="31975">
    <nd ref="21627285"/>
    <nd ref="207365320"/>
    <tag k="created_by" v="Potlatch 0.7b"/>
    <tag k="highway" v="primary"/>
    <tag k="name" v="Пискаревский пр."/>
    <tag k="oneway" v="yes"/>
  </way>
  <way id="9892576" version="8" timestamp="2009-04-13T05:25:05Z" uid="30590" user="KekcuHa" changeset="465146">
    <nd ref="21627285"/>
    <nd ref="207365320"/>
    <tag k="cladr:code" v="78000000000107200"/>
    <tag k="cladr:name" v="Пискаревский"/>
    <tag k="cladr:suffix" v="Проспект"/>
    <tag k="created_by" v="Potlatch 0.7b"/>
    <tag k="highway" v="primary"/>
    <tag k="name" v="Пискаревский пр."/>
    <tag k="oneway" v="yes"/>
  </way>
  <way id="9892576" version="9" timestamp="2010-08-05T10:56:41Z" uid="127299" user="Batareikin" changeset="5406923">
    <nd ref="21627285"/>
    <nd ref="207365320"/>
    <tag k="cladr:code" v="78000000000107200"/>
    <tag k="cladr:name" v="Пискаревский"/>
    <tag k="cladr:suffix" v="Проспект"/>
    <tag k="highway" v="primary"/>
    <tag k="name" v="Пискарёвский проспект"/>
    <tag k="oneway" v="yes"/>
  </way>
  <way id="9892576" version="10" timestamp="2010-09-01T18:00:28Z" uid="143266" user="Sergey Astakhov" changeset="5655862">
    <nd ref="21627285"/>
    <nd ref="892277365"/>
    <nd ref="207365320"/>
    <tag k="cladr:code" v="78000000000107200"/>
    <tag k="cladr:name" v="Пискаревский"/>
    <tag k="cladr:suffix" v="Проспект"/>
    <tag k="highway" v="primary"/>
    <tag k="name" v="Пискарёвский проспект"/>
    <tag k="oneway" v="yes"/>
  </way>
  <way id="9892576" version="11" timestamp="2011-09-27T19:05:39Z" uid="143266" user="Sergey Astakhov" changeset="9413528">
    <nd ref="21627285"/>
    <nd ref="892277365"/>
    <nd ref="207365320"/>
    <tag k="highway" v="primary"/>
    <tag k="name" v="Пискарёвский проспект"/>
    <tag k="oneway" v="yes"/>
  </way>
  <way id="9892576" version="12" timestamp="2011-12-27T11:42:28Z" uid="95117" user="one_half_3544" changeset="10214920">
    <nd ref="21627285"/>
    <nd ref="892277365"/>
    <nd ref="207365320"/>
    <tag k="highway" v="primary"/>
    <tag k="name" v="Пискарёвский проспект"/>
    <tag k="oneway" v="yes"/>
    <tag k="trolley_wire" v="yes"/>
  </way>
  <way id="9892577" version="3" timestamp="2008-05-20T16:24:14Z" uid="34428" user="usm78-gis" changeset="486008">
    <nd ref="21627281"/>
    <nd ref="21627285"/>
    <tag k="bridge" v="true"/>
    <tag k="created_by" v="Potlatch alpha"/>
    <tag k="highway" v="primary"/>
    <tag k="layer" v="1"/>
    <tag k="name" v="Пискаревский пр."/>
  </way>
  <way id="9892577" version="4" timestamp="2009-02-08T21:55:23Z" uid="15056" user="red_rebel" changeset="303323">
    <nd ref="21627281"/>
    <nd ref="21627285"/>
    <tag k="bridge" v="yes"/>
    <tag k="created_by" v="Potlatch alpha"/>
    <tag k="highway" v="primary"/>
    <tag k="layer" v="1"/>
    <tag k="name" v="Пискаревский пр."/>
  </way>
  <way id="9892577" version="5" timestamp="2009-04-13T05:25:04Z" uid="30590" user="KekcuHa" changeset="465146">
    <nd ref="21627281"/>
    <nd ref="21627285"/>
    <tag k="bridge" v="yes"/>
    <tag k="cladr:code" v="78000000000107200"/>
    <tag k="cladr:name" v="Пискаревский"/>
    <tag k="cladr:suffix" v="Проспект"/>
    <tag k="created_by" v="Potlatch alpha"/>
    <tag k="highway" v="primary"/>
    <tag k="layer" v="1"/>
    <tag k="name" v="Пискаревский пр."/>
  </way>
  <way id="9892577" version="6" timestamp="2010-08-05T10:57:15Z" uid="127299" user="Batareikin" changeset="5406923">
    <nd ref="21627281"/>
    <nd ref="21627285"/>
    <tag k="bridge" v="yes"/>
    <tag k="cladr:code" v="78000000000107200"/>
    <tag k="cladr:name" v="Пискаревский"/>
    <tag k="cladr:suffix" v="Проспект"/>
    <tag k="highway" v="primary"/>
    <tag k="layer" v="1"/>
    <tag k="name" v="Пискарёвский путепровод"/>
  </way>
  <way id="9892577" version="7" timestamp="2011-09-27T19:05:42Z" uid="143266" user="Sergey Astakhov" changeset="9413528">
    <nd ref="21627281"/>
    <nd ref="21627285"/>
    <tag k="bridge" v="yes"/>
    <tag k="highway" v="primary"/>
    <tag k="layer" v="1"/>
    <tag k="name" v="Пискарёвский путепровод"/>
  </way>
  <way id="9892577" version="8" timestamp="2011-12-27T11:42:32Z" uid="95117" user="one_half_3544" changeset="10214920">
    <nd ref="21627281"/>
    <nd ref="21627285"/>
    <tag k="bridge" v="yes"/>
    <tag k="highway" v="primary"/>
    <tag k="layer" v="1"/>
    <tag k="name" v="Пискарёвский путепровод"/>
    <tag k="trolley_wire" v="yes"/>
  </way>
  <way id="9892579" version="6" timestamp="2009-02-23T13:26:01Z" uid="34428" user="usm78-gis" changeset="634299"/>
  <way id="9892576" version="13" timestamp="2012-07-20T08:57:41Z" uid="722137" user="OSMF Redaction Account" changeset="12369114">
    <nd ref="21627285"/>
    <nd ref="892277365"/>
    <nd ref="207365320"/>
    <tag k="highway" v="primary"/>
    <tag k="name" v="Пискарёвский проспект"/>
    <tag k="oneway" v="true"/>
    <tag k="trolley_wire" v="yes"/>
  </way>
  <way id="9892576" version="14" timestamp="2012-09-10T11:19:38Z" uid="700550" user="EIjas" changeset="13055660">
    <nd ref="21627285"/>
    <nd ref="892277365"/>
    <nd ref="207365320"/>
    <nd ref="162783329"/>
    <tag k="highway" v="primary"/>
    <tag k="name" v="Пискарёвский проспект"/>
    <tag k="oneway" v="true"/>
    <tag k="trolley_wire" v="yes"/>
  </way>
</osm>
