<?xml version='1.0' encoding='UTF-8'?>
<osm version="0.6" generator="libosmium/2.20.0">
  <way id="9944064" version="7" timestamp="2010-10-07T17:11:17Z" uid="9581" user="Lobelt" changeset="5979695">
    <nd ref="81631817"/>
    <nd ref="81636654"/>
    <nd ref="81636657"/>
    <nd ref="81636658"/>
    <nd ref="81636660"/>
    <tag k="highway" v="residential"/>
    <tag k="lanes" v="1"/>
    <tag k="maxspeed" v="50"/>
    <tag k="name" v="Eisenberger Straße"/>
    <tag k="ref" v="L 1070"/>
  </way>
  <way id="9944064" version="8" timestamp="2010-10-09T17:52:03Z" uid="9581" user="Lobelt" changeset="5995507">
    <nd ref="81631817"/>
    <nd ref="81636654"/>
    <nd ref="81636657"/>
    <nd ref="81636658"/>
    <nd ref="81636660"/>
    <tag k="highway" v="tertiary"/>
    <tag k="lanes" v="1"/>
    <tag k="maxspeed" v="50"/>
    <tag k="name" v="Eisenberger Straße"/>
    <tag k="ref" v="L 1070"/>
  </way>
  <way id="9944064" version="9" timestamp="2010-11-30T17:15:59Z" uid="125832" user="tijuca" changeset="6495988">
    <nd ref="81631817"/>
    <nd ref="81636654"/>
    <nd ref="81636657"/>
    <nd ref="81636658"/>
    <nd ref="81636660"/>
    <tag k="highway" v="tertiary"/>
    <tag k="maxspeed" v="50"/>
    <tag k="name" v="Eisenberger Straße"/>
    <tag k="ref" v="L 1070"/>
  </way>
  <way id="9944064" version="10" timestamp="2010-12-31T14:10:52Z" uid="125832" user="tijuca" changeset="6820033">
    <nd ref="81631817"/>
    <nd ref="81636654"/>
    <nd ref="81636657"/>
    <nd ref="81636658"/>
    <nd ref="81636660"/>
    <tag k="highway" v="tertiary"/>
    <tag k="maxspeed" v="50"/>
    <tag k="name" v="Eisenberger Straße"/>
  </way>
  <way id="9944064" version="11" timestamp="2011-01-03T17:17:33Z" uid="125832" user="tijuca" changeset="6852005">
    <nd ref="81631817"/>
    <nd ref="81636654"/>
    <nd ref="81636660"/>
    <tag k="highway" v="tertiary"/>
    <tag k="maxspeed" v="50"/>
    <tag k="name" v="Eisenberger Straße"/>
  </way>
  <way id="9944678" version="6" timestamp="2010-04-06T23:09:55Z" uid="20587" user="balrog-kun" changeset="4350083">
    <nd ref="81641017"/>
    <nd ref="81641019"/>
    <nd ref="81641021"/>
    <nd ref="82093005"/>
    <nd ref="82093008"/>
    <nd ref="82093010"/>
    <nd ref="81599630"/>
    <tag k="highway" v="motorway_link"/>
    <tag k="name" v="East R L Thornton Ac Road South"/>
    <tag k="note" v="frontage"/>
    <tag k="oneway" v="yes"/>
    <tag k="tiger:cfcc" v="A63; A64"/>
    <tag k="tiger:county" v="Dallas, TX"/>
    <tag k="tiger:name_base" v="R L Thornton Ac"/>
    <tag k="tiger:name_direction_prefix" v="E"/>
    <tag k="tiger:name_direction_suffix" v="S"/>
    <tag k="tiger:name_type" v="Rd"/>
    <tag k="tiger:reviewed" v="no"/>
    <tag k="tiger:source" v="tiger_import_dch_v0.6_20070829"/>
    <tag k="tiger:tlid" v="102924050:102924095; 102924107:102924088"/>
  </way>
  <way id="9944678" version="7" timestamp="2012-01-06T11:50:48Z" uid="207745" user="NE2" changeset="10310434">
    <nd ref="81641017"/>
    <nd ref="81641019"/>
    <nd ref="81641021"/>
    <nd ref="82093005"/>
    <nd ref="82093008"/>
    <nd ref="82093010"/>
    <nd ref="81599630"/>
    <tag k="highway" v="motorway_link"/>
    <tag k="oneway" v="yes"/>
    <tag k="tiger:cfcc" v="A63; A64"/>
    <tag k="tiger:county" v="Dallas, TX"/>
    <tag k="tiger:name_base" v="R L Thornton Ac"/>
    <tag k="tiger:name_direction_prefix" v="E"/>
    <tag k="tiger:name_direction_suffix" v="S"/>
    <tag k="tiger:name_type" v="Rd"/>
    <tag k="tiger:reviewed" v="no"/>
    <tag k="tiger:source" v="tiger_import_dch_v0.6_20070829"/>
    <tag k="tiger:tlid" v="102924050:102924095; 102924107:102924088"/>
  </way>
  <way id="9944824" version="10" timestamp="2007-11-19T20:21:13Z" uid="8328" user="benpre" changeset="568748">
    <nd ref="81642032"/>
    <nd ref="81645129"/>
    <nd ref="81642019"/>
    <nd ref="81642021"/>
    <nd ref="81642022"/>
    <nd ref="81642023"/>
    <nd ref="81642025"/>
    <nd ref="81642026"/>
    <nd ref="81644606"/>
    <nd ref="81642028"/>
    <nd ref="81642030"/>
    <nd ref="81644609"/>
    <nd ref="81642032"/>
    <tag k="created_by" v="Potlatch alpha"/>
    <tag k="highway" v="secondary"/>
    <tag k="name" v="Stuttgarter Straße"/>
    <tag k="ref" v="K1065"/>
    <tag k="roundabout" v="yes"/>
  </way>
  <way id="9944824" version="11" timestamp="2008-01-28T01:02:30Z" uid="1679" user="andrewpmk" changeset="702562">
    <nd ref="81642032"/>
    <nd ref="81645129"/>
    <nd ref="81642019"/>
    <nd ref="81642021"/>
    <nd ref="81642022"/>
    <nd ref="81642023"/>
    <nd ref="81642025"/>
    <nd ref="81642026"/>
    <nd ref="81644606"/>
    <nd ref="81642028"/>
    <nd ref="81642030"/>
    <nd ref="81644609"/>
    <nd ref="81642032"/>
    <tag k="highway" v="secondary"/>
    <tag k="junction" v="roundabout"/>
    <tag k="name" v="Stuttgarter Straße"/>
    <tag k="ref" v="K1065"/>
  </way>
  <way id="9944824" version="12" timestamp="2008-09-17T00:55:52Z" uid="31059" user="DaBear" changeset="653506">
    <nd ref="81642032"/>
    <nd ref="81645129"/>
    <nd ref="81642019"/>
    <nd ref="81642021"/>
    <nd ref="81642022"/>
    <nd ref="81642023"/>
    <nd ref="81642025"/>
    <nd ref="81642026"/>
    <nd ref="81644606"/>
    <nd ref="81642028"/>
    <nd ref="81642030"/>
    <nd ref="81644609"/>
    <nd ref="81642032"/>
    <tag k="highway" v="secondary"/>
    <tag k="junction" v="roundabout"/>
    <tag k="name" v="Stuttgarter Straße"/>
    <tag k="ref" v="K 1065"/>
  </way>
  <way id="9944824" version="13" timestamp="2009-06-27T20:47:36Z" uid="2680" user="xylome" changeset="1654429">
    <nd ref="81642032"/>
    <nd ref="429974860"/>
    <nd ref="81645129"/>
    <nd ref="429974859"/>
    <nd ref="81642019"/>
    <nd ref="429974858"/>
    <nd ref="81642021"/>
    <nd ref="429974857"/>
    <nd ref="429974853"/>
    <nd ref="429974856"/>
    <nd ref="81642022"/>
    <nd ref="429974855"/>
    <nd ref="81642023"/>
    <nd ref="81642025"/>
    <nd ref="81642026"/>
    <nd ref="81644606"/>
    <nd ref="81642028"/>
    <nd ref="81642030"/>
    <nd ref="429974861"/>
    <nd ref="81644609"/>
    <nd ref="429974854"/>
    <nd ref="81642032"/>
    <tag k="highway" v="secondary"/>
    <tag k="junction" v="roundabout"/>
    <tag k="name" v="Stuttgarter Straße"/>
    <tag k="ref" v="K 1065"/>
  </way>
  <way id="9944064" version="12" timestamp="2012-07-18T10:15:37Z" uid="722137" user="OSMF Redaction Account" changeset="12277452">
    <nd ref="81631817"/>
    <nd ref="81636654"/>
    <nd ref="81636660"/>
    <tag k="highway" v="residential"/>
    <tag k="maxspeed" v="50"/>
    <tag k="name" v="Eisenberger Straße"/>
  </way>
  <way id="9944064" version="13" timestamp="2012-09-05T15:48:17Z" uid="212079" user="atz" changeset="12997837">
    <nd ref="81631817"/>
    <nd ref="81636654"/>
    <nd ref="81636660"/>
    <tag k="highway" v="residential"/>
    <tag k="maxspeed" v="50"/>
    <tag k="name" v="Eisenberger Straße"/>
    <tag k="surface" v="asphalt"/>
    <tag k="width" v="5"/>
  </way>
  <way id="9944824" version="14" timestamp="2012-07-19T15:10:09Z" uid="722137" user="OSMF Redaction Account" changeset="12333468">
    <nd ref="429974860"/>
    <nd ref="429974859"/>
    <nd ref="81642019"/>
    <nd ref="429974858"/>
    <nd ref="81642021"/>
    <nd ref="429974857"/>
    <nd ref="429974853"/>
    <nd ref="429974856"/>
    <nd ref="81642022"/>
    <nd ref="429974855"/>
    <nd ref="81642023"/>
    <nd ref="81642025"/>
    <nd ref="81642026"/>
    <nd ref="81644606"/>
    <nd ref="81642028"/>
    <nd ref="81642030"/>
    <nd ref="429974861"/>
    <nd ref="81644609"/>
    <nd ref="429974854"/>
    <nd ref="81642032"/>
    <nd ref="81642032"/>
    <nd ref="81645129"/>
    <tag k="highway" v="secondary"/>
    <tag k="junction" v="roundabout"/>
    <tag k="name" v="Stuttgarter Straße"/>
    <tag k="ref" v="K 1065"/>
  </way>
  <way id="9944824" version="15" timestamp="2012-07-20T20:18:24Z" uid="442210" user="dwausr" changeset="12390050"/>
</osm>
