<?xml version='1.0' encoding='UTF-8'?>
<osm version="0.6" generator="libosmium/2.20.0">
  <node id="1012641227" version="1" timestamp="2010-11-29T18:07:58Z" uid="115477" user="wowik" changeset="6488403" lat="57.3608356" lon="37.5985605">
    <tag k="addr:city" v="Кашин"/>
    <tag k="addr:street" v="Чистопрудная улица"/>
    <tag k="amenity" v="place_of_worship"/>
    <tag k="denomination" v="orthodox"/>
    <tag k="name" v="Церковь Рождества Пресвятой Богородицы, что на Чистых Прудах"/>
    <tag k="religion" v="christian"/>
  </node>
  <node id="1012641231" version="1" timestamp="2010-11-29T18:07:59Z" uid="115477" user="wowik" changeset="6488403" lat="57.3625947" lon="37.6029808">
    <tag k="addr:city" v="Кашин"/>
    <tag k="addr:street" v="улица Инны Константиновой"/>
    <tag k="amenity" v="place_of_worship"/>
    <tag k="denomination" v="orthodox"/>
    <tag k="name" v="Церковь Иоакима и Анны"/>
    <tag k="religion" v="christian"/>
  </node>
  <node id="1012641256" version="1" timestamp="2010-11-29T18:08:00Z" uid="115477" user="wowik" changeset="6488403" lat="57.3640528" lon="37.6050837"/>
  <node id="1012644981" version="1" timestamp="2010-11-29T18:11:18Z" uid="115477" user="wowik" changeset="6488403" lat="57.3609745" lon="37.6077444">
    <tag k="historic" v="monument"/>
    <tag k="name" v="памятник Ленину"/>
  </node>
  <node id="1012649045" version="1" timestamp="2010-11-29T18:19:02Z" uid="115477" user="wowik" changeset="6488403" lat="57.3538795" lon="37.6301677">
    <tag k="highway" v="bus_stop"/>
  </node>
  <node id="1012649051" version="1" timestamp="2010-11-29T18:19:03Z" uid="115477" user="wowik" changeset="6488403" lat="57.3504316" lon="37.6409921"/>
  <node id="1012649051" version="2" timestamp="2011-02-01T14:52:21Z" uid="115477" user="wowik" changeset="7155421" lat="57.3503841" lon="37.6410019"/>
</osm>
