<?xml version='1.0' encoding='UTF-8'?>
<osm version="0.6" generator="libosmium/2.20.0">
  <node id="1014873816" version="2" timestamp="2010-12-22T19:55:36Z" uid="6269" user="Mueck" changeset="6739163" lat="53.5308955" lon="8.6394092">
    <tag k="highway" v="bus_stop"/>
    <tag k="name" v="Stadtgrenze Schiffdorf"/>
    <tag k="public_transport" v="stop_position"/>
    <tag k="stop_ID" v="62801"/>
    <tag k="type" v="public_transport"/>
  </node>
  <node id="1014873817" version="2" timestamp="2010-12-22T19:55:43Z" uid="6269" user="Mueck" changeset="6739163" lat="53.5309011" lon="8.6396028">
    <tag k="highway" v="bus_stop"/>
    <tag k="name" v="Stadtgrenze Schiffdorf"/>
    <tag k="public_transport" v="stop_position"/>
    <tag k="stop_ID" v="62806"/>
    <tag k="type" v="public_transport"/>
  </node>
  <node id="1014876157" version="2" timestamp="2011-01-13T23:04:37Z" uid="6269" user="Mueck" changeset="6962820" lat="53.5310149" lon="8.6456337">
    <tag k="highway" v="bus_stop"/>
    <tag k="name" v="BohlenstraÃŸe"/>
    <tag k="public_transport" v="stop_position"/>
    <tag k="stop_ID" v="92906"/>
    <tag k="type" v="public_transport"/>
  </node>
  <node id="1014876965" version="2" timestamp="2011-01-13T23:04:34Z" uid="6269" user="Mueck" changeset="6962820" lat="53.5311078" lon="8.6500974">
    <tag k="highway" v="bus_stop"/>
    <tag k="name" v="Schule Schiffdorf"/>
    <tag k="public_transport" v="stop_position"/>
    <tag k="stop_ID" v="63006"/>
    <tag k="type" v="public_transport"/>
  </node>
  <node id="1014876971" version="2" timestamp="2011-01-13T23:04:55Z" uid="6269" user="Mueck" changeset="6962820" lat="53.531106" lon="8.6500196">
    <tag k="highway" v="bus_stop"/>
    <tag k="name" v="Schule Schiffdorf"/>
    <tag k="public_transport" v="stop_position"/>
    <tag k="stop_ID" v="63001"/>
    <tag k="type" v="public_transport"/>
  </node>
</osm>
