<?xml version='1.0' encoding='UTF-8'?>
<osm version="0.6" generator="libosmium/2.20.0">
  <node id="1014775259" version="2" timestamp="2011-01-15T00:42:12Z" uid="6269" user="Mueck" changeset="6972995" lat="53.5739128" lon="8.6350014">
    <tag k="highway" v="bus_stop"/>
    <tag k="name" v="Spaden, Mitte"/>
    <tag k="public_transport" v="stop_position"/>
    <tag k="stop_ID" v="36106"/>
    <tag k="type" v="public_transport"/>
  </node>
  <node id="1014775266" version="2" timestamp="2011-01-15T00:42:12Z" uid="6269" user="Mueck" changeset="6972995" lat="53.5739058" lon="8.6355644">
    <tag k="highway" v="bus_stop"/>
    <tag k="name" v="Spaden, Mitte"/>
    <tag k="public_transport" v="stop_position"/>
    <tag k="stop_ID" v="36101"/>
    <tag k="type" v="public_transport"/>
  </node>
  <node id="1014778566" version="2" timestamp="2011-01-15T00:42:24Z" uid="6269" user="Mueck" changeset="6972995" lat="53.5729132" lon="8.6314646">
    <tag k="highway" v="bus_stop"/>
    <tag k="name" v="Friesenstraße"/>
    <tag k="public_transport" v="stop_position"/>
    <tag k="stop_ID" v="36001"/>
    <tag k="type" v="public_transport"/>
  </node>
  <node id="1014778583" version="2" timestamp="2011-01-15T00:42:07Z" uid="6269" user="Mueck" changeset="6972995" lat="53.5727554" lon="8.63087">
    <tag k="highway" v="bus_stop"/>
    <tag k="name" v="Friesenstraße"/>
    <tag k="public_transport" v="stop_position"/>
    <tag k="stop_ID" v="36006"/>
    <tag k="type" v="public_transport"/>
  </node>
</osm>
