<?xml version='1.0' encoding='UTF-8'?>
<osm version="0.6" generator="libosmium/2.20.0">
  <node id="1018930710" version="1" timestamp="2010-12-03T20:20:41Z" uid="20587" user="balrog-kun" changeset="6530854" lat="52.1778605" lon="20.9450019">
    <tag k="name" v="Witkowski"/>
    <tag k="rating" v="***"/>
    <tag k="tourism" v="hotel"/>
  </node>
  <node id="1018930711" version="1" timestamp="2010-12-03T20:20:41Z" uid="20587" user="balrog-kun" changeset="6530854" lat="52.1776078" lon="20.9447429">
    <tag k="amenity" v="fast_food"/>
    <tag k="cuisine" v="pizza"/>
    <tag k="name" v="Da Grasso"/>
    <tag k="operator" v="Da Grasso"/>
  </node>
  <node id="1018930713" version="1" timestamp="2010-12-03T20:20:41Z" uid="20587" user="balrog-kun" changeset="6530854" lat="52.0583323" lon="20.8677358">
    <tag k="addr:housenumber" v="2"/>
    <tag k="addr:street" v="Nadrzeczna"/>
  </node>
  <node id="1018930715" version="1" timestamp="2010-12-03T20:20:41Z" uid="20587" user="balrog-kun" changeset="6530854" lat="52.1781636" lon="20.9453374">
    <tag k="amenity" v="fast_food"/>
    <tag k="cuisine" v="asian"/>
    <tag k="name" v="Bao Long"/>
  </node>
</osm>
