<?xml version='1.0' encoding='UTF-8'?>
<osm version="0.6" generator="libosmium/2.20.0">
  <node id="1025640010" version="1" timestamp="2010-12-06T22:58:27Z" uid="30632" user="antblant" changeset="6570002" lat="53.394386" lon="14.721304">
    <tag k="highway" v="bus_stop"/>
    <tag k="name" v="Wielgowo Autostrada nż"/>
    <tag k="operator" v="Zarząd Dróg i Transportu Miejskiego"/>
    <tag k="ref" v="72912"/>
    <tag k="source" v="zditm"/>
    <tag k="website" v="http://zditm.szczecin.pl/rozklady/index.html"/>
  </node>
  <node id="1025640016" version="1" timestamp="2010-12-06T22:58:27Z" uid="30632" user="antblant" changeset="6570002" lat="53.353741" lon="14.744779">
    <tag k="highway" v="bus_stop"/>
    <tag k="name" v="Przyszłości"/>
    <tag k="operator" v="Zarząd Dróg i Transportu Miejskiego"/>
    <tag k="ref" v="81412"/>
    <tag k="source" v="zditm"/>
    <tag k="website" v="http://zditm.szczecin.pl/rozklady/index.html"/>
  </node>
  <node id="1025640023" version="1" timestamp="2010-12-06T22:58:27Z" uid="30632" user="antblant" changeset="6570002" lat="53.399132" lon="14.772572">
    <tag k="highway" v="bus_stop"/>
    <tag k="name" v="Wielgowo Borsucza"/>
    <tag k="operator" v="Zarząd Dróg i Transportu Miejskiego"/>
    <tag k="ref" v="74512"/>
    <tag k="source" v="zditm"/>
    <tag k="website" v="http://zditm.szczecin.pl/rozklady/index.html"/>
  </node>
  <node id="1025640028" version="1" timestamp="2010-12-06T22:58:27Z" uid="30632" user="antblant" changeset="6570002" lat="53.3991865" lon="14.7728472"/>
  <node id="1025640029" version="1" timestamp="2010-12-06T22:58:27Z" uid="30632" user="antblant" changeset="6570002" lat="53.41254" lon="14.712136">
    <tag k="highway" v="bus_stop"/>
    <tag k="name" v="Stacja Doświadczalna"/>
    <tag k="operator" v="Zarząd Dróg i Transportu Miejskiego"/>
    <tag k="ref" v="71612"/>
    <tag k="source" v="zditm"/>
    <tag k="website" v="http://zditm.szczecin.pl/rozklady/index.html"/>
  </node>
  <node id="1025640040" version="1" timestamp="2010-12-06T22:58:27Z" uid="30632" user="antblant" changeset="6570002" lat="53.361809" lon="14.748582">
    <tag k="highway" v="bus_stop"/>
    <tag k="name" v="Unikon"/>
    <tag k="operator" v="Zarząd Dróg i Transportu Miejskiego"/>
    <tag k="ref" v="81112"/>
    <tag k="source" v="zditm"/>
    <tag k="website" v="http://zditm.szczecin.pl/rozklady/index.html"/>
  </node>
  <node id="1025640045" version="1" timestamp="2010-12-06T22:58:28Z" uid="30632" user="antblant" changeset="6570002" lat="53.395" lon="14.76643">
    <tag k="highway" v="bus_stop"/>
    <tag k="name" v="Bryczkowskiego I nż"/>
    <tag k="operator" v="Zarząd Dróg i Transportu Miejskiego"/>
    <tag k="ref" v="73211"/>
    <tag k="source" v="zditm"/>
    <tag k="website" v="http://zditm.szczecin.pl/rozklady/index.html"/>
  </node>
  <node id="1025640051" version="1" timestamp="2010-12-06T22:58:28Z" uid="30632" user="antblant" changeset="6570002" lat="53.342712" lon="14.756012">
    <tag k="highway" v="bus_stop"/>
    <tag k="name" v="Śmierdnica Pętla"/>
    <tag k="operator" v="Zarząd Dróg i Transportu Miejskiego"/>
    <tag k="ref" v="81611"/>
    <tag k="source" v="zditm"/>
    <tag k="website" v="http://zditm.szczecin.pl/rozklady/index.html"/>
  </node>
  <node id="1025640066" version="1" timestamp="2010-12-06T22:58:28Z" uid="30632" user="antblant" changeset="6570002" lat="53.427258" lon="14.717946">
    <tag k="highway" v="bus_stop"/>
    <tag k="name" v="Załom nż"/>
    <tag k="operator" v="Zarząd Dróg i Transportu Miejskiego"/>
    <tag k="ref" v="71911"/>
    <tag k="source" v="zditm"/>
    <tag k="website" v="http://zditm.szczecin.pl/rozklady/index.html"/>
  </node>
  <node id="1025640074" version="1" timestamp="2010-12-06T22:58:28Z" uid="30632" user="antblant" changeset="6570002" lat="53.394909" lon="14.766301">
    <tag k="highway" v="bus_stop"/>
    <tag k="name" v="Bryczkowskiego I nż"/>
    <tag k="operator" v="Zarząd Dróg i Transportu Miejskiego"/>
    <tag k="ref" v="73212"/>
    <tag k="source" v="zditm"/>
    <tag k="website" v="http://zditm.szczecin.pl/rozklady/index.html"/>
  </node>
  <node id="1025640079" version="1" timestamp="2010-12-06T22:58:28Z" uid="30632" user="antblant" changeset="6570002" lat="53.342336" lon="14.7624985">
    <tag k="highway" v="bus_stop"/>
    <tag k="name" v="Topolowa stadion nż"/>
    <tag k="operator" v="Zarząd Dróg i Transportu Miejskiego"/>
    <tag k="ref" v="81712"/>
    <tag k="source" v="zditm"/>
    <tag k="website" v="http://zditm.szczecin.pl/rozklady/index.html"/>
  </node>
  <node id="1025640085" version="1" timestamp="2010-12-06T22:58:28Z" uid="30632" user="antblant" changeset="6570002" lat="53.3799477" lon="14.7673295">
    <tag k="highway" v="bus_stop"/>
    <tag k="name" v="Zdunowo Szpital"/>
    <tag k="operator" v="Zarząd Dróg i Transportu Miejskiego"/>
    <tag k="ref" v="73711"/>
    <tag k="source" v="zditm"/>
    <tag k="website" v="http://zditm.szczecin.pl/rozklady/index.html"/>
  </node>
  <node id="1025640093" version="1" timestamp="2010-12-06T22:58:29Z" uid="30632" user="antblant" changeset="6570002" lat="53.435745" lon="14.744961">
    <tag k="highway" v="bus_stop"/>
    <tag k="name" v="Osiedle Kasztanowe"/>
    <tag k="operator" v="Zarząd Dróg i Transportu Miejskiego"/>
    <tag k="ref" v="72411"/>
    <tag k="source" v="zditm"/>
    <tag k="website" v="http://zditm.szczecin.pl/rozklady/index.html"/>
  </node>
  <node id="1025640100" version="1" timestamp="2010-12-06T22:58:29Z" uid="30632" user="antblant" changeset="6570002" lat="53.3772767" lon="14.7439563">
    <tag k="highway" v="bus_stop"/>
    <tag k="name" v="Stary Szlak nż"/>
    <tag k="operator" v="Zarząd Dróg i Transportu Miejskiego"/>
    <tag k="ref" v="74112"/>
    <tag k="source" v="zditm"/>
    <tag k="website" v="http://zditm.szczecin.pl/rozklady/index.html"/>
  </node>
  <node id="1025640106" version="1" timestamp="2010-12-06T22:58:29Z" uid="30632" user="antblant" changeset="6570002" lat="53.354229" lon="14.74458">
    <tag k="highway" v="bus_stop"/>
    <tag k="name" v="Przyszłości Pekaes nż"/>
    <tag k="operator" v="Zarząd Dróg i Transportu Miejskiego"/>
    <tag k="ref" v="81311"/>
    <tag k="source" v="zditm"/>
    <tag k="website" v="http://zditm.szczecin.pl/rozklady/index.html"/>
  </node>
  <node id="1025640119" version="1" timestamp="2010-12-06T22:58:29Z" uid="30632" user="antblant" changeset="6570002" lat="53.390816" lon="14.765335">
    <tag k="highway" v="bus_stop"/>
    <tag k="name" v="Bałtycka"/>
    <tag k="operator" v="Zarząd Dróg i Transportu Miejskiego"/>
    <tag k="ref" v="73312"/>
    <tag k="source" v="zditm"/>
    <tag k="website" v="http://zditm.szczecin.pl/rozklady/index.html"/>
  </node>
  <node id="1025640124" version="1" timestamp="2010-12-06T22:58:29Z" uid="30632" user="antblant" changeset="6570002" lat="53.362911" lon="14.738953">
    <tag k="highway" v="bus_stop"/>
    <tag k="name" v="Balińskiego nż"/>
    <tag k="operator" v="Zarząd Dróg i Transportu Miejskiego"/>
    <tag k="ref" v="81012"/>
    <tag k="source" v="zditm"/>
    <tag k="website" v="http://zditm.szczecin.pl/rozklady/index.html"/>
  </node>
  <node id="1025640130" version="1" timestamp="2010-12-06T22:58:29Z" uid="30632" user="antblant" changeset="6570002" lat="53.393764" lon="14.746002">
    <tag k="highway" v="bus_stop"/>
    <tag k="name" v="Wielgowo Las nż"/>
    <tag k="operator" v="Zarząd Dróg i Transportu Miejskiego"/>
    <tag k="ref" v="73011"/>
    <tag k="source" v="zditm"/>
    <tag k="website" v="http://zditm.szczecin.pl/rozklady/index.html"/>
  </node>
  <node id="1025640136" version="1" timestamp="2010-12-06T22:58:29Z" uid="30632" user="antblant" changeset="6570002" lat="53.4159141" lon="14.7165128">
    <tag k="highway" v="bus_stop"/>
    <tag k="name" v="Kniewska I"/>
    <tag k="operator" v="Zarząd Dróg i Transportu Miejskiego"/>
    <tag k="ref" v="71711"/>
    <tag k="source" v="zditm"/>
    <tag k="website" v="http://zditm.szczecin.pl/rozklady/index.html"/>
  </node>
  <node id="1025640149" version="1" timestamp="2010-12-06T22:58:30Z" uid="30632" user="antblant" changeset="6570002" lat="53.342388" lon="14.7784312">
    <tag k="highway" v="bus_stop"/>
    <tag k="name" v="Jezierzyce"/>
    <tag k="operator" v="Zarząd Dróg i Transportu Miejskiego"/>
    <tag k="ref" v="81911"/>
    <tag k="source" v="zditm"/>
    <tag k="website" v="http://zditm.szczecin.pl/rozklady/index.html"/>
  </node>
  <node id="1025640153" version="1" timestamp="2010-12-06T22:58:30Z" uid="30632" user="antblant" changeset="6570002" lat="53.3937" lon="14.746345">
    <tag k="highway" v="bus_stop"/>
    <tag k="name" v="Wielgowo Las nż"/>
    <tag k="operator" v="Zarząd Dróg i Transportu Miejskiego"/>
    <tag k="ref" v="73012"/>
    <tag k="source" v="zditm"/>
    <tag k="website" v="http://zditm.szczecin.pl/rozklady/index.html"/>
  </node>
  <node id="1025640158" version="1" timestamp="2010-12-06T22:58:30Z" uid="30632" user="antblant" changeset="6570002" lat="53.383499" lon="14.765486">
    <tag k="highway" v="bus_stop"/>
    <tag k="name" v="Wielgowo"/>
    <tag k="operator" v="Zarząd Dróg i Transportu Miejskiego"/>
    <tag k="ref" v="73512"/>
    <tag k="source" v="zditm"/>
    <tag k="website" v="http://zditm.szczecin.pl/rozklady/index.html"/>
  </node>
  <node id="1025640168" version="1" timestamp="2010-12-06T22:58:30Z" uid="30632" user="antblant" changeset="6570002" lat="53.426823" lon="14.738921">
    <tag k="highway" v="bus_stop"/>
    <tag k="name" v="Załom Fabryka"/>
    <tag k="operator" v="Zarząd Dróg i Transportu Miejskiego"/>
    <tag k="ref" v="72112"/>
    <tag k="source" v="zditm"/>
    <tag k="website" v="http://zditm.szczecin.pl/rozklady/index.html"/>
  </node>
  <node id="1025640170" version="1" timestamp="2010-12-06T22:58:30Z" uid="30632" user="antblant" changeset="6570002" lat="53.359207" lon="14.744307">
    <tag k="highway" v="bus_stop"/>
    <tag k="name" v="Płonia"/>
    <tag k="operator" v="Zarząd Dróg i Transportu Miejskiego"/>
    <tag k="ref" v="81211"/>
    <tag k="source" v="zditm"/>
    <tag k="website" v="http://zditm.szczecin.pl/rozklady/index.html"/>
  </node>
  <node id="1025640172" version="1" timestamp="2010-12-06T22:58:30Z" uid="30632" user="antblant" changeset="6570002" lat="53.393818" lon="14.76563">
    <tag k="highway" v="bus_stop"/>
    <tag k="name" v="Bryczkowskiego"/>
    <tag k="operator" v="Zarząd Dróg i Transportu Miejskiego"/>
    <tag k="ref" v="73221"/>
    <tag k="source" v="zditm"/>
    <tag k="website" v="http://zditm.szczecin.pl/rozklady/index.html"/>
  </node>
  <node id="1025640188" version="1" timestamp="2010-12-06T22:58:30Z" uid="30632" user="antblant" changeset="6570002" lat="53.342648" lon="14.755991">
    <tag k="highway" v="bus_stop"/>
    <tag k="name" v="Śmierdnica Pętla"/>
    <tag k="operator" v="Zarząd Dróg i Transportu Miejskiego"/>
    <tag k="ref" v="81612"/>
    <tag k="source" v="zditm"/>
    <tag k="website" v="http://zditm.szczecin.pl/rozklady/index.html"/>
  </node>
  <node id="1025640194" version="1" timestamp="2010-12-06T22:58:30Z" uid="30632" user="antblant" changeset="6570002" lat="53.379681" lon="14.767385">
    <tag k="highway" v="bus_stop"/>
    <tag k="name" v="Zdunowo Szpital"/>
    <tag k="operator" v="Zarząd Dróg i Transportu Miejskiego"/>
    <tag k="ref" v="73712"/>
    <tag k="source" v="zditm"/>
    <tag k="website" v="http://zditm.szczecin.pl/rozklady/index.html"/>
  </node>
  <node id="1025640197" version="1" timestamp="2010-12-06T22:58:31Z" uid="30632" user="antblant" changeset="6570002" lat="53.362667" lon="14.7523">
    <tag k="highway" v="bus_stop"/>
    <tag k="name" v="Przylesie nż"/>
    <tag k="operator" v="Zarząd Dróg i Transportu Miejskiego"/>
    <tag k="ref" v="74612"/>
    <tag k="source" v="zditm"/>
    <tag k="website" v="http://zditm.szczecin.pl/rozklady/index.html"/>
  </node>
  <node id="1025640198" version="1" timestamp="2010-12-06T22:58:31Z" uid="30632" user="antblant" changeset="6570002" lat="53.3941425" lon="14.70903">
    <tag k="highway" v="bus_stop"/>
    <tag k="name" v="Park Leśny nż"/>
    <tag k="operator" v="Zarząd Dróg i Transportu Miejskiego"/>
    <tag k="ref" v="72811"/>
    <tag k="source" v="zditm"/>
    <tag k="website" v="http://zditm.szczecin.pl/rozklady/index.html"/>
  </node>
  <node id="1025640203" version="1" timestamp="2010-12-06T22:58:31Z" uid="30632" user="antblant" changeset="6570002" lat="53.3974326" lon="14.769703">
    <tag k="highway" v="bus_stop"/>
    <tag k="name" v="Fiołkowa nż"/>
    <tag k="operator" v="Zarząd Dróg i Transportu Miejskiego"/>
    <tag k="ref" v="74411"/>
    <tag k="source" v="zditm"/>
    <tag k="website" v="http://zditm.szczecin.pl/rozklady/index.html"/>
  </node>
  <node id="1025640205" version="1" timestamp="2010-12-06T22:58:31Z" uid="30632" user="antblant" changeset="6570002" lat="53.41053" lon="14.704642">
    <tag k="highway" v="bus_stop"/>
    <tag k="name" v="Wolińska nż"/>
    <tag k="operator" v="Zarząd Dróg i Transportu Miejskiego"/>
    <tag k="ref" v="71511"/>
    <tag k="source" v="zditm"/>
    <tag k="website" v="http://zditm.szczecin.pl/rozklady/index.html"/>
  </node>
  <node id="1025640208" version="1" timestamp="2010-12-06T22:58:31Z" uid="30632" user="antblant" changeset="6570002" lat="53.3439501" lon="14.770082">
    <tag k="highway" v="bus_stop"/>
    <tag k="name" v="Topolowa"/>
    <tag k="operator" v="Zarząd Dróg i Transportu Miejskiego"/>
    <tag k="ref" v="81811"/>
    <tag k="source" v="zditm"/>
    <tag k="website" v="http://zditm.szczecin.pl/rozklady/index.html"/>
  </node>
  <node id="1025640215" version="1" timestamp="2010-12-06T22:58:31Z" uid="30632" user="antblant" changeset="6570002" lat="53.364883" lon="14.747525">
    <tag k="highway" v="bus_stop"/>
    <tag k="name" v="Ośrodek nż"/>
    <tag k="operator" v="Zarząd Dróg i Transportu Miejskiego"/>
    <tag k="ref" v="73911"/>
    <tag k="source" v="zditm"/>
    <tag k="website" v="http://zditm.szczecin.pl/rozklady/index.html"/>
  </node>
  <node id="1025640216" version="1" timestamp="2010-12-06T22:58:31Z" uid="30632" user="antblant" changeset="6570002" lat="53.393955" lon="14.709352">
    <tag k="highway" v="bus_stop"/>
    <tag k="name" v="Park Leśny nż"/>
    <tag k="operator" v="Zarząd Dróg i Transportu Miejskiego"/>
    <tag k="ref" v="72812"/>
    <tag k="source" v="zditm"/>
    <tag k="website" v="http://zditm.szczecin.pl/rozklady/index.html"/>
  </node>
  <node id="1025640217" version="1" timestamp="2010-12-06T22:58:31Z" uid="30632" user="antblant" changeset="6570002" lat="53.3993719" lon="14.7728093"/>
  <node id="1025640218" version="1" timestamp="2010-12-06T22:58:31Z" uid="30632" user="antblant" changeset="6570002" lat="53.427422" lon="14.719394">
    <tag k="highway" v="bus_stop"/>
    <tag k="name" v="Załom nż"/>
    <tag k="operator" v="Zarząd Dróg i Transportu Miejskiego"/>
    <tag k="ref" v="71912"/>
    <tag k="source" v="zditm"/>
    <tag k="website" v="http://zditm.szczecin.pl/rozklady/index.html"/>
  </node>
  <node id="1025640220" version="1" timestamp="2010-12-06T22:58:32Z" uid="30632" user="antblant" changeset="6570002" lat="53.394169" lon="14.753823">
    <tag k="highway" v="bus_stop"/>
    <tag k="name" v="Radiostacja nż"/>
    <tag k="operator" v="Zarząd Dróg i Transportu Miejskiego"/>
    <tag k="ref" v="73111"/>
    <tag k="source" v="zditm"/>
    <tag k="website" v="http://zditm.szczecin.pl/rozklady/index.html"/>
  </node>
  <node id="1025640226" version="1" timestamp="2010-12-06T22:58:32Z" uid="30632" user="antblant" changeset="6570002" lat="53.382381" lon="14.765346">
    <tag k="highway" v="bus_stop"/>
    <tag k="name" v="Zdunowo Dworzec"/>
    <tag k="operator" v="Zarząd Dróg i Transportu Miejskiego"/>
    <tag k="ref" v="73611"/>
    <tag k="source" v="zditm"/>
    <tag k="website" v="http://zditm.szczecin.pl/rozklady/index.html"/>
  </node>
  <node id="1025640229" version="1" timestamp="2010-12-06T22:58:32Z" uid="30632" user="antblant" changeset="6570002" lat="53.428867" lon="14.736807">
    <tag k="highway" v="bus_stop"/>
    <tag k="name" v="Załom Szkoła nż"/>
    <tag k="operator" v="Zarząd Dróg i Transportu Miejskiego"/>
    <tag k="ref" v="72211"/>
    <tag k="source" v="zditm"/>
    <tag k="website" v="http://zditm.szczecin.pl/rozklady/index.html"/>
  </node>
  <node id="1025640230" version="1" timestamp="2010-12-06T22:58:32Z" uid="30632" user="antblant" changeset="6570002" lat="53.342305" lon="14.7620576">
    <tag k="highway" v="bus_stop"/>
    <tag k="name" v="Topolowa stadion nż"/>
    <tag k="operator" v="Zarząd Dróg i Transportu Miejskiego"/>
    <tag k="ref" v="81711"/>
    <tag k="source" v="zditm"/>
    <tag k="website" v="http://zditm.szczecin.pl/rozklady/index.html"/>
  </node>
  <node id="1025640243" version="1" timestamp="2010-12-06T22:58:32Z" uid="30632" user="antblant" changeset="6570002" lat="53.382488" lon="14.765636">
    <tag k="highway" v="bus_stop"/>
    <tag k="name" v="Zdunowo Dworzec"/>
    <tag k="operator" v="Zarząd Dróg i Transportu Miejskiego"/>
    <tag k="ref" v="73612"/>
    <tag k="source" v="zditm"/>
    <tag k="website" v="http://zditm.szczecin.pl/rozklady/index.html"/>
  </node>
  <node id="1025640247" version="1" timestamp="2010-12-06T22:58:32Z" uid="30632" user="antblant" changeset="6570002" lat="53.429142" lon="14.738857">
    <tag k="highway" v="bus_stop"/>
    <tag k="name" v="Załom Szkoła"/>
    <tag k="operator" v="Zarząd Dróg i Transportu Miejskiego"/>
    <tag k="ref" v="72221"/>
    <tag k="source" v="zditm"/>
    <tag k="website" v="http://zditm.szczecin.pl/rozklady/index.html"/>
  </node>
  <node id="1025640249" version="1" timestamp="2010-12-06T22:58:32Z" uid="30632" user="antblant" changeset="6570002" lat="53.3992641" lon="14.7729879"/>
  <node id="1025640250" version="1" timestamp="2010-12-06T22:58:32Z" uid="30632" user="antblant" changeset="6570002" lat="53.4162841" lon="14.7164354">
    <tag k="highway" v="bus_stop"/>
    <tag k="name" v="Kniewska I"/>
    <tag k="operator" v="Zarząd Dróg i Transportu Miejskiego"/>
    <tag k="ref" v="71712"/>
    <tag k="source" v="zditm"/>
    <tag k="website" v="http://zditm.szczecin.pl/rozklady/index.html"/>
  </node>
  <node id="1025640255" version="1" timestamp="2010-12-06T22:58:33Z" uid="30632" user="antblant" changeset="6570002" lat="53.3941885" lon="14.723452">
    <tag k="highway" v="bus_stop"/>
    <tag k="name" v="Wielgowo Autostrada nż"/>
    <tag k="operator" v="Zarząd Dróg i Transportu Miejskiego"/>
    <tag k="ref" v="72911"/>
    <tag k="source" v="zditm"/>
    <tag k="website" v="http://zditm.szczecin.pl/rozklady/index.html"/>
  </node>
  <node id="1025640258" version="1" timestamp="2010-12-06T22:58:33Z" uid="30632" user="antblant" changeset="6570002" lat="53.386452" lon="14.7644963">
    <tag k="highway" v="bus_stop"/>
    <tag k="name" v="Wiślana"/>
    <tag k="operator" v="Zarząd Dróg i Transportu Miejskiego"/>
    <tag k="ref" v="73411"/>
    <tag k="source" v="zditm"/>
    <tag k="website" v="http://zditm.szczecin.pl/rozklady/index.html"/>
  </node>
  <node id="1025640261" version="1" timestamp="2010-12-06T22:58:33Z" uid="30632" user="antblant" changeset="6570002" lat="53.4348464" lon="14.730295">
    <tag k="highway" v="bus_stop"/>
    <tag k="name" v="Załom Krzyżówka nż"/>
    <tag k="operator" v="Zarząd Dróg i Transportu Miejskiego"/>
    <tag k="ref" v="72011"/>
    <tag k="source" v="zditm"/>
    <tag k="website" v="http://zditm.szczecin.pl/rozklady/index.html"/>
  </node>
  <node id="1025640265" version="1" timestamp="2010-12-06T22:58:33Z" uid="30632" user="antblant" changeset="6570002" lat="53.394814" lon="14.764799">
    <tag k="highway" v="bus_stop"/>
    <tag k="name" v="Bryczkowskiego"/>
    <tag k="operator" v="Zarząd Dróg i Transportu Miejskiego"/>
    <tag k="ref" v="73231"/>
    <tag k="source" v="zditm"/>
    <tag k="website" v="http://zditm.szczecin.pl/rozklady/index.html"/>
  </node>
  <node id="1025640279" version="1" timestamp="2010-12-06T22:58:33Z" uid="30632" user="antblant" changeset="6570002" lat="53.385983" lon="14.764574">
    <tag k="highway" v="bus_stop"/>
    <tag k="name" v="Wiślana"/>
    <tag k="operator" v="Zarząd Dróg i Transportu Miejskiego"/>
    <tag k="ref" v="73412"/>
    <tag k="source" v="zditm"/>
    <tag k="website" v="http://zditm.szczecin.pl/rozklady/index.html"/>
  </node>
  <node id="1025640282" version="1" timestamp="2010-12-06T22:58:33Z" uid="30632" user="antblant" changeset="6570002" lat="53.39938" lon="14.7726105"/>
  <node id="1025640283" version="1" timestamp="2010-12-06T22:58:33Z" uid="30632" user="antblant" changeset="6570002" lat="53.4349123" lon="14.7306122">
    <tag k="highway" v="bus_stop"/>
    <tag k="name" v="Załom Krzyżówka nż"/>
    <tag k="operator" v="Zarząd Dróg i Transportu Miejskiego"/>
    <tag k="ref" v="72012"/>
    <tag k="source" v="zditm"/>
    <tag k="website" v="http://zditm.szczecin.pl/rozklady/index.html"/>
  </node>
  <node id="1025640285" version="1" timestamp="2010-12-06T22:58:33Z" uid="30632" user="antblant" changeset="6570002" lat="53.351875" lon="14.745004">
    <tag k="highway" v="bus_stop"/>
    <tag k="name" v="Przyszłości"/>
    <tag k="operator" v="Zarząd Dróg i Transportu Miejskiego"/>
    <tag k="ref" v="81411"/>
    <tag k="source" v="zditm"/>
    <tag k="website" v="http://zditm.szczecin.pl/rozklady/index.html"/>
  </node>
  <node id="1025640292" version="1" timestamp="2010-12-06T22:58:34Z" uid="30632" user="antblant" changeset="6570002" lat="53.39732" lon="14.76967">
    <tag k="highway" v="bus_stop"/>
    <tag k="name" v="Fiołkowa nż"/>
    <tag k="operator" v="Zarząd Dróg i Transportu Miejskiego"/>
    <tag k="ref" v="74412"/>
    <tag k="source" v="zditm"/>
    <tag k="website" v="http://zditm.szczecin.pl/rozklady/index.html"/>
  </node>
  <node id="1025640293" version="1" timestamp="2010-12-06T22:58:34Z" uid="30632" user="antblant" changeset="6570002" lat="53.410561" lon="14.705071">
    <tag k="highway" v="bus_stop"/>
    <tag k="name" v="Wolińska nż"/>
    <tag k="operator" v="Zarząd Dróg i Transportu Miejskiego"/>
    <tag k="ref" v="71512"/>
    <tag k="source" v="zditm"/>
    <tag k="website" v="http://zditm.szczecin.pl/rozklady/index.html"/>
  </node>
  <node id="1025640294" version="1" timestamp="2010-12-06T22:58:34Z" uid="30632" user="antblant" changeset="6570002" lat="53.3821644" lon="14.7649843">
    <tag k="highway" v="bus_stop"/>
    <tag k="name" v="Zdunowo Dworzec"/>
    <tag k="operator" v="Zarząd Dróg i Transportu Miejskiego"/>
    <tag k="ref" v="73621"/>
    <tag k="source" v="zditm"/>
    <tag k="website" v="http://zditm.szczecin.pl/rozklady/index.html"/>
  </node>
  <node id="1025640305" version="1" timestamp="2010-12-06T22:58:34Z" uid="30632" user="antblant" changeset="6570002" lat="53.362762" lon="14.752225">
    <tag k="highway" v="bus_stop"/>
    <tag k="name" v="Przylesie nż"/>
    <tag k="operator" v="Zarząd Dróg i Transportu Miejskiego"/>
    <tag k="ref" v="74611"/>
    <tag k="source" v="zditm"/>
    <tag k="website" v="http://zditm.szczecin.pl/rozklady/index.html"/>
  </node>
</osm>
