<?xml version='1.0' encoding='UTF-8'?>
<osm version="0.6" generator="libosmium/2.20.0">
  <node id="102553303" version="2" timestamp="2008-09-12T02:43:03Z" uid="6975" user="ulfl" changeset="613727" lat="46.84" lon="11.324">
    <tag k="created_by" v="JOSM"/>
    <tag k="mountain_pass" v="yes"/>
    <tag k="name" v="Jaufenpass"/>
  </node>
  <node id="102553330" version="7" timestamp="2010-03-06T23:09:39Z" uid="6975" user="ulfl" changeset="4056061" lat="46.8396007" lon="11.3214787">
    <tag k="ele" v="2094"/>
    <tag k="mountain_pass" v="yes"/>
    <tag k="name" v="Jaufenpass"/>
    <tag k="wikipedia" v="http://de.wikipedia.org/wiki/Jaufenpass"/>
  </node>
  <node id="102559725" version="4" timestamp="2011-03-18T15:41:35Z" uid="4467" user="Rosscoe" changeset="7596453" lat="-34.9287057" lon="138.5697708">
    <tag k="amenity" v="pharmacy"/>
    <tag k="dispensing" v="yes"/>
  </node>
  <node id="102559946" version="9" timestamp="2009-09-01T09:42:38Z" uid="6975" user="ulfl" changeset="2335369" lat="46.5801703" lon="11.6222603">
    <tag k="ele" v="1437"/>
    <tag k="mountain_pass" v="yes"/>
    <tag k="name" v="Panidersattel"/>
    <tag k="name:it" v="passo Pinei"/>
  </node>
</osm>
