<?xml version='1.0' encoding='UTF-8'?>
<osm version="0.6" generator="libosmium/2.20.0">
  <node id="102571362" version="3" timestamp="2008-07-06T09:06:09Z" uid="6975" user="ulfl" changeset="407266" lat="48.2633127" lon="18.4551178">
    <tag k="name" v="Jadrová elektráreň Mochovce"/>
    <tag k="power" v="generator"/>
    <tag k="power_source" v="nuclear"/>
  </node>
  <node id="102571362" version="7" timestamp="2008-10-23T18:36:48Z" uid="6975" user="ulfl" changeset="530870" lat="48.2633127" lon="18.4551178">
    <tag k="name" v="Jadrová elektráreň Mochovce"/>
    <tag k="power" v="generator"/>
    <tag k="power_source" v="nuclear"/>
  </node>
  <node id="102574645" version="2" timestamp="2008-07-08T19:43:26Z" uid="6975" user="ulfl" changeset="431192" lat="45.4459989" lon="-73.814513">
    <tag k="name" v="Plaza Pointe-Claire"/>
    <tag k="shop" v="shopping_center"/>
  </node>
  <node id="102579336" version="8" timestamp="2010-07-12T03:00:49Z" uid="4467" user="Rosscoe" changeset="5195509" lat="-34.9317243" lon="138.5691787"/>
  <node id="102579429" version="12" timestamp="2011-03-18T15:41:24Z" uid="4467" user="Rosscoe" changeset="7596453" lat="-34.9313457" lon="138.5702436"/>
  <node id="102579661" version="5" timestamp="2008-07-03T15:53:14Z" uid="6975" user="ulfl" changeset="378199" lat="-34.9311708" lon="138.5700612">
    <tag k="is_in" v="Hilton,South Australia,Australia"/>
    <tag k="name" v="Hilton Hotel Bottle Shop"/>
    <tag k="postal_code" v="5033"/>
    <tag k="shop" v="beverages"/>
  </node>
  <node id="102579661" version="7" timestamp="2008-07-10T21:06:58Z" uid="6975" user="ulfl" changeset="457552" lat="-34.9311708" lon="138.5700612">
    <tag k="is_in" v="Hilton,South Australia,Australia"/>
    <tag k="name" v="Hilton Hotel Bottle Shop"/>
    <tag k="postal_code" v="5033"/>
    <tag k="shop" v="beverages"/>
  </node>
  <node id="102579661" version="9" timestamp="2008-09-14T16:30:20Z" uid="6975" user="ulfl" changeset="640534" lat="-34.9311708" lon="138.5700612">
    <tag k="is_in" v="Hilton,South Australia,Australia"/>
    <tag k="name" v="Hilton Hotel Bottle Shop"/>
    <tag k="postal_code" v="5033"/>
    <tag k="shop" v="beverages"/>
  </node>
  <node id="102579661" version="12" timestamp="2009-01-01T14:20:42Z" uid="6975" user="ulfl" changeset="699648" lat="-34.9311708" lon="138.5700612">
    <tag k="is_in" v="Hilton,South Australia,Australia"/>
    <tag k="name" v="Hilton Hotel Bottle Shop"/>
    <tag k="postal_code" v="5033"/>
    <tag k="shop" v="beverages"/>
    <tag k="source" v="survey"/>
  </node>
  <node id="102579661" version="14" timestamp="2009-02-01T19:08:20Z" uid="6975" user="ulfl" changeset="27333" lat="-34.9311708" lon="138.5700612">
    <tag k="is_in" v="Hilton,South Australia,Australia"/>
    <tag k="name" v="Hilton Hotel Bottle Shop"/>
    <tag k="postal_code" v="5033"/>
    <tag k="shop" v="beverages"/>
    <tag k="source" v="survey"/>
  </node>
</osm>
