<?xml version='1.0' encoding='UTF-8'?>
<osm version="0.6" generator="libosmium/2.20.0">
  <node id="1026284467" version="1" timestamp="2010-12-07T10:41:37Z" uid="30632" user="antblant" changeset="6573118" lat="53.435452" lon="14.561745">
    <tag k="highway" v="bus_stop"/>
    <tag k="name" v="Matejki"/>
    <tag k="operator" v="Zarząd Dróg i Transportu Miejskiego"/>
    <tag k="ref" v="13121"/>
    <tag k="source" v="zditm"/>
    <tag k="website" v="http://zditm.szczecin.pl/rozklady/index.html"/>
  </node>
  <node id="1026284478" version="1" timestamp="2010-12-07T10:41:38Z" uid="30632" user="antblant" changeset="6573118" lat="53.402561" lon="14.561659">
    <tag k="highway" v="bus_stop"/>
    <tag k="name" v="Ogrody Stoczniowiec"/>
    <tag k="operator" v="Zarząd Dróg i Transportu Miejskiego"/>
    <tag k="ref" v="62112"/>
    <tag k="source" v="zditm"/>
    <tag k="website" v="http://zditm.szczecin.pl/rozklady/index.html"/>
  </node>
  <node id="1026284482" version="1" timestamp="2010-12-07T10:41:38Z" uid="30632" user="antblant" changeset="6573118" lat="53.4173628" lon="14.5570668">
    <tag k="highway" v="bus_stop"/>
    <tag k="name" v="Składowa nż"/>
    <tag k="operator" v="Zarząd Dróg i Transportu Miejskiego"/>
    <tag k="ref" v="60811"/>
    <tag k="source" v="zditm"/>
    <tag k="website" v="http://zditm.szczecin.pl/rozklady/index.html"/>
  </node>
  <node id="1026284485" version="1" timestamp="2010-12-07T10:41:39Z" uid="30632" user="antblant" changeset="6573118" lat="53.436047" lon="14.560865">
    <tag k="highway" v="bus_stop"/>
    <tag k="name" v="Matejki"/>
    <tag k="operator" v="Zarząd Dróg i Transportu Miejskiego"/>
    <tag k="ref" v="13112"/>
    <tag k="source" v="zditm"/>
    <tag k="website" v="http://zditm.szczecin.pl/rozklady/index.html"/>
  </node>
  <node id="1026284495" version="1" timestamp="2010-12-07T10:41:39Z" uid="30632" user="antblant" changeset="6573118" lat="53.4332817" lon="14.5718214">
    <tag k="name" v="Dworzec Morski"/>
    <tag k="operator" v="Zarząd Dróg i Transportu Miejskiego"/>
    <tag k="public_transport" v="platform"/>
    <tag k="rail" v="yes"/>
    <tag k="ref" v="13412"/>
    <tag k="source" v="zditm"/>
    <tag k="website" v="http://zditm.szczecin.pl/rozklady/index.html"/>
  </node>
  <node id="1026284498" version="1" timestamp="2010-12-07T10:41:40Z" uid="30632" user="antblant" changeset="6573118" lat="53.423504" lon="14.558601">
    <tag k="highway" v="bus_stop"/>
    <tag k="name" v="Wyszyńskiego"/>
    <tag k="operator" v="Zarząd Dróg i Transportu Miejskiego"/>
    <tag k="ref" v="10918"/>
    <tag k="source" v="zditm"/>
    <tag k="website" v="http://zditm.szczecin.pl/rozklady/index.html"/>
  </node>
  <node id="1026284506" version="1" timestamp="2010-12-07T10:41:40Z" uid="30632" user="antblant" changeset="6573118" lat="53.401028" lon="14.598855">
    <tag k="highway" v="bus_stop"/>
    <tag k="name" v="Basen Górniczy"/>
    <tag k="operator" v="Zarząd Dróg i Transportu Miejskiego"/>
    <tag k="ref" v="60520"/>
    <tag k="source" v="zditm"/>
    <tag k="website" v="http://zditm.szczecin.pl/rozklady/index.html"/>
  </node>
  <node id="1026284510" version="1" timestamp="2010-12-07T10:41:41Z" uid="30632" user="antblant" changeset="6573118" lat="53.411919" lon="14.557936">
    <tag k="highway" v="bus_stop"/>
    <tag k="name" v="Marynarska"/>
    <tag k="operator" v="Zarząd Dróg i Transportu Miejskiego"/>
    <tag k="ref" v="61812"/>
    <tag k="source" v="zditm"/>
    <tag k="website" v="http://zditm.szczecin.pl/rozklady/index.html"/>
  </node>
  <node id="1026284515" version="1" timestamp="2010-12-07T10:41:41Z" uid="30632" user="antblant" changeset="6573118" lat="53.430042" lon="14.567496">
    <tag k="name" v="Wały Chrobrego"/>
    <tag k="operator" v="Zarząd Dróg i Transportu Miejskiego"/>
    <tag k="public_transport" v="platform"/>
    <tag k="rail" v="yes"/>
    <tag k="ref" v="13513"/>
    <tag k="source" v="zditm"/>
    <tag k="website" v="http://zditm.szczecin.pl/rozklady/index.html"/>
  </node>
  <node id="1026284520" version="1" timestamp="2010-12-07T10:41:42Z" uid="30632" user="antblant" changeset="6573118" lat="53.4414868" lon="14.5758207">
    <tag k="name" v="Antosiewicza (Hutnicza)"/>
    <tag k="operator" v="Zarząd Dróg i Transportu Miejskiego"/>
    <tag k="public_transport" v="platform"/>
    <tag k="rail" v="yes"/>
    <tag k="ref" v="16511"/>
    <tag k="source" v="zditm"/>
    <tag k="website" v="http://zditm.szczecin.pl/rozklady/index.html"/>
  </node>
  <node id="1026284524" version="1" timestamp="2010-12-07T10:41:42Z" uid="30632" user="antblant" changeset="6573118" lat="53.396847" lon="14.558741">
    <tag k="highway" v="bus_stop"/>
    <tag k="name" v="Kutrowa"/>
    <tag k="operator" v="Zarząd Dróg i Transportu Miejskiego"/>
    <tag k="ref" v="62211"/>
    <tag k="source" v="zditm"/>
    <tag k="website" v="http://zditm.szczecin.pl/rozklady/index.html"/>
  </node>
  <node id="1026284532" version="1" timestamp="2010-12-07T10:41:43Z" uid="30632" user="antblant" changeset="6573118" lat="53.438847" lon="14.573332">
    <tag k="highway" v="bus_stop"/>
    <tag k="name" v="Emilii Plater"/>
    <tag k="operator" v="Zarząd Dróg i Transportu Miejskiego"/>
    <tag k="ref" v="14011"/>
    <tag k="source" v="zditm"/>
    <tag k="website" v="http://zditm.szczecin.pl/rozklady/index.html"/>
  </node>
  <node id="1026284535" version="1" timestamp="2010-12-07T10:41:43Z" uid="30632" user="antblant" changeset="6573118" lat="53.427204" lon="14.581615">
    <tag k="highway" v="bus_stop"/>
    <tag k="name" v="Nabrzeże Ewa"/>
    <tag k="operator" v="Zarząd Dróg i Transportu Miejskiego"/>
    <tag k="ref" v="61511"/>
    <tag k="source" v="zditm"/>
    <tag k="website" v="http://zditm.szczecin.pl/rozklady/index.html"/>
  </node>
  <node id="1026284543" version="1" timestamp="2010-12-07T10:41:44Z" uid="30632" user="antblant" changeset="6573118" lat="53.436089" lon="14.56859">
    <tag k="name" v="Parkowa"/>
    <tag k="operator" v="Zarząd Dróg i Transportu Miejskiego"/>
    <tag k="public_transport" v="platform"/>
    <tag k="ref" v="13211"/>
    <tag k="source" v="zditm"/>
    <tag k="website" v="http://zditm.szczecin.pl/rozklady/index.html"/>
  </node>
  <node id="1026284547" version="1" timestamp="2010-12-07T10:41:44Z" uid="30632" user="antblant" changeset="6573118" lat="53.433029" lon="14.571197">
    <tag k="highway" v="bus_stop"/>
    <tag k="name" v="Dworzec Morski"/>
    <tag k="operator" v="Zarząd Dróg i Transportu Miejskiego"/>
    <tag k="ref" v="13411"/>
    <tag k="source" v="zditm"/>
    <tag k="website" v="http://zditm.szczecin.pl/rozklady/index.html"/>
  </node>
  <node id="1026284552" version="1" timestamp="2010-12-07T10:41:44Z" uid="30632" user="antblant" changeset="6573118" lat="53.4016178" lon="14.5992855">
    <tag k="highway" v="bus_stop"/>
    <tag k="name" v="Basen Górniczy nż"/>
    <tag k="operator" v="Zarząd Dróg i Transportu Miejskiego"/>
    <tag k="ref" v="60551"/>
    <tag k="source" v="zditm"/>
    <tag k="website" v="http://zditm.szczecin.pl/rozklady/index.html"/>
  </node>
  <node id="1026284555" version="1" timestamp="2010-12-07T10:41:44Z" uid="30632" user="antblant" changeset="6573118" lat="53.4152415" lon="14.5700799">
    <tag k="highway" v="bus_stop"/>
    <tag k="name" v="Baltona"/>
    <tag k="operator" v="Zarząd Dróg i Transportu Miejskiego"/>
    <tag k="ref" v="60211"/>
    <tag k="source" v="zditm"/>
    <tag k="website" v="http://zditm.szczecin.pl/rozklady/index.html"/>
  </node>
  <node id="1026284558" version="1" timestamp="2010-12-07T10:41:45Z" uid="30632" user="antblant" changeset="6573118" lat="53.407665" lon="14.56344">
    <tag k="highway" v="bus_stop"/>
    <tag k="name" v="Okrętowa"/>
    <tag k="operator" v="Zarząd Dróg i Transportu Miejskiego"/>
    <tag k="ref" v="62011"/>
    <tag k="source" v="zditm"/>
    <tag k="website" v="http://zditm.szczecin.pl/rozklady/index.html"/>
  </node>
  <node id="1026284567" version="1" timestamp="2010-12-07T10:41:45Z" uid="30632" user="antblant" changeset="6573118" lat="53.4212631" lon="14.5561708">
    <tag k="name" v="Dworcowa"/>
    <tag k="operator" v="Zarząd Dróg i Transportu Miejskiego"/>
    <tag k="public_transport" v="platform"/>
    <tag k="rail" v="yes"/>
    <tag k="ref" v="22711"/>
    <tag k="source" v="zditm"/>
    <tag k="website" v="http://zditm.szczecin.pl/rozklady/index.html"/>
  </node>
  <node id="1026284571" version="1" timestamp="2010-12-07T10:41:46Z" uid="30632" user="antblant" changeset="6573118" lat="53.397423" lon="14.609091">
    <tag k="highway" v="bus_stop"/>
    <tag k="name" v="Księżnej Anny nż"/>
    <tag k="operator" v="Zarząd Dróg i Transportu Miejskiego"/>
    <tag k="ref" v="60612"/>
    <tag k="source" v="zditm"/>
    <tag k="website" v="http://zditm.szczecin.pl/rozklady/index.html"/>
  </node>
  <node id="1026284577" version="1" timestamp="2010-12-07T10:41:46Z" uid="30632" user="antblant" changeset="6573118" lat="53.4234808" lon="14.558086"/>
  <node id="1026284578" version="1" timestamp="2010-12-07T10:41:46Z" uid="30632" user="antblant" changeset="6573118" lat="53.419098" lon="14.565688">
    <tag k="name" v="Energetyków"/>
    <tag k="operator" v="Zarząd Dróg i Transportu Miejskiego"/>
    <tag k="public_transport" v="platform"/>
    <tag k="rail" v="yes"/>
    <tag k="ref" v="60113"/>
    <tag k="source" v="zditm"/>
    <tag k="website" v="http://zditm.szczecin.pl/rozklady/index.html"/>
  </node>
  <node id="1026284586" version="1" timestamp="2010-12-07T10:41:46Z" uid="30632" user="antblant" changeset="6573118" lat="53.423599" lon="14.58111">
    <tag k="highway" v="bus_stop"/>
    <tag k="name" v="Ogrody Portowiec nż"/>
    <tag k="operator" v="Zarząd Dróg i Transportu Miejskiego"/>
    <tag k="ref" v="61412"/>
    <tag k="source" v="zditm"/>
    <tag k="website" v="http://zditm.szczecin.pl/rozklady/index.html"/>
  </node>
  <node id="1026284592" version="1" timestamp="2010-12-07T10:41:47Z" uid="30632" user="antblant" changeset="6573118" lat="53.405529" lon="14.594049">
    <tag k="highway" v="bus_stop"/>
    <tag k="name" v="Kotwiczna"/>
    <tag k="operator" v="Zarząd Dróg i Transportu Miejskiego"/>
    <tag k="ref" v="60411"/>
    <tag k="source" v="zditm"/>
    <tag k="website" v="http://zditm.szczecin.pl/rozklady/index.html"/>
  </node>
  <node id="1026284594" version="1" timestamp="2010-12-07T10:41:47Z" uid="30632" user="antblant" changeset="6573118" lat="53.42284" lon="14.560168">
    <tag k="highway" v="bus_stop"/>
    <tag k="name" v="Wyszyńskiego"/>
    <tag k="operator" v="Zarząd Dróg i Transportu Miejskiego"/>
    <tag k="ref" v="10922"/>
    <tag k="source" v="zditm"/>
    <tag k="website" v="http://zditm.szczecin.pl/rozklady/index.html"/>
  </node>
  <node id="1026284601" version="1" timestamp="2010-12-07T10:41:47Z" uid="30632" user="antblant" changeset="6573118" lat="53.431713" lon="14.556257">
    <tag k="highway" v="bus_stop"/>
    <tag k="name" v="Plac Rodła"/>
    <tag k="operator" v="Zarząd Dróg i Transportu Miejskiego"/>
    <tag k="ref" v="11521"/>
    <tag k="source" v="zditm"/>
    <tag k="website" v="http://zditm.szczecin.pl/rozklady/index.html"/>
  </node>
  <node id="1026284603" version="1" timestamp="2010-12-07T10:41:48Z" uid="30632" user="antblant" changeset="6573118" lat="53.4010695" lon="14.5993323">
    <tag k="name" v="Basen Górniczy"/>
    <tag k="operator" v="Zarząd Dróg i Transportu Miejskiego"/>
    <tag k="public_transport" v="platform"/>
    <tag k="rail" v="yes"/>
    <tag k="ref" v="60542"/>
    <tag k="source" v="zditm"/>
    <tag k="website" v="http://zditm.szczecin.pl/rozklady/index.html"/>
  </node>
  <node id="1026284604" version="1" timestamp="2010-12-07T10:41:48Z" uid="30632" user="antblant" changeset="6573118" lat="53.438141" lon="14.574759">
    <tag k="highway" v="bus_stop"/>
    <tag k="name" v="Dubois"/>
    <tag k="operator" v="Zarząd Dróg i Transportu Miejskiego"/>
    <tag k="ref" v="13312"/>
    <tag k="source" v="zditm"/>
    <tag k="website" v="http://zditm.szczecin.pl/rozklady/index.html"/>
  </node>
  <node id="1026284616" version="1" timestamp="2010-12-07T10:41:48Z" uid="30632" user="antblant" changeset="6573118" lat="53.39743" lon="14.618533">
    <tag k="highway" v="bus_stop"/>
    <tag k="name" v="Lotnisko nż"/>
    <tag k="operator" v="Zarząd Dróg i Transportu Miejskiego"/>
    <tag k="ref" v="70211"/>
    <tag k="source" v="zditm"/>
    <tag k="website" v="http://zditm.szczecin.pl/rozklady/index.html"/>
  </node>
  <node id="1026284618" version="1" timestamp="2010-12-07T10:41:48Z" uid="30632" user="antblant" changeset="6573118" lat="53.410966" lon="14.5813621">
    <tag k="name" v="Parnica"/>
    <tag k="operator" v="Zarząd Dróg i Transportu Miejskiego"/>
    <tag k="public_transport" v="platform"/>
    <tag k="rail" v="yes"/>
    <tag k="ref" v="60312"/>
    <tag k="source" v="zditm"/>
    <tag k="website" v="http://zditm.szczecin.pl/rozklady/index.html"/>
  </node>
  <node id="1026284628" version="1" timestamp="2010-12-07T10:41:49Z" uid="30632" user="antblant" changeset="6573118" lat="53.4177405" lon="14.5691623">
    <tag k="highway" v="bus_stop"/>
    <tag k="name" v="Bytomska"/>
    <tag k="operator" v="Zarząd Dróg i Transportu Miejskiego"/>
    <tag k="ref" v="61121"/>
    <tag k="source" v="zditm"/>
    <tag k="website" v="http://zditm.szczecin.pl/rozklady/index.html"/>
  </node>
  <node id="1026284631" version="1" timestamp="2010-12-07T10:41:50Z" uid="30632" user="antblant" changeset="6573118" lat="53.4348277" lon="14.5601858">
    <tag k="name" v="Matejki"/>
    <tag k="operator" v="Zarząd Dróg i Transportu Miejskiego"/>
    <tag k="public_transport" v="platform"/>
    <tag k="ref" v="13132"/>
    <tag k="source" v="zditm"/>
    <tag k="website" v="http://zditm.szczecin.pl/rozklady/index.html"/>
  </node>
  <node id="1026284642" version="1" timestamp="2010-12-07T10:41:50Z" uid="30632" user="antblant" changeset="6573118" lat="53.441677" lon="14.574823">
    <tag k="name" v="Stocznia Szczecińska"/>
    <tag k="operator" v="Zarząd Dróg i Transportu Miejskiego"/>
    <tag k="public_transport" v="platform"/>
    <tag k="rail" v="yes"/>
    <tag k="ref" v="16432"/>
    <tag k="source" v="zditm"/>
    <tag k="website" v="http://zditm.szczecin.pl/rozklady/index.html"/>
  </node>
  <node id="1026284644" version="1" timestamp="2010-12-07T10:41:50Z" uid="30632" user="antblant" changeset="6573118" lat="53.4007" lon="14.598769">
    <tag k="highway" v="bus_stop"/>
    <tag k="name" v="Basen Górniczy"/>
    <tag k="operator" v="Zarząd Dróg i Transportu Miejskiego"/>
    <tag k="ref" v="60524"/>
    <tag k="source" v="zditm"/>
    <tag k="website" v="http://zditm.szczecin.pl/rozklady/index.html"/>
  </node>
  <node id="1026284647" version="1" timestamp="2010-12-07T10:41:50Z" uid="30632" user="antblant" changeset="6573118" lat="53.4097375" lon="14.5593596">
    <tag k="highway" v="bus_stop"/>
    <tag k="name" v="Wiejska"/>
    <tag k="operator" v="Zarząd Dróg i Transportu Miejskiego"/>
    <tag k="ref" v="61912"/>
    <tag k="source" v="zditm"/>
    <tag k="website" v="http://zditm.szczecin.pl/rozklady/index.html"/>
  </node>
  <node id="1026284654" version="1" timestamp="2010-12-07T10:41:51Z" uid="30632" user="antblant" changeset="6573118" lat="53.39642" lon="14.616913">
    <tag k="highway" v="bus_stop"/>
    <tag k="name" v="Most Cłowy nż"/>
    <tag k="operator" v="Zarząd Dróg i Transportu Miejskiego"/>
    <tag k="ref" v="70112"/>
    <tag k="source" v="zditm"/>
    <tag k="website" v="http://zditm.szczecin.pl/rozklady/index.html"/>
  </node>
  <node id="1026284657" version="1" timestamp="2010-12-07T10:41:51Z" uid="30632" user="antblant" changeset="6573118" lat="53.42329" lon="14.558204">
    <tag k="highway" v="bus_stop"/>
    <tag k="name" v="Wyszyńskiego"/>
    <tag k="operator" v="Zarząd Dróg i Transportu Miejskiego"/>
    <tag k="ref" v="10912"/>
    <tag k="source" v="zditm"/>
    <tag k="website" v="http://zditm.szczecin.pl/rozklady/index.html"/>
  </node>
  <node id="1026284666" version="1" timestamp="2010-12-07T10:41:52Z" uid="30632" user="antblant" changeset="6573118" lat="53.439861" lon="14.561573">
    <tag k="highway" v="bus_stop"/>
    <tag k="name" v="Sczanieckiej"/>
    <tag k="operator" v="Zarząd Dróg i Transportu Miejskiego"/>
    <tag k="ref" v="14122"/>
    <tag k="source" v="zditm"/>
    <tag k="website" v="http://zditm.szczecin.pl/rozklady/index.html"/>
  </node>
  <node id="1026284668" version="1" timestamp="2010-12-07T10:41:52Z" uid="30632" user="antblant" changeset="6573118" lat="53.420063" lon="14.560382">
    <tag k="highway" v="bus_stop"/>
    <tag k="name" v="Celna nż"/>
    <tag k="operator" v="Zarząd Dróg i Transportu Miejskiego"/>
    <tag k="ref" v="60711"/>
    <tag k="source" v="zditm"/>
    <tag k="website" v="http://zditm.szczecin.pl/rozklady/index.html"/>
  </node>
  <node id="1026284671" version="1" timestamp="2010-12-07T10:41:52Z" uid="30632" user="antblant" changeset="6573118" lat="53.43612" lon="14.5605061">
    <tag k="highway" v="bus_stop"/>
    <tag k="name" v="Matejki"/>
    <tag k="operator" v="Zarząd Dróg i Transportu Miejskiego"/>
    <tag k="ref" v="13111"/>
    <tag k="source" v="zditm"/>
    <tag k="website" v="http://zditm.szczecin.pl/rozklady/index.html"/>
  </node>
  <node id="1026284677" version="1" timestamp="2010-12-07T10:41:53Z" uid="30632" user="antblant" changeset="6573118" lat="53.4110551" lon="14.5811089">
    <tag k="highway" v="crossing"/>
  </node>
  <node id="1026284680" version="1" timestamp="2010-12-07T10:41:53Z" uid="30632" user="antblant" changeset="6573118" lat="53.423351" lon="14.55888">
    <tag k="highway" v="bus_stop"/>
    <tag k="name" v="Wyszyńskiego"/>
    <tag k="operator" v="Zarząd Dróg i Transportu Miejskiego"/>
    <tag k="ref" v="10917"/>
    <tag k="source" v="zditm"/>
    <tag k="website" v="http://zditm.szczecin.pl/rozklady/index.html"/>
  </node>
  <node id="1026284682" version="1" timestamp="2010-12-07T10:41:53Z" uid="30632" user="antblant" changeset="6573118" lat="53.430355" lon="14.567796">
    <tag k="name" v="Wały Chrobrego"/>
    <tag k="operator" v="Zarząd Dróg i Transportu Miejskiego"/>
    <tag k="public_transport" v="platform"/>
    <tag k="rail" v="yes"/>
    <tag k="ref" v="13512"/>
    <tag k="source" v="zditm"/>
    <tag k="website" v="http://zditm.szczecin.pl/rozklady/index.html"/>
  </node>
  <node id="1026284694" version="1" timestamp="2010-12-07T10:41:54Z" uid="30632" user="antblant" changeset="6573118" lat="53.4052092" lon="14.5941832">
    <tag k="name" v="Merkatora"/>
    <tag k="operator" v="Zarząd Dróg i Transportu Miejskiego"/>
    <tag k="public_transport" v="platform"/>
    <tag k="rail" v="yes"/>
    <tag k="ref" v="60413"/>
    <tag k="source" v="zditm"/>
    <tag k="website" v="http://zditm.szczecin.pl/rozklady/index.html"/>
  </node>
  <node id="1026284697" version="1" timestamp="2010-12-07T10:41:54Z" uid="30632" user="antblant" changeset="6573118" lat="53.421413" lon="14.555265">
    <tag k="highway" v="bus_stop"/>
    <tag k="name" v="Dworcowa"/>
    <tag k="operator" v="Zarząd Dróg i Transportu Miejskiego"/>
    <tag k="ref" v="22731"/>
    <tag k="source" v="zditm"/>
    <tag k="website" v="http://zditm.szczecin.pl/rozklady/index.html"/>
  </node>
  <node id="1026284705" version="1" timestamp="2010-12-07T10:41:55Z" uid="30632" user="antblant" changeset="6573118" lat="53.437099" lon="14.573858">
    <tag k="highway" v="bus_stop"/>
    <tag k="name" v="Dubois"/>
    <tag k="operator" v="Zarząd Dróg i Transportu Miejskiego"/>
    <tag k="ref" v="13322"/>
    <tag k="source" v="zditm"/>
    <tag k="website" v="http://zditm.szczecin.pl/rozklady/index.html"/>
  </node>
  <node id="1026284707" version="1" timestamp="2010-12-07T10:41:55Z" uid="30632" user="antblant" changeset="6573118" lat="53.41148" lon="14.579593">
    <tag k="highway" v="bus_stop"/>
    <tag k="name" v="Parnica"/>
    <tag k="operator" v="Zarząd Dróg i Transportu Miejskiego"/>
    <tag k="ref" v="60314"/>
    <tag k="source" v="zditm"/>
    <tag k="website" v="http://zditm.szczecin.pl/rozklady/index.html"/>
  </node>
  <node id="1026284717" version="1" timestamp="2010-12-07T10:41:55Z" uid="30632" user="antblant" changeset="6573118" lat="53.425144" lon="14.556477">
    <tag k="highway" v="bus_stop"/>
    <tag k="name" v="Grodzka"/>
    <tag k="operator" v="Zarząd Dróg i Transportu Miejskiego"/>
    <tag k="ref" v="11011"/>
    <tag k="source" v="zditm"/>
    <tag k="website" v="http://zditm.szczecin.pl/rozklady/index.html"/>
  </node>
  <node id="1026284719" version="1" timestamp="2010-12-07T10:41:55Z" uid="30632" user="antblant" changeset="6573118" lat="53.4159396" lon="14.560183">
    <tag k="highway" v="bus_stop"/>
    <tag k="name" v="Kanał Parnicki nż"/>
    <tag k="operator" v="Zarząd Dróg i Transportu Miejskiego"/>
    <tag k="ref" v="61711"/>
    <tag k="source" v="zditm"/>
    <tag k="website" v="http://zditm.szczecin.pl/rozklady/index.html"/>
  </node>
  <node id="1026284721" version="1" timestamp="2010-12-07T10:41:56Z" uid="30632" user="antblant" changeset="6573118" lat="53.414928" lon="14.570049">
    <tag k="highway" v="bus_stop"/>
    <tag k="name" v="Baltona"/>
    <tag k="operator" v="Zarząd Dróg i Transportu Miejskiego"/>
    <tag k="ref" v="60214"/>
    <tag k="source" v="zditm"/>
    <tag k="website" v="http://zditm.szczecin.pl/rozklady/index.html"/>
  </node>
  <node id="1026284731" version="1" timestamp="2010-12-07T10:41:56Z" uid="30632" user="antblant" changeset="6573118" lat="53.430202" lon="14.565446">
    <tag k="highway" v="bus_stop"/>
    <tag k="name" v="Teatr Współczesny"/>
    <tag k="operator" v="Zarząd Dróg i Transportu Miejskiego"/>
    <tag k="ref" v="13811"/>
    <tag k="source" v="zditm"/>
    <tag k="website" v="http://zditm.szczecin.pl/rozklady/index.html"/>
  </node>
  <node id="1026284732" version="1" timestamp="2010-12-07T10:41:56Z" uid="30632" user="antblant" changeset="6573118" lat="53.4230911" lon="14.5806719">
    <tag k="highway" v="bus_stop"/>
    <tag k="name" v="Ogrody Portowiec nż"/>
    <tag k="operator" v="Zarząd Dróg i Transportu Miejskiego"/>
    <tag k="ref" v="61411"/>
    <tag k="source" v="zditm"/>
    <tag k="website" v="http://zditm.szczecin.pl/rozklady/index.html"/>
  </node>
  <node id="1026284740" version="1" timestamp="2010-12-07T10:41:57Z" uid="30632" user="antblant" changeset="6573118" lat="53.4356696" lon="14.568602"/>
  <node id="1026284742" version="1" timestamp="2010-12-07T10:41:57Z" uid="30632" user="antblant" changeset="6573118" lat="53.423058" lon="14.559835">
    <tag k="name" v="Wyszyńskiego"/>
    <tag k="operator" v="Zarząd Dróg i Transportu Miejskiego"/>
    <tag k="public_transport" v="platform"/>
    <tag k="ref" v="10921"/>
    <tag k="source" v="zditm"/>
    <tag k="website" v="http://zditm.szczecin.pl/rozklady/index.html"/>
  </node>
  <node id="1026284745" version="1" timestamp="2010-12-07T10:41:57Z" uid="30632" user="antblant" changeset="6573118" lat="53.4010488" lon="14.599169">
    <tag k="name" v="Basen Górniczy"/>
    <tag k="operator" v="Zarząd Dróg i Transportu Miejskiego"/>
    <tag k="public_transport" v="platform"/>
    <tag k="rail" v="yes"/>
    <tag k="ref" v="60541"/>
    <tag k="source" v="zditm"/>
    <tag k="website" v="http://zditm.szczecin.pl/rozklady/index.html"/>
  </node>
  <node id="1026284751" version="1" timestamp="2010-12-07T10:41:57Z" uid="30632" user="antblant" changeset="6573118" lat="53.438496" lon="14.574603">
    <tag k="name" v="Dubois"/>
    <tag k="operator" v="Zarząd Dróg i Transportu Miejskiego"/>
    <tag k="public_transport" v="platform"/>
    <tag k="ref" v="13311"/>
    <tag k="source" v="zditm"/>
    <tag k="tram" v="yes"/>
    <tag k="website" v="http://zditm.szczecin.pl/rozklady/index.html"/>
  </node>
  <node id="1026284757" version="1" timestamp="2010-12-07T10:41:57Z" uid="30632" user="antblant" changeset="6573118" lat="53.400738" lon="14.598416">
    <tag k="highway" v="bus_stop"/>
    <tag k="name" v="Basen Górniczy"/>
    <tag k="operator" v="Zarząd Dróg i Transportu Miejskiego"/>
    <tag k="ref" v="60511"/>
    <tag k="source" v="zditm"/>
    <tag k="website" v="http://zditm.szczecin.pl/rozklady/index.html"/>
  </node>
  <node id="1026284771" version="1" timestamp="2010-12-07T10:41:58Z" uid="30632" user="antblant" changeset="6573118" lat="53.417488" lon="14.571873">
    <tag k="highway" v="bus_stop"/>
    <tag k="name" v="Bytomska"/>
    <tag k="operator" v="Zarząd Dróg i Transportu Miejskiego"/>
    <tag k="ref" v="61111"/>
    <tag k="source" v="zditm"/>
    <tag k="website" v="http://zditm.szczecin.pl/rozklady/index.html"/>
  </node>
  <node id="1026284777" version="1" timestamp="2010-12-07T10:41:58Z" uid="30632" user="antblant" changeset="6573118" lat="53.434959" lon="14.560468">
    <tag k="highway" v="bus_stop"/>
    <tag k="name" v="Matejki"/>
    <tag k="operator" v="Zarząd Dróg i Transportu Miejskiego"/>
    <tag k="ref" v="13131"/>
    <tag k="source" v="zditm"/>
    <tag k="website" v="http://zditm.szczecin.pl/rozklady/index.html"/>
  </node>
  <node id="1026284784" version="1" timestamp="2010-12-07T10:41:58Z" uid="30632" user="antblant" changeset="6573118" lat="53.441708" lon="14.574748">
    <tag k="name" v="Stocznia Szczecińska"/>
    <tag k="operator" v="Zarząd Dróg i Transportu Miejskiego"/>
    <tag k="public_transport" v="platform"/>
    <tag k="rail" v="yes"/>
    <tag k="ref" v="16431"/>
    <tag k="source" v="zditm"/>
    <tag k="website" v="http://zditm.szczecin.pl/rozklady/index.html"/>
  </node>
  <node id="1026284804" version="1" timestamp="2010-12-07T10:41:59Z" uid="30632" user="antblant" changeset="6573118" lat="53.400841" lon="14.598754">
    <tag k="highway" v="bus_stop"/>
    <tag k="name" v="Basen Górniczy"/>
    <tag k="operator" v="Zarząd Dróg i Transportu Miejskiego"/>
    <tag k="ref" v="60523"/>
    <tag k="source" v="zditm"/>
    <tag k="website" v="http://zditm.szczecin.pl/rozklady/index.html"/>
  </node>
  <node id="1026284809" version="1" timestamp="2010-12-07T10:41:59Z" uid="30632" user="antblant" changeset="6573118" lat="53.4117186" lon="14.5579616">
    <tag k="highway" v="bus_stop"/>
    <tag k="name" v="Marynarska"/>
    <tag k="operator" v="Zarząd Dróg i Transportu Miejskiego"/>
    <tag k="ref" v="61811"/>
    <tag k="source" v="zditm"/>
    <tag k="website" v="http://zditm.szczecin.pl/rozklady/index.html"/>
  </node>
  <node id="1026284813" version="1" timestamp="2010-12-07T10:42:00Z" uid="30632" user="antblant" changeset="6573118" lat="53.3956933" lon="14.6154914">
    <tag k="highway" v="bus_stop"/>
    <tag k="name" v="Most Cłowy nż"/>
    <tag k="operator" v="Zarząd Dróg i Transportu Miejskiego"/>
    <tag k="ref" v="70111"/>
    <tag k="source" v="zditm"/>
    <tag k="website" v="http://zditm.szczecin.pl/rozklady/index.html"/>
  </node>
  <node id="1026284814" version="1" timestamp="2010-12-07T10:42:00Z" uid="30632" user="antblant" changeset="6573118" lat="53.423088" lon="14.558548">
    <tag k="highway" v="bus_stop"/>
    <tag k="name" v="Wyszyńskiego"/>
    <tag k="operator" v="Zarząd Dróg i Transportu Miejskiego"/>
    <tag k="ref" v="10911"/>
    <tag k="source" v="zditm"/>
    <tag k="website" v="http://zditm.szczecin.pl/rozklady/index.html"/>
  </node>
  <node id="1026284822" version="1" timestamp="2010-12-07T10:42:00Z" uid="30632" user="antblant" changeset="6573118" lat="53.429729" lon="14.559857">
    <tag k="highway" v="bus_stop"/>
    <tag k="name" v="Starzyńskiego"/>
    <tag k="operator" v="Zarząd Dróg i Transportu Miejskiego"/>
    <tag k="ref" v="13912"/>
    <tag k="source" v="zditm"/>
    <tag k="website" v="http://zditm.szczecin.pl/rozklady/index.html"/>
  </node>
  <node id="1026284823" version="1" timestamp="2010-12-07T10:42:00Z" uid="30632" user="antblant" changeset="6573118" lat="53.419514" lon="14.560361">
    <tag k="highway" v="bus_stop"/>
    <tag k="name" v="Bulwar Gdański nż"/>
    <tag k="operator" v="Zarząd Dróg i Transportu Miejskiego"/>
    <tag k="ref" v="61011"/>
    <tag k="source" v="zditm"/>
    <tag k="website" v="http://zditm.szczecin.pl/rozklady/index.html"/>
  </node>
  <node id="1026284828" version="1" timestamp="2010-12-07T10:42:01Z" uid="30632" user="antblant" changeset="6573118" lat="53.432755" lon="14.571471">
    <tag k="highway" v="bus_stop"/>
    <tag k="name" v="Dworzec Morski"/>
    <tag k="operator" v="Zarząd Dróg i Transportu Miejskiego"/>
    <tag k="ref" v="13414"/>
    <tag k="source" v="zditm"/>
    <tag k="website" v="http://zditm.szczecin.pl/rozklady/index.html"/>
  </node>
  <node id="1026284834" version="1" timestamp="2010-12-07T10:42:01Z" uid="30632" user="antblant" changeset="6573118" lat="53.439724" lon="14.562131">
    <tag k="highway" v="bus_stop"/>
    <tag k="name" v="Sczanieckiej"/>
    <tag k="operator" v="Zarząd Dróg i Transportu Miejskiego"/>
    <tag k="ref" v="14121"/>
    <tag k="source" v="zditm"/>
    <tag k="website" v="http://zditm.szczecin.pl/rozklady/index.html"/>
  </node>
  <node id="1026284837" version="1" timestamp="2010-12-07T10:42:01Z" uid="30632" user="antblant" changeset="6573118" lat="53.400967" lon="14.598739">
    <tag k="highway" v="bus_stop"/>
    <tag k="name" v="Basen Górniczy"/>
    <tag k="operator" v="Zarząd Dróg i Transportu Miejskiego"/>
    <tag k="ref" v="60522"/>
    <tag k="source" v="zditm"/>
    <tag k="website" v="http://zditm.szczecin.pl/rozklady/index.html"/>
  </node>
  <node id="1026284843" version="1" timestamp="2010-12-07T10:42:02Z" uid="30632" user="antblant" changeset="6573118" lat="53.405155" lon="14.594554">
    <tag k="name" v="Merkatora"/>
    <tag k="operator" v="Zarząd Dróg i Transportu Miejskiego"/>
    <tag k="public_transport" v="platform"/>
    <tag k="rail" v="yes"/>
    <tag k="ref" v="60412"/>
    <tag k="source" v="zditm"/>
    <tag k="website" v="http://zditm.szczecin.pl/rozklady/index.html"/>
  </node>
  <node id="1026284845" version="1" timestamp="2010-12-07T10:42:02Z" uid="30632" user="antblant" changeset="6573118" lat="53.420574" lon="14.555297">
    <tag k="highway" v="bus_stop"/>
    <tag k="name" v="Dworcowa"/>
    <tag k="operator" v="Zarząd Dróg i Transportu Miejskiego"/>
    <tag k="ref" v="22723"/>
    <tag k="source" v="zditm"/>
    <tag k="website" v="http://zditm.szczecin.pl/rozklady/index.html"/>
  </node>
  <node id="1026284848" version="1" timestamp="2010-12-07T10:42:02Z" uid="30632" user="antblant" changeset="6573118" lat="53.396969" lon="14.607482">
    <tag k="highway" v="bus_stop"/>
    <tag k="name" v="Księżnej Anny nż"/>
    <tag k="operator" v="Zarząd Dróg i Transportu Miejskiego"/>
    <tag k="ref" v="60611"/>
    <tag k="source" v="zditm"/>
    <tag k="website" v="http://zditm.szczecin.pl/rozklady/index.html"/>
  </node>
  <node id="1026284854" version="1" timestamp="2010-12-07T10:42:03Z" uid="30632" user="antblant" changeset="6573118" lat="53.43124" lon="14.556906">
    <tag k="highway" v="bus_stop"/>
    <tag k="name" v="Plac Rodła"/>
    <tag k="operator" v="Zarząd Dróg i Transportu Miejskiego"/>
    <tag k="ref" v="11526"/>
    <tag k="source" v="zditm"/>
    <tag k="website" v="http://zditm.szczecin.pl/rozklady/index.html"/>
  </node>
  <node id="1026284858" version="1" timestamp="2010-12-07T10:42:03Z" uid="30632" user="antblant" changeset="6573118" lat="53.437233" lon="14.574115">
    <tag k="name" v="Dubois"/>
    <tag k="operator" v="Zarząd Dróg i Transportu Miejskiego"/>
    <tag k="public_transport" v="platform"/>
    <tag k="ref" v="13321"/>
    <tag k="source" v="zditm"/>
    <tag k="tram" v="yes"/>
    <tag k="website" v="http://zditm.szczecin.pl/rozklady/index.html"/>
  </node>
  <node id="1026284863" version="1" timestamp="2010-12-07T10:42:03Z" uid="30632" user="antblant" changeset="6573118" lat="53.39473" lon="14.557121">
    <tag k="highway" v="bus_stop"/>
    <tag k="name" v="Wyspa Pucka"/>
    <tag k="operator" v="Zarząd Dróg i Transportu Miejskiego"/>
    <tag k="ref" v="62311"/>
    <tag k="source" v="zditm"/>
    <tag k="website" v="http://zditm.szczecin.pl/rozklady/index.html"/>
  </node>
  <node id="1026284864" version="1" timestamp="2010-12-07T10:42:03Z" uid="30632" user="antblant" changeset="6573118" lat="53.4192501" lon="14.5656406">
    <tag k="name" v="Energetyków"/>
    <tag k="operator" v="Zarząd Dróg i Transportu Miejskiego"/>
    <tag k="public_transport" v="platform"/>
    <tag k="rail" v="yes"/>
    <tag k="ref" v="60112"/>
    <tag k="source" v="zditm"/>
    <tag k="website" v="http://zditm.szczecin.pl/rozklady/index.html"/>
  </node>
  <node id="1026284872" version="1" timestamp="2010-12-07T10:42:04Z" uid="30632" user="antblant" changeset="6573118" lat="53.414646" lon="14.569201">
    <tag k="highway" v="bus_stop"/>
    <tag k="name" v="Port Centralny"/>
    <tag k="operator" v="Zarząd Dróg i Transportu Miejskiego"/>
    <tag k="ref" v="61612"/>
    <tag k="source" v="zditm"/>
    <tag k="website" v="http://zditm.szczecin.pl/rozklady/index.html"/>
  </node>
  <node id="1026284873" version="1" timestamp="2010-12-07T10:42:04Z" uid="30632" user="antblant" changeset="6573118" lat="53.415051" lon="14.570146">
    <tag k="name" v="Baltona"/>
    <tag k="operator" v="Zarząd Dróg i Transportu Miejskiego"/>
    <tag k="public_transport" v="platform"/>
    <tag k="rail" v="yes"/>
    <tag k="ref" v="60213"/>
    <tag k="source" v="zditm"/>
    <tag k="website" v="http://zditm.szczecin.pl/rozklady/index.html"/>
  </node>
  <node id="1026284875" version="1" timestamp="2010-12-07T10:42:04Z" uid="30632" user="antblant" changeset="6573118" lat="53.41148" lon="14.58044">
    <tag k="highway" v="bus_stop"/>
    <tag k="name" v="Parnica"/>
    <tag k="operator" v="Zarząd Dróg i Transportu Miejskiego"/>
    <tag k="ref" v="60311"/>
    <tag k="source" v="zditm"/>
    <tag k="website" v="http://zditm.szczecin.pl/rozklady/index.html"/>
  </node>
  <node id="1026284884" version="1" timestamp="2010-12-07T10:42:05Z" uid="30632" user="antblant" changeset="6573118" lat="53.430539" lon="14.5658298">
    <tag k="highway" v="bus_stop"/>
    <tag k="name" v="Urząd Wojewódzki"/>
    <tag k="operator" v="Zarząd Dróg i Transportu Miejskiego"/>
    <tag k="ref" v="13711"/>
    <tag k="source" v="zditm"/>
    <tag k="website" v="http://zditm.szczecin.pl/rozklady/index.html"/>
  </node>
  <node id="1026284885" version="1" timestamp="2010-12-07T10:42:05Z" uid="30632" user="antblant" changeset="6573118" lat="53.4205411" lon="14.5555932">
    <tag k="name" v="Dworcowa"/>
    <tag k="operator" v="Zarząd Dróg i Transportu Miejskiego"/>
    <tag k="public_transport" v="platform"/>
    <tag k="rail" v="yes"/>
    <tag k="ref" v="22722"/>
    <tag k="source" v="zditm"/>
    <tag k="website" v="http://zditm.szczecin.pl/rozklady/index.html"/>
  </node>
  <node id="1026284893" version="1" timestamp="2010-12-07T10:42:05Z" uid="30632" user="antblant" changeset="6573118" lat="53.409519" lon="14.559621">
    <tag k="highway" v="bus_stop"/>
    <tag k="name" v="Wiejska"/>
    <tag k="operator" v="Zarząd Dróg i Transportu Miejskiego"/>
    <tag k="ref" v="61911"/>
    <tag k="source" v="zditm"/>
    <tag k="website" v="http://zditm.szczecin.pl/rozklady/index.html"/>
  </node>
  <node id="1026284894" version="1" timestamp="2010-12-07T10:42:05Z" uid="30632" user="antblant" changeset="6573118" lat="53.440296" lon="14.563558">
    <tag k="highway" v="bus_stop"/>
    <tag k="name" v="Sczanieckiej"/>
    <tag k="operator" v="Zarząd Dróg i Transportu Miejskiego"/>
    <tag k="ref" v="14112"/>
    <tag k="source" v="zditm"/>
    <tag k="website" v="http://zditm.szczecin.pl/rozklady/index.html"/>
  </node>
  <node id="1026284902" version="1" timestamp="2010-12-07T10:42:06Z" uid="30632" user="antblant" changeset="6573118" lat="53.415611" lon="14.577302">
    <tag k="highway" v="bus_stop"/>
    <tag k="name" v="Hryniewieckiego nż"/>
    <tag k="operator" v="Zarząd Dróg i Transportu Miejskiego"/>
    <tag k="ref" v="61212"/>
    <tag k="source" v="zditm"/>
    <tag k="website" v="http://zditm.szczecin.pl/rozklady/index.html"/>
  </node>
  <node id="1026284904" version="1" timestamp="2010-12-07T10:42:06Z" uid="30632" user="antblant" changeset="6573118" lat="53.423157" lon="14.55917">
    <tag k="highway" v="bus_stop"/>
    <tag k="name" v="Wyszyńskiego"/>
    <tag k="operator" v="Zarząd Dróg i Transportu Miejskiego"/>
    <tag k="ref" v="10916"/>
    <tag k="source" v="zditm"/>
    <tag k="website" v="http://zditm.szczecin.pl/rozklady/index.html"/>
  </node>
  <node id="1026284905" version="1" timestamp="2010-12-07T10:42:06Z" uid="30632" user="antblant" changeset="6573118" lat="53.40044" lon="14.598815">
    <tag k="highway" v="bus_stop"/>
    <tag k="name" v="Basen Górniczy"/>
    <tag k="operator" v="Zarząd Dróg i Transportu Miejskiego"/>
    <tag k="ref" v="60526"/>
    <tag k="source" v="zditm"/>
    <tag k="website" v="http://zditm.szczecin.pl/rozklady/index.html"/>
  </node>
  <node id="1026284911" version="1" timestamp="2010-12-07T10:42:07Z" uid="30632" user="antblant" changeset="6573118" lat="53.416031" lon="14.560618">
    <tag k="highway" v="bus_stop"/>
    <tag k="name" v="Kanał Parnicki nż"/>
    <tag k="operator" v="Zarząd Dróg i Transportu Miejskiego"/>
    <tag k="ref" v="61712"/>
    <tag k="source" v="zditm"/>
    <tag k="website" v="http://zditm.szczecin.pl/rozklady/index.html"/>
  </node>
  <node id="1026284915" version="1" timestamp="2010-12-07T10:42:07Z" uid="30632" user="antblant" changeset="6573118" lat="53.429985" lon="14.559846">
    <tag k="highway" v="bus_stop"/>
    <tag k="name" v="Starzyńskiego"/>
    <tag k="operator" v="Zarząd Dróg i Transportu Miejskiego"/>
    <tag k="ref" v="13911"/>
    <tag k="source" v="zditm"/>
    <tag k="website" v="http://zditm.szczecin.pl/rozklady/index.html"/>
  </node>
  <node id="1026284919" version="1" timestamp="2010-12-07T10:42:07Z" uid="30632" user="antblant" changeset="6573118" lat="53.4173558" lon="14.5572451">
    <tag k="highway" v="bus_stop"/>
    <tag k="name" v="Składowa nż"/>
    <tag k="operator" v="Zarząd Dróg i Transportu Miejskiego"/>
    <tag k="ref" v="60812"/>
    <tag k="source" v="zditm"/>
    <tag k="website" v="http://zditm.szczecin.pl/rozklady/index.html"/>
  </node>
  <node id="1026284923" version="1" timestamp="2010-12-07T10:42:08Z" uid="30632" user="antblant" changeset="6573118" lat="53.431732" lon="14.5556021">
    <tag k="name" v="Plac Rodła"/>
    <tag k="public_transport" v="stop_position"/>
    <tag k="ref" v="11524"/>
  </node>
  <node id="1026284925" version="1" timestamp="2010-12-07T10:42:08Z" uid="30632" user="antblant" changeset="6573118" lat="53.401093" lon="14.598693">
    <tag k="highway" v="bus_stop"/>
    <tag k="name" v="Basen Górniczy"/>
    <tag k="operator" v="Zarząd Dróg i Transportu Miejskiego"/>
    <tag k="ref" v="60521"/>
    <tag k="source" v="zditm"/>
    <tag k="website" v="http://zditm.szczecin.pl/rozklady/index.html"/>
  </node>
  <node id="1026284928" version="1" timestamp="2010-12-07T10:42:08Z" uid="30632" user="antblant" changeset="6573118" lat="53.402393" lon="14.561455">
    <tag k="highway" v="bus_stop"/>
    <tag k="name" v="Ogrody Stoczniowiec"/>
    <tag k="operator" v="Zarząd Dróg i Transportu Miejskiego"/>
    <tag k="ref" v="62111"/>
    <tag k="source" v="zditm"/>
    <tag k="website" v="http://zditm.szczecin.pl/rozklady/index.html"/>
  </node>
  <node id="1026284933" version="1" timestamp="2010-12-07T10:42:08Z" uid="30632" user="antblant" changeset="6573118" lat="53.430569" lon="14.56844">
    <tag k="highway" v="bus_stop"/>
    <tag k="name" v="Wały Chrobrego"/>
    <tag k="operator" v="Zarząd Dróg i Transportu Miejskiego"/>
    <tag k="ref" v="13514"/>
    <tag k="source" v="zditm"/>
    <tag k="website" v="http://zditm.szczecin.pl/rozklady/index.html"/>
  </node>
  <node id="1026284937" version="1" timestamp="2010-12-07T10:42:09Z" uid="30632" user="antblant" changeset="6573118" lat="53.431335" lon="14.55637">
    <tag k="highway" v="bus_stop"/>
    <tag k="name" v="Plac Rodła"/>
    <tag k="operator" v="Zarząd Dróg i Transportu Miejskiego"/>
    <tag k="ref" v="11525"/>
    <tag k="source" v="zditm"/>
    <tag k="website" v="http://zditm.szczecin.pl/rozklady/index.html"/>
  </node>
  <node id="1026284940" version="1" timestamp="2010-12-07T10:42:09Z" uid="30632" user="antblant" changeset="6573118" lat="53.437859" lon="14.573343">
    <tag k="highway" v="bus_stop"/>
    <tag k="name" v="Dubois"/>
    <tag k="operator" v="Zarząd Dróg i Transportu Miejskiego"/>
    <tag k="ref" v="13332"/>
    <tag k="source" v="zditm"/>
    <tag k="website" v="http://zditm.szczecin.pl/rozklady/index.html"/>
  </node>
  <node id="1026284944" version="1" timestamp="2010-12-07T10:42:10Z" uid="30632" user="antblant" changeset="6573118" lat="53.3970907" lon="14.5590304">
    <tag k="highway" v="bus_stop"/>
    <tag k="name" v="Kutrowa"/>
    <tag k="operator" v="Zarząd Dróg i Transportu Miejskiego"/>
    <tag k="ref" v="62212"/>
    <tag k="source" v="zditm"/>
    <tag k="website" v="http://zditm.szczecin.pl/rozklady/index.html"/>
  </node>
  <node id="1026284948" version="1" timestamp="2010-12-07T10:42:10Z" uid="30632" user="antblant" changeset="6573118" lat="53.430458" lon="14.5577">
    <tag k="name" v="Matejki PZU"/>
    <tag k="operator" v="Zarząd Dróg i Transportu Miejskiego"/>
    <tag k="public_transport" v="platform"/>
    <tag k="ref" v="11412"/>
    <tag k="source" v="zditm"/>
    <tag k="website" v="http://zditm.szczecin.pl/rozklady/index.html"/>
  </node>
  <node id="1026284952" version="1" timestamp="2010-12-07T10:42:10Z" uid="30632" user="antblant" changeset="6573118" lat="53.419285" lon="14.5658515">
    <tag k="highway" v="bus_stop"/>
    <tag k="name" v="Energetyków"/>
    <tag k="operator" v="Zarząd Dróg i Transportu Miejskiego"/>
    <tag k="ref" v="60111"/>
    <tag k="source" v="zditm"/>
    <tag k="website" v="http://zditm.szczecin.pl/rozklady/index.html"/>
  </node>
  <node id="1026284957" version="1" timestamp="2010-12-07T10:42:11Z" uid="30632" user="antblant" changeset="6573118" lat="53.417927" lon="14.578611">
    <tag k="highway" v="bus_stop"/>
    <tag k="name" v="PŻM"/>
    <tag k="operator" v="Zarząd Dróg i Transportu Miejskiego"/>
    <tag k="ref" v="61312"/>
    <tag k="source" v="zditm"/>
    <tag k="website" v="http://zditm.szczecin.pl/rozklady/index.html"/>
  </node>
  <node id="1026284958" version="1" timestamp="2010-12-07T10:42:11Z" uid="30632" user="antblant" changeset="6573118" lat="53.42252" lon="14.558891">
    <tag k="name" v="Wyszyńskiego"/>
    <tag k="operator" v="Zarząd Dróg i Transportu Miejskiego"/>
    <tag k="public_transport" v="platform"/>
    <tag k="ref" v="10932"/>
    <tag k="source" v="zditm"/>
    <tag k="website" v="http://zditm.szczecin.pl/rozklady/index.html"/>
  </node>
  <node id="1026284961" version="1" timestamp="2010-12-07T10:42:11Z" uid="30632" user="antblant" changeset="6573118" lat="53.40134" lon="14.598765">
    <tag k="highway" v="bus_stop"/>
    <tag k="name" v="Basen Górniczy"/>
    <tag k="operator" v="Zarząd Dróg i Transportu Miejskiego"/>
    <tag k="ref" v="60531"/>
    <tag k="source" v="zditm"/>
    <tag k="website" v="http://zditm.szczecin.pl/rozklady/index.html"/>
  </node>
  <node id="1026284968" version="1" timestamp="2010-12-07T10:42:12Z" uid="30632" user="antblant" changeset="6573118" lat="53.4071479" lon="14.5638457">
    <tag k="highway" v="bus_stop"/>
    <tag k="name" v="Okrętowa"/>
    <tag k="operator" v="Zarząd Dróg i Transportu Miejskiego"/>
    <tag k="ref" v="62012"/>
    <tag k="source" v="zditm"/>
    <tag k="website" v="http://zditm.szczecin.pl/rozklady/index.html"/>
  </node>
  <node id="1026284969" version="1" timestamp="2010-12-07T10:42:12Z" uid="30632" user="antblant" changeset="6573118" lat="53.420437" lon="14.555619">
    <tag k="highway" v="bus_stop"/>
    <tag k="name" v="Dworcowa nż"/>
    <tag k="operator" v="Zarząd Dróg i Transportu Miejskiego"/>
    <tag k="ref" v="22721"/>
    <tag k="source" v="zditm"/>
    <tag k="website" v="http://zditm.szczecin.pl/rozklady/index.html"/>
  </node>
  <node id="1026284977" version="1" timestamp="2010-12-07T10:42:12Z" uid="30632" user="antblant" changeset="6573118" lat="53.435303" lon="14.56094">
    <tag k="name" v="Matejki"/>
    <tag k="operator" v="Zarząd Dróg i Transportu Miejskiego"/>
    <tag k="public_transport" v="platform"/>
    <tag k="ref" v="13122"/>
    <tag k="source" v="zditm"/>
    <tag k="website" v="http://zditm.szczecin.pl/rozklady/index.html"/>
  </node>
  <node id="1026284979" version="1" timestamp="2010-12-07T10:42:13Z" uid="30632" user="antblant" changeset="6573118" lat="53.426159" lon="14.589554">
    <tag k="highway" v="bus_stop"/>
    <tag k="name" v="Logistyczna"/>
    <tag k="operator" v="Zarząd Dróg i Transportu Miejskiego"/>
    <tag k="ref" v="62711"/>
    <tag k="source" v="zditm"/>
    <tag k="website" v="http://zditm.szczecin.pl/rozklady/index.html"/>
  </node>
  <node id="1026284988" version="1" timestamp="2010-12-07T10:42:13Z" uid="30632" user="antblant" changeset="6573118" lat="53.4410266" lon="14.5634462">
    <tag k="highway" v="bus_stop"/>
    <tag k="name" v="Sczanieckiej"/>
    <tag k="operator" v="Zarząd Dróg i Transportu Miejskiego"/>
    <tag k="ref" v="14111"/>
    <tag k="source" v="zditm"/>
    <tag k="website" v="http://zditm.szczecin.pl/rozklady/index.html"/>
  </node>
  <node id="1026284993" version="1" timestamp="2010-12-07T10:42:13Z" uid="30632" user="antblant" changeset="6573118" lat="53.415672" lon="14.577098">
    <tag k="highway" v="bus_stop"/>
    <tag k="name" v="Hryniewieckiego nż"/>
    <tag k="operator" v="Zarząd Dróg i Transportu Miejskiego"/>
    <tag k="ref" v="61211"/>
    <tag k="source" v="zditm"/>
    <tag k="website" v="http://zditm.szczecin.pl/rozklady/index.html"/>
  </node>
  <node id="1026284997" version="1" timestamp="2010-12-07T10:42:14Z" uid="30632" user="antblant" changeset="6573118" lat="53.4348334" lon="14.5554213">
    <tag k="highway" v="bus_stop"/>
    <tag k="name" v="Malczewskiego"/>
    <tag k="operator" v="Zarząd Dróg i Transportu Miejskiego"/>
    <tag k="ref" v="13011"/>
    <tag k="source" v="zditm"/>
    <tag k="website" v="http://zditm.szczecin.pl/rozklady/index.html"/>
  </node>
  <node id="1026285003" version="1" timestamp="2010-12-07T10:42:14Z" uid="30632" user="antblant" changeset="6573118" lat="53.4329818" lon="14.571528">
    <tag k="name" v="Dworzec Morski"/>
    <tag k="operator" v="Zarząd Dróg i Transportu Miejskiego"/>
    <tag k="public_transport" v="platform"/>
    <tag k="rail" v="yes"/>
    <tag k="ref" v="13413"/>
    <tag k="source" v="zditm"/>
    <tag k="website" v="http://zditm.szczecin.pl/rozklady/index.html"/>
  </node>
  <node id="1026285007" version="1" timestamp="2010-12-07T10:42:15Z" uid="30632" user="antblant" changeset="6573118" lat="53.4233789" lon="14.5585097">
    <tag k="name" v="Wyszyńskiego"/>
    <tag k="operator" v="Zarząd Dróg i Transportu Miejskiego"/>
    <tag k="public_transport" v="platform"/>
    <tag k="ref" v="10915"/>
    <tag k="source" v="zditm"/>
    <tag k="website" v="http://zditm.szczecin.pl/rozklady/index.html"/>
  </node>
  <node id="1026285011" version="1" timestamp="2010-12-07T10:42:15Z" uid="30632" user="antblant" changeset="6573118" lat="53.400562" lon="14.5988">
    <tag k="highway" v="bus_stop"/>
    <tag k="name" v="Basen Górniczy"/>
    <tag k="operator" v="Zarząd Dróg i Transportu Miejskiego"/>
    <tag k="ref" v="60525"/>
    <tag k="source" v="zditm"/>
    <tag k="website" v="http://zditm.szczecin.pl/rozklady/index.html"/>
  </node>
  <node id="1026285015" version="1" timestamp="2010-12-07T10:42:16Z" uid="30632" user="antblant" changeset="6573118" lat="53.4411794" lon="14.5759322">
    <tag k="highway" v="bus_stop"/>
    <tag k="name" v="Antosiewicza (Hutnicza)"/>
    <tag k="operator" v="Zarząd Dróg i Transportu Miejskiego"/>
    <tag k="ref" v="16512"/>
    <tag k="source" v="zditm"/>
    <tag k="website" v="http://zditm.szczecin.pl/rozklady/index.html"/>
  </node>
  <node id="1026285018" version="1" timestamp="2010-12-07T10:42:16Z" uid="30632" user="antblant" changeset="6573118" lat="53.423466" lon="14.557872">
    <tag k="highway" v="bus_stop"/>
    <tag k="name" v="Wyszyńskiego"/>
    <tag k="operator" v="Zarząd Dróg i Transportu Miejskiego"/>
    <tag k="ref" v="10913"/>
    <tag k="source" v="zditm"/>
    <tag k="website" v="http://zditm.szczecin.pl/rozklady/index.html"/>
  </node>
  <node id="1026285021" version="1" timestamp="2010-12-07T10:42:17Z" uid="30632" user="antblant" changeset="6573118" lat="53.438904" lon="14.572731">
    <tag k="highway" v="bus_stop"/>
    <tag k="name" v="Emilii Plater"/>
    <tag k="operator" v="Zarząd Dróg i Transportu Miejskiego"/>
    <tag k="ref" v="14012"/>
    <tag k="source" v="zditm"/>
    <tag k="website" v="http://zditm.szczecin.pl/rozklady/index.html"/>
  </node>
  <node id="1026285025" version="1" timestamp="2010-12-07T10:42:17Z" uid="30632" user="antblant" changeset="6573118" lat="53.414604" lon="14.568901">
    <tag k="highway" v="bus_stop"/>
    <tag k="name" v="Port Centralny"/>
    <tag k="operator" v="Zarząd Dróg i Transportu Miejskiego"/>
    <tag k="ref" v="61611"/>
    <tag k="source" v="zditm"/>
    <tag k="website" v="http://zditm.szczecin.pl/rozklady/index.html"/>
  </node>
  <node id="1026285028" version="1" timestamp="2010-12-07T10:42:18Z" uid="30632" user="antblant" changeset="6573118" lat="53.435501" lon="14.567667">
    <tag k="name" v="Parkowa"/>
    <tag k="operator" v="Zarząd Dróg i Transportu Miejskiego"/>
    <tag k="public_transport" v="platform"/>
    <tag k="ref" v="13221"/>
    <tag k="source" v="zditm"/>
    <tag k="website" v="http://zditm.szczecin.pl/rozklady/index.html"/>
  </node>
  <node id="1026285029" version="1" timestamp="2010-12-07T10:42:18Z" uid="30632" user="antblant" changeset="6573118" lat="53.423096" lon="14.55888">
    <tag k="name" v="Wyszyńskiego"/>
    <tag k="operator" v="Zarząd Dróg i Transportu Miejskiego"/>
    <tag k="public_transport" v="platform"/>
    <tag k="ref" v="10914"/>
    <tag k="source" v="zditm"/>
    <tag k="website" v="http://zditm.szczecin.pl/rozklady/index.html"/>
  </node>
  <node id="1026285035" version="1" timestamp="2010-12-07T10:42:18Z" uid="30632" user="antblant" changeset="6573118" lat="53.4315459" lon="14.557118">
    <tag k="highway" v="bus_stop"/>
    <tag k="name" v="Plac Rodła"/>
    <tag k="operator" v="Zarząd Dróg i Transportu Miejskiego"/>
    <tag k="ref" v="11523"/>
    <tag k="source" v="zditm"/>
    <tag k="website" v="http://zditm.szczecin.pl/rozklady/index.html"/>
  </node>
  <node id="1026285039" version="1" timestamp="2010-12-07T10:42:19Z" uid="30632" user="antblant" changeset="6573118" lat="53.415138" lon="14.56992">
    <tag k="name" v="Baltona"/>
    <tag k="operator" v="Zarząd Dróg i Transportu Miejskiego"/>
    <tag k="public_transport" v="platform"/>
    <tag k="rail" v="yes"/>
    <tag k="ref" v="60212"/>
    <tag k="source" v="zditm"/>
    <tag k="website" v="http://zditm.szczecin.pl/rozklady/index.html"/>
  </node>
  <node id="1026285041" version="1" timestamp="2010-12-07T10:42:19Z" uid="30632" user="antblant" changeset="6573118" lat="53.431763" lon="14.56756">
    <tag k="highway" v="bus_stop"/>
    <tag k="name" v="Admiralska"/>
    <tag k="operator" v="Zarząd Dróg i Transportu Miejskiego"/>
    <tag k="ref" v="13611"/>
    <tag k="source" v="zditm"/>
    <tag k="website" v="http://zditm.szczecin.pl/rozklady/index.html"/>
  </node>
  <node id="1026285046" version="1" timestamp="2010-12-07T10:42:20Z" uid="30632" user="antblant" changeset="6573118" lat="53.404842" lon="14.594661">
    <tag k="highway" v="bus_stop"/>
    <tag k="name" v="Kotwiczna"/>
    <tag k="operator" v="Zarząd Dróg i Transportu Miejskiego"/>
    <tag k="ref" v="60414"/>
    <tag k="source" v="zditm"/>
    <tag k="website" v="http://zditm.szczecin.pl/rozklady/index.html"/>
  </node>
  <node id="1026285050" version="1" timestamp="2010-12-07T10:42:20Z" uid="30632" user="antblant" changeset="6573118" lat="53.39748" lon="14.609209">
    <tag k="highway" v="bus_stop"/>
    <tag k="name" v="Księżnej Anny nż"/>
    <tag k="operator" v="Zarząd Dróg i Transportu Miejskiego"/>
    <tag k="ref" v="60613"/>
    <tag k="source" v="zditm"/>
    <tag k="website" v="http://zditm.szczecin.pl/rozklady/index.html"/>
  </node>
  <node id="1026285051" version="1" timestamp="2010-12-07T10:42:20Z" uid="30632" user="antblant" changeset="6573118" lat="53.43774" lon="14.572468">
    <tag k="name" v="Dubois"/>
    <tag k="operator" v="Zarząd Dróg i Transportu Miejskiego"/>
    <tag k="public_transport" v="platform"/>
    <tag k="ref" v="13331"/>
    <tag k="source" v="zditm"/>
    <tag k="tram" v="yes"/>
    <tag k="website" v="http://zditm.szczecin.pl/rozklady/index.html"/>
  </node>
  <node id="1026285055" version="1" timestamp="2010-12-07T10:42:20Z" uid="30632" user="antblant" changeset="6573118" lat="53.430233" lon="14.5574615">
    <tag k="name" v="Matejki PZU"/>
    <tag k="operator" v="Zarząd Dróg i Transportu Miejskiego"/>
    <tag k="public_transport" v="platform"/>
    <tag k="ref" v="11411"/>
    <tag k="source" v="zditm"/>
    <tag k="website" v="http://zditm.szczecin.pl/rozklady/index.html"/>
  </node>
  <node id="1026285061" version="1" timestamp="2010-12-07T10:42:21Z" uid="30632" user="antblant" changeset="6573118" lat="53.418766" lon="14.566069">
    <tag k="highway" v="bus_stop"/>
    <tag k="name" v="Energetyków"/>
    <tag k="operator" v="Zarząd Dróg i Transportu Miejskiego"/>
    <tag k="ref" v="60114"/>
    <tag k="source" v="zditm"/>
    <tag k="website" v="http://zditm.szczecin.pl/rozklady/index.html"/>
  </node>
  <node id="1026285062" version="1" timestamp="2010-12-07T10:42:21Z" uid="30632" user="antblant" changeset="6573118" lat="53.419827" lon="14.579254">
    <tag k="highway" v="bus_stop"/>
    <tag k="name" v="PŻM"/>
    <tag k="operator" v="Zarząd Dróg i Transportu Miejskiego"/>
    <tag k="ref" v="61311"/>
    <tag k="source" v="zditm"/>
    <tag k="website" v="http://zditm.szczecin.pl/rozklady/index.html"/>
  </node>
  <node id="1026285063" version="1" timestamp="2010-12-07T10:42:21Z" uid="30632" user="antblant" changeset="6573118" lat="53.430672" lon="14.567957">
    <tag k="highway" v="bus_stop"/>
    <tag k="name" v="Wały Chrobrego"/>
    <tag k="operator" v="Zarząd Dróg i Transportu Miejskiego"/>
    <tag k="ref" v="13511"/>
    <tag k="source" v="zditm"/>
    <tag k="website" v="http://zditm.szczecin.pl/rozklady/index.html"/>
  </node>
  <node id="1026285071" version="1" timestamp="2010-12-07T10:42:22Z" uid="30632" user="antblant" changeset="6573118" lat="53.422333" lon="14.558913">
    <tag k="highway" v="bus_stop"/>
    <tag k="name" v="Wyszyńskiego"/>
    <tag k="operator" v="Zarząd Dróg i Transportu Miejskiego"/>
    <tag k="ref" v="10931"/>
    <tag k="source" v="zditm"/>
    <tag k="website" v="http://zditm.szczecin.pl/rozklady/index.html"/>
  </node>
  <node id="1026285072" version="1" timestamp="2010-12-07T10:42:22Z" uid="30632" user="antblant" changeset="6573118" lat="53.431576" lon="14.557314">
    <tag k="highway" v="bus_stop"/>
    <tag k="name" v="Plac Rodła"/>
    <tag k="operator" v="Zarząd Dróg i Transportu Miejskiego"/>
    <tag k="ref" v="11522"/>
    <tag k="source" v="zditm"/>
    <tag k="website" v="http://zditm.szczecin.pl/rozklady/index.html"/>
  </node>
  <node id="1026285082" version="1" timestamp="2010-12-07T10:42:22Z" uid="30632" user="antblant" changeset="6573118" lat="53.400322" lon="14.598876">
    <tag k="highway" v="bus_stop"/>
    <tag k="name" v="Basen Górniczy"/>
    <tag k="operator" v="Zarząd Dróg i Transportu Miejskiego"/>
    <tag k="ref" v="60527"/>
    <tag k="source" v="zditm"/>
    <tag k="website" v="http://zditm.szczecin.pl/rozklady/index.html"/>
  </node>
  <node id="1026285083" version="1" timestamp="2010-12-07T10:42:22Z" uid="30632" user="antblant" changeset="6573118" lat="53.39716" lon="14.619809">
    <tag k="highway" v="bus_stop"/>
    <tag k="name" v="Lotnisko nż"/>
    <tag k="operator" v="Zarząd Dróg i Transportu Miejskiego"/>
    <tag k="ref" v="70212"/>
    <tag k="source" v="zditm"/>
    <tag k="website" v="http://zditm.szczecin.pl/rozklady/index.html"/>
  </node>
  <node id="1026285084" version="1" timestamp="2010-12-07T10:42:22Z" uid="30632" user="antblant" changeset="6573118" lat="53.411106" lon="14.580832">
    <tag k="name" v="Parnica"/>
    <tag k="operator" v="Zarząd Dróg i Transportu Miejskiego"/>
    <tag k="public_transport" v="platform"/>
    <tag k="rail" v="yes"/>
    <tag k="ref" v="60313"/>
    <tag k="source" v="zditm"/>
    <tag k="website" v="http://zditm.szczecin.pl/rozklady/index.html"/>
  </node>
</osm>
