<?xml version='1.0' encoding='UTF-8'?>
<osm version="0.6" generator="libosmium/2.20.0">
  <node id="104391614" version="5" timestamp="2008-08-23T19:36:43Z" uid="36809" user="pfoten_weg_!_" changeset="380911" lat="48.0971" lon="11.5138314">
    <tag k="created_by" v="RambaZamba"/>
    <tag k="name" v="U3"/>
    <tag k="railway" v="subway_entrance"/>
  </node>
  <node id="104391614" version="6" timestamp="2008-10-01T01:57:42Z" uid="36809" user="pfoten_weg_!_" changeset="5644" lat="48.0971" lon="11.5138314">
    <tag k="created_by" v="RambaZamba"/>
    <tag k="name" v="U3"/>
    <tag k="railway" v="subway_entrance"/>
  </node>
  <node id="104391614" version="8" timestamp="2009-06-12T20:31:30Z" uid="36809" user="pfoten_weg_!_" changeset="1500134" lat="48.0971" lon="11.5138314">
    <tag k="created_by" v="RambaZamba"/>
    <tag k="name" v="Machtlfinger Straße"/>
    <tag k="railway" v="subway_entrance"/>
    <tag k="ref" v="U3"/>
    <tag k="source" v="survey"/>
  </node>
  <node id="104391614" version="10" timestamp="2009-08-31T21:10:57Z" uid="36809" user="pfoten_weg_!_" changeset="2331411" lat="48.0971" lon="11.5138314">
    <tag k="name" v="Machtlfinger Straße"/>
    <tag k="railway" v="subway_entrance"/>
    <tag k="ref" v="U3"/>
    <tag k="source" v="survey"/>
  </node>
  <node id="104391614" version="11" timestamp="2009-10-13T23:06:32Z" uid="36809" user="pfoten_weg_!_" changeset="2841175" lat="48.0971" lon="11.5138314">
    <tag k="name" v="Machtlfinger Straße"/>
    <tag k="railway" v="subway_entrance"/>
    <tag k="ref" v="U3"/>
  </node>
  <node id="104393310" version="3" timestamp="2008-08-23T23:46:46Z" uid="36809" user="pfoten_weg_!_" changeset="384601" lat="48.0985937" lon="11.5380234">
    <tag k="bicycle" v="yes"/>
    <tag k="created_by" v="RambaZamba"/>
    <tag k="railway" v="subway_entrance"/>
  </node>
  <node id="104393310" version="4" timestamp="2008-10-01T01:51:51Z" uid="36809" user="pfoten_weg_!_" changeset="5644" lat="48.0985937" lon="11.5380234">
    <tag k="bicycle" v="yes"/>
    <tag k="created_by" v="RambaZamba"/>
    <tag k="railway" v="subway_entrance"/>
  </node>
  <node id="104393310" version="11" timestamp="2009-06-08T13:38:56Z" uid="36809" user="pfoten_weg_!_" changeset="1458869" lat="48.0986041" lon="11.5379467">
    <tag k="bicycle" v="yes"/>
    <tag k="created_by" v="RambaZamba"/>
    <tag k="name" v="Obersendling"/>
    <tag k="railway" v="subway_entrance"/>
    <tag k="ref" v="U3"/>
    <tag k="source" v="survey"/>
  </node>
  <node id="104393310" version="13" timestamp="2009-08-31T21:10:43Z" uid="36809" user="pfoten_weg_!_" changeset="2331411" lat="48.0986041" lon="11.5379467">
    <tag k="bicycle" v="yes"/>
    <tag k="name" v="Obersendling"/>
    <tag k="railway" v="subway_entrance"/>
    <tag k="ref" v="U3"/>
    <tag k="source" v="survey"/>
  </node>
  <node id="104393310" version="14" timestamp="2009-10-13T23:39:52Z" uid="36809" user="pfoten_weg_!_" changeset="2841273" lat="48.0986041" lon="11.5379467">
    <tag k="bicycle" v="yes"/>
    <tag k="name" v="Obersendling"/>
    <tag k="railway" v="subway_entrance"/>
    <tag k="ref" v="U3"/>
  </node>
  <node id="104393314" version="3" timestamp="2008-08-23T23:46:45Z" uid="36809" user="pfoten_weg_!_" changeset="384601" lat="48.0985942" lon="11.5381021">
    <tag k="created_by" v="RambaZamba"/>
    <tag k="highway" v="crossing"/>
  </node>
  <node id="104393314" version="4" timestamp="2008-10-01T01:51:50Z" uid="36809" user="pfoten_weg_!_" changeset="5644" lat="48.0985942" lon="11.5381021">
    <tag k="created_by" v="RambaZamba"/>
    <tag k="highway" v="crossing"/>
  </node>
  <node id="104393314" version="5" timestamp="2009-02-15T12:51:16Z" uid="36809" user="pfoten_weg_!_" changeset="463903" lat="48.0985942" lon="11.5381021">
    <tag k="created_by" v="RambaZamba"/>
    <tag k="highway" v="crossing"/>
    <tag k="source" v="survey"/>
  </node>
  <node id="104393314" version="9" timestamp="2009-06-08T13:38:56Z" uid="36809" user="pfoten_weg_!_" changeset="1458869" lat="48.0985953" lon="11.5380872">
    <tag k="created_by" v="RambaZamba"/>
    <tag k="crossing" v="uncontrolled"/>
    <tag k="crossing_ref" v="zebra"/>
    <tag k="highway" v="crossing"/>
    <tag k="source" v="survey"/>
  </node>
  <node id="104393314" version="11" timestamp="2009-10-13T23:39:53Z" uid="36809" user="pfoten_weg_!_" changeset="2841273" lat="48.0985953" lon="11.5380872">
    <tag k="crossing" v="uncontrolled"/>
    <tag k="crossing_ref" v="zebra"/>
    <tag k="highway" v="crossing"/>
  </node>
  <node id="104395553" version="4" timestamp="2008-10-01T01:46:51Z" uid="36809" user="pfoten_weg_!_" changeset="5644" lat="48.1010683" lon="11.5470059">
    <tag k="bicycle" v="yes"/>
    <tag k="created_by" v="RambaZamba"/>
    <tag k="name" v="U 3"/>
    <tag k="railway" v="subway_entrance"/>
  </node>
  <node id="104395553" version="8" timestamp="2009-08-31T21:10:13Z" uid="36809" user="pfoten_weg_!_" changeset="2331411" lat="48.1010683" lon="11.5470059">
    <tag k="bicycle" v="yes"/>
    <tag k="name" v="Thalkirchen"/>
    <tag k="railway" v="subway_entrance"/>
    <tag k="ref" v="U3"/>
  </node>
  <node id="104395562" version="6" timestamp="2008-10-01T01:46:52Z" uid="36809" user="pfoten_weg_!_" changeset="5644" lat="48.1014485" lon="11.5468853">
    <tag k="created_by" v="RambaZamba"/>
    <tag k="name" v="U 3"/>
    <tag k="railway" v="subway_entrance"/>
  </node>
  <node id="104395562" version="11" timestamp="2009-08-31T21:10:13Z" uid="36809" user="pfoten_weg_!_" changeset="2331411" lat="48.1014485" lon="11.5468853">
    <tag k="lift" v="yes"/>
    <tag k="name" v="Thalkirchen"/>
    <tag k="note" v="lift only"/>
    <tag k="railway" v="subway_entrance"/>
    <tag k="ref" v="U3"/>
    <tag k="wheelchair" v="yes"/>
  </node>
</osm>
