<?xml version='1.0' encoding='UTF-8'?>
<osm version="0.6" generator="libosmium/2.20.0">
  <node id="1055052231" version="1" timestamp="2010-12-21T18:12:31Z" uid="34428" user="usm78-gis" changeset="6727868" lat="60.2732377" lon="29.5305102">
    <tag k="name" v="Мухино"/>
    <tag k="name:fi" v="Sahakylä"/>
    <tag k="place" v="hamlet"/>
  </node>
  <node id="1055052240" version="1" timestamp="2010-12-21T18:12:32Z" uid="34428" user="usm78-gis" changeset="6727868" lat="60.294464" lon="29.4892061">
    <tag k="name" v="Яковлево"/>
    <tag k="name:fi" v="Mustamäki"/>
    <tag k="old_name:ru" v="Мустамяки"/>
    <tag k="place" v="hamlet"/>
  </node>
  <node id="1055052257" version="1" timestamp="2010-12-21T18:12:32Z" uid="34428" user="usm78-gis" changeset="6727868" lat="60.2782016" lon="29.4646078">
    <tag k="name" v="Байково"/>
    <tag k="name:fi" v="Sykiälä"/>
    <tag k="place" v="hamlet"/>
  </node>
  <node id="1055052263" version="1" timestamp="2010-12-21T18:12:32Z" uid="34428" user="usm78-gis" changeset="6727868" lat="60.2677407" lon="29.4362861">
    <tag k="name" v="Горьковское"/>
    <tag k="name:fi" v="Neuvola"/>
    <tag k="old_name:ru" v="Нейвола"/>
    <tag k="place" v="village"/>
  </node>
  <node id="1055052271" version="1" timestamp="2010-12-21T18:12:32Z" uid="34428" user="usm78-gis" changeset="6727868" lat="60.3966347" lon="29.5160071">
    <tag k="name" v="Нахимовское"/>
    <tag k="name:fi" v="Hyrilä"/>
    <tag k="old_name:ru" v="Хюриля"/>
    <tag k="place" v="hamlet"/>
  </node>
</osm>
