<?xml version='1.0' encoding='UTF-8'?>
<osm version="0.6" generator="libosmium/2.20.0">
  <node id="1076273475" version="2" timestamp="2011-03-14T02:55:12Z" uid="4467" user="Rosscoe" changeset="7552527" lat="-36.7269653" lon="146.9609069">
    <tag k="addr:city" v="Bright"/>
    <tag k="addr:housenumber" v="115"/>
    <tag k="addr:postcode" v="3741"/>
    <tag k="addr:street" v="Gavan Street"/>
    <tag k="amenity" v="doctor"/>
    <tag k="name" v="Bright Medical Centre"/>
    <tag k="telephone" v="(03) 5750 1000"/>
    <tag k="website" v="http://www.brightmedicalcentre.com.au"/>
  </node>
  <node id="1076273493" version="2" timestamp="2011-03-14T02:55:18Z" uid="4467" user="Rosscoe" changeset="7552527" lat="-36.7271144" lon="146.9604102">
    <tag k="addr:city" v="Bright"/>
    <tag k="addr:housenumber" v="109"/>
    <tag k="addr:postcode" v="3741"/>
    <tag k="addr:street" v="Gavan Street"/>
    <tag k="name" v="Le Blanche Ice Creamery"/>
    <tag k="shop" v="ice_cream"/>
  </node>
  <node id="1076273509" version="2" timestamp="2011-03-14T02:55:25Z" uid="4467" user="Rosscoe" changeset="7552527" lat="-36.7262339" lon="146.9624887">
    <tag k="amenity" v="cafe"/>
    <tag k="name" v="Bright Green Cafe"/>
    <tag k="todo" v="survey position"/>
  </node>
  <node id="1076273571" version="2" timestamp="2011-03-14T02:55:35Z" uid="4467" user="Rosscoe" changeset="7552527" lat="-36.7265365" lon="146.9608449"/>
  <node id="1076273575" version="2" timestamp="2011-03-14T02:55:35Z" uid="4467" user="Rosscoe" changeset="7552527" lat="-36.7264747" lon="146.9607513"/>
  <node id="1076273586" version="2" timestamp="2011-03-14T02:55:35Z" uid="4467" user="Rosscoe" changeset="7552527" lat="-36.7265345" lon="146.9610803"/>
  <node id="1076273655" version="2" timestamp="2011-03-14T02:55:35Z" uid="4467" user="Rosscoe" changeset="7552527" lat="-36.7265607" lon="146.960813"/>
  <node id="1076273656" version="2" timestamp="2011-03-14T02:55:17Z" uid="4467" user="Rosscoe" changeset="7552527" lat="-36.7268937" lon="146.9610259"/>
  <node id="1076273659" version="2" timestamp="2011-03-14T02:55:35Z" uid="4467" user="Rosscoe" changeset="7552527" lat="-36.7265736" lon="146.9611107"/>
  <node id="1076273661" version="2" timestamp="2011-03-14T02:55:14Z" uid="4467" user="Rosscoe" changeset="7552527" lat="-36.7265792" lon="146.9608184"/>
</osm>
