<?xml version='1.0' encoding='UTF-8'?>
<osm version="0.6" generator="libosmium/2.20.0">
  <node id="107741869" version="3" timestamp="2008-02-16T20:43:18Z" uid="6975" user="ulfl" changeset="141861" lat="53.4020192" lon="-2.9834127">
    <tag k="amenity" v="restaurant"/>
    <tag k="name" v="May Flower Chinese Restraunt"/>
  </node>
  <node id="107742546" version="7" timestamp="2008-02-16T20:43:19Z" uid="6975" user="ulfl" changeset="141861" lat="53.401707" lon="-2.9830608">
    <tag k="amenity" v="restaurant"/>
    <tag k="name" v="Christakis Greek Tavern"/>
    <tag k="note" v="Greek"/>
  </node>
  <node id="107744775" version="3" timestamp="2008-02-16T20:43:19Z" uid="6975" user="ulfl" changeset="141861" lat="53.4016098" lon="-2.9831123">
    <tag k="amenity" v="restaurant"/>
    <tag k="name" v="Saint Petersburg Russian Restraunt"/>
  </node>
  <node id="107748607" version="4" timestamp="2008-02-16T20:43:19Z" uid="6975" user="ulfl" changeset="141861" lat="53.4008729" lon="-2.9787006">
    <tag k="amenity" v="restaurant"/>
    <tag k="name" v="New Star"/>
    <tag k="note" v="Chinese"/>
  </node>
</osm>
