<?xml version='1.0' encoding='UTF-8'?>
<osm version="0.6" generator="libosmium/2.20.0">
  <node id="1107780359" version="1" timestamp="2011-01-17T17:06:29Z" uid="33382" user="de_muur" changeset="7001452" lat="52.9743811" lon="9.348536">
    <tag k="traffic_sign" v="city_limit"/>
  </node>
  <node id="1107780363" version="1" timestamp="2011-01-17T17:06:29Z" uid="33382" user="de_muur" changeset="7001452" lat="52.9753263" lon="9.3530506">
    <tag k="addr:city" v="Kirchlinteln"/>
    <tag k="addr:housenumber" v="4"/>
    <tag k="addr:postcode" v="27308"/>
    <tag k="addr:street" v="Kreepener Hauptstraße"/>
    <tag k="amenity" v="restaurant"/>
    <tag k="cuisine" v="Internatiional/Regional"/>
    <tag k="name" v="Heitmann&apos;s Gasthof"/>
    <tag k="opening_hours" v="&quot;vorher anrufen&quot;"/>
    <tag k="phone" v="+49 4236 94000"/>
  </node>
  <node id="1107780379" version="1" timestamp="2011-01-17T17:06:29Z" uid="33382" user="de_muur" changeset="7001452" lat="52.9754373" lon="9.3525851">
    <tag k="direction_northeast" v="Klein Sehlingen 2km; Rahnhorst 1.9km"/>
    <tag k="direction_southeast" v="Schmomühlen 4km; Klein Linteln 2.5km"/>
    <tag k="direction_southwest" v="Deelsen 3km; Brammer 1.0km"/>
    <tag k="information" v="guidepost"/>
    <tag k="network" v="lcn"/>
    <tag k="operator" v="Landkreis Verden"/>
    <tag k="route" v="bicycle"/>
    <tag k="tourism" v="information"/>
  </node>
  <node id="1107780379" version="2" timestamp="2011-01-17T17:13:31Z" uid="33382" user="de_muur" changeset="7001539" lat="52.9754373" lon="9.3525851">
    <tag k="direction_northeast" v="Klein Sehlingen 2km; Rahnhorst 1.9km"/>
    <tag k="direction_southeast" v="Schomühlen 4km; Klein Linteln 2.5km"/>
    <tag k="direction_southwest" v="Deelsen 3km; Brammer 1.0km"/>
    <tag k="information" v="guidepost"/>
    <tag k="network" v="lcn"/>
    <tag k="operator" v="Landkreis Verden"/>
    <tag k="route" v="bicycle"/>
    <tag k="tourism" v="information"/>
  </node>
  <node id="1107780382" version="1" timestamp="2011-01-17T17:06:30Z" uid="33382" user="de_muur" changeset="7001452" lat="52.9771881" lon="9.3582146"/>
  <node id="1107780384" version="1" timestamp="2011-01-17T17:06:30Z" uid="33382" user="de_muur" changeset="7001452" lat="52.976388" lon="9.3535641">
    <tag k="traffic_sign" v="city_limit"/>
  </node>
  <node id="1107780392" version="1" timestamp="2011-01-17T17:06:30Z" uid="33382" user="de_muur" changeset="7001452" lat="52.9690687" lon="9.3350748"/>
  <node id="1107780395" version="1" timestamp="2011-01-17T17:06:30Z" uid="33382" user="de_muur" changeset="7001452" lat="52.9774271" lon="9.3586825"/>
  <node id="1107780398" version="1" timestamp="2011-01-17T17:06:30Z" uid="33382" user="de_muur" changeset="7001452" lat="52.9774271" lon="9.3592824">
    <tag k="amenity" v="parking"/>
  </node>
  <node id="1107780401" version="1" timestamp="2011-01-17T17:06:30Z" uid="33382" user="de_muur" changeset="7001452" lat="52.9768708" lon="9.357011">
    <tag k="traffic_sign" v="city_limit"/>
  </node>
  <node id="1107780404" version="1" timestamp="2011-01-17T17:06:30Z" uid="33382" user="de_muur" changeset="7001452" lat="52.9773379" lon="9.3596705"/>
</osm>
