<?xml version='1.0' encoding='UTF-8'?>
<osm version="0.6" generator="libosmium/2.20.0">
  <node id="1114955624" version="2" timestamp="2011-01-29T02:20:32Z" uid="4467" user="Rosscoe" changeset="7118915" lat="-38.0561606" lon="140.6675473">
    <tag k="man_made" v="lighthouse"/>
    <tag k="name" v="Port MacDonnell Lighthouse"/>
  </node>
  <node id="1114955624" version="3" timestamp="2011-03-08T00:43:07Z" uid="49111" user="Markus B" changeset="7490527" lat="-38.0561606" lon="140.6675473">
    <tag k="man_made" v="lighthouse"/>
    <tag k="name" v="Port MacDonnell Lighthouse"/>
    <tag k="ref" v="K 2132"/>
    <tag k="seamark:landmark:height" v="56"/>
    <tag k="seamark:light:1:colour" v="white"/>
    <tag k="seamark:light:1:range" v="20"/>
    <tag k="seamark:light:1:sector_end" v="277"/>
    <tag k="seamark:light:1:sector_start" v="280"/>
    <tag k="seamark:light:character" v="Fl"/>
    <tag k="seamark:light:height" v="45"/>
    <tag k="seamark:light:inform" v="Visible 280°-277°."/>
    <tag k="seamark:light:period" v="5"/>
    <tag k="seamark:light:ref" v="K 2132"/>
    <tag k="seamark:name" v="Cape Northumberland."/>
    <tag k="seamark:type" v="light_major"/>
    <tag k="source" v="US NGA Pub. 111. 2010-09-02."/>
  </node>
  <node id="1114957583" version="2" timestamp="2011-01-29T02:20:33Z" uid="4467" user="Rosscoe" changeset="7118915" lat="-38.0569765" lon="140.6803691"/>
</osm>
