<?xml version='1.0' encoding='UTF-8'?>
<osm version="0.6" generator="libosmium/2.20.0">
  <node id="1130230718" version="2" timestamp="2011-03-17T23:53:11Z" uid="20587" user="balrog-kun" changeset="7591208" lat="37.7375957" lon="-122.3897153">
    <tag k="name" v="Kirkwood/La Salle"/>
    <tag k="operator" v="SFMTA"/>
    <tag k="railway" v="tram_stop"/>
  </node>
  <node id="1130231431" version="2" timestamp="2011-03-17T23:53:03Z" uid="20587" user="balrog-kun" changeset="7591208" lat="37.7344182" lon="-122.3908204">
    <tag k="name" v="Oakdale/Palou"/>
    <tag k="operator" v="SFMTA"/>
    <tag k="railway" v="tram_stop"/>
  </node>
  <node id="1130231971" version="2" timestamp="2011-03-17T23:52:55Z" uid="20587" user="balrog-kun" changeset="7591208" lat="37.7319872" lon="-122.3916787">
    <tag k="name" v="Revere/Shafter"/>
    <tag k="operator" v="SFMTA"/>
    <tag k="railway" v="tram_stop"/>
  </node>
  <node id="1130232363" version="3" timestamp="2011-03-17T23:53:11Z" uid="20587" user="balrog-kun" changeset="7591208" lat="37.7292528" lon="-122.3926347">
    <tag k="name" v="Williams"/>
    <tag k="operator" v="SFMTA"/>
    <tag k="railway" v="tram_stop"/>
  </node>
  <node id="1130235836" version="3" timestamp="2011-03-17T23:52:57Z" uid="20587" user="balrog-kun" changeset="7591208" lat="37.7254764" lon="-122.3942347">
    <tag k="name" v="Carroll"/>
    <tag k="operator" v="SFMTA"/>
    <tag k="railway" v="tram_stop"/>
  </node>
  <node id="1130237916" version="3" timestamp="2011-03-17T23:53:04Z" uid="20587" user="balrog-kun" changeset="7591208" lat="37.7224044" lon="-122.3956508">
    <tag k="name" v="Gilman/Paul"/>
    <tag k="operator" v="SFMTA"/>
    <tag k="railway" v="tram_stop"/>
  </node>
  <node id="1130239224" version="1" timestamp="2011-02-01T00:28:28Z" uid="30201" user="rrankin" changeset="7150924" lat="-33.7432256" lon="150.8180222"/>
  <node id="1130239227" version="1" timestamp="2011-02-01T00:28:28Z" uid="30201" user="rrankin" changeset="7150924" lat="-33.753016" lon="150.7920153"/>
  <node id="1130239408" version="3" timestamp="2011-03-17T23:53:07Z" uid="20587" user="balrog-kun" changeset="7591208" lat="37.71847" lon="-122.397839">
    <tag k="name" v="Le Conte"/>
    <tag k="operator" v="SFMTA"/>
    <tag k="railway" v="tram_stop"/>
  </node>
</osm>
