<?xml version='1.0' encoding='UTF-8'?>
<osm version="0.6" generator="libosmium/2.20.0">
  <node id="114651322" version="2" timestamp="2009-12-25T12:52:09Z" uid="74617" user="JohnSmith" changeset="3447909" lat="-28.9810323" lon="153.2844444">
    <tag k="name" v="Coraki Junction"/>
    <tag k="place" v="hamlet"/>
    <tag k="place:nswgnb" v="RURAL PLACE"/>
    <tag k="ref:nswgnb" v="14287"/>
    <tag k="source" v="nswgnb"/>
  </node>
  <node id="114651324" version="2" timestamp="2009-12-25T12:52:08Z" uid="74617" user="JohnSmith" changeset="3447909" lat="-28.987519" lon="153.2853899">
    <tag k="name" v="Coraki"/>
    <tag k="place" v="town"/>
    <tag k="place:nswgnb" v="LOCALITY"/>
    <tag k="ref:nswgnb" v="14282"/>
    <tag k="source" v="nswgnb"/>
  </node>
  <node id="114651329" version="2" timestamp="2010-02-08T04:40:33Z" uid="230283" user="AuFCL" changeset="3820746" lat="-28.7565714" lon="153.3932518">
    <tag k="historic" v="Old place name"/>
    <tag k="name" v="Cowlong"/>
    <tag k="place" v="hamlet"/>
    <tag k="place:nswgnb" v="RURAL PLACE"/>
    <tag k="ref:nswgnb" v="14704"/>
    <tag k="source" v="nswgnb"/>
  </node>
  <node id="114651367" version="2" timestamp="2009-12-25T12:52:08Z" uid="74617" user="JohnSmith" changeset="3447909" lat="-28.9983333" lon="153.3011111">
    <tag k="name" v="East Coraki"/>
    <tag k="place" v="hamlet"/>
    <tag k="place:nswgnb" v="LOCALITY"/>
    <tag k="ref:nswgnb" v="28205"/>
    <tag k="source" v="nswgnb"/>
  </node>
  <node id="114651382" version="2" timestamp="2010-02-08T04:40:33Z" uid="230283" user="AuFCL" changeset="3820746" lat="-28.756308" lon="153.3944963">
    <tag k="name" v="Eltham"/>
    <tag k="place" v="hamlet"/>
    <tag k="place:nswgnb" v="LOCALITY"/>
    <tag k="ref:nswgnb" v="17508"/>
    <tag k="source" v="nswgnb"/>
  </node>
  <node id="114651397" version="2" timestamp="2010-04-07T08:50:14Z" uid="244897" user="M526244" changeset="4352495" lat="-28.9816667" lon="153.3511111">
    <tag k="created_by" v="JOSM"/>
    <tag k="name" v="Green Forest"/>
    <tag k="place" v="hamlet"/>
    <tag k="place:nswgnb" v="LOCALITY"/>
    <tag k="ref:nswgnb" v="21753"/>
    <tag k="source" v="nswgnb"/>
  </node>
  <node id="114651543" version="2" timestamp="2010-02-18T01:19:18Z" uid="230283" user="AuFCL" changeset="3906038" lat="-28.8150001" lon="153.3677778">
    <tag k="name" v="Wilsons Ridges"/>
    <tag k="note" v="This name (aka &quot;Wilson&apos;s Ranges&quot;) predates 1903. More recently area is known as &quot;Alphadale&quot;."/>
    <tag k="place" v="hamlet"/>
    <tag k="place:nswgnb" v="RURAL PLACE"/>
    <tag k="ref:nswgnb" v="65301"/>
    <tag k="source" v="nswgnb"/>
  </node>
  <node id="114658549" version="3" timestamp="2009-12-01T00:23:11Z" uid="99207" user="Lar Kiesel" changeset="3261059" lat="34.955022" lon="-82.221572"/>
  <node id="114658550" version="3" timestamp="2009-12-01T00:23:11Z" uid="99207" user="Lar Kiesel" changeset="3261059" lat="34.955009" lon="-82.221481"/>
  <node id="114659080" version="3" timestamp="2009-11-22T08:01:53Z" uid="99207" user="Lar Kiesel" changeset="3182995" lat="35.035813" lon="-81.807212"/>
  <node id="114659918" version="3" timestamp="2009-12-01T07:18:59Z" uid="99207" user="Lar Kiesel" changeset="3262146" lat="35.146901" lon="-81.854575"/>
</osm>
