<?xml version='1.0' encoding='UTF-8'?>
<osm version="0.6" generator="libosmium/2.20.0">
  <node id="115620495" version="5" timestamp="2008-06-23T23:56:40Z" uid="34428" user="usm78-gis" changeset="282764" lat="59.7104663" lon="30.4020521"/>
  <node id="115620495" version="6" timestamp="2009-03-15T15:38:27Z" uid="34428" user="usm78-gis" changeset="815017" lat="59.7104663" lon="30.4020521"/>
  <node id="115624637" version="8" timestamp="2009-07-23T23:33:38Z" uid="20587" user="balrog-kun" changeset="1920502" lat="-17.6257563" lon="168.4077491">
    <tag k="capital_city" v="Port Vila"/>
    <tag k="country_code_fips" v="NH"/>
    <tag k="country_code_iso3166_1_alpha_2" v="VU"/>
    <tag k="is_in" v="Pacific Ocean"/>
    <tag k="is_in:ocean" v="Pacific"/>
    <tag k="name" v="Vanuatu"/>
    <tag k="name:da" v="Vanuatu"/>
    <tag k="name:eo" v="Vanuatuo"/>
    <tag k="name:he" v="ונואטו"/>
    <tag k="name:hu" v="Vanuatu"/>
    <tag k="official_name" v="Republic of Vanuatu"/>
    <tag k="official_name:bi" v="Ripablik blong Vanuatu"/>
    <tag k="official_name:fr" v="République de Vanuatu"/>
    <tag k="place" v="country"/>
    <tag k="population" v="215446"/>
  </node>
</osm>
