<?xml version='1.0' encoding='UTF-8'?>
<osm version="0.6" generator="libosmium/2.20.0">
  <node id="116961449" version="2" timestamp="2009-03-22T12:04:19Z" uid="7617" user="Franc" changeset="842732" lat="-33.5268567" lon="151.3553977">
    <tag k="created_by" v="JOSM"/>
    <tag k="name" v="Hardys Bay"/>
    <tag k="place" v="suburb"/>
    <tag k="place:nswgnb" v="SUBURB"/>
    <tag k="ref:nswgnb" v="23050"/>
    <tag k="source" v="nswgnb"/>
  </node>
  <node id="116961658" version="2" timestamp="2009-01-04T03:10:59Z" uid="7617" user="Franc" changeset="726986" lat="-33.3818337" lon="151.3761059">
    <tag k="created_by" v="JOSM"/>
    <tag k="name" v="Lisarow"/>
    <tag k="place" v="suburb"/>
    <tag k="place:nswgnb" v="SUBURB"/>
    <tag k="ref:nswgnb" v="33227"/>
    <tag k="source" v="nswgnb"/>
  </node>
  <node id="116961703" version="2" timestamp="2010-05-15T22:00:56Z" uid="74617" user="JohnSmith" changeset="4711043" lat="-33.4658437" lon="151.3184009">
    <tag k="name" v="Koolewong"/>
    <tag k="place" v="suburb"/>
    <tag k="place:nswgnb" v="SUBURB"/>
    <tag k="ref:nswgnb" v="31479"/>
    <tag k="source" v="nswgnb"/>
  </node>
  <node id="116961823" version="3" timestamp="2009-10-05T18:57:28Z" uid="7617" user="Franc" changeset="2753979" lat="-33.5241631" lon="151.2030009">
    <tag k="name" v="Mooney Mooney"/>
    <tag k="place" v="suburb"/>
    <tag k="place:nswgnb" v="SUBURB"/>
    <tag k="ref:nswgnb" v="39014"/>
    <tag k="source" v="nswgnb"/>
  </node>
  <node id="116962070" version="2" timestamp="2008-03-16T13:02:16Z" uid="7617" user="Franc" changeset="333796" lat="-33.5414046" lon="151.3075722">
    <tag k="created_by" v="JOSM"/>
    <tag k="name" v="Pearl Beach"/>
    <tag k="place" v="suburb"/>
    <tag k="place:nswgnb" v="SUBURB"/>
    <tag k="ref:nswgnb" v="45405"/>
    <tag k="source" v="nswgnb"/>
  </node>
  <node id="116962070" version="3" timestamp="2008-03-19T00:52:42Z" uid="7617" user="Franc" changeset="349049" lat="-33.5414046" lon="151.3075722">
    <tag k="created_by" v="JOSM"/>
    <tag k="name" v="Pearl Beach"/>
    <tag k="place" v="suburb"/>
    <tag k="place:nswgnb" v="SUBURB"/>
    <tag k="postal_code" v="2256"/>
    <tag k="ref:nswgnb" v="45405"/>
    <tag k="source" v="nswgnb"/>
    <tag k="source:postal_code" v="survey"/>
  </node>
</osm>
