<?xml version='1.0' encoding='UTF-8'?>
<osm version="0.6" generator="libosmium/2.20.0">
  <node id="116990469" version="2" timestamp="2011-04-22T15:44:06Z" uid="4467" user="Rosscoe" changeset="7935573" lat="-33.4752778" lon="150.1766667">
    <tag k="name" v="Corney Town"/>
    <tag k="place" v="suburb"/>
    <tag k="place:nswgnb" v="SUBURB"/>
    <tag k="ref:nswgnb" v="79203"/>
    <tag k="source" v="nswgnb"/>
  </node>
  <node id="116990482" version="2" timestamp="2011-04-22T16:06:06Z" uid="4467" user="Rosscoe" changeset="7935817" lat="-33.4816667" lon="150.1427778">
    <tag k="name" v="Cooerwull"/>
    <tag k="place" v="suburb"/>
    <tag k="place:nswgnb" v="URBAN PLACE"/>
    <tag k="ref:nswgnb" v="13726"/>
    <tag k="source" v="nswgnb"/>
  </node>
  <node id="116990849" version="2" timestamp="2009-01-04T08:39:02Z" uid="30201" user="rrankin" changeset="727477" lat="-33.1219729" lon="150.2753933">
    <tag k="created_by" v="JOSM"/>
    <tag k="name" v="Glen Davis"/>
    <tag k="place" v="suburb"/>
    <tag k="place:nswgnb" v="SUBURB"/>
    <tag k="ref:nswgnb" v="20595"/>
    <tag k="source" v="nswgnb"/>
  </node>
  <node id="116991439" version="2" timestamp="2011-04-22T15:44:15Z" uid="4467" user="Rosscoe" changeset="7935573" lat="-33.4686111" lon="150.1672222">
    <tag k="name" v="Morts Estate"/>
    <tag k="place" v="suburb"/>
    <tag k="place:nswgnb" v="SUBURB"/>
    <tag k="ref:nswgnb" v="79204"/>
    <tag k="source" v="nswgnb"/>
  </node>
  <node id="116991523" version="2" timestamp="2011-04-22T15:44:08Z" uid="4467" user="Rosscoe" changeset="7935573" lat="-33.4622222" lon="150.1844444">
    <tag k="name" v="Oaky Park"/>
    <tag k="place" v="suburb"/>
    <tag k="place:nswgnb" v="SUBURB"/>
    <tag k="ref:nswgnb" v="79198"/>
    <tag k="source" v="nswgnb"/>
  </node>
  <node id="116991690" version="2" timestamp="2010-01-03T10:17:59Z" uid="30201" user="rrankin" changeset="3526319" lat="-33.1991679" lon="149.8518129">
    <tag k="name" v="Palmers Oaky"/>
    <tag k="place" v="suburb"/>
    <tag k="place:nswgnb" v="SUBURB"/>
    <tag k="ref:nswgnb" v="44823"/>
    <tag k="source" v="nswgnb"/>
  </node>
  <node id="116991985" version="3" timestamp="2011-04-22T15:44:07Z" uid="4467" user="Rosscoe" changeset="7935573" lat="-33.4733264" lon="150.1927715">
    <tag k="name" v="The Great Zig Zag"/>
    <tag k="place" v="hamlet"/>
    <tag k="place:nswgnb" v="RURAL PLACE"/>
    <tag k="ref:nswgnb" v="58132"/>
    <tag k="source" v="nswgnb"/>
  </node>
  <node id="116992020" version="2" timestamp="2010-01-03T10:18:00Z" uid="30201" user="rrankin" changeset="3526319" lat="-33.1442179" lon="149.8902317">
    <tag k="name" v="Turon Gates"/>
    <tag k="place" v="hamlet"/>
    <tag k="place:nswgnb" v="RURAL PLACE"/>
    <tag k="ref:nswgnb" v="60681"/>
    <tag k="source" v="nswgnb"/>
  </node>
  <node id="116992239" version="2" timestamp="2011-04-22T15:44:16Z" uid="4467" user="Rosscoe" changeset="7935573" lat="-33.4822222" lon="150.1769444">
    <tag k="name" v="Vale of Clwydd"/>
    <tag k="place" v="suburb"/>
    <tag k="place:nswgnb" v="SUBURB"/>
    <tag k="ref:nswgnb" v="79196"/>
    <tag k="source" v="nswgnb"/>
  </node>
  <node id="116999611" version="3" timestamp="2009-09-18T15:02:39Z" uid="114881" user="ratsonroP" changeset="2525294" lat="50.8859155" lon="14.8092032">
    <tag k="created_by" v="JOSM"/>
    <tag k="highway" v="bus_stop"/>
    <tag k="name" v="Südstraße"/>
  </node>
  <node id="116999615" version="3" timestamp="2009-04-14T19:15:53Z" uid="114881" user="ratsonroP" changeset="542502" lat="50.8845245" lon="14.8094699"/>
  <node id="116999615" version="4" timestamp="2009-04-14T19:18:54Z" uid="114881" user="ratsonroP" changeset="542502" lat="50.8845245" lon="14.8094699"/>
  <node id="116999615" version="5" timestamp="2009-09-18T15:02:38Z" uid="114881" user="ratsonroP" changeset="2525294" lat="50.8845272" lon="14.8095046"/>
</osm>
