<?xml version='1.0' encoding='UTF-8'?>
<osm version="0.6" generator="libosmium/2.20.0">
  <node id="116955302" version="4" timestamp="2008-07-05T10:55:43Z" uid="6975" user="ulfl" changeset="398437" lat="-26.1652644" lon="28.0554767">
    <tag k="leisure" v="golf_course"/>
  </node>
  <node id="116956228" version="2" timestamp="2010-05-09T19:00:58Z" uid="74617" user="JohnSmith" changeset="4652484" lat="-32.9747222" lon="151.610556">
    <tag k="name" v="Booragul"/>
    <tag k="place" v="suburb"/>
    <tag k="place:nswgnb" v="SUBURB"/>
    <tag k="ref:nswgnb" v="7732"/>
    <tag k="source" v="nswgnb"/>
  </node>
  <node id="116956378" version="2" timestamp="2010-05-09T19:00:19Z" uid="74617" user="JohnSmith" changeset="4652484" lat="-32.9872222" lon="151.584444">
    <tag k="name" v="Fassifern"/>
    <tag k="place" v="suburb"/>
    <tag k="place:nswgnb" v="SUBURB"/>
    <tag k="ref:nswgnb" v="18281"/>
    <tag k="source" v="nswgnb"/>
  </node>
  <node id="116956641" version="2" timestamp="2010-05-09T18:59:24Z" uid="74617" user="JohnSmith" changeset="4652484" lat="-32.965" lon="151.601111">
    <tag k="name" v="Teralba"/>
    <tag k="place" v="suburb"/>
    <tag k="place:nswgnb" v="SUBURB"/>
    <tag k="ref:nswgnb" v="57697"/>
    <tag k="source" v="nswgnb"/>
  </node>
  <node id="116956676" version="2" timestamp="2010-05-09T19:01:04Z" uid="74617" user="JohnSmith" changeset="4652484" lat="-32.9872222" lon="151.606667">
    <tag k="name" v="Woodrising"/>
    <tag k="place" v="suburb"/>
    <tag k="place:nswgnb" v="SUBURB"/>
    <tag k="ref:nswgnb" v="79178"/>
    <tag k="source" v="nswgnb"/>
  </node>
</osm>
