<?xml version='1.0' encoding='UTF-8'?>
<osm version="0.6" generator="libosmium/2.20.0">
  <node id="117110648" version="3" timestamp="2007-11-19T15:35:21Z" uid="9581" user="Lobelt" changeset="569136" lat="51.4756723" lon="13.860974">
    <tag k="created_by" v="Potlatch 0.5a"/>
    <tag k="is_in" v="Brandenburg"/>
    <tag k="key" v="OSL"/>
    <tag k="name" v="Schwarzheide"/>
    <tag k="place" v="town"/>
  </node>
  <node id="117110648" version="6" timestamp="2007-11-26T18:06:20Z" uid="9581" user="Lobelt" changeset="627021" lat="51.4756776" lon="13.8609826">
    <tag k="created_by" v="Potlatch 0.5d"/>
    <tag k="is_in" v="Brandenburg"/>
    <tag k="key" v="OSL"/>
    <tag k="name" v="Schwarzheide"/>
    <tag k="place" v="town"/>
  </node>
  <node id="117111789" version="3" timestamp="2007-11-19T15:35:35Z" uid="9581" user="Lobelt" changeset="569136" lat="51.5029284" lon="13.7988326">
    <tag k="created_by" v="Potlatch 0.5a"/>
    <tag k="is_in" v="Brandenburg"/>
    <tag k="key" v="OSL"/>
    <tag k="name" v="Lauchhammer - Ost"/>
    <tag k="place" v="town"/>
  </node>
  <node id="117111789" version="5" timestamp="2007-11-20T17:41:42Z" uid="9581" user="Lobelt" changeset="578952" lat="51.502933" lon="13.7988214">
    <tag k="created_by" v="Potlatch 0.5b"/>
    <tag k="is_in" v="Brandenburg"/>
    <tag k="key" v="OSL"/>
    <tag k="name" v="Lauchhammer - Ost"/>
    <tag k="place" v="town"/>
  </node>
  <node id="117113651" version="3" timestamp="2007-11-19T15:36:24Z" uid="9581" user="Lobelt" changeset="569136" lat="51.467011" lon="13.6194465">
    <tag k="created_by" v="Potlatch 0.5a"/>
    <tag k="is_in" v="Brandenburg"/>
    <tag k="key" v="EE"/>
    <tag k="name" v="Plessa"/>
    <tag k="place" v="town"/>
  </node>
  <node id="117113651" version="4" timestamp="2007-11-20T17:41:24Z" uid="9581" user="Lobelt" changeset="578952" lat="51.4670103" lon="13.6194439">
    <tag k="created_by" v="Potlatch 0.5b"/>
    <tag k="is_in" v="Brandenburg"/>
    <tag k="key" v="EE"/>
    <tag k="name" v="Plessa"/>
    <tag k="place" v="town"/>
  </node>
  <node id="117113704" version="2" timestamp="2009-02-08T13:35:25Z" uid="7617" user="Franc" changeset="273652" lat="-33.7940908" lon="151.0926134">
    <tag k="created_by" v="JOSM"/>
    <tag k="name" v="Denistone East"/>
    <tag k="place" v="suburb"/>
    <tag k="place:nswgnb" v="SUBURB"/>
    <tag k="ref:nswgnb" v="73928"/>
    <tag k="source" v="nswgnb"/>
  </node>
  <node id="117113704" version="3" timestamp="2009-03-24T10:33:18Z" uid="7617" user="Franc" changeset="853440" lat="-33.7959098" lon="151.0971544">
    <tag k="created_by" v="JOSM"/>
    <tag k="name" v="Denistone East"/>
    <tag k="place" v="suburb"/>
    <tag k="place:nswgnb" v="SUBURB"/>
    <tag k="ref:nswgnb" v="73928"/>
    <tag k="source" v="nswgnb"/>
  </node>
  <node id="117113725" version="2" timestamp="2009-03-24T10:33:16Z" uid="7617" user="Franc" changeset="853440" lat="-33.7730929" lon="151.0997717">
    <tag k="created_by" v="JOSM"/>
    <tag k="name" v="Marsfield"/>
    <tag k="place" v="suburb"/>
    <tag k="place:nswgnb" v="SUBURB"/>
    <tag k="ref:nswgnb" v="36520"/>
    <tag k="source" v="nswgnb"/>
  </node>
  <node id="117113761" version="4" timestamp="2010-03-31T10:13:25Z" uid="74617" user="JohnSmith" changeset="4283972" lat="-33.8129929" lon="151.105378">
    <tag k="name" v="Ryde"/>
    <tag k="place" v="suburb"/>
    <tag k="place:nswgnb" v="SUBURB"/>
    <tag k="ref:nswgnb" v="50709"/>
    <tag k="source" v="nswgnb"/>
  </node>
  <node id="117113798" version="2" timestamp="2009-08-03T11:41:38Z" uid="7617" user="Franc" changeset="2024548" lat="-33.8066667" lon="151.1330556">
    <tag k="created_by" v="JOSM"/>
    <tag k="is_in" v="Sydney,New South Wales,Australia"/>
    <tag k="name" v="East Ryde"/>
    <tag k="place" v="suburb"/>
    <tag k="place:nswgnb" v="SUBURB"/>
    <tag k="ref:nswgnb" v="73927"/>
    <tag k="source" v="nswgnb"/>
  </node>
</osm>
