<?xml version='1.0' encoding='UTF-8'?>
<osm version="0.6" generator="libosmium/2.20.0">
  <node id="117143087" version="2" timestamp="2010-05-08T14:45:19Z" uid="4467" user="Rosscoe" changeset="4639713" lat="-32.0542173" lon="115.960036"/>
  <node id="117143237" version="2" timestamp="2008-11-24T13:14:09Z" uid="7617" user="Franc" changeset="788171" lat="-33.748233" lon="150.8038764">
    <tag k="created_by" v="JOSM"/>
    <tag k="name" v="Emerton"/>
    <tag k="place" v="suburb"/>
    <tag k="place:nswgnb" v="SUBURB"/>
    <tag k="ref:nswgnb" v="17530"/>
    <tag k="source" v="nswgnb"/>
  </node>
  <node id="117143302" version="2" timestamp="2008-11-23T05:28:56Z" uid="7617" user="Franc" changeset="782626" lat="-33.7457355" lon="150.8241667">
    <tag k="created_by" v="JOSM"/>
    <tag k="name" v="Hebersham"/>
    <tag k="place" v="suburb"/>
    <tag k="place:nswgnb" v="SUBURB"/>
    <tag k="ref:nswgnb" v="71500"/>
    <tag k="source" v="nswgnb"/>
  </node>
  <node id="117143630" version="2" timestamp="2008-11-25T09:44:19Z" uid="7617" user="Franc" changeset="791128" lat="-33.7484491" lon="150.7953755">
    <tag k="created_by" v="JOSM"/>
    <tag k="name" v="Tregear"/>
    <tag k="place" v="suburb"/>
    <tag k="place:nswgnb" v="SUBURB"/>
    <tag k="ref:nswgnb" v="60052"/>
    <tag k="source" v="nswgnb"/>
  </node>
  <node id="117143673" version="2" timestamp="2011-04-23T02:28:12Z" uid="4467" user="Rosscoe" changeset="7940081" lat="-33.7066667" lon="150.9091667">
    <tag k="name" v="The Ponds"/>
    <tag k="place" v="suburb"/>
    <tag k="place:nswgnb" v="SUBURB"/>
    <tag k="ref:nswgnb" v="82752"/>
    <tag k="source" v="nswgnb"/>
  </node>
  <node id="117148661" version="2" timestamp="2008-03-01T03:43:38Z" uid="7617" user="Franc" changeset="241303" lat="-33.9483923" lon="151.2009428">
    <tag k="created_by" v="JOSM"/>
    <tag k="name" v="Botany"/>
    <tag k="place" v="suburb"/>
    <tag k="place:nswgnb" v="SUBURB"/>
    <tag k="ref:nswgnb" v="8052"/>
    <tag k="source" v="nswgnb"/>
  </node>
</osm>
