<?xml version='1.0' encoding='UTF-8'?>
<osm version="0.6" generator="libosmium/2.20.0">
  <node id="117172352" version="2" timestamp="2008-02-22T07:12:56Z" uid="7617" user="Franc" changeset="176304" lat="-33.9148023" lon="151.1759338">
    <tag k="created_by" v="JOSM"/>
    <tag k="name" v="St Peters"/>
    <tag k="place" v="suburb"/>
    <tag k="place:nswgnb" v="SUBURB"/>
    <tag k="ref:nswgnb" v="50952"/>
    <tag k="source" v="nswgnb"/>
  </node>
  <node id="117178232" version="2" timestamp="2009-06-22T13:32:50Z" uid="7617" user="Franc" changeset="1593741" lat="-33.8577861" lon="151.0106652">
    <tag k="created_by" v="JOSM"/>
    <tag k="name" v="South Granville"/>
    <tag k="place" v="suburb"/>
    <tag k="place:nswgnb" v="SUBURB"/>
    <tag k="ref:nswgnb" v="74092"/>
    <tag k="source" v="nswgnb"/>
  </node>
  <node id="117178510" version="4" timestamp="2009-07-19T06:00:30Z" uid="7617" user="Franc" changeset="1869567" lat="-33.8144738" lon="151.0558101">
    <tag k="created_by" v="Potlatch 0.7b"/>
    <tag k="name" v="Ermington"/>
    <tag k="place" v="suburb"/>
    <tag k="place:nswgnb" v="SUBURB"/>
    <tag k="ref:nswgnb" v="17733"/>
    <tag k="source" v="nswgnb"/>
  </node>
</osm>
