<?xml version='1.0' encoding='UTF-8'?>
<osm version="0.6" generator="libosmium/2.20.0">
  <node id="117132368" version="3" timestamp="2010-03-29T18:26:14Z" uid="74617" user="JohnSmith" changeset="4270084" lat="-34.0750144" lon="151.056428">
    <tag k="name" v="Audley"/>
    <tag k="place" v="hamlet"/>
    <tag k="place:nswgnb" v="RURAL PLACE"/>
    <tag k="ref:nswgnb" v="520"/>
    <tag k="source" v="nswgnb"/>
  </node>
  <node id="117132390" version="2" timestamp="2009-02-01T09:11:40Z" uid="7617" user="Franc" changeset="9443" lat="-34.0365231" lon="151.0075977">
    <tag k="created_by" v="JOSM"/>
    <tag k="name" v="Barden Ridge"/>
    <tag k="place" v="suburb"/>
    <tag k="place:nswgnb" v="SUBURB"/>
    <tag k="ref:nswgnb" v="75682"/>
    <tag k="source" v="nswgnb"/>
  </node>
  <node id="117132502" version="4" timestamp="2010-03-29T18:26:09Z" uid="74617" user="JohnSmith" changeset="4270084" lat="-34.1148875" lon="151.068511">
    <tag k="name" v="Flat Rock Crossing"/>
    <tag k="place" v="hamlet"/>
    <tag k="place:nswgnb" v="RURAL PLACE"/>
    <tag k="ref:nswgnb" v="18919"/>
    <tag k="source" v="nswgnb"/>
  </node>
  <node id="117132687" version="2" timestamp="2008-11-30T02:09:49Z" uid="7617" user="Franc" changeset="811259" lat="-34.0150419" lon="151.0176888">
    <tag k="created_by" v="JOSM"/>
    <tag k="name" v="Menai"/>
    <tag k="place" v="suburb"/>
    <tag k="place:nswgnb" v="SUBURB"/>
    <tag k="ref:nswgnb" v="37140"/>
    <tag k="source" v="nswgnb"/>
  </node>
  <node id="117132706" version="3" timestamp="2008-06-07T23:58:51Z" uid="7617" user="Franc" changeset="91968" lat="-34.0066667" lon="151.0761111"/>
  <node id="117132803" version="2" timestamp="2008-12-21T05:28:46Z" uid="7617" user="Franc" changeset="509418" lat="-34.014953" lon="151.1177449">
    <tag k="created_by" v="JOSM"/>
    <tag k="name" v="Sylvania Waters"/>
    <tag k="place" v="suburb"/>
    <tag k="place:nswgnb" v="SUBURB"/>
    <tag k="ref:nswgnb" v="56533"/>
    <tag k="source" v="nswgnb"/>
  </node>
  <node id="117132977" version="2" timestamp="2009-04-10T06:24:24Z" uid="7617" user="Franc" changeset="368779" lat="-34.0526024" lon="151.0349012">
    <tag k="created_by" v="JOSM"/>
    <tag k="name" v="Yarrawarrah"/>
    <tag k="place" v="suburb"/>
    <tag k="place:nswgnb" v="SUBURB"/>
    <tag k="ref:nswgnb" v="67251"/>
    <tag k="source" v="nswgnb"/>
  </node>
  <node id="117138477" version="4" timestamp="2011-03-13T15:54:36Z" uid="4467" user="Rosscoe" changeset="7546703" lat="-33.9491713" lon="151.011659">
    <tag k="is_in" v="New South Wales,Australia"/>
    <tag k="name" v="Revesby"/>
    <tag k="place" v="suburb"/>
    <tag k="place:nswgnb" v="SUBURB"/>
    <tag k="ref:nswgnb" v="49095"/>
    <tag k="source" v="nswgnb"/>
  </node>
  <node id="117138495" version="2" timestamp="2008-01-20T05:45:01Z" uid="7617" user="Franc" changeset="673356" lat="-33.9873996" lon="151.0435925">
    <tag k="created_by" v="JOSM"/>
    <tag k="name" v="Revesby Heights"/>
    <tag k="place" v="suburb"/>
    <tag k="place:nswgnb" v="SUBURB"/>
    <tag k="ref:nswgnb" v="49096"/>
    <tag k="source" v="nswgnb"/>
  </node>
  <node id="117139217" version="4" timestamp="2010-04-26T03:39:22Z" uid="4467" user="Rosscoe" changeset="4528114" lat="-38.40197" lon="144.9524428">
    <tag k="direction" v="clockwise"/>
    <tag k="highway" v="mini_roundabout"/>
  </node>
</osm>
