<?xml version='1.0' encoding='UTF-8'?>
<osm version="0.6" generator="libosmium/2.20.0">
  <node id="1176681529" version="1" timestamp="2011-02-27T07:22:05Z" uid="18775" user="drlizau" changeset="7407316" lat="-35.1141401" lon="147.3698824">
    <tag k="amenity" v="bank"/>
    <tag k="atm" v="yes"/>
    <tag k="name" v="SGE Credit Union"/>
    <tag k="source" v="nearmap"/>
  </node>
  <node id="1176681530" version="1" timestamp="2011-02-27T07:22:05Z" uid="18775" user="drlizau" changeset="7407316" lat="-35.1144897" lon="147.3698459">
    <tag k="amenity" v="bank"/>
    <tag k="atm" v="yes"/>
    <tag k="operator" v="Commonwealth"/>
    <tag k="source" v="nearmap"/>
  </node>
  <node id="1176681531" version="1" timestamp="2011-02-27T07:22:05Z" uid="18775" user="drlizau" changeset="7407316" lat="-35.1145493" lon="147.3698375">
    <tag k="shop" v="barber"/>
    <tag k="source" v="nearmap"/>
  </node>
  <node id="1176681532" version="1" timestamp="2011-02-27T07:22:05Z" uid="18775" user="drlizau" changeset="7407316" lat="-35.1146956" lon="147.3694605">
    <tag k="name" v="PRD Nationwide"/>
    <tag k="office" v="estate_agent"/>
    <tag k="source" v="nearmap"/>
  </node>
  <node id="1176681533" version="1" timestamp="2011-02-27T07:22:05Z" uid="18775" user="drlizau" changeset="7407316" lat="-35.1152054" lon="147.3697409">
    <tag k="amenity" v="cafe"/>
    <tag k="name" v="The Coffee Club"/>
    <tag k="source" v="nearmap"/>
  </node>
  <node id="1176681534" version="1" timestamp="2011-02-27T07:22:05Z" uid="18775" user="drlizau" changeset="7407316" lat="-35.1153498" lon="147.3697011">
    <tag k="name" v="Prouds"/>
    <tag k="shop" v="jeweller"/>
    <tag k="source" v="nearmap"/>
  </node>
  <node id="1176681535" version="1" timestamp="2011-02-27T07:22:05Z" uid="18775" user="drlizau" changeset="7407316" lat="-35.1154019" lon="147.3696932">
    <tag k="amenity" v="optometrist"/>
    <tag k="source" v="nearmap"/>
  </node>
  <node id="1176681536" version="1" timestamp="2011-02-27T07:22:05Z" uid="18775" user="drlizau" changeset="7407316" lat="-35.1155437" lon="147.369655">
    <tag k="amenity" v="restaurant"/>
    <tag k="cuisine" v="mexican"/>
    <tag k="name" v="Montezuma&apos;s Mexican Restaurant"/>
    <tag k="source" v="nearmap"/>
  </node>
  <node id="1176681537" version="1" timestamp="2011-02-27T07:22:06Z" uid="18775" user="drlizau" changeset="7407316" lat="-35.1156022" lon="147.3696486">
    <tag k="name" v="Sinister Core Culture"/>
    <tag k="shop" v="tattooist"/>
    <tag k="source" v="nearmap"/>
  </node>
  <node id="1176681538" version="1" timestamp="2011-02-27T07:22:06Z" uid="18775" user="drlizau" changeset="7407316" lat="-35.1157766" lon="147.3696168">
    <tag k="name" v="Athlete&apos;s Foot"/>
    <tag k="shop" v="shoes"/>
    <tag k="source" v="nearmap"/>
  </node>
  <node id="1176681539" version="1" timestamp="2011-02-27T07:22:06Z" uid="18775" user="drlizau" changeset="7407316" lat="-35.115705" lon="147.3696311">
    <tag k="name" v="Vast Interior"/>
    <tag k="shop" v="furniture"/>
    <tag k="source" v="nearmap"/>
  </node>
  <node id="1176681540" version="1" timestamp="2011-02-27T07:22:06Z" uid="18775" user="drlizau" changeset="7407316" lat="-35.1158768" lon="147.3696041">
    <tag k="name" v="Collins Booksellers"/>
    <tag k="shop" v="books"/>
    <tag k="source" v="nearmap"/>
  </node>
  <node id="1176681541" version="1" timestamp="2011-02-27T07:22:06Z" uid="18775" user="drlizau" changeset="7407316" lat="-35.1159848" lon="147.3702292">
    <tag k="name" v="JB HiFi"/>
    <tag k="shop" v="electrical"/>
    <tag k="source" v="nearmap"/>
  </node>
  <node id="1176685432" version="1" timestamp="2011-02-27T07:27:20Z" uid="18775" user="drlizau" changeset="7407356" lat="-35.1159314" lon="147.3698411">
    <tag k="name" v="Mark Anthony&apos;s Clothing Company"/>
    <tag k="shop" v="clothes"/>
    <tag k="source" v="nearmap"/>
  </node>
  <node id="1176685434" version="1" timestamp="2011-02-27T07:27:20Z" uid="18775" user="drlizau" changeset="7407356" lat="-35.1162515" lon="147.3699111">
    <tag k="amenity" v="bank"/>
    <tag k="operator" v="Westpac"/>
    <tag k="source" v="nearmap"/>
  </node>
  <node id="1176685446" version="1" timestamp="2011-02-27T07:27:20Z" uid="18775" user="drlizau" changeset="7407356" lat="-35.1160556" lon="147.3706085"/>
  <node id="1176685448" version="1" timestamp="2011-02-27T07:27:20Z" uid="18775" user="drlizau" changeset="7407356" lat="-35.115578" lon="147.3706944"/>
  <node id="1176685450" version="1" timestamp="2011-02-27T07:27:20Z" uid="18775" user="drlizau" changeset="7407356" lat="-35.1156366" lon="147.3710571"/>
  <node id="1176685459" version="1" timestamp="2011-02-27T07:27:20Z" uid="18775" user="drlizau" changeset="7407356" lat="-35.1159866" lon="147.3709951"/>
  <node id="1176685461" version="1" timestamp="2011-02-27T07:27:20Z" uid="18775" user="drlizau" changeset="7407356" lat="-35.1159736" lon="147.3708805"/>
  <node id="1176685464" version="1" timestamp="2011-02-27T07:27:20Z" uid="18775" user="drlizau" changeset="7407356" lat="-35.1160842" lon="147.3708614"/>
  <node id="1176685479" version="1" timestamp="2011-02-27T07:27:21Z" uid="18775" user="drlizau" changeset="7407356" lat="-35.1161084" lon="147.3710453"/>
  <node id="1176685481" version="1" timestamp="2011-02-27T07:27:21Z" uid="18775" user="drlizau" changeset="7407356" lat="-35.1159959" lon="147.3710639"/>
  <node id="1176685483" version="1" timestamp="2011-02-27T07:27:21Z" uid="18775" user="drlizau" changeset="7407356" lat="-35.1159744" lon="147.3708862"/>
</osm>
