<?xml version='1.0' encoding='UTF-8'?>
<osm version="0.6" generator="libosmium/2.20.0">
  <node id="1200157542" version="1" timestamp="2011-03-13T13:42:23Z" uid="171838" user="argrath" changeset="7544906" lat="38.277969" lon="140.875734">
    <tag k="amenity" v="school"/>
    <tag k="name" v="国立宮城教育大学附属小学校"/>
    <tag k="source" v="NRPB of MLIT Japan."/>
    <tag k="source:ja" v="国土数値情報（公共施設データ）平成18年　国土交通省"/>
    <tag k="source_ref" v="http://nlftp.mlit.go.jp/ksj/jpgis/datalist/KsjTmplt-P02-v2_0.html"/>
  </node>
  <node id="1200157554" version="1" timestamp="2011-03-13T13:42:24Z" uid="171838" user="argrath" changeset="7544906" lat="38.296857" lon="140.885453">
    <tag k="amenity" v="school"/>
    <tag k="name" v="市立旭丘小学校"/>
    <tag k="source" v="NRPB of MLIT Japan."/>
    <tag k="source:ja" v="国土数値情報（公共施設データ）平成18年　国土交通省"/>
    <tag k="source_ref" v="http://nlftp.mlit.go.jp/ksj/jpgis/datalist/KsjTmplt-P02-v2_0.html"/>
  </node>
  <node id="1200157556" version="1" timestamp="2011-03-13T13:42:25Z" uid="171838" user="argrath" changeset="7544906" lat="38.286578" lon="140.839349">
    <tag k="amenity" v="school"/>
    <tag k="name" v="市立貝森小学校"/>
    <tag k="source" v="NRPB of MLIT Japan."/>
    <tag k="source:ja" v="国土数値情報（公共施設データ）平成18年　国土交通省"/>
    <tag k="source_ref" v="http://nlftp.mlit.go.jp/ksj/jpgis/datalist/KsjTmplt-P02-v2_0.html"/>
  </node>
  <node id="1200157559" version="1" timestamp="2011-03-13T13:42:25Z" uid="171838" user="argrath" changeset="7544906" lat="38.290075" lon="140.825576">
    <tag k="amenity" v="school"/>
    <tag k="name" v="市立吉成小学校"/>
    <tag k="source" v="NRPB of MLIT Japan."/>
    <tag k="source:ja" v="国土数値情報（公共施設データ）平成18年　国土交通省"/>
    <tag k="source_ref" v="http://nlftp.mlit.go.jp/ksj/jpgis/datalist/KsjTmplt-P02-v2_0.html"/>
  </node>
  <node id="1200157574" version="1" timestamp="2011-03-13T13:42:26Z" uid="171838" user="argrath" changeset="7544906" lat="38.267413" lon="140.786299">
    <tag k="amenity" v="school"/>
    <tag k="name" v="市立栗生小学校"/>
    <tag k="source" v="NRPB of MLIT Japan."/>
    <tag k="source:ja" v="国土数値情報（公共施設データ）平成18年　国土交通省"/>
    <tag k="source_ref" v="http://nlftp.mlit.go.jp/ksj/jpgis/datalist/KsjTmplt-P02-v2_0.html"/>
  </node>
  <node id="1200157576" version="1" timestamp="2011-03-13T13:42:26Z" uid="171838" user="argrath" changeset="7544906" lat="38.271856" lon="140.776299">
    <tag k="amenity" v="school"/>
    <tag k="name" v="市立広瀬小学校"/>
    <tag k="source" v="NRPB of MLIT Japan."/>
    <tag k="source:ja" v="国土数値情報（公共施設データ）平成18年　国土交通省"/>
    <tag k="source_ref" v="http://nlftp.mlit.go.jp/ksj/jpgis/datalist/KsjTmplt-P02-v2_0.html"/>
  </node>
  <node id="1200157577" version="1" timestamp="2011-03-13T13:42:26Z" uid="171838" user="argrath" changeset="7544906" lat="38.286578" lon="140.856848">
    <tag k="amenity" v="school"/>
    <tag k="name" v="市立荒巻小学校"/>
    <tag k="source" v="NRPB of MLIT Japan."/>
    <tag k="source:ja" v="国土数値情報（公共施設データ）平成18年　国土交通省"/>
    <tag k="source_ref" v="http://nlftp.mlit.go.jp/ksj/jpgis/datalist/KsjTmplt-P02-v2_0.html"/>
  </node>
  <node id="1200157591" version="1" timestamp="2011-03-13T13:42:27Z" uid="171838" user="argrath" changeset="7544906" lat="38.276857" lon="140.844349">
    <tag k="amenity" v="school"/>
    <tag k="name" v="市立国見小学校"/>
    <tag k="source" v="NRPB of MLIT Japan."/>
    <tag k="source:ja" v="国土数値情報（公共施設データ）平成18年　国土交通省"/>
    <tag k="source_ref" v="http://nlftp.mlit.go.jp/ksj/jpgis/datalist/KsjTmplt-P02-v2_0.html"/>
  </node>
  <node id="1200157593" version="1" timestamp="2011-03-13T13:42:27Z" uid="171838" user="argrath" changeset="7544906" lat="38.316846" lon="140.63603">
    <tag k="amenity" v="school"/>
    <tag k="name" v="市立作並小学校"/>
    <tag k="source" v="NRPB of MLIT Japan."/>
    <tag k="source:ja" v="国土数値情報（公共施設データ）平成18年　国土交通省"/>
    <tag k="source_ref" v="http://nlftp.mlit.go.jp/ksj/jpgis/datalist/KsjTmplt-P02-v2_0.html"/>
  </node>
  <node id="1200157601" version="1" timestamp="2011-03-13T13:42:28Z" uid="171838" user="argrath" changeset="7544906" lat="38.303792" lon="140.632697">
    <tag k="amenity" v="school"/>
    <tag k="name" v="市立作並小学校新川分校"/>
    <tag k="source" v="NRPB of MLIT Japan."/>
    <tag k="source:ja" v="国土数値情報（公共施設データ）平成18年　国土交通省"/>
    <tag k="source_ref" v="http://nlftp.mlit.go.jp/ksj/jpgis/datalist/KsjTmplt-P02-v2_0.html"/>
  </node>
  <node id="1200157611" version="1" timestamp="2011-03-13T13:42:28Z" uid="171838" user="argrath" changeset="7544906" lat="38.30352" lon="140.849902">
    <tag k="amenity" v="school"/>
    <tag k="name" v="市立桜丘小学校"/>
    <tag k="source" v="NRPB of MLIT Japan."/>
    <tag k="source:ja" v="国土数値情報（公共施設データ）平成18年　国土交通省"/>
    <tag k="source_ref" v="http://nlftp.mlit.go.jp/ksj/jpgis/datalist/KsjTmplt-P02-v2_0.html"/>
  </node>
  <node id="1200157616" version="1" timestamp="2011-03-13T13:42:29Z" uid="171838" user="argrath" changeset="7544906" lat="38.28047" lon="140.889066">
    <tag k="amenity" v="school"/>
    <tag k="name" v="市立小松島小学校"/>
    <tag k="source" v="NRPB of MLIT Japan."/>
    <tag k="source:ja" v="国土数値情報（公共施設データ）平成18年　国土交通省"/>
    <tag k="source_ref" v="http://nlftp.mlit.go.jp/ksj/jpgis/datalist/KsjTmplt-P02-v2_0.html"/>
  </node>
  <node id="1200157621" version="1" timestamp="2011-03-13T13:42:29Z" uid="171838" user="argrath" changeset="7544906" lat="38.28463" lon="140.692694">
    <tag k="amenity" v="school"/>
    <tag k="name" v="市立上愛子小学校"/>
    <tag k="source" v="NRPB of MLIT Japan."/>
    <tag k="source:ja" v="国土数値情報（公共施設データ）平成18年　国土交通省"/>
    <tag k="source_ref" v="http://nlftp.mlit.go.jp/ksj/jpgis/datalist/KsjTmplt-P02-v2_0.html"/>
  </node>
  <node id="1200157634" version="1" timestamp="2011-03-13T13:42:30Z" uid="171838" user="argrath" changeset="7544906" lat="38.271581" lon="140.873513">
    <tag k="amenity" v="school"/>
    <tag k="name" v="市立上杉山通小学校"/>
    <tag k="source" v="NRPB of MLIT Japan."/>
    <tag k="source:ja" v="国土数値情報（公共施設データ）平成18年　国土交通省"/>
    <tag k="source_ref" v="http://nlftp.mlit.go.jp/ksj/jpgis/datalist/KsjTmplt-P02-v2_0.html"/>
  </node>
  <node id="1200157642" version="1" timestamp="2011-03-13T13:42:31Z" uid="171838" user="argrath" changeset="7544906" lat="38.26047" lon="140.808242">
    <tag k="amenity" v="school"/>
    <tag k="name" v="市立折立小学校"/>
    <tag k="source" v="NRPB of MLIT Japan."/>
    <tag k="source:ja" v="国土数値情報（公共施設データ）平成18年　国土交通省"/>
    <tag k="source_ref" v="http://nlftp.mlit.go.jp/ksj/jpgis/datalist/KsjTmplt-P02-v2_0.html"/>
  </node>
  <node id="1200157653" version="1" timestamp="2011-03-13T13:42:31Z" uid="171838" user="argrath" changeset="7544906" lat="38.290186" lon="140.747412">
    <tag k="amenity" v="school"/>
    <tag k="name" v="市立川前小学校"/>
    <tag k="source" v="NRPB of MLIT Japan."/>
    <tag k="source:ja" v="国土数値情報（公共施設データ）平成18年　国土交通省"/>
    <tag k="source_ref" v="http://nlftp.mlit.go.jp/ksj/jpgis/datalist/KsjTmplt-P02-v2_0.html"/>
  </node>
  <node id="1200157658" version="1" timestamp="2011-03-13T13:42:32Z" uid="171838" user="argrath" changeset="7544906" lat="38.305464" lon="140.837681">
    <tag k="amenity" v="school"/>
    <tag k="name" v="市立川平小学校"/>
    <tag k="source" v="NRPB of MLIT Japan."/>
    <tag k="source:ja" v="国土数値情報（公共施設データ）平成18年　国土交通省"/>
    <tag k="source_ref" v="http://nlftp.mlit.go.jp/ksj/jpgis/datalist/KsjTmplt-P02-v2_0.html"/>
  </node>
  <node id="1200157662" version="1" timestamp="2011-03-13T13:42:32Z" uid="171838" user="argrath" changeset="7544906" lat="38.286024" lon="140.879899">
    <tag k="amenity" v="school"/>
    <tag k="name" v="市立台原小学校"/>
    <tag k="source" v="NRPB of MLIT Japan."/>
    <tag k="source:ja" v="国土数値情報（公共施設データ）平成18年　国土交通省"/>
    <tag k="source_ref" v="http://nlftp.mlit.go.jp/ksj/jpgis/datalist/KsjTmplt-P02-v2_0.html"/>
  </node>
  <node id="1200157670" version="1" timestamp="2011-03-13T13:42:33Z" uid="171838" user="argrath" changeset="7544906" lat="38.334346" lon="140.698803">
    <tag k="amenity" v="school"/>
    <tag k="name" v="市立大倉小学校"/>
    <tag k="source" v="NRPB of MLIT Japan."/>
    <tag k="source:ja" v="国土数値情報（公共施設データ）平成18年　国土交通省"/>
    <tag k="source_ref" v="http://nlftp.mlit.go.jp/ksj/jpgis/datalist/KsjTmplt-P02-v2_0.html"/>
  </node>
  <node id="1200157673" version="1" timestamp="2011-03-13T13:42:33Z" uid="171838" user="argrath" changeset="7544906" lat="38.29963" lon="140.774076">
    <tag k="amenity" v="school"/>
    <tag k="name" v="市立大沢小学校"/>
    <tag k="source" v="NRPB of MLIT Japan."/>
    <tag k="source:ja" v="国土数値情報（公共施設データ）平成18年　国土交通省"/>
    <tag k="source_ref" v="http://nlftp.mlit.go.jp/ksj/jpgis/datalist/KsjTmplt-P02-v2_0.html"/>
  </node>
  <node id="1200157677" version="1" timestamp="2011-03-13T13:42:33Z" uid="171838" user="argrath" changeset="7544906" lat="38.291855" lon="140.850181">
    <tag k="amenity" v="school"/>
    <tag k="name" v="市立中山小学校"/>
    <tag k="source" v="NRPB of MLIT Japan."/>
    <tag k="source:ja" v="国土数値情報（公共施設データ）平成18年　国土交通省"/>
    <tag k="source_ref" v="http://nlftp.mlit.go.jp/ksj/jpgis/datalist/KsjTmplt-P02-v2_0.html"/>
  </node>
  <node id="1200157689" version="1" timestamp="2011-03-13T13:42:34Z" uid="171838" user="argrath" changeset="7544906" lat="38.276858" lon="140.86268">
    <tag k="amenity" v="school"/>
    <tag k="name" v="市立通町小学校"/>
    <tag k="source" v="NRPB of MLIT Japan."/>
    <tag k="source:ja" v="国土数値情報（公共施設データ）平成18年　国土交通省"/>
    <tag k="source_ref" v="http://nlftp.mlit.go.jp/ksj/jpgis/datalist/KsjTmplt-P02-v2_0.html"/>
  </node>
  <node id="1200157692" version="1" timestamp="2011-03-13T13:42:35Z" uid="171838" user="argrath" changeset="7544906" lat="38.25936" lon="140.874625">
    <tag k="amenity" v="school"/>
    <tag k="name" v="市立東二番丁小学校"/>
    <tag k="source" v="NRPB of MLIT Japan."/>
    <tag k="source:ja" v="国土数値情報（公共施設データ）平成18年　国土交通省"/>
    <tag k="source_ref" v="http://nlftp.mlit.go.jp/ksj/jpgis/datalist/KsjTmplt-P02-v2_0.html"/>
  </node>
  <node id="1200157693" version="1" timestamp="2011-03-13T13:42:35Z" uid="171838" user="argrath" changeset="7544906" lat="38.266026" lon="140.884067">
    <tag k="amenity" v="school"/>
    <tag k="name" v="市立東六番丁小学校"/>
    <tag k="source" v="NRPB of MLIT Japan."/>
    <tag k="source:ja" v="国土数値情報（公共施設データ）平成18年　国土交通省"/>
    <tag k="source_ref" v="http://nlftp.mlit.go.jp/ksj/jpgis/datalist/KsjTmplt-P02-v2_0.html"/>
  </node>
  <node id="1200157700" version="1" timestamp="2011-03-13T13:42:36Z" uid="171838" user="argrath" changeset="7544906" lat="38.291021" lon="140.813796">
    <tag k="amenity" v="school"/>
    <tag k="name" v="市立南吉成小学校"/>
    <tag k="source" v="NRPB of MLIT Japan."/>
    <tag k="source:ja" v="国土数値情報（公共施設データ）平成18年　国土交通省"/>
    <tag k="source_ref" v="http://nlftp.mlit.go.jp/ksj/jpgis/datalist/KsjTmplt-P02-v2_0.html"/>
  </node>
  <node id="1200157703" version="1" timestamp="2011-03-13T13:42:36Z" uid="171838" user="argrath" changeset="7544906" lat="38.27158" lon="140.853237">
    <tag k="amenity" v="school"/>
    <tag k="name" v="市立八幡小学校"/>
    <tag k="source" v="NRPB of MLIT Japan."/>
    <tag k="source:ja" v="国土数値情報（公共施設データ）平成18年　国土交通省"/>
    <tag k="source_ref" v="http://nlftp.mlit.go.jp/ksj/jpgis/datalist/KsjTmplt-P02-v2_0.html"/>
  </node>
  <node id="1200157704" version="1" timestamp="2011-03-13T13:42:36Z" uid="171838" user="argrath" changeset="7544906" lat="38.256027" lon="140.86907">
    <tag k="amenity" v="school"/>
    <tag k="name" v="市立片平丁小学校"/>
    <tag k="source" v="NRPB of MLIT Japan."/>
    <tag k="source:ja" v="国土数値情報（公共施設データ）平成18年　国土交通省"/>
    <tag k="source_ref" v="http://nlftp.mlit.go.jp/ksj/jpgis/datalist/KsjTmplt-P02-v2_0.html"/>
  </node>
  <node id="1200157708" version="1" timestamp="2011-03-13T13:42:37Z" uid="171838" user="argrath" changeset="7544906" lat="38.297411" lon="140.86129">
    <tag k="amenity" v="school"/>
    <tag k="name" v="市立北仙台小学校"/>
    <tag k="source" v="NRPB of MLIT Japan."/>
    <tag k="source:ja" v="国土数値情報（公共施設データ）平成18年　国土交通省"/>
    <tag k="source_ref" v="http://nlftp.mlit.go.jp/ksj/jpgis/datalist/KsjTmplt-P02-v2_0.html"/>
  </node>
  <node id="1200157712" version="1" timestamp="2011-03-13T13:42:37Z" uid="171838" user="argrath" changeset="7544906" lat="38.276303" lon="140.8824">
    <tag k="amenity" v="school"/>
    <tag k="name" v="市立北六番丁小学校"/>
    <tag k="source" v="NRPB of MLIT Japan."/>
    <tag k="source:ja" v="国土数値情報（公共施設データ）平成18年　国土交通省"/>
    <tag k="source_ref" v="http://nlftp.mlit.go.jp/ksj/jpgis/datalist/KsjTmplt-P02-v2_0.html"/>
  </node>
  <node id="1200157717" version="1" timestamp="2011-03-13T13:42:38Z" uid="171838" user="argrath" changeset="7544906" lat="38.271025" lon="140.864347">
    <tag k="amenity" v="school"/>
    <tag k="name" v="市立木町通小学校"/>
    <tag k="source" v="NRPB of MLIT Japan."/>
    <tag k="source:ja" v="国土数値情報（公共施設データ）平成18年　国土交通省"/>
    <tag k="source_ref" v="http://nlftp.mlit.go.jp/ksj/jpgis/datalist/KsjTmplt-P02-v2_0.html"/>
  </node>
  <node id="1200157720" version="1" timestamp="2011-03-13T13:42:38Z" uid="171838" user="argrath" changeset="7544906" lat="38.271806" lon="140.860828">
    <tag k="amenity" v="school"/>
    <tag k="name" v="市立木町通小学校東北大学病院分校"/>
    <tag k="source" v="NRPB of MLIT Japan."/>
    <tag k="source:ja" v="国土数値情報（公共施設データ）平成18年　国土交通省"/>
    <tag k="source_ref" v="http://nlftp.mlit.go.jp/ksj/jpgis/datalist/KsjTmplt-P02-v2_0.html"/>
  </node>
  <node id="1200157722" version="1" timestamp="2011-03-13T13:42:38Z" uid="171838" user="argrath" changeset="7544906" lat="38.262137" lon="140.863792">
    <tag k="amenity" v="school"/>
    <tag k="name" v="市立立町小学校"/>
    <tag k="source" v="NRPB of MLIT Japan."/>
    <tag k="source:ja" v="国土数値情報（公共施設データ）平成18年　国土交通省"/>
    <tag k="source_ref" v="http://nlftp.mlit.go.jp/ksj/jpgis/datalist/KsjTmplt-P02-v2_0.html"/>
  </node>
  <node id="1200157728" version="1" timestamp="2011-03-13T13:42:38Z" uid="171838" user="argrath" changeset="7544906" lat="38.266025" lon="140.848794">
    <tag k="amenity" v="school"/>
    <tag k="name" v="私立聖ドミニコ学院小学校"/>
    <tag k="source" v="NRPB of MLIT Japan."/>
    <tag k="source:ja" v="国土数値情報（公共施設データ）平成18年　国土交通省"/>
    <tag k="source_ref" v="http://nlftp.mlit.go.jp/ksj/jpgis/datalist/KsjTmplt-P02-v2_0.html"/>
  </node>
  <node id="1200157729" version="1" timestamp="2011-03-13T13:42:39Z" uid="171838" user="argrath" changeset="7544906" lat="38.288525" lon="140.929339">
    <tag k="amenity" v="school"/>
    <tag k="name" v="市立燕沢小学校"/>
    <tag k="source" v="NRPB of MLIT Japan."/>
    <tag k="source:ja" v="国土数値情報（公共施設データ）平成18年　国土交通省"/>
    <tag k="source_ref" v="http://nlftp.mlit.go.jp/ksj/jpgis/datalist/KsjTmplt-P02-v2_0.html"/>
  </node>
  <node id="1200157730" version="1" timestamp="2011-03-13T13:42:39Z" uid="171838" user="argrath" changeset="7544906" lat="38.256864" lon="140.978781">
    <tag k="amenity" v="school"/>
    <tag k="name" v="市立岡田小学校"/>
    <tag k="source" v="NRPB of MLIT Japan."/>
    <tag k="source:ja" v="国土数値情報（公共施設データ）平成18年　国土交通省"/>
    <tag k="source_ref" v="http://nlftp.mlit.go.jp/ksj/jpgis/datalist/KsjTmplt-P02-v2_0.html"/>
  </node>
  <node id="1200157734" version="1" timestamp="2011-03-13T13:42:39Z" uid="171838" user="argrath" changeset="7544906" lat="38.300017" lon="140.942995">
    <tag k="amenity" v="school"/>
    <tag k="name" v="市立岩切小学校"/>
    <tag k="source" v="NRPB of MLIT Japan."/>
    <tag k="source:ja" v="国土数値情報（公共施設データ）平成18年　国土交通省"/>
    <tag k="source_ref" v="http://nlftp.mlit.go.jp/ksj/jpgis/datalist/KsjTmplt-P02-v2_0.html"/>
  </node>
  <node id="1200157738" version="1" timestamp="2011-03-13T13:42:39Z" uid="171838" user="argrath" changeset="7544906" lat="38.260751" lon="140.916009">
    <tag k="amenity" v="school"/>
    <tag k="name" v="市立宮城野小学校"/>
    <tag k="source" v="NRPB of MLIT Japan."/>
    <tag k="source:ja" v="国土数値情報（公共施設データ）平成18年　国土交通省"/>
    <tag k="source_ref" v="http://nlftp.mlit.go.jp/ksj/jpgis/datalist/KsjTmplt-P02-v2_0.html"/>
  </node>
  <node id="1200157741" version="1" timestamp="2011-03-13T13:42:40Z" uid="171838" user="argrath" changeset="7544906" lat="38.266583" lon="140.903232">
    <tag k="amenity" v="school"/>
    <tag k="name" v="市立原町小学校"/>
    <tag k="source" v="NRPB of MLIT Japan."/>
    <tag k="source:ja" v="国土数値情報（公共施設データ）平成18年　国土交通省"/>
    <tag k="source_ref" v="http://nlftp.mlit.go.jp/ksj/jpgis/datalist/KsjTmplt-P02-v2_0.html"/>
  </node>
  <node id="1200157743" version="1" timestamp="2011-03-13T13:42:40Z" uid="171838" user="argrath" changeset="7544906" lat="38.276859" lon="140.897954">
    <tag k="amenity" v="school"/>
    <tag k="name" v="市立幸町小学校"/>
    <tag k="source" v="NRPB of MLIT Japan."/>
    <tag k="source:ja" v="国土数値情報（公共施設データ）平成18年　国土交通省"/>
    <tag k="source_ref" v="http://nlftp.mlit.go.jp/ksj/jpgis/datalist/KsjTmplt-P02-v2_0.html"/>
  </node>
  <node id="1200157746" version="1" timestamp="2011-03-13T13:42:40Z" uid="171838" user="argrath" changeset="7544906" lat="38.274082" lon="140.899343">
    <tag k="amenity" v="school"/>
    <tag k="name" v="市立幸町南小学校"/>
    <tag k="source" v="NRPB of MLIT Japan."/>
    <tag k="source:ja" v="国土数値情報（公共施設データ）平成18年　国土交通省"/>
    <tag k="source_ref" v="http://nlftp.mlit.go.jp/ksj/jpgis/datalist/KsjTmplt-P02-v2_0.html"/>
  </node>
  <node id="1200157753" version="1" timestamp="2011-03-13T13:42:40Z" uid="171838" user="argrath" changeset="7544906" lat="38.273805" lon="140.957949">
    <tag k="amenity" v="school"/>
    <tag k="name" v="市立高砂小学校"/>
    <tag k="source" v="NRPB of MLIT Japan."/>
    <tag k="source:ja" v="国土数値情報（公共施設データ）平成18年　国土交通省"/>
    <tag k="source_ref" v="http://nlftp.mlit.go.jp/ksj/jpgis/datalist/KsjTmplt-P02-v2_0.html"/>
  </node>
  <node id="1200157754" version="1" timestamp="2011-03-13T13:42:41Z" uid="171838" user="argrath" changeset="7544906" lat="38.276304" lon="140.928229">
    <tag k="amenity" v="school"/>
    <tag k="name" v="市立新田小学校"/>
    <tag k="source" v="NRPB of MLIT Japan."/>
    <tag k="source:ja" v="国土数値情報（公共施設データ）平成18年　国土交通省"/>
    <tag k="source_ref" v="http://nlftp.mlit.go.jp/ksj/jpgis/datalist/KsjTmplt-P02-v2_0.html"/>
  </node>
  <node id="1200157757" version="1" timestamp="2011-03-13T13:42:41Z" uid="171838" user="argrath" changeset="7544906" lat="38.283248" lon="140.914897">
    <tag k="amenity" v="school"/>
    <tag k="name" v="市立西山小学校"/>
    <tag k="source" v="NRPB of MLIT Japan."/>
    <tag k="source:ja" v="国土数値情報（公共施設データ）平成18年　国土交通省"/>
    <tag k="source_ref" v="http://nlftp.mlit.go.jp/ksj/jpgis/datalist/KsjTmplt-P02-v2_0.html"/>
  </node>
  <node id="1200157763" version="1" timestamp="2011-03-13T13:42:42Z" uid="171838" user="argrath" changeset="7544906" lat="38.282973" lon="140.982391">
    <tag k="amenity" v="school"/>
    <tag k="name" v="市立中野栄小学校"/>
    <tag k="source" v="NRPB of MLIT Japan."/>
    <tag k="source:ja" v="国土数値情報（公共施設データ）平成18年　国土交通省"/>
    <tag k="source_ref" v="http://nlftp.mlit.go.jp/ksj/jpgis/datalist/KsjTmplt-P02-v2_0.html"/>
  </node>
  <node id="1200157767" version="1" timestamp="2011-03-13T13:42:42Z" uid="171838" user="argrath" changeset="7544906" lat="38.257143" lon="141.002946">
    <tag k="amenity" v="school"/>
    <tag k="name" v="市立中野小学校"/>
    <tag k="source" v="NRPB of MLIT Japan."/>
    <tag k="source:ja" v="国土数値情報（公共施設データ）平成18年　国土交通省"/>
    <tag k="source_ref" v="http://nlftp.mlit.go.jp/ksj/jpgis/datalist/KsjTmplt-P02-v2_0.html"/>
  </node>
  <node id="1200157768" version="1" timestamp="2011-03-13T13:42:42Z" uid="171838" user="argrath" changeset="7544906" lat="38.262974" lon="140.967671">
    <tag k="amenity" v="school"/>
    <tag k="name" v="市立鶴巻小学校"/>
    <tag k="source" v="NRPB of MLIT Japan."/>
    <tag k="source:ja" v="国土数値情報（公共施設データ）平成18年　国土交通省"/>
    <tag k="source_ref" v="http://nlftp.mlit.go.jp/ksj/jpgis/datalist/KsjTmplt-P02-v2_0.html"/>
  </node>
  <node id="1200157769" version="1" timestamp="2011-03-13T13:42:43Z" uid="171838" user="argrath" changeset="7544906" lat="38.290746" lon="140.910452">
    <tag k="amenity" v="school"/>
    <tag k="name" v="市立鶴谷小学校"/>
    <tag k="source" v="NRPB of MLIT Japan."/>
    <tag k="source:ja" v="国土数値情報（公共施設データ）平成18年　国土交通省"/>
    <tag k="source_ref" v="http://nlftp.mlit.go.jp/ksj/jpgis/datalist/KsjTmplt-P02-v2_0.html"/>
  </node>
  <node id="1200157772" version="1" timestamp="2011-03-13T13:42:43Z" uid="171838" user="argrath" changeset="7544906" lat="38.291025" lon="140.919896">
    <tag k="amenity" v="school"/>
    <tag k="name" v="市立鶴谷東小学校"/>
    <tag k="source" v="NRPB of MLIT Japan."/>
    <tag k="source:ja" v="国土数値情報（公共施設データ）平成18年　国土交通省"/>
    <tag k="source_ref" v="http://nlftp.mlit.go.jp/ksj/jpgis/datalist/KsjTmplt-P02-v2_0.html"/>
  </node>
  <node id="1200157774" version="1" timestamp="2011-03-13T13:42:43Z" uid="171838" user="argrath" changeset="7544906" lat="38.280194" lon="140.962393">
    <tag k="amenity" v="school"/>
    <tag k="name" v="市立田子小学校"/>
    <tag k="source" v="NRPB of MLIT Japan."/>
    <tag k="source:ja" v="国土数値情報（公共施設データ）平成18年　国土交通省"/>
    <tag k="source_ref" v="http://nlftp.mlit.go.jp/ksj/jpgis/datalist/KsjTmplt-P02-v2_0.html"/>
  </node>
  <node id="1200157779" version="1" timestamp="2011-03-13T13:42:44Z" uid="171838" user="argrath" changeset="7544906" lat="38.259084" lon="140.919343">
    <tag k="amenity" v="school"/>
    <tag k="name" v="市立東宮城野小学校"/>
    <tag k="source" v="NRPB of MLIT Japan."/>
    <tag k="source:ja" v="国土数値情報（公共施設データ）平成18年　国土交通省"/>
    <tag k="source_ref" v="http://nlftp.mlit.go.jp/ksj/jpgis/datalist/KsjTmplt-P02-v2_0.html"/>
  </node>
  <node id="1200157781" version="1" timestamp="2011-03-13T13:42:44Z" uid="171838" user="argrath" changeset="7544906" lat="38.277693" lon="140.912675">
    <tag k="amenity" v="school"/>
    <tag k="name" v="市立東仙台小学校"/>
    <tag k="source" v="NRPB of MLIT Japan."/>
    <tag k="source:ja" v="国土数値情報（公共施設データ）平成18年　国土交通省"/>
    <tag k="source_ref" v="http://nlftp.mlit.go.jp/ksj/jpgis/datalist/KsjTmplt-P02-v2_0.html"/>
  </node>
  <node id="1200157783" version="1" timestamp="2011-03-13T13:42:44Z" uid="171838" user="argrath" changeset="7544906" lat="38.280473" lon="140.972115">
    <tag k="amenity" v="school"/>
    <tag k="name" v="市立福室小学校"/>
    <tag k="source" v="NRPB of MLIT Japan."/>
    <tag k="source:ja" v="国土数値情報（公共施設データ）平成18年　国土交通省"/>
    <tag k="source_ref" v="http://nlftp.mlit.go.jp/ksj/jpgis/datalist/KsjTmplt-P02-v2_0.html"/>
  </node>
  <node id="1200157787" version="1" timestamp="2011-03-13T13:42:45Z" uid="171838" user="argrath" changeset="7544906" lat="38.281303" lon="140.904342">
    <tag k="amenity" v="school"/>
    <tag k="name" v="市立枡江小学校"/>
    <tag k="source" v="NRPB of MLIT Japan."/>
    <tag k="source:ja" v="国土数値情報（公共施設データ）平成18年　国土交通省"/>
    <tag k="source_ref" v="http://nlftp.mlit.go.jp/ksj/jpgis/datalist/KsjTmplt-P02-v2_0.html"/>
  </node>
  <node id="1200157788" version="1" timestamp="2011-03-13T13:42:45Z" uid="171838" user="argrath" changeset="7544906" lat="38.261583" lon="140.890734">
    <tag k="amenity" v="school"/>
    <tag k="name" v="市立榴岡小学校"/>
    <tag k="source" v="NRPB of MLIT Japan."/>
    <tag k="source:ja" v="国土数値情報（公共施設データ）平成18年　国土交通省"/>
    <tag k="source_ref" v="http://nlftp.mlit.go.jp/ksj/jpgis/datalist/KsjTmplt-P02-v2_0.html"/>
  </node>
  <node id="1200157793" version="1" timestamp="2011-03-13T13:42:45Z" uid="171838" user="argrath" changeset="7544906" lat="38.238252" lon="140.912678">
    <tag k="amenity" v="school"/>
    <tag k="name" v="市立遠見塚小学校"/>
    <tag k="source" v="NRPB of MLIT Japan."/>
    <tag k="source:ja" v="国土数値情報（公共施設データ）平成18年　国土交通省"/>
    <tag k="source_ref" v="http://nlftp.mlit.go.jp/ksj/jpgis/datalist/KsjTmplt-P02-v2_0.html"/>
  </node>
  <node id="1200157794" version="1" timestamp="2011-03-13T13:42:45Z" uid="171838" user="argrath" changeset="7544906" lat="38.225754" lon="140.913789">
    <tag k="amenity" v="school"/>
    <tag k="name" v="市立沖野小学校"/>
    <tag k="source" v="NRPB of MLIT Japan."/>
    <tag k="source:ja" v="国土数値情報（公共施設データ）平成18年　国土交通省"/>
    <tag k="source_ref" v="http://nlftp.mlit.go.jp/ksj/jpgis/datalist/KsjTmplt-P02-v2_0.html"/>
  </node>
  <node id="1200157796" version="1" timestamp="2011-03-13T13:42:45Z" uid="171838" user="argrath" changeset="7544906" lat="38.222421" lon="140.9224">
    <tag k="amenity" v="school"/>
    <tag k="name" v="市立沖野東小学校"/>
    <tag k="source" v="NRPB of MLIT Japan."/>
    <tag k="source:ja" v="国土数値情報（公共施設データ）平成18年　国土交通省"/>
    <tag k="source_ref" v="http://nlftp.mlit.go.jp/ksj/jpgis/datalist/KsjTmplt-P02-v2_0.html"/>
  </node>
  <node id="1200157799" version="1" timestamp="2011-03-13T13:42:46Z" uid="171838" user="argrath" changeset="7544906" lat="38.242419" lon="140.929065">
    <tag k="amenity" v="school"/>
    <tag k="name" v="市立蒲町小学校"/>
    <tag k="source" v="NRPB of MLIT Japan."/>
    <tag k="source:ja" v="国土数値情報（公共施設データ）平成18年　国土交通省"/>
    <tag k="source_ref" v="http://nlftp.mlit.go.jp/ksj/jpgis/datalist/KsjTmplt-P02-v2_0.html"/>
  </node>
  <node id="1200157801" version="1" timestamp="2011-03-13T13:42:46Z" uid="171838" user="argrath" changeset="7544906" lat="38.23603" lon="140.897401">
    <tag k="amenity" v="school"/>
    <tag k="name" v="市立古城小学校"/>
    <tag k="source" v="NRPB of MLIT Japan."/>
    <tag k="source:ja" v="国土数値情報（公共施設データ）平成18年　国土交通省"/>
    <tag k="source_ref" v="http://nlftp.mlit.go.jp/ksj/jpgis/datalist/KsjTmplt-P02-v2_0.html"/>
  </node>
  <node id="1200157803" version="1" timestamp="2011-03-13T13:42:46Z" uid="171838" user="argrath" changeset="7544906" lat="38.248805" lon="140.881013">
    <tag k="amenity" v="school"/>
    <tag k="name" v="市立荒町小学校"/>
    <tag k="source" v="NRPB of MLIT Japan."/>
    <tag k="source:ja" v="国土数値情報（公共施設データ）平成18年　国土交通省"/>
    <tag k="source_ref" v="http://nlftp.mlit.go.jp/ksj/jpgis/datalist/KsjTmplt-P02-v2_0.html"/>
  </node>
  <node id="1200157807" version="1" timestamp="2011-03-13T13:42:47Z" uid="171838" user="argrath" changeset="7544906" lat="38.222424" lon="140.98045">
    <tag k="amenity" v="school"/>
    <tag k="name" v="市立荒浜小学校"/>
    <tag k="source" v="NRPB of MLIT Japan."/>
    <tag k="source:ja" v="国土数値情報（公共施設データ）平成18年　国土交通省"/>
    <tag k="source_ref" v="http://nlftp.mlit.go.jp/ksj/jpgis/datalist/KsjTmplt-P02-v2_0.html"/>
  </node>
  <node id="1200157808" version="1" timestamp="2011-03-13T13:42:47Z" uid="171838" user="argrath" changeset="7544906" lat="38.24103" lon="140.94212">
    <tag k="amenity" v="school"/>
    <tag k="name" v="市立七郷小学校"/>
    <tag k="source" v="NRPB of MLIT Japan."/>
    <tag k="source:ja" v="国土数値情報（公共施設データ）平成18年　国土交通省"/>
    <tag k="source_ref" v="http://nlftp.mlit.go.jp/ksj/jpgis/datalist/KsjTmplt-P02-v2_0.html"/>
  </node>
  <node id="1200157811" version="1" timestamp="2011-03-13T13:42:47Z" uid="171838" user="argrath" changeset="7544906" lat="38.229919" lon="140.899346">
    <tag k="amenity" v="school"/>
    <tag k="name" v="市立若林小学校"/>
    <tag k="source" v="NRPB of MLIT Japan."/>
    <tag k="source:ja" v="国土数値情報（公共施設データ）平成18年　国土交通省"/>
    <tag k="source_ref" v="http://nlftp.mlit.go.jp/ksj/jpgis/datalist/KsjTmplt-P02-v2_0.html"/>
  </node>
  <node id="1200157813" version="1" timestamp="2011-03-13T13:42:47Z" uid="171838" user="argrath" changeset="7544906" lat="38.246585" lon="140.917399">
    <tag k="amenity" v="school"/>
    <tag k="name" v="市立大和小学校"/>
    <tag k="source" v="NRPB of MLIT Japan."/>
    <tag k="source:ja" v="国土数値情報（公共施設データ）平成18年　国土交通省"/>
    <tag k="source_ref" v="http://nlftp.mlit.go.jp/ksj/jpgis/datalist/KsjTmplt-P02-v2_0.html"/>
  </node>
  <node id="1200157814" version="1" timestamp="2011-03-13T13:42:47Z" uid="171838" user="argrath" changeset="7544906" lat="38.199092" lon="140.94851">
    <tag k="amenity" v="school"/>
    <tag k="name" v="市立東六郷小学校"/>
    <tag k="source" v="NRPB of MLIT Japan."/>
    <tag k="source:ja" v="国土数値情報（公共施設データ）平成18年　国土交通省"/>
    <tag k="source_ref" v="http://nlftp.mlit.go.jp/ksj/jpgis/datalist/KsjTmplt-P02-v2_0.html"/>
  </node>
  <node id="1200157818" version="1" timestamp="2011-03-13T13:42:48Z" uid="171838" user="argrath" changeset="7544906" lat="38.241307" lon="140.889624">
    <tag k="amenity" v="school"/>
    <tag k="name" v="市立南材木町小学校"/>
    <tag k="source" v="NRPB of MLIT Japan."/>
    <tag k="source:ja" v="国土数値情報（公共施設データ）平成18年　国土交通省"/>
    <tag k="source_ref" v="http://nlftp.mlit.go.jp/ksj/jpgis/datalist/KsjTmplt-P02-v2_0.html"/>
  </node>
  <node id="1200157824" version="1" timestamp="2011-03-13T13:42:49Z" uid="171838" user="argrath" changeset="7544906" lat="38.244363" lon="140.905456">
    <tag k="amenity" v="school"/>
    <tag k="name" v="市立南小泉小学校"/>
    <tag k="source" v="NRPB of MLIT Japan."/>
    <tag k="source:ja" v="国土数値情報（公共施設データ）平成18年　国土交通省"/>
    <tag k="source_ref" v="http://nlftp.mlit.go.jp/ksj/jpgis/datalist/KsjTmplt-P02-v2_0.html"/>
  </node>
  <node id="1200157825" version="1" timestamp="2011-03-13T13:42:49Z" uid="171838" user="argrath" changeset="7544906" lat="38.252972" lon="140.888512">
    <tag k="amenity" v="school"/>
    <tag k="name" v="市立連坊小路小学校"/>
    <tag k="source" v="NRPB of MLIT Japan."/>
    <tag k="source:ja" v="国土数値情報（公共施設データ）平成18年　国土交通省"/>
    <tag k="source_ref" v="http://nlftp.mlit.go.jp/ksj/jpgis/datalist/KsjTmplt-P02-v2_0.html"/>
  </node>
  <node id="1200157830" version="1" timestamp="2011-03-13T13:42:49Z" uid="171838" user="argrath" changeset="7544906" lat="38.2152" lon="140.932955">
    <tag k="amenity" v="school"/>
    <tag k="name" v="市立六郷小学校"/>
    <tag k="source" v="NRPB of MLIT Japan."/>
    <tag k="source:ja" v="国土数値情報（公共施設データ）平成18年　国土交通省"/>
    <tag k="source_ref" v="http://nlftp.mlit.go.jp/ksj/jpgis/datalist/KsjTmplt-P02-v2_0.html"/>
  </node>
  <node id="1200157832" version="1" timestamp="2011-03-13T13:42:49Z" uid="171838" user="argrath" changeset="7544906" lat="38.249917" lon="140.896567">
    <tag k="amenity" v="school"/>
    <tag k="name" v="私立聖ウルスラ学院英智小学校"/>
    <tag k="source" v="NRPB of MLIT Japan."/>
    <tag k="source:ja" v="国土数値情報（公共施設データ）平成18年　国土交通省"/>
    <tag k="source_ref" v="http://nlftp.mlit.go.jp/ksj/jpgis/datalist/KsjTmplt-P02-v2_0.html"/>
  </node>
  <node id="1200157835" version="1" timestamp="2011-03-13T13:42:50Z" uid="171838" user="argrath" changeset="7544906" lat="38.230752" lon="140.856016">
    <tag k="amenity" v="school"/>
    <tag k="name" v="市立芦口小学校"/>
    <tag k="source" v="NRPB of MLIT Japan."/>
    <tag k="source:ja" v="国土数値情報（公共施設データ）平成18年　国土交通省"/>
    <tag k="source_ref" v="http://nlftp.mlit.go.jp/ksj/jpgis/datalist/KsjTmplt-P02-v2_0.html"/>
  </node>
  <node id="1200157839" version="1" timestamp="2011-03-13T13:42:50Z" uid="171838" user="argrath" changeset="7544906" lat="38.229363" lon="140.848794">
    <tag k="amenity" v="school"/>
    <tag k="name" v="市立金剛沢小学校"/>
    <tag k="source" v="NRPB of MLIT Japan."/>
    <tag k="source:ja" v="国土数値情報（公共施設データ）平成18年　国土交通省"/>
    <tag k="source_ref" v="http://nlftp.mlit.go.jp/ksj/jpgis/datalist/KsjTmplt-P02-v2_0.html"/>
  </node>
  <node id="1200157841" version="1" timestamp="2011-03-13T13:42:50Z" uid="171838" user="argrath" changeset="7544906" lat="38.216588" lon="140.899624">
    <tag k="amenity" v="school"/>
    <tag k="name" v="市立郡山小学校"/>
    <tag k="source" v="NRPB of MLIT Japan."/>
    <tag k="source:ja" v="国土数値情報（公共施設データ）平成18年　国土交通省"/>
    <tag k="source_ref" v="http://nlftp.mlit.go.jp/ksj/jpgis/datalist/KsjTmplt-P02-v2_0.html"/>
  </node>
  <node id="1200157844" version="1" timestamp="2011-03-13T13:42:50Z" uid="171838" user="argrath" changeset="7544906" lat="38.244083" lon="140.867126">
    <tag k="amenity" v="school"/>
    <tag k="name" v="市立向山小学校"/>
    <tag k="source" v="NRPB of MLIT Japan."/>
    <tag k="source:ja" v="国土数値情報（公共施設データ）平成18年　国土交通省"/>
    <tag k="source_ref" v="http://nlftp.mlit.go.jp/ksj/jpgis/datalist/KsjTmplt-P02-v2_0.html"/>
  </node>
  <node id="1200157851" version="1" timestamp="2011-03-13T13:42:51Z" uid="171838" user="argrath" changeset="7544906" lat="38.193535" lon="140.910735">
    <tag k="amenity" v="school"/>
    <tag k="name" v="市立四郎丸小学校"/>
    <tag k="source" v="NRPB of MLIT Japan."/>
    <tag k="source:ja" v="国土数値情報（公共施設データ）平成18年　国土交通省"/>
    <tag k="source_ref" v="http://nlftp.mlit.go.jp/ksj/jpgis/datalist/KsjTmplt-P02-v2_0.html"/>
  </node>
  <node id="1200157852" version="1" timestamp="2011-03-13T13:42:51Z" uid="171838" user="argrath" changeset="7544906" lat="38.22853" lon="140.870459">
    <tag k="amenity" v="school"/>
    <tag k="name" v="市立鹿野小学校"/>
    <tag k="source" v="NRPB of MLIT Japan."/>
    <tag k="source:ja" v="国土数値情報（公共施設データ）平成18年　国土交通省"/>
    <tag k="source_ref" v="http://nlftp.mlit.go.jp/ksj/jpgis/datalist/KsjTmplt-P02-v2_0.html"/>
  </node>
  <node id="1200157853" version="1" timestamp="2011-03-13T13:42:51Z" uid="171838" user="argrath" changeset="7544906" lat="38.256299" lon="140.680196">
    <tag k="amenity" v="school"/>
    <tag k="name" v="市立秋保小学校"/>
    <tag k="source" v="NRPB of MLIT Japan."/>
    <tag k="source:ja" v="国土数値情報（公共施設データ）平成18年　国土交通省"/>
    <tag k="source_ref" v="http://nlftp.mlit.go.jp/ksj/jpgis/datalist/KsjTmplt-P02-v2_0.html"/>
  </node>
  <node id="1200157861" version="1" timestamp="2011-03-13T13:42:52Z" uid="171838" user="argrath" changeset="7544906" lat="38.226863" lon="140.82963">
    <tag k="amenity" v="school"/>
    <tag k="name" v="市立上野山小学校"/>
    <tag k="source" v="NRPB of MLIT Japan."/>
    <tag k="source:ja" v="国土数値情報（公共施設データ）平成18年　国土交通省"/>
    <tag k="source_ref" v="http://nlftp.mlit.go.jp/ksj/jpgis/datalist/KsjTmplt-P02-v2_0.html"/>
  </node>
  <node id="1200157863" version="1" timestamp="2011-03-13T13:42:52Z" uid="171838" user="argrath" changeset="7544906" lat="38.22464" lon="140.80991">
    <tag k="amenity" v="school"/>
    <tag k="name" v="市立人来田小学校"/>
    <tag k="source" v="NRPB of MLIT Japan."/>
    <tag k="source:ja" v="国土数値情報（公共施設データ）平成18年　国土交通省"/>
    <tag k="source_ref" v="http://nlftp.mlit.go.jp/ksj/jpgis/datalist/KsjTmplt-P02-v2_0.html"/>
  </node>
  <node id="1200157864" version="1" timestamp="2011-03-13T13:42:52Z" uid="171838" user="argrath" changeset="7544906" lat="38.21964" lon="140.788523">
    <tag k="amenity" v="school"/>
    <tag k="name" v="市立生出小学校"/>
    <tag k="source" v="NRPB of MLIT Japan."/>
    <tag k="source:ja" v="国土数値情報（公共施設データ）平成18年　国土交通省"/>
    <tag k="source_ref" v="http://nlftp.mlit.go.jp/ksj/jpgis/datalist/KsjTmplt-P02-v2_0.html"/>
  </node>
  <node id="1200157868" version="1" timestamp="2011-03-13T13:42:53Z" uid="171838" user="argrath" changeset="7544906" lat="38.217139" lon="140.75547">
    <tag k="amenity" v="school"/>
    <tag k="name" v="市立生出小学校赤石分校"/>
    <tag k="source" v="NRPB of MLIT Japan."/>
    <tag k="source:ja" v="国土数値情報（公共施設データ）平成18年　国土交通省"/>
    <tag k="source_ref" v="http://nlftp.mlit.go.jp/ksj/jpgis/datalist/KsjTmplt-P02-v2_0.html"/>
  </node>
  <node id="1200157870" version="1" timestamp="2011-03-13T13:42:53Z" uid="171838" user="argrath" changeset="7544906" lat="38.21992" lon="140.859071">
    <tag k="amenity" v="school"/>
    <tag k="name" v="市立西多賀小学校"/>
    <tag k="source" v="NRPB of MLIT Japan."/>
    <tag k="source:ja" v="国土数値情報（公共施設データ）平成18年　国土交通省"/>
    <tag k="source_ref" v="http://nlftp.mlit.go.jp/ksj/jpgis/datalist/KsjTmplt-P02-v2_0.html"/>
  </node>
  <node id="1200157877" version="1" timestamp="2011-03-13T13:42:54Z" uid="171838" user="argrath" changeset="7544906" lat="38.192701" lon="140.875738">
    <tag k="amenity" v="school"/>
    <tag k="name" v="市立西中田小学校"/>
    <tag k="source" v="NRPB of MLIT Japan."/>
    <tag k="source:ja" v="国土数値情報（公共施設データ）平成18年　国土交通省"/>
    <tag k="source_ref" v="http://nlftp.mlit.go.jp/ksj/jpgis/datalist/KsjTmplt-P02-v2_0.html"/>
  </node>
  <node id="1200157878" version="1" timestamp="2011-03-13T13:42:54Z" uid="171838" user="argrath" changeset="7544906" lat="38.231307" lon="140.817409">
    <tag k="amenity" v="school"/>
    <tag k="name" v="市立太白小学校"/>
    <tag k="source" v="NRPB of MLIT Japan."/>
    <tag k="source:ja" v="国土数値情報（公共施設データ）平成18年　国土交通省"/>
    <tag k="source_ref" v="http://nlftp.mlit.go.jp/ksj/jpgis/datalist/KsjTmplt-P02-v2_0.html"/>
  </node>
  <node id="1200157879" version="1" timestamp="2011-03-13T13:42:54Z" uid="171838" user="argrath" changeset="7544906" lat="38.196312" lon="140.90268">
    <tag k="amenity" v="school"/>
    <tag k="name" v="市立袋原小学校"/>
    <tag k="source" v="NRPB of MLIT Japan."/>
    <tag k="source:ja" v="国土数値情報（公共施設データ）平成18年　国土交通省"/>
    <tag k="source_ref" v="http://nlftp.mlit.go.jp/ksj/jpgis/datalist/KsjTmplt-P02-v2_0.html"/>
  </node>
  <node id="1200157885" version="1" timestamp="2011-03-13T13:42:55Z" uid="171838" user="argrath" changeset="7544906" lat="38.216865" lon="140.874903">
    <tag k="amenity" v="school"/>
    <tag k="name" v="市立大野田小学校"/>
    <tag k="source" v="NRPB of MLIT Japan."/>
    <tag k="source:ja" v="国土数値情報（公共施設データ）平成18年　国土交通省"/>
    <tag k="source_ref" v="http://nlftp.mlit.go.jp/ksj/jpgis/datalist/KsjTmplt-P02-v2_0.html"/>
  </node>
  <node id="1200157889" version="1" timestamp="2011-03-13T13:42:55Z" uid="171838" user="argrath" changeset="7544906" lat="38.200478" lon="140.887126">
    <tag k="amenity" v="school"/>
    <tag k="name" v="市立中田小学校"/>
    <tag k="source" v="NRPB of MLIT Japan."/>
    <tag k="source:ja" v="国土数値情報（公共施設データ）平成18年　国土交通省"/>
    <tag k="source_ref" v="http://nlftp.mlit.go.jp/ksj/jpgis/datalist/KsjTmplt-P02-v2_0.html"/>
  </node>
  <node id="1200157890" version="1" timestamp="2011-03-13T13:42:55Z" uid="171838" user="argrath" changeset="7544906" lat="38.232141" lon="140.880736">
    <tag k="amenity" v="school"/>
    <tag k="name" v="市立長町小学校"/>
    <tag k="source" v="NRPB of MLIT Japan."/>
    <tag k="source:ja" v="国土数値情報（公共施設データ）平成18年　国土交通省"/>
    <tag k="source_ref" v="http://nlftp.mlit.go.jp/ksj/jpgis/datalist/KsjTmplt-P02-v2_0.html"/>
  </node>
  <node id="1200157893" version="1" timestamp="2011-03-13T13:42:56Z" uid="171838" user="argrath" changeset="7544906" lat="38.226308" lon="140.87407">
    <tag k="amenity" v="school"/>
    <tag k="name" v="市立長町南小学校"/>
    <tag k="source" v="NRPB of MLIT Japan."/>
    <tag k="source:ja" v="国土数値情報（公共施設データ）平成18年　国土交通省"/>
    <tag k="source_ref" v="http://nlftp.mlit.go.jp/ksj/jpgis/datalist/KsjTmplt-P02-v2_0.html"/>
  </node>
  <node id="1200157895" version="1" timestamp="2011-03-13T13:42:56Z" uid="171838" user="argrath" changeset="7544906" lat="38.191587" lon="140.772136">
    <tag k="amenity" v="school"/>
    <tag k="name" v="市立坪沼小学校"/>
    <tag k="source" v="NRPB of MLIT Japan."/>
    <tag k="source:ja" v="国土数値情報（公共施設データ）平成18年　国土交通省"/>
    <tag k="source_ref" v="http://nlftp.mlit.go.jp/ksj/jpgis/datalist/KsjTmplt-P02-v2_0.html"/>
  </node>
  <node id="1200157899" version="1" timestamp="2011-03-13T13:42:56Z" uid="171838" user="argrath" changeset="7544906" lat="38.193258" lon="140.92379">
    <tag k="amenity" v="school"/>
    <tag k="name" v="市立東四郎丸小学校"/>
    <tag k="source" v="NRPB of MLIT Japan."/>
    <tag k="source:ja" v="国土数値情報（公共施設データ）平成18年　国土交通省"/>
    <tag k="source_ref" v="http://nlftp.mlit.go.jp/ksj/jpgis/datalist/KsjTmplt-P02-v2_0.html"/>
  </node>
  <node id="1200157903" version="1" timestamp="2011-03-13T13:42:57Z" uid="171838" user="argrath" changeset="7544906" lat="38.218809" lon="140.889347">
    <tag k="amenity" v="school"/>
    <tag k="name" v="市立東長町小学校"/>
    <tag k="source" v="NRPB of MLIT Japan."/>
    <tag k="source:ja" v="国土数値情報（公共施設データ）平成18年　国土交通省"/>
    <tag k="source_ref" v="http://nlftp.mlit.go.jp/ksj/jpgis/datalist/KsjTmplt-P02-v2_0.html"/>
  </node>
  <node id="1200157904" version="1" timestamp="2011-03-13T13:42:57Z" uid="171838" user="argrath" changeset="7544906" lat="38.229914" lon="140.719639">
    <tag k="amenity" v="school"/>
    <tag k="name" v="市立湯元小学校"/>
    <tag k="source" v="NRPB of MLIT Japan."/>
    <tag k="source:ja" v="国土数値情報（公共施設データ）平成18年　国土交通省"/>
    <tag k="source_ref" v="http://nlftp.mlit.go.jp/ksj/jpgis/datalist/KsjTmplt-P02-v2_0.html"/>
  </node>
  <node id="1200157910" version="1" timestamp="2011-03-13T13:42:57Z" uid="171838" user="argrath" changeset="7544906" lat="38.270368" lon="140.644096">
    <tag k="amenity" v="school"/>
    <tag k="name" v="市立馬場小学校"/>
    <tag k="source" v="NRPB of MLIT Japan."/>
    <tag k="source:ja" v="国土数値情報（公共施設データ）平成18年　国土交通省"/>
    <tag k="source_ref" v="http://nlftp.mlit.go.jp/ksj/jpgis/datalist/KsjTmplt-P02-v2_0.html"/>
  </node>
  <node id="1200157913" version="1" timestamp="2011-03-13T13:42:58Z" uid="171838" user="argrath" changeset="7544906" lat="38.226031" lon="140.897679">
    <tag k="amenity" v="school"/>
    <tag k="name" v="市立八本松小学校"/>
    <tag k="source" v="NRPB of MLIT Japan."/>
    <tag k="source:ja" v="国土数値情報（公共施設データ）平成18年　国土交通省"/>
    <tag k="source_ref" v="http://nlftp.mlit.go.jp/ksj/jpgis/datalist/KsjTmplt-P02-v2_0.html"/>
  </node>
  <node id="1200157916" version="1" timestamp="2011-03-13T13:42:58Z" uid="171838" user="argrath" changeset="7544906" lat="38.239639" lon="140.848239">
    <tag k="amenity" v="school"/>
    <tag k="name" v="市立八木山小学校"/>
    <tag k="source" v="NRPB of MLIT Japan."/>
    <tag k="source:ja" v="国土数値情報（公共施設データ）平成18年　国土交通省"/>
    <tag k="source_ref" v="http://nlftp.mlit.go.jp/ksj/jpgis/datalist/KsjTmplt-P02-v2_0.html"/>
  </node>
  <node id="1200157921" version="1" timestamp="2011-03-13T13:42:59Z" uid="171838" user="argrath" changeset="7544906" lat="38.234084" lon="140.831852">
    <tag k="amenity" v="school"/>
    <tag k="name" v="市立八木山南小学校"/>
    <tag k="source" v="NRPB of MLIT Japan."/>
    <tag k="source:ja" v="国土数値情報（公共施設データ）平成18年　国土交通省"/>
    <tag k="source_ref" v="http://nlftp.mlit.go.jp/ksj/jpgis/datalist/KsjTmplt-P02-v2_0.html"/>
  </node>
  <node id="1200157925" version="1" timestamp="2011-03-13T13:42:59Z" uid="171838" user="argrath" changeset="7544906" lat="38.237138" lon="140.7838">
    <tag k="amenity" v="school"/>
    <tag k="name" v="市立茂庭台小学校"/>
    <tag k="source" v="NRPB of MLIT Japan."/>
    <tag k="source:ja" v="国土数値情報（公共施設データ）平成18年　国土交通省"/>
    <tag k="source_ref" v="http://nlftp.mlit.go.jp/ksj/jpgis/datalist/KsjTmplt-P02-v2_0.html"/>
  </node>
  <node id="1200157928" version="1" timestamp="2011-03-13T13:42:59Z" uid="171838" user="argrath" changeset="7544906" lat="38.198811" lon="140.871849">
    <tag k="amenity" v="school"/>
    <tag k="name" v="市立柳生小学校"/>
    <tag k="source" v="NRPB of MLIT Japan."/>
    <tag k="source:ja" v="国土数値情報（公共施設データ）平成18年　国土交通省"/>
    <tag k="source_ref" v="http://nlftp.mlit.go.jp/ksj/jpgis/datalist/KsjTmplt-P02-v2_0.html"/>
  </node>
  <node id="1200157932" version="1" timestamp="2011-03-13T13:43:00Z" uid="171838" user="argrath" changeset="7544906" lat="38.313241" lon="140.85379">
    <tag k="amenity" v="school"/>
    <tag k="name" v="市立加茂小学校"/>
    <tag k="source" v="NRPB of MLIT Japan."/>
    <tag k="source:ja" v="国土数値情報（公共施設データ）平成18年　国土交通省"/>
    <tag k="source_ref" v="http://nlftp.mlit.go.jp/ksj/jpgis/datalist/KsjTmplt-P02-v2_0.html"/>
  </node>
  <node id="1200157934" version="1" timestamp="2011-03-13T13:43:00Z" uid="171838" user="argrath" changeset="7544906" lat="38.312407" lon="140.799352">
    <tag k="amenity" v="school"/>
    <tag k="name" v="市立館小学校"/>
    <tag k="source" v="NRPB of MLIT Japan."/>
    <tag k="source:ja" v="国土数値情報（公共施設データ）平成18年　国土交通省"/>
    <tag k="source_ref" v="http://nlftp.mlit.go.jp/ksj/jpgis/datalist/KsjTmplt-P02-v2_0.html"/>
  </node>
  <node id="1200157994" version="1" timestamp="2011-03-13T13:43:03Z" uid="171838" user="argrath" changeset="7544912" lat="38.338795" lon="140.865176">
    <tag k="amenity" v="school"/>
    <tag k="name" v="市立桂小学校"/>
    <tag k="source" v="NRPB of MLIT Japan."/>
    <tag k="source:ja" v="国土数値情報（公共施設データ）平成18年　国土交通省"/>
    <tag k="source_ref" v="http://nlftp.mlit.go.jp/ksj/jpgis/datalist/KsjTmplt-P02-v2_0.html"/>
  </node>
  <node id="1200158000" version="1" timestamp="2011-03-13T13:43:04Z" uid="171838" user="argrath" changeset="7544912" lat="38.335185" lon="140.897951">
    <tag k="amenity" v="school"/>
    <tag k="name" v="市立向陽台小学校"/>
    <tag k="source" v="NRPB of MLIT Japan."/>
    <tag k="source:ja" v="国土数値情報（公共施設データ）平成18年　国土交通省"/>
    <tag k="source_ref" v="http://nlftp.mlit.go.jp/ksj/jpgis/datalist/KsjTmplt-P02-v2_0.html"/>
  </node>
  <node id="1200158001" version="1" timestamp="2011-03-13T13:43:04Z" uid="171838" user="argrath" changeset="7544912" lat="38.340738" lon="140.845456">
    <tag k="amenity" v="school"/>
    <tag k="name" v="市立高森小学校"/>
    <tag k="source" v="NRPB of MLIT Japan."/>
    <tag k="source:ja" v="国土数値情報（公共施設データ）平成18年　国土交通省"/>
    <tag k="source_ref" v="http://nlftp.mlit.go.jp/ksj/jpgis/datalist/KsjTmplt-P02-v2_0.html"/>
  </node>
  <node id="1200158008" version="1" timestamp="2011-03-13T13:43:05Z" uid="171838" user="argrath" changeset="7544912" lat="38.33935" lon="140.8549">
    <tag k="amenity" v="school"/>
    <tag k="name" v="市立高森東小学校"/>
    <tag k="source" v="NRPB of MLIT Japan."/>
    <tag k="source:ja" v="国土数値情報（公共施設データ）平成18年　国土交通省"/>
    <tag k="source_ref" v="http://nlftp.mlit.go.jp/ksj/jpgis/datalist/KsjTmplt-P02-v2_0.html"/>
  </node>
  <node id="1200158011" version="1" timestamp="2011-03-13T13:43:05Z" uid="171838" user="argrath" changeset="7544912" lat="38.308522" lon="140.886564">
    <tag k="amenity" v="school"/>
    <tag k="name" v="市立黒松小学校"/>
    <tag k="source" v="NRPB of MLIT Japan."/>
    <tag k="source:ja" v="国土数値情報（公共施設データ）平成18年　国土交通省"/>
    <tag k="source_ref" v="http://nlftp.mlit.go.jp/ksj/jpgis/datalist/KsjTmplt-P02-v2_0.html"/>
  </node>
  <node id="1200158014" version="1" timestamp="2011-03-13T13:43:05Z" uid="171838" user="argrath" changeset="7544912" lat="38.341571" lon="140.796572">
    <tag k="amenity" v="school"/>
    <tag k="name" v="市立根白石小学校"/>
    <tag k="source" v="NRPB of MLIT Japan."/>
    <tag k="source:ja" v="国土数値情報（公共施設データ）平成18年　国土交通省"/>
    <tag k="source_ref" v="http://nlftp.mlit.go.jp/ksj/jpgis/datalist/KsjTmplt-P02-v2_0.html"/>
  </node>
  <node id="1200158019" version="1" timestamp="2011-03-13T13:43:06Z" uid="171838" user="argrath" changeset="7544912" lat="38.317635" lon="140.890753">
    <tag k="amenity" v="school"/>
    <tag k="name" v="市立市名坂小学校"/>
    <tag k="source" v="NRPB of MLIT Japan."/>
    <tag k="source:ja" v="国土数値情報（公共施設データ）平成18年　国土交通省"/>
    <tag k="source_ref" v="http://nlftp.mlit.go.jp/ksj/jpgis/datalist/KsjTmplt-P02-v2_0.html"/>
  </node>
  <node id="1200158021" version="1" timestamp="2011-03-13T13:43:06Z" uid="171838" user="argrath" changeset="7544912" lat="38.340183" lon="140.828236">
    <tag k="amenity" v="school"/>
    <tag k="name" v="市立寺岡小学校"/>
    <tag k="source" v="NRPB of MLIT Japan."/>
    <tag k="source:ja" v="国土数値情報（公共施設データ）平成18年　国土交通省"/>
    <tag k="source_ref" v="http://nlftp.mlit.go.jp/ksj/jpgis/datalist/KsjTmplt-P02-v2_0.html"/>
  </node>
  <node id="1200158025" version="1" timestamp="2011-03-13T13:43:07Z" uid="171838" user="argrath" changeset="7544912" lat="38.322964" lon="140.892674">
    <tag k="amenity" v="school"/>
    <tag k="name" v="市立七北田小学校"/>
    <tag k="source" v="NRPB of MLIT Japan."/>
    <tag k="source:ja" v="国土数値情報（公共施設データ）平成18年　国土交通省"/>
    <tag k="source_ref" v="http://nlftp.mlit.go.jp/ksj/jpgis/datalist/KsjTmplt-P02-v2_0.html"/>
  </node>
  <node id="1200158027" version="1" timestamp="2011-03-13T13:43:07Z" uid="171838" user="argrath" changeset="7544912" lat="38.328795" lon="140.822126">
    <tag k="amenity" v="school"/>
    <tag k="name" v="市立実沢小学校"/>
    <tag k="source" v="NRPB of MLIT Japan."/>
    <tag k="source:ja" v="国土数値情報（公共施設データ）平成18年　国土交通省"/>
    <tag k="source_ref" v="http://nlftp.mlit.go.jp/ksj/jpgis/datalist/KsjTmplt-P02-v2_0.html"/>
  </node>
  <node id="1200158030" version="1" timestamp="2011-03-13T13:43:07Z" uid="171838" user="argrath" changeset="7544912" lat="38.329628" lon="140.780741">
    <tag k="amenity" v="school"/>
    <tag k="name" v="市立住吉台小学校"/>
    <tag k="source" v="NRPB of MLIT Japan."/>
    <tag k="source:ja" v="国土数値情報（公共施設データ）平成18年　国土交通省"/>
    <tag k="source_ref" v="http://nlftp.mlit.go.jp/ksj/jpgis/datalist/KsjTmplt-P02-v2_0.html"/>
  </node>
  <node id="1200158036" version="1" timestamp="2011-03-13T13:43:08Z" uid="171838" user="argrath" changeset="7544912" lat="38.333796" lon="140.882953">
    <tag k="amenity" v="school"/>
    <tag k="name" v="市立将監小学校"/>
    <tag k="source" v="NRPB of MLIT Japan."/>
    <tag k="source:ja" v="国土数値情報（公共施設データ）平成18年　国土交通省"/>
    <tag k="source_ref" v="http://nlftp.mlit.go.jp/ksj/jpgis/datalist/KsjTmplt-P02-v2_0.html"/>
  </node>
  <node id="1200158039" version="1" timestamp="2011-03-13T13:43:08Z" uid="171838" user="argrath" changeset="7544912" lat="38.334906" lon="140.869621">
    <tag k="amenity" v="school"/>
    <tag k="name" v="市立将監西小学校"/>
    <tag k="source" v="NRPB of MLIT Japan."/>
    <tag k="source:ja" v="国土数値情報（公共施設データ）平成18年　国土交通省"/>
    <tag k="source_ref" v="http://nlftp.mlit.go.jp/ksj/jpgis/datalist/KsjTmplt-P02-v2_0.html"/>
  </node>
  <node id="1200158043" version="1" timestamp="2011-03-13T13:43:08Z" uid="171838" user="argrath" changeset="7544912" lat="38.336573" lon="140.873787">
    <tag k="amenity" v="school"/>
    <tag k="name" v="市立将監中央小学校"/>
    <tag k="source" v="NRPB of MLIT Japan."/>
    <tag k="source:ja" v="国土数値情報（公共施設データ）平成18年　国土交通省"/>
    <tag k="source_ref" v="http://nlftp.mlit.go.jp/ksj/jpgis/datalist/KsjTmplt-P02-v2_0.html"/>
  </node>
  <node id="1200158048" version="1" timestamp="2011-03-13T13:43:09Z" uid="171838" user="argrath" changeset="7544912" lat="38.31991" lon="140.919339">
    <tag k="amenity" v="school"/>
    <tag k="name" v="市立松森小学校"/>
    <tag k="source" v="NRPB of MLIT Japan."/>
    <tag k="source:ja" v="国土数値情報（公共施設データ）平成18年　国土交通省"/>
    <tag k="source_ref" v="http://nlftp.mlit.go.jp/ksj/jpgis/datalist/KsjTmplt-P02-v2_0.html"/>
  </node>
  <node id="1200158051" version="1" timestamp="2011-03-13T13:43:09Z" uid="171838" user="argrath" changeset="7544912" lat="38.332686" lon="140.917116">
    <tag k="amenity" v="school"/>
    <tag k="name" v="市立松陵小学校"/>
    <tag k="source" v="NRPB of MLIT Japan."/>
    <tag k="source:ja" v="国土数値情報（公共施設データ）平成18年　国土交通省"/>
    <tag k="source_ref" v="http://nlftp.mlit.go.jp/ksj/jpgis/datalist/KsjTmplt-P02-v2_0.html"/>
  </node>
  <node id="1200158062" version="1" timestamp="2011-03-13T13:43:09Z" uid="171838" user="argrath" changeset="7544912" lat="38.331297" lon="140.907395">
    <tag k="amenity" v="school"/>
    <tag k="name" v="市立松陵西小学校"/>
    <tag k="source" v="NRPB of MLIT Japan."/>
    <tag k="source:ja" v="国土数値情報（公共施設データ）平成18年　国土交通省"/>
    <tag k="source_ref" v="http://nlftp.mlit.go.jp/ksj/jpgis/datalist/KsjTmplt-P02-v2_0.html"/>
  </node>
  <node id="1200158069" version="1" timestamp="2011-03-13T13:43:10Z" uid="171838" user="argrath" changeset="7544912" lat="38.356571" lon="140.861843">
    <tag k="amenity" v="school"/>
    <tag k="name" v="市立泉ヶ丘小学校"/>
    <tag k="source" v="NRPB of MLIT Japan."/>
    <tag k="source:ja" v="国土数値情報（公共施設データ）平成18年　国土交通省"/>
    <tag k="source_ref" v="http://nlftp.mlit.go.jp/ksj/jpgis/datalist/KsjTmplt-P02-v2_0.html"/>
  </node>
  <node id="1200158075" version="1" timestamp="2011-03-13T13:43:10Z" uid="171838" user="argrath" changeset="7544912" lat="38.314908" lon="140.833792">
    <tag k="amenity" v="school"/>
    <tag k="name" v="市立長命ヶ丘小学校"/>
    <tag k="source" v="NRPB of MLIT Japan."/>
    <tag k="source:ja" v="国土数値情報（公共施設データ）平成18年　国土交通省"/>
    <tag k="source_ref" v="http://nlftp.mlit.go.jp/ksj/jpgis/datalist/KsjTmplt-P02-v2_0.html"/>
  </node>
  <node id="1200158080" version="1" timestamp="2011-03-13T13:43:11Z" uid="171838" user="argrath" changeset="7544912" lat="38.3163" lon="140.930449">
    <tag k="amenity" v="school"/>
    <tag k="name" v="市立鶴が丘小学校"/>
    <tag k="source" v="NRPB of MLIT Japan."/>
    <tag k="source:ja" v="国土数値情報（公共施設データ）平成18年　国土交通省"/>
    <tag k="source_ref" v="http://nlftp.mlit.go.jp/ksj/jpgis/datalist/KsjTmplt-P02-v2_0.html"/>
  </node>
  <node id="1200158083" version="1" timestamp="2011-03-13T13:43:11Z" uid="171838" user="argrath" changeset="7544912" lat="38.300745" lon="140.90073">
    <tag k="amenity" v="school"/>
    <tag k="name" v="市立南光台小学校"/>
    <tag k="source" v="NRPB of MLIT Japan."/>
    <tag k="source:ja" v="国土数値情報（公共施設データ）平成18年　国土交通省"/>
    <tag k="source_ref" v="http://nlftp.mlit.go.jp/ksj/jpgis/datalist/KsjTmplt-P02-v2_0.html"/>
  </node>
  <node id="1200158085" version="1" timestamp="2011-03-13T13:43:11Z" uid="171838" user="argrath" changeset="7544912" lat="38.298801" lon="140.91184">
    <tag k="amenity" v="school"/>
    <tag k="name" v="市立南光台東小学校"/>
    <tag k="source" v="NRPB of MLIT Japan."/>
    <tag k="source:ja" v="国土数値情報（公共施設データ）平成18年　国土交通省"/>
    <tag k="source_ref" v="http://nlftp.mlit.go.jp/ksj/jpgis/datalist/KsjTmplt-P02-v2_0.html"/>
  </node>
  <node id="1200158090" version="1" timestamp="2011-03-13T13:43:12Z" uid="171838" user="argrath" changeset="7544912" lat="38.308519" lon="140.823238">
    <tag k="amenity" v="school"/>
    <tag k="name" v="市立南中山小学校"/>
    <tag k="source" v="NRPB of MLIT Japan."/>
    <tag k="source:ja" v="国土数値情報（公共施設データ）平成18年　国土交通省"/>
    <tag k="source_ref" v="http://nlftp.mlit.go.jp/ksj/jpgis/datalist/KsjTmplt-P02-v2_0.html"/>
  </node>
  <node id="1200158091" version="1" timestamp="2011-03-13T13:43:12Z" uid="171838" user="argrath" changeset="7544912" lat="38.307965" lon="140.873232">
    <tag k="amenity" v="school"/>
    <tag k="name" v="市立虹の丘小学校"/>
    <tag k="source" v="NRPB of MLIT Japan."/>
    <tag k="source:ja" v="国土数値情報（公共施設データ）平成18年　国土交通省"/>
    <tag k="source_ref" v="http://nlftp.mlit.go.jp/ksj/jpgis/datalist/KsjTmplt-P02-v2_0.html"/>
  </node>
  <node id="1200158092" version="1" timestamp="2011-03-13T13:43:12Z" uid="171838" user="argrath" changeset="7544912" lat="38.307689" lon="140.894619">
    <tag k="amenity" v="school"/>
    <tag k="name" v="市立八乙女小学校"/>
    <tag k="source" v="NRPB of MLIT Japan."/>
    <tag k="source:ja" v="国土数値情報（公共施設データ）平成18年　国土交通省"/>
    <tag k="source_ref" v="http://nlftp.mlit.go.jp/ksj/jpgis/datalist/KsjTmplt-P02-v2_0.html"/>
  </node>
  <node id="1200158097" version="1" timestamp="2011-03-13T13:43:13Z" uid="171838" user="argrath" changeset="7544912" lat="38.354347" lon="140.781573">
    <tag k="amenity" v="school"/>
    <tag k="name" v="市立福岡小学校"/>
    <tag k="source" v="NRPB of MLIT Japan."/>
    <tag k="source:ja" v="国土数値情報（公共施設データ）平成18年　国土交通省"/>
    <tag k="source_ref" v="http://nlftp.mlit.go.jp/ksj/jpgis/datalist/KsjTmplt-P02-v2_0.html"/>
  </node>
  <node id="1200158099" version="1" timestamp="2011-03-13T13:43:13Z" uid="171838" user="argrath" changeset="7544912" lat="38.315741" lon="140.815182">
    <tag k="amenity" v="school"/>
    <tag k="name" v="市立北中山小学校"/>
    <tag k="source" v="NRPB of MLIT Japan."/>
    <tag k="source:ja" v="国土数値情報（公共施設データ）平成18年　国土交通省"/>
    <tag k="source_ref" v="http://nlftp.mlit.go.jp/ksj/jpgis/datalist/KsjTmplt-P02-v2_0.html"/>
  </node>
  <node id="1200158110" version="1" timestamp="2011-03-13T13:43:13Z" uid="171838" user="argrath" changeset="7544912" lat="38.324907" lon="140.861289">
    <tag k="amenity" v="school"/>
    <tag k="name" v="市立野村小学校"/>
    <tag k="source" v="NRPB of MLIT Japan."/>
    <tag k="source:ja" v="国土数値情報（公共施設データ）平成18年　国土交通省"/>
    <tag k="source_ref" v="http://nlftp.mlit.go.jp/ksj/jpgis/datalist/KsjTmplt-P02-v2_0.html"/>
  </node>
  <node id="1200158113" version="1" timestamp="2011-03-13T13:43:13Z" uid="171838" user="argrath" changeset="7544912" lat="38.348237" lon="140.834346">
    <tag k="amenity" v="school"/>
    <tag k="name" v="私立仙台白百合学園小学校"/>
    <tag k="source" v="NRPB of MLIT Japan."/>
    <tag k="source:ja" v="国土数値情報（公共施設データ）平成18年　国土交通省"/>
    <tag k="source_ref" v="http://nlftp.mlit.go.jp/ksj/jpgis/datalist/KsjTmplt-P02-v2_0.html"/>
  </node>
  <node id="1200158114" version="1" timestamp="2011-03-13T13:43:13Z" uid="171838" user="argrath" changeset="7544912" lat="38.302708" lon="141.50178">
    <tag k="amenity" v="school"/>
    <tag k="name" v="市立鮎川小学校"/>
    <tag k="source" v="NRPB of MLIT Japan."/>
    <tag k="source:ja" v="国土数値情報（公共施設データ）平成18年　国土交通省"/>
    <tag k="source_ref" v="http://nlftp.mlit.go.jp/ksj/jpgis/datalist/KsjTmplt-P02-v2_0.html"/>
  </node>
  <node id="1200158119" version="1" timestamp="2011-03-13T13:43:14Z" uid="171838" user="argrath" changeset="7544912" lat="38.447963" lon="141.357345">
    <tag k="amenity" v="school"/>
    <tag k="name" v="市立稲井小学校"/>
    <tag k="source" v="NRPB of MLIT Japan."/>
    <tag k="source:ja" v="国土数値情報（公共施設データ）平成18年　国土交通省"/>
    <tag k="source_ref" v="http://nlftp.mlit.go.jp/ksj/jpgis/datalist/KsjTmplt-P02-v2_0.html"/>
  </node>
  <node id="1200158121" version="1" timestamp="2011-03-13T13:43:14Z" uid="171838" user="argrath" changeset="7544912" lat="38.396028" lon="141.437615">
    <tag k="amenity" v="school"/>
    <tag k="name" v="市立荻浜小学校"/>
    <tag k="source" v="NRPB of MLIT Japan."/>
    <tag k="source:ja" v="国土数値情報（公共施設データ）平成18年　国土交通省"/>
    <tag k="source_ref" v="http://nlftp.mlit.go.jp/ksj/jpgis/datalist/KsjTmplt-P02-v2_0.html"/>
  </node>
  <node id="1200158124" version="1" timestamp="2011-03-13T13:43:14Z" uid="171838" user="argrath" changeset="7544912" lat="38.442962" lon="141.313738">
    <tag k="amenity" v="school"/>
    <tag k="name" v="市立開北小学校"/>
    <tag k="source" v="NRPB of MLIT Japan."/>
    <tag k="source:ja" v="国土数値情報（公共施設データ）平成18年　国土交通省"/>
    <tag k="source_ref" v="http://nlftp.mlit.go.jp/ksj/jpgis/datalist/KsjTmplt-P02-v2_0.html"/>
  </node>
  <node id="1200158127" version="1" timestamp="2011-03-13T13:43:14Z" uid="171838" user="argrath" changeset="7544912" lat="38.432684" lon="141.273741">
    <tag k="amenity" v="school"/>
    <tag k="name" v="市立釜小学校"/>
    <tag k="source" v="NRPB of MLIT Japan."/>
    <tag k="source:ja" v="国土数値情報（公共施設データ）平成18年　国土交通省"/>
    <tag k="source_ref" v="http://nlftp.mlit.go.jp/ksj/jpgis/datalist/KsjTmplt-P02-v2_0.html"/>
  </node>
  <node id="1200158128" version="1" timestamp="2011-03-13T13:43:15Z" uid="171838" user="argrath" changeset="7544912" lat="38.391587" lon="141.522885">
    <tag k="amenity" v="school"/>
    <tag k="name" v="市立寄磯小学校"/>
    <tag k="source" v="NRPB of MLIT Japan."/>
    <tag k="source:ja" v="国土数値情報（公共施設データ）平成18年　国土交通省"/>
    <tag k="source_ref" v="http://nlftp.mlit.go.jp/ksj/jpgis/datalist/KsjTmplt-P02-v2_0.html"/>
  </node>
  <node id="1200158131" version="1" timestamp="2011-03-13T13:43:15Z" uid="171838" user="argrath" changeset="7544912" lat="38.576519" lon="141.452112">
    <tag k="amenity" v="school"/>
    <tag k="name" v="市立吉浜小学校"/>
    <tag k="source" v="NRPB of MLIT Japan."/>
    <tag k="source:ja" v="国土数値情報（公共施設データ）平成18年　国土交通省"/>
    <tag k="source_ref" v="http://nlftp.mlit.go.jp/ksj/jpgis/datalist/KsjTmplt-P02-v2_0.html"/>
  </node>
  <node id="1200158135" version="1" timestamp="2011-03-13T13:43:15Z" uid="171838" user="argrath" changeset="7544912" lat="38.553778" lon="141.408416">
    <tag k="amenity" v="school"/>
    <tag k="name" v="市立橋浦小学校"/>
    <tag k="source" v="NRPB of MLIT Japan."/>
    <tag k="source:ja" v="国土数値情報（公共施設データ）平成18年　国土交通省"/>
    <tag k="source_ref" v="http://nlftp.mlit.go.jp/ksj/jpgis/datalist/KsjTmplt-P02-v2_0.html"/>
  </node>
  <node id="1200158138" version="1" timestamp="2011-03-13T13:43:15Z" uid="171838" user="argrath" changeset="7544912" lat="38.452127" lon="141.278462">
    <tag k="amenity" v="school"/>
    <tag k="name" v="市立向陽小学校"/>
    <tag k="source" v="NRPB of MLIT Japan."/>
    <tag k="source:ja" v="国土数値情報（公共施設データ）平成18年　国土交通省"/>
    <tag k="source_ref" v="http://nlftp.mlit.go.jp/ksj/jpgis/datalist/KsjTmplt-P02-v2_0.html"/>
  </node>
  <node id="1200158141" version="1" timestamp="2011-03-13T13:43:16Z" uid="171838" user="argrath" changeset="7544912" lat="38.473233" lon="141.2093">
    <tag k="amenity" v="school"/>
    <tag k="name" v="市立広渕小学校"/>
    <tag k="source" v="NRPB of MLIT Japan."/>
    <tag k="source:ja" v="国土数値情報（公共施設データ）平成18年　国土交通省"/>
    <tag k="source_ref" v="http://nlftp.mlit.go.jp/ksj/jpgis/datalist/KsjTmplt-P02-v2_0.html"/>
  </node>
  <node id="1200158143" version="1" timestamp="2011-03-13T13:43:16Z" uid="171838" user="argrath" changeset="7544912" lat="38.432407" lon="141.295684">
    <tag k="amenity" v="school"/>
    <tag k="name" v="市立山下小学校"/>
    <tag k="source" v="NRPB of MLIT Japan."/>
    <tag k="source:ja" v="国土数値情報（公共施設データ）平成18年　国土交通省"/>
    <tag k="source_ref" v="http://nlftp.mlit.go.jp/ksj/jpgis/datalist/KsjTmplt-P02-v2_0.html"/>
  </node>
  <node id="1200158146" version="1" timestamp="2011-03-13T13:43:16Z" uid="171838" user="argrath" changeset="7544912" lat="38.423191" lon="141.34622">
    <tag k="amenity" v="school"/>
    <tag k="name" v="市立鹿妻小学校"/>
    <tag k="source" v="NRPB of MLIT Japan."/>
    <tag k="source:ja" v="国土数値情報（公共施設データ）平成18年　国土交通省"/>
    <tag k="source_ref" v="http://nlftp.mlit.go.jp/ksj/jpgis/datalist/KsjTmplt-P02-v2_0.html"/>
  </node>
  <node id="1200158153" version="1" timestamp="2011-03-13T13:43:17Z" uid="171838" user="argrath" changeset="7544912" lat="38.48379" lon="141.282071">
    <tag k="amenity" v="school"/>
    <tag k="name" v="市立鹿又小学校"/>
    <tag k="source" v="NRPB of MLIT Japan."/>
    <tag k="source:ja" v="国土数値情報（公共施設データ）平成18年　国土交通省"/>
    <tag k="source_ref" v="http://nlftp.mlit.go.jp/ksj/jpgis/datalist/KsjTmplt-P02-v2_0.html"/>
  </node>
  <node id="1200158154" version="1" timestamp="2011-03-13T13:43:17Z" uid="171838" user="argrath" changeset="7544912" lat="38.444628" lon="141.27874">
    <tag k="amenity" v="school"/>
    <tag k="name" v="市立蛇田小学校"/>
    <tag k="source" v="NRPB of MLIT Japan."/>
    <tag k="source:ja" v="国土数値情報（公共施設データ）平成18年　国土交通省"/>
    <tag k="source_ref" v="http://nlftp.mlit.go.jp/ksj/jpgis/datalist/KsjTmplt-P02-v2_0.html"/>
  </node>
  <node id="1200158155" version="1" timestamp="2011-03-13T13:43:17Z" uid="171838" user="argrath" changeset="7544912" lat="38.437685" lon="141.312627">
    <tag k="amenity" v="school"/>
    <tag k="name" v="市立住吉小学校"/>
    <tag k="source" v="NRPB of MLIT Japan."/>
    <tag k="source:ja" v="国土数値情報（公共施設データ）平成18年　国土交通省"/>
    <tag k="source_ref" v="http://nlftp.mlit.go.jp/ksj/jpgis/datalist/KsjTmplt-P02-v2_0.html"/>
  </node>
  <node id="1200158161" version="1" timestamp="2011-03-13T13:43:18Z" uid="171838" user="argrath" changeset="7544912" lat="38.47379" lon="141.240686">
    <tag k="amenity" v="school"/>
    <tag k="name" v="市立須江小学校"/>
    <tag k="source" v="NRPB of MLIT Japan."/>
    <tag k="source:ja" v="国土数値情報（公共施設データ）平成18年　国土交通省"/>
    <tag k="source_ref" v="http://nlftp.mlit.go.jp/ksj/jpgis/datalist/KsjTmplt-P02-v2_0.html"/>
  </node>
  <node id="1200158165" version="1" timestamp="2011-03-13T13:43:18Z" uid="171838" user="argrath" changeset="7544912" lat="38.428797" lon="141.305406">
    <tag k="amenity" v="school"/>
    <tag k="name" v="市立石巻小学校"/>
    <tag k="source" v="NRPB of MLIT Japan."/>
    <tag k="source:ja" v="国土数値情報（公共施設データ）平成18年　国土交通省"/>
    <tag k="source_ref" v="http://nlftp.mlit.go.jp/ksj/jpgis/datalist/KsjTmplt-P02-v2_0.html"/>
  </node>
  <node id="1200158169" version="1" timestamp="2011-03-13T13:43:18Z" uid="171838" user="argrath" changeset="7544912" lat="38.531822" lon="141.512411">
    <tag k="amenity" v="school"/>
    <tag k="name" v="市立船越小学校"/>
    <tag k="source" v="NRPB of MLIT Japan."/>
    <tag k="source:ja" v="国土数値情報（公共施設データ）平成18年　国土交通省"/>
    <tag k="source_ref" v="http://nlftp.mlit.go.jp/ksj/jpgis/datalist/KsjTmplt-P02-v2_0.html"/>
  </node>
  <node id="1200158174" version="1" timestamp="2011-03-13T13:43:19Z" uid="171838" user="argrath" changeset="7544912" lat="38.520727" lon="141.189578">
    <tag k="amenity" v="school"/>
    <tag k="name" v="市立前谷地小学校"/>
    <tag k="source" v="NRPB of MLIT Japan."/>
    <tag k="source:ja" v="国土数値情報（公共施設データ）平成18年　国土交通省"/>
    <tag k="source_ref" v="http://nlftp.mlit.go.jp/ksj/jpgis/datalist/KsjTmplt-P02-v2_0.html"/>
  </node>
  <node id="1200158180" version="1" timestamp="2011-03-13T13:43:19Z" uid="171838" user="argrath" changeset="7544912" lat="38.603991" lon="141.498836">
    <tag k="amenity" v="school"/>
    <tag k="name" v="市立相川小学校"/>
    <tag k="source" v="NRPB of MLIT Japan."/>
    <tag k="source:ja" v="国土数値情報（公共施設データ）平成18年　国土交通省"/>
    <tag k="source_ref" v="http://nlftp.mlit.go.jp/ksj/jpgis/datalist/KsjTmplt-P02-v2_0.html"/>
  </node>
  <node id="1200158193" version="1" timestamp="2011-03-13T13:43:20Z" uid="171838" user="argrath" changeset="7544912" lat="38.428241" lon="141.282074">
    <tag k="amenity" v="school"/>
    <tag k="name" v="市立大街道小学校"/>
    <tag k="source" v="NRPB of MLIT Japan."/>
    <tag k="source:ja" v="国土数値情報（公共施設データ）平成18年　国土交通省"/>
    <tag k="source_ref" v="http://nlftp.mlit.go.jp/ksj/jpgis/datalist/KsjTmplt-P02-v2_0.html"/>
  </node>
  <node id="1200158196" version="1" timestamp="2011-03-13T13:43:20Z" uid="171838" user="argrath" changeset="7544912" lat="38.334648" lon="141.475114">
    <tag k="amenity" v="school"/>
    <tag k="name" v="市立大原小学校"/>
    <tag k="source" v="NRPB of MLIT Japan."/>
    <tag k="source:ja" v="国土数値情報（公共施設データ）平成18年　国土交通省"/>
    <tag k="source_ref" v="http://nlftp.mlit.go.jp/ksj/jpgis/datalist/KsjTmplt-P02-v2_0.html"/>
  </node>
  <node id="1200158198" version="1" timestamp="2011-03-13T13:43:20Z" uid="171838" user="argrath" changeset="7544912" lat="38.512771" lon="141.535944">
    <tag k="amenity" v="school"/>
    <tag k="name" v="市立大須小学校"/>
    <tag k="source" v="NRPB of MLIT Japan."/>
    <tag k="source:ja" v="国土数値情報（公共施設データ）平成18年　国土交通省"/>
    <tag k="source_ref" v="http://nlftp.mlit.go.jp/ksj/jpgis/datalist/KsjTmplt-P02-v2_0.html"/>
  </node>
  <node id="1200158203" version="1" timestamp="2011-03-13T13:43:20Z" uid="171838" user="argrath" changeset="7544912" lat="38.546288" lon="141.428167">
    <tag k="amenity" v="school"/>
    <tag k="name" v="市立大川小学校"/>
    <tag k="source" v="NRPB of MLIT Japan."/>
    <tag k="source:ja" v="国土数値情報（公共施設データ）平成18年　国土交通省"/>
    <tag k="source_ref" v="http://nlftp.mlit.go.jp/ksj/jpgis/datalist/KsjTmplt-P02-v2_0.html"/>
  </node>
  <node id="1200158208" version="1" timestamp="2011-03-13T13:43:21Z" uid="171838" user="argrath" changeset="7544912" lat="38.510732" lon="141.283737">
    <tag k="amenity" v="school"/>
    <tag k="name" v="市立大谷地小学校"/>
    <tag k="source" v="NRPB of MLIT Japan."/>
    <tag k="source:ja" v="国土数値情報（公共施設データ）平成18年　国土交通省"/>
    <tag k="source_ref" v="http://nlftp.mlit.go.jp/ksj/jpgis/datalist/KsjTmplt-P02-v2_0.html"/>
  </node>
  <node id="1200158212" version="1" timestamp="2011-03-13T13:43:21Z" uid="171838" user="argrath" changeset="7544912" lat="38.372421" lon="141.483445">
    <tag k="amenity" v="school"/>
    <tag k="name" v="市立谷川小学校"/>
    <tag k="source" v="NRPB of MLIT Japan."/>
    <tag k="source:ja" v="国土数値情報（公共施設データ）平成18年　国土交通省"/>
    <tag k="source_ref" v="http://nlftp.mlit.go.jp/ksj/jpgis/datalist/KsjTmplt-P02-v2_0.html"/>
  </node>
  <node id="1200158219" version="1" timestamp="2011-03-13T13:43:21Z" uid="171838" user="argrath" changeset="7544912" lat="38.541187" lon="141.238265">
    <tag k="amenity" v="school"/>
    <tag k="name" v="市立中津山第一小学校"/>
    <tag k="source" v="NRPB of MLIT Japan."/>
    <tag k="source:ja" v="国土数値情報（公共施設データ）平成18年　国土交通省"/>
    <tag k="source_ref" v="http://nlftp.mlit.go.jp/ksj/jpgis/datalist/KsjTmplt-P02-v2_0.html"/>
  </node>
  <node id="1200158225" version="1" timestamp="2011-03-13T13:43:21Z" uid="171838" user="argrath" changeset="7544912" lat="38.56115" lon="141.24383">
    <tag k="amenity" v="school"/>
    <tag k="name" v="市立中津山第二小学校"/>
    <tag k="source" v="NRPB of MLIT Japan."/>
    <tag k="source:ja" v="国土数値情報（公共施設データ）平成18年　国土交通省"/>
    <tag k="source_ref" v="http://nlftp.mlit.go.jp/ksj/jpgis/datalist/KsjTmplt-P02-v2_0.html"/>
  </node>
  <node id="1200158236" version="1" timestamp="2011-03-13T13:43:21Z" uid="171838" user="argrath" changeset="7544912" lat="38.443795" lon="141.297072">
    <tag k="amenity" v="school"/>
    <tag k="name" v="市立中里小学校"/>
    <tag k="source" v="NRPB of MLIT Japan."/>
    <tag k="source:ja" v="国土数値情報（公共施設データ）平成18年　国土交通省"/>
    <tag k="source_ref" v="http://nlftp.mlit.go.jp/ksj/jpgis/datalist/KsjTmplt-P02-v2_0.html"/>
  </node>
  <node id="1200158245" version="1" timestamp="2011-03-13T13:43:22Z" uid="171838" user="argrath" changeset="7544912" lat="38.437406" lon="141.284296">
    <tag k="amenity" v="school"/>
    <tag k="name" v="市立貞山小学校"/>
    <tag k="source" v="NRPB of MLIT Japan."/>
    <tag k="source:ja" v="国土数値情報（公共施設データ）平成18年　国土交通省"/>
    <tag k="source_ref" v="http://nlftp.mlit.go.jp/ksj/jpgis/datalist/KsjTmplt-P02-v2_0.html"/>
  </node>
  <node id="1200158246" version="1" timestamp="2011-03-13T13:43:22Z" uid="171838" user="argrath" changeset="7544912" lat="38.418522" lon="141.364289">
    <tag k="amenity" v="school"/>
    <tag k="name" v="市立渡波小学校"/>
    <tag k="source" v="NRPB of MLIT Japan."/>
    <tag k="source:ja" v="国土数値情報（公共施設データ）平成18年　国土交通省"/>
    <tag k="source_ref" v="http://nlftp.mlit.go.jp/ksj/jpgis/datalist/KsjTmplt-P02-v2_0.html"/>
  </node>
  <node id="1200158259" version="1" timestamp="2011-03-13T13:43:23Z" uid="171838" user="argrath" changeset="7544912" lat="38.36381" lon="141.434284">
    <tag k="amenity" v="school"/>
    <tag k="name" v="市立東浜小学校"/>
    <tag k="source" v="NRPB of MLIT Japan."/>
    <tag k="source:ja" v="国土数値情報（公共施設データ）平成18年　国土交通省"/>
    <tag k="source_ref" v="http://nlftp.mlit.go.jp/ksj/jpgis/datalist/KsjTmplt-P02-v2_0.html"/>
  </node>
  <node id="1200158264" version="1" timestamp="2011-03-13T13:43:23Z" uid="171838" user="argrath" changeset="7544912" lat="38.566098" lon="141.275663">
    <tag k="amenity" v="school"/>
    <tag k="name" v="市立桃生小学校"/>
    <tag k="source" v="NRPB of MLIT Japan."/>
    <tag k="source:ja" v="国土数値情報（公共施設データ）平成18年　国土交通省"/>
    <tag k="source_ref" v="http://nlftp.mlit.go.jp/ksj/jpgis/datalist/KsjTmplt-P02-v2_0.html"/>
  </node>
  <node id="1200158265" version="1" timestamp="2011-03-13T13:43:23Z" uid="171838" user="argrath" changeset="7544912" lat="38.501845" lon="141.31679">
    <tag k="amenity" v="school"/>
    <tag k="name" v="市立二俣小学校"/>
    <tag k="source" v="NRPB of MLIT Japan."/>
    <tag k="source:ja" v="国土数値情報（公共施設データ）平成18年　国土交通省"/>
    <tag k="source_ref" v="http://nlftp.mlit.go.jp/ksj/jpgis/datalist/KsjTmplt-P02-v2_0.html"/>
  </node>
  <node id="1200158280" version="1" timestamp="2011-03-13T13:43:24Z" uid="171838" user="argrath" changeset="7544912" lat="38.517676" lon="141.317345">
    <tag k="amenity" v="school"/>
    <tag k="name" v="市立飯野川第一小学校"/>
    <tag k="source" v="NRPB of MLIT Japan."/>
    <tag k="source:ja" v="国土数値情報（公共施設データ）平成18年　国土交通省"/>
    <tag k="source_ref" v="http://nlftp.mlit.go.jp/ksj/jpgis/datalist/KsjTmplt-P02-v2_0.html"/>
  </node>
  <node id="1200158289" version="1" timestamp="2011-03-13T13:43:24Z" uid="171838" user="argrath" changeset="7544912" lat="38.539064" lon="141.350397">
    <tag k="amenity" v="school"/>
    <tag k="name" v="市立飯野川第二小学校"/>
    <tag k="source" v="NRPB of MLIT Japan."/>
    <tag k="source:ja" v="国土数値情報（公共施設データ）平成18年　国土交通省"/>
    <tag k="source_ref" v="http://nlftp.mlit.go.jp/ksj/jpgis/datalist/KsjTmplt-P02-v2_0.html"/>
  </node>
  <node id="1200158292" version="1" timestamp="2011-03-13T13:43:25Z" uid="171838" user="argrath" changeset="7544912" lat="38.484247" lon="141.19208">
    <tag k="amenity" v="school"/>
    <tag k="name" v="市立北村小学校"/>
    <tag k="source" v="NRPB of MLIT Japan."/>
    <tag k="source:ja" v="国土数値情報（公共施設データ）平成18年　国土交通省"/>
    <tag k="source_ref" v="http://nlftp.mlit.go.jp/ksj/jpgis/datalist/KsjTmplt-P02-v2_0.html"/>
  </node>
  <node id="1200158304" version="1" timestamp="2011-03-13T13:43:25Z" uid="171838" user="argrath" changeset="7544912" lat="38.4238" lon="141.374288">
    <tag k="amenity" v="school"/>
    <tag k="name" v="市立万石浦小学校"/>
    <tag k="source" v="NRPB of MLIT Japan."/>
    <tag k="source:ja" v="国土数値情報（公共施設データ）平成18年　国土交通省"/>
    <tag k="source_ref" v="http://nlftp.mlit.go.jp/ksj/jpgis/datalist/KsjTmplt-P02-v2_0.html"/>
  </node>
  <node id="1200158311" version="1" timestamp="2011-03-13T13:43:25Z" uid="171838" user="argrath" changeset="7544912" lat="38.427409" lon="141.316516">
    <tag k="amenity" v="school"/>
    <tag k="name" v="市立湊小学校"/>
    <tag k="source" v="NRPB of MLIT Japan."/>
    <tag k="source:ja" v="国土数値情報（公共施設データ）平成18年　国土交通省"/>
    <tag k="source_ref" v="http://nlftp.mlit.go.jp/ksj/jpgis/datalist/KsjTmplt-P02-v2_0.html"/>
  </node>
  <node id="1200158333" version="1" timestamp="2011-03-13T13:43:26Z" uid="171838" user="argrath" changeset="7544912" lat="38.418799" lon="141.320682">
    <tag k="amenity" v="school"/>
    <tag k="name" v="市立湊第二小学校"/>
    <tag k="source" v="NRPB of MLIT Japan."/>
    <tag k="source:ja" v="国土数値情報（公共施設データ）平成18年　国土交通省"/>
    <tag k="source_ref" v="http://nlftp.mlit.go.jp/ksj/jpgis/datalist/KsjTmplt-P02-v2_0.html"/>
  </node>
  <node id="1200158341" version="1" timestamp="2011-03-13T13:43:26Z" uid="171838" user="argrath" changeset="7544912" lat="38.421298" lon="141.304573">
    <tag k="amenity" v="school"/>
    <tag k="name" v="市立門脇小学校"/>
    <tag k="source" v="NRPB of MLIT Japan."/>
    <tag k="source:ja" v="国土数値情報（公共施設データ）平成18年　国土交通省"/>
    <tag k="source_ref" v="http://nlftp.mlit.go.jp/ksj/jpgis/datalist/KsjTmplt-P02-v2_0.html"/>
  </node>
  <node id="1200158342" version="1" timestamp="2011-03-13T13:43:26Z" uid="171838" user="argrath" changeset="7544912" lat="38.513376" lon="141.460268">
    <tag k="amenity" v="school"/>
    <tag k="name" v="市立雄勝小学校"/>
    <tag k="source" v="NRPB of MLIT Japan."/>
    <tag k="source:ja" v="国土数値情報（公共施設データ）平成18年　国土交通省"/>
    <tag k="source_ref" v="http://nlftp.mlit.go.jp/ksj/jpgis/datalist/KsjTmplt-P02-v2_0.html"/>
  </node>
  <node id="1200158352" version="1" timestamp="2011-03-13T13:43:27Z" uid="171838" user="argrath" changeset="7544912" lat="38.525172" lon="141.225408">
    <tag k="amenity" v="school"/>
    <tag k="name" v="市立和渕小学校"/>
    <tag k="source" v="NRPB of MLIT Japan."/>
    <tag k="source:ja" v="国土数値情報（公共施設データ）平成18年　国土交通省"/>
    <tag k="source_ref" v="http://nlftp.mlit.go.jp/ksj/jpgis/datalist/KsjTmplt-P02-v2_0.html"/>
  </node>
  <node id="1200158355" version="1" timestamp="2011-03-13T13:43:27Z" uid="171838" user="argrath" changeset="7544912" lat="38.334915" lon="141.095155">
    <tag k="amenity" v="school"/>
    <tag k="name" v="市立浦戸第二小学校"/>
    <tag k="source" v="NRPB of MLIT Japan."/>
    <tag k="source:ja" v="国土数値情報（公共施設データ）平成18年　国土交通省"/>
    <tag k="source_ref" v="http://nlftp.mlit.go.jp/ksj/jpgis/datalist/KsjTmplt-P02-v2_0.html"/>
  </node>
  <node id="1200158361" version="1" timestamp="2011-03-13T13:43:27Z" uid="171838" user="argrath" changeset="7544912" lat="38.315192" lon="141.015442">
    <tag k="amenity" v="school"/>
    <tag k="name" v="市立塩竈第一小学校"/>
    <tag k="source" v="NRPB of MLIT Japan."/>
    <tag k="source:ja" v="国土数値情報（公共施設データ）平成18年　国土交通省"/>
    <tag k="source_ref" v="http://nlftp.mlit.go.jp/ksj/jpgis/datalist/KsjTmplt-P02-v2_0.html"/>
  </node>
  <node id="1200158375" version="1" timestamp="2011-03-13T13:43:28Z" uid="171838" user="argrath" changeset="7544912" lat="38.308804" lon="141.020441">
    <tag k="amenity" v="school"/>
    <tag k="name" v="市立塩竈第三小学校"/>
    <tag k="source" v="NRPB of MLIT Japan."/>
    <tag k="source:ja" v="国土数値情報（公共施設データ）平成18年　国土交通省"/>
    <tag k="source_ref" v="http://nlftp.mlit.go.jp/ksj/jpgis/datalist/KsjTmplt-P02-v2_0.html"/>
  </node>
  <node id="1200158381" version="1" timestamp="2011-03-13T13:43:28Z" uid="171838" user="argrath" changeset="7544912" lat="38.324913" lon="141.02044">
    <tag k="amenity" v="school"/>
    <tag k="name" v="市立塩竈第二小学校"/>
    <tag k="source" v="NRPB of MLIT Japan."/>
    <tag k="source:ja" v="国土数値情報（公共施設データ）平成18年　国土交通省"/>
    <tag k="source_ref" v="http://nlftp.mlit.go.jp/ksj/jpgis/datalist/KsjTmplt-P02-v2_0.html"/>
  </node>
  <node id="1200158383" version="1" timestamp="2011-03-13T13:43:28Z" uid="171838" user="argrath" changeset="7544912" lat="38.310747" lon="141.007387">
    <tag k="amenity" v="school"/>
    <tag k="name" v="市立玉川小学校"/>
    <tag k="source" v="NRPB of MLIT Japan."/>
    <tag k="source:ja" v="国土数値情報（公共施設データ）平成18年　国土交通省"/>
    <tag k="source_ref" v="http://nlftp.mlit.go.jp/ksj/jpgis/datalist/KsjTmplt-P02-v2_0.html"/>
  </node>
  <node id="1200158393" version="1" timestamp="2011-03-13T13:43:29Z" uid="171838" user="argrath" changeset="7544912" lat="38.319358" lon="141.003498">
    <tag k="amenity" v="school"/>
    <tag k="name" v="市立月見ケ丘小学校"/>
    <tag k="source" v="NRPB of MLIT Japan."/>
    <tag k="source:ja" v="国土数値情報（公共施設データ）平成18年　国土交通省"/>
    <tag k="source_ref" v="http://nlftp.mlit.go.jp/ksj/jpgis/datalist/KsjTmplt-P02-v2_0.html"/>
  </node>
  <node id="1200158398" version="1" timestamp="2011-03-13T13:43:29Z" uid="171838" user="argrath" changeset="7544912" lat="38.331302" lon="141.034605">
    <tag k="amenity" v="school"/>
    <tag k="name" v="市立杉の入小学校"/>
    <tag k="source" v="NRPB of MLIT Japan."/>
    <tag k="source:ja" v="国土数値情報（公共施設データ）平成18年　国土交通省"/>
    <tag k="source_ref" v="http://nlftp.mlit.go.jp/ksj/jpgis/datalist/KsjTmplt-P02-v2_0.html"/>
  </node>
  <node id="1200158403" version="1" timestamp="2011-03-13T13:43:29Z" uid="171838" user="argrath" changeset="7544912" lat="38.89153" lon="141.60147">
    <tag k="amenity" v="school"/>
    <tag k="name" v="市立浦島小学校"/>
    <tag k="source" v="NRPB of MLIT Japan."/>
    <tag k="source:ja" v="国土数値情報（公共施設データ）平成18年　国土交通省"/>
    <tag k="source_ref" v="http://nlftp.mlit.go.jp/ksj/jpgis/datalist/KsjTmplt-P02-v2_0.html"/>
  </node>
  <node id="1200158411" version="1" timestamp="2011-03-13T13:43:30Z" uid="171838" user="argrath" changeset="7544912" lat="38.842925" lon="141.578974">
    <tag k="amenity" v="school"/>
    <tag k="name" v="市立階上小学校"/>
    <tag k="source" v="NRPB of MLIT Japan."/>
    <tag k="source:ja" v="国土数値情報（公共施設データ）平成18年　国土交通省"/>
    <tag k="source_ref" v="http://nlftp.mlit.go.jp/ksj/jpgis/datalist/KsjTmplt-P02-v2_0.html"/>
  </node>
  <node id="1200158414" version="1" timestamp="2011-03-13T13:43:30Z" uid="171838" user="argrath" changeset="7544912" lat="38.903195" lon="141.571472">
    <tag k="amenity" v="school"/>
    <tag k="name" v="市立気仙沼小学校"/>
    <tag k="source" v="NRPB of MLIT Japan."/>
    <tag k="source:ja" v="国土数値情報（公共施設データ）平成18年　国土交通省"/>
    <tag k="source_ref" v="http://nlftp.mlit.go.jp/ksj/jpgis/datalist/KsjTmplt-P02-v2_0.html"/>
  </node>
  <node id="1200158427" version="1" timestamp="2011-03-13T13:43:30Z" uid="171838" user="argrath" changeset="7544912" lat="38.89403" lon="141.553141">
    <tag k="amenity" v="school"/>
    <tag k="name" v="市立九条小学校"/>
    <tag k="source" v="NRPB of MLIT Japan."/>
    <tag k="source:ja" v="国土数値情報（公共施設データ）平成18年　国土交通省"/>
    <tag k="source_ref" v="http://nlftp.mlit.go.jp/ksj/jpgis/datalist/KsjTmplt-P02-v2_0.html"/>
  </node>
  <node id="1200158428" version="1" timestamp="2011-03-13T13:43:30Z" uid="171838" user="argrath" changeset="7544912" lat="38.952077" lon="141.51953">
    <tag k="amenity" v="school"/>
    <tag k="name" v="市立月立小学校"/>
    <tag k="source" v="NRPB of MLIT Japan."/>
    <tag k="source:ja" v="国土数値情報（公共施設データ）平成18年　国土交通省"/>
    <tag k="source_ref" v="http://nlftp.mlit.go.jp/ksj/jpgis/datalist/KsjTmplt-P02-v2_0.html"/>
  </node>
  <node id="1200158432" version="1" timestamp="2011-03-13T13:43:31Z" uid="171838" user="argrath" changeset="7544912" lat="38.922082" lon="141.581749">
    <tag k="amenity" v="school"/>
    <tag k="name" v="市立鹿折小学校"/>
    <tag k="source" v="NRPB of MLIT Japan."/>
    <tag k="source:ja" v="国土数値情報（公共施設データ）平成18年　国土交通省"/>
    <tag k="source_ref" v="http://nlftp.mlit.go.jp/ksj/jpgis/datalist/KsjTmplt-P02-v2_0.html"/>
  </node>
  <node id="1200158446" version="1" timestamp="2011-03-13T13:43:31Z" uid="171838" user="argrath" changeset="7544912" lat="38.946013" lon="141.633429">
    <tag k="amenity" v="school"/>
    <tag k="name" v="市立小原木小学校"/>
    <tag k="source" v="NRPB of MLIT Japan."/>
    <tag k="source:ja" v="国土数値情報（公共施設データ）平成18年　国土交通省"/>
    <tag k="source_ref" v="http://nlftp.mlit.go.jp/ksj/jpgis/datalist/KsjTmplt-P02-v2_0.html"/>
  </node>
  <node id="1200158450" version="1" timestamp="2011-03-13T13:43:31Z" uid="171838" user="argrath" changeset="7544912" lat="38.878476" lon="141.572584">
    <tag k="amenity" v="school"/>
    <tag k="name" v="市立松岩小学校"/>
    <tag k="source" v="NRPB of MLIT Japan."/>
    <tag k="source:ja" v="国土数値情報（公共施設データ）平成18年　国土交通省"/>
    <tag k="source_ref" v="http://nlftp.mlit.go.jp/ksj/jpgis/datalist/KsjTmplt-P02-v2_0.html"/>
  </node>
  <node id="1200158460" version="1" timestamp="2011-03-13T13:43:31Z" uid="171838" user="argrath" changeset="7544912" lat="38.902639" lon="141.538698">
    <tag k="amenity" v="school"/>
    <tag k="name" v="市立新城小学校"/>
    <tag k="source" v="NRPB of MLIT Japan."/>
    <tag k="source:ja" v="国土数値情報（公共施設データ）平成18年　国土交通省"/>
    <tag k="source_ref" v="http://nlftp.mlit.go.jp/ksj/jpgis/datalist/KsjTmplt-P02-v2_0.html"/>
  </node>
  <node id="1200158467" version="1" timestamp="2011-03-13T13:43:32Z" uid="171838" user="argrath" changeset="7544912" lat="38.863078" lon="141.53305">
    <tag k="amenity" v="school"/>
    <tag k="name" v="市立水梨小学校"/>
    <tag k="source" v="NRPB of MLIT Japan."/>
    <tag k="source:ja" v="国土数値情報（公共施設データ）平成18年　国土交通省"/>
    <tag k="source_ref" v="http://nlftp.mlit.go.jp/ksj/jpgis/datalist/KsjTmplt-P02-v2_0.html"/>
  </node>
  <node id="1200158474" version="1" timestamp="2011-03-13T13:43:32Z" uid="171838" user="argrath" changeset="7544912" lat="38.856535" lon="141.615914">
    <tag k="amenity" v="school"/>
    <tag k="name" v="市立大島小学校"/>
    <tag k="source" v="NRPB of MLIT Japan."/>
    <tag k="source:ja" v="国土数値情報（公共施設データ）平成18年　国土交通省"/>
    <tag k="source_ref" v="http://nlftp.mlit.go.jp/ksj/jpgis/datalist/KsjTmplt-P02-v2_0.html"/>
  </node>
  <node id="1200158499" version="1" timestamp="2011-03-13T13:43:32Z" uid="171838" user="argrath" changeset="7544912" lat="38.880396" lon="141.660186">
    <tag k="amenity" v="school"/>
    <tag k="name" v="市立中井小学校"/>
    <tag k="source" v="NRPB of MLIT Japan."/>
    <tag k="source:ja" v="国土数値情報（公共施設データ）平成18年　国土交通省"/>
    <tag k="source_ref" v="http://nlftp.mlit.go.jp/ksj/jpgis/datalist/KsjTmplt-P02-v2_0.html"/>
  </node>
  <node id="1200158507" version="1" timestamp="2011-03-13T13:43:33Z" uid="171838" user="argrath" changeset="7544912" lat="38.90179" lon="141.644757">
    <tag k="amenity" v="school"/>
    <tag k="name" v="市立唐桑小学校"/>
    <tag k="source" v="NRPB of MLIT Japan."/>
    <tag k="source:ja" v="国土数値情報（公共施設データ）平成18年　国土交通省"/>
    <tag k="source_ref" v="http://nlftp.mlit.go.jp/ksj/jpgis/datalist/KsjTmplt-P02-v2_0.html"/>
  </node>
  <node id="1200158511" version="1" timestamp="2011-03-13T13:43:33Z" uid="171838" user="argrath" changeset="7544912" lat="38.89403" lon="141.572028">
    <tag k="amenity" v="school"/>
    <tag k="name" v="市立南気仙沼小学校"/>
    <tag k="source" v="NRPB of MLIT Japan."/>
    <tag k="source:ja" v="国土数値情報（公共施設データ）平成18年　国土交通省"/>
    <tag k="source_ref" v="http://nlftp.mlit.go.jp/ksj/jpgis/datalist/KsjTmplt-P02-v2_0.html"/>
  </node>
  <node id="1200158520" version="1" timestamp="2011-03-13T13:43:33Z" uid="171838" user="argrath" changeset="7544912" lat="38.961799" lon="141.565637">
    <tag k="amenity" v="school"/>
    <tag k="name" v="市立白山小学校"/>
    <tag k="source" v="NRPB of MLIT Japan."/>
    <tag k="source:ja" v="国土数値情報（公共施設データ）平成18年　国土交通省"/>
    <tag k="source_ref" v="http://nlftp.mlit.go.jp/ksj/jpgis/datalist/KsjTmplt-P02-v2_0.html"/>
  </node>
  <node id="1200158525" version="1" timestamp="2011-03-13T13:43:34Z" uid="171838" user="argrath" changeset="7544912" lat="38.866811" lon="141.573141">
    <tag k="amenity" v="school"/>
    <tag k="name" v="市立面瀬小学校"/>
    <tag k="source" v="NRPB of MLIT Japan."/>
    <tag k="source:ja" v="国土数値情報（公共施設データ）平成18年　国土交通省"/>
    <tag k="source_ref" v="http://nlftp.mlit.go.jp/ksj/jpgis/datalist/KsjTmplt-P02-v2_0.html"/>
  </node>
  <node id="1200158529" version="1" timestamp="2011-03-13T13:43:34Z" uid="171838" user="argrath" changeset="7544912" lat="38.911292" lon="141.499749">
    <tag k="amenity" v="school"/>
    <tag k="name" v="市立落合小学校"/>
    <tag k="source" v="NRPB of MLIT Japan."/>
    <tag k="source:ja" v="国土数値情報（公共施設データ）平成18年　国土交通省"/>
    <tag k="source_ref" v="http://nlftp.mlit.go.jp/ksj/jpgis/datalist/KsjTmplt-P02-v2_0.html"/>
  </node>
  <node id="1200158541" version="1" timestamp="2011-03-13T13:43:34Z" uid="171838" user="argrath" changeset="7544912" lat="37.921886" lon="140.597996">
    <tag k="amenity" v="school"/>
    <tag k="name" v="市立越河小学校"/>
    <tag k="source" v="NRPB of MLIT Japan."/>
    <tag k="source:ja" v="国土数値情報（公共施設データ）平成18年　国土交通省"/>
    <tag k="source_ref" v="http://nlftp.mlit.go.jp/ksj/jpgis/datalist/KsjTmplt-P02-v2_0.html"/>
  </node>
  <node id="1200158545" version="1" timestamp="2011-03-13T13:43:34Z" uid="171838" user="argrath" changeset="7544912" lat="37.961327" lon="140.61216">
    <tag k="amenity" v="school"/>
    <tag k="name" v="市立斎川小学校"/>
    <tag k="source" v="NRPB of MLIT Japan."/>
    <tag k="source:ja" v="国土数値情報（公共施設データ）平成18年　国土交通省"/>
    <tag k="source_ref" v="http://nlftp.mlit.go.jp/ksj/jpgis/datalist/KsjTmplt-P02-v2_0.html"/>
  </node>
  <node id="1200158554" version="1" timestamp="2011-03-13T13:43:35Z" uid="171838" user="argrath" changeset="7544912" lat="37.952715" lon="140.560219">
    <tag k="amenity" v="school"/>
    <tag k="name" v="市立小原小学校"/>
    <tag k="source" v="NRPB of MLIT Japan."/>
    <tag k="source:ja" v="国土数値情報（公共施設データ）平成18年　国土交通省"/>
    <tag k="source_ref" v="http://nlftp.mlit.go.jp/ksj/jpgis/datalist/KsjTmplt-P02-v2_0.html"/>
  </node>
  <node id="1200158563" version="1" timestamp="2011-03-13T13:43:35Z" uid="171838" user="argrath" changeset="7544912" lat="38.037429" lon="140.627988">
    <tag k="amenity" v="school"/>
    <tag k="name" v="市立深谷小学校"/>
    <tag k="source" v="NRPB of MLIT Japan."/>
    <tag k="source:ja" v="国土数値情報（公共施設データ）平成18年　国土交通省"/>
    <tag k="source_ref" v="http://nlftp.mlit.go.jp/ksj/jpgis/datalist/KsjTmplt-P02-v2_0.html"/>
  </node>
  <node id="1200158618" version="1" timestamp="2011-03-13T13:43:39Z" uid="171838" user="argrath" changeset="7544917" lat="38.07548" lon="140.56438">
    <tag k="amenity" v="school"/>
    <tag k="name" v="市立深谷小学校三住分校"/>
    <tag k="source" v="NRPB of MLIT Japan."/>
    <tag k="source:ja" v="国土数値情報（公共施設データ）平成18年　国土交通省"/>
    <tag k="source_ref" v="http://nlftp.mlit.go.jp/ksj/jpgis/datalist/KsjTmplt-P02-v2_0.html"/>
  </node>
  <node id="1200158626" version="1" timestamp="2011-03-13T13:43:39Z" uid="171838" user="argrath" changeset="7544917" lat="37.985214" lon="140.64549">
    <tag k="amenity" v="school"/>
    <tag k="name" v="市立大鷹沢小学校"/>
    <tag k="source" v="NRPB of MLIT Japan."/>
    <tag k="source:ja" v="国土数値情報（公共施設データ）平成18年　国土交通省"/>
    <tag k="source_ref" v="http://nlftp.mlit.go.jp/ksj/jpgis/datalist/KsjTmplt-P02-v2_0.html"/>
  </node>
  <node id="1200158628" version="1" timestamp="2011-03-13T13:43:40Z" uid="171838" user="argrath" changeset="7544917" lat="37.98799" lon="140.609381">
    <tag k="amenity" v="school"/>
    <tag k="name" v="市立大平小学校"/>
    <tag k="source" v="NRPB of MLIT Japan."/>
    <tag k="source:ja" v="国土数値情報（公共施設データ）平成18年　国土交通省"/>
    <tag k="source_ref" v="http://nlftp.mlit.go.jp/ksj/jpgis/datalist/KsjTmplt-P02-v2_0.html"/>
  </node>
  <node id="1200158631" version="1" timestamp="2011-03-13T13:43:40Z" uid="171838" user="argrath" changeset="7544917" lat="38.009376" lon="140.622157">
    <tag k="amenity" v="school"/>
    <tag k="name" v="市立白石第一小学校"/>
    <tag k="source" v="NRPB of MLIT Japan."/>
    <tag k="source:ja" v="国土数値情報（公共施設データ）平成18年　国土交通省"/>
    <tag k="source_ref" v="http://nlftp.mlit.go.jp/ksj/jpgis/datalist/KsjTmplt-P02-v2_0.html"/>
  </node>
  <node id="1200158635" version="1" timestamp="2011-03-13T13:43:40Z" uid="171838" user="argrath" changeset="7544917" lat="37.998544" lon="140.623268">
    <tag k="amenity" v="school"/>
    <tag k="name" v="市立白石第二小学校"/>
    <tag k="source" v="NRPB of MLIT Japan."/>
    <tag k="source:ja" v="国土数値情報（公共施設データ）平成18年　国土交通省"/>
    <tag k="source_ref" v="http://nlftp.mlit.go.jp/ksj/jpgis/datalist/KsjTmplt-P02-v2_0.html"/>
  </node>
  <node id="1200158642" version="1" timestamp="2011-03-13T13:43:40Z" uid="171838" user="argrath" changeset="7544917" lat="38.014488" lon="140.607002">
    <tag k="amenity" v="school"/>
    <tag k="name" v="市立白石第二小学校公立刈田綜合病院分校"/>
    <tag k="source" v="NRPB of MLIT Japan."/>
    <tag k="source:ja" v="国土数値情報（公共施設データ）平成18年　国土交通省"/>
    <tag k="source_ref" v="http://nlftp.mlit.go.jp/ksj/jpgis/datalist/KsjTmplt-P02-v2_0.html"/>
  </node>
  <node id="1200158644" version="1" timestamp="2011-03-13T13:43:40Z" uid="171838" user="argrath" changeset="7544917" lat="38.02021" lon="140.676597">
    <tag k="amenity" v="school"/>
    <tag k="name" v="市立白川小学校"/>
    <tag k="source" v="NRPB of MLIT Japan."/>
    <tag k="source:ja" v="国土数値情報（公共施設データ）平成18年　国土交通省"/>
    <tag k="source_ref" v="http://nlftp.mlit.go.jp/ksj/jpgis/datalist/KsjTmplt-P02-v2_0.html"/>
  </node>
  <node id="1200158645" version="1" timestamp="2011-03-13T13:43:40Z" uid="171838" user="argrath" changeset="7544917" lat="38.012153" lon="140.615212">
    <tag k="amenity" v="school"/>
    <tag k="name" v="市立福岡小学校"/>
    <tag k="source" v="NRPB of MLIT Japan."/>
    <tag k="source:ja" v="国土数値情報（公共施設データ）平成18年　国土交通省"/>
    <tag k="source_ref" v="http://nlftp.mlit.go.jp/ksj/jpgis/datalist/KsjTmplt-P02-v2_0.html"/>
  </node>
  <node id="1200158649" version="1" timestamp="2011-03-13T13:43:41Z" uid="171838" user="argrath" changeset="7544917" lat="38.019929" lon="140.538552">
    <tag k="amenity" v="school"/>
    <tag k="name" v="市立福岡小学校長峰分校"/>
    <tag k="source" v="NRPB of MLIT Japan."/>
    <tag k="source:ja" v="国土数値情報（公共施設データ）平成18年　国土交通省"/>
    <tag k="source_ref" v="http://nlftp.mlit.go.jp/ksj/jpgis/datalist/KsjTmplt-P02-v2_0.html"/>
  </node>
  <node id="1200158651" version="1" timestamp="2011-03-13T13:43:41Z" uid="171838" user="argrath" changeset="7544917" lat="38.041594" lon="140.585213">
    <tag k="amenity" v="school"/>
    <tag k="name" v="市立福岡小学校八宮分校"/>
    <tag k="source" v="NRPB of MLIT Japan."/>
    <tag k="source:ja" v="国土数値情報（公共施設データ）平成18年　国土交通省"/>
    <tag k="source_ref" v="http://nlftp.mlit.go.jp/ksj/jpgis/datalist/KsjTmplt-P02-v2_0.html"/>
  </node>
  <node id="1200158652" version="1" timestamp="2011-03-13T13:43:41Z" uid="171838" user="argrath" changeset="7544917" lat="38.047703" lon="140.509664">
    <tag k="amenity" v="school"/>
    <tag k="name" v="市立福岡小学校不忘分校"/>
    <tag k="source" v="NRPB of MLIT Japan."/>
    <tag k="source:ja" v="国土数値情報（公共施設データ）平成18年　国土交通省"/>
    <tag k="source_ref" v="http://nlftp.mlit.go.jp/ksj/jpgis/datalist/KsjTmplt-P02-v2_0.html"/>
  </node>
  <node id="1200158654" version="1" timestamp="2011-03-13T13:43:41Z" uid="171838" user="argrath" changeset="7544917" lat="38.201032" lon="140.830186">
    <tag k="amenity" v="school"/>
    <tag k="name" v="市立ゆりが丘小学校"/>
    <tag k="source" v="NRPB of MLIT Japan."/>
    <tag k="source:ja" v="国土数値情報（公共施設データ）平成18年　国土交通省"/>
    <tag k="source_ref" v="http://nlftp.mlit.go.jp/ksj/jpgis/datalist/KsjTmplt-P02-v2_0.html"/>
  </node>
  <node id="1200158662" version="1" timestamp="2011-03-13T13:43:42Z" uid="171838" user="argrath" changeset="7544917" lat="38.15187" lon="140.847965">
    <tag k="amenity" v="school"/>
    <tag k="name" v="市立愛島小学校"/>
    <tag k="source" v="NRPB of MLIT Japan."/>
    <tag k="source:ja" v="国土数値情報（公共施設データ）平成18年　国土交通省"/>
    <tag k="source_ref" v="http://nlftp.mlit.go.jp/ksj/jpgis/datalist/KsjTmplt-P02-v2_0.html"/>
  </node>
  <node id="1200158665" version="1" timestamp="2011-03-13T13:43:42Z" uid="171838" user="argrath" changeset="7544917" lat="38.158261" lon="140.91046">
    <tag k="amenity" v="school"/>
    <tag k="name" v="市立下増田小学校"/>
    <tag k="source" v="NRPB of MLIT Japan."/>
    <tag k="source:ja" v="国土数値情報（公共施設データ）平成18年　国土交通省"/>
    <tag k="source_ref" v="http://nlftp.mlit.go.jp/ksj/jpgis/datalist/KsjTmplt-P02-v2_0.html"/>
  </node>
  <node id="1200158669" version="1" timestamp="2011-03-13T13:43:42Z" uid="171838" user="argrath" changeset="7544917" lat="38.151594" lon="140.881851">
    <tag k="amenity" v="school"/>
    <tag k="name" v="市立館腰小学校"/>
    <tag k="source" v="NRPB of MLIT Japan."/>
    <tag k="source:ja" v="国土数値情報（公共施設データ）平成18年　国土交通省"/>
    <tag k="source_ref" v="http://nlftp.mlit.go.jp/ksj/jpgis/datalist/KsjTmplt-P02-v2_0.html"/>
  </node>
  <node id="1200158672" version="1" timestamp="2011-03-13T13:43:42Z" uid="171838" user="argrath" changeset="7544917" lat="38.187701" lon="140.855462">
    <tag k="amenity" v="school"/>
    <tag k="name" v="市立高舘小学校"/>
    <tag k="source" v="NRPB of MLIT Japan."/>
    <tag k="source:ja" v="国土数値情報（公共施設データ）平成18年　国土交通省"/>
    <tag k="source_ref" v="http://nlftp.mlit.go.jp/ksj/jpgis/datalist/KsjTmplt-P02-v2_0.html"/>
  </node>
  <node id="1200158673" version="1" timestamp="2011-03-13T13:43:43Z" uid="171838" user="argrath" changeset="7544917" lat="38.209364" lon="140.811021">
    <tag k="amenity" v="school"/>
    <tag k="name" v="市立相互台小学校"/>
    <tag k="source" v="NRPB of MLIT Japan."/>
    <tag k="source:ja" v="国土数値情報（公共施設データ）平成18年　国土交通省"/>
    <tag k="source_ref" v="http://nlftp.mlit.go.jp/ksj/jpgis/datalist/KsjTmplt-P02-v2_0.html"/>
  </node>
  <node id="1200158677" version="1" timestamp="2011-03-13T13:43:43Z" uid="171838" user="argrath" changeset="7544917" lat="38.171592" lon="140.888238">
    <tag k="amenity" v="school"/>
    <tag k="name" v="市立増田小学校"/>
    <tag k="source" v="NRPB of MLIT Japan."/>
    <tag k="source:ja" v="国土数値情報（公共施設データ）平成18年　国土交通省"/>
    <tag k="source_ref" v="http://nlftp.mlit.go.jp/ksj/jpgis/datalist/KsjTmplt-P02-v2_0.html"/>
  </node>
  <node id="1200158687" version="1" timestamp="2011-03-13T13:43:43Z" uid="171838" user="argrath" changeset="7544917" lat="38.172702" lon="140.871573">
    <tag k="amenity" v="school"/>
    <tag k="name" v="市立増田西小学校"/>
    <tag k="source" v="NRPB of MLIT Japan."/>
    <tag k="source:ja" v="国土数値情報（公共施設データ）平成18年　国土交通省"/>
    <tag k="source_ref" v="http://nlftp.mlit.go.jp/ksj/jpgis/datalist/KsjTmplt-P02-v2_0.html"/>
  </node>
  <node id="1200158691" version="1" timestamp="2011-03-13T13:43:43Z" uid="171838" user="argrath" changeset="7544917" lat="38.191433" lon="140.841496">
    <tag k="amenity" v="school"/>
    <tag k="name" v="市立那智が丘小学校"/>
    <tag k="source" v="NRPB of MLIT Japan."/>
    <tag k="source:ja" v="国土数値情報（公共施設データ）平成18年　国土交通省"/>
    <tag k="source_ref" v="http://nlftp.mlit.go.jp/ksj/jpgis/datalist/KsjTmplt-P02-v2_0.html"/>
  </node>
  <node id="1200158694" version="1" timestamp="2011-03-13T13:43:44Z" uid="171838" user="argrath" changeset="7544917" lat="38.154926" lon="140.871296">
    <tag k="amenity" v="school"/>
    <tag k="name" v="市立不二が丘小学校"/>
    <tag k="source" v="NRPB of MLIT Japan."/>
    <tag k="source:ja" v="国土数値情報（公共施設データ）平成18年　国土交通省"/>
    <tag k="source_ref" v="http://nlftp.mlit.go.jp/ksj/jpgis/datalist/KsjTmplt-P02-v2_0.html"/>
  </node>
  <node id="1200158695" version="1" timestamp="2011-03-13T13:43:44Z" uid="171838" user="argrath" changeset="7544917" lat="38.177722" lon="140.940268">
    <tag k="amenity" v="school"/>
    <tag k="name" v="市立閖上小学校"/>
    <tag k="source" v="NRPB of MLIT Japan."/>
    <tag k="source:ja" v="国土数値情報（公共施設データ）平成18年　国土交通省"/>
    <tag k="source_ref" v="http://nlftp.mlit.go.jp/ksj/jpgis/datalist/KsjTmplt-P02-v2_0.html"/>
  </node>
  <node id="1200158703" version="1" timestamp="2011-03-13T13:43:44Z" uid="171838" user="argrath" changeset="7544917" lat="37.987994" lon="140.77159">
    <tag k="amenity" v="school"/>
    <tag k="name" v="市立横倉小学校"/>
    <tag k="source" v="NRPB of MLIT Japan."/>
    <tag k="source:ja" v="国土数値情報（公共施設データ）平成18年　国土交通省"/>
    <tag k="source_ref" v="http://nlftp.mlit.go.jp/ksj/jpgis/datalist/KsjTmplt-P02-v2_0.html"/>
  </node>
  <node id="1200158705" version="1" timestamp="2011-03-13T13:43:44Z" uid="171838" user="argrath" changeset="7544917" lat="37.970774" lon="140.781034">
    <tag k="amenity" v="school"/>
    <tag k="name" v="市立角田小学校"/>
    <tag k="source" v="NRPB of MLIT Japan."/>
    <tag k="source:ja" v="国土数値情報（公共施設データ）平成18年　国土交通省"/>
    <tag k="source_ref" v="http://nlftp.mlit.go.jp/ksj/jpgis/datalist/KsjTmplt-P02-v2_0.html"/>
  </node>
  <node id="1200158708" version="1" timestamp="2011-03-13T13:43:44Z" uid="171838" user="argrath" changeset="7544917" lat="37.992161" lon="140.792421">
    <tag k="amenity" v="school"/>
    <tag k="name" v="市立桜小学校"/>
    <tag k="source" v="NRPB of MLIT Japan."/>
    <tag k="source:ja" v="国土数値情報（公共施設データ）平成18年　国土交通省"/>
    <tag k="source_ref" v="http://nlftp.mlit.go.jp/ksj/jpgis/datalist/KsjTmplt-P02-v2_0.html"/>
  </node>
  <node id="1200158715" version="1" timestamp="2011-03-13T13:43:45Z" uid="171838" user="argrath" changeset="7544917" lat="37.941613" lon="140.820477">
    <tag k="amenity" v="school"/>
    <tag k="name" v="市立枝野小学校"/>
    <tag k="source" v="NRPB of MLIT Japan."/>
    <tag k="source:ja" v="国土数値情報（公共施設データ）平成18年　国土交通省"/>
    <tag k="source_ref" v="http://nlftp.mlit.go.jp/ksj/jpgis/datalist/KsjTmplt-P02-v2_0.html"/>
  </node>
  <node id="1200158719" version="1" timestamp="2011-03-13T13:43:45Z" uid="171838" user="argrath" changeset="7544917" lat="37.960775" lon="140.750483">
    <tag k="amenity" v="school"/>
    <tag k="name" v="市立小田小学校"/>
    <tag k="source" v="NRPB of MLIT Japan."/>
    <tag k="source:ja" v="国土数値情報（公共施設データ）平成18年　国土交通省"/>
    <tag k="source_ref" v="http://nlftp.mlit.go.jp/ksj/jpgis/datalist/KsjTmplt-P02-v2_0.html"/>
  </node>
  <node id="1200158721" version="1" timestamp="2011-03-13T13:43:45Z" uid="171838" user="argrath" changeset="7544917" lat="38.003269" lon="140.722704">
    <tag k="amenity" v="school"/>
    <tag k="name" v="市立西根小学校"/>
    <tag k="source" v="NRPB of MLIT Japan."/>
    <tag k="source:ja" v="国土数値情報（公共施設データ）平成18年　国土交通省"/>
    <tag k="source_ref" v="http://nlftp.mlit.go.jp/ksj/jpgis/datalist/KsjTmplt-P02-v2_0.html"/>
  </node>
  <node id="1200158724" version="1" timestamp="2011-03-13T13:43:45Z" uid="171838" user="argrath" changeset="7544917" lat="38.032714" lon="140.81825">
    <tag k="amenity" v="school"/>
    <tag k="name" v="市立東根小学校"/>
    <tag k="source" v="NRPB of MLIT Japan."/>
    <tag k="source:ja" v="国土数値情報（公共施設データ）平成18年　国土交通省"/>
    <tag k="source_ref" v="http://nlftp.mlit.go.jp/ksj/jpgis/datalist/KsjTmplt-P02-v2_0.html"/>
  </node>
  <node id="1200158733" version="1" timestamp="2011-03-13T13:43:46Z" uid="171838" user="argrath" changeset="7544917" lat="37.972998" lon="140.823531">
    <tag k="amenity" v="school"/>
    <tag k="name" v="市立藤尾小学校"/>
    <tag k="source" v="NRPB of MLIT Japan."/>
    <tag k="source:ja" v="国土数値情報（公共施設データ）平成18年　国土交通省"/>
    <tag k="source_ref" v="http://nlftp.mlit.go.jp/ksj/jpgis/datalist/KsjTmplt-P02-v2_0.html"/>
  </node>
  <node id="1200158736" version="1" timestamp="2011-03-13T13:43:46Z" uid="171838" user="argrath" changeset="7544917" lat="38.020213" lon="140.772977">
    <tag k="amenity" v="school"/>
    <tag k="name" v="市立北郷小学校"/>
    <tag k="source" v="NRPB of MLIT Japan."/>
    <tag k="source:ja" v="国土数値情報（公共施設データ）平成18年　国土交通省"/>
    <tag k="source_ref" v="http://nlftp.mlit.go.jp/ksj/jpgis/datalist/KsjTmplt-P02-v2_0.html"/>
  </node>
  <node id="1200158742" version="1" timestamp="2011-03-13T13:43:46Z" uid="171838" user="argrath" changeset="7544917" lat="38.295193" lon="140.970447">
    <tag k="amenity" v="school"/>
    <tag k="name" v="市立山王小学校"/>
    <tag k="source" v="NRPB of MLIT Japan."/>
    <tag k="source:ja" v="国土数値情報（公共施設データ）平成18年　国土交通省"/>
    <tag k="source_ref" v="http://nlftp.mlit.go.jp/ksj/jpgis/datalist/KsjTmplt-P02-v2_0.html"/>
  </node>
  <node id="1200158750" version="1" timestamp="2011-03-13T13:43:47Z" uid="171838" user="argrath" changeset="7544917" lat="38.299915" lon="140.991834">
    <tag k="amenity" v="school"/>
    <tag k="name" v="市立城南小学校"/>
    <tag k="source" v="NRPB of MLIT Japan."/>
    <tag k="source:ja" v="国土数値情報（公共施設データ）平成18年　国土交通省"/>
    <tag k="source_ref" v="http://nlftp.mlit.go.jp/ksj/jpgis/datalist/KsjTmplt-P02-v2_0.html"/>
  </node>
  <node id="1200158751" version="1" timestamp="2011-03-13T13:43:47Z" uid="171838" user="argrath" changeset="7544917" lat="38.29575" lon="141.00961">
    <tag k="amenity" v="school"/>
    <tag k="name" v="市立多賀城小学校"/>
    <tag k="source" v="NRPB of MLIT Japan."/>
    <tag k="source:ja" v="国土数値情報（公共施設データ）平成18年　国土交通省"/>
    <tag k="source_ref" v="http://nlftp.mlit.go.jp/ksj/jpgis/datalist/KsjTmplt-P02-v2_0.html"/>
  </node>
  <node id="1200158754" version="1" timestamp="2011-03-13T13:43:47Z" uid="171838" user="argrath" changeset="7544917" lat="38.300195" lon="141.034052">
    <tag k="amenity" v="school"/>
    <tag k="name" v="市立多賀城東小学校"/>
    <tag k="source" v="NRPB of MLIT Japan."/>
    <tag k="source:ja" v="国土数値情報（公共施設データ）平成18年　国土交通省"/>
    <tag k="source_ref" v="http://nlftp.mlit.go.jp/ksj/jpgis/datalist/KsjTmplt-P02-v2_0.html"/>
  </node>
  <node id="1200158764" version="1" timestamp="2011-03-13T13:43:47Z" uid="171838" user="argrath" changeset="7544917" lat="38.287695" lon="140.993779">
    <tag k="amenity" v="school"/>
    <tag k="name" v="市立多賀城八幡小学校"/>
    <tag k="source" v="NRPB of MLIT Japan."/>
    <tag k="source:ja" v="国土数値情報（公共施設データ）平成18年　国土交通省"/>
    <tag k="source_ref" v="http://nlftp.mlit.go.jp/ksj/jpgis/datalist/KsjTmplt-P02-v2_0.html"/>
  </node>
  <node id="1200158768" version="1" timestamp="2011-03-13T13:43:48Z" uid="171838" user="argrath" changeset="7544917" lat="38.296861" lon="141.017109">
    <tag k="amenity" v="school"/>
    <tag k="name" v="市立天真小学校"/>
    <tag k="source" v="NRPB of MLIT Japan."/>
    <tag k="source:ja" v="国土数値情報（公共施設データ）平成18年　国土交通省"/>
    <tag k="source_ref" v="http://nlftp.mlit.go.jp/ksj/jpgis/datalist/KsjTmplt-P02-v2_0.html"/>
  </node>
  <node id="1200158770" version="1" timestamp="2011-03-13T13:43:48Z" uid="171838" user="argrath" changeset="7544917" lat="38.109653" lon="140.865743">
    <tag k="amenity" v="school"/>
    <tag k="name" v="市立岩沼小学校"/>
    <tag k="source" v="NRPB of MLIT Japan."/>
    <tag k="source:ja" v="国土数値情報（公共施設データ）平成18年　国土交通省"/>
    <tag k="source_ref" v="http://nlftp.mlit.go.jp/ksj/jpgis/datalist/KsjTmplt-P02-v2_0.html"/>
  </node>
  <node id="1200158772" version="1" timestamp="2011-03-13T13:43:48Z" uid="171838" user="argrath" changeset="7544917" lat="38.110485" lon="140.851578">
    <tag k="amenity" v="school"/>
    <tag k="name" v="市立岩沼西小学校"/>
    <tag k="source" v="NRPB of MLIT Japan."/>
    <tag k="source:ja" v="国土数値情報（公共施設データ）平成18年　国土交通省"/>
    <tag k="source_ref" v="http://nlftp.mlit.go.jp/ksj/jpgis/datalist/KsjTmplt-P02-v2_0.html"/>
  </node>
  <node id="1200158779" version="1" timestamp="2011-03-13T13:43:48Z" uid="171838" user="argrath" changeset="7544917" lat="38.099653" lon="140.866021">
    <tag k="amenity" v="school"/>
    <tag k="name" v="市立岩沼南小学校"/>
    <tag k="source" v="NRPB of MLIT Japan."/>
    <tag k="source:ja" v="国土数値情報（公共施設データ）平成18年　国土交通省"/>
    <tag k="source_ref" v="http://nlftp.mlit.go.jp/ksj/jpgis/datalist/KsjTmplt-P02-v2_0.html"/>
  </node>
  <node id="1200158785" version="1" timestamp="2011-03-13T13:43:48Z" uid="171838" user="argrath" changeset="7544917" lat="38.104655" lon="140.910185">
    <tag k="amenity" v="school"/>
    <tag k="name" v="市立玉浦小学校"/>
    <tag k="source" v="NRPB of MLIT Japan."/>
    <tag k="source:ja" v="国土数値情報（公共施設データ）平成18年　国土交通省"/>
    <tag k="source_ref" v="http://nlftp.mlit.go.jp/ksj/jpgis/datalist/KsjTmplt-P02-v2_0.html"/>
  </node>
  <node id="1200158790" version="1" timestamp="2011-03-13T13:43:48Z" uid="171838" user="argrath" changeset="7544917" lat="38.632239" lon="141.353095">
    <tag k="amenity" v="school"/>
    <tag k="name" v="市立横山小学校"/>
    <tag k="source" v="NRPB of MLIT Japan."/>
    <tag k="source:ja" v="国土数値情報（公共施設データ）平成18年　国土交通省"/>
    <tag k="source_ref" v="http://nlftp.mlit.go.jp/ksj/jpgis/datalist/KsjTmplt-P02-v2_0.html"/>
  </node>
  <node id="1200158793" version="1" timestamp="2011-03-13T13:43:49Z" uid="171838" user="argrath" changeset="7544917" lat="38.703191" lon="141.216287">
    <tag k="amenity" v="school"/>
    <tag k="name" v="市立加賀野小学校"/>
    <tag k="source" v="NRPB of MLIT Japan."/>
    <tag k="source:ja" v="国土数値情報（公共施設データ）平成18年　国土交通省"/>
    <tag k="source_ref" v="http://nlftp.mlit.go.jp/ksj/jpgis/datalist/KsjTmplt-P02-v2_0.html"/>
  </node>
  <node id="1200158795" version="1" timestamp="2011-03-13T13:43:49Z" uid="171838" user="argrath" changeset="7544917" lat="38.729449" lon="141.273899">
    <tag k="amenity" v="school"/>
    <tag k="name" v="市立錦織小学校"/>
    <tag k="source" v="NRPB of MLIT Japan."/>
    <tag k="source:ja" v="国土数値情報（公共施設データ）平成18年　国土交通省"/>
    <tag k="source_ref" v="http://nlftp.mlit.go.jp/ksj/jpgis/datalist/KsjTmplt-P02-v2_0.html"/>
  </node>
  <node id="1200158797" version="1" timestamp="2011-03-13T13:43:49Z" uid="171838" user="argrath" changeset="7544917" lat="38.688088" lon="141.201933">
    <tag k="amenity" v="school"/>
    <tag k="name" v="市立佐沼小学校"/>
    <tag k="source" v="NRPB of MLIT Japan."/>
    <tag k="source:ja" v="国土数値情報（公共施設データ）平成18年　国土交通省"/>
    <tag k="source_ref" v="http://nlftp.mlit.go.jp/ksj/jpgis/datalist/KsjTmplt-P02-v2_0.html"/>
  </node>
  <node id="1200158811" version="1" timestamp="2011-03-13T13:43:49Z" uid="171838" user="argrath" changeset="7544917" lat="38.771414" lon="141.28537">
    <tag k="amenity" v="school"/>
    <tag k="name" v="市立嵯峨立小学校"/>
    <tag k="source" v="NRPB of MLIT Japan."/>
    <tag k="source:ja" v="国土数値情報（公共施設データ）平成18年　国土交通省"/>
    <tag k="source_ref" v="http://nlftp.mlit.go.jp/ksj/jpgis/datalist/KsjTmplt-P02-v2_0.html"/>
  </node>
  <node id="1200158813" version="1" timestamp="2011-03-13T13:43:50Z" uid="171838" user="argrath" changeset="7544917" lat="38.620083" lon="141.217756">
    <tag k="amenity" v="school"/>
    <tag k="name" v="市立桜岡小学校"/>
    <tag k="source" v="NRPB of MLIT Japan."/>
    <tag k="source:ja" v="国土数値情報（公共施設データ）平成18年　国土交通省"/>
    <tag k="source_ref" v="http://nlftp.mlit.go.jp/ksj/jpgis/datalist/KsjTmplt-P02-v2_0.html"/>
  </node>
  <node id="1200158816" version="1" timestamp="2011-03-13T13:43:50Z" uid="171838" user="argrath" changeset="7544917" lat="38.730273" lon="141.258275">
    <tag k="amenity" v="school"/>
    <tag k="name" v="市立上沼小学校"/>
    <tag k="source" v="NRPB of MLIT Japan."/>
    <tag k="source:ja" v="国土数値情報（公共施設データ）平成18年　国土交通省"/>
    <tag k="source_ref" v="http://nlftp.mlit.go.jp/ksj/jpgis/datalist/KsjTmplt-P02-v2_0.html"/>
  </node>
  <node id="1200158818" version="1" timestamp="2011-03-13T13:43:50Z" uid="171838" user="argrath" changeset="7544917" lat="38.70948" lon="141.121911">
    <tag k="amenity" v="school"/>
    <tag k="name" v="市立新田第一小学校"/>
    <tag k="source" v="NRPB of MLIT Japan."/>
    <tag k="source:ja" v="国土数値情報（公共施設データ）平成18年　国土交通省"/>
    <tag k="source_ref" v="http://nlftp.mlit.go.jp/ksj/jpgis/datalist/KsjTmplt-P02-v2_0.html"/>
  </node>
  <node id="1200158827" version="1" timestamp="2011-03-13T13:43:50Z" uid="171838" user="argrath" changeset="7544917" lat="38.681097" lon="141.09545">
    <tag k="amenity" v="school"/>
    <tag k="name" v="市立新田第二小学校"/>
    <tag k="source" v="NRPB of MLIT Japan."/>
    <tag k="source:ja" v="国土数値情報（公共施設データ）平成18年　国土交通省"/>
    <tag k="source_ref" v="http://nlftp.mlit.go.jp/ksj/jpgis/datalist/KsjTmplt-P02-v2_0.html"/>
  </node>
  <node id="1200158830" version="1" timestamp="2011-03-13T13:43:50Z" uid="171838" user="argrath" changeset="7544917" lat="38.672117" lon="141.215703">
    <tag k="amenity" v="school"/>
    <tag k="name" v="市立森小学校"/>
    <tag k="source" v="NRPB of MLIT Japan."/>
    <tag k="source:ja" v="国土数値情報（公共施設データ）平成18年　国土交通省"/>
    <tag k="source_ref" v="http://nlftp.mlit.go.jp/ksj/jpgis/datalist/KsjTmplt-P02-v2_0.html"/>
  </node>
  <node id="1200158832" version="1" timestamp="2011-03-13T13:43:51Z" uid="171838" user="argrath" changeset="7544917" lat="38.65788" lon="141.119374">
    <tag k="amenity" v="school"/>
    <tag k="name" v="市立西郷小学校"/>
    <tag k="source" v="NRPB of MLIT Japan."/>
    <tag k="source:ja" v="国土数値情報（公共施設データ）平成18年　国土交通省"/>
    <tag k="source_ref" v="http://nlftp.mlit.go.jp/ksj/jpgis/datalist/KsjTmplt-P02-v2_0.html"/>
  </node>
  <node id="1200158840" version="1" timestamp="2011-03-13T13:43:51Z" uid="171838" user="argrath" changeset="7544917" lat="38.757698" lon="141.182353">
    <tag k="amenity" v="school"/>
    <tag k="name" v="市立石越小学校"/>
    <tag k="source" v="NRPB of MLIT Japan."/>
    <tag k="source:ja" v="国土数値情報（公共施設データ）平成18年　国土交通省"/>
    <tag k="source_ref" v="http://nlftp.mlit.go.jp/ksj/jpgis/datalist/KsjTmplt-P02-v2_0.html"/>
  </node>
  <node id="1200158842" version="1" timestamp="2011-03-13T13:43:51Z" uid="171838" user="argrath" changeset="7544917" lat="38.723111" lon="141.21116">
    <tag k="amenity" v="school"/>
    <tag k="name" v="市立石森小学校"/>
    <tag k="source" v="NRPB of MLIT Japan."/>
    <tag k="source:ja" v="国土数値情報（公共施設データ）平成18年　国土交通省"/>
    <tag k="source_ref" v="http://nlftp.mlit.go.jp/ksj/jpgis/datalist/KsjTmplt-P02-v2_0.html"/>
  </node>
  <node id="1200158845" version="1" timestamp="2011-03-13T13:43:51Z" uid="171838" user="argrath" changeset="7544917" lat="38.708053" lon="141.26643">
    <tag k="amenity" v="school"/>
    <tag k="name" v="市立浅水小学校"/>
    <tag k="source" v="NRPB of MLIT Japan."/>
    <tag k="source:ja" v="国土数値情報（公共施設データ）平成18年　国土交通省"/>
    <tag k="source_ref" v="http://nlftp.mlit.go.jp/ksj/jpgis/datalist/KsjTmplt-P02-v2_0.html"/>
  </node>
  <node id="1200158849" version="1" timestamp="2011-03-13T13:43:51Z" uid="171838" user="argrath" changeset="7544917" lat="38.642434" lon="141.235185">
    <tag k="amenity" v="school"/>
    <tag k="name" v="市立善王寺小学校"/>
    <tag k="source" v="NRPB of MLIT Japan."/>
    <tag k="source:ja" v="国土数値情報（公共施設データ）平成18年　国土交通省"/>
    <tag k="source_ref" v="http://nlftp.mlit.go.jp/ksj/jpgis/datalist/KsjTmplt-P02-v2_0.html"/>
  </node>
  <node id="1200158859" version="1" timestamp="2011-03-13T13:43:52Z" uid="171838" user="argrath" changeset="7544917" lat="38.623683" lon="141.165563">
    <tag k="amenity" v="school"/>
    <tag k="name" v="市立中津山小学校"/>
    <tag k="source" v="NRPB of MLIT Japan."/>
    <tag k="source:ja" v="国土数値情報（公共施設データ）平成18年　国土交通省"/>
    <tag k="source_ref" v="http://nlftp.mlit.go.jp/ksj/jpgis/datalist/KsjTmplt-P02-v2_0.html"/>
  </node>
  <node id="1200158861" version="1" timestamp="2011-03-13T13:43:52Z" uid="171838" user="argrath" changeset="7544917" lat="38.656019" lon="141.280396">
    <tag k="amenity" v="school"/>
    <tag k="name" v="市立登米小学校"/>
    <tag k="source" v="NRPB of MLIT Japan."/>
    <tag k="source:ja" v="国土数値情報（公共施設データ）平成18年　国土交通省"/>
    <tag k="source_ref" v="http://nlftp.mlit.go.jp/ksj/jpgis/datalist/KsjTmplt-P02-v2_0.html"/>
  </node>
  <node id="1200158866" version="1" timestamp="2011-03-13T13:43:52Z" uid="171838" user="argrath" changeset="7544917" lat="38.660833" lon="141.194025">
    <tag k="amenity" v="school"/>
    <tag k="name" v="市立東郷小学校"/>
    <tag k="source" v="NRPB of MLIT Japan."/>
    <tag k="source:ja" v="国土数値情報（公共施設データ）平成18年　国土交通省"/>
    <tag k="source_ref" v="http://nlftp.mlit.go.jp/ksj/jpgis/datalist/KsjTmplt-P02-v2_0.html"/>
  </node>
  <node id="1200158876" version="1" timestamp="2011-03-13T13:43:53Z" uid="171838" user="argrath" changeset="7544917" lat="38.659183" lon="141.166391">
    <tag k="amenity" v="school"/>
    <tag k="name" v="市立南方小学校"/>
    <tag k="source" v="NRPB of MLIT Japan."/>
    <tag k="source:ja" v="国土数値情報（公共施設データ）平成18年　国土交通省"/>
    <tag k="source_ref" v="http://nlftp.mlit.go.jp/ksj/jpgis/datalist/KsjTmplt-P02-v2_0.html"/>
  </node>
  <node id="1200158882" version="1" timestamp="2011-03-13T13:43:53Z" uid="171838" user="argrath" changeset="7544917" lat="38.632928" lon="141.197347">
    <tag k="amenity" v="school"/>
    <tag k="name" v="市立米岡小学校"/>
    <tag k="source" v="NRPB of MLIT Japan."/>
    <tag k="source:ja" v="国土数値情報（公共施設データ）平成18年　国土交通省"/>
    <tag k="source_ref" v="http://nlftp.mlit.go.jp/ksj/jpgis/datalist/KsjTmplt-P02-v2_0.html"/>
  </node>
  <node id="1200158887" version="1" timestamp="2011-03-13T13:43:53Z" uid="171838" user="argrath" changeset="7544917" lat="38.773238" lon="141.331118">
    <tag k="amenity" v="school"/>
    <tag k="name" v="市立米川小学校"/>
    <tag k="source" v="NRPB of MLIT Japan."/>
    <tag k="source:ja" v="国土数値情報（公共施設データ）平成18年　国土交通省"/>
    <tag k="source_ref" v="http://nlftp.mlit.go.jp/ksj/jpgis/datalist/KsjTmplt-P02-v2_0.html"/>
  </node>
  <node id="1200158893" version="1" timestamp="2011-03-13T13:43:53Z" uid="171838" user="argrath" changeset="7544917" lat="38.707142" lon="141.296261">
    <tag k="amenity" v="school"/>
    <tag k="name" v="市立米谷小学校"/>
    <tag k="source" v="NRPB of MLIT Japan."/>
    <tag k="source:ja" v="国土数値情報（公共施設データ）平成18年　国土交通省"/>
    <tag k="source_ref" v="http://nlftp.mlit.go.jp/ksj/jpgis/datalist/KsjTmplt-P02-v2_0.html"/>
  </node>
  <node id="1200158895" version="1" timestamp="2011-03-13T13:43:53Z" uid="171838" user="argrath" changeset="7544917" lat="38.693861" lon="141.243434">
    <tag k="amenity" v="school"/>
    <tag k="name" v="市立宝江小学校"/>
    <tag k="source" v="NRPB of MLIT Japan."/>
    <tag k="source:ja" v="国土数値情報（公共施設データ）平成18年　国土交通省"/>
    <tag k="source_ref" v="http://nlftp.mlit.go.jp/ksj/jpgis/datalist/KsjTmplt-P02-v2_0.html"/>
  </node>
  <node id="1200158902" version="1" timestamp="2011-03-13T13:43:54Z" uid="171838" user="argrath" changeset="7544917" lat="38.58988" lon="141.251983">
    <tag k="amenity" v="school"/>
    <tag k="name" v="市立豊里小学校"/>
    <tag k="source" v="NRPB of MLIT Japan."/>
    <tag k="source:ja" v="国土数値情報（公共施設データ）平成18年　国土交通省"/>
    <tag k="source_ref" v="http://nlftp.mlit.go.jp/ksj/jpgis/datalist/KsjTmplt-P02-v2_0.html"/>
  </node>
  <node id="1200158905" version="1" timestamp="2011-03-13T13:43:54Z" uid="171838" user="argrath" changeset="7544917" lat="38.701019" lon="141.160042">
    <tag k="amenity" v="school"/>
    <tag k="name" v="市立北方小学校"/>
    <tag k="source" v="NRPB of MLIT Japan."/>
    <tag k="source:ja" v="国土数値情報（公共施設データ）平成18年　国土交通省"/>
    <tag k="source_ref" v="http://nlftp.mlit.go.jp/ksj/jpgis/datalist/KsjTmplt-P02-v2_0.html"/>
  </node>
  <node id="1200158909" version="1" timestamp="2011-03-13T13:43:54Z" uid="171838" user="argrath" changeset="7544917" lat="38.751887" lon="141.339809">
    <tag k="amenity" v="school"/>
    <tag k="name" v="市立鱒淵小学校"/>
    <tag k="source" v="NRPB of MLIT Japan."/>
    <tag k="source:ja" v="国土数値情報（公共施設データ）平成18年　国土交通省"/>
    <tag k="source_ref" v="http://nlftp.mlit.go.jp/ksj/jpgis/datalist/KsjTmplt-P02-v2_0.html"/>
  </node>
  <node id="1200158910" version="1" timestamp="2011-03-13T13:43:54Z" uid="171838" user="argrath" changeset="7544917" lat="38.616137" lon="141.29978">
    <tag k="amenity" v="school"/>
    <tag k="name" v="市立柳津小学校"/>
    <tag k="source" v="NRPB of MLIT Japan."/>
    <tag k="source:ja" v="国土数値情報（公共施設データ）平成18年　国土交通省"/>
    <tag k="source_ref" v="http://nlftp.mlit.go.jp/ksj/jpgis/datalist/KsjTmplt-P02-v2_0.html"/>
  </node>
  <node id="1200158911" version="1" timestamp="2011-03-13T13:43:54Z" uid="171838" user="argrath" changeset="7544917" lat="38.742503" lon="140.952152">
    <tag k="amenity" v="school"/>
    <tag k="name" v="市立一迫小学校"/>
    <tag k="source" v="NRPB of MLIT Japan."/>
    <tag k="source:ja" v="国土数値情報（公共施設データ）平成18年　国土交通省"/>
    <tag k="source_ref" v="http://nlftp.mlit.go.jp/ksj/jpgis/datalist/KsjTmplt-P02-v2_0.html"/>
  </node>
  <node id="1200158923" version="1" timestamp="2011-03-13T13:43:55Z" uid="171838" user="argrath" changeset="7544917" lat="38.785767" lon="140.845618">
    <tag k="amenity" v="school"/>
    <tag k="name" v="市立花山小学校"/>
    <tag k="source" v="NRPB of MLIT Japan."/>
    <tag k="source:ja" v="国土数値情報（公共施設データ）平成18年　国土交通省"/>
    <tag k="source_ref" v="http://nlftp.mlit.go.jp/ksj/jpgis/datalist/KsjTmplt-P02-v2_0.html"/>
  </node>
  <node id="1200158928" version="1" timestamp="2011-03-13T13:43:55Z" uid="171838" user="argrath" changeset="7544917" lat="38.833421" lon="140.991597">
    <tag k="amenity" v="school"/>
    <tag k="name" v="市立岩ヶ崎小学校"/>
    <tag k="source" v="NRPB of MLIT Japan."/>
    <tag k="source:ja" v="国土数値情報（公共施設データ）平成18年　国土交通省"/>
    <tag k="source_ref" v="http://nlftp.mlit.go.jp/ksj/jpgis/datalist/KsjTmplt-P02-v2_0.html"/>
  </node>
  <node id="1200158931" version="1" timestamp="2011-03-13T13:43:56Z" uid="171838" user="argrath" changeset="7544917" lat="38.751617" lon="141.004978">
    <tag k="amenity" v="school"/>
    <tag k="name" v="市立宮野小学校"/>
    <tag k="source" v="NRPB of MLIT Japan."/>
    <tag k="source:ja" v="国土数値情報（公共施設データ）平成18年　国土交通省"/>
    <tag k="source_ref" v="http://nlftp.mlit.go.jp/ksj/jpgis/datalist/KsjTmplt-P02-v2_0.html"/>
  </node>
  <node id="1200158934" version="1" timestamp="2011-03-13T13:43:56Z" uid="171838" user="argrath" changeset="7544917" lat="38.746583" lon="141.020406">
    <tag k="amenity" v="school"/>
    <tag k="name" v="市立宮野小学校栗原中央病院分校"/>
    <tag k="source" v="NRPB of MLIT Japan."/>
    <tag k="source:ja" v="国土数値情報（公共施設データ）平成18年　国土交通省"/>
    <tag k="source_ref" v="http://nlftp.mlit.go.jp/ksj/jpgis/datalist/KsjTmplt-P02-v2_0.html"/>
  </node>
  <node id="1200158944" version="1" timestamp="2011-03-13T13:43:56Z" uid="171838" user="argrath" changeset="7544917" lat="38.715337" lon="141.035153">
    <tag k="amenity" v="school"/>
    <tag k="name" v="市立玉沢小学校"/>
    <tag k="source" v="NRPB of MLIT Japan."/>
    <tag k="source:ja" v="国土数値情報（公共施設データ）平成18年　国土交通省"/>
    <tag k="source_ref" v="http://nlftp.mlit.go.jp/ksj/jpgis/datalist/KsjTmplt-P02-v2_0.html"/>
  </node>
  <node id="1200158947" version="1" timestamp="2011-03-13T13:43:56Z" uid="171838" user="argrath" changeset="7544917" lat="38.814329" lon="141.071961">
    <tag k="amenity" v="school"/>
    <tag k="name" v="市立金成小学校"/>
    <tag k="source" v="NRPB of MLIT Japan."/>
    <tag k="source:ja" v="国土数値情報（公共施設データ）平成18年　国土交通省"/>
    <tag k="source_ref" v="http://nlftp.mlit.go.jp/ksj/jpgis/datalist/KsjTmplt-P02-v2_0.html"/>
  </node>
  <node id="1200158949" version="1" timestamp="2011-03-13T13:43:56Z" uid="171838" user="argrath" changeset="7544917" lat="38.765545" lon="140.895614">
    <tag k="amenity" v="school"/>
    <tag k="name" v="市立金田小学校"/>
    <tag k="source" v="NRPB of MLIT Japan."/>
    <tag k="source:ja" v="国土数値情報（公共施設データ）平成18年　国土交通省"/>
    <tag k="source_ref" v="http://nlftp.mlit.go.jp/ksj/jpgis/datalist/KsjTmplt-P02-v2_0.html"/>
  </node>
  <node id="1200158956" version="1" timestamp="2011-03-13T13:43:57Z" uid="171838" user="argrath" changeset="7544917" lat="38.863885" lon="140.955955">
    <tag k="amenity" v="school"/>
    <tag k="name" v="市立栗駒小学校"/>
    <tag k="source" v="NRPB of MLIT Japan."/>
    <tag k="source:ja" v="国土数値情報（公共施設データ）平成18年　国土交通省"/>
    <tag k="source_ref" v="http://nlftp.mlit.go.jp/ksj/jpgis/datalist/KsjTmplt-P02-v2_0.html"/>
  </node>
  <node id="1200158962" version="1" timestamp="2011-03-13T13:43:57Z" uid="171838" user="argrath" changeset="7544917" lat="38.919951" lon="140.826327">
    <tag k="amenity" v="school"/>
    <tag k="name" v="市立栗駒小学校耕英分校"/>
    <tag k="source" v="NRPB of MLIT Japan."/>
    <tag k="source:ja" v="国土数値情報（公共施設データ）平成18年　国土交通省"/>
    <tag k="source_ref" v="http://nlftp.mlit.go.jp/ksj/jpgis/datalist/KsjTmplt-P02-v2_0.html"/>
  </node>
  <node id="1200158964" version="1" timestamp="2011-03-13T13:43:57Z" uid="171838" user="argrath" changeset="7544917" lat="38.661697" lon="141.008693">
    <tag k="amenity" v="school"/>
    <tag k="name" v="市立高清水小学校"/>
    <tag k="source" v="NRPB of MLIT Japan."/>
    <tag k="source:ja" v="国土数値情報（公共施設データ）平成18年　国土交通省"/>
    <tag k="source_ref" v="http://nlftp.mlit.go.jp/ksj/jpgis/datalist/KsjTmplt-P02-v2_0.html"/>
  </node>
  <node id="1200158974" version="1" timestamp="2011-03-13T13:43:57Z" uid="171838" user="argrath" changeset="7544917" lat="38.753137" lon="141.061905">
    <tag k="amenity" v="school"/>
    <tag k="name" v="市立志波姫小学校"/>
    <tag k="source" v="NRPB of MLIT Japan."/>
    <tag k="source:ja" v="国土数値情報（公共施設データ）平成18年　国土交通省"/>
    <tag k="source_ref" v="http://nlftp.mlit.go.jp/ksj/jpgis/datalist/KsjTmplt-P02-v2_0.html"/>
  </node>
  <node id="1200158976" version="1" timestamp="2011-03-13T13:43:58Z" uid="171838" user="argrath" changeset="7544917" lat="38.766289" lon="141.136654">
    <tag k="amenity" v="school"/>
    <tag k="name" v="市立若柳小学校"/>
    <tag k="source" v="NRPB of MLIT Japan."/>
    <tag k="source:ja" v="国土数値情報（公共施設データ）平成18年　国土交通省"/>
    <tag k="source_ref" v="http://nlftp.mlit.go.jp/ksj/jpgis/datalist/KsjTmplt-P02-v2_0.html"/>
  </node>
  <node id="1200158979" version="1" timestamp="2011-03-13T13:43:58Z" uid="171838" user="argrath" changeset="7544917" lat="38.653885" lon="141.060446">
    <tag k="amenity" v="school"/>
    <tag k="name" v="市立瀬峰小学校"/>
    <tag k="source" v="NRPB of MLIT Japan."/>
    <tag k="source:ja" v="国土数値情報（公共施設データ）平成18年　国土交通省"/>
    <tag k="source_ref" v="http://nlftp.mlit.go.jp/ksj/jpgis/datalist/KsjTmplt-P02-v2_0.html"/>
  </node>
  <node id="1200158981" version="1" timestamp="2011-03-13T13:43:58Z" uid="171838" user="argrath" changeset="7544917" lat="38.784819" lon="141.104478">
    <tag k="amenity" v="school"/>
    <tag k="name" v="市立大岡小学校"/>
    <tag k="source" v="NRPB of MLIT Japan."/>
    <tag k="source:ja" v="国土数値情報（公共施設データ）平成18年　国土交通省"/>
    <tag k="source_ref" v="http://nlftp.mlit.go.jp/ksj/jpgis/datalist/KsjTmplt-P02-v2_0.html"/>
  </node>
  <node id="1200158992" version="1" timestamp="2011-03-13T13:43:58Z" uid="171838" user="argrath" changeset="7544917" lat="38.744937" lon="141.145443">
    <tag k="amenity" v="school"/>
    <tag k="name" v="市立大目小学校"/>
    <tag k="source" v="NRPB of MLIT Japan."/>
    <tag k="source:ja" v="国土数値情報（公共施設データ）平成18年　国土交通省"/>
    <tag k="source_ref" v="http://nlftp.mlit.go.jp/ksj/jpgis/datalist/KsjTmplt-P02-v2_0.html"/>
  </node>
  <node id="1200158999" version="1" timestamp="2011-03-13T13:43:59Z" uid="171838" user="argrath" changeset="7544917" lat="38.796318" lon="141.053115">
    <tag k="amenity" v="school"/>
    <tag k="name" v="市立沢辺小学校"/>
    <tag k="source" v="NRPB of MLIT Japan."/>
    <tag k="source:ja" v="国土数値情報（公共施設データ）平成18年　国土交通省"/>
    <tag k="source_ref" v="http://nlftp.mlit.go.jp/ksj/jpgis/datalist/KsjTmplt-P02-v2_0.html"/>
  </node>
  <node id="1200159001" version="1" timestamp="2011-03-13T13:43:59Z" uid="171838" user="argrath" changeset="7544917" lat="38.731394" lon="141.020114">
    <tag k="amenity" v="school"/>
    <tag k="name" v="市立築館小学校"/>
    <tag k="source" v="NRPB of MLIT Japan."/>
    <tag k="source:ja" v="国土数値情報（公共施設データ）平成18年　国土交通省"/>
    <tag k="source_ref" v="http://nlftp.mlit.go.jp/ksj/jpgis/datalist/KsjTmplt-P02-v2_0.html"/>
  </node>
  <node id="1200159004" version="1" timestamp="2011-03-13T13:43:59Z" uid="171838" user="argrath" changeset="7544917" lat="38.74593" lon="140.904501">
    <tag k="amenity" v="school"/>
    <tag k="name" v="市立長崎小学校"/>
    <tag k="source" v="NRPB of MLIT Japan."/>
    <tag k="source:ja" v="国土数値情報（公共施設データ）平成18年　国土交通省"/>
    <tag k="source_ref" v="http://nlftp.mlit.go.jp/ksj/jpgis/datalist/KsjTmplt-P02-v2_0.html"/>
  </node>
  <node id="1200159010" version="1" timestamp="2011-03-13T13:43:59Z" uid="171838" user="argrath" changeset="7544917" lat="38.836676" lon="141.005316">
    <tag k="amenity" v="school"/>
    <tag k="name" v="市立鳥矢崎小学校"/>
    <tag k="source" v="NRPB of MLIT Japan."/>
    <tag k="source:ja" v="国土数値情報（公共施設データ）平成18年　国土交通省"/>
    <tag k="source_ref" v="http://nlftp.mlit.go.jp/ksj/jpgis/datalist/KsjTmplt-P02-v2_0.html"/>
  </node>
  <node id="1200159016" version="1" timestamp="2011-03-13T13:44:00Z" uid="171838" user="argrath" changeset="7544917" lat="38.814675" lon="141.042813">
    <tag k="amenity" v="school"/>
    <tag k="name" v="市立津久毛小学校"/>
    <tag k="source" v="NRPB of MLIT Japan."/>
    <tag k="source:ja" v="国土数値情報（公共施設データ）平成18年　国土交通省"/>
    <tag k="source_ref" v="http://nlftp.mlit.go.jp/ksj/jpgis/datalist/KsjTmplt-P02-v2_0.html"/>
  </node>
  <node id="1200159020" version="1" timestamp="2011-03-13T13:44:00Z" uid="171838" user="argrath" changeset="7544917" lat="38.869185" lon="141.124541">
    <tag k="amenity" v="school"/>
    <tag k="name" v="市立萩野小学校"/>
    <tag k="source" v="NRPB of MLIT Japan."/>
    <tag k="source:ja" v="国土数値情報（公共施設データ）平成18年　国土交通省"/>
    <tag k="source_ref" v="http://nlftp.mlit.go.jp/ksj/jpgis/datalist/KsjTmplt-P02-v2_0.html"/>
  </node>
  <node id="1200159025" version="1" timestamp="2011-03-13T13:44:00Z" uid="171838" user="argrath" changeset="7544917" lat="38.851434" lon="141.098226">
    <tag k="amenity" v="school"/>
    <tag k="name" v="市立萩野第二小学校"/>
    <tag k="source" v="NRPB of MLIT Japan."/>
    <tag k="source:ja" v="国土数値情報（公共施設データ）平成18年　国土交通省"/>
    <tag k="source_ref" v="http://nlftp.mlit.go.jp/ksj/jpgis/datalist/KsjTmplt-P02-v2_0.html"/>
  </node>
  <node id="1200159029" version="1" timestamp="2011-03-13T13:44:00Z" uid="171838" user="argrath" changeset="7544917" lat="38.736126" lon="141.10902">
    <tag k="amenity" v="school"/>
    <tag k="name" v="市立畑岡小学校"/>
    <tag k="source" v="NRPB of MLIT Japan."/>
    <tag k="source:ja" v="国土数値情報（公共施設データ）平成18年　国土交通省"/>
    <tag k="source_ref" v="http://nlftp.mlit.go.jp/ksj/jpgis/datalist/KsjTmplt-P02-v2_0.html"/>
  </node>
  <node id="1200159036" version="1" timestamp="2011-03-13T13:44:01Z" uid="171838" user="argrath" changeset="7544917" lat="38.812156" lon="140.989205">
    <tag k="amenity" v="school"/>
    <tag k="name" v="市立尾松小学校"/>
    <tag k="source" v="NRPB of MLIT Japan."/>
    <tag k="source:ja" v="国土数値情報（公共施設データ）平成18年　国土交通省"/>
    <tag k="source_ref" v="http://nlftp.mlit.go.jp/ksj/jpgis/datalist/KsjTmplt-P02-v2_0.html"/>
  </node>
  <node id="1200159047" version="1" timestamp="2011-03-13T13:44:01Z" uid="171838" user="argrath" changeset="7544917" lat="38.766762" lon="140.963526">
    <tag k="amenity" v="school"/>
    <tag k="name" v="市立姫松小学校"/>
    <tag k="source" v="NRPB of MLIT Japan."/>
    <tag k="source:ja" v="国土数値情報（公共施設データ）平成18年　国土交通省"/>
    <tag k="source_ref" v="http://nlftp.mlit.go.jp/ksj/jpgis/datalist/KsjTmplt-P02-v2_0.html"/>
  </node>
  <node id="1200159050" version="1" timestamp="2011-03-13T13:44:01Z" uid="171838" user="argrath" changeset="7544917" lat="38.77093" lon="141.03803">
    <tag k="amenity" v="school"/>
    <tag k="name" v="市立富野小学校"/>
    <tag k="source" v="NRPB of MLIT Japan."/>
    <tag k="source:ja" v="国土数値情報（公共施設データ）平成18年　国土交通省"/>
    <tag k="source_ref" v="http://nlftp.mlit.go.jp/ksj/jpgis/datalist/KsjTmplt-P02-v2_0.html"/>
  </node>
  <node id="1200159058" version="1" timestamp="2011-03-13T13:44:01Z" uid="171838" user="argrath" changeset="7544917" lat="38.84774" lon="140.908109">
    <tag k="amenity" v="school"/>
    <tag k="name" v="市立文字小学校"/>
    <tag k="source" v="NRPB of MLIT Japan."/>
    <tag k="source:ja" v="国土数値情報（公共施設データ）平成18年　国土交通省"/>
    <tag k="source_ref" v="http://nlftp.mlit.go.jp/ksj/jpgis/datalist/KsjTmplt-P02-v2_0.html"/>
  </node>
  <node id="1200159069" version="1" timestamp="2011-03-13T13:44:02Z" uid="171838" user="argrath" changeset="7544917" lat="38.783513" lon="140.981785">
    <tag k="amenity" v="school"/>
    <tag k="name" v="市立宝来小学校"/>
    <tag k="source" v="NRPB of MLIT Japan."/>
    <tag k="source:ja" v="国土数値情報（公共施設データ）平成18年　国土交通省"/>
    <tag k="source_ref" v="http://nlftp.mlit.go.jp/ksj/jpgis/datalist/KsjTmplt-P02-v2_0.html"/>
  </node>
  <node id="1200159071" version="1" timestamp="2011-03-13T13:44:02Z" uid="171838" user="argrath" changeset="7544917" lat="38.804826" lon="141.115511">
    <tag k="amenity" v="school"/>
    <tag k="name" v="市立有賀小学校"/>
    <tag k="source" v="NRPB of MLIT Japan."/>
    <tag k="source:ja" v="国土数値情報（公共施設データ）平成18年　国土交通省"/>
    <tag k="source_ref" v="http://nlftp.mlit.go.jp/ksj/jpgis/datalist/KsjTmplt-P02-v2_0.html"/>
  </node>
  <node id="1200159076" version="1" timestamp="2011-03-13T13:44:02Z" uid="171838" user="argrath" changeset="7544917" lat="38.811798" lon="140.946811">
    <tag k="amenity" v="school"/>
    <tag k="name" v="市立鶯沢小学校"/>
    <tag k="source" v="NRPB of MLIT Japan."/>
    <tag k="source:ja" v="国土数値情報（公共施設データ）平成18年　国土交通省"/>
    <tag k="source_ref" v="http://nlftp.mlit.go.jp/ksj/jpgis/datalist/KsjTmplt-P02-v2_0.html"/>
  </node>
  <node id="1200159084" version="1" timestamp="2011-03-13T13:44:02Z" uid="171838" user="argrath" changeset="7544917" lat="38.334362" lon="141.15598">
    <tag k="amenity" v="school"/>
    <tag k="name" v="市立宮戸小学校"/>
    <tag k="source" v="NRPB of MLIT Japan."/>
    <tag k="source:ja" v="国土数値情報（公共施設データ）平成18年　国土交通省"/>
    <tag k="source_ref" v="http://nlftp.mlit.go.jp/ksj/jpgis/datalist/KsjTmplt-P02-v2_0.html"/>
  </node>
  <node id="1200159170" version="1" timestamp="2011-03-13T13:44:05Z" uid="171838" user="argrath" changeset="7544920" lat="38.407963" lon="141.153754">
    <tag k="amenity" v="school"/>
    <tag k="name" v="市立小野小学校"/>
    <tag k="source" v="NRPB of MLIT Japan."/>
    <tag k="source:ja" v="国土数値情報（公共施設データ）平成18年　国土交通省"/>
    <tag k="source_ref" v="http://nlftp.mlit.go.jp/ksj/jpgis/datalist/KsjTmplt-P02-v2_0.html"/>
  </node>
  <node id="1200159175" version="1" timestamp="2011-03-13T13:44:06Z" uid="171838" user="argrath" changeset="7544920" lat="38.446571" lon="141.2268">
    <tag k="amenity" v="school"/>
    <tag k="name" v="市立赤井小学校"/>
    <tag k="source" v="NRPB of MLIT Japan."/>
    <tag k="source:ja" v="国土数値情報（公共施設データ）平成18年　国土交通省"/>
    <tag k="source_ref" v="http://nlftp.mlit.go.jp/ksj/jpgis/datalist/KsjTmplt-P02-v2_0.html"/>
  </node>
  <node id="1200159178" version="1" timestamp="2011-03-13T13:44:06Z" uid="171838" user="argrath" changeset="7544920" lat="38.433604" lon="141.242468">
    <tag k="amenity" v="school"/>
    <tag k="name" v="市立赤井南小学校"/>
    <tag k="source" v="NRPB of MLIT Japan."/>
    <tag k="source:ja" v="国土数値情報（公共施設データ）平成18年　国土交通省"/>
    <tag k="source_ref" v="http://nlftp.mlit.go.jp/ksj/jpgis/datalist/KsjTmplt-P02-v2_0.html"/>
  </node>
  <node id="1200159182" version="1" timestamp="2011-03-13T13:44:06Z" uid="171838" user="argrath" changeset="7544920" lat="38.441848" lon="141.177083">
    <tag k="amenity" v="school"/>
    <tag k="name" v="市立大塩小学校"/>
    <tag k="source" v="NRPB of MLIT Japan."/>
    <tag k="source:ja" v="国土数値情報（公共施設データ）平成18年　国土交通省"/>
    <tag k="source_ref" v="http://nlftp.mlit.go.jp/ksj/jpgis/datalist/KsjTmplt-P02-v2_0.html"/>
  </node>
  <node id="1200159194" version="1" timestamp="2011-03-13T13:44:06Z" uid="171838" user="argrath" changeset="7544920" lat="38.425462" lon="141.234855">
    <tag k="amenity" v="school"/>
    <tag k="name" v="市立大曲小学校"/>
    <tag k="source" v="NRPB of MLIT Japan."/>
    <tag k="source:ja" v="国土数値情報（公共施設データ）平成18年　国土交通省"/>
    <tag k="source_ref" v="http://nlftp.mlit.go.jp/ksj/jpgis/datalist/KsjTmplt-P02-v2_0.html"/>
  </node>
  <node id="1200159197" version="1" timestamp="2011-03-13T13:44:06Z" uid="171838" user="argrath" changeset="7544920" lat="38.390188" lon="141.17653">
    <tag k="amenity" v="school"/>
    <tag k="name" v="市立浜市小学校"/>
    <tag k="source" v="NRPB of MLIT Japan."/>
    <tag k="source:ja" v="国土数値情報（公共施設データ）平成18年　国土交通省"/>
    <tag k="source_ref" v="http://nlftp.mlit.go.jp/ksj/jpgis/datalist/KsjTmplt-P02-v2_0.html"/>
  </node>
  <node id="1200159200" version="1" timestamp="2011-03-13T13:44:06Z" uid="171838" user="argrath" changeset="7544920" lat="38.375581" lon="141.153223">
    <tag k="amenity" v="school"/>
    <tag k="name" v="市立野蒜小学校"/>
    <tag k="source" v="NRPB of MLIT Japan."/>
    <tag k="source:ja" v="国土数値情報（公共施設データ）平成18年　国土交通省"/>
    <tag k="source_ref" v="http://nlftp.mlit.go.jp/ksj/jpgis/datalist/KsjTmplt-P02-v2_0.html"/>
  </node>
  <node id="1200159222" version="1" timestamp="2011-03-13T13:44:07Z" uid="171838" user="argrath" changeset="7544920" lat="38.422406" lon="141.203192">
    <tag k="amenity" v="school"/>
    <tag k="name" v="市立矢本西小学校"/>
    <tag k="source" v="NRPB of MLIT Japan."/>
    <tag k="source:ja" v="国土数値情報（公共施設データ）平成18年　国土交通省"/>
    <tag k="source_ref" v="http://nlftp.mlit.go.jp/ksj/jpgis/datalist/KsjTmplt-P02-v2_0.html"/>
  </node>
  <node id="1200159223" version="1" timestamp="2011-03-13T13:44:07Z" uid="171838" user="argrath" changeset="7544920" lat="38.426017" lon="141.213191">
    <tag k="amenity" v="school"/>
    <tag k="name" v="市立矢本東小学校"/>
    <tag k="source" v="NRPB of MLIT Japan."/>
    <tag k="source:ja" v="国土数値情報（公共施設データ）平成18年　国土交通省"/>
    <tag k="source_ref" v="http://nlftp.mlit.go.jp/ksj/jpgis/datalist/KsjTmplt-P02-v2_0.html"/>
  </node>
  <node id="1200159225" version="1" timestamp="2011-03-13T13:44:07Z" uid="171838" user="argrath" changeset="7544920" lat="38.529811" lon="141.003915">
    <tag k="amenity" v="school"/>
    <tag k="name" v="市立下伊場野小学校"/>
    <tag k="source" v="NRPB of MLIT Japan."/>
    <tag k="source:ja" v="国土数値情報（公共施設データ）平成18年　国土交通省"/>
    <tag k="source_ref" v="http://nlftp.mlit.go.jp/ksj/jpgis/datalist/KsjTmplt-P02-v2_0.html"/>
  </node>
  <node id="1200159238" version="1" timestamp="2011-03-13T13:44:07Z" uid="171838" user="argrath" changeset="7544920" lat="38.653231" lon="140.86325">
    <tag k="amenity" v="school"/>
    <tag k="name" v="市立岩出山小学校"/>
    <tag k="source" v="NRPB of MLIT Japan."/>
    <tag k="source:ja" v="国土数値情報（公共施設データ）平成18年　国土交通省"/>
    <tag k="source_ref" v="http://nlftp.mlit.go.jp/ksj/jpgis/datalist/KsjTmplt-P02-v2_0.html"/>
  </node>
  <node id="1200159243" version="1" timestamp="2011-03-13T13:44:07Z" uid="171838" user="argrath" changeset="7544920" lat="38.65232" lon="140.893862">
    <tag k="amenity" v="school"/>
    <tag k="name" v="市立岩出山小学校川北分校"/>
    <tag k="source" v="NRPB of MLIT Japan."/>
    <tag k="source:ja" v="国土数値情報（公共施設データ）平成18年　国土交通省"/>
    <tag k="source_ref" v="http://nlftp.mlit.go.jp/ksj/jpgis/datalist/KsjTmplt-P02-v2_0.html"/>
  </node>
  <node id="1200159249" version="1" timestamp="2011-03-13T13:44:08Z" uid="171838" user="argrath" changeset="7544920" lat="38.800429" lon="140.650569">
    <tag k="amenity" v="school"/>
    <tag k="name" v="市立鬼首小学校"/>
    <tag k="source" v="NRPB of MLIT Japan."/>
    <tag k="source:ja" v="国土数値情報（公共施設データ）平成18年　国土交通省"/>
    <tag k="source_ref" v="http://nlftp.mlit.go.jp/ksj/jpgis/datalist/KsjTmplt-P02-v2_0.html"/>
  </node>
  <node id="1200159259" version="1" timestamp="2011-03-13T13:44:08Z" uid="171838" user="argrath" changeset="7544920" lat="38.616822" lon="140.941419">
    <tag k="amenity" v="school"/>
    <tag k="name" v="市立宮沢小学校"/>
    <tag k="source" v="NRPB of MLIT Japan."/>
    <tag k="source:ja" v="国土数値情報（公共施設データ）平成18年　国土交通省"/>
    <tag k="source_ref" v="http://nlftp.mlit.go.jp/ksj/jpgis/datalist/KsjTmplt-P02-v2_0.html"/>
  </node>
  <node id="1200159261" version="1" timestamp="2011-03-13T13:44:08Z" uid="171838" user="argrath" changeset="7544920" lat="38.577676" lon="140.953529">
    <tag k="amenity" v="school"/>
    <tag k="name" v="市立古川第一小学校"/>
    <tag k="source" v="NRPB of MLIT Japan."/>
    <tag k="source:ja" v="国土数値情報（公共施設データ）平成18年　国土交通省"/>
    <tag k="source_ref" v="http://nlftp.mlit.go.jp/ksj/jpgis/datalist/KsjTmplt-P02-v2_0.html"/>
  </node>
  <node id="1200159262" version="1" timestamp="2011-03-13T13:44:08Z" uid="171838" user="argrath" changeset="7544920" lat="38.564093" lon="140.94523">
    <tag k="amenity" v="school"/>
    <tag k="name" v="市立古川第五小学校"/>
    <tag k="source" v="NRPB of MLIT Japan."/>
    <tag k="source:ja" v="国土数値情報（公共施設データ）平成18年　国土交通省"/>
    <tag k="source_ref" v="http://nlftp.mlit.go.jp/ksj/jpgis/datalist/KsjTmplt-P02-v2_0.html"/>
  </node>
  <node id="1200159273" version="1" timestamp="2011-03-13T13:44:08Z" uid="171838" user="argrath" changeset="7544920" lat="38.559971" lon="140.95934">
    <tag k="amenity" v="school"/>
    <tag k="name" v="市立古川第三小学校"/>
    <tag k="source" v="NRPB of MLIT Japan."/>
    <tag k="source:ja" v="国土数値情報（公共施設データ）平成18年　国土交通省"/>
    <tag k="source_ref" v="http://nlftp.mlit.go.jp/ksj/jpgis/datalist/KsjTmplt-P02-v2_0.html"/>
  </node>
  <node id="1200159279" version="1" timestamp="2011-03-13T13:44:08Z" uid="171838" user="argrath" changeset="7544920" lat="38.588179" lon="140.955677">
    <tag k="amenity" v="school"/>
    <tag k="name" v="市立古川第四小学校"/>
    <tag k="source" v="NRPB of MLIT Japan."/>
    <tag k="source:ja" v="国土数値情報（公共施設データ）平成18年　国土交通省"/>
    <tag k="source_ref" v="http://nlftp.mlit.go.jp/ksj/jpgis/datalist/KsjTmplt-P02-v2_0.html"/>
  </node>
  <node id="1200159285" version="1" timestamp="2011-03-13T13:44:09Z" uid="171838" user="argrath" changeset="7544920" lat="38.576419" lon="140.976085">
    <tag k="amenity" v="school"/>
    <tag k="name" v="市立古川第二小学校"/>
    <tag k="source" v="NRPB of MLIT Japan."/>
    <tag k="source:ja" v="国土数値情報（公共施設データ）平成18年　国土交通省"/>
    <tag k="source_ref" v="http://nlftp.mlit.go.jp/ksj/jpgis/datalist/KsjTmplt-P02-v2_0.html"/>
  </node>
  <node id="1200159300" version="1" timestamp="2011-03-13T13:44:09Z" uid="171838" user="argrath" changeset="7544920" lat="38.538357" lon="140.91496">
    <tag k="amenity" v="school"/>
    <tag k="name" v="市立高倉小学校"/>
    <tag k="source" v="NRPB of MLIT Japan."/>
    <tag k="source:ja" v="国土数値情報（公共施設データ）平成18年　国土交通省"/>
    <tag k="source_ref" v="http://nlftp.mlit.go.jp/ksj/jpgis/datalist/KsjTmplt-P02-v2_0.html"/>
  </node>
  <node id="1200159303" version="1" timestamp="2011-03-13T13:44:09Z" uid="171838" user="argrath" changeset="7544920" lat="38.524055" lon="140.943494">
    <tag k="amenity" v="school"/>
    <tag k="name" v="市立三本木小学校"/>
    <tag k="source" v="NRPB of MLIT Japan."/>
    <tag k="source:ja" v="国土数値情報（公共施設データ）平成18年　国土交通省"/>
    <tag k="source_ref" v="http://nlftp.mlit.go.jp/ksj/jpgis/datalist/KsjTmplt-P02-v2_0.html"/>
  </node>
  <node id="1200159319" version="1" timestamp="2011-03-13T13:44:09Z" uid="171838" user="argrath" changeset="7544920" lat="38.570775" lon="140.914763">
    <tag k="amenity" v="school"/>
    <tag k="name" v="市立志田小学校"/>
    <tag k="source" v="NRPB of MLIT Japan."/>
    <tag k="source:ja" v="国土数値情報（公共施設データ）平成18年　国土交通省"/>
    <tag k="source_ref" v="http://nlftp.mlit.go.jp/ksj/jpgis/datalist/KsjTmplt-P02-v2_0.html"/>
  </node>
  <node id="1200159321" version="1" timestamp="2011-03-13T13:44:09Z" uid="171838" user="argrath" changeset="7544920" lat="38.478906" lon="141.096681">
    <tag k="amenity" v="school"/>
    <tag k="name" v="市立鹿島台小学校"/>
    <tag k="source" v="NRPB of MLIT Japan."/>
    <tag k="source:ja" v="国土数値情報（公共施設データ）平成18年　国土交通省"/>
    <tag k="source_ref" v="http://nlftp.mlit.go.jp/ksj/jpgis/datalist/KsjTmplt-P02-v2_0.html"/>
  </node>
  <node id="1200159323" version="1" timestamp="2011-03-13T13:44:10Z" uid="171838" user="argrath" changeset="7544920" lat="38.461416" lon="141.042879">
    <tag k="amenity" v="school"/>
    <tag k="name" v="市立鹿島台第二小学校"/>
    <tag k="source" v="NRPB of MLIT Japan."/>
    <tag k="source:ja" v="国土数値情報（公共施設データ）平成18年　国土交通省"/>
    <tag k="source_ref" v="http://nlftp.mlit.go.jp/ksj/jpgis/datalist/KsjTmplt-P02-v2_0.html"/>
  </node>
  <node id="1200159341" version="1" timestamp="2011-03-13T13:44:10Z" uid="171838" user="argrath" changeset="7544920" lat="38.515447" lon="141.058304">
    <tag k="amenity" v="school"/>
    <tag k="name" v="市立松山小学校"/>
    <tag k="source" v="NRPB of MLIT Japan."/>
    <tag k="source:ja" v="国土数値情報（公共施設データ）平成18年　国土交通省"/>
    <tag k="source_ref" v="http://nlftp.mlit.go.jp/ksj/jpgis/datalist/KsjTmplt-P02-v2_0.html"/>
  </node>
  <node id="1200159343" version="1" timestamp="2011-03-13T13:44:10Z" uid="171838" user="argrath" changeset="7544920" lat="38.599942" lon="141.055273">
    <tag k="amenity" v="school"/>
    <tag k="name" v="市立沼部小学校"/>
    <tag k="source" v="NRPB of MLIT Japan."/>
    <tag k="source:ja" v="国土数値情報（公共施設データ）平成18年　国土交通省"/>
    <tag k="source_ref" v="http://nlftp.mlit.go.jp/ksj/jpgis/datalist/KsjTmplt-P02-v2_0.html"/>
  </node>
  <node id="1200159346" version="1" timestamp="2011-03-13T13:44:10Z" uid="171838" user="argrath" changeset="7544920" lat="38.683262" lon="140.865885">
    <tag k="amenity" v="school"/>
    <tag k="name" v="市立上野目小学校"/>
    <tag k="source" v="NRPB of MLIT Japan."/>
    <tag k="source:ja" v="国土数値情報（公共施設データ）平成18年　国土交通省"/>
    <tag k="source_ref" v="http://nlftp.mlit.go.jp/ksj/jpgis/datalist/KsjTmplt-P02-v2_0.html"/>
  </node>
  <node id="1200159362" version="1" timestamp="2011-03-13T13:44:11Z" uid="171838" user="argrath" changeset="7544920" lat="38.693202" lon="140.932382">
    <tag k="amenity" v="school"/>
    <tag k="name" v="市立真山小学校"/>
    <tag k="source" v="NRPB of MLIT Japan."/>
    <tag k="source:ja" v="国土数値情報（公共施設データ）平成18年　国土交通省"/>
    <tag k="source_ref" v="http://nlftp.mlit.go.jp/ksj/jpgis/datalist/KsjTmplt-P02-v2_0.html"/>
  </node>
  <node id="1200159369" version="1" timestamp="2011-03-13T13:44:11Z" uid="171838" user="argrath" changeset="7544920" lat="38.659222" lon="140.966268">
    <tag k="amenity" v="school"/>
    <tag k="name" v="市立清滝小学校"/>
    <tag k="source" v="NRPB of MLIT Japan."/>
    <tag k="source:ja" v="国土数値情報（公共施設データ）平成18年　国土交通省"/>
    <tag k="source_ref" v="http://nlftp.mlit.go.jp/ksj/jpgis/datalist/KsjTmplt-P02-v2_0.html"/>
  </node>
  <node id="1200159380" version="1" timestamp="2011-03-13T13:44:11Z" uid="171838" user="argrath" changeset="7544920" lat="38.582232" lon="140.895673">
    <tag k="amenity" v="school"/>
    <tag k="name" v="市立西古川小学校"/>
    <tag k="source" v="NRPB of MLIT Japan."/>
    <tag k="source:ja" v="国土数値情報（公共施設データ）平成18年　国土交通省"/>
    <tag k="source_ref" v="http://nlftp.mlit.go.jp/ksj/jpgis/datalist/KsjTmplt-P02-v2_0.html"/>
  </node>
  <node id="1200159395" version="1" timestamp="2011-03-13T13:44:11Z" uid="171838" user="argrath" changeset="7544920" lat="38.623026" lon="140.885124">
    <tag k="amenity" v="school"/>
    <tag k="name" v="市立西大崎小学校"/>
    <tag k="source" v="NRPB of MLIT Japan."/>
    <tag k="source:ja" v="国土数値情報（公共施設データ）平成18年　国土交通省"/>
    <tag k="source_ref" v="http://nlftp.mlit.go.jp/ksj/jpgis/datalist/KsjTmplt-P02-v2_0.html"/>
  </node>
  <node id="1200159398" version="1" timestamp="2011-03-13T13:44:12Z" uid="171838" user="argrath" changeset="7544920" lat="38.731821" lon="140.7635">
    <tag k="amenity" v="school"/>
    <tag k="name" v="市立川渡小学校"/>
    <tag k="source" v="NRPB of MLIT Japan."/>
    <tag k="source:ja" v="国土数値情報（公共施設データ）平成18年　国土交通省"/>
    <tag k="source_ref" v="http://nlftp.mlit.go.jp/ksj/jpgis/datalist/KsjTmplt-P02-v2_0.html"/>
  </node>
  <node id="1200159402" version="1" timestamp="2011-03-13T13:44:12Z" uid="171838" user="argrath" changeset="7544920" lat="38.608927" lon="141.107756">
    <tag k="amenity" v="school"/>
    <tag k="name" v="市立大貫小学校"/>
    <tag k="source" v="NRPB of MLIT Japan."/>
    <tag k="source:ja" v="国土数値情報（公共施設データ）平成18年　国土交通省"/>
    <tag k="source_ref" v="http://nlftp.mlit.go.jp/ksj/jpgis/datalist/KsjTmplt-P02-v2_0.html"/>
  </node>
  <node id="1200159426" version="1" timestamp="2011-03-13T13:44:12Z" uid="171838" user="argrath" changeset="7544920" lat="38.71134" lon="140.834881">
    <tag k="amenity" v="school"/>
    <tag k="name" v="市立池月小学校"/>
    <tag k="source" v="NRPB of MLIT Japan."/>
    <tag k="source:ja" v="国土数値情報（公共施設データ）平成18年　国土交通省"/>
    <tag k="source_ref" v="http://nlftp.mlit.go.jp/ksj/jpgis/datalist/KsjTmplt-P02-v2_0.html"/>
  </node>
  <node id="1200159432" version="1" timestamp="2011-03-13T13:44:12Z" uid="171838" user="argrath" changeset="7544920" lat="38.726437" lon="140.662924">
    <tag k="amenity" v="school"/>
    <tag k="name" v="市立中山小学校"/>
    <tag k="source" v="NRPB of MLIT Japan."/>
    <tag k="source:ja" v="国土数値情報（公共施設データ）平成18年　国土交通省"/>
    <tag k="source_ref" v="http://nlftp.mlit.go.jp/ksj/jpgis/datalist/KsjTmplt-P02-v2_0.html"/>
  </node>
  <node id="1200159435" version="1" timestamp="2011-03-13T13:44:12Z" uid="171838" user="argrath" changeset="7544920" lat="38.615998" lon="140.975595">
    <tag k="amenity" v="school"/>
    <tag k="name" v="市立長岡小学校"/>
    <tag k="source" v="NRPB of MLIT Japan."/>
    <tag k="source:ja" v="国土数値情報（公共施設データ）平成18年　国土交通省"/>
    <tag k="source_ref" v="http://nlftp.mlit.go.jp/ksj/jpgis/datalist/KsjTmplt-P02-v2_0.html"/>
  </node>
  <node id="1200159458" version="1" timestamp="2011-03-13T13:44:13Z" uid="171838" user="argrath" changeset="7544920" lat="38.604672" lon="141.020707">
    <tag k="amenity" v="school"/>
    <tag k="name" v="市立田尻小学校"/>
    <tag k="source" v="NRPB of MLIT Japan."/>
    <tag k="source:ja" v="国土数値情報（公共施設データ）平成18年　国土交通省"/>
    <tag k="source_ref" v="http://nlftp.mlit.go.jp/ksj/jpgis/datalist/KsjTmplt-P02-v2_0.html"/>
  </node>
  <node id="1200159465" version="1" timestamp="2011-03-13T13:44:13Z" uid="171838" user="argrath" changeset="7544920" lat="38.603063" lon="140.911978">
    <tag k="amenity" v="school"/>
    <tag k="name" v="市立東大崎小学校"/>
    <tag k="source" v="NRPB of MLIT Japan."/>
    <tag k="source:ja" v="国土数値情報（公共施設データ）平成18年　国土交通省"/>
    <tag k="source_ref" v="http://nlftp.mlit.go.jp/ksj/jpgis/datalist/KsjTmplt-P02-v2_0.html"/>
  </node>
  <node id="1200159469" version="1" timestamp="2011-03-13T13:44:13Z" uid="171838" user="argrath" changeset="7544920" lat="38.593908" lon="140.985898">
    <tag k="amenity" v="school"/>
    <tag k="name" v="市立富永小学校"/>
    <tag k="source" v="NRPB of MLIT Japan."/>
    <tag k="source:ja" v="国土数値情報（公共施設データ）平成18年　国土交通省"/>
    <tag k="source_ref" v="http://nlftp.mlit.go.jp/ksj/jpgis/datalist/KsjTmplt-P02-v2_0.html"/>
  </node>
  <node id="1200159489" version="1" timestamp="2011-03-13T13:44:13Z" uid="171838" user="argrath" changeset="7544920" lat="38.54448" lon="140.991416">
    <tag k="amenity" v="school"/>
    <tag k="name" v="市立敷玉小学校"/>
    <tag k="source" v="NRPB of MLIT Japan."/>
    <tag k="source:ja" v="国土数値情報（公共施設データ）平成18年　国土交通省"/>
    <tag k="source_ref" v="http://nlftp.mlit.go.jp/ksj/jpgis/datalist/KsjTmplt-P02-v2_0.html"/>
  </node>
  <node id="1200159494" version="1" timestamp="2011-03-13T13:44:13Z" uid="171838" user="argrath" changeset="7544920" lat="38.74115" lon="140.715506">
    <tag k="amenity" v="school"/>
    <tag k="name" v="市立鳴子小学校"/>
    <tag k="source" v="NRPB of MLIT Japan."/>
    <tag k="source:ja" v="国土数値情報（公共施設データ）平成18年　国土交通省"/>
    <tag k="source_ref" v="http://nlftp.mlit.go.jp/ksj/jpgis/datalist/KsjTmplt-P02-v2_0.html"/>
  </node>
  <node id="1200159498" version="1" timestamp="2011-03-13T13:44:14Z" uid="171838" user="argrath" changeset="7544920" lat="38.096314" lon="140.661593">
    <tag k="amenity" v="school"/>
    <tag k="name" v="町立永野小学校"/>
    <tag k="source" v="NRPB of MLIT Japan."/>
    <tag k="source:ja" v="国土数値情報（公共施設データ）平成18年　国土交通省"/>
    <tag k="source_ref" v="http://nlftp.mlit.go.jp/ksj/jpgis/datalist/KsjTmplt-P02-v2_0.html"/>
  </node>
  <node id="1200159511" version="1" timestamp="2011-03-13T13:44:14Z" uid="171838" user="argrath" changeset="7544920" lat="38.104369" lon="140.677702">
    <tag k="amenity" v="school"/>
    <tag k="name" v="町立円田小学校"/>
    <tag k="source" v="NRPB of MLIT Japan."/>
    <tag k="source:ja" v="国土数値情報（公共施設データ）平成18年　国土交通省"/>
    <tag k="source_ref" v="http://nlftp.mlit.go.jp/ksj/jpgis/datalist/KsjTmplt-P02-v2_0.html"/>
  </node>
  <node id="1200159514" version="1" timestamp="2011-03-13T13:44:14Z" uid="171838" user="argrath" changeset="7544920" lat="38.123531" lon="140.580488">
    <tag k="amenity" v="school"/>
    <tag k="name" v="町立遠刈田小学校"/>
    <tag k="source" v="NRPB of MLIT Japan."/>
    <tag k="source:ja" v="国土数値情報（公共施設データ）平成18年　国土交通省"/>
    <tag k="source_ref" v="http://nlftp.mlit.go.jp/ksj/jpgis/datalist/KsjTmplt-P02-v2_0.html"/>
  </node>
  <node id="1200159517" version="1" timestamp="2011-03-13T13:44:14Z" uid="171838" user="argrath" changeset="7544920" lat="38.044095" lon="140.650486">
    <tag k="amenity" v="school"/>
    <tag k="name" v="町立宮小学校"/>
    <tag k="source" v="NRPB of MLIT Japan."/>
    <tag k="source:ja" v="国土数値情報（公共施設データ）平成18年　国土交通省"/>
    <tag k="source_ref" v="http://nlftp.mlit.go.jp/ksj/jpgis/datalist/KsjTmplt-P02-v2_0.html"/>
  </node>
  <node id="1200159543" version="1" timestamp="2011-03-13T13:44:15Z" uid="171838" user="argrath" changeset="7544920" lat="38.123812" lon="140.681034">
    <tag k="amenity" v="school"/>
    <tag k="name" v="町立平沢小学校"/>
    <tag k="source" v="NRPB of MLIT Japan."/>
    <tag k="source:ja" v="国土数値情報（公共施設データ）平成18年　国土交通省"/>
    <tag k="source_ref" v="http://nlftp.mlit.go.jp/ksj/jpgis/datalist/KsjTmplt-P02-v2_0.html"/>
  </node>
  <node id="1200159544" version="1" timestamp="2011-03-13T13:44:15Z" uid="171838" user="argrath" changeset="7544920" lat="37.991041" lon="140.44134">
    <tag k="amenity" v="school"/>
    <tag k="name" v="町立関小学校"/>
    <tag k="source" v="NRPB of MLIT Japan."/>
    <tag k="source:ja" v="国土数値情報（公共施設データ）平成18年　国土交通省"/>
    <tag k="source_ref" v="http://nlftp.mlit.go.jp/ksj/jpgis/datalist/KsjTmplt-P02-v2_0.html"/>
  </node>
  <node id="1200159547" version="1" timestamp="2011-03-13T13:44:15Z" uid="171838" user="argrath" changeset="7544920" lat="38.01409" lon="140.320792">
    <tag k="amenity" v="school"/>
    <tag k="name" v="町立湯原小学校"/>
    <tag k="source" v="NRPB of MLIT Japan."/>
    <tag k="source:ja" v="国土数値情報（公共施設データ）平成18年　国土交通省"/>
    <tag k="source_ref" v="http://nlftp.mlit.go.jp/ksj/jpgis/datalist/KsjTmplt-P02-v2_0.html"/>
  </node>
  <node id="1200159571" version="1" timestamp="2011-03-13T13:44:15Z" uid="171838" user="argrath" changeset="7544920" lat="38.042708" lon="140.703537">
    <tag k="amenity" v="school"/>
    <tag k="name" v="町立金ケ瀬小学校"/>
    <tag k="source" v="NRPB of MLIT Japan."/>
    <tag k="source:ja" v="国土数値情報（公共施設データ）平成18年　国土交通省"/>
    <tag k="source_ref" v="http://nlftp.mlit.go.jp/ksj/jpgis/datalist/KsjTmplt-P02-v2_0.html"/>
  </node>
  <node id="1200159574" version="1" timestamp="2011-03-13T13:44:15Z" uid="171838" user="argrath" changeset="7544920" lat="38.054375" lon="140.736034">
    <tag k="amenity" v="school"/>
    <tag k="name" v="町立大河原小学校"/>
    <tag k="source" v="NRPB of MLIT Japan."/>
    <tag k="source:ja" v="国土数値情報（公共施設データ）平成18年　国土交通省"/>
    <tag k="source_ref" v="http://nlftp.mlit.go.jp/ksj/jpgis/datalist/KsjTmplt-P02-v2_0.html"/>
  </node>
  <node id="1200159577" version="1" timestamp="2011-03-13T13:44:15Z" uid="171838" user="argrath" changeset="7544920" lat="38.0341" lon="140.738257">
    <tag k="amenity" v="school"/>
    <tag k="name" v="町立大河原南小学校"/>
    <tag k="source" v="NRPB of MLIT Japan."/>
    <tag k="source:ja" v="国土数値情報（公共施設データ）平成18年　国土交通省"/>
    <tag k="source_ref" v="http://nlftp.mlit.go.jp/ksj/jpgis/datalist/KsjTmplt-P02-v2_0.html"/>
  </node>
  <node id="1200159588" version="1" timestamp="2011-03-13T13:44:16Z" uid="171838" user="argrath" changeset="7544920" lat="38.118259" lon="140.72242">
    <tag k="amenity" v="school"/>
    <tag k="name" v="町立村田第一小学校"/>
    <tag k="source" v="NRPB of MLIT Japan."/>
    <tag k="source:ja" v="国土数値情報（公共施設データ）平成18年　国土交通省"/>
    <tag k="source_ref" v="http://nlftp.mlit.go.jp/ksj/jpgis/datalist/KsjTmplt-P02-v2_0.html"/>
  </node>
  <node id="1200159593" version="1" timestamp="2011-03-13T13:44:16Z" uid="171838" user="argrath" changeset="7544920" lat="38.140479" lon="140.7127">
    <tag k="amenity" v="school"/>
    <tag k="name" v="町立村田第五小学校"/>
    <tag k="source" v="NRPB of MLIT Japan."/>
    <tag k="source:ja" v="国土数値情報（公共施設データ）平成18年　国土交通省"/>
    <tag k="source_ref" v="http://nlftp.mlit.go.jp/ksj/jpgis/datalist/KsjTmplt-P02-v2_0.html"/>
  </node>
  <node id="1200159595" version="1" timestamp="2011-03-13T13:44:16Z" uid="171838" user="argrath" changeset="7544920" lat="38.104371" lon="140.730198">
    <tag k="amenity" v="school"/>
    <tag k="name" v="町立村田第三小学校"/>
    <tag k="source" v="NRPB of MLIT Japan."/>
    <tag k="source:ja" v="国土数値情報（公共施設データ）平成18年　国土交通省"/>
    <tag k="source_ref" v="http://nlftp.mlit.go.jp/ksj/jpgis/datalist/KsjTmplt-P02-v2_0.html"/>
  </node>
  <node id="1200159619" version="1" timestamp="2011-03-13T13:44:16Z" uid="171838" user="argrath" changeset="7544920" lat="38.169367" lon="140.760471">
    <tag k="amenity" v="school"/>
    <tag k="name" v="町立村田第四小学校"/>
    <tag k="source" v="NRPB of MLIT Japan."/>
    <tag k="source:ja" v="国土数値情報（公共施設データ）平成18年　国土交通省"/>
    <tag k="source_ref" v="http://nlftp.mlit.go.jp/ksj/jpgis/datalist/KsjTmplt-P02-v2_0.html"/>
  </node>
  <node id="1200159627" version="1" timestamp="2011-03-13T13:44:17Z" uid="171838" user="argrath" changeset="7544920" lat="38.079503" lon="140.733454">
    <tag k="amenity" v="school"/>
    <tag k="name" v="町立村田第二小学校"/>
    <tag k="source" v="NRPB of MLIT Japan."/>
    <tag k="source:ja" v="国土数値情報（公共施設データ）平成18年　国土交通省"/>
    <tag k="source_ref" v="http://nlftp.mlit.go.jp/ksj/jpgis/datalist/KsjTmplt-P02-v2_0.html"/>
  </node>
  <node id="1200159630" version="1" timestamp="2011-03-13T13:44:17Z" uid="171838" user="argrath" changeset="7544920" lat="38.095485" lon="140.787138">
    <tag k="amenity" v="school"/>
    <tag k="name" v="町立柴田小学校"/>
    <tag k="source" v="NRPB of MLIT Japan."/>
    <tag k="source:ja" v="国土数値情報（公共施設データ）平成18年　国土交通省"/>
    <tag k="source_ref" v="http://nlftp.mlit.go.jp/ksj/jpgis/datalist/KsjTmplt-P02-v2_0.html"/>
  </node>
  <node id="1200159651" version="1" timestamp="2011-03-13T13:44:17Z" uid="171838" user="argrath" changeset="7544920" lat="38.044655" lon="140.752699">
    <tag k="amenity" v="school"/>
    <tag k="name" v="町立西住小学校"/>
    <tag k="source" v="NRPB of MLIT Japan."/>
    <tag k="source:ja" v="国土数値情報（公共施設データ）平成18年　国土交通省"/>
    <tag k="source_ref" v="http://nlftp.mlit.go.jp/ksj/jpgis/datalist/KsjTmplt-P02-v2_0.html"/>
  </node>
  <node id="1200159658" version="1" timestamp="2011-03-13T13:44:17Z" uid="171838" user="argrath" changeset="7544920" lat="38.059655" lon="140.774086">
    <tag k="amenity" v="school"/>
    <tag k="name" v="町立船岡小学校"/>
    <tag k="source" v="NRPB of MLIT Japan."/>
    <tag k="source:ja" v="国土数値情報（公共施設データ）平成18年　国土交通省"/>
    <tag k="source_ref" v="http://nlftp.mlit.go.jp/ksj/jpgis/datalist/KsjTmplt-P02-v2_0.html"/>
  </node>
  <node id="1200159661" version="1" timestamp="2011-03-13T13:44:18Z" uid="171838" user="argrath" changeset="7544920" lat="38.068542" lon="140.762975">
    <tag k="amenity" v="school"/>
    <tag k="name" v="町立船迫小学校"/>
    <tag k="source" v="NRPB of MLIT Japan."/>
    <tag k="source:ja" v="国土数値情報（公共施設データ）平成18年　国土交通省"/>
    <tag k="source_ref" v="http://nlftp.mlit.go.jp/ksj/jpgis/datalist/KsjTmplt-P02-v2_0.html"/>
  </node>
  <node id="1200159687" version="1" timestamp="2011-03-13T13:44:18Z" uid="171838" user="argrath" changeset="7544920" lat="38.083542" lon="140.810193">
    <tag k="amenity" v="school"/>
    <tag k="name" v="町立槻木小学校"/>
    <tag k="source" v="NRPB of MLIT Japan."/>
    <tag k="source:ja" v="国土数値情報（公共施設データ）平成18年　国土交通省"/>
    <tag k="source_ref" v="http://nlftp.mlit.go.jp/ksj/jpgis/datalist/KsjTmplt-P02-v2_0.html"/>
  </node>
  <node id="1200159693" version="1" timestamp="2011-03-13T13:44:18Z" uid="171838" user="argrath" changeset="7544920" lat="38.055211" lon="140.791585">
    <tag k="amenity" v="school"/>
    <tag k="name" v="町立東船岡小学校"/>
    <tag k="source" v="NRPB of MLIT Japan."/>
    <tag k="source:ja" v="国土数値情報（公共施設データ）平成18年　国土交通省"/>
    <tag k="source_ref" v="http://nlftp.mlit.go.jp/ksj/jpgis/datalist/KsjTmplt-P02-v2_0.html"/>
  </node>
  <node id="1200159695" version="1" timestamp="2011-03-13T13:44:18Z" uid="171838" user="argrath" changeset="7544920" lat="38.19964" lon="140.723807">
    <tag k="amenity" v="school"/>
    <tag k="name" v="町立碁石小学校"/>
    <tag k="source" v="NRPB of MLIT Japan."/>
    <tag k="source:ja" v="国土数値情報（公共施設データ）平成18年　国土交通省"/>
    <tag k="source_ref" v="http://nlftp.mlit.go.jp/ksj/jpgis/datalist/KsjTmplt-P02-v2_0.html"/>
  </node>
  <node id="1200159732" version="1" timestamp="2011-03-13T13:44:19Z" uid="171838" user="argrath" changeset="7544920" lat="38.171865" lon="140.716308">
    <tag k="amenity" v="school"/>
    <tag k="name" v="町立支倉小学校"/>
    <tag k="source" v="NRPB of MLIT Japan."/>
    <tag k="source:ja" v="国土数値情報（公共施設データ）平成18年　国土交通省"/>
    <tag k="source_ref" v="http://nlftp.mlit.go.jp/ksj/jpgis/datalist/KsjTmplt-P02-v2_0.html"/>
  </node>
  <node id="1200159739" version="1" timestamp="2011-03-13T13:44:19Z" uid="171838" user="argrath" changeset="7544920" lat="38.179639" lon="140.646591">
    <tag k="amenity" v="school"/>
    <tag k="name" v="町立川崎小学校"/>
    <tag k="source" v="NRPB of MLIT Japan."/>
    <tag k="source:ja" v="国土数値情報（公共施設データ）平成18年　国土交通省"/>
    <tag k="source_ref" v="http://nlftp.mlit.go.jp/ksj/jpgis/datalist/KsjTmplt-P02-v2_0.html"/>
  </node>
  <node id="1200159764" version="1" timestamp="2011-03-13T13:44:19Z" uid="171838" user="argrath" changeset="7544920" lat="38.193802" lon="140.601316">
    <tag k="amenity" v="school"/>
    <tag k="name" v="町立川崎第二小学校"/>
    <tag k="source" v="NRPB of MLIT Japan."/>
    <tag k="source:ja" v="国土数値情報（公共施設データ）平成18年　国土交通省"/>
    <tag k="source_ref" v="http://nlftp.mlit.go.jp/ksj/jpgis/datalist/KsjTmplt-P02-v2_0.html"/>
  </node>
  <node id="1200159768" version="1" timestamp="2011-03-13T13:44:20Z" uid="171838" user="argrath" changeset="7544920" lat="38.206303" lon="140.643534">
    <tag k="amenity" v="school"/>
    <tag k="name" v="町立川内小学校"/>
    <tag k="source" v="NRPB of MLIT Japan."/>
    <tag k="source:ja" v="国土数値情報（公共施設データ）平成18年　国土交通省"/>
    <tag k="source_ref" v="http://nlftp.mlit.go.jp/ksj/jpgis/datalist/KsjTmplt-P02-v2_0.html"/>
  </node>
  <node id="1200159770" version="1" timestamp="2011-03-13T13:44:20Z" uid="171838" user="argrath" changeset="7544920" lat="38.165473" lon="140.619649">
    <tag k="amenity" v="school"/>
    <tag k="name" v="町立前川小学校"/>
    <tag k="source" v="NRPB of MLIT Japan."/>
    <tag k="source:ja" v="国土数値情報（公共施設データ）平成18年　国土交通省"/>
    <tag k="source_ref" v="http://nlftp.mlit.go.jp/ksj/jpgis/datalist/KsjTmplt-P02-v2_0.html"/>
  </node>
  <node id="1200159797" version="1" timestamp="2011-03-13T13:44:20Z" uid="171838" user="argrath" changeset="7544920" lat="38.149082" lon="140.535213">
    <tag k="amenity" v="school"/>
    <tag k="name" v="町立前川小学校青根分校"/>
    <tag k="source" v="NRPB of MLIT Japan."/>
    <tag k="source:ja" v="国土数値情報（公共施設データ）平成18年　国土交通省"/>
    <tag k="source_ref" v="http://nlftp.mlit.go.jp/ksj/jpgis/datalist/KsjTmplt-P02-v2_0.html"/>
  </node>
  <node id="1200159803" version="1" timestamp="2011-03-13T13:44:20Z" uid="171838" user="argrath" changeset="7544920" lat="38.241507" lon="140.637018">
    <tag k="amenity" v="school"/>
    <tag k="name" v="町立本砂金小学校"/>
    <tag k="source" v="NRPB of MLIT Japan."/>
    <tag k="source:ja" v="国土数値情報（公共施設データ）平成18年　国土交通省"/>
    <tag k="source_ref" v="http://nlftp.mlit.go.jp/ksj/jpgis/datalist/KsjTmplt-P02-v2_0.html"/>
  </node>
  <node id="1200159810" version="1" timestamp="2011-03-13T13:44:20Z" uid="171838" user="argrath" changeset="7544920" lat="37.906615" lon="140.763262">
    <tag k="amenity" v="school"/>
    <tag k="name" v="私立啓明宮城小学校"/>
    <tag k="source" v="NRPB of MLIT Japan."/>
    <tag k="source:ja" v="国土数値情報（公共施設データ）平成18年　国土交通省"/>
    <tag k="source_ref" v="http://nlftp.mlit.go.jp/ksj/jpgis/datalist/KsjTmplt-P02-v2_0.html"/>
  </node>
  <node id="1200159832" version="1" timestamp="2011-03-13T13:44:21Z" uid="171838" user="argrath" changeset="7544920" lat="37.924114" lon="140.772427">
    <tag k="amenity" v="school"/>
    <tag k="name" v="町立舘矢間小学校"/>
    <tag k="source" v="NRPB of MLIT Japan."/>
    <tag k="source:ja" v="国土数値情報（公共施設データ）平成18年　国土交通省"/>
    <tag k="source_ref" v="http://nlftp.mlit.go.jp/ksj/jpgis/datalist/KsjTmplt-P02-v2_0.html"/>
  </node>
  <node id="1200159840" version="1" timestamp="2011-03-13T13:44:21Z" uid="171838" user="argrath" changeset="7544920" lat="37.914948" lon="140.760484">
    <tag k="amenity" v="school"/>
    <tag k="name" v="町立丸森小学校"/>
    <tag k="source" v="NRPB of MLIT Japan."/>
    <tag k="source:ja" v="国土数値情報（公共施設データ）平成18年　国土交通省"/>
    <tag k="source_ref" v="http://nlftp.mlit.go.jp/ksj/jpgis/datalist/KsjTmplt-P02-v2_0.html"/>
  </node>
  <node id="1200159849" version="1" timestamp="2011-03-13T13:44:21Z" uid="171838" user="argrath" changeset="7544920" lat="37.902447" lon="140.67688">
    <tag k="amenity" v="school"/>
    <tag k="name" v="町立丸森小学校羽出庭分校"/>
    <tag k="source" v="NRPB of MLIT Japan."/>
    <tag k="source:ja" v="国土数値情報（公共施設データ）平成18年　国土交通省"/>
    <tag k="source_ref" v="http://nlftp.mlit.go.jp/ksj/jpgis/datalist/KsjTmplt-P02-v2_0.html"/>
  </node>
  <node id="1200159865" version="1" timestamp="2011-03-13T13:44:22Z" uid="171838" user="argrath" changeset="7544920" lat="37.901339" lon="140.798258">
    <tag k="amenity" v="school"/>
    <tag k="name" v="町立金山小学校"/>
    <tag k="source" v="NRPB of MLIT Japan."/>
    <tag k="source:ja" v="国土数値情報（公共施設データ）平成18年　国土交通省"/>
    <tag k="source_ref" v="http://nlftp.mlit.go.jp/ksj/jpgis/datalist/KsjTmplt-P02-v2_0.html"/>
  </node>
  <node id="1200159871" version="1" timestamp="2011-03-13T13:44:22Z" uid="171838" user="argrath" changeset="7544920" lat="37.919388" lon="140.645493">
    <tag k="amenity" v="school"/>
    <tag k="name" v="町立耕野小学校"/>
    <tag k="source" v="NRPB of MLIT Japan."/>
    <tag k="source:ja" v="国土数値情報（公共施設データ）平成18年　国土交通省"/>
    <tag k="source_ref" v="http://nlftp.mlit.go.jp/ksj/jpgis/datalist/KsjTmplt-P02-v2_0.html"/>
  </node>
  <node id="1200159876" version="1" timestamp="2011-03-13T13:44:22Z" uid="171838" user="argrath" changeset="7544920" lat="37.918195" lon="140.823298">
    <tag k="amenity" v="school"/>
    <tag k="name" v="町立小斎小学校"/>
    <tag k="source" v="NRPB of MLIT Japan."/>
    <tag k="source:ja" v="国土数値情報（公共施設データ）平成18年　国土交通省"/>
    <tag k="source_ref" v="http://nlftp.mlit.go.jp/ksj/jpgis/datalist/KsjTmplt-P02-v2_0.html"/>
  </node>
  <node id="1200159893" version="1" timestamp="2011-03-13T13:44:22Z" uid="171838" user="argrath" changeset="7544920" lat="37.936461" lon="140.677021">
    <tag k="amenity" v="school"/>
    <tag k="name" v="町立大張小学校"/>
    <tag k="source" v="NRPB of MLIT Japan."/>
    <tag k="source:ja" v="国土数値情報（公共施設データ）平成18年　国土交通省"/>
    <tag k="source_ref" v="http://nlftp.mlit.go.jp/ksj/jpgis/datalist/KsjTmplt-P02-v2_0.html"/>
  </node>
  <node id="1200159897" version="1" timestamp="2011-03-13T13:44:23Z" uid="171838" user="argrath" changeset="7544920" lat="37.871899" lon="140.826313">
    <tag k="amenity" v="school"/>
    <tag k="name" v="町立大内小学校"/>
    <tag k="source" v="NRPB of MLIT Japan."/>
    <tag k="source:ja" v="国土数値情報（公共施設データ）平成18年　国土交通省"/>
    <tag k="source_ref" v="http://nlftp.mlit.go.jp/ksj/jpgis/datalist/KsjTmplt-P02-v2_0.html"/>
  </node>
  <node id="1200159900" version="1" timestamp="2011-03-13T13:44:23Z" uid="171838" user="argrath" changeset="7544920" lat="37.836066" lon="140.732156">
    <tag k="amenity" v="school"/>
    <tag k="name" v="町立筆甫小学校"/>
    <tag k="source" v="NRPB of MLIT Japan."/>
    <tag k="source:ja" v="国土数値情報（公共施設データ）平成18年　国土交通省"/>
    <tag k="source_ref" v="http://nlftp.mlit.go.jp/ksj/jpgis/datalist/KsjTmplt-P02-v2_0.html"/>
  </node>
  <node id="1200159911" version="1" timestamp="2011-03-13T13:44:23Z" uid="171838" user="argrath" changeset="7544920" lat="38.073544" lon="140.8663">
    <tag k="amenity" v="school"/>
    <tag k="name" v="町立逢隈小学校"/>
    <tag k="source" v="NRPB of MLIT Japan."/>
    <tag k="source:ja" v="国土数値情報（公共施設データ）平成18年　国土交通省"/>
    <tag k="source_ref" v="http://nlftp.mlit.go.jp/ksj/jpgis/datalist/KsjTmplt-P02-v2_0.html"/>
  </node>
  <node id="1200159916" version="1" timestamp="2011-03-13T13:44:23Z" uid="171838" user="argrath" changeset="7544920" lat="38.013829" lon="140.857693">
    <tag k="amenity" v="school"/>
    <tag k="name" v="町立吉田小学校"/>
    <tag k="source" v="NRPB of MLIT Japan."/>
    <tag k="source:ja" v="国土数値情報（公共施設データ）平成18年　国土交通省"/>
    <tag k="source_ref" v="http://nlftp.mlit.go.jp/ksj/jpgis/datalist/KsjTmplt-P02-v2_0.html"/>
  </node>
  <node id="1200159921" version="1" timestamp="2011-03-13T13:44:23Z" uid="171838" user="argrath" changeset="7544920" lat="38.048827" lon="140.908799">
    <tag k="amenity" v="school"/>
    <tag k="name" v="町立荒浜小学校"/>
    <tag k="source" v="NRPB of MLIT Japan."/>
    <tag k="source:ja" v="国土数値情報（公共施設データ）平成18年　国土交通省"/>
    <tag k="source_ref" v="http://nlftp.mlit.go.jp/ksj/jpgis/datalist/KsjTmplt-P02-v2_0.html"/>
  </node>
  <node id="1200159938" version="1" timestamp="2011-03-13T13:44:24Z" uid="171838" user="argrath" changeset="7544920" lat="38.046178" lon="140.883395">
    <tag k="amenity" v="school"/>
    <tag k="name" v="町立高屋小学校"/>
    <tag k="source" v="NRPB of MLIT Japan."/>
    <tag k="source:ja" v="国土数値情報（公共施設データ）平成18年　国土交通省"/>
    <tag k="source_ref" v="http://nlftp.mlit.go.jp/ksj/jpgis/datalist/KsjTmplt-P02-v2_0.html"/>
  </node>
  <node id="1200159940" version="1" timestamp="2011-03-13T13:44:24Z" uid="171838" user="argrath" changeset="7544920" lat="38.018552" lon="140.894912">
    <tag k="amenity" v="school"/>
    <tag k="name" v="町立長瀞小学校"/>
    <tag k="source" v="NRPB of MLIT Japan."/>
    <tag k="source:ja" v="国土数値情報（公共施設データ）平成18年　国土交通省"/>
    <tag k="source_ref" v="http://nlftp.mlit.go.jp/ksj/jpgis/datalist/KsjTmplt-P02-v2_0.html"/>
  </node>
  <node id="1200159942" version="1" timestamp="2011-03-13T13:44:24Z" uid="171838" user="argrath" changeset="7544920" lat="38.036326" lon="140.853526">
    <tag k="amenity" v="school"/>
    <tag k="name" v="町立亘理小学校"/>
    <tag k="source" v="NRPB of MLIT Japan."/>
    <tag k="source:ja" v="国土数値情報（公共施設データ）平成18年　国土交通省"/>
    <tag k="source_ref" v="http://nlftp.mlit.go.jp/ksj/jpgis/datalist/KsjTmplt-P02-v2_0.html"/>
  </node>
  <node id="1200159952" version="1" timestamp="2011-03-13T13:44:25Z" uid="171838" user="argrath" changeset="7544920" lat="37.91884" lon="140.893527">
    <tag k="amenity" v="school"/>
    <tag k="name" v="町立坂元小学校"/>
    <tag k="source" v="NRPB of MLIT Japan."/>
    <tag k="source:ja" v="国土数値情報（公共施設データ）平成18年　国土交通省"/>
    <tag k="source_ref" v="http://nlftp.mlit.go.jp/ksj/jpgis/datalist/KsjTmplt-P02-v2_0.html"/>
  </node>
  <node id="1200159954" version="1" timestamp="2011-03-13T13:44:25Z" uid="171838" user="argrath" changeset="7544920" lat="37.969667" lon="140.87436">
    <tag k="amenity" v="school"/>
    <tag k="name" v="町立山下小学校"/>
    <tag k="source" v="NRPB of MLIT Japan."/>
    <tag k="source:ja" v="国土数値情報（公共施設データ）平成18年　国土交通省"/>
    <tag k="source_ref" v="http://nlftp.mlit.go.jp/ksj/jpgis/datalist/KsjTmplt-P02-v2_0.html"/>
  </node>
  <node id="1200159957" version="1" timestamp="2011-03-13T13:44:25Z" uid="171838" user="argrath" changeset="7544920" lat="37.991887" lon="140.866582">
    <tag k="amenity" v="school"/>
    <tag k="name" v="町立山下第一小学校"/>
    <tag k="source" v="NRPB of MLIT Japan."/>
    <tag k="source:ja" v="国土数値情報（公共施設データ）平成18年　国土交通省"/>
    <tag k="source_ref" v="http://nlftp.mlit.go.jp/ksj/jpgis/datalist/KsjTmplt-P02-v2_0.html"/>
  </node>
  <node id="1200159964" version="1" timestamp="2011-03-13T13:44:25Z" uid="171838" user="argrath" changeset="7544920" lat="37.965224" lon="140.904913">
    <tag k="amenity" v="school"/>
    <tag k="name" v="町立山下第二小学校"/>
    <tag k="source" v="NRPB of MLIT Japan."/>
    <tag k="source:ja" v="国土数値情報（公共施設データ）平成18年　国土交通省"/>
    <tag k="source_ref" v="http://nlftp.mlit.go.jp/ksj/jpgis/datalist/KsjTmplt-P02-v2_0.html"/>
  </node>
  <node id="1200159967" version="1" timestamp="2011-03-13T13:44:25Z" uid="171838" user="argrath" changeset="7544920" lat="37.916619" lon="140.917413">
    <tag k="amenity" v="school"/>
    <tag k="name" v="町立中浜小学校"/>
    <tag k="source" v="NRPB of MLIT Japan."/>
    <tag k="source:ja" v="国土数値情報（公共施設データ）平成18年　国土交通省"/>
    <tag k="source_ref" v="http://nlftp.mlit.go.jp/ksj/jpgis/datalist/KsjTmplt-P02-v2_0.html"/>
  </node>
  <node id="1200159969" version="1" timestamp="2011-03-13T13:44:26Z" uid="171838" user="argrath" changeset="7544920" lat="38.37602" lon="141.067377">
    <tag k="amenity" v="school"/>
    <tag k="name" v="町立松島第一小学校"/>
    <tag k="source" v="NRPB of MLIT Japan."/>
    <tag k="source:ja" v="国土数値情報（公共施設データ）平成18年　国土交通省"/>
    <tag k="source_ref" v="http://nlftp.mlit.go.jp/ksj/jpgis/datalist/KsjTmplt-P02-v2_0.html"/>
  </node>
  <node id="1200159972" version="1" timestamp="2011-03-13T13:44:26Z" uid="171838" user="argrath" changeset="7544920" lat="38.43018" lon="141.078206">
    <tag k="amenity" v="school"/>
    <tag k="name" v="町立松島第五小学校"/>
    <tag k="source" v="NRPB of MLIT Japan."/>
    <tag k="source:ja" v="国土数値情報（公共施設データ）平成18年　国土交通省"/>
    <tag k="source_ref" v="http://nlftp.mlit.go.jp/ksj/jpgis/datalist/KsjTmplt-P02-v2_0.html"/>
  </node>
  <node id="1200159976" version="1" timestamp="2011-03-13T13:44:26Z" uid="171838" user="argrath" changeset="7544920" lat="38.390186" lon="141.100983">
    <tag k="amenity" v="school"/>
    <tag k="name" v="町立松島第三小学校"/>
    <tag k="source" v="NRPB of MLIT Japan."/>
    <tag k="source:ja" v="国土数値情報（公共施設データ）平成18年　国土交通省"/>
    <tag k="source_ref" v="http://nlftp.mlit.go.jp/ksj/jpgis/datalist/KsjTmplt-P02-v2_0.html"/>
  </node>
  <node id="1200159978" version="1" timestamp="2011-03-13T13:44:26Z" uid="171838" user="argrath" changeset="7544920" lat="38.424904" lon="141.11098">
    <tag k="amenity" v="school"/>
    <tag k="name" v="町立松島第四小学校"/>
    <tag k="source" v="NRPB of MLIT Japan."/>
    <tag k="source:ja" v="国土数値情報（公共施設データ）平成18年　国土交通省"/>
    <tag k="source_ref" v="http://nlftp.mlit.go.jp/ksj/jpgis/datalist/KsjTmplt-P02-v2_0.html"/>
  </node>
  <node id="1200159990" version="1" timestamp="2011-03-13T13:44:27Z" uid="171838" user="argrath" changeset="7544920" lat="38.394802" lon="141.062998">
    <tag k="amenity" v="school"/>
    <tag k="name" v="町立松島第二小学校"/>
    <tag k="source" v="NRPB of MLIT Japan."/>
    <tag k="source:ja" v="国土数値情報（公共施設データ）平成18年　国土交通省"/>
    <tag k="source_ref" v="http://nlftp.mlit.go.jp/ksj/jpgis/datalist/KsjTmplt-P02-v2_0.html"/>
  </node>
  <node id="1200159991" version="1" timestamp="2011-03-13T13:44:27Z" uid="171838" user="argrath" changeset="7544920" lat="38.297809" lon="141.046453">
    <tag k="amenity" v="school"/>
    <tag k="name" v="町立汐見小学校"/>
    <tag k="source" v="NRPB of MLIT Japan."/>
    <tag k="source:ja" v="国土数値情報（公共施設データ）平成18年　国土交通省"/>
    <tag k="source_ref" v="http://nlftp.mlit.go.jp/ksj/jpgis/datalist/KsjTmplt-P02-v2_0.html"/>
  </node>
  <node id="1200159992" version="1" timestamp="2011-03-13T13:44:27Z" uid="171838" user="argrath" changeset="7544920" lat="38.28242" lon="141.056551">
    <tag k="amenity" v="school"/>
    <tag k="name" v="町立松ケ浜小学校"/>
    <tag k="source" v="NRPB of MLIT Japan."/>
    <tag k="source:ja" v="国土数値情報（公共施設データ）平成18年　国土交通省"/>
    <tag k="source_ref" v="http://nlftp.mlit.go.jp/ksj/jpgis/datalist/KsjTmplt-P02-v2_0.html"/>
  </node>
</osm>
