<?xml version='1.0' encoding='UTF-8'?>
<osm version="0.6" generator="libosmium/2.20.0">
  <node id="12013739" version="4" timestamp="2008-02-16T19:23:58Z" uid="6975" user="ulfl" changeset="141861" lat="50.6983056" lon="-1.2920206">
    <tag k="name" v="Morrisons"/>
    <tag k="shop" v="supermarket"/>
    <tag k="source" v="GPS waypoint"/>
  </node>
  <node id="12014292" version="3" timestamp="2008-09-13T23:21:00Z" uid="6975" user="ulfl" changeset="628567" lat="52.440661" lon="-0.687774">
    <tag k="highway" v="speed_camera"/>
    <tag k="source" v="GPS waypoint"/>
  </node>
  <node id="12014293" version="4" timestamp="2008-09-13T23:20:59Z" uid="6975" user="ulfl" changeset="628567" lat="52.434248" lon="-0.6912971">
    <tag k="highway" v="speed_camera"/>
    <tag k="source" v="GPS waypoint"/>
  </node>
  <node id="12014295" version="5" timestamp="2008-07-03T18:48:27Z" uid="6975" user="ulfl" changeset="379368" lat="54.9784504" lon="-1.6134325">
    <tag k="amenity" v="place_of_worship"/>
    <tag k="name" v="CH1"/>
    <tag k="source" v="GPS waypoint"/>
    <tag k="upload_tag" v="waypoints"/>
  </node>
  <node id="12014312" version="2" timestamp="2008-02-16T19:24:16Z" uid="6975" user="ulfl" changeset="141861" lat="52.907037" lon="-0.637994">
    <tag k="name" v="Sainsbury"/>
    <tag k="shop" v="supermarket"/>
    <tag k="source" v="GPS waypoint"/>
    <tag k="upload_tag" v="waypoints"/>
  </node>
  <node id="12018556" version="2" timestamp="2008-07-03T17:45:29Z" uid="6975" user="ulfl" changeset="379368" lat="52.1158976" lon="-0.5019966">
    <tag k="shop" v="car_repair"/>
  </node>
  <node id="12018591" version="2" timestamp="2008-02-16T19:23:57Z" uid="6975" user="ulfl" changeset="141861" lat="52.1174169" lon="-0.496274">
    <tag k="name" v="Sainsburys"/>
    <tag k="shop" v="supermarket"/>
  </node>
</osm>
