<?xml version='1.0' encoding='UTF-8'?>
<osm version="0.6" generator="libosmium/2.20.0">
  <node id="1211709220" version="1" timestamp="2011-03-21T09:26:05Z" uid="171838" user="argrath" changeset="7625257" lat="38.267137" lon="140.873791">
    <tag k="amenity" v="public_building"/>
    <tag k="name" v="東北事務局"/>
    <tag k="source" v="NRPB of MLIT Japan"/>
    <tag k="source:ja" v="国土数値情報（公共施設データ）平成18年　国土交通省"/>
    <tag k="source_ref" v="http://nlftp.mlit.go.jp/ksj/jpgis/datalist/KsjTmplt-P02-v2_0.html"/>
  </node>
  <node id="1211709221" version="1" timestamp="2011-03-21T09:26:06Z" uid="171838" user="argrath" changeset="7625257" lat="38.267137" lon="140.873791">
    <tag k="amenity" v="public_building"/>
    <tag k="name" v="東北事務所"/>
    <tag k="source" v="NRPB of MLIT Japan"/>
    <tag k="source:ja" v="国土数値情報（公共施設データ）平成18年　国土交通省"/>
    <tag k="source_ref" v="http://nlftp.mlit.go.jp/ksj/jpgis/datalist/KsjTmplt-P02-v2_0.html"/>
  </node>
  <node id="1211709222" version="1" timestamp="2011-03-21T09:26:06Z" uid="171838" user="argrath" changeset="7625257" lat="38.267692" lon="140.873513">
    <tag k="amenity" v="public_building"/>
    <tag k="name" v="東北管区警察局"/>
    <tag k="source" v="NRPB of MLIT Japan"/>
    <tag k="source:ja" v="国土数値情報（公共施設データ）平成18年　国土交通省"/>
    <tag k="source_ref" v="http://nlftp.mlit.go.jp/ksj/jpgis/datalist/KsjTmplt-P02-v2_0.html"/>
  </node>
  <node id="1211709223" version="1" timestamp="2011-03-21T09:26:06Z" uid="171838" user="argrath" changeset="7625257" lat="38.297417" lon="141.019609">
    <tag k="amenity" v="public_building"/>
    <tag k="name" v="東北管区警察学校"/>
    <tag k="source" v="NRPB of MLIT Japan"/>
    <tag k="source:ja" v="国土数値情報（公共施設データ）平成18年　国土交通省"/>
    <tag k="source_ref" v="http://nlftp.mlit.go.jp/ksj/jpgis/datalist/KsjTmplt-P02-v2_0.html"/>
  </node>
  <node id="1211709224" version="1" timestamp="2011-03-21T09:26:06Z" uid="171838" user="argrath" changeset="7625257" lat="38.262071" lon="140.915878">
    <tag k="amenity" v="public_building"/>
    <tag k="name" v="陸上自衛隊東北方面総監部"/>
    <tag k="source" v="NRPB of MLIT Japan"/>
    <tag k="source:ja" v="国土数値情報（公共施設データ）平成18年　国土交通省"/>
    <tag k="source_ref" v="http://nlftp.mlit.go.jp/ksj/jpgis/datalist/KsjTmplt-P02-v2_0.html"/>
  </node>
  <node id="1211709225" version="1" timestamp="2011-03-21T09:26:07Z" uid="171838" user="argrath" changeset="7625257" lat="38.262416" lon="140.897677">
    <tag k="amenity" v="public_building"/>
    <tag k="name" v="仙台防衛施設局"/>
    <tag k="source" v="NRPB of MLIT Japan"/>
    <tag k="source:ja" v="国土数値情報（公共施設データ）平成18年　国土交通省"/>
    <tag k="source_ref" v="http://nlftp.mlit.go.jp/ksj/jpgis/datalist/KsjTmplt-P02-v2_0.html"/>
  </node>
  <node id="1211709226" version="1" timestamp="2011-03-21T09:26:07Z" uid="171838" user="argrath" changeset="7625257" lat="38.267137" lon="140.873791">
    <tag k="amenity" v="public_building"/>
    <tag k="name" v="東北管区行政評価局"/>
    <tag k="source" v="NRPB of MLIT Japan"/>
    <tag k="source:ja" v="国土数値情報（公共施設データ）平成18年　国土交通省"/>
    <tag k="source_ref" v="http://nlftp.mlit.go.jp/ksj/jpgis/datalist/KsjTmplt-P02-v2_0.html"/>
  </node>
  <node id="1211709227" version="1" timestamp="2011-03-21T09:26:07Z" uid="171838" user="argrath" changeset="7625257" lat="38.267137" lon="140.873791">
    <tag k="amenity" v="public_building"/>
    <tag k="name" v="東北総合通信局"/>
    <tag k="source" v="NRPB of MLIT Japan"/>
    <tag k="source:ja" v="国土数値情報（公共施設データ）平成18年　国土交通省"/>
    <tag k="source_ref" v="http://nlftp.mlit.go.jp/ksj/jpgis/datalist/KsjTmplt-P02-v2_0.html"/>
  </node>
  <node id="1211709228" version="1" timestamp="2011-03-21T09:26:07Z" uid="171838" user="argrath" changeset="7625257" lat="38.258249" lon="140.866292">
    <tag k="amenity" v="public_building"/>
    <tag k="name" v="仙台保護観察所"/>
    <tag k="source" v="NRPB of MLIT Japan"/>
    <tag k="source:ja" v="国土数値情報（公共施設データ）平成18年　国土交通省"/>
    <tag k="source_ref" v="http://nlftp.mlit.go.jp/ksj/jpgis/datalist/KsjTmplt-P02-v2_0.html"/>
  </node>
  <node id="1211709229" version="1" timestamp="2011-03-21T09:26:07Z" uid="171838" user="argrath" changeset="7625257" lat="38.267414" lon="140.865736">
    <tag k="amenity" v="public_building"/>
    <tag k="name" v="仙台法務局"/>
    <tag k="source" v="NRPB of MLIT Japan"/>
    <tag k="source:ja" v="国土数値情報（公共施設データ）平成18年　国土交通省"/>
    <tag k="source_ref" v="http://nlftp.mlit.go.jp/ksj/jpgis/datalist/KsjTmplt-P02-v2_0.html"/>
  </node>
  <node id="1211709230" version="1" timestamp="2011-03-21T09:26:07Z" uid="171838" user="argrath" changeset="7625257" lat="38.258249" lon="140.866292">
    <tag k="amenity" v="public_building"/>
    <tag k="name" v="東北地方更生保護委員会"/>
    <tag k="source" v="NRPB of MLIT Japan"/>
    <tag k="source:ja" v="国土数値情報（公共施設データ）平成18年　国土交通省"/>
    <tag k="source_ref" v="http://nlftp.mlit.go.jp/ksj/jpgis/datalist/KsjTmplt-P02-v2_0.html"/>
  </node>
  <node id="1211709231" version="1" timestamp="2011-03-21T09:26:07Z" uid="171838" user="argrath" changeset="7625257" lat="38.258249" lon="140.866292">
    <tag k="amenity" v="public_building"/>
    <tag k="name" v="法務総合研究所仙台支所"/>
    <tag k="source" v="NRPB of MLIT Japan"/>
    <tag k="source:ja" v="国土数値情報（公共施設データ）平成18年　国土交通省"/>
    <tag k="source_ref" v="http://nlftp.mlit.go.jp/ksj/jpgis/datalist/KsjTmplt-P02-v2_0.html"/>
  </node>
  <node id="1211709232" version="1" timestamp="2011-03-21T09:26:08Z" uid="171838" user="argrath" changeset="7625257" lat="38.262416" lon="140.898511">
    <tag k="amenity" v="public_building"/>
    <tag k="name" v="仙台入国管理局"/>
    <tag k="source" v="NRPB of MLIT Japan"/>
    <tag k="source:ja" v="国土数値情報（公共施設データ）平成18年　国土交通省"/>
    <tag k="source_ref" v="http://nlftp.mlit.go.jp/ksj/jpgis/datalist/KsjTmplt-P02-v2_0.html"/>
  </node>
  <node id="1211709233" version="1" timestamp="2011-03-21T09:26:08Z" uid="171838" user="argrath" changeset="7625257" lat="38.237419" lon="140.901568">
    <tag k="amenity" v="public_building"/>
    <tag k="name" v="宮城刑務所"/>
    <tag k="source" v="NRPB of MLIT Japan"/>
    <tag k="source:ja" v="国土数値情報（公共施設データ）平成18年　国土交通省"/>
    <tag k="source_ref" v="http://nlftp.mlit.go.jp/ksj/jpgis/datalist/KsjTmplt-P02-v2_0.html"/>
  </node>
  <node id="1211709234" version="1" timestamp="2011-03-21T09:26:08Z" uid="171838" user="argrath" changeset="7625257" lat="38.237419" lon="140.901568">
    <tag k="amenity" v="public_building"/>
    <tag k="name" v="宮城刑務所仙台拘置支所"/>
    <tag k="source" v="NRPB of MLIT Japan"/>
    <tag k="source:ja" v="国土数値情報（公共施設データ）平成18年　国土交通省"/>
    <tag k="source_ref" v="http://nlftp.mlit.go.jp/ksj/jpgis/datalist/KsjTmplt-P02-v2_0.html"/>
  </node>
  <node id="1211709235" version="1" timestamp="2011-03-21T09:26:08Z" uid="171838" user="argrath" changeset="7625257" lat="38.232142" lon="140.905179">
    <tag k="amenity" v="public_building"/>
    <tag k="name" v="矯正研修所仙台支所"/>
    <tag k="source" v="NRPB of MLIT Japan"/>
    <tag k="source:ja" v="国土数値情報（公共施設データ）平成18年　国土交通省"/>
    <tag k="source_ref" v="http://nlftp.mlit.go.jp/ksj/jpgis/datalist/KsjTmplt-P02-v2_0.html"/>
  </node>
  <node id="1211709236" version="1" timestamp="2011-03-21T09:26:08Z" uid="171838" user="argrath" changeset="7625257" lat="38.234086" lon="140.905178">
    <tag k="amenity" v="public_building"/>
    <tag k="name" v="青葉女子学園"/>
    <tag k="source" v="NRPB of MLIT Japan"/>
    <tag k="source:ja" v="国土数値情報（公共施設データ）平成18年　国土交通省"/>
    <tag k="source_ref" v="http://nlftp.mlit.go.jp/ksj/jpgis/datalist/KsjTmplt-P02-v2_0.html"/>
  </node>
  <node id="1211709237" version="1" timestamp="2011-03-21T09:26:08Z" uid="171838" user="argrath" changeset="7625257" lat="38.232142" lon="140.905179">
    <tag k="amenity" v="public_building"/>
    <tag k="name" v="仙台矯正管区"/>
    <tag k="source" v="NRPB of MLIT Japan"/>
    <tag k="source:ja" v="国土数値情報（公共施設データ）平成18年　国土交通省"/>
    <tag k="source_ref" v="http://nlftp.mlit.go.jp/ksj/jpgis/datalist/KsjTmplt-P02-v2_0.html"/>
  </node>
  <node id="1211709238" version="1" timestamp="2011-03-21T09:26:09Z" uid="171838" user="argrath" changeset="7625257" lat="38.233253" lon="140.907678">
    <tag k="amenity" v="public_building"/>
    <tag k="name" v="仙台少年鑑別所"/>
    <tag k="source" v="NRPB of MLIT Japan"/>
    <tag k="source:ja" v="国土数値情報（公共施設データ）平成18年　国土交通省"/>
    <tag k="source_ref" v="http://nlftp.mlit.go.jp/ksj/jpgis/datalist/KsjTmplt-P02-v2_0.html"/>
  </node>
  <node id="1211709239" version="1" timestamp="2011-03-21T09:26:09Z" uid="171838" user="argrath" changeset="7625257" lat="38.234086" lon="140.904345">
    <tag k="amenity" v="public_building"/>
    <tag k="name" v="東北少年院"/>
    <tag k="source" v="NRPB of MLIT Japan"/>
    <tag k="source:ja" v="国土数値情報（公共施設データ）平成18年　国土交通省"/>
    <tag k="source_ref" v="http://nlftp.mlit.go.jp/ksj/jpgis/datalist/KsjTmplt-P02-v2_0.html"/>
  </node>
  <node id="1211709240" version="1" timestamp="2011-03-21T09:26:09Z" uid="171838" user="argrath" changeset="7625257" lat="38.427963" lon="141.290685">
    <tag k="amenity" v="public_building"/>
    <tag k="name" v="宮城刑務所石巻拘置支所"/>
    <tag k="source" v="NRPB of MLIT Japan"/>
    <tag k="source:ja" v="国土数値情報（公共施設データ）平成18年　国土交通省"/>
    <tag k="source_ref" v="http://nlftp.mlit.go.jp/ksj/jpgis/datalist/KsjTmplt-P02-v2_0.html"/>
  </node>
  <node id="1211709241" version="1" timestamp="2011-03-21T09:26:09Z" uid="171838" user="argrath" changeset="7625257" lat="38.427408" lon="141.299573">
    <tag k="amenity" v="public_building"/>
    <tag k="name" v="仙台法務局石巻支局"/>
    <tag k="source" v="NRPB of MLIT Japan"/>
    <tag k="source:ja" v="国土数値情報（公共施設データ）平成18年　国土交通省"/>
    <tag k="source_ref" v="http://nlftp.mlit.go.jp/ksj/jpgis/datalist/KsjTmplt-P02-v2_0.html"/>
  </node>
  <node id="1211709242" version="1" timestamp="2011-03-21T09:26:09Z" uid="171838" user="argrath" changeset="7625257" lat="38.306304" lon="141.006276">
    <tag k="amenity" v="public_building"/>
    <tag k="name" v="仙台法務局塩釜支局"/>
    <tag k="source" v="NRPB of MLIT Japan"/>
    <tag k="source:ja" v="国土数値情報（公共施設データ）平成18年　国土交通省"/>
    <tag k="source_ref" v="http://nlftp.mlit.go.jp/ksj/jpgis/datalist/KsjTmplt-P02-v2_0.html"/>
  </node>
  <node id="1211709243" version="1" timestamp="2011-03-21T09:26:09Z" uid="171838" user="argrath" changeset="7625257" lat="38.891253" lon="141.588416">
    <tag k="amenity" v="public_building"/>
    <tag k="name" v="仙台法務局気仙沼支局"/>
    <tag k="source" v="NRPB of MLIT Japan"/>
    <tag k="source:ja" v="国土数値情報（公共施設データ）平成18年　国土交通省"/>
    <tag k="source_ref" v="http://nlftp.mlit.go.jp/ksj/jpgis/datalist/KsjTmplt-P02-v2_0.html"/>
  </node>
  <node id="1211709244" version="1" timestamp="2011-03-21T09:26:09Z" uid="171838" user="argrath" changeset="7625257" lat="38.138207" lon="140.930056">
    <tag k="amenity" v="public_building"/>
    <tag k="name" v="仙台入国管理局仙台空港出張所"/>
    <tag k="source" v="NRPB of MLIT Japan"/>
    <tag k="source:ja" v="国土数値情報（公共施設データ）平成18年　国土交通省"/>
    <tag k="source_ref" v="http://nlftp.mlit.go.jp/ksj/jpgis/datalist/KsjTmplt-P02-v2_0.html"/>
  </node>
  <node id="1211709245" version="1" timestamp="2011-03-21T09:26:10Z" uid="171838" user="argrath" changeset="7625257" lat="38.167426" lon="140.891572">
    <tag k="amenity" v="public_building"/>
    <tag k="name" v="仙台法務局登記情報システム管理官室"/>
    <tag k="source" v="NRPB of MLIT Japan"/>
    <tag k="source:ja" v="国土数値情報（公共施設データ）平成18年　国土交通省"/>
    <tag k="source_ref" v="http://nlftp.mlit.go.jp/ksj/jpgis/datalist/KsjTmplt-P02-v2_0.html"/>
  </node>
  <node id="1211709246" version="1" timestamp="2011-03-21T09:26:10Z" uid="171838" user="argrath" changeset="7625257" lat="38.167426" lon="140.891572">
    <tag k="amenity" v="public_building"/>
    <tag k="name" v="仙台法務局名取出張所"/>
    <tag k="source" v="NRPB of MLIT Japan"/>
    <tag k="source:ja" v="国土数値情報（公共施設データ）平成18年　国土交通省"/>
    <tag k="source_ref" v="http://nlftp.mlit.go.jp/ksj/jpgis/datalist/KsjTmplt-P02-v2_0.html"/>
  </node>
  <node id="1211709247" version="1" timestamp="2011-03-21T09:26:10Z" uid="171838" user="argrath" changeset="7625257" lat="38.653493" lon="141.28012">
    <tag k="amenity" v="public_building"/>
    <tag k="name" v="仙台法務局登米支局"/>
    <tag k="source" v="NRPB of MLIT Japan"/>
    <tag k="source:ja" v="国土数値情報（公共施設データ）平成18年　国土交通省"/>
    <tag k="source_ref" v="http://nlftp.mlit.go.jp/ksj/jpgis/datalist/KsjTmplt-P02-v2_0.html"/>
  </node>
  <node id="1211709248" version="1" timestamp="2011-03-21T09:26:10Z" uid="171838" user="argrath" changeset="7625257" lat="38.732366" lon="141.017642">
    <tag k="amenity" v="public_building"/>
    <tag k="name" v="仙台法務局築館支局"/>
    <tag k="source" v="NRPB of MLIT Japan"/>
    <tag k="source:ja" v="国土数値情報（公共施設データ）平成18年　国土交通省"/>
    <tag k="source_ref" v="http://nlftp.mlit.go.jp/ksj/jpgis/datalist/KsjTmplt-P02-v2_0.html"/>
  </node>
  <node id="1211709249" version="1" timestamp="2011-03-21T09:26:10Z" uid="171838" user="argrath" changeset="7625257" lat="38.57877" lon="140.957935">
    <tag k="amenity" v="public_building"/>
    <tag k="name" v="宮城刑務所古川拘置支所"/>
    <tag k="source" v="NRPB of MLIT Japan"/>
    <tag k="source:ja" v="国土数値情報（公共施設データ）平成18年　国土交通省"/>
    <tag k="source_ref" v="http://nlftp.mlit.go.jp/ksj/jpgis/datalist/KsjTmplt-P02-v2_0.html"/>
  </node>
  <node id="1211709250" version="1" timestamp="2011-03-21T09:26:10Z" uid="171838" user="argrath" changeset="7625257" lat="38.564885" lon="140.978818">
    <tag k="amenity" v="public_building"/>
    <tag k="name" v="仙台法務局古川支局"/>
    <tag k="source" v="NRPB of MLIT Japan"/>
    <tag k="source:ja" v="国土数値情報（公共施設データ）平成18年　国土交通省"/>
    <tag k="source_ref" v="http://nlftp.mlit.go.jp/ksj/jpgis/datalist/KsjTmplt-P02-v2_0.html"/>
  </node>
  <node id="1211709251" version="1" timestamp="2011-03-21T09:26:11Z" uid="171838" user="argrath" changeset="7625257" lat="38.045002" lon="140.742585">
    <tag k="amenity" v="public_building"/>
    <tag k="name" v="仙台法務局大河原支局"/>
    <tag k="source" v="NRPB of MLIT Japan"/>
    <tag k="source:ja" v="国土数値情報（公共施設データ）平成18年　国土交通省"/>
    <tag k="source_ref" v="http://nlftp.mlit.go.jp/ksj/jpgis/datalist/KsjTmplt-P02-v2_0.html"/>
  </node>
  <node id="1211709252" version="1" timestamp="2011-03-21T09:26:11Z" uid="171838" user="argrath" changeset="7625257" lat="38.449338" lon="140.883225">
    <tag k="amenity" v="public_building"/>
    <tag k="name" v="仙台法務局大和出張所"/>
    <tag k="source" v="NRPB of MLIT Japan"/>
    <tag k="source:ja" v="国土数値情報（公共施設データ）平成18年　国土交通省"/>
    <tag k="source_ref" v="http://nlftp.mlit.go.jp/ksj/jpgis/datalist/KsjTmplt-P02-v2_0.html"/>
  </node>
  <node id="1211709253" version="1" timestamp="2011-03-21T09:26:11Z" uid="171838" user="argrath" changeset="7625257" lat="38.258249" lon="140.866292">
    <tag k="amenity" v="public_building"/>
    <tag k="name" v="仙台高等検察庁"/>
    <tag k="source" v="NRPB of MLIT Japan"/>
    <tag k="source:ja" v="国土数値情報（公共施設データ）平成18年　国土交通省"/>
    <tag k="source_ref" v="http://nlftp.mlit.go.jp/ksj/jpgis/datalist/KsjTmplt-P02-v2_0.html"/>
  </node>
  <node id="1211709254" version="1" timestamp="2011-03-21T09:26:11Z" uid="171838" user="argrath" changeset="7625257" lat="38.258249" lon="140.866292">
    <tag k="amenity" v="public_building"/>
    <tag k="name" v="仙台地方検察庁"/>
    <tag k="source" v="NRPB of MLIT Japan"/>
    <tag k="source:ja" v="国土数値情報（公共施設データ）平成18年　国土交通省"/>
    <tag k="source_ref" v="http://nlftp.mlit.go.jp/ksj/jpgis/datalist/KsjTmplt-P02-v2_0.html"/>
  </node>
  <node id="1211709255" version="1" timestamp="2011-03-21T09:26:11Z" uid="171838" user="argrath" changeset="7625257" lat="38.258249" lon="140.866292">
    <tag k="amenity" v="public_building"/>
    <tag k="name" v="仙台地方検察庁仙台区検察庁"/>
    <tag k="source" v="NRPB of MLIT Japan"/>
    <tag k="source:ja" v="国土数値情報（公共施設データ）平成18年　国土交通省"/>
    <tag k="source_ref" v="http://nlftp.mlit.go.jp/ksj/jpgis/datalist/KsjTmplt-P02-v2_0.html"/>
  </node>
  <node id="1211709256" version="1" timestamp="2011-03-21T09:26:12Z" uid="171838" user="argrath" changeset="7625257" lat="38.427408" lon="141.299573">
    <tag k="amenity" v="public_building"/>
    <tag k="name" v="仙台地方検察庁石巻区検察庁"/>
    <tag k="source" v="NRPB of MLIT Japan"/>
    <tag k="source:ja" v="国土数値情報（公共施設データ）平成18年　国土交通省"/>
    <tag k="source_ref" v="http://nlftp.mlit.go.jp/ksj/jpgis/datalist/KsjTmplt-P02-v2_0.html"/>
  </node>
  <node id="1211709257" version="1" timestamp="2011-03-21T09:26:12Z" uid="171838" user="argrath" changeset="7625257" lat="38.427408" lon="141.299573">
    <tag k="amenity" v="public_building"/>
    <tag k="name" v="仙台地方検察庁石巻支部"/>
    <tag k="source" v="NRPB of MLIT Japan"/>
    <tag k="source:ja" v="国土数値情報（公共施設データ）平成18年　国土交通省"/>
    <tag k="source_ref" v="http://nlftp.mlit.go.jp/ksj/jpgis/datalist/KsjTmplt-P02-v2_0.html"/>
  </node>
  <node id="1211709258" version="1" timestamp="2011-03-21T09:26:12Z" uid="171838" user="argrath" changeset="7625257" lat="38.895418" lon="141.569251">
    <tag k="amenity" v="public_building"/>
    <tag k="name" v="仙台地方検察庁気仙沼区検察庁"/>
    <tag k="source" v="NRPB of MLIT Japan"/>
    <tag k="source:ja" v="国土数値情報（公共施設データ）平成18年　国土交通省"/>
    <tag k="source_ref" v="http://nlftp.mlit.go.jp/ksj/jpgis/datalist/KsjTmplt-P02-v2_0.html"/>
  </node>
  <node id="1211709259" version="1" timestamp="2011-03-21T09:26:12Z" uid="171838" user="argrath" changeset="7625257" lat="38.895418" lon="141.569251">
    <tag k="amenity" v="public_building"/>
    <tag k="name" v="仙台地方検察庁気仙沼支部"/>
    <tag k="source" v="NRPB of MLIT Japan"/>
    <tag k="source:ja" v="国土数値情報（公共施設データ）平成18年　国土交通省"/>
    <tag k="source_ref" v="http://nlftp.mlit.go.jp/ksj/jpgis/datalist/KsjTmplt-P02-v2_0.html"/>
  </node>
  <node id="1211709260" version="1" timestamp="2011-03-21T09:26:12Z" uid="171838" user="argrath" changeset="7625257" lat="38.653493" lon="141.28012">
    <tag k="amenity" v="public_building"/>
    <tag k="name" v="仙台地方検察庁登米区検察庁"/>
    <tag k="source" v="NRPB of MLIT Japan"/>
    <tag k="source:ja" v="国土数値情報（公共施設データ）平成18年　国土交通省"/>
    <tag k="source_ref" v="http://nlftp.mlit.go.jp/ksj/jpgis/datalist/KsjTmplt-P02-v2_0.html"/>
  </node>
  <node id="1211709261" version="1" timestamp="2011-03-21T09:26:12Z" uid="171838" user="argrath" changeset="7625257" lat="38.653493" lon="141.28012">
    <tag k="amenity" v="public_building"/>
    <tag k="name" v="仙台地方検察庁登米支部"/>
    <tag k="source" v="NRPB of MLIT Japan"/>
    <tag k="source:ja" v="国土数値情報（公共施設データ）平成18年　国土交通省"/>
    <tag k="source_ref" v="http://nlftp.mlit.go.jp/ksj/jpgis/datalist/KsjTmplt-P02-v2_0.html"/>
  </node>
  <node id="1211709262" version="1" timestamp="2011-03-21T09:26:13Z" uid="171838" user="argrath" changeset="7625257" lat="38.732366" lon="141.017642">
    <tag k="amenity" v="public_building"/>
    <tag k="name" v="仙台地方検察庁築館区検察庁"/>
    <tag k="source" v="NRPB of MLIT Japan"/>
    <tag k="source:ja" v="国土数値情報（公共施設データ）平成18年　国土交通省"/>
    <tag k="source_ref" v="http://nlftp.mlit.go.jp/ksj/jpgis/datalist/KsjTmplt-P02-v2_0.html"/>
  </node>
  <node id="1211709263" version="1" timestamp="2011-03-21T09:26:13Z" uid="171838" user="argrath" changeset="7625257" lat="38.578492" lon="140.957935">
    <tag k="amenity" v="public_building"/>
    <tag k="name" v="仙台地方検察庁古川区検察庁"/>
    <tag k="source" v="NRPB of MLIT Japan"/>
    <tag k="source:ja" v="国土数値情報（公共施設データ）平成18年　国土交通省"/>
    <tag k="source_ref" v="http://nlftp.mlit.go.jp/ksj/jpgis/datalist/KsjTmplt-P02-v2_0.html"/>
  </node>
  <node id="1211709264" version="1" timestamp="2011-03-21T09:26:13Z" uid="171838" user="argrath" changeset="7625257" lat="38.578492" lon="140.957935">
    <tag k="amenity" v="public_building"/>
    <tag k="name" v="仙台地方検察庁古川支部"/>
    <tag k="source" v="NRPB of MLIT Japan"/>
    <tag k="source:ja" v="国土数値情報（公共施設データ）平成18年　国土交通省"/>
    <tag k="source_ref" v="http://nlftp.mlit.go.jp/ksj/jpgis/datalist/KsjTmplt-P02-v2_0.html"/>
  </node>
  <node id="1211709265" version="1" timestamp="2011-03-21T09:26:13Z" uid="171838" user="argrath" changeset="7625257" lat="38.04632" lon="140.733257">
    <tag k="amenity" v="public_building"/>
    <tag k="name" v="仙台地方検察庁大河原区検察庁"/>
    <tag k="source" v="NRPB of MLIT Japan"/>
    <tag k="source:ja" v="国土数値情報（公共施設データ）平成18年　国土交通省"/>
    <tag k="source_ref" v="http://nlftp.mlit.go.jp/ksj/jpgis/datalist/KsjTmplt-P02-v2_0.html"/>
  </node>
  <node id="1211709266" version="1" timestamp="2011-03-21T09:26:13Z" uid="171838" user="argrath" changeset="7625257" lat="38.04632" lon="140.733257">
    <tag k="amenity" v="public_building"/>
    <tag k="name" v="仙台地方検察庁大河原支部"/>
    <tag k="source" v="NRPB of MLIT Japan"/>
    <tag k="source:ja" v="国土数値情報（公共施設データ）平成18年　国土交通省"/>
    <tag k="source_ref" v="http://nlftp.mlit.go.jp/ksj/jpgis/datalist/KsjTmplt-P02-v2_0.html"/>
  </node>
  <node id="1211709267" version="1" timestamp="2011-03-21T09:26:14Z" uid="171838" user="argrath" changeset="7625257" lat="38.262416" lon="140.898511">
    <tag k="amenity" v="public_building"/>
    <tag k="name" v="東北公安調査局"/>
    <tag k="source" v="NRPB of MLIT Japan"/>
    <tag k="source:ja" v="国土数値情報（公共施設データ）平成18年　国土交通省"/>
    <tag k="source_ref" v="http://nlftp.mlit.go.jp/ksj/jpgis/datalist/KsjTmplt-P02-v2_0.html"/>
  </node>
  <node id="1211709268" version="1" timestamp="2011-03-21T09:26:14Z" uid="171838" user="argrath" changeset="7625257" lat="38.267692" lon="140.873513">
    <tag k="amenity" v="public_building"/>
    <tag k="name" v="財務総合政策研究所東北研修支所"/>
    <tag k="source" v="NRPB of MLIT Japan"/>
    <tag k="source:ja" v="国土数値情報（公共施設データ）平成18年　国土交通省"/>
    <tag k="source_ref" v="http://nlftp.mlit.go.jp/ksj/jpgis/datalist/KsjTmplt-P02-v2_0.html"/>
  </node>
  <node id="1211709269" version="1" timestamp="2011-03-21T09:26:14Z" uid="171838" user="argrath" changeset="7625257" lat="38.267692" lon="140.873513">
    <tag k="amenity" v="public_building"/>
    <tag k="name" v="東北財務局"/>
    <tag k="source" v="NRPB of MLIT Japan"/>
    <tag k="source:ja" v="国土数値情報（公共施設データ）平成18年　国土交通省"/>
    <tag k="source_ref" v="http://nlftp.mlit.go.jp/ksj/jpgis/datalist/KsjTmplt-P02-v2_0.html"/>
  </node>
  <node id="1211709270" version="1" timestamp="2011-03-21T09:26:14Z" uid="171838" user="argrath" changeset="7625257" lat="38.274594" lon="140.993265">
    <tag k="amenity" v="public_building"/>
    <tag k="name" v="横浜税関仙台塩釜税関支署"/>
    <tag k="source" v="NRPB of MLIT Japan"/>
    <tag k="source:ja" v="国土数値情報（公共施設データ）平成18年　国土交通省"/>
    <tag k="source_ref" v="http://nlftp.mlit.go.jp/ksj/jpgis/datalist/KsjTmplt-P02-v2_0.html"/>
  </node>
  <node id="1211709271" version="1" timestamp="2011-03-21T09:26:14Z" uid="171838" user="argrath" changeset="7625257" lat="38.420741" lon="141.268742">
    <tag k="amenity" v="public_building"/>
    <tag k="name" v="横浜税関仙台塩釜税関支署石巻出張所"/>
    <tag k="source" v="NRPB of MLIT Japan"/>
    <tag k="source:ja" v="国土数値情報（公共施設データ）平成18年　国土交通省"/>
    <tag k="source_ref" v="http://nlftp.mlit.go.jp/ksj/jpgis/datalist/KsjTmplt-P02-v2_0.html"/>
  </node>
  <node id="1211709272" version="1" timestamp="2011-03-21T09:26:14Z" uid="171838" user="argrath" changeset="7625257" lat="38.891253" lon="141.588416">
    <tag k="amenity" v="public_building"/>
    <tag k="name" v="横浜税関仙台塩釜税関支署気仙沼出張所"/>
    <tag k="source" v="NRPB of MLIT Japan"/>
    <tag k="source:ja" v="国土数値情報（公共施設データ）平成18年　国土交通省"/>
    <tag k="source_ref" v="http://nlftp.mlit.go.jp/ksj/jpgis/datalist/KsjTmplt-P02-v2_0.html"/>
  </node>
  <node id="1211709273" version="1" timestamp="2011-03-21T09:26:14Z" uid="171838" user="argrath" changeset="7625257" lat="38.138207" lon="140.930056">
    <tag k="amenity" v="public_building"/>
    <tag k="name" v="横浜税関仙台空港税関支署"/>
    <tag k="source" v="NRPB of MLIT Japan"/>
    <tag k="source:ja" v="国土数値情報（公共施設データ）平成18年　国土交通省"/>
    <tag k="source_ref" v="http://nlftp.mlit.go.jp/ksj/jpgis/datalist/KsjTmplt-P02-v2_0.html"/>
  </node>
  <node id="1211709274" version="1" timestamp="2011-03-21T09:26:15Z" uid="171838" user="argrath" changeset="7625257" lat="38.264914" lon="140.84796">
    <tag k="amenity" v="public_building"/>
    <tag k="name" v="税務大学校仙台研修所"/>
    <tag k="source" v="NRPB of MLIT Japan"/>
    <tag k="source:ja" v="国土数値情報（公共施設データ）平成18年　国土交通省"/>
    <tag k="source_ref" v="http://nlftp.mlit.go.jp/ksj/jpgis/datalist/KsjTmplt-P02-v2_0.html"/>
  </node>
  <node id="1211709275" version="1" timestamp="2011-03-21T09:26:15Z" uid="171838" user="argrath" changeset="7625257" lat="38.267692" lon="140.873513">
    <tag k="amenity" v="public_building"/>
    <tag k="name" v="仙台国税局"/>
    <tag k="source" v="NRPB of MLIT Japan"/>
    <tag k="source:ja" v="国土数値情報（公共施設データ）平成18年　国土交通省"/>
    <tag k="source_ref" v="http://nlftp.mlit.go.jp/ksj/jpgis/datalist/KsjTmplt-P02-v2_0.html"/>
  </node>
  <node id="1211709276" version="1" timestamp="2011-03-21T09:26:15Z" uid="171838" user="argrath" changeset="7625257" lat="38.270192" lon="140.87379">
    <tag k="amenity" v="public_building"/>
    <tag k="name" v="仙台国税局仙台北税務署"/>
    <tag k="source" v="NRPB of MLIT Japan"/>
    <tag k="source:ja" v="国土数値情報（公共施設データ）平成18年　国土交通省"/>
    <tag k="source_ref" v="http://nlftp.mlit.go.jp/ksj/jpgis/datalist/KsjTmplt-P02-v2_0.html"/>
  </node>
  <node id="1211709277" version="1" timestamp="2011-03-21T09:26:15Z" uid="171838" user="argrath" changeset="7625257" lat="38.267137" lon="140.873791">
    <tag k="amenity" v="public_building"/>
    <tag k="name" v="仙台国税不服審判所"/>
    <tag k="source" v="NRPB of MLIT Japan"/>
    <tag k="source:ja" v="国土数値情報（公共施設データ）平成18年　国土交通省"/>
    <tag k="source_ref" v="http://nlftp.mlit.go.jp/ksj/jpgis/datalist/KsjTmplt-P02-v2_0.html"/>
  </node>
  <node id="1211709278" version="1" timestamp="2011-03-21T09:26:15Z" uid="171838" user="argrath" changeset="7625257" lat="38.260308" lon="140.923273">
    <tag k="amenity" v="public_building"/>
    <tag k="name" v="仙台国税局仙台中税務署"/>
    <tag k="source" v="NRPB of MLIT Japan"/>
    <tag k="source:ja" v="国土数値情報（公共施設データ）平成18年　国土交通省"/>
    <tag k="source_ref" v="http://nlftp.mlit.go.jp/ksj/jpgis/datalist/KsjTmplt-P02-v2_0.html"/>
  </node>
  <node id="1211709279" version="1" timestamp="2011-03-21T09:26:15Z" uid="171838" user="argrath" changeset="7625257" lat="38.195756" lon="140.872127">
    <tag k="amenity" v="public_building"/>
    <tag k="name" v="仙台国税局仙台南税務署"/>
    <tag k="source" v="NRPB of MLIT Japan"/>
    <tag k="source:ja" v="国土数値情報（公共施設データ）平成18年　国土交通省"/>
    <tag k="source_ref" v="http://nlftp.mlit.go.jp/ksj/jpgis/datalist/KsjTmplt-P02-v2_0.html"/>
  </node>
  <node id="1211709280" version="1" timestamp="2011-03-21T09:26:15Z" uid="171838" user="argrath" changeset="7625257" lat="38.434907" lon="141.308183">
    <tag k="amenity" v="public_building"/>
    <tag k="name" v="仙台国税局石巻税務署"/>
    <tag k="source" v="NRPB of MLIT Japan"/>
    <tag k="source:ja" v="国土数値情報（公共施設データ）平成18年　国土交通省"/>
    <tag k="source_ref" v="http://nlftp.mlit.go.jp/ksj/jpgis/datalist/KsjTmplt-P02-v2_0.html"/>
  </node>
  <node id="1211709282" version="1" timestamp="2011-03-21T09:26:16Z" uid="171838" user="argrath" changeset="7625257" lat="38.313804" lon="141.022663">
    <tag k="amenity" v="public_building"/>
    <tag k="name" v="仙台国税局塩釜税務署"/>
    <tag k="source" v="NRPB of MLIT Japan"/>
    <tag k="source:ja" v="国土数値情報（公共施設データ）平成18年　国土交通省"/>
    <tag k="source_ref" v="http://nlftp.mlit.go.jp/ksj/jpgis/datalist/KsjTmplt-P02-v2_0.html"/>
  </node>
  <node id="1211709283" version="1" timestamp="2011-03-21T09:26:16Z" uid="171838" user="argrath" changeset="7625257" lat="38.910139" lon="141.556473">
    <tag k="amenity" v="public_building"/>
    <tag k="name" v="仙台国税局気仙沼税務署"/>
    <tag k="source" v="NRPB of MLIT Japan"/>
    <tag k="source:ja" v="国土数値情報（公共施設データ）平成18年　国土交通省"/>
    <tag k="source_ref" v="http://nlftp.mlit.go.jp/ksj/jpgis/datalist/KsjTmplt-P02-v2_0.html"/>
  </node>
  <node id="1211709284" version="1" timestamp="2011-03-21T09:26:16Z" uid="171838" user="argrath" changeset="7625257" lat="38.693486" lon="141.188736">
    <tag k="amenity" v="public_building"/>
    <tag k="name" v="仙台国税局佐沼税務署"/>
    <tag k="source" v="NRPB of MLIT Japan"/>
    <tag k="source:ja" v="国土数値情報（公共施設データ）平成18年　国土交通省"/>
    <tag k="source_ref" v="http://nlftp.mlit.go.jp/ksj/jpgis/datalist/KsjTmplt-P02-v2_0.html"/>
  </node>
  <node id="1211709285" version="1" timestamp="2011-03-21T09:26:16Z" uid="171838" user="argrath" changeset="7625257" lat="38.731255" lon="141.02653">
    <tag k="amenity" v="public_building"/>
    <tag k="name" v="仙台国税局築館税務署"/>
    <tag k="source" v="NRPB of MLIT Japan"/>
    <tag k="source:ja" v="国土数値情報（公共施設データ）平成18年　国土交通省"/>
    <tag k="source_ref" v="http://nlftp.mlit.go.jp/ksj/jpgis/datalist/KsjTmplt-P02-v2_0.html"/>
  </node>
  <node id="1211709286" version="1" timestamp="2011-03-21T09:26:16Z" uid="171838" user="argrath" changeset="7625257" lat="38.565483" lon="140.978136">
    <tag k="amenity" v="public_building"/>
    <tag k="name" v="仙台国税局古川税務署"/>
    <tag k="source" v="NRPB of MLIT Japan"/>
    <tag k="source:ja" v="国土数値情報（公共施設データ）平成18年　国土交通省"/>
    <tag k="source_ref" v="http://nlftp.mlit.go.jp/ksj/jpgis/datalist/KsjTmplt-P02-v2_0.html"/>
  </node>
  <node id="1211709287" version="1" timestamp="2011-03-21T09:26:17Z" uid="171838" user="argrath" changeset="7625257" lat="38.050765" lon="140.739367">
    <tag k="amenity" v="public_building"/>
    <tag k="name" v="仙台国税局大河原税務署"/>
    <tag k="source" v="NRPB of MLIT Japan"/>
    <tag k="source:ja" v="国土数値情報（公共施設データ）平成18年　国土交通省"/>
    <tag k="source_ref" v="http://nlftp.mlit.go.jp/ksj/jpgis/datalist/KsjTmplt-P02-v2_0.html"/>
  </node>
  <node id="1211709288" version="1" timestamp="2011-03-21T09:26:17Z" uid="171838" user="argrath" changeset="7625257" lat="38.265526" lon="140.880371">
    <tag k="amenity" v="public_building"/>
    <tag k="name" v="東北厚生局"/>
    <tag k="source" v="NRPB of MLIT Japan"/>
    <tag k="source:ja" v="国土数値情報（公共施設データ）平成18年　国土交通省"/>
    <tag k="source_ref" v="http://nlftp.mlit.go.jp/ksj/jpgis/datalist/KsjTmplt-P02-v2_0.html"/>
  </node>
  <node id="1211709289" version="1" timestamp="2011-03-21T09:26:17Z" uid="171838" user="argrath" changeset="7625257" lat="38.262694" lon="140.896011">
    <tag k="amenity" v="public_building"/>
    <tag k="name" v="宮城労働局"/>
    <tag k="source" v="NRPB of MLIT Japan"/>
    <tag k="source:ja" v="国土数値情報（公共施設データ）平成18年　国土交通省"/>
    <tag k="source_ref" v="http://nlftp.mlit.go.jp/ksj/jpgis/datalist/KsjTmplt-P02-v2_0.html"/>
  </node>
  <node id="1211709290" version="1" timestamp="2011-03-21T09:26:17Z" uid="171838" user="argrath" changeset="7625257" lat="38.262694" lon="140.896011">
    <tag k="amenity" v="public_building"/>
    <tag k="name" v="宮城労働局仙台労働基準監督署"/>
    <tag k="source" v="NRPB of MLIT Japan"/>
    <tag k="source:ja" v="国土数値情報（公共施設データ）平成18年　国土交通省"/>
    <tag k="source_ref" v="http://nlftp.mlit.go.jp/ksj/jpgis/datalist/KsjTmplt-P02-v2_0.html"/>
  </node>
  <node id="1211709291" version="1" timestamp="2011-03-21T09:26:17Z" uid="171838" user="argrath" changeset="7625257" lat="38.259092" lon="140.887974">
    <tag k="amenity" v="public_building"/>
    <tag k="name" v="仙台公共職業安定所"/>
    <tag k="source" v="NRPB of MLIT Japan"/>
    <tag k="source:ja" v="国土数値情報（公共施設データ）平成18年　国土交通省"/>
    <tag k="source_ref" v="http://nlftp.mlit.go.jp/ksj/jpgis/datalist/KsjTmplt-P02-v2_0.html"/>
  </node>
  <node id="1211709292" version="1" timestamp="2011-03-21T09:26:17Z" uid="171838" user="argrath" changeset="7625257" lat="38.427963" lon="141.299017">
    <tag k="amenity" v="public_building"/>
    <tag k="name" v="宮城労働局石巻労働基準監督署"/>
    <tag k="source" v="NRPB of MLIT Japan"/>
    <tag k="source:ja" v="国土数値情報（公共施設データ）平成18年　国土交通省"/>
    <tag k="source_ref" v="http://nlftp.mlit.go.jp/ksj/jpgis/datalist/KsjTmplt-P02-v2_0.html"/>
  </node>
  <node id="1211709293" version="1" timestamp="2011-03-21T09:26:18Z" uid="171838" user="argrath" changeset="7625257" lat="38.427963" lon="141.299295">
    <tag k="amenity" v="public_building"/>
    <tag k="name" v="石巻公共職業安定所"/>
    <tag k="source" v="NRPB of MLIT Japan"/>
    <tag k="source:ja" v="国土数値情報（公共施設データ）平成18年　国土交通省"/>
    <tag k="source_ref" v="http://nlftp.mlit.go.jp/ksj/jpgis/datalist/KsjTmplt-P02-v2_0.html"/>
  </node>
  <node id="1211709294" version="1" timestamp="2011-03-21T09:26:18Z" uid="171838" user="argrath" changeset="7625257" lat="38.332413" lon="141.04516">
    <tag k="amenity" v="public_building"/>
    <tag k="name" v="塩釜公共職業安定所"/>
    <tag k="source" v="NRPB of MLIT Japan"/>
    <tag k="source:ja" v="国土数値情報（公共施設データ）平成18年　国土交通省"/>
    <tag k="source_ref" v="http://nlftp.mlit.go.jp/ksj/jpgis/datalist/KsjTmplt-P02-v2_0.html"/>
  </node>
  <node id="1211709295" version="1" timestamp="2011-03-21T09:26:18Z" uid="171838" user="argrath" changeset="7625257" lat="38.315193" lon="141.035995">
    <tag k="amenity" v="public_building"/>
    <tag k="name" v="仙台検疫所"/>
    <tag k="source" v="NRPB of MLIT Japan"/>
    <tag k="source:ja" v="国土数値情報（公共施設データ）平成18年　国土交通省"/>
    <tag k="source_ref" v="http://nlftp.mlit.go.jp/ksj/jpgis/datalist/KsjTmplt-P02-v2_0.html"/>
  </node>
  <node id="1211709296" version="1" timestamp="2011-03-21T09:26:18Z" uid="171838" user="argrath" changeset="7625257" lat="38.891253" lon="141.588416">
    <tag k="amenity" v="public_building"/>
    <tag k="name" v="気仙沼公共職業安定所"/>
    <tag k="source" v="NRPB of MLIT Japan"/>
    <tag k="source:ja" v="国土数値情報（公共施設データ）平成18年　国土交通省"/>
    <tag k="source_ref" v="http://nlftp.mlit.go.jp/ksj/jpgis/datalist/KsjTmplt-P02-v2_0.html"/>
  </node>
  <node id="1211709297" version="1" timestamp="2011-03-21T09:26:18Z" uid="171838" user="argrath" changeset="7625257" lat="38.891253" lon="141.588416">
    <tag k="amenity" v="public_building"/>
    <tag k="name" v="宮城労働局気仙沼労働基準監督署"/>
    <tag k="source" v="NRPB of MLIT Japan"/>
    <tag k="source:ja" v="国土数値情報（公共施設データ）平成18年　国土交通省"/>
    <tag k="source_ref" v="http://nlftp.mlit.go.jp/ksj/jpgis/datalist/KsjTmplt-P02-v2_0.html"/>
  </node>
  <node id="1211709298" version="1" timestamp="2011-03-21T09:26:19Z" uid="171838" user="argrath" changeset="7625257" lat="38.001044" lon="140.627157">
    <tag k="amenity" v="public_building"/>
    <tag k="name" v="白石公共職業安定所"/>
    <tag k="source" v="NRPB of MLIT Japan"/>
    <tag k="source:ja" v="国土数値情報（公共施設データ）平成18年　国土交通省"/>
    <tag k="source_ref" v="http://nlftp.mlit.go.jp/ksj/jpgis/datalist/KsjTmplt-P02-v2_0.html"/>
  </node>
  <node id="1211709299" version="1" timestamp="2011-03-21T09:26:19Z" uid="171838" user="argrath" changeset="7625257" lat="38.138264" lon="140.929904">
    <tag k="amenity" v="public_building"/>
    <tag k="name" v="仙台検疫所仙台空港検疫所支所"/>
    <tag k="source" v="NRPB of MLIT Japan"/>
    <tag k="source:ja" v="国土数値情報（公共施設データ）平成18年　国土交通省"/>
    <tag k="source_ref" v="http://nlftp.mlit.go.jp/ksj/jpgis/datalist/KsjTmplt-P02-v2_0.html"/>
  </node>
  <node id="1211709300" version="1" timestamp="2011-03-21T09:26:19Z" uid="171838" user="argrath" changeset="7625257" lat="38.682381" lon="141.062272">
    <tag k="amenity" v="public_building"/>
    <tag k="name" v="国立療養所東北新生園"/>
    <tag k="source" v="NRPB of MLIT Japan"/>
    <tag k="source:ja" v="国土数値情報（公共施設データ）平成18年　国土交通省"/>
    <tag k="source_ref" v="http://nlftp.mlit.go.jp/ksj/jpgis/datalist/KsjTmplt-P02-v2_0.html"/>
  </node>
  <node id="1211709301" version="1" timestamp="2011-03-21T09:26:19Z" uid="171838" user="argrath" changeset="7625257" lat="38.692931" lon="141.196236">
    <tag k="amenity" v="public_building"/>
    <tag k="name" v="迫公共職業安定所"/>
    <tag k="source" v="NRPB of MLIT Japan"/>
    <tag k="source:ja" v="国土数値情報（公共施設データ）平成18年　国土交通省"/>
    <tag k="source_ref" v="http://nlftp.mlit.go.jp/ksj/jpgis/datalist/KsjTmplt-P02-v2_0.html"/>
  </node>
  <node id="1211709302" version="1" timestamp="2011-03-21T09:26:19Z" uid="171838" user="argrath" changeset="7625257" lat="38.652931" lon="141.072639">
    <tag k="amenity" v="public_building"/>
    <tag k="name" v="宮城労働局瀬峰労働基準監督署"/>
    <tag k="source" v="NRPB of MLIT Japan"/>
    <tag k="source:ja" v="国土数値情報（公共施設データ）平成18年　国土交通省"/>
    <tag k="source_ref" v="http://nlftp.mlit.go.jp/ksj/jpgis/datalist/KsjTmplt-P02-v2_0.html"/>
  </node>
  <node id="1211709303" version="1" timestamp="2011-03-21T09:26:19Z" uid="171838" user="argrath" changeset="7625257" lat="38.732366" lon="141.017642">
    <tag k="amenity" v="public_building"/>
    <tag k="name" v="築館公共職業安定所"/>
    <tag k="source" v="NRPB of MLIT Japan"/>
    <tag k="source:ja" v="国土数値情報（公共施設データ）平成18年　国土交通省"/>
    <tag k="source_ref" v="http://nlftp.mlit.go.jp/ksj/jpgis/datalist/KsjTmplt-P02-v2_0.html"/>
  </node>
  <node id="1211709304" version="1" timestamp="2011-03-21T09:26:20Z" uid="171838" user="argrath" changeset="7625257" lat="38.567939" lon="140.969601">
    <tag k="amenity" v="public_building"/>
    <tag k="name" v="宮城労働局古川労働基準監督署"/>
    <tag k="source" v="NRPB of MLIT Japan"/>
    <tag k="source:ja" v="国土数値情報（公共施設データ）平成18年　国土交通省"/>
    <tag k="source_ref" v="http://nlftp.mlit.go.jp/ksj/jpgis/datalist/KsjTmplt-P02-v2_0.html"/>
  </node>
  <node id="1211709305" version="1" timestamp="2011-03-21T09:26:20Z" uid="171838" user="argrath" changeset="7625257" lat="38.5665" lon="140.966176">
    <tag k="amenity" v="public_building"/>
    <tag k="name" v="古川公共職業安定所"/>
    <tag k="source" v="NRPB of MLIT Japan"/>
    <tag k="source:ja" v="国土数値情報（公共施設データ）平成18年　国土交通省"/>
    <tag k="source_ref" v="http://nlftp.mlit.go.jp/ksj/jpgis/datalist/KsjTmplt-P02-v2_0.html"/>
  </node>
  <node id="1211709306" version="1" timestamp="2011-03-21T09:26:20Z" uid="171838" user="argrath" changeset="7625257" lat="38.055764" lon="140.732701">
    <tag k="amenity" v="public_building"/>
    <tag k="name" v="宮城労働局大河原労働基準監督署"/>
    <tag k="source" v="NRPB of MLIT Japan"/>
    <tag k="source:ja" v="国土数値情報（公共施設データ）平成18年　国土交通省"/>
    <tag k="source_ref" v="http://nlftp.mlit.go.jp/ksj/jpgis/datalist/KsjTmplt-P02-v2_0.html"/>
  </node>
  <node id="1211709307" version="1" timestamp="2011-03-21T09:26:20Z" uid="171838" user="argrath" changeset="7625257" lat="38.052432" lon="140.748533">
    <tag k="amenity" v="public_building"/>
    <tag k="name" v="大河原公共職業安定所"/>
    <tag k="source" v="NRPB of MLIT Japan"/>
    <tag k="source:ja" v="国土数値情報（公共施設データ）平成18年　国土交通省"/>
    <tag k="source_ref" v="http://nlftp.mlit.go.jp/ksj/jpgis/datalist/KsjTmplt-P02-v2_0.html"/>
  </node>
  <node id="1211709308" version="1" timestamp="2011-03-21T09:26:20Z" uid="171838" user="argrath" changeset="7625257" lat="38.265526" lon="140.880371">
    <tag k="amenity" v="public_building"/>
    <tag k="name" v="宮城社会保険事務局"/>
    <tag k="source" v="NRPB of MLIT Japan"/>
    <tag k="source:ja" v="国土数値情報（公共施設データ）平成18年　国土交通省"/>
    <tag k="source_ref" v="http://nlftp.mlit.go.jp/ksj/jpgis/datalist/KsjTmplt-P02-v2_0.html"/>
  </node>
  <node id="1211709309" version="1" timestamp="2011-03-21T09:26:21Z" uid="171838" user="argrath" changeset="7625257" lat="38.275981" lon="140.880464">
    <tag k="amenity" v="public_building"/>
    <tag k="name" v="仙台北社会保険事務所"/>
    <tag k="source" v="NRPB of MLIT Japan"/>
    <tag k="source:ja" v="国土数値情報（公共施設データ）平成18年　国土交通省"/>
    <tag k="source_ref" v="http://nlftp.mlit.go.jp/ksj/jpgis/datalist/KsjTmplt-P02-v2_0.html"/>
  </node>
  <node id="1211709310" version="1" timestamp="2011-03-21T09:26:21Z" uid="171838" user="argrath" changeset="7625257" lat="38.259367" lon="140.909037">
    <tag k="amenity" v="public_building"/>
    <tag k="name" v="仙台東社会保険事務所"/>
    <tag k="source" v="NRPB of MLIT Japan"/>
    <tag k="source:ja" v="国土数値情報（公共施設データ）平成18年　国土交通省"/>
    <tag k="source_ref" v="http://nlftp.mlit.go.jp/ksj/jpgis/datalist/KsjTmplt-P02-v2_0.html"/>
  </node>
  <node id="1211709311" version="1" timestamp="2011-03-21T09:26:21Z" uid="171838" user="argrath" changeset="7625257" lat="38.224692" lon="140.879733">
    <tag k="amenity" v="public_building"/>
    <tag k="name" v="仙台南社会保険事務所"/>
    <tag k="source" v="NRPB of MLIT Japan"/>
    <tag k="source:ja" v="国土数値情報（公共施設データ）平成18年　国土交通省"/>
    <tag k="source_ref" v="http://nlftp.mlit.go.jp/ksj/jpgis/datalist/KsjTmplt-P02-v2_0.html"/>
  </node>
  <node id="1211709312" version="1" timestamp="2011-03-21T09:26:21Z" uid="171838" user="argrath" changeset="7625257" lat="38.442632" lon="141.294564">
    <tag k="amenity" v="public_building"/>
    <tag k="name" v="石巻社会保険事務所"/>
    <tag k="source" v="NRPB of MLIT Japan"/>
    <tag k="source:ja" v="国土数値情報（公共施設データ）平成18年　国土交通省"/>
    <tag k="source_ref" v="http://nlftp.mlit.go.jp/ksj/jpgis/datalist/KsjTmplt-P02-v2_0.html"/>
  </node>
  <node id="1211709313" version="1" timestamp="2011-03-21T09:26:21Z" uid="171838" user="argrath" changeset="7625257" lat="38.567941" lon="140.968537">
    <tag k="amenity" v="public_building"/>
    <tag k="name" v="古川社会保険事務所"/>
    <tag k="source" v="NRPB of MLIT Japan"/>
    <tag k="source:ja" v="国土数値情報（公共施設データ）平成18年　国土交通省"/>
    <tag k="source_ref" v="http://nlftp.mlit.go.jp/ksj/jpgis/datalist/KsjTmplt-P02-v2_0.html"/>
  </node>
  <node id="1211709314" version="1" timestamp="2011-03-21T09:26:21Z" uid="171838" user="argrath" changeset="7625257" lat="38.048648" lon="140.729823">
    <tag k="amenity" v="public_building"/>
    <tag k="name" v="宮城社会保険事務局大河原事務所"/>
    <tag k="source" v="NRPB of MLIT Japan"/>
    <tag k="source:ja" v="国土数値情報（公共施設データ）平成18年　国土交通省"/>
    <tag k="source_ref" v="http://nlftp.mlit.go.jp/ksj/jpgis/datalist/KsjTmplt-P02-v2_0.html"/>
  </node>
  <node id="1211709315" version="1" timestamp="2011-03-21T09:26:22Z" uid="171838" user="argrath" changeset="7625257" lat="38.267137" lon="140.873791">
    <tag k="amenity" v="public_building"/>
    <tag k="name" v="中央労働委員会東北地方事務所"/>
    <tag k="source" v="NRPB of MLIT Japan"/>
    <tag k="source:ja" v="国土数値情報（公共施設データ）平成18年　国土交通省"/>
    <tag k="source_ref" v="http://nlftp.mlit.go.jp/ksj/jpgis/datalist/KsjTmplt-P02-v2_0.html"/>
  </node>
  <node id="1211709316" version="1" timestamp="2011-03-21T09:26:22Z" uid="171838" user="argrath" changeset="7625257" lat="38.267692" lon="140.873513">
    <tag k="amenity" v="public_building"/>
    <tag k="name" v="東北農政局"/>
    <tag k="source" v="NRPB of MLIT Japan"/>
    <tag k="source:ja" v="国土数値情報（公共施設データ）平成18年　国土交通省"/>
    <tag k="source_ref" v="http://nlftp.mlit.go.jp/ksj/jpgis/datalist/KsjTmplt-P02-v2_0.html"/>
  </node>
  <node id="1211709317" version="1" timestamp="2011-03-21T09:26:22Z" uid="171838" user="argrath" changeset="7625257" lat="38.277693" lon="140.923785">
    <tag k="amenity" v="public_building"/>
    <tag k="name" v="東北農政局消費・安全部地域第一課食糧部"/>
    <tag k="source" v="NRPB of MLIT Japan"/>
    <tag k="source:ja" v="国土数値情報（公共施設データ）平成18年　国土交通省"/>
    <tag k="source_ref" v="http://nlftp.mlit.go.jp/ksj/jpgis/datalist/KsjTmplt-P02-v2_0.html"/>
  </node>
  <node id="1211709318" version="1" timestamp="2011-03-21T09:26:22Z" uid="171838" user="argrath" changeset="7625257" lat="38.262416" lon="140.897677">
    <tag k="amenity" v="public_building"/>
    <tag k="name" v="東北農政局仙台統計・情報センター"/>
    <tag k="source" v="NRPB of MLIT Japan"/>
    <tag k="source:ja" v="国土数値情報（公共施設データ）平成18年　国土交通省"/>
    <tag k="source_ref" v="http://nlftp.mlit.go.jp/ksj/jpgis/datalist/KsjTmplt-P02-v2_0.html"/>
  </node>
  <node id="1211709319" version="1" timestamp="2011-03-21T09:26:22Z" uid="171838" user="argrath" changeset="7625257" lat="38.27797" lon="140.902953">
    <tag k="amenity" v="public_building"/>
    <tag k="name" v="東北農政局土地改良技術事務所"/>
    <tag k="source" v="NRPB of MLIT Japan"/>
    <tag k="source:ja" v="国土数値情報（公共施設データ）平成18年　国土交通省"/>
    <tag k="source_ref" v="http://nlftp.mlit.go.jp/ksj/jpgis/datalist/KsjTmplt-P02-v2_0.html"/>
  </node>
  <node id="1211709320" version="1" timestamp="2011-03-21T09:26:22Z" uid="171838" user="argrath" changeset="7625257" lat="38.420741" lon="141.268742">
    <tag k="amenity" v="public_building"/>
    <tag k="name" v="横浜植物防疫所塩釜支所石巻出張所"/>
    <tag k="source" v="NRPB of MLIT Japan"/>
    <tag k="source:ja" v="国土数値情報（公共施設データ）平成18年　国土交通省"/>
    <tag k="source_ref" v="http://nlftp.mlit.go.jp/ksj/jpgis/datalist/KsjTmplt-P02-v2_0.html"/>
  </node>
  <node id="1211709321" version="1" timestamp="2011-03-21T09:26:23Z" uid="171838" user="argrath" changeset="7625257" lat="38.436296" lon="141.300684">
    <tag k="amenity" v="public_building"/>
    <tag k="name" v="東北農政局消費・安全部地域第二課"/>
    <tag k="source" v="NRPB of MLIT Japan"/>
    <tag k="source:ja" v="国土数値情報（公共施設データ）平成18年　国土交通省"/>
    <tag k="source_ref" v="http://nlftp.mlit.go.jp/ksj/jpgis/datalist/KsjTmplt-P02-v2_0.html"/>
  </node>
  <node id="1211709345" version="1" timestamp="2011-03-21T09:26:25Z" uid="171838" user="argrath" changeset="7625258" lat="38.427963" lon="141.299017">
    <tag k="amenity" v="public_building"/>
    <tag k="name" v="東北農政局石巻統計・情報センター"/>
    <tag k="source" v="NRPB of MLIT Japan"/>
    <tag k="source:ja" v="国土数値情報（公共施設データ）平成18年　国土交通省"/>
    <tag k="source_ref" v="http://nlftp.mlit.go.jp/ksj/jpgis/datalist/KsjTmplt-P02-v2_0.html"/>
  </node>
  <node id="1211709355" version="1" timestamp="2011-03-21T09:26:25Z" uid="171838" user="argrath" changeset="7625258" lat="38.315193" lon="141.035995">
    <tag k="amenity" v="public_building"/>
    <tag k="name" v="横浜植物防疫所塩釜支所"/>
    <tag k="source" v="NRPB of MLIT Japan"/>
    <tag k="source:ja" v="国土数値情報（公共施設データ）平成18年　国土交通省"/>
    <tag k="source_ref" v="http://nlftp.mlit.go.jp/ksj/jpgis/datalist/KsjTmplt-P02-v2_0.html"/>
  </node>
  <node id="1211709356" version="1" timestamp="2011-03-21T09:26:25Z" uid="171838" user="argrath" changeset="7625258" lat="38.896807" lon="141.568695">
    <tag k="amenity" v="public_building"/>
    <tag k="name" v="東北農政局石巻統計・情報センター気仙沼庁舎"/>
    <tag k="source" v="NRPB of MLIT Japan"/>
    <tag k="source:ja" v="国土数値情報（公共施設データ）平成18年　国土交通省"/>
    <tag k="source_ref" v="http://nlftp.mlit.go.jp/ksj/jpgis/datalist/KsjTmplt-P02-v2_0.html"/>
  </node>
  <node id="1211709358" version="1" timestamp="2011-03-21T09:26:25Z" uid="171838" user="argrath" changeset="7625258" lat="38.138207" lon="140.930056">
    <tag k="amenity" v="public_building"/>
    <tag k="name" v="動物検疫所仙台空港出張所"/>
    <tag k="source" v="NRPB of MLIT Japan"/>
    <tag k="source:ja" v="国土数値情報（公共施設データ）平成18年　国土交通省"/>
    <tag k="source_ref" v="http://nlftp.mlit.go.jp/ksj/jpgis/datalist/KsjTmplt-P02-v2_0.html"/>
  </node>
  <node id="1211709361" version="1" timestamp="2011-03-21T09:26:25Z" uid="171838" user="argrath" changeset="7625258" lat="38.681265" lon="141.202903">
    <tag k="amenity" v="public_building"/>
    <tag k="name" v="東北農政局消費・安全部地域第四課"/>
    <tag k="source" v="NRPB of MLIT Japan"/>
    <tag k="source:ja" v="国土数値情報（公共施設データ）平成18年　国土交通省"/>
    <tag k="source_ref" v="http://nlftp.mlit.go.jp/ksj/jpgis/datalist/KsjTmplt-P02-v2_0.html"/>
  </node>
  <node id="1211709368" version="1" timestamp="2011-03-21T09:26:26Z" uid="171838" user="argrath" changeset="7625258" lat="38.732367" lon="141.037084">
    <tag k="amenity" v="public_building"/>
    <tag k="name" v="東北農政局栗原統計・情報センター"/>
    <tag k="source" v="NRPB of MLIT Japan"/>
    <tag k="source:ja" v="国土数値情報（公共施設データ）平成18年　国土交通省"/>
    <tag k="source_ref" v="http://nlftp.mlit.go.jp/ksj/jpgis/datalist/KsjTmplt-P02-v2_0.html"/>
  </node>
  <node id="1211709371" version="1" timestamp="2011-03-21T09:26:26Z" uid="171838" user="argrath" changeset="7625258" lat="38.573073" lon="140.951572">
    <tag k="amenity" v="public_building"/>
    <tag k="name" v="東北農政局消費・安全部地域第二課"/>
    <tag k="source" v="NRPB of MLIT Japan"/>
    <tag k="source:ja" v="国土数値情報（公共施設データ）平成18年　国土交通省"/>
    <tag k="source_ref" v="http://nlftp.mlit.go.jp/ksj/jpgis/datalist/KsjTmplt-P02-v2_0.html"/>
  </node>
  <node id="1211709374" version="1" timestamp="2011-03-21T09:26:26Z" uid="171838" user="argrath" changeset="7625258" lat="38.5665" lon="140.966176">
    <tag k="amenity" v="public_building"/>
    <tag k="name" v="東北農政局大崎統計・情報センター"/>
    <tag k="source" v="NRPB of MLIT Japan"/>
    <tag k="source:ja" v="国土数値情報（公共施設データ）平成18年　国土交通省"/>
    <tag k="source_ref" v="http://nlftp.mlit.go.jp/ksj/jpgis/datalist/KsjTmplt-P02-v2_0.html"/>
  </node>
  <node id="1211709377" version="1" timestamp="2011-03-21T09:26:26Z" uid="171838" user="argrath" changeset="7625258" lat="38.564328" lon="140.966546">
    <tag k="amenity" v="public_building"/>
    <tag k="name" v="東北農政局大崎農業水利事業所"/>
    <tag k="source" v="NRPB of MLIT Japan"/>
    <tag k="source:ja" v="国土数値情報（公共施設データ）平成18年　国土交通省"/>
    <tag k="source_ref" v="http://nlftp.mlit.go.jp/ksj/jpgis/datalist/KsjTmplt-P02-v2_0.html"/>
  </node>
  <node id="1211709381" version="1" timestamp="2011-03-21T09:26:26Z" uid="171838" user="argrath" changeset="7625258" lat="38.745494" lon="140.73677">
    <tag k="amenity" v="public_building"/>
    <tag k="name" v="東北農政局大崎農業水利事務所大崎上流農業水利事業建設所"/>
    <tag k="source" v="NRPB of MLIT Japan"/>
    <tag k="source:ja" v="国土数値情報（公共施設データ）平成18年　国土交通省"/>
    <tag k="source_ref" v="http://nlftp.mlit.go.jp/ksj/jpgis/datalist/KsjTmplt-P02-v2_0.html"/>
  </node>
  <node id="1211709384" version="1" timestamp="2011-03-21T09:26:26Z" uid="171838" user="argrath" changeset="7625258" lat="38.042432" lon="140.740201">
    <tag k="amenity" v="public_building"/>
    <tag k="name" v="東北農政局消費・安全部地域第三課"/>
    <tag k="source" v="NRPB of MLIT Japan"/>
    <tag k="source:ja" v="国土数値情報（公共施設データ）平成18年　国土交通省"/>
    <tag k="source_ref" v="http://nlftp.mlit.go.jp/ksj/jpgis/datalist/KsjTmplt-P02-v2_0.html"/>
  </node>
  <node id="1211709388" version="1" timestamp="2011-03-21T09:26:26Z" uid="171838" user="argrath" changeset="7625258" lat="38.044377" lon="140.7477">
    <tag k="amenity" v="public_building"/>
    <tag k="name" v="東北農政局大河原統計・情報センター"/>
    <tag k="source" v="NRPB of MLIT Japan"/>
    <tag k="source:ja" v="国土数値情報（公共施設データ）平成18年　国土交通省"/>
    <tag k="source_ref" v="http://nlftp.mlit.go.jp/ksj/jpgis/datalist/KsjTmplt-P02-v2_0.html"/>
  </node>
  <node id="1211709391" version="1" timestamp="2011-03-21T09:26:27Z" uid="171838" user="argrath" changeset="7625258" lat="38.281025" lon="140.884344">
    <tag k="amenity" v="public_building"/>
    <tag k="name" v="東北森林管理局仙台森林管理署"/>
    <tag k="source" v="NRPB of MLIT Japan"/>
    <tag k="source:ja" v="国土数値情報（公共施設データ）平成18年　国土交通省"/>
    <tag k="source_ref" v="http://nlftp.mlit.go.jp/ksj/jpgis/datalist/KsjTmplt-P02-v2_0.html"/>
  </node>
  <node id="1211709393" version="1" timestamp="2011-03-21T09:26:27Z" uid="171838" user="argrath" changeset="7625258" lat="38.57516" lon="140.964323">
    <tag k="amenity" v="public_building"/>
    <tag k="name" v="東北森林管理局宮城北部森林管理署"/>
    <tag k="source" v="NRPB of MLIT Japan"/>
    <tag k="source:ja" v="国土数値情報（公共施設データ）平成18年　国土交通省"/>
    <tag k="source_ref" v="http://nlftp.mlit.go.jp/ksj/jpgis/datalist/KsjTmplt-P02-v2_0.html"/>
  </node>
  <node id="1211709394" version="1" timestamp="2011-03-21T09:26:27Z" uid="171838" user="argrath" changeset="7625258" lat="38.262416" lon="140.897677">
    <tag k="amenity" v="public_building"/>
    <tag k="name" v="仙台漁業調整事務所"/>
    <tag k="source" v="NRPB of MLIT Japan"/>
    <tag k="source:ja" v="国土数値情報（公共施設データ）平成18年　国土交通省"/>
    <tag k="source_ref" v="http://nlftp.mlit.go.jp/ksj/jpgis/datalist/KsjTmplt-P02-v2_0.html"/>
  </node>
  <node id="1211709397" version="1" timestamp="2011-03-21T09:26:27Z" uid="171838" user="argrath" changeset="7625258" lat="38.334636" lon="141.050715">
    <tag k="amenity" v="public_building"/>
    <tag k="name" v="東北区水産研究所"/>
    <tag k="source" v="NRPB of MLIT Japan"/>
    <tag k="source:ja" v="国土数値情報（公共施設データ）平成18年　国土交通省"/>
    <tag k="source_ref" v="http://nlftp.mlit.go.jp/ksj/jpgis/datalist/KsjTmplt-P02-v2_0.html"/>
  </node>
  <node id="1211709401" version="1" timestamp="2011-03-21T09:26:27Z" uid="171838" user="argrath" changeset="7625258" lat="38.267692" lon="140.873513">
    <tag k="amenity" v="public_building"/>
    <tag k="name" v="東北経済産業局"/>
    <tag k="source" v="NRPB of MLIT Japan"/>
    <tag k="source:ja" v="国土数値情報（公共施設データ）平成18年　国土交通省"/>
    <tag k="source_ref" v="http://nlftp.mlit.go.jp/ksj/jpgis/datalist/KsjTmplt-P02-v2_0.html"/>
  </node>
  <node id="1211709406" version="1" timestamp="2011-03-21T09:26:27Z" uid="171838" user="argrath" changeset="7625258" lat="38.267137" lon="140.873791">
    <tag k="amenity" v="public_building"/>
    <tag k="name" v="関東東北産業保安監督部東北支部"/>
    <tag k="source" v="NRPB of MLIT Japan"/>
    <tag k="source:ja" v="国土数値情報（公共施設データ）平成18年　国土交通省"/>
    <tag k="source_ref" v="http://nlftp.mlit.go.jp/ksj/jpgis/datalist/KsjTmplt-P02-v2_0.html"/>
  </node>
  <node id="1211709407" version="1" timestamp="2011-03-21T09:26:27Z" uid="171838" user="argrath" changeset="7625258" lat="38.265526" lon="140.880371">
    <tag k="amenity" v="public_building"/>
    <tag k="name" v="東北地方整備局"/>
    <tag k="source" v="NRPB of MLIT Japan"/>
    <tag k="source:ja" v="国土数値情報（公共施設データ）平成18年　国土交通省"/>
    <tag k="source_ref" v="http://nlftp.mlit.go.jp/ksj/jpgis/datalist/KsjTmplt-P02-v2_0.html"/>
  </node>
  <node id="1211709410" version="1" timestamp="2011-03-21T09:26:27Z" uid="171838" user="argrath" changeset="7625258" lat="38.269914" lon="140.865736">
    <tag k="amenity" v="public_building"/>
    <tag k="name" v="東北地方整備局"/>
    <tag k="source" v="NRPB of MLIT Japan"/>
    <tag k="source:ja" v="国土数値情報（公共施設データ）平成18年　国土交通省"/>
    <tag k="source_ref" v="http://nlftp.mlit.go.jp/ksj/jpgis/datalist/KsjTmplt-P02-v2_0.html"/>
  </node>
  <node id="1211709413" version="1" timestamp="2011-03-21T09:26:28Z" uid="171838" user="argrath" changeset="7625258" lat="38.262416" lon="140.897677">
    <tag k="amenity" v="public_building"/>
    <tag k="name" v="国土地理院東北地方測量部"/>
    <tag k="source" v="NRPB of MLIT Japan"/>
    <tag k="source:ja" v="国土数値情報（公共施設データ）平成18年　国土交通省"/>
    <tag k="source_ref" v="http://nlftp.mlit.go.jp/ksj/jpgis/datalist/KsjTmplt-P02-v2_0.html"/>
  </node>
  <node id="1211709421" version="1" timestamp="2011-03-21T09:26:28Z" uid="171838" user="argrath" changeset="7625258" lat="38.262694" lon="140.896011">
    <tag k="amenity" v="public_building"/>
    <tag k="name" v="東北運輸局"/>
    <tag k="source" v="NRPB of MLIT Japan"/>
    <tag k="source:ja" v="国土数値情報（公共施設データ）平成18年　国土交通省"/>
    <tag k="source_ref" v="http://nlftp.mlit.go.jp/ksj/jpgis/datalist/KsjTmplt-P02-v2_0.html"/>
  </node>
  <node id="1211709426" version="1" timestamp="2011-03-21T09:26:28Z" uid="171838" user="argrath" changeset="7625258" lat="38.263528" lon="140.946006">
    <tag k="amenity" v="public_building"/>
    <tag k="name" v="東北運輸局宮城運輸支局"/>
    <tag k="source" v="NRPB of MLIT Japan"/>
    <tag k="source:ja" v="国土数値情報（公共施設データ）平成18年　国土交通省"/>
    <tag k="source_ref" v="http://nlftp.mlit.go.jp/ksj/jpgis/datalist/KsjTmplt-P02-v2_0.html"/>
  </node>
  <node id="1211709431" version="1" timestamp="2011-03-21T09:26:28Z" uid="171838" user="argrath" changeset="7625258" lat="38.258676" lon="140.892053">
    <tag k="amenity" v="public_building"/>
    <tag k="name" v="東北地方整備局仙台港湾空港技術調査事務所"/>
    <tag k="source" v="NRPB of MLIT Japan"/>
    <tag k="source:ja" v="国土数値情報（公共施設データ）平成18年　国土交通省"/>
    <tag k="source_ref" v="http://nlftp.mlit.go.jp/ksj/jpgis/datalist/KsjTmplt-P02-v2_0.html"/>
  </node>
  <node id="1211709434" version="1" timestamp="2011-03-21T09:26:28Z" uid="171838" user="argrath" changeset="7625258" lat="38.219087" lon="140.894624">
    <tag k="amenity" v="public_building"/>
    <tag k="name" v="東北地方整備局仙台河川国道事務所"/>
    <tag k="source" v="NRPB of MLIT Japan"/>
    <tag k="source:ja" v="国土数値情報（公共施設データ）平成18年　国土交通省"/>
    <tag k="source_ref" v="http://nlftp.mlit.go.jp/ksj/jpgis/datalist/KsjTmplt-P02-v2_0.html"/>
  </node>
  <node id="1211709438" version="1" timestamp="2011-03-21T09:26:28Z" uid="171838" user="argrath" changeset="7625258" lat="38.216866" lon="140.907401">
    <tag k="amenity" v="public_building"/>
    <tag k="name" v="東北地方整備局東北幹線道路調査事務所"/>
    <tag k="source" v="NRPB of MLIT Japan"/>
    <tag k="source:ja" v="国土数値情報（公共施設データ）平成18年　国土交通省"/>
    <tag k="source_ref" v="http://nlftp.mlit.go.jp/ksj/jpgis/datalist/KsjTmplt-P02-v2_0.html"/>
  </node>
  <node id="1211709443" version="1" timestamp="2011-03-21T09:26:29Z" uid="171838" user="argrath" changeset="7625258" lat="38.456015" lon="141.265129">
    <tag k="amenity" v="public_building"/>
    <tag k="name" v="東京航空局石巻航空路監視レーダー事務所"/>
    <tag k="source" v="NRPB of MLIT Japan"/>
    <tag k="source:ja" v="国土数値情報（公共施設データ）平成18年　国土交通省"/>
    <tag k="source_ref" v="http://nlftp.mlit.go.jp/ksj/jpgis/datalist/KsjTmplt-P02-v2_0.html"/>
  </node>
  <node id="1211709447" version="1" timestamp="2011-03-21T09:26:29Z" uid="171838" user="argrath" changeset="7625258" lat="38.420741" lon="141.268742">
    <tag k="amenity" v="public_building"/>
    <tag k="name" v="東北運輸局石巻海事事務所"/>
    <tag k="source" v="NRPB of MLIT Japan"/>
    <tag k="source:ja" v="国土数値情報（公共施設データ）平成18年　国土交通省"/>
    <tag k="source_ref" v="http://nlftp.mlit.go.jp/ksj/jpgis/datalist/KsjTmplt-P02-v2_0.html"/>
  </node>
  <node id="1211709450" version="1" timestamp="2011-03-21T09:26:29Z" uid="171838" user="argrath" changeset="7625258" lat="38.442961" lon="141.287629">
    <tag k="amenity" v="public_building"/>
    <tag k="name" v="東北地方整備局北上川下流河川事務所"/>
    <tag k="source" v="NRPB of MLIT Japan"/>
    <tag k="source:ja" v="国土数値情報（公共施設データ）平成18年　国土交通省"/>
    <tag k="source_ref" v="http://nlftp.mlit.go.jp/ksj/jpgis/datalist/KsjTmplt-P02-v2_0.html"/>
  </node>
  <node id="1211709451" version="1" timestamp="2011-03-21T09:26:29Z" uid="171838" user="argrath" changeset="7625258" lat="38.891253" lon="141.588416">
    <tag k="amenity" v="public_building"/>
    <tag k="name" v="東北運輸局気仙沼海事事務所"/>
    <tag k="source" v="NRPB of MLIT Japan"/>
    <tag k="source:ja" v="国土数値情報（公共施設データ）平成18年　国土交通省"/>
    <tag k="source_ref" v="http://nlftp.mlit.go.jp/ksj/jpgis/datalist/KsjTmplt-P02-v2_0.html"/>
  </node>
  <node id="1211709456" version="1" timestamp="2011-03-21T09:26:29Z" uid="171838" user="argrath" changeset="7625258" lat="38.138264" lon="140.929904">
    <tag k="amenity" v="public_building"/>
    <tag k="name" v="東京航空局仙台空港事務所"/>
    <tag k="source" v="NRPB of MLIT Japan"/>
    <tag k="source:ja" v="国土数値情報（公共施設データ）平成18年　国土交通省"/>
    <tag k="source_ref" v="http://nlftp.mlit.go.jp/ksj/jpgis/datalist/KsjTmplt-P02-v2_0.html"/>
  </node>
  <node id="1211709458" version="1" timestamp="2011-03-21T09:26:29Z" uid="171838" user="argrath" changeset="7625258" lat="38.286029" lon="141.01211">
    <tag k="amenity" v="public_building"/>
    <tag k="name" v="東北地方整備局塩釜港湾・空港整備事務所"/>
    <tag k="source" v="NRPB of MLIT Japan"/>
    <tag k="source:ja" v="国土数値情報（公共施設データ）平成18年　国土交通省"/>
    <tag k="source_ref" v="http://nlftp.mlit.go.jp/ksj/jpgis/datalist/KsjTmplt-P02-v2_0.html"/>
  </node>
  <node id="1211709462" version="1" timestamp="2011-03-21T09:26:29Z" uid="171838" user="argrath" changeset="7625258" lat="38.288807" lon="141.016554">
    <tag k="amenity" v="public_building"/>
    <tag k="name" v="東北地方整備局東北技術事務所"/>
    <tag k="source" v="NRPB of MLIT Japan"/>
    <tag k="source:ja" v="国土数値情報（公共施設データ）平成18年　国土交通省"/>
    <tag k="source_ref" v="http://nlftp.mlit.go.jp/ksj/jpgis/datalist/KsjTmplt-P02-v2_0.html"/>
  </node>
  <node id="1211709464" version="1" timestamp="2011-03-21T09:26:29Z" uid="171838" user="argrath" changeset="7625258" lat="38.134652" lon="140.914072">
    <tag k="amenity" v="public_building"/>
    <tag k="name" v="航空保安大学校岩沼研修センター"/>
    <tag k="source" v="NRPB of MLIT Japan"/>
    <tag k="source:ja" v="国土数値情報（公共施設データ）平成18年　国土交通省"/>
    <tag k="source_ref" v="http://nlftp.mlit.go.jp/ksj/jpgis/datalist/KsjTmplt-P02-v2_0.html"/>
  </node>
  <node id="1211709468" version="1" timestamp="2011-03-21T09:26:30Z" uid="171838" user="argrath" changeset="7625258" lat="38.133819" lon="140.91685">
    <tag k="amenity" v="public_building"/>
    <tag k="name" v="電子航法研究所岩沼分室"/>
    <tag k="source" v="NRPB of MLIT Japan"/>
    <tag k="source:ja" v="国土数値情報（公共施設データ）平成18年　国土交通省"/>
    <tag k="source_ref" v="http://nlftp.mlit.go.jp/ksj/jpgis/datalist/KsjTmplt-P02-v2_0.html"/>
  </node>
  <node id="1211709471" version="1" timestamp="2011-03-21T09:26:30Z" uid="171838" user="argrath" changeset="7625258" lat="38.753466" lon="140.706283">
    <tag k="amenity" v="public_building"/>
    <tag k="name" v="東北地方整備局鳴子ダム管理所"/>
    <tag k="source" v="NRPB of MLIT Japan"/>
    <tag k="source:ja" v="国土数値情報（公共施設データ）平成18年　国土交通省"/>
    <tag k="source_ref" v="http://nlftp.mlit.go.jp/ksj/jpgis/datalist/KsjTmplt-P02-v2_0.html"/>
  </node>
  <node id="1211709475" version="1" timestamp="2011-03-21T09:26:30Z" uid="171838" user="argrath" changeset="7625258" lat="38.567436" lon="140.976232">
    <tag k="amenity" v="public_building"/>
    <tag k="name" v="東北地方整備局鳴瀬川総合開発調査事務所"/>
    <tag k="source" v="NRPB of MLIT Japan"/>
    <tag k="source:ja" v="国土数値情報（公共施設データ）平成18年　国土交通省"/>
    <tag k="source_ref" v="http://nlftp.mlit.go.jp/ksj/jpgis/datalist/KsjTmplt-P02-v2_0.html"/>
  </node>
  <node id="1211709477" version="1" timestamp="2011-03-21T09:26:30Z" uid="171838" user="argrath" changeset="7625258" lat="37.961879" lon="140.513556">
    <tag k="amenity" v="public_building"/>
    <tag k="name" v="東北地方整備局七ヶ宿ダム管理所"/>
    <tag k="source" v="NRPB of MLIT Japan"/>
    <tag k="source:ja" v="国土数値情報（公共施設データ）平成18年　国土交通省"/>
    <tag k="source_ref" v="http://nlftp.mlit.go.jp/ksj/jpgis/datalist/KsjTmplt-P02-v2_0.html"/>
  </node>
  <node id="1211709479" version="1" timestamp="2011-03-21T09:26:30Z" uid="171838" user="argrath" changeset="7625258" lat="38.203528" lon="140.697141">
    <tag k="amenity" v="public_building"/>
    <tag k="name" v="東北地方整備局釜房ダム管理所"/>
    <tag k="source" v="NRPB of MLIT Japan"/>
    <tag k="source:ja" v="国土数値情報（公共施設データ）平成18年　国土交通省"/>
    <tag k="source_ref" v="http://nlftp.mlit.go.jp/ksj/jpgis/datalist/KsjTmplt-P02-v2_0.html"/>
  </node>
  <node id="1211709484" version="1" timestamp="2011-03-21T09:26:30Z" uid="171838" user="argrath" changeset="7625258" lat="38.179363" lon="140.667422">
    <tag k="amenity" v="public_building"/>
    <tag k="name" v="東北地方整備局国営みちのく杜の湖畔公園事務所"/>
    <tag k="source" v="NRPB of MLIT Japan"/>
    <tag k="source:ja" v="国土数値情報（公共施設データ）平成18年　国土交通省"/>
    <tag k="source_ref" v="http://nlftp.mlit.go.jp/ksj/jpgis/datalist/KsjTmplt-P02-v2_0.html"/>
  </node>
  <node id="1211709487" version="1" timestamp="2011-03-21T09:26:30Z" uid="171838" user="argrath" changeset="7625258" lat="38.420741" lon="141.268742">
    <tag k="amenity" v="public_building"/>
    <tag k="name" v="第二管区海上保安本部塩釜海上保安部石巻海上保安署"/>
    <tag k="source" v="NRPB of MLIT Japan"/>
    <tag k="source:ja" v="国土数値情報（公共施設データ）平成18年　国土交通省"/>
    <tag k="source_ref" v="http://nlftp.mlit.go.jp/ksj/jpgis/datalist/KsjTmplt-P02-v2_0.html"/>
  </node>
  <node id="1211709490" version="1" timestamp="2011-03-21T09:26:30Z" uid="171838" user="argrath" changeset="7625258" lat="38.315193" lon="141.035995">
    <tag k="amenity" v="public_building"/>
    <tag k="name" v="第二管区海上保安本部"/>
    <tag k="source" v="NRPB of MLIT Japan"/>
    <tag k="source:ja" v="国土数値情報（公共施設データ）平成18年　国土交通省"/>
    <tag k="source_ref" v="http://nlftp.mlit.go.jp/ksj/jpgis/datalist/KsjTmplt-P02-v2_0.html"/>
  </node>
  <node id="1211709493" version="1" timestamp="2011-03-21T09:26:31Z" uid="171838" user="argrath" changeset="7625258" lat="38.315193" lon="141.035995">
    <tag k="amenity" v="public_building"/>
    <tag k="name" v="第二管区海上保安本部塩釜海上保安部"/>
    <tag k="source" v="NRPB of MLIT Japan"/>
    <tag k="source:ja" v="国土数値情報（公共施設データ）平成18年　国土交通省"/>
    <tag k="source_ref" v="http://nlftp.mlit.go.jp/ksj/jpgis/datalist/KsjTmplt-P02-v2_0.html"/>
  </node>
  <node id="1211709497" version="1" timestamp="2011-03-21T09:26:31Z" uid="171838" user="argrath" changeset="7625258" lat="38.315193" lon="141.035995">
    <tag k="amenity" v="public_building"/>
    <tag k="name" v="第二管区海上保安本部第二管区情報通信管理センター"/>
    <tag k="source" v="NRPB of MLIT Japan"/>
    <tag k="source:ja" v="国土数値情報（公共施設データ）平成18年　国土交通省"/>
    <tag k="source_ref" v="http://nlftp.mlit.go.jp/ksj/jpgis/datalist/KsjTmplt-P02-v2_0.html"/>
  </node>
  <node id="1211709501" version="1" timestamp="2011-03-21T09:26:31Z" uid="171838" user="argrath" changeset="7625258" lat="38.891253" lon="141.588416">
    <tag k="amenity" v="public_building"/>
    <tag k="name" v="第二管区海上保安本部塩釜海上保安部気仙沼海上保安署"/>
    <tag k="source" v="NRPB of MLIT Japan"/>
    <tag k="source:ja" v="国土数値情報（公共施設データ）平成18年　国土交通省"/>
    <tag k="source_ref" v="http://nlftp.mlit.go.jp/ksj/jpgis/datalist/KsjTmplt-P02-v2_0.html"/>
  </node>
  <node id="1211709502" version="1" timestamp="2011-03-21T09:26:31Z" uid="171838" user="argrath" changeset="7625258" lat="38.134652" lon="140.914072">
    <tag k="amenity" v="public_building"/>
    <tag k="name" v="海上保安学校宮城分校"/>
    <tag k="source" v="NRPB of MLIT Japan"/>
    <tag k="source:ja" v="国土数値情報（公共施設データ）平成18年　国土交通省"/>
    <tag k="source_ref" v="http://nlftp.mlit.go.jp/ksj/jpgis/datalist/KsjTmplt-P02-v2_0.html"/>
  </node>
  <node id="1211709508" version="1" timestamp="2011-03-21T09:26:31Z" uid="171838" user="argrath" changeset="7625258" lat="38.134375" lon="140.913795">
    <tag k="amenity" v="public_building"/>
    <tag k="name" v="第二管区海上保安本部仙台航空基地"/>
    <tag k="source" v="NRPB of MLIT Japan"/>
    <tag k="source:ja" v="国土数値情報（公共施設データ）平成18年　国土交通省"/>
    <tag k="source_ref" v="http://nlftp.mlit.go.jp/ksj/jpgis/datalist/KsjTmplt-P02-v2_0.html"/>
  </node>
  <node id="1211709512" version="1" timestamp="2011-03-21T09:26:31Z" uid="171838" user="argrath" changeset="7625258" lat="38.262416" lon="140.897677">
    <tag k="amenity" v="public_building"/>
    <tag k="name" v="仙台地方海難審判庁"/>
    <tag k="source" v="NRPB of MLIT Japan"/>
    <tag k="source:ja" v="国土数値情報（公共施設データ）平成18年　国土交通省"/>
    <tag k="source_ref" v="http://nlftp.mlit.go.jp/ksj/jpgis/datalist/KsjTmplt-P02-v2_0.html"/>
  </node>
  <node id="1211709514" version="1" timestamp="2011-03-21T09:26:31Z" uid="171838" user="argrath" changeset="7625258" lat="38.262416" lon="140.897677">
    <tag k="amenity" v="public_building"/>
    <tag k="name" v="仙台地方海難審判理事所"/>
    <tag k="source" v="NRPB of MLIT Japan"/>
    <tag k="source:ja" v="国土数値情報（公共施設データ）平成18年　国土交通省"/>
    <tag k="source_ref" v="http://nlftp.mlit.go.jp/ksj/jpgis/datalist/KsjTmplt-P02-v2_0.html"/>
  </node>
  <node id="1211709515" version="1" timestamp="2011-03-21T09:26:31Z" uid="171838" user="argrath" changeset="7625258" lat="38.262416" lon="140.897677">
    <tag k="amenity" v="public_building"/>
    <tag k="name" v="仙台管区気象台"/>
    <tag k="source" v="NRPB of MLIT Japan"/>
    <tag k="source:ja" v="国土数値情報（公共施設データ）平成18年　国土交通省"/>
    <tag k="source_ref" v="http://nlftp.mlit.go.jp/ksj/jpgis/datalist/KsjTmplt-P02-v2_0.html"/>
  </node>
  <node id="1211709521" version="1" timestamp="2011-03-21T09:26:32Z" uid="171838" user="argrath" changeset="7625258" lat="38.138264" lon="140.929904">
    <tag k="amenity" v="public_building"/>
    <tag k="name" v="仙台管区気象台仙台航空測候所"/>
    <tag k="source" v="NRPB of MLIT Japan"/>
    <tag k="source:ja" v="国土数値情報（公共施設データ）平成18年　国土交通省"/>
    <tag k="source_ref" v="http://nlftp.mlit.go.jp/ksj/jpgis/datalist/KsjTmplt-P02-v2_0.html"/>
  </node>
  <node id="1211709524" version="1" timestamp="2011-03-21T09:26:32Z" uid="171838" user="argrath" changeset="7625258" lat="38.262694" lon="140.896011">
    <tag k="amenity" v="public_building"/>
    <tag k="name" v="東北船員地方労働委員会"/>
    <tag k="source" v="NRPB of MLIT Japan"/>
    <tag k="source:ja" v="国土数値情報（公共施設データ）平成18年　国土交通省"/>
    <tag k="source_ref" v="http://nlftp.mlit.go.jp/ksj/jpgis/datalist/KsjTmplt-P02-v2_0.html"/>
  </node>
  <node id="1211709527" version="1" timestamp="2011-03-21T09:26:32Z" uid="171838" user="argrath" changeset="7625258" lat="38.267137" lon="140.873791">
    <tag k="amenity" v="public_building"/>
    <tag k="name" v="東北地方環境事務所"/>
    <tag k="source" v="NRPB of MLIT Japan"/>
    <tag k="source:ja" v="国土数値情報（公共施設データ）平成18年　国土交通省"/>
    <tag k="source_ref" v="http://nlftp.mlit.go.jp/ksj/jpgis/datalist/KsjTmplt-P02-v2_0.html"/>
  </node>
  <node id="1211709528" version="1" timestamp="2011-03-21T09:26:32Z" uid="171838" user="argrath" changeset="7625258" lat="38.25686" lon="140.868514">
    <tag k="amenity" v="courthouse"/>
    <tag k="name" v="仙台家庭裁判所"/>
    <tag k="source" v="NRPB of MLIT Japan"/>
    <tag k="source:ja" v="国土数値情報（公共施設データ）平成18年　国土交通省"/>
    <tag k="source_ref" v="http://nlftp.mlit.go.jp/ksj/jpgis/datalist/KsjTmplt-P02-v2_0.html"/>
  </node>
  <node id="1211709537" version="1" timestamp="2011-03-21T09:26:32Z" uid="171838" user="argrath" changeset="7625258" lat="38.25686" lon="140.868514">
    <tag k="amenity" v="courthouse"/>
    <tag k="name" v="仙台高等裁判所"/>
    <tag k="source" v="NRPB of MLIT Japan"/>
    <tag k="source:ja" v="国土数値情報（公共施設データ）平成18年　国土交通省"/>
    <tag k="source_ref" v="http://nlftp.mlit.go.jp/ksj/jpgis/datalist/KsjTmplt-P02-v2_0.html"/>
  </node>
  <node id="1211709539" version="1" timestamp="2011-03-21T09:26:32Z" uid="171838" user="argrath" changeset="7625258" lat="38.25686" lon="140.868514">
    <tag k="amenity" v="courthouse"/>
    <tag k="name" v="仙台地方裁判所"/>
    <tag k="source" v="NRPB of MLIT Japan"/>
    <tag k="source:ja" v="国土数値情報（公共施設データ）平成18年　国土交通省"/>
    <tag k="source_ref" v="http://nlftp.mlit.go.jp/ksj/jpgis/datalist/KsjTmplt-P02-v2_0.html"/>
  </node>
  <node id="1211709540" version="1" timestamp="2011-03-21T09:26:32Z" uid="171838" user="argrath" changeset="7625258" lat="38.25686" lon="140.868514">
    <tag k="amenity" v="courthouse"/>
    <tag k="name" v="仙台地方裁判所仙台簡易裁判所"/>
    <tag k="source" v="NRPB of MLIT Japan"/>
    <tag k="source:ja" v="国土数値情報（公共施設データ）平成18年　国土交通省"/>
    <tag k="source_ref" v="http://nlftp.mlit.go.jp/ksj/jpgis/datalist/KsjTmplt-P02-v2_0.html"/>
  </node>
  <node id="1211709541" version="1" timestamp="2011-03-21T09:26:32Z" uid="171838" user="argrath" changeset="7625258" lat="38.25686" lon="140.868514">
    <tag k="amenity" v="courthouse"/>
    <tag k="name" v="仙台地方裁判所仙台検察審査会"/>
    <tag k="source" v="NRPB of MLIT Japan"/>
    <tag k="source:ja" v="国土数値情報（公共施設データ）平成18年　国土交通省"/>
    <tag k="source_ref" v="http://nlftp.mlit.go.jp/ksj/jpgis/datalist/KsjTmplt-P02-v2_0.html"/>
  </node>
  <node id="1211709543" version="1" timestamp="2011-03-21T09:26:33Z" uid="171838" user="argrath" changeset="7625258" lat="38.426852" lon="141.29874">
    <tag k="amenity" v="courthouse"/>
    <tag k="name" v="仙台家庭裁判所石巻支部"/>
    <tag k="source" v="NRPB of MLIT Japan"/>
    <tag k="source:ja" v="国土数値情報（公共施設データ）平成18年　国土交通省"/>
    <tag k="source_ref" v="http://nlftp.mlit.go.jp/ksj/jpgis/datalist/KsjTmplt-P02-v2_0.html"/>
  </node>
  <node id="1211709552" version="1" timestamp="2011-03-21T09:26:33Z" uid="171838" user="argrath" changeset="7625258" lat="38.426852" lon="141.29874">
    <tag k="amenity" v="courthouse"/>
    <tag k="name" v="仙台地方裁判所石巻簡易裁判所"/>
    <tag k="source" v="NRPB of MLIT Japan"/>
    <tag k="source:ja" v="国土数値情報（公共施設データ）平成18年　国土交通省"/>
    <tag k="source_ref" v="http://nlftp.mlit.go.jp/ksj/jpgis/datalist/KsjTmplt-P02-v2_0.html"/>
  </node>
  <node id="1211709553" version="1" timestamp="2011-03-21T09:26:33Z" uid="171838" user="argrath" changeset="7625258" lat="38.426852" lon="141.29874">
    <tag k="amenity" v="courthouse"/>
    <tag k="name" v="仙台地方裁判所石巻検察審査会"/>
    <tag k="source" v="NRPB of MLIT Japan"/>
    <tag k="source:ja" v="国土数値情報（公共施設データ）平成18年　国土交通省"/>
    <tag k="source_ref" v="http://nlftp.mlit.go.jp/ksj/jpgis/datalist/KsjTmplt-P02-v2_0.html"/>
  </node>
  <node id="1211709554" version="1" timestamp="2011-03-21T09:26:33Z" uid="171838" user="argrath" changeset="7625258" lat="38.426852" lon="141.29874">
    <tag k="amenity" v="courthouse"/>
    <tag k="name" v="仙台地方裁判所石巻支部"/>
    <tag k="source" v="NRPB of MLIT Japan"/>
    <tag k="source:ja" v="国土数値情報（公共施設データ）平成18年　国土交通省"/>
    <tag k="source_ref" v="http://nlftp.mlit.go.jp/ksj/jpgis/datalist/KsjTmplt-P02-v2_0.html"/>
  </node>
  <node id="1211709556" version="1" timestamp="2011-03-21T09:26:33Z" uid="171838" user="argrath" changeset="7625258" lat="38.901251" lon="141.575638">
    <tag k="amenity" v="courthouse"/>
    <tag k="name" v="仙台家庭裁判所気仙沼支部"/>
    <tag k="source" v="NRPB of MLIT Japan"/>
    <tag k="source:ja" v="国土数値情報（公共施設データ）平成18年　国土交通省"/>
    <tag k="source_ref" v="http://nlftp.mlit.go.jp/ksj/jpgis/datalist/KsjTmplt-P02-v2_0.html"/>
  </node>
  <node id="1211709565" version="1" timestamp="2011-03-21T09:26:33Z" uid="171838" user="argrath" changeset="7625258" lat="38.901251" lon="141.575638">
    <tag k="amenity" v="courthouse"/>
    <tag k="name" v="仙台地方裁判所気仙沼簡易裁判所"/>
    <tag k="source" v="NRPB of MLIT Japan"/>
    <tag k="source:ja" v="国土数値情報（公共施設データ）平成18年　国土交通省"/>
    <tag k="source_ref" v="http://nlftp.mlit.go.jp/ksj/jpgis/datalist/KsjTmplt-P02-v2_0.html"/>
  </node>
  <node id="1211709566" version="1" timestamp="2011-03-21T09:26:33Z" uid="171838" user="argrath" changeset="7625258" lat="38.901251" lon="141.575638">
    <tag k="amenity" v="courthouse"/>
    <tag k="name" v="仙台地方裁判所気仙沼支部"/>
    <tag k="source" v="NRPB of MLIT Japan"/>
    <tag k="source:ja" v="国土数値情報（公共施設データ）平成18年　国土交通省"/>
    <tag k="source_ref" v="http://nlftp.mlit.go.jp/ksj/jpgis/datalist/KsjTmplt-P02-v2_0.html"/>
  </node>
  <node id="1211709567" version="1" timestamp="2011-03-21T09:26:33Z" uid="171838" user="argrath" changeset="7625258" lat="38.901251" lon="141.575638">
    <tag k="amenity" v="courthouse"/>
    <tag k="name" v="仙台地方裁判所仙台検察審査会"/>
    <tag k="source" v="NRPB of MLIT Japan"/>
    <tag k="source:ja" v="国土数値情報（公共施設データ）平成18年　国土交通省"/>
    <tag k="source_ref" v="http://nlftp.mlit.go.jp/ksj/jpgis/datalist/KsjTmplt-P02-v2_0.html"/>
  </node>
  <node id="1211709568" version="1" timestamp="2011-03-21T09:26:33Z" uid="171838" user="argrath" changeset="7625258" lat="38.656548" lon="141.281786">
    <tag k="amenity" v="courthouse"/>
    <tag k="name" v="仙台家庭裁判所登米支部"/>
    <tag k="source" v="NRPB of MLIT Japan"/>
    <tag k="source:ja" v="国土数値情報（公共施設データ）平成18年　国土交通省"/>
    <tag k="source_ref" v="http://nlftp.mlit.go.jp/ksj/jpgis/datalist/KsjTmplt-P02-v2_0.html"/>
  </node>
  <node id="1211709577" version="1" timestamp="2011-03-21T09:26:34Z" uid="171838" user="argrath" changeset="7625258" lat="38.656548" lon="141.281786">
    <tag k="amenity" v="courthouse"/>
    <tag k="name" v="仙台地方裁判所登米簡易裁判所"/>
    <tag k="source" v="NRPB of MLIT Japan"/>
    <tag k="source:ja" v="国土数値情報（公共施設データ）平成18年　国土交通省"/>
    <tag k="source_ref" v="http://nlftp.mlit.go.jp/ksj/jpgis/datalist/KsjTmplt-P02-v2_0.html"/>
  </node>
  <node id="1211709579" version="1" timestamp="2011-03-21T09:26:34Z" uid="171838" user="argrath" changeset="7625258" lat="38.656548" lon="141.281786">
    <tag k="amenity" v="courthouse"/>
    <tag k="name" v="仙台地方裁判所登米支部"/>
    <tag k="source" v="NRPB of MLIT Japan"/>
    <tag k="source:ja" v="国土数値情報（公共施設データ）平成18年　国土交通省"/>
    <tag k="source_ref" v="http://nlftp.mlit.go.jp/ksj/jpgis/datalist/KsjTmplt-P02-v2_0.html"/>
  </node>
  <node id="1211709580" version="1" timestamp="2011-03-21T09:26:34Z" uid="171838" user="argrath" changeset="7625258" lat="38.733477" lon="141.016253">
    <tag k="amenity" v="courthouse"/>
    <tag k="name" v="仙台地方裁判所築館簡易裁判所"/>
    <tag k="source" v="NRPB of MLIT Japan"/>
    <tag k="source:ja" v="国土数値情報（公共施設データ）平成18年　国土交通省"/>
    <tag k="source_ref" v="http://nlftp.mlit.go.jp/ksj/jpgis/datalist/KsjTmplt-P02-v2_0.html"/>
  </node>
  <node id="1211709581" version="1" timestamp="2011-03-21T09:26:34Z" uid="171838" user="argrath" changeset="7625258" lat="38.566828" lon="140.970434">
    <tag k="amenity" v="courthouse"/>
    <tag k="name" v="仙台家庭裁判所古川支部"/>
    <tag k="source" v="NRPB of MLIT Japan"/>
    <tag k="source:ja" v="国土数値情報（公共施設データ）平成18年　国土交通省"/>
    <tag k="source_ref" v="http://nlftp.mlit.go.jp/ksj/jpgis/datalist/KsjTmplt-P02-v2_0.html"/>
  </node>
  <node id="1211709591" version="1" timestamp="2011-03-21T09:26:34Z" uid="171838" user="argrath" changeset="7625258" lat="38.566828" lon="140.970434">
    <tag k="amenity" v="courthouse"/>
    <tag k="name" v="仙台地方裁判所古川簡易裁判所"/>
    <tag k="source" v="NRPB of MLIT Japan"/>
    <tag k="source:ja" v="国土数値情報（公共施設データ）平成18年　国土交通省"/>
    <tag k="source_ref" v="http://nlftp.mlit.go.jp/ksj/jpgis/datalist/KsjTmplt-P02-v2_0.html"/>
  </node>
  <node id="1211709592" version="1" timestamp="2011-03-21T09:26:34Z" uid="171838" user="argrath" changeset="7625258" lat="38.566828" lon="140.970434">
    <tag k="amenity" v="courthouse"/>
    <tag k="name" v="仙台地方裁判所古川検察審査会"/>
    <tag k="source" v="NRPB of MLIT Japan"/>
    <tag k="source:ja" v="国土数値情報（公共施設データ）平成18年　国土交通省"/>
    <tag k="source_ref" v="http://nlftp.mlit.go.jp/ksj/jpgis/datalist/KsjTmplt-P02-v2_0.html"/>
  </node>
  <node id="1211709593" version="1" timestamp="2011-03-21T09:26:34Z" uid="171838" user="argrath" changeset="7625258" lat="38.566828" lon="140.970434">
    <tag k="amenity" v="courthouse"/>
    <tag k="name" v="仙台地方裁判所古川支部"/>
    <tag k="source" v="NRPB of MLIT Japan"/>
    <tag k="source:ja" v="国土数値情報（公共施設データ）平成18年　国土交通省"/>
    <tag k="source_ref" v="http://nlftp.mlit.go.jp/ksj/jpgis/datalist/KsjTmplt-P02-v2_0.html"/>
  </node>
  <node id="1211709595" version="1" timestamp="2011-03-21T09:26:34Z" uid="171838" user="argrath" changeset="7625258" lat="38.046043" lon="140.733812">
    <tag k="amenity" v="courthouse"/>
    <tag k="name" v="仙台家庭裁判所大河原支部"/>
    <tag k="source" v="NRPB of MLIT Japan"/>
    <tag k="source:ja" v="国土数値情報（公共施設データ）平成18年　国土交通省"/>
    <tag k="source_ref" v="http://nlftp.mlit.go.jp/ksj/jpgis/datalist/KsjTmplt-P02-v2_0.html"/>
  </node>
  <node id="1211709604" version="1" timestamp="2011-03-21T09:26:35Z" uid="171838" user="argrath" changeset="7625258" lat="38.046043" lon="140.733812">
    <tag k="amenity" v="courthouse"/>
    <tag k="name" v="仙台地方裁判所大河原簡易裁判所"/>
    <tag k="source" v="NRPB of MLIT Japan"/>
    <tag k="source:ja" v="国土数値情報（公共施設データ）平成18年　国土交通省"/>
    <tag k="source_ref" v="http://nlftp.mlit.go.jp/ksj/jpgis/datalist/KsjTmplt-P02-v2_0.html"/>
  </node>
  <node id="1211709605" version="1" timestamp="2011-03-21T09:26:35Z" uid="171838" user="argrath" changeset="7625258" lat="38.046043" lon="140.733812">
    <tag k="amenity" v="courthouse"/>
    <tag k="name" v="仙台地方裁判所大河原支部"/>
    <tag k="source" v="NRPB of MLIT Japan"/>
    <tag k="source:ja" v="国土数値情報（公共施設データ）平成18年　国土交通省"/>
    <tag k="source_ref" v="http://nlftp.mlit.go.jp/ksj/jpgis/datalist/KsjTmplt-P02-v2_0.html"/>
  </node>
  <node id="1211709606" version="1" timestamp="2011-03-21T09:26:35Z" uid="171838" user="argrath" changeset="7625258" lat="38.268803" lon="140.871846">
    <tag k="amenity" v="townhall"/>
    <tag k="name" v="宮城県庁"/>
    <tag k="source" v="NRPB of MLIT Japan"/>
    <tag k="source:ja" v="国土数値情報（公共施設データ）平成18年　国土交通省"/>
    <tag k="source_ref" v="http://nlftp.mlit.go.jp/ksj/jpgis/datalist/KsjTmplt-P02-v2_0.html"/>
  </node>
  <node id="1211709607" version="1" timestamp="2011-03-21T09:26:35Z" uid="171838" user="argrath" changeset="7625258" lat="38.26797" lon="140.869625">
    <tag k="amenity" v="townhall"/>
    <tag k="name" v="仙台市役所"/>
    <tag k="source" v="NRPB of MLIT Japan"/>
    <tag k="source:ja" v="国土数値情報（公共施設データ）平成18年　国土交通省"/>
    <tag k="source_ref" v="http://nlftp.mlit.go.jp/ksj/jpgis/datalist/KsjTmplt-P02-v2_0.html"/>
  </node>
  <node id="1211709616" version="1" timestamp="2011-03-21T09:26:35Z" uid="171838" user="argrath" changeset="7625258" lat="38.427964" lon="141.305961">
    <tag k="amenity" v="townhall"/>
    <tag k="name" v="石巻市役所"/>
    <tag k="source" v="NRPB of MLIT Japan"/>
    <tag k="source:ja" v="国土数値情報（公共施設データ）平成18年　国土交通省"/>
    <tag k="source_ref" v="http://nlftp.mlit.go.jp/ksj/jpgis/datalist/KsjTmplt-P02-v2_0.html"/>
  </node>
  <node id="1211709617" version="1" timestamp="2011-03-21T09:26:35Z" uid="171838" user="argrath" changeset="7625258" lat="38.314359" lon="141.022108">
    <tag k="amenity" v="townhall"/>
    <tag k="name" v="塩竈市役所"/>
    <tag k="source" v="NRPB of MLIT Japan"/>
    <tag k="source:ja" v="国土数値情報（公共施設データ）平成18年　国土交通省"/>
    <tag k="source_ref" v="http://nlftp.mlit.go.jp/ksj/jpgis/datalist/KsjTmplt-P02-v2_0.html"/>
  </node>
  <node id="1211709618" version="1" timestamp="2011-03-21T09:26:35Z" uid="171838" user="argrath" changeset="7625258" lat="38.908195" lon="141.570083">
    <tag k="amenity" v="townhall"/>
    <tag k="name" v="気仙沼市役所"/>
    <tag k="source" v="NRPB of MLIT Japan"/>
    <tag k="source:ja" v="国土数値情報（公共施設データ）平成18年　国土交通省"/>
    <tag k="source_ref" v="http://nlftp.mlit.go.jp/ksj/jpgis/datalist/KsjTmplt-P02-v2_0.html"/>
  </node>
  <node id="1211709621" version="1" timestamp="2011-03-21T09:26:35Z" uid="171838" user="argrath" changeset="7625258" lat="38.002155" lon="140.619657">
    <tag k="amenity" v="townhall"/>
    <tag k="name" v="白石市役所"/>
    <tag k="source" v="NRPB of MLIT Japan"/>
    <tag k="source:ja" v="国土数値情報（公共施設データ）平成18年　国土交通省"/>
    <tag k="source_ref" v="http://nlftp.mlit.go.jp/ksj/jpgis/datalist/KsjTmplt-P02-v2_0.html"/>
  </node>
  <node id="1211709629" version="1" timestamp="2011-03-21T09:26:36Z" uid="171838" user="argrath" changeset="7625258" lat="38.171592" lon="140.891849">
    <tag k="amenity" v="townhall"/>
    <tag k="name" v="名取市役所"/>
    <tag k="source" v="NRPB of MLIT Japan"/>
    <tag k="source:ja" v="国土数値情報（公共施設データ）平成18年　国土交通省"/>
    <tag k="source_ref" v="http://nlftp.mlit.go.jp/ksj/jpgis/datalist/KsjTmplt-P02-v2_0.html"/>
  </node>
  <node id="1211709630" version="1" timestamp="2011-03-21T09:26:36Z" uid="171838" user="argrath" changeset="7625258" lat="37.977162" lon="140.781867">
    <tag k="amenity" v="townhall"/>
    <tag k="name" v="角田市役所"/>
    <tag k="source" v="NRPB of MLIT Japan"/>
    <tag k="source:ja" v="国土数値情報（公共施設データ）平成18年　国土交通省"/>
    <tag k="source_ref" v="http://nlftp.mlit.go.jp/ksj/jpgis/datalist/KsjTmplt-P02-v2_0.html"/>
  </node>
  <node id="1211709631" version="1" timestamp="2011-03-21T09:26:36Z" uid="171838" user="argrath" changeset="7625258" lat="38.293806" lon="141.004333">
    <tag k="amenity" v="townhall"/>
    <tag k="name" v="多賀城市役所"/>
    <tag k="source" v="NRPB of MLIT Japan"/>
    <tag k="source:ja" v="国土数値情報（公共施設データ）平成18年　国土交通省"/>
    <tag k="source_ref" v="http://nlftp.mlit.go.jp/ksj/jpgis/datalist/KsjTmplt-P02-v2_0.html"/>
  </node>
  <node id="1211709632" version="1" timestamp="2011-03-21T09:26:36Z" uid="171838" user="argrath" changeset="7625258" lat="38.104375" lon="140.86991">
    <tag k="amenity" v="townhall"/>
    <tag k="name" v="岩沼市役所"/>
    <tag k="source" v="NRPB of MLIT Japan"/>
    <tag k="source:ja" v="国土数値情報（公共施設データ）平成18年　国土交通省"/>
    <tag k="source_ref" v="http://nlftp.mlit.go.jp/ksj/jpgis/datalist/KsjTmplt-P02-v2_0.html"/>
  </node>
  <node id="1211709641" version="1" timestamp="2011-03-21T09:26:36Z" uid="171838" user="argrath" changeset="7625258" lat="38.691819" lon="141.187625">
    <tag k="amenity" v="townhall"/>
    <tag k="name" v="登米市役所"/>
    <tag k="source" v="NRPB of MLIT Japan"/>
    <tag k="source:ja" v="国土数値情報（公共施設データ）平成18年　国土交通省"/>
    <tag k="source_ref" v="http://nlftp.mlit.go.jp/ksj/jpgis/datalist/KsjTmplt-P02-v2_0.html"/>
  </node>
  <node id="1211709643" version="1" timestamp="2011-03-21T09:26:36Z" uid="171838" user="argrath" changeset="7625258" lat="38.730144" lon="141.021253">
    <tag k="amenity" v="townhall"/>
    <tag k="name" v="栗原市役所"/>
    <tag k="source" v="NRPB of MLIT Japan"/>
    <tag k="source:ja" v="国土数値情報（公共施設データ）平成18年　国土交通省"/>
    <tag k="source_ref" v="http://nlftp.mlit.go.jp/ksj/jpgis/datalist/KsjTmplt-P02-v2_0.html"/>
  </node>
  <node id="1211709644" version="1" timestamp="2011-03-21T09:26:36Z" uid="171838" user="argrath" changeset="7625258" lat="38.426295" lon="141.210413">
    <tag k="amenity" v="townhall"/>
    <tag k="name" v="東松島市役所"/>
    <tag k="source" v="NRPB of MLIT Japan"/>
    <tag k="source:ja" v="国土数値情報（公共施設データ）平成18年　国土交通省"/>
    <tag k="source_ref" v="http://nlftp.mlit.go.jp/ksj/jpgis/datalist/KsjTmplt-P02-v2_0.html"/>
  </node>
  <node id="1211709645" version="1" timestamp="2011-03-21T09:26:37Z" uid="171838" user="argrath" changeset="7625258" lat="38.577104" lon="140.955435">
    <tag k="amenity" v="townhall"/>
    <tag k="name" v="大崎市役所"/>
    <tag k="source" v="NRPB of MLIT Japan"/>
    <tag k="source:ja" v="国土数値情報（公共施設データ）平成18年　国土交通省"/>
    <tag k="source_ref" v="http://nlftp.mlit.go.jp/ksj/jpgis/datalist/KsjTmplt-P02-v2_0.html"/>
  </node>
  <node id="1211709647" version="1" timestamp="2011-03-21T09:26:37Z" uid="171838" user="argrath" changeset="7625258" lat="38.269081" lon="140.870458">
    <tag k="amenity" v="townhall"/>
    <tag k="name" v="青葉区役所"/>
    <tag k="source" v="NRPB of MLIT Japan"/>
    <tag k="source:ja" v="国土数値情報（公共施設データ）平成18年　国土交通省"/>
    <tag k="source_ref" v="http://nlftp.mlit.go.jp/ksj/jpgis/datalist/KsjTmplt-P02-v2_0.html"/>
  </node>
  <node id="1211709657" version="1" timestamp="2011-03-21T09:26:37Z" uid="171838" user="argrath" changeset="7625258" lat="38.266305" lon="140.910176">
    <tag k="amenity" v="townhall"/>
    <tag k="name" v="宮城野区役所"/>
    <tag k="source" v="NRPB of MLIT Japan"/>
    <tag k="source:ja" v="国土数値情報（公共施設データ）平成18年　国土交通省"/>
    <tag k="source_ref" v="http://nlftp.mlit.go.jp/ksj/jpgis/datalist/KsjTmplt-P02-v2_0.html"/>
  </node>
  <node id="1211709658" version="1" timestamp="2011-03-21T09:26:37Z" uid="171838" user="argrath" changeset="7625258" lat="38.244085" lon="140.900734">
    <tag k="amenity" v="townhall"/>
    <tag k="name" v="若林区役所"/>
    <tag k="source" v="NRPB of MLIT Japan"/>
    <tag k="source:ja" v="国土数値情報（公共施設データ）平成18年　国土交通省"/>
    <tag k="source_ref" v="http://nlftp.mlit.go.jp/ksj/jpgis/datalist/KsjTmplt-P02-v2_0.html"/>
  </node>
  <node id="1211709659" version="1" timestamp="2011-03-21T09:26:37Z" uid="171838" user="argrath" changeset="7625258" lat="38.224364" lon="140.877126">
    <tag k="amenity" v="townhall"/>
    <tag k="name" v="太白区役所"/>
    <tag k="source" v="NRPB of MLIT Japan"/>
    <tag k="source:ja" v="国土数値情報（公共施設データ）平成18年　国土交通省"/>
    <tag k="source_ref" v="http://nlftp.mlit.go.jp/ksj/jpgis/datalist/KsjTmplt-P02-v2_0.html"/>
  </node>
  <node id="1211709660" version="1" timestamp="2011-03-21T09:26:37Z" uid="171838" user="argrath" changeset="7625258" lat="38.326297" lon="140.881287">
    <tag k="amenity" v="townhall"/>
    <tag k="name" v="泉区役所"/>
    <tag k="source" v="NRPB of MLIT Japan"/>
    <tag k="source:ja" v="国土数値情報（公共施設データ）平成18年　国土交通省"/>
    <tag k="source_ref" v="http://nlftp.mlit.go.jp/ksj/jpgis/datalist/KsjTmplt-P02-v2_0.html"/>
  </node>
  <node id="1211709670" version="1" timestamp="2011-03-21T09:26:37Z" uid="171838" user="argrath" changeset="7625258" lat="38.09798" lon="140.658815">
    <tag k="amenity" v="townhall"/>
    <tag k="name" v="蔵王町役場"/>
    <tag k="source" v="NRPB of MLIT Japan"/>
    <tag k="source:ja" v="国土数値情報（公共施設データ）平成18年　国土交通省"/>
    <tag k="source_ref" v="http://nlftp.mlit.go.jp/ksj/jpgis/datalist/KsjTmplt-P02-v2_0.html"/>
  </node>
  <node id="1211709671" version="1" timestamp="2011-03-21T09:26:38Z" uid="171838" user="argrath" changeset="7625258" lat="37.992985" lon="140.441618">
    <tag k="amenity" v="townhall"/>
    <tag k="name" v="七ヶ宿町役場"/>
    <tag k="source" v="NRPB of MLIT Japan"/>
    <tag k="source:ja" v="国土数値情報（公共施設データ）平成18年　国土交通省"/>
    <tag k="source_ref" v="http://nlftp.mlit.go.jp/ksj/jpgis/datalist/KsjTmplt-P02-v2_0.html"/>
  </node>
  <node id="1211709672" version="1" timestamp="2011-03-21T09:26:38Z" uid="171838" user="argrath" changeset="7625258" lat="38.049376" lon="140.730757">
    <tag k="amenity" v="townhall"/>
    <tag k="name" v="大河原町役場"/>
    <tag k="source" v="NRPB of MLIT Japan"/>
    <tag k="source:ja" v="国土数値情報（公共施設データ）平成18年　国土交通省"/>
    <tag k="source_ref" v="http://nlftp.mlit.go.jp/ksj/jpgis/datalist/KsjTmplt-P02-v2_0.html"/>
  </node>
  <node id="1211709675" version="1" timestamp="2011-03-21T09:26:38Z" uid="171838" user="argrath" changeset="7625258" lat="38.118536" lon="140.72242">
    <tag k="amenity" v="townhall"/>
    <tag k="name" v="村田町役場"/>
    <tag k="source" v="NRPB of MLIT Japan"/>
    <tag k="source:ja" v="国土数値情報（公共施設データ）平成18年　国土交通省"/>
    <tag k="source_ref" v="http://nlftp.mlit.go.jp/ksj/jpgis/datalist/KsjTmplt-P02-v2_0.html"/>
  </node>
  <node id="1211709716" version="1" timestamp="2011-03-21T09:26:40Z" uid="171838" user="argrath" changeset="7625262" lat="38.056321" lon="140.765753">
    <tag k="amenity" v="townhall"/>
    <tag k="name" v="柴田町役場"/>
    <tag k="source" v="NRPB of MLIT Japan"/>
    <tag k="source:ja" v="国土数値情報（公共施設データ）平成18年　国土交通省"/>
    <tag k="source_ref" v="http://nlftp.mlit.go.jp/ksj/jpgis/datalist/KsjTmplt-P02-v2_0.html"/>
  </node>
  <node id="1211709719" version="1" timestamp="2011-03-21T09:26:40Z" uid="171838" user="argrath" changeset="7625262" lat="38.177695" lon="140.643535">
    <tag k="amenity" v="townhall"/>
    <tag k="name" v="川崎町役場"/>
    <tag k="source" v="NRPB of MLIT Japan"/>
    <tag k="source:ja" v="国土数値情報（公共施設データ）平成18年　国土交通省"/>
    <tag k="source_ref" v="http://nlftp.mlit.go.jp/ksj/jpgis/datalist/KsjTmplt-P02-v2_0.html"/>
  </node>
  <node id="1211709721" version="1" timestamp="2011-03-21T09:26:41Z" uid="171838" user="argrath" changeset="7625262" lat="37.911337" lon="140.765483">
    <tag k="amenity" v="townhall"/>
    <tag k="name" v="丸森町役場"/>
    <tag k="source" v="NRPB of MLIT Japan"/>
    <tag k="source:ja" v="国土数値情報（公共施設データ）平成18年　国土交通省"/>
    <tag k="source_ref" v="http://nlftp.mlit.go.jp/ksj/jpgis/datalist/KsjTmplt-P02-v2_0.html"/>
  </node>
  <node id="1211709724" version="1" timestamp="2011-03-21T09:26:41Z" uid="171838" user="argrath" changeset="7625262" lat="38.037714" lon="140.852692">
    <tag k="amenity" v="townhall"/>
    <tag k="name" v="亘理町役場"/>
    <tag k="source" v="NRPB of MLIT Japan"/>
    <tag k="source:ja" v="国土数値情報（公共施設データ）平成18年　国土交通省"/>
    <tag k="source_ref" v="http://nlftp.mlit.go.jp/ksj/jpgis/datalist/KsjTmplt-P02-v2_0.html"/>
  </node>
  <node id="1211709727" version="1" timestamp="2011-03-21T09:26:41Z" uid="171838" user="argrath" changeset="7625262" lat="37.962445" lon="140.877693">
    <tag k="amenity" v="townhall"/>
    <tag k="name" v="山元町役場"/>
    <tag k="source" v="NRPB of MLIT Japan"/>
    <tag k="source:ja" v="国土数値情報（公共施設データ）平成18年　国土交通省"/>
    <tag k="source_ref" v="http://nlftp.mlit.go.jp/ksj/jpgis/datalist/KsjTmplt-P02-v2_0.html"/>
  </node>
  <node id="1211709730" version="1" timestamp="2011-03-21T09:26:41Z" uid="171838" user="argrath" changeset="7625262" lat="38.381297" lon="141.069043">
    <tag k="amenity" v="townhall"/>
    <tag k="name" v="松島町役場"/>
    <tag k="source" v="NRPB of MLIT Japan"/>
    <tag k="source:ja" v="国土数値情報（公共施設データ）平成18年　国土交通省"/>
    <tag k="source_ref" v="http://nlftp.mlit.go.jp/ksj/jpgis/datalist/KsjTmplt-P02-v2_0.html"/>
  </node>
  <node id="1211709733" version="1" timestamp="2011-03-21T09:26:41Z" uid="171838" user="argrath" changeset="7625262" lat="38.30464" lon="141.059327">
    <tag k="amenity" v="townhall"/>
    <tag k="name" v="七ヶ浜町役場"/>
    <tag k="source" v="NRPB of MLIT Japan"/>
    <tag k="source:ja" v="国土数値情報（公共施設データ）平成18年　国土交通省"/>
    <tag k="source_ref" v="http://nlftp.mlit.go.jp/ksj/jpgis/datalist/KsjTmplt-P02-v2_0.html"/>
  </node>
  <node id="1211709735" version="1" timestamp="2011-03-21T09:26:41Z" uid="171838" user="argrath" changeset="7625262" lat="38.330181" lon="140.975364">
    <tag k="amenity" v="townhall"/>
    <tag k="name" v="利府町役場"/>
    <tag k="source" v="NRPB of MLIT Japan"/>
    <tag k="source:ja" v="国土数値情報（公共施設データ）平成18年　国土交通省"/>
    <tag k="source_ref" v="http://nlftp.mlit.go.jp/ksj/jpgis/datalist/KsjTmplt-P02-v2_0.html"/>
  </node>
  <node id="1211709739" version="1" timestamp="2011-03-21T09:26:41Z" uid="171838" user="argrath" changeset="7625262" lat="38.446283" lon="140.886281">
    <tag k="amenity" v="townhall"/>
    <tag k="name" v="大和町役場"/>
    <tag k="source" v="NRPB of MLIT Japan"/>
    <tag k="source:ja" v="国土数値情報（公共施設データ）平成18年　国土交通省"/>
    <tag k="source_ref" v="http://nlftp.mlit.go.jp/ksj/jpgis/datalist/KsjTmplt-P02-v2_0.html"/>
  </node>
  <node id="1211709745" version="1" timestamp="2011-03-21T09:26:42Z" uid="171838" user="argrath" changeset="7625262" lat="38.424345" lon="141.004325">
    <tag k="amenity" v="townhall"/>
    <tag k="name" v="大郷町役場"/>
    <tag k="source" v="NRPB of MLIT Japan"/>
    <tag k="source:ja" v="国土数値情報（公共施設データ）平成18年　国土交通省"/>
    <tag k="source_ref" v="http://nlftp.mlit.go.jp/ksj/jpgis/datalist/KsjTmplt-P02-v2_0.html"/>
  </node>
  <node id="1211709746" version="1" timestamp="2011-03-21T09:26:42Z" uid="171838" user="argrath" changeset="7625262" lat="38.400135" lon="140.895388">
    <tag k="amenity" v="townhall"/>
    <tag k="name" v="富谷町役場"/>
    <tag k="source" v="NRPB of MLIT Japan"/>
    <tag k="source:ja" v="国土数値情報（公共施設データ）平成18年　国土交通省"/>
    <tag k="source_ref" v="http://nlftp.mlit.go.jp/ksj/jpgis/datalist/KsjTmplt-P02-v2_0.html"/>
  </node>
  <node id="1211709747" version="1" timestamp="2011-03-21T09:26:42Z" uid="171838" user="argrath" changeset="7625262" lat="38.467392" lon="140.880169">
    <tag k="amenity" v="townhall"/>
    <tag k="name" v="大衡村役場"/>
    <tag k="source" v="NRPB of MLIT Japan"/>
    <tag k="source:ja" v="国土数値情報（公共施設データ）平成18年　国土交通省"/>
    <tag k="source_ref" v="http://nlftp.mlit.go.jp/ksj/jpgis/datalist/KsjTmplt-P02-v2_0.html"/>
  </node>
  <node id="1211709755" version="1" timestamp="2011-03-21T09:26:42Z" uid="171838" user="argrath" changeset="7625262" lat="38.548772" lon="140.849891">
    <tag k="amenity" v="townhall"/>
    <tag k="name" v="色麻町役場"/>
    <tag k="source" v="NRPB of MLIT Japan"/>
    <tag k="source:ja" v="国土数値情報（公共施設データ）平成18年　国土交通省"/>
    <tag k="source_ref" v="http://nlftp.mlit.go.jp/ksj/jpgis/datalist/KsjTmplt-P02-v2_0.html"/>
  </node>
  <node id="1211709757" version="1" timestamp="2011-03-21T09:26:42Z" uid="171838" user="argrath" changeset="7625262" lat="38.571826" lon="140.854889">
    <tag k="amenity" v="townhall"/>
    <tag k="name" v="加美町役場"/>
    <tag k="source" v="NRPB of MLIT Japan"/>
    <tag k="source:ja" v="国土数値情報（公共施設データ）平成18年　国土交通省"/>
    <tag k="source_ref" v="http://nlftp.mlit.go.jp/ksj/jpgis/datalist/KsjTmplt-P02-v2_0.html"/>
  </node>
  <node id="1211709759" version="1" timestamp="2011-03-21T09:26:42Z" uid="171838" user="argrath" changeset="7625262" lat="38.539612" lon="141.128194">
    <tag k="amenity" v="townhall"/>
    <tag k="name" v="涌谷町役場"/>
    <tag k="source" v="NRPB of MLIT Japan"/>
    <tag k="source:ja" v="国土数値情報（公共施設データ）平成18年　国土交通省"/>
    <tag k="source_ref" v="http://nlftp.mlit.go.jp/ksj/jpgis/datalist/KsjTmplt-P02-v2_0.html"/>
  </node>
  <node id="1211709760" version="1" timestamp="2011-03-21T09:26:42Z" uid="171838" user="argrath" changeset="7625262" lat="38.544332" lon="141.056813">
    <tag k="amenity" v="townhall"/>
    <tag k="name" v="美里町役場"/>
    <tag k="source" v="NRPB of MLIT Japan"/>
    <tag k="source:ja" v="国土数値情報（公共施設データ）平成18年　国土交通省"/>
    <tag k="source_ref" v="http://nlftp.mlit.go.jp/ksj/jpgis/datalist/KsjTmplt-P02-v2_0.html"/>
  </node>
  <node id="1211709761" version="1" timestamp="2011-03-21T09:26:42Z" uid="171838" user="argrath" changeset="7625262" lat="38.445467" lon="141.444557">
    <tag k="amenity" v="townhall"/>
    <tag k="name" v="女川町役場"/>
    <tag k="source" v="NRPB of MLIT Japan"/>
    <tag k="source:ja" v="国土数値情報（公共施設データ）平成18年　国土交通省"/>
    <tag k="source_ref" v="http://nlftp.mlit.go.jp/ksj/jpgis/datalist/KsjTmplt-P02-v2_0.html"/>
  </node>
  <node id="1211709766" version="1" timestamp="2011-03-21T09:26:43Z" uid="171838" user="argrath" changeset="7625262" lat="38.794318" lon="141.504816">
    <tag k="amenity" v="townhall"/>
    <tag k="name" v="本吉町役場"/>
    <tag k="source" v="NRPB of MLIT Japan"/>
    <tag k="source:ja" v="国土数値情報（公共施設データ）平成18年　国土交通省"/>
    <tag k="source_ref" v="http://nlftp.mlit.go.jp/ksj/jpgis/datalist/KsjTmplt-P02-v2_0.html"/>
  </node>
  <node id="1211709770" version="1" timestamp="2011-03-21T09:26:43Z" uid="171838" user="argrath" changeset="7625262" lat="38.677662" lon="141.446493">
    <tag k="amenity" v="townhall"/>
    <tag k="name" v="南三陸町役場"/>
    <tag k="source" v="NRPB of MLIT Japan"/>
    <tag k="source:ja" v="国土数値情報（公共施設データ）平成18年　国土交通省"/>
    <tag k="source_ref" v="http://nlftp.mlit.go.jp/ksj/jpgis/datalist/KsjTmplt-P02-v2_0.html"/>
  </node>
  <node id="1211709773" version="1" timestamp="2011-03-21T09:26:43Z" uid="171838" user="argrath" changeset="7625262" lat="38.277969" lon="140.867957">
    <tag k="amenity" v="public_building"/>
    <tag k="name" v="宮城県仙台地方振興事務所"/>
    <tag k="source" v="NRPB of MLIT Japan"/>
    <tag k="source:ja" v="国土数値情報（公共施設データ）平成18年　国土交通省"/>
    <tag k="source_ref" v="http://nlftp.mlit.go.jp/ksj/jpgis/datalist/KsjTmplt-P02-v2_0.html"/>
  </node>
  <node id="1211709774" version="1" timestamp="2011-03-21T09:26:43Z" uid="171838" user="argrath" changeset="7625262" lat="38.269637" lon="140.871569">
    <tag k="amenity" v="public_building"/>
    <tag k="name" v="宮城県仙台中央県税事務所"/>
    <tag k="source" v="NRPB of MLIT Japan"/>
    <tag k="source:ja" v="国土数値情報（公共施設データ）平成18年　国土交通省"/>
    <tag k="source_ref" v="http://nlftp.mlit.go.jp/ksj/jpgis/datalist/KsjTmplt-P02-v2_0.html"/>
  </node>
  <node id="1211709775" version="1" timestamp="2011-03-21T09:26:43Z" uid="171838" user="argrath" changeset="7625262" lat="38.277969" lon="140.867957">
    <tag k="amenity" v="public_building"/>
    <tag k="name" v="宮城県仙台保健福祉事務所"/>
    <tag k="source" v="NRPB of MLIT Japan"/>
    <tag k="source:ja" v="国土数値情報（公共施設データ）平成18年　国土交通省"/>
    <tag k="source_ref" v="http://nlftp.mlit.go.jp/ksj/jpgis/datalist/KsjTmplt-P02-v2_0.html"/>
  </node>
  <node id="1211709780" version="1" timestamp="2011-03-21T09:26:44Z" uid="171838" user="argrath" changeset="7625262" lat="38.277969" lon="140.867957">
    <tag k="amenity" v="public_building"/>
    <tag k="name" v="宮城県仙台北県税事務所"/>
    <tag k="source" v="NRPB of MLIT Japan"/>
    <tag k="source:ja" v="国土数値情報（公共施設データ）平成18年　国土交通省"/>
    <tag k="source_ref" v="http://nlftp.mlit.go.jp/ksj/jpgis/datalist/KsjTmplt-P02-v2_0.html"/>
  </node>
  <node id="1211709784" version="1" timestamp="2011-03-21T09:26:44Z" uid="171838" user="argrath" changeset="7625262" lat="38.284424" lon="140.911665">
    <tag k="amenity" v="public_building"/>
    <tag k="name" v="宮城県消防学校"/>
    <tag k="source" v="NRPB of MLIT Japan"/>
    <tag k="source:ja" v="国土数値情報（公共施設データ）平成18年　国土交通省"/>
    <tag k="source_ref" v="http://nlftp.mlit.go.jp/ksj/jpgis/datalist/KsjTmplt-P02-v2_0.html"/>
  </node>
  <node id="1211709787" version="1" timestamp="2011-03-21T09:26:44Z" uid="171838" user="argrath" changeset="7625262" lat="38.28316" lon="140.909875">
    <tag k="amenity" v="public_building"/>
    <tag k="name" v="宮城県仙台家畜保健衛生所"/>
    <tag k="source" v="NRPB of MLIT Japan"/>
    <tag k="source:ja" v="国土数値情報（公共施設データ）平成18年　国土交通省"/>
    <tag k="source_ref" v="http://nlftp.mlit.go.jp/ksj/jpgis/datalist/KsjTmplt-P02-v2_0.html"/>
  </node>
  <node id="1211709788" version="1" timestamp="2011-03-21T09:26:44Z" uid="171838" user="argrath" changeset="7625262" lat="38.275414" lon="141.007591">
    <tag k="amenity" v="public_building"/>
    <tag k="name" v="宮城県仙台港湾事務所"/>
    <tag k="source" v="NRPB of MLIT Japan"/>
    <tag k="source:ja" v="国土数値情報（公共施設データ）平成18年　国土交通省"/>
    <tag k="source_ref" v="http://nlftp.mlit.go.jp/ksj/jpgis/datalist/KsjTmplt-P02-v2_0.html"/>
  </node>
  <node id="1211709789" version="1" timestamp="2011-03-21T09:26:44Z" uid="171838" user="argrath" changeset="7625262" lat="38.263528" lon="140.946006">
    <tag k="amenity" v="public_building"/>
    <tag k="name" v="宮城県仙台中央県税事務所扇町出張所"/>
    <tag k="source" v="NRPB of MLIT Japan"/>
    <tag k="source:ja" v="国土数値情報（公共施設データ）平成18年　国土交通省"/>
    <tag k="source_ref" v="http://nlftp.mlit.go.jp/ksj/jpgis/datalist/KsjTmplt-P02-v2_0.html"/>
  </node>
  <node id="1211709792" version="1" timestamp="2011-03-21T09:26:44Z" uid="171838" user="argrath" changeset="7625262" lat="38.275471" lon="140.907398">
    <tag k="amenity" v="public_building"/>
    <tag k="name" v="宮城県仙台土木事務所"/>
    <tag k="source" v="NRPB of MLIT Japan"/>
    <tag k="source:ja" v="国土数値情報（公共施設データ）平成18年　国土交通省"/>
    <tag k="source_ref" v="http://nlftp.mlit.go.jp/ksj/jpgis/datalist/KsjTmplt-P02-v2_0.html"/>
  </node>
  <node id="1211709796" version="1" timestamp="2011-03-21T09:26:44Z" uid="171838" user="argrath" changeset="7625262" lat="38.227419" lon="140.874348">
    <tag k="amenity" v="public_building"/>
    <tag k="name" v="宮城県仙台南県税事務所"/>
    <tag k="source" v="NRPB of MLIT Japan"/>
    <tag k="source:ja" v="国土数値情報（公共施設データ）平成18年　国土交通省"/>
    <tag k="source_ref" v="http://nlftp.mlit.go.jp/ksj/jpgis/datalist/KsjTmplt-P02-v2_0.html"/>
  </node>
  <node id="1211709798" version="1" timestamp="2011-03-21T09:26:44Z" uid="171838" user="argrath" changeset="7625262" lat="38.439351" lon="141.307072">
    <tag k="amenity" v="public_building"/>
    <tag k="name" v="宮城県石巻県税事務所"/>
    <tag k="source" v="NRPB of MLIT Japan"/>
    <tag k="source:ja" v="国土数値情報（公共施設データ）平成18年　国土交通省"/>
    <tag k="source_ref" v="http://nlftp.mlit.go.jp/ksj/jpgis/datalist/KsjTmplt-P02-v2_0.html"/>
  </node>
  <node id="1211709800" version="1" timestamp="2011-03-21T09:26:44Z" uid="171838" user="argrath" changeset="7625262" lat="38.420741" lon="141.269575">
    <tag k="amenity" v="public_building"/>
    <tag k="name" v="宮城県石巻港湾事務所"/>
    <tag k="source" v="NRPB of MLIT Japan"/>
    <tag k="source:ja" v="国土数値情報（公共施設データ）平成18年　国土交通省"/>
    <tag k="source_ref" v="http://nlftp.mlit.go.jp/ksj/jpgis/datalist/KsjTmplt-P02-v2_0.html"/>
  </node>
  <node id="1211709802" version="1" timestamp="2011-03-21T09:26:44Z" uid="171838" user="argrath" changeset="7625262" lat="38.439351" lon="141.307072">
    <tag k="amenity" v="public_building"/>
    <tag k="name" v="宮城県石巻地方振興事務所"/>
    <tag k="source" v="NRPB of MLIT Japan"/>
    <tag k="source:ja" v="国土数値情報（公共施設データ）平成18年　国土交通省"/>
    <tag k="source_ref" v="http://nlftp.mlit.go.jp/ksj/jpgis/datalist/KsjTmplt-P02-v2_0.html"/>
  </node>
  <node id="1211709804" version="1" timestamp="2011-03-21T09:26:45Z" uid="171838" user="argrath" changeset="7625262" lat="38.440462" lon="141.308739">
    <tag k="amenity" v="public_building"/>
    <tag k="name" v="宮城県石巻土木事務所"/>
    <tag k="source" v="NRPB of MLIT Japan"/>
    <tag k="source:ja" v="国土数値情報（公共施設データ）平成18年　国土交通省"/>
    <tag k="source_ref" v="http://nlftp.mlit.go.jp/ksj/jpgis/datalist/KsjTmplt-P02-v2_0.html"/>
  </node>
  <node id="1211709805" version="1" timestamp="2011-03-21T09:26:45Z" uid="171838" user="argrath" changeset="7625262" lat="38.439351" lon="141.30735">
    <tag k="amenity" v="public_building"/>
    <tag k="name" v="宮城県石巻保健福祉事務所"/>
    <tag k="source" v="NRPB of MLIT Japan"/>
    <tag k="source:ja" v="国土数値情報（公共施設データ）平成18年　国土交通省"/>
    <tag k="source_ref" v="http://nlftp.mlit.go.jp/ksj/jpgis/datalist/KsjTmplt-P02-v2_0.html"/>
  </node>
  <node id="1211709806" version="1" timestamp="2011-03-21T09:26:45Z" uid="171838" user="argrath" changeset="7625262" lat="38.464348" lon="141.286516">
    <tag k="amenity" v="public_building"/>
    <tag k="name" v="宮城県東部下水道事務所"/>
    <tag k="source" v="NRPB of MLIT Japan"/>
    <tag k="source:ja" v="国土数値情報（公共施設データ）平成18年　国土交通省"/>
    <tag k="source_ref" v="http://nlftp.mlit.go.jp/ksj/jpgis/datalist/KsjTmplt-P02-v2_0.html"/>
  </node>
  <node id="1211709807" version="1" timestamp="2011-03-21T09:26:45Z" uid="171838" user="argrath" changeset="7625262" lat="38.31047" lon="141.019608">
    <tag k="amenity" v="public_building"/>
    <tag k="name" v="宮城県塩釜県税事務所"/>
    <tag k="source" v="NRPB of MLIT Japan"/>
    <tag k="source:ja" v="国土数値情報（公共施設データ）平成18年　国土交通省"/>
    <tag k="source_ref" v="http://nlftp.mlit.go.jp/ksj/jpgis/datalist/KsjTmplt-P02-v2_0.html"/>
  </node>
  <node id="1211709809" version="1" timestamp="2011-03-21T09:26:45Z" uid="171838" user="argrath" changeset="7625262" lat="38.317415" lon="141.042105">
    <tag k="amenity" v="public_building"/>
    <tag k="name" v="宮城県塩釜港湾事務所"/>
    <tag k="source" v="NRPB of MLIT Japan"/>
    <tag k="source:ja" v="国土数値情報（公共施設データ）平成18年　国土交通省"/>
    <tag k="source_ref" v="http://nlftp.mlit.go.jp/ksj/jpgis/datalist/KsjTmplt-P02-v2_0.html"/>
  </node>
  <node id="1211709814" version="1" timestamp="2011-03-21T09:26:45Z" uid="171838" user="argrath" changeset="7625262" lat="38.32408" lon="141.028773">
    <tag k="amenity" v="public_building"/>
    <tag k="name" v="宮城県仙台保健福祉事務所塩釜総合支所"/>
    <tag k="source" v="NRPB of MLIT Japan"/>
    <tag k="source:ja" v="国土数値情報（公共施設データ）平成18年　国土交通省"/>
    <tag k="source_ref" v="http://nlftp.mlit.go.jp/ksj/jpgis/datalist/KsjTmplt-P02-v2_0.html"/>
  </node>
  <node id="1211709817" version="1" timestamp="2011-03-21T09:26:45Z" uid="171838" user="argrath" changeset="7625262" lat="38.89153" lon="141.587582">
    <tag k="amenity" v="public_building"/>
    <tag k="name" v="宮城県気仙沼県税事務所"/>
    <tag k="source" v="NRPB of MLIT Japan"/>
    <tag k="source:ja" v="国土数値情報（公共施設データ）平成18年　国土交通省"/>
    <tag k="source_ref" v="http://nlftp.mlit.go.jp/ksj/jpgis/datalist/KsjTmplt-P02-v2_0.html"/>
  </node>
  <node id="1211709819" version="1" timestamp="2011-03-21T09:26:45Z" uid="171838" user="argrath" changeset="7625262" lat="38.89153" lon="141.587582">
    <tag k="amenity" v="public_building"/>
    <tag k="name" v="宮城県気仙沼地方振興事務所"/>
    <tag k="source" v="NRPB of MLIT Japan"/>
    <tag k="source:ja" v="国土数値情報（公共施設データ）平成18年　国土交通省"/>
    <tag k="source_ref" v="http://nlftp.mlit.go.jp/ksj/jpgis/datalist/KsjTmplt-P02-v2_0.html"/>
  </node>
  <node id="1211709820" version="1" timestamp="2011-03-21T09:26:46Z" uid="171838" user="argrath" changeset="7625262" lat="38.89153" lon="141.587582">
    <tag k="amenity" v="public_building"/>
    <tag k="name" v="宮城県気仙沼土木事務所"/>
    <tag k="source" v="NRPB of MLIT Japan"/>
    <tag k="source:ja" v="国土数値情報（公共施設データ）平成18年　国土交通省"/>
    <tag k="source_ref" v="http://nlftp.mlit.go.jp/ksj/jpgis/datalist/KsjTmplt-P02-v2_0.html"/>
  </node>
  <node id="1211709821" version="1" timestamp="2011-03-21T09:26:46Z" uid="171838" user="argrath" changeset="7625262" lat="38.903319" lon="141.554237">
    <tag k="amenity" v="public_building"/>
    <tag k="name" v="宮城県気仙沼保健福祉事務所"/>
    <tag k="source" v="NRPB of MLIT Japan"/>
    <tag k="source:ja" v="国土数値情報（公共施設データ）平成18年　国土交通省"/>
    <tag k="source_ref" v="http://nlftp.mlit.go.jp/ksj/jpgis/datalist/KsjTmplt-P02-v2_0.html"/>
  </node>
  <node id="1211709822" version="1" timestamp="2011-03-21T09:26:46Z" uid="171838" user="argrath" changeset="7625262" lat="38.295194" lon="141.012665">
    <tag k="amenity" v="public_building"/>
    <tag k="name" v="宮城県仙台東土木事務所"/>
    <tag k="source" v="NRPB of MLIT Japan"/>
    <tag k="source:ja" v="国土数値情報（公共施設データ）平成18年　国土交通省"/>
    <tag k="source_ref" v="http://nlftp.mlit.go.jp/ksj/jpgis/datalist/KsjTmplt-P02-v2_0.html"/>
  </node>
  <node id="1211709825" version="1" timestamp="2011-03-21T09:26:46Z" uid="171838" user="argrath" changeset="7625262" lat="38.288808" lon="141.038219">
    <tag k="amenity" v="public_building"/>
    <tag k="name" v="宮城県中南部下水道事務所"/>
    <tag k="source" v="NRPB of MLIT Japan"/>
    <tag k="source:ja" v="国土数値情報（公共施設データ）平成18年　国土交通省"/>
    <tag k="source_ref" v="http://nlftp.mlit.go.jp/ksj/jpgis/datalist/KsjTmplt-P02-v2_0.html"/>
  </node>
  <node id="1211709828" version="1" timestamp="2011-03-21T09:26:46Z" uid="171838" user="argrath" changeset="7625262" lat="38.111319" lon="140.867687">
    <tag k="amenity" v="public_building"/>
    <tag k="name" v="宮城県仙台保健福祉事務所岩沼支所"/>
    <tag k="source" v="NRPB of MLIT Japan"/>
    <tag k="source:ja" v="国土数値情報（公共施設データ）平成18年　国土交通省"/>
    <tag k="source_ref" v="http://nlftp.mlit.go.jp/ksj/jpgis/datalist/KsjTmplt-P02-v2_0.html"/>
  </node>
  <node id="1211709831" version="1" timestamp="2011-03-21T09:26:46Z" uid="171838" user="argrath" changeset="7625262" lat="38.683765" lon="141.197625">
    <tag k="amenity" v="public_building"/>
    <tag k="name" v="宮城県登米家畜保健衛生所"/>
    <tag k="source" v="NRPB of MLIT Japan"/>
    <tag k="source:ja" v="国土数値情報（公共施設データ）平成18年　国土交通省"/>
    <tag k="source_ref" v="http://nlftp.mlit.go.jp/ksj/jpgis/datalist/KsjTmplt-P02-v2_0.html"/>
  </node>
  <node id="1211709835" version="1" timestamp="2011-03-21T09:26:46Z" uid="171838" user="argrath" changeset="7625262" lat="38.683765" lon="141.197625">
    <tag k="amenity" v="public_building"/>
    <tag k="name" v="宮城県登米県税事務所"/>
    <tag k="source" v="NRPB of MLIT Japan"/>
    <tag k="source:ja" v="国土数値情報（公共施設データ）平成18年　国土交通省"/>
    <tag k="source_ref" v="http://nlftp.mlit.go.jp/ksj/jpgis/datalist/KsjTmplt-P02-v2_0.html"/>
  </node>
  <node id="1211709836" version="1" timestamp="2011-03-21T09:26:47Z" uid="171838" user="argrath" changeset="7625262" lat="38.683765" lon="141.197625">
    <tag k="amenity" v="public_building"/>
    <tag k="name" v="宮城県登米地方振興事務所"/>
    <tag k="source" v="NRPB of MLIT Japan"/>
    <tag k="source:ja" v="国土数値情報（公共施設データ）平成18年　国土交通省"/>
    <tag k="source_ref" v="http://nlftp.mlit.go.jp/ksj/jpgis/datalist/KsjTmplt-P02-v2_0.html"/>
  </node>
  <node id="1211709838" version="1" timestamp="2011-03-21T09:26:47Z" uid="171838" user="argrath" changeset="7625262" lat="38.683765" lon="141.197625">
    <tag k="amenity" v="public_building"/>
    <tag k="name" v="宮城県登米土木事務所"/>
    <tag k="source" v="NRPB of MLIT Japan"/>
    <tag k="source:ja" v="国土数値情報（公共施設データ）平成18年　国土交通省"/>
    <tag k="source_ref" v="http://nlftp.mlit.go.jp/ksj/jpgis/datalist/KsjTmplt-P02-v2_0.html"/>
  </node>
  <node id="1211709841" version="1" timestamp="2011-03-21T09:26:47Z" uid="171838" user="argrath" changeset="7625262" lat="38.683765" lon="141.198181">
    <tag k="amenity" v="public_building"/>
    <tag k="name" v="宮城県登米保健福祉事務所"/>
    <tag k="source" v="NRPB of MLIT Japan"/>
    <tag k="source:ja" v="国土数値情報（公共施設データ）平成18年　国土交通省"/>
    <tag k="source_ref" v="http://nlftp.mlit.go.jp/ksj/jpgis/datalist/KsjTmplt-P02-v2_0.html"/>
  </node>
  <node id="1211709843" version="1" timestamp="2011-03-21T09:26:47Z" uid="171838" user="argrath" changeset="7625262" lat="38.738477" lon="141.018197">
    <tag k="amenity" v="public_building"/>
    <tag k="name" v="宮城県栗原県税事務所"/>
    <tag k="source" v="NRPB of MLIT Japan"/>
    <tag k="source:ja" v="国土数値情報（公共施設データ）平成18年　国土交通省"/>
    <tag k="source_ref" v="http://nlftp.mlit.go.jp/ksj/jpgis/datalist/KsjTmplt-P02-v2_0.html"/>
  </node>
  <node id="1211709845" version="1" timestamp="2011-03-21T09:26:47Z" uid="171838" user="argrath" changeset="7625262" lat="38.738477" lon="141.018197">
    <tag k="amenity" v="public_building"/>
    <tag k="name" v="宮城県栗原地方振興事務所"/>
    <tag k="source" v="NRPB of MLIT Japan"/>
    <tag k="source:ja" v="国土数値情報（公共施設データ）平成18年　国土交通省"/>
    <tag k="source_ref" v="http://nlftp.mlit.go.jp/ksj/jpgis/datalist/KsjTmplt-P02-v2_0.html"/>
  </node>
  <node id="1211709846" version="1" timestamp="2011-03-21T09:26:47Z" uid="171838" user="argrath" changeset="7625262" lat="38.738477" lon="141.018197">
    <tag k="amenity" v="public_building"/>
    <tag k="name" v="宮城県栗原土木事務所"/>
    <tag k="source" v="NRPB of MLIT Japan"/>
    <tag k="source:ja" v="国土数値情報（公共施設データ）平成18年　国土交通省"/>
    <tag k="source_ref" v="http://nlftp.mlit.go.jp/ksj/jpgis/datalist/KsjTmplt-P02-v2_0.html"/>
  </node>
  <node id="1211709847" version="1" timestamp="2011-03-21T09:26:47Z" uid="171838" user="argrath" changeset="7625262" lat="38.738477" lon="141.020141">
    <tag k="amenity" v="public_building"/>
    <tag k="name" v="宮城県栗原保健福祉事務所"/>
    <tag k="source" v="NRPB of MLIT Japan"/>
    <tag k="source:ja" v="国土数値情報（公共施設データ）平成18年　国土交通省"/>
    <tag k="source_ref" v="http://nlftp.mlit.go.jp/ksj/jpgis/datalist/KsjTmplt-P02-v2_0.html"/>
  </node>
  <node id="1211709848" version="1" timestamp="2011-03-21T09:26:47Z" uid="171838" user="argrath" changeset="7625262" lat="38.566273" lon="140.974878">
    <tag k="amenity" v="public_building"/>
    <tag k="name" v="宮城県大崎家畜保健衛生所"/>
    <tag k="source" v="NRPB of MLIT Japan"/>
    <tag k="source:ja" v="国土数値情報（公共施設データ）平成18年　国土交通省"/>
    <tag k="source_ref" v="http://nlftp.mlit.go.jp/ksj/jpgis/datalist/KsjTmplt-P02-v2_0.html"/>
  </node>
  <node id="1211709849" version="1" timestamp="2011-03-21T09:26:48Z" uid="171838" user="argrath" changeset="7625262" lat="38.566273" lon="140.974878">
    <tag k="amenity" v="public_building"/>
    <tag k="name" v="宮城県大崎県税事務所"/>
    <tag k="source" v="NRPB of MLIT Japan"/>
    <tag k="source:ja" v="国土数値情報（公共施設データ）平成18年　国土交通省"/>
    <tag k="source_ref" v="http://nlftp.mlit.go.jp/ksj/jpgis/datalist/KsjTmplt-P02-v2_0.html"/>
  </node>
  <node id="1211709850" version="1" timestamp="2011-03-21T09:26:48Z" uid="171838" user="argrath" changeset="7625262" lat="38.566273" lon="140.974878">
    <tag k="amenity" v="public_building"/>
    <tag k="name" v="宮城県大崎地方振興事務所"/>
    <tag k="source" v="NRPB of MLIT Japan"/>
    <tag k="source:ja" v="国土数値情報（公共施設データ）平成18年　国土交通省"/>
    <tag k="source_ref" v="http://nlftp.mlit.go.jp/ksj/jpgis/datalist/KsjTmplt-P02-v2_0.html"/>
  </node>
  <node id="1211709851" version="1" timestamp="2011-03-21T09:26:48Z" uid="171838" user="argrath" changeset="7625262" lat="38.566273" lon="140.974878">
    <tag k="amenity" v="public_building"/>
    <tag k="name" v="宮城県大崎土木事務所"/>
    <tag k="source" v="NRPB of MLIT Japan"/>
    <tag k="source:ja" v="国土数値情報（公共施設データ）平成18年　国土交通省"/>
    <tag k="source_ref" v="http://nlftp.mlit.go.jp/ksj/jpgis/datalist/KsjTmplt-P02-v2_0.html"/>
  </node>
  <node id="1211709852" version="1" timestamp="2011-03-21T09:26:48Z" uid="171838" user="argrath" changeset="7625262" lat="38.566273" lon="140.974878">
    <tag k="amenity" v="public_building"/>
    <tag k="name" v="宮城県大崎保健福祉事務所"/>
    <tag k="source" v="NRPB of MLIT Japan"/>
    <tag k="source:ja" v="国土数値情報（公共施設データ）平成18年　国土交通省"/>
    <tag k="source_ref" v="http://nlftp.mlit.go.jp/ksj/jpgis/datalist/KsjTmplt-P02-v2_0.html"/>
  </node>
  <node id="1211709853" version="1" timestamp="2011-03-21T09:26:48Z" uid="171838" user="argrath" changeset="7625262" lat="38.047154" lon="140.728812">
    <tag k="amenity" v="public_building"/>
    <tag k="name" v="宮城県仙南保健福祉事務所"/>
    <tag k="source" v="NRPB of MLIT Japan"/>
    <tag k="source:ja" v="国土数値情報（公共施設データ）平成18年　国土交通省"/>
    <tag k="source_ref" v="http://nlftp.mlit.go.jp/ksj/jpgis/datalist/KsjTmplt-P02-v2_0.html"/>
  </node>
  <node id="1211709854" version="1" timestamp="2011-03-21T09:26:48Z" uid="171838" user="argrath" changeset="7625262" lat="38.047154" lon="140.72909">
    <tag k="amenity" v="public_building"/>
    <tag k="name" v="宮城県大河原家畜保健衛生所"/>
    <tag k="source" v="NRPB of MLIT Japan"/>
    <tag k="source:ja" v="国土数値情報（公共施設データ）平成18年　国土交通省"/>
    <tag k="source_ref" v="http://nlftp.mlit.go.jp/ksj/jpgis/datalist/KsjTmplt-P02-v2_0.html"/>
  </node>
  <node id="1211709855" version="1" timestamp="2011-03-21T09:26:48Z" uid="171838" user="argrath" changeset="7625262" lat="38.047154" lon="140.72909">
    <tag k="amenity" v="public_building"/>
    <tag k="name" v="宮城県大河原県税事務所"/>
    <tag k="source" v="NRPB of MLIT Japan"/>
    <tag k="source:ja" v="国土数値情報（公共施設データ）平成18年　国土交通省"/>
    <tag k="source_ref" v="http://nlftp.mlit.go.jp/ksj/jpgis/datalist/KsjTmplt-P02-v2_0.html"/>
  </node>
  <node id="1211709856" version="1" timestamp="2011-03-21T09:26:49Z" uid="171838" user="argrath" changeset="7625262" lat="38.047154" lon="140.72909">
    <tag k="amenity" v="public_building"/>
    <tag k="name" v="宮城県大河原地方振興事務所"/>
    <tag k="source" v="NRPB of MLIT Japan"/>
    <tag k="source:ja" v="国土数値情報（公共施設データ）平成18年　国土交通省"/>
    <tag k="source_ref" v="http://nlftp.mlit.go.jp/ksj/jpgis/datalist/KsjTmplt-P02-v2_0.html"/>
  </node>
  <node id="1211709857" version="1" timestamp="2011-03-21T09:26:49Z" uid="171838" user="argrath" changeset="7625262" lat="38.047154" lon="140.728812">
    <tag k="amenity" v="public_building"/>
    <tag k="name" v="宮城県大河原土木事務所"/>
    <tag k="source" v="NRPB of MLIT Japan"/>
    <tag k="source:ja" v="国土数値情報（公共施設データ）平成18年　国土交通省"/>
    <tag k="source_ref" v="http://nlftp.mlit.go.jp/ksj/jpgis/datalist/KsjTmplt-P02-v2_0.html"/>
  </node>
  <node id="1211709858" version="1" timestamp="2011-03-21T09:26:49Z" uid="171838" user="argrath" changeset="7625262" lat="38.402677" lon="140.887394">
    <tag k="amenity" v="public_building"/>
    <tag k="name" v="宮城県仙台保健福祉事務所黒川支所"/>
    <tag k="source" v="NRPB of MLIT Japan"/>
    <tag k="source:ja" v="国土数値情報（公共施設データ）平成18年　国土交通省"/>
    <tag k="source_ref" v="http://nlftp.mlit.go.jp/ksj/jpgis/datalist/KsjTmplt-P02-v2_0.html"/>
  </node>
  <node id="1211709859" version="1" timestamp="2011-03-21T09:26:49Z" uid="171838" user="argrath" changeset="7625262" lat="38.685995" lon="141.440937">
    <tag k="amenity" v="public_building"/>
    <tag k="name" v="宮城県気仙沼県税事務所南三陸支所"/>
    <tag k="source" v="NRPB of MLIT Japan"/>
    <tag k="source:ja" v="国土数値情報（公共施設データ）平成18年　国土交通省"/>
    <tag k="source_ref" v="http://nlftp.mlit.go.jp/ksj/jpgis/datalist/KsjTmplt-P02-v2_0.html"/>
  </node>
  <node id="1211709860" version="1" timestamp="2011-03-21T09:26:49Z" uid="171838" user="argrath" changeset="7625262" lat="38.439351" lon="141.307072">
    <tag k="amenity" v="public_building"/>
    <tag k="name" v="宮城県石巻保健所"/>
    <tag k="source" v="NRPB of MLIT Japan"/>
    <tag k="source:ja" v="国土数値情報（公共施設データ）平成18年　国土交通省"/>
    <tag k="source_ref" v="http://nlftp.mlit.go.jp/ksj/jpgis/datalist/KsjTmplt-P02-v2_0.html"/>
  </node>
  <node id="1211709861" version="1" timestamp="2011-03-21T09:26:50Z" uid="171838" user="argrath" changeset="7625262" lat="38.32408" lon="141.028773">
    <tag k="amenity" v="public_building"/>
    <tag k="name" v="宮城県塩釜保健所"/>
    <tag k="source" v="NRPB of MLIT Japan"/>
    <tag k="source:ja" v="国土数値情報（公共施設データ）平成18年　国土交通省"/>
    <tag k="source_ref" v="http://nlftp.mlit.go.jp/ksj/jpgis/datalist/KsjTmplt-P02-v2_0.html"/>
  </node>
  <node id="1211709862" version="1" timestamp="2011-03-21T09:26:50Z" uid="171838" user="argrath" changeset="7625262" lat="38.903319" lon="141.554237">
    <tag k="amenity" v="public_building"/>
    <tag k="name" v="宮城県気仙沼保健所"/>
    <tag k="source" v="NRPB of MLIT Japan"/>
    <tag k="source:ja" v="国土数値情報（公共施設データ）平成18年　国土交通省"/>
    <tag k="source_ref" v="http://nlftp.mlit.go.jp/ksj/jpgis/datalist/KsjTmplt-P02-v2_0.html"/>
  </node>
  <node id="1211709863" version="1" timestamp="2011-03-21T09:26:50Z" uid="171838" user="argrath" changeset="7625262" lat="38.683765" lon="141.197625">
    <tag k="amenity" v="public_building"/>
    <tag k="name" v="宮城県登米保健所"/>
    <tag k="source" v="NRPB of MLIT Japan"/>
    <tag k="source:ja" v="国土数値情報（公共施設データ）平成18年　国土交通省"/>
    <tag k="source_ref" v="http://nlftp.mlit.go.jp/ksj/jpgis/datalist/KsjTmplt-P02-v2_0.html"/>
  </node>
  <node id="1211709864" version="1" timestamp="2011-03-21T09:26:50Z" uid="171838" user="argrath" changeset="7625262" lat="38.738477" lon="141.018197">
    <tag k="amenity" v="public_building"/>
    <tag k="name" v="宮城県栗原保健所"/>
    <tag k="source" v="NRPB of MLIT Japan"/>
    <tag k="source:ja" v="国土数値情報（公共施設データ）平成18年　国土交通省"/>
    <tag k="source_ref" v="http://nlftp.mlit.go.jp/ksj/jpgis/datalist/KsjTmplt-P02-v2_0.html"/>
  </node>
  <node id="1211709865" version="1" timestamp="2011-03-21T09:26:50Z" uid="171838" user="argrath" changeset="7625262" lat="38.566273" lon="140.974878">
    <tag k="amenity" v="public_building"/>
    <tag k="name" v="宮城県大崎保健所"/>
    <tag k="source" v="NRPB of MLIT Japan"/>
    <tag k="source:ja" v="国土数値情報（公共施設データ）平成18年　国土交通省"/>
    <tag k="source_ref" v="http://nlftp.mlit.go.jp/ksj/jpgis/datalist/KsjTmplt-P02-v2_0.html"/>
  </node>
  <node id="1211709866" version="1" timestamp="2011-03-21T09:26:50Z" uid="171838" user="argrath" changeset="7625262" lat="38.047154" lon="140.72909">
    <tag k="amenity" v="public_building"/>
    <tag k="name" v="宮城県仙南保健所"/>
    <tag k="source" v="NRPB of MLIT Japan"/>
    <tag k="source:ja" v="国土数値情報（公共施設データ）平成18年　国土交通省"/>
    <tag k="source_ref" v="http://nlftp.mlit.go.jp/ksj/jpgis/datalist/KsjTmplt-P02-v2_0.html"/>
  </node>
  <node id="1211709867" version="1" timestamp="2011-03-21T09:26:50Z" uid="171838" user="argrath" changeset="7625262" lat="38.268803" lon="140.872124">
    <tag k="amenity" v="police"/>
    <tag k="name" v="宮城県警察本部"/>
    <tag k="source" v="NRPB of MLIT Japan"/>
    <tag k="source:ja" v="国土数値情報（公共施設データ）平成18年　国土交通省"/>
    <tag k="source_ref" v="http://nlftp.mlit.go.jp/ksj/jpgis/datalist/KsjTmplt-P02-v2_0.html"/>
  </node>
  <node id="1211709868" version="1" timestamp="2011-03-21T09:26:51Z" uid="171838" user="argrath" changeset="7625262" lat="38.25475" lon="140.878966">
    <tag k="amenity" v="police"/>
    <tag k="name" v="仙台中央警察署"/>
    <tag k="source" v="NRPB of MLIT Japan"/>
    <tag k="source:ja" v="国土数値情報（公共施設データ）平成18年　国土交通省"/>
    <tag k="source_ref" v="http://nlftp.mlit.go.jp/ksj/jpgis/datalist/KsjTmplt-P02-v2_0.html"/>
  </node>
  <node id="1211709869" version="1" timestamp="2011-03-21T09:26:51Z" uid="171838" user="argrath" changeset="7625262" lat="38.279913" lon="140.87129">
    <tag k="amenity" v="police"/>
    <tag k="name" v="仙台北警察署"/>
    <tag k="source" v="NRPB of MLIT Japan"/>
    <tag k="source:ja" v="国土数値情報（公共施設データ）平成18年　国土交通省"/>
    <tag k="source_ref" v="http://nlftp.mlit.go.jp/ksj/jpgis/datalist/KsjTmplt-P02-v2_0.html"/>
  </node>
  <node id="1211709870" version="1" timestamp="2011-03-21T09:26:51Z" uid="171838" user="argrath" changeset="7625262" lat="38.268528" lon="140.924897">
    <tag k="amenity" v="police"/>
    <tag k="name" v="仙台東警察署"/>
    <tag k="source" v="NRPB of MLIT Japan"/>
    <tag k="source:ja" v="国土数値情報（公共施設データ）平成18年　国土交通省"/>
    <tag k="source_ref" v="http://nlftp.mlit.go.jp/ksj/jpgis/datalist/KsjTmplt-P02-v2_0.html"/>
  </node>
  <node id="1211709871" version="1" timestamp="2011-03-21T09:26:51Z" uid="171838" user="argrath" changeset="7625262" lat="38.224364" lon="140.883792">
    <tag k="amenity" v="police"/>
    <tag k="name" v="仙台南警察署"/>
    <tag k="source" v="NRPB of MLIT Japan"/>
    <tag k="source:ja" v="国土数値情報（公共施設データ）平成18年　国土交通省"/>
    <tag k="source_ref" v="http://nlftp.mlit.go.jp/ksj/jpgis/datalist/KsjTmplt-P02-v2_0.html"/>
  </node>
  <node id="1211709872" version="1" timestamp="2011-03-21T09:26:51Z" uid="171838" user="argrath" changeset="7625262" lat="38.322408" lon="140.882398">
    <tag k="amenity" v="police"/>
    <tag k="name" v="泉警察署"/>
    <tag k="source" v="NRPB of MLIT Japan"/>
    <tag k="source:ja" v="国土数値情報（公共施設データ）平成18年　国土交通省"/>
    <tag k="source_ref" v="http://nlftp.mlit.go.jp/ksj/jpgis/datalist/KsjTmplt-P02-v2_0.html"/>
  </node>
  <node id="1211709873" version="1" timestamp="2011-03-21T09:26:51Z" uid="171838" user="argrath" changeset="7625262" lat="38.522676" lon="141.3129">
    <tag k="amenity" v="police"/>
    <tag k="name" v="河北警察署"/>
    <tag k="source" v="NRPB of MLIT Japan"/>
    <tag k="source:ja" v="国土数値情報（公共施設データ）平成18年　国土交通省"/>
    <tag k="source_ref" v="http://nlftp.mlit.go.jp/ksj/jpgis/datalist/KsjTmplt-P02-v2_0.html"/>
  </node>
  <node id="1211709874" version="1" timestamp="2011-03-21T09:26:52Z" uid="171838" user="argrath" changeset="7625262" lat="38.43324" lon="141.29374">
    <tag k="amenity" v="police"/>
    <tag k="name" v="石巻警察署"/>
    <tag k="source" v="NRPB of MLIT Japan"/>
    <tag k="source:ja" v="国土数値情報（公共施設データ）平成18年　国土交通省"/>
    <tag k="source_ref" v="http://nlftp.mlit.go.jp/ksj/jpgis/datalist/KsjTmplt-P02-v2_0.html"/>
  </node>
  <node id="1211709875" version="1" timestamp="2011-03-21T09:26:52Z" uid="171838" user="argrath" changeset="7625262" lat="38.323247" lon="141.025995">
    <tag k="amenity" v="police"/>
    <tag k="name" v="塩釜警察署"/>
    <tag k="source" v="NRPB of MLIT Japan"/>
    <tag k="source:ja" v="国土数値情報（公共施設データ）平成18年　国土交通省"/>
    <tag k="source_ref" v="http://nlftp.mlit.go.jp/ksj/jpgis/datalist/KsjTmplt-P02-v2_0.html"/>
  </node>
  <node id="1211709876" version="1" timestamp="2011-03-21T09:26:52Z" uid="171838" user="argrath" changeset="7625262" lat="38.893196" lon="141.569251">
    <tag k="amenity" v="police"/>
    <tag k="name" v="気仙沼警察署"/>
    <tag k="source" v="NRPB of MLIT Japan"/>
    <tag k="source:ja" v="国土数値情報（公共施設データ）平成18年　国土交通省"/>
    <tag k="source_ref" v="http://nlftp.mlit.go.jp/ksj/jpgis/datalist/KsjTmplt-P02-v2_0.html"/>
  </node>
  <node id="1211709877" version="1" timestamp="2011-03-21T09:26:52Z" uid="171838" user="argrath" changeset="7625262" lat="37.987157" lon="140.616047">
    <tag k="amenity" v="police"/>
    <tag k="name" v="白石警察署"/>
    <tag k="source" v="NRPB of MLIT Japan"/>
    <tag k="source:ja" v="国土数値情報（公共施設データ）平成18年　国土交通省"/>
    <tag k="source_ref" v="http://nlftp.mlit.go.jp/ksj/jpgis/datalist/KsjTmplt-P02-v2_0.html"/>
  </node>
  <node id="1211709878" version="1" timestamp="2011-03-21T09:26:52Z" uid="171838" user="argrath" changeset="7625262" lat="37.977163" lon="140.788256">
    <tag k="amenity" v="police"/>
    <tag k="name" v="角田警察署"/>
    <tag k="source" v="NRPB of MLIT Japan"/>
    <tag k="source:ja" v="国土数値情報（公共施設データ）平成18年　国土交通省"/>
    <tag k="source_ref" v="http://nlftp.mlit.go.jp/ksj/jpgis/datalist/KsjTmplt-P02-v2_0.html"/>
  </node>
  <node id="1211709879" version="1" timestamp="2011-03-21T09:26:52Z" uid="171838" user="argrath" changeset="7625262" lat="38.110764" lon="140.875187">
    <tag k="amenity" v="police"/>
    <tag k="name" v="岩沼警察署"/>
    <tag k="source" v="NRPB of MLIT Japan"/>
    <tag k="source:ja" v="国土数値情報（公共施設データ）平成18年　国土交通省"/>
    <tag k="source_ref" v="http://nlftp.mlit.go.jp/ksj/jpgis/datalist/KsjTmplt-P02-v2_0.html"/>
  </node>
  <node id="1211709880" version="1" timestamp="2011-03-21T09:26:52Z" uid="171838" user="argrath" changeset="7625262" lat="38.690986" lon="141.181793">
    <tag k="amenity" v="police"/>
    <tag k="name" v="佐沼警察署"/>
    <tag k="source" v="NRPB of MLIT Japan"/>
    <tag k="source:ja" v="国土数値情報（公共施設データ）平成18年　国土交通省"/>
    <tag k="source_ref" v="http://nlftp.mlit.go.jp/ksj/jpgis/datalist/KsjTmplt-P02-v2_0.html"/>
  </node>
  <node id="1211709881" version="1" timestamp="2011-03-21T09:26:52Z" uid="171838" user="argrath" changeset="7625262" lat="38.657652" lon="141.27281">
    <tag k="amenity" v="police"/>
    <tag k="name" v="登米警察署"/>
    <tag k="source" v="NRPB of MLIT Japan"/>
    <tag k="source:ja" v="国土数値情報（公共施設データ）平成18年　国土交通省"/>
    <tag k="source_ref" v="http://nlftp.mlit.go.jp/ksj/jpgis/datalist/KsjTmplt-P02-v2_0.html"/>
  </node>
  <node id="1211709882" version="1" timestamp="2011-03-21T09:26:53Z" uid="171838" user="argrath" changeset="7625262" lat="38.770142" lon="141.134572">
    <tag k="amenity" v="police"/>
    <tag k="name" v="若柳警察署"/>
    <tag k="source" v="NRPB of MLIT Japan"/>
    <tag k="source:ja" v="国土数値情報（公共施設データ）平成18年　国土交通省"/>
    <tag k="source_ref" v="http://nlftp.mlit.go.jp/ksj/jpgis/datalist/KsjTmplt-P02-v2_0.html"/>
  </node>
  <node id="1211709883" version="1" timestamp="2011-03-21T09:26:53Z" uid="171838" user="argrath" changeset="7625262" lat="38.744031" lon="141.014863">
    <tag k="amenity" v="police"/>
    <tag k="name" v="築館警察署"/>
    <tag k="source" v="NRPB of MLIT Japan"/>
    <tag k="source:ja" v="国土数値情報（公共施設データ）平成18年　国土交通省"/>
    <tag k="source_ref" v="http://nlftp.mlit.go.jp/ksj/jpgis/datalist/KsjTmplt-P02-v2_0.html"/>
  </node>
  <node id="1211709884" version="1" timestamp="2011-03-21T09:26:53Z" uid="171838" user="argrath" changeset="7625262" lat="38.581825" lon="140.956824">
    <tag k="amenity" v="police"/>
    <tag k="name" v="古川警察署"/>
    <tag k="source" v="NRPB of MLIT Japan"/>
    <tag k="source:ja" v="国土数値情報（公共施設データ）平成18年　国土交通省"/>
    <tag k="source_ref" v="http://nlftp.mlit.go.jp/ksj/jpgis/datalist/KsjTmplt-P02-v2_0.html"/>
  </node>
  <node id="1211709885" version="1" timestamp="2011-03-21T09:26:53Z" uid="171838" user="argrath" changeset="7625262" lat="38.748745" lon="140.727393">
    <tag k="amenity" v="police"/>
    <tag k="name" v="鳴子警察署"/>
    <tag k="source" v="NRPB of MLIT Japan"/>
    <tag k="source:ja" v="国土数値情報（公共施設データ）平成18年　国土交通省"/>
    <tag k="source_ref" v="http://nlftp.mlit.go.jp/ksj/jpgis/datalist/KsjTmplt-P02-v2_0.html"/>
  </node>
  <node id="1211709886" version="1" timestamp="2011-03-21T09:26:53Z" uid="171838" user="argrath" changeset="7625262" lat="38.044932" lon="140.7427">
    <tag k="amenity" v="police"/>
    <tag k="name" v="大河原警察署"/>
    <tag k="source" v="NRPB of MLIT Japan"/>
    <tag k="source:ja" v="国土数値情報（公共施設データ）平成18年　国土交通省"/>
    <tag k="source_ref" v="http://nlftp.mlit.go.jp/ksj/jpgis/datalist/KsjTmplt-P02-v2_0.html"/>
  </node>
  <node id="1211709887" version="1" timestamp="2011-03-21T09:26:54Z" uid="171838" user="argrath" changeset="7625262" lat="38.034381" lon="140.847693">
    <tag k="amenity" v="police"/>
    <tag k="name" v="亘理警察署"/>
    <tag k="source" v="NRPB of MLIT Japan"/>
    <tag k="source:ja" v="国土数値情報（公共施設データ）平成18年　国土交通省"/>
    <tag k="source_ref" v="http://nlftp.mlit.go.jp/ksj/jpgis/datalist/KsjTmplt-P02-v2_0.html"/>
  </node>
  <node id="1211709888" version="1" timestamp="2011-03-21T09:26:54Z" uid="171838" user="argrath" changeset="7625262" lat="38.435728" lon="140.890447">
    <tag k="amenity" v="police"/>
    <tag k="name" v="大和警察署"/>
    <tag k="source" v="NRPB of MLIT Japan"/>
    <tag k="source:ja" v="国土数値情報（公共施設データ）平成18年　国土交通省"/>
    <tag k="source_ref" v="http://nlftp.mlit.go.jp/ksj/jpgis/datalist/KsjTmplt-P02-v2_0.html"/>
  </node>
  <node id="1211709889" version="1" timestamp="2011-03-21T09:26:54Z" uid="171838" user="argrath" changeset="7625262" lat="38.565994" lon="140.859889">
    <tag k="amenity" v="police"/>
    <tag k="name" v="加美警察署"/>
    <tag k="source" v="NRPB of MLIT Japan"/>
    <tag k="source:ja" v="国土数値情報（公共施設データ）平成18年　国土交通省"/>
    <tag k="source_ref" v="http://nlftp.mlit.go.jp/ksj/jpgis/datalist/KsjTmplt-P02-v2_0.html"/>
  </node>
  <node id="1211709890" version="1" timestamp="2011-03-21T09:26:54Z" uid="171838" user="argrath" changeset="7625262" lat="38.54461" lon="141.061813">
    <tag k="amenity" v="police"/>
    <tag k="name" v="遠田警察署"/>
    <tag k="source" v="NRPB of MLIT Japan"/>
    <tag k="source:ja" v="国土数値情報（公共施設データ）平成18年　国土交通省"/>
    <tag k="source_ref" v="http://nlftp.mlit.go.jp/ksj/jpgis/datalist/KsjTmplt-P02-v2_0.html"/>
  </node>
  <node id="1211709891" version="1" timestamp="2011-03-21T09:26:54Z" uid="171838" user="argrath" changeset="7625262" lat="38.674885" lon="141.442882">
    <tag k="amenity" v="police"/>
    <tag k="name" v="南三陸警察署"/>
    <tag k="source" v="NRPB of MLIT Japan"/>
    <tag k="source:ja" v="国土数値情報（公共施設データ）平成18年　国土交通省"/>
    <tag k="source_ref" v="http://nlftp.mlit.go.jp/ksj/jpgis/datalist/KsjTmplt-P02-v2_0.html"/>
  </node>
  <node id="1211709896" version="1" timestamp="2011-03-21T09:26:54Z" uid="171838" user="argrath" changeset="7625262" lat="38.252972" lon="140.881013">
    <tag k="amenity" v="police"/>
    <tag k="name" v="仙台中央警察署五橋交番"/>
    <tag k="source" v="NRPB of MLIT Japan"/>
    <tag k="source:ja" v="国土数値情報（公共施設データ）平成18年　国土交通省"/>
    <tag k="source_ref" v="http://nlftp.mlit.go.jp/ksj/jpgis/datalist/KsjTmplt-P02-v2_0.html"/>
  </node>
  <node id="1211709898" version="1" timestamp="2011-03-21T09:26:54Z" uid="171838" user="argrath" changeset="7625262" lat="38.264032" lon="140.868692">
    <tag k="amenity" v="police"/>
    <tag k="name" v="仙台中央警察署国分町交番"/>
    <tag k="source" v="NRPB of MLIT Japan"/>
    <tag k="source:ja" v="国土数値情報（公共施設データ）平成18年　国土交通省"/>
    <tag k="source_ref" v="http://nlftp.mlit.go.jp/ksj/jpgis/datalist/KsjTmplt-P02-v2_0.html"/>
  </node>
  <node id="1211709901" version="1" timestamp="2011-03-21T09:26:57Z" uid="171838" user="argrath" changeset="7625264" lat="38.261304" lon="140.881846">
    <tag k="amenity" v="police"/>
    <tag k="name" v="仙台中央警察署仙台駅交番"/>
    <tag k="source" v="NRPB of MLIT Japan"/>
    <tag k="source:ja" v="国土数値情報（公共施設データ）平成18年　国土交通省"/>
    <tag k="source_ref" v="http://nlftp.mlit.go.jp/ksj/jpgis/datalist/KsjTmplt-P02-v2_0.html"/>
  </node>
  <node id="1211709902" version="1" timestamp="2011-03-21T09:26:57Z" uid="171838" user="argrath" changeset="7625264" lat="38.259082" lon="140.863515">
    <tag k="amenity" v="police"/>
    <tag k="name" v="仙台中央警察署大町交番"/>
    <tag k="source" v="NRPB of MLIT Japan"/>
    <tag k="source:ja" v="国土数値情報（公共施設データ）平成18年　国土交通省"/>
    <tag k="source_ref" v="http://nlftp.mlit.go.jp/ksj/jpgis/datalist/KsjTmplt-P02-v2_0.html"/>
  </node>
  <node id="1211709903" version="1" timestamp="2011-03-21T09:26:57Z" uid="171838" user="argrath" changeset="7625264" lat="38.259638" lon="140.874902">
    <tag k="amenity" v="police"/>
    <tag k="name" v="仙台中央警察署東二番丁交番"/>
    <tag k="source" v="NRPB of MLIT Japan"/>
    <tag k="source:ja" v="国土数値情報（公共施設データ）平成18年　国土交通省"/>
    <tag k="source_ref" v="http://nlftp.mlit.go.jp/ksj/jpgis/datalist/KsjTmplt-P02-v2_0.html"/>
  </node>
  <node id="1211709904" version="1" timestamp="2011-03-21T09:26:57Z" uid="171838" user="argrath" changeset="7625264" lat="38.266304" lon="140.875735">
    <tag k="amenity" v="police"/>
    <tag k="name" v="仙台中央警察署本町交番"/>
    <tag k="source" v="NRPB of MLIT Japan"/>
    <tag k="source:ja" v="国土数値情報（公共施設データ）平成18年　国土交通省"/>
    <tag k="source_ref" v="http://nlftp.mlit.go.jp/ksj/jpgis/datalist/KsjTmplt-P02-v2_0.html"/>
  </node>
  <node id="1211709905" version="1" timestamp="2011-03-21T09:26:58Z" uid="171838" user="argrath" changeset="7625264" lat="38.272134" lon="140.793798">
    <tag k="amenity" v="police"/>
    <tag k="name" v="仙台北警察署愛子交番"/>
    <tag k="source" v="NRPB of MLIT Japan"/>
    <tag k="source:ja" v="国土数値情報（公共施設データ）平成18年　国土交通省"/>
    <tag k="source_ref" v="http://nlftp.mlit.go.jp/ksj/jpgis/datalist/KsjTmplt-P02-v2_0.html"/>
  </node>
  <node id="1211709906" version="1" timestamp="2011-03-21T09:26:58Z" uid="171838" user="argrath" changeset="7625264" lat="38.274809" lon="140.88079">
    <tag k="amenity" v="police"/>
    <tag k="name" v="仙台北警察署宮町交番"/>
    <tag k="source" v="NRPB of MLIT Japan"/>
    <tag k="source:ja" v="国土数値情報（公共施設データ）平成18年　国土交通省"/>
    <tag k="source_ref" v="http://nlftp.mlit.go.jp/ksj/jpgis/datalist/KsjTmplt-P02-v2_0.html"/>
  </node>
  <node id="1211709907" version="1" timestamp="2011-03-21T09:26:58Z" uid="171838" user="argrath" changeset="7625264" lat="38.289038" lon="140.855165">
    <tag k="amenity" v="police"/>
    <tag k="name" v="仙台北警察署荒巻交番"/>
    <tag k="source" v="NRPB of MLIT Japan"/>
    <tag k="source:ja" v="国土数値情報（公共施設データ）平成18年　国土交通省"/>
    <tag k="source_ref" v="http://nlftp.mlit.go.jp/ksj/jpgis/datalist/KsjTmplt-P02-v2_0.html"/>
  </node>
  <node id="1211709908" version="1" timestamp="2011-03-21T09:26:58Z" uid="171838" user="argrath" changeset="7625264" lat="38.286025" lon="140.888232">
    <tag k="amenity" v="police"/>
    <tag k="name" v="仙台北警察署小松島交番"/>
    <tag k="source" v="NRPB of MLIT Japan"/>
    <tag k="source:ja" v="国土数値情報（公共施設データ）平成18年　国土交通省"/>
    <tag k="source_ref" v="http://nlftp.mlit.go.jp/ksj/jpgis/datalist/KsjTmplt-P02-v2_0.html"/>
  </node>
  <node id="1211709909" version="1" timestamp="2011-03-21T09:26:58Z" uid="171838" user="argrath" changeset="7625264" lat="38.304911" lon="140.878232">
    <tag k="amenity" v="police"/>
    <tag k="name" v="仙台北警察署双葉ヶ丘交番"/>
    <tag k="source" v="NRPB of MLIT Japan"/>
    <tag k="source:ja" v="国土数値情報（公共施設データ）平成18年　国土交通省"/>
    <tag k="source_ref" v="http://nlftp.mlit.go.jp/ksj/jpgis/datalist/KsjTmplt-P02-v2_0.html"/>
  </node>
  <node id="1211709910" version="1" timestamp="2011-03-21T09:26:58Z" uid="171838" user="argrath" changeset="7625264" lat="38.294077" lon="140.833238">
    <tag k="amenity" v="police"/>
    <tag k="name" v="仙台北警察署中山交番"/>
    <tag k="source" v="NRPB of MLIT Japan"/>
    <tag k="source:ja" v="国土数値情報（公共施設データ）平成18年　国土交通省"/>
    <tag k="source_ref" v="http://nlftp.mlit.go.jp/ksj/jpgis/datalist/KsjTmplt-P02-v2_0.html"/>
  </node>
  <node id="1211709911" version="1" timestamp="2011-03-21T09:26:59Z" uid="171838" user="argrath" changeset="7625264" lat="38.281024" lon="140.863791">
    <tag k="amenity" v="police"/>
    <tag k="name" v="仙台北警察署通町交番"/>
    <tag k="source" v="NRPB of MLIT Japan"/>
    <tag k="source:ja" v="国土数値情報（公共施設データ）平成18年　国土交通省"/>
    <tag k="source_ref" v="http://nlftp.mlit.go.jp/ksj/jpgis/datalist/KsjTmplt-P02-v2_0.html"/>
  </node>
  <node id="1211709912" version="1" timestamp="2011-03-21T09:26:59Z" uid="171838" user="argrath" changeset="7625264" lat="38.289111" lon="140.820384">
    <tag k="amenity" v="police"/>
    <tag k="name" v="仙台北警察署南吉成交番"/>
    <tag k="source" v="NRPB of MLIT Japan"/>
    <tag k="source:ja" v="国土数値情報（公共施設データ）平成18年　国土交通省"/>
    <tag k="source_ref" v="http://nlftp.mlit.go.jp/ksj/jpgis/datalist/KsjTmplt-P02-v2_0.html"/>
  </node>
  <node id="1211709913" version="1" timestamp="2011-03-21T09:26:59Z" uid="171838" user="argrath" changeset="7625264" lat="38.269636" lon="140.850182">
    <tag k="amenity" v="police"/>
    <tag k="name" v="仙台北警察署八幡交番"/>
    <tag k="source" v="NRPB of MLIT Japan"/>
    <tag k="source:ja" v="国土数値情報（公共施設データ）平成18年　国土交通省"/>
    <tag k="source_ref" v="http://nlftp.mlit.go.jp/ksj/jpgis/datalist/KsjTmplt-P02-v2_0.html"/>
  </node>
  <node id="1211709914" version="1" timestamp="2011-03-21T09:26:59Z" uid="171838" user="argrath" changeset="7625264" lat="38.270806" lon="140.864789">
    <tag k="amenity" v="police"/>
    <tag k="name" v="仙台北警察署木町通交番"/>
    <tag k="source" v="NRPB of MLIT Japan"/>
    <tag k="source:ja" v="国土数値情報（公共施設データ）平成18年　国土交通省"/>
    <tag k="source_ref" v="http://nlftp.mlit.go.jp/ksj/jpgis/datalist/KsjTmplt-P02-v2_0.html"/>
  </node>
  <node id="1211709915" version="1" timestamp="2011-03-21T09:26:59Z" uid="171838" user="argrath" changeset="7625264" lat="38.268528" lon="140.916842">
    <tag k="amenity" v="police"/>
    <tag k="name" v="仙台東警察署苦竹交番"/>
    <tag k="source" v="NRPB of MLIT Japan"/>
    <tag k="source:ja" v="国土数値情報（公共施設データ）平成18年　国土交通省"/>
    <tag k="source_ref" v="http://nlftp.mlit.go.jp/ksj/jpgis/datalist/KsjTmplt-P02-v2_0.html"/>
  </node>
  <node id="1211709916" version="1" timestamp="2011-03-21T09:27:00Z" uid="171838" user="argrath" changeset="7625264" lat="38.272971" lon="140.90462">
    <tag k="amenity" v="police"/>
    <tag k="name" v="仙台東警察署幸町交番"/>
    <tag k="source" v="NRPB of MLIT Japan"/>
    <tag k="source:ja" v="国土数値情報（公共施設データ）平成18年　国土交通省"/>
    <tag k="source_ref" v="http://nlftp.mlit.go.jp/ksj/jpgis/datalist/KsjTmplt-P02-v2_0.html"/>
  </node>
  <node id="1211709917" version="1" timestamp="2011-03-21T09:27:00Z" uid="171838" user="argrath" changeset="7625264" lat="38.27214" lon="140.96656">
    <tag k="amenity" v="police"/>
    <tag k="name" v="仙台東警察署高砂交番"/>
    <tag k="source" v="NRPB of MLIT Japan"/>
    <tag k="source:ja" v="国土数値情報（公共施設データ）平成18年　国土交通省"/>
    <tag k="source_ref" v="http://nlftp.mlit.go.jp/ksj/jpgis/datalist/KsjTmplt-P02-v2_0.html"/>
  </node>
  <node id="1211709918" version="1" timestamp="2011-03-21T09:27:00Z" uid="171838" user="argrath" changeset="7625264" lat="38.260884" lon="140.884238">
    <tag k="amenity" v="police"/>
    <tag k="name" v="仙台東警察署仙台駅東口交番"/>
    <tag k="source" v="NRPB of MLIT Japan"/>
    <tag k="source:ja" v="国土数値情報（公共施設データ）平成18年　国土交通省"/>
    <tag k="source_ref" v="http://nlftp.mlit.go.jp/ksj/jpgis/datalist/KsjTmplt-P02-v2_0.html"/>
  </node>
  <node id="1211709919" version="1" timestamp="2011-03-21T09:27:00Z" uid="171838" user="argrath" changeset="7625264" lat="38.257972" lon="140.901844">
    <tag k="amenity" v="police"/>
    <tag k="name" v="仙台東警察署総合グランド前交番"/>
    <tag k="source" v="NRPB of MLIT Japan"/>
    <tag k="source:ja" v="国土数値情報（公共施設データ）平成18年　国土交通省"/>
    <tag k="source_ref" v="http://nlftp.mlit.go.jp/ksj/jpgis/datalist/KsjTmplt-P02-v2_0.html"/>
  </node>
  <node id="1211709920" version="1" timestamp="2011-03-21T09:27:00Z" uid="171838" user="argrath" changeset="7625264" lat="38.290469" lon="140.916563">
    <tag k="amenity" v="police"/>
    <tag k="name" v="仙台東警察署鶴ヶ谷交番"/>
    <tag k="source" v="NRPB of MLIT Japan"/>
    <tag k="source:ja" v="国土数値情報（公共施設データ）平成18年　国土交通省"/>
    <tag k="source_ref" v="http://nlftp.mlit.go.jp/ksj/jpgis/datalist/KsjTmplt-P02-v2_0.html"/>
  </node>
  <node id="1211709921" version="1" timestamp="2011-03-21T09:27:00Z" uid="171838" user="argrath" changeset="7625264" lat="38.277971" lon="140.91823">
    <tag k="amenity" v="police"/>
    <tag k="name" v="仙台東警察署東仙台交番"/>
    <tag k="source" v="NRPB of MLIT Japan"/>
    <tag k="source:ja" v="国土数値情報（公共施設データ）平成18年　国土交通省"/>
    <tag k="source_ref" v="http://nlftp.mlit.go.jp/ksj/jpgis/datalist/KsjTmplt-P02-v2_0.html"/>
  </node>
  <node id="1211709922" version="1" timestamp="2011-03-21T09:27:00Z" uid="171838" user="argrath" changeset="7625264" lat="38.25714" lon="140.935452">
    <tag k="amenity" v="police"/>
    <tag k="name" v="仙台東警察署卸町交番"/>
    <tag k="source" v="NRPB of MLIT Japan"/>
    <tag k="source:ja" v="国土数値情報（公共施設データ）平成18年　国土交通省"/>
    <tag k="source_ref" v="http://nlftp.mlit.go.jp/ksj/jpgis/datalist/KsjTmplt-P02-v2_0.html"/>
  </node>
  <node id="1211709923" version="1" timestamp="2011-03-21T09:27:00Z" uid="171838" user="argrath" changeset="7625264" lat="38.242286" lon="140.887054">
    <tag k="amenity" v="police"/>
    <tag k="name" v="仙台南警察署河原町交番"/>
    <tag k="source" v="NRPB of MLIT Japan"/>
    <tag k="source:ja" v="国土数値情報（公共施設データ）平成18年　国土交通省"/>
    <tag k="source_ref" v="http://nlftp.mlit.go.jp/ksj/jpgis/datalist/KsjTmplt-P02-v2_0.html"/>
  </node>
  <node id="1211709924" version="1" timestamp="2011-03-21T09:27:01Z" uid="171838" user="argrath" changeset="7625264" lat="38.243822" lon="140.936599">
    <tag k="amenity" v="police"/>
    <tag k="name" v="仙台南警察署荒井交番"/>
    <tag k="source" v="NRPB of MLIT Japan"/>
    <tag k="source:ja" v="国土数値情報（公共施設データ）平成18年　国土交通省"/>
    <tag k="source_ref" v="http://nlftp.mlit.go.jp/ksj/jpgis/datalist/KsjTmplt-P02-v2_0.html"/>
  </node>
  <node id="1211709925" version="1" timestamp="2011-03-21T09:27:01Z" uid="171838" user="argrath" changeset="7625264" lat="38.242974" lon="140.912122">
    <tag k="amenity" v="police"/>
    <tag k="name" v="仙台南警察署若林区中央幹部交番"/>
    <tag k="source" v="NRPB of MLIT Japan"/>
    <tag k="source:ja" v="国土数値情報（公共施設データ）平成18年　国土交通省"/>
    <tag k="source_ref" v="http://nlftp.mlit.go.jp/ksj/jpgis/datalist/KsjTmplt-P02-v2_0.html"/>
  </node>
  <node id="1211709926" version="1" timestamp="2011-03-21T09:27:01Z" uid="171838" user="argrath" changeset="7625264" lat="38.251028" lon="140.892123">
    <tag k="amenity" v="police"/>
    <tag k="name" v="仙台南警察署連坊小路交番"/>
    <tag k="source" v="NRPB of MLIT Japan"/>
    <tag k="source:ja" v="国土数値情報（公共施設データ）平成18年　国土交通省"/>
    <tag k="source_ref" v="http://nlftp.mlit.go.jp/ksj/jpgis/datalist/KsjTmplt-P02-v2_0.html"/>
  </node>
  <node id="1211709927" version="1" timestamp="2011-03-21T09:27:01Z" uid="171838" user="argrath" changeset="7625264" lat="38.216866" lon="140.931288">
    <tag k="amenity" v="police"/>
    <tag k="name" v="仙台南警察署六郷交番"/>
    <tag k="source" v="NRPB of MLIT Japan"/>
    <tag k="source:ja" v="国土数値情報（公共施設データ）平成18年　国土交通省"/>
    <tag k="source_ref" v="http://nlftp.mlit.go.jp/ksj/jpgis/datalist/KsjTmplt-P02-v2_0.html"/>
  </node>
  <node id="1211709928" version="1" timestamp="2011-03-21T09:27:01Z" uid="171838" user="argrath" changeset="7625264" lat="38.224642" lon="140.896846">
    <tag k="amenity" v="police"/>
    <tag k="name" v="仙台南警察署郡山交番"/>
    <tag k="source" v="NRPB of MLIT Japan"/>
    <tag k="source:ja" v="国土数値情報（公共施設データ）平成18年　国土交通省"/>
    <tag k="source_ref" v="http://nlftp.mlit.go.jp/ksj/jpgis/datalist/KsjTmplt-P02-v2_0.html"/>
  </node>
  <node id="1211709929" version="1" timestamp="2011-03-21T09:27:01Z" uid="171838" user="argrath" changeset="7625264" lat="38.220752" lon="140.832407">
    <tag k="amenity" v="police"/>
    <tag k="name" v="仙台南警察署山田交番"/>
    <tag k="source" v="NRPB of MLIT Japan"/>
    <tag k="source:ja" v="国土数値情報（公共施設データ）平成18年　国土交通省"/>
    <tag k="source_ref" v="http://nlftp.mlit.go.jp/ksj/jpgis/datalist/KsjTmplt-P02-v2_0.html"/>
  </node>
  <node id="1211709930" version="1" timestamp="2011-03-21T09:27:02Z" uid="171838" user="argrath" changeset="7625264" lat="38.218973" lon="140.862438">
    <tag k="amenity" v="police"/>
    <tag k="name" v="仙台南警察署西多賀交番"/>
    <tag k="source" v="NRPB of MLIT Japan"/>
    <tag k="source:ja" v="国土数値情報（公共施設データ）平成18年　国土交通省"/>
    <tag k="source_ref" v="http://nlftp.mlit.go.jp/ksj/jpgis/datalist/KsjTmplt-P02-v2_0.html"/>
  </node>
  <node id="1211709931" version="1" timestamp="2011-03-21T09:27:02Z" uid="171838" user="argrath" changeset="7625264" lat="38.223531" lon="140.878792">
    <tag k="amenity" v="police"/>
    <tag k="name" v="仙台南警察署長町交番"/>
    <tag k="source" v="NRPB of MLIT Japan"/>
    <tag k="source:ja" v="国土数値情報（公共施設データ）平成18年　国土交通省"/>
    <tag k="source_ref" v="http://nlftp.mlit.go.jp/ksj/jpgis/datalist/KsjTmplt-P02-v2_0.html"/>
  </node>
  <node id="1211709932" version="1" timestamp="2011-03-21T09:27:02Z" uid="171838" user="argrath" changeset="7625264" lat="38.195478" lon="140.884904">
    <tag k="amenity" v="police"/>
    <tag k="name" v="仙台南警察署南仙台交番"/>
    <tag k="source" v="NRPB of MLIT Japan"/>
    <tag k="source:ja" v="国土数値情報（公共施設データ）平成18年　国土交通省"/>
    <tag k="source_ref" v="http://nlftp.mlit.go.jp/ksj/jpgis/datalist/KsjTmplt-P02-v2_0.html"/>
  </node>
  <node id="1211709933" version="1" timestamp="2011-03-21T09:27:02Z" uid="171838" user="argrath" changeset="7625264" lat="38.244083" lon="140.861571">
    <tag k="amenity" v="police"/>
    <tag k="name" v="仙台南警察署八木山交番"/>
    <tag k="source" v="NRPB of MLIT Japan"/>
    <tag k="source:ja" v="国土数値情報（公共施設データ）平成18年　国土交通省"/>
    <tag k="source_ref" v="http://nlftp.mlit.go.jp/ksj/jpgis/datalist/KsjTmplt-P02-v2_0.html"/>
  </node>
  <node id="1211709934" version="1" timestamp="2011-03-21T09:27:02Z" uid="171838" user="argrath" changeset="7625264" lat="38.336574" lon="140.901006">
    <tag k="amenity" v="police"/>
    <tag k="name" v="泉警察署向陽台交番"/>
    <tag k="source" v="NRPB of MLIT Japan"/>
    <tag k="source:ja" v="国土数値情報（公共施設データ）平成18年　国土交通省"/>
    <tag k="source_ref" v="http://nlftp.mlit.go.jp/ksj/jpgis/datalist/KsjTmplt-P02-v2_0.html"/>
  </node>
  <node id="1211709935" version="1" timestamp="2011-03-21T09:27:03Z" uid="171838" user="argrath" changeset="7625264" lat="38.34046" lon="140.800739">
    <tag k="amenity" v="police"/>
    <tag k="name" v="泉警察署根白石交番"/>
    <tag k="source" v="NRPB of MLIT Japan"/>
    <tag k="source:ja" v="国土数値情報（公共施設データ）平成18年　国土交通省"/>
    <tag k="source_ref" v="http://nlftp.mlit.go.jp/ksj/jpgis/datalist/KsjTmplt-P02-v2_0.html"/>
  </node>
  <node id="1211709936" version="1" timestamp="2011-03-21T09:27:03Z" uid="171838" user="argrath" changeset="7625264" lat="38.335183" lon="140.838512">
    <tag k="amenity" v="police"/>
    <tag k="name" v="泉警察署寺岡交番"/>
    <tag k="source" v="NRPB of MLIT Japan"/>
    <tag k="source:ja" v="国土数値情報（公共施設データ）平成18年　国土交通省"/>
    <tag k="source_ref" v="http://nlftp.mlit.go.jp/ksj/jpgis/datalist/KsjTmplt-P02-v2_0.html"/>
  </node>
  <node id="1211709937" version="1" timestamp="2011-03-21T09:27:03Z" uid="171838" user="argrath" changeset="7625264" lat="38.331296" lon="140.87962">
    <tag k="amenity" v="police"/>
    <tag k="name" v="泉警察署将監交番"/>
    <tag k="source" v="NRPB of MLIT Japan"/>
    <tag k="source:ja" v="国土数値情報（公共施設データ）平成18年　国土交通省"/>
    <tag k="source_ref" v="http://nlftp.mlit.go.jp/ksj/jpgis/datalist/KsjTmplt-P02-v2_0.html"/>
  </node>
  <node id="1211709938" version="1" timestamp="2011-03-21T09:27:03Z" uid="171838" user="argrath" changeset="7625264" lat="38.323797" lon="140.889897">
    <tag k="amenity" v="police"/>
    <tag k="name" v="泉警察署泉交番"/>
    <tag k="source" v="NRPB of MLIT Japan"/>
    <tag k="source:ja" v="国土数値情報（公共施設データ）平成18年　国土交通省"/>
    <tag k="source_ref" v="http://nlftp.mlit.go.jp/ksj/jpgis/datalist/KsjTmplt-P02-v2_0.html"/>
  </node>
  <node id="1211709939" version="1" timestamp="2011-03-21T09:27:03Z" uid="171838" user="argrath" changeset="7625264" lat="38.310742" lon="140.845736">
    <tag k="amenity" v="police"/>
    <tag k="name" v="泉警察署長命ヶ丘交番"/>
    <tag k="source" v="NRPB of MLIT Japan"/>
    <tag k="source:ja" v="国土数値情報（公共施設データ）平成18年　国土交通省"/>
    <tag k="source_ref" v="http://nlftp.mlit.go.jp/ksj/jpgis/datalist/KsjTmplt-P02-v2_0.html"/>
  </node>
  <node id="1211709940" version="1" timestamp="2011-03-21T09:27:04Z" uid="171838" user="argrath" changeset="7625264" lat="38.298523" lon="140.89823">
    <tag k="amenity" v="police"/>
    <tag k="name" v="泉警察署南光台交番"/>
    <tag k="source" v="NRPB of MLIT Japan"/>
    <tag k="source:ja" v="国土数値情報（公共施設データ）平成18年　国土交通省"/>
    <tag k="source_ref" v="http://nlftp.mlit.go.jp/ksj/jpgis/datalist/KsjTmplt-P02-v2_0.html"/>
  </node>
  <node id="1211709941" version="1" timestamp="2011-03-21T09:27:04Z" uid="171838" user="argrath" changeset="7625264" lat="38.4473" lon="141.272154">
    <tag k="amenity" v="police"/>
    <tag k="name" v="石巻警察署蛇田交番"/>
    <tag k="source" v="NRPB of MLIT Japan"/>
    <tag k="source:ja" v="国土数値情報（公共施設データ）平成18年　国土交通省"/>
    <tag k="source_ref" v="http://nlftp.mlit.go.jp/ksj/jpgis/datalist/KsjTmplt-P02-v2_0.html"/>
  </node>
  <node id="1211709942" version="1" timestamp="2011-03-21T09:27:04Z" uid="171838" user="argrath" changeset="7625264" lat="38.434907" lon="141.302906">
    <tag k="amenity" v="police"/>
    <tag k="name" v="石巻警察署石巻駅前交番"/>
    <tag k="source" v="NRPB of MLIT Japan"/>
    <tag k="source:ja" v="国土数値情報（公共施設データ）平成18年　国土交通省"/>
    <tag k="source_ref" v="http://nlftp.mlit.go.jp/ksj/jpgis/datalist/KsjTmplt-P02-v2_0.html"/>
  </node>
  <node id="1211709943" version="1" timestamp="2011-03-21T09:27:04Z" uid="171838" user="argrath" changeset="7625264" lat="38.429907" lon="141.275963">
    <tag k="amenity" v="police"/>
    <tag k="name" v="石巻警察署大街道交番"/>
    <tag k="source" v="NRPB of MLIT Japan"/>
    <tag k="source:ja" v="国土数値情報（公共施設データ）平成18年　国土交通省"/>
    <tag k="source_ref" v="http://nlftp.mlit.go.jp/ksj/jpgis/datalist/KsjTmplt-P02-v2_0.html"/>
  </node>
  <node id="1211709944" version="1" timestamp="2011-03-21T09:27:04Z" uid="171838" user="argrath" changeset="7625264" lat="38.431852" lon="141.310405">
    <tag k="amenity" v="police"/>
    <tag k="name" v="石巻警察署中央交番"/>
    <tag k="source" v="NRPB of MLIT Japan"/>
    <tag k="source:ja" v="国土数値情報（公共施設データ）平成18年　国土交通省"/>
    <tag k="source_ref" v="http://nlftp.mlit.go.jp/ksj/jpgis/datalist/KsjTmplt-P02-v2_0.html"/>
  </node>
  <node id="1211709945" version="1" timestamp="2011-03-21T09:27:05Z" uid="171838" user="argrath" changeset="7625264" lat="38.44074" lon="141.299295">
    <tag k="amenity" v="police"/>
    <tag k="name" v="石巻警察署中里交番"/>
    <tag k="source" v="NRPB of MLIT Japan"/>
    <tag k="source:ja" v="国土数値情報（公共施設データ）平成18年　国土交通省"/>
    <tag k="source_ref" v="http://nlftp.mlit.go.jp/ksj/jpgis/datalist/KsjTmplt-P02-v2_0.html"/>
  </node>
  <node id="1211709946" version="1" timestamp="2011-03-21T09:27:05Z" uid="171838" user="argrath" changeset="7625264" lat="38.414912" lon="141.367344">
    <tag k="amenity" v="police"/>
    <tag k="name" v="石巻警察署渡波交番"/>
    <tag k="source" v="NRPB of MLIT Japan"/>
    <tag k="source:ja" v="国土数値情報（公共施設データ）平成18年　国土交通省"/>
    <tag k="source_ref" v="http://nlftp.mlit.go.jp/ksj/jpgis/datalist/KsjTmplt-P02-v2_0.html"/>
  </node>
  <node id="1211709947" version="1" timestamp="2011-03-21T09:27:05Z" uid="171838" user="argrath" changeset="7625264" lat="38.419228" lon="141.33571">
    <tag k="amenity" v="police"/>
    <tag k="name" v="石巻警察署湊交番"/>
    <tag k="source" v="NRPB of MLIT Japan"/>
    <tag k="source:ja" v="国土数値情報（公共施設データ）平成18年　国土交通省"/>
    <tag k="source_ref" v="http://nlftp.mlit.go.jp/ksj/jpgis/datalist/KsjTmplt-P02-v2_0.html"/>
  </node>
  <node id="1211709948" version="1" timestamp="2011-03-21T09:27:05Z" uid="171838" user="argrath" changeset="7625264" lat="38.309637" lon="141.010165">
    <tag k="amenity" v="police"/>
    <tag k="name" v="塩釜警察署塩釜駅前交番"/>
    <tag k="source" v="NRPB of MLIT Japan"/>
    <tag k="source:ja" v="国土数値情報（公共施設データ）平成18年　国土交通省"/>
    <tag k="source_ref" v="http://nlftp.mlit.go.jp/ksj/jpgis/datalist/KsjTmplt-P02-v2_0.html"/>
  </node>
  <node id="1211709949" version="1" timestamp="2011-03-21T09:27:05Z" uid="171838" user="argrath" changeset="7625264" lat="38.327136" lon="141.03655">
    <tag k="amenity" v="police"/>
    <tag k="name" v="塩釜警察署新浜町交番"/>
    <tag k="source" v="NRPB of MLIT Japan"/>
    <tag k="source:ja" v="国土数値情報（公共施設データ）平成18年　国土交通省"/>
    <tag k="source_ref" v="http://nlftp.mlit.go.jp/ksj/jpgis/datalist/KsjTmplt-P02-v2_0.html"/>
  </node>
  <node id="1211709950" version="1" timestamp="2011-03-21T09:27:05Z" uid="171838" user="argrath" changeset="7625264" lat="38.314635" lon="141.01919">
    <tag k="amenity" v="police"/>
    <tag k="name" v="塩釜警察署尾島町交番"/>
    <tag k="source" v="NRPB of MLIT Japan"/>
    <tag k="source:ja" v="国土数値情報（公共施設データ）平成18年　国土交通省"/>
    <tag k="source_ref" v="http://nlftp.mlit.go.jp/ksj/jpgis/datalist/KsjTmplt-P02-v2_0.html"/>
  </node>
  <node id="1211709951" version="1" timestamp="2011-03-21T09:27:06Z" uid="171838" user="argrath" changeset="7625264" lat="38.904028" lon="141.575083">
    <tag k="amenity" v="police"/>
    <tag k="name" v="気仙沼警察署南町交番"/>
    <tag k="source" v="NRPB of MLIT Japan"/>
    <tag k="source:ja" v="国土数値情報（公共施設データ）平成18年　国土交通省"/>
    <tag k="source_ref" v="http://nlftp.mlit.go.jp/ksj/jpgis/datalist/KsjTmplt-P02-v2_0.html"/>
  </node>
  <node id="1211709952" version="1" timestamp="2011-03-21T09:27:06Z" uid="171838" user="argrath" changeset="7625264" lat="38.003266" lon="140.62549">
    <tag k="amenity" v="police"/>
    <tag k="name" v="白石警察署白石駅前交番"/>
    <tag k="source" v="NRPB of MLIT Japan"/>
    <tag k="source:ja" v="国土数値情報（公共施設データ）平成18年　国土交通省"/>
    <tag k="source_ref" v="http://nlftp.mlit.go.jp/ksj/jpgis/datalist/KsjTmplt-P02-v2_0.html"/>
  </node>
  <node id="1211709953" version="1" timestamp="2011-03-21T09:27:06Z" uid="171838" user="argrath" changeset="7625264" lat="38.143539" lon="140.879074">
    <tag k="amenity" v="police"/>
    <tag k="name" v="岩沼警察署館腰交番"/>
    <tag k="source" v="NRPB of MLIT Japan"/>
    <tag k="source:ja" v="国土数値情報（公共施設データ）平成18年　国土交通省"/>
    <tag k="source_ref" v="http://nlftp.mlit.go.jp/ksj/jpgis/datalist/KsjTmplt-P02-v2_0.html"/>
  </node>
  <node id="1211709954" version="1" timestamp="2011-03-21T09:27:06Z" uid="171838" user="argrath" changeset="7625264" lat="38.186312" lon="140.855184">
    <tag k="amenity" v="police"/>
    <tag k="name" v="岩沼警察署高舘交番"/>
    <tag k="source" v="NRPB of MLIT Japan"/>
    <tag k="source:ja" v="国土数値情報（公共施設データ）平成18年　国土交通省"/>
    <tag k="source_ref" v="http://nlftp.mlit.go.jp/ksj/jpgis/datalist/KsjTmplt-P02-v2_0.html"/>
  </node>
  <node id="1211709955" version="1" timestamp="2011-03-21T09:27:06Z" uid="171838" user="argrath" changeset="7625264" lat="38.17437" lon="140.889905">
    <tag k="amenity" v="police"/>
    <tag k="name" v="岩沼警察署増田交番"/>
    <tag k="source" v="NRPB of MLIT Japan"/>
    <tag k="source:ja" v="国土数値情報（公共施設データ）平成18年　国土交通省"/>
    <tag k="source_ref" v="http://nlftp.mlit.go.jp/ksj/jpgis/datalist/KsjTmplt-P02-v2_0.html"/>
  </node>
  <node id="1211709956" version="1" timestamp="2011-03-21T09:27:06Z" uid="171838" user="argrath" changeset="7625264" lat="38.29371" lon="141.011667">
    <tag k="amenity" v="police"/>
    <tag k="name" v="塩釜警察署多賀城交番"/>
    <tag k="source" v="NRPB of MLIT Japan"/>
    <tag k="source:ja" v="国土数値情報（公共施設データ）平成18年　国土交通省"/>
    <tag k="source_ref" v="http://nlftp.mlit.go.jp/ksj/jpgis/datalist/KsjTmplt-P02-v2_0.html"/>
  </node>
  <node id="1211709957" version="1" timestamp="2011-03-21T09:27:06Z" uid="171838" user="argrath" changeset="7625264" lat="38.711264" lon="141.237621">
    <tag k="amenity" v="police"/>
    <tag k="name" v="佐沼警察署中田交番"/>
    <tag k="source" v="NRPB of MLIT Japan"/>
    <tag k="source:ja" v="国土数値情報（公共施設データ）平成18年　国土交通省"/>
    <tag k="source_ref" v="http://nlftp.mlit.go.jp/ksj/jpgis/datalist/KsjTmplt-P02-v2_0.html"/>
  </node>
  <node id="1211709958" version="1" timestamp="2011-03-21T09:27:07Z" uid="171838" user="argrath" changeset="7625264" lat="38.832075" lon="140.990973">
    <tag k="amenity" v="police"/>
    <tag k="name" v="若柳警察署栗駒交番"/>
    <tag k="source" v="NRPB of MLIT Japan"/>
    <tag k="source:ja" v="国土数値情報（公共施設データ）平成18年　国土交通省"/>
    <tag k="source_ref" v="http://nlftp.mlit.go.jp/ksj/jpgis/datalist/KsjTmplt-P02-v2_0.html"/>
  </node>
  <node id="1211709959" version="1" timestamp="2011-03-21T09:27:07Z" uid="171838" user="argrath" changeset="7625264" lat="38.421018" lon="141.213191">
    <tag k="amenity" v="police"/>
    <tag k="name" v="石巻警察署矢本交番"/>
    <tag k="source" v="NRPB of MLIT Japan"/>
    <tag k="source:ja" v="国土数値情報（公共施設データ）平成18年　国土交通省"/>
    <tag k="source_ref" v="http://nlftp.mlit.go.jp/ksj/jpgis/datalist/KsjTmplt-P02-v2_0.html"/>
  </node>
  <node id="1211709960" version="1" timestamp="2011-03-21T09:27:07Z" uid="171838" user="argrath" changeset="7625264" lat="38.572105" lon="140.967657">
    <tag k="amenity" v="police"/>
    <tag k="name" v="古川警察署古川駅前交番"/>
    <tag k="source" v="NRPB of MLIT Japan"/>
    <tag k="source:ja" v="国土数値情報（公共施設データ）平成18年　国土交通省"/>
    <tag k="source_ref" v="http://nlftp.mlit.go.jp/ksj/jpgis/datalist/KsjTmplt-P02-v2_0.html"/>
  </node>
  <node id="1211709961" version="1" timestamp="2011-03-21T09:27:07Z" uid="171838" user="argrath" changeset="7625264" lat="38.571995" lon="140.918391">
    <tag k="amenity" v="police"/>
    <tag k="name" v="古川警察署古川西交番"/>
    <tag k="source" v="NRPB of MLIT Japan"/>
    <tag k="source:ja" v="国土数値情報（公共施設データ）平成18年　国土交通省"/>
    <tag k="source_ref" v="http://nlftp.mlit.go.jp/ksj/jpgis/datalist/KsjTmplt-P02-v2_0.html"/>
  </node>
  <node id="1211709962" version="1" timestamp="2011-03-21T09:27:07Z" uid="171838" user="argrath" changeset="7625264" lat="38.520444" lon="140.933773">
    <tag k="amenity" v="police"/>
    <tag k="name" v="古川警察署三本木交番"/>
    <tag k="source" v="NRPB of MLIT Japan"/>
    <tag k="source:ja" v="国土数値情報（公共施設データ）平成18年　国土交通省"/>
    <tag k="source_ref" v="http://nlftp.mlit.go.jp/ksj/jpgis/datalist/KsjTmplt-P02-v2_0.html"/>
  </node>
  <node id="1211709963" version="1" timestamp="2011-03-21T09:27:08Z" uid="171838" user="argrath" changeset="7625264" lat="38.477674" lon="141.096812">
    <tag k="amenity" v="police"/>
    <tag k="name" v="古川警察署鹿島台交番"/>
    <tag k="source" v="NRPB of MLIT Japan"/>
    <tag k="source:ja" v="国土数値情報（公共施設データ）平成18年　国土交通省"/>
    <tag k="source_ref" v="http://nlftp.mlit.go.jp/ksj/jpgis/datalist/KsjTmplt-P02-v2_0.html"/>
  </node>
  <node id="1211709964" version="1" timestamp="2011-03-21T09:27:08Z" uid="171838" user="argrath" changeset="7625264" lat="38.652649" lon="140.865994">
    <tag k="amenity" v="police"/>
    <tag k="name" v="鳴子警察署岩出山交番"/>
    <tag k="source" v="NRPB of MLIT Japan"/>
    <tag k="source:ja" v="国土数値情報（公共施設データ）平成18年　国土交通省"/>
    <tag k="source_ref" v="http://nlftp.mlit.go.jp/ksj/jpgis/datalist/KsjTmplt-P02-v2_0.html"/>
  </node>
  <node id="1211709965" version="1" timestamp="2011-03-21T09:27:08Z" uid="171838" user="argrath" changeset="7625264" lat="38.047987" lon="140.7402">
    <tag k="amenity" v="police"/>
    <tag k="name" v="大河原警察署署所在地交番"/>
    <tag k="source" v="NRPB of MLIT Japan"/>
    <tag k="source:ja" v="国土数値情報（公共施設データ）平成18年　国土交通省"/>
    <tag k="source_ref" v="http://nlftp.mlit.go.jp/ksj/jpgis/datalist/KsjTmplt-P02-v2_0.html"/>
  </node>
  <node id="1211709966" version="1" timestamp="2011-03-21T09:27:08Z" uid="171838" user="argrath" changeset="7625264" lat="38.059099" lon="140.776863">
    <tag k="amenity" v="police"/>
    <tag k="name" v="大河原警察署柴田交番"/>
    <tag k="source" v="NRPB of MLIT Japan"/>
    <tag k="source:ja" v="国土数値情報（公共施設データ）平成18年　国土交通省"/>
    <tag k="source_ref" v="http://nlftp.mlit.go.jp/ksj/jpgis/datalist/KsjTmplt-P02-v2_0.html"/>
  </node>
  <node id="1211709967" version="1" timestamp="2011-03-21T09:27:08Z" uid="171838" user="argrath" changeset="7625264" lat="37.913559" lon="140.766317">
    <tag k="amenity" v="police"/>
    <tag k="name" v="角田警察署丸森交番"/>
    <tag k="source" v="NRPB of MLIT Japan"/>
    <tag k="source:ja" v="国土数値情報（公共施設データ）平成18年　国土交通省"/>
    <tag k="source_ref" v="http://nlftp.mlit.go.jp/ksj/jpgis/datalist/KsjTmplt-P02-v2_0.html"/>
  </node>
  <node id="1211709968" version="1" timestamp="2011-03-21T09:27:08Z" uid="171838" user="argrath" changeset="7625264" lat="38.368666" lon="141.059135">
    <tag k="amenity" v="police"/>
    <tag k="name" v="塩釜警察署松島交番"/>
    <tag k="source" v="NRPB of MLIT Japan"/>
    <tag k="source:ja" v="国土数値情報（公共施設データ）平成18年　国土交通省"/>
    <tag k="source_ref" v="http://nlftp.mlit.go.jp/ksj/jpgis/datalist/KsjTmplt-P02-v2_0.html"/>
  </node>
  <node id="1211709969" version="1" timestamp="2011-03-21T09:27:09Z" uid="171838" user="argrath" changeset="7625264" lat="38.286308" lon="141.046551">
    <tag k="amenity" v="police"/>
    <tag k="name" v="塩釜警察署七ヶ浜交番"/>
    <tag k="source" v="NRPB of MLIT Japan"/>
    <tag k="source:ja" v="国土数値情報（公共施設データ）平成18年　国土交通省"/>
    <tag k="source_ref" v="http://nlftp.mlit.go.jp/ksj/jpgis/datalist/KsjTmplt-P02-v2_0.html"/>
  </node>
  <node id="1211709970" version="1" timestamp="2011-03-21T09:27:09Z" uid="171838" user="argrath" changeset="7625264" lat="38.328523" lon="140.978222">
    <tag k="amenity" v="police"/>
    <tag k="name" v="塩釜警察署利府交番"/>
    <tag k="source" v="NRPB of MLIT Japan"/>
    <tag k="source:ja" v="国土数値情報（公共施設データ）平成18年　国土交通省"/>
    <tag k="source_ref" v="http://nlftp.mlit.go.jp/ksj/jpgis/datalist/KsjTmplt-P02-v2_0.html"/>
  </node>
  <node id="1211709971" version="1" timestamp="2011-03-21T09:27:09Z" uid="171838" user="argrath" changeset="7625264" lat="38.359978" lon="140.894015">
    <tag k="amenity" v="police"/>
    <tag k="name" v="大和警察署成田交番"/>
    <tag k="source" v="NRPB of MLIT Japan"/>
    <tag k="source:ja" v="国土数値情報（公共施設データ）平成18年　国土交通省"/>
    <tag k="source_ref" v="http://nlftp.mlit.go.jp/ksj/jpgis/datalist/KsjTmplt-P02-v2_0.html"/>
  </node>
  <node id="1211709972" version="1" timestamp="2011-03-21T09:27:09Z" uid="171838" user="argrath" changeset="7625264" lat="38.397123" lon="140.884339">
    <tag k="amenity" v="police"/>
    <tag k="name" v="大和警察署富谷交番"/>
    <tag k="source" v="NRPB of MLIT Japan"/>
    <tag k="source:ja" v="国土数値情報（公共施設データ）平成18年　国土交通省"/>
    <tag k="source_ref" v="http://nlftp.mlit.go.jp/ksj/jpgis/datalist/KsjTmplt-P02-v2_0.html"/>
  </node>
  <node id="1211709973" version="1" timestamp="2011-03-21T09:27:09Z" uid="171838" user="argrath" changeset="7625264" lat="38.540168" lon="141.12875">
    <tag k="amenity" v="police"/>
    <tag k="name" v="遠田警察署涌谷幹部交番"/>
    <tag k="source" v="NRPB of MLIT Japan"/>
    <tag k="source:ja" v="国土数値情報（公共施設データ）平成18年　国土交通省"/>
    <tag k="source_ref" v="http://nlftp.mlit.go.jp/ksj/jpgis/datalist/KsjTmplt-P02-v2_0.html"/>
  </node>
  <node id="1211709974" version="1" timestamp="2011-03-21T09:27:09Z" uid="171838" user="argrath" changeset="7625264" lat="38.445189" lon="141.446779">
    <tag k="amenity" v="police"/>
    <tag k="name" v="石巻警察署女川交番"/>
    <tag k="source" v="NRPB of MLIT Japan"/>
    <tag k="source:ja" v="国土数値情報（公共施設データ）平成18年　国土交通省"/>
    <tag k="source_ref" v="http://nlftp.mlit.go.jp/ksj/jpgis/datalist/KsjTmplt-P02-v2_0.html"/>
  </node>
  <node id="1211709975" version="1" timestamp="2011-03-21T09:27:09Z" uid="171838" user="argrath" changeset="7625264" lat="38.261025" lon="140.846572">
    <tag k="amenity" v="police"/>
    <tag k="name" v="仙台中央警察署亀岡駐在所"/>
    <tag k="source" v="NRPB of MLIT Japan"/>
    <tag k="source:ja" v="国土数値情報（公共施設データ）平成18年　国土交通省"/>
    <tag k="source_ref" v="http://nlftp.mlit.go.jp/ksj/jpgis/datalist/KsjTmplt-P02-v2_0.html"/>
  </node>
  <node id="1211709976" version="1" timestamp="2011-03-21T09:27:10Z" uid="171838" user="argrath" changeset="7625264" lat="38.294017" lon="140.687148">
    <tag k="amenity" v="police"/>
    <tag k="name" v="仙台北警察署熊ヶ根駐在所"/>
    <tag k="source" v="NRPB of MLIT Japan"/>
    <tag k="source:ja" v="国土数値情報（公共施設データ）平成18年　国土交通省"/>
    <tag k="source_ref" v="http://nlftp.mlit.go.jp/ksj/jpgis/datalist/KsjTmplt-P02-v2_0.html"/>
  </node>
  <node id="1211709977" version="1" timestamp="2011-03-21T09:27:10Z" uid="171838" user="argrath" changeset="7625264" lat="38.301854" lon="140.847958">
    <tag k="amenity" v="police"/>
    <tag k="name" v="仙台北警察署桜ヶ丘駐在所"/>
    <tag k="source" v="NRPB of MLIT Japan"/>
    <tag k="source:ja" v="国土数値情報（公共施設データ）平成18年　国土交通省"/>
    <tag k="source_ref" v="http://nlftp.mlit.go.jp/ksj/jpgis/datalist/KsjTmplt-P02-v2_0.html"/>
  </node>
  <node id="1211709978" version="1" timestamp="2011-03-21T09:27:10Z" uid="171838" user="argrath" changeset="7625264" lat="38.289631" lon="140.757133">
    <tag k="amenity" v="police"/>
    <tag k="name" v="仙台北警察署大沢駐在所"/>
    <tag k="source" v="NRPB of MLIT Japan"/>
    <tag k="source:ja" v="国土数値情報（公共施設データ）平成18年　国土交通省"/>
    <tag k="source_ref" v="http://nlftp.mlit.go.jp/ksj/jpgis/datalist/KsjTmplt-P02-v2_0.html"/>
  </node>
  <node id="1211709979" version="1" timestamp="2011-03-21T09:27:10Z" uid="171838" user="argrath" changeset="7625264" lat="38.256309" lon="140.978226">
    <tag k="amenity" v="police"/>
    <tag k="name" v="仙台東警察署岡田駐在所"/>
    <tag k="source" v="NRPB of MLIT Japan"/>
    <tag k="source:ja" v="国土数値情報（公共施設データ）平成18年　国土交通省"/>
    <tag k="source_ref" v="http://nlftp.mlit.go.jp/ksj/jpgis/datalist/KsjTmplt-P02-v2_0.html"/>
  </node>
  <node id="1211709980" version="1" timestamp="2011-03-21T09:27:10Z" uid="171838" user="argrath" changeset="7625264" lat="38.259117" lon="141.008534">
    <tag k="amenity" v="police"/>
    <tag k="name" v="仙台東警察署蒲生駐在所"/>
    <tag k="source" v="NRPB of MLIT Japan"/>
    <tag k="source:ja" v="国土数値情報（公共施設データ）平成18年　国土交通省"/>
    <tag k="source_ref" v="http://nlftp.mlit.go.jp/ksj/jpgis/datalist/KsjTmplt-P02-v2_0.html"/>
  </node>
  <node id="1211709981" version="1" timestamp="2011-03-21T09:27:10Z" uid="171838" user="argrath" changeset="7625264" lat="38.292136" lon="140.936839">
    <tag k="amenity" v="police"/>
    <tag k="name" v="仙台東警察署今市駐在所"/>
    <tag k="source" v="NRPB of MLIT Japan"/>
    <tag k="source:ja" v="国土数値情報（公共施設データ）平成18年　国土交通省"/>
    <tag k="source_ref" v="http://nlftp.mlit.go.jp/ksj/jpgis/datalist/KsjTmplt-P02-v2_0.html"/>
  </node>
  <node id="1211709982" version="1" timestamp="2011-03-21T09:27:10Z" uid="171838" user="argrath" changeset="7625264" lat="38.304913" lon="140.953781">
    <tag k="amenity" v="police"/>
    <tag k="name" v="仙台東警察署洞ノ口駐在所"/>
    <tag k="source" v="NRPB of MLIT Japan"/>
    <tag k="source:ja" v="国土数値情報（公共施設データ）平成18年　国土交通省"/>
    <tag k="source_ref" v="http://nlftp.mlit.go.jp/ksj/jpgis/datalist/KsjTmplt-P02-v2_0.html"/>
  </node>
  <node id="1211709983" version="1" timestamp="2011-03-21T09:27:11Z" uid="171838" user="argrath" changeset="7625264" lat="38.220751" lon="140.790467">
    <tag k="amenity" v="police"/>
    <tag k="name" v="仙台南警察署生出駐在所"/>
    <tag k="source" v="NRPB of MLIT Japan"/>
    <tag k="source:ja" v="国土数値情報（公共施設データ）平成18年　国土交通省"/>
    <tag k="source_ref" v="http://nlftp.mlit.go.jp/ksj/jpgis/datalist/KsjTmplt-P02-v2_0.html"/>
  </node>
  <node id="1211709984" version="1" timestamp="2011-03-21T09:27:11Z" uid="171838" user="argrath" changeset="7625264" lat="38.196512" lon="140.908959">
    <tag k="amenity" v="police"/>
    <tag k="name" v="仙台南警察署東中田駐在所"/>
    <tag k="source" v="NRPB of MLIT Japan"/>
    <tag k="source:ja" v="国土数値情報（公共施設データ）平成18年　国土交通省"/>
    <tag k="source_ref" v="http://nlftp.mlit.go.jp/ksj/jpgis/datalist/KsjTmplt-P02-v2_0.html"/>
  </node>
  <node id="1211709985" version="1" timestamp="2011-03-21T09:27:11Z" uid="171838" user="argrath" changeset="7625264" lat="38.229734" lon="140.720252">
    <tag k="amenity" v="police"/>
    <tag k="name" v="仙台南警察署湯元駐在所"/>
    <tag k="source" v="NRPB of MLIT Japan"/>
    <tag k="source:ja" v="国土数値情報（公共施設データ）平成18年　国土交通省"/>
    <tag k="source_ref" v="http://nlftp.mlit.go.jp/ksj/jpgis/datalist/KsjTmplt-P02-v2_0.html"/>
  </node>
  <node id="1211709986" version="1" timestamp="2011-03-21T09:27:11Z" uid="171838" user="argrath" changeset="7625264" lat="38.234083" lon="140.781578">
    <tag k="amenity" v="police"/>
    <tag k="name" v="仙台南警察署茂庭台駐在所"/>
    <tag k="source" v="NRPB of MLIT Japan"/>
    <tag k="source:ja" v="国土数値情報（公共施設データ）平成18年　国土交通省"/>
    <tag k="source_ref" v="http://nlftp.mlit.go.jp/ksj/jpgis/datalist/KsjTmplt-P02-v2_0.html"/>
  </node>
  <node id="1211709987" version="1" timestamp="2011-03-21T09:27:11Z" uid="171838" user="argrath" changeset="7625264" lat="38.357127" lon="140.868509">
    <tag k="amenity" v="police"/>
    <tag k="name" v="泉警察署泉ヶ丘駐在所"/>
    <tag k="source" v="NRPB of MLIT Japan"/>
    <tag k="source:ja" v="国土数値情報（公共施設データ）平成18年　国土交通省"/>
    <tag k="source_ref" v="http://nlftp.mlit.go.jp/ksj/jpgis/datalist/KsjTmplt-P02-v2_0.html"/>
  </node>
  <node id="1211709988" version="1" timestamp="2011-03-21T09:27:12Z" uid="171838" user="argrath" changeset="7625264" lat="38.322688" lon="140.916283">
    <tag k="amenity" v="police"/>
    <tag k="name" v="泉警察署鶴が丘駐在所"/>
    <tag k="source" v="NRPB of MLIT Japan"/>
    <tag k="source:ja" v="国土数値情報（公共施設データ）平成18年　国土交通省"/>
    <tag k="source_ref" v="http://nlftp.mlit.go.jp/ksj/jpgis/datalist/KsjTmplt-P02-v2_0.html"/>
  </node>
  <node id="1211709989" version="1" timestamp="2011-03-21T09:27:12Z" uid="171838" user="argrath" changeset="7625264" lat="38.565725" lon="141.279013">
    <tag k="amenity" v="police"/>
    <tag k="name" v="河北警察署樫崎駐在所"/>
    <tag k="source" v="NRPB of MLIT Japan"/>
    <tag k="source:ja" v="国土数値情報（公共施設データ）平成18年　国土交通省"/>
    <tag k="source_ref" v="http://nlftp.mlit.go.jp/ksj/jpgis/datalist/KsjTmplt-P02-v2_0.html"/>
  </node>
  <node id="1211709990" version="1" timestamp="2011-03-21T09:27:12Z" uid="171838" user="argrath" changeset="7625264" lat="38.531838" lon="141.23374">
    <tag k="amenity" v="police"/>
    <tag k="name" v="河北警察署神取駐在所"/>
    <tag k="source" v="NRPB of MLIT Japan"/>
    <tag k="source:ja" v="国土数値情報（公共施設データ）平成18年　国土交通省"/>
    <tag k="source_ref" v="http://nlftp.mlit.go.jp/ksj/jpgis/datalist/KsjTmplt-P02-v2_0.html"/>
  </node>
  <node id="1211709991" version="1" timestamp="2011-03-21T09:27:12Z" uid="171838" user="argrath" changeset="7625264" lat="38.533194" lon="141.50978">
    <tag k="amenity" v="police"/>
    <tag k="name" v="河北警察署船越駐在所"/>
    <tag k="source" v="NRPB of MLIT Japan"/>
    <tag k="source:ja" v="国土数値情報（公共施設データ）平成18年　国土交通省"/>
    <tag k="source_ref" v="http://nlftp.mlit.go.jp/ksj/jpgis/datalist/KsjTmplt-P02-v2_0.html"/>
  </node>
  <node id="1211709992" version="1" timestamp="2011-03-21T09:27:12Z" uid="171838" user="argrath" changeset="7625264" lat="38.547121" lon="141.430945">
    <tag k="amenity" v="police"/>
    <tag k="name" v="河北警察署大川駐在所"/>
    <tag k="source" v="NRPB of MLIT Japan"/>
    <tag k="source:ja" v="国土数値情報（公共施設データ）平成18年　国土交通省"/>
    <tag k="source_ref" v="http://nlftp.mlit.go.jp/ksj/jpgis/datalist/KsjTmplt-P02-v2_0.html"/>
  </node>
  <node id="1211709993" version="1" timestamp="2011-03-21T09:27:12Z" uid="171838" user="argrath" changeset="7625264" lat="38.504343" lon="141.284293">
    <tag k="amenity" v="police"/>
    <tag k="name" v="河北警察署大谷地駐在所"/>
    <tag k="source" v="NRPB of MLIT Japan"/>
    <tag k="source:ja" v="国土数値情報（公共施設データ）平成18年　国土交通省"/>
    <tag k="source_ref" v="http://nlftp.mlit.go.jp/ksj/jpgis/datalist/KsjTmplt-P02-v2_0.html"/>
  </node>
  <node id="1211709994" version="1" timestamp="2011-03-21T09:27:13Z" uid="171838" user="argrath" changeset="7625264" lat="38.571001" lon="141.247349">
    <tag k="amenity" v="police"/>
    <tag k="name" v="河北警察署桃生駐在所"/>
    <tag k="source" v="NRPB of MLIT Japan"/>
    <tag k="source:ja" v="国土数値情報（公共施設データ）平成18年　国土交通省"/>
    <tag k="source_ref" v="http://nlftp.mlit.go.jp/ksj/jpgis/datalist/KsjTmplt-P02-v2_0.html"/>
  </node>
  <node id="1211709995" version="1" timestamp="2011-03-21T09:27:13Z" uid="171838" user="argrath" changeset="7625264" lat="38.498512" lon="141.317624">
    <tag k="amenity" v="police"/>
    <tag k="name" v="河北警察署二俣駐在所"/>
    <tag k="source" v="NRPB of MLIT Japan"/>
    <tag k="source:ja" v="国土数値情報（公共施設データ）平成18年　国土交通省"/>
    <tag k="source_ref" v="http://nlftp.mlit.go.jp/ksj/jpgis/datalist/KsjTmplt-P02-v2_0.html"/>
  </node>
  <node id="1211709996" version="1" timestamp="2011-03-21T09:27:13Z" uid="171838" user="argrath" changeset="7625264" lat="38.581284" lon="141.461774">
    <tag k="amenity" v="police"/>
    <tag k="name" v="河北警察署北上駐在所"/>
    <tag k="source" v="NRPB of MLIT Japan"/>
    <tag k="source:ja" v="国土数値情報（公共施設データ）平成18年　国土交通省"/>
    <tag k="source_ref" v="http://nlftp.mlit.go.jp/ksj/jpgis/datalist/KsjTmplt-P02-v2_0.html"/>
  </node>
  <node id="1211709997" version="1" timestamp="2011-03-21T09:27:13Z" uid="171838" user="argrath" changeset="7625264" lat="38.516571" lon="141.465387">
    <tag k="amenity" v="police"/>
    <tag k="name" v="河北警察署雄勝駐在所"/>
    <tag k="source" v="NRPB of MLIT Japan"/>
    <tag k="source:ja" v="国土数値情報（公共施設データ）平成18年　国土交通省"/>
    <tag k="source_ref" v="http://nlftp.mlit.go.jp/ksj/jpgis/datalist/KsjTmplt-P02-v2_0.html"/>
  </node>
  <node id="1211709998" version="1" timestamp="2011-03-21T09:27:13Z" uid="171838" user="argrath" changeset="7625264" lat="38.299098" lon="141.507891">
    <tag k="amenity" v="police"/>
    <tag k="name" v="石巻警察署牡鹿駐在所"/>
    <tag k="source" v="NRPB of MLIT Japan"/>
    <tag k="source:ja" v="国土数値情報（公共施設データ）平成18年　国土交通省"/>
    <tag k="source_ref" v="http://nlftp.mlit.go.jp/ksj/jpgis/datalist/KsjTmplt-P02-v2_0.html"/>
  </node>
  <node id="1211709999" version="1" timestamp="2011-03-21T09:27:14Z" uid="171838" user="argrath" changeset="7625264" lat="38.470464" lon="141.208165">
    <tag k="amenity" v="police"/>
    <tag k="name" v="石巻警察署河南駐在所"/>
    <tag k="source" v="NRPB of MLIT Japan"/>
    <tag k="source:ja" v="国土数値情報（公共施設データ）平成18年　国土交通省"/>
    <tag k="source_ref" v="http://nlftp.mlit.go.jp/ksj/jpgis/datalist/KsjTmplt-P02-v2_0.html"/>
  </node>
</osm>
