<?xml version='1.0' encoding='UTF-8'?>
<osm version="0.6" generator="libosmium/2.20.0">
  <node id="1224150578" version="1" timestamp="2011-03-29T11:40:46Z" uid="6975" user="ulfl" changeset="7705945" lat="32.6443948" lon="-16.8290852">
    <tag k="amenity" v="car_rental"/>
    <tag k="description" v="Car and Motorbike rental"/>
    <tag k="email" v="info@magoscar.com"/>
    <tag k="fax" v="+351 291 934819"/>
    <tag k="name" v="Magos Car / Bike"/>
    <tag k="operator" v="Ekkehard Kutz"/>
    <tag k="phone" v="+351 291 934818"/>
    <tag k="website" v="www.magoscar.com"/>
  </node>
  <node id="1224150585" version="1" timestamp="2011-03-29T11:40:46Z" uid="6975" user="ulfl" changeset="7705945" lat="32.644339" lon="-16.8291687">
    <tag k="name" v="Spar"/>
    <tag k="phone" v="912491299"/>
    <tag k="shop" v="convenience"/>
  </node>
  <node id="1224153271" version="1" timestamp="2011-03-29T11:44:09Z" uid="6975" user="ulfl" changeset="7705989" lat="32.6471805" lon="-16.8358196">
    <tag k="amenity" v="fuel"/>
    <tag k="brand" v="Repsol"/>
    <tag k="fixme" v="not exact position"/>
    <tag k="fuel:octane_95" v="yes"/>
    <tag k="fuel:octane_98" v="yes"/>
    <tag k="name" v="Repsol Canico BX"/>
    <tag k="operator" v="Manuel Antonio &amp; Filhas"/>
    <tag k="phone" v="291934999"/>
    <tag k="shop" v="yes"/>
  </node>
  <node id="1224153271" version="2" timestamp="2011-04-03T18:32:19Z" uid="6975" user="ulfl" changeset="7757501" lat="32.647456" lon="-16.8358876">
    <tag k="amenity" v="fuel"/>
    <tag k="brand" v="Repsol"/>
    <tag k="fuel:octane_95" v="yes"/>
    <tag k="fuel:octane_98" v="yes"/>
    <tag k="name" v="Repsol Canico BX"/>
    <tag k="operator" v="Manuel Antonio &amp; Filhas"/>
    <tag k="phone" v="291934999"/>
    <tag k="shop" v="yes"/>
  </node>
  <node id="1224156280" version="1" timestamp="2011-03-29T11:47:16Z" uid="7617" user="Franc" changeset="7706021" lat="-34.0744852" lon="150.8242677"/>
  <node id="1224156281" version="1" timestamp="2011-03-29T11:47:16Z" uid="7617" user="Franc" changeset="7706021" lat="-34.0662569" lon="150.8273017"/>
  <node id="1224156282" version="1" timestamp="2011-03-29T11:47:16Z" uid="7617" user="Franc" changeset="7706021" lat="-34.074366" lon="150.824664"/>
  <node id="1224156283" version="1" timestamp="2011-03-29T11:47:16Z" uid="7617" user="Franc" changeset="7706021" lat="-34.0660369" lon="150.8276493"/>
  <node id="1224156284" version="1" timestamp="2011-03-29T11:47:16Z" uid="7617" user="Franc" changeset="7706021" lat="-34.0743493" lon="150.8247569"/>
  <node id="1224156286" version="1" timestamp="2011-03-29T11:47:16Z" uid="7617" user="Franc" changeset="7706021" lat="-34.0732659" lon="150.8243575"/>
  <node id="1224156290" version="1" timestamp="2011-03-29T11:47:16Z" uid="7617" user="Franc" changeset="7706021" lat="-34.0733313" lon="150.8243947"/>
  <node id="1224156292" version="1" timestamp="2011-03-29T11:47:17Z" uid="7617" user="Franc" changeset="7706021" lat="-34.074434" lon="150.8240108"/>
</osm>
