<?xml version='1.0' encoding='UTF-8'?>
<osm version="0.6" generator="libosmium/2.20.0">
  <node id="123764302" version="3" timestamp="2009-01-05T13:47:42Z" uid="58091" user="Andreas M" changeset="740529" lat="48.1628931" lon="16.362646">
    <tag k="name" v="Sahulkastraße"/>
    <tag k="railway" v="tram_stop"/>
  </node>
  <node id="123764306" version="2" timestamp="2009-01-05T13:47:42Z" uid="58091" user="Andreas M" changeset="740529" lat="48.15841" lon="16.3604226">
    <tag k="name" v="Wienerfeldgasse"/>
    <tag k="railway" v="tram_stop"/>
  </node>
  <node id="123764309" version="3" timestamp="2009-01-05T13:47:42Z" uid="58091" user="Andreas M" changeset="740529" lat="48.1566225" lon="16.3593207">
    <tag k="name" v="Frödenplatz"/>
    <tag k="railway" v="tram_stop"/>
  </node>
  <node id="123768918" version="5" timestamp="2009-01-05T13:47:43Z" uid="58091" user="Andreas M" changeset="740529" lat="48.1562798" lon="16.3551456">
    <tag k="name" v="Otto-Probst-Straße"/>
    <tag k="railway" v="tram_stop"/>
  </node>
  <node id="123768933" version="5" timestamp="2009-01-05T13:47:44Z" uid="58091" user="Andreas M" changeset="740529" lat="48.1553773" lon="16.3507353">
    <tag k="name" v="Tesarekplatz"/>
    <tag k="railway" v="tram_stop"/>
  </node>
  <node id="123768948" version="4" timestamp="2009-01-05T13:47:44Z" uid="58091" user="Andreas M" changeset="740529" lat="48.153858" lon="16.3494449">
    <tag k="name" v="Otto-Probst-Platz"/>
    <tag k="railway" v="tram_stop"/>
  </node>
</osm>
