<?xml version='1.0' encoding='UTF-8'?>
<osm version="0.6" generator="libosmium/2.20.0">
  <node id="1242980667" version="2" timestamp="2011-04-19T16:50:11Z" uid="66036" user="h4v" changeset="7908276" lat="51.7806507" lon="19.4453581"/>
  <node id="1242981768" version="1" timestamp="2011-04-13T09:09:36Z" uid="4467" user="Rosscoe" changeset="7849907" lat="-27.6491005" lon="153.3986118"/>
  <node id="1242981769" version="1" timestamp="2011-04-13T09:09:36Z" uid="4467" user="Rosscoe" changeset="7849907" lat="-27.6487641" lon="153.3976977"/>
  <node id="1242986054" version="1" timestamp="2011-04-13T09:21:25Z" uid="4467" user="Rosscoe" changeset="7849991" lat="-37.8292442" lon="144.9186201"/>
  <node id="1242986055" version="1" timestamp="2011-04-13T09:21:25Z" uid="4467" user="Rosscoe" changeset="7849991" lat="-37.8361771" lon="144.9200639"/>
  <node id="1242986057" version="1" timestamp="2011-04-13T09:21:25Z" uid="4467" user="Rosscoe" changeset="7849991" lat="-37.8277488" lon="144.9226005"/>
  <node id="1242986058" version="1" timestamp="2011-04-13T09:21:25Z" uid="4467" user="Rosscoe" changeset="7849991" lat="-37.8278558" lon="144.9227058"/>
  <node id="1242986059" version="1" timestamp="2011-04-13T09:21:25Z" uid="4467" user="Rosscoe" changeset="7849991" lat="-37.8288078" lon="144.9183411">
    <tag k="highway" v="traffic_signals"/>
  </node>
  <node id="1242986060" version="1" timestamp="2011-04-13T09:21:25Z" uid="4467" user="Rosscoe" changeset="7849991" lat="-37.828251" lon="144.921018"/>
  <node id="1242986061" version="1" timestamp="2011-04-13T09:21:25Z" uid="4467" user="Rosscoe" changeset="7849991" lat="-37.8362041" lon="144.9195788"/>
  <node id="1242986062" version="1" timestamp="2011-04-13T09:21:25Z" uid="4467" user="Rosscoe" changeset="7849991" lat="-37.8290504" lon="144.9180205"/>
  <node id="1242986064" version="1" timestamp="2011-04-13T09:21:25Z" uid="4467" user="Rosscoe" changeset="7849991" lat="-37.8278482" lon="144.9227661"/>
  <node id="1242986066" version="1" timestamp="2011-04-13T09:21:25Z" uid="4467" user="Rosscoe" changeset="7849991" lat="-37.8296202" lon="144.918329"/>
  <node id="1242987153" version="1" timestamp="2011-04-13T09:23:26Z" uid="4467" user="Rosscoe" changeset="7850007" lat="-37.831631" lon="144.9187838"/>
  <node id="1242987154" version="1" timestamp="2011-04-13T09:23:26Z" uid="4467" user="Rosscoe" changeset="7850007" lat="-37.8314534" lon="144.9185933"/>
  <node id="1242989095" version="2" timestamp="2011-05-23T08:49:07Z" uid="115477" user="wowik" changeset="8224149" lat="55.8097544" lon="37.4883032"/>
  <node id="1242989100" version="2" timestamp="2011-05-23T08:49:07Z" uid="115477" user="wowik" changeset="8224149" lat="55.8098457" lon="37.4882249"/>
  <node id="1242989102" version="2" timestamp="2011-05-23T08:49:07Z" uid="115477" user="wowik" changeset="8224149" lat="55.8101551" lon="37.4880667"/>
  <node id="1242989110" version="2" timestamp="2011-05-23T08:49:06Z" uid="115477" user="wowik" changeset="8224149" lat="55.8097917" lon="37.4884456"/>
  <node id="1242989652" version="1" timestamp="2011-04-13T09:27:09Z" uid="7617" user="Franc" changeset="7850036" lat="-33.8868588" lon="151.1457803"/>
  <node id="1242989654" version="1" timestamp="2011-04-13T09:27:10Z" uid="7617" user="Franc" changeset="7850036" lat="-33.8883712" lon="151.1510789">
    <tag k="addr:housenumber" v="27"/>
    <tag k="addr:street" v="Albert Street"/>
    <tag k="source" v="exrapolation"/>
  </node>
  <node id="1242989654" version="2" timestamp="2011-05-29T08:32:03Z" uid="7617" user="Franc" changeset="8278454" lat="-33.8883712" lon="151.1510789">
    <tag k="addr:housenumber" v="27"/>
    <tag k="addr:street" v="Albert Street"/>
    <tag k="source" v="extrapolation"/>
  </node>
  <node id="1242989656" version="1" timestamp="2011-04-13T09:27:10Z" uid="7617" user="Franc" changeset="7850036" lat="-33.9028569" lon="151.1652399">
    <tag k="addr:housenumber" v="73"/>
    <tag k="addr:street" v="Addison Road"/>
    <tag k="source" v="survey"/>
  </node>
  <node id="1242989657" version="1" timestamp="2011-04-13T09:27:10Z" uid="7617" user="Franc" changeset="7850036" lat="-33.879434" lon="151.1544332"/>
  <node id="1242989658" version="1" timestamp="2011-04-13T09:27:10Z" uid="7617" user="Franc" changeset="7850036" lat="-33.8881094" lon="151.1523001">
    <tag k="addr:housenumber" v="1"/>
    <tag k="addr:street" v="Albert Street"/>
    <tag k="source" v="survey"/>
  </node>
  <node id="1242989659" version="1" timestamp="2011-04-13T09:27:10Z" uid="7617" user="Franc" changeset="7850036" lat="-33.8862357" lon="151.1464695">
    <tag k="addr:housenumber" v="22"/>
    <tag k="addr:street" v="Lords Road"/>
    <tag k="source" v="survey"/>
  </node>
  <node id="1242989662" version="1" timestamp="2011-04-13T09:27:10Z" uid="7617" user="Franc" changeset="7850036" lat="-33.8772433" lon="151.1567417">
    <tag k="addr:housenumber" v="5"/>
    <tag k="addr:street" v="William Street"/>
    <tag k="source" v="survey"/>
  </node>
  <node id="1242989663" version="1" timestamp="2011-04-13T09:27:10Z" uid="7617" user="Franc" changeset="7850036" lat="-33.87983" lon="151.1532669">
    <tag k="addr:housenumber" v="4"/>
    <tag k="addr:street" v="North Street"/>
    <tag k="source" v="survey"/>
  </node>
  <node id="1242989664" version="1" timestamp="2011-04-13T09:27:10Z" uid="7617" user="Franc" changeset="7850036" lat="-33.8868238" lon="151.1455542">
    <tag k="addr:housenumber" v="34"/>
    <tag k="addr:street" v="Kegworth Street"/>
    <tag k="source" v="exrapolation"/>
  </node>
  <node id="1242989664" version="2" timestamp="2011-05-29T08:33:23Z" uid="7617" user="Franc" changeset="8278454" lat="-33.8868238" lon="151.1455542">
    <tag k="addr:housenumber" v="34"/>
    <tag k="addr:street" v="Kegworth Street"/>
    <tag k="source" v="extrapolation"/>
  </node>
  <node id="1242989665" version="1" timestamp="2011-04-13T09:27:10Z" uid="7617" user="Franc" changeset="7850036" lat="-33.8773581" lon="151.1542979">
    <tag k="addr:housenumber" v="86"/>
    <tag k="addr:street" v="Francis Street"/>
    <tag k="source" v="survey"/>
  </node>
  <node id="1242989667" version="1" timestamp="2011-04-13T09:27:10Z" uid="7617" user="Franc" changeset="7850036" lat="-33.8782811" lon="151.1542808"/>
  <node id="1242989669" version="1" timestamp="2011-04-13T09:27:11Z" uid="7617" user="Franc" changeset="7850036" lat="-33.8775405" lon="151.1548472">
    <tag k="addr:housenumber" v="16"/>
    <tag k="addr:street" v="William Street"/>
    <tag k="source" v="survey"/>
  </node>
  <node id="1242989670" version="1" timestamp="2011-04-13T09:27:11Z" uid="7617" user="Franc" changeset="7850036" lat="-33.8862769" lon="151.1462421">
    <tag k="addr:housenumber" v="26"/>
    <tag k="addr:street" v="Lords Road"/>
    <tag k="source" v="survey"/>
  </node>
  <node id="1242989671" version="1" timestamp="2011-04-13T09:27:11Z" uid="7617" user="Franc" changeset="7850036" lat="-33.8785282" lon="151.1547116"/>
  <node id="1242989672" version="1" timestamp="2011-04-13T09:27:11Z" uid="7617" user="Franc" changeset="7850036" lat="-33.8859811" lon="151.1469566">
    <tag k="addr:housenumber" v="63"/>
    <tag k="addr:street" v="Lords Road"/>
    <tag k="source" v="exrapolation"/>
  </node>
  <node id="1242989672" version="2" timestamp="2011-05-29T08:32:16Z" uid="7617" user="Franc" changeset="8278454" lat="-33.8859811" lon="151.1469566">
    <tag k="addr:housenumber" v="63"/>
    <tag k="addr:street" v="Lords Road"/>
    <tag k="source" v="extrapolation"/>
  </node>
  <node id="1242989674" version="1" timestamp="2011-04-13T09:27:11Z" uid="7617" user="Franc" changeset="7850036" lat="-33.88861" lon="151.1507976">
    <tag k="addr:housenumber" v="40"/>
    <tag k="addr:street" v="Albert Street"/>
    <tag k="source" v="survey"/>
  </node>
  <node id="1242989676" version="1" timestamp="2011-04-13T09:27:11Z" uid="7617" user="Franc" changeset="7850036" lat="-33.8778926" lon="151.1535368"/>
  <node id="1242989677" version="1" timestamp="2011-04-13T09:27:11Z" uid="7617" user="Franc" changeset="7850036" lat="-33.8803429" lon="151.153381">
    <tag k="addr:housenumber" v="52"/>
    <tag k="addr:street" v="Allen Street"/>
    <tag k="source" v="survey"/>
  </node>
  <node id="1242989678" version="1" timestamp="2011-04-13T09:27:11Z" uid="7617" user="Franc" changeset="7850036" lat="-33.8837596" lon="151.1487163">
    <tag k="addr:housenumber" v="2"/>
    <tag k="addr:street" v="Burfitt Street"/>
    <tag k="source" v="survey"/>
  </node>
  <node id="1242989680" version="1" timestamp="2011-04-13T09:27:11Z" uid="7617" user="Franc" changeset="7850036" lat="-33.9025077" lon="151.1639358">
    <tag k="addr:housenumber" v="106"/>
    <tag k="addr:street" v="Addison Road"/>
    <tag k="source" v="extrapolation"/>
  </node>
  <node id="1242989681" version="1" timestamp="2011-04-13T09:27:11Z" uid="7617" user="Franc" changeset="7850036" lat="-33.87743" lon="151.153381">
    <tag k="amenity" v="cafe"/>
    <tag k="name" v="Claude`s Cafe"/>
    <tag k="source" v="survey"/>
  </node>
  <node id="1242989684" version="1" timestamp="2011-04-13T09:27:12Z" uid="7617" user="Franc" changeset="7850036" lat="-33.9027289" lon="151.1649178">
    <tag k="addr:housenumber" v="83"/>
    <tag k="addr:street" v="Addison Road"/>
    <tag k="source" v="exrapolation"/>
  </node>
  <node id="1242989684" version="2" timestamp="2011-04-23T12:54:02Z" uid="7617" user="Franc" changeset="7943317" lat="-33.9027289" lon="151.1649178">
    <tag k="addr:housenumber" v="83"/>
    <tag k="addr:street" v="Addison Road"/>
    <tag k="source" v="extrapolation"/>
  </node>
  <node id="1242989685" version="1" timestamp="2011-04-13T09:27:12Z" uid="7617" user="Franc" changeset="7850036" lat="-33.8889396" lon="151.1494632">
    <tag k="addr:housenumber" v="70"/>
    <tag k="addr:street" v="Albert Street"/>
    <tag k="source" v="survey"/>
  </node>
  <node id="1242989686" version="1" timestamp="2011-04-13T09:27:12Z" uid="7617" user="Franc" changeset="7850036" lat="-33.902491" lon="151.163891">
    <tag k="addr:housenumber" v="108"/>
    <tag k="addr:street" v="Addison Road"/>
    <tag k="source" v="survey"/>
  </node>
  <node id="1242989687" version="1" timestamp="2011-04-13T09:27:12Z" uid="7617" user="Franc" changeset="7850036" lat="-33.877579" lon="151.1541143"/>
  <node id="1242989688" version="1" timestamp="2011-04-13T09:27:12Z" uid="7617" user="Franc" changeset="7850036" lat="-33.9025298" lon="151.1639234">
    <tag k="amenity" v="cafe"/>
    <tag k="name" v="2204"/>
    <tag k="source" v="survey"/>
  </node>
  <node id="1242989691" version="1" timestamp="2011-04-13T09:27:12Z" uid="7617" user="Franc" changeset="7850036" lat="-33.8867319" lon="151.1461407">
    <tag k="addr:housenumber" v="13"/>
    <tag k="addr:street" v="Kegworth Street"/>
    <tag k="source" v="survey"/>
  </node>
  <node id="1242989692" version="1" timestamp="2011-04-13T09:27:12Z" uid="7617" user="Franc" changeset="7850036" lat="-33.888403" lon="151.1509745">
    <tag k="addr:housenumber" v="29"/>
    <tag k="addr:street" v="Albert Street"/>
    <tag k="source" v="exrapolation"/>
  </node>
  <node id="1242989692" version="2" timestamp="2011-05-29T08:33:21Z" uid="7617" user="Franc" changeset="8278454" lat="-33.888403" lon="151.1509745">
    <tag k="addr:housenumber" v="29"/>
    <tag k="addr:street" v="Albert Street"/>
    <tag k="source" v="extrapolation"/>
  </node>
  <node id="1242989693" version="1" timestamp="2011-04-13T09:27:12Z" uid="7617" user="Franc" changeset="7850036" lat="-33.8859502" lon="151.1471875">
    <tag k="addr:housenumber" v="57"/>
    <tag k="addr:street" v="Lords Road"/>
    <tag k="source" v="survey"/>
  </node>
  <node id="1242989694" version="1" timestamp="2011-04-13T09:27:12Z" uid="7617" user="Franc" changeset="7850036" lat="-33.8866411" lon="151.1455939">
    <tag k="addr:housenumber" v="27"/>
    <tag k="addr:street" v="Kegworth Street"/>
    <tag k="source" v="survey"/>
  </node>
  <node id="1242989697" version="1" timestamp="2011-04-13T09:27:12Z" uid="7617" user="Franc" changeset="7850036" lat="-33.8838128" lon="151.1487672"/>
  <node id="1242989698" version="1" timestamp="2011-04-13T09:27:12Z" uid="7617" user="Franc" changeset="7850036" lat="-33.9036491" lon="151.1668767">
    <tag k="addr:housenumber" v="30"/>
    <tag k="addr:street" v="Addison Road"/>
    <tag k="source" v="survey"/>
  </node>
  <node id="1242989699" version="1" timestamp="2011-04-13T09:27:12Z" uid="7617" user="Franc" changeset="7850036" lat="-33.8801304" lon="151.1536367">
    <tag k="addr:housenumber" v="77"/>
    <tag k="addr:street" v="Allen Street"/>
    <tag k="source" v="survey"/>
  </node>
  <node id="1242989700" version="1" timestamp="2011-04-13T09:27:13Z" uid="7617" user="Franc" changeset="7850036" lat="-33.8776048" lon="151.1530561"/>
  <node id="1242989701" version="1" timestamp="2011-04-13T09:27:13Z" uid="7617" user="Franc" changeset="7850036" lat="-33.8868558" lon="151.1457683">
    <tag k="addr:housenumber" v="28"/>
    <tag k="addr:street" v="Kegworth Street"/>
    <tag k="source" v="survey"/>
  </node>
  <node id="1242989702" version="1" timestamp="2011-04-13T09:27:13Z" uid="7617" user="Franc" changeset="7850036" lat="-33.8882056" lon="151.1505587">
    <tag k="addr:housenumber" v="2"/>
    <tag k="addr:street" v="National Street"/>
    <tag k="source" v="survey"/>
  </node>
  <node id="1242989707" version="1" timestamp="2011-04-13T09:27:13Z" uid="7617" user="Franc" changeset="7850036" lat="-33.9029843" lon="151.165499">
    <tag k="addr:housenumber" v="71"/>
    <tag k="addr:street" v="Addison Road"/>
    <tag k="source" v="survey"/>
  </node>
  <node id="1242989708" version="1" timestamp="2011-04-13T09:27:13Z" uid="7617" user="Franc" changeset="7850036" lat="-33.8772709" lon="151.1565028">
    <tag k="addr:housenumber" v="7a"/>
    <tag k="addr:street" v="William Street"/>
    <tag k="source" v="survey"/>
  </node>
  <node id="1242989711" version="1" timestamp="2011-04-13T09:27:13Z" uid="7617" user="Franc" changeset="7850036" lat="-33.8808681" lon="151.1487559">
    <tag k="addr:housenumber" v="88"/>
    <tag k="addr:street" v="Burfitt Street"/>
    <tag k="source" v="survey"/>
  </node>
  <node id="1242989715" version="1" timestamp="2011-04-13T09:27:13Z" uid="7617" user="Franc" changeset="7850036" lat="-33.8776612" lon="151.1526932">
    <tag k="addr:housenumber" v="84"/>
    <tag k="addr:street" v="William Street"/>
    <tag k="source" v="survey"/>
  </node>
  <node id="1242989723" version="1" timestamp="2011-04-13T09:27:13Z" uid="7617" user="Franc" changeset="7850036" lat="-33.8861079" lon="151.1459535">
    <tag k="addr:housenumber" v="67-69"/>
    <tag k="addr:street" v="Lords Road"/>
    <tag k="source" v="survey"/>
  </node>
  <node id="1242989726" version="1" timestamp="2011-04-13T09:27:13Z" uid="7617" user="Franc" changeset="7850036" lat="-33.879822" lon="151.1534078">
    <tag k="addr:housenumber" v="1"/>
    <tag k="addr:street" v="North Street"/>
    <tag k="source" v="survey"/>
  </node>
  <node id="1242989728" version="1" timestamp="2011-04-13T09:27:13Z" uid="7617" user="Franc" changeset="7850036" lat="-33.8775302" lon="151.155019">
    <tag k="addr:housenumber" v="14"/>
    <tag k="addr:street" v="William Street"/>
    <tag k="source" v="exrapolation"/>
  </node>
  <node id="1242989728" version="2" timestamp="2011-05-29T08:31:49Z" uid="7617" user="Franc" changeset="8278454" lat="-33.8775302" lon="151.155019">
    <tag k="addr:housenumber" v="14"/>
    <tag k="addr:street" v="William Street"/>
    <tag k="source" v="extrapolation"/>
  </node>
  <node id="1242989731" version="1" timestamp="2011-04-13T09:27:14Z" uid="7617" user="Franc" changeset="7850036" lat="-33.8837251" lon="151.1489125">
    <tag k="addr:housenumber" v="1"/>
    <tag k="addr:street" v="Burfitt Street"/>
    <tag k="source" v="survey"/>
  </node>
  <node id="1242989736" version="1" timestamp="2011-04-13T09:27:14Z" uid="7617" user="Franc" changeset="7850036" lat="-33.8851176" lon="151.1466001">
    <tag k="addr:housenumber" v="28"/>
    <tag k="addr:street" v="Davies Street"/>
    <tag k="source" v="survey"/>
  </node>
  <node id="1242989744" version="1" timestamp="2011-04-13T09:27:14Z" uid="7617" user="Franc" changeset="7850036" lat="-33.8774867" lon="151.1557681">
    <tag k="addr:housenumber" v="2"/>
    <tag k="addr:street" v="William Street"/>
    <tag k="source" v="exrapolation"/>
  </node>
  <node id="1242989744" version="2" timestamp="2011-05-29T08:33:15Z" uid="7617" user="Franc" changeset="8278454" lat="-33.8774867" lon="151.1557681">
    <tag k="addr:housenumber" v="2"/>
    <tag k="addr:street" v="William Street"/>
    <tag k="source" v="extrapolation"/>
  </node>
  <node id="1242989747" version="1" timestamp="2011-04-13T09:27:14Z" uid="7617" user="Franc" changeset="7850036" lat="-33.8884437" lon="151.1507678">
    <tag k="addr:housenumber" v="35"/>
    <tag k="addr:street" v="Albert Street"/>
    <tag k="source" v="survey"/>
  </node>
  <node id="1242989751" version="1" timestamp="2011-04-13T09:27:14Z" uid="7617" user="Franc" changeset="7850036" lat="-33.8775251" lon="151.1550948">
    <tag k="addr:housenumber" v="12"/>
    <tag k="addr:street" v="William Street"/>
    <tag k="source" v="survey"/>
  </node>
  <node id="1242989754" version="1" timestamp="2011-04-13T09:27:14Z" uid="7617" user="Franc" changeset="7850036" lat="-33.8862437" lon="151.1453942">
    <tag k="addr:housenumber" v="71-73"/>
    <tag k="addr:street" v="Lords Road"/>
    <tag k="source" v="survey"/>
  </node>
  <node id="1242989758" version="1" timestamp="2011-04-13T09:27:14Z" uid="7617" user="Franc" changeset="7850036" lat="-33.9028313" lon="151.1651754">
    <tag k="addr:housenumber" v="75"/>
    <tag k="addr:street" v="Addison Road"/>
    <tag k="source" v="exrapolation"/>
  </node>
  <node id="1242989758" version="2" timestamp="2011-04-23T12:55:01Z" uid="7617" user="Franc" changeset="7943317" lat="-33.9028313" lon="151.1651754">
    <tag k="addr:housenumber" v="75"/>
    <tag k="addr:street" v="Addison Road"/>
    <tag k="source" v="extrapolation"/>
  </node>
  <node id="1242989762" version="1" timestamp="2011-04-13T09:27:14Z" uid="7617" user="Franc" changeset="7850036" lat="-33.8780745" lon="151.1531945">
    <tag k="addr:housenumber" v="59"/>
    <tag k="addr:street" v="North Street"/>
    <tag k="source" v="survey"/>
  </node>
  <node id="1242989765" version="1" timestamp="2011-04-13T09:27:14Z" uid="7617" user="Franc" changeset="7850036" lat="-33.8886729" lon="151.1506091">
    <tag k="addr:housenumber" v="42"/>
    <tag k="addr:street" v="Albert Street"/>
    <tag k="source" v="survey"/>
  </node>
  <node id="1242989766" version="1" timestamp="2011-04-13T09:27:14Z" uid="7617" user="Franc" changeset="7850036" lat="-33.8775649" lon="151.1543242">
    <tag k="addr:housenumber" v="38"/>
    <tag k="addr:street" v="William Street"/>
    <tag k="source" v="survey"/>
  </node>
  <node id="1242989768" version="1" timestamp="2011-04-13T09:27:14Z" uid="7617" user="Franc" changeset="7850036" lat="-33.8795171" lon="151.1544317"/>
  <node id="1242989775" version="1" timestamp="2011-04-13T09:27:15Z" uid="7617" user="Franc" changeset="7850036" lat="-33.9027033" lon="151.1648534">
    <tag k="addr:housenumber" v="85"/>
    <tag k="addr:street" v="Addison Road"/>
    <tag k="source" v="exrapolation"/>
  </node>
  <node id="1242989775" version="2" timestamp="2011-04-23T12:54:57Z" uid="7617" user="Franc" changeset="7943317" lat="-33.9027033" lon="151.1648534">
    <tag k="addr:housenumber" v="85"/>
    <tag k="addr:street" v="Addison Road"/>
    <tag k="source" v="extrapolation"/>
  </node>
  <node id="1242989778" version="1" timestamp="2011-04-13T09:27:15Z" uid="7617" user="Franc" changeset="7850036" lat="-33.8775637" lon="151.1555301">
    <tag k="power" v="sub_station"/>
  </node>
  <node id="1242989780" version="1" timestamp="2011-04-13T09:27:15Z" uid="7617" user="Franc" changeset="7850036" lat="-33.8879649" lon="151.1508257">
    <tag k="addr:housenumber" v="1"/>
    <tag k="addr:street" v="National Street"/>
    <tag k="source" v="survey"/>
  </node>
  <node id="1242989781" version="1" timestamp="2011-04-13T09:27:15Z" uid="7617" user="Franc" changeset="7850036" lat="-33.8856811" lon="151.146808">
    <tag k="addr:housenumber" v="1"/>
    <tag k="addr:street" v="Davies Street"/>
    <tag k="source" v="survey"/>
  </node>
  <node id="1242989782" version="1" timestamp="2011-04-13T09:27:15Z" uid="7617" user="Franc" changeset="7850036" lat="-33.8774918" lon="151.1556093">
    <tag k="addr:housenumber" v="6"/>
    <tag k="addr:street" v="William Street"/>
    <tag k="source" v="survey"/>
  </node>
  <node id="1242989792" version="1" timestamp="2011-04-13T09:27:15Z" uid="7617" user="Franc" changeset="7850036" lat="-33.8882951" lon="151.1523299">
    <tag k="addr:housenumber" v="2"/>
    <tag k="addr:street" v="Albert Street"/>
    <tag k="source" v="survey"/>
  </node>
  <node id="1242989793" version="1" timestamp="2011-04-13T09:27:15Z" uid="7617" user="Franc" changeset="7850036" lat="-33.8862589" lon="151.1463595">
    <tag k="addr:housenumber" v="24"/>
    <tag k="addr:street" v="Lords Road"/>
    <tag k="source" v="survey"/>
  </node>
  <node id="1242989794" version="1" timestamp="2011-04-13T09:27:15Z" uid="7617" user="Franc" changeset="7850036" lat="-33.8785661" lon="151.1543185"/>
  <node id="1242989795" version="1" timestamp="2011-04-13T09:27:15Z" uid="7617" user="Franc" changeset="7850036" lat="-33.8859711" lon="151.1470227">
    <tag k="addr:housenumber" v="61"/>
    <tag k="addr:street" v="Lords Road"/>
    <tag k="source" v="exrapolation"/>
  </node>
  <node id="1242989795" version="2" timestamp="2011-05-29T08:33:16Z" uid="7617" user="Franc" changeset="8278454" lat="-33.8859711" lon="151.1470227">
    <tag k="addr:housenumber" v="61"/>
    <tag k="addr:street" v="Lords Road"/>
    <tag k="source" v="extrapolation"/>
  </node>
  <node id="1242989799" version="1" timestamp="2011-04-13T09:27:15Z" uid="7617" user="Franc" changeset="7850036" lat="-33.8778452" lon="151.1541444"/>
  <node id="1242989807" version="1" timestamp="2011-04-13T09:27:15Z" uid="7617" user="Franc" changeset="7850036" lat="-33.8884101" lon="151.1509084">
    <tag k="addr:housenumber" v="31"/>
    <tag k="addr:street" v="Albert Street"/>
    <tag k="source" v="exrapolation"/>
  </node>
  <node id="1242989807" version="2" timestamp="2011-05-29T08:31:47Z" uid="7617" user="Franc" changeset="8278454" lat="-33.8884101" lon="151.1509084">
    <tag k="addr:housenumber" v="31"/>
    <tag k="addr:street" v="Albert Street"/>
    <tag k="source" v="extrapolation"/>
  </node>
  <node id="1242989808" version="1" timestamp="2011-04-13T09:27:15Z" uid="7617" user="Franc" changeset="7850036" lat="-33.8798699" lon="151.1539329"/>
  <node id="1242989809" version="1" timestamp="2011-04-13T09:27:16Z" uid="7617" user="Franc" changeset="7850036" lat="-33.8869595" lon="151.1508028">
    <tag k="addr:housenumber" v="42"/>
    <tag k="addr:street" v="National Street"/>
    <tag k="source" v="survey"/>
  </node>
  <node id="1242989813" version="1" timestamp="2011-04-13T09:27:16Z" uid="7617" user="Franc" changeset="7850036" lat="-33.888693" lon="151.1505416">
    <tag k="addr:housenumber" v="44"/>
    <tag k="addr:street" v="Albert Street"/>
    <tag k="source" v="survey"/>
  </node>
  <node id="1242989816" version="1" timestamp="2011-04-13T09:27:16Z" uid="7617" user="Franc" changeset="7850036" lat="-33.8881164" lon="151.1521935">
    <tag k="addr:housenumber" v="3"/>
    <tag k="addr:street" v="Albert Street"/>
    <tag k="source" v="survey"/>
  </node>
  <node id="1242989821" version="1" timestamp="2011-04-13T09:27:16Z" uid="7617" user="Franc" changeset="7850036" lat="-33.9009426" lon="151.1599823"/>
  <node id="1242989823" version="1" timestamp="2011-04-13T09:27:16Z" uid="7617" user="Franc" changeset="7850036" lat="-33.9025262" lon="151.1639823">
    <tag k="addr:housenumber" v="104"/>
    <tag k="addr:street" v="Addison Road"/>
    <tag k="source" v="extrapolation"/>
  </node>
  <node id="1242989826" version="1" timestamp="2011-04-13T09:27:16Z" uid="7617" user="Franc" changeset="7850036" lat="-33.8772608" lon="151.1565829">
    <tag k="addr:housenumber" v="7b"/>
    <tag k="addr:street" v="William Street"/>
    <tag k="source" v="survey"/>
  </node>
  <node id="1242989829" version="1" timestamp="2011-04-13T09:27:16Z" uid="7617" user="Franc" changeset="7850036" lat="-33.8779211" lon="151.1513426">
    <tag k="addr:housenumber" v="104"/>
    <tag k="addr:street" v="William Street"/>
    <tag k="source" v="survey"/>
  </node>
  <node id="1242989832" version="1" timestamp="2011-04-13T09:27:16Z" uid="7617" user="Franc" changeset="7850036" lat="-33.8881563" lon="151.1505695">
    <tag k="addr:housenumber" v="4"/>
    <tag k="addr:street" v="National Street"/>
    <tag k="source" v="survey"/>
  </node>
  <node id="1242989838" version="1" timestamp="2011-04-13T09:27:16Z" uid="7617" user="Franc" changeset="7850036" lat="-33.8882792" lon="151.151437">
    <tag k="addr:housenumber" v="23"/>
    <tag k="addr:street" v="Albert Street"/>
    <tag k="source" v="survey"/>
  </node>
  <node id="1242989841" version="1" timestamp="2011-04-13T09:27:16Z" uid="7617" user="Franc" changeset="7850036" lat="-33.8785419" lon="151.1539051"/>
  <node id="1242989844" version="1" timestamp="2011-04-13T09:27:16Z" uid="7617" user="Franc" changeset="7850036" lat="-33.8792156" lon="151.1544043"/>
  <node id="1242989846" version="1" timestamp="2011-04-13T09:27:16Z" uid="7617" user="Franc" changeset="7850036" lat="-33.8798186" lon="151.1544839"/>
  <node id="1242989848" version="1" timestamp="2011-04-13T09:27:16Z" uid="7617" user="Franc" changeset="7850036" lat="-33.8773444" lon="151.1545318">
    <tag k="addr:housenumber" v="61"/>
    <tag k="addr:street" v="Francis Street"/>
    <tag k="source" v="survey"/>
  </node>
  <node id="1242989849" version="1" timestamp="2011-04-13T09:27:16Z" uid="7617" user="Franc" changeset="7850036" lat="-33.8798988" lon="151.1532746">
    <tag k="addr:housenumber" v="2"/>
    <tag k="addr:street" v="North Street"/>
    <tag k="source" v="exrapolation"/>
  </node>
  <node id="1242989849" version="2" timestamp="2011-05-29T08:32:54Z" uid="7617" user="Franc" changeset="8278454" lat="-33.8798988" lon="151.1532746">
    <tag k="addr:housenumber" v="2"/>
    <tag k="addr:street" v="North Street"/>
    <tag k="source" v="extrapolation"/>
  </node>
  <node id="1242989856" version="1" timestamp="2011-04-13T09:27:17Z" uid="7617" user="Franc" changeset="7850036" lat="-33.9026777" lon="151.164789">
    <tag k="addr:housenumber" v="87"/>
    <tag k="addr:street" v="Addison Road"/>
    <tag k="source" v="exrapolation"/>
  </node>
  <node id="1242989856" version="2" timestamp="2011-04-23T12:54:50Z" uid="7617" user="Franc" changeset="7943317" lat="-33.9026777" lon="151.164789">
    <tag k="addr:housenumber" v="87"/>
    <tag k="addr:street" v="Addison Road"/>
    <tag k="source" v="extrapolation"/>
  </node>
  <node id="1242989860" version="1" timestamp="2011-04-13T09:27:17Z" uid="7617" user="Franc" changeset="7850036" lat="-33.8868438" lon="151.1456949">
    <tag k="addr:housenumber" v="30"/>
    <tag k="addr:street" v="Kegworth Street"/>
    <tag k="source" v="exrapolation"/>
  </node>
  <node id="1242989860" version="2" timestamp="2011-05-29T08:32:01Z" uid="7617" user="Franc" changeset="8278454" lat="-33.8868438" lon="151.1456949">
    <tag k="addr:housenumber" v="30"/>
    <tag k="addr:street" v="Kegworth Street"/>
    <tag k="source" v="extrapolation"/>
  </node>
  <node id="1242989862" version="1" timestamp="2011-04-13T09:27:17Z" uid="7617" user="Franc" changeset="7850036" lat="-33.8775225" lon="151.1551629">
    <tag k="addr:housenumber" v="10"/>
    <tag k="addr:street" v="William Street"/>
    <tag k="source" v="exrapolation"/>
  </node>
  <node id="1242989862" version="2" timestamp="2011-05-29T08:32:11Z" uid="7617" user="Franc" changeset="8278454" lat="-33.8775225" lon="151.1551629">
    <tag k="addr:housenumber" v="10"/>
    <tag k="addr:street" v="William Street"/>
    <tag k="source" v="extrapolation"/>
  </node>
  <node id="1242989863" version="1" timestamp="2011-04-13T09:27:17Z" uid="7617" user="Franc" changeset="7850036" lat="-33.8851486" lon="151.1468204">
    <tag k="addr:housenumber" v="17"/>
    <tag k="addr:street" v="Davies Street"/>
    <tag k="source" v="survey"/>
  </node>
  <node id="1242989864" version="1" timestamp="2011-04-13T09:27:17Z" uid="7617" user="Franc" changeset="7850036" lat="-33.8773073" lon="151.1557318">
    <tag k="addr:housenumber" v="9"/>
    <tag k="addr:street" v="William Street"/>
    <tag k="source" v="survey"/>
  </node>
  <node id="1242989874" version="1" timestamp="2011-04-13T09:27:17Z" uid="7617" user="Franc" changeset="7850036" lat="-33.9025616" lon="151.1640836">
    <tag k="addr:housenumber" v="100"/>
    <tag k="addr:street" v="Addison Road"/>
    <tag k="source" v="survey"/>
  </node>
  <node id="1242989875" version="1" timestamp="2011-04-13T09:27:17Z" uid="7617" user="Franc" changeset="7850036" lat="-33.9028057" lon="151.165111">
    <tag k="addr:housenumber" v="77"/>
    <tag k="addr:street" v="Addison Road"/>
    <tag k="source" v="exrapolation"/>
  </node>
  <node id="1242989875" version="2" timestamp="2011-04-23T12:54:04Z" uid="7617" user="Franc" changeset="7943317" lat="-33.9028057" lon="151.165111">
    <tag k="addr:housenumber" v="77"/>
    <tag k="addr:street" v="Addison Road"/>
    <tag k="source" v="extrapolation"/>
  </node>
  <node id="1242989876" version="1" timestamp="2011-04-13T09:27:17Z" uid="7617" user="Franc" changeset="7850036" lat="-33.8792717" lon="151.153842"/>
  <node id="1242989878" version="1" timestamp="2011-04-13T09:27:17Z" uid="7617" user="Franc" changeset="7850036" lat="-33.9022883" lon="151.1633286">
    <tag k="addr:housenumber" v="122"/>
    <tag k="addr:street" v="Addison Road"/>
    <tag k="source" v="survey"/>
  </node>
  <node id="1242989880" version="1" timestamp="2011-04-13T09:27:17Z" uid="7617" user="Franc" changeset="7850036" lat="-33.9034959" lon="151.1668692">
    <tag k="addr:housenumber" v="35-41"/>
    <tag k="addr:street" v="Addison Road"/>
    <tag k="source" v="survey"/>
  </node>
  <node id="1242989889" version="1" timestamp="2011-04-13T09:27:17Z" uid="7617" user="Franc" changeset="7850036" lat="-33.9026265" lon="151.1646602">
    <tag k="addr:housenumber" v="91"/>
    <tag k="addr:street" v="Addison Road"/>
    <tag k="source" v="survey"/>
  </node>
  <node id="1242989889" version="2" timestamp="2011-05-06T10:28:58Z" uid="7617" user="Franc" changeset="8064166" lat="-33.9026321" lon="151.1646602">
    <tag k="addr:housenumber" v="91"/>
    <tag k="addr:street" v="Addison Road"/>
    <tag k="source" v="survey"/>
  </node>
  <node id="1242989890" version="1" timestamp="2011-04-13T09:27:17Z" uid="7617" user="Franc" changeset="7850036" lat="-33.8781191" lon="151.1532008">
    <tag k="addr:housenumber" v="57"/>
    <tag k="addr:street" v="North Street"/>
    <tag k="source" v="survey"/>
  </node>
  <node id="1242989892" version="1" timestamp="2011-04-13T09:27:18Z" uid="7617" user="Franc" changeset="7850036" lat="-33.879782" lon="151.1548763"/>
  <node id="1242989894" version="1" timestamp="2011-04-13T09:27:18Z" uid="7617" user="Franc" changeset="7850036" lat="-33.8889566" lon="151.1494003">
    <tag k="addr:housenumber" v="72"/>
    <tag k="addr:street" v="Albert Street"/>
    <tag k="source" v="survey"/>
  </node>
  <node id="1242989897" version="1" timestamp="2011-04-13T09:27:18Z" uid="7617" user="Franc" changeset="7850036" lat="-33.8866601" lon="151.1456913">
    <tag k="addr:housenumber" v="25"/>
    <tag k="addr:street" v="Kegworth Street"/>
    <tag k="source" v="survey"/>
  </node>
  <node id="1242989904" version="1" timestamp="2011-04-13T09:27:18Z" uid="7617" user="Franc" changeset="7850036" lat="-33.8870291" lon="151.1467776">
    <tag k="addr:housenumber" v="2"/>
    <tag k="addr:street" v="Kegworth Street"/>
    <tag k="source" v="survey"/>
  </node>
  <node id="1242989906" version="1" timestamp="2011-04-13T09:27:18Z" uid="7617" user="Franc" changeset="7850036" lat="-33.8859931" lon="151.1468664">
    <tag k="addr:housenumber" v="65"/>
    <tag k="addr:street" v="Lords Road"/>
    <tag k="source" v="survey"/>
  </node>
  <node id="1242989909" version="1" timestamp="2011-04-13T09:27:18Z" uid="7617" user="Franc" changeset="7850036" lat="-33.9026521" lon="151.1647246">
    <tag k="addr:housenumber" v="89"/>
    <tag k="addr:street" v="Addison Road"/>
    <tag k="source" v="exrapolation"/>
  </node>
  <node id="1242989909" version="2" timestamp="2011-04-23T12:54:03Z" uid="7617" user="Franc" changeset="7943317" lat="-33.9026521" lon="151.1647246">
    <tag k="addr:housenumber" v="89"/>
    <tag k="addr:street" v="Addison Road"/>
    <tag k="source" v="extrapolation"/>
  </node>
  <node id="1242989911" version="1" timestamp="2011-04-13T09:27:18Z" uid="7617" user="Franc" changeset="7850036" lat="-33.8868348" lon="151.1456252">
    <tag k="addr:housenumber" v="32"/>
    <tag k="addr:street" v="Kegworth Street"/>
    <tag k="source" v="exrapolation"/>
  </node>
  <node id="1242989911" version="2" timestamp="2011-05-29T08:32:17Z" uid="7617" user="Franc" changeset="8278454" lat="-33.8868348" lon="151.1456252">
    <tag k="addr:housenumber" v="32"/>
    <tag k="addr:street" v="Kegworth Street"/>
    <tag k="source" v="extrapolation"/>
  </node>
  <node id="1242989913" version="1" timestamp="2011-04-13T09:27:18Z" uid="7617" user="Franc" changeset="7850036" lat="-33.8774893" lon="151.1530814"/>
  <node id="1242989914" version="1" timestamp="2011-04-13T09:27:18Z" uid="7617" user="Franc" changeset="7850036" lat="-33.8887059" lon="151.1496701">
    <tag k="addr:housenumber" v="53"/>
    <tag k="addr:street" v="Albert Street"/>
    <tag k="source" v="survey"/>
  </node>
  <node id="1242989915" version="1" timestamp="2011-04-13T09:27:18Z" uid="7617" user="Franc" changeset="7850036" lat="-33.8868128" lon="151.1454532">
    <tag k="addr:housenumber" v="36"/>
    <tag k="addr:street" v="Kegworth Street"/>
    <tag k="source" v="survey"/>
  </node>
  <node id="1242989916" version="1" timestamp="2011-04-13T09:27:18Z" uid="7617" user="Franc" changeset="7850036" lat="-33.9025442" lon="151.1640316">
    <tag k="addr:housenumber" v="102"/>
    <tag k="addr:street" v="Addison Road"/>
    <tag k="source" v="extrapolation"/>
  </node>
  <node id="1242989917" version="1" timestamp="2011-04-13T09:27:18Z" uid="7617" user="Franc" changeset="7850036" lat="-33.888679" lon="151.152168"/>
  <node id="1242989919" version="1" timestamp="2011-04-13T09:27:18Z" uid="7617" user="Franc" changeset="7850036" lat="-33.8855874" lon="151.1468124">
    <tag k="addr:housenumber" v="3"/>
    <tag k="addr:street" v="Davies Street"/>
    <tag k="source" v="survey"/>
  </node>
  <node id="1242989920" version="1" timestamp="2011-04-13T09:27:19Z" uid="7617" user="Franc" changeset="7850036" lat="-33.877488" lon="151.1557016">
    <tag k="addr:housenumber" v="4"/>
    <tag k="addr:street" v="William Street"/>
    <tag k="source" v="exrapolation"/>
  </node>
  <node id="1242989920" version="2" timestamp="2011-05-29T08:32:37Z" uid="7617" user="Franc" changeset="8278454" lat="-33.877488" lon="151.1557016">
    <tag k="addr:housenumber" v="4"/>
    <tag k="addr:street" v="William Street"/>
    <tag k="source" v="extrapolation"/>
  </node>
  <node id="1242989921" version="1" timestamp="2011-04-13T09:27:19Z" uid="7617" user="Franc" changeset="7850036" lat="-33.8883252" lon="151.1512302">
    <tag k="addr:housenumber" v="25"/>
    <tag k="addr:street" v="Albert Street"/>
    <tag k="source" v="survey"/>
  </node>
  <node id="1242989922" version="1" timestamp="2011-04-13T09:27:19Z" uid="7617" user="Franc" changeset="7850036" lat="-33.8885198" lon="151.1504524">
    <tag k="addr:housenumber" v="37"/>
    <tag k="addr:street" v="Albert Street"/>
    <tag k="source" v="survey"/>
  </node>
  <node id="1242989923" version="1" timestamp="2011-04-13T09:27:19Z" uid="7617" user="Franc" changeset="7850036" lat="-33.8808196" lon="151.1489729">
    <tag k="addr:housenumber" v="87"/>
    <tag k="addr:street" v="Burfitt Street"/>
    <tag k="source" v="survey"/>
  </node>
  <node id="1242989925" version="1" timestamp="2011-04-13T09:27:19Z" uid="7617" user="Franc" changeset="7850036" lat="-33.8776263" lon="151.1535067"/>
  <node id="1242989926" version="1" timestamp="2011-04-13T09:27:19Z" uid="7617" user="Franc" changeset="7850036" lat="-33.8778552" lon="151.1530253">
    <tag k="addr:housenumber" v="56"/>
    <tag k="addr:street" v="North Street"/>
    <tag k="source" v="survey"/>
  </node>
  <node id="1242989927" version="1" timestamp="2011-04-13T09:27:19Z" uid="7617" user="Franc" changeset="7850036" lat="-33.8859602" lon="151.1471009">
    <tag k="addr:housenumber" v="59"/>
    <tag k="addr:street" v="Lords Road"/>
    <tag k="source" v="survey"/>
  </node>
  <node id="1242989928" version="1" timestamp="2011-04-13T09:27:19Z" uid="7617" user="Franc" changeset="7850036" lat="-33.8772658" lon="151.1564242">
    <tag k="addr:housenumber" v="7"/>
    <tag k="addr:street" v="William Street"/>
    <tag k="source" v="survey"/>
  </node>
  <node id="1242989930" version="1" timestamp="2011-04-13T09:27:19Z" uid="7617" user="Franc" changeset="7850036" lat="-33.8870312" lon="151.1510226">
    <tag k="addr:housenumber" v="25"/>
    <tag k="addr:street" v="National Street"/>
    <tag k="source" v="survey"/>
  </node>
  <node id="1242989931" version="1" timestamp="2011-04-13T09:27:19Z" uid="7617" user="Franc" changeset="7850036" lat="-33.9027545" lon="151.1649822">
    <tag k="addr:housenumber" v="81"/>
    <tag k="addr:street" v="Addison Road"/>
    <tag k="source" v="exrapolation"/>
  </node>
  <node id="1242989931" version="2" timestamp="2011-04-23T12:54:28Z" uid="7617" user="Franc" changeset="7943317" lat="-33.9027545" lon="151.1649822">
    <tag k="addr:housenumber" v="81"/>
    <tag k="addr:street" v="Addison Road"/>
    <tag k="source" v="extrapolation"/>
  </node>
  <node id="1242989932" version="1" timestamp="2011-04-13T09:27:19Z" uid="7617" user="Franc" changeset="7850036" lat="-33.8799564" lon="151.1555515">
    <tag k="addr:housenumber" v="33"/>
    <tag k="addr:street" v="Allen Street"/>
    <tag k="source" v="survey"/>
  </node>
  <node id="1242989933" version="1" timestamp="2011-04-13T09:27:19Z" uid="7617" user="Franc" changeset="7850036" lat="-33.8867489" lon="151.1462604">
    <tag k="addr:housenumber" v="11"/>
    <tag k="addr:street" v="Kegworth Street"/>
    <tag k="source" v="survey"/>
  </node>
  <node id="1242989934" version="1" timestamp="2011-04-13T09:27:19Z" uid="7617" user="Franc" changeset="7850036" lat="-33.8785044" lon="151.1543095"/>
  <node id="1242989935" version="1" timestamp="2011-04-13T09:27:19Z" uid="7617" user="Franc" changeset="7850036" lat="-33.8884331" lon="151.1508402">
    <tag k="addr:housenumber" v="33"/>
    <tag k="addr:street" v="Albert Street"/>
    <tag k="source" v="survey"/>
  </node>
  <node id="1242989937" version="1" timestamp="2011-04-13T09:27:20Z" uid="7617" user="Franc" changeset="7850036" lat="-33.8775148" lon="151.1552434">
    <tag k="addr:housenumber" v="8"/>
    <tag k="addr:street" v="William Street"/>
    <tag k="source" v="survey"/>
  </node>
  <node id="1242989938" version="1" timestamp="2011-04-13T09:27:20Z" uid="7617" user="Franc" changeset="7850036" lat="-33.9027801" lon="151.1650466">
    <tag k="addr:housenumber" v="79"/>
    <tag k="addr:street" v="Addison Road"/>
    <tag k="source" v="exrapolation"/>
  </node>
  <node id="1242989938" version="2" timestamp="2011-04-23T12:54:07Z" uid="7617" user="Franc" changeset="7943317" lat="-33.9027801" lon="151.1650466">
    <tag k="addr:housenumber" v="79"/>
    <tag k="addr:street" v="Addison Road"/>
    <tag k="source" v="extrapolation"/>
  </node>
  <node id="1242989939" version="1" timestamp="2011-04-13T09:27:20Z" uid="7617" user="Franc" changeset="7850036" lat="-33.8791765" lon="151.1547953"/>
  <node id="1242989941" version="1" timestamp="2011-04-13T09:27:20Z" uid="7617" user="Franc" changeset="7850036" lat="-33.886013" lon="151.1465885">
    <tag k="addr:housenumber" v="2"/>
    <tag k="addr:street" v="Davies Street"/>
    <tag k="source" v="survey"/>
  </node>
  <node id="1242989942" version="1" timestamp="2011-04-13T09:27:20Z" uid="7617" user="Franc" changeset="7850036" lat="-33.8887025" lon="151.1504878">
    <tag k="addr:housenumber" v="46"/>
    <tag k="addr:street" v="Albert Street"/>
    <tag k="source" v="survey"/>
  </node>
</osm>
