<?xml version='1.0' encoding='UTF-8'?>
<osm version="0.6" generator="libosmium/2.20.0">
  <node id="1245378609" version="1" timestamp="2011-04-15T10:26:11Z" uid="7617" user="Franc" changeset="7868334" lat="-33.8874863" lon="151.1649872">
    <tag k="addr:housenumber" v="2"/>
    <tag k="addr:street" v="Young Street"/>
    <tag k="source" v="survey"/>
  </node>
  <node id="1245378613" version="1" timestamp="2011-04-15T10:26:11Z" uid="7617" user="Franc" changeset="7868334" lat="-33.8752785" lon="151.1676407">
    <tag k="addr:housenumber" v="15"/>
    <tag k="addr:street" v="Gladstone Street"/>
    <tag k="source" v="survey"/>
  </node>
  <node id="1245378621" version="1" timestamp="2011-04-15T10:26:12Z" uid="7617" user="Franc" changeset="7868334" lat="-33.9137179" lon="151.148914">
    <tag k="addr:housenumber" v="33"/>
    <tag k="addr:street" v="Moncur Street"/>
    <tag k="source" v="exrapolation"/>
  </node>
  <node id="1245378621" version="2" timestamp="2011-05-29T08:33:24Z" uid="7617" user="Franc" changeset="8278454" lat="-33.9137179" lon="151.148914">
    <tag k="addr:housenumber" v="33"/>
    <tag k="addr:street" v="Moncur Street"/>
    <tag k="source" v="extrapolation"/>
  </node>
  <node id="1245378622" version="1" timestamp="2011-04-15T10:26:12Z" uid="7617" user="Franc" changeset="7868334" lat="-33.8749329" lon="151.1677052">
    <tag k="addr:housenumber" v="23"/>
    <tag k="addr:street" v="Gladstone Street"/>
    <tag k="source" v="exrapolation"/>
  </node>
  <node id="1245378622" version="2" timestamp="2011-05-29T08:32:33Z" uid="7617" user="Franc" changeset="8278454" lat="-33.8749329" lon="151.1677052">
    <tag k="addr:housenumber" v="23"/>
    <tag k="addr:street" v="Gladstone Street"/>
    <tag k="source" v="extrapolation"/>
  </node>
  <node id="1245378623" version="1" timestamp="2011-04-15T10:26:12Z" uid="7617" user="Franc" changeset="7868334" lat="-33.9130827" lon="151.148194">
    <tag k="addr:housenumber" v="12"/>
    <tag k="addr:street" v="Moncur Street"/>
    <tag k="source" v="exrapolation"/>
  </node>
  <node id="1245378623" version="2" timestamp="2011-05-29T08:31:43Z" uid="7617" user="Franc" changeset="8278454" lat="-33.9130827" lon="151.148194">
    <tag k="addr:housenumber" v="12"/>
    <tag k="addr:street" v="Moncur Street"/>
    <tag k="source" v="extrapolation"/>
  </node>
  <node id="1245378624" version="1" timestamp="2011-04-15T10:26:12Z" uid="7617" user="Franc" changeset="7868334" lat="-33.8783327" lon="151.1671233">
    <tag k="addr:housenumber" v="20"/>
    <tag k="addr:street" v="White Street"/>
    <tag k="source" v="exrapolation"/>
  </node>
  <node id="1245378624" version="2" timestamp="2011-05-29T08:31:54Z" uid="7617" user="Franc" changeset="8278454" lat="-33.8783327" lon="151.1671233">
    <tag k="addr:housenumber" v="20"/>
    <tag k="addr:street" v="White Street"/>
    <tag k="source" v="extrapolation"/>
  </node>
  <node id="1245378633" version="1" timestamp="2011-04-15T10:26:12Z" uid="7617" user="Franc" changeset="7868334" lat="-33.9134973" lon="151.1467254">
    <tag k="addr:housenumber" v="292"/>
    <tag k="addr:street" v="Livingstone Road"/>
    <tag k="source" v="survey"/>
  </node>
  <node id="1245378636" version="1" timestamp="2011-04-15T10:26:12Z" uid="7617" user="Franc" changeset="7868334" lat="-33.8757768" lon="151.1681179"/>
  <node id="1245378639" version="1" timestamp="2011-04-15T10:26:12Z" uid="7617" user="Franc" changeset="7868334" lat="-33.8787344" lon="151.1666532">
    <tag k="addr:housenumber" v="49"/>
    <tag k="addr:street" v="Ilka Street"/>
    <tag k="source" v="survey"/>
  </node>
  <node id="1245378643" version="1" timestamp="2011-04-15T10:26:12Z" uid="7617" user="Franc" changeset="7868334" lat="-33.9132775" lon="151.1481524">
    <tag k="addr:housenumber" v="11"/>
    <tag k="addr:street" v="Moncur Street"/>
    <tag k="source" v="exrapolation"/>
  </node>
  <node id="1245378643" version="2" timestamp="2011-05-29T08:32:40Z" uid="7617" user="Franc" changeset="8278454" lat="-33.9132775" lon="151.1481524">
    <tag k="addr:housenumber" v="11"/>
    <tag k="addr:street" v="Moncur Street"/>
    <tag k="source" v="extrapolation"/>
  </node>
  <node id="1245378651" version="1" timestamp="2011-04-15T10:26:12Z" uid="7617" user="Franc" changeset="7868334" lat="-33.9131445" lon="151.1483026">
    <tag k="addr:housenumber" v="16"/>
    <tag k="addr:street" v="Moncur Street"/>
    <tag k="source" v="exrapolation"/>
  </node>
  <node id="1245378651" version="2" timestamp="2011-05-29T08:33:25Z" uid="7617" user="Franc" changeset="8278454" lat="-33.9131445" lon="151.1483026">
    <tag k="addr:housenumber" v="16"/>
    <tag k="addr:street" v="Moncur Street"/>
    <tag k="source" v="extrapolation"/>
  </node>
  <node id="1245378655" version="1" timestamp="2011-04-15T10:26:13Z" uid="7617" user="Franc" changeset="7868334" lat="-33.9136115" lon="151.1466614">
    <tag k="addr:housenumber" v="294"/>
    <tag k="addr:street" v="Livingstone Road"/>
    <tag k="source" v="exrapolation"/>
  </node>
  <node id="1245378655" version="2" timestamp="2011-05-29T08:33:04Z" uid="7617" user="Franc" changeset="8278454" lat="-33.9136115" lon="151.1466614">
    <tag k="addr:housenumber" v="294"/>
    <tag k="addr:street" v="Livingstone Road"/>
    <tag k="source" v="extrapolation"/>
  </node>
  <node id="1245378659" version="1" timestamp="2011-04-15T10:26:13Z" uid="7617" user="Franc" changeset="7868334" lat="-33.8801409" lon="151.1683407">
    <tag k="addr:housenumber" v="272"/>
    <tag k="addr:street" v="Young Street"/>
    <tag k="source" v="survey"/>
  </node>
  <node id="1245378662" version="1" timestamp="2011-04-15T10:26:13Z" uid="7617" user="Franc" changeset="7868334" lat="-33.9129595" lon="151.1471791">
    <tag k="addr:housenumber" v="278"/>
    <tag k="addr:street" v="Livingstone Road"/>
    <tag k="source" v="survey"/>
  </node>
  <node id="1245378668" version="1" timestamp="2011-04-15T10:26:13Z" uid="7617" user="Franc" changeset="7868334" lat="-33.8779818" lon="151.1672432">
    <tag k="addr:housenumber" v="28"/>
    <tag k="addr:street" v="White Street"/>
    <tag k="source" v="exrapolation"/>
  </node>
  <node id="1245378668" version="2" timestamp="2011-05-29T08:33:02Z" uid="7617" user="Franc" changeset="8278454" lat="-33.8779818" lon="151.1672432">
    <tag k="addr:housenumber" v="28"/>
    <tag k="addr:street" v="White Street"/>
    <tag k="source" v="extrapolation"/>
  </node>
  <node id="1245378669" version="1" timestamp="2011-04-15T10:26:13Z" uid="7617" user="Franc" changeset="7868334" lat="-33.9133922" lon="151.1483544">
    <tag k="addr:housenumber" v="15"/>
    <tag k="addr:street" v="Moncur Street"/>
    <tag k="source" v="exrapolation"/>
  </node>
  <node id="1245378669" version="2" timestamp="2011-05-29T08:32:14Z" uid="7617" user="Franc" changeset="8278454" lat="-33.9133922" lon="151.1483544">
    <tag k="addr:housenumber" v="15"/>
    <tag k="addr:street" v="Moncur Street"/>
    <tag k="source" v="extrapolation"/>
  </node>
  <node id="1245378670" version="1" timestamp="2011-04-15T10:26:13Z" uid="7617" user="Franc" changeset="7868334" lat="-33.8767358" lon="151.1663977">
    <tag k="addr:housenumber" v="2"/>
    <tag k="addr:street" v="Starling Street"/>
    <tag k="source" v="survey"/>
  </node>
  <node id="1245378681" version="1" timestamp="2011-04-15T10:26:13Z" uid="7617" user="Franc" changeset="7868334" lat="-33.8760107" lon="151.1626539">
    <tag k="addr:housenumber" v="80"/>
    <tag k="addr:street" v="Piper Street"/>
    <tag k="source" v="exrapolation"/>
  </node>
  <node id="1245378681" version="2" timestamp="2011-05-29T08:32:12Z" uid="7617" user="Franc" changeset="8278454" lat="-33.8760107" lon="151.1626539">
    <tag k="addr:housenumber" v="80"/>
    <tag k="addr:street" v="Piper Street"/>
    <tag k="source" v="extrapolation"/>
  </node>
  <node id="1245378685" version="1" timestamp="2011-04-15T10:26:13Z" uid="7617" user="Franc" changeset="7868334" lat="-33.8785311" lon="151.1690745">
    <tag k="addr:housenumber" v="326"/>
    <tag k="addr:street" v="Young Street"/>
    <tag k="source" v="survey"/>
  </node>
  <node id="1245378688" version="1" timestamp="2011-04-15T10:26:13Z" uid="7617" user="Franc" changeset="7868334" lat="-33.8758188" lon="151.1622376">
    <tag k="addr:housenumber" v="77"/>
    <tag k="addr:street" v="Piper Street"/>
    <tag k="source" v="survey"/>
  </node>
  <node id="1245378691" version="1" timestamp="2011-04-15T10:26:13Z" uid="7617" user="Franc" changeset="7868334" lat="-33.8839648" lon="151.1668245">
    <tag k="addr:housenumber" v="129"/>
    <tag k="addr:street" v="Young Street"/>
    <tag k="source" v="exrapolation"/>
  </node>
  <node id="1245378691" version="2" timestamp="2011-05-29T08:33:22Z" uid="7617" user="Franc" changeset="8278454" lat="-33.8839648" lon="151.1668245">
    <tag k="addr:housenumber" v="129"/>
    <tag k="addr:street" v="Young Street"/>
    <tag k="source" v="extrapolation"/>
  </node>
  <node id="1245378701" version="1" timestamp="2011-04-15T10:26:14Z" uid="7617" user="Franc" changeset="7868334" lat="-33.8765182" lon="151.1678628">
    <tag k="addr:housenumber" v="53"/>
    <tag k="addr:street" v="White Street"/>
    <tag k="source" v="exrapolation"/>
  </node>
  <node id="1245378701" version="2" timestamp="2011-05-29T08:33:31Z" uid="7617" user="Franc" changeset="8278454" lat="-33.8765182" lon="151.1678628">
    <tag k="addr:housenumber" v="53"/>
    <tag k="addr:street" v="White Street"/>
    <tag k="source" v="extrapolation"/>
  </node>
  <node id="1245378704" version="1" timestamp="2011-04-15T10:26:14Z" uid="7617" user="Franc" changeset="7868334" lat="-33.9134581" lon="151.1488434">
    <tag k="addr:housenumber" v="30"/>
    <tag k="addr:street" v="Moncur Street"/>
    <tag k="source" v="exrapolation"/>
  </node>
  <node id="1245378704" version="2" timestamp="2011-05-29T08:31:46Z" uid="7617" user="Franc" changeset="8278454" lat="-33.9134581" lon="151.1488434">
    <tag k="addr:housenumber" v="30"/>
    <tag k="addr:street" v="Moncur Street"/>
    <tag k="source" v="extrapolation"/>
  </node>
  <node id="1245378707" version="1" timestamp="2011-04-15T10:26:14Z" uid="7617" user="Franc" changeset="7868334" lat="-33.9124828" lon="151.1474012">
    <tag k="addr:housenumber" v="239"/>
    <tag k="addr:street" v="Livingstone Road"/>
    <tag k="source" v="survey"/>
  </node>
  <node id="1245378710" version="1" timestamp="2011-04-15T10:26:14Z" uid="7617" user="Franc" changeset="7868334" lat="-33.8758102" lon="151.1680355"/>
  <node id="1245378718" version="1" timestamp="2011-04-15T10:26:14Z" uid="7617" user="Franc" changeset="7868334" lat="-33.9123004" lon="151.1478951">
    <tag k="addr:housenumber" v="262"/>
    <tag k="addr:street" v="Livingstone Road"/>
    <tag k="source" v="exrapolation"/>
  </node>
  <node id="1245378718" version="2" timestamp="2011-04-23T12:54:48Z" uid="7617" user="Franc" changeset="7943317" lat="-33.9123004" lon="151.1478951">
    <tag k="addr:housenumber" v="262"/>
    <tag k="addr:street" v="Livingstone Road"/>
    <tag k="source" v="extrapolation"/>
  </node>
  <node id="1245378719" version="1" timestamp="2011-04-15T10:26:14Z" uid="7617" user="Franc" changeset="7868334" lat="-33.8777187" lon="151.1673331">
    <tag k="addr:housenumber" v="34"/>
    <tag k="addr:street" v="White Street"/>
    <tag k="source" v="exrapolation"/>
  </node>
  <node id="1245378719" version="2" timestamp="2011-05-29T08:33:21Z" uid="7617" user="Franc" changeset="8278454" lat="-33.8777187" lon="151.1673331">
    <tag k="addr:housenumber" v="34"/>
    <tag k="addr:street" v="White Street"/>
    <tag k="source" v="extrapolation"/>
  </node>
  <node id="1245378720" version="1" timestamp="2011-04-15T10:26:14Z" uid="7617" user="Franc" changeset="7868334" lat="-33.913517" lon="151.1485733">
    <tag k="addr:housenumber" v="21"/>
    <tag k="addr:street" v="Moncur Street"/>
    <tag k="source" v="exrapolation"/>
  </node>
  <node id="1245378720" version="2" timestamp="2011-05-29T08:32:56Z" uid="7617" user="Franc" changeset="8278454" lat="-33.913517" lon="151.1485733">
    <tag k="addr:housenumber" v="21"/>
    <tag k="addr:street" v="Moncur Street"/>
    <tag k="source" v="extrapolation"/>
  </node>
  <node id="1245378721" version="1" timestamp="2011-04-15T10:26:14Z" uid="7617" user="Franc" changeset="7868334" lat="-33.8931478" lon="151.1653638">
    <tag k="addr:housenumber" v="7"/>
    <tag k="addr:street" v="Salisbury Road"/>
    <tag k="source" v="survey"/>
  </node>
  <node id="1245378736" version="1" timestamp="2011-04-15T10:26:14Z" uid="7617" user="Franc" changeset="7868334" lat="-33.9134862" lon="151.1488929">
    <tag k="addr:housenumber" v="32"/>
    <tag k="addr:street" v="Moncur Street"/>
    <tag k="source" v="exrapolation"/>
  </node>
  <node id="1245378736" version="2" timestamp="2011-05-29T08:32:33Z" uid="7617" user="Franc" changeset="8278454" lat="-33.9134862" lon="151.1488929">
    <tag k="addr:housenumber" v="32"/>
    <tag k="addr:street" v="Moncur Street"/>
    <tag k="source" v="extrapolation"/>
  </node>
  <node id="1245378741" version="1" timestamp="2011-04-15T10:26:14Z" uid="7617" user="Franc" changeset="7868334" lat="-33.9131139" lon="151.1470462">
    <tag k="addr:housenumber" v="284"/>
    <tag k="addr:street" v="Livingstone Road"/>
    <tag k="source" v="exrapolation"/>
  </node>
  <node id="1245378741" version="2" timestamp="2011-05-29T08:33:13Z" uid="7617" user="Franc" changeset="8278454" lat="-33.9131139" lon="151.1470462">
    <tag k="addr:housenumber" v="284"/>
    <tag k="addr:street" v="Livingstone Road"/>
    <tag k="source" v="extrapolation"/>
  </node>
  <node id="1245378747" version="1" timestamp="2011-04-15T10:26:14Z" uid="7617" user="Franc" changeset="7868334" lat="-33.912619" lon="151.1472515">
    <tag k="addr:housenumber" v="245"/>
    <tag k="addr:street" v="Livingstone Road"/>
    <tag k="source" v="exrapolation"/>
  </node>
  <node id="1245378747" version="2" timestamp="2011-04-23T12:54:16Z" uid="7617" user="Franc" changeset="7943317" lat="-33.912619" lon="151.1472515">
    <tag k="addr:housenumber" v="245"/>
    <tag k="addr:street" v="Livingstone Road"/>
    <tag k="source" v="extrapolation"/>
  </node>
  <node id="1245378751" version="1" timestamp="2011-04-15T10:26:14Z" uid="7617" user="Franc" changeset="7868334" lat="-33.8775432" lon="151.1673931">
    <tag k="addr:housenumber" v="38"/>
    <tag k="addr:street" v="White Street"/>
    <tag k="source" v="survey"/>
  </node>
  <node id="1245378766" version="1" timestamp="2011-04-15T10:26:15Z" uid="7617" user="Franc" changeset="7868334" lat="-33.9123761" lon="151.1478145">
    <tag k="addr:housenumber" v="264"/>
    <tag k="addr:street" v="Livingstone Road"/>
    <tag k="source" v="exrapolation"/>
  </node>
  <node id="1245378766" version="2" timestamp="2011-04-23T12:54:15Z" uid="7617" user="Franc" changeset="7943317" lat="-33.9123761" lon="151.1478145">
    <tag k="addr:housenumber" v="264"/>
    <tag k="addr:street" v="Livingstone Road"/>
    <tag k="source" v="extrapolation"/>
  </node>
  <node id="1245378771" version="1" timestamp="2011-04-15T10:26:15Z" uid="7617" user="Franc" changeset="7868334" lat="-33.8768071" lon="151.1676393">
    <tag k="addr:housenumber" v="42"/>
    <tag k="addr:street" v="White Street"/>
    <tag k="source" v="exrapolation"/>
  </node>
  <node id="1245378771" version="2" timestamp="2011-05-29T08:33:14Z" uid="7617" user="Franc" changeset="8278454" lat="-33.8768071" lon="151.1676393">
    <tag k="addr:housenumber" v="42"/>
    <tag k="addr:street" v="White Street"/>
    <tag k="source" v="extrapolation"/>
  </node>
  <node id="1245378777" version="1" timestamp="2011-04-15T10:26:15Z" uid="7617" user="Franc" changeset="7868334" lat="-33.8781359" lon="151.1649061">
    <tag k="addr:housenumber" v="2"/>
    <tag k="addr:street" v="Ilka Street"/>
    <tag k="source" v="survey"/>
  </node>
  <node id="1245378780" version="1" timestamp="2011-04-15T10:26:15Z" uid="7617" user="Franc" changeset="7868334" lat="-33.9136971" lon="151.1488804">
    <tag k="addr:housenumber" v="31"/>
    <tag k="addr:street" v="Moncur Street"/>
    <tag k="source" v="exrapolation"/>
  </node>
  <node id="1245378780" version="2" timestamp="2011-05-29T08:32:23Z" uid="7617" user="Franc" changeset="8278454" lat="-33.9136971" lon="151.1488804">
    <tag k="addr:housenumber" v="31"/>
    <tag k="addr:street" v="Moncur Street"/>
    <tag k="source" v="extrapolation"/>
  </node>
  <node id="1245378784" version="1" timestamp="2011-04-15T10:26:15Z" uid="7617" user="Franc" changeset="7868334" lat="-33.913049" lon="151.1481406">
    <tag k="addr:housenumber" v="10"/>
    <tag k="addr:street" v="Moncur Street"/>
    <tag k="source" v="exrapolation"/>
  </node>
  <node id="1245378784" version="2" timestamp="2011-05-29T08:33:13Z" uid="7617" user="Franc" changeset="8278454" lat="-33.913049" lon="151.1481406">
    <tag k="addr:housenumber" v="10"/>
    <tag k="addr:street" v="Moncur Street"/>
    <tag k="source" v="extrapolation"/>
  </node>
  <node id="1245378788" version="1" timestamp="2011-04-15T10:26:15Z" uid="7617" user="Franc" changeset="7868334" lat="-33.9153824" lon="151.1455604">
    <tag k="addr:housenumber" v="314"/>
    <tag k="addr:street" v="Livingstone Road"/>
    <tag k="source" v="exrapolation"/>
  </node>
  <node id="1245378788" version="2" timestamp="2011-05-29T08:32:50Z" uid="7617" user="Franc" changeset="8278454" lat="-33.9153824" lon="151.1455604">
    <tag k="addr:housenumber" v="314"/>
    <tag k="addr:street" v="Livingstone Road"/>
    <tag k="source" v="extrapolation"/>
  </node>
  <node id="1245378795" version="1" timestamp="2011-04-15T10:26:15Z" uid="7617" user="Franc" changeset="7868334" lat="-33.9150785" lon="151.1457467">
    <tag k="addr:housenumber" v="304-306"/>
    <tag k="addr:street" v="Livingstone Road"/>
    <tag k="source" v="survey"/>
  </node>
  <node id="1245378809" version="1" timestamp="2011-04-15T10:26:15Z" uid="7617" user="Franc" changeset="7868334" lat="-33.9129665" lon="151.1469004">
    <tag k="addr:housenumber" v="255"/>
    <tag k="addr:street" v="Livingstone Road"/>
    <tag k="source" v="exrapolation"/>
  </node>
  <node id="1245378809" version="2" timestamp="2011-05-29T08:32:43Z" uid="7617" user="Franc" changeset="8278454" lat="-33.9129665" lon="151.1469004">
    <tag k="addr:housenumber" v="255"/>
    <tag k="addr:street" v="Livingstone Road"/>
    <tag k="source" v="extrapolation"/>
  </node>
  <node id="1245378814" version="1" timestamp="2011-04-15T10:26:16Z" uid="7617" user="Franc" changeset="7868334" lat="-33.8767517" lon="151.1676573">
    <tag k="addr:housenumber" v="44"/>
    <tag k="addr:street" v="White Street"/>
    <tag k="source" v="exrapolation"/>
  </node>
  <node id="1245378814" version="2" timestamp="2011-05-29T08:33:23Z" uid="7617" user="Franc" changeset="8278454" lat="-33.8767517" lon="151.1676573">
    <tag k="addr:housenumber" v="44"/>
    <tag k="addr:street" v="White Street"/>
    <tag k="source" v="extrapolation"/>
  </node>
  <node id="1245378819" version="1" timestamp="2011-04-15T10:26:16Z" uid="7617" user="Franc" changeset="7868334" lat="-33.875353" lon="151.1676289">
    <tag k="addr:housenumber" v="13"/>
    <tag k="addr:street" v="Gladstone Street"/>
    <tag k="source" v="survey"/>
  </node>
  <node id="1245378823" version="1" timestamp="2011-04-15T10:26:16Z" uid="7617" user="Franc" changeset="7868334" lat="-33.9142665" lon="151.1462463">
    <tag k="addr:housenumber" v="294b"/>
    <tag k="addr:street" v="Livingstone Road"/>
    <tag k="source" v="survey"/>
  </node>
  <node id="1245378837" version="1" timestamp="2011-04-15T10:26:16Z" uid="7617" user="Franc" changeset="7868334" lat="-33.9123787" lon="151.1475038">
    <tag k="addr:housenumber" v="235"/>
    <tag k="addr:street" v="Livingstone Road"/>
    <tag k="source" v="survey"/>
  </node>
  <node id="1245378841" version="1" timestamp="2011-04-15T10:26:16Z" uid="7617" user="Franc" changeset="7868334" lat="-33.8746027" lon="151.1669361">
    <tag k="addr:housenumber" v="57"/>
    <tag k="addr:street" v="Starling Street"/>
    <tag k="source" v="survey"/>
  </node>
  <node id="1245378843" version="1" timestamp="2011-04-15T10:26:16Z" uid="7617" user="Franc" changeset="7868334" lat="-33.8764419" lon="151.1678916">
    <tag k="addr:housenumber" v="55"/>
    <tag k="addr:street" v="White Street"/>
    <tag k="source" v="survey"/>
  </node>
  <node id="1245378846" version="1" timestamp="2011-04-15T10:26:16Z" uid="7617" user="Franc" changeset="7868334" lat="-33.8875208" lon="151.1651979">
    <tag k="addr:housenumber" v="1"/>
    <tag k="addr:street" v="Young Street"/>
    <tag k="source" v="survey"/>
  </node>
  <node id="1245378854" version="1" timestamp="2011-04-15T10:26:16Z" uid="7617" user="Franc" changeset="7868334" lat="-33.8758412" lon="151.1675474">
    <tag k="addr:housenumber" v="3a"/>
    <tag k="addr:street" v="Gladstone Street"/>
    <tag k="source" v="survey"/>
  </node>
  <node id="1245378860" version="1" timestamp="2011-04-15T10:26:16Z" uid="7617" user="Franc" changeset="7868334" lat="-33.9122384" lon="151.147651">
    <tag k="addr:housenumber" v="231"/>
    <tag k="addr:street" v="Livingstone Road"/>
    <tag k="source" v="survey"/>
  </node>
  <node id="1245378868" version="1" timestamp="2011-04-15T10:26:16Z" uid="7617" user="Franc" changeset="7868334" lat="-33.8781573" lon="151.1671833">
    <tag k="addr:housenumber" v="24"/>
    <tag k="addr:street" v="White Street"/>
    <tag k="source" v="exrapolation"/>
  </node>
  <node id="1245378868" version="2" timestamp="2011-05-29T08:32:44Z" uid="7617" user="Franc" changeset="8278454" lat="-33.8781573" lon="151.1671833">
    <tag k="addr:housenumber" v="24"/>
    <tag k="addr:street" v="White Street"/>
    <tag k="source" v="extrapolation"/>
  </node>
  <node id="1245378877" version="1" timestamp="2011-04-15T10:26:17Z" uid="7617" user="Franc" changeset="7868334" lat="-33.8756285" lon="151.1675817">
    <tag k="addr:housenumber" v="5a"/>
    <tag k="addr:street" v="Gladstone Street"/>
    <tag k="source" v="survey"/>
  </node>
  <node id="1245378881" version="1" timestamp="2011-04-15T10:26:17Z" uid="7617" user="Franc" changeset="7868334" lat="-33.9132032" lon="151.1484027">
    <tag k="addr:housenumber" v="20"/>
    <tag k="addr:street" v="Moncur Street"/>
    <tag k="source" v="exrapolation"/>
  </node>
  <node id="1245378881" version="2" timestamp="2011-05-29T08:32:11Z" uid="7617" user="Franc" changeset="8278454" lat="-33.9132032" lon="151.1484027">
    <tag k="addr:housenumber" v="20"/>
    <tag k="addr:street" v="Moncur Street"/>
    <tag k="source" v="extrapolation"/>
  </node>
  <node id="1245378885" version="1" timestamp="2011-04-15T10:26:17Z" uid="7617" user="Franc" changeset="7868334" lat="-33.8788643" lon="151.1670585">
    <tag k="addr:housenumber" v="21"/>
    <tag k="addr:street" v="White Street"/>
    <tag k="source" v="exrapolation"/>
  </node>
  <node id="1245378885" version="2" timestamp="2011-05-29T08:31:48Z" uid="7617" user="Franc" changeset="8278454" lat="-33.8788643" lon="151.1670585">
    <tag k="addr:housenumber" v="21"/>
    <tag k="addr:street" v="White Street"/>
    <tag k="source" v="extrapolation"/>
  </node>
  <node id="1245378886" version="1" timestamp="2011-04-15T10:26:17Z" uid="7617" user="Franc" changeset="7868334" lat="-33.8801766" lon="151.1683235">
    <tag k="addr:housenumber" v="270"/>
    <tag k="addr:street" v="Young Street"/>
    <tag k="source" v="survey"/>
  </node>
  <node id="1245378891" version="1" timestamp="2011-04-15T10:26:17Z" uid="7617" user="Franc" changeset="7868334" lat="-33.8758297" lon="151.1680972">
    <tag k="addr:housenumber" v="67"/>
    <tag k="addr:street" v="White Street"/>
    <tag k="source" v="survey"/>
  </node>
  <node id="1245378894" version="1" timestamp="2011-04-15T10:26:17Z" uid="7617" user="Franc" changeset="7868334" lat="-33.8754933" lon="151.1680717"/>
  <node id="1245378896" version="1" timestamp="2011-04-15T10:26:17Z" uid="7617" user="Franc" changeset="7868334" lat="-33.8778064" lon="151.1673031">
    <tag k="addr:housenumber" v="32"/>
    <tag k="addr:street" v="White Street"/>
    <tag k="source" v="exrapolation"/>
  </node>
  <node id="1245378896" version="2" timestamp="2011-05-29T08:32:35Z" uid="7617" user="Franc" changeset="8278454" lat="-33.8778064" lon="151.1673031">
    <tag k="addr:housenumber" v="32"/>
    <tag k="addr:street" v="White Street"/>
    <tag k="source" v="extrapolation"/>
  </node>
  <node id="1245378897" version="1" timestamp="2011-04-15T10:26:17Z" uid="7617" user="Franc" changeset="7868334" lat="-33.9134726" lon="151.1485003">
    <tag k="addr:housenumber" v="19"/>
    <tag k="addr:street" v="Moncur Street"/>
    <tag k="source" v="exrapolation"/>
  </node>
  <node id="1245378897" version="2" timestamp="2011-05-29T08:31:45Z" uid="7617" user="Franc" changeset="8278454" lat="-33.9134726" lon="151.1485003">
    <tag k="addr:housenumber" v="19"/>
    <tag k="addr:street" v="Moncur Street"/>
    <tag k="source" v="extrapolation"/>
  </node>
  <node id="1245378901" version="1" timestamp="2011-04-15T10:26:18Z" uid="7617" user="Franc" changeset="7868334" lat="-33.8797558" lon="151.1685202">
    <tag k="addr:housenumber" v="382"/>
    <tag k="addr:street" v="Young Street"/>
    <tag k="source" v="exrapolation"/>
  </node>
  <node id="1245378901" version="2" timestamp="2011-05-29T08:33:15Z" uid="7617" user="Franc" changeset="8278454" lat="-33.8797558" lon="151.1685202">
    <tag k="addr:housenumber" v="382"/>
    <tag k="addr:street" v="Young Street"/>
    <tag k="source" v="extrapolation"/>
  </node>
  <node id="1245378904" version="1" timestamp="2011-04-15T10:26:18Z" uid="7617" user="Franc" changeset="7868334" lat="-33.8751911" lon="151.167663">
    <tag k="addr:housenumber" v="17"/>
    <tag k="addr:street" v="Gladstone Street"/>
    <tag k="source" v="exrapolation"/>
  </node>
  <node id="1245378904" version="2" timestamp="2011-05-29T08:33:20Z" uid="7617" user="Franc" changeset="8278454" lat="-33.8751911" lon="151.167663">
    <tag k="addr:housenumber" v="17"/>
    <tag k="addr:street" v="Gladstone Street"/>
    <tag k="source" v="extrapolation"/>
  </node>
  <node id="1245378907" version="1" timestamp="2011-04-15T10:26:18Z" uid="7617" user="Franc" changeset="7868334" lat="-33.8924383" lon="151.1652411">
    <tag k="addr:housenumber" v="30"/>
    <tag k="addr:street" v="Myrtle Street"/>
    <tag k="source" v="survey"/>
  </node>
  <node id="1245378908" version="1" timestamp="2011-04-15T10:26:18Z" uid="7617" user="Franc" changeset="7868334" lat="-33.8759422" lon="151.1623446">
    <tag k="addr:housenumber" v="84"/>
    <tag k="addr:street" v="Piper Street"/>
    <tag k="source" v="exrapolation"/>
  </node>
  <node id="1245378908" version="2" timestamp="2011-05-29T08:32:57Z" uid="7617" user="Franc" changeset="8278454" lat="-33.8759422" lon="151.1623446">
    <tag k="addr:housenumber" v="84"/>
    <tag k="addr:street" v="Piper Street"/>
    <tag k="source" v="extrapolation"/>
  </node>
  <node id="1245378913" version="1" timestamp="2011-04-15T10:26:18Z" uid="7617" user="Franc" changeset="7868334" lat="-33.9131959" lon="151.1466783">
    <tag k="addr:housenumber" v="261"/>
    <tag k="addr:street" v="Livingstone Road"/>
    <tag k="source" v="survey"/>
  </node>
  <node id="1245378916" version="1" timestamp="2011-04-15T10:26:18Z" uid="7617" user="Franc" changeset="7868334" lat="-33.9008139" lon="151.1546364">
    <tag k="addr:housenumber" v="11"/>
    <tag k="addr:street" v="McRae Street"/>
    <tag k="source" v="survey"/>
  </node>
  <node id="1245378918" version="1" timestamp="2011-04-15T10:26:18Z" uid="7617" user="Franc" changeset="7868334" lat="-33.887629" lon="151.1640801"/>
  <node id="1245378920" version="1" timestamp="2011-04-15T10:26:18Z" uid="7617" user="Franc" changeset="7868334" lat="-33.8745756" lon="151.1677671">
    <tag k="addr:housenumber" v="29"/>
    <tag k="addr:street" v="Gladstone Street"/>
    <tag k="source" v="survey"/>
  </node>
  <node id="1245378922" version="1" timestamp="2011-04-15T10:26:18Z" uid="7617" user="Franc" changeset="7868334" lat="-33.875716" lon="151.1610475">
    <tag k="addr:housenumber" v="257"/>
    <tag k="addr:street" v="Balmain Road"/>
    <tag k="source" v="survey"/>
  </node>
  <node id="1245378925" version="1" timestamp="2011-04-15T10:26:18Z" uid="7617" user="Franc" changeset="7868334" lat="-33.9138522" lon="151.1491458">
    <tag k="addr:housenumber" v="41"/>
    <tag k="addr:street" v="Moncur Street"/>
    <tag k="source" v="survey"/>
  </node>
  <node id="1245378928" version="1" timestamp="2011-04-15T10:26:19Z" uid="7617" user="Franc" changeset="7868334" lat="-33.8757245" lon="151.1675699">
    <tag k="addr:housenumber" v="3c"/>
    <tag k="addr:street" v="Gladstone Street"/>
    <tag k="source" v="survey"/>
  </node>
  <node id="1245378931" version="1" timestamp="2011-04-15T10:26:19Z" uid="7617" user="Franc" changeset="7868334" lat="-33.915302" lon="151.1456081">
    <tag k="addr:housenumber" v="312"/>
    <tag k="addr:street" v="Livingstone Road"/>
    <tag k="source" v="exrapolation"/>
  </node>
  <node id="1245378931" version="2" timestamp="2011-05-29T08:32:43Z" uid="7617" user="Franc" changeset="8278454" lat="-33.915302" lon="151.1456081">
    <tag k="addr:housenumber" v="312"/>
    <tag k="addr:street" v="Livingstone Road"/>
    <tag k="source" v="extrapolation"/>
  </node>
  <node id="1245378934" version="1" timestamp="2011-04-15T10:26:19Z" uid="7617" user="Franc" changeset="7868334" lat="-33.9125279" lon="151.1473565">
    <tag k="addr:housenumber" v="241"/>
    <tag k="addr:street" v="Livingstone Road"/>
    <tag k="source" v="survey"/>
  </node>
  <node id="1245378937" version="1" timestamp="2011-04-15T10:26:19Z" uid="7617" user="Franc" changeset="7868334" lat="-33.8768774" lon="151.1676176">
    <tag k="addr:housenumber" v="40"/>
    <tag k="addr:street" v="White Street"/>
    <tag k="source" v="survey"/>
  </node>
  <node id="1245378940" version="1" timestamp="2011-04-15T10:26:19Z" uid="7617" user="Franc" changeset="7868334" lat="-33.9135951" lon="151.1487138">
    <tag k="addr:housenumber" v="25"/>
    <tag k="addr:street" v="Moncur Street"/>
    <tag k="source" v="exrapolation"/>
  </node>
  <node id="1245378940" version="2" timestamp="2011-05-29T08:31:55Z" uid="7617" user="Franc" changeset="8278454" lat="-33.9135951" lon="151.1487138">
    <tag k="addr:housenumber" v="25"/>
    <tag k="addr:street" v="Moncur Street"/>
    <tag k="source" v="extrapolation"/>
  </node>
  <node id="1245378942" version="1" timestamp="2011-04-15T10:26:19Z" uid="7617" user="Franc" changeset="7868334" lat="-33.9138226" lon="151.1490923">
    <tag k="addr:housenumber" v="39"/>
    <tag k="addr:street" v="Moncur Street"/>
    <tag k="source" v="survey"/>
  </node>
  <node id="1245378945" version="1" timestamp="2011-04-15T10:26:19Z" uid="7617" user="Franc" changeset="7868334" lat="-33.9135489" lon="151.1490034">
    <tag k="addr:housenumber" v="36"/>
    <tag k="addr:street" v="Moncur Street"/>
    <tag k="source" v="exrapolation"/>
  </node>
  <node id="1245378945" version="2" timestamp="2011-05-29T08:32:25Z" uid="7617" user="Franc" changeset="8278454" lat="-33.9135489" lon="151.1490034">
    <tag k="addr:housenumber" v="36"/>
    <tag k="addr:street" v="Moncur Street"/>
    <tag k="source" v="extrapolation"/>
  </node>
  <node id="1245378948" version="1" timestamp="2011-04-15T10:26:19Z" uid="7617" user="Franc" changeset="7868334" lat="-33.9133106" lon="151.1468623">
    <tag k="addr:housenumber" v="288"/>
    <tag k="addr:street" v="Livingstone Road"/>
    <tag k="source" v="exrapolation"/>
  </node>
  <node id="1245378948" version="2" timestamp="2011-05-29T08:32:53Z" uid="7617" user="Franc" changeset="8278454" lat="-33.9133106" lon="151.1468623">
    <tag k="addr:housenumber" v="288"/>
    <tag k="addr:street" v="Livingstone Road"/>
    <tag k="source" v="extrapolation"/>
  </node>
  <node id="1245378951" version="1" timestamp="2011-04-15T10:26:19Z" uid="7617" user="Franc" changeset="7868334" lat="-33.8747859" lon="151.1677272">
    <tag k="addr:housenumber" v="25"/>
    <tag k="addr:street" v="Gladstone Street"/>
    <tag k="source" v="exrapolation"/>
  </node>
  <node id="1245378951" version="2" timestamp="2011-05-29T08:32:16Z" uid="7617" user="Franc" changeset="8278454" lat="-33.8747859" lon="151.1677272">
    <tag k="addr:housenumber" v="25"/>
    <tag k="addr:street" v="Gladstone Street"/>
    <tag k="source" v="extrapolation"/>
  </node>
  <node id="1245378954" version="1" timestamp="2011-04-15T10:26:20Z" uid="7617" user="Franc" changeset="7868334" lat="-33.9123085" lon="151.1475762">
    <tag k="addr:housenumber" v="233"/>
    <tag k="addr:street" v="Livingstone Road"/>
    <tag k="source" v="survey"/>
  </node>
  <node id="1245378957" version="1" timestamp="2011-04-15T10:26:20Z" uid="7617" user="Franc" changeset="7868334" lat="-33.9125464" lon="151.1476291">
    <tag k="addr:housenumber" v="268"/>
    <tag k="addr:street" v="Livingstone Road"/>
    <tag k="source" v="exrapolation"/>
  </node>
  <node id="1245378957" version="2" timestamp="2011-04-23T12:54:22Z" uid="7617" user="Franc" changeset="7943317" lat="-33.9125464" lon="151.1476291">
    <tag k="addr:housenumber" v="268"/>
    <tag k="addr:street" v="Livingstone Road"/>
    <tag k="source" v="extrapolation"/>
  </node>
  <node id="1245378959" version="1" timestamp="2011-04-15T10:26:20Z" uid="7617" user="Franc" changeset="7868334" lat="-33.8769078" lon="151.1671908">
    <tag k="addr:housenumber" v="2"/>
    <tag k="addr:street" v="Gladstone Street"/>
    <tag k="source" v="survey"/>
  </node>
  <node id="1245378962" version="1" timestamp="2011-04-15T10:26:20Z" uid="7617" user="Franc" changeset="7868334" lat="-33.9131124" lon="151.1482474">
    <tag k="addr:housenumber" v="14"/>
    <tag k="addr:street" v="Moncur Street"/>
    <tag k="source" v="exrapolation"/>
  </node>
  <node id="1245378962" version="2" timestamp="2011-05-29T08:33:03Z" uid="7617" user="Franc" changeset="8278454" lat="-33.9131124" lon="151.1482474">
    <tag k="addr:housenumber" v="14"/>
    <tag k="addr:street" v="Moncur Street"/>
    <tag k="source" v="extrapolation"/>
  </node>
  <node id="1245378966" version="1" timestamp="2011-04-15T10:26:20Z" uid="7617" user="Franc" changeset="7868334" lat="-33.9133965" lon="151.1467866">
    <tag k="addr:housenumber" v="290"/>
    <tag k="addr:street" v="Livingstone Road"/>
    <tag k="source" v="exrapolation"/>
  </node>
  <node id="1245378966" version="2" timestamp="2011-05-29T08:32:40Z" uid="7617" user="Franc" changeset="8278454" lat="-33.9133965" lon="151.1467866">
    <tag k="addr:housenumber" v="290"/>
    <tag k="addr:street" v="Livingstone Road"/>
    <tag k="source" v="extrapolation"/>
  </node>
  <node id="1245378967" version="1" timestamp="2011-04-15T10:26:20Z" uid="7617" user="Franc" changeset="7868334" lat="-33.8745784" lon="151.1683206">
    <tag k="addr:housenumber" v="94"/>
    <tag k="addr:street" v="White Street"/>
    <tag k="source" v="survey"/>
  </node>
  <node id="1245378970" version="1" timestamp="2011-04-15T10:26:20Z" uid="7617" user="Franc" changeset="7868334" lat="-33.8760716" lon="151.1629058">
    <tag k="addr:housenumber" v="76"/>
    <tag k="addr:street" v="Piper Street"/>
    <tag k="source" v="exrapolation"/>
  </node>
  <node id="1245378970" version="2" timestamp="2011-05-29T08:31:57Z" uid="7617" user="Franc" changeset="8278454" lat="-33.8760716" lon="151.1629058">
    <tag k="addr:housenumber" v="76"/>
    <tag k="addr:street" v="Piper Street"/>
    <tag k="source" v="extrapolation"/>
  </node>
  <node id="1245378972" version="1" timestamp="2011-04-15T10:26:20Z" uid="7617" user="Franc" changeset="7868334" lat="-33.8839136" lon="151.1668474">
    <tag k="addr:housenumber" v="131"/>
    <tag k="addr:street" v="Young Street"/>
    <tag k="source" v="survey"/>
  </node>
  <node id="1245378977" version="1" timestamp="2011-04-15T10:26:20Z" uid="7617" user="Franc" changeset="7868334" lat="-33.9131458" lon="151.1479243">
    <tag k="addr:housenumber" v="5"/>
    <tag k="addr:street" v="Moncur Street"/>
    <tag k="source" v="exrapolation"/>
  </node>
  <node id="1245378977" version="2" timestamp="2011-05-29T08:33:13Z" uid="7617" user="Franc" changeset="8278454" lat="-33.9131458" lon="151.1479243">
    <tag k="addr:housenumber" v="5"/>
    <tag k="addr:street" v="Moncur Street"/>
    <tag k="source" v="extrapolation"/>
  </node>
  <node id="1245378978" version="1" timestamp="2011-04-15T10:26:20Z" uid="7617" user="Franc" changeset="7868334" lat="-33.9131727" lon="151.1483483">
    <tag k="addr:housenumber" v="18"/>
    <tag k="addr:street" v="Moncur Street"/>
    <tag k="source" v="exrapolation"/>
  </node>
  <node id="1245378978" version="2" timestamp="2011-05-29T08:32:22Z" uid="7617" user="Franc" changeset="8278454" lat="-33.9131727" lon="151.1483483">
    <tag k="addr:housenumber" v="18"/>
    <tag k="addr:street" v="Moncur Street"/>
    <tag k="source" v="extrapolation"/>
  </node>
  <node id="1245378980" version="1" timestamp="2011-04-15T10:26:20Z" uid="7617" user="Franc" changeset="7868334" lat="-33.8797569" lon="151.1687478">
    <tag k="addr:housenumber" v="255"/>
    <tag k="addr:street" v="Young Street"/>
    <tag k="source" v="survey"/>
  </node>
  <node id="1245378982" version="1" timestamp="2011-04-15T10:26:20Z" uid="7617" user="Franc" changeset="7868334" lat="-33.8746627" lon="151.1667582">
    <tag k="addr:housenumber" v="54"/>
    <tag k="addr:street" v="Starling Street"/>
    <tag k="source" v="survey"/>
  </node>
  <node id="1245378983" version="1" timestamp="2011-04-15T10:26:21Z" uid="7617" user="Franc" changeset="7868334" lat="-33.8791037" lon="151.1668572">
    <tag k="addr:housenumber" v="6"/>
    <tag k="addr:street" v="White Street"/>
    <tag k="source" v="exrapolation"/>
  </node>
  <node id="1245378983" version="2" timestamp="2011-05-29T08:33:02Z" uid="7617" user="Franc" changeset="8278454" lat="-33.8791037" lon="151.1668572">
    <tag k="addr:housenumber" v="6"/>
    <tag k="addr:street" v="White Street"/>
    <tag k="source" v="extrapolation"/>
  </node>
  <node id="1245378984" version="1" timestamp="2011-04-15T10:26:21Z" uid="7617" user="Franc" changeset="7868334" lat="-33.8802492" lon="151.1685399">
    <tag k="addr:housenumber" v="241"/>
    <tag k="addr:street" v="Young Street"/>
    <tag k="source" v="survey"/>
  </node>
  <node id="1245378985" version="1" timestamp="2011-04-15T10:26:21Z" uid="7617" user="Franc" changeset="7868334" lat="-33.8800978" lon="151.1683603">
    <tag k="addr:housenumber" v="274"/>
    <tag k="addr:street" v="Young Street"/>
    <tag k="source" v="exrapolation"/>
  </node>
  <node id="1245378985" version="2" timestamp="2011-05-29T08:32:08Z" uid="7617" user="Franc" changeset="8278454" lat="-33.8800978" lon="151.1683603">
    <tag k="addr:housenumber" v="274"/>
    <tag k="addr:street" v="Young Street"/>
    <tag k="source" v="extrapolation"/>
  </node>
  <node id="1245378986" version="1" timestamp="2011-04-15T10:26:21Z" uid="7617" user="Franc" changeset="7868334" lat="-33.8756657" lon="151.1675817">
    <tag k="addr:housenumber" v="3d"/>
    <tag k="addr:street" v="Gladstone Street"/>
    <tag k="source" v="survey"/>
  </node>
  <node id="1245378987" version="1" timestamp="2011-04-15T10:26:21Z" uid="7617" user="Franc" changeset="7868334" lat="-33.8765825" lon="151.1649377">
    <tag k="addr:housenumber" v="337"/>
    <tag k="addr:street" v="Catherine Street"/>
    <tag k="source" v="survey"/>
  </node>
  <node id="1245378988" version="1" timestamp="2011-04-15T10:26:21Z" uid="7617" user="Franc" changeset="7868334" lat="-33.8788048" lon="151.1670663">
    <tag k="addr:housenumber" v="23"/>
    <tag k="addr:street" v="White Street"/>
    <tag k="source" v="survey"/>
  </node>
  <node id="1245378989" version="1" timestamp="2011-04-15T10:26:21Z" uid="7617" user="Franc" changeset="7868334" lat="-33.8790234" lon="151.1668882">
    <tag k="addr:housenumber" v="8"/>
    <tag k="addr:street" v="White Street"/>
    <tag k="source" v="exrapolation"/>
  </node>
  <node id="1245378989" version="2" timestamp="2011-05-29T08:31:44Z" uid="7617" user="Franc" changeset="8278454" lat="-33.8790234" lon="151.1668882">
    <tag k="addr:housenumber" v="8"/>
    <tag k="addr:street" v="White Street"/>
    <tag k="source" v="extrapolation"/>
  </node>
  <node id="1245378990" version="1" timestamp="2011-04-15T10:26:21Z" uid="7617" user="Franc" changeset="7868334" lat="-33.8755677" lon="151.1675958">
    <tag k="addr:housenumber" v="5"/>
    <tag k="addr:street" v="Gladstone Street"/>
    <tag k="source" v="survey"/>
  </node>
  <node id="1245378991" version="1" timestamp="2011-04-15T10:26:21Z" uid="7617" user="Franc" changeset="7868334" lat="-33.9133055" lon="151.148583">
    <tag k="addr:housenumber" v="24"/>
    <tag k="addr:street" v="Moncur Street"/>
    <tag k="source" v="exrapolation"/>
  </node>
  <node id="1245378991" version="2" timestamp="2011-05-29T08:31:56Z" uid="7617" user="Franc" changeset="8278454" lat="-33.9133055" lon="151.148583">
    <tag k="addr:housenumber" v="24"/>
    <tag k="addr:street" v="Moncur Street"/>
    <tag k="source" v="extrapolation"/>
  </node>
  <node id="1245378992" version="1" timestamp="2011-04-15T10:26:21Z" uid="7617" user="Franc" changeset="7868334" lat="-33.8932974" lon="151.1643032"/>
  <node id="1245378993" version="1" timestamp="2011-04-15T10:26:21Z" uid="7617" user="Franc" changeset="7868334" lat="-33.8776309" lon="151.1673631">
    <tag k="addr:housenumber" v="36"/>
    <tag k="addr:street" v="White Street"/>
    <tag k="source" v="exrapolation"/>
  </node>
  <node id="1245378993" version="2" timestamp="2011-05-29T08:32:48Z" uid="7617" user="Franc" changeset="8278454" lat="-33.8776309" lon="151.1673631">
    <tag k="addr:housenumber" v="36"/>
    <tag k="addr:street" v="White Street"/>
    <tag k="source" v="extrapolation"/>
  </node>
  <node id="1245378994" version="1" timestamp="2011-04-15T10:26:22Z" uid="7617" user="Franc" changeset="7868334" lat="-33.9135713" lon="151.1486674">
    <tag k="addr:housenumber" v="23"/>
    <tag k="addr:street" v="Moncur Street"/>
    <tag k="source" v="exrapolation"/>
  </node>
  <node id="1245378994" version="2" timestamp="2011-05-29T08:32:02Z" uid="7617" user="Franc" changeset="8278454" lat="-33.9135713" lon="151.1486674">
    <tag k="addr:housenumber" v="23"/>
    <tag k="addr:street" v="Moncur Street"/>
    <tag k="source" v="extrapolation"/>
  </node>
  <node id="1245378995" version="1" timestamp="2011-04-15T10:26:22Z" uid="7617" user="Franc" changeset="7868334" lat="-33.8782651" lon="151.1646399">
    <tag k="addr:housenumber" v="1"/>
    <tag k="addr:street" v="Ilka Street"/>
    <tag k="source" v="survey"/>
  </node>
  <node id="1245378996" version="1" timestamp="2011-04-15T10:26:22Z" uid="7617" user="Franc" changeset="7868334" lat="-33.8840718" lon="151.1665507">
    <tag k="addr:housenumber" v="128"/>
    <tag k="addr:street" v="Young Street"/>
    <tag k="source" v="survey"/>
  </node>
  <node id="1245378997" version="1" timestamp="2011-04-15T10:26:22Z" uid="7617" user="Franc" changeset="7868334" lat="-33.9135191" lon="151.1489558">
    <tag k="addr:housenumber" v="34"/>
    <tag k="addr:street" v="Moncur Street"/>
    <tag k="source" v="exrapolation"/>
  </node>
  <node id="1245378997" version="2" timestamp="2011-05-29T08:32:26Z" uid="7617" user="Franc" changeset="8278454" lat="-33.9135191" lon="151.1489558">
    <tag k="addr:housenumber" v="34"/>
    <tag k="addr:street" v="Moncur Street"/>
    <tag k="source" v="extrapolation"/>
  </node>
  <node id="1245378998" version="1" timestamp="2011-04-15T10:26:22Z" uid="7617" user="Franc" changeset="7868334" lat="-33.9148452" lon="151.1458893">
    <tag k="addr:housenumber" v="300"/>
    <tag k="addr:street" v="Livingstone Road"/>
    <tag k="source" v="survey"/>
  </node>
  <node id="1245378999" version="1" timestamp="2011-04-15T10:26:22Z" uid="7617" user="Franc" changeset="7868334" lat="-33.8786313" lon="151.1692524">
    <tag k="addr:housenumber" v="287"/>
    <tag k="addr:street" v="Young Street"/>
  </node>
  <node id="1245379000" version="1" timestamp="2011-04-15T10:26:22Z" uid="7617" user="Franc" changeset="7868334" lat="-33.9124527" lon="151.147729">
    <tag k="addr:housenumber" v="266"/>
    <tag k="addr:street" v="Livingstone Road"/>
    <tag k="source" v="exrapolation"/>
  </node>
  <node id="1245379000" version="2" timestamp="2011-04-23T12:54:13Z" uid="7617" user="Franc" changeset="7943317" lat="-33.9124527" lon="151.147729">
    <tag k="addr:housenumber" v="266"/>
    <tag k="addr:street" v="Livingstone Road"/>
    <tag k="source" v="extrapolation"/>
  </node>
  <node id="1245379001" version="1" timestamp="2011-04-15T10:26:22Z" uid="7617" user="Franc" changeset="7868334" lat="-33.8875719" lon="151.16497"/>
  <node id="1245379002" version="1" timestamp="2011-04-15T10:26:22Z" uid="7617" user="Franc" changeset="7868334" lat="-33.8767238" lon="151.166573">
    <tag k="addr:housenumber" v="3"/>
    <tag k="addr:street" v="Starling Street"/>
    <tag k="source" v="survey"/>
  </node>
  <node id="1245379003" version="1" timestamp="2011-04-15T10:26:22Z" uid="7617" user="Franc" changeset="7868334" lat="-33.9129543" lon="151.1479748">
    <tag k="addr:housenumber" v="4"/>
    <tag k="addr:street" v="Moncur Street"/>
    <tag k="source" v="exrapolation"/>
  </node>
  <node id="1245379003" version="2" timestamp="2011-05-29T08:31:54Z" uid="7617" user="Franc" changeset="8278454" lat="-33.9129543" lon="151.1479748">
    <tag k="addr:housenumber" v="4"/>
    <tag k="addr:street" v="Moncur Street"/>
    <tag k="source" v="extrapolation"/>
  </node>
  <node id="1245379004" version="1" timestamp="2011-04-15T10:26:23Z" uid="7617" user="Franc" changeset="7868334" lat="-33.9154651" lon="151.1455023">
    <tag k="addr:housenumber" v="316"/>
    <tag k="addr:street" v="Livingstone Road"/>
    <tag k="source" v="exrapolation"/>
  </node>
  <node id="1245379004" version="2" timestamp="2011-05-29T08:32:11Z" uid="7617" user="Franc" changeset="8278454" lat="-33.9154651" lon="151.1455023">
    <tag k="addr:housenumber" v="316"/>
    <tag k="addr:street" v="Livingstone Road"/>
    <tag k="source" v="extrapolation"/>
  </node>
  <node id="1245379005" version="1" timestamp="2011-04-15T10:26:23Z" uid="7617" user="Franc" changeset="7868334" lat="-33.9126551" lon="151.147219">
    <tag k="addr:housenumber" v="247"/>
    <tag k="addr:street" v="Livingstone Road"/>
    <tag k="source" v="exrapolation"/>
  </node>
  <node id="1245379005" version="2" timestamp="2011-04-23T12:54:55Z" uid="7617" user="Franc" changeset="7943317" lat="-33.9126551" lon="151.147219">
    <tag k="addr:housenumber" v="247"/>
    <tag k="addr:street" v="Livingstone Road"/>
    <tag k="source" v="extrapolation"/>
  </node>
  <node id="1245379006" version="1" timestamp="2011-04-15T10:26:23Z" uid="7617" user="Franc" changeset="7868334" lat="-33.8799648" lon="151.1684066">
    <tag k="addr:housenumber" v="280"/>
    <tag k="addr:street" v="Young Street"/>
    <tag k="source" v="survey"/>
  </node>
  <node id="1245379007" version="1" timestamp="2011-04-15T10:26:23Z" uid="7617" user="Franc" changeset="7868334" lat="-33.8766844" lon="151.1676807">
    <tag k="addr:housenumber" v="46"/>
    <tag k="addr:street" v="White Street"/>
    <tag k="source" v="exrapolation"/>
  </node>
  <node id="1245379007" version="2" timestamp="2011-05-29T08:33:23Z" uid="7617" user="Franc" changeset="8278454" lat="-33.8766844" lon="151.1676807">
    <tag k="addr:housenumber" v="46"/>
    <tag k="addr:street" v="White Street"/>
    <tag k="source" v="extrapolation"/>
  </node>
  <node id="1245379008" version="1" timestamp="2011-04-15T10:26:23Z" uid="7617" user="Franc" changeset="7868334" lat="-33.9137874" lon="151.1490343">
    <tag k="addr:housenumber" v="37"/>
    <tag k="addr:street" v="Moncur Street"/>
    <tag k="source" v="survey"/>
  </node>
  <node id="1245379009" version="1" timestamp="2011-04-15T10:26:23Z" uid="7617" user="Franc" changeset="7868334" lat="-33.9130847" lon="151.1478164">
    <tag k="addr:housenumber" v="3"/>
    <tag k="addr:street" v="Moncur Street"/>
    <tag k="source" v="exrapolation"/>
  </node>
  <node id="1245379009" version="2" timestamp="2011-05-29T08:32:41Z" uid="7617" user="Franc" changeset="8278454" lat="-33.9130847" lon="151.1478164">
    <tag k="addr:housenumber" v="3"/>
    <tag k="addr:street" v="Moncur Street"/>
    <tag k="source" v="extrapolation"/>
  </node>
  <node id="1245379010" version="1" timestamp="2011-04-15T10:26:23Z" uid="7617" user="Franc" changeset="7868334" lat="-33.9136234" lon="151.1491331">
    <tag k="addr:housenumber" v="40"/>
    <tag k="addr:street" v="Moncur Street"/>
    <tag k="source" v="exrapolation"/>
  </node>
  <node id="1245379010" version="2" timestamp="2011-05-29T08:31:53Z" uid="7617" user="Franc" changeset="8278454" lat="-33.9136234" lon="151.1491331">
    <tag k="addr:housenumber" v="40"/>
    <tag k="addr:street" v="Moncur Street"/>
    <tag k="source" v="extrapolation"/>
  </node>
  <node id="1245379011" version="1" timestamp="2011-04-15T10:26:23Z" uid="7617" user="Franc" changeset="7868334" lat="-33.8913594" lon="151.168912">
    <tag k="addr:housenumber" v="40"/>
    <tag k="addr:street" v="Salisbury Road"/>
    <tag k="source" v="survey"/>
  </node>
  <node id="1245379012" version="1" timestamp="2011-04-15T10:26:23Z" uid="7617" user="Franc" changeset="7868334" lat="-33.915576" lon="151.1454376">
    <tag k="addr:housenumber" v="318"/>
    <tag k="addr:street" v="Livingstone Road"/>
    <tag k="source" v="exrapolation"/>
  </node>
  <node id="1245379012" version="2" timestamp="2011-05-29T08:33:10Z" uid="7617" user="Franc" changeset="8278454" lat="-33.915576" lon="151.1454376">
    <tag k="addr:housenumber" v="318"/>
    <tag k="addr:street" v="Livingstone Road"/>
    <tag k="source" v="extrapolation"/>
  </node>
  <node id="1245379013" version="1" timestamp="2011-04-15T10:26:23Z" uid="7617" user="Franc" changeset="7868334" lat="-33.8838684" lon="151.1668675">
    <tag k="addr:housenumber" v="133"/>
    <tag k="addr:street" v="Young Street"/>
    <tag k="source" v="survey"/>
  </node>
  <node id="1245379014" version="1" timestamp="2011-04-15T10:26:24Z" uid="7617" user="Franc" changeset="7868334" lat="-33.8784205" lon="151.1670933">
    <tag k="addr:housenumber" v="18"/>
    <tag k="addr:street" v="White Street"/>
    <tag k="source" v="exrapolation"/>
  </node>
  <node id="1245379014" version="2" timestamp="2011-05-29T08:33:22Z" uid="7617" user="Franc" changeset="8278454" lat="-33.8784205" lon="151.1670933">
    <tag k="addr:housenumber" v="18"/>
    <tag k="addr:street" v="White Street"/>
    <tag k="source" v="extrapolation"/>
  </node>
  <node id="1245379015" version="1" timestamp="2011-04-15T10:26:24Z" uid="7617" user="Franc" changeset="7868334" lat="-33.8844216" lon="151.166396">
    <tag k="addr:housenumber" v="122"/>
    <tag k="addr:street" v="Young Street"/>
    <tag k="source" v="survey"/>
  </node>
  <node id="1245379016" version="1" timestamp="2011-04-15T10:26:24Z" uid="7617" user="Franc" changeset="7868334" lat="-33.9132575" lon="151.1481226">
    <tag k="addr:housenumber" v="9"/>
    <tag k="addr:street" v="Moncur Street"/>
    <tag k="source" v="exrapolation"/>
  </node>
  <node id="1245379016" version="2" timestamp="2011-05-29T08:32:24Z" uid="7617" user="Franc" changeset="8278454" lat="-33.9132575" lon="151.1481226">
    <tag k="addr:housenumber" v="9"/>
    <tag k="addr:street" v="Moncur Street"/>
    <tag k="source" v="extrapolation"/>
  </node>
  <node id="1245379017" version="1" timestamp="2011-04-15T10:26:24Z" uid="7617" user="Franc" changeset="7868334" lat="-33.9132472" lon="151.148477">
    <tag k="addr:housenumber" v="22"/>
    <tag k="addr:street" v="Moncur Street"/>
    <tag k="source" v="exrapolation"/>
  </node>
  <node id="1245379017" version="2" timestamp="2011-05-29T08:33:26Z" uid="7617" user="Franc" changeset="8278454" lat="-33.9132472" lon="151.148477">
    <tag k="addr:housenumber" v="22"/>
    <tag k="addr:street" v="Moncur Street"/>
    <tag k="source" v="extrapolation"/>
  </node>
  <node id="1245379018" version="1" timestamp="2011-04-15T10:26:24Z" uid="7617" user="Franc" changeset="7868334" lat="-33.8798165" lon="151.1687207">
    <tag k="addr:housenumber" v="253"/>
    <tag k="addr:street" v="Young Street"/>
    <tag k="source" v="exrapolation"/>
  </node>
  <node id="1245379018" version="2" timestamp="2011-05-29T08:32:36Z" uid="7617" user="Franc" changeset="8278454" lat="-33.8798165" lon="151.1687207">
    <tag k="addr:housenumber" v="253"/>
    <tag k="addr:street" v="Young Street"/>
    <tag k="source" v="extrapolation"/>
  </node>
  <node id="1245379019" version="1" timestamp="2011-04-15T10:26:24Z" uid="7617" user="Franc" changeset="7868334" lat="-33.8751111" lon="151.1676749">
    <tag k="addr:housenumber" v="19"/>
    <tag k="addr:street" v="Gladstone Street"/>
    <tag k="source" v="survey"/>
  </node>
  <node id="1245379020" version="1" timestamp="2011-04-15T10:26:24Z" uid="7617" user="Franc" changeset="7868334" lat="-33.912624" lon="151.1475448">
    <tag k="addr:housenumber" v="270"/>
    <tag k="addr:street" v="Livingstone Road"/>
    <tag k="source" v="survey"/>
  </node>
  <node id="1245379021" version="1" timestamp="2011-04-15T10:26:24Z" uid="7617" user="Franc" changeset="7868334" lat="-33.8780696" lon="151.1672132">
    <tag k="addr:housenumber" v="26"/>
    <tag k="addr:street" v="White Street"/>
    <tag k="source" v="exrapolation"/>
  </node>
  <node id="1245379021" version="2" timestamp="2011-05-29T08:33:04Z" uid="7617" user="Franc" changeset="8278454" lat="-33.8780696" lon="151.1672132">
    <tag k="addr:housenumber" v="26"/>
    <tag k="addr:street" v="White Street"/>
    <tag k="source" v="extrapolation"/>
  </node>
  <node id="1245379022" version="1" timestamp="2011-04-15T10:26:24Z" uid="7617" user="Franc" changeset="7868334" lat="-33.9008172" lon="151.1547721">
    <tag k="addr:housenumber" v="13"/>
    <tag k="addr:street" v="McRae Street"/>
    <tag k="source" v="survey"/>
  </node>
  <node id="1245379023" version="1" timestamp="2011-04-15T10:26:24Z" uid="7617" user="Franc" changeset="7868334" lat="-33.8800112" lon="151.1683942">
    <tag k="addr:housenumber" v="278"/>
    <tag k="addr:street" v="Young Street"/>
    <tag k="source" v="exrapolation"/>
  </node>
  <node id="1245379023" version="2" timestamp="2011-05-29T08:33:15Z" uid="7617" user="Franc" changeset="8278454" lat="-33.8800112" lon="151.1683942">
    <tag k="addr:housenumber" v="278"/>
    <tag k="addr:street" v="Young Street"/>
    <tag k="source" v="extrapolation"/>
  </node>
  <node id="1245379024" version="1" timestamp="2011-04-15T10:26:24Z" uid="7617" user="Franc" changeset="7868334" lat="-33.9133394" lon="151.1482594">
    <tag k="addr:housenumber" v="13"/>
    <tag k="addr:street" v="Moncur Street"/>
    <tag k="source" v="exrapolation"/>
  </node>
  <node id="1245379024" version="2" timestamp="2011-05-29T08:33:09Z" uid="7617" user="Franc" changeset="8278454" lat="-33.9133394" lon="151.1482594">
    <tag k="addr:housenumber" v="13"/>
    <tag k="addr:street" v="Moncur Street"/>
    <tag k="source" v="extrapolation"/>
  </node>
  <node id="1245379025" version="1" timestamp="2011-04-15T10:26:25Z" uid="7617" user="Franc" changeset="7868334" lat="-33.8913539" lon="151.1689648">
    <tag k="addr:housenumber" v="42"/>
    <tag k="addr:street" v="Salisbury Road"/>
    <tag k="source" v="survey"/>
  </node>
  <node id="1245379026" version="1" timestamp="2011-04-15T10:26:25Z" uid="7617" user="Franc" changeset="7868334" lat="-33.8789366" lon="151.1669114">
    <tag k="addr:housenumber" v="10"/>
    <tag k="addr:street" v="White Street"/>
    <tag k="source" v="exrapolation"/>
  </node>
  <node id="1245379026" version="2" timestamp="2011-05-29T08:33:20Z" uid="7617" user="Franc" changeset="8278454" lat="-33.8789366" lon="151.1669114">
    <tag k="addr:housenumber" v="10"/>
    <tag k="addr:street" v="White Street"/>
    <tag k="source" v="extrapolation"/>
  </node>
  <node id="1245379027" version="1" timestamp="2011-04-15T10:26:25Z" uid="7617" user="Franc" changeset="7868334" lat="-33.8760433" lon="151.1627857">
    <tag k="addr:housenumber" v="78"/>
    <tag k="addr:street" v="Piper Street"/>
    <tag k="source" v="exrapolation"/>
  </node>
  <node id="1245379027" version="2" timestamp="2011-05-29T08:32:29Z" uid="7617" user="Franc" changeset="8278454" lat="-33.8760433" lon="151.1627857">
    <tag k="addr:housenumber" v="78"/>
    <tag k="addr:street" v="Piper Street"/>
    <tag k="source" v="extrapolation"/>
  </node>
  <node id="1245379028" version="1" timestamp="2011-04-15T10:26:25Z" uid="7617" user="Franc" changeset="7868334" lat="-33.8797114" lon="151.168527">
    <tag k="addr:housenumber" v="384"/>
    <tag k="addr:street" v="Young Street"/>
    <tag k="source" v="survey"/>
  </node>
  <node id="1245379029" version="1" timestamp="2011-04-15T10:26:25Z" uid="7617" user="Franc" changeset="7868334" lat="-33.8766035" lon="151.1677096">
    <tag k="addr:housenumber" v="48"/>
    <tag k="addr:street" v="White Street"/>
    <tag k="source" v="survey"/>
  </node>
  <node id="1245379030" version="1" timestamp="2011-04-15T10:26:25Z" uid="7617" user="Franc" changeset="7868334" lat="-33.913422" lon="151.1487824">
    <tag k="addr:housenumber" v="28"/>
    <tag k="addr:street" v="Moncur Street"/>
    <tag k="source" v="exrapolation"/>
  </node>
  <node id="1245379030" version="2" timestamp="2011-05-29T08:32:57Z" uid="7617" user="Franc" changeset="8278454" lat="-33.913422" lon="151.1487824">
    <tag k="addr:housenumber" v="28"/>
    <tag k="addr:street" v="Moncur Street"/>
    <tag k="source" v="extrapolation"/>
  </node>
  <node id="1245379031" version="1" timestamp="2011-04-15T10:26:25Z" uid="7617" user="Franc" changeset="7868334" lat="-33.8785959" lon="151.1670334">
    <tag k="addr:housenumber" v="14"/>
    <tag k="addr:street" v="White Street"/>
    <tag k="source" v="survey"/>
  </node>
  <node id="1245379032" version="1" timestamp="2011-04-15T10:26:25Z" uid="7617" user="Franc" changeset="7868334" lat="-33.8844656" lon="151.1666009">
    <tag k="addr:housenumber" v="123"/>
    <tag k="addr:street" v="Young Street"/>
    <tag k="source" v="survey"/>
  </node>
  <node id="1245379033" version="1" timestamp="2011-04-15T10:26:25Z" uid="7617" user="Franc" changeset="7868334" lat="-33.9136319" lon="151.1487703">
    <tag k="addr:housenumber" v="27"/>
    <tag k="addr:street" v="Moncur Street"/>
    <tag k="source" v="exrapolation"/>
  </node>
  <node id="1245379033" version="2" timestamp="2011-05-29T08:33:02Z" uid="7617" user="Franc" changeset="8278454" lat="-33.9136319" lon="151.1487703">
    <tag k="addr:housenumber" v="27"/>
    <tag k="addr:street" v="Moncur Street"/>
    <tag k="source" v="extrapolation"/>
  </node>
  <node id="1245379034" version="1" timestamp="2011-04-15T10:26:25Z" uid="7617" user="Franc" changeset="7868334" lat="-33.8924504" lon="151.1653035">
    <tag k="addr:housenumber" v="28"/>
    <tag k="addr:street" v="Myrtle Street"/>
    <tag k="source" v="survey"/>
  </node>
  <node id="1245379035" version="1" timestamp="2011-04-15T10:26:25Z" uid="7617" user="Franc" changeset="7868334" lat="-33.8763549" lon="151.1674565">
    <tag k="addr:housenumber" v="1"/>
    <tag k="addr:street" v="Gladstone Street"/>
    <tag k="source" v="survey"/>
  </node>
  <node id="1245379036" version="1" timestamp="2011-04-15T10:26:26Z" uid="7617" user="Franc" changeset="7868334" lat="-33.9135802" lon="151.1490597">
    <tag k="addr:housenumber" v="38"/>
    <tag k="addr:street" v="Moncur Street"/>
    <tag k="source" v="exrapolation"/>
  </node>
  <node id="1245379036" version="2" timestamp="2011-05-29T08:33:29Z" uid="7617" user="Franc" changeset="8278454" lat="-33.9135802" lon="151.1490597">
    <tag k="addr:housenumber" v="38"/>
    <tag k="addr:street" v="Moncur Street"/>
    <tag k="source" v="extrapolation"/>
  </node>
  <node id="1245379037" version="1" timestamp="2011-04-15T10:26:26Z" uid="7617" user="Franc" changeset="7868334" lat="-33.9130571" lon="151.1470978">
    <tag k="addr:housenumber" v="282"/>
    <tag k="addr:street" v="Livingstone Road"/>
    <tag k="source" v="exrapolation"/>
  </node>
  <node id="1245379037" version="2" timestamp="2011-05-29T08:32:39Z" uid="7617" user="Franc" changeset="8278454" lat="-33.9130571" lon="151.1470978">
    <tag k="addr:housenumber" v="282"/>
    <tag k="addr:street" v="Livingstone Road"/>
    <tag k="source" v="extrapolation"/>
  </node>
  <node id="1245379038" version="1" timestamp="2011-04-15T10:26:26Z" uid="7617" user="Franc" changeset="7868334" lat="-33.8790369" lon="151.16884">
    <tag k="addr:housenumber" v="306"/>
    <tag k="addr:street" v="Young Street"/>
    <tag k="source" v="survey"/>
  </node>
  <node id="1245379039" version="1" timestamp="2011-04-15T10:26:26Z" uid="7617" user="Franc" changeset="7868334" lat="-33.9149548" lon="151.1458409">
    <tag k="addr:housenumber" v="302"/>
    <tag k="addr:street" v="Livingstone Road"/>
    <tag k="source" v="survey"/>
  </node>
  <node id="1245379040" version="1" timestamp="2011-04-15T10:26:26Z" uid="7617" user="Franc" changeset="7868334" lat="-33.912579" lon="151.1472974">
    <tag k="addr:housenumber" v="243"/>
    <tag k="addr:street" v="Livingstone Road"/>
    <tag k="source" v="survey"/>
  </node>
  <node id="1245379041" version="1" timestamp="2011-04-15T10:26:26Z" uid="7617" user="Franc" changeset="7868334" lat="-33.8870961" lon="151.1651936"/>
  <node id="1245379042" version="1" timestamp="2011-04-15T10:26:26Z" uid="7617" user="Franc" changeset="7868334" lat="-33.8796782" lon="151.1691666"/>
  <node id="1245379043" version="1" timestamp="2011-04-15T10:26:26Z" uid="7617" user="Franc" changeset="7868334" lat="-33.9136649" lon="151.1488249">
    <tag k="addr:housenumber" v="29"/>
    <tag k="addr:street" v="Moncur Street"/>
    <tag k="source" v="exrapolation"/>
  </node>
  <node id="1245379043" version="2" timestamp="2011-05-29T08:31:50Z" uid="7617" user="Franc" changeset="8278454" lat="-33.9136649" lon="151.1488249">
    <tag k="addr:housenumber" v="29"/>
    <tag k="addr:street" v="Moncur Street"/>
    <tag k="source" v="extrapolation"/>
  </node>
  <node id="1245379044" version="1" timestamp="2011-04-15T10:26:26Z" uid="7617" user="Franc" changeset="7868334" lat="-33.9141503" lon="151.1463247">
    <tag k="addr:housenumber" v="294a"/>
    <tag k="addr:street" v="Livingstone Road"/>
    <tag k="source" v="survey"/>
  </node>
  <node id="1245379045" version="1" timestamp="2011-04-15T10:26:26Z" uid="7617" user="Franc" changeset="7868334" lat="-33.8767921" lon="151.1665594">
    <tag k="addr:housenumber" v="1"/>
    <tag k="addr:street" v="Starling Street"/>
    <tag k="source" v="survey"/>
  </node>
  <node id="1245379046" version="1" timestamp="2011-04-15T10:26:26Z" uid="7617" user="Franc" changeset="7868334" lat="-33.8793822" lon="151.1668734">
    <tag k="addr:housenumber" v="9-15"/>
    <tag k="addr:street" v="White Street"/>
    <tag k="source" v="survey"/>
  </node>
  <node id="1245379047" version="1" timestamp="2011-04-15T10:26:26Z" uid="7617" user="Franc" changeset="7868334" lat="-33.9130177" lon="151.1480854">
    <tag k="addr:housenumber" v="8"/>
    <tag k="addr:street" v="Moncur Street"/>
    <tag k="source" v="exrapolation"/>
  </node>
  <node id="1245379047" version="2" timestamp="2011-05-29T08:33:19Z" uid="7617" user="Franc" changeset="8278454" lat="-33.9130177" lon="151.1480854">
    <tag k="addr:housenumber" v="8"/>
    <tag k="addr:street" v="Moncur Street"/>
    <tag k="source" v="extrapolation"/>
  </node>
  <node id="1245379048" version="1" timestamp="2011-04-15T10:26:27Z" uid="7617" user="Franc" changeset="7868334" lat="-33.9126931" lon="151.1471791">
    <tag k="addr:housenumber" v="249"/>
    <tag k="addr:street" v="Livingstone Road"/>
    <tag k="source" v="exrapolation"/>
  </node>
  <node id="1245379048" version="2" timestamp="2011-04-23T12:55:01Z" uid="7617" user="Franc" changeset="7943317" lat="-33.9126931" lon="151.1471791">
    <tag k="addr:housenumber" v="249"/>
    <tag k="addr:street" v="Livingstone Road"/>
    <tag k="source" v="extrapolation"/>
  </node>
  <node id="1245379049" version="1" timestamp="2011-04-15T10:26:27Z" uid="7617" user="Franc" changeset="7868334" lat="-33.8785082" lon="151.1670634">
    <tag k="addr:housenumber" v="16"/>
    <tag k="addr:street" v="White Street"/>
    <tag k="source" v="exrapolation"/>
  </node>
  <node id="1245379049" version="2" timestamp="2011-05-29T08:32:21Z" uid="7617" user="Franc" changeset="8278454" lat="-33.8785082" lon="151.1670634">
    <tag k="addr:housenumber" v="16"/>
    <tag k="addr:street" v="White Street"/>
    <tag k="source" v="extrapolation"/>
  </node>
  <node id="1245379050" version="1" timestamp="2011-04-15T10:26:27Z" uid="7617" user="Franc" changeset="7868334" lat="-33.9130186" lon="151.1468557">
    <tag k="addr:housenumber" v="257"/>
    <tag k="addr:street" v="Livingstone Road"/>
    <tag k="source" v="survey"/>
  </node>
  <node id="1245379051" version="1" timestamp="2011-04-15T10:26:27Z" uid="7617" user="Franc" changeset="7868334" lat="-33.8745783" lon="151.1675956">
    <tag k="addr:housenumber" v="58"/>
    <tag k="addr:street" v="Gladstone Street"/>
    <tag k="source" v="survey"/>
  </node>
  <node id="1245379052" version="1" timestamp="2011-04-15T10:26:27Z" uid="7617" user="Franc" changeset="7868334" lat="-33.9137615" lon="151.1489897">
    <tag k="addr:housenumber" v="35"/>
    <tag k="addr:street" v="Moncur Street"/>
    <tag k="source" v="survey"/>
  </node>
  <node id="1245379053" version="1" timestamp="2011-04-15T10:26:27Z" uid="7617" user="Franc" changeset="7868334" lat="-33.878721" lon="151.1665902">
    <tag k="addr:housenumber" v="47"/>
    <tag k="addr:street" v="Ilka Street"/>
    <tag k="source" v="survey"/>
  </node>
  <node id="1245379054" version="1" timestamp="2011-04-15T10:26:27Z" uid="7617" user="Franc" changeset="7868334" lat="-33.9132093" lon="151.1480395">
    <tag k="addr:housenumber" v="7"/>
    <tag k="addr:street" v="Moncur Street"/>
    <tag k="source" v="exrapolation"/>
  </node>
  <node id="1245379054" version="2" timestamp="2011-05-29T08:33:01Z" uid="7617" user="Franc" changeset="8278454" lat="-33.9132093" lon="151.1480395">
    <tag k="addr:housenumber" v="7"/>
    <tag k="addr:street" v="Moncur Street"/>
    <tag k="source" v="extrapolation"/>
  </node>
  <node id="1245379055" version="1" timestamp="2011-04-15T10:26:27Z" uid="7617" user="Franc" changeset="7868334" lat="-33.8800209" lon="151.1690149"/>
  <node id="1245379056" version="1" timestamp="2011-04-15T10:26:27Z" uid="7617" user="Franc" changeset="7868334" lat="-33.8931755" lon="151.1649354"/>
  <node id="1245379057" version="1" timestamp="2011-04-15T10:26:27Z" uid="7617" user="Franc" changeset="7868334" lat="-33.8800528" lon="151.1683765">
    <tag k="addr:housenumber" v="276"/>
    <tag k="addr:street" v="Young Street"/>
    <tag k="source" v="exrapolation"/>
  </node>
  <node id="1245379057" version="2" timestamp="2011-05-29T08:33:06Z" uid="7617" user="Franc" changeset="8278454" lat="-33.8800528" lon="151.1683765">
    <tag k="addr:housenumber" v="276"/>
    <tag k="addr:street" v="Young Street"/>
    <tag k="source" v="extrapolation"/>
  </node>
  <node id="1245379058" version="1" timestamp="2011-04-15T10:26:27Z" uid="7617" user="Franc" changeset="7868334" lat="-33.9136912" lon="151.1492495">
    <tag k="addr:housenumber" v="42"/>
    <tag k="addr:street" v="Moncur Street"/>
    <tag k="source" v="survey"/>
  </node>
  <node id="1245379059" version="1" timestamp="2011-04-15T10:26:27Z" uid="7617" user="Franc" changeset="7868334" lat="-33.9129135" lon="151.1469426">
    <tag k="addr:housenumber" v="253"/>
    <tag k="addr:street" v="Livingstone Road"/>
    <tag k="source" v="survey"/>
  </node>
  <node id="1245379060" version="1" timestamp="2011-04-15T10:26:28Z" uid="7617" user="Franc" changeset="7868334" lat="-33.878245" lon="151.1671533">
    <tag k="addr:housenumber" v="22"/>
    <tag k="addr:street" v="White Street"/>
    <tag k="source" v="exrapolation"/>
  </node>
  <node id="1245379060" version="2" timestamp="2011-05-29T08:31:42Z" uid="7617" user="Franc" changeset="8278454" lat="-33.878245" lon="151.1671533">
    <tag k="addr:housenumber" v="22"/>
    <tag k="addr:street" v="White Street"/>
    <tag k="source" v="extrapolation"/>
  </node>
  <node id="1245379061" version="1" timestamp="2011-04-15T10:26:28Z" uid="7617" user="Franc" changeset="7868334" lat="-33.8840266" lon="151.1667958">
    <tag k="addr:housenumber" v="127"/>
    <tag k="addr:street" v="Young Street"/>
    <tag k="source" v="survey"/>
  </node>
  <node id="1245379062" version="1" timestamp="2011-04-15T10:26:28Z" uid="7617" user="Franc" changeset="7868334" lat="-33.9133749" lon="151.1486984">
    <tag k="addr:housenumber" v="26"/>
    <tag k="addr:street" v="Moncur Street"/>
    <tag k="source" v="exrapolation"/>
  </node>
  <node id="1245379062" version="2" timestamp="2011-05-29T08:31:55Z" uid="7617" user="Franc" changeset="8278454" lat="-33.9133749" lon="151.1486984">
    <tag k="addr:housenumber" v="26"/>
    <tag k="addr:street" v="Moncur Street"/>
    <tag k="source" v="extrapolation"/>
  </node>
  <node id="1245379063" version="1" timestamp="2011-04-15T10:26:28Z" uid="7617" user="Franc" changeset="7868334" lat="-33.9147194" lon="151.1459664">
    <tag k="addr:housenumber" v="298"/>
    <tag k="addr:street" v="Livingstone Road"/>
    <tag k="source" v="survey"/>
  </node>
  <node id="1245379064" version="1" timestamp="2011-04-15T10:26:28Z" uid="7617" user="Franc" changeset="7868334" lat="-33.9124347" lon="151.147447">
    <tag k="addr:housenumber" v="237"/>
    <tag k="addr:street" v="Livingstone Road"/>
    <tag k="source" v="survey"/>
  </node>
  <node id="1245379065" version="1" timestamp="2011-04-15T10:26:28Z" uid="7617" user="Franc" changeset="7868334" lat="-33.8778941" lon="151.1672732">
    <tag k="addr:housenumber" v="30"/>
    <tag k="addr:street" v="White Street"/>
    <tag k="source" v="exrapolation"/>
  </node>
  <node id="1245379065" version="2" timestamp="2011-05-29T08:32:01Z" uid="7617" user="Franc" changeset="8278454" lat="-33.8778941" lon="151.1672732">
    <tag k="addr:housenumber" v="30"/>
    <tag k="addr:street" v="White Street"/>
    <tag k="source" v="extrapolation"/>
  </node>
  <node id="1245379066" version="1" timestamp="2011-04-15T10:26:28Z" uid="7617" user="Franc" changeset="7868334" lat="-33.8877147" lon="151.1629078"/>
  <node id="1245379067" version="1" timestamp="2011-04-15T10:26:28Z" uid="7617" user="Franc" changeset="7868334" lat="-33.9134434" lon="151.1484429">
    <tag k="addr:housenumber" v="17"/>
    <tag k="addr:street" v="Moncur Street"/>
    <tag k="source" v="exrapolation"/>
  </node>
  <node id="1245379067" version="2" timestamp="2011-05-29T08:32:11Z" uid="7617" user="Franc" changeset="8278454" lat="-33.9134434" lon="151.1484429">
    <tag k="addr:housenumber" v="17"/>
    <tag k="addr:street" v="Moncur Street"/>
    <tag k="source" v="extrapolation"/>
  </node>
  <node id="1245379068" version="1" timestamp="2011-04-15T10:26:28Z" uid="7617" user="Franc" changeset="7868334" lat="-33.8755089" lon="151.1676053">
    <tag k="addr:housenumber" v="5b"/>
    <tag k="addr:street" v="Gladstone Street"/>
    <tag k="source" v="survey"/>
  </node>
  <node id="1245379069" version="1" timestamp="2011-04-15T10:26:28Z" uid="7617" user="Franc" changeset="7868334" lat="-33.8795472" lon="151.1668205">
    <tag k="addr:housenumber" v="5"/>
    <tag k="addr:street" v="White Street"/>
    <tag k="source" v="survey"/>
  </node>
  <node id="1245379070" version="1" timestamp="2011-04-15T10:26:28Z" uid="7617" user="Franc" changeset="7868334" lat="-33.9129222" lon="151.1479148">
    <tag k="addr:housenumber" v="2"/>
    <tag k="addr:street" v="Moncur Street"/>
    <tag k="source" v="survey"/>
  </node>
  <node id="1245379071" version="1" timestamp="2011-04-15T10:26:28Z" uid="7617" user="Franc" changeset="7868334" lat="-33.9130023" lon="151.1471324">
    <tag k="addr:housenumber" v="280"/>
    <tag k="addr:street" v="Livingstone Road"/>
    <tag k="source" v="exrapolation"/>
  </node>
  <node id="1245379071" version="2" timestamp="2011-05-29T08:31:49Z" uid="7617" user="Franc" changeset="8278454" lat="-33.9130023" lon="151.1471324">
    <tag k="addr:housenumber" v="280"/>
    <tag k="addr:street" v="Livingstone Road"/>
    <tag k="source" v="extrapolation"/>
  </node>
  <node id="1245379072" version="1" timestamp="2011-04-15T10:26:29Z" uid="7617" user="Franc" changeset="7868334" lat="-33.9128654" lon="151.1469861">
    <tag k="addr:housenumber" v="251"/>
    <tag k="addr:street" v="Livingstone Road"/>
    <tag k="source" v="exrapolation"/>
  </node>
  <node id="1245379072" version="2" timestamp="2011-05-29T08:32:00Z" uid="7617" user="Franc" changeset="8278454" lat="-33.9128654" lon="151.1469861">
    <tag k="addr:housenumber" v="251"/>
    <tag k="addr:street" v="Livingstone Road"/>
    <tag k="source" v="extrapolation"/>
  </node>
  <node id="1245379073" version="1" timestamp="2011-04-15T10:26:29Z" uid="7617" user="Franc" changeset="7868334" lat="-33.8750326" lon="151.1676905">
    <tag k="addr:housenumber" v="21"/>
    <tag k="addr:street" v="Gladstone Street"/>
    <tag k="source" v="survey"/>
  </node>
  <node id="1245379074" version="1" timestamp="2011-04-15T10:26:29Z" uid="7617" user="Franc" changeset="7868334" lat="-33.8788482" lon="151.1669424">
    <tag k="addr:housenumber" v="12"/>
    <tag k="addr:street" v="White Street"/>
    <tag k="source" v="exrapolation"/>
  </node>
  <node id="1245379074" version="2" timestamp="2011-05-29T08:32:10Z" uid="7617" user="Franc" changeset="8278454" lat="-33.8788482" lon="151.1669424">
    <tag k="addr:housenumber" v="12"/>
    <tag k="addr:street" v="White Street"/>
    <tag k="source" v="extrapolation"/>
  </node>
  <node id="1245379082" version="1" timestamp="2011-04-15T10:26:29Z" uid="7617" user="Franc" changeset="7868334" lat="-33.8759802" lon="151.1625194">
    <tag k="addr:housenumber" v="82"/>
    <tag k="addr:street" v="Piper Street"/>
    <tag k="source" v="exrapolation"/>
  </node>
  <node id="1245379082" version="2" timestamp="2011-05-29T08:32:51Z" uid="7617" user="Franc" changeset="8278454" lat="-33.8759802" lon="151.1625194">
    <tag k="addr:housenumber" v="82"/>
    <tag k="addr:street" v="Piper Street"/>
    <tag k="source" v="extrapolation"/>
  </node>
  <node id="1245379085" version="1" timestamp="2011-04-15T10:26:29Z" uid="7617" user="Franc" changeset="7868334" lat="-33.9130937" lon="151.1467773">
    <tag k="addr:housenumber" v="259"/>
    <tag k="addr:street" v="Livingstone Road"/>
    <tag k="source" v="exrapolation"/>
  </node>
  <node id="1245379085" version="2" timestamp="2011-05-29T08:33:21Z" uid="7617" user="Franc" changeset="8278454" lat="-33.9130937" lon="151.1467773">
    <tag k="addr:housenumber" v="259"/>
    <tag k="addr:street" v="Livingstone Road"/>
    <tag k="source" v="extrapolation"/>
  </node>
  <node id="1245379088" version="1" timestamp="2011-04-15T10:26:29Z" uid="7617" user="Franc" changeset="7868334" lat="-33.8807869" lon="151.1680469">
    <tag k="addr:housenumber" v="258"/>
    <tag k="addr:street" v="Young Street"/>
    <tag k="source" v="survey"/>
  </node>
  <node id="1245379091" version="1" timestamp="2011-04-15T10:26:29Z" uid="7617" user="Franc" changeset="7868334" lat="-33.8741979" lon="151.1685542"/>
  <node id="1245379093" version="1" timestamp="2011-04-15T10:26:29Z" uid="7617" user="Franc" changeset="7868334" lat="-33.8803734" lon="151.168859"/>
  <node id="1245379095" version="1" timestamp="2011-04-15T10:26:29Z" uid="7617" user="Franc" changeset="7868334" lat="-33.9130197" lon="151.1477022">
    <tag k="addr:housenumber" v="1"/>
    <tag k="addr:street" v="Moncur Street"/>
    <tag k="source" v="survey"/>
  </node>
  <node id="1245379096" version="1" timestamp="2011-04-15T10:26:29Z" uid="7617" user="Franc" changeset="7868334" lat="-33.8757883" lon="151.1675604">
    <tag k="addr:housenumber" v="3b"/>
    <tag k="addr:street" v="Gladstone Street"/>
    <tag k="source" v="survey"/>
  </node>
  <node id="1245379097" version="1" timestamp="2011-04-15T10:26:29Z" uid="7617" user="Franc" changeset="7868334" lat="-33.9129856" lon="151.1480291">
    <tag k="addr:housenumber" v="6"/>
    <tag k="addr:street" v="Moncur Street"/>
    <tag k="source" v="exrapolation"/>
  </node>
  <node id="1245379097" version="2" timestamp="2011-05-29T08:33:19Z" uid="7617" user="Franc" changeset="8278454" lat="-33.9129856" lon="151.1480291">
    <tag k="addr:housenumber" v="6"/>
    <tag k="addr:street" v="Moncur Street"/>
    <tag k="source" v="extrapolation"/>
  </node>
  <node id="1245379098" version="1" timestamp="2011-04-15T10:26:29Z" uid="7617" user="Franc" changeset="7868334" lat="-33.9152432" lon="151.1456414">
    <tag k="addr:housenumber" v="310"/>
    <tag k="addr:street" v="Livingstone Road"/>
    <tag k="source" v="exrapolation"/>
  </node>
  <node id="1245379098" version="2" timestamp="2011-05-29T08:32:28Z" uid="7617" user="Franc" changeset="8278454" lat="-33.9152432" lon="151.1456414">
    <tag k="addr:housenumber" v="310"/>
    <tag k="addr:street" v="Livingstone Road"/>
    <tag k="source" v="extrapolation"/>
  </node>
  <node id="1245379099" version="1" timestamp="2011-04-15T10:26:30Z" uid="7617" user="Franc" changeset="7868334" lat="-33.8792724" lon="151.1667914">
    <tag k="addr:housenumber" v="2"/>
    <tag k="addr:street" v="White Street"/>
    <tag k="source" v="survey"/>
  </node>
  <node id="1245379100" version="1" timestamp="2011-04-15T10:26:30Z" uid="7617" user="Franc" changeset="7868334" lat="-33.8800362" lon="151.1686187">
    <tag k="addr:housenumber" v="251"/>
    <tag k="addr:street" v="Young Street"/>
    <tag k="source" v="survey"/>
  </node>
  <node id="1245379101" version="1" timestamp="2011-04-15T10:26:30Z" uid="7617" user="Franc" changeset="7868334" lat="-33.8759118" lon="151.1622128">
    <tag k="addr:housenumber" v="86"/>
    <tag k="addr:street" v="Piper Street"/>
    <tag k="source" v="survey"/>
  </node>
  <node id="1245379102" version="1" timestamp="2011-04-15T10:26:30Z" uid="7617" user="Franc" changeset="7868334" lat="-33.884424" lon="151.1666181">
    <tag k="addr:housenumber" v="125"/>
    <tag k="addr:street" v="Young Street"/>
    <tag k="source" v="exrapolation"/>
  </node>
  <node id="1245379102" version="2" timestamp="2011-05-29T08:32:08Z" uid="7617" user="Franc" changeset="8278454" lat="-33.884424" lon="151.1666181">
    <tag k="addr:housenumber" v="125"/>
    <tag k="addr:street" v="Young Street"/>
    <tag k="source" v="extrapolation"/>
  </node>
  <node id="1245379103" version="1" timestamp="2011-04-15T10:26:30Z" uid="7617" user="Franc" changeset="7868334" lat="-33.8742906" lon="151.1670742">
    <tag k="addr:housenumber" v="36"/>
    <tag k="addr:street" v="Brenan Street"/>
    <tag k="source" v="survey"/>
  </node>
  <node id="1245379104" version="1" timestamp="2011-04-15T10:26:30Z" uid="7617" user="Franc" changeset="7868334" lat="-33.8762618" lon="151.1674683">
    <tag k="addr:housenumber" v="3"/>
    <tag k="addr:street" v="Gladstone Street"/>
    <tag k="source" v="survey"/>
  </node>
  <node id="1245379105" version="1" timestamp="2011-04-15T10:26:30Z" uid="7617" user="Franc" changeset="7868334" lat="-33.9131977" lon="151.1469633">
    <tag k="addr:housenumber" v="286"/>
    <tag k="addr:street" v="Livingstone Road"/>
    <tag k="source" v="exrapolation"/>
  </node>
  <node id="1245379105" version="2" timestamp="2011-05-29T08:31:57Z" uid="7617" user="Franc" changeset="8278454" lat="-33.9131977" lon="151.1469633">
    <tag k="addr:housenumber" v="286"/>
    <tag k="addr:street" v="Livingstone Road"/>
    <tag k="source" v="extrapolation"/>
  </node>
  <node id="1245379106" version="1" timestamp="2011-04-15T10:26:30Z" uid="7617" user="Franc" changeset="7868334" lat="-33.8746731" lon="151.1677465">
    <tag k="addr:housenumber" v="27"/>
    <tag k="addr:street" v="Gladstone Street"/>
    <tag k="source" v="exrapolation"/>
  </node>
  <node id="1245379106" version="2" timestamp="2011-05-29T08:32:55Z" uid="7617" user="Franc" changeset="8278454" lat="-33.8746731" lon="151.1677465">
    <tag k="addr:housenumber" v="27"/>
    <tag k="addr:street" v="Gladstone Street"/>
    <tag k="source" v="extrapolation"/>
  </node>
  <node id="1245379107" version="1" timestamp="2011-04-15T10:26:30Z" uid="7617" user="Franc" changeset="7868334" lat="-33.9157053" lon="151.1453507">
    <tag k="addr:housenumber" v="320"/>
    <tag k="addr:street" v="Livingstone Road"/>
    <tag k="source" v="exrapolation"/>
  </node>
  <node id="1245379107" version="2" timestamp="2011-05-29T08:32:08Z" uid="7617" user="Franc" changeset="8278454" lat="-33.9157053" lon="151.1453507">
    <tag k="addr:housenumber" v="320"/>
    <tag k="addr:street" v="Livingstone Road"/>
    <tag k="source" v="extrapolation"/>
  </node>
  <node id="1245379108" version="1" timestamp="2011-04-15T10:26:30Z" uid="7617" user="Franc" changeset="7868334" lat="-33.8791953" lon="151.1668224">
    <tag k="addr:housenumber" v="4"/>
    <tag k="addr:street" v="White Street"/>
    <tag k="source" v="exrapolation"/>
  </node>
  <node id="1245379108" version="2" timestamp="2011-05-29T08:32:23Z" uid="7617" user="Franc" changeset="8278454" lat="-33.8791953" lon="151.1668224">
    <tag k="addr:housenumber" v="4"/>
    <tag k="addr:street" v="White Street"/>
    <tag k="source" v="extrapolation"/>
  </node>
  <node id="1245379109" version="1" timestamp="2011-04-15T10:26:30Z" uid="7617" user="Franc" changeset="7868334" lat="-33.8834746" lon="151.1668173">
    <tag k="addr:housenumber" v="150"/>
    <tag k="addr:street" v="Young Street"/>
    <tag k="source" v="survey"/>
  </node>
</osm>
