<?xml version='1.0' encoding='UTF-8'?>
<osm version="0.6" generator="libosmium/2.20.0">
  <node id="125679302" version="3" timestamp="2010-02-09T02:02:28Z" uid="74617" user="JohnSmith" changeset="3828705" lat="-27.3652168" lon="153.090056">
    <tag k="name" v="Nudgee"/>
    <tag k="place" v="suburb"/>
  </node>
  <node id="125679641" version="2" timestamp="2010-02-14T17:01:54Z" uid="74617" user="JohnSmith" changeset="3875836" lat="-27.456151" lon="153.035514">
    <tag k="name" v="Fortitude Valley"/>
    <tag k="place" v="suburb"/>
  </node>
  <node id="125679677" version="3" timestamp="2010-02-14T17:01:39Z" uid="74617" user="JohnSmith" changeset="3875836" lat="-27.4614416" lon="153.025734">
    <tag k="name" v="Spring Hill"/>
    <tag k="place" v="suburb"/>
  </node>
  <node id="125679720" version="2" timestamp="2010-02-14T15:41:21Z" uid="74617" user="JohnSmith" changeset="3874884" lat="-27.4273749" lon="152.998201">
    <tag k="name" v="Alderley Heights"/>
    <tag k="place" v="hamlet"/>
  </node>
  <node id="125679749" version="3" timestamp="2010-02-14T15:41:52Z" uid="74617" user="JohnSmith" changeset="3874884" lat="-27.4162777" lon="153.026166">
    <tag k="name" v="Gordon Park"/>
    <tag k="place" v="suburb"/>
  </node>
</osm>
