<?xml version='1.0' encoding='UTF-8'?>
<osm version="0.6" generator="libosmium/2.20.0">
  <node id="1260430544" version="1" timestamp="2011-04-26T05:09:17Z" uid="7617" user="Franc" changeset="7970860" lat="-33.9197293" lon="151.133814"/>
  <node id="1260430545" version="1" timestamp="2011-04-26T05:09:17Z" uid="7617" user="Franc" changeset="7970860" lat="-33.9239206" lon="151.1296764">
    <tag k="addr:housenumber" v="165"/>
    <tag k="addr:street" v="Wardell Road"/>
    <tag k="source" v="survey"/>
  </node>
  <node id="1260430546" version="1" timestamp="2011-04-26T05:09:17Z" uid="7617" user="Franc" changeset="7970860" lat="-33.9200232" lon="151.134913"/>
  <node id="1260430548" version="1" timestamp="2011-04-26T05:09:17Z" uid="7617" user="Franc" changeset="7970860" lat="-33.9194573" lon="151.132808"/>
  <node id="1260430549" version="1" timestamp="2011-04-26T05:09:17Z" uid="7617" user="Franc" changeset="7970860" lat="-33.9154867" lon="151.1350163">
    <tag k="amenity" v="cafe"/>
  </node>
  <node id="1260430550" version="1" timestamp="2011-04-26T05:09:17Z" uid="7617" user="Franc" changeset="7970860" lat="-33.9263687" lon="151.129159">
    <tag k="addr:housenumber" v="197"/>
    <tag k="addr:street" v="Wardell Road"/>
    <tag k="source" v="exrapolation"/>
  </node>
  <node id="1260430550" version="2" timestamp="2011-05-29T08:32:33Z" uid="7617" user="Franc" changeset="8278454" lat="-33.9263687" lon="151.129159">
    <tag k="addr:housenumber" v="197"/>
    <tag k="addr:street" v="Wardell Road"/>
    <tag k="source" v="extrapolation"/>
  </node>
  <node id="1260430552" version="1" timestamp="2011-04-26T05:09:17Z" uid="7617" user="Franc" changeset="7970860" lat="-33.918701" lon="151.1329117">
    <tag k="addr:housenumber" v="77"/>
    <tag k="addr:street" v="Wardell Road"/>
    <tag k="source" v="survey"/>
  </node>
  <node id="1260430553" version="1" timestamp="2011-04-26T05:09:17Z" uid="7617" user="Franc" changeset="7970860" lat="-33.915434" lon="151.1348844"/>
  <node id="1260430554" version="1" timestamp="2011-04-26T05:09:17Z" uid="7617" user="Franc" changeset="7970860" lat="-33.9130733" lon="151.1385986">
    <tag k="addr:housenumber" v="284"/>
    <tag k="addr:street" v="Wardell Road"/>
    <tag k="source" v="exrapolation"/>
  </node>
  <node id="1260430554" version="2" timestamp="2011-05-29T08:31:49Z" uid="7617" user="Franc" changeset="8278454" lat="-33.9130733" lon="151.1385986">
    <tag k="addr:housenumber" v="284"/>
    <tag k="addr:street" v="Wardell Road"/>
    <tag k="source" v="extrapolation"/>
  </node>
  <node id="1260430555" version="1" timestamp="2011-04-26T05:09:17Z" uid="7617" user="Franc" changeset="7970860" lat="-33.9199609" lon="151.1341925"/>
  <node id="1260430557" version="1" timestamp="2011-04-26T05:09:17Z" uid="7617" user="Franc" changeset="7970860" lat="-33.9130186" lon="151.1387055">
    <tag k="addr:housenumber" v="282"/>
    <tag k="addr:street" v="Wardell Road"/>
    <tag k="source" v="exrapolation"/>
  </node>
  <node id="1260430557" version="2" timestamp="2011-05-29T08:32:17Z" uid="7617" user="Franc" changeset="8278454" lat="-33.9130186" lon="151.1387055">
    <tag k="addr:housenumber" v="282"/>
    <tag k="addr:street" v="Wardell Road"/>
    <tag k="source" v="extrapolation"/>
  </node>
  <node id="1260430558" version="1" timestamp="2011-04-26T05:09:17Z" uid="7617" user="Franc" changeset="7970860" lat="-33.9213379" lon="151.1314267">
    <tag k="addr:housenumber" v="117"/>
    <tag k="addr:street" v="Wardell Road"/>
    <tag k="source" v="exrapolation"/>
  </node>
  <node id="1260430558" version="2" timestamp="2011-05-29T08:33:17Z" uid="7617" user="Franc" changeset="8278454" lat="-33.9213379" lon="151.1314267">
    <tag k="addr:housenumber" v="117"/>
    <tag k="addr:street" v="Wardell Road"/>
    <tag k="source" v="extrapolation"/>
  </node>
  <node id="1260430561" version="1" timestamp="2011-04-26T05:09:18Z" uid="7617" user="Franc" changeset="7970860" lat="-33.9247402" lon="151.1296727">
    <tag k="addr:housenumber" v="188"/>
    <tag k="addr:street" v="Wardell Road"/>
    <tag k="source" v="survey"/>
  </node>
  <node id="1260430562" version="1" timestamp="2011-04-26T05:09:18Z" uid="7617" user="Franc" changeset="7970860" lat="-33.9113688" lon="151.1408606"/>
  <node id="1260430563" version="1" timestamp="2011-04-26T05:09:18Z" uid="7617" user="Franc" changeset="7970860" lat="-33.9151533" lon="151.1345623">
    <tag k="addr:housenumber" v="21"/>
    <tag k="addr:street" v="Wardell Road"/>
    <tag k="source" v="survey"/>
  </node>
  <node id="1260430565" version="1" timestamp="2011-04-26T05:09:18Z" uid="7617" user="Franc" changeset="7970860" lat="-33.9166211" lon="151.1334664">
    <tag k="addr:housenumber" v="43"/>
    <tag k="addr:street" v="Wardell Road"/>
    <tag k="source" v="exrapolation"/>
  </node>
  <node id="1260430565" version="2" timestamp="2011-05-29T08:32:42Z" uid="7617" user="Franc" changeset="8278454" lat="-33.9166211" lon="151.1334664">
    <tag k="addr:housenumber" v="43"/>
    <tag k="addr:street" v="Wardell Road"/>
    <tag k="source" v="extrapolation"/>
  </node>
  <node id="1260430567" version="1" timestamp="2011-04-26T05:09:18Z" uid="7617" user="Franc" changeset="7970860" lat="-33.923212" lon="151.1303292"/>
  <node id="1260430569" version="1" timestamp="2011-04-26T05:09:18Z" uid="7617" user="Franc" changeset="7970860" lat="-33.9239942" lon="151.1298882">
    <tag k="addr:housenumber" v="176"/>
    <tag k="addr:street" v="Wardell Road"/>
    <tag k="source" v="exrapolation"/>
  </node>
  <node id="1260430569" version="2" timestamp="2011-05-29T08:32:00Z" uid="7617" user="Franc" changeset="8278454" lat="-33.9239942" lon="151.1298882">
    <tag k="addr:housenumber" v="176"/>
    <tag k="addr:street" v="Wardell Road"/>
    <tag k="source" v="extrapolation"/>
  </node>
  <node id="1260430570" version="1" timestamp="2011-04-26T05:09:18Z" uid="7617" user="Franc" changeset="7970860" lat="-33.9120751" lon="151.1402952">
    <tag k="addr:housenumber" v="264"/>
    <tag k="addr:street" v="Wardell Road"/>
    <tag k="source" v="survey"/>
  </node>
  <node id="1260430571" version="1" timestamp="2011-04-26T05:09:18Z" uid="7617" user="Franc" changeset="7970860" lat="-33.9191503" lon="151.1346025"/>
  <node id="1260430573" version="1" timestamp="2011-04-26T05:09:18Z" uid="7617" user="Franc" changeset="7970860" lat="-33.9124901" lon="151.1395738">
    <tag k="addr:housenumber" v="268"/>
    <tag k="addr:street" v="Wardell Road"/>
    <tag k="source" v="survey"/>
  </node>
  <node id="1260430574" version="1" timestamp="2011-04-26T05:09:18Z" uid="7617" user="Franc" changeset="7970860" lat="-33.9206166" lon="151.1319447">
    <tag k="addr:housenumber" v="107"/>
    <tag k="addr:street" v="Wardell Road"/>
    <tag k="source" v="exrapolation"/>
  </node>
  <node id="1260430574" version="2" timestamp="2011-05-29T08:32:36Z" uid="7617" user="Franc" changeset="8278454" lat="-33.9206166" lon="151.1319447">
    <tag k="addr:housenumber" v="107"/>
    <tag k="addr:street" v="Wardell Road"/>
    <tag k="source" v="extrapolation"/>
  </node>
  <node id="1260430575" version="1" timestamp="2011-04-26T05:09:18Z" uid="7617" user="Franc" changeset="7970860" lat="-33.9226831" lon="151.1307125">
    <tag k="addr:housenumber" v="150"/>
    <tag k="addr:street" v="Wardell Road"/>
    <tag k="source" v="survey"/>
  </node>
  <node id="1260430577" version="1" timestamp="2011-04-26T05:09:18Z" uid="7617" user="Franc" changeset="7970860" lat="-33.9199667" lon="151.1340128"/>
  <node id="1260430578" version="1" timestamp="2011-04-26T05:09:18Z" uid="7617" user="Franc" changeset="7970860" lat="-33.923184" lon="151.1300911"/>
  <node id="1260430579" version="1" timestamp="2011-04-26T05:09:18Z" uid="7617" user="Franc" changeset="7970860" lat="-33.9152177" lon="151.1344448">
    <tag k="addr:housenumber" v="23"/>
    <tag k="addr:street" v="Wardell Road"/>
    <tag k="source" v="exrapolation"/>
  </node>
  <node id="1260430579" version="2" timestamp="2011-05-29T08:32:51Z" uid="7617" user="Franc" changeset="8278454" lat="-33.9152177" lon="151.1344448">
    <tag k="addr:housenumber" v="23"/>
    <tag k="addr:street" v="Wardell Road"/>
    <tag k="source" v="extrapolation"/>
  </node>
  <node id="1260430582" version="1" timestamp="2011-04-26T05:09:19Z" uid="7617" user="Franc" changeset="7970860" lat="-33.9219094" lon="151.131279">
    <tag k="addr:housenumber" v="132"/>
    <tag k="addr:street" v="Wardell Road"/>
    <tag k="source" v="survey"/>
  </node>
  <node id="1260430583" version="1" timestamp="2011-04-26T05:09:19Z" uid="7617" user="Franc" changeset="7970860" lat="-33.9167295" lon="151.1334291">
    <tag k="addr:housenumber" v="45"/>
    <tag k="addr:street" v="Wardell Road"/>
    <tag k="source" v="exrapolation"/>
  </node>
  <node id="1260430583" version="2" timestamp="2011-05-29T08:32:31Z" uid="7617" user="Franc" changeset="8278454" lat="-33.9167295" lon="151.1334291">
    <tag k="addr:housenumber" v="45"/>
    <tag k="addr:street" v="Wardell Road"/>
    <tag k="source" v="extrapolation"/>
  </node>
  <node id="1260430585" version="1" timestamp="2011-04-26T05:09:19Z" uid="7617" user="Franc" changeset="7970860" lat="-33.9145112" lon="151.1375114"/>
  <node id="1260430586" version="1" timestamp="2011-04-26T05:09:19Z" uid="7617" user="Franc" changeset="7970860" lat="-33.9114248" lon="151.1409594">
    <tag k="addr:housenumber" v="244"/>
    <tag k="addr:street" v="Wardell Road"/>
    <tag k="source" v="survey"/>
  </node>
  <node id="1260430588" version="1" timestamp="2011-04-26T05:09:19Z" uid="7617" user="Franc" changeset="7970860" lat="-33.9266407" lon="151.1281307">
    <tag k="addr:housenumber" v="273"/>
    <tag k="addr:street" v="Homer Street"/>
    <tag k="source" v="survey"/>
  </node>
  <node id="1260430588" version="2" timestamp="2011-06-13T13:04:36Z" uid="7617" user="Franc" changeset="8426070" lat="-33.9266407" lon="151.1281307"/>
  <node id="1260430589" version="1" timestamp="2011-04-26T05:09:19Z" uid="7617" user="Franc" changeset="7970860" lat="-33.9245608" lon="151.1296645">
    <tag k="addr:housenumber" v="186"/>
    <tag k="addr:street" v="Wardell Road"/>
    <tag k="source" v="exrapolation"/>
  </node>
  <node id="1260430589" version="2" timestamp="2011-05-29T08:33:03Z" uid="7617" user="Franc" changeset="8278454" lat="-33.9245608" lon="151.1296645">
    <tag k="addr:housenumber" v="186"/>
    <tag k="addr:street" v="Wardell Road"/>
    <tag k="source" v="extrapolation"/>
  </node>
  <node id="1260430590" version="1" timestamp="2011-04-26T05:09:19Z" uid="7617" user="Franc" changeset="7970860" lat="-33.9262418" lon="151.1291838">
    <tag k="addr:housenumber" v="195"/>
    <tag k="addr:street" v="Wardell Road"/>
    <tag k="source" v="survey"/>
  </node>
  <node id="1260430592" version="1" timestamp="2011-04-26T05:09:19Z" uid="7617" user="Franc" changeset="7970860" lat="-33.9127853" lon="151.1386583">
    <tag k="addr:housenumber" v="297"/>
    <tag k="addr:street" v="Wardell Road"/>
    <tag k="source" v="survey"/>
  </node>
  <node id="1260430594" version="1" timestamp="2011-04-26T05:09:19Z" uid="7617" user="Franc" changeset="7970860" lat="-33.9180847" lon="151.1329963">
    <tag k="addr:housenumber" v="65"/>
    <tag k="addr:street" v="Wardell Road"/>
    <tag k="source" v="survey"/>
  </node>
  <node id="1260430596" version="1" timestamp="2011-04-26T05:09:19Z" uid="7617" user="Franc" changeset="7970860" lat="-33.9241116" lon="151.1295676">
    <tag k="addr:housenumber" v="169"/>
    <tag k="addr:street" v="Wardell Road"/>
    <tag k="source" v="exrapolation"/>
  </node>
  <node id="1260430596" version="2" timestamp="2011-05-29T08:33:02Z" uid="7617" user="Franc" changeset="8278454" lat="-33.9241116" lon="151.1295676">
    <tag k="addr:housenumber" v="169"/>
    <tag k="addr:street" v="Wardell Road"/>
    <tag k="source" v="extrapolation"/>
  </node>
  <node id="1260430597" version="1" timestamp="2011-04-26T05:09:19Z" uid="7617" user="Franc" changeset="7970860" lat="-33.9268956" lon="151.1286223">
    <tag k="addr:housenumber" v="198-200"/>
    <tag k="addr:street" v="Homer Street"/>
    <tag k="source" v="exrapolation"/>
  </node>
  <node id="1260430597" version="2" timestamp="2011-05-29T08:32:14Z" uid="7617" user="Franc" changeset="8278454" lat="-33.9268956" lon="151.1286223">
    <tag k="addr:housenumber" v="198-200"/>
    <tag k="addr:street" v="Homer Street"/>
    <tag k="source" v="extrapolation"/>
  </node>
  <node id="1260430600" version="1" timestamp="2011-04-26T05:09:19Z" uid="7617" user="Franc" changeset="7970860" lat="-33.9189286" lon="151.1329991"/>
  <node id="1260430601" version="1" timestamp="2011-04-26T05:09:20Z" uid="7617" user="Franc" changeset="7970860" lat="-33.9189056" lon="151.1331022"/>
  <node id="1260430602" version="1" timestamp="2011-04-26T05:09:20Z" uid="7617" user="Franc" changeset="7970860" lat="-33.9152821" lon="151.1343274">
    <tag k="addr:housenumber" v="25"/>
    <tag k="addr:street" v="Wardell Road"/>
    <tag k="source" v="exrapolation"/>
  </node>
  <node id="1260430602" version="2" timestamp="2011-05-29T08:32:27Z" uid="7617" user="Franc" changeset="8278454" lat="-33.9152821" lon="151.1343274">
    <tag k="addr:housenumber" v="25"/>
    <tag k="addr:street" v="Wardell Road"/>
    <tag k="source" v="extrapolation"/>
  </node>
  <node id="1260430603" version="1" timestamp="2011-04-26T05:09:20Z" uid="7617" user="Franc" changeset="7970860" lat="-33.9176739" lon="151.1330796">
    <tag k="addr:housenumber" v="61"/>
    <tag k="addr:street" v="Wardell Road"/>
    <tag k="source" v="exrapolation"/>
  </node>
  <node id="1260430603" version="2" timestamp="2011-05-29T08:33:28Z" uid="7617" user="Franc" changeset="8278454" lat="-33.9176739" lon="151.1330796">
    <tag k="addr:housenumber" v="61"/>
    <tag k="addr:street" v="Wardell Road"/>
    <tag k="source" v="extrapolation"/>
  </node>
  <node id="1260430604" version="1" timestamp="2011-04-26T05:09:20Z" uid="7617" user="Franc" changeset="7970860" lat="-33.9195594" lon="151.1330084"/>
  <node id="1260430605" version="1" timestamp="2011-04-26T05:09:20Z" uid="7617" user="Franc" changeset="7970860" lat="-33.9153793" lon="151.1394966"/>
  <node id="1260430607" version="1" timestamp="2011-04-26T05:09:20Z" uid="7617" user="Franc" changeset="7970860" lat="-33.9122619" lon="151.1395526">
    <tag k="addr:housenumber" v="281"/>
    <tag k="addr:street" v="Wardell Road"/>
    <tag k="source" v="survey"/>
  </node>
  <node id="1260430609" version="1" timestamp="2011-04-26T05:09:20Z" uid="7617" user="Franc" changeset="7970860" lat="-33.919447" lon="151.1347438"/>
  <node id="1260430610" version="1" timestamp="2011-04-26T05:09:20Z" uid="7617" user="Franc" changeset="7970860" lat="-33.9214282" lon="151.1313571">
    <tag k="addr:housenumber" v="119"/>
    <tag k="addr:street" v="Wardell Road"/>
    <tag k="source" v="survey"/>
  </node>
  <node id="1260430611" version="1" timestamp="2011-04-26T05:09:20Z" uid="7617" user="Franc" changeset="7970860" lat="-33.915563" lon="151.1348869"/>
  <node id="1260430612" version="1" timestamp="2011-04-26T05:09:20Z" uid="7617" user="Franc" changeset="7970860" lat="-33.9268596" lon="151.1283295">
    <tag k="addr:housenumber" v="204"/>
    <tag k="addr:street" v="Homer Street"/>
    <tag k="source" v="exrapolation"/>
  </node>
  <node id="1260430612" version="2" timestamp="2011-05-29T08:32:38Z" uid="7617" user="Franc" changeset="8278454" lat="-33.9268596" lon="151.1283295">
    <tag k="addr:housenumber" v="204"/>
    <tag k="addr:street" v="Homer Street"/>
    <tag k="source" v="extrapolation"/>
  </node>
  <node id="1260430615" version="1" timestamp="2011-04-26T05:09:20Z" uid="7617" user="Franc" changeset="7970860" lat="-33.9191807" lon="151.1343583"/>
  <node id="1260430616" version="1" timestamp="2011-04-26T05:09:20Z" uid="7617" user="Franc" changeset="7970860" lat="-33.9242202" lon="151.1295118">
    <tag k="addr:housenumber" v="171"/>
    <tag k="addr:street" v="Wardell Road"/>
    <tag k="source" v="exrapolation"/>
  </node>
  <node id="1260430616" version="2" timestamp="2011-05-29T08:31:55Z" uid="7617" user="Franc" changeset="8278454" lat="-33.9242202" lon="151.1295118">
    <tag k="addr:housenumber" v="171"/>
    <tag k="addr:street" v="Wardell Road"/>
    <tag k="source" v="extrapolation"/>
  </node>
  <node id="1260430618" version="1" timestamp="2011-04-26T05:09:20Z" uid="7617" user="Franc" changeset="7970860" lat="-33.9129494" lon="151.1388088">
    <tag k="addr:housenumber" v="280"/>
    <tag k="addr:street" v="Wardell Road"/>
    <tag k="source" v="survey"/>
  </node>
  <node id="1260430619" version="1" timestamp="2011-04-26T05:09:20Z" uid="7617" user="Franc" changeset="7970860" lat="-33.9195961" lon="151.1329557"/>
  <node id="1260430620" version="1" timestamp="2011-04-26T05:09:20Z" uid="7617" user="Franc" changeset="7970860" lat="-33.9194183" lon="151.1329328"/>
  <node id="1260430622" version="1" timestamp="2011-04-26T05:09:21Z" uid="7617" user="Franc" changeset="7970860" lat="-33.9209635" lon="151.1316977">
    <tag k="addr:housenumber" v="113"/>
    <tag k="addr:street" v="Wardell Road"/>
    <tag k="source" v="survey"/>
  </node>
  <node id="1260430623" version="1" timestamp="2011-04-26T05:09:21Z" uid="7617" user="Franc" changeset="7970860" lat="-33.9154753" lon="151.1339752">
    <tag k="addr:housenumber" v="31"/>
    <tag k="addr:street" v="Wardell Road"/>
    <tag k="source" v="survey"/>
  </node>
  <node id="1260430624" version="1" timestamp="2011-04-26T05:09:21Z" uid="7617" user="Franc" changeset="7970860" lat="-33.9204857" lon="151.1320477">
    <tag k="addr:housenumber" v="105"/>
    <tag k="addr:street" v="Wardell Road"/>
    <tag k="source" v="survey"/>
  </node>
  <node id="1260430626" version="1" timestamp="2011-04-26T05:09:21Z" uid="7617" user="Franc" changeset="7970860" lat="-33.9198726" lon="151.1349409"/>
  <node id="1260430628" version="1" timestamp="2011-04-26T05:09:21Z" uid="7617" user="Franc" changeset="7970860" lat="-33.9191126" lon="151.1344403"/>
  <node id="1260430629" version="1" timestamp="2011-04-26T05:09:21Z" uid="7617" user="Franc" changeset="7970860" lat="-33.9186669" lon="151.1331393">
    <tag k="addr:housenumber" v="64"/>
    <tag k="addr:street" v="Wardell Road"/>
    <tag k="source" v="survey"/>
  </node>
  <node id="1260430630" version="1" timestamp="2011-04-26T05:09:21Z" uid="7617" user="Franc" changeset="7970860" lat="-33.915337" lon="151.134622">
    <tag k="addr:housenumber" v="22"/>
    <tag k="addr:street" v="Wardell Road"/>
    <tag k="source" v="survey"/>
  </node>
  <node id="1260430631" version="1" timestamp="2011-04-26T05:09:21Z" uid="7617" user="Franc" changeset="7970860" lat="-33.9200211" lon="151.1323905">
    <tag k="addr:housenumber" v="99"/>
    <tag k="addr:street" v="Wardell Road"/>
    <tag k="source" v="survey"/>
  </node>
  <node id="1260430632" version="1" timestamp="2011-04-26T05:09:21Z" uid="7617" user="Franc" changeset="7970860" lat="-33.9237957" lon="151.1297423">
    <tag k="addr:housenumber" v="163"/>
    <tag k="addr:street" v="Wardell Road"/>
    <tag k="source" v="survey"/>
  </node>
  <node id="1260430633" version="1" timestamp="2011-04-26T05:09:21Z" uid="7617" user="Franc" changeset="7970860" lat="-33.9201081" lon="151.1323315">
    <tag k="addr:housenumber" v="101"/>
    <tag k="addr:street" v="Wardell Road"/>
    <tag k="source" v="exrapolation"/>
  </node>
  <node id="1260430633" version="2" timestamp="2011-05-29T08:32:15Z" uid="7617" user="Franc" changeset="8278454" lat="-33.9201081" lon="151.1323315">
    <tag k="addr:housenumber" v="101"/>
    <tag k="addr:street" v="Wardell Road"/>
    <tag k="source" v="extrapolation"/>
  </node>
  <node id="1260430634" version="1" timestamp="2011-04-26T05:09:21Z" uid="7617" user="Franc" changeset="7970860" lat="-33.9253305" lon="151.1293741">
    <tag k="addr:housenumber" v="181"/>
    <tag k="addr:street" v="Wardell Road"/>
    <tag k="source" v="survey"/>
  </node>
  <node id="1260430635" version="1" timestamp="2011-04-26T05:09:21Z" uid="7617" user="Franc" changeset="7970860" lat="-33.9251473" lon="151.1296318">
    <tag k="addr:housenumber" v="190"/>
    <tag k="addr:street" v="Wardell Road"/>
    <tag k="source" v="exrapolation"/>
  </node>
  <node id="1260430635" version="2" timestamp="2011-05-29T08:32:24Z" uid="7617" user="Franc" changeset="8278454" lat="-33.9251473" lon="151.1296318">
    <tag k="addr:housenumber" v="190"/>
    <tag k="addr:street" v="Wardell Road"/>
    <tag k="source" v="extrapolation"/>
  </node>
  <node id="1260430636" version="1" timestamp="2011-04-26T05:09:21Z" uid="7617" user="Franc" changeset="7970860" lat="-33.9164136" lon="151.133551">
    <tag k="addr:housenumber" v="39"/>
    <tag k="addr:street" v="Wardell Road"/>
    <tag k="source" v="survey"/>
  </node>
  <node id="1260430637" version="1" timestamp="2011-04-26T05:09:21Z" uid="7617" user="Franc" changeset="7970860" lat="-33.9241468" lon="151.1297997">
    <tag k="addr:housenumber" v="178"/>
    <tag k="addr:street" v="Wardell Road"/>
    <tag k="source" v="exrapolation"/>
  </node>
  <node id="1260430637" version="2" timestamp="2011-05-29T08:31:54Z" uid="7617" user="Franc" changeset="8278454" lat="-33.9241468" lon="151.1297997">
    <tag k="addr:housenumber" v="178"/>
    <tag k="addr:street" v="Wardell Road"/>
    <tag k="source" v="extrapolation"/>
  </node>
  <node id="1260430638" version="1" timestamp="2011-04-26T05:09:22Z" uid="7617" user="Franc" changeset="7970860" lat="-33.9225891" lon="151.1307785">
    <tag k="addr:housenumber" v="148"/>
    <tag k="addr:street" v="Wardell Road"/>
    <tag k="source" v="survey"/>
  </node>
  <node id="1260430639" version="1" timestamp="2011-04-26T05:09:22Z" uid="7617" user="Franc" changeset="7970860" lat="-33.9192328" lon="151.1341507"/>
  <node id="1260430640" version="1" timestamp="2011-04-26T05:09:22Z" uid="7617" user="Franc" changeset="7970860" lat="-33.9179733" lon="151.1330199">
    <tag k="addr:housenumber" v="63b"/>
    <tag k="addr:street" v="Wardell Road"/>
    <tag k="source" v="survey"/>
  </node>
  <node id="1260430641" version="1" timestamp="2011-04-26T05:09:22Z" uid="7617" user="Franc" changeset="7970860" lat="-33.9242731" lon="151.1297291">
    <tag k="addr:housenumber" v="180"/>
    <tag k="addr:street" v="Wardell Road"/>
    <tag k="source" v="exrapolation"/>
  </node>
  <node id="1260430641" version="2" timestamp="2011-05-29T08:32:57Z" uid="7617" user="Franc" changeset="8278454" lat="-33.9242731" lon="151.1297291">
    <tag k="addr:housenumber" v="180"/>
    <tag k="addr:street" v="Wardell Road"/>
    <tag k="source" v="extrapolation"/>
  </node>
  <node id="1260430642" version="1" timestamp="2011-04-26T05:09:22Z" uid="7617" user="Franc" changeset="7970860" lat="-33.9192255" lon="151.1346897"/>
  <node id="1260430643" version="1" timestamp="2011-04-26T05:09:22Z" uid="7617" user="Franc" changeset="7970860" lat="-33.9153306" lon="151.1332091">
    <tag k="addr:housenumber" v="148"/>
    <tag k="addr:street" v="Riverview Road"/>
    <tag k="source" v="survey"/>
  </node>
  <node id="1260430644" version="1" timestamp="2011-04-26T05:09:22Z" uid="7617" user="Franc" changeset="7970860" lat="-33.9154037" lon="151.134105">
    <tag k="addr:housenumber" v="29"/>
    <tag k="addr:street" v="Wardell Road"/>
    <tag k="source" v="exrapolation"/>
  </node>
  <node id="1260430644" version="2" timestamp="2011-05-29T08:33:26Z" uid="7617" user="Franc" changeset="8278454" lat="-33.9154037" lon="151.134105">
    <tag k="addr:housenumber" v="29"/>
    <tag k="addr:street" v="Wardell Road"/>
    <tag k="source" v="extrapolation"/>
  </node>
  <node id="1260430645" version="1" timestamp="2011-04-26T05:09:22Z" uid="7617" user="Franc" changeset="7970860" lat="-33.9243252" lon="151.1295769"/>
  <node id="1260430646" version="1" timestamp="2011-04-26T05:09:22Z" uid="7617" user="Franc" changeset="7970860" lat="-33.9153331" lon="151.1342336">
    <tag k="addr:housenumber" v="27"/>
    <tag k="addr:street" v="Wardell Road"/>
    <tag k="source" v="exrapolation"/>
  </node>
  <node id="1260430646" version="2" timestamp="2011-05-29T08:31:46Z" uid="7617" user="Franc" changeset="8278454" lat="-33.9153331" lon="151.1342336">
    <tag k="addr:housenumber" v="27"/>
    <tag k="addr:street" v="Wardell Road"/>
    <tag k="source" v="extrapolation"/>
  </node>
  <node id="1260430647" version="1" timestamp="2011-04-26T05:09:22Z" uid="7617" user="Franc" changeset="7970860" lat="-33.9195932" lon="151.1348659"/>
  <node id="1260430648" version="1" timestamp="2011-04-26T05:09:22Z" uid="7617" user="Franc" changeset="7970860" lat="-33.9208455" lon="151.131776">
    <tag k="addr:housenumber" v="111"/>
    <tag k="addr:street" v="Wardell Road"/>
    <tag k="source" v="exrapolation"/>
  </node>
  <node id="1260430648" version="2" timestamp="2011-05-29T08:32:39Z" uid="7617" user="Franc" changeset="8278454" lat="-33.9208455" lon="151.131776">
    <tag k="addr:housenumber" v="111"/>
    <tag k="addr:street" v="Wardell Road"/>
    <tag k="source" v="extrapolation"/>
  </node>
  <node id="1260430649" version="1" timestamp="2011-04-26T05:09:22Z" uid="7617" user="Franc" changeset="7970860" lat="-33.9147538" lon="151.1379269"/>
  <node id="1260430650" version="1" timestamp="2011-04-26T05:09:22Z" uid="7617" user="Franc" changeset="7970860" lat="-33.9192588" lon="151.1346984"/>
  <node id="1260430651" version="1" timestamp="2011-04-26T05:09:22Z" uid="7617" user="Franc" changeset="7970860" lat="-33.9260581" lon="151.1294475">
    <tag k="addr:housenumber" v="206"/>
    <tag k="addr:street" v="Wardell Road"/>
    <tag k="source" v="survey"/>
  </node>
  <node id="1260430652" version="1" timestamp="2011-04-26T05:09:22Z" uid="7617" user="Franc" changeset="7970860" lat="-33.9127254" lon="151.1387528">
    <tag k="addr:housenumber" v="295"/>
    <tag k="addr:street" v="Wardell Road"/>
    <tag k="source" v="survey"/>
  </node>
  <node id="1260430653" version="1" timestamp="2011-04-26T05:09:22Z" uid="7617" user="Franc" changeset="7970860" lat="-33.9268526" lon="151.128272">
    <tag k="addr:housenumber" v="206"/>
    <tag k="addr:street" v="Homer Street"/>
    <tag k="source" v="exrapolation"/>
  </node>
  <node id="1260430653" version="2" timestamp="2011-05-29T08:33:21Z" uid="7617" user="Franc" changeset="8278454" lat="-33.9268526" lon="151.128272">
    <tag k="addr:housenumber" v="206"/>
    <tag k="addr:street" v="Homer Street"/>
    <tag k="source" v="extrapolation"/>
  </node>
  <node id="1260430654" version="1" timestamp="2011-04-26T05:09:23Z" uid="7617" user="Franc" changeset="7970860" lat="-33.9153019" lon="151.1346692"/>
  <node id="1260430655" version="1" timestamp="2011-04-26T05:09:23Z" uid="7617" user="Franc" changeset="7970860" lat="-33.9243254" lon="151.1294613">
    <tag k="addr:housenumber" v="173"/>
    <tag k="addr:street" v="Wardell Road"/>
    <tag k="source" v="exrapolation"/>
  </node>
  <node id="1260430655" version="2" timestamp="2011-05-29T08:33:30Z" uid="7617" user="Franc" changeset="8278454" lat="-33.9243254" lon="151.1294613">
    <tag k="addr:housenumber" v="173"/>
    <tag k="addr:street" v="Wardell Road"/>
    <tag k="source" v="extrapolation"/>
  </node>
  <node id="1260430656" version="1" timestamp="2011-04-26T05:09:23Z" uid="7617" user="Franc" changeset="7970860" lat="-33.9191025" lon="151.1342885"/>
  <node id="1260430657" version="1" timestamp="2011-04-26T05:09:23Z" uid="7617" user="Franc" changeset="7970860" lat="-33.9117172" lon="151.1403587">
    <tag k="addr:housenumber" v="265"/>
    <tag k="addr:street" v="Wardell Road"/>
    <tag k="source" v="survey"/>
  </node>
  <node id="1260430658" version="1" timestamp="2011-04-26T05:09:23Z" uid="7617" user="Franc" changeset="7970860" lat="-33.917707" lon="151.1332985">
    <tag k="addr:housenumber" v="50"/>
    <tag k="addr:street" v="Wardell Road"/>
    <tag k="source" v="exrapolation"/>
  </node>
  <node id="1260430658" version="2" timestamp="2011-05-29T08:32:03Z" uid="7617" user="Franc" changeset="8278454" lat="-33.917707" lon="151.1332985">
    <tag k="addr:housenumber" v="50"/>
    <tag k="addr:street" v="Wardell Road"/>
    <tag k="source" v="extrapolation"/>
  </node>
  <node id="1260430659" version="1" timestamp="2011-04-26T05:09:23Z" uid="7617" user="Franc" changeset="7970860" lat="-33.9212318" lon="151.1315024">
    <tag k="addr:housenumber" v="115"/>
    <tag k="addr:street" v="Wardell Road"/>
    <tag k="source" v="survey"/>
  </node>
  <node id="1260430660" version="1" timestamp="2011-04-26T05:09:23Z" uid="7617" user="Franc" changeset="7970860" lat="-33.9155011" lon="151.1349317"/>
  <node id="1260430661" version="1" timestamp="2011-04-26T05:09:23Z" uid="7617" user="Franc" changeset="7970860" lat="-33.9268457" lon="151.1282146">
    <tag k="addr:housenumber" v="208"/>
    <tag k="addr:street" v="Homer Street"/>
    <tag k="source" v="exrapolation"/>
  </node>
  <node id="1260430661" version="2" timestamp="2011-05-29T08:32:29Z" uid="7617" user="Franc" changeset="8278454" lat="-33.9268457" lon="151.1282146">
    <tag k="addr:housenumber" v="208"/>
    <tag k="addr:street" v="Homer Street"/>
    <tag k="source" v="extrapolation"/>
  </node>
  <node id="1260430662" version="1" timestamp="2011-04-26T05:09:23Z" uid="7617" user="Franc" changeset="7970860" lat="-33.9198075" lon="151.1342222"/>
  <node id="1260430662" version="2" timestamp="2011-04-26T05:29:11Z" uid="7617" user="Franc" changeset="7970943" lat="-33.9198633" lon="151.1342113"/>
  <node id="1260430663" version="1" timestamp="2011-04-26T05:09:23Z" uid="7617" user="Franc" changeset="7970860" lat="-33.9238432" lon="151.1299687">
    <tag k="addr:housenumber" v="174"/>
    <tag k="addr:street" v="Wardell Road"/>
    <tag k="source" v="survey"/>
  </node>
  <node id="1260430664" version="1" timestamp="2011-04-26T05:09:23Z" uid="7617" user="Franc" changeset="7970860" lat="-33.9248439" lon="151.129456">
    <tag k="addr:housenumber" v="175"/>
    <tag k="addr:street" v="Wardell Road"/>
    <tag k="source" v="exrapolation"/>
  </node>
  <node id="1260430664" version="2" timestamp="2011-05-29T08:32:33Z" uid="7617" user="Franc" changeset="8278454" lat="-33.9248439" lon="151.129456">
    <tag k="addr:housenumber" v="175"/>
    <tag k="addr:street" v="Wardell Road"/>
    <tag k="source" v="extrapolation"/>
  </node>
  <node id="1260430665" version="1" timestamp="2011-04-26T05:09:23Z" uid="7617" user="Franc" changeset="7970860" lat="-33.9195565" lon="151.1328604"/>
  <node id="1260430666" version="1" timestamp="2011-04-26T05:09:23Z" uid="7617" user="Franc" changeset="7970860" lat="-33.9209129" lon="151.1320124">
    <tag k="addr:housenumber" v="112"/>
    <tag k="addr:street" v="Wardell Road"/>
    <tag k="source" v="survey"/>
  </node>
  <node id="1260430667" version="1" timestamp="2011-04-26T05:09:23Z" uid="7617" user="Franc" changeset="7970860" lat="-33.9261169" lon="151.1292062">
    <tag k="addr:housenumber" v="193"/>
    <tag k="addr:street" v="Wardell Road"/>
    <tag k="source" v="exrapolation"/>
  </node>
  <node id="1260430667" version="2" timestamp="2011-05-29T08:31:56Z" uid="7617" user="Franc" changeset="8278454" lat="-33.9261169" lon="151.1292062">
    <tag k="addr:housenumber" v="193"/>
    <tag k="addr:street" v="Wardell Road"/>
    <tag k="source" v="extrapolation"/>
  </node>
  <node id="1260430668" version="1" timestamp="2011-04-26T05:09:24Z" uid="7617" user="Franc" changeset="7970860" lat="-33.9124219" lon="151.1396782">
    <tag k="addr:housenumber" v="244"/>
    <tag k="addr:street" v="Wardell Road"/>
    <tag k="source" v="exrapolation"/>
  </node>
  <node id="1260430668" version="2" timestamp="2011-05-29T08:32:13Z" uid="7617" user="Franc" changeset="8278454" lat="-33.9124219" lon="151.1396782">
    <tag k="addr:housenumber" v="244"/>
    <tag k="addr:street" v="Wardell Road"/>
    <tag k="source" v="extrapolation"/>
  </node>
  <node id="1260430669" version="1" timestamp="2011-04-26T05:09:24Z" uid="7617" user="Franc" changeset="7970860" lat="-33.919945" lon="151.1349654"/>
  <node id="1260430670" version="1" timestamp="2011-04-26T05:09:24Z" uid="7617" user="Franc" changeset="7970860" lat="-33.9162412" lon="151.1336095">
    <tag k="addr:housenumber" v="37"/>
    <tag k="addr:street" v="Wardell Road"/>
    <tag k="source" v="survey"/>
  </node>
  <node id="1260430671" version="1" timestamp="2011-04-26T05:09:24Z" uid="7617" user="Franc" changeset="7970860" lat="-33.9252903" lon="151.1296069">
    <tag k="addr:housenumber" v="192"/>
    <tag k="addr:street" v="Wardell Road"/>
    <tag k="source" v="survey"/>
  </node>
  <node id="1260430672" version="1" timestamp="2011-04-26T05:09:24Z" uid="7617" user="Franc" changeset="7970860" lat="-33.9191228" lon="151.1345275"/>
  <node id="1260430673" version="1" timestamp="2011-04-26T05:09:24Z" uid="7617" user="Franc" changeset="7970860" lat="-33.9179898" lon="151.1332127">
    <tag k="addr:housenumber" v="52"/>
    <tag k="addr:street" v="Wardell Road"/>
    <tag k="source" v="survey"/>
  </node>
  <node id="1260430674" version="1" timestamp="2011-04-26T05:09:24Z" uid="7617" user="Franc" changeset="7970860" lat="-33.9154185" lon="151.1344802">
    <tag k="addr:housenumber" v="24"/>
    <tag k="addr:street" v="Wardell Road"/>
    <tag k="fixme" v="find real address"/>
    <tag k="note" v="one of these is probably 24  - other maybe an a/b etc"/>
    <tag k="source" v="approximation"/>
  </node>
  <node id="1260430675" version="1" timestamp="2011-04-26T05:09:24Z" uid="7617" user="Franc" changeset="7970860" lat="-33.9224735" lon="151.1306105">
    <tag k="addr:housenumber" v="141"/>
    <tag k="addr:street" v="Wardell Road"/>
    <tag k="source" v="survey"/>
  </node>
  <node id="1260430676" version="1" timestamp="2011-04-26T05:09:24Z" uid="7617" user="Franc" changeset="7970860" lat="-33.9152616" lon="151.1347575">
    <tag k="addr:housenumber" v="20"/>
    <tag k="addr:street" v="Wardell Road"/>
    <tag k="source" v="survey"/>
  </node>
  <node id="1260430677" version="1" timestamp="2011-04-26T05:09:24Z" uid="7617" user="Franc" changeset="7970860" lat="-33.9228382" lon="151.1303411"/>
  <node id="1260430678" version="1" timestamp="2011-04-26T05:09:24Z" uid="7617" user="Franc" changeset="7970860" lat="-33.9165003" lon="151.1335199">
    <tag k="addr:housenumber" v="41"/>
    <tag k="addr:street" v="Wardell Road"/>
    <tag k="source" v="exrapolation"/>
  </node>
  <node id="1260430678" version="2" timestamp="2011-05-29T08:33:06Z" uid="7617" user="Franc" changeset="8278454" lat="-33.9165003" lon="151.1335199">
    <tag k="addr:housenumber" v="41"/>
    <tag k="addr:street" v="Wardell Road"/>
    <tag k="source" v="extrapolation"/>
  </node>
  <node id="1260430679" version="1" timestamp="2011-04-26T05:09:24Z" uid="7617" user="Franc" changeset="7970860" lat="-33.915811" lon="151.1338935"/>
  <node id="1260430680" version="1" timestamp="2011-04-26T05:09:24Z" uid="7617" user="Franc" changeset="7970860" lat="-33.9141675" lon="151.1371271"/>
  <node id="1260430681" version="1" timestamp="2011-04-26T05:09:25Z" uid="7617" user="Franc" changeset="7970860" lat="-33.9259733" lon="151.1292368">
    <tag k="addr:housenumber" v="191"/>
    <tag k="addr:street" v="Wardell Road"/>
    <tag k="source" v="survey"/>
  </node>
  <node id="1260430682" version="1" timestamp="2011-04-26T05:09:25Z" uid="7617" user="Franc" changeset="7970860" lat="-33.915082" lon="151.1346755">
    <tag k="addr:housenumber" v="19"/>
    <tag k="addr:street" v="Wardell Road"/>
    <tag k="source" v="survey"/>
  </node>
  <node id="1260430683" version="1" timestamp="2011-04-26T05:09:25Z" uid="7617" user="Franc" changeset="7970860" lat="-33.9243493" lon="151.129681">
    <tag k="addr:housenumber" v="182"/>
    <tag k="addr:street" v="Wardell Road"/>
    <tag k="source" v="exrapolation"/>
  </node>
  <node id="1260430683" version="2" timestamp="2011-05-29T08:33:22Z" uid="7617" user="Franc" changeset="8278454" lat="-33.9243493" lon="151.129681">
    <tag k="addr:housenumber" v="182"/>
    <tag k="addr:street" v="Wardell Road"/>
    <tag k="source" v="extrapolation"/>
  </node>
  <node id="1260430684" version="1" timestamp="2011-04-26T05:09:25Z" uid="7617" user="Franc" changeset="7970860" lat="-33.9267951" lon="151.1278551">
    <tag k="addr:housenumber" v="212"/>
    <tag k="addr:street" v="Homer Street"/>
    <tag k="source" v="survey"/>
  </node>
  <node id="1260430685" version="1" timestamp="2011-04-26T05:09:25Z" uid="7617" user="Franc" changeset="7970860" lat="-33.9268665" lon="151.128387">
    <tag k="addr:housenumber" v="202"/>
    <tag k="addr:street" v="Homer Street"/>
    <tag k="source" v="survey"/>
  </node>
  <node id="1260430686" version="1" timestamp="2011-04-26T05:09:25Z" uid="7617" user="Franc" changeset="7970860" lat="-33.9207253" lon="151.1318732">
    <tag k="addr:housenumber" v="109"/>
    <tag k="addr:street" v="Wardell Road"/>
    <tag k="source" v="exrapolation"/>
  </node>
  <node id="1260430686" version="2" timestamp="2011-05-29T08:32:02Z" uid="7617" user="Franc" changeset="8278454" lat="-33.9207253" lon="151.1318732">
    <tag k="addr:housenumber" v="109"/>
    <tag k="addr:street" v="Wardell Road"/>
    <tag k="source" v="extrapolation"/>
  </node>
  <node id="1260430687" version="1" timestamp="2011-04-26T05:09:25Z" uid="7617" user="Franc" changeset="7970860" lat="-33.9192201" lon="151.1329502">
    <tag k="traffic_calming" v="table"/>
  </node>
  <node id="1260430688" version="1" timestamp="2011-04-26T05:09:25Z" uid="7617" user="Franc" changeset="7970860" lat="-33.9190851" lon="151.1330656"/>
  <node id="1260430689" version="1" timestamp="2011-04-26T05:09:25Z" uid="7617" user="Franc" changeset="7970860" lat="-33.9196314" lon="151.1328056">
    <tag k="traffic_calming" v="table"/>
  </node>
  <node id="1260430690" version="1" timestamp="2011-04-26T05:09:25Z" uid="7617" user="Franc" changeset="7970860" lat="-33.9114557" lon="151.1409072"/>
  <node id="1260430691" version="1" timestamp="2011-04-26T05:09:25Z" uid="7617" user="Franc" changeset="7970860" lat="-33.9215343" lon="151.1315513">
    <tag k="addr:housenumber" v="124"/>
    <tag k="addr:street" v="Wardell Road"/>
    <tag k="source" v="survey"/>
  </node>
  <node id="1260430692" version="1" timestamp="2011-04-26T05:09:25Z" uid="7617" user="Franc" changeset="7970860" lat="-33.9262026" lon="151.1294152">
    <tag k="addr:housenumber" v="208"/>
    <tag k="addr:street" v="Wardell Road"/>
    <tag k="source" v="survey"/>
  </node>
  <node id="1260430693" version="1" timestamp="2011-04-26T05:09:25Z" uid="7617" user="Franc" changeset="7970860" lat="-33.9193862" lon="151.1348101"/>
  <node id="1260430694" version="1" timestamp="2011-04-26T05:09:25Z" uid="7617" user="Franc" changeset="7970860" lat="-33.9178897" lon="151.1330137">
    <tag k="addr:housenumber" v="63a"/>
    <tag k="addr:street" v="Wardell Road"/>
    <tag k="source" v="survey"/>
  </node>
  <node id="1260430695" version="1" timestamp="2011-04-26T05:09:26Z" uid="7617" user="Franc" changeset="7970860" lat="-33.9244539" lon="151.1296603">
    <tag k="addr:housenumber" v="184"/>
    <tag k="addr:street" v="Wardell Road"/>
    <tag k="source" v="exrapolation"/>
  </node>
  <node id="1260430695" version="2" timestamp="2011-05-29T08:33:27Z" uid="7617" user="Franc" changeset="8278454" lat="-33.9244539" lon="151.1296603">
    <tag k="addr:housenumber" v="184"/>
    <tag k="addr:street" v="Wardell Road"/>
    <tag k="source" v="extrapolation"/>
  </node>
  <node id="1260430696" version="1" timestamp="2011-04-26T05:09:26Z" uid="7617" user="Franc" changeset="7970860" lat="-33.9191329" lon="151.1343478"/>
  <node id="1260430697" version="1" timestamp="2011-04-26T05:09:26Z" uid="7617" user="Franc" changeset="7970860" lat="-33.9240211" lon="151.129617">
    <tag k="addr:housenumber" v="167"/>
    <tag k="addr:street" v="Wardell Road"/>
    <tag k="source" v="exrapolation"/>
  </node>
  <node id="1260430697" version="2" timestamp="2011-05-29T08:32:31Z" uid="7617" user="Franc" changeset="8278454" lat="-33.9240211" lon="151.129617">
    <tag k="addr:housenumber" v="167"/>
    <tag k="addr:street" v="Wardell Road"/>
    <tag k="source" v="extrapolation"/>
  </node>
  <node id="1260430698" version="1" timestamp="2011-04-26T05:09:26Z" uid="7617" user="Franc" changeset="7970860" lat="-33.913481" lon="151.1377702"/>
  <node id="1260430699" version="1" timestamp="2011-04-26T05:09:26Z" uid="7617" user="Franc" changeset="7970860" lat="-33.9268388" lon="151.1281571">
    <tag k="addr:housenumber" v="210"/>
    <tag k="addr:street" v="Homer Street"/>
    <tag k="source" v="survey"/>
  </node>
  <node id="1260430700" version="1" timestamp="2011-04-26T05:09:26Z" uid="7617" user="Franc" changeset="7970860" lat="-33.9203688" lon="151.1321322">
    <tag k="addr:housenumber" v="103"/>
    <tag k="addr:street" v="Wardell Road"/>
    <tag k="source" v="exrapolation"/>
  </node>
  <node id="1260430700" version="2" timestamp="2011-05-29T08:32:59Z" uid="7617" user="Franc" changeset="8278454" lat="-33.9203688" lon="151.1321322">
    <tag k="addr:housenumber" v="103"/>
    <tag k="addr:street" v="Wardell Road"/>
    <tag k="source" v="extrapolation"/>
  </node>
  <node id="1260430701" version="1" timestamp="2011-04-26T05:09:26Z" uid="7617" user="Franc" changeset="7970860" lat="-33.919738" lon="151.1349026"/>
  <node id="1260430702" version="1" timestamp="2011-04-26T05:09:26Z" uid="7617" user="Franc" changeset="7970860" lat="-33.9191922" lon="151.1330516">
    <tag k="addr:housenumber" v="76"/>
    <tag k="addr:street" v="Wardell Road"/>
    <tag k="source" v="exrapolation"/>
  </node>
  <node id="1260430702" version="2" timestamp="2011-05-29T08:33:10Z" uid="7617" user="Franc" changeset="8278454" lat="-33.9191922" lon="151.1330516">
    <tag k="addr:housenumber" v="76"/>
    <tag k="addr:street" v="Wardell Road"/>
    <tag k="source" v="extrapolation"/>
  </node>
  <node id="1260430703" version="1" timestamp="2011-04-26T05:09:26Z" uid="7617" user="Franc" changeset="7970860" lat="-33.9251504" lon="151.1294111">
    <tag k="addr:housenumber" v="179"/>
    <tag k="addr:street" v="Wardell Road"/>
    <tag k="source" v="exrapolation"/>
  </node>
  <node id="1260430703" version="2" timestamp="2011-05-29T08:32:20Z" uid="7617" user="Franc" changeset="8278454" lat="-33.9251504" lon="151.1294111">
    <tag k="addr:housenumber" v="179"/>
    <tag k="addr:street" v="Wardell Road"/>
    <tag k="source" v="extrapolation"/>
  </node>
  <node id="1260430704" version="1" timestamp="2011-04-26T05:09:26Z" uid="7617" user="Franc" changeset="7970860" lat="-33.918864" lon="151.1331007">
    <tag k="addr:housenumber" v="68"/>
    <tag k="addr:street" v="Wardell Road"/>
    <tag k="source" v="survey"/>
  </node>
  <node id="1260430705" version="1" timestamp="2011-04-26T05:09:26Z" uid="7617" user="Franc" changeset="7970860" lat="-33.925056" lon="151.1294322">
    <tag k="addr:housenumber" v="177"/>
    <tag k="addr:street" v="Wardell Road"/>
    <tag k="source" v="exrapolation"/>
  </node>
  <node id="1260430705" version="2" timestamp="2011-05-29T08:33:14Z" uid="7617" user="Franc" changeset="8278454" lat="-33.925056" lon="151.1294322">
    <tag k="addr:housenumber" v="177"/>
    <tag k="addr:street" v="Wardell Road"/>
    <tag k="source" v="extrapolation"/>
  </node>
  <node id="1260433404" version="1" timestamp="2011-04-26T05:29:09Z" uid="7617" user="Franc" changeset="7970943" lat="-33.9200011" lon="151.1346067"/>
  <node id="1260433405" version="1" timestamp="2011-04-26T05:29:09Z" uid="7617" user="Franc" changeset="7970943" lat="-33.9198262" lon="151.1344595"/>
  <node id="1260433406" version="1" timestamp="2011-04-26T05:29:09Z" uid="7617" user="Franc" changeset="7970943" lat="-33.9197312" lon="151.134534"/>
  <node id="1260433407" version="1" timestamp="2011-04-26T05:29:10Z" uid="7617" user="Franc" changeset="7970943" lat="-33.919971" lon="151.1343069"/>
  <node id="1260433408" version="1" timestamp="2011-04-26T05:29:10Z" uid="7617" user="Franc" changeset="7970943" lat="-33.919983" lon="151.1343559"/>
  <node id="1260433409" version="1" timestamp="2011-04-26T05:29:10Z" uid="7617" user="Franc" changeset="7970943" lat="-33.9198006" lon="151.1344595"/>
  <node id="1260433410" version="1" timestamp="2011-04-26T05:29:10Z" uid="7617" user="Franc" changeset="7970943" lat="-33.9197659" lon="151.1344777"/>
  <node id="1260433411" version="1" timestamp="2011-04-26T05:29:10Z" uid="7617" user="Franc" changeset="7970943" lat="-33.9199453" lon="151.1342687"/>
  <node id="1260434640" version="1" timestamp="2011-04-26T05:31:56Z" uid="7617" user="Franc" changeset="7970954" lat="-33.9166968" lon="151.135698">
    <tag k="addr:housenumber" v="124"/>
    <tag k="addr:street" v="Riverview Road"/>
    <tag k="source" v="exrapolation"/>
  </node>
  <node id="1260434640" version="2" timestamp="2011-05-29T08:31:50Z" uid="7617" user="Franc" changeset="8278454" lat="-33.9166968" lon="151.135698">
    <tag k="addr:housenumber" v="124"/>
    <tag k="addr:street" v="Riverview Road"/>
    <tag k="source" v="extrapolation"/>
  </node>
  <node id="1260434641" version="1" timestamp="2011-04-26T05:31:56Z" uid="7617" user="Franc" changeset="7970954" lat="-33.9179055" lon="151.1355069">
    <tag k="addr:housenumber" v="104"/>
    <tag k="addr:street" v="Riverview Road"/>
    <tag k="source" v="exrapolation"/>
  </node>
  <node id="1260434641" version="2" timestamp="2011-05-29T08:32:49Z" uid="7617" user="Franc" changeset="8278454" lat="-33.9179055" lon="151.1355069">
    <tag k="addr:housenumber" v="104"/>
    <tag k="addr:street" v="Riverview Road"/>
    <tag k="source" v="extrapolation"/>
  </node>
  <node id="1260434642" version="1" timestamp="2011-04-26T05:31:56Z" uid="7617" user="Franc" changeset="7970954" lat="-33.9168964" lon="151.1356862">
    <tag k="addr:housenumber" v="122"/>
    <tag k="addr:street" v="Riverview Road"/>
    <tag k="source" v="exrapolation"/>
  </node>
  <node id="1260434642" version="2" timestamp="2011-05-29T08:32:02Z" uid="7617" user="Franc" changeset="8278454" lat="-33.9168964" lon="151.1356862">
    <tag k="addr:housenumber" v="122"/>
    <tag k="addr:street" v="Riverview Road"/>
    <tag k="source" v="extrapolation"/>
  </node>
  <node id="1260438336" version="1" timestamp="2011-04-26T05:49:56Z" uid="7617" user="Franc" changeset="7971054" lat="-33.9235114" lon="151.1315989">
    <tag k="leisure" v="playground"/>
  </node>
  <node id="1260438337" version="1" timestamp="2011-04-26T05:49:56Z" uid="7617" user="Franc" changeset="7971054" lat="-33.9203808" lon="151.1305828"/>
  <node id="1260438338" version="1" timestamp="2011-04-26T05:49:56Z" uid="7617" user="Franc" changeset="7971054" lat="-33.9219456" lon="151.1284271"/>
  <node id="1260438339" version="1" timestamp="2011-04-26T05:49:56Z" uid="7617" user="Franc" changeset="7971054" lat="-33.9213692" lon="151.1282847"/>
  <node id="1260438340" version="1" timestamp="2011-04-26T05:49:57Z" uid="7617" user="Franc" changeset="7971054" lat="-33.920711" lon="151.130311"/>
  <node id="1260438341" version="1" timestamp="2011-04-26T05:49:57Z" uid="7617" user="Franc" changeset="7971054" lat="-33.9202259" lon="151.1322517">
    <tag k="traffic_calming" v="table"/>
  </node>
  <node id="1260438342" version="1" timestamp="2011-04-26T05:49:57Z" uid="7617" user="Franc" changeset="7971054" lat="-33.9214225" lon="151.128087"/>
</osm>
