<?xml version='1.0' encoding='UTF-8'?>
<osm version="0.6" generator="libosmium/2.20.0">
  <node id="126123967" version="4" timestamp="2009-05-01T21:06:33Z" uid="20587" user="balrog-kun" changeset="1042396" lat="52.9951591" lon="15.2184309">
    <tag k="addr:postcode" v="74-320"/>
    <tag k="created_by" v="JOSM"/>
    <tag k="is_in" v="powiat myśliborski, województwo zachodniopomorskie, Poland"/>
    <tag k="is_in:country" v="Poland"/>
    <tag k="is_in:county" v="powiat myśliborski"/>
    <tag k="is_in:municipality" v="gmina Barlinek"/>
    <tag k="is_in:province" v="województwo zachodniopomorskie"/>
    <tag k="name" v="Barlinek"/>
    <tag k="place" v="town"/>
    <tag k="population" v="14175"/>
    <tag k="source:population" v="wikipedia"/>
    <tag k="teryt:rm" v="96"/>
    <tag k="teryt:simc" v="0935268"/>
    <tag k="teryt:stan_na" v="2009-01-01"/>
    <tag k="teryt:terc" v="3210014"/>
    <tag k="teryt:updated_by" v="teryt2osm combine.py v. 36M"/>
    <tag k="wikipedia" v="Barlinek"/>
  </node>
  <node id="126123967" version="7" timestamp="2010-04-11T04:37:36Z" uid="20587" user="balrog-kun" changeset="4389130" lat="52.9964254" lon="15.2178756">
    <tag k="addr:postcode" v="74-320"/>
    <tag k="is_in" v="powiat myśliborski, województwo zachodniopomorskie, Poland"/>
    <tag k="is_in:country" v="Poland"/>
    <tag k="is_in:county" v="powiat myśliborski"/>
    <tag k="is_in:municipality" v="gmina Barlinek"/>
    <tag k="is_in:province" v="województwo zachodniopomorskie"/>
    <tag k="name" v="Barlinek"/>
    <tag k="place" v="town"/>
    <tag k="population" v="14175"/>
    <tag k="source:population" v="wikipedia"/>
    <tag k="teryt:rm" v="96"/>
    <tag k="teryt:simc" v="0935268"/>
    <tag k="teryt:stan_na" v="2009-01-01"/>
    <tag k="teryt:terc" v="3210014"/>
    <tag k="teryt:updated_by" v="teryt2osm combine.py v. 49"/>
    <tag k="wikipedia" v="Barlinek"/>
  </node>
  <node id="126127062" version="5" timestamp="2009-04-10T20:29:29Z" uid="110593" user="esetzer" changeset="395521" lat="40.7704727" lon="-111.8930891">
    <tag k="amenity" v="place_of_worship"/>
    <tag k="created_by" v="Potlatch 0.10f"/>
    <tag k="denomination" v="mormon"/>
    <tag k="historic" v="yes"/>
    <tag k="name" v="Salt Lake Tabernacle"/>
    <tag k="religion" v="christian"/>
  </node>
</osm>
