<?xml version='1.0' encoding='UTF-8'?>
<osm version="0.6" generator="libosmium/2.20.0">
  <node id="1264780390" version="1" timestamp="2011-04-29T11:16:38Z" uid="7617" user="Franc" changeset="8002541" lat="-33.9101886" lon="151.1558803">
    <tag k="addr:housenumber" v="263"/>
    <tag k="addr:street" v="Marrickville Road"/>
    <tag k="source" v="survey"/>
  </node>
  <node id="1264780393" version="1" timestamp="2011-04-29T11:16:38Z" uid="7617" user="Franc" changeset="8002541" lat="-33.90479" lon="151.1566352">
    <tag k="addr:housenumber" v="239"/>
    <tag k="addr:street" v="Sydenham Road"/>
    <tag k="source" v="extrapolation"/>
  </node>
  <node id="1264780396" version="1" timestamp="2011-04-29T11:16:38Z" uid="7617" user="Franc" changeset="8002541" lat="-33.9047374" lon="151.1565744">
    <tag k="addr:housenumber" v="241"/>
    <tag k="addr:street" v="Sydenham Road"/>
    <tag k="source" v="survey"/>
  </node>
  <node id="1264780398" version="1" timestamp="2011-04-29T11:16:38Z" uid="7617" user="Franc" changeset="8002541" lat="-33.9050164" lon="151.1568505">
    <tag k="addr:housenumber" v="233"/>
    <tag k="addr:street" v="Sydenham Road"/>
    <tag k="source" v="extrapolation"/>
  </node>
  <node id="1264780401" version="1" timestamp="2011-04-29T11:16:38Z" uid="7617" user="Franc" changeset="8002541" lat="-33.9058917" lon="151.1576824">
    <tag k="addr:housenumber" v="213"/>
    <tag k="addr:street" v="Sydenham Road"/>
    <tag k="source" v="extrapolation"/>
  </node>
  <node id="1264780403" version="1" timestamp="2011-04-29T11:16:38Z" uid="7617" user="Franc" changeset="8002541" lat="-33.9102238" lon="151.1559604">
    <tag k="addr:housenumber" v="259"/>
    <tag k="addr:street" v="Marrickville Road"/>
    <tag k="source" v="survey"/>
  </node>
  <node id="1264780407" version="1" timestamp="2011-04-29T11:16:38Z" uid="7617" user="Franc" changeset="8002541" lat="-33.9044132" lon="151.1562782">
    <tag k="addr:housenumber" v="247"/>
    <tag k="addr:street" v="Sydenham Road"/>
    <tag k="source" v="extrapolation"/>
  </node>
  <node id="1264780410" version="1" timestamp="2011-04-29T11:16:38Z" uid="7617" user="Franc" changeset="8002541" lat="-33.9102464" lon="151.1560084">
    <tag k="addr:housenumber" v="257"/>
    <tag k="addr:street" v="Marrickville Road"/>
    <tag k="source" v="extrapolation"/>
  </node>
  <node id="1264780411" version="1" timestamp="2011-04-29T11:16:39Z" uid="7617" user="Franc" changeset="8002541" lat="-33.9042046" lon="151.156076">
    <tag k="addr:housenumber" v="255"/>
    <tag k="addr:street" v="Sydenham Road"/>
    <tag k="source" v="survey"/>
  </node>
  <node id="1264780414" version="1" timestamp="2011-04-29T11:16:39Z" uid="7617" user="Franc" changeset="8002541" lat="-33.9056394" lon="151.15744">
    <tag k="addr:housenumber" v="219"/>
    <tag k="addr:street" v="Sydenham Road"/>
    <tag k="source" v="extrapolation"/>
  </node>
  <node id="1264780417" version="1" timestamp="2011-04-29T11:16:39Z" uid="7617" user="Franc" changeset="8002541" lat="-33.9062061" lon="151.1579785">
    <tag k="addr:housenumber" v="205"/>
    <tag k="addr:street" v="Sydenham Road"/>
    <tag k="source" v="extrapolation"/>
  </node>
  <node id="1264780421" version="1" timestamp="2011-04-29T11:16:39Z" uid="7617" user="Franc" changeset="8002541" lat="-33.9042635" lon="151.1561386">
    <tag k="addr:housenumber" v="253"/>
    <tag k="addr:street" v="Sydenham Road"/>
    <tag k="source" v="extrapolation"/>
  </node>
  <node id="1264780423" version="1" timestamp="2011-04-29T11:16:39Z" uid="7617" user="Franc" changeset="8002541" lat="-33.9064526" lon="151.1582123">
    <tag k="addr:housenumber" v="199"/>
    <tag k="addr:street" v="Sydenham Road"/>
    <tag k="source" v="extrapolation"/>
  </node>
  <node id="1264780425" version="1" timestamp="2011-04-29T11:16:39Z" uid="7617" user="Franc" changeset="8002541" lat="-33.8911222" lon="151.1752577">
    <tag k="addr:housenumber" v="86"/>
    <tag k="addr:street" v="Deinson Street"/>
    <tag k="source" v="survey"/>
  </node>
  <node id="1264780428" version="1" timestamp="2011-04-29T11:16:39Z" uid="7617" user="Franc" changeset="8002541" lat="-33.9066893" lon="151.1584361">
    <tag k="addr:housenumber" v="195"/>
    <tag k="addr:street" v="Syndenham Road"/>
    <tag k="source" v="survey"/>
  </node>
  <node id="1264780433" version="1" timestamp="2011-04-29T11:16:39Z" uid="7617" user="Franc" changeset="8002541" lat="-33.9049539" lon="151.1567862">
    <tag k="addr:housenumber" v="235"/>
    <tag k="addr:street" v="Sydenham Road"/>
    <tag k="source" v="extrapolation"/>
  </node>
  <node id="1264780434" version="1" timestamp="2011-04-29T11:16:39Z" uid="7617" user="Franc" changeset="8002541" lat="-33.9053842" lon="151.1571993">
    <tag k="addr:housenumber" v="225"/>
    <tag k="addr:street" v="Sydenham Road"/>
    <tag k="source" v="survey"/>
  </node>
  <node id="1264780435" version="1" timestamp="2011-04-29T11:16:39Z" uid="7617" user="Franc" changeset="8002541" lat="-33.9102717" lon="151.1560621">
    <tag k="addr:housenumber" v="255"/>
    <tag k="addr:street" v="Marrickville Road"/>
    <tag k="source" v="survey"/>
  </node>
  <node id="1264780438" version="1" timestamp="2011-04-29T11:16:39Z" uid="7617" user="Franc" changeset="8002541" lat="-33.9055572" lon="151.1573603">
    <tag k="addr:housenumber" v="221"/>
    <tag k="addr:street" v="Sydenham Road"/>
    <tag k="source" v="extrapolation"/>
  </node>
  <node id="1264780445" version="1" timestamp="2011-04-29T11:16:40Z" uid="7617" user="Franc" changeset="8002541" lat="-33.9099839" lon="151.1555085">
    <tag k="name" v="LiquorLand"/>
    <tag k="shop" v="alcohol"/>
  </node>
  <node id="1264780446" version="1" timestamp="2011-04-29T11:16:40Z" uid="7617" user="Franc" changeset="8002541" lat="-33.9057951" lon="151.1575889">
    <tag k="addr:housenumber" v="215"/>
    <tag k="addr:street" v="Sydenham Road"/>
    <tag k="source" v="extrapolation"/>
  </node>
  <node id="1264780447" version="1" timestamp="2011-04-29T11:16:40Z" uid="7617" user="Franc" changeset="8002541" lat="-33.9063704" lon="151.1581344">
    <tag k="addr:housenumber" v="201"/>
    <tag k="addr:street" v="Sydenham Road"/>
    <tag k="source" v="extrapolation"/>
  </node>
  <node id="1264780448" version="1" timestamp="2011-04-29T11:16:40Z" uid="7617" user="Franc" changeset="8002541" lat="-33.9043675" lon="151.1562356">
    <tag k="addr:housenumber" v="249"/>
    <tag k="addr:street" v="Sydenham Road"/>
    <tag k="source" v="extrapolation"/>
  </node>
  <node id="1264780456" version="1" timestamp="2011-04-29T11:16:40Z" uid="7617" user="Franc" changeset="8002541" lat="-33.9037147" lon="151.1556123">
    <tag k="addr:housenumber" v="259"/>
    <tag k="addr:street" v="Sydenham Road"/>
    <tag k="source" v="extrapolation"/>
  </node>
  <node id="1264780458" version="1" timestamp="2011-04-29T11:16:40Z" uid="7617" user="Franc" changeset="8002541" lat="-33.9103514" lon="151.1562327">
    <tag k="addr:housenumber" v="249"/>
    <tag k="addr:street" v="Marrickville Road"/>
    <tag k="source" v="survey"/>
  </node>
  <node id="1264780459" version="1" timestamp="2011-04-29T11:16:40Z" uid="7617" user="Franc" changeset="8002541" lat="-33.9051301" lon="151.15696">
    <tag k="addr:housenumber" v="229"/>
    <tag k="addr:street" v="Sydenham Road"/>
    <tag k="source" v="extrapolation"/>
  </node>
  <node id="1264780466" version="1" timestamp="2011-04-29T11:16:40Z" uid="7617" user="Franc" changeset="8002541" lat="-33.9061239" lon="151.1579006">
    <tag k="addr:housenumber" v="207"/>
    <tag k="addr:street" v="Sydenham Road"/>
    <tag k="source" v="extrapolation"/>
  </node>
  <node id="1264780468" version="1" timestamp="2011-04-29T11:16:40Z" uid="7617" user="Franc" changeset="8002541" lat="-33.9103268" lon="151.156179">
    <tag k="addr:housenumber" v="251"/>
    <tag k="addr:street" v="Marrickville Road"/>
    <tag k="source" v="extrapolation"/>
  </node>
  <node id="1264780469" version="1" timestamp="2011-04-29T11:16:40Z" uid="7617" user="Franc" changeset="8002541" lat="-33.90413" lon="151.1560137">
    <tag k="addr:housenumber" v="257"/>
    <tag k="addr:street" v="Sydenham Road"/>
    <tag k="source" v="survey"/>
  </node>
  <node id="1264780470" version="1" timestamp="2011-04-29T11:16:40Z" uid="7617" user="Franc" changeset="8002541" lat="-33.9036568" lon="151.1555487">
    <tag k="addr:housenumber" v="261"/>
    <tag k="addr:street" v="Sydenham Road"/>
    <tag k="source" v="extrapolation"/>
  </node>
  <node id="1264780474" version="1" timestamp="2011-04-29T11:16:41Z" uid="7617" user="Franc" changeset="8002541" lat="-33.9051955" lon="151.1570242">
    <tag k="addr:housenumber" v="227"/>
    <tag k="addr:street" v="Sydenham Road"/>
    <tag k="source" v="extrapolation"/>
  </node>
  <node id="1264780475" version="1" timestamp="2011-04-29T11:16:41Z" uid="7617" user="Franc" changeset="8002541" lat="-33.905713" lon="151.157511">
    <tag k="addr:housenumber" v="217"/>
    <tag k="addr:street" v="Sydenham Road"/>
    <tag k="source" v="extrapolation"/>
  </node>
  <node id="1264780476" version="1" timestamp="2011-04-29T11:16:41Z" uid="7617" user="Franc" changeset="8002541" lat="-33.9102059" lon="151.1559204">
    <tag k="addr:housenumber" v="261"/>
    <tag k="addr:street" v="Marrickville Road"/>
    <tag k="source" v="survey"/>
  </node>
  <node id="1264780477" version="1" timestamp="2011-04-29T11:16:41Z" uid="7617" user="Franc" changeset="8002541" lat="-33.9043124" lon="151.1561842">
    <tag k="addr:housenumber" v="251"/>
    <tag k="addr:street" v="Sydenham Road"/>
    <tag k="source" v="extrapolation"/>
  </node>
  <node id="1264780478" version="1" timestamp="2011-04-29T11:16:41Z" uid="7617" user="Franc" changeset="8002541" lat="-33.9035989" lon="151.1554976">
    <tag k="addr:housenumber" v="263"/>
    <tag k="addr:street" v="Sydenham Road"/>
    <tag k="source" v="survey"/>
  </node>
  <node id="1264780479" version="1" timestamp="2011-04-29T11:16:41Z" uid="7617" user="Franc" changeset="8002541" lat="-33.9054664" lon="151.1572772">
    <tag k="addr:housenumber" v="223"/>
    <tag k="addr:street" v="Sydenham Road"/>
    <tag k="source" v="extrapolation"/>
  </node>
  <node id="1264780480" version="1" timestamp="2011-04-29T11:16:41Z" uid="7617" user="Franc" changeset="8002541" lat="-33.9050647" lon="151.1568957">
    <tag k="addr:housenumber" v="231"/>
    <tag k="addr:street" v="Sydenham Road"/>
    <tag k="source" v="extrapolation"/>
  </node>
  <node id="1264780481" version="1" timestamp="2011-04-29T11:16:41Z" uid="7617" user="Franc" changeset="8002541" lat="-33.9060474" lon="151.1578279">
    <tag k="addr:housenumber" v="209"/>
    <tag k="addr:street" v="Sydenham Road"/>
    <tag k="source" v="extrapolation"/>
  </node>
  <node id="1264780482" version="1" timestamp="2011-04-29T11:16:41Z" uid="7617" user="Franc" changeset="8002541" lat="-33.8896446" lon="151.1753261">
    <tag k="highway" v="crossing"/>
  </node>
  <node id="1264780483" version="1" timestamp="2011-04-29T11:16:41Z" uid="7617" user="Franc" changeset="8002541" lat="-33.9045263" lon="151.1563838">
    <tag k="addr:housenumber" v="243"/>
    <tag k="addr:street" v="Sydenham Road"/>
    <tag k="source" v="extrapolation"/>
  </node>
  <node id="1264780484" version="1" timestamp="2011-04-29T11:16:41Z" uid="7617" user="Franc" changeset="8002541" lat="-33.9048597" lon="151.1566994">
    <tag k="addr:housenumber" v="237"/>
    <tag k="addr:street" v="Sydenham Road"/>
    <tag k="source" v="extrapolation"/>
  </node>
  <node id="1264780487" version="1" timestamp="2011-04-29T11:16:41Z" uid="7617" user="Franc" changeset="8002541" lat="-33.9103016" lon="151.1561222">
    <tag k="addr:housenumber" v="253"/>
    <tag k="addr:street" v="Marrickville Road"/>
    <tag k="source" v="survey"/>
  </node>
  <node id="1264780491" version="1" timestamp="2011-04-29T11:16:42Z" uid="7617" user="Franc" changeset="8002541" lat="-33.9059638" lon="151.1577551">
    <tag k="addr:housenumber" v="211"/>
    <tag k="addr:street" v="Sydenham Road"/>
    <tag k="source" v="extrapolation"/>
  </node>
  <node id="1264780492" version="1" timestamp="2011-04-29T11:16:42Z" uid="7617" user="Franc" changeset="8002541" lat="-33.9044669" lon="151.1563283">
    <tag k="addr:housenumber" v="245"/>
    <tag k="addr:street" v="Sydenham Road"/>
    <tag k="source" v="extrapolation"/>
  </node>
  <node id="1264780494" version="1" timestamp="2011-04-29T11:16:42Z" uid="7617" user="Franc" changeset="8002541" lat="-33.8903249" lon="151.174783">
    <tag k="addr:housenumber" v="63"/>
    <tag k="addr:street" v="Deinson Street"/>
    <tag k="source" v="survey"/>
  </node>
  <node id="1264780501" version="1" timestamp="2011-04-29T11:16:42Z" uid="7617" user="Franc" changeset="8002541" lat="-33.9062882" lon="151.1580564">
    <tag k="addr:housenumber" v="203"/>
    <tag k="addr:street" v="Sydenham Road"/>
    <tag k="source" v="extrapolation"/>
  </node>
</osm>
