<?xml version='1.0' encoding='UTF-8'?>
<osm version="0.6" generator="libosmium/2.20.0">
  <node id="12710110" version="3" timestamp="2008-09-14T20:21:34Z" uid="6975" user="ulfl" changeset="640534" lat="52.080183" lon="-0.6026242">
    <tag k="leisure" v="pitch"/>
    <tag k="name" v="Cranfield United"/>
    <tag k="notes" v="Crawley Road"/>
    <tag k="source" v="GPS waypoint"/>
    <tag k="sport" v="football"/>
    <tag k="upload_tag" v="ojw_cranfield"/>
  </node>
  <node id="12710110" version="7" timestamp="2010-06-29T19:01:18Z" uid="74617" user="JohnSmith" changeset="5108182" lat="52.0801744" lon="-0.6027079">
    <tag k="fixme" v="sport=football is ambiguous, see http://wiki.osm.org/wiki/Football for more details"/>
    <tag k="leisure" v="pitch"/>
    <tag k="name" v="Cranfield United"/>
    <tag k="source" v="GPS waypoint"/>
    <tag k="sport" v="football"/>
  </node>
  <node id="12710118" version="2" timestamp="2008-02-16T19:23:57Z" uid="6975" user="ulfl" changeset="141861" lat="52.0730272" lon="-0.6023432">
    <tag k="name" v="Coop"/>
    <tag k="notes" v="high street to NE"/>
    <tag k="shop" v="supermarket"/>
    <tag k="source" v="GPS waypoint"/>
    <tag k="upload_tag" v="ojw_cranfield"/>
  </node>
  <node id="12710127" version="2" timestamp="2008-07-03T18:48:33Z" uid="6975" user="ulfl" changeset="379368" lat="52.068255" lon="-0.607674">
    <tag k="amenity" v="place_of_worship"/>
    <tag k="name" v="St Peter and St Paul"/>
    <tag k="notes" v="Court Road"/>
    <tag k="source" v="GPS waypoint"/>
    <tag k="upload_tag" v="ojw_cranfield"/>
  </node>
  <node id="12710134" version="3" timestamp="2008-02-16T19:23:57Z" uid="6975" user="ulfl" changeset="141861" lat="52.0681409" lon="-0.6107171">
    <tag k="name" v="Budgens"/>
    <tag k="shop" v="supermarket"/>
    <tag k="source" v="GPS waypoint"/>
    <tag k="upload_tag" v="ojw_cranfield"/>
  </node>
  <node id="12711869" version="2" timestamp="2008-09-24T20:50:17Z" uid="6975" user="ulfl" changeset="690442" lat="52.0686102" lon="-0.6074007">
    <tag k="amenity" v="church_hall"/>
  </node>
  <node id="12714727" version="2" timestamp="2008-02-16T20:04:02Z" uid="6975" user="ulfl" changeset="141861" lat="52.0741247" lon="-0.6291996">
    <tag k="amenity" v="atm"/>
  </node>
</osm>
