<?xml version='1.0' encoding='UTF-8'?>
<osm version="0.6" generator="libosmium/2.20.0">
  <node id="1275621125" version="1" timestamp="2011-05-07T09:03:20Z" uid="7617" user="Franc" changeset="8071691" lat="-33.9131802" lon="151.1319998">
    <tag k="addr:housenumber" v="168"/>
    <tag k="addr:street" v="Duntroon Street"/>
    <tag k="source" v="survey"/>
  </node>
  <node id="1275621126" version="1" timestamp="2011-05-07T09:03:20Z" uid="7617" user="Franc" changeset="8071691" lat="-33.9075627" lon="151.1447706"/>
  <node id="1275621127" version="1" timestamp="2011-05-07T09:03:20Z" uid="7617" user="Franc" changeset="8071691" lat="-33.9043057" lon="151.1416664">
    <tag k="addr:housenumber" v="4"/>
    <tag k="addr:street" v="Hercules Street"/>
    <tag k="source" v="survey"/>
  </node>
  <node id="1275621128" version="1" timestamp="2011-05-07T09:03:20Z" uid="7617" user="Franc" changeset="8071691" lat="-33.9097773" lon="151.1365626"/>
  <node id="1275621129" version="1" timestamp="2011-05-07T09:03:20Z" uid="7617" user="Franc" changeset="8071691" lat="-33.9173143" lon="151.1449329">
    <tag k="addr:housenumber" v="48-50"/>
    <tag k="addr:street" v="Hill Street"/>
    <tag k="source" v="survey"/>
  </node>
  <node id="1275621130" version="1" timestamp="2011-05-07T09:03:20Z" uid="7617" user="Franc" changeset="8071691" lat="-33.909693" lon="151.1365426"/>
  <node id="1275621131" version="1" timestamp="2011-05-07T09:03:20Z" uid="7617" user="Franc" changeset="8071691" lat="-33.9096137" lon="151.1472234">
    <tag k="addr:housenumber" v="44"/>
    <tag k="addr:street" v="Pine Street"/>
    <tag k="source" v="exrapolation"/>
  </node>
  <node id="1275621131" version="2" timestamp="2011-05-29T08:33:23Z" uid="7617" user="Franc" changeset="8278454" lat="-33.9096137" lon="151.1472234">
    <tag k="addr:housenumber" v="44"/>
    <tag k="addr:street" v="Pine Street"/>
    <tag k="source" v="extrapolation"/>
  </node>
  <node id="1275621132" version="1" timestamp="2011-05-07T09:03:21Z" uid="7617" user="Franc" changeset="8071691" lat="-33.9062233" lon="151.1389073"/>
  <node id="1275621133" version="1" timestamp="2011-05-07T09:03:21Z" uid="7617" user="Franc" changeset="8071691" lat="-33.9091528" lon="151.1429047">
    <tag k="addr:housenumber" v="207"/>
    <tag k="addr:street" v="Wardell Road"/>
    <tag k="source" v="survey"/>
  </node>
  <node id="1275621134" version="1" timestamp="2011-05-07T09:03:21Z" uid="7617" user="Franc" changeset="8071691" lat="-33.909787" lon="151.1348598">
    <tag k="addr:housenumber" v="101"/>
    <tag k="addr:street" v="Ewart Street"/>
    <tag k="source" v="survey"/>
  </node>
  <node id="1275621135" version="1" timestamp="2011-05-07T09:03:21Z" uid="7617" user="Franc" changeset="8071691" lat="-33.9098091" lon="151.1362014">
    <tag k="traffic_calming" v="table"/>
  </node>
  <node id="1275621136" version="1" timestamp="2011-05-07T09:03:21Z" uid="7617" user="Franc" changeset="8071691" lat="-33.9116896" lon="151.1323073">
    <tag k="addr:housenumber" v="136"/>
    <tag k="addr:street" v="Duntroon Street"/>
    <tag k="source" v="survey"/>
  </node>
  <node id="1275621137" version="1" timestamp="2011-05-07T09:03:21Z" uid="7617" user="Franc" changeset="8071691" lat="-33.904605" lon="151.1408847">
    <tag k="addr:housenumber" v="12"/>
    <tag k="addr:street" v="Hercules Street"/>
    <tag k="source" v="survey"/>
  </node>
  <node id="1275621138" version="1" timestamp="2011-05-07T09:03:21Z" uid="7617" user="Franc" changeset="8071691" lat="-33.9088191" lon="151.1461629">
    <tag k="addr:housenumber" v="22"/>
    <tag k="addr:street" v="Pine Street"/>
    <tag k="source" v="survey"/>
  </node>
  <node id="1275621139" version="1" timestamp="2011-05-07T09:03:21Z" uid="7617" user="Franc" changeset="8071691" lat="-33.9099596" lon="151.1351278">
    <tag k="addr:housenumber" v="142"/>
    <tag k="addr:street" v="Ewart Street"/>
    <tag k="source" v="survey"/>
  </node>
  <node id="1275621140" version="1" timestamp="2011-05-07T09:03:21Z" uid="7617" user="Franc" changeset="8071691" lat="-33.9044654" lon="151.1418141">
    <tag k="addr:housenumber" v="5"/>
    <tag k="addr:street" v="Hercules Street"/>
    <tag k="source" v="survey"/>
  </node>
  <node id="1275621142" version="1" timestamp="2011-05-07T09:03:21Z" uid="7617" user="Franc" changeset="8071691" lat="-33.9071241" lon="151.1388045">
    <tag k="addr:housenumber" v="60"/>
    <tag k="addr:street" v="Hercules Street"/>
    <tag k="source" v="survey"/>
  </node>
  <node id="1275621143" version="1" timestamp="2011-05-07T09:03:21Z" uid="7617" user="Franc" changeset="8071691" lat="-33.910289" lon="151.1417775">
    <tag k="addr:housenumber" v="231"/>
    <tag k="addr:street" v="Wardell Road"/>
    <tag k="source" v="survey"/>
  </node>
  <node id="1275621144" version="1" timestamp="2011-05-07T09:03:22Z" uid="7617" user="Franc" changeset="8071691" lat="-33.9113721" lon="151.1321361">
    <tag k="addr:housenumber" v="125"/>
    <tag k="addr:street" v="Duntroon Street"/>
    <tag k="source" v="survey"/>
  </node>
  <node id="1275621145" version="1" timestamp="2011-05-07T09:03:22Z" uid="7617" user="Franc" changeset="8071691" lat="-33.9076209" lon="151.1389678">
    <tag k="addr:housenumber" v="79"/>
    <tag k="addr:street" v="Hercules Street"/>
    <tag k="source" v="exrapolation"/>
  </node>
  <node id="1275621145" version="2" timestamp="2011-05-29T08:32:47Z" uid="7617" user="Franc" changeset="8278454" lat="-33.9076209" lon="151.1389678">
    <tag k="addr:housenumber" v="79"/>
    <tag k="addr:street" v="Hercules Street"/>
    <tag k="source" v="extrapolation"/>
  </node>
  <node id="1275621146" version="1" timestamp="2011-05-07T09:03:22Z" uid="7617" user="Franc" changeset="8071691" lat="-33.9044222" lon="151.1419447">
    <tag k="addr:housenumber" v="1"/>
    <tag k="addr:street" v="Hercules Street"/>
    <tag k="source" v="exrapolation"/>
  </node>
  <node id="1275621146" version="2" timestamp="2011-05-29T08:32:00Z" uid="7617" user="Franc" changeset="8278454" lat="-33.9044222" lon="151.1419447">
    <tag k="addr:housenumber" v="1"/>
    <tag k="addr:street" v="Hercules Street"/>
    <tag k="source" v="extrapolation"/>
  </node>
  <node id="1275621147" version="1" timestamp="2011-05-07T09:03:22Z" uid="7617" user="Franc" changeset="8071691" lat="-33.907921" lon="151.1441072">
    <tag k="addr:housenumber" v="185"/>
    <tag k="addr:street" v="Wardell Road"/>
    <tag k="source" v="survey"/>
  </node>
  <node id="1275621148" version="1" timestamp="2011-05-07T09:03:22Z" uid="7617" user="Franc" changeset="8071691" lat="-33.9091768" lon="151.1466485">
    <tag k="addr:housenumber" v="32"/>
    <tag k="addr:street" v="Pine Street"/>
    <tag k="source" v="survey"/>
  </node>
  <node id="1275621149" version="1" timestamp="2011-05-07T09:03:22Z" uid="7617" user="Franc" changeset="8071691" lat="-33.9047426" lon="151.1410723">
    <tag k="addr:housenumber" v="9"/>
    <tag k="addr:street" v="Hercules Street"/>
    <tag k="source" v="survey"/>
  </node>
  <node id="1275621150" version="1" timestamp="2011-05-07T09:03:22Z" uid="7617" user="Franc" changeset="8071691" lat="-33.9091509" lon="151.1431764">
    <tag k="addr:housenumber" v="214"/>
    <tag k="addr:street" v="Wardell Road"/>
    <tag k="source" v="survey"/>
  </node>
  <node id="1275621151" version="1" timestamp="2011-05-07T09:03:22Z" uid="7617" user="Franc" changeset="8071691" lat="-33.9049376" lon="151.1399453">
    <tag k="amenity" v="place_of_worship"/>
    <tag k="religion" v="christian"/>
    <tag k="source" v="nearmap"/>
  </node>
  <node id="1275621152" version="1" timestamp="2011-05-07T09:03:22Z" uid="7617" user="Franc" changeset="8071691" lat="-33.9098478" lon="151.1355256">
    <tag k="traffic_calming" v="table"/>
  </node>
  <node id="1275621153" version="1" timestamp="2011-05-07T09:03:22Z" uid="7617" user="Franc" changeset="8071691" lat="-33.9096115" lon="151.1367307">
    <tag k="addr:housenumber" v="73"/>
    <tag k="addr:street" v="Ewart Street"/>
    <tag k="source" v="survey"/>
  </node>
  <node id="1275621154" version="1" timestamp="2011-05-07T09:03:23Z" uid="7617" user="Franc" changeset="8071691" lat="-33.9049949" lon="151.1404422">
    <tag k="addr:housenumber" v="23"/>
    <tag k="addr:street" v="Hercules Street"/>
    <tag k="source" v="survey"/>
  </node>
  <node id="1275621155" version="1" timestamp="2011-05-07T09:03:23Z" uid="7617" user="Franc" changeset="8071691" lat="-33.9047868" lon="151.1409936">
    <tag k="addr:housenumber" v="11"/>
    <tag k="addr:street" v="Hercules Street"/>
    <tag k="source" v="survey"/>
  </node>
  <node id="1275621156" version="1" timestamp="2011-05-07T09:03:23Z" uid="7617" user="Franc" changeset="8071691" lat="-33.9077374" lon="151.1445828">
    <tag k="addr:housenumber" v="186"/>
    <tag k="addr:street" v="Wardell Road"/>
    <tag k="source" v="survey"/>
  </node>
  <node id="1275621157" version="1" timestamp="2011-05-07T09:03:23Z" uid="7617" user="Franc" changeset="8071691" lat="-33.9095405" lon="151.1471266">
    <tag k="addr:housenumber" v="42"/>
    <tag k="addr:street" v="Pine Street"/>
    <tag k="source" v="survey"/>
  </node>
  <node id="1275621158" version="1" timestamp="2011-05-07T09:03:23Z" uid="7617" user="Franc" changeset="8071691" lat="-33.9042525" lon="151.1418189">
    <tag k="addr:housenumber" v="2"/>
    <tag k="addr:street" v="Hercules Street"/>
    <tag k="source" v="exrapolation"/>
  </node>
  <node id="1275621158" version="2" timestamp="2011-05-29T08:32:05Z" uid="7617" user="Franc" changeset="8278454" lat="-33.9042525" lon="151.1418189">
    <tag k="addr:housenumber" v="2"/>
    <tag k="addr:street" v="Hercules Street"/>
    <tag k="source" v="extrapolation"/>
  </node>
  <node id="1275621159" version="1" timestamp="2011-05-07T09:03:23Z" uid="7617" user="Franc" changeset="8071691" lat="-33.9049182" lon="151.1400549">
    <tag k="addr:housenumber" v="26"/>
    <tag k="addr:street" v="Hercules Street"/>
    <tag k="source" v="survey"/>
  </node>
  <node id="1275621160" version="1" timestamp="2011-05-07T09:03:23Z" uid="7617" user="Franc" changeset="8071691" lat="-33.9116511" lon="151.1320804">
    <tag k="addr:housenumber" v="127"/>
    <tag k="addr:street" v="Duntroon Street"/>
    <tag k="source" v="survey"/>
  </node>
  <node id="1275621161" version="1" timestamp="2011-05-07T09:03:23Z" uid="7617" user="Franc" changeset="8071691" lat="-33.9174099" lon="151.1453833">
    <tag k="addr:housenumber" v="40-42"/>
    <tag k="addr:street" v="Hill Street"/>
    <tag k="source" v="survey"/>
  </node>
  <node id="1275621162" version="1" timestamp="2011-05-07T09:03:23Z" uid="7617" user="Franc" changeset="8071691" lat="-33.9046793" lon="151.1406802">
    <tag k="addr:housenumber" v="14-16"/>
    <tag k="addr:street" v="Hercules Street"/>
    <tag k="source" v="survey"/>
  </node>
  <node id="1275621163" version="1" timestamp="2011-05-07T09:03:23Z" uid="7617" user="Franc" changeset="8071691" lat="-33.9060326" lon="151.1389587"/>
  <node id="1275621164" version="1" timestamp="2011-05-07T09:03:23Z" uid="7617" user="Franc" changeset="8071691" lat="-33.9099956" lon="151.1348781">
    <tag k="addr:housenumber" v="146"/>
    <tag k="addr:street" v="Ewart Street"/>
    <tag k="source" v="exrapolation"/>
  </node>
  <node id="1275621164" version="2" timestamp="2011-05-29T08:32:35Z" uid="7617" user="Franc" changeset="8278454" lat="-33.9099956" lon="151.1348781">
    <tag k="addr:housenumber" v="146"/>
    <tag k="addr:street" v="Ewart Street"/>
    <tag k="source" v="extrapolation"/>
  </node>
  <node id="1275621165" version="1" timestamp="2011-05-07T09:03:24Z" uid="7617" user="Franc" changeset="8071691" lat="-33.9071793" lon="151.1390164">
    <tag k="addr:housenumber" v="67"/>
    <tag k="addr:street" v="Hercules Street"/>
    <tag k="source" v="survey"/>
  </node>
  <node id="1275621166" version="1" timestamp="2011-05-07T09:03:24Z" uid="7617" user="Franc" changeset="8071691" lat="-33.9131073" lon="151.1317729">
    <tag k="addr:housenumber" v="161"/>
    <tag k="addr:street" v="Duntroon Street"/>
    <tag k="source" v="survey"/>
  </node>
  <node id="1275621167" version="1" timestamp="2011-05-07T09:03:24Z" uid="7617" user="Franc" changeset="8071691" lat="-33.9046954" lon="151.1412005">
    <tag k="addr:housenumber" v="7"/>
    <tag k="addr:street" v="Hercules Street"/>
    <tag k="source" v="exrapolation"/>
  </node>
  <node id="1275621167" version="2" timestamp="2011-05-29T08:31:59Z" uid="7617" user="Franc" changeset="8278454" lat="-33.9046954" lon="151.1412005">
    <tag k="addr:housenumber" v="7"/>
    <tag k="addr:street" v="Hercules Street"/>
    <tag k="source" v="extrapolation"/>
  </node>
  <node id="1275621168" version="1" timestamp="2011-05-07T09:03:24Z" uid="7617" user="Franc" changeset="8071691" lat="-33.9097828" lon="151.134983">
    <tag k="addr:housenumber" v="99"/>
    <tag k="addr:street" v="Ewart Street"/>
    <tag k="source" v="survey"/>
  </node>
  <node id="1275621169" version="1" timestamp="2011-05-07T09:03:24Z" uid="7617" user="Franc" changeset="8071691" lat="-33.9044423" lon="151.1418903">
    <tag k="addr:housenumber" v="3"/>
    <tag k="addr:street" v="Hercules Street"/>
    <tag k="source" v="survey"/>
  </node>
  <node id="1275621170" version="1" timestamp="2011-05-07T09:03:24Z" uid="7617" user="Franc" changeset="8071691" lat="-33.9096102" lon="151.1369887"/>
  <node id="1275621171" version="1" timestamp="2011-05-07T09:03:24Z" uid="7617" user="Franc" changeset="8071691" lat="-33.9098225" lon="151.1372344">
    <tag k="addr:housenumber" v="114"/>
    <tag k="addr:street" v="Ewart Street"/>
    <tag k="source" v="survey"/>
  </node>
  <node id="1275621172" version="1" timestamp="2011-05-07T09:03:24Z" uid="7617" user="Franc" changeset="8071691" lat="-33.9061658" lon="151.1391379"/>
  <node id="1275621173" version="1" timestamp="2011-05-07T09:03:24Z" uid="7617" user="Franc" changeset="8071691" lat="-33.9045259" lon="151.1409586">
    <tag k="power" v="sub_station"/>
  </node>
  <node id="1275621174" version="1" timestamp="2011-05-07T09:03:24Z" uid="7617" user="Franc" changeset="8071691" lat="-33.9094626" lon="151.147027">
    <tag k="addr:housenumber" v="40"/>
    <tag k="addr:street" v="Pine Street"/>
    <tag k="source" v="survey"/>
  </node>
  <node id="1275621175" version="1" timestamp="2011-05-07T09:03:25Z" uid="7617" user="Franc" changeset="8071691" lat="-33.9052121" lon="151.1393608"/>
  <node id="1275621176" version="1" timestamp="2011-05-07T09:03:25Z" uid="7617" user="Franc" changeset="8071691" lat="-33.9099679" lon="151.1350146">
    <tag k="addr:housenumber" v="144"/>
    <tag k="addr:street" v="Ewart Street"/>
    <tag k="source" v="survey"/>
  </node>
  <node id="1275621177" version="1" timestamp="2011-05-07T09:03:25Z" uid="7617" user="Franc" changeset="8071691" lat="-33.9073379" lon="151.1447368">
    <tag k="addr:housenumber" v="171"/>
    <tag k="addr:street" v="Wardell Road"/>
    <tag k="source" v="survey"/>
  </node>
  <node id="1275621178" version="1" timestamp="2011-05-07T09:03:25Z" uid="7617" user="Franc" changeset="8071691" lat="-33.9096987" lon="151.1473457">
    <tag k="addr:housenumber" v="46"/>
    <tag k="addr:street" v="Pine Street"/>
    <tag k="source" v="survey"/>
  </node>
  <node id="1275621179" version="1" timestamp="2011-05-07T09:03:25Z" uid="7617" user="Franc" changeset="8071691" lat="-33.9100351" lon="151.1423175">
    <tag k="addr:housenumber" v="226"/>
    <tag k="addr:street" v="Wardell Road"/>
    <tag k="source" v="survey"/>
  </node>
  <node id="1275621180" version="1" timestamp="2011-05-07T09:03:25Z" uid="7617" user="Franc" changeset="8071691" lat="-33.9114121" lon="151.1323635">
    <tag k="addr:housenumber" v="134"/>
    <tag k="addr:street" v="Duntroon Street"/>
    <tag k="source" v="survey"/>
  </node>
  <node id="1275621181" version="1" timestamp="2011-05-07T09:03:25Z" uid="7617" user="Franc" changeset="8071691" lat="-33.9079837" lon="151.1440501">
    <tag k="addr:housenumber" v="183"/>
    <tag k="addr:street" v="Wardell Road"/>
    <tag k="source" v="exrapolation"/>
  </node>
  <node id="1275621181" version="2" timestamp="2011-05-29T08:33:12Z" uid="7617" user="Franc" changeset="8278454" lat="-33.9079837" lon="151.1440501">
    <tag k="addr:housenumber" v="183"/>
    <tag k="addr:street" v="Wardell Road"/>
    <tag k="source" v="extrapolation"/>
  </node>
  <node id="1275622358" version="2" timestamp="2011-05-09T03:06:26Z" uid="4467" user="Rosscoe" changeset="8089266" lat="-35.1536698" lon="149.1353436"/>
  <node id="1275622359" version="2" timestamp="2011-05-24T00:58:03Z" uid="4467" user="Rosscoe" changeset="8231530" lat="-35.1628766" lon="149.1316215"/>
  <node id="1275622362" version="2" timestamp="2011-05-24T00:58:25Z" uid="4467" user="Rosscoe" changeset="8231530" lat="-35.1616649" lon="149.1316052"/>
  <node id="1275622372" version="2" timestamp="2011-05-24T00:58:27Z" uid="4467" user="Rosscoe" changeset="8231530" lat="-35.1626608" lon="149.1316424"/>
  <node id="1275622373" version="2" timestamp="2011-05-09T03:06:28Z" uid="4467" user="Rosscoe" changeset="8089266" lat="-35.1538242" lon="149.135215"/>
  <node id="1275622375" version="2" timestamp="2011-05-24T00:58:43Z" uid="4467" user="Rosscoe" changeset="8231530" lat="-35.1635064" lon="149.1312116"/>
  <node id="1275622382" version="2" timestamp="2011-05-24T00:58:16Z" uid="4467" user="Rosscoe" changeset="8231530" lat="-35.1619309" lon="149.1315888"/>
  <node id="1275622388" version="2" timestamp="2011-05-09T03:06:23Z" uid="4467" user="Rosscoe" changeset="8089266" lat="-35.1535393" lon="149.1351987"/>
  <node id="1275622389" version="2" timestamp="2011-05-24T00:57:52Z" uid="4467" user="Rosscoe" changeset="8231530" lat="-35.1628504" lon="149.1315072"/>
  <node id="1275622395" version="2" timestamp="2011-05-09T03:06:23Z" uid="4467" user="Rosscoe" changeset="8089266" lat="-35.1538261" lon="149.1351237"/>
  <node id="1275622398" version="2" timestamp="2011-05-09T03:06:22Z" uid="4467" user="Rosscoe" changeset="8089266" lat="-35.1537003" lon="149.1349868"/>
  <node id="1275622400" version="2" timestamp="2011-05-24T00:58:24Z" uid="4467" user="Rosscoe" changeset="8231530" lat="-35.1630648" lon="149.1314271"/>
  <node id="1275622410" version="2" timestamp="2011-05-09T03:06:24Z" uid="4467" user="Rosscoe" changeset="8089266" lat="-35.1535817" lon="149.1352943"/>
  <node id="1275622411" version="2" timestamp="2011-05-24T00:58:31Z" uid="4467" user="Rosscoe" changeset="8231530" lat="-35.1626566" lon="149.131549"/>
  <node id="1275622417" version="2" timestamp="2011-05-09T03:06:28Z" uid="4467" user="Rosscoe" changeset="8089266" lat="-35.1537935" lon="149.1350465"/>
  <node id="1275622422" version="2" timestamp="2011-05-09T03:06:31Z" uid="4467" user="Rosscoe" changeset="8089266" lat="-35.1536144" lon="149.1350067"/>
  <node id="1275622423" version="2" timestamp="2011-05-24T00:57:57Z" uid="4467" user="Rosscoe" changeset="8231530" lat="-35.162361" lon="149.1316333"/>
  <node id="1275622424" version="2" timestamp="2011-05-09T03:06:31Z" uid="4467" user="Rosscoe" changeset="8089266" lat="-35.153757" lon="149.1353201"/>
  <node id="1275622427" version="2" timestamp="2011-05-09T03:06:27Z" uid="4467" user="Rosscoe" changeset="8089266" lat="-35.1535487" lon="149.1350939"/>
  <node id="1275622428" version="2" timestamp="2011-05-24T00:58:44Z" uid="4467" user="Rosscoe" changeset="8231530" lat="-35.1636629" lon="149.1312207"/>
  <node id="1275626158" version="3" timestamp="2011-06-07T20:55:23Z" uid="20587" user="balrog-kun" changeset="8374143" lat="51.7277177" lon="19.828934"/>
  <node id="1275626170" version="2" timestamp="2011-06-07T20:55:24Z" uid="20587" user="balrog-kun" changeset="8374143" lat="51.7277177" lon="19.828934"/>
  <node id="1275629254" version="2" timestamp="2011-05-24T00:58:40Z" uid="4467" user="Rosscoe" changeset="8231530" lat="-35.1594003" lon="149.1346098"/>
  <node id="1275629257" version="2" timestamp="2011-05-24T00:58:18Z" uid="4467" user="Rosscoe" changeset="8231530" lat="-35.1594981" lon="149.1355655"/>
  <node id="1275629275" version="2" timestamp="2011-05-24T00:57:50Z" uid="4467" user="Rosscoe" changeset="8231530" lat="-35.1597659" lon="149.1361462"/>
  <node id="1275629294" version="2" timestamp="2011-05-24T00:58:23Z" uid="4467" user="Rosscoe" changeset="8231530" lat="-35.1600387" lon="149.13596"/>
</osm>
