<?xml version='1.0' encoding='UTF-8'?>
<osm version="0.6" generator="libosmium/2.20.0">
  <node id="128511432" version="5" timestamp="2010-02-14T15:41:42Z" uid="74617" user="JohnSmith" changeset="3874884" lat="-27.4034029" lon="152.933129">
    <tag k="name" v="Ferny Grove"/>
    <tag k="place" v="suburb"/>
  </node>
  <node id="128511472" version="3" timestamp="2010-02-15T05:19:49Z" uid="74617" user="JohnSmith" changeset="3880269" lat="-27.3886262" lon="152.996755">
    <tag k="name" v="McDowall"/>
    <tag k="place" v="suburb"/>
  </node>
  <node id="128511510" version="2" timestamp="2010-02-15T05:19:55Z" uid="74617" user="JohnSmith" changeset="3880269" lat="-27.3562082" lon="152.994473">
    <tag k="name" v="Bridgeman Downs"/>
    <tag k="place" v="suburb"/>
  </node>
  <node id="128511554" version="2" timestamp="2010-02-09T02:02:33Z" uid="74617" user="JohnSmith" changeset="3828705" lat="-27.3189512" lon="153.039039">
    <tag k="name" v="Bracken Ridge"/>
    <tag k="place" v="suburb"/>
  </node>
</osm>
