<?xml version='1.0' encoding='UTF-8'?>
<osm version="0.6" generator="libosmium/2.20.0">
  <node id="1294090836" version="1" timestamp="2011-05-21T03:36:02Z" uid="7617" user="Franc" changeset="8203609" lat="-33.9247856" lon="151.1567787"/>
  <node id="1294090838" version="1" timestamp="2011-05-21T03:36:02Z" uid="7617" user="Franc" changeset="8203609" lat="-33.9205851" lon="151.1563994">
    <tag k="addr:housenumber" v="154"/>
    <tag k="addr:street" v="Renwick Street"/>
    <tag k="source" v="survey"/>
  </node>
  <node id="1294090841" version="1" timestamp="2011-05-21T03:36:02Z" uid="7617" user="Franc" changeset="8203609" lat="-33.9222891" lon="151.158048"/>
  <node id="1294090843" version="1" timestamp="2011-05-21T03:36:02Z" uid="7617" user="Franc" changeset="8203609" lat="-33.908194" lon="151.1526548">
    <tag k="addr:housenumber" v="186"/>
    <tag k="addr:street" v="Livingstone Road"/>
    <tag k="source" v="survey"/>
  </node>
  <node id="1294090857" version="1" timestamp="2011-05-21T03:36:02Z" uid="7617" user="Franc" changeset="8203609" lat="-33.9247142" lon="151.1639914">
    <tag k="addr:housenumber" v="12"/>
    <tag k="addr:street" v="Smith Street"/>
    <tag k="source" v="survey"/>
  </node>
  <node id="1294090859" version="1" timestamp="2011-05-21T03:36:02Z" uid="7617" user="Franc" changeset="8203609" lat="-33.9355633" lon="151.1517895"/>
  <node id="1294090862" version="1" timestamp="2011-05-21T03:36:02Z" uid="7617" user="Franc" changeset="8203609" lat="-33.9220414" lon="151.1507889">
    <tag k="addr:housenumber" v="68"/>
    <tag k="addr:street" v="Thornley Street"/>
    <tag k="source" v="exrapolation"/>
  </node>
  <node id="1294090862" version="2" timestamp="2011-05-29T08:33:07Z" uid="7617" user="Franc" changeset="8278454" lat="-33.9220414" lon="151.1507889">
    <tag k="addr:housenumber" v="68"/>
    <tag k="addr:street" v="Thornley Street"/>
    <tag k="source" v="extrapolation"/>
  </node>
  <node id="1294090866" version="1" timestamp="2011-05-21T03:36:02Z" uid="7617" user="Franc" changeset="8203609" lat="-33.9366207" lon="151.1516385"/>
  <node id="1294090878" version="1" timestamp="2011-05-21T03:36:02Z" uid="7617" user="Franc" changeset="8203609" lat="-33.9210004" lon="151.15698">
    <tag k="addr:housenumber" v="164"/>
    <tag k="addr:street" v="Renwick Street"/>
    <tag k="source" v="survey"/>
  </node>
  <node id="1294090881" version="1" timestamp="2011-05-21T03:36:02Z" uid="7617" user="Franc" changeset="8203609" lat="-33.9252539" lon="151.1637861">
    <tag k="addr:housenumber" v="3"/>
    <tag k="addr:street" v="Barden Street"/>
    <tag k="source" v="survey"/>
  </node>
  <node id="1294090885" version="1" timestamp="2011-05-21T03:36:03Z" uid="7617" user="Franc" changeset="8203609" lat="-33.9257522" lon="151.1561877">
    <tag k="addr:housenumber" v="54"/>
    <tag k="addr:street" v="Griffths Street"/>
    <tag k="source" v="survey"/>
  </node>
  <node id="1294090890" version="1" timestamp="2011-05-21T03:36:03Z" uid="7617" user="Franc" changeset="8203609" lat="-33.9217373" lon="151.1573398"/>
  <node id="1294090892" version="1" timestamp="2011-05-21T03:36:03Z" uid="7617" user="Franc" changeset="8203609" lat="-33.9248311" lon="151.1641458">
    <tag k="addr:housenumber" v="8"/>
    <tag k="addr:street" v="Smith Street"/>
    <tag k="source" v="exrapolation"/>
  </node>
  <node id="1294090892" version="2" timestamp="2011-05-29T08:32:24Z" uid="7617" user="Franc" changeset="8278454" lat="-33.9248311" lon="151.1641458">
    <tag k="addr:housenumber" v="8"/>
    <tag k="addr:street" v="Smith Street"/>
    <tag k="source" v="extrapolation"/>
  </node>
  <node id="1294090903" version="1" timestamp="2011-05-21T03:36:03Z" uid="7617" user="Franc" changeset="8203609" lat="-33.9227336" lon="151.1577163">
    <tag k="addr:housenumber" v="426"/>
    <tag k="addr:interpolation" v="even"/>
    <tag k="addr:street" v="Unwins Bridge Road"/>
  </node>
  <node id="1294090905" version="1" timestamp="2011-05-21T03:36:03Z" uid="7617" user="Franc" changeset="8203609" lat="-33.8781913" lon="151.1953395">
    <tag k="addr:housenumber" v="288-306"/>
    <tag k="addr:street" v="Wattle Street"/>
    <tag k="source" v="survey"/>
  </node>
  <node id="1294090910" version="1" timestamp="2011-05-21T03:36:03Z" uid="7617" user="Franc" changeset="8203609" lat="-33.9241633" lon="151.1622109">
    <tag k="addr:housenumber" v="57"/>
    <tag k="addr:street" v="Barden Street"/>
    <tag k="source" v="survey"/>
  </node>
  <node id="1294090910" version="2" timestamp="2011-06-19T08:11:26Z" uid="7617" user="Franc" changeset="8480952" lat="-33.9241723" lon="151.1622171">
    <tag k="addr:housenumber" v="57"/>
    <tag k="addr:street" v="Barden Street"/>
    <tag k="source" v="survey"/>
  </node>
  <node id="1294090924" version="1" timestamp="2011-05-21T03:36:03Z" uid="7617" user="Franc" changeset="8203609" lat="-33.9223134" lon="151.1580271"/>
  <node id="1294090926" version="1" timestamp="2011-05-21T03:36:03Z" uid="7617" user="Franc" changeset="8203609" lat="-33.924882" lon="151.1642207">
    <tag k="addr:housenumber" v="6"/>
    <tag k="addr:street" v="Smith Street"/>
    <tag k="source" v="survey"/>
  </node>
  <node id="1294090928" version="1" timestamp="2011-05-21T03:36:03Z" uid="7617" user="Franc" changeset="8203609" lat="-33.9359479" lon="151.1515676"/>
  <node id="1294090929" version="1" timestamp="2011-05-21T03:36:03Z" uid="7617" user="Franc" changeset="8203609" lat="-33.9226333" lon="151.1578626">
    <tag k="addr:housenumber" v="420"/>
    <tag k="addr:interpolation" v="even"/>
    <tag k="addr:street" v="Unwins Bridge Road"/>
  </node>
  <node id="1294090932" version="1" timestamp="2011-05-21T03:36:03Z" uid="7617" user="Franc" changeset="8203609" lat="-33.921882" lon="151.1515557">
    <tag k="addr:housenumber" v="57"/>
    <tag k="addr:street" v="Thornley Street"/>
    <tag k="source" v="exrapolation"/>
  </node>
  <node id="1294090932" version="2" timestamp="2011-05-29T08:32:06Z" uid="7617" user="Franc" changeset="8278454" lat="-33.921882" lon="151.1515557">
    <tag k="addr:housenumber" v="57"/>
    <tag k="addr:street" v="Thornley Street"/>
    <tag k="source" v="extrapolation"/>
  </node>
  <node id="1294090944" version="1" timestamp="2011-05-21T03:36:04Z" uid="7617" user="Franc" changeset="8203609" lat="-33.9256653" lon="151.163544">
    <tag k="addr:housenumber" v="1"/>
    <tag k="addr:street" v="South Street"/>
    <tag k="source" v="exrapolation"/>
  </node>
  <node id="1294090944" version="2" timestamp="2011-05-29T08:32:19Z" uid="7617" user="Franc" changeset="8278454" lat="-33.9256653" lon="151.163544">
    <tag k="addr:housenumber" v="1"/>
    <tag k="addr:street" v="South Street"/>
    <tag k="source" v="extrapolation"/>
  </node>
  <node id="1294090947" version="1" timestamp="2011-05-21T03:36:04Z" uid="7617" user="Franc" changeset="8203609" lat="-33.9214015" lon="151.1527398">
    <tag k="addr:housenumber" v="75"/>
    <tag k="addr:street" v="Thornley Street"/>
    <tag k="source" v="survey"/>
  </node>
  <node id="1294090950" version="1" timestamp="2011-05-21T03:36:04Z" uid="7617" user="Franc" changeset="8203609" lat="-33.9217379" lon="151.1524085">
    <tag k="addr:housenumber" v="67"/>
    <tag k="addr:street" v="Thornley Street"/>
    <tag k="source" v="exrapolation"/>
  </node>
  <node id="1294090950" version="2" timestamp="2011-05-29T06:37:55Z" uid="7617" user="Franc" changeset="8277754" lat="-33.9217379" lon="151.1524085">
    <tag k="addr:housenumber" v="67"/>
    <tag k="addr:street" v="Thornley Street"/>
    <tag k="source" v="extrapolation"/>
  </node>
  <node id="1294090953" version="1" timestamp="2011-05-21T03:36:04Z" uid="7617" user="Franc" changeset="8203609" lat="-33.9227853" lon="151.1573467">
    <tag k="addr:housenumber" v="155"/>
    <tag k="addr:street" v="Unwins Bridge Road"/>
    <tag k="source" v="survey"/>
  </node>
  <node id="1294090957" version="1" timestamp="2011-05-21T03:36:04Z" uid="7617" user="Franc" changeset="8203609" lat="-33.9080808" lon="151.1526818">
    <tag k="addr:housenumber" v="184"/>
    <tag k="addr:street" v="Livingstone Road"/>
    <tag k="source" v="exrapolation"/>
  </node>
  <node id="1294090957" version="2" timestamp="2011-05-29T06:37:53Z" uid="7617" user="Franc" changeset="8277754" lat="-33.9080808" lon="151.1526818">
    <tag k="addr:housenumber" v="184"/>
    <tag k="addr:street" v="Livingstone Road"/>
    <tag k="source" v="extrapolation"/>
  </node>
  <node id="1294090960" version="1" timestamp="2011-05-21T03:36:04Z" uid="7617" user="Franc" changeset="8203609" lat="-33.924878" lon="151.1566859">
    <tag k="addr:housenumber" v="1"/>
    <tag k="addr:street" v="Griffths Street"/>
    <tag k="source" v="exrapolation"/>
  </node>
  <node id="1294090960" version="2" timestamp="2011-05-29T08:31:57Z" uid="7617" user="Franc" changeset="8278454" lat="-33.924878" lon="151.1566859">
    <tag k="addr:housenumber" v="1"/>
    <tag k="addr:street" v="Griffths Street"/>
    <tag k="source" v="extrapolation"/>
  </node>
  <node id="1294090963" version="1" timestamp="2011-05-21T03:36:04Z" uid="7617" user="Franc" changeset="8203609" lat="-33.925331" lon="151.1636961">
    <tag k="addr:housenumber" v="2"/>
    <tag k="addr:street" v="Barden Street"/>
    <tag k="source" v="survey"/>
  </node>
  <node id="1294090973" version="1" timestamp="2011-05-21T03:36:04Z" uid="7617" user="Franc" changeset="8203609" lat="-33.9372373" lon="151.1495565"/>
  <node id="1294090974" version="1" timestamp="2011-05-21T03:36:04Z" uid="7617" user="Franc" changeset="8203609" lat="-33.9218382" lon="151.151927">
    <tag k="addr:housenumber" v="61"/>
    <tag k="addr:street" v="Thornley Street"/>
    <tag k="source" v="exrapolation"/>
  </node>
  <node id="1294090974" version="2" timestamp="2011-05-29T06:37:53Z" uid="7617" user="Franc" changeset="8277754" lat="-33.9218382" lon="151.151927">
    <tag k="addr:housenumber" v="61"/>
    <tag k="addr:street" v="Thornley Street"/>
    <tag k="source" v="extrapolation"/>
  </node>
  <node id="1294090975" version="1" timestamp="2011-05-21T03:36:04Z" uid="7617" user="Franc" changeset="8203609" lat="-33.9367447" lon="151.1519496"/>
  <node id="1294090976" version="1" timestamp="2011-05-21T03:36:04Z" uid="7617" user="Franc" changeset="8203609" lat="-33.9227706" lon="151.1576628">
    <tag k="addr:housenumber" v="428"/>
    <tag k="addr:street" v="Unwins Bridge Road"/>
    <tag k="source" v="survey"/>
  </node>
  <node id="1294090977" version="1" timestamp="2011-05-21T03:36:04Z" uid="7617" user="Franc" changeset="8203609" lat="-33.9247701" lon="151.1640678">
    <tag k="addr:housenumber" v="10"/>
    <tag k="addr:street" v="Smith Street"/>
    <tag k="source" v="survey"/>
  </node>
  <node id="1294090987" version="1" timestamp="2011-05-21T03:36:05Z" uid="7617" user="Franc" changeset="8203609" lat="-33.9257625" lon="151.1634429">
    <tag k="addr:housenumber" v="1a"/>
    <tag k="addr:street" v="South Street"/>
    <tag k="source" v="survey"/>
  </node>
  <node id="1294090990" version="1" timestamp="2011-05-21T03:36:05Z" uid="7617" user="Franc" changeset="8203609" lat="-33.9241185" lon="151.162145">
    <tag k="addr:housenumber" v="59"/>
    <tag k="addr:street" v="Barden Street"/>
    <tag k="source" v="survey"/>
  </node>
  <node id="1294090990" version="2" timestamp="2011-06-19T08:11:25Z" uid="7617" user="Franc" changeset="8480952" lat="-33.9241288" lon="151.1621574">
    <tag k="addr:housenumber" v="59"/>
    <tag k="addr:street" v="Barden Street"/>
    <tag k="source" v="survey"/>
  </node>
  <node id="1294090993" version="1" timestamp="2011-05-21T03:36:05Z" uid="7617" user="Franc" changeset="8203609" lat="-33.9371368" lon="151.1514226"/>
  <node id="1294090995" version="1" timestamp="2011-05-21T03:36:05Z" uid="7617" user="Franc" changeset="8203609" lat="-33.9221942" lon="151.1577929"/>
  <node id="1294090997" version="1" timestamp="2011-05-21T03:36:05Z" uid="7617" user="Franc" changeset="8203609" lat="-33.9253571" lon="151.1639225">
    <tag k="addr:housenumber" v="1"/>
    <tag k="addr:street" v="Barden Street"/>
    <tag k="source" v="survey"/>
  </node>
  <node id="1294091001" version="1" timestamp="2011-05-21T03:36:05Z" uid="7617" user="Franc" changeset="8203609" lat="-33.9214986" lon="151.1526834">
    <tag k="addr:housenumber" v="73"/>
    <tag k="addr:street" v="Thornley Street"/>
    <tag k="source" v="survey"/>
  </node>
  <node id="1294091005" version="1" timestamp="2011-05-21T03:36:05Z" uid="7617" user="Franc" changeset="8203609" lat="-33.9360419" lon="151.1514634"/>
  <node id="1294091006" version="1" timestamp="2011-05-21T03:36:05Z" uid="7617" user="Franc" changeset="8203609" lat="-33.9227046" lon="151.1577608">
    <tag k="addr:housenumber" v="424"/>
    <tag k="addr:interpolation" v="even"/>
    <tag k="addr:street" v="Unwins Bridge Road"/>
  </node>
  <node id="1294091009" version="1" timestamp="2011-05-21T03:36:05Z" uid="7617" user="Franc" changeset="8203609" lat="-33.9235242" lon="151.1571444">
    <tag k="addr:housenumber" v="8"/>
    <tag k="addr:street" v="Griffths Street"/>
    <tag k="source" v="survey"/>
  </node>
  <node id="1294091018" version="1" timestamp="2011-05-21T03:36:05Z" uid="7617" user="Franc" changeset="8203609" lat="-33.92206" lon="151.1571948"/>
  <node id="1294091019" version="1" timestamp="2011-05-21T03:36:05Z" uid="7617" user="Franc" changeset="8203609" lat="-33.9218581" lon="151.1517896">
    <tag k="addr:housenumber" v="59"/>
    <tag k="addr:street" v="Thornley Street"/>
    <tag k="source" v="survey"/>
  </node>
  <node id="1294091020" version="1" timestamp="2011-05-21T03:36:05Z" uid="7617" user="Franc" changeset="8203609" lat="-33.9216047" lon="151.1526269">
    <tag k="addr:housenumber" v="71"/>
    <tag k="addr:street" v="Thornley Street"/>
    <tag k="source" v="exrapolation"/>
  </node>
  <node id="1294091020" version="2" timestamp="2011-05-29T06:37:54Z" uid="7617" user="Franc" changeset="8277754" lat="-33.9216047" lon="151.1526269">
    <tag k="addr:housenumber" v="71"/>
    <tag k="addr:street" v="Thornley Street"/>
    <tag k="source" v="extrapolation"/>
  </node>
  <node id="1294091022" version="1" timestamp="2011-05-21T03:36:05Z" uid="7617" user="Franc" changeset="8203609" lat="-33.9225856" lon="151.1579302">
    <tag k="addr:housenumber" v="418"/>
    <tag k="addr:street" v="Unwins Bridge Road"/>
    <tag k="source" v="survey"/>
  </node>
  <node id="1294091033" version="1" timestamp="2011-05-21T03:36:06Z" uid="7617" user="Franc" changeset="8203609" lat="-33.9221965" lon="151.1576771"/>
  <node id="1294091036" version="1" timestamp="2011-05-21T03:36:06Z" uid="7617" user="Franc" changeset="8203609" lat="-33.9220953" lon="151.1516293"/>
  <node id="1294091038" version="1" timestamp="2011-05-21T03:36:06Z" uid="7617" user="Franc" changeset="8203609" lat="-33.9359617" lon="151.151477"/>
  <node id="1294091040" version="1" timestamp="2011-05-21T03:36:06Z" uid="7617" user="Franc" changeset="8203609" lat="-33.9256058" lon="151.1636062">
    <tag k="addr:housenumber" v="3"/>
    <tag k="addr:street" v="South Street"/>
    <tag k="source" v="exrapolation"/>
  </node>
  <node id="1294091040" version="2" timestamp="2011-05-29T08:33:24Z" uid="7617" user="Franc" changeset="8278454" lat="-33.9256058" lon="151.1636062">
    <tag k="addr:housenumber" v="3"/>
    <tag k="addr:street" v="South Street"/>
    <tag k="source" v="extrapolation"/>
  </node>
  <node id="1294091042" version="1" timestamp="2011-05-21T03:36:06Z" uid="7617" user="Franc" changeset="8203609" lat="-33.9218629" lon="151.151082">
    <tag k="addr:housenumber" v="51"/>
    <tag k="addr:street" v="Thornley Street"/>
    <tag k="source" v="survey"/>
  </node>
  <node id="1294091043" version="1" timestamp="2011-05-21T03:36:06Z" uid="7617" user="Franc" changeset="8203609" lat="-33.9217673" lon="151.1522797">
    <tag k="addr:housenumber" v="65"/>
    <tag k="addr:street" v="Thornley Street"/>
    <tag k="source" v="exrapolation"/>
  </node>
  <node id="1294091043" version="2" timestamp="2011-05-29T06:37:56Z" uid="7617" user="Franc" changeset="8277754" lat="-33.9217673" lon="151.1522797">
    <tag k="addr:housenumber" v="65"/>
    <tag k="addr:street" v="Thornley Street"/>
    <tag k="source" v="extrapolation"/>
  </node>
  <node id="1294091051" version="1" timestamp="2011-05-21T03:36:06Z" uid="7617" user="Franc" changeset="8203609" lat="-33.9372934" lon="151.1518001"/>
  <node id="1294091054" version="1" timestamp="2011-05-21T03:36:06Z" uid="7617" user="Franc" changeset="8203609" lat="-33.9246619" lon="151.1639135">
    <tag k="addr:housenumber" v="14"/>
    <tag k="addr:street" v="Smith Street"/>
    <tag k="source" v="survey"/>
  </node>
  <node id="1294091057" version="1" timestamp="2011-05-21T03:36:06Z" uid="7617" user="Franc" changeset="8203609" lat="-33.9254263" lon="151.1563332"/>
  <node id="1294091060" version="1" timestamp="2011-05-21T03:36:06Z" uid="7617" user="Franc" changeset="8203609" lat="-33.9207915" lon="151.1567817"/>
  <node id="1294091062" version="1" timestamp="2011-05-21T03:36:06Z" uid="7617" user="Franc" changeset="8203609" lat="-33.921876" lon="151.1513911">
    <tag k="addr:housenumber" v="55"/>
    <tag k="addr:street" v="Thornley Street"/>
    <tag k="source" v="exrapolation"/>
  </node>
  <node id="1294091062" version="2" timestamp="2011-05-29T08:32:48Z" uid="7617" user="Franc" changeset="8278454" lat="-33.921876" lon="151.1513911">
    <tag k="addr:housenumber" v="55"/>
    <tag k="addr:street" v="Thornley Street"/>
    <tag k="source" v="extrapolation"/>
  </node>
  <node id="1294091066" version="1" timestamp="2011-05-21T03:36:06Z" uid="7617" user="Franc" changeset="8203609" lat="-33.9203216" lon="151.1559462">
    <tag k="addr:housenumber" v="144"/>
    <tag k="addr:street" v="Renwick Street"/>
    <tag k="source" v="survey"/>
  </node>
  <node id="1294091069" version="1" timestamp="2011-05-21T03:36:07Z" uid="7617" user="Franc" changeset="8203609" lat="-33.9251581" lon="151.156453">
    <tag k="addr:housenumber" v="5"/>
    <tag k="addr:street" v="Griffths Street"/>
    <tag k="source" v="survey"/>
  </node>
  <node id="1294091072" version="1" timestamp="2011-05-21T03:36:07Z" uid="7617" user="Franc" changeset="8203609" lat="-33.9221387" lon="151.1578737"/>
  <node id="1294091074" version="1" timestamp="2011-05-21T03:36:07Z" uid="7617" user="Franc" changeset="8203609" lat="-33.9351937" lon="151.1519707"/>
  <node id="1294091084" version="1" timestamp="2011-05-21T03:36:07Z" uid="7617" user="Franc" changeset="8203609" lat="-33.9252102" lon="151.1565623">
    <tag k="addr:housenumber" v="40"/>
    <tag k="addr:street" v="Griffths Street"/>
    <tag k="source" v="survey"/>
  </node>
  <node id="1294091085" version="1" timestamp="2011-05-21T03:36:07Z" uid="7617" user="Franc" changeset="8203609" lat="-33.9228085" lon="151.1576074">
    <tag k="addr:housenumber" v="430"/>
    <tag k="addr:street" v="Unwins Bridge Road"/>
    <tag k="source" v="survey"/>
  </node>
  <node id="1294091086" version="1" timestamp="2011-05-21T03:36:07Z" uid="7617" user="Franc" changeset="8203609" lat="-33.9254628" lon="151.1637576">
    <tag k="addr:housenumber" v="7"/>
    <tag k="addr:street" v="South Street"/>
    <tag k="source" v="survey"/>
  </node>
  <node id="1294091088" version="1" timestamp="2011-05-21T03:36:07Z" uid="7617" user="Franc" changeset="8203609" lat="-33.9256144" lon="151.1562463">
    <tag k="addr:housenumber" v="50"/>
    <tag k="addr:street" v="Griffths Street"/>
    <tag k="source" v="survey"/>
  </node>
  <node id="1294091097" version="1" timestamp="2011-05-21T03:36:07Z" uid="7617" user="Franc" changeset="8203609" lat="-33.9220102" lon="151.152204"/>
  <node id="1294091100" version="1" timestamp="2011-05-21T03:36:07Z" uid="7617" user="Franc" changeset="8203609" lat="-33.9355244" lon="151.1517442"/>
  <node id="1294091103" version="1" timestamp="2011-05-21T03:36:07Z" uid="7617" user="Franc" changeset="8203609" lat="-33.9256867" lon="151.1562153">
    <tag k="addr:housenumber" v="52"/>
    <tag k="addr:street" v="Griffths Street"/>
    <tag k="source" v="survey"/>
  </node>
  <node id="1294091105" version="1" timestamp="2011-05-21T03:36:07Z" uid="7617" user="Franc" changeset="8203609" lat="-33.922045" lon="151.1508669">
    <tag k="addr:housenumber" v="70"/>
    <tag k="addr:street" v="Thornley Street"/>
    <tag k="source" v="survey"/>
  </node>
  <node id="1294091106" version="1" timestamp="2011-05-21T03:36:07Z" uid="7617" user="Franc" changeset="8203609" lat="-33.9226655" lon="151.1578149">
    <tag k="addr:housenumber" v="422"/>
    <tag k="addr:interpolation" v="even"/>
    <tag k="addr:street" v="Unwins Bridge Road"/>
  </node>
  <node id="1294091113" version="1" timestamp="2011-05-21T03:36:08Z" uid="7617" user="Franc" changeset="8203609" lat="-33.9242379" lon="151.162136">
    <tag k="addr:housenumber" v="60"/>
    <tag k="addr:street" v="Barden Street"/>
    <tag k="source" v="survey"/>
  </node>
  <node id="1294091113" version="2" timestamp="2011-06-19T08:11:26Z" uid="7617" user="Franc" changeset="8480952" lat="-33.9242584" lon="151.1621391">
    <tag k="addr:housenumber" v="60"/>
    <tag k="addr:street" v="Barden Street"/>
    <tag k="source" v="survey"/>
  </node>
  <node id="1294091117" version="1" timestamp="2011-05-21T03:36:08Z" uid="7617" user="Franc" changeset="8203609" lat="-33.9250287" lon="151.1565794">
    <tag k="addr:housenumber" v="3"/>
    <tag k="addr:street" v="Griffths Street"/>
    <tag k="source" v="survey"/>
  </node>
  <node id="1294091120" version="1" timestamp="2011-05-21T03:36:08Z" uid="7617" user="Franc" changeset="8203609" lat="-33.9217001" lon="151.1525343">
    <tag k="addr:housenumber" v="69"/>
    <tag k="addr:street" v="Thornley Street"/>
    <tag k="source" v="exrapolation"/>
  </node>
  <node id="1294091120" version="2" timestamp="2011-05-29T06:37:54Z" uid="7617" user="Franc" changeset="8277754" lat="-33.9217001" lon="151.1525343">
    <tag k="addr:housenumber" v="69"/>
    <tag k="addr:street" v="Thornley Street"/>
    <tag k="source" v="extrapolation"/>
  </node>
  <node id="1294091123" version="1" timestamp="2011-05-21T03:36:08Z" uid="7617" user="Franc" changeset="8203609" lat="-33.9218677" lon="151.1512337">
    <tag k="addr:housenumber" v="53"/>
    <tag k="addr:street" v="Thornley Street"/>
    <tag k="source" v="exrapolation"/>
  </node>
  <node id="1294091123" version="2" timestamp="2011-05-29T08:32:36Z" uid="7617" user="Franc" changeset="8278454" lat="-33.9218677" lon="151.1512337">
    <tag k="addr:housenumber" v="53"/>
    <tag k="addr:street" v="Thornley Street"/>
    <tag k="source" v="extrapolation"/>
  </node>
  <node id="1294091128" version="1" timestamp="2011-05-21T03:36:08Z" uid="7617" user="Franc" changeset="8203609" lat="-33.9255275" lon="151.1636947">
    <tag k="addr:housenumber" v="5"/>
    <tag k="addr:street" v="South Street"/>
    <tag k="source" v="survey"/>
  </node>
  <node id="1294091131" version="1" timestamp="2011-05-21T03:36:08Z" uid="7617" user="Franc" changeset="8203609" lat="-33.921798" lon="151.1521626">
    <tag k="addr:housenumber" v="63"/>
    <tag k="addr:street" v="Thornley Street"/>
    <tag k="source" v="exrapolation"/>
  </node>
  <node id="1294091131" version="2" timestamp="2011-05-29T06:37:55Z" uid="7617" user="Franc" changeset="8277754" lat="-33.921798" lon="151.1521626">
    <tag k="addr:housenumber" v="63"/>
    <tag k="addr:street" v="Thornley Street"/>
    <tag k="source" v="extrapolation"/>
  </node>
</osm>
