<?xml version='1.0' encoding='UTF-8'?>
<osm version="0.6" generator="libosmium/2.20.0">
  <node id="1300615444" version="1" timestamp="2011-05-26T12:28:45Z" uid="7617" user="Franc" changeset="8253147" lat="-33.9091384" lon="151.1200088"/>
  <node id="1300615445" version="1" timestamp="2011-05-26T12:28:45Z" uid="7617" user="Franc" changeset="8253147" lat="-33.9257404" lon="151.2181019"/>
  <node id="1300615446" version="1" timestamp="2011-05-26T12:28:45Z" uid="7617" user="Franc" changeset="8253147" lat="-33.9272511" lon="151.2183873"/>
  <node id="1300615447" version="1" timestamp="2011-05-26T12:28:45Z" uid="7617" user="Franc" changeset="8253147" lat="-33.8880411" lon="151.172024"/>
  <node id="1300615448" version="1" timestamp="2011-05-26T12:28:45Z" uid="7617" user="Franc" changeset="8253147" lat="-33.9106539" lon="151.1211869"/>
  <node id="1300615449" version="1" timestamp="2011-05-26T12:28:45Z" uid="7617" user="Franc" changeset="8253147" lat="-33.8882949" lon="151.1719455"/>
  <node id="1300615450" version="1" timestamp="2011-05-26T12:28:45Z" uid="7617" user="Franc" changeset="8253147" lat="-33.8854171" lon="151.1159997">
    <tag k="addr:housenumber" v="96"/>
    <tag k="addr:street" v="Thomas Street"/>
    <tag k="source" v="exrapolation"/>
  </node>
  <node id="1300615450" version="2" timestamp="2011-05-27T09:18:33Z" uid="7617" user="Franc" changeset="8260571" lat="-33.8854171" lon="151.1159997">
    <tag k="addr:housenumber" v="96"/>
    <tag k="addr:street" v="Thomas Street"/>
    <tag k="source" v="extrapolation"/>
  </node>
  <node id="1300615451" version="1" timestamp="2011-05-26T12:28:45Z" uid="7617" user="Franc" changeset="8253147" lat="-33.8880974" lon="151.1718288"/>
  <node id="1300615452" version="1" timestamp="2011-05-26T12:28:45Z" uid="7617" user="Franc" changeset="8253147" lat="-33.8871475" lon="151.1161877"/>
  <node id="1300615453" version="1" timestamp="2011-05-26T12:28:46Z" uid="7617" user="Franc" changeset="8253147" lat="-33.8845907" lon="151.1144779">
    <tag k="addr:housenumber" v="118"/>
    <tag k="addr:street" v="Thomas Street"/>
    <tag k="source" v="survey"/>
  </node>
  <node id="1300615454" version="1" timestamp="2011-05-26T12:28:46Z" uid="7617" user="Franc" changeset="8253147" lat="-33.888387" lon="151.115976">
    <tag k="addr:housenumber" v="404-410"/>
    <tag k="addr:street" v="Liverpool Road"/>
  </node>
  <node id="1300615455" version="1" timestamp="2011-05-26T12:28:46Z" uid="7617" user="Franc" changeset="8253147" lat="-33.8844697" lon="151.1146509">
    <tag k="addr:housenumber" v="85"/>
    <tag k="addr:street" v="Thomas Street"/>
    <tag k="source" v="exrapolation"/>
  </node>
  <node id="1300615455" version="2" timestamp="2011-05-27T09:18:31Z" uid="7617" user="Franc" changeset="8260571" lat="-33.8844697" lon="151.1146509">
    <tag k="addr:housenumber" v="85"/>
    <tag k="addr:street" v="Thomas Street"/>
    <tag k="source" v="extrapolation"/>
  </node>
  <node id="1300615456" version="1" timestamp="2011-05-26T12:28:46Z" uid="7617" user="Franc" changeset="8253147" lat="-33.916766" lon="151.1667358">
    <tag k="addr:housenumber" v="74"/>
    <tag k="addr:street" v="Railway Road"/>
    <tag k="source" v="survey"/>
  </node>
  <node id="1300615457" version="1" timestamp="2011-05-26T12:28:46Z" uid="7617" user="Franc" changeset="8253147" lat="-33.8880974" lon="151.1720332"/>
  <node id="1300615458" version="1" timestamp="2011-05-26T12:28:46Z" uid="7617" user="Franc" changeset="8253147" lat="-33.889553" lon="151.117386">
    <tag k="addr:housenumber" v="44-48"/>
    <tag k="addr:street" v="Milton Street"/>
    <tag k="source" v="survey"/>
  </node>
  <node id="1300615459" version="1" timestamp="2011-05-26T12:28:46Z" uid="7617" user="Franc" changeset="8253147" lat="-33.8715726" lon="151.1405275">
    <tag k="addr:housenumber" v="37"/>
    <tag k="addr:street" v="Dobroyd Parade"/>
    <tag k="source" v="survey"/>
  </node>
  <node id="1300615460" version="1" timestamp="2011-05-26T12:28:46Z" uid="7617" user="Franc" changeset="8253147" lat="-33.8882961" lon="151.1718956"/>
  <node id="1300615461" version="1" timestamp="2011-05-26T12:28:46Z" uid="7617" user="Franc" changeset="8253147" lat="-33.8881254" lon="151.1719742"/>
  <node id="1300615462" version="1" timestamp="2011-05-26T12:28:46Z" uid="7617" user="Franc" changeset="8253147" lat="-33.8852574" lon="151.1160339">
    <tag k="addr:housenumber" v="77"/>
    <tag k="addr:street" v="Thomas Street"/>
    <tag k="source" v="exrapolation"/>
  </node>
  <node id="1300615462" version="2" timestamp="2011-05-27T09:18:31Z" uid="7617" user="Franc" changeset="8260571" lat="-33.8852574" lon="151.1160339">
    <tag k="addr:housenumber" v="77"/>
    <tag k="addr:street" v="Thomas Street"/>
    <tag k="source" v="extrapolation"/>
  </node>
  <node id="1300615463" version="1" timestamp="2011-05-26T12:28:46Z" uid="7617" user="Franc" changeset="8253147" lat="-33.8878591" lon="151.1718633"/>
  <node id="1300615465" version="1" timestamp="2011-05-26T12:28:46Z" uid="7617" user="Franc" changeset="8253147" lat="-33.8870318" lon="151.1161149"/>
  <node id="1300615465" version="2" timestamp="2011-06-03T09:39:39Z" uid="7617" user="Franc" changeset="8327641" lat="-33.8870318" lon="151.1161149"/>
  <node id="1300615467" version="1" timestamp="2011-05-26T12:28:46Z" uid="7617" user="Franc" changeset="8253147" lat="-33.8847372" lon="151.1147314">
    <tag k="addr:housenumber" v="114"/>
    <tag k="addr:street" v="Thomas Street"/>
    <tag k="source" v="exrapolation"/>
  </node>
  <node id="1300615467" version="2" timestamp="2011-05-27T09:18:36Z" uid="7617" user="Franc" changeset="8260571" lat="-33.8847372" lon="151.1147314">
    <tag k="addr:housenumber" v="114"/>
    <tag k="addr:street" v="Thomas Street"/>
    <tag k="source" v="extrapolation"/>
  </node>
  <node id="1300615469" version="1" timestamp="2011-05-26T12:28:46Z" uid="7617" user="Franc" changeset="8253147" lat="-33.8857481" lon="151.1166313">
    <tag k="addr:housenumber" v="78"/>
    <tag k="addr:street" v="Thomas Street"/>
    <tag k="source" v="survey"/>
  </node>
  <node id="1300615471" version="1" timestamp="2011-05-26T12:28:46Z" uid="7617" user="Franc" changeset="8253147" lat="-33.9080659" lon="151.1250704"/>
  <node id="1300615473" version="1" timestamp="2011-05-26T12:28:46Z" uid="7617" user="Franc" changeset="8253147" lat="-33.8883232" lon="151.1721641"/>
  <node id="1300615475" version="1" timestamp="2011-05-26T12:28:46Z" uid="7617" user="Franc" changeset="8253147" lat="-33.8884505" lon="151.1165039"/>
  <node id="1300615477" version="1" timestamp="2011-05-26T12:28:46Z" uid="7617" user="Franc" changeset="8253147" lat="-33.9083156" lon="151.1238872"/>
  <node id="1300615479" version="1" timestamp="2011-05-26T12:28:46Z" uid="7617" user="Franc" changeset="8253147" lat="-33.8853015" lon="151.1157704">
    <tag k="addr:housenumber" v="102"/>
    <tag k="addr:street" v="Thomas Street"/>
    <tag k="source" v="survey"/>
  </node>
  <node id="1300615482" version="1" timestamp="2011-05-26T12:28:47Z" uid="7617" user="Franc" changeset="8253147" lat="-33.9252256" lon="151.2166677"/>
  <node id="1300615484" version="1" timestamp="2011-05-26T12:28:47Z" uid="7617" user="Franc" changeset="8253147" lat="-33.9173641" lon="151.1673424">
    <tag k="addr:housenumber" v="52"/>
    <tag k="addr:street" v="Railway Road"/>
    <tag k="source" v="survey"/>
  </node>
  <node id="1300615487" version="1" timestamp="2011-05-26T12:28:47Z" uid="7617" user="Franc" changeset="8253147" lat="-33.9233763" lon="151.2111324">
    <tag k="addr:housenumber" v="250"/>
    <tag k="addr:street" v="Gardeners Road"/>
    <tag k="source" v="survey"/>
  </node>
  <node id="1300615489" version="1" timestamp="2011-05-26T12:28:47Z" uid="7617" user="Franc" changeset="8253147" lat="-33.9175022" lon="151.1674831">
    <tag k="addr:housenumber" v="44"/>
    <tag k="addr:street" v="Railway Road"/>
    <tag k="source" v="extrapolation"/>
  </node>
  <node id="1300615490" version="1" timestamp="2011-05-26T12:28:47Z" uid="7617" user="Franc" changeset="8253147" lat="-33.88803" lon="151.171909"/>
  <node id="1300615494" version="1" timestamp="2011-05-26T12:28:47Z" uid="7617" user="Franc" changeset="8253147" lat="-33.8882165" lon="151.1718725"/>
  <node id="1300615496" version="1" timestamp="2011-05-26T12:28:47Z" uid="7617" user="Franc" changeset="8253147" lat="-33.8845818" lon="151.1148569">
    <tag k="addr:housenumber" v="81"/>
    <tag k="addr:street" v="Thomas Street"/>
    <tag k="source" v="exrapolation"/>
  </node>
  <node id="1300615496" version="2" timestamp="2011-05-27T09:18:34Z" uid="7617" user="Franc" changeset="8260571" lat="-33.8845818" lon="151.1148569">
    <tag k="addr:housenumber" v="81"/>
    <tag k="addr:street" v="Thomas Street"/>
    <tag k="source" v="extrapolation"/>
  </node>
  <node id="1300615499" version="1" timestamp="2011-05-26T12:28:47Z" uid="7617" user="Franc" changeset="8253147" lat="-33.8880993" lon="151.17197"/>
  <node id="1300615501" version="1" timestamp="2011-05-26T12:28:47Z" uid="7617" user="Franc" changeset="8253147" lat="-33.9082855" lon="151.1233659"/>
  <node id="1300615502" version="1" timestamp="2011-05-26T12:28:47Z" uid="7617" user="Franc" changeset="8253147" lat="-33.8854994" lon="151.1164893">
    <tag k="addr:housenumber" v="69"/>
    <tag k="addr:street" v="Thomas Street"/>
    <tag k="source" v="survey"/>
  </node>
  <node id="1300615503" version="1" timestamp="2011-05-26T12:28:47Z" uid="7617" user="Franc" changeset="8253147" lat="-33.9249411" lon="151.21691"/>
  <node id="1300615504" version="1" timestamp="2011-05-26T12:28:47Z" uid="7617" user="Franc" changeset="8253147" lat="-33.888319" lon="151.1720431"/>
  <node id="1300615506" version="1" timestamp="2011-05-26T12:28:47Z" uid="7617" user="Franc" changeset="8253147" lat="-33.8846639" lon="151.1146047">
    <tag k="addr:housenumber" v="116"/>
    <tag k="addr:street" v="Thomas Street"/>
    <tag k="source" v="exrapolation"/>
  </node>
  <node id="1300615506" version="2" timestamp="2011-05-27T09:18:35Z" uid="7617" user="Franc" changeset="8260571" lat="-33.8846639" lon="151.1146047">
    <tag k="addr:housenumber" v="116"/>
    <tag k="addr:street" v="Thomas Street"/>
    <tag k="source" v="extrapolation"/>
  </node>
  <node id="1300615507" version="1" timestamp="2011-05-26T12:28:47Z" uid="7617" user="Franc" changeset="8253147" lat="-33.8767168" lon="151.1882961">
    <tag k="addr:housenumber" v="22"/>
    <tag k="addr:street" v="Pyrmont Bridge Road"/>
    <tag k="source" v="survey"/>
  </node>
  <node id="1300615507" version="2" timestamp="2011-05-28T12:51:49Z" uid="7617" user="Franc" changeset="8271467" lat="-33.8767168" lon="151.1882961">
    <tag k="addr:housenumber" v="22"/>
    <tag k="addr:street" v="Bridge Road"/>
    <tag k="source" v="survey"/>
  </node>
  <node id="1300615507" version="3" timestamp="2011-06-10T22:10:02Z" uid="7617" user="Franc" changeset="8401446" lat="-33.8767223" lon="151.1882685">
    <tag k="addr:housenumber" v="22"/>
    <tag k="addr:street" v="Bridge Road"/>
    <tag k="source" v="survey"/>
  </node>
  <node id="1300615508" version="1" timestamp="2011-05-26T12:28:48Z" uid="7617" user="Franc" changeset="8253147" lat="-33.8857162" lon="151.1169082">
    <tag k="addr:housenumber" v="65"/>
    <tag k="addr:street" v="Thomas Street"/>
    <tag k="source" v="survey"/>
  </node>
  <node id="1300615509" version="1" timestamp="2011-05-26T12:28:48Z" uid="7617" user="Franc" changeset="8253147" lat="-33.885317" lon="151.1161415">
    <tag k="addr:housenumber" v="75"/>
    <tag k="addr:street" v="Thomas Street"/>
    <tag k="source" v="exrapolation"/>
  </node>
  <node id="1300615509" version="2" timestamp="2011-05-27T09:18:36Z" uid="7617" user="Franc" changeset="8260571" lat="-33.885317" lon="151.1161415">
    <tag k="addr:housenumber" v="75"/>
    <tag k="addr:street" v="Thomas Street"/>
    <tag k="source" v="extrapolation"/>
  </node>
  <node id="1300615510" version="1" timestamp="2011-05-26T12:28:48Z" uid="7617" user="Franc" changeset="8253147" lat="-33.9254997" lon="151.2166928"/>
  <node id="1300615511" version="1" timestamp="2011-05-26T12:28:48Z" uid="7617" user="Franc" changeset="8253147" lat="-33.9273863" lon="151.2184709"/>
  <node id="1300615512" version="1" timestamp="2011-05-26T12:28:48Z" uid="7617" user="Franc" changeset="8253147" lat="-33.8856526" lon="151.1167789">
    <tag k="addr:housenumber" v="67"/>
    <tag k="addr:street" v="Thomas Street"/>
    <tag k="source" v="survey"/>
  </node>
  <node id="1300615513" version="1" timestamp="2011-05-26T12:28:48Z" uid="7617" user="Franc" changeset="8253147" lat="-33.8882358" lon="151.1717223"/>
  <node id="1300615514" version="1" timestamp="2011-05-26T12:28:48Z" uid="7617" user="Franc" changeset="8253147" lat="-33.908339" lon="151.1236554"/>
  <node id="1300615515" version="1" timestamp="2011-05-26T12:28:48Z" uid="7617" user="Franc" changeset="8253147" lat="-33.8849569" lon="151.1151117">
    <tag k="addr:housenumber" v="108"/>
    <tag k="addr:street" v="Thomas Street"/>
    <tag k="source" v="survey"/>
  </node>
  <node id="1300615516" version="1" timestamp="2011-05-26T12:28:48Z" uid="7617" user="Franc" changeset="8253147" lat="-33.8854571" lon="151.1160758">
    <tag k="addr:housenumber" v="94"/>
    <tag k="addr:street" v="Thomas Street"/>
    <tag k="source" v="survey"/>
  </node>
  <node id="1300615517" version="1" timestamp="2011-05-26T12:28:48Z" uid="7617" user="Franc" changeset="8253147" lat="-33.8852133" lon="151.1156171">
    <tag k="addr:housenumber" v="106"/>
    <tag k="addr:street" v="Thomas Street"/>
    <tag k="source" v="exrapolation"/>
  </node>
  <node id="1300615517" version="2" timestamp="2011-05-27T09:18:35Z" uid="7617" user="Franc" changeset="8260571" lat="-33.8852133" lon="151.1156171">
    <tag k="addr:housenumber" v="106"/>
    <tag k="addr:street" v="Thomas Street"/>
    <tag k="source" v="extrapolation"/>
  </node>
  <node id="1300615518" version="1" timestamp="2011-05-26T12:28:48Z" uid="7617" user="Franc" changeset="8253147" lat="-33.9256518" lon="151.2179801"/>
  <node id="1300615519" version="1" timestamp="2011-05-26T12:28:48Z" uid="7617" user="Franc" changeset="8253147" lat="-33.8877095" lon="151.1721032"/>
  <node id="1300615520" version="1" timestamp="2011-05-26T12:28:48Z" uid="7617" user="Franc" changeset="8253147" lat="-33.9174272" lon="151.1674099">
    <tag k="addr:housenumber" v="48"/>
    <tag k="addr:street" v="Railway Road"/>
    <tag k="source" v="survey"/>
  </node>
  <node id="1300615521" version="1" timestamp="2011-05-26T12:28:48Z" uid="7617" user="Franc" changeset="8253147" lat="-33.8880125" lon="151.1721032"/>
  <node id="1300615522" version="1" timestamp="2011-05-26T12:28:48Z" uid="7617" user="Franc" changeset="8253147" lat="-33.9164638" lon="151.1666843">
    <tag k="addr:housenumber" v="260"/>
    <tag k="addr:street" v="Unwins Bridge Road"/>
    <tag k="source" v="survey"/>
  </node>
  <node id="1300615523" version="1" timestamp="2011-05-26T12:28:49Z" uid="7617" user="Franc" changeset="8253147" lat="-33.8748466" lon="151.1561369">
    <tag k="addr:housenumber" v="287"/>
    <tag k="addr:street" v="Norton street"/>
    <tag k="source" v="survey"/>
  </node>
  <node id="1300615524" version="1" timestamp="2011-05-26T12:28:49Z" uid="7617" user="Franc" changeset="8253147" lat="-33.9249932" lon="151.217327"/>
  <node id="1300615525" version="1" timestamp="2011-05-26T12:28:49Z" uid="7617" user="Franc" changeset="8253147" lat="-33.9095733" lon="151.12282"/>
  <node id="1300615526" version="1" timestamp="2011-05-26T12:28:49Z" uid="7617" user="Franc" changeset="8253147" lat="-33.9254361" lon="151.217116"/>
  <node id="1300615527" version="1" timestamp="2011-05-26T12:28:49Z" uid="7617" user="Franc" changeset="8253147" lat="-33.8862055" lon="151.2178181">
    <tag k="addr:housenumber" v="485"/>
    <tag k="addr:street" v="South Dowling Street"/>
    <tag k="source" v="survey"/>
  </node>
  <node id="1300615528" version="1" timestamp="2011-05-26T12:28:49Z" uid="7617" user="Franc" changeset="8253147" lat="-33.8880507" lon="151.1719655"/>
  <node id="1300615529" version="1" timestamp="2011-05-26T12:28:49Z" uid="7617" user="Franc" changeset="8253147" lat="-33.9175532" lon="151.167535">
    <tag k="addr:housenumber" v="42"/>
    <tag k="addr:street" v="Railway Road"/>
    <tag k="source" v="survey"/>
  </node>
  <node id="1300615530" version="1" timestamp="2011-05-26T12:28:49Z" uid="7617" user="Franc" changeset="8253147" lat="-33.8853353" lon="151.1158422">
    <tag k="addr:housenumber" v="100"/>
    <tag k="addr:street" v="Thomas Street"/>
    <tag k="source" v="exrapolation"/>
  </node>
  <node id="1300615530" version="2" timestamp="2011-05-27T09:18:36Z" uid="7617" user="Franc" changeset="8260571" lat="-33.8853353" lon="151.1158422">
    <tag k="addr:housenumber" v="100"/>
    <tag k="addr:street" v="Thomas Street"/>
    <tag k="source" v="extrapolation"/>
  </node>
  <node id="1300615531" version="1" timestamp="2011-05-26T12:28:49Z" uid="7617" user="Franc" changeset="8253147" lat="-33.8883629" lon="151.1155586">
    <tag k="amenity" v="car_wash"/>
    <tag k="name" v="Car Wash Kingdm"/>
  </node>
  <node id="1300615532" version="1" timestamp="2011-05-26T12:28:49Z" uid="7617" user="Franc" changeset="8253147" lat="-33.9180185" lon="151.1474999">
    <tag k="addr:housenumber" v="501"/>
    <tag k="addr:street" v="Illawarra Road"/>
    <tag k="source" v="survey"/>
  </node>
  <node id="1300615533" version="1" timestamp="2011-05-26T12:28:49Z" uid="7617" user="Franc" changeset="8253147" lat="-33.9030132" lon="151.1186689"/>
  <node id="1300615534" version="1" timestamp="2011-05-26T12:28:49Z" uid="7617" user="Franc" changeset="8253147" lat="-33.8848104" lon="151.1148582">
    <tag k="addr:housenumber" v="112"/>
    <tag k="addr:street" v="Thomas Street"/>
    <tag k="source" v="exrapolation"/>
  </node>
  <node id="1300615534" version="2" timestamp="2011-05-27T09:18:32Z" uid="7617" user="Franc" changeset="8260571" lat="-33.8848104" lon="151.1148582">
    <tag k="addr:housenumber" v="112"/>
    <tag k="addr:street" v="Thomas Street"/>
    <tag k="source" v="extrapolation"/>
  </node>
  <node id="1300615535" version="1" timestamp="2011-05-26T12:28:50Z" uid="7617" user="Franc" changeset="8253147" lat="-33.9176786" lon="151.147724">
    <tag k="addr:housenumber" v="438-454"/>
    <tag k="addr:street" v="Illawarra Road"/>
    <tag k="source" v="survey"/>
  </node>
  <node id="1300615536" version="1" timestamp="2011-05-26T12:28:50Z" uid="7617" user="Franc" changeset="8253147" lat="-33.8881336" lon="151.1719195"/>
  <node id="1300615537" version="1" timestamp="2011-05-26T12:28:50Z" uid="7617" user="Franc" changeset="8253147" lat="-33.9168591" lon="151.1668309">
    <tag k="addr:housenumber" v="72"/>
    <tag k="addr:street" v="Railway Road"/>
    <tag k="source" v="extrapolation"/>
  </node>
  <node id="1300615538" version="1" timestamp="2011-05-26T12:28:50Z" uid="7617" user="Franc" changeset="8253147" lat="-33.8880545" lon="151.17214"/>
  <node id="1300615539" version="1" timestamp="2011-05-26T12:28:50Z" uid="7617" user="Franc" changeset="8253147" lat="-33.888292" lon="151.1717201"/>
  <node id="1300615540" version="1" timestamp="2011-05-26T12:28:50Z" uid="7617" user="Franc" changeset="8253147" lat="-33.8768343" lon="151.1878301">
    <tag k="addr:housenumber" v="11"/>
    <tag k="addr:street" v="Pyrmont Bridge Road"/>
    <tag k="source" v="survey"/>
  </node>
  <node id="1300615540" version="2" timestamp="2011-05-28T12:51:45Z" uid="7617" user="Franc" changeset="8271467" lat="-33.8768343" lon="151.1878301">
    <tag k="addr:housenumber" v="11"/>
    <tag k="addr:street" v="Bridge Road"/>
    <tag k="source" v="survey"/>
  </node>
  <node id="1300615541" version="1" timestamp="2011-05-26T12:28:50Z" uid="7617" user="Franc" changeset="8253147" lat="-33.8851848" lon="151.1158994">
    <tag k="addr:housenumber" v="79"/>
    <tag k="addr:street" v="Thomas Street"/>
    <tag k="source" v="exrapolation"/>
  </node>
  <node id="1300615541" version="2" timestamp="2011-05-27T09:18:31Z" uid="7617" user="Franc" changeset="8260571" lat="-33.8851848" lon="151.1158994">
    <tag k="addr:housenumber" v="79"/>
    <tag k="addr:street" v="Thomas Street"/>
    <tag k="source" v="extrapolation"/>
  </node>
  <node id="1300615542" version="1" timestamp="2011-05-26T12:28:50Z" uid="7617" user="Franc" changeset="8253147" lat="-33.908201" lon="151.1251718"/>
  <node id="1300615543" version="1" timestamp="2011-05-26T12:28:50Z" uid="7617" user="Franc" changeset="8253147" lat="-33.8881593" lon="151.1721859"/>
  <node id="1300615544" version="1" timestamp="2011-05-26T12:28:50Z" uid="7617" user="Franc" changeset="8253147" lat="-33.881331" lon="151.2054046">
    <tag k="addr:housenumber" v="2-24"/>
    <tag k="addr:street" v="Rawson Place"/>
    <tag k="source" v="survey"/>
  </node>
  <node id="1300615545" version="1" timestamp="2011-05-26T12:28:50Z" uid="7617" user="Franc" changeset="8253147" lat="-33.8852543" lon="151.1156976">
    <tag k="addr:housenumber" v="104"/>
    <tag k="addr:street" v="Thomas Street"/>
    <tag k="source" v="survey"/>
  </node>
  <node id="1300615546" version="1" timestamp="2011-05-26T12:28:50Z" uid="7617" user="Franc" changeset="8253147" lat="-33.8854398" lon="151.1163792">
    <tag k="addr:housenumber" v="71"/>
    <tag k="addr:street" v="Thomas Street"/>
    <tag k="source" v="exrapolation"/>
  </node>
  <node id="1300615546" version="2" timestamp="2011-05-27T09:18:37Z" uid="7617" user="Franc" changeset="8260571" lat="-33.8854398" lon="151.1163792">
    <tag k="addr:housenumber" v="71"/>
    <tag k="addr:street" v="Thomas Street"/>
    <tag k="source" v="extrapolation"/>
  </node>
  <node id="1300615547" version="1" timestamp="2011-05-26T12:28:50Z" uid="7617" user="Franc" changeset="8253147" lat="-33.917387" lon="151.1673757">
    <tag k="addr:housenumber" v="50"/>
    <tag k="addr:street" v="Railway Road"/>
    <tag k="source" v="extrapolation"/>
  </node>
  <node id="1300615548" version="1" timestamp="2011-05-26T12:28:50Z" uid="7617" user="Franc" changeset="8253147" lat="-33.9175878" lon="151.1458011">
    <tag k="addr:housenumber" v="32-38"/>
    <tag k="addr:street" v="Hill Street"/>
    <tag k="source" v="survey"/>
  </node>
  <node id="1300615549" version="1" timestamp="2011-05-26T12:28:50Z" uid="7617" user="Franc" changeset="8253147" lat="-33.8878248" lon="151.172148"/>
  <node id="1300615550" version="1" timestamp="2011-05-26T12:28:50Z" uid="7617" user="Franc" changeset="8253147" lat="-33.8876854" lon="151.1157978">
    <tag k="addr:housenumber" v="21"/>
    <tag k="addr:street" v="Wetherill Street"/>
    <tag k="source" v="survey"/>
  </node>
  <node id="1300615551" version="1" timestamp="2011-05-26T12:28:50Z" uid="7617" user="Franc" changeset="8253147" lat="-33.9252715" lon="151.2194872"/>
  <node id="1300615552" version="1" timestamp="2011-05-26T12:28:50Z" uid="7617" user="Franc" changeset="8253147" lat="-33.8881908" lon="151.1719046"/>
  <node id="1300615553" version="1" timestamp="2011-05-26T12:28:51Z" uid="7617" user="Franc" changeset="8253147" lat="-33.9226656" lon="151.2059241">
    <tag k="addr:housenumber" v="324"/>
    <tag k="addr:street" v="Gardeners Road"/>
    <tag k="source" v="survey"/>
  </node>
  <node id="1300615554" version="1" timestamp="2011-05-26T12:28:51Z" uid="7617" user="Franc" changeset="8253147" lat="-33.9255664" lon="151.2179587"/>
  <node id="1300615555" version="1" timestamp="2011-05-26T12:28:51Z" uid="7617" user="Franc" changeset="8253147" lat="-33.888317" lon="151.1721348"/>
  <node id="1300615556" version="1" timestamp="2011-05-26T12:28:51Z" uid="7617" user="Franc" changeset="8253147" lat="-33.888092" lon="151.115097">
    <tag k="amenity" v="fuel"/>
    <tag k="name" v="Speedway"/>
    <tag k="shop" v="convenience"/>
  </node>
  <node id="1300615557" version="1" timestamp="2011-05-26T12:28:51Z" uid="7617" user="Franc" changeset="8253147" lat="-33.9253007" lon="151.2172052"/>
  <node id="1300615558" version="1" timestamp="2011-05-26T12:28:51Z" uid="7617" user="Franc" changeset="8253147" lat="-33.8845292" lon="151.1147596">
    <tag k="addr:housenumber" v="83"/>
    <tag k="addr:street" v="Thomas Street"/>
    <tag k="source" v="survey"/>
  </node>
  <node id="1300615559" version="1" timestamp="2011-05-26T12:28:51Z" uid="7617" user="Franc" changeset="8253147" lat="-33.8880926" lon="151.1720837"/>
  <node id="1300615560" version="1" timestamp="2011-05-26T12:28:51Z" uid="7617" user="Franc" changeset="8253147" lat="-33.8771209" lon="151.1875931"/>
  <node id="1300615561" version="1" timestamp="2011-05-26T12:28:51Z" uid="7617" user="Franc" changeset="8253147" lat="-33.8853806" lon="151.1159204">
    <tag k="addr:housenumber" v="98"/>
    <tag k="addr:street" v="Thomas Street"/>
    <tag k="source" v="exrapolation"/>
  </node>
  <node id="1300615561" version="2" timestamp="2011-05-27T09:18:30Z" uid="7617" user="Franc" changeset="8260571" lat="-33.8853806" lon="151.1159204">
    <tag k="addr:housenumber" v="98"/>
    <tag k="addr:street" v="Thomas Street"/>
    <tag k="source" v="extrapolation"/>
  </node>
  <node id="1300615562" version="1" timestamp="2011-05-26T12:28:51Z" uid="7617" user="Franc" changeset="8253147" lat="-33.887862" lon="151.1718024"/>
  <node id="1300615563" version="1" timestamp="2011-05-26T12:28:51Z" uid="7617" user="Franc" changeset="8253147" lat="-33.8848837" lon="151.114985">
    <tag k="addr:housenumber" v="110"/>
    <tag k="addr:street" v="Thomas Street"/>
    <tag k="source" v="exrapolation"/>
  </node>
  <node id="1300615563" version="2" timestamp="2011-05-29T08:31:59Z" uid="7617" user="Franc" changeset="8278454" lat="-33.8848837" lon="151.114985">
    <tag k="addr:housenumber" v="110"/>
    <tag k="addr:street" v="Thomas Street"/>
    <tag k="source" v="extrapolation"/>
  </node>
  <node id="1300615564" version="1" timestamp="2011-05-26T12:28:51Z" uid="7617" user="Franc" changeset="8253147" lat="-33.8769633" lon="151.1876228"/>
  <node id="1300615565" version="1" timestamp="2011-05-26T12:28:51Z" uid="7617" user="Franc" changeset="8253147" lat="-33.8882927" lon="151.1721882"/>
  <node id="1300615566" version="1" timestamp="2011-05-26T12:28:51Z" uid="7617" user="Franc" changeset="8253147" lat="-33.8746647" lon="151.1561295">
    <tag k="addr:housenumber" v="289"/>
    <tag k="addr:street" v="Norton street"/>
    <tag k="source" v="survey"/>
  </node>
  <node id="1300615567" version="1" timestamp="2011-05-26T12:28:51Z" uid="7617" user="Franc" changeset="8253147" lat="-33.9250328" lon="151.2176498"/>
  <node id="1300615568" version="1" timestamp="2011-05-26T12:28:52Z" uid="7617" user="Franc" changeset="8253147" lat="-33.9080894" lon="151.1239494"/>
  <node id="1300615569" version="1" timestamp="2011-05-26T12:28:52Z" uid="7617" user="Franc" changeset="8253147" lat="-33.9255299" lon="151.2179788"/>
  <node id="1300615570" version="1" timestamp="2011-05-26T12:28:52Z" uid="7617" user="Franc" changeset="8253147" lat="-33.877511" lon="151.1881311">
    <tag k="addr:housenumber" v="48"/>
    <tag k="addr:street" v="Pyrmont Bridge Road"/>
    <tag k="source" v="survey"/>
  </node>
  <node id="1300615570" version="2" timestamp="2011-06-10T22:10:02Z" uid="7617" user="Franc" changeset="8401446" lat="-33.877511" lon="151.1881311">
    <tag k="addr:housenumber" v="48"/>
    <tag k="addr:street" v="Bridge Road"/>
    <tag k="source" v="survey"/>
  </node>
  <node id="1300615571" version="1" timestamp="2011-05-26T12:28:52Z" uid="7617" user="Franc" changeset="8253147" lat="-33.8881474" lon="151.1721636"/>
  <node id="1300615572" version="1" timestamp="2011-05-26T12:28:52Z" uid="7617" user="Franc" changeset="8253147" lat="-33.9168931" lon="151.1668641">
    <tag k="addr:housenumber" v="70"/>
    <tag k="addr:street" v="Railway Road"/>
    <tag k="source" v="survey"/>
  </node>
  <node id="1300615573" version="1" timestamp="2011-05-26T12:28:52Z" uid="7617" user="Franc" changeset="8253147" lat="-33.8877962" lon="151.1718851"/>
  <node id="1300615574" version="1" timestamp="2011-05-26T12:28:52Z" uid="7617" user="Franc" changeset="8253147" lat="-33.9165938" lon="151.1664985">
    <tag k="addr:housenumber" v="262"/>
    <tag k="addr:street" v="Unwins Bridge Road"/>
    <tag k="source" v="extrapolation"/>
  </node>
  <node id="1300615575" version="1" timestamp="2011-05-26T12:28:52Z" uid="7617" user="Franc" changeset="8253147" lat="-33.8880602" lon="151.1720757"/>
  <node id="1300615576" version="1" timestamp="2011-05-26T12:28:52Z" uid="7617" user="Franc" changeset="8253147" lat="-33.9249515" lon="151.2168648"/>
  <node id="1300615577" version="1" timestamp="2011-05-26T12:28:52Z" uid="7617" user="Franc" changeset="8253147" lat="-33.882092" lon="151.182419">
    <tag k="addr:housenumber" v="229"/>
    <tag k="addr:street" v="Bridge Road"/>
    <tag k="source" v="survey"/>
  </node>
  <node id="1300615578" version="1" timestamp="2011-05-26T12:28:52Z" uid="7617" user="Franc" changeset="8253147" lat="-33.8883291" lon="151.1721282"/>
  <node id="1300615579" version="1" timestamp="2011-05-26T12:28:52Z" uid="7617" user="Franc" changeset="8253147" lat="-33.9091367" lon="151.1200982"/>
  <node id="1300615580" version="1" timestamp="2011-05-26T12:28:52Z" uid="7617" user="Franc" changeset="8253147" lat="-33.8853784" lon="151.1162514">
    <tag k="addr:housenumber" v="73"/>
    <tag k="addr:street" v="Thomas Street"/>
    <tag k="source" v="exrapolation"/>
  </node>
  <node id="1300615580" version="2" timestamp="2011-05-27T09:18:34Z" uid="7617" user="Franc" changeset="8260571" lat="-33.8853784" lon="151.1162514">
    <tag k="addr:housenumber" v="73"/>
    <tag k="addr:street" v="Thomas Street"/>
    <tag k="source" v="extrapolation"/>
  </node>
  <node id="1300615581" version="1" timestamp="2011-05-26T12:28:52Z" uid="7617" user="Franc" changeset="8253147" lat="-33.9167703" lon="151.1496069">
    <tag k="amenity" v="restaurant"/>
    <tag k="cuisine" v="pizza"/>
    <tag k="source" v="survey"/>
  </node>
  <node id="1300615582" version="1" timestamp="2011-05-26T12:28:52Z" uid="7617" user="Franc" changeset="8253147" lat="-33.9257919" lon="151.2193773"/>
  <node id="1300615583" version="1" timestamp="2011-05-26T12:28:52Z" uid="7617" user="Franc" changeset="8253147" lat="-33.8863663" lon="151.1167169">
    <tag k="addr:housenumber" v="44"/>
    <tag k="addr:street" v="Wetherill Street"/>
    <tag k="source" v="survey"/>
  </node>
  <node id="1300615584" version="1" timestamp="2011-05-26T12:28:52Z" uid="7617" user="Franc" changeset="8253147" lat="-33.925285" lon="151.2170306"/>
  <node id="1300615585" version="1" timestamp="2011-05-26T12:28:52Z" uid="7617" user="Franc" changeset="8253147" lat="-33.8874986" lon="151.1157733">
    <tag k="addr:housenumber" v="22"/>
    <tag k="addr:street" v="Wetherill Street"/>
    <tag k="source" v="survey"/>
  </node>
  <node id="1300615586" version="1" timestamp="2011-05-26T12:28:53Z" uid="7617" user="Franc" changeset="8253147" lat="-33.8882298" lon="151.1721951"/>
  <node id="1300615587" version="1" timestamp="2011-05-26T12:28:53Z" uid="7617" user="Franc" changeset="8253147" lat="-33.9082752" lon="151.123669"/>
  <node id="1300615588" version="1" timestamp="2011-05-26T12:28:53Z" uid="7617" user="Franc" changeset="8253147" lat="-33.9094216" lon="151.1229114"/>
  <node id="1300615589" version="1" timestamp="2011-05-26T12:28:53Z" uid="7617" user="Franc" changeset="8253147" lat="-33.875122" lon="151.2054932">
    <tag k="addr:housenumber" v="490"/>
    <tag k="addr:street" v="Kent Street"/>
    <tag k="source" v="survey"/>
  </node>
  <node id="1300615590" version="1" timestamp="2011-05-26T12:28:53Z" uid="7617" user="Franc" changeset="8253147" lat="-33.9258728" lon="151.2192084"/>
  <node id="1300615591" version="1" timestamp="2011-05-26T12:28:53Z" uid="7617" user="Franc" changeset="8253147" lat="-33.9060939" lon="151.1214794"/>
  <node id="1300615592" version="1" timestamp="2011-05-26T12:28:53Z" uid="7617" user="Franc" changeset="8253147" lat="-33.9078529" lon="151.1234665"/>
  <node id="1300615593" version="1" timestamp="2011-05-26T12:28:53Z" uid="7617" user="Franc" changeset="8253147" lat="-33.925903" lon="151.2185076"/>
  <node id="1300615594" version="1" timestamp="2011-05-26T12:28:53Z" uid="7617" user="Franc" changeset="8253147" lat="-33.8877295" lon="151.1718449"/>
  <node id="1300615595" version="1" timestamp="2011-05-26T12:28:53Z" uid="7617" user="Franc" changeset="8253147" lat="-33.917458" lon="151.1674422">
    <tag k="addr:housenumber" v="46"/>
    <tag k="addr:street" v="Railway Road"/>
    <tag k="source" v="survey"/>
  </node>
  <node id="1300615596" version="1" timestamp="2011-05-26T12:28:53Z" uid="7617" user="Franc" changeset="8253147" lat="-33.8863136" lon="151.1169371">
    <tag k="addr:housenumber" v="51"/>
    <tag k="addr:street" v="Wetherill Street"/>
    <tag k="source" v="survey"/>
  </node>
  <node id="1300615597" version="1" timestamp="2011-05-26T12:28:53Z" uid="7617" user="Franc" changeset="8253147" lat="-33.918377" lon="151.168655">
    <tag k="name" v="Stone Villa Artist&apos;s Studio"/>
    <tag k="source" v="survey"/>
  </node>
  <node id="1300615598" version="1" timestamp="2011-05-26T12:28:53Z" uid="7617" user="Franc" changeset="8253147" lat="-33.8756879" lon="151.1331761">
    <tag k="addr:housenumber" v="41"/>
    <tag k="addr:street" v="Wattle Street"/>
    <tag k="source" v="survey"/>
  </node>
  <node id="1300615599" version="1" timestamp="2011-05-26T12:28:53Z" uid="7617" user="Franc" changeset="8253147" lat="-33.8877848" lon="151.172078"/>
  <node id="1300615600" version="1" timestamp="2011-05-26T12:28:53Z" uid="7617" user="Franc" changeset="8253147" lat="-33.9257644" lon="151.2193717"/>
  <node id="1300619906" version="1" timestamp="2011-05-26T12:37:32Z" uid="115477" user="wowik" changeset="8252850" lat="55.9197924" lon="37.3771211"/>
  <node id="1300619907" version="1" timestamp="2011-05-26T12:37:32Z" uid="115477" user="wowik" changeset="8252850" lat="55.919984" lon="37.3776046"/>
  <node id="1300619909" version="1" timestamp="2011-05-26T12:37:32Z" uid="115477" user="wowik" changeset="8252850" lat="55.9199823" lon="37.3769753"/>
  <node id="1300619910" version="1" timestamp="2011-05-26T12:37:32Z" uid="115477" user="wowik" changeset="8252850" lat="55.9200601" lon="37.3774709"/>
  <node id="1300619911" version="1" timestamp="2011-05-26T12:37:32Z" uid="115477" user="wowik" changeset="8252850" lat="55.9195534" lon="37.3757785"/>
  <node id="1300619912" version="1" timestamp="2011-05-26T12:37:32Z" uid="115477" user="wowik" changeset="8252850" lat="55.9197606" lon="37.378289"/>
  <node id="1300619914" version="1" timestamp="2011-05-26T12:37:32Z" uid="115477" user="wowik" changeset="8252850" lat="55.9205737" lon="37.3763764"/>
  <node id="1300619915" version="1" timestamp="2011-05-26T12:37:32Z" uid="115477" user="wowik" changeset="8252850" lat="55.9203334" lon="37.3767236"/>
  <node id="1300619916" version="1" timestamp="2011-05-26T12:37:32Z" uid="115477" user="wowik" changeset="8252850" lat="55.9202769" lon="37.3763033"/>
  <node id="1300619917" version="1" timestamp="2011-05-26T12:37:32Z" uid="115477" user="wowik" changeset="8252850" lat="55.9200849" lon="37.3770975"/>
  <node id="1300619918" version="1" timestamp="2011-05-26T12:37:32Z" uid="115477" user="wowik" changeset="8252850" lat="55.9198229" lon="37.3771483"/>
  <node id="1300619919" version="1" timestamp="2011-05-26T12:37:32Z" uid="115477" user="wowik" changeset="8252850" lat="55.9203636" lon="37.3772214"/>
  <node id="1300619920" version="1" timestamp="2011-05-26T12:37:32Z" uid="115477" user="wowik" changeset="8252850" lat="55.9196771" lon="37.3772497"/>
  <node id="1300619921" version="1" timestamp="2011-05-26T12:37:32Z" uid="115477" user="wowik" changeset="8252850" lat="55.9199526" lon="37.3757602"/>
  <node id="1300619922" version="1" timestamp="2011-05-26T12:37:32Z" uid="115477" user="wowik" changeset="8252850" lat="55.9195803" lon="37.3781175"/>
  <node id="1300619923" version="1" timestamp="2011-05-26T12:37:32Z" uid="115477" user="wowik" changeset="8252850" lat="55.9202106" lon="37.376046"/>
  <node id="1300619925" version="1" timestamp="2011-05-26T12:37:32Z" uid="115477" user="wowik" changeset="8252850" lat="55.9200394" lon="37.376926"/>
  <node id="1300619926" version="1" timestamp="2011-05-26T12:37:32Z" uid="115477" user="wowik" changeset="8252850" lat="55.9205875" lon="37.3769075"/>
  <node id="1300619928" version="1" timestamp="2011-05-26T12:37:32Z" uid="115477" user="wowik" changeset="8252850" lat="55.9199221" lon="37.3776687"/>
  <node id="1300619929" version="1" timestamp="2011-05-26T12:37:32Z" uid="115477" user="wowik" changeset="8252850" lat="55.919981" lon="37.3772229"/>
  <node id="1300619930" version="1" timestamp="2011-05-26T12:37:32Z" uid="115477" user="wowik" changeset="8252850" lat="55.9201996" lon="37.3773028"/>
  <node id="1300619931" version="1" timestamp="2011-05-26T12:37:32Z" uid="115477" user="wowik" changeset="8252850" lat="55.9200089" lon="37.377701"/>
  <node id="1300619932" version="1" timestamp="2011-05-26T12:37:33Z" uid="115477" user="wowik" changeset="8252850" lat="55.9202386" lon="37.3775937"/>
  <node id="1300619933" version="1" timestamp="2011-05-26T12:37:33Z" uid="115477" user="wowik" changeset="8252850" lat="55.9203289" lon="37.3759683"/>
  <node id="1300619935" version="1" timestamp="2011-05-26T12:37:33Z" uid="115477" user="wowik" changeset="8252850" lat="55.9202846" lon="37.37664"/>
  <node id="1300619936" version="1" timestamp="2011-05-26T12:37:33Z" uid="115477" user="wowik" changeset="8252850" lat="55.9195507" lon="37.3757877"/>
  <node id="1300619937" version="1" timestamp="2011-05-26T12:37:33Z" uid="115477" user="wowik" changeset="8252850" lat="55.9205569" lon="37.3769276"/>
  <node id="1300619938" version="1" timestamp="2011-05-26T12:37:33Z" uid="115477" user="wowik" changeset="8252850" lat="55.9204931" lon="37.376314"/>
  <node id="1300619939" version="1" timestamp="2011-05-26T12:37:33Z" uid="115477" user="wowik" changeset="8252850" lat="55.9196943" lon="37.375956"/>
  <node id="1300619941" version="1" timestamp="2011-05-26T12:37:33Z" uid="115477" user="wowik" changeset="8252850" lat="55.920308" lon="37.3767419"/>
  <node id="1300619942" version="1" timestamp="2011-05-26T12:37:33Z" uid="115477" user="wowik" changeset="8252850" lat="55.9203378" lon="37.3762979"/>
  <node id="1300619943" version="1" timestamp="2011-05-26T12:37:33Z" uid="115477" user="wowik" changeset="8252850" lat="55.9199546" lon="37.3769902"/>
  <node id="1300619945" version="1" timestamp="2011-05-26T12:37:33Z" uid="115477" user="wowik" changeset="8252850" lat="55.9197838" lon="37.3778561"/>
  <node id="1300619946" version="1" timestamp="2011-05-26T12:37:33Z" uid="115477" user="wowik" changeset="8252850" lat="55.9201606" lon="37.3761052"/>
  <node id="1300619947" version="1" timestamp="2011-05-26T12:37:33Z" uid="115477" user="wowik" changeset="8252850" lat="55.9200421" lon="37.3760288"/>
  <node id="1300619948" version="1" timestamp="2011-05-26T12:37:33Z" uid="115477" user="wowik" changeset="8252850" lat="55.9205812" lon="37.3770407"/>
  <node id="1300619949" version="1" timestamp="2011-05-26T12:37:33Z" uid="115477" user="wowik" changeset="8252850" lat="55.9201252" lon="37.3760247"/>
  <node id="1300619950" version="1" timestamp="2011-05-26T12:37:33Z" uid="115477" user="wowik" changeset="8252850" lat="55.919303" lon="37.3786655"/>
  <node id="1300619951" version="1" timestamp="2011-05-26T12:37:33Z" uid="115477" user="wowik" changeset="8252850" lat="55.9193427" lon="37.3764797"/>
  <node id="1300619952" version="1" timestamp="2011-05-26T12:37:33Z" uid="115477" user="wowik" changeset="8252850" lat="55.9199441" lon="37.377173"/>
  <node id="1300619955" version="1" timestamp="2011-05-26T12:37:34Z" uid="115477" user="wowik" changeset="8252850" lat="55.9205732" lon="37.3764996"/>
  <node id="1300619956" version="1" timestamp="2011-05-26T12:37:34Z" uid="115477" user="wowik" changeset="8252850" lat="55.9199729" lon="37.377599"/>
  <node id="1300619957" version="1" timestamp="2011-05-26T12:37:34Z" uid="115477" user="wowik" changeset="8252850" lat="55.9203406" lon="37.3760346"/>
  <node id="1300619958" version="1" timestamp="2011-05-26T12:37:34Z" uid="115477" user="wowik" changeset="8252850" lat="55.9202357" lon="37.3777945"/>
  <node id="1300619959" version="1" timestamp="2011-05-26T12:37:34Z" uid="115477" user="wowik" changeset="8252850" lat="55.9201662" lon="37.3763836"/>
  <node id="1300619960" version="1" timestamp="2011-05-26T12:37:34Z" uid="115477" user="wowik" changeset="8252850" lat="55.9199819" lon="37.3758492"/>
  <node id="1300619964" version="1" timestamp="2011-05-26T12:37:34Z" uid="115477" user="wowik" changeset="8252850" lat="55.9204599" lon="37.3765997"/>
  <node id="1300619966" version="1" timestamp="2011-05-26T12:37:34Z" uid="115477" user="wowik" changeset="8252850" lat="55.9200897" lon="37.3773983"/>
  <node id="1300619968" version="1" timestamp="2011-05-26T12:37:34Z" uid="115477" user="wowik" changeset="8252850" lat="55.9195437" lon="37.3757696"/>
  <node id="1300619970" version="1" timestamp="2011-05-26T12:37:34Z" uid="115477" user="wowik" changeset="8252850" lat="55.9197854" lon="37.3782015"/>
  <node id="1300619971" version="1" timestamp="2011-05-26T12:37:34Z" uid="115477" user="wowik" changeset="8252850" lat="55.9203251" lon="37.3767079"/>
  <node id="1300619974" version="1" timestamp="2011-05-26T12:37:34Z" uid="115477" user="wowik" changeset="8252850" lat="55.9202959" lon="37.3763536"/>
  <node id="1300619976" version="1" timestamp="2011-05-26T12:37:34Z" uid="115477" user="wowik" changeset="8252850" lat="55.9201366" lon="37.3770526"/>
  <node id="1300619977" version="1" timestamp="2011-05-26T12:37:34Z" uid="115477" user="wowik" changeset="8252850" lat="55.9203278" lon="37.3772881"/>
  <node id="1300619980" version="1" timestamp="2011-05-26T12:37:34Z" uid="115477" user="wowik" changeset="8252850" lat="55.9198325" lon="37.3755139"/>
  <node id="1300619982" version="1" timestamp="2011-05-26T12:37:34Z" uid="115477" user="wowik" changeset="8252850" lat="55.91907" lon="37.3776601"/>
  <node id="1300619983" version="1" timestamp="2011-05-26T12:37:34Z" uid="115477" user="wowik" changeset="8252850" lat="55.9202494" lon="37.3761479"/>
  <node id="1300619985" version="1" timestamp="2011-05-26T12:37:35Z" uid="115477" user="wowik" changeset="8252850" lat="55.9198324" lon="37.3781241"/>
  <node id="1300619987" version="1" timestamp="2011-05-26T12:37:35Z" uid="115477" user="wowik" changeset="8252850" lat="55.9199416" lon="37.3773154"/>
  <node id="1300619989" version="1" timestamp="2011-05-26T12:37:35Z" uid="115477" user="wowik" changeset="8252850" lat="55.9204517" lon="37.3770577"/>
  <node id="1300619994" version="1" timestamp="2011-05-26T12:37:35Z" uid="115477" user="wowik" changeset="8252850" lat="55.9202187" lon="37.3773356"/>
  <node id="1300619995" version="1" timestamp="2011-05-26T12:37:35Z" uid="115477" user="wowik" changeset="8252850" lat="55.9185228" lon="37.3793625"/>
  <node id="1300619996" version="1" timestamp="2011-05-26T12:37:35Z" uid="115477" user="wowik" changeset="8252850" lat="55.9199396" lon="37.3777411"/>
  <node id="1300619997" version="1" timestamp="2011-05-26T12:37:35Z" uid="115477" user="wowik" changeset="8252850" lat="55.920291" lon="37.3774067"/>
  <node id="1300619999" version="1" timestamp="2011-05-26T12:37:35Z" uid="115477" user="wowik" changeset="8252850" lat="55.9203" lon="37.3759845"/>
</osm>
