<?xml version='1.0' encoding='UTF-8'?>
<osm version="0.6" generator="libosmium/2.20.0">
  <node id="1304350442" version="1" timestamp="2011-05-29T06:04:42Z" uid="7617" user="Franc" changeset="8277649" lat="-33.9133383" lon="151.1546823">
    <tag k="addr:housenumber" v="9"/>
    <tag k="addr:street" v="Byrnes Street"/>
    <tag k="source" v="extrapolation"/>
  </node>
  <node id="1304350443" version="1" timestamp="2011-05-29T06:04:42Z" uid="7617" user="Franc" changeset="8277649" lat="-33.9153081" lon="151.1471803">
    <tag k="addr:housenumber" v="31-35"/>
    <tag k="addr:street" v="Harnett Avenue"/>
    <tag k="source" v="extrapolation"/>
  </node>
  <node id="1304350444" version="1" timestamp="2011-05-29T06:04:42Z" uid="7617" user="Franc" changeset="8277649" lat="-33.9157138" lon="151.1478972">
    <tag k="addr:housenumber" v="19"/>
    <tag k="addr:street" v="Harnett Avenue"/>
    <tag k="source" v="survey"/>
  </node>
  <node id="1304350445" version="1" timestamp="2011-05-29T06:04:42Z" uid="7617" user="Franc" changeset="8277649" lat="-33.9158101" lon="151.1480709">
    <tag k="addr:housenumber" v="15a"/>
    <tag k="addr:street" v="Harnett Avenue"/>
    <tag k="source" v="survey"/>
  </node>
  <node id="1304350446" version="1" timestamp="2011-05-29T06:04:42Z" uid="7617" user="Franc" changeset="8277649" lat="-33.9156786" lon="151.1478344">
    <tag k="addr:housenumber" v="21"/>
    <tag k="addr:street" v="Harnett Avenue"/>
    <tag k="source" v="survey"/>
  </node>
  <node id="1304350447" version="1" timestamp="2011-05-29T06:04:42Z" uid="7617" user="Franc" changeset="8277649" lat="-33.9131421" lon="151.1543423">
    <tag k="addr:housenumber" v="1"/>
    <tag k="addr:street" v="Byrnes Street"/>
    <tag k="source" v="extrapolation"/>
  </node>
  <node id="1304350448" version="1" timestamp="2011-05-29T06:04:42Z" uid="7617" user="Franc" changeset="8277649" lat="-33.9154781" lon="151.1474558">
    <tag k="addr:housenumber" v="27"/>
    <tag k="addr:street" v="Harnett Avenue"/>
    <tag k="source" v="survey"/>
  </node>
  <node id="1304350449" version="1" timestamp="2011-05-29T06:04:42Z" uid="7617" user="Franc" changeset="8277649" lat="-33.915788" lon="151.1480353">
    <tag k="addr:housenumber" v="15"/>
    <tag k="addr:street" v="Harnett Avenue"/>
    <tag k="source" v="survey"/>
  </node>
  <node id="1304350450" version="1" timestamp="2011-05-29T06:04:42Z" uid="7617" user="Franc" changeset="8277649" lat="-33.913175" lon="151.1544009">
    <tag k="addr:housenumber" v="3"/>
    <tag k="addr:street" v="Byrnes Street"/>
    <tag k="source" v="survey"/>
  </node>
  <node id="1304350451" version="1" timestamp="2011-05-29T06:04:43Z" uid="7617" user="Franc" changeset="8277649" lat="-33.9159769" lon="151.148362">
    <tag k="addr:housenumber" v="13"/>
    <tag k="addr:street" v="Harnett Avenue"/>
    <tag k="source" v="extrapolation"/>
  </node>
  <node id="1304350452" version="1" timestamp="2011-05-29T06:04:43Z" uid="7617" user="Franc" changeset="8277649" lat="-33.9156251" lon="151.1477399">
    <tag k="addr:housenumber" v="23"/>
    <tag k="addr:street" v="Harnett Avenue"/>
    <tag k="source" v="survey"/>
  </node>
  <node id="1304350453" version="1" timestamp="2011-05-29T06:04:43Z" uid="7617" user="Franc" changeset="8277649" lat="-33.9135137" lon="151.1549847">
    <tag k="addr:housenumber" v="15"/>
    <tag k="addr:street" v="Byrnes Street"/>
    <tag k="source" v="survey"/>
  </node>
  <node id="1304350454" version="1" timestamp="2011-05-29T06:04:43Z" uid="7617" user="Franc" changeset="8277649" lat="-33.9160329" lon="151.1484612">
    <tag k="addr:housenumber" v="11"/>
    <tag k="addr:street" v="Harnett Avenue"/>
    <tag k="source" v="survey"/>
  </node>
  <node id="1304350455" version="1" timestamp="2011-05-29T06:04:43Z" uid="7617" user="Franc" changeset="8277649" lat="-33.9153996" lon="151.1473233">
    <tag k="addr:housenumber" v="29"/>
    <tag k="addr:street" v="Harnett Avenue"/>
    <tag k="source" v="survey"/>
  </node>
  <node id="1304350456" version="1" timestamp="2011-05-29T06:04:43Z" uid="7617" user="Franc" changeset="8277649" lat="-33.9133895" lon="151.1547744">
    <tag k="addr:housenumber" v="11"/>
    <tag k="addr:street" v="Byrnes Street"/>
    <tag k="source" v="extrapolation"/>
  </node>
  <node id="1304350457" version="1" timestamp="2011-05-29T06:04:43Z" uid="7617" user="Franc" changeset="8277649" lat="-33.9155509" lon="151.1476114">
    <tag k="addr:housenumber" v="25"/>
    <tag k="addr:street" v="Harnett Avenue"/>
    <tag k="source" v="survey"/>
  </node>
  <node id="1304350458" version="1" timestamp="2011-05-29T06:04:43Z" uid="7617" user="Franc" changeset="8277649" lat="-33.9132159" lon="151.1544731">
    <tag k="addr:housenumber" v="5"/>
    <tag k="addr:street" v="Byrnes Street"/>
    <tag k="source" v="survey"/>
  </node>
  <node id="1304350459" version="1" timestamp="2011-05-29T06:04:43Z" uid="7617" user="Franc" changeset="8277649" lat="-33.9160711" lon="151.1485206">
    <tag k="addr:housenumber" v="9"/>
    <tag k="addr:street" v="Harnett Avenue"/>
    <tag k="source" v="survey"/>
  </node>
  <node id="1304350467" version="1" timestamp="2011-05-29T06:04:43Z" uid="7617" user="Franc" changeset="8277649" lat="-33.9132819" lon="151.1545819">
    <tag k="addr:housenumber" v="7"/>
    <tag k="addr:street" v="Byrnes Street"/>
    <tag k="source" v="extrapolation"/>
  </node>
  <node id="1304350468" version="1" timestamp="2011-05-29T06:04:43Z" uid="7617" user="Franc" changeset="8277649" lat="-33.9135807" lon="151.1556654">
    <tag k="addr:housenumber" v="34"/>
    <tag k="addr:street" v="O&apos;Hara Street"/>
    <tag k="source" v="survey"/>
  </node>
  <node id="1304350469" version="1" timestamp="2011-05-29T06:04:43Z" uid="7617" user="Franc" changeset="8277649" lat="-33.9157561" lon="151.1479724">
    <tag k="addr:housenumber" v="17"/>
    <tag k="addr:street" v="Harnett Avenue"/>
    <tag k="source" v="extrapolation"/>
  </node>
  <node id="1304350470" version="1" timestamp="2011-05-29T06:04:44Z" uid="7617" user="Franc" changeset="8277649" lat="-33.9134468" lon="151.1548675">
    <tag k="addr:housenumber" v="13"/>
    <tag k="addr:street" v="Byrnes Street"/>
    <tag k="source" v="extrapolation"/>
  </node>
  <node id="1304350478" version="1" timestamp="2011-05-29T06:04:44Z" uid="7617" user="Franc" changeset="8277649" lat="-33.9136393" lon="151.1553448">
    <tag k="addr:housenumber" v="37"/>
    <tag k="addr:street" v="O&apos;Hara Street"/>
    <tag k="source" v="survey"/>
  </node>
</osm>
