<?xml version='1.0' encoding='UTF-8'?>
<osm version="0.6" generator="libosmium/2.20.0">
  <node id="1319485469" version="1" timestamp="2011-06-10T22:09:41Z" uid="7617" user="Franc" changeset="8401446" lat="-33.8827905" lon="151.1778048">
    <tag k="addr:housenumber" v="119"/>
    <tag k="addr:street" v="Hereford Street"/>
    <tag k="source" v="survey"/>
  </node>
  <node id="1319485470" version="1" timestamp="2011-06-10T22:09:41Z" uid="7617" user="Franc" changeset="8401446" lat="-33.8761496" lon="151.1892582">
    <tag k="addr:housenumber" v="6"/>
    <tag k="addr:street" v="Bridge Road"/>
    <tag k="source" v="survey"/>
  </node>
  <node id="1319485471" version="1" timestamp="2011-06-10T22:09:41Z" uid="7617" user="Franc" changeset="8401446" lat="-33.880775" lon="151.181458">
    <tag k="name" v="57 1-36"/>
    <tag k="note" v="57 1-36"/>
  </node>
  <node id="1319485471" version="2" timestamp="2011-06-10T22:36:23Z" uid="7617" user="Franc" changeset="8401596" lat="-33.880775" lon="151.181458"/>
  <node id="1319485472" version="1" timestamp="2011-06-10T22:09:41Z" uid="7617" user="Franc" changeset="8401446" lat="-33.8826608" lon="151.1772266">
    <tag k="addr:housenumber" v="33"/>
    <tag k="addr:street" v="Creek Street"/>
    <tag k="source" v="survey"/>
  </node>
  <node id="1319485473" version="1" timestamp="2011-06-10T22:09:41Z" uid="7617" user="Franc" changeset="8401446" lat="-33.8628601" lon="151.1346339">
    <tag k="addr:housenumber" v="397-399"/>
    <tag k="addr:street" v="Lyons Road"/>
    <tag k="source" v="extrapolation"/>
  </node>
  <node id="1319485474" version="1" timestamp="2011-06-10T22:09:41Z" uid="7617" user="Franc" changeset="8401446" lat="-33.8770537" lon="151.1879281"/>
  <node id="1319485475" version="1" timestamp="2011-06-10T22:09:41Z" uid="7617" user="Franc" changeset="8401446" lat="-33.8633185" lon="151.1335078">
    <tag k="addr:housenumber" v="20"/>
    <tag k="addr:street" v="Trevanion Road"/>
    <tag k="source" v="survey"/>
  </node>
  <node id="1319485476" version="1" timestamp="2011-06-10T22:09:41Z" uid="7617" user="Franc" changeset="8401446" lat="-33.8834997" lon="151.180299">
    <tag k="addr:housenumber" v="294"/>
    <tag k="addr:street" v="Bridge Road"/>
    <tag k="source" v="survey"/>
  </node>
  <node id="1319485477" version="1" timestamp="2011-06-10T22:09:41Z" uid="7617" user="Franc" changeset="8401446" lat="-33.8836133" lon="151.1800705">
    <tag k="addr:housenumber" v="300"/>
    <tag k="addr:street" v="Pyrmont Bridge Road"/>
    <tag k="source" v="survey"/>
  </node>
  <node id="1319485478" version="1" timestamp="2011-06-10T22:09:42Z" uid="7617" user="Franc" changeset="8401446" lat="-33.883167" lon="151.1795621">
    <tag k="addr:housenumber" v="29"/>
    <tag k="addr:street" v="Foss Street"/>
    <tag k="source" v="survey"/>
  </node>
  <node id="1319485479" version="1" timestamp="2011-06-10T22:09:42Z" uid="7617" user="Franc" changeset="8401446" lat="-33.863066" lon="151.1340819">
    <tag k="addr:housenumber" v="409"/>
    <tag k="addr:street" v="Lyons Road"/>
    <tag k="source" v="extrapolation"/>
  </node>
  <node id="1319485480" version="1" timestamp="2011-06-10T22:09:42Z" uid="7617" user="Franc" changeset="8401446" lat="-33.8809295" lon="151.1805216"/>
  <node id="1319485481" version="1" timestamp="2011-06-10T22:09:42Z" uid="7617" user="Franc" changeset="8401446" lat="-33.8811671" lon="151.1807465">
    <tag k="addr:housenumber" v="59"/>
    <tag k="addr:street" v="Hereford Street"/>
    <tag k="source" v="survey"/>
  </node>
  <node id="1319485482" version="1" timestamp="2011-06-10T22:09:42Z" uid="7617" user="Franc" changeset="8401446" lat="-33.8827076" lon="151.1807017">
    <tag k="addr:housenumber" v="2"/>
    <tag k="addr:street" v="Foss Street"/>
    <tag k="source" v="survey"/>
  </node>
  <node id="1319485483" version="1" timestamp="2011-06-10T22:09:42Z" uid="7617" user="Franc" changeset="8401446" lat="-33.8657874" lon="151.1333233">
    <tag k="addr:housenumber" v="51"/>
    <tag k="addr:street" v="Park Road"/>
    <tag k="source" v="survey"/>
  </node>
  <node id="1319485484" version="1" timestamp="2011-06-10T22:09:42Z" uid="7617" user="Franc" changeset="8401446" lat="-33.8833983" lon="151.1791602">
    <tag k="addr:housenumber" v="45"/>
    <tag k="addr:street" v="Foss Street"/>
    <tag k="source" v="survey"/>
  </node>
  <node id="1319485485" version="1" timestamp="2011-06-10T22:09:42Z" uid="7617" user="Franc" changeset="8401446" lat="-33.87851" lon="151.185867">
    <tag k="addr:housenumber" v="166"/>
    <tag k="addr:street" v="Glebe Point Road"/>
    <tag k="source" v="survey"/>
  </node>
  <node id="1319485486" version="1" timestamp="2011-06-10T22:09:42Z" uid="7617" user="Franc" changeset="8401446" lat="-33.8793067" lon="151.1876543"/>
  <node id="1319485487" version="1" timestamp="2011-06-10T22:09:42Z" uid="7617" user="Franc" changeset="8401446" lat="-33.8830256" lon="151.1774221">
    <tag k="addr:housenumber" v="127"/>
    <tag k="addr:street" v="Hereford Street"/>
    <tag k="source" v="survey"/>
  </node>
  <node id="1319485488" version="1" timestamp="2011-06-10T22:09:42Z" uid="7617" user="Franc" changeset="8401446" lat="-33.8762075" lon="151.1891517">
    <tag k="addr:housenumber" v="8"/>
    <tag k="addr:street" v="Bridge Road"/>
    <tag k="source" v="survey"/>
  </node>
  <node id="1319485489" version="1" timestamp="2011-06-10T22:09:42Z" uid="7617" user="Franc" changeset="8401446" lat="-33.865623" lon="151.132874">
    <tag k="addr:housenumber" v="20"/>
    <tag k="addr:street" v="Barnstaple Road"/>
    <tag k="source" v="survey"/>
  </node>
  <node id="1319485490" version="1" timestamp="2011-06-10T22:09:42Z" uid="7617" user="Franc" changeset="8401446" lat="-33.8808246" lon="151.1812951"/>
  <node id="1319485491" version="1" timestamp="2011-06-10T22:09:43Z" uid="7617" user="Franc" changeset="8401446" lat="-33.8827455" lon="151.1778867">
    <tag k="addr:housenumber" v="117"/>
    <tag k="addr:street" v="Hereford Street"/>
    <tag k="source" v="survey"/>
  </node>
  <node id="1319485492" version="1" timestamp="2011-06-10T22:09:43Z" uid="7617" user="Franc" changeset="8401446" lat="-33.8629065" lon="151.1345104">
    <tag k="addr:housenumber" v="401"/>
    <tag k="addr:street" v="Lyons Road"/>
    <tag k="source" v="survey"/>
  </node>
  <node id="1319485493" version="1" timestamp="2011-06-10T22:09:43Z" uid="7617" user="Franc" changeset="8401446" lat="-33.8772908" lon="151.1879416"/>
  <node id="1319485494" version="1" timestamp="2011-06-10T22:09:43Z" uid="7617" user="Franc" changeset="8401446" lat="-33.8779364" lon="151.1841102"/>
  <node id="1319485495" version="1" timestamp="2011-06-10T22:09:43Z" uid="7617" user="Franc" changeset="8401446" lat="-33.8630047" lon="151.1342339">
    <tag k="addr:housenumber" v="405"/>
    <tag k="addr:street" v="Lyons Road"/>
    <tag k="source" v="extrapolation"/>
  </node>
  <node id="1319485496" version="1" timestamp="2011-06-10T22:09:43Z" uid="7617" user="Franc" changeset="8401446" lat="-33.8827455" lon="151.1780899">
    <tag k="addr:housenumber" v="236"/>
    <tag k="addr:street" v="Hereford Street"/>
    <tag k="source" v="survey"/>
  </node>
  <node id="1319485497" version="1" timestamp="2011-06-10T22:09:43Z" uid="7617" user="Franc" changeset="8401446" lat="-33.8786504" lon="151.1855544">
    <tag k="addr:housenumber" v="2a"/>
    <tag k="addr:street" v="Hereford Street"/>
    <tag k="source" v="survey"/>
  </node>
  <node id="1319485498" version="1" timestamp="2011-06-10T22:09:43Z" uid="7617" user="Franc" changeset="8401446" lat="-33.8802916" lon="151.1809058"/>
  <node id="1319485499" version="1" timestamp="2011-06-10T22:09:43Z" uid="7617" user="Franc" changeset="8401446" lat="-33.8807855" lon="151.1800501"/>
  <node id="1319485500" version="1" timestamp="2011-06-10T22:09:43Z" uid="7617" user="Franc" changeset="8401446" lat="-33.8769519" lon="151.1879753"/>
  <node id="1319485501" version="1" timestamp="2011-06-10T22:09:43Z" uid="7617" user="Franc" changeset="8401446" lat="-33.8834634" lon="151.180816"/>
  <node id="1319485502" version="1" timestamp="2011-06-10T22:09:43Z" uid="7617" user="Franc" changeset="8401446" lat="-33.8833675" lon="151.1792095">
    <tag k="addr:housenumber" v="43"/>
    <tag k="addr:street" v="Foss Street"/>
    <tag k="source" v="survey"/>
  </node>
  <node id="1319485503" version="1" timestamp="2011-06-10T22:09:43Z" uid="7617" user="Franc" changeset="8401446" lat="-33.8793573" lon="151.1842502">
    <tag k="addr:housenumber" v="26"/>
    <tag k="addr:street" v="Hereford Street"/>
    <tag k="source" v="survey"/>
  </node>
  <node id="1319485504" version="1" timestamp="2011-06-10T22:09:43Z" uid="7617" user="Franc" changeset="8401446" lat="-33.8793953" lon="151.1875663"/>
  <node id="1319485505" version="1" timestamp="2011-06-10T22:09:43Z" uid="7617" user="Franc" changeset="8401446" lat="-33.867068" lon="151.1330329">
    <tag k="addr:housenumber" v="31"/>
    <tag k="addr:street" v="Park Road"/>
    <tag k="source" v="survey"/>
  </node>
  <node id="1319485506" version="1" timestamp="2011-06-10T22:09:43Z" uid="7617" user="Franc" changeset="8401446" lat="-33.880757" lon="151.1802326"/>
  <node id="1319485507" version="1" timestamp="2011-06-10T22:09:43Z" uid="7617" user="Franc" changeset="8401446" lat="-33.8760579" lon="151.189408">
    <tag k="addr:housenumber" v="4"/>
    <tag k="addr:street" v="Bridge Road"/>
    <tag k="source" v="extrapolation"/>
  </node>
  <node id="1319485508" version="1" timestamp="2011-06-10T22:09:43Z" uid="7617" user="Franc" changeset="8401446" lat="-33.8808415" lon="151.1813277"/>
  <node id="1319485509" version="1" timestamp="2011-06-10T22:09:43Z" uid="7617" user="Franc" changeset="8401446" lat="-33.8818265" lon="151.1797518">
    <tag k="addr:housenumber" v="166"/>
    <tag k="addr:street" v="Hereford Street"/>
    <tag k="source" v="survey"/>
  </node>
  <node id="1319485510" version="1" timestamp="2011-06-10T22:09:44Z" uid="7617" user="Franc" changeset="8401446" lat="-33.8801771" lon="151.1827775">
    <tag k="addr:housenumber" v="80"/>
    <tag k="addr:street" v="Hereford Street"/>
    <tag k="source" v="extrapolation"/>
  </node>
  <node id="1319485511" version="1" timestamp="2011-06-10T22:09:44Z" uid="7617" user="Franc" changeset="8401446" lat="-33.8661687" lon="151.1332382">
    <tag k="addr:housenumber" v="43"/>
    <tag k="addr:street" v="Park Road"/>
    <tag k="source" v="survey"/>
  </node>
  <node id="1319485512" version="1" timestamp="2011-06-10T22:09:44Z" uid="7617" user="Franc" changeset="8401446" lat="-33.8772281" lon="151.1879241"/>
  <node id="1319485513" version="1" timestamp="2011-06-10T22:09:44Z" uid="7617" user="Franc" changeset="8401446" lat="-33.8759586" lon="151.1895895">
    <tag k="addr:housenumber" v="2"/>
    <tag k="addr:street" v="Bridge Road"/>
    <tag k="source" v="extrapolation"/>
  </node>
  <node id="1319485514" version="1" timestamp="2011-06-10T22:09:44Z" uid="7617" user="Franc" changeset="8401446" lat="-33.8828151" lon="151.1770568"/>
  <node id="1319485515" version="1" timestamp="2011-06-10T22:09:44Z" uid="7617" user="Franc" changeset="8401446" lat="-33.8807649" lon="151.1817195">
    <tag k="addr:housenumber" v="118"/>
    <tag k="addr:street" v="Hereford Street"/>
    <tag k="source" v="survey"/>
  </node>
  <node id="1319485516" version="1" timestamp="2011-06-10T22:09:44Z" uid="7617" user="Franc" changeset="8401446" lat="-33.8630305" lon="151.1341601">
    <tag k="addr:housenumber" v="407"/>
    <tag k="addr:street" v="Lyons Road"/>
    <tag k="source" v="extrapolation"/>
  </node>
  <node id="1319485517" version="1" timestamp="2011-06-10T22:09:44Z" uid="7617" user="Franc" changeset="8401446" lat="-33.8813066" lon="151.1807074">
    <tag k="addr:housenumber" v="130"/>
    <tag k="addr:street" v="Hereford Street"/>
    <tag k="source" v="survey"/>
  </node>
  <node id="1319485518" version="1" timestamp="2011-06-10T22:09:44Z" uid="7617" user="Franc" changeset="8401446" lat="-33.8794841" lon="151.1822635"/>
  <node id="1319485519" version="1" timestamp="2011-06-10T22:09:44Z" uid="7617" user="Franc" changeset="8401446" lat="-33.8796345" lon="151.1834679">
    <tag k="addr:housenumber" v="55"/>
    <tag k="addr:street" v="Hereford Street"/>
    <tag k="source" v="survey"/>
  </node>
  <node id="1319485520" version="1" timestamp="2011-06-10T22:09:44Z" uid="7617" user="Franc" changeset="8401446" lat="-33.8768557" lon="151.1880696"/>
  <node id="1319485521" version="1" timestamp="2011-06-10T22:09:44Z" uid="7617" user="Franc" changeset="8401446" lat="-33.8811663" lon="151.1809644">
    <tag k="addr:housenumber" v="120"/>
    <tag k="addr:street" v="Hereford Street"/>
    <tag k="source" v="survey"/>
  </node>
  <node id="1319485522" version="1" timestamp="2011-06-10T22:09:44Z" uid="7617" user="Franc" changeset="8401446" lat="-33.8827435" lon="151.180629">
    <tag k="addr:housenumber" v="4"/>
    <tag k="addr:street" v="Foss Street"/>
    <tag k="source" v="extrapolation"/>
  </node>
  <node id="1319485523" version="1" timestamp="2011-06-10T22:09:44Z" uid="7617" user="Franc" changeset="8401446" lat="-33.8630819" lon="151.1340066">
    <tag k="addr:housenumber" v="411"/>
    <tag k="addr:street" v="Lyons Road"/>
    <tag k="source" v="survey"/>
  </node>
  <node id="1319485524" version="1" timestamp="2011-06-10T22:09:44Z" uid="7617" user="Franc" changeset="8401446" lat="-33.8791348" lon="151.1846424">
    <tag k="addr:housenumber" v="18"/>
    <tag k="addr:street" v="Hereford Street"/>
    <tag k="source" v="survey"/>
  </node>
  <node id="1319485525" version="1" timestamp="2011-06-10T22:09:44Z" uid="7617" user="Franc" changeset="8401446" lat="-33.9031728" lon="151.1689998">
    <tag k="addr:housenumber" v="314"/>
    <tag k="addr:street" v="Enmore Road"/>
    <tag k="source" v="survey"/>
  </node>
  <node id="1319485525" version="2" timestamp="2011-06-19T08:36:11Z" uid="7617" user="Franc" changeset="8481130" lat="-33.9031854" lon="151.1689933">
    <tag k="addr:housenumber" v="314"/>
    <tag k="addr:street" v="Enmore Road"/>
    <tag k="source" v="survey"/>
  </node>
  <node id="1319485526" version="1" timestamp="2011-06-10T22:09:45Z" uid="7617" user="Franc" changeset="8401446" lat="-33.8807503" lon="151.1801115"/>
  <node id="1319485527" version="1" timestamp="2011-06-10T22:09:45Z" uid="7617" user="Franc" changeset="8401446" lat="-33.8797691" lon="151.1834917">
    <tag k="addr:housenumber" v="52"/>
    <tag k="addr:street" v="Hereford Street"/>
    <tag k="source" v="survey"/>
  </node>
  <node id="1319485528" version="1" timestamp="2011-06-10T22:09:45Z" uid="7617" user="Franc" changeset="8401446" lat="-33.8787868" lon="151.1852951">
    <tag k="addr:housenumber" v="2"/>
    <tag k="addr:street" v="Hereford Street"/>
    <tag k="source" v="survey"/>
  </node>
  <node id="1319485529" version="1" timestamp="2011-06-10T22:09:45Z" uid="7617" user="Franc" changeset="8401446" lat="-33.8803119" lon="151.1808935"/>
  <node id="1319485530" version="1" timestamp="2011-06-10T22:09:45Z" uid="7617" user="Franc" changeset="8401446" lat="-33.880062" lon="151.182709">
    <tag k="name" v="1"/>
    <tag k="note" v="1"/>
  </node>
  <node id="1319485530" version="2" timestamp="2011-06-10T22:36:23Z" uid="7617" user="Franc" changeset="8401596" lat="-33.880062" lon="151.182709"/>
  <node id="1319485531" version="1" timestamp="2011-06-10T22:09:45Z" uid="7617" user="Franc" changeset="8401446" lat="-33.883023" lon="151.1798945">
    <tag k="addr:housenumber" v="11"/>
    <tag k="addr:street" v="Cross Street"/>
    <tag k="source" v="survey"/>
  </node>
  <node id="1319485532" version="1" timestamp="2011-06-10T22:09:45Z" uid="7617" user="Franc" changeset="8401446" lat="-33.8793941" lon="151.1841757">
    <tag k="addr:housenumber" v="28"/>
    <tag k="addr:street" v="Hereford Street"/>
    <tag k="source" v="survey"/>
  </node>
  <node id="1319485533" version="1" timestamp="2011-06-10T22:09:45Z" uid="7617" user="Franc" changeset="8401446" lat="-33.8800949" lon="151.1829111">
    <tag k="addr:housenumber" v="76"/>
    <tag k="addr:street" v="Hereford Street"/>
    <tag k="source" v="survey"/>
  </node>
  <node id="1319485534" version="1" timestamp="2011-06-10T22:09:45Z" uid="7617" user="Franc" changeset="8401446" lat="-33.8808382" lon="151.1813644"/>
  <node id="1319485535" version="1" timestamp="2011-06-10T22:09:45Z" uid="7617" user="Franc" changeset="8401446" lat="-33.880791" lon="151.181244">
    <tag k="name" v="7s ross 37-66"/>
    <tag k="note" v="7s ross 37-66"/>
  </node>
  <node id="1319485535" version="2" timestamp="2011-06-10T22:36:23Z" uid="7617" user="Franc" changeset="8401596" lat="-33.880791" lon="151.181244"/>
  <node id="1319485536" version="1" timestamp="2011-06-10T22:09:45Z" uid="7617" user="Franc" changeset="8401446" lat="-33.8801582" lon="151.1828065">
    <tag k="addr:housenumber" v="78"/>
    <tag k="addr:street" v="Hereford Street"/>
    <tag k="source" v="extrapolation"/>
  </node>
  <node id="1319485537" version="1" timestamp="2011-06-10T22:09:45Z" uid="7617" user="Franc" changeset="8401446" lat="-33.8642881" lon="151.1331782">
    <tag k="addr:housenumber" v="15"/>
    <tag k="addr:street" v="Trevanion Road"/>
    <tag k="source" v="survey"/>
  </node>
  <node id="1319485538" version="1" timestamp="2011-06-10T22:09:45Z" uid="7617" user="Franc" changeset="8401446" lat="-33.8828802" lon="151.1801474">
    <tag k="addr:housenumber" v="27"/>
    <tag k="addr:street" v="Foss Street"/>
    <tag k="source" v="survey"/>
  </node>
  <node id="1319485539" version="1" timestamp="2011-06-10T22:09:46Z" uid="7617" user="Franc" changeset="8401446" lat="-33.8771062" lon="151.1879133"/>
  <node id="1319485540" version="1" timestamp="2011-06-10T22:09:46Z" uid="7617" user="Franc" changeset="8401446" lat="-33.8835233" lon="151.1802539">
    <tag k="addr:housenumber" v="296"/>
    <tag k="addr:street" v="Bridge Road"/>
    <tag k="source" v="survey"/>
  </node>
  <node id="1319485541" version="1" timestamp="2011-06-10T22:09:46Z" uid="7617" user="Franc" changeset="8401446" lat="-33.879089" lon="151.1884129">
    <tag k="addr:housenumber" v="116"/>
    <tag k="addr:street" v="Bridge Road"/>
    <tag k="source" v="survey"/>
  </node>
  <node id="1319485542" version="1" timestamp="2011-06-10T22:09:46Z" uid="7617" user="Franc" changeset="8401446" lat="-33.8807873" lon="151.1816695">
    <tag k="addr:housenumber" v="118a"/>
    <tag k="addr:street" v="Hereford Street"/>
    <tag k="source" v="survey"/>
  </node>
  <node id="1319485543" version="1" timestamp="2011-06-10T22:09:46Z" uid="7617" user="Franc" changeset="8401446" lat="-33.881069" lon="151.1802832"/>
  <node id="1319485544" version="1" timestamp="2011-06-10T22:09:46Z" uid="7617" user="Franc" changeset="8401446" lat="-33.8797942" lon="151.1834442">
    <tag k="addr:housenumber" v="54"/>
    <tag k="addr:street" v="Hereford Street"/>
    <tag k="source" v="survey"/>
  </node>
  <node id="1319485545" version="1" timestamp="2011-06-10T22:09:46Z" uid="7617" user="Franc" changeset="8401446" lat="-33.8673373" lon="151.1329622">
    <tag k="addr:housenumber" v="29"/>
    <tag k="addr:street" v="Park Road"/>
    <tag k="source" v="survey"/>
  </node>
  <node id="1319485546" version="1" timestamp="2011-06-10T22:09:46Z" uid="7617" user="Franc" changeset="8401446" lat="-33.8803407" lon="151.1808935"/>
  <node id="1319485547" version="1" timestamp="2011-06-10T22:09:46Z" uid="7617" user="Franc" changeset="8401446" lat="-33.8827715" lon="151.1805837">
    <tag k="addr:housenumber" v="6"/>
    <tag k="addr:street" v="Foss Street"/>
    <tag k="source" v="survey"/>
  </node>
  <node id="1319485548" version="1" timestamp="2011-06-10T22:09:46Z" uid="7617" user="Franc" changeset="8401446" lat="-33.882772" lon="151.1797002">
    <tag k="addr:housenumber" v="1"/>
    <tag k="addr:street" v="Cross Street"/>
    <tag k="source" v="survey"/>
  </node>
  <node id="1319485549" version="1" timestamp="2011-06-10T22:09:46Z" uid="7617" user="Franc" changeset="8401446" lat="-33.877387" lon="151.1880089"/>
  <node id="1319485550" version="1" timestamp="2011-06-10T22:09:46Z" uid="7617" user="Franc" changeset="8401446" lat="-33.8801142" lon="151.1861604">
    <tag k="addr:housenumber" v="157"/>
    <tag k="addr:street" v="Bridge Road"/>
    <tag k="source" v="survey"/>
  </node>
  <node id="1319485551" version="1" timestamp="2011-06-10T22:09:46Z" uid="7617" user="Franc" changeset="8401446" lat="-33.8801892" lon="151.1827392">
    <tag k="addr:housenumber" v="82"/>
    <tag k="addr:street" v="Hereford Street"/>
    <tag k="source" v="survey"/>
  </node>
  <node id="1319485552" version="1" timestamp="2011-06-10T22:09:47Z" uid="7617" user="Franc" changeset="8401446" lat="-33.8824836" lon="151.1808542">
    <tag k="addr:housenumber" v="3"/>
    <tag k="addr:street" v="Foss Street"/>
    <tag k="source" v="survey"/>
  </node>
  <node id="1319485553" version="1" timestamp="2011-06-10T22:09:47Z" uid="7617" user="Franc" changeset="8401446" lat="-33.8629631" lon="151.134349">
    <tag k="addr:housenumber" v="403"/>
    <tag k="addr:street" v="Lyons Road"/>
    <tag k="source" v="extrapolation"/>
  </node>
</osm>
