<?xml version='1.0' encoding='UTF-8'?>
<osm version="0.6" generator="libosmium/2.20.0">
  <node id="1323602451" version="1" timestamp="2011-06-13T13:03:57Z" uid="7617" user="Franc" changeset="8426070" lat="-33.979755" lon="151.243744">
    <tag k="FCC" v="gpsbabel"/>
    <tag k="name" v="1409a mirrabokka retirement village the benevolant society"/>
    <tag k="note" v="1409a mirrabokka retirement village the benevolant society"/>
  </node>
  <node id="1323602451" version="2" timestamp="2011-06-13T13:51:47Z" uid="7617" user="Franc" changeset="8426649" lat="-33.979755" lon="151.243744"/>
  <node id="1323602456" version="1" timestamp="2011-06-13T13:03:57Z" uid="7617" user="Franc" changeset="8426070" lat="-33.9323327" lon="151.1245321">
    <tag k="addr:housenumber" v="58"/>
    <tag k="addr:street" v="Slade Road"/>
    <tag k="source" v="survey"/>
  </node>
  <node id="1323602467" version="1" timestamp="2011-06-13T13:03:57Z" uid="7617" user="Franc" changeset="8426070" lat="-33.9338028" lon="151.1221462"/>
  <node id="1323602469" version="1" timestamp="2011-06-13T13:03:57Z" uid="7617" user="Franc" changeset="8426070" lat="-33.9036844" lon="151.1465357">
    <tag k="addr:housenumber" v="5"/>
    <tag k="addr:street" v="Pile Street"/>
    <tag k="source" v="survey"/>
  </node>
  <node id="1323602473" version="1" timestamp="2011-06-13T13:03:57Z" uid="7617" user="Franc" changeset="8426070" lat="-33.9673" lon="151.243149">
    <tag k="FCC" v="gpsbabel"/>
    <tag k="name" v="1231"/>
    <tag k="note" v="1231"/>
  </node>
  <node id="1323602473" version="2" timestamp="2011-06-13T13:51:47Z" uid="7617" user="Franc" changeset="8426649" lat="-33.9673" lon="151.243149"/>
  <node id="1323602477" version="1" timestamp="2011-06-13T13:03:57Z" uid="7617" user="Franc" changeset="8426070" lat="-33.963135" lon="151.215332">
    <tag k="FCC" v="gpsbabel"/>
    <tag k="name" v="prvt"/>
    <tag k="note" v="prvt"/>
  </node>
  <node id="1323602477" version="2" timestamp="2011-06-14T11:07:31Z" uid="7617" user="Franc" changeset="8436094" lat="-33.963135" lon="151.215332"/>
  <node id="1323602480" version="1" timestamp="2011-06-13T13:03:57Z" uid="7617" user="Franc" changeset="8426070" lat="-33.9571466" lon="151.1377675">
    <tag k="highway" v="traffic_signals"/>
  </node>
  <node id="1323602489" version="1" timestamp="2011-06-13T13:03:58Z" uid="7617" user="Franc" changeset="8426070" lat="-33.981194" lon="151.241486">
    <tag k="FCC" v="gpsbabel"/>
    <tag k="name" v="1447"/>
    <tag k="note" v="1447"/>
  </node>
  <node id="1323602489" version="2" timestamp="2011-06-13T13:51:47Z" uid="7617" user="Franc" changeset="8426649" lat="-33.981194" lon="151.241486"/>
  <node id="1323602492" version="1" timestamp="2011-06-13T13:03:58Z" uid="7617" user="Franc" changeset="8426070" lat="-33.9097" lon="151.1561552">
    <tag k="addr:housenumber" v="90"/>
    <tag k="addr:street" v="Despointes Street"/>
  </node>
  <node id="1323602495" version="1" timestamp="2011-06-13T13:03:58Z" uid="7617" user="Franc" changeset="8426070" lat="-33.9036142" lon="151.1481531">
    <tag k="addr:housenumber" v="50"/>
    <tag k="addr:street" v="Pile Street"/>
    <tag k="source" v="survey"/>
  </node>
  <node id="1323602498" version="1" timestamp="2011-06-13T13:03:58Z" uid="7617" user="Franc" changeset="8426070" lat="-33.9237378" lon="151.1399177">
    <tag k="addr:housenumber" v="58"/>
    <tag k="addr:street" v="Homer Street"/>
    <tag k="source" v="survey"/>
  </node>
  <node id="1323602509" version="1" timestamp="2011-06-13T13:03:58Z" uid="7617" user="Franc" changeset="8426070" lat="-33.9571394" lon="151.1378791">
    <tag k="highway" v="traffic_signals"/>
  </node>
  <node id="1323602512" version="1" timestamp="2011-06-13T13:03:58Z" uid="7617" user="Franc" changeset="8426070" lat="-33.9127884" lon="151.24564"/>
  <node id="1323602514" version="1" timestamp="2011-06-13T13:03:58Z" uid="7617" user="Franc" changeset="8426070" lat="-33.9204822" lon="151.169784">
    <tag k="landuse" v="industrial"/>
    <tag k="note" v="Maritime Container Services, Sydney Ports C2"/>
    <tag k="source" v="survey"/>
  </node>
  <node id="1323602517" version="1" timestamp="2011-06-13T13:03:58Z" uid="7617" user="Franc" changeset="8426070" lat="-33.987976" lon="151.2323953">
    <tag k="addr:housenumber" v="1603"/>
    <tag k="addr:street" v="Anzac Parade"/>
    <tag k="source" v="survey"/>
  </node>
  <node id="1323602520" version="1" timestamp="2011-06-13T13:03:58Z" uid="7617" user="Franc" changeset="8426070" lat="-33.970009" lon="151.241364">
    <tag k="FCC" v="gpsbabel"/>
    <tag k="name" v="1271"/>
    <tag k="note" v="1271"/>
  </node>
  <node id="1323602520" version="2" timestamp="2011-06-13T13:51:47Z" uid="7617" user="Franc" changeset="8426649" lat="-33.970009" lon="151.241364"/>
  <node id="1323602531" version="1" timestamp="2011-06-13T13:03:58Z" uid="7617" user="Franc" changeset="8426070" lat="-33.9610979" lon="151.1411353">
    <tag k="addr:housenumber" v="41"/>
    <tag k="addr:street" v="Baxter Street"/>
    <tag k="source" v="survey"/>
  </node>
  <node id="1323602536" version="1" timestamp="2011-06-13T13:03:58Z" uid="7617" user="Franc" changeset="8426070" lat="-33.908897" lon="151.1590836">
    <tag k="addr:housenumber" v="9"/>
    <tag k="addr:street" v="Silver Street"/>
    <tag k="source" v="survey"/>
  </node>
  <node id="1323602540" version="1" timestamp="2011-06-13T13:03:58Z" uid="7617" user="Franc" changeset="8426070" lat="-33.9090686" lon="151.1576487">
    <tag k="addr:housenumber" v="186"/>
    <tag k="addr:street" v="Illawarra Road"/>
    <tag k="source" v="survey"/>
  </node>
  <node id="1323602548" version="1" timestamp="2011-06-13T13:03:58Z" uid="7617" user="Franc" changeset="8426070" lat="-33.908181" lon="151.1595351">
    <tag k="addr:housenumber" v="2"/>
    <tag k="addr:street" v="Silver Street"/>
    <tag k="source" v="survey"/>
  </node>
  <node id="1323602552" version="1" timestamp="2011-06-13T13:03:59Z" uid="7617" user="Franc" changeset="8426070" lat="-33.951164" lon="151.241211">
    <tag k="FCC" v="gpsbabel"/>
    <tag k="name" v="1003"/>
    <tag k="note" v="1003"/>
  </node>
  <node id="1323602552" version="2" timestamp="2011-06-13T14:08:32Z" uid="7617" user="Franc" changeset="8426865" lat="-33.951164" lon="151.241211"/>
  <node id="1323602555" version="1" timestamp="2011-06-13T13:03:59Z" uid="7617" user="Franc" changeset="8426070" lat="-33.9607694" lon="151.2130867"/>
  <node id="1323602557" version="1" timestamp="2011-06-13T13:03:59Z" uid="7617" user="Franc" changeset="8426070" lat="-33.96075" lon="151.1387502">
    <tag k="addr:housenumber" v="3"/>
    <tag k="addr:street" v="Baxter Street"/>
    <tag k="source" v="survey"/>
  </node>
  <node id="1323602560" version="1" timestamp="2011-06-13T13:03:59Z" uid="7617" user="Franc" changeset="8426070" lat="-33.9238351" lon="151.1400671">
    <tag k="addr:housenumber" v="56"/>
    <tag k="addr:street" v="Homer Street"/>
    <tag k="source" v="survey"/>
  </node>
  <node id="1323602569" version="1" timestamp="2011-06-13T13:03:59Z" uid="7617" user="Franc" changeset="8426070" lat="-33.9571615" lon="151.138685"/>
  <node id="1323602571" version="1" timestamp="2011-06-13T13:03:59Z" uid="7617" user="Franc" changeset="8426070" lat="-33.938376" lon="151.1140634">
    <tag k="addr:housenumber" v="289"/>
    <tag k="addr:street" v="Bexley Road"/>
    <tag k="source" v="survey"/>
  </node>
  <node id="1323602573" version="1" timestamp="2011-06-13T13:03:59Z" uid="7617" user="Franc" changeset="8426070" lat="-33.977333" lon="151.243164">
    <tag k="FCC" v="gpsbabel"/>
    <tag k="name" v="1399"/>
    <tag k="note" v="1399"/>
  </node>
  <node id="1323602573" version="2" timestamp="2011-06-13T13:51:47Z" uid="7617" user="Franc" changeset="8426649" lat="-33.977333" lon="151.243164"/>
  <node id="1323602576" version="1" timestamp="2011-06-13T13:03:59Z" uid="7617" user="Franc" changeset="8426070" lat="-33.9086177" lon="151.1593381">
    <tag k="addr:housenumber" v="3"/>
    <tag k="addr:street" v="Silver Street"/>
    <tag k="source" v="extrapolation"/>
  </node>
  <node id="1323602586" version="1" timestamp="2011-06-13T13:03:59Z" uid="7617" user="Franc" changeset="8426070" lat="-33.959549" lon="151.246277">
    <tag k="FCC" v="gpsbabel"/>
    <tag k="name" v="1165"/>
    <tag k="note" v="1165"/>
  </node>
  <node id="1323602586" version="2" timestamp="2011-06-13T14:08:33Z" uid="7617" user="Franc" changeset="8426865" lat="-33.959549" lon="151.246277"/>
  <node id="1323602589" version="1" timestamp="2011-06-13T13:03:59Z" uid="7617" user="Franc" changeset="8426070" lat="-33.9317499" lon="151.1262886"/>
  <node id="1323602590" version="1" timestamp="2011-06-13T13:03:59Z" uid="7617" user="Franc" changeset="8426070" lat="-33.988173" lon="151.2327376">
    <tag k="addr:housenumber" v="1601"/>
    <tag k="addr:street" v="Anzac Parade"/>
    <tag k="source" v="survey"/>
  </node>
  <node id="1323602591" version="1" timestamp="2011-06-13T13:03:59Z" uid="7617" user="Franc" changeset="8426070" lat="-33.9607822" lon="151.2135116"/>
  <node id="1323602592" version="1" timestamp="2011-06-13T13:03:59Z" uid="7617" user="Franc" changeset="8426070" lat="-33.9086878" lon="151.159075">
    <tag k="addr:housenumber" v="22"/>
    <tag k="addr:street" v="Silver Street"/>
    <tag k="source" v="extrapolation"/>
  </node>
  <node id="1323602598" version="1" timestamp="2011-06-13T13:04:00Z" uid="7617" user="Franc" changeset="8426070" lat="-33.9083643" lon="151.1516963">
    <tag k="addr:housenumber" v="325"/>
    <tag k="addr:street" v="Marrickville Road"/>
    <tag k="source" v="survey"/>
  </node>
  <node id="1323602601" version="1" timestamp="2011-06-13T13:04:00Z" uid="7617" user="Franc" changeset="8426070" lat="-33.9089513" lon="151.156555">
    <tag k="addr:housenumber" v="73"/>
    <tag k="addr:street" v="Despointes Street"/>
    <tag k="source" v="survey"/>
  </node>
  <node id="1323602603" version="1" timestamp="2011-06-13T13:04:00Z" uid="7617" user="Franc" changeset="8426070" lat="-33.9571272" lon="151.1381582"/>
  <node id="1323602604" version="1" timestamp="2011-06-13T13:04:00Z" uid="7617" user="Franc" changeset="8426070" lat="-33.981491" lon="151.237076">
    <tag k="FCC" v="gpsbabel"/>
    <tag k="name" v="1499"/>
    <tag k="note" v="1499"/>
  </node>
  <node id="1323602604" version="2" timestamp="2011-06-13T13:51:47Z" uid="7617" user="Franc" changeset="8426649" lat="-33.981491" lon="151.237076"/>
  <node id="1323602608" version="1" timestamp="2011-06-13T13:04:00Z" uid="7617" user="Franc" changeset="8426070" lat="-33.9330319" lon="151.1221835"/>
  <node id="1323602610" version="1" timestamp="2011-06-13T13:04:00Z" uid="7617" user="Franc" changeset="8426070" lat="-33.960506" lon="151.138794">
    <tag k="addr:housenumber" v="2a"/>
    <tag k="addr:street" v="Baxter Street"/>
    <tag k="source" v="survey"/>
  </node>
  <node id="1323602613" version="1" timestamp="2011-06-13T13:04:00Z" uid="7617" user="Franc" changeset="8426070" lat="-33.9854139" lon="151.2343215">
    <tag k="addr:housenumber" v="4"/>
    <tag k="addr:street" v="Endeavour Avenue"/>
    <tag k="source" v="survey"/>
  </node>
  <node id="1323602615" version="1" timestamp="2011-06-13T13:04:00Z" uid="7617" user="Franc" changeset="8426070" lat="-33.9036649" lon="151.1462848">
    <tag k="addr:housenumber" v="1"/>
    <tag k="addr:street" v="Pile Street"/>
    <tag k="source" v="extrapolation"/>
  </node>
  <node id="1323602617" version="1" timestamp="2011-06-13T13:04:00Z" uid="7617" user="Franc" changeset="8426070" lat="-33.962154" lon="151.24617">
    <tag k="FCC" v="gpsbabel"/>
    <tag k="name" v="1201"/>
    <tag k="note" v="1201"/>
  </node>
  <node id="1323602617" version="2" timestamp="2011-06-13T14:08:33Z" uid="7617" user="Franc" changeset="8426865" lat="-33.962154" lon="151.24617"/>
  <node id="1323602620" version="1" timestamp="2011-06-13T13:04:00Z" uid="7617" user="Franc" changeset="8426070" lat="-33.960808" lon="151.213654">
    <tag k="amenity" v="pub"/>
    <tag k="name" v="Botany Bay Hotel"/>
  </node>
  <node id="1323602622" version="1" timestamp="2011-06-13T13:04:00Z" uid="7617" user="Franc" changeset="8426070" lat="-33.9086989" lon="151.1592684">
    <tag k="addr:housenumber" v="5"/>
    <tag k="addr:street" v="Silver Street"/>
    <tag k="source" v="extrapolation"/>
  </node>
  <node id="1323602625" version="1" timestamp="2011-06-13T13:04:00Z" uid="7617" user="Franc" changeset="8426070" lat="-33.9091252" lon="151.1563894">
    <tag k="addr:housenumber" v="79"/>
    <tag k="addr:street" v="Despointes Street"/>
    <tag k="source" v="survey"/>
  </node>
  <node id="1323602628" version="1" timestamp="2011-06-13T13:04:00Z" uid="7617" user="Franc" changeset="8426070" lat="-33.8922969" lon="151.1870657"/>
  <node id="1323602630" version="1" timestamp="2011-06-13T13:04:01Z" uid="7617" user="Franc" changeset="8426070" lat="-33.944344" lon="151.239532">
    <tag k="FCC" v="gpsbabel"/>
    <tag k="name" v="837"/>
    <tag k="note" v="837"/>
  </node>
  <node id="1323602630" version="2" timestamp="2011-06-14T11:07:31Z" uid="7617" user="Franc" changeset="8436094" lat="-33.944344" lon="151.239532"/>
  <node id="1323602632" version="1" timestamp="2011-06-13T13:04:01Z" uid="7617" user="Franc" changeset="8426070" lat="-33.980991" lon="151.237061">
    <tag k="FCC" v="gpsbabel"/>
    <tag k="name" v="1297"/>
    <tag k="note" v="1297"/>
  </node>
  <node id="1323602632" version="2" timestamp="2011-06-14T11:07:31Z" uid="7617" user="Franc" changeset="8436094" lat="-33.980991" lon="151.237061"/>
  <node id="1323602635" version="1" timestamp="2011-06-13T13:04:01Z" uid="7617" user="Franc" changeset="8426070" lat="-33.9584887" lon="151.1369263">
    <tag k="addr:housenumber" v="168"/>
    <tag k="addr:street" v="Harrow Road"/>
    <tag k="source" v="survey"/>
  </node>
  <node id="1323602638" version="1" timestamp="2011-06-13T13:04:01Z" uid="7617" user="Franc" changeset="8426070" lat="-33.9606876" lon="151.1383049">
    <tag k="addr:housenumber" v="1"/>
    <tag k="addr:street" v="Baxter Street"/>
    <tag k="source" v="survey"/>
  </node>
  <node id="1323602642" version="1" timestamp="2011-06-13T13:04:01Z" uid="7617" user="Franc" changeset="8426070" lat="-33.9204894" lon="151.1694905">
    <tag k="barrier" v="gate"/>
  </node>
  <node id="1323602643" version="1" timestamp="2011-06-13T13:04:01Z" uid="7617" user="Franc" changeset="8426070" lat="-33.9129782" lon="151.2452066"/>
  <node id="1323602644" version="1" timestamp="2011-06-13T13:04:01Z" uid="7617" user="Franc" changeset="8426070" lat="-33.9329046" lon="151.1224882"/>
  <node id="1323602645" version="1" timestamp="2011-06-13T13:04:01Z" uid="7617" user="Franc" changeset="8426070" lat="-33.977966" lon="151.24353">
    <tag k="FCC" v="gpsbabel"/>
    <tag k="name" v="park"/>
    <tag k="note" v="park"/>
  </node>
  <node id="1323602645" version="2" timestamp="2011-06-13T13:51:47Z" uid="7617" user="Franc" changeset="8426649" lat="-33.977966" lon="151.24353"/>
  <node id="1323602647" version="1" timestamp="2011-06-13T13:04:01Z" uid="7617" user="Franc" changeset="8426070" lat="-33.9371831" lon="151.1139838"/>
  <node id="1323602649" version="1" timestamp="2011-06-13T13:04:01Z" uid="7617" user="Franc" changeset="8426070" lat="-33.9082683" lon="151.1594495">
    <tag k="addr:housenumber" v="4"/>
    <tag k="addr:street" v="Silver Street"/>
    <tag k="source" v="survey"/>
  </node>
  <node id="1323602653" version="1" timestamp="2011-06-13T13:04:01Z" uid="7617" user="Franc" changeset="8426070" lat="-33.944458" lon="151.239578">
    <tag k="FCC" v="gpsbabel"/>
    <tag k="name" v="839-841"/>
    <tag k="note" v="839-841"/>
  </node>
  <node id="1323602653" version="2" timestamp="2011-06-14T11:07:31Z" uid="7617" user="Franc" changeset="8436094" lat="-33.944458" lon="151.239578"/>
  <node id="1323602655" version="1" timestamp="2011-06-13T13:04:01Z" uid="7617" user="Franc" changeset="8426070" lat="-33.9606624" lon="151.2128684"/>
  <node id="1323602656" version="1" timestamp="2011-06-13T13:04:01Z" uid="7617" user="Franc" changeset="8426070" lat="-33.9572313" lon="151.1390923"/>
  <node id="1323602658" version="1" timestamp="2011-06-13T13:04:01Z" uid="7617" user="Franc" changeset="8426070" lat="-33.9105246" lon="151.1573366">
    <tag k="addr:housenumber" v="100a"/>
    <tag k="addr:street" v="Silver Street"/>
    <tag k="source" v="survey"/>
  </node>
  <node id="1323602660" version="1" timestamp="2011-06-13T13:04:01Z" uid="7617" user="Franc" changeset="8426070" lat="-33.981178" lon="151.24202">
    <tag k="FCC" v="gpsbabel"/>
    <tag k="name" v="1443"/>
    <tag k="note" v="1443"/>
  </node>
  <node id="1323602660" version="2" timestamp="2011-06-13T13:51:47Z" uid="7617" user="Franc" changeset="8426649" lat="-33.981178" lon="151.24202"/>
  <node id="1323602661" version="1" timestamp="2011-06-13T13:04:02Z" uid="7617" user="Franc" changeset="8426070" lat="-33.9827771" lon="151.2357519"/>
  <node id="1323602663" version="1" timestamp="2011-06-13T13:04:02Z" uid="7617" user="Franc" changeset="8426070" lat="-33.9570653" lon="151.1377614">
    <tag k="highway" v="traffic_signals"/>
  </node>
  <node id="1323602665" version="1" timestamp="2011-06-13T13:04:02Z" uid="7617" user="Franc" changeset="8426070" lat="-33.9078679" lon="151.1595408">
    <tag k="addr:housenumber" v="171"/>
    <tag k="addr:street" v="Syndenham Road"/>
    <tag k="source" v="survey"/>
  </node>
  <node id="1323602667" version="1" timestamp="2011-06-13T13:04:02Z" uid="7617" user="Franc" changeset="8426070" lat="-33.956997" lon="151.244217">
    <tag k="FCC" v="gpsbabel"/>
    <tag k="name" v="1127"/>
    <tag k="note" v="1127"/>
  </node>
  <node id="1323602667" version="2" timestamp="2011-06-13T14:08:33Z" uid="7617" user="Franc" changeset="8426865" lat="-33.956997" lon="151.244217"/>
  <node id="1323602672" version="1" timestamp="2011-06-13T13:04:02Z" uid="7617" user="Franc" changeset="8426070" lat="-33.963654" lon="151.213501">
    <tag k="FCC" v="gpsbabel"/>
    <tag k="name" v="nosign"/>
    <tag k="note" v="nosign"/>
  </node>
  <node id="1323602672" version="2" timestamp="2011-06-14T11:07:32Z" uid="7617" user="Franc" changeset="8436094" lat="-33.963654" lon="151.213501"/>
  <node id="1323602674" version="1" timestamp="2011-06-13T13:04:02Z" uid="7617" user="Franc" changeset="8426070" lat="-33.9606025" lon="151.2131743"/>
  <node id="1323602675" version="1" timestamp="2011-06-13T13:04:02Z" uid="7617" user="Franc" changeset="8426070" lat="-33.9090622" lon="151.156461">
    <tag k="addr:housenumber" v="77"/>
    <tag k="addr:street" v="Despointes Street"/>
    <tag k="source" v="extrapolation"/>
  </node>
  <node id="1323602678" version="1" timestamp="2011-06-13T13:04:02Z" uid="7617" user="Franc" changeset="8426070" lat="-33.928936" lon="151.233307">
    <tag k="FCC" v="gpsbabel"/>
    <tag k="name" v="485"/>
    <tag k="note" v="485"/>
  </node>
  <node id="1323602678" version="2" timestamp="2011-06-14T11:07:31Z" uid="7617" user="Franc" changeset="8436094" lat="-33.928936" lon="151.233307"/>
  <node id="1323602680" version="1" timestamp="2011-06-13T13:04:02Z" uid="7617" user="Franc" changeset="8426070" lat="-33.907961" lon="151.1596257">
    <tag k="addr:housenumber" v="167"/>
    <tag k="addr:street" v="Syndenham Road"/>
    <tag k="source" v="extrapolation"/>
  </node>
  <node id="1323602687" version="1" timestamp="2011-06-13T13:04:02Z" uid="7617" user="Franc" changeset="8426070" lat="-33.981041" lon="151.241806">
    <tag k="FCC" v="gpsbabel"/>
    <tag k="name" v="goora st"/>
    <tag k="note" v="goora st"/>
  </node>
  <node id="1323602687" version="2" timestamp="2011-06-13T13:51:47Z" uid="7617" user="Franc" changeset="8426649" lat="-33.981041" lon="151.241806"/>
  <node id="1323602689" version="1" timestamp="2011-06-13T13:04:02Z" uid="7617" user="Franc" changeset="8426070" lat="-33.9091757" lon="151.1566557">
    <tag k="addr:housenumber" v="68"/>
    <tag k="addr:street" v="Despointes Street"/>
  </node>
  <node id="1323602691" version="1" timestamp="2011-06-13T13:04:02Z" uid="7617" user="Franc" changeset="8426070" lat="-33.9037938" lon="151.1480222">
    <tag k="addr:housenumber" v="17"/>
    <tag k="addr:street" v="Pile Street"/>
    <tag k="source" v="survey"/>
  </node>
  <node id="1323602693" version="1" timestamp="2011-06-13T13:04:02Z" uid="7617" user="Franc" changeset="8426070" lat="-33.9130249" lon="151.2455888"/>
  <node id="1323602695" version="1" timestamp="2011-06-13T13:04:03Z" uid="7617" user="Franc" changeset="8426070" lat="-33.976692" lon="151.242798">
    <tag k="FCC" v="gpsbabel"/>
    <tag k="name" v="1371"/>
    <tag k="note" v="1371"/>
  </node>
  <node id="1323602695" version="2" timestamp="2011-06-13T13:51:47Z" uid="7617" user="Franc" changeset="8426649" lat="-33.976692" lon="151.242798"/>
  <node id="1323602697" version="1" timestamp="2011-06-13T13:04:03Z" uid="7617" user="Franc" changeset="8426070" lat="-33.9082238" lon="151.1598556">
    <tag k="addr:housenumber" v="163"/>
    <tag k="addr:street" v="Syndenham Road"/>
    <tag k="source" v="extrapolation"/>
  </node>
  <node id="1323602700" version="1" timestamp="2011-06-13T13:04:03Z" uid="7617" user="Franc" changeset="8426070" lat="-33.929047" lon="151.234055">
    <tag k="FCC" v="gpsbabel"/>
    <tag k="name" v="493-501"/>
    <tag k="note" v="493-501"/>
  </node>
  <node id="1323602700" version="2" timestamp="2011-06-14T11:07:31Z" uid="7617" user="Franc" changeset="8436094" lat="-33.929047" lon="151.234055"/>
  <node id="1323602702" version="1" timestamp="2011-06-13T13:04:03Z" uid="7617" user="Franc" changeset="8426070" lat="-33.95948" lon="151.222763">
    <tag k="FCC" v="gpsbabel"/>
    <tag k="name" v="7-9"/>
    <tag k="note" v="7-9"/>
  </node>
  <node id="1323602702" version="2" timestamp="2011-06-14T11:07:31Z" uid="7617" user="Franc" changeset="8436094" lat="-33.95948" lon="151.222763"/>
  <node id="1323602707" version="1" timestamp="2011-06-13T13:04:03Z" uid="7617" user="Franc" changeset="8426070" lat="-33.9334697" lon="151.1225245"/>
  <node id="1323602708" version="1" timestamp="2011-06-13T13:04:03Z" uid="7617" user="Franc" changeset="8426070" lat="-33.9832475" lon="151.235596">
    <tag k="addr:housenumber" v="1555"/>
    <tag k="addr:street" v="Anzac Parade"/>
    <tag k="source" v="survey"/>
  </node>
  <node id="1323602709" version="1" timestamp="2011-06-13T13:04:03Z" uid="7617" user="Franc" changeset="8426070" lat="-33.9571919" lon="151.1388978"/>
  <node id="1323602710" version="1" timestamp="2011-06-13T13:04:03Z" uid="7617" user="Franc" changeset="8426070" lat="-33.9832931" lon="151.2355891"/>
  <node id="1323602711" version="1" timestamp="2011-06-13T13:04:03Z" uid="7617" user="Franc" changeset="8426070" lat="-33.977066" lon="151.243057">
    <tag k="FCC" v="gpsbabel"/>
    <tag k="name" v="1373"/>
    <tag k="note" v="1373"/>
  </node>
  <node id="1323602711" version="2" timestamp="2011-06-13T13:51:47Z" uid="7617" user="Franc" changeset="8426649" lat="-33.977066" lon="151.243057"/>
  <node id="1323602719" version="1" timestamp="2011-06-13T13:04:03Z" uid="7617" user="Franc" changeset="8426070" lat="-33.9825376" lon="151.2357977">
    <tag k="addr:housenumber" v="1541"/>
    <tag k="addr:street" v="Anzac Parade"/>
    <tag k="source" v="survey"/>
  </node>
  <node id="1323602721" version="1" timestamp="2011-06-13T13:04:03Z" uid="7617" user="Franc" changeset="8426070" lat="-33.9087802" lon="151.15919">
    <tag k="addr:housenumber" v="7"/>
    <tag k="addr:street" v="Silver Street"/>
    <tag k="source" v="extrapolation"/>
  </node>
  <node id="1323602722" version="1" timestamp="2011-06-13T13:04:03Z" uid="7617" user="Franc" changeset="8426070" lat="-33.957661" lon="151.24472">
    <tag k="FCC" v="gpsbabel"/>
    <tag k="name" v="1133"/>
    <tag k="note" v="1133"/>
  </node>
  <node id="1323602722" version="2" timestamp="2011-06-13T14:08:33Z" uid="7617" user="Franc" changeset="8426865" lat="-33.957661" lon="151.24472"/>
  <node id="1323602723" version="1" timestamp="2011-06-13T13:04:03Z" uid="7617" user="Franc" changeset="8426070" lat="-33.9483131" lon="151.1281389">
    <tag k="addr:housenumber" v="4"/>
    <tag k="addr:street" v="Harrow Road"/>
    <tag k="source" v="survey"/>
  </node>
  <node id="1323602728" version="1" timestamp="2011-06-13T13:04:04Z" uid="7617" user="Franc" changeset="8426070" lat="-33.9361501" lon="151.1175253">
    <tag k="addr:housenumber" v="206"/>
    <tag k="addr:street" v="Slade Road"/>
    <tag k="source" v="survey"/>
  </node>
  <node id="1323602731" version="1" timestamp="2011-06-13T13:04:04Z" uid="7617" user="Franc" changeset="8426070" lat="-33.9322906" lon="151.127336">
    <tag k="addr:housenumber" v="4"/>
    <tag k="addr:street" v="Slade Road"/>
    <tag k="source" v="survey"/>
  </node>
  <node id="1323602733" version="1" timestamp="2011-06-13T13:04:04Z" uid="7617" user="Franc" changeset="8426070" lat="-33.980122" lon="151.236694">
    <tag k="FCC" v="gpsbabel"/>
    <tag k="name" v="1289"/>
    <tag k="note" v="1289"/>
  </node>
  <node id="1323602733" version="2" timestamp="2011-06-14T11:07:32Z" uid="7617" user="Franc" changeset="8436094" lat="-33.980122" lon="151.236694"/>
  <node id="1323602734" version="1" timestamp="2011-06-13T13:04:04Z" uid="7617" user="Franc" changeset="8426070" lat="-33.8818389" lon="151.1974511">
    <tag k="addr:housenumber" v="500"/>
    <tag k="addr:street" v="Wattle Street"/>
    <tag k="source" v="survey"/>
  </node>
  <node id="1323602736" version="1" timestamp="2011-06-13T13:04:04Z" uid="7617" user="Franc" changeset="8426070" lat="-33.9605944" lon="151.2130044"/>
  <node id="1323602737" version="1" timestamp="2011-06-13T13:04:04Z" uid="7617" user="Franc" changeset="8426070" lat="-33.9252795" lon="151.1345067">
    <tag k="addr:housenumber" v="132"/>
    <tag k="addr:street" v="Homer Street"/>
    <tag k="source" v="survey"/>
  </node>
  <node id="1323602739" version="1" timestamp="2011-06-13T13:04:04Z" uid="7617" user="Franc" changeset="8426070" lat="-33.9090092" lon="151.1564998">
    <tag k="addr:housenumber" v="75"/>
    <tag k="addr:street" v="Despointes Street"/>
    <tag k="source" v="extrapolation"/>
  </node>
  <node id="1323602741" version="1" timestamp="2011-06-13T13:04:04Z" uid="7617" user="Franc" changeset="8426070" lat="-33.957136" lon="151.1384002"/>
  <node id="1323602743" version="1" timestamp="2011-06-13T13:04:04Z" uid="7617" user="Franc" changeset="8426070" lat="-33.979618" lon="151.244476">
    <tag k="FCC" v="gpsbabel"/>
    <tag k="name" v="1405"/>
    <tag k="note" v="1405"/>
  </node>
  <node id="1323602743" version="2" timestamp="2011-06-13T13:51:48Z" uid="7617" user="Franc" changeset="8426649" lat="-33.979618" lon="151.244476"/>
  <node id="1323602749" version="1" timestamp="2011-06-13T13:04:04Z" uid="7617" user="Franc" changeset="8426070" lat="-33.9034654" lon="151.1460216">
    <tag k="addr:housenumber" v="2"/>
    <tag k="addr:street" v="Pile Street"/>
    <tag k="source" v="survey"/>
  </node>
  <node id="1323602750" version="1" timestamp="2011-06-13T13:04:04Z" uid="7617" user="Franc" changeset="8426070" lat="-33.9834319" lon="151.2348132"/>
  <node id="1323602751" version="1" timestamp="2011-06-13T13:04:04Z" uid="7617" user="Franc" changeset="8426070" lat="-33.959663" lon="151.137726">
    <tag k="addr:housenumber" v="133-137"/>
    <tag k="addr:street" v="Harrow Road"/>
    <tag k="source" v="survey"/>
  </node>
  <node id="1323602752" version="1" timestamp="2011-06-13T13:04:04Z" uid="7617" user="Franc" changeset="8426070" lat="-33.968498" lon="151.242264">
    <tag k="FCC" v="gpsbabel"/>
    <tag k="name" v="1251"/>
    <tag k="note" v="1251"/>
  </node>
  <node id="1323602752" version="2" timestamp="2011-06-13T13:51:47Z" uid="7617" user="Franc" changeset="8426649" lat="-33.968498" lon="151.242264"/>
  <node id="1323602758" version="1" timestamp="2011-06-13T13:04:05Z" uid="7617" user="Franc" changeset="8426070" lat="-33.9085324" lon="151.1594176">
    <tag k="addr:housenumber" v="1"/>
    <tag k="addr:street" v="Silver Street"/>
    <tag k="source" v="survey"/>
  </node>
  <node id="1323602761" version="1" timestamp="2011-06-13T13:04:05Z" uid="7617" user="Franc" changeset="8426070" lat="-33.925747" lon="151.229584">
    <tag k="FCC" v="gpsbabel"/>
    <tag k="name" v="413"/>
    <tag k="note" v="413"/>
  </node>
  <node id="1323602761" version="2" timestamp="2011-06-14T11:07:32Z" uid="7617" user="Franc" changeset="8436094" lat="-33.925747" lon="151.229584"/>
  <node id="1323602763" version="1" timestamp="2011-06-13T13:04:05Z" uid="7617" user="Franc" changeset="8426070" lat="-33.937489" lon="151.238007">
    <tag k="FCC" v="gpsbabel"/>
    <tag k="name" v="663"/>
    <tag k="note" v="663"/>
  </node>
  <node id="1323602763" version="2" timestamp="2011-06-14T11:07:32Z" uid="7617" user="Franc" changeset="8436094" lat="-33.937489" lon="151.238007"/>
  <node id="1323602764" version="1" timestamp="2011-06-13T13:04:05Z" uid="7617" user="Franc" changeset="8426070" lat="-33.959274" lon="151.222641">
    <tag k="FCC" v="gpsbabel"/>
    <tag k="name" v="10"/>
    <tag k="note" v="10"/>
  </node>
  <node id="1323602764" version="2" timestamp="2011-06-14T11:07:25Z" uid="7617" user="Franc" changeset="8436094" lat="-33.959274" lon="151.222641">
    <tag k="addr:housenumber" v="10"/>
    <tag k="addr:street" v="Perry Street"/>
    <tag k="source" v="survey"/>
  </node>
  <node id="1323602768" version="1" timestamp="2011-06-13T13:04:05Z" uid="7617" user="Franc" changeset="8426070" lat="-33.9859166" lon="151.2342917">
    <tag k="addr:housenumber" v="1577"/>
    <tag k="addr:street" v="Anzac Parade"/>
    <tag k="source" v="survey"/>
  </node>
  <node id="1323602771" version="1" timestamp="2011-06-13T13:04:05Z" uid="7617" user="Franc" changeset="8426070" lat="-33.9831458" lon="151.2350069"/>
  <node id="1323602773" version="1" timestamp="2011-06-13T13:04:05Z" uid="7617" user="Franc" changeset="8426070" lat="-33.971592" lon="151.24173">
    <tag k="FCC" v="gpsbabel"/>
    <tag k="name" v="1303"/>
    <tag k="note" v="1303"/>
  </node>
  <node id="1323602773" version="2" timestamp="2011-06-13T13:51:47Z" uid="7617" user="Franc" changeset="8426649" lat="-33.971592" lon="151.24173"/>
  <node id="1323602776" version="1" timestamp="2011-06-13T13:04:05Z" uid="7617" user="Franc" changeset="8426070" lat="-33.9854869" lon="151.2345171">
    <tag k="addr:housenumber" v="2"/>
    <tag k="addr:street" v="Endeavour Avenue"/>
    <tag k="source" v="survey"/>
  </node>
  <node id="1323602777" version="1" timestamp="2011-06-13T13:04:05Z" uid="7617" user="Franc" changeset="8426070" lat="-33.9608829" lon="151.1414202">
    <tag k="addr:housenumber" v="38"/>
    <tag k="addr:street" v="Baxter Street"/>
    <tag k="source" v="survey"/>
  </node>
  <node id="1323602781" version="1" timestamp="2011-06-13T13:04:05Z" uid="7617" user="Franc" changeset="8426070" lat="-33.9087893" lon="151.1589857">
    <tag k="addr:housenumber" v="26"/>
    <tag k="addr:street" v="Silver Street"/>
    <tag k="source" v="survey"/>
  </node>
  <node id="1323602783" version="1" timestamp="2011-06-13T13:04:05Z" uid="7617" user="Franc" changeset="8426070" lat="-33.9089946" lon="151.1577197">
    <tag k="addr:housenumber" v="184"/>
    <tag k="addr:street" v="Illawarra Road"/>
    <tag k="source" v="survey"/>
  </node>
  <node id="1323602786" version="1" timestamp="2011-06-13T13:04:05Z" uid="7617" user="Franc" changeset="8426070" lat="-33.95208" lon="151.241409">
    <tag k="FCC" v="gpsbabel"/>
    <tag k="name" v="1015"/>
    <tag k="note" v="1015"/>
  </node>
  <node id="1323602786" version="2" timestamp="2011-06-13T14:08:33Z" uid="7617" user="Franc" changeset="8426865" lat="-33.95208" lon="151.241409"/>
  <node id="1323602789" version="1" timestamp="2011-06-13T13:04:05Z" uid="7617" user="Franc" changeset="8426070" lat="-33.9571495" lon="151.1385514"/>
  <node id="1323602790" version="1" timestamp="2011-06-13T13:04:06Z" uid="7617" user="Franc" changeset="8426070" lat="-33.9606327" lon="151.2132184"/>
  <node id="1323602792" version="1" timestamp="2011-06-13T13:04:06Z" uid="7617" user="Franc" changeset="8426070" lat="-33.9127289" lon="151.2452834"/>
  <node id="1323602794" version="1" timestamp="2011-06-13T13:04:06Z" uid="7617" user="Franc" changeset="8426070" lat="-33.9104889" lon="151.157382">
    <tag k="addr:housenumber" v="100"/>
    <tag k="addr:street" v="Silver Street"/>
    <tag k="source" v="extrapolation"/>
  </node>
  <node id="1323602796" version="1" timestamp="2011-06-13T13:04:06Z" uid="7617" user="Franc" changeset="8426070" lat="-33.980656" lon="151.243698">
    <tag k="FCC" v="gpsbabel"/>
    <tag k="name" v="1421"/>
    <tag k="note" v="1421"/>
  </node>
  <node id="1323602796" version="2" timestamp="2011-06-13T13:51:47Z" uid="7617" user="Franc" changeset="8426649" lat="-33.980656" lon="151.243698"/>
  <node id="1323602798" version="1" timestamp="2011-06-13T13:04:06Z" uid="7617" user="Franc" changeset="8426070" lat="-33.8919842" lon="151.1875218"/>
  <node id="1323602803" version="1" timestamp="2011-06-13T13:04:06Z" uid="7617" user="Franc" changeset="8426070" lat="-33.9034631" lon="151.1460899">
    <tag k="addr:housenumber" v="4"/>
    <tag k="addr:street" v="Pile Street"/>
    <tag k="source" v="survey"/>
  </node>
  <node id="1323602804" version="1" timestamp="2011-06-13T13:04:06Z" uid="7617" user="Franc" changeset="8426070" lat="-33.9087528" lon="151.1590053">
    <tag k="addr:housenumber" v="24"/>
    <tag k="addr:street" v="Silver Street"/>
    <tag k="source" v="survey"/>
  </node>
  <node id="1323602805" version="1" timestamp="2011-06-13T13:04:06Z" uid="7617" user="Franc" changeset="8426070" lat="-33.908017" lon="151.1596895">
    <tag k="addr:housenumber" v="165"/>
    <tag k="addr:street" v="Syndenham Road"/>
    <tag k="source" v="survey"/>
  </node>
  <node id="1323602808" version="1" timestamp="2011-06-13T13:04:06Z" uid="7617" user="Franc" changeset="8426070" lat="-33.956593" lon="151.243988">
    <tag k="FCC" v="gpsbabel"/>
    <tag k="name" v="1121"/>
    <tag k="note" v="1121"/>
  </node>
  <node id="1323602808" version="2" timestamp="2011-06-13T14:08:33Z" uid="7617" user="Franc" changeset="8426865" lat="-33.956593" lon="151.243988"/>
  <node id="1323602816" version="1" timestamp="2011-06-13T13:04:06Z" uid="7617" user="Franc" changeset="8426070" lat="-33.98032" lon="151.236328">
    <tag k="FCC" v="gpsbabel"/>
    <tag k="name" v="1288"/>
    <tag k="note" v="1288"/>
  </node>
  <node id="1323602816" version="2" timestamp="2011-06-14T11:07:32Z" uid="7617" user="Franc" changeset="8436094" lat="-33.98032" lon="151.236328"/>
  <node id="1323602817" version="1" timestamp="2011-06-13T13:04:06Z" uid="7617" user="Franc" changeset="8426070" lat="-33.9606644" lon="151.2133767"/>
  <node id="1323602818" version="1" timestamp="2011-06-13T13:04:06Z" uid="7617" user="Franc" changeset="8426070" lat="-33.947948" lon="151.127182">
    <tag k="FCC" v="gpsbabel"/>
  </node>
  <node id="1323602818" version="2" timestamp="2011-06-14T11:07:31Z" uid="7617" user="Franc" changeset="8436094" lat="-33.947948" lon="151.127182"/>
  <node id="1323602819" version="1" timestamp="2011-06-13T13:04:06Z" uid="7617" user="Franc" changeset="8426070" lat="-33.927532" lon="151.231918">
    <tag k="FCC" v="gpsbabel"/>
    <tag k="name" v="453"/>
    <tag k="note" v="453"/>
  </node>
  <node id="1323602819" version="2" timestamp="2011-06-14T11:07:31Z" uid="7617" user="Franc" changeset="8436094" lat="-33.927532" lon="151.231918"/>
  <node id="1323602820" version="1" timestamp="2011-06-13T13:04:06Z" uid="7617" user="Franc" changeset="8426070" lat="-33.981129" lon="151.236984">
    <tag k="FCC" v="gpsbabel"/>
    <tag k="name" v="1299"/>
    <tag k="note" v="1299"/>
  </node>
  <node id="1323602820" version="2" timestamp="2011-06-14T11:07:31Z" uid="7617" user="Franc" changeset="8436094" lat="-33.981129" lon="151.236984"/>
  <node id="1323602827" version="1" timestamp="2011-06-13T13:04:07Z" uid="7617" user="Franc" changeset="8426070" lat="-33.9104463" lon="151.1574082">
    <tag k="addr:housenumber" v="98"/>
    <tag k="addr:street" v="Silver Street"/>
    <tag k="source" v="survey"/>
  </node>
  <node id="1323602829" version="1" timestamp="2011-06-13T13:04:07Z" uid="7617" user="Franc" changeset="8426070" lat="-33.8923581" lon="151.1868632">
    <tag k="addr:housenumber" v="33"/>
    <tag k="addr:street" v="King Street"/>
    <tag k="source" v="survey"/>
  </node>
  <node id="1323602831" version="1" timestamp="2011-06-13T13:04:07Z" uid="7617" user="Franc" changeset="8426070" lat="-33.9571106" lon="151.13744"/>
  <node id="1323602832" version="1" timestamp="2011-06-13T13:04:07Z" uid="7617" user="Franc" changeset="8426070" lat="-33.9036779" lon="151.1464259">
    <tag k="addr:housenumber" v="3"/>
    <tag k="addr:street" v="Pile Street"/>
    <tag k="source" v="survey"/>
  </node>
  <node id="1323602834" version="1" timestamp="2011-06-13T13:04:07Z" uid="7617" user="Franc" changeset="8426070" lat="-33.966312" lon="151.243561">
    <tag k="FCC" v="gpsbabel"/>
    <tag k="name" v="chifly public school"/>
    <tag k="note" v="chifly public school"/>
  </node>
  <node id="1323602834" version="2" timestamp="2011-06-13T13:51:44Z" uid="7617" user="Franc" changeset="8426649" lat="-33.9663686" lon="151.2440386">
    <tag k="FCC" v="gpsbabel"/>
    <tag k="amenity" v="school"/>
    <tag k="note" v="name conflict here - need to work outborders of the two schools"/>
    <tag k="source" v="survey"/>
  </node>
  <node id="1323602834" version="3" timestamp="2011-06-14T11:07:29Z" uid="7617" user="Franc" changeset="8436094" lat="-33.9663686" lon="151.2440386">
    <tag k="amenity" v="school"/>
    <tag k="note" v="name conflict here - need to work outborders of the two schools"/>
    <tag k="source" v="survey"/>
  </node>
  <node id="1323602837" version="1" timestamp="2011-06-13T13:04:07Z" uid="7617" user="Franc" changeset="8426070" lat="-33.975689" lon="151.24231">
    <tag k="FCC" v="gpsbabel"/>
    <tag k="name" v="1367"/>
    <tag k="note" v="1367"/>
  </node>
  <node id="1323602837" version="2" timestamp="2011-06-13T13:51:47Z" uid="7617" user="Franc" changeset="8426649" lat="-33.975689" lon="151.24231"/>
  <node id="1323602839" version="1" timestamp="2011-06-13T13:04:07Z" uid="7617" user="Franc" changeset="8426070" lat="-33.8921539" lon="151.1873061"/>
  <node id="1323602841" version="1" timestamp="2011-06-13T13:04:07Z" uid="7617" user="Franc" changeset="8426070" lat="-33.92894" lon="151.233612">
    <tag k="FCC" v="gpsbabel"/>
    <tag k="name" v="489-491"/>
    <tag k="note" v="489-491"/>
  </node>
  <node id="1323602841" version="2" timestamp="2011-06-14T11:07:31Z" uid="7617" user="Franc" changeset="8436094" lat="-33.92894" lon="151.233612"/>
  <node id="1323602843" version="1" timestamp="2011-06-13T13:04:07Z" uid="7617" user="Franc" changeset="8426070" lat="-33.9267466" lon="151.1254199">
    <tag k="addr:housenumber" v="342"/>
    <tag k="addr:street" v="Homer Street"/>
    <tag k="source" v="survey"/>
  </node>
  <node id="1323602846" version="1" timestamp="2011-06-13T13:04:07Z" uid="7617" user="Franc" changeset="8426070" lat="-33.9605454" lon="151.1390324">
    <tag k="addr:housenumber" v="4"/>
    <tag k="addr:street" v="Baxter Street"/>
    <tag k="source" v="survey"/>
  </node>
  <node id="1323602848" version="1" timestamp="2011-06-13T13:04:07Z" uid="7617" user="Franc" changeset="8426070" lat="-33.9091926" lon="151.1587951">
    <tag k="addr:housenumber" v="17"/>
    <tag k="addr:street" v="Silver Street"/>
    <tag k="source" v="survey"/>
  </node>
  <node id="1323602850" version="1" timestamp="2011-06-13T13:04:07Z" uid="7617" user="Franc" changeset="8426070" lat="-33.962494" lon="151.214676">
    <tag k="FCC" v="gpsbabel"/>
    <tag k="name" v="penhyrn"/>
    <tag k="note" v="penhyrn"/>
  </node>
  <node id="1323602850" version="2" timestamp="2011-06-14T11:07:31Z" uid="7617" user="Franc" changeset="8436094" lat="-33.962494" lon="151.214676"/>
  <node id="1323602862" version="1" timestamp="2011-06-13T13:04:07Z" uid="7617" user="Franc" changeset="8426070" lat="-33.98808" lon="151.2325822">
    <tag k="addr:housenumber" v="1602"/>
    <tag k="addr:street" v="Anzac Parade"/>
    <tag k="source" v="extrapolation"/>
  </node>
  <node id="1323602865" version="1" timestamp="2011-06-13T13:04:08Z" uid="7617" user="Franc" changeset="8426070" lat="-33.983754" lon="151.2354287"/>
  <node id="1323602867" version="1" timestamp="2011-06-13T13:04:08Z" uid="7617" user="Franc" changeset="8426070" lat="-33.980072" lon="151.244125">
    <tag k="FCC" v="gpsbabel"/>
    <tag k="name" v="1411"/>
    <tag k="note" v="1411"/>
  </node>
  <node id="1323602867" version="2" timestamp="2011-06-13T13:51:47Z" uid="7617" user="Franc" changeset="8426649" lat="-33.980072" lon="151.244125"/>
  <node id="1323602868" version="1" timestamp="2011-06-13T13:04:08Z" uid="7617" user="Franc" changeset="8426070" lat="-33.9505592" lon="151.1300587">
    <tag k="addr:housenumber" v="50"/>
    <tag k="addr:street" v="Harrow Road"/>
    <tag k="source" v="survey"/>
  </node>
  <node id="1323602869" version="1" timestamp="2011-06-13T13:04:08Z" uid="7617" user="Franc" changeset="8426070" lat="-33.9372153" lon="151.1138927"/>
  <node id="1323602881" version="1" timestamp="2011-06-13T13:04:08Z" uid="7617" user="Franc" changeset="8426070" lat="-33.9321205" lon="151.1251374">
    <tag k="addr:housenumber" v="46"/>
    <tag k="addr:street" v="Slade Road"/>
    <tag k="source" v="survey"/>
  </node>
  <node id="1323602884" version="1" timestamp="2011-06-13T13:04:08Z" uid="7617" user="Franc" changeset="8426070" lat="-33.9572008" lon="151.1386697"/>
  <node id="1323602886" version="1" timestamp="2011-06-13T13:04:08Z" uid="7617" user="Franc" changeset="8426070" lat="-33.9082226" lon="151.1594972">
    <tag k="addr:housenumber" v="2a"/>
    <tag k="addr:street" v="Silver Street"/>
    <tag k="source" v="survey"/>
  </node>
  <node id="1323602889" version="1" timestamp="2011-06-13T13:04:08Z" uid="7617" user="Franc" changeset="8426070" lat="-33.948883" lon="151.240677">
    <tag k="FCC" v="gpsbabel"/>
    <tag k="name" v="935"/>
    <tag k="note" v="935"/>
  </node>
  <node id="1323602889" version="2" timestamp="2011-06-13T14:08:33Z" uid="7617" user="Franc" changeset="8426865" lat="-33.948883" lon="151.240677"/>
  <node id="1323602892" version="1" timestamp="2011-06-13T13:04:08Z" uid="7617" user="Franc" changeset="8426070" lat="-33.9482418" lon="151.1280493">
    <tag k="addr:housenumber" v="2"/>
    <tag k="addr:street" v="Harrow Road"/>
    <tag k="source" v="extrapolation"/>
  </node>
  <node id="1323602901" version="1" timestamp="2011-06-13T13:04:08Z" uid="7617" user="Franc" changeset="8426070" lat="-33.9324841" lon="151.1276644">
    <tag k="addr:housenumber" v="2"/>
    <tag k="addr:street" v="Slade Road"/>
    <tag k="source" v="extrapolation"/>
  </node>
  <node id="1323602902" version="1" timestamp="2011-06-13T13:04:08Z" uid="7617" user="Franc" changeset="8426070" lat="-33.980049" lon="151.23645">
    <tag k="FCC" v="gpsbabel"/>
    <tag k="name" v="1292"/>
    <tag k="note" v="1292"/>
  </node>
  <node id="1323602902" version="2" timestamp="2011-06-14T11:07:27Z" uid="7617" user="Franc" changeset="8436094" lat="-33.9800525" lon="151.2364734">
    <tag k="addr:housenumber" v="1292"/>
    <tag k="addr:street" v="Bunnerong Road"/>
    <tag k="source" v="survey"/>
  </node>
  <node id="1323602903" version="1" timestamp="2011-06-13T13:04:09Z" uid="7617" user="Franc" changeset="8426070" lat="-33.9608175" lon="151.2131363"/>
  <node id="1323602904" version="1" timestamp="2011-06-13T13:04:09Z" uid="7617" user="Franc" changeset="8426070" lat="-33.9604847" lon="151.138539">
    <tag k="addr:housenumber" v="2"/>
    <tag k="addr:street" v="Baxter Street"/>
    <tag k="source" v="survey"/>
  </node>
  <node id="1323602912" version="1" timestamp="2011-06-13T13:04:09Z" uid="7617" user="Franc" changeset="8426070" lat="-33.9553346" lon="151.1375221">
    <tag k="addr:housenumber" v="581"/>
    <tag k="addr:street" v="Princes Highway"/>
    <tag k="source" v="survey"/>
  </node>
  <node id="1323602914" version="1" timestamp="2011-06-13T13:04:09Z" uid="7617" user="Franc" changeset="8426070" lat="-33.9079216" lon="151.1595901">
    <tag k="addr:housenumber" v="169"/>
    <tag k="addr:street" v="Syndenham Road"/>
    <tag k="source" v="extrapolation"/>
  </node>
  <node id="1323602915" version="1" timestamp="2011-06-13T13:04:09Z" uid="7617" user="Franc" changeset="8426070" lat="-33.9335183" lon="151.122428">
    <tag k="addr:housenumber" v="114"/>
    <tag k="addr:street" v="Slade Road"/>
    <tag k="source" v="survey"/>
  </node>
  <node id="1323602916" version="1" timestamp="2011-06-13T13:04:09Z" uid="7617" user="Franc" changeset="8426070" lat="-33.9196297" lon="151.1686375">
    <tag k="addr:housenumber" v="487"/>
    <tag k="addr:street" v="Princes Highway"/>
    <tag k="source" v="survey"/>
  </node>
</osm>
