<?xml version='1.0' encoding='UTF-8'?>
<osm version="0.6" generator="libosmium/2.20.0">
  <node id="1330460306" version="1" timestamp="2011-06-19T08:10:39Z" uid="8619" user="cetest" changeset="8480942" lat="51.9376297" lon="4.4040906"/>
  <node id="1330460307" version="1" timestamp="2011-06-19T08:10:39Z" uid="8619" user="cetest" changeset="8480942" lat="51.937707" lon="4.4040791"/>
  <node id="1330460308" version="1" timestamp="2011-06-19T08:10:39Z" uid="8619" user="cetest" changeset="8480942" lat="51.9382658" lon="4.4031304"/>
  <node id="1330460308" version="2" timestamp="2011-06-19T09:32:02Z" uid="8619" user="cetest" changeset="8481698" lat="51.9382263" lon="4.403075"/>
  <node id="1330460309" version="1" timestamp="2011-06-19T08:10:39Z" uid="8619" user="cetest" changeset="8480942" lat="51.9389053" lon="4.4018947"/>
  <node id="1330460310" version="1" timestamp="2011-06-19T08:10:39Z" uid="8619" user="cetest" changeset="8480942" lat="51.9389719" lon="4.4019583"/>
  <node id="1330460311" version="1" timestamp="2011-06-19T08:10:40Z" uid="8619" user="cetest" changeset="8480942" lat="51.9399622" lon="4.4004469"/>
  <node id="1330460311" version="2" timestamp="2011-06-19T09:32:02Z" uid="8619" user="cetest" changeset="8481698" lat="51.9399412" lon="4.4003915"/>
  <node id="1330460312" version="1" timestamp="2011-06-19T08:10:40Z" uid="8619" user="cetest" changeset="8480942" lat="51.9402342" lon="4.3998853"/>
  <node id="1330460313" version="1" timestamp="2011-06-19T08:10:40Z" uid="8619" user="cetest" changeset="8480942" lat="51.9403204" lon="4.3998726"/>
  <node id="1330460314" version="1" timestamp="2011-06-19T08:10:40Z" uid="8619" user="cetest" changeset="8480942" lat="51.941614" lon="4.3978633"/>
  <node id="1330460315" version="1" timestamp="2011-06-19T08:10:40Z" uid="8619" user="cetest" changeset="8480942" lat="51.9416963" lon="4.397876"/>
  <node id="1330460316" version="1" timestamp="2011-06-19T08:10:40Z" uid="8619" user="cetest" changeset="8480942" lat="51.9417277" lon="4.3979078"/>
  <node id="1330460316" version="2" timestamp="2011-06-19T09:32:02Z" uid="8619" user="cetest" changeset="8481698" lat="51.9416699" lon="4.397831"/>
  <node id="1330460317" version="1" timestamp="2011-06-19T08:10:40Z" uid="8619" user="cetest" changeset="8480942" lat="51.9428381" lon="4.3959993"/>
  <node id="1330460317" version="2" timestamp="2011-06-19T09:32:02Z" uid="8619" user="cetest" changeset="8481698" lat="51.9427829" lon="4.3959567"/>
  <node id="1330460318" version="1" timestamp="2011-06-19T08:10:40Z" uid="8619" user="cetest" changeset="8480942" lat="51.9431036" lon="4.3953261"/>
  <node id="1330460319" version="1" timestamp="2011-06-19T08:10:40Z" uid="8619" user="cetest" changeset="8480942" lat="51.9431193" lon="4.3954851"/>
  <node id="1330460319" version="2" timestamp="2011-06-19T09:48:12Z" uid="8619" user="cetest" changeset="8481848" lat="51.9431326" lon="4.3954312"/>
  <node id="1330460320" version="1" timestamp="2011-06-19T08:10:40Z" uid="8619" user="cetest" changeset="8480942" lat="51.9443868" lon="4.3944725"/>
  <node id="1330460321" version="1" timestamp="2011-06-19T08:10:40Z" uid="8619" user="cetest" changeset="8480942" lat="51.9444032" lon="4.3945924"/>
  <node id="1330460693" version="1" timestamp="2011-06-19T08:11:17Z" uid="7617" user="Franc" changeset="8480952" lat="-33.9189177" lon="151.1630988">
    <tag k="addr:housenumber" v="316"/>
    <tag k="addr:street" v="Unwins Bridge Road"/>
    <tag k="source" v="extrapolation"/>
  </node>
  <node id="1330460694" version="1" timestamp="2011-06-19T08:11:17Z" uid="7617" user="Franc" changeset="8480952" lat="-33.931956" lon="151.1262208"/>
  <node id="1330460695" version="1" timestamp="2011-06-19T08:11:17Z" uid="7617" user="Franc" changeset="8480952" lat="-33.9218232" lon="151.1633572">
    <tag k="addr:housenumber" v="5"/>
    <tag k="addr:street" v="Foreman Street"/>
    <tag k="source" v="extrapolation"/>
  </node>
  <node id="1330460696" version="1" timestamp="2011-06-19T08:11:17Z" uid="7617" user="Franc" changeset="8480952" lat="-33.919113" lon="151.1635667">
    <tag k="addr:housenumber" v="55"/>
    <tag k="addr:street" v="Lymerston Street"/>
    <tag k="source" v="survey"/>
  </node>
  <node id="1330460697" version="1" timestamp="2011-06-19T08:11:17Z" uid="7617" user="Franc" changeset="8480952" lat="-33.920134" lon="151.1643836">
    <tag k="addr:housenumber" v="20"/>
    <tag k="addr:street" v="Lymerston Street"/>
    <tag k="source" v="survey"/>
  </node>
  <node id="1330460698" version="1" timestamp="2011-06-19T08:11:18Z" uid="7617" user="Franc" changeset="8480952" lat="-33.9187015" lon="151.1631479">
    <tag k="addr:housenumber" v="115"/>
    <tag k="addr:street" v="Unwins Bridge Road"/>
    <tag k="source" v="survey"/>
  </node>
  <node id="1330460699" version="1" timestamp="2011-06-19T08:11:18Z" uid="7617" user="Franc" changeset="8480952" lat="-33.932027" lon="151.125428">
    <tag k="addr:housenumber" v="38"/>
    <tag k="addr:street" v="Slade Road"/>
    <tag k="source" v="survey"/>
  </node>
  <node id="1330460700" version="1" timestamp="2011-06-19T08:11:18Z" uid="7617" user="Franc" changeset="8480952" lat="-33.932519" lon="151.1244886"/>
  <node id="1330460701" version="1" timestamp="2011-06-19T08:11:18Z" uid="7617" user="Franc" changeset="8480952" lat="-33.9208146" lon="151.1652793">
    <tag k="addr:housenumber" v="1"/>
    <tag k="addr:street" v="Lymerston Street"/>
    <tag k="source" v="survey"/>
  </node>
  <node id="1330460702" version="1" timestamp="2011-06-19T08:11:18Z" uid="7617" user="Franc" changeset="8480952" lat="-33.9219111" lon="151.1634379">
    <tag k="addr:housenumber" v="1"/>
    <tag k="addr:street" v="Foreman Street"/>
    <tag k="source" v="extrapolation"/>
  </node>
  <node id="1330460703" version="1" timestamp="2011-06-19T08:11:18Z" uid="7617" user="Franc" changeset="8480952" lat="-33.9509584" lon="151.1339415">
    <tag k="addr:housenumber" v="2"/>
    <tag k="addr:street" v="Herbert Street"/>
    <tag k="source" v="extrapolation"/>
  </node>
  <node id="1330460704" version="1" timestamp="2011-06-19T08:11:18Z" uid="7617" user="Franc" changeset="8480952" lat="-33.9362524" lon="151.1199283"/>
  <node id="1330460705" version="1" timestamp="2011-06-19T08:11:18Z" uid="7617" user="Franc" changeset="8480952" lat="-33.9217781" lon="151.1633119">
    <tag k="addr:housenumber" v="7"/>
    <tag k="addr:street" v="Foreman Street"/>
    <tag k="source" v="extrapolation"/>
  </node>
  <node id="1330460706" version="1" timestamp="2011-06-19T08:11:18Z" uid="7617" user="Franc" changeset="8480952" lat="-33.9251003" lon="151.1344068">
    <tag k="addr:housenumber" v="137"/>
    <tag k="addr:street" v="Homer Street"/>
    <tag k="source" v="survey"/>
  </node>
  <node id="1330460707" version="1" timestamp="2011-06-19T08:11:18Z" uid="7617" user="Franc" changeset="8480952" lat="-33.9072689" lon="151.1742862">
    <tag k="addr:housenumber" v="209a"/>
    <tag k="addr:street" v="Edgeware Road"/>
    <tag k="source" v="survey"/>
  </node>
  <node id="1330460708" version="1" timestamp="2011-06-19T08:11:18Z" uid="7617" user="Franc" changeset="8480952" lat="-33.9217329" lon="151.1632665">
    <tag k="addr:housenumber" v="9"/>
    <tag k="addr:street" v="Foreman Street"/>
    <tag k="source" v="extrapolation"/>
  </node>
  <node id="1330460709" version="1" timestamp="2011-06-19T08:11:18Z" uid="7617" user="Franc" changeset="8480952" lat="-33.9239587" lon="151.1619255">
    <tag k="addr:housenumber" v="820"/>
    <tag k="addr:street" v="Princes Highway"/>
    <tag k="source" v="survey"/>
  </node>
  <node id="1330460710" version="1" timestamp="2011-06-19T08:11:19Z" uid="7617" user="Franc" changeset="8480952" lat="-33.9217552" lon="151.163135">
    <tag k="addr:housenumber" v="8"/>
    <tag k="addr:street" v="Foreman Street"/>
    <tag k="source" v="survey"/>
  </node>
  <node id="1330460711" version="1" timestamp="2011-06-19T08:11:19Z" uid="7617" user="Franc" changeset="8480952" lat="-33.9207195" lon="151.1649903">
    <tag k="addr:housenumber" v="4"/>
    <tag k="addr:street" v="Lymerston Street"/>
    <tag k="source" v="survey"/>
  </node>
  <node id="1330460712" version="1" timestamp="2011-06-19T08:11:19Z" uid="7617" user="Franc" changeset="8480952" lat="-33.9236876" lon="151.1358763">
    <tag k="addr:housenumber" v="103"/>
    <tag k="addr:street" v="Homer Street"/>
    <tag k="source" v="survey"/>
  </node>
  <node id="1330460713" version="1" timestamp="2011-06-19T08:11:19Z" uid="7617" user="Franc" changeset="8480952" lat="-33.9236076" lon="151.1623687">
    <tag k="addr:housenumber" v="810"/>
    <tag k="addr:street" v="Princes Highway"/>
    <tag k="source" v="survey"/>
  </node>
  <node id="1330460714" version="1" timestamp="2011-06-19T08:11:19Z" uid="7617" user="Franc" changeset="8480952" lat="-33.950703" lon="151.1337339">
    <tag k="addr:housenumber" v="8"/>
    <tag k="addr:street" v="Herbert Street"/>
    <tag k="source" v="survey"/>
  </node>
  <node id="1330460715" version="1" timestamp="2011-06-19T08:11:19Z" uid="7617" user="Franc" changeset="8480952" lat="-33.9218499" lon="151.1632216">
    <tag k="addr:housenumber" v="4"/>
    <tag k="addr:street" v="Foreman Street"/>
    <tag k="source" v="survey"/>
  </node>
  <node id="1330460716" version="1" timestamp="2011-06-19T08:11:19Z" uid="7617" user="Franc" changeset="8480952" lat="-33.9524195" lon="151.1327766">
    <tag k="addr:housenumber" v="22"/>
    <tag k="addr:street" v="Watkin Street"/>
    <tag k="source" v="survey"/>
  </node>
  <node id="1330460717" version="1" timestamp="2011-06-19T08:11:19Z" uid="7617" user="Franc" changeset="8480952" lat="-33.9216877" lon="151.1632211">
    <tag k="addr:housenumber" v="11"/>
    <tag k="addr:street" v="Foreman Street"/>
    <tag k="source" v="extrapolation"/>
  </node>
  <node id="1330460718" version="1" timestamp="2011-06-19T08:11:19Z" uid="7617" user="Franc" changeset="8480952" lat="-33.9508249" lon="151.1338307">
    <tag k="addr:housenumber" v="6"/>
    <tag k="addr:street" v="Herbert Street"/>
    <tag k="source" v="survey"/>
  </node>
  <node id="1330460719" version="1" timestamp="2011-06-19T08:11:20Z" uid="7617" user="Franc" changeset="8480952" lat="-33.9524801" lon="151.1326739">
    <tag k="addr:housenumber" v="22"/>
    <tag k="addr:street" v="Watkin Street"/>
    <tag k="source" v="survey"/>
  </node>
  <node id="1330460720" version="1" timestamp="2011-06-19T08:11:20Z" uid="7617" user="Franc" changeset="8480952" lat="-33.9353773" lon="151.1189905">
    <tag k="addr:housenumber" v="182"/>
    <tag k="addr:street" v="Slade Road"/>
    <tag k="source" v="extrapolation"/>
  </node>
  <node id="1330460721" version="1" timestamp="2011-06-19T08:11:20Z" uid="7617" user="Franc" changeset="8480952" lat="-33.9322608" lon="151.1252994">
    <tag k="addr:housenumber" v="31"/>
    <tag k="addr:street" v="Slade Road"/>
    <tag k="source" v="survey"/>
  </node>
  <node id="1330460722" version="1" timestamp="2011-06-19T08:11:20Z" uid="7617" user="Franc" changeset="8480952" lat="-33.9241791" lon="151.1616629">
    <tag k="addr:housenumber" v="826"/>
    <tag k="addr:street" v="Princes Highway"/>
    <tag k="source" v="survey"/>
  </node>
  <node id="1330460723" version="1" timestamp="2011-06-19T08:11:20Z" uid="7617" user="Franc" changeset="8480952" lat="-33.9320074" lon="151.1254703">
    <tag k="addr:housenumber" v="36"/>
    <tag k="addr:street" v="Slade Road"/>
    <tag k="source" v="extrapolation"/>
  </node>
  <node id="1330460724" version="1" timestamp="2011-06-19T08:11:20Z" uid="7617" user="Franc" changeset="8480952" lat="-33.9065025" lon="151.1739411">
    <tag k="addr:housenumber" v="187"/>
    <tag k="addr:street" v="Edgeware Road"/>
    <tag k="source" v="survey"/>
  </node>
  <node id="1330460725" version="1" timestamp="2011-06-19T08:11:20Z" uid="7617" user="Franc" changeset="8480952" lat="-33.9207929" lon="151.165054">
    <tag k="addr:housenumber" v="2"/>
    <tag k="addr:street" v="Lymerston Street"/>
    <tag k="source" v="survey"/>
  </node>
  <node id="1330460726" version="1" timestamp="2011-06-19T08:11:20Z" uid="7617" user="Franc" changeset="8480952" lat="-33.918791" lon="151.1632809">
    <tag k="addr:housenumber" v="314"/>
    <tag k="addr:street" v="Unwins Bridge Road"/>
    <tag k="source" v="survey"/>
  </node>
  <node id="1330460727" version="1" timestamp="2011-06-19T08:11:20Z" uid="7617" user="Franc" changeset="8480952" lat="-33.9207707" lon="151.1623086">
    <tag k="addr:housenumber" v="35"/>
    <tag k="addr:street" v="Foreman Street"/>
    <tag k="source" v="survey"/>
  </node>
  <node id="1330460728" version="1" timestamp="2011-06-19T08:11:21Z" uid="7617" user="Franc" changeset="8480952" lat="-33.9319667" lon="151.1263129"/>
  <node id="1330460729" version="1" timestamp="2011-06-19T08:11:21Z" uid="7617" user="Franc" changeset="8480952" lat="-33.9218684" lon="151.1634026">
    <tag k="addr:housenumber" v="3"/>
    <tag k="addr:street" v="Foreman Street"/>
    <tag k="source" v="survey"/>
  </node>
  <node id="1330460730" version="1" timestamp="2011-06-19T08:11:21Z" uid="7617" user="Franc" changeset="8480952" lat="-33.9219038" lon="151.1632885">
    <tag k="addr:housenumber" v="2"/>
    <tag k="addr:street" v="Foreman Street"/>
    <tag k="source" v="survey"/>
  </node>
  <node id="1330460731" version="1" timestamp="2011-06-19T08:11:21Z" uid="7617" user="Franc" changeset="8480952" lat="-33.9200767" lon="151.1643159">
    <tag k="addr:housenumber" v="22"/>
    <tag k="addr:street" v="Lymerston Street"/>
    <tag k="source" v="extrapolation"/>
  </node>
  <node id="1330460732" version="1" timestamp="2011-06-19T08:11:21Z" uid="7617" user="Franc" changeset="8480952" lat="-33.921805" lon="151.1631792">
    <tag k="addr:housenumber" v="6"/>
    <tag k="addr:street" v="Foreman Street"/>
    <tag k="source" v="survey"/>
  </node>
  <node id="1330460733" version="1" timestamp="2011-06-19T08:11:21Z" uid="7617" user="Franc" changeset="8480952" lat="-33.9216425" lon="151.1631757">
    <tag k="addr:housenumber" v="13"/>
    <tag k="addr:street" v="Foreman Street"/>
    <tag k="source" v="survey"/>
  </node>
  <node id="1330460734" version="1" timestamp="2011-06-19T08:11:21Z" uid="7617" user="Franc" changeset="8480952" lat="-33.9509066" lon="151.1339037">
    <tag k="addr:housenumber" v="4"/>
    <tag k="addr:street" v="Herbert Street"/>
    <tag k="source" v="extrapolation"/>
  </node>
</osm>
