<?xml version='1.0' encoding='UTF-8'?>
<osm version="0.6" generator="libosmium/2.20.0">
  <node id="133090012" version="1" timestamp="2007-11-25T21:18:11Z" uid="4467" user="Rosscoe" changeset="621649" lat="-27.470813" lon="150.218333">
    <tag k="created_by" v="JOSM"/>
    <tag k="highway" v="trunk"/>
    <tag k="name" v="Leichhardt Hwy"/>
    <tag k="surface" v="paved"/>
  </node>
  <node id="133090034" version="1" timestamp="2007-11-25T21:18:12Z" uid="4467" user="Rosscoe" changeset="621649" lat="-27.471087" lon="150.2184">
    <tag k="created_by" v="JOSM"/>
    <tag k="highway" v="trunk"/>
    <tag k="name" v="Leichhardt Hwy"/>
    <tag k="surface" v="paved"/>
  </node>
  <node id="133090056" version="1" timestamp="2007-11-25T21:18:13Z" uid="4467" user="Rosscoe" changeset="621649" lat="-27.47136" lon="150.218465">
    <tag k="created_by" v="JOSM"/>
    <tag k="highway" v="trunk"/>
    <tag k="name" v="Leichhardt Hwy"/>
    <tag k="surface" v="paved"/>
  </node>
  <node id="133090080" version="1" timestamp="2007-11-25T21:18:13Z" uid="4467" user="Rosscoe" changeset="621649" lat="-27.471635" lon="150.218533">
    <tag k="created_by" v="JOSM"/>
    <tag k="highway" v="trunk"/>
    <tag k="name" v="Leichhardt Hwy"/>
    <tag k="surface" v="paved"/>
  </node>
  <node id="133090096" version="1" timestamp="2007-11-25T21:18:14Z" uid="4467" user="Rosscoe" changeset="621649" lat="-27.469717" lon="150.218068">
    <tag k="created_by" v="JOSM"/>
    <tag k="highway" v="trunk"/>
    <tag k="name" v="Leichhardt Hwy"/>
    <tag k="surface" v="paved"/>
  </node>
  <node id="133090122" version="1" timestamp="2007-11-25T21:18:15Z" uid="4467" user="Rosscoe" changeset="621649" lat="-27.46999" lon="150.218135">
    <tag k="created_by" v="JOSM"/>
    <tag k="highway" v="trunk"/>
    <tag k="name" v="Leichhardt Hwy"/>
    <tag k="surface" v="paved"/>
  </node>
  <node id="133090146" version="1" timestamp="2007-11-25T21:18:16Z" uid="4467" user="Rosscoe" changeset="621649" lat="-27.47026" lon="150.2182">
    <tag k="created_by" v="JOSM"/>
    <tag k="highway" v="trunk"/>
    <tag k="name" v="Leichhardt Hwy"/>
    <tag k="surface" v="paved"/>
  </node>
  <node id="133090171" version="1" timestamp="2007-11-25T21:18:17Z" uid="4467" user="Rosscoe" changeset="621649" lat="-27.470538" lon="150.218268">
    <tag k="created_by" v="JOSM"/>
    <tag k="highway" v="trunk"/>
    <tag k="name" v="Leichhardt Hwy"/>
    <tag k="surface" v="paved"/>
  </node>
  <node id="133090199" version="1" timestamp="2007-11-25T21:18:17Z" uid="4467" user="Rosscoe" changeset="621649" lat="-27.468612" lon="150.217803">
    <tag k="created_by" v="JOSM"/>
    <tag k="highway" v="trunk"/>
    <tag k="name" v="Leichhardt Hwy"/>
    <tag k="surface" v="paved"/>
  </node>
  <node id="133090221" version="1" timestamp="2007-11-25T21:18:18Z" uid="4467" user="Rosscoe" changeset="621649" lat="-27.468892" lon="150.217868">
    <tag k="created_by" v="JOSM"/>
    <tag k="highway" v="trunk"/>
    <tag k="name" v="Leichhardt Hwy"/>
    <tag k="surface" v="paved"/>
  </node>
  <node id="133090247" version="1" timestamp="2007-11-25T21:18:19Z" uid="4467" user="Rosscoe" changeset="621649" lat="-27.469167" lon="150.217933">
    <tag k="created_by" v="JOSM"/>
    <tag k="highway" v="trunk"/>
    <tag k="name" v="Leichhardt Hwy"/>
    <tag k="surface" v="paved"/>
  </node>
  <node id="133090247" version="7" timestamp="2009-10-11T06:14:55Z" uid="74617" user="JohnSmith" changeset="2810296" lat="-27.469167" lon="150.217933"/>
  <node id="133090273" version="1" timestamp="2007-11-25T21:18:20Z" uid="4467" user="Rosscoe" changeset="621649" lat="-27.469442" lon="150.218">
    <tag k="created_by" v="JOSM"/>
    <tag k="highway" v="trunk"/>
    <tag k="name" v="Leichhardt Hwy"/>
    <tag k="surface" v="paved"/>
  </node>
  <node id="133090287" version="1" timestamp="2007-11-25T21:18:21Z" uid="4467" user="Rosscoe" changeset="621649" lat="-27.467517" lon="150.217538">
    <tag k="created_by" v="JOSM"/>
    <tag k="highway" v="trunk"/>
    <tag k="name" v="Leichhardt Hwy"/>
    <tag k="surface" v="paved"/>
  </node>
  <node id="133090306" version="1" timestamp="2007-11-25T21:18:21Z" uid="4467" user="Rosscoe" changeset="621649" lat="-27.467788" lon="150.217605">
    <tag k="created_by" v="JOSM"/>
    <tag k="highway" v="trunk"/>
    <tag k="name" v="Leichhardt Hwy"/>
    <tag k="surface" v="paved"/>
  </node>
  <node id="133090325" version="1" timestamp="2007-11-25T21:18:22Z" uid="4467" user="Rosscoe" changeset="621649" lat="-27.468063" lon="150.217672">
    <tag k="created_by" v="JOSM"/>
    <tag k="highway" v="trunk"/>
    <tag k="name" v="Leichhardt Hwy"/>
    <tag k="surface" v="paved"/>
  </node>
  <node id="133090336" version="1" timestamp="2007-11-25T21:18:23Z" uid="4467" user="Rosscoe" changeset="621649" lat="-27.46834" lon="150.217738">
    <tag k="created_by" v="JOSM"/>
    <tag k="highway" v="trunk"/>
    <tag k="name" v="Leichhardt Hwy"/>
    <tag k="surface" v="paved"/>
  </node>
  <node id="133090366" version="1" timestamp="2007-11-25T21:18:24Z" uid="4467" user="Rosscoe" changeset="621649" lat="-27.475188" lon="150.219393">
    <tag k="created_by" v="JOSM"/>
    <tag k="highway" v="trunk"/>
    <tag k="name" v="Leichhardt Hwy"/>
    <tag k="surface" v="paved"/>
  </node>
  <node id="133090385" version="1" timestamp="2007-11-25T21:18:25Z" uid="4467" user="Rosscoe" changeset="621649" lat="-27.475467" lon="150.219462">
    <tag k="created_by" v="JOSM"/>
    <tag k="highway" v="trunk"/>
    <tag k="name" v="Leichhardt Hwy"/>
    <tag k="surface" v="paved"/>
  </node>
  <node id="133090415" version="1" timestamp="2007-11-25T21:18:25Z" uid="4467" user="Rosscoe" changeset="621649" lat="-27.475745" lon="150.219528">
    <tag k="created_by" v="JOSM"/>
    <tag k="highway" v="trunk"/>
    <tag k="name" v="Leichhardt Hwy"/>
    <tag k="surface" v="paved"/>
  </node>
  <node id="133090433" version="1" timestamp="2007-11-25T21:18:26Z" uid="4467" user="Rosscoe" changeset="621649" lat="-27.476017" lon="150.219592">
    <tag k="created_by" v="JOSM"/>
    <tag k="highway" v="trunk"/>
    <tag k="name" v="Leichhardt Hwy"/>
    <tag k="surface" v="paved"/>
  </node>
  <node id="133090450" version="1" timestamp="2007-11-25T21:18:27Z" uid="4467" user="Rosscoe" changeset="621649" lat="-27.4741" lon="150.21913">
    <tag k="created_by" v="JOSM"/>
    <tag k="highway" v="trunk"/>
    <tag k="name" v="Leichhardt Hwy"/>
    <tag k="surface" v="paved"/>
  </node>
  <node id="133090474" version="1" timestamp="2007-11-25T21:18:28Z" uid="4467" user="Rosscoe" changeset="621649" lat="-27.474372" lon="150.219195">
    <tag k="created_by" v="JOSM"/>
    <tag k="highway" v="trunk"/>
    <tag k="name" v="Leichhardt Hwy"/>
    <tag k="surface" v="paved"/>
  </node>
  <node id="133090492" version="1" timestamp="2007-11-25T21:18:29Z" uid="4467" user="Rosscoe" changeset="621649" lat="-27.474643" lon="150.219262">
    <tag k="created_by" v="JOSM"/>
    <tag k="highway" v="trunk"/>
    <tag k="name" v="Leichhardt Hwy"/>
    <tag k="surface" v="paved"/>
  </node>
  <node id="133090516" version="1" timestamp="2007-11-25T21:18:29Z" uid="4467" user="Rosscoe" changeset="621649" lat="-27.474918" lon="150.219328">
    <tag k="created_by" v="JOSM"/>
    <tag k="highway" v="trunk"/>
    <tag k="name" v="Leichhardt Hwy"/>
    <tag k="surface" v="paved"/>
  </node>
  <node id="133090537" version="1" timestamp="2007-11-25T21:18:30Z" uid="4467" user="Rosscoe" changeset="621649" lat="-27.473007" lon="150.218867">
    <tag k="created_by" v="JOSM"/>
    <tag k="highway" v="trunk"/>
    <tag k="name" v="Leichhardt Hwy"/>
    <tag k="surface" v="paved"/>
  </node>
  <node id="133090557" version="1" timestamp="2007-11-25T21:18:31Z" uid="4467" user="Rosscoe" changeset="621649" lat="-27.473277" lon="150.218932">
    <tag k="created_by" v="JOSM"/>
    <tag k="highway" v="trunk"/>
    <tag k="name" v="Leichhardt Hwy"/>
    <tag k="surface" v="paved"/>
  </node>
  <node id="133090576" version="1" timestamp="2007-11-25T21:18:32Z" uid="4467" user="Rosscoe" changeset="621649" lat="-27.473547" lon="150.218997">
    <tag k="created_by" v="JOSM"/>
    <tag k="highway" v="trunk"/>
    <tag k="name" v="Leichhardt Hwy"/>
    <tag k="surface" v="paved"/>
  </node>
  <node id="133090597" version="1" timestamp="2007-11-25T21:18:33Z" uid="4467" user="Rosscoe" changeset="621649" lat="-27.473823" lon="150.219063">
    <tag k="created_by" v="JOSM"/>
    <tag k="highway" v="trunk"/>
    <tag k="name" v="Leichhardt Hwy"/>
    <tag k="surface" v="paved"/>
  </node>
  <node id="133090615" version="1" timestamp="2007-11-25T21:18:33Z" uid="4467" user="Rosscoe" changeset="621649" lat="-27.471903" lon="150.2186">
    <tag k="created_by" v="JOSM"/>
    <tag k="highway" v="trunk"/>
    <tag k="name" v="Leichhardt Hwy"/>
    <tag k="surface" v="paved"/>
  </node>
  <node id="133090633" version="1" timestamp="2007-11-25T21:18:34Z" uid="4467" user="Rosscoe" changeset="621649" lat="-27.472182" lon="150.218667">
    <tag k="created_by" v="JOSM"/>
    <tag k="highway" v="trunk"/>
    <tag k="name" v="Leichhardt Hwy"/>
    <tag k="surface" v="paved"/>
  </node>
  <node id="133090660" version="1" timestamp="2007-11-25T21:18:35Z" uid="4467" user="Rosscoe" changeset="621649" lat="-27.472455" lon="150.218733">
    <tag k="created_by" v="JOSM"/>
    <tag k="highway" v="trunk"/>
    <tag k="name" v="Leichhardt Hwy"/>
    <tag k="surface" v="paved"/>
  </node>
  <node id="133090668" version="1" timestamp="2007-11-25T21:18:36Z" uid="4467" user="Rosscoe" changeset="621649" lat="-27.472728" lon="150.2188">
    <tag k="created_by" v="JOSM"/>
    <tag k="highway" v="trunk"/>
    <tag k="name" v="Leichhardt Hwy"/>
    <tag k="surface" v="paved"/>
  </node>
  <node id="133090682" version="1" timestamp="2007-11-25T21:18:37Z" uid="4467" user="Rosscoe" changeset="621649" lat="-27.479582" lon="150.220455">
    <tag k="created_by" v="JOSM"/>
    <tag k="highway" v="trunk"/>
    <tag k="name" v="Leichhardt Hwy"/>
    <tag k="surface" v="paved"/>
  </node>
  <node id="133090713" version="1" timestamp="2007-11-25T21:18:37Z" uid="4467" user="Rosscoe" changeset="621649" lat="-27.479857" lon="150.220522">
    <tag k="created_by" v="JOSM"/>
    <tag k="highway" v="trunk"/>
    <tag k="name" v="Leichhardt Hwy"/>
    <tag k="surface" v="paved"/>
  </node>
  <node id="133090738" version="1" timestamp="2007-11-25T21:18:38Z" uid="4467" user="Rosscoe" changeset="621649" lat="-27.480127" lon="150.220587">
    <tag k="created_by" v="JOSM"/>
    <tag k="highway" v="trunk"/>
    <tag k="name" v="Leichhardt Hwy"/>
    <tag k="surface" v="paved"/>
  </node>
  <node id="133090743" version="2" timestamp="2009-10-29T14:11:42Z" uid="99207" user="Lar Kiesel" changeset="2981406" lat="40.669494" lon="-99.081728">
    <tag k="highway" v="motorway_junction"/>
    <tag k="name" v="N-44; Kearney; Archway Monument"/>
    <tag k="source" v="tiger_import_dch_v0.6_20070813"/>
    <tag k="tiger:county" v="Buffalo, NE"/>
    <tag k="tiger:tlid" v="137855113:137854483:137875522"/>
    <tag k="tiger:upload_uuid" v="bulk_upload.pl-de25bf04-4673-47f5-8557-e15ef603277f"/>
  </node>
  <node id="133090761" version="1" timestamp="2007-11-25T21:18:39Z" uid="4467" user="Rosscoe" changeset="621649" lat="-27.480405" lon="150.220653">
    <tag k="created_by" v="JOSM"/>
    <tag k="highway" v="trunk"/>
    <tag k="name" v="Leichhardt Hwy"/>
    <tag k="surface" v="paved"/>
  </node>
  <node id="133090787" version="1" timestamp="2007-11-25T21:18:40Z" uid="4467" user="Rosscoe" changeset="621649" lat="-27.478482" lon="150.220192">
    <tag k="created_by" v="JOSM"/>
    <tag k="highway" v="trunk"/>
    <tag k="name" v="Leichhardt Hwy"/>
    <tag k="surface" v="paved"/>
  </node>
  <node id="133090815" version="1" timestamp="2007-11-25T21:18:41Z" uid="4467" user="Rosscoe" changeset="621649" lat="-27.478758" lon="150.220258">
    <tag k="created_by" v="JOSM"/>
    <tag k="highway" v="trunk"/>
    <tag k="name" v="Leichhardt Hwy"/>
    <tag k="surface" v="paved"/>
  </node>
  <node id="133090826" version="1" timestamp="2007-11-25T21:18:41Z" uid="4467" user="Rosscoe" changeset="621649" lat="-27.479035" lon="150.220323">
    <tag k="created_by" v="JOSM"/>
    <tag k="highway" v="trunk"/>
    <tag k="name" v="Leichhardt Hwy"/>
    <tag k="surface" v="paved"/>
  </node>
  <node id="133090840" version="1" timestamp="2007-11-25T21:18:42Z" uid="4467" user="Rosscoe" changeset="621649" lat="-27.479308" lon="150.220388">
    <tag k="created_by" v="JOSM"/>
    <tag k="highway" v="trunk"/>
    <tag k="name" v="Leichhardt Hwy"/>
    <tag k="surface" v="paved"/>
  </node>
  <node id="133090853" version="1" timestamp="2007-11-25T21:18:43Z" uid="4467" user="Rosscoe" changeset="621649" lat="-27.477392" lon="150.219925">
    <tag k="created_by" v="JOSM"/>
    <tag k="highway" v="trunk"/>
    <tag k="name" v="Leichhardt Hwy"/>
    <tag k="surface" v="paved"/>
  </node>
  <node id="133090877" version="1" timestamp="2007-11-25T21:18:44Z" uid="4467" user="Rosscoe" changeset="621649" lat="-27.477665" lon="150.21999">
    <tag k="created_by" v="JOSM"/>
    <tag k="highway" v="trunk"/>
    <tag k="name" v="Leichhardt Hwy"/>
    <tag k="surface" v="paved"/>
  </node>
  <node id="133090895" version="1" timestamp="2007-11-25T21:18:45Z" uid="4467" user="Rosscoe" changeset="621649" lat="-27.477938" lon="150.220058">
    <tag k="created_by" v="JOSM"/>
    <tag k="highway" v="trunk"/>
    <tag k="name" v="Leichhardt Hwy"/>
    <tag k="surface" v="paved"/>
  </node>
  <node id="133090920" version="1" timestamp="2007-11-25T21:18:45Z" uid="4467" user="Rosscoe" changeset="621649" lat="-27.478212" lon="150.220127">
    <tag k="created_by" v="JOSM"/>
    <tag k="highway" v="trunk"/>
    <tag k="name" v="Leichhardt Hwy"/>
    <tag k="surface" v="paved"/>
  </node>
  <node id="133090947" version="1" timestamp="2007-11-25T21:18:46Z" uid="4467" user="Rosscoe" changeset="621649" lat="-27.476292" lon="150.219657">
    <tag k="created_by" v="JOSM"/>
    <tag k="highway" v="trunk"/>
    <tag k="name" v="Leichhardt Hwy"/>
    <tag k="surface" v="paved"/>
  </node>
  <node id="133090966" version="1" timestamp="2007-11-25T21:18:47Z" uid="4467" user="Rosscoe" changeset="621649" lat="-27.476567" lon="150.219722">
    <tag k="created_by" v="JOSM"/>
    <tag k="highway" v="trunk"/>
    <tag k="name" v="Leichhardt Hwy"/>
    <tag k="surface" v="paved"/>
  </node>
  <node id="133090992" version="1" timestamp="2007-11-25T21:18:48Z" uid="4467" user="Rosscoe" changeset="621649" lat="-27.476837" lon="150.219787">
    <tag k="created_by" v="JOSM"/>
    <tag k="highway" v="trunk"/>
    <tag k="name" v="Leichhardt Hwy"/>
    <tag k="surface" v="paved"/>
  </node>
  <node id="133091013" version="1" timestamp="2007-11-25T21:18:49Z" uid="4467" user="Rosscoe" changeset="621649" lat="-27.477113" lon="150.219857">
    <tag k="created_by" v="JOSM"/>
    <tag k="highway" v="trunk"/>
    <tag k="name" v="Leichhardt Hwy"/>
    <tag k="surface" v="paved"/>
  </node>
  <node id="133091039" version="1" timestamp="2007-11-25T21:18:49Z" uid="4467" user="Rosscoe" changeset="621649" lat="-27.483967" lon="150.22152">
    <tag k="created_by" v="JOSM"/>
    <tag k="highway" v="trunk"/>
    <tag k="name" v="Leichhardt Hwy"/>
    <tag k="surface" v="paved"/>
  </node>
  <node id="133091064" version="1" timestamp="2007-11-25T21:18:50Z" uid="4467" user="Rosscoe" changeset="621649" lat="-27.484237" lon="150.221587">
    <tag k="created_by" v="JOSM"/>
    <tag k="highway" v="trunk"/>
    <tag k="name" v="Leichhardt Hwy"/>
    <tag k="surface" v="paved"/>
  </node>
  <node id="133091093" version="1" timestamp="2007-11-25T21:18:51Z" uid="4467" user="Rosscoe" changeset="621649" lat="-27.484512" lon="150.221653">
    <tag k="created_by" v="JOSM"/>
    <tag k="highway" v="trunk"/>
    <tag k="name" v="Leichhardt Hwy"/>
    <tag k="surface" v="paved"/>
  </node>
  <node id="133091115" version="1" timestamp="2007-11-25T21:18:52Z" uid="4467" user="Rosscoe" changeset="621649" lat="-27.484785" lon="150.22172">
    <tag k="created_by" v="JOSM"/>
    <tag k="highway" v="trunk"/>
    <tag k="name" v="Leichhardt Hwy"/>
    <tag k="surface" v="paved"/>
  </node>
  <node id="133091150" version="1" timestamp="2007-11-25T21:18:52Z" uid="4467" user="Rosscoe" changeset="621649" lat="-27.48287" lon="150.221257">
    <tag k="created_by" v="JOSM"/>
    <tag k="highway" v="trunk"/>
    <tag k="name" v="Leichhardt Hwy"/>
    <tag k="surface" v="paved"/>
  </node>
  <node id="133091181" version="1" timestamp="2007-11-25T21:18:53Z" uid="4467" user="Rosscoe" changeset="621649" lat="-27.483145" lon="150.221323">
    <tag k="created_by" v="JOSM"/>
    <tag k="highway" v="trunk"/>
    <tag k="name" v="Leichhardt Hwy"/>
    <tag k="surface" v="paved"/>
  </node>
  <node id="133091209" version="1" timestamp="2007-11-25T21:18:54Z" uid="4467" user="Rosscoe" changeset="621649" lat="-27.483417" lon="150.221388">
    <tag k="created_by" v="JOSM"/>
    <tag k="highway" v="trunk"/>
    <tag k="name" v="Leichhardt Hwy"/>
    <tag k="surface" v="paved"/>
  </node>
  <node id="133091231" version="1" timestamp="2007-11-25T21:18:55Z" uid="4467" user="Rosscoe" changeset="621649" lat="-27.483693" lon="150.221457">
    <tag k="created_by" v="JOSM"/>
    <tag k="highway" v="trunk"/>
    <tag k="name" v="Leichhardt Hwy"/>
    <tag k="surface" v="paved"/>
  </node>
  <node id="133091259" version="1" timestamp="2007-11-25T21:18:56Z" uid="4467" user="Rosscoe" changeset="621649" lat="-27.481773" lon="150.220982">
    <tag k="created_by" v="JOSM"/>
    <tag k="highway" v="trunk"/>
    <tag k="name" v="Leichhardt Hwy"/>
    <tag k="surface" v="paved"/>
  </node>
  <node id="133091289" version="1" timestamp="2007-11-25T21:18:57Z" uid="4467" user="Rosscoe" changeset="621649" lat="-27.48205" lon="150.221052">
    <tag k="created_by" v="JOSM"/>
    <tag k="highway" v="trunk"/>
    <tag k="name" v="Leichhardt Hwy"/>
    <tag k="surface" v="paved"/>
  </node>
  <node id="133091313" version="1" timestamp="2007-11-25T21:18:57Z" uid="4467" user="Rosscoe" changeset="621649" lat="-27.482328" lon="150.221122">
    <tag k="created_by" v="JOSM"/>
    <tag k="highway" v="trunk"/>
    <tag k="name" v="Leichhardt Hwy"/>
    <tag k="surface" v="paved"/>
  </node>
  <node id="133091336" version="1" timestamp="2007-11-25T21:18:58Z" uid="4467" user="Rosscoe" changeset="621649" lat="-27.482597" lon="150.221188">
    <tag k="created_by" v="JOSM"/>
    <tag k="highway" v="trunk"/>
    <tag k="name" v="Leichhardt Hwy"/>
    <tag k="surface" v="paved"/>
  </node>
  <node id="133091361" version="1" timestamp="2007-11-25T21:18:59Z" uid="4467" user="Rosscoe" changeset="621649" lat="-27.48068" lon="150.220718">
    <tag k="created_by" v="JOSM"/>
    <tag k="highway" v="trunk"/>
    <tag k="name" v="Leichhardt Hwy"/>
    <tag k="surface" v="paved"/>
  </node>
  <node id="133091382" version="1" timestamp="2007-11-25T21:19:00Z" uid="4467" user="Rosscoe" changeset="621649" lat="-27.480953" lon="150.220785">
    <tag k="created_by" v="JOSM"/>
    <tag k="highway" v="trunk"/>
    <tag k="name" v="Leichhardt Hwy"/>
    <tag k="surface" v="paved"/>
  </node>
  <node id="133091410" version="1" timestamp="2007-11-25T21:19:01Z" uid="4467" user="Rosscoe" changeset="621649" lat="-27.481227" lon="150.220852">
    <tag k="created_by" v="JOSM"/>
    <tag k="highway" v="trunk"/>
    <tag k="name" v="Leichhardt Hwy"/>
    <tag k="surface" v="paved"/>
  </node>
  <node id="133091433" version="1" timestamp="2007-11-25T21:19:01Z" uid="4467" user="Rosscoe" changeset="621649" lat="-27.481502" lon="150.220915">
    <tag k="created_by" v="JOSM"/>
    <tag k="highway" v="trunk"/>
    <tag k="name" v="Leichhardt Hwy"/>
    <tag k="surface" v="paved"/>
  </node>
  <node id="133091433" version="7" timestamp="2009-10-11T06:14:55Z" uid="74617" user="JohnSmith" changeset="2810296" lat="-27.481502" lon="150.220915"/>
  <node id="133091466" version="1" timestamp="2007-11-25T21:19:02Z" uid="4467" user="Rosscoe" changeset="621649" lat="-27.488352" lon="150.22259">
    <tag k="created_by" v="JOSM"/>
    <tag k="highway" v="trunk"/>
    <tag k="name" v="Leichhardt Hwy"/>
    <tag k="surface" v="paved"/>
  </node>
  <node id="133091494" version="1" timestamp="2007-11-25T21:19:03Z" uid="4467" user="Rosscoe" changeset="621649" lat="-27.48863" lon="150.222657">
    <tag k="created_by" v="JOSM"/>
    <tag k="highway" v="trunk"/>
    <tag k="name" v="Leichhardt Hwy"/>
    <tag k="surface" v="paved"/>
  </node>
  <node id="133091519" version="1" timestamp="2007-11-25T21:19:04Z" uid="4467" user="Rosscoe" changeset="621649" lat="-27.488905" lon="150.222723">
    <tag k="created_by" v="JOSM"/>
    <tag k="highway" v="trunk"/>
    <tag k="name" v="Leichhardt Hwy"/>
    <tag k="surface" v="paved"/>
  </node>
  <node id="133091555" version="1" timestamp="2007-11-25T21:19:05Z" uid="4467" user="Rosscoe" changeset="621649" lat="-27.489182" lon="150.22279">
    <tag k="created_by" v="JOSM"/>
    <tag k="highway" v="trunk"/>
    <tag k="name" v="Leichhardt Hwy"/>
    <tag k="surface" v="paved"/>
  </node>
  <node id="133091589" version="1" timestamp="2007-11-25T21:19:05Z" uid="4467" user="Rosscoe" changeset="621649" lat="-27.487258" lon="150.222323">
    <tag k="created_by" v="JOSM"/>
    <tag k="highway" v="trunk"/>
    <tag k="name" v="Leichhardt Hwy"/>
    <tag k="surface" v="paved"/>
  </node>
  <node id="133091609" version="1" timestamp="2007-11-25T21:19:06Z" uid="4467" user="Rosscoe" changeset="621649" lat="-27.487533" lon="150.22239">
    <tag k="created_by" v="JOSM"/>
    <tag k="highway" v="trunk"/>
    <tag k="name" v="Leichhardt Hwy"/>
    <tag k="surface" v="paved"/>
  </node>
  <node id="133091625" version="1" timestamp="2007-11-25T21:19:07Z" uid="4467" user="Rosscoe" changeset="621649" lat="-27.487807" lon="150.222457">
    <tag k="created_by" v="JOSM"/>
    <tag k="highway" v="trunk"/>
    <tag k="name" v="Leichhardt Hwy"/>
    <tag k="surface" v="paved"/>
  </node>
  <node id="133091654" version="1" timestamp="2007-11-25T21:19:08Z" uid="4467" user="Rosscoe" changeset="621649" lat="-27.48808" lon="150.222523">
    <tag k="created_by" v="JOSM"/>
    <tag k="highway" v="trunk"/>
    <tag k="name" v="Leichhardt Hwy"/>
    <tag k="surface" v="paved"/>
  </node>
  <node id="133091680" version="1" timestamp="2007-11-25T21:19:09Z" uid="4467" user="Rosscoe" changeset="621649" lat="-27.48616" lon="150.222055">
    <tag k="created_by" v="JOSM"/>
    <tag k="highway" v="trunk"/>
    <tag k="name" v="Leichhardt Hwy"/>
    <tag k="surface" v="paved"/>
  </node>
  <node id="133091714" version="1" timestamp="2007-11-25T21:19:10Z" uid="4467" user="Rosscoe" changeset="621649" lat="-27.486435" lon="150.222123">
    <tag k="created_by" v="JOSM"/>
    <tag k="highway" v="trunk"/>
    <tag k="name" v="Leichhardt Hwy"/>
    <tag k="surface" v="paved"/>
  </node>
  <node id="133091745" version="1" timestamp="2007-11-25T21:19:10Z" uid="4467" user="Rosscoe" changeset="621649" lat="-27.486705" lon="150.222188">
    <tag k="created_by" v="JOSM"/>
    <tag k="highway" v="trunk"/>
    <tag k="name" v="Leichhardt Hwy"/>
    <tag k="surface" v="paved"/>
  </node>
  <node id="133091772" version="1" timestamp="2007-11-25T21:19:11Z" uid="4467" user="Rosscoe" changeset="621649" lat="-27.486983" lon="150.222257">
    <tag k="created_by" v="JOSM"/>
    <tag k="highway" v="trunk"/>
    <tag k="name" v="Leichhardt Hwy"/>
    <tag k="surface" v="paved"/>
  </node>
  <node id="133091795" version="1" timestamp="2007-11-25T21:19:12Z" uid="4467" user="Rosscoe" changeset="621649" lat="-27.485057" lon="150.221787">
    <tag k="created_by" v="JOSM"/>
    <tag k="highway" v="trunk"/>
    <tag k="name" v="Leichhardt Hwy"/>
    <tag k="surface" v="paved"/>
  </node>
  <node id="133091814" version="1" timestamp="2007-11-25T21:19:13Z" uid="4467" user="Rosscoe" changeset="621649" lat="-27.485335" lon="150.221853">
    <tag k="created_by" v="JOSM"/>
    <tag k="highway" v="trunk"/>
    <tag k="name" v="Leichhardt Hwy"/>
    <tag k="surface" v="paved"/>
  </node>
  <node id="133091840" version="1" timestamp="2007-11-25T21:19:14Z" uid="4467" user="Rosscoe" changeset="621649" lat="-27.485612" lon="150.22192">
    <tag k="created_by" v="JOSM"/>
    <tag k="highway" v="trunk"/>
    <tag k="name" v="Leichhardt Hwy"/>
    <tag k="surface" v="paved"/>
  </node>
  <node id="133091859" version="1" timestamp="2007-11-25T21:19:14Z" uid="4467" user="Rosscoe" changeset="621649" lat="-27.485885" lon="150.221987">
    <tag k="created_by" v="JOSM"/>
    <tag k="highway" v="trunk"/>
    <tag k="name" v="Leichhardt Hwy"/>
    <tag k="surface" v="paved"/>
  </node>
  <node id="133091911" version="1" timestamp="2007-11-25T21:19:15Z" uid="4467" user="Rosscoe" changeset="621649" lat="-27.492765" lon="150.223652">
    <tag k="created_by" v="JOSM"/>
    <tag k="highway" v="trunk"/>
    <tag k="name" v="Leichhardt Hwy"/>
    <tag k="surface" v="paved"/>
  </node>
  <node id="133091969" version="1" timestamp="2007-11-25T21:19:16Z" uid="4467" user="Rosscoe" changeset="621649" lat="-27.493037" lon="150.223718">
    <tag k="created_by" v="JOSM"/>
    <tag k="highway" v="trunk"/>
    <tag k="name" v="Leichhardt Hwy"/>
    <tag k="surface" v="paved"/>
  </node>
  <node id="133092000" version="1" timestamp="2007-11-25T21:19:17Z" uid="4467" user="Rosscoe" changeset="621649" lat="-27.493308" lon="150.223783">
    <tag k="created_by" v="JOSM"/>
    <tag k="highway" v="trunk"/>
    <tag k="name" v="Leichhardt Hwy"/>
    <tag k="surface" v="paved"/>
  </node>
  <node id="133092026" version="1" timestamp="2007-11-25T21:19:18Z" uid="4467" user="Rosscoe" changeset="621649" lat="-27.493585" lon="150.223852">
    <tag k="created_by" v="JOSM"/>
    <tag k="highway" v="trunk"/>
    <tag k="name" v="Leichhardt Hwy"/>
    <tag k="surface" v="paved"/>
  </node>
  <node id="133092049" version="1" timestamp="2007-11-25T21:19:18Z" uid="4467" user="Rosscoe" changeset="621649" lat="-27.491657" lon="150.223382">
    <tag k="created_by" v="JOSM"/>
    <tag k="highway" v="trunk"/>
    <tag k="name" v="Leichhardt Hwy"/>
    <tag k="surface" v="paved"/>
  </node>
  <node id="133092074" version="1" timestamp="2007-11-25T21:19:19Z" uid="4467" user="Rosscoe" changeset="621649" lat="-27.491935" lon="150.223448">
    <tag k="created_by" v="JOSM"/>
    <tag k="highway" v="trunk"/>
    <tag k="name" v="Leichhardt Hwy"/>
    <tag k="surface" v="paved"/>
  </node>
  <node id="133092095" version="1" timestamp="2007-11-25T21:19:20Z" uid="4467" user="Rosscoe" changeset="621649" lat="-27.492212" lon="150.223517">
    <tag k="created_by" v="JOSM"/>
    <tag k="highway" v="trunk"/>
    <tag k="name" v="Leichhardt Hwy"/>
    <tag k="surface" v="paved"/>
  </node>
  <node id="133092117" version="1" timestamp="2007-11-25T21:19:21Z" uid="4467" user="Rosscoe" changeset="621649" lat="-27.492487" lon="150.223583">
    <tag k="created_by" v="JOSM"/>
    <tag k="highway" v="trunk"/>
    <tag k="name" v="Leichhardt Hwy"/>
    <tag k="surface" v="paved"/>
  </node>
  <node id="133092142" version="1" timestamp="2007-11-25T21:19:22Z" uid="4467" user="Rosscoe" changeset="621649" lat="-27.490565" lon="150.22312">
    <tag k="created_by" v="JOSM"/>
    <tag k="highway" v="trunk"/>
    <tag k="name" v="Leichhardt Hwy"/>
    <tag k="surface" v="paved"/>
  </node>
  <node id="133092169" version="1" timestamp="2007-11-25T21:19:22Z" uid="4467" user="Rosscoe" changeset="621649" lat="-27.490837" lon="150.223185">
    <tag k="created_by" v="JOSM"/>
    <tag k="highway" v="trunk"/>
    <tag k="name" v="Leichhardt Hwy"/>
    <tag k="surface" v="paved"/>
  </node>
  <node id="133092192" version="1" timestamp="2007-11-25T21:19:23Z" uid="4467" user="Rosscoe" changeset="621649" lat="-27.491112" lon="150.22325">
    <tag k="created_by" v="JOSM"/>
    <tag k="highway" v="trunk"/>
    <tag k="name" v="Leichhardt Hwy"/>
    <tag k="surface" v="paved"/>
  </node>
  <node id="133092213" version="1" timestamp="2007-11-25T21:19:24Z" uid="4467" user="Rosscoe" changeset="621649" lat="-27.491387" lon="150.223317">
    <tag k="created_by" v="JOSM"/>
    <tag k="highway" v="trunk"/>
    <tag k="name" v="Leichhardt Hwy"/>
    <tag k="surface" v="paved"/>
  </node>
  <node id="133092243" version="1" timestamp="2007-11-25T21:19:25Z" uid="4467" user="Rosscoe" changeset="621649" lat="-27.489457" lon="150.222857">
    <tag k="created_by" v="JOSM"/>
    <tag k="highway" v="trunk"/>
    <tag k="name" v="Leichhardt Hwy"/>
    <tag k="surface" v="paved"/>
  </node>
  <node id="133092275" version="1" timestamp="2007-11-25T21:19:26Z" uid="4467" user="Rosscoe" changeset="621649" lat="-27.489733" lon="150.222923">
    <tag k="created_by" v="JOSM"/>
    <tag k="highway" v="trunk"/>
    <tag k="name" v="Leichhardt Hwy"/>
    <tag k="surface" v="paved"/>
  </node>
  <node id="133092318" version="1" timestamp="2007-11-25T21:19:26Z" uid="4467" user="Rosscoe" changeset="621649" lat="-27.490007" lon="150.222988">
    <tag k="created_by" v="JOSM"/>
    <tag k="highway" v="trunk"/>
    <tag k="name" v="Leichhardt Hwy"/>
    <tag k="surface" v="paved"/>
  </node>
  <node id="133092347" version="1" timestamp="2007-11-25T21:19:27Z" uid="4467" user="Rosscoe" changeset="621649" lat="-27.490287" lon="150.223053">
    <tag k="created_by" v="JOSM"/>
    <tag k="highway" v="trunk"/>
    <tag k="name" v="Leichhardt Hwy"/>
    <tag k="surface" v="paved"/>
  </node>
  <node id="133092375" version="1" timestamp="2007-11-25T21:19:28Z" uid="4467" user="Rosscoe" changeset="621649" lat="-27.497153" lon="150.22472">
    <tag k="created_by" v="JOSM"/>
    <tag k="highway" v="trunk"/>
    <tag k="name" v="Leichhardt Hwy"/>
    <tag k="surface" v="paved"/>
  </node>
  <node id="133092406" version="1" timestamp="2007-11-25T21:19:29Z" uid="4467" user="Rosscoe" changeset="621649" lat="-27.497427" lon="150.224785">
    <tag k="created_by" v="JOSM"/>
    <tag k="highway" v="trunk"/>
    <tag k="name" v="Leichhardt Hwy"/>
    <tag k="surface" v="paved"/>
  </node>
  <node id="133092438" version="1" timestamp="2007-11-25T21:19:29Z" uid="4467" user="Rosscoe" changeset="621649" lat="-27.497702" lon="150.224852">
    <tag k="created_by" v="JOSM"/>
    <tag k="highway" v="trunk"/>
    <tag k="name" v="Leichhardt Hwy"/>
    <tag k="surface" v="paved"/>
  </node>
  <node id="133092465" version="1" timestamp="2007-11-25T21:19:30Z" uid="4467" user="Rosscoe" changeset="621649" lat="-27.497975" lon="150.224918">
    <tag k="created_by" v="JOSM"/>
    <tag k="highway" v="trunk"/>
    <tag k="name" v="Leichhardt Hwy"/>
    <tag k="surface" v="paved"/>
  </node>
  <node id="133092484" version="1" timestamp="2007-11-25T21:19:31Z" uid="4467" user="Rosscoe" changeset="621649" lat="-27.496055" lon="150.22445">
    <tag k="created_by" v="JOSM"/>
    <tag k="highway" v="trunk"/>
    <tag k="name" v="Leichhardt Hwy"/>
    <tag k="surface" v="paved"/>
  </node>
  <node id="133092508" version="1" timestamp="2007-11-25T21:19:32Z" uid="4467" user="Rosscoe" changeset="621649" lat="-27.49633" lon="150.224517">
    <tag k="created_by" v="JOSM"/>
    <tag k="highway" v="trunk"/>
    <tag k="name" v="Leichhardt Hwy"/>
    <tag k="surface" v="paved"/>
  </node>
  <node id="133092531" version="1" timestamp="2007-11-25T21:19:33Z" uid="4467" user="Rosscoe" changeset="621649" lat="-27.496602" lon="150.224583">
    <tag k="created_by" v="JOSM"/>
    <tag k="highway" v="trunk"/>
    <tag k="name" v="Leichhardt Hwy"/>
    <tag k="surface" v="paved"/>
  </node>
  <node id="133092556" version="1" timestamp="2007-11-25T21:19:34Z" uid="4467" user="Rosscoe" changeset="621649" lat="-27.496878" lon="150.224652">
    <tag k="created_by" v="JOSM"/>
    <tag k="highway" v="trunk"/>
    <tag k="name" v="Leichhardt Hwy"/>
    <tag k="surface" v="paved"/>
  </node>
  <node id="133092576" version="1" timestamp="2007-11-25T21:19:34Z" uid="4467" user="Rosscoe" changeset="621649" lat="-27.494955" lon="150.224185">
    <tag k="created_by" v="JOSM"/>
    <tag k="highway" v="trunk"/>
    <tag k="name" v="Leichhardt Hwy"/>
    <tag k="surface" v="paved"/>
  </node>
  <node id="133092597" version="1" timestamp="2007-11-25T21:19:35Z" uid="4467" user="Rosscoe" changeset="621649" lat="-27.495232" lon="150.224252">
    <tag k="created_by" v="JOSM"/>
    <tag k="highway" v="trunk"/>
    <tag k="name" v="Leichhardt Hwy"/>
    <tag k="surface" v="paved"/>
  </node>
  <node id="133092624" version="1" timestamp="2007-11-25T21:19:36Z" uid="4467" user="Rosscoe" changeset="621649" lat="-27.495507" lon="150.224317">
    <tag k="created_by" v="JOSM"/>
    <tag k="highway" v="trunk"/>
    <tag k="name" v="Leichhardt Hwy"/>
    <tag k="surface" v="paved"/>
  </node>
  <node id="133092624" version="7" timestamp="2009-10-11T06:14:55Z" uid="74617" user="JohnSmith" changeset="2810296" lat="-27.495507" lon="150.224317"/>
  <node id="133092641" version="1" timestamp="2007-11-25T21:19:37Z" uid="4467" user="Rosscoe" changeset="621649" lat="-27.495783" lon="150.224385">
    <tag k="created_by" v="JOSM"/>
    <tag k="highway" v="trunk"/>
    <tag k="name" v="Leichhardt Hwy"/>
    <tag k="surface" v="paved"/>
  </node>
  <node id="133092677" version="1" timestamp="2007-11-25T21:19:38Z" uid="4467" user="Rosscoe" changeset="621649" lat="-27.49386" lon="150.223918">
    <tag k="created_by" v="JOSM"/>
    <tag k="highway" v="trunk"/>
    <tag k="name" v="Leichhardt Hwy"/>
    <tag k="surface" v="paved"/>
  </node>
  <node id="133092704" version="1" timestamp="2007-11-25T21:19:38Z" uid="4467" user="Rosscoe" changeset="621649" lat="-27.494135" lon="150.223985">
    <tag k="created_by" v="JOSM"/>
    <tag k="highway" v="trunk"/>
    <tag k="name" v="Leichhardt Hwy"/>
    <tag k="surface" v="paved"/>
  </node>
  <node id="133092731" version="1" timestamp="2007-11-25T21:19:39Z" uid="4467" user="Rosscoe" changeset="621649" lat="-27.494408" lon="150.22405">
    <tag k="created_by" v="JOSM"/>
    <tag k="highway" v="trunk"/>
    <tag k="name" v="Leichhardt Hwy"/>
    <tag k="surface" v="paved"/>
  </node>
  <node id="133092761" version="1" timestamp="2007-11-25T21:19:40Z" uid="4467" user="Rosscoe" changeset="621649" lat="-27.494683" lon="150.224118">
    <tag k="created_by" v="JOSM"/>
    <tag k="highway" v="trunk"/>
    <tag k="name" v="Leichhardt Hwy"/>
    <tag k="surface" v="paved"/>
  </node>
  <node id="133092789" version="1" timestamp="2007-11-25T21:19:41Z" uid="4467" user="Rosscoe" changeset="621649" lat="-27.501537" lon="150.225785">
    <tag k="created_by" v="JOSM"/>
    <tag k="highway" v="trunk"/>
    <tag k="name" v="Leichhardt Hwy"/>
    <tag k="surface" v="paved"/>
  </node>
  <node id="133092824" version="1" timestamp="2007-11-25T21:19:42Z" uid="4467" user="Rosscoe" changeset="621649" lat="-27.501817" lon="150.225853">
    <tag k="created_by" v="JOSM"/>
    <tag k="highway" v="trunk"/>
    <tag k="name" v="Leichhardt Hwy"/>
    <tag k="surface" v="paved"/>
  </node>
  <node id="133092848" version="1" timestamp="2007-11-25T21:19:42Z" uid="4467" user="Rosscoe" changeset="621649" lat="-27.502092" lon="150.22592">
    <tag k="created_by" v="JOSM"/>
    <tag k="highway" v="trunk"/>
    <tag k="name" v="Leichhardt Hwy"/>
    <tag k="surface" v="paved"/>
  </node>
  <node id="133092876" version="1" timestamp="2007-11-25T21:19:43Z" uid="4467" user="Rosscoe" changeset="621649" lat="-27.502092" lon="150.22592">
    <tag k="created_by" v="JOSM"/>
    <tag k="highway" v="trunk"/>
    <tag k="name" v="Leichhardt Hwy"/>
    <tag k="surface" v="paved"/>
  </node>
  <node id="133092906" version="1" timestamp="2007-11-25T21:19:44Z" uid="4467" user="Rosscoe" changeset="621649" lat="-27.500443" lon="150.225523">
    <tag k="created_by" v="JOSM"/>
    <tag k="highway" v="trunk"/>
    <tag k="name" v="Leichhardt Hwy"/>
    <tag k="surface" v="paved"/>
  </node>
  <node id="133092940" version="1" timestamp="2007-11-25T21:19:45Z" uid="4467" user="Rosscoe" changeset="621649" lat="-27.500715" lon="150.22559">
    <tag k="created_by" v="JOSM"/>
    <tag k="highway" v="trunk"/>
    <tag k="name" v="Leichhardt Hwy"/>
    <tag k="surface" v="paved"/>
  </node>
  <node id="133092965" version="1" timestamp="2007-11-25T21:19:46Z" uid="4467" user="Rosscoe" changeset="621649" lat="-27.500993" lon="150.225655">
    <tag k="created_by" v="JOSM"/>
    <tag k="highway" v="trunk"/>
    <tag k="name" v="Leichhardt Hwy"/>
    <tag k="surface" v="paved"/>
  </node>
  <node id="133092987" version="1" timestamp="2007-11-25T21:19:46Z" uid="4467" user="Rosscoe" changeset="621649" lat="-27.501267" lon="150.22572">
    <tag k="created_by" v="JOSM"/>
    <tag k="highway" v="trunk"/>
    <tag k="name" v="Leichhardt Hwy"/>
    <tag k="surface" v="paved"/>
  </node>
  <node id="133093016" version="1" timestamp="2007-11-25T21:19:47Z" uid="4467" user="Rosscoe" changeset="621649" lat="-27.499345" lon="150.225253">
    <tag k="created_by" v="JOSM"/>
    <tag k="highway" v="trunk"/>
    <tag k="name" v="Leichhardt Hwy"/>
    <tag k="surface" v="paved"/>
  </node>
  <node id="133093052" version="1" timestamp="2007-11-25T21:19:48Z" uid="4467" user="Rosscoe" changeset="621649" lat="-27.49962" lon="150.22532">
    <tag k="created_by" v="JOSM"/>
    <tag k="highway" v="trunk"/>
    <tag k="name" v="Leichhardt Hwy"/>
    <tag k="surface" v="paved"/>
  </node>
  <node id="133093083" version="1" timestamp="2007-11-25T21:19:49Z" uid="4467" user="Rosscoe" changeset="621649" lat="-27.49989" lon="150.225387">
    <tag k="created_by" v="JOSM"/>
    <tag k="highway" v="trunk"/>
    <tag k="name" v="Leichhardt Hwy"/>
    <tag k="surface" v="paved"/>
  </node>
  <node id="133093104" version="1" timestamp="2007-11-25T21:19:50Z" uid="4467" user="Rosscoe" changeset="621649" lat="-27.500167" lon="150.225455">
    <tag k="created_by" v="JOSM"/>
    <tag k="highway" v="trunk"/>
    <tag k="name" v="Leichhardt Hwy"/>
    <tag k="surface" v="paved"/>
  </node>
  <node id="133093130" version="1" timestamp="2007-11-25T21:19:51Z" uid="4467" user="Rosscoe" changeset="621649" lat="-27.498247" lon="150.224985">
    <tag k="created_by" v="JOSM"/>
    <tag k="highway" v="trunk"/>
    <tag k="name" v="Leichhardt Hwy"/>
    <tag k="surface" v="paved"/>
  </node>
  <node id="133093152" version="1" timestamp="2007-11-25T21:19:52Z" uid="4467" user="Rosscoe" changeset="621649" lat="-27.498523" lon="150.225053">
    <tag k="created_by" v="JOSM"/>
    <tag k="highway" v="trunk"/>
    <tag k="name" v="Leichhardt Hwy"/>
    <tag k="surface" v="paved"/>
  </node>
  <node id="133093178" version="1" timestamp="2007-11-25T21:19:52Z" uid="4467" user="Rosscoe" changeset="621649" lat="-27.498798" lon="150.22512">
    <tag k="created_by" v="JOSM"/>
    <tag k="highway" v="trunk"/>
    <tag k="name" v="Leichhardt Hwy"/>
    <tag k="surface" v="paved"/>
  </node>
  <node id="133093212" version="1" timestamp="2007-11-25T21:19:53Z" uid="4467" user="Rosscoe" changeset="621649" lat="-27.499072" lon="150.225187">
    <tag k="created_by" v="JOSM"/>
    <tag k="highway" v="trunk"/>
    <tag k="name" v="Leichhardt Hwy"/>
    <tag k="surface" v="paved"/>
  </node>
  <node id="133093233" version="1" timestamp="2007-11-25T21:19:54Z" uid="4467" user="Rosscoe" changeset="621649" lat="-27.506202" lon="150.22692">
    <tag k="created_by" v="JOSM"/>
    <tag k="highway" v="trunk"/>
    <tag k="name" v="Leichhardt Hwy"/>
    <tag k="surface" v="paved"/>
  </node>
  <node id="133093260" version="1" timestamp="2007-11-25T21:19:55Z" uid="4467" user="Rosscoe" changeset="621649" lat="-27.505928" lon="150.226853">
    <tag k="created_by" v="JOSM"/>
    <tag k="highway" v="trunk"/>
    <tag k="name" v="Leichhardt Hwy"/>
    <tag k="surface" v="paved"/>
  </node>
  <node id="133093300" version="1" timestamp="2007-11-25T21:19:55Z" uid="4467" user="Rosscoe" changeset="621649" lat="-27.506752" lon="150.227055">
    <tag k="created_by" v="JOSM"/>
    <tag k="highway" v="trunk"/>
    <tag k="name" v="Leichhardt Hwy"/>
    <tag k="surface" v="paved"/>
  </node>
  <node id="133093337" version="1" timestamp="2007-11-25T21:19:56Z" uid="4467" user="Rosscoe" changeset="621649" lat="-27.506472" lon="150.226987">
    <tag k="created_by" v="JOSM"/>
    <tag k="highway" v="trunk"/>
    <tag k="name" v="Leichhardt Hwy"/>
    <tag k="surface" v="paved"/>
  </node>
  <node id="133093369" version="1" timestamp="2007-11-25T21:19:57Z" uid="4467" user="Rosscoe" changeset="621649" lat="-27.505103" lon="150.226653">
    <tag k="created_by" v="JOSM"/>
    <tag k="highway" v="trunk"/>
    <tag k="name" v="Leichhardt Hwy"/>
    <tag k="surface" v="paved"/>
  </node>
  <node id="133093401" version="1" timestamp="2007-11-25T21:19:58Z" uid="4467" user="Rosscoe" changeset="621649" lat="-27.504825" lon="150.226587">
    <tag k="created_by" v="JOSM"/>
    <tag k="highway" v="trunk"/>
    <tag k="name" v="Leichhardt Hwy"/>
    <tag k="surface" v="paved"/>
  </node>
  <node id="133093427" version="1" timestamp="2007-11-25T21:19:59Z" uid="4467" user="Rosscoe" changeset="621649" lat="-27.505652" lon="150.226785">
    <tag k="created_by" v="JOSM"/>
    <tag k="highway" v="trunk"/>
    <tag k="name" v="Leichhardt Hwy"/>
    <tag k="surface" v="paved"/>
  </node>
  <node id="133093451" version="1" timestamp="2007-11-25T21:20:00Z" uid="4467" user="Rosscoe" changeset="621649" lat="-27.505378" lon="150.226718">
    <tag k="created_by" v="JOSM"/>
    <tag k="highway" v="trunk"/>
    <tag k="name" v="Leichhardt Hwy"/>
    <tag k="surface" v="paved"/>
  </node>
  <node id="133093483" version="1" timestamp="2007-11-25T21:20:00Z" uid="4467" user="Rosscoe" changeset="621649" lat="-27.504015" lon="150.226388">
    <tag k="created_by" v="JOSM"/>
    <tag k="highway" v="trunk"/>
    <tag k="name" v="Leichhardt Hwy"/>
    <tag k="surface" v="paved"/>
  </node>
  <node id="133093514" version="1" timestamp="2007-11-25T21:20:01Z" uid="4467" user="Rosscoe" changeset="621649" lat="-27.50374" lon="150.226322">
    <tag k="created_by" v="JOSM"/>
    <tag k="highway" v="trunk"/>
    <tag k="name" v="Leichhardt Hwy"/>
    <tag k="surface" v="paved"/>
  </node>
  <node id="133093533" version="1" timestamp="2007-11-25T21:20:02Z" uid="4467" user="Rosscoe" changeset="621649" lat="-27.504553" lon="150.226522">
    <tag k="created_by" v="JOSM"/>
    <tag k="highway" v="trunk"/>
    <tag k="name" v="Leichhardt Hwy"/>
    <tag k="surface" v="paved"/>
  </node>
  <node id="133093554" version="1" timestamp="2007-11-25T21:20:03Z" uid="4467" user="Rosscoe" changeset="621649" lat="-27.504282" lon="150.226453">
    <tag k="created_by" v="JOSM"/>
    <tag k="highway" v="trunk"/>
    <tag k="name" v="Leichhardt Hwy"/>
    <tag k="surface" v="paved"/>
  </node>
  <node id="133093582" version="1" timestamp="2007-11-25T21:20:04Z" uid="4467" user="Rosscoe" changeset="621649" lat="-27.502913" lon="150.22612">
    <tag k="created_by" v="JOSM"/>
    <tag k="highway" v="trunk"/>
    <tag k="name" v="Leichhardt Hwy"/>
    <tag k="surface" v="paved"/>
  </node>
  <node id="133093610" version="1" timestamp="2007-11-25T21:20:04Z" uid="4467" user="Rosscoe" changeset="621649" lat="-27.50264" lon="150.226055">
    <tag k="created_by" v="JOSM"/>
    <tag k="highway" v="trunk"/>
    <tag k="name" v="Leichhardt Hwy"/>
    <tag k="surface" v="paved"/>
  </node>
  <node id="133093636" version="1" timestamp="2007-11-25T21:20:05Z" uid="4467" user="Rosscoe" changeset="621649" lat="-27.503463" lon="150.226253">
    <tag k="created_by" v="JOSM"/>
    <tag k="highway" v="trunk"/>
    <tag k="name" v="Leichhardt Hwy"/>
    <tag k="surface" v="paved"/>
  </node>
  <node id="133093661" version="1" timestamp="2007-11-25T21:20:06Z" uid="4467" user="Rosscoe" changeset="621649" lat="-27.503185" lon="150.226187">
    <tag k="created_by" v="JOSM"/>
    <tag k="highway" v="trunk"/>
    <tag k="name" v="Leichhardt Hwy"/>
    <tag k="surface" v="paved"/>
  </node>
  <node id="133093683" version="1" timestamp="2007-11-25T21:20:07Z" uid="4467" user="Rosscoe" changeset="621649" lat="-27.510588" lon="150.227997">
    <tag k="created_by" v="JOSM"/>
    <tag k="highway" v="trunk"/>
    <tag k="name" v="Leichhardt Hwy"/>
    <tag k="surface" v="paved"/>
  </node>
  <node id="133093715" version="1" timestamp="2007-11-25T21:20:08Z" uid="4467" user="Rosscoe" changeset="621649" lat="-27.510313" lon="150.22793">
    <tag k="created_by" v="JOSM"/>
    <tag k="highway" v="trunk"/>
    <tag k="name" v="Leichhardt Hwy"/>
    <tag k="surface" v="paved"/>
  </node>
  <node id="133093740" version="1" timestamp="2007-11-25T21:20:08Z" uid="4467" user="Rosscoe" changeset="621649" lat="-27.51114" lon="150.22813">
    <tag k="created_by" v="JOSM"/>
    <tag k="highway" v="trunk"/>
    <tag k="name" v="Leichhardt Hwy"/>
    <tag k="surface" v="paved"/>
  </node>
  <node id="133093767" version="1" timestamp="2007-11-25T21:20:09Z" uid="4467" user="Rosscoe" changeset="621649" lat="-27.510865" lon="150.228063">
    <tag k="created_by" v="JOSM"/>
    <tag k="highway" v="trunk"/>
    <tag k="name" v="Leichhardt Hwy"/>
    <tag k="surface" v="paved"/>
  </node>
  <node id="133093816" version="1" timestamp="2007-11-25T21:20:10Z" uid="4467" user="Rosscoe" changeset="621649" lat="-27.50949" lon="150.227727">
    <tag k="created_by" v="JOSM"/>
    <tag k="highway" v="trunk"/>
    <tag k="name" v="Leichhardt Hwy"/>
    <tag k="surface" v="paved"/>
  </node>
  <node id="133093844" version="1" timestamp="2007-11-25T21:20:11Z" uid="4467" user="Rosscoe" changeset="621649" lat="-27.509215" lon="150.227658">
    <tag k="created_by" v="JOSM"/>
    <tag k="highway" v="trunk"/>
    <tag k="name" v="Leichhardt Hwy"/>
    <tag k="surface" v="paved"/>
  </node>
  <node id="133093866" version="1" timestamp="2007-11-25T21:20:12Z" uid="4467" user="Rosscoe" changeset="621649" lat="-27.51004" lon="150.227862">
    <tag k="created_by" v="JOSM"/>
    <tag k="highway" v="trunk"/>
    <tag k="name" v="Leichhardt Hwy"/>
    <tag k="surface" v="paved"/>
  </node>
  <node id="133093896" version="1" timestamp="2007-11-25T21:20:12Z" uid="4467" user="Rosscoe" changeset="621649" lat="-27.50976" lon="150.227793">
    <tag k="created_by" v="JOSM"/>
    <tag k="highway" v="trunk"/>
    <tag k="name" v="Leichhardt Hwy"/>
    <tag k="surface" v="paved"/>
  </node>
  <node id="133093916" version="1" timestamp="2007-11-25T21:20:13Z" uid="4467" user="Rosscoe" changeset="621649" lat="-27.508397" lon="150.227455">
    <tag k="created_by" v="JOSM"/>
    <tag k="highway" v="trunk"/>
    <tag k="name" v="Leichhardt Hwy"/>
    <tag k="surface" v="paved"/>
  </node>
  <node id="133093948" version="1" timestamp="2007-11-25T21:20:14Z" uid="4467" user="Rosscoe" changeset="621649" lat="-27.508122" lon="150.227387">
    <tag k="created_by" v="JOSM"/>
    <tag k="highway" v="trunk"/>
    <tag k="name" v="Leichhardt Hwy"/>
    <tag k="surface" v="paved"/>
  </node>
  <node id="133093948" version="7" timestamp="2009-10-11T06:14:55Z" uid="74617" user="JohnSmith" changeset="2810296" lat="-27.508122" lon="150.227387"/>
  <node id="133093972" version="1" timestamp="2007-11-25T21:20:15Z" uid="4467" user="Rosscoe" changeset="621649" lat="-27.50894" lon="150.227592">
    <tag k="created_by" v="JOSM"/>
    <tag k="highway" v="trunk"/>
    <tag k="name" v="Leichhardt Hwy"/>
    <tag k="surface" v="paved"/>
  </node>
  <node id="133094000" version="1" timestamp="2007-11-25T21:20:16Z" uid="4467" user="Rosscoe" changeset="621649" lat="-27.508672" lon="150.227525">
    <tag k="created_by" v="JOSM"/>
    <tag k="highway" v="trunk"/>
    <tag k="name" v="Leichhardt Hwy"/>
    <tag k="surface" v="paved"/>
  </node>
  <node id="133094015" version="1" timestamp="2007-11-25T21:20:17Z" uid="4467" user="Rosscoe" changeset="621649" lat="-27.507303" lon="150.227188">
    <tag k="created_by" v="JOSM"/>
    <tag k="highway" v="trunk"/>
    <tag k="name" v="Leichhardt Hwy"/>
    <tag k="surface" v="paved"/>
  </node>
  <node id="133094034" version="1" timestamp="2007-11-25T21:20:17Z" uid="4467" user="Rosscoe" changeset="621649" lat="-27.507028" lon="150.227122">
    <tag k="created_by" v="JOSM"/>
    <tag k="highway" v="trunk"/>
    <tag k="name" v="Leichhardt Hwy"/>
    <tag k="surface" v="paved"/>
  </node>
  <node id="133094062" version="1" timestamp="2007-11-25T21:20:18Z" uid="4467" user="Rosscoe" changeset="621649" lat="-27.50785" lon="150.227322">
    <tag k="created_by" v="JOSM"/>
    <tag k="highway" v="trunk"/>
    <tag k="name" v="Leichhardt Hwy"/>
    <tag k="surface" v="paved"/>
  </node>
  <node id="133094086" version="1" timestamp="2007-11-25T21:20:19Z" uid="4467" user="Rosscoe" changeset="621649" lat="-27.507575" lon="150.227255">
    <tag k="created_by" v="JOSM"/>
    <tag k="highway" v="trunk"/>
    <tag k="name" v="Leichhardt Hwy"/>
    <tag k="surface" v="paved"/>
  </node>
  <node id="133094112" version="1" timestamp="2007-11-25T21:20:20Z" uid="4467" user="Rosscoe" changeset="621649" lat="-27.514973" lon="150.229065">
    <tag k="created_by" v="JOSM"/>
    <tag k="highway" v="trunk"/>
    <tag k="name" v="Leichhardt Hwy"/>
    <tag k="surface" v="paved"/>
  </node>
  <node id="133094139" version="1" timestamp="2007-11-25T21:20:21Z" uid="4467" user="Rosscoe" changeset="621649" lat="-27.514695" lon="150.228995">
    <tag k="created_by" v="JOSM"/>
    <tag k="highway" v="trunk"/>
    <tag k="name" v="Leichhardt Hwy"/>
    <tag k="surface" v="paved"/>
  </node>
  <node id="133094163" version="1" timestamp="2007-11-25T21:20:22Z" uid="4467" user="Rosscoe" changeset="621649" lat="-27.515522" lon="150.2292">
    <tag k="created_by" v="JOSM"/>
    <tag k="highway" v="trunk"/>
    <tag k="name" v="Leichhardt Hwy"/>
    <tag k="surface" v="paved"/>
  </node>
  <node id="133094194" version="1" timestamp="2007-11-25T21:20:22Z" uid="4467" user="Rosscoe" changeset="621649" lat="-27.51525" lon="150.229133">
    <tag k="created_by" v="JOSM"/>
    <tag k="highway" v="trunk"/>
    <tag k="name" v="Leichhardt Hwy"/>
    <tag k="surface" v="paved"/>
  </node>
  <node id="133094218" version="1" timestamp="2007-11-25T21:20:23Z" uid="4467" user="Rosscoe" changeset="621649" lat="-27.513878" lon="150.228793">
    <tag k="created_by" v="JOSM"/>
    <tag k="highway" v="trunk"/>
    <tag k="name" v="Leichhardt Hwy"/>
    <tag k="surface" v="paved"/>
  </node>
  <node id="133094246" version="1" timestamp="2007-11-25T21:20:24Z" uid="4467" user="Rosscoe" changeset="621649" lat="-27.513605" lon="150.228727">
    <tag k="created_by" v="JOSM"/>
    <tag k="highway" v="trunk"/>
    <tag k="name" v="Leichhardt Hwy"/>
    <tag k="surface" v="paved"/>
  </node>
  <node id="133094272" version="1" timestamp="2007-11-25T21:20:25Z" uid="4467" user="Rosscoe" changeset="621649" lat="-27.514428" lon="150.22893">
    <tag k="created_by" v="JOSM"/>
    <tag k="highway" v="trunk"/>
    <tag k="name" v="Leichhardt Hwy"/>
    <tag k="surface" v="paved"/>
  </node>
  <node id="133094313" version="1" timestamp="2007-11-25T21:20:26Z" uid="4467" user="Rosscoe" changeset="621649" lat="-27.514153" lon="150.22886">
    <tag k="created_by" v="JOSM"/>
    <tag k="highway" v="trunk"/>
    <tag k="name" v="Leichhardt Hwy"/>
    <tag k="surface" v="paved"/>
  </node>
  <node id="133094313" version="7" timestamp="2009-10-11T06:14:55Z" uid="74617" user="JohnSmith" changeset="2810296" lat="-27.514153" lon="150.22886"/>
  <node id="133094350" version="1" timestamp="2007-11-25T21:20:26Z" uid="4467" user="Rosscoe" changeset="621649" lat="-27.512783" lon="150.228528">
    <tag k="created_by" v="JOSM"/>
    <tag k="highway" v="trunk"/>
    <tag k="name" v="Leichhardt Hwy"/>
    <tag k="surface" v="paved"/>
  </node>
  <node id="133094391" version="1" timestamp="2007-11-25T21:20:27Z" uid="4467" user="Rosscoe" changeset="621649" lat="-27.512508" lon="150.228462">
    <tag k="created_by" v="JOSM"/>
    <tag k="highway" v="trunk"/>
    <tag k="name" v="Leichhardt Hwy"/>
    <tag k="surface" v="paved"/>
  </node>
  <node id="133094424" version="1" timestamp="2007-11-25T21:20:28Z" uid="4467" user="Rosscoe" changeset="621649" lat="-27.51333" lon="150.22866">
    <tag k="created_by" v="JOSM"/>
    <tag k="highway" v="trunk"/>
    <tag k="name" v="Leichhardt Hwy"/>
    <tag k="surface" v="paved"/>
  </node>
  <node id="133094445" version="1" timestamp="2007-11-25T21:20:29Z" uid="4467" user="Rosscoe" changeset="621649" lat="-27.513053" lon="150.228592">
    <tag k="created_by" v="JOSM"/>
    <tag k="highway" v="trunk"/>
    <tag k="name" v="Leichhardt Hwy"/>
    <tag k="surface" v="paved"/>
  </node>
  <node id="133094465" version="1" timestamp="2007-11-25T21:20:30Z" uid="4467" user="Rosscoe" changeset="621649" lat="-27.511688" lon="150.228265">
    <tag k="created_by" v="JOSM"/>
    <tag k="highway" v="trunk"/>
    <tag k="name" v="Leichhardt Hwy"/>
    <tag k="surface" v="paved"/>
  </node>
  <node id="133094489" version="1" timestamp="2007-11-25T21:20:31Z" uid="4467" user="Rosscoe" changeset="621649" lat="-27.51141" lon="150.228197">
    <tag k="created_by" v="JOSM"/>
    <tag k="highway" v="trunk"/>
    <tag k="name" v="Leichhardt Hwy"/>
    <tag k="surface" v="paved"/>
  </node>
  <node id="133094520" version="1" timestamp="2007-11-25T21:20:31Z" uid="4467" user="Rosscoe" changeset="621649" lat="-27.512235" lon="150.228397">
    <tag k="created_by" v="JOSM"/>
    <tag k="highway" v="trunk"/>
    <tag k="name" v="Leichhardt Hwy"/>
    <tag k="surface" v="paved"/>
  </node>
  <node id="133094546" version="1" timestamp="2007-11-25T21:20:32Z" uid="4467" user="Rosscoe" changeset="621649" lat="-27.511962" lon="150.228332">
    <tag k="created_by" v="JOSM"/>
    <tag k="highway" v="trunk"/>
    <tag k="name" v="Leichhardt Hwy"/>
    <tag k="surface" v="paved"/>
  </node>
  <node id="133094568" version="1" timestamp="2007-11-25T21:20:33Z" uid="4467" user="Rosscoe" changeset="621649" lat="-27.519363" lon="150.23014">
    <tag k="created_by" v="JOSM"/>
    <tag k="highway" v="trunk"/>
    <tag k="name" v="Leichhardt Hwy"/>
    <tag k="surface" v="paved"/>
  </node>
  <node id="133094588" version="1" timestamp="2007-11-25T21:20:34Z" uid="4467" user="Rosscoe" changeset="621649" lat="-27.519087" lon="150.230073">
    <tag k="created_by" v="JOSM"/>
    <tag k="highway" v="trunk"/>
    <tag k="name" v="Leichhardt Hwy"/>
    <tag k="surface" v="paved"/>
  </node>
  <node id="133094618" version="1" timestamp="2007-11-25T21:20:35Z" uid="4467" user="Rosscoe" changeset="621649" lat="-27.519912" lon="150.230273">
    <tag k="created_by" v="JOSM"/>
    <tag k="highway" v="trunk"/>
    <tag k="name" v="Leichhardt Hwy"/>
    <tag k="surface" v="paved"/>
  </node>
  <node id="133094646" version="1" timestamp="2007-11-25T21:20:35Z" uid="4467" user="Rosscoe" changeset="621649" lat="-27.519633" lon="150.230207">
    <tag k="created_by" v="JOSM"/>
    <tag k="highway" v="trunk"/>
    <tag k="name" v="Leichhardt Hwy"/>
    <tag k="surface" v="paved"/>
  </node>
  <node id="133094667" version="1" timestamp="2007-11-25T21:20:36Z" uid="4467" user="Rosscoe" changeset="621649" lat="-27.518265" lon="150.22987">
    <tag k="created_by" v="JOSM"/>
    <tag k="highway" v="trunk"/>
    <tag k="name" v="Leichhardt Hwy"/>
    <tag k="surface" v="paved"/>
  </node>
  <node id="133094680" version="1" timestamp="2007-11-25T21:20:37Z" uid="4467" user="Rosscoe" changeset="621649" lat="-27.517987" lon="150.229802">
    <tag k="created_by" v="JOSM"/>
    <tag k="highway" v="trunk"/>
    <tag k="name" v="Leichhardt Hwy"/>
    <tag k="surface" v="paved"/>
  </node>
  <node id="133094706" version="1" timestamp="2007-11-25T21:20:38Z" uid="4467" user="Rosscoe" changeset="621649" lat="-27.518813" lon="150.230007">
    <tag k="created_by" v="JOSM"/>
    <tag k="highway" v="trunk"/>
    <tag k="name" v="Leichhardt Hwy"/>
    <tag k="surface" v="paved"/>
  </node>
  <node id="133094736" version="1" timestamp="2007-11-25T21:20:39Z" uid="4467" user="Rosscoe" changeset="621649" lat="-27.518538" lon="150.229938">
    <tag k="created_by" v="JOSM"/>
    <tag k="highway" v="trunk"/>
    <tag k="name" v="Leichhardt Hwy"/>
    <tag k="surface" v="paved"/>
  </node>
  <node id="133094767" version="1" timestamp="2007-11-25T21:20:39Z" uid="4467" user="Rosscoe" changeset="621649" lat="-27.517167" lon="150.229603">
    <tag k="created_by" v="JOSM"/>
    <tag k="highway" v="trunk"/>
    <tag k="name" v="Leichhardt Hwy"/>
    <tag k="surface" v="paved"/>
  </node>
  <node id="133094785" version="1" timestamp="2007-11-25T21:20:40Z" uid="4467" user="Rosscoe" changeset="621649" lat="-27.516895" lon="150.229538">
    <tag k="created_by" v="JOSM"/>
    <tag k="highway" v="trunk"/>
    <tag k="name" v="Leichhardt Hwy"/>
    <tag k="surface" v="paved"/>
  </node>
  <node id="133094814" version="1" timestamp="2007-11-25T21:20:41Z" uid="4467" user="Rosscoe" changeset="621649" lat="-27.517715" lon="150.229737">
    <tag k="created_by" v="JOSM"/>
    <tag k="highway" v="trunk"/>
    <tag k="name" v="Leichhardt Hwy"/>
    <tag k="surface" v="paved"/>
  </node>
  <node id="133094833" version="1" timestamp="2007-11-25T21:20:42Z" uid="4467" user="Rosscoe" changeset="621649" lat="-27.51744" lon="150.229672">
    <tag k="created_by" v="JOSM"/>
    <tag k="highway" v="trunk"/>
    <tag k="name" v="Leichhardt Hwy"/>
    <tag k="surface" v="paved"/>
  </node>
  <node id="133094859" version="1" timestamp="2007-11-25T21:20:43Z" uid="4467" user="Rosscoe" changeset="621649" lat="-27.51607" lon="150.229335">
    <tag k="created_by" v="JOSM"/>
    <tag k="highway" v="trunk"/>
    <tag k="name" v="Leichhardt Hwy"/>
    <tag k="surface" v="paved"/>
  </node>
  <node id="133094892" version="1" timestamp="2007-11-25T21:20:43Z" uid="4467" user="Rosscoe" changeset="621649" lat="-27.515793" lon="150.229267">
    <tag k="created_by" v="JOSM"/>
    <tag k="highway" v="trunk"/>
    <tag k="name" v="Leichhardt Hwy"/>
    <tag k="surface" v="paved"/>
  </node>
  <node id="133094913" version="1" timestamp="2007-11-25T21:20:44Z" uid="4467" user="Rosscoe" changeset="621649" lat="-27.516618" lon="150.22947">
    <tag k="created_by" v="JOSM"/>
    <tag k="highway" v="trunk"/>
    <tag k="name" v="Leichhardt Hwy"/>
    <tag k="surface" v="paved"/>
  </node>
  <node id="133094934" version="1" timestamp="2007-11-25T21:20:45Z" uid="4467" user="Rosscoe" changeset="621649" lat="-27.51634" lon="150.229402">
    <tag k="created_by" v="JOSM"/>
    <tag k="highway" v="trunk"/>
    <tag k="name" v="Leichhardt Hwy"/>
    <tag k="surface" v="paved"/>
  </node>
  <node id="133094958" version="1" timestamp="2007-11-25T21:20:46Z" uid="4467" user="Rosscoe" changeset="621649" lat="-27.523742" lon="150.231213">
    <tag k="created_by" v="JOSM"/>
    <tag k="highway" v="trunk"/>
    <tag k="name" v="Leichhardt Hwy"/>
    <tag k="surface" v="paved"/>
  </node>
  <node id="133094988" version="1" timestamp="2007-11-25T21:20:47Z" uid="4467" user="Rosscoe" changeset="621649" lat="-27.523472" lon="150.231148">
    <tag k="created_by" v="JOSM"/>
    <tag k="highway" v="trunk"/>
    <tag k="name" v="Leichhardt Hwy"/>
    <tag k="surface" v="paved"/>
  </node>
  <node id="133095017" version="1" timestamp="2007-11-25T21:20:47Z" uid="4467" user="Rosscoe" changeset="621649" lat="-27.524288" lon="150.231347">
    <tag k="created_by" v="JOSM"/>
    <tag k="highway" v="trunk"/>
    <tag k="name" v="Leichhardt Hwy"/>
    <tag k="surface" v="paved"/>
  </node>
  <node id="133095040" version="1" timestamp="2007-11-25T21:20:48Z" uid="4467" user="Rosscoe" changeset="621649" lat="-27.524015" lon="150.23128">
    <tag k="created_by" v="JOSM"/>
    <tag k="highway" v="trunk"/>
    <tag k="name" v="Leichhardt Hwy"/>
    <tag k="surface" v="paved"/>
  </node>
  <node id="133095072" version="1" timestamp="2007-11-25T21:20:49Z" uid="4467" user="Rosscoe" changeset="621649" lat="-27.522645" lon="150.230947">
    <tag k="created_by" v="JOSM"/>
    <tag k="highway" v="trunk"/>
    <tag k="name" v="Leichhardt Hwy"/>
    <tag k="surface" v="paved"/>
  </node>
  <node id="133095094" version="1" timestamp="2007-11-25T21:20:50Z" uid="4467" user="Rosscoe" changeset="621649" lat="-27.522372" lon="150.230878">
    <tag k="created_by" v="JOSM"/>
    <tag k="highway" v="trunk"/>
    <tag k="name" v="Leichhardt Hwy"/>
    <tag k="surface" v="paved"/>
  </node>
  <node id="133095120" version="1" timestamp="2007-11-25T21:20:51Z" uid="4467" user="Rosscoe" changeset="621649" lat="-27.523195" lon="150.23108">
    <tag k="created_by" v="JOSM"/>
    <tag k="highway" v="trunk"/>
    <tag k="name" v="Leichhardt Hwy"/>
    <tag k="surface" v="paved"/>
  </node>
  <node id="133095147" version="1" timestamp="2007-11-25T21:20:51Z" uid="4467" user="Rosscoe" changeset="621649" lat="-27.522917" lon="150.231013">
    <tag k="created_by" v="JOSM"/>
    <tag k="highway" v="trunk"/>
    <tag k="name" v="Leichhardt Hwy"/>
    <tag k="surface" v="paved"/>
  </node>
  <node id="133095167" version="1" timestamp="2007-11-25T21:20:52Z" uid="4467" user="Rosscoe" changeset="621649" lat="-27.521553" lon="150.230678">
    <tag k="created_by" v="JOSM"/>
    <tag k="highway" v="trunk"/>
    <tag k="name" v="Leichhardt Hwy"/>
    <tag k="surface" v="paved"/>
  </node>
  <node id="133095191" version="1" timestamp="2007-11-25T21:20:53Z" uid="4467" user="Rosscoe" changeset="621649" lat="-27.521275" lon="150.230612">
    <tag k="created_by" v="JOSM"/>
    <tag k="highway" v="trunk"/>
    <tag k="name" v="Leichhardt Hwy"/>
    <tag k="surface" v="paved"/>
  </node>
  <node id="133095215" version="1" timestamp="2007-11-25T21:20:54Z" uid="4467" user="Rosscoe" changeset="621649" lat="-27.5221" lon="150.230813">
    <tag k="created_by" v="JOSM"/>
    <tag k="highway" v="trunk"/>
    <tag k="name" v="Leichhardt Hwy"/>
    <tag k="surface" v="paved"/>
  </node>
  <node id="133095241" version="1" timestamp="2007-11-25T21:20:55Z" uid="4467" user="Rosscoe" changeset="621649" lat="-27.521827" lon="150.230747">
    <tag k="created_by" v="JOSM"/>
    <tag k="highway" v="trunk"/>
    <tag k="name" v="Leichhardt Hwy"/>
    <tag k="surface" v="paved"/>
  </node>
  <node id="133095278" version="1" timestamp="2007-11-25T21:20:55Z" uid="4467" user="Rosscoe" changeset="621649" lat="-27.520457" lon="150.23041">
    <tag k="created_by" v="JOSM"/>
    <tag k="highway" v="trunk"/>
    <tag k="name" v="Leichhardt Hwy"/>
    <tag k="surface" v="paved"/>
  </node>
  <node id="133095301" version="1" timestamp="2007-11-25T21:20:56Z" uid="4467" user="Rosscoe" changeset="621649" lat="-27.520183" lon="150.230342">
    <tag k="created_by" v="JOSM"/>
    <tag k="highway" v="trunk"/>
    <tag k="name" v="Leichhardt Hwy"/>
    <tag k="surface" v="paved"/>
  </node>
  <node id="133095328" version="1" timestamp="2007-11-25T21:20:57Z" uid="4467" user="Rosscoe" changeset="621649" lat="-27.521005" lon="150.230545">
    <tag k="created_by" v="JOSM"/>
    <tag k="highway" v="trunk"/>
    <tag k="name" v="Leichhardt Hwy"/>
    <tag k="surface" v="paved"/>
  </node>
  <node id="133095357" version="1" timestamp="2007-11-25T21:20:58Z" uid="4467" user="Rosscoe" changeset="621649" lat="-27.52073" lon="150.230478">
    <tag k="created_by" v="JOSM"/>
    <tag k="highway" v="trunk"/>
    <tag k="name" v="Leichhardt Hwy"/>
    <tag k="surface" v="paved"/>
  </node>
  <node id="133095387" version="1" timestamp="2007-11-25T21:20:59Z" uid="4467" user="Rosscoe" changeset="621649" lat="-27.528117" lon="150.232292">
    <tag k="created_by" v="JOSM"/>
    <tag k="highway" v="trunk"/>
    <tag k="name" v="Leichhardt Hwy"/>
    <tag k="surface" v="paved"/>
  </node>
  <node id="133095416" version="1" timestamp="2007-11-25T21:20:59Z" uid="4467" user="Rosscoe" changeset="621649" lat="-27.527848" lon="150.232228">
    <tag k="created_by" v="JOSM"/>
    <tag k="highway" v="trunk"/>
    <tag k="name" v="Leichhardt Hwy"/>
    <tag k="surface" v="paved"/>
  </node>
  <node id="133095435" version="1" timestamp="2007-11-25T21:21:00Z" uid="4467" user="Rosscoe" changeset="621649" lat="-27.528635" lon="150.232418">
    <tag k="created_by" v="JOSM"/>
    <tag k="highway" v="trunk"/>
    <tag k="name" v="Leichhardt Hwy"/>
    <tag k="surface" v="paved"/>
  </node>
  <node id="133095462" version="1" timestamp="2007-11-25T21:21:01Z" uid="4467" user="Rosscoe" changeset="621649" lat="-27.528377" lon="150.232355">
    <tag k="created_by" v="JOSM"/>
    <tag k="highway" v="trunk"/>
    <tag k="name" v="Leichhardt Hwy"/>
    <tag k="surface" v="paved"/>
  </node>
  <node id="133095484" version="1" timestamp="2007-11-25T21:21:02Z" uid="4467" user="Rosscoe" changeset="621649" lat="-27.527038" lon="150.232028">
    <tag k="created_by" v="JOSM"/>
    <tag k="highway" v="trunk"/>
    <tag k="name" v="Leichhardt Hwy"/>
    <tag k="surface" v="paved"/>
  </node>
  <node id="133095506" version="1" timestamp="2007-11-25T21:21:03Z" uid="4467" user="Rosscoe" changeset="621649" lat="-27.526765" lon="150.23196">
    <tag k="created_by" v="JOSM"/>
    <tag k="highway" v="trunk"/>
    <tag k="name" v="Leichhardt Hwy"/>
    <tag k="surface" v="paved"/>
  </node>
  <node id="133095535" version="1" timestamp="2007-11-25T21:21:03Z" uid="4467" user="Rosscoe" changeset="621649" lat="-27.527585" lon="150.232163">
    <tag k="created_by" v="JOSM"/>
    <tag k="highway" v="trunk"/>
    <tag k="name" v="Leichhardt Hwy"/>
    <tag k="surface" v="paved"/>
  </node>
  <node id="133095554" version="1" timestamp="2007-11-25T21:21:04Z" uid="4467" user="Rosscoe" changeset="621649" lat="-27.527317" lon="150.232098">
    <tag k="created_by" v="JOSM"/>
    <tag k="highway" v="trunk"/>
    <tag k="name" v="Leichhardt Hwy"/>
    <tag k="surface" v="paved"/>
  </node>
  <node id="133095571" version="1" timestamp="2007-11-25T21:21:05Z" uid="4467" user="Rosscoe" changeset="621649" lat="-27.52593" lon="150.231747">
    <tag k="created_by" v="JOSM"/>
    <tag k="highway" v="trunk"/>
    <tag k="name" v="Leichhardt Hwy"/>
    <tag k="surface" v="paved"/>
  </node>
  <node id="133095596" version="1" timestamp="2007-11-25T21:21:06Z" uid="4467" user="Rosscoe" changeset="621649" lat="-27.525655" lon="150.23168">
    <tag k="created_by" v="JOSM"/>
    <tag k="highway" v="trunk"/>
    <tag k="name" v="Leichhardt Hwy"/>
    <tag k="surface" v="paved"/>
  </node>
  <node id="133095617" version="1" timestamp="2007-11-25T21:21:07Z" uid="4467" user="Rosscoe" changeset="621649" lat="-27.526487" lon="150.23189">
    <tag k="created_by" v="JOSM"/>
    <tag k="highway" v="trunk"/>
    <tag k="name" v="Leichhardt Hwy"/>
    <tag k="surface" v="paved"/>
  </node>
  <node id="133095647" version="1" timestamp="2007-11-25T21:21:08Z" uid="4467" user="Rosscoe" changeset="621649" lat="-27.526205" lon="150.231817">
    <tag k="created_by" v="JOSM"/>
    <tag k="highway" v="trunk"/>
    <tag k="name" v="Leichhardt Hwy"/>
    <tag k="surface" v="paved"/>
  </node>
  <node id="133095677" version="1" timestamp="2007-11-25T21:21:09Z" uid="4467" user="Rosscoe" changeset="621649" lat="-27.524835" lon="150.231478">
    <tag k="created_by" v="JOSM"/>
    <tag k="highway" v="trunk"/>
    <tag k="name" v="Leichhardt Hwy"/>
    <tag k="surface" v="paved"/>
  </node>
  <node id="133095677" version="7" timestamp="2009-10-11T06:14:55Z" uid="74617" user="JohnSmith" changeset="2810296" lat="-27.524835" lon="150.231478"/>
  <node id="133095709" version="1" timestamp="2007-11-25T21:21:09Z" uid="4467" user="Rosscoe" changeset="621649" lat="-27.52456" lon="150.231412">
    <tag k="created_by" v="JOSM"/>
    <tag k="highway" v="trunk"/>
    <tag k="name" v="Leichhardt Hwy"/>
    <tag k="surface" v="paved"/>
  </node>
  <node id="133095734" version="1" timestamp="2007-11-25T21:21:10Z" uid="4467" user="Rosscoe" changeset="621649" lat="-27.525383" lon="150.231613">
    <tag k="created_by" v="JOSM"/>
    <tag k="highway" v="trunk"/>
    <tag k="name" v="Leichhardt Hwy"/>
    <tag k="surface" v="paved"/>
  </node>
  <node id="133095757" version="1" timestamp="2007-11-25T21:21:11Z" uid="4467" user="Rosscoe" changeset="621649" lat="-27.525112" lon="150.231547">
    <tag k="created_by" v="JOSM"/>
    <tag k="highway" v="trunk"/>
    <tag k="name" v="Leichhardt Hwy"/>
    <tag k="surface" v="paved"/>
  </node>
  <node id="133095788" version="1" timestamp="2007-11-25T21:21:12Z" uid="4467" user="Rosscoe" changeset="621649" lat="-27.53178" lon="150.233192">
    <tag k="created_by" v="JOSM"/>
    <tag k="highway" v="trunk"/>
    <tag k="name" v="Leichhardt Hwy"/>
    <tag k="surface" v="paved"/>
  </node>
  <node id="133095819" version="1" timestamp="2007-11-25T21:21:13Z" uid="4467" user="Rosscoe" changeset="621649" lat="-27.53158" lon="150.233142">
    <tag k="created_by" v="JOSM"/>
    <tag k="highway" v="trunk"/>
    <tag k="name" v="Leichhardt Hwy"/>
    <tag k="surface" v="paved"/>
  </node>
  <node id="133095844" version="1" timestamp="2007-11-25T21:21:13Z" uid="4467" user="Rosscoe" changeset="621649" lat="-27.532168" lon="150.233287">
    <tag k="created_by" v="JOSM"/>
    <tag k="highway" v="trunk"/>
    <tag k="name" v="Leichhardt Hwy"/>
    <tag k="surface" v="paved"/>
  </node>
  <node id="133095853" version="1" timestamp="2007-11-25T21:21:14Z" uid="4467" user="Rosscoe" changeset="621649" lat="-27.531972" lon="150.233238">
    <tag k="created_by" v="JOSM"/>
    <tag k="highway" v="trunk"/>
    <tag k="name" v="Leichhardt Hwy"/>
    <tag k="surface" v="paved"/>
  </node>
  <node id="133095873" version="1" timestamp="2007-11-25T21:21:15Z" uid="4467" user="Rosscoe" changeset="621649" lat="-27.530962" lon="150.23299">
    <tag k="created_by" v="JOSM"/>
    <tag k="highway" v="trunk"/>
    <tag k="name" v="Leichhardt Hwy"/>
    <tag k="surface" v="paved"/>
  </node>
  <node id="133095897" version="1" timestamp="2007-11-25T21:21:16Z" uid="4467" user="Rosscoe" changeset="621649" lat="-27.530747" lon="150.232938">
    <tag k="created_by" v="JOSM"/>
    <tag k="highway" v="trunk"/>
    <tag k="name" v="Leichhardt Hwy"/>
    <tag k="surface" v="paved"/>
  </node>
  <node id="133095922" version="1" timestamp="2007-11-25T21:21:16Z" uid="4467" user="Rosscoe" changeset="621649" lat="-27.531377" lon="150.233092">
    <tag k="created_by" v="JOSM"/>
    <tag k="highway" v="trunk"/>
    <tag k="name" v="Leichhardt Hwy"/>
    <tag k="surface" v="paved"/>
  </node>
  <node id="133095944" version="1" timestamp="2007-11-25T21:21:17Z" uid="4467" user="Rosscoe" changeset="621649" lat="-27.531173" lon="150.233042">
    <tag k="created_by" v="JOSM"/>
    <tag k="highway" v="trunk"/>
    <tag k="name" v="Leichhardt Hwy"/>
    <tag k="surface" v="paved"/>
  </node>
  <node id="133095969" version="1" timestamp="2007-11-25T21:21:18Z" uid="4467" user="Rosscoe" changeset="621649" lat="-27.530085" lon="150.232778">
    <tag k="created_by" v="JOSM"/>
    <tag k="highway" v="trunk"/>
    <tag k="name" v="Leichhardt Hwy"/>
    <tag k="surface" v="paved"/>
  </node>
  <node id="133095998" version="1" timestamp="2007-11-25T21:21:19Z" uid="4467" user="Rosscoe" changeset="621649" lat="-27.529853" lon="150.232718">
    <tag k="created_by" v="JOSM"/>
    <tag k="highway" v="trunk"/>
    <tag k="name" v="Leichhardt Hwy"/>
    <tag k="surface" v="paved"/>
  </node>
  <node id="133096027" version="1" timestamp="2007-11-25T21:21:20Z" uid="4467" user="Rosscoe" changeset="621649" lat="-27.530535" lon="150.23289">
    <tag k="created_by" v="JOSM"/>
    <tag k="highway" v="trunk"/>
    <tag k="name" v="Leichhardt Hwy"/>
    <tag k="surface" v="paved"/>
  </node>
  <node id="133096052" version="1" timestamp="2007-11-25T21:21:20Z" uid="4467" user="Rosscoe" changeset="621649" lat="-27.53031" lon="150.232835">
    <tag k="created_by" v="JOSM"/>
    <tag k="highway" v="trunk"/>
    <tag k="name" v="Leichhardt Hwy"/>
    <tag k="surface" v="paved"/>
  </node>
  <node id="133096082" version="1" timestamp="2007-11-25T21:21:21Z" uid="4467" user="Rosscoe" changeset="621649" lat="-27.529135" lon="150.232538">
    <tag k="created_by" v="JOSM"/>
    <tag k="highway" v="trunk"/>
    <tag k="name" v="Leichhardt Hwy"/>
    <tag k="surface" v="paved"/>
  </node>
  <node id="133096112" version="1" timestamp="2007-11-25T21:21:22Z" uid="4467" user="Rosscoe" changeset="621649" lat="-27.528888" lon="150.232478">
    <tag k="created_by" v="JOSM"/>
    <tag k="highway" v="trunk"/>
    <tag k="name" v="Leichhardt Hwy"/>
    <tag k="surface" v="paved"/>
  </node>
  <node id="133096137" version="1" timestamp="2007-11-25T21:21:23Z" uid="4467" user="Rosscoe" changeset="621649" lat="-27.529618" lon="150.23266">
    <tag k="created_by" v="JOSM"/>
    <tag k="highway" v="trunk"/>
    <tag k="name" v="Leichhardt Hwy"/>
    <tag k="surface" v="paved"/>
  </node>
  <node id="133096163" version="1" timestamp="2007-11-25T21:21:24Z" uid="4467" user="Rosscoe" changeset="621649" lat="-27.529378" lon="150.232602">
    <tag k="created_by" v="JOSM"/>
    <tag k="highway" v="trunk"/>
    <tag k="name" v="Leichhardt Hwy"/>
    <tag k="surface" v="paved"/>
  </node>
  <node id="133096195" version="1" timestamp="2007-11-25T21:21:24Z" uid="4467" user="Rosscoe" changeset="621649" lat="-27.534552" lon="150.233865">
    <tag k="created_by" v="JOSM"/>
    <tag k="highway" v="trunk"/>
    <tag k="name" v="Leichhardt Hwy"/>
    <tag k="surface" v="paved"/>
  </node>
  <node id="133096224" version="1" timestamp="2007-11-25T21:21:25Z" uid="4467" user="Rosscoe" changeset="621649" lat="-27.534397" lon="150.233827">
    <tag k="created_by" v="JOSM"/>
    <tag k="highway" v="trunk"/>
    <tag k="name" v="Leichhardt Hwy"/>
    <tag k="surface" v="paved"/>
  </node>
  <node id="133096255" version="1" timestamp="2007-11-25T21:21:26Z" uid="4467" user="Rosscoe" changeset="621649" lat="-27.534857" lon="150.233942">
    <tag k="created_by" v="JOSM"/>
    <tag k="highway" v="trunk"/>
    <tag k="name" v="Leichhardt Hwy"/>
    <tag k="surface" v="paved"/>
  </node>
  <node id="133096284" version="1" timestamp="2007-11-25T21:21:27Z" uid="4467" user="Rosscoe" changeset="621649" lat="-27.534705" lon="150.233903">
    <tag k="created_by" v="JOSM"/>
    <tag k="highway" v="trunk"/>
    <tag k="name" v="Leichhardt Hwy"/>
    <tag k="surface" v="paved"/>
  </node>
  <node id="133096317" version="1" timestamp="2007-11-25T21:21:28Z" uid="4467" user="Rosscoe" changeset="621649" lat="-27.533755" lon="150.233667">
    <tag k="created_by" v="JOSM"/>
    <tag k="highway" v="trunk"/>
    <tag k="name" v="Leichhardt Hwy"/>
    <tag k="surface" v="paved"/>
  </node>
  <node id="133096345" version="1" timestamp="2007-11-25T21:21:28Z" uid="4467" user="Rosscoe" changeset="621649" lat="-27.533755" lon="150.233667">
    <tag k="created_by" v="JOSM"/>
    <tag k="highway" v="trunk"/>
    <tag k="name" v="Leichhardt Hwy"/>
    <tag k="surface" v="paved"/>
  </node>
  <node id="133096345" version="7" timestamp="2009-10-11T06:14:55Z" uid="74617" user="JohnSmith" changeset="2810296" lat="-27.533755" lon="150.233667"/>
  <node id="133096367" version="1" timestamp="2007-11-25T21:21:29Z" uid="4467" user="Rosscoe" changeset="621649" lat="-27.534242" lon="150.233788">
    <tag k="created_by" v="JOSM"/>
    <tag k="highway" v="trunk"/>
    <tag k="name" v="Leichhardt Hwy"/>
    <tag k="surface" v="paved"/>
  </node>
  <node id="133096396" version="1" timestamp="2007-11-25T21:21:30Z" uid="4467" user="Rosscoe" changeset="621649" lat="-27.53408" lon="150.233747">
    <tag k="created_by" v="JOSM"/>
    <tag k="highway" v="trunk"/>
    <tag k="name" v="Leichhardt Hwy"/>
    <tag k="surface" v="paved"/>
  </node>
  <node id="133096423" version="1" timestamp="2007-11-25T21:21:31Z" uid="4467" user="Rosscoe" changeset="621649" lat="-27.533253" lon="150.233547">
    <tag k="created_by" v="JOSM"/>
    <tag k="highway" v="trunk"/>
    <tag k="name" v="Leichhardt Hwy"/>
    <tag k="surface" v="paved"/>
  </node>
  <node id="133096446" version="1" timestamp="2007-11-25T21:21:31Z" uid="4467" user="Rosscoe" changeset="621649" lat="-27.533077" lon="150.233505">
    <tag k="created_by" v="JOSM"/>
    <tag k="highway" v="trunk"/>
    <tag k="name" v="Leichhardt Hwy"/>
    <tag k="surface" v="paved"/>
  </node>
  <node id="133096480" version="1" timestamp="2007-11-25T21:21:32Z" uid="4467" user="Rosscoe" changeset="621649" lat="-27.53359" lon="150.233628">
    <tag k="created_by" v="JOSM"/>
    <tag k="highway" v="trunk"/>
    <tag k="name" v="Leichhardt Hwy"/>
    <tag k="surface" v="paved"/>
  </node>
  <node id="133096507" version="1" timestamp="2007-11-25T21:21:33Z" uid="4467" user="Rosscoe" changeset="621649" lat="-27.533425" lon="150.23359">
    <tag k="created_by" v="JOSM"/>
    <tag k="highway" v="trunk"/>
    <tag k="name" v="Leichhardt Hwy"/>
    <tag k="surface" v="paved"/>
  </node>
  <node id="133096533" version="1" timestamp="2007-11-25T21:21:34Z" uid="4467" user="Rosscoe" changeset="621649" lat="-27.532542" lon="150.233377">
    <tag k="created_by" v="JOSM"/>
    <tag k="highway" v="trunk"/>
    <tag k="name" v="Leichhardt Hwy"/>
    <tag k="surface" v="paved"/>
  </node>
  <node id="133096558" version="1" timestamp="2007-11-25T21:21:35Z" uid="4467" user="Rosscoe" changeset="621649" lat="-27.532358" lon="150.233332">
    <tag k="created_by" v="JOSM"/>
    <tag k="highway" v="trunk"/>
    <tag k="name" v="Leichhardt Hwy"/>
    <tag k="surface" v="paved"/>
  </node>
  <node id="133096590" version="1" timestamp="2007-11-25T21:21:35Z" uid="4467" user="Rosscoe" changeset="621649" lat="-27.532903" lon="150.233462">
    <tag k="created_by" v="JOSM"/>
    <tag k="highway" v="trunk"/>
    <tag k="name" v="Leichhardt Hwy"/>
    <tag k="surface" v="paved"/>
  </node>
  <node id="133096617" version="1" timestamp="2007-11-25T21:21:36Z" uid="4467" user="Rosscoe" changeset="621649" lat="-27.532725" lon="150.233418">
    <tag k="created_by" v="JOSM"/>
    <tag k="highway" v="trunk"/>
    <tag k="name" v="Leichhardt Hwy"/>
    <tag k="surface" v="paved"/>
  </node>
  <node id="133096644" version="1" timestamp="2007-11-25T21:21:37Z" uid="4467" user="Rosscoe" changeset="621649" lat="-27.536838" lon="150.234438">
    <tag k="created_by" v="JOSM"/>
    <tag k="highway" v="trunk"/>
    <tag k="name" v="Leichhardt Hwy"/>
    <tag k="surface" v="paved"/>
  </node>
  <node id="133096664" version="1" timestamp="2007-11-25T21:21:38Z" uid="4467" user="Rosscoe" changeset="621649" lat="-27.5367" lon="150.234403">
    <tag k="created_by" v="JOSM"/>
    <tag k="highway" v="trunk"/>
    <tag k="name" v="Leichhardt Hwy"/>
    <tag k="surface" v="paved"/>
  </node>
  <node id="133096691" version="1" timestamp="2007-11-25T21:21:39Z" uid="4467" user="Rosscoe" changeset="621649" lat="-27.53711" lon="150.234505">
    <tag k="created_by" v="JOSM"/>
    <tag k="highway" v="trunk"/>
    <tag k="name" v="Leichhardt Hwy"/>
    <tag k="surface" v="paved"/>
  </node>
  <node id="133096714" version="1" timestamp="2007-11-25T21:21:39Z" uid="4467" user="Rosscoe" changeset="621649" lat="-27.536975" lon="150.234472">
    <tag k="created_by" v="JOSM"/>
    <tag k="highway" v="trunk"/>
    <tag k="name" v="Leichhardt Hwy"/>
    <tag k="surface" v="paved"/>
  </node>
  <node id="133096743" version="1" timestamp="2007-11-25T21:21:40Z" uid="4467" user="Rosscoe" changeset="621649" lat="-27.53629" lon="150.234302">
    <tag k="created_by" v="JOSM"/>
    <tag k="highway" v="trunk"/>
    <tag k="name" v="Leichhardt Hwy"/>
    <tag k="surface" v="paved"/>
  </node>
  <node id="133096773" version="1" timestamp="2007-11-25T21:21:41Z" uid="4467" user="Rosscoe" changeset="621649" lat="-27.53615" lon="150.234268">
    <tag k="created_by" v="JOSM"/>
    <tag k="highway" v="trunk"/>
    <tag k="name" v="Leichhardt Hwy"/>
    <tag k="surface" v="paved"/>
  </node>
  <node id="133096797" version="1" timestamp="2007-11-25T21:21:42Z" uid="4467" user="Rosscoe" changeset="621649" lat="-27.536565" lon="150.23437">
    <tag k="created_by" v="JOSM"/>
    <tag k="highway" v="trunk"/>
    <tag k="name" v="Leichhardt Hwy"/>
    <tag k="surface" v="paved"/>
  </node>
  <node id="133096817" version="1" timestamp="2007-11-25T21:21:43Z" uid="4467" user="Rosscoe" changeset="621649" lat="-27.536425" lon="150.234337">
    <tag k="created_by" v="JOSM"/>
    <tag k="highway" v="trunk"/>
    <tag k="name" v="Leichhardt Hwy"/>
    <tag k="surface" v="paved"/>
  </node>
  <node id="133096840" version="1" timestamp="2007-11-25T21:21:44Z" uid="4467" user="Rosscoe" changeset="621649" lat="-27.535733" lon="150.234168">
    <tag k="created_by" v="JOSM"/>
    <tag k="highway" v="trunk"/>
    <tag k="name" v="Leichhardt Hwy"/>
    <tag k="surface" v="paved"/>
  </node>
  <node id="133096858" version="1" timestamp="2007-11-25T21:21:44Z" uid="4467" user="Rosscoe" changeset="621649" lat="-27.535593" lon="150.234133">
    <tag k="created_by" v="JOSM"/>
    <tag k="highway" v="trunk"/>
    <tag k="name" v="Leichhardt Hwy"/>
    <tag k="surface" v="paved"/>
  </node>
  <node id="133096882" version="1" timestamp="2007-11-25T21:21:45Z" uid="4467" user="Rosscoe" changeset="621649" lat="-27.53601" lon="150.234237">
    <tag k="created_by" v="JOSM"/>
    <tag k="highway" v="trunk"/>
    <tag k="name" v="Leichhardt Hwy"/>
    <tag k="surface" v="paved"/>
  </node>
  <node id="133096908" version="1" timestamp="2007-11-25T21:21:46Z" uid="4467" user="Rosscoe" changeset="621649" lat="-27.53587" lon="150.234202">
    <tag k="created_by" v="JOSM"/>
    <tag k="highway" v="trunk"/>
    <tag k="name" v="Leichhardt Hwy"/>
    <tag k="surface" v="paved"/>
  </node>
  <node id="133096937" version="1" timestamp="2007-11-25T21:21:47Z" uid="4467" user="Rosscoe" changeset="621649" lat="-27.535158" lon="150.23402">
    <tag k="created_by" v="JOSM"/>
    <tag k="highway" v="trunk"/>
    <tag k="name" v="Leichhardt Hwy"/>
    <tag k="surface" v="paved"/>
  </node>
  <node id="133096967" version="1" timestamp="2007-11-25T21:21:48Z" uid="4467" user="Rosscoe" changeset="621649" lat="-27.535007" lon="150.23398">
    <tag k="created_by" v="JOSM"/>
    <tag k="highway" v="trunk"/>
    <tag k="name" v="Leichhardt Hwy"/>
    <tag k="surface" v="paved"/>
  </node>
  <node id="133096998" version="1" timestamp="2007-11-25T21:21:48Z" uid="4467" user="Rosscoe" changeset="621649" lat="-27.535448" lon="150.234097">
    <tag k="created_by" v="JOSM"/>
    <tag k="highway" v="trunk"/>
    <tag k="name" v="Leichhardt Hwy"/>
    <tag k="surface" v="paved"/>
  </node>
  <node id="133097024" version="1" timestamp="2007-11-25T21:21:49Z" uid="4467" user="Rosscoe" changeset="621649" lat="-27.535303" lon="150.234058">
    <tag k="created_by" v="JOSM"/>
    <tag k="highway" v="trunk"/>
    <tag k="name" v="Leichhardt Hwy"/>
    <tag k="surface" v="paved"/>
  </node>
  <node id="133097043" version="1" timestamp="2007-11-25T21:21:50Z" uid="4467" user="Rosscoe" changeset="621649" lat="-27.539082" lon="150.234968">
    <tag k="created_by" v="JOSM"/>
    <tag k="highway" v="trunk"/>
    <tag k="name" v="Leichhardt Hwy"/>
    <tag k="surface" v="paved"/>
  </node>
  <node id="133097068" version="1" timestamp="2007-11-25T21:21:51Z" uid="4467" user="Rosscoe" changeset="621649" lat="-27.538933" lon="150.234938">
    <tag k="created_by" v="JOSM"/>
    <tag k="highway" v="trunk"/>
    <tag k="name" v="Leichhardt Hwy"/>
    <tag k="surface" v="paved"/>
  </node>
  <node id="133097100" version="1" timestamp="2007-11-25T21:21:52Z" uid="4467" user="Rosscoe" changeset="621649" lat="-27.539363" lon="150.235042">
    <tag k="created_by" v="JOSM"/>
    <tag k="highway" v="trunk"/>
    <tag k="name" v="Leichhardt Hwy"/>
    <tag k="surface" v="paved"/>
  </node>
  <node id="133097128" version="1" timestamp="2007-11-25T21:21:52Z" uid="4467" user="Rosscoe" changeset="621649" lat="-27.539215" lon="150.235007">
    <tag k="created_by" v="JOSM"/>
    <tag k="highway" v="trunk"/>
    <tag k="name" v="Leichhardt Hwy"/>
    <tag k="surface" v="paved"/>
  </node>
  <node id="133097147" version="1" timestamp="2007-11-25T21:21:53Z" uid="4467" user="Rosscoe" changeset="621649" lat="-27.538498" lon="150.234837">
    <tag k="created_by" v="JOSM"/>
    <tag k="highway" v="trunk"/>
    <tag k="name" v="Leichhardt Hwy"/>
    <tag k="surface" v="paved"/>
  </node>
  <node id="133097171" version="1" timestamp="2007-11-25T21:21:54Z" uid="4467" user="Rosscoe" changeset="621649" lat="-27.538355" lon="150.234802">
    <tag k="created_by" v="JOSM"/>
    <tag k="highway" v="trunk"/>
    <tag k="name" v="Leichhardt Hwy"/>
    <tag k="surface" v="paved"/>
  </node>
  <node id="133097202" version="1" timestamp="2007-11-25T21:21:55Z" uid="4467" user="Rosscoe" changeset="621649" lat="-27.538788" lon="150.234903">
    <tag k="created_by" v="JOSM"/>
    <tag k="highway" v="trunk"/>
    <tag k="name" v="Leichhardt Hwy"/>
    <tag k="surface" v="paved"/>
  </node>
  <node id="133097221" version="1" timestamp="2007-11-25T21:21:56Z" uid="4467" user="Rosscoe" changeset="621649" lat="-27.538643" lon="150.23487">
    <tag k="created_by" v="JOSM"/>
    <tag k="highway" v="trunk"/>
    <tag k="name" v="Leichhardt Hwy"/>
    <tag k="surface" v="paved"/>
  </node>
  <node id="133097249" version="1" timestamp="2007-11-25T21:21:56Z" uid="4467" user="Rosscoe" changeset="621649" lat="-27.537933" lon="150.234702">
    <tag k="created_by" v="JOSM"/>
    <tag k="highway" v="trunk"/>
    <tag k="name" v="Leichhardt Hwy"/>
    <tag k="surface" v="paved"/>
  </node>
  <node id="133097281" version="1" timestamp="2007-11-25T21:21:57Z" uid="4467" user="Rosscoe" changeset="621649" lat="-27.537793" lon="150.23467">
    <tag k="created_by" v="JOSM"/>
    <tag k="highway" v="trunk"/>
    <tag k="name" v="Leichhardt Hwy"/>
    <tag k="surface" v="paved"/>
  </node>
  <node id="133097301" version="1" timestamp="2007-11-25T21:21:58Z" uid="4467" user="Rosscoe" changeset="621649" lat="-27.538217" lon="150.234768">
    <tag k="created_by" v="JOSM"/>
    <tag k="highway" v="trunk"/>
    <tag k="name" v="Leichhardt Hwy"/>
    <tag k="surface" v="paved"/>
  </node>
  <node id="133097329" version="1" timestamp="2007-11-25T21:21:59Z" uid="4467" user="Rosscoe" changeset="621649" lat="-27.538075" lon="150.234735">
    <tag k="created_by" v="JOSM"/>
    <tag k="highway" v="trunk"/>
    <tag k="name" v="Leichhardt Hwy"/>
    <tag k="surface" v="paved"/>
  </node>
  <node id="133097351" version="1" timestamp="2007-11-25T21:22:00Z" uid="4467" user="Rosscoe" changeset="621649" lat="-27.537383" lon="150.234573">
    <tag k="created_by" v="JOSM"/>
    <tag k="highway" v="trunk"/>
    <tag k="name" v="Leichhardt Hwy"/>
    <tag k="surface" v="paved"/>
  </node>
  <node id="133097351" version="7" timestamp="2009-10-11T06:14:55Z" uid="74617" user="JohnSmith" changeset="2810296" lat="-27.537383" lon="150.234573"/>
  <node id="133097381" version="1" timestamp="2007-11-25T21:22:00Z" uid="4467" user="Rosscoe" changeset="621649" lat="-27.537247" lon="150.23454">
    <tag k="created_by" v="JOSM"/>
    <tag k="highway" v="trunk"/>
    <tag k="name" v="Leichhardt Hwy"/>
    <tag k="surface" v="paved"/>
  </node>
  <node id="133097404" version="1" timestamp="2007-11-25T21:22:01Z" uid="4467" user="Rosscoe" changeset="621649" lat="-27.537657" lon="150.234638">
    <tag k="created_by" v="JOSM"/>
    <tag k="highway" v="trunk"/>
    <tag k="name" v="Leichhardt Hwy"/>
    <tag k="surface" v="paved"/>
  </node>
  <node id="133097430" version="1" timestamp="2007-11-25T21:22:02Z" uid="4467" user="Rosscoe" changeset="621649" lat="-27.537518" lon="150.234605">
    <tag k="created_by" v="JOSM"/>
    <tag k="highway" v="trunk"/>
    <tag k="name" v="Leichhardt Hwy"/>
    <tag k="surface" v="paved"/>
  </node>
  <node id="133097449" version="1" timestamp="2007-11-25T21:22:03Z" uid="4467" user="Rosscoe" changeset="621649" lat="-27.541338" lon="150.235515">
    <tag k="created_by" v="JOSM"/>
    <tag k="highway" v="trunk"/>
    <tag k="name" v="Leichhardt Hwy"/>
    <tag k="surface" v="paved"/>
  </node>
  <node id="133097478" version="1" timestamp="2007-11-25T21:22:04Z" uid="4467" user="Rosscoe" changeset="621649" lat="-27.541208" lon="150.235483">
    <tag k="created_by" v="JOSM"/>
    <tag k="highway" v="trunk"/>
    <tag k="name" v="Leichhardt Hwy"/>
    <tag k="surface" v="paved"/>
  </node>
  <node id="133097503" version="1" timestamp="2007-11-25T21:22:04Z" uid="4467" user="Rosscoe" changeset="621649" lat="-27.541585" lon="150.235573">
    <tag k="created_by" v="JOSM"/>
    <tag k="highway" v="trunk"/>
    <tag k="name" v="Leichhardt Hwy"/>
    <tag k="surface" v="paved"/>
  </node>
  <node id="133097518" version="1" timestamp="2007-11-25T21:22:05Z" uid="4467" user="Rosscoe" changeset="621649" lat="-27.541465" lon="150.235545">
    <tag k="created_by" v="JOSM"/>
    <tag k="highway" v="trunk"/>
    <tag k="name" v="Leichhardt Hwy"/>
    <tag k="surface" v="paved"/>
  </node>
  <node id="133097545" version="1" timestamp="2007-11-25T21:22:06Z" uid="4467" user="Rosscoe" changeset="621649" lat="-27.5408" lon="150.235382">
    <tag k="created_by" v="JOSM"/>
    <tag k="highway" v="trunk"/>
    <tag k="name" v="Leichhardt Hwy"/>
    <tag k="surface" v="paved"/>
  </node>
  <node id="133097575" version="1" timestamp="2007-11-25T21:22:07Z" uid="4467" user="Rosscoe" changeset="621649" lat="-27.540662" lon="150.23535">
    <tag k="created_by" v="JOSM"/>
    <tag k="highway" v="trunk"/>
    <tag k="name" v="Leichhardt Hwy"/>
    <tag k="surface" v="paved"/>
  </node>
  <node id="133097599" version="1" timestamp="2007-11-25T21:22:08Z" uid="4467" user="Rosscoe" changeset="621649" lat="-27.541073" lon="150.235448">
    <tag k="created_by" v="JOSM"/>
    <tag k="highway" v="trunk"/>
    <tag k="name" v="Leichhardt Hwy"/>
    <tag k="surface" v="paved"/>
  </node>
  <node id="133097628" version="1" timestamp="2007-11-25T21:22:08Z" uid="4467" user="Rosscoe" changeset="621649" lat="-27.540937" lon="150.235413">
    <tag k="created_by" v="JOSM"/>
    <tag k="highway" v="trunk"/>
    <tag k="name" v="Leichhardt Hwy"/>
    <tag k="surface" v="paved"/>
  </node>
  <node id="133097653" version="1" timestamp="2007-11-25T21:22:09Z" uid="4467" user="Rosscoe" changeset="621649" lat="-27.540233" lon="150.235245">
    <tag k="created_by" v="JOSM"/>
    <tag k="highway" v="trunk"/>
    <tag k="name" v="Leichhardt Hwy"/>
    <tag k="surface" v="paved"/>
  </node>
  <node id="133097668" version="1" timestamp="2007-11-25T21:22:10Z" uid="4467" user="Rosscoe" changeset="621649" lat="-27.540087" lon="150.235208">
    <tag k="created_by" v="JOSM"/>
    <tag k="highway" v="trunk"/>
    <tag k="name" v="Leichhardt Hwy"/>
    <tag k="surface" v="paved"/>
  </node>
  <node id="133097682" version="1" timestamp="2007-11-25T21:22:11Z" uid="4467" user="Rosscoe" changeset="621649" lat="-27.540522" lon="150.235315">
    <tag k="created_by" v="JOSM"/>
    <tag k="highway" v="trunk"/>
    <tag k="name" v="Leichhardt Hwy"/>
    <tag k="surface" v="paved"/>
  </node>
  <node id="133097699" version="1" timestamp="2007-11-25T21:22:12Z" uid="4467" user="Rosscoe" changeset="621649" lat="-27.540378" lon="150.23528">
    <tag k="created_by" v="JOSM"/>
    <tag k="highway" v="trunk"/>
    <tag k="name" v="Leichhardt Hwy"/>
    <tag k="surface" v="paved"/>
  </node>
  <node id="133097727" version="1" timestamp="2007-11-25T21:22:12Z" uid="4467" user="Rosscoe" changeset="621649" lat="-27.539657" lon="150.23511">
    <tag k="created_by" v="JOSM"/>
    <tag k="highway" v="trunk"/>
    <tag k="name" v="Leichhardt Hwy"/>
    <tag k="surface" v="paved"/>
  </node>
  <node id="133097752" version="1" timestamp="2007-11-25T21:22:13Z" uid="4467" user="Rosscoe" changeset="621649" lat="-27.53951" lon="150.235075">
    <tag k="created_by" v="JOSM"/>
    <tag k="highway" v="trunk"/>
    <tag k="name" v="Leichhardt Hwy"/>
    <tag k="surface" v="paved"/>
  </node>
  <node id="133097773" version="1" timestamp="2007-11-25T21:22:14Z" uid="4467" user="Rosscoe" changeset="621649" lat="-27.539945" lon="150.235175">
    <tag k="created_by" v="JOSM"/>
    <tag k="highway" v="trunk"/>
    <tag k="name" v="Leichhardt Hwy"/>
    <tag k="surface" v="paved"/>
  </node>
  <node id="133097796" version="1" timestamp="2007-11-25T21:22:15Z" uid="4467" user="Rosscoe" changeset="621649" lat="-27.539802" lon="150.235142">
    <tag k="created_by" v="JOSM"/>
    <tag k="highway" v="trunk"/>
    <tag k="name" v="Leichhardt Hwy"/>
    <tag k="surface" v="paved"/>
  </node>
  <node id="133097821" version="1" timestamp="2007-11-25T21:22:16Z" uid="4467" user="Rosscoe" changeset="621649" lat="-27.543243" lon="150.23598">
    <tag k="created_by" v="JOSM"/>
    <tag k="highway" v="trunk"/>
    <tag k="name" v="Leichhardt Hwy"/>
    <tag k="surface" v="paved"/>
  </node>
  <node id="133097847" version="1" timestamp="2007-11-25T21:22:17Z" uid="4467" user="Rosscoe" changeset="621649" lat="-27.543113" lon="150.235948">
    <tag k="created_by" v="JOSM"/>
    <tag k="highway" v="trunk"/>
    <tag k="name" v="Leichhardt Hwy"/>
    <tag k="surface" v="paved"/>
  </node>
  <node id="133097872" version="1" timestamp="2007-11-25T21:22:17Z" uid="4467" user="Rosscoe" changeset="621649" lat="-27.543508" lon="150.236043">
    <tag k="created_by" v="JOSM"/>
    <tag k="highway" v="trunk"/>
    <tag k="name" v="Leichhardt Hwy"/>
    <tag k="surface" v="paved"/>
  </node>
  <node id="133097885" version="1" timestamp="2007-11-25T21:22:18Z" uid="4467" user="Rosscoe" changeset="621649" lat="-27.543375" lon="150.236012">
    <tag k="created_by" v="JOSM"/>
    <tag k="highway" v="trunk"/>
    <tag k="name" v="Leichhardt Hwy"/>
    <tag k="surface" v="paved"/>
  </node>
  <node id="133097908" version="1" timestamp="2007-11-25T21:22:19Z" uid="4467" user="Rosscoe" changeset="621649" lat="-27.542753" lon="150.235855">
    <tag k="created_by" v="JOSM"/>
    <tag k="highway" v="trunk"/>
    <tag k="name" v="Leichhardt Hwy"/>
    <tag k="surface" v="paved"/>
  </node>
  <node id="133097925" version="1" timestamp="2007-11-25T21:22:20Z" uid="4467" user="Rosscoe" changeset="621649" lat="-27.542637" lon="150.235825">
    <tag k="created_by" v="JOSM"/>
    <tag k="highway" v="trunk"/>
    <tag k="name" v="Leichhardt Hwy"/>
    <tag k="surface" v="paved"/>
  </node>
  <node id="133097954" version="1" timestamp="2007-11-25T21:22:21Z" uid="4467" user="Rosscoe" changeset="621649" lat="-27.542997" lon="150.235918">
    <tag k="created_by" v="JOSM"/>
    <tag k="highway" v="trunk"/>
    <tag k="name" v="Leichhardt Hwy"/>
    <tag k="surface" v="paved"/>
  </node>
  <node id="133097976" version="1" timestamp="2007-11-25T21:22:21Z" uid="4467" user="Rosscoe" changeset="621649" lat="-27.542873" lon="150.235887">
    <tag k="created_by" v="JOSM"/>
    <tag k="highway" v="trunk"/>
    <tag k="name" v="Leichhardt Hwy"/>
    <tag k="surface" v="paved"/>
  </node>
  <node id="133098000" version="1" timestamp="2007-11-25T21:22:22Z" uid="4467" user="Rosscoe" changeset="621649" lat="-27.542282" lon="150.23574">
    <tag k="created_by" v="JOSM"/>
    <tag k="highway" v="trunk"/>
    <tag k="name" v="Leichhardt Hwy"/>
    <tag k="surface" v="paved"/>
  </node>
  <node id="133098020" version="1" timestamp="2007-11-25T21:22:23Z" uid="4467" user="Rosscoe" changeset="621649" lat="-27.542163" lon="150.235713">
    <tag k="created_by" v="JOSM"/>
    <tag k="highway" v="trunk"/>
    <tag k="name" v="Leichhardt Hwy"/>
    <tag k="surface" v="paved"/>
  </node>
  <node id="133098045" version="1" timestamp="2007-11-25T21:22:24Z" uid="4467" user="Rosscoe" changeset="621649" lat="-27.542518" lon="150.235795">
    <tag k="created_by" v="JOSM"/>
    <tag k="highway" v="trunk"/>
    <tag k="name" v="Leichhardt Hwy"/>
    <tag k="surface" v="paved"/>
  </node>
  <node id="133098045" version="7" timestamp="2009-10-11T06:14:55Z" uid="74617" user="JohnSmith" changeset="2810296" lat="-27.542518" lon="150.235795"/>
  <node id="133098061" version="1" timestamp="2007-11-25T21:22:25Z" uid="4467" user="Rosscoe" changeset="621649" lat="-27.542398" lon="150.235767">
    <tag k="created_by" v="JOSM"/>
    <tag k="highway" v="trunk"/>
    <tag k="name" v="Leichhardt Hwy"/>
    <tag k="surface" v="paved"/>
  </node>
  <node id="133098092" version="1" timestamp="2007-11-25T21:22:25Z" uid="4467" user="Rosscoe" changeset="621649" lat="-27.541817" lon="150.23563">
    <tag k="created_by" v="JOSM"/>
    <tag k="highway" v="trunk"/>
    <tag k="name" v="Leichhardt Hwy"/>
    <tag k="surface" v="paved"/>
  </node>
  <node id="133098114" version="1" timestamp="2007-11-25T21:22:26Z" uid="4467" user="Rosscoe" changeset="621649" lat="-27.5417" lon="150.2356">
    <tag k="created_by" v="JOSM"/>
    <tag k="highway" v="trunk"/>
    <tag k="name" v="Leichhardt Hwy"/>
    <tag k="surface" v="paved"/>
  </node>
  <node id="133098137" version="1" timestamp="2007-11-25T21:22:27Z" uid="4467" user="Rosscoe" changeset="621649" lat="-27.542047" lon="150.235685">
    <tag k="created_by" v="JOSM"/>
    <tag k="highway" v="trunk"/>
    <tag k="name" v="Leichhardt Hwy"/>
    <tag k="surface" v="paved"/>
  </node>
  <node id="133098169" version="1" timestamp="2007-11-25T21:22:28Z" uid="4467" user="Rosscoe" changeset="621649" lat="-27.541933" lon="150.235658">
    <tag k="created_by" v="JOSM"/>
    <tag k="highway" v="trunk"/>
    <tag k="name" v="Leichhardt Hwy"/>
    <tag k="surface" v="paved"/>
  </node>
  <node id="133098193" version="1" timestamp="2007-11-25T21:22:29Z" uid="4467" user="Rosscoe" changeset="621649" lat="-27.545667" lon="150.236573">
    <tag k="created_by" v="JOSM"/>
    <tag k="highway" v="trunk"/>
    <tag k="name" v="Leichhardt Hwy"/>
    <tag k="surface" v="paved"/>
  </node>
  <node id="133098211" version="1" timestamp="2007-11-25T21:22:30Z" uid="4467" user="Rosscoe" changeset="621649" lat="-27.545472" lon="150.236525">
    <tag k="created_by" v="JOSM"/>
    <tag k="highway" v="trunk"/>
    <tag k="name" v="Leichhardt Hwy"/>
    <tag k="surface" v="paved"/>
  </node>
  <node id="133098242" version="1" timestamp="2007-11-25T21:22:30Z" uid="4467" user="Rosscoe" changeset="621649" lat="-27.546068" lon="150.23667">
    <tag k="created_by" v="JOSM"/>
    <tag k="highway" v="trunk"/>
    <tag k="name" v="Leichhardt Hwy"/>
    <tag k="surface" v="paved"/>
  </node>
  <node id="133098265" version="1" timestamp="2007-11-25T21:22:31Z" uid="4467" user="Rosscoe" changeset="621649" lat="-27.545863" lon="150.23662">
    <tag k="created_by" v="JOSM"/>
    <tag k="highway" v="trunk"/>
    <tag k="name" v="Leichhardt Hwy"/>
    <tag k="surface" v="paved"/>
  </node>
  <node id="133098294" version="1" timestamp="2007-11-25T21:22:32Z" uid="4467" user="Rosscoe" changeset="621649" lat="-27.544933" lon="150.236395">
    <tag k="created_by" v="JOSM"/>
    <tag k="highway" v="trunk"/>
    <tag k="name" v="Leichhardt Hwy"/>
    <tag k="surface" v="paved"/>
  </node>
  <node id="133098321" version="1" timestamp="2007-11-25T21:22:33Z" uid="4467" user="Rosscoe" changeset="621649" lat="-27.544772" lon="150.236353">
    <tag k="created_by" v="JOSM"/>
    <tag k="highway" v="trunk"/>
    <tag k="name" v="Leichhardt Hwy"/>
    <tag k="surface" v="paved"/>
  </node>
  <node id="133098339" version="1" timestamp="2007-11-25T21:22:34Z" uid="4467" user="Rosscoe" changeset="621649" lat="-27.545285" lon="150.236478">
    <tag k="created_by" v="JOSM"/>
    <tag k="highway" v="trunk"/>
    <tag k="name" v="Leichhardt Hwy"/>
    <tag k="surface" v="paved"/>
  </node>
  <node id="133098359" version="1" timestamp="2007-11-25T21:22:35Z" uid="4467" user="Rosscoe" changeset="621649" lat="-27.545105" lon="150.236437">
    <tag k="created_by" v="JOSM"/>
    <tag k="highway" v="trunk"/>
    <tag k="name" v="Leichhardt Hwy"/>
    <tag k="surface" v="paved"/>
  </node>
  <node id="133098377" version="1" timestamp="2007-11-25T21:22:35Z" uid="4467" user="Rosscoe" changeset="621649" lat="-27.544333" lon="150.236242">
    <tag k="created_by" v="JOSM"/>
    <tag k="highway" v="trunk"/>
    <tag k="name" v="Leichhardt Hwy"/>
    <tag k="surface" v="paved"/>
  </node>
  <node id="133098402" version="1" timestamp="2007-11-25T21:22:36Z" uid="4467" user="Rosscoe" changeset="621649" lat="-27.544195" lon="150.236207">
    <tag k="created_by" v="JOSM"/>
    <tag k="highway" v="trunk"/>
    <tag k="name" v="Leichhardt Hwy"/>
    <tag k="surface" v="paved"/>
  </node>
  <node id="133098430" version="1" timestamp="2007-11-25T21:22:37Z" uid="4467" user="Rosscoe" changeset="621649" lat="-27.544622" lon="150.236315">
    <tag k="created_by" v="JOSM"/>
    <tag k="highway" v="trunk"/>
    <tag k="name" v="Leichhardt Hwy"/>
    <tag k="surface" v="paved"/>
  </node>
  <node id="133098452" version="1" timestamp="2007-11-25T21:22:38Z" uid="4467" user="Rosscoe" changeset="621649" lat="-27.544475" lon="150.236278">
    <tag k="created_by" v="JOSM"/>
    <tag k="highway" v="trunk"/>
    <tag k="name" v="Leichhardt Hwy"/>
    <tag k="surface" v="paved"/>
  </node>
  <node id="133098472" version="1" timestamp="2007-11-25T21:22:39Z" uid="4467" user="Rosscoe" changeset="621649" lat="-27.543777" lon="150.236108">
    <tag k="created_by" v="JOSM"/>
    <tag k="highway" v="trunk"/>
    <tag k="name" v="Leichhardt Hwy"/>
    <tag k="surface" v="paved"/>
  </node>
  <node id="133098503" version="1" timestamp="2007-11-25T21:22:39Z" uid="4467" user="Rosscoe" changeset="621649" lat="-27.54364" lon="150.236075">
    <tag k="created_by" v="JOSM"/>
    <tag k="highway" v="trunk"/>
    <tag k="name" v="Leichhardt Hwy"/>
    <tag k="surface" v="paved"/>
  </node>
  <node id="133098531" version="1" timestamp="2007-11-25T21:22:40Z" uid="4467" user="Rosscoe" changeset="621649" lat="-27.544052" lon="150.236173">
    <tag k="created_by" v="JOSM"/>
    <tag k="highway" v="trunk"/>
    <tag k="name" v="Leichhardt Hwy"/>
    <tag k="surface" v="paved"/>
  </node>
  <node id="133098554" version="1" timestamp="2007-11-25T21:22:41Z" uid="4467" user="Rosscoe" changeset="621649" lat="-27.543912" lon="150.23614">
    <tag k="created_by" v="JOSM"/>
    <tag k="highway" v="trunk"/>
    <tag k="name" v="Leichhardt Hwy"/>
    <tag k="surface" v="paved"/>
  </node>
  <node id="133098574" version="1" timestamp="2007-11-25T21:22:42Z" uid="4467" user="Rosscoe" changeset="621649" lat="-27.549162" lon="150.237422">
    <tag k="created_by" v="JOSM"/>
    <tag k="highway" v="trunk"/>
    <tag k="name" v="Leichhardt Hwy"/>
    <tag k="surface" v="paved"/>
  </node>
  <node id="133098604" version="1" timestamp="2007-11-25T21:22:43Z" uid="4467" user="Rosscoe" changeset="621649" lat="-27.54893" lon="150.237367">
    <tag k="created_by" v="JOSM"/>
    <tag k="highway" v="trunk"/>
    <tag k="name" v="Leichhardt Hwy"/>
    <tag k="surface" v="paved"/>
  </node>
  <node id="133098630" version="1" timestamp="2007-11-25T21:22:43Z" uid="4467" user="Rosscoe" changeset="621649" lat="-27.549623" lon="150.237535">
    <tag k="created_by" v="JOSM"/>
    <tag k="highway" v="trunk"/>
    <tag k="name" v="Leichhardt Hwy"/>
    <tag k="surface" v="paved"/>
  </node>
  <node id="133098630" version="7" timestamp="2009-10-11T06:14:55Z" uid="74617" user="JohnSmith" changeset="2810296" lat="-27.549623" lon="150.237535"/>
  <node id="133098649" version="1" timestamp="2007-11-25T21:22:44Z" uid="4467" user="Rosscoe" changeset="621649" lat="-27.549392" lon="150.23748">
    <tag k="created_by" v="JOSM"/>
    <tag k="highway" v="trunk"/>
    <tag k="name" v="Leichhardt Hwy"/>
    <tag k="surface" v="paved"/>
  </node>
  <node id="133098676" version="1" timestamp="2007-11-25T21:22:45Z" uid="4467" user="Rosscoe" changeset="621649" lat="-27.548238" lon="150.237198">
    <tag k="created_by" v="JOSM"/>
    <tag k="highway" v="trunk"/>
    <tag k="name" v="Leichhardt Hwy"/>
    <tag k="surface" v="paved"/>
  </node>
  <node id="133098700" version="1" timestamp="2007-11-25T21:22:46Z" uid="4467" user="Rosscoe" changeset="621649" lat="-27.54801" lon="150.237145">
    <tag k="created_by" v="JOSM"/>
    <tag k="highway" v="trunk"/>
    <tag k="name" v="Leichhardt Hwy"/>
    <tag k="surface" v="paved"/>
  </node>
  <node id="133098726" version="1" timestamp="2007-11-25T21:22:47Z" uid="4467" user="Rosscoe" changeset="621649" lat="-27.548698" lon="150.237308">
    <tag k="created_by" v="JOSM"/>
    <tag k="highway" v="trunk"/>
    <tag k="name" v="Leichhardt Hwy"/>
    <tag k="surface" v="paved"/>
  </node>
  <node id="133098754" version="1" timestamp="2007-11-25T21:22:48Z" uid="4467" user="Rosscoe" changeset="621649" lat="-27.548462" lon="150.237252">
    <tag k="created_by" v="JOSM"/>
    <tag k="highway" v="trunk"/>
    <tag k="name" v="Leichhardt Hwy"/>
    <tag k="surface" v="paved"/>
  </node>
  <node id="133098777" version="1" timestamp="2007-11-25T21:22:48Z" uid="4467" user="Rosscoe" changeset="621649" lat="-27.547338" lon="150.236982">
    <tag k="created_by" v="JOSM"/>
    <tag k="highway" v="trunk"/>
    <tag k="name" v="Leichhardt Hwy"/>
    <tag k="surface" v="paved"/>
  </node>
  <node id="133098802" version="1" timestamp="2007-11-25T21:22:49Z" uid="4467" user="Rosscoe" changeset="621649" lat="-27.547123" lon="150.236928">
    <tag k="created_by" v="JOSM"/>
    <tag k="highway" v="trunk"/>
    <tag k="name" v="Leichhardt Hwy"/>
    <tag k="surface" v="paved"/>
  </node>
  <node id="133098822" version="1" timestamp="2007-11-25T21:22:50Z" uid="4467" user="Rosscoe" changeset="621649" lat="-27.54778" lon="150.23709">
    <tag k="created_by" v="JOSM"/>
    <tag k="highway" v="trunk"/>
    <tag k="name" v="Leichhardt Hwy"/>
    <tag k="surface" v="paved"/>
  </node>
  <node id="133098843" version="1" timestamp="2007-11-25T21:22:51Z" uid="4467" user="Rosscoe" changeset="621649" lat="-27.547558" lon="150.237035">
    <tag k="created_by" v="JOSM"/>
    <tag k="highway" v="trunk"/>
    <tag k="name" v="Leichhardt Hwy"/>
    <tag k="surface" v="paved"/>
  </node>
  <node id="133098860" version="1" timestamp="2007-11-25T21:22:52Z" uid="4467" user="Rosscoe" changeset="621649" lat="-27.546485" lon="150.236772">
    <tag k="created_by" v="JOSM"/>
    <tag k="highway" v="trunk"/>
    <tag k="name" v="Leichhardt Hwy"/>
    <tag k="surface" v="paved"/>
  </node>
  <node id="133098878" version="1" timestamp="2007-11-25T21:22:52Z" uid="4467" user="Rosscoe" changeset="621649" lat="-27.546273" lon="150.23672">
    <tag k="created_by" v="JOSM"/>
    <tag k="highway" v="trunk"/>
    <tag k="name" v="Leichhardt Hwy"/>
    <tag k="surface" v="paved"/>
  </node>
  <node id="133098893" version="1" timestamp="2007-11-25T21:22:53Z" uid="4467" user="Rosscoe" changeset="621649" lat="-27.54691" lon="150.236877">
    <tag k="created_by" v="JOSM"/>
    <tag k="highway" v="trunk"/>
    <tag k="name" v="Leichhardt Hwy"/>
    <tag k="surface" v="paved"/>
  </node>
  <node id="133098912" version="1" timestamp="2007-11-25T21:22:54Z" uid="4467" user="Rosscoe" changeset="621649" lat="-27.546697" lon="150.236823">
    <tag k="created_by" v="JOSM"/>
    <tag k="highway" v="trunk"/>
    <tag k="name" v="Leichhardt Hwy"/>
    <tag k="surface" v="paved"/>
  </node>
  <node id="133098924" version="1" timestamp="2007-11-25T21:22:55Z" uid="4467" user="Rosscoe" changeset="621649" lat="-27.55287" lon="150.23834">
    <tag k="created_by" v="JOSM"/>
    <tag k="highway" v="trunk"/>
    <tag k="name" v="Leichhardt Hwy"/>
    <tag k="surface" v="paved"/>
  </node>
  <node id="133098941" version="1" timestamp="2007-11-25T21:22:56Z" uid="4467" user="Rosscoe" changeset="621649" lat="-27.552642" lon="150.238282">
    <tag k="created_by" v="JOSM"/>
    <tag k="highway" v="trunk"/>
    <tag k="name" v="Leichhardt Hwy"/>
    <tag k="surface" v="paved"/>
  </node>
  <node id="133098957" version="1" timestamp="2007-11-25T21:22:57Z" uid="4467" user="Rosscoe" changeset="621649" lat="-27.553342" lon="150.238455">
    <tag k="created_by" v="JOSM"/>
    <tag k="highway" v="trunk"/>
    <tag k="name" v="Leichhardt Hwy"/>
    <tag k="surface" v="paved"/>
  </node>
  <node id="133098977" version="1" timestamp="2007-11-25T21:22:57Z" uid="4467" user="Rosscoe" changeset="621649" lat="-27.553105" lon="150.238397">
    <tag k="created_by" v="JOSM"/>
    <tag k="highway" v="trunk"/>
    <tag k="name" v="Leichhardt Hwy"/>
    <tag k="surface" v="paved"/>
  </node>
  <node id="133099003" version="1" timestamp="2007-11-25T21:22:58Z" uid="4467" user="Rosscoe" changeset="621649" lat="-27.551945" lon="150.238113">
    <tag k="created_by" v="JOSM"/>
    <tag k="highway" v="trunk"/>
    <tag k="name" v="Leichhardt Hwy"/>
    <tag k="surface" v="paved"/>
  </node>
  <node id="133099011" version="1" timestamp="2007-11-25T21:22:59Z" uid="4467" user="Rosscoe" changeset="621649" lat="-27.551712" lon="150.238055">
    <tag k="created_by" v="JOSM"/>
    <tag k="highway" v="trunk"/>
    <tag k="name" v="Leichhardt Hwy"/>
    <tag k="surface" v="paved"/>
  </node>
  <node id="133099035" version="1" timestamp="2007-11-25T21:23:00Z" uid="4467" user="Rosscoe" changeset="621649" lat="-27.55241" lon="150.238227">
    <tag k="created_by" v="JOSM"/>
    <tag k="highway" v="trunk"/>
    <tag k="name" v="Leichhardt Hwy"/>
    <tag k="surface" v="paved"/>
  </node>
  <node id="133099050" version="1" timestamp="2007-11-25T21:23:01Z" uid="4467" user="Rosscoe" changeset="621649" lat="-27.552178" lon="150.23817">
    <tag k="created_by" v="JOSM"/>
    <tag k="highway" v="trunk"/>
    <tag k="name" v="Leichhardt Hwy"/>
    <tag k="surface" v="paved"/>
  </node>
  <node id="133099064" version="1" timestamp="2007-11-25T21:23:01Z" uid="4467" user="Rosscoe" changeset="621649" lat="-27.551012" lon="150.237882">
    <tag k="created_by" v="JOSM"/>
    <tag k="highway" v="trunk"/>
    <tag k="name" v="Leichhardt Hwy"/>
    <tag k="surface" v="paved"/>
  </node>
  <node id="133099082" version="1" timestamp="2007-11-25T21:23:02Z" uid="4467" user="Rosscoe" changeset="621649" lat="-27.550782" lon="150.237823">
    <tag k="created_by" v="JOSM"/>
    <tag k="highway" v="trunk"/>
    <tag k="name" v="Leichhardt Hwy"/>
    <tag k="surface" v="paved"/>
  </node>
  <node id="133099096" version="1" timestamp="2007-11-25T21:23:03Z" uid="4467" user="Rosscoe" changeset="621649" lat="-27.551477" lon="150.237997">
    <tag k="created_by" v="JOSM"/>
    <tag k="highway" v="trunk"/>
    <tag k="name" v="Leichhardt Hwy"/>
    <tag k="surface" v="paved"/>
  </node>
  <node id="133099116" version="1" timestamp="2007-11-25T21:23:04Z" uid="4467" user="Rosscoe" changeset="621649" lat="-27.551242" lon="150.237938">
    <tag k="created_by" v="JOSM"/>
    <tag k="highway" v="trunk"/>
    <tag k="name" v="Leichhardt Hwy"/>
    <tag k="surface" v="paved"/>
  </node>
  <node id="133099132" version="1" timestamp="2007-11-25T21:23:05Z" uid="4467" user="Rosscoe" changeset="621649" lat="-27.550085" lon="150.237652">
    <tag k="created_by" v="JOSM"/>
    <tag k="highway" v="trunk"/>
    <tag k="name" v="Leichhardt Hwy"/>
    <tag k="surface" v="paved"/>
  </node>
  <node id="133099149" version="1" timestamp="2007-11-25T21:23:05Z" uid="4467" user="Rosscoe" changeset="621649" lat="-27.549852" lon="150.237592">
    <tag k="created_by" v="JOSM"/>
    <tag k="highway" v="trunk"/>
    <tag k="name" v="Leichhardt Hwy"/>
    <tag k="surface" v="paved"/>
  </node>
  <node id="133099167" version="1" timestamp="2007-11-25T21:23:06Z" uid="4467" user="Rosscoe" changeset="621649" lat="-27.55055" lon="150.237767">
    <tag k="created_by" v="JOSM"/>
    <tag k="highway" v="trunk"/>
    <tag k="name" v="Leichhardt Hwy"/>
    <tag k="surface" v="paved"/>
  </node>
  <node id="133099183" version="1" timestamp="2007-11-25T21:23:07Z" uid="4467" user="Rosscoe" changeset="621649" lat="-27.55032" lon="150.237708">
    <tag k="created_by" v="JOSM"/>
    <tag k="highway" v="trunk"/>
    <tag k="name" v="Leichhardt Hwy"/>
    <tag k="surface" v="paved"/>
  </node>
  <node id="133099201" version="1" timestamp="2007-11-25T21:23:08Z" uid="4467" user="Rosscoe" changeset="621649" lat="-27.55681" lon="150.239302">
    <tag k="created_by" v="JOSM"/>
    <tag k="highway" v="trunk"/>
    <tag k="name" v="Leichhardt Hwy"/>
    <tag k="surface" v="paved"/>
  </node>
  <node id="133099225" version="1" timestamp="2007-11-25T21:23:09Z" uid="4467" user="Rosscoe" changeset="621649" lat="-27.556557" lon="150.23924">
    <tag k="created_by" v="JOSM"/>
    <tag k="highway" v="trunk"/>
    <tag k="name" v="Leichhardt Hwy"/>
    <tag k="surface" v="paved"/>
  </node>
  <node id="133099244" version="1" timestamp="2007-11-25T21:23:09Z" uid="4467" user="Rosscoe" changeset="621649" lat="-27.55732" lon="150.23943">
    <tag k="created_by" v="JOSM"/>
    <tag k="highway" v="trunk"/>
    <tag k="name" v="Leichhardt Hwy"/>
    <tag k="surface" v="paved"/>
  </node>
  <node id="133099257" version="1" timestamp="2007-11-25T21:23:10Z" uid="4467" user="Rosscoe" changeset="621649" lat="-27.557062" lon="150.239365">
    <tag k="created_by" v="JOSM"/>
    <tag k="highway" v="trunk"/>
    <tag k="name" v="Leichhardt Hwy"/>
    <tag k="surface" v="paved"/>
  </node>
  <node id="133099273" version="1" timestamp="2007-11-25T21:23:11Z" uid="4467" user="Rosscoe" changeset="621649" lat="-27.555798" lon="150.239052">
    <tag k="created_by" v="JOSM"/>
    <tag k="highway" v="trunk"/>
    <tag k="name" v="Leichhardt Hwy"/>
    <tag k="surface" v="paved"/>
  </node>
  <node id="133099288" version="1" timestamp="2007-11-25T21:23:12Z" uid="4467" user="Rosscoe" changeset="621649" lat="-27.555545" lon="150.238992">
    <tag k="created_by" v="JOSM"/>
    <tag k="highway" v="trunk"/>
    <tag k="name" v="Leichhardt Hwy"/>
    <tag k="surface" v="paved"/>
  </node>
  <node id="133099308" version="1" timestamp="2007-11-25T21:23:13Z" uid="4467" user="Rosscoe" changeset="621649" lat="-27.556303" lon="150.239177">
    <tag k="created_by" v="JOSM"/>
    <tag k="highway" v="trunk"/>
    <tag k="name" v="Leichhardt Hwy"/>
    <tag k="surface" v="paved"/>
  </node>
  <node id="133099326" version="1" timestamp="2007-11-25T21:23:13Z" uid="4467" user="Rosscoe" changeset="621649" lat="-27.55605" lon="150.239115">
    <tag k="created_by" v="JOSM"/>
    <tag k="highway" v="trunk"/>
    <tag k="name" v="Leichhardt Hwy"/>
    <tag k="surface" v="paved"/>
  </node>
  <node id="133099341" version="1" timestamp="2007-11-25T21:23:14Z" uid="4467" user="Rosscoe" changeset="621649" lat="-27.5548" lon="150.238812">
    <tag k="created_by" v="JOSM"/>
    <tag k="highway" v="trunk"/>
    <tag k="name" v="Leichhardt Hwy"/>
    <tag k="surface" v="paved"/>
  </node>
  <node id="133099359" version="1" timestamp="2007-11-25T21:23:15Z" uid="4467" user="Rosscoe" changeset="621649" lat="-27.554552" lon="150.238752">
    <tag k="created_by" v="JOSM"/>
    <tag k="highway" v="trunk"/>
    <tag k="name" v="Leichhardt Hwy"/>
    <tag k="surface" v="paved"/>
  </node>
  <node id="133099377" version="1" timestamp="2007-11-25T21:23:16Z" uid="4467" user="Rosscoe" changeset="621649" lat="-27.555297" lon="150.238932">
    <tag k="created_by" v="JOSM"/>
    <tag k="highway" v="trunk"/>
    <tag k="name" v="Leichhardt Hwy"/>
    <tag k="surface" v="paved"/>
  </node>
  <node id="133099395" version="1" timestamp="2007-11-25T21:23:17Z" uid="4467" user="Rosscoe" changeset="621649" lat="-27.555048" lon="150.238872">
    <tag k="created_by" v="JOSM"/>
    <tag k="highway" v="trunk"/>
    <tag k="name" v="Leichhardt Hwy"/>
    <tag k="surface" v="paved"/>
  </node>
  <node id="133099410" version="1" timestamp="2007-11-25T21:23:17Z" uid="4467" user="Rosscoe" changeset="621649" lat="-27.55382" lon="150.238572">
    <tag k="created_by" v="JOSM"/>
    <tag k="highway" v="trunk"/>
    <tag k="name" v="Leichhardt Hwy"/>
    <tag k="surface" v="paved"/>
  </node>
  <node id="133099420" version="1" timestamp="2007-11-25T21:23:18Z" uid="4467" user="Rosscoe" changeset="621649" lat="-27.55358" lon="150.238513">
    <tag k="created_by" v="JOSM"/>
    <tag k="highway" v="trunk"/>
    <tag k="name" v="Leichhardt Hwy"/>
    <tag k="surface" v="paved"/>
  </node>
  <node id="133099430" version="1" timestamp="2007-11-25T21:23:19Z" uid="4467" user="Rosscoe" changeset="621649" lat="-27.554305" lon="150.238692">
    <tag k="created_by" v="JOSM"/>
    <tag k="highway" v="trunk"/>
    <tag k="name" v="Leichhardt Hwy"/>
    <tag k="surface" v="paved"/>
  </node>
  <node id="133099450" version="1" timestamp="2007-11-25T21:23:20Z" uid="4467" user="Rosscoe" changeset="621649" lat="-27.554058" lon="150.23863">
    <tag k="created_by" v="JOSM"/>
    <tag k="highway" v="trunk"/>
    <tag k="name" v="Leichhardt Hwy"/>
    <tag k="surface" v="paved"/>
  </node>
  <node id="133099459" version="1" timestamp="2007-11-25T21:23:21Z" uid="4467" user="Rosscoe" changeset="621649" lat="-27.5612" lon="150.240373">
    <tag k="created_by" v="JOSM"/>
    <tag k="highway" v="trunk"/>
    <tag k="name" v="Leichhardt Hwy"/>
    <tag k="surface" v="paved"/>
  </node>
  <node id="133099476" version="1" timestamp="2007-11-25T21:23:21Z" uid="4467" user="Rosscoe" changeset="621649" lat="-27.561465" lon="150.240438">
    <tag k="created_by" v="JOSM"/>
    <tag k="highway" v="trunk"/>
    <tag k="name" v="Leichhardt Hwy"/>
    <tag k="surface" v="paved"/>
  </node>
  <node id="133099484" version="1" timestamp="2007-11-25T21:23:22Z" uid="4467" user="Rosscoe" changeset="621649" lat="-27.560678" lon="150.240247">
    <tag k="created_by" v="JOSM"/>
    <tag k="highway" v="trunk"/>
    <tag k="name" v="Leichhardt Hwy"/>
    <tag k="surface" v="paved"/>
  </node>
  <node id="133099499" version="1" timestamp="2007-11-25T21:23:23Z" uid="4467" user="Rosscoe" changeset="621649" lat="-27.56094" lon="150.24031">
    <tag k="created_by" v="JOSM"/>
    <tag k="highway" v="trunk"/>
    <tag k="name" v="Leichhardt Hwy"/>
    <tag k="surface" v="paved"/>
  </node>
  <node id="133099516" version="1" timestamp="2007-11-25T21:23:24Z" uid="4467" user="Rosscoe" changeset="621649" lat="-27.560153" lon="150.24012">
    <tag k="created_by" v="JOSM"/>
    <tag k="highway" v="trunk"/>
    <tag k="name" v="Leichhardt Hwy"/>
    <tag k="surface" v="paved"/>
  </node>
  <node id="133099538" version="1" timestamp="2007-11-25T21:23:24Z" uid="4467" user="Rosscoe" changeset="621649" lat="-27.560418" lon="150.240183">
    <tag k="created_by" v="JOSM"/>
    <tag k="highway" v="trunk"/>
    <tag k="name" v="Leichhardt Hwy"/>
    <tag k="surface" v="paved"/>
  </node>
  <node id="133099559" version="1" timestamp="2007-11-25T21:23:25Z" uid="4467" user="Rosscoe" changeset="621649" lat="-27.559897" lon="150.240058">
    <tag k="created_by" v="JOSM"/>
    <tag k="highway" v="trunk"/>
    <tag k="name" v="Leichhardt Hwy"/>
    <tag k="surface" v="paved"/>
  </node>
  <node id="133099579" version="1" timestamp="2007-11-25T21:23:26Z" uid="4467" user="Rosscoe" changeset="621649" lat="-27.559897" lon="150.240058">
    <tag k="created_by" v="JOSM"/>
    <tag k="highway" v="trunk"/>
    <tag k="name" v="Leichhardt Hwy"/>
    <tag k="surface" v="paved"/>
  </node>
  <node id="133099593" version="1" timestamp="2007-11-25T21:23:27Z" uid="4467" user="Rosscoe" changeset="621649" lat="-27.55912" lon="150.239872">
    <tag k="created_by" v="JOSM"/>
    <tag k="highway" v="trunk"/>
    <tag k="name" v="Leichhardt Hwy"/>
    <tag k="surface" v="paved"/>
  </node>
  <node id="133099621" version="1" timestamp="2007-11-25T21:23:28Z" uid="4467" user="Rosscoe" changeset="621649" lat="-27.55938" lon="150.239933">
    <tag k="created_by" v="JOSM"/>
    <tag k="highway" v="trunk"/>
    <tag k="name" v="Leichhardt Hwy"/>
    <tag k="surface" v="paved"/>
  </node>
  <node id="133099643" version="1" timestamp="2007-11-25T21:23:28Z" uid="4467" user="Rosscoe" changeset="621649" lat="-27.558602" lon="150.239745">
    <tag k="created_by" v="JOSM"/>
    <tag k="highway" v="trunk"/>
    <tag k="name" v="Leichhardt Hwy"/>
    <tag k="surface" v="paved"/>
  </node>
  <node id="133099667" version="1" timestamp="2007-11-25T21:23:29Z" uid="4467" user="Rosscoe" changeset="621649" lat="-27.55886" lon="150.239808">
    <tag k="created_by" v="JOSM"/>
    <tag k="highway" v="trunk"/>
    <tag k="name" v="Leichhardt Hwy"/>
    <tag k="surface" v="paved"/>
  </node>
  <node id="133099694" version="1" timestamp="2007-11-25T21:23:30Z" uid="4467" user="Rosscoe" changeset="621649" lat="-27.558088" lon="150.23962">
    <tag k="created_by" v="JOSM"/>
    <tag k="highway" v="trunk"/>
    <tag k="name" v="Leichhardt Hwy"/>
    <tag k="surface" v="paved"/>
  </node>
  <node id="133099714" version="1" timestamp="2007-11-25T21:23:31Z" uid="4467" user="Rosscoe" changeset="621649" lat="-27.558347" lon="150.239683">
    <tag k="created_by" v="JOSM"/>
    <tag k="highway" v="trunk"/>
    <tag k="name" v="Leichhardt Hwy"/>
    <tag k="surface" v="paved"/>
  </node>
  <node id="133099733" version="1" timestamp="2007-11-25T21:23:32Z" uid="4467" user="Rosscoe" changeset="621649" lat="-27.557578" lon="150.239493">
    <tag k="created_by" v="JOSM"/>
    <tag k="highway" v="trunk"/>
    <tag k="name" v="Leichhardt Hwy"/>
    <tag k="surface" v="paved"/>
  </node>
  <node id="133099755" version="1" timestamp="2007-11-25T21:23:32Z" uid="4467" user="Rosscoe" changeset="621649" lat="-27.557832" lon="150.239557">
    <tag k="created_by" v="JOSM"/>
    <tag k="highway" v="trunk"/>
    <tag k="name" v="Leichhardt Hwy"/>
    <tag k="surface" v="paved"/>
  </node>
  <node id="133099782" version="1" timestamp="2007-11-25T21:23:33Z" uid="4467" user="Rosscoe" changeset="621649" lat="-27.564972" lon="150.241317">
    <tag k="created_by" v="JOSM"/>
    <tag k="highway" v="trunk"/>
    <tag k="name" v="Leichhardt Hwy"/>
    <tag k="surface" v="paved"/>
  </node>
  <node id="133099809" version="1" timestamp="2007-11-25T21:23:34Z" uid="4467" user="Rosscoe" changeset="621649" lat="-27.565182" lon="150.241382">
    <tag k="created_by" v="JOSM"/>
    <tag k="highway" v="trunk"/>
    <tag k="name" v="Leichhardt Hwy"/>
    <tag k="surface" v="paved"/>
  </node>
  <node id="133099834" version="1" timestamp="2007-11-25T21:23:35Z" uid="4467" user="Rosscoe" changeset="621649" lat="-27.564537" lon="150.241198">
    <tag k="created_by" v="JOSM"/>
    <tag k="highway" v="trunk"/>
    <tag k="name" v="Leichhardt Hwy"/>
    <tag k="surface" v="paved"/>
  </node>
  <node id="133099868" version="1" timestamp="2007-11-25T21:23:35Z" uid="4467" user="Rosscoe" changeset="621649" lat="-27.564755" lon="150.241255">
    <tag k="created_by" v="JOSM"/>
    <tag k="highway" v="trunk"/>
    <tag k="name" v="Leichhardt Hwy"/>
    <tag k="surface" v="paved"/>
  </node>
  <node id="133099868" version="7" timestamp="2009-10-11T06:14:56Z" uid="74617" user="JohnSmith" changeset="2810296" lat="-27.564755" lon="150.241255"/>
  <node id="133099889" version="1" timestamp="2007-11-25T21:23:36Z" uid="4467" user="Rosscoe" changeset="621649" lat="-27.56432" lon="150.241143">
    <tag k="created_by" v="JOSM"/>
    <tag k="highway" v="trunk"/>
    <tag k="name" v="Leichhardt Hwy"/>
    <tag k="surface" v="paved"/>
  </node>
  <node id="133099911" version="1" timestamp="2007-11-25T21:23:37Z" uid="4467" user="Rosscoe" changeset="621649" lat="-27.56432" lon="150.241143">
    <tag k="created_by" v="JOSM"/>
    <tag k="highway" v="trunk"/>
    <tag k="name" v="Leichhardt Hwy"/>
    <tag k="surface" v="paved"/>
  </node>
  <node id="133099919" version="1" timestamp="2007-11-25T21:23:38Z" uid="4467" user="Rosscoe" changeset="621649" lat="-27.563652" lon="150.240975">
    <tag k="created_by" v="JOSM"/>
    <tag k="highway" v="trunk"/>
    <tag k="name" v="Leichhardt Hwy"/>
    <tag k="surface" v="paved"/>
  </node>
  <node id="133099936" version="1" timestamp="2007-11-25T21:23:39Z" uid="4467" user="Rosscoe" changeset="621649" lat="-27.563875" lon="150.24103">
    <tag k="created_by" v="JOSM"/>
    <tag k="highway" v="trunk"/>
    <tag k="name" v="Leichhardt Hwy"/>
    <tag k="surface" v="paved"/>
  </node>
  <node id="133099950" version="1" timestamp="2007-11-25T21:23:39Z" uid="4467" user="Rosscoe" changeset="621649" lat="-27.563192" lon="150.240862">
    <tag k="created_by" v="JOSM"/>
    <tag k="highway" v="trunk"/>
    <tag k="name" v="Leichhardt Hwy"/>
    <tag k="surface" v="paved"/>
  </node>
  <node id="133099968" version="1" timestamp="2007-11-25T21:23:40Z" uid="4467" user="Rosscoe" changeset="621649" lat="-27.563425" lon="150.240918">
    <tag k="created_by" v="JOSM"/>
    <tag k="highway" v="trunk"/>
    <tag k="name" v="Leichhardt Hwy"/>
    <tag k="surface" v="paved"/>
  </node>
  <node id="133099984" version="1" timestamp="2007-11-25T21:23:41Z" uid="4467" user="Rosscoe" changeset="621649" lat="-27.56296" lon="150.240805">
    <tag k="created_by" v="JOSM"/>
    <tag k="highway" v="trunk"/>
    <tag k="name" v="Leichhardt Hwy"/>
    <tag k="surface" v="paved"/>
  </node>
</osm>
