<?xml version='1.0' encoding='UTF-8'?>
<osm version="0.6" generator="libosmium/2.20.0">
  <node id="133370019" version="1" timestamp="2007-11-25T23:44:00Z" uid="4467" user="Rosscoe" changeset="621649" lat="-31.499797" lon="145.849248">
    <tag k="created_by" v="JOSM"/>
    <tag k="highway" v="trunk"/>
    <tag k="name" v="Barrier Hwy"/>
    <tag k="surface" v="paved"/>
  </node>
  <node id="133370019" version="2" timestamp="2007-12-09T09:44:57Z" uid="4467" user="Rosscoe" changeset="198487" lat="-31.499797" lon="145.849248">
    <tag k="created_by" v="JOSM"/>
    <tag k="highway" v="trunk"/>
    <tag k="name" v="Barrier Hwy"/>
    <tag k="surface" v="paved"/>
  </node>
  <node id="133370046" version="1" timestamp="2007-11-25T23:44:01Z" uid="4467" user="Rosscoe" changeset="621649" lat="-31.498707" lon="145.844822">
    <tag k="created_by" v="JOSM"/>
    <tag k="highway" v="trunk"/>
    <tag k="name" v="Barrier Hwy"/>
    <tag k="surface" v="paved"/>
  </node>
  <node id="133370046" version="2" timestamp="2007-12-09T09:44:55Z" uid="4467" user="Rosscoe" changeset="198487" lat="-31.498707" lon="145.844822">
    <tag k="created_by" v="JOSM"/>
    <tag k="highway" v="trunk"/>
    <tag k="name" v="Barrier Hwy"/>
    <tag k="surface" v="paved"/>
  </node>
  <node id="133370066" version="1" timestamp="2007-11-25T23:44:01Z" uid="4467" user="Rosscoe" changeset="621649" lat="-31.498775" lon="145.844942">
    <tag k="created_by" v="JOSM"/>
    <tag k="highway" v="trunk"/>
    <tag k="name" v="Barrier Hwy"/>
    <tag k="surface" v="paved"/>
  </node>
  <node id="133370066" version="2" timestamp="2007-12-09T09:45:04Z" uid="4467" user="Rosscoe" changeset="198487" lat="-31.498775" lon="145.844942">
    <tag k="created_by" v="JOSM"/>
    <tag k="highway" v="trunk"/>
    <tag k="name" v="Barrier Hwy"/>
    <tag k="surface" v="paved"/>
  </node>
  <node id="133370091" version="1" timestamp="2007-11-25T23:44:02Z" uid="4467" user="Rosscoe" changeset="621649" lat="-31.498842" lon="145.845062">
    <tag k="created_by" v="JOSM"/>
    <tag k="highway" v="trunk"/>
    <tag k="name" v="Barrier Hwy"/>
    <tag k="surface" v="paved"/>
  </node>
  <node id="133370091" version="2" timestamp="2007-12-09T09:45:24Z" uid="4467" user="Rosscoe" changeset="198487" lat="-31.498842" lon="145.845062">
    <tag k="created_by" v="JOSM"/>
    <tag k="highway" v="trunk"/>
    <tag k="name" v="Barrier Hwy"/>
    <tag k="surface" v="paved"/>
  </node>
  <node id="133370119" version="1" timestamp="2007-11-25T23:44:03Z" uid="4467" user="Rosscoe" changeset="621649" lat="-31.498903" lon="145.845178">
    <tag k="created_by" v="JOSM"/>
    <tag k="highway" v="trunk"/>
    <tag k="name" v="Barrier Hwy"/>
    <tag k="surface" v="paved"/>
  </node>
  <node id="133370119" version="2" timestamp="2007-12-09T09:47:09Z" uid="4467" user="Rosscoe" changeset="198487" lat="-31.498903" lon="145.845178">
    <tag k="created_by" v="JOSM"/>
    <tag k="highway" v="trunk"/>
    <tag k="name" v="Barrier Hwy"/>
    <tag k="surface" v="paved"/>
  </node>
  <node id="133370146" version="1" timestamp="2007-11-25T23:44:04Z" uid="4467" user="Rosscoe" changeset="621649" lat="-31.498963" lon="145.845298">
    <tag k="created_by" v="JOSM"/>
    <tag k="highway" v="trunk"/>
    <tag k="name" v="Barrier Hwy"/>
    <tag k="surface" v="paved"/>
  </node>
  <node id="133370146" version="2" timestamp="2007-12-09T09:44:21Z" uid="4467" user="Rosscoe" changeset="198487" lat="-31.498963" lon="145.845298">
    <tag k="created_by" v="JOSM"/>
  </node>
  <node id="133370146" version="3" timestamp="2008-03-26T10:44:04Z" uid="18775" user="drlizau" changeset="399039" lat="-31.4988605" lon="145.8452048">
    <tag k="created_by" v="JOSM"/>
  </node>
  <node id="133370164" version="1" timestamp="2007-11-25T23:44:05Z" uid="4467" user="Rosscoe" changeset="621649" lat="-31.499022" lon="145.84542">
    <tag k="created_by" v="JOSM"/>
    <tag k="highway" v="trunk"/>
    <tag k="name" v="Barrier Hwy"/>
    <tag k="surface" v="paved"/>
  </node>
  <node id="133370164" version="2" timestamp="2007-12-09T09:47:29Z" uid="4467" user="Rosscoe" changeset="198487" lat="-31.499022" lon="145.84542">
    <tag k="created_by" v="JOSM"/>
    <tag k="highway" v="trunk"/>
    <tag k="name" v="Barrier Hwy"/>
    <tag k="surface" v="paved"/>
  </node>
  <node id="133370190" version="1" timestamp="2007-11-25T23:44:05Z" uid="4467" user="Rosscoe" changeset="621649" lat="-31.499077" lon="145.845542">
    <tag k="created_by" v="JOSM"/>
    <tag k="highway" v="trunk"/>
    <tag k="name" v="Barrier Hwy"/>
    <tag k="surface" v="paved"/>
  </node>
  <node id="133370190" version="2" timestamp="2007-12-09T09:47:29Z" uid="4467" user="Rosscoe" changeset="198487" lat="-31.499077" lon="145.845542">
    <tag k="created_by" v="JOSM"/>
    <tag k="highway" v="trunk"/>
    <tag k="name" v="Barrier Hwy"/>
    <tag k="surface" v="paved"/>
  </node>
  <node id="133370213" version="1" timestamp="2007-11-25T23:44:06Z" uid="4467" user="Rosscoe" changeset="621649" lat="-31.499132" lon="145.845668">
    <tag k="created_by" v="JOSM"/>
    <tag k="highway" v="trunk"/>
    <tag k="name" v="Barrier Hwy"/>
    <tag k="surface" v="paved"/>
  </node>
  <node id="133370213" version="2" timestamp="2007-12-09T09:44:19Z" uid="4467" user="Rosscoe" changeset="198487" lat="-31.499132" lon="145.845668">
    <tag k="created_by" v="JOSM"/>
  </node>
  <node id="133370213" version="3" timestamp="2008-02-03T06:05:29Z" uid="18775" user="drlizau" changeset="28133" lat="-31.499132" lon="145.845668">
    <tag k="created_by" v="JOSM"/>
  </node>
  <node id="133370236" version="1" timestamp="2007-11-25T23:44:07Z" uid="4467" user="Rosscoe" changeset="621649" lat="-31.499185" lon="145.845797">
    <tag k="created_by" v="JOSM"/>
    <tag k="highway" v="trunk"/>
    <tag k="name" v="Barrier Hwy"/>
    <tag k="surface" v="paved"/>
  </node>
  <node id="133370236" version="2" timestamp="2007-12-09T09:47:44Z" uid="4467" user="Rosscoe" changeset="198487" lat="-31.499185" lon="145.845797">
    <tag k="created_by" v="JOSM"/>
    <tag k="highway" v="trunk"/>
    <tag k="name" v="Barrier Hwy"/>
    <tag k="surface" v="paved"/>
  </node>
  <node id="133370263" version="1" timestamp="2007-11-25T23:44:08Z" uid="4467" user="Rosscoe" changeset="621649" lat="-31.499233" lon="145.845923">
    <tag k="created_by" v="JOSM"/>
    <tag k="highway" v="trunk"/>
    <tag k="name" v="Barrier Hwy"/>
    <tag k="surface" v="paved"/>
  </node>
  <node id="133370263" version="2" timestamp="2007-12-09T09:46:21Z" uid="4467" user="Rosscoe" changeset="198487" lat="-31.499233" lon="145.845923">
    <tag k="created_by" v="JOSM"/>
    <tag k="highway" v="trunk"/>
    <tag k="name" v="Barrier Hwy"/>
    <tag k="surface" v="paved"/>
  </node>
  <node id="133370281" version="1" timestamp="2007-11-25T23:44:09Z" uid="4467" user="Rosscoe" changeset="621649" lat="-31.499282" lon="145.846053">
    <tag k="created_by" v="JOSM"/>
    <tag k="highway" v="trunk"/>
    <tag k="name" v="Barrier Hwy"/>
    <tag k="surface" v="paved"/>
  </node>
  <node id="133370281" version="2" timestamp="2007-12-09T09:44:23Z" uid="4467" user="Rosscoe" changeset="198487" lat="-31.499282" lon="145.846053">
    <tag k="created_by" v="JOSM"/>
  </node>
  <node id="133370295" version="1" timestamp="2007-11-25T23:44:10Z" uid="4467" user="Rosscoe" changeset="621649" lat="-31.499327" lon="145.846185">
    <tag k="created_by" v="JOSM"/>
    <tag k="highway" v="trunk"/>
    <tag k="name" v="Barrier Hwy"/>
    <tag k="surface" v="paved"/>
  </node>
  <node id="133370295" version="2" timestamp="2007-12-09T09:46:33Z" uid="4467" user="Rosscoe" changeset="198487" lat="-31.499327" lon="145.846185">
    <tag k="created_by" v="JOSM"/>
    <tag k="highway" v="trunk"/>
    <tag k="name" v="Barrier Hwy"/>
    <tag k="surface" v="paved"/>
  </node>
  <node id="133370318" version="1" timestamp="2007-11-25T23:44:10Z" uid="4467" user="Rosscoe" changeset="621649" lat="-31.499368" lon="145.846317">
    <tag k="created_by" v="JOSM"/>
    <tag k="highway" v="trunk"/>
    <tag k="name" v="Barrier Hwy"/>
    <tag k="surface" v="paved"/>
  </node>
  <node id="133370318" version="2" timestamp="2007-12-09T09:46:43Z" uid="4467" user="Rosscoe" changeset="198487" lat="-31.499368" lon="145.846317">
    <tag k="created_by" v="JOSM"/>
    <tag k="highway" v="trunk"/>
    <tag k="name" v="Barrier Hwy"/>
    <tag k="surface" v="paved"/>
  </node>
  <node id="133370339" version="1" timestamp="2007-11-25T23:44:11Z" uid="4467" user="Rosscoe" changeset="621649" lat="-31.499407" lon="145.846452">
    <tag k="created_by" v="JOSM"/>
    <tag k="highway" v="trunk"/>
    <tag k="name" v="Barrier Hwy"/>
    <tag k="surface" v="paved"/>
  </node>
  <node id="133370339" version="2" timestamp="2007-12-09T09:46:56Z" uid="4467" user="Rosscoe" changeset="198487" lat="-31.499407" lon="145.846452">
    <tag k="created_by" v="JOSM"/>
    <tag k="highway" v="trunk"/>
    <tag k="name" v="Barrier Hwy"/>
    <tag k="surface" v="paved"/>
  </node>
  <node id="133370367" version="1" timestamp="2007-11-25T23:44:12Z" uid="4467" user="Rosscoe" changeset="621649" lat="-31.499442" lon="145.846588">
    <tag k="created_by" v="JOSM"/>
    <tag k="highway" v="trunk"/>
    <tag k="name" v="Barrier Hwy"/>
    <tag k="surface" v="paved"/>
  </node>
  <node id="133370367" version="2" timestamp="2007-12-09T09:44:22Z" uid="4467" user="Rosscoe" changeset="198487" lat="-31.499442" lon="145.846588">
    <tag k="created_by" v="JOSM"/>
  </node>
  <node id="133370367" version="3" timestamp="2008-02-03T06:05:34Z" uid="18775" user="drlizau" changeset="28133" lat="-31.499442" lon="145.846588">
    <tag k="created_by" v="JOSM"/>
  </node>
  <node id="133370382" version="1" timestamp="2007-11-25T23:44:13Z" uid="4467" user="Rosscoe" changeset="621649" lat="-31.499473" lon="145.846723">
    <tag k="created_by" v="JOSM"/>
    <tag k="highway" v="trunk"/>
    <tag k="name" v="Barrier Hwy"/>
    <tag k="surface" v="paved"/>
  </node>
  <node id="133370382" version="2" timestamp="2007-12-09T09:48:56Z" uid="4467" user="Rosscoe" changeset="198487" lat="-31.499473" lon="145.846723">
    <tag k="created_by" v="JOSM"/>
    <tag k="highway" v="trunk"/>
    <tag k="name" v="Barrier Hwy"/>
    <tag k="surface" v="paved"/>
  </node>
  <node id="133372526" version="2" timestamp="2009-10-22T22:48:07Z" uid="99207" user="Lar Kiesel" changeset="2926023" lat="41.128052" lon="-103.037026">
    <tag k="highway" v="motorway_junction"/>
    <tag k="name" v="N-19; Sidney"/>
    <tag k="ref" v="55"/>
    <tag k="source" v="tiger_import_dch_v0.6_20070813"/>
    <tag k="tiger:county" v="Cheyenne, NE"/>
    <tag k="tiger:tlid" v="135913754:135913755:135922584:135931548:135931549:135922152"/>
    <tag k="tiger:upload_uuid" v="bulk_upload.pl-447d98a2-9875-459b-89d0-3ab9f2508af9"/>
  </node>
</osm>
