<?xml version='1.0' encoding='UTF-8'?>
<osm version="0.6" generator="libosmium/2.20.0">
  <node id="133310033" version="1" timestamp="2007-11-25T23:16:15Z" uid="4467" user="Rosscoe" changeset="621649" lat="-31.555575" lon="146.489862">
    <tag k="created_by" v="JOSM"/>
    <tag k="highway" v="trunk"/>
    <tag k="name" v="Barrier Hwy"/>
    <tag k="surface" v="paved"/>
  </node>
  <node id="133310033" version="2" timestamp="2007-12-09T09:56:31Z" uid="4467" user="Rosscoe" changeset="198487" lat="-31.555575" lon="146.489862">
    <tag k="created_by" v="JOSM"/>
    <tag k="highway" v="trunk"/>
    <tag k="name" v="Barrier Hwy"/>
    <tag k="surface" v="paved"/>
  </node>
  <node id="133310086" version="1" timestamp="2007-11-25T23:16:16Z" uid="4467" user="Rosscoe" changeset="621649" lat="-31.555412" lon="146.488845">
    <tag k="created_by" v="JOSM"/>
    <tag k="highway" v="trunk"/>
    <tag k="name" v="Barrier Hwy"/>
    <tag k="surface" v="paved"/>
  </node>
  <node id="133310086" version="2" timestamp="2007-12-09T09:55:21Z" uid="4467" user="Rosscoe" changeset="198487" lat="-31.555412" lon="146.488845">
    <tag k="created_by" v="JOSM"/>
    <tag k="highway" v="trunk"/>
    <tag k="name" v="Barrier Hwy"/>
    <tag k="surface" v="paved"/>
  </node>
  <node id="133310111" version="1" timestamp="2007-11-25T23:16:18Z" uid="4467" user="Rosscoe" changeset="621649" lat="-31.555467" lon="146.489183">
    <tag k="created_by" v="JOSM"/>
    <tag k="highway" v="trunk"/>
    <tag k="name" v="Barrier Hwy"/>
    <tag k="surface" v="paved"/>
  </node>
  <node id="133310111" version="2" timestamp="2007-12-09T09:55:24Z" uid="4467" user="Rosscoe" changeset="198487" lat="-31.555467" lon="146.489183">
    <tag k="created_by" v="JOSM"/>
    <tag k="highway" v="trunk"/>
    <tag k="name" v="Barrier Hwy"/>
    <tag k="surface" v="paved"/>
  </node>
  <node id="133310151" version="1" timestamp="2007-11-25T23:16:20Z" uid="4467" user="Rosscoe" changeset="621649" lat="-31.5553" lon="146.488165">
    <tag k="created_by" v="JOSM"/>
    <tag k="highway" v="trunk"/>
    <tag k="name" v="Barrier Hwy"/>
    <tag k="surface" v="paved"/>
  </node>
  <node id="133310151" version="2" timestamp="2007-12-09T09:55:44Z" uid="4467" user="Rosscoe" changeset="198487" lat="-31.5553" lon="146.488165">
    <tag k="created_by" v="JOSM"/>
    <tag k="highway" v="trunk"/>
    <tag k="name" v="Barrier Hwy"/>
    <tag k="surface" v="paved"/>
  </node>
  <node id="133310205" version="1" timestamp="2007-11-25T23:16:22Z" uid="4467" user="Rosscoe" changeset="621649" lat="-31.555357" lon="146.488503">
    <tag k="created_by" v="JOSM"/>
    <tag k="highway" v="trunk"/>
    <tag k="name" v="Barrier Hwy"/>
    <tag k="surface" v="paved"/>
  </node>
  <node id="133310205" version="2" timestamp="2007-12-09T09:55:57Z" uid="4467" user="Rosscoe" changeset="198487" lat="-31.555357" lon="146.488503">
    <tag k="created_by" v="JOSM"/>
    <tag k="highway" v="trunk"/>
    <tag k="name" v="Barrier Hwy"/>
    <tag k="surface" v="paved"/>
  </node>
  <node id="133310254" version="1" timestamp="2007-11-25T23:16:24Z" uid="4467" user="Rosscoe" changeset="621649" lat="-31.555193" lon="146.48749">
    <tag k="created_by" v="JOSM"/>
    <tag k="highway" v="trunk"/>
    <tag k="name" v="Barrier Hwy"/>
    <tag k="surface" v="paved"/>
  </node>
  <node id="133310254" version="2" timestamp="2007-12-09T09:54:49Z" uid="4467" user="Rosscoe" changeset="198487" lat="-31.555193" lon="146.48749">
    <tag k="created_by" v="JOSM"/>
    <tag k="highway" v="trunk"/>
    <tag k="name" v="Barrier Hwy"/>
    <tag k="surface" v="paved"/>
  </node>
  <node id="133310302" version="1" timestamp="2007-11-25T23:16:25Z" uid="4467" user="Rosscoe" changeset="621649" lat="-31.555247" lon="146.487827">
    <tag k="created_by" v="JOSM"/>
    <tag k="highway" v="trunk"/>
    <tag k="name" v="Barrier Hwy"/>
    <tag k="surface" v="paved"/>
  </node>
  <node id="133310302" version="2" timestamp="2007-12-09T09:54:55Z" uid="4467" user="Rosscoe" changeset="198487" lat="-31.555247" lon="146.487827">
    <tag k="created_by" v="JOSM"/>
    <tag k="highway" v="trunk"/>
    <tag k="name" v="Barrier Hwy"/>
    <tag k="surface" v="paved"/>
  </node>
  <node id="133310363" version="1" timestamp="2007-11-25T23:16:27Z" uid="4467" user="Rosscoe" changeset="621649" lat="-31.555087" lon="146.486807">
    <tag k="created_by" v="JOSM"/>
    <tag k="highway" v="trunk"/>
    <tag k="name" v="Barrier Hwy"/>
    <tag k="surface" v="paved"/>
  </node>
  <node id="133310363" version="2" timestamp="2007-12-09T09:53:47Z" uid="4467" user="Rosscoe" changeset="198487" lat="-31.555087" lon="146.486807">
    <tag k="created_by" v="JOSM"/>
    <tag k="highway" v="trunk"/>
    <tag k="name" v="Barrier Hwy"/>
    <tag k="surface" v="paved"/>
  </node>
  <node id="133310417" version="1" timestamp="2007-11-25T23:16:29Z" uid="4467" user="Rosscoe" changeset="621649" lat="-31.55514" lon="146.487147">
    <tag k="created_by" v="JOSM"/>
    <tag k="highway" v="trunk"/>
    <tag k="name" v="Barrier Hwy"/>
    <tag k="surface" v="paved"/>
  </node>
  <node id="133310417" version="2" timestamp="2007-12-09T09:54:11Z" uid="4467" user="Rosscoe" changeset="198487" lat="-31.55514" lon="146.487147">
    <tag k="created_by" v="JOSM"/>
    <tag k="highway" v="trunk"/>
    <tag k="name" v="Barrier Hwy"/>
    <tag k="surface" v="paved"/>
  </node>
  <node id="133310473" version="1" timestamp="2007-11-25T23:16:31Z" uid="4467" user="Rosscoe" changeset="621649" lat="-31.554927" lon="146.485785">
    <tag k="created_by" v="JOSM"/>
    <tag k="highway" v="trunk"/>
    <tag k="name" v="Barrier Hwy"/>
    <tag k="surface" v="paved"/>
  </node>
  <node id="133310473" version="2" timestamp="2007-12-09T09:58:42Z" uid="4467" user="Rosscoe" changeset="198487" lat="-31.554927" lon="146.485785">
    <tag k="created_by" v="JOSM"/>
    <tag k="highway" v="trunk"/>
    <tag k="name" v="Barrier Hwy"/>
    <tag k="surface" v="paved"/>
  </node>
  <node id="133310537" version="1" timestamp="2007-11-25T23:16:33Z" uid="4467" user="Rosscoe" changeset="621649" lat="-31.55498" lon="146.486127">
    <tag k="created_by" v="JOSM"/>
    <tag k="highway" v="trunk"/>
    <tag k="name" v="Barrier Hwy"/>
    <tag k="surface" v="paved"/>
  </node>
  <node id="133310537" version="2" timestamp="2007-12-09T09:58:19Z" uid="4467" user="Rosscoe" changeset="198487" lat="-31.55498" lon="146.486127">
    <tag k="created_by" v="JOSM"/>
    <tag k="highway" v="trunk"/>
    <tag k="name" v="Barrier Hwy"/>
    <tag k="surface" v="paved"/>
  </node>
  <node id="133310613" version="1" timestamp="2007-11-25T23:16:35Z" uid="4467" user="Rosscoe" changeset="621649" lat="-31.554818" lon="146.485103">
    <tag k="created_by" v="JOSM"/>
    <tag k="highway" v="trunk"/>
    <tag k="name" v="Barrier Hwy"/>
    <tag k="surface" v="paved"/>
  </node>
  <node id="133310613" version="2" timestamp="2007-12-09T09:59:19Z" uid="4467" user="Rosscoe" changeset="198487" lat="-31.554818" lon="146.485103">
    <tag k="created_by" v="JOSM"/>
    <tag k="highway" v="trunk"/>
    <tag k="name" v="Barrier Hwy"/>
    <tag k="surface" v="paved"/>
  </node>
  <node id="133310672" version="1" timestamp="2007-11-25T23:16:36Z" uid="4467" user="Rosscoe" changeset="621649" lat="-31.554875" lon="146.485448">
    <tag k="created_by" v="JOSM"/>
    <tag k="highway" v="trunk"/>
    <tag k="name" v="Barrier Hwy"/>
    <tag k="surface" v="paved"/>
  </node>
  <node id="133310672" version="2" timestamp="2007-12-09T09:43:33Z" uid="4467" user="Rosscoe" changeset="198487" lat="-31.554875" lon="146.485448">
    <tag k="created_by" v="JOSM"/>
  </node>
  <node id="133310672" version="3" timestamp="2008-02-03T06:08:42Z" uid="18775" user="drlizau" changeset="28133" lat="-31.554875" lon="146.485448">
    <tag k="created_by" v="JOSM"/>
  </node>
  <node id="133310716" version="1" timestamp="2007-11-25T23:16:38Z" uid="4467" user="Rosscoe" changeset="621649" lat="-31.556433" lon="146.495323">
    <tag k="created_by" v="JOSM"/>
    <tag k="highway" v="trunk"/>
    <tag k="name" v="Barrier Hwy"/>
    <tag k="surface" v="paved"/>
  </node>
  <node id="133310716" version="2" timestamp="2007-12-09T09:58:52Z" uid="4467" user="Rosscoe" changeset="198487" lat="-31.556433" lon="146.495323">
    <tag k="created_by" v="JOSM"/>
    <tag k="highway" v="trunk"/>
    <tag k="name" v="Barrier Hwy"/>
    <tag k="surface" v="paved"/>
  </node>
  <node id="133310751" version="1" timestamp="2007-11-25T23:16:39Z" uid="4467" user="Rosscoe" changeset="621649" lat="-31.55638" lon="146.49498">
    <tag k="created_by" v="JOSM"/>
    <tag k="highway" v="trunk"/>
    <tag k="name" v="Barrier Hwy"/>
    <tag k="surface" v="paved"/>
  </node>
  <node id="133310751" version="2" timestamp="2007-12-09T09:57:22Z" uid="4467" user="Rosscoe" changeset="198487" lat="-31.55638" lon="146.49498">
    <tag k="created_by" v="JOSM"/>
    <tag k="highway" v="trunk"/>
    <tag k="name" v="Barrier Hwy"/>
    <tag k="surface" v="paved"/>
  </node>
  <node id="133310784" version="1" timestamp="2007-11-25T23:16:40Z" uid="4467" user="Rosscoe" changeset="621649" lat="-31.55654" lon="146.496005">
    <tag k="created_by" v="JOSM"/>
    <tag k="highway" v="trunk"/>
    <tag k="name" v="Barrier Hwy"/>
    <tag k="surface" v="paved"/>
  </node>
  <node id="133310784" version="2" timestamp="2007-12-09T09:57:01Z" uid="4467" user="Rosscoe" changeset="198487" lat="-31.55654" lon="146.496005">
    <tag k="created_by" v="JOSM"/>
    <tag k="highway" v="trunk"/>
    <tag k="name" v="Barrier Hwy"/>
    <tag k="surface" v="paved"/>
  </node>
  <node id="133310822" version="1" timestamp="2007-11-25T23:16:42Z" uid="4467" user="Rosscoe" changeset="621649" lat="-31.556487" lon="146.495667">
    <tag k="created_by" v="JOSM"/>
    <tag k="highway" v="trunk"/>
    <tag k="name" v="Barrier Hwy"/>
    <tag k="surface" v="paved"/>
  </node>
  <node id="133310822" version="2" timestamp="2007-12-09T09:56:51Z" uid="4467" user="Rosscoe" changeset="198487" lat="-31.556487" lon="146.495667">
    <tag k="created_by" v="JOSM"/>
    <tag k="highway" v="trunk"/>
    <tag k="name" v="Barrier Hwy"/>
    <tag k="surface" v="paved"/>
  </node>
  <node id="133310883" version="1" timestamp="2007-11-25T23:16:43Z" uid="4467" user="Rosscoe" changeset="621649" lat="-31.55622" lon="146.493967">
    <tag k="created_by" v="JOSM"/>
    <tag k="highway" v="trunk"/>
    <tag k="name" v="Barrier Hwy"/>
    <tag k="surface" v="paved"/>
  </node>
  <node id="133310883" version="2" timestamp="2007-12-09T09:57:50Z" uid="4467" user="Rosscoe" changeset="198487" lat="-31.55622" lon="146.493967">
    <tag k="created_by" v="JOSM"/>
    <tag k="highway" v="trunk"/>
    <tag k="name" v="Barrier Hwy"/>
    <tag k="surface" v="paved"/>
  </node>
  <node id="133310951" version="1" timestamp="2007-11-25T23:16:45Z" uid="4467" user="Rosscoe" changeset="621649" lat="-31.556168" lon="146.49363">
    <tag k="created_by" v="JOSM"/>
    <tag k="highway" v="trunk"/>
    <tag k="name" v="Barrier Hwy"/>
    <tag k="surface" v="paved"/>
  </node>
  <node id="133310951" version="2" timestamp="2007-12-09T09:57:29Z" uid="4467" user="Rosscoe" changeset="198487" lat="-31.556168" lon="146.49363">
    <tag k="created_by" v="JOSM"/>
    <tag k="highway" v="trunk"/>
    <tag k="name" v="Barrier Hwy"/>
    <tag k="surface" v="paved"/>
  </node>
  <node id="133311023" version="1" timestamp="2007-11-25T23:16:46Z" uid="4467" user="Rosscoe" changeset="621649" lat="-31.556327" lon="146.494643">
    <tag k="created_by" v="JOSM"/>
    <tag k="highway" v="trunk"/>
    <tag k="name" v="Barrier Hwy"/>
    <tag k="surface" v="paved"/>
  </node>
  <node id="133311023" version="2" timestamp="2007-12-09T10:01:29Z" uid="4467" user="Rosscoe" changeset="198487" lat="-31.556327" lon="146.494643">
    <tag k="created_by" v="JOSM"/>
    <tag k="highway" v="trunk"/>
    <tag k="name" v="Barrier Hwy"/>
    <tag k="surface" v="paved"/>
  </node>
  <node id="133311088" version="1" timestamp="2007-11-25T23:16:48Z" uid="4467" user="Rosscoe" changeset="621649" lat="-31.556273" lon="146.494307">
    <tag k="created_by" v="JOSM"/>
    <tag k="highway" v="trunk"/>
    <tag k="name" v="Barrier Hwy"/>
    <tag k="surface" v="paved"/>
  </node>
  <node id="133311088" version="2" timestamp="2007-12-09T10:01:03Z" uid="4467" user="Rosscoe" changeset="198487" lat="-31.556273" lon="146.494307">
    <tag k="created_by" v="JOSM"/>
    <tag k="highway" v="trunk"/>
    <tag k="name" v="Barrier Hwy"/>
    <tag k="surface" v="paved"/>
  </node>
  <node id="133311143" version="1" timestamp="2007-11-25T23:16:50Z" uid="4467" user="Rosscoe" changeset="621649" lat="-31.556002" lon="146.492603">
    <tag k="created_by" v="JOSM"/>
    <tag k="highway" v="trunk"/>
    <tag k="name" v="Barrier Hwy"/>
    <tag k="surface" v="paved"/>
  </node>
  <node id="133311143" version="2" timestamp="2007-12-09T10:02:07Z" uid="4467" user="Rosscoe" changeset="198487" lat="-31.556002" lon="146.492603">
    <tag k="created_by" v="JOSM"/>
    <tag k="highway" v="trunk"/>
    <tag k="name" v="Barrier Hwy"/>
    <tag k="surface" v="paved"/>
  </node>
  <node id="133311188" version="1" timestamp="2007-11-25T23:16:52Z" uid="4467" user="Rosscoe" changeset="621649" lat="-31.555947" lon="146.49226">
    <tag k="created_by" v="JOSM"/>
    <tag k="highway" v="trunk"/>
    <tag k="name" v="Barrier Hwy"/>
    <tag k="surface" v="paved"/>
  </node>
  <node id="133311188" version="2" timestamp="2007-12-09T10:01:33Z" uid="4467" user="Rosscoe" changeset="198487" lat="-31.555947" lon="146.49226">
    <tag k="created_by" v="JOSM"/>
    <tag k="highway" v="trunk"/>
    <tag k="name" v="Barrier Hwy"/>
    <tag k="surface" v="paved"/>
  </node>
  <node id="133311247" version="1" timestamp="2007-11-25T23:16:53Z" uid="4467" user="Rosscoe" changeset="621649" lat="-31.556112" lon="146.493285">
    <tag k="created_by" v="JOSM"/>
    <tag k="highway" v="trunk"/>
    <tag k="name" v="Barrier Hwy"/>
    <tag k="surface" v="paved"/>
  </node>
  <node id="133311247" version="2" timestamp="2007-12-09T09:59:50Z" uid="4467" user="Rosscoe" changeset="198487" lat="-31.556112" lon="146.493285">
    <tag k="created_by" v="JOSM"/>
    <tag k="highway" v="trunk"/>
    <tag k="name" v="Barrier Hwy"/>
    <tag k="surface" v="paved"/>
  </node>
  <node id="133311307" version="1" timestamp="2007-11-25T23:16:55Z" uid="4467" user="Rosscoe" changeset="621649" lat="-31.556055" lon="146.49294">
    <tag k="created_by" v="JOSM"/>
    <tag k="highway" v="trunk"/>
    <tag k="name" v="Barrier Hwy"/>
    <tag k="surface" v="paved"/>
  </node>
  <node id="133311307" version="2" timestamp="2007-12-09T09:59:26Z" uid="4467" user="Rosscoe" changeset="198487" lat="-31.556055" lon="146.49294">
    <tag k="created_by" v="JOSM"/>
    <tag k="highway" v="trunk"/>
    <tag k="name" v="Barrier Hwy"/>
    <tag k="surface" v="paved"/>
  </node>
  <node id="133311344" version="1" timestamp="2007-11-25T23:16:57Z" uid="4467" user="Rosscoe" changeset="621649" lat="-31.555787" lon="146.491235">
    <tag k="created_by" v="JOSM"/>
    <tag k="highway" v="trunk"/>
    <tag k="name" v="Barrier Hwy"/>
    <tag k="surface" v="paved"/>
  </node>
  <node id="133311344" version="2" timestamp="2007-12-09T09:59:46Z" uid="4467" user="Rosscoe" changeset="198487" lat="-31.555787" lon="146.491235">
    <tag k="created_by" v="JOSM"/>
    <tag k="highway" v="trunk"/>
    <tag k="name" v="Barrier Hwy"/>
    <tag k="surface" v="paved"/>
  </node>
  <node id="133311407" version="1" timestamp="2007-11-25T23:16:59Z" uid="4467" user="Rosscoe" changeset="621649" lat="-31.555735" lon="146.490892">
    <tag k="created_by" v="JOSM"/>
    <tag k="highway" v="trunk"/>
    <tag k="name" v="Barrier Hwy"/>
    <tag k="surface" v="paved"/>
  </node>
  <node id="133311407" version="2" timestamp="2007-12-09T10:00:50Z" uid="4467" user="Rosscoe" changeset="198487" lat="-31.555735" lon="146.490892">
    <tag k="created_by" v="JOSM"/>
    <tag k="highway" v="trunk"/>
    <tag k="name" v="Barrier Hwy"/>
    <tag k="surface" v="paved"/>
  </node>
  <node id="133311473" version="1" timestamp="2007-11-25T23:17:01Z" uid="4467" user="Rosscoe" changeset="621649" lat="-31.555893" lon="146.491922">
    <tag k="created_by" v="JOSM"/>
    <tag k="highway" v="trunk"/>
    <tag k="name" v="Barrier Hwy"/>
    <tag k="surface" v="paved"/>
  </node>
  <node id="133311473" version="2" timestamp="2007-12-09T10:00:26Z" uid="4467" user="Rosscoe" changeset="198487" lat="-31.555893" lon="146.491922">
    <tag k="created_by" v="JOSM"/>
    <tag k="highway" v="trunk"/>
    <tag k="name" v="Barrier Hwy"/>
    <tag k="surface" v="paved"/>
  </node>
  <node id="133311526" version="1" timestamp="2007-11-25T23:17:02Z" uid="4467" user="Rosscoe" changeset="621649" lat="-31.55584" lon="146.49158">
    <tag k="created_by" v="JOSM"/>
    <tag k="highway" v="trunk"/>
    <tag k="name" v="Barrier Hwy"/>
    <tag k="surface" v="paved"/>
  </node>
  <node id="133311526" version="2" timestamp="2007-12-09T10:03:37Z" uid="4467" user="Rosscoe" changeset="198487" lat="-31.55584" lon="146.49158">
    <tag k="created_by" v="JOSM"/>
    <tag k="highway" v="trunk"/>
    <tag k="name" v="Barrier Hwy"/>
    <tag k="surface" v="paved"/>
  </node>
  <node id="133311559" version="1" timestamp="2007-11-25T23:17:04Z" uid="4467" user="Rosscoe" changeset="621649" lat="-31.557237" lon="146.500428">
    <tag k="created_by" v="JOSM"/>
    <tag k="highway" v="trunk"/>
    <tag k="name" v="Barrier Hwy"/>
    <tag k="surface" v="paved"/>
  </node>
  <node id="133311559" version="2" timestamp="2007-12-09T10:04:04Z" uid="4467" user="Rosscoe" changeset="198487" lat="-31.557237" lon="146.500428">
    <tag k="created_by" v="JOSM"/>
    <tag k="highway" v="trunk"/>
    <tag k="name" v="Barrier Hwy"/>
    <tag k="surface" v="paved"/>
  </node>
  <node id="133311640" version="1" timestamp="2007-11-25T23:17:06Z" uid="4467" user="Rosscoe" changeset="621649" lat="-31.55729" lon="146.500772">
    <tag k="created_by" v="JOSM"/>
    <tag k="highway" v="trunk"/>
    <tag k="name" v="Barrier Hwy"/>
    <tag k="surface" v="paved"/>
  </node>
  <node id="133311640" version="2" timestamp="2007-12-09T10:04:20Z" uid="4467" user="Rosscoe" changeset="198487" lat="-31.55729" lon="146.500772">
    <tag k="created_by" v="JOSM"/>
    <tag k="highway" v="trunk"/>
    <tag k="name" v="Barrier Hwy"/>
    <tag k="surface" v="paved"/>
  </node>
  <node id="133311696" version="1" timestamp="2007-11-25T23:17:08Z" uid="4467" user="Rosscoe" changeset="621649" lat="-31.557343" lon="146.50111">
    <tag k="created_by" v="JOSM"/>
    <tag k="highway" v="trunk"/>
    <tag k="name" v="Barrier Hwy"/>
    <tag k="surface" v="paved"/>
  </node>
  <node id="133311696" version="2" timestamp="2007-12-09T10:04:46Z" uid="4467" user="Rosscoe" changeset="198487" lat="-31.557343" lon="146.50111">
    <tag k="created_by" v="JOSM"/>
    <tag k="highway" v="trunk"/>
    <tag k="name" v="Barrier Hwy"/>
    <tag k="surface" v="paved"/>
  </node>
  <node id="133311749" version="1" timestamp="2007-11-25T23:17:10Z" uid="4467" user="Rosscoe" changeset="621649" lat="-31.557393" lon="146.501443">
    <tag k="created_by" v="JOSM"/>
    <tag k="highway" v="trunk"/>
    <tag k="name" v="Barrier Hwy"/>
    <tag k="surface" v="paved"/>
  </node>
  <node id="133311749" version="2" timestamp="2007-12-09T10:02:22Z" uid="4467" user="Rosscoe" changeset="198487" lat="-31.557393" lon="146.501443">
    <tag k="created_by" v="JOSM"/>
    <tag k="highway" v="trunk"/>
    <tag k="name" v="Barrier Hwy"/>
    <tag k="surface" v="paved"/>
  </node>
  <node id="133311819" version="1" timestamp="2007-11-25T23:17:12Z" uid="4467" user="Rosscoe" changeset="621649" lat="-31.55702" lon="146.499067">
    <tag k="created_by" v="JOSM"/>
    <tag k="highway" v="trunk"/>
    <tag k="name" v="Barrier Hwy"/>
    <tag k="surface" v="paved"/>
  </node>
  <node id="133311819" version="2" timestamp="2007-12-09T10:02:46Z" uid="4467" user="Rosscoe" changeset="198487" lat="-31.55702" lon="146.499067">
    <tag k="created_by" v="JOSM"/>
    <tag k="highway" v="trunk"/>
    <tag k="name" v="Barrier Hwy"/>
    <tag k="surface" v="paved"/>
  </node>
  <node id="133311860" version="1" timestamp="2007-11-25T23:17:13Z" uid="4467" user="Rosscoe" changeset="621649" lat="-31.557075" lon="146.499407">
    <tag k="created_by" v="JOSM"/>
    <tag k="highway" v="trunk"/>
    <tag k="name" v="Barrier Hwy"/>
    <tag k="surface" v="paved"/>
  </node>
  <node id="133311860" version="2" timestamp="2007-12-09T10:02:36Z" uid="4467" user="Rosscoe" changeset="198487" lat="-31.557075" lon="146.499407">
    <tag k="created_by" v="JOSM"/>
    <tag k="highway" v="trunk"/>
    <tag k="name" v="Barrier Hwy"/>
    <tag k="surface" v="paved"/>
  </node>
  <node id="133311888" version="1" timestamp="2007-11-25T23:17:13Z" uid="4467" user="Rosscoe" changeset="621649" lat="-31.557128" lon="146.499752">
    <tag k="created_by" v="JOSM"/>
    <tag k="highway" v="trunk"/>
    <tag k="name" v="Barrier Hwy"/>
    <tag k="surface" v="paved"/>
  </node>
  <node id="133311888" version="2" timestamp="2007-12-09T10:03:12Z" uid="4467" user="Rosscoe" changeset="198487" lat="-31.557128" lon="146.499752">
    <tag k="created_by" v="JOSM"/>
    <tag k="highway" v="trunk"/>
    <tag k="name" v="Barrier Hwy"/>
    <tag k="surface" v="paved"/>
  </node>
  <node id="133311933" version="1" timestamp="2007-11-25T23:17:15Z" uid="4467" user="Rosscoe" changeset="621649" lat="-31.557183" lon="146.50009">
    <tag k="created_by" v="JOSM"/>
    <tag k="highway" v="trunk"/>
    <tag k="name" v="Barrier Hwy"/>
    <tag k="surface" v="paved"/>
  </node>
  <node id="133311933" version="2" timestamp="2007-12-09T10:02:59Z" uid="4467" user="Rosscoe" changeset="198487" lat="-31.557183" lon="146.50009">
    <tag k="created_by" v="JOSM"/>
    <tag k="highway" v="trunk"/>
    <tag k="name" v="Barrier Hwy"/>
    <tag k="surface" v="paved"/>
  </node>
  <node id="133311978" version="1" timestamp="2007-11-25T23:17:16Z" uid="4467" user="Rosscoe" changeset="621649" lat="-31.556807" lon="146.497702">
    <tag k="created_by" v="JOSM"/>
    <tag k="highway" v="trunk"/>
    <tag k="name" v="Barrier Hwy"/>
    <tag k="surface" v="paved"/>
  </node>
  <node id="133311978" version="2" timestamp="2007-12-09T10:03:18Z" uid="4467" user="Rosscoe" changeset="198487" lat="-31.556807" lon="146.497702">
    <tag k="created_by" v="JOSM"/>
    <tag k="highway" v="trunk"/>
    <tag k="name" v="Barrier Hwy"/>
    <tag k="surface" v="paved"/>
  </node>
  <node id="133312026" version="1" timestamp="2007-11-25T23:17:17Z" uid="4467" user="Rosscoe" changeset="621649" lat="-31.55686" lon="146.498043">
    <tag k="created_by" v="JOSM"/>
    <tag k="highway" v="trunk"/>
    <tag k="name" v="Barrier Hwy"/>
    <tag k="surface" v="paved"/>
  </node>
  <node id="133312026" version="2" timestamp="2007-12-09T10:06:19Z" uid="4467" user="Rosscoe" changeset="198487" lat="-31.55686" lon="146.498043">
    <tag k="created_by" v="JOSM"/>
    <tag k="highway" v="trunk"/>
    <tag k="name" v="Barrier Hwy"/>
    <tag k="surface" v="paved"/>
  </node>
  <node id="133312078" version="1" timestamp="2007-11-25T23:17:19Z" uid="4467" user="Rosscoe" changeset="621649" lat="-31.556913" lon="146.498385">
    <tag k="created_by" v="JOSM"/>
    <tag k="highway" v="trunk"/>
    <tag k="name" v="Barrier Hwy"/>
    <tag k="surface" v="paved"/>
  </node>
  <node id="133312078" version="2" timestamp="2007-12-09T10:06:55Z" uid="4467" user="Rosscoe" changeset="198487" lat="-31.556913" lon="146.498385">
    <tag k="created_by" v="JOSM"/>
    <tag k="highway" v="trunk"/>
    <tag k="name" v="Barrier Hwy"/>
    <tag k="surface" v="paved"/>
  </node>
  <node id="133312098" version="2" timestamp="2009-10-16T12:23:36Z" uid="99207" user="Lar Kiesel" changeset="2864196" lat="42.3777216" lon="-97.3676414">
    <tag k="source" v="tiger_import_dch_v0.6_20070813"/>
    <tag k="tiger:county" v="Cedar, NE"/>
    <tag k="tiger:tlid" v="161760030:161760031:161745900:172886718"/>
    <tag k="tiger:upload_uuid" v="bulk_upload.pl-83a7f861-7c31-43f0-a1eb-9ac6e609beca"/>
  </node>
  <node id="133312126" version="1" timestamp="2007-11-25T23:17:21Z" uid="4467" user="Rosscoe" changeset="621649" lat="-31.556967" lon="146.498725">
    <tag k="created_by" v="JOSM"/>
    <tag k="highway" v="trunk"/>
    <tag k="name" v="Barrier Hwy"/>
    <tag k="surface" v="paved"/>
  </node>
  <node id="133312126" version="2" timestamp="2007-12-09T10:06:58Z" uid="4467" user="Rosscoe" changeset="198487" lat="-31.556967" lon="146.498725">
    <tag k="created_by" v="JOSM"/>
    <tag k="highway" v="trunk"/>
    <tag k="name" v="Barrier Hwy"/>
    <tag k="surface" v="paved"/>
  </node>
  <node id="133312185" version="1" timestamp="2007-11-25T23:17:22Z" uid="4467" user="Rosscoe" changeset="621649" lat="-31.556593" lon="146.496343">
    <tag k="created_by" v="JOSM"/>
    <tag k="highway" v="trunk"/>
    <tag k="name" v="Barrier Hwy"/>
    <tag k="surface" v="paved"/>
  </node>
  <node id="133312185" version="2" timestamp="2007-12-09T10:07:18Z" uid="4467" user="Rosscoe" changeset="198487" lat="-31.556593" lon="146.496343">
    <tag k="created_by" v="JOSM"/>
    <tag k="highway" v="trunk"/>
    <tag k="name" v="Barrier Hwy"/>
    <tag k="surface" v="paved"/>
  </node>
  <node id="133312233" version="1" timestamp="2007-11-25T23:17:24Z" uid="4467" user="Rosscoe" changeset="621649" lat="-31.556647" lon="146.496685">
    <tag k="created_by" v="JOSM"/>
    <tag k="highway" v="trunk"/>
    <tag k="name" v="Barrier Hwy"/>
    <tag k="surface" v="paved"/>
  </node>
  <node id="133312233" version="2" timestamp="2007-12-09T10:07:44Z" uid="4467" user="Rosscoe" changeset="198487" lat="-31.556647" lon="146.496685">
    <tag k="created_by" v="JOSM"/>
    <tag k="highway" v="trunk"/>
    <tag k="name" v="Barrier Hwy"/>
    <tag k="surface" v="paved"/>
  </node>
  <node id="133312304" version="1" timestamp="2007-11-25T23:17:26Z" uid="4467" user="Rosscoe" changeset="621649" lat="-31.5567" lon="146.497023">
    <tag k="created_by" v="JOSM"/>
    <tag k="highway" v="trunk"/>
    <tag k="name" v="Barrier Hwy"/>
    <tag k="surface" v="paved"/>
  </node>
  <node id="133312304" version="2" timestamp="2007-12-09T10:05:09Z" uid="4467" user="Rosscoe" changeset="198487" lat="-31.5567" lon="146.497023">
    <tag k="created_by" v="JOSM"/>
    <tag k="highway" v="trunk"/>
    <tag k="name" v="Barrier Hwy"/>
    <tag k="surface" v="paved"/>
  </node>
  <node id="133312352" version="1" timestamp="2007-11-25T23:17:28Z" uid="4467" user="Rosscoe" changeset="621649" lat="-31.556753" lon="146.497365">
    <tag k="created_by" v="JOSM"/>
    <tag k="highway" v="trunk"/>
    <tag k="name" v="Barrier Hwy"/>
    <tag k="surface" v="paved"/>
  </node>
  <node id="133312352" version="2" timestamp="2007-12-09T10:05:27Z" uid="4467" user="Rosscoe" changeset="198487" lat="-31.556753" lon="146.497365">
    <tag k="created_by" v="JOSM"/>
    <tag k="highway" v="trunk"/>
    <tag k="name" v="Barrier Hwy"/>
    <tag k="surface" v="paved"/>
  </node>
  <node id="133312423" version="1" timestamp="2007-11-25T23:17:29Z" uid="4467" user="Rosscoe" changeset="621649" lat="-31.558193" lon="146.506525">
    <tag k="created_by" v="JOSM"/>
    <tag k="highway" v="trunk"/>
    <tag k="name" v="Barrier Hwy"/>
    <tag k="surface" v="paved"/>
  </node>
  <node id="133312423" version="2" timestamp="2007-12-09T10:05:53Z" uid="4467" user="Rosscoe" changeset="198487" lat="-31.558193" lon="146.506525">
    <tag k="created_by" v="JOSM"/>
    <tag k="highway" v="trunk"/>
    <tag k="name" v="Barrier Hwy"/>
    <tag k="surface" v="paved"/>
  </node>
  <node id="133312493" version="1" timestamp="2007-11-25T23:17:31Z" uid="4467" user="Rosscoe" changeset="621649" lat="-31.55814" lon="146.506187">
    <tag k="created_by" v="JOSM"/>
    <tag k="highway" v="trunk"/>
    <tag k="name" v="Barrier Hwy"/>
    <tag k="surface" v="paved"/>
  </node>
  <node id="133312493" version="2" timestamp="2007-12-09T10:06:07Z" uid="4467" user="Rosscoe" changeset="198487" lat="-31.55814" lon="146.506187">
    <tag k="created_by" v="JOSM"/>
    <tag k="highway" v="trunk"/>
    <tag k="name" v="Barrier Hwy"/>
    <tag k="surface" v="paved"/>
  </node>
  <node id="133312565" version="1" timestamp="2007-11-25T23:17:33Z" uid="4467" user="Rosscoe" changeset="621649" lat="-31.558085" lon="146.505852">
    <tag k="created_by" v="JOSM"/>
    <tag k="highway" v="trunk"/>
    <tag k="name" v="Barrier Hwy"/>
    <tag k="surface" v="paved"/>
  </node>
  <node id="133312565" version="2" timestamp="2007-12-09T09:42:34Z" uid="4467" user="Rosscoe" changeset="198487" lat="-31.558085" lon="146.505852">
    <tag k="created_by" v="JOSM"/>
  </node>
  <node id="133312633" version="1" timestamp="2007-11-25T23:17:35Z" uid="4467" user="Rosscoe" changeset="621649" lat="-31.558032" lon="146.505508">
    <tag k="created_by" v="JOSM"/>
    <tag k="highway" v="trunk"/>
    <tag k="name" v="Barrier Hwy"/>
    <tag k="surface" v="paved"/>
  </node>
  <node id="133312633" version="2" timestamp="2007-12-09T10:08:44Z" uid="4467" user="Rosscoe" changeset="198487" lat="-31.558032" lon="146.505508">
    <tag k="created_by" v="JOSM"/>
    <tag k="highway" v="trunk"/>
    <tag k="name" v="Barrier Hwy"/>
    <tag k="surface" v="paved"/>
  </node>
  <node id="133312703" version="1" timestamp="2007-11-25T23:17:37Z" uid="4467" user="Rosscoe" changeset="621649" lat="-31.558465" lon="146.508227">
    <tag k="created_by" v="JOSM"/>
    <tag k="highway" v="trunk"/>
    <tag k="name" v="Barrier Hwy"/>
    <tag k="surface" v="paved"/>
  </node>
  <node id="133312703" version="2" timestamp="2007-12-09T10:08:28Z" uid="4467" user="Rosscoe" changeset="198487" lat="-31.558465" lon="146.508227">
    <tag k="created_by" v="JOSM"/>
    <tag k="highway" v="trunk"/>
    <tag k="name" v="Barrier Hwy"/>
    <tag k="surface" v="paved"/>
  </node>
  <node id="133312779" version="1" timestamp="2007-11-25T23:17:39Z" uid="4467" user="Rosscoe" changeset="621649" lat="-31.558413" lon="146.50789">
    <tag k="created_by" v="JOSM"/>
    <tag k="highway" v="trunk"/>
    <tag k="name" v="Barrier Hwy"/>
    <tag k="surface" v="paved"/>
  </node>
  <node id="133312779" version="2" timestamp="2007-12-09T10:10:07Z" uid="4467" user="Rosscoe" changeset="198487" lat="-31.558413" lon="146.50789">
    <tag k="created_by" v="JOSM"/>
    <tag k="highway" v="trunk"/>
    <tag k="name" v="Barrier Hwy"/>
    <tag k="surface" v="paved"/>
  </node>
  <node id="133312820" version="1" timestamp="2007-11-25T23:17:40Z" uid="4467" user="Rosscoe" changeset="621649" lat="-31.558358" lon="146.507543">
    <tag k="created_by" v="JOSM"/>
    <tag k="highway" v="trunk"/>
    <tag k="name" v="Barrier Hwy"/>
    <tag k="surface" v="paved"/>
  </node>
  <node id="133312820" version="2" timestamp="2007-12-09T10:10:19Z" uid="4467" user="Rosscoe" changeset="198487" lat="-31.558358" lon="146.507543">
    <tag k="created_by" v="JOSM"/>
    <tag k="highway" v="trunk"/>
    <tag k="name" v="Barrier Hwy"/>
    <tag k="surface" v="paved"/>
  </node>
  <node id="133312880" version="1" timestamp="2007-11-25T23:17:42Z" uid="4467" user="Rosscoe" changeset="621649" lat="-31.558303" lon="146.507203">
    <tag k="created_by" v="JOSM"/>
    <tag k="highway" v="trunk"/>
    <tag k="name" v="Barrier Hwy"/>
    <tag k="surface" v="paved"/>
  </node>
  <node id="133312880" version="2" timestamp="2007-12-09T10:09:57Z" uid="4467" user="Rosscoe" changeset="198487" lat="-31.558303" lon="146.507203">
    <tag k="created_by" v="JOSM"/>
    <tag k="highway" v="trunk"/>
    <tag k="name" v="Barrier Hwy"/>
    <tag k="surface" v="paved"/>
  </node>
  <node id="133312962" version="1" timestamp="2007-11-25T23:17:44Z" uid="4467" user="Rosscoe" changeset="621649" lat="-31.557662" lon="146.503137">
    <tag k="created_by" v="JOSM"/>
    <tag k="highway" v="trunk"/>
    <tag k="name" v="Barrier Hwy"/>
    <tag k="surface" v="paved"/>
  </node>
  <node id="133312962" version="2" timestamp="2007-12-09T10:09:14Z" uid="4467" user="Rosscoe" changeset="198487" lat="-31.557662" lon="146.503137">
    <tag k="created_by" v="JOSM"/>
    <tag k="highway" v="trunk"/>
    <tag k="name" v="Barrier Hwy"/>
    <tag k="surface" v="paved"/>
  </node>
  <node id="133313039" version="1" timestamp="2007-11-25T23:17:46Z" uid="4467" user="Rosscoe" changeset="621649" lat="-31.557553" lon="146.502465">
    <tag k="created_by" v="JOSM"/>
    <tag k="highway" v="trunk"/>
    <tag k="name" v="Barrier Hwy"/>
    <tag k="surface" v="paved"/>
  </node>
  <node id="133313039" version="2" timestamp="2007-12-09T10:11:37Z" uid="4467" user="Rosscoe" changeset="198487" lat="-31.557553" lon="146.502465">
    <tag k="created_by" v="JOSM"/>
    <tag k="highway" v="trunk"/>
    <tag k="name" v="Barrier Hwy"/>
    <tag k="surface" v="paved"/>
  </node>
  <node id="133313110" version="1" timestamp="2007-11-25T23:17:48Z" uid="4467" user="Rosscoe" changeset="621649" lat="-31.5575" lon="146.502127">
    <tag k="created_by" v="JOSM"/>
    <tag k="highway" v="trunk"/>
    <tag k="name" v="Barrier Hwy"/>
    <tag k="surface" v="paved"/>
  </node>
  <node id="133313110" version="2" timestamp="2007-12-09T10:11:23Z" uid="4467" user="Rosscoe" changeset="198487" lat="-31.5575" lon="146.502127">
    <tag k="created_by" v="JOSM"/>
    <tag k="highway" v="trunk"/>
    <tag k="name" v="Barrier Hwy"/>
    <tag k="surface" v="paved"/>
  </node>
  <node id="133313191" version="1" timestamp="2007-11-25T23:17:49Z" uid="4467" user="Rosscoe" changeset="621649" lat="-31.557447" lon="146.501788">
    <tag k="created_by" v="JOSM"/>
    <tag k="highway" v="trunk"/>
    <tag k="name" v="Barrier Hwy"/>
    <tag k="surface" v="paved"/>
  </node>
  <node id="133313191" version="2" timestamp="2007-12-09T10:10:43Z" uid="4467" user="Rosscoe" changeset="198487" lat="-31.557447" lon="146.501788">
    <tag k="created_by" v="JOSM"/>
    <tag k="highway" v="trunk"/>
    <tag k="name" v="Barrier Hwy"/>
    <tag k="surface" v="paved"/>
  </node>
  <node id="133313250" version="1" timestamp="2007-11-25T23:17:51Z" uid="4467" user="Rosscoe" changeset="621649" lat="-31.557978" lon="146.505167">
    <tag k="created_by" v="JOSM"/>
    <tag k="highway" v="trunk"/>
    <tag k="name" v="Barrier Hwy"/>
    <tag k="surface" v="paved"/>
  </node>
  <node id="133313250" version="2" timestamp="2007-12-09T10:10:25Z" uid="4467" user="Rosscoe" changeset="198487" lat="-31.557978" lon="146.505167">
    <tag k="created_by" v="JOSM"/>
    <tag k="highway" v="trunk"/>
    <tag k="name" v="Barrier Hwy"/>
    <tag k="surface" v="paved"/>
  </node>
  <node id="133313329" version="1" timestamp="2007-11-25T23:17:53Z" uid="4467" user="Rosscoe" changeset="621649" lat="-31.557927" lon="146.504832">
    <tag k="created_by" v="JOSM"/>
    <tag k="highway" v="trunk"/>
    <tag k="name" v="Barrier Hwy"/>
    <tag k="surface" v="paved"/>
  </node>
  <node id="133313329" version="2" timestamp="2007-12-09T10:12:52Z" uid="4467" user="Rosscoe" changeset="198487" lat="-31.557927" lon="146.504832">
    <tag k="created_by" v="JOSM"/>
    <tag k="highway" v="trunk"/>
    <tag k="name" v="Barrier Hwy"/>
    <tag k="surface" v="paved"/>
  </node>
  <node id="133313397" version="1" timestamp="2007-11-25T23:17:55Z" uid="4467" user="Rosscoe" changeset="621649" lat="-31.557823" lon="146.504153">
    <tag k="created_by" v="JOSM"/>
    <tag k="highway" v="trunk"/>
    <tag k="name" v="Barrier Hwy"/>
    <tag k="surface" v="paved"/>
  </node>
  <node id="133313397" version="2" timestamp="2007-12-09T10:12:34Z" uid="4467" user="Rosscoe" changeset="198487" lat="-31.557823" lon="146.504153">
    <tag k="created_by" v="JOSM"/>
    <tag k="highway" v="trunk"/>
    <tag k="name" v="Barrier Hwy"/>
    <tag k="surface" v="paved"/>
  </node>
  <node id="133313438" version="1" timestamp="2007-11-25T23:17:57Z" uid="4467" user="Rosscoe" changeset="621649" lat="-31.557772" lon="146.503818">
    <tag k="created_by" v="JOSM"/>
    <tag k="highway" v="trunk"/>
    <tag k="name" v="Barrier Hwy"/>
    <tag k="surface" v="paved"/>
  </node>
  <node id="133313438" version="2" timestamp="2007-12-09T10:12:21Z" uid="4467" user="Rosscoe" changeset="198487" lat="-31.557772" lon="146.503818">
    <tag k="created_by" v="JOSM"/>
    <tag k="highway" v="trunk"/>
    <tag k="name" v="Barrier Hwy"/>
    <tag k="surface" v="paved"/>
  </node>
  <node id="133313475" version="1" timestamp="2007-11-25T23:17:59Z" uid="4467" user="Rosscoe" changeset="621649" lat="-31.559175" lon="146.512675">
    <tag k="created_by" v="JOSM"/>
    <tag k="highway" v="trunk"/>
    <tag k="name" v="Barrier Hwy"/>
    <tag k="surface" v="paved"/>
  </node>
  <node id="133313475" version="2" timestamp="2007-12-09T10:12:00Z" uid="4467" user="Rosscoe" changeset="198487" lat="-31.559175" lon="146.512675">
    <tag k="created_by" v="JOSM"/>
    <tag k="highway" v="trunk"/>
    <tag k="name" v="Barrier Hwy"/>
    <tag k="surface" v="paved"/>
  </node>
  <node id="133313542" version="1" timestamp="2007-11-25T23:18:00Z" uid="4467" user="Rosscoe" changeset="621649" lat="-31.559228" lon="146.513012">
    <tag k="created_by" v="JOSM"/>
    <tag k="highway" v="trunk"/>
    <tag k="name" v="Barrier Hwy"/>
    <tag k="surface" v="paved"/>
  </node>
  <node id="133313542" version="2" timestamp="2007-12-09T10:13:55Z" uid="4467" user="Rosscoe" changeset="198487" lat="-31.559228" lon="146.513012">
    <tag k="created_by" v="JOSM"/>
    <tag k="highway" v="trunk"/>
    <tag k="name" v="Barrier Hwy"/>
    <tag k="surface" v="paved"/>
  </node>
  <node id="133313614" version="1" timestamp="2007-11-25T23:18:02Z" uid="4467" user="Rosscoe" changeset="621649" lat="-31.559068" lon="146.511998">
    <tag k="created_by" v="JOSM"/>
    <tag k="highway" v="trunk"/>
    <tag k="name" v="Barrier Hwy"/>
    <tag k="surface" v="paved"/>
  </node>
  <node id="133313614" version="2" timestamp="2007-12-09T10:14:18Z" uid="4467" user="Rosscoe" changeset="198487" lat="-31.559068" lon="146.511998">
    <tag k="created_by" v="JOSM"/>
    <tag k="highway" v="trunk"/>
    <tag k="name" v="Barrier Hwy"/>
    <tag k="surface" v="paved"/>
  </node>
  <node id="133313666" version="1" timestamp="2007-11-25T23:18:04Z" uid="4467" user="Rosscoe" changeset="621649" lat="-31.559122" lon="146.512333">
    <tag k="created_by" v="JOSM"/>
    <tag k="highway" v="trunk"/>
    <tag k="name" v="Barrier Hwy"/>
    <tag k="surface" v="paved"/>
  </node>
  <node id="133313666" version="2" timestamp="2007-12-09T10:13:16Z" uid="4467" user="Rosscoe" changeset="198487" lat="-31.559122" lon="146.512333">
    <tag k="created_by" v="JOSM"/>
    <tag k="highway" v="trunk"/>
    <tag k="name" v="Barrier Hwy"/>
    <tag k="surface" v="paved"/>
  </node>
  <node id="133313694" version="1" timestamp="2007-11-25T23:18:05Z" uid="4467" user="Rosscoe" changeset="621649" lat="-31.559385" lon="146.514025">
    <tag k="created_by" v="JOSM"/>
    <tag k="highway" v="trunk"/>
    <tag k="name" v="Barrier Hwy"/>
    <tag k="surface" v="paved"/>
  </node>
  <node id="133313694" version="2" timestamp="2007-12-09T10:13:19Z" uid="4467" user="Rosscoe" changeset="198487" lat="-31.559385" lon="146.514025">
    <tag k="created_by" v="JOSM"/>
    <tag k="highway" v="trunk"/>
    <tag k="name" v="Barrier Hwy"/>
    <tag k="surface" v="paved"/>
  </node>
  <node id="133313728" version="1" timestamp="2007-11-25T23:18:05Z" uid="4467" user="Rosscoe" changeset="621649" lat="-31.559437" lon="146.514358">
    <tag k="created_by" v="JOSM"/>
    <tag k="highway" v="trunk"/>
    <tag k="name" v="Barrier Hwy"/>
    <tag k="surface" v="paved"/>
  </node>
  <node id="133313728" version="2" timestamp="2007-12-09T09:42:02Z" uid="4467" user="Rosscoe" changeset="198487" lat="-31.559437" lon="146.514358">
    <tag k="created_by" v="JOSM"/>
  </node>
  <node id="133313755" version="1" timestamp="2007-11-25T23:18:06Z" uid="4467" user="Rosscoe" changeset="621649" lat="-31.55928" lon="146.513345">
    <tag k="created_by" v="JOSM"/>
    <tag k="highway" v="trunk"/>
    <tag k="name" v="Barrier Hwy"/>
    <tag k="surface" v="paved"/>
  </node>
  <node id="133313755" version="2" timestamp="2007-12-09T10:13:39Z" uid="4467" user="Rosscoe" changeset="198487" lat="-31.55928" lon="146.513345">
    <tag k="created_by" v="JOSM"/>
    <tag k="highway" v="trunk"/>
    <tag k="name" v="Barrier Hwy"/>
    <tag k="surface" v="paved"/>
  </node>
  <node id="133313779" version="1" timestamp="2007-11-25T23:18:07Z" uid="4467" user="Rosscoe" changeset="621649" lat="-31.559332" lon="146.513683">
    <tag k="created_by" v="JOSM"/>
    <tag k="highway" v="trunk"/>
    <tag k="name" v="Barrier Hwy"/>
    <tag k="surface" v="paved"/>
  </node>
  <node id="133313779" version="2" timestamp="2007-12-09T10:13:51Z" uid="4467" user="Rosscoe" changeset="198487" lat="-31.559332" lon="146.513683">
    <tag k="created_by" v="JOSM"/>
    <tag k="highway" v="trunk"/>
    <tag k="name" v="Barrier Hwy"/>
    <tag k="surface" v="paved"/>
  </node>
  <node id="133313814" version="1" timestamp="2007-11-25T23:18:08Z" uid="4467" user="Rosscoe" changeset="621649" lat="-31.558685" lon="146.509598">
    <tag k="created_by" v="JOSM"/>
    <tag k="highway" v="trunk"/>
    <tag k="name" v="Barrier Hwy"/>
    <tag k="surface" v="paved"/>
  </node>
  <node id="133313814" version="2" timestamp="2007-12-09T10:15:18Z" uid="4467" user="Rosscoe" changeset="198487" lat="-31.558685" lon="146.509598">
    <tag k="created_by" v="JOSM"/>
    <tag k="highway" v="trunk"/>
    <tag k="name" v="Barrier Hwy"/>
    <tag k="surface" v="paved"/>
  </node>
  <node id="133313856" version="1" timestamp="2007-11-25T23:18:09Z" uid="4467" user="Rosscoe" changeset="621649" lat="-31.558742" lon="146.509945">
    <tag k="created_by" v="JOSM"/>
    <tag k="highway" v="trunk"/>
    <tag k="name" v="Barrier Hwy"/>
    <tag k="surface" v="paved"/>
  </node>
  <node id="133313856" version="2" timestamp="2007-12-09T10:15:43Z" uid="4467" user="Rosscoe" changeset="198487" lat="-31.558742" lon="146.509945">
    <tag k="created_by" v="JOSM"/>
    <tag k="highway" v="trunk"/>
    <tag k="name" v="Barrier Hwy"/>
    <tag k="surface" v="paved"/>
  </node>
  <node id="133313882" version="1" timestamp="2007-11-25T23:18:09Z" uid="4467" user="Rosscoe" changeset="621649" lat="-31.558522" lon="146.508572">
    <tag k="created_by" v="JOSM"/>
    <tag k="highway" v="trunk"/>
    <tag k="name" v="Barrier Hwy"/>
    <tag k="surface" v="paved"/>
  </node>
  <node id="133313882" version="2" timestamp="2007-12-09T10:15:37Z" uid="4467" user="Rosscoe" changeset="198487" lat="-31.558522" lon="146.508572">
    <tag k="created_by" v="JOSM"/>
    <tag k="highway" v="trunk"/>
    <tag k="name" v="Barrier Hwy"/>
    <tag k="surface" v="paved"/>
  </node>
  <node id="133313917" version="1" timestamp="2007-11-25T23:18:10Z" uid="4467" user="Rosscoe" changeset="621649" lat="-31.55863" lon="146.509255">
    <tag k="created_by" v="JOSM"/>
    <tag k="highway" v="trunk"/>
    <tag k="name" v="Barrier Hwy"/>
    <tag k="surface" v="paved"/>
  </node>
  <node id="133313917" version="2" timestamp="2007-12-09T10:15:48Z" uid="4467" user="Rosscoe" changeset="198487" lat="-31.55863" lon="146.509255">
    <tag k="created_by" v="JOSM"/>
    <tag k="highway" v="trunk"/>
    <tag k="name" v="Barrier Hwy"/>
    <tag k="surface" v="paved"/>
  </node>
  <node id="133313957" version="1" timestamp="2007-11-25T23:18:11Z" uid="4467" user="Rosscoe" changeset="621649" lat="-31.558903" lon="146.51097">
    <tag k="created_by" v="JOSM"/>
    <tag k="highway" v="trunk"/>
    <tag k="name" v="Barrier Hwy"/>
    <tag k="surface" v="paved"/>
  </node>
  <node id="133313957" version="2" timestamp="2007-12-09T10:14:53Z" uid="4467" user="Rosscoe" changeset="198487" lat="-31.558903" lon="146.51097">
    <tag k="created_by" v="JOSM"/>
    <tag k="highway" v="trunk"/>
    <tag k="name" v="Barrier Hwy"/>
    <tag k="surface" v="paved"/>
  </node>
  <node id="133313990" version="1" timestamp="2007-11-25T23:18:12Z" uid="4467" user="Rosscoe" changeset="621649" lat="-31.558958" lon="146.511313">
    <tag k="created_by" v="JOSM"/>
    <tag k="highway" v="trunk"/>
    <tag k="name" v="Barrier Hwy"/>
    <tag k="surface" v="paved"/>
  </node>
  <node id="133313990" version="2" timestamp="2007-12-09T10:15:05Z" uid="4467" user="Rosscoe" changeset="198487" lat="-31.558958" lon="146.511313">
    <tag k="created_by" v="JOSM"/>
    <tag k="highway" v="trunk"/>
    <tag k="name" v="Barrier Hwy"/>
    <tag k="surface" v="paved"/>
  </node>
  <node id="133314024" version="1" timestamp="2007-11-25T23:18:12Z" uid="4467" user="Rosscoe" changeset="621649" lat="-31.558795" lon="146.510285">
    <tag k="created_by" v="JOSM"/>
    <tag k="highway" v="trunk"/>
    <tag k="name" v="Barrier Hwy"/>
    <tag k="surface" v="paved"/>
  </node>
  <node id="133314024" version="2" timestamp="2007-12-09T10:15:14Z" uid="4467" user="Rosscoe" changeset="198487" lat="-31.558795" lon="146.510285">
    <tag k="created_by" v="JOSM"/>
    <tag k="highway" v="trunk"/>
    <tag k="name" v="Barrier Hwy"/>
    <tag k="surface" v="paved"/>
  </node>
  <node id="133314050" version="1" timestamp="2007-11-25T23:18:13Z" uid="4467" user="Rosscoe" changeset="621649" lat="-31.55885" lon="146.510628">
    <tag k="created_by" v="JOSM"/>
    <tag k="highway" v="trunk"/>
    <tag k="name" v="Barrier Hwy"/>
    <tag k="surface" v="paved"/>
  </node>
  <node id="133314050" version="2" timestamp="2007-12-09T10:16:50Z" uid="4467" user="Rosscoe" changeset="198487" lat="-31.55885" lon="146.510628">
    <tag k="created_by" v="JOSM"/>
    <tag k="highway" v="trunk"/>
    <tag k="name" v="Barrier Hwy"/>
    <tag k="surface" v="paved"/>
  </node>
  <node id="133314072" version="1" timestamp="2007-11-25T23:18:14Z" uid="4467" user="Rosscoe" changeset="621649" lat="-31.559782" lon="146.517778">
    <tag k="created_by" v="JOSM"/>
    <tag k="highway" v="trunk"/>
    <tag k="name" v="Barrier Hwy"/>
    <tag k="surface" v="paved"/>
  </node>
  <node id="133314072" version="2" timestamp="2007-12-09T10:16:58Z" uid="4467" user="Rosscoe" changeset="198487" lat="-31.559782" lon="146.517778">
    <tag k="created_by" v="JOSM"/>
    <tag k="highway" v="trunk"/>
    <tag k="name" v="Barrier Hwy"/>
    <tag k="surface" v="paved"/>
  </node>
  <node id="133314100" version="1" timestamp="2007-11-25T23:18:15Z" uid="4467" user="Rosscoe" changeset="621649" lat="-31.559775" lon="146.517432">
    <tag k="created_by" v="JOSM"/>
    <tag k="highway" v="trunk"/>
    <tag k="name" v="Barrier Hwy"/>
    <tag k="surface" v="paved"/>
  </node>
  <node id="133314100" version="2" timestamp="2007-12-09T09:41:29Z" uid="4467" user="Rosscoe" changeset="198487" lat="-31.559775" lon="146.517432">
    <tag k="created_by" v="JOSM"/>
  </node>
  <node id="133314138" version="1" timestamp="2007-11-25T23:18:16Z" uid="4467" user="Rosscoe" changeset="621649" lat="-31.55978" lon="146.518473">
    <tag k="created_by" v="JOSM"/>
    <tag k="highway" v="trunk"/>
    <tag k="name" v="Barrier Hwy"/>
    <tag k="surface" v="paved"/>
  </node>
  <node id="133314138" version="2" timestamp="2007-12-09T09:41:18Z" uid="4467" user="Rosscoe" changeset="198487" lat="-31.55978" lon="146.518473">
    <tag k="created_by" v="JOSM"/>
  </node>
  <node id="133314138" version="3" timestamp="2008-02-03T06:08:10Z" uid="18775" user="drlizau" changeset="28133" lat="-31.55978" lon="146.518473">
    <tag k="created_by" v="JOSM"/>
  </node>
  <node id="133314177" version="1" timestamp="2007-11-25T23:18:16Z" uid="4467" user="Rosscoe" changeset="621649" lat="-31.559783" lon="146.51813">
    <tag k="created_by" v="JOSM"/>
    <tag k="highway" v="trunk"/>
    <tag k="name" v="Barrier Hwy"/>
    <tag k="surface" v="paved"/>
  </node>
  <node id="133314177" version="2" timestamp="2007-12-09T10:16:11Z" uid="4467" user="Rosscoe" changeset="198487" lat="-31.559783" lon="146.51813">
    <tag k="created_by" v="JOSM"/>
    <tag k="highway" v="trunk"/>
    <tag k="name" v="Barrier Hwy"/>
    <tag k="surface" v="paved"/>
  </node>
  <node id="133314220" version="1" timestamp="2007-11-25T23:18:17Z" uid="4467" user="Rosscoe" changeset="621649" lat="-31.559755" lon="146.519168">
    <tag k="created_by" v="JOSM"/>
    <tag k="highway" v="trunk"/>
    <tag k="name" v="Barrier Hwy"/>
    <tag k="surface" v="paved"/>
  </node>
  <node id="133314220" version="2" timestamp="2007-12-09T09:41:38Z" uid="4467" user="Rosscoe" changeset="198487" lat="-31.559755" lon="146.519168">
    <tag k="created_by" v="JOSM"/>
  </node>
  <node id="133314252" version="1" timestamp="2007-11-25T23:18:18Z" uid="4467" user="Rosscoe" changeset="621649" lat="-31.55977" lon="146.518822">
    <tag k="created_by" v="JOSM"/>
    <tag k="highway" v="trunk"/>
    <tag k="name" v="Barrier Hwy"/>
    <tag k="surface" v="paved"/>
  </node>
  <node id="133314252" version="2" timestamp="2007-12-09T10:16:31Z" uid="4467" user="Rosscoe" changeset="198487" lat="-31.55977" lon="146.518822">
    <tag k="created_by" v="JOSM"/>
    <tag k="highway" v="trunk"/>
    <tag k="name" v="Barrier Hwy"/>
    <tag k="surface" v="paved"/>
  </node>
  <node id="133314280" version="1" timestamp="2007-11-25T23:18:19Z" uid="4467" user="Rosscoe" changeset="621649" lat="-31.559703" lon="146.51986">
    <tag k="created_by" v="JOSM"/>
    <tag k="highway" v="trunk"/>
    <tag k="name" v="Barrier Hwy"/>
    <tag k="surface" v="paved"/>
  </node>
  <node id="133314280" version="2" timestamp="2007-12-09T09:41:35Z" uid="4467" user="Rosscoe" changeset="198487" lat="-31.559703" lon="146.51986">
    <tag k="created_by" v="JOSM"/>
  </node>
  <node id="133314280" version="3" timestamp="2008-02-03T06:08:13Z" uid="18775" user="drlizau" changeset="28133" lat="-31.559703" lon="146.51986">
    <tag k="created_by" v="JOSM"/>
  </node>
  <node id="133314320" version="1" timestamp="2007-11-25T23:18:19Z" uid="4467" user="Rosscoe" changeset="621649" lat="-31.559732" lon="146.519517">
    <tag k="created_by" v="JOSM"/>
    <tag k="highway" v="trunk"/>
    <tag k="name" v="Barrier Hwy"/>
    <tag k="surface" v="paved"/>
  </node>
  <node id="133314320" version="2" timestamp="2007-12-09T10:18:14Z" uid="4467" user="Rosscoe" changeset="198487" lat="-31.559732" lon="146.519517">
    <tag k="created_by" v="JOSM"/>
    <tag k="highway" v="trunk"/>
    <tag k="name" v="Barrier Hwy"/>
    <tag k="surface" v="paved"/>
  </node>
  <node id="133314339" version="1" timestamp="2007-11-25T23:18:20Z" uid="4467" user="Rosscoe" changeset="621649" lat="-31.55954" lon="146.515033">
    <tag k="created_by" v="JOSM"/>
    <tag k="highway" v="trunk"/>
    <tag k="name" v="Barrier Hwy"/>
    <tag k="surface" v="paved"/>
  </node>
  <node id="133314339" version="2" timestamp="2007-12-09T10:18:08Z" uid="4467" user="Rosscoe" changeset="198487" lat="-31.55954" lon="146.515033">
    <tag k="created_by" v="JOSM"/>
    <tag k="highway" v="trunk"/>
    <tag k="name" v="Barrier Hwy"/>
    <tag k="surface" v="paved"/>
  </node>
  <node id="133314375" version="1" timestamp="2007-11-25T23:18:21Z" uid="4467" user="Rosscoe" changeset="621649" lat="-31.559488" lon="146.514695">
    <tag k="created_by" v="JOSM"/>
    <tag k="highway" v="trunk"/>
    <tag k="name" v="Barrier Hwy"/>
    <tag k="surface" v="paved"/>
  </node>
  <node id="133314375" version="2" timestamp="2007-12-09T10:18:41Z" uid="4467" user="Rosscoe" changeset="198487" lat="-31.559488" lon="146.514695">
    <tag k="created_by" v="JOSM"/>
    <tag k="highway" v="trunk"/>
    <tag k="name" v="Barrier Hwy"/>
    <tag k="surface" v="paved"/>
  </node>
  <node id="133314417" version="1" timestamp="2007-11-25T23:18:22Z" uid="4467" user="Rosscoe" changeset="621649" lat="-31.559633" lon="146.51571">
    <tag k="created_by" v="JOSM"/>
    <tag k="highway" v="trunk"/>
    <tag k="name" v="Barrier Hwy"/>
    <tag k="surface" v="paved"/>
  </node>
  <node id="133314417" version="2" timestamp="2007-12-09T10:18:23Z" uid="4467" user="Rosscoe" changeset="198487" lat="-31.559633" lon="146.51571">
    <tag k="created_by" v="JOSM"/>
    <tag k="highway" v="trunk"/>
    <tag k="name" v="Barrier Hwy"/>
    <tag k="surface" v="paved"/>
  </node>
  <node id="133314439" version="1" timestamp="2007-11-25T23:18:23Z" uid="4467" user="Rosscoe" changeset="621649" lat="-31.559588" lon="146.515368">
    <tag k="created_by" v="JOSM"/>
    <tag k="highway" v="trunk"/>
    <tag k="name" v="Barrier Hwy"/>
    <tag k="surface" v="paved"/>
  </node>
  <node id="133314439" version="2" timestamp="2007-12-09T09:41:16Z" uid="4467" user="Rosscoe" changeset="198487" lat="-31.559588" lon="146.515368">
    <tag k="created_by" v="JOSM"/>
  </node>
  <node id="133314439" version="3" timestamp="2008-02-03T06:08:49Z" uid="18775" user="drlizau" changeset="28133" lat="-31.559588" lon="146.515368">
    <tag k="created_by" v="JOSM"/>
  </node>
  <node id="133314474" version="1" timestamp="2007-11-25T23:18:24Z" uid="4467" user="Rosscoe" changeset="621649" lat="-31.559708" lon="146.516395">
    <tag k="created_by" v="JOSM"/>
    <tag k="highway" v="trunk"/>
    <tag k="name" v="Barrier Hwy"/>
    <tag k="surface" v="paved"/>
  </node>
  <node id="133314474" version="2" timestamp="2007-12-09T10:17:28Z" uid="4467" user="Rosscoe" changeset="198487" lat="-31.559708" lon="146.516395">
    <tag k="created_by" v="JOSM"/>
    <tag k="highway" v="trunk"/>
    <tag k="name" v="Barrier Hwy"/>
    <tag k="surface" v="paved"/>
  </node>
  <node id="133314504" version="1" timestamp="2007-11-25T23:18:25Z" uid="4467" user="Rosscoe" changeset="621649" lat="-31.559675" lon="146.516055">
    <tag k="created_by" v="JOSM"/>
    <tag k="highway" v="trunk"/>
    <tag k="name" v="Barrier Hwy"/>
    <tag k="surface" v="paved"/>
  </node>
  <node id="133314504" version="2" timestamp="2007-12-09T09:41:11Z" uid="4467" user="Rosscoe" changeset="198487" lat="-31.559675" lon="146.516055">
    <tag k="created_by" v="JOSM"/>
  </node>
  <node id="133314539" version="1" timestamp="2007-11-25T23:18:25Z" uid="4467" user="Rosscoe" changeset="621649" lat="-31.55976" lon="146.517087">
    <tag k="created_by" v="JOSM"/>
    <tag k="highway" v="trunk"/>
    <tag k="name" v="Barrier Hwy"/>
    <tag k="surface" v="paved"/>
  </node>
  <node id="133314539" version="2" timestamp="2007-12-09T10:17:45Z" uid="4467" user="Rosscoe" changeset="198487" lat="-31.55976" lon="146.517087">
    <tag k="created_by" v="JOSM"/>
    <tag k="highway" v="trunk"/>
    <tag k="name" v="Barrier Hwy"/>
    <tag k="surface" v="paved"/>
  </node>
  <node id="133314569" version="1" timestamp="2007-11-25T23:18:26Z" uid="4467" user="Rosscoe" changeset="621649" lat="-31.559737" lon="146.516737">
    <tag k="created_by" v="JOSM"/>
    <tag k="highway" v="trunk"/>
    <tag k="name" v="Barrier Hwy"/>
    <tag k="surface" v="paved"/>
  </node>
  <node id="133314569" version="2" timestamp="2007-12-09T09:40:57Z" uid="4467" user="Rosscoe" changeset="198487" lat="-31.559737" lon="146.516737">
    <tag k="created_by" v="JOSM"/>
  </node>
  <node id="133314569" version="3" timestamp="2008-02-03T06:08:44Z" uid="18775" user="drlizau" changeset="28133" lat="-31.559737" lon="146.516737">
    <tag k="created_by" v="JOSM"/>
  </node>
  <node id="133314595" version="1" timestamp="2007-11-25T23:18:27Z" uid="4467" user="Rosscoe" changeset="621649" lat="-31.559137" lon="146.523612">
    <tag k="created_by" v="JOSM"/>
    <tag k="highway" v="trunk"/>
    <tag k="name" v="Barrier Hwy"/>
    <tag k="surface" v="paved"/>
  </node>
  <node id="133314595" version="2" timestamp="2007-12-09T10:19:27Z" uid="4467" user="Rosscoe" changeset="198487" lat="-31.559137" lon="146.523612">
    <tag k="created_by" v="JOSM"/>
    <tag k="highway" v="trunk"/>
    <tag k="name" v="Barrier Hwy"/>
    <tag k="surface" v="paved"/>
  </node>
  <node id="133314631" version="1" timestamp="2007-11-25T23:18:28Z" uid="4467" user="Rosscoe" changeset="621649" lat="-31.559022" lon="146.524295">
    <tag k="created_by" v="JOSM"/>
    <tag k="highway" v="trunk"/>
    <tag k="name" v="Barrier Hwy"/>
    <tag k="surface" v="paved"/>
  </node>
  <node id="133314631" version="2" timestamp="2007-12-09T10:18:55Z" uid="4467" user="Rosscoe" changeset="198487" lat="-31.559022" lon="146.524295">
    <tag k="created_by" v="JOSM"/>
    <tag k="highway" v="trunk"/>
    <tag k="name" v="Barrier Hwy"/>
    <tag k="surface" v="paved"/>
  </node>
  <node id="133314661" version="1" timestamp="2007-11-25T23:18:28Z" uid="4467" user="Rosscoe" changeset="621649" lat="-31.558965" lon="146.524632">
    <tag k="created_by" v="JOSM"/>
    <tag k="highway" v="trunk"/>
    <tag k="name" v="Barrier Hwy"/>
    <tag k="surface" v="paved"/>
  </node>
  <node id="133314661" version="2" timestamp="2007-12-09T10:19:06Z" uid="4467" user="Rosscoe" changeset="198487" lat="-31.558965" lon="146.524632">
    <tag k="created_by" v="JOSM"/>
    <tag k="highway" v="trunk"/>
    <tag k="name" v="Barrier Hwy"/>
    <tag k="surface" v="paved"/>
  </node>
  <node id="133314685" version="1" timestamp="2007-11-25T23:18:29Z" uid="4467" user="Rosscoe" changeset="621649" lat="-31.558855" lon="146.525308">
    <tag k="created_by" v="JOSM"/>
    <tag k="highway" v="trunk"/>
    <tag k="name" v="Barrier Hwy"/>
    <tag k="surface" v="paved"/>
  </node>
  <node id="133314685" version="2" timestamp="2007-12-09T10:18:58Z" uid="4467" user="Rosscoe" changeset="198487" lat="-31.558855" lon="146.525308">
    <tag k="created_by" v="JOSM"/>
    <tag k="highway" v="trunk"/>
    <tag k="name" v="Barrier Hwy"/>
    <tag k="surface" v="paved"/>
  </node>
  <node id="133314701" version="1" timestamp="2007-11-25T23:18:30Z" uid="4467" user="Rosscoe" changeset="621649" lat="-31.558743" lon="146.525982">
    <tag k="created_by" v="JOSM"/>
    <tag k="highway" v="trunk"/>
    <tag k="name" v="Barrier Hwy"/>
    <tag k="surface" v="paved"/>
  </node>
  <node id="133314701" version="2" timestamp="2007-12-09T10:20:02Z" uid="4467" user="Rosscoe" changeset="198487" lat="-31.558743" lon="146.525982">
    <tag k="created_by" v="JOSM"/>
    <tag k="highway" v="trunk"/>
    <tag k="name" v="Barrier Hwy"/>
    <tag k="surface" v="paved"/>
  </node>
  <node id="133314718" version="1" timestamp="2007-11-25T23:18:31Z" uid="4467" user="Rosscoe" changeset="621649" lat="-31.558685" lon="146.526323">
    <tag k="created_by" v="JOSM"/>
    <tag k="highway" v="trunk"/>
    <tag k="name" v="Barrier Hwy"/>
    <tag k="surface" v="paved"/>
  </node>
  <node id="133314718" version="2" timestamp="2007-12-09T10:19:57Z" uid="4467" user="Rosscoe" changeset="198487" lat="-31.558685" lon="146.526323">
    <tag k="created_by" v="JOSM"/>
    <tag k="highway" v="trunk"/>
    <tag k="name" v="Barrier Hwy"/>
    <tag k="surface" v="paved"/>
  </node>
  <node id="133314753" version="1" timestamp="2007-11-25T23:18:32Z" uid="4467" user="Rosscoe" changeset="621649" lat="-31.55863" lon="146.526658">
    <tag k="created_by" v="JOSM"/>
    <tag k="highway" v="trunk"/>
    <tag k="name" v="Barrier Hwy"/>
    <tag k="surface" v="paved"/>
  </node>
  <node id="133314753" version="2" timestamp="2007-12-09T10:19:38Z" uid="4467" user="Rosscoe" changeset="198487" lat="-31.55863" lon="146.526658">
    <tag k="created_by" v="JOSM"/>
    <tag k="highway" v="trunk"/>
    <tag k="name" v="Barrier Hwy"/>
    <tag k="surface" v="paved"/>
  </node>
  <node id="133314767" version="1" timestamp="2007-11-25T23:18:32Z" uid="4467" user="Rosscoe" changeset="621649" lat="-31.558572" lon="146.526995">
    <tag k="created_by" v="JOSM"/>
    <tag k="highway" v="trunk"/>
    <tag k="name" v="Barrier Hwy"/>
    <tag k="surface" v="paved"/>
  </node>
  <node id="133314767" version="2" timestamp="2007-12-09T10:19:43Z" uid="4467" user="Rosscoe" changeset="198487" lat="-31.558572" lon="146.526995">
    <tag k="created_by" v="JOSM"/>
    <tag k="highway" v="trunk"/>
    <tag k="name" v="Barrier Hwy"/>
    <tag k="surface" v="paved"/>
  </node>
  <node id="133314799" version="1" timestamp="2007-11-25T23:18:33Z" uid="4467" user="Rosscoe" changeset="621649" lat="-31.559667" lon="146.52021">
    <tag k="created_by" v="JOSM"/>
    <tag k="highway" v="trunk"/>
    <tag k="name" v="Barrier Hwy"/>
    <tag k="surface" v="paved"/>
  </node>
  <node id="133314799" version="2" timestamp="2007-12-09T10:19:49Z" uid="4467" user="Rosscoe" changeset="198487" lat="-31.559667" lon="146.52021">
    <tag k="created_by" v="JOSM"/>
    <tag k="highway" v="trunk"/>
    <tag k="name" v="Barrier Hwy"/>
    <tag k="surface" v="paved"/>
  </node>
  <node id="133314824" version="1" timestamp="2007-11-25T23:18:34Z" uid="4467" user="Rosscoe" changeset="621649" lat="-31.559625" lon="146.520548">
    <tag k="created_by" v="JOSM"/>
    <tag k="highway" v="trunk"/>
    <tag k="name" v="Barrier Hwy"/>
    <tag k="surface" v="paved"/>
  </node>
  <node id="133314824" version="2" timestamp="2007-12-09T09:40:42Z" uid="4467" user="Rosscoe" changeset="198487" lat="-31.559625" lon="146.520548">
    <tag k="created_by" v="JOSM"/>
  </node>
  <node id="133314849" version="1" timestamp="2007-11-25T23:18:35Z" uid="4467" user="Rosscoe" changeset="621649" lat="-31.559525" lon="146.521235">
    <tag k="created_by" v="JOSM"/>
    <tag k="highway" v="trunk"/>
    <tag k="name" v="Barrier Hwy"/>
    <tag k="surface" v="paved"/>
  </node>
  <node id="133314849" version="2" timestamp="2007-12-09T10:20:45Z" uid="4467" user="Rosscoe" changeset="198487" lat="-31.559525" lon="146.521235">
    <tag k="created_by" v="JOSM"/>
    <tag k="highway" v="trunk"/>
    <tag k="name" v="Barrier Hwy"/>
    <tag k="surface" v="paved"/>
  </node>
  <node id="133314877" version="1" timestamp="2007-11-25T23:18:36Z" uid="4467" user="Rosscoe" changeset="621649" lat="-31.55947" lon="146.521577">
    <tag k="created_by" v="JOSM"/>
    <tag k="highway" v="trunk"/>
    <tag k="name" v="Barrier Hwy"/>
    <tag k="surface" v="paved"/>
  </node>
  <node id="133314877" version="2" timestamp="2007-12-09T10:20:47Z" uid="4467" user="Rosscoe" changeset="198487" lat="-31.55947" lon="146.521577">
    <tag k="created_by" v="JOSM"/>
    <tag k="highway" v="trunk"/>
    <tag k="name" v="Barrier Hwy"/>
    <tag k="surface" v="paved"/>
  </node>
  <node id="133314903" version="1" timestamp="2007-11-25T23:18:37Z" uid="4467" user="Rosscoe" changeset="621649" lat="-31.559415" lon="146.521915">
    <tag k="created_by" v="JOSM"/>
    <tag k="highway" v="trunk"/>
    <tag k="name" v="Barrier Hwy"/>
    <tag k="surface" v="paved"/>
  </node>
  <node id="133314903" version="2" timestamp="2007-12-09T10:20:17Z" uid="4467" user="Rosscoe" changeset="198487" lat="-31.559415" lon="146.521915">
    <tag k="created_by" v="JOSM"/>
    <tag k="highway" v="trunk"/>
    <tag k="name" v="Barrier Hwy"/>
    <tag k="surface" v="paved"/>
  </node>
  <node id="133314943" version="1" timestamp="2007-11-25T23:18:38Z" uid="4467" user="Rosscoe" changeset="621649" lat="-31.559358" lon="146.52226">
    <tag k="created_by" v="JOSM"/>
    <tag k="highway" v="trunk"/>
    <tag k="name" v="Barrier Hwy"/>
    <tag k="surface" v="paved"/>
  </node>
  <node id="133314943" version="2" timestamp="2007-12-09T10:20:26Z" uid="4467" user="Rosscoe" changeset="198487" lat="-31.559358" lon="146.52226">
    <tag k="created_by" v="JOSM"/>
    <tag k="highway" v="trunk"/>
    <tag k="name" v="Barrier Hwy"/>
    <tag k="surface" v="paved"/>
  </node>
  <node id="133314978" version="1" timestamp="2007-11-25T23:18:39Z" uid="4467" user="Rosscoe" changeset="621649" lat="-31.559305" lon="146.522597">
    <tag k="created_by" v="JOSM"/>
    <tag k="highway" v="trunk"/>
    <tag k="name" v="Barrier Hwy"/>
    <tag k="surface" v="paved"/>
  </node>
  <node id="133314978" version="2" timestamp="2007-12-09T09:40:33Z" uid="4467" user="Rosscoe" changeset="198487" lat="-31.559305" lon="146.522597">
    <tag k="created_by" v="JOSM"/>
  </node>
  <node id="133314978" version="3" timestamp="2008-02-03T06:08:12Z" uid="18775" user="drlizau" changeset="28133" lat="-31.559305" lon="146.522597">
    <tag k="created_by" v="JOSM"/>
  </node>
  <node id="133315012" version="1" timestamp="2007-11-25T23:18:39Z" uid="4467" user="Rosscoe" changeset="621649" lat="-31.559192" lon="146.523277">
    <tag k="created_by" v="JOSM"/>
    <tag k="highway" v="trunk"/>
    <tag k="name" v="Barrier Hwy"/>
    <tag k="surface" v="paved"/>
  </node>
  <node id="133315012" version="2" timestamp="2007-12-09T10:20:53Z" uid="4467" user="Rosscoe" changeset="198487" lat="-31.559192" lon="146.523277">
    <tag k="created_by" v="JOSM"/>
    <tag k="highway" v="trunk"/>
    <tag k="name" v="Barrier Hwy"/>
    <tag k="surface" v="paved"/>
  </node>
  <node id="133315039" version="1" timestamp="2007-11-25T23:18:40Z" uid="4467" user="Rosscoe" changeset="621649" lat="-31.545248" lon="146.422892">
    <tag k="created_by" v="JOSM"/>
    <tag k="highway" v="trunk"/>
    <tag k="name" v="Barrier Hwy"/>
    <tag k="surface" v="paved"/>
  </node>
  <node id="133315039" version="2" timestamp="2007-12-09T10:21:03Z" uid="4467" user="Rosscoe" changeset="198487" lat="-31.545248" lon="146.422892">
    <tag k="created_by" v="JOSM"/>
    <tag k="highway" v="trunk"/>
    <tag k="name" v="Barrier Hwy"/>
    <tag k="surface" v="paved"/>
  </node>
  <node id="133315072" version="1" timestamp="2007-11-25T23:18:41Z" uid="4467" user="Rosscoe" changeset="621649" lat="-31.54517" lon="146.422568">
    <tag k="created_by" v="JOSM"/>
    <tag k="highway" v="trunk"/>
    <tag k="name" v="Barrier Hwy"/>
    <tag k="surface" v="paved"/>
  </node>
  <node id="133315072" version="2" timestamp="2007-12-09T10:22:23Z" uid="4467" user="Rosscoe" changeset="198487" lat="-31.54517" lon="146.422568">
    <tag k="created_by" v="JOSM"/>
    <tag k="highway" v="trunk"/>
    <tag k="name" v="Barrier Hwy"/>
    <tag k="surface" v="paved"/>
  </node>
  <node id="133315106" version="1" timestamp="2007-11-25T23:18:42Z" uid="4467" user="Rosscoe" changeset="621649" lat="-31.545093" lon="146.42225">
    <tag k="created_by" v="JOSM"/>
    <tag k="highway" v="trunk"/>
    <tag k="name" v="Barrier Hwy"/>
    <tag k="surface" v="paved"/>
  </node>
  <node id="133315106" version="2" timestamp="2007-12-09T10:22:10Z" uid="4467" user="Rosscoe" changeset="198487" lat="-31.545093" lon="146.42225">
    <tag k="created_by" v="JOSM"/>
    <tag k="highway" v="trunk"/>
    <tag k="name" v="Barrier Hwy"/>
    <tag k="surface" v="paved"/>
  </node>
  <node id="133315133" version="1" timestamp="2007-11-25T23:18:42Z" uid="4467" user="Rosscoe" changeset="621649" lat="-31.545017" lon="146.42193">
    <tag k="created_by" v="JOSM"/>
    <tag k="highway" v="trunk"/>
    <tag k="name" v="Barrier Hwy"/>
    <tag k="surface" v="paved"/>
  </node>
  <node id="133315133" version="2" timestamp="2007-12-09T10:22:03Z" uid="4467" user="Rosscoe" changeset="198487" lat="-31.545017" lon="146.42193">
    <tag k="created_by" v="JOSM"/>
    <tag k="highway" v="trunk"/>
    <tag k="name" v="Barrier Hwy"/>
    <tag k="surface" v="paved"/>
  </node>
  <node id="133315165" version="1" timestamp="2007-11-25T23:18:43Z" uid="4467" user="Rosscoe" changeset="621649" lat="-31.544942" lon="146.421613">
    <tag k="created_by" v="JOSM"/>
    <tag k="highway" v="trunk"/>
    <tag k="name" v="Barrier Hwy"/>
    <tag k="surface" v="paved"/>
  </node>
  <node id="133315165" version="2" timestamp="2007-12-09T10:21:52Z" uid="4467" user="Rosscoe" changeset="198487" lat="-31.544942" lon="146.421613">
    <tag k="created_by" v="JOSM"/>
    <tag k="highway" v="trunk"/>
    <tag k="name" v="Barrier Hwy"/>
    <tag k="surface" v="paved"/>
  </node>
  <node id="133315193" version="1" timestamp="2007-11-25T23:18:44Z" uid="4467" user="Rosscoe" changeset="621649" lat="-31.544865" lon="146.421305">
    <tag k="created_by" v="JOSM"/>
    <tag k="highway" v="trunk"/>
    <tag k="name" v="Barrier Hwy"/>
    <tag k="surface" v="paved"/>
  </node>
  <node id="133315193" version="2" timestamp="2007-12-09T10:21:39Z" uid="4467" user="Rosscoe" changeset="198487" lat="-31.544865" lon="146.421305">
    <tag k="created_by" v="JOSM"/>
    <tag k="highway" v="trunk"/>
    <tag k="name" v="Barrier Hwy"/>
    <tag k="surface" v="paved"/>
  </node>
  <node id="133315227" version="1" timestamp="2007-11-25T23:18:45Z" uid="4467" user="Rosscoe" changeset="621649" lat="-31.544792" lon="146.420997">
    <tag k="created_by" v="JOSM"/>
    <tag k="highway" v="trunk"/>
    <tag k="name" v="Barrier Hwy"/>
    <tag k="surface" v="paved"/>
  </node>
  <node id="133315227" version="2" timestamp="2007-12-09T10:23:02Z" uid="4467" user="Rosscoe" changeset="198487" lat="-31.544792" lon="146.420997">
    <tag k="created_by" v="JOSM"/>
    <tag k="highway" v="trunk"/>
    <tag k="name" v="Barrier Hwy"/>
    <tag k="surface" v="paved"/>
  </node>
  <node id="133315257" version="1" timestamp="2007-11-25T23:18:46Z" uid="4467" user="Rosscoe" changeset="621649" lat="-31.54472" lon="146.42069">
    <tag k="created_by" v="JOSM"/>
    <tag k="highway" v="trunk"/>
    <tag k="name" v="Barrier Hwy"/>
    <tag k="surface" v="paved"/>
  </node>
  <node id="133315257" version="2" timestamp="2007-12-09T10:22:52Z" uid="4467" user="Rosscoe" changeset="198487" lat="-31.54472" lon="146.42069">
    <tag k="created_by" v="JOSM"/>
    <tag k="highway" v="trunk"/>
    <tag k="name" v="Barrier Hwy"/>
    <tag k="surface" v="paved"/>
  </node>
  <node id="133315296" version="1" timestamp="2007-11-25T23:18:46Z" uid="4467" user="Rosscoe" changeset="621649" lat="-31.545883" lon="146.425555">
    <tag k="created_by" v="JOSM"/>
    <tag k="highway" v="trunk"/>
    <tag k="name" v="Barrier Hwy"/>
    <tag k="surface" v="paved"/>
  </node>
  <node id="133315296" version="2" timestamp="2007-12-09T10:22:33Z" uid="4467" user="Rosscoe" changeset="198487" lat="-31.545883" lon="146.425555">
    <tag k="created_by" v="JOSM"/>
    <tag k="highway" v="trunk"/>
    <tag k="name" v="Barrier Hwy"/>
    <tag k="surface" v="paved"/>
  </node>
  <node id="133315331" version="1" timestamp="2007-11-25T23:18:47Z" uid="4467" user="Rosscoe" changeset="621649" lat="-31.545803" lon="146.425218">
    <tag k="created_by" v="JOSM"/>
    <tag k="highway" v="trunk"/>
    <tag k="name" v="Barrier Hwy"/>
    <tag k="surface" v="paved"/>
  </node>
  <node id="133315331" version="2" timestamp="2007-12-09T10:23:57Z" uid="4467" user="Rosscoe" changeset="198487" lat="-31.545803" lon="146.425218">
    <tag k="created_by" v="JOSM"/>
    <tag k="highway" v="trunk"/>
    <tag k="name" v="Barrier Hwy"/>
    <tag k="surface" v="paved"/>
  </node>
  <node id="133315368" version="1" timestamp="2007-11-25T23:18:48Z" uid="4467" user="Rosscoe" changeset="621649" lat="-31.545722" lon="146.42488">
    <tag k="created_by" v="JOSM"/>
    <tag k="highway" v="trunk"/>
    <tag k="name" v="Barrier Hwy"/>
    <tag k="surface" v="paved"/>
  </node>
  <node id="133315368" version="2" timestamp="2007-12-09T10:23:37Z" uid="4467" user="Rosscoe" changeset="198487" lat="-31.545722" lon="146.42488">
    <tag k="created_by" v="JOSM"/>
    <tag k="highway" v="trunk"/>
    <tag k="name" v="Barrier Hwy"/>
    <tag k="surface" v="paved"/>
  </node>
  <node id="133315399" version="1" timestamp="2007-11-25T23:18:49Z" uid="4467" user="Rosscoe" changeset="621649" lat="-31.545643" lon="146.424547">
    <tag k="created_by" v="JOSM"/>
    <tag k="highway" v="trunk"/>
    <tag k="name" v="Barrier Hwy"/>
    <tag k="surface" v="paved"/>
  </node>
  <node id="133315399" version="2" timestamp="2007-12-09T10:23:26Z" uid="4467" user="Rosscoe" changeset="198487" lat="-31.545643" lon="146.424547">
    <tag k="created_by" v="JOSM"/>
    <tag k="highway" v="trunk"/>
    <tag k="name" v="Barrier Hwy"/>
    <tag k="surface" v="paved"/>
  </node>
  <node id="133315440" version="1" timestamp="2007-11-25T23:18:50Z" uid="4467" user="Rosscoe" changeset="621649" lat="-31.545563" lon="146.424213">
    <tag k="created_by" v="JOSM"/>
    <tag k="highway" v="trunk"/>
    <tag k="name" v="Barrier Hwy"/>
    <tag k="surface" v="paved"/>
  </node>
  <node id="133315440" version="2" timestamp="2007-12-09T10:23:20Z" uid="4467" user="Rosscoe" changeset="198487" lat="-31.545563" lon="146.424213">
    <tag k="created_by" v="JOSM"/>
    <tag k="highway" v="trunk"/>
    <tag k="name" v="Barrier Hwy"/>
    <tag k="surface" v="paved"/>
  </node>
  <node id="133315480" version="1" timestamp="2007-11-25T23:18:50Z" uid="4467" user="Rosscoe" changeset="621649" lat="-31.545483" lon="146.423878">
    <tag k="created_by" v="JOSM"/>
    <tag k="highway" v="trunk"/>
    <tag k="name" v="Barrier Hwy"/>
    <tag k="surface" v="paved"/>
  </node>
  <node id="133315480" version="2" timestamp="2007-12-09T10:24:40Z" uid="4467" user="Rosscoe" changeset="198487" lat="-31.545483" lon="146.423878">
    <tag k="created_by" v="JOSM"/>
    <tag k="highway" v="trunk"/>
    <tag k="name" v="Barrier Hwy"/>
    <tag k="surface" v="paved"/>
  </node>
  <node id="133315504" version="1" timestamp="2007-11-25T23:18:51Z" uid="4467" user="Rosscoe" changeset="621649" lat="-31.545403" lon="146.42354">
    <tag k="created_by" v="JOSM"/>
    <tag k="highway" v="trunk"/>
    <tag k="name" v="Barrier Hwy"/>
    <tag k="surface" v="paved"/>
  </node>
  <node id="133315504" version="2" timestamp="2007-12-09T10:24:27Z" uid="4467" user="Rosscoe" changeset="198487" lat="-31.545403" lon="146.42354">
    <tag k="created_by" v="JOSM"/>
    <tag k="highway" v="trunk"/>
    <tag k="name" v="Barrier Hwy"/>
    <tag k="surface" v="paved"/>
  </node>
  <node id="133315535" version="1" timestamp="2007-11-25T23:18:52Z" uid="4467" user="Rosscoe" changeset="621649" lat="-31.545328" lon="146.423217">
    <tag k="created_by" v="JOSM"/>
    <tag k="highway" v="trunk"/>
    <tag k="name" v="Barrier Hwy"/>
    <tag k="surface" v="paved"/>
  </node>
  <node id="133315535" version="2" timestamp="2007-12-09T10:24:15Z" uid="4467" user="Rosscoe" changeset="198487" lat="-31.545328" lon="146.423217">
    <tag k="created_by" v="JOSM"/>
    <tag k="highway" v="trunk"/>
    <tag k="name" v="Barrier Hwy"/>
    <tag k="surface" v="paved"/>
  </node>
  <node id="133315561" version="1" timestamp="2007-11-25T23:18:53Z" uid="4467" user="Rosscoe" changeset="621649" lat="-31.546443" lon="146.427892">
    <tag k="created_by" v="JOSM"/>
    <tag k="highway" v="trunk"/>
    <tag k="name" v="Barrier Hwy"/>
    <tag k="surface" v="paved"/>
  </node>
  <node id="133315561" version="2" timestamp="2007-12-09T10:24:08Z" uid="4467" user="Rosscoe" changeset="198487" lat="-31.546443" lon="146.427892">
    <tag k="created_by" v="JOSM"/>
    <tag k="highway" v="trunk"/>
    <tag k="name" v="Barrier Hwy"/>
    <tag k="surface" v="paved"/>
  </node>
  <node id="133315602" version="1" timestamp="2007-11-25T23:18:53Z" uid="4467" user="Rosscoe" changeset="621649" lat="-31.54652" lon="146.428227">
    <tag k="created_by" v="JOSM"/>
    <tag k="highway" v="trunk"/>
    <tag k="name" v="Barrier Hwy"/>
    <tag k="surface" v="paved"/>
  </node>
  <node id="133315602" version="2" timestamp="2007-12-09T10:24:45Z" uid="4467" user="Rosscoe" changeset="198487" lat="-31.54652" lon="146.428227">
    <tag k="created_by" v="JOSM"/>
    <tag k="highway" v="trunk"/>
    <tag k="name" v="Barrier Hwy"/>
    <tag k="surface" v="paved"/>
  </node>
  <node id="133315629" version="1" timestamp="2007-11-25T23:18:54Z" uid="4467" user="Rosscoe" changeset="621649" lat="-31.546288" lon="146.427233">
    <tag k="created_by" v="JOSM"/>
    <tag k="highway" v="trunk"/>
    <tag k="name" v="Barrier Hwy"/>
    <tag k="surface" v="paved"/>
  </node>
  <node id="133315629" version="2" timestamp="2007-12-09T10:25:10Z" uid="4467" user="Rosscoe" changeset="198487" lat="-31.546288" lon="146.427233">
    <tag k="created_by" v="JOSM"/>
    <tag k="highway" v="trunk"/>
    <tag k="name" v="Barrier Hwy"/>
    <tag k="surface" v="paved"/>
  </node>
  <node id="133315662" version="1" timestamp="2007-11-25T23:18:55Z" uid="4467" user="Rosscoe" changeset="621649" lat="-31.546367" lon="146.427563">
    <tag k="created_by" v="JOSM"/>
    <tag k="highway" v="trunk"/>
    <tag k="name" v="Barrier Hwy"/>
    <tag k="surface" v="paved"/>
  </node>
  <node id="133315662" version="2" timestamp="2007-12-09T09:40:02Z" uid="4467" user="Rosscoe" changeset="198487" lat="-31.546367" lon="146.427563">
    <tag k="created_by" v="JOSM"/>
  </node>
  <node id="133315662" version="3" timestamp="2008-02-03T06:08:45Z" uid="18775" user="drlizau" changeset="28133" lat="-31.546367" lon="146.427563">
    <tag k="created_by" v="JOSM"/>
  </node>
  <node id="133315690" version="1" timestamp="2007-11-25T23:18:56Z" uid="4467" user="Rosscoe" changeset="621649" lat="-31.546128" lon="146.42657">
    <tag k="created_by" v="JOSM"/>
    <tag k="highway" v="trunk"/>
    <tag k="name" v="Barrier Hwy"/>
    <tag k="surface" v="paved"/>
  </node>
  <node id="133315690" version="2" timestamp="2007-12-09T10:25:31Z" uid="4467" user="Rosscoe" changeset="198487" lat="-31.546128" lon="146.42657">
    <tag k="created_by" v="JOSM"/>
    <tag k="highway" v="trunk"/>
    <tag k="name" v="Barrier Hwy"/>
    <tag k="surface" v="paved"/>
  </node>
  <node id="133315728" version="1" timestamp="2007-11-25T23:18:57Z" uid="4467" user="Rosscoe" changeset="621649" lat="-31.54621" lon="146.426903">
    <tag k="created_by" v="JOSM"/>
    <tag k="highway" v="trunk"/>
    <tag k="name" v="Barrier Hwy"/>
    <tag k="surface" v="paved"/>
  </node>
  <node id="133315728" version="2" timestamp="2007-12-09T10:25:35Z" uid="4467" user="Rosscoe" changeset="198487" lat="-31.54621" lon="146.426903">
    <tag k="created_by" v="JOSM"/>
    <tag k="highway" v="trunk"/>
    <tag k="name" v="Barrier Hwy"/>
    <tag k="surface" v="paved"/>
  </node>
  <node id="133315763" version="1" timestamp="2007-11-25T23:18:57Z" uid="4467" user="Rosscoe" changeset="621649" lat="-31.545965" lon="146.425893">
    <tag k="created_by" v="JOSM"/>
    <tag k="highway" v="trunk"/>
    <tag k="name" v="Barrier Hwy"/>
    <tag k="surface" v="paved"/>
  </node>
  <node id="133315763" version="2" timestamp="2007-12-09T10:25:47Z" uid="4467" user="Rosscoe" changeset="198487" lat="-31.545965" lon="146.425893">
    <tag k="created_by" v="JOSM"/>
    <tag k="highway" v="trunk"/>
    <tag k="name" v="Barrier Hwy"/>
    <tag k="surface" v="paved"/>
  </node>
  <node id="133315788" version="1" timestamp="2007-11-25T23:18:58Z" uid="4467" user="Rosscoe" changeset="621649" lat="-31.546048" lon="146.426237">
    <tag k="created_by" v="JOSM"/>
    <tag k="highway" v="trunk"/>
    <tag k="name" v="Barrier Hwy"/>
    <tag k="surface" v="paved"/>
  </node>
  <node id="133315788" version="2" timestamp="2007-12-09T10:26:00Z" uid="4467" user="Rosscoe" changeset="198487" lat="-31.546048" lon="146.426237">
    <tag k="created_by" v="JOSM"/>
    <tag k="highway" v="trunk"/>
    <tag k="name" v="Barrier Hwy"/>
    <tag k="surface" v="paved"/>
  </node>
  <node id="133315814" version="1" timestamp="2007-11-25T23:18:59Z" uid="4467" user="Rosscoe" changeset="621649" lat="-31.547053" lon="146.430563">
    <tag k="created_by" v="JOSM"/>
    <tag k="highway" v="trunk"/>
    <tag k="name" v="Barrier Hwy"/>
    <tag k="surface" v="paved"/>
  </node>
  <node id="133315814" version="2" timestamp="2007-12-09T10:26:15Z" uid="4467" user="Rosscoe" changeset="198487" lat="-31.547053" lon="146.430563">
    <tag k="created_by" v="JOSM"/>
    <tag k="highway" v="trunk"/>
    <tag k="name" v="Barrier Hwy"/>
    <tag k="surface" v="paved"/>
  </node>
  <node id="133315838" version="1" timestamp="2007-11-25T23:19:00Z" uid="4467" user="Rosscoe" changeset="621649" lat="-31.547122" lon="146.4309">
    <tag k="created_by" v="JOSM"/>
    <tag k="highway" v="trunk"/>
    <tag k="name" v="Barrier Hwy"/>
    <tag k="surface" v="paved"/>
  </node>
  <node id="133315838" version="2" timestamp="2007-12-09T09:39:54Z" uid="4467" user="Rosscoe" changeset="198487" lat="-31.547122" lon="146.4309">
    <tag k="created_by" v="JOSM"/>
  </node>
  <node id="133315838" version="3" timestamp="2008-02-03T06:08:51Z" uid="18775" user="drlizau" changeset="28133" lat="-31.547122" lon="146.4309">
    <tag k="created_by" v="JOSM"/>
  </node>
  <node id="133315861" version="1" timestamp="2007-11-25T23:19:00Z" uid="4467" user="Rosscoe" changeset="621649" lat="-31.546905" lon="146.42989">
    <tag k="created_by" v="JOSM"/>
    <tag k="highway" v="trunk"/>
    <tag k="name" v="Barrier Hwy"/>
    <tag k="surface" v="paved"/>
  </node>
  <node id="133315861" version="2" timestamp="2007-12-09T10:26:26Z" uid="4467" user="Rosscoe" changeset="198487" lat="-31.546905" lon="146.42989">
    <tag k="created_by" v="JOSM"/>
    <tag k="highway" v="trunk"/>
    <tag k="name" v="Barrier Hwy"/>
    <tag k="surface" v="paved"/>
  </node>
  <node id="133315886" version="1" timestamp="2007-11-25T23:19:01Z" uid="4467" user="Rosscoe" changeset="621649" lat="-31.546982" lon="146.430227">
    <tag k="created_by" v="JOSM"/>
    <tag k="highway" v="trunk"/>
    <tag k="name" v="Barrier Hwy"/>
    <tag k="surface" v="paved"/>
  </node>
  <node id="133315886" version="2" timestamp="2007-12-09T10:26:32Z" uid="4467" user="Rosscoe" changeset="198487" lat="-31.546982" lon="146.430227">
    <tag k="created_by" v="JOSM"/>
    <tag k="highway" v="trunk"/>
    <tag k="name" v="Barrier Hwy"/>
    <tag k="surface" v="paved"/>
  </node>
  <node id="133315917" version="1" timestamp="2007-11-25T23:19:02Z" uid="4467" user="Rosscoe" changeset="621649" lat="-31.546753" lon="146.429222">
    <tag k="created_by" v="JOSM"/>
    <tag k="highway" v="trunk"/>
    <tag k="name" v="Barrier Hwy"/>
    <tag k="surface" v="paved"/>
  </node>
  <node id="133315917" version="2" timestamp="2007-12-09T10:26:42Z" uid="4467" user="Rosscoe" changeset="198487" lat="-31.546753" lon="146.429222">
    <tag k="created_by" v="JOSM"/>
    <tag k="highway" v="trunk"/>
    <tag k="name" v="Barrier Hwy"/>
    <tag k="surface" v="paved"/>
  </node>
  <node id="133315923" version="1" timestamp="2007-11-25T23:19:03Z" uid="4467" user="Rosscoe" changeset="621649" lat="-31.54683" lon="146.429555">
    <tag k="created_by" v="JOSM"/>
    <tag k="highway" v="trunk"/>
    <tag k="name" v="Barrier Hwy"/>
    <tag k="surface" v="paved"/>
  </node>
  <node id="133315923" version="2" timestamp="2007-12-09T09:39:45Z" uid="4467" user="Rosscoe" changeset="198487" lat="-31.54683" lon="146.429555">
    <tag k="created_by" v="JOSM"/>
  </node>
  <node id="133315923" version="3" timestamp="2008-02-03T06:08:22Z" uid="18775" user="drlizau" changeset="28133" lat="-31.54683" lon="146.429555">
    <tag k="created_by" v="JOSM"/>
  </node>
  <node id="133315943" version="1" timestamp="2007-11-25T23:19:04Z" uid="4467" user="Rosscoe" changeset="621649" lat="-31.546598" lon="146.428558">
    <tag k="created_by" v="JOSM"/>
    <tag k="highway" v="trunk"/>
    <tag k="name" v="Barrier Hwy"/>
    <tag k="surface" v="paved"/>
  </node>
  <node id="133315943" version="2" timestamp="2007-12-09T10:26:50Z" uid="4467" user="Rosscoe" changeset="198487" lat="-31.546598" lon="146.428558">
    <tag k="created_by" v="JOSM"/>
    <tag k="highway" v="trunk"/>
    <tag k="name" v="Barrier Hwy"/>
    <tag k="surface" v="paved"/>
  </node>
  <node id="133315971" version="1" timestamp="2007-11-25T23:19:04Z" uid="4467" user="Rosscoe" changeset="621649" lat="-31.546675" lon="146.428888">
    <tag k="created_by" v="JOSM"/>
    <tag k="highway" v="trunk"/>
    <tag k="name" v="Barrier Hwy"/>
    <tag k="surface" v="paved"/>
  </node>
  <node id="133315971" version="2" timestamp="2007-12-09T10:27:01Z" uid="4467" user="Rosscoe" changeset="198487" lat="-31.546675" lon="146.428888">
    <tag k="created_by" v="JOSM"/>
    <tag k="highway" v="trunk"/>
    <tag k="name" v="Barrier Hwy"/>
    <tag k="surface" v="paved"/>
  </node>
  <node id="133315993" version="1" timestamp="2007-11-25T23:19:05Z" uid="4467" user="Rosscoe" changeset="621649" lat="-31.543117" lon="146.412802">
    <tag k="created_by" v="JOSM"/>
    <tag k="highway" v="trunk"/>
    <tag k="name" v="Barrier Hwy"/>
    <tag k="surface" v="paved"/>
  </node>
  <node id="133315993" version="2" timestamp="2007-12-09T10:27:05Z" uid="4467" user="Rosscoe" changeset="198487" lat="-31.543117" lon="146.412802">
    <tag k="created_by" v="JOSM"/>
    <tag k="highway" v="trunk"/>
    <tag k="name" v="Barrier Hwy"/>
    <tag k="surface" v="paved"/>
  </node>
  <node id="133316029" version="1" timestamp="2007-11-25T23:19:06Z" uid="4467" user="Rosscoe" changeset="621649" lat="-31.543072" lon="146.412517">
    <tag k="created_by" v="JOSM"/>
    <tag k="highway" v="trunk"/>
    <tag k="name" v="Barrier Hwy"/>
    <tag k="surface" v="paved"/>
  </node>
  <node id="133316029" version="2" timestamp="2007-12-09T10:27:18Z" uid="4467" user="Rosscoe" changeset="198487" lat="-31.543072" lon="146.412517">
    <tag k="created_by" v="JOSM"/>
    <tag k="highway" v="trunk"/>
    <tag k="name" v="Barrier Hwy"/>
    <tag k="surface" v="paved"/>
  </node>
  <node id="133316069" version="1" timestamp="2007-11-25T23:19:07Z" uid="4467" user="Rosscoe" changeset="621649" lat="-31.543207" lon="146.413388">
    <tag k="created_by" v="JOSM"/>
    <tag k="highway" v="trunk"/>
    <tag k="name" v="Barrier Hwy"/>
    <tag k="surface" v="paved"/>
  </node>
  <node id="133316069" version="2" timestamp="2007-12-09T10:27:37Z" uid="4467" user="Rosscoe" changeset="198487" lat="-31.543207" lon="146.413388">
    <tag k="created_by" v="JOSM"/>
    <tag k="highway" v="trunk"/>
    <tag k="name" v="Barrier Hwy"/>
    <tag k="surface" v="paved"/>
  </node>
  <node id="133316115" version="1" timestamp="2007-11-25T23:19:08Z" uid="4467" user="Rosscoe" changeset="621649" lat="-31.543162" lon="146.413095">
    <tag k="created_by" v="JOSM"/>
    <tag k="highway" v="trunk"/>
    <tag k="name" v="Barrier Hwy"/>
    <tag k="surface" v="paved"/>
  </node>
  <node id="133316115" version="2" timestamp="2007-12-09T10:27:59Z" uid="4467" user="Rosscoe" changeset="198487" lat="-31.543162" lon="146.413095">
    <tag k="created_by" v="JOSM"/>
    <tag k="highway" v="trunk"/>
    <tag k="name" v="Barrier Hwy"/>
    <tag k="surface" v="paved"/>
  </node>
  <node id="133316150" version="1" timestamp="2007-11-25T23:19:08Z" uid="4467" user="Rosscoe" changeset="621649" lat="-31.542938" lon="146.411655">
    <tag k="created_by" v="JOSM"/>
    <tag k="highway" v="trunk"/>
    <tag k="name" v="Barrier Hwy"/>
    <tag k="surface" v="paved"/>
  </node>
  <node id="133316150" version="2" timestamp="2007-12-09T10:27:45Z" uid="4467" user="Rosscoe" changeset="198487" lat="-31.542938" lon="146.411655">
    <tag k="created_by" v="JOSM"/>
    <tag k="highway" v="trunk"/>
    <tag k="name" v="Barrier Hwy"/>
    <tag k="surface" v="paved"/>
  </node>
  <node id="133316193" version="1" timestamp="2007-11-25T23:19:09Z" uid="4467" user="Rosscoe" changeset="621649" lat="-31.542893" lon="146.411362">
    <tag k="created_by" v="JOSM"/>
    <tag k="highway" v="trunk"/>
    <tag k="name" v="Barrier Hwy"/>
    <tag k="surface" v="paved"/>
  </node>
  <node id="133316193" version="2" timestamp="2007-12-09T10:28:14Z" uid="4467" user="Rosscoe" changeset="198487" lat="-31.542893" lon="146.411362">
    <tag k="created_by" v="JOSM"/>
    <tag k="highway" v="trunk"/>
    <tag k="name" v="Barrier Hwy"/>
    <tag k="surface" v="paved"/>
  </node>
  <node id="133316332" version="1" timestamp="2007-11-25T23:19:12Z" uid="4467" user="Rosscoe" changeset="621649" lat="-31.543027" lon="146.412228">
    <tag k="created_by" v="JOSM"/>
    <tag k="highway" v="trunk"/>
    <tag k="name" v="Barrier Hwy"/>
    <tag k="surface" v="paved"/>
  </node>
  <node id="133316332" version="2" timestamp="2007-12-09T10:29:04Z" uid="4467" user="Rosscoe" changeset="198487" lat="-31.543027" lon="146.412228">
    <tag k="created_by" v="JOSM"/>
    <tag k="highway" v="trunk"/>
    <tag k="name" v="Barrier Hwy"/>
    <tag k="surface" v="paved"/>
  </node>
  <node id="133316358" version="1" timestamp="2007-11-25T23:19:13Z" uid="4467" user="Rosscoe" changeset="621649" lat="-31.542982" lon="146.411942">
    <tag k="created_by" v="JOSM"/>
    <tag k="highway" v="trunk"/>
    <tag k="name" v="Barrier Hwy"/>
    <tag k="surface" v="paved"/>
  </node>
  <node id="133316358" version="2" timestamp="2007-12-09T10:29:30Z" uid="4467" user="Rosscoe" changeset="198487" lat="-31.542982" lon="146.411942">
    <tag k="created_by" v="JOSM"/>
    <tag k="highway" v="trunk"/>
    <tag k="name" v="Barrier Hwy"/>
    <tag k="surface" v="paved"/>
  </node>
  <node id="133316398" version="1" timestamp="2007-11-25T23:19:14Z" uid="4467" user="Rosscoe" changeset="621649" lat="-31.543487" lon="146.415133">
    <tag k="created_by" v="JOSM"/>
    <tag k="highway" v="trunk"/>
    <tag k="name" v="Barrier Hwy"/>
    <tag k="surface" v="paved"/>
  </node>
  <node id="133316398" version="2" timestamp="2007-12-09T09:39:22Z" uid="4467" user="Rosscoe" changeset="198487" lat="-31.543487" lon="146.415133">
    <tag k="created_by" v="JOSM"/>
  </node>
  <node id="133316398" version="3" timestamp="2008-02-03T06:08:48Z" uid="18775" user="drlizau" changeset="28133" lat="-31.543487" lon="146.415133">
    <tag k="created_by" v="JOSM"/>
  </node>
  <node id="133316437" version="1" timestamp="2007-11-25T23:19:15Z" uid="4467" user="Rosscoe" changeset="621649" lat="-31.543438" lon="146.414838">
    <tag k="created_by" v="JOSM"/>
    <tag k="highway" v="trunk"/>
    <tag k="name" v="Barrier Hwy"/>
    <tag k="surface" v="paved"/>
  </node>
  <node id="133316437" version="2" timestamp="2007-12-09T10:30:03Z" uid="4467" user="Rosscoe" changeset="198487" lat="-31.543438" lon="146.414838">
    <tag k="created_by" v="JOSM"/>
    <tag k="highway" v="trunk"/>
    <tag k="name" v="Barrier Hwy"/>
    <tag k="surface" v="paved"/>
  </node>
  <node id="133316472" version="1" timestamp="2007-11-25T23:19:16Z" uid="4467" user="Rosscoe" changeset="621649" lat="-31.54359" lon="146.415713">
    <tag k="created_by" v="JOSM"/>
    <tag k="highway" v="trunk"/>
    <tag k="name" v="Barrier Hwy"/>
    <tag k="surface" v="paved"/>
  </node>
  <node id="133316472" version="2" timestamp="2007-12-09T10:29:51Z" uid="4467" user="Rosscoe" changeset="198487" lat="-31.54359" lon="146.415713">
    <tag k="created_by" v="JOSM"/>
    <tag k="highway" v="trunk"/>
    <tag k="name" v="Barrier Hwy"/>
    <tag k="surface" v="paved"/>
  </node>
  <node id="133316545" version="1" timestamp="2007-11-25T23:19:18Z" uid="4467" user="Rosscoe" changeset="621649" lat="-31.543537" lon="146.415422">
    <tag k="created_by" v="JOSM"/>
    <tag k="highway" v="trunk"/>
    <tag k="name" v="Barrier Hwy"/>
    <tag k="surface" v="paved"/>
  </node>
  <node id="133316545" version="2" timestamp="2007-12-09T10:30:44Z" uid="4467" user="Rosscoe" changeset="198487" lat="-31.543537" lon="146.415422">
    <tag k="created_by" v="JOSM"/>
    <tag k="highway" v="trunk"/>
    <tag k="name" v="Barrier Hwy"/>
    <tag k="surface" v="paved"/>
  </node>
  <node id="133316617" version="1" timestamp="2007-11-25T23:19:19Z" uid="4467" user="Rosscoe" changeset="621649" lat="-31.543298" lon="146.413962">
    <tag k="created_by" v="JOSM"/>
    <tag k="highway" v="trunk"/>
    <tag k="name" v="Barrier Hwy"/>
    <tag k="surface" v="paved"/>
  </node>
  <node id="133316617" version="2" timestamp="2007-12-09T09:55:30Z" uid="4467" user="Rosscoe" changeset="198487" lat="-31.543298" lon="146.413962">
    <tag k="created_by" v="JOSM"/>
    <tag k="highway" v="trunk"/>
    <tag k="name" v="Barrier Hwy"/>
    <tag k="surface" v="paved"/>
  </node>
  <node id="133316671" version="1" timestamp="2007-11-25T23:19:21Z" uid="4467" user="Rosscoe" changeset="621649" lat="-31.543252" lon="146.413672">
    <tag k="created_by" v="JOSM"/>
    <tag k="highway" v="trunk"/>
    <tag k="name" v="Barrier Hwy"/>
    <tag k="surface" v="paved"/>
  </node>
  <node id="133316671" version="2" timestamp="2007-12-09T09:55:25Z" uid="4467" user="Rosscoe" changeset="198487" lat="-31.543252" lon="146.413672">
    <tag k="created_by" v="JOSM"/>
    <tag k="highway" v="trunk"/>
    <tag k="name" v="Barrier Hwy"/>
    <tag k="surface" v="paved"/>
  </node>
  <node id="133316723" version="1" timestamp="2007-11-25T23:19:22Z" uid="4467" user="Rosscoe" changeset="621649" lat="-31.543392" lon="146.414542">
    <tag k="created_by" v="JOSM"/>
    <tag k="highway" v="trunk"/>
    <tag k="name" v="Barrier Hwy"/>
    <tag k="surface" v="paved"/>
  </node>
  <node id="133316723" version="2" timestamp="2007-12-09T09:55:48Z" uid="4467" user="Rosscoe" changeset="198487" lat="-31.543392" lon="146.414542">
    <tag k="created_by" v="JOSM"/>
    <tag k="highway" v="trunk"/>
    <tag k="name" v="Barrier Hwy"/>
    <tag k="surface" v="paved"/>
  </node>
  <node id="133316795" version="1" timestamp="2007-11-25T23:19:24Z" uid="4467" user="Rosscoe" changeset="621649" lat="-31.543345" lon="146.414253">
    <tag k="created_by" v="JOSM"/>
    <tag k="highway" v="trunk"/>
    <tag k="name" v="Barrier Hwy"/>
    <tag k="surface" v="paved"/>
  </node>
  <node id="133316795" version="2" timestamp="2007-12-09T09:56:12Z" uid="4467" user="Rosscoe" changeset="198487" lat="-31.543345" lon="146.414253">
    <tag k="created_by" v="JOSM"/>
    <tag k="highway" v="trunk"/>
    <tag k="name" v="Barrier Hwy"/>
    <tag k="surface" v="paved"/>
  </node>
  <node id="133316845" version="1" timestamp="2007-11-25T23:19:25Z" uid="4467" user="Rosscoe" changeset="621649" lat="-31.543888" lon="146.417158">
    <tag k="created_by" v="JOSM"/>
    <tag k="highway" v="trunk"/>
    <tag k="name" v="Barrier Hwy"/>
    <tag k="surface" v="paved"/>
  </node>
  <node id="133316845" version="2" timestamp="2007-12-09T09:56:30Z" uid="4467" user="Rosscoe" changeset="198487" lat="-31.543888" lon="146.417158">
    <tag k="created_by" v="JOSM"/>
    <tag k="highway" v="trunk"/>
    <tag k="name" v="Barrier Hwy"/>
    <tag k="surface" v="paved"/>
  </node>
  <node id="133316864" version="1" timestamp="2007-11-25T23:19:26Z" uid="4467" user="Rosscoe" changeset="621649" lat="-31.543952" lon="146.41745">
    <tag k="created_by" v="JOSM"/>
    <tag k="highway" v="trunk"/>
    <tag k="name" v="Barrier Hwy"/>
    <tag k="surface" v="paved"/>
  </node>
  <node id="133316864" version="2" timestamp="2007-12-09T09:54:05Z" uid="4467" user="Rosscoe" changeset="198487" lat="-31.543952" lon="146.41745">
    <tag k="created_by" v="JOSM"/>
    <tag k="highway" v="trunk"/>
    <tag k="name" v="Barrier Hwy"/>
    <tag k="surface" v="paved"/>
  </node>
  <node id="133316879" version="1" timestamp="2007-11-25T23:19:26Z" uid="4467" user="Rosscoe" changeset="621649" lat="-31.544018" lon="146.41774">
    <tag k="created_by" v="JOSM"/>
    <tag k="highway" v="trunk"/>
    <tag k="name" v="Barrier Hwy"/>
    <tag k="surface" v="paved"/>
  </node>
  <node id="133316879" version="2" timestamp="2007-12-09T09:43:56Z" uid="4467" user="Rosscoe" changeset="198487" lat="-31.544018" lon="146.41774">
    <tag k="created_by" v="JOSM"/>
  </node>
  <node id="133316879" version="3" timestamp="2008-02-03T06:08:20Z" uid="18775" user="drlizau" changeset="28133" lat="-31.544018" lon="146.41774">
    <tag k="created_by" v="JOSM"/>
  </node>
  <node id="133316894" version="1" timestamp="2007-11-25T23:19:27Z" uid="4467" user="Rosscoe" changeset="621649" lat="-31.544085" lon="146.418028">
    <tag k="created_by" v="JOSM"/>
    <tag k="highway" v="trunk"/>
    <tag k="name" v="Barrier Hwy"/>
    <tag k="surface" v="paved"/>
  </node>
  <node id="133316894" version="2" timestamp="2007-12-09T09:53:55Z" uid="4467" user="Rosscoe" changeset="198487" lat="-31.544085" lon="146.418028">
    <tag k="created_by" v="JOSM"/>
    <tag k="highway" v="trunk"/>
    <tag k="name" v="Barrier Hwy"/>
    <tag k="surface" v="paved"/>
  </node>
  <node id="133316925" version="1" timestamp="2007-11-25T23:19:28Z" uid="4467" user="Rosscoe" changeset="621649" lat="-31.543645" lon="146.416003">
    <tag k="created_by" v="JOSM"/>
    <tag k="highway" v="trunk"/>
    <tag k="name" v="Barrier Hwy"/>
    <tag k="surface" v="paved"/>
  </node>
  <node id="133316925" version="2" timestamp="2007-12-09T09:53:46Z" uid="4467" user="Rosscoe" changeset="198487" lat="-31.543645" lon="146.416003">
    <tag k="created_by" v="JOSM"/>
    <tag k="highway" v="trunk"/>
    <tag k="name" v="Barrier Hwy"/>
    <tag k="surface" v="paved"/>
  </node>
  <node id="133316953" version="1" timestamp="2007-11-25T23:19:29Z" uid="4467" user="Rosscoe" changeset="621649" lat="-31.543703" lon="146.416292">
    <tag k="created_by" v="JOSM"/>
    <tag k="highway" v="trunk"/>
    <tag k="name" v="Barrier Hwy"/>
    <tag k="surface" v="paved"/>
  </node>
  <node id="133316953" version="2" timestamp="2007-12-09T09:43:55Z" uid="4467" user="Rosscoe" changeset="198487" lat="-31.543703" lon="146.416292">
    <tag k="created_by" v="JOSM"/>
  </node>
  <node id="133316953" version="3" timestamp="2008-02-03T06:08:34Z" uid="18775" user="drlizau" changeset="28133" lat="-31.543703" lon="146.416292">
    <tag k="created_by" v="JOSM"/>
  </node>
  <node id="133316985" version="1" timestamp="2007-11-25T23:19:30Z" uid="4467" user="Rosscoe" changeset="621649" lat="-31.543765" lon="146.41658">
    <tag k="created_by" v="JOSM"/>
    <tag k="highway" v="trunk"/>
    <tag k="name" v="Barrier Hwy"/>
    <tag k="surface" v="paved"/>
  </node>
  <node id="133316985" version="2" timestamp="2007-12-09T09:54:08Z" uid="4467" user="Rosscoe" changeset="198487" lat="-31.543765" lon="146.41658">
    <tag k="created_by" v="JOSM"/>
    <tag k="highway" v="trunk"/>
    <tag k="name" v="Barrier Hwy"/>
    <tag k="surface" v="paved"/>
  </node>
  <node id="133317020" version="1" timestamp="2007-11-25T23:19:30Z" uid="4467" user="Rosscoe" changeset="621649" lat="-31.543827" lon="146.416873">
    <tag k="created_by" v="JOSM"/>
    <tag k="highway" v="trunk"/>
    <tag k="name" v="Barrier Hwy"/>
    <tag k="surface" v="paved"/>
  </node>
  <node id="133317020" version="2" timestamp="2007-12-09T09:54:43Z" uid="4467" user="Rosscoe" changeset="198487" lat="-31.543827" lon="146.416873">
    <tag k="created_by" v="JOSM"/>
    <tag k="highway" v="trunk"/>
    <tag k="name" v="Barrier Hwy"/>
    <tag k="surface" v="paved"/>
  </node>
  <node id="133317046" version="1" timestamp="2007-11-25T23:19:31Z" uid="4467" user="Rosscoe" changeset="621649" lat="-31.54443" lon="146.41949">
    <tag k="created_by" v="JOSM"/>
    <tag k="highway" v="trunk"/>
    <tag k="name" v="Barrier Hwy"/>
    <tag k="surface" v="paved"/>
  </node>
  <node id="133317046" version="2" timestamp="2007-12-09T09:54:28Z" uid="4467" user="Rosscoe" changeset="198487" lat="-31.54443" lon="146.41949">
    <tag k="created_by" v="JOSM"/>
    <tag k="highway" v="trunk"/>
    <tag k="name" v="Barrier Hwy"/>
    <tag k="surface" v="paved"/>
  </node>
  <node id="133317078" version="1" timestamp="2007-11-25T23:19:32Z" uid="4467" user="Rosscoe" changeset="621649" lat="-31.544502" lon="146.419785">
    <tag k="created_by" v="JOSM"/>
    <tag k="highway" v="trunk"/>
    <tag k="name" v="Barrier Hwy"/>
    <tag k="surface" v="paved"/>
  </node>
  <node id="133317078" version="2" timestamp="2007-12-09T09:55:08Z" uid="4467" user="Rosscoe" changeset="198487" lat="-31.544502" lon="146.419785">
    <tag k="created_by" v="JOSM"/>
    <tag k="highway" v="trunk"/>
    <tag k="name" v="Barrier Hwy"/>
    <tag k="surface" v="paved"/>
  </node>
  <node id="133317104" version="1" timestamp="2007-11-25T23:19:33Z" uid="4467" user="Rosscoe" changeset="621649" lat="-31.544575" lon="146.420083">
    <tag k="created_by" v="JOSM"/>
    <tag k="highway" v="trunk"/>
    <tag k="name" v="Barrier Hwy"/>
    <tag k="surface" v="paved"/>
  </node>
  <node id="133317104" version="2" timestamp="2007-12-09T09:54:52Z" uid="4467" user="Rosscoe" changeset="198487" lat="-31.544575" lon="146.420083">
    <tag k="created_by" v="JOSM"/>
    <tag k="highway" v="trunk"/>
    <tag k="name" v="Barrier Hwy"/>
    <tag k="surface" v="paved"/>
  </node>
  <node id="133317136" version="1" timestamp="2007-11-25T23:19:34Z" uid="4467" user="Rosscoe" changeset="621649" lat="-31.544648" lon="146.42039">
    <tag k="created_by" v="JOSM"/>
    <tag k="highway" v="trunk"/>
    <tag k="name" v="Barrier Hwy"/>
    <tag k="surface" v="paved"/>
  </node>
  <node id="133317136" version="2" timestamp="2007-12-09T09:52:22Z" uid="4467" user="Rosscoe" changeset="198487" lat="-31.544648" lon="146.42039">
    <tag k="created_by" v="JOSM"/>
    <tag k="highway" v="trunk"/>
    <tag k="name" v="Barrier Hwy"/>
    <tag k="surface" v="paved"/>
  </node>
  <node id="133317174" version="1" timestamp="2007-11-25T23:19:34Z" uid="4467" user="Rosscoe" changeset="621649" lat="-31.544155" lon="146.41832">
    <tag k="created_by" v="JOSM"/>
    <tag k="highway" v="trunk"/>
    <tag k="name" v="Barrier Hwy"/>
    <tag k="surface" v="paved"/>
  </node>
  <node id="133317174" version="2" timestamp="2007-12-09T09:52:35Z" uid="4467" user="Rosscoe" changeset="198487" lat="-31.544155" lon="146.41832">
    <tag k="created_by" v="JOSM"/>
    <tag k="highway" v="trunk"/>
    <tag k="name" v="Barrier Hwy"/>
    <tag k="surface" v="paved"/>
  </node>
  <node id="133317200" version="1" timestamp="2007-11-25T23:19:35Z" uid="4467" user="Rosscoe" changeset="621649" lat="-31.544222" lon="146.418617">
    <tag k="created_by" v="JOSM"/>
    <tag k="highway" v="trunk"/>
    <tag k="name" v="Barrier Hwy"/>
    <tag k="surface" v="paved"/>
  </node>
  <node id="133317200" version="2" timestamp="2007-12-09T09:52:48Z" uid="4467" user="Rosscoe" changeset="198487" lat="-31.544222" lon="146.418617">
    <tag k="created_by" v="JOSM"/>
    <tag k="highway" v="trunk"/>
    <tag k="name" v="Barrier Hwy"/>
    <tag k="surface" v="paved"/>
  </node>
  <node id="133317227" version="1" timestamp="2007-11-25T23:19:36Z" uid="4467" user="Rosscoe" changeset="621649" lat="-31.544288" lon="146.418907">
    <tag k="created_by" v="JOSM"/>
    <tag k="highway" v="trunk"/>
    <tag k="name" v="Barrier Hwy"/>
    <tag k="surface" v="paved"/>
  </node>
  <node id="133317227" version="2" timestamp="2007-12-09T09:44:03Z" uid="4467" user="Rosscoe" changeset="198487" lat="-31.544288" lon="146.418907">
    <tag k="created_by" v="JOSM"/>
  </node>
  <node id="133317264" version="1" timestamp="2007-11-25T23:19:37Z" uid="4467" user="Rosscoe" changeset="621649" lat="-31.544358" lon="146.419198">
    <tag k="created_by" v="JOSM"/>
    <tag k="highway" v="trunk"/>
    <tag k="name" v="Barrier Hwy"/>
    <tag k="surface" v="paved"/>
  </node>
  <node id="133317264" version="2" timestamp="2007-12-09T09:53:07Z" uid="4467" user="Rosscoe" changeset="198487" lat="-31.544358" lon="146.419198">
    <tag k="created_by" v="JOSM"/>
    <tag k="highway" v="trunk"/>
    <tag k="name" v="Barrier Hwy"/>
    <tag k="surface" v="paved"/>
  </node>
  <node id="133317297" version="1" timestamp="2007-11-25T23:19:37Z" uid="4467" user="Rosscoe" changeset="621649" lat="-31.541362" lon="146.401687">
    <tag k="created_by" v="JOSM"/>
    <tag k="highway" v="trunk"/>
    <tag k="name" v="Barrier Hwy"/>
    <tag k="surface" v="paved"/>
  </node>
  <node id="133317297" version="2" timestamp="2007-12-09T09:53:17Z" uid="4467" user="Rosscoe" changeset="198487" lat="-31.541362" lon="146.401687">
    <tag k="created_by" v="JOSM"/>
    <tag k="highway" v="trunk"/>
    <tag k="name" v="Barrier Hwy"/>
    <tag k="surface" v="paved"/>
  </node>
  <node id="133317332" version="1" timestamp="2007-11-25T23:19:38Z" uid="4467" user="Rosscoe" changeset="621649" lat="-31.541308" lon="146.401342">
    <tag k="created_by" v="JOSM"/>
    <tag k="highway" v="trunk"/>
    <tag k="name" v="Barrier Hwy"/>
    <tag k="surface" v="paved"/>
  </node>
  <node id="133317332" version="2" timestamp="2007-12-09T09:53:28Z" uid="4467" user="Rosscoe" changeset="198487" lat="-31.541308" lon="146.401342">
    <tag k="created_by" v="JOSM"/>
    <tag k="highway" v="trunk"/>
    <tag k="name" v="Barrier Hwy"/>
    <tag k="surface" v="paved"/>
  </node>
  <node id="133317363" version="1" timestamp="2007-11-25T23:19:39Z" uid="4467" user="Rosscoe" changeset="621649" lat="-31.541253" lon="146.400997">
    <tag k="created_by" v="JOSM"/>
    <tag k="highway" v="trunk"/>
    <tag k="name" v="Barrier Hwy"/>
    <tag k="surface" v="paved"/>
  </node>
  <node id="133317363" version="2" timestamp="2007-12-09T09:53:42Z" uid="4467" user="Rosscoe" changeset="198487" lat="-31.541253" lon="146.400997">
    <tag k="created_by" v="JOSM"/>
    <tag k="highway" v="trunk"/>
    <tag k="name" v="Barrier Hwy"/>
    <tag k="surface" v="paved"/>
  </node>
  <node id="133317393" version="1" timestamp="2007-11-25T23:19:40Z" uid="4467" user="Rosscoe" changeset="621649" lat="-31.5412" lon="146.400657">
    <tag k="created_by" v="JOSM"/>
    <tag k="highway" v="trunk"/>
    <tag k="name" v="Barrier Hwy"/>
    <tag k="surface" v="paved"/>
  </node>
  <node id="133317393" version="2" timestamp="2007-12-09T09:50:54Z" uid="4467" user="Rosscoe" changeset="198487" lat="-31.5412" lon="146.400657">
    <tag k="created_by" v="JOSM"/>
    <tag k="highway" v="trunk"/>
    <tag k="name" v="Barrier Hwy"/>
    <tag k="surface" v="paved"/>
  </node>
  <node id="133317418" version="1" timestamp="2007-11-25T23:19:41Z" uid="4467" user="Rosscoe" changeset="621649" lat="-31.541575" lon="146.403042">
    <tag k="created_by" v="JOSM"/>
    <tag k="highway" v="trunk"/>
    <tag k="name" v="Barrier Hwy"/>
    <tag k="surface" v="paved"/>
  </node>
  <node id="133317418" version="2" timestamp="2007-12-09T09:51:07Z" uid="4467" user="Rosscoe" changeset="198487" lat="-31.541575" lon="146.403042">
    <tag k="created_by" v="JOSM"/>
    <tag k="highway" v="trunk"/>
    <tag k="name" v="Barrier Hwy"/>
    <tag k="surface" v="paved"/>
  </node>
  <node id="133317451" version="1" timestamp="2007-11-25T23:19:41Z" uid="4467" user="Rosscoe" changeset="621649" lat="-31.541522" lon="146.402705">
    <tag k="created_by" v="JOSM"/>
    <tag k="highway" v="trunk"/>
    <tag k="name" v="Barrier Hwy"/>
    <tag k="surface" v="paved"/>
  </node>
  <node id="133317451" version="2" timestamp="2007-12-09T09:51:20Z" uid="4467" user="Rosscoe" changeset="198487" lat="-31.541522" lon="146.402705">
    <tag k="created_by" v="JOSM"/>
    <tag k="highway" v="trunk"/>
    <tag k="name" v="Barrier Hwy"/>
    <tag k="surface" v="paved"/>
  </node>
  <node id="133317490" version="1" timestamp="2007-11-25T23:19:42Z" uid="4467" user="Rosscoe" changeset="621649" lat="-31.541467" lon="146.402367">
    <tag k="created_by" v="JOSM"/>
    <tag k="highway" v="trunk"/>
    <tag k="name" v="Barrier Hwy"/>
    <tag k="surface" v="paved"/>
  </node>
  <node id="133317490" version="2" timestamp="2007-12-09T09:51:25Z" uid="4467" user="Rosscoe" changeset="198487" lat="-31.541467" lon="146.402367">
    <tag k="created_by" v="JOSM"/>
    <tag k="highway" v="trunk"/>
    <tag k="name" v="Barrier Hwy"/>
    <tag k="surface" v="paved"/>
  </node>
  <node id="133317530" version="1" timestamp="2007-11-25T23:19:43Z" uid="4467" user="Rosscoe" changeset="621649" lat="-31.541415" lon="146.402025">
    <tag k="created_by" v="JOSM"/>
    <tag k="highway" v="trunk"/>
    <tag k="name" v="Barrier Hwy"/>
    <tag k="surface" v="paved"/>
  </node>
  <node id="133317530" version="2" timestamp="2007-12-09T09:51:38Z" uid="4467" user="Rosscoe" changeset="198487" lat="-31.541415" lon="146.402025">
    <tag k="created_by" v="JOSM"/>
    <tag k="highway" v="trunk"/>
    <tag k="name" v="Barrier Hwy"/>
    <tag k="surface" v="paved"/>
  </node>
  <node id="133317566" version="1" timestamp="2007-11-25T23:19:44Z" uid="4467" user="Rosscoe" changeset="621649" lat="-31.541792" lon="146.404432">
    <tag k="created_by" v="JOSM"/>
    <tag k="highway" v="trunk"/>
    <tag k="name" v="Barrier Hwy"/>
    <tag k="surface" v="paved"/>
  </node>
  <node id="133317566" version="2" timestamp="2007-12-09T09:51:49Z" uid="4467" user="Rosscoe" changeset="198487" lat="-31.541792" lon="146.404432">
    <tag k="created_by" v="JOSM"/>
    <tag k="highway" v="trunk"/>
    <tag k="name" v="Barrier Hwy"/>
    <tag k="surface" v="paved"/>
  </node>
  <node id="133317601" version="1" timestamp="2007-11-25T23:19:44Z" uid="4467" user="Rosscoe" changeset="621649" lat="-31.54174" lon="146.404075">
    <tag k="created_by" v="JOSM"/>
    <tag k="highway" v="trunk"/>
    <tag k="name" v="Barrier Hwy"/>
    <tag k="surface" v="paved"/>
  </node>
  <node id="133317601" version="2" timestamp="2007-12-09T09:44:06Z" uid="4467" user="Rosscoe" changeset="198487" lat="-31.54174" lon="146.404075">
    <tag k="created_by" v="JOSM"/>
  </node>
  <node id="133317601" version="3" timestamp="2008-02-03T06:08:32Z" uid="18775" user="drlizau" changeset="28133" lat="-31.54174" lon="146.404075">
    <tag k="created_by" v="JOSM"/>
  </node>
  <node id="133317632" version="1" timestamp="2007-11-25T23:19:45Z" uid="4467" user="Rosscoe" changeset="621649" lat="-31.541685" lon="146.40373">
    <tag k="created_by" v="JOSM"/>
    <tag k="highway" v="trunk"/>
    <tag k="name" v="Barrier Hwy"/>
    <tag k="surface" v="paved"/>
  </node>
  <node id="133317632" version="2" timestamp="2007-12-09T09:50:00Z" uid="4467" user="Rosscoe" changeset="198487" lat="-31.541685" lon="146.40373">
    <tag k="created_by" v="JOSM"/>
    <tag k="highway" v="trunk"/>
    <tag k="name" v="Barrier Hwy"/>
    <tag k="surface" v="paved"/>
  </node>
  <node id="133317667" version="1" timestamp="2007-11-25T23:19:46Z" uid="4467" user="Rosscoe" changeset="621649" lat="-31.54163" lon="146.403383">
    <tag k="created_by" v="JOSM"/>
    <tag k="highway" v="trunk"/>
    <tag k="name" v="Barrier Hwy"/>
    <tag k="surface" v="paved"/>
  </node>
  <node id="133317667" version="2" timestamp="2007-12-09T09:49:49Z" uid="4467" user="Rosscoe" changeset="198487" lat="-31.54163" lon="146.403383">
    <tag k="created_by" v="JOSM"/>
    <tag k="highway" v="trunk"/>
    <tag k="name" v="Barrier Hwy"/>
    <tag k="surface" v="paved"/>
  </node>
  <node id="133317703" version="1" timestamp="2007-11-25T23:19:47Z" uid="4467" user="Rosscoe" changeset="621649" lat="-31.541995" lon="146.40592">
    <tag k="created_by" v="JOSM"/>
    <tag k="highway" v="trunk"/>
    <tag k="name" v="Barrier Hwy"/>
    <tag k="surface" v="paved"/>
  </node>
  <node id="133317703" version="2" timestamp="2007-12-09T09:49:38Z" uid="4467" user="Rosscoe" changeset="198487" lat="-31.541995" lon="146.40592">
    <tag k="created_by" v="JOSM"/>
    <tag k="highway" v="trunk"/>
    <tag k="name" v="Barrier Hwy"/>
    <tag k="surface" v="paved"/>
  </node>
  <node id="133317739" version="1" timestamp="2007-11-25T23:19:48Z" uid="4467" user="Rosscoe" changeset="621649" lat="-31.541938" lon="146.40554">
    <tag k="created_by" v="JOSM"/>
    <tag k="highway" v="trunk"/>
    <tag k="name" v="Barrier Hwy"/>
    <tag k="surface" v="paved"/>
  </node>
  <node id="133317739" version="2" timestamp="2007-12-09T09:44:14Z" uid="4467" user="Rosscoe" changeset="198487" lat="-31.541938" lon="146.40554">
    <tag k="created_by" v="JOSM"/>
  </node>
  <node id="133317739" version="3" timestamp="2008-02-03T06:08:36Z" uid="18775" user="drlizau" changeset="28133" lat="-31.541938" lon="146.40554">
    <tag k="created_by" v="JOSM"/>
  </node>
  <node id="133317768" version="1" timestamp="2007-11-25T23:19:48Z" uid="4467" user="Rosscoe" changeset="621649" lat="-31.541888" lon="146.40516">
    <tag k="created_by" v="JOSM"/>
    <tag k="highway" v="trunk"/>
    <tag k="name" v="Barrier Hwy"/>
    <tag k="surface" v="paved"/>
  </node>
  <node id="133317768" version="2" timestamp="2007-12-09T09:50:41Z" uid="4467" user="Rosscoe" changeset="198487" lat="-31.541888" lon="146.40516">
    <tag k="created_by" v="JOSM"/>
    <tag k="highway" v="trunk"/>
    <tag k="name" v="Barrier Hwy"/>
    <tag k="surface" v="paved"/>
  </node>
  <node id="133317787" version="1" timestamp="2007-11-25T23:19:49Z" uid="4467" user="Rosscoe" changeset="621649" lat="-31.54184" lon="146.404795">
    <tag k="created_by" v="JOSM"/>
    <tag k="highway" v="trunk"/>
    <tag k="name" v="Barrier Hwy"/>
    <tag k="surface" v="paved"/>
  </node>
  <node id="133317787" version="2" timestamp="2007-12-09T09:50:46Z" uid="4467" user="Rosscoe" changeset="198487" lat="-31.54184" lon="146.404795">
    <tag k="created_by" v="JOSM"/>
    <tag k="highway" v="trunk"/>
    <tag k="name" v="Barrier Hwy"/>
    <tag k="surface" v="paved"/>
  </node>
  <node id="133317799" version="1" timestamp="2007-11-25T23:19:50Z" uid="4467" user="Rosscoe" changeset="621649" lat="-31.542177" lon="146.407062">
    <tag k="created_by" v="JOSM"/>
    <tag k="highway" v="trunk"/>
    <tag k="name" v="Barrier Hwy"/>
    <tag k="surface" v="paved"/>
  </node>
  <node id="133317799" version="2" timestamp="2007-12-09T09:50:32Z" uid="4467" user="Rosscoe" changeset="198487" lat="-31.542177" lon="146.407062">
    <tag k="created_by" v="JOSM"/>
    <tag k="highway" v="trunk"/>
    <tag k="name" v="Barrier Hwy"/>
    <tag k="surface" v="paved"/>
  </node>
  <node id="133317830" version="1" timestamp="2007-11-25T23:19:51Z" uid="4467" user="Rosscoe" changeset="621649" lat="-31.54224" lon="146.40743">
    <tag k="created_by" v="JOSM"/>
    <tag k="highway" v="trunk"/>
    <tag k="name" v="Barrier Hwy"/>
    <tag k="surface" v="paved"/>
  </node>
  <node id="133317830" version="2" timestamp="2007-12-09T09:50:21Z" uid="4467" user="Rosscoe" changeset="198487" lat="-31.54224" lon="146.40743">
    <tag k="created_by" v="JOSM"/>
    <tag k="highway" v="trunk"/>
    <tag k="name" v="Barrier Hwy"/>
    <tag k="surface" v="paved"/>
  </node>
  <node id="133317843" version="1" timestamp="2007-11-25T23:19:51Z" uid="4467" user="Rosscoe" changeset="621649" lat="-31.542053" lon="146.406297">
    <tag k="created_by" v="JOSM"/>
    <tag k="highway" v="trunk"/>
    <tag k="name" v="Barrier Hwy"/>
    <tag k="surface" v="paved"/>
  </node>
  <node id="133317843" version="2" timestamp="2007-12-09T09:50:23Z" uid="4467" user="Rosscoe" changeset="198487" lat="-31.542053" lon="146.406297">
    <tag k="created_by" v="JOSM"/>
    <tag k="highway" v="trunk"/>
    <tag k="name" v="Barrier Hwy"/>
    <tag k="surface" v="paved"/>
  </node>
  <node id="133317868" version="1" timestamp="2007-11-25T23:19:52Z" uid="4467" user="Rosscoe" changeset="621649" lat="-31.542113" lon="146.406682">
    <tag k="created_by" v="JOSM"/>
    <tag k="highway" v="trunk"/>
    <tag k="name" v="Barrier Hwy"/>
    <tag k="surface" v="paved"/>
  </node>
  <node id="133317868" version="2" timestamp="2007-12-09T09:44:11Z" uid="4467" user="Rosscoe" changeset="198487" lat="-31.542113" lon="146.406682">
    <tag k="created_by" v="JOSM"/>
  </node>
  <node id="133317868" version="3" timestamp="2008-02-03T06:08:10Z" uid="18775" user="drlizau" changeset="28133" lat="-31.542113" lon="146.406682">
    <tag k="created_by" v="JOSM"/>
  </node>
  <node id="133317900" version="1" timestamp="2007-11-25T23:19:53Z" uid="4467" user="Rosscoe" changeset="621649" lat="-31.542417" lon="146.408418">
    <tag k="created_by" v="JOSM"/>
    <tag k="highway" v="trunk"/>
    <tag k="name" v="Barrier Hwy"/>
    <tag k="surface" v="paved"/>
  </node>
  <node id="133317900" version="2" timestamp="2007-12-09T09:48:37Z" uid="4467" user="Rosscoe" changeset="198487" lat="-31.542417" lon="146.408418">
    <tag k="created_by" v="JOSM"/>
    <tag k="highway" v="trunk"/>
    <tag k="name" v="Barrier Hwy"/>
    <tag k="surface" v="paved"/>
  </node>
  <node id="133317936" version="1" timestamp="2007-11-25T23:19:54Z" uid="4467" user="Rosscoe" changeset="621649" lat="-31.542468" lon="146.408722">
    <tag k="created_by" v="JOSM"/>
    <tag k="highway" v="trunk"/>
    <tag k="name" v="Barrier Hwy"/>
    <tag k="surface" v="paved"/>
  </node>
  <node id="133317936" version="2" timestamp="2007-12-09T09:48:20Z" uid="4467" user="Rosscoe" changeset="198487" lat="-31.542468" lon="146.408722">
    <tag k="created_by" v="JOSM"/>
    <tag k="highway" v="trunk"/>
    <tag k="name" v="Barrier Hwy"/>
    <tag k="surface" v="paved"/>
  </node>
  <node id="133317969" version="1" timestamp="2007-11-25T23:19:55Z" uid="4467" user="Rosscoe" changeset="621649" lat="-31.542303" lon="146.407778">
    <tag k="created_by" v="JOSM"/>
    <tag k="highway" v="trunk"/>
    <tag k="name" v="Barrier Hwy"/>
    <tag k="surface" v="paved"/>
  </node>
  <node id="133317969" version="2" timestamp="2007-12-09T09:48:07Z" uid="4467" user="Rosscoe" changeset="198487" lat="-31.542303" lon="146.407778">
    <tag k="created_by" v="JOSM"/>
    <tag k="highway" v="trunk"/>
    <tag k="name" v="Barrier Hwy"/>
    <tag k="surface" v="paved"/>
  </node>
  <node id="133317989" version="1" timestamp="2007-11-25T23:19:55Z" uid="4467" user="Rosscoe" changeset="621649" lat="-31.542365" lon="146.40811">
    <tag k="created_by" v="JOSM"/>
    <tag k="highway" v="trunk"/>
    <tag k="name" v="Barrier Hwy"/>
    <tag k="surface" v="paved"/>
  </node>
  <node id="133317989" version="2" timestamp="2007-12-09T09:48:04Z" uid="4467" user="Rosscoe" changeset="198487" lat="-31.542365" lon="146.40811">
    <tag k="created_by" v="JOSM"/>
    <tag k="highway" v="trunk"/>
    <tag k="name" v="Barrier Hwy"/>
    <tag k="surface" v="paved"/>
  </node>
  <node id="133318019" version="1" timestamp="2007-11-25T23:19:56Z" uid="4467" user="Rosscoe" changeset="621649" lat="-31.542613" lon="146.409615">
    <tag k="created_by" v="JOSM"/>
    <tag k="highway" v="trunk"/>
    <tag k="name" v="Barrier Hwy"/>
    <tag k="surface" v="paved"/>
  </node>
  <node id="133318019" version="2" timestamp="2007-12-09T09:49:22Z" uid="4467" user="Rosscoe" changeset="198487" lat="-31.542613" lon="146.409615">
    <tag k="created_by" v="JOSM"/>
    <tag k="highway" v="trunk"/>
    <tag k="name" v="Barrier Hwy"/>
    <tag k="surface" v="paved"/>
  </node>
  <node id="133318062" version="1" timestamp="2007-11-25T23:19:57Z" uid="4467" user="Rosscoe" changeset="621649" lat="-31.54266" lon="146.409908">
    <tag k="created_by" v="JOSM"/>
    <tag k="highway" v="trunk"/>
    <tag k="name" v="Barrier Hwy"/>
    <tag k="surface" v="paved"/>
  </node>
  <node id="133318062" version="2" timestamp="2007-12-09T09:49:06Z" uid="4467" user="Rosscoe" changeset="198487" lat="-31.54266" lon="146.409908">
    <tag k="created_by" v="JOSM"/>
    <tag k="highway" v="trunk"/>
    <tag k="name" v="Barrier Hwy"/>
    <tag k="surface" v="paved"/>
  </node>
  <node id="133318093" version="1" timestamp="2007-11-25T23:19:58Z" uid="4467" user="Rosscoe" changeset="621649" lat="-31.542518" lon="146.40902">
    <tag k="created_by" v="JOSM"/>
    <tag k="highway" v="trunk"/>
    <tag k="name" v="Barrier Hwy"/>
    <tag k="surface" v="paved"/>
  </node>
  <node id="133318093" version="2" timestamp="2007-12-09T09:44:16Z" uid="4467" user="Rosscoe" changeset="198487" lat="-31.542518" lon="146.40902">
    <tag k="created_by" v="JOSM"/>
  </node>
  <node id="133318093" version="3" timestamp="2008-02-03T06:08:23Z" uid="18775" user="drlizau" changeset="28133" lat="-31.542518" lon="146.40902">
    <tag k="created_by" v="JOSM"/>
  </node>
  <node id="133318127" version="1" timestamp="2007-11-25T23:19:58Z" uid="4467" user="Rosscoe" changeset="621649" lat="-31.542565" lon="146.409318">
    <tag k="created_by" v="JOSM"/>
    <tag k="highway" v="trunk"/>
    <tag k="name" v="Barrier Hwy"/>
    <tag k="surface" v="paved"/>
  </node>
  <node id="133318127" version="2" timestamp="2007-12-09T09:48:46Z" uid="4467" user="Rosscoe" changeset="198487" lat="-31.542565" lon="146.409318">
    <tag k="created_by" v="JOSM"/>
    <tag k="highway" v="trunk"/>
    <tag k="name" v="Barrier Hwy"/>
    <tag k="surface" v="paved"/>
  </node>
  <node id="133318158" version="1" timestamp="2007-11-25T23:19:59Z" uid="4467" user="Rosscoe" changeset="621649" lat="-31.542802" lon="146.41078">
    <tag k="created_by" v="JOSM"/>
    <tag k="highway" v="trunk"/>
    <tag k="name" v="Barrier Hwy"/>
    <tag k="surface" v="paved"/>
  </node>
  <node id="133318158" version="2" timestamp="2007-12-09T09:46:45Z" uid="4467" user="Rosscoe" changeset="198487" lat="-31.542802" lon="146.41078">
    <tag k="created_by" v="JOSM"/>
    <tag k="highway" v="trunk"/>
    <tag k="name" v="Barrier Hwy"/>
    <tag k="surface" v="paved"/>
  </node>
  <node id="133318174" version="1" timestamp="2007-11-25T23:20:00Z" uid="4467" user="Rosscoe" changeset="621649" lat="-31.542848" lon="146.41107">
    <tag k="created_by" v="JOSM"/>
    <tag k="highway" v="trunk"/>
    <tag k="name" v="Barrier Hwy"/>
    <tag k="surface" v="paved"/>
  </node>
  <node id="133318174" version="2" timestamp="2007-12-09T09:46:53Z" uid="4467" user="Rosscoe" changeset="198487" lat="-31.542848" lon="146.41107">
    <tag k="created_by" v="JOSM"/>
    <tag k="highway" v="trunk"/>
    <tag k="name" v="Barrier Hwy"/>
    <tag k="surface" v="paved"/>
  </node>
  <node id="133318205" version="1" timestamp="2007-11-25T23:20:01Z" uid="4467" user="Rosscoe" changeset="621649" lat="-31.542707" lon="146.410197">
    <tag k="created_by" v="JOSM"/>
    <tag k="highway" v="trunk"/>
    <tag k="name" v="Barrier Hwy"/>
    <tag k="surface" v="paved"/>
  </node>
  <node id="133318205" version="2" timestamp="2007-12-09T09:47:04Z" uid="4467" user="Rosscoe" changeset="198487" lat="-31.542707" lon="146.410197">
    <tag k="created_by" v="JOSM"/>
    <tag k="highway" v="trunk"/>
    <tag k="name" v="Barrier Hwy"/>
    <tag k="surface" v="paved"/>
  </node>
  <node id="133318228" version="1" timestamp="2007-11-25T23:20:02Z" uid="4467" user="Rosscoe" changeset="621649" lat="-31.542753" lon="146.410488">
    <tag k="created_by" v="JOSM"/>
    <tag k="highway" v="trunk"/>
    <tag k="name" v="Barrier Hwy"/>
    <tag k="surface" v="paved"/>
  </node>
  <node id="133318228" version="2" timestamp="2007-12-09T09:46:20Z" uid="4467" user="Rosscoe" changeset="198487" lat="-31.542753" lon="146.410488">
    <tag k="created_by" v="JOSM"/>
    <tag k="highway" v="trunk"/>
    <tag k="name" v="Barrier Hwy"/>
    <tag k="surface" v="paved"/>
  </node>
  <node id="133318259" version="1" timestamp="2007-11-25T23:20:02Z" uid="4467" user="Rosscoe" changeset="621649" lat="-31.539308" lon="146.388738">
    <tag k="created_by" v="JOSM"/>
    <tag k="highway" v="trunk"/>
    <tag k="name" v="Barrier Hwy"/>
    <tag k="surface" v="paved"/>
  </node>
  <node id="133318259" version="2" timestamp="2007-12-09T09:46:34Z" uid="4467" user="Rosscoe" changeset="198487" lat="-31.539308" lon="146.388738">
    <tag k="created_by" v="JOSM"/>
    <tag k="highway" v="trunk"/>
    <tag k="name" v="Barrier Hwy"/>
    <tag k="surface" v="paved"/>
  </node>
  <node id="133318268" version="1" timestamp="2007-11-25T23:20:03Z" uid="4467" user="Rosscoe" changeset="621649" lat="-31.539252" lon="146.388395">
    <tag k="created_by" v="JOSM"/>
    <tag k="highway" v="trunk"/>
    <tag k="name" v="Barrier Hwy"/>
    <tag k="surface" v="paved"/>
  </node>
  <node id="133318268" version="2" timestamp="2007-12-09T09:46:36Z" uid="4467" user="Rosscoe" changeset="198487" lat="-31.539252" lon="146.388395">
    <tag k="created_by" v="JOSM"/>
    <tag k="highway" v="trunk"/>
    <tag k="name" v="Barrier Hwy"/>
    <tag k="surface" v="paved"/>
  </node>
  <node id="133318296" version="1" timestamp="2007-11-25T23:20:04Z" uid="4467" user="Rosscoe" changeset="621649" lat="-31.539637" lon="146.390787">
    <tag k="created_by" v="JOSM"/>
    <tag k="highway" v="trunk"/>
    <tag k="name" v="Barrier Hwy"/>
    <tag k="surface" v="paved"/>
  </node>
  <node id="133318296" version="2" timestamp="2007-12-09T09:44:20Z" uid="4467" user="Rosscoe" changeset="198487" lat="-31.539637" lon="146.390787">
    <tag k="created_by" v="JOSM"/>
  </node>
  <node id="133318296" version="3" timestamp="2008-02-03T06:08:16Z" uid="18775" user="drlizau" changeset="28133" lat="-31.539637" lon="146.390787">
    <tag k="created_by" v="JOSM"/>
  </node>
  <node id="133318324" version="1" timestamp="2007-11-25T23:20:05Z" uid="4467" user="Rosscoe" changeset="621649" lat="-31.539582" lon="146.390445">
    <tag k="created_by" v="JOSM"/>
    <tag k="highway" v="trunk"/>
    <tag k="name" v="Barrier Hwy"/>
    <tag k="surface" v="paved"/>
  </node>
  <node id="133318324" version="2" timestamp="2007-12-09T09:47:51Z" uid="4467" user="Rosscoe" changeset="198487" lat="-31.539582" lon="146.390445">
    <tag k="created_by" v="JOSM"/>
    <tag k="highway" v="trunk"/>
    <tag k="name" v="Barrier Hwy"/>
    <tag k="surface" v="paved"/>
  </node>
  <node id="133318358" version="1" timestamp="2007-11-25T23:20:06Z" uid="4467" user="Rosscoe" changeset="621649" lat="-31.539743" lon="146.391473">
    <tag k="created_by" v="JOSM"/>
    <tag k="highway" v="trunk"/>
    <tag k="name" v="Barrier Hwy"/>
    <tag k="surface" v="paved"/>
  </node>
  <node id="133318358" version="2" timestamp="2007-12-09T09:47:16Z" uid="4467" user="Rosscoe" changeset="198487" lat="-31.539743" lon="146.391473">
    <tag k="created_by" v="JOSM"/>
    <tag k="highway" v="trunk"/>
    <tag k="name" v="Barrier Hwy"/>
    <tag k="surface" v="paved"/>
  </node>
  <node id="133318390" version="1" timestamp="2007-11-25T23:20:07Z" uid="4467" user="Rosscoe" changeset="621649" lat="-31.53969" lon="146.391128">
    <tag k="created_by" v="JOSM"/>
    <tag k="highway" v="trunk"/>
    <tag k="name" v="Barrier Hwy"/>
    <tag k="surface" v="paved"/>
  </node>
  <node id="133318390" version="2" timestamp="2007-12-09T09:47:26Z" uid="4467" user="Rosscoe" changeset="198487" lat="-31.53969" lon="146.391128">
    <tag k="created_by" v="JOSM"/>
    <tag k="highway" v="trunk"/>
    <tag k="name" v="Barrier Hwy"/>
    <tag k="surface" v="paved"/>
  </node>
  <node id="133318430" version="1" timestamp="2007-11-25T23:20:07Z" uid="4467" user="Rosscoe" changeset="621649" lat="-31.53985" lon="146.392152">
    <tag k="created_by" v="JOSM"/>
    <tag k="highway" v="trunk"/>
    <tag k="name" v="Barrier Hwy"/>
    <tag k="surface" v="paved"/>
  </node>
  <node id="133318430" version="2" timestamp="2007-12-09T09:45:08Z" uid="4467" user="Rosscoe" changeset="198487" lat="-31.53985" lon="146.392152">
    <tag k="created_by" v="JOSM"/>
    <tag k="highway" v="trunk"/>
    <tag k="name" v="Barrier Hwy"/>
    <tag k="surface" v="paved"/>
  </node>
  <node id="133318450" version="1" timestamp="2007-11-25T23:20:08Z" uid="4467" user="Rosscoe" changeset="621649" lat="-31.539797" lon="146.391812">
    <tag k="created_by" v="JOSM"/>
    <tag k="highway" v="trunk"/>
    <tag k="name" v="Barrier Hwy"/>
    <tag k="surface" v="paved"/>
  </node>
  <node id="133318450" version="2" timestamp="2007-12-09T09:45:14Z" uid="4467" user="Rosscoe" changeset="198487" lat="-31.539797" lon="146.391812">
    <tag k="created_by" v="JOSM"/>
    <tag k="highway" v="trunk"/>
    <tag k="name" v="Barrier Hwy"/>
    <tag k="surface" v="paved"/>
  </node>
  <node id="133318469" version="1" timestamp="2007-11-25T23:20:09Z" uid="4467" user="Rosscoe" changeset="621649" lat="-31.53996" lon="146.39283">
    <tag k="created_by" v="JOSM"/>
    <tag k="highway" v="trunk"/>
    <tag k="name" v="Barrier Hwy"/>
    <tag k="surface" v="paved"/>
  </node>
  <node id="133318469" version="2" timestamp="2007-12-09T09:44:43Z" uid="4467" user="Rosscoe" changeset="198487" lat="-31.53996" lon="146.39283">
    <tag k="created_by" v="JOSM"/>
    <tag k="highway" v="trunk"/>
    <tag k="name" v="Barrier Hwy"/>
    <tag k="surface" v="paved"/>
  </node>
  <node id="133318498" version="1" timestamp="2007-11-25T23:20:10Z" uid="4467" user="Rosscoe" changeset="621649" lat="-31.539903" lon="146.392492">
    <tag k="created_by" v="JOSM"/>
    <tag k="highway" v="trunk"/>
    <tag k="name" v="Barrier Hwy"/>
    <tag k="surface" v="paved"/>
  </node>
  <node id="133318498" version="2" timestamp="2007-12-09T09:44:58Z" uid="4467" user="Rosscoe" changeset="198487" lat="-31.539903" lon="146.392492">
    <tag k="created_by" v="JOSM"/>
    <tag k="highway" v="trunk"/>
    <tag k="name" v="Barrier Hwy"/>
    <tag k="surface" v="paved"/>
  </node>
  <node id="133318532" version="1" timestamp="2007-11-25T23:20:10Z" uid="4467" user="Rosscoe" changeset="621649" lat="-31.540072" lon="146.393517">
    <tag k="created_by" v="JOSM"/>
    <tag k="highway" v="trunk"/>
    <tag k="name" v="Barrier Hwy"/>
    <tag k="surface" v="paved"/>
  </node>
  <node id="133318532" version="2" timestamp="2007-12-09T09:46:03Z" uid="4467" user="Rosscoe" changeset="198487" lat="-31.540072" lon="146.393517">
    <tag k="created_by" v="JOSM"/>
    <tag k="highway" v="trunk"/>
    <tag k="name" v="Barrier Hwy"/>
    <tag k="surface" v="paved"/>
  </node>
  <node id="133318568" version="1" timestamp="2007-11-25T23:20:11Z" uid="4467" user="Rosscoe" changeset="621649" lat="-31.540015" lon="146.393173">
    <tag k="created_by" v="JOSM"/>
    <tag k="highway" v="trunk"/>
    <tag k="name" v="Barrier Hwy"/>
    <tag k="surface" v="paved"/>
  </node>
  <node id="133318568" version="2" timestamp="2007-12-09T09:46:10Z" uid="4467" user="Rosscoe" changeset="198487" lat="-31.540015" lon="146.393173">
    <tag k="created_by" v="JOSM"/>
    <tag k="highway" v="trunk"/>
    <tag k="name" v="Barrier Hwy"/>
    <tag k="surface" v="paved"/>
  </node>
  <node id="133318602" version="1" timestamp="2007-11-25T23:20:12Z" uid="4467" user="Rosscoe" changeset="621649" lat="-31.540178" lon="146.394192">
    <tag k="created_by" v="JOSM"/>
    <tag k="highway" v="trunk"/>
    <tag k="name" v="Barrier Hwy"/>
    <tag k="surface" v="paved"/>
  </node>
  <node id="133318602" version="2" timestamp="2007-12-09T09:45:33Z" uid="4467" user="Rosscoe" changeset="198487" lat="-31.540178" lon="146.394192">
    <tag k="created_by" v="JOSM"/>
    <tag k="highway" v="trunk"/>
    <tag k="name" v="Barrier Hwy"/>
    <tag k="surface" v="paved"/>
  </node>
  <node id="133318640" version="1" timestamp="2007-11-25T23:20:13Z" uid="4467" user="Rosscoe" changeset="621649" lat="-31.540125" lon="146.393852">
    <tag k="created_by" v="JOSM"/>
    <tag k="highway" v="trunk"/>
    <tag k="name" v="Barrier Hwy"/>
    <tag k="surface" v="paved"/>
  </node>
  <node id="133318640" version="2" timestamp="2007-12-09T09:45:44Z" uid="4467" user="Rosscoe" changeset="198487" lat="-31.540125" lon="146.393852">
    <tag k="created_by" v="JOSM"/>
    <tag k="highway" v="trunk"/>
    <tag k="name" v="Barrier Hwy"/>
    <tag k="surface" v="paved"/>
  </node>
  <node id="133318680" version="1" timestamp="2007-11-25T23:20:14Z" uid="4467" user="Rosscoe" changeset="621649" lat="-31.540283" lon="146.394865">
    <tag k="created_by" v="JOSM"/>
    <tag k="highway" v="trunk"/>
    <tag k="name" v="Barrier Hwy"/>
    <tag k="surface" v="paved"/>
  </node>
  <node id="133318680" version="2" timestamp="2007-12-09T10:07:18Z" uid="4467" user="Rosscoe" changeset="198487" lat="-31.540283" lon="146.394865">
    <tag k="created_by" v="JOSM"/>
    <tag k="highway" v="trunk"/>
    <tag k="name" v="Barrier Hwy"/>
    <tag k="surface" v="paved"/>
  </node>
  <node id="133318714" version="1" timestamp="2007-11-25T23:20:14Z" uid="4467" user="Rosscoe" changeset="621649" lat="-31.540232" lon="146.39453">
    <tag k="created_by" v="JOSM"/>
    <tag k="highway" v="trunk"/>
    <tag k="name" v="Barrier Hwy"/>
    <tag k="surface" v="paved"/>
  </node>
  <node id="133318714" version="2" timestamp="2007-12-09T10:07:10Z" uid="4467" user="Rosscoe" changeset="198487" lat="-31.540232" lon="146.39453">
    <tag k="created_by" v="JOSM"/>
    <tag k="highway" v="trunk"/>
    <tag k="name" v="Barrier Hwy"/>
    <tag k="surface" v="paved"/>
  </node>
  <node id="133318752" version="1" timestamp="2007-11-25T23:20:15Z" uid="4467" user="Rosscoe" changeset="621649" lat="-31.540337" lon="146.395207">
    <tag k="created_by" v="JOSM"/>
    <tag k="highway" v="trunk"/>
    <tag k="name" v="Barrier Hwy"/>
    <tag k="surface" v="paved"/>
  </node>
  <node id="133318752" version="2" timestamp="2007-12-09T10:07:36Z" uid="4467" user="Rosscoe" changeset="198487" lat="-31.540337" lon="146.395207">
    <tag k="created_by" v="JOSM"/>
    <tag k="highway" v="trunk"/>
    <tag k="name" v="Barrier Hwy"/>
    <tag k="surface" v="paved"/>
  </node>
  <node id="133318788" version="1" timestamp="2007-11-25T23:20:16Z" uid="4467" user="Rosscoe" changeset="621649" lat="-31.54039" lon="146.39555">
    <tag k="created_by" v="JOSM"/>
    <tag k="highway" v="trunk"/>
    <tag k="name" v="Barrier Hwy"/>
    <tag k="surface" v="paved"/>
  </node>
  <node id="133318788" version="2" timestamp="2007-12-09T10:06:37Z" uid="4467" user="Rosscoe" changeset="198487" lat="-31.54039" lon="146.39555">
    <tag k="created_by" v="JOSM"/>
    <tag k="highway" v="trunk"/>
    <tag k="name" v="Barrier Hwy"/>
    <tag k="surface" v="paved"/>
  </node>
  <node id="133318826" version="1" timestamp="2007-11-25T23:20:17Z" uid="4467" user="Rosscoe" changeset="621649" lat="-31.540443" lon="146.395885">
    <tag k="created_by" v="JOSM"/>
    <tag k="highway" v="trunk"/>
    <tag k="name" v="Barrier Hwy"/>
    <tag k="surface" v="paved"/>
  </node>
  <node id="133318826" version="2" timestamp="2007-12-09T10:06:24Z" uid="4467" user="Rosscoe" changeset="198487" lat="-31.540443" lon="146.395885">
    <tag k="created_by" v="JOSM"/>
    <tag k="highway" v="trunk"/>
    <tag k="name" v="Barrier Hwy"/>
    <tag k="surface" v="paved"/>
  </node>
  <node id="133318863" version="1" timestamp="2007-11-25T23:20:17Z" uid="4467" user="Rosscoe" changeset="621649" lat="-31.540495" lon="146.396223">
    <tag k="created_by" v="JOSM"/>
    <tag k="highway" v="trunk"/>
    <tag k="name" v="Barrier Hwy"/>
    <tag k="surface" v="paved"/>
  </node>
  <node id="133318863" version="2" timestamp="2007-12-09T10:07:04Z" uid="4467" user="Rosscoe" changeset="198487" lat="-31.540495" lon="146.396223">
    <tag k="created_by" v="JOSM"/>
    <tag k="highway" v="trunk"/>
    <tag k="name" v="Barrier Hwy"/>
    <tag k="surface" v="paved"/>
  </node>
  <node id="133318889" version="1" timestamp="2007-11-25T23:20:18Z" uid="4467" user="Rosscoe" changeset="621649" lat="-31.54055" lon="146.396565">
    <tag k="created_by" v="JOSM"/>
    <tag k="highway" v="trunk"/>
    <tag k="name" v="Barrier Hwy"/>
    <tag k="surface" v="paved"/>
  </node>
  <node id="133318889" version="2" timestamp="2007-12-09T10:06:54Z" uid="4467" user="Rosscoe" changeset="198487" lat="-31.54055" lon="146.396565">
    <tag k="created_by" v="JOSM"/>
    <tag k="highway" v="trunk"/>
    <tag k="name" v="Barrier Hwy"/>
    <tag k="surface" v="paved"/>
  </node>
  <node id="133318927" version="1" timestamp="2007-11-25T23:20:19Z" uid="4467" user="Rosscoe" changeset="621649" lat="-31.540603" lon="146.396907">
    <tag k="created_by" v="JOSM"/>
    <tag k="highway" v="trunk"/>
    <tag k="name" v="Barrier Hwy"/>
    <tag k="surface" v="paved"/>
  </node>
  <node id="133318927" version="2" timestamp="2007-12-09T10:05:49Z" uid="4467" user="Rosscoe" changeset="198487" lat="-31.540603" lon="146.396907">
    <tag k="created_by" v="JOSM"/>
    <tag k="highway" v="trunk"/>
    <tag k="name" v="Barrier Hwy"/>
    <tag k="surface" v="paved"/>
  </node>
  <node id="133318964" version="1" timestamp="2007-11-25T23:20:20Z" uid="4467" user="Rosscoe" changeset="621649" lat="-31.540658" lon="146.397245">
    <tag k="created_by" v="JOSM"/>
    <tag k="highway" v="trunk"/>
    <tag k="name" v="Barrier Hwy"/>
    <tag k="surface" v="paved"/>
  </node>
  <node id="133318964" version="2" timestamp="2007-12-09T10:05:44Z" uid="4467" user="Rosscoe" changeset="198487" lat="-31.540658" lon="146.397245">
    <tag k="created_by" v="JOSM"/>
    <tag k="highway" v="trunk"/>
    <tag k="name" v="Barrier Hwy"/>
    <tag k="surface" v="paved"/>
  </node>
  <node id="133319005" version="1" timestamp="2007-11-25T23:20:21Z" uid="4467" user="Rosscoe" changeset="621649" lat="-31.540715" lon="146.39759">
    <tag k="created_by" v="JOSM"/>
    <tag k="highway" v="trunk"/>
    <tag k="name" v="Barrier Hwy"/>
    <tag k="surface" v="paved"/>
  </node>
  <node id="133319005" version="2" timestamp="2007-12-09T10:06:13Z" uid="4467" user="Rosscoe" changeset="198487" lat="-31.540715" lon="146.39759">
    <tag k="created_by" v="JOSM"/>
    <tag k="highway" v="trunk"/>
    <tag k="name" v="Barrier Hwy"/>
    <tag k="surface" v="paved"/>
  </node>
  <node id="133319041" version="1" timestamp="2007-11-25T23:20:21Z" uid="4467" user="Rosscoe" changeset="621649" lat="-31.540768" lon="146.397927">
    <tag k="created_by" v="JOSM"/>
    <tag k="highway" v="trunk"/>
    <tag k="name" v="Barrier Hwy"/>
    <tag k="surface" v="paved"/>
  </node>
  <node id="133319041" version="2" timestamp="2007-12-09T10:05:04Z" uid="4467" user="Rosscoe" changeset="198487" lat="-31.540768" lon="146.397927">
    <tag k="created_by" v="JOSM"/>
    <tag k="highway" v="trunk"/>
    <tag k="name" v="Barrier Hwy"/>
    <tag k="surface" v="paved"/>
  </node>
  <node id="133319068" version="1" timestamp="2007-11-25T23:20:22Z" uid="4467" user="Rosscoe" changeset="621649" lat="-31.540823" lon="146.398268">
    <tag k="created_by" v="JOSM"/>
    <tag k="highway" v="trunk"/>
    <tag k="name" v="Barrier Hwy"/>
    <tag k="surface" v="paved"/>
  </node>
  <node id="133319068" version="2" timestamp="2007-12-09T10:05:11Z" uid="4467" user="Rosscoe" changeset="198487" lat="-31.540823" lon="146.398268">
    <tag k="created_by" v="JOSM"/>
    <tag k="highway" v="trunk"/>
    <tag k="name" v="Barrier Hwy"/>
    <tag k="surface" v="paved"/>
  </node>
  <node id="133319095" version="1" timestamp="2007-11-25T23:20:23Z" uid="4467" user="Rosscoe" changeset="621649" lat="-31.540877" lon="146.398608">
    <tag k="created_by" v="JOSM"/>
    <tag k="highway" v="trunk"/>
    <tag k="name" v="Barrier Hwy"/>
    <tag k="surface" v="paved"/>
  </node>
  <node id="133319095" version="2" timestamp="2007-12-09T10:04:57Z" uid="4467" user="Rosscoe" changeset="198487" lat="-31.540877" lon="146.398608">
    <tag k="created_by" v="JOSM"/>
    <tag k="highway" v="trunk"/>
    <tag k="name" v="Barrier Hwy"/>
    <tag k="surface" v="paved"/>
  </node>
  <node id="133319127" version="1" timestamp="2007-11-25T23:20:24Z" uid="4467" user="Rosscoe" changeset="621649" lat="-31.540932" lon="146.39895">
    <tag k="created_by" v="JOSM"/>
    <tag k="highway" v="trunk"/>
    <tag k="name" v="Barrier Hwy"/>
    <tag k="surface" v="paved"/>
  </node>
  <node id="133319127" version="2" timestamp="2007-12-09T10:05:35Z" uid="4467" user="Rosscoe" changeset="198487" lat="-31.540932" lon="146.39895">
    <tag k="created_by" v="JOSM"/>
    <tag k="highway" v="trunk"/>
    <tag k="name" v="Barrier Hwy"/>
    <tag k="surface" v="paved"/>
  </node>
  <node id="133319164" version="1" timestamp="2007-11-25T23:20:24Z" uid="4467" user="Rosscoe" changeset="621649" lat="-31.540987" lon="146.39929">
    <tag k="created_by" v="JOSM"/>
    <tag k="highway" v="trunk"/>
    <tag k="name" v="Barrier Hwy"/>
    <tag k="surface" v="paved"/>
  </node>
  <node id="133319164" version="2" timestamp="2007-12-09T10:05:27Z" uid="4467" user="Rosscoe" changeset="198487" lat="-31.540987" lon="146.39929">
    <tag k="created_by" v="JOSM"/>
    <tag k="highway" v="trunk"/>
    <tag k="name" v="Barrier Hwy"/>
    <tag k="surface" v="paved"/>
  </node>
  <node id="133319193" version="1" timestamp="2007-11-25T23:20:25Z" uid="4467" user="Rosscoe" changeset="621649" lat="-31.54104" lon="146.399635">
    <tag k="created_by" v="JOSM"/>
    <tag k="highway" v="trunk"/>
    <tag k="name" v="Barrier Hwy"/>
    <tag k="surface" v="paved"/>
  </node>
  <node id="133319193" version="2" timestamp="2007-12-09T10:04:09Z" uid="4467" user="Rosscoe" changeset="198487" lat="-31.54104" lon="146.399635">
    <tag k="created_by" v="JOSM"/>
    <tag k="highway" v="trunk"/>
    <tag k="name" v="Barrier Hwy"/>
    <tag k="surface" v="paved"/>
  </node>
  <node id="133319219" version="1" timestamp="2007-11-25T23:20:26Z" uid="4467" user="Rosscoe" changeset="621649" lat="-31.541092" lon="146.399972">
    <tag k="created_by" v="JOSM"/>
    <tag k="highway" v="trunk"/>
    <tag k="name" v="Barrier Hwy"/>
    <tag k="surface" v="paved"/>
  </node>
  <node id="133319219" version="2" timestamp="2007-12-09T10:04:27Z" uid="4467" user="Rosscoe" changeset="198487" lat="-31.541092" lon="146.399972">
    <tag k="created_by" v="JOSM"/>
    <tag k="highway" v="trunk"/>
    <tag k="name" v="Barrier Hwy"/>
    <tag k="surface" v="paved"/>
  </node>
  <node id="133319251" version="1" timestamp="2007-11-25T23:20:27Z" uid="4467" user="Rosscoe" changeset="621649" lat="-31.541147" lon="146.400313">
    <tag k="created_by" v="JOSM"/>
    <tag k="highway" v="trunk"/>
    <tag k="name" v="Barrier Hwy"/>
    <tag k="surface" v="paved"/>
  </node>
  <node id="133319251" version="2" timestamp="2007-12-09T10:04:35Z" uid="4467" user="Rosscoe" changeset="198487" lat="-31.541147" lon="146.400313">
    <tag k="created_by" v="JOSM"/>
    <tag k="highway" v="trunk"/>
    <tag k="name" v="Barrier Hwy"/>
    <tag k="surface" v="paved"/>
  </node>
  <node id="133319290" version="1" timestamp="2007-11-25T23:20:28Z" uid="4467" user="Rosscoe" changeset="621649" lat="-31.552703" lon="146.472198">
    <tag k="created_by" v="JOSM"/>
    <tag k="highway" v="trunk"/>
    <tag k="name" v="Barrier Hwy"/>
    <tag k="surface" v="paved"/>
  </node>
  <node id="133319290" version="2" timestamp="2007-12-09T10:04:44Z" uid="4467" user="Rosscoe" changeset="198487" lat="-31.552703" lon="146.472198">
    <tag k="created_by" v="JOSM"/>
    <tag k="highway" v="trunk"/>
    <tag k="name" v="Barrier Hwy"/>
    <tag k="surface" v="paved"/>
  </node>
  <node id="133319330" version="1" timestamp="2007-11-25T23:20:28Z" uid="4467" user="Rosscoe" changeset="621649" lat="-31.552758" lon="146.472535">
    <tag k="created_by" v="JOSM"/>
    <tag k="highway" v="trunk"/>
    <tag k="name" v="Barrier Hwy"/>
    <tag k="surface" v="paved"/>
  </node>
  <node id="133319330" version="2" timestamp="2007-12-09T10:03:46Z" uid="4467" user="Rosscoe" changeset="198487" lat="-31.552758" lon="146.472535">
    <tag k="created_by" v="JOSM"/>
    <tag k="highway" v="trunk"/>
    <tag k="name" v="Barrier Hwy"/>
    <tag k="surface" v="paved"/>
  </node>
  <node id="133319353" version="1" timestamp="2007-11-25T23:20:29Z" uid="4467" user="Rosscoe" changeset="621649" lat="-31.552537" lon="146.471185">
    <tag k="created_by" v="JOSM"/>
    <tag k="highway" v="trunk"/>
    <tag k="name" v="Barrier Hwy"/>
    <tag k="surface" v="paved"/>
  </node>
  <node id="133319353" version="2" timestamp="2007-12-09T10:03:44Z" uid="4467" user="Rosscoe" changeset="198487" lat="-31.552537" lon="146.471185">
    <tag k="created_by" v="JOSM"/>
    <tag k="highway" v="trunk"/>
    <tag k="name" v="Barrier Hwy"/>
    <tag k="surface" v="paved"/>
  </node>
  <node id="133319385" version="1" timestamp="2007-11-25T23:20:30Z" uid="4467" user="Rosscoe" changeset="621649" lat="-31.552592" lon="146.47152">
    <tag k="created_by" v="JOSM"/>
    <tag k="highway" v="trunk"/>
    <tag k="name" v="Barrier Hwy"/>
    <tag k="surface" v="paved"/>
  </node>
  <node id="133319385" version="2" timestamp="2007-12-09T10:03:55Z" uid="4467" user="Rosscoe" changeset="198487" lat="-31.552592" lon="146.47152">
    <tag k="created_by" v="JOSM"/>
    <tag k="highway" v="trunk"/>
    <tag k="name" v="Barrier Hwy"/>
    <tag k="surface" v="paved"/>
  </node>
  <node id="133319422" version="1" timestamp="2007-11-25T23:20:31Z" uid="4467" user="Rosscoe" changeset="621649" lat="-31.552423" lon="146.470502">
    <tag k="created_by" v="JOSM"/>
    <tag k="highway" v="trunk"/>
    <tag k="name" v="Barrier Hwy"/>
    <tag k="surface" v="paved"/>
  </node>
  <node id="133319422" version="2" timestamp="2007-12-09T10:04:02Z" uid="4467" user="Rosscoe" changeset="198487" lat="-31.552423" lon="146.470502">
    <tag k="created_by" v="JOSM"/>
    <tag k="highway" v="trunk"/>
    <tag k="name" v="Barrier Hwy"/>
    <tag k="surface" v="paved"/>
  </node>
  <node id="133319458" version="1" timestamp="2007-11-25T23:20:32Z" uid="4467" user="Rosscoe" changeset="621649" lat="-31.55248" lon="146.470843">
    <tag k="created_by" v="JOSM"/>
    <tag k="highway" v="trunk"/>
    <tag k="name" v="Barrier Hwy"/>
    <tag k="surface" v="paved"/>
  </node>
  <node id="133319458" version="2" timestamp="2007-12-09T10:03:08Z" uid="4467" user="Rosscoe" changeset="198487" lat="-31.55248" lon="146.470843">
    <tag k="created_by" v="JOSM"/>
    <tag k="highway" v="trunk"/>
    <tag k="name" v="Barrier Hwy"/>
    <tag k="surface" v="paved"/>
  </node>
  <node id="133319497" version="1" timestamp="2007-11-25T23:20:32Z" uid="4467" user="Rosscoe" changeset="621649" lat="-31.552257" lon="146.469485">
    <tag k="created_by" v="JOSM"/>
    <tag k="highway" v="trunk"/>
    <tag k="name" v="Barrier Hwy"/>
    <tag k="surface" v="paved"/>
  </node>
  <node id="133319497" version="2" timestamp="2007-12-09T10:03:15Z" uid="4467" user="Rosscoe" changeset="198487" lat="-31.552257" lon="146.469485">
    <tag k="created_by" v="JOSM"/>
    <tag k="highway" v="trunk"/>
    <tag k="name" v="Barrier Hwy"/>
    <tag k="surface" v="paved"/>
  </node>
  <node id="133319530" version="1" timestamp="2007-11-25T23:20:33Z" uid="4467" user="Rosscoe" changeset="621649" lat="-31.552312" lon="146.469823">
    <tag k="created_by" v="JOSM"/>
    <tag k="highway" v="trunk"/>
    <tag k="name" v="Barrier Hwy"/>
    <tag k="surface" v="paved"/>
  </node>
  <node id="133319530" version="2" timestamp="2007-12-09T10:03:26Z" uid="4467" user="Rosscoe" changeset="198487" lat="-31.552312" lon="146.469823">
    <tag k="created_by" v="JOSM"/>
    <tag k="highway" v="trunk"/>
    <tag k="name" v="Barrier Hwy"/>
    <tag k="surface" v="paved"/>
  </node>
  <node id="133319559" version="1" timestamp="2007-11-25T23:20:34Z" uid="4467" user="Rosscoe" changeset="621649" lat="-31.552147" lon="146.468808">
    <tag k="created_by" v="JOSM"/>
    <tag k="highway" v="trunk"/>
    <tag k="name" v="Barrier Hwy"/>
    <tag k="surface" v="paved"/>
  </node>
  <node id="133319559" version="2" timestamp="2007-12-09T10:02:12Z" uid="4467" user="Rosscoe" changeset="198487" lat="-31.552147" lon="146.468808">
    <tag k="created_by" v="JOSM"/>
    <tag k="highway" v="trunk"/>
    <tag k="name" v="Barrier Hwy"/>
    <tag k="surface" v="paved"/>
  </node>
  <node id="133319583" version="1" timestamp="2007-11-25T23:20:35Z" uid="4467" user="Rosscoe" changeset="621649" lat="-31.552202" lon="146.46915">
    <tag k="created_by" v="JOSM"/>
    <tag k="highway" v="trunk"/>
    <tag k="name" v="Barrier Hwy"/>
    <tag k="surface" v="paved"/>
  </node>
  <node id="133319583" version="2" timestamp="2007-12-09T09:43:12Z" uid="4467" user="Rosscoe" changeset="198487" lat="-31.552202" lon="146.46915">
    <tag k="created_by" v="JOSM"/>
  </node>
  <node id="133319583" version="3" timestamp="2008-02-03T06:08:17Z" uid="18775" user="drlizau" changeset="28133" lat="-31.552202" lon="146.46915">
    <tag k="created_by" v="JOSM"/>
  </node>
  <node id="133319623" version="1" timestamp="2007-11-25T23:20:36Z" uid="4467" user="Rosscoe" changeset="621649" lat="-31.552038" lon="146.468128">
    <tag k="created_by" v="JOSM"/>
    <tag k="highway" v="trunk"/>
    <tag k="name" v="Barrier Hwy"/>
    <tag k="surface" v="paved"/>
  </node>
  <node id="133319623" version="2" timestamp="2007-12-09T10:02:29Z" uid="4467" user="Rosscoe" changeset="198487" lat="-31.552038" lon="146.468128">
    <tag k="created_by" v="JOSM"/>
    <tag k="highway" v="trunk"/>
    <tag k="name" v="Barrier Hwy"/>
    <tag k="surface" v="paved"/>
  </node>
  <node id="133319667" version="1" timestamp="2007-11-25T23:20:36Z" uid="4467" user="Rosscoe" changeset="621649" lat="-31.552092" lon="146.468467">
    <tag k="created_by" v="JOSM"/>
    <tag k="highway" v="trunk"/>
    <tag k="name" v="Barrier Hwy"/>
    <tag k="surface" v="paved"/>
  </node>
  <node id="133319667" version="2" timestamp="2007-12-09T10:02:49Z" uid="4467" user="Rosscoe" changeset="198487" lat="-31.552092" lon="146.468467">
    <tag k="created_by" v="JOSM"/>
    <tag k="highway" v="trunk"/>
    <tag k="name" v="Barrier Hwy"/>
    <tag k="surface" v="paved"/>
  </node>
  <node id="133319720" version="1" timestamp="2007-11-25T23:20:37Z" uid="4467" user="Rosscoe" changeset="621649" lat="-31.551928" lon="146.46745">
    <tag k="created_by" v="JOSM"/>
    <tag k="highway" v="trunk"/>
    <tag k="name" v="Barrier Hwy"/>
    <tag k="surface" v="paved"/>
  </node>
  <node id="133319720" version="2" timestamp="2007-12-09T10:01:59Z" uid="4467" user="Rosscoe" changeset="198487" lat="-31.551928" lon="146.46745">
    <tag k="created_by" v="JOSM"/>
    <tag k="highway" v="trunk"/>
    <tag k="name" v="Barrier Hwy"/>
    <tag k="surface" v="paved"/>
  </node>
  <node id="133319802" version="1" timestamp="2007-11-25T23:20:38Z" uid="4467" user="Rosscoe" changeset="621649" lat="-31.551983" lon="146.467788">
    <tag k="created_by" v="JOSM"/>
    <tag k="highway" v="trunk"/>
    <tag k="name" v="Barrier Hwy"/>
    <tag k="surface" v="paved"/>
  </node>
  <node id="133319802" version="2" timestamp="2007-12-09T10:01:35Z" uid="4467" user="Rosscoe" changeset="198487" lat="-31.551983" lon="146.467788">
    <tag k="created_by" v="JOSM"/>
    <tag k="highway" v="trunk"/>
    <tag k="name" v="Barrier Hwy"/>
    <tag k="surface" v="paved"/>
  </node>
  <node id="133319844" version="1" timestamp="2007-11-25T23:20:39Z" uid="4467" user="Rosscoe" changeset="621649" lat="-31.55182" lon="146.46677">
    <tag k="created_by" v="JOSM"/>
    <tag k="highway" v="trunk"/>
    <tag k="name" v="Barrier Hwy"/>
    <tag k="surface" v="paved"/>
  </node>
  <node id="133319844" version="2" timestamp="2007-12-09T10:01:22Z" uid="4467" user="Rosscoe" changeset="198487" lat="-31.55182" lon="146.46677">
    <tag k="created_by" v="JOSM"/>
    <tag k="highway" v="trunk"/>
    <tag k="name" v="Barrier Hwy"/>
    <tag k="surface" v="paved"/>
  </node>
  <node id="133319879" version="1" timestamp="2007-11-25T23:20:40Z" uid="4467" user="Rosscoe" changeset="621649" lat="-31.551875" lon="146.467113">
    <tag k="created_by" v="JOSM"/>
    <tag k="highway" v="trunk"/>
    <tag k="name" v="Barrier Hwy"/>
    <tag k="surface" v="paved"/>
  </node>
  <node id="133319879" version="2" timestamp="2007-12-09T10:01:11Z" uid="4467" user="Rosscoe" changeset="198487" lat="-31.551875" lon="146.467113">
    <tag k="created_by" v="JOSM"/>
    <tag k="highway" v="trunk"/>
    <tag k="name" v="Barrier Hwy"/>
    <tag k="surface" v="paved"/>
  </node>
  <node id="133319916" version="1" timestamp="2007-11-25T23:20:40Z" uid="4467" user="Rosscoe" changeset="621649" lat="-31.553772" lon="146.47864">
    <tag k="created_by" v="JOSM"/>
    <tag k="highway" v="trunk"/>
    <tag k="name" v="Barrier Hwy"/>
    <tag k="surface" v="paved"/>
  </node>
  <node id="133319916" version="2" timestamp="2007-12-09T09:43:22Z" uid="4467" user="Rosscoe" changeset="198487" lat="-31.553772" lon="146.47864">
    <tag k="created_by" v="JOSM"/>
  </node>
  <node id="133319916" version="3" timestamp="2008-02-03T06:08:06Z" uid="18775" user="drlizau" changeset="28133" lat="-31.553772" lon="146.47864">
    <tag k="created_by" v="JOSM"/>
  </node>
  <node id="133319950" version="1" timestamp="2007-11-25T23:20:41Z" uid="4467" user="Rosscoe" changeset="621649" lat="-31.553713" lon="146.478303">
    <tag k="created_by" v="JOSM"/>
    <tag k="highway" v="trunk"/>
    <tag k="name" v="Barrier Hwy"/>
    <tag k="surface" v="paved"/>
  </node>
  <node id="133319950" version="2" timestamp="2007-12-09T10:00:50Z" uid="4467" user="Rosscoe" changeset="198487" lat="-31.553713" lon="146.478303">
    <tag k="created_by" v="JOSM"/>
    <tag k="highway" v="trunk"/>
    <tag k="name" v="Barrier Hwy"/>
    <tag k="surface" v="paved"/>
  </node>
  <node id="133319988" version="1" timestamp="2007-11-25T23:20:42Z" uid="4467" user="Rosscoe" changeset="621649" lat="-31.5536" lon="146.477627">
    <tag k="created_by" v="JOSM"/>
    <tag k="highway" v="trunk"/>
    <tag k="name" v="Barrier Hwy"/>
    <tag k="surface" v="paved"/>
  </node>
  <node id="133319988" version="2" timestamp="2007-12-09T10:00:41Z" uid="4467" user="Rosscoe" changeset="198487" lat="-31.5536" lon="146.477627">
    <tag k="created_by" v="JOSM"/>
    <tag k="highway" v="trunk"/>
    <tag k="name" v="Barrier Hwy"/>
    <tag k="surface" v="paved"/>
  </node>
</osm>
