<?xml version='1.0' encoding='UTF-8'?>
<osm version="0.6" generator="libosmium/2.20.0">
  <node id="133432565" version="3" timestamp="2008-07-02T21:46:47Z" uid="6975" user="ulfl" changeset="369591" lat="55.7702776" lon="12.9850775">
    <tag k="name" v="Bauhaus"/>
    <tag k="shop" v="doityourself"/>
  </node>
  <node id="133432821" version="2" timestamp="2009-10-22T22:00:31Z" uid="99207" user="Lar Kiesel" changeset="2925871" lat="41.178556" lon="-103.128439">
    <tag k="highway" v="motorway_junction"/>
    <tag k="name" v="L-17C"/>
    <tag k="ref" v="48"/>
    <tag k="source" v="tiger_import_dch_v0.6_20070813"/>
    <tag k="tiger:county" v="Cheyenne, NE"/>
    <tag k="tiger:tlid" v="135929550:135929405:135923858"/>
    <tag k="tiger:upload_uuid" v="bulk_upload.pl-447d98a2-9875-459b-89d0-3ab9f2508af9"/>
  </node>
  <node id="133434871" version="2" timestamp="2009-10-22T22:47:59Z" uid="99207" user="Lar Kiesel" changeset="2926023" lat="41.112874" lon="-102.954464">
    <tag k="highway" v="motorway_junction"/>
    <tag k="name" v="L-17J; to US 385; Sidney; Bridgeport"/>
    <tag k="ref" v="59"/>
    <tag k="source" v="tiger_import_dch_v0.6_20070813"/>
    <tag k="tiger:county" v="Cheyenne, NE"/>
    <tag k="tiger:tlid" v="135921908:135923788:135924935"/>
    <tag k="tiger:upload_uuid" v="bulk_upload.pl-447d98a2-9875-459b-89d0-3ab9f2508af9"/>
  </node>
</osm>
