<?xml version='1.0' encoding='UTF-8'?>
<osm version="0.6" generator="libosmium/2.20.0">
  <node id="133540288" version="2" timestamp="2010-02-15T08:57:45Z" uid="74617" user="JohnSmith" changeset="3881157" lat="-12.9443455" lon="136.6159223">
    <tag k="created_by" v="JOSM"/>
  </node>
  <node id="133540301" version="2" timestamp="2010-02-15T08:57:45Z" uid="74617" user="JohnSmith" changeset="3881157" lat="-12.9461151" lon="136.6181909">
    <tag k="created_by" v="JOSM"/>
  </node>
  <node id="133540308" version="1" timestamp="2007-11-26T01:32:58Z" uid="4467" user="Rosscoe" changeset="621649" lat="-20.392042" lon="148.585827">
    <tag k="created_by" v="JOSM"/>
    <tag k="highway" v="secondary"/>
    <tag k="name" v="Shute Harbour Road"/>
    <tag k="surface" v="paved"/>
  </node>
  <node id="133540311" version="2" timestamp="2010-02-15T08:58:14Z" uid="74617" user="JohnSmith" changeset="3881157" lat="-12.7043847" lon="136.6263249">
    <tag k="created_by" v="JOSM"/>
  </node>
  <node id="133540331" version="2" timestamp="2010-02-15T08:58:13Z" uid="74617" user="JohnSmith" changeset="3881157" lat="-12.7023258" lon="136.6292073">
    <tag k="created_by" v="JOSM"/>
  </node>
  <node id="133540342" version="1" timestamp="2007-11-26T01:33:00Z" uid="4467" user="Rosscoe" changeset="621649" lat="-20.391927" lon="148.585912">
    <tag k="created_by" v="JOSM"/>
    <tag k="highway" v="secondary"/>
    <tag k="name" v="Shute Harbour Road"/>
    <tag k="surface" v="paved"/>
  </node>
  <node id="133540347" version="2" timestamp="2010-02-15T08:58:14Z" uid="74617" user="JohnSmith" changeset="3881157" lat="-12.7009875" lon="136.6323986">
    <tag k="created_by" v="JOSM"/>
  </node>
  <node id="133540363" version="2" timestamp="2010-02-15T08:58:14Z" uid="74617" user="JohnSmith" changeset="3881157" lat="-12.7002669" lon="136.6354869">
    <tag k="created_by" v="JOSM"/>
  </node>
  <node id="133540365" version="1" timestamp="2007-11-26T01:33:01Z" uid="4467" user="Rosscoe" changeset="621649" lat="-20.391803" lon="148.585992">
    <tag k="created_by" v="JOSM"/>
    <tag k="highway" v="secondary"/>
    <tag k="name" v="Shute Harbour Road"/>
    <tag k="surface" v="paved"/>
  </node>
  <node id="133540384" version="2" timestamp="2010-02-15T08:58:14Z" uid="74617" user="JohnSmith" changeset="3881157" lat="-12.7006787" lon="136.6384723">
    <tag k="created_by" v="JOSM"/>
  </node>
  <node id="133540401" version="2" timestamp="2010-02-15T08:58:14Z" uid="74617" user="JohnSmith" changeset="3881157" lat="-12.7024287" lon="136.6401194">
    <tag k="created_by" v="JOSM"/>
  </node>
  <node id="133540403" version="1" timestamp="2007-11-26T01:33:02Z" uid="4467" user="Rosscoe" changeset="621649" lat="-20.391658" lon="148.586067">
    <tag k="created_by" v="JOSM"/>
    <tag k="highway" v="secondary"/>
    <tag k="name" v="Shute Harbour Road"/>
    <tag k="surface" v="paved"/>
  </node>
  <node id="133540422" version="2" timestamp="2010-02-15T08:58:14Z" uid="74617" user="JohnSmith" changeset="3881157" lat="-12.7026346" lon="136.6441343">
    <tag k="created_by" v="JOSM"/>
  </node>
  <node id="133540443" version="2" timestamp="2010-02-15T08:58:14Z" uid="74617" user="JohnSmith" changeset="3881157" lat="-12.7027375" lon="136.6471197">
    <tag k="created_by" v="JOSM"/>
  </node>
  <node id="133540451" version="1" timestamp="2007-11-26T01:33:04Z" uid="4467" user="Rosscoe" changeset="621649" lat="-20.391492" lon="148.58614">
    <tag k="created_by" v="JOSM"/>
    <tag k="highway" v="secondary"/>
    <tag k="name" v="Shute Harbour Road"/>
    <tag k="surface" v="paved"/>
  </node>
  <node id="133540516" version="1" timestamp="2007-11-26T01:33:05Z" uid="4467" user="Rosscoe" changeset="621649" lat="-20.39131" lon="148.586205">
    <tag k="created_by" v="JOSM"/>
    <tag k="highway" v="secondary"/>
    <tag k="name" v="Shute Harbour Road"/>
    <tag k="surface" v="paved"/>
  </node>
  <node id="133540576" version="1" timestamp="2007-11-26T01:33:07Z" uid="4467" user="Rosscoe" changeset="621649" lat="-20.39111" lon="148.586262">
    <tag k="created_by" v="JOSM"/>
    <tag k="highway" v="secondary"/>
    <tag k="name" v="Shute Harbour Road"/>
    <tag k="surface" v="paved"/>
  </node>
  <node id="133540576" version="3" timestamp="2008-10-14T22:03:58Z" uid="4467" user="Rosscoe" changeset="342472" lat="-20.39111" lon="148.586262"/>
  <node id="133540636" version="1" timestamp="2007-11-26T01:33:09Z" uid="4467" user="Rosscoe" changeset="621649" lat="-20.390913" lon="148.586307">
    <tag k="created_by" v="JOSM"/>
    <tag k="highway" v="secondary"/>
    <tag k="name" v="Shute Harbour Road"/>
    <tag k="surface" v="paved"/>
  </node>
  <node id="133540685" version="1" timestamp="2007-11-26T01:33:10Z" uid="4467" user="Rosscoe" changeset="621649" lat="-20.390702" lon="148.586347">
    <tag k="created_by" v="JOSM"/>
    <tag k="highway" v="secondary"/>
    <tag k="name" v="Shute Harbour Road"/>
    <tag k="surface" v="paved"/>
  </node>
  <node id="133540753" version="1" timestamp="2007-11-26T01:33:11Z" uid="4467" user="Rosscoe" changeset="621649" lat="-20.39048" lon="148.58638">
    <tag k="created_by" v="JOSM"/>
    <tag k="highway" v="secondary"/>
    <tag k="name" v="Shute Harbour Road"/>
    <tag k="surface" v="paved"/>
  </node>
  <node id="133540822" version="1" timestamp="2007-11-26T01:33:12Z" uid="4467" user="Rosscoe" changeset="621649" lat="-20.390245" lon="148.586415">
    <tag k="created_by" v="JOSM"/>
    <tag k="highway" v="secondary"/>
    <tag k="name" v="Shute Harbour Road"/>
    <tag k="surface" v="paved"/>
  </node>
  <node id="133540880" version="1" timestamp="2007-11-26T01:33:14Z" uid="4467" user="Rosscoe" changeset="621649" lat="-20.389997" lon="148.58645">
    <tag k="created_by" v="JOSM"/>
    <tag k="highway" v="secondary"/>
    <tag k="name" v="Shute Harbour Road"/>
    <tag k="surface" v="paved"/>
  </node>
  <node id="133540945" version="1" timestamp="2007-11-26T01:33:15Z" uid="4467" user="Rosscoe" changeset="621649" lat="-20.389758" lon="148.586485">
    <tag k="created_by" v="JOSM"/>
    <tag k="highway" v="secondary"/>
    <tag k="name" v="Shute Harbour Road"/>
    <tag k="surface" v="paved"/>
  </node>
  <node id="133541004" version="1" timestamp="2007-11-26T01:33:17Z" uid="4467" user="Rosscoe" changeset="621649" lat="-20.389505" lon="148.586522">
    <tag k="created_by" v="JOSM"/>
    <tag k="highway" v="secondary"/>
    <tag k="name" v="Shute Harbour Road"/>
    <tag k="surface" v="paved"/>
  </node>
  <node id="133541050" version="1" timestamp="2007-11-26T01:33:19Z" uid="4467" user="Rosscoe" changeset="621649" lat="-20.389245" lon="148.58656">
    <tag k="created_by" v="JOSM"/>
    <tag k="highway" v="secondary"/>
    <tag k="name" v="Shute Harbour Road"/>
    <tag k="surface" v="paved"/>
  </node>
  <node id="133541131" version="1" timestamp="2007-11-26T01:33:20Z" uid="4467" user="Rosscoe" changeset="621649" lat="-20.388985" lon="148.586598">
    <tag k="created_by" v="JOSM"/>
    <tag k="highway" v="secondary"/>
    <tag k="name" v="Shute Harbour Road"/>
    <tag k="surface" v="paved"/>
  </node>
  <node id="133541181" version="1" timestamp="2007-11-26T01:33:22Z" uid="4467" user="Rosscoe" changeset="621649" lat="-20.388462" lon="148.586673">
    <tag k="created_by" v="JOSM"/>
    <tag k="highway" v="secondary"/>
    <tag k="name" v="Shute Harbour Road"/>
    <tag k="surface" v="paved"/>
  </node>
  <node id="133541249" version="1" timestamp="2007-11-26T01:33:23Z" uid="4467" user="Rosscoe" changeset="621649" lat="-20.388713" lon="148.586637">
    <tag k="created_by" v="JOSM"/>
    <tag k="highway" v="secondary"/>
    <tag k="name" v="Shute Harbour Road"/>
    <tag k="surface" v="paved"/>
  </node>
  <node id="133541314" version="1" timestamp="2007-11-26T01:33:24Z" uid="4467" user="Rosscoe" changeset="621649" lat="-20.387947" lon="148.586747">
    <tag k="created_by" v="JOSM"/>
    <tag k="highway" v="secondary"/>
    <tag k="name" v="Shute Harbour Road"/>
    <tag k="surface" v="paved"/>
  </node>
  <node id="133541367" version="1" timestamp="2007-11-26T01:33:26Z" uid="4467" user="Rosscoe" changeset="621649" lat="-20.388203" lon="148.586712">
    <tag k="created_by" v="JOSM"/>
    <tag k="highway" v="secondary"/>
    <tag k="name" v="Shute Harbour Road"/>
    <tag k="surface" v="paved"/>
  </node>
  <node id="133541412" version="1" timestamp="2007-11-26T01:33:27Z" uid="4467" user="Rosscoe" changeset="621649" lat="-20.387437" lon="148.58682">
    <tag k="created_by" v="JOSM"/>
    <tag k="highway" v="secondary"/>
    <tag k="name" v="Shute Harbour Road"/>
    <tag k="surface" v="paved"/>
  </node>
  <node id="133541533" version="1" timestamp="2007-11-26T01:33:30Z" uid="4467" user="Rosscoe" changeset="621649" lat="-20.387695" lon="148.586783">
    <tag k="created_by" v="JOSM"/>
    <tag k="highway" v="secondary"/>
    <tag k="name" v="Shute Harbour Road"/>
    <tag k="surface" v="paved"/>
  </node>
  <node id="133541574" version="1" timestamp="2007-11-26T01:33:31Z" uid="4467" user="Rosscoe" changeset="621649" lat="-20.386952" lon="148.586892">
    <tag k="created_by" v="JOSM"/>
    <tag k="highway" v="secondary"/>
    <tag k="name" v="Shute Harbour Road"/>
    <tag k="surface" v="paved"/>
  </node>
  <node id="133541625" version="1" timestamp="2007-11-26T01:33:33Z" uid="4467" user="Rosscoe" changeset="621649" lat="-20.387197" lon="148.586855">
    <tag k="created_by" v="JOSM"/>
    <tag k="highway" v="secondary"/>
    <tag k="name" v="Shute Harbour Road"/>
    <tag k="surface" v="paved"/>
  </node>
  <node id="133541695" version="1" timestamp="2007-11-26T01:33:34Z" uid="4467" user="Rosscoe" changeset="621649" lat="-20.386477" lon="148.586962">
    <tag k="created_by" v="JOSM"/>
    <tag k="highway" v="secondary"/>
    <tag k="name" v="Shute Harbour Road"/>
    <tag k="surface" v="paved"/>
  </node>
  <node id="133541769" version="1" timestamp="2007-11-26T01:33:36Z" uid="4467" user="Rosscoe" changeset="621649" lat="-20.386713" lon="148.586928">
    <tag k="created_by" v="JOSM"/>
    <tag k="highway" v="secondary"/>
    <tag k="name" v="Shute Harbour Road"/>
    <tag k="surface" v="paved"/>
  </node>
  <node id="133541837" version="1" timestamp="2007-11-26T01:33:38Z" uid="4467" user="Rosscoe" changeset="621649" lat="-20.386003" lon="148.587032">
    <tag k="created_by" v="JOSM"/>
    <tag k="highway" v="secondary"/>
    <tag k="name" v="Shute Harbour Road"/>
    <tag k="surface" v="paved"/>
  </node>
  <node id="133541922" version="1" timestamp="2007-11-26T01:33:39Z" uid="4467" user="Rosscoe" changeset="621649" lat="-20.386228" lon="148.586998">
    <tag k="created_by" v="JOSM"/>
    <tag k="highway" v="secondary"/>
    <tag k="name" v="Shute Harbour Road"/>
    <tag k="surface" v="paved"/>
  </node>
  <node id="133542029" version="1" timestamp="2007-11-26T01:33:41Z" uid="4467" user="Rosscoe" changeset="621649" lat="-20.385523" lon="148.587102">
    <tag k="created_by" v="JOSM"/>
    <tag k="highway" v="secondary"/>
    <tag k="name" v="Shute Harbour Road"/>
    <tag k="surface" v="paved"/>
  </node>
  <node id="133542070" version="1" timestamp="2007-11-26T01:33:43Z" uid="4467" user="Rosscoe" changeset="621649" lat="-20.385763" lon="148.587067">
    <tag k="created_by" v="JOSM"/>
    <tag k="highway" v="secondary"/>
    <tag k="name" v="Shute Harbour Road"/>
    <tag k="surface" v="paved"/>
  </node>
  <node id="133542107" version="1" timestamp="2007-11-26T01:33:44Z" uid="4467" user="Rosscoe" changeset="621649" lat="-20.385025" lon="148.587175">
    <tag k="created_by" v="JOSM"/>
    <tag k="highway" v="secondary"/>
    <tag k="name" v="Shute Harbour Road"/>
    <tag k="surface" v="paved"/>
  </node>
  <node id="133542148" version="1" timestamp="2007-11-26T01:33:45Z" uid="4467" user="Rosscoe" changeset="621649" lat="-20.385282" lon="148.587137">
    <tag k="created_by" v="JOSM"/>
    <tag k="highway" v="secondary"/>
    <tag k="name" v="Shute Harbour Road"/>
    <tag k="surface" v="paved"/>
  </node>
  <node id="133542178" version="1" timestamp="2007-11-26T01:33:46Z" uid="4467" user="Rosscoe" changeset="621649" lat="-20.384283" lon="148.587282">
    <tag k="created_by" v="JOSM"/>
    <tag k="highway" v="secondary"/>
    <tag k="name" v="Shute Harbour Road"/>
    <tag k="surface" v="paved"/>
  </node>
  <node id="133542200" version="1" timestamp="2007-11-26T01:33:47Z" uid="4467" user="Rosscoe" changeset="621649" lat="-20.384032" lon="148.58732">
    <tag k="created_by" v="JOSM"/>
    <tag k="highway" v="secondary"/>
    <tag k="name" v="Shute Harbour Road"/>
    <tag k="surface" v="paved"/>
  </node>
  <node id="133542243" version="1" timestamp="2007-11-26T01:33:48Z" uid="4467" user="Rosscoe" changeset="621649" lat="-20.384783" lon="148.58721">
    <tag k="created_by" v="JOSM"/>
    <tag k="highway" v="secondary"/>
    <tag k="name" v="Shute Harbour Road"/>
    <tag k="surface" v="paved"/>
  </node>
  <node id="133542290" version="1" timestamp="2007-11-26T01:33:49Z" uid="4467" user="Rosscoe" changeset="621649" lat="-20.384537" lon="148.587245">
    <tag k="created_by" v="JOSM"/>
    <tag k="highway" v="secondary"/>
    <tag k="name" v="Shute Harbour Road"/>
    <tag k="surface" v="paved"/>
  </node>
  <node id="133542335" version="1" timestamp="2007-11-26T01:33:51Z" uid="4467" user="Rosscoe" changeset="621649" lat="-20.383288" lon="148.58743">
    <tag k="created_by" v="JOSM"/>
    <tag k="highway" v="secondary"/>
    <tag k="name" v="Shute Harbour Road"/>
    <tag k="surface" v="paved"/>
  </node>
  <node id="133542397" version="1" timestamp="2007-11-26T01:33:52Z" uid="4467" user="Rosscoe" changeset="621649" lat="-20.383042" lon="148.587465">
    <tag k="created_by" v="JOSM"/>
    <tag k="highway" v="secondary"/>
    <tag k="name" v="Shute Harbour Road"/>
    <tag k="surface" v="paved"/>
  </node>
  <node id="133542463" version="1" timestamp="2007-11-26T01:33:54Z" uid="4467" user="Rosscoe" changeset="621649" lat="-20.383775" lon="148.587358">
    <tag k="created_by" v="JOSM"/>
    <tag k="highway" v="secondary"/>
    <tag k="name" v="Shute Harbour Road"/>
    <tag k="surface" v="paved"/>
  </node>
  <node id="133542522" version="1" timestamp="2007-11-26T01:33:55Z" uid="4467" user="Rosscoe" changeset="621649" lat="-20.383537" lon="148.587395">
    <tag k="created_by" v="JOSM"/>
    <tag k="highway" v="secondary"/>
    <tag k="name" v="Shute Harbour Road"/>
    <tag k="surface" v="paved"/>
  </node>
  <node id="133542577" version="1" timestamp="2007-11-26T01:33:57Z" uid="4467" user="Rosscoe" changeset="621649" lat="-20.382302" lon="148.587573">
    <tag k="created_by" v="JOSM"/>
    <tag k="highway" v="secondary"/>
    <tag k="name" v="Shute Harbour Road"/>
    <tag k="surface" v="paved"/>
  </node>
  <node id="133542628" version="1" timestamp="2007-11-26T01:33:59Z" uid="4467" user="Rosscoe" changeset="621649" lat="-20.38206" lon="148.58761">
    <tag k="created_by" v="JOSM"/>
    <tag k="highway" v="secondary"/>
    <tag k="name" v="Shute Harbour Road"/>
    <tag k="surface" v="paved"/>
  </node>
  <node id="133542682" version="1" timestamp="2007-11-26T01:34:01Z" uid="4467" user="Rosscoe" changeset="621649" lat="-20.382792" lon="148.587502">
    <tag k="created_by" v="JOSM"/>
    <tag k="highway" v="secondary"/>
    <tag k="name" v="Shute Harbour Road"/>
    <tag k="surface" v="paved"/>
  </node>
  <node id="133542727" version="1" timestamp="2007-11-26T01:34:02Z" uid="4467" user="Rosscoe" changeset="621649" lat="-20.382537" lon="148.587538">
    <tag k="created_by" v="JOSM"/>
    <tag k="highway" v="secondary"/>
    <tag k="name" v="Shute Harbour Road"/>
    <tag k="surface" v="paved"/>
  </node>
  <node id="133542783" version="1" timestamp="2007-11-26T01:34:03Z" uid="4467" user="Rosscoe" changeset="621649" lat="-20.381348" lon="148.587722">
    <tag k="created_by" v="JOSM"/>
    <tag k="highway" v="secondary"/>
    <tag k="name" v="Shute Harbour Road"/>
    <tag k="surface" v="paved"/>
  </node>
  <node id="133542847" version="1" timestamp="2007-11-26T01:34:05Z" uid="4467" user="Rosscoe" changeset="621649" lat="-20.38113" lon="148.587755">
    <tag k="created_by" v="JOSM"/>
    <tag k="highway" v="secondary"/>
    <tag k="name" v="Shute Harbour Road"/>
    <tag k="surface" v="paved"/>
  </node>
  <node id="133542916" version="1" timestamp="2007-11-26T01:34:07Z" uid="4467" user="Rosscoe" changeset="621649" lat="-20.38182" lon="148.587647">
    <tag k="created_by" v="JOSM"/>
    <tag k="highway" v="secondary"/>
    <tag k="name" v="Shute Harbour Road"/>
    <tag k="surface" v="paved"/>
  </node>
  <node id="133542981" version="1" timestamp="2007-11-26T01:34:09Z" uid="4467" user="Rosscoe" changeset="621649" lat="-20.38159" lon="148.587683">
    <tag k="created_by" v="JOSM"/>
    <tag k="highway" v="secondary"/>
    <tag k="name" v="Shute Harbour Road"/>
    <tag k="surface" v="paved"/>
  </node>
  <node id="133543046" version="1" timestamp="2007-11-26T01:34:11Z" uid="4467" user="Rosscoe" changeset="621649" lat="-20.380262" lon="148.587888">
    <tag k="created_by" v="JOSM"/>
    <tag k="highway" v="secondary"/>
    <tag k="name" v="Shute Harbour Road"/>
    <tag k="surface" v="paved"/>
  </node>
  <node id="133543119" version="1" timestamp="2007-11-26T01:34:13Z" uid="4467" user="Rosscoe" changeset="621649" lat="-20.38048" lon="148.587857">
    <tag k="created_by" v="JOSM"/>
    <tag k="highway" v="secondary"/>
    <tag k="name" v="Shute Harbour Road"/>
    <tag k="surface" v="paved"/>
  </node>
  <node id="133543176" version="1" timestamp="2007-11-26T01:34:15Z" uid="4467" user="Rosscoe" changeset="621649" lat="-20.380693" lon="148.587823">
    <tag k="created_by" v="JOSM"/>
    <tag k="highway" v="secondary"/>
    <tag k="name" v="Shute Harbour Road"/>
    <tag k="surface" v="paved"/>
  </node>
  <node id="133543201" version="1" timestamp="2007-11-26T01:34:16Z" uid="4467" user="Rosscoe" changeset="621649" lat="-20.38091" lon="148.58779">
    <tag k="created_by" v="JOSM"/>
    <tag k="highway" v="secondary"/>
    <tag k="name" v="Shute Harbour Road"/>
    <tag k="surface" v="paved"/>
  </node>
  <node id="133543236" version="1" timestamp="2007-11-26T01:34:16Z" uid="4467" user="Rosscoe" changeset="621649" lat="-20.380052" lon="148.58792">
    <tag k="created_by" v="JOSM"/>
    <tag k="highway" v="secondary"/>
    <tag k="name" v="Shute Harbour Road"/>
    <tag k="surface" v="paved"/>
  </node>
  <node id="133543273" version="1" timestamp="2007-11-26T01:34:18Z" uid="4467" user="Rosscoe" changeset="621649" lat="-20.3924563" lon="148.5854183">
    <tag k="created_by" v="JOSM"/>
    <tag k="highway" v="secondary"/>
    <tag k="name" v="Shute Harbour Road"/>
    <tag k="surface" v="paved"/>
  </node>
  <node id="133543273" version="2" timestamp="2007-11-27T00:36:27Z" uid="4467" user="Rosscoe" changeset="629746" lat="-20.3924528" lon="148.5854208">
    <tag k="created_by" v="JOSM"/>
    <tag k="highway" v="secondary"/>
    <tag k="name" v="Shute Harbour Road"/>
    <tag k="surface" v="paved"/>
  </node>
  <node id="133543273" version="3" timestamp="2007-11-30T03:23:20Z" uid="4467" user="Rosscoe" changeset="648172" lat="-20.3924528" lon="148.5854208"/>
  <node id="133543273" version="5" timestamp="2008-10-14T22:03:49Z" uid="4467" user="Rosscoe" changeset="342472" lat="-20.3924998" lon="148.5853785"/>
  <node id="133543273" version="6" timestamp="2008-10-14T22:03:58Z" uid="4467" user="Rosscoe" changeset="342472" lat="-20.3924998" lon="148.5853785"/>
  <node id="133547944" version="1" timestamp="2007-11-26T01:36:36Z" uid="4467" user="Rosscoe" changeset="621649" lat="-28.60553" lon="150.360167">
    <tag k="created_by" v="JOSM"/>
    <tag k="highway" v="trunk"/>
    <tag k="name" v="Newell Hwy"/>
    <tag k="surface" v="paved"/>
  </node>
  <node id="133547944" version="8" timestamp="2009-06-09T17:41:06Z" uid="74617" user="JohnSmith" changeset="1470429" lat="-28.6053873" lon="150.3601283"/>
  <node id="133547979" version="1" timestamp="2007-11-26T01:36:36Z" uid="4467" user="Rosscoe" changeset="621649" lat="-28.605562" lon="150.360033">
    <tag k="created_by" v="JOSM"/>
    <tag k="highway" v="trunk"/>
    <tag k="name" v="Newell Hwy"/>
    <tag k="surface" v="paved"/>
  </node>
  <node id="133548002" version="1" timestamp="2007-11-26T01:36:37Z" uid="4467" user="Rosscoe" changeset="621649" lat="-28.605595" lon="150.35989">
    <tag k="created_by" v="JOSM"/>
    <tag k="highway" v="trunk"/>
    <tag k="name" v="Newell Hwy"/>
    <tag k="surface" v="paved"/>
  </node>
  <node id="133548029" version="1" timestamp="2007-11-26T01:36:38Z" uid="4467" user="Rosscoe" changeset="621649" lat="-28.605628" lon="150.359745">
    <tag k="created_by" v="JOSM"/>
    <tag k="highway" v="trunk"/>
    <tag k="name" v="Newell Hwy"/>
    <tag k="surface" v="paved"/>
  </node>
  <node id="133548065" version="1" timestamp="2007-11-26T01:36:39Z" uid="4467" user="Rosscoe" changeset="621649" lat="-28.605665" lon="150.359595">
    <tag k="created_by" v="JOSM"/>
    <tag k="highway" v="trunk"/>
    <tag k="name" v="Newell Hwy"/>
    <tag k="surface" v="paved"/>
  </node>
  <node id="133548096" version="1" timestamp="2007-11-26T01:36:39Z" uid="4467" user="Rosscoe" changeset="621649" lat="-28.6057" lon="150.359443">
    <tag k="created_by" v="JOSM"/>
    <tag k="highway" v="trunk"/>
    <tag k="name" v="Newell Hwy"/>
    <tag k="surface" v="paved"/>
  </node>
  <node id="133548128" version="1" timestamp="2007-11-26T01:36:40Z" uid="4467" user="Rosscoe" changeset="621649" lat="-28.605733" lon="150.359292">
    <tag k="created_by" v="JOSM"/>
    <tag k="highway" v="trunk"/>
    <tag k="name" v="Newell Hwy"/>
    <tag k="surface" v="paved"/>
  </node>
  <node id="133548155" version="1" timestamp="2007-11-26T01:36:41Z" uid="4467" user="Rosscoe" changeset="621649" lat="-28.605767" lon="150.359137">
    <tag k="created_by" v="JOSM"/>
    <tag k="highway" v="trunk"/>
    <tag k="name" v="Newell Hwy"/>
    <tag k="surface" v="paved"/>
  </node>
  <node id="133548173" version="1" timestamp="2007-11-26T01:36:42Z" uid="4467" user="Rosscoe" changeset="621649" lat="-28.605803" lon="150.358982">
    <tag k="created_by" v="JOSM"/>
    <tag k="highway" v="trunk"/>
    <tag k="name" v="Newell Hwy"/>
    <tag k="surface" v="paved"/>
  </node>
  <node id="133548210" version="1" timestamp="2007-11-26T01:36:42Z" uid="4467" user="Rosscoe" changeset="621649" lat="-28.605838" lon="150.358825">
    <tag k="created_by" v="JOSM"/>
    <tag k="highway" v="trunk"/>
    <tag k="name" v="Newell Hwy"/>
    <tag k="surface" v="paved"/>
  </node>
  <node id="133548239" version="1" timestamp="2007-11-26T01:36:43Z" uid="4467" user="Rosscoe" changeset="621649" lat="-28.605875" lon="150.358663">
    <tag k="created_by" v="JOSM"/>
    <tag k="highway" v="trunk"/>
    <tag k="name" v="Newell Hwy"/>
    <tag k="surface" v="paved"/>
  </node>
  <node id="133548274" version="1" timestamp="2007-11-26T01:36:44Z" uid="4467" user="Rosscoe" changeset="621649" lat="-28.60591" lon="150.358505">
    <tag k="created_by" v="JOSM"/>
    <tag k="highway" v="trunk"/>
    <tag k="name" v="Newell Hwy"/>
    <tag k="surface" v="paved"/>
  </node>
  <node id="133548302" version="1" timestamp="2007-11-26T01:36:45Z" uid="4467" user="Rosscoe" changeset="621649" lat="-28.605948" lon="150.358347">
    <tag k="created_by" v="JOSM"/>
    <tag k="highway" v="trunk"/>
    <tag k="name" v="Newell Hwy"/>
    <tag k="surface" v="paved"/>
  </node>
  <node id="133548329" version="1" timestamp="2007-11-26T01:36:46Z" uid="4467" user="Rosscoe" changeset="621649" lat="-28.605987" lon="150.358183">
    <tag k="created_by" v="JOSM"/>
    <tag k="highway" v="trunk"/>
    <tag k="name" v="Newell Hwy"/>
    <tag k="surface" v="paved"/>
  </node>
  <node id="133548358" version="1" timestamp="2007-11-26T01:36:46Z" uid="4467" user="Rosscoe" changeset="621649" lat="-28.606025" lon="150.35802">
    <tag k="created_by" v="JOSM"/>
    <tag k="highway" v="trunk"/>
    <tag k="name" v="Newell Hwy"/>
    <tag k="surface" v="paved"/>
  </node>
  <node id="133548386" version="1" timestamp="2007-11-26T01:36:47Z" uid="4467" user="Rosscoe" changeset="621649" lat="-28.606062" lon="150.357852">
    <tag k="created_by" v="JOSM"/>
    <tag k="highway" v="trunk"/>
    <tag k="name" v="Newell Hwy"/>
    <tag k="surface" v="paved"/>
  </node>
  <node id="133548421" version="1" timestamp="2007-11-26T01:36:48Z" uid="4467" user="Rosscoe" changeset="621649" lat="-28.606148" lon="150.357483">
    <tag k="created_by" v="JOSM"/>
    <tag k="highway" v="trunk"/>
    <tag k="name" v="Newell Hwy"/>
    <tag k="surface" v="paved"/>
  </node>
  <node id="133548448" version="1" timestamp="2007-11-26T01:36:49Z" uid="4467" user="Rosscoe" changeset="621649" lat="-28.606105" lon="150.357672">
    <tag k="created_by" v="JOSM"/>
    <tag k="highway" v="trunk"/>
    <tag k="name" v="Newell Hwy"/>
    <tag k="surface" v="paved"/>
  </node>
  <node id="133548486" version="1" timestamp="2007-11-26T01:36:49Z" uid="4467" user="Rosscoe" changeset="621649" lat="-28.606242" lon="150.357087">
    <tag k="created_by" v="JOSM"/>
    <tag k="highway" v="trunk"/>
    <tag k="name" v="Newell Hwy"/>
    <tag k="surface" v="paved"/>
  </node>
  <node id="133548519" version="1" timestamp="2007-11-26T01:36:50Z" uid="4467" user="Rosscoe" changeset="621649" lat="-28.606193" lon="150.35729">
    <tag k="created_by" v="JOSM"/>
    <tag k="highway" v="trunk"/>
    <tag k="name" v="Newell Hwy"/>
    <tag k="surface" v="paved"/>
  </node>
  <node id="133548553" version="1" timestamp="2007-11-26T01:36:51Z" uid="4467" user="Rosscoe" changeset="621649" lat="-28.606342" lon="150.356668">
    <tag k="created_by" v="JOSM"/>
    <tag k="highway" v="trunk"/>
    <tag k="name" v="Newell Hwy"/>
    <tag k="surface" v="paved"/>
  </node>
  <node id="133548580" version="1" timestamp="2007-11-26T01:36:52Z" uid="4467" user="Rosscoe" changeset="621649" lat="-28.60629" lon="150.356878">
    <tag k="created_by" v="JOSM"/>
    <tag k="highway" v="trunk"/>
    <tag k="name" v="Newell Hwy"/>
    <tag k="surface" v="paved"/>
  </node>
  <node id="133548598" version="1" timestamp="2007-11-26T01:36:53Z" uid="4467" user="Rosscoe" changeset="621649" lat="-28.606453" lon="150.356235">
    <tag k="created_by" v="JOSM"/>
    <tag k="highway" v="trunk"/>
    <tag k="name" v="Newell Hwy"/>
    <tag k="surface" v="paved"/>
  </node>
  <node id="133548618" version="1" timestamp="2007-11-26T01:36:53Z" uid="4467" user="Rosscoe" changeset="621649" lat="-28.606397" lon="150.35645">
    <tag k="created_by" v="JOSM"/>
    <tag k="highway" v="trunk"/>
    <tag k="name" v="Newell Hwy"/>
    <tag k="surface" v="paved"/>
  </node>
  <node id="133548651" version="1" timestamp="2007-11-26T01:36:54Z" uid="4467" user="Rosscoe" changeset="621649" lat="-28.606575" lon="150.355808">
    <tag k="created_by" v="JOSM"/>
    <tag k="highway" v="trunk"/>
    <tag k="name" v="Newell Hwy"/>
    <tag k="surface" v="paved"/>
  </node>
  <node id="133548682" version="1" timestamp="2007-11-26T01:36:55Z" uid="4467" user="Rosscoe" changeset="621649" lat="-28.606512" lon="150.356023">
    <tag k="created_by" v="JOSM"/>
    <tag k="highway" v="trunk"/>
    <tag k="name" v="Newell Hwy"/>
    <tag k="surface" v="paved"/>
  </node>
  <node id="133548715" version="1" timestamp="2007-11-26T01:36:56Z" uid="4467" user="Rosscoe" changeset="621649" lat="-28.606717" lon="150.355385">
    <tag k="created_by" v="JOSM"/>
    <tag k="highway" v="trunk"/>
    <tag k="name" v="Newell Hwy"/>
    <tag k="surface" v="paved"/>
  </node>
  <node id="133548744" version="1" timestamp="2007-11-26T01:36:56Z" uid="4467" user="Rosscoe" changeset="621649" lat="-28.606645" lon="150.355595">
    <tag k="created_by" v="JOSM"/>
    <tag k="highway" v="trunk"/>
    <tag k="name" v="Newell Hwy"/>
    <tag k="surface" v="paved"/>
  </node>
  <node id="133548772" version="1" timestamp="2007-11-26T01:36:57Z" uid="4467" user="Rosscoe" changeset="621649" lat="-28.606873" lon="150.354962">
    <tag k="created_by" v="JOSM"/>
    <tag k="highway" v="trunk"/>
    <tag k="name" v="Newell Hwy"/>
    <tag k="surface" v="paved"/>
  </node>
  <node id="133548801" version="1" timestamp="2007-11-26T01:36:58Z" uid="4467" user="Rosscoe" changeset="621649" lat="-28.606793" lon="150.355172">
    <tag k="created_by" v="JOSM"/>
    <tag k="highway" v="trunk"/>
    <tag k="name" v="Newell Hwy"/>
    <tag k="surface" v="paved"/>
  </node>
  <node id="133548836" version="1" timestamp="2007-11-26T01:36:59Z" uid="4467" user="Rosscoe" changeset="621649" lat="-28.607048" lon="150.354547">
    <tag k="created_by" v="JOSM"/>
    <tag k="highway" v="trunk"/>
    <tag k="name" v="Newell Hwy"/>
    <tag k="surface" v="paved"/>
  </node>
  <node id="133548872" version="1" timestamp="2007-11-26T01:37:00Z" uid="4467" user="Rosscoe" changeset="621649" lat="-28.60696" lon="150.354755">
    <tag k="created_by" v="JOSM"/>
    <tag k="highway" v="trunk"/>
    <tag k="name" v="Newell Hwy"/>
    <tag k="surface" v="paved"/>
  </node>
  <node id="133548906" version="1" timestamp="2007-11-26T01:37:00Z" uid="4467" user="Rosscoe" changeset="621649" lat="-28.607338" lon="150.353927">
    <tag k="created_by" v="JOSM"/>
    <tag k="highway" v="trunk"/>
    <tag k="name" v="Newell Hwy"/>
    <tag k="surface" v="paved"/>
  </node>
  <node id="133548934" version="1" timestamp="2007-11-26T01:37:01Z" uid="4467" user="Rosscoe" changeset="621649" lat="-28.607442" lon="150.353723">
    <tag k="created_by" v="JOSM"/>
    <tag k="highway" v="trunk"/>
    <tag k="name" v="Newell Hwy"/>
    <tag k="surface" v="paved"/>
  </node>
  <node id="133548968" version="1" timestamp="2007-11-26T01:37:02Z" uid="4467" user="Rosscoe" changeset="621649" lat="-28.607142" lon="150.35434">
    <tag k="created_by" v="JOSM"/>
    <tag k="highway" v="trunk"/>
    <tag k="name" v="Newell Hwy"/>
    <tag k="surface" v="paved"/>
  </node>
  <node id="133548996" version="1" timestamp="2007-11-26T01:37:03Z" uid="4467" user="Rosscoe" changeset="621649" lat="-28.607237" lon="150.354135">
    <tag k="created_by" v="JOSM"/>
    <tag k="highway" v="trunk"/>
    <tag k="name" v="Newell Hwy"/>
    <tag k="surface" v="paved"/>
  </node>
  <node id="133549026" version="1" timestamp="2007-11-26T01:37:03Z" uid="4467" user="Rosscoe" changeset="621649" lat="-28.607763" lon="150.353137">
    <tag k="created_by" v="JOSM"/>
    <tag k="highway" v="trunk"/>
    <tag k="name" v="Newell Hwy"/>
    <tag k="surface" v="paved"/>
  </node>
  <node id="133549053" version="1" timestamp="2007-11-26T01:37:04Z" uid="4467" user="Rosscoe" changeset="621649" lat="-28.607877" lon="150.352948">
    <tag k="created_by" v="JOSM"/>
    <tag k="highway" v="trunk"/>
    <tag k="name" v="Newell Hwy"/>
    <tag k="surface" v="paved"/>
  </node>
  <node id="133549071" version="1" timestamp="2007-11-26T01:37:05Z" uid="4467" user="Rosscoe" changeset="621649" lat="-28.607545" lon="150.353527">
    <tag k="created_by" v="JOSM"/>
    <tag k="highway" v="trunk"/>
    <tag k="name" v="Newell Hwy"/>
    <tag k="surface" v="paved"/>
  </node>
  <node id="133549094" version="1" timestamp="2007-11-26T01:37:06Z" uid="4467" user="Rosscoe" changeset="621649" lat="-28.607652" lon="150.35333">
    <tag k="created_by" v="JOSM"/>
    <tag k="highway" v="trunk"/>
    <tag k="name" v="Newell Hwy"/>
    <tag k="surface" v="paved"/>
  </node>
  <node id="133549115" version="1" timestamp="2007-11-26T01:37:06Z" uid="4467" user="Rosscoe" changeset="621649" lat="-28.608247" lon="150.352395">
    <tag k="created_by" v="JOSM"/>
    <tag k="highway" v="trunk"/>
    <tag k="name" v="Newell Hwy"/>
    <tag k="surface" v="paved"/>
  </node>
  <node id="133549145" version="1" timestamp="2007-11-26T01:37:07Z" uid="4467" user="Rosscoe" changeset="621649" lat="-28.608382" lon="150.352213">
    <tag k="created_by" v="JOSM"/>
    <tag k="highway" v="trunk"/>
    <tag k="name" v="Newell Hwy"/>
    <tag k="surface" v="paved"/>
  </node>
  <node id="133549177" version="1" timestamp="2007-11-26T01:37:08Z" uid="4467" user="Rosscoe" changeset="621649" lat="-28.607995" lon="150.352762">
    <tag k="created_by" v="JOSM"/>
    <tag k="highway" v="trunk"/>
    <tag k="name" v="Newell Hwy"/>
    <tag k="surface" v="paved"/>
  </node>
  <node id="133549200" version="1" timestamp="2007-11-26T01:37:09Z" uid="4467" user="Rosscoe" changeset="621649" lat="-28.60812" lon="150.352575">
    <tag k="created_by" v="JOSM"/>
    <tag k="highway" v="trunk"/>
    <tag k="name" v="Newell Hwy"/>
    <tag k="surface" v="paved"/>
  </node>
  <node id="133549229" version="1" timestamp="2007-11-26T01:37:10Z" uid="4467" user="Rosscoe" changeset="621649" lat="-28.608805" lon="150.351672">
    <tag k="created_by" v="JOSM"/>
    <tag k="highway" v="trunk"/>
    <tag k="name" v="Newell Hwy"/>
    <tag k="surface" v="paved"/>
  </node>
  <node id="133549250" version="1" timestamp="2007-11-26T01:37:10Z" uid="4467" user="Rosscoe" changeset="621649" lat="-28.608948" lon="150.3515">
    <tag k="created_by" v="JOSM"/>
    <tag k="highway" v="trunk"/>
    <tag k="name" v="Newell Hwy"/>
    <tag k="surface" v="paved"/>
  </node>
  <node id="133549250" version="8" timestamp="2009-06-20T12:17:36Z" uid="74617" user="JohnSmith" changeset="1574086" lat="-28.6089492" lon="150.3513272"/>
  <node id="133549270" version="1" timestamp="2007-11-26T01:37:11Z" uid="4467" user="Rosscoe" changeset="621649" lat="-28.608522" lon="150.352032">
    <tag k="created_by" v="JOSM"/>
    <tag k="highway" v="trunk"/>
    <tag k="name" v="Newell Hwy"/>
    <tag k="surface" v="paved"/>
  </node>
  <node id="133549299" version="1" timestamp="2007-11-26T01:37:12Z" uid="4467" user="Rosscoe" changeset="621649" lat="-28.60866" lon="150.351852">
    <tag k="created_by" v="JOSM"/>
    <tag k="highway" v="trunk"/>
    <tag k="name" v="Newell Hwy"/>
    <tag k="surface" v="paved"/>
  </node>
  <node id="133549299" version="8" timestamp="2009-06-20T12:17:36Z" uid="74617" user="JohnSmith" changeset="1574086" lat="-28.6086154" lon="150.3517495"/>
  <node id="133549328" version="1" timestamp="2007-11-26T01:37:13Z" uid="4467" user="Rosscoe" changeset="621649" lat="-28.609548" lon="150.350838">
    <tag k="created_by" v="JOSM"/>
    <tag k="highway" v="trunk"/>
    <tag k="name" v="Newell Hwy"/>
    <tag k="surface" v="paved"/>
  </node>
  <node id="133549328" version="8" timestamp="2009-06-20T12:17:36Z" uid="74617" user="JohnSmith" changeset="1574086" lat="-28.6095186" lon="150.3507265"/>
  <node id="133549354" version="1" timestamp="2007-11-26T01:37:13Z" uid="4467" user="Rosscoe" changeset="621649" lat="-28.609395" lon="150.351003">
    <tag k="created_by" v="JOSM"/>
    <tag k="highway" v="trunk"/>
    <tag k="name" v="Newell Hwy"/>
    <tag k="surface" v="paved"/>
  </node>
  <node id="133549373" version="1" timestamp="2007-11-26T01:37:14Z" uid="4467" user="Rosscoe" changeset="621649" lat="-28.609242" lon="150.35117">
    <tag k="created_by" v="JOSM"/>
    <tag k="highway" v="trunk"/>
    <tag k="name" v="Newell Hwy"/>
    <tag k="surface" v="paved"/>
  </node>
  <node id="133549392" version="1" timestamp="2007-11-26T01:37:15Z" uid="4467" user="Rosscoe" changeset="621649" lat="-28.609095" lon="150.351332">
    <tag k="created_by" v="JOSM"/>
    <tag k="highway" v="trunk"/>
    <tag k="name" v="Newell Hwy"/>
    <tag k="surface" v="paved"/>
  </node>
  <node id="133549419" version="1" timestamp="2007-11-26T01:37:16Z" uid="4467" user="Rosscoe" changeset="621649" lat="-28.610208" lon="150.35019">
    <tag k="created_by" v="JOSM"/>
    <tag k="highway" v="trunk"/>
    <tag k="name" v="Newell Hwy"/>
    <tag k="surface" v="paved"/>
  </node>
  <node id="133549419" version="8" timestamp="2009-06-20T12:17:36Z" uid="74617" user="JohnSmith" changeset="1574086" lat="-28.610208" lon="150.3501008"/>
  <node id="133549448" version="1" timestamp="2007-11-26T01:37:17Z" uid="4467" user="Rosscoe" changeset="621649" lat="-28.610043" lon="150.350343">
    <tag k="created_by" v="JOSM"/>
    <tag k="highway" v="trunk"/>
    <tag k="name" v="Newell Hwy"/>
    <tag k="surface" v="paved"/>
  </node>
  <node id="133549463" version="1" timestamp="2007-11-26T01:37:18Z" uid="4467" user="Rosscoe" changeset="621649" lat="-28.609877" lon="150.350505">
    <tag k="created_by" v="JOSM"/>
    <tag k="highway" v="trunk"/>
    <tag k="name" v="Newell Hwy"/>
    <tag k="surface" v="paved"/>
  </node>
  <node id="133549490" version="1" timestamp="2007-11-26T01:37:18Z" uid="4467" user="Rosscoe" changeset="621649" lat="-28.609712" lon="150.35067">
    <tag k="created_by" v="JOSM"/>
    <tag k="highway" v="trunk"/>
    <tag k="name" v="Newell Hwy"/>
    <tag k="surface" v="paved"/>
  </node>
  <node id="133549521" version="1" timestamp="2007-11-26T01:37:19Z" uid="4467" user="Rosscoe" changeset="621649" lat="-28.610833" lon="150.349675">
    <tag k="created_by" v="JOSM"/>
    <tag k="highway" v="trunk"/>
    <tag k="name" v="Newell Hwy"/>
    <tag k="surface" v="paved"/>
  </node>
  <node id="133549521" version="8" timestamp="2009-06-20T12:17:36Z" uid="74617" user="JohnSmith" changeset="1574086" lat="-28.6108526" lon="150.3495969"/>
  <node id="133549544" version="1" timestamp="2007-11-26T01:37:20Z" uid="4467" user="Rosscoe" changeset="621649" lat="-28.610682" lon="150.349793">
    <tag k="created_by" v="JOSM"/>
    <tag k="highway" v="trunk"/>
    <tag k="name" v="Newell Hwy"/>
    <tag k="surface" v="paved"/>
  </node>
  <node id="133549563" version="1" timestamp="2007-11-26T01:37:21Z" uid="4467" user="Rosscoe" changeset="621649" lat="-28.610527" lon="150.349917">
    <tag k="created_by" v="JOSM"/>
    <tag k="highway" v="trunk"/>
    <tag k="name" v="Newell Hwy"/>
    <tag k="surface" v="paved"/>
  </node>
  <node id="133549604" version="1" timestamp="2007-11-26T01:37:22Z" uid="4467" user="Rosscoe" changeset="621649" lat="-28.610372" lon="150.350047">
    <tag k="created_by" v="JOSM"/>
    <tag k="highway" v="trunk"/>
    <tag k="name" v="Newell Hwy"/>
    <tag k="surface" v="paved"/>
  </node>
  <node id="133549619" version="1" timestamp="2007-11-26T01:37:22Z" uid="4467" user="Rosscoe" changeset="621649" lat="-28.61148" lon="150.349228">
    <tag k="created_by" v="JOSM"/>
    <tag k="highway" v="trunk"/>
    <tag k="name" v="Newell Hwy"/>
    <tag k="surface" v="paved"/>
  </node>
  <node id="133549644" version="1" timestamp="2007-11-26T01:37:23Z" uid="4467" user="Rosscoe" changeset="621649" lat="-28.61131" lon="150.349338">
    <tag k="created_by" v="JOSM"/>
    <tag k="highway" v="trunk"/>
    <tag k="name" v="Newell Hwy"/>
    <tag k="surface" v="paved"/>
  </node>
  <node id="133549671" version="1" timestamp="2007-11-26T01:37:24Z" uid="4467" user="Rosscoe" changeset="621649" lat="-28.611145" lon="150.34945">
    <tag k="created_by" v="JOSM"/>
    <tag k="highway" v="trunk"/>
    <tag k="name" v="Newell Hwy"/>
    <tag k="surface" v="paved"/>
  </node>
  <node id="133549694" version="1" timestamp="2007-11-26T01:37:25Z" uid="4467" user="Rosscoe" changeset="621649" lat="-28.610987" lon="150.349562">
    <tag k="created_by" v="JOSM"/>
    <tag k="highway" v="trunk"/>
    <tag k="name" v="Newell Hwy"/>
    <tag k="surface" v="paved"/>
  </node>
  <node id="133549721" version="1" timestamp="2007-11-26T01:37:25Z" uid="4467" user="Rosscoe" changeset="621649" lat="-28.612428" lon="150.348693">
    <tag k="created_by" v="JOSM"/>
    <tag k="highway" v="trunk"/>
    <tag k="name" v="Newell Hwy"/>
    <tag k="surface" v="paved"/>
  </node>
  <node id="133549746" version="1" timestamp="2007-11-26T01:37:26Z" uid="4467" user="Rosscoe" changeset="621649" lat="-28.612625" lon="150.348598">
    <tag k="created_by" v="JOSM"/>
    <tag k="highway" v="trunk"/>
    <tag k="name" v="Newell Hwy"/>
    <tag k="surface" v="paved"/>
  </node>
  <node id="133549767" version="1" timestamp="2007-11-26T01:37:27Z" uid="4467" user="Rosscoe" changeset="621649" lat="-28.612825" lon="150.348507">
    <tag k="created_by" v="JOSM"/>
    <tag k="highway" v="trunk"/>
    <tag k="name" v="Newell Hwy"/>
    <tag k="surface" v="paved"/>
  </node>
  <node id="133549780" version="1" timestamp="2007-11-26T01:37:28Z" uid="4467" user="Rosscoe" changeset="621649" lat="-28.613027" lon="150.348418">
    <tag k="created_by" v="JOSM"/>
    <tag k="highway" v="trunk"/>
    <tag k="name" v="Newell Hwy"/>
    <tag k="surface" v="paved"/>
  </node>
  <node id="133549810" version="1" timestamp="2007-11-26T01:37:29Z" uid="4467" user="Rosscoe" changeset="621649" lat="-28.611662" lon="150.349117">
    <tag k="created_by" v="JOSM"/>
    <tag k="highway" v="trunk"/>
    <tag k="name" v="Newell Hwy"/>
    <tag k="surface" v="paved"/>
  </node>
  <node id="133549835" version="1" timestamp="2007-11-26T01:37:29Z" uid="4467" user="Rosscoe" changeset="621649" lat="-28.611848" lon="150.349005">
    <tag k="created_by" v="JOSM"/>
    <tag k="highway" v="trunk"/>
    <tag k="name" v="Newell Hwy"/>
    <tag k="surface" v="paved"/>
  </node>
  <node id="133549859" version="1" timestamp="2007-11-26T01:37:30Z" uid="4467" user="Rosscoe" changeset="621649" lat="-28.612037" lon="150.3489">
    <tag k="created_by" v="JOSM"/>
    <tag k="highway" v="trunk"/>
    <tag k="name" v="Newell Hwy"/>
    <tag k="surface" v="paved"/>
  </node>
  <node id="133549881" version="1" timestamp="2007-11-26T01:37:31Z" uid="4467" user="Rosscoe" changeset="621649" lat="-28.612232" lon="150.348795">
    <tag k="created_by" v="JOSM"/>
    <tag k="highway" v="trunk"/>
    <tag k="name" v="Newell Hwy"/>
    <tag k="surface" v="paved"/>
  </node>
  <node id="133549901" version="1" timestamp="2007-11-26T01:37:32Z" uid="4467" user="Rosscoe" changeset="621649" lat="-28.614043" lon="150.348048">
    <tag k="created_by" v="JOSM"/>
    <tag k="highway" v="trunk"/>
    <tag k="name" v="Newell Hwy"/>
    <tag k="surface" v="paved"/>
  </node>
  <node id="133549933" version="1" timestamp="2007-11-26T01:37:32Z" uid="4467" user="Rosscoe" changeset="621649" lat="-28.614257" lon="150.347985">
    <tag k="created_by" v="JOSM"/>
    <tag k="highway" v="trunk"/>
    <tag k="name" v="Newell Hwy"/>
    <tag k="surface" v="paved"/>
  </node>
  <node id="133549963" version="1" timestamp="2007-11-26T01:37:33Z" uid="4467" user="Rosscoe" changeset="621649" lat="-28.61447" lon="150.347928">
    <tag k="created_by" v="JOSM"/>
    <tag k="highway" v="trunk"/>
    <tag k="name" v="Newell Hwy"/>
    <tag k="surface" v="paved"/>
  </node>
  <node id="133549990" version="1" timestamp="2007-11-26T01:37:34Z" uid="4467" user="Rosscoe" changeset="621649" lat="-28.614688" lon="150.347875">
    <tag k="created_by" v="JOSM"/>
    <tag k="highway" v="trunk"/>
    <tag k="name" v="Newell Hwy"/>
    <tag k="surface" v="paved"/>
  </node>
</osm>
