<?xml version='1.0' encoding='UTF-8'?>
<osm version="0.6" generator="libosmium/2.20.0">
  <node id="133550009" version="1" timestamp="2007-11-26T01:37:35Z" uid="4467" user="Rosscoe" changeset="621649" lat="-28.613225" lon="150.348337">
    <tag k="created_by" v="JOSM"/>
    <tag k="highway" v="trunk"/>
    <tag k="name" v="Newell Hwy"/>
    <tag k="surface" v="paved"/>
  </node>
  <node id="133550033" version="1" timestamp="2007-11-26T01:37:36Z" uid="4467" user="Rosscoe" changeset="621649" lat="-28.613423" lon="150.348257">
    <tag k="created_by" v="JOSM"/>
    <tag k="highway" v="trunk"/>
    <tag k="name" v="Newell Hwy"/>
    <tag k="surface" v="paved"/>
  </node>
  <node id="133550071" version="1" timestamp="2007-11-26T01:37:36Z" uid="4467" user="Rosscoe" changeset="621649" lat="-28.613625" lon="150.348183">
    <tag k="created_by" v="JOSM"/>
    <tag k="highway" v="trunk"/>
    <tag k="name" v="Newell Hwy"/>
    <tag k="surface" v="paved"/>
  </node>
  <node id="133550089" version="1" timestamp="2007-11-26T01:37:37Z" uid="4467" user="Rosscoe" changeset="621649" lat="-28.613828" lon="150.348113">
    <tag k="created_by" v="JOSM"/>
    <tag k="highway" v="trunk"/>
    <tag k="name" v="Newell Hwy"/>
    <tag k="surface" v="paved"/>
  </node>
  <node id="133550118" version="1" timestamp="2007-11-26T01:37:38Z" uid="4467" user="Rosscoe" changeset="621649" lat="-28.616118" lon="150.347598">
    <tag k="created_by" v="JOSM"/>
    <tag k="highway" v="trunk"/>
    <tag k="name" v="Newell Hwy"/>
    <tag k="surface" v="paved"/>
  </node>
  <node id="133550143" version="1" timestamp="2007-11-26T01:37:39Z" uid="4467" user="Rosscoe" changeset="621649" lat="-28.615867" lon="150.347642">
    <tag k="created_by" v="JOSM"/>
    <tag k="highway" v="trunk"/>
    <tag k="name" v="Newell Hwy"/>
    <tag k="surface" v="paved"/>
  </node>
  <node id="133550176" version="1" timestamp="2007-11-26T01:37:39Z" uid="4467" user="Rosscoe" changeset="621649" lat="-28.616628" lon="150.347512">
    <tag k="created_by" v="JOSM"/>
    <tag k="highway" v="trunk"/>
    <tag k="name" v="Newell Hwy"/>
    <tag k="surface" v="paved"/>
  </node>
  <node id="133550205" version="1" timestamp="2007-11-26T01:37:40Z" uid="4467" user="Rosscoe" changeset="621649" lat="-28.61637" lon="150.347557">
    <tag k="created_by" v="JOSM"/>
    <tag k="highway" v="trunk"/>
    <tag k="name" v="Newell Hwy"/>
    <tag k="surface" v="paved"/>
  </node>
  <node id="133550236" version="1" timestamp="2007-11-26T01:37:41Z" uid="4467" user="Rosscoe" changeset="621649" lat="-28.61514" lon="150.347777">
    <tag k="created_by" v="JOSM"/>
    <tag k="highway" v="trunk"/>
    <tag k="name" v="Newell Hwy"/>
    <tag k="surface" v="paved"/>
  </node>
  <node id="133550256" version="1" timestamp="2007-11-26T01:37:42Z" uid="4467" user="Rosscoe" changeset="621649" lat="-28.614912" lon="150.347825">
    <tag k="created_by" v="JOSM"/>
    <tag k="highway" v="trunk"/>
    <tag k="name" v="Newell Hwy"/>
    <tag k="surface" v="paved"/>
  </node>
  <node id="133550288" version="1" timestamp="2007-11-26T01:37:43Z" uid="4467" user="Rosscoe" changeset="621649" lat="-28.615618" lon="150.347687">
    <tag k="created_by" v="JOSM"/>
    <tag k="highway" v="trunk"/>
    <tag k="name" v="Newell Hwy"/>
    <tag k="surface" v="paved"/>
  </node>
  <node id="133550316" version="1" timestamp="2007-11-26T01:37:43Z" uid="4467" user="Rosscoe" changeset="621649" lat="-28.615378" lon="150.34773">
    <tag k="created_by" v="JOSM"/>
    <tag k="highway" v="trunk"/>
    <tag k="name" v="Newell Hwy"/>
    <tag k="surface" v="paved"/>
  </node>
  <node id="133550349" version="1" timestamp="2007-11-26T01:37:44Z" uid="4467" user="Rosscoe" changeset="621649" lat="-28.618485" lon="150.347195">
    <tag k="created_by" v="JOSM"/>
    <tag k="highway" v="trunk"/>
    <tag k="name" v="Newell Hwy"/>
    <tag k="surface" v="paved"/>
  </node>
  <node id="133550373" version="1" timestamp="2007-11-26T01:37:45Z" uid="4467" user="Rosscoe" changeset="621649" lat="-28.61822" lon="150.347237">
    <tag k="created_by" v="JOSM"/>
    <tag k="highway" v="trunk"/>
    <tag k="name" v="Newell Hwy"/>
    <tag k="surface" v="paved"/>
  </node>
  <node id="133550403" version="1" timestamp="2007-11-26T01:37:46Z" uid="4467" user="Rosscoe" changeset="621649" lat="-28.619002" lon="150.347107">
    <tag k="created_by" v="JOSM"/>
    <tag k="highway" v="trunk"/>
    <tag k="name" v="Newell Hwy"/>
    <tag k="surface" v="paved"/>
  </node>
  <node id="133550443" version="1" timestamp="2007-11-26T01:37:46Z" uid="4467" user="Rosscoe" changeset="621649" lat="-28.618745" lon="150.34715">
    <tag k="created_by" v="JOSM"/>
    <tag k="highway" v="trunk"/>
    <tag k="name" v="Newell Hwy"/>
    <tag k="surface" v="paved"/>
  </node>
  <node id="133550467" version="1" timestamp="2007-11-26T01:37:47Z" uid="4467" user="Rosscoe" changeset="621649" lat="-28.61716" lon="150.34742">
    <tag k="created_by" v="JOSM"/>
    <tag k="highway" v="trunk"/>
    <tag k="name" v="Newell Hwy"/>
    <tag k="surface" v="paved"/>
  </node>
  <node id="133550486" version="1" timestamp="2007-11-26T01:37:48Z" uid="4467" user="Rosscoe" changeset="621649" lat="-28.616895" lon="150.347467">
    <tag k="created_by" v="JOSM"/>
    <tag k="highway" v="trunk"/>
    <tag k="name" v="Newell Hwy"/>
    <tag k="surface" v="paved"/>
  </node>
  <node id="133550501" version="1" timestamp="2007-11-26T01:37:49Z" uid="4467" user="Rosscoe" changeset="621649" lat="-28.617958" lon="150.347283">
    <tag k="created_by" v="JOSM"/>
    <tag k="highway" v="trunk"/>
    <tag k="name" v="Newell Hwy"/>
    <tag k="surface" v="paved"/>
  </node>
  <node id="133550536" version="1" timestamp="2007-11-26T01:37:50Z" uid="4467" user="Rosscoe" changeset="621649" lat="-28.617692" lon="150.34733">
    <tag k="created_by" v="JOSM"/>
    <tag k="highway" v="trunk"/>
    <tag k="name" v="Newell Hwy"/>
    <tag k="surface" v="paved"/>
  </node>
  <node id="133550572" version="1" timestamp="2007-11-26T01:37:50Z" uid="4467" user="Rosscoe" changeset="621649" lat="-28.620833" lon="150.346795">
    <tag k="created_by" v="JOSM"/>
    <tag k="highway" v="trunk"/>
    <tag k="name" v="Newell Hwy"/>
    <tag k="surface" v="paved"/>
  </node>
  <node id="133550600" version="1" timestamp="2007-11-26T01:37:51Z" uid="4467" user="Rosscoe" changeset="621649" lat="-28.621095" lon="150.346753">
    <tag k="created_by" v="JOSM"/>
    <tag k="highway" v="trunk"/>
    <tag k="name" v="Newell Hwy"/>
    <tag k="surface" v="paved"/>
  </node>
  <node id="133550624" version="1" timestamp="2007-11-26T01:37:52Z" uid="4467" user="Rosscoe" changeset="621649" lat="-28.620313" lon="150.346883">
    <tag k="created_by" v="JOSM"/>
    <tag k="highway" v="trunk"/>
    <tag k="name" v="Newell Hwy"/>
    <tag k="surface" v="paved"/>
  </node>
  <node id="133550648" version="1" timestamp="2007-11-26T01:37:53Z" uid="4467" user="Rosscoe" changeset="621649" lat="-28.620572" lon="150.346838">
    <tag k="created_by" v="JOSM"/>
    <tag k="highway" v="trunk"/>
    <tag k="name" v="Newell Hwy"/>
    <tag k="surface" v="paved"/>
  </node>
  <node id="133550688" version="1" timestamp="2007-11-26T01:37:53Z" uid="4467" user="Rosscoe" changeset="621649" lat="-28.619778" lon="150.346975">
    <tag k="created_by" v="JOSM"/>
    <tag k="highway" v="trunk"/>
    <tag k="name" v="Newell Hwy"/>
    <tag k="surface" v="paved"/>
  </node>
  <node id="133550716" version="1" timestamp="2007-11-26T01:37:54Z" uid="4467" user="Rosscoe" changeset="621649" lat="-28.620047" lon="150.346928">
    <tag k="created_by" v="JOSM"/>
    <tag k="highway" v="trunk"/>
    <tag k="name" v="Newell Hwy"/>
    <tag k="surface" v="paved"/>
  </node>
  <node id="133550747" version="1" timestamp="2007-11-26T01:37:55Z" uid="4467" user="Rosscoe" changeset="621649" lat="-28.61926" lon="150.347063">
    <tag k="created_by" v="JOSM"/>
    <tag k="highway" v="trunk"/>
    <tag k="name" v="Newell Hwy"/>
    <tag k="surface" v="paved"/>
  </node>
  <node id="133550768" version="1" timestamp="2007-11-26T01:37:56Z" uid="4467" user="Rosscoe" changeset="621649" lat="-28.61952" lon="150.34702">
    <tag k="created_by" v="JOSM"/>
    <tag k="highway" v="trunk"/>
    <tag k="name" v="Newell Hwy"/>
    <tag k="surface" v="paved"/>
  </node>
  <node id="133550795" version="1" timestamp="2007-11-26T01:37:57Z" uid="4467" user="Rosscoe" changeset="621649" lat="-28.622925" lon="150.34644">
    <tag k="created_by" v="JOSM"/>
    <tag k="highway" v="trunk"/>
    <tag k="name" v="Newell Hwy"/>
    <tag k="surface" v="paved"/>
  </node>
  <node id="133550820" version="1" timestamp="2007-11-26T01:37:57Z" uid="4467" user="Rosscoe" changeset="621649" lat="-28.623195" lon="150.346393">
    <tag k="created_by" v="JOSM"/>
    <tag k="highway" v="trunk"/>
    <tag k="name" v="Newell Hwy"/>
    <tag k="surface" v="paved"/>
  </node>
  <node id="133550832" version="1" timestamp="2007-11-26T01:37:58Z" uid="4467" user="Rosscoe" changeset="621649" lat="-28.622398" lon="150.346532">
    <tag k="created_by" v="JOSM"/>
    <tag k="highway" v="trunk"/>
    <tag k="name" v="Newell Hwy"/>
    <tag k="surface" v="paved"/>
  </node>
  <node id="133550858" version="1" timestamp="2007-11-26T01:37:59Z" uid="4467" user="Rosscoe" changeset="621649" lat="-28.622665" lon="150.346485">
    <tag k="created_by" v="JOSM"/>
    <tag k="highway" v="trunk"/>
    <tag k="name" v="Newell Hwy"/>
    <tag k="surface" v="paved"/>
  </node>
  <node id="133550888" version="1" timestamp="2007-11-26T01:38:00Z" uid="4467" user="Rosscoe" changeset="621649" lat="-28.621875" lon="150.346622">
    <tag k="created_by" v="JOSM"/>
    <tag k="highway" v="trunk"/>
    <tag k="name" v="Newell Hwy"/>
    <tag k="surface" v="paved"/>
  </node>
  <node id="133550927" version="1" timestamp="2007-11-26T01:38:00Z" uid="4467" user="Rosscoe" changeset="621649" lat="-28.622137" lon="150.346577">
    <tag k="created_by" v="JOSM"/>
    <tag k="highway" v="trunk"/>
    <tag k="name" v="Newell Hwy"/>
    <tag k="surface" v="paved"/>
  </node>
  <node id="133550962" version="1" timestamp="2007-11-26T01:38:01Z" uid="4467" user="Rosscoe" changeset="621649" lat="-28.621353" lon="150.346712">
    <tag k="created_by" v="JOSM"/>
    <tag k="highway" v="trunk"/>
    <tag k="name" v="Newell Hwy"/>
    <tag k="surface" v="paved"/>
  </node>
  <node id="133550995" version="1" timestamp="2007-11-26T01:38:02Z" uid="4467" user="Rosscoe" changeset="621649" lat="-28.621615" lon="150.346667">
    <tag k="created_by" v="JOSM"/>
    <tag k="highway" v="trunk"/>
    <tag k="name" v="Newell Hwy"/>
    <tag k="surface" v="paved"/>
  </node>
  <node id="133551006" version="3" timestamp="2009-10-16T11:44:25Z" uid="99207" user="Lar Kiesel" changeset="2863803" lat="42.019414" lon="-97.0196643"/>
  <node id="133551028" version="1" timestamp="2007-11-26T01:38:03Z" uid="4467" user="Rosscoe" changeset="621649" lat="-28.625335" lon="150.34602">
    <tag k="created_by" v="JOSM"/>
    <tag k="highway" v="trunk"/>
    <tag k="name" v="Newell Hwy"/>
    <tag k="surface" v="paved"/>
  </node>
  <node id="133551053" version="1" timestamp="2007-11-26T01:38:04Z" uid="4467" user="Rosscoe" changeset="621649" lat="-28.625063" lon="150.346067">
    <tag k="created_by" v="JOSM"/>
    <tag k="highway" v="trunk"/>
    <tag k="name" v="Newell Hwy"/>
    <tag k="surface" v="paved"/>
  </node>
  <node id="133551085" version="1" timestamp="2007-11-26T01:38:04Z" uid="4467" user="Rosscoe" changeset="621649" lat="-28.624795" lon="150.346112">
    <tag k="created_by" v="JOSM"/>
    <tag k="highway" v="trunk"/>
    <tag k="name" v="Newell Hwy"/>
    <tag k="surface" v="paved"/>
  </node>
  <node id="133551108" version="1" timestamp="2007-11-26T01:38:05Z" uid="4467" user="Rosscoe" changeset="621649" lat="-28.624525" lon="150.346158">
    <tag k="created_by" v="JOSM"/>
    <tag k="highway" v="trunk"/>
    <tag k="name" v="Newell Hwy"/>
    <tag k="surface" v="paved"/>
  </node>
  <node id="133551141" version="1" timestamp="2007-11-26T01:38:06Z" uid="4467" user="Rosscoe" changeset="621649" lat="-28.624263" lon="150.346205">
    <tag k="created_by" v="JOSM"/>
    <tag k="highway" v="trunk"/>
    <tag k="name" v="Newell Hwy"/>
    <tag k="surface" v="paved"/>
  </node>
  <node id="133551177" version="1" timestamp="2007-11-26T01:38:07Z" uid="4467" user="Rosscoe" changeset="621649" lat="-28.623997" lon="150.346253">
    <tag k="created_by" v="JOSM"/>
    <tag k="highway" v="trunk"/>
    <tag k="name" v="Newell Hwy"/>
    <tag k="surface" v="paved"/>
  </node>
  <node id="133551217" version="1" timestamp="2007-11-26T01:38:07Z" uid="4467" user="Rosscoe" changeset="621649" lat="-28.623728" lon="150.346302">
    <tag k="created_by" v="JOSM"/>
    <tag k="highway" v="trunk"/>
    <tag k="name" v="Newell Hwy"/>
    <tag k="surface" v="paved"/>
  </node>
  <node id="133551239" version="1" timestamp="2007-11-26T01:38:08Z" uid="4467" user="Rosscoe" changeset="621649" lat="-28.62346" lon="150.346348">
    <tag k="created_by" v="JOSM"/>
    <tag k="highway" v="trunk"/>
    <tag k="name" v="Newell Hwy"/>
    <tag k="surface" v="paved"/>
  </node>
  <node id="133551266" version="1" timestamp="2007-11-26T01:38:09Z" uid="4467" user="Rosscoe" changeset="621649" lat="-28.627715" lon="150.34561">
    <tag k="created_by" v="JOSM"/>
    <tag k="highway" v="trunk"/>
    <tag k="name" v="Newell Hwy"/>
    <tag k="surface" v="paved"/>
  </node>
  <node id="133551297" version="1" timestamp="2007-11-26T01:38:10Z" uid="4467" user="Rosscoe" changeset="621649" lat="-28.627453" lon="150.345655">
    <tag k="created_by" v="JOSM"/>
    <tag k="highway" v="trunk"/>
    <tag k="name" v="Newell Hwy"/>
    <tag k="surface" v="paved"/>
  </node>
  <node id="133551335" version="1" timestamp="2007-11-26T01:38:10Z" uid="4467" user="Rosscoe" changeset="621649" lat="-28.627188" lon="150.345702">
    <tag k="created_by" v="JOSM"/>
    <tag k="highway" v="trunk"/>
    <tag k="name" v="Newell Hwy"/>
    <tag k="surface" v="paved"/>
  </node>
  <node id="133551373" version="1" timestamp="2007-11-26T01:38:11Z" uid="4467" user="Rosscoe" changeset="621649" lat="-28.626925" lon="150.345748">
    <tag k="created_by" v="JOSM"/>
    <tag k="highway" v="trunk"/>
    <tag k="name" v="Newell Hwy"/>
    <tag k="surface" v="paved"/>
  </node>
  <node id="133551399" version="1" timestamp="2007-11-26T01:38:12Z" uid="4467" user="Rosscoe" changeset="621649" lat="-28.626667" lon="150.345793">
    <tag k="created_by" v="JOSM"/>
    <tag k="highway" v="trunk"/>
    <tag k="name" v="Newell Hwy"/>
    <tag k="surface" v="paved"/>
  </node>
  <node id="133551430" version="1" timestamp="2007-11-26T01:38:13Z" uid="4467" user="Rosscoe" changeset="621649" lat="-28.626133" lon="150.345887">
    <tag k="created_by" v="JOSM"/>
    <tag k="highway" v="trunk"/>
    <tag k="name" v="Newell Hwy"/>
    <tag k="surface" v="paved"/>
  </node>
  <node id="133551463" version="1" timestamp="2007-11-26T01:38:14Z" uid="4467" user="Rosscoe" changeset="621649" lat="-28.625872" lon="150.34593">
    <tag k="created_by" v="JOSM"/>
    <tag k="highway" v="trunk"/>
    <tag k="name" v="Newell Hwy"/>
    <tag k="surface" v="paved"/>
  </node>
  <node id="133551499" version="1" timestamp="2007-11-26T01:38:14Z" uid="4467" user="Rosscoe" changeset="621649" lat="-28.625605" lon="150.345975">
    <tag k="created_by" v="JOSM"/>
    <tag k="highway" v="trunk"/>
    <tag k="name" v="Newell Hwy"/>
    <tag k="surface" v="paved"/>
  </node>
  <node id="133551533" version="1" timestamp="2007-11-26T01:38:15Z" uid="4467" user="Rosscoe" changeset="621649" lat="-28.630365" lon="150.345152">
    <tag k="created_by" v="JOSM"/>
    <tag k="highway" v="trunk"/>
    <tag k="name" v="Newell Hwy"/>
    <tag k="surface" v="paved"/>
  </node>
  <node id="133551566" version="1" timestamp="2007-11-26T01:38:16Z" uid="4467" user="Rosscoe" changeset="621649" lat="-28.630098" lon="150.345198">
    <tag k="created_by" v="JOSM"/>
    <tag k="highway" v="trunk"/>
    <tag k="name" v="Newell Hwy"/>
    <tag k="surface" v="paved"/>
  </node>
  <node id="133551603" version="1" timestamp="2007-11-26T01:38:17Z" uid="4467" user="Rosscoe" changeset="621649" lat="-28.630895" lon="150.34506">
    <tag k="created_by" v="JOSM"/>
    <tag k="highway" v="trunk"/>
    <tag k="name" v="Newell Hwy"/>
    <tag k="surface" v="paved"/>
  </node>
  <node id="133551641" version="1" timestamp="2007-11-26T01:38:17Z" uid="4467" user="Rosscoe" changeset="621649" lat="-28.63063" lon="150.345105">
    <tag k="created_by" v="JOSM"/>
    <tag k="highway" v="trunk"/>
    <tag k="name" v="Newell Hwy"/>
    <tag k="surface" v="paved"/>
  </node>
  <node id="133551669" version="1" timestamp="2007-11-26T01:38:18Z" uid="4467" user="Rosscoe" changeset="621649" lat="-28.631425" lon="150.344968">
    <tag k="created_by" v="JOSM"/>
    <tag k="highway" v="trunk"/>
    <tag k="name" v="Newell Hwy"/>
    <tag k="surface" v="paved"/>
  </node>
  <node id="133551701" version="1" timestamp="2007-11-26T01:38:19Z" uid="4467" user="Rosscoe" changeset="621649" lat="-28.631163" lon="150.345013">
    <tag k="created_by" v="JOSM"/>
    <tag k="highway" v="trunk"/>
    <tag k="name" v="Newell Hwy"/>
    <tag k="surface" v="paved"/>
  </node>
  <node id="133551731" version="1" timestamp="2007-11-26T01:38:20Z" uid="4467" user="Rosscoe" changeset="621649" lat="-28.631952" lon="150.344877">
    <tag k="created_by" v="JOSM"/>
    <tag k="highway" v="trunk"/>
    <tag k="name" v="Newell Hwy"/>
    <tag k="surface" v="paved"/>
  </node>
  <node id="133551771" version="1" timestamp="2007-11-26T01:38:21Z" uid="4467" user="Rosscoe" changeset="621649" lat="-28.631687" lon="150.344922">
    <tag k="created_by" v="JOSM"/>
    <tag k="highway" v="trunk"/>
    <tag k="name" v="Newell Hwy"/>
    <tag k="surface" v="paved"/>
  </node>
  <node id="133551807" version="1" timestamp="2007-11-26T01:38:21Z" uid="4467" user="Rosscoe" changeset="621649" lat="-28.628253" lon="150.345517">
    <tag k="created_by" v="JOSM"/>
    <tag k="highway" v="trunk"/>
    <tag k="name" v="Newell Hwy"/>
    <tag k="surface" v="paved"/>
  </node>
  <node id="133551820" version="1" timestamp="2007-11-26T01:38:22Z" uid="4467" user="Rosscoe" changeset="621649" lat="-28.627985" lon="150.345565">
    <tag k="created_by" v="JOSM"/>
    <tag k="highway" v="trunk"/>
    <tag k="name" v="Newell Hwy"/>
    <tag k="surface" v="paved"/>
  </node>
  <node id="133551841" version="1" timestamp="2007-11-26T01:38:23Z" uid="4467" user="Rosscoe" changeset="621649" lat="-28.628778" lon="150.345427">
    <tag k="created_by" v="JOSM"/>
    <tag k="highway" v="trunk"/>
    <tag k="name" v="Newell Hwy"/>
    <tag k="surface" v="paved"/>
  </node>
  <node id="133551863" version="1" timestamp="2007-11-26T01:38:24Z" uid="4467" user="Rosscoe" changeset="621649" lat="-28.628515" lon="150.345472">
    <tag k="created_by" v="JOSM"/>
    <tag k="highway" v="trunk"/>
    <tag k="name" v="Newell Hwy"/>
    <tag k="surface" v="paved"/>
  </node>
  <node id="133551900" version="1" timestamp="2007-11-26T01:38:25Z" uid="4467" user="Rosscoe" changeset="621649" lat="-28.629302" lon="150.345337">
    <tag k="created_by" v="JOSM"/>
    <tag k="highway" v="trunk"/>
    <tag k="name" v="Newell Hwy"/>
    <tag k="surface" v="paved"/>
  </node>
  <node id="133551925" version="1" timestamp="2007-11-26T01:38:25Z" uid="4467" user="Rosscoe" changeset="621649" lat="-28.629043" lon="150.345382">
    <tag k="created_by" v="JOSM"/>
    <tag k="highway" v="trunk"/>
    <tag k="name" v="Newell Hwy"/>
    <tag k="surface" v="paved"/>
  </node>
  <node id="133551957" version="1" timestamp="2007-11-26T01:38:26Z" uid="4467" user="Rosscoe" changeset="621649" lat="-28.629835" lon="150.345243">
    <tag k="created_by" v="JOSM"/>
    <tag k="highway" v="trunk"/>
    <tag k="name" v="Newell Hwy"/>
    <tag k="surface" v="paved"/>
  </node>
  <node id="133551986" version="1" timestamp="2007-11-26T01:38:27Z" uid="4467" user="Rosscoe" changeset="621649" lat="-28.62957" lon="150.34529">
    <tag k="created_by" v="JOSM"/>
    <tag k="highway" v="trunk"/>
    <tag k="name" v="Newell Hwy"/>
    <tag k="surface" v="paved"/>
  </node>
  <node id="133552016" version="1" timestamp="2007-11-26T01:38:28Z" uid="4467" user="Rosscoe" changeset="621649" lat="-28.634343" lon="150.344455">
    <tag k="created_by" v="JOSM"/>
    <tag k="highway" v="trunk"/>
    <tag k="name" v="Newell Hwy"/>
    <tag k="surface" v="paved"/>
  </node>
  <node id="133552054" version="1" timestamp="2007-11-26T01:38:28Z" uid="4467" user="Rosscoe" changeset="621649" lat="-28.634613" lon="150.344408">
    <tag k="created_by" v="JOSM"/>
    <tag k="highway" v="trunk"/>
    <tag k="name" v="Newell Hwy"/>
    <tag k="surface" v="paved"/>
  </node>
  <node id="133552079" version="1" timestamp="2007-11-26T01:38:29Z" uid="4467" user="Rosscoe" changeset="621649" lat="-28.634875" lon="150.344362">
    <tag k="created_by" v="JOSM"/>
    <tag k="highway" v="trunk"/>
    <tag k="name" v="Newell Hwy"/>
    <tag k="surface" v="paved"/>
  </node>
  <node id="133552117" version="1" timestamp="2007-11-26T01:38:30Z" uid="4467" user="Rosscoe" changeset="621649" lat="-28.63514" lon="150.344315">
    <tag k="created_by" v="JOSM"/>
    <tag k="highway" v="trunk"/>
    <tag k="name" v="Newell Hwy"/>
    <tag k="surface" v="paved"/>
  </node>
  <node id="133552140" version="1" timestamp="2007-11-26T01:38:31Z" uid="4467" user="Rosscoe" changeset="621649" lat="-28.635405" lon="150.34427">
    <tag k="created_by" v="JOSM"/>
    <tag k="highway" v="trunk"/>
    <tag k="name" v="Newell Hwy"/>
    <tag k="surface" v="paved"/>
  </node>
  <node id="133552172" version="1" timestamp="2007-11-26T01:38:32Z" uid="4467" user="Rosscoe" changeset="621649" lat="-28.635665" lon="150.344225">
    <tag k="created_by" v="JOSM"/>
    <tag k="highway" v="trunk"/>
    <tag k="name" v="Newell Hwy"/>
    <tag k="surface" v="paved"/>
  </node>
  <node id="133552206" version="1" timestamp="2007-11-26T01:38:32Z" uid="4467" user="Rosscoe" changeset="621649" lat="-28.63593" lon="150.34418">
    <tag k="created_by" v="JOSM"/>
    <tag k="highway" v="trunk"/>
    <tag k="name" v="Newell Hwy"/>
    <tag k="surface" v="paved"/>
  </node>
  <node id="133552225" version="1" timestamp="2007-11-26T01:38:33Z" uid="4467" user="Rosscoe" changeset="621649" lat="-28.636198" lon="150.344133">
    <tag k="created_by" v="JOSM"/>
    <tag k="highway" v="trunk"/>
    <tag k="name" v="Newell Hwy"/>
    <tag k="surface" v="paved"/>
  </node>
  <node id="133552252" version="1" timestamp="2007-11-26T01:38:34Z" uid="4467" user="Rosscoe" changeset="621649" lat="-28.632213" lon="150.34483">
    <tag k="created_by" v="JOSM"/>
    <tag k="highway" v="trunk"/>
    <tag k="name" v="Newell Hwy"/>
    <tag k="surface" v="paved"/>
  </node>
  <node id="133552274" version="1" timestamp="2007-11-26T01:38:35Z" uid="4467" user="Rosscoe" changeset="621649" lat="-28.632477" lon="150.344785">
    <tag k="created_by" v="JOSM"/>
    <tag k="highway" v="trunk"/>
    <tag k="name" v="Newell Hwy"/>
    <tag k="surface" v="paved"/>
  </node>
  <node id="133552306" version="1" timestamp="2007-11-26T01:38:35Z" uid="4467" user="Rosscoe" changeset="621649" lat="-28.632747" lon="150.34474">
    <tag k="created_by" v="JOSM"/>
    <tag k="highway" v="trunk"/>
    <tag k="name" v="Newell Hwy"/>
    <tag k="surface" v="paved"/>
  </node>
  <node id="133552331" version="1" timestamp="2007-11-26T01:38:36Z" uid="4467" user="Rosscoe" changeset="621649" lat="-28.633013" lon="150.344692">
    <tag k="created_by" v="JOSM"/>
    <tag k="highway" v="trunk"/>
    <tag k="name" v="Newell Hwy"/>
    <tag k="surface" v="paved"/>
  </node>
  <node id="133552368" version="1" timestamp="2007-11-26T01:38:37Z" uid="4467" user="Rosscoe" changeset="621649" lat="-28.63328" lon="150.344645">
    <tag k="created_by" v="JOSM"/>
    <tag k="highway" v="trunk"/>
    <tag k="name" v="Newell Hwy"/>
    <tag k="surface" v="paved"/>
  </node>
  <node id="133552394" version="1" timestamp="2007-11-26T01:38:38Z" uid="4467" user="Rosscoe" changeset="621649" lat="-28.633545" lon="150.344598">
    <tag k="created_by" v="JOSM"/>
    <tag k="highway" v="trunk"/>
    <tag k="name" v="Newell Hwy"/>
    <tag k="surface" v="paved"/>
  </node>
  <node id="133552414" version="1" timestamp="2007-11-26T01:38:39Z" uid="4467" user="Rosscoe" changeset="621649" lat="-28.63381" lon="150.344552">
    <tag k="created_by" v="JOSM"/>
    <tag k="highway" v="trunk"/>
    <tag k="name" v="Newell Hwy"/>
    <tag k="surface" v="paved"/>
  </node>
  <node id="133552447" version="1" timestamp="2007-11-26T01:38:40Z" uid="4467" user="Rosscoe" changeset="621649" lat="-28.634073" lon="150.344505">
    <tag k="created_by" v="JOSM"/>
    <tag k="highway" v="trunk"/>
    <tag k="name" v="Newell Hwy"/>
    <tag k="surface" v="paved"/>
  </node>
  <node id="133552470" version="1" timestamp="2007-11-26T01:38:40Z" uid="4467" user="Rosscoe" changeset="621649" lat="-28.639353" lon="150.343592">
    <tag k="created_by" v="JOSM"/>
    <tag k="highway" v="trunk"/>
    <tag k="name" v="Newell Hwy"/>
    <tag k="surface" v="paved"/>
  </node>
  <node id="133552497" version="1" timestamp="2007-11-26T01:38:41Z" uid="4467" user="Rosscoe" changeset="621649" lat="-28.639092" lon="150.343635">
    <tag k="created_by" v="JOSM"/>
    <tag k="highway" v="trunk"/>
    <tag k="name" v="Newell Hwy"/>
    <tag k="surface" v="paved"/>
  </node>
  <node id="133552517" version="1" timestamp="2007-11-26T01:38:42Z" uid="4467" user="Rosscoe" changeset="621649" lat="-28.638825" lon="150.34368">
    <tag k="created_by" v="JOSM"/>
    <tag k="highway" v="trunk"/>
    <tag k="name" v="Newell Hwy"/>
    <tag k="surface" v="paved"/>
  </node>
  <node id="133552544" version="1" timestamp="2007-11-26T01:38:43Z" uid="4467" user="Rosscoe" changeset="621649" lat="-28.638565" lon="150.343727">
    <tag k="created_by" v="JOSM"/>
    <tag k="highway" v="trunk"/>
    <tag k="name" v="Newell Hwy"/>
    <tag k="surface" v="paved"/>
  </node>
  <node id="133552581" version="1" timestamp="2007-11-26T01:38:43Z" uid="4467" user="Rosscoe" changeset="621649" lat="-28.640407" lon="150.343408">
    <tag k="created_by" v="JOSM"/>
    <tag k="highway" v="trunk"/>
    <tag k="name" v="Newell Hwy"/>
    <tag k="surface" v="paved"/>
  </node>
  <node id="133552614" version="1" timestamp="2007-11-26T01:38:44Z" uid="4467" user="Rosscoe" changeset="621649" lat="-28.640142" lon="150.343455">
    <tag k="created_by" v="JOSM"/>
    <tag k="highway" v="trunk"/>
    <tag k="name" v="Newell Hwy"/>
    <tag k="surface" v="paved"/>
  </node>
  <node id="133552647" version="1" timestamp="2007-11-26T01:38:45Z" uid="4467" user="Rosscoe" changeset="621649" lat="-28.639877" lon="150.343502">
    <tag k="created_by" v="JOSM"/>
    <tag k="highway" v="trunk"/>
    <tag k="name" v="Newell Hwy"/>
    <tag k="surface" v="paved"/>
  </node>
  <node id="133552664" version="1" timestamp="2007-11-26T01:38:46Z" uid="4467" user="Rosscoe" changeset="621649" lat="-28.639617" lon="150.343547">
    <tag k="created_by" v="JOSM"/>
    <tag k="highway" v="trunk"/>
    <tag k="name" v="Newell Hwy"/>
    <tag k="surface" v="paved"/>
  </node>
  <node id="133552683" version="1" timestamp="2007-11-26T01:38:47Z" uid="4467" user="Rosscoe" changeset="621649" lat="-28.637247" lon="150.343957">
    <tag k="created_by" v="JOSM"/>
    <tag k="highway" v="trunk"/>
    <tag k="name" v="Newell Hwy"/>
    <tag k="surface" v="paved"/>
  </node>
  <node id="133552704" version="1" timestamp="2007-11-26T01:38:47Z" uid="4467" user="Rosscoe" changeset="621649" lat="-28.636992" lon="150.343998">
    <tag k="created_by" v="JOSM"/>
    <tag k="highway" v="trunk"/>
    <tag k="name" v="Newell Hwy"/>
    <tag k="surface" v="paved"/>
  </node>
  <node id="133552717" version="1" timestamp="2007-11-26T01:38:48Z" uid="4467" user="Rosscoe" changeset="621649" lat="-28.636725" lon="150.344042">
    <tag k="created_by" v="JOSM"/>
    <tag k="highway" v="trunk"/>
    <tag k="name" v="Newell Hwy"/>
    <tag k="surface" v="paved"/>
  </node>
  <node id="133552727" version="1" timestamp="2007-11-26T01:38:49Z" uid="4467" user="Rosscoe" changeset="621649" lat="-28.636462" lon="150.344088">
    <tag k="created_by" v="JOSM"/>
    <tag k="highway" v="trunk"/>
    <tag k="name" v="Newell Hwy"/>
    <tag k="surface" v="paved"/>
  </node>
  <node id="133552752" version="1" timestamp="2007-11-26T01:38:50Z" uid="4467" user="Rosscoe" changeset="621649" lat="-28.638302" lon="150.343773">
    <tag k="created_by" v="JOSM"/>
    <tag k="highway" v="trunk"/>
    <tag k="name" v="Newell Hwy"/>
    <tag k="surface" v="paved"/>
  </node>
  <node id="133552778" version="1" timestamp="2007-11-26T01:38:51Z" uid="4467" user="Rosscoe" changeset="621649" lat="-28.63804" lon="150.34382">
    <tag k="created_by" v="JOSM"/>
    <tag k="highway" v="trunk"/>
    <tag k="name" v="Newell Hwy"/>
    <tag k="surface" v="paved"/>
  </node>
  <node id="133552815" version="1" timestamp="2007-11-26T01:38:51Z" uid="4467" user="Rosscoe" changeset="621649" lat="-28.637775" lon="150.343867">
    <tag k="created_by" v="JOSM"/>
    <tag k="highway" v="trunk"/>
    <tag k="name" v="Newell Hwy"/>
    <tag k="surface" v="paved"/>
  </node>
  <node id="133552837" version="1" timestamp="2007-11-26T01:38:52Z" uid="4467" user="Rosscoe" changeset="621649" lat="-28.637512" lon="150.343912">
    <tag k="created_by" v="JOSM"/>
    <tag k="highway" v="trunk"/>
    <tag k="name" v="Newell Hwy"/>
    <tag k="surface" v="paved"/>
  </node>
  <node id="133552873" version="1" timestamp="2007-11-26T01:38:53Z" uid="4467" user="Rosscoe" changeset="621649" lat="-28.643658" lon="150.342843">
    <tag k="created_by" v="JOSM"/>
    <tag k="highway" v="trunk"/>
    <tag k="name" v="Newell Hwy"/>
    <tag k="surface" v="paved"/>
  </node>
  <node id="133552894" version="1" timestamp="2007-11-26T01:38:54Z" uid="4467" user="Rosscoe" changeset="621649" lat="-28.64392" lon="150.342787">
    <tag k="created_by" v="JOSM"/>
    <tag k="highway" v="trunk"/>
    <tag k="name" v="Newell Hwy"/>
    <tag k="surface" v="paved"/>
  </node>
  <node id="133552922" version="1" timestamp="2007-11-26T01:38:54Z" uid="4467" user="Rosscoe" changeset="621649" lat="-28.643133" lon="150.34294">
    <tag k="created_by" v="JOSM"/>
    <tag k="highway" v="trunk"/>
    <tag k="name" v="Newell Hwy"/>
    <tag k="surface" v="paved"/>
  </node>
  <node id="133552931" version="1" timestamp="2007-11-26T01:38:55Z" uid="4467" user="Rosscoe" changeset="621649" lat="-28.643397" lon="150.342893">
    <tag k="created_by" v="JOSM"/>
    <tag k="highway" v="trunk"/>
    <tag k="name" v="Newell Hwy"/>
    <tag k="surface" v="paved"/>
  </node>
  <node id="133552957" version="1" timestamp="2007-11-26T01:38:56Z" uid="4467" user="Rosscoe" changeset="621649" lat="-28.6447" lon="150.342587">
    <tag k="created_by" v="JOSM"/>
    <tag k="highway" v="trunk"/>
    <tag k="name" v="Newell Hwy"/>
    <tag k="surface" v="paved"/>
  </node>
  <node id="133552983" version="1" timestamp="2007-11-26T01:38:57Z" uid="4467" user="Rosscoe" changeset="621649" lat="-28.644957" lon="150.342513">
    <tag k="created_by" v="JOSM"/>
    <tag k="highway" v="trunk"/>
    <tag k="name" v="Newell Hwy"/>
    <tag k="surface" v="paved"/>
  </node>
  <node id="133553017" version="1" timestamp="2007-11-26T01:38:58Z" uid="4467" user="Rosscoe" changeset="621649" lat="-28.644187" lon="150.342725">
    <tag k="created_by" v="JOSM"/>
    <tag k="highway" v="trunk"/>
    <tag k="name" v="Newell Hwy"/>
    <tag k="surface" v="paved"/>
  </node>
  <node id="133553048" version="1" timestamp="2007-11-26T01:38:58Z" uid="4467" user="Rosscoe" changeset="621649" lat="-28.644445" lon="150.342655">
    <tag k="created_by" v="JOSM"/>
    <tag k="highway" v="trunk"/>
    <tag k="name" v="Newell Hwy"/>
    <tag k="surface" v="paved"/>
  </node>
  <node id="133553073" version="1" timestamp="2007-11-26T01:38:59Z" uid="4467" user="Rosscoe" changeset="621649" lat="-28.64151" lon="150.343215">
    <tag k="created_by" v="JOSM"/>
    <tag k="highway" v="trunk"/>
    <tag k="name" v="Newell Hwy"/>
    <tag k="surface" v="paved"/>
  </node>
  <node id="133553105" version="1" timestamp="2007-11-26T01:39:00Z" uid="4467" user="Rosscoe" changeset="621649" lat="-28.641783" lon="150.343168">
    <tag k="created_by" v="JOSM"/>
    <tag k="highway" v="trunk"/>
    <tag k="name" v="Newell Hwy"/>
    <tag k="surface" v="paved"/>
  </node>
  <node id="133553137" version="1" timestamp="2007-11-26T01:39:01Z" uid="4467" user="Rosscoe" changeset="621649" lat="-28.64068" lon="150.34336">
    <tag k="created_by" v="JOSM"/>
    <tag k="highway" v="trunk"/>
    <tag k="name" v="Newell Hwy"/>
    <tag k="surface" v="paved"/>
  </node>
  <node id="133553151" version="1" timestamp="2007-11-26T01:39:02Z" uid="4467" user="Rosscoe" changeset="621649" lat="-28.641232" lon="150.343262">
    <tag k="created_by" v="JOSM"/>
    <tag k="highway" v="trunk"/>
    <tag k="name" v="Newell Hwy"/>
    <tag k="surface" v="paved"/>
  </node>
  <node id="133553189" version="1" timestamp="2007-11-26T01:39:03Z" uid="4467" user="Rosscoe" changeset="621649" lat="-28.642597" lon="150.343032">
    <tag k="created_by" v="JOSM"/>
    <tag k="highway" v="trunk"/>
    <tag k="name" v="Newell Hwy"/>
    <tag k="surface" v="paved"/>
  </node>
  <node id="133553212" version="1" timestamp="2007-11-26T01:39:04Z" uid="4467" user="Rosscoe" changeset="621649" lat="-28.642865" lon="150.342987">
    <tag k="created_by" v="JOSM"/>
    <tag k="highway" v="trunk"/>
    <tag k="name" v="Newell Hwy"/>
    <tag k="surface" v="paved"/>
  </node>
  <node id="133553240" version="1" timestamp="2007-11-26T01:39:04Z" uid="4467" user="Rosscoe" changeset="621649" lat="-28.642053" lon="150.343123">
    <tag k="created_by" v="JOSM"/>
    <tag k="highway" v="trunk"/>
    <tag k="name" v="Newell Hwy"/>
    <tag k="surface" v="paved"/>
  </node>
  <node id="133553265" version="1" timestamp="2007-11-26T01:39:05Z" uid="4467" user="Rosscoe" changeset="621649" lat="-28.642325" lon="150.343078">
    <tag k="created_by" v="JOSM"/>
    <tag k="highway" v="trunk"/>
    <tag k="name" v="Newell Hwy"/>
    <tag k="surface" v="paved"/>
  </node>
  <node id="133553296" version="1" timestamp="2007-11-26T01:39:06Z" uid="4467" user="Rosscoe" changeset="621649" lat="-28.648387" lon="150.34082">
    <tag k="created_by" v="JOSM"/>
    <tag k="highway" v="trunk"/>
    <tag k="name" v="Newell Hwy"/>
    <tag k="surface" v="paved"/>
  </node>
  <node id="133553306" version="1" timestamp="2007-11-26T01:39:07Z" uid="4467" user="Rosscoe" changeset="621649" lat="-28.648157" lon="150.340977">
    <tag k="created_by" v="JOSM"/>
    <tag k="highway" v="trunk"/>
    <tag k="name" v="Newell Hwy"/>
    <tag k="surface" v="paved"/>
  </node>
  <node id="133553328" version="1" timestamp="2007-11-26T01:39:07Z" uid="4467" user="Rosscoe" changeset="621649" lat="-28.648837" lon="150.340497">
    <tag k="created_by" v="JOSM"/>
    <tag k="highway" v="trunk"/>
    <tag k="name" v="Newell Hwy"/>
    <tag k="surface" v="paved"/>
  </node>
  <node id="133553358" version="1" timestamp="2007-11-26T01:39:08Z" uid="4467" user="Rosscoe" changeset="621649" lat="-28.648612" lon="150.340662">
    <tag k="created_by" v="JOSM"/>
    <tag k="highway" v="trunk"/>
    <tag k="name" v="Newell Hwy"/>
    <tag k="surface" v="paved"/>
  </node>
  <node id="133553369" version="1" timestamp="2007-11-26T01:39:09Z" uid="4467" user="Rosscoe" changeset="621649" lat="-28.647447" lon="150.341412">
    <tag k="created_by" v="JOSM"/>
    <tag k="highway" v="trunk"/>
    <tag k="name" v="Newell Hwy"/>
    <tag k="surface" v="paved"/>
  </node>
  <node id="133553390" version="1" timestamp="2007-11-26T01:39:10Z" uid="4467" user="Rosscoe" changeset="621649" lat="-28.647205" lon="150.341547">
    <tag k="created_by" v="JOSM"/>
    <tag k="highway" v="trunk"/>
    <tag k="name" v="Newell Hwy"/>
    <tag k="surface" v="paved"/>
  </node>
  <node id="133553420" version="1" timestamp="2007-11-26T01:39:11Z" uid="4467" user="Rosscoe" changeset="621649" lat="-28.647923" lon="150.341125">
    <tag k="created_by" v="JOSM"/>
    <tag k="highway" v="trunk"/>
    <tag k="name" v="Newell Hwy"/>
    <tag k="surface" v="paved"/>
  </node>
  <node id="133553456" version="1" timestamp="2007-11-26T01:39:11Z" uid="4467" user="Rosscoe" changeset="621649" lat="-28.647687" lon="150.34127">
    <tag k="created_by" v="JOSM"/>
    <tag k="highway" v="trunk"/>
    <tag k="name" v="Newell Hwy"/>
    <tag k="surface" v="paved"/>
  </node>
  <node id="133553473" version="1" timestamp="2007-11-26T01:39:12Z" uid="4467" user="Rosscoe" changeset="621649" lat="-28.646467" lon="150.341915">
    <tag k="created_by" v="JOSM"/>
    <tag k="highway" v="trunk"/>
    <tag k="name" v="Newell Hwy"/>
    <tag k="surface" v="paved"/>
  </node>
  <node id="133553505" version="1" timestamp="2007-11-26T01:39:13Z" uid="4467" user="Rosscoe" changeset="621649" lat="-28.646217" lon="150.342028">
    <tag k="created_by" v="JOSM"/>
    <tag k="highway" v="trunk"/>
    <tag k="name" v="Newell Hwy"/>
    <tag k="surface" v="paved"/>
  </node>
  <node id="133553528" version="1" timestamp="2007-11-26T01:39:14Z" uid="4467" user="Rosscoe" changeset="621649" lat="-28.646962" lon="150.341675">
    <tag k="created_by" v="JOSM"/>
    <tag k="highway" v="trunk"/>
    <tag k="name" v="Newell Hwy"/>
    <tag k="surface" v="paved"/>
  </node>
  <node id="133553550" version="1" timestamp="2007-11-26T01:39:14Z" uid="4467" user="Rosscoe" changeset="621649" lat="-28.646715" lon="150.341797">
    <tag k="created_by" v="JOSM"/>
    <tag k="highway" v="trunk"/>
    <tag k="name" v="Newell Hwy"/>
    <tag k="surface" v="paved"/>
  </node>
  <node id="133553582" version="1" timestamp="2007-11-26T01:39:15Z" uid="4467" user="Rosscoe" changeset="621649" lat="-28.645465" lon="150.342337">
    <tag k="created_by" v="JOSM"/>
    <tag k="highway" v="trunk"/>
    <tag k="name" v="Newell Hwy"/>
    <tag k="surface" v="paved"/>
  </node>
  <node id="133553598" version="1" timestamp="2007-11-26T01:39:16Z" uid="4467" user="Rosscoe" changeset="621649" lat="-28.645207" lon="150.34243">
    <tag k="created_by" v="JOSM"/>
    <tag k="highway" v="trunk"/>
    <tag k="name" v="Newell Hwy"/>
    <tag k="surface" v="paved"/>
  </node>
  <node id="133553625" version="1" timestamp="2007-11-26T01:39:17Z" uid="4467" user="Rosscoe" changeset="621649" lat="-28.645965" lon="150.342137">
    <tag k="created_by" v="JOSM"/>
    <tag k="highway" v="trunk"/>
    <tag k="name" v="Newell Hwy"/>
    <tag k="surface" v="paved"/>
  </node>
  <node id="133553659" version="1" timestamp="2007-11-26T01:39:18Z" uid="4467" user="Rosscoe" changeset="621649" lat="-28.645712" lon="150.342242">
    <tag k="created_by" v="JOSM"/>
    <tag k="highway" v="trunk"/>
    <tag k="name" v="Newell Hwy"/>
    <tag k="surface" v="paved"/>
  </node>
  <node id="133553688" version="1" timestamp="2007-11-26T01:39:18Z" uid="4467" user="Rosscoe" changeset="621649" lat="-28.651625" lon="150.337743">
    <tag k="created_by" v="JOSM"/>
    <tag k="highway" v="trunk"/>
    <tag k="name" v="Newell Hwy"/>
    <tag k="surface" v="paved"/>
  </node>
  <node id="133553714" version="1" timestamp="2007-11-26T01:39:19Z" uid="4467" user="Rosscoe" changeset="621649" lat="-28.651865" lon="150.337487">
    <tag k="created_by" v="JOSM"/>
    <tag k="highway" v="trunk"/>
    <tag k="name" v="Newell Hwy"/>
    <tag k="surface" v="paved"/>
  </node>
  <node id="133553744" version="1" timestamp="2007-11-26T01:39:20Z" uid="4467" user="Rosscoe" changeset="621649" lat="-28.652098" lon="150.337235">
    <tag k="created_by" v="JOSM"/>
    <tag k="highway" v="trunk"/>
    <tag k="name" v="Newell Hwy"/>
    <tag k="surface" v="paved"/>
  </node>
  <node id="133553766" version="1" timestamp="2007-11-26T01:39:21Z" uid="4467" user="Rosscoe" changeset="621649" lat="-28.65233" lon="150.336978">
    <tag k="created_by" v="JOSM"/>
    <tag k="highway" v="trunk"/>
    <tag k="name" v="Newell Hwy"/>
    <tag k="surface" v="paved"/>
  </node>
  <node id="133553779" version="1" timestamp="2007-11-26T01:39:21Z" uid="4467" user="Rosscoe" changeset="621649" lat="-28.650718" lon="150.338773">
    <tag k="created_by" v="JOSM"/>
    <tag k="highway" v="trunk"/>
    <tag k="name" v="Newell Hwy"/>
    <tag k="surface" v="paved"/>
  </node>
  <node id="133553796" version="1" timestamp="2007-11-26T01:39:22Z" uid="4467" user="Rosscoe" changeset="621649" lat="-28.650933" lon="150.338523">
    <tag k="created_by" v="JOSM"/>
    <tag k="highway" v="trunk"/>
    <tag k="name" v="Newell Hwy"/>
    <tag k="surface" v="paved"/>
  </node>
  <node id="133553828" version="1" timestamp="2007-11-26T01:39:23Z" uid="4467" user="Rosscoe" changeset="621649" lat="-28.651158" lon="150.338265">
    <tag k="created_by" v="JOSM"/>
    <tag k="highway" v="trunk"/>
    <tag k="name" v="Newell Hwy"/>
    <tag k="surface" v="paved"/>
  </node>
  <node id="133553845" version="1" timestamp="2007-11-26T01:39:24Z" uid="4467" user="Rosscoe" changeset="621649" lat="-28.651387" lon="150.338005">
    <tag k="created_by" v="JOSM"/>
    <tag k="highway" v="trunk"/>
    <tag k="name" v="Newell Hwy"/>
    <tag k="surface" v="paved"/>
  </node>
  <node id="133553868" version="1" timestamp="2007-11-26T01:39:25Z" uid="4467" user="Rosscoe" changeset="621649" lat="-28.649912" lon="150.3396">
    <tag k="created_by" v="JOSM"/>
    <tag k="highway" v="trunk"/>
    <tag k="name" v="Newell Hwy"/>
    <tag k="surface" v="paved"/>
  </node>
  <node id="133553892" version="1" timestamp="2007-11-26T01:39:25Z" uid="4467" user="Rosscoe" changeset="621649" lat="-28.650115" lon="150.339408">
    <tag k="created_by" v="JOSM"/>
    <tag k="highway" v="trunk"/>
    <tag k="name" v="Newell Hwy"/>
    <tag k="surface" v="paved"/>
  </node>
  <node id="133553908" version="1" timestamp="2007-11-26T01:39:26Z" uid="4467" user="Rosscoe" changeset="621649" lat="-28.650317" lon="150.339212">
    <tag k="created_by" v="JOSM"/>
    <tag k="highway" v="trunk"/>
    <tag k="name" v="Newell Hwy"/>
    <tag k="surface" v="paved"/>
  </node>
  <node id="133553929" version="1" timestamp="2007-11-26T01:39:27Z" uid="4467" user="Rosscoe" changeset="621649" lat="-28.65052" lon="150.339">
    <tag k="created_by" v="JOSM"/>
    <tag k="highway" v="trunk"/>
    <tag k="name" v="Newell Hwy"/>
    <tag k="surface" v="paved"/>
  </node>
  <node id="133553960" version="1" timestamp="2007-11-26T01:39:28Z" uid="4467" user="Rosscoe" changeset="621649" lat="-28.64906" lon="150.340325">
    <tag k="created_by" v="JOSM"/>
    <tag k="highway" v="trunk"/>
    <tag k="name" v="Newell Hwy"/>
    <tag k="surface" v="paved"/>
  </node>
  <node id="133553989" version="1" timestamp="2007-11-26T01:39:29Z" uid="4467" user="Rosscoe" changeset="621649" lat="-28.649277" lon="150.34015">
    <tag k="created_by" v="JOSM"/>
    <tag k="highway" v="trunk"/>
    <tag k="name" v="Newell Hwy"/>
    <tag k="surface" v="paved"/>
  </node>
  <node id="133554024" version="1" timestamp="2007-11-26T01:39:29Z" uid="4467" user="Rosscoe" changeset="621649" lat="-28.64949" lon="150.339972">
    <tag k="created_by" v="JOSM"/>
    <tag k="highway" v="trunk"/>
    <tag k="name" v="Newell Hwy"/>
    <tag k="surface" v="paved"/>
  </node>
  <node id="133554051" version="1" timestamp="2007-11-26T01:39:30Z" uid="4467" user="Rosscoe" changeset="621649" lat="-28.649702" lon="150.339788">
    <tag k="created_by" v="JOSM"/>
    <tag k="highway" v="trunk"/>
    <tag k="name" v="Newell Hwy"/>
    <tag k="surface" v="paved"/>
  </node>
  <node id="133554075" version="1" timestamp="2007-11-26T01:39:31Z" uid="4467" user="Rosscoe" changeset="621649" lat="-28.655617" lon="150.333268">
    <tag k="created_by" v="JOSM"/>
    <tag k="highway" v="trunk"/>
    <tag k="name" v="Newell Hwy"/>
    <tag k="surface" v="paved"/>
  </node>
  <node id="133554103" version="1" timestamp="2007-11-26T01:39:32Z" uid="4467" user="Rosscoe" changeset="621649" lat="-28.655413" lon="150.333497">
    <tag k="created_by" v="JOSM"/>
    <tag k="highway" v="trunk"/>
    <tag k="name" v="Newell Hwy"/>
    <tag k="surface" v="paved"/>
  </node>
  <node id="133554136" version="1" timestamp="2007-11-26T01:39:32Z" uid="4467" user="Rosscoe" changeset="621649" lat="-28.655212" lon="150.333725">
    <tag k="created_by" v="JOSM"/>
    <tag k="highway" v="trunk"/>
    <tag k="name" v="Newell Hwy"/>
    <tag k="surface" v="paved"/>
  </node>
  <node id="133554163" version="1" timestamp="2007-11-26T01:39:33Z" uid="4467" user="Rosscoe" changeset="621649" lat="-28.65501" lon="150.333955">
    <tag k="created_by" v="JOSM"/>
    <tag k="highway" v="trunk"/>
    <tag k="name" v="Newell Hwy"/>
    <tag k="surface" v="paved"/>
  </node>
  <node id="133554194" version="1" timestamp="2007-11-26T01:39:34Z" uid="4467" user="Rosscoe" changeset="621649" lat="-28.654808" lon="150.334182">
    <tag k="created_by" v="JOSM"/>
    <tag k="highway" v="trunk"/>
    <tag k="name" v="Newell Hwy"/>
    <tag k="surface" v="paved"/>
  </node>
  <node id="133554224" version="1" timestamp="2007-11-26T01:39:35Z" uid="4467" user="Rosscoe" changeset="621649" lat="-28.654607" lon="150.334412">
    <tag k="created_by" v="JOSM"/>
    <tag k="highway" v="trunk"/>
    <tag k="name" v="Newell Hwy"/>
    <tag k="surface" v="paved"/>
  </node>
  <node id="133554256" version="1" timestamp="2007-11-26T01:39:35Z" uid="4467" user="Rosscoe" changeset="621649" lat="-28.654408" lon="150.334633">
    <tag k="created_by" v="JOSM"/>
    <tag k="highway" v="trunk"/>
    <tag k="name" v="Newell Hwy"/>
    <tag k="surface" v="paved"/>
  </node>
  <node id="133554292" version="1" timestamp="2007-11-26T01:39:36Z" uid="4467" user="Rosscoe" changeset="621649" lat="-28.654207" lon="150.334858">
    <tag k="created_by" v="JOSM"/>
    <tag k="highway" v="trunk"/>
    <tag k="name" v="Newell Hwy"/>
    <tag k="surface" v="paved"/>
  </node>
  <node id="133554327" version="1" timestamp="2007-11-26T01:39:37Z" uid="4467" user="Rosscoe" changeset="621649" lat="-28.654012" lon="150.33508">
    <tag k="created_by" v="JOSM"/>
    <tag k="highway" v="trunk"/>
    <tag k="name" v="Newell Hwy"/>
    <tag k="surface" v="paved"/>
  </node>
  <node id="133554359" version="1" timestamp="2007-11-26T01:39:38Z" uid="4467" user="Rosscoe" changeset="621649" lat="-28.65381" lon="150.335307">
    <tag k="created_by" v="JOSM"/>
    <tag k="highway" v="trunk"/>
    <tag k="name" v="Newell Hwy"/>
    <tag k="surface" v="paved"/>
  </node>
  <node id="133554417" version="1" timestamp="2007-11-26T01:39:40Z" uid="4467" user="Rosscoe" changeset="621649" lat="-28.65361" lon="150.335533">
    <tag k="created_by" v="JOSM"/>
    <tag k="highway" v="trunk"/>
    <tag k="name" v="Newell Hwy"/>
    <tag k="surface" v="paved"/>
  </node>
  <node id="133554518" version="1" timestamp="2007-11-26T01:39:43Z" uid="4467" user="Rosscoe" changeset="621649" lat="-28.653403" lon="150.335767">
    <tag k="created_by" v="JOSM"/>
    <tag k="highway" v="trunk"/>
    <tag k="name" v="Newell Hwy"/>
    <tag k="surface" v="paved"/>
  </node>
  <node id="133554562" version="1" timestamp="2007-11-26T01:39:44Z" uid="4467" user="Rosscoe" changeset="621649" lat="-28.6532" lon="150.336">
    <tag k="created_by" v="JOSM"/>
    <tag k="highway" v="trunk"/>
    <tag k="name" v="Newell Hwy"/>
    <tag k="surface" v="paved"/>
  </node>
  <node id="133554583" version="1" timestamp="2007-11-26T01:39:45Z" uid="4467" user="Rosscoe" changeset="621649" lat="-28.652988" lon="150.336238">
    <tag k="created_by" v="JOSM"/>
    <tag k="highway" v="trunk"/>
    <tag k="name" v="Newell Hwy"/>
    <tag k="surface" v="paved"/>
  </node>
  <node id="133554607" version="1" timestamp="2007-11-26T01:39:46Z" uid="4467" user="Rosscoe" changeset="621649" lat="-28.652773" lon="150.336482">
    <tag k="created_by" v="JOSM"/>
    <tag k="highway" v="trunk"/>
    <tag k="name" v="Newell Hwy"/>
    <tag k="surface" v="paved"/>
  </node>
  <node id="133554629" version="1" timestamp="2007-11-26T01:39:46Z" uid="4467" user="Rosscoe" changeset="621649" lat="-28.652553" lon="150.336728">
    <tag k="created_by" v="JOSM"/>
    <tag k="highway" v="trunk"/>
    <tag k="name" v="Newell Hwy"/>
    <tag k="surface" v="paved"/>
  </node>
  <node id="133554655" version="1" timestamp="2007-11-26T01:39:47Z" uid="4467" user="Rosscoe" changeset="621649" lat="-28.658653" lon="150.329863">
    <tag k="created_by" v="JOSM"/>
    <tag k="highway" v="trunk"/>
    <tag k="name" v="Newell Hwy"/>
    <tag k="surface" v="paved"/>
  </node>
  <node id="133554682" version="1" timestamp="2007-11-26T01:39:48Z" uid="4467" user="Rosscoe" changeset="621649" lat="-28.658855" lon="150.329637">
    <tag k="created_by" v="JOSM"/>
    <tag k="highway" v="trunk"/>
    <tag k="name" v="Newell Hwy"/>
    <tag k="surface" v="paved"/>
  </node>
  <node id="133554706" version="1" timestamp="2007-11-26T01:39:49Z" uid="4467" user="Rosscoe" changeset="621649" lat="-28.658247" lon="150.330318">
    <tag k="created_by" v="JOSM"/>
    <tag k="highway" v="trunk"/>
    <tag k="name" v="Newell Hwy"/>
    <tag k="surface" v="paved"/>
  </node>
  <node id="133554728" version="1" timestamp="2007-11-26T01:39:50Z" uid="4467" user="Rosscoe" changeset="621649" lat="-28.65845" lon="150.33009">
    <tag k="created_by" v="JOSM"/>
    <tag k="highway" v="trunk"/>
    <tag k="name" v="Newell Hwy"/>
    <tag k="surface" v="paved"/>
  </node>
  <node id="133554757" version="1" timestamp="2007-11-26T01:39:50Z" uid="4467" user="Rosscoe" changeset="621649" lat="-28.657843" lon="150.33077">
    <tag k="created_by" v="JOSM"/>
    <tag k="highway" v="trunk"/>
    <tag k="name" v="Newell Hwy"/>
    <tag k="surface" v="paved"/>
  </node>
  <node id="133554780" version="1" timestamp="2007-11-26T01:39:51Z" uid="4467" user="Rosscoe" changeset="621649" lat="-28.658047" lon="150.330543">
    <tag k="created_by" v="JOSM"/>
    <tag k="highway" v="trunk"/>
    <tag k="name" v="Newell Hwy"/>
    <tag k="surface" v="paved"/>
  </node>
  <node id="133554811" version="1" timestamp="2007-11-26T01:39:52Z" uid="4467" user="Rosscoe" changeset="621649" lat="-28.657438" lon="150.331218">
    <tag k="created_by" v="JOSM"/>
    <tag k="highway" v="trunk"/>
    <tag k="name" v="Newell Hwy"/>
    <tag k="surface" v="paved"/>
  </node>
  <node id="133554841" version="1" timestamp="2007-11-26T01:39:53Z" uid="4467" user="Rosscoe" changeset="621649" lat="-28.65764" lon="150.330995">
    <tag k="created_by" v="JOSM"/>
    <tag k="highway" v="trunk"/>
    <tag k="name" v="Newell Hwy"/>
    <tag k="surface" v="paved"/>
  </node>
  <node id="133554863" version="1" timestamp="2007-11-26T01:39:53Z" uid="4467" user="Rosscoe" changeset="621649" lat="-28.65703" lon="150.331677">
    <tag k="created_by" v="JOSM"/>
    <tag k="highway" v="trunk"/>
    <tag k="name" v="Newell Hwy"/>
    <tag k="surface" v="paved"/>
  </node>
  <node id="133554891" version="1" timestamp="2007-11-26T01:39:54Z" uid="4467" user="Rosscoe" changeset="621649" lat="-28.657233" lon="150.331447">
    <tag k="created_by" v="JOSM"/>
    <tag k="highway" v="trunk"/>
    <tag k="name" v="Newell Hwy"/>
    <tag k="surface" v="paved"/>
  </node>
  <node id="133554928" version="1" timestamp="2007-11-26T01:39:55Z" uid="4467" user="Rosscoe" changeset="621649" lat="-28.656628" lon="150.33213">
    <tag k="created_by" v="JOSM"/>
    <tag k="highway" v="trunk"/>
    <tag k="name" v="Newell Hwy"/>
    <tag k="surface" v="paved"/>
  </node>
  <node id="133554953" version="1" timestamp="2007-11-26T01:39:56Z" uid="4467" user="Rosscoe" changeset="621649" lat="-28.656832" lon="150.331902">
    <tag k="created_by" v="JOSM"/>
    <tag k="highway" v="trunk"/>
    <tag k="name" v="Newell Hwy"/>
    <tag k="surface" v="paved"/>
  </node>
  <node id="133554992" version="1" timestamp="2007-11-26T01:39:57Z" uid="4467" user="Rosscoe" changeset="621649" lat="-28.656225" lon="150.332582">
    <tag k="created_by" v="JOSM"/>
    <tag k="highway" v="trunk"/>
    <tag k="name" v="Newell Hwy"/>
    <tag k="surface" v="paved"/>
  </node>
  <node id="133555026" version="1" timestamp="2007-11-26T01:39:57Z" uid="4467" user="Rosscoe" changeset="621649" lat="-28.656425" lon="150.332357">
    <tag k="created_by" v="JOSM"/>
    <tag k="highway" v="trunk"/>
    <tag k="name" v="Newell Hwy"/>
    <tag k="surface" v="paved"/>
  </node>
  <node id="133555059" version="1" timestamp="2007-11-26T01:39:58Z" uid="4467" user="Rosscoe" changeset="621649" lat="-28.655817" lon="150.333042">
    <tag k="created_by" v="JOSM"/>
    <tag k="highway" v="trunk"/>
    <tag k="name" v="Newell Hwy"/>
    <tag k="surface" v="paved"/>
  </node>
  <node id="133555089" version="1" timestamp="2007-11-26T01:39:59Z" uid="4467" user="Rosscoe" changeset="621649" lat="-28.656022" lon="150.332812">
    <tag k="created_by" v="JOSM"/>
    <tag k="highway" v="trunk"/>
    <tag k="name" v="Newell Hwy"/>
    <tag k="surface" v="paved"/>
  </node>
  <node id="133555115" version="1" timestamp="2007-11-26T01:40:00Z" uid="4467" user="Rosscoe" changeset="621649" lat="-28.663528" lon="150.324392">
    <tag k="created_by" v="JOSM"/>
    <tag k="highway" v="trunk"/>
    <tag k="name" v="Newell Hwy"/>
    <tag k="surface" v="paved"/>
  </node>
  <node id="133555146" version="1" timestamp="2007-11-26T01:40:01Z" uid="4467" user="Rosscoe" changeset="621649" lat="-28.663115" lon="150.324858">
    <tag k="created_by" v="JOSM"/>
    <tag k="highway" v="trunk"/>
    <tag k="name" v="Newell Hwy"/>
    <tag k="surface" v="paved"/>
  </node>
  <node id="133555176" version="1" timestamp="2007-11-26T01:40:01Z" uid="4467" user="Rosscoe" changeset="621649" lat="-28.662912" lon="150.325087">
    <tag k="created_by" v="JOSM"/>
    <tag k="highway" v="trunk"/>
    <tag k="name" v="Newell Hwy"/>
    <tag k="surface" v="paved"/>
  </node>
  <node id="133555194" version="1" timestamp="2007-11-26T01:40:02Z" uid="4467" user="Rosscoe" changeset="621649" lat="-28.662502" lon="150.325547">
    <tag k="created_by" v="JOSM"/>
    <tag k="highway" v="trunk"/>
    <tag k="name" v="Newell Hwy"/>
    <tag k="surface" v="paved"/>
  </node>
  <node id="133555225" version="1" timestamp="2007-11-26T01:40:03Z" uid="4467" user="Rosscoe" changeset="621649" lat="-28.664555" lon="150.32324">
    <tag k="created_by" v="JOSM"/>
    <tag k="highway" v="trunk"/>
    <tag k="name" v="Newell Hwy"/>
    <tag k="surface" v="paved"/>
  </node>
  <node id="133555253" version="1" timestamp="2007-11-26T01:40:04Z" uid="4467" user="Rosscoe" changeset="621649" lat="-28.664347" lon="150.323473">
    <tag k="created_by" v="JOSM"/>
    <tag k="highway" v="trunk"/>
    <tag k="name" v="Newell Hwy"/>
    <tag k="surface" v="paved"/>
  </node>
  <node id="133555262" version="1" timestamp="2007-11-26T01:40:04Z" uid="4467" user="Rosscoe" changeset="621649" lat="-28.664142" lon="150.323702">
    <tag k="created_by" v="JOSM"/>
    <tag k="highway" v="trunk"/>
    <tag k="name" v="Newell Hwy"/>
    <tag k="surface" v="paved"/>
  </node>
  <node id="133555274" version="1" timestamp="2007-11-26T01:40:05Z" uid="4467" user="Rosscoe" changeset="621649" lat="-28.663732" lon="150.324163">
    <tag k="created_by" v="JOSM"/>
    <tag k="highway" v="trunk"/>
    <tag k="name" v="Newell Hwy"/>
    <tag k="surface" v="paved"/>
  </node>
  <node id="133555279" version="1" timestamp="2007-11-26T01:40:06Z" uid="4467" user="Rosscoe" changeset="621649" lat="-28.665383" lon="150.322318">
    <tag k="created_by" v="JOSM"/>
    <tag k="highway" v="trunk"/>
    <tag k="name" v="Newell Hwy"/>
    <tag k="surface" v="paved"/>
  </node>
  <node id="133555305" version="1" timestamp="2007-11-26T01:40:07Z" uid="4467" user="Rosscoe" changeset="621649" lat="-28.665175" lon="150.322548">
    <tag k="created_by" v="JOSM"/>
    <tag k="highway" v="trunk"/>
    <tag k="name" v="Newell Hwy"/>
    <tag k="surface" v="paved"/>
  </node>
  <node id="133555321" version="1" timestamp="2007-11-26T01:40:08Z" uid="4467" user="Rosscoe" changeset="621649" lat="-28.664968" lon="150.322778">
    <tag k="created_by" v="JOSM"/>
    <tag k="highway" v="trunk"/>
    <tag k="name" v="Newell Hwy"/>
    <tag k="surface" v="paved"/>
  </node>
  <node id="133555352" version="1" timestamp="2007-11-26T01:40:08Z" uid="4467" user="Rosscoe" changeset="621649" lat="-28.66476" lon="150.32301">
    <tag k="created_by" v="JOSM"/>
    <tag k="highway" v="trunk"/>
    <tag k="name" v="Newell Hwy"/>
    <tag k="surface" v="paved"/>
  </node>
  <node id="133555384" version="1" timestamp="2007-11-26T01:40:09Z" uid="4467" user="Rosscoe" changeset="621649" lat="-28.666212" lon="150.321393">
    <tag k="created_by" v="JOSM"/>
    <tag k="highway" v="trunk"/>
    <tag k="name" v="Newell Hwy"/>
    <tag k="surface" v="paved"/>
  </node>
  <node id="133555409" version="1" timestamp="2007-11-26T01:40:10Z" uid="4467" user="Rosscoe" changeset="621649" lat="-28.666007" lon="150.321625">
    <tag k="created_by" v="JOSM"/>
    <tag k="highway" v="trunk"/>
    <tag k="name" v="Newell Hwy"/>
    <tag k="surface" v="paved"/>
  </node>
  <node id="133555439" version="1" timestamp="2007-11-26T01:40:11Z" uid="4467" user="Rosscoe" changeset="621649" lat="-28.665798" lon="150.321857">
    <tag k="created_by" v="JOSM"/>
    <tag k="highway" v="trunk"/>
    <tag k="name" v="Newell Hwy"/>
    <tag k="surface" v="paved"/>
  </node>
  <node id="133555471" version="1" timestamp="2007-11-26T01:40:11Z" uid="4467" user="Rosscoe" changeset="621649" lat="-28.665588" lon="150.32209">
    <tag k="created_by" v="JOSM"/>
    <tag k="highway" v="trunk"/>
    <tag k="name" v="Newell Hwy"/>
    <tag k="surface" v="paved"/>
  </node>
  <node id="133555501" version="1" timestamp="2007-11-26T01:40:12Z" uid="4467" user="Rosscoe" changeset="621649" lat="-28.659458" lon="150.328957">
    <tag k="created_by" v="JOSM"/>
    <tag k="highway" v="trunk"/>
    <tag k="name" v="Newell Hwy"/>
    <tag k="surface" v="paved"/>
  </node>
  <node id="133555538" version="1" timestamp="2007-11-26T01:40:13Z" uid="4467" user="Rosscoe" changeset="621649" lat="-28.659662" lon="150.328727">
    <tag k="created_by" v="JOSM"/>
    <tag k="highway" v="trunk"/>
    <tag k="name" v="Newell Hwy"/>
    <tag k="surface" v="paved"/>
  </node>
  <node id="133555564" version="1" timestamp="2007-11-26T01:40:14Z" uid="4467" user="Rosscoe" changeset="621649" lat="-28.659055" lon="150.32941">
    <tag k="created_by" v="JOSM"/>
    <tag k="highway" v="trunk"/>
    <tag k="name" v="Newell Hwy"/>
    <tag k="surface" v="paved"/>
  </node>
  <node id="133555596" version="1" timestamp="2007-11-26T01:40:15Z" uid="4467" user="Rosscoe" changeset="621649" lat="-28.659258" lon="150.329182">
    <tag k="created_by" v="JOSM"/>
    <tag k="highway" v="trunk"/>
    <tag k="name" v="Newell Hwy"/>
    <tag k="surface" v="paved"/>
  </node>
  <node id="133555624" version="1" timestamp="2007-11-26T01:40:15Z" uid="4467" user="Rosscoe" changeset="621649" lat="-28.660265" lon="150.328045">
    <tag k="created_by" v="JOSM"/>
    <tag k="highway" v="trunk"/>
    <tag k="name" v="Newell Hwy"/>
    <tag k="surface" v="paved"/>
  </node>
  <node id="133555655" version="1" timestamp="2007-11-26T01:40:16Z" uid="4467" user="Rosscoe" changeset="621649" lat="-28.660468" lon="150.327817">
    <tag k="created_by" v="JOSM"/>
    <tag k="highway" v="trunk"/>
    <tag k="name" v="Newell Hwy"/>
    <tag k="surface" v="paved"/>
  </node>
  <node id="133555680" version="1" timestamp="2007-11-26T01:40:17Z" uid="4467" user="Rosscoe" changeset="621649" lat="-28.659863" lon="150.3285">
    <tag k="created_by" v="JOSM"/>
    <tag k="highway" v="trunk"/>
    <tag k="name" v="Newell Hwy"/>
    <tag k="surface" v="paved"/>
  </node>
  <node id="133555712" version="1" timestamp="2007-11-26T01:40:18Z" uid="4467" user="Rosscoe" changeset="621649" lat="-28.660063" lon="150.328273">
    <tag k="created_by" v="JOSM"/>
    <tag k="highway" v="trunk"/>
    <tag k="name" v="Newell Hwy"/>
    <tag k="surface" v="paved"/>
  </node>
  <node id="133555731" version="1" timestamp="2007-11-26T01:40:18Z" uid="4467" user="Rosscoe" changeset="621649" lat="-28.661075" lon="150.327137">
    <tag k="created_by" v="JOSM"/>
    <tag k="highway" v="trunk"/>
    <tag k="name" v="Newell Hwy"/>
    <tag k="surface" v="paved"/>
  </node>
  <node id="133555761" version="1" timestamp="2007-11-26T01:40:19Z" uid="4467" user="Rosscoe" changeset="621649" lat="-28.661277" lon="150.326908">
    <tag k="created_by" v="JOSM"/>
    <tag k="highway" v="trunk"/>
    <tag k="name" v="Newell Hwy"/>
    <tag k="surface" v="paved"/>
  </node>
  <node id="133555786" version="1" timestamp="2007-11-26T01:40:20Z" uid="4467" user="Rosscoe" changeset="621649" lat="-28.660668" lon="150.327593">
    <tag k="created_by" v="JOSM"/>
    <tag k="highway" v="trunk"/>
    <tag k="name" v="Newell Hwy"/>
    <tag k="surface" v="paved"/>
  </node>
  <node id="133555811" version="1" timestamp="2007-11-26T01:40:21Z" uid="4467" user="Rosscoe" changeset="621649" lat="-28.660873" lon="150.327363">
    <tag k="created_by" v="JOSM"/>
    <tag k="highway" v="trunk"/>
    <tag k="name" v="Newell Hwy"/>
    <tag k="surface" v="paved"/>
  </node>
  <node id="133555842" version="1" timestamp="2007-11-26T01:40:22Z" uid="4467" user="Rosscoe" changeset="621649" lat="-28.661888" lon="150.326228">
    <tag k="created_by" v="JOSM"/>
    <tag k="highway" v="trunk"/>
    <tag k="name" v="Newell Hwy"/>
    <tag k="surface" v="paved"/>
  </node>
  <node id="133555862" version="1" timestamp="2007-11-26T01:40:22Z" uid="4467" user="Rosscoe" changeset="621649" lat="-28.662097" lon="150.325998">
    <tag k="created_by" v="JOSM"/>
    <tag k="highway" v="trunk"/>
    <tag k="name" v="Newell Hwy"/>
    <tag k="surface" v="paved"/>
  </node>
  <node id="133555885" version="1" timestamp="2007-11-26T01:40:23Z" uid="4467" user="Rosscoe" changeset="621649" lat="-28.66148" lon="150.326682">
    <tag k="created_by" v="JOSM"/>
    <tag k="highway" v="trunk"/>
    <tag k="name" v="Newell Hwy"/>
    <tag k="surface" v="paved"/>
  </node>
  <node id="133555910" version="1" timestamp="2007-11-26T01:40:24Z" uid="4467" user="Rosscoe" changeset="621649" lat="-28.661685" lon="150.326453">
    <tag k="created_by" v="JOSM"/>
    <tag k="highway" v="trunk"/>
    <tag k="name" v="Newell Hwy"/>
    <tag k="surface" v="paved"/>
  </node>
  <node id="133555940" version="1" timestamp="2007-11-26T01:40:25Z" uid="4467" user="Rosscoe" changeset="621649" lat="-28.670547" lon="150.316552">
    <tag k="created_by" v="JOSM"/>
    <tag k="highway" v="trunk"/>
    <tag k="name" v="Newell Hwy"/>
    <tag k="surface" v="paved"/>
  </node>
  <node id="133555972" version="1" timestamp="2007-11-26T01:40:25Z" uid="4467" user="Rosscoe" changeset="621649" lat="-28.670343" lon="150.31678">
    <tag k="created_by" v="JOSM"/>
    <tag k="highway" v="trunk"/>
    <tag k="name" v="Newell Hwy"/>
    <tag k="surface" v="paved"/>
  </node>
  <node id="133555999" version="1" timestamp="2007-11-26T01:40:26Z" uid="4467" user="Rosscoe" changeset="621649" lat="-28.670962" lon="150.316087">
    <tag k="created_by" v="JOSM"/>
    <tag k="highway" v="trunk"/>
    <tag k="name" v="Newell Hwy"/>
    <tag k="surface" v="paved"/>
  </node>
  <node id="133556022" version="1" timestamp="2007-11-26T01:40:27Z" uid="4467" user="Rosscoe" changeset="621649" lat="-28.670755" lon="150.316317">
    <tag k="created_by" v="JOSM"/>
    <tag k="highway" v="trunk"/>
    <tag k="name" v="Newell Hwy"/>
    <tag k="surface" v="paved"/>
  </node>
  <node id="133556043" version="1" timestamp="2007-11-26T01:40:28Z" uid="4467" user="Rosscoe" changeset="621649" lat="-28.671375" lon="150.315627">
    <tag k="created_by" v="JOSM"/>
    <tag k="highway" v="trunk"/>
    <tag k="name" v="Newell Hwy"/>
    <tag k="surface" v="paved"/>
  </node>
  <node id="133556071" version="1" timestamp="2007-11-26T01:40:29Z" uid="4467" user="Rosscoe" changeset="621649" lat="-28.671168" lon="150.315857">
    <tag k="created_by" v="JOSM"/>
    <tag k="highway" v="trunk"/>
    <tag k="name" v="Newell Hwy"/>
    <tag k="surface" v="paved"/>
  </node>
  <node id="133556178" version="1" timestamp="2007-11-26T01:40:32Z" uid="4467" user="Rosscoe" changeset="621649" lat="-28.671787" lon="150.315168">
    <tag k="created_by" v="JOSM"/>
    <tag k="highway" v="trunk"/>
    <tag k="name" v="Newell Hwy"/>
    <tag k="surface" v="paved"/>
  </node>
  <node id="133556207" version="1" timestamp="2007-11-26T01:40:33Z" uid="4467" user="Rosscoe" changeset="621649" lat="-28.671582" lon="150.315397">
    <tag k="created_by" v="JOSM"/>
    <tag k="highway" v="trunk"/>
    <tag k="name" v="Newell Hwy"/>
    <tag k="surface" v="paved"/>
  </node>
  <node id="133556243" version="1" timestamp="2007-11-26T01:40:33Z" uid="4467" user="Rosscoe" changeset="621649" lat="-28.672202" lon="150.314707">
    <tag k="created_by" v="JOSM"/>
    <tag k="highway" v="trunk"/>
    <tag k="name" v="Newell Hwy"/>
    <tag k="surface" v="paved"/>
  </node>
  <node id="133556280" version="1" timestamp="2007-11-26T01:40:34Z" uid="4467" user="Rosscoe" changeset="621649" lat="-28.671997" lon="150.314937">
    <tag k="created_by" v="JOSM"/>
    <tag k="highway" v="trunk"/>
    <tag k="name" v="Newell Hwy"/>
    <tag k="surface" v="paved"/>
  </node>
  <node id="133556325" version="1" timestamp="2007-11-26T01:40:36Z" uid="4467" user="Rosscoe" changeset="621649" lat="-28.672612" lon="150.314245">
    <tag k="created_by" v="JOSM"/>
    <tag k="highway" v="trunk"/>
    <tag k="name" v="Newell Hwy"/>
    <tag k="surface" v="paved"/>
  </node>
  <node id="133556369" version="1" timestamp="2007-11-26T01:40:37Z" uid="4467" user="Rosscoe" changeset="621649" lat="-28.672408" lon="150.314473">
    <tag k="created_by" v="JOSM"/>
    <tag k="highway" v="trunk"/>
    <tag k="name" v="Newell Hwy"/>
    <tag k="surface" v="paved"/>
  </node>
  <node id="133556402" version="1" timestamp="2007-11-26T01:40:38Z" uid="4467" user="Rosscoe" changeset="621649" lat="-28.67302" lon="150.313785">
    <tag k="created_by" v="JOSM"/>
    <tag k="highway" v="trunk"/>
    <tag k="name" v="Newell Hwy"/>
    <tag k="surface" v="paved"/>
  </node>
  <node id="133556431" version="1" timestamp="2007-11-26T01:40:38Z" uid="4467" user="Rosscoe" changeset="621649" lat="-28.672817" lon="150.314013">
    <tag k="created_by" v="JOSM"/>
    <tag k="highway" v="trunk"/>
    <tag k="name" v="Newell Hwy"/>
    <tag k="surface" v="paved"/>
  </node>
  <node id="133556435" version="1" timestamp="2007-11-26T01:40:39Z" uid="4467" user="Rosscoe" changeset="621649" lat="-28.673432" lon="150.31332">
    <tag k="created_by" v="JOSM"/>
    <tag k="highway" v="trunk"/>
    <tag k="name" v="Newell Hwy"/>
    <tag k="surface" v="paved"/>
  </node>
  <node id="133556463" version="1" timestamp="2007-11-26T01:40:40Z" uid="4467" user="Rosscoe" changeset="621649" lat="-28.673228" lon="150.31355">
    <tag k="created_by" v="JOSM"/>
    <tag k="highway" v="trunk"/>
    <tag k="name" v="Newell Hwy"/>
    <tag k="surface" v="paved"/>
  </node>
  <node id="133556496" version="1" timestamp="2007-11-26T01:40:41Z" uid="4467" user="Rosscoe" changeset="621649" lat="-28.666417" lon="150.321162">
    <tag k="created_by" v="JOSM"/>
    <tag k="highway" v="trunk"/>
    <tag k="name" v="Newell Hwy"/>
    <tag k="surface" v="paved"/>
  </node>
  <node id="133556536" version="1" timestamp="2007-11-26T01:40:42Z" uid="4467" user="Rosscoe" changeset="621649" lat="-28.66662" lon="150.32093">
    <tag k="created_by" v="JOSM"/>
    <tag k="highway" v="trunk"/>
    <tag k="name" v="Newell Hwy"/>
    <tag k="surface" v="paved"/>
  </node>
  <node id="133556570" version="1" timestamp="2007-11-26T01:40:43Z" uid="4467" user="Rosscoe" changeset="621649" lat="-28.666825" lon="150.320702">
    <tag k="created_by" v="JOSM"/>
    <tag k="highway" v="trunk"/>
    <tag k="name" v="Newell Hwy"/>
    <tag k="surface" v="paved"/>
  </node>
  <node id="133556621" version="1" timestamp="2007-11-26T01:40:44Z" uid="4467" user="Rosscoe" changeset="621649" lat="-28.667243" lon="150.320238">
    <tag k="created_by" v="JOSM"/>
    <tag k="highway" v="trunk"/>
    <tag k="name" v="Newell Hwy"/>
    <tag k="surface" v="paved"/>
  </node>
  <node id="133556655" version="1" timestamp="2007-11-26T01:40:45Z" uid="4467" user="Rosscoe" changeset="621649" lat="-28.667452" lon="150.320008">
    <tag k="created_by" v="JOSM"/>
    <tag k="highway" v="trunk"/>
    <tag k="name" v="Newell Hwy"/>
    <tag k="surface" v="paved"/>
  </node>
  <node id="133556721" version="1" timestamp="2007-11-26T01:40:47Z" uid="4467" user="Rosscoe" changeset="621649" lat="-28.667865" lon="150.319547">
    <tag k="created_by" v="JOSM"/>
    <tag k="highway" v="trunk"/>
    <tag k="name" v="Newell Hwy"/>
    <tag k="surface" v="paved"/>
  </node>
  <node id="133556738" version="1" timestamp="2007-11-26T01:40:48Z" uid="4467" user="Rosscoe" changeset="621649" lat="-28.668068" lon="150.319318">
    <tag k="created_by" v="JOSM"/>
    <tag k="highway" v="trunk"/>
    <tag k="name" v="Newell Hwy"/>
    <tag k="surface" v="paved"/>
  </node>
  <node id="133556783" version="1" timestamp="2007-11-26T01:40:49Z" uid="4467" user="Rosscoe" changeset="621649" lat="-28.668485" lon="150.31885">
    <tag k="created_by" v="JOSM"/>
    <tag k="highway" v="trunk"/>
    <tag k="name" v="Newell Hwy"/>
    <tag k="surface" v="paved"/>
  </node>
  <node id="133556811" version="1" timestamp="2007-11-26T01:40:49Z" uid="4467" user="Rosscoe" changeset="621649" lat="-28.668688" lon="150.318622">
    <tag k="created_by" v="JOSM"/>
    <tag k="highway" v="trunk"/>
    <tag k="name" v="Newell Hwy"/>
    <tag k="surface" v="paved"/>
  </node>
  <node id="133556841" version="1" timestamp="2007-11-26T01:40:50Z" uid="4467" user="Rosscoe" changeset="621649" lat="-28.668895" lon="150.318392">
    <tag k="created_by" v="JOSM"/>
    <tag k="highway" v="trunk"/>
    <tag k="name" v="Newell Hwy"/>
    <tag k="surface" v="paved"/>
  </node>
  <node id="133556873" version="1" timestamp="2007-11-26T01:40:51Z" uid="4467" user="Rosscoe" changeset="621649" lat="-28.669102" lon="150.318162">
    <tag k="created_by" v="JOSM"/>
    <tag k="highway" v="trunk"/>
    <tag k="name" v="Newell Hwy"/>
    <tag k="surface" v="paved"/>
  </node>
  <node id="133556901" version="1" timestamp="2007-11-26T01:40:52Z" uid="4467" user="Rosscoe" changeset="621649" lat="-28.669307" lon="150.317932">
    <tag k="created_by" v="JOSM"/>
    <tag k="highway" v="trunk"/>
    <tag k="name" v="Newell Hwy"/>
    <tag k="surface" v="paved"/>
  </node>
  <node id="133556938" version="1" timestamp="2007-11-26T01:40:53Z" uid="4467" user="Rosscoe" changeset="621649" lat="-28.669517" lon="150.3177">
    <tag k="created_by" v="JOSM"/>
    <tag k="highway" v="trunk"/>
    <tag k="name" v="Newell Hwy"/>
    <tag k="surface" v="paved"/>
  </node>
  <node id="133556966" version="1" timestamp="2007-11-26T01:40:53Z" uid="4467" user="Rosscoe" changeset="621649" lat="-28.669725" lon="150.317467">
    <tag k="created_by" v="JOSM"/>
    <tag k="highway" v="trunk"/>
    <tag k="name" v="Newell Hwy"/>
    <tag k="surface" v="paved"/>
  </node>
  <node id="133556990" version="1" timestamp="2007-11-26T01:40:54Z" uid="4467" user="Rosscoe" changeset="621649" lat="-28.66993" lon="150.317238">
    <tag k="created_by" v="JOSM"/>
    <tag k="highway" v="trunk"/>
    <tag k="name" v="Newell Hwy"/>
    <tag k="surface" v="paved"/>
  </node>
  <node id="133557014" version="1" timestamp="2007-11-26T01:40:55Z" uid="4467" user="Rosscoe" changeset="621649" lat="-28.670138" lon="150.317008">
    <tag k="created_by" v="JOSM"/>
    <tag k="highway" v="trunk"/>
    <tag k="name" v="Newell Hwy"/>
    <tag k="surface" v="paved"/>
  </node>
  <node id="133557029" version="1" timestamp="2007-11-26T01:40:56Z" uid="4467" user="Rosscoe" changeset="621649" lat="-28.678382" lon="150.307795">
    <tag k="created_by" v="JOSM"/>
    <tag k="highway" v="trunk"/>
    <tag k="name" v="Newell Hwy"/>
    <tag k="surface" v="paved"/>
  </node>
  <node id="133557056" version="1" timestamp="2007-11-26T01:40:56Z" uid="4467" user="Rosscoe" changeset="621649" lat="-28.678175" lon="150.308025">
    <tag k="created_by" v="JOSM"/>
    <tag k="highway" v="trunk"/>
    <tag k="name" v="Newell Hwy"/>
    <tag k="surface" v="paved"/>
  </node>
  <node id="133557083" version="1" timestamp="2007-11-26T01:40:57Z" uid="4467" user="Rosscoe" changeset="621649" lat="-28.677963" lon="150.308258">
    <tag k="created_by" v="JOSM"/>
    <tag k="highway" v="trunk"/>
    <tag k="name" v="Newell Hwy"/>
    <tag k="surface" v="paved"/>
  </node>
  <node id="133557106" version="1" timestamp="2007-11-26T01:40:58Z" uid="4467" user="Rosscoe" changeset="621649" lat="-28.677758" lon="150.308487">
    <tag k="created_by" v="JOSM"/>
    <tag k="highway" v="trunk"/>
    <tag k="name" v="Newell Hwy"/>
    <tag k="surface" v="paved"/>
  </node>
  <node id="133557120" version="1" timestamp="2007-11-26T01:40:59Z" uid="4467" user="Rosscoe" changeset="621649" lat="-28.677552" lon="150.308717">
    <tag k="created_by" v="JOSM"/>
    <tag k="highway" v="trunk"/>
    <tag k="name" v="Newell Hwy"/>
    <tag k="surface" v="paved"/>
  </node>
  <node id="133557146" version="1" timestamp="2007-11-26T01:41:00Z" uid="4467" user="Rosscoe" changeset="621649" lat="-28.677343" lon="150.308947">
    <tag k="created_by" v="JOSM"/>
    <tag k="highway" v="trunk"/>
    <tag k="name" v="Newell Hwy"/>
    <tag k="surface" v="paved"/>
  </node>
  <node id="133557159" version="1" timestamp="2007-11-26T01:41:00Z" uid="4467" user="Rosscoe" changeset="621649" lat="-28.677137" lon="150.309177">
    <tag k="created_by" v="JOSM"/>
    <tag k="highway" v="trunk"/>
    <tag k="name" v="Newell Hwy"/>
    <tag k="surface" v="paved"/>
  </node>
  <node id="133557181" version="1" timestamp="2007-11-26T01:41:01Z" uid="4467" user="Rosscoe" changeset="621649" lat="-28.67693" lon="150.309405">
    <tag k="created_by" v="JOSM"/>
    <tag k="highway" v="trunk"/>
    <tag k="name" v="Newell Hwy"/>
    <tag k="surface" v="paved"/>
  </node>
  <node id="133557199" version="1" timestamp="2007-11-26T01:41:02Z" uid="4467" user="Rosscoe" changeset="621649" lat="-28.680018" lon="150.30595">
    <tag k="created_by" v="JOSM"/>
    <tag k="highway" v="trunk"/>
    <tag k="name" v="Newell Hwy"/>
    <tag k="surface" v="paved"/>
  </node>
  <node id="133557215" version="1" timestamp="2007-11-26T01:41:03Z" uid="4467" user="Rosscoe" changeset="621649" lat="-28.679813" lon="150.30618">
    <tag k="created_by" v="JOSM"/>
    <tag k="highway" v="trunk"/>
    <tag k="name" v="Newell Hwy"/>
    <tag k="surface" v="paved"/>
  </node>
  <node id="133557228" version="1" timestamp="2007-11-26T01:41:04Z" uid="4467" user="Rosscoe" changeset="621649" lat="-28.679608" lon="150.30641">
    <tag k="created_by" v="JOSM"/>
    <tag k="highway" v="trunk"/>
    <tag k="name" v="Newell Hwy"/>
    <tag k="surface" v="paved"/>
  </node>
  <node id="133557245" version="1" timestamp="2007-11-26T01:41:04Z" uid="4467" user="Rosscoe" changeset="621649" lat="-28.679403" lon="150.306642">
    <tag k="created_by" v="JOSM"/>
    <tag k="highway" v="trunk"/>
    <tag k="name" v="Newell Hwy"/>
    <tag k="surface" v="paved"/>
  </node>
  <node id="133557261" version="1" timestamp="2007-11-26T01:41:05Z" uid="4467" user="Rosscoe" changeset="621649" lat="-28.679195" lon="150.306877">
    <tag k="created_by" v="JOSM"/>
    <tag k="highway" v="trunk"/>
    <tag k="name" v="Newell Hwy"/>
    <tag k="surface" v="paved"/>
  </node>
  <node id="133557269" version="1" timestamp="2007-11-26T01:41:06Z" uid="4467" user="Rosscoe" changeset="621649" lat="-28.678995" lon="150.307103">
    <tag k="created_by" v="JOSM"/>
    <tag k="highway" v="trunk"/>
    <tag k="name" v="Newell Hwy"/>
    <tag k="surface" v="paved"/>
  </node>
  <node id="133557291" version="1" timestamp="2007-11-26T01:41:07Z" uid="4467" user="Rosscoe" changeset="621649" lat="-28.678792" lon="150.307333">
    <tag k="created_by" v="JOSM"/>
    <tag k="highway" v="trunk"/>
    <tag k="name" v="Newell Hwy"/>
    <tag k="surface" v="paved"/>
  </node>
  <node id="133557304" version="1" timestamp="2007-11-26T01:41:07Z" uid="4467" user="Rosscoe" changeset="621649" lat="-28.67859" lon="150.307563">
    <tag k="created_by" v="JOSM"/>
    <tag k="highway" v="trunk"/>
    <tag k="name" v="Newell Hwy"/>
    <tag k="surface" v="paved"/>
  </node>
  <node id="133557333" version="1" timestamp="2007-11-26T01:41:08Z" uid="4467" user="Rosscoe" changeset="621649" lat="-28.674872" lon="150.311707">
    <tag k="created_by" v="JOSM"/>
    <tag k="highway" v="trunk"/>
    <tag k="name" v="Newell Hwy"/>
    <tag k="surface" v="paved"/>
  </node>
  <node id="133557357" version="1" timestamp="2007-11-26T01:41:09Z" uid="4467" user="Rosscoe" changeset="621649" lat="-28.675077" lon="150.311475">
    <tag k="created_by" v="JOSM"/>
    <tag k="highway" v="trunk"/>
    <tag k="name" v="Newell Hwy"/>
    <tag k="surface" v="paved"/>
  </node>
  <node id="133557373" version="1" timestamp="2007-11-26T01:41:10Z" uid="4467" user="Rosscoe" changeset="621649" lat="-28.674458" lon="150.312168">
    <tag k="created_by" v="JOSM"/>
    <tag k="highway" v="trunk"/>
    <tag k="name" v="Newell Hwy"/>
    <tag k="surface" v="paved"/>
  </node>
  <node id="133557399" version="1" timestamp="2007-11-26T01:41:11Z" uid="4467" user="Rosscoe" changeset="621649" lat="-28.674668" lon="150.311935">
    <tag k="created_by" v="JOSM"/>
    <tag k="highway" v="trunk"/>
    <tag k="name" v="Newell Hwy"/>
    <tag k="surface" v="paved"/>
  </node>
  <node id="133557423" version="1" timestamp="2007-11-26T01:41:11Z" uid="4467" user="Rosscoe" changeset="621649" lat="-28.674048" lon="150.312628">
    <tag k="created_by" v="JOSM"/>
    <tag k="highway" v="trunk"/>
    <tag k="name" v="Newell Hwy"/>
    <tag k="surface" v="paved"/>
  </node>
  <node id="133557446" version="1" timestamp="2007-11-26T01:41:12Z" uid="4467" user="Rosscoe" changeset="621649" lat="-28.67425" lon="150.312402">
    <tag k="created_by" v="JOSM"/>
    <tag k="highway" v="trunk"/>
    <tag k="name" v="Newell Hwy"/>
    <tag k="surface" v="paved"/>
  </node>
  <node id="133557464" version="1" timestamp="2007-11-26T01:41:13Z" uid="4467" user="Rosscoe" changeset="621649" lat="-28.673638" lon="150.313088">
    <tag k="created_by" v="JOSM"/>
    <tag k="highway" v="trunk"/>
    <tag k="name" v="Newell Hwy"/>
    <tag k="surface" v="paved"/>
  </node>
  <node id="133557492" version="1" timestamp="2007-11-26T01:41:14Z" uid="4467" user="Rosscoe" changeset="621649" lat="-28.673843" lon="150.312858">
    <tag k="created_by" v="JOSM"/>
    <tag k="highway" v="trunk"/>
    <tag k="name" v="Newell Hwy"/>
    <tag k="surface" v="paved"/>
  </node>
  <node id="133557519" version="1" timestamp="2007-11-26T01:41:15Z" uid="4467" user="Rosscoe" changeset="621649" lat="-28.67652" lon="150.309867">
    <tag k="created_by" v="JOSM"/>
    <tag k="highway" v="trunk"/>
    <tag k="name" v="Newell Hwy"/>
    <tag k="surface" v="paved"/>
  </node>
  <node id="133557556" version="1" timestamp="2007-11-26T01:41:15Z" uid="4467" user="Rosscoe" changeset="621649" lat="-28.67672" lon="150.30964">
    <tag k="created_by" v="JOSM"/>
    <tag k="highway" v="trunk"/>
    <tag k="name" v="Newell Hwy"/>
    <tag k="surface" v="paved"/>
  </node>
  <node id="133557578" version="1" timestamp="2007-11-26T01:41:16Z" uid="4467" user="Rosscoe" changeset="621649" lat="-28.676108" lon="150.310325">
    <tag k="created_by" v="JOSM"/>
    <tag k="highway" v="trunk"/>
    <tag k="name" v="Newell Hwy"/>
    <tag k="surface" v="paved"/>
  </node>
  <node id="133557604" version="1" timestamp="2007-11-26T01:41:17Z" uid="4467" user="Rosscoe" changeset="621649" lat="-28.676313" lon="150.310097">
    <tag k="created_by" v="JOSM"/>
    <tag k="highway" v="trunk"/>
    <tag k="name" v="Newell Hwy"/>
    <tag k="surface" v="paved"/>
  </node>
  <node id="133557628" version="1" timestamp="2007-11-26T01:41:18Z" uid="4467" user="Rosscoe" changeset="621649" lat="-28.675695" lon="150.310783">
    <tag k="created_by" v="JOSM"/>
    <tag k="highway" v="trunk"/>
    <tag k="name" v="Newell Hwy"/>
    <tag k="surface" v="paved"/>
  </node>
  <node id="133557651" version="1" timestamp="2007-11-26T01:41:18Z" uid="4467" user="Rosscoe" changeset="621649" lat="-28.675903" lon="150.310552">
    <tag k="created_by" v="JOSM"/>
    <tag k="highway" v="trunk"/>
    <tag k="name" v="Newell Hwy"/>
    <tag k="surface" v="paved"/>
  </node>
  <node id="133557672" version="1" timestamp="2007-11-26T01:41:19Z" uid="4467" user="Rosscoe" changeset="621649" lat="-28.675282" lon="150.311245">
    <tag k="created_by" v="JOSM"/>
    <tag k="highway" v="trunk"/>
    <tag k="name" v="Newell Hwy"/>
    <tag k="surface" v="paved"/>
  </node>
  <node id="133557696" version="1" timestamp="2007-11-26T01:41:20Z" uid="4467" user="Rosscoe" changeset="621649" lat="-28.675487" lon="150.311017">
    <tag k="created_by" v="JOSM"/>
    <tag k="highway" v="trunk"/>
    <tag k="name" v="Newell Hwy"/>
    <tag k="surface" v="paved"/>
  </node>
  <node id="133557716" version="1" timestamp="2007-11-26T01:41:21Z" uid="4467" user="Rosscoe" changeset="621649" lat="-28.684763" lon="150.30064">
    <tag k="created_by" v="JOSM"/>
    <tag k="highway" v="trunk"/>
    <tag k="name" v="Newell Hwy"/>
    <tag k="surface" v="paved"/>
  </node>
  <node id="133557733" version="1" timestamp="2007-11-26T01:41:22Z" uid="4467" user="Rosscoe" changeset="621649" lat="-28.684555" lon="150.300872">
    <tag k="created_by" v="JOSM"/>
    <tag k="highway" v="trunk"/>
    <tag k="name" v="Newell Hwy"/>
    <tag k="surface" v="paved"/>
  </node>
  <node id="133557761" version="1" timestamp="2007-11-26T01:41:22Z" uid="4467" user="Rosscoe" changeset="621649" lat="-28.685177" lon="150.30018">
    <tag k="created_by" v="JOSM"/>
    <tag k="highway" v="trunk"/>
    <tag k="name" v="Newell Hwy"/>
    <tag k="surface" v="paved"/>
  </node>
  <node id="133557791" version="1" timestamp="2007-11-26T01:41:23Z" uid="4467" user="Rosscoe" changeset="621649" lat="-28.684972" lon="150.300408">
    <tag k="created_by" v="JOSM"/>
    <tag k="highway" v="trunk"/>
    <tag k="name" v="Newell Hwy"/>
    <tag k="surface" v="paved"/>
  </node>
  <node id="133557820" version="1" timestamp="2007-11-26T01:41:24Z" uid="4467" user="Rosscoe" changeset="621649" lat="-28.683935" lon="150.301565">
    <tag k="created_by" v="JOSM"/>
    <tag k="highway" v="trunk"/>
    <tag k="name" v="Newell Hwy"/>
    <tag k="surface" v="paved"/>
  </node>
  <node id="133557846" version="1" timestamp="2007-11-26T01:41:25Z" uid="4467" user="Rosscoe" changeset="621649" lat="-28.683727" lon="150.301795">
    <tag k="created_by" v="JOSM"/>
    <tag k="highway" v="trunk"/>
    <tag k="name" v="Newell Hwy"/>
    <tag k="surface" v="paved"/>
  </node>
  <node id="133557877" version="1" timestamp="2007-11-26T01:41:25Z" uid="4467" user="Rosscoe" changeset="621649" lat="-28.684348" lon="150.301105">
    <tag k="created_by" v="JOSM"/>
    <tag k="highway" v="trunk"/>
    <tag k="name" v="Newell Hwy"/>
    <tag k="surface" v="paved"/>
  </node>
  <node id="133557910" version="1" timestamp="2007-11-26T01:41:26Z" uid="4467" user="Rosscoe" changeset="621649" lat="-28.684138" lon="150.301338">
    <tag k="created_by" v="JOSM"/>
    <tag k="highway" v="trunk"/>
    <tag k="name" v="Newell Hwy"/>
    <tag k="surface" v="paved"/>
  </node>
  <node id="133557936" version="1" timestamp="2007-11-26T01:41:27Z" uid="4467" user="Rosscoe" changeset="621649" lat="-28.686417" lon="150.298793">
    <tag k="created_by" v="JOSM"/>
    <tag k="highway" v="trunk"/>
    <tag k="name" v="Newell Hwy"/>
    <tag k="surface" v="paved"/>
  </node>
  <node id="133557962" version="1" timestamp="2007-11-26T01:41:28Z" uid="4467" user="Rosscoe" changeset="621649" lat="-28.68621" lon="150.299023">
    <tag k="created_by" v="JOSM"/>
    <tag k="highway" v="trunk"/>
    <tag k="name" v="Newell Hwy"/>
    <tag k="surface" v="paved"/>
  </node>
  <node id="133557986" version="1" timestamp="2007-11-26T01:41:29Z" uid="4467" user="Rosscoe" changeset="621649" lat="-28.686832" lon="150.298337">
    <tag k="created_by" v="JOSM"/>
    <tag k="highway" v="trunk"/>
    <tag k="name" v="Newell Hwy"/>
    <tag k="surface" v="paved"/>
  </node>
  <node id="133558023" version="1" timestamp="2007-11-26T01:41:29Z" uid="4467" user="Rosscoe" changeset="621649" lat="-28.686623" lon="150.298568">
    <tag k="created_by" v="JOSM"/>
    <tag k="highway" v="trunk"/>
    <tag k="name" v="Newell Hwy"/>
    <tag k="surface" v="paved"/>
  </node>
  <node id="133558058" version="1" timestamp="2007-11-26T01:41:30Z" uid="4467" user="Rosscoe" changeset="621649" lat="-28.68559" lon="150.299715">
    <tag k="created_by" v="JOSM"/>
    <tag k="highway" v="trunk"/>
    <tag k="name" v="Newell Hwy"/>
    <tag k="surface" v="paved"/>
  </node>
  <node id="133558082" version="1" timestamp="2007-11-26T01:41:31Z" uid="4467" user="Rosscoe" changeset="621649" lat="-28.685382" lon="150.29995">
    <tag k="created_by" v="JOSM"/>
    <tag k="highway" v="trunk"/>
    <tag k="name" v="Newell Hwy"/>
    <tag k="surface" v="paved"/>
  </node>
  <node id="133558103" version="1" timestamp="2007-11-26T01:41:32Z" uid="4467" user="Rosscoe" changeset="621649" lat="-28.686003" lon="150.299253">
    <tag k="created_by" v="JOSM"/>
    <tag k="highway" v="trunk"/>
    <tag k="name" v="Newell Hwy"/>
    <tag k="surface" v="paved"/>
  </node>
  <node id="133558137" version="1" timestamp="2007-11-26T01:41:32Z" uid="4467" user="Rosscoe" changeset="621649" lat="-28.685797" lon="150.299483">
    <tag k="created_by" v="JOSM"/>
    <tag k="highway" v="trunk"/>
    <tag k="name" v="Newell Hwy"/>
    <tag k="surface" v="paved"/>
  </node>
  <node id="133558156" version="1" timestamp="2007-11-26T01:41:33Z" uid="4467" user="Rosscoe" changeset="621649" lat="-28.68125" lon="150.304568">
    <tag k="created_by" v="JOSM"/>
    <tag k="highway" v="trunk"/>
    <tag k="name" v="Newell Hwy"/>
    <tag k="surface" v="paved"/>
  </node>
  <node id="133558175" version="1" timestamp="2007-11-26T01:41:34Z" uid="4467" user="Rosscoe" changeset="621649" lat="-28.681457" lon="150.304337">
    <tag k="created_by" v="JOSM"/>
    <tag k="highway" v="trunk"/>
    <tag k="name" v="Newell Hwy"/>
    <tag k="surface" v="paved"/>
  </node>
  <node id="133558200" version="1" timestamp="2007-11-26T01:41:35Z" uid="4467" user="Rosscoe" changeset="621649" lat="-28.681662" lon="150.30411">
    <tag k="created_by" v="JOSM"/>
    <tag k="highway" v="trunk"/>
    <tag k="name" v="Newell Hwy"/>
    <tag k="surface" v="paved"/>
  </node>
  <node id="133558233" version="1" timestamp="2007-11-26T01:41:36Z" uid="4467" user="Rosscoe" changeset="621649" lat="-28.68187" lon="150.303877">
    <tag k="created_by" v="JOSM"/>
    <tag k="highway" v="trunk"/>
    <tag k="name" v="Newell Hwy"/>
    <tag k="surface" v="paved"/>
  </node>
  <node id="133558255" version="1" timestamp="2007-11-26T01:41:36Z" uid="4467" user="Rosscoe" changeset="621649" lat="-28.680427" lon="150.305492">
    <tag k="created_by" v="JOSM"/>
    <tag k="highway" v="trunk"/>
    <tag k="name" v="Newell Hwy"/>
    <tag k="surface" v="paved"/>
  </node>
  <node id="133558282" version="1" timestamp="2007-11-26T01:41:37Z" uid="4467" user="Rosscoe" changeset="621649" lat="-28.680635" lon="150.305262">
    <tag k="created_by" v="JOSM"/>
    <tag k="highway" v="trunk"/>
    <tag k="name" v="Newell Hwy"/>
    <tag k="surface" v="paved"/>
  </node>
  <node id="133558310" version="1" timestamp="2007-11-26T01:41:38Z" uid="4467" user="Rosscoe" changeset="621649" lat="-28.680842" lon="150.305028">
    <tag k="created_by" v="JOSM"/>
    <tag k="highway" v="trunk"/>
    <tag k="name" v="Newell Hwy"/>
    <tag k="surface" v="paved"/>
  </node>
  <node id="133558344" version="1" timestamp="2007-11-26T01:41:39Z" uid="4467" user="Rosscoe" changeset="621649" lat="-28.681045" lon="150.3048">
    <tag k="created_by" v="JOSM"/>
    <tag k="highway" v="trunk"/>
    <tag k="name" v="Newell Hwy"/>
    <tag k="surface" v="paved"/>
  </node>
  <node id="133558369" version="1" timestamp="2007-11-26T01:41:39Z" uid="4467" user="Rosscoe" changeset="621649" lat="-28.682902" lon="150.302722">
    <tag k="created_by" v="JOSM"/>
    <tag k="highway" v="trunk"/>
    <tag k="name" v="Newell Hwy"/>
    <tag k="surface" v="paved"/>
  </node>
  <node id="133558395" version="1" timestamp="2007-11-26T01:41:40Z" uid="4467" user="Rosscoe" changeset="621649" lat="-28.683108" lon="150.302488">
    <tag k="created_by" v="JOSM"/>
    <tag k="highway" v="trunk"/>
    <tag k="name" v="Newell Hwy"/>
    <tag k="surface" v="paved"/>
  </node>
  <node id="133558426" version="1" timestamp="2007-11-26T01:41:41Z" uid="4467" user="Rosscoe" changeset="621649" lat="-28.683318" lon="150.302252">
    <tag k="created_by" v="JOSM"/>
    <tag k="highway" v="trunk"/>
    <tag k="name" v="Newell Hwy"/>
    <tag k="surface" v="paved"/>
  </node>
  <node id="133558449" version="1" timestamp="2007-11-26T01:41:42Z" uid="4467" user="Rosscoe" changeset="621649" lat="-28.68352" lon="150.302025">
    <tag k="created_by" v="JOSM"/>
    <tag k="highway" v="trunk"/>
    <tag k="name" v="Newell Hwy"/>
    <tag k="surface" v="paved"/>
  </node>
  <node id="133558479" version="1" timestamp="2007-11-26T01:41:43Z" uid="4467" user="Rosscoe" changeset="621649" lat="-28.68208" lon="150.303643">
    <tag k="created_by" v="JOSM"/>
    <tag k="highway" v="trunk"/>
    <tag k="name" v="Newell Hwy"/>
    <tag k="surface" v="paved"/>
  </node>
  <node id="133558510" version="1" timestamp="2007-11-26T01:41:43Z" uid="4467" user="Rosscoe" changeset="621649" lat="-28.682285" lon="150.303415">
    <tag k="created_by" v="JOSM"/>
    <tag k="highway" v="trunk"/>
    <tag k="name" v="Newell Hwy"/>
    <tag k="surface" v="paved"/>
  </node>
  <node id="133558533" version="1" timestamp="2007-11-26T01:41:44Z" uid="4467" user="Rosscoe" changeset="621649" lat="-28.682492" lon="150.303183">
    <tag k="created_by" v="JOSM"/>
    <tag k="highway" v="trunk"/>
    <tag k="name" v="Newell Hwy"/>
    <tag k="surface" v="paved"/>
  </node>
  <node id="133558557" version="1" timestamp="2007-11-26T01:41:45Z" uid="4467" user="Rosscoe" changeset="621649" lat="-28.6827" lon="150.30295">
    <tag k="created_by" v="JOSM"/>
    <tag k="highway" v="trunk"/>
    <tag k="name" v="Newell Hwy"/>
    <tag k="surface" v="paved"/>
  </node>
  <node id="133558576" version="1" timestamp="2007-11-26T01:41:46Z" uid="4467" user="Rosscoe" changeset="621649" lat="-28.692398" lon="150.292113">
    <tag k="created_by" v="JOSM"/>
    <tag k="highway" v="trunk"/>
    <tag k="name" v="Newell Hwy"/>
    <tag k="surface" v="paved"/>
  </node>
  <node id="133558596" version="1" timestamp="2007-11-26T01:41:46Z" uid="4467" user="Rosscoe" changeset="621649" lat="-28.692603" lon="150.291882">
    <tag k="created_by" v="JOSM"/>
    <tag k="highway" v="trunk"/>
    <tag k="name" v="Newell Hwy"/>
    <tag k="surface" v="paved"/>
  </node>
  <node id="133558625" version="1" timestamp="2007-11-26T01:41:47Z" uid="4467" user="Rosscoe" changeset="621649" lat="-28.691983" lon="150.292577">
    <tag k="created_by" v="JOSM"/>
    <tag k="highway" v="trunk"/>
    <tag k="name" v="Newell Hwy"/>
    <tag k="surface" v="paved"/>
  </node>
  <node id="133558644" version="1" timestamp="2007-11-26T01:41:48Z" uid="4467" user="Rosscoe" changeset="621649" lat="-28.692192" lon="150.292345">
    <tag k="created_by" v="JOSM"/>
    <tag k="highway" v="trunk"/>
    <tag k="name" v="Newell Hwy"/>
    <tag k="surface" v="paved"/>
  </node>
  <node id="133558665" version="1" timestamp="2007-11-26T01:41:49Z" uid="4467" user="Rosscoe" changeset="621649" lat="-28.694045" lon="150.290272">
    <tag k="created_by" v="JOSM"/>
    <tag k="highway" v="trunk"/>
    <tag k="name" v="Newell Hwy"/>
    <tag k="surface" v="paved"/>
  </node>
  <node id="133558687" version="1" timestamp="2007-11-26T01:41:50Z" uid="4467" user="Rosscoe" changeset="621649" lat="-28.694255" lon="150.290038">
    <tag k="created_by" v="JOSM"/>
    <tag k="highway" v="trunk"/>
    <tag k="name" v="Newell Hwy"/>
    <tag k="surface" v="paved"/>
  </node>
  <node id="133558709" version="1" timestamp="2007-11-26T01:41:50Z" uid="4467" user="Rosscoe" changeset="621649" lat="-28.693633" lon="150.290732">
    <tag k="created_by" v="JOSM"/>
    <tag k="highway" v="trunk"/>
    <tag k="name" v="Newell Hwy"/>
    <tag k="surface" v="paved"/>
  </node>
  <node id="133558737" version="1" timestamp="2007-11-26T01:41:51Z" uid="4467" user="Rosscoe" changeset="621649" lat="-28.69384" lon="150.290502">
    <tag k="created_by" v="JOSM"/>
    <tag k="highway" v="trunk"/>
    <tag k="name" v="Newell Hwy"/>
    <tag k="surface" v="paved"/>
  </node>
  <node id="133558758" version="1" timestamp="2007-11-26T01:41:52Z" uid="4467" user="Rosscoe" changeset="621649" lat="-28.690745" lon="150.293957">
    <tag k="created_by" v="JOSM"/>
    <tag k="highway" v="trunk"/>
    <tag k="name" v="Newell Hwy"/>
    <tag k="surface" v="paved"/>
  </node>
  <node id="133558789" version="1" timestamp="2007-11-26T01:41:53Z" uid="4467" user="Rosscoe" changeset="621649" lat="-28.690952" lon="150.293727">
    <tag k="created_by" v="JOSM"/>
    <tag k="highway" v="trunk"/>
    <tag k="name" v="Newell Hwy"/>
    <tag k="surface" v="paved"/>
  </node>
  <node id="133558814" version="1" timestamp="2007-11-26T01:41:53Z" uid="4467" user="Rosscoe" changeset="621649" lat="-28.690332" lon="150.29442">
    <tag k="created_by" v="JOSM"/>
    <tag k="highway" v="trunk"/>
    <tag k="name" v="Newell Hwy"/>
    <tag k="surface" v="paved"/>
  </node>
  <node id="133558838" version="1" timestamp="2007-11-26T01:41:54Z" uid="4467" user="Rosscoe" changeset="621649" lat="-28.69054" lon="150.294187">
    <tag k="created_by" v="JOSM"/>
    <tag k="highway" v="trunk"/>
    <tag k="name" v="Newell Hwy"/>
    <tag k="surface" v="paved"/>
  </node>
  <node id="133558866" version="1" timestamp="2007-11-26T01:41:55Z" uid="4467" user="Rosscoe" changeset="621649" lat="-28.69157" lon="150.29304">
    <tag k="created_by" v="JOSM"/>
    <tag k="highway" v="trunk"/>
    <tag k="name" v="Newell Hwy"/>
    <tag k="surface" v="paved"/>
  </node>
  <node id="133558894" version="1" timestamp="2007-11-26T01:41:56Z" uid="4467" user="Rosscoe" changeset="621649" lat="-28.691778" lon="150.292807">
    <tag k="created_by" v="JOSM"/>
    <tag k="highway" v="trunk"/>
    <tag k="name" v="Newell Hwy"/>
    <tag k="surface" v="paved"/>
  </node>
  <node id="133558905" version="1" timestamp="2007-11-26T01:41:56Z" uid="4467" user="Rosscoe" changeset="621649" lat="-28.691158" lon="150.293497">
    <tag k="created_by" v="JOSM"/>
    <tag k="highway" v="trunk"/>
    <tag k="name" v="Newell Hwy"/>
    <tag k="surface" v="paved"/>
  </node>
  <node id="133558928" version="1" timestamp="2007-11-26T01:41:57Z" uid="4467" user="Rosscoe" changeset="621649" lat="-28.691365" lon="150.293267">
    <tag k="created_by" v="JOSM"/>
    <tag k="highway" v="trunk"/>
    <tag k="name" v="Newell Hwy"/>
    <tag k="surface" v="paved"/>
  </node>
  <node id="133558960" version="1" timestamp="2007-11-26T01:41:58Z" uid="4467" user="Rosscoe" changeset="621649" lat="-28.6893" lon="150.295572">
    <tag k="created_by" v="JOSM"/>
    <tag k="highway" v="trunk"/>
    <tag k="name" v="Newell Hwy"/>
    <tag k="surface" v="paved"/>
  </node>
  <node id="133558986" version="1" timestamp="2007-11-26T01:41:59Z" uid="4467" user="Rosscoe" changeset="621649" lat="-28.689092" lon="150.295805">
    <tag k="created_by" v="JOSM"/>
    <tag k="highway" v="trunk"/>
    <tag k="name" v="Newell Hwy"/>
    <tag k="surface" v="paved"/>
  </node>
  <node id="133559018" version="1" timestamp="2007-11-26T01:42:00Z" uid="4467" user="Rosscoe" changeset="621649" lat="-28.688888" lon="150.296033">
    <tag k="created_by" v="JOSM"/>
    <tag k="highway" v="trunk"/>
    <tag k="name" v="Newell Hwy"/>
    <tag k="surface" v="paved"/>
  </node>
  <node id="133559045" version="1" timestamp="2007-11-26T01:42:00Z" uid="4467" user="Rosscoe" changeset="621649" lat="-28.688682" lon="150.296263">
    <tag k="created_by" v="JOSM"/>
    <tag k="highway" v="trunk"/>
    <tag k="name" v="Newell Hwy"/>
    <tag k="surface" v="paved"/>
  </node>
  <node id="133559077" version="1" timestamp="2007-11-26T01:42:02Z" uid="4467" user="Rosscoe" changeset="621649" lat="-28.690127" lon="150.294648">
    <tag k="created_by" v="JOSM"/>
    <tag k="highway" v="trunk"/>
    <tag k="name" v="Newell Hwy"/>
    <tag k="surface" v="paved"/>
  </node>
  <node id="133559100" version="1" timestamp="2007-11-26T01:42:02Z" uid="4467" user="Rosscoe" changeset="621649" lat="-28.689922" lon="150.294877">
    <tag k="created_by" v="JOSM"/>
    <tag k="highway" v="trunk"/>
    <tag k="name" v="Newell Hwy"/>
    <tag k="surface" v="paved"/>
  </node>
  <node id="133559133" version="1" timestamp="2007-11-26T01:42:03Z" uid="4467" user="Rosscoe" changeset="621649" lat="-28.689713" lon="150.295108">
    <tag k="created_by" v="JOSM"/>
    <tag k="highway" v="trunk"/>
    <tag k="name" v="Newell Hwy"/>
    <tag k="surface" v="paved"/>
  </node>
  <node id="133559160" version="1" timestamp="2007-11-26T01:42:04Z" uid="4467" user="Rosscoe" changeset="621649" lat="-28.689507" lon="150.29534">
    <tag k="created_by" v="JOSM"/>
    <tag k="highway" v="trunk"/>
    <tag k="name" v="Newell Hwy"/>
    <tag k="surface" v="paved"/>
  </node>
  <node id="133559187" version="1" timestamp="2007-11-26T01:42:05Z" uid="4467" user="Rosscoe" changeset="621649" lat="-28.687658" lon="150.297417">
    <tag k="created_by" v="JOSM"/>
    <tag k="highway" v="trunk"/>
    <tag k="name" v="Newell Hwy"/>
    <tag k="surface" v="paved"/>
  </node>
  <node id="133559210" version="1" timestamp="2007-11-26T01:42:05Z" uid="4467" user="Rosscoe" changeset="621649" lat="-28.687452" lon="150.297647">
    <tag k="created_by" v="JOSM"/>
    <tag k="highway" v="trunk"/>
    <tag k="name" v="Newell Hwy"/>
    <tag k="surface" v="paved"/>
  </node>
  <node id="133559238" version="1" timestamp="2007-11-26T01:42:06Z" uid="4467" user="Rosscoe" changeset="621649" lat="-28.687245" lon="150.297877">
    <tag k="created_by" v="JOSM"/>
    <tag k="highway" v="trunk"/>
    <tag k="name" v="Newell Hwy"/>
    <tag k="surface" v="paved"/>
  </node>
  <node id="133559265" version="1" timestamp="2007-11-26T01:42:07Z" uid="4467" user="Rosscoe" changeset="621649" lat="-28.687042" lon="150.298103">
    <tag k="created_by" v="JOSM"/>
    <tag k="highway" v="trunk"/>
    <tag k="name" v="Newell Hwy"/>
    <tag k="surface" v="paved"/>
  </node>
  <node id="133559294" version="1" timestamp="2007-11-26T01:42:08Z" uid="4467" user="Rosscoe" changeset="621649" lat="-28.688477" lon="150.296493">
    <tag k="created_by" v="JOSM"/>
    <tag k="highway" v="trunk"/>
    <tag k="name" v="Newell Hwy"/>
    <tag k="surface" v="paved"/>
  </node>
  <node id="133559322" version="1" timestamp="2007-11-26T01:42:08Z" uid="4467" user="Rosscoe" changeset="621649" lat="-28.688273" lon="150.296722">
    <tag k="created_by" v="JOSM"/>
    <tag k="highway" v="trunk"/>
    <tag k="name" v="Newell Hwy"/>
    <tag k="surface" v="paved"/>
  </node>
  <node id="133559342" version="1" timestamp="2007-11-26T01:42:09Z" uid="4467" user="Rosscoe" changeset="621649" lat="-28.688067" lon="150.296955">
    <tag k="created_by" v="JOSM"/>
    <tag k="highway" v="trunk"/>
    <tag k="name" v="Newell Hwy"/>
    <tag k="surface" v="paved"/>
  </node>
  <node id="133559366" version="1" timestamp="2007-11-26T01:42:10Z" uid="4467" user="Rosscoe" changeset="621649" lat="-28.687858" lon="150.297188">
    <tag k="created_by" v="JOSM"/>
    <tag k="highway" v="trunk"/>
    <tag k="name" v="Newell Hwy"/>
    <tag k="surface" v="paved"/>
  </node>
  <node id="133559389" version="1" timestamp="2007-11-26T01:42:11Z" uid="4467" user="Rosscoe" changeset="621649" lat="-28.700045" lon="150.283607">
    <tag k="created_by" v="JOSM"/>
    <tag k="highway" v="trunk"/>
    <tag k="name" v="Newell Hwy"/>
    <tag k="surface" v="paved"/>
  </node>
  <node id="133559415" version="1" timestamp="2007-11-26T01:42:12Z" uid="4467" user="Rosscoe" changeset="621649" lat="-28.700263" lon="150.283395">
    <tag k="created_by" v="JOSM"/>
    <tag k="highway" v="trunk"/>
    <tag k="name" v="Newell Hwy"/>
    <tag k="surface" v="paved"/>
  </node>
  <node id="133559456" version="1" timestamp="2007-11-26T01:42:12Z" uid="4467" user="Rosscoe" changeset="621649" lat="-28.70049" lon="150.283185">
    <tag k="created_by" v="JOSM"/>
    <tag k="highway" v="trunk"/>
    <tag k="name" v="Newell Hwy"/>
    <tag k="surface" v="paved"/>
  </node>
  <node id="133559490" version="1" timestamp="2007-11-26T01:42:13Z" uid="4467" user="Rosscoe" changeset="621649" lat="-28.700718" lon="150.28298">
    <tag k="created_by" v="JOSM"/>
    <tag k="highway" v="trunk"/>
    <tag k="name" v="Newell Hwy"/>
    <tag k="surface" v="paved"/>
  </node>
  <node id="133559516" version="1" timestamp="2007-11-26T01:42:14Z" uid="4467" user="Rosscoe" changeset="621649" lat="-28.700947" lon="150.282785">
    <tag k="created_by" v="JOSM"/>
    <tag k="highway" v="trunk"/>
    <tag k="name" v="Newell Hwy"/>
    <tag k="surface" v="paved"/>
  </node>
  <node id="133559547" version="1" timestamp="2007-11-26T01:42:15Z" uid="4467" user="Rosscoe" changeset="621649" lat="-28.701182" lon="150.282593">
    <tag k="created_by" v="JOSM"/>
    <tag k="highway" v="trunk"/>
    <tag k="name" v="Newell Hwy"/>
    <tag k="surface" v="paved"/>
  </node>
  <node id="133559573" version="1" timestamp="2007-11-26T01:42:16Z" uid="4467" user="Rosscoe" changeset="621649" lat="-28.701418" lon="150.282408">
    <tag k="created_by" v="JOSM"/>
    <tag k="highway" v="trunk"/>
    <tag k="name" v="Newell Hwy"/>
    <tag k="surface" v="paved"/>
  </node>
  <node id="133559597" version="1" timestamp="2007-11-26T01:42:16Z" uid="4467" user="Rosscoe" changeset="621649" lat="-28.701657" lon="150.28223">
    <tag k="created_by" v="JOSM"/>
    <tag k="highway" v="trunk"/>
    <tag k="name" v="Newell Hwy"/>
    <tag k="surface" v="paved"/>
  </node>
  <node id="133559628" version="1" timestamp="2007-11-26T01:42:17Z" uid="4467" user="Rosscoe" changeset="621649" lat="-28.698375" lon="150.28542">
    <tag k="created_by" v="JOSM"/>
    <tag k="highway" v="trunk"/>
    <tag k="name" v="Newell Hwy"/>
    <tag k="surface" v="paved"/>
  </node>
  <node id="133559661" version="1" timestamp="2007-11-26T01:42:18Z" uid="4467" user="Rosscoe" changeset="621649" lat="-28.69858" lon="150.28519">
    <tag k="created_by" v="JOSM"/>
    <tag k="highway" v="trunk"/>
    <tag k="name" v="Newell Hwy"/>
    <tag k="surface" v="paved"/>
  </node>
  <node id="133559696" version="1" timestamp="2007-11-26T01:42:19Z" uid="4467" user="Rosscoe" changeset="621649" lat="-28.698785" lon="150.284958">
    <tag k="created_by" v="JOSM"/>
    <tag k="highway" v="trunk"/>
    <tag k="name" v="Newell Hwy"/>
    <tag k="surface" v="paved"/>
  </node>
  <node id="133559728" version="1" timestamp="2007-11-26T01:42:19Z" uid="4467" user="Rosscoe" changeset="621649" lat="-28.69899" lon="150.284732">
    <tag k="created_by" v="JOSM"/>
    <tag k="highway" v="trunk"/>
    <tag k="name" v="Newell Hwy"/>
    <tag k="surface" v="paved"/>
  </node>
  <node id="133559762" version="1" timestamp="2007-11-26T01:42:20Z" uid="4467" user="Rosscoe" changeset="621649" lat="-28.699198" lon="150.2845">
    <tag k="created_by" v="JOSM"/>
    <tag k="highway" v="trunk"/>
    <tag k="name" v="Newell Hwy"/>
    <tag k="surface" v="paved"/>
  </node>
  <node id="133559796" version="1" timestamp="2007-11-26T01:42:21Z" uid="4467" user="Rosscoe" changeset="621649" lat="-28.699407" lon="150.28427">
    <tag k="created_by" v="JOSM"/>
    <tag k="highway" v="trunk"/>
    <tag k="name" v="Newell Hwy"/>
    <tag k="surface" v="paved"/>
  </node>
  <node id="133559820" version="1" timestamp="2007-11-26T01:42:22Z" uid="4467" user="Rosscoe" changeset="621649" lat="-28.699615" lon="150.284047">
    <tag k="created_by" v="JOSM"/>
    <tag k="highway" v="trunk"/>
    <tag k="name" v="Newell Hwy"/>
    <tag k="surface" v="paved"/>
  </node>
  <node id="133559848" version="1" timestamp="2007-11-26T01:42:23Z" uid="4467" user="Rosscoe" changeset="621649" lat="-28.699828" lon="150.283823">
    <tag k="created_by" v="JOSM"/>
    <tag k="highway" v="trunk"/>
    <tag k="name" v="Newell Hwy"/>
    <tag k="surface" v="paved"/>
  </node>
  <node id="133559882" version="1" timestamp="2007-11-26T01:42:23Z" uid="4467" user="Rosscoe" changeset="621649" lat="-28.696518" lon="150.287505">
    <tag k="created_by" v="JOSM"/>
    <tag k="highway" v="trunk"/>
    <tag k="name" v="Newell Hwy"/>
    <tag k="surface" v="paved"/>
  </node>
  <node id="133559912" version="1" timestamp="2007-11-26T01:42:24Z" uid="4467" user="Rosscoe" changeset="621649" lat="-28.696312" lon="150.287732">
    <tag k="created_by" v="JOSM"/>
    <tag k="highway" v="trunk"/>
    <tag k="name" v="Newell Hwy"/>
    <tag k="surface" v="paved"/>
  </node>
  <node id="133559940" version="1" timestamp="2007-11-26T01:42:25Z" uid="4467" user="Rosscoe" changeset="621649" lat="-28.696932" lon="150.287038">
    <tag k="created_by" v="JOSM"/>
    <tag k="highway" v="trunk"/>
    <tag k="name" v="Newell Hwy"/>
    <tag k="surface" v="paved"/>
  </node>
  <node id="133559956" version="1" timestamp="2007-11-26T01:42:26Z" uid="4467" user="Rosscoe" changeset="621649" lat="-28.696727" lon="150.28727">
    <tag k="created_by" v="JOSM"/>
    <tag k="highway" v="trunk"/>
    <tag k="name" v="Newell Hwy"/>
    <tag k="surface" v="paved"/>
  </node>
  <node id="133559986" version="1" timestamp="2007-11-26T01:42:26Z" uid="4467" user="Rosscoe" changeset="621649" lat="-28.697552" lon="150.286345">
    <tag k="created_by" v="JOSM"/>
    <tag k="highway" v="trunk"/>
    <tag k="name" v="Newell Hwy"/>
    <tag k="surface" v="paved"/>
  </node>
</osm>
