<?xml version='1.0' encoding='UTF-8'?>
<osm version="0.6" generator="libosmium/2.20.0">
  <node id="133560018" version="1" timestamp="2007-11-26T01:42:27Z" uid="4467" user="Rosscoe" changeset="621649" lat="-28.697345" lon="150.286577">
    <tag k="created_by" v="JOSM"/>
    <tag k="highway" v="trunk"/>
    <tag k="name" v="Newell Hwy"/>
    <tag k="surface" v="paved"/>
  </node>
  <node id="133560048" version="1" timestamp="2007-11-26T01:42:28Z" uid="4467" user="Rosscoe" changeset="621649" lat="-28.69817" lon="150.285652">
    <tag k="created_by" v="JOSM"/>
    <tag k="highway" v="trunk"/>
    <tag k="name" v="Newell Hwy"/>
    <tag k="surface" v="paved"/>
  </node>
  <node id="133560082" version="1" timestamp="2007-11-26T01:42:29Z" uid="4467" user="Rosscoe" changeset="621649" lat="-28.697967" lon="150.285882">
    <tag k="created_by" v="JOSM"/>
    <tag k="highway" v="trunk"/>
    <tag k="name" v="Newell Hwy"/>
    <tag k="surface" v="paved"/>
  </node>
  <node id="133560116" version="1" timestamp="2007-11-26T01:42:30Z" uid="4467" user="Rosscoe" changeset="621649" lat="-28.694665" lon="150.289575">
    <tag k="created_by" v="JOSM"/>
    <tag k="highway" v="trunk"/>
    <tag k="name" v="Newell Hwy"/>
    <tag k="surface" v="paved"/>
  </node>
  <node id="133560141" version="1" timestamp="2007-11-26T01:42:30Z" uid="4467" user="Rosscoe" changeset="621649" lat="-28.694462" lon="150.289805">
    <tag k="created_by" v="JOSM"/>
    <tag k="highway" v="trunk"/>
    <tag k="name" v="Newell Hwy"/>
    <tag k="surface" v="paved"/>
  </node>
  <node id="133560179" version="1" timestamp="2007-11-26T01:42:31Z" uid="4467" user="Rosscoe" changeset="621649" lat="-28.695078" lon="150.289113">
    <tag k="created_by" v="JOSM"/>
    <tag k="highway" v="trunk"/>
    <tag k="name" v="Newell Hwy"/>
    <tag k="surface" v="paved"/>
  </node>
  <node id="133560213" version="1" timestamp="2007-11-26T01:42:32Z" uid="4467" user="Rosscoe" changeset="621649" lat="-28.694872" lon="150.289345">
    <tag k="created_by" v="JOSM"/>
    <tag k="highway" v="trunk"/>
    <tag k="name" v="Newell Hwy"/>
    <tag k="surface" v="paved"/>
  </node>
  <node id="133560236" version="1" timestamp="2007-11-26T01:42:33Z" uid="4467" user="Rosscoe" changeset="621649" lat="-28.69549" lon="150.288655">
    <tag k="created_by" v="JOSM"/>
    <tag k="highway" v="trunk"/>
    <tag k="name" v="Newell Hwy"/>
    <tag k="surface" v="paved"/>
  </node>
  <node id="133560266" version="1" timestamp="2007-11-26T01:42:33Z" uid="4467" user="Rosscoe" changeset="621649" lat="-28.695282" lon="150.288888">
    <tag k="created_by" v="JOSM"/>
    <tag k="highway" v="trunk"/>
    <tag k="name" v="Newell Hwy"/>
    <tag k="surface" v="paved"/>
  </node>
  <node id="133560291" version="1" timestamp="2007-11-26T01:42:34Z" uid="4467" user="Rosscoe" changeset="621649" lat="-28.696105" lon="150.287962">
    <tag k="created_by" v="JOSM"/>
    <tag k="highway" v="trunk"/>
    <tag k="name" v="Newell Hwy"/>
    <tag k="surface" v="paved"/>
  </node>
  <node id="133560323" version="1" timestamp="2007-11-26T01:42:35Z" uid="4467" user="Rosscoe" changeset="621649" lat="-28.695695" lon="150.288423">
    <tag k="created_by" v="JOSM"/>
    <tag k="highway" v="trunk"/>
    <tag k="name" v="Newell Hwy"/>
    <tag k="surface" v="paved"/>
  </node>
  <node id="133560348" version="1" timestamp="2007-11-26T01:42:36Z" uid="4467" user="Rosscoe" changeset="621649" lat="-28.710173" lon="150.279353">
    <tag k="created_by" v="JOSM"/>
    <tag k="highway" v="trunk"/>
    <tag k="name" v="Newell Hwy"/>
    <tag k="surface" v="paved"/>
  </node>
  <node id="133560377" version="1" timestamp="2007-11-26T01:42:37Z" uid="4467" user="Rosscoe" changeset="621649" lat="-28.71046" lon="150.279303">
    <tag k="created_by" v="JOSM"/>
    <tag k="highway" v="trunk"/>
    <tag k="name" v="Newell Hwy"/>
    <tag k="surface" v="paved"/>
  </node>
  <node id="133560407" version="1" timestamp="2007-11-26T01:42:37Z" uid="4467" user="Rosscoe" changeset="621649" lat="-28.709598" lon="150.279453">
    <tag k="created_by" v="JOSM"/>
    <tag k="highway" v="trunk"/>
    <tag k="name" v="Newell Hwy"/>
    <tag k="surface" v="paved"/>
  </node>
  <node id="133560437" version="1" timestamp="2007-11-26T01:42:38Z" uid="4467" user="Rosscoe" changeset="621649" lat="-28.70988" lon="150.279403">
    <tag k="created_by" v="JOSM"/>
    <tag k="highway" v="trunk"/>
    <tag k="name" v="Newell Hwy"/>
    <tag k="surface" v="paved"/>
  </node>
  <node id="133560461" version="1" timestamp="2007-11-26T01:42:39Z" uid="4467" user="Rosscoe" changeset="621649" lat="-28.709033" lon="150.279557">
    <tag k="created_by" v="JOSM"/>
    <tag k="highway" v="trunk"/>
    <tag k="name" v="Newell Hwy"/>
    <tag k="surface" v="paved"/>
  </node>
  <node id="133560496" version="1" timestamp="2007-11-26T01:42:40Z" uid="4467" user="Rosscoe" changeset="621649" lat="-28.709313" lon="150.279505">
    <tag k="created_by" v="JOSM"/>
    <tag k="highway" v="trunk"/>
    <tag k="name" v="Newell Hwy"/>
    <tag k="surface" v="paved"/>
  </node>
  <node id="133560532" version="1" timestamp="2007-11-26T01:42:40Z" uid="4467" user="Rosscoe" changeset="621649" lat="-28.708463" lon="150.279658">
    <tag k="created_by" v="JOSM"/>
    <tag k="highway" v="trunk"/>
    <tag k="name" v="Newell Hwy"/>
    <tag k="surface" v="paved"/>
  </node>
  <node id="133560562" version="1" timestamp="2007-11-26T01:42:41Z" uid="4467" user="Rosscoe" changeset="621649" lat="-28.70875" lon="150.279607">
    <tag k="created_by" v="JOSM"/>
    <tag k="highway" v="trunk"/>
    <tag k="name" v="Newell Hwy"/>
    <tag k="surface" v="paved"/>
  </node>
  <node id="133560607" version="1" timestamp="2007-11-26T01:42:42Z" uid="4467" user="Rosscoe" changeset="621649" lat="-28.707893" lon="150.279758">
    <tag k="created_by" v="JOSM"/>
    <tag k="highway" v="trunk"/>
    <tag k="name" v="Newell Hwy"/>
    <tag k="surface" v="paved"/>
  </node>
  <node id="133560649" version="1" timestamp="2007-11-26T01:42:43Z" uid="4467" user="Rosscoe" changeset="621649" lat="-28.708173" lon="150.279708">
    <tag k="created_by" v="JOSM"/>
    <tag k="highway" v="trunk"/>
    <tag k="name" v="Newell Hwy"/>
    <tag k="surface" v="paved"/>
  </node>
  <node id="133560671" version="1" timestamp="2007-11-26T01:42:44Z" uid="4467" user="Rosscoe" changeset="621649" lat="-28.70732" lon="150.279862">
    <tag k="created_by" v="JOSM"/>
    <tag k="highway" v="trunk"/>
    <tag k="name" v="Newell Hwy"/>
    <tag k="surface" v="paved"/>
  </node>
  <node id="133560698" version="1" timestamp="2007-11-26T01:42:45Z" uid="4467" user="Rosscoe" changeset="621649" lat="-28.707607" lon="150.27981">
    <tag k="created_by" v="JOSM"/>
    <tag k="highway" v="trunk"/>
    <tag k="name" v="Newell Hwy"/>
    <tag k="surface" v="paved"/>
  </node>
  <node id="133560723" version="1" timestamp="2007-11-26T01:42:46Z" uid="4467" user="Rosscoe" changeset="621649" lat="-28.706752" lon="150.279968">
    <tag k="created_by" v="JOSM"/>
    <tag k="highway" v="trunk"/>
    <tag k="name" v="Newell Hwy"/>
    <tag k="surface" v="paved"/>
  </node>
  <node id="133560746" version="1" timestamp="2007-11-26T01:42:46Z" uid="4467" user="Rosscoe" changeset="621649" lat="-28.707037" lon="150.279913">
    <tag k="created_by" v="JOSM"/>
    <tag k="highway" v="trunk"/>
    <tag k="name" v="Newell Hwy"/>
    <tag k="surface" v="paved"/>
  </node>
  <node id="133560771" version="1" timestamp="2007-11-26T01:42:47Z" uid="4467" user="Rosscoe" changeset="621649" lat="-28.706183" lon="150.280093">
    <tag k="created_by" v="JOSM"/>
    <tag k="highway" v="trunk"/>
    <tag k="name" v="Newell Hwy"/>
    <tag k="surface" v="paved"/>
  </node>
  <node id="133560802" version="1" timestamp="2007-11-26T01:42:48Z" uid="4467" user="Rosscoe" changeset="621649" lat="-28.706462" lon="150.280028">
    <tag k="created_by" v="JOSM"/>
    <tag k="highway" v="trunk"/>
    <tag k="name" v="Newell Hwy"/>
    <tag k="surface" v="paved"/>
  </node>
  <node id="133560835" version="1" timestamp="2007-11-26T01:42:49Z" uid="4467" user="Rosscoe" changeset="621649" lat="-28.7059" lon="150.280168">
    <tag k="created_by" v="JOSM"/>
    <tag k="highway" v="trunk"/>
    <tag k="name" v="Newell Hwy"/>
    <tag k="surface" v="paved"/>
  </node>
  <node id="133560861" version="1" timestamp="2007-11-26T01:42:50Z" uid="4467" user="Rosscoe" changeset="621649" lat="-28.705618" lon="150.280252">
    <tag k="created_by" v="JOSM"/>
    <tag k="highway" v="trunk"/>
    <tag k="name" v="Newell Hwy"/>
    <tag k="surface" v="paved"/>
  </node>
  <node id="133560891" version="1" timestamp="2007-11-26T01:42:50Z" uid="4467" user="Rosscoe" changeset="621649" lat="-28.705337" lon="150.28034">
    <tag k="created_by" v="JOSM"/>
    <tag k="highway" v="trunk"/>
    <tag k="name" v="Newell Hwy"/>
    <tag k="surface" v="paved"/>
  </node>
  <node id="133560917" version="1" timestamp="2007-11-26T01:42:51Z" uid="4467" user="Rosscoe" changeset="621649" lat="-28.70506" lon="150.280433">
    <tag k="created_by" v="JOSM"/>
    <tag k="highway" v="trunk"/>
    <tag k="name" v="Newell Hwy"/>
    <tag k="surface" v="paved"/>
  </node>
  <node id="133560946" version="1" timestamp="2007-11-26T01:42:52Z" uid="4467" user="Rosscoe" changeset="621649" lat="-28.704782" lon="150.280533">
    <tag k="created_by" v="JOSM"/>
    <tag k="highway" v="trunk"/>
    <tag k="name" v="Newell Hwy"/>
    <tag k="surface" v="paved"/>
  </node>
  <node id="133560971" version="1" timestamp="2007-11-26T01:42:53Z" uid="4467" user="Rosscoe" changeset="621649" lat="-28.704512" lon="150.280638">
    <tag k="created_by" v="JOSM"/>
    <tag k="highway" v="trunk"/>
    <tag k="name" v="Newell Hwy"/>
    <tag k="surface" v="paved"/>
  </node>
  <node id="133560997" version="1" timestamp="2007-11-26T01:42:53Z" uid="4467" user="Rosscoe" changeset="621649" lat="-28.704238" lon="150.280752">
    <tag k="created_by" v="JOSM"/>
    <tag k="highway" v="trunk"/>
    <tag k="name" v="Newell Hwy"/>
    <tag k="surface" v="paved"/>
  </node>
  <node id="133561025" version="1" timestamp="2007-11-26T01:42:54Z" uid="4467" user="Rosscoe" changeset="621649" lat="-28.70397" lon="150.28087">
    <tag k="created_by" v="JOSM"/>
    <tag k="highway" v="trunk"/>
    <tag k="name" v="Newell Hwy"/>
    <tag k="surface" v="paved"/>
  </node>
  <node id="133561060" version="1" timestamp="2007-11-26T01:42:55Z" uid="4467" user="Rosscoe" changeset="621649" lat="-28.7037" lon="150.280997">
    <tag k="created_by" v="JOSM"/>
    <tag k="highway" v="trunk"/>
    <tag k="name" v="Newell Hwy"/>
    <tag k="surface" v="paved"/>
  </node>
  <node id="133561091" version="1" timestamp="2007-11-26T01:42:56Z" uid="4467" user="Rosscoe" changeset="621649" lat="-28.703435" lon="150.281128">
    <tag k="created_by" v="JOSM"/>
    <tag k="highway" v="trunk"/>
    <tag k="name" v="Newell Hwy"/>
    <tag k="surface" v="paved"/>
  </node>
  <node id="133561117" version="1" timestamp="2007-11-26T01:42:57Z" uid="4467" user="Rosscoe" changeset="621649" lat="-28.70317" lon="150.281268">
    <tag k="created_by" v="JOSM"/>
    <tag k="highway" v="trunk"/>
    <tag k="name" v="Newell Hwy"/>
    <tag k="surface" v="paved"/>
  </node>
  <node id="133561141" version="1" timestamp="2007-11-26T01:42:57Z" uid="4467" user="Rosscoe" changeset="621649" lat="-28.702913" lon="150.28141">
    <tag k="created_by" v="JOSM"/>
    <tag k="highway" v="trunk"/>
    <tag k="name" v="Newell Hwy"/>
    <tag k="surface" v="paved"/>
  </node>
  <node id="133561157" version="1" timestamp="2007-11-26T01:42:58Z" uid="4467" user="Rosscoe" changeset="621649" lat="-28.702657" lon="150.281563">
    <tag k="created_by" v="JOSM"/>
    <tag k="highway" v="trunk"/>
    <tag k="name" v="Newell Hwy"/>
    <tag k="surface" v="paved"/>
  </node>
  <node id="133561185" version="1" timestamp="2007-11-26T01:42:59Z" uid="4467" user="Rosscoe" changeset="621649" lat="-28.702403" lon="150.281722">
    <tag k="created_by" v="JOSM"/>
    <tag k="highway" v="trunk"/>
    <tag k="name" v="Newell Hwy"/>
    <tag k="surface" v="paved"/>
  </node>
  <node id="133561211" version="1" timestamp="2007-11-26T01:43:00Z" uid="4467" user="Rosscoe" changeset="621649" lat="-28.702153" lon="150.281887">
    <tag k="created_by" v="JOSM"/>
    <tag k="highway" v="trunk"/>
    <tag k="name" v="Newell Hwy"/>
    <tag k="surface" v="paved"/>
  </node>
  <node id="133561247" version="1" timestamp="2007-11-26T01:43:00Z" uid="4467" user="Rosscoe" changeset="621649" lat="-28.701905" lon="150.282055">
    <tag k="created_by" v="JOSM"/>
    <tag k="highway" v="trunk"/>
    <tag k="name" v="Newell Hwy"/>
    <tag k="surface" v="paved"/>
  </node>
  <node id="133561281" version="1" timestamp="2007-11-26T01:43:01Z" uid="4467" user="Rosscoe" changeset="621649" lat="-28.719905" lon="150.277608">
    <tag k="created_by" v="JOSM"/>
    <tag k="highway" v="trunk"/>
    <tag k="name" v="Newell Hwy"/>
    <tag k="surface" v="paved"/>
  </node>
  <node id="133561306" version="1" timestamp="2007-11-26T01:43:02Z" uid="4467" user="Rosscoe" changeset="621649" lat="-28.720187" lon="150.277557">
    <tag k="created_by" v="JOSM"/>
    <tag k="highway" v="trunk"/>
    <tag k="name" v="Newell Hwy"/>
    <tag k="surface" v="paved"/>
  </node>
  <node id="133561339" version="1" timestamp="2007-11-26T01:43:03Z" uid="4467" user="Rosscoe" changeset="621649" lat="-28.720473" lon="150.277505">
    <tag k="created_by" v="JOSM"/>
    <tag k="highway" v="trunk"/>
    <tag k="name" v="Newell Hwy"/>
    <tag k="surface" v="paved"/>
  </node>
  <node id="133561370" version="1" timestamp="2007-11-26T01:43:04Z" uid="4467" user="Rosscoe" changeset="621649" lat="-28.720758" lon="150.277452">
    <tag k="created_by" v="JOSM"/>
    <tag k="highway" v="trunk"/>
    <tag k="name" v="Newell Hwy"/>
    <tag k="surface" v="paved"/>
  </node>
  <node id="133561396" version="1" timestamp="2007-11-26T01:43:04Z" uid="4467" user="Rosscoe" changeset="621649" lat="-28.718762" lon="150.277815">
    <tag k="created_by" v="JOSM"/>
    <tag k="highway" v="trunk"/>
    <tag k="name" v="Newell Hwy"/>
    <tag k="surface" v="paved"/>
  </node>
  <node id="133561417" version="1" timestamp="2007-11-26T01:43:05Z" uid="4467" user="Rosscoe" changeset="621649" lat="-28.719047" lon="150.277763">
    <tag k="created_by" v="JOSM"/>
    <tag k="highway" v="trunk"/>
    <tag k="name" v="Newell Hwy"/>
    <tag k="surface" v="paved"/>
  </node>
  <node id="133561440" version="1" timestamp="2007-11-26T01:43:06Z" uid="4467" user="Rosscoe" changeset="621649" lat="-28.719333" lon="150.277712">
    <tag k="created_by" v="JOSM"/>
    <tag k="highway" v="trunk"/>
    <tag k="name" v="Newell Hwy"/>
    <tag k="surface" v="paved"/>
  </node>
  <node id="133561468" version="1" timestamp="2007-11-26T01:43:07Z" uid="4467" user="Rosscoe" changeset="621649" lat="-28.719618" lon="150.27766">
    <tag k="created_by" v="JOSM"/>
    <tag k="highway" v="trunk"/>
    <tag k="name" v="Newell Hwy"/>
    <tag k="surface" v="paved"/>
  </node>
  <node id="133561504" version="1" timestamp="2007-11-26T01:43:07Z" uid="4467" user="Rosscoe" changeset="621649" lat="-28.717618" lon="150.278025">
    <tag k="created_by" v="JOSM"/>
    <tag k="highway" v="trunk"/>
    <tag k="name" v="Newell Hwy"/>
    <tag k="surface" v="paved"/>
  </node>
  <node id="133561530" version="1" timestamp="2007-11-26T01:43:08Z" uid="4467" user="Rosscoe" changeset="621649" lat="-28.717905" lon="150.277973">
    <tag k="created_by" v="JOSM"/>
    <tag k="highway" v="trunk"/>
    <tag k="name" v="Newell Hwy"/>
    <tag k="surface" v="paved"/>
  </node>
  <node id="133561562" version="1" timestamp="2007-11-26T01:43:09Z" uid="4467" user="Rosscoe" changeset="621649" lat="-28.71819" lon="150.27792">
    <tag k="created_by" v="JOSM"/>
    <tag k="highway" v="trunk"/>
    <tag k="name" v="Newell Hwy"/>
    <tag k="surface" v="paved"/>
  </node>
  <node id="133561598" version="1" timestamp="2007-11-26T01:43:10Z" uid="4467" user="Rosscoe" changeset="621649" lat="-28.718472" lon="150.277868">
    <tag k="created_by" v="JOSM"/>
    <tag k="highway" v="trunk"/>
    <tag k="name" v="Newell Hwy"/>
    <tag k="surface" v="paved"/>
  </node>
  <node id="133561631" version="1" timestamp="2007-11-26T01:43:11Z" uid="4467" user="Rosscoe" changeset="621649" lat="-28.715897" lon="150.278333">
    <tag k="created_by" v="JOSM"/>
    <tag k="highway" v="trunk"/>
    <tag k="name" v="Newell Hwy"/>
    <tag k="surface" v="paved"/>
  </node>
  <node id="133561656" version="1" timestamp="2007-11-26T01:43:11Z" uid="4467" user="Rosscoe" changeset="621649" lat="-28.716475" lon="150.27823">
    <tag k="created_by" v="JOSM"/>
    <tag k="highway" v="trunk"/>
    <tag k="name" v="Newell Hwy"/>
    <tag k="surface" v="paved"/>
  </node>
  <node id="133561684" version="1" timestamp="2007-11-26T01:43:12Z" uid="4467" user="Rosscoe" changeset="621649" lat="-28.716758" lon="150.27818">
    <tag k="created_by" v="JOSM"/>
    <tag k="highway" v="trunk"/>
    <tag k="name" v="Newell Hwy"/>
    <tag k="surface" v="paved"/>
  </node>
  <node id="133561719" version="1" timestamp="2007-11-26T01:43:13Z" uid="4467" user="Rosscoe" changeset="621649" lat="-28.717047" lon="150.278128">
    <tag k="created_by" v="JOSM"/>
    <tag k="highway" v="trunk"/>
    <tag k="name" v="Newell Hwy"/>
    <tag k="surface" v="paved"/>
  </node>
  <node id="133561750" version="1" timestamp="2007-11-26T01:43:14Z" uid="4467" user="Rosscoe" changeset="621649" lat="-28.715032" lon="150.278488">
    <tag k="created_by" v="JOSM"/>
    <tag k="highway" v="trunk"/>
    <tag k="name" v="Newell Hwy"/>
    <tag k="surface" v="paved"/>
  </node>
  <node id="133561776" version="1" timestamp="2007-11-26T01:43:14Z" uid="4467" user="Rosscoe" changeset="621649" lat="-28.714747" lon="150.27854">
    <tag k="created_by" v="JOSM"/>
    <tag k="highway" v="trunk"/>
    <tag k="name" v="Newell Hwy"/>
    <tag k="surface" v="paved"/>
  </node>
  <node id="133561789" version="1" timestamp="2007-11-26T01:43:15Z" uid="4467" user="Rosscoe" changeset="621649" lat="-28.71561" lon="150.278383">
    <tag k="created_by" v="JOSM"/>
    <tag k="highway" v="trunk"/>
    <tag k="name" v="Newell Hwy"/>
    <tag k="surface" v="paved"/>
  </node>
  <node id="133561814" version="1" timestamp="2007-11-26T01:43:16Z" uid="4467" user="Rosscoe" changeset="621649" lat="-28.71532" lon="150.278437">
    <tag k="created_by" v="JOSM"/>
    <tag k="highway" v="trunk"/>
    <tag k="name" v="Newell Hwy"/>
    <tag k="surface" v="paved"/>
  </node>
  <node id="133561833" version="1" timestamp="2007-11-26T01:43:17Z" uid="4467" user="Rosscoe" changeset="621649" lat="-28.713888" lon="150.278692">
    <tag k="created_by" v="JOSM"/>
    <tag k="highway" v="trunk"/>
    <tag k="name" v="Newell Hwy"/>
    <tag k="surface" v="paved"/>
  </node>
  <node id="133561849" version="1" timestamp="2007-11-26T01:43:17Z" uid="4467" user="Rosscoe" changeset="621649" lat="-28.713603" lon="150.278743">
    <tag k="created_by" v="JOSM"/>
    <tag k="highway" v="trunk"/>
    <tag k="name" v="Newell Hwy"/>
    <tag k="surface" v="paved"/>
  </node>
  <node id="133561878" version="1" timestamp="2007-11-26T01:43:18Z" uid="4467" user="Rosscoe" changeset="621649" lat="-28.71446" lon="150.278592">
    <tag k="created_by" v="JOSM"/>
    <tag k="highway" v="trunk"/>
    <tag k="name" v="Newell Hwy"/>
    <tag k="surface" v="paved"/>
  </node>
  <node id="133561901" version="1" timestamp="2007-11-26T01:43:19Z" uid="4467" user="Rosscoe" changeset="621649" lat="-28.714173" lon="150.278642">
    <tag k="created_by" v="JOSM"/>
    <tag k="highway" v="trunk"/>
    <tag k="name" v="Newell Hwy"/>
    <tag k="surface" v="paved"/>
  </node>
  <node id="133561933" version="1" timestamp="2007-11-26T01:43:20Z" uid="4467" user="Rosscoe" changeset="621649" lat="-28.712747" lon="150.278897">
    <tag k="created_by" v="JOSM"/>
    <tag k="highway" v="trunk"/>
    <tag k="name" v="Newell Hwy"/>
    <tag k="surface" v="paved"/>
  </node>
  <node id="133561961" version="1" timestamp="2007-11-26T01:43:21Z" uid="4467" user="Rosscoe" changeset="621649" lat="-28.71246" lon="150.278948">
    <tag k="created_by" v="JOSM"/>
    <tag k="highway" v="trunk"/>
    <tag k="name" v="Newell Hwy"/>
    <tag k="surface" v="paved"/>
  </node>
  <node id="133561990" version="1" timestamp="2007-11-26T01:43:21Z" uid="4467" user="Rosscoe" changeset="621649" lat="-28.713315" lon="150.278795">
    <tag k="created_by" v="JOSM"/>
    <tag k="highway" v="trunk"/>
    <tag k="name" v="Newell Hwy"/>
    <tag k="surface" v="paved"/>
  </node>
  <node id="133562021" version="1" timestamp="2007-11-26T01:43:22Z" uid="4467" user="Rosscoe" changeset="621649" lat="-28.713033" lon="150.278845">
    <tag k="created_by" v="JOSM"/>
    <tag k="highway" v="trunk"/>
    <tag k="name" v="Newell Hwy"/>
    <tag k="surface" v="paved"/>
  </node>
  <node id="133562053" version="1" timestamp="2007-11-26T01:43:23Z" uid="4467" user="Rosscoe" changeset="621649" lat="-28.711322" lon="150.279153">
    <tag k="created_by" v="JOSM"/>
    <tag k="highway" v="trunk"/>
    <tag k="name" v="Newell Hwy"/>
    <tag k="surface" v="paved"/>
  </node>
  <node id="133562081" version="1" timestamp="2007-11-26T01:43:24Z" uid="4467" user="Rosscoe" changeset="621649" lat="-28.711035" lon="150.279203">
    <tag k="created_by" v="JOSM"/>
    <tag k="highway" v="trunk"/>
    <tag k="name" v="Newell Hwy"/>
    <tag k="surface" v="paved"/>
  </node>
  <node id="133562099" version="1" timestamp="2007-11-26T01:43:25Z" uid="4467" user="Rosscoe" changeset="621649" lat="-28.712175" lon="150.279">
    <tag k="created_by" v="JOSM"/>
    <tag k="highway" v="trunk"/>
    <tag k="name" v="Newell Hwy"/>
    <tag k="surface" v="paved"/>
  </node>
  <node id="133562121" version="1" timestamp="2007-11-26T01:43:25Z" uid="4467" user="Rosscoe" changeset="621649" lat="-28.71189" lon="150.279053">
    <tag k="created_by" v="JOSM"/>
    <tag k="highway" v="trunk"/>
    <tag k="name" v="Newell Hwy"/>
    <tag k="surface" v="paved"/>
  </node>
  <node id="133562153" version="1" timestamp="2007-11-26T01:43:26Z" uid="4467" user="Rosscoe" changeset="621649" lat="-28.73102" lon="150.27273">
    <tag k="created_by" v="JOSM"/>
    <tag k="highway" v="trunk"/>
    <tag k="name" v="Newell Hwy"/>
    <tag k="surface" v="paved"/>
  </node>
  <node id="133562181" version="1" timestamp="2007-11-26T01:43:27Z" uid="4467" user="Rosscoe" changeset="621649" lat="-28.731237" lon="150.272517">
    <tag k="created_by" v="JOSM"/>
    <tag k="highway" v="trunk"/>
    <tag k="name" v="Newell Hwy"/>
    <tag k="surface" v="paved"/>
  </node>
  <node id="133562203" version="1" timestamp="2007-11-26T01:43:28Z" uid="4467" user="Rosscoe" changeset="621649" lat="-28.730583" lon="150.27316">
    <tag k="created_by" v="JOSM"/>
    <tag k="highway" v="trunk"/>
    <tag k="name" v="Newell Hwy"/>
    <tag k="surface" v="paved"/>
  </node>
  <node id="133562231" version="1" timestamp="2007-11-26T01:43:29Z" uid="4467" user="Rosscoe" changeset="621649" lat="-28.730803" lon="150.272945">
    <tag k="created_by" v="JOSM"/>
    <tag k="highway" v="trunk"/>
    <tag k="name" v="Newell Hwy"/>
    <tag k="surface" v="paved"/>
  </node>
  <node id="133562262" version="1" timestamp="2007-11-26T01:43:29Z" uid="4467" user="Rosscoe" changeset="621649" lat="-28.730137" lon="150.273583">
    <tag k="created_by" v="JOSM"/>
    <tag k="highway" v="trunk"/>
    <tag k="name" v="Newell Hwy"/>
    <tag k="surface" v="paved"/>
  </node>
  <node id="133562285" version="1" timestamp="2007-11-26T01:43:30Z" uid="4467" user="Rosscoe" changeset="621649" lat="-28.730362" lon="150.273373">
    <tag k="created_by" v="JOSM"/>
    <tag k="highway" v="trunk"/>
    <tag k="name" v="Newell Hwy"/>
    <tag k="surface" v="paved"/>
  </node>
  <node id="133562315" version="1" timestamp="2007-11-26T01:43:31Z" uid="4467" user="Rosscoe" changeset="621649" lat="-28.72968" lon="150.273987">
    <tag k="created_by" v="JOSM"/>
    <tag k="highway" v="trunk"/>
    <tag k="name" v="Newell Hwy"/>
    <tag k="surface" v="paved"/>
  </node>
  <node id="133562337" version="1" timestamp="2007-11-26T01:43:32Z" uid="4467" user="Rosscoe" changeset="621649" lat="-28.729907" lon="150.273792">
    <tag k="created_by" v="JOSM"/>
    <tag k="highway" v="trunk"/>
    <tag k="name" v="Newell Hwy"/>
    <tag k="surface" v="paved"/>
  </node>
  <node id="133562370" version="1" timestamp="2007-11-26T01:43:33Z" uid="4467" user="Rosscoe" changeset="621649" lat="-28.73276" lon="150.270985">
    <tag k="created_by" v="JOSM"/>
    <tag k="highway" v="trunk"/>
    <tag k="name" v="Newell Hwy"/>
    <tag k="surface" v="paved"/>
  </node>
  <node id="133562397" version="1" timestamp="2007-11-26T01:43:33Z" uid="4467" user="Rosscoe" changeset="621649" lat="-28.732982" lon="150.270763">
    <tag k="created_by" v="JOSM"/>
    <tag k="highway" v="trunk"/>
    <tag k="name" v="Newell Hwy"/>
    <tag k="surface" v="paved"/>
  </node>
  <node id="133562425" version="1" timestamp="2007-11-26T01:43:34Z" uid="4467" user="Rosscoe" changeset="621649" lat="-28.732327" lon="150.271423">
    <tag k="created_by" v="JOSM"/>
    <tag k="highway" v="trunk"/>
    <tag k="name" v="Newell Hwy"/>
    <tag k="surface" v="paved"/>
  </node>
  <node id="133562449" version="1" timestamp="2007-11-26T01:43:35Z" uid="4467" user="Rosscoe" changeset="621649" lat="-28.73254" lon="150.271208">
    <tag k="created_by" v="JOSM"/>
    <tag k="highway" v="trunk"/>
    <tag k="name" v="Newell Hwy"/>
    <tag k="surface" v="paved"/>
  </node>
  <node id="133562482" version="1" timestamp="2007-11-26T01:43:36Z" uid="4467" user="Rosscoe" changeset="621649" lat="-28.731892" lon="150.27186">
    <tag k="created_by" v="JOSM"/>
    <tag k="highway" v="trunk"/>
    <tag k="name" v="Newell Hwy"/>
    <tag k="surface" v="paved"/>
  </node>
  <node id="133562513" version="1" timestamp="2007-11-26T01:43:36Z" uid="4467" user="Rosscoe" changeset="621649" lat="-28.732108" lon="150.271642">
    <tag k="created_by" v="JOSM"/>
    <tag k="highway" v="trunk"/>
    <tag k="name" v="Newell Hwy"/>
    <tag k="surface" v="paved"/>
  </node>
  <node id="133562541" version="1" timestamp="2007-11-26T01:43:37Z" uid="4467" user="Rosscoe" changeset="621649" lat="-28.731457" lon="150.272298">
    <tag k="created_by" v="JOSM"/>
    <tag k="highway" v="trunk"/>
    <tag k="name" v="Newell Hwy"/>
    <tag k="surface" v="paved"/>
  </node>
  <node id="133562565" version="1" timestamp="2007-11-26T01:43:38Z" uid="4467" user="Rosscoe" changeset="621649" lat="-28.731677" lon="150.272077">
    <tag k="created_by" v="JOSM"/>
    <tag k="highway" v="trunk"/>
    <tag k="name" v="Newell Hwy"/>
    <tag k="surface" v="paved"/>
  </node>
  <node id="133562591" version="1" timestamp="2007-11-26T01:43:39Z" uid="4467" user="Rosscoe" changeset="621649" lat="-28.734743" lon="150.269058">
    <tag k="created_by" v="JOSM"/>
    <tag k="highway" v="trunk"/>
    <tag k="name" v="Newell Hwy"/>
    <tag k="surface" v="paved"/>
  </node>
  <node id="133562624" version="1" timestamp="2007-11-26T01:43:40Z" uid="4467" user="Rosscoe" changeset="621649" lat="-28.734515" lon="150.269257">
    <tag k="created_by" v="JOSM"/>
    <tag k="highway" v="trunk"/>
    <tag k="name" v="Newell Hwy"/>
    <tag k="surface" v="paved"/>
  </node>
  <node id="133562658" version="1" timestamp="2007-11-26T01:43:40Z" uid="4467" user="Rosscoe" changeset="621649" lat="-28.73429" lon="150.269465">
    <tag k="created_by" v="JOSM"/>
    <tag k="highway" v="trunk"/>
    <tag k="name" v="Newell Hwy"/>
    <tag k="surface" v="paved"/>
  </node>
  <node id="133562710" version="1" timestamp="2007-11-26T01:43:42Z" uid="4467" user="Rosscoe" changeset="621649" lat="-28.73407" lon="150.26968">
    <tag k="created_by" v="JOSM"/>
    <tag k="highway" v="trunk"/>
    <tag k="name" v="Newell Hwy"/>
    <tag k="surface" v="paved"/>
  </node>
  <node id="133562740" version="1" timestamp="2007-11-26T01:43:42Z" uid="4467" user="Rosscoe" changeset="621649" lat="-28.733848" lon="150.2699">
    <tag k="created_by" v="JOSM"/>
    <tag k="highway" v="trunk"/>
    <tag k="name" v="Newell Hwy"/>
    <tag k="surface" v="paved"/>
  </node>
  <node id="133562763" version="1" timestamp="2007-11-26T01:43:43Z" uid="4467" user="Rosscoe" changeset="621649" lat="-28.733633" lon="150.270113">
    <tag k="created_by" v="JOSM"/>
    <tag k="highway" v="trunk"/>
    <tag k="name" v="Newell Hwy"/>
    <tag k="surface" v="paved"/>
  </node>
  <node id="133562791" version="1" timestamp="2007-11-26T01:43:44Z" uid="4467" user="Rosscoe" changeset="621649" lat="-28.733415" lon="150.27033">
    <tag k="created_by" v="JOSM"/>
    <tag k="highway" v="trunk"/>
    <tag k="name" v="Newell Hwy"/>
    <tag k="surface" v="paved"/>
  </node>
  <node id="133562816" version="1" timestamp="2007-11-26T01:43:45Z" uid="4467" user="Rosscoe" changeset="621649" lat="-28.733198" lon="150.270547">
    <tag k="created_by" v="JOSM"/>
    <tag k="highway" v="trunk"/>
    <tag k="name" v="Newell Hwy"/>
    <tag k="surface" v="paved"/>
  </node>
  <node id="133562851" version="1" timestamp="2007-11-26T01:43:45Z" uid="4467" user="Rosscoe" changeset="621649" lat="-28.736772" lon="150.267853">
    <tag k="created_by" v="JOSM"/>
    <tag k="highway" v="trunk"/>
    <tag k="name" v="Newell Hwy"/>
    <tag k="surface" v="paved"/>
  </node>
  <node id="133562887" version="1" timestamp="2007-11-26T01:43:46Z" uid="4467" user="Rosscoe" changeset="621649" lat="-28.736505" lon="150.267962">
    <tag k="created_by" v="JOSM"/>
    <tag k="highway" v="trunk"/>
    <tag k="name" v="Newell Hwy"/>
    <tag k="surface" v="paved"/>
  </node>
  <node id="133562915" version="1" timestamp="2007-11-26T01:43:47Z" uid="4467" user="Rosscoe" changeset="621649" lat="-28.736237" lon="150.26808">
    <tag k="created_by" v="JOSM"/>
    <tag k="highway" v="trunk"/>
    <tag k="name" v="Newell Hwy"/>
    <tag k="surface" v="paved"/>
  </node>
  <node id="133562945" version="1" timestamp="2007-11-26T01:43:48Z" uid="4467" user="Rosscoe" changeset="621649" lat="-28.735975" lon="150.268213">
    <tag k="created_by" v="JOSM"/>
    <tag k="highway" v="trunk"/>
    <tag k="name" v="Newell Hwy"/>
    <tag k="surface" v="paved"/>
  </node>
  <node id="133562966" version="1" timestamp="2007-11-26T01:43:49Z" uid="4467" user="Rosscoe" changeset="621649" lat="-28.735717" lon="150.26836">
    <tag k="created_by" v="JOSM"/>
    <tag k="highway" v="trunk"/>
    <tag k="name" v="Newell Hwy"/>
    <tag k="surface" v="paved"/>
  </node>
  <node id="133562998" version="1" timestamp="2007-11-26T01:43:50Z" uid="4467" user="Rosscoe" changeset="621649" lat="-28.735465" lon="150.268518">
    <tag k="created_by" v="JOSM"/>
    <tag k="highway" v="trunk"/>
    <tag k="name" v="Newell Hwy"/>
    <tag k="surface" v="paved"/>
  </node>
  <node id="133563032" version="1" timestamp="2007-11-26T01:43:50Z" uid="4467" user="Rosscoe" changeset="621649" lat="-28.735215" lon="150.268688">
    <tag k="created_by" v="JOSM"/>
    <tag k="highway" v="trunk"/>
    <tag k="name" v="Newell Hwy"/>
    <tag k="surface" v="paved"/>
  </node>
  <node id="133563065" version="1" timestamp="2007-11-26T01:43:51Z" uid="4467" user="Rosscoe" changeset="621649" lat="-28.734978" lon="150.268867">
    <tag k="created_by" v="JOSM"/>
    <tag k="highway" v="trunk"/>
    <tag k="name" v="Newell Hwy"/>
    <tag k="surface" v="paved"/>
  </node>
  <node id="133563097" version="1" timestamp="2007-11-26T01:43:52Z" uid="4467" user="Rosscoe" changeset="621649" lat="-28.72219" lon="150.2772">
    <tag k="created_by" v="JOSM"/>
    <tag k="highway" v="trunk"/>
    <tag k="name" v="Newell Hwy"/>
    <tag k="surface" v="paved"/>
  </node>
  <node id="133563121" version="1" timestamp="2007-11-26T01:43:53Z" uid="4467" user="Rosscoe" changeset="621649" lat="-28.722475" lon="150.277148">
    <tag k="created_by" v="JOSM"/>
    <tag k="highway" v="trunk"/>
    <tag k="name" v="Newell Hwy"/>
    <tag k="surface" v="paved"/>
  </node>
  <node id="133563154" version="1" timestamp="2007-11-26T01:43:53Z" uid="4467" user="Rosscoe" changeset="621649" lat="-28.72276" lon="150.277095">
    <tag k="created_by" v="JOSM"/>
    <tag k="highway" v="trunk"/>
    <tag k="name" v="Newell Hwy"/>
    <tag k="surface" v="paved"/>
  </node>
  <node id="133563181" version="1" timestamp="2007-11-26T01:43:54Z" uid="4467" user="Rosscoe" changeset="621649" lat="-28.723047" lon="150.277042">
    <tag k="created_by" v="JOSM"/>
    <tag k="highway" v="trunk"/>
    <tag k="name" v="Newell Hwy"/>
    <tag k="surface" v="paved"/>
  </node>
  <node id="133563203" version="1" timestamp="2007-11-26T01:43:55Z" uid="4467" user="Rosscoe" changeset="621649" lat="-28.721045" lon="150.277402">
    <tag k="created_by" v="JOSM"/>
    <tag k="highway" v="trunk"/>
    <tag k="name" v="Newell Hwy"/>
    <tag k="surface" v="paved"/>
  </node>
  <node id="133563233" version="1" timestamp="2007-11-26T01:43:56Z" uid="4467" user="Rosscoe" changeset="621649" lat="-28.72133" lon="150.27735">
    <tag k="created_by" v="JOSM"/>
    <tag k="highway" v="trunk"/>
    <tag k="name" v="Newell Hwy"/>
    <tag k="surface" v="paved"/>
  </node>
  <node id="133563270" version="1" timestamp="2007-11-26T01:43:57Z" uid="4467" user="Rosscoe" changeset="621649" lat="-28.721617" lon="150.2773">
    <tag k="created_by" v="JOSM"/>
    <tag k="highway" v="trunk"/>
    <tag k="name" v="Newell Hwy"/>
    <tag k="surface" v="paved"/>
  </node>
  <node id="133563295" version="1" timestamp="2007-11-26T01:43:57Z" uid="4467" user="Rosscoe" changeset="621649" lat="-28.7219" lon="150.277252">
    <tag k="created_by" v="JOSM"/>
    <tag k="highway" v="trunk"/>
    <tag k="name" v="Newell Hwy"/>
    <tag k="surface" v="paved"/>
  </node>
  <node id="133563324" version="1" timestamp="2007-11-26T01:43:58Z" uid="4467" user="Rosscoe" changeset="621649" lat="-28.724465" lon="150.276745">
    <tag k="created_by" v="JOSM"/>
    <tag k="highway" v="trunk"/>
    <tag k="name" v="Newell Hwy"/>
    <tag k="surface" v="paved"/>
  </node>
  <node id="133563352" version="1" timestamp="2007-11-26T01:43:59Z" uid="4467" user="Rosscoe" changeset="621649" lat="-28.724745" lon="150.276668">
    <tag k="created_by" v="JOSM"/>
    <tag k="highway" v="trunk"/>
    <tag k="name" v="Newell Hwy"/>
    <tag k="surface" v="paved"/>
  </node>
  <node id="133563381" version="1" timestamp="2007-11-26T01:44:00Z" uid="4467" user="Rosscoe" changeset="621649" lat="-28.725025" lon="150.276583">
    <tag k="created_by" v="JOSM"/>
    <tag k="highway" v="trunk"/>
    <tag k="name" v="Newell Hwy"/>
    <tag k="surface" v="paved"/>
  </node>
  <node id="133563407" version="1" timestamp="2007-11-26T01:44:00Z" uid="4467" user="Rosscoe" changeset="621649" lat="-28.725297" lon="150.27649">
    <tag k="created_by" v="JOSM"/>
    <tag k="highway" v="trunk"/>
    <tag k="name" v="Newell Hwy"/>
    <tag k="surface" v="paved"/>
  </node>
  <node id="133563428" version="1" timestamp="2007-11-26T01:44:01Z" uid="4467" user="Rosscoe" changeset="621649" lat="-28.72333" lon="150.27699">
    <tag k="created_by" v="JOSM"/>
    <tag k="highway" v="trunk"/>
    <tag k="name" v="Newell Hwy"/>
    <tag k="surface" v="paved"/>
  </node>
  <node id="133563463" version="1" timestamp="2007-11-26T01:44:02Z" uid="4467" user="Rosscoe" changeset="621649" lat="-28.723615" lon="150.276937">
    <tag k="created_by" v="JOSM"/>
    <tag k="highway" v="trunk"/>
    <tag k="name" v="Newell Hwy"/>
    <tag k="surface" v="paved"/>
  </node>
  <node id="133563486" version="1" timestamp="2007-11-26T01:44:03Z" uid="4467" user="Rosscoe" changeset="621649" lat="-28.723902" lon="150.276878">
    <tag k="created_by" v="JOSM"/>
    <tag k="highway" v="trunk"/>
    <tag k="name" v="Newell Hwy"/>
    <tag k="surface" v="paved"/>
  </node>
  <node id="133563533" version="1" timestamp="2007-11-26T01:44:04Z" uid="4467" user="Rosscoe" changeset="621649" lat="-28.724187" lon="150.276815">
    <tag k="created_by" v="JOSM"/>
    <tag k="highway" v="trunk"/>
    <tag k="name" v="Newell Hwy"/>
    <tag k="surface" v="paved"/>
  </node>
  <node id="133563572" version="1" timestamp="2007-11-26T01:44:05Z" uid="4467" user="Rosscoe" changeset="621649" lat="-28.726928" lon="150.275808">
    <tag k="created_by" v="JOSM"/>
    <tag k="highway" v="trunk"/>
    <tag k="name" v="Newell Hwy"/>
    <tag k="surface" v="paved"/>
  </node>
  <node id="133563605" version="1" timestamp="2007-11-26T01:44:06Z" uid="4467" user="Rosscoe" changeset="621649" lat="-28.72666" lon="150.275935">
    <tag k="created_by" v="JOSM"/>
    <tag k="highway" v="trunk"/>
    <tag k="name" v="Newell Hwy"/>
    <tag k="surface" v="paved"/>
  </node>
  <node id="133563640" version="1" timestamp="2007-11-26T01:44:06Z" uid="4467" user="Rosscoe" changeset="621649" lat="-28.727458" lon="150.275537">
    <tag k="created_by" v="JOSM"/>
    <tag k="highway" v="trunk"/>
    <tag k="name" v="Newell Hwy"/>
    <tag k="surface" v="paved"/>
  </node>
  <node id="133563666" version="1" timestamp="2007-11-26T01:44:07Z" uid="4467" user="Rosscoe" changeset="621649" lat="-28.7272" lon="150.275675">
    <tag k="created_by" v="JOSM"/>
    <tag k="highway" v="trunk"/>
    <tag k="name" v="Newell Hwy"/>
    <tag k="surface" v="paved"/>
  </node>
  <node id="133563701" version="1" timestamp="2007-11-26T01:44:08Z" uid="4467" user="Rosscoe" changeset="621649" lat="-28.72585" lon="150.27628">
    <tag k="created_by" v="JOSM"/>
    <tag k="highway" v="trunk"/>
    <tag k="name" v="Newell Hwy"/>
    <tag k="surface" v="paved"/>
  </node>
  <node id="133563735" version="1" timestamp="2007-11-26T01:44:09Z" uid="4467" user="Rosscoe" changeset="621649" lat="-28.725573" lon="150.276387">
    <tag k="created_by" v="JOSM"/>
    <tag k="highway" v="trunk"/>
    <tag k="name" v="Newell Hwy"/>
    <tag k="surface" v="paved"/>
  </node>
  <node id="133563768" version="1" timestamp="2007-11-26T01:44:09Z" uid="4467" user="Rosscoe" changeset="621649" lat="-28.726392" lon="150.276055">
    <tag k="created_by" v="JOSM"/>
    <tag k="highway" v="trunk"/>
    <tag k="name" v="Newell Hwy"/>
    <tag k="surface" v="paved"/>
  </node>
  <node id="133563794" version="1" timestamp="2007-11-26T01:44:10Z" uid="4467" user="Rosscoe" changeset="621649" lat="-28.72612" lon="150.276172">
    <tag k="created_by" v="JOSM"/>
    <tag k="highway" v="trunk"/>
    <tag k="name" v="Newell Hwy"/>
    <tag k="surface" v="paved"/>
  </node>
  <node id="133563822" version="1" timestamp="2007-11-26T01:44:11Z" uid="4467" user="Rosscoe" changeset="621649" lat="-28.728965" lon="150.274547">
    <tag k="created_by" v="JOSM"/>
    <tag k="highway" v="trunk"/>
    <tag k="name" v="Newell Hwy"/>
    <tag k="surface" v="paved"/>
  </node>
  <node id="133563849" version="1" timestamp="2007-11-26T01:44:12Z" uid="4467" user="Rosscoe" changeset="621649" lat="-28.728722" lon="150.274725">
    <tag k="created_by" v="JOSM"/>
    <tag k="highway" v="trunk"/>
    <tag k="name" v="Newell Hwy"/>
    <tag k="surface" v="paved"/>
  </node>
  <node id="133563879" version="1" timestamp="2007-11-26T01:44:13Z" uid="4467" user="Rosscoe" changeset="621649" lat="-28.729445" lon="150.274178">
    <tag k="created_by" v="JOSM"/>
    <tag k="highway" v="trunk"/>
    <tag k="name" v="Newell Hwy"/>
    <tag k="surface" v="paved"/>
  </node>
  <node id="133563904" version="1" timestamp="2007-11-26T01:44:13Z" uid="4467" user="Rosscoe" changeset="621649" lat="-28.729207" lon="150.274365">
    <tag k="created_by" v="JOSM"/>
    <tag k="highway" v="trunk"/>
    <tag k="name" v="Newell Hwy"/>
    <tag k="surface" v="paved"/>
  </node>
  <node id="133563938" version="1" timestamp="2007-11-26T01:44:14Z" uid="4467" user="Rosscoe" changeset="621649" lat="-28.727975" lon="150.275233">
    <tag k="created_by" v="JOSM"/>
    <tag k="highway" v="trunk"/>
    <tag k="name" v="Newell Hwy"/>
    <tag k="surface" v="paved"/>
  </node>
  <node id="133563963" version="1" timestamp="2007-11-26T01:44:15Z" uid="4467" user="Rosscoe" changeset="621649" lat="-28.727718" lon="150.27539">
    <tag k="created_by" v="JOSM"/>
    <tag k="highway" v="trunk"/>
    <tag k="name" v="Newell Hwy"/>
    <tag k="surface" v="paved"/>
  </node>
  <node id="133563995" version="1" timestamp="2007-11-26T01:44:16Z" uid="4467" user="Rosscoe" changeset="621649" lat="-28.728472" lon="150.274902">
    <tag k="created_by" v="JOSM"/>
    <tag k="highway" v="trunk"/>
    <tag k="name" v="Newell Hwy"/>
    <tag k="surface" v="paved"/>
  </node>
  <node id="133564033" version="1" timestamp="2007-11-26T01:44:16Z" uid="4467" user="Rosscoe" changeset="621649" lat="-28.728227" lon="150.27507">
    <tag k="created_by" v="JOSM"/>
    <tag k="highway" v="trunk"/>
    <tag k="name" v="Newell Hwy"/>
    <tag k="surface" v="paved"/>
  </node>
  <node id="133564067" version="1" timestamp="2007-11-26T01:44:17Z" uid="4467" user="Rosscoe" changeset="621649" lat="-28.74776" lon="150.267857">
    <tag k="created_by" v="JOSM"/>
    <tag k="highway" v="trunk"/>
    <tag k="name" v="Newell Hwy"/>
    <tag k="surface" v="paved"/>
  </node>
  <node id="133564090" version="1" timestamp="2007-11-26T01:44:18Z" uid="4467" user="Rosscoe" changeset="621649" lat="-28.748043" lon="150.267868">
    <tag k="created_by" v="JOSM"/>
    <tag k="highway" v="trunk"/>
    <tag k="name" v="Newell Hwy"/>
    <tag k="surface" v="paved"/>
  </node>
  <node id="133564122" version="1" timestamp="2007-11-26T01:44:19Z" uid="4467" user="Rosscoe" changeset="621649" lat="-28.747178" lon="150.267833">
    <tag k="created_by" v="JOSM"/>
    <tag k="highway" v="trunk"/>
    <tag k="name" v="Newell Hwy"/>
    <tag k="surface" v="paved"/>
  </node>
  <node id="133564154" version="1" timestamp="2007-11-26T01:44:20Z" uid="4467" user="Rosscoe" changeset="621649" lat="-28.747472" lon="150.267845">
    <tag k="created_by" v="JOSM"/>
    <tag k="highway" v="trunk"/>
    <tag k="name" v="Newell Hwy"/>
    <tag k="surface" v="paved"/>
  </node>
  <node id="133564185" version="1" timestamp="2007-11-26T01:44:20Z" uid="4467" user="Rosscoe" changeset="621649" lat="-28.748915" lon="150.267905">
    <tag k="created_by" v="JOSM"/>
    <tag k="highway" v="trunk"/>
    <tag k="name" v="Newell Hwy"/>
    <tag k="surface" v="paved"/>
  </node>
  <node id="133564217" version="1" timestamp="2007-11-26T01:44:21Z" uid="4467" user="Rosscoe" changeset="621649" lat="-28.749212" lon="150.267917">
    <tag k="created_by" v="JOSM"/>
    <tag k="highway" v="trunk"/>
    <tag k="name" v="Newell Hwy"/>
    <tag k="surface" v="paved"/>
  </node>
  <node id="133564246" version="1" timestamp="2007-11-26T01:44:22Z" uid="4467" user="Rosscoe" changeset="621649" lat="-28.748333" lon="150.267878">
    <tag k="created_by" v="JOSM"/>
    <tag k="highway" v="trunk"/>
    <tag k="name" v="Newell Hwy"/>
    <tag k="surface" v="paved"/>
  </node>
  <node id="133564277" version="1" timestamp="2007-11-26T01:44:23Z" uid="4467" user="Rosscoe" changeset="621649" lat="-28.748623" lon="150.267892">
    <tag k="created_by" v="JOSM"/>
    <tag k="highway" v="trunk"/>
    <tag k="name" v="Newell Hwy"/>
    <tag k="surface" v="paved"/>
  </node>
  <node id="133564306" version="1" timestamp="2007-11-26T01:44:23Z" uid="4467" user="Rosscoe" changeset="621649" lat="-28.750082" lon="150.267957">
    <tag k="created_by" v="JOSM"/>
    <tag k="highway" v="trunk"/>
    <tag k="name" v="Newell Hwy"/>
    <tag k="surface" v="paved"/>
  </node>
  <node id="133564325" version="1" timestamp="2007-11-26T01:44:24Z" uid="4467" user="Rosscoe" changeset="621649" lat="-28.750373" lon="150.26797">
    <tag k="created_by" v="JOSM"/>
    <tag k="highway" v="trunk"/>
    <tag k="name" v="Newell Hwy"/>
    <tag k="surface" v="paved"/>
  </node>
  <node id="133564353" version="1" timestamp="2007-11-26T01:44:25Z" uid="4467" user="Rosscoe" changeset="621649" lat="-28.749508" lon="150.267928">
    <tag k="created_by" v="JOSM"/>
    <tag k="highway" v="trunk"/>
    <tag k="name" v="Newell Hwy"/>
    <tag k="surface" v="paved"/>
  </node>
  <node id="133564385" version="1" timestamp="2007-11-26T01:44:26Z" uid="4467" user="Rosscoe" changeset="621649" lat="-28.749795" lon="150.267943">
    <tag k="created_by" v="JOSM"/>
    <tag k="highway" v="trunk"/>
    <tag k="name" v="Newell Hwy"/>
    <tag k="surface" v="paved"/>
  </node>
  <node id="133564423" version="1" timestamp="2007-11-26T01:44:27Z" uid="4467" user="Rosscoe" changeset="621649" lat="-28.751243" lon="150.267993">
    <tag k="created_by" v="JOSM"/>
    <tag k="highway" v="trunk"/>
    <tag k="name" v="Newell Hwy"/>
    <tag k="surface" v="paved"/>
  </node>
  <node id="133564456" version="1" timestamp="2007-11-26T01:44:27Z" uid="4467" user="Rosscoe" changeset="621649" lat="-28.751528" lon="150.267988">
    <tag k="created_by" v="JOSM"/>
    <tag k="highway" v="trunk"/>
    <tag k="name" v="Newell Hwy"/>
    <tag k="surface" v="paved"/>
  </node>
  <node id="133564488" version="1" timestamp="2007-11-26T01:44:28Z" uid="4467" user="Rosscoe" changeset="621649" lat="-28.75066" lon="150.26798">
    <tag k="created_by" v="JOSM"/>
    <tag k="highway" v="trunk"/>
    <tag k="name" v="Newell Hwy"/>
    <tag k="surface" v="paved"/>
  </node>
  <node id="133564516" version="1" timestamp="2007-11-26T01:44:29Z" uid="4467" user="Rosscoe" changeset="621649" lat="-28.750955" lon="150.267987">
    <tag k="created_by" v="JOSM"/>
    <tag k="highway" v="trunk"/>
    <tag k="name" v="Newell Hwy"/>
    <tag k="surface" v="paved"/>
  </node>
  <node id="133564547" version="1" timestamp="2007-11-26T01:44:30Z" uid="4467" user="Rosscoe" changeset="621649" lat="-28.752675" lon="150.26788">
    <tag k="created_by" v="JOSM"/>
    <tag k="highway" v="trunk"/>
    <tag k="name" v="Newell Hwy"/>
    <tag k="surface" v="paved"/>
  </node>
  <node id="133564567" version="1" timestamp="2007-11-26T01:44:30Z" uid="4467" user="Rosscoe" changeset="621649" lat="-28.752385" lon="150.26792">
    <tag k="created_by" v="JOSM"/>
    <tag k="highway" v="trunk"/>
    <tag k="name" v="Newell Hwy"/>
    <tag k="surface" v="paved"/>
  </node>
  <node id="133564576" version="1" timestamp="2007-11-26T01:44:31Z" uid="4467" user="Rosscoe" changeset="621649" lat="-28.752103" lon="150.26795">
    <tag k="created_by" v="JOSM"/>
    <tag k="highway" v="trunk"/>
    <tag k="name" v="Newell Hwy"/>
    <tag k="surface" v="paved"/>
  </node>
  <node id="133564600" version="1" timestamp="2007-11-26T01:44:32Z" uid="4467" user="Rosscoe" changeset="621649" lat="-28.751817" lon="150.267973">
    <tag k="created_by" v="JOSM"/>
    <tag k="highway" v="trunk"/>
    <tag k="name" v="Newell Hwy"/>
    <tag k="surface" v="paved"/>
  </node>
  <node id="133564626" version="1" timestamp="2007-11-26T01:44:33Z" uid="4467" user="Rosscoe" changeset="621649" lat="-28.753827" lon="150.267697">
    <tag k="created_by" v="JOSM"/>
    <tag k="highway" v="trunk"/>
    <tag k="name" v="Newell Hwy"/>
    <tag k="surface" v="paved"/>
  </node>
  <node id="133564647" version="1" timestamp="2007-11-26T01:44:34Z" uid="4467" user="Rosscoe" changeset="621649" lat="-28.75354" lon="150.267743">
    <tag k="created_by" v="JOSM"/>
    <tag k="highway" v="trunk"/>
    <tag k="name" v="Newell Hwy"/>
    <tag k="surface" v="paved"/>
  </node>
  <node id="133564673" version="1" timestamp="2007-11-26T01:44:34Z" uid="4467" user="Rosscoe" changeset="621649" lat="-28.75325" lon="150.267792">
    <tag k="created_by" v="JOSM"/>
    <tag k="highway" v="trunk"/>
    <tag k="name" v="Newell Hwy"/>
    <tag k="surface" v="paved"/>
  </node>
  <node id="133564706" version="1" timestamp="2007-11-26T01:44:35Z" uid="4467" user="Rosscoe" changeset="621649" lat="-28.752965" lon="150.267838">
    <tag k="created_by" v="JOSM"/>
    <tag k="highway" v="trunk"/>
    <tag k="name" v="Newell Hwy"/>
    <tag k="surface" v="paved"/>
  </node>
  <node id="133564733" version="1" timestamp="2007-11-26T01:44:36Z" uid="4467" user="Rosscoe" changeset="621649" lat="-28.754963" lon="150.267508">
    <tag k="created_by" v="JOSM"/>
    <tag k="highway" v="trunk"/>
    <tag k="name" v="Newell Hwy"/>
    <tag k="surface" v="paved"/>
  </node>
  <node id="133564765" version="1" timestamp="2007-11-26T01:44:37Z" uid="4467" user="Rosscoe" changeset="621649" lat="-28.754678" lon="150.267555">
    <tag k="created_by" v="JOSM"/>
    <tag k="highway" v="trunk"/>
    <tag k="name" v="Newell Hwy"/>
    <tag k="surface" v="paved"/>
  </node>
  <node id="133564802" version="1" timestamp="2007-11-26T01:44:37Z" uid="4467" user="Rosscoe" changeset="621649" lat="-28.754393" lon="150.267605">
    <tag k="created_by" v="JOSM"/>
    <tag k="highway" v="trunk"/>
    <tag k="name" v="Newell Hwy"/>
    <tag k="surface" v="paved"/>
  </node>
  <node id="133564837" version="1" timestamp="2007-11-26T01:44:38Z" uid="4467" user="Rosscoe" changeset="621649" lat="-28.754107" lon="150.267653">
    <tag k="created_by" v="JOSM"/>
    <tag k="highway" v="trunk"/>
    <tag k="name" v="Newell Hwy"/>
    <tag k="surface" v="paved"/>
  </node>
  <node id="133564857" version="1" timestamp="2007-11-26T01:44:39Z" uid="4467" user="Rosscoe" changeset="621649" lat="-28.756105" lon="150.267313">
    <tag k="created_by" v="JOSM"/>
    <tag k="highway" v="trunk"/>
    <tag k="name" v="Newell Hwy"/>
    <tag k="surface" v="paved"/>
  </node>
  <node id="133564877" version="1" timestamp="2007-11-26T01:44:40Z" uid="4467" user="Rosscoe" changeset="621649" lat="-28.755813" lon="150.267362">
    <tag k="created_by" v="JOSM"/>
    <tag k="highway" v="trunk"/>
    <tag k="name" v="Newell Hwy"/>
    <tag k="surface" v="paved"/>
  </node>
  <node id="133564907" version="1" timestamp="2007-11-26T01:44:41Z" uid="4467" user="Rosscoe" changeset="621649" lat="-28.755533" lon="150.26741">
    <tag k="created_by" v="JOSM"/>
    <tag k="highway" v="trunk"/>
    <tag k="name" v="Newell Hwy"/>
    <tag k="surface" v="paved"/>
  </node>
  <node id="133564944" version="1" timestamp="2007-11-26T01:44:41Z" uid="4467" user="Rosscoe" changeset="621649" lat="-28.755248" lon="150.26746">
    <tag k="created_by" v="JOSM"/>
    <tag k="highway" v="trunk"/>
    <tag k="name" v="Newell Hwy"/>
    <tag k="surface" v="paved"/>
  </node>
  <node id="133564980" version="1" timestamp="2007-11-26T01:44:42Z" uid="4467" user="Rosscoe" changeset="621649" lat="-28.737053" lon="150.267758">
    <tag k="created_by" v="JOSM"/>
    <tag k="highway" v="trunk"/>
    <tag k="name" v="Newell Hwy"/>
    <tag k="surface" v="paved"/>
  </node>
  <node id="133565013" version="1" timestamp="2007-11-26T01:44:43Z" uid="4467" user="Rosscoe" changeset="621649" lat="-28.737335" lon="150.267678">
    <tag k="created_by" v="JOSM"/>
    <tag k="highway" v="trunk"/>
    <tag k="name" v="Newell Hwy"/>
    <tag k="surface" v="paved"/>
  </node>
  <node id="133565048" version="1" timestamp="2007-11-26T01:44:44Z" uid="4467" user="Rosscoe" changeset="621649" lat="-28.73762" lon="150.267612">
    <tag k="created_by" v="JOSM"/>
    <tag k="highway" v="trunk"/>
    <tag k="name" v="Newell Hwy"/>
    <tag k="surface" v="paved"/>
  </node>
  <node id="133565068" version="1" timestamp="2007-11-26T01:44:44Z" uid="4467" user="Rosscoe" changeset="621649" lat="-28.738197" lon="150.267517">
    <tag k="created_by" v="JOSM"/>
    <tag k="highway" v="trunk"/>
    <tag k="name" v="Newell Hwy"/>
    <tag k="surface" v="paved"/>
  </node>
  <node id="133565094" version="1" timestamp="2007-11-26T01:44:45Z" uid="4467" user="Rosscoe" changeset="621649" lat="-28.738478" lon="150.26749">
    <tag k="created_by" v="JOSM"/>
    <tag k="highway" v="trunk"/>
    <tag k="name" v="Newell Hwy"/>
    <tag k="surface" v="paved"/>
  </node>
  <node id="133565131" version="1" timestamp="2007-11-26T01:44:46Z" uid="4467" user="Rosscoe" changeset="621649" lat="-28.738773" lon="150.267478">
    <tag k="created_by" v="JOSM"/>
    <tag k="highway" v="trunk"/>
    <tag k="name" v="Newell Hwy"/>
    <tag k="surface" v="paved"/>
  </node>
  <node id="133565151" version="1" timestamp="2007-11-26T01:44:47Z" uid="4467" user="Rosscoe" changeset="621649" lat="-28.739065" lon="150.267477">
    <tag k="created_by" v="JOSM"/>
    <tag k="highway" v="trunk"/>
    <tag k="name" v="Newell Hwy"/>
    <tag k="surface" v="paved"/>
  </node>
  <node id="133565167" version="1" timestamp="2007-11-26T01:44:48Z" uid="4467" user="Rosscoe" changeset="621649" lat="-28.739352" lon="150.267482">
    <tag k="created_by" v="JOSM"/>
    <tag k="highway" v="trunk"/>
    <tag k="name" v="Newell Hwy"/>
    <tag k="surface" v="paved"/>
  </node>
  <node id="133565181" version="1" timestamp="2007-11-26T01:44:48Z" uid="4467" user="Rosscoe" changeset="621649" lat="-28.73964" lon="150.26749">
    <tag k="created_by" v="JOSM"/>
    <tag k="highway" v="trunk"/>
    <tag k="name" v="Newell Hwy"/>
    <tag k="surface" v="paved"/>
  </node>
  <node id="133565212" version="1" timestamp="2007-11-26T01:44:49Z" uid="4467" user="Rosscoe" changeset="621649" lat="-28.73993" lon="150.2675">
    <tag k="created_by" v="JOSM"/>
    <tag k="highway" v="trunk"/>
    <tag k="name" v="Newell Hwy"/>
    <tag k="surface" v="paved"/>
  </node>
  <node id="133565242" version="1" timestamp="2007-11-26T01:44:50Z" uid="4467" user="Rosscoe" changeset="621649" lat="-28.740217" lon="150.267508">
    <tag k="created_by" v="JOSM"/>
    <tag k="highway" v="trunk"/>
    <tag k="name" v="Newell Hwy"/>
    <tag k="surface" v="paved"/>
  </node>
  <node id="133565266" version="1" timestamp="2007-11-26T01:44:51Z" uid="4467" user="Rosscoe" changeset="621649" lat="-28.740517" lon="150.26752">
    <tag k="created_by" v="JOSM"/>
    <tag k="highway" v="trunk"/>
    <tag k="name" v="Newell Hwy"/>
    <tag k="surface" v="paved"/>
  </node>
  <node id="133565298" version="1" timestamp="2007-11-26T01:44:51Z" uid="4467" user="Rosscoe" changeset="621649" lat="-28.740813" lon="150.267532">
    <tag k="created_by" v="JOSM"/>
    <tag k="highway" v="trunk"/>
    <tag k="name" v="Newell Hwy"/>
    <tag k="surface" v="paved"/>
  </node>
  <node id="133565325" version="1" timestamp="2007-11-26T01:44:52Z" uid="4467" user="Rosscoe" changeset="621649" lat="-28.74139" lon="150.26756">
    <tag k="created_by" v="JOSM"/>
    <tag k="highway" v="trunk"/>
    <tag k="name" v="Newell Hwy"/>
    <tag k="surface" v="paved"/>
  </node>
  <node id="133565359" version="1" timestamp="2007-11-26T01:44:53Z" uid="4467" user="Rosscoe" changeset="621649" lat="-28.741677" lon="150.267575">
    <tag k="created_by" v="JOSM"/>
    <tag k="highway" v="trunk"/>
    <tag k="name" v="Newell Hwy"/>
    <tag k="surface" v="paved"/>
  </node>
  <node id="133565390" version="1" timestamp="2007-11-26T01:44:54Z" uid="4467" user="Rosscoe" changeset="621649" lat="-28.741968" lon="150.267588">
    <tag k="created_by" v="JOSM"/>
    <tag k="highway" v="trunk"/>
    <tag k="name" v="Newell Hwy"/>
    <tag k="surface" v="paved"/>
  </node>
  <node id="133565415" version="1" timestamp="2007-11-26T01:44:55Z" uid="4467" user="Rosscoe" changeset="621649" lat="-28.742548" lon="150.26762">
    <tag k="created_by" v="JOSM"/>
    <tag k="highway" v="trunk"/>
    <tag k="name" v="Newell Hwy"/>
    <tag k="surface" v="paved"/>
  </node>
  <node id="133565439" version="1" timestamp="2007-11-26T01:44:55Z" uid="4467" user="Rosscoe" changeset="621649" lat="-28.74226" lon="150.267603">
    <tag k="created_by" v="JOSM"/>
    <tag k="highway" v="trunk"/>
    <tag k="name" v="Newell Hwy"/>
    <tag k="surface" v="paved"/>
  </node>
  <node id="133565467" version="1" timestamp="2007-11-26T01:44:56Z" uid="4467" user="Rosscoe" changeset="621649" lat="-28.743125" lon="150.267647">
    <tag k="created_by" v="JOSM"/>
    <tag k="highway" v="trunk"/>
    <tag k="name" v="Newell Hwy"/>
    <tag k="surface" v="paved"/>
  </node>
  <node id="133565495" version="1" timestamp="2007-11-26T01:44:57Z" uid="4467" user="Rosscoe" changeset="621649" lat="-28.742837" lon="150.267633">
    <tag k="created_by" v="JOSM"/>
    <tag k="highway" v="trunk"/>
    <tag k="name" v="Newell Hwy"/>
    <tag k="surface" v="paved"/>
  </node>
  <node id="133565522" version="1" timestamp="2007-11-26T01:44:58Z" uid="4467" user="Rosscoe" changeset="621649" lat="-28.7437" lon="150.267673">
    <tag k="created_by" v="JOSM"/>
    <tag k="highway" v="trunk"/>
    <tag k="name" v="Newell Hwy"/>
    <tag k="surface" v="paved"/>
  </node>
  <node id="133565556" version="1" timestamp="2007-11-26T01:44:59Z" uid="4467" user="Rosscoe" changeset="621649" lat="-28.74341" lon="150.26766">
    <tag k="created_by" v="JOSM"/>
    <tag k="highway" v="trunk"/>
    <tag k="name" v="Newell Hwy"/>
    <tag k="surface" v="paved"/>
  </node>
  <node id="133565580" version="1" timestamp="2007-11-26T01:44:59Z" uid="4467" user="Rosscoe" changeset="621649" lat="-28.744288" lon="150.267697">
    <tag k="created_by" v="JOSM"/>
    <tag k="highway" v="trunk"/>
    <tag k="name" v="Newell Hwy"/>
    <tag k="surface" v="paved"/>
  </node>
  <node id="133565607" version="1" timestamp="2007-11-26T01:45:00Z" uid="4467" user="Rosscoe" changeset="621649" lat="-28.743995" lon="150.267685">
    <tag k="created_by" v="JOSM"/>
    <tag k="highway" v="trunk"/>
    <tag k="name" v="Newell Hwy"/>
    <tag k="surface" v="paved"/>
  </node>
  <node id="133565626" version="1" timestamp="2007-11-26T01:45:01Z" uid="4467" user="Rosscoe" changeset="621649" lat="-28.744865" lon="150.267725">
    <tag k="created_by" v="JOSM"/>
    <tag k="highway" v="trunk"/>
    <tag k="name" v="Newell Hwy"/>
    <tag k="surface" v="paved"/>
  </node>
  <node id="133565653" version="1" timestamp="2007-11-26T01:45:02Z" uid="4467" user="Rosscoe" changeset="621649" lat="-28.744578" lon="150.26771">
    <tag k="created_by" v="JOSM"/>
    <tag k="highway" v="trunk"/>
    <tag k="name" v="Newell Hwy"/>
    <tag k="surface" v="paved"/>
  </node>
  <node id="133565690" version="1" timestamp="2007-11-26T01:45:03Z" uid="4467" user="Rosscoe" changeset="621649" lat="-28.74544" lon="150.267755">
    <tag k="created_by" v="JOSM"/>
    <tag k="highway" v="trunk"/>
    <tag k="name" v="Newell Hwy"/>
    <tag k="surface" v="paved"/>
  </node>
  <node id="133565707" version="1" timestamp="2007-11-26T01:45:03Z" uid="4467" user="Rosscoe" changeset="621649" lat="-28.745152" lon="150.26774">
    <tag k="created_by" v="JOSM"/>
    <tag k="highway" v="trunk"/>
    <tag k="name" v="Newell Hwy"/>
    <tag k="surface" v="paved"/>
  </node>
  <node id="133565740" version="1" timestamp="2007-11-26T01:45:04Z" uid="4467" user="Rosscoe" changeset="621649" lat="-28.746315" lon="150.267797">
    <tag k="created_by" v="JOSM"/>
    <tag k="highway" v="trunk"/>
    <tag k="name" v="Newell Hwy"/>
    <tag k="surface" v="paved"/>
  </node>
  <node id="133565754" version="1" timestamp="2007-11-26T01:45:05Z" uid="4467" user="Rosscoe" changeset="621649" lat="-28.745737" lon="150.26777">
    <tag k="created_by" v="JOSM"/>
    <tag k="highway" v="trunk"/>
    <tag k="name" v="Newell Hwy"/>
    <tag k="surface" v="paved"/>
  </node>
  <node id="133565779" version="1" timestamp="2007-11-26T01:45:06Z" uid="4467" user="Rosscoe" changeset="621649" lat="-28.74689" lon="150.26782">
    <tag k="created_by" v="JOSM"/>
    <tag k="highway" v="trunk"/>
    <tag k="name" v="Newell Hwy"/>
    <tag k="surface" v="paved"/>
  </node>
  <node id="133565816" version="1" timestamp="2007-11-26T01:45:06Z" uid="4467" user="Rosscoe" changeset="621649" lat="-28.7466" lon="150.267807">
    <tag k="created_by" v="JOSM"/>
    <tag k="highway" v="trunk"/>
    <tag k="name" v="Newell Hwy"/>
    <tag k="surface" v="paved"/>
  </node>
  <node id="133565837" version="1" timestamp="2007-11-26T01:45:07Z" uid="4467" user="Rosscoe" changeset="621649" lat="-28.769853" lon="150.264957">
    <tag k="created_by" v="JOSM"/>
    <tag k="highway" v="trunk"/>
    <tag k="name" v="Newell Hwy"/>
    <tag k="surface" v="paved"/>
  </node>
  <node id="133565851" version="1" timestamp="2007-11-26T01:45:08Z" uid="4467" user="Rosscoe" changeset="621649" lat="-28.769567" lon="150.265007">
    <tag k="created_by" v="JOSM"/>
    <tag k="highway" v="trunk"/>
    <tag k="name" v="Newell Hwy"/>
    <tag k="surface" v="paved"/>
  </node>
  <node id="133565863" version="1" timestamp="2007-11-26T01:45:09Z" uid="4467" user="Rosscoe" changeset="621649" lat="-28.769285" lon="150.265053">
    <tag k="created_by" v="JOSM"/>
    <tag k="highway" v="trunk"/>
    <tag k="name" v="Newell Hwy"/>
    <tag k="surface" v="paved"/>
  </node>
  <node id="133565888" version="1" timestamp="2007-11-26T01:45:10Z" uid="4467" user="Rosscoe" changeset="621649" lat="-28.769" lon="150.265102">
    <tag k="created_by" v="JOSM"/>
    <tag k="highway" v="trunk"/>
    <tag k="name" v="Newell Hwy"/>
    <tag k="surface" v="paved"/>
  </node>
  <node id="133565920" version="1" timestamp="2007-11-26T01:45:10Z" uid="4467" user="Rosscoe" changeset="621649" lat="-28.768715" lon="150.26515">
    <tag k="created_by" v="JOSM"/>
    <tag k="highway" v="trunk"/>
    <tag k="name" v="Newell Hwy"/>
    <tag k="surface" v="paved"/>
  </node>
  <node id="133565949" version="1" timestamp="2007-11-26T01:45:11Z" uid="4467" user="Rosscoe" changeset="621649" lat="-28.768428" lon="150.265197">
    <tag k="created_by" v="JOSM"/>
    <tag k="highway" v="trunk"/>
    <tag k="name" v="Newell Hwy"/>
    <tag k="surface" v="paved"/>
  </node>
  <node id="133565972" version="1" timestamp="2007-11-26T01:45:12Z" uid="4467" user="Rosscoe" changeset="621649" lat="-28.768142" lon="150.265247">
    <tag k="created_by" v="JOSM"/>
    <tag k="highway" v="trunk"/>
    <tag k="name" v="Newell Hwy"/>
    <tag k="surface" v="paved"/>
  </node>
  <node id="133565993" version="1" timestamp="2007-11-26T01:45:13Z" uid="4467" user="Rosscoe" changeset="621649" lat="-28.767853" lon="150.265297">
    <tag k="created_by" v="JOSM"/>
    <tag k="highway" v="trunk"/>
    <tag k="name" v="Newell Hwy"/>
    <tag k="surface" v="paved"/>
  </node>
  <node id="133566019" version="1" timestamp="2007-11-26T01:45:13Z" uid="4467" user="Rosscoe" changeset="621649" lat="-28.767568" lon="150.265345">
    <tag k="created_by" v="JOSM"/>
    <tag k="highway" v="trunk"/>
    <tag k="name" v="Newell Hwy"/>
    <tag k="surface" v="paved"/>
  </node>
  <node id="133566028" version="1" timestamp="2007-11-26T01:45:14Z" uid="4467" user="Rosscoe" changeset="621649" lat="-28.767282" lon="150.265395">
    <tag k="created_by" v="JOSM"/>
    <tag k="highway" v="trunk"/>
    <tag k="name" v="Newell Hwy"/>
    <tag k="surface" v="paved"/>
  </node>
  <node id="133566056" version="1" timestamp="2007-11-26T01:45:15Z" uid="4467" user="Rosscoe" changeset="621649" lat="-28.766995" lon="150.265443">
    <tag k="created_by" v="JOSM"/>
    <tag k="highway" v="trunk"/>
    <tag k="name" v="Newell Hwy"/>
    <tag k="surface" v="paved"/>
  </node>
  <node id="133566087" version="1" timestamp="2007-11-26T01:45:16Z" uid="4467" user="Rosscoe" changeset="621649" lat="-28.76671" lon="150.265492">
    <tag k="created_by" v="JOSM"/>
    <tag k="highway" v="trunk"/>
    <tag k="name" v="Newell Hwy"/>
    <tag k="surface" v="paved"/>
  </node>
  <node id="133566124" version="1" timestamp="2007-11-26T01:45:17Z" uid="4467" user="Rosscoe" changeset="621649" lat="-28.766422" lon="150.26554">
    <tag k="created_by" v="JOSM"/>
    <tag k="highway" v="trunk"/>
    <tag k="name" v="Newell Hwy"/>
    <tag k="surface" v="paved"/>
  </node>
  <node id="133566163" version="1" timestamp="2007-11-26T01:45:17Z" uid="4467" user="Rosscoe" changeset="621649" lat="-28.766132" lon="150.265588">
    <tag k="created_by" v="JOSM"/>
    <tag k="highway" v="trunk"/>
    <tag k="name" v="Newell Hwy"/>
    <tag k="surface" v="paved"/>
  </node>
  <node id="133566193" version="1" timestamp="2007-11-26T01:45:18Z" uid="4467" user="Rosscoe" changeset="621649" lat="-28.765852" lon="150.265635">
    <tag k="created_by" v="JOSM"/>
    <tag k="highway" v="trunk"/>
    <tag k="name" v="Newell Hwy"/>
    <tag k="surface" v="paved"/>
  </node>
  <node id="133566231" version="1" timestamp="2007-11-26T01:45:19Z" uid="4467" user="Rosscoe" changeset="621649" lat="-28.765565" lon="150.265685">
    <tag k="created_by" v="JOSM"/>
    <tag k="highway" v="trunk"/>
    <tag k="name" v="Newell Hwy"/>
    <tag k="surface" v="paved"/>
  </node>
  <node id="133566261" version="1" timestamp="2007-11-26T01:45:20Z" uid="4467" user="Rosscoe" changeset="621649" lat="-28.774613" lon="150.263652">
    <tag k="created_by" v="JOSM"/>
    <tag k="highway" v="trunk"/>
    <tag k="name" v="Newell Hwy"/>
    <tag k="surface" v="paved"/>
  </node>
  <node id="133566290" version="1" timestamp="2007-11-26T01:45:21Z" uid="4467" user="Rosscoe" changeset="621649" lat="-28.774885" lon="150.263532">
    <tag k="created_by" v="JOSM"/>
    <tag k="highway" v="trunk"/>
    <tag k="name" v="Newell Hwy"/>
    <tag k="surface" v="paved"/>
  </node>
  <node id="133566309" version="1" timestamp="2007-11-26T01:45:21Z" uid="4467" user="Rosscoe" changeset="621649" lat="-28.77407" lon="150.263875">
    <tag k="created_by" v="JOSM"/>
    <tag k="highway" v="trunk"/>
    <tag k="name" v="Newell Hwy"/>
    <tag k="surface" v="paved"/>
  </node>
  <node id="133566336" version="1" timestamp="2007-11-26T01:45:22Z" uid="4467" user="Rosscoe" changeset="621649" lat="-28.774345" lon="150.263765">
    <tag k="created_by" v="JOSM"/>
    <tag k="highway" v="trunk"/>
    <tag k="name" v="Newell Hwy"/>
    <tag k="surface" v="paved"/>
  </node>
  <node id="133566360" version="1" timestamp="2007-11-26T01:45:23Z" uid="4467" user="Rosscoe" changeset="621649" lat="-28.77352" lon="150.264073">
    <tag k="created_by" v="JOSM"/>
    <tag k="highway" v="trunk"/>
    <tag k="name" v="Newell Hwy"/>
    <tag k="surface" v="paved"/>
  </node>
  <node id="133566387" version="1" timestamp="2007-11-26T01:45:24Z" uid="4467" user="Rosscoe" changeset="621649" lat="-28.773795" lon="150.263978">
    <tag k="created_by" v="JOSM"/>
    <tag k="highway" v="trunk"/>
    <tag k="name" v="Newell Hwy"/>
    <tag k="surface" v="paved"/>
  </node>
  <node id="133566414" version="1" timestamp="2007-11-26T01:45:24Z" uid="4467" user="Rosscoe" changeset="621649" lat="-28.772683" lon="150.264343">
    <tag k="created_by" v="JOSM"/>
    <tag k="highway" v="trunk"/>
    <tag k="name" v="Newell Hwy"/>
    <tag k="surface" v="paved"/>
  </node>
  <node id="133566431" version="1" timestamp="2007-11-26T01:45:25Z" uid="4467" user="Rosscoe" changeset="621649" lat="-28.77324" lon="150.264168">
    <tag k="created_by" v="JOSM"/>
    <tag k="highway" v="trunk"/>
    <tag k="name" v="Newell Hwy"/>
    <tag k="surface" v="paved"/>
  </node>
  <node id="133566462" version="1" timestamp="2007-11-26T01:45:26Z" uid="4467" user="Rosscoe" changeset="621649" lat="-28.77184" lon="150.264568">
    <tag k="created_by" v="JOSM"/>
    <tag k="highway" v="trunk"/>
    <tag k="name" v="Newell Hwy"/>
    <tag k="surface" v="paved"/>
  </node>
  <node id="133566489" version="1" timestamp="2007-11-26T01:45:27Z" uid="4467" user="Rosscoe" changeset="621649" lat="-28.772122" lon="150.264498">
    <tag k="created_by" v="JOSM"/>
    <tag k="highway" v="trunk"/>
    <tag k="name" v="Newell Hwy"/>
    <tag k="surface" v="paved"/>
  </node>
  <node id="133566514" version="1" timestamp="2007-11-26T01:45:28Z" uid="4467" user="Rosscoe" changeset="621649" lat="-28.771272" lon="150.264695">
    <tag k="created_by" v="JOSM"/>
    <tag k="highway" v="trunk"/>
    <tag k="name" v="Newell Hwy"/>
    <tag k="surface" v="paved"/>
  </node>
  <node id="133566548" version="1" timestamp="2007-11-26T01:45:28Z" uid="4467" user="Rosscoe" changeset="621649" lat="-28.771557" lon="150.264633">
    <tag k="created_by" v="JOSM"/>
    <tag k="highway" v="trunk"/>
    <tag k="name" v="Newell Hwy"/>
    <tag k="surface" v="paved"/>
  </node>
  <node id="133566570" version="1" timestamp="2007-11-26T01:45:29Z" uid="4467" user="Rosscoe" changeset="621649" lat="-28.770708" lon="150.264805">
    <tag k="created_by" v="JOSM"/>
    <tag k="highway" v="trunk"/>
    <tag k="name" v="Newell Hwy"/>
    <tag k="surface" v="paved"/>
  </node>
  <node id="133566592" version="1" timestamp="2007-11-26T01:45:30Z" uid="4467" user="Rosscoe" changeset="621649" lat="-28.770993" lon="150.264752">
    <tag k="created_by" v="JOSM"/>
    <tag k="highway" v="trunk"/>
    <tag k="name" v="Newell Hwy"/>
    <tag k="surface" v="paved"/>
  </node>
  <node id="133566622" version="1" timestamp="2007-11-26T01:45:31Z" uid="4467" user="Rosscoe" changeset="621649" lat="-28.770138" lon="150.264907">
    <tag k="created_by" v="JOSM"/>
    <tag k="highway" v="trunk"/>
    <tag k="name" v="Newell Hwy"/>
    <tag k="surface" v="paved"/>
  </node>
  <node id="133566659" version="1" timestamp="2007-11-26T01:45:32Z" uid="4467" user="Rosscoe" changeset="621649" lat="-28.770423" lon="150.264855">
    <tag k="created_by" v="JOSM"/>
    <tag k="highway" v="trunk"/>
    <tag k="name" v="Newell Hwy"/>
    <tag k="surface" v="paved"/>
  </node>
  <node id="133566692" version="1" timestamp="2007-11-26T01:45:32Z" uid="4467" user="Rosscoe" changeset="621649" lat="-28.760118" lon="150.266617">
    <tag k="created_by" v="JOSM"/>
    <tag k="highway" v="trunk"/>
    <tag k="name" v="Newell Hwy"/>
    <tag k="surface" v="paved"/>
  </node>
  <node id="133566730" version="1" timestamp="2007-11-26T01:45:33Z" uid="4467" user="Rosscoe" changeset="621649" lat="-28.75983" lon="150.266668">
    <tag k="created_by" v="JOSM"/>
    <tag k="highway" v="trunk"/>
    <tag k="name" v="Newell Hwy"/>
    <tag k="surface" v="paved"/>
  </node>
  <node id="133566756" version="1" timestamp="2007-11-26T01:45:34Z" uid="4467" user="Rosscoe" changeset="621649" lat="-28.760692" lon="150.266518">
    <tag k="created_by" v="JOSM"/>
    <tag k="highway" v="trunk"/>
    <tag k="name" v="Newell Hwy"/>
    <tag k="surface" v="paved"/>
  </node>
  <node id="133566790" version="1" timestamp="2007-11-26T01:45:35Z" uid="4467" user="Rosscoe" changeset="621649" lat="-28.760407" lon="150.266568">
    <tag k="created_by" v="JOSM"/>
    <tag k="highway" v="trunk"/>
    <tag k="name" v="Newell Hwy"/>
    <tag k="surface" v="paved"/>
  </node>
  <node id="133566828" version="1" timestamp="2007-11-26T01:45:35Z" uid="4467" user="Rosscoe" changeset="621649" lat="-28.75898" lon="150.266817">
    <tag k="created_by" v="JOSM"/>
    <tag k="highway" v="trunk"/>
    <tag k="name" v="Newell Hwy"/>
    <tag k="surface" v="paved"/>
  </node>
  <node id="133566854" version="1" timestamp="2007-11-26T01:45:36Z" uid="4467" user="Rosscoe" changeset="621649" lat="-28.758695" lon="150.266867">
    <tag k="created_by" v="JOSM"/>
    <tag k="highway" v="trunk"/>
    <tag k="name" v="Newell Hwy"/>
    <tag k="surface" v="paved"/>
  </node>
  <node id="133566893" version="1" timestamp="2007-11-26T01:45:37Z" uid="4467" user="Rosscoe" changeset="621649" lat="-28.759548" lon="150.266718">
    <tag k="created_by" v="JOSM"/>
    <tag k="highway" v="trunk"/>
    <tag k="name" v="Newell Hwy"/>
    <tag k="surface" v="paved"/>
  </node>
  <node id="133566927" version="1" timestamp="2007-11-26T01:45:38Z" uid="4467" user="Rosscoe" changeset="621649" lat="-28.75926" lon="150.266768">
    <tag k="created_by" v="JOSM"/>
    <tag k="highway" v="trunk"/>
    <tag k="name" v="Newell Hwy"/>
    <tag k="surface" v="paved"/>
  </node>
  <node id="133566962" version="1" timestamp="2007-11-26T01:45:39Z" uid="4467" user="Rosscoe" changeset="621649" lat="-28.757835" lon="150.267018">
    <tag k="created_by" v="JOSM"/>
    <tag k="highway" v="trunk"/>
    <tag k="name" v="Newell Hwy"/>
    <tag k="surface" v="paved"/>
  </node>
  <node id="133566986" version="1" timestamp="2007-11-26T01:45:39Z" uid="4467" user="Rosscoe" changeset="621649" lat="-28.757543" lon="150.267068">
    <tag k="created_by" v="JOSM"/>
    <tag k="highway" v="trunk"/>
    <tag k="name" v="Newell Hwy"/>
    <tag k="surface" v="paved"/>
  </node>
  <node id="133567017" version="1" timestamp="2007-11-26T01:45:40Z" uid="4467" user="Rosscoe" changeset="621649" lat="-28.758412" lon="150.266917">
    <tag k="created_by" v="JOSM"/>
    <tag k="highway" v="trunk"/>
    <tag k="name" v="Newell Hwy"/>
    <tag k="surface" v="paved"/>
  </node>
  <node id="133567054" version="1" timestamp="2007-11-26T01:45:41Z" uid="4467" user="Rosscoe" changeset="621649" lat="-28.758125" lon="150.266967">
    <tag k="created_by" v="JOSM"/>
    <tag k="highway" v="trunk"/>
    <tag k="name" v="Newell Hwy"/>
    <tag k="surface" v="paved"/>
  </node>
  <node id="133567088" version="1" timestamp="2007-11-26T01:45:42Z" uid="4467" user="Rosscoe" changeset="621649" lat="-28.756682" lon="150.267213">
    <tag k="created_by" v="JOSM"/>
    <tag k="highway" v="trunk"/>
    <tag k="name" v="Newell Hwy"/>
    <tag k="surface" v="paved"/>
  </node>
  <node id="133567116" version="1" timestamp="2007-11-26T01:45:42Z" uid="4467" user="Rosscoe" changeset="621649" lat="-28.756393" lon="150.267263">
    <tag k="created_by" v="JOSM"/>
    <tag k="highway" v="trunk"/>
    <tag k="name" v="Newell Hwy"/>
    <tag k="surface" v="paved"/>
  </node>
  <node id="133567145" version="1" timestamp="2007-11-26T01:45:43Z" uid="4467" user="Rosscoe" changeset="621649" lat="-28.75726" lon="150.267117">
    <tag k="created_by" v="JOSM"/>
    <tag k="highway" v="trunk"/>
    <tag k="name" v="Newell Hwy"/>
    <tag k="surface" v="paved"/>
  </node>
  <node id="133567163" version="1" timestamp="2007-11-26T01:45:44Z" uid="4467" user="Rosscoe" changeset="621649" lat="-28.75697" lon="150.267165">
    <tag k="created_by" v="JOSM"/>
    <tag k="highway" v="trunk"/>
    <tag k="name" v="Newell Hwy"/>
    <tag k="surface" v="paved"/>
  </node>
  <node id="133567192" version="1" timestamp="2007-11-26T01:45:45Z" uid="4467" user="Rosscoe" changeset="621649" lat="-28.764418" lon="150.265885">
    <tag k="created_by" v="JOSM"/>
    <tag k="highway" v="trunk"/>
    <tag k="name" v="Newell Hwy"/>
    <tag k="surface" v="paved"/>
  </node>
  <node id="133567211" version="1" timestamp="2007-11-26T01:45:46Z" uid="4467" user="Rosscoe" changeset="621649" lat="-28.764705" lon="150.265833">
    <tag k="created_by" v="JOSM"/>
    <tag k="highway" v="trunk"/>
    <tag k="name" v="Newell Hwy"/>
    <tag k="surface" v="paved"/>
  </node>
  <node id="133567251" version="1" timestamp="2007-11-26T01:45:46Z" uid="4467" user="Rosscoe" changeset="621649" lat="-28.764993" lon="150.265782">
    <tag k="created_by" v="JOSM"/>
    <tag k="highway" v="trunk"/>
    <tag k="name" v="Newell Hwy"/>
    <tag k="surface" v="paved"/>
  </node>
  <node id="133567278" version="1" timestamp="2007-11-26T01:45:47Z" uid="4467" user="Rosscoe" changeset="621649" lat="-28.765277" lon="150.265735">
    <tag k="created_by" v="JOSM"/>
    <tag k="highway" v="trunk"/>
    <tag k="name" v="Newell Hwy"/>
    <tag k="surface" v="paved"/>
  </node>
  <node id="133567317" version="1" timestamp="2007-11-26T01:45:48Z" uid="4467" user="Rosscoe" changeset="621649" lat="-28.763275" lon="150.266078">
    <tag k="created_by" v="JOSM"/>
    <tag k="highway" v="trunk"/>
    <tag k="name" v="Newell Hwy"/>
    <tag k="surface" v="paved"/>
  </node>
  <node id="133567335" version="1" timestamp="2007-11-26T01:45:49Z" uid="4467" user="Rosscoe" changeset="621649" lat="-28.763563" lon="150.26603">
    <tag k="created_by" v="JOSM"/>
    <tag k="highway" v="trunk"/>
    <tag k="name" v="Newell Hwy"/>
    <tag k="surface" v="paved"/>
  </node>
  <node id="133567374" version="1" timestamp="2007-11-26T01:45:50Z" uid="4467" user="Rosscoe" changeset="621649" lat="-28.763853" lon="150.26598">
    <tag k="created_by" v="JOSM"/>
    <tag k="highway" v="trunk"/>
    <tag k="name" v="Newell Hwy"/>
    <tag k="surface" v="paved"/>
  </node>
  <node id="133567398" version="1" timestamp="2007-11-26T01:45:50Z" uid="4467" user="Rosscoe" changeset="621649" lat="-28.764137" lon="150.265933">
    <tag k="created_by" v="JOSM"/>
    <tag k="highway" v="trunk"/>
    <tag k="name" v="Newell Hwy"/>
    <tag k="surface" v="paved"/>
  </node>
  <node id="133567433" version="1" timestamp="2007-11-26T01:45:51Z" uid="4467" user="Rosscoe" changeset="621649" lat="-28.762127" lon="150.266273">
    <tag k="created_by" v="JOSM"/>
    <tag k="highway" v="trunk"/>
    <tag k="name" v="Newell Hwy"/>
    <tag k="surface" v="paved"/>
  </node>
  <node id="133567459" version="1" timestamp="2007-11-26T01:45:52Z" uid="4467" user="Rosscoe" changeset="621649" lat="-28.762413" lon="150.266225">
    <tag k="created_by" v="JOSM"/>
    <tag k="highway" v="trunk"/>
    <tag k="name" v="Newell Hwy"/>
    <tag k="surface" v="paved"/>
  </node>
  <node id="133567491" version="1" timestamp="2007-11-26T01:45:53Z" uid="4467" user="Rosscoe" changeset="621649" lat="-28.762695" lon="150.266177">
    <tag k="created_by" v="JOSM"/>
    <tag k="highway" v="trunk"/>
    <tag k="name" v="Newell Hwy"/>
    <tag k="surface" v="paved"/>
  </node>
  <node id="133567523" version="1" timestamp="2007-11-26T01:45:54Z" uid="4467" user="Rosscoe" changeset="621649" lat="-28.762987" lon="150.266128">
    <tag k="created_by" v="JOSM"/>
    <tag k="highway" v="trunk"/>
    <tag k="name" v="Newell Hwy"/>
    <tag k="surface" v="paved"/>
  </node>
  <node id="133567557" version="1" timestamp="2007-11-26T01:45:54Z" uid="4467" user="Rosscoe" changeset="621649" lat="-28.760977" lon="150.26647">
    <tag k="created_by" v="JOSM"/>
    <tag k="highway" v="trunk"/>
    <tag k="name" v="Newell Hwy"/>
    <tag k="surface" v="paved"/>
  </node>
  <node id="133567591" version="1" timestamp="2007-11-26T01:45:55Z" uid="4467" user="Rosscoe" changeset="621649" lat="-28.761268" lon="150.266418">
    <tag k="created_by" v="JOSM"/>
    <tag k="highway" v="trunk"/>
    <tag k="name" v="Newell Hwy"/>
    <tag k="surface" v="paved"/>
  </node>
  <node id="133567621" version="1" timestamp="2007-11-26T01:45:56Z" uid="4467" user="Rosscoe" changeset="621649" lat="-28.761553" lon="150.26637">
    <tag k="created_by" v="JOSM"/>
    <tag k="highway" v="trunk"/>
    <tag k="name" v="Newell Hwy"/>
    <tag k="surface" v="paved"/>
  </node>
  <node id="133567654" version="1" timestamp="2007-11-26T01:45:57Z" uid="4467" user="Rosscoe" changeset="621649" lat="-28.76184" lon="150.266322">
    <tag k="created_by" v="JOSM"/>
    <tag k="highway" v="trunk"/>
    <tag k="name" v="Newell Hwy"/>
    <tag k="surface" v="paved"/>
  </node>
  <node id="133567690" version="1" timestamp="2007-11-26T01:45:57Z" uid="4467" user="Rosscoe" changeset="621649" lat="-28.782503" lon="150.258413">
    <tag k="created_by" v="JOSM"/>
    <tag k="highway" v="trunk"/>
    <tag k="name" v="Newell Hwy"/>
    <tag k="surface" v="paved"/>
  </node>
  <node id="133567724" version="1" timestamp="2007-11-26T01:45:58Z" uid="4467" user="Rosscoe" changeset="621649" lat="-28.782468" lon="150.258438">
    <tag k="created_by" v="JOSM"/>
    <tag k="highway" v="trunk"/>
    <tag k="name" v="Newell Hwy"/>
    <tag k="surface" v="paved"/>
  </node>
  <node id="133567754" version="1" timestamp="2007-11-26T01:45:59Z" uid="4467" user="Rosscoe" changeset="621649" lat="-28.782428" lon="150.258468">
    <tag k="created_by" v="JOSM"/>
    <tag k="highway" v="trunk"/>
    <tag k="name" v="Newell Hwy"/>
    <tag k="surface" v="paved"/>
  </node>
  <node id="133567782" version="1" timestamp="2007-11-26T01:46:00Z" uid="4467" user="Rosscoe" changeset="621649" lat="-28.782332" lon="150.258542">
    <tag k="created_by" v="JOSM"/>
    <tag k="highway" v="trunk"/>
    <tag k="name" v="Newell Hwy"/>
    <tag k="surface" v="paved"/>
  </node>
  <node id="133567816" version="1" timestamp="2007-11-26T01:46:01Z" uid="4467" user="Rosscoe" changeset="621649" lat="-28.782602" lon="150.258342">
    <tag k="created_by" v="JOSM"/>
    <tag k="highway" v="trunk"/>
    <tag k="name" v="Newell Hwy"/>
    <tag k="surface" v="paved"/>
  </node>
  <node id="133567849" version="1" timestamp="2007-11-26T01:46:01Z" uid="4467" user="Rosscoe" changeset="621649" lat="-28.782583" lon="150.258355">
    <tag k="created_by" v="JOSM"/>
    <tag k="highway" v="trunk"/>
    <tag k="name" v="Newell Hwy"/>
    <tag k="surface" v="paved"/>
  </node>
  <node id="133567876" version="1" timestamp="2007-11-26T01:46:02Z" uid="4467" user="Rosscoe" changeset="621649" lat="-28.782562" lon="150.258373">
    <tag k="created_by" v="JOSM"/>
    <tag k="highway" v="trunk"/>
    <tag k="name" v="Newell Hwy"/>
    <tag k="surface" v="paved"/>
  </node>
  <node id="133567890" version="1" timestamp="2007-11-26T01:46:03Z" uid="4467" user="Rosscoe" changeset="621649" lat="-28.782535" lon="150.258392">
    <tag k="created_by" v="JOSM"/>
    <tag k="highway" v="trunk"/>
    <tag k="name" v="Newell Hwy"/>
    <tag k="surface" v="paved"/>
  </node>
  <node id="133567891" version="1" timestamp="2007-11-26T01:46:04Z" uid="4467" user="Rosscoe" changeset="621649" lat="-28.781905" lon="150.258862">
    <tag k="created_by" v="JOSM"/>
    <tag k="highway" v="trunk"/>
    <tag k="name" v="Newell Hwy"/>
    <tag k="surface" v="paved"/>
  </node>
  <node id="133567892" version="1" timestamp="2007-11-26T01:46:05Z" uid="4467" user="Rosscoe" changeset="621649" lat="-28.781815" lon="150.258928">
    <tag k="created_by" v="JOSM"/>
    <tag k="highway" v="trunk"/>
    <tag k="name" v="Newell Hwy"/>
    <tag k="surface" v="paved"/>
  </node>
  <node id="133567913" version="1" timestamp="2007-11-26T01:46:05Z" uid="4467" user="Rosscoe" changeset="621649" lat="-28.78172" lon="150.259002">
    <tag k="created_by" v="JOSM"/>
    <tag k="highway" v="trunk"/>
    <tag k="name" v="Newell Hwy"/>
    <tag k="surface" v="paved"/>
  </node>
  <node id="133567932" version="1" timestamp="2007-11-26T01:46:06Z" uid="4467" user="Rosscoe" changeset="621649" lat="-28.781618" lon="150.259078">
    <tag k="created_by" v="JOSM"/>
    <tag k="highway" v="trunk"/>
    <tag k="name" v="Newell Hwy"/>
    <tag k="surface" v="paved"/>
  </node>
  <node id="133567958" version="1" timestamp="2007-11-26T01:46:07Z" uid="4467" user="Rosscoe" changeset="621649" lat="-28.782275" lon="150.258585">
    <tag k="created_by" v="JOSM"/>
    <tag k="highway" v="trunk"/>
    <tag k="name" v="Newell Hwy"/>
    <tag k="surface" v="paved"/>
  </node>
  <node id="133567992" version="1" timestamp="2007-11-26T01:46:08Z" uid="4467" user="Rosscoe" changeset="621649" lat="-28.782212" lon="150.258632">
    <tag k="created_by" v="JOSM"/>
    <tag k="highway" v="trunk"/>
    <tag k="name" v="Newell Hwy"/>
    <tag k="surface" v="paved"/>
  </node>
  <node id="133568015" version="1" timestamp="2007-11-26T01:46:09Z" uid="4467" user="Rosscoe" changeset="621649" lat="-28.78207" lon="150.258738">
    <tag k="created_by" v="JOSM"/>
    <tag k="highway" v="trunk"/>
    <tag k="name" v="Newell Hwy"/>
    <tag k="surface" v="paved"/>
  </node>
  <node id="133568033" version="1" timestamp="2007-11-26T01:46:09Z" uid="4467" user="Rosscoe" changeset="621649" lat="-28.781992" lon="150.258797">
    <tag k="created_by" v="JOSM"/>
    <tag k="highway" v="trunk"/>
    <tag k="name" v="Newell Hwy"/>
    <tag k="surface" v="paved"/>
  </node>
  <node id="133568058" version="1" timestamp="2007-11-26T01:46:10Z" uid="4467" user="Rosscoe" changeset="621649" lat="-28.782655" lon="150.258297">
    <tag k="created_by" v="JOSM"/>
    <tag k="highway" v="trunk"/>
    <tag k="name" v="Newell Hwy"/>
    <tag k="surface" v="paved"/>
  </node>
  <node id="133568089" version="1" timestamp="2007-11-26T01:46:11Z" uid="4467" user="Rosscoe" changeset="621649" lat="-28.782655" lon="150.258298">
    <tag k="created_by" v="JOSM"/>
    <tag k="highway" v="trunk"/>
    <tag k="name" v="Newell Hwy"/>
    <tag k="surface" v="paved"/>
  </node>
  <node id="133568121" version="1" timestamp="2007-11-26T01:46:12Z" uid="4467" user="Rosscoe" changeset="621649" lat="-28.782655" lon="150.258298">
    <tag k="created_by" v="JOSM"/>
    <tag k="highway" v="trunk"/>
    <tag k="name" v="Newell Hwy"/>
    <tag k="surface" v="paved"/>
  </node>
  <node id="133568162" version="1" timestamp="2007-11-26T01:46:13Z" uid="4467" user="Rosscoe" changeset="621649" lat="-28.782657" lon="150.258297">
    <tag k="created_by" v="JOSM"/>
    <tag k="highway" v="trunk"/>
    <tag k="name" v="Newell Hwy"/>
    <tag k="surface" v="paved"/>
  </node>
  <node id="133568211" version="1" timestamp="2007-11-26T01:46:14Z" uid="4467" user="Rosscoe" changeset="621649" lat="-28.782692" lon="150.258272">
    <tag k="created_by" v="JOSM"/>
    <tag k="highway" v="trunk"/>
    <tag k="name" v="Newell Hwy"/>
    <tag k="surface" v="paved"/>
  </node>
  <node id="133568233" version="1" timestamp="2007-11-26T01:46:14Z" uid="4467" user="Rosscoe" changeset="621649" lat="-28.782715" lon="150.258253">
    <tag k="created_by" v="JOSM"/>
    <tag k="highway" v="trunk"/>
    <tag k="name" v="Newell Hwy"/>
    <tag k="surface" v="paved"/>
  </node>
  <node id="133568266" version="1" timestamp="2007-11-26T01:46:15Z" uid="4467" user="Rosscoe" changeset="621649" lat="-28.782658" lon="150.258295">
    <tag k="created_by" v="JOSM"/>
    <tag k="highway" v="trunk"/>
    <tag k="name" v="Newell Hwy"/>
    <tag k="surface" v="paved"/>
  </node>
  <node id="133568297" version="1" timestamp="2007-11-26T01:46:16Z" uid="4467" user="Rosscoe" changeset="621649" lat="-28.782672" lon="150.258285">
    <tag k="created_by" v="JOSM"/>
    <tag k="highway" v="trunk"/>
    <tag k="name" v="Newell Hwy"/>
    <tag k="surface" v="paved"/>
  </node>
  <node id="133568331" version="1" timestamp="2007-11-26T01:46:17Z" uid="4467" user="Rosscoe" changeset="621649" lat="-28.78264" lon="150.258315">
    <tag k="created_by" v="JOSM"/>
    <tag k="highway" v="trunk"/>
    <tag k="name" v="Newell Hwy"/>
    <tag k="surface" v="paved"/>
  </node>
  <node id="133568367" version="1" timestamp="2007-11-26T01:46:17Z" uid="4467" user="Rosscoe" changeset="621649" lat="-28.782648" lon="150.258308">
    <tag k="created_by" v="JOSM"/>
    <tag k="highway" v="trunk"/>
    <tag k="name" v="Newell Hwy"/>
    <tag k="surface" v="paved"/>
  </node>
  <node id="133568405" version="1" timestamp="2007-11-26T01:46:18Z" uid="4467" user="Rosscoe" changeset="621649" lat="-28.782617" lon="150.258332">
    <tag k="created_by" v="JOSM"/>
    <tag k="highway" v="trunk"/>
    <tag k="name" v="Newell Hwy"/>
    <tag k="surface" v="paved"/>
  </node>
  <node id="133568444" version="1" timestamp="2007-11-26T01:46:19Z" uid="4467" user="Rosscoe" changeset="621649" lat="-28.78263" lon="150.258323">
    <tag k="created_by" v="JOSM"/>
    <tag k="highway" v="trunk"/>
    <tag k="name" v="Newell Hwy"/>
    <tag k="surface" v="paved"/>
  </node>
  <node id="133568482" version="1" timestamp="2007-11-26T01:46:20Z" uid="4467" user="Rosscoe" changeset="621649" lat="-28.782658" lon="150.258298">
    <tag k="created_by" v="JOSM"/>
    <tag k="highway" v="trunk"/>
    <tag k="name" v="Newell Hwy"/>
    <tag k="surface" v="paved"/>
  </node>
  <node id="133568511" version="1" timestamp="2007-11-26T01:46:21Z" uid="4467" user="Rosscoe" changeset="621649" lat="-28.782657" lon="150.258298">
    <tag k="created_by" v="JOSM"/>
    <tag k="highway" v="trunk"/>
    <tag k="name" v="Newell Hwy"/>
    <tag k="surface" v="paved"/>
  </node>
  <node id="133568542" version="1" timestamp="2007-11-26T01:46:21Z" uid="4467" user="Rosscoe" changeset="621649" lat="-28.782655" lon="150.258302">
    <tag k="created_by" v="JOSM"/>
    <tag k="highway" v="trunk"/>
    <tag k="name" v="Newell Hwy"/>
    <tag k="surface" v="paved"/>
  </node>
  <node id="133568570" version="1" timestamp="2007-11-26T01:46:22Z" uid="4467" user="Rosscoe" changeset="621649" lat="-28.78266" lon="150.258298">
    <tag k="created_by" v="JOSM"/>
    <tag k="highway" v="trunk"/>
    <tag k="name" v="Newell Hwy"/>
    <tag k="surface" v="paved"/>
  </node>
  <node id="133568600" version="1" timestamp="2007-11-26T01:46:23Z" uid="4467" user="Rosscoe" changeset="621649" lat="-28.77748" lon="150.262128">
    <tag k="created_by" v="JOSM"/>
    <tag k="highway" v="trunk"/>
    <tag k="name" v="Newell Hwy"/>
    <tag k="surface" v="paved"/>
  </node>
  <node id="133568629" version="1" timestamp="2007-11-26T01:46:24Z" uid="4467" user="Rosscoe" changeset="621649" lat="-28.777237" lon="150.262283">
    <tag k="created_by" v="JOSM"/>
    <tag k="highway" v="trunk"/>
    <tag k="name" v="Newell Hwy"/>
    <tag k="surface" v="paved"/>
  </node>
  <node id="133568667" version="1" timestamp="2007-11-26T01:46:25Z" uid="4467" user="Rosscoe" changeset="621649" lat="-28.777947" lon="150.261817">
    <tag k="created_by" v="JOSM"/>
    <tag k="highway" v="trunk"/>
    <tag k="name" v="Newell Hwy"/>
    <tag k="surface" v="paved"/>
  </node>
  <node id="133568699" version="1" timestamp="2007-11-26T01:46:25Z" uid="4467" user="Rosscoe" changeset="621649" lat="-28.777713" lon="150.261975">
    <tag k="created_by" v="JOSM"/>
    <tag k="highway" v="trunk"/>
    <tag k="name" v="Newell Hwy"/>
    <tag k="surface" v="paved"/>
  </node>
  <node id="133568719" version="1" timestamp="2007-11-26T01:46:26Z" uid="4467" user="Rosscoe" changeset="621649" lat="-28.778603" lon="150.261352">
    <tag k="created_by" v="JOSM"/>
    <tag k="highway" v="trunk"/>
    <tag k="name" v="Newell Hwy"/>
    <tag k="surface" v="paved"/>
  </node>
  <node id="133568733" version="1" timestamp="2007-11-26T01:46:27Z" uid="4467" user="Rosscoe" changeset="621649" lat="-28.778388" lon="150.261507">
    <tag k="created_by" v="JOSM"/>
    <tag k="highway" v="trunk"/>
    <tag k="name" v="Newell Hwy"/>
    <tag k="surface" v="paved"/>
  </node>
  <node id="133568746" version="1" timestamp="2007-11-26T01:46:28Z" uid="4467" user="Rosscoe" changeset="621649" lat="-28.779012" lon="150.26105">
    <tag k="created_by" v="JOSM"/>
    <tag k="highway" v="trunk"/>
    <tag k="name" v="Newell Hwy"/>
    <tag k="surface" v="paved"/>
  </node>
  <node id="133568773" version="1" timestamp="2007-11-26T01:46:28Z" uid="4467" user="Rosscoe" changeset="621649" lat="-28.778812" lon="150.261198">
    <tag k="created_by" v="JOSM"/>
    <tag k="highway" v="trunk"/>
    <tag k="name" v="Newell Hwy"/>
    <tag k="surface" v="paved"/>
  </node>
  <node id="133568801" version="1" timestamp="2007-11-26T01:46:29Z" uid="4467" user="Rosscoe" changeset="621649" lat="-28.775425" lon="150.263283">
    <tag k="created_by" v="JOSM"/>
    <tag k="highway" v="trunk"/>
    <tag k="name" v="Newell Hwy"/>
    <tag k="surface" v="paved"/>
  </node>
  <node id="133568822" version="1" timestamp="2007-11-26T01:46:30Z" uid="4467" user="Rosscoe" changeset="621649" lat="-28.775158" lon="150.263408">
    <tag k="created_by" v="JOSM"/>
    <tag k="highway" v="trunk"/>
    <tag k="name" v="Newell Hwy"/>
    <tag k="surface" v="paved"/>
  </node>
  <node id="133568844" version="1" timestamp="2007-11-26T01:46:31Z" uid="4467" user="Rosscoe" changeset="621649" lat="-28.775955" lon="150.263018">
    <tag k="created_by" v="JOSM"/>
    <tag k="highway" v="trunk"/>
    <tag k="name" v="Newell Hwy"/>
    <tag k="surface" v="paved"/>
  </node>
  <node id="133568874" version="1" timestamp="2007-11-26T01:46:32Z" uid="4467" user="Rosscoe" changeset="621649" lat="-28.77569" lon="150.263153">
    <tag k="created_by" v="JOSM"/>
    <tag k="highway" v="trunk"/>
    <tag k="name" v="Newell Hwy"/>
    <tag k="surface" v="paved"/>
  </node>
  <node id="133568905" version="1" timestamp="2007-11-26T01:46:32Z" uid="4467" user="Rosscoe" changeset="621649" lat="-28.776478" lon="150.262735">
    <tag k="created_by" v="JOSM"/>
    <tag k="highway" v="trunk"/>
    <tag k="name" v="Newell Hwy"/>
    <tag k="surface" v="paved"/>
  </node>
  <node id="133568940" version="1" timestamp="2007-11-26T01:46:33Z" uid="4467" user="Rosscoe" changeset="621649" lat="-28.776215" lon="150.26288">
    <tag k="created_by" v="JOSM"/>
    <tag k="highway" v="trunk"/>
    <tag k="name" v="Newell Hwy"/>
    <tag k="surface" v="paved"/>
  </node>
  <node id="133568976" version="1" timestamp="2007-11-26T01:46:34Z" uid="4467" user="Rosscoe" changeset="621649" lat="-28.77699" lon="150.262435">
    <tag k="created_by" v="JOSM"/>
    <tag k="highway" v="trunk"/>
    <tag k="name" v="Newell Hwy"/>
    <tag k="surface" v="paved"/>
  </node>
  <node id="133569012" version="1" timestamp="2007-11-26T01:46:35Z" uid="4467" user="Rosscoe" changeset="621649" lat="-28.776737" lon="150.262587">
    <tag k="created_by" v="JOSM"/>
    <tag k="highway" v="trunk"/>
    <tag k="name" v="Newell Hwy"/>
    <tag k="surface" v="paved"/>
  </node>
  <node id="133569036" version="1" timestamp="2007-11-26T01:46:36Z" uid="4467" user="Rosscoe" changeset="621649" lat="-28.780583" lon="150.25986">
    <tag k="created_by" v="JOSM"/>
    <tag k="highway" v="trunk"/>
    <tag k="name" v="Newell Hwy"/>
    <tag k="surface" v="paved"/>
  </node>
  <node id="133569073" version="1" timestamp="2007-11-26T01:46:36Z" uid="4467" user="Rosscoe" changeset="621649" lat="-28.780735" lon="150.259745">
    <tag k="created_by" v="JOSM"/>
    <tag k="highway" v="trunk"/>
    <tag k="name" v="Newell Hwy"/>
    <tag k="surface" v="paved"/>
  </node>
  <node id="133569106" version="1" timestamp="2007-11-26T01:46:37Z" uid="4467" user="Rosscoe" changeset="621649" lat="-28.780882" lon="150.259635">
    <tag k="created_by" v="JOSM"/>
    <tag k="highway" v="trunk"/>
    <tag k="name" v="Newell Hwy"/>
    <tag k="surface" v="paved"/>
  </node>
  <node id="133569140" version="1" timestamp="2007-11-26T01:46:38Z" uid="4467" user="Rosscoe" changeset="621649" lat="-28.781018" lon="150.259532">
    <tag k="created_by" v="JOSM"/>
    <tag k="highway" v="trunk"/>
    <tag k="name" v="Newell Hwy"/>
    <tag k="surface" v="paved"/>
  </node>
  <node id="133569168" version="1" timestamp="2007-11-26T01:46:39Z" uid="4467" user="Rosscoe" changeset="621649" lat="-28.781153" lon="150.259432">
    <tag k="created_by" v="JOSM"/>
    <tag k="highway" v="trunk"/>
    <tag k="name" v="Newell Hwy"/>
    <tag k="surface" v="paved"/>
  </node>
  <node id="133569204" version="1" timestamp="2007-11-26T01:46:40Z" uid="4467" user="Rosscoe" changeset="621649" lat="-28.78128" lon="150.259335">
    <tag k="created_by" v="JOSM"/>
    <tag k="highway" v="trunk"/>
    <tag k="name" v="Newell Hwy"/>
    <tag k="surface" v="paved"/>
  </node>
  <node id="133569231" version="1" timestamp="2007-11-26T01:46:40Z" uid="4467" user="Rosscoe" changeset="621649" lat="-28.781397" lon="150.259245">
    <tag k="created_by" v="JOSM"/>
    <tag k="highway" v="trunk"/>
    <tag k="name" v="Newell Hwy"/>
    <tag k="surface" v="paved"/>
  </node>
  <node id="133569258" version="1" timestamp="2007-11-26T01:46:41Z" uid="4467" user="Rosscoe" changeset="621649" lat="-28.78151" lon="150.25916">
    <tag k="created_by" v="JOSM"/>
    <tag k="highway" v="trunk"/>
    <tag k="name" v="Newell Hwy"/>
    <tag k="surface" v="paved"/>
  </node>
  <node id="133569282" version="1" timestamp="2007-11-26T01:46:42Z" uid="4467" user="Rosscoe" changeset="621649" lat="-28.77921" lon="150.260903">
    <tag k="created_by" v="JOSM"/>
    <tag k="highway" v="trunk"/>
    <tag k="name" v="Newell Hwy"/>
    <tag k="surface" v="paved"/>
  </node>
  <node id="133569308" version="1" timestamp="2007-11-26T01:46:43Z" uid="4467" user="Rosscoe" changeset="621649" lat="-28.779397" lon="150.260762">
    <tag k="created_by" v="JOSM"/>
    <tag k="highway" v="trunk"/>
    <tag k="name" v="Newell Hwy"/>
    <tag k="surface" v="paved"/>
  </node>
  <node id="133569347" version="1" timestamp="2007-11-26T01:46:43Z" uid="4467" user="Rosscoe" changeset="621649" lat="-28.779578" lon="150.260625">
    <tag k="created_by" v="JOSM"/>
    <tag k="highway" v="trunk"/>
    <tag k="name" v="Newell Hwy"/>
    <tag k="surface" v="paved"/>
  </node>
  <node id="133569381" version="1" timestamp="2007-11-26T01:46:44Z" uid="4467" user="Rosscoe" changeset="621649" lat="-28.779755" lon="150.260492">
    <tag k="created_by" v="JOSM"/>
    <tag k="highway" v="trunk"/>
    <tag k="name" v="Newell Hwy"/>
    <tag k="surface" v="paved"/>
  </node>
  <node id="133569417" version="1" timestamp="2007-11-26T01:46:45Z" uid="4467" user="Rosscoe" changeset="621649" lat="-28.779927" lon="150.26036">
    <tag k="created_by" v="JOSM"/>
    <tag k="highway" v="trunk"/>
    <tag k="name" v="Newell Hwy"/>
    <tag k="surface" v="paved"/>
  </node>
  <node id="133569453" version="1" timestamp="2007-11-26T01:46:46Z" uid="4467" user="Rosscoe" changeset="621649" lat="-28.780097" lon="150.26023">
    <tag k="created_by" v="JOSM"/>
    <tag k="highway" v="trunk"/>
    <tag k="name" v="Newell Hwy"/>
    <tag k="surface" v="paved"/>
  </node>
  <node id="133569487" version="1" timestamp="2007-11-26T01:46:46Z" uid="4467" user="Rosscoe" changeset="621649" lat="-28.780262" lon="150.260103">
    <tag k="created_by" v="JOSM"/>
    <tag k="highway" v="trunk"/>
    <tag k="name" v="Newell Hwy"/>
    <tag k="surface" v="paved"/>
  </node>
  <node id="133569521" version="1" timestamp="2007-11-26T01:46:47Z" uid="4467" user="Rosscoe" changeset="621649" lat="-28.780427" lon="150.259978">
    <tag k="created_by" v="JOSM"/>
    <tag k="highway" v="trunk"/>
    <tag k="name" v="Newell Hwy"/>
    <tag k="surface" v="paved"/>
  </node>
  <node id="133569550" version="1" timestamp="2007-11-26T01:46:48Z" uid="4467" user="Rosscoe" changeset="621649" lat="-28.787245" lon="150.25485">
    <tag k="created_by" v="JOSM"/>
    <tag k="highway" v="trunk"/>
    <tag k="name" v="Newell Hwy"/>
    <tag k="surface" v="paved"/>
  </node>
  <node id="133569573" version="1" timestamp="2007-11-26T01:46:49Z" uid="4467" user="Rosscoe" changeset="621649" lat="-28.78714" lon="150.254928">
    <tag k="created_by" v="JOSM"/>
    <tag k="highway" v="trunk"/>
    <tag k="name" v="Newell Hwy"/>
    <tag k="surface" v="paved"/>
  </node>
  <node id="133569606" version="1" timestamp="2007-11-26T01:46:50Z" uid="4467" user="Rosscoe" changeset="621649" lat="-28.787462" lon="150.254683">
    <tag k="created_by" v="JOSM"/>
    <tag k="highway" v="trunk"/>
    <tag k="name" v="Newell Hwy"/>
    <tag k="surface" v="paved"/>
  </node>
  <node id="133569629" version="2" timestamp="2010-02-15T08:58:51Z" uid="74617" user="JohnSmith" changeset="3881157" lat="-12.48087" lon="136.7966">
    <tag k="created_by" v="JOSM"/>
  </node>
  <node id="133569630" version="1" timestamp="2007-11-26T01:46:50Z" uid="4467" user="Rosscoe" changeset="621649" lat="-28.787353" lon="150.254767">
    <tag k="created_by" v="JOSM"/>
    <tag k="highway" v="trunk"/>
    <tag k="name" v="Newell Hwy"/>
    <tag k="surface" v="paved"/>
  </node>
  <node id="133569661" version="2" timestamp="2010-02-15T08:58:50Z" uid="74617" user="JohnSmith" changeset="3881157" lat="-12.48962" lon="136.79685">
    <tag k="created_by" v="JOSM"/>
  </node>
  <node id="133569664" version="1" timestamp="2007-11-26T01:46:51Z" uid="4467" user="Rosscoe" changeset="621649" lat="-28.786825" lon="150.255162">
    <tag k="created_by" v="JOSM"/>
    <tag k="highway" v="trunk"/>
    <tag k="name" v="Newell Hwy"/>
    <tag k="surface" v="paved"/>
  </node>
  <node id="133569686" version="2" timestamp="2010-02-15T08:58:51Z" uid="74617" user="JohnSmith" changeset="3881157" lat="-12.49012" lon="136.79635">
    <tag k="created_by" v="JOSM"/>
  </node>
  <node id="133569695" version="1" timestamp="2007-11-26T01:46:52Z" uid="4467" user="Rosscoe" changeset="621649" lat="-28.786723" lon="150.255237">
    <tag k="created_by" v="JOSM"/>
    <tag k="highway" v="trunk"/>
    <tag k="name" v="Newell Hwy"/>
    <tag k="surface" v="paved"/>
  </node>
  <node id="133569724" version="2" timestamp="2010-02-15T08:58:51Z" uid="74617" user="JohnSmith" changeset="3881157" lat="-12.49137" lon="136.7966">
    <tag k="created_by" v="JOSM"/>
  </node>
  <node id="133569729" version="1" timestamp="2007-11-26T01:46:53Z" uid="4467" user="Rosscoe" changeset="621649" lat="-28.787033" lon="150.255007">
    <tag k="created_by" v="JOSM"/>
    <tag k="highway" v="trunk"/>
    <tag k="name" v="Newell Hwy"/>
    <tag k="surface" v="paved"/>
  </node>
  <node id="133569752" version="2" timestamp="2010-02-15T08:58:50Z" uid="74617" user="JohnSmith" changeset="3881157" lat="-12.49312" lon="136.7961">
    <tag k="created_by" v="JOSM"/>
  </node>
  <node id="133569761" version="1" timestamp="2007-11-26T01:46:54Z" uid="4467" user="Rosscoe" changeset="621649" lat="-28.786928" lon="150.255085">
    <tag k="created_by" v="JOSM"/>
    <tag k="highway" v="trunk"/>
    <tag k="name" v="Newell Hwy"/>
    <tag k="surface" v="paved"/>
  </node>
  <node id="133569773" version="2" timestamp="2010-02-15T08:58:50Z" uid="74617" user="JohnSmith" changeset="3881157" lat="-12.49437" lon="136.79535">
    <tag k="created_by" v="JOSM"/>
  </node>
  <node id="133569781" version="1" timestamp="2007-11-26T01:46:54Z" uid="4467" user="Rosscoe" changeset="621649" lat="-28.788145" lon="150.254167">
    <tag k="created_by" v="JOSM"/>
    <tag k="highway" v="trunk"/>
    <tag k="name" v="Newell Hwy"/>
    <tag k="surface" v="paved"/>
  </node>
  <node id="133569789" version="2" timestamp="2010-02-15T08:58:50Z" uid="74617" user="JohnSmith" changeset="3881157" lat="-12.49762" lon="136.7916">
    <tag k="created_by" v="JOSM"/>
  </node>
  <node id="133569801" version="1" timestamp="2007-11-26T01:46:55Z" uid="4467" user="Rosscoe" changeset="621649" lat="-28.788025" lon="150.254258">
    <tag k="created_by" v="JOSM"/>
    <tag k="highway" v="trunk"/>
    <tag k="name" v="Newell Hwy"/>
    <tag k="surface" v="paved"/>
  </node>
  <node id="133569815" version="2" timestamp="2010-02-15T08:58:50Z" uid="74617" user="JohnSmith" changeset="3881157" lat="-12.49712" lon="136.7876">
    <tag k="created_by" v="JOSM"/>
  </node>
  <node id="133569831" version="1" timestamp="2007-11-26T01:46:56Z" uid="4467" user="Rosscoe" changeset="621649" lat="-28.788392" lon="150.253982">
    <tag k="created_by" v="JOSM"/>
    <tag k="highway" v="trunk"/>
    <tag k="name" v="Newell Hwy"/>
    <tag k="surface" v="paved"/>
  </node>
  <node id="133569843" version="2" timestamp="2010-02-15T08:58:50Z" uid="74617" user="JohnSmith" changeset="3881157" lat="-12.49787" lon="136.78285">
    <tag k="created_by" v="JOSM"/>
  </node>
  <node id="133569866" version="1" timestamp="2007-11-26T01:46:57Z" uid="4467" user="Rosscoe" changeset="621649" lat="-28.788268" lon="150.254077">
    <tag k="created_by" v="JOSM"/>
    <tag k="highway" v="trunk"/>
    <tag k="name" v="Newell Hwy"/>
    <tag k="surface" v="paved"/>
  </node>
  <node id="133569875" version="2" timestamp="2010-02-15T08:58:50Z" uid="74617" user="JohnSmith" changeset="3881157" lat="-12.49712" lon="136.78185">
    <tag k="created_by" v="JOSM"/>
  </node>
  <node id="133569903" version="1" timestamp="2007-11-26T01:46:57Z" uid="4467" user="Rosscoe" changeset="621649" lat="-28.787682" lon="150.254517">
    <tag k="created_by" v="JOSM"/>
    <tag k="highway" v="trunk"/>
    <tag k="name" v="Newell Hwy"/>
    <tag k="surface" v="paved"/>
  </node>
  <node id="133569910" version="2" timestamp="2010-02-15T08:58:50Z" uid="74617" user="JohnSmith" changeset="3881157" lat="-12.49737" lon="136.7811">
    <tag k="created_by" v="JOSM"/>
  </node>
  <node id="133569938" version="1" timestamp="2007-11-26T01:46:58Z" uid="4467" user="Rosscoe" changeset="621649" lat="-28.78757" lon="150.254602">
    <tag k="created_by" v="JOSM"/>
    <tag k="highway" v="trunk"/>
    <tag k="name" v="Newell Hwy"/>
    <tag k="surface" v="paved"/>
  </node>
  <node id="133569941" version="2" timestamp="2010-02-15T08:58:49Z" uid="74617" user="JohnSmith" changeset="3881157" lat="-12.49662" lon="136.7791">
    <tag k="created_by" v="JOSM"/>
  </node>
  <node id="133569969" version="2" timestamp="2010-02-15T08:58:50Z" uid="74617" user="JohnSmith" changeset="3881157" lat="-12.49687" lon="136.77585">
    <tag k="created_by" v="JOSM"/>
  </node>
  <node id="133569971" version="1" timestamp="2007-11-26T01:46:59Z" uid="4467" user="Rosscoe" changeset="621649" lat="-28.787908" lon="150.254348">
    <tag k="created_by" v="JOSM"/>
    <tag k="highway" v="trunk"/>
    <tag k="name" v="Newell Hwy"/>
    <tag k="surface" v="paved"/>
  </node>
  <node id="133569998" version="2" timestamp="2010-02-15T08:58:50Z" uid="74617" user="JohnSmith" changeset="3881157" lat="-12.49737" lon="136.77585">
    <tag k="created_by" v="JOSM"/>
  </node>
</osm>
