<?xml version='1.0' encoding='UTF-8'?>
<osm version="0.6" generator="libosmium/2.20.0">
  <node id="134300017" version="1" timestamp="2007-11-26T08:15:33Z" uid="4467" user="Rosscoe" changeset="621649" lat="-32.666293" lon="138.180657">
    <tag k="created_by" v="JOSM"/>
    <tag k="highway" v="primary"/>
    <tag k="name" v="Willmington Orooroo Rd"/>
    <tag k="surface" v="paved"/>
  </node>
  <node id="134300017" version="2" timestamp="2007-12-25T10:08:28Z" uid="4467" user="Rosscoe" changeset="422154" lat="-32.666293" lon="138.180657">
    <tag k="created_by" v="JOSM"/>
    <tag k="highway" v="primary"/>
    <tag k="name" v="Willmington Orooroo Rd"/>
    <tag k="surface" v="paved"/>
  </node>
  <node id="134300032" version="1" timestamp="2007-11-26T08:15:34Z" uid="4467" user="Rosscoe" changeset="621649" lat="-32.66629" lon="138.180313">
    <tag k="created_by" v="JOSM"/>
    <tag k="highway" v="primary"/>
    <tag k="name" v="Willmington Orooroo Rd"/>
    <tag k="surface" v="paved"/>
  </node>
  <node id="134300032" version="2" timestamp="2007-12-25T10:08:25Z" uid="4467" user="Rosscoe" changeset="422154" lat="-32.66629" lon="138.180313">
    <tag k="created_by" v="JOSM"/>
    <tag k="highway" v="primary"/>
    <tag k="name" v="Willmington Orooroo Rd"/>
    <tag k="surface" v="paved"/>
  </node>
  <node id="134300054" version="1" timestamp="2007-11-26T08:15:35Z" uid="4467" user="Rosscoe" changeset="621649" lat="-32.666283" lon="138.178617">
    <tag k="created_by" v="JOSM"/>
    <tag k="highway" v="primary"/>
    <tag k="name" v="Willmington Orooroo Rd"/>
    <tag k="surface" v="paved"/>
  </node>
  <node id="134300054" version="2" timestamp="2007-12-25T09:52:20Z" uid="4467" user="Rosscoe" changeset="422154" lat="-32.666283" lon="138.178617">
    <tag k="created_by" v="JOSM"/>
  </node>
  <node id="134300078" version="1" timestamp="2007-11-26T08:15:36Z" uid="4467" user="Rosscoe" changeset="621649" lat="-32.666283" lon="138.178277">
    <tag k="created_by" v="JOSM"/>
    <tag k="highway" v="primary"/>
    <tag k="name" v="Willmington Orooroo Rd"/>
    <tag k="surface" v="paved"/>
  </node>
  <node id="134300078" version="2" timestamp="2007-12-25T10:08:20Z" uid="4467" user="Rosscoe" changeset="422154" lat="-32.666283" lon="138.178277">
    <tag k="created_by" v="JOSM"/>
    <tag k="highway" v="primary"/>
    <tag k="name" v="Willmington Orooroo Rd"/>
    <tag k="surface" v="paved"/>
  </node>
  <node id="134300104" version="1" timestamp="2007-11-26T08:15:36Z" uid="4467" user="Rosscoe" changeset="621649" lat="-32.666287" lon="138.179297">
    <tag k="created_by" v="JOSM"/>
    <tag k="highway" v="primary"/>
    <tag k="name" v="Willmington Orooroo Rd"/>
    <tag k="surface" v="paved"/>
  </node>
  <node id="134300104" version="2" timestamp="2007-12-25T10:08:16Z" uid="4467" user="Rosscoe" changeset="422154" lat="-32.666287" lon="138.179297">
    <tag k="created_by" v="JOSM"/>
    <tag k="highway" v="primary"/>
    <tag k="name" v="Willmington Orooroo Rd"/>
    <tag k="surface" v="paved"/>
  </node>
  <node id="134300127" version="1" timestamp="2007-11-26T08:15:37Z" uid="4467" user="Rosscoe" changeset="621649" lat="-32.666285" lon="138.17896">
    <tag k="created_by" v="JOSM"/>
    <tag k="highway" v="primary"/>
    <tag k="name" v="Willmington Orooroo Rd"/>
    <tag k="surface" v="paved"/>
  </node>
  <node id="134300127" version="2" timestamp="2007-12-25T10:08:14Z" uid="4467" user="Rosscoe" changeset="422154" lat="-32.666285" lon="138.17896">
    <tag k="created_by" v="JOSM"/>
    <tag k="highway" v="primary"/>
    <tag k="name" v="Willmington Orooroo Rd"/>
    <tag k="surface" v="paved"/>
  </node>
  <node id="134300159" version="1" timestamp="2007-11-26T08:15:38Z" uid="4467" user="Rosscoe" changeset="621649" lat="-32.666232" lon="138.161278">
    <tag k="created_by" v="JOSM"/>
    <tag k="highway" v="primary"/>
    <tag k="name" v="Willmington Orooroo Rd"/>
    <tag k="surface" v="paved"/>
  </node>
  <node id="134300159" version="2" timestamp="2007-12-25T10:08:10Z" uid="4467" user="Rosscoe" changeset="422154" lat="-32.666232" lon="138.161278">
    <tag k="created_by" v="JOSM"/>
    <tag k="highway" v="primary"/>
    <tag k="name" v="Willmington Orooroo Rd"/>
    <tag k="surface" v="paved"/>
  </node>
  <node id="134300186" version="1" timestamp="2007-11-26T08:15:39Z" uid="4467" user="Rosscoe" changeset="621649" lat="-32.666235" lon="138.16162">
    <tag k="created_by" v="JOSM"/>
    <tag k="highway" v="primary"/>
    <tag k="name" v="Willmington Orooroo Rd"/>
    <tag k="surface" v="paved"/>
  </node>
  <node id="134300186" version="2" timestamp="2007-12-25T10:09:15Z" uid="4467" user="Rosscoe" changeset="422154" lat="-32.666235" lon="138.16162">
    <tag k="created_by" v="JOSM"/>
    <tag k="highway" v="primary"/>
    <tag k="name" v="Willmington Orooroo Rd"/>
    <tag k="surface" v="paved"/>
  </node>
  <node id="134300220" version="1" timestamp="2007-11-26T08:15:39Z" uid="4467" user="Rosscoe" changeset="621649" lat="-32.666228" lon="138.160605">
    <tag k="created_by" v="JOSM"/>
    <tag k="highway" v="primary"/>
    <tag k="name" v="Willmington Orooroo Rd"/>
    <tag k="surface" v="paved"/>
  </node>
  <node id="134300220" version="2" timestamp="2007-12-25T10:09:19Z" uid="4467" user="Rosscoe" changeset="422154" lat="-32.666228" lon="138.160605">
    <tag k="created_by" v="JOSM"/>
    <tag k="highway" v="primary"/>
    <tag k="name" v="Willmington Orooroo Rd"/>
    <tag k="surface" v="paved"/>
  </node>
  <node id="134300242" version="1" timestamp="2007-11-26T08:15:40Z" uid="4467" user="Rosscoe" changeset="621649" lat="-32.66623" lon="138.160938">
    <tag k="created_by" v="JOSM"/>
    <tag k="highway" v="primary"/>
    <tag k="name" v="Willmington Orooroo Rd"/>
    <tag k="surface" v="paved"/>
  </node>
  <node id="134300242" version="2" timestamp="2007-12-25T10:09:04Z" uid="4467" user="Rosscoe" changeset="422154" lat="-32.66623" lon="138.160938">
    <tag k="created_by" v="JOSM"/>
    <tag k="highway" v="primary"/>
    <tag k="name" v="Willmington Orooroo Rd"/>
    <tag k="surface" v="paved"/>
  </node>
  <node id="134300268" version="1" timestamp="2007-11-26T08:15:41Z" uid="4467" user="Rosscoe" changeset="621649" lat="-32.666225" lon="138.159922">
    <tag k="created_by" v="JOSM"/>
    <tag k="highway" v="primary"/>
    <tag k="name" v="Willmington Orooroo Rd"/>
    <tag k="surface" v="paved"/>
  </node>
  <node id="134300268" version="2" timestamp="2007-12-25T10:09:07Z" uid="4467" user="Rosscoe" changeset="422154" lat="-32.666225" lon="138.159922">
    <tag k="created_by" v="JOSM"/>
    <tag k="highway" v="primary"/>
    <tag k="name" v="Willmington Orooroo Rd"/>
    <tag k="surface" v="paved"/>
  </node>
  <node id="134300295" version="1" timestamp="2007-11-26T08:15:42Z" uid="4467" user="Rosscoe" changeset="621649" lat="-32.666227" lon="138.160262">
    <tag k="created_by" v="JOSM"/>
    <tag k="highway" v="primary"/>
    <tag k="name" v="Willmington Orooroo Rd"/>
    <tag k="surface" v="paved"/>
  </node>
  <node id="134300295" version="2" timestamp="2007-12-25T10:08:56Z" uid="4467" user="Rosscoe" changeset="422154" lat="-32.666227" lon="138.160262">
    <tag k="created_by" v="JOSM"/>
    <tag k="highway" v="primary"/>
    <tag k="name" v="Willmington Orooroo Rd"/>
    <tag k="surface" v="paved"/>
  </node>
  <node id="134300316" version="1" timestamp="2007-11-26T08:15:43Z" uid="4467" user="Rosscoe" changeset="621649" lat="-32.66622" lon="138.159238">
    <tag k="created_by" v="JOSM"/>
    <tag k="highway" v="primary"/>
    <tag k="name" v="Willmington Orooroo Rd"/>
    <tag k="surface" v="paved"/>
  </node>
  <node id="134300316" version="2" timestamp="2007-12-25T10:08:58Z" uid="4467" user="Rosscoe" changeset="422154" lat="-32.66622" lon="138.159238">
    <tag k="created_by" v="JOSM"/>
    <tag k="highway" v="primary"/>
    <tag k="name" v="Willmington Orooroo Rd"/>
    <tag k="surface" v="paved"/>
  </node>
  <node id="134300332" version="1" timestamp="2007-11-26T08:15:43Z" uid="4467" user="Rosscoe" changeset="621649" lat="-32.666223" lon="138.159583">
    <tag k="created_by" v="JOSM"/>
    <tag k="highway" v="primary"/>
    <tag k="name" v="Willmington Orooroo Rd"/>
    <tag k="surface" v="paved"/>
  </node>
  <node id="134300332" version="2" timestamp="2007-12-25T10:08:59Z" uid="4467" user="Rosscoe" changeset="422154" lat="-32.666223" lon="138.159583">
    <tag k="created_by" v="JOSM"/>
    <tag k="highway" v="primary"/>
    <tag k="name" v="Willmington Orooroo Rd"/>
    <tag k="surface" v="paved"/>
  </node>
  <node id="134300366" version="1" timestamp="2007-11-26T08:15:44Z" uid="4467" user="Rosscoe" changeset="621649" lat="-32.666238" lon="138.163998">
    <tag k="created_by" v="JOSM"/>
    <tag k="highway" v="primary"/>
    <tag k="name" v="Willmington Orooroo Rd"/>
    <tag k="surface" v="paved"/>
  </node>
  <node id="134300366" version="2" timestamp="2007-12-25T10:08:46Z" uid="4467" user="Rosscoe" changeset="422154" lat="-32.666238" lon="138.163998">
    <tag k="created_by" v="JOSM"/>
    <tag k="highway" v="primary"/>
    <tag k="name" v="Willmington Orooroo Rd"/>
    <tag k="surface" v="paved"/>
  </node>
  <node id="134300396" version="1" timestamp="2007-11-26T08:15:45Z" uid="4467" user="Rosscoe" changeset="621649" lat="-32.666238" lon="138.164342">
    <tag k="created_by" v="JOSM"/>
    <tag k="highway" v="primary"/>
    <tag k="name" v="Willmington Orooroo Rd"/>
    <tag k="surface" v="paved"/>
  </node>
  <node id="134300396" version="2" timestamp="2007-12-25T10:08:50Z" uid="4467" user="Rosscoe" changeset="422154" lat="-32.666238" lon="138.164342">
    <tag k="created_by" v="JOSM"/>
    <tag k="highway" v="primary"/>
    <tag k="name" v="Willmington Orooroo Rd"/>
    <tag k="surface" v="paved"/>
  </node>
  <node id="134300413" version="1" timestamp="2007-11-26T08:15:46Z" uid="4467" user="Rosscoe" changeset="621649" lat="-32.66624" lon="138.16332">
    <tag k="created_by" v="JOSM"/>
    <tag k="highway" v="primary"/>
    <tag k="name" v="Willmington Orooroo Rd"/>
    <tag k="surface" v="paved"/>
  </node>
  <node id="134300413" version="2" timestamp="2007-12-25T10:08:52Z" uid="4467" user="Rosscoe" changeset="422154" lat="-32.66624" lon="138.16332">
    <tag k="created_by" v="JOSM"/>
    <tag k="highway" v="primary"/>
    <tag k="name" v="Willmington Orooroo Rd"/>
    <tag k="surface" v="paved"/>
  </node>
  <node id="134300441" version="1" timestamp="2007-11-26T08:15:46Z" uid="4467" user="Rosscoe" changeset="621649" lat="-32.66624" lon="138.16366">
    <tag k="created_by" v="JOSM"/>
    <tag k="highway" v="primary"/>
    <tag k="name" v="Willmington Orooroo Rd"/>
    <tag k="surface" v="paved"/>
  </node>
  <node id="134300441" version="2" timestamp="2007-12-25T10:09:49Z" uid="4467" user="Rosscoe" changeset="422154" lat="-32.66624" lon="138.16366">
    <tag k="created_by" v="JOSM"/>
    <tag k="highway" v="primary"/>
    <tag k="name" v="Willmington Orooroo Rd"/>
    <tag k="surface" v="paved"/>
  </node>
  <node id="134300469" version="1" timestamp="2007-11-26T08:15:47Z" uid="4467" user="Rosscoe" changeset="621649" lat="-32.666238" lon="138.162645">
    <tag k="created_by" v="JOSM"/>
    <tag k="highway" v="primary"/>
    <tag k="name" v="Willmington Orooroo Rd"/>
    <tag k="surface" v="paved"/>
  </node>
  <node id="134300469" version="2" timestamp="2007-12-25T10:09:52Z" uid="4467" user="Rosscoe" changeset="422154" lat="-32.666238" lon="138.162645">
    <tag k="created_by" v="JOSM"/>
    <tag k="highway" v="primary"/>
    <tag k="name" v="Willmington Orooroo Rd"/>
    <tag k="surface" v="paved"/>
  </node>
  <node id="134300498" version="1" timestamp="2007-11-26T08:15:48Z" uid="4467" user="Rosscoe" changeset="621649" lat="-32.666238" lon="138.16298">
    <tag k="created_by" v="JOSM"/>
    <tag k="highway" v="primary"/>
    <tag k="name" v="Willmington Orooroo Rd"/>
    <tag k="surface" v="paved"/>
  </node>
  <node id="134300498" version="2" timestamp="2007-12-25T10:09:40Z" uid="4467" user="Rosscoe" changeset="422154" lat="-32.666238" lon="138.16298">
    <tag k="created_by" v="JOSM"/>
    <tag k="highway" v="primary"/>
    <tag k="name" v="Willmington Orooroo Rd"/>
    <tag k="surface" v="paved"/>
  </node>
  <node id="134300526" version="1" timestamp="2007-11-26T08:15:49Z" uid="4467" user="Rosscoe" changeset="621649" lat="-32.666237" lon="138.161955">
    <tag k="created_by" v="JOSM"/>
    <tag k="highway" v="primary"/>
    <tag k="name" v="Willmington Orooroo Rd"/>
    <tag k="surface" v="paved"/>
  </node>
  <node id="134300526" version="2" timestamp="2007-12-25T10:09:48Z" uid="4467" user="Rosscoe" changeset="422154" lat="-32.666237" lon="138.161955">
    <tag k="created_by" v="JOSM"/>
    <tag k="highway" v="primary"/>
    <tag k="name" v="Willmington Orooroo Rd"/>
    <tag k="surface" v="paved"/>
  </node>
  <node id="134300564" version="1" timestamp="2007-11-26T08:15:49Z" uid="4467" user="Rosscoe" changeset="621649" lat="-32.666237" lon="138.162302">
    <tag k="created_by" v="JOSM"/>
    <tag k="highway" v="primary"/>
    <tag k="name" v="Willmington Orooroo Rd"/>
    <tag k="surface" v="paved"/>
  </node>
  <node id="134300564" version="2" timestamp="2007-12-25T10:09:29Z" uid="4467" user="Rosscoe" changeset="422154" lat="-32.666237" lon="138.162302">
    <tag k="created_by" v="JOSM"/>
    <tag k="highway" v="primary"/>
    <tag k="name" v="Willmington Orooroo Rd"/>
    <tag k="surface" v="paved"/>
  </node>
  <node id="134300586" version="1" timestamp="2007-11-26T08:15:50Z" uid="4467" user="Rosscoe" changeset="621649" lat="-32.666252" lon="138.16706">
    <tag k="created_by" v="JOSM"/>
    <tag k="highway" v="primary"/>
    <tag k="name" v="Willmington Orooroo Rd"/>
    <tag k="surface" v="paved"/>
  </node>
  <node id="134300586" version="2" timestamp="2007-12-25T10:09:37Z" uid="4467" user="Rosscoe" changeset="422154" lat="-32.666252" lon="138.16706">
    <tag k="created_by" v="JOSM"/>
    <tag k="highway" v="primary"/>
    <tag k="name" v="Willmington Orooroo Rd"/>
    <tag k="surface" v="paved"/>
  </node>
  <node id="134300613" version="1" timestamp="2007-11-26T08:15:51Z" uid="4467" user="Rosscoe" changeset="621649" lat="-32.66625" lon="138.166725">
    <tag k="created_by" v="JOSM"/>
    <tag k="highway" v="primary"/>
    <tag k="name" v="Willmington Orooroo Rd"/>
    <tag k="surface" v="paved"/>
  </node>
  <node id="134300613" version="2" timestamp="2007-12-25T10:09:23Z" uid="4467" user="Rosscoe" changeset="422154" lat="-32.66625" lon="138.166725">
    <tag k="created_by" v="JOSM"/>
    <tag k="highway" v="primary"/>
    <tag k="name" v="Willmington Orooroo Rd"/>
    <tag k="surface" v="paved"/>
  </node>
  <node id="134300646" version="1" timestamp="2007-11-26T08:15:52Z" uid="4467" user="Rosscoe" changeset="621649" lat="-32.666248" lon="138.166377">
    <tag k="created_by" v="JOSM"/>
    <tag k="highway" v="primary"/>
    <tag k="name" v="Willmington Orooroo Rd"/>
    <tag k="surface" v="paved"/>
  </node>
  <node id="134300646" version="2" timestamp="2007-12-25T10:09:26Z" uid="4467" user="Rosscoe" changeset="422154" lat="-32.666248" lon="138.166377">
    <tag k="created_by" v="JOSM"/>
    <tag k="highway" v="primary"/>
    <tag k="name" v="Willmington Orooroo Rd"/>
    <tag k="surface" v="paved"/>
  </node>
  <node id="134300683" version="1" timestamp="2007-11-26T08:15:53Z" uid="4467" user="Rosscoe" changeset="621649" lat="-32.666248" lon="138.166035">
    <tag k="created_by" v="JOSM"/>
    <tag k="highway" v="primary"/>
    <tag k="name" v="Willmington Orooroo Rd"/>
    <tag k="surface" v="paved"/>
  </node>
  <node id="134300683" version="2" timestamp="2007-12-25T10:10:21Z" uid="4467" user="Rosscoe" changeset="422154" lat="-32.666248" lon="138.166035">
    <tag k="created_by" v="JOSM"/>
    <tag k="highway" v="primary"/>
    <tag k="name" v="Willmington Orooroo Rd"/>
    <tag k="surface" v="paved"/>
  </node>
  <node id="134300712" version="1" timestamp="2007-11-26T08:15:53Z" uid="4467" user="Rosscoe" changeset="621649" lat="-32.666245" lon="138.16569">
    <tag k="created_by" v="JOSM"/>
    <tag k="highway" v="primary"/>
    <tag k="name" v="Willmington Orooroo Rd"/>
    <tag k="surface" v="paved"/>
  </node>
  <node id="134300712" version="2" timestamp="2007-12-25T10:10:18Z" uid="4467" user="Rosscoe" changeset="422154" lat="-32.666245" lon="138.16569">
    <tag k="created_by" v="JOSM"/>
    <tag k="highway" v="primary"/>
    <tag k="name" v="Willmington Orooroo Rd"/>
    <tag k="surface" v="paved"/>
  </node>
  <node id="134300743" version="1" timestamp="2007-11-26T08:15:54Z" uid="4467" user="Rosscoe" changeset="621649" lat="-32.666242" lon="138.165357">
    <tag k="created_by" v="JOSM"/>
    <tag k="highway" v="primary"/>
    <tag k="name" v="Willmington Orooroo Rd"/>
    <tag k="surface" v="paved"/>
  </node>
  <node id="134300743" version="2" timestamp="2007-12-25T09:51:51Z" uid="4467" user="Rosscoe" changeset="422154" lat="-32.666242" lon="138.165357">
    <tag k="created_by" v="JOSM"/>
  </node>
  <node id="134300764" version="1" timestamp="2007-11-26T08:15:55Z" uid="4467" user="Rosscoe" changeset="621649" lat="-32.666242" lon="138.165018">
    <tag k="created_by" v="JOSM"/>
    <tag k="highway" v="primary"/>
    <tag k="name" v="Willmington Orooroo Rd"/>
    <tag k="surface" v="paved"/>
  </node>
  <node id="134300764" version="2" timestamp="2007-12-25T10:10:31Z" uid="4467" user="Rosscoe" changeset="422154" lat="-32.666242" lon="138.165018">
    <tag k="created_by" v="JOSM"/>
    <tag k="highway" v="primary"/>
    <tag k="name" v="Willmington Orooroo Rd"/>
    <tag k="surface" v="paved"/>
  </node>
  <node id="134300790" version="1" timestamp="2007-11-26T08:15:56Z" uid="4467" user="Rosscoe" changeset="621649" lat="-32.666242" lon="138.164683">
    <tag k="created_by" v="JOSM"/>
    <tag k="highway" v="primary"/>
    <tag k="name" v="Willmington Orooroo Rd"/>
    <tag k="surface" v="paved"/>
  </node>
  <node id="134300790" version="2" timestamp="2007-12-25T10:10:27Z" uid="4467" user="Rosscoe" changeset="422154" lat="-32.666242" lon="138.164683">
    <tag k="created_by" v="JOSM"/>
    <tag k="highway" v="primary"/>
    <tag k="name" v="Willmington Orooroo Rd"/>
    <tag k="surface" v="paved"/>
  </node>
  <node id="134300808" version="1" timestamp="2007-11-26T08:15:56Z" uid="4467" user="Rosscoe" changeset="621649" lat="-32.666263" lon="138.169775">
    <tag k="created_by" v="JOSM"/>
    <tag k="highway" v="primary"/>
    <tag k="name" v="Willmington Orooroo Rd"/>
    <tag k="surface" v="paved"/>
  </node>
  <node id="134300808" version="2" timestamp="2007-12-25T10:10:03Z" uid="4467" user="Rosscoe" changeset="422154" lat="-32.666263" lon="138.169775">
    <tag k="created_by" v="JOSM"/>
    <tag k="highway" v="primary"/>
    <tag k="name" v="Willmington Orooroo Rd"/>
    <tag k="surface" v="paved"/>
  </node>
  <node id="134300834" version="1" timestamp="2007-11-26T08:15:57Z" uid="4467" user="Rosscoe" changeset="621649" lat="-32.66626" lon="138.169435">
    <tag k="created_by" v="JOSM"/>
    <tag k="highway" v="primary"/>
    <tag k="name" v="Willmington Orooroo Rd"/>
    <tag k="surface" v="paved"/>
  </node>
  <node id="134300834" version="2" timestamp="2007-12-25T10:09:57Z" uid="4467" user="Rosscoe" changeset="422154" lat="-32.66626" lon="138.169435">
    <tag k="created_by" v="JOSM"/>
    <tag k="highway" v="primary"/>
    <tag k="name" v="Willmington Orooroo Rd"/>
    <tag k="surface" v="paved"/>
  </node>
  <node id="134300860" version="1" timestamp="2007-11-26T08:15:58Z" uid="4467" user="Rosscoe" changeset="621649" lat="-32.66626" lon="138.169097">
    <tag k="created_by" v="JOSM"/>
    <tag k="highway" v="primary"/>
    <tag k="name" v="Willmington Orooroo Rd"/>
    <tag k="surface" v="paved"/>
  </node>
  <node id="134300860" version="2" timestamp="2007-12-25T10:10:02Z" uid="4467" user="Rosscoe" changeset="422154" lat="-32.66626" lon="138.169097">
    <tag k="created_by" v="JOSM"/>
    <tag k="highway" v="primary"/>
    <tag k="name" v="Willmington Orooroo Rd"/>
    <tag k="surface" v="paved"/>
  </node>
  <node id="134300889" version="1" timestamp="2007-11-26T08:15:59Z" uid="4467" user="Rosscoe" changeset="621649" lat="-32.66626" lon="138.168763">
    <tag k="created_by" v="JOSM"/>
    <tag k="highway" v="primary"/>
    <tag k="name" v="Willmington Orooroo Rd"/>
    <tag k="surface" v="paved"/>
  </node>
  <node id="134300889" version="2" timestamp="2007-12-25T10:10:17Z" uid="4467" user="Rosscoe" changeset="422154" lat="-32.66626" lon="138.168763">
    <tag k="created_by" v="JOSM"/>
    <tag k="highway" v="primary"/>
    <tag k="name" v="Willmington Orooroo Rd"/>
    <tag k="surface" v="paved"/>
  </node>
  <node id="134300920" version="1" timestamp="2007-11-26T08:16:00Z" uid="4467" user="Rosscoe" changeset="621649" lat="-32.666258" lon="138.168418">
    <tag k="created_by" v="JOSM"/>
    <tag k="highway" v="primary"/>
    <tag k="name" v="Willmington Orooroo Rd"/>
    <tag k="surface" v="paved"/>
  </node>
  <node id="134300920" version="2" timestamp="2007-12-25T10:10:11Z" uid="4467" user="Rosscoe" changeset="422154" lat="-32.666258" lon="138.168418">
    <tag k="created_by" v="JOSM"/>
    <tag k="highway" v="primary"/>
    <tag k="name" v="Willmington Orooroo Rd"/>
    <tag k="surface" v="paved"/>
  </node>
  <node id="134300950" version="1" timestamp="2007-11-26T08:16:00Z" uid="4467" user="Rosscoe" changeset="621649" lat="-32.666258" lon="138.16808">
    <tag k="created_by" v="JOSM"/>
    <tag k="highway" v="primary"/>
    <tag k="name" v="Willmington Orooroo Rd"/>
    <tag k="surface" v="paved"/>
  </node>
  <node id="134300950" version="2" timestamp="2007-12-25T10:11:04Z" uid="4467" user="Rosscoe" changeset="422154" lat="-32.666258" lon="138.16808">
    <tag k="created_by" v="JOSM"/>
    <tag k="highway" v="primary"/>
    <tag k="name" v="Willmington Orooroo Rd"/>
    <tag k="surface" v="paved"/>
  </node>
  <node id="134300978" version="1" timestamp="2007-11-26T08:16:01Z" uid="4467" user="Rosscoe" changeset="621649" lat="-32.666257" lon="138.16774">
    <tag k="created_by" v="JOSM"/>
    <tag k="highway" v="primary"/>
    <tag k="name" v="Willmington Orooroo Rd"/>
    <tag k="surface" v="paved"/>
  </node>
  <node id="134300978" version="2" timestamp="2007-12-25T10:10:55Z" uid="4467" user="Rosscoe" changeset="422154" lat="-32.666257" lon="138.16774">
    <tag k="created_by" v="JOSM"/>
    <tag k="highway" v="primary"/>
    <tag k="name" v="Willmington Orooroo Rd"/>
    <tag k="surface" v="paved"/>
  </node>
  <node id="134301011" version="1" timestamp="2007-11-26T08:16:02Z" uid="4467" user="Rosscoe" changeset="621649" lat="-32.666253" lon="138.1674">
    <tag k="created_by" v="JOSM"/>
    <tag k="highway" v="primary"/>
    <tag k="name" v="Willmington Orooroo Rd"/>
    <tag k="surface" v="paved"/>
  </node>
  <node id="134301011" version="2" timestamp="2007-12-25T10:11:13Z" uid="4467" user="Rosscoe" changeset="422154" lat="-32.666253" lon="138.1674">
    <tag k="created_by" v="JOSM"/>
    <tag k="highway" v="primary"/>
    <tag k="name" v="Willmington Orooroo Rd"/>
    <tag k="surface" v="paved"/>
  </node>
  <node id="134301045" version="1" timestamp="2007-11-26T08:16:03Z" uid="4467" user="Rosscoe" changeset="621649" lat="-32.665938" lon="138.111612">
    <tag k="created_by" v="JOSM"/>
    <tag k="highway" v="primary"/>
    <tag k="name" v="Willmington Orooroo Rd"/>
    <tag k="surface" v="paved"/>
  </node>
  <node id="134301045" version="2" timestamp="2007-12-25T10:11:07Z" uid="4467" user="Rosscoe" changeset="422154" lat="-32.665938" lon="138.111612">
    <tag k="created_by" v="JOSM"/>
    <tag k="highway" v="primary"/>
    <tag k="name" v="Willmington Orooroo Rd"/>
    <tag k="surface" v="paved"/>
  </node>
  <node id="134301069" version="1" timestamp="2007-11-26T08:16:04Z" uid="4467" user="Rosscoe" changeset="621649" lat="-32.665938" lon="138.11155">
    <tag k="created_by" v="JOSM"/>
    <tag k="highway" v="primary"/>
    <tag k="name" v="Willmington Orooroo Rd"/>
    <tag k="surface" v="paved"/>
  </node>
  <node id="134301069" version="2" timestamp="2007-12-25T09:51:49Z" uid="4467" user="Rosscoe" changeset="422154" lat="-32.665938" lon="138.11155">
    <tag k="created_by" v="JOSM"/>
  </node>
  <node id="134301083" version="1" timestamp="2007-11-26T08:16:04Z" uid="4467" user="Rosscoe" changeset="621649" lat="-32.66595" lon="138.113185">
    <tag k="created_by" v="JOSM"/>
    <tag k="highway" v="primary"/>
    <tag k="name" v="Willmington Orooroo Rd"/>
    <tag k="surface" v="paved"/>
  </node>
  <node id="134301083" version="2" timestamp="2007-12-25T10:10:39Z" uid="4467" user="Rosscoe" changeset="422154" lat="-32.66595" lon="138.113185">
    <tag k="created_by" v="JOSM"/>
    <tag k="highway" v="primary"/>
    <tag k="name" v="Willmington Orooroo Rd"/>
    <tag k="surface" v="paved"/>
  </node>
  <node id="134301106" version="1" timestamp="2007-11-26T08:16:05Z" uid="4467" user="Rosscoe" changeset="621649" lat="-32.665948" lon="138.113698">
    <tag k="created_by" v="JOSM"/>
    <tag k="highway" v="primary"/>
    <tag k="name" v="Willmington Orooroo Rd"/>
    <tag k="surface" v="paved"/>
  </node>
  <node id="134301106" version="2" timestamp="2007-12-25T10:10:36Z" uid="4467" user="Rosscoe" changeset="422154" lat="-32.665948" lon="138.113698">
    <tag k="created_by" v="JOSM"/>
    <tag k="highway" v="primary"/>
    <tag k="name" v="Willmington Orooroo Rd"/>
    <tag k="surface" v="paved"/>
  </node>
  <node id="134301130" version="1" timestamp="2007-11-26T08:16:06Z" uid="4467" user="Rosscoe" changeset="621649" lat="-32.665948" lon="138.113968">
    <tag k="created_by" v="JOSM"/>
    <tag k="highway" v="primary"/>
    <tag k="name" v="Willmington Orooroo Rd"/>
    <tag k="surface" v="paved"/>
  </node>
  <node id="134301130" version="2" timestamp="2007-12-25T10:10:52Z" uid="4467" user="Rosscoe" changeset="422154" lat="-32.665948" lon="138.113968">
    <tag k="created_by" v="JOSM"/>
    <tag k="highway" v="primary"/>
    <tag k="name" v="Willmington Orooroo Rd"/>
    <tag k="surface" v="paved"/>
  </node>
  <node id="134301155" version="1" timestamp="2007-11-26T08:16:07Z" uid="4467" user="Rosscoe" changeset="621649" lat="-32.66595" lon="138.114238">
    <tag k="created_by" v="JOSM"/>
    <tag k="highway" v="primary"/>
    <tag k="name" v="Willmington Orooroo Rd"/>
    <tag k="surface" v="paved"/>
  </node>
  <node id="134301155" version="2" timestamp="2007-12-25T10:10:47Z" uid="4467" user="Rosscoe" changeset="422154" lat="-32.66595" lon="138.114238">
    <tag k="created_by" v="JOSM"/>
    <tag k="highway" v="primary"/>
    <tag k="name" v="Willmington Orooroo Rd"/>
    <tag k="surface" v="paved"/>
  </node>
  <node id="134301183" version="1" timestamp="2007-11-26T08:16:07Z" uid="4467" user="Rosscoe" changeset="621649" lat="-32.665952" lon="138.114532">
    <tag k="created_by" v="JOSM"/>
    <tag k="highway" v="primary"/>
    <tag k="name" v="Willmington Orooroo Rd"/>
    <tag k="surface" v="paved"/>
  </node>
  <node id="134301183" version="2" timestamp="2007-12-25T10:10:43Z" uid="4467" user="Rosscoe" changeset="422154" lat="-32.665952" lon="138.114532">
    <tag k="created_by" v="JOSM"/>
    <tag k="highway" v="primary"/>
    <tag k="name" v="Willmington Orooroo Rd"/>
    <tag k="surface" v="paved"/>
  </node>
  <node id="134301207" version="1" timestamp="2007-11-26T08:16:08Z" uid="4467" user="Rosscoe" changeset="621649" lat="-32.665952" lon="138.114833">
    <tag k="created_by" v="JOSM"/>
    <tag k="highway" v="primary"/>
    <tag k="name" v="Willmington Orooroo Rd"/>
    <tag k="surface" v="paved"/>
  </node>
  <node id="134301207" version="2" timestamp="2007-12-25T10:11:40Z" uid="4467" user="Rosscoe" changeset="422154" lat="-32.665952" lon="138.114833">
    <tag k="created_by" v="JOSM"/>
    <tag k="highway" v="primary"/>
    <tag k="name" v="Willmington Orooroo Rd"/>
    <tag k="surface" v="paved"/>
  </node>
  <node id="134301220" version="1" timestamp="2007-11-26T08:16:09Z" uid="4467" user="Rosscoe" changeset="621649" lat="-32.665948" lon="138.115145">
    <tag k="created_by" v="JOSM"/>
    <tag k="highway" v="primary"/>
    <tag k="name" v="Willmington Orooroo Rd"/>
    <tag k="surface" v="paved"/>
  </node>
  <node id="134301220" version="2" timestamp="2007-12-25T10:11:45Z" uid="4467" user="Rosscoe" changeset="422154" lat="-32.665948" lon="138.115145">
    <tag k="created_by" v="JOSM"/>
    <tag k="highway" v="primary"/>
    <tag k="name" v="Willmington Orooroo Rd"/>
    <tag k="surface" v="paved"/>
  </node>
  <node id="134301231" version="1" timestamp="2007-11-26T08:16:10Z" uid="4467" user="Rosscoe" changeset="621649" lat="-32.665948" lon="138.115462">
    <tag k="created_by" v="JOSM"/>
    <tag k="highway" v="primary"/>
    <tag k="name" v="Willmington Orooroo Rd"/>
    <tag k="surface" v="paved"/>
  </node>
  <node id="134301231" version="2" timestamp="2007-12-25T10:11:43Z" uid="4467" user="Rosscoe" changeset="422154" lat="-32.665948" lon="138.115462">
    <tag k="created_by" v="JOSM"/>
    <tag k="highway" v="primary"/>
    <tag k="name" v="Willmington Orooroo Rd"/>
    <tag k="surface" v="paved"/>
  </node>
  <node id="134301252" version="1" timestamp="2007-11-26T08:16:11Z" uid="4467" user="Rosscoe" changeset="621649" lat="-32.66594" lon="138.111695">
    <tag k="created_by" v="JOSM"/>
    <tag k="highway" v="primary"/>
    <tag k="name" v="Willmington Orooroo Rd"/>
    <tag k="surface" v="paved"/>
  </node>
  <node id="134301252" version="2" timestamp="2007-12-25T10:11:48Z" uid="4467" user="Rosscoe" changeset="422154" lat="-32.66594" lon="138.111695">
    <tag k="created_by" v="JOSM"/>
    <tag k="highway" v="primary"/>
    <tag k="name" v="Willmington Orooroo Rd"/>
    <tag k="surface" v="paved"/>
  </node>
  <node id="134301285" version="1" timestamp="2007-11-26T08:16:12Z" uid="4467" user="Rosscoe" changeset="621649" lat="-32.665943" lon="138.111803">
    <tag k="created_by" v="JOSM"/>
    <tag k="highway" v="primary"/>
    <tag k="name" v="Willmington Orooroo Rd"/>
    <tag k="surface" v="paved"/>
  </node>
  <node id="134301285" version="2" timestamp="2007-12-25T10:11:52Z" uid="4467" user="Rosscoe" changeset="422154" lat="-32.665943" lon="138.111803">
    <tag k="created_by" v="JOSM"/>
    <tag k="highway" v="primary"/>
    <tag k="name" v="Willmington Orooroo Rd"/>
    <tag k="surface" v="paved"/>
  </node>
  <node id="134301300" version="1" timestamp="2007-11-26T08:16:12Z" uid="4467" user="Rosscoe" changeset="621649" lat="-32.665945" lon="138.111935">
    <tag k="created_by" v="JOSM"/>
    <tag k="highway" v="primary"/>
    <tag k="name" v="Willmington Orooroo Rd"/>
    <tag k="surface" v="paved"/>
  </node>
  <node id="134301300" version="2" timestamp="2007-12-25T10:11:53Z" uid="4467" user="Rosscoe" changeset="422154" lat="-32.665945" lon="138.111935">
    <tag k="created_by" v="JOSM"/>
    <tag k="highway" v="primary"/>
    <tag k="name" v="Willmington Orooroo Rd"/>
    <tag k="surface" v="paved"/>
  </node>
  <node id="134301336" version="1" timestamp="2007-11-26T08:16:14Z" uid="4467" user="Rosscoe" changeset="621649" lat="-32.665948" lon="138.112092">
    <tag k="created_by" v="JOSM"/>
    <tag k="highway" v="primary"/>
    <tag k="name" v="Willmington Orooroo Rd"/>
    <tag k="surface" v="paved"/>
  </node>
  <node id="134301336" version="2" timestamp="2007-12-25T10:11:19Z" uid="4467" user="Rosscoe" changeset="422154" lat="-32.665948" lon="138.112092">
    <tag k="created_by" v="JOSM"/>
    <tag k="highway" v="primary"/>
    <tag k="name" v="Willmington Orooroo Rd"/>
    <tag k="surface" v="paved"/>
  </node>
  <node id="134301362" version="1" timestamp="2007-11-26T08:16:14Z" uid="4467" user="Rosscoe" changeset="621649" lat="-32.66595" lon="138.112275">
    <tag k="created_by" v="JOSM"/>
    <tag k="highway" v="primary"/>
    <tag k="name" v="Willmington Orooroo Rd"/>
    <tag k="surface" v="paved"/>
  </node>
  <node id="134301362" version="2" timestamp="2007-12-25T10:11:23Z" uid="4467" user="Rosscoe" changeset="422154" lat="-32.66595" lon="138.112275">
    <tag k="created_by" v="JOSM"/>
    <tag k="highway" v="primary"/>
    <tag k="name" v="Willmington Orooroo Rd"/>
    <tag k="surface" v="paved"/>
  </node>
  <node id="134301369" version="1" timestamp="2007-11-26T08:16:15Z" uid="4467" user="Rosscoe" changeset="621649" lat="-32.665955" lon="138.112478">
    <tag k="created_by" v="JOSM"/>
    <tag k="highway" v="primary"/>
    <tag k="name" v="Willmington Orooroo Rd"/>
    <tag k="surface" v="paved"/>
  </node>
  <node id="134301369" version="2" timestamp="2007-12-25T09:51:44Z" uid="4467" user="Rosscoe" changeset="422154" lat="-32.665955" lon="138.112478">
    <tag k="created_by" v="JOSM"/>
  </node>
  <node id="134301392" version="1" timestamp="2007-11-26T08:16:16Z" uid="4467" user="Rosscoe" changeset="621649" lat="-32.665955" lon="138.112698">
    <tag k="created_by" v="JOSM"/>
    <tag k="highway" v="primary"/>
    <tag k="name" v="Willmington Orooroo Rd"/>
    <tag k="surface" v="paved"/>
  </node>
  <node id="134301392" version="2" timestamp="2007-12-25T10:11:28Z" uid="4467" user="Rosscoe" changeset="422154" lat="-32.665955" lon="138.112698">
    <tag k="created_by" v="JOSM"/>
    <tag k="highway" v="primary"/>
    <tag k="name" v="Willmington Orooroo Rd"/>
    <tag k="surface" v="paved"/>
  </node>
  <node id="134301410" version="1" timestamp="2007-11-26T08:16:17Z" uid="4467" user="Rosscoe" changeset="621649" lat="-32.665955" lon="138.112935">
    <tag k="created_by" v="JOSM"/>
    <tag k="highway" v="primary"/>
    <tag k="name" v="Willmington Orooroo Rd"/>
    <tag k="surface" v="paved"/>
  </node>
  <node id="134301410" version="2" timestamp="2007-12-25T10:11:29Z" uid="4467" user="Rosscoe" changeset="422154" lat="-32.665955" lon="138.112935">
    <tag k="created_by" v="JOSM"/>
    <tag k="highway" v="primary"/>
    <tag k="name" v="Willmington Orooroo Rd"/>
    <tag k="surface" v="paved"/>
  </node>
  <node id="134301440" version="1" timestamp="2007-11-26T08:16:18Z" uid="4467" user="Rosscoe" changeset="621649" lat="-32.666145" lon="138.131048">
    <tag k="created_by" v="JOSM"/>
    <tag k="highway" v="primary"/>
    <tag k="name" v="Willmington Orooroo Rd"/>
    <tag k="surface" v="paved"/>
  </node>
  <node id="134301440" version="2" timestamp="2007-12-25T10:12:21Z" uid="4467" user="Rosscoe" changeset="422154" lat="-32.666145" lon="138.131048">
    <tag k="created_by" v="JOSM"/>
    <tag k="highway" v="primary"/>
    <tag k="name" v="Willmington Orooroo Rd"/>
    <tag k="surface" v="paved"/>
  </node>
  <node id="134301466" version="1" timestamp="2007-11-26T08:16:18Z" uid="4467" user="Rosscoe" changeset="621649" lat="-32.666142" lon="138.130708">
    <tag k="created_by" v="JOSM"/>
    <tag k="highway" v="primary"/>
    <tag k="name" v="Willmington Orooroo Rd"/>
    <tag k="surface" v="paved"/>
  </node>
  <node id="134301466" version="2" timestamp="2007-12-25T10:12:17Z" uid="4467" user="Rosscoe" changeset="422154" lat="-32.666142" lon="138.130708">
    <tag k="created_by" v="JOSM"/>
    <tag k="highway" v="primary"/>
    <tag k="name" v="Willmington Orooroo Rd"/>
    <tag k="surface" v="paved"/>
  </node>
  <node id="134301490" version="1" timestamp="2007-11-26T08:16:19Z" uid="4467" user="Rosscoe" changeset="621649" lat="-32.666145" lon="138.131727">
    <tag k="created_by" v="JOSM"/>
    <tag k="highway" v="primary"/>
    <tag k="name" v="Willmington Orooroo Rd"/>
    <tag k="surface" v="paved"/>
  </node>
  <node id="134301490" version="2" timestamp="2007-12-25T10:12:24Z" uid="4467" user="Rosscoe" changeset="422154" lat="-32.666145" lon="138.131727">
    <tag k="created_by" v="JOSM"/>
    <tag k="highway" v="primary"/>
    <tag k="name" v="Willmington Orooroo Rd"/>
    <tag k="surface" v="paved"/>
  </node>
  <node id="134301518" version="1" timestamp="2007-11-26T08:16:20Z" uid="4467" user="Rosscoe" changeset="621649" lat="-32.666147" lon="138.131383">
    <tag k="created_by" v="JOSM"/>
    <tag k="highway" v="primary"/>
    <tag k="name" v="Willmington Orooroo Rd"/>
    <tag k="surface" v="paved"/>
  </node>
  <node id="134301518" version="2" timestamp="2007-12-25T09:51:39Z" uid="4467" user="Rosscoe" changeset="422154" lat="-32.666147" lon="138.131383">
    <tag k="created_by" v="JOSM"/>
  </node>
  <node id="134301543" version="1" timestamp="2007-11-26T08:16:21Z" uid="4467" user="Rosscoe" changeset="621649" lat="-32.666128" lon="138.129695">
    <tag k="created_by" v="JOSM"/>
    <tag k="highway" v="primary"/>
    <tag k="name" v="Willmington Orooroo Rd"/>
    <tag k="surface" v="paved"/>
  </node>
  <node id="134301543" version="2" timestamp="2007-12-25T10:12:36Z" uid="4467" user="Rosscoe" changeset="422154" lat="-32.666128" lon="138.129695">
    <tag k="created_by" v="JOSM"/>
    <tag k="highway" v="primary"/>
    <tag k="name" v="Willmington Orooroo Rd"/>
    <tag k="surface" v="paved"/>
  </node>
  <node id="134301565" version="1" timestamp="2007-11-26T08:16:22Z" uid="4467" user="Rosscoe" changeset="621649" lat="-32.666125" lon="138.129357">
    <tag k="created_by" v="JOSM"/>
    <tag k="highway" v="primary"/>
    <tag k="name" v="Willmington Orooroo Rd"/>
    <tag k="surface" v="paved"/>
  </node>
  <node id="134301565" version="2" timestamp="2007-12-25T10:12:32Z" uid="4467" user="Rosscoe" changeset="422154" lat="-32.666125" lon="138.129357">
    <tag k="created_by" v="JOSM"/>
    <tag k="highway" v="primary"/>
    <tag k="name" v="Willmington Orooroo Rd"/>
    <tag k="surface" v="paved"/>
  </node>
  <node id="134301594" version="1" timestamp="2007-11-26T08:16:22Z" uid="4467" user="Rosscoe" changeset="621649" lat="-32.666138" lon="138.13037">
    <tag k="created_by" v="JOSM"/>
    <tag k="highway" v="primary"/>
    <tag k="name" v="Willmington Orooroo Rd"/>
    <tag k="surface" v="paved"/>
  </node>
  <node id="134301594" version="2" timestamp="2007-12-25T10:11:57Z" uid="4467" user="Rosscoe" changeset="422154" lat="-32.666138" lon="138.13037">
    <tag k="created_by" v="JOSM"/>
    <tag k="highway" v="primary"/>
    <tag k="name" v="Willmington Orooroo Rd"/>
    <tag k="surface" v="paved"/>
  </node>
  <node id="134301618" version="1" timestamp="2007-11-26T08:16:23Z" uid="4467" user="Rosscoe" changeset="621649" lat="-32.666133" lon="138.130037">
    <tag k="created_by" v="JOSM"/>
    <tag k="highway" v="primary"/>
    <tag k="name" v="Willmington Orooroo Rd"/>
    <tag k="surface" v="paved"/>
  </node>
  <node id="134301618" version="2" timestamp="2007-12-25T10:12:00Z" uid="4467" user="Rosscoe" changeset="422154" lat="-32.666133" lon="138.130037">
    <tag k="created_by" v="JOSM"/>
    <tag k="highway" v="primary"/>
    <tag k="name" v="Willmington Orooroo Rd"/>
    <tag k="surface" v="paved"/>
  </node>
  <node id="134301638" version="1" timestamp="2007-11-26T08:16:24Z" uid="4467" user="Rosscoe" changeset="621649" lat="-32.666118" lon="138.128338">
    <tag k="created_by" v="JOSM"/>
    <tag k="highway" v="primary"/>
    <tag k="name" v="Willmington Orooroo Rd"/>
    <tag k="surface" v="paved"/>
  </node>
  <node id="134301638" version="2" timestamp="2007-12-25T10:12:09Z" uid="4467" user="Rosscoe" changeset="422154" lat="-32.666118" lon="138.128338">
    <tag k="created_by" v="JOSM"/>
    <tag k="highway" v="primary"/>
    <tag k="name" v="Willmington Orooroo Rd"/>
    <tag k="surface" v="paved"/>
  </node>
  <node id="134301662" version="1" timestamp="2007-11-26T08:16:25Z" uid="4467" user="Rosscoe" changeset="621649" lat="-32.66612" lon="138.128003">
    <tag k="created_by" v="JOSM"/>
    <tag k="highway" v="primary"/>
    <tag k="name" v="Willmington Orooroo Rd"/>
    <tag k="surface" v="paved"/>
  </node>
  <node id="134301662" version="2" timestamp="2007-12-25T10:12:07Z" uid="4467" user="Rosscoe" changeset="422154" lat="-32.66612" lon="138.128003">
    <tag k="created_by" v="JOSM"/>
    <tag k="highway" v="primary"/>
    <tag k="name" v="Willmington Orooroo Rd"/>
    <tag k="surface" v="paved"/>
  </node>
  <node id="134301685" version="1" timestamp="2007-11-26T08:16:26Z" uid="4467" user="Rosscoe" changeset="621649" lat="-32.666123" lon="138.129018">
    <tag k="created_by" v="JOSM"/>
    <tag k="highway" v="primary"/>
    <tag k="name" v="Willmington Orooroo Rd"/>
    <tag k="surface" v="paved"/>
  </node>
  <node id="134301685" version="2" timestamp="2007-12-25T10:12:12Z" uid="4467" user="Rosscoe" changeset="422154" lat="-32.666123" lon="138.129018">
    <tag k="created_by" v="JOSM"/>
    <tag k="highway" v="primary"/>
    <tag k="name" v="Willmington Orooroo Rd"/>
    <tag k="surface" v="paved"/>
  </node>
  <node id="134301714" version="1" timestamp="2007-11-26T08:16:27Z" uid="4467" user="Rosscoe" changeset="621649" lat="-32.66612" lon="138.128682">
    <tag k="created_by" v="JOSM"/>
    <tag k="highway" v="primary"/>
    <tag k="name" v="Willmington Orooroo Rd"/>
    <tag k="surface" v="paved"/>
  </node>
  <node id="134301714" version="2" timestamp="2007-12-25T09:51:36Z" uid="4467" user="Rosscoe" changeset="422154" lat="-32.66612" lon="138.128682">
    <tag k="created_by" v="JOSM"/>
  </node>
  <node id="134301742" version="1" timestamp="2007-11-26T08:16:28Z" uid="4467" user="Rosscoe" changeset="621649" lat="-32.666115" lon="138.126978">
    <tag k="created_by" v="JOSM"/>
    <tag k="highway" v="primary"/>
    <tag k="name" v="Willmington Orooroo Rd"/>
    <tag k="surface" v="paved"/>
  </node>
  <node id="134301742" version="2" timestamp="2007-12-25T10:12:50Z" uid="4467" user="Rosscoe" changeset="422154" lat="-32.666115" lon="138.126978">
    <tag k="created_by" v="JOSM"/>
    <tag k="highway" v="primary"/>
    <tag k="name" v="Willmington Orooroo Rd"/>
    <tag k="surface" v="paved"/>
  </node>
  <node id="134301764" version="1" timestamp="2007-11-26T08:16:28Z" uid="4467" user="Rosscoe" changeset="621649" lat="-32.666113" lon="138.12664">
    <tag k="created_by" v="JOSM"/>
    <tag k="highway" v="primary"/>
    <tag k="name" v="Willmington Orooroo Rd"/>
    <tag k="surface" v="paved"/>
  </node>
  <node id="134301764" version="2" timestamp="2007-12-25T10:12:44Z" uid="4467" user="Rosscoe" changeset="422154" lat="-32.666113" lon="138.12664">
    <tag k="created_by" v="JOSM"/>
    <tag k="highway" v="primary"/>
    <tag k="name" v="Willmington Orooroo Rd"/>
    <tag k="surface" v="paved"/>
  </node>
  <node id="134301780" version="1" timestamp="2007-11-26T08:16:29Z" uid="4467" user="Rosscoe" changeset="621649" lat="-32.666118" lon="138.127658">
    <tag k="created_by" v="JOSM"/>
    <tag k="highway" v="primary"/>
    <tag k="name" v="Willmington Orooroo Rd"/>
    <tag k="surface" v="paved"/>
  </node>
  <node id="134301780" version="2" timestamp="2007-12-25T10:12:42Z" uid="4467" user="Rosscoe" changeset="422154" lat="-32.666118" lon="138.127658">
    <tag k="created_by" v="JOSM"/>
    <tag k="highway" v="primary"/>
    <tag k="name" v="Willmington Orooroo Rd"/>
    <tag k="surface" v="paved"/>
  </node>
  <node id="134301804" version="1" timestamp="2007-11-26T08:16:30Z" uid="4467" user="Rosscoe" changeset="621649" lat="-32.666117" lon="138.127317">
    <tag k="created_by" v="JOSM"/>
    <tag k="highway" v="primary"/>
    <tag k="name" v="Willmington Orooroo Rd"/>
    <tag k="surface" v="paved"/>
  </node>
  <node id="134301804" version="2" timestamp="2007-12-25T10:12:40Z" uid="4467" user="Rosscoe" changeset="422154" lat="-32.666117" lon="138.127317">
    <tag k="created_by" v="JOSM"/>
    <tag k="highway" v="primary"/>
    <tag k="name" v="Willmington Orooroo Rd"/>
    <tag k="surface" v="paved"/>
  </node>
  <node id="134301824" version="1" timestamp="2007-11-26T08:16:31Z" uid="4467" user="Rosscoe" changeset="621649" lat="-32.666155" lon="138.136157">
    <tag k="created_by" v="JOSM"/>
    <tag k="highway" v="primary"/>
    <tag k="name" v="Willmington Orooroo Rd"/>
    <tag k="surface" v="paved"/>
  </node>
  <node id="134301824" version="2" timestamp="2007-12-25T10:13:11Z" uid="4467" user="Rosscoe" changeset="422154" lat="-32.666155" lon="138.136157">
    <tag k="created_by" v="JOSM"/>
    <tag k="highway" v="primary"/>
    <tag k="name" v="Willmington Orooroo Rd"/>
    <tag k="surface" v="paved"/>
  </node>
  <node id="134301848" version="1" timestamp="2007-11-26T08:16:32Z" uid="4467" user="Rosscoe" changeset="621649" lat="-32.66616" lon="138.136492">
    <tag k="created_by" v="JOSM"/>
    <tag k="highway" v="primary"/>
    <tag k="name" v="Willmington Orooroo Rd"/>
    <tag k="surface" v="paved"/>
  </node>
  <node id="134301848" version="2" timestamp="2007-12-25T10:13:09Z" uid="4467" user="Rosscoe" changeset="422154" lat="-32.66616" lon="138.136492">
    <tag k="created_by" v="JOSM"/>
    <tag k="highway" v="primary"/>
    <tag k="name" v="Willmington Orooroo Rd"/>
    <tag k="surface" v="paved"/>
  </node>
  <node id="134301868" version="1" timestamp="2007-11-26T08:16:32Z" uid="4467" user="Rosscoe" changeset="621649" lat="-32.666165" lon="138.13683">
    <tag k="created_by" v="JOSM"/>
    <tag k="highway" v="primary"/>
    <tag k="name" v="Willmington Orooroo Rd"/>
    <tag k="surface" v="paved"/>
  </node>
  <node id="134301868" version="2" timestamp="2007-12-25T10:13:08Z" uid="4467" user="Rosscoe" changeset="422154" lat="-32.666165" lon="138.13683">
    <tag k="created_by" v="JOSM"/>
    <tag k="highway" v="primary"/>
    <tag k="name" v="Willmington Orooroo Rd"/>
    <tag k="surface" v="paved"/>
  </node>
  <node id="134301879" version="1" timestamp="2007-11-26T08:16:33Z" uid="4467" user="Rosscoe" changeset="621649" lat="-32.666167" lon="138.13717">
    <tag k="created_by" v="JOSM"/>
    <tag k="highway" v="primary"/>
    <tag k="name" v="Willmington Orooroo Rd"/>
    <tag k="surface" v="paved"/>
  </node>
  <node id="134301879" version="2" timestamp="2007-12-25T10:13:04Z" uid="4467" user="Rosscoe" changeset="422154" lat="-32.666167" lon="138.13717">
    <tag k="created_by" v="JOSM"/>
    <tag k="highway" v="primary"/>
    <tag k="name" v="Willmington Orooroo Rd"/>
    <tag k="surface" v="paved"/>
  </node>
  <node id="134301891" version="1" timestamp="2007-11-26T08:16:34Z" uid="4467" user="Rosscoe" changeset="621649" lat="-32.666143" lon="138.134792">
    <tag k="created_by" v="JOSM"/>
    <tag k="highway" v="primary"/>
    <tag k="name" v="Willmington Orooroo Rd"/>
    <tag k="surface" v="paved"/>
  </node>
  <node id="134301891" version="2" timestamp="2007-12-25T09:51:32Z" uid="4467" user="Rosscoe" changeset="422154" lat="-32.666143" lon="138.134792">
    <tag k="created_by" v="JOSM"/>
  </node>
  <node id="134301909" version="1" timestamp="2007-11-26T08:16:35Z" uid="4467" user="Rosscoe" changeset="621649" lat="-32.666145" lon="138.135135">
    <tag k="created_by" v="JOSM"/>
    <tag k="highway" v="primary"/>
    <tag k="name" v="Willmington Orooroo Rd"/>
    <tag k="surface" v="paved"/>
  </node>
  <node id="134301909" version="2" timestamp="2007-12-25T10:13:00Z" uid="4467" user="Rosscoe" changeset="422154" lat="-32.666145" lon="138.135135">
    <tag k="created_by" v="JOSM"/>
    <tag k="highway" v="primary"/>
    <tag k="name" v="Willmington Orooroo Rd"/>
    <tag k="surface" v="paved"/>
  </node>
  <node id="134301929" version="1" timestamp="2007-11-26T08:16:36Z" uid="4467" user="Rosscoe" changeset="621649" lat="-32.666148" lon="138.135473">
    <tag k="created_by" v="JOSM"/>
    <tag k="highway" v="primary"/>
    <tag k="name" v="Willmington Orooroo Rd"/>
    <tag k="surface" v="paved"/>
  </node>
  <node id="134301929" version="2" timestamp="2007-12-25T10:12:56Z" uid="4467" user="Rosscoe" changeset="422154" lat="-32.666148" lon="138.135473">
    <tag k="created_by" v="JOSM"/>
    <tag k="highway" v="primary"/>
    <tag k="name" v="Willmington Orooroo Rd"/>
    <tag k="surface" v="paved"/>
  </node>
  <node id="134301951" version="1" timestamp="2007-11-26T08:16:37Z" uid="4467" user="Rosscoe" changeset="621649" lat="-32.666152" lon="138.135812">
    <tag k="created_by" v="JOSM"/>
    <tag k="highway" v="primary"/>
    <tag k="name" v="Willmington Orooroo Rd"/>
    <tag k="surface" v="paved"/>
  </node>
  <node id="134301951" version="2" timestamp="2007-12-25T10:12:54Z" uid="4467" user="Rosscoe" changeset="422154" lat="-32.666152" lon="138.135812">
    <tag k="created_by" v="JOSM"/>
    <tag k="highway" v="primary"/>
    <tag k="name" v="Willmington Orooroo Rd"/>
    <tag k="surface" v="paved"/>
  </node>
  <node id="134301964" version="1" timestamp="2007-11-26T08:16:37Z" uid="4467" user="Rosscoe" changeset="621649" lat="-32.66614" lon="138.13343">
    <tag k="created_by" v="JOSM"/>
    <tag k="highway" v="primary"/>
    <tag k="name" v="Willmington Orooroo Rd"/>
    <tag k="surface" v="paved"/>
  </node>
  <node id="134301964" version="2" timestamp="2007-12-25T10:13:35Z" uid="4467" user="Rosscoe" changeset="422154" lat="-32.66614" lon="138.13343">
    <tag k="created_by" v="JOSM"/>
    <tag k="highway" v="primary"/>
    <tag k="name" v="Willmington Orooroo Rd"/>
    <tag k="surface" v="paved"/>
  </node>
  <node id="134301974" version="1" timestamp="2007-11-26T08:16:38Z" uid="4467" user="Rosscoe" changeset="621649" lat="-32.66614" lon="138.133773">
    <tag k="created_by" v="JOSM"/>
    <tag k="highway" v="primary"/>
    <tag k="name" v="Willmington Orooroo Rd"/>
    <tag k="surface" v="paved"/>
  </node>
  <node id="134301974" version="2" timestamp="2007-12-25T10:13:35Z" uid="4467" user="Rosscoe" changeset="422154" lat="-32.66614" lon="138.133773">
    <tag k="created_by" v="JOSM"/>
    <tag k="highway" v="primary"/>
    <tag k="name" v="Willmington Orooroo Rd"/>
    <tag k="surface" v="paved"/>
  </node>
  <node id="134301989" version="1" timestamp="2007-11-26T08:16:39Z" uid="4467" user="Rosscoe" changeset="621649" lat="-32.666142" lon="138.134118">
    <tag k="created_by" v="JOSM"/>
    <tag k="highway" v="primary"/>
    <tag k="name" v="Willmington Orooroo Rd"/>
    <tag k="surface" v="paved"/>
  </node>
  <node id="134301989" version="2" timestamp="2007-12-25T10:13:27Z" uid="4467" user="Rosscoe" changeset="422154" lat="-32.666142" lon="138.134118">
    <tag k="created_by" v="JOSM"/>
    <tag k="highway" v="primary"/>
    <tag k="name" v="Willmington Orooroo Rd"/>
    <tag k="surface" v="paved"/>
  </node>
  <node id="134301996" version="1" timestamp="2007-11-26T08:16:40Z" uid="4467" user="Rosscoe" changeset="621649" lat="-32.666142" lon="138.134455">
    <tag k="created_by" v="JOSM"/>
    <tag k="highway" v="primary"/>
    <tag k="name" v="Willmington Orooroo Rd"/>
    <tag k="surface" v="paved"/>
  </node>
  <node id="134301996" version="2" timestamp="2007-12-25T10:13:30Z" uid="4467" user="Rosscoe" changeset="422154" lat="-32.666142" lon="138.134455">
    <tag k="created_by" v="JOSM"/>
    <tag k="highway" v="primary"/>
    <tag k="name" v="Willmington Orooroo Rd"/>
    <tag k="surface" v="paved"/>
  </node>
  <node id="134302008" version="1" timestamp="2007-11-26T08:16:40Z" uid="4467" user="Rosscoe" changeset="621649" lat="-32.666145" lon="138.13207">
    <tag k="created_by" v="JOSM"/>
    <tag k="highway" v="primary"/>
    <tag k="name" v="Willmington Orooroo Rd"/>
    <tag k="surface" v="paved"/>
  </node>
  <node id="134302008" version="2" timestamp="2007-12-25T10:13:31Z" uid="4467" user="Rosscoe" changeset="422154" lat="-32.666145" lon="138.13207">
    <tag k="created_by" v="JOSM"/>
    <tag k="highway" v="primary"/>
    <tag k="name" v="Willmington Orooroo Rd"/>
    <tag k="surface" v="paved"/>
  </node>
  <node id="134302023" version="1" timestamp="2007-11-26T08:16:41Z" uid="4467" user="Rosscoe" changeset="621649" lat="-32.666145" lon="138.132407">
    <tag k="created_by" v="JOSM"/>
    <tag k="highway" v="primary"/>
    <tag k="name" v="Willmington Orooroo Rd"/>
    <tag k="surface" v="paved"/>
  </node>
  <node id="134302023" version="2" timestamp="2007-12-25T10:13:19Z" uid="4467" user="Rosscoe" changeset="422154" lat="-32.666145" lon="138.132407">
    <tag k="created_by" v="JOSM"/>
    <tag k="highway" v="primary"/>
    <tag k="name" v="Willmington Orooroo Rd"/>
    <tag k="surface" v="paved"/>
  </node>
  <node id="134302034" version="1" timestamp="2007-11-26T08:16:42Z" uid="4467" user="Rosscoe" changeset="621649" lat="-32.666143" lon="138.13275">
    <tag k="created_by" v="JOSM"/>
    <tag k="highway" v="primary"/>
    <tag k="name" v="Willmington Orooroo Rd"/>
    <tag k="surface" v="paved"/>
  </node>
  <node id="134302034" version="2" timestamp="2007-12-25T10:13:23Z" uid="4467" user="Rosscoe" changeset="422154" lat="-32.666143" lon="138.13275">
    <tag k="created_by" v="JOSM"/>
    <tag k="highway" v="primary"/>
    <tag k="name" v="Willmington Orooroo Rd"/>
    <tag k="surface" v="paved"/>
  </node>
  <node id="134302049" version="1" timestamp="2007-11-26T08:16:43Z" uid="4467" user="Rosscoe" changeset="621649" lat="-32.66614" lon="138.133093">
    <tag k="created_by" v="JOSM"/>
    <tag k="highway" v="primary"/>
    <tag k="name" v="Willmington Orooroo Rd"/>
    <tag k="surface" v="paved"/>
  </node>
  <node id="134302049" version="2" timestamp="2007-12-25T10:13:14Z" uid="4467" user="Rosscoe" changeset="422154" lat="-32.66614" lon="138.133093">
    <tag k="created_by" v="JOSM"/>
    <tag k="highway" v="primary"/>
    <tag k="name" v="Willmington Orooroo Rd"/>
    <tag k="surface" v="paved"/>
  </node>
  <node id="134302068" version="1" timestamp="2007-11-26T08:16:44Z" uid="4467" user="Rosscoe" changeset="621649" lat="-32.665995" lon="138.120882">
    <tag k="created_by" v="JOSM"/>
    <tag k="highway" v="primary"/>
    <tag k="name" v="Willmington Orooroo Rd"/>
    <tag k="surface" v="paved"/>
  </node>
  <node id="134302068" version="2" timestamp="2007-12-25T10:13:16Z" uid="4467" user="Rosscoe" changeset="422154" lat="-32.665995" lon="138.120882">
    <tag k="created_by" v="JOSM"/>
    <tag k="highway" v="primary"/>
    <tag k="name" v="Willmington Orooroo Rd"/>
    <tag k="surface" v="paved"/>
  </node>
  <node id="134302092" version="1" timestamp="2007-11-26T08:16:44Z" uid="4467" user="Rosscoe" changeset="621649" lat="-32.665985" lon="138.120543">
    <tag k="created_by" v="JOSM"/>
    <tag k="highway" v="primary"/>
    <tag k="name" v="Willmington Orooroo Rd"/>
    <tag k="surface" v="paved"/>
  </node>
  <node id="134302092" version="2" timestamp="2007-12-25T10:13:54Z" uid="4467" user="Rosscoe" changeset="422154" lat="-32.665985" lon="138.120543">
    <tag k="created_by" v="JOSM"/>
    <tag k="highway" v="primary"/>
    <tag k="name" v="Willmington Orooroo Rd"/>
    <tag k="surface" v="paved"/>
  </node>
  <node id="134302109" version="1" timestamp="2007-11-26T08:16:45Z" uid="4467" user="Rosscoe" changeset="621649" lat="-32.665975" lon="138.120203">
    <tag k="created_by" v="JOSM"/>
    <tag k="highway" v="primary"/>
    <tag k="name" v="Willmington Orooroo Rd"/>
    <tag k="surface" v="paved"/>
  </node>
  <node id="134302109" version="2" timestamp="2007-12-25T09:51:23Z" uid="4467" user="Rosscoe" changeset="422154" lat="-32.665975" lon="138.120203">
    <tag k="created_by" v="JOSM"/>
  </node>
  <node id="134302120" version="1" timestamp="2007-11-26T08:16:46Z" uid="4467" user="Rosscoe" changeset="621649" lat="-32.66597" lon="138.119867">
    <tag k="created_by" v="JOSM"/>
    <tag k="highway" v="primary"/>
    <tag k="name" v="Willmington Orooroo Rd"/>
    <tag k="surface" v="paved"/>
  </node>
  <node id="134302120" version="2" timestamp="2007-12-25T10:13:50Z" uid="4467" user="Rosscoe" changeset="422154" lat="-32.66597" lon="138.119867">
    <tag k="created_by" v="JOSM"/>
    <tag k="highway" v="primary"/>
    <tag k="name" v="Willmington Orooroo Rd"/>
    <tag k="surface" v="paved"/>
  </node>
  <node id="134302144" version="1" timestamp="2007-11-26T08:16:47Z" uid="4467" user="Rosscoe" changeset="621649" lat="-32.665967" lon="138.119522">
    <tag k="created_by" v="JOSM"/>
    <tag k="highway" v="primary"/>
    <tag k="name" v="Willmington Orooroo Rd"/>
    <tag k="surface" v="paved"/>
  </node>
  <node id="134302144" version="2" timestamp="2007-12-25T10:13:45Z" uid="4467" user="Rosscoe" changeset="422154" lat="-32.665967" lon="138.119522">
    <tag k="created_by" v="JOSM"/>
    <tag k="highway" v="primary"/>
    <tag k="name" v="Willmington Orooroo Rd"/>
    <tag k="surface" v="paved"/>
  </node>
  <node id="134302162" version="1" timestamp="2007-11-26T08:16:47Z" uid="4467" user="Rosscoe" changeset="621649" lat="-32.665963" lon="138.119182">
    <tag k="created_by" v="JOSM"/>
    <tag k="highway" v="primary"/>
    <tag k="name" v="Willmington Orooroo Rd"/>
    <tag k="surface" v="paved"/>
  </node>
  <node id="134302162" version="2" timestamp="2007-12-25T10:13:49Z" uid="4467" user="Rosscoe" changeset="422154" lat="-32.665963" lon="138.119182">
    <tag k="created_by" v="JOSM"/>
    <tag k="highway" v="primary"/>
    <tag k="name" v="Willmington Orooroo Rd"/>
    <tag k="surface" v="paved"/>
  </node>
  <node id="134302178" version="1" timestamp="2007-11-26T08:16:48Z" uid="4467" user="Rosscoe" changeset="621649" lat="-32.665958" lon="138.11884">
    <tag k="created_by" v="JOSM"/>
    <tag k="highway" v="primary"/>
    <tag k="name" v="Willmington Orooroo Rd"/>
    <tag k="surface" v="paved"/>
  </node>
  <node id="134302178" version="2" timestamp="2007-12-25T09:51:28Z" uid="4467" user="Rosscoe" changeset="422154" lat="-32.665958" lon="138.11884">
    <tag k="created_by" v="JOSM"/>
  </node>
  <node id="134302194" version="1" timestamp="2007-11-26T08:16:49Z" uid="4467" user="Rosscoe" changeset="621649" lat="-32.665955" lon="138.118502">
    <tag k="created_by" v="JOSM"/>
    <tag k="highway" v="primary"/>
    <tag k="name" v="Willmington Orooroo Rd"/>
    <tag k="surface" v="paved"/>
  </node>
  <node id="134302194" version="2" timestamp="2007-12-25T10:13:42Z" uid="4467" user="Rosscoe" changeset="422154" lat="-32.665955" lon="138.118502">
    <tag k="created_by" v="JOSM"/>
    <tag k="highway" v="primary"/>
    <tag k="name" v="Willmington Orooroo Rd"/>
    <tag k="surface" v="paved"/>
  </node>
  <node id="134302209" version="1" timestamp="2007-11-26T08:16:50Z" uid="4467" user="Rosscoe" changeset="621649" lat="-32.665952" lon="138.118162">
    <tag k="created_by" v="JOSM"/>
    <tag k="highway" v="primary"/>
    <tag k="name" v="Willmington Orooroo Rd"/>
    <tag k="surface" v="paved"/>
  </node>
  <node id="134302209" version="2" timestamp="2007-12-25T10:14:11Z" uid="4467" user="Rosscoe" changeset="422154" lat="-32.665952" lon="138.118162">
    <tag k="created_by" v="JOSM"/>
    <tag k="highway" v="primary"/>
    <tag k="name" v="Willmington Orooroo Rd"/>
    <tag k="surface" v="paved"/>
  </node>
  <node id="134302227" version="1" timestamp="2007-11-26T08:16:51Z" uid="4467" user="Rosscoe" changeset="621649" lat="-32.66595" lon="138.117825">
    <tag k="created_by" v="JOSM"/>
    <tag k="highway" v="primary"/>
    <tag k="name" v="Willmington Orooroo Rd"/>
    <tag k="surface" v="paved"/>
  </node>
  <node id="134302227" version="2" timestamp="2007-12-25T10:14:08Z" uid="4467" user="Rosscoe" changeset="422154" lat="-32.66595" lon="138.117825">
    <tag k="created_by" v="JOSM"/>
    <tag k="highway" v="primary"/>
    <tag k="name" v="Willmington Orooroo Rd"/>
    <tag k="surface" v="paved"/>
  </node>
  <node id="134302246" version="1" timestamp="2007-11-26T08:16:51Z" uid="4467" user="Rosscoe" changeset="621649" lat="-32.665948" lon="138.11748">
    <tag k="created_by" v="JOSM"/>
    <tag k="highway" v="primary"/>
    <tag k="name" v="Willmington Orooroo Rd"/>
    <tag k="surface" v="paved"/>
  </node>
  <node id="134302246" version="2" timestamp="2007-12-25T10:14:19Z" uid="4467" user="Rosscoe" changeset="422154" lat="-32.665948" lon="138.11748">
    <tag k="created_by" v="JOSM"/>
    <tag k="highway" v="primary"/>
    <tag k="name" v="Willmington Orooroo Rd"/>
    <tag k="surface" v="paved"/>
  </node>
  <node id="134302253" version="1" timestamp="2007-11-26T08:16:52Z" uid="4467" user="Rosscoe" changeset="621649" lat="-32.665947" lon="138.117138">
    <tag k="created_by" v="JOSM"/>
    <tag k="highway" v="primary"/>
    <tag k="name" v="Willmington Orooroo Rd"/>
    <tag k="surface" v="paved"/>
  </node>
  <node id="134302253" version="2" timestamp="2007-12-25T09:51:18Z" uid="4467" user="Rosscoe" changeset="422154" lat="-32.665947" lon="138.117138">
    <tag k="created_by" v="JOSM"/>
  </node>
  <node id="134302262" version="1" timestamp="2007-11-26T08:16:53Z" uid="4467" user="Rosscoe" changeset="621649" lat="-32.665947" lon="138.116792">
    <tag k="created_by" v="JOSM"/>
    <tag k="highway" v="primary"/>
    <tag k="name" v="Willmington Orooroo Rd"/>
    <tag k="surface" v="paved"/>
  </node>
  <node id="134302262" version="2" timestamp="2007-12-25T10:14:14Z" uid="4467" user="Rosscoe" changeset="422154" lat="-32.665947" lon="138.116792">
    <tag k="created_by" v="JOSM"/>
    <tag k="highway" v="primary"/>
    <tag k="name" v="Willmington Orooroo Rd"/>
    <tag k="surface" v="paved"/>
  </node>
  <node id="134302264" version="1" timestamp="2007-11-26T08:16:54Z" uid="4467" user="Rosscoe" changeset="621649" lat="-32.66595" lon="138.116457">
    <tag k="created_by" v="JOSM"/>
    <tag k="highway" v="primary"/>
    <tag k="name" v="Willmington Orooroo Rd"/>
    <tag k="surface" v="paved"/>
  </node>
  <node id="134302264" version="2" timestamp="2007-12-25T10:14:16Z" uid="4467" user="Rosscoe" changeset="422154" lat="-32.66595" lon="138.116457">
    <tag k="created_by" v="JOSM"/>
    <tag k="highway" v="primary"/>
    <tag k="name" v="Willmington Orooroo Rd"/>
    <tag k="surface" v="paved"/>
  </node>
  <node id="134302276" version="1" timestamp="2007-11-26T08:16:54Z" uid="4467" user="Rosscoe" changeset="621649" lat="-32.665947" lon="138.11612">
    <tag k="created_by" v="JOSM"/>
    <tag k="highway" v="primary"/>
    <tag k="name" v="Willmington Orooroo Rd"/>
    <tag k="surface" v="paved"/>
  </node>
  <node id="134302276" version="2" timestamp="2007-12-25T10:13:59Z" uid="4467" user="Rosscoe" changeset="422154" lat="-32.665947" lon="138.11612">
    <tag k="created_by" v="JOSM"/>
    <tag k="highway" v="primary"/>
    <tag k="name" v="Willmington Orooroo Rd"/>
    <tag k="surface" v="paved"/>
  </node>
  <node id="134302295" version="1" timestamp="2007-11-26T08:16:55Z" uid="4467" user="Rosscoe" changeset="621649" lat="-32.66595" lon="138.11579">
    <tag k="created_by" v="JOSM"/>
    <tag k="highway" v="primary"/>
    <tag k="name" v="Willmington Orooroo Rd"/>
    <tag k="surface" v="paved"/>
  </node>
  <node id="134302295" version="2" timestamp="2007-12-25T10:13:57Z" uid="4467" user="Rosscoe" changeset="422154" lat="-32.66595" lon="138.11579">
    <tag k="created_by" v="JOSM"/>
    <tag k="highway" v="primary"/>
    <tag k="name" v="Willmington Orooroo Rd"/>
    <tag k="surface" v="paved"/>
  </node>
  <node id="134302309" version="1" timestamp="2007-11-26T08:16:56Z" uid="4467" user="Rosscoe" changeset="621649" lat="-32.666108" lon="138.125967">
    <tag k="created_by" v="JOSM"/>
    <tag k="highway" v="primary"/>
    <tag k="name" v="Willmington Orooroo Rd"/>
    <tag k="surface" v="paved"/>
  </node>
  <node id="134302309" version="2" timestamp="2007-12-25T10:14:07Z" uid="4467" user="Rosscoe" changeset="422154" lat="-32.666108" lon="138.125967">
    <tag k="created_by" v="JOSM"/>
    <tag k="highway" v="primary"/>
    <tag k="name" v="Willmington Orooroo Rd"/>
    <tag k="surface" v="paved"/>
  </node>
  <node id="134302326" version="1" timestamp="2007-11-26T08:16:57Z" uid="4467" user="Rosscoe" changeset="621649" lat="-32.66611" lon="138.1263">
    <tag k="created_by" v="JOSM"/>
    <tag k="highway" v="primary"/>
    <tag k="name" v="Willmington Orooroo Rd"/>
    <tag k="surface" v="paved"/>
  </node>
  <node id="134302326" version="2" timestamp="2007-12-25T10:14:03Z" uid="4467" user="Rosscoe" changeset="422154" lat="-32.66611" lon="138.1263">
    <tag k="created_by" v="JOSM"/>
    <tag k="highway" v="primary"/>
    <tag k="name" v="Willmington Orooroo Rd"/>
    <tag k="surface" v="paved"/>
  </node>
  <node id="134302343" version="1" timestamp="2007-11-26T08:16:58Z" uid="4467" user="Rosscoe" changeset="621649" lat="-32.666105" lon="138.125285">
    <tag k="created_by" v="JOSM"/>
    <tag k="highway" v="primary"/>
    <tag k="name" v="Willmington Orooroo Rd"/>
    <tag k="surface" v="paved"/>
  </node>
  <node id="134302343" version="2" timestamp="2007-12-25T10:14:36Z" uid="4467" user="Rosscoe" changeset="422154" lat="-32.666105" lon="138.125285">
    <tag k="created_by" v="JOSM"/>
    <tag k="highway" v="primary"/>
    <tag k="name" v="Willmington Orooroo Rd"/>
    <tag k="surface" v="paved"/>
  </node>
  <node id="134302370" version="1" timestamp="2007-11-26T08:16:58Z" uid="4467" user="Rosscoe" changeset="621649" lat="-32.666105" lon="138.125625">
    <tag k="created_by" v="JOSM"/>
    <tag k="highway" v="primary"/>
    <tag k="name" v="Willmington Orooroo Rd"/>
    <tag k="surface" v="paved"/>
  </node>
  <node id="134302370" version="2" timestamp="2007-12-25T10:14:44Z" uid="4467" user="Rosscoe" changeset="422154" lat="-32.666105" lon="138.125625">
    <tag k="created_by" v="JOSM"/>
    <tag k="highway" v="primary"/>
    <tag k="name" v="Willmington Orooroo Rd"/>
    <tag k="surface" v="paved"/>
  </node>
  <node id="134302382" version="1" timestamp="2007-11-26T08:16:59Z" uid="4467" user="Rosscoe" changeset="621649" lat="-32.6661" lon="138.124608">
    <tag k="created_by" v="JOSM"/>
    <tag k="highway" v="primary"/>
    <tag k="name" v="Willmington Orooroo Rd"/>
    <tag k="surface" v="paved"/>
  </node>
  <node id="134302382" version="2" timestamp="2007-12-25T10:14:41Z" uid="4467" user="Rosscoe" changeset="422154" lat="-32.6661" lon="138.124608">
    <tag k="created_by" v="JOSM"/>
    <tag k="highway" v="primary"/>
    <tag k="name" v="Willmington Orooroo Rd"/>
    <tag k="surface" v="paved"/>
  </node>
  <node id="134302403" version="1" timestamp="2007-11-26T08:17:00Z" uid="4467" user="Rosscoe" changeset="621649" lat="-32.666102" lon="138.124947">
    <tag k="created_by" v="JOSM"/>
    <tag k="highway" v="primary"/>
    <tag k="name" v="Willmington Orooroo Rd"/>
    <tag k="surface" v="paved"/>
  </node>
  <node id="134302403" version="2" timestamp="2007-12-25T10:14:25Z" uid="4467" user="Rosscoe" changeset="422154" lat="-32.666102" lon="138.124947">
    <tag k="created_by" v="JOSM"/>
    <tag k="highway" v="primary"/>
    <tag k="name" v="Willmington Orooroo Rd"/>
    <tag k="surface" v="paved"/>
  </node>
  <node id="134302423" version="1" timestamp="2007-11-26T08:17:01Z" uid="4467" user="Rosscoe" changeset="621649" lat="-32.666092" lon="138.123935">
    <tag k="created_by" v="JOSM"/>
    <tag k="highway" v="primary"/>
    <tag k="name" v="Willmington Orooroo Rd"/>
    <tag k="surface" v="paved"/>
  </node>
  <node id="134302423" version="2" timestamp="2007-12-25T10:14:22Z" uid="4467" user="Rosscoe" changeset="422154" lat="-32.666092" lon="138.123935">
    <tag k="created_by" v="JOSM"/>
    <tag k="highway" v="primary"/>
    <tag k="name" v="Willmington Orooroo Rd"/>
    <tag k="surface" v="paved"/>
  </node>
  <node id="134302439" version="1" timestamp="2007-11-26T08:17:02Z" uid="4467" user="Rosscoe" changeset="621649" lat="-32.666097" lon="138.124268">
    <tag k="created_by" v="JOSM"/>
    <tag k="highway" v="primary"/>
    <tag k="name" v="Willmington Orooroo Rd"/>
    <tag k="surface" v="paved"/>
  </node>
  <node id="134302439" version="2" timestamp="2007-12-25T09:51:16Z" uid="4467" user="Rosscoe" changeset="422154" lat="-32.666097" lon="138.124268">
    <tag k="created_by" v="JOSM"/>
  </node>
  <node id="134302455" version="1" timestamp="2007-11-26T08:17:02Z" uid="4467" user="Rosscoe" changeset="621649" lat="-32.666078" lon="138.12325">
    <tag k="created_by" v="JOSM"/>
    <tag k="highway" v="primary"/>
    <tag k="name" v="Willmington Orooroo Rd"/>
    <tag k="surface" v="paved"/>
  </node>
  <node id="134302455" version="2" timestamp="2007-12-25T10:14:28Z" uid="4467" user="Rosscoe" changeset="422154" lat="-32.666078" lon="138.12325">
    <tag k="created_by" v="JOSM"/>
    <tag k="highway" v="primary"/>
    <tag k="name" v="Willmington Orooroo Rd"/>
    <tag k="surface" v="paved"/>
  </node>
  <node id="134302476" version="1" timestamp="2007-11-26T08:17:03Z" uid="4467" user="Rosscoe" changeset="621649" lat="-32.666085" lon="138.123593">
    <tag k="created_by" v="JOSM"/>
    <tag k="highway" v="primary"/>
    <tag k="name" v="Willmington Orooroo Rd"/>
    <tag k="surface" v="paved"/>
  </node>
  <node id="134302476" version="2" timestamp="2007-12-25T10:14:55Z" uid="4467" user="Rosscoe" changeset="422154" lat="-32.666085" lon="138.123593">
    <tag k="created_by" v="JOSM"/>
    <tag k="highway" v="primary"/>
    <tag k="name" v="Willmington Orooroo Rd"/>
    <tag k="surface" v="paved"/>
  </node>
  <node id="134302495" version="1" timestamp="2007-11-26T08:17:04Z" uid="4467" user="Rosscoe" changeset="621649" lat="-32.66606" lon="138.122577">
    <tag k="created_by" v="JOSM"/>
    <tag k="highway" v="primary"/>
    <tag k="name" v="Willmington Orooroo Rd"/>
    <tag k="surface" v="paved"/>
  </node>
  <node id="134302495" version="2" timestamp="2007-12-25T09:51:12Z" uid="4467" user="Rosscoe" changeset="422154" lat="-32.66606" lon="138.122577">
    <tag k="created_by" v="JOSM"/>
  </node>
  <node id="134302519" version="1" timestamp="2007-11-26T08:17:05Z" uid="4467" user="Rosscoe" changeset="621649" lat="-32.66607" lon="138.122917">
    <tag k="created_by" v="JOSM"/>
    <tag k="highway" v="primary"/>
    <tag k="name" v="Willmington Orooroo Rd"/>
    <tag k="surface" v="paved"/>
  </node>
  <node id="134302519" version="2" timestamp="2007-12-25T10:15:02Z" uid="4467" user="Rosscoe" changeset="422154" lat="-32.66607" lon="138.122917">
    <tag k="created_by" v="JOSM"/>
    <tag k="highway" v="primary"/>
    <tag k="name" v="Willmington Orooroo Rd"/>
    <tag k="surface" v="paved"/>
  </node>
  <node id="134302538" version="1" timestamp="2007-11-26T08:17:05Z" uid="4467" user="Rosscoe" changeset="621649" lat="-32.666033" lon="138.121905">
    <tag k="created_by" v="JOSM"/>
    <tag k="highway" v="primary"/>
    <tag k="name" v="Willmington Orooroo Rd"/>
    <tag k="surface" v="paved"/>
  </node>
  <node id="134302538" version="2" timestamp="2007-12-25T10:14:47Z" uid="4467" user="Rosscoe" changeset="422154" lat="-32.666033" lon="138.121905">
    <tag k="created_by" v="JOSM"/>
    <tag k="highway" v="primary"/>
    <tag k="name" v="Willmington Orooroo Rd"/>
    <tag k="surface" v="paved"/>
  </node>
  <node id="134302555" version="1" timestamp="2007-11-26T08:17:06Z" uid="4467" user="Rosscoe" changeset="621649" lat="-32.666047" lon="138.122238">
    <tag k="created_by" v="JOSM"/>
    <tag k="highway" v="primary"/>
    <tag k="name" v="Willmington Orooroo Rd"/>
    <tag k="surface" v="paved"/>
  </node>
  <node id="134302555" version="2" timestamp="2007-12-25T10:14:49Z" uid="4467" user="Rosscoe" changeset="422154" lat="-32.666047" lon="138.122238">
    <tag k="created_by" v="JOSM"/>
    <tag k="highway" v="primary"/>
    <tag k="name" v="Willmington Orooroo Rd"/>
    <tag k="surface" v="paved"/>
  </node>
  <node id="134302577" version="1" timestamp="2007-11-26T08:17:07Z" uid="4467" user="Rosscoe" changeset="621649" lat="-32.666008" lon="138.12122">
    <tag k="created_by" v="JOSM"/>
    <tag k="highway" v="primary"/>
    <tag k="name" v="Willmington Orooroo Rd"/>
    <tag k="surface" v="paved"/>
  </node>
  <node id="134302577" version="2" timestamp="2007-12-25T10:14:52Z" uid="4467" user="Rosscoe" changeset="422154" lat="-32.666008" lon="138.12122">
    <tag k="created_by" v="JOSM"/>
    <tag k="highway" v="primary"/>
    <tag k="name" v="Willmington Orooroo Rd"/>
    <tag k="surface" v="paved"/>
  </node>
  <node id="134302582" version="1" timestamp="2007-11-26T08:17:08Z" uid="4467" user="Rosscoe" changeset="621649" lat="-32.66602" lon="138.121563">
    <tag k="created_by" v="JOSM"/>
    <tag k="highway" v="primary"/>
    <tag k="name" v="Willmington Orooroo Rd"/>
    <tag k="surface" v="paved"/>
  </node>
  <node id="134302582" version="2" timestamp="2007-12-25T10:14:53Z" uid="4467" user="Rosscoe" changeset="422154" lat="-32.66602" lon="138.121563">
    <tag k="created_by" v="JOSM"/>
    <tag k="highway" v="primary"/>
    <tag k="name" v="Willmington Orooroo Rd"/>
    <tag k="surface" v="paved"/>
  </node>
  <node id="134303207" version="1" timestamp="2007-11-26T08:17:39Z" uid="7617" user="Franc" changeset="626785" lat="-33.9170721" lon="151.1278557">
    <tag k="created_by" v="JOSM"/>
    <tag k="highway" v="crossing"/>
  </node>
  <node id="134303207" version="2" timestamp="2010-01-07T00:15:23Z" uid="7617" user="Franc" changeset="3558589" lat="-33.9170833" lon="151.1278388">
    <tag k="traffic_calming" v="table"/>
  </node>
  <node id="134303575" version="2" timestamp="2008-02-16T20:02:08Z" uid="6975" user="ulfl" changeset="141861" lat="51.3701458" lon="13.8983786">
    <tag k="amenity" v="fire_station"/>
  </node>
  <node id="134305479" version="1" timestamp="2007-11-26T08:19:15Z" uid="7617" user="Franc" changeset="626785" lat="-33.9172169" lon="151.1282712">
    <tag k="created_by" v="JOSM"/>
  </node>
  <node id="134308575" version="3" timestamp="2008-12-09T23:55:41Z" uid="6975" user="ulfl" changeset="299549" lat="48.8246486" lon="2.3189298">
    <tag k="name" v="Jean Moulin"/>
    <tag k="railway" v="tram_stop"/>
  </node>
</osm>
