<?xml version='1.0' encoding='UTF-8'?>
<osm version="0.6" generator="libosmium/2.20.0">
  <node id="134660016" version="1" timestamp="2007-11-26T11:43:15Z" uid="4467" user="Rosscoe" changeset="626229" lat="-26.393013" lon="150.07514">
    <tag k="created_by" v="JOSM"/>
    <tag k="highway" v="primary"/>
    <tag k="name" v="Leichhardt Highway"/>
    <tag k="surface" v="paved"/>
  </node>
  <node id="134660040" version="1" timestamp="2007-11-26T11:43:16Z" uid="4467" user="Rosscoe" changeset="626229" lat="-26.393285" lon="150.07507">
    <tag k="created_by" v="JOSM"/>
    <tag k="highway" v="primary"/>
    <tag k="name" v="Leichhardt Highway"/>
    <tag k="surface" v="paved"/>
  </node>
  <node id="134660067" version="1" timestamp="2007-11-26T11:43:16Z" uid="4467" user="Rosscoe" changeset="626229" lat="-26.39356" lon="150.075">
    <tag k="created_by" v="JOSM"/>
    <tag k="highway" v="primary"/>
    <tag k="name" v="Leichhardt Highway"/>
    <tag k="surface" v="paved"/>
  </node>
  <node id="134660093" version="1" timestamp="2007-11-26T11:43:17Z" uid="4467" user="Rosscoe" changeset="626229" lat="-26.393833" lon="150.07493">
    <tag k="created_by" v="JOSM"/>
    <tag k="highway" v="primary"/>
    <tag k="name" v="Leichhardt Highway"/>
    <tag k="surface" v="paved"/>
  </node>
  <node id="134660112" version="1" timestamp="2007-11-26T11:43:18Z" uid="4467" user="Rosscoe" changeset="626229" lat="-26.39411" lon="150.074857">
    <tag k="created_by" v="JOSM"/>
    <tag k="highway" v="primary"/>
    <tag k="name" v="Leichhardt Highway"/>
    <tag k="surface" v="paved"/>
  </node>
  <node id="134660133" version="1" timestamp="2007-11-26T11:43:19Z" uid="4467" user="Rosscoe" changeset="626229" lat="-26.394385" lon="150.074787">
    <tag k="created_by" v="JOSM"/>
    <tag k="highway" v="primary"/>
    <tag k="name" v="Leichhardt Highway"/>
    <tag k="surface" v="paved"/>
  </node>
  <node id="134660134" version="1" timestamp="2007-11-26T11:43:19Z" uid="9581" user="Lobelt" changeset="623243" lat="50.8674776" lon="12.1151149"/>
  <node id="134660135" version="1" timestamp="2007-11-26T11:43:19Z" uid="9581" user="Lobelt" changeset="623243" lat="50.8672854" lon="12.1149031"/>
  <node id="134660137" version="1" timestamp="2007-11-26T11:43:19Z" uid="9581" user="Lobelt" changeset="623243" lat="50.8667528" lon="12.1148676"/>
  <node id="134660138" version="1" timestamp="2007-11-26T11:43:19Z" uid="9581" user="Lobelt" changeset="623243" lat="50.8664983" lon="12.1147464"/>
  <node id="134660139" version="1" timestamp="2007-11-26T11:43:19Z" uid="9581" user="Lobelt" changeset="623243" lat="50.8662353" lon="12.1144921"/>
  <node id="134660140" version="1" timestamp="2007-11-26T11:43:19Z" uid="9581" user="Lobelt" changeset="623243" lat="50.8657424" lon="12.1138719"/>
  <node id="134660141" version="1" timestamp="2007-11-26T11:43:19Z" uid="9581" user="Lobelt" changeset="623243" lat="50.8654576" lon="12.113313"/>
  <node id="134660143" version="1" timestamp="2007-11-26T11:43:19Z" uid="9581" user="Lobelt" changeset="623243" lat="50.8647092" lon="12.1121548"/>
  <node id="134660144" version="1" timestamp="2007-11-26T11:43:19Z" uid="9581" user="Lobelt" changeset="623243" lat="50.8643522" lon="12.1118279"/>
  <node id="134660146" version="1" timestamp="2007-11-26T11:43:19Z" uid="9581" user="Lobelt" changeset="623243" lat="50.8640314" lon="12.1117213"/>
  <node id="134660149" version="1" timestamp="2007-11-26T11:43:19Z" uid="9581" user="Lobelt" changeset="623243" lat="50.8638095" lon="12.1117255"/>
  <node id="134660151" version="1" timestamp="2007-11-26T11:43:19Z" uid="9581" user="Lobelt" changeset="623243" lat="50.8636541" lon="12.111933"/>
  <node id="134660172" version="1" timestamp="2007-11-26T11:43:19Z" uid="4467" user="Rosscoe" changeset="626229" lat="-26.39466" lon="150.074715">
    <tag k="created_by" v="JOSM"/>
    <tag k="highway" v="primary"/>
    <tag k="name" v="Leichhardt Highway"/>
    <tag k="surface" v="paved"/>
  </node>
  <node id="134660196" version="1" timestamp="2007-11-26T11:43:20Z" uid="4467" user="Rosscoe" changeset="626229" lat="-26.394932" lon="150.074643">
    <tag k="created_by" v="JOSM"/>
    <tag k="highway" v="primary"/>
    <tag k="name" v="Leichhardt Highway"/>
    <tag k="surface" v="paved"/>
  </node>
  <node id="134660219" version="1" timestamp="2007-11-26T11:43:21Z" uid="4467" user="Rosscoe" changeset="626229" lat="-26.395203" lon="150.074573">
    <tag k="created_by" v="JOSM"/>
    <tag k="highway" v="primary"/>
    <tag k="name" v="Leichhardt Highway"/>
    <tag k="surface" v="paved"/>
  </node>
  <node id="134660250" version="1" timestamp="2007-11-26T11:43:22Z" uid="4467" user="Rosscoe" changeset="626229" lat="-26.395477" lon="150.074502">
    <tag k="created_by" v="JOSM"/>
    <tag k="highway" v="primary"/>
    <tag k="name" v="Leichhardt Highway"/>
    <tag k="surface" v="paved"/>
  </node>
  <node id="134660282" version="1" timestamp="2007-11-26T11:43:22Z" uid="4467" user="Rosscoe" changeset="626229" lat="-26.39575" lon="150.07443">
    <tag k="created_by" v="JOSM"/>
    <tag k="highway" v="primary"/>
    <tag k="name" v="Leichhardt Highway"/>
    <tag k="surface" v="paved"/>
  </node>
  <node id="134660303" version="1" timestamp="2007-11-26T11:43:23Z" uid="4467" user="Rosscoe" changeset="626229" lat="-26.396022" lon="150.074357">
    <tag k="created_by" v="JOSM"/>
    <tag k="highway" v="primary"/>
    <tag k="name" v="Leichhardt Highway"/>
    <tag k="surface" v="paved"/>
  </node>
  <node id="134660331" version="1" timestamp="2007-11-26T11:43:24Z" uid="4467" user="Rosscoe" changeset="626229" lat="-26.396295" lon="150.074285">
    <tag k="created_by" v="JOSM"/>
    <tag k="highway" v="primary"/>
    <tag k="name" v="Leichhardt Highway"/>
    <tag k="surface" v="paved"/>
  </node>
  <node id="134660358" version="1" timestamp="2007-11-26T11:43:25Z" uid="4467" user="Rosscoe" changeset="626229" lat="-26.396843" lon="150.07414">
    <tag k="created_by" v="JOSM"/>
    <tag k="highway" v="primary"/>
    <tag k="name" v="Leichhardt Highway"/>
    <tag k="surface" v="paved"/>
  </node>
  <node id="134660373" version="1" timestamp="2007-11-26T11:43:26Z" uid="4467" user="Rosscoe" changeset="626229" lat="-26.39712" lon="150.074068">
    <tag k="created_by" v="JOSM"/>
    <tag k="highway" v="primary"/>
    <tag k="name" v="Leichhardt Highway"/>
    <tag k="surface" v="paved"/>
  </node>
  <node id="134660389" version="2" timestamp="2008-02-16T20:12:03Z" uid="6975" user="ulfl" changeset="141861" lat="52.2179913" lon="6.8860272">
    <tag k="amenity" v="place_of_worship"/>
    <tag k="name" v="De Synagoge van Enschede"/>
    <tag k="religion" v="jewish"/>
  </node>
  <node id="134660392" version="1" timestamp="2007-11-26T11:43:26Z" uid="4467" user="Rosscoe" changeset="626229" lat="-26.397392" lon="150.073997">
    <tag k="created_by" v="JOSM"/>
    <tag k="highway" v="primary"/>
    <tag k="name" v="Leichhardt Highway"/>
    <tag k="surface" v="paved"/>
  </node>
  <node id="134660418" version="1" timestamp="2007-11-26T11:43:27Z" uid="4467" user="Rosscoe" changeset="626229" lat="-26.397667" lon="150.073923">
    <tag k="created_by" v="JOSM"/>
    <tag k="highway" v="primary"/>
    <tag k="name" v="Leichhardt Highway"/>
    <tag k="surface" v="paved"/>
  </node>
  <node id="134660442" version="1" timestamp="2007-11-26T11:43:28Z" uid="4467" user="Rosscoe" changeset="626229" lat="-26.39794" lon="150.07385">
    <tag k="created_by" v="JOSM"/>
    <tag k="highway" v="primary"/>
    <tag k="name" v="Leichhardt Highway"/>
    <tag k="surface" v="paved"/>
  </node>
  <node id="134660470" version="1" timestamp="2007-11-26T11:43:29Z" uid="4467" user="Rosscoe" changeset="626229" lat="-26.398212" lon="150.073778">
    <tag k="created_by" v="JOSM"/>
    <tag k="highway" v="primary"/>
    <tag k="name" v="Leichhardt Highway"/>
    <tag k="surface" v="paved"/>
  </node>
  <node id="134660481" version="1" timestamp="2007-11-26T11:43:29Z" uid="4467" user="Rosscoe" changeset="626229" lat="-26.398488" lon="150.073707">
    <tag k="created_by" v="JOSM"/>
    <tag k="highway" v="primary"/>
    <tag k="name" v="Leichhardt Highway"/>
    <tag k="surface" v="paved"/>
  </node>
  <node id="134660506" version="1" timestamp="2007-11-26T11:43:30Z" uid="4467" user="Rosscoe" changeset="626229" lat="-26.398767" lon="150.073633">
    <tag k="created_by" v="JOSM"/>
    <tag k="highway" v="primary"/>
    <tag k="name" v="Leichhardt Highway"/>
    <tag k="surface" v="paved"/>
  </node>
  <node id="134660529" version="1" timestamp="2007-11-26T11:43:31Z" uid="4467" user="Rosscoe" changeset="626229" lat="-26.399038" lon="150.073563">
    <tag k="created_by" v="JOSM"/>
    <tag k="highway" v="primary"/>
    <tag k="name" v="Leichhardt Highway"/>
    <tag k="surface" v="paved"/>
  </node>
  <node id="134660552" version="1" timestamp="2007-11-26T11:43:32Z" uid="4467" user="Rosscoe" changeset="626229" lat="-26.399585" lon="150.073422">
    <tag k="created_by" v="JOSM"/>
    <tag k="highway" v="primary"/>
    <tag k="name" v="Leichhardt Highway"/>
    <tag k="surface" v="paved"/>
  </node>
  <node id="134660573" version="1" timestamp="2007-11-26T11:43:33Z" uid="4467" user="Rosscoe" changeset="626229" lat="-26.399858" lon="150.073352">
    <tag k="created_by" v="JOSM"/>
    <tag k="highway" v="primary"/>
    <tag k="name" v="Leichhardt Highway"/>
    <tag k="surface" v="paved"/>
  </node>
  <node id="134660597" version="1" timestamp="2007-11-26T11:43:33Z" uid="4467" user="Rosscoe" changeset="626229" lat="-26.400135" lon="150.073278">
    <tag k="created_by" v="JOSM"/>
    <tag k="highway" v="primary"/>
    <tag k="name" v="Leichhardt Highway"/>
    <tag k="surface" v="paved"/>
  </node>
  <node id="134660619" version="1" timestamp="2007-11-26T11:43:34Z" uid="4467" user="Rosscoe" changeset="626229" lat="-26.40041" lon="150.07321">
    <tag k="created_by" v="JOSM"/>
    <tag k="highway" v="primary"/>
    <tag k="name" v="Leichhardt Highway"/>
    <tag k="surface" v="paved"/>
  </node>
  <node id="134660644" version="1" timestamp="2007-11-26T11:43:35Z" uid="4467" user="Rosscoe" changeset="626229" lat="-26.400958" lon="150.073067">
    <tag k="created_by" v="JOSM"/>
    <tag k="highway" v="primary"/>
    <tag k="name" v="Leichhardt Highway"/>
    <tag k="surface" v="paved"/>
  </node>
  <node id="134660670" version="1" timestamp="2007-11-26T11:43:36Z" uid="4467" user="Rosscoe" changeset="626229" lat="-26.401233" lon="150.072995">
    <tag k="created_by" v="JOSM"/>
    <tag k="highway" v="primary"/>
    <tag k="name" v="Leichhardt Highway"/>
    <tag k="surface" v="paved"/>
  </node>
  <node id="134660697" version="1" timestamp="2007-11-26T11:43:36Z" uid="4467" user="Rosscoe" changeset="626229" lat="-26.401505" lon="150.072925">
    <tag k="created_by" v="JOSM"/>
    <tag k="highway" v="primary"/>
    <tag k="name" v="Leichhardt Highway"/>
    <tag k="surface" v="paved"/>
  </node>
  <node id="134660714" version="1" timestamp="2007-11-26T11:43:37Z" uid="4467" user="Rosscoe" changeset="626229" lat="-26.401782" lon="150.072853">
    <tag k="created_by" v="JOSM"/>
    <tag k="highway" v="primary"/>
    <tag k="name" v="Leichhardt Highway"/>
    <tag k="surface" v="paved"/>
  </node>
  <node id="134660738" version="1" timestamp="2007-11-26T11:43:38Z" uid="4467" user="Rosscoe" changeset="626229" lat="-26.402055" lon="150.072782">
    <tag k="created_by" v="JOSM"/>
    <tag k="highway" v="primary"/>
    <tag k="name" v="Leichhardt Highway"/>
    <tag k="surface" v="paved"/>
  </node>
  <node id="134660755" version="1" timestamp="2007-11-26T11:43:39Z" uid="4467" user="Rosscoe" changeset="626229" lat="-26.402328" lon="150.072712">
    <tag k="created_by" v="JOSM"/>
    <tag k="highway" v="primary"/>
    <tag k="name" v="Leichhardt Highway"/>
    <tag k="surface" v="paved"/>
  </node>
  <node id="134660783" version="1" timestamp="2007-11-26T11:43:39Z" uid="4467" user="Rosscoe" changeset="626229" lat="-26.402605" lon="150.072638">
    <tag k="created_by" v="JOSM"/>
    <tag k="highway" v="primary"/>
    <tag k="name" v="Leichhardt Highway"/>
    <tag k="surface" v="paved"/>
  </node>
  <node id="134660803" version="1" timestamp="2007-11-26T11:43:40Z" uid="4467" user="Rosscoe" changeset="626229" lat="-26.402882" lon="150.072563">
    <tag k="created_by" v="JOSM"/>
    <tag k="highway" v="primary"/>
    <tag k="name" v="Leichhardt Highway"/>
    <tag k="surface" v="paved"/>
  </node>
  <node id="134660828" version="1" timestamp="2007-11-26T11:43:41Z" uid="4467" user="Rosscoe" changeset="626229" lat="-26.403157" lon="150.07249">
    <tag k="created_by" v="JOSM"/>
    <tag k="highway" v="primary"/>
    <tag k="name" v="Leichhardt Highway"/>
    <tag k="surface" v="paved"/>
  </node>
  <node id="134660851" version="1" timestamp="2007-11-26T11:43:42Z" uid="4467" user="Rosscoe" changeset="626229" lat="-26.403435" lon="150.072417">
    <tag k="created_by" v="JOSM"/>
    <tag k="highway" v="primary"/>
    <tag k="name" v="Leichhardt Highway"/>
    <tag k="surface" v="paved"/>
  </node>
  <node id="134660879" version="1" timestamp="2007-11-26T11:43:43Z" uid="4467" user="Rosscoe" changeset="626229" lat="-26.403712" lon="150.072343">
    <tag k="created_by" v="JOSM"/>
    <tag k="highway" v="primary"/>
    <tag k="name" v="Leichhardt Highway"/>
    <tag k="surface" v="paved"/>
  </node>
  <node id="134660903" version="1" timestamp="2007-11-26T11:43:43Z" uid="4467" user="Rosscoe" changeset="626229" lat="-26.403988" lon="150.072272">
    <tag k="created_by" v="JOSM"/>
    <tag k="highway" v="primary"/>
    <tag k="name" v="Leichhardt Highway"/>
    <tag k="surface" v="paved"/>
  </node>
  <node id="134660916" version="1" timestamp="2007-11-26T11:43:44Z" uid="4467" user="Rosscoe" changeset="626229" lat="-26.404263" lon="150.0722">
    <tag k="created_by" v="JOSM"/>
    <tag k="highway" v="primary"/>
    <tag k="name" v="Leichhardt Highway"/>
    <tag k="surface" v="paved"/>
  </node>
  <node id="134660938" version="1" timestamp="2007-11-26T11:43:45Z" uid="4467" user="Rosscoe" changeset="626229" lat="-26.40454" lon="150.072127">
    <tag k="created_by" v="JOSM"/>
    <tag k="highway" v="primary"/>
    <tag k="name" v="Leichhardt Highway"/>
    <tag k="surface" v="paved"/>
  </node>
  <node id="134660964" version="1" timestamp="2007-11-26T11:43:46Z" uid="4467" user="Rosscoe" changeset="626229" lat="-26.404815" lon="150.072055">
    <tag k="created_by" v="JOSM"/>
    <tag k="highway" v="primary"/>
    <tag k="name" v="Leichhardt Highway"/>
    <tag k="surface" v="paved"/>
  </node>
  <node id="134660989" version="1" timestamp="2007-11-26T11:43:46Z" uid="4467" user="Rosscoe" changeset="626229" lat="-26.405095" lon="150.071983">
    <tag k="created_by" v="JOSM"/>
    <tag k="highway" v="primary"/>
    <tag k="name" v="Leichhardt Highway"/>
    <tag k="surface" v="paved"/>
  </node>
  <node id="134661013" version="1" timestamp="2007-11-26T11:43:47Z" uid="4467" user="Rosscoe" changeset="626229" lat="-26.405652" lon="150.071837">
    <tag k="created_by" v="JOSM"/>
    <tag k="highway" v="primary"/>
    <tag k="name" v="Leichhardt Highway"/>
    <tag k="surface" v="paved"/>
  </node>
  <node id="134661033" version="1" timestamp="2007-11-26T11:43:48Z" uid="4467" user="Rosscoe" changeset="626229" lat="-26.405928" lon="150.071763">
    <tag k="created_by" v="JOSM"/>
    <tag k="highway" v="primary"/>
    <tag k="name" v="Leichhardt Highway"/>
    <tag k="surface" v="paved"/>
  </node>
  <node id="134661055" version="1" timestamp="2007-11-26T11:43:49Z" uid="4467" user="Rosscoe" changeset="626229" lat="-26.406205" lon="150.07169">
    <tag k="created_by" v="JOSM"/>
    <tag k="highway" v="primary"/>
    <tag k="name" v="Leichhardt Highway"/>
    <tag k="surface" v="paved"/>
  </node>
  <node id="134661079" version="1" timestamp="2007-11-26T11:43:50Z" uid="4467" user="Rosscoe" changeset="626229" lat="-26.40648" lon="150.071617">
    <tag k="created_by" v="JOSM"/>
    <tag k="highway" v="primary"/>
    <tag k="name" v="Leichhardt Highway"/>
    <tag k="surface" v="paved"/>
  </node>
  <node id="134661100" version="1" timestamp="2007-11-26T11:43:50Z" uid="4467" user="Rosscoe" changeset="626229" lat="-26.406762" lon="150.071543">
    <tag k="created_by" v="JOSM"/>
    <tag k="highway" v="primary"/>
    <tag k="name" v="Leichhardt Highway"/>
    <tag k="surface" v="paved"/>
  </node>
  <node id="134661131" version="1" timestamp="2007-11-26T11:43:51Z" uid="4467" user="Rosscoe" changeset="626229" lat="-26.407318" lon="150.0714">
    <tag k="created_by" v="JOSM"/>
    <tag k="highway" v="primary"/>
    <tag k="name" v="Leichhardt Highway"/>
    <tag k="surface" v="paved"/>
  </node>
  <node id="134661160" version="1" timestamp="2007-11-26T11:43:52Z" uid="4467" user="Rosscoe" changeset="626229" lat="-26.407597" lon="150.071328">
    <tag k="created_by" v="JOSM"/>
    <tag k="highway" v="primary"/>
    <tag k="name" v="Leichhardt Highway"/>
    <tag k="surface" v="paved"/>
  </node>
  <node id="134661187" version="1" timestamp="2007-11-26T11:43:53Z" uid="4467" user="Rosscoe" changeset="626229" lat="-26.407877" lon="150.071255">
    <tag k="created_by" v="JOSM"/>
    <tag k="highway" v="primary"/>
    <tag k="name" v="Leichhardt Highway"/>
    <tag k="surface" v="paved"/>
  </node>
  <node id="134661211" version="1" timestamp="2007-11-26T11:43:53Z" uid="4467" user="Rosscoe" changeset="626229" lat="-26.40815" lon="150.071183">
    <tag k="created_by" v="JOSM"/>
    <tag k="highway" v="primary"/>
    <tag k="name" v="Leichhardt Highway"/>
    <tag k="surface" v="paved"/>
  </node>
  <node id="134661237" version="1" timestamp="2007-11-26T11:43:54Z" uid="4467" user="Rosscoe" changeset="626229" lat="-26.408427" lon="150.07111">
    <tag k="created_by" v="JOSM"/>
    <tag k="highway" v="primary"/>
    <tag k="name" v="Leichhardt Highway"/>
    <tag k="surface" v="paved"/>
  </node>
  <node id="134661251" version="1" timestamp="2007-11-26T11:43:55Z" uid="4467" user="Rosscoe" changeset="626229" lat="-26.4087" lon="150.071037">
    <tag k="created_by" v="JOSM"/>
    <tag k="highway" v="primary"/>
    <tag k="name" v="Leichhardt Highway"/>
    <tag k="surface" v="paved"/>
  </node>
  <node id="134661275" version="1" timestamp="2007-11-26T11:43:56Z" uid="4467" user="Rosscoe" changeset="626229" lat="-26.409255" lon="150.070887">
    <tag k="created_by" v="JOSM"/>
    <tag k="highway" v="primary"/>
    <tag k="name" v="Leichhardt Highway"/>
    <tag k="surface" v="paved"/>
  </node>
  <node id="134661301" version="1" timestamp="2007-11-26T11:43:57Z" uid="4467" user="Rosscoe" changeset="626229" lat="-26.40953" lon="150.070815">
    <tag k="created_by" v="JOSM"/>
    <tag k="highway" v="primary"/>
    <tag k="name" v="Leichhardt Highway"/>
    <tag k="surface" v="paved"/>
  </node>
  <node id="134661309" version="10" timestamp="2011-04-17T02:27:03Z" uid="7617" user="Franc" changeset="7883519" lat="-33.7227422" lon="150.2919898"/>
  <node id="134661310" version="6" timestamp="2011-04-17T02:26:59Z" uid="7617" user="Franc" changeset="7883519" lat="-33.7223865" lon="150.2912138"/>
  <node id="134661312" version="7" timestamp="2011-04-17T02:26:54Z" uid="7617" user="Franc" changeset="7883519" lat="-33.7224457" lon="150.2908287"/>
  <node id="134661313" version="7" timestamp="2011-04-17T02:27:00Z" uid="7617" user="Franc" changeset="7883519" lat="-33.7226265" lon="150.2896569"/>
  <node id="134661314" version="7" timestamp="2011-04-17T02:26:57Z" uid="7617" user="Franc" changeset="7883519" lat="-33.7227489" lon="150.288653"/>
  <node id="134661315" version="7" timestamp="2011-04-17T02:27:03Z" uid="7617" user="Franc" changeset="7883519" lat="-33.7227546" lon="150.2882807"/>
  <node id="134661316" version="7" timestamp="2011-04-17T02:26:59Z" uid="7617" user="Franc" changeset="7883519" lat="-33.7222733" lon="150.2878043"/>
  <node id="134661318" version="7" timestamp="2011-04-17T02:27:01Z" uid="7617" user="Franc" changeset="7883519" lat="-33.7220836" lon="150.2868874"/>
  <node id="134661320" version="7" timestamp="2011-04-17T02:27:04Z" uid="7617" user="Franc" changeset="7883519" lat="-33.72209" lon="150.2862632"/>
  <node id="134661322" version="7" timestamp="2011-04-17T02:27:09Z" uid="7617" user="Franc" changeset="7883519" lat="-33.7217766" lon="150.2860397"/>
  <node id="134661323" version="9" timestamp="2011-04-17T02:26:57Z" uid="7617" user="Franc" changeset="7883519" lat="-33.7209288" lon="150.2859625"/>
  <node id="134661326" version="6" timestamp="2011-04-17T02:26:55Z" uid="7617" user="Franc" changeset="7883519" lat="-33.7189308" lon="150.2868425"/>
  <node id="134661329" version="6" timestamp="2011-04-17T02:26:57Z" uid="7617" user="Franc" changeset="7883519" lat="-33.7190132" lon="150.2873781"/>
  <node id="134661342" version="9" timestamp="2011-04-17T02:27:11Z" uid="7617" user="Franc" changeset="7883519" lat="-33.7203263" lon="150.2936558"/>
  <node id="134661353" version="1" timestamp="2007-11-26T11:43:57Z" uid="4467" user="Rosscoe" changeset="626229" lat="-26.409805" lon="150.070742">
    <tag k="created_by" v="JOSM"/>
    <tag k="highway" v="primary"/>
    <tag k="name" v="Leichhardt Highway"/>
    <tag k="surface" v="paved"/>
  </node>
  <node id="134661374" version="1" timestamp="2007-11-26T11:43:58Z" uid="4467" user="Rosscoe" changeset="626229" lat="-26.410083" lon="150.07067">
    <tag k="created_by" v="JOSM"/>
    <tag k="highway" v="primary"/>
    <tag k="name" v="Leichhardt Highway"/>
    <tag k="surface" v="paved"/>
  </node>
  <node id="134661376" version="4" timestamp="2011-04-17T02:26:56Z" uid="7617" user="Franc" changeset="7883519" lat="-33.723021" lon="150.2920102"/>
  <node id="134661397" version="1" timestamp="2007-11-26T11:43:59Z" uid="4467" user="Rosscoe" changeset="626229" lat="-26.410362" lon="150.0706">
    <tag k="created_by" v="JOSM"/>
    <tag k="highway" v="primary"/>
    <tag k="name" v="Leichhardt Highway"/>
    <tag k="surface" v="paved"/>
  </node>
  <node id="134661418" version="1" timestamp="2007-11-26T11:44:00Z" uid="4467" user="Rosscoe" changeset="626229" lat="-26.410638" lon="150.070528">
    <tag k="created_by" v="JOSM"/>
    <tag k="highway" v="primary"/>
    <tag k="name" v="Leichhardt Highway"/>
    <tag k="surface" v="paved"/>
  </node>
  <node id="134661450" version="1" timestamp="2007-11-26T11:44:00Z" uid="4467" user="Rosscoe" changeset="626229" lat="-26.410913" lon="150.070457">
    <tag k="created_by" v="JOSM"/>
    <tag k="highway" v="primary"/>
    <tag k="name" v="Leichhardt Highway"/>
    <tag k="surface" v="paved"/>
  </node>
  <node id="134661471" version="1" timestamp="2007-11-26T11:44:01Z" uid="4467" user="Rosscoe" changeset="626229" lat="-26.411192" lon="150.070383">
    <tag k="created_by" v="JOSM"/>
    <tag k="highway" v="primary"/>
    <tag k="name" v="Leichhardt Highway"/>
    <tag k="surface" v="paved"/>
  </node>
  <node id="134661500" version="1" timestamp="2007-11-26T11:44:02Z" uid="4467" user="Rosscoe" changeset="626229" lat="-26.411465" lon="150.070312">
    <tag k="created_by" v="JOSM"/>
    <tag k="highway" v="primary"/>
    <tag k="name" v="Leichhardt Highway"/>
    <tag k="surface" v="paved"/>
  </node>
  <node id="134661523" version="1" timestamp="2007-11-26T11:44:03Z" uid="4467" user="Rosscoe" changeset="626229" lat="-26.411743" lon="150.070237">
    <tag k="created_by" v="JOSM"/>
    <tag k="highway" v="primary"/>
    <tag k="name" v="Leichhardt Highway"/>
    <tag k="surface" v="paved"/>
  </node>
  <node id="134661546" version="1" timestamp="2007-11-26T11:44:04Z" uid="4467" user="Rosscoe" changeset="626229" lat="-26.41202" lon="150.070163">
    <tag k="created_by" v="JOSM"/>
    <tag k="highway" v="primary"/>
    <tag k="name" v="Leichhardt Highway"/>
    <tag k="surface" v="paved"/>
  </node>
  <node id="134661580" version="1" timestamp="2007-11-26T11:44:04Z" uid="4467" user="Rosscoe" changeset="626229" lat="-26.412295" lon="150.07009">
    <tag k="created_by" v="JOSM"/>
    <tag k="highway" v="primary"/>
    <tag k="name" v="Leichhardt Highway"/>
    <tag k="surface" v="paved"/>
  </node>
  <node id="134661606" version="1" timestamp="2007-11-26T11:44:05Z" uid="4467" user="Rosscoe" changeset="626229" lat="-26.412572" lon="150.070017">
    <tag k="created_by" v="JOSM"/>
    <tag k="highway" v="primary"/>
    <tag k="name" v="Leichhardt Highway"/>
    <tag k="surface" v="paved"/>
  </node>
  <node id="134661623" version="1" timestamp="2007-11-26T11:44:06Z" uid="4467" user="Rosscoe" changeset="626229" lat="-26.412848" lon="150.069947">
    <tag k="created_by" v="JOSM"/>
    <tag k="highway" v="primary"/>
    <tag k="name" v="Leichhardt Highway"/>
    <tag k="surface" v="paved"/>
  </node>
  <node id="134661624" version="1" timestamp="2007-11-26T11:44:07Z" uid="4467" user="Rosscoe" changeset="626229" lat="-26.413122" lon="150.069877">
    <tag k="created_by" v="JOSM"/>
    <tag k="highway" v="primary"/>
    <tag k="name" v="Leichhardt Highway"/>
    <tag k="surface" v="paved"/>
  </node>
  <node id="134661633" version="1" timestamp="2007-11-26T11:44:08Z" uid="4467" user="Rosscoe" changeset="626229" lat="-26.413398" lon="150.069805">
    <tag k="created_by" v="JOSM"/>
    <tag k="highway" v="primary"/>
    <tag k="name" v="Leichhardt Highway"/>
    <tag k="surface" v="paved"/>
  </node>
  <node id="134661658" version="1" timestamp="2007-11-26T11:44:08Z" uid="4467" user="Rosscoe" changeset="626229" lat="-26.413948" lon="150.069662">
    <tag k="created_by" v="JOSM"/>
    <tag k="highway" v="primary"/>
    <tag k="name" v="Leichhardt Highway"/>
    <tag k="surface" v="paved"/>
  </node>
  <node id="134661686" version="1" timestamp="2007-11-26T11:44:09Z" uid="4467" user="Rosscoe" changeset="626229" lat="-26.414223" lon="150.069592">
    <tag k="created_by" v="JOSM"/>
    <tag k="highway" v="primary"/>
    <tag k="name" v="Leichhardt Highway"/>
    <tag k="surface" v="paved"/>
  </node>
  <node id="134661716" version="1" timestamp="2007-11-26T11:44:10Z" uid="4467" user="Rosscoe" changeset="626229" lat="-26.4145" lon="150.069522">
    <tag k="created_by" v="JOSM"/>
    <tag k="highway" v="primary"/>
    <tag k="name" v="Leichhardt Highway"/>
    <tag k="surface" v="paved"/>
  </node>
  <node id="134661742" version="1" timestamp="2007-11-26T11:44:11Z" uid="4467" user="Rosscoe" changeset="626229" lat="-26.414772" lon="150.069455">
    <tag k="created_by" v="JOSM"/>
    <tag k="highway" v="primary"/>
    <tag k="name" v="Leichhardt Highway"/>
    <tag k="surface" v="paved"/>
  </node>
  <node id="134661772" version="1" timestamp="2007-11-26T11:44:11Z" uid="4467" user="Rosscoe" changeset="626229" lat="-26.41505" lon="150.069387">
    <tag k="created_by" v="JOSM"/>
    <tag k="highway" v="primary"/>
    <tag k="name" v="Leichhardt Highway"/>
    <tag k="surface" v="paved"/>
  </node>
  <node id="134661796" version="1" timestamp="2007-11-26T11:44:12Z" uid="4467" user="Rosscoe" changeset="626229" lat="-26.415327" lon="150.069327">
    <tag k="created_by" v="JOSM"/>
    <tag k="highway" v="primary"/>
    <tag k="name" v="Leichhardt Highway"/>
    <tag k="surface" v="paved"/>
  </node>
  <node id="134661822" version="1" timestamp="2007-11-26T11:44:13Z" uid="4467" user="Rosscoe" changeset="626229" lat="-26.415597" lon="150.069273">
    <tag k="created_by" v="JOSM"/>
    <tag k="highway" v="primary"/>
    <tag k="name" v="Leichhardt Highway"/>
    <tag k="surface" v="paved"/>
  </node>
  <node id="134661835" version="5" timestamp="2011-04-17T02:27:11Z" uid="7617" user="Franc" changeset="7883519" lat="-33.7225094" lon="150.2921615"/>
  <node id="134661838" version="5" timestamp="2011-04-17T02:27:11Z" uid="7617" user="Franc" changeset="7883519" lat="-33.720867" lon="150.2935864"/>
  <node id="134661840" version="4" timestamp="2010-03-27T10:20:26Z" uid="30201" user="rrankin" changeset="4245095" lat="-33.7190352" lon="150.293826"/>
  <node id="134661841" version="4" timestamp="2010-03-27T10:20:26Z" uid="30201" user="rrankin" changeset="4245095" lat="-33.7174174" lon="150.295422"/>
  <node id="134661859" version="1" timestamp="2007-11-26T11:44:14Z" uid="4467" user="Rosscoe" changeset="626229" lat="-26.415875" lon="150.06922">
    <tag k="created_by" v="JOSM"/>
    <tag k="highway" v="primary"/>
    <tag k="name" v="Leichhardt Highway"/>
    <tag k="surface" v="paved"/>
  </node>
  <node id="134661903" version="1" timestamp="2007-11-26T11:44:14Z" uid="4467" user="Rosscoe" changeset="626229" lat="-26.416147" lon="150.069173">
    <tag k="created_by" v="JOSM"/>
    <tag k="highway" v="primary"/>
    <tag k="name" v="Leichhardt Highway"/>
    <tag k="surface" v="paved"/>
  </node>
  <node id="134661939" version="1" timestamp="2007-11-26T11:44:15Z" uid="4467" user="Rosscoe" changeset="626229" lat="-26.41642" lon="150.069128">
    <tag k="created_by" v="JOSM"/>
    <tag k="highway" v="primary"/>
    <tag k="name" v="Leichhardt Highway"/>
    <tag k="surface" v="paved"/>
  </node>
  <node id="134661971" version="1" timestamp="2007-11-26T11:44:16Z" uid="4467" user="Rosscoe" changeset="626229" lat="-26.416698" lon="150.069085">
    <tag k="created_by" v="JOSM"/>
    <tag k="highway" v="primary"/>
    <tag k="name" v="Leichhardt Highway"/>
    <tag k="surface" v="paved"/>
  </node>
  <node id="134662001" version="1" timestamp="2007-11-26T11:44:17Z" uid="4467" user="Rosscoe" changeset="626229" lat="-26.416977" lon="150.06904">
    <tag k="created_by" v="JOSM"/>
    <tag k="highway" v="primary"/>
    <tag k="name" v="Leichhardt Highway"/>
    <tag k="surface" v="paved"/>
  </node>
  <node id="134662027" version="1" timestamp="2007-11-26T11:44:18Z" uid="4467" user="Rosscoe" changeset="626229" lat="-26.417255" lon="150.068995">
    <tag k="created_by" v="JOSM"/>
    <tag k="highway" v="primary"/>
    <tag k="name" v="Leichhardt Highway"/>
    <tag k="surface" v="paved"/>
  </node>
  <node id="134662055" version="1" timestamp="2007-11-26T11:44:18Z" uid="4467" user="Rosscoe" changeset="626229" lat="-26.417532" lon="150.068948">
    <tag k="created_by" v="JOSM"/>
    <tag k="highway" v="primary"/>
    <tag k="name" v="Leichhardt Highway"/>
    <tag k="surface" v="paved"/>
  </node>
  <node id="134662085" version="1" timestamp="2007-11-26T11:44:19Z" uid="9581" user="Lobelt" changeset="623243" lat="50.8621447" lon="12.0870721"/>
  <node id="134662085" version="2" timestamp="2007-11-26T11:44:30Z" uid="9581" user="Lobelt" changeset="623243" lat="50.8621231" lon="12.0870206"/>
  <node id="134662092" version="1" timestamp="2007-11-26T11:44:19Z" uid="4467" user="Rosscoe" changeset="626229" lat="-26.417812" lon="150.068902">
    <tag k="created_by" v="JOSM"/>
    <tag k="highway" v="primary"/>
    <tag k="name" v="Leichhardt Highway"/>
    <tag k="surface" v="paved"/>
  </node>
  <node id="134662119" version="1" timestamp="2007-11-26T11:44:20Z" uid="4467" user="Rosscoe" changeset="626229" lat="-26.41809" lon="150.068855">
    <tag k="created_by" v="JOSM"/>
    <tag k="highway" v="primary"/>
    <tag k="name" v="Leichhardt Highway"/>
    <tag k="surface" v="paved"/>
  </node>
  <node id="134662149" version="1" timestamp="2007-11-26T11:44:21Z" uid="4467" user="Rosscoe" changeset="626229" lat="-26.418373" lon="150.06881">
    <tag k="created_by" v="JOSM"/>
    <tag k="highway" v="primary"/>
    <tag k="name" v="Leichhardt Highway"/>
    <tag k="surface" v="paved"/>
  </node>
  <node id="134662178" version="1" timestamp="2007-11-26T11:44:21Z" uid="4467" user="Rosscoe" changeset="626229" lat="-26.418932" lon="150.068718">
    <tag k="created_by" v="JOSM"/>
    <tag k="highway" v="primary"/>
    <tag k="name" v="Leichhardt Highway"/>
    <tag k="surface" v="paved"/>
  </node>
  <node id="134662208" version="1" timestamp="2007-11-26T11:44:22Z" uid="4467" user="Rosscoe" changeset="626229" lat="-26.41921" lon="150.068673">
    <tag k="created_by" v="JOSM"/>
    <tag k="highway" v="primary"/>
    <tag k="name" v="Leichhardt Highway"/>
    <tag k="surface" v="paved"/>
  </node>
  <node id="134662234" version="1" timestamp="2007-11-26T11:44:23Z" uid="4467" user="Rosscoe" changeset="626229" lat="-26.41949" lon="150.068628">
    <tag k="created_by" v="JOSM"/>
    <tag k="highway" v="primary"/>
    <tag k="name" v="Leichhardt Highway"/>
    <tag k="surface" v="paved"/>
  </node>
  <node id="134662267" version="1" timestamp="2007-11-26T11:44:24Z" uid="4467" user="Rosscoe" changeset="626229" lat="-26.419767" lon="150.068582">
    <tag k="created_by" v="JOSM"/>
    <tag k="highway" v="primary"/>
    <tag k="name" v="Leichhardt Highway"/>
    <tag k="surface" v="paved"/>
  </node>
  <node id="134662303" version="1" timestamp="2007-11-26T11:44:25Z" uid="4467" user="Rosscoe" changeset="626229" lat="-26.420048" lon="150.068537">
    <tag k="created_by" v="JOSM"/>
    <tag k="highway" v="primary"/>
    <tag k="name" v="Leichhardt Highway"/>
    <tag k="surface" v="paved"/>
  </node>
  <node id="134662336" version="1" timestamp="2007-11-26T11:44:25Z" uid="4467" user="Rosscoe" changeset="626229" lat="-26.420327" lon="150.068493">
    <tag k="created_by" v="JOSM"/>
    <tag k="highway" v="primary"/>
    <tag k="name" v="Leichhardt Highway"/>
    <tag k="surface" v="paved"/>
  </node>
  <node id="134662341" version="1" timestamp="2007-11-26T11:44:25Z" uid="9581" user="Lobelt" changeset="623243" lat="50.8619551" lon="12.0869348"/>
  <node id="134662367" version="1" timestamp="2007-11-26T11:44:26Z" uid="4467" user="Rosscoe" changeset="626229" lat="-26.420607" lon="150.068448">
    <tag k="created_by" v="JOSM"/>
    <tag k="highway" v="primary"/>
    <tag k="name" v="Leichhardt Highway"/>
    <tag k="surface" v="paved"/>
  </node>
  <node id="134662393" version="1" timestamp="2007-11-26T11:44:27Z" uid="4467" user="Rosscoe" changeset="626229" lat="-26.421165" lon="150.068357">
    <tag k="created_by" v="JOSM"/>
    <tag k="highway" v="primary"/>
    <tag k="name" v="Leichhardt Highway"/>
    <tag k="surface" v="paved"/>
  </node>
  <node id="134662411" version="1" timestamp="2007-11-26T11:44:28Z" uid="4467" user="Rosscoe" changeset="626229" lat="-26.421443" lon="150.068312">
    <tag k="created_by" v="JOSM"/>
    <tag k="highway" v="primary"/>
    <tag k="name" v="Leichhardt Highway"/>
    <tag k="surface" v="paved"/>
  </node>
  <node id="134662446" version="1" timestamp="2007-11-26T11:44:28Z" uid="4467" user="Rosscoe" changeset="626229" lat="-26.421727" lon="150.068265">
    <tag k="created_by" v="JOSM"/>
    <tag k="highway" v="primary"/>
    <tag k="name" v="Leichhardt Highway"/>
    <tag k="surface" v="paved"/>
  </node>
  <node id="134662481" version="1" timestamp="2007-11-26T11:44:29Z" uid="4467" user="Rosscoe" changeset="626229" lat="-26.42201" lon="150.068218">
    <tag k="created_by" v="JOSM"/>
    <tag k="highway" v="primary"/>
    <tag k="name" v="Leichhardt Highway"/>
    <tag k="surface" v="paved"/>
  </node>
  <node id="134662509" version="1" timestamp="2007-11-26T11:44:30Z" uid="4467" user="Rosscoe" changeset="626229" lat="-26.422568" lon="150.06813">
    <tag k="created_by" v="JOSM"/>
    <tag k="highway" v="primary"/>
    <tag k="name" v="Leichhardt Highway"/>
    <tag k="surface" v="paved"/>
  </node>
  <node id="134662539" version="1" timestamp="2007-11-26T11:44:31Z" uid="4467" user="Rosscoe" changeset="626229" lat="-26.422848" lon="150.068085">
    <tag k="created_by" v="JOSM"/>
    <tag k="highway" v="primary"/>
    <tag k="name" v="Leichhardt Highway"/>
    <tag k="surface" v="paved"/>
  </node>
  <node id="134662563" version="1" timestamp="2007-11-26T11:44:31Z" uid="4467" user="Rosscoe" changeset="626229" lat="-26.423127" lon="150.06804">
    <tag k="created_by" v="JOSM"/>
    <tag k="highway" v="primary"/>
    <tag k="name" v="Leichhardt Highway"/>
    <tag k="surface" v="paved"/>
  </node>
  <node id="134662592" version="1" timestamp="2007-11-26T11:44:32Z" uid="4467" user="Rosscoe" changeset="626229" lat="-26.423408" lon="150.067995">
    <tag k="created_by" v="JOSM"/>
    <tag k="highway" v="primary"/>
    <tag k="name" v="Leichhardt Highway"/>
    <tag k="surface" v="paved"/>
  </node>
  <node id="134662621" version="1" timestamp="2007-11-26T11:44:33Z" uid="4467" user="Rosscoe" changeset="626229" lat="-26.423692" lon="150.067948">
    <tag k="created_by" v="JOSM"/>
    <tag k="highway" v="primary"/>
    <tag k="name" v="Leichhardt Highway"/>
    <tag k="surface" v="paved"/>
  </node>
  <node id="134662640" version="1" timestamp="2007-11-26T11:44:34Z" uid="4467" user="Rosscoe" changeset="626229" lat="-26.423968" lon="150.067903">
    <tag k="created_by" v="JOSM"/>
    <tag k="highway" v="primary"/>
    <tag k="name" v="Leichhardt Highway"/>
    <tag k="surface" v="paved"/>
  </node>
  <node id="134662663" version="1" timestamp="2007-11-26T11:44:35Z" uid="4467" user="Rosscoe" changeset="626229" lat="-26.424248" lon="150.067858">
    <tag k="created_by" v="JOSM"/>
    <tag k="highway" v="primary"/>
    <tag k="name" v="Leichhardt Highway"/>
    <tag k="surface" v="paved"/>
  </node>
  <node id="134662689" version="1" timestamp="2007-11-26T11:44:35Z" uid="4467" user="Rosscoe" changeset="626229" lat="-26.424528" lon="150.067815">
    <tag k="created_by" v="JOSM"/>
    <tag k="highway" v="primary"/>
    <tag k="name" v="Leichhardt Highway"/>
    <tag k="surface" v="paved"/>
  </node>
  <node id="134662721" version="1" timestamp="2007-11-26T11:44:36Z" uid="4467" user="Rosscoe" changeset="626229" lat="-26.424808" lon="150.06777">
    <tag k="created_by" v="JOSM"/>
    <tag k="highway" v="primary"/>
    <tag k="name" v="Leichhardt Highway"/>
    <tag k="surface" v="paved"/>
  </node>
  <node id="134662754" version="1" timestamp="2007-11-26T11:44:37Z" uid="4467" user="Rosscoe" changeset="626229" lat="-26.42509" lon="150.067727">
    <tag k="created_by" v="JOSM"/>
    <tag k="highway" v="primary"/>
    <tag k="name" v="Leichhardt Highway"/>
    <tag k="surface" v="paved"/>
  </node>
  <node id="134662784" version="1" timestamp="2007-11-26T11:44:38Z" uid="4467" user="Rosscoe" changeset="626229" lat="-26.42537" lon="150.067682">
    <tag k="created_by" v="JOSM"/>
    <tag k="highway" v="primary"/>
    <tag k="name" v="Leichhardt Highway"/>
    <tag k="surface" v="paved"/>
  </node>
  <node id="134662809" version="1" timestamp="2007-11-26T11:44:39Z" uid="4467" user="Rosscoe" changeset="626229" lat="-26.425928" lon="150.067592">
    <tag k="created_by" v="JOSM"/>
    <tag k="highway" v="primary"/>
    <tag k="name" v="Leichhardt Highway"/>
    <tag k="surface" v="paved"/>
  </node>
  <node id="134662856" version="1" timestamp="2007-11-26T11:44:39Z" uid="4467" user="Rosscoe" changeset="626229" lat="-26.426212" lon="150.067545">
    <tag k="created_by" v="JOSM"/>
    <tag k="highway" v="primary"/>
    <tag k="name" v="Leichhardt Highway"/>
    <tag k="surface" v="paved"/>
  </node>
  <node id="134662926" version="1" timestamp="2007-11-26T11:44:40Z" uid="4467" user="Rosscoe" changeset="626229" lat="-26.42649" lon="150.0675">
    <tag k="created_by" v="JOSM"/>
    <tag k="highway" v="primary"/>
    <tag k="name" v="Leichhardt Highway"/>
    <tag k="surface" v="paved"/>
  </node>
  <node id="134662957" version="1" timestamp="2007-11-26T11:44:41Z" uid="4467" user="Rosscoe" changeset="626229" lat="-26.427052" lon="150.067403">
    <tag k="created_by" v="JOSM"/>
    <tag k="highway" v="primary"/>
    <tag k="name" v="Leichhardt Highway"/>
    <tag k="surface" v="paved"/>
  </node>
  <node id="134662985" version="1" timestamp="2007-11-26T11:44:42Z" uid="4467" user="Rosscoe" changeset="626229" lat="-26.42733" lon="150.067358">
    <tag k="created_by" v="JOSM"/>
    <tag k="highway" v="primary"/>
    <tag k="name" v="Leichhardt Highway"/>
    <tag k="surface" v="paved"/>
  </node>
  <node id="134663022" version="1" timestamp="2007-11-26T11:44:43Z" uid="4467" user="Rosscoe" changeset="626229" lat="-26.42761" lon="150.067313">
    <tag k="created_by" v="JOSM"/>
    <tag k="highway" v="primary"/>
    <tag k="name" v="Leichhardt Highway"/>
    <tag k="surface" v="paved"/>
  </node>
  <node id="134663059" version="1" timestamp="2007-11-26T11:44:43Z" uid="4467" user="Rosscoe" changeset="626229" lat="-26.42788" lon="150.06727">
    <tag k="created_by" v="JOSM"/>
    <tag k="highway" v="primary"/>
    <tag k="name" v="Leichhardt Highway"/>
    <tag k="surface" v="paved"/>
  </node>
  <node id="134663095" version="1" timestamp="2007-11-26T11:44:44Z" uid="4467" user="Rosscoe" changeset="626229" lat="-26.428153" lon="150.067227">
    <tag k="created_by" v="JOSM"/>
    <tag k="highway" v="primary"/>
    <tag k="name" v="Leichhardt Highway"/>
    <tag k="surface" v="paved"/>
  </node>
  <node id="134663128" version="1" timestamp="2007-11-26T11:44:45Z" uid="4467" user="Rosscoe" changeset="626229" lat="-26.428435" lon="150.06718">
    <tag k="created_by" v="JOSM"/>
    <tag k="highway" v="primary"/>
    <tag k="name" v="Leichhardt Highway"/>
    <tag k="surface" v="paved"/>
  </node>
  <node id="134663174" version="1" timestamp="2007-11-26T11:44:46Z" uid="4467" user="Rosscoe" changeset="626229" lat="-26.428713" lon="150.067137">
    <tag k="created_by" v="JOSM"/>
    <tag k="highway" v="primary"/>
    <tag k="name" v="Leichhardt Highway"/>
    <tag k="surface" v="paved"/>
  </node>
  <node id="134663206" version="1" timestamp="2007-11-26T11:44:47Z" uid="4467" user="Rosscoe" changeset="626229" lat="-26.429272" lon="150.067053">
    <tag k="created_by" v="JOSM"/>
    <tag k="highway" v="primary"/>
    <tag k="name" v="Leichhardt Highway"/>
    <tag k="surface" v="paved"/>
  </node>
  <node id="134663224" version="1" timestamp="2007-11-26T11:44:47Z" uid="4467" user="Rosscoe" changeset="626229" lat="-26.429552" lon="150.06701">
    <tag k="created_by" v="JOSM"/>
    <tag k="highway" v="primary"/>
    <tag k="name" v="Leichhardt Highway"/>
    <tag k="surface" v="paved"/>
  </node>
  <node id="134663255" version="1" timestamp="2007-11-26T11:44:48Z" uid="4467" user="Rosscoe" changeset="626229" lat="-26.42983" lon="150.066967">
    <tag k="created_by" v="JOSM"/>
    <tag k="highway" v="primary"/>
    <tag k="name" v="Leichhardt Highway"/>
    <tag k="surface" v="paved"/>
  </node>
  <node id="134663273" version="1" timestamp="2007-11-26T11:44:49Z" uid="4467" user="Rosscoe" changeset="626229" lat="-26.43011" lon="150.066927">
    <tag k="created_by" v="JOSM"/>
    <tag k="highway" v="primary"/>
    <tag k="name" v="Leichhardt Highway"/>
    <tag k="surface" v="paved"/>
  </node>
  <node id="134663299" version="1" timestamp="2007-11-26T11:44:50Z" uid="4467" user="Rosscoe" changeset="626229" lat="-26.43039" lon="150.066887">
    <tag k="created_by" v="JOSM"/>
    <tag k="highway" v="primary"/>
    <tag k="name" v="Leichhardt Highway"/>
    <tag k="surface" v="paved"/>
  </node>
  <node id="134663326" version="1" timestamp="2007-11-26T11:44:50Z" uid="4467" user="Rosscoe" changeset="626229" lat="-26.430663" lon="150.06685">
    <tag k="created_by" v="JOSM"/>
    <tag k="highway" v="primary"/>
    <tag k="name" v="Leichhardt Highway"/>
    <tag k="surface" v="paved"/>
  </node>
  <node id="134663350" version="1" timestamp="2007-11-26T11:44:51Z" uid="4467" user="Rosscoe" changeset="626229" lat="-26.430938" lon="150.066815">
    <tag k="created_by" v="JOSM"/>
    <tag k="highway" v="primary"/>
    <tag k="name" v="Leichhardt Highway"/>
    <tag k="surface" v="paved"/>
  </node>
  <node id="134663376" version="1" timestamp="2007-11-26T11:44:52Z" uid="4467" user="Rosscoe" changeset="626229" lat="-26.431215" lon="150.066777">
    <tag k="created_by" v="JOSM"/>
    <tag k="highway" v="primary"/>
    <tag k="name" v="Leichhardt Highway"/>
    <tag k="surface" v="paved"/>
  </node>
  <node id="134663401" version="1" timestamp="2007-11-26T11:44:53Z" uid="4467" user="Rosscoe" changeset="626229" lat="-26.43149" lon="150.066738">
    <tag k="created_by" v="JOSM"/>
    <tag k="highway" v="primary"/>
    <tag k="name" v="Leichhardt Highway"/>
    <tag k="surface" v="paved"/>
  </node>
  <node id="134663418" version="1" timestamp="2007-11-26T11:44:54Z" uid="4467" user="Rosscoe" changeset="626229" lat="-26.432053" lon="150.06666">
    <tag k="created_by" v="JOSM"/>
    <tag k="highway" v="primary"/>
    <tag k="name" v="Leichhardt Highway"/>
    <tag k="surface" v="paved"/>
  </node>
  <node id="134663440" version="1" timestamp="2007-11-26T11:44:54Z" uid="4467" user="Rosscoe" changeset="626229" lat="-26.432325" lon="150.066623">
    <tag k="created_by" v="JOSM"/>
    <tag k="highway" v="primary"/>
    <tag k="name" v="Leichhardt Highway"/>
    <tag k="surface" v="paved"/>
  </node>
  <node id="134663465" version="1" timestamp="2007-11-26T11:44:55Z" uid="4467" user="Rosscoe" changeset="626229" lat="-26.432602" lon="150.066587">
    <tag k="created_by" v="JOSM"/>
    <tag k="highway" v="primary"/>
    <tag k="name" v="Leichhardt Highway"/>
    <tag k="surface" v="paved"/>
  </node>
  <node id="134663497" version="1" timestamp="2007-11-26T11:44:56Z" uid="4467" user="Rosscoe" changeset="626229" lat="-26.432875" lon="150.066552">
    <tag k="created_by" v="JOSM"/>
    <tag k="highway" v="primary"/>
    <tag k="name" v="Leichhardt Highway"/>
    <tag k="surface" v="paved"/>
  </node>
  <node id="134663513" version="1" timestamp="2007-11-26T11:44:57Z" uid="4467" user="Rosscoe" changeset="626229" lat="-26.433148" lon="150.066515">
    <tag k="created_by" v="JOSM"/>
    <tag k="highway" v="primary"/>
    <tag k="name" v="Leichhardt Highway"/>
    <tag k="surface" v="paved"/>
  </node>
  <node id="134663535" version="1" timestamp="2007-11-26T11:44:57Z" uid="4467" user="Rosscoe" changeset="626229" lat="-26.433428" lon="150.06648">
    <tag k="created_by" v="JOSM"/>
    <tag k="highway" v="primary"/>
    <tag k="name" v="Leichhardt Highway"/>
    <tag k="surface" v="paved"/>
  </node>
  <node id="134663560" version="1" timestamp="2007-11-26T11:44:58Z" uid="4467" user="Rosscoe" changeset="626229" lat="-26.4337" lon="150.066442">
    <tag k="created_by" v="JOSM"/>
    <tag k="highway" v="primary"/>
    <tag k="name" v="Leichhardt Highway"/>
    <tag k="surface" v="paved"/>
  </node>
  <node id="134663586" version="1" timestamp="2007-11-26T11:44:59Z" uid="4467" user="Rosscoe" changeset="626229" lat="-26.433973" lon="150.066407">
    <tag k="created_by" v="JOSM"/>
    <tag k="highway" v="primary"/>
    <tag k="name" v="Leichhardt Highway"/>
    <tag k="surface" v="paved"/>
  </node>
  <node id="134663589" version="4" timestamp="2010-03-27T10:20:26Z" uid="30201" user="rrankin" changeset="4245095" lat="-33.7080404" lon="150.3006077"/>
  <node id="134663590" version="5" timestamp="2010-03-30T20:21:08Z" uid="7617" user="Franc" changeset="4280541" lat="-33.7075803" lon="150.300697"/>
  <node id="134663591" version="5" timestamp="2010-03-30T20:21:09Z" uid="7617" user="Franc" changeset="4280541" lat="-33.7068564" lon="150.3004866"/>
  <node id="134663593" version="5" timestamp="2010-03-30T20:21:09Z" uid="7617" user="Franc" changeset="4280541" lat="-33.7062556" lon="150.3000485"/>
  <node id="134663594" version="13" timestamp="2010-03-30T20:21:08Z" uid="7617" user="Franc" changeset="4280541" lat="-33.7060832" lon="150.2992948"/>
  <node id="134663596" version="2" timestamp="2009-01-01T03:40:36Z" uid="19626" user="Swamp" changeset="694579" lat="-33.7062051" lon="150.2991536"/>
  <node id="134663596" version="8" timestamp="2010-03-30T20:21:08Z" uid="7617" user="Franc" changeset="4280541" lat="-33.7062309" lon="150.299154"/>
  <node id="134663598" version="7" timestamp="2010-03-30T20:21:13Z" uid="7617" user="Franc" changeset="4280541" lat="-33.7063527" lon="150.2990966"/>
  <node id="134663620" version="1" timestamp="2007-11-26T11:45:00Z" uid="4467" user="Rosscoe" changeset="626229" lat="-26.434245" lon="150.06637">
    <tag k="created_by" v="JOSM"/>
    <tag k="highway" v="primary"/>
    <tag k="name" v="Leichhardt Highway"/>
    <tag k="surface" v="paved"/>
  </node>
  <node id="134663651" version="1" timestamp="2007-11-26T11:45:01Z" uid="4467" user="Rosscoe" changeset="626229" lat="-26.43479" lon="150.066293">
    <tag k="created_by" v="JOSM"/>
    <tag k="highway" v="primary"/>
    <tag k="name" v="Leichhardt Highway"/>
    <tag k="surface" v="paved"/>
  </node>
  <node id="134663676" version="1" timestamp="2007-11-26T11:45:01Z" uid="4467" user="Rosscoe" changeset="626229" lat="-26.435068" lon="150.066253">
    <tag k="created_by" v="JOSM"/>
    <tag k="highway" v="primary"/>
    <tag k="name" v="Leichhardt Highway"/>
    <tag k="surface" v="paved"/>
  </node>
  <node id="134663706" version="1" timestamp="2007-11-26T11:45:02Z" uid="4467" user="Rosscoe" changeset="626229" lat="-26.435342" lon="150.066215">
    <tag k="created_by" v="JOSM"/>
    <tag k="highway" v="primary"/>
    <tag k="name" v="Leichhardt Highway"/>
    <tag k="surface" v="paved"/>
  </node>
  <node id="134663727" version="1" timestamp="2007-11-26T11:45:03Z" uid="4467" user="Rosscoe" changeset="626229" lat="-26.435615" lon="150.066178">
    <tag k="created_by" v="JOSM"/>
    <tag k="highway" v="primary"/>
    <tag k="name" v="Leichhardt Highway"/>
    <tag k="surface" v="paved"/>
  </node>
  <node id="134663741" version="1" timestamp="2007-11-26T11:45:04Z" uid="4467" user="Rosscoe" changeset="626229" lat="-26.435887" lon="150.066143">
    <tag k="created_by" v="JOSM"/>
    <tag k="highway" v="primary"/>
    <tag k="name" v="Leichhardt Highway"/>
    <tag k="surface" v="paved"/>
  </node>
  <node id="134663774" version="1" timestamp="2007-11-26T11:45:04Z" uid="4467" user="Rosscoe" changeset="626229" lat="-26.43616" lon="150.066108">
    <tag k="created_by" v="JOSM"/>
    <tag k="highway" v="primary"/>
    <tag k="name" v="Leichhardt Highway"/>
    <tag k="surface" v="paved"/>
  </node>
  <node id="134663802" version="1" timestamp="2007-11-26T11:45:05Z" uid="4467" user="Rosscoe" changeset="626229" lat="-26.43643" lon="150.066072">
    <tag k="created_by" v="JOSM"/>
    <tag k="highway" v="primary"/>
    <tag k="name" v="Leichhardt Highway"/>
    <tag k="surface" v="paved"/>
  </node>
  <node id="134663824" version="1" timestamp="2007-11-26T11:45:06Z" uid="4467" user="Rosscoe" changeset="626229" lat="-26.436708" lon="150.066033">
    <tag k="created_by" v="JOSM"/>
    <tag k="highway" v="primary"/>
    <tag k="name" v="Leichhardt Highway"/>
    <tag k="surface" v="paved"/>
  </node>
  <node id="134663856" version="1" timestamp="2007-11-26T11:45:07Z" uid="4467" user="Rosscoe" changeset="626229" lat="-26.437257" lon="150.06596">
    <tag k="created_by" v="JOSM"/>
    <tag k="highway" v="primary"/>
    <tag k="name" v="Leichhardt Highway"/>
    <tag k="surface" v="paved"/>
  </node>
  <node id="134663886" version="1" timestamp="2007-11-26T11:45:07Z" uid="4467" user="Rosscoe" changeset="626229" lat="-26.43753" lon="150.065922">
    <tag k="created_by" v="JOSM"/>
    <tag k="highway" v="primary"/>
    <tag k="name" v="Leichhardt Highway"/>
    <tag k="surface" v="paved"/>
  </node>
  <node id="134663910" version="1" timestamp="2007-11-26T11:45:08Z" uid="4467" user="Rosscoe" changeset="626229" lat="-26.437807" lon="150.065885">
    <tag k="created_by" v="JOSM"/>
    <tag k="highway" v="primary"/>
    <tag k="name" v="Leichhardt Highway"/>
    <tag k="surface" v="paved"/>
  </node>
  <node id="134663941" version="1" timestamp="2007-11-26T11:45:09Z" uid="4467" user="Rosscoe" changeset="626229" lat="-26.438078" lon="150.065848">
    <tag k="created_by" v="JOSM"/>
    <tag k="highway" v="primary"/>
    <tag k="name" v="Leichhardt Highway"/>
    <tag k="surface" v="paved"/>
  </node>
  <node id="134663971" version="1" timestamp="2007-11-26T11:45:10Z" uid="4467" user="Rosscoe" changeset="626229" lat="-26.438357" lon="150.06581">
    <tag k="created_by" v="JOSM"/>
    <tag k="highway" v="primary"/>
    <tag k="name" v="Leichhardt Highway"/>
    <tag k="surface" v="paved"/>
  </node>
  <node id="134663997" version="1" timestamp="2007-11-26T11:45:11Z" uid="4467" user="Rosscoe" changeset="626229" lat="-26.438637" lon="150.065772">
    <tag k="created_by" v="JOSM"/>
    <tag k="highway" v="primary"/>
    <tag k="name" v="Leichhardt Highway"/>
    <tag k="surface" v="paved"/>
  </node>
  <node id="134664019" version="1" timestamp="2007-11-26T11:45:11Z" uid="4467" user="Rosscoe" changeset="626229" lat="-26.438913" lon="150.065735">
    <tag k="created_by" v="JOSM"/>
    <tag k="highway" v="primary"/>
    <tag k="name" v="Leichhardt Highway"/>
    <tag k="surface" v="paved"/>
  </node>
  <node id="134664049" version="1" timestamp="2007-11-26T11:45:12Z" uid="4467" user="Rosscoe" changeset="626229" lat="-26.439457" lon="150.065663">
    <tag k="created_by" v="JOSM"/>
    <tag k="highway" v="primary"/>
    <tag k="name" v="Leichhardt Highway"/>
    <tag k="surface" v="paved"/>
  </node>
  <node id="134664072" version="1" timestamp="2007-11-26T11:45:13Z" uid="4467" user="Rosscoe" changeset="626229" lat="-26.43973" lon="150.065627">
    <tag k="created_by" v="JOSM"/>
    <tag k="highway" v="primary"/>
    <tag k="name" v="Leichhardt Highway"/>
    <tag k="surface" v="paved"/>
  </node>
  <node id="134664102" version="1" timestamp="2007-11-26T11:45:14Z" uid="4467" user="Rosscoe" changeset="626229" lat="-26.440007" lon="150.06559">
    <tag k="created_by" v="JOSM"/>
    <tag k="highway" v="primary"/>
    <tag k="name" v="Leichhardt Highway"/>
    <tag k="surface" v="paved"/>
  </node>
  <node id="134664139" version="1" timestamp="2007-11-26T11:45:14Z" uid="4467" user="Rosscoe" changeset="626229" lat="-26.440283" lon="150.065553">
    <tag k="created_by" v="JOSM"/>
    <tag k="highway" v="primary"/>
    <tag k="name" v="Leichhardt Highway"/>
    <tag k="surface" v="paved"/>
  </node>
  <node id="134664163" version="1" timestamp="2007-11-26T11:45:15Z" uid="4467" user="Rosscoe" changeset="626229" lat="-26.440555" lon="150.065517">
    <tag k="created_by" v="JOSM"/>
    <tag k="highway" v="primary"/>
    <tag k="name" v="Leichhardt Highway"/>
    <tag k="surface" v="paved"/>
  </node>
  <node id="134664196" version="1" timestamp="2007-11-26T11:45:16Z" uid="4467" user="Rosscoe" changeset="626229" lat="-26.44083" lon="150.065482">
    <tag k="created_by" v="JOSM"/>
    <tag k="highway" v="primary"/>
    <tag k="name" v="Leichhardt Highway"/>
    <tag k="surface" v="paved"/>
  </node>
  <node id="134664221" version="1" timestamp="2007-11-26T11:45:17Z" uid="4467" user="Rosscoe" changeset="626229" lat="-26.441103" lon="150.065445">
    <tag k="created_by" v="JOSM"/>
    <tag k="highway" v="primary"/>
    <tag k="name" v="Leichhardt Highway"/>
    <tag k="surface" v="paved"/>
  </node>
  <node id="134664242" version="1" timestamp="2007-11-26T11:45:18Z" uid="4467" user="Rosscoe" changeset="626229" lat="-26.441375" lon="150.065408">
    <tag k="created_by" v="JOSM"/>
    <tag k="highway" v="primary"/>
    <tag k="name" v="Leichhardt Highway"/>
    <tag k="surface" v="paved"/>
  </node>
  <node id="134664272" version="1" timestamp="2007-11-26T11:45:18Z" uid="4467" user="Rosscoe" changeset="626229" lat="-26.441923" lon="150.065337">
    <tag k="created_by" v="JOSM"/>
    <tag k="highway" v="primary"/>
    <tag k="name" v="Leichhardt Highway"/>
    <tag k="surface" v="paved"/>
  </node>
  <node id="134664290" version="1" timestamp="2007-11-26T11:45:19Z" uid="4467" user="Rosscoe" changeset="626229" lat="-26.442197" lon="150.065303">
    <tag k="created_by" v="JOSM"/>
    <tag k="highway" v="primary"/>
    <tag k="name" v="Leichhardt Highway"/>
    <tag k="surface" v="paved"/>
  </node>
  <node id="134664316" version="1" timestamp="2007-11-26T11:45:20Z" uid="4467" user="Rosscoe" changeset="626229" lat="-26.442472" lon="150.065273">
    <tag k="created_by" v="JOSM"/>
    <tag k="highway" v="primary"/>
    <tag k="name" v="Leichhardt Highway"/>
    <tag k="surface" v="paved"/>
  </node>
  <node id="134664342" version="1" timestamp="2007-11-26T11:45:21Z" uid="4467" user="Rosscoe" changeset="626229" lat="-26.442747" lon="150.065248">
    <tag k="created_by" v="JOSM"/>
    <tag k="highway" v="primary"/>
    <tag k="name" v="Leichhardt Highway"/>
    <tag k="surface" v="paved"/>
  </node>
  <node id="134664368" version="1" timestamp="2007-11-26T11:45:22Z" uid="4467" user="Rosscoe" changeset="626229" lat="-26.44302" lon="150.065235">
    <tag k="created_by" v="JOSM"/>
    <tag k="highway" v="primary"/>
    <tag k="name" v="Leichhardt Highway"/>
    <tag k="surface" v="paved"/>
  </node>
  <node id="134664387" version="1" timestamp="2007-11-26T11:45:22Z" uid="4467" user="Rosscoe" changeset="626229" lat="-26.443298" lon="150.065232">
    <tag k="created_by" v="JOSM"/>
    <tag k="highway" v="primary"/>
    <tag k="name" v="Leichhardt Highway"/>
    <tag k="surface" v="paved"/>
  </node>
  <node id="134664411" version="1" timestamp="2007-11-26T11:45:23Z" uid="4467" user="Rosscoe" changeset="626229" lat="-26.443577" lon="150.06523">
    <tag k="created_by" v="JOSM"/>
    <tag k="highway" v="primary"/>
    <tag k="name" v="Leichhardt Highway"/>
    <tag k="surface" v="paved"/>
  </node>
  <node id="134664418" version="1" timestamp="2007-11-26T11:45:24Z" uid="4467" user="Rosscoe" changeset="626229" lat="-26.443855" lon="150.065233">
    <tag k="created_by" v="JOSM"/>
    <tag k="highway" v="primary"/>
    <tag k="name" v="Leichhardt Highway"/>
    <tag k="surface" v="paved"/>
  </node>
  <node id="134664440" version="1" timestamp="2007-11-26T11:45:25Z" uid="4467" user="Rosscoe" changeset="626229" lat="-26.444135" lon="150.065243">
    <tag k="created_by" v="JOSM"/>
    <tag k="highway" v="primary"/>
    <tag k="name" v="Leichhardt Highway"/>
    <tag k="surface" v="paved"/>
  </node>
  <node id="134664470" version="1" timestamp="2007-11-26T11:45:26Z" uid="4467" user="Rosscoe" changeset="626229" lat="-26.444415" lon="150.06526">
    <tag k="created_by" v="JOSM"/>
    <tag k="highway" v="primary"/>
    <tag k="name" v="Leichhardt Highway"/>
    <tag k="surface" v="paved"/>
  </node>
  <node id="134664493" version="1" timestamp="2007-11-26T11:45:26Z" uid="4467" user="Rosscoe" changeset="626229" lat="-26.444692" lon="150.065285">
    <tag k="created_by" v="JOSM"/>
    <tag k="highway" v="primary"/>
    <tag k="name" v="Leichhardt Highway"/>
    <tag k="surface" v="paved"/>
  </node>
  <node id="134664520" version="1" timestamp="2007-11-26T11:45:27Z" uid="4467" user="Rosscoe" changeset="626229" lat="-26.444973" lon="150.065318">
    <tag k="created_by" v="JOSM"/>
    <tag k="highway" v="primary"/>
    <tag k="name" v="Leichhardt Highway"/>
    <tag k="surface" v="paved"/>
  </node>
  <node id="134664542" version="1" timestamp="2007-11-26T11:45:28Z" uid="4467" user="Rosscoe" changeset="626229" lat="-26.445252" lon="150.06536">
    <tag k="created_by" v="JOSM"/>
    <tag k="highway" v="primary"/>
    <tag k="name" v="Leichhardt Highway"/>
    <tag k="surface" v="paved"/>
  </node>
  <node id="134664564" version="1" timestamp="2007-11-26T11:45:29Z" uid="4467" user="Rosscoe" changeset="626229" lat="-26.445527" lon="150.065408">
    <tag k="created_by" v="JOSM"/>
    <tag k="highway" v="primary"/>
    <tag k="name" v="Leichhardt Highway"/>
    <tag k="surface" v="paved"/>
  </node>
  <node id="134664592" version="1" timestamp="2007-11-26T11:45:29Z" uid="4467" user="Rosscoe" changeset="626229" lat="-26.4458" lon="150.065463">
    <tag k="created_by" v="JOSM"/>
    <tag k="highway" v="primary"/>
    <tag k="name" v="Leichhardt Highway"/>
    <tag k="surface" v="paved"/>
  </node>
  <node id="134664624" version="1" timestamp="2007-11-26T11:45:30Z" uid="4467" user="Rosscoe" changeset="626229" lat="-26.446335" lon="150.0656">
    <tag k="created_by" v="JOSM"/>
    <tag k="highway" v="primary"/>
    <tag k="name" v="Leichhardt Highway"/>
    <tag k="surface" v="paved"/>
  </node>
  <node id="134664652" version="1" timestamp="2007-11-26T11:45:31Z" uid="4467" user="Rosscoe" changeset="626229" lat="-26.4466" lon="150.06569">
    <tag k="created_by" v="JOSM"/>
    <tag k="highway" v="primary"/>
    <tag k="name" v="Leichhardt Highway"/>
    <tag k="surface" v="paved"/>
  </node>
  <node id="134664673" version="1" timestamp="2007-11-26T11:45:32Z" uid="4467" user="Rosscoe" changeset="626229" lat="-26.447123" lon="150.065877">
    <tag k="created_by" v="JOSM"/>
    <tag k="highway" v="primary"/>
    <tag k="name" v="Leichhardt Highway"/>
    <tag k="surface" v="paved"/>
  </node>
  <node id="134664705" version="1" timestamp="2007-11-26T11:45:33Z" uid="4467" user="Rosscoe" changeset="626229" lat="-26.44738" lon="150.065977">
    <tag k="created_by" v="JOSM"/>
    <tag k="highway" v="primary"/>
    <tag k="name" v="Leichhardt Highway"/>
    <tag k="surface" v="paved"/>
  </node>
  <node id="134664736" version="1" timestamp="2007-11-26T11:45:33Z" uid="4467" user="Rosscoe" changeset="626229" lat="-26.447638" lon="150.06608">
    <tag k="created_by" v="JOSM"/>
    <tag k="highway" v="primary"/>
    <tag k="name" v="Leichhardt Highway"/>
    <tag k="surface" v="paved"/>
  </node>
  <node id="134664760" version="1" timestamp="2007-11-26T11:45:34Z" uid="4467" user="Rosscoe" changeset="626229" lat="-26.447893" lon="150.066183">
    <tag k="created_by" v="JOSM"/>
    <tag k="highway" v="primary"/>
    <tag k="name" v="Leichhardt Highway"/>
    <tag k="surface" v="paved"/>
  </node>
  <node id="134664792" version="1" timestamp="2007-11-26T11:45:35Z" uid="4467" user="Rosscoe" changeset="626229" lat="-26.448152" lon="150.066288">
    <tag k="created_by" v="JOSM"/>
    <tag k="highway" v="primary"/>
    <tag k="name" v="Leichhardt Highway"/>
    <tag k="surface" v="paved"/>
  </node>
  <node id="134664823" version="1" timestamp="2007-11-26T11:45:36Z" uid="4467" user="Rosscoe" changeset="626229" lat="-26.448413" lon="150.066393">
    <tag k="created_by" v="JOSM"/>
    <tag k="highway" v="primary"/>
    <tag k="name" v="Leichhardt Highway"/>
    <tag k="surface" v="paved"/>
  </node>
  <node id="134664839" version="1" timestamp="2007-11-26T11:45:36Z" uid="9581" user="Lobelt" changeset="623243" lat="50.8624421" lon="12.0870548"/>
  <node id="134664854" version="1" timestamp="2007-11-26T11:45:36Z" uid="4467" user="Rosscoe" changeset="626229" lat="-26.448663" lon="150.066497">
    <tag k="created_by" v="JOSM"/>
    <tag k="highway" v="primary"/>
    <tag k="name" v="Leichhardt Highway"/>
    <tag k="surface" v="paved"/>
  </node>
  <node id="134664882" version="1" timestamp="2007-11-26T11:45:37Z" uid="4467" user="Rosscoe" changeset="626229" lat="-26.449183" lon="150.066705">
    <tag k="created_by" v="JOSM"/>
    <tag k="highway" v="primary"/>
    <tag k="name" v="Leichhardt Highway"/>
    <tag k="surface" v="paved"/>
  </node>
  <node id="134664912" version="1" timestamp="2007-11-26T11:45:38Z" uid="4467" user="Rosscoe" changeset="626229" lat="-26.449438" lon="150.066807">
    <tag k="created_by" v="JOSM"/>
    <tag k="highway" v="primary"/>
    <tag k="name" v="Leichhardt Highway"/>
    <tag k="surface" v="paved"/>
  </node>
  <node id="134664943" version="1" timestamp="2007-11-26T11:45:39Z" uid="4467" user="Rosscoe" changeset="626229" lat="-26.449702" lon="150.06691">
    <tag k="created_by" v="JOSM"/>
    <tag k="highway" v="primary"/>
    <tag k="name" v="Leichhardt Highway"/>
    <tag k="surface" v="paved"/>
  </node>
  <node id="134664975" version="1" timestamp="2007-11-26T11:45:40Z" uid="4467" user="Rosscoe" changeset="626229" lat="-26.449962" lon="150.067017">
    <tag k="created_by" v="JOSM"/>
    <tag k="highway" v="primary"/>
    <tag k="name" v="Leichhardt Highway"/>
    <tag k="surface" v="paved"/>
  </node>
  <node id="134665007" version="1" timestamp="2007-11-26T11:45:40Z" uid="4467" user="Rosscoe" changeset="626229" lat="-26.45022" lon="150.067122">
    <tag k="created_by" v="JOSM"/>
    <tag k="highway" v="primary"/>
    <tag k="name" v="Leichhardt Highway"/>
    <tag k="surface" v="paved"/>
  </node>
  <node id="134665043" version="1" timestamp="2007-11-26T11:45:41Z" uid="4467" user="Rosscoe" changeset="626229" lat="-26.450477" lon="150.067228">
    <tag k="created_by" v="JOSM"/>
    <tag k="highway" v="primary"/>
    <tag k="name" v="Leichhardt Highway"/>
    <tag k="surface" v="paved"/>
  </node>
  <node id="134665069" version="1" timestamp="2007-11-26T11:45:42Z" uid="4467" user="Rosscoe" changeset="626229" lat="-26.450737" lon="150.067332">
    <tag k="created_by" v="JOSM"/>
    <tag k="highway" v="primary"/>
    <tag k="name" v="Leichhardt Highway"/>
    <tag k="surface" v="paved"/>
  </node>
  <node id="134665103" version="1" timestamp="2007-11-26T11:45:43Z" uid="4467" user="Rosscoe" changeset="626229" lat="-26.451257" lon="150.06754">
    <tag k="created_by" v="JOSM"/>
    <tag k="highway" v="primary"/>
    <tag k="name" v="Leichhardt Highway"/>
    <tag k="surface" v="paved"/>
  </node>
  <node id="134665127" version="1" timestamp="2007-11-26T11:45:43Z" uid="4467" user="Rosscoe" changeset="626229" lat="-26.451515" lon="150.067643">
    <tag k="created_by" v="JOSM"/>
    <tag k="highway" v="primary"/>
    <tag k="name" v="Leichhardt Highway"/>
    <tag k="surface" v="paved"/>
  </node>
  <node id="134665155" version="1" timestamp="2007-11-26T11:45:44Z" uid="4467" user="Rosscoe" changeset="626229" lat="-26.451775" lon="150.067748">
    <tag k="created_by" v="JOSM"/>
    <tag k="highway" v="primary"/>
    <tag k="name" v="Leichhardt Highway"/>
    <tag k="surface" v="paved"/>
  </node>
  <node id="134665178" version="1" timestamp="2007-11-26T11:45:45Z" uid="4467" user="Rosscoe" changeset="626229" lat="-26.453068" lon="150.068273">
    <tag k="created_by" v="JOSM"/>
    <tag k="highway" v="primary"/>
    <tag k="name" v="Leichhardt Highway"/>
    <tag k="surface" v="paved"/>
  </node>
  <node id="134665195" version="1" timestamp="2007-11-26T11:45:46Z" uid="4467" user="Rosscoe" changeset="626229" lat="-26.453333" lon="150.068375">
    <tag k="created_by" v="JOSM"/>
    <tag k="highway" v="primary"/>
    <tag k="name" v="Leichhardt Highway"/>
    <tag k="surface" v="paved"/>
  </node>
  <node id="134665209" version="1" timestamp="2007-11-26T11:45:47Z" uid="4467" user="Rosscoe" changeset="626229" lat="-26.453598" lon="150.06848">
    <tag k="created_by" v="JOSM"/>
    <tag k="highway" v="primary"/>
    <tag k="name" v="Leichhardt Highway"/>
    <tag k="surface" v="paved"/>
  </node>
  <node id="134665219" version="1" timestamp="2007-11-26T11:45:47Z" uid="4467" user="Rosscoe" changeset="626229" lat="-26.453863" lon="150.068585">
    <tag k="created_by" v="JOSM"/>
    <tag k="highway" v="primary"/>
    <tag k="name" v="Leichhardt Highway"/>
    <tag k="surface" v="paved"/>
  </node>
  <node id="134665237" version="1" timestamp="2007-11-26T11:45:48Z" uid="4467" user="Rosscoe" changeset="626229" lat="-26.454128" lon="150.06869">
    <tag k="created_by" v="JOSM"/>
    <tag k="highway" v="primary"/>
    <tag k="name" v="Leichhardt Highway"/>
    <tag k="surface" v="paved"/>
  </node>
  <node id="134665256" version="1" timestamp="2007-11-26T11:45:49Z" uid="4467" user="Rosscoe" changeset="626229" lat="-26.454395" lon="150.068798">
    <tag k="created_by" v="JOSM"/>
    <tag k="highway" v="primary"/>
    <tag k="name" v="Leichhardt Highway"/>
    <tag k="surface" v="paved"/>
  </node>
  <node id="134665278" version="1" timestamp="2007-11-26T11:45:50Z" uid="4467" user="Rosscoe" changeset="626229" lat="-26.45466" lon="150.068905">
    <tag k="created_by" v="JOSM"/>
    <tag k="highway" v="primary"/>
    <tag k="name" v="Leichhardt Highway"/>
    <tag k="surface" v="paved"/>
  </node>
  <node id="134665302" version="1" timestamp="2007-11-26T11:45:51Z" uid="4467" user="Rosscoe" changeset="626229" lat="-26.454923" lon="150.069013">
    <tag k="created_by" v="JOSM"/>
    <tag k="highway" v="primary"/>
    <tag k="name" v="Leichhardt Highway"/>
    <tag k="surface" v="paved"/>
  </node>
  <node id="134665317" version="1" timestamp="2007-11-26T11:45:51Z" uid="4467" user="Rosscoe" changeset="626229" lat="-26.45519" lon="150.069122">
    <tag k="created_by" v="JOSM"/>
    <tag k="highway" v="primary"/>
    <tag k="name" v="Leichhardt Highway"/>
    <tag k="surface" v="paved"/>
  </node>
  <node id="134665335" version="1" timestamp="2007-11-26T11:45:52Z" uid="4467" user="Rosscoe" changeset="626229" lat="-26.455455" lon="150.06923">
    <tag k="created_by" v="JOSM"/>
    <tag k="highway" v="primary"/>
    <tag k="name" v="Leichhardt Highway"/>
    <tag k="surface" v="paved"/>
  </node>
  <node id="134665350" version="1" timestamp="2007-11-26T11:45:53Z" uid="4467" user="Rosscoe" changeset="626229" lat="-26.455722" lon="150.069338">
    <tag k="created_by" v="JOSM"/>
    <tag k="highway" v="primary"/>
    <tag k="name" v="Leichhardt Highway"/>
    <tag k="surface" v="paved"/>
  </node>
  <node id="134665371" version="1" timestamp="2007-11-26T11:45:54Z" uid="4467" user="Rosscoe" changeset="626229" lat="-26.455985" lon="150.069447">
    <tag k="created_by" v="JOSM"/>
    <tag k="highway" v="primary"/>
    <tag k="name" v="Leichhardt Highway"/>
    <tag k="surface" v="paved"/>
  </node>
  <node id="134665390" version="1" timestamp="2007-11-26T11:45:55Z" uid="4467" user="Rosscoe" changeset="626229" lat="-26.456255" lon="150.069555">
    <tag k="created_by" v="JOSM"/>
    <tag k="highway" v="primary"/>
    <tag k="name" v="Leichhardt Highway"/>
    <tag k="surface" v="paved"/>
  </node>
  <node id="134665419" version="1" timestamp="2007-11-26T11:45:55Z" uid="4467" user="Rosscoe" changeset="626229" lat="-26.456518" lon="150.06966">
    <tag k="created_by" v="JOSM"/>
    <tag k="highway" v="primary"/>
    <tag k="name" v="Leichhardt Highway"/>
    <tag k="surface" v="paved"/>
  </node>
  <node id="134665440" version="1" timestamp="2007-11-26T11:45:56Z" uid="4467" user="Rosscoe" changeset="626229" lat="-26.456785" lon="150.069765">
    <tag k="created_by" v="JOSM"/>
    <tag k="highway" v="primary"/>
    <tag k="name" v="Leichhardt Highway"/>
    <tag k="surface" v="paved"/>
  </node>
  <node id="134665464" version="1" timestamp="2007-11-26T11:45:57Z" uid="4467" user="Rosscoe" changeset="626229" lat="-26.457053" lon="150.069867">
    <tag k="created_by" v="JOSM"/>
    <tag k="highway" v="primary"/>
    <tag k="name" v="Leichhardt Highway"/>
    <tag k="surface" v="paved"/>
  </node>
  <node id="134665485" version="1" timestamp="2007-11-26T11:45:58Z" uid="4467" user="Rosscoe" changeset="626229" lat="-26.45732" lon="150.069962">
    <tag k="created_by" v="JOSM"/>
    <tag k="highway" v="primary"/>
    <tag k="name" v="Leichhardt Highway"/>
    <tag k="surface" v="paved"/>
  </node>
  <node id="134665507" version="1" timestamp="2007-11-26T11:45:59Z" uid="4467" user="Rosscoe" changeset="626229" lat="-26.457592" lon="150.070052">
    <tag k="created_by" v="JOSM"/>
    <tag k="highway" v="primary"/>
    <tag k="name" v="Leichhardt Highway"/>
    <tag k="surface" v="paved"/>
  </node>
  <node id="134665529" version="1" timestamp="2007-11-26T11:45:59Z" uid="4467" user="Rosscoe" changeset="626229" lat="-26.457862" lon="150.070135">
    <tag k="created_by" v="JOSM"/>
    <tag k="highway" v="primary"/>
    <tag k="name" v="Leichhardt Highway"/>
    <tag k="surface" v="paved"/>
  </node>
  <node id="134665546" version="1" timestamp="2007-11-26T11:46:00Z" uid="4467" user="Rosscoe" changeset="626229" lat="-26.458138" lon="150.070213">
    <tag k="created_by" v="JOSM"/>
    <tag k="highway" v="primary"/>
    <tag k="name" v="Leichhardt Highway"/>
    <tag k="surface" v="paved"/>
  </node>
  <node id="134665574" version="1" timestamp="2007-11-26T11:46:01Z" uid="4467" user="Rosscoe" changeset="626229" lat="-26.458688" lon="150.070347">
    <tag k="created_by" v="JOSM"/>
    <tag k="highway" v="primary"/>
    <tag k="name" v="Leichhardt Highway"/>
    <tag k="surface" v="paved"/>
  </node>
  <node id="134665605" version="1" timestamp="2007-11-26T11:46:02Z" uid="4467" user="Rosscoe" changeset="626229" lat="-26.458962" lon="150.070397">
    <tag k="created_by" v="JOSM"/>
    <tag k="highway" v="primary"/>
    <tag k="name" v="Leichhardt Highway"/>
    <tag k="surface" v="paved"/>
  </node>
  <node id="134665625" version="1" timestamp="2007-11-26T11:46:03Z" uid="4467" user="Rosscoe" changeset="626229" lat="-26.459242" lon="150.07044">
    <tag k="created_by" v="JOSM"/>
    <tag k="highway" v="primary"/>
    <tag k="name" v="Leichhardt Highway"/>
    <tag k="surface" v="paved"/>
  </node>
  <node id="134665645" version="1" timestamp="2007-11-26T11:46:03Z" uid="4467" user="Rosscoe" changeset="626229" lat="-26.45952" lon="150.070478">
    <tag k="created_by" v="JOSM"/>
    <tag k="highway" v="primary"/>
    <tag k="name" v="Leichhardt Highway"/>
    <tag k="surface" v="paved"/>
  </node>
  <node id="134665679" version="1" timestamp="2007-11-26T11:46:04Z" uid="4467" user="Rosscoe" changeset="626229" lat="-26.4598" lon="150.07051">
    <tag k="created_by" v="JOSM"/>
    <tag k="highway" v="primary"/>
    <tag k="name" v="Leichhardt Highway"/>
    <tag k="surface" v="paved"/>
  </node>
  <node id="134665700" version="1" timestamp="2007-11-26T11:46:05Z" uid="4467" user="Rosscoe" changeset="626229" lat="-26.460078" lon="150.070533">
    <tag k="created_by" v="JOSM"/>
    <tag k="highway" v="primary"/>
    <tag k="name" v="Leichhardt Highway"/>
    <tag k="surface" v="paved"/>
  </node>
  <node id="134665730" version="1" timestamp="2007-11-26T11:46:06Z" uid="4467" user="Rosscoe" changeset="626229" lat="-26.460358" lon="150.07055">
    <tag k="created_by" v="JOSM"/>
    <tag k="highway" v="primary"/>
    <tag k="name" v="Leichhardt Highway"/>
    <tag k="surface" v="paved"/>
  </node>
  <node id="134665754" version="1" timestamp="2007-11-26T11:46:07Z" uid="4467" user="Rosscoe" changeset="626229" lat="-26.460638" lon="150.070565">
    <tag k="created_by" v="JOSM"/>
    <tag k="highway" v="primary"/>
    <tag k="name" v="Leichhardt Highway"/>
    <tag k="surface" v="paved"/>
  </node>
  <node id="134665768" version="1" timestamp="2007-11-26T11:46:07Z" uid="4467" user="Rosscoe" changeset="626229" lat="-26.460917" lon="150.070575">
    <tag k="created_by" v="JOSM"/>
    <tag k="highway" v="primary"/>
    <tag k="name" v="Leichhardt Highway"/>
    <tag k="surface" v="paved"/>
  </node>
  <node id="134665785" version="1" timestamp="2007-11-26T11:46:08Z" uid="4467" user="Rosscoe" changeset="626229" lat="-26.461197" lon="150.070583">
    <tag k="created_by" v="JOSM"/>
    <tag k="highway" v="primary"/>
    <tag k="name" v="Leichhardt Highway"/>
    <tag k="surface" v="paved"/>
  </node>
  <node id="134665807" version="1" timestamp="2007-11-26T11:46:09Z" uid="4467" user="Rosscoe" changeset="626229" lat="-26.461478" lon="150.070588">
    <tag k="created_by" v="JOSM"/>
    <tag k="highway" v="primary"/>
    <tag k="name" v="Leichhardt Highway"/>
    <tag k="surface" v="paved"/>
  </node>
  <node id="134665820" version="1" timestamp="2007-11-26T11:46:10Z" uid="4467" user="Rosscoe" changeset="626229" lat="-26.461762" lon="150.070595">
    <tag k="created_by" v="JOSM"/>
    <tag k="highway" v="primary"/>
    <tag k="name" v="Leichhardt Highway"/>
    <tag k="surface" v="paved"/>
  </node>
  <node id="134665850" version="1" timestamp="2007-11-26T11:46:10Z" uid="4467" user="Rosscoe" changeset="626229" lat="-26.462043" lon="150.070602">
    <tag k="created_by" v="JOSM"/>
    <tag k="highway" v="primary"/>
    <tag k="name" v="Leichhardt Highway"/>
    <tag k="surface" v="paved"/>
  </node>
  <node id="134665872" version="1" timestamp="2007-11-26T11:46:11Z" uid="4467" user="Rosscoe" changeset="626229" lat="-26.462325" lon="150.07061">
    <tag k="created_by" v="JOSM"/>
    <tag k="highway" v="primary"/>
    <tag k="name" v="Leichhardt Highway"/>
    <tag k="surface" v="paved"/>
  </node>
  <node id="134665899" version="1" timestamp="2007-11-26T11:46:12Z" uid="4467" user="Rosscoe" changeset="626229" lat="-26.46261" lon="150.070618">
    <tag k="created_by" v="JOSM"/>
    <tag k="highway" v="primary"/>
    <tag k="name" v="Leichhardt Highway"/>
    <tag k="surface" v="paved"/>
  </node>
  <node id="134665921" version="1" timestamp="2007-11-26T11:46:13Z" uid="4467" user="Rosscoe" changeset="626229" lat="-26.463175" lon="150.070637">
    <tag k="created_by" v="JOSM"/>
    <tag k="highway" v="primary"/>
    <tag k="name" v="Leichhardt Highway"/>
    <tag k="surface" v="paved"/>
  </node>
  <node id="134665947" version="1" timestamp="2007-11-26T11:46:14Z" uid="4467" user="Rosscoe" changeset="626229" lat="-26.46346" lon="150.070645">
    <tag k="created_by" v="JOSM"/>
    <tag k="highway" v="primary"/>
    <tag k="name" v="Leichhardt Highway"/>
    <tag k="surface" v="paved"/>
  </node>
  <node id="134665972" version="1" timestamp="2007-11-26T11:46:14Z" uid="4467" user="Rosscoe" changeset="626229" lat="-26.463742" lon="150.070653">
    <tag k="created_by" v="JOSM"/>
    <tag k="highway" v="primary"/>
    <tag k="name" v="Leichhardt Highway"/>
    <tag k="surface" v="paved"/>
  </node>
  <node id="134666000" version="1" timestamp="2007-11-26T11:46:15Z" uid="4467" user="Rosscoe" changeset="626229" lat="-26.464023" lon="150.070662">
    <tag k="created_by" v="JOSM"/>
    <tag k="highway" v="primary"/>
    <tag k="name" v="Leichhardt Highway"/>
    <tag k="surface" v="paved"/>
  </node>
  <node id="134666025" version="1" timestamp="2007-11-26T11:46:16Z" uid="4467" user="Rosscoe" changeset="626229" lat="-26.464307" lon="150.070672">
    <tag k="created_by" v="JOSM"/>
    <tag k="highway" v="primary"/>
    <tag k="name" v="Leichhardt Highway"/>
    <tag k="surface" v="paved"/>
  </node>
  <node id="134666055" version="1" timestamp="2007-11-26T11:46:17Z" uid="4467" user="Rosscoe" changeset="626229" lat="-26.464592" lon="150.07068">
    <tag k="created_by" v="JOSM"/>
    <tag k="highway" v="primary"/>
    <tag k="name" v="Leichhardt Highway"/>
    <tag k="surface" v="paved"/>
  </node>
  <node id="134666087" version="1" timestamp="2007-11-26T11:46:17Z" uid="4467" user="Rosscoe" changeset="626229" lat="-26.46487" lon="150.070688">
    <tag k="created_by" v="JOSM"/>
    <tag k="highway" v="primary"/>
    <tag k="name" v="Leichhardt Highway"/>
    <tag k="surface" v="paved"/>
  </node>
  <node id="134666126" version="1" timestamp="2007-11-26T11:46:18Z" uid="4467" user="Rosscoe" changeset="626229" lat="-26.465435" lon="150.070705">
    <tag k="created_by" v="JOSM"/>
    <tag k="highway" v="primary"/>
    <tag k="name" v="Leichhardt Highway"/>
    <tag k="surface" v="paved"/>
  </node>
  <node id="134666162" version="1" timestamp="2007-11-26T11:46:19Z" uid="4467" user="Rosscoe" changeset="626229" lat="-26.465715" lon="150.070713">
    <tag k="created_by" v="JOSM"/>
    <tag k="highway" v="primary"/>
    <tag k="name" v="Leichhardt Highway"/>
    <tag k="surface" v="paved"/>
  </node>
  <node id="134666189" version="1" timestamp="2007-11-26T11:46:20Z" uid="4467" user="Rosscoe" changeset="626229" lat="-26.466278" lon="150.07073">
    <tag k="created_by" v="JOSM"/>
    <tag k="highway" v="primary"/>
    <tag k="name" v="Leichhardt Highway"/>
    <tag k="surface" v="paved"/>
  </node>
  <node id="134666216" version="1" timestamp="2007-11-26T11:46:21Z" uid="4467" user="Rosscoe" changeset="626229" lat="-26.46656" lon="150.07074">
    <tag k="created_by" v="JOSM"/>
    <tag k="highway" v="primary"/>
    <tag k="name" v="Leichhardt Highway"/>
    <tag k="surface" v="paved"/>
  </node>
  <node id="134666237" version="1" timestamp="2007-11-26T11:46:21Z" uid="4467" user="Rosscoe" changeset="626229" lat="-26.46684" lon="150.07075">
    <tag k="created_by" v="JOSM"/>
    <tag k="highway" v="primary"/>
    <tag k="name" v="Leichhardt Highway"/>
    <tag k="surface" v="paved"/>
  </node>
  <node id="134666261" version="1" timestamp="2007-11-26T11:46:22Z" uid="4467" user="Rosscoe" changeset="626229" lat="-26.467122" lon="150.07076">
    <tag k="created_by" v="JOSM"/>
    <tag k="highway" v="primary"/>
    <tag k="name" v="Leichhardt Highway"/>
    <tag k="surface" v="paved"/>
  </node>
  <node id="134666282" version="1" timestamp="2007-11-26T11:46:23Z" uid="4467" user="Rosscoe" changeset="626229" lat="-26.4674" lon="150.07077">
    <tag k="created_by" v="JOSM"/>
    <tag k="highway" v="primary"/>
    <tag k="name" v="Leichhardt Highway"/>
    <tag k="surface" v="paved"/>
  </node>
  <node id="134666306" version="1" timestamp="2007-11-26T11:46:24Z" uid="4467" user="Rosscoe" changeset="626229" lat="-26.467682" lon="150.07078">
    <tag k="created_by" v="JOSM"/>
    <tag k="highway" v="primary"/>
    <tag k="name" v="Leichhardt Highway"/>
    <tag k="surface" v="paved"/>
  </node>
  <node id="134666332" version="1" timestamp="2007-11-26T11:46:25Z" uid="4467" user="Rosscoe" changeset="626229" lat="-26.467963" lon="150.07079">
    <tag k="created_by" v="JOSM"/>
    <tag k="highway" v="primary"/>
    <tag k="name" v="Leichhardt Highway"/>
    <tag k="surface" v="paved"/>
  </node>
  <node id="134666363" version="1" timestamp="2007-11-26T11:46:25Z" uid="4467" user="Rosscoe" changeset="626229" lat="-26.468242" lon="150.070802">
    <tag k="created_by" v="JOSM"/>
    <tag k="highway" v="primary"/>
    <tag k="name" v="Leichhardt Highway"/>
    <tag k="surface" v="paved"/>
  </node>
  <node id="134666392" version="1" timestamp="2007-11-26T11:46:26Z" uid="4467" user="Rosscoe" changeset="626229" lat="-26.46852" lon="150.070813">
    <tag k="created_by" v="JOSM"/>
    <tag k="highway" v="primary"/>
    <tag k="name" v="Leichhardt Highway"/>
    <tag k="surface" v="paved"/>
  </node>
  <node id="134666424" version="1" timestamp="2007-11-26T11:46:27Z" uid="4467" user="Rosscoe" changeset="626229" lat="-26.469082" lon="150.070833">
    <tag k="created_by" v="JOSM"/>
    <tag k="highway" v="primary"/>
    <tag k="name" v="Leichhardt Highway"/>
    <tag k="surface" v="paved"/>
  </node>
  <node id="134666451" version="1" timestamp="2007-11-26T11:46:28Z" uid="4467" user="Rosscoe" changeset="626229" lat="-26.469362" lon="150.070843">
    <tag k="created_by" v="JOSM"/>
    <tag k="highway" v="primary"/>
    <tag k="name" v="Leichhardt Highway"/>
    <tag k="surface" v="paved"/>
  </node>
  <node id="134666477" version="1" timestamp="2007-11-26T11:46:28Z" uid="4467" user="Rosscoe" changeset="626229" lat="-26.469642" lon="150.070853">
    <tag k="created_by" v="JOSM"/>
    <tag k="highway" v="primary"/>
    <tag k="name" v="Leichhardt Highway"/>
    <tag k="surface" v="paved"/>
  </node>
  <node id="134666506" version="1" timestamp="2007-11-26T11:46:29Z" uid="4467" user="Rosscoe" changeset="626229" lat="-26.469923" lon="150.070867">
    <tag k="created_by" v="JOSM"/>
    <tag k="highway" v="primary"/>
    <tag k="name" v="Leichhardt Highway"/>
    <tag k="surface" v="paved"/>
  </node>
  <node id="134666537" version="1" timestamp="2007-11-26T11:46:30Z" uid="4467" user="Rosscoe" changeset="626229" lat="-26.470205" lon="150.070885">
    <tag k="created_by" v="JOSM"/>
    <tag k="highway" v="primary"/>
    <tag k="name" v="Leichhardt Highway"/>
    <tag k="surface" v="paved"/>
  </node>
  <node id="134666562" version="1" timestamp="2007-11-26T11:46:31Z" uid="4467" user="Rosscoe" changeset="626229" lat="-26.470488" lon="150.070908">
    <tag k="created_by" v="JOSM"/>
    <tag k="highway" v="primary"/>
    <tag k="name" v="Leichhardt Highway"/>
    <tag k="surface" v="paved"/>
  </node>
  <node id="134666588" version="1" timestamp="2007-11-26T11:46:32Z" uid="4467" user="Rosscoe" changeset="626229" lat="-26.471048" lon="150.07098">
    <tag k="created_by" v="JOSM"/>
    <tag k="highway" v="primary"/>
    <tag k="name" v="Leichhardt Highway"/>
    <tag k="surface" v="paved"/>
  </node>
  <node id="134666619" version="1" timestamp="2007-11-26T11:46:32Z" uid="4467" user="Rosscoe" changeset="626229" lat="-26.471332" lon="150.071027">
    <tag k="created_by" v="JOSM"/>
    <tag k="highway" v="primary"/>
    <tag k="name" v="Leichhardt Highway"/>
    <tag k="surface" v="paved"/>
  </node>
  <node id="134666644" version="1" timestamp="2007-11-26T11:46:33Z" uid="4467" user="Rosscoe" changeset="626229" lat="-26.471607" lon="150.07108">
    <tag k="created_by" v="JOSM"/>
    <tag k="highway" v="primary"/>
    <tag k="name" v="Leichhardt Highway"/>
    <tag k="surface" v="paved"/>
  </node>
  <node id="134666673" version="1" timestamp="2007-11-26T11:46:34Z" uid="4467" user="Rosscoe" changeset="626229" lat="-26.471882" lon="150.071142">
    <tag k="created_by" v="JOSM"/>
    <tag k="highway" v="primary"/>
    <tag k="name" v="Leichhardt Highway"/>
    <tag k="surface" v="paved"/>
  </node>
  <node id="134666696" version="1" timestamp="2007-11-26T11:46:35Z" uid="4467" user="Rosscoe" changeset="626229" lat="-26.47216" lon="150.071217">
    <tag k="created_by" v="JOSM"/>
    <tag k="highway" v="primary"/>
    <tag k="name" v="Leichhardt Highway"/>
    <tag k="surface" v="paved"/>
  </node>
  <node id="134666726" version="1" timestamp="2007-11-26T11:46:35Z" uid="4467" user="Rosscoe" changeset="626229" lat="-26.472425" lon="150.071297">
    <tag k="created_by" v="JOSM"/>
    <tag k="highway" v="primary"/>
    <tag k="name" v="Leichhardt Highway"/>
    <tag k="surface" v="paved"/>
  </node>
  <node id="134666752" version="1" timestamp="2007-11-26T11:46:36Z" uid="4467" user="Rosscoe" changeset="626229" lat="-26.472695" lon="150.071388">
    <tag k="created_by" v="JOSM"/>
    <tag k="highway" v="primary"/>
    <tag k="name" v="Leichhardt Highway"/>
    <tag k="surface" v="paved"/>
  </node>
  <node id="134666783" version="1" timestamp="2007-11-26T11:46:37Z" uid="4467" user="Rosscoe" changeset="626229" lat="-26.472965" lon="150.071485">
    <tag k="created_by" v="JOSM"/>
    <tag k="highway" v="primary"/>
    <tag k="name" v="Leichhardt Highway"/>
    <tag k="surface" v="paved"/>
  </node>
  <node id="134666807" version="1" timestamp="2007-11-26T11:46:38Z" uid="4467" user="Rosscoe" changeset="626229" lat="-26.473227" lon="150.071588">
    <tag k="created_by" v="JOSM"/>
    <tag k="highway" v="primary"/>
    <tag k="name" v="Leichhardt Highway"/>
    <tag k="surface" v="paved"/>
  </node>
  <node id="134666838" version="1" timestamp="2007-11-26T11:46:39Z" uid="4467" user="Rosscoe" changeset="626229" lat="-26.47349" lon="150.0717">
    <tag k="created_by" v="JOSM"/>
    <tag k="highway" v="primary"/>
    <tag k="name" v="Leichhardt Highway"/>
    <tag k="surface" v="paved"/>
  </node>
  <node id="134666868" version="1" timestamp="2007-11-26T11:46:39Z" uid="4467" user="Rosscoe" changeset="626229" lat="-26.474013" lon="150.071943">
    <tag k="created_by" v="JOSM"/>
    <tag k="highway" v="primary"/>
    <tag k="name" v="Leichhardt Highway"/>
    <tag k="surface" v="paved"/>
  </node>
  <node id="134666895" version="1" timestamp="2007-11-26T11:46:40Z" uid="4467" user="Rosscoe" changeset="626229" lat="-26.474273" lon="150.072075">
    <tag k="created_by" v="JOSM"/>
    <tag k="highway" v="primary"/>
    <tag k="name" v="Leichhardt Highway"/>
    <tag k="surface" v="paved"/>
  </node>
  <node id="134666918" version="1" timestamp="2007-11-26T11:46:41Z" uid="4467" user="Rosscoe" changeset="626229" lat="-26.474528" lon="150.072213">
    <tag k="created_by" v="JOSM"/>
    <tag k="highway" v="primary"/>
    <tag k="name" v="Leichhardt Highway"/>
    <tag k="surface" v="paved"/>
  </node>
  <node id="134666953" version="1" timestamp="2007-11-26T11:46:42Z" uid="4467" user="Rosscoe" changeset="626229" lat="-26.47478" lon="150.072357">
    <tag k="created_by" v="JOSM"/>
    <tag k="highway" v="primary"/>
    <tag k="name" v="Leichhardt Highway"/>
    <tag k="surface" v="paved"/>
  </node>
  <node id="134666984" version="1" timestamp="2007-11-26T11:46:42Z" uid="4467" user="Rosscoe" changeset="626229" lat="-26.475025" lon="150.072507">
    <tag k="created_by" v="JOSM"/>
    <tag k="highway" v="primary"/>
    <tag k="name" v="Leichhardt Highway"/>
    <tag k="surface" v="paved"/>
  </node>
  <node id="134667009" version="1" timestamp="2007-11-26T11:46:43Z" uid="4467" user="Rosscoe" changeset="626229" lat="-26.475267" lon="150.072665">
    <tag k="created_by" v="JOSM"/>
    <tag k="highway" v="primary"/>
    <tag k="name" v="Leichhardt Highway"/>
    <tag k="surface" v="paved"/>
  </node>
  <node id="134667034" version="1" timestamp="2007-11-26T11:46:44Z" uid="4467" user="Rosscoe" changeset="626229" lat="-26.475742" lon="150.073002">
    <tag k="created_by" v="JOSM"/>
    <tag k="highway" v="primary"/>
    <tag k="name" v="Leichhardt Highway"/>
    <tag k="surface" v="paved"/>
  </node>
  <node id="134667063" version="1" timestamp="2007-11-26T11:46:45Z" uid="4467" user="Rosscoe" changeset="626229" lat="-26.475973" lon="150.073175">
    <tag k="created_by" v="JOSM"/>
    <tag k="highway" v="primary"/>
    <tag k="name" v="Leichhardt Highway"/>
    <tag k="surface" v="paved"/>
  </node>
  <node id="134667095" version="1" timestamp="2007-11-26T11:46:46Z" uid="4467" user="Rosscoe" changeset="626229" lat="-26.476208" lon="150.07335">
    <tag k="created_by" v="JOSM"/>
    <tag k="highway" v="primary"/>
    <tag k="name" v="Leichhardt Highway"/>
    <tag k="surface" v="paved"/>
  </node>
  <node id="134667126" version="1" timestamp="2007-11-26T11:46:46Z" uid="4467" user="Rosscoe" changeset="626229" lat="-26.476443" lon="150.073525">
    <tag k="created_by" v="JOSM"/>
    <tag k="highway" v="primary"/>
    <tag k="name" v="Leichhardt Highway"/>
    <tag k="surface" v="paved"/>
  </node>
  <node id="134667158" version="1" timestamp="2007-11-26T11:46:47Z" uid="4467" user="Rosscoe" changeset="626229" lat="-26.476677" lon="150.073698">
    <tag k="created_by" v="JOSM"/>
    <tag k="highway" v="primary"/>
    <tag k="name" v="Leichhardt Highway"/>
    <tag k="surface" v="paved"/>
  </node>
  <node id="134667179" version="1" timestamp="2007-11-26T11:46:48Z" uid="4467" user="Rosscoe" changeset="626229" lat="-26.476907" lon="150.073872">
    <tag k="created_by" v="JOSM"/>
    <tag k="highway" v="primary"/>
    <tag k="name" v="Leichhardt Highway"/>
    <tag k="surface" v="paved"/>
  </node>
  <node id="134667206" version="1" timestamp="2007-11-26T11:46:49Z" uid="4467" user="Rosscoe" changeset="626229" lat="-26.477372" lon="150.074227">
    <tag k="created_by" v="JOSM"/>
    <tag k="highway" v="primary"/>
    <tag k="name" v="Leichhardt Highway"/>
    <tag k="surface" v="paved"/>
  </node>
  <node id="134667238" version="1" timestamp="2007-11-26T11:46:49Z" uid="4467" user="Rosscoe" changeset="626229" lat="-26.477607" lon="150.074403">
    <tag k="created_by" v="JOSM"/>
    <tag k="highway" v="primary"/>
    <tag k="name" v="Leichhardt Highway"/>
    <tag k="surface" v="paved"/>
  </node>
  <node id="134667267" version="1" timestamp="2007-11-26T11:46:50Z" uid="4467" user="Rosscoe" changeset="626229" lat="-26.47784" lon="150.07458">
    <tag k="created_by" v="JOSM"/>
    <tag k="highway" v="primary"/>
    <tag k="name" v="Leichhardt Highway"/>
    <tag k="surface" v="paved"/>
  </node>
  <node id="134667290" version="1" timestamp="2007-11-26T11:46:51Z" uid="4467" user="Rosscoe" changeset="626229" lat="-26.478075" lon="150.074755">
    <tag k="created_by" v="JOSM"/>
    <tag k="highway" v="primary"/>
    <tag k="name" v="Leichhardt Highway"/>
    <tag k="surface" v="paved"/>
  </node>
  <node id="134667316" version="1" timestamp="2007-11-26T11:46:52Z" uid="4467" user="Rosscoe" changeset="626229" lat="-26.478308" lon="150.074928">
    <tag k="created_by" v="JOSM"/>
    <tag k="highway" v="primary"/>
    <tag k="name" v="Leichhardt Highway"/>
    <tag k="surface" v="paved"/>
  </node>
  <node id="134667342" version="1" timestamp="2007-11-26T11:46:52Z" uid="4467" user="Rosscoe" changeset="626229" lat="-26.47855" lon="150.075103">
    <tag k="created_by" v="JOSM"/>
    <tag k="highway" v="primary"/>
    <tag k="name" v="Leichhardt Highway"/>
    <tag k="surface" v="paved"/>
  </node>
  <node id="134667371" version="1" timestamp="2007-11-26T11:46:53Z" uid="4467" user="Rosscoe" changeset="626229" lat="-26.47879" lon="150.07528">
    <tag k="created_by" v="JOSM"/>
    <tag k="highway" v="primary"/>
    <tag k="name" v="Leichhardt Highway"/>
    <tag k="surface" v="paved"/>
  </node>
  <node id="134667395" version="1" timestamp="2007-11-26T11:46:54Z" uid="4467" user="Rosscoe" changeset="626229" lat="-26.479262" lon="150.07563">
    <tag k="created_by" v="JOSM"/>
    <tag k="highway" v="primary"/>
    <tag k="name" v="Leichhardt Highway"/>
    <tag k="surface" v="paved"/>
  </node>
  <node id="134667425" version="1" timestamp="2007-11-26T11:46:55Z" uid="4467" user="Rosscoe" changeset="626229" lat="-26.4795" lon="150.075805">
    <tag k="created_by" v="JOSM"/>
    <tag k="highway" v="primary"/>
    <tag k="name" v="Leichhardt Highway"/>
    <tag k="surface" v="paved"/>
  </node>
  <node id="134667445" version="1" timestamp="2007-11-26T11:46:56Z" uid="4467" user="Rosscoe" changeset="626229" lat="-26.479737" lon="150.075982">
    <tag k="created_by" v="JOSM"/>
    <tag k="highway" v="primary"/>
    <tag k="name" v="Leichhardt Highway"/>
    <tag k="surface" v="paved"/>
  </node>
  <node id="134667476" version="1" timestamp="2007-11-26T11:46:56Z" uid="4467" user="Rosscoe" changeset="626229" lat="-26.479975" lon="150.076157">
    <tag k="created_by" v="JOSM"/>
    <tag k="highway" v="primary"/>
    <tag k="name" v="Leichhardt Highway"/>
    <tag k="surface" v="paved"/>
  </node>
  <node id="134667494" version="1" timestamp="2007-11-26T11:46:57Z" uid="4467" user="Rosscoe" changeset="626229" lat="-26.480213" lon="150.076333">
    <tag k="created_by" v="JOSM"/>
    <tag k="highway" v="primary"/>
    <tag k="name" v="Leichhardt Highway"/>
    <tag k="surface" v="paved"/>
  </node>
  <node id="134667521" version="1" timestamp="2007-11-26T11:46:58Z" uid="4467" user="Rosscoe" changeset="626229" lat="-26.480445" lon="150.076507">
    <tag k="created_by" v="JOSM"/>
    <tag k="highway" v="primary"/>
    <tag k="name" v="Leichhardt Highway"/>
    <tag k="surface" v="paved"/>
  </node>
  <node id="134667541" version="1" timestamp="2007-11-26T11:46:59Z" uid="4467" user="Rosscoe" changeset="626229" lat="-26.48068" lon="150.07668">
    <tag k="created_by" v="JOSM"/>
    <tag k="highway" v="primary"/>
    <tag k="name" v="Leichhardt Highway"/>
    <tag k="surface" v="paved"/>
  </node>
  <node id="134667565" version="1" timestamp="2007-11-26T11:47:00Z" uid="4467" user="Rosscoe" changeset="626229" lat="-26.481148" lon="150.077027">
    <tag k="created_by" v="JOSM"/>
    <tag k="highway" v="primary"/>
    <tag k="name" v="Leichhardt Highway"/>
    <tag k="surface" v="paved"/>
  </node>
  <node id="134667595" version="1" timestamp="2007-11-26T11:47:00Z" uid="4467" user="Rosscoe" changeset="626229" lat="-26.481383" lon="150.077207">
    <tag k="created_by" v="JOSM"/>
    <tag k="highway" v="primary"/>
    <tag k="name" v="Leichhardt Highway"/>
    <tag k="surface" v="paved"/>
  </node>
  <node id="134667613" version="1" timestamp="2007-11-26T11:47:01Z" uid="4467" user="Rosscoe" changeset="626229" lat="-26.481617" lon="150.077382">
    <tag k="created_by" v="JOSM"/>
    <tag k="highway" v="primary"/>
    <tag k="name" v="Leichhardt Highway"/>
    <tag k="surface" v="paved"/>
  </node>
  <node id="134667639" version="1" timestamp="2007-11-26T11:47:02Z" uid="4467" user="Rosscoe" changeset="626229" lat="-26.48185" lon="150.077557">
    <tag k="created_by" v="JOSM"/>
    <tag k="highway" v="primary"/>
    <tag k="name" v="Leichhardt Highway"/>
    <tag k="surface" v="paved"/>
  </node>
  <node id="134667656" version="1" timestamp="2007-11-26T11:47:03Z" uid="4467" user="Rosscoe" changeset="626229" lat="-26.482088" lon="150.077737">
    <tag k="created_by" v="JOSM"/>
    <tag k="highway" v="primary"/>
    <tag k="name" v="Leichhardt Highway"/>
    <tag k="surface" v="paved"/>
  </node>
  <node id="134667684" version="1" timestamp="2007-11-26T11:47:04Z" uid="4467" user="Rosscoe" changeset="626229" lat="-26.482318" lon="150.077908">
    <tag k="created_by" v="JOSM"/>
    <tag k="highway" v="primary"/>
    <tag k="name" v="Leichhardt Highway"/>
    <tag k="surface" v="paved"/>
  </node>
  <node id="134667707" version="1" timestamp="2007-11-26T11:47:04Z" uid="4467" user="Rosscoe" changeset="626229" lat="-26.482552" lon="150.078085">
    <tag k="created_by" v="JOSM"/>
    <tag k="highway" v="primary"/>
    <tag k="name" v="Leichhardt Highway"/>
    <tag k="surface" v="paved"/>
  </node>
  <node id="134667738" version="1" timestamp="2007-11-26T11:47:05Z" uid="4467" user="Rosscoe" changeset="626229" lat="-26.482783" lon="150.078257">
    <tag k="created_by" v="JOSM"/>
    <tag k="highway" v="primary"/>
    <tag k="name" v="Leichhardt Highway"/>
    <tag k="surface" v="paved"/>
  </node>
  <node id="134667767" version="1" timestamp="2007-11-26T11:47:06Z" uid="4467" user="Rosscoe" changeset="626229" lat="-26.48302" lon="150.078427">
    <tag k="created_by" v="JOSM"/>
    <tag k="highway" v="primary"/>
    <tag k="name" v="Leichhardt Highway"/>
    <tag k="surface" v="paved"/>
  </node>
  <node id="134667784" version="1" timestamp="2007-11-26T11:47:07Z" uid="4467" user="Rosscoe" changeset="626229" lat="-26.483258" lon="150.078593">
    <tag k="created_by" v="JOSM"/>
    <tag k="highway" v="primary"/>
    <tag k="name" v="Leichhardt Highway"/>
    <tag k="surface" v="paved"/>
  </node>
  <node id="134667800" version="1" timestamp="2007-11-26T11:47:08Z" uid="4467" user="Rosscoe" changeset="626229" lat="-26.483743" lon="150.078902">
    <tag k="created_by" v="JOSM"/>
    <tag k="highway" v="primary"/>
    <tag k="name" v="Leichhardt Highway"/>
    <tag k="surface" v="paved"/>
  </node>
  <node id="134667825" version="1" timestamp="2007-11-26T11:47:08Z" uid="4467" user="Rosscoe" changeset="626229" lat="-26.483988" lon="150.079047">
    <tag k="created_by" v="JOSM"/>
    <tag k="highway" v="primary"/>
    <tag k="name" v="Leichhardt Highway"/>
    <tag k="surface" v="paved"/>
  </node>
  <node id="134667832" version="1" timestamp="2007-11-26T11:47:09Z" uid="4467" user="Rosscoe" changeset="626229" lat="-26.484242" lon="150.079193">
    <tag k="created_by" v="JOSM"/>
    <tag k="highway" v="primary"/>
    <tag k="name" v="Leichhardt Highway"/>
    <tag k="surface" v="paved"/>
  </node>
  <node id="134667863" version="1" timestamp="2007-11-26T11:47:10Z" uid="4467" user="Rosscoe" changeset="626229" lat="-26.484495" lon="150.079323">
    <tag k="created_by" v="JOSM"/>
    <tag k="highway" v="primary"/>
    <tag k="name" v="Leichhardt Highway"/>
    <tag k="surface" v="paved"/>
  </node>
  <node id="134667891" version="1" timestamp="2007-11-26T11:47:11Z" uid="4467" user="Rosscoe" changeset="626229" lat="-26.484752" lon="150.079447">
    <tag k="created_by" v="JOSM"/>
    <tag k="highway" v="primary"/>
    <tag k="name" v="Leichhardt Highway"/>
    <tag k="surface" v="paved"/>
  </node>
  <node id="134667910" version="1" timestamp="2007-11-26T11:47:11Z" uid="4467" user="Rosscoe" changeset="626229" lat="-26.485012" lon="150.079562">
    <tag k="created_by" v="JOSM"/>
    <tag k="highway" v="primary"/>
    <tag k="name" v="Leichhardt Highway"/>
    <tag k="surface" v="paved"/>
  </node>
  <node id="134667933" version="1" timestamp="2007-11-26T11:47:12Z" uid="4467" user="Rosscoe" changeset="626229" lat="-26.485275" lon="150.07967">
    <tag k="created_by" v="JOSM"/>
    <tag k="highway" v="primary"/>
    <tag k="name" v="Leichhardt Highway"/>
    <tag k="surface" v="paved"/>
  </node>
  <node id="134667957" version="1" timestamp="2007-11-26T11:47:13Z" uid="4467" user="Rosscoe" changeset="626229" lat="-26.485538" lon="150.079768">
    <tag k="created_by" v="JOSM"/>
    <tag k="highway" v="primary"/>
    <tag k="name" v="Leichhardt Highway"/>
    <tag k="surface" v="paved"/>
  </node>
  <node id="134667986" version="1" timestamp="2007-11-26T11:47:14Z" uid="4467" user="Rosscoe" changeset="626229" lat="-26.48581" lon="150.079862">
    <tag k="created_by" v="JOSM"/>
    <tag k="highway" v="primary"/>
    <tag k="name" v="Leichhardt Highway"/>
    <tag k="surface" v="paved"/>
  </node>
  <node id="134668020" version="1" timestamp="2007-11-26T11:47:14Z" uid="4467" user="Rosscoe" changeset="626229" lat="-26.486083" lon="150.079947">
    <tag k="created_by" v="JOSM"/>
    <tag k="highway" v="primary"/>
    <tag k="name" v="Leichhardt Highway"/>
    <tag k="surface" v="paved"/>
  </node>
  <node id="134668041" version="1" timestamp="2007-11-26T11:47:15Z" uid="9581" user="Lobelt" changeset="623243" lat="50.8782816" lon="12.0774523"/>
  <node id="134668043" version="1" timestamp="2007-11-26T11:47:15Z" uid="9581" user="Lobelt" changeset="623243" lat="50.878135" lon="12.0777837"/>
  <node id="134668045" version="1" timestamp="2007-11-26T11:47:15Z" uid="9581" user="Lobelt" changeset="623243" lat="50.8766539" lon="12.07996"/>
  <node id="134668046" version="1" timestamp="2007-11-26T11:47:15Z" uid="9581" user="Lobelt" changeset="623243" lat="50.8755708" lon="12.0809071"/>
  <node id="134668048" version="1" timestamp="2007-11-26T11:47:15Z" uid="9581" user="Lobelt" changeset="623243" lat="50.8744196" lon="12.0815985"/>
  <node id="134668050" version="1" timestamp="2007-11-26T11:47:15Z" uid="9581" user="Lobelt" changeset="623243" lat="50.8742171" lon="12.0817746"/>
  <node id="134668052" version="1" timestamp="2007-11-26T11:47:15Z" uid="9581" user="Lobelt" changeset="623243" lat="50.8677947" lon="12.084922"/>
  <node id="134668056" version="1" timestamp="2007-11-26T11:47:15Z" uid="4467" user="Rosscoe" changeset="626229" lat="-26.486355" lon="150.080023">
    <tag k="created_by" v="JOSM"/>
    <tag k="highway" v="primary"/>
    <tag k="name" v="Leichhardt Highway"/>
    <tag k="surface" v="paved"/>
  </node>
  <node id="134668084" version="1" timestamp="2007-11-26T11:47:16Z" uid="4467" user="Rosscoe" changeset="626229" lat="-26.486628" lon="150.080092">
    <tag k="created_by" v="JOSM"/>
    <tag k="highway" v="primary"/>
    <tag k="name" v="Leichhardt Highway"/>
    <tag k="surface" v="paved"/>
  </node>
  <node id="134668118" version="1" timestamp="2007-11-26T11:47:17Z" uid="4467" user="Rosscoe" changeset="626229" lat="-26.486903" lon="150.080155">
    <tag k="created_by" v="JOSM"/>
    <tag k="highway" v="primary"/>
    <tag k="name" v="Leichhardt Highway"/>
    <tag k="surface" v="paved"/>
  </node>
  <node id="134668147" version="1" timestamp="2007-11-26T11:47:18Z" uid="4467" user="Rosscoe" changeset="626229" lat="-26.487178" lon="150.080207">
    <tag k="created_by" v="JOSM"/>
    <tag k="highway" v="primary"/>
    <tag k="name" v="Leichhardt Highway"/>
    <tag k="surface" v="paved"/>
  </node>
  <node id="134668176" version="1" timestamp="2007-11-26T11:47:18Z" uid="4467" user="Rosscoe" changeset="626229" lat="-26.48746" lon="150.080255">
    <tag k="created_by" v="JOSM"/>
    <tag k="highway" v="primary"/>
    <tag k="name" v="Leichhardt Highway"/>
    <tag k="surface" v="paved"/>
  </node>
  <node id="134668205" version="1" timestamp="2007-11-26T11:47:19Z" uid="4467" user="Rosscoe" changeset="626229" lat="-26.487745" lon="150.080298">
    <tag k="created_by" v="JOSM"/>
    <tag k="highway" v="primary"/>
    <tag k="name" v="Leichhardt Highway"/>
    <tag k="surface" v="paved"/>
  </node>
  <node id="134668230" version="1" timestamp="2007-11-26T11:47:20Z" uid="4467" user="Rosscoe" changeset="626229" lat="-26.488023" lon="150.08034">
    <tag k="created_by" v="JOSM"/>
    <tag k="highway" v="primary"/>
    <tag k="name" v="Leichhardt Highway"/>
    <tag k="surface" v="paved"/>
  </node>
  <node id="134668245" version="1" timestamp="2007-11-26T11:47:21Z" uid="4467" user="Rosscoe" changeset="626229" lat="-26.488305" lon="150.080378">
    <tag k="created_by" v="JOSM"/>
    <tag k="highway" v="primary"/>
    <tag k="name" v="Leichhardt Highway"/>
    <tag k="surface" v="paved"/>
  </node>
  <node id="134668272" version="1" timestamp="2007-11-26T11:47:22Z" uid="4467" user="Rosscoe" changeset="626229" lat="-26.488587" lon="150.080417">
    <tag k="created_by" v="JOSM"/>
    <tag k="highway" v="primary"/>
    <tag k="name" v="Leichhardt Highway"/>
    <tag k="surface" v="paved"/>
  </node>
  <node id="134668335" version="1" timestamp="2007-11-26T11:47:23Z" uid="4467" user="Rosscoe" changeset="626229" lat="-26.489147" lon="150.080492">
    <tag k="created_by" v="JOSM"/>
    <tag k="highway" v="primary"/>
    <tag k="name" v="Leichhardt Highway"/>
    <tag k="surface" v="paved"/>
  </node>
  <node id="134668353" version="1" timestamp="2007-11-26T11:47:24Z" uid="4467" user="Rosscoe" changeset="626229" lat="-26.489428" lon="150.08053">
    <tag k="created_by" v="JOSM"/>
    <tag k="highway" v="primary"/>
    <tag k="name" v="Leichhardt Highway"/>
    <tag k="surface" v="paved"/>
  </node>
  <node id="134668380" version="1" timestamp="2007-11-26T11:47:25Z" uid="4467" user="Rosscoe" changeset="626229" lat="-26.489987" lon="150.080607">
    <tag k="created_by" v="JOSM"/>
    <tag k="highway" v="primary"/>
    <tag k="name" v="Leichhardt Highway"/>
    <tag k="surface" v="paved"/>
  </node>
  <node id="134668410" version="1" timestamp="2007-11-26T11:47:26Z" uid="4467" user="Rosscoe" changeset="626229" lat="-26.490267" lon="150.080645">
    <tag k="created_by" v="JOSM"/>
    <tag k="highway" v="primary"/>
    <tag k="name" v="Leichhardt Highway"/>
    <tag k="surface" v="paved"/>
  </node>
  <node id="134668440" version="1" timestamp="2007-11-26T11:47:27Z" uid="4467" user="Rosscoe" changeset="626229" lat="-26.490543" lon="150.080682">
    <tag k="created_by" v="JOSM"/>
    <tag k="highway" v="primary"/>
    <tag k="name" v="Leichhardt Highway"/>
    <tag k="surface" v="paved"/>
  </node>
  <node id="134668470" version="1" timestamp="2007-11-26T11:47:27Z" uid="4467" user="Rosscoe" changeset="626229" lat="-26.490825" lon="150.080717">
    <tag k="created_by" v="JOSM"/>
    <tag k="highway" v="primary"/>
    <tag k="name" v="Leichhardt Highway"/>
    <tag k="surface" v="paved"/>
  </node>
  <node id="134668502" version="1" timestamp="2007-11-26T11:47:28Z" uid="4467" user="Rosscoe" changeset="626229" lat="-26.491105" lon="150.080753">
    <tag k="created_by" v="JOSM"/>
    <tag k="highway" v="primary"/>
    <tag k="name" v="Leichhardt Highway"/>
    <tag k="surface" v="paved"/>
  </node>
  <node id="134668527" version="1" timestamp="2007-11-26T11:47:29Z" uid="4467" user="Rosscoe" changeset="626229" lat="-26.491385" lon="150.08079">
    <tag k="created_by" v="JOSM"/>
    <tag k="highway" v="primary"/>
    <tag k="name" v="Leichhardt Highway"/>
    <tag k="surface" v="paved"/>
  </node>
  <node id="134668545" version="1" timestamp="2007-11-26T11:47:30Z" uid="4467" user="Rosscoe" changeset="626229" lat="-26.491942" lon="150.080867">
    <tag k="created_by" v="JOSM"/>
    <tag k="highway" v="primary"/>
    <tag k="name" v="Leichhardt Highway"/>
    <tag k="surface" v="paved"/>
  </node>
  <node id="134668563" version="1" timestamp="2007-11-26T11:47:30Z" uid="4467" user="Rosscoe" changeset="626229" lat="-26.492212" lon="150.08091">
    <tag k="created_by" v="JOSM"/>
    <tag k="highway" v="primary"/>
    <tag k="name" v="Leichhardt Highway"/>
    <tag k="surface" v="paved"/>
  </node>
  <node id="134668586" version="1" timestamp="2007-11-26T11:47:31Z" uid="4467" user="Rosscoe" changeset="626229" lat="-26.492485" lon="150.080962">
    <tag k="created_by" v="JOSM"/>
    <tag k="highway" v="primary"/>
    <tag k="name" v="Leichhardt Highway"/>
    <tag k="surface" v="paved"/>
  </node>
  <node id="134668613" version="1" timestamp="2007-11-26T11:47:32Z" uid="4467" user="Rosscoe" changeset="626229" lat="-26.492757" lon="150.08102">
    <tag k="created_by" v="JOSM"/>
    <tag k="highway" v="primary"/>
    <tag k="name" v="Leichhardt Highway"/>
    <tag k="surface" v="paved"/>
  </node>
  <node id="134668638" version="1" timestamp="2007-11-26T11:47:33Z" uid="4467" user="Rosscoe" changeset="626229" lat="-26.493027" lon="150.08109">
    <tag k="created_by" v="JOSM"/>
    <tag k="highway" v="primary"/>
    <tag k="name" v="Leichhardt Highway"/>
    <tag k="surface" v="paved"/>
  </node>
  <node id="134668656" version="1" timestamp="2007-11-26T11:47:34Z" uid="4467" user="Rosscoe" changeset="626229" lat="-26.493293" lon="150.081163">
    <tag k="created_by" v="JOSM"/>
    <tag k="highway" v="primary"/>
    <tag k="name" v="Leichhardt Highway"/>
    <tag k="surface" v="paved"/>
  </node>
  <node id="134668684" version="1" timestamp="2007-11-26T11:47:34Z" uid="4467" user="Rosscoe" changeset="626229" lat="-26.493558" lon="150.081242">
    <tag k="created_by" v="JOSM"/>
    <tag k="highway" v="primary"/>
    <tag k="name" v="Leichhardt Highway"/>
    <tag k="surface" v="paved"/>
  </node>
  <node id="134668704" version="1" timestamp="2007-11-26T11:47:35Z" uid="4467" user="Rosscoe" changeset="626229" lat="-26.494083" lon="150.081428">
    <tag k="created_by" v="JOSM"/>
    <tag k="highway" v="primary"/>
    <tag k="name" v="Leichhardt Highway"/>
    <tag k="surface" v="paved"/>
  </node>
  <node id="134668735" version="1" timestamp="2007-11-26T11:47:36Z" uid="4467" user="Rosscoe" changeset="626229" lat="-26.494348" lon="150.081533">
    <tag k="created_by" v="JOSM"/>
    <tag k="highway" v="primary"/>
    <tag k="name" v="Leichhardt Highway"/>
    <tag k="surface" v="paved"/>
  </node>
  <node id="134668762" version="1" timestamp="2007-11-26T11:47:37Z" uid="4467" user="Rosscoe" changeset="626229" lat="-26.494602" lon="150.081643">
    <tag k="created_by" v="JOSM"/>
    <tag k="highway" v="primary"/>
    <tag k="name" v="Leichhardt Highway"/>
    <tag k="surface" v="paved"/>
  </node>
  <node id="134668793" version="1" timestamp="2007-11-26T11:47:37Z" uid="4467" user="Rosscoe" changeset="626229" lat="-26.494857" lon="150.081762">
    <tag k="created_by" v="JOSM"/>
    <tag k="highway" v="primary"/>
    <tag k="name" v="Leichhardt Highway"/>
    <tag k="surface" v="paved"/>
  </node>
  <node id="134668824" version="1" timestamp="2007-11-26T11:47:38Z" uid="4467" user="Rosscoe" changeset="626229" lat="-26.495115" lon="150.08189">
    <tag k="created_by" v="JOSM"/>
    <tag k="highway" v="primary"/>
    <tag k="name" v="Leichhardt Highway"/>
    <tag k="surface" v="paved"/>
  </node>
  <node id="134668846" version="1" timestamp="2007-11-26T11:47:39Z" uid="4467" user="Rosscoe" changeset="626229" lat="-26.495357" lon="150.082018">
    <tag k="created_by" v="JOSM"/>
    <tag k="highway" v="primary"/>
    <tag k="name" v="Leichhardt Highway"/>
    <tag k="surface" v="paved"/>
  </node>
  <node id="134668877" version="1" timestamp="2007-11-26T11:47:40Z" uid="4467" user="Rosscoe" changeset="626229" lat="-26.495607" lon="150.082158">
    <tag k="created_by" v="JOSM"/>
    <tag k="highway" v="primary"/>
    <tag k="name" v="Leichhardt Highway"/>
    <tag k="surface" v="paved"/>
  </node>
  <node id="134668910" version="1" timestamp="2007-11-26T11:47:40Z" uid="4467" user="Rosscoe" changeset="626229" lat="-26.496088" lon="150.082455">
    <tag k="created_by" v="JOSM"/>
    <tag k="highway" v="primary"/>
    <tag k="name" v="Leichhardt Highway"/>
    <tag k="surface" v="paved"/>
  </node>
  <node id="134668924" version="1" timestamp="2007-11-26T11:47:41Z" uid="4467" user="Rosscoe" changeset="626229" lat="-26.496322" lon="150.082612">
    <tag k="created_by" v="JOSM"/>
    <tag k="highway" v="primary"/>
    <tag k="name" v="Leichhardt Highway"/>
    <tag k="surface" v="paved"/>
  </node>
  <node id="134668955" version="1" timestamp="2007-11-26T11:47:42Z" uid="4467" user="Rosscoe" changeset="626229" lat="-26.496548" lon="150.082772">
    <tag k="created_by" v="JOSM"/>
    <tag k="highway" v="primary"/>
    <tag k="name" v="Leichhardt Highway"/>
    <tag k="surface" v="paved"/>
  </node>
  <node id="134668974" version="1" timestamp="2007-11-26T11:47:43Z" uid="4467" user="Rosscoe" changeset="626229" lat="-26.496772" lon="150.082933">
    <tag k="created_by" v="JOSM"/>
    <tag k="highway" v="primary"/>
    <tag k="name" v="Leichhardt Highway"/>
    <tag k="surface" v="paved"/>
  </node>
  <node id="134668993" version="1" timestamp="2007-11-26T11:47:44Z" uid="4467" user="Rosscoe" changeset="626229" lat="-26.496998" lon="150.083097">
    <tag k="created_by" v="JOSM"/>
    <tag k="highway" v="primary"/>
    <tag k="name" v="Leichhardt Highway"/>
    <tag k="surface" v="paved"/>
  </node>
  <node id="134669011" version="1" timestamp="2007-11-26T11:47:44Z" uid="4467" user="Rosscoe" changeset="626229" lat="-26.497222" lon="150.083258">
    <tag k="created_by" v="JOSM"/>
    <tag k="highway" v="primary"/>
    <tag k="name" v="Leichhardt Highway"/>
    <tag k="surface" v="paved"/>
  </node>
  <node id="134669030" version="1" timestamp="2007-11-26T11:47:45Z" uid="4467" user="Rosscoe" changeset="626229" lat="-26.497445" lon="150.083422">
    <tag k="created_by" v="JOSM"/>
    <tag k="highway" v="primary"/>
    <tag k="name" v="Leichhardt Highway"/>
    <tag k="surface" v="paved"/>
  </node>
  <node id="134669056" version="1" timestamp="2007-11-26T11:47:46Z" uid="4467" user="Rosscoe" changeset="626229" lat="-26.497668" lon="150.083587">
    <tag k="created_by" v="JOSM"/>
    <tag k="highway" v="primary"/>
    <tag k="name" v="Leichhardt Highway"/>
    <tag k="surface" v="paved"/>
  </node>
  <node id="134669075" version="1" timestamp="2007-11-26T11:47:47Z" uid="4467" user="Rosscoe" changeset="626229" lat="-26.49789" lon="150.08375">
    <tag k="created_by" v="JOSM"/>
    <tag k="highway" v="primary"/>
    <tag k="name" v="Leichhardt Highway"/>
    <tag k="surface" v="paved"/>
  </node>
  <node id="134669106" version="1" timestamp="2007-11-26T11:47:48Z" uid="4467" user="Rosscoe" changeset="626229" lat="-26.49811" lon="150.083913">
    <tag k="created_by" v="JOSM"/>
    <tag k="highway" v="primary"/>
    <tag k="name" v="Leichhardt Highway"/>
    <tag k="surface" v="paved"/>
  </node>
  <node id="134669137" version="1" timestamp="2007-11-26T11:47:48Z" uid="4467" user="Rosscoe" changeset="626229" lat="-26.49833" lon="150.08408">
    <tag k="created_by" v="JOSM"/>
    <tag k="highway" v="primary"/>
    <tag k="name" v="Leichhardt Highway"/>
    <tag k="surface" v="paved"/>
  </node>
  <node id="134669163" version="1" timestamp="2007-11-26T11:47:49Z" uid="4467" user="Rosscoe" changeset="626229" lat="-26.498548" lon="150.084245">
    <tag k="created_by" v="JOSM"/>
    <tag k="highway" v="primary"/>
    <tag k="name" v="Leichhardt Highway"/>
    <tag k="surface" v="paved"/>
  </node>
  <node id="134669192" version="1" timestamp="2007-11-26T11:47:50Z" uid="4467" user="Rosscoe" changeset="626229" lat="-26.498993" lon="150.084573">
    <tag k="created_by" v="JOSM"/>
    <tag k="highway" v="primary"/>
    <tag k="name" v="Leichhardt Highway"/>
    <tag k="surface" v="paved"/>
  </node>
  <node id="134669223" version="1" timestamp="2007-11-26T11:47:51Z" uid="4467" user="Rosscoe" changeset="626229" lat="-26.499215" lon="150.084735">
    <tag k="created_by" v="JOSM"/>
    <tag k="highway" v="primary"/>
    <tag k="name" v="Leichhardt Highway"/>
    <tag k="surface" v="paved"/>
  </node>
  <node id="134669258" version="1" timestamp="2007-11-26T11:47:51Z" uid="4467" user="Rosscoe" changeset="626229" lat="-26.499435" lon="150.084898">
    <tag k="created_by" v="JOSM"/>
    <tag k="highway" v="primary"/>
    <tag k="name" v="Leichhardt Highway"/>
    <tag k="surface" v="paved"/>
  </node>
  <node id="134669292" version="1" timestamp="2007-11-26T11:47:52Z" uid="4467" user="Rosscoe" changeset="626229" lat="-26.499875" lon="150.085228">
    <tag k="created_by" v="JOSM"/>
    <tag k="highway" v="primary"/>
    <tag k="name" v="Leichhardt Highway"/>
    <tag k="surface" v="paved"/>
  </node>
  <node id="134669324" version="1" timestamp="2007-11-26T11:47:53Z" uid="4467" user="Rosscoe" changeset="626229" lat="-26.500095" lon="150.085393">
    <tag k="created_by" v="JOSM"/>
    <tag k="highway" v="primary"/>
    <tag k="name" v="Leichhardt Highway"/>
    <tag k="surface" v="paved"/>
  </node>
  <node id="134669349" version="1" timestamp="2007-11-26T11:47:54Z" uid="4467" user="Rosscoe" changeset="626229" lat="-26.500537" lon="150.08572">
    <tag k="created_by" v="JOSM"/>
    <tag k="highway" v="primary"/>
    <tag k="name" v="Leichhardt Highway"/>
    <tag k="surface" v="paved"/>
  </node>
  <node id="134669373" version="1" timestamp="2007-11-26T11:47:55Z" uid="4467" user="Rosscoe" changeset="626229" lat="-26.500755" lon="150.085883">
    <tag k="created_by" v="JOSM"/>
    <tag k="highway" v="primary"/>
    <tag k="name" v="Leichhardt Highway"/>
    <tag k="surface" v="paved"/>
  </node>
  <node id="134669403" version="1" timestamp="2007-11-26T11:47:55Z" uid="4467" user="Rosscoe" changeset="626229" lat="-26.500978" lon="150.086048">
    <tag k="created_by" v="JOSM"/>
    <tag k="highway" v="primary"/>
    <tag k="name" v="Leichhardt Highway"/>
    <tag k="surface" v="paved"/>
  </node>
  <node id="134669430" version="1" timestamp="2007-11-26T11:47:56Z" uid="4467" user="Rosscoe" changeset="626229" lat="-26.5012" lon="150.086213">
    <tag k="created_by" v="JOSM"/>
    <tag k="highway" v="primary"/>
    <tag k="name" v="Leichhardt Highway"/>
    <tag k="surface" v="paved"/>
  </node>
  <node id="134669459" version="1" timestamp="2007-11-26T11:47:57Z" uid="4467" user="Rosscoe" changeset="626229" lat="-26.501418" lon="150.086373">
    <tag k="created_by" v="JOSM"/>
    <tag k="highway" v="primary"/>
    <tag k="name" v="Leichhardt Highway"/>
    <tag k="surface" v="paved"/>
  </node>
  <node id="134669490" version="1" timestamp="2007-11-26T11:47:58Z" uid="4467" user="Rosscoe" changeset="626229" lat="-26.50186" lon="150.086697">
    <tag k="created_by" v="JOSM"/>
    <tag k="highway" v="primary"/>
    <tag k="name" v="Leichhardt Highway"/>
    <tag k="surface" v="paved"/>
  </node>
  <node id="134669516" version="3" timestamp="2009-01-01T03:39:40Z" uid="19626" user="Swamp" changeset="694579" lat="-33.6722294" lon="150.2796863"/>
  <node id="134669523" version="1" timestamp="2007-11-26T11:47:58Z" uid="4467" user="Rosscoe" changeset="626229" lat="-26.502078" lon="150.086858">
    <tag k="created_by" v="JOSM"/>
    <tag k="highway" v="primary"/>
    <tag k="name" v="Leichhardt Highway"/>
    <tag k="surface" v="paved"/>
  </node>
  <node id="134669540" version="1" timestamp="2007-11-26T11:47:59Z" uid="4467" user="Rosscoe" changeset="626229" lat="-26.502302" lon="150.087023">
    <tag k="created_by" v="JOSM"/>
    <tag k="highway" v="primary"/>
    <tag k="name" v="Leichhardt Highway"/>
    <tag k="surface" v="paved"/>
  </node>
  <node id="134669570" version="1" timestamp="2007-11-26T11:48:00Z" uid="4467" user="Rosscoe" changeset="626229" lat="-26.502525" lon="150.087187">
    <tag k="created_by" v="JOSM"/>
    <tag k="highway" v="primary"/>
    <tag k="name" v="Leichhardt Highway"/>
    <tag k="surface" v="paved"/>
  </node>
  <node id="134669595" version="1" timestamp="2007-11-26T11:48:01Z" uid="4467" user="Rosscoe" changeset="626229" lat="-26.502748" lon="150.087347">
    <tag k="created_by" v="JOSM"/>
    <tag k="highway" v="primary"/>
    <tag k="name" v="Leichhardt Highway"/>
    <tag k="surface" v="paved"/>
  </node>
  <node id="134669611" version="1" timestamp="2007-11-26T11:48:01Z" uid="4467" user="Rosscoe" changeset="626229" lat="-26.502977" lon="150.08751">
    <tag k="created_by" v="JOSM"/>
    <tag k="highway" v="primary"/>
    <tag k="name" v="Leichhardt Highway"/>
    <tag k="surface" v="paved"/>
  </node>
  <node id="134669632" version="1" timestamp="2007-11-26T11:48:02Z" uid="4467" user="Rosscoe" changeset="626229" lat="-26.503197" lon="150.087672">
    <tag k="created_by" v="JOSM"/>
    <tag k="highway" v="primary"/>
    <tag k="name" v="Leichhardt Highway"/>
    <tag k="surface" v="paved"/>
  </node>
  <node id="134669656" version="1" timestamp="2007-11-26T11:48:03Z" uid="4467" user="Rosscoe" changeset="626229" lat="-26.50364" lon="150.088005">
    <tag k="created_by" v="JOSM"/>
    <tag k="highway" v="primary"/>
    <tag k="name" v="Leichhardt Highway"/>
    <tag k="surface" v="paved"/>
  </node>
  <node id="134669675" version="1" timestamp="2007-11-26T11:48:04Z" uid="4467" user="Rosscoe" changeset="626229" lat="-26.50386" lon="150.088173">
    <tag k="created_by" v="JOSM"/>
    <tag k="highway" v="primary"/>
    <tag k="name" v="Leichhardt Highway"/>
    <tag k="surface" v="paved"/>
  </node>
  <node id="134669695" version="1" timestamp="2007-11-26T11:48:05Z" uid="4467" user="Rosscoe" changeset="626229" lat="-26.504075" lon="150.088348">
    <tag k="created_by" v="JOSM"/>
    <tag k="highway" v="primary"/>
    <tag k="name" v="Leichhardt Highway"/>
    <tag k="surface" v="paved"/>
  </node>
  <node id="134669711" version="1" timestamp="2007-11-26T11:48:05Z" uid="4467" user="Rosscoe" changeset="626229" lat="-26.504288" lon="150.088528">
    <tag k="created_by" v="JOSM"/>
    <tag k="highway" v="primary"/>
    <tag k="name" v="Leichhardt Highway"/>
    <tag k="surface" v="paved"/>
  </node>
  <node id="134669734" version="1" timestamp="2007-11-26T11:48:06Z" uid="4467" user="Rosscoe" changeset="626229" lat="-26.504497" lon="150.088713">
    <tag k="created_by" v="JOSM"/>
    <tag k="highway" v="primary"/>
    <tag k="name" v="Leichhardt Highway"/>
    <tag k="surface" v="paved"/>
  </node>
  <node id="134669757" version="1" timestamp="2007-11-26T11:48:07Z" uid="4467" user="Rosscoe" changeset="626229" lat="-26.5047" lon="150.088902">
    <tag k="created_by" v="JOSM"/>
    <tag k="highway" v="primary"/>
    <tag k="name" v="Leichhardt Highway"/>
    <tag k="surface" v="paved"/>
  </node>
  <node id="134669773" version="1" timestamp="2007-11-26T11:48:08Z" uid="4467" user="Rosscoe" changeset="626229" lat="-26.504902" lon="150.089098">
    <tag k="created_by" v="JOSM"/>
    <tag k="highway" v="primary"/>
    <tag k="name" v="Leichhardt Highway"/>
    <tag k="surface" v="paved"/>
  </node>
  <node id="134669800" version="1" timestamp="2007-11-26T11:48:08Z" uid="4467" user="Rosscoe" changeset="626229" lat="-26.505292" lon="150.0895">
    <tag k="created_by" v="JOSM"/>
    <tag k="highway" v="primary"/>
    <tag k="name" v="Leichhardt Highway"/>
    <tag k="surface" v="paved"/>
  </node>
  <node id="134669810" version="1" timestamp="2007-11-26T11:48:09Z" uid="9581" user="Lobelt" changeset="623243" lat="50.8745658" lon="12.0722834"/>
  <node id="134669811" version="1" timestamp="2007-11-26T11:48:09Z" uid="9581" user="Lobelt" changeset="623243" lat="50.8748458" lon="12.0732845"/>
  <node id="134669815" version="1" timestamp="2007-11-26T11:48:09Z" uid="9581" user="Lobelt" changeset="623243" lat="50.8745658" lon="12.0722834"/>
  <node id="134669826" version="1" timestamp="2007-11-26T11:48:09Z" uid="4467" user="Rosscoe" changeset="626229" lat="-26.505678" lon="150.089912">
    <tag k="created_by" v="JOSM"/>
    <tag k="highway" v="primary"/>
    <tag k="name" v="Leichhardt Highway"/>
    <tag k="surface" v="paved"/>
  </node>
  <node id="134669852" version="1" timestamp="2007-11-26T11:48:10Z" uid="4467" user="Rosscoe" changeset="626229" lat="-26.50606" lon="150.090328">
    <tag k="created_by" v="JOSM"/>
    <tag k="highway" v="primary"/>
    <tag k="name" v="Leichhardt Highway"/>
    <tag k="surface" v="paved"/>
  </node>
  <node id="134669876" version="1" timestamp="2007-11-26T11:48:11Z" uid="4467" user="Rosscoe" changeset="626229" lat="-26.506252" lon="150.090535">
    <tag k="created_by" v="JOSM"/>
    <tag k="highway" v="primary"/>
    <tag k="name" v="Leichhardt Highway"/>
    <tag k="surface" v="paved"/>
  </node>
  <node id="134669906" version="1" timestamp="2007-11-26T11:48:12Z" uid="4467" user="Rosscoe" changeset="626229" lat="-26.506442" lon="150.090743">
    <tag k="created_by" v="JOSM"/>
    <tag k="highway" v="primary"/>
    <tag k="name" v="Leichhardt Highway"/>
    <tag k="surface" v="paved"/>
  </node>
  <node id="134669933" version="1" timestamp="2007-11-26T11:48:12Z" uid="4467" user="Rosscoe" changeset="626229" lat="-26.506632" lon="150.090952">
    <tag k="created_by" v="JOSM"/>
    <tag k="highway" v="primary"/>
    <tag k="name" v="Leichhardt Highway"/>
    <tag k="surface" v="paved"/>
  </node>
  <node id="134669958" version="1" timestamp="2007-11-26T11:48:13Z" uid="4467" user="Rosscoe" changeset="626229" lat="-26.506822" lon="150.09116">
    <tag k="created_by" v="JOSM"/>
    <tag k="highway" v="primary"/>
    <tag k="name" v="Leichhardt Highway"/>
    <tag k="surface" v="paved"/>
  </node>
  <node id="134669976" version="1" timestamp="2007-11-26T11:48:14Z" uid="4467" user="Rosscoe" changeset="626229" lat="-26.50701" lon="150.091368">
    <tag k="created_by" v="JOSM"/>
    <tag k="highway" v="primary"/>
    <tag k="name" v="Leichhardt Highway"/>
    <tag k="surface" v="paved"/>
  </node>
  <node id="134669999" version="1" timestamp="2007-11-26T11:48:15Z" uid="4467" user="Rosscoe" changeset="626229" lat="-26.507392" lon="150.091787">
    <tag k="created_by" v="JOSM"/>
    <tag k="highway" v="primary"/>
    <tag k="name" v="Leichhardt Highway"/>
    <tag k="surface" v="paved"/>
  </node>
</osm>
