<?xml version='1.0' encoding='UTF-8'?>
<osm version="0.6" generator="libosmium/2.20.0">
  <node id="135686289" version="1" timestamp="2007-11-26T21:50:05Z" uid="18775" user="drlizau" changeset="629077" lat="-35.0842884" lon="142.1757861">
    <tag k="created_by" v="JOSM"/>
    <tag k="name" v="Galah"/>
    <tag k="place" v="hamlet"/>
  </node>
  <node id="135686315" version="1" timestamp="2007-11-26T21:50:05Z" uid="18775" user="drlizau" changeset="629077" lat="-35.1366287" lon="142.0232198">
    <tag k="created_by" v="JOSM"/>
    <tag k="name" v="Walpeup"/>
    <tag k="place" v="town"/>
  </node>
  <node id="135686330" version="1" timestamp="2007-11-26T21:50:07Z" uid="18775" user="drlizau" changeset="629077" lat="-35.1353698" lon="142.0251082">
    <tag k="created_by" v="JOSM"/>
  </node>
  <node id="135686331" version="1" timestamp="2007-11-26T21:50:07Z" uid="18775" user="drlizau" changeset="629077" lat="-35.1382749" lon="142.0275291">
    <tag k="created_by" v="JOSM"/>
  </node>
  <node id="135689316" version="1" timestamp="2007-11-26T21:51:48Z" uid="18775" user="drlizau" changeset="629077" lat="-35.1544466" lon="141.93505">
    <tag k="created_by" v="JOSM"/>
    <tag k="name" v="Torrita"/>
    <tag k="place" v="town"/>
  </node>
  <node id="135689316" version="2" timestamp="2008-03-15T10:42:58Z" uid="18775" user="drlizau" changeset="327208" lat="-35.1544466" lon="141.93505">
    <tag k="created_by" v="JOSM"/>
    <tag k="name" v="Torrita"/>
    <tag k="place" v="hamlet"/>
  </node>
  <node id="135689332" version="1" timestamp="2007-11-26T21:51:49Z" uid="18775" user="drlizau" changeset="629077" lat="-35.1700858" lon="141.8100823">
    <tag k="created_by" v="JOSM"/>
    <tag k="name" v="Underbool"/>
    <tag k="place" v="hamlet"/>
  </node>
</osm>
