<?xml version='1.0' encoding='UTF-8'?>
<osm version="0.6" generator="libosmium/2.20.0">
  <node id="137700139" version="4" timestamp="2008-07-06T23:59:21Z" uid="6975" user="ulfl" changeset="415781" lat="40.7845503" lon="22.0882653">
    <tag k="is_in" v="Greece"/>
    <tag k="name" v="Rizario"/>
    <tag k="place" v="village"/>
    <tag k="prefecture" v="Pella"/>
  </node>
  <node id="137701457" version="6" timestamp="2010-07-18T14:52:42Z" uid="4467" user="Rosscoe" changeset="5251803" lat="-34.9041682" lon="138.6575228">
    <tag k="highway" v="traffic_signals"/>
  </node>
  <node id="137701473" version="4" timestamp="2008-07-06T23:59:18Z" uid="6975" user="ulfl" changeset="415781" lat="40.7496832" lon="23.0642923">
    <tag k="is_in" v="Thessaloniki prefecture, Greece"/>
    <tag k="name" v="Langadas"/>
    <tag k="place" v="village"/>
  </node>
  <node id="137702629" version="5" timestamp="2008-07-06T23:59:18Z" uid="6975" user="ulfl" changeset="415781" lat="40.075048" lon="23.4471831">
    <tag k="is_in" v="Greece"/>
    <tag k="name" v="Kallithea"/>
    <tag k="name:el" v="Καλλιθέα"/>
    <tag k="place" v="village"/>
  </node>
  <node id="137703709" version="4" timestamp="2008-07-06T23:59:16Z" uid="6975" user="ulfl" changeset="415781" lat="40.3947848" lon="23.7955979">
    <tag k="is_in" v="Greece"/>
    <tag k="name" v="Gomati"/>
    <tag k="place" v="village"/>
    <tag k="prefecture" v="Chalkidiki"/>
  </node>
</osm>
