<?xml version='1.0' encoding='UTF-8'?>
<osm version="0.6" generator="libosmium/2.20.0">
  <node id="144720016" version="2" timestamp="2010-02-12T06:09:39Z" uid="74617" user="JohnSmith" changeset="3853871" lat="-33.7142183" lon="151.1131593"/>
  <node id="144720017" version="4" timestamp="2010-02-12T06:09:39Z" uid="74617" user="JohnSmith" changeset="3853871" lat="-33.7142556" lon="151.1129643"/>
  <node id="144720019" version="3" timestamp="2010-02-12T06:09:41Z" uid="74617" user="JohnSmith" changeset="3853871" lat="-33.7139738" lon="151.1124748"/>
  <node id="144728189" version="4" timestamp="2008-10-01T01:15:22Z" uid="36809" user="pfoten_weg_!_" changeset="5644" lat="48.0957142" lon="11.5577539">
    <tag k="amenity" v="restaurant"/>
    <tag k="created_by" v="RambaZamba"/>
    <tag k="name" v="Harlachinger Einkehr"/>
  </node>
  <node id="144728189" version="5" timestamp="2009-02-15T13:01:18Z" uid="36809" user="pfoten_weg_!_" changeset="463903" lat="48.0957142" lon="11.5577539">
    <tag k="amenity" v="restaurant"/>
    <tag k="created_by" v="RambaZamba"/>
    <tag k="name" v="Harlachinger Einkehr"/>
    <tag k="source" v="survey"/>
  </node>
  <node id="144728189" version="7" timestamp="2009-06-08T13:39:26Z" uid="36809" user="pfoten_weg_!_" changeset="1458869" lat="48.0957142" lon="11.5577539">
    <tag k="amenity" v="restaurant"/>
    <tag k="created_by" v="RambaZamba"/>
    <tag k="name" v="Harlachinger Einkehr"/>
    <tag k="source" v="survey"/>
  </node>
  <node id="144728189" version="9" timestamp="2009-10-13T23:40:24Z" uid="36809" user="pfoten_weg_!_" changeset="2841273" lat="48.0957142" lon="11.5577539">
    <tag k="amenity" v="restaurant"/>
    <tag k="name" v="Harlachinger Einkehr"/>
  </node>
</osm>
