<?xml version='1.0' encoding='UTF-8'?>
<osm version="0.6" generator="libosmium/2.20.0">
  <node id="14600403" version="2" timestamp="2008-02-16T19:24:41Z" uid="6975" user="ulfl" changeset="141861" lat="50.7575142" lon="-1.5499191">
    <tag k="name" v="Waitrose"/>
    <tag k="shop" v="supermarket"/>
  </node>
  <node id="14600406" version="2" timestamp="2008-02-16T19:24:41Z" uid="6975" user="ulfl" changeset="141861" lat="50.7587321" lon="-1.5405407">
    <tag k="name" v="Tesco"/>
    <tag k="shop" v="supermarket"/>
  </node>
  <node id="14600407" version="2" timestamp="2008-02-16T19:24:41Z" uid="6975" user="ulfl" changeset="141861" lat="50.7571656" lon="-1.5465214">
    <tag k="name" v="Marks and Spencer"/>
    <tag k="note" v="Simply Food. Opened 12th June 2007. Was previously site of Waitrose."/>
    <tag k="shop" v="supermarket"/>
  </node>
  <node id="14602038" version="2" timestamp="2010-06-29T19:01:40Z" uid="74617" user="JohnSmith" changeset="5108182" lat="52.1251802" lon="-0.4511156">
    <tag k="fixme" v="sport=football is ambiguous, see http://wiki.osm.org/wiki/Football for more details"/>
    <tag k="sport" v="football"/>
  </node>
  <node id="14602509" version="2" timestamp="2008-02-16T19:24:38Z" uid="6975" user="ulfl" changeset="141861" lat="50.7716836" lon="-1.5510662">
    <tag k="name" v="Somerfield"/>
    <tag k="shop" v="supermarket"/>
  </node>
  <node id="14608100" version="11" timestamp="2009-02-10T12:19:31Z" uid="74027" user="katzlbt" changeset="335506" lat="47.1113683" lon="11.4518031"/>
  <node id="14608106" version="11" timestamp="2009-02-10T12:19:30Z" uid="74027" user="katzlbt" changeset="335506" lat="47.1131139" lon="11.4513383"/>
  <node id="14608132" version="13" timestamp="2009-09-30T12:59:35Z" uid="36809" user="pfoten_weg_!_" changeset="2687886" lat="47.117523" lon="11.4502768">
    <tag k="highway" v="motorway_junction"/>
    <tag k="name" v="Matrei"/>
    <tag k="ref" v="19"/>
  </node>
</osm>
