<?xml version='1.0' encoding='UTF-8'?>
<osm version="0.6" generator="libosmium/2.20.0">
  <node id="148332300" version="17" timestamp="2009-07-22T16:54:27Z" uid="20587" user="balrog-kun" changeset="1906857" lat="40.0027417" lon="-4.0030298">
    <tag k="capital_city" v="Madrid"/>
    <tag k="country_code" v="ES"/>
    <tag k="country_code_fips" v="SP"/>
    <tag k="country_code_iso3166_1_alpha_2" v="ES"/>
    <tag k="is_in:continent" v="Europe"/>
    <tag k="name" v="España"/>
    <tag k="name:ar" v="إسبانيا"/>
    <tag k="name:cy" v="Sbaen"/>
    <tag k="name:da" v="Spanien"/>
    <tag k="name:de" v="Spanien"/>
    <tag k="name:en" v="Spain"/>
    <tag k="name:eo" v="Hispanio"/>
    <tag k="name:es" v="España"/>
    <tag k="name:fi" v="Espanja"/>
    <tag k="name:fr" v="Espagne"/>
    <tag k="name:he" v="ספרד"/>
    <tag k="name:hu" v="Spanyolország"/>
    <tag k="name:nl" v="Spanje"/>
    <tag k="name:pl" v="Hiszpania"/>
    <tag k="name:sl" v="Španija"/>
    <tag k="name:zh" v="西班牙"/>
    <tag k="name:zh_py" v="Xibanya"/>
    <tag k="name:zh_pyt" v="Xībānyá"/>
    <tag k="place" v="country"/>
  </node>
  <node id="148332300" version="18" timestamp="2009-07-22T17:27:24Z" uid="20587" user="balrog-kun" changeset="1907117" lat="40.0027417" lon="-4.0030298">
    <tag k="capital_city" v="Madrid"/>
    <tag k="country_code" v="ES"/>
    <tag k="country_code_fips" v="SP"/>
    <tag k="country_code_iso3166_1_alpha_2" v="ES"/>
    <tag k="is_in:continent" v="Europe"/>
    <tag k="name" v="España"/>
    <tag k="name:ar" v="إسبانيا"/>
    <tag k="name:cy" v="Sbaen"/>
    <tag k="name:da" v="Spanien"/>
    <tag k="name:de" v="Spanien"/>
    <tag k="name:en" v="Spain"/>
    <tag k="name:eo" v="Hispanio"/>
    <tag k="name:es" v="España"/>
    <tag k="name:fi" v="Espanja"/>
    <tag k="name:fr" v="Espagne"/>
    <tag k="name:he" v="ספרד"/>
    <tag k="name:hu" v="Spanyolország"/>
    <tag k="name:nl" v="Spanje"/>
    <tag k="name:pl" v="Hiszpania"/>
    <tag k="name:sl" v="Španija"/>
    <tag k="name:zh" v="西班牙"/>
    <tag k="name:zh_py" v="Xibanya"/>
    <tag k="name:zh_pyt" v="Xībānyá"/>
    <tag k="place" v="country"/>
    <tag k="wikipedia" v="Spain"/>
  </node>
  <node id="148332300" version="19" timestamp="2009-07-22T17:54:05Z" uid="20587" user="balrog-kun" changeset="1907396" lat="40.0027417" lon="-4.0030298">
    <tag k="capital_city" v="Madrid"/>
    <tag k="country_code" v="ES"/>
    <tag k="country_code_fips" v="SP"/>
    <tag k="country_code_iso3166_1_alpha_2" v="ES"/>
    <tag k="is_in:continent" v="Europe"/>
    <tag k="name" v="España"/>
    <tag k="name:ar" v="إسبانيا"/>
    <tag k="name:cy" v="Sbaen"/>
    <tag k="name:da" v="Spanien"/>
    <tag k="name:de" v="Spanien"/>
    <tag k="name:en" v="Spain"/>
    <tag k="name:eo" v="Hispanio"/>
    <tag k="name:es" v="España"/>
    <tag k="name:fi" v="Espanja"/>
    <tag k="name:fr" v="Espagne"/>
    <tag k="name:he" v="ספרד"/>
    <tag k="name:hu" v="Spanyolország"/>
    <tag k="name:nl" v="Spanje"/>
    <tag k="name:pl" v="Hiszpania"/>
    <tag k="name:sl" v="Španija"/>
    <tag k="name:zh" v="西班牙"/>
    <tag k="name:zh_py" v="Xibanya"/>
    <tag k="name:zh_pyt" v="Xībānyá"/>
    <tag k="official_name" v="Reino de España"/>
    <tag k="official_name:en" v="Kingdom of Spain"/>
    <tag k="official_name:pl" v="Królestwo Hiszpanii"/>
    <tag k="place" v="country"/>
    <tag k="wikipedia" v="Spain"/>
  </node>
  <node id="148334248" version="14" timestamp="2009-07-22T17:27:23Z" uid="20587" user="balrog-kun" changeset="1907117" lat="39.4999613" lon="-8.0074031">
    <tag k="capital_city" v="Lisbon"/>
    <tag k="country_code" v="PT"/>
    <tag k="country_code_fips" v="PO"/>
    <tag k="country_code_iso3166_1_alpha_2" v="PT"/>
    <tag k="is_in:continent" v="Europe"/>
    <tag k="name" v="Portugal"/>
    <tag k="name:ar" v="البرتغال"/>
    <tag k="name:cy" v="Portiwgal"/>
    <tag k="name:da" v="Portugal"/>
    <tag k="name:de" v="Portugal"/>
    <tag k="name:en" v="Portugal"/>
    <tag k="name:eo" v="Portugalio"/>
    <tag k="name:fi" v="Portugali"/>
    <tag k="name:fr" v="Portugal"/>
    <tag k="name:he" v="פורטוגל"/>
    <tag k="name:hu" v="Portugália"/>
    <tag k="name:pl" v="Portugalia"/>
    <tag k="name:sl" v="Portugalska"/>
    <tag k="name:zh" v="葡萄牙"/>
    <tag k="name:zh_py" v="Putaoya"/>
    <tag k="name:zh_pyt" v="Pútáoyá"/>
    <tag k="place" v="country"/>
    <tag k="wikipedia" v="Portugal"/>
  </node>
  <node id="148334248" version="15" timestamp="2009-07-22T17:54:03Z" uid="20587" user="balrog-kun" changeset="1907396" lat="39.4999613" lon="-8.0074031">
    <tag k="capital_city" v="Lisbon"/>
    <tag k="country_code" v="PT"/>
    <tag k="country_code_fips" v="PO"/>
    <tag k="country_code_iso3166_1_alpha_2" v="PT"/>
    <tag k="is_in:continent" v="Europe"/>
    <tag k="name" v="Portugal"/>
    <tag k="name:ar" v="البرتغال"/>
    <tag k="name:cy" v="Portiwgal"/>
    <tag k="name:da" v="Portugal"/>
    <tag k="name:de" v="Portugal"/>
    <tag k="name:en" v="Portugal"/>
    <tag k="name:eo" v="Portugalio"/>
    <tag k="name:fi" v="Portugali"/>
    <tag k="name:fr" v="Portugal"/>
    <tag k="name:he" v="פורטוגל"/>
    <tag k="name:hu" v="Portugália"/>
    <tag k="name:pl" v="Portugalia"/>
    <tag k="name:sl" v="Portugalska"/>
    <tag k="name:zh" v="葡萄牙"/>
    <tag k="name:zh_py" v="Putaoya"/>
    <tag k="name:zh_pyt" v="Pútáoyá"/>
    <tag k="official_name" v="República Portuguesa"/>
    <tag k="official_name:en" v="Portuguese Republic"/>
    <tag k="official_name:es" v="República Portuguesa"/>
    <tag k="official_name:pl" v="Republika Portugalska"/>
    <tag k="place" v="country"/>
    <tag k="wikipedia" v="Portugal"/>
  </node>
  <node id="148334465" version="1" timestamp="2007-12-02T17:10:11Z" uid="17602" user="B10xyz" changeset="39735" lat="52.4056319" lon="13.4796578">
    <tag k="created_by" v="JOSM"/>
  </node>
  <node id="148334472" version="1" timestamp="2007-12-02T17:10:11Z" uid="17602" user="B10xyz" changeset="39735" lat="52.4071524" lon="13.481843">
    <tag k="created_by" v="JOSM"/>
  </node>
  <node id="148334476" version="1" timestamp="2007-12-02T17:10:12Z" uid="17602" user="B10xyz" changeset="39735" lat="52.4049293" lon="13.4785166">
    <tag k="created_by" v="JOSM"/>
  </node>
  <node id="148334479" version="1" timestamp="2007-12-02T17:10:12Z" uid="17602" user="B10xyz" changeset="39735" lat="52.4063813" lon="13.480799">
    <tag k="created_by" v="JOSM"/>
  </node>
  <node id="148334479" version="2" timestamp="2007-12-02T18:24:20Z" uid="17602" user="B10xyz" changeset="39735" lat="52.4063813" lon="13.480799"/>
  <node id="148334482" version="1" timestamp="2007-12-02T17:10:12Z" uid="17602" user="B10xyz" changeset="39735" lat="52.407909" lon="13.4828563">
    <tag k="created_by" v="JOSM"/>
  </node>
  <node id="148334486" version="1" timestamp="2007-12-02T17:10:12Z" uid="17602" user="B10xyz" changeset="39735" lat="52.404151" lon="13.4770887">
    <tag k="created_by" v="JOSM"/>
  </node>
  <node id="148334492" version="1" timestamp="2007-12-02T17:10:12Z" uid="17602" user="B10xyz" changeset="39735" lat="52.4056329" lon="13.4886507">
    <tag k="created_by" v="JOSM"/>
  </node>
  <node id="148334498" version="1" timestamp="2007-12-02T17:10:13Z" uid="17602" user="B10xyz" changeset="39735" lat="52.4062033" lon="13.4869953">
    <tag k="created_by" v="JOSM"/>
  </node>
  <node id="148334498" version="2" timestamp="2007-12-02T18:28:16Z" uid="17602" user="B10xyz" changeset="39735" lat="52.406204" lon="13.4869915"/>
  <node id="148334503" version="1" timestamp="2007-12-02T17:10:13Z" uid="17602" user="B10xyz" changeset="39735" lat="52.4070823" lon="13.4848648">
    <tag k="created_by" v="JOSM"/>
  </node>
  <node id="148334510" version="1" timestamp="2007-12-02T17:10:13Z" uid="17602" user="B10xyz" changeset="39735" lat="52.4082698" lon="13.4821058">
    <tag k="created_by" v="JOSM"/>
  </node>
  <node id="148334510" version="2" timestamp="2007-12-02T18:20:58Z" uid="17602" user="B10xyz" changeset="39735" lat="52.4082698" lon="13.4821058"/>
  <node id="148334522" version="1" timestamp="2007-12-02T17:10:13Z" uid="17602" user="B10xyz" changeset="39735" lat="52.4093076" lon="13.4804811">
    <tag k="created_by" v="JOSM"/>
  </node>
  <node id="148334526" version="1" timestamp="2007-12-02T17:10:14Z" uid="17602" user="B10xyz" changeset="39735" lat="52.4096723" lon="13.4800979">
    <tag k="created_by" v="JOSM"/>
    <tag k="highway" v="residential"/>
  </node>
  <node id="148334526" version="2" timestamp="2007-12-02T18:23:51Z" uid="17602" user="B10xyz" changeset="39735" lat="52.4096723" lon="13.4800979"/>
</osm>
