<?xml version='1.0' encoding='UTF-8'?>
<osm version="0.6" generator="libosmium/2.20.0">
  <node id="158680786" version="3" timestamp="2008-02-16T19:15:52Z" uid="6975" user="ulfl" changeset="141861" lat="35.8604262" lon="14.5132523">
    <tag k="key" v="Scott&amp;apos;s"/>
    <tag k="name" v="Scotts"/>
    <tag k="shop" v="supermarket"/>
  </node>
  <node id="158682121" version="4" timestamp="2009-12-09T22:54:09Z" uid="200463" user="harmagedon" changeset="3337772" lat="47.5744201" lon="8.4731194"/>
  <node id="158684222" version="3" timestamp="2008-07-03T01:19:07Z" uid="6975" user="ulfl" changeset="377243" lat="60.201683" lon="25.0605287">
    <tag k="is_in" v="Helsinki, Finland"/>
    <tag k="name" v="Mikromaja"/>
    <tag k="shop" v="computer"/>
  </node>
  <node id="158685517" version="2" timestamp="2008-07-03T16:07:30Z" uid="6975" user="ulfl" changeset="378199" lat="60.2097777" lon="25.0767421">
    <tag k="name" v="R-kioski"/>
    <tag k="shop" v="kiosk"/>
  </node>
  <node id="158686154" version="2" timestamp="2008-07-03T16:07:24Z" uid="6975" user="ulfl" changeset="378199" lat="60.2105154" lon="25.0792312">
    <tag k="is_in" v="Helsinki, Finland"/>
    <tag k="name" v="Metrokioski"/>
    <tag k="shop" v="kiosk"/>
  </node>
</osm>
