<?xml version='1.0' encoding='UTF-8'?>
<osm version="0.6" generator="libosmium/2.20.0">
  <node id="161421961" version="3" timestamp="2008-07-03T18:23:05Z" uid="6975" user="ulfl" changeset="379368" lat="46.186084" lon="21.3254165">
    <tag k="amenity" v="bank"/>
    <tag k="atm" v="yes"/>
    <tag k="name" v="Bancpost"/>
  </node>
  <node id="161423316" version="3" timestamp="2008-07-03T18:23:05Z" uid="6975" user="ulfl" changeset="379368" lat="46.1867258" lon="21.325674">
    <tag k="amenity" v="bank"/>
    <tag k="atm" v="yes"/>
    <tag k="name" v="CEC"/>
  </node>
  <node id="161423378" version="4" timestamp="2008-07-03T18:22:59Z" uid="6975" user="ulfl" changeset="379368" lat="46.1871061" lon="21.3258457">
    <tag k="amenity" v="bank"/>
    <tag k="atm" v="yes"/>
    <tag k="name" v="BRD"/>
  </node>
  <node id="161425235" version="2" timestamp="2008-07-03T18:23:00Z" uid="6975" user="ulfl" changeset="379368" lat="46.1864228" lon="21.3236999">
    <tag k="amenity" v="bank"/>
    <tag k="atm" v="yes"/>
    <tag k="name" v="BCR"/>
  </node>
</osm>
