<?xml version='1.0' encoding='UTF-8'?>
<osm version="0.6" generator="libosmium/2.20.0">
  <node id="161851205" version="1" timestamp="2007-12-11T12:18:42Z" uid="9581" user="Lobelt" changeset="254463" lat="50.775335" lon="11.5314945">
    <tag k="amenity" v="restaurant"/>
    <tag k="created_by" v="JOSM"/>
    <tag k="name" v="Mittelkreisperle"/>
  </node>
  <node id="161851205" version="2" timestamp="2009-02-11T11:37:00Z" uid="9581" user="Lobelt" changeset="344494" lat="50.775335" lon="11.5314945">
    <tag k="amenity" v="cafe"/>
    <tag k="created_by" v="JOSM"/>
    <tag k="name" v="Mittelkreisperle"/>
  </node>
  <node id="161851205" version="3" timestamp="2010-08-22T19:47:05Z" uid="9581" user="Lobelt" changeset="5564947" lat="50.775335" lon="11.5314945">
    <tag k="amenity" v="cafe"/>
    <tag k="name" v="Mittelkreisperle"/>
  </node>
  <node id="161851205" version="4" timestamp="2010-08-22T20:25:00Z" uid="9581" user="Lobelt" changeset="5565397" lat="50.7753371" lon="11.5315034">
    <tag k="addr:city" v="Orlamünde"/>
    <tag k="addr:housenumber" v="42"/>
    <tag k="addr:postcode" v="07768"/>
    <tag k="addr:street" v="Mittelkreis"/>
    <tag k="amenity" v="cafe"/>
    <tag k="name" v="Mittelkreisperle"/>
  </node>
  <node id="161851210" version="1" timestamp="2007-12-11T12:18:42Z" uid="9581" user="Lobelt" changeset="254463" lat="50.77807" lon="11.5487314">
    <tag k="created_by" v="JOSM"/>
  </node>
  <node id="161851210" version="2" timestamp="2008-12-02T12:24:46Z" uid="9581" user="Lobelt" changeset="47583" lat="50.77807" lon="11.5487314">
    <tag k="created_by" v="JOSM"/>
    <tag k="name" v="Orlamünde"/>
    <tag k="traffic_sign" v="city_limit"/>
  </node>
  <node id="161851210" version="3" timestamp="2010-06-08T16:52:26Z" uid="9581" user="Lobelt" changeset="4938634" lat="50.77807" lon="11.5487314">
    <tag k="name" v="Orlamünde"/>
    <tag k="traffic_sign" v="city_limit"/>
  </node>
  <node id="161859726" version="2" timestamp="2009-02-01T11:00:52Z" uid="9581" user="Lobelt" changeset="9317" lat="51.051811" lon="13.346366">
    <tag k="created_by" v="JOSM"/>
  </node>
  <node id="161859728" version="2" timestamp="2009-02-01T11:00:53Z" uid="9581" user="Lobelt" changeset="9317" lat="51.0518674" lon="13.3458198">
    <tag k="created_by" v="JOSM"/>
  </node>
  <node id="161859729" version="2" timestamp="2009-02-01T11:00:53Z" uid="9581" user="Lobelt" changeset="9317" lat="51.0519491" lon="13.3451536">
    <tag k="created_by" v="JOSM"/>
  </node>
  <node id="161859730" version="2" timestamp="2009-02-01T11:00:53Z" uid="9581" user="Lobelt" changeset="9317" lat="51.0520677" lon="13.3445519">
    <tag k="created_by" v="JOSM"/>
  </node>
  <node id="161859731" version="2" timestamp="2009-02-01T11:00:52Z" uid="9581" user="Lobelt" changeset="9317" lat="51.0522587" lon="13.3437518">
    <tag k="created_by" v="JOSM"/>
  </node>
</osm>
