<?xml version='1.0' encoding='UTF-8'?>
<osm version="0.6" generator="libosmium/2.20.0">
  <node id="162831774" version="2" timestamp="2008-06-20T22:54:41Z" uid="34428" user="usm78-gis" changeset="250112" lat="60.0772985" lon="30.2005931"/>
  <node id="162831777" version="2" timestamp="2008-06-20T22:54:41Z" uid="34428" user="usm78-gis" changeset="250112" lat="60.0774056" lon="30.201563"/>
  <node id="162837248" version="2" timestamp="2008-09-30T10:25:12Z" uid="1066" user="pavel" changeset="720911" lat="49.557811" lon="15.853037">
    <tag k="is_in" v="Czech Republic, Europe"/>
    <tag k="name" v="Sázava"/>
    <tag k="place" v="village"/>
    <tag k="source" v="UHUL:ortofoto"/>
  </node>
  <node id="162837261" version="2" timestamp="2008-09-30T10:12:47Z" uid="1066" user="pavel" changeset="720911" lat="49.426009" lon="16.025784">
    <tag k="is_in" v="Czech Republic, Europe"/>
    <tag k="name" v="Bory"/>
    <tag k="place" v="village"/>
    <tag k="source" v="UHUL:ortofoto"/>
  </node>
  <node id="162837333" version="2" timestamp="2008-09-30T10:20:09Z" uid="1066" user="pavel" changeset="720911" lat="49.359872" lon="15.652125">
    <tag k="is_in" v="Czech Republic, Europe"/>
    <tag k="name" v="Puklice"/>
    <tag k="place" v="village"/>
    <tag k="source" v="UHUL:ortofoto"/>
  </node>
  <node id="162837507" version="2" timestamp="2008-09-30T10:03:50Z" uid="1066" user="pavel" changeset="720911" lat="49.646706" lon="16.121745">
    <tag k="is_in" v="Czech Republic, Europe"/>
    <tag k="name" v="Sněžné"/>
    <tag k="place" v="village"/>
    <tag k="source" v="UHUL:ortofoto"/>
  </node>
</osm>
