<?xml version='1.0' encoding='UTF-8'?>
<osm version="0.6" generator="libosmium/2.20.0">
  <node id="171332937" version="4" timestamp="2009-08-09T21:49:59Z" uid="6975" user="ulfl" changeset="2091477" lat="50.104989" lon="9.5255496">
    <tag k="addr:city" v="Lohr-Ruppertshütten"/>
    <tag k="addr:country" v="D"/>
    <tag k="addr:housenumber" v="85"/>
    <tag k="addr:postcode" v="97816"/>
    <tag k="addr:street" v="Schanzstraße"/>
    <tag k="amenity" v="restaurant"/>
    <tag k="name" v="Waldschänke Bayrische Schanz"/>
    <tag k="phone" v="09355 618"/>
    <tag k="tourism" v="guest_house"/>
  </node>
  <node id="171334435" version="2" timestamp="2010-01-17T20:35:44Z" uid="1066" user="pavel" changeset="3645411" lat="50.126578" lon="14.5751765"/>
  <node id="171334436" version="2" timestamp="2010-01-17T20:35:44Z" uid="1066" user="pavel" changeset="3645411" lat="50.1266351" lon="14.5751816"/>
  <node id="171334437" version="2" timestamp="2010-01-17T20:35:44Z" uid="1066" user="pavel" changeset="3645411" lat="50.1266787" lon="14.575021"/>
  <node id="171334439" version="2" timestamp="2010-01-17T20:35:44Z" uid="1066" user="pavel" changeset="3645411" lat="50.126584" lon="14.5748097"/>
</osm>
