<?xml version='1.0' encoding='UTF-8'?>
<osm version="0.6" generator="libosmium/2.20.0">
  <node id="173880175" version="3" timestamp="2009-10-07T16:47:25Z" uid="86259" user="hasse_osm_korinthenkacker" changeset="2773624" lat="47.6023644" lon="12.9242078">
    <tag k="amenity" v="parking"/>
    <tag k="fee" v="yes"/>
    <tag k="name" v="Parkplatz Wimbachbrücke"/>
  </node>
  <node id="173880175" version="4" timestamp="2009-10-08T18:27:57Z" uid="86259" user="hasse_osm_korinthenkacker" changeset="2785814" lat="47.6023644" lon="12.9242078">
    <tag k="amenity" v="parking"/>
    <tag k="fee" v="yes"/>
    <tag k="name" v="Parkplatz Wimbachbrücke"/>
  </node>
  <node id="173882245" version="3" timestamp="2009-10-07T16:47:42Z" uid="86259" user="hasse_osm_korinthenkacker" changeset="2773624" lat="47.60372" lon="12.9493304">
    <tag k="amenity" v="parking"/>
    <tag k="fee" v="yes"/>
    <tag k="name" v="Parkplatz Hammerstiel"/>
  </node>
  <node id="173882245" version="4" timestamp="2009-10-08T18:30:44Z" uid="86259" user="hasse_osm_korinthenkacker" changeset="2785814" lat="47.60372" lon="12.9493304">
    <tag k="amenity" v="parking"/>
    <tag k="fee" v="yes"/>
    <tag k="name" v="Parkplatz Hammerstiel"/>
  </node>
  <node id="173883529" version="5" timestamp="2009-10-07T16:47:43Z" uid="86259" user="hasse_osm_korinthenkacker" changeset="2773624" lat="47.5929094" lon="12.9618999">
    <tag k="amenity" v="restaurant"/>
    <tag k="name" v="Grünsteinhütte"/>
  </node>
  <node id="173883529" version="6" timestamp="2009-10-08T18:30:48Z" uid="86259" user="hasse_osm_korinthenkacker" changeset="2785814" lat="47.5929094" lon="12.9618999">
    <tag k="amenity" v="restaurant"/>
    <tag k="name" v="Grünsteinhütte"/>
  </node>
  <node id="173883540" version="3" timestamp="2009-10-07T16:48:10Z" uid="86259" user="hasse_osm_korinthenkacker" changeset="2773624" lat="47.5943198" lon="12.9655742">
    <tag k="ele" v="1304"/>
    <tag k="name" v="Grünstein"/>
    <tag k="natural" v="peak"/>
  </node>
  <node id="173883540" version="4" timestamp="2009-10-08T18:34:18Z" uid="86259" user="hasse_osm_korinthenkacker" changeset="2785814" lat="47.5943198" lon="12.9655742">
    <tag k="ele" v="1304"/>
    <tag k="name" v="Grünstein"/>
    <tag k="natural" v="peak"/>
  </node>
  <node id="173888515" version="3" timestamp="2009-10-07T16:52:33Z" uid="86259" user="hasse_osm_korinthenkacker" changeset="2773624" lat="47.5952438" lon="13.0220815">
    <tag k="amenity" v="parking"/>
    <tag k="fee" v="yes"/>
    <tag k="name" v="Parkplatz Hinterbrand"/>
  </node>
  <node id="173888515" version="4" timestamp="2009-10-08T19:32:20Z" uid="86259" user="hasse_osm_korinthenkacker" changeset="2785814" lat="47.5952438" lon="13.0220815">
    <tag k="amenity" v="parking"/>
    <tag k="fee" v="yes"/>
    <tag k="name" v="Parkplatz Hinterbrand"/>
  </node>
</osm>
