<?xml version='1.0' encoding='UTF-8'?>
<osm version="0.6" generator="libosmium/2.20.0">
  <node id="17401490" version="5" timestamp="2009-07-26T01:48:37Z" uid="123700" user="Mala" changeset="1939972" lat="51.062188" lon="3.710209">
    <tag k="is_in" v="Oost-Vlaanderen, Belgium, Europe"/>
    <tag k="is_in:continent" v="Europe"/>
    <tag k="name" v="Gent"/>
    <tag k="name:es" v="Gante"/>
    <tag k="name:fr" v="Gand"/>
    <tag k="name:it" v="Gand"/>
    <tag k="name:la" v="Gandavum"/>
    <tag k="name:lt" v="Gentas"/>
    <tag k="name:lv" v="Ģente"/>
    <tag k="name:pl" v="Gandawa"/>
    <tag k="name:pt" v="Gante"/>
    <tag k="openGeoDB:auto_update" v="population"/>
    <tag k="openGeoDB:is_in" v="Gent,Gent,Gent,Gent,Oost-Vlaanderen,Oost-Vlaanderen,Vlaanderen,Vlaanderen,Belgique,Belgique,Europe"/>
    <tag k="openGeoDB:is_in_loc_id" v="35283"/>
    <tag k="openGeoDB:layer" v="7"/>
    <tag k="openGeoDB:loc_id" v="33172"/>
    <tag k="openGeoDB:name" v="Gent,Gent"/>
    <tag k="openGeoDB:postal_codes" v="9000"/>
    <tag k="openGeoDB:sort_name" v="GENT"/>
    <tag k="openGeoDB:type" v="100600000"/>
    <tag k="openGeoDB:version" v="0.2.6.11 / 2007-12-04 / http://fa-technik.adfc.de/code/opengeodb/dump/"/>
    <tag k="opengeodb:lat" v="51.062188"/>
    <tag k="opengeodb:lon" v="3.710209"/>
    <tag k="place" v="city"/>
    <tag k="wikipedia" v="Ghent"/>
  </node>
  <node id="17401554" version="22" timestamp="2009-07-26T01:48:37Z" uid="123700" user="Mala" changeset="1939972" lat="50.8465295" lon="4.3518256">
    <tag k="capital" v="yes"/>
    <tag k="is_in" v="Belgium, Europe"/>
    <tag k="is_in:continent" v="Europe"/>
    <tag k="name" v="Brussel - Bruxelles"/>
    <tag k="name:cs" v="Brusel"/>
    <tag k="name:de" v="Brüssel"/>
    <tag k="name:en" v="Brussels"/>
    <tag k="name:es" v="Bruselas"/>
    <tag k="name:fi" v="Bryssel"/>
    <tag k="name:fr" v="Bruxelles"/>
    <tag k="name:he" v="בריסל"/>
    <tag k="name:it" v="Bruxelles"/>
    <tag k="name:la" v="Bruxellae"/>
    <tag k="name:lt" v="Briuselis"/>
    <tag k="name:lv" v="Brisele"/>
    <tag k="name:nl" v="Brussel"/>
    <tag k="name:pl" v="Bruksela"/>
    <tag k="name:pt" v="Bruxelas"/>
    <tag k="name:sv" v="Bryssel"/>
    <tag k="name:tr" v="Brüksel"/>
    <tag k="place" v="city"/>
    <tag k="population" v="148000"/>
    <tag k="wikipedia" v="Brussels"/>
  </node>
  <node id="17401575" version="7" timestamp="2009-07-26T01:48:36Z" uid="123700" user="Mala" changeset="1939972" lat="51.2082895" lon="3.2260111">
    <tag k="is_in" v="West-Vlaanderen, Belgium, Europe"/>
    <tag k="is_in:continent" v="Europe"/>
    <tag k="name" v="Brugge"/>
    <tag k="name:cs" v="Bruggy"/>
    <tag k="name:es" v="Brujas"/>
    <tag k="name:fr" v="Bruges"/>
    <tag k="name:it" v="Bruges"/>
    <tag k="name:la" v="Brugae"/>
    <tag k="name:lt" v="Briugė"/>
    <tag k="name:lv" v="Brige"/>
    <tag k="name:pl" v="Brugia"/>
    <tag k="name:pt" v="Bruges"/>
    <tag k="name:sv" v="Brygge"/>
    <tag k="name:tr" v="Brüj"/>
    <tag k="openGeoDB:auto_update" v="population"/>
    <tag k="openGeoDB:is_in" v="Brugge,Brugge,Brugge,Brugge,West-Vlaanderen,West-Vlaanderen,Vlaanderen,Vlaanderen,Belgique,Belgique,Europe"/>
    <tag k="openGeoDB:is_in_loc_id" v="35379"/>
    <tag k="openGeoDB:layer" v="7"/>
    <tag k="openGeoDB:loc_id" v="32752"/>
    <tag k="openGeoDB:name" v="Brugge,Brugge"/>
    <tag k="openGeoDB:postal_codes" v="8000"/>
    <tag k="openGeoDB:sort_name" v="BRUGGE"/>
    <tag k="openGeoDB:type" v="100600000"/>
    <tag k="openGeoDB:version" v="0.2.6.11 / 2007-12-04 / http://fa-technik.adfc.de/code/opengeodb/dump/"/>
    <tag k="opengeodb:lat" v="51.2082895"/>
    <tag k="opengeodb:lon" v="3.2260111"/>
    <tag k="place" v="city"/>
    <tag k="wikipedia" v="Bruges"/>
  </node>
  <node id="17401813" version="12" timestamp="2008-12-14T02:17:14Z" uid="6975" user="ulfl" changeset="365670" lat="50.6389788" lon="3.0763163">
    <tag k="name" v="Gare Lille Europe"/>
    <tag k="railway" v="station"/>
  </node>
  <node id="17401936" version="2" timestamp="2008-02-16T19:31:00Z" uid="6975" user="ulfl" changeset="141861" lat="51.7505365" lon="-0.3302561">
    <tag k="name" v="Iceland"/>
    <tag k="shop" v="supermarket"/>
  </node>
  <node id="17402712" version="1" timestamp="2007-09-18T21:47:54Z" uid="8328" user="benpre" changeset="469653" lat="48.7892454" lon="8.0687617">
    <tag k="created_by" v="JOSM"/>
  </node>
  <node id="17406419" version="2" timestamp="2010-05-13T17:42:27Z" uid="49111" user="Markus B" changeset="4688772" lat="39.1849948" lon="23.5071201">
    <tag k="source" v="Landsat photo"/>
  </node>
  <node id="17406420" version="2" timestamp="2010-05-13T17:42:27Z" uid="49111" user="Markus B" changeset="4688772" lat="39.1702076" lon="23.5006178">
    <tag k="source" v="Landsat photo"/>
  </node>
  <node id="17408412" version="2" timestamp="2009-12-16T18:24:55Z" uid="9581" user="Lobelt" changeset="3388581" lat="49.5473847" lon="8.6576611"/>
  <node id="17408418" version="2" timestamp="2009-12-14T19:45:07Z" uid="9581" user="Lobelt" changeset="3374487" lat="49.5464862" lon="8.6577914"/>
  <node id="17408419" version="2" timestamp="2009-12-14T19:45:07Z" uid="9581" user="Lobelt" changeset="3374487" lat="49.5465652" lon="8.657401"/>
  <node id="17408420" version="2" timestamp="2009-12-14T19:45:05Z" uid="9581" user="Lobelt" changeset="3374487" lat="49.5466876" lon="8.6565942"/>
  <node id="17408421" version="3" timestamp="2009-12-14T19:45:05Z" uid="9581" user="Lobelt" changeset="3374487" lat="49.546744" lon="8.6557859"/>
  <node id="17408422" version="3" timestamp="2009-12-14T19:45:05Z" uid="9581" user="Lobelt" changeset="3374487" lat="49.5473383" lon="8.6556863"/>
  <node id="17408422" version="4" timestamp="2009-12-17T18:31:25Z" uid="9581" user="Lobelt" changeset="3395897" lat="49.5473114" lon="8.6556835"/>
  <node id="17408425" version="3" timestamp="2009-12-20T21:00:01Z" uid="9581" user="Lobelt" changeset="3416925" lat="49.542275" lon="8.648695"/>
  <node id="17408426" version="3" timestamp="2009-12-20T21:00:02Z" uid="9581" user="Lobelt" changeset="3416925" lat="49.5428295" lon="8.6486711"/>
  <node id="17408431" version="3" timestamp="2009-12-18T21:11:47Z" uid="9581" user="Lobelt" changeset="3403439" lat="49.5457793" lon="8.6506334"/>
  <node id="17408434" version="4" timestamp="2010-07-27T21:08:37Z" uid="9581" user="Lobelt" changeset="5333529" lat="49.5473133" lon="8.6533451"/>
  <node id="17408440" version="4" timestamp="2010-08-17T18:51:58Z" uid="9581" user="Lobelt" changeset="5520531" lat="49.5517668" lon="8.6571293"/>
  <node id="17408462" version="3" timestamp="2010-10-03T20:16:45Z" uid="9581" user="Lobelt" changeset="5948350" lat="49.5457178" lon="8.6672326"/>
  <node id="17408463" version="5" timestamp="2010-10-03T20:16:39Z" uid="9581" user="Lobelt" changeset="5948350" lat="49.5449768" lon="8.6665756"/>
  <node id="17408464" version="3" timestamp="2010-10-03T20:16:44Z" uid="9581" user="Lobelt" changeset="5948350" lat="49.5443304" lon="8.6658179"/>
  <node id="17408465" version="3" timestamp="2010-10-03T20:16:38Z" uid="9581" user="Lobelt" changeset="5948350" lat="49.5441622" lon="8.6657011"/>
  <node id="17408466" version="3" timestamp="2010-10-03T20:16:50Z" uid="9581" user="Lobelt" changeset="5948350" lat="49.5440481" lon="8.6656938"/>
  <node id="17408467" version="18" timestamp="2010-10-03T20:16:45Z" uid="9581" user="Lobelt" changeset="5948350" lat="49.5426259" lon="8.6653295"/>
  <node id="17408468" version="2" timestamp="2010-10-03T20:16:48Z" uid="9581" user="Lobelt" changeset="5948350" lat="49.5470491" lon="8.6685978"/>
  <node id="17408471" version="2" timestamp="2008-07-03T21:18:52Z" uid="4667" user="MapZ" changeset="390188" lat="49.5408529" lon="8.6623251">
    <tag k="created_by" v="JOSM"/>
  </node>
  <node id="17408472" version="2" timestamp="2008-07-03T21:18:51Z" uid="4667" user="MapZ" changeset="390188" lat="49.5406409" lon="8.6620841">
    <tag k="created_by" v="JOSM"/>
  </node>
  <node id="17408473" version="15" timestamp="2009-12-14T19:45:06Z" uid="9581" user="Lobelt" changeset="3374487" lat="49.5404085" lon="8.661835"/>
  <node id="17408478" version="11" timestamp="2009-12-14T19:45:06Z" uid="9581" user="Lobelt" changeset="3374487" lat="49.53971" lon="8.660435"/>
  <node id="17408479" version="11" timestamp="2009-06-20T17:03:55Z" uid="9581" user="Lobelt" changeset="1576547" lat="49.5389021" lon="8.6598796"/>
  <node id="17408480" version="17" timestamp="2009-06-20T17:03:54Z" uid="9581" user="Lobelt" changeset="1576547" lat="49.538528" lon="8.6598241"/>
  <node id="17408480" version="18" timestamp="2009-12-14T19:45:05Z" uid="9581" user="Lobelt" changeset="3374487" lat="49.538505" lon="8.6598217"/>
  <node id="17408481" version="11" timestamp="2009-06-20T17:03:54Z" uid="9581" user="Lobelt" changeset="1576547" lat="49.5384118" lon="8.6598631"/>
  <node id="17408481" version="12" timestamp="2010-09-08T18:55:10Z" uid="9581" user="Lobelt" changeset="5726799" lat="49.5384118" lon="8.6598221"/>
  <node id="17408482" version="11" timestamp="2009-06-20T17:03:54Z" uid="9581" user="Lobelt" changeset="1576547" lat="49.538197" lon="8.6599349">
    <tag k="name" v="Weinheim"/>
    <tag k="traffic_sign" v="city_limit"/>
  </node>
  <node id="17408482" version="12" timestamp="2010-09-08T18:55:09Z" uid="9581" user="Lobelt" changeset="5726799" lat="49.538197" lon="8.6598803">
    <tag k="name" v="Weinheim"/>
    <tag k="traffic_sign" v="city_limit"/>
  </node>
  <node id="17408483" version="11" timestamp="2009-06-20T17:03:54Z" uid="9581" user="Lobelt" changeset="1576547" lat="49.5379554" lon="8.6600071"/>
  <node id="17408483" version="12" timestamp="2010-09-08T18:55:05Z" uid="9581" user="Lobelt" changeset="5726799" lat="49.5379554" lon="8.6599661"/>
  <node id="17408484" version="2" timestamp="2008-07-03T21:18:51Z" uid="4667" user="MapZ" changeset="390188" lat="49.5377457" lon="8.6597792">
    <tag k="created_by" v="JOSM"/>
  </node>
  <node id="17408484" version="11" timestamp="2010-10-03T20:16:43Z" uid="9581" user="Lobelt" changeset="5948350" lat="49.5377537" lon="8.6598242"/>
</osm>
