<?xml version='1.0' encoding='UTF-8'?>
<osm version="0.6" generator="libosmium/2.20.0">
  <node id="175670002" version="2" timestamp="2008-01-11T18:31:22Z" uid="9581" user="Lobelt" changeset="606174" lat="51.7276787" lon="14.3211616">
    <tag k="created_by" v="JOSM"/>
  </node>
  <node id="175670006" version="3" timestamp="2008-01-11T18:31:12Z" uid="9581" user="Lobelt" changeset="606174" lat="51.7278147" lon="14.3192591">
    <tag k="created_by" v="JOSM"/>
  </node>
  <node id="175670010" version="2" timestamp="2008-01-11T18:31:23Z" uid="9581" user="Lobelt" changeset="606174" lat="51.7277894" lon="14.3193581">
    <tag k="created_by" v="JOSM"/>
  </node>
  <node id="175670014" version="2" timestamp="2008-01-11T18:31:17Z" uid="9581" user="Lobelt" changeset="606174" lat="51.7276926" lon="14.3197377">
    <tag k="created_by" v="JOSM"/>
  </node>
  <node id="175670061" version="3" timestamp="2008-01-11T18:31:16Z" uid="9581" user="Lobelt" changeset="606174" lat="51.7283457" lon="14.3189451">
    <tag k="created_by" v="JOSM"/>
  </node>
  <node id="175670067" version="2" timestamp="2008-01-11T18:31:22Z" uid="9581" user="Lobelt" changeset="606174" lat="51.7256536" lon="14.3176342">
    <tag k="created_by" v="JOSM"/>
  </node>
  <node id="175670099" version="2" timestamp="2008-01-11T18:31:19Z" uid="9581" user="Lobelt" changeset="606174" lat="51.7260246" lon="14.3178613">
    <tag k="created_by" v="JOSM"/>
    <tag k="highway" v="footway"/>
  </node>
  <node id="175671176" version="2" timestamp="2010-02-14T03:35:51Z" uid="23543" user="jkjk" changeset="3870354" lat="38.2918759" lon="38.0492985"/>
  <node id="175673121" version="4" timestamp="2010-01-18T14:19:54Z" uid="33382" user="de_muur" changeset="3650503" lat="53.0464473" lon="8.8940637">
    <tag k="name" v="Schlecker"/>
    <tag k="shop" v="chemist"/>
  </node>
  <node id="175673283" version="2" timestamp="2010-01-09T13:57:51Z" uid="33382" user="de_muur" changeset="3577868" lat="53.0386407" lon="8.9304393"/>
  <node id="175673291" version="2" timestamp="2008-10-14T16:07:41Z" uid="33382" user="de_muur" changeset="333433" lat="53.0377045" lon="8.9349012">
    <tag k="created_by" v="JOSM"/>
    <tag k="name" v="Aldi"/>
    <tag k="shop" v="supermarket"/>
  </node>
  <node id="175673409" version="3" timestamp="2009-12-06T19:55:03Z" uid="33382" user="de_muur" changeset="3309390" lat="53.0333304" lon="8.9518762"/>
  <node id="175673410" version="3" timestamp="2009-12-06T19:55:03Z" uid="33382" user="de_muur" changeset="3309390" lat="53.0320456" lon="8.9519581">
    <tag k="traffic_sign" v="city_limit"/>
  </node>
  <node id="175673411" version="3" timestamp="2009-12-06T19:55:03Z" uid="33382" user="de_muur" changeset="3309390" lat="53.0323164" lon="8.9519303"/>
  <node id="175673427" version="2" timestamp="2009-12-06T19:55:03Z" uid="33382" user="de_muur" changeset="3309390" lat="53.03312" lon="8.9518639"/>
  <node id="175673452" version="3" timestamp="2009-10-03T10:08:47Z" uid="33382" user="de_muur" changeset="2721676" lat="53.0338771" lon="8.9541837">
    <tag k="addr:city" v="Achim"/>
    <tag k="addr:country" v="DE"/>
    <tag k="addr:housenumber" v="110"/>
    <tag k="addr:postcode" v="28832"/>
    <tag k="addr:street" v="Uphuser Heerstraße"/>
    <tag k="amenity" v="bank"/>
    <tag k="name" v="Kreissparkasse Verden"/>
  </node>
  <node id="175673452" version="4" timestamp="2009-10-03T15:01:14Z" uid="33382" user="de_muur" changeset="2724999" lat="53.0338771" lon="8.9541837">
    <tag k="addr:city" v="Achim"/>
    <tag k="addr:country" v="DE"/>
    <tag k="addr:housenumber" v="110"/>
    <tag k="addr:phone" v="04202916610"/>
    <tag k="addr:postcode" v="28832"/>
    <tag k="addr:street" v="Uphuser Heerstraße"/>
    <tag k="amenity" v="bank"/>
    <tag k="name" v="Kreissparkasse Verden"/>
  </node>
  <node id="175674026" version="4" timestamp="2009-10-03T10:08:47Z" uid="33382" user="de_muur" changeset="2721676" lat="53.0326318" lon="8.9588794">
    <tag k="addr:city" v="Achim"/>
    <tag k="addr:country" v="DE"/>
    <tag k="addr:housenumber" v="95"/>
    <tag k="addr:postcode" v="28832"/>
    <tag k="addr:street" v="Uphuser Heerstraße"/>
    <tag k="amenity" v="post_box"/>
  </node>
  <node id="175674026" version="5" timestamp="2009-10-05T14:10:40Z" uid="33382" user="de_muur" changeset="2750421" lat="53.0326318" lon="8.9588794">
    <tag k="addr:city" v="Achim"/>
    <tag k="addr:country" v="DE"/>
    <tag k="addr:housenumber" v="95"/>
    <tag k="addr:postcode" v="28832"/>
    <tag k="addr:street" v="Uphuser Heerstraße"/>
    <tag k="amenity" v="post_box"/>
  </node>
  <node id="175674028" version="5" timestamp="2010-01-06T20:06:44Z" uid="33382" user="de_muur" changeset="3556763" lat="53.0306912" lon="8.9644609"/>
  <node id="175674039" version="5" timestamp="2010-01-06T20:06:47Z" uid="33382" user="de_muur" changeset="3556763" lat="53.0304268" lon="8.9649941"/>
  <node id="175674039" version="6" timestamp="2011-01-30T16:38:38Z" uid="33382" user="de_muur" changeset="7136208" lat="53.0304273" lon="8.9649943"/>
  <node id="175674086" version="5" timestamp="2010-01-06T20:06:46Z" uid="33382" user="de_muur" changeset="3556763" lat="53.0300935" lon="8.9655641"/>
  <node id="175674086" version="6" timestamp="2011-01-30T16:38:38Z" uid="33382" user="de_muur" changeset="7136208" lat="53.0300946" lon="8.9655647"/>
  <node id="175674091" version="5" timestamp="2010-01-06T20:06:46Z" uid="33382" user="de_muur" changeset="3556763" lat="53.0298618" lon="8.9661196"/>
  <node id="175674100" version="5" timestamp="2010-01-06T20:06:45Z" uid="33382" user="de_muur" changeset="3556763" lat="53.0296154" lon="8.9667717"/>
  <node id="175674100" version="6" timestamp="2011-01-30T16:38:37Z" uid="33382" user="de_muur" changeset="7136208" lat="53.0296169" lon="8.9668077"/>
  <node id="175674104" version="5" timestamp="2010-01-06T20:06:47Z" uid="33382" user="de_muur" changeset="3556763" lat="53.0294435" lon="8.9676631"/>
  <node id="175674107" version="2" timestamp="2008-06-01T14:46:20Z" uid="33382" user="de_muur" changeset="13152" lat="53.0292529" lon="8.9689022">
    <tag k="created_by" v="JOSM"/>
  </node>
  <node id="175674107" version="6" timestamp="2010-01-06T20:06:47Z" uid="33382" user="de_muur" changeset="3556763" lat="53.0292825" lon="8.9689088"/>
  <node id="175674136" version="5" timestamp="2011-02-22T16:03:13Z" uid="33382" user="de_muur" changeset="7364684" lat="53.0262999" lon="8.9778796"/>
  <node id="175674142" version="5" timestamp="2010-01-06T17:24:01Z" uid="33382" user="de_muur" changeset="3555488" lat="53.0234545" lon="8.9870615"/>
  <node id="175674146" version="5" timestamp="2010-01-06T17:24:01Z" uid="33382" user="de_muur" changeset="3555488" lat="53.0227646" lon="8.9897815"/>
  <node id="175674150" version="2" timestamp="2008-07-19T21:33:11Z" uid="33382" user="de_muur" changeset="542699" lat="53.0167823" lon="9.0155346">
    <tag k="created_by" v="JOSM"/>
  </node>
  <node id="175674150" version="3" timestamp="2010-06-20T17:27:45Z" uid="33382" user="de_muur" changeset="5035126" lat="53.0167645" lon="9.0155228"/>
  <node id="175674150" version="4" timestamp="2011-01-08T16:03:07Z" uid="33382" user="de_muur" changeset="6905435" lat="53.0167494" lon="9.0154852"/>
  <node id="175674154" version="2" timestamp="2011-01-08T16:03:08Z" uid="33382" user="de_muur" changeset="6905435" lat="53.0164928" lon="9.0162362"/>
  <node id="175674161" version="2" timestamp="2011-01-09T08:12:46Z" uid="33382" user="de_muur" changeset="6912325" lat="53.013041" lon="9.0249997"/>
  <node id="175674163" version="2" timestamp="2011-01-09T08:12:47Z" uid="33382" user="de_muur" changeset="6912325" lat="53.012787" lon="9.0257959"/>
  <node id="175674171" version="2" timestamp="2010-01-17T13:19:57Z" uid="33382" user="de_muur" changeset="3640801" lat="53.0126969" lon="9.0262833"/>
  <node id="175674175" version="2" timestamp="2010-01-17T13:19:57Z" uid="33382" user="de_muur" changeset="3640801" lat="53.0126617" lon="9.0267371"/>
  <node id="175674175" version="3" timestamp="2011-01-09T08:12:48Z" uid="33382" user="de_muur" changeset="6912325" lat="53.0126617" lon="9.0267371"/>
  <node id="175674179" version="2" timestamp="2010-01-17T13:19:57Z" uid="33382" user="de_muur" changeset="3640801" lat="53.0125519" lon="9.0276578"/>
  <node id="175674179" version="3" timestamp="2011-01-09T08:12:46Z" uid="33382" user="de_muur" changeset="6912325" lat="53.0125781" lon="9.0272084"/>
  <node id="175674185" version="3" timestamp="2010-01-17T13:19:57Z" uid="33382" user="de_muur" changeset="3640801" lat="53.0123566" lon="9.028919"/>
  <node id="175674190" version="3" timestamp="2010-06-20T17:27:45Z" uid="33382" user="de_muur" changeset="5035126" lat="53.0124534" lon="9.0299784"/>
  <node id="175674195" version="4" timestamp="2009-01-24T09:09:00Z" uid="33382" user="de_muur" changeset="830508" lat="53.013091" lon="9.0329765">
    <tag k="created_by" v="JOSM"/>
  </node>
  <node id="175674206" version="3" timestamp="2009-01-24T09:08:54Z" uid="33382" user="de_muur" changeset="830508" lat="53.0173991" lon="9.0313624">
    <tag k="created_by" v="JOSM"/>
    <tag k="crossing" v="traffic_signals"/>
    <tag k="highway" v="crossing"/>
  </node>
  <node id="175674206" version="4" timestamp="2009-01-24T09:14:59Z" uid="33382" user="de_muur" changeset="830508" lat="53.0173991" lon="9.0313624">
    <tag k="created_by" v="JOSM"/>
    <tag k="highway" v="traffic_signals"/>
  </node>
  <node id="175674206" version="5" timestamp="2010-12-12T08:15:00Z" uid="33382" user="de_muur" changeset="6632992" lat="53.0173991" lon="9.0313624">
    <tag k="highway" v="traffic_signals"/>
  </node>
  <node id="175674212" version="2" timestamp="2009-10-03T09:35:07Z" uid="33382" user="de_muur" changeset="2721390" lat="53.0275672" lon="8.9733571">
    <tag k="addr:city" v="Achim"/>
    <tag k="addr:country" v="DE"/>
    <tag k="addr:housenumber" v="60a"/>
    <tag k="addr:postcode" v="28832"/>
    <tag k="addr:street" v="Uphuser Heerstraße"/>
    <tag k="amenity" v="fuel"/>
    <tag k="name" v="Star"/>
  </node>
  <node id="175674212" version="3" timestamp="2009-10-03T15:01:14Z" uid="33382" user="de_muur" changeset="2724999" lat="53.0275672" lon="8.9733571">
    <tag k="addr:city" v="Achim"/>
    <tag k="addr:country" v="DE"/>
    <tag k="addr:housenumber" v="60a"/>
    <tag k="addr:phone" v="042022729"/>
    <tag k="addr:postcode" v="28832"/>
    <tag k="addr:street" v="Uphuser Heerstraße"/>
    <tag k="amenity" v="fuel"/>
    <tag k="name" v="Star"/>
  </node>
  <node id="175674215" version="2" timestamp="2008-04-13T18:32:26Z" uid="33382" user="de_muur" changeset="138589" lat="53.0278726" lon="8.9735336">
    <tag k="amenity" v="pharmacy"/>
    <tag k="created_by" v="JOSM"/>
    <tag k="dispensing" v="yes"/>
    <tag k="highway" v="residential"/>
    <tag k="layer" v="0"/>
  </node>
  <node id="175674215" version="3" timestamp="2008-06-01T14:46:20Z" uid="33382" user="de_muur" changeset="13152" lat="53.0278124" lon="8.9735143">
    <tag k="amenity" v="pharmacy"/>
    <tag k="created_by" v="JOSM"/>
    <tag k="dispensing" v="yes"/>
    <tag k="highway" v="residential"/>
    <tag k="layer" v="0"/>
  </node>
  <node id="175674215" version="4" timestamp="2008-06-05T19:33:09Z" uid="33382" user="de_muur" changeset="62752" lat="53.0276964" lon="8.9738032">
    <tag k="Name" v="Storchen Apotheke"/>
    <tag k="amenity" v="pharmacy"/>
    <tag k="created_by" v="JOSM"/>
    <tag k="dispensing" v="yes"/>
    <tag k="highway" v="residential"/>
    <tag k="layer" v="0"/>
  </node>
  <node id="175674215" version="6" timestamp="2008-09-03T18:42:14Z" uid="33382" user="de_muur" changeset="515358" lat="53.0276999" lon="8.9738027">
    <tag k="amenity" v="pharmacy"/>
    <tag k="created_by" v="Potlatch 0.9c"/>
    <tag k="dispensing" v="yes"/>
    <tag k="name" v="Storchen Apotheke"/>
  </node>
  <node id="175674215" version="7" timestamp="2009-10-03T09:35:07Z" uid="33382" user="de_muur" changeset="2721390" lat="53.0276999" lon="8.9738027">
    <tag k="addr:city" v="Achim"/>
    <tag k="addr:country" v="DE"/>
    <tag k="addr:housenumber" v="35"/>
    <tag k="addr:postcode" v="28832"/>
    <tag k="addr:street" v="Uphuser Heerstraße"/>
    <tag k="amenity" v="pharmacy"/>
    <tag k="dispensing" v="yes"/>
    <tag k="name" v="Storchen Apotheke"/>
  </node>
  <node id="175674215" version="8" timestamp="2009-10-03T15:01:14Z" uid="33382" user="de_muur" changeset="2724999" lat="53.0276999" lon="8.9738027">
    <tag k="addr:city" v="Achim"/>
    <tag k="addr:country" v="DE"/>
    <tag k="addr:housenumber" v="35"/>
    <tag k="addr:phone" v="04202910150"/>
    <tag k="addr:postcode" v="28832"/>
    <tag k="addr:street" v="Uphuser Heerstraße"/>
    <tag k="amenity" v="pharmacy"/>
    <tag k="dispensing" v="yes"/>
    <tag k="name" v="Storchen Apotheke"/>
  </node>
  <node id="175674217" version="2" timestamp="2009-10-03T09:35:07Z" uid="33382" user="de_muur" changeset="2721390" lat="53.0265423" lon="8.9759973">
    <tag k="addr:city" v="Achim"/>
    <tag k="addr:country" v="DE"/>
    <tag k="addr:housenumber" v="50"/>
    <tag k="addr:postcode" v="28832"/>
    <tag k="addr:street" v="Uphuser Heerstraße"/>
    <tag k="name" v="Netto"/>
    <tag k="shop" v="supermarket"/>
  </node>
  <node id="175674217" version="3" timestamp="2011-02-22T16:03:20Z" uid="33382" user="de_muur" changeset="7364684" lat="53.0265041" lon="8.9760871">
    <tag k="addr:city" v="Achim"/>
    <tag k="addr:country" v="DE"/>
    <tag k="addr:housenumber" v="50"/>
    <tag k="addr:postcode" v="28832"/>
    <tag k="addr:street" v="Uphuser Heerstraße"/>
    <tag k="name" v="Netto"/>
    <tag k="shop" v="supermarket"/>
  </node>
  <node id="175674219" version="3" timestamp="2009-01-27T19:06:28Z" uid="33382" user="de_muur" changeset="844891" lat="53.026469" lon="8.9765751">
    <tag k="amenity" v="post_box"/>
    <tag k="emptying_time" v="fixme (post box)"/>
    <tag k="operator" v="fixme (post box)"/>
  </node>
  <node id="175674219" version="5" timestamp="2009-02-01T07:37:11Z" uid="33382" user="de_muur" changeset="13821" lat="53.026503" lon="8.9765908">
    <tag k="amenity" v="post_box"/>
  </node>
  <node id="175674219" version="6" timestamp="2009-10-03T09:35:07Z" uid="33382" user="de_muur" changeset="2721390" lat="53.026503" lon="8.9765908">
    <tag k="addr:city" v="Achim"/>
    <tag k="addr:country" v="DE"/>
    <tag k="addr:housenumber" v="50"/>
    <tag k="addr:postcode" v="28832"/>
    <tag k="addr:street" v="Uphuser Heerstraße"/>
    <tag k="amenity" v="post_box"/>
  </node>
  <node id="175674228" version="2" timestamp="2009-11-05T20:12:41Z" uid="33382" user="de_muur" changeset="3043435" lat="53.0125539" lon="9.0310279">
    <tag k="addr:city" v="Achim"/>
    <tag k="addr:country" v="DE"/>
    <tag k="addr:housenumber" v="5"/>
    <tag k="addr:phone" v="042028999"/>
    <tag k="addr:postcode" v="28832"/>
    <tag k="addr:street" v="Obernstraße"/>
    <tag k="amenity" v="pharmacy"/>
    <tag k="dispensing" v="yes"/>
    <tag k="name" v="Alte Apotheke"/>
  </node>
  <node id="175674228" version="3" timestamp="2009-11-15T14:40:11Z" uid="33382" user="de_muur" changeset="3122269" lat="53.0126173" lon="9.0309986">
    <tag k="addr:city" v="Achim"/>
    <tag k="addr:country" v="DE"/>
    <tag k="addr:housenumber" v="5"/>
    <tag k="addr:phone" v="042028999"/>
    <tag k="addr:postcode" v="28832"/>
    <tag k="addr:street" v="Obernstraße"/>
    <tag k="amenity" v="pharmacy"/>
    <tag k="dispensing" v="yes"/>
    <tag k="name" v="Alte Apotheke"/>
  </node>
  <node id="175674228" version="5" timestamp="2010-06-20T17:27:46Z" uid="33382" user="de_muur" changeset="5035126" lat="53.0125404" lon="9.03115">
    <tag k="addr:city" v="Achim"/>
    <tag k="addr:country" v="DE"/>
    <tag k="addr:housenumber" v="5"/>
    <tag k="addr:postcode" v="28832"/>
    <tag k="addr:street" v="Obernstraße"/>
    <tag k="amenity" v="pharmacy"/>
    <tag k="dispensing" v="yes"/>
    <tag k="name" v="Alte Apotheke"/>
    <tag k="phone" v="042028999"/>
  </node>
  <node id="175675120" version="2" timestamp="2008-11-16T16:56:11Z" uid="33382" user="de_muur" changeset="757170" lat="53.0342248" lon="9.0322527">
    <tag k="created_by" v="JOSM"/>
  </node>
  <node id="175675128" version="2" timestamp="2010-12-07T20:51:39Z" uid="33382" user="de_muur" changeset="6579558" lat="53.0326143" lon="9.029261"/>
  <node id="175675134" version="2" timestamp="2009-12-06T15:56:20Z" uid="33382" user="de_muur" changeset="3306476" lat="53.0322349" lon="9.0316502">
    <tag k="amenity" v="restaurant"/>
    <tag k="name" v="Panda"/>
  </node>
  <node id="175675153" version="2" timestamp="2010-12-07T20:51:42Z" uid="33382" user="de_muur" changeset="6579558" lat="53.0359511" lon="9.0320314"/>
  <node id="175675164" version="2" timestamp="2009-10-10T13:21:04Z" uid="33382" user="de_muur" changeset="2803728" lat="53.0361712" lon="9.0280582">
    <tag k="traffic_sign" v="city_limit"/>
  </node>
  <node id="175675204" version="3" timestamp="2009-10-10T13:21:04Z" uid="33382" user="de_muur" changeset="2803728" lat="53.0376172" lon="9.026124"/>
  <node id="175675208" version="2" timestamp="2009-10-10T13:21:04Z" uid="33382" user="de_muur" changeset="2803728" lat="53.0377665" lon="9.0257487"/>
  <node id="175675208" version="3" timestamp="2010-12-06T14:46:05Z" uid="33382" user="de_muur" changeset="6564182" lat="53.0378375" lon="9.0255617"/>
  <node id="175675212" version="3" timestamp="2009-10-10T13:21:03Z" uid="33382" user="de_muur" changeset="2803728" lat="53.0381107" lon="9.0248281"/>
  <node id="175675217" version="3" timestamp="2010-12-06T14:46:07Z" uid="33382" user="de_muur" changeset="6564182" lat="53.0381471" lon="9.0237402"/>
  <node id="175675220" version="2" timestamp="2010-12-06T14:46:07Z" uid="33382" user="de_muur" changeset="6564182" lat="53.0381942" lon="9.0224516"/>
  <node id="175675229" version="2" timestamp="2008-08-10T14:17:17Z" uid="33382" user="de_muur" changeset="166330" lat="53.0401726" lon="9.0172534">
    <tag k="created_by" v="JOSM"/>
  </node>
  <node id="175675229" version="3" timestamp="2009-10-10T13:21:02Z" uid="33382" user="de_muur" changeset="2803728" lat="53.0402006" lon="9.0173059"/>
  <node id="175675236" version="2" timestamp="2009-10-10T13:21:03Z" uid="33382" user="de_muur" changeset="2803728" lat="53.0417687" lon="9.0155834">
    <tag k="traffic_sign" v="city_limit"/>
  </node>
  <node id="175675243" version="3" timestamp="2010-12-01T20:20:19Z" uid="33382" user="de_muur" changeset="6507957" lat="53.0467432" lon="9.0093752"/>
  <node id="175675247" version="2" timestamp="2010-12-01T20:20:20Z" uid="33382" user="de_muur" changeset="6507957" lat="53.04775" lon="9.0080802"/>
  <node id="175675251" version="3" timestamp="2009-12-05T16:52:54Z" uid="33382" user="de_muur" changeset="3296621" lat="53.0478582" lon="9.0080686"/>
  <node id="175675251" version="4" timestamp="2010-12-01T20:20:16Z" uid="33382" user="de_muur" changeset="6507957" lat="53.0478574" lon="9.0080678"/>
  <node id="175675256" version="3" timestamp="2009-12-05T16:52:54Z" uid="33382" user="de_muur" changeset="3296621" lat="53.0479262" lon="9.0078387"/>
  <node id="175675256" version="4" timestamp="2010-12-01T20:20:23Z" uid="33382" user="de_muur" changeset="6507957" lat="53.0479247" lon="9.0078388"/>
  <node id="175675260" version="3" timestamp="2010-12-01T20:20:24Z" uid="33382" user="de_muur" changeset="6507957" lat="53.0481373" lon="9.0075227"/>
  <node id="175675263" version="3" timestamp="2008-11-25T16:21:11Z" uid="33382" user="de_muur" changeset="793441" lat="53.0494416" lon="9.0054297">
    <tag k="created_by" v="JOSM"/>
  </node>
  <node id="175675292" version="4" timestamp="2010-10-31T20:04:06Z" uid="33382" user="de_muur" changeset="6245597" lat="53.0497115" lon="9.0049189"/>
  <node id="175675296" version="3" timestamp="2010-10-31T20:03:49Z" uid="33382" user="de_muur" changeset="6245597" lat="53.0498217" lon="9.0052491"/>
  <node id="175675308" version="2" timestamp="2008-10-12T18:45:04Z" uid="33382" user="de_muur" changeset="285273" lat="53.0587934" lon="8.9991465">
    <tag k="amenity" v="restaurant"/>
    <tag k="created_by" v="JOSM"/>
    <tag k="name" v="Frosini"/>
  </node>
  <node id="175675308" version="7" timestamp="2009-10-03T14:32:03Z" uid="33382" user="de_muur" changeset="2724596" lat="53.0588" lon="8.9991361">
    <tag k="addr:city" v="Oyten"/>
    <tag k="addr:country" v="DE"/>
    <tag k="addr:housenumber" v="1"/>
    <tag k="addr:phone" v="04207609838"/>
    <tag k="addr:postcode" v="28876"/>
    <tag k="addr:street" v="Oyterdamm"/>
    <tag k="amenity" v="restaurant"/>
    <tag k="cuisine" v="italian"/>
    <tag k="name" v="Frosinini"/>
  </node>
  <node id="175675335" version="3" timestamp="2009-12-06T19:35:27Z" uid="33382" user="de_muur" changeset="3309144" lat="53.0577903" lon="8.9482609">
    <tag k="amenity" v="fuel"/>
    <tag k="created_by" v="JOSM"/>
    <tag k="name" v="Q1"/>
  </node>
  <node id="175675344" version="3" timestamp="2009-12-06T19:35:25Z" uid="33382" user="de_muur" changeset="3309144" lat="53.0571971" lon="8.947236">
    <tag k="name" v="Lidl"/>
    <tag k="shop" v="supermarket"/>
  </node>
  <node id="175675750" version="2" timestamp="2008-08-15T20:42:35Z" uid="33382" user="de_muur" changeset="268321" lat="53.0517949" lon="8.9677532">
    <tag k="created_by" v="JOSM"/>
    <tag k="highway" v="turning_circle"/>
  </node>
  <node id="175675750" version="3" timestamp="2008-11-02T16:39:32Z" uid="33382" user="de_muur" changeset="660029" lat="53.0516694" lon="8.9677532">
    <tag k="created_by" v="JOSM"/>
    <tag k="highway" v="turning_circle"/>
  </node>
  <node id="175675766" version="2" timestamp="2008-08-15T20:42:39Z" uid="33382" user="de_muur" changeset="268321" lat="53.0516699" lon="8.9677216">
    <tag k="created_by" v="JOSM"/>
  </node>
  <node id="175675769" version="2" timestamp="2008-08-15T20:42:39Z" uid="33382" user="de_muur" changeset="268321" lat="53.0518777" lon="8.9679145">
    <tag k="created_by" v="JOSM"/>
  </node>
  <node id="175675772" version="2" timestamp="2008-08-15T20:42:39Z" uid="33382" user="de_muur" changeset="268321" lat="53.051655" lon="8.9679442">
    <tag k="created_by" v="JOSM"/>
  </node>
  <node id="175675816" version="2" timestamp="2008-08-15T20:17:49Z" uid="33382" user="de_muur" changeset="268321" lat="53.0467377" lon="8.960503">
    <tag k="created_by" v="JOSM"/>
    <tag k="highway" v="turning_circle"/>
  </node>
  <node id="175675819" version="2" timestamp="2008-08-15T20:17:56Z" uid="33382" user="de_muur" changeset="268321" lat="53.046677" lon="8.9607267">
    <tag k="created_by" v="JOSM"/>
  </node>
  <node id="175675822" version="2" timestamp="2008-08-15T20:17:54Z" uid="33382" user="de_muur" changeset="268321" lat="53.0465605" lon="8.9605623">
    <tag k="created_by" v="JOSM"/>
  </node>
  <node id="175675826" version="2" timestamp="2008-08-15T20:17:58Z" uid="33382" user="de_muur" changeset="268321" lat="53.0466531" lon="8.9603635">
    <tag k="created_by" v="JOSM"/>
  </node>
  <node id="175675840" version="2" timestamp="2008-08-15T19:55:47Z" uid="33382" user="de_muur" changeset="268321" lat="53.0418912" lon="8.9592634">
    <tag k="created_by" v="JOSM"/>
  </node>
  <node id="175675873" version="2" timestamp="2008-08-15T20:17:50Z" uid="33382" user="de_muur" changeset="268321" lat="53.0468138" lon="8.9725701">
    <tag k="created_by" v="JOSM"/>
    <tag k="highway" v="turning_circle"/>
  </node>
  <node id="175675875" version="2" timestamp="2008-08-15T20:17:54Z" uid="33382" user="de_muur" changeset="268321" lat="53.0466846" lon="8.9725766">
    <tag k="created_by" v="JOSM"/>
  </node>
  <node id="175675878" version="2" timestamp="2008-08-15T20:17:54Z" uid="33382" user="de_muur" changeset="268321" lat="53.0468547" lon="8.9726987">
    <tag k="created_by" v="JOSM"/>
  </node>
  <node id="175675882" version="2" timestamp="2008-08-15T20:17:54Z" uid="33382" user="de_muur" changeset="268321" lat="53.0467129" lon="8.9728165">
    <tag k="created_by" v="JOSM"/>
  </node>
  <node id="175675997" version="2" timestamp="2008-08-15T20:17:50Z" uid="33382" user="de_muur" changeset="268321" lat="53.0428566" lon="8.9730329">
    <tag k="created_by" v="JOSM"/>
    <tag k="highway" v="turning_circle"/>
  </node>
  <node id="175676001" version="2" timestamp="2008-08-15T20:17:53Z" uid="33382" user="de_muur" changeset="268321" lat="53.0429602" lon="8.9731041">
    <tag k="created_by" v="JOSM"/>
  </node>
  <node id="175676005" version="2" timestamp="2008-08-15T20:17:53Z" uid="33382" user="de_muur" changeset="268321" lat="53.0428738" lon="8.9732913">
    <tag k="created_by" v="JOSM"/>
  </node>
  <node id="175676008" version="2" timestamp="2008-08-15T20:17:52Z" uid="33382" user="de_muur" changeset="268321" lat="53.0427441" lon="8.9731857">
    <tag k="created_by" v="JOSM"/>
  </node>
  <node id="175676135" version="2" timestamp="2008-09-07T06:07:02Z" uid="33382" user="de_muur" changeset="565401" lat="53.034471" lon="8.9630731">
    <tag k="created_by" v="JOSM"/>
  </node>
  <node id="175676140" version="2" timestamp="2008-09-07T06:07:02Z" uid="33382" user="de_muur" changeset="565401" lat="53.0344669" lon="8.9627902">
    <tag k="created_by" v="JOSM"/>
  </node>
  <node id="175676144" version="2" timestamp="2008-09-07T06:07:02Z" uid="33382" user="de_muur" changeset="565401" lat="53.0345533" lon="8.9627263">
    <tag k="created_by" v="JOSM"/>
  </node>
  <node id="175676154" version="2" timestamp="2008-09-07T06:07:02Z" uid="33382" user="de_muur" changeset="565401" lat="53.034733" lon="8.9628673">
    <tag k="created_by" v="JOSM"/>
  </node>
  <node id="175676164" version="2" timestamp="2008-08-15T20:08:09Z" uid="33382" user="de_muur" changeset="268321" lat="53.0379115" lon="8.9633324">
    <tag k="created_by" v="JOSM"/>
  </node>
  <node id="175676168" version="2" timestamp="2008-08-15T20:08:03Z" uid="33382" user="de_muur" changeset="268321" lat="53.0378774" lon="8.9634723">
    <tag k="created_by" v="JOSM"/>
    <tag k="highway" v="turning_circle"/>
  </node>
  <node id="175676174" version="2" timestamp="2008-08-15T20:08:08Z" uid="33382" user="de_muur" changeset="268321" lat="53.0377202" lon="8.9635415">
    <tag k="created_by" v="JOSM"/>
  </node>
  <node id="175676177" version="2" timestamp="2008-08-15T20:08:09Z" uid="33382" user="de_muur" changeset="268321" lat="53.0376757" lon="8.9634125">
    <tag k="created_by" v="JOSM"/>
  </node>
  <node id="175676183" version="2" timestamp="2008-08-15T20:08:09Z" uid="33382" user="de_muur" changeset="268321" lat="53.0377736" lon="8.9632968">
    <tag k="created_by" v="JOSM"/>
  </node>
  <node id="175676192" version="2" timestamp="2008-08-15T20:08:04Z" uid="33382" user="de_muur" changeset="268321" lat="53.0372825" lon="8.9655616">
    <tag k="created_by" v="JOSM"/>
    <tag k="highway" v="turning_circle"/>
  </node>
  <node id="175676198" version="2" timestamp="2008-08-15T20:08:07Z" uid="33382" user="de_muur" changeset="268321" lat="53.0372799" lon="8.9656762">
    <tag k="created_by" v="JOSM"/>
  </node>
  <node id="175676203" version="2" timestamp="2008-08-15T20:08:07Z" uid="33382" user="de_muur" changeset="268321" lat="53.0371016" lon="8.9656516">
    <tag k="created_by" v="JOSM"/>
  </node>
  <node id="175676209" version="2" timestamp="2008-08-15T20:08:08Z" uid="33382" user="de_muur" changeset="268321" lat="53.0371569" lon="8.9654118">
    <tag k="created_by" v="JOSM"/>
  </node>
  <node id="175676213" version="2" timestamp="2008-08-15T20:08:03Z" uid="33382" user="de_muur" changeset="268321" lat="53.0363865" lon="8.9620305">
    <tag k="created_by" v="JOSM"/>
    <tag k="highway" v="turning_circle"/>
  </node>
  <node id="175676217" version="2" timestamp="2008-08-15T20:08:08Z" uid="33382" user="de_muur" changeset="268321" lat="53.0363513" lon="8.9621157">
    <tag k="created_by" v="JOSM"/>
  </node>
  <node id="175676218" version="2" timestamp="2008-08-15T20:08:08Z" uid="33382" user="de_muur" changeset="268321" lat="53.036216" lon="8.961962">
    <tag k="created_by" v="JOSM"/>
  </node>
  <node id="175676221" version="2" timestamp="2008-08-15T20:08:08Z" uid="33382" user="de_muur" changeset="268321" lat="53.0363575" lon="8.9618205">
    <tag k="created_by" v="JOSM"/>
  </node>
  <node id="175676223" version="2" timestamp="2008-08-15T20:08:04Z" uid="33382" user="de_muur" changeset="268321" lat="53.0364405" lon="8.9596551">
    <tag k="created_by" v="JOSM"/>
    <tag k="highway" v="turning_circle"/>
  </node>
  <node id="175676227" version="2" timestamp="2008-08-15T20:08:07Z" uid="33382" user="de_muur" changeset="268321" lat="53.0364374" lon="8.9597912">
    <tag k="created_by" v="JOSM"/>
  </node>
  <node id="175676231" version="2" timestamp="2008-08-15T20:08:07Z" uid="33382" user="de_muur" changeset="268321" lat="53.0362898" lon="8.9597912">
    <tag k="created_by" v="JOSM"/>
  </node>
  <node id="175676235" version="2" timestamp="2008-08-15T20:08:07Z" uid="33382" user="de_muur" changeset="268321" lat="53.0362837" lon="8.9596498">
    <tag k="created_by" v="JOSM"/>
  </node>
  <node id="175676238" version="2" timestamp="2008-08-15T20:08:07Z" uid="33382" user="de_muur" changeset="268321" lat="53.0363759" lon="8.959576">
    <tag k="created_by" v="JOSM"/>
  </node>
</osm>
