<?xml version='1.0' encoding='UTF-8'?>
<osm version="0.6" generator="libosmium/2.20.0">
  <node id="17780035" version="18" timestamp="2009-07-26T00:10:51Z" uid="123700" user="Mala" changeset="1939678" lat="48.1372706" lon="11.5754887">
    <tag k="int_name" v="Munich"/>
    <tag k="is_in" v="Oberbayern,Bayern,Bundesrepublik Deutschland,Europe"/>
    <tag k="is_in:continent" v="Europe"/>
    <tag k="name" v="München"/>
    <tag k="name:bar" v="Minga"/>
    <tag k="name:cs" v="Mnichov"/>
    <tag k="name:de" v="München"/>
    <tag k="name:en" v="Munich"/>
    <tag k="name:es" v="Múnich"/>
    <tag k="name:it" v="Monaco di Baviera"/>
    <tag k="name:pl" v="Monachium"/>
    <tag k="name:pt" v="Munique"/>
    <tag k="openGeoDB:auto_update" v="population,name,is_in"/>
    <tag k="openGeoDB:community_identification_number" v="09162"/>
    <tag k="openGeoDB:is_in" v="Oberbayern,Bayern,Bundesrepublik Deutschland,Europe"/>
    <tag k="openGeoDB:is_in_loc_id" v="166"/>
    <tag k="openGeoDB:layer" v="5"/>
    <tag k="openGeoDB:license_plate_code" v="M"/>
    <tag k="openGeoDB:loc_id" v="212"/>
    <tag k="openGeoDB:location" v="political_structure"/>
    <tag k="openGeoDB:name" v="München"/>
    <tag k="openGeoDB:population" v="1300000"/>
    <tag k="openGeoDB:sort_name" v="MUENCHEN"/>
    <tag k="openGeoDB:telephone_area_code" v="089"/>
    <tag k="openGeoDB:type" v="Landeshauptstadt"/>
    <tag k="openGeoDB:version" v="0.2.6.11 / 2007-12-04 / http://fa-technik.adfc.de/code/opengeodb/dump/"/>
    <tag k="opengeodb:lat" v="48.13724"/>
    <tag k="opengeodb:lon" v="11.5755114"/>
    <tag k="place" v="city"/>
    <tag k="population" v="1311573"/>
    <tag k="wikipedia" v="Munich"/>
  </node>
</osm>
