<?xml version='1.0' encoding='UTF-8'?>
<osm version="0.6" generator="libosmium/2.20.0">
  <node id="17805394" version="2" timestamp="2008-05-03T22:27:12Z" uid="17602" user="B10xyz" changeset="324653" lat="45.2358799" lon="2.9354041">
    <tag k="created_by" v="JOSM"/>
  </node>
  <node id="17807753" version="23" timestamp="2009-02-15T09:35:33Z" uid="20587" user="balrog-kun" changeset="446565" lat="48.8563773" lon="2.3524666">
    <tag k="capital" v="country"/>
    <tag k="created_by" v="Potlatch 0.10f"/>
    <tag k="is_in" v="France, Europe, capital_cities"/>
    <tag k="is_in:continent" v="Europe"/>
    <tag k="name" v="Paris"/>
    <tag k="name:ar" v="باريس"/>
    <tag k="name:ca" v="París"/>
    <tag k="name:el" v="Παρίσι"/>
    <tag k="name:eo" v="Parizo"/>
    <tag k="name:es" v="París"/>
    <tag k="name:fi" v="Pariisi"/>
    <tag k="name:fy" v="Parys"/>
    <tag k="name:he" v="פריז"/>
    <tag k="name:hu" v="Párizs"/>
    <tag k="name:it" v="Parigi"/>
    <tag k="name:ja" v="パリ"/>
    <tag k="name:ko" v="파리 시"/>
    <tag k="name:nl" v="Parijs"/>
    <tag k="name:pl" v="Paryż"/>
    <tag k="name:sr" v="Париз"/>
    <tag k="name:zh" v="巴黎"/>
    <tag k="place" v="city"/>
    <tag k="population" v="2166200"/>
    <tag k="wikipedia" v="Paris"/>
  </node>
</osm>
