<?xml version='1.0' encoding='UTF-8'?>
<osm version="0.6" generator="libosmium/2.20.0">
  <node id="178880038" version="4" timestamp="2010-06-12T09:19:06Z" uid="43863" user="Rundling" changeset="4968656" lat="53.2023104" lon="10.4504274"/>
  <node id="178887099" version="2" timestamp="2008-05-07T17:24:06Z" uid="3451" user="sascha_silbe" changeset="357199" lat="48.5147579" lon="9.0699917">
    <tag k="amenity" v="fast_food"/>
    <tag k="created_by" v="JOSM"/>
    <tag k="cuisine" v="sandwich"/>
    <tag k="name" v="Subway"/>
    <tag k="source" v="knowledge"/>
  </node>
  <node id="178887103" version="4" timestamp="2008-07-03T17:49:47Z" uid="6975" user="ulfl" changeset="379368" lat="48.5151658" lon="9.0689285">
    <tag k="name" v="Hair Express"/>
    <tag k="shop" v="hairdresser"/>
    <tag k="source" v="knowledge"/>
  </node>
  <node id="178887105" version="2" timestamp="2008-08-21T22:15:32Z" uid="3451" user="sascha_silbe" changeset="365032" lat="48.5152307" lon="9.0695161">
    <tag k="addr:housenumber" v="28"/>
    <tag k="addr:street" v="Eisenbahnstraße"/>
    <tag k="created_by" v="JOSM"/>
    <tag k="name" v="Plus"/>
    <tag k="shop" v="supermarket"/>
    <tag k="source" v="knowledge"/>
    <tag k="source:addr" v="survey"/>
  </node>
  <node id="178887105" version="3" timestamp="2008-08-21T23:54:14Z" uid="3451" user="sascha_silbe" changeset="365032" lat="48.5152307" lon="9.0695161">
    <tag k="addr:housenumber" v="28"/>
    <tag k="addr:street" v="Eisenbahnstraße"/>
    <tag k="created_by" v="JOSM"/>
    <tag k="name" v="Plus"/>
    <tag k="shop" v="supermarket"/>
    <tag k="source" v="knowledge"/>
    <tag k="source:addr" v="Kassenbon"/>
  </node>
</osm>
