<?xml version='1.0' encoding='UTF-8'?>
<osm version="0.6" generator="libosmium/2.20.0">
  <node id="17893399" version="2" timestamp="2008-07-30T11:12:09Z" uid="54539" user="Spot" changeset="625990" lat="49.5813894" lon="10.9925451">
    <tag k="created_by" v="JOSM"/>
  </node>
  <node id="17898859" version="12" timestamp="2009-07-22T17:45:35Z" uid="20587" user="balrog-kun" changeset="1907299" lat="55.9483694" lon="-3.1932679">
    <tag k="capital" v="yes"/>
    <tag k="country" v="Scotland"/>
    <tag k="is_in" v="Scotland, United Kingdom, UK, Great Britain, Europe, capital cities"/>
    <tag k="is_in:continent" v="Europe"/>
    <tag k="is_in:country" v="United Kingdom"/>
    <tag k="name" v="Edinburgh"/>
    <tag k="name:ar" v="إدنبرة"/>
    <tag k="name:cy" v="Caeredin"/>
    <tag k="name:es" v="Edinburgo"/>
    <tag k="name:gd" v="Dùn Èideann"/>
    <tag k="name:he" v="אדינבורג"/>
    <tag k="name:it" v="Edimburgo"/>
    <tag k="name:lv" v="Edinburga"/>
    <tag k="name:pl" v="Edynburg"/>
    <tag k="name:pronunciation" v="ˈɛdɪnb(ə)rə"/>
    <tag k="name:ru" v="Эдинбург"/>
    <tag k="place" v="city"/>
    <tag k="wikipedia" v="Edinburgh"/>
  </node>
</osm>
