<?xml version='1.0' encoding='UTF-8'?>
<osm version="0.6" generator="libosmium/2.20.0">
  <node id="191652335" version="4" timestamp="2008-08-01T00:19:03Z" uid="20587" user="balrog-kun" changeset="3559" lat="62.0332489" lon="129.7426601">
    <tag k="alternate_name" v="Дьокуускай"/>
    <tag k="created_by" v="Potlatch 0.10"/>
    <tag k="int_name" v="Yakutsk"/>
    <tag k="is_in" v="Sakha Republic, Russia"/>
    <tag k="name" v="Якутск"/>
    <tag k="name:ca" v="Iakutsk"/>
    <tag k="name:de" v="Jakutsk"/>
    <tag k="name:en" v="Yakutsk"/>
    <tag k="name:eo" v="Yakutsk"/>
    <tag k="name:es" v="Yakutsk"/>
    <tag k="name:hu" v="Jakutszk"/>
    <tag k="name:pl" v="Jakuck"/>
    <tag k="name:ru" v="Якутск"/>
    <tag k="name:sah" v="Дьокуускай"/>
    <tag k="place" v="city"/>
  </node>
  <node id="191652335" version="7" timestamp="2009-01-31T16:50:27Z" uid="20587" user="balrog-kun" changeset="858385" lat="62.0332499" lon="129.7426538">
    <tag k="alternate_name" v="Дьокуускай"/>
    <tag k="created_by" v="Potlatch 0.10f"/>
    <tag k="int_name" v="Yakutsk"/>
    <tag k="is_in" v="Sakha Republic, Russia"/>
    <tag k="is_in:country" v="Russia"/>
    <tag k="name" v="Якутск"/>
    <tag k="name:ca" v="Iakutsk"/>
    <tag k="name:de" v="Jakutsk"/>
    <tag k="name:en" v="Yakutsk"/>
    <tag k="name:eo" v="Yakutsk"/>
    <tag k="name:es" v="Yakutsk"/>
    <tag k="name:hu" v="Jakutszk"/>
    <tag k="name:pl" v="Jakuck"/>
    <tag k="name:ru" v="Якутск"/>
    <tag k="name:sah" v="Дьокуускай"/>
    <tag k="place" v="city"/>
    <tag k="wikipedia" v="Yakutsk"/>
  </node>
  <node id="191654270" version="2" timestamp="2010-05-13T06:58:13Z" uid="4467" user="Rosscoe" changeset="4682852" lat="-32.6270123" lon="115.8789392"/>
  <node id="191654306" version="2" timestamp="2010-05-13T06:58:14Z" uid="4467" user="Rosscoe" changeset="4682852" lat="-32.6263696" lon="115.8787079"/>
</osm>
