<?xml version='1.0' encoding='UTF-8'?>
<osm version="0.6" generator="libosmium/2.20.0">
  <node id="197953469" version="2" timestamp="2008-01-15T08:41:07Z" uid="9581" user="Lobelt" changeset="642720" lat="51.5594601" lon="14.7489384">
    <tag k="created_by" v="JOSM"/>
  </node>
  <node id="197957005" version="6" timestamp="2009-05-01T19:15:11Z" uid="20587" user="balrog-kun" changeset="1041038" lat="51.0608146" lon="16.9233561">
    <tag k="created_by" v="JOSM"/>
    <tag k="is_in" v="gmina Kąty Wrocławskie, powiat wrocławski, województwo dolnośląskie, Poland"/>
    <tag k="is_in:country" v="Poland"/>
    <tag k="is_in:county" v="powiat wrocławski"/>
    <tag k="is_in:municipality" v="gmina Kąty Wrocławskie"/>
    <tag k="is_in:province" v="województwo dolnośląskie"/>
    <tag k="name" v="Cesarzowice"/>
    <tag k="place" v="village"/>
    <tag k="teryt:rm" v="01"/>
    <tag k="teryt:simc" v="0874897"/>
    <tag k="teryt:stan_na" v="2009-01-01"/>
    <tag k="teryt:terc" v="0223045"/>
    <tag k="teryt:updated_by" v="teryt2osm combine.py v. 43"/>
    <tag k="wikipedia" v="Cesarzowice, Wrocław County"/>
  </node>
  <node id="197957033" version="2" timestamp="2009-05-01T19:18:28Z" uid="20587" user="balrog-kun" changeset="1041038" lat="51.0567508" lon="16.9028946">
    <tag k="created_by" v="JOSM"/>
    <tag k="is_in" v="gmina Kąty Wrocławskie, powiat wrocławski, województwo dolnośląskie, Poland"/>
    <tag k="is_in:county" v="powiat wrocławski"/>
    <tag k="is_in:municipality" v="gmina Kąty Wrocławskie"/>
    <tag k="is_in:province" v="województwo dolnośląskie"/>
    <tag k="name" v="Jaszkotle"/>
    <tag k="place" v="village"/>
    <tag k="wikipedia" v="Jaszkotle"/>
  </node>
  <node id="197957033" version="3" timestamp="2009-06-16T14:28:16Z" uid="20587" user="balrog-kun" changeset="1535626" lat="51.0567508" lon="16.9028946">
    <tag k="created_by" v="JOSM"/>
    <tag k="is_in" v="gmina Kąty Wrocławskie, powiat wrocławski, województwo dolnośląskie, Poland"/>
    <tag k="is_in:county" v="powiat wrocławski"/>
    <tag k="is_in:municipality" v="gmina Kąty Wrocławskie"/>
    <tag k="is_in:province" v="województwo dolnośląskie"/>
    <tag k="name" v="Jaszkotle"/>
    <tag k="place" v="village"/>
    <tag k="population" v="100"/>
    <tag k="source:population" v="wikipedia"/>
    <tag k="wikipedia" v="Jaszkotle"/>
  </node>
  <node id="197957033" version="4" timestamp="2010-04-11T04:37:44Z" uid="20587" user="balrog-kun" changeset="4389130" lat="51.0568148" lon="16.901773">
    <tag k="is_in" v="gmina Kąty Wrocławskie, powiat wrocławski, województwo dolnośląskie, Poland"/>
    <tag k="is_in:county" v="powiat wrocławski"/>
    <tag k="is_in:municipality" v="gmina Kąty Wrocławskie"/>
    <tag k="is_in:province" v="województwo dolnośląskie"/>
    <tag k="name" v="Jaszkotle"/>
    <tag k="place" v="village"/>
    <tag k="population" v="100"/>
    <tag k="source:population" v="wikipedia"/>
    <tag k="wikipedia" v="Jaszkotle"/>
  </node>
  <node id="197957092" version="2" timestamp="2009-05-01T19:14:43Z" uid="20587" user="balrog-kun" changeset="1041038" lat="51.0416553" lon="16.7972078">
    <tag k="created_by" v="JOSM"/>
    <tag k="is_in" v="gmina Kąty Wrocławskie, powiat wrocławski, województwo dolnośląskie, Poland"/>
    <tag k="is_in:county" v="powiat wrocławski"/>
    <tag k="is_in:municipality" v="gmina Kąty Wrocławskie"/>
    <tag k="is_in:province" v="województwo dolnośląskie"/>
    <tag k="name" v="Sadkówek"/>
    <tag k="place" v="village"/>
    <tag k="wikipedia" v="Sadkówek"/>
  </node>
  <node id="197957092" version="3" timestamp="2010-04-11T04:37:44Z" uid="20587" user="balrog-kun" changeset="4389130" lat="51.0417641" lon="16.7980098">
    <tag k="is_in" v="gmina Kąty Wrocławskie, powiat wrocławski, województwo dolnośląskie, Poland"/>
    <tag k="is_in:county" v="powiat wrocławski"/>
    <tag k="is_in:municipality" v="gmina Kąty Wrocławskie"/>
    <tag k="is_in:province" v="województwo dolnośląskie"/>
    <tag k="name" v="Sadkówek"/>
    <tag k="place" v="village"/>
    <tag k="wikipedia" v="Sadkówek"/>
  </node>
  <node id="197958915" version="5" timestamp="2009-05-01T19:15:22Z" uid="20587" user="balrog-kun" changeset="1041038" lat="51.0306099" lon="16.7844328">
    <tag k="created_by" v="JOSM"/>
    <tag k="is_in" v="gmina Kąty Wrocławskie, powiat wrocławski, województwo dolnośląskie, Poland"/>
    <tag k="is_in:country" v="Poland"/>
    <tag k="is_in:county" v="powiat wrocławski"/>
    <tag k="is_in:municipality" v="gmina Kąty Wrocławskie"/>
    <tag k="is_in:province" v="województwo dolnośląskie"/>
    <tag k="name" v="Sośnica"/>
    <tag k="place" v="village"/>
    <tag k="teryt:rm" v="01"/>
    <tag k="teryt:simc" v="0875201"/>
    <tag k="teryt:stan_na" v="2009-01-01"/>
    <tag k="teryt:terc" v="0223045"/>
    <tag k="teryt:updated_by" v="teryt2osm combine.py v. 43"/>
    <tag k="wikipedia" v="Sośnica, Lower Silesian Voivodeship"/>
  </node>
  <node id="197958915" version="6" timestamp="2010-04-11T04:37:44Z" uid="20587" user="balrog-kun" changeset="4389130" lat="51.0313224" lon="16.7849879">
    <tag k="is_in" v="gmina Kąty Wrocławskie, powiat wrocławski, województwo dolnośląskie, Poland"/>
    <tag k="is_in:country" v="Poland"/>
    <tag k="is_in:county" v="powiat wrocławski"/>
    <tag k="is_in:municipality" v="gmina Kąty Wrocławskie"/>
    <tag k="is_in:province" v="województwo dolnośląskie"/>
    <tag k="name" v="Sośnica"/>
    <tag k="place" v="village"/>
    <tag k="teryt:rm" v="01"/>
    <tag k="teryt:simc" v="0875201"/>
    <tag k="teryt:stan_na" v="2009-01-01"/>
    <tag k="teryt:terc" v="0223045"/>
    <tag k="teryt:updated_by" v="teryt2osm combine.py v. 43"/>
    <tag k="wikipedia" v="Sośnica, Lower Silesian Voivodeship"/>
  </node>
</osm>
