<?xml version='1.0' encoding='UTF-8'?>
<osm version="0.6" generator="libosmium/2.20.0">
  <node id="198346308" version="1" timestamp="2007-12-31T00:47:30Z" uid="4467" user="Rosscoe" changeset="484538" lat="-20.4015709" lon="148.5858175">
    <tag k="created_by" v="JOSM"/>
    <tag k="name" v="Woolworths"/>
    <tag k="shop" v="supermarket"/>
  </node>
  <node id="198346308" version="2" timestamp="2008-02-27T23:51:25Z" uid="4467" user="Rosscoe" changeset="222292" lat="-20.4015665" lon="148.5858093">
    <tag k="created_by" v="JOSM"/>
    <tag k="name" v="Woolworths"/>
    <tag k="shop" v="supermarket"/>
  </node>
  <node id="198346308" version="3" timestamp="2008-02-27T23:51:25Z" uid="4467" user="Rosscoe" changeset="222292" lat="-20.4015665" lon="148.5858093">
    <tag k="created_by" v="JOSM"/>
    <tag k="name" v="Woolworths"/>
    <tag k="shop" v="supermarket"/>
  </node>
  <node id="198346308" version="4" timestamp="2008-02-27T23:51:25Z" uid="4467" user="Rosscoe" changeset="222292" lat="-20.4015665" lon="148.5858093">
    <tag k="created_by" v="JOSM"/>
    <tag k="name" v="Woolworths"/>
    <tag k="shop" v="supermarket"/>
  </node>
  <node id="198346308" version="5" timestamp="2008-02-27T23:51:26Z" uid="4467" user="Rosscoe" changeset="222292" lat="-20.4015665" lon="148.5858093">
    <tag k="created_by" v="JOSM"/>
    <tag k="name" v="Woolworths"/>
    <tag k="shop" v="supermarket"/>
  </node>
  <node id="198346308" version="6" timestamp="2008-02-27T23:51:27Z" uid="4467" user="Rosscoe" changeset="222292" lat="-20.4015665" lon="148.5858093">
    <tag k="created_by" v="JOSM"/>
    <tag k="name" v="Woolworths"/>
    <tag k="shop" v="supermarket"/>
  </node>
  <node id="198349175" version="2" timestamp="2009-12-14T19:43:46Z" uid="74617" user="JohnSmith" changeset="3374481" lat="-27.4358415" lon="153.0414096">
    <tag k="amenity" v="fuel"/>
    <tag k="operator" v="Mobil"/>
  </node>
</osm>
