<?xml version='1.0' encoding='UTF-8'?>
<osm version="0.6" generator="libosmium/2.20.0">
  <node id="210276509" version="1" timestamp="2008-01-08T10:32:54Z" uid="9581" user="Lobelt" changeset="573704" lat="50.670382" lon="11.5570981">
    <tag k="created_by" v="Potlatch 0.6a"/>
    <tag k="name" v="Brandenstein"/>
    <tag k="place" v="village"/>
  </node>
  <node id="210277440" version="1" timestamp="2008-01-08T10:33:40Z" uid="9581" user="Lobelt" changeset="573704" lat="50.6621128" lon="11.5671403">
    <tag k="created_by" v="Potlatch 0.6a"/>
    <tag k="name" v="Ranis"/>
    <tag k="place" v="town"/>
  </node>
  <node id="210278061" version="1" timestamp="2008-01-08T10:34:09Z" uid="9581" user="Lobelt" changeset="573704" lat="50.6681517" lon="11.5831477">
    <tag k="created_by" v="Potlatch 0.6a"/>
    <tag k="name" v="Ludwigshof"/>
    <tag k="place" v="village"/>
  </node>
  <node id="210278490" version="1" timestamp="2008-01-08T10:34:30Z" uid="9581" user="Lobelt" changeset="573704" lat="50.6776164" lon="11.6003138">
    <tag k="created_by" v="Potlatch 0.6a"/>
    <tag k="name" v="Wernburg"/>
    <tag k="place" v="village"/>
  </node>
</osm>
