<?xml version='1.0' encoding='UTF-8'?>
<osm version="0.6" generator="libosmium/2.20.0">
  <node id="210301081" version="1" timestamp="2008-01-08T10:50:19Z" uid="9581" user="Lobelt" changeset="573704" lat="50.6412702" lon="11.6299683">
    <tag k="created_by" v="Potlatch 0.6a"/>
    <tag k="name" v="Moxa"/>
    <tag k="place" v="village"/>
  </node>
  <node id="210302195" version="1" timestamp="2008-01-08T10:51:01Z" uid="9581" user="Lobelt" changeset="573704" lat="50.6544952" lon="11.6414267">
    <tag k="created_by" v="Potlatch 0.6a"/>
    <tag k="name" v="Bahren"/>
    <tag k="place" v="village"/>
  </node>
  <node id="210302479" version="1" timestamp="2008-01-08T10:51:12Z" uid="9581" user="Lobelt" changeset="573704" lat="50.6593652" lon="11.6454608">
    <tag k="created_by" v="Potlatch 0.6a"/>
    <tag k="name" v="Peuschen"/>
    <tag k="place" v="village"/>
  </node>
  <node id="210303252" version="1" timestamp="2008-01-08T10:51:39Z" uid="9581" user="Lobelt" changeset="573704" lat="50.6808796" lon="11.6425855">
    <tag k="created_by" v="Potlatch 0.6a"/>
    <tag k="name" v="Gertewitz"/>
    <tag k="place" v="village"/>
  </node>
  <node id="210303252" version="3" timestamp="2009-01-05T14:43:01Z" uid="9581" user="Lobelt" changeset="737076" lat="50.6809843" lon="11.6422003">
    <tag k="created_by" v="opengeodb2osm0.5.2"/>
    <tag k="is_in" v="Saale-Orla-Kreis,Thüringen,Bundesrepublik Deutschland,Europe"/>
    <tag k="name" v="Gertewitz"/>
    <tag k="openGeoDB:auto_update" v="population,is_in"/>
    <tag k="openGeoDB:combination_of_public_administration" v="Verwaltungsgemeinschaft Oppurg"/>
    <tag k="openGeoDB:community_identification_number" v="16075031"/>
    <tag k="openGeoDB:is_in" v="Saale-Orla-Kreis,Thüringen,Bundesrepublik Deutschland,Europe"/>
    <tag k="openGeoDB:is_in_loc_id" v="336"/>
    <tag k="openGeoDB:layer" v="6"/>
    <tag k="openGeoDB:license_plate_code" v="SOK"/>
    <tag k="openGeoDB:loc_id" v="16993"/>
    <tag k="openGeoDB:name" v="Gertewitz"/>
    <tag k="openGeoDB:population" v="184"/>
    <tag k="openGeoDB:postal_codes" v="07389"/>
    <tag k="openGeoDB:sort_name" v="GERTEWITZ"/>
    <tag k="openGeoDB:telephone_area_code" v="03647"/>
    <tag k="openGeoDB:type" v="Gemeinde"/>
    <tag k="openGeoDB:version" v="0.2.6.11 / 2007-12-04 / http://fa-technik.adfc.de/code/opengeodb/dump/"/>
    <tag k="opengeodb:lat" v="50.6808796"/>
    <tag k="opengeodb:lon" v="11.6425855"/>
    <tag k="place" v="village"/>
    <tag k="population" v="184"/>
  </node>
  <node id="210303762" version="1" timestamp="2008-01-08T10:51:57Z" uid="9581" user="Lobelt" changeset="573704" lat="50.6862635" lon="11.6231019">
    <tag k="created_by" v="Potlatch 0.6a"/>
    <tag k="name" v="Bodelwitz"/>
    <tag k="place" v="village"/>
  </node>
  <node id="210308589" version="1" timestamp="2008-01-08T10:54:51Z" uid="9581" user="Lobelt" changeset="573704" lat="50.7523695" lon="11.4026458">
    <tag k="created_by" v="Potlatch 0.6a"/>
    <tag k="name" v="Mötzelbach"/>
    <tag k="place" v="village"/>
  </node>
</osm>
