<?xml version='1.0' encoding='UTF-8'?>
<osm version="0.6" generator="libosmium/2.20.0">
  <node id="211654608" version="2" timestamp="2009-07-07T15:09:17Z" uid="74617" user="JohnSmith" changeset="1763250" lat="-35.3767173" lon="149.1857967">
    <tag k="created_by" v="JOSM"/>
  </node>
  <node id="211654626" version="2" timestamp="2009-07-07T15:09:17Z" uid="74617" user="JohnSmith" changeset="1763250" lat="-35.3758733" lon="149.1863938">
    <tag k="created_by" v="JOSM"/>
  </node>
  <node id="211654649" version="2" timestamp="2008-12-20T08:30:09Z" uid="19626" user="Swamp" changeset="488974" lat="-35.3718852" lon="149.1890008">
    <tag k="created_by" v="JOSM"/>
  </node>
  <node id="211654715" version="2" timestamp="2009-07-07T15:09:16Z" uid="74617" user="JohnSmith" changeset="1763250" lat="-35.3688871" lon="149.1909641">
    <tag k="created_by" v="JOSM"/>
  </node>
  <node id="211654730" version="2" timestamp="2009-07-07T15:09:16Z" uid="74617" user="JohnSmith" changeset="1763250" lat="-35.3473524" lon="149.2047777">
    <tag k="created_by" v="JOSM"/>
  </node>
  <node id="211654746" version="2" timestamp="2009-07-07T15:09:16Z" uid="74617" user="JohnSmith" changeset="1763250" lat="-35.3466561" lon="149.2054527">
    <tag k="created_by" v="JOSM"/>
  </node>
  <node id="211654761" version="2" timestamp="2009-07-07T15:09:16Z" uid="74617" user="JohnSmith" changeset="1763250" lat="-35.3462762" lon="149.2059459">
    <tag k="created_by" v="JOSM"/>
  </node>
  <node id="211654781" version="2" timestamp="2009-07-07T15:09:16Z" uid="74617" user="JohnSmith" changeset="1763250" lat="-35.3457462" lon="149.2068645">
    <tag k="created_by" v="JOSM"/>
  </node>
  <node id="211654800" version="2" timestamp="2009-07-07T15:09:16Z" uid="74617" user="JohnSmith" changeset="1763250" lat="-35.3452471" lon="149.2081053">
    <tag k="created_by" v="JOSM"/>
  </node>
  <node id="211654819" version="2" timestamp="2009-07-07T15:09:17Z" uid="74617" user="JohnSmith" changeset="1763250" lat="-35.3413778" lon="149.2191088">
    <tag k="created_by" v="JOSM"/>
  </node>
  <node id="211654832" version="2" timestamp="2009-07-07T15:09:17Z" uid="74617" user="JohnSmith" changeset="1763250" lat="-35.3413514" lon="149.2196362">
    <tag k="created_by" v="JOSM"/>
  </node>
  <node id="211655084" version="3" timestamp="2009-03-29T22:31:49Z" uid="34428" user="usm78-gis" changeset="870330" lat="60.6821414" lon="28.946239">
    <tag k="created_by" v="Potlatch 0.10f"/>
    <tag k="name" v="Перово"/>
    <tag k="name:fi" v="Suur Pero"/>
    <tag k="place" v="village"/>
  </node>
  <node id="211657546" version="2" timestamp="2009-03-29T22:33:26Z" uid="34428" user="usm78-gis" changeset="870330" lat="60.702262" lon="28.9399047">
    <tag k="created_by" v="Potlatch 0.10f"/>
    <tag k="name" v="Гончарово"/>
    <tag k="name:fi" v="KÃ¤hÃ¤ri"/>
    <tag k="place" v="village"/>
  </node>
  <node id="211657546" version="3" timestamp="2009-04-01T00:23:25Z" uid="34428" user="usm78-gis" changeset="27604" lat="60.702262" lon="28.9399047">
    <tag k="name" v="Гончарово"/>
    <tag k="name:fi" v="Kähäri"/>
    <tag k="place" v="village"/>
  </node>
  <node id="211658389" version="4" timestamp="2009-03-29T22:42:21Z" uid="34428" user="usm78-gis" changeset="870330" lat="60.6827298" lon="29.206057">
    <tag k="created_by" v="Potlatch 0.10f"/>
    <tag k="int_name" v="Veshchevo"/>
    <tag k="name" v="Вещево"/>
    <tag k="place" v="village"/>
  </node>
</osm>
