<?xml version='1.0' encoding='UTF-8'?>
<osm version="0.6" generator="libosmium/2.20.0">
  <node id="214214318" version="2" timestamp="2009-11-11T01:19:22Z" uid="36809" user="pfoten_weg_!_" changeset="3086939" lat="-53.116667" lon="-70.883333">
    <tag k="is_in" v="Chile, Latin America"/>
    <tag k="name" v="Tres Puentes"/>
    <tag k="place" v="village"/>
    <tag k="source" v="GNS"/>
  </node>
  <node id="214214318" version="3" timestamp="2009-11-11T09:54:18Z" uid="36809" user="pfoten_weg_!_" changeset="3088543" lat="-53.116667" lon="-70.883333">
    <tag k="is_in" v="Chile, Latin America"/>
    <tag k="name" v="Tres Puentes"/>
    <tag k="place" v="village"/>
    <tag k="source" v="GNS"/>
  </node>
  <node id="214216095" version="2" timestamp="2009-11-11T01:19:16Z" uid="36809" user="pfoten_weg_!_" changeset="3086939" lat="-53.183333" lon="-70.933333">
    <tag k="is_in" v="Chile, Latin America"/>
    <tag k="name" v="Río de los Ciervos"/>
    <tag k="place" v="village"/>
    <tag k="source" v="GNS"/>
  </node>
  <node id="214216095" version="3" timestamp="2009-11-11T09:54:09Z" uid="36809" user="pfoten_weg_!_" changeset="3088543" lat="-53.183333" lon="-70.933333">
    <tag k="is_in" v="Chile, Latin America"/>
    <tag k="name" v="Río de los Ciervos"/>
    <tag k="place" v="village"/>
    <tag k="source" v="GNS"/>
  </node>
</osm>
