<?xml version='1.0' encoding='UTF-8'?>
<osm version="0.6" generator="libosmium/2.20.0">
  <node id="214204114" version="2" timestamp="2009-11-11T17:32:30Z" uid="36809" user="pfoten_weg_!_" changeset="3091919" lat="-41.216667" lon="-73.5">
    <tag k="is_in" v="Chile, Latin America"/>
    <tag k="name" v="Estación Parga"/>
    <tag k="place" v="village"/>
    <tag k="source" v="GNS"/>
  </node>
  <node id="214204114" version="3" timestamp="2009-11-11T22:30:03Z" uid="36809" user="pfoten_weg_!_" changeset="3094286" lat="-41.216667" lon="-73.5">
    <tag k="is_in" v="Chile, Latin America"/>
    <tag k="name" v="Estación Parga"/>
    <tag k="place" v="village"/>
    <tag k="source" v="GNS"/>
  </node>
  <node id="214204114" version="4" timestamp="2009-11-11T22:32:42Z" uid="36809" user="pfoten_weg_!_" changeset="3094320" lat="-41.216667" lon="-73.5">
    <tag k="is_in" v="Chile, Latin America"/>
    <tag k="name" v="Estación Parga"/>
    <tag k="place" v="village"/>
    <tag k="source" v="GNS"/>
  </node>
  <node id="214207128" version="2" timestamp="2009-11-11T01:19:23Z" uid="36809" user="pfoten_weg_!_" changeset="3086939" lat="-53.083333" lon="-70.883333">
    <tag k="is_in" v="Chile, Latin America"/>
    <tag k="name" v="Río Seco"/>
    <tag k="place" v="village"/>
    <tag k="source" v="GNS"/>
  </node>
  <node id="214207128" version="3" timestamp="2009-11-11T09:54:19Z" uid="36809" user="pfoten_weg_!_" changeset="3088543" lat="-53.083333" lon="-70.883333">
    <tag k="is_in" v="Chile, Latin America"/>
    <tag k="name" v="Río Seco"/>
    <tag k="place" v="village"/>
    <tag k="source" v="GNS"/>
  </node>
</osm>
