<?xml version='1.0' encoding='UTF-8'?>
<osm version="0.6" generator="libosmium/2.20.0">
  <node id="224633066" version="10" timestamp="2009-08-02T21:55:20Z" uid="20587" user="balrog-kun" changeset="2020184" lat="52.4021306" lon="16.9341196">
    <tag k="layer" v="2"/>
    <tag k="name" v="Łąkowa"/>
    <tag k="railway" v="tram_stop"/>
  </node>
  <node id="224635036" version="7" timestamp="2009-08-02T21:55:20Z" uid="20587" user="balrog-kun" changeset="2020184" lat="52.4056365" lon="16.9319996">
    <tag k="layer" v="2"/>
    <tag k="name" v="Wrocławska"/>
    <tag k="railway" v="tram_stop"/>
  </node>
  <node id="224636172" version="2" timestamp="2008-06-23T18:58:18Z" uid="27600" user="Islanit" changeset="274556" lat="46.974089" lon="15.4793788"/>
  <node id="224636173" version="2" timestamp="2008-06-23T18:58:18Z" uid="27600" user="Islanit" changeset="274556" lat="46.9731519" lon="15.4800655"/>
  <node id="224636899" version="8" timestamp="2009-08-02T21:55:20Z" uid="20587" user="balrog-kun" changeset="2020184" lat="52.4051646" lon="16.9314553">
    <tag k="layer" v="2"/>
    <tag k="name" v="Pl. Wiosny Ludów"/>
    <tag k="railway" v="tram_stop"/>
  </node>
  <node id="224636899" version="9" timestamp="2009-12-06T23:05:53Z" uid="20587" user="balrog-kun" changeset="3311402" lat="52.4051646" lon="16.9314553">
    <tag k="name" v="Pl. Wiosny Ludów"/>
    <tag k="railway" v="tram_stop"/>
  </node>
</osm>
