<?xml version='1.0' encoding='UTF-8'?>
<osm version="0.6" generator="libosmium/2.20.0">
  <node id="226921028" version="4" timestamp="2009-01-31T16:48:57Z" uid="9581" user="Lobelt" changeset="859371" lat="50.4907719" lon="10.9105819">
    <tag k="created_by" v="is_in-bot"/>
    <tag k="is_in" v="ThÃ¼ringen,Bundesrepublik Deutschland,Europe"/>
    <tag k="name" v="Einsiedel"/>
    <tag k="place" v="village"/>
  </node>
  <node id="226925342" version="2" timestamp="2009-01-04T18:09:23Z" uid="58091" user="Andreas M" changeset="729261" lat="48.2530654" lon="16.3958297"/>
  <node id="226925343" version="2" timestamp="2009-01-04T18:09:23Z" uid="58091" user="Andreas M" changeset="729261" lat="48.2532311" lon="16.3959671"/>
  <node id="226925345" version="2" timestamp="2009-01-04T18:09:10Z" uid="58091" user="Andreas M" changeset="729261" lat="48.2532923" lon="16.3960571"/>
  <node id="226925346" version="2" timestamp="2009-01-04T18:09:10Z" uid="58091" user="Andreas M" changeset="729261" lat="48.2536428" lon="16.3960473"/>
  <node id="226928025" version="2" timestamp="2009-09-30T11:51:01Z" uid="36809" user="pfoten_weg_!_" changeset="2687450" lat="46.687087" lon="11.630917">
    <tag k="amenity" v="fuel"/>
    <tag k="brand" v="agip"/>
    <tag k="name" v="Agip"/>
    <tag k="operator" v="Agip"/>
    <tag k="www.prezzibenzina.it" v="1498"/>
  </node>
  <node id="226929563" version="2" timestamp="2009-10-13T23:08:09Z" uid="36809" user="pfoten_weg_!_" changeset="2841207" lat="46.790584" lon="11.927011">
    <tag k="amenity" v="fuel"/>
    <tag k="brand" v="agip"/>
    <tag k="name" v="Agip"/>
    <tag k="operator" v="Agip"/>
    <tag k="www.prezzibenzina.it" v="1526"/>
  </node>
  <node id="226929567" version="2" timestamp="2009-10-13T23:08:10Z" uid="36809" user="pfoten_weg_!_" changeset="2841207" lat="46.793141" lon="11.93156">
    <tag k="amenity" v="fuel"/>
    <tag k="brand" v="agip"/>
    <tag k="name" v="Agip"/>
    <tag k="operator" v="Agip"/>
    <tag k="www.prezzibenzina.it" v="1527"/>
  </node>
</osm>
