<?xml version='1.0' encoding='UTF-8'?>
<osm version="0.6" generator="libosmium/2.20.0">
  <node id="23652865" version="4" timestamp="2010-03-05T20:07:50Z" uid="9581" user="Lobelt" changeset="4044097" lat="49.5091425" lon="8.6363372"/>
  <node id="23652870" version="4" timestamp="2010-03-05T20:07:50Z" uid="9581" user="Lobelt" changeset="4044097" lat="49.5090567" lon="8.636411"/>
  <node id="23652873" version="4" timestamp="2010-03-05T20:07:49Z" uid="9581" user="Lobelt" changeset="4044097" lat="49.5090322" lon="8.6364811"/>
  <node id="23652876" version="4" timestamp="2010-03-05T20:07:49Z" uid="9581" user="Lobelt" changeset="4044097" lat="49.5090282" lon="8.6365711"/>
  <node id="23652879" version="4" timestamp="2010-03-05T20:07:50Z" uid="9581" user="Lobelt" changeset="4044097" lat="49.5090726" lon="8.6366905"/>
  <node id="23652943" version="2" timestamp="2007-12-14T23:01:11Z" uid="4667" user="MapZ" changeset="310342" lat="49.5107416" lon="8.6392904">
    <tag k="created_by" v="JOSM"/>
    <tag k="highway" v="motorway_junction"/>
    <tag k="name" v="Hirschberg"/>
  </node>
  <node id="23654979" version="2" timestamp="2009-10-03T14:03:45Z" uid="179968" user="Ich_hasse_doitsche_OSM-Korinthenkacker" changeset="2724228" lat="51.7953891" lon="10.4465712">
    <tag k="name" v="JH Altenau"/>
    <tag k="tourism" v="hostel"/>
  </node>
  <node id="23655268" version="3" timestamp="2008-12-17T22:07:50Z" uid="65847" user="LKK" changeset="448079" lat="51.0503946" lon="8.3894596">
    <tag k="created_by" v="Potlatch 0.4c"/>
    <tag k="name" v="(0)2751-7340"/>
    <tag k="tourism" v="hostel"/>
  </node>
  <node id="23655384" version="4" timestamp="2007-10-28T10:47:12Z" uid="8975" user="magkes" changeset="342247" lat="51.8718355" lon="10.5554767">
    <tag k="created_by" v="Potlatch 0.4a"/>
    <tag k="name" v="-23.12."/>
    <tag k="tourism" v="hostel"/>
  </node>
  <node id="23655736" version="3" timestamp="2009-10-07T16:50:07Z" uid="86259" user="hasse_osm_korinthenkacker" changeset="2773624" lat="47.6265624" lon="12.9867997">
    <tag k="name" v="1."/>
    <tag k="tourism" v="hostel"/>
  </node>
  <node id="23655736" version="4" timestamp="2009-10-08T18:57:46Z" uid="86259" user="hasse_osm_korinthenkacker" changeset="2785814" lat="47.6265624" lon="12.9867997">
    <tag k="name" v="1."/>
    <tag k="tourism" v="hostel"/>
  </node>
  <node id="23656031" version="5" timestamp="2007-12-12T14:29:22Z" uid="5871" user="Banny" changeset="271580" lat="50.9670309" lon="7.6917426">
    <tag k="created_by" v="JOSM"/>
    <tag k="name" v="A4"/>
    <tag k="tourism" v="hostel"/>
  </node>
  <node id="23656109" version="4" timestamp="2009-12-09T15:22:12Z" uid="200463" user="harmagedon" changeset="3334003" lat="49.0793225" lon="13.1099469">
    <tag k="name" v="1. und 27.12.-31.12."/>
    <tag k="tourism" v="hostel"/>
  </node>
  <node id="23656380" version="2" timestamp="2007-10-24T14:10:12Z" uid="9581" user="Lobelt" changeset="305513" lat="52.165627" lon="14.5683534">
    <tag k="created_by" v="Potlatch 0.4a"/>
    <tag k="name" v=" in der Zeit vom 01.11.-28.02."/>
    <tag k="tourism" v="hostel"/>
  </node>
  <node id="23656380" version="3" timestamp="2007-10-31T10:59:57Z" uid="9581" user="Lobelt" changeset="371313" lat="52.1656233" lon="14.5683477">
    <tag k="created_by" v="Potlatch 0.4b"/>
    <tag k="name" v=" in der Zeit vom 01.11.-28.02."/>
    <tag k="tourism" v="hostel"/>
  </node>
  <node id="23656708" version="1" timestamp="2007-07-19T14:57:49Z" uid="9581" user="Lobelt" changeset="154433" lat="51.76199" lon="14.33371">
    <tag k="created_by" v="JOSM"/>
    <tag k="name" v="Jugendherberge am Klosterplatz"/>
    <tag k="tourism" v="hostel"/>
  </node>
  <node id="23656708" version="4" timestamp="2007-12-13T11:31:05Z" uid="9581" user="Lobelt" changeset="282237" lat="51.7620536" lon="14.3333741">
    <tag k="created_by" v="Potlatch 0.5d"/>
    <tag k="name" v="Jugendherberge am Klosterplatz"/>
    <tag k="tourism" v="hostel"/>
  </node>
  <node id="23657285" version="4" timestamp="2009-10-17T23:41:28Z" uid="36809" user="pfoten_weg_!_" changeset="2879001" lat="47.7087443" lon="11.4072028">
    <tag k="name" v="JH für Mädchen"/>
    <tag k="tourism" v="hostel"/>
  </node>
  <node id="23657293" version="1" timestamp="2007-04-15T21:28:28Z" uid="4667" user="MapZ" changeset="15533" lat="47.57263" lon="10.65237">
    <tag k="created_by" v="JOSM"/>
    <tag k="name" v="JGH Füssen"/>
    <tag k="tourism" v="hostel"/>
  </node>
  <node id="23657348" version="6" timestamp="2009-12-09T15:20:40Z" uid="200463" user="harmagedon" changeset="3334003" lat="48.986522" lon="13.2994044">
    <tag k="name" v="Hauptstraße 29a"/>
    <tag k="tourism" v="hostel"/>
  </node>
  <node id="23657656" version="4" timestamp="2008-07-10T22:12:36Z" uid="6975" user="ulfl" changeset="457552" lat="51.8989577" lon="10.4186225">
    <tag k="name" v="Jugendherberge Goslar Rammelsberger Straße 25 38644 goslar"/>
    <tag k="tourism" v="youth_hostel"/>
  </node>
  <node id="23657656" version="5" timestamp="2008-07-10T22:12:43Z" uid="6975" user="ulfl" changeset="457552" lat="51.8989577" lon="10.4186225">
    <tag k="name" v="Jugendherberge Goslar Rammelsberger Straße 25 38644 goslar"/>
    <tag k="tourism" v="hostel"/>
  </node>
  <node id="23657656" version="6" timestamp="2008-07-10T22:13:13Z" uid="6975" user="ulfl" changeset="457552" lat="51.8989577" lon="10.4186225">
    <tag k="address" v="Rammelsberger Straße 25 38644 Goslar"/>
    <tag k="name" v="Jugendherberge Goslar"/>
    <tag k="tourism" v="hostel"/>
  </node>
  <node id="23657720" version="9" timestamp="2009-10-08T22:47:50Z" uid="179968" user="Ich_hasse_doitsche_OSM-Korinthenkacker" changeset="2788677" lat="53.4974527" lon="7.0808862">
    <tag k="name" v="Kleinbahnstraße 15"/>
    <tag k="tourism" v="hostel"/>
  </node>
  <node id="23657831" version="1" timestamp="2007-07-15T20:37:26Z" uid="8975" user="magkes" changeset="145348" lat="51.84716" lon="10.33108">
    <tag k="created_by" v="JOSM"/>
    <tag k="name" v="5325-2256"/>
    <tag k="tourism" v="hostel"/>
  </node>
  <node id="23657847" version="1" timestamp="2007-09-19T20:30:49Z" uid="6454" user="B10xxx" changeset="472092" lat="50.0721154" lon="8.2548934">
    <tag k="created_by" v="JOSM"/>
  </node>
  <node id="23657870" version="1" timestamp="2007-09-19T20:30:34Z" uid="6454" user="B10xxx" changeset="472092" lat="50.0718499" lon="8.2504247">
    <tag k="created_by" v="JOSM"/>
  </node>
  <node id="23657884" version="2" timestamp="2008-01-18T01:37:03Z" uid="6454" user="B10xxx" changeset="658570" lat="50.063055" lon="8.2508654">
    <tag k="created_by" v="JOSM"/>
  </node>
  <node id="23657916" version="7" timestamp="2011-06-15T16:42:53Z" uid="33382" user="de_muur" changeset="8448646" lat="51.4273494" lon="9.63704"/>
  <node id="23657928" version="3" timestamp="2007-12-09T21:23:10Z" uid="13367" user="nubok" changeset="221297" lat="52.3991228" lon="9.855494">
    <tag k="created_by" v="Potlatch 0.5d"/>
    <tag k="name" v="049-(0)511-580537"/>
    <tag k="tourism" v="hostel"/>
  </node>
  <node id="23658259" version="4" timestamp="2008-11-11T15:57:32Z" uid="43863" user="Rundling" changeset="735418" lat="53.1575112" lon="10.9836525">
    <tag k="created_by" v="Potlatch 0.4a"/>
    <tag k="name" v="Wolfsschlucht 2"/>
    <tag k="tourism" v="hostel"/>
  </node>
  <node id="23658259" version="5" timestamp="2011-01-04T19:58:19Z" uid="43863" user="Rundling" changeset="6864979" lat="53.1575112" lon="10.9836525">
    <tag k="name" v="Wolfsschlucht 2"/>
    <tag k="tourism" v="hostel"/>
  </node>
  <node id="23658634" version="2" timestamp="2007-10-24T13:44:19Z" uid="9581" user="Lobelt" changeset="305513" lat="52.0782897" lon="13.80634">
    <tag k="created_by" v="Potlatch 0.4a"/>
    <tag k="name" v="ee"/>
    <tag k="tourism" v="hostel"/>
  </node>
  <node id="23658703" version="2" timestamp="2007-11-02T16:23:02Z" uid="9581" user="Lobelt" changeset="385488" lat="50.5528422" lon="11.0523107">
    <tag k="created_by" v="Potlatch 0.4c"/>
    <tag k="name" v="Bahnhofstr. 82"/>
    <tag k="tourism" v="hostel"/>
  </node>
  <node id="23658703" version="3" timestamp="2007-11-19T16:03:13Z" uid="9581" user="Lobelt" changeset="569136" lat="50.5531203" lon="11.0526712">
    <tag k="created_by" v="Potlatch 0.5a"/>
    <tag k="name" v="Bahnhofstr. 82"/>
    <tag k="tourism" v="hostel"/>
  </node>
  <node id="23658888" version="2" timestamp="2007-10-24T11:56:23Z" uid="9581" user="Lobelt" changeset="305513" lat="51.925297" lon="13.8958985">
    <tag k="created_by" v="Potlatch 0.4a"/>
    <tag k="name" v="Gruppen erwünscht in der Zeit vom 01.11.-28.02."/>
    <tag k="tourism" v="hostel"/>
  </node>
  <node id="23658888" version="3" timestamp="2007-10-31T10:50:27Z" uid="9581" user="Lobelt" changeset="371313" lat="51.9252917" lon="13.8958985">
    <tag k="created_by" v="Potlatch 0.4b"/>
    <tag k="name" v="Gruppen erwünscht in der Zeit vom 01.11.-28.02."/>
    <tag k="tourism" v="hostel"/>
  </node>
  <node id="23658956" version="4" timestamp="2007-11-19T15:42:10Z" uid="9581" user="Lobelt" changeset="569136" lat="50.6595477" lon="12.0908534">
    <tag k="created_by" v="Potlatch 0.5a"/>
    <tag k="name" v="12.-22.12."/>
    <tag k="tourism" v="hostel"/>
  </node>
  <node id="23659197" version="1" timestamp="2007-08-11T18:12:01Z" uid="5871" user="Banny" changeset="204592" lat="51.01661" lon="7.38287">
    <tag k="created_by" v="JOSM"/>
    <tag k="name" v="2."/>
    <tag k="tourism" v="hostel"/>
  </node>
  <node id="23659221" version="3" timestamp="2009-09-14T08:03:44Z" uid="6975" user="ulfl" changeset="2478781" lat="48.21717" lon="8.85404">
    <tag k="name" v="J.H.-Lochen"/>
    <tag k="telephone" v="0049-(0)7433-37383"/>
    <tag k="tourism" v="hostel"/>
  </node>
  <node id="23659367" version="4" timestamp="2008-02-16T23:17:00Z" uid="6975" user="ulfl" changeset="141861" lat="48.099591" lon="11.5436328">
    <tag k="name" v="rn.de"/>
    <tag k="tourism" v="hostel"/>
  </node>
  <node id="23659367" version="7" timestamp="2008-10-01T01:37:53Z" uid="36809" user="pfoten_weg_!_" changeset="5644" lat="48.0993365" lon="11.5435456">
    <tag k="name" v="Jugendherberge München-Park"/>
    <tag k="tourism" v="hostel"/>
  </node>
  <node id="23659367" version="8" timestamp="2009-02-15T12:48:17Z" uid="36809" user="pfoten_weg_!_" changeset="463903" lat="48.0993365" lon="11.5435456">
    <tag k="created_by" v="RambaZamba"/>
    <tag k="name" v="Jugendherberge München-Park"/>
    <tag k="source" v="survey"/>
    <tag k="tourism" v="hostel"/>
  </node>
  <node id="23659367" version="11" timestamp="2009-08-31T21:09:14Z" uid="36809" user="pfoten_weg_!_" changeset="2331411" lat="48.0993365" lon="11.5435456">
    <tag k="name" v="Jugendherberge München-Thalkirchen"/>
    <tag k="source" v="survey"/>
    <tag k="tourism" v="hostel"/>
  </node>
  <node id="23659367" version="12" timestamp="2009-10-13T23:40:02Z" uid="36809" user="pfoten_weg_!_" changeset="2841273" lat="48.0993365" lon="11.5435456">
    <tag k="name" v="Jugendherberge München-Thalkirchen"/>
    <tag k="tourism" v="hostel"/>
  </node>
</osm>
