<?xml version='1.0' encoding='UTF-8'?>
<osm version="0.6" generator="libosmium/2.20.0">
  <node id="239735139" version="3" timestamp="2009-01-24T19:19:05Z" uid="33382" user="de_muur" changeset="831456" lat="53.0388776" lon="8.9099229">
    <tag k="amenity" v="post_office"/>
    <tag k="created_by" v="JOSM"/>
  </node>
  <node id="239735179" version="2" timestamp="2008-10-14T16:07:40Z" uid="33382" user="de_muur" changeset="333433" lat="53.0380318" lon="8.9345447">
    <tag k="created_by" v="JOSM"/>
    <tag k="name" v="Hol&apos; Ab!"/>
    <tag k="shop" v="supermarket"/>
  </node>
  <node id="239735179" version="3" timestamp="2010-03-07T16:57:53Z" uid="33382" user="de_muur" changeset="4063283" lat="53.0380318" lon="8.9345447">
    <tag k="name" v="Hol&apos; Ab!"/>
    <tag k="shop" v="beverages"/>
  </node>
  <node id="239735197" version="2" timestamp="2008-07-03T17:44:19Z" uid="6975" user="ulfl" changeset="379368" lat="53.0581099" lon="8.9432121">
    <tag k="name" v="Autoteile Unger"/>
    <tag k="shop" v="car_repair"/>
  </node>
  <node id="239735450" version="3" timestamp="2010-03-16T18:47:51Z" uid="33382" user="de_muur" changeset="4145614" lat="53.0460877" lon="8.9591429">
    <tag k="name" v="Toys R Us"/>
    <tag k="shop" v="toys"/>
  </node>
  <node id="239736150" version="2" timestamp="2008-09-06T19:25:53Z" uid="58091" user="Andreas M" changeset="555001" lat="48.247859" lon="16.3622595">
    <tag k="created_by" v="JOSM"/>
  </node>
  <node id="239736150" version="7" timestamp="2009-01-03T17:08:15Z" uid="58091" user="Andreas M" changeset="721411" lat="48.2478763" lon="16.3623632"/>
</osm>
