<?xml version='1.0' encoding='UTF-8'?>
<osm version="0.6" generator="libosmium/2.20.0">
  <node id="241961551" version="1" timestamp="2008-01-22T16:38:43Z" uid="9581" user="Lobelt" changeset="682552" lat="51.7468992" lon="14.3283962">
    <tag k="amenity" v="place_of_worship"/>
    <tag k="created_by" v="Potlatch 0.6c"/>
    <tag k="name" v="Lutherkirche"/>
    <tag k="religion" v="christian"/>
  </node>
  <node id="241962674" version="1" timestamp="2008-01-22T16:40:27Z" uid="9581" user="Lobelt" changeset="682552" lat="51.7521546" lon="14.3334001">
    <tag k="amenity" v="place_of_worship"/>
    <tag k="created_by" v="Potlatch 0.6c"/>
    <tag k="name" v="Christuskirche"/>
    <tag k="religion" v="christian"/>
  </node>
  <node id="241964054" version="1" timestamp="2008-01-22T16:42:19Z" uid="9581" user="Lobelt" changeset="682552" lat="51.7234846" lon="14.3518708">
    <tag k="amenity" v="place_of_worship"/>
    <tag k="created_by" v="Potlatch 0.6c"/>
    <tag k="name" v="Martinskirche"/>
    <tag k="religion" v="christian"/>
  </node>
  <node id="241967059" version="1" timestamp="2008-01-22T16:46:12Z" uid="9581" user="Lobelt" changeset="682552" lat="51.7547315" lon="14.3309367">
    <tag k="amenity" v="place_of_worship"/>
    <tag k="created_by" v="Potlatch 0.6c"/>
    <tag k="name" v="St. Maria"/>
    <tag k="religion" v="christian"/>
  </node>
  <node id="241967059" version="2" timestamp="2008-09-02T08:27:04Z" uid="9581" user="Lobelt" changeset="497308" lat="51.7548107" lon="14.3307662">
    <tag k="amenity" v="place_of_worship"/>
    <tag k="created_by" v="Potlatch 0.6c"/>
    <tag k="name" v="St. Maria"/>
    <tag k="religion" v="christian"/>
  </node>
</osm>
