<?xml version='1.0' encoding='UTF-8'?>
<osm version="0.6" generator="libosmium/2.20.0">
  <node id="243026995" version="3" timestamp="2010-10-05T08:49:20Z" uid="115477" user="wowik" changeset="5959534" lat="54.8361397" lon="29.1451923">
    <tag k="name" v="Варки"/>
    <tag k="place" v="hamlet"/>
  </node>
  <node id="243027017" version="3" timestamp="2010-09-15T14:30:32Z" uid="115477" user="wowik" changeset="5787740" lat="54.8807497" lon="29.1619915">
    <tag k="name" v="Коптевичи"/>
    <tag k="place" v="hamlet"/>
  </node>
  <node id="243027022" version="3" timestamp="2010-09-15T14:30:31Z" uid="115477" user="wowik" changeset="5787740" lat="54.884749" lon="29.1697592">
    <tag k="name" v="Казановка"/>
    <tag k="place" v="hamlet"/>
  </node>
  <node id="243027030" version="3" timestamp="2010-09-16T04:38:28Z" uid="115477" user="wowik" changeset="5792341" lat="54.9084409" lon="29.1120644">
    <tag k="name" v="Пристои"/>
    <tag k="place" v="hamlet"/>
  </node>
  <node id="243027107" version="3" timestamp="2010-09-15T14:38:33Z" uid="115477" user="wowik" changeset="5787740" lat="54.9171979" lon="29.2440027">
    <tag k="name" v="Вежовка"/>
    <tag k="place" v="hamlet"/>
  </node>
  <node id="243027331" version="4" timestamp="2008-07-03T15:12:30Z" uid="6975" user="ulfl" changeset="378199" lat="-26.1296851" lon="28.0680898">
    <tag k="amenity" v="restaurant"/>
    <tag k="name" v="Nandos"/>
  </node>
  <node id="243027367" version="3" timestamp="2010-09-15T14:30:32Z" uid="115477" user="wowik" changeset="5787740" lat="54.764374" lon="29.2123741">
    <tag k="name" v="Колмаки"/>
    <tag k="place" v="hamlet"/>
  </node>
  <node id="243027992" version="3" timestamp="2008-07-03T15:12:29Z" uid="6975" user="ulfl" changeset="378199" lat="-26.1293383" lon="28.068167">
    <tag k="amenity" v="restaurant"/>
    <tag k="name" v="Mivamis"/>
  </node>
  <node id="243028505" version="4" timestamp="2010-12-07T14:08:47Z" uid="115477" user="wowik" changeset="6575231" lat="55.6044444" lon="29.0329079">
    <tag k="name" v="Новая Полота"/>
    <tag k="place" v="hamlet"/>
  </node>
</osm>
