<?xml version='1.0' encoding='UTF-8'?>
<osm version="0.6" generator="libosmium/2.20.0">
  <node id="24567934" version="1" timestamp="2007-05-23T10:05:41Z" uid="1066" user="pavel" changeset="63873" lat="50.0749887" lon="14.4371409">
    <tag k="created_by" v="JOSM"/>
    <tag k="name" v="namesti Miru, Metro A"/>
    <tag k="railway" v="station"/>
  </node>
  <node id="24567987" version="1" timestamp="2007-05-23T10:05:41Z" uid="1066" user="pavel" changeset="63873" lat="50.07806" lon="14.46111">
    <tag k="created_by" v="JOSM"/>
    <tag k="name" v="Flora, Metro A"/>
    <tag k="railway" v="station"/>
  </node>
  <node id="24568055" version="1" timestamp="2007-02-06T21:08:49Z" uid="1066" user="pavel" changeset="210101" lat="50.0973671" lon="14.4020065"/>
  <node id="24568079" version="1" timestamp="2007-05-20T23:05:11Z" uid="1066" user="pavel" changeset="60144" lat="50.07778" lon="14.4553669"/>
  <node id="24568117" version="1" timestamp="2007-05-23T10:05:41Z" uid="1066" user="pavel" changeset="63873" lat="50.07778" lon="14.45139">
    <tag k="created_by" v="JOSM"/>
    <tag k="name" v="Jiriho z Podebrad, Metro A"/>
    <tag k="railway" v="station"/>
  </node>
  <node id="24568143" version="1" timestamp="2007-01-04T10:33:55Z" uid="1066" user="pavel" changeset="187327" lat="50.09111" lon="14.40944">
    <tag k="created_by" v="JOSM"/>
    <tag k="name" v="Malostranska, Metro A"/>
    <tag k="railway" v="station"/>
  </node>
  <node id="24568158" version="1" timestamp="2007-01-04T10:34:18Z" uid="1066" user="pavel" changeset="187327" lat="50.09139" lon="14.40944">
    <tag k="created_by" v="JOSM"/>
    <tag k="name" v="Malostranska, Metro A"/>
    <tag k="railway" v="station"/>
  </node>
  <node id="24568191" version="1" timestamp="2007-05-23T10:05:41Z" uid="1066" user="pavel" changeset="63873" lat="50.09222" lon="14.40917">
    <tag k="created_by" v="JOSM"/>
    <tag k="name" v="Malostranska, Metro A"/>
    <tag k="railway" v="station"/>
  </node>
  <node id="24568207" version="1" timestamp="2007-01-04T10:34:24Z" uid="1066" user="pavel" changeset="187327" lat="50.08444" lon="14.42306">
    <tag k="created_by" v="JOSM"/>
    <tag k="name" v="Mustek, Metro A"/>
    <tag k="railway" v="station"/>
  </node>
  <node id="24568223" version="6" timestamp="2010-04-15T16:01:12Z" uid="23543" user="jkjk" changeset="4431942" lat="50.0841544" lon="14.4241445">
    <tag k="name" v="Můstek, Metro A"/>
    <tag k="railway" v="subway_entrance"/>
  </node>
  <node id="24568240" version="1" timestamp="2007-05-23T10:05:41Z" uid="1066" user="pavel" changeset="63873" lat="50.08361" lon="14.42389">
    <tag k="created_by" v="JOSM"/>
    <tag k="name" v="Mustek, Metro A"/>
    <tag k="railway" v="station"/>
  </node>
  <node id="24568258" version="6" timestamp="2010-04-15T16:01:13Z" uid="23543" user="jkjk" changeset="4431942" lat="50.0820633" lon="14.4255862">
    <tag k="name" v="Můstek, Metro A"/>
    <tag k="railway" v="subway_entrance"/>
  </node>
  <node id="24568286" version="1" timestamp="2007-01-04T10:34:35Z" uid="1066" user="pavel" changeset="187327" lat="50.07944" lon="14.43056">
    <tag k="created_by" v="JOSM"/>
    <tag k="name" v="Muzeum, Metro A"/>
    <tag k="railway" v="station"/>
  </node>
  <node id="24568304" version="1" timestamp="2007-02-05T18:16:08Z" uid="1066" user="pavel" changeset="209315" lat="50.0805324" lon="14.4311823"/>
  <node id="24568322" version="1" timestamp="2007-05-23T10:05:41Z" uid="1066" user="pavel" changeset="63873" lat="50.07917" lon="14.43194">
    <tag k="created_by" v="JOSM"/>
    <tag k="name" v="Muzeum, Metro A"/>
    <tag k="railway" v="station"/>
  </node>
  <node id="24568339" version="1" timestamp="2007-01-04T10:34:41Z" uid="1066" user="pavel" changeset="187327" lat="50.06833" lon="14.5075">
    <tag k="created_by" v="JOSM"/>
    <tag k="name" v="Skalka, Metro A"/>
    <tag k="railway" v="station"/>
  </node>
  <node id="24568356" version="1" timestamp="2007-05-23T10:05:41Z" uid="1066" user="pavel" changeset="63873" lat="50.06833" lon="14.50722">
    <tag k="created_by" v="JOSM"/>
    <tag k="name" v="Skalka, Metro A"/>
    <tag k="railway" v="station"/>
  </node>
  <node id="24568373" version="1" timestamp="2007-01-04T10:34:45Z" uid="1066" user="pavel" changeset="187327" lat="50.06833" lon="14.50861">
    <tag k="created_by" v="JOSM"/>
    <tag k="name" v="Skalka, Metro A"/>
    <tag k="railway" v="station"/>
  </node>
  <node id="24568390" version="1" timestamp="2007-05-23T10:05:41Z" uid="1066" user="pavel" changeset="63873" lat="50.08833" lon="14.41667">
    <tag k="created_by" v="JOSM"/>
    <tag k="name" v="Staromestska, Metro A"/>
    <tag k="railway" v="station"/>
  </node>
  <node id="24568407" version="1" timestamp="2007-05-23T10:05:41Z" uid="1066" user="pavel" changeset="63873" lat="50.08806" lon="14.41833">
    <tag k="created_by" v="JOSM"/>
    <tag k="name" v="Staromestska, Metro A"/>
    <tag k="railway" v="station"/>
  </node>
  <node id="24568424" version="1" timestamp="2007-01-04T10:34:51Z" uid="1066" user="pavel" changeset="187327" lat="50.07278" lon="14.49111">
    <tag k="created_by" v="JOSM"/>
    <tag k="name" v="Strasnicka, Metro A"/>
    <tag k="railway" v="station"/>
  </node>
  <node id="24568446" version="1" timestamp="2007-05-23T10:05:41Z" uid="1066" user="pavel" changeset="63873" lat="50.07333" lon="14.49">
    <tag k="created_by" v="JOSM"/>
    <tag k="name" v="Strasnicka, Metro A"/>
    <tag k="railway" v="station"/>
  </node>
  <node id="24568479" version="4" timestamp="2009-04-25T08:00:38Z" uid="1066" user="pavel" changeset="940713" lat="50.0900389" lon="14.4393208">
    <tag k="created_by" v="JOSM"/>
  </node>
  <node id="24568479" version="5" timestamp="2009-06-14T00:04:07Z" uid="23543" user="jkjk" changeset="1509741" lat="50.0900835" lon="14.4391368">
    <tag k="created_by" v="JOSM"/>
  </node>
  <node id="24568486" version="1" timestamp="2007-01-04T10:35:20Z" uid="1066" user="pavel" changeset="187327" lat="50.08981" lon="14.43954">
    <tag k="created_by" v="JOSM"/>
    <tag k="name" v="Florenc, Metro C"/>
    <tag k="railway" v="station"/>
  </node>
  <node id="24568505" version="2" timestamp="2009-04-25T08:00:39Z" uid="1066" user="pavel" changeset="940713" lat="50.0906069" lon="14.4394634">
    <tag k="created_by" v="JOSM"/>
    <tag k="name" v="Florenc, Metro C"/>
    <tag k="railway" v="station"/>
  </node>
  <node id="24568505" version="3" timestamp="2009-06-14T00:04:07Z" uid="23543" user="jkjk" changeset="1509741" lat="50.0906738" lon="14.4393519">
    <tag k="created_by" v="JOSM"/>
    <tag k="name" v="Florenc, Metro C"/>
    <tag k="railway" v="station"/>
  </node>
  <node id="24568519" version="4" timestamp="2009-04-25T08:00:38Z" uid="1066" user="pavel" changeset="940713" lat="50.0907831" lon="14.4391717">
    <tag k="created_by" v="JOSM"/>
    <tag k="name" v="Florenc, Metro B"/>
    <tag k="railway" v="station"/>
  </node>
  <node id="24568552" version="6" timestamp="2010-02-08T02:08:03Z" uid="23543" user="jkjk" changeset="3820490" lat="50.0537373" lon="14.2907247">
    <tag k="name" v="Zličín, Metro B"/>
    <tag k="railway" v="station"/>
  </node>
  <node id="24568623" version="1" timestamp="2007-01-04T10:36:26Z" uid="1066" user="pavel" changeset="187327" lat="50.04518" lon="14.3222">
    <tag k="created_by" v="JOSM"/>
    <tag k="name" v="Luka, Metro B"/>
    <tag k="railway" v="station"/>
  </node>
  <node id="24568631" version="1" timestamp="2007-01-04T10:36:28Z" uid="1066" user="pavel" changeset="187327" lat="50.04536" lon="14.3218">
    <tag k="created_by" v="JOSM"/>
    <tag k="name" v="Luka, Metro B"/>
    <tag k="railway" v="station"/>
  </node>
  <node id="24568844" version="1" timestamp="2007-01-04T10:36:53Z" uid="1066" user="pavel" changeset="187327" lat="50.05431" lon="14.37059">
    <tag k="created_by" v="JOSM"/>
    <tag k="name" v="Jinonice, Metro B"/>
    <tag k="railway" v="station"/>
  </node>
  <node id="24568861" version="1" timestamp="2007-01-04T10:36:55Z" uid="1066" user="pavel" changeset="187327" lat="50.0541" lon="14.36918">
    <tag k="created_by" v="JOSM"/>
    <tag k="name" v="Jinonice, Metro B"/>
    <tag k="railway" v="station"/>
  </node>
  <node id="24568873" version="4" timestamp="2009-12-16T20:39:36Z" uid="23543" user="jkjk" changeset="3389550" lat="50.0581926" lon="14.3886758">
    <tag k="name" v="Radlická, Metro B"/>
    <tag k="railway" v="station"/>
  </node>
  <node id="24568874" version="4" timestamp="2009-12-16T20:39:36Z" uid="23543" user="jkjk" changeset="3389550" lat="50.0579447" lon="14.3883754">
    <tag k="name" v="Radlická, Metro B"/>
    <tag k="railway" v="station"/>
  </node>
  <node id="24568929" version="1" timestamp="2007-03-25T18:12:28Z" uid="1066" user="pavel" changeset="245003" lat="50.0618" lon="14.4088969"/>
  <node id="24569130" version="5" timestamp="2010-04-15T16:01:25Z" uid="23543" user="jkjk" changeset="4431942" lat="50.0843777" lon="14.4232136">
    <tag k="name" v="Můstek, Metro A"/>
    <tag k="railway" v="subway_entrance"/>
  </node>
  <node id="24569148" version="1" timestamp="2007-05-23T10:05:41Z" uid="1066" user="pavel" changeset="63873" lat="50.0836" lon="14.42392">
    <tag k="created_by" v="JOSM"/>
    <tag k="name" v="Mustek, Metro B"/>
    <tag k="railway" v="station"/>
  </node>
  <node id="24569186" version="5" timestamp="2009-04-25T08:03:31Z" uid="1066" user="pavel" changeset="940801" lat="50.0882666" lon="14.4318185">
    <tag k="created_by" v="JOSM"/>
    <tag k="name" v="Náměstí Republiky, Metro B"/>
    <tag k="railway" v="station"/>
  </node>
  <node id="24569304" version="1" timestamp="2007-01-04T10:40:28Z" uid="1066" user="pavel" changeset="187327" lat="50.09703" lon="14.46463">
    <tag k="created_by" v="JOSM"/>
    <tag k="name" v="Invalidovna, Metro B"/>
    <tag k="railway" v="station"/>
  </node>
  <node id="24569392" version="1" timestamp="2007-02-05T22:53:24Z" uid="1066" user="pavel" changeset="209315" lat="50.1063696" lon="14.4928169"/>
  <node id="24569412" version="1" timestamp="2007-01-04T10:40:41Z" uid="1066" user="pavel" changeset="187327" lat="50.10629" lon="14.49229">
    <tag k="created_by" v="JOSM"/>
    <tag k="name" v="Ceskomoravska, Metro B"/>
    <tag k="railway" v="station"/>
  </node>
  <node id="24569431" version="1" timestamp="2007-02-05T22:53:16Z" uid="1066" user="pavel" changeset="209315" lat="50.106319" lon="14.4898669"/>
  <node id="24569448" version="1" timestamp="2007-01-04T10:40:45Z" uid="1066" user="pavel" changeset="187327" lat="50.11059" lon="14.50185">
    <tag k="created_by" v="JOSM"/>
    <tag k="name" v="ocanska, Metro B"/>
    <tag k="railway" v="station"/>
  </node>
  <node id="24569465" version="1" timestamp="2007-01-04T10:40:47Z" uid="1066" user="pavel" changeset="187327" lat="50.11016" lon="14.5017">
    <tag k="created_by" v="JOSM"/>
    <tag k="name" v="Vysocanska, Metro B"/>
    <tag k="railway" v="station"/>
  </node>
  <node id="24569515" version="4" timestamp="2009-04-24T07:21:35Z" uid="1066" user="pavel" changeset="923907" lat="50.10643" lon="14.5374462">
    <tag k="created_by" v="JOSM"/>
    <tag k="name" v="Hloubětín, Metro B"/>
    <tag k="railway" v="station"/>
  </node>
  <node id="24569530" version="1" timestamp="2007-02-03T13:46:19Z" uid="1066" user="pavel" changeset="207056" lat="50.10652" lon="14.53703">
    <tag k="created_by" v="JOSM"/>
    <tag k="name" v="Hloubetin, Metro B"/>
    <tag k="railway" v="station"/>
  </node>
  <node id="24569535" version="1" timestamp="2007-02-03T13:46:13Z" uid="1066" user="pavel" changeset="207056" lat="50.10687" lon="14.53569">
    <tag k="created_by" v="JOSM"/>
  </node>
  <node id="24569535" version="2" timestamp="2007-12-09T19:43:52Z" uid="1066" user="pavel" changeset="213143" lat="50.10687" lon="14.53569">
    <tag k="created_by" v="JOSM"/>
  </node>
  <node id="24569564" version="4" timestamp="2009-04-24T07:21:35Z" uid="1066" user="pavel" changeset="923907" lat="50.1069198" lon="14.5611095">
    <tag k="created_by" v="JOSM"/>
    <tag k="name" v="Rajská zahrada, Metro B"/>
    <tag k="railway" v="station"/>
  </node>
  <node id="24569584" version="1" timestamp="2007-02-03T13:46:17Z" uid="1066" user="pavel" changeset="207056" lat="50.10674" lon="14.5598">
    <tag k="created_by" v="JOSM"/>
    <tag k="name" v="Rajska zahrada, Metro B"/>
    <tag k="railway" v="station"/>
  </node>
  <node id="24569600" version="1" timestamp="2007-02-03T13:46:20Z" uid="1066" user="pavel" changeset="207056" lat="50.10908" lon="14.57766">
    <tag k="created_by" v="JOSM"/>
    <tag k="name" v="Cerny Most, Metro B"/>
    <tag k="railway" v="station"/>
  </node>
  <node id="24569649" version="1" timestamp="2007-01-04T10:41:32Z" uid="1066" user="pavel" changeset="187327" lat="50.09115" lon="14.43949">
    <tag k="created_by" v="JOSM"/>
    <tag k="name" v="Florenc, Metro C"/>
    <tag k="railway" v="station"/>
  </node>
  <node id="24569666" version="1" timestamp="2007-01-04T10:41:34Z" uid="1066" user="pavel" changeset="187327" lat="50.07535" lon="14.42993">
    <tag k="created_by" v="JOSM"/>
    <tag k="name" v="I. P. Pavlova, Metro C"/>
    <tag k="railway" v="station"/>
  </node>
  <node id="24569684" version="10" timestamp="2009-04-25T08:00:38Z" uid="1066" user="pavel" changeset="940713" lat="50.0754545" lon="14.4307991">
    <tag k="name" v="I. P. Pavlova, Metro C"/>
    <tag k="railway" v="station"/>
  </node>
  <node id="24569684" version="11" timestamp="2009-05-26T11:19:27Z" uid="23543" user="jkjk" changeset="1324795" lat="50.0747783" lon="14.4302209">
    <tag k="name" v="I. P. Pavlova, Metro C"/>
    <tag k="railway" v="station"/>
  </node>
  <node id="24569718" version="5" timestamp="2009-04-25T08:00:38Z" uid="1066" user="pavel" changeset="940713" lat="50.127019" lon="14.4697208">
    <tag k="created_by" v="JOSM"/>
    <tag k="name" v="Ládví, Metro C"/>
    <tag k="railway" v="station"/>
  </node>
  <node id="24569759" version="3" timestamp="2009-04-25T08:00:38Z" uid="1066" user="pavel" changeset="940713" lat="50.1245801" lon="14.4547308">
    <tag k="created_by" v="JOSM"/>
    <tag k="name" v="Kobylisy, Metro C"/>
    <tag k="railway" v="station"/>
  </node>
  <node id="24569759" version="5" timestamp="2010-04-30T00:05:21Z" uid="23543" user="jkjk" changeset="4562567" lat="50.1242737" lon="14.4546902">
    <tag k="name" v="Kobylisy, Metro C"/>
    <tag k="railway" v="station"/>
  </node>
  <node id="24569776" version="6" timestamp="2009-04-25T08:00:39Z" uid="1066" user="pavel" changeset="940713" lat="50.1101037" lon="14.4405085">
    <tag k="created_by" v="JOSM"/>
  </node>
  <node id="24569776" version="8" timestamp="2010-04-30T00:05:21Z" uid="23543" user="jkjk" changeset="4562567" lat="50.1097952" lon="14.4393499"/>
  <node id="24569792" version="6" timestamp="2009-04-25T08:00:38Z" uid="1066" user="pavel" changeset="940713" lat="50.1093907" lon="14.440707">
    <tag k="created_by" v="JOSM"/>
    <tag k="name" v="Nádraží Holešovice, Metro C"/>
    <tag k="railway" v="station"/>
  </node>
  <node id="24569792" version="9" timestamp="2010-04-30T00:05:21Z" uid="23543" user="jkjk" changeset="4562567" lat="50.1089539" lon="14.4401525">
    <tag k="name" v="Nádraží Holešovice, Metro C"/>
    <tag k="public_transport" v="stop_position"/>
    <tag k="railway" v="station"/>
    <tag k="subway" v="yes"/>
  </node>
  <node id="24569809" version="1" timestamp="2007-01-04T10:41:51Z" uid="1066" user="pavel" changeset="187327" lat="50.10886" lon="14.44036">
    <tag k="created_by" v="JOSM"/>
    <tag k="name" v="Nadrazi Holesovice, Metro C"/>
    <tag k="railway" v="station"/>
  </node>
  <node id="24569825" version="5" timestamp="2009-04-25T08:00:40Z" uid="1066" user="pavel" changeset="940713" lat="50.1011169" lon="14.4391934">
    <tag k="created_by" v="JOSM"/>
  </node>
  <node id="24569825" version="6" timestamp="2009-06-14T00:04:07Z" uid="23543" user="jkjk" changeset="1509741" lat="50.1011308" lon="14.4389007">
    <tag k="created_by" v="JOSM"/>
  </node>
  <node id="24569825" version="8" timestamp="2010-04-30T00:05:20Z" uid="23543" user="jkjk" changeset="4562567" lat="50.1016486" lon="14.4385364"/>
  <node id="24569842" version="1" timestamp="2007-01-04T10:41:55Z" uid="1066" user="pavel" changeset="187327" lat="50.09986" lon="14.43842">
    <tag k="created_by" v="JOSM"/>
    <tag k="name" v="Vltavska, Metro C"/>
    <tag k="railway" v="station"/>
  </node>
  <node id="24569849" version="6" timestamp="2009-04-25T08:00:39Z" uid="1066" user="pavel" changeset="940713" lat="50.0998721" lon="14.4393043">
    <tag k="created_by" v="JOSM"/>
    <tag k="name" v="Vltavská, Metro C"/>
    <tag k="railway" v="station"/>
  </node>
  <node id="24569849" version="7" timestamp="2009-06-14T00:04:07Z" uid="23543" user="jkjk" changeset="1509741" lat="50.0994975" lon="14.4385372">
    <tag k="created_by" v="JOSM"/>
    <tag k="name" v="Vltavská, Metro C"/>
    <tag k="railway" v="station"/>
  </node>
  <node id="24569849" version="10" timestamp="2010-04-30T00:05:20Z" uid="23543" user="jkjk" changeset="4562567" lat="50.0997852" lon="14.4385099">
    <tag k="name" v="Vltavská, Metro C"/>
    <tag k="public_transport" v="stop_position"/>
    <tag k="railway" v="station"/>
    <tag k="subway" v="yes"/>
  </node>
  <node id="24569850" version="7" timestamp="2009-04-25T08:00:39Z" uid="1066" user="pavel" changeset="940713" lat="50.0842927" lon="14.4350977">
    <tag k="created_by" v="JOSM"/>
    <tag k="name" v="Hlavní nádraží, Metro C"/>
    <tag k="railway" v="subway_entrance"/>
  </node>
  <node id="24569897" version="6" timestamp="2009-04-25T08:00:39Z" uid="1066" user="pavel" changeset="940713" lat="50.0838878" lon="14.4347934">
    <tag k="created_by" v="JOSM"/>
    <tag k="name" v="Hlavní nádraží, Metro C"/>
    <tag k="railway" v="station"/>
  </node>
  <node id="24569897" version="7" timestamp="2009-05-26T11:19:27Z" uid="23543" user="jkjk" changeset="1324795" lat="50.0835326" lon="14.4342585">
    <tag k="created_by" v="JOSM"/>
    <tag k="name" v="Hlavní nádraží, Metro C"/>
    <tag k="railway" v="station"/>
  </node>
  <node id="24569912" version="4" timestamp="2009-04-25T08:00:40Z" uid="1066" user="pavel" changeset="940713" lat="50.0811372" lon="14.432123"/>
  <node id="24569929" version="5" timestamp="2009-04-25T08:00:40Z" uid="1066" user="pavel" changeset="940713" lat="50.0803524" lon="14.4315498">
    <tag k="created_by" v="JOSM"/>
    <tag k="name" v="Muzeum, Metro C"/>
    <tag k="railway" v="station"/>
  </node>
  <node id="24569929" version="6" timestamp="2009-05-26T11:19:27Z" uid="23543" user="jkjk" changeset="1324795" lat="50.0800502" lon="14.4311946">
    <tag k="created_by" v="JOSM"/>
    <tag k="name" v="Muzeum, Metro C"/>
    <tag k="railway" v="station"/>
  </node>
  <node id="24569945" version="1" timestamp="2007-01-04T10:43:41Z" uid="1066" user="pavel" changeset="187327" lat="50.07934" lon="14.43043">
    <tag k="created_by" v="JOSM"/>
    <tag k="name" v="Muzeum, Metro C"/>
    <tag k="railway" v="station"/>
  </node>
</osm>
