<?xml version='1.0' encoding='UTF-8'?>
<osm version="0.6" generator="libosmium/2.20.0">
  <node id="24580659" version="1" timestamp="2007-01-04T12:00:58Z" uid="1066" user="pavel" changeset="187327" lat="50.0262" lon="14.28058">
    <tag k="created_by" v="JOSM"/>
    <tag k="name" v="Zbuzany"/>
    <tag k="railway" v="station"/>
  </node>
  <node id="24581065" version="1" timestamp="2007-01-07T17:10:51Z" uid="1066" user="pavel" changeset="189654" lat="49.9945" lon="16.10906">
    <tag k="created_by" v="JOSM"/>
    <tag k="name" v="Zamrsk"/>
    <tag k="railway" v="station"/>
  </node>
  <node id="24581198" version="1" timestamp="2007-01-04T12:02:48Z" uid="1066" user="pavel" changeset="187327" lat="50.45615" lon="14.32568">
    <tag k="created_by" v="JOSM"/>
    <tag k="name" v="Zaluzi"/>
    <tag k="railway" v="station"/>
  </node>
  <node id="24581217" version="1" timestamp="2007-01-04T12:02:50Z" uid="1066" user="pavel" changeset="187327" lat="50.5245" lon="14.09674">
    <tag k="created_by" v="JOSM"/>
    <tag k="name" v="Zalhostice"/>
    <tag k="railway" v="station"/>
  </node>
  <node id="24581250" version="1" timestamp="2007-01-04T12:02:54Z" uid="1066" user="pavel" changeset="187327" lat="50.58672" lon="13.9162">
    <tag k="created_by" v="JOSM"/>
    <tag k="name" v="Zalany zast."/>
    <tag k="railway" v="station"/>
  </node>
  <node id="24581416" version="2" timestamp="2010-05-09T03:52:24Z" uid="111804" user="Ammar Merzah" changeset="4644616" lat="33.3557383" lon="44.4202931"/>
  <node id="24581750" version="1" timestamp="2007-01-07T16:55:02Z" uid="1066" user="pavel" changeset="189654" lat="50.03048" lon="15.34892">
    <tag k="created_by" v="JOSM"/>
    <tag k="name" v="Zabori n.Labem"/>
    <tag k="railway" v="station"/>
  </node>
  <node id="24582065" version="1" timestamp="2007-01-05T21:14:37Z" uid="1066" user="pavel" changeset="188621" lat="49.27824" lon="16.99248">
    <tag k="created_by" v="JOSM"/>
    <tag k="name" v="Vyskov na Morave"/>
    <tag k="railway" v="station"/>
  </node>
  <node id="24582579" version="1" timestamp="2007-01-04T12:09:53Z" uid="1066" user="pavel" changeset="187327" lat="49.98337" lon="14.12304">
    <tag k="created_by" v="JOSM"/>
    <tag k="name" v="Vraz u Berouna"/>
    <tag k="railway" v="station"/>
  </node>
  <node id="24582739" version="1" timestamp="2007-01-04T12:10:37Z" uid="1066" user="pavel" changeset="187327" lat="50.33429" lon="14.37271">
    <tag k="created_by" v="JOSM"/>
    <tag k="name" v="Vranany"/>
    <tag k="railway" v="station"/>
  </node>
  <node id="24582807" version="1" timestamp="2007-07-31T21:25:05Z" uid="1066" user="pavel" changeset="182220" lat="49.6385771" lon="14.6199513">
    <tag k="created_by" v="JOSM"/>
    <tag k="name" v="Votice"/>
    <tag k="railway" v="station"/>
  </node>
  <node id="24583564" version="1" timestamp="2007-01-04T12:13:19Z" uid="1066" user="pavel" changeset="187327" lat="50.7468" lon="14.18083">
    <tag k="created_by" v="JOSM"/>
    <tag k="name" v="Vilsnice"/>
    <tag k="railway" v="station"/>
  </node>
  <node id="24583743" version="1" timestamp="2007-01-05T21:15:34Z" uid="1066" user="pavel" changeset="188621" lat="49.45041" lon="16.27081">
    <tag k="created_by" v="JOSM"/>
    <tag k="name" v="Vezna"/>
    <tag k="railway" v="station"/>
  </node>
  <node id="24584056" version="1" timestamp="2007-01-04T12:17:40Z" uid="1066" user="pavel" changeset="187327" lat="50.07363" lon="15.20069">
    <tag k="created_by" v="JOSM"/>
    <tag k="name" v="Veltruby"/>
    <tag k="railway" v="station"/>
  </node>
  <node id="24584150" version="1" timestamp="2007-01-18T00:19:47Z" uid="1066" user="pavel" changeset="197352" lat="50.1016296" lon="15.1935067">
    <tag k="created_by" v="JOSM"/>
    <tag k="name" v="Velky Osek"/>
    <tag k="railway" v="station"/>
  </node>
  <node id="24584267" version="1" timestamp="2007-01-04T12:18:30Z" uid="1066" user="pavel" changeset="187327" lat="50.52509" lon="14.08143">
    <tag k="created_by" v="JOSM"/>
    <tag k="name" v="Velke zernoseky"/>
    <tag k="railway" v="station"/>
  </node>
  <node id="24584677" version="1" timestamp="2007-01-07T16:54:00Z" uid="1066" user="pavel" changeset="189654" lat="50.0674" lon="15.1255">
    <tag k="created_by" v="JOSM"/>
    <tag k="name" v="Velim"/>
    <tag k="railway" v="station"/>
  </node>
  <node id="24584767" version="1" timestamp="2007-01-04T12:19:56Z" uid="1066" user="pavel" changeset="187327" lat="50.54678" lon="13.98893">
    <tag k="created_by" v="JOSM"/>
    <tag k="name" v="Velemin"/>
    <tag k="railway" v="station"/>
  </node>
  <node id="24585018" version="1" timestamp="2007-01-07T16:54:47Z" uid="1066" user="pavel" changeset="189654" lat="50.03175" lon="15.61404">
    <tag k="created_by" v="JOSM"/>
    <tag k="name" v="Valy u Prelouce"/>
    <tag k="railway" v="station"/>
  </node>
  <node id="24585243" version="1" timestamp="2007-01-07T16:54:32Z" uid="1066" user="pavel" changeset="189654" lat="50.07479" lon="14.72241">
    <tag k="created_by" v="JOSM"/>
    <tag k="name" v="Uvaly"/>
    <tag k="railway" v="station"/>
  </node>
  <node id="24585362" version="1" timestamp="2007-01-04T12:22:27Z" uid="1066" user="pavel" changeset="187327" lat="50.64985" lon="14.04879">
    <tag k="created_by" v="JOSM"/>
    <tag k="name" v="Usti n.L. zapad"/>
    <tag k="railway" v="station"/>
  </node>
  <node id="24585397" version="1" timestamp="2007-01-04T12:22:31Z" uid="1066" user="pavel" changeset="187327" lat="50.66426" lon="14.08095">
    <tag k="created_by" v="JOSM"/>
    <tag k="name" v="Usti n.L. hl.n."/>
    <tag k="railway" v="station"/>
  </node>
  <node id="24585413" version="1" timestamp="2007-01-04T12:22:33Z" uid="1066" user="pavel" changeset="187327" lat="50.6592" lon="14.0451">
    <tag k="created_by" v="JOSM"/>
    <tag k="name" v="Usti N. L."/>
    <tag k="railway" v="station"/>
  </node>
  <node id="24585533" version="1" timestamp="2007-01-04T12:22:47Z" uid="1066" user="pavel" changeset="187327" lat="50.10444" lon="14.1377">
    <tag k="created_by" v="JOSM"/>
    <tag k="name" v="Unhost"/>
    <tag k="railway" v="station"/>
  </node>
  <node id="24585796" version="1" timestamp="2007-01-07T17:09:34Z" uid="1066" user="pavel" changeset="189654" lat="49.98757" lon="16.01263">
    <tag k="created_by" v="JOSM"/>
    <tag k="name" v="Uhersko"/>
    <tag k="railway" v="station"/>
  </node>
  <node id="24585902" version="1" timestamp="2007-01-07T16:55:34Z" uid="1066" user="pavel" changeset="189654" lat="50.03789" lon="15.36128">
    <tag k="created_by" v="JOSM"/>
    <tag k="name" v="Tynec n.Labem"/>
    <tag k="railway" v="station"/>
  </node>
  <node id="24585997" version="1" timestamp="2007-01-07T16:54:44Z" uid="1066" user="pavel" changeset="189654" lat="50.07663" lon="14.77072">
    <tag k="created_by" v="JOSM"/>
    <tag k="name" v="Tuklaty"/>
    <tag k="railway" v="station"/>
  </node>
  <node id="24586778" version="2" timestamp="2010-08-16T09:21:58Z" uid="4467" user="Rosscoe" changeset="5507537" lat="-35.3349679" lon="149.0860053"/>
  <node id="24586778" version="3" timestamp="2010-08-16T10:34:44Z" uid="4467" user="Rosscoe" changeset="5507996" lat="-35.3349679" lon="149.0860053"/>
  <node id="24586809" version="3" timestamp="2011-05-02T04:44:48Z" uid="4467" user="Rosscoe" changeset="8027670" lat="-35.3347303" lon="149.0866855"/>
  <node id="24586817" version="3" timestamp="2011-05-02T04:45:02Z" uid="4467" user="Rosscoe" changeset="8027670" lat="-35.3347467" lon="149.0868032"/>
  <node id="24586825" version="3" timestamp="2011-05-02T04:44:49Z" uid="4467" user="Rosscoe" changeset="8027670" lat="-35.3348809" lon="149.0871538"/>
  <node id="24586833" version="3" timestamp="2011-05-02T04:44:56Z" uid="4467" user="Rosscoe" changeset="8027670" lat="-35.3366804" lon="149.0863887"/>
  <node id="24586841" version="2" timestamp="2010-08-16T09:22:40Z" uid="4467" user="Rosscoe" changeset="5507537" lat="-35.3365444" lon="149.0859087"/>
  <node id="24586841" version="3" timestamp="2010-08-16T10:35:42Z" uid="4467" user="Rosscoe" changeset="5507996" lat="-35.3365444" lon="149.0859087"/>
  <node id="24586841" version="5" timestamp="2011-05-02T04:44:59Z" uid="4467" user="Rosscoe" changeset="8027670" lat="-35.3366065" lon="149.0859969"/>
  <node id="24586851" version="2" timestamp="2010-08-16T09:22:41Z" uid="4467" user="Rosscoe" changeset="5507537" lat="-35.3364116" lon="149.085731"/>
  <node id="24586851" version="3" timestamp="2010-08-16T10:35:43Z" uid="4467" user="Rosscoe" changeset="5507996" lat="-35.3364116" lon="149.085731"/>
  <node id="24586851" version="5" timestamp="2011-05-02T04:44:52Z" uid="4467" user="Rosscoe" changeset="8027670" lat="-35.3364785" lon="149.0857796"/>
  <node id="24586859" version="2" timestamp="2010-08-16T09:21:54Z" uid="4467" user="Rosscoe" changeset="5507537" lat="-35.3362687" lon="149.0856267"/>
  <node id="24586859" version="3" timestamp="2010-08-16T10:34:38Z" uid="4467" user="Rosscoe" changeset="5507996" lat="-35.3362687" lon="149.0856267"/>
  <node id="24586859" version="5" timestamp="2011-05-02T04:44:55Z" uid="4467" user="Rosscoe" changeset="8027670" lat="-35.3363504" lon="149.0856561"/>
  <node id="24586940" version="1" timestamp="2007-07-02T00:13:24Z" uid="1066" user="pavel" changeset="122139" lat="49.699041" lon="14.6545154">
    <tag k="created_by" v="JOSM"/>
    <tag k="name" v="Tomice"/>
    <tag k="railway" v="station"/>
  </node>
  <node id="24586940" version="2" timestamp="2010-03-23T13:14:28Z" uid="23543" user="jkjk" changeset="4211968" lat="49.6989669" lon="14.6543274">
    <tag k="name" v="Tomice"/>
    <tag k="railway" v="station"/>
  </node>
  <node id="24587078" version="1" timestamp="2007-01-05T21:14:53Z" uid="1066" user="pavel" changeset="188621" lat="49.34727" lon="16.41886">
    <tag k="created_by" v="JOSM"/>
    <tag k="name" v="Tisnov"/>
    <tag k="railway" v="station"/>
  </node>
  <node id="24587385" version="1" timestamp="2007-01-04T12:30:52Z" uid="1066" user="pavel" changeset="187327" lat="50.69973" lon="14.20319">
    <tag k="created_by" v="JOSM"/>
    <tag k="name" v="Techlovice"/>
    <tag k="railway" v="station"/>
  </node>
  <node id="24587425" version="1" timestamp="2007-01-07T16:55:00Z" uid="1066" user="pavel" changeset="189654" lat="50.09925" lon="14.986">
    <tag k="created_by" v="JOSM"/>
    <tag k="name" v="Tatce"/>
    <tag k="railway" v="station"/>
  </node>
  <node id="24587560" version="1" timestamp="2007-07-21T21:53:17Z" uid="1066" user="pavel" changeset="158210" lat="49.4138543" lon="14.677543">
    <tag k="created_by" v="JOSM"/>
    <tag k="name" v="Tabor"/>
    <tag k="railway" v="station"/>
  </node>
  <node id="24587748" version="1" timestamp="2007-01-07T16:53:34Z" uid="1066" user="pavel" changeset="189654" lat="50.03175" lon="15.72555">
    <tag k="created_by" v="JOSM"/>
    <tag k="name" v="Svitkov"/>
    <tag k="railway" v="station"/>
  </node>
  <node id="24588004" version="2" timestamp="2007-11-03T12:21:06Z" uid="1066" user="pavel" changeset="392027" lat="49.9697743" lon="14.6574191">
    <tag k="created_by" v="JOSM"/>
    <tag k="name" v="Svetice"/>
    <tag k="railway" v="station"/>
  </node>
  <node id="24588243" version="1" timestamp="2007-01-04T12:33:39Z" uid="1066" user="pavel" changeset="187327" lat="50.49737" lon="14.03546">
    <tag k="created_by" v="JOSM"/>
    <tag k="name" v="Sulejovice"/>
    <tag k="railway" v="station"/>
  </node>
  <node id="24588257" version="1" timestamp="2007-01-04T12:33:41Z" uid="1066" user="pavel" changeset="187327" lat="49.50844" lon="14.66197">
    <tag k="created_by" v="JOSM"/>
    <tag k="name" v="Sudomerice u Tabora"/>
    <tag k="railway" v="station"/>
  </node>
  <node id="24588836" version="1" timestamp="2007-01-04T12:37:53Z" uid="1066" user="pavel" changeset="187327" lat="49.53812" lon="14.6223">
    <tag k="created_by" v="JOSM"/>
    <tag k="name" v="Strezimir"/>
    <tag k="railway" v="station"/>
  </node>
  <node id="24588951" version="1" timestamp="2007-01-04T12:39:19Z" uid="1066" user="pavel" changeset="187327" lat="50.62806" lon="14.06176">
    <tag k="created_by" v="JOSM"/>
    <tag k="name" v="Strekov lazne"/>
    <tag k="railway" v="station"/>
  </node>
  <node id="24588982" version="1" timestamp="2007-02-11T22:37:40Z" uid="1066" user="pavel" changeset="214599" lat="50.1246013" lon="14.2546571"/>
  <node id="24589362" version="1" timestamp="2007-01-04T12:41:35Z" uid="1066" user="pavel" changeset="187327" lat="50.14097" lon="13.96442">
    <tag k="created_by" v="JOSM"/>
    <tag k="name" v="Stochov"/>
    <tag k="railway" v="station"/>
  </node>
  <node id="24589501" version="1" timestamp="2007-01-05T21:14:46Z" uid="1066" user="pavel" changeset="188621" lat="49.37316" lon="16.38998">
    <tag k="created_by" v="JOSM"/>
    <tag k="name" v="Stepanovice"/>
    <tag k="railway" v="station"/>
  </node>
  <node id="24589669" version="1" timestamp="2007-01-07T16:53:41Z" uid="1066" user="pavel" changeset="189654" lat="50.0108" lon="15.29662">
    <tag k="created_by" v="JOSM"/>
    <tag k="name" v="Stary Kolin"/>
    <tag k="railway" v="station"/>
  </node>
  <node id="24589888" version="7" timestamp="2009-05-01T18:27:49Z" uid="20587" user="balrog-kun" changeset="1040271" lat="54.3449165" lon="18.3606106">
    <tag k="created_by" v="JOSM"/>
    <tag k="is_in" v="powiat kartuski, województwo pomorskie, Poland"/>
    <tag k="is_in:country" v="Poland"/>
    <tag k="is_in:county" v="powiat kartuski"/>
    <tag k="is_in:municipality" v="gmina Żukowo"/>
    <tag k="is_in:province" v="województwo pomorskie"/>
    <tag k="name" v="Żukowo"/>
    <tag k="place" v="town"/>
    <tag k="population" v="6236"/>
    <tag k="source:population" v="wikipedia"/>
    <tag k="teryt:rm" v="96"/>
    <tag k="teryt:simc" v="0935127"/>
    <tag k="teryt:stan_na" v="2009-01-01"/>
    <tag k="teryt:terc" v="2205084"/>
    <tag k="teryt:updated_by" v="teryt2osm combine.py v. 36M"/>
    <tag k="wikipedia" v="Żukowo"/>
  </node>
  <node id="24589888" version="10" timestamp="2010-04-11T03:59:42Z" uid="20587" user="balrog-kun" changeset="4389130" lat="54.3439606" lon="18.3598604">
    <tag k="is_in" v="powiat kartuski, województwo pomorskie, Poland"/>
    <tag k="is_in:country" v="Poland"/>
    <tag k="is_in:county" v="powiat kartuski"/>
    <tag k="is_in:municipality" v="gmina Żukowo"/>
    <tag k="is_in:province" v="województwo pomorskie"/>
    <tag k="name" v="Żukowo"/>
    <tag k="place" v="town"/>
    <tag k="population" v="6236"/>
    <tag k="source:population" v="wikipedia"/>
    <tag k="teryt:rm" v="96"/>
    <tag k="teryt:simc" v="0935127"/>
    <tag k="teryt:stan_na" v="2009-01-01"/>
    <tag k="teryt:terc" v="2205084"/>
    <tag k="teryt:updated_by" v="teryt2osm combine.py v. 49"/>
    <tag k="wikipedia" v="Żukowo"/>
  </node>
</osm>
