<?xml version='1.0' encoding='UTF-8'?>
<osm version="0.6" generator="libosmium/2.20.0">
  <node id="24590003" version="1" timestamp="2007-01-07T17:12:45Z" uid="1066" user="pavel" changeset="189654" lat="49.98912" lon="16.17166">
    <tag k="created_by" v="JOSM"/>
    <tag k="name" v="Sruby"/>
    <tag k="railway" v="station"/>
  </node>
  <node id="24591342" version="1" timestamp="2007-07-02T00:14:21Z" uid="1066" user="pavel" changeset="122139" lat="49.8977467" lon="14.7272087">
    <tag k="created_by" v="JOSM"/>
    <tag k="name" v="Senohraby"/>
    <tag k="railway" v="station"/>
  </node>
  <node id="24591586" version="1" timestamp="2007-01-07T17:12:49Z" uid="1066" user="pavel" changeset="189654" lat="49.9897" lon="16.06319">
    <tag k="created_by" v="JOSM"/>
    <tag k="name" v="Sedlistka"/>
    <tag k="railway" v="station"/>
  </node>
  <node id="24591751" version="1" timestamp="2007-01-04T12:56:26Z" uid="1066" user="pavel" changeset="187327" lat="50.59294" lon="14.05322">
    <tag k="created_by" v="JOSM"/>
    <tag k="name" v="Sebuzin"/>
    <tag k="railway" v="station"/>
  </node>
  <node id="24592154" version="1" timestamp="2007-01-04T12:58:49Z" uid="1066" user="pavel" changeset="187327" lat="50.13808" lon="13.92574">
    <tag k="created_by" v="JOSM"/>
    <tag k="name" v="Rynholec"/>
    <tag k="railway" v="station"/>
  </node>
  <node id="24592604" version="1" timestamp="2007-04-27T11:12:08Z" uid="1066" user="pavel" changeset="29450" lat="50.1591025" lon="14.398195"/>
  <node id="24592667" version="1" timestamp="2007-01-05T21:14:51Z" uid="1066" user="pavel" changeset="188621" lat="49.53711" lon="16.19622">
    <tag k="created_by" v="JOSM"/>
    <tag k="name" v="Rozsochy"/>
    <tag k="railway" v="station"/>
  </node>
  <node id="24592719" version="1" timestamp="2007-01-05T21:14:47Z" uid="1066" user="pavel" changeset="188621" lat="49.47179" lon="16.24558">
    <tag k="created_by" v="JOSM"/>
    <tag k="name" v="Rozna"/>
    <tag k="railway" v="station"/>
  </node>
  <node id="24592847" version="1" timestamp="2007-01-05T21:14:44Z" uid="1066" user="pavel" changeset="188621" lat="49.54741" lon="16.17321">
    <tag k="created_by" v="JOSM"/>
    <tag k="name" v="Rovne-Divisov"/>
    <tag k="railway" v="station"/>
  </node>
  <node id="24592966" version="1" timestamp="2007-01-07T16:53:56Z" uid="1066" user="pavel" changeset="189654" lat="50.07812" lon="14.80474">
    <tag k="created_by" v="JOSM"/>
    <tag k="name" v="Rostoklaty"/>
    <tag k="railway" v="station"/>
  </node>
  <node id="24593640" version="1" timestamp="2007-01-04T13:05:01Z" uid="1066" user="pavel" changeset="187327" lat="50.14862" lon="13.8332">
    <tag k="created_by" v="JOSM"/>
    <tag k="name" v="Revnicov"/>
    <tag k="railway" v="station"/>
  </node>
  <node id="24593777" version="1" timestamp="2007-01-07T16:53:54Z" uid="1066" user="pavel" changeset="189654" lat="50.03112" lon="15.4784">
    <tag k="created_by" v="JOSM"/>
    <tag k="name" v="Recany n.Labem"/>
    <tag k="railway" v="station"/>
  </node>
  <node id="24594395" version="1" timestamp="2007-01-04T13:08:51Z" uid="1066" user="pavel" changeset="187327" lat="50.5802" lon="14.00364">
    <tag k="created_by" v="JOSM"/>
    <tag k="name" v="Radejcin"/>
    <tag k="railway" v="station"/>
  </node>
  <node id="24594678" version="1" timestamp="2007-01-05T21:15:32Z" uid="1066" user="pavel" changeset="188621" lat="49.41854" lon="16.3667">
    <tag k="created_by" v="JOSM"/>
    <tag k="name" v="Protivin zast."/>
    <tag k="railway" v="station"/>
  </node>
  <node id="24595208" version="1" timestamp="2007-01-07T16:54:36Z" uid="1066" user="pavel" changeset="189654" lat="50.03941" lon="15.5745">
    <tag k="created_by" v="JOSM"/>
    <tag k="name" v="Prelouc"/>
    <tag k="railway" v="station"/>
  </node>
  <node id="24595406" version="1" timestamp="2007-01-04T13:13:29Z" uid="1066" user="pavel" changeset="187327" lat="50.04492" lon="14.38509">
    <tag k="created_by" v="JOSM"/>
    <tag k="name" v="Praha-zvahov"/>
    <tag k="railway" v="station"/>
  </node>
  <node id="24595424" version="1" timestamp="2007-01-04T13:13:31Z" uid="1066" user="pavel" changeset="187327" lat="50.03245" lon="14.30844">
    <tag k="created_by" v="JOSM"/>
    <tag k="name" v="Praha-reporyje"/>
    <tag k="railway" v="station"/>
  </node>
  <node id="24595466" version="1" timestamp="2007-02-15T14:18:18Z" uid="1066" user="pavel" changeset="216597" lat="50.0641574" lon="14.297964"/>
  <node id="24595483" version="1" timestamp="2007-01-04T13:13:40Z" uid="1066" user="pavel" changeset="187327" lat="49.97083" lon="14.40004">
    <tag k="created_by" v="JOSM"/>
    <tag k="name" v="Praha-Zbraslav"/>
    <tag k="railway" v="station"/>
  </node>
  <node id="24595500" version="1" timestamp="2007-01-07T19:44:00Z" uid="1066" user="pavel" changeset="190086" lat="50.1124109" lon="14.4974522">
    <tag k="created_by" v="JOSM"/>
    <tag k="name" v="Praha-Vysocany"/>
    <tag k="railway" v="station"/>
  </node>
  <node id="24595533" version="1" timestamp="2007-01-04T13:13:46Z" uid="1066" user="pavel" changeset="187327" lat="50.09493" lon="14.34628">
    <tag k="created_by" v="JOSM"/>
    <tag k="name" v="Praha-Veleslavin"/>
    <tag k="railway" v="station"/>
  </node>
  <node id="24595583" version="1" timestamp="2007-01-04T13:13:52Z" uid="1066" user="pavel" changeset="187327" lat="50.06042" lon="14.33676">
    <tag k="created_by" v="JOSM"/>
    <tag k="name" v="Praha-Stodulky"/>
    <tag k="railway" v="station"/>
  </node>
  <node id="24595601" version="1" timestamp="2007-03-25T18:12:25Z" uid="1066" user="pavel" changeset="245003" lat="50.0608953" lon="14.40939"/>
  <node id="24595627" version="1" timestamp="2007-09-22T22:33:16Z" uid="1066" user="pavel" changeset="505304" lat="50.1228432" lon="14.5712">
    <tag k="created_by" v="JOSM"/>
    <tag k="name" v="Praha-Satalice"/>
    <tag k="railway" v="station"/>
  </node>
  <node id="24595647" version="1" timestamp="2007-02-06T23:43:02Z" uid="1066" user="pavel" changeset="210101" lat="50.0832878" lon="14.3005459"/>
  <node id="24595698" version="1" timestamp="2007-05-27T12:56:52Z" uid="1066" user="pavel" changeset="68928" lat="50.0036488" lon="14.4030858"/>
  <node id="24595718" version="1" timestamp="2007-01-07T16:55:30Z" uid="1066" user="pavel" changeset="189654" lat="50.09583" lon="14.53973">
    <tag k="created_by" v="JOSM"/>
    <tag k="name" v="Praha-Kyje"/>
    <tag k="railway" v="station"/>
  </node>
  <node id="24595788" version="1" timestamp="2007-08-17T12:18:18Z" uid="1066" user="pavel" changeset="223521" lat="50.0138102" lon="14.6260021">
    <tag k="created_by" v="JOSM"/>
    <tag k="name" v="Praha-Kolovraty"/>
    <tag k="railway" v="station"/>
  </node>
  <node id="24595789" version="1" timestamp="2007-01-07T16:53:58Z" uid="1066" user="pavel" changeset="189654" lat="50.08705" lon="14.66411">
    <tag k="created_by" v="JOSM"/>
    <tag k="name" v="Praha-Klanovice"/>
    <tag k="railway" v="station"/>
  </node>
  <node id="24595832" version="1" timestamp="2007-09-27T22:43:29Z" uid="1066" user="pavel" changeset="528327" lat="50.1352938" lon="14.5559932">
    <tag k="created_by" v="JOSM"/>
    <tag k="name" v="Praha-Kbely"/>
    <tag k="railway" v="station"/>
  </node>
  <node id="24595941" version="1" timestamp="2007-01-04T13:21:42Z" uid="1066" user="pavel" changeset="187327" lat="50.1167" lon="14.61308">
    <tag k="created_by" v="JOSM"/>
    <tag k="name" v="Praha-Hor.Pocernice"/>
    <tag k="railway" v="station"/>
  </node>
  <node id="24595982" version="1" timestamp="2007-02-15T16:50:19Z" uid="1066" user="pavel" changeset="216597" lat="50.0331924" lon="14.3491764"/>
  <node id="24596024" version="1" timestamp="2007-02-15T16:02:55Z" uid="1066" user="pavel" changeset="216597" lat="50.0401806" lon="14.3844224"/>
  <node id="24596043" version="1" timestamp="2007-01-07T16:55:43Z" uid="1066" user="pavel" changeset="189654" lat="50.0882" lon="14.5699">
    <tag k="created_by" v="JOSM"/>
    <tag k="name" v="Praha-Dolni Pocernice"/>
    <tag k="railway" v="station"/>
  </node>
  <node id="24596089" version="1" timestamp="2007-01-04T13:22:27Z" uid="1066" user="pavel" changeset="187327" lat="50.06453" lon="14.3625">
    <tag k="created_by" v="JOSM"/>
    <tag k="name" v="Praha-Cibulka"/>
    <tag k="railway" v="station"/>
  </node>
  <node id="24596128" version="1" timestamp="2007-02-16T23:36:56Z" uid="1066" user="pavel" changeset="217526" lat="50.107445" lon="14.4046271"/>
  <node id="24596170" version="1" timestamp="2007-01-07T16:55:38Z" uid="1066" user="pavel" changeset="189654" lat="50.08189" lon="14.59834">
    <tag k="created_by" v="JOSM"/>
    <tag k="name" v="Praha-Bechovice"/>
    <tag k="railway" v="station"/>
  </node>
  <node id="24596186" version="1" timestamp="2007-02-17T23:23:16Z" uid="1066" user="pavel" changeset="218259" lat="50.0844194" lon="14.4717792"/>
  <node id="24596237" version="5" timestamp="2011-03-07T03:22:59Z" uid="23543" user="jkjk" changeset="7480551" lat="50.0426038" lon="14.4669332"/>
  <node id="24596298" version="1" timestamp="2007-01-04T13:24:33Z" uid="1066" user="pavel" changeset="187327" lat="50.57268" lon="14.03492">
    <tag k="created_by" v="JOSM"/>
    <tag k="name" v="Prackovice n.Labem"/>
    <tag k="railway" v="station"/>
  </node>
  <node id="24596394" version="1" timestamp="2007-01-04T13:24:46Z" uid="1066" user="pavel" changeset="187327" lat="50.68778" lon="14.18795">
    <tag k="created_by" v="JOSM"/>
    <tag k="name" v="Povrly-Roztoky"/>
    <tag k="railway" v="station"/>
  </node>
  <node id="24596412" version="1" timestamp="2007-01-04T13:24:48Z" uid="1066" user="pavel" changeset="187327" lat="50.67073" lon="14.15721">
    <tag k="created_by" v="JOSM"/>
    <tag k="name" v="Povrly"/>
    <tag k="railway" v="station"/>
  </node>
  <node id="24596858" version="1" timestamp="2007-01-07T16:53:26Z" uid="1066" user="pavel" changeset="189654" lat="50.10969" lon="14.92065">
    <tag k="created_by" v="JOSM"/>
    <tag k="name" v="Poricany"/>
    <tag k="railway" v="station"/>
  </node>
  <node id="24597682" version="1" timestamp="2007-01-04T13:29:48Z" uid="1066" user="pavel" changeset="187327" lat="49.75881" lon="13.41644">
    <tag k="created_by" v="JOSM"/>
    <tag k="name" v="Plzen-Doubravka"/>
    <tag k="railway" v="station"/>
  </node>
  <node id="24598388" version="3" timestamp="2009-11-27T21:50:40Z" uid="23543" user="jkjk" changeset="3232041" lat="49.8763" lon="14.4112475">
    <tag k="name" v="Petrov-Chlomek"/>
    <tag k="railway" v="halt"/>
  </node>
  <node id="24598662" version="1" timestamp="2007-01-07T16:54:34Z" uid="1066" user="pavel" changeset="189654" lat="50.08998" lon="15.02668">
    <tag k="created_by" v="JOSM"/>
    <tag k="name" v="Pecky"/>
    <tag k="railway" v="station"/>
  </node>
  <node id="24598743" version="1" timestamp="2007-01-04T13:38:50Z" uid="1066" user="pavel" changeset="187327" lat="50.09515" lon="14.16605">
    <tag k="created_by" v="JOSM"/>
    <tag k="name" v="Pavlov"/>
    <tag k="railway" v="station"/>
  </node>
  <node id="24598821" version="1" timestamp="2007-01-07T16:54:38Z" uid="1066" user="pavel" changeset="189654" lat="50.03102" lon="15.78757">
    <tag k="created_by" v="JOSM"/>
    <tag k="name" v="Pardubice zast."/>
    <tag k="railway" v="station"/>
  </node>
  <node id="24598838" version="1" timestamp="2007-01-07T16:54:28Z" uid="1066" user="pavel" changeset="189654" lat="50.03156" lon="15.75558">
    <tag k="created_by" v="JOSM"/>
    <tag k="name" v="Pardubice"/>
    <tag k="railway" v="station"/>
  </node>
  <node id="24599697" version="1" timestamp="2007-01-07T16:53:52Z" uid="1066" user="pavel" changeset="189654" lat="50.03051" lon="15.66768">
    <tag k="created_by" v="JOSM"/>
    <tag k="name" v="Opocinek"/>
    <tag k="railway" v="station"/>
  </node>
</osm>
