<?xml version='1.0' encoding='UTF-8'?>
<osm version="0.6" generator="libosmium/2.20.0">
  <node id="24600146" version="1" timestamp="2007-01-05T21:14:42Z" uid="1066" user="pavel" changeset="188621" lat="49.56155" lon="16.12358">
    <tag k="created_by" v="JOSM"/>
    <tag k="name" v="a na Morave"/>
    <tag k="railway" v="station"/>
  </node>
  <node id="24600164" version="1" timestamp="2007-01-04T13:43:52Z" uid="1066" user="pavel" changeset="187327" lat="50.47736" lon="14.19492">
    <tag k="created_by" v="JOSM"/>
    <tag k="name" v="Olesko"/>
    <tag k="railway" v="station"/>
  </node>
  <node id="24600267" version="1" timestamp="2007-07-01T19:27:24Z" uid="1066" user="pavel" changeset="121213" lat="49.6669547" lon="14.6241506">
    <tag k="created_by" v="JOSM"/>
    <tag k="name" v="Olbramovice"/>
    <tag k="railway" v="station"/>
  </node>
  <node id="24600316" version="1" timestamp="2007-01-04T13:44:31Z" uid="1066" user="pavel" changeset="187327" lat="49.63067" lon="15.48652">
    <tag k="created_by" v="JOSM"/>
    <tag k="name" v="Okrouhlice"/>
    <tag k="railway" v="station"/>
  </node>
  <node id="24600961" version="1" timestamp="2007-01-04T13:46:28Z" uid="1066" user="pavel" changeset="187327" lat="50.15162" lon="13.8815">
    <tag k="created_by" v="JOSM"/>
    <tag k="name" v="raseci"/>
    <tag k="railway" v="station"/>
  </node>
  <node id="24600998" version="1" timestamp="2007-01-04T13:46:31Z" uid="1066" user="pavel" changeset="187327" lat="50.30246" lon="14.31746">
    <tag k="created_by" v="JOSM"/>
    <tag k="name" v="Nove Ouholice"/>
    <tag k="railway" v="station"/>
  </node>
  <node id="24601037" version="1" timestamp="2007-01-05T21:14:40Z" uid="1066" user="pavel" changeset="188621" lat="49.56766" lon="16.08204">
    <tag k="created_by" v="JOSM"/>
    <tag k="name" v="Nove Mesto na Morave"/>
    <tag k="railway" v="station"/>
  </node>
  <node id="24601134" version="1" timestamp="2007-01-04T13:46:45Z" uid="1066" user="pavel" changeset="187327" lat="50.49707" lon="14.11995">
    <tag k="created_by" v="JOSM"/>
    <tag k="name" v="Nove Kopisty"/>
    <tag k="railway" v="station"/>
  </node>
  <node id="24601345" version="1" timestamp="2007-01-07T16:55:32Z" uid="1066" user="pavel" changeset="189654" lat="50.05531" lon="15.15109">
    <tag k="created_by" v="JOSM"/>
    <tag k="name" v="Nova Ves u Kolina"/>
    <tag k="railway" v="station"/>
  </node>
  <node id="24601685" version="1" timestamp="2007-01-04T13:48:23Z" uid="1066" user="pavel" changeset="187327" lat="50.15984" lon="14.27816">
    <tag k="created_by" v="JOSM"/>
    <tag k="name" v="Noutonice"/>
    <tag k="railway" v="station"/>
  </node>
  <node id="24601956" version="1" timestamp="2007-01-04T13:48:55Z" uid="1066" user="pavel" changeset="187327" lat="50.67257" lon="14.10698">
    <tag k="created_by" v="JOSM"/>
    <tag k="name" v="Nestemice"/>
    <tag k="railway" v="station"/>
  </node>
  <node id="24601971" version="1" timestamp="2007-01-04T13:49:19Z" uid="1066" user="pavel" changeset="187327" lat="50.66977" lon="14.14085">
    <tag k="created_by" v="JOSM"/>
    <tag k="name" v="Nestedice"/>
    <tag k="railway" v="station"/>
  </node>
  <node id="24602177" version="1" timestamp="2007-05-13T23:33:19Z" uid="1066" user="pavel" changeset="49828" lat="50.2642819" lon="14.3030303">
    <tag k="created_by" v="JOSM"/>
    <tag k="name" v="Nelahozeves zast."/>
    <tag k="railway" v="station"/>
  </node>
  <node id="24602195" version="1" timestamp="2007-05-13T21:57:22Z" uid="1066" user="pavel" changeset="49828" lat="50.28392" lon="14.309273">
    <tag k="created_by" v="JOSM"/>
    <tag k="name" v="Nelahozeves"/>
    <tag k="railway" v="station"/>
  </node>
  <node id="24602293" version="1" timestamp="2007-01-05T21:15:30Z" uid="1066" user="pavel" changeset="188621" lat="49.45427" lon="16.33609">
    <tag k="created_by" v="JOSM"/>
    <tag k="name" v="Nedvedice"/>
    <tag k="railway" v="station"/>
  </node>
  <node id="24603040" version="1" timestamp="2007-01-04T13:52:28Z" uid="1066" user="pavel" changeset="187327" lat="49.83084" lon="14.69849">
    <tag k="created_by" v="JOSM"/>
    <tag k="name" v="Mrac"/>
    <tag k="railway" v="station"/>
  </node>
  <node id="24603490" version="1" timestamp="2007-01-07T16:53:43Z" uid="1066" user="pavel" changeset="189654" lat="50.00209" lon="15.94602">
    <tag k="created_by" v="JOSM"/>
    <tag k="name" v="Moravany"/>
    <tag k="railway" v="station"/>
  </node>
</osm>
