<?xml version='1.0' encoding='UTF-8'?>
<osm version="0.6" generator="libosmium/2.20.0">
  <node id="24617077" version="5" timestamp="2009-05-01T18:30:01Z" uid="20587" user="balrog-kun" changeset="1040271" lat="54.0715335" lon="18.4453576">
    <tag k="addr:postcode" v="83-250"/>
    <tag k="created_by" v="JOSM"/>
    <tag k="is_in" v="powiat starogardzki, wojew贸dztwo pomorskie, Poland"/>
    <tag k="is_in:country" v="Poland"/>
    <tag k="is_in:county" v="powiat starogardzki"/>
    <tag k="is_in:municipality" v="gmina Skarszewy"/>
    <tag k="is_in:province" v="wojew贸dztwo pomorskie"/>
    <tag k="name" v="Skarszewy"/>
    <tag k="place" v="town"/>
    <tag k="population" v="6805"/>
    <tag k="source:population" v="wikipedia"/>
    <tag k="teryt:rm" v="96"/>
    <tag k="teryt:simc" v="0934754"/>
    <tag k="teryt:stan_na" v="2009-01-01"/>
    <tag k="teryt:terc" v="2213094"/>
    <tag k="teryt:updated_by" v="teryt2osm combine.py v. 36M"/>
    <tag k="wikipedia" v="Skarszewy"/>
  </node>
  <node id="24617077" version="8" timestamp="2010-04-11T03:59:42Z" uid="20587" user="balrog-kun" changeset="4389130" lat="54.0717245" lon="18.4456673">
    <tag k="addr:postcode" v="83-250"/>
    <tag k="is_in" v="powiat starogardzki, wojew贸dztwo pomorskie, Poland"/>
    <tag k="is_in:country" v="Poland"/>
    <tag k="is_in:county" v="powiat starogardzki"/>
    <tag k="is_in:municipality" v="gmina Skarszewy"/>
    <tag k="is_in:province" v="wojew贸dztwo pomorskie"/>
    <tag k="name" v="Skarszewy"/>
    <tag k="place" v="town"/>
    <tag k="population" v="6805"/>
    <tag k="source:population" v="wikipedia"/>
    <tag k="teryt:rm" v="96"/>
    <tag k="teryt:simc" v="0934754"/>
    <tag k="teryt:stan_na" v="2009-01-01"/>
    <tag k="teryt:terc" v="2213094"/>
    <tag k="teryt:updated_by" v="teryt2osm combine.py v. 49"/>
    <tag k="wikipedia" v="Skarszewy"/>
  </node>
  <node id="24617182" version="2" timestamp="2009-10-02T20:03:29Z" uid="86259" user="hasse_osm_korinthenkacker" changeset="2717024" lat="47.8816795" lon="11.6913767"/>
</osm>
