<?xml version='1.0' encoding='UTF-8'?>
<osm version="0.6" generator="libosmium/2.20.0">
  <node id="248405867" version="3" timestamp="2008-09-14T20:01:23Z" uid="6975" user="ulfl" changeset="640534" lat="45.0707348" lon="7.694011">
    <tag k="amenity" v="bank"/>
    <tag k="atm" v="yes"/>
    <tag k="operator" v="San Paolo"/>
  </node>
  <node id="248406263" version="2" timestamp="2008-09-14T20:01:20Z" uid="6975" user="ulfl" changeset="640534" lat="45.066831" lon="7.697058">
    <tag k="amenity" v="bank"/>
    <tag k="atm" v="yes"/>
    <tag k="operator" v="Unicredit"/>
  </node>
  <node id="248406387" version="2" timestamp="2008-09-14T20:00:58Z" uid="6975" user="ulfl" changeset="640534" lat="45.0678494" lon="7.6821921">
    <tag k="amenity" v="bank"/>
    <tag k="atm" v="yes"/>
    <tag k="operator" v="San Paolo"/>
  </node>
  <node id="248406574" version="2" timestamp="2008-09-14T20:03:46Z" uid="6975" user="ulfl" changeset="640534" lat="45.0666249" lon="7.7082932">
    <tag k="amenity" v="bank"/>
    <tag k="atm" v="yes"/>
    <tag k="operator" v="San Paolo"/>
  </node>
  <node id="248406960" version="3" timestamp="2008-09-14T20:02:42Z" uid="6975" user="ulfl" changeset="640534" lat="45.0934077" lon="7.7026666">
    <tag k="amenity" v="bank"/>
    <tag k="atm" v="yes"/>
    <tag k="operator" v="San Paolo"/>
  </node>
  <node id="248407026" version="3" timestamp="2008-09-14T20:02:04Z" uid="6975" user="ulfl" changeset="640534" lat="45.0913899" lon="7.712108">
    <tag k="amenity" v="bank"/>
    <tag k="atm" v="yes"/>
    <tag k="operator" v="San Paolo"/>
  </node>
  <node id="248407048" version="2" timestamp="2008-05-24T07:28:41Z" uid="27600" user="Islanit" changeset="508045" lat="53.5386264" lon="10.1251775"/>
  <node id="248407050" version="2" timestamp="2008-05-24T07:28:41Z" uid="27600" user="Islanit" changeset="508045" lat="53.538907" lon="10.1288167"/>
  <node id="248407403" version="2" timestamp="2008-09-14T20:01:07Z" uid="6975" user="ulfl" changeset="640534" lat="45.0688133" lon="7.6995986">
    <tag k="amenity" v="bank"/>
    <tag k="atm" v="yes"/>
  </node>
  <node id="248407784" version="2" timestamp="2008-09-14T20:03:17Z" uid="6975" user="ulfl" changeset="640534" lat="45.0673341" lon="7.6917794">
    <tag k="amenity" v="bank"/>
    <tag k="atm" v="yes"/>
  </node>
  <node id="248408946" version="3" timestamp="2008-12-20T14:23:04Z" uid="6975" user="ulfl" changeset="499085" lat="60.1792708" lon="24.8128098">
    <tag k="name" v="Musti &amp; Mirri"/>
    <tag k="shop" v="pet"/>
  </node>
  <node id="248409152" version="2" timestamp="2008-08-14T21:57:57Z" uid="6975" user="ulfl" changeset="264731" lat="60.1791257" lon="24.8122089">
    <tag k="amenity" v="kindergarten"/>
    <tag k="name" v="Garden City Playschool"/>
  </node>
</osm>
