<?xml version='1.0' encoding='UTF-8'?>
<osm version="0.6" generator="libosmium/2.20.0">
  <node id="250243266" version="2" timestamp="2008-07-04T22:26:19Z" uid="6975" user="ulfl" changeset="395915" lat="4.0495364" lon="114.8085914">
    <tag k="aeroway" v="aerodrome"/>
    <tag k="name" v="MULU"/>
    <tag k="source" v="DAFIF;NIMA"/>
  </node>
  <node id="250243268" version="2" timestamp="2008-07-04T22:26:18Z" uid="6975" user="ulfl" changeset="395915" lat="1.6413086" lon="103.6696193">
    <tag k="aeroway" v="aerodrome"/>
    <tag k="name" v="SULTAN ISMAIL"/>
    <tag k="source" v="DAFIF;NIMA"/>
  </node>
  <node id="250243274" version="2" timestamp="2008-07-04T22:26:17Z" uid="6975" user="ulfl" changeset="395915" lat="2.0407503" lon="103.306972">
    <tag k="aeroway" v="aerodrome"/>
    <tag k="name" v="KLUANG"/>
    <tag k="source" v="DAFIF;NIMA"/>
  </node>
  <node id="250243281" version="2" timestamp="2008-07-04T22:26:20Z" uid="6975" user="ulfl" changeset="395915" lat="4.5377776" lon="103.4283389">
    <tag k="aeroway" v="aerodrome"/>
    <tag k="name" v="KERTEH"/>
    <tag k="source" v="DAFIF;NIMA"/>
  </node>
  <node id="250243286" version="2" timestamp="2008-07-04T22:26:20Z" uid="6975" user="ulfl" changeset="395915" lat="5.3826386" lon="103.1033608">
    <tag k="aeroway" v="aerodrome"/>
    <tag k="name" v="SULTAN MAHMUD"/>
    <tag k="source" v="DAFIF;NIMA"/>
  </node>
  <node id="250243289" version="2" timestamp="2008-07-04T22:26:20Z" uid="6975" user="ulfl" changeset="395915" lat="2.2633336" lon="102.2515555">
    <tag k="aeroway" v="aerodrome"/>
    <tag k="name" v="MALACCA"/>
    <tag k="source" v="DAFIF;NIMA"/>
  </node>
  <node id="250243293" version="2" timestamp="2008-07-04T22:26:19Z" uid="6975" user="ulfl" changeset="395915" lat="6.1941419" lon="100.4026083">
    <tag k="aeroway" v="aerodrome"/>
    <tag k="name" v="SULTAN ABDUL HALIM"/>
    <tag k="source" v="DAFIF;NIMA"/>
  </node>
  <node id="250243300" version="2" timestamp="2008-07-04T22:26:15Z" uid="6975" user="ulfl" changeset="395915" lat="4.1781247" lon="114.331428">
    <tag k="aeroway" v="aerodrome"/>
    <tag k="name" v="MARUDI"/>
    <tag k="source" v="DAFIF;NIMA"/>
  </node>
  <node id="250243303" version="2" timestamp="2008-07-04T22:26:15Z" uid="6975" user="ulfl" changeset="395915" lat="5.2971388" lon="100.2768642">
    <tag k="aeroway" v="aerodrome"/>
    <tag k="name" v="PENANG INTL"/>
    <tag k="source" v="DAFIF;NIMA"/>
  </node>
  <node id="250243306" version="2" timestamp="2008-07-04T22:26:14Z" uid="6975" user="ulfl" changeset="395915" lat="4.3133693" lon="118.1219529">
    <tag k="aeroway" v="aerodrome"/>
    <tag k="name" v="TAWAU"/>
    <tag k="source" v="DAFIF;NIMA"/>
  </node>
  <node id="250243312" version="2" timestamp="2008-07-04T22:26:17Z" uid="6975" user="ulfl" changeset="395915" lat="6.3297278" lon="99.7286664">
    <tag k="aeroway" v="aerodrome"/>
    <tag k="name" v="LANGKAWI INTL"/>
    <tag k="source" v="DAFIF;NIMA"/>
  </node>
  <node id="250243316" version="2" timestamp="2008-07-04T22:26:16Z" uid="6975" user="ulfl" changeset="395915" lat="5.7985057" lon="102.4887137">
    <tag k="aeroway" v="aerodrome"/>
    <tag k="name" v="GONG KEDAK"/>
    <tag k="source" v="DAFIF;NIMA"/>
  </node>
  <node id="250243324" version="2" timestamp="2008-07-04T22:26:15Z" uid="6975" user="ulfl" changeset="395915" lat="5.032247" lon="118.3240363">
    <tag k="aeroway" v="aerodrome"/>
    <tag k="name" v="LAHAD DATU"/>
    <tag k="source" v="DAFIF;NIMA"/>
  </node>
  <node id="250243327" version="2" timestamp="2008-07-04T22:26:15Z" uid="6975" user="ulfl" changeset="395915" lat="1.484939" lon="110.3464725">
    <tag k="aeroway" v="aerodrome"/>
    <tag k="name" v="KUCHING INTL"/>
    <tag k="source" v="DAFIF;NIMA"/>
  </node>
  <node id="250243330" version="2" timestamp="2008-07-04T22:26:19Z" uid="6975" user="ulfl" changeset="395915" lat="5.8994998" lon="118.0596469">
    <tag k="aeroway" v="aerodrome"/>
    <tag k="name" v="SANDAKAN"/>
    <tag k="source" v="DAFIF;NIMA"/>
  </node>
  <node id="250243334" version="2" timestamp="2008-07-04T22:26:20Z" uid="6975" user="ulfl" changeset="395915" lat="6.16665" lon="102.2937196">
    <tag k="aeroway" v="aerodrome"/>
    <tag k="name" v="SULTAN ISMAIL PETRA"/>
    <tag k="source" v="DAFIF;NIMA"/>
  </node>
  <node id="250243341" version="2" timestamp="2008-07-04T22:26:21Z" uid="6975" user="ulfl" changeset="395915" lat="3.1122502" lon="101.7027502">
    <tag k="aeroway" v="aerodrome"/>
    <tag k="name" v="KUALA LUMPUR"/>
    <tag k="source" v="DAFIF;NIMA"/>
  </node>
  <node id="250243345" version="2" timestamp="2008-07-04T22:26:17Z" uid="6975" user="ulfl" changeset="395915" lat="5.9372222" lon="116.0511943">
    <tag k="aeroway" v="aerodrome"/>
    <tag k="name" v="KOTA KINABALU INTL"/>
    <tag k="source" v="DAFIF;NIMA"/>
  </node>
  <node id="250243348" version="2" timestamp="2008-07-04T22:26:18Z" uid="6975" user="ulfl" changeset="395915" lat="5.3006831" lon="115.2501808">
    <tag k="aeroway" v="aerodrome"/>
    <tag k="name" v="LABUAN"/>
    <tag k="source" v="DAFIF;NIMA"/>
  </node>
  <node id="250243351" version="2" timestamp="2008-07-04T22:26:17Z" uid="6975" user="ulfl" changeset="395915" lat="4.3251942" lon="113.988461">
    <tag k="aeroway" v="aerodrome"/>
    <tag k="name" v="MIRI"/>
    <tag k="source" v="DAFIF;NIMA"/>
  </node>
  <node id="250243353" version="2" timestamp="2008-07-04T22:26:18Z" uid="6975" user="ulfl" changeset="395915" lat="4.5679724" lon="101.0921947">
    <tag k="aeroway" v="aerodrome"/>
    <tag k="name" v="SULTAN AZLAN SHAH"/>
    <tag k="source" v="DAFIF;NIMA"/>
  </node>
  <node id="250243355" version="2" timestamp="2008-07-04T22:26:18Z" uid="6975" user="ulfl" changeset="395915" lat="5.4659169" lon="100.3911665">
    <tag k="aeroway" v="aerodrome"/>
    <tag k="name" v="BUTTERWORTH"/>
    <tag k="source" v="DAFIF;NIMA"/>
  </node>
  <node id="250243357" version="2" timestamp="2008-07-04T22:26:18Z" uid="6975" user="ulfl" changeset="395915" lat="3.1722636" lon="113.0446164">
    <tag k="aeroway" v="aerodrome"/>
    <tag k="name" v="BINTULU"/>
    <tag k="source" v="DAFIF;NIMA"/>
  </node>
  <node id="250243360" version="2" timestamp="2008-07-04T22:26:15Z" uid="6975" user="ulfl" changeset="395915" lat="2.2641112" lon="111.9827777">
    <tag k="aeroway" v="aerodrome"/>
    <tag k="name" v="SIBU"/>
    <tag k="source" v="DAFIF;NIMA"/>
  </node>
  <node id="250243363" version="2" timestamp="2008-07-04T22:26:16Z" uid="6975" user="ulfl" changeset="395915" lat="3.1305834" lon="101.5493334">
    <tag k="aeroway" v="aerodrome"/>
    <tag k="name" v="SULTAN ABDUL AZIZ SHAH"/>
    <tag k="source" v="DAFIF;NIMA"/>
  </node>
  <node id="250243366" version="2" timestamp="2008-07-04T22:26:16Z" uid="6975" user="ulfl" changeset="395915" lat="3.775389" lon="103.2090555">
    <tag k="aeroway" v="aerodrome"/>
    <tag k="name" v="KUANTAN"/>
    <tag k="source" v="DAFIF;NIMA"/>
  </node>
  <node id="250243367" version="2" timestamp="2008-07-04T22:26:16Z" uid="6975" user="ulfl" changeset="395915" lat="2.8181833" lon="104.1600194">
    <tag k="aeroway" v="aerodrome"/>
    <tag k="name" v="PULAU TIOMAN"/>
    <tag k="source" v="DAFIF;NIMA"/>
  </node>
  <node id="250244889" version="4" timestamp="2011-01-15T15:36:17Z" uid="4467" user="Rosscoe" changeset="6978263" lat="-27.6114162" lon="152.7465022"/>
  <node id="250246533" version="1" timestamp="2008-03-03T01:07:18Z" uid="28160" user="Jesper" changeset="262633" lat="39.8000834" lon="116.5121516"/>
  <node id="250246533" version="2" timestamp="2008-03-05T01:25:19Z" uid="28160" user="Jesper" changeset="272791" lat="39.8000872" lon="116.5121442"/>
  <node id="250246535" version="1" timestamp="2008-03-03T01:07:18Z" uid="28160" user="Jesper" changeset="262633" lat="39.8032618" lon="116.509405"/>
  <node id="250246535" version="2" timestamp="2008-03-05T01:24:46Z" uid="28160" user="Jesper" changeset="272791" lat="39.8032656" lon="116.5093977"/>
  <node id="250246536" version="1" timestamp="2008-03-03T01:07:18Z" uid="28160" user="Jesper" changeset="262633" lat="39.804119" lon="116.5086754"/>
  <node id="250246537" version="1" timestamp="2008-03-03T01:07:18Z" uid="28160" user="Jesper" changeset="262633" lat="39.8054113" lon="116.50786"/>
</osm>
