<?xml version='1.0' encoding='UTF-8'?>
<osm version="0.6" generator="libosmium/2.20.0">
  <node id="252440370" version="4" timestamp="2008-09-14T19:14:47Z" uid="6975" user="ulfl" changeset="640534" lat="53.9275895" lon="-1.3865351">
    <tag k="amenity" v="fast_food"/>
    <tag k="cuisine" v="Fish &amp;amp; Chips"/>
    <tag k="name" v="The Wetherby Whaler"/>
  </node>
  <node id="252441371" version="2" timestamp="2008-07-06T00:36:22Z" uid="6975" user="ulfl" changeset="404092" lat="43.3412446" lon="-1.4737395">
    <tag k="amenity" v="townhall"/>
    <tag k="name" v="Mairie"/>
  </node>
  <node id="252443467" version="4" timestamp="2008-07-05T13:28:28Z" uid="6975" user="ulfl" changeset="398437" lat="43.3847252" lon="-1.4760998">
    <tag k="aeroway" v=" "/>
    <tag k="amenity" v="undefined"/>
    <tag k="description" v="undefined"/>
    <tag k="landuse" v="farm"/>
    <tag k="leisure" v="undefined"/>
    <tag k="name" v="Anderearen Borda"/>
    <tag k="natural" v="undefined"/>
    <tag k="place" v="undefined"/>
  </node>
  <node id="252448751" version="2" timestamp="2009-09-14T19:30:45Z" uid="17602" user="B10xyz" changeset="2485854" lat="43.3384413" lon="-1.4029632"/>
  <node id="252448754" version="2" timestamp="2009-09-14T19:30:45Z" uid="17602" user="B10xyz" changeset="2485854" lat="43.3373045" lon="-1.4035035"/>
  <node id="252449475" version="3" timestamp="2010-04-19T18:45:14Z" uid="9581" user="Lobelt" changeset="4470814" lat="49.4788529" lon="8.2813584"/>
  <node id="252449851" version="2" timestamp="2008-07-03T18:05:01Z" uid="6975" user="ulfl" changeset="379368" lat="59.3463048" lon="18.2043327">
    <tag k="leisure" v="playground"/>
  </node>
</osm>
