<?xml version='1.0' encoding='UTF-8'?>
<osm version="0.6" generator="libosmium/2.20.0">
  <node id="253530808" version="6" timestamp="2010-04-11T04:37:54Z" uid="20587" user="balrog-kun" changeset="4389130" lat="52.2285986" lon="18.2527957">
    <tag k="is_in" v="województwo wielkopolskie, Poland"/>
    <tag k="is_in:country" v="Poland"/>
    <tag k="is_in:county" v="powiat m. Konin"/>
    <tag k="is_in:municipality" v="gmina m. Konin"/>
    <tag k="is_in:province" v="województwo wielkopolskie"/>
    <tag k="name" v="Konin"/>
    <tag k="place" v="town"/>
    <tag k="teryt:rm" v="96"/>
    <tag k="teryt:simc" v="0948667"/>
    <tag k="teryt:stan_na" v="2009-01-01"/>
    <tag k="teryt:terc" v="3062011"/>
    <tag k="teryt:updated_by" v="teryt2osm combine.py v. 49"/>
  </node>
  <node id="253530962" version="2" timestamp="2009-12-12T15:08:21Z" uid="4467" user="Rosscoe" changeset="3356332" lat="-37.8169887" lon="144.8486942">
    <tag k="created_by" v="JOSM"/>
  </node>
  <node id="253530966" version="2" timestamp="2009-12-12T15:08:21Z" uid="4467" user="Rosscoe" changeset="3356332" lat="-37.8168972" lon="144.8490142">
    <tag k="created_by" v="JOSM"/>
  </node>
  <node id="253530971" version="3" timestamp="2009-12-12T15:08:11Z" uid="4467" user="Rosscoe" changeset="3356332" lat="-37.8167492" lon="144.849533"/>
  <node id="253530981" version="2" timestamp="2009-12-12T15:08:22Z" uid="4467" user="Rosscoe" changeset="3356332" lat="-37.8166511" lon="144.8498229">
    <tag k="created_by" v="JOSM"/>
  </node>
  <node id="253530985" version="9" timestamp="2009-12-12T15:08:10Z" uid="4467" user="Rosscoe" changeset="3356332" lat="-37.8171551" lon="144.8499139"/>
  <node id="253530989" version="3" timestamp="2009-12-12T15:08:11Z" uid="4467" user="Rosscoe" changeset="3356332" lat="-37.8169313" lon="144.8498694"/>
  <node id="253530993" version="3" timestamp="2009-12-12T15:08:11Z" uid="4467" user="Rosscoe" changeset="3356332" lat="-37.8168336" lon="144.8497737"/>
  <node id="253530998" version="3" timestamp="2009-12-12T15:08:11Z" uid="4467" user="Rosscoe" changeset="3356332" lat="-37.8157719" lon="144.8524276"/>
  <node id="253531002" version="2" timestamp="2009-12-12T15:08:22Z" uid="4467" user="Rosscoe" changeset="3356332" lat="-37.8164271" lon="144.850684">
    <tag k="created_by" v="JOSM"/>
  </node>
  <node id="253531149" version="2" timestamp="2008-04-10T22:14:20Z" uid="20587" user="balrog-kun" changeset="114924" lat="36.7578126" lon="-4.4233738">
    <tag k="created_by" v="JOSM"/>
  </node>
  <node id="253531152" version="2" timestamp="2008-04-10T22:14:20Z" uid="20587" user="balrog-kun" changeset="114924" lat="36.7574797" lon="-4.4222462">
    <tag k="created_by" v="JOSM"/>
  </node>
  <node id="253531270" version="2" timestamp="2008-07-08T21:07:46Z" uid="6975" user="ulfl" changeset="431192" lat="-33.8866426" lon="18.5196406">
    <tag k="highway" v="mini_roundabout"/>
  </node>
  <node id="253531511" version="4" timestamp="2009-05-01T19:19:09Z" uid="20587" user="balrog-kun" changeset="1041038" lat="51.3980722" lon="16.2030899">
    <tag k="addr:postcode" v="59-300"/>
    <tag k="is_in" v="powiat lubiński, województwo dolnośląskie, Poland"/>
    <tag k="is_in:country" v="Poland"/>
    <tag k="is_in:county" v="powiat lubiński"/>
    <tag k="is_in:municipality" v="gmina Lubin"/>
    <tag k="is_in:province" v="województwo dolnośląskie"/>
    <tag k="name" v="Lubin"/>
    <tag k="place" v="town"/>
    <tag k="population" v="75438"/>
    <tag k="source:population" v="wikipedia"/>
    <tag k="teryt:rm" v="96"/>
    <tag k="teryt:simc" v="0954142"/>
    <tag k="teryt:stan_na" v="2009-01-01"/>
    <tag k="teryt:terc" v="0211011"/>
    <tag k="teryt:updated_by" v="teryt2osm combine.py v. 36M"/>
    <tag k="wikipedia" v="Lubin"/>
  </node>
  <node id="253531511" version="7" timestamp="2010-04-11T04:37:54Z" uid="20587" user="balrog-kun" changeset="4389130" lat="51.3981795" lon="16.2024185">
    <tag k="addr:postcode" v="59-300"/>
    <tag k="is_in" v="powiat lubiński, województwo dolnośląskie, Poland"/>
    <tag k="is_in:country" v="Poland"/>
    <tag k="is_in:county" v="powiat lubiński"/>
    <tag k="is_in:municipality" v="gmina Lubin"/>
    <tag k="is_in:province" v="województwo dolnośląskie"/>
    <tag k="name" v="Lubin"/>
    <tag k="place" v="town"/>
    <tag k="population" v="75438"/>
    <tag k="source:population" v="wikipedia"/>
    <tag k="teryt:rm" v="96"/>
    <tag k="teryt:simc" v="0954142"/>
    <tag k="teryt:stan_na" v="2009-01-01"/>
    <tag k="teryt:terc" v="0211011"/>
    <tag k="teryt:updated_by" v="teryt2osm combine.py v. 49"/>
    <tag k="wikipedia" v="Lubin"/>
  </node>
  <node id="253532852" version="2" timestamp="2009-12-12T15:08:22Z" uid="4467" user="Rosscoe" changeset="3356332" lat="-37.816311" lon="144.851184">
    <tag k="created_by" v="JOSM"/>
  </node>
  <node id="253532929" version="3" timestamp="2009-12-13T14:31:46Z" uid="4467" user="Rosscoe" changeset="3363305" lat="-37.8150344" lon="144.8556942"/>
  <node id="253533541" version="5" timestamp="2010-04-11T04:37:54Z" uid="20587" user="balrog-kun" changeset="4389130" lat="50.2413146" lon="19.1381473">
    <tag k="is_in" v="województwo śląskie, Poland"/>
    <tag k="is_in:country" v="Poland"/>
    <tag k="is_in:county" v="powiat m. Mysłowice"/>
    <tag k="is_in:municipality" v="gmina m. Mysłowice"/>
    <tag k="is_in:province" v="województwo śląskie"/>
    <tag k="name" v="Mysłowice"/>
    <tag k="place" v="town"/>
    <tag k="teryt:rm" v="96"/>
    <tag k="teryt:simc" v="0941487"/>
    <tag k="teryt:stan_na" v="2009-01-01"/>
    <tag k="teryt:terc" v="2470011"/>
    <tag k="teryt:updated_by" v="teryt2osm combine.py v. 49"/>
  </node>
  <node id="253533616" version="2" timestamp="2008-07-05T11:13:34Z" uid="6975" user="ulfl" changeset="398437" lat="42.280954" lon="0.1963202">
    <tag k="leisure" v="swimming_pool"/>
    <tag k="name" v="Piscinas"/>
    <tag k="sport" v="swimming"/>
  </node>
  <node id="253533816" version="3" timestamp="2009-12-13T14:31:51Z" uid="4467" user="Rosscoe" changeset="3363305" lat="-37.814887" lon="144.8562321"/>
  <node id="253534746" version="11" timestamp="2009-05-01T20:52:14Z" uid="20587" user="balrog-kun" changeset="1042242" lat="53.1487865" lon="16.7394743">
    <tag k="addr:postcode" v="64-900649206493164933649346493564970"/>
    <tag k="created_by" v="Potlatch 0.10f"/>
    <tag k="is_in" v="powiat pilski, województwo wielkopolskie, Poland"/>
    <tag k="is_in:country" v="Poland"/>
    <tag k="is_in:county" v="powiat pilski"/>
    <tag k="is_in:municipality" v="gmina Piła"/>
    <tag k="is_in:province" v="województwo wielkopolskie"/>
    <tag k="name" v="Piła"/>
    <tag k="name:de" v="Schneidemühl"/>
    <tag k="name:en" v="Pila"/>
    <tag k="name:he" v="פ׳לה"/>
    <tag k="name:ru" v="Пила"/>
    <tag k="place" v="town"/>
    <tag k="population" v="74636"/>
    <tag k="source:population" v="wikipedia"/>
    <tag k="teryt:rm" v="96"/>
    <tag k="teryt:simc" v="0966530"/>
    <tag k="teryt:stan_na" v="2009-01-01"/>
    <tag k="teryt:terc" v="3019011"/>
    <tag k="teryt:updated_by" v="teryt2osm combine.py v. 36M"/>
    <tag k="wikipedia" v="Piła"/>
  </node>
  <node id="253534746" version="16" timestamp="2010-04-11T04:37:55Z" uid="20587" user="balrog-kun" changeset="4389130" lat="53.1493864" lon="16.7390964">
    <tag k="addr:postcode" v="64-900649206493164933649346493564970"/>
    <tag k="is_in" v="powiat pilski, województwo wielkopolskie, Poland"/>
    <tag k="is_in:country" v="Poland"/>
    <tag k="is_in:county" v="powiat pilski"/>
    <tag k="is_in:municipality" v="gmina Piła"/>
    <tag k="is_in:province" v="województwo wielkopolskie"/>
    <tag k="name" v="Piła"/>
    <tag k="name:de" v="Pila (ehem. Schneidemühl)"/>
    <tag k="name:en" v="Pila"/>
    <tag k="name:he" v="פ׳לה"/>
    <tag k="name:ru" v="Пила"/>
    <tag k="place" v="city"/>
    <tag k="population" v="74636"/>
    <tag k="source:population" v="wikipedia"/>
    <tag k="teryt:rm" v="96"/>
    <tag k="teryt:simc" v="0966530"/>
    <tag k="teryt:stan_na" v="2009-01-01"/>
    <tag k="teryt:terc" v="3019011"/>
    <tag k="teryt:updated_by" v="teryt2osm combine.py v. 49"/>
    <tag k="wikipedia" v="Piła"/>
  </node>
  <node id="253539031" version="2" timestamp="2009-12-13T14:31:52Z" uid="4467" user="Rosscoe" changeset="3363305" lat="-37.8139863" lon="144.8595195">
    <tag k="highway" v="traffic_signals"/>
  </node>
  <node id="253539043" version="5" timestamp="2009-12-13T14:31:52Z" uid="4467" user="Rosscoe" changeset="3363305" lat="-37.8134062" lon="144.8615257"/>
  <node id="253539080" version="7" timestamp="2009-12-13T14:31:52Z" uid="4467" user="Rosscoe" changeset="3363305" lat="-37.8130372" lon="144.8628339"/>
  <node id="253539094" version="13" timestamp="2009-12-13T14:31:52Z" uid="4467" user="Rosscoe" changeset="3363305" lat="-37.8128868" lon="144.8627756"/>
  <node id="253539106" version="5" timestamp="2009-12-13T14:31:54Z" uid="4467" user="Rosscoe" changeset="3363305" lat="-37.8119508" lon="144.8667468"/>
</osm>
