<?xml version='1.0' encoding='UTF-8'?>
<osm version="0.6" generator="libosmium/2.20.0">
  <node id="254440988" version="1" timestamp="2008-03-28T15:06:14Z" uid="30632" user="antblant" changeset="414724" lat="53.4428085" lon="14.5377929">
    <tag k="created_by" v="Potlatch 0.8"/>
    <tag k="historic" v="monument"/>
  </node>
  <node id="254440988" version="2" timestamp="2008-03-29T16:36:56Z" uid="30632" user="antblant" changeset="418032" lat="53.4428085" lon="14.5377929">
    <tag k="created_by" v="Potlatch 0.8"/>
    <tag k="historic" v="monument"/>
  </node>
  <node id="254440988" version="3" timestamp="2008-04-19T20:42:06Z" uid="30632" user="antblant" changeset="198306" lat="53.4428085" lon="14.5377929">
    <tag k="created_by" v="Potlatch 0.8"/>
    <tag k="historic" v="monument"/>
  </node>
  <node id="254440988" version="4" timestamp="2008-06-01T15:46:11Z" uid="30632" user="antblant" changeset="7557" lat="53.4428072" lon="14.537795">
    <tag k="created_by" v="Potlatch 0.9c"/>
    <tag k="historic" v="monument"/>
    <tag k="name" v="Pomnik Czynu Polak贸w"/>
  </node>
  <node id="254440988" version="5" timestamp="2008-09-30T21:25:16Z" uid="30632" user="antblant" changeset="722692" lat="53.4428039" lon="14.5378245">
    <tag k="created_by" v="Potlatch 0.10c"/>
    <tag k="historic" v="monument"/>
    <tag k="name" v="Pomnik Czynu Polak贸w"/>
  </node>
  <node id="254440988" version="6" timestamp="2009-05-22T12:32:37Z" uid="30632" user="antblant" changeset="1285650" lat="53.4428455" lon="14.5377729">
    <tag k="created_by" v="Potlatch 0.10c"/>
    <tag k="historic" v="monument"/>
    <tag k="name" v="Pomnik Czynu Polak贸w"/>
  </node>
  <node id="254440988" version="7" timestamp="2009-10-04T13:10:04Z" uid="30632" user="antblant" changeset="2736438" lat="53.4427803" lon="14.5376999">
    <tag k="historic" v="monument"/>
    <tag k="name" v="Pomnik Czynu Polak贸w"/>
  </node>
  <node id="254441085" version="2" timestamp="2008-05-17T15:54:04Z" uid="27600" user="Islanit" changeset="468393" lat="53.665587" lon="10.1479564"/>
  <node id="254441087" version="3" timestamp="2008-05-17T15:54:04Z" uid="27600" user="Islanit" changeset="468393" lat="53.6670634" lon="10.147324"/>
  <node id="254441418" version="4" timestamp="2008-05-17T15:59:43Z" uid="27600" user="Islanit" changeset="468393" lat="53.6676538" lon="10.1473492"/>
  <node id="254441424" version="3" timestamp="2008-05-17T15:59:43Z" uid="27600" user="Islanit" changeset="468393" lat="53.6695063" lon="10.1500188"/>
  <node id="254442770" version="1" timestamp="2008-03-28T15:20:19Z" uid="30632" user="antblant" changeset="414724" lat="53.4453646" lon="14.5298621">
    <tag k="building" v="stadium"/>
    <tag k="created_by" v="Potlatch 0.8"/>
    <tag k="name" v="amfiteatr"/>
  </node>
  <node id="254442770" version="2" timestamp="2008-03-29T16:30:45Z" uid="30632" user="antblant" changeset="418032" lat="53.4453646" lon="14.5298621">
    <tag k="building" v="stadium"/>
    <tag k="created_by" v="Potlatch 0.8"/>
    <tag k="name" v="amfiteatr"/>
  </node>
  <node id="254442770" version="3" timestamp="2008-04-19T20:39:56Z" uid="30632" user="antblant" changeset="198306" lat="53.4453646" lon="14.5298621">
    <tag k="building" v="stadium"/>
    <tag k="created_by" v="Potlatch 0.8"/>
    <tag k="name" v="amfiteatr"/>
  </node>
  <node id="254442770" version="4" timestamp="2008-06-01T15:53:56Z" uid="30632" user="antblant" changeset="7557" lat="53.4453633" lon="14.5298642">
    <tag k="amenity" v="theatre"/>
    <tag k="created_by" v="Potlatch 0.9c"/>
    <tag k="name" v="Amfiteatr"/>
  </node>
  <node id="254442770" version="5" timestamp="2009-04-22T20:37:26Z" uid="30632" user="antblant" changeset="906815" lat="53.4451306" lon="14.5309346">
    <tag k="amenity" v="theatre"/>
    <tag k="created_by" v="Potlatch 0.9c"/>
    <tag k="name" v="Amfiteatr"/>
  </node>
  <node id="254442770" version="6" timestamp="2009-05-18T16:48:37Z" uid="30632" user="antblant" changeset="1239534" lat="53.4451311" lon="14.5309325">
    <tag k="amenity" v="theatre"/>
    <tag k="created_by" v="Potlatch 0.9c"/>
    <tag k="name" v="Teatr Letni im. Heleny Majdaniec"/>
    <tag k="reg_name" v="Amfiteatr"/>
  </node>
  <node id="254442770" version="7" timestamp="2009-11-03T01:18:07Z" uid="36809" user="pfoten_weg_!_" changeset="3021530" lat="53.4451311" lon="14.5309325">
    <tag k="amenity" v="theatre"/>
    <tag k="name" v="Teatr Letni im. Heleny Majdaniec"/>
    <tag k="reg_name" v="Amfiteatr"/>
  </node>
  <node id="254442770" version="8" timestamp="2010-03-29T17:34:09Z" uid="20587" user="balrog-kun" changeset="4269435" lat="53.4451311" lon="14.5309325">
    <tag k="amenity" v="theatre"/>
    <tag k="name" v="Teatr Letni imienia Heleny Majdaniec"/>
    <tag k="reg_name" v="Amfiteatr"/>
  </node>
  <node id="254446292" version="2" timestamp="2008-05-17T15:54:49Z" uid="27600" user="Islanit" changeset="468393" lat="53.6696419" lon="10.1440726"/>
  <node id="254446297" version="3" timestamp="2008-05-17T15:54:49Z" uid="27600" user="Islanit" changeset="468393" lat="53.6696825" lon="10.1438065"/>
  <node id="254446454" version="2" timestamp="2008-05-17T15:54:49Z" uid="27600" user="Islanit" changeset="468393" lat="53.6690673" lon="10.1438494"/>
  <node id="254446492" version="3" timestamp="2008-05-17T15:54:49Z" uid="27600" user="Islanit" changeset="468393" lat="53.6691" lon="10.1438267"/>
  <node id="254447251" version="3" timestamp="2008-07-05T17:47:03Z" uid="6975" user="ulfl" changeset="398437" lat="42.48344" lon="-82.1000429">
    <tag k="leisure" v="golf_course"/>
    <tag k="name" v="Maple City Country Club"/>
    <tag k="sport" v="golf"/>
  </node>
  <node id="254448582" version="2" timestamp="2008-07-04T23:44:34Z" uid="6975" user="ulfl" changeset="395915" lat="52.5072444" lon="-1.8466721">
    <tag k="power" v="tower"/>
  </node>
  <node id="254448583" version="3" timestamp="2008-07-04T23:44:34Z" uid="6975" user="ulfl" changeset="395915" lat="52.5073924" lon="-1.8432917">
    <tag k="power" v="tower"/>
  </node>
</osm>
