<?xml version='1.0' encoding='UTF-8'?>
<osm version="0.6" generator="libosmium/2.20.0">
  <node id="256693570" version="4" timestamp="2008-07-05T13:37:21Z" uid="6975" user="ulfl" changeset="398437" lat="50.9513701" lon="6.9548546">
    <tag k="landuse" v="recreation_ground"/>
    <tag k="layer" v="1"/>
    <tag k="name" v="Sudermannplatz"/>
  </node>
  <node id="256693839" version="1" timestamp="2008-04-10T09:49:09Z" uid="33633" user="Elena" changeset="107106" lat="50.4488495" lon="30.4519543">
    <tag k="created_by" v="Potlatch 0.8a"/>
  </node>
  <node id="256693839" version="2" timestamp="2008-04-10T09:51:04Z" uid="33633" user="Elena" changeset="107106" lat="50.4488495" lon="30.4519543">
    <tag k="created_by" v="Potlatch 0.8a"/>
    <tag k="name" v="вул. Металістів, 4"/>
  </node>
  <node id="256693839" version="3" timestamp="2008-04-10T10:07:40Z" uid="33633" user="Elena" changeset="107106" lat="50.4488495" lon="30.4519543">
    <tag k="created_by" v="Potlatch 0.8a"/>
    <tag k="name" v="вул. Металістів, 4"/>
  </node>
  <node id="256693955" version="2" timestamp="2010-01-19T10:48:55Z" uid="61114" user="Trav" changeset="3657667" lat="-33.7322281" lon="151.0858396"/>
  <node id="256694908" version="2" timestamp="2008-07-03T17:41:07Z" uid="6975" user="ulfl" changeset="379368" lat="45.4988041" lon="9.1968275">
    <tag k="shop" v="newsagent"/>
  </node>
  <node id="256695260" version="2" timestamp="2008-07-03T17:41:02Z" uid="6975" user="ulfl" changeset="379368" lat="45.4985203" lon="9.1943434">
    <tag k="shop" v="newsagent"/>
  </node>
  <node id="256696251" version="2" timestamp="2008-07-07T08:09:54Z" uid="6975" user="ulfl" changeset="418206" lat="42.707453" lon="0.758523">
    <tag k="ele" v="2176m"/>
    <tag k="name" v="Montcorbison"/>
    <tag k="natural" v="peak"/>
  </node>
  <node id="256698010" version="2" timestamp="2008-07-07T08:09:54Z" uid="6975" user="ulfl" changeset="418206" lat="42.6582384" lon="0.6963816">
    <tag k="ele" v="2718m"/>
    <tag k="name" v="Malh dera Artiga"/>
    <tag k="natural" v="peak"/>
  </node>
  <node id="256698039" version="2" timestamp="2008-07-07T08:09:52Z" uid="6975" user="ulfl" changeset="418206" lat="42.6433401" lon="0.705308">
    <tag k="ele" v="2881m"/>
    <tag k="name" v="Malh des Pois (Forcanada)"/>
    <tag k="natural" v="peak"/>
  </node>
  <node id="256698631" version="2" timestamp="2008-07-07T08:09:55Z" uid="6975" user="ulfl" changeset="418206" lat="42.5899044" lon="0.9380808">
    <tag k="ele" v="2933m"/>
    <tag k="name" v="Gran Tuc de Colomers"/>
    <tag k="natural" v="peak"/>
  </node>
</osm>
