<?xml version='1.0' encoding='UTF-8'?>
<osm version="0.6" generator="libosmium/2.20.0">
  <node id="258672340" version="3" timestamp="2008-08-17T10:10:05Z" uid="43863" user="Rundling" changeset="290151" lat="52.3985329" lon="9.559531">
    <tag k="created_by" v="JOSM"/>
  </node>
  <node id="258672796" version="12" timestamp="2009-10-03T13:34:46Z" uid="179968" user="Ich_hasse_doitsche_OSM-Korinthenkacker" changeset="2723894" lat="52.2171172" lon="10.6401397">
    <tag k="addr:housenumber" v="14"/>
    <tag k="addr:street" v="Tiefe StraÃŸe"/>
    <tag k="amenity" v="bank"/>
    <tag k="name" v="Postbank"/>
    <tag k="opening_hours" v="Mo-Th 10:00-13:00,14:00-18:00; Fr 10:00-13:00"/>
  </node>
  <node id="258673505" version="2" timestamp="2008-07-02T23:54:15Z" uid="6975" user="ulfl" changeset="377243" lat="48.6338032" lon="8.9984686">
    <tag k="shop" v="beverages"/>
  </node>
  <node id="258674113" version="2" timestamp="2008-07-08T01:44:19Z" uid="6975" user="ulfl" changeset="429882" lat="48.6335706" lon="8.9992067">
    <tag k="shop" v="ice_cream"/>
  </node>
  <node id="258679850" version="2" timestamp="2008-09-30T11:43:47Z" uid="1066" user="pavel" changeset="720911" lat="49.414325" lon="12.8571681">
    <tag k="is_in" v="Czech Republic, Europe"/>
    <tag k="name" v="Pila"/>
    <tag k="place" v="village"/>
  </node>
</osm>
