<?xml version='1.0' encoding='UTF-8'?>
<osm version="0.6" generator="libosmium/2.20.0">
  <node id="259420064" version="3" timestamp="2009-11-09T08:00:43Z" uid="4467" user="Rosscoe" changeset="3071203" lat="-42.8268" lon="147.475">
    <tag k="aeroway" v="aerodrome"/>
    <tag k="closest_town" v="Hobart"/>
    <tag k="ele" v="20"/>
    <tag k="icao" v="YCBG"/>
    <tag k="name" v="Cambridge Airport"/>
    <tag k="name:en" v="Cambridge Airport"/>
    <tag k="name_1" v="Cambridge Aerodrome"/>
    <tag k="operator" v="Aerotechnology Pty Ltd"/>
    <tag k="source" v="wikipedia"/>
    <tag k="type" v="private"/>
    <tag k="wikipedia:en" v="Cambridge_Aerodrome"/>
  </node>
  <node id="259420080" version="2" timestamp="2009-01-02T09:38:04Z" uid="20587" user="balrog-kun" changeset="706060" lat="52.2742904" lon="21.0655425">
    <tag k="created_by" v="JOSM"/>
  </node>
  <node id="259420095" version="2" timestamp="2009-01-02T09:38:04Z" uid="20587" user="balrog-kun" changeset="706060" lat="52.2740812" lon="21.0658041">
    <tag k="created_by" v="JOSM"/>
  </node>
  <node id="259420096" version="2" timestamp="2009-01-02T09:38:04Z" uid="20587" user="balrog-kun" changeset="706060" lat="52.2737853" lon="21.0655836">
    <tag k="created_by" v="JOSM"/>
  </node>
  <node id="259420097" version="2" timestamp="2009-01-02T09:38:04Z" uid="20587" user="balrog-kun" changeset="706060" lat="52.2739765" lon="21.0653071">
    <tag k="created_by" v="JOSM"/>
  </node>
  <node id="259420701" version="3" timestamp="2008-07-05T09:14:15Z" uid="6975" user="ulfl" changeset="396365" lat="53.0053915" lon="13.3469869">
    <tag k="railway" v="level_crossing"/>
  </node>
  <node id="259420971" version="3" timestamp="2009-12-09T02:22:40Z" uid="200463" user="harmagedon" changeset="3330572" lat="48.7038883" lon="13.7940541">
    <tag k="amenity" v="telephone"/>
  </node>
  <node id="259421258" version="4" timestamp="2009-12-09T02:22:38Z" uid="200463" user="harmagedon" changeset="3330572" lat="48.7038527" lon="13.792557">
    <tag k="amenity" v="telephone"/>
    <tag k="name" v="EDEKA"/>
    <tag k="shop" v="supermarket"/>
  </node>
  <node id="259421400" version="2" timestamp="2008-10-07T14:38:40Z" uid="9581" user="Lobelt" changeset="137401" lat="51.0968362" lon="17.1643921">
    <tag k="created_by" v="JOSM"/>
  </node>
  <node id="259421401" version="2" timestamp="2008-10-07T14:38:39Z" uid="9581" user="Lobelt" changeset="137401" lat="51.096644" lon="17.1650231">
    <tag k="created_by" v="JOSM"/>
  </node>
  <node id="259421402" version="2" timestamp="2008-10-07T14:38:39Z" uid="9581" user="Lobelt" changeset="137401" lat="51.0964269" lon="17.1666923">
    <tag k="created_by" v="JOSM"/>
  </node>
  <node id="259421403" version="2" timestamp="2008-10-07T14:38:40Z" uid="9581" user="Lobelt" changeset="137401" lat="51.0962397" lon="17.1683311">
    <tag k="created_by" v="JOSM"/>
  </node>
  <node id="259421405" version="2" timestamp="2008-10-07T14:38:40Z" uid="9581" user="Lobelt" changeset="137401" lat="51.096577" lon="17.165362">
    <tag k="created_by" v="JOSM"/>
  </node>
  <node id="259421428" version="2" timestamp="2008-10-07T14:38:39Z" uid="9581" user="Lobelt" changeset="137401" lat="51.0965543" lon="17.1656656">
    <tag k="created_by" v="JOSM"/>
  </node>
  <node id="259421981" version="2" timestamp="2009-06-10T04:19:30Z" uid="20587" user="balrog-kun" changeset="1473633" lat="50.4828631" lon="19.4236599">
    <tag k="created_by" v="JOSM"/>
  </node>
  <node id="259421982" version="2" timestamp="2009-06-10T04:19:31Z" uid="20587" user="balrog-kun" changeset="1473633" lat="50.4833999" lon="19.4236174">
    <tag k="created_by" v="JOSM"/>
  </node>
  <node id="259421983" version="2" timestamp="2009-06-10T04:19:30Z" uid="20587" user="balrog-kun" changeset="1473633" lat="50.4844836" lon="19.4234676">
    <tag k="created_by" v="JOSM"/>
  </node>
  <node id="259421985" version="2" timestamp="2009-06-10T04:19:31Z" uid="20587" user="balrog-kun" changeset="1473633" lat="50.485827" lon="19.4233428">
    <tag k="created_by" v="JOSM"/>
  </node>
  <node id="259421986" version="2" timestamp="2009-06-10T04:19:31Z" uid="20587" user="balrog-kun" changeset="1473633" lat="50.485435" lon="19.4247311">
    <tag k="created_by" v="JOSM"/>
  </node>
  <node id="259421987" version="2" timestamp="2009-06-10T04:19:31Z" uid="20587" user="balrog-kun" changeset="1473633" lat="50.4851054" lon="19.4257024">
    <tag k="created_by" v="JOSM"/>
  </node>
  <node id="259421989" version="2" timestamp="2009-06-10T04:19:31Z" uid="20587" user="balrog-kun" changeset="1473633" lat="50.4841565" lon="19.4288986">
    <tag k="created_by" v="JOSM"/>
  </node>
  <node id="259422073" version="5" timestamp="2009-11-23T17:35:31Z" uid="88880" user="firsttimelinux" changeset="3197557" lat="48.8898952" lon="9.1944426">
    <tag k="highway" v="traffic_signals"/>
  </node>
  <node id="259422078" version="11" timestamp="2009-11-23T17:35:30Z" uid="88880" user="firsttimelinux" changeset="3197557" lat="48.8890337" lon="9.1944837">
    <tag k="highway" v="traffic_signals"/>
  </node>
  <node id="259422079" version="13" timestamp="2009-11-23T17:35:30Z" uid="88880" user="firsttimelinux" changeset="3197557" lat="48.8892347" lon="9.1944756">
    <tag k="highway" v="traffic_signals"/>
  </node>
  <node id="259422151" version="2" timestamp="2009-06-10T04:19:30Z" uid="20587" user="balrog-kun" changeset="1473633" lat="50.4863619" lon="19.4232988">
    <tag k="created_by" v="JOSM"/>
  </node>
  <node id="259422152" version="3" timestamp="2009-06-10T04:19:30Z" uid="20587" user="balrog-kun" changeset="1473633" lat="50.4843789" lon="19.4282343">
    <tag k="created_by" v="JOSM"/>
  </node>
  <node id="259423620" version="4" timestamp="2009-02-01T18:28:10Z" uid="49111" user="Markus B" changeset="24377" lat="47.2540924" lon="8.5673027"/>
  <node id="259423654" version="3" timestamp="2009-02-01T18:28:10Z" uid="49111" user="Markus B" changeset="24377" lat="47.2547099" lon="8.5669079"/>
  <node id="259423655" version="3" timestamp="2009-02-01T18:28:10Z" uid="49111" user="Markus B" changeset="24377" lat="47.2560032" lon="8.565423"/>
  <node id="259423740" version="2" timestamp="2008-08-14T23:58:57Z" uid="6975" user="ulfl" changeset="264731" lat="51.7637595" lon="-1.2254325">
    <tag k="amenity" v="place_of_worship"/>
    <tag k="denomination" v="catholic"/>
    <tag k="religion" v="christian"/>
  </node>
  <node id="259425093" version="6" timestamp="2009-05-01T20:04:10Z" uid="20587" user="balrog-kun" changeset="1041684" lat="50.4605179" lon="19.6105219">
    <tag k="addr:postcode" v="42-436"/>
    <tag k="created_by" v="JOSM"/>
    <tag k="is_in" v="gmina Pilica, powiat zawierciański, województwo śląskie, Poland"/>
    <tag k="is_in:country" v="Poland"/>
    <tag k="is_in:county" v="powiat zawierciański"/>
    <tag k="is_in:municipality" v="gmina Pilica"/>
    <tag k="is_in:province" v="województwo śląskie"/>
    <tag k="name" v="Kocikowa"/>
    <tag k="place" v="village"/>
    <tag k="population" v="432"/>
    <tag k="source:population" v="wikipedia"/>
    <tag k="teryt:rm" v="01"/>
    <tag k="teryt:simc" v="0219490"/>
    <tag k="teryt:stan_na" v="2009-01-01"/>
    <tag k="teryt:terc" v="2416075"/>
    <tag k="teryt:updated_by" v="teryt2osm combine.py v. 43"/>
    <tag k="wikipedia" v="Kocikowa"/>
  </node>
  <node id="259425093" version="7" timestamp="2009-06-11T08:40:02Z" uid="20587" user="balrog-kun" changeset="1484704" lat="50.45978" lon="19.61798">
    <tag k="addr:postcode" v="42-436"/>
    <tag k="created_by" v="JOSM"/>
    <tag k="is_in" v="gmina Pilica, powiat zawierciański, województwo śląskie, Poland"/>
    <tag k="is_in:country" v="Poland"/>
    <tag k="is_in:county" v="powiat zawierciański"/>
    <tag k="is_in:municipality" v="gmina Pilica"/>
    <tag k="is_in:province" v="województwo śląskie"/>
    <tag k="name" v="Kocikowa"/>
    <tag k="place" v="village"/>
    <tag k="population" v="432"/>
    <tag k="source:population" v="wikipedia"/>
    <tag k="teryt:rm" v="01"/>
    <tag k="teryt:simc" v="0219490"/>
    <tag k="teryt:stan_na" v="2009-01-01"/>
    <tag k="teryt:terc" v="2416075"/>
    <tag k="teryt:updated_by" v="teryt2osm combine.py v. 43"/>
    <tag k="wikipedia" v="Kocikowa"/>
  </node>
  <node id="259425093" version="8" timestamp="2010-04-11T04:38:03Z" uid="20587" user="balrog-kun" changeset="4389130" lat="50.45978" lon="19.61798">
    <tag k="addr:postcode" v="42-436"/>
    <tag k="is_in" v="gmina Pilica, powiat zawierciański, województwo śląskie, Poland"/>
    <tag k="is_in:country" v="Poland"/>
    <tag k="is_in:county" v="powiat zawierciański"/>
    <tag k="is_in:municipality" v="gmina Pilica"/>
    <tag k="is_in:province" v="województwo śląskie"/>
    <tag k="name" v="Kocikowa"/>
    <tag k="place" v="village"/>
    <tag k="population" v="432"/>
    <tag k="source:population" v="wikipedia"/>
    <tag k="teryt:rm" v="01"/>
    <tag k="teryt:simc" v="0219490"/>
    <tag k="teryt:stan_na" v="2009-01-01"/>
    <tag k="teryt:terc" v="2416075"/>
    <tag k="teryt:updated_by" v="teryt2osm combine.py v. 43"/>
    <tag k="wikipedia" v="Kocikowa"/>
  </node>
  <node id="259425143" version="4" timestamp="2009-10-03T13:34:39Z" uid="179968" user="Ich_hasse_doitsche_OSM-Korinthenkacker" changeset="2723894" lat="52.2148979" lon="10.6305127">
    <tag k="highway" v="turning_circle"/>
  </node>
  <node id="259427172" version="2" timestamp="2009-06-10T04:03:29Z" uid="20587" user="balrog-kun" changeset="1473633" lat="50.4512084" lon="19.6574789">
    <tag k="created_by" v="JOSM"/>
  </node>
  <node id="259427179" version="2" timestamp="2009-06-10T04:03:29Z" uid="20587" user="balrog-kun" changeset="1473633" lat="50.4504913" lon="19.6568006">
    <tag k="created_by" v="JOSM"/>
  </node>
  <node id="259427981" version="6" timestamp="2009-05-01T20:03:49Z" uid="20587" user="balrog-kun" changeset="1041684" lat="50.5037197" lon="18.5970699">
    <tag k="is_in" v="gmina Wielowieś, powiat gliwicki, województwo śląskie, Poland"/>
    <tag k="is_in:country" v="Poland"/>
    <tag k="is_in:county" v="powiat gliwicki"/>
    <tag k="is_in:municipality" v="gmina Wielowieś"/>
    <tag k="is_in:province" v="województwo śląskie"/>
    <tag k="name" v="Błażejowice"/>
    <tag k="place" v="hamlet"/>
    <tag k="population" v="305"/>
    <tag k="source:population" v="wikipedia"/>
    <tag k="teryt:rm" v="01"/>
    <tag k="teryt:simc" v="0223438"/>
    <tag k="teryt:stan_na" v="2009-01-01"/>
    <tag k="teryt:terc" v="2405082"/>
    <tag k="teryt:updated_by" v="teryt2osm combine.py v. 43"/>
    <tag k="wikipedia" v="Błażejowice, Silesian Voivodeship"/>
  </node>
  <node id="259427981" version="8" timestamp="2010-04-11T04:38:03Z" uid="20587" user="balrog-kun" changeset="4389130" lat="50.4957869" lon="18.5856642">
    <tag k="is_in" v="gmina Wielowieś, powiat gliwicki, województwo śląskie, Poland"/>
    <tag k="is_in:country" v="Poland"/>
    <tag k="is_in:county" v="powiat gliwicki"/>
    <tag k="is_in:municipality" v="gmina Wielowieś"/>
    <tag k="is_in:province" v="województwo śląskie"/>
    <tag k="name" v="Błażejowice"/>
    <tag k="place" v="hamlet"/>
    <tag k="population" v="305"/>
    <tag k="source:population" v="wikipedia"/>
    <tag k="teryt:rm" v="01"/>
    <tag k="teryt:simc" v="0223438"/>
    <tag k="teryt:stan_na" v="2009-01-01"/>
    <tag k="teryt:terc" v="2405082"/>
    <tag k="teryt:updated_by" v="teryt2osm combine.py v. 43"/>
    <tag k="wikipedia" v="Błażejowice, Silesian Voivodeship"/>
  </node>
  <node id="259428358" version="7" timestamp="2009-05-01T20:03:45Z" uid="20587" user="balrog-kun" changeset="1041684" lat="50.4099491" lon="18.5593044">
    <tag k="addr:postcode" v="44-120"/>
    <tag k="is_in" v="gmina Toszek, powiat gliwicki, województwo śląskie, Poland"/>
    <tag k="is_in:country" v="Poland"/>
    <tag k="is_in:county" v="powiat gliwicki"/>
    <tag k="is_in:municipality" v="gmina Toszek"/>
    <tag k="is_in:province" v="województwo śląskie"/>
    <tag k="name" v="Paczyna"/>
    <tag k="place" v="village"/>
    <tag k="population" v="1251"/>
    <tag k="source:population" v="wikipedia"/>
    <tag k="teryt:rm" v="01"/>
    <tag k="teryt:simc" v="0222574"/>
    <tag k="teryt:stan_na" v="2009-01-01"/>
    <tag k="teryt:terc" v="2405075"/>
    <tag k="teryt:updated_by" v="teryt2osm combine.py v. 43"/>
    <tag k="wikipedia" v="Paczyna"/>
  </node>
  <node id="259428358" version="8" timestamp="2010-04-11T04:38:03Z" uid="20587" user="balrog-kun" changeset="4389130" lat="50.4103214" lon="18.5607701">
    <tag k="addr:postcode" v="44-120"/>
    <tag k="is_in" v="gmina Toszek, powiat gliwicki, województwo śląskie, Poland"/>
    <tag k="is_in:country" v="Poland"/>
    <tag k="is_in:county" v="powiat gliwicki"/>
    <tag k="is_in:municipality" v="gmina Toszek"/>
    <tag k="is_in:province" v="województwo śląskie"/>
    <tag k="name" v="Paczyna"/>
    <tag k="place" v="village"/>
    <tag k="population" v="1251"/>
    <tag k="source:population" v="wikipedia"/>
    <tag k="teryt:rm" v="01"/>
    <tag k="teryt:simc" v="0222574"/>
    <tag k="teryt:stan_na" v="2009-01-01"/>
    <tag k="teryt:terc" v="2405075"/>
    <tag k="teryt:updated_by" v="teryt2osm combine.py v. 43"/>
    <tag k="wikipedia" v="Paczyna"/>
  </node>
  <node id="259428359" version="2" timestamp="2011-06-14T11:48:40Z" uid="30201" user="rrankin" changeset="8436460" lat="-32.72498" lon="151.543811"/>
  <node id="259428360" version="3" timestamp="2011-06-14T11:48:45Z" uid="30201" user="rrankin" changeset="8436460" lat="-32.7259054" lon="151.5437656"/>
  <node id="259428387" version="3" timestamp="2009-10-03T13:34:50Z" uid="179968" user="Ich_hasse_doitsche_OSM-Korinthenkacker" changeset="2723894" lat="52.2172482" lon="10.6462026"/>
  <node id="259428388" version="3" timestamp="2009-10-03T13:34:50Z" uid="179968" user="Ich_hasse_doitsche_OSM-Korinthenkacker" changeset="2723894" lat="52.2170484" lon="10.6459284"/>
  <node id="259428638" version="8" timestamp="2009-05-01T20:03:34Z" uid="20587" user="balrog-kun" changeset="1041684" lat="50.347113" lon="18.6331188">
    <tag k="addr:postcode" v="44-10944113"/>
    <tag k="is_in" v="Gliwice, województwo śląskie, Poland"/>
    <tag k="is_in:city" v="Gliwice"/>
    <tag k="is_in:country" v="Poland"/>
    <tag k="is_in:county" v="powiat gliwice"/>
    <tag k="is_in:municipality" v="gmina Miasto Gliwice"/>
    <tag k="is_in:province" v="województwo śląskie"/>
    <tag k="is_in:town" v="Gliwice"/>
    <tag k="name" v="Łabędy"/>
    <tag k="place" v="suburb"/>
    <tag k="population" v="28635"/>
    <tag k="source:population" v="wikipedia"/>
    <tag k="teryt:rm" v="99"/>
    <tag k="teryt:simc" v="0940051"/>
    <tag k="teryt:stan_na" v="2009-01-01"/>
    <tag k="teryt:sympod" v="0940000"/>
    <tag k="teryt:terc" v="2466011"/>
    <tag k="teryt:updated_by" v="teryt2osm combine.py v. 43"/>
    <tag k="wikipedia" v="pl:Łabędy (dzielnica Gliwic)"/>
  </node>
  <node id="259428638" version="11" timestamp="2009-06-16T14:36:27Z" uid="20587" user="balrog-kun" changeset="1535698" lat="50.347113" lon="18.6331188">
    <tag k="addr:postcode" v="44-10944113"/>
    <tag k="is_in" v="Gliwice, województwo śląskie, Poland"/>
    <tag k="is_in:city" v="Gliwice"/>
    <tag k="is_in:country" v="Poland"/>
    <tag k="is_in:county" v="powiat m. Gliwice"/>
    <tag k="is_in:municipality" v="gmina m. Gliwice"/>
    <tag k="is_in:province" v="województwo śląskie"/>
    <tag k="is_in:town" v="Gliwice"/>
    <tag k="name" v="Łabędy"/>
    <tag k="place" v="suburb"/>
    <tag k="population" v="28635"/>
    <tag k="source:population" v="wikipedia"/>
    <tag k="teryt:rm" v="99"/>
    <tag k="teryt:simc" v="0940051"/>
    <tag k="teryt:stan_na" v="2009-01-01"/>
    <tag k="teryt:sympod" v="0940000"/>
    <tag k="teryt:terc" v="2466011"/>
    <tag k="teryt:updated_by" v="teryt2osm combine.py v. 49"/>
    <tag k="wikipedia" v="pl:Łabędy (dzielnica Gliwic)"/>
  </node>
  <node id="259429235" version="3" timestamp="2011-06-14T11:48:47Z" uid="30201" user="rrankin" changeset="8436460" lat="-32.7254909" lon="151.5441883"/>
  <node id="259429317" version="2" timestamp="2009-05-01T18:33:45Z" uid="20587" user="balrog-kun" changeset="1040416" lat="50.3920044" lon="18.3519375">
    <tag k="addr:postcode" v="47-143"/>
    <tag k="created_by" v="Potlatch 0.8b"/>
    <tag k="is_in" v="gmina Ujazd, powiat strzelecki, województwo opolskie, Poland"/>
    <tag k="is_in:county" v="powiat strzelecki"/>
    <tag k="is_in:municipality" v="gmina Ujazd"/>
    <tag k="is_in:province" v="województwo opolskie"/>
    <tag k="name" v="Ujazd"/>
    <tag k="place" v="village"/>
    <tag k="population" v="1638"/>
    <tag k="source:population" v="wikipedia"/>
    <tag k="teryt:terc" v="1611064"/>
    <tag k="wikipedia" v="Ujazd"/>
  </node>
  <node id="259429317" version="3" timestamp="2010-04-11T04:38:04Z" uid="20587" user="balrog-kun" changeset="4389130" lat="50.3911061" lon="18.3509063">
    <tag k="addr:postcode" v="47-143"/>
    <tag k="is_in" v="gmina Ujazd, powiat strzelecki, województwo opolskie, Poland"/>
    <tag k="is_in:county" v="powiat strzelecki"/>
    <tag k="is_in:municipality" v="gmina Ujazd"/>
    <tag k="is_in:province" v="województwo opolskie"/>
    <tag k="name" v="Ujazd"/>
    <tag k="place" v="village"/>
    <tag k="population" v="1638"/>
    <tag k="source:population" v="wikipedia"/>
    <tag k="teryt:terc" v="1611064"/>
    <tag k="wikipedia" v="Ujazd"/>
  </node>
  <node id="259429374" version="7" timestamp="2009-05-01T20:03:13Z" uid="20587" user="balrog-kun" changeset="1041684" lat="50.4096804" lon="18.4629939">
    <tag k="addr:postcode" v="44-172"/>
    <tag k="created_by" v="Potlatch 0.8b"/>
    <tag k="is_in" v="gmina Rudziniec, powiat gliwicki, województwo śląskie, Poland"/>
    <tag k="is_in:country" v="Poland"/>
    <tag k="is_in:county" v="powiat gliwicki"/>
    <tag k="is_in:municipality" v="gmina Rudziniec"/>
    <tag k="is_in:province" v="województwo śląskie"/>
    <tag k="name" v="Poniszowice"/>
    <tag k="place" v="village"/>
    <tag k="population" v="529"/>
    <tag k="source:population" v="wikipedia"/>
    <tag k="teryt:rm" v="01"/>
    <tag k="teryt:simc" v="0221209"/>
    <tag k="teryt:stan_na" v="2009-01-01"/>
    <tag k="teryt:terc" v="2405052"/>
    <tag k="teryt:updated_by" v="teryt2osm combine.py v. 43"/>
    <tag k="wikipedia" v="Poniszowice"/>
  </node>
  <node id="259429573" version="6" timestamp="2009-05-01T20:02:03Z" uid="20587" user="balrog-kun" changeset="1041684" lat="50.4613383" lon="18.413049">
    <tag k="addr:postcode" v="44-180"/>
    <tag k="is_in" v="gmina Toszek, powiat gliwicki, województwo śląskie, Poland"/>
    <tag k="is_in:country" v="Poland"/>
    <tag k="is_in:county" v="powiat gliwicki"/>
    <tag k="is_in:municipality" v="gmina Toszek"/>
    <tag k="is_in:province" v="województwo śląskie"/>
    <tag k="name" v="Kotulin"/>
    <tag k="place" v="village"/>
    <tag k="population" v="1282"/>
    <tag k="source:population" v="wikipedia"/>
    <tag k="teryt:rm" v="01"/>
    <tag k="teryt:simc" v="0222500"/>
    <tag k="teryt:stan_na" v="2009-01-01"/>
    <tag k="teryt:terc" v="2405075"/>
    <tag k="teryt:updated_by" v="teryt2osm combine.py v. 43"/>
    <tag k="wikipedia" v="Kotulin, Silesian Voivodeship"/>
  </node>
  <node id="259429573" version="7" timestamp="2010-04-11T04:38:04Z" uid="20587" user="balrog-kun" changeset="4389130" lat="50.4632558" lon="18.4159383">
    <tag k="addr:postcode" v="44-180"/>
    <tag k="is_in" v="gmina Toszek, powiat gliwicki, województwo śląskie, Poland"/>
    <tag k="is_in:country" v="Poland"/>
    <tag k="is_in:county" v="powiat gliwicki"/>
    <tag k="is_in:municipality" v="gmina Toszek"/>
    <tag k="is_in:province" v="województwo śląskie"/>
    <tag k="name" v="Kotulin"/>
    <tag k="place" v="village"/>
    <tag k="population" v="1282"/>
    <tag k="source:population" v="wikipedia"/>
    <tag k="teryt:rm" v="01"/>
    <tag k="teryt:simc" v="0222500"/>
    <tag k="teryt:stan_na" v="2009-01-01"/>
    <tag k="teryt:terc" v="2405075"/>
    <tag k="teryt:updated_by" v="teryt2osm combine.py v. 43"/>
    <tag k="wikipedia" v="Kotulin, Silesian Voivodeship"/>
  </node>
  <node id="259429741" version="5" timestamp="2009-05-01T18:34:08Z" uid="20587" user="balrog-kun" changeset="1040416" lat="50.4851552" lon="18.4123623">
    <tag k="addr:postcode" v="47-134"/>
    <tag k="created_by" v="Potlatch 0.8b"/>
    <tag k="is_in" v="gmina Strzelce Opolskie, powiat strzelecki, województwo opolskie, Poland"/>
    <tag k="is_in:country" v="Poland"/>
    <tag k="is_in:county" v="powiat strzelecki"/>
    <tag k="is_in:municipality" v="gmina Strzelce Opolskie"/>
    <tag k="is_in:province" v="województwo opolskie"/>
    <tag k="name" v="Błotnica Strzelecka"/>
    <tag k="place" v="village"/>
    <tag k="teryt:rm" v="01"/>
    <tag k="teryt:simc" v="0503043"/>
    <tag k="teryt:stan_na" v="2009-01-01"/>
    <tag k="teryt:terc" v="1611055"/>
    <tag k="teryt:updated_by" v="teryt2osm combine.py v. 43"/>
    <tag k="wikipedia" v="Błotnica Strzelecka"/>
  </node>
  <node id="259429741" version="6" timestamp="2010-04-11T04:38:04Z" uid="20587" user="balrog-kun" changeset="4389130" lat="50.4858916" lon="18.4115576">
    <tag k="addr:postcode" v="47-134"/>
    <tag k="is_in" v="gmina Strzelce Opolskie, powiat strzelecki, województwo opolskie, Poland"/>
    <tag k="is_in:country" v="Poland"/>
    <tag k="is_in:county" v="powiat strzelecki"/>
    <tag k="is_in:municipality" v="gmina Strzelce Opolskie"/>
    <tag k="is_in:province" v="województwo opolskie"/>
    <tag k="name" v="Błotnica Strzelecka"/>
    <tag k="place" v="village"/>
    <tag k="teryt:rm" v="01"/>
    <tag k="teryt:simc" v="0503043"/>
    <tag k="teryt:stan_na" v="2009-01-01"/>
    <tag k="teryt:terc" v="1611055"/>
    <tag k="teryt:updated_by" v="teryt2osm combine.py v. 43"/>
    <tag k="wikipedia" v="Błotnica Strzelecka"/>
  </node>
</osm>
