<?xml version='1.0' encoding='UTF-8'?>
<osm version="0.6" generator="libosmium/2.20.0">
  <node id="26270008" version="9" timestamp="2009-01-03T17:53:33Z" uid="58091" user="Andreas M" changeset="721411" lat="48.2577213" lon="16.3996339"/>
  <node id="26270010" version="4" timestamp="2009-01-04T18:09:08Z" uid="58091" user="Andreas M" changeset="729261" lat="48.253843" lon="16.3964943"/>
  <node id="26270011" version="4" timestamp="2009-01-04T18:09:08Z" uid="58091" user="Andreas M" changeset="729261" lat="48.2537577" lon="16.3959947"/>
  <node id="26270934" version="9" timestamp="2008-09-30T11:47:46Z" uid="1066" user="pavel" changeset="720911" lat="50.0876513" lon="14.4212226">
    <tag k="capital" v="country"/>
    <tag k="is_in" v="Czech Republic, Europe"/>
    <tag k="name" v="Praha"/>
    <tag k="name:de" v="Prag"/>
    <tag k="name:en" v="Prague"/>
    <tag k="name:fi" v="Praha"/>
    <tag k="name:it" v="Praga"/>
    <tag k="name:sv" v="Prag"/>
    <tag k="place" v="city"/>
  </node>
  <node id="26270934" version="18" timestamp="2009-07-22T19:58:59Z" uid="20587" user="balrog-kun" changeset="1908820" lat="50.0876559" lon="14.4212127">
    <tag k="capital" v="yes"/>
    <tag k="is_in" v="Czech Republic, Europe"/>
    <tag k="is_in:continent" v="Europe"/>
    <tag k="is_in:country_code" v="cz"/>
    <tag k="name" v="Praha"/>
    <tag k="name:cs" v="Praha"/>
    <tag k="name:de" v="Prag"/>
    <tag k="name:en" v="Prague"/>
    <tag k="name:es" v="Praga"/>
    <tag k="name:fi" v="Praha"/>
    <tag k="name:he" v="פראג"/>
    <tag k="name:hr" v="Prag"/>
    <tag k="name:it" v="Praga"/>
    <tag k="name:nl" v="Praag"/>
    <tag k="name:pl" v="Praga"/>
    <tag k="name:sv" v="Prag"/>
    <tag k="name:zh" v="布拉格"/>
    <tag k="name:zh_py" v="Bulage"/>
    <tag k="name:zh_pyt" v="Bùlāgé"/>
    <tag k="place" v="city"/>
    <tag k="wikipedia" v="Prague"/>
  </node>
  <node id="26270935" version="1" timestamp="2007-03-01T23:12:26Z" uid="1066" user="pavel" changeset="227170" lat="50.0835489" lon="14.4059527">
    <tag k="created_by" v="JOSM"/>
    <tag k="name" v="Mala Strana"/>
    <tag k="place" v="suburb"/>
  </node>
  <node id="26272662" version="2" timestamp="2007-10-25T19:47:56Z" uid="8328" user="benpre" changeset="314650" lat="14.6429693" lon="121.0718683">
    <tag k="created_by" v="JOSM"/>
  </node>
</osm>
