<?xml version='1.0' encoding='UTF-8'?>
<osm version="0.6" generator="libosmium/2.20.0">
  <node id="263810162" version="2" timestamp="2009-02-09T00:49:35Z" uid="20587" user="balrog-kun" changeset="288825" lat="52.2373511" lon="21.0329778">
    <tag k="amenity" v="theatre"/>
    <tag k="created_by" v="JOSM"/>
    <tag k="name" v="Teatr Ateneum imienia Stefana Jaracza"/>
  </node>
  <node id="263810162" version="3" timestamp="2009-02-15T07:04:43Z" uid="20587" user="balrog-kun" changeset="446565" lat="52.2373511" lon="21.0329778">
    <tag k="amenity" v="theatre"/>
    <tag k="created_by" v="JOSM"/>
    <tag k="name" v="Teatr Ateneum imienia Stefana Jaracza"/>
    <tag k="wikipedia" v="pl:Teatr Ateneum w Warszawie"/>
  </node>
  <node id="263810162" version="4" timestamp="2010-11-06T21:04:36Z" uid="20587" user="balrog-kun" changeset="6306362" lat="52.2371779" lon="21.0328283">
    <tag k="amenity" v="theatre"/>
    <tag k="name" v="Teatr Ateneum imienia Stefana Jaracza"/>
    <tag k="wikipedia" v="pl:Teatr Ateneum w Warszawie"/>
  </node>
  <node id="263810164" version="2" timestamp="2009-02-23T10:30:47Z" uid="20587" user="balrog-kun" changeset="630101" lat="52.2280773" lon="21.0261857">
    <tag k="amenity" v="theatre"/>
    <tag k="created_by" v="JOSM"/>
    <tag k="name" v="Studio Buffo"/>
  </node>
  <node id="263810168" version="2" timestamp="2008-11-17T23:25:04Z" uid="20587" user="balrog-kun" changeset="763932" lat="52.23602" lon="21.0085056">
    <tag k="amenity" v="theatre"/>
    <tag k="created_by" v="JOSM"/>
    <tag k="name" v="Bajka"/>
  </node>
  <node id="263810172" version="2" timestamp="2008-12-17T02:53:47Z" uid="20587" user="balrog-kun" changeset="433442" lat="52.2344531" lon="21.0113789">
    <tag k="amenity" v="theatre"/>
    <tag k="created_by" v="JOSM"/>
    <tag k="name" v="Filharmonia Narodowa"/>
  </node>
  <node id="263810172" version="3" timestamp="2008-12-19T16:38:17Z" uid="20587" user="balrog-kun" changeset="474388" lat="52.2344208" lon="21.011342">
    <tag k="amenity" v="theatre"/>
    <tag k="created_by" v="JOSM"/>
    <tag k="name" v="Filharmonia Narodowa"/>
  </node>
  <node id="263810180" version="2" timestamp="2008-11-17T23:25:04Z" uid="20587" user="balrog-kun" changeset="763932" lat="52.2378166" lon="21.0146627">
    <tag k="amenity" v="theatre"/>
    <tag k="created_by" v="JOSM"/>
    <tag k="name" v="Kwadrat"/>
  </node>
  <node id="263811516" version="2" timestamp="2008-10-06T20:22:29Z" uid="20587" user="balrog-kun" changeset="108077" lat="52.2322525" lon="21.0114264">
    <tag k="amenity" v="theatre"/>
    <tag k="created_by" v="JOSM"/>
    <tag k="name" v="MaÅ‚y"/>
  </node>
  <node id="263816516" version="3" timestamp="2008-07-03T20:40:09Z" uid="6975" user="ulfl" changeset="386611" lat="49.7625377" lon="9.512358">
    <tag k="amenity" v="bus_station"/>
  </node>
  <node id="263816660" version="3" timestamp="2009-12-09T20:21:27Z" uid="200463" user="harmagedon" changeset="3336536" lat="50.9904219" lon="14.6190446"/>
  <node id="263816662" version="2" timestamp="2009-12-09T20:21:26Z" uid="200463" user="harmagedon" changeset="3336536" lat="50.9893991" lon="14.6184635"/>
  <node id="263816664" version="2" timestamp="2009-12-09T20:21:26Z" uid="200463" user="harmagedon" changeset="3336536" lat="50.9880045" lon="14.6171618"/>
  <node id="263816667" version="2" timestamp="2009-12-09T20:21:23Z" uid="200463" user="harmagedon" changeset="3336536" lat="50.9870979" lon="14.6153022"/>
  <node id="263817470" version="3" timestamp="2011-02-07T22:21:35Z" uid="9581" user="Lobelt" changeset="7221802" lat="49.2899527" lon="8.5941796"/>
  <node id="263817473" version="2" timestamp="2011-02-07T22:21:28Z" uid="9581" user="Lobelt" changeset="7221802" lat="49.2885819" lon="8.5960186"/>
</osm>
