<?xml version='1.0' encoding='UTF-8'?>
<osm version="0.6" generator="libosmium/2.20.0">
  <node id="264990235" version="2" timestamp="2008-07-02T23:43:42Z" uid="6975" user="ulfl" changeset="377243" lat="53.5530614" lon="10.0032729">
    <tag k="name" v="Lehmanns"/>
    <tag k="shop" v="books"/>
  </node>
  <node id="264990235" version="3" timestamp="2008-07-02T23:57:19Z" uid="6975" user="ulfl" changeset="377243" lat="53.5530614" lon="10.0032729">
    <tag k="name" v="Lehmanns"/>
    <tag k="shop" v="books"/>
  </node>
  <node id="264990235" version="5" timestamp="2008-09-24T20:44:45Z" uid="6975" user="ulfl" changeset="690442" lat="53.5530614" lon="10.0032729">
    <tag k="name" v="Lehmanns"/>
    <tag k="shop" v="books"/>
  </node>
  <node id="264990856" version="1" timestamp="2008-05-16T22:16:44Z" uid="36809" user="pfoten_weg_!_" changeset="463459" lat="48.0856566" lon="11.4953308">
    <tag k="created_by" v="Potlatch 0.9a"/>
    <tag k="name" v="Freiwillige Feuerwehr Forstenried"/>
  </node>
  <node id="264990856" version="2" timestamp="2008-05-16T22:24:02Z" uid="36809" user="pfoten_weg_!_" changeset="463459" lat="48.0856508" lon="11.4954682">
    <tag k="created_by" v="Potlatch 0.9a"/>
    <tag k="name" v="Freiwillige Feuerwehr Forstenried"/>
  </node>
  <node id="264990856" version="3" timestamp="2008-05-21T17:48:03Z" uid="36809" user="pfoten_weg_!_" changeset="492255" lat="48.0856524" lon="11.4954662">
    <tag k="amenity" v="fire_station"/>
    <tag k="created_by" v="Potlatch 0.9a"/>
    <tag k="name" v="Freiwillige Feuerwehr Forstenried"/>
  </node>
  <node id="264990856" version="4" timestamp="2008-05-27T12:51:25Z" uid="36809" user="pfoten_weg_!_" changeset="533292" lat="48.0856538" lon="11.4954604">
    <tag k="amenity" v="fire_station"/>
    <tag k="created_by" v="Potlatch 0.9b"/>
    <tag k="name" v="Freiwillige Feuerwehr Forstenried"/>
  </node>
  <node id="264990856" version="5" timestamp="2008-06-12T21:52:40Z" uid="36809" user="pfoten_weg_!_" changeset="148810" lat="48.0857262" lon="11.4954728">
    <tag k="amenity" v="fire_station"/>
    <tag k="created_by" v="Potlatch 0.9c"/>
    <tag k="name" v="Freiwillige Feuerwehr Forstenried"/>
  </node>
  <node id="264990856" version="6" timestamp="2008-07-16T23:06:28Z" uid="36809" user="pfoten_weg_!_" changeset="511277" lat="48.0857262" lon="11.4954728">
    <tag k="amenity" v="fire_station"/>
    <tag k="created_by" v="RambaZamba"/>
    <tag k="name" v="Freiwillige Feuerwehr Forstenried"/>
  </node>
  <node id="264990856" version="7" timestamp="2008-09-13T12:33:38Z" uid="36809" user="pfoten_weg_!_" changeset="620497" lat="48.0857263" lon="11.4954733">
    <tag k="amenity" v="fire_station"/>
    <tag k="created_by" v="RambaZamba"/>
    <tag k="name" v="Freiwillige Feuerwehr Forstenried"/>
  </node>
  <node id="264990856" version="8" timestamp="2008-09-20T03:45:11Z" uid="36809" user="pfoten_weg_!_" changeset="670006" lat="48.0857263" lon="11.4954734">
    <tag k="amenity" v="fire_station"/>
    <tag k="created_by" v="RambaZamba"/>
    <tag k="name" v="Freiwillige Feuerwehr Forstenried"/>
  </node>
  <node id="264990856" version="9" timestamp="2008-10-01T01:13:42Z" uid="36809" user="pfoten_weg_!_" changeset="5644" lat="48.0857263" lon="11.4954734">
    <tag k="amenity" v="fire_station"/>
    <tag k="created_by" v="RambaZamba"/>
    <tag k="name" v="Freiwillige Feuerwehr Forstenried"/>
  </node>
  <node id="264990856" version="10" timestamp="2009-02-15T13:01:07Z" uid="36809" user="pfoten_weg_!_" changeset="463903" lat="48.0857263" lon="11.4954734">
    <tag k="amenity" v="fire_station"/>
    <tag k="created_by" v="RambaZamba"/>
    <tag k="name" v="Freiwillige Feuerwehr Forstenried"/>
    <tag k="source" v="survey"/>
  </node>
  <node id="264990856" version="11" timestamp="2009-07-26T03:19:50Z" uid="36809" user="pfoten_weg_!_" changeset="1940223" lat="48.0857263" lon="11.4954734">
    <tag k="amenity" v="fire_station"/>
    <tag k="created_by" v="RambaZamba"/>
    <tag k="name" v="Freiwillige Feuerwehr Forstenried"/>
    <tag k="source" v="survey"/>
  </node>
  <node id="264990924" version="1" timestamp="2008-05-16T22:18:13Z" uid="36809" user="pfoten_weg_!_" changeset="463459" lat="48.0863217" lon="11.4965925">
    <tag k="created_by" v="Potlatch 0.9a"/>
    <tag k="name" v="Grundschule"/>
  </node>
  <node id="264990924" version="2" timestamp="2008-05-21T17:41:57Z" uid="36809" user="pfoten_weg_!_" changeset="492255" lat="48.0863232" lon="11.4965906">
    <tag k="amenity" v="school"/>
    <tag k="created_by" v="Potlatch 0.9a"/>
    <tag k="name" v="Grundschule"/>
  </node>
  <node id="264990924" version="3" timestamp="2008-06-12T21:50:22Z" uid="36809" user="pfoten_weg_!_" changeset="148810" lat="48.0863283" lon="11.4965886">
    <tag k="amenity" v="school"/>
    <tag k="created_by" v="Potlatch 0.9a"/>
    <tag k="name" v="Grundschule"/>
  </node>
  <node id="264991338" version="1" timestamp="2008-05-16T22:20:34Z" uid="36809" user="pfoten_weg_!_" changeset="463459" lat="48.0854043" lon="11.494421">
    <tag k="created_by" v="Potlatch 0.9a"/>
    <tag k="name" v="Hl. Kreuz"/>
  </node>
  <node id="264991338" version="2" timestamp="2008-05-16T22:21:01Z" uid="36809" user="pfoten_weg_!_" changeset="463459" lat="48.085324" lon="11.4944124">
    <tag k="created_by" v="Potlatch 0.9a"/>
    <tag k="name" v="Hl. Kreuz"/>
  </node>
  <node id="264991338" version="3" timestamp="2008-05-16T22:24:15Z" uid="36809" user="pfoten_weg_!_" changeset="463459" lat="48.085324" lon="11.4944124">
    <tag k="amenity" v="place_of_worship"/>
    <tag k="created_by" v="Potlatch 0.9a"/>
    <tag k="name" v="Hl. Kreuz"/>
  </node>
  <node id="264991338" version="4" timestamp="2008-05-16T22:25:12Z" uid="36809" user="pfoten_weg_!_" changeset="463459" lat="48.085324" lon="11.4944124">
    <tag k="amenity" v="place_of_worship"/>
    <tag k="created_by" v="Potlatch 0.9a"/>
    <tag k="name" v="Hl. Kreuz"/>
  </node>
  <node id="264991338" version="5" timestamp="2008-05-16T22:26:12Z" uid="36809" user="pfoten_weg_!_" changeset="463459" lat="48.085324" lon="11.4944124">
    <tag k="amenity" v="place_of_worship"/>
    <tag k="created_by" v="Potlatch 0.9a"/>
    <tag k="name" v="Hl. Kreuz"/>
  </node>
  <node id="264991338" version="6" timestamp="2008-05-16T22:28:04Z" uid="36809" user="pfoten_weg_!_" changeset="463459" lat="48.085324" lon="11.4944124">
    <tag k="amenity" v="place_of_worship"/>
    <tag k="created_by" v="Potlatch 0.9a"/>
    <tag k="name" v="Hl. Kreuz"/>
    <tag k="religion" v="christian"/>
  </node>
  <node id="264991338" version="7" timestamp="2008-05-16T22:28:45Z" uid="36809" user="pfoten_weg_!_" changeset="463459" lat="48.085324" lon="11.4944124">
    <tag k="amenity" v="place_of_worship"/>
    <tag k="created_by" v="Potlatch 0.9a"/>
    <tag k="denomination" v="catholic"/>
    <tag k="name" v="Hl. Kreuz"/>
    <tag k="religion" v="christian"/>
  </node>
  <node id="264991338" version="8" timestamp="2008-05-23T20:38:04Z" uid="36809" user="pfoten_weg_!_" changeset="504411" lat="48.0853271" lon="11.49441">
    <tag k="amenity" v="place_of_worship"/>
    <tag k="created_by" v="Potlatch 0.9a"/>
    <tag k="name" v="Hl. Kreuz"/>
  </node>
  <node id="264991338" version="10" timestamp="2008-05-27T12:50:01Z" uid="36809" user="pfoten_weg_!_" changeset="533292" lat="48.0853327" lon="11.4944047">
    <tag k="amenity" v="place_of_worship"/>
    <tag k="created_by" v="Potlatch 0.9b"/>
    <tag k="name" v="Hl. Kreuz"/>
    <tag k="religion" v="christian"/>
  </node>
  <node id="264991338" version="11" timestamp="2008-05-27T12:51:51Z" uid="36809" user="pfoten_weg_!_" changeset="533292" lat="48.0853327" lon="11.4944047">
    <tag k="amenity" v="place_of_worship"/>
    <tag k="created_by" v="Potlatch 0.9b"/>
    <tag k="name" v="Hl. Kreuz"/>
    <tag k="religion" v="christian"/>
  </node>
  <node id="264991338" version="12" timestamp="2008-05-27T12:52:26Z" uid="36809" user="pfoten_weg_!_" changeset="533292" lat="48.0853327" lon="11.4944047">
    <tag k="amenity" v="place_of_worship"/>
    <tag k="created_by" v="Potlatch 0.9b"/>
    <tag k="name" v="Hl. Kreuz"/>
    <tag k="religion" v="christian"/>
  </node>
  <node id="264991338" version="13" timestamp="2008-08-23T23:05:40Z" uid="36809" user="pfoten_weg_!_" changeset="384601" lat="48.0853327" lon="11.4944047">
    <tag k="amenity" v="place_of_worship"/>
    <tag k="created_by" v="RambaZamba"/>
    <tag k="name" v="Hl. Kreuz"/>
    <tag k="religion" v="christian"/>
  </node>
  <node id="264991338" version="14" timestamp="2008-09-13T12:33:12Z" uid="36809" user="pfoten_weg_!_" changeset="620497" lat="48.0853328" lon="11.4944052">
    <tag k="amenity" v="place_of_worship"/>
    <tag k="created_by" v="RambaZamba"/>
    <tag k="name" v="Hl. Kreuz"/>
    <tag k="religion" v="christian"/>
  </node>
  <node id="264991338" version="15" timestamp="2008-09-20T03:44:39Z" uid="36809" user="pfoten_weg_!_" changeset="670006" lat="48.0853328" lon="11.4944053">
    <tag k="amenity" v="place_of_worship"/>
    <tag k="created_by" v="RambaZamba"/>
    <tag k="name" v="Hl. Kreuz"/>
    <tag k="religion" v="christian"/>
  </node>
  <node id="264991338" version="16" timestamp="2008-10-01T01:13:24Z" uid="36809" user="pfoten_weg_!_" changeset="5644" lat="48.0853328" lon="11.4944053">
    <tag k="amenity" v="place_of_worship"/>
    <tag k="created_by" v="RambaZamba"/>
    <tag k="name" v="Hl. Kreuz"/>
    <tag k="religion" v="christian"/>
  </node>
  <node id="264991338" version="18" timestamp="2009-04-22T18:14:19Z" uid="36809" user="pfoten_weg_!_" changeset="903669" lat="48.0853328" lon="11.4944053">
    <tag k="addr:city" v="München"/>
    <tag k="addr:country" v="DE"/>
    <tag k="addr:housenumber" v="180"/>
    <tag k="addr:postcode" v="81476"/>
    <tag k="addr:street" v="Forstenrieder Allee"/>
    <tag k="amenity" v="place_of_worship"/>
    <tag k="created_by" v="RambaZamba"/>
    <tag k="name" v="Hl. Kreuz"/>
    <tag k="religion" v="christian"/>
    <tag k="source" v="survey"/>
  </node>
  <node id="264991338" version="19" timestamp="2009-07-26T03:19:51Z" uid="36809" user="pfoten_weg_!_" changeset="1940223" lat="48.0853328" lon="11.4944053">
    <tag k="addr:city" v="München"/>
    <tag k="addr:country" v="DE"/>
    <tag k="addr:housenumber" v="180"/>
    <tag k="addr:postcode" v="81476"/>
    <tag k="addr:street" v="Forstenrieder Allee"/>
    <tag k="amenity" v="place_of_worship"/>
    <tag k="created_by" v="RambaZamba"/>
    <tag k="name" v="Hl. Kreuz"/>
    <tag k="religion" v="christian"/>
    <tag k="source" v="survey"/>
  </node>
  <node id="264993088" version="1" timestamp="2008-05-16T22:32:11Z" uid="36809" user="pfoten_weg_!_" changeset="463459" lat="48.0921352" lon="11.5034933">
    <tag k="created_by" v="Potlatch 0.9a"/>
    <tag k="name" v="Polizeiinspektion 34"/>
  </node>
  <node id="264993088" version="2" timestamp="2008-05-16T22:33:08Z" uid="36809" user="pfoten_weg_!_" changeset="463459" lat="48.0921352" lon="11.5034933">
    <tag k="amenity" v="police"/>
    <tag k="created_by" v="Potlatch 0.9a"/>
    <tag k="name" v="Polizeiinspektion 34"/>
  </node>
  <node id="264993088" version="3" timestamp="2008-07-18T13:42:05Z" uid="36809" user="pfoten_weg_!_" changeset="527184" lat="48.0921352" lon="11.5034933">
    <tag k="amenity" v="police"/>
    <tag k="created_by" v="RambaZamba"/>
    <tag k="name" v="Polizeiinspektion 34"/>
  </node>
  <node id="264993088" version="4" timestamp="2008-09-15T12:46:31Z" uid="36809" user="pfoten_weg_!_" changeset="638986" lat="48.0921352" lon="11.5034933">
    <tag k="amenity" v="police"/>
    <tag k="created_by" v="RambaZamba"/>
    <tag k="name" v="Polizeiinspektion 34"/>
    <tag k="source" v="survey "/>
  </node>
  <node id="264993088" version="5" timestamp="2008-09-20T03:48:55Z" uid="36809" user="pfoten_weg_!_" changeset="670006" lat="48.0921352" lon="11.5034934">
    <tag k="amenity" v="police"/>
    <tag k="created_by" v="RambaZamba"/>
    <tag k="name" v="Polizeiinspektion 34"/>
    <tag k="source" v="survey"/>
  </node>
  <node id="264993088" version="6" timestamp="2008-10-01T01:17:05Z" uid="36809" user="pfoten_weg_!_" changeset="5644" lat="48.0921352" lon="11.5034934">
    <tag k="amenity" v="police"/>
    <tag k="created_by" v="RambaZamba"/>
    <tag k="name" v="Polizeiinspektion 34"/>
    <tag k="source" v="survey"/>
  </node>
  <node id="264993088" version="9" timestamp="2009-02-14T23:21:12Z" uid="36809" user="pfoten_weg_!_" changeset="445466" lat="48.0921352" lon="11.5034934">
    <tag k="addr:city" v="München"/>
    <tag k="addr:country" v="DE"/>
    <tag k="addr:housenumber" v="33"/>
    <tag k="addr:postcode" v="81477"/>
    <tag k="addr:street" v="Drygalski-Allee"/>
    <tag k="amenity" v="police"/>
    <tag k="name" v="Polizeiinspektion 34"/>
    <tag k="source" v="survey"/>
  </node>
  <node id="264993088" version="11" timestamp="2009-03-24T00:30:27Z" uid="36809" user="pfoten_weg_!_" changeset="853978" lat="48.0921352" lon="11.5034934">
    <tag k="addr:city" v="München"/>
    <tag k="addr:country" v="DE"/>
    <tag k="addr:housenumber" v="33"/>
    <tag k="addr:postcode" v="81477"/>
    <tag k="addr:street" v="Drygalski-Allee"/>
    <tag k="amenity" v="police"/>
    <tag k="name" v="Polizeiinspektion 34"/>
    <tag k="source" v="survey"/>
  </node>
  <node id="264993088" version="14" timestamp="2009-03-30T21:37:39Z" uid="36809" user="pfoten_weg_!_" changeset="871597" lat="48.0918705" lon="11.5038734">
    <tag k="addr:city" v="München"/>
    <tag k="addr:country" v="DE"/>
    <tag k="addr:housenumber" v="33"/>
    <tag k="addr:postcode" v="81477"/>
    <tag k="addr:street" v="Drygalski-Allee"/>
    <tag k="amenity" v="police"/>
    <tag k="created_by" v="Potlatch 0.10f"/>
    <tag k="name" v="Polizeiinspektion 34"/>
    <tag k="source" v="survey"/>
  </node>
  <node id="264993445" version="1" timestamp="2008-05-16T22:34:12Z" uid="36809" user="pfoten_weg_!_" changeset="463459" lat="48.0947895" lon="11.4993477"/>
  <node id="264993445" version="2" timestamp="2008-06-04T16:46:05Z" uid="36809" user="pfoten_weg_!_" changeset="45330" lat="48.0947819" lon="11.4993412"/>
  <node id="264993445" version="3" timestamp="2008-08-21T23:17:32Z" uid="36809" user="pfoten_weg_!_" changeset="363581" lat="48.0947819" lon="11.4993412">
    <tag k="created_by" v="RambaZamba"/>
  </node>
  <node id="264993445" version="4" timestamp="2008-09-15T12:46:16Z" uid="36809" user="pfoten_weg_!_" changeset="638986" lat="48.0947819" lon="11.4993412">
    <tag k="created_by" v="RambaZamba"/>
    <tag k="source" v="survey "/>
  </node>
  <node id="264993445" version="6" timestamp="2008-09-20T03:48:32Z" uid="36809" user="pfoten_weg_!_" changeset="670006" lat="48.0947819" lon="11.4993413">
    <tag k="created_by" v="RambaZamba"/>
    <tag k="source" v="survey"/>
  </node>
  <node id="264993445" version="7" timestamp="2008-09-24T19:34:35Z" uid="36809" user="pfoten_weg_!_" changeset="691601" lat="48.0947819" lon="11.4993413">
    <tag k="created_by" v="RambaZamba"/>
    <tag k="source" v="survey"/>
  </node>
  <node id="264993446" version="1" timestamp="2008-05-16T22:34:12Z" uid="36809" user="pfoten_weg_!_" changeset="463459" lat="48.0941933" lon="11.503665"/>
  <node id="264993446" version="2" timestamp="2008-06-29T08:03:15Z" uid="36809" user="pfoten_weg_!_" changeset="334047" lat="48.0941949" lon="11.5036485"/>
  <node id="264993446" version="3" timestamp="2008-08-21T23:17:33Z" uid="36809" user="pfoten_weg_!_" changeset="363581" lat="48.0941949" lon="11.5036485">
    <tag k="created_by" v="RambaZamba"/>
  </node>
  <node id="264993446" version="4" timestamp="2008-09-13T02:51:52Z" uid="36809" user="pfoten_weg_!_" changeset="619441" lat="48.0941979" lon="11.5036503">
    <tag k="created_by" v="RambaZamba"/>
  </node>
  <node id="264993446" version="5" timestamp="2008-09-13T12:36:10Z" uid="36809" user="pfoten_weg_!_" changeset="620497" lat="48.094198" lon="11.5036508">
    <tag k="created_by" v="RambaZamba"/>
  </node>
  <node id="264993446" version="6" timestamp="2008-09-15T12:46:16Z" uid="36809" user="pfoten_weg_!_" changeset="638986" lat="48.094198" lon="11.5036508">
    <tag k="created_by" v="RambaZamba"/>
    <tag k="source" v="survey "/>
  </node>
  <node id="264993446" version="8" timestamp="2008-09-20T03:48:33Z" uid="36809" user="pfoten_weg_!_" changeset="670006" lat="48.094198" lon="11.5036509">
    <tag k="created_by" v="RambaZamba"/>
    <tag k="source" v="survey"/>
  </node>
  <node id="264993446" version="9" timestamp="2008-09-24T01:59:00Z" uid="36809" user="pfoten_weg_!_" changeset="688126" lat="48.094198" lon="11.5036509">
    <tag k="created_by" v="RambaZamba"/>
    <tag k="source" v="survey"/>
  </node>
  <node id="264993446" version="10" timestamp="2008-09-24T19:34:26Z" uid="36809" user="pfoten_weg_!_" changeset="691601" lat="48.094198" lon="11.5036509">
    <tag k="created_by" v="RambaZamba"/>
    <tag k="source" v="survey"/>
  </node>
  <node id="264993446" version="11" timestamp="2008-10-01T01:16:46Z" uid="36809" user="pfoten_weg_!_" changeset="5644" lat="48.094198" lon="11.5036509">
    <tag k="created_by" v="RambaZamba"/>
    <tag k="source" v="survey"/>
  </node>
  <node id="264993446" version="13" timestamp="2009-04-22T18:14:39Z" uid="36809" user="pfoten_weg_!_" changeset="903669" lat="48.094198" lon="11.5036509">
    <tag k="created_by" v="RambaZamba"/>
    <tag k="source" v="survey"/>
  </node>
  <node id="264993446" version="15" timestamp="2009-08-19T01:40:56Z" uid="36809" user="pfoten_weg_!_" changeset="2196399" lat="48.094198" lon="11.5036509">
    <tag k="source" v="survey"/>
    <tag k="warnung" v="rumpelzumpel-verbrecher"/>
  </node>
  <node id="264993446" version="16" timestamp="2009-08-19T02:07:37Z" uid="36809" user="pfoten_weg_!_" changeset="2196453" lat="48.094198" lon="11.5036509">
    <tag k="source" v="survey"/>
  </node>
  <node id="264993446" version="17" timestamp="2009-10-02T17:47:31Z" uid="86259" user="hasse_osm_korinthenkacker" changeset="2715119" lat="48.094198" lon="11.5036509"/>
  <node id="264998216" version="2" timestamp="2010-06-29T19:02:33Z" uid="74617" user="JohnSmith" changeset="5108182" lat="51.4140577" lon="0.1987257">
    <tag k="fixme" v="sport=football is ambiguous, see http://wiki.osm.org/wiki/Football for more details"/>
    <tag k="name" v="White Oak Wanderers FC"/>
    <tag k="sport" v="football"/>
  </node>
</osm>
