<?xml version='1.0' encoding='UTF-8'?>
<osm version="0.6" generator="libosmium/2.20.0">
  <node id="265240546" version="4" timestamp="2010-03-26T01:21:55Z" uid="163746" user="anti_bot-nonsense" changeset="4234482" lat="52.440887" lon="16.7550247"/>
  <node id="265241501" version="2" timestamp="2008-07-03T18:53:32Z" uid="6975" user="ulfl" changeset="379368" lat="51.4974867" lon="-0.107648">
    <tag k="amenity" v="place_of_worship"/>
    <tag k="denomination" v="anglican"/>
    <tag k="name" v="St George&amp;apos;s Cathedral - Southwark"/>
    <tag k="religion" v="christian"/>
  </node>
  <node id="265241554" version="2" timestamp="2008-07-03T18:53:33Z" uid="6975" user="ulfl" changeset="379368" lat="51.4956426" lon="-0.1027272">
    <tag k="amenity" v="place_of_worship"/>
    <tag k="name" v="The Salvation Arm Community Church"/>
    <tag k="religion" v="christian"/>
  </node>
  <node id="265249330" version="2" timestamp="2008-07-07T02:05:47Z" uid="6975" user="ulfl" changeset="415781" lat="51.9574874" lon="7.634188">
    <tag k="amenity" v="theatre"/>
    <tag k="name" v="GOP"/>
  </node>
</osm>
