<?xml version='1.0' encoding='UTF-8'?>
<osm version="0.6" generator="libosmium/2.20.0">
  <node id="265920213" version="2" timestamp="2009-07-22T20:23:22Z" uid="64269" user="Triffnix" changeset="1909028" lat="48.1633167" lon="8.0646551"/>
  <node id="265923888" version="2" timestamp="2008-06-19T09:29:42Z" uid="9581" user="Lobelt" changeset="219766" lat="51.8367354" lon="14.1411944">
    <tag k="created_by" v="JOSM"/>
  </node>
  <node id="265924085" version="4" timestamp="2008-07-10T22:57:48Z" uid="6975" user="ulfl" changeset="457552" lat="52.1100556" lon="9.9292939">
    <tag k="amenity" v="restaurant"/>
    <tag k="name" v="Heidekrug"/>
  </node>
  <node id="265925510" version="3" timestamp="2008-09-14T20:00:51Z" uid="6975" user="ulfl" changeset="640534" lat="51.2372923" lon="6.8595539">
    <tag k="amenity" v="bank"/>
    <tag k="atm" v="yes"/>
    <tag k="name" v="Stadtsparkasse"/>
  </node>
  <node id="265925633" version="3" timestamp="2008-09-14T20:03:20Z" uid="6975" user="ulfl" changeset="640534" lat="51.237303" lon="6.8563781">
    <tag k="amenity" v="bank"/>
    <tag k="atm" v="yes"/>
    <tag k="name" v="Commerzbank"/>
  </node>
  <node id="265925685" version="4" timestamp="2008-09-14T20:03:17Z" uid="6975" user="ulfl" changeset="640534" lat="51.2370988" lon="6.8566614">
    <tag k="amenity" v="bank"/>
    <tag k="atm" v="yes"/>
    <tag k="name" v="Dresdner Bank"/>
  </node>
  <node id="265928497" version="2" timestamp="2008-08-14T01:38:43Z" uid="7617" user="Franc" changeset="235676" lat="-33.8783476" lon="151.2041516">
    <tag k="name" v="Chinatown"/>
    <tag k="tourism" v="attraction"/>
  </node>
</osm>
