<?xml version='1.0' encoding='UTF-8'?>
<osm version="0.6" generator="libosmium/2.20.0">
  <node id="266200969" version="4" timestamp="2008-07-07T19:18:54Z" uid="6975" user="ulfl" changeset="420350" lat="54.9497072" lon="9.6932802">
    <tag k="amenity" v="place_of_worship"/>
    <tag k="denomination" v="lutheran"/>
    <tag k="name" v="Vester Sottrup Kirke"/>
    <tag k="religion" v="christian"/>
  </node>
  <node id="266201021" version="4" timestamp="2008-07-07T19:18:54Z" uid="6975" user="ulfl" changeset="420350" lat="54.9656254" lon="9.662467">
    <tag k="amenity" v="place_of_worship"/>
    <tag k="denomination" v="lutheran"/>
    <tag k="name" v="Ullerup Kirke"/>
    <tag k="religion" v="christian"/>
  </node>
  <node id="266201148" version="4" timestamp="2010-08-05T19:27:24Z" uid="9581" user="Lobelt" changeset="5411281" lat="49.3299929" lon="8.1539505">
    <tag k="railway" v="level_crossing"/>
  </node>
  <node id="266201557" version="2" timestamp="2008-09-14T19:22:47Z" uid="6975" user="ulfl" changeset="640534" lat="51.5787064" lon="-1.2623533">
    <tag k="amenity" v="townhall"/>
    <tag k="name" v="Upton Village Hall"/>
  </node>
  <node id="266203041" version="3" timestamp="2008-09-30T11:33:48Z" uid="1066" user="pavel" changeset="720911" lat="50.2066911" lon="12.207851">
    <tag k="is_in" v="Czech Republic, Europe"/>
    <tag k="name" v="Mokřiny"/>
    <tag k="place" v="village"/>
  </node>
  <node id="266204222" version="7" timestamp="2008-07-14T09:08:41Z" uid="6975" user="ulfl" changeset="486169" lat="36.3624648" lon="6.6156862">
    <tag k="highway" v="mini_roundabout"/>
    <tag k="junction" v="roundabout"/>
    <tag k="lanes" v="2"/>
    <tag k="surface" v="paved"/>
  </node>
  <node id="266204610" version="3" timestamp="2008-07-05T09:07:23Z" uid="6975" user="ulfl" changeset="396365" lat="47.2410839" lon="39.757409">
    <tag k="highway" v="bus_stop"/>
    <tag k="name:ru" v="20-я линия"/>
  </node>
  <node id="266205111" version="3" timestamp="2008-07-05T09:07:12Z" uid="6975" user="ulfl" changeset="396365" lat="47.2404462" lon="39.7581183">
    <tag k="highway" v="bus_stop"/>
    <tag k="name:ru" v="Шолохова пр-т. им."/>
  </node>
  <node id="266205719" version="4" timestamp="2008-08-23T23:46:40Z" uid="36809" user="pfoten_weg_!_" changeset="384601" lat="48.0998399" lon="11.5320768">
    <tag k="amenity" v="fast_food"/>
    <tag k="created_by" v="RambaZamba"/>
    <tag k="name" v="Bavarians Diner"/>
  </node>
  <node id="266205719" version="5" timestamp="2008-10-01T01:50:27Z" uid="36809" user="pfoten_weg_!_" changeset="5644" lat="48.0998399" lon="11.5320768">
    <tag k="amenity" v="fast_food"/>
    <tag k="created_by" v="RambaZamba"/>
    <tag k="name" v="Bavarians Diner"/>
  </node>
  <node id="266205719" version="6" timestamp="2009-02-15T12:51:00Z" uid="36809" user="pfoten_weg_!_" changeset="463903" lat="48.0998399" lon="11.5320768">
    <tag k="amenity" v="fast_food"/>
    <tag k="created_by" v="RambaZamba"/>
    <tag k="name" v="Bavarians Diner"/>
    <tag k="source" v="survey"/>
  </node>
  <node id="266205719" version="9" timestamp="2009-09-04T21:03:58Z" uid="36809" user="pfoten_weg_!_" changeset="2374562" lat="48.0998395" lon="11.5321251">
    <tag k="amenity" v="fast_food"/>
    <tag k="name" v="Bavarians Diner"/>
    <tag k="source" v="survey"/>
  </node>
  <node id="266205719" version="10" timestamp="2009-10-13T23:39:45Z" uid="36809" user="pfoten_weg_!_" changeset="2841273" lat="48.0998395" lon="11.5321251">
    <tag k="amenity" v="fast_food"/>
    <tag k="name" v="Bavarians Diner"/>
  </node>
  <node id="266205890" version="5" timestamp="2008-08-23T23:46:40Z" uid="36809" user="pfoten_weg_!_" changeset="384601" lat="48.0998421" lon="11.532354">
    <tag k="amenity" v="restaurant"/>
    <tag k="created_by" v="RambaZamba"/>
    <tag k="name" v="China-Restaurant Fuh-Guei"/>
  </node>
  <node id="266205890" version="6" timestamp="2008-10-01T01:50:38Z" uid="36809" user="pfoten_weg_!_" changeset="5644" lat="48.0998421" lon="11.532354">
    <tag k="amenity" v="restaurant"/>
    <tag k="created_by" v="RambaZamba"/>
    <tag k="name" v="China-Restaurant Fuh-Guei"/>
  </node>
  <node id="266205890" version="7" timestamp="2009-02-15T12:51:06Z" uid="36809" user="pfoten_weg_!_" changeset="463903" lat="48.0998421" lon="11.532354">
    <tag k="amenity" v="restaurant"/>
    <tag k="created_by" v="RambaZamba"/>
    <tag k="name" v="China-Restaurant Fuh-Guei"/>
    <tag k="source" v="survey"/>
  </node>
  <node id="266205890" version="10" timestamp="2009-09-04T21:04:00Z" uid="36809" user="pfoten_weg_!_" changeset="2374562" lat="48.0998567" lon="11.5324083">
    <tag k="amenity" v="restaurant"/>
    <tag k="name" v="China-Restaurant Fuh-Guei"/>
    <tag k="source" v="survey"/>
  </node>
  <node id="266205890" version="11" timestamp="2009-10-13T23:39:45Z" uid="36809" user="pfoten_weg_!_" changeset="2841273" lat="48.0998567" lon="11.5324083">
    <tag k="amenity" v="restaurant"/>
    <tag k="name" v="China-Restaurant Fuh-Guei"/>
  </node>
</osm>
