<?xml version='1.0' encoding='UTF-8'?>
<osm version="0.6" generator="libosmium/2.20.0">
  <node id="269041326" version="2" timestamp="2010-03-12T23:17:23Z" uid="30632" user="antblant" changeset="4110635" lat="51.1075122" lon="15.893105"/>
  <node id="269041410" version="2" timestamp="2008-07-03T17:50:44Z" uid="6975" user="ulfl" changeset="379368" lat="50.6843068" lon="6.365428">
    <tag k="name" v="Luysberg"/>
    <tag k="shop" v="butcher"/>
  </node>
  <node id="269041413" version="2" timestamp="2008-07-03T17:52:48Z" uid="6975" user="ulfl" changeset="379368" lat="50.684473" lon="6.366818">
    <tag k="name" v="Wirth"/>
    <tag k="shop" v="bakery"/>
  </node>
  <node id="269041950" version="2" timestamp="2008-07-03T17:36:11Z" uid="6975" user="ulfl" changeset="379368" lat="50.2360849" lon="8.5593565">
    <tag k="highway" v="bus_stop"/>
    <tag k="name" v="Hirschgarten"/>
  </node>
  <node id="269041955" version="2" timestamp="2008-07-03T17:36:11Z" uid="6975" user="ulfl" changeset="379368" lat="50.2367265" lon="8.5550302">
    <tag k="highway" v="bus_stop"/>
    <tag k="name" v="Stadtranderholung"/>
  </node>
  <node id="269045916" version="2" timestamp="2008-07-03T17:39:12Z" uid="6975" user="ulfl" changeset="379368" lat="48.12366" lon="-1.6113551">
    <tag k="highway" v="bus_stop"/>
    <tag k="name" v="Boulais"/>
  </node>
  <node id="269045930" version="2" timestamp="2008-07-03T17:39:07Z" uid="6975" user="ulfl" changeset="379368" lat="48.1235143" lon="-1.6112469">
    <tag k="highway" v="bus_stop"/>
    <tag k="name" v="Boulais"/>
  </node>
  <node id="269048282" version="2" timestamp="2008-07-03T00:18:42Z" uid="6975" user="ulfl" changeset="377243" lat="48.1140105" lon="-1.6245143">
    <tag k="name" v="Rennes Motos"/>
    <tag k="shop" v="motorcycle"/>
  </node>
  <node id="269048299" version="2" timestamp="2008-07-03T00:18:42Z" uid="6975" user="ulfl" changeset="377243" lat="48.1139934" lon="-1.6253502">
    <tag k="name" v="Le Yam"/>
    <tag k="shop" v="motorcycle"/>
  </node>
</osm>
