<?xml version='1.0' encoding='UTF-8'?>
<osm version="0.6" generator="libosmium/2.20.0">
  <node id="274591559" version="2" timestamp="2008-07-03T21:28:18Z" uid="6975" user="ulfl" changeset="386611" lat="50.1124513" lon="9.6655922">
    <tag k="highway" v="turning_circle"/>
  </node>
  <node id="274593382" version="2" timestamp="2010-10-24T18:59:37Z" uid="9581" user="Lobelt" changeset="6161173" lat="49.4561781" lon="8.6658065"/>
  <node id="274595536" version="2" timestamp="2008-07-03T18:55:28Z" uid="6975" user="ulfl" changeset="379368" lat="63.8433445" lon="23.3687825">
    <tag k="amenity" v="post_box"/>
  </node>
  <node id="274596898" version="2" timestamp="2008-07-05T12:16:55Z" uid="6975" user="ulfl" changeset="398437" lat="32.65" lon="35.55">
    <tag k="accuracy" v="minutes"/>
    <tag k="gns_ref" v="-781370"/>
    <tag k="historic" v="archaeological_site"/>
    <tag k="name" v="תל שחרית"/>
    <tag k="name:en" v="Tel Shaharit"/>
    <tag k="source" v="GEOnet Names Server (gns)"/>
  </node>
  <node id="274596915" version="2" timestamp="2008-07-05T12:21:43Z" uid="6975" user="ulfl" changeset="398437" lat="31.55" lon="34.916667">
    <tag k="accuracy" v="minutes"/>
    <tag k="gns_ref" v="-779791"/>
    <tag k="historic" v="ruins"/>
    <tag k="name" v="Horbat `Ezra"/>
    <tag k="name:en" v="Horbat `Ezra"/>
    <tag k="source" v="GEOnet Names Server (gns)"/>
  </node>
  <node id="274597841" version="3" timestamp="2010-10-24T18:59:09Z" uid="9581" user="Lobelt" changeset="6161173" lat="49.4564089" lon="8.6638005"/>
  <node id="274597843" version="2" timestamp="2010-10-24T18:59:27Z" uid="9581" user="Lobelt" changeset="6161173" lat="49.4563761" lon="8.663969"/>
  <node id="274597847" version="2" timestamp="2010-10-24T18:59:06Z" uid="9581" user="Lobelt" changeset="6161173" lat="49.4563369" lon="8.6640603"/>
  <node id="274597849" version="2" timestamp="2010-10-24T18:58:54Z" uid="9581" user="Lobelt" changeset="6161173" lat="49.4562156" lon="8.6641938"/>
  <node id="274597851" version="2" timestamp="2010-10-24T18:59:37Z" uid="9581" user="Lobelt" changeset="6161173" lat="49.4561865" lon="8.6643604"/>
  <node id="274597853" version="2" timestamp="2010-10-24T18:59:33Z" uid="9581" user="Lobelt" changeset="6161173" lat="49.4559174" lon="8.6652752"/>
  <node id="274597855" version="2" timestamp="2010-10-24T18:59:35Z" uid="9581" user="Lobelt" changeset="6161173" lat="49.4558715" lon="8.6656219"/>
  <node id="274598963" version="2" timestamp="2008-07-06T09:01:12Z" uid="6975" user="ulfl" changeset="407266" lat="51.7579257" lon="6.1745498">
    <tag k="name" v="Kraftwerk der Rheinischen Kliniken Bedburg-Hau"/>
    <tag k="power" v="generator"/>
    <tag k="power_source" v="fossil"/>
  </node>
  <node id="274599257" version="5" timestamp="2008-12-13T20:39:21Z" uid="6975" user="ulfl" changeset="352865" lat="46.173202" lon="11.4414928">
    <tag k="ele" v="2047"/>
    <tag k="mountain_pass" v="yes"/>
    <tag k="name" v="Passo Manghen"/>
  </node>
  <node id="274599257" version="8" timestamp="2010-03-06T23:14:09Z" uid="6975" user="ulfl" changeset="4056094" lat="46.173202" lon="11.4414928">
    <tag k="ele" v="2047"/>
    <tag k="mountain_pass" v="yes"/>
    <tag k="name" v="Passo Manghen"/>
    <tag k="wikipedia" v="http://de.wikipedia.org/wiki/Manghenpass"/>
  </node>
</osm>
