<?xml version='1.0' encoding='UTF-8'?>
<osm version="0.6" generator="libosmium/2.20.0">
  <node id="275711617" version="1" timestamp="2008-07-02T21:53:28Z" uid="4667" user="MapZ" changeset="374787" lat="32.7166467" lon="-16.8166454">
    <tag k="ele" v="667"/>
    <tag k="is_in" v="Machico,Madeira,Portugal"/>
    <tag k="name" v="Santo Antonio da Serra"/>
    <tag k="place" v="village"/>
    <tag k="source" v="wikipedia"/>
  </node>
  <node id="275711617" version="2" timestamp="2008-07-02T22:14:22Z" uid="4667" user="MapZ" changeset="374787" lat="32.7166467" lon="-16.8166454">
    <tag k="ele" v="667"/>
    <tag k="is_in" v="Santa Cruz,Madeira,Portugal"/>
    <tag k="name" v="Santo Antonio da Serra"/>
    <tag k="place" v="village"/>
    <tag k="source" v="wikipedia"/>
  </node>
  <node id="275711621" version="1" timestamp="2008-07-02T21:53:28Z" uid="4667" user="MapZ" changeset="374787" lat="32.7666906" lon="-16.8330696">
    <tag k="ele" v="224"/>
    <tag k="is_in" v="Machico,Madeira,Portugal"/>
    <tag k="name" v="Porto da Cruz"/>
    <tag k="place" v="village"/>
    <tag k="source" v="wikipedia"/>
  </node>
  <node id="275712206" version="2" timestamp="2008-08-15T00:03:48Z" uid="6975" user="ulfl" changeset="264731" lat="56.4187585" lon="-5.4772537">
    <tag k="amenity" v="place_of_worship"/>
    <tag k="denomination" v="church_of_scotland"/>
    <tag k="name" v="Corran Esplanade Church"/>
    <tag k="religion" v="christian"/>
  </node>
  <node id="275714877" version="1" timestamp="2008-07-02T21:58:16Z" uid="4667" user="MapZ" changeset="374787" lat="32.7667191" lon="-16.8503573">
    <tag k="is_in" v="Santana,Madeira,Portugal"/>
    <tag k="name" v="Sao Roque do Faial"/>
    <tag k="place" v="village"/>
    <tag k="source" v="wikipedia"/>
  </node>
  <node id="275714881" version="1" timestamp="2008-07-02T21:58:17Z" uid="4667" user="MapZ" changeset="374787" lat="32.7421529" lon="-16.7111588">
    <tag k="is_in" v="Machico,Madeira,Portugal"/>
    <tag k="name" v="Porto do Canical"/>
    <tag k="place" v="suburb"/>
  </node>
  <node id="275714881" version="2" timestamp="2008-07-06T18:47:56Z" uid="4667" user="MapZ" changeset="409479" lat="32.7377457" lon="-16.7319969">
    <tag k="is_in" v="Machico,Madeira,Portugal"/>
    <tag k="name" v="Porto do Canical"/>
    <tag k="place" v="suburb"/>
  </node>
  <node id="275718013" version="2" timestamp="2008-08-15T00:03:48Z" uid="6975" user="ulfl" changeset="264731" lat="56.4102403" lon="-5.4694342">
    <tag k="amenity" v="place_of_worship"/>
    <tag k="denomination" v="church_of_scotland"/>
    <tag k="religion" v="christian"/>
  </node>
  <node id="275718080" version="1" timestamp="2008-07-02T22:03:04Z" uid="4667" user="MapZ" changeset="374787" lat="32.7164371" lon="-17.0332624">
    <tag k="ele" v="640"/>
    <tag k="is_in" v="Ribeira Brava,Madeira,Portugal"/>
    <tag k="name" v="Serra de Agua"/>
    <tag k="place" v="village"/>
    <tag k="source" v="wikipedia"/>
  </node>
  <node id="275718718" version="3" timestamp="2009-09-24T08:57:17Z" uid="9581" user="Lobelt" changeset="2603529" lat="50.9242206" lon="11.5696342"/>
  <node id="275719226" version="4" timestamp="2009-09-24T08:57:17Z" uid="9581" user="Lobelt" changeset="2603529" lat="50.9243312" lon="11.5725101"/>
  <node id="275719239" version="2" timestamp="2009-09-24T08:57:17Z" uid="9581" user="Lobelt" changeset="2603529" lat="50.9252619" lon="11.5691395"/>
  <node id="275719296" version="4" timestamp="2009-08-20T18:17:48Z" uid="9581" user="Lobelt" changeset="2215311" lat="50.9235977" lon="11.5707886"/>
  <node id="275719432" version="1" timestamp="2008-07-02T22:04:21Z" uid="4667" user="MapZ" changeset="374787" lat="32.6798107" lon="-17.0859378">
    <tag k="is_in" v="Ribeira Brava,Madeira,Portugal"/>
    <tag k="name" v="Tabua"/>
    <tag k="place" v="village"/>
    <tag k="source" v="wikipedia"/>
  </node>
</osm>
