<?xml version='1.0' encoding='UTF-8'?>
<osm version="0.6" generator="libosmium/2.20.0">
  <node id="282680315" version="2" timestamp="2010-11-22T15:56:53Z" uid="43967" user="railsnail" changeset="6432527" lat="47.0988755" lon="15.4511082"/>
  <node id="282681158" version="7" timestamp="2009-10-02T19:47:58Z" uid="86259" user="hasse_osm_korinthenkacker" changeset="2716821" lat="47.9095311" lon="11.6733619">
    <tag k="addr:city" v="Otterfing"/>
    <tag k="addr:country" v="DE"/>
    <tag k="addr:housenumber" v="2"/>
    <tag k="addr:postcode" v="83624"/>
    <tag k="addr:street" v="Schulstraße"/>
  </node>
  <node id="282681218" version="8" timestamp="2009-10-02T19:47:44Z" uid="86259" user="hasse_osm_korinthenkacker" changeset="2716821" lat="47.9102279" lon="11.6724506">
    <tag k="addr:city" v="Otterfing"/>
    <tag k="addr:country" v="DE"/>
    <tag k="addr:housenumber" v="7"/>
    <tag k="addr:postcode" v="83624"/>
    <tag k="addr:street" v="Schulstraße"/>
  </node>
  <node id="282681405" version="8" timestamp="2009-10-02T19:48:03Z" uid="86259" user="hasse_osm_korinthenkacker" changeset="2716821" lat="47.9104696" lon="11.6730428">
    <tag k="addr:city" v="Otterfing"/>
    <tag k="addr:country" v="DE"/>
    <tag k="addr:housenumber" v="9"/>
    <tag k="addr:postcode" v="83624"/>
    <tag k="addr:street" v="Schulstraße"/>
    <tag k="source" v="survey"/>
  </node>
  <node id="282681405" version="9" timestamp="2009-10-23T11:34:33Z" uid="36809" user="pfoten_weg_!_" changeset="2928981" lat="47.9104696" lon="11.6730428">
    <tag k="addr:city" v="Otterfing"/>
    <tag k="addr:country" v="DE"/>
    <tag k="addr:housenumber" v="9"/>
    <tag k="addr:postcode" v="83624"/>
    <tag k="addr:street" v="Schulstraße"/>
  </node>
  <node id="282681508" version="9" timestamp="2009-10-02T19:47:45Z" uid="86259" user="hasse_osm_korinthenkacker" changeset="2716821" lat="47.9110457" lon="11.6724258">
    <tag k="addr:city" v="Otterfing"/>
    <tag k="addr:country" v="DE"/>
    <tag k="addr:housenumber" v="9"/>
    <tag k="addr:postcode" v="83624"/>
    <tag k="addr:street" v="Auf dem Hochrain"/>
    <tag k="source" v="survey"/>
  </node>
  <node id="282681508" version="10" timestamp="2009-10-23T11:34:16Z" uid="36809" user="pfoten_weg_!_" changeset="2928981" lat="47.9110457" lon="11.6724258">
    <tag k="addr:city" v="Otterfing"/>
    <tag k="addr:country" v="DE"/>
    <tag k="addr:housenumber" v="9"/>
    <tag k="addr:postcode" v="83624"/>
    <tag k="addr:street" v="Auf dem Hochrain"/>
  </node>
  <node id="282681513" version="13" timestamp="2009-10-02T19:47:45Z" uid="86259" user="hasse_osm_korinthenkacker" changeset="2716821" lat="47.9109621" lon="11.6727041">
    <tag k="addr:city" v="Otterfing"/>
    <tag k="addr:country" v="DE"/>
    <tag k="addr:housenumber" v="7"/>
    <tag k="addr:postcode" v="83624"/>
    <tag k="addr:street" v="Auf dem Hochrain"/>
    <tag k="source" v="survey"/>
  </node>
  <node id="282681513" version="14" timestamp="2009-10-23T11:34:15Z" uid="36809" user="pfoten_weg_!_" changeset="2928981" lat="47.9109621" lon="11.6727041">
    <tag k="addr:city" v="Otterfing"/>
    <tag k="addr:country" v="DE"/>
    <tag k="addr:housenumber" v="7"/>
    <tag k="addr:postcode" v="83624"/>
    <tag k="addr:street" v="Auf dem Hochrain"/>
  </node>
  <node id="282682410" version="6" timestamp="2009-10-02T19:47:45Z" uid="86259" user="hasse_osm_korinthenkacker" changeset="2716821" lat="47.9112347" lon="11.6724935">
    <tag k="leisure" v="playground"/>
  </node>
  <node id="282682614" version="5" timestamp="2009-04-30T21:54:10Z" uid="6269" user="Mueck" changeset="1031287" lat="49.0111191" lon="8.4042127">
    <tag k="amenity" v="parking"/>
    <tag k="capacity" v="492"/>
    <tag k="created_by" v="Potlatch 0.10b"/>
    <tag k="disabled_spaces" v="no"/>
    <tag k="fee" v="yes"/>
    <tag k="name" v="Schlossplatz"/>
    <tag k="parking" v="underground"/>
    <tag k="type" v="underground"/>
  </node>
  <node id="282682614" version="6" timestamp="2009-04-30T21:54:18Z" uid="6269" user="Mueck" changeset="1031287" lat="49.0111191" lon="8.4042127">
    <tag k="amenity" v="parking"/>
    <tag k="capacity" v="492"/>
    <tag k="disabled_spaces" v="no"/>
    <tag k="fee" v="yes"/>
    <tag k="name" v="Schlossplatz"/>
    <tag k="parking" v="underground"/>
    <tag k="type" v="underground"/>
  </node>
  <node id="282682614" version="7" timestamp="2009-04-30T21:54:26Z" uid="6269" user="Mueck" changeset="1031287" lat="49.0111472" lon="8.4041612">
    <tag k="amenity" v="parking"/>
    <tag k="capacity" v="492"/>
    <tag k="disabled_spaces" v="no"/>
    <tag k="fee" v="yes"/>
    <tag k="name" v="Schlossplatz"/>
    <tag k="parking" v="underground"/>
    <tag k="type" v="underground"/>
  </node>
  <node id="282682614" version="8" timestamp="2009-04-30T22:02:35Z" uid="6269" user="Mueck" changeset="1031287" lat="49.0113837" lon="8.4041783">
    <tag k="amenity" v="parking"/>
    <tag k="capacity" v="492"/>
    <tag k="disabled_spaces" v="no"/>
    <tag k="fee" v="yes"/>
    <tag k="name" v="Schlossplatz"/>
    <tag k="parking" v="underground"/>
    <tag k="type" v="underground"/>
  </node>
  <node id="282682614" version="9" timestamp="2009-05-04T13:41:45Z" uid="6269" user="Mueck" changeset="1074890" lat="49.0115055" lon="8.404184">
    <tag k="amenity" v="parking"/>
    <tag k="capacity" v="492"/>
    <tag k="disabled_spaces" v="no"/>
    <tag k="fee" v="yes"/>
    <tag k="name" v="Schlossplatz"/>
    <tag k="parking" v="underground"/>
    <tag k="type" v="underground"/>
  </node>
  <node id="282682614" version="10" timestamp="2009-07-01T14:49:20Z" uid="6269" user="Mueck" changeset="1701481" lat="49.0112523" lon="8.4041426">
    <tag k="amenity" v="parking"/>
    <tag k="capacity" v="492"/>
    <tag k="disabled_spaces" v="no"/>
    <tag k="fee" v="yes"/>
    <tag k="name" v="Schlossplatz"/>
    <tag k="parking" v="underground"/>
    <tag k="type" v="underground"/>
  </node>
  <node id="282683552" version="11" timestamp="2009-10-02T19:48:40Z" uid="86259" user="hasse_osm_korinthenkacker" changeset="2716821" lat="47.911807" lon="11.672037">
    <tag k="addr:city" v="Otterfing"/>
    <tag k="addr:country" v="DE"/>
    <tag k="addr:housenumber" v="9a"/>
    <tag k="addr:postcode" v="83624"/>
    <tag k="addr:street" v="Bäckeranger"/>
    <tag k="source" v="survey"/>
  </node>
  <node id="282683552" version="12" timestamp="2009-10-23T11:34:54Z" uid="36809" user="pfoten_weg_!_" changeset="2928981" lat="47.911807" lon="11.672037">
    <tag k="addr:city" v="Otterfing"/>
    <tag k="addr:country" v="DE"/>
    <tag k="addr:housenumber" v="9a"/>
    <tag k="addr:postcode" v="83624"/>
    <tag k="addr:street" v="Bäckeranger"/>
  </node>
  <node id="282683565" version="11" timestamp="2009-10-02T19:48:40Z" uid="86259" user="hasse_osm_korinthenkacker" changeset="2716821" lat="47.9119508" lon="11.6723975">
    <tag k="addr:city" v="Otterfing"/>
    <tag k="addr:country" v="DE"/>
    <tag k="addr:housenumber" v="7"/>
    <tag k="addr:postcode" v="83624"/>
    <tag k="addr:street" v="Bäckeranger"/>
    <tag k="source" v="survey"/>
  </node>
  <node id="282683565" version="12" timestamp="2009-10-23T11:34:55Z" uid="36809" user="pfoten_weg_!_" changeset="2928981" lat="47.9119508" lon="11.6723975">
    <tag k="addr:city" v="Otterfing"/>
    <tag k="addr:country" v="DE"/>
    <tag k="addr:housenumber" v="7"/>
    <tag k="addr:postcode" v="83624"/>
    <tag k="addr:street" v="Bäckeranger"/>
  </node>
  <node id="282683587" version="10" timestamp="2009-10-02T19:48:41Z" uid="86259" user="hasse_osm_korinthenkacker" changeset="2716821" lat="47.9119278" lon="11.6727323">
    <tag k="addr:city" v="Otterfing"/>
    <tag k="addr:country" v="DE"/>
    <tag k="addr:housenumber" v="5"/>
    <tag k="addr:postcode" v="83624"/>
    <tag k="addr:street" v="Bäckeranger"/>
    <tag k="source" v="survey"/>
  </node>
  <node id="282683587" version="11" timestamp="2009-10-23T11:34:56Z" uid="36809" user="pfoten_weg_!_" changeset="2928981" lat="47.9119278" lon="11.6727323">
    <tag k="addr:city" v="Otterfing"/>
    <tag k="addr:country" v="DE"/>
    <tag k="addr:housenumber" v="5"/>
    <tag k="addr:postcode" v="83624"/>
    <tag k="addr:street" v="Bäckeranger"/>
  </node>
  <node id="282683618" version="2" timestamp="2009-03-25T22:25:25Z" uid="49111" user="Markus B" changeset="861683" lat="47.515689" lon="7.7362682"/>
  <node id="282683690" version="9" timestamp="2009-10-02T19:48:41Z" uid="86259" user="hasse_osm_korinthenkacker" changeset="2716821" lat="47.9122029" lon="11.6726954">
    <tag k="addr:city" v="Otterfing"/>
    <tag k="addr:country" v="DE"/>
    <tag k="addr:housenumber" v="12"/>
    <tag k="addr:postcode" v="83624"/>
    <tag k="addr:street" v="Bäckeranger"/>
  </node>
  <node id="282684008" version="9" timestamp="2009-10-02T19:48:38Z" uid="86259" user="hasse_osm_korinthenkacker" changeset="2716821" lat="47.9122717" lon="11.6706462">
    <tag k="addr:city" v="Otterfing"/>
    <tag k="addr:country" v="DE"/>
    <tag k="addr:housenumber" v="18"/>
    <tag k="addr:postcode" v="83624"/>
    <tag k="addr:street" v="Bäckeranger"/>
    <tag k="source" v="survey"/>
  </node>
  <node id="282684008" version="10" timestamp="2009-10-23T11:34:43Z" uid="36809" user="pfoten_weg_!_" changeset="2928981" lat="47.9122717" lon="11.6706462">
    <tag k="addr:city" v="Otterfing"/>
    <tag k="addr:country" v="DE"/>
    <tag k="addr:housenumber" v="18"/>
    <tag k="addr:postcode" v="83624"/>
    <tag k="addr:street" v="Bäckeranger"/>
  </node>
  <node id="282684085" version="2" timestamp="2008-09-14T14:32:57Z" uid="6975" user="ulfl" changeset="640534" lat="52.5450582" lon="13.4491841">
    <tag k="barrier" v="bollard"/>
  </node>
  <node id="282684420" version="9" timestamp="2009-10-02T19:48:51Z" uid="86259" user="hasse_osm_korinthenkacker" changeset="2716821" lat="47.9125508" lon="11.6733535">
    <tag k="addr:city" v="Otterfing"/>
    <tag k="addr:country" v="DE"/>
    <tag k="addr:housenumber" v="4"/>
    <tag k="addr:postcode" v="83624"/>
    <tag k="addr:street" v="Bäckeranger"/>
  </node>
  <node id="282684476" version="7" timestamp="2009-10-02T19:48:51Z" uid="86259" user="hasse_osm_korinthenkacker" changeset="2716821" lat="47.9126659" lon="11.6733535">
    <tag k="addr:city" v="Otterfing"/>
    <tag k="addr:country" v="DE"/>
    <tag k="addr:housenumber" v="4a"/>
    <tag k="addr:postcode" v="83624"/>
    <tag k="addr:street" v="Bäckeranger"/>
  </node>
  <node id="282684530" version="9" timestamp="2009-10-02T19:48:51Z" uid="86259" user="hasse_osm_korinthenkacker" changeset="2716821" lat="47.9128212" lon="11.6733278">
    <tag k="addr:city" v="Otterfing"/>
    <tag k="addr:country" v="DE"/>
    <tag k="addr:housenumber" v="6a"/>
    <tag k="addr:postcode" v="83624"/>
    <tag k="addr:street" v="Bäckeranger"/>
  </node>
  <node id="282684748" version="10" timestamp="2009-10-02T19:48:50Z" uid="86259" user="hasse_osm_korinthenkacker" changeset="2716821" lat="47.9122902" lon="11.673479">
    <tag k="addr:city" v="Otterfing"/>
    <tag k="addr:country" v="DE"/>
    <tag k="addr:housenumber" v="2a"/>
    <tag k="addr:postcode" v="83624"/>
    <tag k="addr:street" v="Bäckeranger"/>
  </node>
  <node id="282684948" version="2" timestamp="2010-07-23T05:39:35Z" uid="33382" user="de_muur" changeset="5292632" lat="53.4770492" lon="10.2828841"/>
  <node id="282685016" version="5" timestamp="2010-07-23T05:39:34Z" uid="33382" user="de_muur" changeset="5292632" lat="53.4770462" lon="10.2829007"/>
  <node id="282685017" version="5" timestamp="2010-07-23T05:39:35Z" uid="33382" user="de_muur" changeset="5292632" lat="53.476889" lon="10.2842885"/>
  <node id="282685311" version="6" timestamp="2009-10-02T19:48:03Z" uid="86259" user="hasse_osm_korinthenkacker" changeset="2716821" lat="47.9101927" lon="11.6748039">
    <tag k="addr:city" v="Otterfing"/>
    <tag k="addr:country" v="DE"/>
    <tag k="addr:housenumber" v="9"/>
    <tag k="addr:postcode" v="83624"/>
    <tag k="addr:street" v="Münchner Straße"/>
  </node>
  <node id="282685479" version="7" timestamp="2009-10-02T19:48:04Z" uid="86259" user="hasse_osm_korinthenkacker" changeset="2716821" lat="47.9109922" lon="11.6755715">
    <tag k="addr:city" v="Otterfing"/>
    <tag k="addr:country" v="DE"/>
    <tag k="addr:housenumber" v="6a"/>
    <tag k="addr:postcode" v="83624"/>
    <tag k="addr:street" v="Im Kirchwinkel"/>
  </node>
  <node id="282685480" version="9" timestamp="2009-10-02T19:48:11Z" uid="86259" user="hasse_osm_korinthenkacker" changeset="2716821" lat="47.9110785" lon="11.6758547">
    <tag k="addr:city" v="Otterfing"/>
    <tag k="addr:country" v="DE"/>
    <tag k="addr:housenumber" v="8a"/>
    <tag k="addr:postcode" v="83624"/>
    <tag k="addr:street" v="Im Kirchwinkel"/>
  </node>
  <node id="282685486" version="6" timestamp="2009-10-02T19:48:11Z" uid="86259" user="hasse_osm_korinthenkacker" changeset="2716821" lat="47.911159" lon="11.6761294">
    <tag k="addr:city" v="Otterfing"/>
    <tag k="addr:country" v="DE"/>
    <tag k="addr:housenumber" v="10a"/>
    <tag k="addr:postcode" v="83624"/>
    <tag k="addr:street" v="Im Kirchwinkel"/>
  </node>
  <node id="282685804" version="7" timestamp="2009-10-02T19:48:11Z" uid="86259" user="hasse_osm_korinthenkacker" changeset="2716821" lat="47.910918" lon="11.6769692">
    <tag k="addr:city" v="Otterfing"/>
    <tag k="addr:country" v="DE"/>
    <tag k="addr:housenumber" v="16"/>
    <tag k="addr:postcode" v="83624"/>
    <tag k="addr:street" v="Im Kirchwinkel"/>
  </node>
  <node id="282685974" version="14" timestamp="2009-10-02T19:48:12Z" uid="86259" user="hasse_osm_korinthenkacker" changeset="2716821" lat="47.9104115" lon="11.6777234">
    <tag k="addr:city" v="Otterfing"/>
    <tag k="addr:country" v="DE"/>
    <tag k="addr:housenumber" v="21"/>
    <tag k="addr:postcode" v="83624"/>
    <tag k="addr:street" v="Im Kirchwinkel"/>
  </node>
  <node id="282686010" version="9" timestamp="2009-10-02T19:48:26Z" uid="86259" user="hasse_osm_korinthenkacker" changeset="2716821" lat="47.910277" lon="11.6784997">
    <tag k="addr:city" v="Otterfing"/>
    <tag k="addr:country" v="DE"/>
    <tag k="addr:housenumber" v="23"/>
    <tag k="addr:postcode" v="83624"/>
    <tag k="addr:street" v="Bahnhofstraße"/>
  </node>
  <node id="282686011" version="10" timestamp="2009-10-02T19:48:26Z" uid="86259" user="hasse_osm_korinthenkacker" changeset="2716821" lat="47.9103402" lon="11.6787915">
    <tag k="addr:city" v="Otterfing"/>
    <tag k="addr:country" v="DE"/>
    <tag k="addr:housenumber" v="25"/>
    <tag k="addr:postcode" v="83624"/>
    <tag k="addr:street" v="Bahnhofstraße"/>
  </node>
  <node id="282686065" version="10" timestamp="2009-10-02T19:48:12Z" uid="86259" user="hasse_osm_korinthenkacker" changeset="2716821" lat="47.9102791" lon="11.6781611">
    <tag k="addr:city" v="Otterfing"/>
    <tag k="addr:country" v="DE"/>
    <tag k="addr:housenumber" v="21"/>
    <tag k="addr:postcode" v="83624"/>
    <tag k="addr:street" v="Bahnhofstraße"/>
  </node>
  <node id="282686898" version="9" timestamp="2009-10-02T19:48:29Z" uid="86259" user="hasse_osm_korinthenkacker" changeset="2716821" lat="47.909705" lon="11.6821386">
    <tag k="addr:city" v="Otterfing"/>
    <tag k="addr:country" v="DE"/>
    <tag k="addr:housenumber" v="52"/>
    <tag k="addr:postcode" v="83624"/>
    <tag k="addr:street" v="Bahnhofstraße"/>
  </node>
  <node id="282686901" version="10" timestamp="2009-10-02T19:49:10Z" uid="86259" user="hasse_osm_korinthenkacker" changeset="2716821" lat="47.9122793" lon="11.6810612">
    <tag k="addr:city" v="Otterfing"/>
    <tag k="addr:country" v="DE"/>
    <tag k="addr:housenumber" v="19"/>
    <tag k="addr:postcode" v="83624"/>
    <tag k="addr:street" v="Ludwig-Thoma-Straße"/>
  </node>
  <node id="282686903" version="10" timestamp="2009-10-02T19:49:09Z" uid="86259" user="hasse_osm_korinthenkacker" changeset="2716821" lat="47.9118824" lon="11.6810612">
    <tag k="addr:city" v="Otterfing"/>
    <tag k="addr:country" v="DE"/>
    <tag k="addr:housenumber" v="7"/>
    <tag k="addr:postcode" v="83624"/>
    <tag k="addr:street" v="Ludwig-Thoma-Straße"/>
  </node>
  <node id="282686904" version="7" timestamp="2009-10-02T19:48:29Z" uid="86259" user="hasse_osm_korinthenkacker" changeset="2716821" lat="47.9095094" lon="11.6822073">
    <tag k="addr:city" v="Otterfing"/>
    <tag k="addr:country" v="DE"/>
    <tag k="addr:housenumber" v="54"/>
    <tag k="addr:postcode" v="83624"/>
    <tag k="addr:street" v="Bahnhofstraße"/>
  </node>
  <node id="282688438" version="8" timestamp="2009-10-02T19:47:41Z" uid="86259" user="hasse_osm_korinthenkacker" changeset="2716821" lat="47.9089744" lon="11.6706005">
    <tag k="addr:city" v="Otterfing"/>
    <tag k="addr:country" v="DE"/>
    <tag k="addr:housenumber" v="4a"/>
    <tag k="addr:postcode" v="83624"/>
    <tag k="addr:street" v="Bergham"/>
  </node>
  <node id="282688439" version="4" timestamp="2009-10-02T19:47:40Z" uid="86259" user="hasse_osm_korinthenkacker" changeset="2716821" lat="47.9088489" lon="11.6703029">
    <tag k="addr:city" v="Otterfing"/>
    <tag k="addr:country" v="DE"/>
    <tag k="addr:housenumber" v="3b"/>
    <tag k="addr:postcode" v="83624"/>
    <tag k="addr:street" v="Bergham"/>
  </node>
  <node id="282688503" version="4" timestamp="2009-10-02T19:47:40Z" uid="86259" user="hasse_osm_korinthenkacker" changeset="2716821" lat="47.908727" lon="11.6698796">
    <tag k="addr:city" v="Otterfing"/>
    <tag k="addr:country" v="DE"/>
    <tag k="addr:housenumber" v="3"/>
    <tag k="addr:postcode" v="83624"/>
    <tag k="addr:street" v="Bergham"/>
  </node>
</osm>
