<?xml version='1.0' encoding='UTF-8'?>
<osm version="0.6" generator="libosmium/2.20.0">
  <node id="282840434" version="4" timestamp="2009-10-02T19:47:23Z" uid="86259" user="hasse_osm_korinthenkacker" changeset="2716821" lat="47.9055183" lon="11.675378">
    <tag k="addr:city" v="Otterfing"/>
    <tag k="addr:country" v="DE"/>
    <tag k="addr:housenumber" v="6"/>
    <tag k="addr:postcode" v="83624"/>
    <tag k="addr:street" v="Haidfeldstraße"/>
  </node>
  <node id="282840450" version="5" timestamp="2009-10-02T19:47:23Z" uid="86259" user="hasse_osm_korinthenkacker" changeset="2716821" lat="47.9055758" lon="11.6757127">
    <tag k="addr:city" v="Otterfing"/>
    <tag k="addr:country" v="DE"/>
    <tag k="addr:housenumber" v="2"/>
    <tag k="addr:postcode" v="83624"/>
    <tag k="addr:street" v="Haidfeldstraße"/>
  </node>
  <node id="282840490" version="5" timestamp="2009-10-02T19:47:23Z" uid="86259" user="hasse_osm_korinthenkacker" changeset="2716821" lat="47.9051339" lon="11.6753985">
    <tag k="addr:city" v="Otterfing"/>
    <tag k="addr:country" v="DE"/>
    <tag k="addr:housenumber" v="5"/>
    <tag k="addr:postcode" v="83624"/>
    <tag k="addr:street" v="Haidfeldstraße"/>
  </node>
  <node id="282840492" version="5" timestamp="2009-10-02T19:47:25Z" uid="86259" user="hasse_osm_korinthenkacker" changeset="2716821" lat="47.9052432" lon="11.6758019">
    <tag k="addr:city" v="Otterfing"/>
    <tag k="addr:country" v="DE"/>
    <tag k="addr:housenumber" v="1"/>
    <tag k="addr:postcode" v="83624"/>
    <tag k="addr:street" v="Haidfeldstraße"/>
  </node>
  <node id="282840544" version="8" timestamp="2009-10-02T19:47:23Z" uid="86259" user="hasse_osm_korinthenkacker" changeset="2716821" lat="47.9049037" lon="11.6754242">
    <tag k="addr:city" v="Otterfing"/>
    <tag k="addr:country" v="DE"/>
    <tag k="addr:housenumber" v="3"/>
    <tag k="addr:postcode" v="83624"/>
    <tag k="addr:street" v="Lipizzanerstraße"/>
    <tag k="source" v="survey"/>
  </node>
  <node id="282840544" version="9" timestamp="2009-10-23T11:33:24Z" uid="36809" user="pfoten_weg_!_" changeset="2928981" lat="47.9049037" lon="11.6754242">
    <tag k="addr:city" v="Otterfing"/>
    <tag k="addr:country" v="DE"/>
    <tag k="addr:housenumber" v="3"/>
    <tag k="addr:postcode" v="83624"/>
    <tag k="addr:street" v="Lipizzanerstraße"/>
  </node>
  <node id="282840741" version="3" timestamp="2009-10-02T19:47:25Z" uid="86259" user="hasse_osm_korinthenkacker" changeset="2716821" lat="47.9049497" lon="11.6757504"/>
  <node id="282840742" version="9" timestamp="2009-10-02T19:47:22Z" uid="86259" user="hasse_osm_korinthenkacker" changeset="2716821" lat="47.9045987" lon="11.6754414">
    <tag k="addr:city" v="Otterfing"/>
    <tag k="addr:country" v="DE"/>
    <tag k="addr:housenumber" v="9b"/>
    <tag k="addr:postcode" v="83624"/>
    <tag k="addr:street" v="Lipizzanerstraße"/>
    <tag k="source" v="survey"/>
  </node>
  <node id="282840742" version="10" timestamp="2009-10-23T11:33:19Z" uid="36809" user="pfoten_weg_!_" changeset="2928981" lat="47.9045987" lon="11.6754414">
    <tag k="addr:city" v="Otterfing"/>
    <tag k="addr:country" v="DE"/>
    <tag k="addr:housenumber" v="9b"/>
    <tag k="addr:postcode" v="83624"/>
    <tag k="addr:street" v="Lipizzanerstraße"/>
  </node>
  <node id="282840743" version="8" timestamp="2009-10-02T19:47:22Z" uid="86259" user="hasse_osm_korinthenkacker" changeset="2716821" lat="47.9046333" lon="11.6756645">
    <tag k="addr:city" v="Otterfing"/>
    <tag k="addr:country" v="DE"/>
    <tag k="addr:housenumber" v="9a"/>
    <tag k="addr:postcode" v="83624"/>
    <tag k="addr:street" v="Lipizzanerstraße"/>
    <tag k="source" v="survey"/>
  </node>
  <node id="282840743" version="9" timestamp="2009-10-23T11:33:21Z" uid="36809" user="pfoten_weg_!_" changeset="2928981" lat="47.9046333" lon="11.6756645">
    <tag k="addr:city" v="Otterfing"/>
    <tag k="addr:country" v="DE"/>
    <tag k="addr:housenumber" v="9a"/>
    <tag k="addr:postcode" v="83624"/>
    <tag k="addr:street" v="Lipizzanerstraße"/>
  </node>
  <node id="282840744" version="5" timestamp="2009-10-02T19:47:24Z" uid="86259" user="hasse_osm_korinthenkacker" changeset="2716821" lat="47.9042535" lon="11.6757675">
    <tag k="addr:city" v="Otterfing"/>
    <tag k="addr:country" v="DE"/>
    <tag k="addr:housenumber" v="2"/>
    <tag k="addr:postcode" v="83624"/>
    <tag k="addr:street" v="Haidgasse"/>
    <tag k="source" v="survey"/>
  </node>
  <node id="282840744" version="6" timestamp="2009-10-23T11:33:25Z" uid="36809" user="pfoten_weg_!_" changeset="2928981" lat="47.9042535" lon="11.6757675">
    <tag k="addr:city" v="Otterfing"/>
    <tag k="addr:country" v="DE"/>
    <tag k="addr:housenumber" v="2"/>
    <tag k="addr:postcode" v="83624"/>
    <tag k="addr:street" v="Haidgasse"/>
  </node>
  <node id="282840746" version="7" timestamp="2009-10-02T19:47:20Z" uid="86259" user="hasse_osm_korinthenkacker" changeset="2716821" lat="47.9048242" lon="11.6736838">
    <tag k="addr:city" v="Otterfing"/>
    <tag k="addr:country" v="DE"/>
    <tag k="addr:housenumber" v="15"/>
    <tag k="addr:postcode" v="83624"/>
    <tag k="addr:street" v="Haidfeldstraße"/>
  </node>
  <node id="282840747" version="8" timestamp="2009-10-02T19:47:20Z" uid="86259" user="hasse_osm_korinthenkacker" changeset="2716821" lat="47.9049392" lon="11.6741043">
    <tag k="addr:city" v="Otterfing"/>
    <tag k="addr:country" v="DE"/>
    <tag k="addr:housenumber" v="11"/>
    <tag k="addr:postcode" v="83624"/>
    <tag k="addr:street" v="Haidfeldstraße"/>
  </node>
  <node id="282840787" version="8" timestamp="2009-10-02T19:47:20Z" uid="86259" user="hasse_osm_korinthenkacker" changeset="2716821" lat="47.9045948" lon="11.6738045">
    <tag k="addr:city" v="Otterfing"/>
    <tag k="addr:country" v="DE"/>
    <tag k="addr:housenumber" v="12"/>
    <tag k="addr:postcode" v="83624"/>
    <tag k="addr:street" v="Lipizzanerstraße"/>
    <tag k="source" v="survey"/>
  </node>
  <node id="282840787" version="9" timestamp="2009-10-23T11:33:17Z" uid="36809" user="pfoten_weg_!_" changeset="2928981" lat="47.9045948" lon="11.6738045">
    <tag k="addr:city" v="Otterfing"/>
    <tag k="addr:country" v="DE"/>
    <tag k="addr:housenumber" v="12"/>
    <tag k="addr:postcode" v="83624"/>
    <tag k="addr:street" v="Lipizzanerstraße"/>
  </node>
  <node id="282840791" version="7" timestamp="2009-10-02T19:47:20Z" uid="86259" user="hasse_osm_korinthenkacker" changeset="2716821" lat="47.9046581" lon="11.6740619">
    <tag k="addr:city" v="Otterfing"/>
    <tag k="addr:country" v="DE"/>
    <tag k="addr:housenumber" v="10"/>
    <tag k="addr:postcode" v="83624"/>
    <tag k="addr:street" v="Lipizzanerstraße"/>
    <tag k="source" v="survey"/>
  </node>
  <node id="282840791" version="8" timestamp="2009-10-23T11:33:17Z" uid="36809" user="pfoten_weg_!_" changeset="2928981" lat="47.9046581" lon="11.6740619">
    <tag k="addr:city" v="Otterfing"/>
    <tag k="addr:country" v="DE"/>
    <tag k="addr:housenumber" v="10"/>
    <tag k="addr:postcode" v="83624"/>
    <tag k="addr:street" v="Lipizzanerstraße"/>
  </node>
  <node id="282840792" version="3" timestamp="2010-07-24T06:33:27Z" uid="33382" user="de_muur" changeset="5301115" lat="53.4414097" lon="10.3020154"/>
  <node id="282840879" version="4" timestamp="2009-10-02T19:47:23Z" uid="86259" user="hasse_osm_korinthenkacker" changeset="2716821" lat="47.9053572" lon="11.6743737">
    <tag k="addr:city" v="Otterfing"/>
    <tag k="addr:country" v="DE"/>
    <tag k="addr:housenumber" v="12"/>
    <tag k="addr:postcode" v="83624"/>
    <tag k="addr:street" v="Haidfeldstraße"/>
  </node>
  <node id="282840912" version="4" timestamp="2009-10-02T19:47:24Z" uid="86259" user="hasse_osm_korinthenkacker" changeset="2716821" lat="47.9054262" lon="11.6748201">
    <tag k="addr:city" v="Otterfing"/>
    <tag k="addr:country" v="DE"/>
    <tag k="addr:housenumber" v="10"/>
    <tag k="addr:postcode" v="83624"/>
    <tag k="addr:street" v="Haidfeldstraße"/>
  </node>
  <node id="282841419" version="7" timestamp="2009-10-02T19:47:29Z" uid="86259" user="hasse_osm_korinthenkacker" changeset="2716821" lat="47.9079587" lon="11.6675066">
    <tag k="addr:city" v="Otterfing"/>
    <tag k="addr:country" v="DE"/>
    <tag k="addr:housenumber" v="8"/>
    <tag k="addr:postcode" v="83624"/>
    <tag k="addr:street" v="Bergham"/>
  </node>
  <node id="282841428" version="9" timestamp="2009-10-02T19:46:49Z" uid="86259" user="hasse_osm_korinthenkacker" changeset="2716821" lat="47.9074176" lon="11.666085">
    <tag k="addr:city" v="Otterfing"/>
    <tag k="addr:country" v="DE"/>
    <tag k="addr:housenumber" v="13"/>
    <tag k="addr:postcode" v="83624"/>
    <tag k="addr:street" v="Puslweg"/>
  </node>
  <node id="282841429" version="8" timestamp="2009-10-02T19:46:50Z" uid="86259" user="hasse_osm_korinthenkacker" changeset="2716821" lat="47.9077689" lon="11.6667942">
    <tag k="addr:city" v="Otterfing"/>
    <tag k="addr:country" v="DE"/>
    <tag k="addr:housenumber" v="6"/>
    <tag k="addr:postcode" v="83624"/>
    <tag k="addr:street" v="Puslweg"/>
  </node>
  <node id="282841431" version="8" timestamp="2009-10-02T19:46:50Z" uid="86259" user="hasse_osm_korinthenkacker" changeset="2716821" lat="47.9076998" lon="11.6663565">
    <tag k="addr:city" v="Otterfing"/>
    <tag k="addr:country" v="DE"/>
    <tag k="addr:housenumber" v="8"/>
    <tag k="addr:postcode" v="83624"/>
    <tag k="addr:street" v="Puslweg"/>
  </node>
  <node id="282841433" version="7" timestamp="2009-10-02T19:47:40Z" uid="86259" user="hasse_osm_korinthenkacker" changeset="2716821" lat="47.908658" lon="11.6705061">
    <tag k="addr:city" v="Otterfing"/>
    <tag k="addr:country" v="DE"/>
    <tag k="addr:housenumber" v="3c"/>
    <tag k="addr:postcode" v="83624"/>
    <tag k="addr:street" v="Bergham"/>
  </node>
  <node id="282841450" version="7" timestamp="2009-10-02T19:47:37Z" uid="86259" user="hasse_osm_korinthenkacker" changeset="2716821" lat="47.9082004" lon="11.6705193">
    <tag k="addr:city" v="Otterfing"/>
    <tag k="addr:country" v="DE"/>
    <tag k="addr:housenumber" v="24"/>
    <tag k="addr:postcode" v="83624"/>
    <tag k="addr:street" v="Berghamer Straße"/>
  </node>
  <node id="282841453" version="7" timestamp="2009-10-02T19:47:33Z" uid="86259" user="hasse_osm_korinthenkacker" changeset="2716821" lat="47.9084048" lon="11.6700255">
    <tag k="addr:city" v="Otterfing"/>
    <tag k="addr:country" v="DE"/>
    <tag k="addr:housenumber" v="3a"/>
    <tag k="addr:postcode" v="83624"/>
    <tag k="addr:street" v="Bergham"/>
  </node>
  <node id="282841459" version="6" timestamp="2009-10-02T19:47:38Z" uid="86259" user="hasse_osm_korinthenkacker" changeset="2716821" lat="47.9084785" lon="11.6712197">
    <tag k="addr:city" v="Otterfing"/>
    <tag k="addr:country" v="DE"/>
    <tag k="addr:housenumber" v="1"/>
    <tag k="addr:postcode" v="83624"/>
    <tag k="addr:street" v="Weberweg"/>
  </node>
  <node id="282841460" version="5" timestamp="2009-10-02T19:47:38Z" uid="86259" user="hasse_osm_korinthenkacker" changeset="2716821" lat="47.9082886" lon="11.6710137">
    <tag k="addr:city" v="Otterfing"/>
    <tag k="addr:country" v="DE"/>
    <tag k="addr:housenumber" v="22"/>
    <tag k="addr:postcode" v="83624"/>
    <tag k="addr:street" v="Berghamer Straße"/>
  </node>
  <node id="282841473" version="5" timestamp="2009-10-02T19:47:37Z" uid="86259" user="hasse_osm_korinthenkacker" changeset="2716821" lat="47.9085312" lon="11.6708062">
    <tag k="addr:city" v="Otterfing"/>
    <tag k="addr:country" v="DE"/>
    <tag k="addr:housenumber" v="7"/>
    <tag k="addr:postcode" v="83624"/>
    <tag k="addr:street" v="Weberweg"/>
  </node>
  <node id="282841959" version="4" timestamp="2009-12-09T20:20:28Z" uid="200463" user="harmagedon" changeset="3336536" lat="51.048135" lon="14.5323085">
    <tag k="ele" v="410"/>
    <tag k="name" v="Hahneberg"/>
    <tag k="natural" v="peak"/>
  </node>
  <node id="282841960" version="3" timestamp="2009-12-09T20:20:33Z" uid="200463" user="harmagedon" changeset="3336536" lat="51.0471844" lon="14.5474726">
    <tag k="ele" v="422"/>
    <tag k="name" v="Fuchsberg"/>
    <tag k="natural" v="peak"/>
  </node>
  <node id="282842156" version="7" timestamp="2009-10-02T19:47:52Z" uid="86259" user="hasse_osm_korinthenkacker" changeset="2716821" lat="47.907244" lon="11.675934">
    <tag k="addr:city" v="Otterfing"/>
    <tag k="addr:country" v="DE"/>
    <tag k="addr:housenumber" v="16"/>
    <tag k="addr:postcode" v="83624"/>
    <tag k="addr:street" v="Tegernseer Straße"/>
  </node>
  <node id="282842170" version="5" timestamp="2009-10-02T19:47:51Z" uid="86259" user="hasse_osm_korinthenkacker" changeset="2716821" lat="47.9076468" lon="11.6753107">
    <tag k="addr:city" v="Otterfing"/>
    <tag k="addr:country" v="DE"/>
    <tag k="addr:housenumber" v="14a"/>
    <tag k="addr:postcode" v="83624"/>
    <tag k="addr:street" v="Tegernseer Straße"/>
  </node>
  <node id="282842172" version="5" timestamp="2009-10-02T19:47:51Z" uid="86259" user="hasse_osm_korinthenkacker" changeset="2716821" lat="47.9077216" lon="11.6756883">
    <tag k="addr:city" v="Otterfing"/>
    <tag k="addr:country" v="DE"/>
    <tag k="addr:housenumber" v="12"/>
    <tag k="addr:postcode" v="83624"/>
    <tag k="addr:street" v="Tegernseer Straße"/>
  </node>
  <node id="282842175" version="5" timestamp="2009-10-02T19:47:52Z" uid="86259" user="hasse_osm_korinthenkacker" changeset="2716821" lat="47.908573" lon="11.6754619">
    <tag k="addr:city" v="Otterfing"/>
    <tag k="addr:country" v="DE"/>
    <tag k="addr:housenumber" v="4"/>
    <tag k="addr:postcode" v="83624"/>
    <tag k="addr:street" v="Tegernseer Straße"/>
  </node>
  <node id="282842179" version="5" timestamp="2009-10-02T19:47:52Z" uid="86259" user="hasse_osm_korinthenkacker" changeset="2716821" lat="47.9081761" lon="11.6755681">
    <tag k="addr:city" v="Otterfing"/>
    <tag k="addr:country" v="DE"/>
    <tag k="addr:housenumber" v="8"/>
    <tag k="addr:postcode" v="83624"/>
    <tag k="addr:street" v="Tegernseer Straße"/>
  </node>
  <node id="282842183" version="6" timestamp="2009-10-02T19:47:52Z" uid="86259" user="hasse_osm_korinthenkacker" changeset="2716821" lat="47.9079978" lon="11.6755424">
    <tag k="addr:city" v="Otterfing"/>
    <tag k="addr:country" v="DE"/>
    <tag k="addr:housenumber" v="10"/>
    <tag k="addr:postcode" v="83624"/>
    <tag k="addr:street" v="Tegernseer Straße"/>
  </node>
  <node id="282843022" version="3" timestamp="2008-09-14T14:29:22Z" uid="6975" user="ulfl" changeset="640534" lat="50.9531895" lon="-1.2101994">
    <tag k="amenity" v="townhall"/>
    <tag k="name" v="Jubilee Hall"/>
  </node>
  <node id="282843256" version="2" timestamp="2008-09-14T14:28:48Z" uid="6975" user="ulfl" changeset="640534" lat="50.9532652" lon="-1.2104054">
    <tag k="amenity" v="townhall"/>
    <tag k="name" v="St. Johns Ambulance"/>
  </node>
  <node id="282843541" version="2" timestamp="2008-09-14T14:33:13Z" uid="6975" user="ulfl" changeset="640534" lat="51.5041343" lon="0.0235865">
    <tag k="barrier" v="bollard"/>
  </node>
  <node id="282843562" version="2" timestamp="2008-09-14T14:33:14Z" uid="6975" user="ulfl" changeset="640534" lat="51.5039657" lon="0.0251116">
    <tag k="barrier" v="bollard"/>
  </node>
  <node id="282847319" version="3" timestamp="2009-02-01T22:41:34Z" uid="67142" user="zottel" changeset="50569" lat="48.9205456" lon="8.7342737"/>
  <node id="282848841" version="2" timestamp="2010-06-20T07:33:38Z" uid="9719" user="dvaey" changeset="5030187" lat="-35.3481823" lon="149.0860408"/>
  <node id="282848842" version="2" timestamp="2010-06-20T07:33:38Z" uid="9719" user="dvaey" changeset="5030187" lat="-35.3484624" lon="149.0860322"/>
  <node id="282848844" version="2" timestamp="2010-06-20T07:33:35Z" uid="9719" user="dvaey" changeset="5030187" lat="-35.3484484" lon="149.0851482"/>
  <node id="282848845" version="2" timestamp="2010-06-20T07:33:35Z" uid="9719" user="dvaey" changeset="5030187" lat="-35.3484274" lon="149.0849507"/>
  <node id="282848846" version="2" timestamp="2010-06-20T07:33:35Z" uid="9719" user="dvaey" changeset="5030187" lat="-35.3483924" lon="149.0847791"/>
  <node id="282848847" version="2" timestamp="2010-06-20T07:33:35Z" uid="9719" user="dvaey" changeset="5030187" lat="-35.3483574" lon="149.0846589"/>
  <node id="282848848" version="2" timestamp="2010-06-20T07:33:36Z" uid="9719" user="dvaey" changeset="5030187" lat="-35.3483224" lon="149.0845473"/>
  <node id="282848849" version="2" timestamp="2010-06-20T07:33:36Z" uid="9719" user="dvaey" changeset="5030187" lat="-35.3481263" lon="149.0847705"/>
  <node id="282848850" version="2" timestamp="2010-06-20T07:33:37Z" uid="9719" user="dvaey" changeset="5030187" lat="-35.3481403" lon="149.0848392"/>
  <node id="282848851" version="2" timestamp="2010-06-20T07:33:37Z" uid="9719" user="dvaey" changeset="5030187" lat="-35.3481753" lon="149.0849765"/>
  <node id="282848852" version="3" timestamp="2010-06-20T07:35:16Z" uid="9719" user="dvaey" changeset="5030187" lat="-35.3482416" lon="149.0852239"/>
  <node id="282849077" version="8" timestamp="2010-06-20T07:36:32Z" uid="9719" user="dvaey" changeset="5030187" lat="-35.3481823" lon="149.0843156"/>
  <node id="282849078" version="5" timestamp="2010-06-20T07:36:33Z" uid="9719" user="dvaey" changeset="5030187" lat="-35.3481403" lon="149.084513"/>
  <node id="282849079" version="5" timestamp="2010-06-20T07:36:34Z" uid="9719" user="dvaey" changeset="5030187" lat="-35.3479233" lon="149.0844272"/>
  <node id="282849080" version="5" timestamp="2010-06-20T07:36:33Z" uid="9719" user="dvaey" changeset="5030187" lat="-35.3478883" lon="149.0845645"/>
  <node id="282849081" version="5" timestamp="2010-06-20T07:36:34Z" uid="9719" user="dvaey" changeset="5030187" lat="-35.3473002" lon="149.0843928"/>
  <node id="282849082" version="5" timestamp="2010-06-20T07:36:35Z" uid="9719" user="dvaey" changeset="5030187" lat="-35.3473562" lon="149.0840667"/>
  <node id="282849419" version="2" timestamp="2010-07-06T08:44:17Z" uid="4467" user="Rosscoe" changeset="5148386" lat="-35.3451596" lon="149.0870296"/>
  <node id="282849420" version="2" timestamp="2010-07-06T08:46:23Z" uid="4467" user="Rosscoe" changeset="5148386" lat="-35.3458565" lon="149.0872018"/>
  <node id="282849421" version="2" timestamp="2010-07-06T08:44:57Z" uid="4467" user="Rosscoe" changeset="5148386" lat="-35.3456908" lon="149.0882319"/>
  <node id="282849871" version="2" timestamp="2008-09-14T14:29:11Z" uid="6975" user="ulfl" changeset="640534" lat="50.0549837" lon="8.688286">
    <tag k="amenity" v="townhall"/>
  </node>
</osm>
