<?xml version='1.0' encoding='UTF-8'?>
<osm version="0.6" generator="libosmium/2.20.0">
  <node id="283691061" version="2" timestamp="2008-08-14T20:55:15Z" uid="6975" user="ulfl" changeset="264731" lat="54.5544846" lon="13.5243435">
    <tag k="highway" v="bus_stop"/>
    <tag k="name" v="Bobbin"/>
  </node>
  <node id="283691806" version="5" timestamp="2008-08-14T20:19:28Z" uid="6975" user="ulfl" changeset="264731" lat="45.5951342" lon="5.7704482">
    <tag k="code departement" v="73"/>
    <tag k="code_INSEE" v="73191"/>
    <tag k="is_in" v="Europe,France,Savoie"/>
    <tag k="name" v="Novalaise"/>
    <tag k="place" v="hamlet"/>
    <tag k="population" v="1200"/>
    <tag k="postal_code" v="73470"/>
  </node>
  <node id="283691837" version="2" timestamp="2008-08-14T20:19:28Z" uid="6975" user="ulfl" changeset="264731" lat="45.5951383" lon="5.7704549">
    <tag k="code INSEE" v="73191"/>
    <tag k="code departement" v="73"/>
    <tag k="is_in" v="Europe,France,Savoie"/>
    <tag k="name" v="Novalaise"/>
    <tag k="place" v="hamlet"/>
  </node>
  <node id="283692121" version="3" timestamp="2008-08-14T20:19:28Z" uid="6975" user="ulfl" changeset="264731" lat="45.5951383" lon="5.7704549">
    <tag k="code departement" v="73"/>
    <tag k="code_INSEE" v="73191"/>
    <tag k="is_in" v="Europe,France,Savoie"/>
    <tag k="name" v="Novalaise"/>
    <tag k="place" v="hamlet"/>
    <tag k="population" v="1200"/>
    <tag k="postal_code" v="73470"/>
  </node>
  <node id="283692317" version="2" timestamp="2009-01-06T08:03:36Z" uid="27600" user="Islanit" changeset="743487" lat="53.5267064" lon="10.110025"/>
  <node id="283692322" version="2" timestamp="2009-01-06T08:03:36Z" uid="27600" user="Islanit" changeset="743487" lat="53.526839" lon="10.1090874"/>
  <node id="283692494" version="2" timestamp="2009-01-06T08:04:30Z" uid="27600" user="Islanit" changeset="743487" lat="53.5267064" lon="10.110025"/>
  <node id="283692630" version="3" timestamp="2008-09-14T14:42:52Z" uid="6975" user="ulfl" changeset="640534" lat="46.8952945" lon="10.1494892">
    <tag k="mountain_pass" v="yes"/>
    <tag k="name" v="Getschnerscharte"/>
  </node>
  <node id="283692845" version="2" timestamp="2009-01-06T08:04:30Z" uid="27600" user="Islanit" changeset="743487" lat="53.526839" lon="10.1090874"/>
  <node id="283696239" version="2" timestamp="2008-09-14T13:17:57Z" uid="6975" user="ulfl" changeset="640534" lat="41.788909" lon="12.2626837">
    <tag k="highway" v="bus_stop"/>
  </node>
  <node id="283696242" version="2" timestamp="2008-09-14T13:17:54Z" uid="6975" user="ulfl" changeset="640534" lat="41.7888902" lon="12.2626775">
    <tag k="highway" v="bus_stop"/>
  </node>
  <node id="283699025" version="2" timestamp="2008-10-19T20:19:22Z" uid="49111" user="Markus B" changeset="452407" lat="49.3687937" lon="11.9049311"/>
  <node id="283699037" version="2" timestamp="2008-09-14T17:07:18Z" uid="6975" user="ulfl" changeset="640534" lat="51.0508119" lon="12.1260267">
    <tag k="historic" v="castle"/>
    <tag k="name" v="Schloss Moritzburg"/>
  </node>
  <node id="283699391" version="4" timestamp="2010-02-07T20:49:46Z" uid="49111" user="Markus B" changeset="3818837" lat="46.8660004" lon="10.2147876">
    <tag k="mountain_pass" v="yes"/>
    <tag k="name" v="FutschÃ¶lpass"/>
  </node>
  <node id="283699513" version="2" timestamp="2010-02-07T19:30:23Z" uid="49111" user="Markus B" changeset="3818007" lat="46.8715376" lon="10.2325651">
    <tag k="mountain_pass" v="yes"/>
    <tag k="name" v="Kronenjoch"/>
  </node>
</osm>
