<?xml version='1.0' encoding='UTF-8'?>
<osm version="0.6" generator="libosmium/2.20.0">
  <node id="287530116" version="2" timestamp="2008-08-14T23:54:20Z" uid="6975" user="ulfl" changeset="264731" lat="51.410158" lon="-0.3048877">
    <tag k="amenity" v="place_of_worship"/>
    <tag k="denomination" v="baptist"/>
    <tag k="name" v="Kingston Baptist Church"/>
    <tag k="religion" v="christian"/>
  </node>
  <node id="287531181" version="9" timestamp="2009-10-02T19:48:15Z" uid="86259" user="hasse_osm_korinthenkacker" changeset="2716821" lat="47.9026776" lon="11.6798478">
    <tag k="addr:city" v="Otterfing"/>
    <tag k="addr:country" v="DE"/>
    <tag k="addr:housenumber" v="7"/>
    <tag k="addr:postcode" v="83624"/>
    <tag k="addr:street" v="Holzham"/>
  </node>
  <node id="287531230" version="3" timestamp="2010-06-22T07:39:32Z" uid="4467" user="Rosscoe" changeset="5048924" lat="-28.1554946" lon="153.4925477"/>
  <node id="287531282" version="10" timestamp="2009-10-02T19:48:15Z" uid="86259" user="hasse_osm_korinthenkacker" changeset="2716821" lat="47.9026604" lon="11.6801912">
    <tag k="addr:city" v="Otterfing"/>
    <tag k="addr:country" v="DE"/>
    <tag k="addr:housenumber" v="5"/>
    <tag k="addr:postcode" v="83624"/>
    <tag k="addr:street" v="Holzham"/>
  </node>
  <node id="287531301" version="7" timestamp="2009-10-02T19:48:17Z" uid="86259" user="hasse_osm_korinthenkacker" changeset="2716821" lat="47.9027327" lon="11.6817699">
    <tag k="addr:city" v="Otterfing"/>
    <tag k="addr:country" v="DE"/>
    <tag k="addr:housenumber" v="2d"/>
    <tag k="addr:postcode" v="83624"/>
    <tag k="addr:street" v="Holzham"/>
  </node>
  <node id="287531308" version="7" timestamp="2009-10-02T19:48:17Z" uid="86259" user="hasse_osm_korinthenkacker" changeset="2716821" lat="47.9027615" lon="11.6813579">
    <tag k="addr:city" v="Otterfing"/>
    <tag k="addr:country" v="DE"/>
    <tag k="addr:housenumber" v="2c"/>
    <tag k="addr:postcode" v="83624"/>
    <tag k="addr:street" v="Holzham"/>
  </node>
  <node id="287531374" version="8" timestamp="2009-10-02T19:48:18Z" uid="86259" user="hasse_osm_korinthenkacker" changeset="2716821" lat="47.9031331" lon="11.6821055">
    <tag k="addr:city" v="Otterfing"/>
    <tag k="addr:country" v="DE"/>
    <tag k="addr:housenumber" v="11"/>
    <tag k="addr:postcode" v="83624"/>
    <tag k="addr:street" v="Kleinfeldstraße"/>
  </node>
  <node id="287531446" version="8" timestamp="2009-10-02T19:48:17Z" uid="86259" user="hasse_osm_korinthenkacker" changeset="2716821" lat="47.903101" lon="11.6812892">
    <tag k="addr:city" v="Otterfing"/>
    <tag k="addr:country" v="DE"/>
    <tag k="addr:housenumber" v="2b"/>
    <tag k="addr:postcode" v="83624"/>
    <tag k="addr:street" v="Holzham"/>
  </node>
  <node id="287531447" version="7" timestamp="2009-10-02T19:48:16Z" uid="86259" user="hasse_osm_korinthenkacker" changeset="2716821" lat="47.903078" lon="11.6809888">
    <tag k="addr:city" v="Otterfing"/>
    <tag k="addr:country" v="DE"/>
    <tag k="addr:housenumber" v="2a"/>
    <tag k="addr:postcode" v="83624"/>
    <tag k="addr:street" v="Holzham"/>
  </node>
  <node id="287531483" version="2" timestamp="2008-08-14T19:07:08Z" uid="6975" user="ulfl" changeset="264731" lat="30.0459949" lon="31.3558144">
    <tag k="amenity" v="Mosque"/>
    <tag k="name" v="el Salam"/>
    <tag k="religion" v="muslim"/>
  </node>
  <node id="287531871" version="2" timestamp="2010-06-22T07:39:13Z" uid="4467" user="Rosscoe" changeset="5048924" lat="-28.155366" lon="153.4922044"/>
  <node id="287531873" version="2" timestamp="2010-06-22T07:37:39Z" uid="4467" user="Rosscoe" changeset="5048924" lat="-28.1552925" lon="153.4919208"/>
  <node id="287531990" version="2" timestamp="2010-06-22T07:37:45Z" uid="4467" user="Rosscoe" changeset="5048924" lat="-28.1549709" lon="153.4913113"/>
  <node id="287531992" version="2" timestamp="2010-06-22T07:39:05Z" uid="4467" user="Rosscoe" changeset="5048924" lat="-28.1550906" lon="153.491762"/>
  <node id="287531993" version="2" timestamp="2010-06-22T07:38:36Z" uid="4467" user="Rosscoe" changeset="5048924" lat="-28.1552999" lon="153.4920226"/>
  <node id="287532087" version="2" timestamp="2010-06-22T07:38:57Z" uid="4467" user="Rosscoe" changeset="5048924" lat="-28.1551546" lon="153.4919711"/>
  <node id="287532088" version="2" timestamp="2010-06-22T07:39:03Z" uid="4467" user="Rosscoe" changeset="5048924" lat="-28.1552416" lon="153.4920607"/>
  <node id="287532089" version="2" timestamp="2010-06-22T07:39:39Z" uid="4467" user="Rosscoe" changeset="5048924" lat="-28.1552676" lon="153.4920671"/>
  <node id="287532091" version="2" timestamp="2010-06-22T07:37:52Z" uid="4467" user="Rosscoe" changeset="5048924" lat="-28.1550696" lon="153.4916405"/>
  <node id="287532148" version="7" timestamp="2009-10-02T19:48:14Z" uid="86259" user="hasse_osm_korinthenkacker" changeset="2716821" lat="47.9023669" lon="11.6795818">
    <tag k="addr:city" v="Otterfing"/>
    <tag k="addr:country" v="DE"/>
    <tag k="addr:housenumber" v="29"/>
    <tag k="addr:postcode" v="83624"/>
    <tag k="addr:street" v="Holzhamer Bogen"/>
  </node>
  <node id="287532395" version="2" timestamp="2010-06-22T07:38:21Z" uid="4467" user="Rosscoe" changeset="5048924" lat="-28.1543991" lon="153.4920524"/>
  <node id="287532402" version="2" timestamp="2010-06-22T07:38:59Z" uid="4467" user="Rosscoe" changeset="5048924" lat="-28.1554197" lon="153.4924143"/>
  <node id="287532472" version="2" timestamp="2009-11-24T06:05:12Z" uid="30201" user="rrankin" changeset="3201770" lat="-34.5074604" lon="150.8759596">
    <tag k="highway" v="traffic_signals"/>
  </node>
  <node id="287532502" version="2" timestamp="2010-03-22T22:10:45Z" uid="30201" user="rrankin" changeset="4207713" lat="-34.4917692" lon="150.9105116">
    <tag k="highway" v="turning_circle"/>
  </node>
  <node id="287532551" version="3" timestamp="2008-08-14T19:07:09Z" uid="6975" user="ulfl" changeset="264731" lat="30.0528374" lon="31.326692">
    <tag k="amenity" v="Mosque"/>
    <tag k="name" v="Noury Khattab"/>
    <tag k="religion" v="muslim"/>
  </node>
  <node id="287532664" version="2" timestamp="2010-06-22T07:38:42Z" uid="4467" user="Rosscoe" changeset="5048924" lat="-28.1552277" lon="153.4917246"/>
  <node id="287532665" version="2" timestamp="2010-06-22T07:39:24Z" uid="4467" user="Rosscoe" changeset="5048924" lat="-28.1551843" lon="153.4916637"/>
  <node id="287532666" version="2" timestamp="2010-06-22T07:37:55Z" uid="4467" user="Rosscoe" changeset="5048924" lat="-28.1551304" lon="153.4916206"/>
  <node id="287532667" version="3" timestamp="2010-04-25T14:03:27Z" uid="4467" user="Rosscoe" changeset="4521741" lat="-28.1534967" lon="153.4915179"/>
  <node id="287532667" version="4" timestamp="2010-06-22T07:39:09Z" uid="4467" user="Rosscoe" changeset="5048924" lat="-28.1534791" lon="153.4915264"/>
  <node id="287532713" version="2" timestamp="2009-04-22T19:29:06Z" uid="9581" user="Lobelt" changeset="905332" lat="49.5335234" lon="8.7257334"/>
  <node id="287532717" version="7" timestamp="2009-10-02T19:47:15Z" uid="86259" user="hasse_osm_korinthenkacker" changeset="2716821" lat="47.902071" lon="11.6772466">
    <tag k="addr:city" v="Otterfing"/>
    <tag k="addr:country" v="DE"/>
    <tag k="addr:housenumber" v="12"/>
    <tag k="addr:postcode" v="83624"/>
    <tag k="addr:street" v="Riegerweg"/>
  </node>
  <node id="287532718" version="2" timestamp="2010-09-19T19:21:05Z" uid="9581" user="Lobelt" changeset="5823314" lat="49.534441" lon="8.7259615"/>
  <node id="287532720" version="2" timestamp="2010-09-19T19:21:12Z" uid="9581" user="Lobelt" changeset="5823314" lat="49.5335738" lon="8.7274205"/>
  <node id="287532721" version="2" timestamp="2010-09-19T19:20:59Z" uid="9581" user="Lobelt" changeset="5823314" lat="49.5336898" lon="8.7275135"/>
  <node id="287532745" version="7" timestamp="2009-10-02T19:47:16Z" uid="86259" user="hasse_osm_korinthenkacker" changeset="2716821" lat="47.9023817" lon="11.6771092">
    <tag k="addr:city" v="Otterfing"/>
    <tag k="addr:country" v="DE"/>
    <tag k="addr:housenumber" v="18"/>
    <tag k="addr:postcode" v="83624"/>
    <tag k="addr:street" v="Riegerweg"/>
  </node>
  <node id="287532767" version="7" timestamp="2009-10-02T19:47:16Z" uid="86259" user="hasse_osm_korinthenkacker" changeset="2716821" lat="47.9026752" lon="11.6771178">
    <tag k="addr:city" v="Otterfing"/>
    <tag k="addr:country" v="DE"/>
    <tag k="addr:housenumber" v="20"/>
    <tag k="addr:postcode" v="83624"/>
    <tag k="addr:street" v="Riegerweg"/>
  </node>
  <node id="287532893" version="7" timestamp="2009-10-02T19:47:15Z" uid="86259" user="hasse_osm_korinthenkacker" changeset="2716821" lat="47.9029686" lon="11.6770835">
    <tag k="addr:city" v="Otterfing"/>
    <tag k="addr:country" v="DE"/>
    <tag k="addr:housenumber" v="22"/>
    <tag k="addr:postcode" v="83624"/>
    <tag k="addr:street" v="Riegerweg"/>
  </node>
  <node id="287532897" version="2" timestamp="2010-06-22T07:39:21Z" uid="4467" user="Rosscoe" changeset="5048924" lat="-28.154927" lon="153.4911573"/>
  <node id="287532903" version="8" timestamp="2009-10-02T19:48:14Z" uid="86259" user="hasse_osm_korinthenkacker" changeset="2716821" lat="47.9022589" lon="11.678547">
    <tag k="addr:city" v="Otterfing"/>
    <tag k="addr:country" v="DE"/>
    <tag k="addr:housenumber" v="2"/>
    <tag k="addr:postcode" v="83624"/>
    <tag k="addr:street" v="Riegerweg"/>
  </node>
  <node id="287532910" version="9" timestamp="2009-10-02T19:47:16Z" uid="86259" user="hasse_osm_korinthenkacker" changeset="2716821" lat="47.9022358" lon="11.6783153">
    <tag k="addr:city" v="Otterfing"/>
    <tag k="addr:country" v="DE"/>
    <tag k="addr:housenumber" v="4"/>
    <tag k="addr:postcode" v="83624"/>
    <tag k="addr:street" v="Riegerweg"/>
  </node>
  <node id="287532915" version="3" timestamp="2010-06-22T07:37:43Z" uid="4467" user="Rosscoe" changeset="5048924" lat="-28.1544676" lon="153.4900789"/>
  <node id="287532916" version="2" timestamp="2010-06-22T07:38:43Z" uid="4467" user="Rosscoe" changeset="5048924" lat="-28.1543788" lon="153.4897753"/>
  <node id="287532917" version="2" timestamp="2010-06-22T07:39:27Z" uid="4467" user="Rosscoe" changeset="5048924" lat="-28.1543519" lon="153.4895866"/>
  <node id="287532918" version="2" timestamp="2010-06-22T07:37:56Z" uid="4467" user="Rosscoe" changeset="5048924" lat="-28.154277" lon="153.4894139"/>
  <node id="287532919" version="2" timestamp="2010-06-22T07:39:47Z" uid="4467" user="Rosscoe" changeset="5048924" lat="-28.1542535" lon="153.4893119"/>
  <node id="287532940" version="10" timestamp="2009-10-02T19:47:16Z" uid="86259" user="hasse_osm_korinthenkacker" changeset="2716821" lat="47.9022243" lon="11.677929">
    <tag k="addr:city" v="Otterfing"/>
    <tag k="addr:country" v="DE"/>
    <tag k="addr:housenumber" v="8"/>
    <tag k="addr:postcode" v="83624"/>
    <tag k="addr:street" v="Riegerweg"/>
  </node>
  <node id="287532941" version="7" timestamp="2009-10-02T19:47:16Z" uid="86259" user="hasse_osm_korinthenkacker" changeset="2716821" lat="47.9022034" lon="11.6776414">
    <tag k="addr:city" v="Otterfing"/>
    <tag k="addr:country" v="DE"/>
    <tag k="addr:housenumber" v="10"/>
    <tag k="addr:postcode" v="83624"/>
    <tag k="addr:street" v="Riegerweg"/>
  </node>
  <node id="287533085" version="10" timestamp="2009-10-02T19:47:16Z" uid="86259" user="hasse_osm_korinthenkacker" changeset="2716821" lat="47.9022474" lon="11.678032">
    <tag k="addr:city" v="Otterfing"/>
    <tag k="addr:country" v="DE"/>
    <tag k="addr:housenumber" v="6"/>
    <tag k="addr:postcode" v="83624"/>
    <tag k="addr:street" v="Riegerweg"/>
  </node>
  <node id="287533104" version="5" timestamp="2009-10-02T19:48:19Z" uid="86259" user="hasse_osm_korinthenkacker" changeset="2716821" lat="47.9039511" lon="11.6796751">
    <tag k="addr:city" v="Otterfing"/>
    <tag k="addr:country" v="DE"/>
    <tag k="addr:housenumber" v="21"/>
    <tag k="addr:postcode" v="83624"/>
    <tag k="addr:street" v="Holzhamer Bogen"/>
  </node>
  <node id="287533209" version="2" timestamp="2010-06-22T07:37:54Z" uid="4467" user="Rosscoe" changeset="5048924" lat="-28.1550613" lon="153.4918722"/>
  <node id="287533210" version="2" timestamp="2010-06-22T07:38:58Z" uid="4467" user="Rosscoe" changeset="5048924" lat="-28.1550836" lon="153.4919227"/>
  <node id="287533214" version="2" timestamp="2010-06-22T07:38:45Z" uid="4467" user="Rosscoe" changeset="5048924" lat="-28.1551563" lon="153.4917219"/>
  <node id="287533227" version="2" timestamp="2010-06-22T07:37:36Z" uid="4467" user="Rosscoe" changeset="5048924" lat="-28.1552346" lon="153.4919663"/>
  <node id="287533228" version="2" timestamp="2010-06-22T07:38:38Z" uid="4467" user="Rosscoe" changeset="5048924" lat="-28.1553043" lon="153.4918558"/>
  <node id="287533229" version="2" timestamp="2010-06-22T07:38:22Z" uid="4467" user="Rosscoe" changeset="5048924" lat="-28.1553018" lon="153.4917881"/>
  <node id="287533289" version="7" timestamp="2009-10-02T19:48:13Z" uid="86259" user="hasse_osm_korinthenkacker" changeset="2716821" lat="47.9018351" lon="11.678474">
    <tag k="addr:city" v="Otterfing"/>
    <tag k="addr:country" v="DE"/>
    <tag k="addr:housenumber" v="1"/>
    <tag k="addr:postcode" v="83624"/>
    <tag k="addr:street" v="Riegerweg"/>
  </node>
  <node id="287533290" version="5" timestamp="2009-10-02T19:48:19Z" uid="86259" user="hasse_osm_korinthenkacker" changeset="2716821" lat="47.9033311" lon="11.6803193">
    <tag k="addr:city" v="Otterfing"/>
    <tag k="addr:country" v="DE"/>
    <tag k="addr:housenumber" v="1"/>
    <tag k="addr:postcode" v="83624"/>
    <tag k="addr:street" v="Holzham"/>
  </node>
  <node id="287533399" version="2" timestamp="2010-06-22T07:39:16Z" uid="4467" user="Rosscoe" changeset="5048924" lat="-28.155033" lon="153.4918354"/>
  <node id="287533403" version="2" timestamp="2010-06-22T07:38:25Z" uid="4467" user="Rosscoe" changeset="5048924" lat="-28.1545531" lon="153.4919998"/>
  <node id="287533507" version="2" timestamp="2010-06-22T07:38:46Z" uid="4467" user="Rosscoe" changeset="5048924" lat="-28.1547967" lon="153.4920995"/>
  <node id="287533508" version="2" timestamp="2010-06-22T07:38:17Z" uid="4467" user="Rosscoe" changeset="5048924" lat="-28.155017" lon="153.4919877"/>
  <node id="287533509" version="2" timestamp="2010-06-22T07:39:18Z" uid="4467" user="Rosscoe" changeset="5048924" lat="-28.1550784" lon="153.4919727"/>
  <node id="287533510" version="2" timestamp="2010-06-22T07:39:01Z" uid="4467" user="Rosscoe" changeset="5048924" lat="-28.1545612" lon="153.4921422"/>
  <node id="287533511" version="2" timestamp="2010-06-22T07:39:34Z" uid="4467" user="Rosscoe" changeset="5048924" lat="-28.1546168" lon="153.4921272"/>
  <node id="287533512" version="2" timestamp="2010-06-22T07:39:42Z" uid="4467" user="Rosscoe" changeset="5048924" lat="-28.1547454" lon="153.4921186"/>
  <node id="287533535" version="6" timestamp="2009-10-02T19:47:25Z" uid="86259" user="hasse_osm_korinthenkacker" changeset="2716821" lat="47.9048832" lon="11.6766968">
    <tag k="addr:city" v="Otterfing"/>
    <tag k="addr:country" v="DE"/>
    <tag k="addr:housenumber" v="4r"/>
    <tag k="addr:postcode" v="83624"/>
    <tag k="addr:street" v="Holzhamer Bogen"/>
  </node>
  <node id="287533701" version="6" timestamp="2009-10-02T19:47:24Z" uid="86259" user="hasse_osm_korinthenkacker" changeset="2716821" lat="47.9043308" lon="11.6768427">
    <tag k="addr:city" v="Otterfing"/>
    <tag k="addr:country" v="DE"/>
    <tag k="addr:housenumber" v="6"/>
    <tag k="addr:postcode" v="83624"/>
    <tag k="addr:street" v="Eduard-Moser-Straße"/>
  </node>
  <node id="287533726" version="6" timestamp="2009-10-02T19:47:25Z" uid="86259" user="hasse_osm_korinthenkacker" changeset="2716821" lat="47.9046127" lon="11.6768598">
    <tag k="addr:city" v="Otterfing"/>
    <tag k="addr:country" v="DE"/>
    <tag k="addr:housenumber" v="4"/>
    <tag k="addr:postcode" v="83624"/>
    <tag k="addr:street" v="Eduard-Moser-Straße"/>
  </node>
  <node id="287533805" version="5" timestamp="2009-10-02T19:47:24Z" uid="86259" user="hasse_osm_korinthenkacker" changeset="2716821" lat="47.9043653" lon="11.6773062">
    <tag k="addr:city" v="Otterfing"/>
    <tag k="addr:country" v="DE"/>
    <tag k="addr:housenumber" v="5"/>
    <tag k="addr:postcode" v="83624"/>
    <tag k="addr:street" v="Eduard-Moser-Straße"/>
  </node>
  <node id="287533806" version="6" timestamp="2009-10-02T19:47:26Z" uid="86259" user="hasse_osm_korinthenkacker" changeset="2716821" lat="47.9045322" lon="11.6772976">
    <tag k="addr:city" v="Otterfing"/>
    <tag k="addr:country" v="DE"/>
    <tag k="addr:housenumber" v="3"/>
    <tag k="addr:postcode" v="83624"/>
    <tag k="addr:street" v="Eduard-Moser-Straße"/>
  </node>
  <node id="287533824" version="6" timestamp="2009-10-02T19:47:25Z" uid="86259" user="hasse_osm_korinthenkacker" changeset="2716821" lat="47.9046703" lon="11.6773233">
    <tag k="addr:city" v="Otterfing"/>
    <tag k="addr:country" v="DE"/>
    <tag k="addr:housenumber" v="1"/>
    <tag k="addr:postcode" v="83624"/>
    <tag k="addr:street" v="Eduard-Moser-Straße"/>
  </node>
  <node id="287533825" version="5" timestamp="2009-10-02T19:47:24Z" uid="86259" user="hasse_osm_korinthenkacker" changeset="2716821" lat="47.9044804" lon="11.6777525">
    <tag k="addr:city" v="Otterfing"/>
    <tag k="addr:country" v="DE"/>
    <tag k="addr:housenumber" v="7"/>
    <tag k="addr:postcode" v="83624"/>
    <tag k="addr:street" v="Eduard-Moser-Straße"/>
  </node>
  <node id="287533831" version="2" timestamp="2010-06-22T07:38:52Z" uid="4467" user="Rosscoe" changeset="5048924" lat="-28.1544924" lon="153.491979"/>
  <node id="287533833" version="2" timestamp="2010-06-22T07:38:34Z" uid="4467" user="Rosscoe" changeset="5048924" lat="-28.1544135" lon="153.4921313"/>
  <node id="287533835" version="2" timestamp="2010-06-22T07:37:50Z" uid="4467" user="Rosscoe" changeset="5048924" lat="-28.1545826" lon="153.4921002"/>
  <node id="287533881" version="2" timestamp="2010-06-22T07:38:55Z" uid="4467" user="Rosscoe" changeset="5048924" lat="-28.1544322" lon="153.4920006"/>
  <node id="287533882" version="2" timestamp="2010-06-22T07:38:23Z" uid="4467" user="Rosscoe" changeset="5048924" lat="-28.1544702" lon="153.4921701"/>
  <node id="287533883" version="2" timestamp="2010-06-22T07:38:01Z" uid="4467" user="Rosscoe" changeset="5048924" lat="-28.1545842" lon="153.4920427"/>
  <node id="287533907" version="6" timestamp="2009-10-02T19:47:26Z" uid="86259" user="hasse_osm_korinthenkacker" changeset="2716821" lat="47.9045527" lon="11.6784111">
    <tag k="addr:city" v="Otterfing"/>
    <tag k="addr:country" v="DE"/>
    <tag k="addr:housenumber" v="12"/>
    <tag k="addr:postcode" v="83624"/>
    <tag k="addr:street" v="Holzhamer Bogen"/>
  </node>
  <node id="287533911" version="6" timestamp="2009-10-02T19:47:26Z" uid="86259" user="hasse_osm_korinthenkacker" changeset="2716821" lat="47.9046966" lon="11.678085">
    <tag k="addr:city" v="Otterfing"/>
    <tag k="addr:country" v="DE"/>
    <tag k="addr:housenumber" v="10"/>
    <tag k="addr:postcode" v="83624"/>
    <tag k="addr:street" v="Holzhamer Bogen"/>
  </node>
  <node id="287533935" version="5" timestamp="2009-10-02T19:47:26Z" uid="86259" user="hasse_osm_korinthenkacker" changeset="2716821" lat="47.9048026" lon="11.6777954">
    <tag k="addr:city" v="Otterfing"/>
    <tag k="addr:country" v="DE"/>
    <tag k="addr:housenumber" v="???"/>
    <tag k="addr:postcode" v="83624"/>
    <tag k="addr:street" v="Holzhamer Bogen"/>
  </node>
  <node id="287533936" version="6" timestamp="2009-10-02T19:47:26Z" uid="86259" user="hasse_osm_korinthenkacker" changeset="2716821" lat="47.9051454" lon="11.6780678">
    <tag k="addr:city" v="Otterfing"/>
    <tag k="addr:country" v="DE"/>
    <tag k="addr:housenumber" v="5"/>
    <tag k="addr:postcode" v="83624"/>
    <tag k="addr:street" v="Holzhamer Bogen"/>
  </node>
  <node id="287533951" version="6" timestamp="2009-10-02T19:47:26Z" uid="86259" user="hasse_osm_korinthenkacker" changeset="2716821" lat="47.9049958" lon="11.678454">
    <tag k="addr:city" v="Otterfing"/>
    <tag k="addr:country" v="DE"/>
    <tag k="addr:housenumber" v="12"/>
    <tag k="addr:postcode" v="83624"/>
    <tag k="addr:street" v="Holzhamer Bogen"/>
  </node>
  <node id="287533952" version="5" timestamp="2009-10-02T19:48:19Z" uid="86259" user="hasse_osm_korinthenkacker" changeset="2716821" lat="47.9048864" lon="11.6789862">
    <tag k="addr:city" v="Otterfing"/>
    <tag k="addr:country" v="DE"/>
    <tag k="addr:housenumber" v="1"/>
    <tag k="addr:postcode" v="83624"/>
    <tag k="addr:street" v="Bitzenweg"/>
  </node>
  <node id="287533958" version="5" timestamp="2009-10-02T19:48:19Z" uid="86259" user="hasse_osm_korinthenkacker" changeset="2716821" lat="47.904593" lon="11.6790205">
    <tag k="addr:city" v="Otterfing"/>
    <tag k="addr:country" v="DE"/>
    <tag k="addr:housenumber" v="11a"/>
    <tag k="addr:postcode" v="83624"/>
    <tag k="addr:street" v="Holzhamer Bogen"/>
  </node>
  <node id="287533973" version="5" timestamp="2009-10-02T19:48:20Z" uid="86259" user="hasse_osm_korinthenkacker" changeset="2716821" lat="47.904593" lon="11.6791836">
    <tag k="addr:city" v="Otterfing"/>
    <tag k="addr:country" v="DE"/>
    <tag k="addr:housenumber" v="11"/>
    <tag k="addr:postcode" v="83624"/>
    <tag k="addr:street" v="Holzhamer Bogen"/>
  </node>
  <node id="287533974" version="7" timestamp="2009-10-02T19:47:24Z" uid="86259" user="hasse_osm_korinthenkacker" changeset="2716821" lat="47.9041467" lon="11.6777697">
    <tag k="addr:city" v="Otterfing"/>
    <tag k="addr:country" v="DE"/>
    <tag k="addr:housenumber" v="18"/>
    <tag k="addr:postcode" v="83624"/>
    <tag k="addr:street" v="Eduard-Moser-Straße"/>
  </node>
  <node id="287534013" version="8" timestamp="2009-10-02T19:47:25Z" uid="86259" user="hasse_osm_korinthenkacker" changeset="2716821" lat="47.9041697" lon="11.6778469">
    <tag k="addr:city" v="Otterfing"/>
    <tag k="addr:country" v="DE"/>
    <tag k="addr:housenumber" v="20"/>
    <tag k="addr:postcode" v="83624"/>
    <tag k="addr:street" v="Eduard-Moser-Straße"/>
  </node>
  <node id="287534058" version="6" timestamp="2009-10-02T19:48:19Z" uid="86259" user="hasse_osm_korinthenkacker" changeset="2716821" lat="47.9042905" lon="11.6785421">
    <tag k="addr:city" v="Otterfing"/>
    <tag k="addr:country" v="DE"/>
    <tag k="addr:housenumber" v="14"/>
    <tag k="addr:postcode" v="83624"/>
    <tag k="addr:street" v="Holzhamer Bogen"/>
  </node>
  <node id="287534064" version="5" timestamp="2009-10-02T19:48:19Z" uid="86259" user="hasse_osm_korinthenkacker" changeset="2716821" lat="47.904302" lon="11.6790743">
    <tag k="addr:city" v="Otterfing"/>
    <tag k="addr:country" v="DE"/>
    <tag k="addr:housenumber" v="13"/>
    <tag k="addr:postcode" v="83624"/>
    <tag k="addr:street" v="Holzhamer Bogen"/>
  </node>
  <node id="287534065" version="6" timestamp="2009-10-02T19:48:19Z" uid="86259" user="hasse_osm_korinthenkacker" changeset="2716821" lat="47.9040661" lon="11.6786709">
    <tag k="addr:city" v="Otterfing"/>
    <tag k="addr:country" v="DE"/>
    <tag k="addr:housenumber" v="14a"/>
    <tag k="addr:postcode" v="83624"/>
    <tag k="addr:street" v="Holzhamer Bogen"/>
  </node>
  <node id="287534066" version="2" timestamp="2010-06-22T07:38:32Z" uid="4467" user="Rosscoe" changeset="5048924" lat="-28.1544352" lon="153.4923271"/>
  <node id="287534173" version="2" timestamp="2009-01-25T18:24:37Z" uid="4667" user="MapZ" changeset="835375" lat="49.5108702" lon="8.745428"/>
  <node id="287534173" version="3" timestamp="2009-08-30T15:39:40Z" uid="9581" user="Lobelt" changeset="2315064" lat="49.5107845" lon="8.745428"/>
  <node id="287534174" version="2" timestamp="2009-01-25T18:24:38Z" uid="4667" user="MapZ" changeset="835375" lat="49.5107218" lon="8.7459947"/>
  <node id="287534174" version="3" timestamp="2009-08-30T15:39:40Z" uid="9581" user="Lobelt" changeset="2315064" lat="49.5106694" lon="8.7459654"/>
  <node id="287534175" version="2" timestamp="2009-01-25T18:24:37Z" uid="4667" user="MapZ" changeset="835375" lat="49.5105275" lon="8.7462507"/>
  <node id="287534176" version="2" timestamp="2009-01-25T18:24:36Z" uid="4667" user="MapZ" changeset="835375" lat="49.5102169" lon="8.7463925"/>
  <node id="287534177" version="2" timestamp="2009-01-25T18:24:37Z" uid="4667" user="MapZ" changeset="835375" lat="49.5099641" lon="8.7465927"/>
  <node id="287534178" version="2" timestamp="2009-01-25T18:24:35Z" uid="4667" user="MapZ" changeset="835375" lat="49.5097786" lon="8.7468001"/>
  <node id="287534194" version="6" timestamp="2009-10-02T19:48:19Z" uid="86259" user="hasse_osm_korinthenkacker" changeset="2716821" lat="47.9040201" lon="11.6791773">
    <tag k="addr:city" v="Otterfing"/>
    <tag k="addr:country" v="DE"/>
    <tag k="addr:housenumber" v="15"/>
    <tag k="addr:postcode" v="83624"/>
    <tag k="addr:street" v="Holzhamer Bogen"/>
  </node>
  <node id="287534239" version="6" timestamp="2009-10-02T19:48:18Z" uid="86259" user="hasse_osm_korinthenkacker" changeset="2716821" lat="47.9038187" lon="11.6793146">
    <tag k="addr:city" v="Otterfing"/>
    <tag k="addr:country" v="DE"/>
    <tag k="addr:housenumber" v="17"/>
    <tag k="addr:postcode" v="83624"/>
    <tag k="addr:street" v="Holzhamer Bogen"/>
  </node>
  <node id="287534292" version="9" timestamp="2009-10-02T19:48:14Z" uid="86259" user="hasse_osm_korinthenkacker" changeset="2716821" lat="47.9030837" lon="11.6797614">
    <tag k="addr:city" v="Otterfing"/>
    <tag k="addr:country" v="DE"/>
    <tag k="addr:housenumber" v="25"/>
    <tag k="addr:postcode" v="83624"/>
    <tag k="addr:street" v="Holzhamer Bogen"/>
  </node>
  <node id="287534293" version="12" timestamp="2009-10-02T19:48:15Z" uid="86259" user="hasse_osm_korinthenkacker" changeset="2716821" lat="47.9028848" lon="11.6799766">
    <tag k="addr:city" v="Otterfing"/>
    <tag k="addr:country" v="DE"/>
    <tag k="addr:housenumber" v="8"/>
    <tag k="addr:postcode" v="83624"/>
    <tag k="addr:street" v="Holzham"/>
  </node>
  <node id="287534302" version="11" timestamp="2009-10-02T19:48:16Z" uid="86259" user="hasse_osm_korinthenkacker" changeset="2716821" lat="47.9028733" lon="11.6802255">
    <tag k="addr:city" v="Otterfing"/>
    <tag k="addr:country" v="DE"/>
    <tag k="addr:housenumber" v="9"/>
    <tag k="addr:postcode" v="83624"/>
    <tag k="addr:street" v="Holzham"/>
  </node>
  <node id="287534599" version="9" timestamp="2009-10-02T19:48:16Z" uid="86259" user="hasse_osm_korinthenkacker" changeset="2716821" lat="47.9028042" lon="11.6805602">
    <tag k="addr:city" v="Otterfing"/>
    <tag k="addr:country" v="DE"/>
    <tag k="addr:housenumber" v="3"/>
    <tag k="addr:postcode" v="83624"/>
    <tag k="addr:street" v="Holzham"/>
  </node>
  <node id="287534663" version="5" timestamp="2010-04-30T16:19:58Z" uid="58091" user="Andreas M" changeset="4567675" lat="48.2151874" lon="16.2615025">
    <tag k="ele" v="435"/>
    <tag k="name" v="Satzberg"/>
    <tag k="natural" v="peak"/>
  </node>
  <node id="287534729" version="2" timestamp="2010-04-25T14:03:36Z" uid="4467" user="Rosscoe" changeset="4521741" lat="-28.1526614" lon="153.4930733"/>
  <node id="287534730" version="3" timestamp="2010-04-23T07:03:21Z" uid="244897" user="M526244" changeset="4501041" lat="-28.1527127" lon="153.4929969">
    <tag k="direction" v="clockwise"/>
    <tag k="highway" v="mini_roundabout"/>
  </node>
  <node id="287534730" version="4" timestamp="2010-04-25T14:03:38Z" uid="4467" user="Rosscoe" changeset="4521741" lat="-28.1527127" lon="153.4929969">
    <tag k="direction" v="clockwise"/>
    <tag k="highway" v="mini_roundabout"/>
  </node>
  <node id="287534837" version="7" timestamp="2009-09-22T15:39:22Z" uid="58091" user="Andreas M" changeset="2572856" lat="48.2212568" lon="16.2658126">
    <tag k="ele" v="449"/>
    <tag k="man_made" v="tower"/>
    <tag k="name" v="Jubiläumswarte"/>
    <tag k="tourism" v="viewpoint"/>
  </node>
  <node id="287534837" version="8" timestamp="2009-09-23T13:52:25Z" uid="58091" user="Andreas M" changeset="2595669" lat="48.2212568" lon="16.2658126">
    <tag k="ele" v="449"/>
    <tag k="man_made" v="tower"/>
    <tag k="name" v="Jubiläumswarte"/>
    <tag k="step_count" v="183"/>
    <tag k="tourism" v="viewpoint"/>
  </node>
  <node id="287534939" version="2" timestamp="2010-04-25T14:03:37Z" uid="4467" user="Rosscoe" changeset="4521741" lat="-28.1533788" lon="153.4915384"/>
  <node id="287534939" version="3" timestamp="2010-06-22T07:37:51Z" uid="4467" user="Rosscoe" changeset="5048924" lat="-28.1533612" lon="153.4915464"/>
  <node id="287535031" version="2" timestamp="2010-04-25T14:03:30Z" uid="4467" user="Rosscoe" changeset="4521741" lat="-28.1527497" lon="153.4929005"/>
  <node id="287535088" version="2" timestamp="2010-04-25T14:03:36Z" uid="4467" user="Rosscoe" changeset="4521741" lat="-28.1535197" lon="153.4914484"/>
  <node id="287535088" version="3" timestamp="2010-06-22T07:38:06Z" uid="4467" user="Rosscoe" changeset="5048924" lat="-28.1535021" lon="153.4914564"/>
  <node id="287535090" version="2" timestamp="2010-04-25T14:03:26Z" uid="4467" user="Rosscoe" changeset="4521741" lat="-28.153421" lon="153.4913609"/>
  <node id="287535090" version="3" timestamp="2010-06-22T07:38:48Z" uid="4467" user="Rosscoe" changeset="5048924" lat="-28.1534034" lon="153.4913694"/>
  <node id="287535092" version="2" timestamp="2010-04-25T14:03:30Z" uid="4467" user="Rosscoe" changeset="4521741" lat="-28.153331" lon="153.4914668"/>
  <node id="287535092" version="3" timestamp="2010-06-22T07:38:00Z" uid="4467" user="Rosscoe" changeset="5048924" lat="-28.1533134" lon="153.4914754"/>
  <node id="287535093" version="2" timestamp="2010-04-25T14:03:37Z" uid="4467" user="Rosscoe" changeset="4521741" lat="-28.1534212" lon="153.4915504"/>
  <node id="287535093" version="3" timestamp="2010-06-22T07:37:33Z" uid="4467" user="Rosscoe" changeset="5048924" lat="-28.1534036" lon="153.4915584"/>
  <node id="287535132" version="2" timestamp="2009-09-20T14:05:37Z" uid="58091" user="Andreas M" changeset="2545974" lat="48.2179193" lon="16.275415"/>
  <node id="287535133" version="2" timestamp="2009-09-20T14:05:37Z" uid="58091" user="Andreas M" changeset="2545974" lat="48.217864" lon="16.275514"/>
  <node id="287535134" version="2" timestamp="2009-09-20T14:05:37Z" uid="58091" user="Andreas M" changeset="2545974" lat="48.2174081" lon="16.2756897"/>
  <node id="287535135" version="2" timestamp="2009-09-20T14:05:37Z" uid="58091" user="Andreas M" changeset="2545974" lat="48.2173514" lon="16.2753147"/>
  <node id="287535136" version="2" timestamp="2009-09-20T14:05:37Z" uid="58091" user="Andreas M" changeset="2545974" lat="48.2176215" lon="16.275238"/>
  <node id="287535241" version="2" timestamp="2010-04-25T14:03:30Z" uid="4467" user="Rosscoe" changeset="4521741" lat="-28.1534864" lon="153.4913833"/>
  <node id="287535241" version="3" timestamp="2010-06-22T07:38:12Z" uid="4467" user="Rosscoe" changeset="5048924" lat="-28.1534688" lon="153.4913914"/>
  <node id="287535242" version="2" timestamp="2010-04-25T14:03:37Z" uid="4467" user="Rosscoe" changeset="4521741" lat="-28.1533636" lon="153.4913835"/>
  <node id="287535242" version="3" timestamp="2010-06-22T07:37:47Z" uid="4467" user="Rosscoe" changeset="5048924" lat="-28.153346" lon="153.4913924"/>
  <node id="287535608" version="2" timestamp="2010-04-25T14:03:24Z" uid="4467" user="Rosscoe" changeset="4521741" lat="-28.1527793" lon="153.4930589"/>
  <node id="287535609" version="2" timestamp="2010-04-25T14:03:25Z" uid="4467" user="Rosscoe" changeset="4521741" lat="-28.1530603" lon="153.4933168"/>
  <node id="287535644" version="2" timestamp="2010-04-25T14:03:24Z" uid="4467" user="Rosscoe" changeset="4521741" lat="-28.1526348" lon="153.4929293"/>
  <node id="287535652" version="2" timestamp="2010-04-23T07:03:29Z" uid="244897" user="M526244" changeset="4501041" lat="-28.1515897" lon="153.4935434">
    <tag k="highway" v="mini_roundabout"/>
  </node>
  <node id="287535652" version="3" timestamp="2010-04-25T14:03:25Z" uid="4467" user="Rosscoe" changeset="4521741" lat="-28.1515897" lon="153.493543">
    <tag k="highway" v="turning_circle"/>
  </node>
  <node id="287535672" version="3" timestamp="2009-09-20T14:05:37Z" uid="58091" user="Andreas M" changeset="2545974" lat="48.2177249" lon="16.2748704"/>
  <node id="287535673" version="3" timestamp="2009-09-20T14:05:37Z" uid="58091" user="Andreas M" changeset="2545974" lat="48.2177363" lon="16.2747825"/>
  <node id="287535680" version="3" timestamp="2009-09-20T14:05:37Z" uid="58091" user="Andreas M" changeset="2545974" lat="48.2173435" lon="16.27401"/>
  <node id="287535681" version="3" timestamp="2009-09-20T14:05:37Z" uid="58091" user="Andreas M" changeset="2545974" lat="48.2171195" lon="16.2741275"/>
  <node id="287535682" version="3" timestamp="2009-09-20T14:05:37Z" uid="58091" user="Andreas M" changeset="2545974" lat="48.2170952" lon="16.274311"/>
  <node id="287535683" version="3" timestamp="2009-09-20T14:05:37Z" uid="58091" user="Andreas M" changeset="2545974" lat="48.2171863" lon="16.2745765"/>
  <node id="287535684" version="3" timestamp="2009-09-20T14:05:37Z" uid="58091" user="Andreas M" changeset="2545974" lat="48.2173734" lon="16.274856"/>
  <node id="287535882" version="2" timestamp="2010-06-22T07:39:44Z" uid="4467" user="Rosscoe" changeset="5048924" lat="-28.1553054" lon="153.4922903"/>
  <node id="287536113" version="2" timestamp="2010-06-22T07:39:29Z" uid="4467" user="Rosscoe" changeset="5048924" lat="-28.1543519" lon="153.4909341"/>
  <node id="287536114" version="2" timestamp="2010-06-22T07:37:57Z" uid="4467" user="Rosscoe" changeset="5048924" lat="-28.1543631" lon="153.4909721"/>
  <node id="287536177" version="2" timestamp="2010-04-25T14:03:29Z" uid="4467" user="Rosscoe" changeset="4521741" lat="-28.1536077" lon="153.4904666"/>
  <node id="287536184" version="2" timestamp="2010-06-22T07:37:53Z" uid="4467" user="Rosscoe" changeset="5048924" lat="-28.1542956" lon="153.4908169"/>
  <node id="287536187" version="2" timestamp="2010-06-22T07:38:10Z" uid="4467" user="Rosscoe" changeset="5048924" lat="-28.1544777" lon="153.4912602"/>
  <node id="287536609" version="2" timestamp="2010-04-25T14:03:30Z" uid="4467" user="Rosscoe" changeset="4521741" lat="-28.1535774" lon="153.4903886"/>
  <node id="287536610" version="2" timestamp="2010-04-25T14:03:37Z" uid="4467" user="Rosscoe" changeset="4521741" lat="-28.1534866" lon="153.4901746"/>
  <node id="287536611" version="2" timestamp="2010-04-25T14:03:25Z" uid="4467" user="Rosscoe" changeset="4521741" lat="-28.1534261" lon="153.4900886"/>
  <node id="287536612" version="2" timestamp="2010-04-25T14:03:26Z" uid="4467" user="Rosscoe" changeset="4521741" lat="-28.153358" lon="153.4900366"/>
  <node id="287536613" version="2" timestamp="2010-04-23T07:03:18Z" uid="244897" user="M526244" changeset="4501041" lat="-28.1532566" lon="153.4899874">
    <tag k="highway" v="mini_roundabout"/>
  </node>
  <node id="287536613" version="3" timestamp="2010-04-25T14:03:28Z" uid="4467" user="Rosscoe" changeset="4521741" lat="-28.1532566" lon="153.489987">
    <tag k="highway" v="turning_circle"/>
  </node>
  <node id="287536668" version="2" timestamp="2010-06-22T07:39:37Z" uid="4467" user="Rosscoe" changeset="5048924" lat="-28.1543141" lon="153.4908311"/>
  <node id="287537024" version="3" timestamp="2010-03-07T22:51:04Z" uid="30201" user="rrankin" changeset="4067464" lat="-34.492781" lon="150.7952235">
    <tag k="highway" v="traffic_signals"/>
  </node>
  <node id="287537238" version="3" timestamp="2010-04-23T07:03:24Z" uid="244897" user="M526244" changeset="4501041" lat="-28.1513324" lon="153.4909856">
    <tag k="highway" v="mini_roundabout"/>
  </node>
  <node id="287537238" version="4" timestamp="2010-04-25T14:03:30Z" uid="4467" user="Rosscoe" changeset="4521741" lat="-28.1513228" lon="153.4910072">
    <tag k="highway" v="turning_circle"/>
  </node>
  <node id="287537614" version="2" timestamp="2010-04-25T14:03:38Z" uid="4467" user="Rosscoe" changeset="4521741" lat="-28.1512568" lon="153.4910371"/>
  <node id="287537615" version="2" timestamp="2010-04-25T14:03:30Z" uid="4467" user="Rosscoe" changeset="4521741" lat="-28.1511318" lon="153.4912036"/>
  <node id="287537689" version="2" timestamp="2010-04-25T14:03:30Z" uid="4467" user="Rosscoe" changeset="4521741" lat="-28.1514404" lon="153.4909835"/>
  <node id="287538277" version="3" timestamp="2011-01-16T06:59:21Z" uid="4467" user="Rosscoe" changeset="6984491" lat="-28.151908" lon="153.4840934"/>
  <node id="287538278" version="2" timestamp="2011-01-16T06:59:20Z" uid="4467" user="Rosscoe" changeset="6984491" lat="-28.1516881" lon="153.4838531"/>
  <node id="287538279" version="2" timestamp="2011-01-16T06:59:20Z" uid="4467" user="Rosscoe" changeset="6984491" lat="-28.1514914" lon="153.4836557"/>
  <node id="287538280" version="2" timestamp="2011-01-16T06:59:19Z" uid="4467" user="Rosscoe" changeset="6984491" lat="-28.1508144" lon="153.4830482"/>
  <node id="287538281" version="2" timestamp="2011-01-16T06:59:21Z" uid="4467" user="Rosscoe" changeset="6984491" lat="-28.1507724" lon="153.4829776"/>
  <node id="287538282" version="3" timestamp="2011-01-16T06:59:18Z" uid="4467" user="Rosscoe" changeset="6984491" lat="-28.1506988" lon="153.4829126"/>
  <node id="287538283" version="2" timestamp="2011-01-16T06:59:18Z" uid="4467" user="Rosscoe" changeset="6984491" lat="-28.1506578" lon="153.4827839"/>
  <node id="287538284" version="2" timestamp="2011-01-16T06:59:19Z" uid="4467" user="Rosscoe" changeset="6984491" lat="-28.150643" lon="153.4826461"/>
  <node id="287538285" version="2" timestamp="2011-01-16T06:59:20Z" uid="4467" user="Rosscoe" changeset="6984491" lat="-28.1506546" lon="153.4824831"/>
  <node id="287538295" version="2" timestamp="2011-01-16T06:59:17Z" uid="4467" user="Rosscoe" changeset="6984491" lat="-28.1517108" lon="153.4825056">
    <tag k="highway" v="turning_circle"/>
  </node>
  <node id="287538334" version="2" timestamp="2011-01-16T06:59:19Z" uid="4467" user="Rosscoe" changeset="6984491" lat="-28.1521204" lon="153.4869728"/>
  <node id="287538523" version="2" timestamp="2011-01-16T06:59:18Z" uid="4467" user="Rosscoe" changeset="6984491" lat="-28.150422" lon="153.4841437">
    <tag k="highway" v="turning_circle"/>
  </node>
  <node id="287538783" version="2" timestamp="2011-01-16T06:59:17Z" uid="4467" user="Rosscoe" changeset="6984491" lat="-28.1502729" lon="153.4812181">
    <tag k="highway" v="turning_circle"/>
  </node>
  <node id="287538819" version="3" timestamp="2011-01-16T06:59:20Z" uid="4467" user="Rosscoe" changeset="6984491" lat="-28.1514668" lon="153.48699"/>
  <node id="287538820" version="2" timestamp="2011-01-16T06:59:18Z" uid="4467" user="Rosscoe" changeset="6984491" lat="-28.1522447" lon="153.4869683">
    <tag k="highway" v="turning_circle"/>
  </node>
  <node id="287538840" version="2" timestamp="2011-01-16T06:59:20Z" uid="4467" user="Rosscoe" changeset="6984491" lat="-28.1505075" lon="153.4830806"/>
  <node id="287538841" version="2" timestamp="2011-01-16T06:59:20Z" uid="4467" user="Rosscoe" changeset="6984491" lat="-28.1504052" lon="153.4831313">
    <tag k="highway" v="turning_circle"/>
  </node>
  <node id="287538842" version="2" timestamp="2011-01-16T06:59:18Z" uid="4467" user="Rosscoe" changeset="6984491" lat="-28.1488511" lon="153.4843456">
    <tag k="highway" v="turning_circle"/>
  </node>
  <node id="287538843" version="2" timestamp="2011-01-16T06:59:20Z" uid="4467" user="Rosscoe" changeset="6984491" lat="-28.1487367" lon="153.4844024"/>
  <node id="287538844" version="2" timestamp="2011-01-16T06:59:20Z" uid="4467" user="Rosscoe" changeset="6984491" lat="-28.1483885" lon="153.4844625"/>
  <node id="287538845" version="2" timestamp="2011-01-16T06:59:21Z" uid="4467" user="Rosscoe" changeset="6984491" lat="-28.1481539" lon="153.484514"/>
  <node id="287538871" version="2" timestamp="2011-01-16T06:59:20Z" uid="4467" user="Rosscoe" changeset="6984491" lat="-28.1515822" lon="153.4874923"/>
  <node id="287538872" version="2" timestamp="2011-01-16T06:59:20Z" uid="4467" user="Rosscoe" changeset="6984491" lat="-28.1515533" lon="153.4876112">
    <tag k="highway" v="turning_circle"/>
  </node>
  <node id="287538939" version="1" timestamp="2008-08-13T09:08:37Z" uid="43863" user="Rundling" changeset="218683" lat="53.0896825" lon="10.7320395"/>
  <node id="287538939" version="3" timestamp="2008-12-16T19:25:45Z" uid="43863" user="Rundling" changeset="424249" lat="53.0896781" lon="10.732025"/>
  <node id="287538940" version="1" timestamp="2008-08-13T09:08:37Z" uid="43863" user="Rundling" changeset="218683" lat="53.0900623" lon="10.733745"/>
  <node id="287538940" version="2" timestamp="2008-08-13T09:14:18Z" uid="43863" user="Rundling" changeset="218683" lat="53.0900623" lon="10.733745"/>
  <node id="287539003" version="1" timestamp="2008-08-13T09:09:14Z" uid="43863" user="Rundling" changeset="218683" lat="53.0901103" lon="10.7339106"/>
  <node id="287539003" version="2" timestamp="2008-11-25T14:00:33Z" uid="43863" user="Rundling" changeset="791826" lat="53.0901412" lon="10.733975"/>
  <node id="287539003" version="3" timestamp="2008-12-03T21:23:21Z" uid="43863" user="Rundling" changeset="82725" lat="53.0901412" lon="10.733975"/>
  <node id="287539051" version="2" timestamp="2011-01-16T06:59:18Z" uid="4467" user="Rosscoe" changeset="6984491" lat="-28.1498416" lon="153.4846427">
    <tag k="highway" v="turning_circle"/>
  </node>
  <node id="287539052" version="2" timestamp="2011-01-16T06:59:19Z" uid="4467" user="Rosscoe" changeset="6984491" lat="-28.1497611" lon="153.4847797"/>
  <node id="287539054" version="2" timestamp="2011-01-16T06:59:18Z" uid="4467" user="Rosscoe" changeset="6984491" lat="-28.1487234" lon="153.4876713"/>
  <node id="287539055" version="2" timestamp="2011-01-16T06:59:18Z" uid="4467" user="Rosscoe" changeset="6984491" lat="-28.1486474" lon="153.4878524"/>
  <node id="287539056" version="2" timestamp="2011-01-16T06:59:19Z" uid="4467" user="Rosscoe" changeset="6984491" lat="-28.14858" lon="153.4879856"/>
  <node id="287539057" version="2" timestamp="2011-01-16T06:59:20Z" uid="4467" user="Rosscoe" changeset="6984491" lat="-28.1484968" lon="153.48808"/>
  <node id="287539058" version="2" timestamp="2011-01-16T06:59:17Z" uid="4467" user="Rosscoe" changeset="6984491" lat="-28.1484211" lon="153.4881573">
    <tag k="highway" v="turning_circle"/>
  </node>
  <node id="287539088" version="1" timestamp="2008-08-13T09:09:58Z" uid="43863" user="Rundling" changeset="218683" lat="53.0897598" lon="10.7316704">
    <tag k="created_by" v="Potlatch 0.10b"/>
    <tag k="name" v="EDEKA"/>
    <tag k="shop" v="supermarket"/>
  </node>
  <node id="287539088" version="2" timestamp="2008-12-03T19:02:07Z" uid="43863" user="Rundling" changeset="82725" lat="53.090056" lon="10.731881">
    <tag k="created_by" v="Potlatch 0.10b"/>
    <tag k="name" v="EDEKA"/>
    <tag k="shop" v="supermarket"/>
  </node>
  <node id="287539104" version="1" timestamp="2008-08-13T09:10:19Z" uid="43863" user="Rundling" changeset="218683" lat="53.0895948" lon="10.7320395"/>
  <node id="287539104" version="3" timestamp="2008-12-16T19:25:45Z" uid="43863" user="Rundling" changeset="424249" lat="53.0895948" lon="10.7320498"/>
  <node id="287539105" version="1" timestamp="2008-08-13T09:10:19Z" uid="43863" user="Rundling" changeset="218683" lat="53.0895485" lon="10.7316275"/>
  <node id="287539106" version="1" timestamp="2008-08-13T09:10:19Z" uid="43863" user="Rundling" changeset="218683" lat="53.0898217" lon="10.7315674"/>
  <node id="287539107" version="1" timestamp="2008-08-13T09:10:19Z" uid="43863" user="Rundling" changeset="218683" lat="53.0899615" lon="10.731943"/>
  <node id="287539107" version="3" timestamp="2008-12-16T19:25:42Z" uid="43863" user="Rundling" changeset="424249" lat="53.0899522" lon="10.7318255"/>
  <node id="287539159" version="1" timestamp="2008-08-13T09:10:43Z" uid="43863" user="Rundling" changeset="218683" lat="53.090033" lon="10.7316189">
    <tag k="amenity" v="fuel"/>
    <tag k="created_by" v="Potlatch 0.10b"/>
    <tag k="name" v="LTG"/>
  </node>
  <node id="287539159" version="2" timestamp="2008-08-13T09:49:30Z" uid="43863" user="Rundling" changeset="218683" lat="53.0900742" lon="10.7316189">
    <tag k="amenity" v="fuel"/>
    <tag k="created_by" v="Potlatch 0.10b"/>
    <tag k="name" v="LTG"/>
  </node>
  <node id="287539162" version="1" timestamp="2008-08-13T09:10:54Z" uid="43863" user="Rundling" changeset="218683" lat="53.0902907" lon="10.7318078"/>
  <node id="287539162" version="2" timestamp="2008-12-03T21:23:20Z" uid="43863" user="Rundling" changeset="82725" lat="53.0902907" lon="10.7318078"/>
  <node id="287539163" version="1" timestamp="2008-08-13T09:10:54Z" uid="43863" user="Rundling" changeset="218683" lat="53.0899615" lon="10.731943"/>
  <node id="287539163" version="2" timestamp="2008-08-13T09:49:30Z" uid="43863" user="Rundling" changeset="218683" lat="53.0899615" lon="10.731943"/>
  <node id="287539473" version="1" timestamp="2008-08-13T09:11:32Z" uid="43863" user="Rundling" changeset="218683" lat="53.0921721" lon="10.7311211">
    <tag k="amenity" v="atm"/>
    <tag k="created_by" v="Potlatch 0.10b"/>
    <tag k="name" v="Volksbank"/>
  </node>
  <node id="287539508" version="1" timestamp="2008-08-13T09:11:49Z" uid="43863" user="Rundling" changeset="218683" lat="53.0930123" lon="10.727954"/>
  <node id="287539509" version="1" timestamp="2008-08-13T09:11:49Z" uid="43863" user="Rundling" changeset="218683" lat="53.091868" lon="10.7273617">
    <tag k="ele" v="42.1832275"/>
    <tag k="name" v="004"/>
    <tag k="wpt_description" v="13-AUG-08 9:32:58"/>
    <tag k="wpt_symbol" v="Flag, Blue"/>
  </node>
  <node id="287539509" version="2" timestamp="2008-08-13T09:12:09Z" uid="43863" user="Rundling" changeset="218683" lat="53.091868" lon="10.7273617">
    <tag k="ele" v="42.1832275"/>
    <tag k="name" v="004"/>
    <tag k="wpt_description" v="13-AUG-08 9:32:58"/>
    <tag k="wpt_symbol" v="Flag, Blue"/>
  </node>
  <node id="287539510" version="1" timestamp="2008-08-13T09:11:49Z" uid="43863" user="Rundling" changeset="218683" lat="53.0917598" lon="10.7272931"/>
  <node id="287539510" version="2" timestamp="2008-08-13T09:12:09Z" uid="43863" user="Rundling" changeset="218683" lat="53.0917598" lon="10.7272931"/>
  <node id="287539581" version="1" timestamp="2008-08-13T09:12:09Z" uid="43863" user="Rundling" changeset="218683" lat="53.0918113" lon="10.7273531"/>
  <node id="287539581" version="2" timestamp="2008-12-30T15:31:03Z" uid="43863" user="Rundling" changeset="671125" lat="53.0918113" lon="10.7273531"/>
  <node id="287539596" version="1" timestamp="2008-08-13T09:12:26Z" uid="43863" user="Rundling" changeset="218683" lat="53.0918165" lon="10.7274733">
    <tag k="amenity" v="recycling"/>
    <tag k="created_by" v="Potlatch 0.10b"/>
  </node>
  <node id="287539596" version="2" timestamp="2008-08-13T09:12:28Z" uid="43863" user="Rundling" changeset="218683" lat="53.0918165" lon="10.7274561">
    <tag k="amenity" v="recycling"/>
    <tag k="created_by" v="Potlatch 0.10b"/>
  </node>
  <node id="287539687" version="1" timestamp="2008-08-13T09:13:00Z" uid="43863" user="Rundling" changeset="218683" lat="53.0930329" lon="10.7279625"/>
  <node id="287539687" version="2" timestamp="2008-08-19T10:53:29Z" uid="43863" user="Rundling" changeset="320565" lat="53.0930329" lon="10.7279625"/>
  <node id="287539688" version="1" timestamp="2008-08-13T09:13:00Z" uid="43863" user="Rundling" changeset="218683" lat="53.0934143" lon="10.72816"/>
  <node id="287539688" version="2" timestamp="2008-08-13T09:15:41Z" uid="43863" user="Rundling" changeset="218683" lat="53.0934143" lon="10.72816"/>
  <node id="287539689" version="1" timestamp="2008-08-13T09:13:00Z" uid="43863" user="Rundling" changeset="218683" lat="53.0943317" lon="10.728057"/>
  <node id="287539690" version="1" timestamp="2008-08-13T09:13:00Z" uid="43863" user="Rundling" changeset="218683" lat="53.0955996" lon="10.7268382"/>
  <node id="287539690" version="2" timestamp="2008-08-13T09:15:41Z" uid="43863" user="Rundling" changeset="218683" lat="53.0955996" lon="10.7268382"/>
  <node id="287539691" version="1" timestamp="2008-08-13T09:13:00Z" uid="43863" user="Rundling" changeset="218683" lat="53.0972231" lon="10.7251816"/>
  <node id="287539691" version="2" timestamp="2009-06-10T16:53:03Z" uid="43863" user="Rundling" changeset="1479536" lat="53.097414" lon="10.7250171"/>
  <node id="287539968" version="1" timestamp="2008-08-13T09:14:42Z" uid="43863" user="Rundling" changeset="218683" lat="53.0899615" lon="10.731943"/>
</osm>
