<?xml version='1.0' encoding='UTF-8'?>
<osm version="0.6" generator="libosmium/2.20.0">
  <node id="287620020" version="4" timestamp="2009-05-01T20:49:27Z" uid="20587" user="balrog-kun" changeset="1042242" lat="52.8771177" lon="17.2045337">
    <tag k="addr:postcode" v="62-100"/>
    <tag k="created_by" v="Potlatch 0.10b"/>
    <tag k="is_in" v="gmina Wągrowiec, powiat wągrowiecki, województwo wielkopolskie, Poland"/>
    <tag k="is_in:country" v="Poland"/>
    <tag k="is_in:county" v="powiat wągrowiecki"/>
    <tag k="is_in:municipality" v="gmina Wągrowiec"/>
    <tag k="is_in:province" v="województwo wielkopolskie"/>
    <tag k="name" v="Kopaszyn"/>
    <tag k="place" v="village"/>
    <tag k="teryt:rm" v="01"/>
    <tag k="teryt:simc" v="0531849"/>
    <tag k="teryt:stan_na" v="2009-01-01"/>
    <tag k="teryt:terc" v="3028072"/>
    <tag k="teryt:updated_by" v="teryt2osm combine.py v. 43"/>
    <tag k="wikipedia" v="Kopaszyn, Greater Poland Voivodeship"/>
  </node>
  <node id="287620020" version="6" timestamp="2010-07-24T13:55:08Z" uid="20587" user="balrog-kun" changeset="5304120" lat="52.8781558" lon="17.2049444">
    <tag k="addr:postcode" v="62-100"/>
    <tag k="alt_name" v="Kopaszyjn"/>
    <tag k="is_in" v="gmina Wągrowiec, powiat wągrowiecki, województwo wielkopolskie, Poland"/>
    <tag k="is_in:country" v="Poland"/>
    <tag k="is_in:county" v="powiat wągrowiecki"/>
    <tag k="is_in:municipality" v="gmina Wągrowiec"/>
    <tag k="is_in:province" v="województwo wielkopolskie"/>
    <tag k="name" v="Kopaszyn"/>
    <tag k="note" v="UMP: Kopaszyjn"/>
    <tag k="place" v="village"/>
    <tag k="teryt:rm" v="01"/>
    <tag k="teryt:simc" v="0531849"/>
    <tag k="teryt:stan_na" v="2009-01-01"/>
    <tag k="teryt:terc" v="3028072"/>
    <tag k="teryt:updated_by" v="teryt2osm combine.py v. 43"/>
    <tag k="wikipedia" v="Kopaszyn, Greater Poland Voivodeship"/>
  </node>
  <node id="287627487" version="1" timestamp="2008-08-13T15:19:12Z" uid="8619" user="cetest" changeset="226374" lat="51.8262214" lon="4.5025623">
    <tag k="man_made" v="beacon"/>
    <tag k="name" v="Transmitter"/>
    <tag k="note" v="Arrow talks 828 kHz"/>
  </node>
  <node id="287628242" version="1" timestamp="2008-08-13T15:22:36Z" uid="58091" user="Andreas M" changeset="221015" lat="48.2246554" lon="16.3580847"/>
  <node id="287628243" version="1" timestamp="2008-08-13T15:22:36Z" uid="58091" user="Andreas M" changeset="221015" lat="48.2244481" lon="16.3581679"/>
  <node id="287628245" version="1" timestamp="2008-08-13T15:22:37Z" uid="58091" user="Andreas M" changeset="221015" lat="48.2247195" lon="16.3595826"/>
  <node id="287628246" version="1" timestamp="2008-08-13T15:22:37Z" uid="58091" user="Andreas M" changeset="221015" lat="48.2249174" lon="16.3594953"/>
  <node id="287629155" version="2" timestamp="2011-04-30T11:41:12Z" uid="9581" user="Lobelt" changeset="8010951" lat="49.6239434" lon="8.2289245"/>
  <node id="287629161" version="2" timestamp="2011-04-30T11:41:40Z" uid="9581" user="Lobelt" changeset="8010951" lat="49.622802" lon="8.2299129"/>
  <node id="287629164" version="2" timestamp="2011-04-30T11:41:12Z" uid="9581" user="Lobelt" changeset="8010951" lat="49.6221746" lon="8.2300196">
    <tag k="name" v="Hohen-Sülzen"/>
    <tag k="traffic_sign" v="city_limit"/>
  </node>
  <node id="287629165" version="2" timestamp="2011-04-30T11:41:32Z" uid="9581" user="Lobelt" changeset="8010951" lat="49.6218753" lon="8.2299573"/>
  <node id="287629172" version="3" timestamp="2011-04-30T11:41:28Z" uid="9581" user="Lobelt" changeset="8010951" lat="49.620488" lon="8.2284165"/>
  <node id="287629174" version="3" timestamp="2011-04-30T11:41:41Z" uid="9581" user="Lobelt" changeset="8010951" lat="49.6204304" lon="8.2282204"/>
  <node id="287629316" version="2" timestamp="2010-06-22T06:51:59Z" uid="4467" user="Rosscoe" changeset="5048688" lat="-37.8032527" lon="144.951861"/>
  <node id="287629328" version="2" timestamp="2010-06-22T06:54:46Z" uid="4467" user="Rosscoe" changeset="5048688" lat="-37.8036709" lon="144.9517786"/>
  <node id="287629337" version="2" timestamp="2010-06-22T06:54:33Z" uid="4467" user="Rosscoe" changeset="5048688" lat="-37.8036464" lon="144.9514489"/>
</osm>
