<?xml version='1.0' encoding='UTF-8'?>
<osm version="0.6" generator="libosmium/2.20.0">
  <node id="288270000" version="7" timestamp="2009-05-01T20:51:19Z" uid="20587" user="balrog-kun" changeset="1042242" lat="52.5093881" lon="16.7420826">
    <tag k="addr:postcode" v="62-090"/>
    <tag k="created_by" v="Merkaartor 0.12"/>
    <tag k="is_in" v="gmina Rokietnica, powiat poznański, województwo wielkopolskie, Poland"/>
    <tag k="is_in:country" v="Poland"/>
    <tag k="is_in:county" v="powiat poznański"/>
    <tag k="is_in:municipality" v="gmina Rokietnica"/>
    <tag k="is_in:province" v="województwo wielkopolskie"/>
    <tag k="name" v="Rokietnica"/>
    <tag k="place" v="village"/>
    <tag k="population" v="1900"/>
    <tag k="source:population" v="wikipedia"/>
    <tag k="teryt:rm" v="01"/>
    <tag k="teryt:simc" v="0594117"/>
    <tag k="teryt:stan_na" v="2009-01-01"/>
    <tag k="teryt:terc" v="3021132"/>
    <tag k="teryt:updated_by" v="teryt2osm combine.py v. 43"/>
    <tag k="wikipedia" v="Rokietnica, Greater Poland Voivodeship"/>
  </node>
  <node id="288270000" version="8" timestamp="2010-04-05T17:04:36Z" uid="163746" user="anti_bot-nonsense" changeset="4334877" lat="52.5093881" lon="16.7420826">
    <tag k="addr:postcode" v="62-090"/>
    <tag k="is_in" v="gmina Rokietnica, powiat poznański, województwo wielkopolskie, Poland"/>
    <tag k="is_in:country" v="Poland"/>
    <tag k="is_in:county" v="powiat poznański"/>
    <tag k="is_in:municipality" v="gmina Rokietnica"/>
    <tag k="is_in:province" v="województwo wielkopolskie"/>
    <tag k="name" v="Rokietnica"/>
    <tag k="place" v="village"/>
    <tag k="population" v="1900"/>
    <tag k="source:population" v="wikipedia"/>
    <tag k="teryt:rm" v="01"/>
    <tag k="teryt:simc" v="0594117"/>
    <tag k="teryt:stan_na" v="2009-01-01"/>
    <tag k="teryt:terc" v="3021132"/>
    <tag k="wikipedia" v="Rokietnica, Greater Poland Voivodeship"/>
  </node>
  <node id="288270000" version="9" timestamp="2010-04-11T04:38:31Z" uid="20587" user="balrog-kun" changeset="4389130" lat="52.5103217" lon="16.7421238">
    <tag k="addr:postcode" v="62-090"/>
    <tag k="is_in" v="gmina Rokietnica, powiat poznański, województwo wielkopolskie, Poland"/>
    <tag k="is_in:country" v="Poland"/>
    <tag k="is_in:county" v="powiat poznański"/>
    <tag k="is_in:municipality" v="gmina Rokietnica"/>
    <tag k="is_in:province" v="województwo wielkopolskie"/>
    <tag k="name" v="Rokietnica"/>
    <tag k="place" v="village"/>
    <tag k="population" v="1900"/>
    <tag k="source:population" v="wikipedia"/>
    <tag k="teryt:rm" v="01"/>
    <tag k="teryt:simc" v="0594117"/>
    <tag k="teryt:stan_na" v="2009-01-01"/>
    <tag k="teryt:terc" v="3021132"/>
    <tag k="wikipedia" v="Rokietnica, Greater Poland Voivodeship"/>
  </node>
  <node id="288273298" version="9" timestamp="2009-08-26T17:51:24Z" uid="36809" user="pfoten_weg_!_" changeset="2270114" lat="54.3665937" lon="12.6899802"/>
  <node id="288276048" version="3" timestamp="2011-03-20T20:41:48Z" uid="6269" user="Mueck" changeset="7621548" lat="49.0085779" lon="8.4003554"/>
  <node id="288276050" version="3" timestamp="2011-03-20T20:41:46Z" uid="6269" user="Mueck" changeset="7621548" lat="49.0080994" lon="8.401872"/>
  <node id="288278136" version="4" timestamp="2009-08-24T21:59:21Z" uid="36809" user="pfoten_weg_!_" changeset="2250603" lat="54.3359909" lon="12.714735">
    <tag k="aeroway" v="aerodrome"/>
    <tag k="iata" v="BBH"/>
    <tag k="icao" v="EDBH"/>
    <tag k="name" v="Ostseeflughafen Stralsund-Barth"/>
    <tag k="nore:de" v="Warnung"/>
  </node>
  <node id="288278136" version="5" timestamp="2009-08-24T22:30:16Z" uid="36809" user="pfoten_weg_!_" changeset="2250754" lat="54.3359909" lon="12.714735">
    <tag k="aeroway" v="aerodrome"/>
    <tag k="iata" v="BBH"/>
    <tag k="icao" v="EDBH"/>
    <tag k="name" v="Ostseeflughafen Stralsund-Barth"/>
  </node>
  <node id="288278136" version="6" timestamp="2009-08-24T22:42:55Z" uid="36809" user="pfoten_weg_!_" changeset="2250819" lat="54.3359909" lon="12.714735">
    <tag k="aeroway" v="aerodrome"/>
    <tag k="iata" v="BBH"/>
    <tag k="icao" v="EDBH"/>
    <tag k="name" v="Ostseeflughafen Stralsund-Barth"/>
  </node>
</osm>
