<?xml version='1.0' encoding='UTF-8'?>
<osm version="0.6" generator="libosmium/2.20.0">
  <node id="288360713" version="2" timestamp="2008-10-11T20:23:50Z" uid="1066" user="pavel" changeset="254692" lat="50.0711437" lon="14.2509361"/>
  <node id="288361805" version="2" timestamp="2008-12-20T14:23:07Z" uid="6975" user="ulfl" changeset="499085" lat="54.0780836" lon="12.0983687">
    <tag k="name" v="Hundesalon Grantz"/>
    <tag k="note" v="Hundefriseur"/>
    <tag k="shop" v="pet"/>
  </node>
  <node id="288365284" version="2" timestamp="2010-02-14T17:00:38Z" uid="74617" user="JohnSmith" changeset="3875836" lat="-27.4668992" lon="153.018903">
    <tag k="addr:housenumber" v="160"/>
    <tag k="addr:street" v="Roma Street"/>
    <tag k="building" v="yes"/>
    <tag k="name" v="Abbey Apartments"/>
  </node>
  <node id="288365295" version="5" timestamp="2010-02-14T17:00:39Z" uid="74617" user="JohnSmith" changeset="3875836" lat="-27.4667963" lon="153.019013">
    <tag k="amenity" v="cafe"/>
    <tag k="name" v="Chez Nous"/>
  </node>
  <node id="288365359" version="4" timestamp="2010-02-14T17:00:39Z" uid="74617" user="JohnSmith" changeset="3875836" lat="-27.4668267" lon="153.019098">
    <tag k="amenity" v="fast_food"/>
    <tag k="name" v="Jooshi"/>
  </node>
  <node id="288365380" version="3" timestamp="2010-02-14T17:00:39Z" uid="74617" user="JohnSmith" changeset="3875836" lat="-27.4668343" lon="153.01921">
    <tag k="name" v="Fast Flowers"/>
    <tag k="shop" v="florist"/>
  </node>
  <node id="288365463" version="2" timestamp="2010-02-14T17:00:39Z" uid="74617" user="JohnSmith" changeset="3875836" lat="-27.4668459" lon="153.019272">
    <tag k="name" v="The Cobblers Two"/>
    <tag k="shop" v="cobbler"/>
  </node>
  <node id="288365520" version="3" timestamp="2008-09-14T17:04:28Z" uid="6975" user="ulfl" changeset="640534" lat="-27.4668572" lon="153.0193387">
    <tag k="addr:housenumber" v="154"/>
    <tag k="addr:street" v="Roma Street"/>
    <tag k="name" v="Beaches Travel"/>
    <tag k="shop" v="travel_agency"/>
  </node>
  <node id="288367426" version="3" timestamp="2010-02-14T17:00:39Z" uid="74617" user="JohnSmith" changeset="3875836" lat="-27.4682243" lon="153.020663">
    <tag k="amenity" v="restaurant"/>
    <tag k="name" v="Ajisen Ramen"/>
  </node>
  <node id="288368114" version="2" timestamp="2010-02-14T17:00:37Z" uid="74617" user="JohnSmith" changeset="3875836" lat="-27.4688869" lon="153.021332">
    <tag k="name" v="Stationery One"/>
    <tag k="shop" v="stationery"/>
  </node>
  <node id="288368135" version="3" timestamp="2010-02-14T17:00:36Z" uid="74617" user="JohnSmith" changeset="3875836" lat="-27.468963" lon="153.021246">
    <tag k="name" v="Tribal Gallery"/>
  </node>
  <node id="288368155" version="2" timestamp="2010-02-14T17:00:36Z" uid="74617" user="JohnSmith" changeset="3875836" lat="-27.4689554" lon="153.021161">
    <tag k="amenity" v="post_box"/>
    <tag k="note" v="2 instances."/>
  </node>
  <node id="288368167" version="2" timestamp="2010-02-14T17:00:36Z" uid="74617" user="JohnSmith" changeset="3875836" lat="-27.4690392" lon="153.021049">
    <tag k="amenity" v="telephone"/>
    <tag k="note" v="2 instances."/>
  </node>
  <node id="288369002" version="2" timestamp="2008-09-14T17:04:29Z" uid="6975" user="ulfl" changeset="640534" lat="-27.467577" lon="153.0200276">
    <tag k="name" v="YHA"/>
    <tag k="shop" v="travel_agency"/>
  </node>
  <node id="288369003" version="2" timestamp="2008-09-14T17:04:29Z" uid="6975" user="ulfl" changeset="640534" lat="-27.4675694" lon="153.0200276">
    <tag k="name" v="YHA"/>
    <tag k="shop" v="travel_agency"/>
  </node>
  <node id="288369137" version="2" timestamp="2008-09-14T17:04:27Z" uid="6975" user="ulfl" changeset="640534" lat="-27.4674399" lon="153.0199331">
    <tag k="note" v="Need to check name."/>
    <tag k="shop" v="travel_agency"/>
  </node>
  <node id="288369436" version="3" timestamp="2010-02-14T17:00:36Z" uid="74617" user="JohnSmith" changeset="3875836" lat="-27.4687574" lon="153.021555">
    <tag k="name" v="7 Eleven"/>
    <tag k="shop" v="convenience"/>
  </node>
  <node id="288369437" version="3" timestamp="2010-02-14T17:00:37Z" uid="74617" user="JohnSmith" changeset="3875836" lat="-27.4687193" lon="153.021521">
    <tag k="amenity" v="atm"/>
    <tag k="name" v="Commonwealth"/>
  </node>
  <node id="288369474" version="2" timestamp="2010-02-14T17:00:39Z" uid="74617" user="JohnSmith" changeset="3875836" lat="-27.4682167" lon="153.021195">
    <tag k="amenity" v="cafe"/>
    <tag k="name" v="S Bar"/>
  </node>
  <node id="288369502" version="2" timestamp="2010-02-14T17:00:34Z" uid="74617" user="JohnSmith" changeset="3875836" lat="-27.4697626" lon="153.021135">
    <tag k="name" v="George Street News"/>
    <tag k="shop" v="newsagent"/>
  </node>
  <node id="288369503" version="2" timestamp="2010-02-14T17:00:35Z" uid="74617" user="JohnSmith" changeset="3875836" lat="-27.4689554" lon="153.021401">
    <tag k="name" v="George Street News"/>
    <tag k="shop" v="newsagent"/>
  </node>
  <node id="288369510" version="2" timestamp="2010-02-14T17:00:35Z" uid="74617" user="JohnSmith" changeset="3875836" lat="-27.4690011" lon="153.021452">
    <tag k="name" v="Worldwide Online Printing"/>
    <tag k="shop" v="print"/>
  </node>
  <node id="288369535" version="2" timestamp="2009-07-27T03:26:23Z" uid="4467" user="Rosscoe" changeset="1951087" lat="-27.4690392" lon="153.0215038">
    <tag k="shop" v="convenience"/>
  </node>
  <node id="288369536" version="3" timestamp="2008-09-14T17:04:29Z" uid="6975" user="ulfl" changeset="640534" lat="-27.4690696" lon="153.0215382">
    <tag k="name" v="Backpackers World Travel"/>
    <tag k="shop" v="travel_agency"/>
  </node>
  <node id="288369893" version="3" timestamp="2010-02-14T17:00:37Z" uid="74617" user="JohnSmith" changeset="3875836" lat="-27.4692372" lon="153.02171">
    <tag k="amenity" v="cafe"/>
    <tag k="name" v="Java Coast"/>
  </node>
  <node id="288369896" version="3" timestamp="2010-02-14T17:00:37Z" uid="74617" user="JohnSmith" changeset="3875836" lat="-27.4692676" lon="153.021744">
    <tag k="name" v="Bongo Beads"/>
    <tag k="shop" v="fashion"/>
  </node>
  <node id="288369917" version="3" timestamp="2010-02-14T17:00:37Z" uid="74617" user="JohnSmith" changeset="3875836" lat="-27.4692981" lon="153.021779">
    <tag k="name" v="George Street Medical Centre"/>
  </node>
  <node id="288369953" version="4" timestamp="2010-02-14T17:00:37Z" uid="74617" user="JohnSmith" changeset="3875836" lat="-27.4693362" lon="153.021813">
    <tag k="amenity" v="pharmacy"/>
    <tag k="name" v="Amcal George Street Chemist"/>
  </node>
  <node id="288369958" version="3" timestamp="2008-09-14T17:04:29Z" uid="6975" user="ulfl" changeset="640534" lat="-27.4693666" lon="153.0218472">
    <tag k="name" v="Peter Pan Travel"/>
    <tag k="shop" v="travel_agency"/>
  </node>
  <node id="288369961" version="2" timestamp="2010-06-12T08:32:04Z" uid="4467" user="Rosscoe" changeset="4968366" lat="-33.2846258" lon="115.7519468"/>
  <node id="288369975" version="2" timestamp="2010-06-12T08:31:19Z" uid="4467" user="Rosscoe" changeset="4968366" lat="-33.2994693" lon="115.7416461"/>
  <node id="288369981" version="2" timestamp="2010-06-12T08:30:35Z" uid="4467" user="Rosscoe" changeset="4968366" lat="-33.2996505" lon="115.7413471"/>
  <node id="288369995" version="2" timestamp="2010-06-12T08:31:26Z" uid="4467" user="Rosscoe" changeset="4968366" lat="-33.2984823" lon="115.741327"/>
</osm>
