<?xml version='1.0' encoding='UTF-8'?>
<osm version="0.6" generator="libosmium/2.20.0">
  <node id="288930581" version="5" timestamp="2009-12-31T02:55:54Z" uid="6975" user="ulfl" changeset="3495812" lat="40.3929929" lon="22.1258782">
    <tag k="mountain_pass" v="yes"/>
    <tag k="name" v="Διαβαση Καστανιάς (Kastania Pass)"/>
    <tag k="name:de" v="Kastania Pass"/>
    <tag k="name:el" v="Διαβαση Καστανιάς"/>
    <tag k="name:en" v="Kastania Pass"/>
    <tag k="name:fr" v="Col du Kastania"/>
  </node>
  <node id="288931877" version="2" timestamp="2010-05-01T22:16:14Z" uid="151899" user="Bikeman2000" changeset="4579997" lat="51.2126268" lon="6.7512769"/>
  <node id="288933287" version="3" timestamp="2009-02-08T15:53:29Z" uid="49111" user="Markus B" changeset="271257" lat="49.8870546" lon="11.5952659"/>
  <node id="288933390" version="5" timestamp="2009-05-01T20:50:07Z" uid="20587" user="balrog-kun" changeset="1042242" lat="52.6450852" lon="15.9044989">
    <tag k="addr:postcode" v="64-400"/>
    <tag k="created_by" v="Potlatch 0.10b"/>
    <tag k="is_in" v="gmina Międzychód, powiat międzychodzki, województwo wielkopolskie, Poland"/>
    <tag k="is_in:country" v="Poland"/>
    <tag k="is_in:county" v="powiat międzychodzki"/>
    <tag k="is_in:municipality" v="gmina Międzychód"/>
    <tag k="is_in:province" v="województwo wielkopolskie"/>
    <tag k="name" v="Mokrzec"/>
    <tag k="place" v="hamlet"/>
    <tag k="teryt:rm" v="01"/>
    <tag k="teryt:simc" v="0183650"/>
    <tag k="teryt:stan_na" v="2009-01-01"/>
    <tag k="teryt:terc" v="3014035"/>
    <tag k="teryt:updated_by" v="teryt2osm combine.py v. 43"/>
    <tag k="wikipedia" v="pl:Mokrzec (powiat międzychodzki)"/>
  </node>
  <node id="288933390" version="6" timestamp="2010-04-11T04:38:34Z" uid="20587" user="balrog-kun" changeset="4389130" lat="52.6452156" lon="15.9042142">
    <tag k="addr:postcode" v="64-400"/>
    <tag k="is_in" v="gmina Międzychód, powiat międzychodzki, województwo wielkopolskie, Poland"/>
    <tag k="is_in:country" v="Poland"/>
    <tag k="is_in:county" v="powiat międzychodzki"/>
    <tag k="is_in:municipality" v="gmina Międzychód"/>
    <tag k="is_in:province" v="województwo wielkopolskie"/>
    <tag k="name" v="Mokrzec"/>
    <tag k="place" v="hamlet"/>
    <tag k="teryt:rm" v="01"/>
    <tag k="teryt:simc" v="0183650"/>
    <tag k="teryt:stan_na" v="2009-01-01"/>
    <tag k="teryt:terc" v="3014035"/>
    <tag k="teryt:updated_by" v="teryt2osm combine.py v. 43"/>
    <tag k="wikipedia" v="pl:Mokrzec (powiat międzychodzki)"/>
  </node>
  <node id="288934004" version="1" timestamp="2008-08-17T20:48:46Z" uid="20587" user="balrog-kun" changeset="302810" lat="37.7266216" lon="-0.7826016">
    <tag k="created_by" v="JOSM"/>
    <tag k="name" v="Mar Menor"/>
    <tag k="natural" v="water"/>
  </node>
  <node id="288934630" version="3" timestamp="2011-04-27T20:07:59Z" uid="9581" user="Lobelt" changeset="7988938" lat="49.7683315" lon="7.7027039"/>
  <node id="288934635" version="3" timestamp="2011-04-27T20:07:58Z" uid="9581" user="Lobelt" changeset="7988938" lat="49.7681303" lon="7.7028051"/>
  <node id="288935069" version="1" timestamp="2008-08-17T20:50:18Z" uid="20587" user="balrog-kun" changeset="302810" lat="37.7763858" lon="-0.8224455">
    <tag k="created_by" v="JOSM"/>
  </node>
  <node id="288935069" version="2" timestamp="2008-08-17T21:27:23Z" uid="20587" user="balrog-kun" changeset="302810" lat="37.778357" lon="-0.8200649">
    <tag k="created_by" v="JOSM"/>
  </node>
  <node id="288935591" version="2" timestamp="2011-04-27T20:07:53Z" uid="9581" user="Lobelt" changeset="7988938" lat="49.7679132" lon="7.7032031"/>
  <node id="288935809" version="5" timestamp="2009-05-01T20:52:14Z" uid="20587" user="balrog-kun" changeset="1042242" lat="52.6235197" lon="16.075817">
    <tag k="created_by" v="Potlatch 0.10b"/>
    <tag k="is_in" v="gmina Sieraków, powiat międzychodzki, województwo wielkopolskie, Poland"/>
    <tag k="is_in:country" v="Poland"/>
    <tag k="is_in:county" v="powiat międzychodzki"/>
    <tag k="is_in:municipality" v="gmina Sieraków"/>
    <tag k="is_in:province" v="województwo wielkopolskie"/>
    <tag k="name" v="Góra"/>
    <tag k="place" v="hamlet"/>
    <tag k="population" v="192"/>
    <tag k="source:population" v="wikipedia"/>
    <tag k="teryt:rm" v="01"/>
    <tag k="teryt:simc" v="0594212"/>
    <tag k="teryt:stan_na" v="2009-01-01"/>
    <tag k="teryt:terc" v="3014045"/>
    <tag k="teryt:updated_by" v="teryt2osm combine.py v. 43"/>
    <tag k="wikipedia" v="pl:Góra (powiat międzychodzki)"/>
  </node>
  <node id="288935809" version="6" timestamp="2010-04-11T04:38:34Z" uid="20587" user="balrog-kun" changeset="4389130" lat="52.6217828" lon="16.0790399">
    <tag k="is_in" v="gmina Sieraków, powiat międzychodzki, województwo wielkopolskie, Poland"/>
    <tag k="is_in:country" v="Poland"/>
    <tag k="is_in:county" v="powiat międzychodzki"/>
    <tag k="is_in:municipality" v="gmina Sieraków"/>
    <tag k="is_in:province" v="województwo wielkopolskie"/>
    <tag k="name" v="Góra"/>
    <tag k="place" v="hamlet"/>
    <tag k="population" v="192"/>
    <tag k="source:population" v="wikipedia"/>
    <tag k="teryt:rm" v="01"/>
    <tag k="teryt:simc" v="0594212"/>
    <tag k="teryt:stan_na" v="2009-01-01"/>
    <tag k="teryt:terc" v="3014045"/>
    <tag k="teryt:updated_by" v="teryt2osm combine.py v. 43"/>
    <tag k="wikipedia" v="pl:Góra (powiat międzychodzki)"/>
  </node>
  <node id="288935940" version="2" timestamp="2009-01-27T14:23:16Z" uid="9581" user="Lobelt" changeset="843580" lat="50.5945408" lon="10.9738709"/>
  <node id="288937031" version="5" timestamp="2009-05-01T20:49:44Z" uid="20587" user="balrog-kun" changeset="1042242" lat="52.6138273" lon="16.0086974">
    <tag k="addr:postcode" v="64-410"/>
    <tag k="created_by" v="Potlatch 0.10b"/>
    <tag k="is_in" v="gmina Sieraków, powiat międzychodzki, województwo wielkopolskie, Poland"/>
    <tag k="is_in:country" v="Poland"/>
    <tag k="is_in:county" v="powiat międzychodzki"/>
    <tag k="is_in:municipality" v="gmina Sieraków"/>
    <tag k="is_in:province" v="województwo wielkopolskie"/>
    <tag k="name" v="Ławica"/>
    <tag k="place" v="hamlet"/>
    <tag k="teryt:rm" v="01"/>
    <tag k="teryt:simc" v="0594347"/>
    <tag k="teryt:stan_na" v="2009-01-01"/>
    <tag k="teryt:terc" v="3014045"/>
    <tag k="teryt:updated_by" v="teryt2osm combine.py v. 43"/>
    <tag k="wikipedia" v="pl:Ławica (województwo wielkopolskie)"/>
  </node>
  <node id="288937031" version="6" timestamp="2009-06-16T14:37:46Z" uid="20587" user="balrog-kun" changeset="1535709" lat="52.6138273" lon="16.0086974">
    <tag k="addr:postcode" v="64-410"/>
    <tag k="created_by" v="Potlatch 0.10b"/>
    <tag k="is_in" v="gmina Sieraków, powiat międzychodzki, województwo wielkopolskie, Poland"/>
    <tag k="is_in:country" v="Poland"/>
    <tag k="is_in:county" v="powiat międzychodzki"/>
    <tag k="is_in:municipality" v="gmina Sieraków"/>
    <tag k="is_in:province" v="województwo wielkopolskie"/>
    <tag k="name" v="Ławica"/>
    <tag k="place" v="hamlet"/>
    <tag k="population" v="200"/>
    <tag k="source:population" v="wikipedia"/>
    <tag k="teryt:rm" v="01"/>
    <tag k="teryt:simc" v="0594347"/>
    <tag k="teryt:stan_na" v="2009-01-01"/>
    <tag k="teryt:terc" v="3014045"/>
    <tag k="teryt:updated_by" v="teryt2osm combine.py v. 43"/>
    <tag k="wikipedia" v="pl:Ławica (województwo wielkopolskie)"/>
  </node>
  <node id="288937031" version="7" timestamp="2010-04-11T04:38:34Z" uid="20587" user="balrog-kun" changeset="4389130" lat="52.6127841" lon="16.0069522">
    <tag k="addr:postcode" v="64-410"/>
    <tag k="is_in" v="gmina Sieraków, powiat międzychodzki, województwo wielkopolskie, Poland"/>
    <tag k="is_in:country" v="Poland"/>
    <tag k="is_in:county" v="powiat międzychodzki"/>
    <tag k="is_in:municipality" v="gmina Sieraków"/>
    <tag k="is_in:province" v="województwo wielkopolskie"/>
    <tag k="name" v="Ławica"/>
    <tag k="place" v="hamlet"/>
    <tag k="population" v="200"/>
    <tag k="source:population" v="wikipedia"/>
    <tag k="teryt:rm" v="01"/>
    <tag k="teryt:simc" v="0594347"/>
    <tag k="teryt:stan_na" v="2009-01-01"/>
    <tag k="teryt:terc" v="3014045"/>
    <tag k="teryt:updated_by" v="teryt2osm combine.py v. 43"/>
    <tag k="wikipedia" v="pl:Ławica (województwo wielkopolskie)"/>
  </node>
  <node id="288937772" version="6" timestamp="2009-05-01T20:53:49Z" uid="20587" user="balrog-kun" changeset="1042242" lat="52.6316492" lon="16.0341005">
    <tag k="created_by" v="Potlatch 0.10b"/>
    <tag k="is_in" v="gmina Sieraków, powiat międzychodzki, województwo wielkopolskie, Poland"/>
    <tag k="is_in:country" v="Poland"/>
    <tag k="is_in:county" v="powiat międzychodzki"/>
    <tag k="is_in:municipality" v="gmina Sieraków"/>
    <tag k="is_in:province" v="województwo wielkopolskie"/>
    <tag k="name" v="Kłosowice"/>
    <tag k="place" v="hamlet"/>
    <tag k="teryt:rm" v="01"/>
    <tag k="teryt:simc" v="0594301"/>
    <tag k="teryt:stan_na" v="2009-01-01"/>
    <tag k="teryt:terc" v="3014045"/>
    <tag k="teryt:updated_by" v="teryt2osm combine.py v. 43"/>
    <tag k="wikipedia" v="pl:Kłosowice (województwo wielkopolskie)"/>
  </node>
  <node id="288937772" version="7" timestamp="2010-04-11T04:38:35Z" uid="20587" user="balrog-kun" changeset="4389130" lat="52.6316914" lon="16.0330744">
    <tag k="is_in" v="gmina Sieraków, powiat międzychodzki, województwo wielkopolskie, Poland"/>
    <tag k="is_in:country" v="Poland"/>
    <tag k="is_in:county" v="powiat międzychodzki"/>
    <tag k="is_in:municipality" v="gmina Sieraków"/>
    <tag k="is_in:province" v="województwo wielkopolskie"/>
    <tag k="name" v="Kłosowice"/>
    <tag k="place" v="hamlet"/>
    <tag k="teryt:rm" v="01"/>
    <tag k="teryt:simc" v="0594301"/>
    <tag k="teryt:stan_na" v="2009-01-01"/>
    <tag k="teryt:terc" v="3014045"/>
    <tag k="teryt:updated_by" v="teryt2osm combine.py v. 43"/>
    <tag k="wikipedia" v="pl:Kłosowice (województwo wielkopolskie)"/>
  </node>
  <node id="288937936" version="3" timestamp="2010-05-01T15:50:18Z" uid="151899" user="Bikeman2000" changeset="4576359" lat="51.213701" lon="6.7859378"/>
  <node id="288938206" version="2" timestamp="2008-09-08T10:33:59Z" uid="27600" user="Islanit" changeset="574993" lat="53.4916307" lon="10.3173569"/>
  <node id="288938895" version="2" timestamp="2009-01-27T14:23:11Z" uid="9581" user="Lobelt" changeset="843580" lat="50.5948451" lon="10.9711761"/>
  <node id="288938900" version="2" timestamp="2009-01-27T14:23:11Z" uid="9581" user="Lobelt" changeset="843580" lat="50.5957431" lon="10.9669646"/>
  <node id="288938902" version="2" timestamp="2009-01-27T14:23:11Z" uid="9581" user="Lobelt" changeset="843580" lat="50.5969785" lon="10.9639487"/>
  <node id="288938904" version="2" timestamp="2009-01-27T14:23:10Z" uid="9581" user="Lobelt" changeset="843580" lat="50.5958192" lon="10.9628197"/>
  <node id="288938905" version="2" timestamp="2009-01-27T14:23:10Z" uid="9581" user="Lobelt" changeset="843580" lat="50.5962767" lon="10.9597605"/>
  <node id="288938908" version="2" timestamp="2009-01-27T14:23:10Z" uid="9581" user="Lobelt" changeset="843580" lat="50.5948515" lon="10.9591565"/>
  <node id="288938911" version="2" timestamp="2009-01-27T14:23:10Z" uid="9581" user="Lobelt" changeset="843580" lat="50.5926782" lon="10.965239"/>
</osm>
