<?xml version='1.0' encoding='UTF-8'?>
<osm version="0.6" generator="libosmium/2.20.0">
  <node id="289120356" version="2" timestamp="2008-10-23T05:32:28Z" uid="6975" user="ulfl" changeset="525020" lat="52.2461035" lon="0.7135634">
    <tag k="name" v="Marks &amp; Spencer"/>
    <tag k="shop" v="department_store"/>
  </node>
  <node id="289120371" version="2" timestamp="2008-10-23T05:32:30Z" uid="6975" user="ulfl" changeset="525020" lat="52.2463103" lon="0.7116774">
    <tag k="name" v="Woolworths"/>
    <tag k="shop" v="department_store"/>
  </node>
  <node id="289121079" version="2" timestamp="2010-12-29T23:54:09Z" uid="65847" user="LKK" changeset="6804869" lat="42.6030824" lon="23.1374653"/>
  <node id="289121414" version="1" timestamp="2008-08-18T16:15:06Z" uid="33382" user="de_muur" changeset="309065" lat="53.5259758" lon="10.3371393">
    <tag k="created_by" v="JOSM"/>
  </node>
  <node id="289121414" version="2" timestamp="2010-12-30T17:06:28Z" uid="33382" user="de_muur" changeset="6811712" lat="53.5259625" lon="10.3370862"/>
  <node id="289121415" version="1" timestamp="2008-08-18T16:15:06Z" uid="33382" user="de_muur" changeset="309065" lat="53.5258949" lon="10.3375967">
    <tag k="created_by" v="JOSM"/>
  </node>
  <node id="289121417" version="1" timestamp="2008-08-18T16:15:06Z" uid="33382" user="de_muur" changeset="309065" lat="53.5258392" lon="10.3381537">
    <tag k="created_by" v="JOSM"/>
  </node>
  <node id="289121418" version="1" timestamp="2008-08-18T16:15:07Z" uid="33382" user="de_muur" changeset="309065" lat="53.5258453" lon="10.3385065">
    <tag k="created_by" v="JOSM"/>
  </node>
  <node id="289121419" version="1" timestamp="2008-08-18T16:15:07Z" uid="33382" user="de_muur" changeset="309065" lat="53.5259506" lon="10.3390697">
    <tag k="created_by" v="JOSM"/>
  </node>
  <node id="289121420" version="1" timestamp="2008-08-18T16:15:07Z" uid="33382" user="de_muur" changeset="309065" lat="53.5261177" lon="10.3394163">
    <tag k="created_by" v="JOSM"/>
  </node>
  <node id="289121421" version="1" timestamp="2008-08-18T16:15:08Z" uid="33382" user="de_muur" changeset="309065" lat="53.5263528" lon="10.3397071">
    <tag k="created_by" v="JOSM"/>
  </node>
  <node id="289121422" version="1" timestamp="2008-08-18T16:15:08Z" uid="33382" user="de_muur" changeset="309065" lat="53.5267489" lon="10.340128">
    <tag k="created_by" v="JOSM"/>
  </node>
  <node id="289121423" version="1" timestamp="2008-08-18T16:15:08Z" uid="33382" user="de_muur" changeset="309065" lat="53.5272378" lon="10.3405302">
    <tag k="created_by" v="JOSM"/>
  </node>
  <node id="289121806" version="2" timestamp="2008-09-02T22:51:15Z" uid="4667" user="MapZ" changeset="508411" lat="32.6756208" lon="-16.9005499"/>
  <node id="289121809" version="2" timestamp="2008-09-02T22:51:16Z" uid="4667" user="MapZ" changeset="508411" lat="32.6759038" lon="-16.9008407"/>
  <node id="289121811" version="2" timestamp="2008-09-02T22:51:16Z" uid="4667" user="MapZ" changeset="508411" lat="32.6760804" lon="-16.9009615"/>
  <node id="289121813" version="2" timestamp="2008-09-02T22:51:16Z" uid="4667" user="MapZ" changeset="508411" lat="32.6761005" lon="-16.901099"/>
  <node id="289121816" version="2" timestamp="2008-09-02T22:51:16Z" uid="4667" user="MapZ" changeset="508411" lat="32.6760282" lon="-16.9012324"/>
  <node id="289121819" version="2" timestamp="2008-09-02T22:51:16Z" uid="4667" user="MapZ" changeset="508411" lat="32.6758375" lon="-16.9014245"/>
  <node id="289122242" version="2" timestamp="2009-05-17T10:22:14Z" uid="9581" user="Lobelt" changeset="1220102" lat="50.9329844" lon="9.929146"/>
  <node id="289122350" version="2" timestamp="2009-05-17T10:22:14Z" uid="9581" user="Lobelt" changeset="1220102" lat="50.9310412" lon="9.9258097"/>
  <node id="289122359" version="2" timestamp="2009-06-03T20:11:34Z" uid="9581" user="Lobelt" changeset="1416701" lat="50.9352338" lon="9.9302972"/>
  <node id="289122361" version="5" timestamp="2009-06-03T20:11:34Z" uid="9581" user="Lobelt" changeset="1416701" lat="50.9363604" lon="9.9309887">
    <tag k="highway" v="traffic_signals"/>
  </node>
  <node id="289122363" version="3" timestamp="2009-06-03T20:11:34Z" uid="9581" user="Lobelt" changeset="1416701" lat="50.9378208" lon="9.9322112"/>
  <node id="289122693" version="2" timestamp="2009-01-01T17:04:23Z" uid="43863" user="Rundling" changeset="702079" lat="53.3562017" lon="10.5478109"/>
  <node id="289123520" version="2" timestamp="2010-09-26T19:44:12Z" uid="9581" user="Lobelt" changeset="5884969" lat="50.9383789" lon="9.9306942"/>
  <node id="289123522" version="2" timestamp="2010-09-26T19:44:16Z" uid="9581" user="Lobelt" changeset="5884969" lat="50.9385693" lon="9.930654"/>
  <node id="289123887" version="1" timestamp="2008-08-18T16:25:58Z" uid="33382" user="de_muur" changeset="309065" lat="53.519108" lon="10.3338222">
    <tag k="created_by" v="JOSM"/>
  </node>
  <node id="289123892" version="1" timestamp="2008-08-18T16:25:58Z" uid="33382" user="de_muur" changeset="309065" lat="53.5198844" lon="10.3319026">
    <tag k="created_by" v="JOSM"/>
  </node>
  <node id="289123895" version="1" timestamp="2008-08-18T16:25:58Z" uid="33382" user="de_muur" changeset="309065" lat="53.5208997" lon="10.329471">
    <tag k="created_by" v="JOSM"/>
  </node>
  <node id="289123898" version="1" timestamp="2008-08-18T16:25:58Z" uid="33382" user="de_muur" changeset="309065" lat="53.521642" lon="10.3276793">
    <tag k="created_by" v="JOSM"/>
  </node>
  <node id="289123898" version="2" timestamp="2010-12-29T17:12:00Z" uid="33382" user="de_muur" changeset="6800921" lat="53.521642" lon="10.3276793"/>
  <node id="289123900" version="1" timestamp="2008-08-18T16:25:59Z" uid="33382" user="de_muur" changeset="309065" lat="53.5215509" lon="10.3275421">
    <tag k="created_by" v="JOSM"/>
  </node>
  <node id="289123900" version="2" timestamp="2010-12-29T17:12:00Z" uid="33382" user="de_muur" changeset="6800921" lat="53.5215509" lon="10.3275421"/>
  <node id="289123903" version="1" timestamp="2008-08-18T16:25:59Z" uid="33382" user="de_muur" changeset="309065" lat="53.5226581" lon="10.3292781">
    <tag k="created_by" v="JOSM"/>
  </node>
  <node id="289123903" version="2" timestamp="2010-12-29T17:12:41Z" uid="33382" user="de_muur" changeset="6800921" lat="53.5226581" lon="10.3292781">
    <tag k="created_by" v="JOSM"/>
  </node>
  <node id="289123906" version="1" timestamp="2008-08-18T16:25:59Z" uid="33382" user="de_muur" changeset="309065" lat="53.5222755" lon="10.33031">
    <tag k="created_by" v="JOSM"/>
  </node>
  <node id="289123909" version="1" timestamp="2008-08-18T16:25:59Z" uid="33382" user="de_muur" changeset="309065" lat="53.521748" lon="10.3316723">
    <tag k="created_by" v="JOSM"/>
  </node>
  <node id="289123911" version="1" timestamp="2008-08-18T16:25:59Z" uid="33382" user="de_muur" changeset="309065" lat="53.5212436" lon="10.3329535">
    <tag k="created_by" v="JOSM"/>
  </node>
  <node id="289123914" version="1" timestamp="2008-08-18T16:26:00Z" uid="33382" user="de_muur" changeset="309065" lat="53.5207335" lon="10.3342637">
    <tag k="created_by" v="JOSM"/>
  </node>
  <node id="289123916" version="1" timestamp="2008-08-18T16:26:00Z" uid="33382" user="de_muur" changeset="309065" lat="53.5202523" lon="10.3354579">
    <tag k="created_by" v="JOSM"/>
  </node>
  <node id="289123919" version="1" timestamp="2008-08-18T16:26:00Z" uid="33382" user="de_muur" changeset="309065" lat="53.5162101" lon="10.3359815">
    <tag k="created_by" v="JOSM"/>
  </node>
  <node id="289123922" version="1" timestamp="2008-08-18T16:26:00Z" uid="33382" user="de_muur" changeset="309065" lat="53.5167685" lon="10.3369786">
    <tag k="created_by" v="JOSM"/>
  </node>
  <node id="289123924" version="1" timestamp="2008-08-18T16:26:01Z" uid="33382" user="de_muur" changeset="309065" lat="53.5175651" lon="10.3381847">
    <tag k="created_by" v="JOSM"/>
  </node>
  <node id="289123925" version="1" timestamp="2008-08-18T16:26:01Z" uid="33382" user="de_muur" changeset="309065" lat="53.5183563" lon="10.3394695">
    <tag k="created_by" v="JOSM"/>
  </node>
  <node id="289123925" version="2" timestamp="2010-12-30T17:06:24Z" uid="33382" user="de_muur" changeset="6811712" lat="53.5185637" lon="10.3398756"/>
  <node id="289123926" version="1" timestamp="2008-08-18T16:26:01Z" uid="33382" user="de_muur" changeset="309065" lat="53.5192923" lon="10.3409329">
    <tag k="created_by" v="JOSM"/>
  </node>
  <node id="289123926" version="2" timestamp="2010-12-30T17:06:24Z" uid="33382" user="de_muur" changeset="6811712" lat="53.5192204" lon="10.340955"/>
  <node id="289123927" version="1" timestamp="2008-08-18T16:26:01Z" uid="33382" user="de_muur" changeset="309065" lat="53.5196071" lon="10.341486">
    <tag k="created_by" v="JOSM"/>
  </node>
  <node id="289123927" version="2" timestamp="2010-12-30T17:06:24Z" uid="33382" user="de_muur" changeset="6811712" lat="53.5195573" lon="10.3414915"/>
  <node id="289123928" version="1" timestamp="2008-08-18T16:26:01Z" uid="33382" user="de_muur" changeset="309065" lat="53.5197262" lon="10.3417923">
    <tag k="created_by" v="JOSM"/>
  </node>
  <node id="289123928" version="2" timestamp="2010-12-30T17:06:25Z" uid="33382" user="de_muur" changeset="6811712" lat="53.519776" lon="10.3417978"/>
  <node id="289123929" version="1" timestamp="2008-08-18T16:26:02Z" uid="33382" user="de_muur" changeset="309065" lat="53.5201601" lon="10.3422347">
    <tag k="created_by" v="JOSM"/>
  </node>
  <node id="289123929" version="2" timestamp="2010-12-30T17:06:25Z" uid="33382" user="de_muur" changeset="6811712" lat="53.5201269" lon="10.3423398"/>
  <node id="289123930" version="1" timestamp="2008-08-18T16:26:02Z" uid="33382" user="de_muur" changeset="309065" lat="53.5206429" lon="10.3430735">
    <tag k="created_by" v="JOSM"/>
  </node>
  <node id="289123930" version="2" timestamp="2010-12-30T17:06:25Z" uid="33382" user="de_muur" changeset="6811712" lat="53.5206203" lon="10.3431324"/>
  <node id="289124462" version="1" timestamp="2008-08-18T16:28:04Z" uid="36809" user="pfoten_weg_!_" changeset="310061" lat="48.0665298" lon="11.5339172">
    <tag k="created_by" v="Potlatch 0.10b"/>
    <tag k="ele" v="576.9125977"/>
    <tag k="name" v="Wasserturm"/>
  </node>
  <node id="289124462" version="2" timestamp="2008-08-19T00:50:19Z" uid="36809" user="pfoten_weg_!_" changeset="323871" lat="48.0665298" lon="11.5339172">
    <tag k="created_by" v="RambaZamba"/>
    <tag k="ele" v="576.9125977"/>
    <tag k="name" v="Wasserturm"/>
  </node>
  <node id="289124462" version="3" timestamp="2008-09-21T21:21:32Z" uid="36809" user="pfoten_weg_!_" changeset="676192" lat="48.0665298" lon="11.5339172">
    <tag k="created_by" v="RambaZamba"/>
    <tag k="ele" v="576.9125977"/>
    <tag k="name" v="Wasserturm"/>
    <tag k="source" v="survey"/>
  </node>
  <node id="289124462" version="4" timestamp="2008-09-25T08:08:53Z" uid="36809" user="pfoten_weg_!_" changeset="694384" lat="48.0665298" lon="11.5339172">
    <tag k="created_by" v="RambaZamba"/>
    <tag k="ele" v="576.9125977"/>
    <tag k="name" v="Wasserturm"/>
    <tag k="source" v="survey"/>
  </node>
  <node id="289124481" version="1" timestamp="2008-08-18T16:28:16Z" uid="36809" user="pfoten_weg_!_" changeset="310061" lat="48.0675565" lon="11.5358055">
    <tag k="created_by" v="Potlatch 0.10b"/>
    <tag k="ele" v="570.6640625"/>
    <tag k="name" v="Tor"/>
  </node>
  <node id="289124481" version="2" timestamp="2008-08-19T00:50:19Z" uid="36809" user="pfoten_weg_!_" changeset="323871" lat="48.0675565" lon="11.5358055">
    <tag k="created_by" v="RambaZamba"/>
    <tag k="ele" v="570.6640625"/>
    <tag k="name" v="Tor"/>
  </node>
  <node id="289124481" version="3" timestamp="2008-08-28T19:24:08Z" uid="36809" user="pfoten_weg_!_" changeset="442261" lat="48.0675565" lon="11.5358055">
    <tag k="created_by" v="RambaZamba"/>
    <tag k="ele" v="570.6640625"/>
    <tag k="name" v="Tor"/>
  </node>
  <node id="289124523" version="1" timestamp="2008-08-18T16:28:25Z" uid="36809" user="pfoten_weg_!_" changeset="310061" lat="48.0677056" lon="11.5373676">
    <tag k="created_by" v="Potlatch 0.10b"/>
    <tag k="ele" v="568.7414551"/>
    <tag k="name" v="Tor2"/>
  </node>
  <node id="289124523" version="2" timestamp="2008-08-19T00:50:19Z" uid="36809" user="pfoten_weg_!_" changeset="323871" lat="48.0677056" lon="11.5373676">
    <tag k="created_by" v="RambaZamba"/>
    <tag k="ele" v="568.7414551"/>
    <tag k="name" v="Tor2"/>
  </node>
  <node id="289124523" version="3" timestamp="2008-08-28T19:24:08Z" uid="36809" user="pfoten_weg_!_" changeset="442261" lat="48.0677056" lon="11.5373676">
    <tag k="created_by" v="RambaZamba"/>
    <tag k="ele" v="568.7414551"/>
    <tag k="name" v="Tor2"/>
  </node>
  <node id="289124573" version="1" timestamp="2008-08-18T16:28:30Z" uid="36809" user="pfoten_weg_!_" changeset="310061" lat="48.0731599" lon="11.5371273">
    <tag k="created_by" v="Potlatch 0.10b"/>
    <tag k="ele" v="561.2910156"/>
    <tag k="name" v="Parkplatz"/>
  </node>
  <node id="289124573" version="2" timestamp="2008-08-19T00:50:19Z" uid="36809" user="pfoten_weg_!_" changeset="323871" lat="48.0731599" lon="11.5371273">
    <tag k="created_by" v="RambaZamba"/>
    <tag k="ele" v="561.2910156"/>
    <tag k="name" v="Parkplatz"/>
  </node>
  <node id="289124573" version="3" timestamp="2008-09-25T17:37:50Z" uid="36809" user="pfoten_weg_!_" changeset="696635" lat="48.0731599" lon="11.5371273">
    <tag k="created_by" v="RambaZamba"/>
    <tag k="ele" v="561.2910156"/>
    <tag k="name" v="Parkplatz"/>
    <tag k="source" v="survey"/>
  </node>
  <node id="289124573" version="4" timestamp="2008-10-01T02:01:54Z" uid="36809" user="pfoten_weg_!_" changeset="5644" lat="48.0731599" lon="11.5371273">
    <tag k="created_by" v="RambaZamba"/>
    <tag k="ele" v="561.2910156"/>
    <tag k="name" v="Parkplatz"/>
    <tag k="source" v="survey"/>
  </node>
  <node id="289124573" version="6" timestamp="2009-05-30T11:48:33Z" uid="36809" user="pfoten_weg_!_" changeset="1358197" lat="48.0731599" lon="11.5371273">
    <tag k="amenity" v="parking"/>
    <tag k="created_by" v="RambaZamba"/>
    <tag k="ele" v="561.2910156"/>
    <tag k="name" v="Parkplatz"/>
    <tag k="source" v="survey"/>
  </node>
  <node id="289124690" version="1" timestamp="2008-08-18T16:29:02Z" uid="36809" user="pfoten_weg_!_" changeset="310061" lat="48.0713018" lon="11.5381229">
    <tag k="created_by" v="Potlatch 0.10b"/>
    <tag k="ele" v="580.7578125"/>
    <tag k="name" v="Spielplatz"/>
  </node>
  <node id="289124690" version="2" timestamp="2008-08-19T00:50:19Z" uid="36809" user="pfoten_weg_!_" changeset="323871" lat="48.0713018" lon="11.5381229">
    <tag k="created_by" v="RambaZamba"/>
    <tag k="ele" v="580.7578125"/>
    <tag k="name" v="Spielplatz"/>
  </node>
  <node id="289124690" version="3" timestamp="2008-09-25T08:54:43Z" uid="36809" user="pfoten_weg_!_" changeset="694384" lat="48.0713018" lon="11.5381229">
    <tag k="created_by" v="RambaZamba"/>
    <tag k="ele" v="580.7578125"/>
    <tag k="name" v="Spielplatz"/>
    <tag k="source" v="survey"/>
  </node>
  <node id="289124690" version="4" timestamp="2008-10-01T02:01:41Z" uid="36809" user="pfoten_weg_!_" changeset="5644" lat="48.0713018" lon="11.5381229">
    <tag k="created_by" v="RambaZamba"/>
    <tag k="ele" v="580.7578125"/>
    <tag k="name" v="Spielplatz"/>
    <tag k="source" v="survey"/>
  </node>
  <node id="289124690" version="5" timestamp="2009-03-30T22:04:54Z" uid="36809" user="pfoten_weg_!_" changeset="871597" lat="48.0713018" lon="11.5381229">
    <tag k="created_by" v="RambaZamba"/>
    <tag k="ele" v="581"/>
    <tag k="name" v="Spielplatz"/>
    <tag k="source" v="survey"/>
  </node>
  <node id="289124690" version="6" timestamp="2009-05-03T00:38:40Z" uid="36809" user="pfoten_weg_!_" changeset="1055292" lat="48.0713133" lon="11.5381743">
    <tag k="created_by" v="RambaZamba"/>
    <tag k="ele" v="581"/>
    <tag k="leisure" v="playground"/>
    <tag k="name" v="Spielplatz"/>
    <tag k="source" v="survey"/>
  </node>
  <node id="289124690" version="8" timestamp="2009-08-26T00:36:01Z" uid="36809" user="pfoten_weg_!_" changeset="2262648" lat="48.0713133" lon="11.5381743">
    <tag k="ele" v="581"/>
    <tag k="leisure" v="playground"/>
    <tag k="name" v="Spielplatz"/>
    <tag k="source" v="survey"/>
  </node>
  <node id="289124690" version="9" timestamp="2009-08-26T01:37:10Z" uid="36809" user="pfoten_weg_!_" changeset="2262879" lat="48.0713133" lon="11.5381743">
    <tag k="ele" v="581"/>
    <tag k="leisure" v="playground"/>
    <tag k="name" v="Spielplatz"/>
    <tag k="source" v="survey"/>
  </node>
  <node id="289124690" version="10" timestamp="2009-10-13T23:30:14Z" uid="36809" user="pfoten_weg_!_" changeset="2841273" lat="48.0713133" lon="11.5381743">
    <tag k="ele" v="581"/>
    <tag k="leisure" v="playground"/>
    <tag k="name" v="Spielplatz"/>
  </node>
  <node id="289124746" version="1" timestamp="2008-08-18T16:29:14Z" uid="36809" user="pfoten_weg_!_" changeset="310061" lat="48.0713763" lon="11.5369556">
    <tag k="created_by" v="Potlatch 0.10b"/>
    <tag k="ele" v="588.9289551"/>
    <tag k="name" v="Wõlner Bergl"/>
  </node>
  <node id="289124746" version="2" timestamp="2008-08-19T00:50:18Z" uid="36809" user="pfoten_weg_!_" changeset="323871" lat="48.0713763" lon="11.5369556">
    <tag k="created_by" v="RambaZamba"/>
    <tag k="ele" v="588.9289551"/>
    <tag k="name" v="Wõlner Bergl"/>
  </node>
  <node id="289124746" version="3" timestamp="2008-09-21T21:21:32Z" uid="36809" user="pfoten_weg_!_" changeset="676192" lat="48.0713763" lon="11.5369556">
    <tag k="created_by" v="RambaZamba"/>
    <tag k="ele" v="588.9289551"/>
    <tag k="name" v="Wõlner Bergl"/>
    <tag k="source" v="survey"/>
  </node>
  <node id="289124746" version="4" timestamp="2008-10-01T02:01:33Z" uid="36809" user="pfoten_weg_!_" changeset="5644" lat="48.0713763" lon="11.5369556">
    <tag k="created_by" v="RambaZamba"/>
    <tag k="ele" v="588.9289551"/>
    <tag k="name" v="Wõlner Bergl"/>
    <tag k="source" v="survey"/>
  </node>
  <node id="289124746" version="5" timestamp="2009-03-30T22:04:53Z" uid="36809" user="pfoten_weg_!_" changeset="871597" lat="48.0713763" lon="11.5369556">
    <tag k="created_by" v="RambaZamba"/>
    <tag k="ele" v="589"/>
    <tag k="name" v="Wõlner Bergl"/>
    <tag k="source" v="survey"/>
  </node>
  <node id="289124746" version="6" timestamp="2009-05-03T00:38:40Z" uid="36809" user="pfoten_weg_!_" changeset="1055292" lat="48.0713419" lon="11.5369299">
    <tag k="created_by" v="RambaZamba"/>
    <tag k="ele" v="589"/>
    <tag k="leisure" v="pitch"/>
    <tag k="name" v="Wõlner Bergl"/>
    <tag k="source" v="survey"/>
    <tag k="sport" v="multi"/>
  </node>
  <node id="289124746" version="8" timestamp="2009-05-27T23:32:34Z" uid="36809" user="pfoten_weg_!_" changeset="1338746" lat="48.0713411" lon="11.5369229">
    <tag k="created_by" v="RambaZamba"/>
    <tag k="ele" v="589"/>
    <tag k="leisure" v="pitch"/>
    <tag k="name" v="Wölner Bergl"/>
    <tag k="source" v="survey"/>
    <tag k="sport" v="multi"/>
  </node>
  <node id="289124829" version="1" timestamp="2008-08-18T16:29:32Z" uid="36809" user="pfoten_weg_!_" changeset="310061" lat="48.0670919" lon="11.5394189">
    <tag k="created_by" v="Potlatch 0.10b"/>
    <tag k="ele" v="566.5786133"/>
    <tag k="name" v="Tor WaWi"/>
  </node>
  <node id="289124829" version="2" timestamp="2008-08-19T01:07:00Z" uid="36809" user="pfoten_weg_!_" changeset="323871" lat="48.0670919" lon="11.5394189">
    <tag k="created_by" v="RambaZamba"/>
    <tag k="ele" v="566.5786133"/>
    <tag k="name" v="Tor WaWi"/>
  </node>
  <node id="289124829" version="3" timestamp="2008-09-25T18:18:32Z" uid="36809" user="pfoten_weg_!_" changeset="696635" lat="48.0670919" lon="11.5394189">
    <tag k="created_by" v="RambaZamba"/>
    <tag k="ele" v="566.5786133"/>
    <tag k="name" v="Tor WaWi"/>
    <tag k="source" v="survey"/>
  </node>
  <node id="289124829" version="4" timestamp="2008-09-25T19:50:40Z" uid="36809" user="pfoten_weg_!_" changeset="696635" lat="48.0670919" lon="11.5394189">
    <tag k="created_by" v="RambaZamba"/>
    <tag k="ele" v="566.5786133"/>
    <tag k="name" v="Tor WaWi"/>
    <tag k="source" v="survey"/>
  </node>
  <node id="289124861" version="1" timestamp="2008-08-18T16:29:42Z" uid="36809" user="pfoten_weg_!_" changeset="310061" lat="48.0662717" lon="11.5392129">
    <tag k="created_by" v="Potlatch 0.10b"/>
    <tag k="ele" v="566.8188477"/>
    <tag k="name" v="WaWi"/>
  </node>
  <node id="289124861" version="2" timestamp="2008-08-19T01:07:00Z" uid="36809" user="pfoten_weg_!_" changeset="323871" lat="48.0662717" lon="11.5392129">
    <tag k="created_by" v="RambaZamba"/>
    <tag k="ele" v="566.8188477"/>
    <tag k="name" v="WaWi"/>
  </node>
  <node id="289124861" version="3" timestamp="2008-09-25T19:49:19Z" uid="36809" user="pfoten_weg_!_" changeset="696635" lat="48.0662717" lon="11.5392129">
    <tag k="created_by" v="RambaZamba"/>
    <tag k="ele" v="566.8188477"/>
    <tag k="name" v="WaWi"/>
    <tag k="source" v="survey"/>
  </node>
  <node id="289124861" version="4" timestamp="2008-10-01T02:01:27Z" uid="36809" user="pfoten_weg_!_" changeset="5644" lat="48.0662717" lon="11.5392129">
    <tag k="created_by" v="RambaZamba"/>
    <tag k="ele" v="566.8188477"/>
    <tag k="name" v="WaWi"/>
    <tag k="source" v="survey"/>
  </node>
  <node id="289124861" version="5" timestamp="2009-05-30T12:31:26Z" uid="36809" user="pfoten_weg_!_" changeset="1358472" lat="48.0662596" lon="11.5392024">
    <tag k="created_by" v="RambaZamba"/>
    <tag k="ele" v="567"/>
    <tag k="name" v="WaWi"/>
    <tag k="source" v="survey"/>
  </node>
  <node id="289124861" version="6" timestamp="2009-06-05T18:26:54Z" uid="36809" user="pfoten_weg_!_" changeset="1431622" lat="48.0662904" lon="11.5392066">
    <tag k="created_by" v="RambaZamba"/>
    <tag k="ele" v="567"/>
    <tag k="name" v="WaWi"/>
    <tag k="source" v="survey"/>
  </node>
  <node id="289124861" version="8" timestamp="2009-08-26T00:35:47Z" uid="36809" user="pfoten_weg_!_" changeset="2262648" lat="48.0662904" lon="11.5392066">
    <tag k="ele" v="567"/>
    <tag k="name" v="WaWi"/>
    <tag k="source" v="survey"/>
  </node>
  <node id="289124861" version="9" timestamp="2009-08-26T01:36:56Z" uid="36809" user="pfoten_weg_!_" changeset="2262879" lat="48.0662904" lon="11.5392066">
    <tag k="ele" v="567"/>
    <tag k="name" v="WaWi"/>
    <tag k="source" v="survey"/>
  </node>
  <node id="289124960" version="2" timestamp="2009-05-10T11:47:11Z" uid="9581" user="Lobelt" changeset="1138331" lat="50.9419058" lon="9.9349456"/>
  <node id="289126811" version="3" timestamp="2009-06-03T20:11:34Z" uid="9581" user="Lobelt" changeset="1416701" lat="50.9376689" lon="9.92943">
    <tag k="highway" v="motorway_junction"/>
    <tag k="name" v="Wildeck-Hönebach"/>
    <tag k="ref" v="34"/>
  </node>
  <node id="289126811" version="7" timestamp="2010-09-26T19:44:25Z" uid="9581" user="Lobelt" changeset="5884969" lat="50.9375227" lon="9.9292954">
    <tag k="TMC:cid_58:tabcd_1:Class" v="Point"/>
    <tag k="TMC:cid_58:tabcd_1:Direction" v="positive"/>
    <tag k="TMC:cid_58:tabcd_1:LCLversion" v="9.00"/>
    <tag k="TMC:cid_58:tabcd_1:LocationCode" v="11138"/>
    <tag k="TMC:cid_58:tabcd_1:NextLocationCode" v="11139"/>
    <tag k="TMC:cid_58:tabcd_1:PrevLocationCode" v="59690"/>
    <tag k="highway" v="motorway_junction"/>
    <tag k="name" v="Wildeck-Hönebach"/>
    <tag k="ref" v="34"/>
  </node>
  <node id="289126815" version="2" timestamp="2009-06-03T20:11:34Z" uid="9581" user="Lobelt" changeset="1416701" lat="50.9381311" lon="9.9302225"/>
  <node id="289126819" version="2" timestamp="2009-06-03T20:11:34Z" uid="9581" user="Lobelt" changeset="1416701" lat="50.9381585" lon="9.930471"/>
  <node id="289126819" version="5" timestamp="2010-09-26T19:44:11Z" uid="9581" user="Lobelt" changeset="5884969" lat="50.9381854" lon="9.9304662"/>
  <node id="289126824" version="3" timestamp="2009-06-03T20:11:34Z" uid="9581" user="Lobelt" changeset="1416701" lat="50.9381497" lon="9.9309686"/>
  <node id="289126824" version="5" timestamp="2010-09-26T19:43:09Z" uid="9581" user="Lobelt" changeset="5884969" lat="50.9381635" lon="9.9309876"/>
  <node id="289126828" version="6" timestamp="2009-06-03T20:11:34Z" uid="9581" user="Lobelt" changeset="1416701" lat="50.9376901" lon="9.9321085"/>
  <node id="289128095" version="2" timestamp="2008-09-14T16:27:49Z" uid="6975" user="ulfl" changeset="640534" lat="50.7103687" lon="6.3759885">
    <tag k="name" v="Köttgen"/>
    <tag k="shop" v="hairdresser"/>
  </node>
  <node id="289128831" version="2" timestamp="2008-09-02T21:58:05Z" uid="4667" user="MapZ" changeset="508411" lat="32.6621644" lon="-16.9030714"/>
</osm>
