<?xml version='1.0' encoding='UTF-8'?>
<osm version="0.6" generator="libosmium/2.20.0">
  <node id="291361048" version="2" timestamp="2009-08-22T06:15:17Z" uid="33382" user="de_muur" changeset="2230700" lat="53.6163115" lon="10.5942031"/>
  <node id="291361051" version="2" timestamp="2009-08-22T06:15:17Z" uid="33382" user="de_muur" changeset="2230700" lat="53.617202" lon="10.6000624"/>
  <node id="291362810" version="9" timestamp="2009-03-25T23:03:50Z" uid="49111" user="Markus B" changeset="861683" lat="47.4096217" lon="9.2077994"/>
  <node id="291362816" version="9" timestamp="2009-03-25T23:03:50Z" uid="49111" user="Markus B" changeset="861683" lat="47.4092261" lon="9.2097646"/>
  <node id="291363694" version="3" timestamp="2008-09-14T14:33:09Z" uid="6975" user="ulfl" changeset="640534" lat="60.2416624" lon="24.7802904">
    <tag k="barrier" v="bollard"/>
  </node>
  <node id="291364400" version="4" timestamp="2008-09-14T13:35:34Z" uid="6975" user="ulfl" changeset="640534" lat="48.138413" lon="11.5881201">
    <tag k="name" v="FIX ME"/>
    <tag k="shop" v="hairdresser"/>
  </node>
  <node id="291364458" version="6" timestamp="2008-09-24T03:48:49Z" uid="6975" user="ulfl" changeset="687743" lat="48.1406747" lon="11.5886717">
    <tag k="addr:city" v="München"/>
    <tag k="addr:postcode" v="80538"/>
    <tag k="name" v="FIX ME"/>
    <tag k="shop" v="hairdresser"/>
  </node>
  <node id="291364484" version="10" timestamp="2009-01-03T13:50:18Z" uid="6975" user="ulfl" changeset="720285" lat="48.1402654" lon="11.591302">
    <tag k="addr:city" v="München"/>
    <tag k="addr:country" v="de"/>
    <tag k="addr:housenumber" v="26"/>
    <tag k="addr:postcode" v="80538"/>
    <tag k="addr:street" v="Sternstraße"/>
    <tag k="created_by" v="JOSM"/>
    <tag k="name" v="Augenoptiker Augenstern"/>
    <tag k="phone" v="+49 89  21329865"/>
    <tag k="shop" v="optician"/>
    <tag k="website:official" v="http://www.augenstern-optik.de"/>
  </node>
  <node id="291364487" version="8" timestamp="2008-11-26T02:13:31Z" uid="6975" user="ulfl" changeset="794829" lat="48.1406036" lon="11.5906558">
    <tag k="name" v="Auckenthaler"/>
    <tag k="phone" v="+49 89 26010944"/>
    <tag k="shop" v="hairdresser"/>
  </node>
  <node id="291364491" version="7" timestamp="2008-09-14T13:35:35Z" uid="6975" user="ulfl" changeset="640534" lat="48.1404258" lon="11.591343">
    <tag k="addr:housenumber" v="28"/>
    <tag k="addr:street" v="Sternstraße"/>
    <tag k="name" v="Hundesalon und Mode"/>
    <tag k="phone" v="+49 89  21112552"/>
    <tag k="shop" v="hairdresser"/>
    <tag k="website:official" v="http://www.hundesalon-und-mode.de"/>
  </node>
  <node id="291364493" version="4" timestamp="2008-09-14T13:35:36Z" uid="6975" user="ulfl" changeset="640534" lat="48.1392472" lon="11.5908727">
    <tag k="name" v="Friseur Cut-4-You"/>
    <tag k="shop" v="hairdresser"/>
    <tag k="street" v="Robert-Koch-Straße. 16"/>
  </node>
  <node id="291364493" version="7" timestamp="2008-09-24T03:48:48Z" uid="6975" user="ulfl" changeset="687743" lat="48.139121" lon="11.590917">
    <tag k="addr:city" v="München"/>
    <tag k="addr:housenumber" v="16"/>
    <tag k="addr:postcode" v="80538"/>
    <tag k="addr:street" v="Robert-Koch-Straße"/>
    <tag k="name" v="Friseur Cut-4-You"/>
    <tag k="phone" v="+49 89 229543"/>
    <tag k="shop" v="hairdresser"/>
  </node>
  <node id="291364534" version="5" timestamp="2008-09-14T13:35:37Z" uid="6975" user="ulfl" changeset="640534" lat="48.1393937" lon="11.5873735">
    <tag k="addr:housenumber" v="16"/>
    <tag k="addr:street" v="Sankt-Anna-Straße"/>
    <tag k="name" v="Coiffeur Nino"/>
    <tag k="phone" v="+49 89 297102"/>
    <tag k="shop" v="hairdresser"/>
    <tag k="website:official" v="http://coiffeur-nino.de"/>
  </node>
  <node id="291364534" version="8" timestamp="2008-09-24T03:48:49Z" uid="6975" user="ulfl" changeset="687743" lat="48.1393937" lon="11.5873735">
    <tag k="addr:city" v="München"/>
    <tag k="addr:housenumber" v="16"/>
    <tag k="addr:postcode" v="80538"/>
    <tag k="addr:street" v="Sankt-Anna-Straße"/>
    <tag k="name" v="Coiffeur Nino"/>
    <tag k="phone" v="+49 89 297102"/>
    <tag k="shop" v="hairdresser"/>
    <tag k="website:official" v="http://coiffeur-nino.de"/>
  </node>
  <node id="291364920" version="2" timestamp="2010-04-05T16:22:24Z" uid="163746" user="anti_bot-nonsense" changeset="4334877" lat="52.6398354" lon="19.0593093"/>
  <node id="291364925" version="2" timestamp="2010-04-05T16:29:17Z" uid="163746" user="anti_bot-nonsense" changeset="4334877" lat="52.639206" lon="19.0638237"/>
  <node id="291365357" version="6" timestamp="2008-09-14T13:35:38Z" uid="6975" user="ulfl" changeset="640534" lat="48.1393704" lon="11.5869762">
    <tag k="addr:housenumber" v="11"/>
    <tag k="addr:street" v="Sankt-Anna-Straße"/>
    <tag k="name" v="Gaby&amp;apos;s Haarstudio"/>
    <tag k="phone" v="+49 89 21112424"/>
    <tag k="shop" v="hairdresser"/>
    <tag k="website:official" v="http://www.gabyshaarstudio.de"/>
  </node>
  <node id="291365357" version="10" timestamp="2008-09-24T03:48:49Z" uid="6975" user="ulfl" changeset="687743" lat="48.1394103" lon="11.5869416">
    <tag k="addr:city" v="München"/>
    <tag k="addr:housenumber" v="11"/>
    <tag k="addr:postcode" v="80538"/>
    <tag k="addr:street" v="Sankt-Anna-Straße"/>
    <tag k="name" v="Gaby&amp;apos\ss Haarstudio"/>
    <tag k="phone" v="+49 89 21112424"/>
    <tag k="shop" v="hairdresser"/>
    <tag k="website:official" v="http://www.gabyshaarstudio.de"/>
  </node>
  <node id="291367468" version="2" timestamp="2009-09-22T15:39:25Z" uid="58091" user="Andreas M" changeset="2572856" lat="48.2347138" lon="16.2863782"/>
  <node id="291367470" version="2" timestamp="2009-09-22T15:39:25Z" uid="58091" user="Andreas M" changeset="2572856" lat="48.2348134" lon="16.2861835"/>
  <node id="291367471" version="2" timestamp="2009-09-22T15:39:25Z" uid="58091" user="Andreas M" changeset="2572856" lat="48.2349393" lon="16.2859372"/>
  <node id="291367473" version="2" timestamp="2009-09-22T15:39:25Z" uid="58091" user="Andreas M" changeset="2572856" lat="48.2350521" lon="16.2857168"/>
  <node id="291368015" version="3" timestamp="2009-09-22T15:39:25Z" uid="58091" user="Andreas M" changeset="2572856" lat="48.2346373" lon="16.2865277"/>
  <node id="291369105" version="2" timestamp="2009-09-22T15:39:25Z" uid="58091" user="Andreas M" changeset="2572856" lat="48.2347793" lon="16.2857441"/>
  <node id="291369253" version="2" timestamp="2009-07-28T16:31:23Z" uid="59758" user="rendle" changeset="1966832" lat="27.0879846" lon="56.0645243"/>
  <node id="291369254" version="2" timestamp="2009-07-28T16:31:23Z" uid="59758" user="rendle" changeset="1966832" lat="27.0879999" lon="56.0643784"/>
  <node id="291369255" version="2" timestamp="2009-07-28T16:31:24Z" uid="59758" user="rendle" changeset="1966832" lat="27.0878623" lon="56.0642926"/>
  <node id="291369256" version="2" timestamp="2009-07-28T16:31:21Z" uid="59758" user="rendle" changeset="1966832" lat="27.087358" lon="56.0493151"/>
  <node id="291369772" version="2" timestamp="2009-09-22T15:39:25Z" uid="58091" user="Andreas M" changeset="2572856" lat="48.2351305" lon="16.2870038"/>
  <node id="291369773" version="2" timestamp="2009-09-22T15:39:25Z" uid="58091" user="Andreas M" changeset="2572856" lat="48.2350136" lon="16.2869961"/>
  <node id="291369774" version="2" timestamp="2009-09-22T15:39:25Z" uid="58091" user="Andreas M" changeset="2572856" lat="48.2349258" lon="16.2869618"/>
</osm>
