<?xml version='1.0' encoding='UTF-8'?>
<osm version="0.6" generator="libosmium/2.20.0">
  <node id="293360018" version="1" timestamp="2008-09-03T10:25:07Z" uid="30632" user="antblant" changeset="515077" lat="53.4711229" lon="15.3365227">
    <tag k="name" v="Chociwel"/>
    <tag k="railway" v="station"/>
  </node>
  <node id="293360021" version="1" timestamp="2008-09-03T10:25:07Z" uid="30632" user="antblant" changeset="515077" lat="53.5564748" lon="15.5296594">
    <tag k="name" v="Runowo Pomorskie"/>
    <tag k="railway" v="station"/>
  </node>
  <node id="293360029" version="1" timestamp="2008-09-03T10:25:07Z" uid="30632" user="antblant" changeset="515077" lat="53.6368022" lon="15.6278653">
    <tag k="name" v="Łobez"/>
    <tag k="railway" v="station"/>
  </node>
  <node id="293360030" version="1" timestamp="2008-09-03T10:25:08Z" uid="30632" user="antblant" changeset="515077" lat="53.8697084" lon="15.9527427">
    <tag k="name" v="Rąbino"/>
    <tag k="railway" v="station"/>
  </node>
  <node id="293360031" version="1" timestamp="2008-09-03T10:25:08Z" uid="30632" user="antblant" changeset="515077" lat="54.0104068" lon="15.9777306">
    <tag k="name" v="Białogard"/>
    <tag k="railway" v="station"/>
  </node>
  <node id="293360032" version="1" timestamp="2008-09-03T10:25:08Z" uid="30632" user="antblant" changeset="515077" lat="54.1910717" lon="16.1698009">
    <tag k="name" v="Koszalin"/>
    <tag k="railway" v="station"/>
  </node>
  <node id="293360034" version="1" timestamp="2008-09-03T10:25:08Z" uid="30632" user="antblant" changeset="515077" lat="54.3555927" lon="16.6709893">
    <tag k="name" v="Sławno"/>
    <tag k="railway" v="station"/>
  </node>
  <node id="293360036" version="1" timestamp="2008-09-03T10:25:08Z" uid="30632" user="antblant" changeset="515077" lat="54.4681407" lon="17.0165023">
    <tag k="name" v="Słupsk"/>
    <tag k="railway" v="station"/>
  </node>
  <node id="293360039" version="1" timestamp="2008-09-03T10:25:08Z" uid="30632" user="antblant" changeset="515077" lat="54.5327312" lon="17.751387">
    <tag k="name" v="Lębork"/>
    <tag k="railway" v="station"/>
  </node>
  <node id="293360039" version="2" timestamp="2008-09-22T15:28:32Z" uid="30632" user="antblant" changeset="680284" lat="54.5327312" lon="17.751387">
    <tag k="name" v="Lębork"/>
    <tag k="railway" v="station"/>
  </node>
  <node id="293360041" version="1" timestamp="2008-09-03T10:25:09Z" uid="30632" user="antblant" changeset="515077" lat="54.6056792" lon="18.2304291">
    <tag k="name" v="Wejherowo"/>
    <tag k="railway" v="station"/>
  </node>
  <node id="293360776" version="2" timestamp="2008-09-29T23:53:58Z" uid="1066" user="pavel" changeset="720263" lat="49.9353118" lon="14.6705715">
    <tag k="is_in" v="Czech Republic, Europe"/>
    <tag k="name" v="Kunice"/>
    <tag k="place" v="village"/>
    <tag k="source" v="geonames.org,cs.wikipedia.org,nga.mil"/>
  </node>
  <node id="293362100" version="1" timestamp="2008-09-03T10:34:30Z" uid="18775" user="drlizau" changeset="514262" lat="-23.4472473" lon="144.2732739"/>
  <node id="293362100" version="2" timestamp="2009-06-09T08:35:44Z" uid="74617" user="JohnSmith" changeset="1466182" lat="-23.4472473" lon="144.2732739"/>
</osm>
