<?xml version='1.0' encoding='UTF-8'?>
<osm version="0.6" generator="libosmium/2.20.0">
  <node id="293305174" version="2" timestamp="2009-04-16T22:31:22Z" uid="6975" user="ulfl" changeset="598814" lat="44.218861" lon="-76.6439494">
    <tag k="name" v="The Beer Store"/>
    <tag k="shop" v="alcohol"/>
  </node>
  <node id="293305187" version="2" timestamp="2009-04-16T22:31:11Z" uid="6975" user="ulfl" changeset="598814" lat="44.2193239" lon="-76.6448231">
    <tag k="name" v="LCBO"/>
    <tag k="shop" v="alcohol"/>
  </node>
  <node id="293305190" version="2" timestamp="2008-12-20T13:30:53Z" uid="6975" user="ulfl" changeset="499085" lat="44.2191597" lon="-76.6449182">
    <tag k="name" v="Rogers&apos; Family Hairstyling and Esthetics"/>
    <tag k="shop" v="hairdresser"/>
  </node>
  <node id="293305195" version="2" timestamp="2008-09-24T04:03:24Z" uid="6975" user="ulfl" changeset="687743" lat="44.2190025" lon="-76.6456349">
    <tag k="amenity" v="hospital"/>
    <tag k="name" v="Amherst Medical Centre"/>
  </node>
  <node id="293305334" version="2" timestamp="2008-12-14T11:54:34Z" uid="6975" user="ulfl" changeset="366940" lat="44.2374088" lon="-76.5921437">
    <tag k="amenity" v="bench"/>
    <tag k="highway" v="bus_stop"/>
  </node>
  <node id="293306943" version="2" timestamp="2008-09-14T13:09:15Z" uid="6975" user="ulfl" changeset="640534" lat="24.8107687" lon="67.0580763">
    <tag k="amenity" v="place_of_worship"/>
    <tag k="denomination" v="sunni"/>
    <tag k="ref" v="Sultan Masjid"/>
    <tag k="religion" v="muslim"/>
  </node>
  <node id="293309425" version="3" timestamp="2008-10-23T05:32:30Z" uid="6975" user="ulfl" changeset="525020" lat="43.6552921" lon="-79.3812813">
    <tag k="name" v="Sears"/>
    <tag k="shop" v="department_store"/>
  </node>
</osm>
