<?xml version='1.0' encoding='UTF-8'?>
<osm version="0.6" generator="libosmium/2.20.0">
  <node id="297341608" version="4" timestamp="2009-09-30T12:43:19Z" uid="36809" user="pfoten_weg_!_" changeset="2687909" lat="48.1819674" lon="11.2543532">
    <tag k="addr:city" v="Fürstenfeldbruck"/>
    <tag k="addr:housenumber" v="14"/>
    <tag k="addr:postcode" v="82256"/>
    <tag k="addr:street" v="Augsburger Straße"/>
    <tag k="amenity" v="restaurant"/>
    <tag k="name" v="parkcafe"/>
  </node>
  <node id="297341978" version="2" timestamp="2010-08-29T11:26:22Z" uid="33382" user="de_muur" changeset="5624577" lat="53.6237914" lon="10.2999976"/>
  <node id="297342167" version="2" timestamp="2008-09-24T04:09:33Z" uid="6975" user="ulfl" changeset="687743" lat="48.8954964" lon="11.1837292">
    <tag k="amenity" v="monastery"/>
    <tag k="name" v="Benediktinerinnenabtei Sankt Walburg"/>
  </node>
  <node id="297342500" version="1" timestamp="2008-09-15T21:03:50Z" uid="59758" user="rendle" changeset="647390" lat="51.0479863" lon="3.9785447">
    <tag k="created_by" v="Potlatch 0.10b"/>
    <tag k="ele" v="51.000000"/>
    <tag k="leisure" v="casino"/>
    <tag k="name" v="Riviera"/>
  </node>
  <node id="297342621" version="1" timestamp="2008-09-15T21:04:11Z" uid="59758" user="rendle" changeset="647390" lat="51.0478568" lon="3.9789223">
    <tag k="amenity" v="restaurant"/>
    <tag k="created_by" v="Potlatch 0.10b"/>
    <tag k="ele" v="50.000000"/>
    <tag k="name" v="&apos;t Zoetemeer"/>
  </node>
  <node id="297344128" version="2" timestamp="2009-05-20T05:44:04Z" uid="27600" user="Islanit" changeset="1258231" lat="53.4703457" lon="10.2749281"/>
  <node id="297345292" version="14" timestamp="2011-03-06T09:45:11Z" uid="33382" user="de_muur" changeset="7471158" lat="53.6575998" lon="10.513167"/>
  <node id="297345293" version="14" timestamp="2011-03-06T09:45:09Z" uid="33382" user="de_muur" changeset="7471158" lat="53.657562" lon="10.5131653"/>
  <node id="297348081" version="2" timestamp="2008-10-23T05:20:47Z" uid="6975" user="ulfl" changeset="525020" lat="48.8937397" lon="11.1816719">
    <tag k="shop" v="boat_rental"/>
  </node>
  <node id="297348086" version="2" timestamp="2008-09-24T04:12:21Z" uid="6975" user="ulfl" changeset="687743" lat="48.8909195" lon="11.1840291">
    <tag k="amenity" v="theatre"/>
    <tag k="name" v="Altes Stadttheater"/>
  </node>
  <node id="297348111" version="2" timestamp="2008-09-24T04:09:32Z" uid="6975" user="ulfl" changeset="687743" lat="48.8901796" lon="11.1910059">
    <tag k="amenity" v="monastery"/>
    <tag k="name" v="Kapuzinerkloster"/>
  </node>
  <node id="297348176" version="2" timestamp="2008-11-11T21:39:06Z" uid="33382" user="de_muur" changeset="735137" lat="53.5183718" lon="10.2853494"/>
  <node id="297349242" version="2" timestamp="2009-04-10T03:50:32Z" uid="113393" user="Anjer" changeset="393422" lat="12.1046291" lon="-68.9316189">
    <tag k="amenity" v="fast_food"/>
    <tag k="created_by" v="Potlatch 0.10b"/>
    <tag k="name" v="McDonald&apos;s"/>
  </node>
</osm>
