<?xml version='1.0' encoding='UTF-8'?>
<osm version="0.6" generator="libosmium/2.20.0">
  <node id="298203269" version="1" timestamp="2008-09-19T18:26:12Z" uid="58091" user="Andreas M" changeset="666044" lat="48.2033532" lon="16.376916">
    <tag k="amenity" v="bicycle_rental"/>
    <tag k="name" v="Johannesgasse"/>
    <tag k="network" v="Citybike Wien"/>
    <tag k="ref" v="109"/>
    <tag k="spaces" v="20"/>
  </node>
  <node id="298203269" version="2" timestamp="2008-12-06T16:46:33Z" uid="58091" user="Andreas M" changeset="209642" lat="48.2033532" lon="16.376916">
    <tag k="amenity" v="bicycle_rental"/>
    <tag k="name" v="Johannesgasse"/>
    <tag k="network" v="Citybike Wien"/>
    <tag k="ref" v="109"/>
    <tag k="spaces" v="20"/>
    <tag k="url" v="http://www.citybikewien.at/"/>
  </node>
  <node id="298203270" version="1" timestamp="2008-09-19T18:26:12Z" uid="58091" user="Andreas M" changeset="666044" lat="48.2099765" lon="16.3604084">
    <tag k="amenity" v="bicycle_rental"/>
    <tag k="name" v="Rathausplatz"/>
    <tag k="network" v="Citybike Wien"/>
    <tag k="ref" v="110"/>
    <tag k="spaces" v="20"/>
  </node>
  <node id="298203270" version="2" timestamp="2008-12-06T16:46:33Z" uid="58091" user="Andreas M" changeset="209642" lat="48.2099765" lon="16.3604084">
    <tag k="amenity" v="bicycle_rental"/>
    <tag k="name" v="Rathausplatz"/>
    <tag k="network" v="Citybike Wien"/>
    <tag k="ref" v="110"/>
    <tag k="spaces" v="20"/>
    <tag k="url" v="http://www.citybikewien.at/"/>
  </node>
  <node id="298203272" version="1" timestamp="2008-09-19T18:26:12Z" uid="58091" user="Andreas M" changeset="666044" lat="48.202537" lon="16.369481">
    <tag k="amenity" v="bicycle_rental"/>
    <tag k="name" v="Oper"/>
    <tag k="network" v="Citybike Wien"/>
    <tag k="ref" v="111"/>
    <tag k="spaces" v="18"/>
  </node>
  <node id="298203272" version="2" timestamp="2008-12-06T16:46:31Z" uid="58091" user="Andreas M" changeset="209642" lat="48.202537" lon="16.369481">
    <tag k="amenity" v="bicycle_rental"/>
    <tag k="name" v="Oper"/>
    <tag k="network" v="Citybike Wien"/>
    <tag k="ref" v="111"/>
    <tag k="spaces" v="18"/>
    <tag k="url" v="http://www.citybikewien.at/"/>
  </node>
  <node id="298203273" version="1" timestamp="2008-09-19T18:26:12Z" uid="58091" user="Andreas M" changeset="666044" lat="48.2021571" lon="16.3715154">
    <tag k="amenity" v="bicycle_rental"/>
    <tag k="name" v="Kärntnerring"/>
    <tag k="network" v="Citybike Wien"/>
    <tag k="ref" v="112"/>
    <tag k="spaces" v="16"/>
  </node>
  <node id="298203273" version="2" timestamp="2008-09-19T19:30:29Z" uid="58091" user="Andreas M" changeset="666044" lat="48.2021571" lon="16.3715154">
    <tag k="amenity" v="bicycle_rental"/>
    <tag k="name" v="Kärntner Ring"/>
    <tag k="network" v="Citybike Wien"/>
    <tag k="ref" v="112"/>
    <tag k="spaces" v="16"/>
  </node>
  <node id="298203273" version="3" timestamp="2008-12-06T16:46:30Z" uid="58091" user="Andreas M" changeset="209642" lat="48.2021571" lon="16.3715154">
    <tag k="amenity" v="bicycle_rental"/>
    <tag k="name" v="Kärntner Ring"/>
    <tag k="network" v="Citybike Wien"/>
    <tag k="ref" v="112"/>
    <tag k="spaces" v="16"/>
    <tag k="url" v="http://www.citybikewien.at/"/>
  </node>
  <node id="298203399" version="2" timestamp="2008-09-30T10:32:02Z" uid="1066" user="pavel" changeset="720911" lat="49.1482443" lon="15.1559308">
    <tag k="is_in" v="Czech Republic, Europe"/>
    <tag k="name" v="Vlčice u Střížkovic"/>
    <tag k="place" v="village"/>
    <tag k="source" v="cuzk:km"/>
  </node>
  <node id="298203400" version="3" timestamp="2008-09-30T10:25:54Z" uid="1066" user="pavel" changeset="720911" lat="49.1439995" lon="15.1603365">
    <tag k="is_in" v="Czech Republic, Europe"/>
    <tag k="name" v="Střížovice u Kunžaku"/>
    <tag k="place" v="village"/>
    <tag k="source" v="geonames.org,cs.wikipedia.org,nga.mil"/>
  </node>
  <node id="298203623" version="2" timestamp="2008-09-30T09:54:30Z" uid="1066" user="pavel" changeset="720911" lat="49.1948084" lon="15.094111">
    <tag k="is_in" v="Czech Republic, Europe"/>
    <tag k="name" v="Bednárec"/>
    <tag k="place" v="village"/>
    <tag k="source" v="cuzk:km"/>
  </node>
  <node id="298203626" version="2" timestamp="2008-09-30T10:03:27Z" uid="1066" user="pavel" changeset="720911" lat="49.1657528" lon="15.0151355">
    <tag k="is_in" v="Czech Republic, Europe"/>
    <tag k="name" v="Dolní Skrýchov"/>
    <tag k="place" v="village"/>
    <tag k="source" v="cuzk:km"/>
  </node>
  <node id="298203627" version="2" timestamp="2008-09-30T10:00:18Z" uid="1066" user="pavel" changeset="720911" lat="49.1086204" lon="15.0770391">
    <tag k="is_in" v="Czech Republic, Europe"/>
    <tag k="name" v="Kačlehy"/>
    <tag k="place" v="village"/>
    <tag k="source" v="cuzk:km"/>
  </node>
  <node id="298203628" version="2" timestamp="2008-09-30T10:26:37Z" uid="1066" user="pavel" changeset="720911" lat="49.1121079" lon="15.1581432">
    <tag k="is_in" v="Czech Republic, Europe"/>
    <tag k="name" v="Lomy u Kunžaku"/>
    <tag k="place" v="village"/>
    <tag k="source" v="cuzk:km"/>
  </node>
  <node id="298203629" version="2" timestamp="2008-09-30T10:08:23Z" uid="1066" user="pavel" changeset="720911" lat="49.1907508" lon="15.1678899">
    <tag k="is_in" v="Czech Republic, Europe"/>
    <tag k="name" v="Česká Olešná"/>
    <tag k="place" v="village"/>
    <tag k="source" v="cuzk:km"/>
  </node>
  <node id="298204073" version="1" timestamp="2008-09-19T18:31:37Z" uid="58091" user="Andreas M" changeset="666044" lat="48.2185051" lon="16.3899475">
    <tag k="amenity" v="bicycle_rental"/>
    <tag k="name" v="Praterstern"/>
    <tag k="network" v="Citybike Wien"/>
    <tag k="ref" v="201"/>
    <tag k="spaces" v="20"/>
  </node>
  <node id="298204073" version="2" timestamp="2008-12-06T16:46:33Z" uid="58091" user="Andreas M" changeset="209642" lat="48.2185051" lon="16.3899475">
    <tag k="amenity" v="bicycle_rental"/>
    <tag k="name" v="Praterstern"/>
    <tag k="network" v="Citybike Wien"/>
    <tag k="ref" v="201"/>
    <tag k="spaces" v="20"/>
    <tag k="url" v="http://www.citybikewien.at/"/>
  </node>
  <node id="298204073" version="3" timestamp="2009-03-28T16:46:51Z" uid="58091" user="Andreas M" changeset="865858" lat="48.2184149" lon="16.3902734">
    <tag k="amenity" v="bicycle_rental"/>
    <tag k="name" v="Praterstern"/>
    <tag k="network" v="Citybike Wien"/>
    <tag k="ref" v="201"/>
    <tag k="spaces" v="20"/>
    <tag k="url" v="http://www.citybikewien.at/"/>
  </node>
  <node id="298204073" version="4" timestamp="2009-08-04T11:26:33Z" uid="58091" user="Andreas M" changeset="2034654" lat="48.2184149" lon="16.3902734">
    <tag k="amenity" v="bicycle_rental"/>
    <tag k="name" v="Praterstern"/>
    <tag k="network" v="Citybike Wien"/>
    <tag k="ref" v="201"/>
    <tag k="spaces" v="38"/>
    <tag k="url" v="http://www.citybikewien.at/"/>
  </node>
  <node id="298204073" version="6" timestamp="2010-03-24T10:53:59Z" uid="58091" user="Andreas M" changeset="4220197" lat="48.2184149" lon="16.3902734">
    <tag k="amenity" v="bicycle_rental"/>
    <tag k="capacity" v="38"/>
    <tag k="name" v="Heinestraße"/>
    <tag k="network" v="Citybike Wien"/>
    <tag k="ref" v="201"/>
    <tag k="url" v="http://www.citybikewien.at/"/>
  </node>
  <node id="298204074" version="1" timestamp="2008-09-19T18:31:38Z" uid="58091" user="Andreas M" changeset="666044" lat="48.2159366" lon="16.3860074">
    <tag k="amenity" v="bicycle_rental"/>
    <tag k="name" v="Nepomukgasse"/>
    <tag k="network" v="Citybike Wien"/>
    <tag k="ref" v="202"/>
    <tag k="spaces" v="15"/>
  </node>
  <node id="298204074" version="3" timestamp="2008-12-06T16:46:33Z" uid="58091" user="Andreas M" changeset="209642" lat="48.215764" lon="16.3861937">
    <tag k="amenity" v="bicycle_rental"/>
    <tag k="name" v="Nepomukgasse"/>
    <tag k="network" v="Citybike Wien"/>
    <tag k="ref" v="202"/>
    <tag k="spaces" v="15"/>
    <tag k="url" v="http://www.citybikewien.at/"/>
  </node>
  <node id="298204825" version="1" timestamp="2008-09-19T18:35:03Z" uid="58091" user="Andreas M" changeset="666044" lat="48.2157689" lon="16.3797605">
    <tag k="amenity" v="bicycle_rental"/>
    <tag k="name" v="Karmeliterplatz"/>
    <tag k="network" v="Citybike Wien"/>
    <tag k="ref" v="203"/>
    <tag k="spaces" v="14"/>
  </node>
  <node id="298204825" version="2" timestamp="2008-12-06T16:46:25Z" uid="58091" user="Andreas M" changeset="209642" lat="48.2157689" lon="16.3797605">
    <tag k="amenity" v="bicycle_rental"/>
    <tag k="name" v="Karmeliterplatz"/>
    <tag k="network" v="Citybike Wien"/>
    <tag k="ref" v="203"/>
    <tag k="spaces" v="14"/>
    <tag k="url" v="http://www.citybikewien.at/"/>
  </node>
  <node id="298205982" version="1" timestamp="2008-09-19T18:43:03Z" uid="58091" user="Andreas M" changeset="666044" lat="48.2194599" lon="16.3825326">
    <tag k="amenity" v="bicycle_rental"/>
    <tag k="name" v="Novaragasse"/>
    <tag k="network" v="Citybike Wien"/>
    <tag k="ref" v="205"/>
    <tag k="spaces" v="24"/>
  </node>
  <node id="298205982" version="2" timestamp="2008-12-06T16:46:27Z" uid="58091" user="Andreas M" changeset="209642" lat="48.2194599" lon="16.3825326">
    <tag k="amenity" v="bicycle_rental"/>
    <tag k="name" v="Novaragasse"/>
    <tag k="network" v="Citybike Wien"/>
    <tag k="ref" v="205"/>
    <tag k="spaces" v="24"/>
    <tag k="url" v="http://www.citybikewien.at/"/>
  </node>
  <node id="298205984" version="1" timestamp="2008-09-19T18:43:03Z" uid="58091" user="Andreas M" changeset="666044" lat="48.2174101" lon="16.406524">
    <tag k="amenity" v="bicycle_rental"/>
    <tag k="name" v="Messeplatz"/>
    <tag k="network" v="Citybike Wien"/>
    <tag k="ref" v="207"/>
    <tag k="spaces" v="40"/>
  </node>
  <node id="298205984" version="2" timestamp="2008-12-06T16:46:22Z" uid="58091" user="Andreas M" changeset="209642" lat="48.2174101" lon="16.406524">
    <tag k="amenity" v="bicycle_rental"/>
    <tag k="name" v="Messeplatz"/>
    <tag k="network" v="Citybike Wien"/>
    <tag k="ref" v="207"/>
    <tag k="spaces" v="40"/>
    <tag k="url" v="http://www.citybikewien.at/"/>
  </node>
  <node id="298205986" version="1" timestamp="2008-09-19T18:43:03Z" uid="58091" user="Andreas M" changeset="666044" lat="48.2141241" lon="16.4138656">
    <tag k="amenity" v="bicycle_rental"/>
    <tag k="name" v="Krieau"/>
    <tag k="network" v="Citybike Wien"/>
    <tag k="ref" v="208"/>
    <tag k="spaces" v="24"/>
  </node>
  <node id="298205986" version="2" timestamp="2008-12-06T16:46:23Z" uid="58091" user="Andreas M" changeset="209642" lat="48.2141241" lon="16.4138656">
    <tag k="amenity" v="bicycle_rental"/>
    <tag k="name" v="Krieau"/>
    <tag k="network" v="Citybike Wien"/>
    <tag k="ref" v="208"/>
    <tag k="spaces" v="24"/>
    <tag k="url" v="http://www.citybikewien.at/"/>
  </node>
  <node id="298205988" version="1" timestamp="2008-09-19T18:43:03Z" uid="58091" user="Andreas M" changeset="666044" lat="48.210462" lon="16.4211216">
    <tag k="amenity" v="bicycle_rental"/>
    <tag k="name" v="Stadion Center"/>
    <tag k="network" v="Citybike Wien"/>
    <tag k="ref" v="209"/>
    <tag k="spaces" v="40"/>
  </node>
  <node id="298205988" version="3" timestamp="2008-12-06T16:46:23Z" uid="58091" user="Andreas M" changeset="209642" lat="48.2101515" lon="16.4210045">
    <tag k="amenity" v="bicycle_rental"/>
    <tag k="name" v="Stadion Center"/>
    <tag k="network" v="Citybike Wien"/>
    <tag k="ref" v="209"/>
    <tag k="spaces" v="40"/>
    <tag k="url" v="http://www.citybikewien.at/"/>
  </node>
  <node id="298206557" version="2" timestamp="2008-09-30T10:26:08Z" uid="1066" user="pavel" changeset="720911" lat="49.1182454" lon="15.0576042">
    <tag k="is_in" v="Czech Republic, Europe"/>
    <tag k="name" v="Hrutkov"/>
    <tag k="place" v="village"/>
    <tag k="source" v="cuzk:km"/>
  </node>
  <node id="298207605" version="1" timestamp="2008-09-19T18:47:12Z" uid="58091" user="Andreas M" changeset="666044" lat="48.1988316" lon="16.3770545">
    <tag k="amenity" v="bicycle_rental"/>
    <tag k="name" v="Schwarzenbergplatz"/>
    <tag k="network" v="Citybike Wien"/>
    <tag k="ref" v="301"/>
    <tag k="spaces" v="20"/>
  </node>
  <node id="298207605" version="2" timestamp="2008-12-06T16:46:31Z" uid="58091" user="Andreas M" changeset="209642" lat="48.1988316" lon="16.3770545">
    <tag k="amenity" v="bicycle_rental"/>
    <tag k="name" v="Schwarzenbergplatz"/>
    <tag k="network" v="Citybike Wien"/>
    <tag k="ref" v="301"/>
    <tag k="spaces" v="20"/>
    <tag k="url" v="http://www.citybikewien.at/"/>
  </node>
  <node id="298208903" version="1" timestamp="2008-09-19T18:53:04Z" uid="58091" user="Andreas M" changeset="666044" lat="48.2107668" lon="16.3902954">
    <tag k="amenity" v="bicycle_rental"/>
    <tag k="name" v="Radetzkyplatz"/>
    <tag k="network" v="Citybike Wien"/>
    <tag k="ref" v="302"/>
    <tag k="spaces" v="20"/>
  </node>
  <node id="298208903" version="3" timestamp="2008-12-06T16:46:31Z" uid="58091" user="Andreas M" changeset="209642" lat="48.2107515" lon="16.3903248">
    <tag k="amenity" v="bicycle_rental"/>
    <tag k="name" v="Radetzkyplatz"/>
    <tag k="network" v="Citybike Wien"/>
    <tag k="ref" v="302"/>
    <tag k="spaces" v="20"/>
    <tag k="url" v="http://www.citybikewien.at/"/>
  </node>
</osm>
