<?xml version='1.0' encoding='UTF-8'?>
<osm version="0.6" generator="libosmium/2.20.0">
  <node id="29830245" version="2" timestamp="2009-09-18T20:18:24Z" uid="20587" user="balrog-kun" changeset="2528237" lat="51.8874579" lon="19.3110412">
    <tag k="name" v="Grotniki"/>
    <tag k="operator" v="PKP"/>
    <tag k="railway" v="halt"/>
    <tag k="wikipedia" v="pl:Grotniki (przystanek kolejowy)"/>
  </node>
  <node id="29830311" version="2" timestamp="2009-09-18T20:18:24Z" uid="20587" user="balrog-kun" changeset="2528237" lat="51.9239738" lon="19.2671965">
    <tag k="name" v="Chociszew"/>
    <tag k="operator" v="PKP"/>
    <tag k="railway" v="station"/>
    <tag k="wikipedia" v="pl:Chociszew (stacja kolejowa)"/>
  </node>
  <node id="29830362" version="2" timestamp="2009-09-18T20:18:24Z" uid="20587" user="balrog-kun" changeset="2528237" lat="51.9722367" lon="19.2659174">
    <tag k="name" v="Ozorków"/>
    <tag k="operator" v="PKP"/>
    <tag k="railway" v="station"/>
    <tag k="wikipedia" v="pl:Ozorków (stacja kolejowa)"/>
  </node>
  <node id="29830399" version="2" timestamp="2009-09-18T20:18:24Z" uid="20587" user="balrog-kun" changeset="2528237" lat="52.0188004" lon="19.2221353">
    <tag k="name" v="Sierpów"/>
    <tag k="operator" v="PKP"/>
    <tag k="railway" v="halt"/>
    <tag k="wikipedia" v="pl:Sierpów (przystanek kolejowy)"/>
  </node>
  <node id="29830409" version="2" timestamp="2009-09-18T20:18:24Z" uid="20587" user="balrog-kun" changeset="2528237" lat="52.0491086" lon="19.1933063">
    <tag k="name" v="Łęczyca"/>
    <tag k="operator" v="PKP"/>
    <tag k="railway" v="station"/>
    <tag k="wikipedia" v="pl:Łęczyca (stacja kolejowa)"/>
  </node>
  <node id="29830442" version="2" timestamp="2009-09-18T20:18:24Z" uid="20587" user="balrog-kun" changeset="2528237" lat="52.1127652" lon="19.2199214">
    <tag k="name" v="Gawrony"/>
    <tag k="operator" v="PKP"/>
    <tag k="railway" v="halt"/>
    <tag k="wikipedia" v="pl:Gawrony (przystanek kolejowy)"/>
  </node>
  <node id="29830460" version="2" timestamp="2009-09-18T09:55:37Z" uid="20587" user="balrog-kun" changeset="2522186" lat="52.156893" lon="19.2763989">
    <tag k="name" v="Witonia"/>
    <tag k="operator" v="PKP"/>
    <tag k="railway" v="station"/>
  </node>
  <node id="29830460" version="3" timestamp="2009-09-18T20:18:21Z" uid="20587" user="balrog-kun" changeset="2528237" lat="52.156893" lon="19.2763989">
    <tag k="name" v="Witonia"/>
    <tag k="operator" v="PKP"/>
    <tag k="railway" v="station"/>
    <tag k="wikipedia" v="pl:Witonia (stacja kolejowa)"/>
  </node>
  <node id="29830464" version="4" timestamp="2009-09-18T09:55:37Z" uid="20587" user="balrog-kun" changeset="2522186" lat="52.1668488" lon="19.288747"/>
  <node id="29830465" version="4" timestamp="2009-09-18T12:17:31Z" uid="20587" user="balrog-kun" changeset="2523165" lat="52.1715005" lon="19.2944256"/>
  <node id="29830466" version="4" timestamp="2009-09-18T12:17:31Z" uid="20587" user="balrog-kun" changeset="2523165" lat="52.1758863" lon="19.2998626"/>
  <node id="29830467" version="4" timestamp="2009-09-18T12:17:31Z" uid="20587" user="balrog-kun" changeset="2523165" lat="52.1805017" lon="19.3055171"/>
  <node id="29830468" version="4" timestamp="2009-09-18T12:17:30Z" uid="20587" user="balrog-kun" changeset="2523165" lat="52.1827853" lon="19.308441"/>
  <node id="29830469" version="4" timestamp="2009-09-18T12:17:30Z" uid="20587" user="balrog-kun" changeset="2523165" lat="52.1835948" lon="19.3096251"/>
  <node id="29830470" version="4" timestamp="2009-09-18T12:17:30Z" uid="20587" user="balrog-kun" changeset="2523165" lat="52.1871832" lon="19.3151467"/>
  <node id="29830475" version="4" timestamp="2009-09-18T12:17:30Z" uid="20587" user="balrog-kun" changeset="2523165" lat="52.1898776" lon="19.3193513"/>
  <node id="29830476" version="4" timestamp="2009-09-18T12:17:30Z" uid="20587" user="balrog-kun" changeset="2523165" lat="52.1930431" lon="19.3242325"/>
  <node id="29830477" version="4" timestamp="2009-09-18T12:17:30Z" uid="20587" user="balrog-kun" changeset="2523165" lat="52.1953267" lon="19.3277485"/>
  <node id="29830478" version="4" timestamp="2009-09-18T12:17:29Z" uid="20587" user="balrog-kun" changeset="2523165" lat="52.1958704" lon="19.3284492"/>
  <node id="29830479" version="4" timestamp="2009-09-18T12:17:30Z" uid="20587" user="balrog-kun" changeset="2523165" lat="52.1997125" lon="19.3329801"/>
  <node id="29830480" version="4" timestamp="2009-09-18T12:17:29Z" uid="20587" user="balrog-kun" changeset="2523165" lat="52.2007033" lon="19.3341641"/>
  <node id="29830481" version="4" timestamp="2009-09-18T12:17:29Z" uid="20587" user="balrog-kun" changeset="2523165" lat="52.2015128" lon="19.3351065"/>
  <node id="29830482" version="4" timestamp="2009-09-18T12:17:29Z" uid="20587" user="balrog-kun" changeset="2523165" lat="52.2020806" lon="19.3357832"/>
  <node id="29830483" version="4" timestamp="2009-09-18T12:17:29Z" uid="20587" user="balrog-kun" changeset="2523165" lat="52.2026364" lon="19.3367256"/>
  <node id="29830484" version="4" timestamp="2009-09-18T09:55:37Z" uid="20587" user="balrog-kun" changeset="2522186" lat="52.2052921" lon="19.3418468"/>
  <node id="29830506" version="4" timestamp="2009-08-07T19:46:19Z" uid="66036" user="h4v" changeset="2069677" lat="52.2237992" lon="19.3563346">
    <tag k="railway" v="level_crossing"/>
  </node>
  <node id="29830512" version="4" timestamp="2009-08-01T23:15:21Z" uid="66036" user="h4v" changeset="2008893" lat="52.2269433" lon="19.3492294"/>
  <node id="29830516" version="3" timestamp="2009-09-18T15:38:10Z" uid="20587" user="balrog-kun" changeset="2525577" lat="52.2278465" lon="19.3465505"/>
  <node id="29830517" version="3" timestamp="2009-09-18T15:38:11Z" uid="20587" user="balrog-kun" changeset="2525577" lat="52.2280763" lon="19.3459923"/>
  <node id="29830518" version="3" timestamp="2009-09-18T15:38:10Z" uid="20587" user="balrog-kun" changeset="2525577" lat="52.2282022" lon="19.3454778"/>
  <node id="29830557" version="3" timestamp="2009-10-11T19:31:37Z" uid="20587" user="balrog-kun" changeset="2819322" lat="52.2377225" lon="19.2283524">
    <tag k="name" v="Nowe Kutnowskie"/>
    <tag k="railway" v="halt"/>
    <tag k="wikipedia" v="pl:Nowe Kutnowskie"/>
  </node>
  <node id="29830566" version="3" timestamp="2009-10-11T19:57:47Z" uid="20587" user="balrog-kun" changeset="2819645" lat="52.2355103" lon="19.1674664">
    <tag k="name" v="Krezewie"/>
    <tag k="railway" v="station"/>
    <tag k="wikipedia" v="pl:Krzewie (stacja kolejowa)"/>
  </node>
  <node id="29830586" version="2" timestamp="2009-10-11T19:57:47Z" uid="20587" user="balrog-kun" changeset="2819645" lat="52.2304786" lon="19.0262762">
    <tag k="name" v="Turzynów"/>
    <tag k="railway" v="halt"/>
    <tag k="ref" v="1466"/>
    <tag k="wikipedia" v="pl:Turzynów (przystanek kolejowy)"/>
  </node>
  <node id="29830603" version="3" timestamp="2009-10-11T19:57:47Z" uid="20587" user="balrog-kun" changeset="2819645" lat="52.2273844" lon="18.8912309">
    <tag k="name" v="Kłodawa"/>
    <tag k="railway" v="station"/>
    <tag k="wikipedia" v="pl:Kłodawa (stacja kolejowa)"/>
  </node>
  <node id="29830619" version="3" timestamp="2009-10-11T19:57:47Z" uid="20587" user="balrog-kun" changeset="2819645" lat="52.2159909" lon="18.7679118">
    <tag k="name" v="Barłogi"/>
    <tag k="railway" v="station"/>
    <tag k="wikipedia" v="pl:Barłogi (stacja kolejowa)"/>
  </node>
  <node id="29830649" version="2" timestamp="2009-10-11T19:57:47Z" uid="20587" user="balrog-kun" changeset="2819645" lat="52.211107" lon="18.6319894">
    <tag k="name" v="Koło"/>
    <tag k="name:de" v="Warthbrücken"/>
    <tag k="old_name" v="Warthbrücken"/>
    <tag k="railway" v="station"/>
    <tag k="wikipedia" v="pl:Koło (stacja kolejowa)"/>
  </node>
  <node id="29830649" version="3" timestamp="2010-07-24T01:13:57Z" uid="20587" user="balrog-kun" changeset="5300202" lat="52.2113543" lon="18.6315301">
    <tag k="name" v="Koło"/>
    <tag k="name:de" v="Warthbrücken"/>
    <tag k="old_name" v="Warthbrücken"/>
    <tag k="railway" v="station"/>
    <tag k="wikipedia" v="pl:Koło (stacja kolejowa)"/>
  </node>
  <node id="29830665" version="2" timestamp="2009-10-11T19:57:47Z" uid="20587" user="balrog-kun" changeset="2819645" lat="52.2443676" lon="18.5647165">
    <tag k="name" v="Budki Nowe"/>
    <tag k="railway" v="halt"/>
    <tag k="wikipedia" v="pl:Budki Nowe"/>
  </node>
  <node id="29830683" version="2" timestamp="2009-10-11T19:57:47Z" uid="20587" user="balrog-kun" changeset="2819645" lat="52.2451405" lon="18.4755456">
    <tag k="name" v="Kramsk"/>
    <tag k="railway" v="station"/>
    <tag k="ref" v="7218"/>
    <tag k="wikipedia" v="pl:Kramsk (stacja kolejowa)"/>
  </node>
  <node id="29830753" version="2" timestamp="2009-10-11T19:57:47Z" uid="20587" user="balrog-kun" changeset="2819645" lat="52.2312738" lon="18.2523065">
    <tag k="name" v="Konin"/>
    <tag k="note" v="TODO: obsługuje też linię 388"/>
    <tag k="railway" v="station"/>
    <tag k="ref" v="79"/>
    <tag k="wikipedia" v="pl:Konin (stacja kolejowa)"/>
  </node>
  <node id="29830764" version="1" timestamp="2007-06-01T13:46:41Z" uid="1066" user="pavel" changeset="75973" lat="49.9722493" lon="14.9081002">
    <tag k="created_by" v="JOSM"/>
    <tag k="name" v="Oleska"/>
    <tag k="place" v="village"/>
  </node>
  <node id="29830764" version="3" timestamp="2007-10-28T20:30:48Z" uid="1066" user="pavel" changeset="340948" lat="49.9722493" lon="14.9081002">
    <tag k="created_by" v="JOSM"/>
    <tag k="name" v="Oleška"/>
    <tag k="place" v="village"/>
  </node>
  <node id="29830765" version="1" timestamp="2007-06-01T13:46:48Z" uid="1066" user="pavel" changeset="75973" lat="50.0368304" lon="14.7230762">
    <tag k="created_by" v="JOSM"/>
    <tag k="name" v="Trebohostice"/>
    <tag k="place" v="village"/>
  </node>
  <node id="29830765" version="3" timestamp="2008-09-29T23:31:17Z" uid="1066" user="pavel" changeset="720263" lat="50.0368304" lon="14.7230762">
    <tag k="is_in" v="Czech Republic, Europe"/>
    <tag k="name" v="Třebohostice"/>
    <tag k="place" v="village"/>
  </node>
  <node id="29830766" version="1" timestamp="2007-06-01T13:46:54Z" uid="1066" user="pavel" changeset="75973" lat="50.0192551" lon="14.7369562">
    <tag k="created_by" v="JOSM"/>
    <tag k="name" v="Doubek"/>
    <tag k="place" v="village"/>
  </node>
  <node id="29830766" version="2" timestamp="2008-09-30T00:06:01Z" uid="1066" user="pavel" changeset="720263" lat="50.0192551" lon="14.7369562">
    <tag k="is_in" v="Czech Republic, Europe"/>
    <tag k="name" v="Doubek"/>
    <tag k="place" v="village"/>
  </node>
  <node id="29830767" version="1" timestamp="2007-06-01T13:47:07Z" uid="1066" user="pavel" changeset="75973" lat="50.0065109" lon="14.7132171">
    <tag k="created_by" v="JOSM"/>
    <tag k="name" v="Babice"/>
    <tag k="place" v="village"/>
  </node>
  <node id="29830767" version="2" timestamp="2008-09-29T22:51:17Z" uid="1066" user="pavel" changeset="720263" lat="50.0065109" lon="14.7132171">
    <tag k="is_in" v="Czech Republic, Europe"/>
    <tag k="name" v="Babice"/>
    <tag k="place" v="village"/>
  </node>
  <node id="29830768" version="1" timestamp="2007-06-01T13:47:22Z" uid="1066" user="pavel" changeset="75973" lat="50.0476081" lon="14.7259757">
    <tag k="created_by" v="JOSM"/>
  </node>
  <node id="29830768" version="2" timestamp="2007-12-16T21:09:14Z" uid="1066" user="pavel" changeset="327574" lat="50.0478005" lon="14.7270147">
    <tag k="created_by" v="JOSM"/>
  </node>
  <node id="29830769" version="2" timestamp="2007-12-16T21:09:11Z" uid="1066" user="pavel" changeset="327574" lat="50.047036" lon="14.7251682">
    <tag k="created_by" v="JOSM"/>
  </node>
  <node id="29830770" version="1" timestamp="2007-06-01T13:47:59Z" uid="1066" user="pavel" changeset="75973" lat="50.0459691" lon="14.7220632">
    <tag k="created_by" v="JOSM"/>
  </node>
  <node id="29830781" version="1" timestamp="2007-06-01T13:48:16Z" uid="1066" user="pavel" changeset="75973" lat="50.0436428" lon="14.7160889">
    <tag k="created_by" v="JOSM"/>
  </node>
  <node id="29830787" version="2" timestamp="2007-11-03T12:21:03Z" uid="1066" user="pavel" changeset="392027" lat="50.0428223" lon="14.7154912">
    <tag k="created_by" v="JOSM"/>
  </node>
  <node id="29830793" version="2" timestamp="2007-11-03T12:21:11Z" uid="1066" user="pavel" changeset="392027" lat="50.0420225" lon="14.7143535">
    <tag k="created_by" v="JOSM"/>
  </node>
  <node id="29830799" version="1" timestamp="2007-06-21T23:44:18Z" uid="1066" user="pavel" changeset="107482" lat="49.9597584" lon="14.8896679">
    <tag k="created_by" v="JOSM"/>
  </node>
  <node id="29830802" version="1" timestamp="2007-06-21T23:43:26Z" uid="1066" user="pavel" changeset="107482" lat="49.9581769" lon="14.8901392">
    <tag k="created_by" v="JOSM"/>
  </node>
  <node id="29830805" version="1" timestamp="2007-06-21T23:45:27Z" uid="1066" user="pavel" changeset="107482" lat="49.9589576" lon="14.8920517">
    <tag k="created_by" v="JOSM"/>
  </node>
  <node id="29831728" version="2" timestamp="2009-10-11T19:57:47Z" uid="20587" user="balrog-kun" changeset="2819645" lat="52.2368375" lon="18.2216732">
    <tag k="name" v="Konin Zachód"/>
    <tag k="railway" v="halt"/>
    <tag k="wikipedia" v="pl:Konin Zachód"/>
  </node>
  <node id="29831807" version="2" timestamp="2009-10-11T19:57:46Z" uid="20587" user="balrog-kun" changeset="2819645" lat="52.2496191" lon="18.1521534">
    <tag k="name" v="Kawnice"/>
    <tag k="railway" v="halt"/>
    <tag k="wikipedia" v="pl:Kawnice (przystanek kolejowy)"/>
  </node>
  <node id="29831828" version="2" timestamp="2009-10-11T19:57:46Z" uid="20587" user="balrog-kun" changeset="2819645" lat="52.2575548" lon="18.0920492">
    <tag k="name" v="Spławie"/>
    <tag k="railway" v="halt"/>
    <tag k="wikipedia" v="pl:Spławie (przystanek kolejowy)"/>
  </node>
  <node id="29831879" version="2" timestamp="2009-10-11T19:57:46Z" uid="20587" user="balrog-kun" changeset="2819645" lat="52.2699613" lon="18.0109922">
    <tag k="name" v="Cienin Kościelny"/>
    <tag k="railway" v="halt"/>
    <tag k="wikipedia" v="pl:Cienin Kościelny (przystanek kolejowy)"/>
  </node>
  <node id="29831926" version="2" timestamp="2009-10-11T19:57:46Z" uid="20587" user="balrog-kun" changeset="2819645" lat="52.2724385" lon="17.9673162">
    <tag k="name" v="Cienin"/>
    <tag k="railway" v="halt"/>
    <tag k="wikipedia" v="pl:Cienin (stacja kolejowa)"/>
  </node>
  <node id="29832014" version="2" timestamp="2009-10-11T19:57:46Z" uid="20587" user="balrog-kun" changeset="2819645" lat="52.2867765" lon="17.8526094">
    <tag k="name" v="Słupca"/>
    <tag k="railway" v="halt"/>
    <tag k="wikipedia" v="pl:Słupca (przystanek kolejowy)"/>
  </node>
  <node id="29832059" version="2" timestamp="2009-10-11T19:57:46Z" uid="20587" user="balrog-kun" changeset="2819645" lat="52.3105258" lon="17.806724">
    <tag k="name" v="Strzałkowo"/>
    <tag k="railway" v="station"/>
    <tag k="wikipedia" v="pl:Strzałkowo (stacja kolejowa)"/>
  </node>
  <node id="29832108" version="2" timestamp="2009-10-11T19:57:46Z" uid="20587" user="balrog-kun" changeset="2819645" lat="52.3216323" lon="17.7546039">
    <tag k="name" v="Wólka"/>
    <tag k="railway" v="halt"/>
    <tag k="wikipedia" v="pl:Wólka (stacja kolejowa)"/>
  </node>
  <node id="29832142" version="2" timestamp="2009-10-11T19:57:45Z" uid="20587" user="balrog-kun" changeset="2819645" lat="52.3253093" lon="17.6916166">
    <tag k="name" v="Otoczna"/>
    <tag k="railway" v="halt"/>
    <tag k="wikipedia" v="pl:Otoczna (przystanek kolejowy)"/>
  </node>
  <node id="29832178" version="2" timestamp="2009-10-11T19:57:45Z" uid="20587" user="balrog-kun" changeset="2819645" lat="52.3322078" lon="17.6450612">
    <tag k="name" v="Gutowo Wielkopolskie"/>
    <tag k="railway" v="halt"/>
    <tag k="wikipedia" v="pl:Gutowo Wielkopolskie"/>
  </node>
  <node id="29832223" version="3" timestamp="2009-10-11T19:57:45Z" uid="20587" user="balrog-kun" changeset="2819645" lat="52.337641" lon="17.5796527">
    <tag k="railway" v="halt"/>
    <tag k="wikipedia" v="pl:Sokołowo Wrzesińskie"/>
  </node>
  <node id="29832263" version="3" timestamp="2009-10-11T19:57:45Z" uid="20587" user="balrog-kun" changeset="2819645" lat="52.3275345" lon="17.5551791">
    <tag k="name" v="Września"/>
    <tag k="name:de" v="Wreschen"/>
    <tag k="old_name" v="Wreschen"/>
    <tag k="railway" v="station"/>
    <tag k="wikipedia" v="pl:Września (stacja kolejowa)"/>
  </node>
  <node id="29832301" version="3" timestamp="2009-10-11T19:57:45Z" uid="20587" user="balrog-kun" changeset="2819645" lat="52.3415469" lon="17.4807783">
    <tag k="name" v="Podstolice"/>
    <tag k="railway" v="station"/>
    <tag k="wikipedia" v="pl:Podstolice (stacja kolejowa)"/>
  </node>
  <node id="29832346" version="3" timestamp="2009-10-11T19:57:45Z" uid="20587" user="balrog-kun" changeset="2819645" lat="52.3543709" lon="17.4015541">
    <tag k="name" v="Nekla"/>
    <tag k="railway" v="halt"/>
    <tag k="wikipedia" v="pl:Nekla (przystanek kolejowy)"/>
  </node>
  <node id="29832370" version="3" timestamp="2009-10-11T19:57:45Z" uid="20587" user="balrog-kun" changeset="2819645" lat="52.3677006" lon="17.3178099">
    <tag k="name" v="Gułtowy"/>
    <tag k="railway" v="halt"/>
    <tag k="wikipedia" v="pl:Gułtowy (przystanek kolejowy)"/>
  </node>
  <node id="29832371" version="2" timestamp="2010-03-29T00:28:30Z" uid="163746" user="anti_bot-nonsense" changeset="4263262" lat="52.3696343" lon="17.3118426"/>
  <node id="29832372" version="2" timestamp="2010-03-29T00:30:18Z" uid="163746" user="anti_bot-nonsense" changeset="4263262" lat="52.3720817" lon="17.3037301"/>
  <node id="29832373" version="2" timestamp="2010-03-29T00:28:52Z" uid="163746" user="anti_bot-nonsense" changeset="4263262" lat="52.3743478" lon="17.2964334"/>
  <node id="29832374" version="2" timestamp="2010-03-29T00:30:40Z" uid="163746" user="anti_bot-nonsense" changeset="4263262" lat="52.3755412" lon="17.2924753"/>
  <node id="29832375" version="2" timestamp="2010-03-29T00:29:22Z" uid="163746" user="anti_bot-nonsense" changeset="4263262" lat="52.3762966" lon="17.2900128"/>
  <node id="29832376" version="2" timestamp="2010-03-29T00:28:12Z" uid="163746" user="anti_bot-nonsense" changeset="4263262" lat="52.3775505" lon="17.2863267"/>
  <node id="29832377" version="2" timestamp="2010-03-29T00:29:55Z" uid="163746" user="anti_bot-nonsense" changeset="4263262" lat="52.378895" lon="17.2826405"/>
  <node id="29832378" version="2" timestamp="2010-03-29T00:28:35Z" uid="163746" user="anti_bot-nonsense" changeset="4263262" lat="52.3803" lon="17.2788033"/>
  <node id="29832379" version="2" timestamp="2010-03-29T00:30:23Z" uid="163746" user="anti_bot-nonsense" changeset="4263262" lat="52.3819164" lon="17.2743921"/>
  <node id="29832380" version="2" timestamp="2010-03-29T00:28:58Z" uid="163746" user="anti_bot-nonsense" changeset="4263262" lat="52.3837746" lon="17.2692254"/>
  <node id="29832381" version="2" timestamp="2010-03-29T00:30:45Z" uid="163746" user="anti_bot-nonsense" changeset="4263262" lat="52.38595" lon="17.263379"/>
  <node id="29832382" version="2" timestamp="2010-03-29T00:29:32Z" uid="163746" user="anti_bot-nonsense" changeset="4263262" lat="52.3873097" lon="17.259572"/>
  <node id="29832383" version="2" timestamp="2010-03-29T00:28:17Z" uid="163746" user="anti_bot-nonsense" changeset="4263262" lat="52.388488" lon="17.2563541"/>
  <node id="29832384" version="2" timestamp="2010-03-29T00:30:04Z" uid="163746" user="anti_bot-nonsense" changeset="4263262" lat="52.3893642" lon="17.2539974"/>
  <node id="29832385" version="2" timestamp="2010-03-29T00:28:42Z" uid="163746" user="anti_bot-nonsense" changeset="4263262" lat="52.3902556" lon="17.2509911"/>
  <node id="29832386" version="2" timestamp="2010-03-29T00:30:29Z" uid="163746" user="anti_bot-nonsense" changeset="4263262" lat="52.3909807" lon="17.248015"/>
  <node id="29832387" version="2" timestamp="2010-03-29T00:29:05Z" uid="163746" user="anti_bot-nonsense" changeset="4263262" lat="52.3916152" lon="17.244767"/>
  <node id="29832388" version="2" timestamp="2010-03-29T00:30:52Z" uid="163746" user="anti_bot-nonsense" changeset="4263262" lat="52.3921742" lon="17.2409298"/>
  <node id="29832389" version="2" timestamp="2010-03-29T00:29:40Z" uid="163746" user="anti_bot-nonsense" changeset="4263262" lat="52.3925065" lon="17.2375155"/>
  <node id="29832390" version="2" timestamp="2010-03-29T00:28:22Z" uid="163746" user="anti_bot-nonsense" changeset="4263262" lat="52.3927936" lon="17.2325302"/>
  <node id="29832391" version="3" timestamp="2009-10-11T19:57:45Z" uid="20587" user="balrog-kun" changeset="2819645" lat="52.3932619" lon="17.2244781">
    <tag k="alt_name" v="Kostrzyn Wielkopolski"/>
    <tag k="name" v="Kostrzyn"/>
    <tag k="railway" v="station"/>
    <tag k="wikipedia" v="pl:Kostrzyn Wielkopolski"/>
  </node>
  <node id="29832405" version="3" timestamp="2009-10-11T19:57:45Z" uid="20587" user="balrog-kun" changeset="2819645" lat="52.3967818" lon="17.1600915">
    <tag k="name" v="Paczkowo"/>
    <tag k="railway" v="station"/>
    <tag k="wikipedia" v="pl:Paczkowo (przystanek kolejowy)"/>
  </node>
  <node id="29832423" version="4" timestamp="2009-10-11T18:26:53Z" uid="20587" user="balrog-kun" changeset="2818513" lat="52.4042907" lon="17.0739461">
    <tag k="name" v="Swarzędz"/>
    <tag k="old_name" v="Schwaningen;Schwersenz"/>
    <tag k="railway" v="station"/>
    <tag k="wikipedia" v="pl:Swarzędz (stacja kolejowa)"/>
  </node>
  <node id="29832428" version="3" timestamp="2010-03-16T22:07:29Z" uid="163746" user="anti_bot-nonsense" changeset="4147472" lat="52.4025729" lon="17.0549991"/>
  <node id="29832429" version="2" timestamp="2010-03-16T22:07:30Z" uid="163746" user="anti_bot-nonsense" changeset="4147472" lat="52.4026987" lon="17.0529042"/>
  <node id="29832430" version="2" timestamp="2010-03-16T22:07:28Z" uid="163746" user="anti_bot-nonsense" changeset="4147472" lat="52.4029354" lon="17.0512335"/>
  <node id="29832431" version="3" timestamp="2010-03-16T22:07:25Z" uid="163746" user="anti_bot-nonsense" changeset="4147472" lat="52.403265" lon="17.0497575"/>
  <node id="29832432" version="2" timestamp="2010-03-16T22:07:26Z" uid="163746" user="anti_bot-nonsense" changeset="4147472" lat="52.4045365" lon="17.0454973"/>
  <node id="29832434" version="2" timestamp="2010-03-16T22:07:27Z" uid="163746" user="anti_bot-nonsense" changeset="4147472" lat="52.4065832" lon="17.0385638"/>
  <node id="29832435" version="2" timestamp="2010-03-16T22:07:27Z" uid="163746" user="anti_bot-nonsense" changeset="4147472" lat="52.407516" lon="17.0353198"/>
  <node id="29832436" version="2" timestamp="2010-03-16T22:07:26Z" uid="163746" user="anti_bot-nonsense" changeset="4147472" lat="52.4082261" lon="17.0328972"/>
  <node id="29832437" version="5" timestamp="2009-08-02T21:55:22Z" uid="20587" user="balrog-kun" changeset="2020184" lat="52.4094166" lon="17.0288215">
    <tag k="name" v="Poznań Antoniek"/>
    <tag k="railway" v="tram_stop"/>
  </node>
  <node id="29832437" version="6" timestamp="2009-10-11T19:57:45Z" uid="20587" user="balrog-kun" changeset="2819645" lat="52.4094166" lon="17.0288215">
    <tag k="name" v="Poznań Antoniek"/>
    <tag k="railway" v="halt"/>
    <tag k="wikipedia" v="pl:Poznań Antoninek"/>
  </node>
  <node id="29832470" version="7" timestamp="2010-07-26T02:03:02Z" uid="20587" user="balrog-kun" changeset="5317852" lat="52.4181577" lon="16.9720364">
    <tag k="name" v="Poznań Wschód"/>
    <tag k="railway" v="station"/>
    <tag k="wikipedia" v="pl:Poznań Wschód"/>
  </node>
  <node id="29832496" version="5" timestamp="2010-03-16T21:57:59Z" uid="163746" user="anti_bot-nonsense" changeset="4147354" lat="52.4160614" lon="16.9389081"/>
  <node id="29832498" version="5" timestamp="2010-03-16T21:57:59Z" uid="163746" user="anti_bot-nonsense" changeset="4147354" lat="52.4161938" lon="16.938029">
    <tag k="name" v="Poznań Garbary"/>
    <tag k="railway" v="station"/>
  </node>
  <node id="29832498" version="7" timestamp="2010-07-26T02:02:41Z" uid="20587" user="balrog-kun" changeset="5317852" lat="52.4161938" lon="16.938029">
    <tag k="name" v="Poznań Garbary"/>
    <tag k="old_name" v="Poznań Tama Garbary"/>
    <tag k="railway" v="station"/>
    <tag k="wikipedia" v="pl:Poznań Garbary"/>
  </node>
  <node id="29832499" version="2" timestamp="2010-03-16T21:57:59Z" uid="163746" user="anti_bot-nonsense" changeset="4147354" lat="52.4163293" lon="16.9372044"/>
  <node id="29832500" version="2" timestamp="2010-03-16T21:57:58Z" uid="163746" user="anti_bot-nonsense" changeset="4147354" lat="52.4168828" lon="16.9338086"/>
  <node id="29832501" version="2" timestamp="2010-03-16T21:57:58Z" uid="163746" user="anti_bot-nonsense" changeset="4147354" lat="52.4172097" lon="16.931847"/>
  <node id="29832502" version="2" timestamp="2010-03-16T21:57:58Z" uid="163746" user="anti_bot-nonsense" changeset="4147354" lat="52.4174059" lon="16.9301795"/>
  <node id="29832503" version="4" timestamp="2010-03-16T21:57:57Z" uid="163746" user="anti_bot-nonsense" changeset="4147354" lat="52.4175077" lon="16.9291627"/>
  <node id="29832504" version="4" timestamp="2010-03-16T21:57:57Z" uid="163746" user="anti_bot-nonsense" changeset="4147354" lat="52.4175601" lon="16.9281928"/>
  <node id="29832505" version="3" timestamp="2010-03-16T21:57:56Z" uid="163746" user="anti_bot-nonsense" changeset="4147354" lat="52.4174868" lon="16.9263818"/>
  <node id="29832506" version="2" timestamp="2010-03-16T21:57:56Z" uid="163746" user="anti_bot-nonsense" changeset="4147354" lat="52.4174059" lon="16.9256132"/>
  <node id="29832507" version="2" timestamp="2010-03-16T21:57:56Z" uid="163746" user="anti_bot-nonsense" changeset="4147354" lat="52.4168937" lon="16.9231067"/>
  <node id="29832518" version="4" timestamp="2009-10-11T18:26:52Z" uid="20587" user="balrog-kun" changeset="2818513" lat="52.4018213" lon="16.9122188">
    <tag k="name" v="Poznań Główny"/>
    <tag k="railway" v="station"/>
    <tag k="wikipedia" v="pl:Poznań Główny"/>
  </node>
  <node id="29832519" version="12" timestamp="2010-07-01T16:07:37Z" uid="20587" user="balrog-kun" changeset="5121713" lat="52.3952177" lon="16.899934">
    <tag k="highway" v="traffic_signals"/>
    <tag k="traffic_signals:sound" v="yes"/>
  </node>
  <node id="29832521" version="3" timestamp="2010-03-14T20:27:51Z" uid="163746" user="anti_bot-nonsense" changeset="4128666" lat="52.3942697" lon="16.9009637"/>
  <node id="29832538" version="4" timestamp="2010-03-14T20:27:42Z" uid="163746" user="anti_bot-nonsense" changeset="4128666" lat="52.3839426" lon="16.9006066"/>
  <node id="29832539" version="4" timestamp="2010-03-14T20:27:40Z" uid="163746" user="anti_bot-nonsense" changeset="4128666" lat="52.3834173" lon="16.9000088"/>
  <node id="29832540" version="4" timestamp="2010-03-14T20:27:38Z" uid="163746" user="anti_bot-nonsense" changeset="4128666" lat="52.3828449" lon="16.8995089"/>
  <node id="29832541" version="4" timestamp="2010-03-14T20:26:17Z" uid="163746" user="anti_bot-nonsense" changeset="4128666" lat="52.3825731" lon="16.89923"/>
  <node id="29832542" version="4" timestamp="2010-03-14T20:26:15Z" uid="163746" user="anti_bot-nonsense" changeset="4128666" lat="52.3820769" lon="16.8986988"/>
  <node id="29832543" version="4" timestamp="2010-03-14T20:26:15Z" uid="163746" user="anti_bot-nonsense" changeset="4128666" lat="52.3817324" lon="16.8983543"/>
  <node id="29832544" version="4" timestamp="2010-03-14T20:26:11Z" uid="163746" user="anti_bot-nonsense" changeset="4128666" lat="52.3811387" lon="16.8979291"/>
  <node id="29832545" version="4" timestamp="2010-03-14T20:26:12Z" uid="163746" user="anti_bot-nonsense" changeset="4128666" lat="52.3806476" lon="16.8975553"/>
  <node id="29832546" version="4" timestamp="2010-03-14T20:26:12Z" uid="163746" user="anti_bot-nonsense" changeset="4128666" lat="52.3802884" lon="16.8972034"/>
  <node id="29832547" version="9" timestamp="2010-03-14T20:17:01Z" uid="163746" user="anti_bot-nonsense" changeset="4128666" lat="52.379923" lon="16.896734"/>
  <node id="29832548" version="3" timestamp="2010-03-14T20:17:01Z" uid="163746" user="anti_bot-nonsense" changeset="4128666" lat="52.3795554" lon="16.8963312"/>
  <node id="29832549" version="3" timestamp="2010-03-14T20:17:00Z" uid="163746" user="anti_bot-nonsense" changeset="4128666" lat="52.3793721" lon="16.8961846"/>
  <node id="29832550" version="3" timestamp="2010-03-14T20:16:57Z" uid="163746" user="anti_bot-nonsense" changeset="4128666" lat="52.3779208" lon="16.8955542"/>
  <node id="29832553" version="14" timestamp="2010-03-14T20:15:08Z" uid="163746" user="anti_bot-nonsense" changeset="4128666" lat="52.3741658" lon="16.8939514">
    <tag k="highway" v="traffic_signals"/>
  </node>
  <node id="29832556" version="4" timestamp="2010-03-14T20:08:38Z" uid="163746" user="anti_bot-nonsense" changeset="4128666" lat="52.3701508" lon="16.8925661"/>
  <node id="29832559" version="4" timestamp="2010-03-14T20:05:59Z" uid="163746" user="anti_bot-nonsense" changeset="4128666" lat="52.3647997" lon="16.893619"/>
  <node id="29832560" version="4" timestamp="2010-03-15T03:20:03Z" uid="163746" user="anti_bot-nonsense" changeset="4131621" lat="52.3631431" lon="16.8917059"/>
  <node id="29832561" version="8" timestamp="2010-03-14T19:54:35Z" uid="163746" user="anti_bot-nonsense" changeset="4128666" lat="52.3599275" lon="16.8876507"/>
  <node id="29832562" version="4" timestamp="2010-03-14T19:54:31Z" uid="163746" user="anti_bot-nonsense" changeset="4128666" lat="52.3586131" lon="16.886025"/>
  <node id="29832563" version="4" timestamp="2010-03-14T19:54:22Z" uid="163746" user="anti_bot-nonsense" changeset="4128666" lat="52.3580852" lon="16.8853212"/>
  <node id="29832564" version="4" timestamp="2010-03-14T19:54:22Z" uid="163746" user="anti_bot-nonsense" changeset="4128666" lat="52.3576821" lon="16.8850574"/>
  <node id="29832571" version="4" timestamp="2010-03-15T03:02:58Z" uid="163746" user="anti_bot-nonsense" changeset="4131621" lat="52.3551205" lon="16.8838169"/>
  <node id="29832577" version="5" timestamp="2010-03-15T03:02:48Z" uid="163746" user="anti_bot-nonsense" changeset="4131621" lat="52.3520078" lon="16.882209"/>
  <node id="29832578" version="6" timestamp="2010-03-15T03:02:45Z" uid="163746" user="anti_bot-nonsense" changeset="4131621" lat="52.351861" lon="16.8821146"/>
  <node id="29832579" version="5" timestamp="2010-03-15T03:02:45Z" uid="163746" user="anti_bot-nonsense" changeset="4131621" lat="52.3516566" lon="16.8821832"/>
  <node id="29832580" version="4" timestamp="2010-03-15T03:02:44Z" uid="163746" user="anti_bot-nonsense" changeset="4131621" lat="52.3507129" lon="16.8816682"/>
  <node id="29832581" version="4" timestamp="2010-03-15T03:02:44Z" uid="163746" user="anti_bot-nonsense" changeset="4131621" lat="52.3503878" lon="16.8814966"/>
  <node id="29832584" version="3" timestamp="2010-03-15T03:02:22Z" uid="163746" user="anti_bot-nonsense" changeset="4131621" lat="52.3477821" lon="16.8804409"/>
  <node id="29832674" version="3" timestamp="2010-03-31T20:53:37Z" uid="163746" user="anti_bot-nonsense" changeset="4289355" lat="52.3148433" lon="16.8810216">
    <tag k="highway" v="bus_stop"/>
  </node>
  <node id="29832677" version="3" timestamp="2010-03-31T21:27:27Z" uid="163746" user="anti_bot-nonsense" changeset="4289355" lat="52.3088843" lon="16.8775519">
    <tag k="highway" v="bus_stop"/>
  </node>
  <node id="29832688" version="3" timestamp="2010-03-31T20:57:29Z" uid="163746" user="anti_bot-nonsense" changeset="4289355" lat="52.3038349" lon="16.869452">
    <tag k="highway" v="bus_stop"/>
  </node>
  <node id="29833491" version="8" timestamp="2008-12-14T02:01:01Z" uid="6975" user="ulfl" changeset="365670" lat="52.4997733" lon="13.3072308">
    <tag k="name" v="U Adenauer Platz"/>
    <tag k="railway" v="station"/>
    <tag k="surveillance" v="indoor"/>
  </node>
  <node id="29834513" version="2" timestamp="2007-10-26T13:23:10Z" uid="1066" user="pavel" changeset="321573" lat="49.1925356" lon="16.5820939">
    <tag k="created_by" v="JOSM"/>
  </node>
  <node id="29834514" version="2" timestamp="2007-10-26T13:23:10Z" uid="1066" user="pavel" changeset="321573" lat="49.1921991" lon="16.5835187">
    <tag k="created_by" v="JOSM"/>
  </node>
  <node id="29834524" version="2" timestamp="2007-10-26T13:23:10Z" uid="1066" user="pavel" changeset="321573" lat="49.1923954" lon="16.5827806">
    <tag k="created_by" v="JOSM"/>
  </node>
  <node id="29834876" version="6" timestamp="2010-07-30T09:00:18Z" uid="74617" user="JohnSmith" changeset="5352774" lat="59.3343183" lon="18.0624261">
    <tag k="description" v="Basement fish and food market with eating places"/>
    <tag k="name" v="Hötorgshallen"/>
    <tag k="shop" v="deli"/>
  </node>
  <node id="29835254" version="3" timestamp="2008-07-10T22:47:13Z" uid="6975" user="ulfl" changeset="457552" lat="59.3370542" lon="18.0537755">
    <tag k="name" v="Pensionat Oden"/>
    <tag k="tourism" v="guest_house"/>
  </node>
  <node id="29835796" version="3" timestamp="2009-12-09T22:40:18Z" uid="200463" user="harmagedon" changeset="3337772" lat="47.5283972" lon="8.159185"/>
  <node id="29835902" version="1" timestamp="2007-09-23T19:25:08Z" uid="8328" user="benpre" changeset="506234" lat="52.3054353" lon="20.7738459">
    <tag k="created_by" v="JOSM"/>
    <tag k="name" v="Truskaw"/>
    <tag k="place" v="village"/>
  </node>
  <node id="29836055" version="3" timestamp="2009-12-09T22:49:00Z" uid="200463" user="harmagedon" changeset="3337772" lat="47.5525627" lon="8.1316639"/>
  <node id="29836056" version="2" timestamp="2009-12-09T22:49:00Z" uid="200463" user="harmagedon" changeset="3337772" lat="47.5525514" lon="8.1313957"/>
  <node id="29836059" version="2" timestamp="2009-12-09T22:48:20Z" uid="200463" user="harmagedon" changeset="3337772" lat="47.5524009" lon="8.1297005"/>
  <node id="29836060" version="2" timestamp="2009-12-09T22:48:21Z" uid="200463" user="harmagedon" changeset="3337772" lat="47.5524191" lon="8.1294908"/>
  <node id="29836061" version="2" timestamp="2009-12-09T22:48:21Z" uid="200463" user="harmagedon" changeset="3337772" lat="47.5525149" lon="8.1294241"/>
  <node id="29836062" version="2" timestamp="2009-12-09T22:48:22Z" uid="200463" user="harmagedon" changeset="3337772" lat="47.5525881" lon="8.1294451"/>
  <node id="29836063" version="2" timestamp="2009-12-09T22:48:22Z" uid="200463" user="harmagedon" changeset="3337772" lat="47.5526522" lon="8.1295081"/>
  <node id="29836064" version="2" timestamp="2009-12-09T22:48:21Z" uid="200463" user="harmagedon" changeset="3337772" lat="47.552715" lon="8.1296508"/>
  <node id="29836065" version="2" timestamp="2009-12-09T22:48:59Z" uid="200463" user="harmagedon" changeset="3337772" lat="47.5529033" lon="8.1300446"/>
  <node id="29836066" version="2" timestamp="2009-12-09T22:49:01Z" uid="200463" user="harmagedon" changeset="3337772" lat="47.5531487" lon="8.1303984"/>
  <node id="29836067" version="2" timestamp="2009-12-09T22:49:01Z" uid="200463" user="harmagedon" changeset="3337772" lat="47.5534279" lon="8.1306534"/>
  <node id="29836068" version="2" timestamp="2009-12-09T22:49:01Z" uid="200463" user="harmagedon" changeset="3337772" lat="47.5535511" lon="8.1309736"/>
  <node id="29837208" version="1" timestamp="2007-07-03T22:14:56Z" uid="8328" user="benpre" changeset="125690" lat="49.1489582" lon="9.1999394">
    <tag k="created_by" v="JOSM"/>
  </node>
  <node id="29837211" version="1" timestamp="2007-07-03T22:14:54Z" uid="8328" user="benpre" changeset="125690" lat="49.1443616" lon="9.1996323">
    <tag k="created_by" v="JOSM"/>
  </node>
  <node id="29838865" version="5" timestamp="2010-07-29T09:38:33Z" uid="74617" user="JohnSmith" changeset="5344848" lat="51.7291967" lon="10.2627007">
    <tag k="amenity" v="emergency_phone"/>
    <tag k="emergency" v="phone"/>
    <tag k="man_made" v="surveillance"/>
  </node>
  <node id="29838868" version="6" timestamp="2010-07-29T09:15:25Z" uid="74617" user="JohnSmith" changeset="5344848" lat="51.7325824" lon="10.2632773">
    <tag k="amenity" v="emergency_phone"/>
    <tag k="emergency" v="phone"/>
  </node>
  <node id="29838877" version="1" timestamp="2007-08-02T18:59:46Z" uid="8975" user="magkes" changeset="184732" lat="51.7902302" lon="10.3271886">
    <tag k="created_by" v="JOSM"/>
  </node>
  <node id="29838878" version="1" timestamp="2007-08-02T18:54:26Z" uid="8975" user="magkes" changeset="184732" lat="51.800948" lon="10.3315569">
    <tag k="created_by" v="JOSM"/>
  </node>
  <node id="29838879" version="1" timestamp="2007-08-02T19:23:04Z" uid="8975" user="magkes" changeset="184732" lat="51.8015523" lon="10.3317766">
    <tag k="created_by" v="JOSM"/>
  </node>
  <node id="29838880" version="1" timestamp="2007-08-02T18:54:32Z" uid="8975" user="magkes" changeset="184732" lat="51.8031085" lon="10.3323947">
    <tag k="created_by" v="JOSM"/>
  </node>
  <node id="29838882" version="1" timestamp="2007-08-02T20:46:24Z" uid="8975" user="magkes" changeset="184732" lat="51.8019034" lon="10.3333066">
    <tag k="created_by" v="JOSM"/>
  </node>
  <node id="29838891" version="1" timestamp="2007-08-02T19:23:13Z" uid="8975" user="magkes" changeset="184732" lat="51.8035968" lon="10.3261808">
    <tag k="created_by" v="JOSM"/>
  </node>
  <node id="29839168" version="1" timestamp="2007-07-13T13:05:50Z" uid="5871" user="Banny" changeset="142457" lat="50.9800562" lon="7.0221459">
    <tag k="bicycle" v="yes"/>
    <tag k="created_by" v="JOSM"/>
    <tag k="foot" v="yes"/>
    <tag k="highway" v="primary"/>
    <tag k="lanes" v="2"/>
    <tag k="name" v="Berliner Straße"/>
    <tag k="railway" v="tram"/>
  </node>
  <node id="29839168" version="9" timestamp="2007-10-27T08:45:18Z" uid="5871" user="Banny" changeset="330556" lat="50.9799647" lon="7.0222826">
    <tag k="bicycle" v="yes"/>
    <tag k="created_by" v="JOSM"/>
    <tag k="foot" v="yes"/>
    <tag k="highway" v="primary"/>
    <tag k="lanes" v="2"/>
    <tag k="name" v="Berliner Straße"/>
    <tag k="railway" v="tram"/>
  </node>
  <node id="29839169" version="1" timestamp="2007-07-13T13:05:52Z" uid="5871" user="Banny" changeset="142457" lat="50.9798943" lon="7.0226943">
    <tag k="bicycle" v="yes"/>
    <tag k="created_by" v="JOSM"/>
    <tag k="foot" v="yes"/>
    <tag k="highway" v="secondary"/>
    <tag k="lanes" v="2"/>
    <tag k="name" v="Im Weidenbruch"/>
  </node>
  <node id="29839169" version="3" timestamp="2008-02-04T11:38:54Z" uid="5871" user="Banny" changeset="31434" lat="50.9798943" lon="7.0226943"/>
  <node id="29839170" version="1" timestamp="2007-07-13T13:05:53Z" uid="5871" user="Banny" changeset="142457" lat="50.9800611" lon="7.0247032">
    <tag k="bicycle" v="yes"/>
    <tag k="created_by" v="JOSM"/>
    <tag k="foot" v="yes"/>
    <tag k="highway" v="secondary"/>
    <tag k="lanes" v="2"/>
    <tag k="name" v="Im Weidenbruch"/>
  </node>
  <node id="29839170" version="3" timestamp="2008-02-04T11:38:54Z" uid="5871" user="Banny" changeset="31434" lat="50.9800611" lon="7.0247032"/>
  <node id="29839171" version="1" timestamp="2007-07-13T13:05:54Z" uid="5871" user="Banny" changeset="142457" lat="50.9804112" lon="7.0288594">
    <tag k="bicycle" v="yes"/>
    <tag k="created_by" v="JOSM"/>
    <tag k="foot" v="yes"/>
    <tag k="highway" v="secondary"/>
    <tag k="lanes" v="2"/>
    <tag k="name" v="Im Weidenbruch"/>
  </node>
  <node id="29839171" version="3" timestamp="2008-02-04T11:38:54Z" uid="5871" user="Banny" changeset="31434" lat="50.9804112" lon="7.0288594"/>
  <node id="29839172" version="1" timestamp="2007-07-13T13:05:49Z" uid="5871" user="Banny" changeset="142457" lat="50.9808032" lon="7.0306557">
    <tag k="bicycle" v="yes"/>
    <tag k="created_by" v="JOSM"/>
    <tag k="foot" v="yes"/>
    <tag k="highway" v="secondary"/>
    <tag k="lanes" v="2"/>
    <tag k="name" v="Im Weidenbruch"/>
  </node>
  <node id="29839172" version="3" timestamp="2008-02-04T11:38:53Z" uid="5871" user="Banny" changeset="31434" lat="50.9808032" lon="7.0306557"/>
  <node id="29839173" version="2" timestamp="2008-02-04T11:38:53Z" uid="5871" user="Banny" changeset="31434" lat="50.9811819" lon="7.0326077"/>
  <node id="29839174" version="2" timestamp="2008-02-04T11:38:53Z" uid="5871" user="Banny" changeset="31434" lat="50.9835433" lon="7.0408475"/>
</osm>
