<?xml version='1.0' encoding='UTF-8'?>
<osm version="0.6" generator="libosmium/2.20.0">
  <node id="298371050" version="1" timestamp="2008-09-20T10:59:55Z" uid="58091" user="Andreas M" changeset="667738" lat="48.2351401" lon="16.3697648">
    <tag k="amenity" v="bicycle_rental"/>
    <tag k="created_by" v="JOSM"/>
    <tag k="name" v="Jägerstraße U6"/>
    <tag k="network" v="Citybike Wien"/>
    <tag k="ref" v="2002"/>
    <tag k="spaces" v="20"/>
  </node>
  <node id="298371050" version="2" timestamp="2008-12-06T16:46:31Z" uid="58091" user="Andreas M" changeset="209642" lat="48.2351401" lon="16.3697648">
    <tag k="amenity" v="bicycle_rental"/>
    <tag k="name" v="Jägerstraße U6"/>
    <tag k="network" v="Citybike Wien"/>
    <tag k="ref" v="2002"/>
    <tag k="spaces" v="20"/>
    <tag k="url" v="http://www.citybikewien.at/"/>
  </node>
  <node id="298373194" version="3" timestamp="2010-08-17T21:02:37Z" uid="9581" user="Lobelt" changeset="5521782" lat="49.6706421" lon="8.6205939"/>
  <node id="298375781" version="2" timestamp="2011-03-02T19:16:33Z" uid="9581" user="Lobelt" changeset="7440328" lat="49.4970437" lon="8.4726063"/>
  <node id="298376618" version="3" timestamp="2008-09-24T04:17:51Z" uid="6975" user="ulfl" changeset="687743" lat="29.0008427" lon="99.7423876">
    <tag k="ele" v="4169"/>
    <tag k="mountain_pass" v="yes"/>
  </node>
  <node id="298379918" version="2" timestamp="2008-09-24T04:17:48Z" uid="6975" user="ulfl" changeset="687743" lat="29.1384217" lon="100.0433635">
    <tag k="ele" v="4718"/>
    <tag k="mountain_pass" v="yes"/>
  </node>
</osm>
