<?xml version='1.0' encoding='UTF-8'?>
<osm version="0.6" generator="libosmium/2.20.0">
  <node id="299580167" version="1" timestamp="2008-09-24T20:49:26Z" uid="36809" user="pfoten_weg_!_" changeset="691601" lat="48.0799176" lon="11.5175444">
    <tag k="amenity" v="wlan"/>
    <tag k="class" v="free"/>
    <tag k="created_by" v="RambaZamba"/>
    <tag k="ref" v="Beavis1001, FON_Beavis, K1, UT90"/>
    <tag k="source" v="survey"/>
  </node>
  <node id="299580167" version="2" timestamp="2008-10-01T01:19:36Z" uid="36809" user="pfoten_weg_!_" changeset="5644" lat="48.0799176" lon="11.5175444">
    <tag k="amenity" v="wlan"/>
    <tag k="class" v="free"/>
    <tag k="created_by" v="RambaZamba"/>
    <tag k="ref" v="Beavis1001, FON_Beavis, K1, UT90"/>
    <tag k="source" v="survey"/>
  </node>
  <node id="299580167" version="3" timestamp="2008-10-21T02:08:49Z" uid="36809" user="pfoten_weg_!_" changeset="478725" lat="48.0799176" lon="11.5175444">
    <tag k="amenity" v="wlan"/>
    <tag k="class" v="free"/>
    <tag k="created_by" v="RambaZamba"/>
    <tag k="ref" v="Beavis1001, FON_Beavis, K1, UT90"/>
    <tag k="source" v="survey"/>
  </node>
  <node id="299580282" version="7" timestamp="2010-05-09T16:44:15Z" uid="33382" user="de_muur" changeset="4650838" lat="53.0840963" lon="8.9342681"/>
  <node id="299580321" version="1" timestamp="2008-09-24T20:49:54Z" uid="67142" user="zottel" changeset="692843" lat="48.889598" lon="8.7056765">
    <tag k="name" v="Emma-Jäger-Bad"/>
    <tag k="sport" v="swimming"/>
  </node>
  <node id="299580321" version="2" timestamp="2008-10-24T18:14:15Z" uid="67142" user="zottel" changeset="550161" lat="48.889598" lon="8.7056765">
    <tag k="name" v="Emma-Jäger-Bad"/>
    <tag k="sport" v="swimming"/>
    <tag k="url" v="http://www.pforzheim.de/leben-in-pforzheim/freizeit-sport/goldstadtbaeder/emma-jaeger-bad-neu.html"/>
  </node>
  <node id="299580321" version="3" timestamp="2008-10-28T15:42:56Z" uid="67142" user="zottel" changeset="610348" lat="48.889598" lon="8.7056765">
    <tag k="addr:city" v="Pforzheim"/>
    <tag k="addr:housenumber" v="4"/>
    <tag k="addr:postcode" v="75175"/>
    <tag k="addr:street" v="Gerberstraße"/>
    <tag k="name" v="Emma-Jaeger-Bad"/>
    <tag k="phone" v="+49 7231 392221"/>
    <tag k="sport" v="swimming"/>
    <tag k="url" v="http://www.pforzheim.de/leben-in-pforzheim/freizeit-sport/goldstadtbaeder/emma-jaeger-bad-neu.html"/>
  </node>
  <node id="299580321" version="5" timestamp="2008-11-08T11:10:17Z" uid="67142" user="zottel" changeset="712923" lat="48.889598" lon="8.7056765">
    <tag k="addr:city" v="Pforzheim"/>
    <tag k="addr:housenumber" v="4"/>
    <tag k="addr:postcode" v="75175"/>
    <tag k="addr:street" v="Gerberstraße"/>
    <tag k="created_by" v="Merkaartor 0.12"/>
    <tag k="name" v="Emma-Jaeger-Bad"/>
    <tag k="phone" v="+49 7231 392221"/>
    <tag k="sport" v="swimming"/>
    <tag k="url" v="http://www.pforzheim.de/leben-in-pforzheim/freizeit-sport/goldstadtbaeder/emma-jaeger-bad-neu.html"/>
  </node>
  <node id="299581557" version="1" timestamp="2008-09-24T20:53:07Z" uid="36809" user="pfoten_weg_!_" changeset="691601" lat="48.0791476" lon="11.5256847">
    <tag k="amenity" v="wlan"/>
    <tag k="class" v="free"/>
    <tag k="created_by" v="RambaZamba"/>
    <tag k="ref" v="smooky, FON_Hofbrunnstrasse1, K1, UT70"/>
    <tag k="source" v="survey"/>
  </node>
  <node id="299581557" version="2" timestamp="2008-10-01T01:31:33Z" uid="36809" user="pfoten_weg_!_" changeset="5644" lat="48.0791476" lon="11.5256847">
    <tag k="amenity" v="wlan"/>
    <tag k="class" v="free"/>
    <tag k="created_by" v="RambaZamba"/>
    <tag k="ref" v="smooky, FON_Hofbrunnstrasse1, K1, UT70"/>
    <tag k="source" v="survey"/>
  </node>
  <node id="299581557" version="3" timestamp="2008-10-22T00:03:34Z" uid="36809" user="pfoten_weg_!_" changeset="498765" lat="48.0791476" lon="11.5256847">
    <tag k="amenity" v="wlan"/>
    <tag k="class" v="free"/>
    <tag k="created_by" v="RambaZamba"/>
    <tag k="ref" v="smooky, FON_Hofbrunnstrasse1, K1, UT70"/>
    <tag k="source" v="survey"/>
  </node>
  <node id="299581566" version="1" timestamp="2008-09-24T20:53:07Z" uid="36809" user="pfoten_weg_!_" changeset="691601" lat="48.0779492" lon="11.5256426">
    <tag k="amenity" v="wlan"/>
    <tag k="class" v="free"/>
    <tag k="created_by" v="RambaZamba"/>
    <tag k="ref" v="uwnn39144, FON_FREE_INTERNET, K2, UT80"/>
    <tag k="source" v="survey"/>
  </node>
  <node id="299581566" version="2" timestamp="2008-10-01T01:31:30Z" uid="36809" user="pfoten_weg_!_" changeset="5644" lat="48.0779492" lon="11.5256426">
    <tag k="amenity" v="wlan"/>
    <tag k="class" v="free"/>
    <tag k="created_by" v="RambaZamba"/>
    <tag k="ref" v="uwnn39144, FON_FREE_INTERNET, K2, UT80"/>
    <tag k="source" v="survey"/>
  </node>
  <node id="299581566" version="3" timestamp="2008-10-22T00:03:34Z" uid="36809" user="pfoten_weg_!_" changeset="498765" lat="48.0779492" lon="11.5256426">
    <tag k="amenity" v="wlan"/>
    <tag k="class" v="free"/>
    <tag k="created_by" v="RambaZamba"/>
    <tag k="ref" v="uwnn39144, FON_FREE_INTERNET, K2, UT80"/>
    <tag k="source" v="survey"/>
  </node>
  <node id="299581690" version="8" timestamp="2010-05-09T16:44:15Z" uid="33382" user="de_muur" changeset="4650838" lat="53.085382" lon="8.9325467"/>
  <node id="299581777" version="16" timestamp="2011-01-08T14:06:01Z" uid="49111" user="Markus B" changeset="6903969" lat="39.8043132" lon="19.8711194"/>
  <node id="299581843" version="2" timestamp="2011-01-08T14:06:28Z" uid="49111" user="Markus B" changeset="6903969" lat="39.8017201" lon="19.8699163"/>
  <node id="299582080" version="3" timestamp="2011-01-08T14:05:55Z" uid="49111" user="Markus B" changeset="6903969" lat="39.7980065" lon="19.874225"/>
  <node id="299582082" version="3" timestamp="2011-01-08T14:06:38Z" uid="49111" user="Markus B" changeset="6903969" lat="39.7986354" lon="19.8738105"/>
  <node id="299582086" version="2" timestamp="2011-01-08T14:06:21Z" uid="49111" user="Markus B" changeset="6903969" lat="39.8019035" lon="19.8701564"/>
  <node id="299582087" version="2" timestamp="2011-01-08T14:07:26Z" uid="49111" user="Markus B" changeset="6903969" lat="39.801384" lon="19.8707777"/>
  <node id="299582093" version="3" timestamp="2011-01-08T14:05:46Z" uid="49111" user="Markus B" changeset="6903969" lat="39.800393" lon="19.8704018"/>
  <node id="299582096" version="2" timestamp="2011-01-08T14:05:39Z" uid="49111" user="Markus B" changeset="6903969" lat="39.8007525" lon="19.8716473"/>
  <node id="299582097" version="2" timestamp="2011-01-08T14:07:03Z" uid="49111" user="Markus B" changeset="6903969" lat="39.8006359" lon="19.8718921"/>
  <node id="299582162" version="2" timestamp="2011-01-08T14:07:08Z" uid="49111" user="Markus B" changeset="6903969" lat="39.7991023" lon="19.8734507"/>
  <node id="299582305" version="3" timestamp="2011-01-08T14:06:06Z" uid="49111" user="Markus B" changeset="6903969" lat="39.8019591" lon="19.8701181"/>
  <node id="299582309" version="3" timestamp="2011-01-08T14:07:28Z" uid="49111" user="Markus B" changeset="6903969" lat="39.8005311" lon="19.8703581"/>
  <node id="299582310" version="3" timestamp="2011-01-08T14:07:02Z" uid="49111" user="Markus B" changeset="6903969" lat="39.8004432" lon="19.8705725"/>
  <node id="299582325" version="2" timestamp="2011-01-08T14:07:13Z" uid="49111" user="Markus B" changeset="6903969" lat="39.8011097" lon="19.8709318"/>
  <node id="299582326" version="2" timestamp="2011-01-08T14:06:45Z" uid="49111" user="Markus B" changeset="6903969" lat="39.8010375" lon="19.8709025"/>
  <node id="299582327" version="2" timestamp="2011-01-08T14:06:21Z" uid="49111" user="Markus B" changeset="6903969" lat="39.8002042" lon="19.8727193"/>
  <node id="299582328" version="2" timestamp="2011-01-08T14:07:12Z" uid="49111" user="Markus B" changeset="6903969" lat="39.7994485" lon="19.8733488"/>
  <node id="299582454" version="14" timestamp="2010-05-09T16:44:15Z" uid="33382" user="de_muur" changeset="4650838" lat="53.0835823" lon="8.9350652"/>
  <node id="299582773" version="1" timestamp="2008-09-24T20:56:49Z" uid="36809" user="pfoten_weg_!_" changeset="691601" lat="48.0791223" lon="11.529814">
    <tag k="amenity" v="wlan"/>
    <tag k="class" v="free"/>
    <tag k="created_by" v="RambaZamba"/>
    <tag k="ref" v="nici2006, FON_linksys, K6, UT90"/>
    <tag k="source" v="survey"/>
  </node>
  <node id="299582773" version="2" timestamp="2008-10-01T01:29:50Z" uid="36809" user="pfoten_weg_!_" changeset="5644" lat="48.0791223" lon="11.529814">
    <tag k="amenity" v="wlan"/>
    <tag k="class" v="free"/>
    <tag k="created_by" v="RambaZamba"/>
    <tag k="ref" v="nici2006, FON_linksys, K6, UT90"/>
    <tag k="source" v="survey"/>
  </node>
  <node id="299582773" version="3" timestamp="2008-10-22T00:03:34Z" uid="36809" user="pfoten_weg_!_" changeset="498765" lat="48.0791223" lon="11.529814">
    <tag k="amenity" v="wlan"/>
    <tag k="class" v="free"/>
    <tag k="created_by" v="RambaZamba"/>
    <tag k="ref" v="nici2006, FON_linksys, K6, UT90"/>
    <tag k="source" v="survey"/>
  </node>
  <node id="299586823" version="2" timestamp="2008-10-23T05:34:06Z" uid="6975" user="ulfl" changeset="525020" lat="50.9483626" lon="13.9442604">
    <tag k="name" v="BayWa"/>
    <tag k="shop" v="doityourself"/>
  </node>
  <node id="299586953" version="1" timestamp="2008-09-24T21:07:43Z" uid="20587" user="balrog-kun" changeset="691013" lat="36.8443641" lon="-2.4201546"/>
  <node id="299586955" version="1" timestamp="2008-09-24T21:07:44Z" uid="20587" user="balrog-kun" changeset="691013" lat="36.8443478" lon="-2.4206248"/>
  <node id="299586957" version="1" timestamp="2008-09-24T21:07:44Z" uid="20587" user="balrog-kun" changeset="691013" lat="36.8443478" lon="-2.4208374"/>
  <node id="299586959" version="1" timestamp="2008-09-24T21:07:44Z" uid="20587" user="balrog-kun" changeset="691013" lat="36.84423" lon="-2.421414"/>
  <node id="299586963" version="1" timestamp="2008-09-24T21:07:44Z" uid="20587" user="balrog-kun" changeset="691013" lat="36.843942" lon="-2.4220559"/>
  <node id="299587658" version="1" timestamp="2008-09-24T21:10:13Z" uid="65847" user="LKK" changeset="692744" lat="50.2500384" lon="8.2482636"/>
  <node id="299587668" version="1" timestamp="2008-09-24T21:10:17Z" uid="65847" user="LKK" changeset="692744" lat="50.2382462" lon="8.2522475"/>
  <node id="299587671" version="1" timestamp="2008-09-24T21:10:18Z" uid="65847" user="LKK" changeset="692744" lat="50.232678" lon="8.2581059"/>
  <node id="299588744" version="7" timestamp="2009-07-11T11:53:42Z" uid="123517" user="Qichina" changeset="1796373" lat="51.8675737" lon="0.5760484"/>
  <node id="299588747" version="6" timestamp="2009-07-11T11:53:42Z" uid="123517" user="Qichina" changeset="1796373" lat="51.8661798" lon="0.5799365"/>
  <node id="299588749" version="6" timestamp="2009-07-11T11:53:42Z" uid="123517" user="Qichina" changeset="1796373" lat="51.8668688" lon="0.5773358"/>
  <node id="299588760" version="8" timestamp="2009-07-11T11:53:42Z" uid="123517" user="Qichina" changeset="1796373" lat="51.8672133" lon="0.5765634"/>
  <node id="299589935" version="5" timestamp="2009-07-11T11:53:24Z" uid="123517" user="Qichina" changeset="1796373" lat="51.8665667" lon="0.5784945"/>
</osm>
