<?xml version='1.0' encoding='UTF-8'?>
<osm version="0.6" generator="libosmium/2.20.0">
  <node id="301210485" version="6" timestamp="2010-07-18T05:46:33Z" uid="6975" user="ulfl" changeset="5248031" lat="49.3016173" lon="8.0344396">
    <tag k="ele" v="574"/>
    <tag k="mountain_pass" v="yes"/>
    <tag k="name" v="Lolosruhe"/>
  </node>
  <node id="301210485" version="7" timestamp="2010-09-02T07:57:47Z" uid="6975" user="ulfl" changeset="5659961" lat="49.3016173" lon="8.0344396">
    <tag k="ele" v="574"/>
    <tag k="mountain_pass" v="yes"/>
    <tag k="name" v="Lolosruhe"/>
    <tag k="wikipedia" v="http://de.wikipedia.org/wiki/Kesselberg_%28Pfalz%29"/>
  </node>
  <node id="301216704" version="2" timestamp="2008-10-23T17:54:35Z" uid="6975" user="ulfl" changeset="530870" lat="47.239928" lon="-1.5189155">
    <tag k="amenity" v="townhall"/>
    <tag k="name" v="Mairie Annexe Nantes BottiÃ¨re"/>
  </node>
  <node id="301218064" version="2" timestamp="2008-10-23T19:10:40Z" uid="6975" user="ulfl" changeset="530870" lat="47.3796342" lon="8.5161271">
    <tag k="amenity" v="fountain"/>
  </node>
</osm>
