<?xml version='1.0' encoding='UTF-8'?>
<osm version="0.6" generator="libosmium/2.20.0">
  <node id="301530430" version="3" timestamp="2010-07-15T07:15:42Z" uid="4467" user="Rosscoe" changeset="5224069" lat="-33.8394335" lon="151.2112842"/>
  <node id="301534324" version="2" timestamp="2008-10-20T22:14:52Z" uid="30632" user="antblant" changeset="491221" lat="50.7717748" lon="19.1580268"/>
  <node id="301534884" version="2" timestamp="2009-10-17T15:27:19Z" uid="20587" user="balrog-kun" changeset="2875188" lat="50.7531855" lon="19.2728191"/>
  <node id="301535361" version="2" timestamp="2009-10-17T15:27:19Z" uid="20587" user="balrog-kun" changeset="2875188" lat="50.7531816" lon="19.2729355"/>
  <node id="301535382" version="2" timestamp="2009-10-17T15:27:19Z" uid="20587" user="balrog-kun" changeset="2875188" lat="50.7531078" lon="19.2725947"/>
  <node id="301536715" version="6" timestamp="2009-10-18T10:29:20Z" uid="36809" user="pfoten_weg_!_" changeset="2881738" lat="47.7610993" lon="11.5736529">
    <tag k="amenity" v="bus_station"/>
    <tag k="name" v="Bahnhof"/>
    <tag k="operator" v="RVO"/>
  </node>
  <node id="301537019" version="2" timestamp="2009-05-01T20:01:05Z" uid="20587" user="balrog-kun" changeset="1041684" lat="50.7749291" lon="19.2738306">
    <tag k="addr:postcode" v="42-256"/>
    <tag k="created_by" v="Potlatch 0.10c"/>
    <tag k="is_in" v="gmina Olsztyn, powiat częstochowski, województwo śląskie, Poland"/>
    <tag k="is_in:county" v="powiat częstochowski"/>
    <tag k="is_in:municipality" v="gmina Olsztyn"/>
    <tag k="is_in:province" v="województwo śląskie"/>
    <tag k="name" v="Kusieta"/>
    <tag k="place" v="village"/>
    <tag k="population" v="1147"/>
    <tag k="source:population" v="wikipedia"/>
    <tag k="wikipedia" v="Kusięta"/>
  </node>
  <node id="301537019" version="3" timestamp="2010-04-11T04:38:48Z" uid="20587" user="balrog-kun" changeset="4389130" lat="50.7746264" lon="19.2738724">
    <tag k="addr:postcode" v="42-256"/>
    <tag k="is_in" v="gmina Olsztyn, powiat częstochowski, województwo śląskie, Poland"/>
    <tag k="is_in:county" v="powiat częstochowski"/>
    <tag k="is_in:municipality" v="gmina Olsztyn"/>
    <tag k="is_in:province" v="województwo śląskie"/>
    <tag k="name" v="Kusieta"/>
    <tag k="place" v="village"/>
    <tag k="population" v="1147"/>
    <tag k="source:population" v="wikipedia"/>
    <tag k="wikipedia" v="Kusięta"/>
  </node>
  <node id="301537060" version="5" timestamp="2008-10-23T17:12:53Z" uid="6975" user="ulfl" changeset="530870" lat="48.0112848" lon="7.8546391">
    <tag k="highway" v="bus_stop"/>
    <tag k="name" v="Okenstraße"/>
    <tag k="operator" v="SBG"/>
  </node>
  <node id="301537535" version="6" timestamp="2011-02-26T09:36:13Z" uid="4467" user="Rosscoe" changeset="7397878" lat="-37.8196589" lon="144.9445641"/>
  <node id="301537542" version="7" timestamp="2011-02-26T09:36:17Z" uid="4467" user="Rosscoe" changeset="7397878" lat="-37.8198931" lon="144.9437582"/>
  <node id="301538001" version="5" timestamp="2010-08-17T09:25:30Z" uid="4467" user="Rosscoe" changeset="5515912" lat="-37.8215496" lon="144.9538546">
    <tag k="highway" v="traffic_signals"/>
  </node>
  <node id="301538002" version="5" timestamp="2010-08-17T09:25:22Z" uid="4467" user="Rosscoe" changeset="5515912" lat="-37.8215167" lon="144.9539598">
    <tag k="highway" v="traffic_signals"/>
  </node>
  <node id="301539982" version="1" timestamp="2008-10-02T10:17:07Z" uid="67142" user="zottel" changeset="24856" lat="48.8855888" lon="8.7032926"/>
</osm>
