<?xml version='1.0' encoding='UTF-8'?>
<osm version="0.6" generator="libosmium/2.20.0">
  <node id="304980150" version="1" timestamp="2008-10-16T13:50:00Z" uid="43863" user="Rundling" changeset="368993" lat="52.9580803" lon="10.551648">
    <tag k="amenity" v="fuel"/>
    <tag k="name" v="ARAL"/>
  </node>
  <node id="304980150" version="2" timestamp="2008-10-17T19:11:59Z" uid="43863" user="Rundling" changeset="401333" lat="52.9581101" lon="10.5515337">
    <tag k="amenity" v="fuel"/>
    <tag k="created_by" v="Merkaartor 0.12"/>
    <tag k="name" v="ARAL"/>
  </node>
  <node id="304980150" version="3" timestamp="2009-04-29T18:14:26Z" uid="43863" user="Rundling" changeset="1019022" lat="52.9581101" lon="10.5515337">
    <tag k="amenity" v="fuel"/>
    <tag k="name" v="ARAL"/>
  </node>
  <node id="304982044" version="11" timestamp="2010-03-15T07:42:05Z" uid="27600" user="Islanit" changeset="4132344" lat="53.558882" lon="10.0679247"/>
  <node id="304983570" version="3" timestamp="2008-12-13T16:19:22Z" uid="58091" user="Andreas M" changeset="358771" lat="48.2540052" lon="16.3518286">
    <tag k="amenity" v="restaurant"/>
    <tag k="description" v="Wirtshaus und Biergarten"/>
    <tag k="name" v="figls"/>
  </node>
  <node id="304983719" version="2" timestamp="2008-12-18T12:35:12Z" uid="58091" user="Andreas M" changeset="457257" lat="48.2539953" lon="16.3511495"/>
  <node id="304983787" version="5" timestamp="2009-05-01T14:59:23Z" uid="20587" user="balrog-kun" changeset="1037648" lat="51.909517" lon="19.4649552">
    <tag k="created_by" v="Potlatch 0.10e"/>
    <tag k="is_in" v="gmina Zgierz, powiat zgierski, województwo łódzkie, Poland"/>
    <tag k="is_in:country" v="Poland"/>
    <tag k="is_in:county" v="powiat zgierski"/>
    <tag k="is_in:municipality" v="gmina Zgierz"/>
    <tag k="is_in:province" v="województwo łódzkie"/>
    <tag k="name" v="Jeżewo"/>
    <tag k="place" v="village"/>
    <tag k="population" v="50"/>
    <tag k="source:population" v="wikipedia"/>
    <tag k="teryt:rm" v="01"/>
    <tag k="teryt:simc" v="0416545"/>
    <tag k="teryt:stan_na" v="2009-01-01"/>
    <tag k="teryt:terc" v="1020092"/>
    <tag k="teryt:updated_by" v="teryt2osm combine.py v. 43"/>
    <tag k="wikipedia" v="pl:Jeżewo (województwo łódzkie)"/>
  </node>
  <node id="304983788" version="1" timestamp="2008-10-16T14:17:53Z" uid="57673" user="Olaf Jan Schmidt" changeset="381870" lat="50.6946577" lon="7.1224886">
    <tag k="created_by" v="JOSM"/>
  </node>
  <node id="304983788" version="2" timestamp="2008-10-16T14:20:42Z" uid="57673" user="Olaf Jan Schmidt" changeset="381870" lat="50.6946673" lon="7.1224886">
    <tag k="created_by" v="JOSM"/>
  </node>
  <node id="304983789" version="1" timestamp="2008-10-16T14:17:53Z" uid="57673" user="Olaf Jan Schmidt" changeset="381870" lat="50.6951616" lon="7.1229197">
    <tag k="created_by" v="JOSM"/>
    <tag k="highway" v="bus_stop"/>
    <tag k="name" v="Turmhaus"/>
  </node>
  <node id="304983790" version="1" timestamp="2008-10-16T14:17:53Z" uid="57673" user="Olaf Jan Schmidt" changeset="381870" lat="50.6951029" lon="7.1229176">
    <tag k="amenity" v="telephone"/>
    <tag k="created_by" v="JOSM"/>
  </node>
  <node id="304983790" version="2" timestamp="2008-10-16T14:19:48Z" uid="57673" user="Olaf Jan Schmidt" changeset="381870" lat="50.6951029" lon="7.1229176">
    <tag k="amenity" v="telephone"/>
    <tag k="created_by" v="JOSM"/>
    <tag k="operator" v="Deutsche Telekom"/>
    <tag k="payment:coins" v="yes"/>
  </node>
  <node id="304983790" version="3" timestamp="2008-10-22T18:33:09Z" uid="57673" user="Olaf Jan Schmidt" changeset="515532" lat="50.6951029" lon="7.1229176">
    <tag k="amenity" v="telephone"/>
    <tag k="created_by" v="JOSM"/>
    <tag k="operator" v="Deutsche Telekom"/>
    <tag k="payment:coins" v="yes"/>
    <tag k="payment:credit_cards" v="yes"/>
    <tag k="payment:telephone_cards" v="yes"/>
  </node>
  <node id="304983849" version="5" timestamp="2009-05-01T15:00:15Z" uid="20587" user="balrog-kun" changeset="1037667" lat="51.8918549" lon="19.4860267">
    <tag k="created_by" v="Potlatch 0.10e"/>
    <tag k="is_in" v="gmina Zgierz, powiat zgierski, województwo łódzkie, Poland"/>
    <tag k="is_in:country" v="Poland"/>
    <tag k="is_in:county" v="powiat zgierski"/>
    <tag k="is_in:municipality" v="gmina Zgierz"/>
    <tag k="is_in:province" v="województwo łódzkie"/>
    <tag k="name" v="Wołyń"/>
    <tag k="place" v="village"/>
    <tag k="population" v="70"/>
    <tag k="source:population" v="wikipedia"/>
    <tag k="teryt:rm" v="01"/>
    <tag k="teryt:simc" v="0416806"/>
    <tag k="teryt:stan_na" v="2009-01-01"/>
    <tag k="teryt:terc" v="1020092"/>
    <tag k="teryt:updated_by" v="teryt2osm combine.py v. 43"/>
    <tag k="wikipedia" v="Wołyń, Łódź Voivodeship"/>
  </node>
  <node id="304983870" version="5" timestamp="2009-05-01T14:53:03Z" uid="20587" user="balrog-kun" changeset="1037546" lat="51.8902393" lon="19.4987296">
    <tag k="created_by" v="Potlatch 0.10e"/>
    <tag k="is_in" v="gmina Zgierz, powiat zgierski, województwo łódzkie, Poland"/>
    <tag k="is_in:country" v="Poland"/>
    <tag k="is_in:county" v="powiat zgierski"/>
    <tag k="is_in:municipality" v="gmina Zgierz"/>
    <tag k="is_in:province" v="województwo łódzkie"/>
    <tag k="name" v="Podole"/>
    <tag k="place" v="village"/>
    <tag k="teryt:rm" v="01"/>
    <tag k="teryt:simc" v="0416628"/>
    <tag k="teryt:stan_na" v="2009-01-01"/>
    <tag k="teryt:terc" v="1020092"/>
    <tag k="teryt:updated_by" v="teryt2osm combine.py v. 43"/>
    <tag k="wikipedia" v="Podole, Łódź Voivodeship"/>
  </node>
  <node id="304984035" version="3" timestamp="2009-05-01T17:45:42Z" uid="20587" user="balrog-kun" changeset="1039782" lat="51.8797494" lon="19.4914402">
    <tag k="is_in" v="gmina Zgierz, powiat zgierski, województwo łódzkie, Poland"/>
    <tag k="is_in:county" v="powiat zgierski"/>
    <tag k="is_in:municipality" v="gmina Zgierz"/>
    <tag k="is_in:province" v="województwo łódzkie"/>
    <tag k="name" v="Palestyna"/>
    <tag k="place" v="village"/>
    <tag k="wikipedia" v="Palestyna, Łódź Voivodeship"/>
  </node>
  <node id="304984035" version="4" timestamp="2010-04-27T04:20:32Z" uid="30632" user="antblant" changeset="4537912" lat="51.8797494" lon="19.4914402">
    <tag k="is_in" v="gmina Zgierz, powiat zgierski, województwo łódzkie, Poland"/>
    <tag k="is_in:county" v="powiat zgierski"/>
    <tag k="is_in:municipality" v="gmina Zgierz"/>
    <tag k="is_in:province" v="województwo łódzkie"/>
    <tag k="name" v="Palestyna"/>
    <tag k="place" v="village"/>
    <tag k="teryt:simc" v="0033123"/>
    <tag k="wikipedia" v="Palestyna, Łódź Voivodeship"/>
  </node>
  <node id="304984103" version="5" timestamp="2009-05-01T14:58:45Z" uid="20587" user="balrog-kun" changeset="1037648" lat="51.8758021" lon="19.50006">
    <tag k="created_by" v="Potlatch 0.10e"/>
    <tag k="is_in" v="gmina Zgierz, powiat zgierski, województwo łódzkie, Poland"/>
    <tag k="is_in:country" v="Poland"/>
    <tag k="is_in:county" v="powiat zgierski"/>
    <tag k="is_in:municipality" v="gmina Zgierz"/>
    <tag k="is_in:province" v="województwo łódzkie"/>
    <tag k="name" v="Józefów"/>
    <tag k="place" v="village"/>
    <tag k="teryt:rm" v="01"/>
    <tag k="teryt:simc" v="0416887"/>
    <tag k="teryt:stan_na" v="2009-01-01"/>
    <tag k="teryt:terc" v="1020092"/>
    <tag k="teryt:updated_by" v="teryt2osm combine.py v. 43"/>
    <tag k="wikipedia" v="pl:Józefów (powiat zgierski)"/>
  </node>
  <node id="304986316" version="2" timestamp="2008-10-23T17:43:07Z" uid="6975" user="ulfl" changeset="530870" lat="51.0930466" lon="13.3531424">
    <tag k="amenity" v="first_aid"/>
    <tag k="name" v="ASB Rettungswache Katzenberg"/>
    <tag k="operator" v="ASB"/>
  </node>
  <node id="304987518" version="2" timestamp="2009-02-09T22:38:12Z" uid="66036" user="h4v" changeset="309199" lat="51.7939769" lon="19.4426326"/>
  <node id="304987518" version="3" timestamp="2009-02-09T22:38:33Z" uid="66036" user="h4v" changeset="309199" lat="51.7939769" lon="19.4426326"/>
  <node id="304987519" version="3" timestamp="2009-02-09T22:38:05Z" uid="66036" user="h4v" changeset="309199" lat="51.7938709" lon="19.443311"/>
  <node id="304987519" version="4" timestamp="2009-02-09T22:38:12Z" uid="66036" user="h4v" changeset="309199" lat="51.7938709" lon="19.443311"/>
  <node id="304987519" version="5" timestamp="2009-02-09T22:38:33Z" uid="66036" user="h4v" changeset="309199" lat="51.7938709" lon="19.443311"/>
</osm>
