<?xml version='1.0' encoding='UTF-8'?>
<osm version="0.6" generator="libosmium/2.20.0">
  <node id="306052735" version="1" timestamp="2008-10-21T01:29:33Z" uid="4467" user="Rosscoe" changeset="487146" lat="-20.845582" lon="144.1978543">
    <tag k="created_by" v="JOSM"/>
    <tag k="name" v="Hughenden"/>
    <tag k="place" v="town"/>
  </node>
  <node id="306053031" version="1" timestamp="2008-10-21T01:31:57Z" uid="30201" user="rrankin" changeset="477935" lat="-35.9940315" lon="137.3463835"/>
  <node id="306057869" version="4" timestamp="2010-07-12T06:54:34Z" uid="4467" user="Rosscoe" changeset="5196102" lat="-37.9656438" lon="145.3040164"/>
  <node id="306057880" version="4" timestamp="2010-07-12T06:54:39Z" uid="4467" user="Rosscoe" changeset="5196102" lat="-37.9661645" lon="145.3041265"/>
  <node id="306058071" version="1" timestamp="2008-10-21T02:06:46Z" uid="36809" user="pfoten_weg_!_" changeset="478725" lat="48.02946" lon="11.36941">
    <tag k="amenity" v="wifi"/>
    <tag k="class" v="free"/>
    <tag k="created_by" v="RambaZamba"/>
    <tag k="man_made" v="beacon"/>
    <tag k="name" v="FON_B_O_X"/>
    <tag k="ref" v="Altostraße,82319 Starnberg,UT90,K2,Boxer1150"/>
    <tag k="source" v="survey"/>
  </node>
  <node id="306058071" version="2" timestamp="2009-04-29T00:44:58Z" uid="36809" user="pfoten_weg_!_" changeset="1010450" lat="48.02946" lon="11.36941">
    <tag k="amenity" v="wifi"/>
    <tag k="class" v="free"/>
    <tag k="created_by" v="RambaZamba"/>
    <tag k="man_made" v="beacon"/>
    <tag k="name" v="FON_B_O_X"/>
    <tag k="ref" v="Altostraße,82319 Starnberg,UT60,K2,Boxer1150"/>
    <tag k="source" v="survey"/>
  </node>
  <node id="306058071" version="3" timestamp="2009-07-28T04:56:11Z" uid="36809" user="pfoten_weg_!_" changeset="1961363" lat="48.02946" lon="11.36941">
    <tag k="amenity" v="wifi"/>
    <tag k="class" v="free"/>
    <tag k="created_by" v="RambaZamba"/>
    <tag k="man_made" v="beacon"/>
    <tag k="name" v="FON_B_O_X"/>
    <tag k="ref" v="Altostraße,82319 Starnberg,UT60,K2,Boxer1150"/>
    <tag k="source" v="survey"/>
  </node>
  <node id="306058072" version="1" timestamp="2008-10-21T02:06:46Z" uid="36809" user="pfoten_weg_!_" changeset="478725" lat="48.10744" lon="11.47229">
    <tag k="amenity" v="wifi"/>
    <tag k="class" v="free"/>
    <tag k="created_by" v="RambaZamba"/>
    <tag k="man_made" v="beacon"/>
    <tag k="name" v="FON_KlinikumGrosshadern"/>
    <tag k="ref" v="Prälat-Wellenhofer 31,81377 Muc,UT10,K2,istvanst"/>
    <tag k="source" v="survey"/>
  </node>
  <node id="306058072" version="3" timestamp="2009-08-26T10:00:42Z" uid="36809" user="pfoten_weg_!_" changeset="2265457" lat="48.10744" lon="11.47229">
    <tag k="amenity" v="wifi"/>
    <tag k="class" v="free"/>
    <tag k="man_made" v="beacon"/>
    <tag k="name" v="FON_KlinikumGrosshadern"/>
    <tag k="ref" v="Prälat-Wellenhofer 31,81377 Muc,UT10,K2,istvanst"/>
    <tag k="seamark" v="beacon"/>
    <tag k="source" v="survey"/>
  </node>
  <node id="306058074" version="1" timestamp="2008-10-21T02:06:46Z" uid="36809" user="pfoten_weg_!_" changeset="478725" lat="48.09352" lon="11.47299">
    <tag k="amenity" v="wifi"/>
    <tag k="class" v="free"/>
    <tag k="created_by" v="RambaZamba"/>
    <tag k="man_made" v="beacon"/>
    <tag k="name" v="FON_atlantis"/>
    <tag k="ref" v="Ammerseestr.28,82061 Neuried,UT60,K1,atlantis"/>
    <tag k="source" v="survey"/>
  </node>
  <node id="306058074" version="3" timestamp="2009-09-01T11:24:21Z" uid="36809" user="pfoten_weg_!_" changeset="2336438" lat="48.09352" lon="11.47299">
    <tag k="amenity" v="wifi"/>
    <tag k="class" v="free"/>
    <tag k="man_made" v="beacon"/>
    <tag k="name" v="FON_atlantis"/>
    <tag k="ref" v="Ammerseestr.28,82061 Neuried,UT60,K1,atlantis"/>
    <tag k="seamark" v="beacon"/>
    <tag k="source" v="survey"/>
  </node>
  <node id="306058077" version="1" timestamp="2008-10-21T02:06:46Z" uid="36809" user="pfoten_weg_!_" changeset="478725" lat="48.10725" lon="11.474">
    <tag k="amenity" v="wifi"/>
    <tag k="class" v="free"/>
    <tag k="created_by" v="RambaZamba"/>
    <tag k="man_made" v="beacon"/>
    <tag k="name" v="FON_by_Puschi_GH"/>
    <tag k="ref" v="Prälat-Wellenhofer-Str.11,81377 Muc,UT40,K1,puschi88"/>
    <tag k="source" v="survey"/>
  </node>
  <node id="306058077" version="3" timestamp="2009-08-26T10:00:42Z" uid="36809" user="pfoten_weg_!_" changeset="2265457" lat="48.10725" lon="11.474">
    <tag k="amenity" v="wifi"/>
    <tag k="class" v="free"/>
    <tag k="man_made" v="beacon"/>
    <tag k="name" v="FON_by_Puschi_GH"/>
    <tag k="ref" v="Prälat-Wellenhofer-Str.11,81377 Muc,UT40,K1,puschi88"/>
    <tag k="seamark" v="beacon"/>
    <tag k="source" v="survey"/>
  </node>
  <node id="306058079" version="1" timestamp="2008-10-21T02:06:47Z" uid="36809" user="pfoten_weg_!_" changeset="478725" lat="48.10717" lon="11.47402">
    <tag k="amenity" v="wifi"/>
    <tag k="class" v="free"/>
    <tag k="created_by" v="RambaZamba"/>
    <tag k="man_made" v="beacon"/>
    <tag k="name" v="FON_Biker_Crew"/>
    <tag k="ref" v="Prälat-Wellenhofer-Str.11,81377 Muc,UT40,K2,biker"/>
    <tag k="source" v="survey"/>
  </node>
  <node id="306058079" version="3" timestamp="2009-08-26T10:00:41Z" uid="36809" user="pfoten_weg_!_" changeset="2265457" lat="48.10717" lon="11.47402">
    <tag k="amenity" v="wifi"/>
    <tag k="class" v="free"/>
    <tag k="man_made" v="beacon"/>
    <tag k="name" v="FON_Biker_Crew"/>
    <tag k="ref" v="Prälat-Wellenhofer-Str.11,81377 Muc,UT40,K2,biker"/>
    <tag k="seamark" v="beacon"/>
    <tag k="source" v="survey"/>
  </node>
  <node id="306058080" version="1" timestamp="2008-10-21T02:06:47Z" uid="36809" user="pfoten_weg_!_" changeset="478725" lat="48.08992" lon="11.4741">
    <tag k="amenity" v="wifi"/>
    <tag k="class" v="free"/>
    <tag k="created_by" v="RambaZamba"/>
    <tag k="man_made" v="beacon"/>
    <tag k="name" v="FON_AP"/>
    <tag k="ref" v="Appezellerstr.97,81475 Muc,UT95,K1,m_man"/>
    <tag k="source" v="survey"/>
  </node>
  <node id="306058080" version="2" timestamp="2008-10-23T22:58:51Z" uid="36809" user="pfoten_weg_!_" changeset="544814" lat="48.08992" lon="11.4741">
    <tag k="amenity" v="wifi"/>
    <tag k="class" v="free"/>
    <tag k="created_by" v="RambaZamba"/>
    <tag k="man_made" v="beacon"/>
    <tag k="name" v="FON_AP"/>
    <tag k="ref" v="Appezellerstr.97,81475 Muc,UT50,K1,m_man"/>
    <tag k="source" v="survey"/>
  </node>
  <node id="306058080" version="3" timestamp="2009-07-23T21:01:00Z" uid="36809" user="pfoten_weg_!_" changeset="1919954" lat="48.08992" lon="11.4741">
    <tag k="amenity" v="wifi"/>
    <tag k="discovered_by" v="RambaZamba"/>
    <tag k="man_made" v="beacon"/>
    <tag k="name" v="FON_AP"/>
    <tag k="ref" v="Appezellerstr.97,81475 Muc,UT50,K1,m_man"/>
    <tag k="source" v="survey"/>
  </node>
  <node id="306058080" version="4" timestamp="2009-07-23T21:03:40Z" uid="36809" user="pfoten_weg_!_" changeset="1919967" lat="48.08992" lon="11.4741">
    <tag k="amenity" v="wifi"/>
    <tag k="discovered_by" v="RambaZamba"/>
    <tag k="internet_access" v="wlan"/>
    <tag k="internet_access:operator" v="FON"/>
    <tag k="name" v="FON_AP"/>
    <tag k="ref" v="Appezellerstr.97,81475 Muc,UT50,K1,m_man"/>
    <tag k="source" v="survey"/>
  </node>
  <node id="306058080" version="6" timestamp="2009-08-26T09:29:44Z" uid="36809" user="pfoten_weg_!_" changeset="2265170" lat="48.08992" lon="11.4741">
    <tag k="amenity" v="wifi"/>
    <tag k="internet_access" v="wlan"/>
    <tag k="internet_access:operator" v="FON"/>
    <tag k="name" v="FON_AP"/>
    <tag k="ref" v="Appezellerstr.97,81475 Muc,UT50,K1,m_man"/>
    <tag k="source" v="survey"/>
  </node>
  <node id="306058080" version="7" timestamp="2009-09-01T11:24:22Z" uid="36809" user="pfoten_weg_!_" changeset="2336438" lat="48.08992" lon="11.4741">
    <tag k="amenity" v="wifi"/>
    <tag k="internet_access" v="wlan"/>
    <tag k="internet_access:operator" v="FON"/>
    <tag k="name" v="FON_AP"/>
    <tag k="ref" v="Appezellerstr.97,81475 Muc,UT50,K1,m_man"/>
    <tag k="source" v="survey"/>
  </node>
  <node id="306058083" version="1" timestamp="2008-10-21T02:06:47Z" uid="36809" user="pfoten_weg_!_" changeset="478725" lat="48.1082" lon="11.47686">
    <tag k="amenity" v="wifi"/>
    <tag k="class" v="free"/>
    <tag k="created_by" v="RambaZamba"/>
    <tag k="man_made" v="beacon"/>
    <tag k="name" v="FON_Bastl_Wastl"/>
    <tag k="ref" v="Pfingstrosenstr.89,81377 Muc,UT40,K1,BastlWastl"/>
    <tag k="source" v="survey"/>
  </node>
  <node id="306058083" version="3" timestamp="2009-08-26T10:00:42Z" uid="36809" user="pfoten_weg_!_" changeset="2265457" lat="48.1082" lon="11.47686">
    <tag k="amenity" v="wifi"/>
    <tag k="class" v="free"/>
    <tag k="man_made" v="beacon"/>
    <tag k="name" v="FON_Bastl_Wastl"/>
    <tag k="ref" v="Pfingstrosenstr.89,81377 Muc,UT40,K1,BastlWastl"/>
    <tag k="seamark" v="beacon"/>
    <tag k="source" v="survey"/>
  </node>
  <node id="306058085" version="1" timestamp="2008-10-21T02:06:47Z" uid="36809" user="pfoten_weg_!_" changeset="478725" lat="48.10773" lon="11.48439">
    <tag k="amenity" v="wifi"/>
    <tag k="class" v="free"/>
    <tag k="created_by" v="RambaZamba"/>
    <tag k="man_made" v="beacon"/>
    <tag k="name" v="FON_AP"/>
    <tag k="ref" v="Buschrosenweg 12,81377 Muc,UT20,K1,harrym"/>
    <tag k="source" v="survey"/>
  </node>
  <node id="306058085" version="3" timestamp="2009-08-26T10:00:42Z" uid="36809" user="pfoten_weg_!_" changeset="2265457" lat="48.10773" lon="11.48439">
    <tag k="amenity" v="wifi"/>
    <tag k="class" v="free"/>
    <tag k="man_made" v="beacon"/>
    <tag k="name" v="FON_AP"/>
    <tag k="ref" v="Buschrosenweg 12,81377 Muc,UT20,K1,harrym"/>
    <tag k="seamark" v="beacon"/>
    <tag k="source" v="survey"/>
  </node>
  <node id="306058087" version="1" timestamp="2008-10-21T02:06:47Z" uid="36809" user="pfoten_weg_!_" changeset="478725" lat="48.08959" lon="11.49855">
    <tag k="amenity" v="wifi"/>
    <tag k="class" v="free"/>
    <tag k="created_by" v="RambaZamba"/>
    <tag k="man_made" v="beacon"/>
    <tag k="name" v="FON_FREE_INTERNET"/>
    <tag k="ref" v="Sallerweg 3,81476 Muc,UT90,K1,sallerofon"/>
    <tag k="source" v="survey"/>
  </node>
  <node id="306058087" version="2" timestamp="2008-10-26T22:53:41Z" uid="36809" user="pfoten_weg_!_" changeset="591475" lat="48.08959" lon="11.49855">
    <tag k="amenity" v="wifi"/>
    <tag k="class" v="free"/>
    <tag k="created_by" v="RambaZamba"/>
    <tag k="man_made" v="beacon"/>
    <tag k="name" v="FON_FREE_INTERNET"/>
    <tag k="ref" v="Sallerweg 3,81476 Muc,UT80,K1,sallerofon"/>
    <tag k="source" v="survey"/>
  </node>
  <node id="306058087" version="3" timestamp="2009-03-30T19:05:32Z" uid="36809" user="pfoten_weg_!_" changeset="871597" lat="48.0896263" lon="11.4984957">
    <tag k="amenity" v="wifi"/>
    <tag k="class" v="free"/>
    <tag k="created_by" v="RambaZamba"/>
    <tag k="man_made" v="beacon"/>
    <tag k="name" v="FON_FREE_INTERNET"/>
    <tag k="ref" v="Sallerweg 3,81476 Muc,UT90,K1,sallerofon"/>
    <tag k="source" v="survey"/>
  </node>
  <node id="306058087" version="4" timestamp="2009-07-23T21:01:01Z" uid="36809" user="pfoten_weg_!_" changeset="1919954" lat="48.0896263" lon="11.4984957">
    <tag k="amenity" v="wifi"/>
    <tag k="discovered_by" v="RambaZamba"/>
    <tag k="man_made" v="beacon"/>
    <tag k="name" v="FON_FREE_INTERNET"/>
    <tag k="ref" v="Sallerweg 3,81476 Muc,UT90,K1,sallerofon"/>
    <tag k="source" v="survey"/>
  </node>
  <node id="306058087" version="5" timestamp="2009-07-23T21:03:40Z" uid="36809" user="pfoten_weg_!_" changeset="1919967" lat="48.0896263" lon="11.4984957">
    <tag k="amenity" v="wifi"/>
    <tag k="discovered_by" v="RambaZamba"/>
    <tag k="internet_access" v="wlan"/>
    <tag k="internet_access:operator" v="FON"/>
    <tag k="name" v="FON_FREE_INTERNET"/>
    <tag k="ref" v="Sallerweg 3,81476 Muc,UT90,K1,sallerofon"/>
    <tag k="source" v="survey"/>
  </node>
  <node id="306058087" version="7" timestamp="2009-08-26T09:29:44Z" uid="36809" user="pfoten_weg_!_" changeset="2265170" lat="48.0896263" lon="11.4984957">
    <tag k="amenity" v="wifi"/>
    <tag k="internet_access" v="wlan"/>
    <tag k="internet_access:operator" v="FON"/>
    <tag k="name" v="FON_FREE_INTERNET"/>
    <tag k="ref" v="Sallerweg 3,81476 Muc,UT90,K1,sallerofon"/>
    <tag k="source" v="survey"/>
  </node>
  <node id="306058087" version="8" timestamp="2009-09-01T11:24:22Z" uid="36809" user="pfoten_weg_!_" changeset="2336438" lat="48.0896263" lon="11.4984957">
    <tag k="amenity" v="wifi"/>
    <tag k="internet_access" v="wlan"/>
    <tag k="internet_access:operator" v="FON"/>
    <tag k="name" v="FON_FREE_INTERNET"/>
    <tag k="ref" v="Sallerweg 3,81476 Muc,UT90,K1,sallerofon"/>
    <tag k="source" v="survey"/>
  </node>
  <node id="306058089" version="1" timestamp="2008-10-21T02:06:48Z" uid="36809" user="pfoten_weg_!_" changeset="478725" lat="48.08718" lon="11.49896">
    <tag k="amenity" v="wifi"/>
    <tag k="class" v="free"/>
    <tag k="created_by" v="RambaZamba"/>
    <tag k="man_made" v="beacon"/>
    <tag k="name" v="FON_staebli"/>
    <tag k="ref" v="Stäblistr.28,81476 Muc,UT30,K2,mazus"/>
    <tag k="source" v="survey"/>
  </node>
  <node id="306058089" version="2" timestamp="2008-10-26T22:53:41Z" uid="36809" user="pfoten_weg_!_" changeset="591475" lat="48.08718" lon="11.49896">
    <tag k="amenity" v="wifi"/>
    <tag k="class" v="free"/>
    <tag k="created_by" v="RambaZamba"/>
    <tag k="man_made" v="beacon"/>
    <tag k="name" v="FON_staebli"/>
    <tag k="ref" v="Stäblistr.28,81476 Muc,UT90,K2,mazus"/>
    <tag k="source" v="survey"/>
  </node>
  <node id="306058089" version="3" timestamp="2009-03-30T19:05:31Z" uid="36809" user="pfoten_weg_!_" changeset="871597" lat="48.08718" lon="11.49896">
    <tag k="amenity" v="wifi"/>
    <tag k="class" v="free"/>
    <tag k="created_by" v="RambaZamba"/>
    <tag k="man_made" v="beacon"/>
    <tag k="name" v="FON_staebli"/>
    <tag k="ref" v="Stäblistr.28,81476 Muc,UT95,K2,mazus"/>
    <tag k="source" v="survey"/>
  </node>
  <node id="306058089" version="4" timestamp="2009-07-23T21:01:00Z" uid="36809" user="pfoten_weg_!_" changeset="1919954" lat="48.08718" lon="11.49896">
    <tag k="amenity" v="wifi"/>
    <tag k="discovered_by" v="RambaZamba"/>
    <tag k="man_made" v="beacon"/>
    <tag k="name" v="FON_staebli"/>
    <tag k="ref" v="Stäblistr.28,81476 Muc,UT95,K2,mazus"/>
    <tag k="source" v="survey"/>
  </node>
  <node id="306058089" version="5" timestamp="2009-07-23T21:03:39Z" uid="36809" user="pfoten_weg_!_" changeset="1919967" lat="48.08718" lon="11.49896">
    <tag k="amenity" v="wifi"/>
    <tag k="discovered_by" v="RambaZamba"/>
    <tag k="internet_access" v="wlan"/>
    <tag k="internet_access:operator" v="FON"/>
    <tag k="name" v="FON_staebli"/>
    <tag k="ref" v="Stäblistr.28,81476 Muc,UT95,K2,mazus"/>
    <tag k="source" v="survey"/>
  </node>
  <node id="306058089" version="7" timestamp="2009-08-19T01:58:43Z" uid="36809" user="pfoten_weg_!_" changeset="2196399" lat="48.08718" lon="11.49896">
    <tag k="amenity" v="wifi"/>
    <tag k="internet_access" v="wlan"/>
    <tag k="internet_access:operator" v="FON"/>
    <tag k="name" v="FON_staebli"/>
    <tag k="ref" v="Stäblistr.28,81476 Muc,UT95,K2,mazus"/>
    <tag k="source" v="survey"/>
    <tag k="warnung" v="rumpelzumpel-verbrecher"/>
  </node>
  <node id="306058089" version="8" timestamp="2009-08-19T02:22:48Z" uid="36809" user="pfoten_weg_!_" changeset="2196453" lat="48.08718" lon="11.49896">
    <tag k="amenity" v="wifi"/>
    <tag k="internet_access" v="wlan"/>
    <tag k="internet_access:operator" v="FON"/>
    <tag k="name" v="FON_staebli"/>
    <tag k="ref" v="Stäblistr.28,81476 Muc,UT95,K2,mazus"/>
    <tag k="source" v="survey"/>
  </node>
  <node id="306058089" version="9" timestamp="2009-09-01T11:24:22Z" uid="36809" user="pfoten_weg_!_" changeset="2336438" lat="48.08718" lon="11.49896">
    <tag k="amenity" v="wifi"/>
    <tag k="internet_access" v="wlan"/>
    <tag k="internet_access:operator" v="FON"/>
    <tag k="name" v="FON_staebli"/>
    <tag k="ref" v="Stäblistr.28,81476 Muc,UT95,K2,mazus"/>
    <tag k="source" v="survey"/>
  </node>
  <node id="306058091" version="1" timestamp="2008-10-21T02:06:48Z" uid="36809" user="pfoten_weg_!_" changeset="478725" lat="48.09528" lon="11.49919">
    <tag k="amenity" v="wifi"/>
    <tag k="class" v="free"/>
    <tag k="created_by" v="RambaZamba"/>
    <tag k="man_made" v="beacon"/>
    <tag k="name" v="FON_AP"/>
    <tag k="ref" v="Leonistr.12,81476 Muc,UT70,K1,N3R0"/>
    <tag k="source" v="survey"/>
  </node>
  <node id="306058091" version="2" timestamp="2008-10-21T22:44:18Z" uid="36809" user="pfoten_weg_!_" changeset="498271" lat="48.09528" lon="11.49919">
    <tag k="amenity" v="wifi"/>
    <tag k="class" v="free"/>
    <tag k="created_by" v="RambaZamba"/>
    <tag k="man_made" v="beacon"/>
    <tag k="name" v="FON_AP"/>
    <tag k="ref" v="Leonistr.12,81476 Muc,UT70,K1,N3R0"/>
    <tag k="source" v="survey"/>
  </node>
  <node id="306058093" version="1" timestamp="2008-10-21T02:06:48Z" uid="36809" user="pfoten_weg_!_" changeset="478725" lat="48.07901" lon="11.50043">
    <tag k="amenity" v="wifi"/>
    <tag k="class" v="free"/>
    <tag k="created_by" v="RambaZamba"/>
    <tag k="man_made" v="beacon"/>
    <tag k="name" v="FON_AP"/>
    <tag k="ref" v="Olivierstr.20a,81477 Muc,UT80,K2,franzip"/>
    <tag k="source" v="survey"/>
  </node>
  <node id="306058093" version="2" timestamp="2008-10-23T23:01:54Z" uid="36809" user="pfoten_weg_!_" changeset="544814" lat="48.07901" lon="11.50043">
    <tag k="amenity" v="wifi"/>
    <tag k="class" v="free"/>
    <tag k="created_by" v="RambaZamba"/>
    <tag k="man_made" v="beacon"/>
    <tag k="name" v="FON_AP"/>
    <tag k="ref" v="Olivierstr.20a,81477 Muc,UT50,K2,franzip"/>
    <tag k="source" v="survey"/>
  </node>
  <node id="306058093" version="3" timestamp="2008-12-09T20:35:43Z" uid="36809" user="pfoten_weg_!_" changeset="283335" lat="48.07901" lon="11.50043">
    <tag k="amenity" v="wifi"/>
    <tag k="class" v="free"/>
    <tag k="created_by" v="RambaZamba"/>
    <tag k="man_made" v="beacon"/>
    <tag k="name" v="FON_AP"/>
    <tag k="ref" v="Olivierstr.20a,81477 Muc,UT10,K2,franzip"/>
    <tag k="source" v="survey"/>
  </node>
  <node id="306058093" version="4" timestamp="2009-02-14T23:20:48Z" uid="36809" user="pfoten_weg_!_" changeset="445466" lat="48.07901" lon="11.50043">
    <tag k="amenity" v="wifi"/>
    <tag k="class" v="free"/>
    <tag k="created_by" v="RambaZamba"/>
    <tag k="man_made" v="beacon"/>
    <tag k="name" v="FON_AP"/>
    <tag k="ref" v="Olivierstr.20a,81477 Muc,UT5,K2,franzip"/>
    <tag k="source" v="survey"/>
  </node>
  <node id="306058093" version="5" timestamp="2009-05-23T00:39:00Z" uid="36809" user="pfoten_weg_!_" changeset="1291261" lat="48.07901" lon="11.50043">
    <tag k="amenity" v="wifi"/>
    <tag k="class" v="free"/>
    <tag k="created_by" v="RambaZamba"/>
    <tag k="man_made" v="beacon"/>
    <tag k="name" v="FON_AP"/>
    <tag k="ref" v="Olivierstr.20a,81477 Muc,UT0,K2,franzip"/>
    <tag k="source" v="survey"/>
  </node>
  <node id="306058093" version="6" timestamp="2009-06-09T09:00:51Z" uid="36809" user="pfoten_weg_!_" changeset="1466403" lat="48.07901" lon="11.50043">
    <tag k="amenity" v="wifi"/>
    <tag k="class" v="free"/>
    <tag k="created_by" v="RambaZamba"/>
    <tag k="man_made" v="beacon"/>
    <tag k="name" v="FON_AP [OFF]"/>
    <tag k="ref" v="Olivierstr.20a,81477 Muc,UT0,K2,franzip"/>
    <tag k="source" v="survey"/>
  </node>
  <node id="306058093" version="7" timestamp="2009-06-09T09:02:41Z" uid="36809" user="pfoten_weg_!_" changeset="1466414" lat="48.07901" lon="11.50043">
    <tag k="amenity" v="wifi"/>
    <tag k="class" v="free"/>
    <tag k="created_by" v="RambaZamba"/>
    <tag k="man_made" v="beacon"/>
    <tag k="name" v="FON_AP [OFF]"/>
    <tag k="ref" v="Olivierstr.20a,81477 Muc,UT0,K2,franzip"/>
    <tag k="source" v="survey"/>
  </node>
  <node id="306058094" version="1" timestamp="2008-10-21T02:06:48Z" uid="36809" user="pfoten_weg_!_" changeset="478725" lat="48.09691" lon="11.50221">
    <tag k="amenity" v="wifi"/>
    <tag k="class" v="free"/>
    <tag k="created_by" v="RambaZamba"/>
    <tag k="man_made" v="beacon"/>
    <tag k="name" v="FON_in_der_Wuermseestrasse"/>
    <tag k="ref" v="Würmseestr.42,81476 Muc,UT90,K1,magnacus"/>
    <tag k="source" v="survey"/>
  </node>
  <node id="306058094" version="3" timestamp="2009-06-12T20:31:44Z" uid="36809" user="pfoten_weg_!_" changeset="1500134" lat="48.09691" lon="11.50221">
    <tag k="amenity" v="wifi"/>
    <tag k="class" v="free"/>
    <tag k="created_by" v="RambaZamba"/>
    <tag k="man_made" v="beacon"/>
    <tag k="name" v="FON_in_der_Wuermseestraße"/>
    <tag k="ref" v="Würmseestr.42,81476 Muc,UT90,K1,magnacus"/>
    <tag k="source" v="survey"/>
  </node>
  <node id="306058094" version="4" timestamp="2009-07-23T21:41:41Z" uid="36809" user="pfoten_weg_!_" changeset="1920154" lat="48.09691" lon="11.50221">
    <tag k="amenity" v="wifi"/>
    <tag k="discovered_by" v="RambaZamba"/>
    <tag k="internet_access" v="wlan"/>
    <tag k="internet_access:operator" v="FON"/>
    <tag k="man_made" v="beacon"/>
    <tag k="name" v="FON_in_der_Wuermseestraße"/>
    <tag k="ref" v="Würmseestr.42,81476 Muc,UT90,K1,magnacus"/>
    <tag k="source" v="survey"/>
  </node>
  <node id="306058094" version="7" timestamp="2009-08-31T20:58:26Z" uid="36809" user="pfoten_weg_!_" changeset="2331411" lat="48.09691" lon="11.50221">
    <tag k="amenity" v="wifi"/>
    <tag k="internet_access" v="wlan"/>
    <tag k="internet_access:operator" v="FON"/>
    <tag k="man_made" v="beacon"/>
    <tag k="name" v="FON_in_der_Wuermseestraße"/>
    <tag k="ref" v="Würmseestr.42,81476 Muc,UT90,K1,magnacus"/>
    <tag k="seamark" v="beacon"/>
    <tag k="source" v="survey"/>
  </node>
  <node id="306058094" version="8" timestamp="2009-09-01T11:24:22Z" uid="36809" user="pfoten_weg_!_" changeset="2336438" lat="48.09691" lon="11.50221">
    <tag k="amenity" v="wifi"/>
    <tag k="internet_access" v="wlan"/>
    <tag k="internet_access:operator" v="FON"/>
    <tag k="man_made" v="beacon"/>
    <tag k="name" v="FON_in_der_Wuermseestraße"/>
    <tag k="ref" v="Würmseestr.42,81476 Muc,UT90,K1,magnacus"/>
    <tag k="seamark" v="beacon"/>
    <tag k="source" v="survey"/>
  </node>
  <node id="306058096" version="1" timestamp="2008-10-21T02:06:49Z" uid="36809" user="pfoten_weg_!_" changeset="478725" lat="48.09878" lon="11.50251">
    <tag k="amenity" v="wifi"/>
    <tag k="class" v="free"/>
    <tag k="created_by" v="RambaZamba"/>
    <tag k="man_made" v="beacon"/>
    <tag k="name" v="FON_AP"/>
    <tag k="ref" v="Würmseestr.26,81476 Muc,UT90,K1,kili9r"/>
    <tag k="source" v="survey"/>
  </node>
  <node id="306058096" version="2" timestamp="2009-05-12T22:04:08Z" uid="36809" user="pfoten_weg_!_" changeset="1170178" lat="48.09878" lon="11.50251">
    <tag k="amenity" v="wifi"/>
    <tag k="class" v="free"/>
    <tag k="created_by" v="RambaZamba"/>
    <tag k="man_made" v="beacon"/>
    <tag k="name" v="FON_AP"/>
    <tag k="ref" v="Würmseestr.26,81476 Muc,UT0,K1,kili9r"/>
    <tag k="source" v="survey"/>
  </node>
  <node id="306058096" version="3" timestamp="2009-06-12T20:58:28Z" uid="36809" user="pfoten_weg_!_" changeset="1500339" lat="48.09878" lon="11.50251">
    <tag k="amenity" v="wifi"/>
    <tag k="class" v="free"/>
    <tag k="created_by" v="RambaZamba"/>
    <tag k="man_made" v="beacon"/>
    <tag k="name" v="FON_AP [OFF]"/>
    <tag k="ref" v="Würmseestr.26,81476 Muc,UT0,K1,kili9r"/>
    <tag k="source" v="survey"/>
  </node>
  <node id="306058096" version="4" timestamp="2009-07-23T21:41:41Z" uid="36809" user="pfoten_weg_!_" changeset="1920154" lat="48.09878" lon="11.50251">
    <tag k="amenity" v="wifi"/>
    <tag k="discovered_by" v="RambaZamba"/>
    <tag k="internet_access" v="wlan"/>
    <tag k="internet_access:operator" v="FON"/>
    <tag k="man_made" v="beacon"/>
    <tag k="name" v="FON_AP [OFF]"/>
    <tag k="ref" v="Würmseestr.26,81476 Muc,UT0,K1,kili9r"/>
    <tag k="source" v="survey"/>
  </node>
  <node id="306058096" version="7" timestamp="2009-08-26T10:00:43Z" uid="36809" user="pfoten_weg_!_" changeset="2265457" lat="48.09878" lon="11.50251">
    <tag k="amenity" v="wifi"/>
    <tag k="internet_access" v="wlan"/>
    <tag k="internet_access:operator" v="FON"/>
    <tag k="man_made" v="beacon"/>
    <tag k="name" v="FON_AP [OFF]"/>
    <tag k="ref" v="Würmseestr.26,81476 Muc,UT0,K1,kili9r"/>
    <tag k="seamark" v="beacon"/>
    <tag k="source" v="survey"/>
  </node>
  <node id="306058099" version="1" timestamp="2008-10-21T02:06:49Z" uid="36809" user="pfoten_weg_!_" changeset="478725" lat="48.09799" lon="11.50255">
    <tag k="amenity" v="wifi"/>
    <tag k="class" v="free"/>
    <tag k="created_by" v="RambaZamba"/>
    <tag k="man_made" v="beacon"/>
    <tag k="name" v="FON_1222"/>
    <tag k="ref" v="Würmseestr.30,81476 Muc,UT90,K1,cmbranco"/>
    <tag k="source" v="survey"/>
  </node>
  <node id="306058099" version="2" timestamp="2009-05-12T22:04:08Z" uid="36809" user="pfoten_weg_!_" changeset="1170178" lat="48.09799" lon="11.50255">
    <tag k="amenity" v="wifi"/>
    <tag k="class" v="free"/>
    <tag k="created_by" v="RambaZamba"/>
    <tag k="man_made" v="beacon"/>
    <tag k="name" v="FON_1222"/>
    <tag k="ref" v="Würmseestr.30,81476 Muc,UT0,K1,cmbranco"/>
    <tag k="source" v="survey"/>
  </node>
  <node id="306058099" version="3" timestamp="2009-07-23T21:41:41Z" uid="36809" user="pfoten_weg_!_" changeset="1920154" lat="48.09799" lon="11.50255">
    <tag k="amenity" v="wifi"/>
    <tag k="discovered_by" v="RambaZamba"/>
    <tag k="internet_access" v="wlan"/>
    <tag k="internet_access:operator" v="FON"/>
    <tag k="man_made" v="beacon"/>
    <tag k="name" v="FON_1222"/>
    <tag k="ref" v="Würmseestr.30,81476 Muc,UT0,K1,cmbranco"/>
    <tag k="source" v="survey"/>
  </node>
  <node id="306058099" version="6" timestamp="2009-08-26T10:00:44Z" uid="36809" user="pfoten_weg_!_" changeset="2265457" lat="48.09799" lon="11.50255">
    <tag k="amenity" v="wifi"/>
    <tag k="internet_access" v="wlan"/>
    <tag k="internet_access:operator" v="FON"/>
    <tag k="man_made" v="beacon"/>
    <tag k="name" v="FON_1222"/>
    <tag k="ref" v="Würmseestr.30,81476 Muc,UT0,K1,cmbranco"/>
    <tag k="seamark" v="beacon"/>
    <tag k="source" v="survey"/>
  </node>
  <node id="306058100" version="1" timestamp="2008-10-21T02:06:49Z" uid="36809" user="pfoten_weg_!_" changeset="478725" lat="48.08669" lon="11.50325">
    <tag k="amenity" v="wifi"/>
    <tag k="class" v="free"/>
    <tag k="created_by" v="RambaZamba"/>
    <tag k="man_made" v="beacon"/>
    <tag k="name" v="FON_OPEN"/>
    <tag k="ref" v="August-Macke-Weg 8,81477 Muc,UT75,K1,dirk747"/>
    <tag k="source" v="survey"/>
  </node>
  <node id="306058100" version="2" timestamp="2008-11-21T16:57:40Z" uid="36809" user="pfoten_weg_!_" changeset="776421" lat="48.08669" lon="11.50325">
    <tag k="amenity" v="wifi"/>
    <tag k="class" v="free"/>
    <tag k="created_by" v="RambaZamba"/>
    <tag k="man_made" v="beacon"/>
    <tag k="name" v="FON_OPEN"/>
    <tag k="ref" v="August-Macke-Weg 8,81477 Muc,UT75,K1,dirk747"/>
    <tag k="source" v="survey"/>
  </node>
  <node id="306058102" version="1" timestamp="2008-10-21T02:06:49Z" uid="36809" user="pfoten_weg_!_" changeset="478725" lat="48.1119" lon="11.50352">
    <tag k="amenity" v="wifi"/>
    <tag k="class" v="free"/>
    <tag k="created_by" v="RambaZamba"/>
    <tag k="man_made" v="beacon"/>
    <tag k="name" v="FON_AP"/>
    <tag k="ref" v="Waldfriedhofstr.115,81377 Muc,UT30,K2,DarkAngel089"/>
    <tag k="source" v="survey"/>
  </node>
  <node id="306058102" version="5" timestamp="2009-08-26T10:00:43Z" uid="36809" user="pfoten_weg_!_" changeset="2265457" lat="48.1119" lon="11.50352">
    <tag k="addr:city" v="München"/>
    <tag k="addr:country" v="DE"/>
    <tag k="addr:housenumber" v="115"/>
    <tag k="addr:postcode" v="81377"/>
    <tag k="addr:street" v="Waldfriedhofstraße"/>
    <tag k="amenity" v="wifi"/>
    <tag k="class" v="free"/>
    <tag k="man_made" v="beacon"/>
    <tag k="name" v="FON_AP"/>
    <tag k="ref" v="Waldfriedhofstr.115,81377 Muc,UT30,K2,DarkAngel089"/>
    <tag k="seamark" v="beacon"/>
    <tag k="source" v="survey"/>
  </node>
  <node id="306058104" version="1" timestamp="2008-10-21T02:06:49Z" uid="36809" user="pfoten_weg_!_" changeset="478725" lat="48.09682" lon="11.50329">
    <tag k="amenity" v="wifi"/>
    <tag k="class" v="free"/>
    <tag k="created_by" v="RambaZamba"/>
    <tag k="man_made" v="beacon"/>
    <tag k="name" v="FON_AP"/>
    <tag k="ref" v="Würmseestr.62,81476 Muc,UT60,K1,TMaaan"/>
    <tag k="source" v="survey"/>
  </node>
  <node id="306058104" version="2" timestamp="2009-07-23T21:41:41Z" uid="36809" user="pfoten_weg_!_" changeset="1920154" lat="48.09682" lon="11.50329">
    <tag k="amenity" v="wifi"/>
    <tag k="discovered_by" v="RambaZamba"/>
    <tag k="internet_access" v="wlan"/>
    <tag k="internet_access:operator" v="FON"/>
    <tag k="man_made" v="beacon"/>
    <tag k="name" v="FON_AP"/>
    <tag k="ref" v="Würmseestr.62,81476 Muc,UT60,K1,TMaaan"/>
    <tag k="source" v="survey"/>
  </node>
  <node id="306058104" version="5" timestamp="2009-08-31T20:58:26Z" uid="36809" user="pfoten_weg_!_" changeset="2331411" lat="48.09682" lon="11.50329">
    <tag k="amenity" v="wifi"/>
    <tag k="internet_access" v="wlan"/>
    <tag k="internet_access:operator" v="FON"/>
    <tag k="man_made" v="beacon"/>
    <tag k="name" v="FON_AP"/>
    <tag k="ref" v="Würmseestr.62,81476 Muc,UT60,K1,TMaaan"/>
    <tag k="seamark" v="beacon"/>
    <tag k="source" v="survey"/>
  </node>
  <node id="306058104" version="6" timestamp="2009-09-01T11:24:23Z" uid="36809" user="pfoten_weg_!_" changeset="2336438" lat="48.09682" lon="11.50329">
    <tag k="amenity" v="wifi"/>
    <tag k="internet_access" v="wlan"/>
    <tag k="internet_access:operator" v="FON"/>
    <tag k="man_made" v="beacon"/>
    <tag k="name" v="FON_AP"/>
    <tag k="ref" v="Würmseestr.62,81476 Muc,UT60,K1,TMaaan"/>
    <tag k="seamark" v="beacon"/>
    <tag k="source" v="survey"/>
  </node>
  <node id="306058106" version="1" timestamp="2008-10-21T02:06:49Z" uid="36809" user="pfoten_weg_!_" changeset="478725" lat="48.08285" lon="11.50603">
    <tag k="amenity" v="wifi"/>
    <tag k="class" v="free"/>
    <tag k="created_by" v="RambaZamba"/>
    <tag k="man_made" v="beacon"/>
    <tag k="name" v="FON_SF"/>
    <tag k="ref" v="Stockmannstr.39,81477 Muc,UT100,K1,uwnn50690"/>
    <tag k="source" v="survey"/>
  </node>
  <node id="306058106" version="2" timestamp="2008-10-23T23:01:54Z" uid="36809" user="pfoten_weg_!_" changeset="544814" lat="48.08285" lon="11.50603">
    <tag k="amenity" v="wifi"/>
    <tag k="class" v="free"/>
    <tag k="created_by" v="RambaZamba"/>
    <tag k="man_made" v="beacon"/>
    <tag k="name" v="FON_SF"/>
    <tag k="ref" v="Stockmannstr.39,81477 Muc,UT60,K1,uwnn50690"/>
    <tag k="source" v="survey"/>
  </node>
  <node id="306058106" version="3" timestamp="2008-12-09T20:35:43Z" uid="36809" user="pfoten_weg_!_" changeset="283335" lat="48.08285" lon="11.50603">
    <tag k="amenity" v="wifi"/>
    <tag k="class" v="free"/>
    <tag k="created_by" v="RambaZamba"/>
    <tag k="man_made" v="beacon"/>
    <tag k="name" v="FON_SF"/>
    <tag k="ref" v="Stockmannstr.39,81477 Muc,UT10,K1,uwnn50690"/>
    <tag k="source" v="survey"/>
  </node>
  <node id="306058106" version="4" timestamp="2009-03-30T18:53:32Z" uid="36809" user="pfoten_weg_!_" changeset="871597" lat="48.0828114" lon="11.505976">
    <tag k="amenity" v="wifi"/>
    <tag k="class" v="free"/>
    <tag k="created_by" v="RambaZamba"/>
    <tag k="man_made" v="beacon"/>
    <tag k="name" v="FON_SF"/>
    <tag k="ref" v="Stockmannstr.39,81477 Muc,UT10,K1,uwnn50690"/>
    <tag k="source" v="survey"/>
  </node>
  <node id="306058106" version="5" timestamp="2009-05-23T00:39:00Z" uid="36809" user="pfoten_weg_!_" changeset="1291261" lat="48.0828114" lon="11.505976">
    <tag k="amenity" v="wifi"/>
    <tag k="class" v="free"/>
    <tag k="created_by" v="RambaZamba"/>
    <tag k="man_made" v="beacon"/>
    <tag k="name" v="FON_SF"/>
    <tag k="ref" v="Stockmannstr.39,81477 Muc,UT0,K1,uwnn50690"/>
    <tag k="source" v="survey"/>
  </node>
  <node id="306058106" version="6" timestamp="2009-05-30T23:45:12Z" uid="36809" user="pfoten_weg_!_" changeset="1364443" lat="48.0828114" lon="11.505976">
    <tag k="amenity" v="wifi"/>
    <tag k="class" v="free"/>
    <tag k="created_by" v="RambaZamba"/>
    <tag k="man_made" v="beacon"/>
    <tag k="name" v="FON_SF [OFF]"/>
    <tag k="ref" v="Stockmannstr.39,81477 Muc,UT0,K1,uwnn50690"/>
    <tag k="source" v="survey"/>
  </node>
  <node id="306058106" version="7" timestamp="2009-06-09T09:02:41Z" uid="36809" user="pfoten_weg_!_" changeset="1466414" lat="48.0828114" lon="11.505976">
    <tag k="amenity" v="wifi"/>
    <tag k="class" v="free"/>
    <tag k="created_by" v="RambaZamba"/>
    <tag k="man_made" v="beacon"/>
    <tag k="name" v="FON_SF [OFF]"/>
    <tag k="ref" v="Stockmannstr.39,81477 Muc,UT0,K1,uwnn50690"/>
    <tag k="source" v="survey"/>
  </node>
  <node id="306058108" version="1" timestamp="2008-10-21T02:06:50Z" uid="36809" user="pfoten_weg_!_" changeset="478725" lat="48.09748" lon="11.50567">
    <tag k="amenity" v="wifi"/>
    <tag k="class" v="free"/>
    <tag k="created_by" v="RambaZamba"/>
    <tag k="man_made" v="beacon"/>
    <tag k="name" v="FON_One"/>
    <tag k="ref" v="Arader Str.3,81476 Muc,UT20,K1,Onehiller"/>
    <tag k="source" v="survey"/>
  </node>
  <node id="306058108" version="2" timestamp="2008-10-21T22:48:34Z" uid="36809" user="pfoten_weg_!_" changeset="498271" lat="48.09748" lon="11.50567">
    <tag k="amenity" v="wifi"/>
    <tag k="class" v="free"/>
    <tag k="created_by" v="RambaZamba"/>
    <tag k="man_made" v="beacon"/>
    <tag k="name" v="FON_One"/>
    <tag k="ref" v="Arader Str.3,81476 Muc,UT10,K1,Onehiller"/>
    <tag k="source" v="survey"/>
  </node>
  <node id="306058108" version="3" timestamp="2009-05-12T22:04:08Z" uid="36809" user="pfoten_weg_!_" changeset="1170178" lat="48.09748" lon="11.50567">
    <tag k="amenity" v="wifi"/>
    <tag k="class" v="free"/>
    <tag k="created_by" v="RambaZamba"/>
    <tag k="man_made" v="beacon"/>
    <tag k="name" v="FON_One"/>
    <tag k="ref" v="Arader Str.3,81476 Muc,UT0,K1,Onehiller"/>
    <tag k="source" v="survey"/>
  </node>
  <node id="306058108" version="4" timestamp="2009-07-23T21:41:41Z" uid="36809" user="pfoten_weg_!_" changeset="1920154" lat="48.09748" lon="11.50567">
    <tag k="amenity" v="wifi"/>
    <tag k="discovered_by" v="RambaZamba"/>
    <tag k="internet_access" v="wlan"/>
    <tag k="internet_access:operator" v="FON"/>
    <tag k="man_made" v="beacon"/>
    <tag k="name" v="FON_One"/>
    <tag k="ref" v="Arader Str.3,81476 Muc,UT0,K1,Onehiller"/>
    <tag k="source" v="survey"/>
  </node>
  <node id="306058108" version="7" timestamp="2009-08-26T10:00:44Z" uid="36809" user="pfoten_weg_!_" changeset="2265457" lat="48.09748" lon="11.50567">
    <tag k="amenity" v="wifi"/>
    <tag k="internet_access" v="wlan"/>
    <tag k="internet_access:operator" v="FON"/>
    <tag k="man_made" v="beacon"/>
    <tag k="name" v="FON_One"/>
    <tag k="ref" v="Arader Str.3,81476 Muc,UT0,K1,Onehiller"/>
    <tag k="seamark" v="beacon"/>
    <tag k="source" v="survey"/>
  </node>
  <node id="306058109" version="1" timestamp="2008-10-21T02:06:50Z" uid="36809" user="pfoten_weg_!_" changeset="478725" lat="48.11029" lon="11.50774">
    <tag k="amenity" v="wifi"/>
    <tag k="class" v="free"/>
    <tag k="created_by" v="RambaZamba"/>
    <tag k="man_made" v="beacon"/>
    <tag k="name" v="FON_Werdenfelsstr"/>
    <tag k="ref" v="Werdenfelsstr.54,81377 Muc,UT30,K1,danher"/>
    <tag k="source" v="survey"/>
  </node>
  <node id="306058109" version="5" timestamp="2009-08-26T10:00:44Z" uid="36809" user="pfoten_weg_!_" changeset="2265457" lat="48.11029" lon="11.50774">
    <tag k="amenity" v="wifi"/>
    <tag k="class" v="free"/>
    <tag k="man_made" v="beacon"/>
    <tag k="name" v="FON_Werdenfelsstraße"/>
    <tag k="ref" v="Werdenfelsstr.54,81377 Muc,UT30,K1,danher"/>
    <tag k="seamark" v="beacon"/>
    <tag k="source" v="survey"/>
  </node>
  <node id="306058111" version="1" timestamp="2008-10-21T02:06:50Z" uid="36809" user="pfoten_weg_!_" changeset="478725" lat="48.10632" lon="11.50735">
    <tag k="amenity" v="wifi"/>
    <tag k="class" v="free"/>
    <tag k="created_by" v="RambaZamba"/>
    <tag k="man_made" v="beacon"/>
    <tag k="name" v="FON_Cimbern"/>
    <tag k="ref" v="Cimbernstr.73,81377 Muc,UT30,K1,bhelfmann"/>
    <tag k="source" v="survey"/>
  </node>
  <node id="306058111" version="4" timestamp="2009-08-26T10:00:45Z" uid="36809" user="pfoten_weg_!_" changeset="2265457" lat="48.10632" lon="11.50735">
    <tag k="amenity" v="wifi"/>
    <tag k="class" v="free"/>
    <tag k="man_made" v="beacon"/>
    <tag k="name" v="FON_Cimbern"/>
    <tag k="ref" v="Cimbernstr.73,81377 Muc,UT30,K1,bhelfmann"/>
    <tag k="seamark" v="beacon"/>
    <tag k="source" v="survey"/>
  </node>
  <node id="306058113" version="1" timestamp="2008-10-21T02:06:50Z" uid="36809" user="pfoten_weg_!_" changeset="478725" lat="48.10677" lon="11.50922">
    <tag k="amenity" v="wifi"/>
    <tag k="class" v="free"/>
    <tag k="created_by" v="RambaZamba"/>
    <tag k="man_made" v="beacon"/>
    <tag k="name" v="FON_AP"/>
    <tag k="ref" v="Einhornallee 35,81377 Muc,UT30,K1,netkiller"/>
    <tag k="source" v="survey"/>
  </node>
  <node id="306058113" version="4" timestamp="2009-08-26T10:00:48Z" uid="36809" user="pfoten_weg_!_" changeset="2265457" lat="48.10677" lon="11.50922">
    <tag k="amenity" v="wifi"/>
    <tag k="class" v="free"/>
    <tag k="man_made" v="beacon"/>
    <tag k="name" v="FON_AP"/>
    <tag k="ref" v="Einhornallee 35,81377 Muc,UT30,K1,netkiller"/>
    <tag k="seamark" v="beacon"/>
    <tag k="source" v="survey"/>
  </node>
  <node id="306058116" version="1" timestamp="2008-10-21T02:06:50Z" uid="36809" user="pfoten_weg_!_" changeset="478725" lat="48.09833" lon="11.50884">
    <tag k="amenity" v="wifi"/>
    <tag k="class" v="free"/>
    <tag k="created_by" v="RambaZamba"/>
    <tag k="man_made" v="beacon"/>
    <tag k="name" v="FON_AP"/>
    <tag k="ref" v="Höglwörther Str.391,81379 Muc,UT70,K1,stargazer2893"/>
    <tag k="source" v="survey"/>
  </node>
  <node id="306058116" version="2" timestamp="2009-05-12T20:49:05Z" uid="36809" user="pfoten_weg_!_" changeset="1169700" lat="48.0982967" lon="11.5090695">
    <tag k="amenity" v="wifi"/>
    <tag k="class" v="free"/>
    <tag k="created_by" v="RambaZamba"/>
    <tag k="man_made" v="beacon"/>
    <tag k="name" v="FON_AP"/>
    <tag k="ref" v="Höglwörther Str.391,81379 Muc,UT40,K1,stargazer2893"/>
    <tag k="source" v="survey"/>
  </node>
  <node id="306058116" version="3" timestamp="2009-06-12T20:45:34Z" uid="36809" user="pfoten_weg_!_" changeset="1500246" lat="48.0982967" lon="11.5090695">
    <tag k="amenity" v="wifi"/>
    <tag k="class" v="free"/>
    <tag k="created_by" v="RambaZamba"/>
    <tag k="man_made" v="beacon"/>
    <tag k="name" v="FON_AP [OFF]"/>
    <tag k="ref" v="Höglwörther Str.391,81379 Muc,UT0,K1,stargazer2893"/>
    <tag k="source" v="survey"/>
  </node>
  <node id="306058116" version="4" timestamp="2009-07-23T21:41:40Z" uid="36809" user="pfoten_weg_!_" changeset="1920154" lat="48.0982967" lon="11.5090695">
    <tag k="amenity" v="wifi"/>
    <tag k="discovered_by" v="RambaZamba"/>
    <tag k="internet_access" v="wlan"/>
    <tag k="internet_access:operator" v="FON"/>
    <tag k="man_made" v="beacon"/>
    <tag k="name" v="FON_AP [OFF]"/>
    <tag k="ref" v="Höglwörther Str.391,81379 Muc,UT0,K1,stargazer2893"/>
    <tag k="source" v="survey"/>
  </node>
  <node id="306058116" version="7" timestamp="2009-08-26T10:00:49Z" uid="36809" user="pfoten_weg_!_" changeset="2265457" lat="48.0982967" lon="11.5090695">
    <tag k="amenity" v="wifi"/>
    <tag k="internet_access" v="wlan"/>
    <tag k="internet_access:operator" v="FON"/>
    <tag k="man_made" v="beacon"/>
    <tag k="name" v="FON_AP [OFF]"/>
    <tag k="ref" v="Höglwörther Str.391,81379 Muc,UT0,K1,stargazer2893"/>
    <tag k="seamark" v="beacon"/>
    <tag k="source" v="survey"/>
  </node>
  <node id="306058117" version="1" timestamp="2008-10-21T02:06:51Z" uid="36809" user="pfoten_weg_!_" changeset="478725" lat="48.0804" lon="11.50995">
    <tag k="amenity" v="wifi"/>
    <tag k="class" v="free"/>
    <tag k="created_by" v="RambaZamba"/>
    <tag k="man_made" v="beacon"/>
    <tag k="name" v="FON_Schuchstr_8a"/>
    <tag k="ref" v="Schuchstr.8a,81477 Muc,UT100,K1,bigboy"/>
    <tag k="source" v="survey"/>
  </node>
  <node id="306058117" version="2" timestamp="2009-07-23T21:00:59Z" uid="36809" user="pfoten_weg_!_" changeset="1919954" lat="48.0804" lon="11.50995">
    <tag k="amenity" v="wifi"/>
    <tag k="discovered_by" v="RambaZamba"/>
    <tag k="man_made" v="beacon"/>
    <tag k="name" v="FON_Schuchstr_8a"/>
    <tag k="ref" v="Schuchstr.8a,81477 Muc,UT100,K1,bigboy"/>
    <tag k="source" v="survey"/>
  </node>
  <node id="306058117" version="3" timestamp="2009-07-23T21:03:39Z" uid="36809" user="pfoten_weg_!_" changeset="1919967" lat="48.0804" lon="11.50995">
    <tag k="amenity" v="wifi"/>
    <tag k="discovered_by" v="RambaZamba"/>
    <tag k="internet_access" v="wlan"/>
    <tag k="internet_access:operator" v="FON"/>
    <tag k="name" v="FON_Schuchstr_8a"/>
    <tag k="ref" v="Schuchstr.8a,81477 Muc,UT100,K1,bigboy"/>
    <tag k="source" v="survey"/>
  </node>
  <node id="306058117" version="5" timestamp="2009-08-19T01:58:25Z" uid="36809" user="pfoten_weg_!_" changeset="2196399" lat="48.0804" lon="11.50995">
    <tag k="amenity" v="wifi"/>
    <tag k="internet_access" v="wlan"/>
    <tag k="internet_access:operator" v="FON"/>
    <tag k="name" v="FON_Schuchstr_8a"/>
    <tag k="ref" v="Schuchstr.8a,81477 Muc,UT100,K1,bigboy"/>
    <tag k="source" v="survey"/>
    <tag k="warnung" v="rumpelzumpel-verbrecher"/>
  </node>
  <node id="306058117" version="6" timestamp="2009-08-19T02:22:30Z" uid="36809" user="pfoten_weg_!_" changeset="2196453" lat="48.0804" lon="11.50995">
    <tag k="amenity" v="wifi"/>
    <tag k="internet_access" v="wlan"/>
    <tag k="internet_access:operator" v="FON"/>
    <tag k="name" v="FON_Schuchstr_8a"/>
    <tag k="ref" v="Schuchstr.8a,81477 Muc,UT100,K1,bigboy"/>
    <tag k="source" v="survey"/>
  </node>
  <node id="306058117" version="7" timestamp="2009-08-25T19:27:42Z" uid="36809" user="pfoten_weg_!_" changeset="2260709" lat="48.0804" lon="11.50995">
    <tag k="amenity" v="wifi"/>
    <tag k="internet_access" v="wlan"/>
    <tag k="internet_access:operator" v="FON"/>
    <tag k="name" v="FON_Schuchstr_8a"/>
    <tag k="ref" v="Schuchstr.8a,81477 Muc,UT100,K1,bigboy"/>
    <tag k="source" v="survey"/>
  </node>
  <node id="306058119" version="1" timestamp="2008-10-21T02:06:51Z" uid="36809" user="pfoten_weg_!_" changeset="478725" lat="48.11715" lon="11.50963">
    <tag k="amenity" v="wifi"/>
    <tag k="class" v="free"/>
    <tag k="created_by" v="RambaZamba"/>
    <tag k="man_made" v="beacon"/>
    <tag k="name" v="FON_AP_MW63"/>
    <tag k="ref" v="Mittenwalder Str.63,81377 Muc,UT30,K1,CHofmann"/>
    <tag k="source" v="survey"/>
  </node>
  <node id="306058119" version="4" timestamp="2009-08-26T10:00:48Z" uid="36809" user="pfoten_weg_!_" changeset="2265457" lat="48.11715" lon="11.50963">
    <tag k="amenity" v="wifi"/>
    <tag k="class" v="free"/>
    <tag k="man_made" v="beacon"/>
    <tag k="name" v="FON_AP_MW63"/>
    <tag k="ref" v="Mittenwalder Str.63,81377 Muc,UT30,K1,CHofmann"/>
    <tag k="seamark" v="beacon"/>
    <tag k="source" v="survey"/>
  </node>
  <node id="306058122" version="1" timestamp="2008-10-21T02:06:51Z" uid="36809" user="pfoten_weg_!_" changeset="478725" lat="48.07792" lon="11.51251">
    <tag k="amenity" v="wifi"/>
    <tag k="class" v="free"/>
    <tag k="created_by" v="RambaZamba"/>
    <tag k="man_made" v="beacon"/>
    <tag k="name" v="FON_AP"/>
    <tag k="ref" v="Plattlinger Str.20,81479 Muc,UT100,K1,webmeister"/>
    <tag k="source" v="survey"/>
  </node>
  <node id="306058122" version="2" timestamp="2008-11-13T01:16:48Z" uid="36809" user="pfoten_weg_!_" changeset="741999" lat="48.07792" lon="11.51251">
    <tag k="amenity" v="wifi"/>
    <tag k="class" v="free"/>
    <tag k="created_by" v="RambaZamba"/>
    <tag k="man_made" v="beacon"/>
    <tag k="name" v="FON_FREE_INTERNET"/>
    <tag k="ref" v="Plattlinger Str.20,81479 Muc,UT100,K1,webmeister"/>
    <tag k="source" v="survey"/>
  </node>
  <node id="306058122" version="3" timestamp="2009-05-23T00:39:00Z" uid="36809" user="pfoten_weg_!_" changeset="1291261" lat="48.07792" lon="11.51251">
    <tag k="amenity" v="wifi"/>
    <tag k="class" v="free"/>
    <tag k="created_by" v="RambaZamba"/>
    <tag k="man_made" v="beacon"/>
    <tag k="name" v="FON_FREE_INTERNET"/>
    <tag k="ref" v="Plattlinger Str.20,81479 Muc,UT0,K1,webmeister"/>
    <tag k="source" v="survey"/>
  </node>
  <node id="306058122" version="4" timestamp="2009-05-30T23:46:47Z" uid="36809" user="pfoten_weg_!_" changeset="1364449" lat="48.07792" lon="11.51251">
    <tag k="amenity" v="wifi"/>
    <tag k="class" v="free"/>
    <tag k="created_by" v="RambaZamba"/>
    <tag k="man_made" v="beacon"/>
    <tag k="name" v="FON_FREE_INTERNET [OFF]"/>
    <tag k="ref" v="Plattlinger Str.20,81479 Muc,UT0,K1,webmeister"/>
    <tag k="source" v="survey"/>
  </node>
  <node id="306058122" version="5" timestamp="2009-06-09T09:02:41Z" uid="36809" user="pfoten_weg_!_" changeset="1466414" lat="48.07792" lon="11.51251">
    <tag k="amenity" v="wifi"/>
    <tag k="class" v="free"/>
    <tag k="created_by" v="RambaZamba"/>
    <tag k="man_made" v="beacon"/>
    <tag k="name" v="FON_FREE_INTERNET [OFF]"/>
    <tag k="ref" v="Plattlinger Str.20,81479 Muc,UT0,K1,webmeister"/>
    <tag k="source" v="survey"/>
  </node>
  <node id="306058124" version="1" timestamp="2008-10-21T02:06:51Z" uid="36809" user="pfoten_weg_!_" changeset="478725" lat="48.10757" lon="11.51072">
    <tag k="amenity" v="wifi"/>
    <tag k="class" v="free"/>
    <tag k="created_by" v="RambaZamba"/>
    <tag k="man_made" v="beacon"/>
    <tag k="name" v="FON_Einhornallee"/>
    <tag k="ref" v="Einhornallee 29,81377 Muc,UT30,K1,awesomefon"/>
    <tag k="source" v="survey"/>
  </node>
  <node id="306058124" version="4" timestamp="2009-08-26T10:00:47Z" uid="36809" user="pfoten_weg_!_" changeset="2265457" lat="48.10757" lon="11.51072">
    <tag k="amenity" v="wifi"/>
    <tag k="class" v="free"/>
    <tag k="man_made" v="beacon"/>
    <tag k="name" v="FON_Einhornallee"/>
    <tag k="ref" v="Einhornallee 29,81377 Muc,UT30,K1,awesomefon"/>
    <tag k="seamark" v="beacon"/>
    <tag k="source" v="survey"/>
  </node>
  <node id="306058125" version="1" timestamp="2008-10-21T02:06:51Z" uid="36809" user="pfoten_weg_!_" changeset="478725" lat="48.09531" lon="11.51374">
    <tag k="amenity" v="wifi"/>
    <tag k="class" v="free"/>
    <tag k="created_by" v="RambaZamba"/>
    <tag k="man_made" v="beacon"/>
    <tag k="name" v="MyPlace"/>
    <tag k="ref" v="Machtlfinger Str.26,81379 Muc,UT30,K2 nur WPA,kaimuc"/>
    <tag k="source" v="survey"/>
  </node>
  <node id="306058125" version="2" timestamp="2009-07-23T21:41:40Z" uid="36809" user="pfoten_weg_!_" changeset="1920154" lat="48.09531" lon="11.51374">
    <tag k="amenity" v="wifi"/>
    <tag k="discovered_by" v="RambaZamba"/>
    <tag k="internet_access" v="wlan"/>
    <tag k="internet_access:operator" v="FON"/>
    <tag k="man_made" v="beacon"/>
    <tag k="name" v="MyPlace"/>
    <tag k="ref" v="Machtlfinger Str.26,81379 Muc,UT30,K2 nur WPA,kaimuc"/>
    <tag k="source" v="survey"/>
  </node>
  <node id="306058125" version="5" timestamp="2009-08-31T20:58:24Z" uid="36809" user="pfoten_weg_!_" changeset="2331411" lat="48.09531" lon="11.51374">
    <tag k="amenity" v="wifi"/>
    <tag k="internet_access" v="wlan"/>
    <tag k="internet_access:operator" v="FON"/>
    <tag k="man_made" v="beacon"/>
    <tag k="name" v="MyPlace"/>
    <tag k="ref" v="Machtlfinger Str.26,81379 Muc,UT30,K2 nur WPA,kaimuc"/>
    <tag k="seamark" v="beacon"/>
    <tag k="source" v="survey"/>
  </node>
  <node id="306058125" version="6" timestamp="2009-10-13T23:06:16Z" uid="36809" user="pfoten_weg_!_" changeset="2841175" lat="48.09531" lon="11.51374">
    <tag k="amenity" v="wifi"/>
    <tag k="internet_access" v="wlan"/>
    <tag k="internet_access:operator" v="FON"/>
    <tag k="man_made" v="beacon"/>
    <tag k="name" v="MyPlace"/>
    <tag k="ref" v="Machtlfinger Str.26,81379 Muc,UT30,K2 nur WPA,kaimuc"/>
    <tag k="seamark" v="beacon"/>
  </node>
  <node id="306058127" version="1" timestamp="2008-10-21T02:06:52Z" uid="36809" user="pfoten_weg_!_" changeset="478725" lat="48.12879" lon="11.51333">
    <tag k="amenity" v="wifi"/>
    <tag k="class" v="free"/>
    <tag k="created_by" v="RambaZamba"/>
    <tag k="man_made" v="beacon"/>
    <tag k="name" v="FON_flints3"/>
    <tag k="ref" v="Flintsbacher Str.3,80686 Muc,UT30,K1,kaeptn"/>
    <tag k="source" v="survey"/>
  </node>
  <node id="306058130" version="1" timestamp="2008-10-21T02:06:52Z" uid="36809" user="pfoten_weg_!_" changeset="478725" lat="48.08481" lon="11.51466">
    <tag k="amenity" v="wifi"/>
    <tag k="class" v="free"/>
    <tag k="created_by" v="RambaZamba"/>
    <tag k="man_made" v="beacon"/>
    <tag k="name" v="FON_AP"/>
    <tag k="ref" v="Sulenstr.21,81477 Muc,UT40,K1,flomb"/>
    <tag k="source" v="survey"/>
  </node>
  <node id="306058130" version="2" timestamp="2008-11-25T00:21:58Z" uid="36809" user="pfoten_weg_!_" changeset="790872" lat="48.08481" lon="11.51466">
    <tag k="amenity" v="wifi"/>
    <tag k="class" v="free"/>
    <tag k="created_by" v="RambaZamba"/>
    <tag k="man_made" v="beacon"/>
    <tag k="name" v="FON_AP"/>
    <tag k="ref" v="Sulenstr.21,81477 Muc,UT30,K1,flomb"/>
    <tag k="source" v="survey"/>
  </node>
  <node id="306058130" version="3" timestamp="2008-11-25T00:22:19Z" uid="36809" user="pfoten_weg_!_" changeset="790872" lat="48.08481" lon="11.51466">
    <tag k="amenity" v="wifi"/>
    <tag k="class" v="free"/>
    <tag k="created_by" v="RambaZamba"/>
    <tag k="man_made" v="beacon"/>
    <tag k="name" v="FON_AP"/>
    <tag k="ref" v="Sulenstr.21,81477 Muc,UT20,K1,flomb"/>
    <tag k="source" v="survey"/>
  </node>
  <node id="306058130" version="4" timestamp="2008-11-25T00:22:33Z" uid="36809" user="pfoten_weg_!_" changeset="790872" lat="48.08481" lon="11.51466">
    <tag k="amenity" v="wifi"/>
    <tag k="class" v="free"/>
    <tag k="created_by" v="RambaZamba"/>
    <tag k="man_made" v="beacon"/>
    <tag k="name" v="FON_AP"/>
    <tag k="ref" v="Sulenstr.21,81477 Muc,UT20,K1,flomb"/>
    <tag k="source" v="survey"/>
  </node>
  <node id="306058131" version="1" timestamp="2008-10-21T02:06:52Z" uid="36809" user="pfoten_weg_!_" changeset="478725" lat="48.11012" lon="11.51413">
    <tag k="amenity" v="wifi"/>
    <tag k="class" v="free"/>
    <tag k="created_by" v="RambaZamba"/>
    <tag k="man_made" v="beacon"/>
    <tag k="name" v="FON_AP"/>
    <tag k="ref" v="Partenkirchner Str.22,81377 Muc,UT30,K1,clausi4"/>
    <tag k="source" v="survey"/>
  </node>
  <node id="306058131" version="4" timestamp="2009-08-26T10:00:49Z" uid="36809" user="pfoten_weg_!_" changeset="2265457" lat="48.11012" lon="11.51413">
    <tag k="amenity" v="wifi"/>
    <tag k="class" v="free"/>
    <tag k="man_made" v="beacon"/>
    <tag k="name" v="FON_AP"/>
    <tag k="ref" v="Partenkirchner Str.22,81377 Muc,UT30,K1,clausi4"/>
    <tag k="seamark" v="beacon"/>
    <tag k="source" v="survey"/>
  </node>
  <node id="306058133" version="1" timestamp="2008-10-21T02:06:52Z" uid="36809" user="pfoten_weg_!_" changeset="478725" lat="48.08406" lon="11.51563">
    <tag k="amenity" v="wifi"/>
    <tag k="class" v="free"/>
    <tag k="created_by" v="RambaZamba"/>
    <tag k="man_made" v="beacon"/>
    <tag k="name" v="FON_AP"/>
    <tag k="ref" v="Hofbrunnstr.59,81477 Muc,UT50,K1,Bongotrommler"/>
    <tag k="source" v="survey"/>
  </node>
  <node id="306058133" version="2" timestamp="2009-04-21T22:06:13Z" uid="36809" user="pfoten_weg_!_" changeset="889769" lat="48.08406" lon="11.51563">
    <tag k="amenity" v="wifi"/>
    <tag k="class" v="free"/>
    <tag k="created_by" v="RambaZamba"/>
    <tag k="man_made" v="beacon"/>
    <tag k="name" v="FON_FREE_INTERNET"/>
    <tag k="ref" v="Hofbrunnstr.59,81477 Muc,UT80,K1,Bongotrommler"/>
    <tag k="source" v="survey"/>
  </node>
  <node id="306058133" version="3" timestamp="2009-06-19T19:58:14Z" uid="36809" user="pfoten_weg_!_" changeset="1568694" lat="48.0840561" lon="11.5156123">
    <tag k="amenity" v="wifi"/>
    <tag k="class" v="free"/>
    <tag k="created_by" v="RambaZamba"/>
    <tag k="man_made" v="beacon"/>
    <tag k="name" v="FON_FREE_INTERNET"/>
    <tag k="ref" v="Hofbrunnstr.59,81477 Muc,UT80,K1,Bongotrommler"/>
    <tag k="source" v="survey"/>
  </node>
  <node id="306058133" version="4" timestamp="2009-06-19T20:13:31Z" uid="36809" user="pfoten_weg_!_" changeset="1568808" lat="48.0840848" lon="11.5155847">
    <tag k="amenity" v="wifi"/>
    <tag k="class" v="free"/>
    <tag k="created_by" v="RambaZamba"/>
    <tag k="man_made" v="beacon"/>
    <tag k="name" v="FON_FREE_INTERNET"/>
    <tag k="ref" v="Hofbrunnstr.59,81477 Muc,UT80,K1,Bongotrommler"/>
    <tag k="source" v="survey"/>
  </node>
  <node id="306058133" version="5" timestamp="2009-06-19T20:14:39Z" uid="36809" user="pfoten_weg_!_" changeset="1568822" lat="48.0840848" lon="11.5155847">
    <tag k="amenity" v="wifi"/>
    <tag k="class" v="free"/>
    <tag k="created_by" v="RambaZamba"/>
    <tag k="man_made" v="beacon"/>
    <tag k="name" v="FON_FREE_INTERNET"/>
    <tag k="ref" v="Hofbrunnstr.59,81477 Muc,UT80,K1,Bongotrommler"/>
    <tag k="source" v="survey"/>
  </node>
  <node id="306058135" version="1" timestamp="2008-10-21T02:06:52Z" uid="36809" user="pfoten_weg_!_" changeset="478725" lat="48.09368" lon="11.51632">
    <tag k="amenity" v="wifi"/>
    <tag k="class" v="free"/>
    <tag k="created_by" v="RambaZamba"/>
    <tag k="man_made" v="beacon"/>
    <tag k="name" v="FON_AP"/>
    <tag k="ref" v="Münsinger Str.20,81477 Muc,UT60,K1,runtime007"/>
    <tag k="source" v="survey"/>
  </node>
  <node id="306058135" version="2" timestamp="2008-12-09T20:57:05Z" uid="36809" user="pfoten_weg_!_" changeset="283335" lat="48.09368" lon="11.51632">
    <tag k="amenity" v="wifi"/>
    <tag k="class" v="free"/>
    <tag k="created_by" v="RambaZamba"/>
    <tag k="man_made" v="beacon"/>
    <tag k="name" v="FON_AP"/>
    <tag k="ref" v="Münsinger Str.20,81477 Muc,UT70,K1,runtime007"/>
    <tag k="source" v="survey"/>
  </node>
  <node id="306058135" version="3" timestamp="2009-05-02T15:11:17Z" uid="36809" user="pfoten_weg_!_" changeset="1049731" lat="48.09368" lon="11.51632">
    <tag k="amenity" v="wifi"/>
    <tag k="class" v="free"/>
    <tag k="created_by" v="RambaZamba"/>
    <tag k="man_made" v="beacon"/>
    <tag k="name" v="FON_YOUR_PLACE"/>
    <tag k="ref" v="Münsinger Str.20,81477 Muc,UT90,K1,runtime007"/>
    <tag k="source" v="survey"/>
  </node>
  <node id="306058135" version="4" timestamp="2009-05-02T15:24:22Z" uid="36809" user="pfoten_weg_!_" changeset="1049869" lat="48.09368" lon="11.51632">
    <tag k="amenity" v="wifi"/>
    <tag k="class" v="free"/>
    <tag k="created_by" v="RambaZamba"/>
    <tag k="man_made" v="beacon"/>
    <tag k="name" v="FON_YOUR_PLACE"/>
    <tag k="ref" v="Münsinger Str.20,81477 Muc,UT90,K1,runtime007"/>
    <tag k="source" v="survey"/>
  </node>
  <node id="306058138" version="1" timestamp="2008-10-21T02:06:53Z" uid="36809" user="pfoten_weg_!_" changeset="478725" lat="48.08995" lon="11.51478">
    <tag k="amenity" v="wifi"/>
    <tag k="class" v="free"/>
    <tag k="created_by" v="RambaZamba"/>
    <tag k="man_made" v="beacon"/>
    <tag k="name" v="FON_@Munich"/>
    <tag k="ref" v="Lochhamer Str.93,81477 Muc,UT70,K1,ge74"/>
    <tag k="source" v="survey"/>
  </node>
  <node id="306058138" version="2" timestamp="2008-11-25T00:20:50Z" uid="36809" user="pfoten_weg_!_" changeset="790872" lat="48.08995" lon="11.51478">
    <tag k="amenity" v="wifi"/>
    <tag k="class" v="free"/>
    <tag k="created_by" v="RambaZamba"/>
    <tag k="man_made" v="beacon"/>
    <tag k="name" v="FON_@Munich"/>
    <tag k="ref" v="Lochhamer Str.93,81477 Muc,UT60,K1,ge74"/>
    <tag k="source" v="survey"/>
  </node>
  <node id="306058138" version="3" timestamp="2009-06-09T09:16:15Z" uid="36809" user="pfoten_weg_!_" changeset="1466502" lat="48.08995" lon="11.51478">
    <tag k="amenity" v="wifi"/>
    <tag k="class" v="free"/>
    <tag k="created_by" v="RambaZamba"/>
    <tag k="man_made" v="beacon"/>
    <tag k="name" v="FON_@Munich"/>
    <tag k="ref" v="Lochhamer Str.93,81477 Muc,UT60,K1,ge74"/>
    <tag k="source" v="survey"/>
  </node>
  <node id="306058139" version="1" timestamp="2008-10-21T02:06:53Z" uid="36809" user="pfoten_weg_!_" changeset="478725" lat="48.06464" lon="11.51523">
    <tag k="amenity" v="wifi"/>
    <tag k="class" v="free"/>
    <tag k="created_by" v="RambaZamba"/>
    <tag k="man_made" v="beacon"/>
    <tag k="name" v="FON_CC4U"/>
    <tag k="ref" v="Wolfratshauserstr.350,81749 Muc,UT80,K1,WebDucer1"/>
    <tag k="source" v="survey"/>
  </node>
  <node id="306058139" version="2" timestamp="2009-06-07T21:29:21Z" uid="36809" user="pfoten_weg_!_" changeset="1454023" lat="48.06464" lon="11.51523">
    <tag k="amenity" v="wifi"/>
    <tag k="class" v="free"/>
    <tag k="created_by" v="RambaZamba"/>
    <tag k="man_made" v="beacon"/>
    <tag k="name" v="FON_CC4U [OFF]"/>
    <tag k="ref" v="Wolfratshauserstr.350,81749 Muc,UT0,K1,WebDucer1"/>
    <tag k="source" v="survey"/>
  </node>
  <node id="306058139" version="3" timestamp="2009-07-14T21:38:58Z" uid="36809" user="pfoten_weg_!_" changeset="1831611" lat="48.06464" lon="11.51523">
    <tag k="amenity" v="wifi"/>
    <tag k="class" v="free"/>
    <tag k="discovered_by" v="RambaZamba"/>
    <tag k="man_made" v="beacon"/>
    <tag k="name" v="FON_CC4U [OFF]"/>
    <tag k="ref" v="Wolfratshauserstr.350,81749 Muc,UT0,K1,WebDucer1"/>
    <tag k="source" v="survey"/>
  </node>
  <node id="306058139" version="4" timestamp="2009-07-23T21:00:59Z" uid="36809" user="pfoten_weg_!_" changeset="1919954" lat="48.06464" lon="11.51523">
    <tag k="amenity" v="wifi"/>
    <tag k="discovered_by" v="RambaZamba"/>
    <tag k="man_made" v="beacon"/>
    <tag k="name" v="FON_CC4U [OFF]"/>
    <tag k="ref" v="Wolfratshauserstr.350,81749 Muc,UT0,K1,WebDucer1"/>
    <tag k="source" v="survey"/>
  </node>
  <node id="306058139" version="5" timestamp="2009-07-23T21:03:38Z" uid="36809" user="pfoten_weg_!_" changeset="1919967" lat="48.06464" lon="11.51523">
    <tag k="amenity" v="wifi"/>
    <tag k="discovered_by" v="RambaZamba"/>
    <tag k="internet_access" v="wlan"/>
    <tag k="internet_access:operator" v="FON"/>
    <tag k="name" v="FON_CC4U [OFF]"/>
    <tag k="ref" v="Wolfratshauserstr.350,81749 Muc,UT0,K1,WebDucer1"/>
    <tag k="source" v="survey"/>
  </node>
  <node id="306058139" version="7" timestamp="2009-08-25T19:27:44Z" uid="36809" user="pfoten_weg_!_" changeset="2260709" lat="48.06464" lon="11.51523">
    <tag k="amenity" v="wifi"/>
    <tag k="internet_access" v="wlan"/>
    <tag k="internet_access:operator" v="FON"/>
    <tag k="name" v="FON_CC4U [OFF]"/>
    <tag k="ref" v="Wolfratshauserstr.350,81749 Muc,UT0,K1,WebDucer1"/>
    <tag k="source" v="survey"/>
  </node>
  <node id="306058141" version="1" timestamp="2008-10-21T02:06:53Z" uid="36809" user="pfoten_weg_!_" changeset="478725" lat="48.04359" lon="11.5345">
    <tag k="amenity" v="wifi"/>
    <tag k="class" v="free"/>
    <tag k="created_by" v="RambaZamba"/>
    <tag k="man_made" v="beacon"/>
    <tag k="name" v="FON_AP"/>
    <tag k="ref" v="Heckenrosenstr.16,82031 Grünwald,UT40,K1,Ferdi89"/>
    <tag k="source" v="survey"/>
  </node>
  <node id="306058141" version="2" timestamp="2009-07-23T21:00:59Z" uid="36809" user="pfoten_weg_!_" changeset="1919954" lat="48.04359" lon="11.5345">
    <tag k="amenity" v="wifi"/>
    <tag k="discovered_by" v="RambaZamba"/>
    <tag k="man_made" v="beacon"/>
    <tag k="name" v="FON_AP"/>
    <tag k="ref" v="Heckenrosenstr.16,82031 Grünwald,UT40,K1,Ferdi89"/>
    <tag k="source" v="survey"/>
  </node>
  <node id="306058141" version="3" timestamp="2009-07-23T21:03:38Z" uid="36809" user="pfoten_weg_!_" changeset="1919967" lat="48.04359" lon="11.5345">
    <tag k="amenity" v="wifi"/>
    <tag k="discovered_by" v="RambaZamba"/>
    <tag k="internet_access" v="wlan"/>
    <tag k="internet_access:operator" v="FON"/>
    <tag k="name" v="FON_AP"/>
    <tag k="ref" v="Heckenrosenstr.16,82031 Grünwald,UT40,K1,Ferdi89"/>
    <tag k="source" v="survey"/>
  </node>
  <node id="306058141" version="5" timestamp="2009-08-25T19:27:43Z" uid="36809" user="pfoten_weg_!_" changeset="2260709" lat="48.04359" lon="11.5345">
    <tag k="amenity" v="wifi"/>
    <tag k="internet_access" v="wlan"/>
    <tag k="internet_access:operator" v="FON"/>
    <tag k="name" v="FON_AP"/>
    <tag k="ref" v="Heckenrosenstr.16,82031 Grünwald,UT40,K1,Ferdi89"/>
    <tag k="source" v="survey"/>
  </node>
  <node id="306058143" version="1" timestamp="2008-10-21T02:06:53Z" uid="36809" user="pfoten_weg_!_" changeset="478725" lat="48.06105" lon="11.5231">
    <tag k="amenity" v="wifi"/>
    <tag k="class" v="free"/>
    <tag k="created_by" v="RambaZamba"/>
    <tag k="man_made" v="beacon"/>
    <tag k="name" v="FON_Muenchner_Str_24"/>
    <tag k="ref" v="Münchener Str.24c,82049 Pullach,UT100,K1,midi"/>
    <tag k="source" v="survey"/>
  </node>
  <node id="306058143" version="2" timestamp="2009-04-22T14:44:17Z" uid="36809" user="pfoten_weg_!_" changeset="899929" lat="48.06105" lon="11.5231">
    <tag k="amenity" v="wifi"/>
    <tag k="class" v="free"/>
    <tag k="created_by" v="RambaZamba"/>
    <tag k="man_made" v="beacon"/>
    <tag k="name" v="FON_Muenchner_Str_24"/>
    <tag k="ref" v="Münchener Str.24c,82049 Pullach,UT100,K1,midi"/>
    <tag k="source" v="survey"/>
  </node>
  <node id="306058146" version="1" timestamp="2008-10-21T02:06:54Z" uid="36809" user="pfoten_weg_!_" changeset="478725" lat="48.03476" lon="11.52842">
    <tag k="amenity" v="wifi"/>
    <tag k="class" v="free"/>
    <tag k="created_by" v="RambaZamba"/>
    <tag k="man_made" v="beacon"/>
    <tag k="name" v="FON_Gruenwald"/>
    <tag k="ref" v="Leerbichlallee 1,82031 Grünwald,UT40,K11,magnum2"/>
    <tag k="source" v="survey"/>
  </node>
  <node id="306058146" version="3" timestamp="2009-08-25T19:27:43Z" uid="36809" user="pfoten_weg_!_" changeset="2260709" lat="48.03476" lon="11.52842">
    <tag k="amenity" v="wifi"/>
    <tag k="class" v="free"/>
    <tag k="man_made" v="beacon"/>
    <tag k="name" v="FON_Gruenwald"/>
    <tag k="ref" v="Leerbichlallee 1,82031 Grünwald,UT40,K11,magnum2"/>
    <tag k="seamark" v="beacon"/>
    <tag k="source" v="survey"/>
  </node>
  <node id="306058147" version="1" timestamp="2008-10-21T02:06:54Z" uid="36809" user="pfoten_weg_!_" changeset="478725" lat="48.03782" lon="11.52053">
    <tag k="amenity" v="wifi"/>
    <tag k="class" v="free"/>
    <tag k="created_by" v="RambaZamba"/>
    <tag k="man_made" v="beacon"/>
    <tag k="name" v="FON_AP"/>
    <tag k="ref" v="Auf der Eierwiese 5b,82031 Grünwald,UT40,K2,voodoochild77"/>
    <tag k="source" v="survey"/>
  </node>
  <node id="306058147" version="2" timestamp="2009-07-23T21:00:58Z" uid="36809" user="pfoten_weg_!_" changeset="1919954" lat="48.03782" lon="11.52053">
    <tag k="amenity" v="wifi"/>
    <tag k="discovered_by" v="RambaZamba"/>
    <tag k="man_made" v="beacon"/>
    <tag k="name" v="FON_AP"/>
    <tag k="ref" v="Auf der Eierwiese 5b,82031 Grünwald,UT40,K2,voodoochild77"/>
    <tag k="source" v="survey"/>
  </node>
  <node id="306058147" version="3" timestamp="2009-07-23T21:03:37Z" uid="36809" user="pfoten_weg_!_" changeset="1919967" lat="48.03782" lon="11.52053">
    <tag k="amenity" v="wifi"/>
    <tag k="discovered_by" v="RambaZamba"/>
    <tag k="internet_access" v="wlan"/>
    <tag k="internet_access:operator" v="FON"/>
    <tag k="name" v="FON_AP"/>
    <tag k="ref" v="Auf der Eierwiese 5b,82031 Grünwald,UT40,K2,voodoochild77"/>
    <tag k="source" v="survey"/>
  </node>
  <node id="306058147" version="5" timestamp="2009-08-25T19:27:43Z" uid="36809" user="pfoten_weg_!_" changeset="2260709" lat="48.03782" lon="11.52053">
    <tag k="amenity" v="wifi"/>
    <tag k="internet_access" v="wlan"/>
    <tag k="internet_access:operator" v="FON"/>
    <tag k="name" v="FON_AP"/>
    <tag k="ref" v="Auf der Eierwiese 5b,82031 Grünwald,UT40,K2,voodoochild77"/>
    <tag k="source" v="survey"/>
  </node>
  <node id="306058149" version="1" timestamp="2008-10-21T02:06:54Z" uid="36809" user="pfoten_weg_!_" changeset="478725" lat="48.07427" lon="11.54841">
    <tag k="amenity" v="wifi"/>
    <tag k="class" v="free"/>
    <tag k="created_by" v="RambaZamba"/>
    <tag k="man_made" v="beacon"/>
    <tag k="name" v="FON_connection_point"/>
    <tag k="ref" v="Reinekestr.8,81545 Muc,UT10,K1,Gronth"/>
    <tag k="source" v="survey"/>
  </node>
  <node id="306058149" version="2" timestamp="2009-04-29T16:54:58Z" uid="36809" user="pfoten_weg_!_" changeset="1017876" lat="48.07427" lon="11.54841">
    <tag k="amenity" v="wifi"/>
    <tag k="class" v="free"/>
    <tag k="created_by" v="RambaZamba"/>
    <tag k="man_made" v="beacon"/>
    <tag k="name" v="FON_connection_point"/>
    <tag k="ref" v="Reinekestr.8,81545 Muc,UT0,K1,Gronth"/>
    <tag k="source" v="survey"/>
  </node>
  <node id="306058149" version="4" timestamp="2009-08-25T19:27:44Z" uid="36809" user="pfoten_weg_!_" changeset="2260709" lat="48.07427" lon="11.54841">
    <tag k="amenity" v="wifi"/>
    <tag k="class" v="free"/>
    <tag k="man_made" v="beacon"/>
    <tag k="name" v="FON_connection_point"/>
    <tag k="ref" v="Reinekestr.8,81545 Muc,UT0,K1,Gronth"/>
    <tag k="seamark" v="beacon"/>
    <tag k="source" v="survey"/>
  </node>
  <node id="306058150" version="1" timestamp="2008-10-21T02:06:54Z" uid="36809" user="pfoten_weg_!_" changeset="478725" lat="48.07758" lon="11.52645">
    <tag k="amenity" v="wifi"/>
    <tag k="class" v="free"/>
    <tag k="created_by" v="RambaZamba"/>
    <tag k="man_made" v="beacon"/>
    <tag k="name" v="FON_AP"/>
    <tag k="ref" v="Sollner Str.65b,81479 Muc,UT40,K1,sandmanx"/>
    <tag k="source" v="survey"/>
  </node>
  <node id="306058150" version="2" timestamp="2009-04-01T21:37:23Z" uid="36809" user="pfoten_weg_!_" changeset="41839" lat="48.07758" lon="11.52645">
    <tag k="amenity" v="wifi"/>
    <tag k="class" v="free"/>
    <tag k="created_by" v="RambaZamba"/>
    <tag k="man_made" v="beacon"/>
    <tag k="name" v="FON_AP"/>
    <tag k="ref" v="Sollner Str.65b,81479 Muc,UT50,K1,sandmanx"/>
    <tag k="source" v="survey"/>
  </node>
  <node id="306058150" version="3" timestamp="2009-04-12T00:53:02Z" uid="36809" user="pfoten_weg_!_" changeset="450931" lat="48.07758" lon="11.52645">
    <tag k="amenity" v="wifi"/>
    <tag k="class" v="free"/>
    <tag k="created_by" v="RambaZamba"/>
    <tag k="man_made" v="beacon"/>
    <tag k="name" v="FON_AP"/>
    <tag k="ref" v="Sollner Str.65b,81479 Muc,UT20,K1,sandmanx"/>
    <tag k="source" v="survey"/>
  </node>
  <node id="306058150" version="4" timestamp="2009-05-30T23:52:32Z" uid="36809" user="pfoten_weg_!_" changeset="1364463" lat="48.07758" lon="11.52645">
    <tag k="amenity" v="wifi"/>
    <tag k="class" v="free"/>
    <tag k="created_by" v="RambaZamba"/>
    <tag k="man_made" v="beacon"/>
    <tag k="name" v="FON_AP [OFF]"/>
    <tag k="ref" v="Sollner Str.65b,81479 Muc,UT0,K1,sandmanx"/>
    <tag k="source" v="survey"/>
  </node>
  <node id="306058150" version="6" timestamp="2009-06-08T13:19:53Z" uid="36809" user="pfoten_weg_!_" changeset="1458721" lat="48.07758" lon="11.52645">
    <tag k="amenity" v="wifi"/>
    <tag k="class" v="free"/>
    <tag k="created_by" v="RambaZamba"/>
    <tag k="man_made" v="beacon"/>
    <tag k="name" v="FON_AP [OFF]"/>
    <tag k="ref" v="Sollner Str.65b,81479 Muc,UT0,K1,sandmanx"/>
    <tag k="source" v="survey"/>
  </node>
  <node id="306058150" version="7" timestamp="2009-06-09T09:02:42Z" uid="36809" user="pfoten_weg_!_" changeset="1466414" lat="48.07758" lon="11.52645">
    <tag k="amenity" v="wifi"/>
    <tag k="class" v="free"/>
    <tag k="created_by" v="RambaZamba"/>
    <tag k="man_made" v="beacon"/>
    <tag k="name" v="FON_AP [OFF]"/>
    <tag k="ref" v="Sollner Str.65b,81479 Muc,UT0,K1,sandmanx"/>
    <tag k="source" v="survey"/>
  </node>
  <node id="306058153" version="1" timestamp="2008-10-21T02:06:54Z" uid="36809" user="pfoten_weg_!_" changeset="478725" lat="48.06114" lon="11.52305">
    <tag k="amenity" v="wifi"/>
    <tag k="class" v="free"/>
    <tag k="created_by" v="RambaZamba"/>
    <tag k="man_made" v="beacon"/>
    <tag k="name" v="MIDI_Muenchner_Str_24c"/>
    <tag k="ref" v="Münchener Str.24c,82049 Pullach,UT90,K6,midi"/>
    <tag k="source" v="survey"/>
  </node>
  <node id="306058153" version="2" timestamp="2009-04-22T14:43:44Z" uid="36809" user="pfoten_weg_!_" changeset="899918" lat="48.06114" lon="11.52305">
    <tag k="amenity" v="wifi"/>
    <tag k="class" v="free"/>
    <tag k="created_by" v="RambaZamba"/>
    <tag k="man_made" v="beacon"/>
    <tag k="name" v="MIDI_Muenchner_Str_24c"/>
    <tag k="ref" v="Münchener Str.24c,82049 Pullach,UT95,K6,midi"/>
    <tag k="source" v="survey"/>
  </node>
  <node id="306058153" version="3" timestamp="2009-07-23T21:00:59Z" uid="36809" user="pfoten_weg_!_" changeset="1919954" lat="48.06114" lon="11.52305">
    <tag k="amenity" v="wifi"/>
    <tag k="discovered_by" v="RambaZamba"/>
    <tag k="man_made" v="beacon"/>
    <tag k="name" v="MIDI_Muenchner_Str_24c"/>
    <tag k="ref" v="Münchener Str.24c,82049 Pullach,UT95,K6,midi"/>
    <tag k="source" v="survey"/>
  </node>
  <node id="306058153" version="4" timestamp="2009-07-23T21:03:38Z" uid="36809" user="pfoten_weg_!_" changeset="1919967" lat="48.06114" lon="11.52305">
    <tag k="amenity" v="wifi"/>
    <tag k="discovered_by" v="RambaZamba"/>
    <tag k="internet_access" v="wlan"/>
    <tag k="internet_access:operator" v="FON"/>
    <tag k="name" v="MIDI_Muenchner_Str_24c"/>
    <tag k="ref" v="Münchener Str.24c,82049 Pullach,UT95,K6,midi"/>
    <tag k="source" v="survey"/>
  </node>
  <node id="306058155" version="1" timestamp="2008-10-21T02:06:55Z" uid="36809" user="pfoten_weg_!_" changeset="478725" lat="48.06889" lon="11.52092">
    <tag k="amenity" v="wifi"/>
    <tag k="class" v="free"/>
    <tag k="created_by" v="RambaZamba"/>
    <tag k="man_made" v="beacon"/>
    <tag k="name" v="FON_libre"/>
    <tag k="ref" v="Papperitzstr.14,81459 Muc,UT40,K1,Stephan2510"/>
    <tag k="source" v="survey"/>
  </node>
  <node id="306058155" version="2" timestamp="2008-12-09T20:38:52Z" uid="36809" user="pfoten_weg_!_" changeset="283335" lat="48.06889" lon="11.52092">
    <tag k="amenity" v="wifi"/>
    <tag k="class" v="free"/>
    <tag k="created_by" v="RambaZamba"/>
    <tag k="man_made" v="beacon"/>
    <tag k="name" v="FON_libre"/>
    <tag k="ref" v="Papperitzstr.14,81459 Muc,UT10,K1,Stephan2510"/>
    <tag k="source" v="survey"/>
  </node>
  <node id="306058155" version="3" timestamp="2009-02-11T01:01:34Z" uid="36809" user="pfoten_weg_!_" changeset="348985" lat="48.06889" lon="11.52092">
    <tag k="amenity" v="wifi"/>
    <tag k="class" v="free"/>
    <tag k="created_by" v="RambaZamba"/>
    <tag k="man_made" v="beacon"/>
    <tag k="name" v="FON_libre"/>
    <tag k="ref" v="Papperitzstr.14,81459 Muc,UT5,K1,Stephan2510"/>
    <tag k="source" v="survey"/>
  </node>
  <node id="306058155" version="4" timestamp="2009-02-14T22:28:45Z" uid="36809" user="pfoten_weg_!_" changeset="445466" lat="48.06889" lon="11.52092">
    <tag k="amenity" v="wifi"/>
    <tag k="class" v="free"/>
    <tag k="created_by" v="RambaZamba"/>
    <tag k="man_made" v="beacon"/>
    <tag k="name" v="FON_libre"/>
    <tag k="ref" v="Papperitzstr.14,81459 Muc,UT1,K1,Stephan2510"/>
    <tag k="source" v="survey"/>
  </node>
  <node id="306058155" version="5" timestamp="2009-03-13T22:00:57Z" uid="36809" user="pfoten_weg_!_" changeset="801607" lat="48.06889" lon="11.52092">
    <tag k="amenity" v="wifi"/>
    <tag k="class" v="free"/>
    <tag k="created_by" v="RambaZamba"/>
    <tag k="man_made" v="beacon"/>
    <tag k="name" v="FON_libre"/>
    <tag k="ref" v="Papperitzstr.14,81459 Muc,UT0,K1,Stephan2510"/>
    <tag k="source" v="survey"/>
  </node>
  <node id="306058155" version="6" timestamp="2009-04-09T19:14:02Z" uid="36809" user="pfoten_weg_!_" changeset="353448" lat="48.06889" lon="11.52092">
    <tag k="amenity" v="wifi"/>
    <tag k="class" v="free"/>
    <tag k="created_by" v="RambaZamba"/>
    <tag k="man_made" v="beacon"/>
    <tag k="name" v="FON_libre"/>
    <tag k="ref" v="Papperitzstr.14,81459 Muc,UT50,K1,Stephan2510"/>
    <tag k="source" v="survey"/>
  </node>
  <node id="306058155" version="7" timestamp="2009-04-26T20:19:07Z" uid="36809" user="pfoten_weg_!_" changeset="980896" lat="48.06889" lon="11.52092">
    <tag k="amenity" v="wifi"/>
    <tag k="class" v="free"/>
    <tag k="created_by" v="RambaZamba"/>
    <tag k="man_made" v="beacon"/>
    <tag k="name" v="FON_libre"/>
    <tag k="ref" v="Papperitzstr.14,81459 Muc,UT80,K1,Stephan2510"/>
    <tag k="source" v="survey"/>
  </node>
  <node id="306058155" version="8" timestamp="2009-07-23T21:00:58Z" uid="36809" user="pfoten_weg_!_" changeset="1919954" lat="48.06889" lon="11.52092">
    <tag k="amenity" v="wifi"/>
    <tag k="discovered_by" v="RambaZamba"/>
    <tag k="man_made" v="beacon"/>
    <tag k="name" v="FON_libre"/>
    <tag k="ref" v="Papperitzstr.14,81459 Muc,UT80,K1,Stephan2510"/>
    <tag k="source" v="survey"/>
  </node>
  <node id="306058155" version="9" timestamp="2009-07-23T21:03:38Z" uid="36809" user="pfoten_weg_!_" changeset="1919967" lat="48.06889" lon="11.52092">
    <tag k="amenity" v="wifi"/>
    <tag k="discovered_by" v="RambaZamba"/>
    <tag k="internet_access" v="wlan"/>
    <tag k="internet_access:operator" v="FON"/>
    <tag k="name" v="FON_libre"/>
    <tag k="ref" v="Papperitzstr.14,81459 Muc,UT80,K1,Stephan2510"/>
    <tag k="source" v="survey"/>
  </node>
  <node id="306058155" version="11" timestamp="2009-08-25T19:27:45Z" uid="36809" user="pfoten_weg_!_" changeset="2260709" lat="48.06889" lon="11.52092">
    <tag k="amenity" v="wifi"/>
    <tag k="internet_access" v="wlan"/>
    <tag k="internet_access:operator" v="FON"/>
    <tag k="name" v="FON_libre"/>
    <tag k="ref" v="Papperitzstr.14,81459 Muc,UT80,K1,Stephan2510"/>
    <tag k="source" v="survey"/>
  </node>
  <node id="306058156" version="1" timestamp="2008-10-21T02:06:55Z" uid="36809" user="pfoten_weg_!_" changeset="478725" lat="48.07915" lon="11.5255">
    <tag k="amenity" v="wifi"/>
    <tag k="class" v="free"/>
    <tag k="created_by" v="RambaZamba"/>
    <tag k="man_made" v="beacon"/>
    <tag k="name" v="FON_Hofbrunnstrasse1"/>
    <tag k="ref" v="Hofbrunnstr.1,81479 Muc,UT50,K1,smooky"/>
    <tag k="source" v="survey"/>
  </node>
  <node id="306058156" version="2" timestamp="2009-04-01T21:43:15Z" uid="36809" user="pfoten_weg_!_" changeset="41839" lat="48.07915" lon="11.5255">
    <tag k="amenity" v="wifi"/>
    <tag k="class" v="free"/>
    <tag k="created_by" v="RambaZamba"/>
    <tag k="man_made" v="beacon"/>
    <tag k="name" v="FON_Hofbrunnstrasse1"/>
    <tag k="ref" v="Hofbrunnstr.1,81479 Muc,UT80,K1,smooky"/>
    <tag k="source" v="survey"/>
  </node>
  <node id="306058156" version="3" timestamp="2009-04-12T00:53:02Z" uid="36809" user="pfoten_weg_!_" changeset="450931" lat="48.07915" lon="11.5255">
    <tag k="amenity" v="wifi"/>
    <tag k="class" v="free"/>
    <tag k="created_by" v="RambaZamba"/>
    <tag k="man_made" v="beacon"/>
    <tag k="name" v="FON_Hofbrunnstrasse1"/>
    <tag k="ref" v="Hofbrunnstr.1,81479 Muc,UT50,K1,smooky"/>
    <tag k="source" v="survey"/>
  </node>
  <node id="306058156" version="4" timestamp="2009-05-23T00:39:00Z" uid="36809" user="pfoten_weg_!_" changeset="1291261" lat="48.07915" lon="11.5255">
    <tag k="amenity" v="wifi"/>
    <tag k="class" v="free"/>
    <tag k="created_by" v="RambaZamba"/>
    <tag k="man_made" v="beacon"/>
    <tag k="name" v="FON_Hofbrunnstrasse1"/>
    <tag k="ref" v="Hofbrunnstr.1,81479 Muc,UT0,K1,smooky"/>
    <tag k="source" v="survey"/>
  </node>
  <node id="306058156" version="5" timestamp="2009-05-30T23:52:32Z" uid="36809" user="pfoten_weg_!_" changeset="1364463" lat="48.07915" lon="11.5255">
    <tag k="amenity" v="wifi"/>
    <tag k="class" v="free"/>
    <tag k="created_by" v="RambaZamba"/>
    <tag k="man_made" v="beacon"/>
    <tag k="name" v="FON_Hofbrunnstrasse1 [OFF]"/>
    <tag k="ref" v="Hofbrunnstr.1,81479 Muc,UT0,K1,smooky"/>
    <tag k="source" v="survey"/>
  </node>
  <node id="306058156" version="7" timestamp="2009-06-08T13:19:54Z" uid="36809" user="pfoten_weg_!_" changeset="1458721" lat="48.07915" lon="11.5255">
    <tag k="amenity" v="wifi"/>
    <tag k="class" v="free"/>
    <tag k="created_by" v="RambaZamba"/>
    <tag k="man_made" v="beacon"/>
    <tag k="name" v="FON_Hofbrunnstrasse1 [OFF]"/>
    <tag k="ref" v="Hofbrunnstr.1,81479 Muc,UT0,K1,smooky"/>
    <tag k="source" v="survey"/>
  </node>
  <node id="306058156" version="8" timestamp="2009-06-09T09:02:42Z" uid="36809" user="pfoten_weg_!_" changeset="1466414" lat="48.07915" lon="11.5255">
    <tag k="amenity" v="wifi"/>
    <tag k="class" v="free"/>
    <tag k="created_by" v="RambaZamba"/>
    <tag k="man_made" v="beacon"/>
    <tag k="name" v="FON_Hofbrunnstrasse1 [OFF]"/>
    <tag k="ref" v="Hofbrunnstr.1,81479 Muc,UT0,K1,smooky"/>
    <tag k="source" v="survey"/>
  </node>
  <node id="306058158" version="1" timestamp="2008-10-21T02:06:55Z" uid="36809" user="pfoten_weg_!_" changeset="478725" lat="48.07918" lon="11.52983">
    <tag k="amenity" v="wifi"/>
    <tag k="class" v="free"/>
    <tag k="created_by" v="RambaZamba"/>
    <tag k="man_made" v="beacon"/>
    <tag k="name" v="FON_linksys"/>
    <tag k="ref" v="Heinrich-Vogl-Str.16,81479 Muc,UT40,K6,nici2006"/>
    <tag k="source" v="survey"/>
  </node>
  <node id="306058158" version="2" timestamp="2009-04-23T18:34:34Z" uid="36809" user="pfoten_weg_!_" changeset="917014" lat="48.07918" lon="11.52983">
    <tag k="amenity" v="wifi"/>
    <tag k="class" v="free"/>
    <tag k="created_by" v="RambaZamba"/>
    <tag k="man_made" v="beacon"/>
    <tag k="name" v="FON_linksys"/>
    <tag k="ref" v="Heinrich-Vogl-Str.16,81479 Muc,UT0,K6,nici2006"/>
    <tag k="source" v="survey"/>
  </node>
  <node id="306058158" version="3" timestamp="2009-05-30T23:52:32Z" uid="36809" user="pfoten_weg_!_" changeset="1364463" lat="48.07918" lon="11.52983">
    <tag k="amenity" v="wifi"/>
    <tag k="class" v="free"/>
    <tag k="created_by" v="RambaZamba"/>
    <tag k="man_made" v="beacon"/>
    <tag k="name" v="FON_linksys [OFF]"/>
    <tag k="ref" v="Heinrich-Vogl-Str.16,81479 Muc,UT0,K6,nici2006"/>
    <tag k="source" v="survey"/>
  </node>
  <node id="306058158" version="5" timestamp="2009-06-08T13:18:12Z" uid="36809" user="pfoten_weg_!_" changeset="1458721" lat="48.07918" lon="11.52983">
    <tag k="amenity" v="wifi"/>
    <tag k="class" v="free"/>
    <tag k="created_by" v="RambaZamba"/>
    <tag k="man_made" v="beacon"/>
    <tag k="name" v="FON_linksys [OFF]"/>
    <tag k="ref" v="Heinrich-Vogl-Str.16,81479 Muc,UT0,K6,nici2006"/>
    <tag k="source" v="survey"/>
  </node>
  <node id="306058158" version="6" timestamp="2009-06-09T08:30:51Z" uid="36809" user="pfoten_weg_!_" changeset="1466149" lat="48.07918" lon="11.52983">
    <tag k="amenity" v="wifi"/>
    <tag k="class" v="free"/>
    <tag k="created_by" v="RambaZamba"/>
    <tag k="man_made" v="beacon"/>
    <tag k="name" v="FON_linksys [OFF]"/>
    <tag k="ref" v="Heinrich-Vogl-Str.16,81479 Muc,UT0,K6,nici2006"/>
    <tag k="source" v="survey"/>
  </node>
  <node id="306058160" version="1" timestamp="2008-10-21T02:06:55Z" uid="36809" user="pfoten_weg_!_" changeset="478725" lat="48.07779" lon="11.52568">
    <tag k="amenity" v="wifi"/>
    <tag k="class" v="free"/>
    <tag k="created_by" v="RambaZamba"/>
    <tag k="man_made" v="beacon"/>
    <tag k="name" v="FON_FREE_INTERNET"/>
    <tag k="ref" v="Sollner Str.44a,81479 Muc,UT40,K2,uwnn39144"/>
    <tag k="source" v="survey"/>
  </node>
  <node id="306058160" version="2" timestamp="2009-04-12T00:53:02Z" uid="36809" user="pfoten_weg_!_" changeset="450931" lat="48.0778515" lon="11.5255573">
    <tag k="amenity" v="wifi"/>
    <tag k="class" v="free"/>
    <tag k="created_by" v="RambaZamba"/>
    <tag k="man_made" v="beacon"/>
    <tag k="name" v="FON_FREE_INTERNET"/>
    <tag k="ref" v="Sollner Str.44a,81479 Muc,UT80,K2,uwnn39144"/>
    <tag k="source" v="survey"/>
  </node>
  <node id="306058160" version="4" timestamp="2009-06-08T13:19:53Z" uid="36809" user="pfoten_weg_!_" changeset="1458721" lat="48.0778515" lon="11.5255573">
    <tag k="amenity" v="wifi"/>
    <tag k="class" v="free"/>
    <tag k="created_by" v="RambaZamba"/>
    <tag k="man_made" v="beacon"/>
    <tag k="name" v="FON_FREE_INTERNET"/>
    <tag k="ref" v="Sollner Str.44a,81479 Muc,UT80,K2,uwnn39144"/>
    <tag k="source" v="survey"/>
  </node>
  <node id="306058160" version="5" timestamp="2009-07-23T21:00:58Z" uid="36809" user="pfoten_weg_!_" changeset="1919954" lat="48.0778515" lon="11.5255573">
    <tag k="amenity" v="wifi"/>
    <tag k="discovered_by" v="RambaZamba"/>
    <tag k="man_made" v="beacon"/>
    <tag k="name" v="FON_FREE_INTERNET"/>
    <tag k="ref" v="Sollner Str.44a,81479 Muc,UT80,K2,uwnn39144"/>
    <tag k="source" v="survey"/>
  </node>
  <node id="306058160" version="6" timestamp="2009-07-23T21:03:37Z" uid="36809" user="pfoten_weg_!_" changeset="1919967" lat="48.0778515" lon="11.5255573">
    <tag k="amenity" v="wifi"/>
    <tag k="discovered_by" v="RambaZamba"/>
    <tag k="internet_access" v="wlan"/>
    <tag k="internet_access:operator" v="FON"/>
    <tag k="name" v="FON_FREE_INTERNET"/>
    <tag k="ref" v="Sollner Str.44a,81479 Muc,UT80,K2,uwnn39144"/>
    <tag k="source" v="survey"/>
  </node>
  <node id="306058160" version="8" timestamp="2009-08-19T01:58:25Z" uid="36809" user="pfoten_weg_!_" changeset="2196399" lat="48.0778515" lon="11.5255573">
    <tag k="amenity" v="wifi"/>
    <tag k="internet_access" v="wlan"/>
    <tag k="internet_access:operator" v="FON"/>
    <tag k="name" v="FON_FREE_INTERNET"/>
    <tag k="ref" v="Sollner Str.44a,81479 Muc,UT80,K2,uwnn39144"/>
    <tag k="source" v="survey"/>
    <tag k="warnung" v="rumpelzumpel-verbrecher"/>
  </node>
  <node id="306058160" version="9" timestamp="2009-08-19T02:22:30Z" uid="36809" user="pfoten_weg_!_" changeset="2196453" lat="48.0778515" lon="11.5255573">
    <tag k="amenity" v="wifi"/>
    <tag k="internet_access" v="wlan"/>
    <tag k="internet_access:operator" v="FON"/>
    <tag k="name" v="FON_FREE_INTERNET"/>
    <tag k="ref" v="Sollner Str.44a,81479 Muc,UT80,K2,uwnn39144"/>
    <tag k="source" v="survey"/>
  </node>
  <node id="306058160" version="10" timestamp="2009-08-25T19:27:46Z" uid="36809" user="pfoten_weg_!_" changeset="2260709" lat="48.0778515" lon="11.5255573">
    <tag k="amenity" v="wifi"/>
    <tag k="internet_access" v="wlan"/>
    <tag k="internet_access:operator" v="FON"/>
    <tag k="name" v="FON_FREE_INTERNET"/>
    <tag k="ref" v="Sollner Str.44a,81479 Muc,UT80,K2,uwnn39144"/>
    <tag k="source" v="survey"/>
  </node>
  <node id="306058162" version="1" timestamp="2008-10-21T02:06:55Z" uid="36809" user="pfoten_weg_!_" changeset="478725" lat="48.07822" lon="11.5277">
    <tag k="amenity" v="wifi"/>
    <tag k="class" v="free"/>
    <tag k="created_by" v="RambaZamba"/>
    <tag k="man_made" v="beacon"/>
    <tag k="name" v="FON_AP"/>
    <tag k="ref" v="Dr.-Carl-von-Linde-Str.21,81479 Muc,UT70,K1,makki"/>
    <tag k="source" v="survey"/>
  </node>
  <node id="306058162" version="2" timestamp="2008-11-14T14:59:12Z" uid="36809" user="pfoten_weg_!_" changeset="747907" lat="48.07822" lon="11.5277">
    <tag k="amenity" v="wifi"/>
    <tag k="class" v="free"/>
    <tag k="created_by" v="RambaZamba"/>
    <tag k="man_made" v="beacon"/>
    <tag k="name" v="FON_AP"/>
    <tag k="ref" v="Dr.-Carl-von-Linde-Str.21,81479 Muc,UT70,K1,makki"/>
    <tag k="source" v="survey"/>
  </node>
  <node id="306058164" version="1" timestamp="2008-10-21T02:06:55Z" uid="36809" user="pfoten_weg_!_" changeset="478725" lat="48.08773" lon="11.5184">
    <tag k="amenity" v="wifi"/>
    <tag k="class" v="free"/>
    <tag k="created_by" v="RambaZamba"/>
    <tag k="man_made" v="beacon"/>
    <tag k="name" v="FON_Wastels"/>
    <tag k="ref" v="Sentilostr.9,81477 Muc,UT80,K1,chrisMUC"/>
    <tag k="source" v="survey"/>
  </node>
  <node id="306058164" version="2" timestamp="2008-11-15T10:25:41Z" uid="36809" user="pfoten_weg_!_" changeset="751174" lat="48.08773" lon="11.5184">
    <tag k="amenity" v="wifi"/>
    <tag k="class" v="free"/>
    <tag k="created_by" v="RambaZamba"/>
    <tag k="man_made" v="beacon"/>
    <tag k="name" v="FON_Wastels"/>
    <tag k="ref" v="Sentilostr.9,81477 Muc,UT30,K1,chrisMUC"/>
    <tag k="source" v="survey"/>
  </node>
  <node id="306058164" version="3" timestamp="2008-12-09T20:35:43Z" uid="36809" user="pfoten_weg_!_" changeset="283335" lat="48.08773" lon="11.5184">
    <tag k="amenity" v="wifi"/>
    <tag k="class" v="free"/>
    <tag k="created_by" v="RambaZamba"/>
    <tag k="man_made" v="beacon"/>
    <tag k="name" v="FON_Wastels"/>
    <tag k="ref" v="Sentilostr.9,81477 Muc,UT10,K1,chrisMUC"/>
    <tag k="source" v="survey"/>
  </node>
  <node id="306058164" version="4" timestamp="2009-03-30T22:22:50Z" uid="36809" user="pfoten_weg_!_" changeset="871597" lat="48.08773" lon="11.5184">
    <tag k="amenity" v="wifi"/>
    <tag k="class" v="free"/>
    <tag k="created_by" v="RambaZamba"/>
    <tag k="man_made" v="beacon"/>
    <tag k="name" v="FON_Wastels"/>
    <tag k="ref" v="Sentilostr.9,81477 Muc,UT0,K1,chrisMUC"/>
    <tag k="source" v="survey"/>
  </node>
  <node id="306058164" version="5" timestamp="2009-04-22T17:20:46Z" uid="36809" user="pfoten_weg_!_" changeset="902681" lat="48.086712" lon="11.4995261">
    <tag k="amenity" v="wifi"/>
    <tag k="class" v="free"/>
    <tag k="created_by" v="RambaZamba"/>
    <tag k="man_made" v="beacon"/>
    <tag k="name" v="FON_Wastels"/>
    <tag k="ref" v="Sentilostr.9,81477 Muc,UT0,K1,chrisMUC"/>
    <tag k="source" v="survey"/>
  </node>
  <node id="306058164" version="6" timestamp="2009-04-22T17:34:29Z" uid="36809" user="pfoten_weg_!_" changeset="902941" lat="48.0853473" lon="11.4993404">
    <tag k="amenity" v="wifi"/>
    <tag k="class" v="free"/>
    <tag k="created_by" v="RambaZamba"/>
    <tag k="man_made" v="beacon"/>
    <tag k="name" v="FON_Wastels"/>
    <tag k="ref" v="Sentilostr.9,81477 Muc,UT0,K1,chrisMUC"/>
    <tag k="source" v="survey"/>
  </node>
  <node id="306058164" version="7" timestamp="2009-05-12T22:31:04Z" uid="36809" user="pfoten_weg_!_" changeset="1170301" lat="48.0853473" lon="11.4993404">
    <tag k="amenity" v="wifi"/>
    <tag k="class" v="free"/>
    <tag k="created_by" v="RambaZamba"/>
    <tag k="man_made" v="beacon"/>
    <tag k="name" v="FON_Wastels"/>
    <tag k="ref" v="Sentilostr.9,81477 Muc,UT0,K1,chrisMUC"/>
    <tag k="source" v="survey"/>
  </node>
  <node id="306058165" version="1" timestamp="2008-10-21T02:06:55Z" uid="36809" user="pfoten_weg_!_" changeset="478725" lat="48.08772" lon="11.51826">
    <tag k="amenity" v="wifi"/>
    <tag k="class" v="free"/>
    <tag k="created_by" v="RambaZamba"/>
    <tag k="man_made" v="beacon"/>
    <tag k="name" v="FON_EICO"/>
    <tag k="ref" v="Sentilostr.11,81477 Muc,UT80,K3,sethaphopes"/>
    <tag k="source" v="survey"/>
  </node>
  <node id="306058165" version="2" timestamp="2008-11-15T10:25:41Z" uid="36809" user="pfoten_weg_!_" changeset="751174" lat="48.08772" lon="11.51826">
    <tag k="amenity" v="wifi"/>
    <tag k="class" v="free"/>
    <tag k="created_by" v="RambaZamba"/>
    <tag k="man_made" v="beacon"/>
    <tag k="name" v="FON_EICO"/>
    <tag k="ref" v="Sentilostr.11,81477 Muc,UT10,K3,sethaphopes"/>
    <tag k="source" v="survey"/>
  </node>
  <node id="306058165" version="3" timestamp="2008-12-09T20:35:43Z" uid="36809" user="pfoten_weg_!_" changeset="283335" lat="48.08772" lon="11.51826">
    <tag k="amenity" v="wifi"/>
    <tag k="class" v="free"/>
    <tag k="created_by" v="RambaZamba"/>
    <tag k="man_made" v="beacon"/>
    <tag k="name" v="FON_EICO"/>
    <tag k="ref" v="Sentilostr.11,81477 Muc,UT0,K3,sethaphopes"/>
    <tag k="source" v="survey"/>
  </node>
  <node id="306058165" version="4" timestamp="2009-04-22T17:20:46Z" uid="36809" user="pfoten_weg_!_" changeset="902681" lat="48.085637" lon="11.4995502">
    <tag k="amenity" v="wifi"/>
    <tag k="class" v="free"/>
    <tag k="created_by" v="RambaZamba"/>
    <tag k="man_made" v="beacon"/>
    <tag k="name" v="FON_EICO"/>
    <tag k="ref" v="Sentilostr.11,81477 Muc,UT0,K3,sethaphopes"/>
    <tag k="source" v="survey"/>
  </node>
  <node id="306058165" version="5" timestamp="2009-04-22T17:34:29Z" uid="36809" user="pfoten_weg_!_" changeset="902941" lat="48.0847742" lon="11.4992253">
    <tag k="amenity" v="wifi"/>
    <tag k="class" v="free"/>
    <tag k="created_by" v="RambaZamba"/>
    <tag k="man_made" v="beacon"/>
    <tag k="name" v="FON_EICO"/>
    <tag k="ref" v="Sentilostr.11,81477 Muc,UT0,K3,sethaphopes"/>
    <tag k="source" v="survey"/>
  </node>
  <node id="306058165" version="6" timestamp="2009-05-12T22:31:04Z" uid="36809" user="pfoten_weg_!_" changeset="1170301" lat="48.0847742" lon="11.4992253">
    <tag k="amenity" v="wifi"/>
    <tag k="class" v="free"/>
    <tag k="created_by" v="RambaZamba"/>
    <tag k="man_made" v="beacon"/>
    <tag k="name" v="FON_EICO"/>
    <tag k="ref" v="Sentilostr.11,81477 Muc,UT0,K3,sethaphopes"/>
    <tag k="source" v="survey"/>
  </node>
  <node id="306058167" version="1" timestamp="2008-10-21T02:06:56Z" uid="36809" user="pfoten_weg_!_" changeset="478725" lat="48.08005" lon="11.53117">
    <tag k="amenity" v="wifi"/>
    <tag k="class" v="free"/>
    <tag k="created_by" v="RambaZamba"/>
    <tag k="man_made" v="beacon"/>
    <tag k="name" v="FON_AP"/>
    <tag k="ref" v="Irmgardstr.3,81479 Muc,UT90,K1,mkie"/>
    <tag k="source" v="survey"/>
  </node>
  <node id="306058167" version="2" timestamp="2008-11-14T14:58:37Z" uid="36809" user="pfoten_weg_!_" changeset="747907" lat="48.08005" lon="11.53117">
    <tag k="amenity" v="wifi"/>
    <tag k="class" v="free"/>
    <tag k="created_by" v="RambaZamba"/>
    <tag k="man_made" v="beacon"/>
    <tag k="name" v="FON_AP"/>
    <tag k="ref" v="Irmgardstr.3,81479 Muc,UT90,K1,mkie"/>
    <tag k="source" v="survey"/>
  </node>
  <node id="306058169" version="1" timestamp="2008-10-21T02:06:56Z" uid="36809" user="pfoten_weg_!_" changeset="478725" lat="48.07977" lon="11.51751">
    <tag k="amenity" v="wifi"/>
    <tag k="class" v="free"/>
    <tag k="created_by" v="RambaZamba"/>
    <tag k="man_made" v="beacon"/>
    <tag k="name" v="FON_Beavis"/>
    <tag k="ref" v="Bräutigamstr.5,81479 Muc,UT90,K1,Beavis1001"/>
    <tag k="source" v="survey"/>
  </node>
  <node id="306058169" version="2" timestamp="2009-05-23T00:39:00Z" uid="36809" user="pfoten_weg_!_" changeset="1291261" lat="48.07977" lon="11.51751">
    <tag k="amenity" v="wifi"/>
    <tag k="class" v="free"/>
    <tag k="created_by" v="RambaZamba"/>
    <tag k="man_made" v="beacon"/>
    <tag k="name" v="FON_Beavis"/>
    <tag k="ref" v="Bräutigamstr.5,81479 Muc,UT0,K1,Beavis1001"/>
    <tag k="source" v="survey"/>
  </node>
  <node id="306058169" version="3" timestamp="2009-06-07T21:55:41Z" uid="36809" user="pfoten_weg_!_" changeset="1454171" lat="48.07977" lon="11.51751">
    <tag k="amenity" v="wifi"/>
    <tag k="class" v="free"/>
    <tag k="created_by" v="RambaZamba"/>
    <tag k="man_made" v="beacon"/>
    <tag k="name" v="FON_Beavis [OFF]"/>
    <tag k="ref" v="Bräutigamstr.5,81479 Muc,UT0,K1,Beavis1001"/>
    <tag k="source" v="survey"/>
  </node>
  <node id="306058169" version="4" timestamp="2009-06-09T09:02:42Z" uid="36809" user="pfoten_weg_!_" changeset="1466414" lat="48.07977" lon="11.51751">
    <tag k="amenity" v="wifi"/>
    <tag k="class" v="free"/>
    <tag k="created_by" v="RambaZamba"/>
    <tag k="man_made" v="beacon"/>
    <tag k="name" v="FON_Beavis [OFF]"/>
    <tag k="ref" v="Bräutigamstr.5,81479 Muc,UT0,K1,Beavis1001"/>
    <tag k="source" v="survey"/>
  </node>
  <node id="306058171" version="1" timestamp="2008-10-21T02:06:56Z" uid="36809" user="pfoten_weg_!_" changeset="478725" lat="48.09886" lon="11.52694">
    <tag k="amenity" v="wifi"/>
    <tag k="class" v="free"/>
    <tag k="created_by" v="RambaZamba"/>
    <tag k="man_made" v="beacon"/>
    <tag k="name" v="FON_24_7_Free"/>
    <tag k="ref" v="Boschetsriederstr 93,81379 Muc,UT30,K1,wookie2k"/>
    <tag k="source" v="survey"/>
  </node>
  <node id="306058171" version="4" timestamp="2009-07-23T21:40:42Z" uid="36809" user="pfoten_weg_!_" changeset="1920147" lat="48.0988633" lon="11.5269399">
    <tag k="amenity" v="wifi"/>
    <tag k="class" v="free"/>
    <tag k="created_by" v="RambaZamba"/>
    <tag k="man_made" v="beacon"/>
    <tag k="name" v="FON_24_7_Free"/>
    <tag k="ref" v="Boschetsriederstr 93,81379 Muc,UT30,K1,wookie2k"/>
    <tag k="source" v="survey"/>
  </node>
  <node id="306058172" version="1" timestamp="2008-10-21T02:06:56Z" uid="36809" user="pfoten_weg_!_" changeset="478725" lat="48.09866" lon="11.53501">
    <tag k="amenity" v="wifi"/>
    <tag k="class" v="free"/>
    <tag k="created_by" v="RambaZamba"/>
    <tag k="man_made" v="beacon"/>
    <tag k="name" v="FON_Vmaxxer"/>
    <tag k="ref" v="Zaberner Str.12,81379 Muc,UT30,K1,vmaxxer"/>
    <tag k="source" v="survey"/>
  </node>
  <node id="306058172" version="3" timestamp="2009-06-08T13:38:27Z" uid="36809" user="pfoten_weg_!_" changeset="1458869" lat="48.09866" lon="11.53501">
    <tag k="amenity" v="wifi"/>
    <tag k="class" v="free"/>
    <tag k="created_by" v="RambaZamba"/>
    <tag k="man_made" v="beacon"/>
    <tag k="name" v="FON_Vmaxxer"/>
    <tag k="ref" v="Zaberner Str.12,81379 Muc,UT30,K1,vmaxxer"/>
    <tag k="source" v="survey"/>
  </node>
  <node id="306058172" version="4" timestamp="2009-07-23T21:41:40Z" uid="36809" user="pfoten_weg_!_" changeset="1920154" lat="48.09866" lon="11.53501">
    <tag k="amenity" v="wifi"/>
    <tag k="discovered_by" v="RambaZamba"/>
    <tag k="internet_access" v="wlan"/>
    <tag k="internet_access:operator" v="FON"/>
    <tag k="man_made" v="beacon"/>
    <tag k="name" v="FON_Vmaxxer"/>
    <tag k="ref" v="Zaberner Str.12,81379 Muc,UT30,K1,vmaxxer"/>
    <tag k="source" v="survey"/>
  </node>
  <node id="306058172" version="7" timestamp="2009-08-31T20:58:23Z" uid="36809" user="pfoten_weg_!_" changeset="2331411" lat="48.09866" lon="11.53501">
    <tag k="amenity" v="wifi"/>
    <tag k="internet_access" v="wlan"/>
    <tag k="internet_access:operator" v="FON"/>
    <tag k="man_made" v="beacon"/>
    <tag k="name" v="FON_Vmaxxer"/>
    <tag k="ref" v="Zaberner Str.12,81379 Muc,UT30,K1,vmaxxer"/>
    <tag k="seamark" v="beacon"/>
    <tag k="source" v="survey"/>
  </node>
  <node id="306058172" version="8" timestamp="2009-10-13T23:39:48Z" uid="36809" user="pfoten_weg_!_" changeset="2841273" lat="48.09866" lon="11.53501">
    <tag k="amenity" v="wifi"/>
    <tag k="internet_access" v="wlan"/>
    <tag k="internet_access:operator" v="FON"/>
    <tag k="man_made" v="beacon"/>
    <tag k="name" v="FON_Vmaxxer"/>
    <tag k="ref" v="Zaberner Str.12,81379 Muc,UT30,K1,vmaxxer"/>
    <tag k="seamark" v="beacon"/>
  </node>
  <node id="306058174" version="1" timestamp="2008-10-21T02:06:56Z" uid="36809" user="pfoten_weg_!_" changeset="478725" lat="48.09416" lon="11.53883">
    <tag k="amenity" v="wifi"/>
    <tag k="class" v="free"/>
    <tag k="created_by" v="RambaZamba"/>
    <tag k="man_made" v="beacon"/>
    <tag k="name" v="FON_AP"/>
    <tag k="ref" v="Saarbrückert Str.11,81379 Muc,UT40,K2,bratix"/>
    <tag k="source" v="survey"/>
  </node>
  <node id="306058174" version="3" timestamp="2009-06-08T13:38:26Z" uid="36809" user="pfoten_weg_!_" changeset="1458869" lat="48.09416" lon="11.53883">
    <tag k="amenity" v="wifi"/>
    <tag k="class" v="free"/>
    <tag k="created_by" v="RambaZamba"/>
    <tag k="man_made" v="beacon"/>
    <tag k="name" v="FON_AP"/>
    <tag k="ref" v="Saarbrückert Str.11,81379 Muc,UT40,K2,bratix"/>
    <tag k="source" v="survey"/>
  </node>
  <node id="306058174" version="5" timestamp="2009-10-13T23:38:37Z" uid="36809" user="pfoten_weg_!_" changeset="2841273" lat="48.09416" lon="11.53883">
    <tag k="amenity" v="wifi"/>
    <tag k="class" v="free"/>
    <tag k="man_made" v="beacon"/>
    <tag k="name" v="FON_AP"/>
    <tag k="ref" v="Saarbrückert Str.11,81379 Muc,UT40,K2,bratix"/>
    <tag k="seamark" v="beacon"/>
  </node>
  <node id="306058176" version="1" timestamp="2008-10-21T02:06:56Z" uid="36809" user="pfoten_weg_!_" changeset="478725" lat="48.08774" lon="11.51853">
    <tag k="amenity" v="wifi"/>
    <tag k="class" v="free"/>
    <tag k="created_by" v="RambaZamba"/>
    <tag k="man_made" v="beacon"/>
    <tag k="name" v="FON_AP_Chris"/>
    <tag k="ref" v="Sentilostr.9,81477 Muc,UT90,K4,chrisMUC"/>
    <tag k="source" v="survey"/>
  </node>
  <node id="306058176" version="2" timestamp="2008-11-15T10:25:41Z" uid="36809" user="pfoten_weg_!_" changeset="751174" lat="48.08774" lon="11.51853">
    <tag k="amenity" v="wifi"/>
    <tag k="class" v="free"/>
    <tag k="created_by" v="RambaZamba"/>
    <tag k="man_made" v="beacon"/>
    <tag k="name" v="FON_AP_Chris"/>
    <tag k="ref" v="Sentilostr.9,81477 Muc,UT70,K4,chrisMUC"/>
    <tag k="source" v="survey"/>
  </node>
  <node id="306058176" version="3" timestamp="2008-12-09T20:35:43Z" uid="36809" user="pfoten_weg_!_" changeset="283335" lat="48.08774" lon="11.51853">
    <tag k="amenity" v="wifi"/>
    <tag k="class" v="free"/>
    <tag k="created_by" v="RambaZamba"/>
    <tag k="man_made" v="beacon"/>
    <tag k="name" v="FON_AP_Chris"/>
    <tag k="ref" v="Sentilostr.9,81477 Muc,UT10,K4,chrisMUC"/>
    <tag k="source" v="survey"/>
  </node>
  <node id="306058176" version="4" timestamp="2009-03-30T22:22:50Z" uid="36809" user="pfoten_weg_!_" changeset="871597" lat="48.08774" lon="11.51853">
    <tag k="amenity" v="wifi"/>
    <tag k="class" v="free"/>
    <tag k="created_by" v="RambaZamba"/>
    <tag k="man_made" v="beacon"/>
    <tag k="name" v="FON_AP_Chris"/>
    <tag k="ref" v="Sentilostr.9,81477 Muc,UT0,K4,chrisMUC"/>
    <tag k="source" v="survey"/>
  </node>
  <node id="306058176" version="5" timestamp="2009-04-22T17:07:49Z" uid="36809" user="pfoten_weg_!_" changeset="902405" lat="48.0880853" lon="11.5176118">
    <tag k="amenity" v="wifi"/>
    <tag k="class" v="free"/>
    <tag k="created_by" v="RambaZamba"/>
    <tag k="man_made" v="beacon"/>
    <tag k="name" v="FON_AP_Chris"/>
    <tag k="ref" v="Sentilostr.9,81477 Muc,UT0,K4,chrisMUC"/>
    <tag k="source" v="survey"/>
  </node>
  <node id="306058176" version="6" timestamp="2009-04-22T17:20:46Z" uid="36809" user="pfoten_weg_!_" changeset="902681" lat="48.0861745" lon="11.4995381">
    <tag k="amenity" v="wifi"/>
    <tag k="class" v="free"/>
    <tag k="created_by" v="RambaZamba"/>
    <tag k="man_made" v="beacon"/>
    <tag k="name" v="FON_AP_Chris"/>
    <tag k="ref" v="Sentilostr.9,81477 Muc,UT0,K4,chrisMUC"/>
    <tag k="source" v="survey"/>
  </node>
  <node id="306058176" version="7" timestamp="2009-04-22T17:34:29Z" uid="36809" user="pfoten_weg_!_" changeset="902941" lat="48.0851323" lon="11.4993152">
    <tag k="amenity" v="wifi"/>
    <tag k="class" v="free"/>
    <tag k="created_by" v="RambaZamba"/>
    <tag k="man_made" v="beacon"/>
    <tag k="name" v="FON_AP_Chris"/>
    <tag k="ref" v="Sentilostr.9,81477 Muc,UT0,K4,chrisMUC"/>
    <tag k="source" v="survey"/>
  </node>
  <node id="306058176" version="8" timestamp="2009-05-12T22:31:04Z" uid="36809" user="pfoten_weg_!_" changeset="1170301" lat="48.0919716" lon="11.4777814">
    <tag k="amenity" v="wifi"/>
    <tag k="class" v="free"/>
    <tag k="created_by" v="RambaZamba"/>
    <tag k="man_made" v="beacon"/>
    <tag k="name" v="FON_AP_Chris"/>
    <tag k="ref" v="Sentilostr.9,81477 Muc,UT0,K4,chrisMUC"/>
    <tag k="source" v="survey"/>
  </node>
  <node id="306058176" version="9" timestamp="2009-07-23T21:01:00Z" uid="36809" user="pfoten_weg_!_" changeset="1919954" lat="48.0919716" lon="11.4777814">
    <tag k="amenity" v="wifi"/>
    <tag k="discovered_by" v="RambaZamba"/>
    <tag k="man_made" v="beacon"/>
    <tag k="name" v="FON_AP_Chris"/>
    <tag k="ref" v="Sentilostr.9,81477 Muc,UT0,K4,chrisMUC"/>
    <tag k="source" v="survey"/>
  </node>
  <node id="306058176" version="10" timestamp="2009-07-23T21:03:39Z" uid="36809" user="pfoten_weg_!_" changeset="1919967" lat="48.0919716" lon="11.4777814">
    <tag k="amenity" v="wifi"/>
    <tag k="discovered_by" v="RambaZamba"/>
    <tag k="internet_access" v="wlan"/>
    <tag k="internet_access:operator" v="FON"/>
    <tag k="name" v="FON_AP_Chris"/>
    <tag k="ref" v="Sentilostr.9,81477 Muc,UT0,K4,chrisMUC"/>
    <tag k="source" v="survey"/>
  </node>
  <node id="306058176" version="12" timestamp="2009-08-26T09:29:37Z" uid="36809" user="pfoten_weg_!_" changeset="2265170" lat="48.0919716" lon="11.4777814">
    <tag k="amenity" v="wifi"/>
    <tag k="internet_access" v="wlan"/>
    <tag k="internet_access:operator" v="FON"/>
    <tag k="name" v="FON_AP_Chris"/>
    <tag k="ref" v="Sentilostr.9,81477 Muc,UT0,K4,chrisMUC"/>
    <tag k="source" v="survey"/>
  </node>
  <node id="306058176" version="13" timestamp="2009-09-01T11:24:23Z" uid="36809" user="pfoten_weg_!_" changeset="2336438" lat="48.0919716" lon="11.4777814">
    <tag k="amenity" v="wifi"/>
    <tag k="internet_access" v="wlan"/>
    <tag k="internet_access:operator" v="FON"/>
    <tag k="name" v="FON_AP_Chris"/>
    <tag k="ref" v="Sentilostr.9,81477 Muc,UT0,K4,chrisMUC"/>
    <tag k="source" v="survey"/>
  </node>
  <node id="306058178" version="1" timestamp="2008-10-21T02:06:57Z" uid="36809" user="pfoten_weg_!_" changeset="478725" lat="48.10691" lon="11.53438">
    <tag k="amenity" v="wifi"/>
    <tag k="class" v="free"/>
    <tag k="created_by" v="RambaZamba"/>
    <tag k="man_made" v="beacon"/>
    <tag k="name" v="FON_AP"/>
    <tag k="ref" v="Sonnenlängstr.2,81369 Muc,UT30,K1,hansh"/>
    <tag k="source" v="survey"/>
  </node>
  <node id="306058180" version="1" timestamp="2008-10-21T02:06:57Z" uid="36809" user="pfoten_weg_!_" changeset="478725" lat="48.10182" lon="11.52346">
    <tag k="amenity" v="wifi"/>
    <tag k="class" v="free"/>
    <tag k="created_by" v="RambaZamba"/>
    <tag k="man_made" v="beacon"/>
    <tag k="name" v="FON_Public"/>
    <tag k="ref" v="Zielstattstr.93a,81379 Muc,UT30,K2,mofiz"/>
    <tag k="source" v="survey"/>
  </node>
  <node id="306058180" version="2" timestamp="2009-07-23T21:41:40Z" uid="36809" user="pfoten_weg_!_" changeset="1920154" lat="48.10182" lon="11.52346">
    <tag k="amenity" v="wifi"/>
    <tag k="discovered_by" v="RambaZamba"/>
    <tag k="internet_access" v="wlan"/>
    <tag k="internet_access:operator" v="FON"/>
    <tag k="man_made" v="beacon"/>
    <tag k="name" v="FON_Public"/>
    <tag k="ref" v="Zielstattstr.93a,81379 Muc,UT30,K2,mofiz"/>
    <tag k="source" v="survey"/>
  </node>
  <node id="306058180" version="5" timestamp="2009-08-26T10:00:46Z" uid="36809" user="pfoten_weg_!_" changeset="2265457" lat="48.10182" lon="11.52346">
    <tag k="amenity" v="wifi"/>
    <tag k="internet_access" v="wlan"/>
    <tag k="internet_access:operator" v="FON"/>
    <tag k="man_made" v="beacon"/>
    <tag k="name" v="FON_Public"/>
    <tag k="ref" v="Zielstattstr.93a,81379 Muc,UT30,K2,mofiz"/>
    <tag k="seamark" v="beacon"/>
    <tag k="source" v="survey"/>
  </node>
  <node id="306058182" version="1" timestamp="2008-10-21T02:06:57Z" uid="36809" user="pfoten_weg_!_" changeset="478725" lat="48.10176" lon="11.53351">
    <tag k="amenity" v="wifi"/>
    <tag k="class" v="free"/>
    <tag k="created_by" v="RambaZamba"/>
    <tag k="man_made" v="beacon"/>
    <tag k="name" v="FON_AP"/>
    <tag k="ref" v="Zielstattstr.19,81379 Muc,UT30,K2,cerbe"/>
    <tag k="source" v="survey"/>
  </node>
  <node id="306058182" version="2" timestamp="2009-07-23T21:41:40Z" uid="36809" user="pfoten_weg_!_" changeset="1920154" lat="48.10176" lon="11.53351">
    <tag k="amenity" v="wifi"/>
    <tag k="discovered_by" v="RambaZamba"/>
    <tag k="internet_access" v="wlan"/>
    <tag k="internet_access:operator" v="FON"/>
    <tag k="man_made" v="beacon"/>
    <tag k="name" v="FON_AP"/>
    <tag k="ref" v="Zielstattstr.19,81379 Muc,UT30,K2,cerbe"/>
    <tag k="source" v="survey"/>
  </node>
  <node id="306058182" version="5" timestamp="2009-08-31T20:58:25Z" uid="36809" user="pfoten_weg_!_" changeset="2331411" lat="48.10176" lon="11.53351">
    <tag k="amenity" v="wifi"/>
    <tag k="internet_access" v="wlan"/>
    <tag k="internet_access:operator" v="FON"/>
    <tag k="man_made" v="beacon"/>
    <tag k="name" v="FON_AP"/>
    <tag k="ref" v="Zielstattstr.19,81379 Muc,UT30,K2,cerbe"/>
    <tag k="seamark" v="beacon"/>
    <tag k="source" v="survey"/>
  </node>
  <node id="306058184" version="1" timestamp="2008-10-21T02:06:57Z" uid="36809" user="pfoten_weg_!_" changeset="478725" lat="48.10053" lon="11.53685">
    <tag k="amenity" v="wifi"/>
    <tag k="class" v="free"/>
    <tag k="created_by" v="RambaZamba"/>
    <tag k="man_made" v="beacon"/>
    <tag k="name" v="FON_AccessPoint"/>
    <tag k="ref" v="Waakirchner Str.35,81379 Muc,UT30,K1,alexs73"/>
    <tag k="source" v="survey"/>
  </node>
  <node id="306058184" version="3" timestamp="2009-10-13T23:39:55Z" uid="36809" user="pfoten_weg_!_" changeset="2841273" lat="48.10053" lon="11.53685">
    <tag k="amenity" v="wifi"/>
    <tag k="class" v="free"/>
    <tag k="man_made" v="beacon"/>
    <tag k="name" v="FON_AccessPoint"/>
    <tag k="ref" v="Waakirchner Str.35,81379 Muc,UT30,K1,alexs73"/>
    <tag k="seamark" v="beacon"/>
  </node>
  <node id="306058186" version="1" timestamp="2008-10-21T02:06:57Z" uid="36809" user="pfoten_weg_!_" changeset="478725" lat="48.11035" lon="11.52829">
    <tag k="amenity" v="wifi"/>
    <tag k="class" v="free"/>
    <tag k="created_by" v="RambaZamba"/>
    <tag k="man_made" v="beacon"/>
    <tag k="name" v="FON_AP"/>
    <tag k="ref" v="Konrad-Celtis-Str.41d,81369 Muc,UT30,K5,DoniDaDon"/>
    <tag k="source" v="survey"/>
  </node>
  <node id="306058186" version="3" timestamp="2009-08-26T10:00:45Z" uid="36809" user="pfoten_weg_!_" changeset="2265457" lat="48.11035" lon="11.52829">
    <tag k="amenity" v="wifi"/>
    <tag k="class" v="free"/>
    <tag k="man_made" v="beacon"/>
    <tag k="name" v="FON_AP"/>
    <tag k="ref" v="Konrad-Celtis-Str.41d,81369 Muc,UT30,K5,DoniDaDon"/>
    <tag k="seamark" v="beacon"/>
    <tag k="source" v="survey"/>
  </node>
  <node id="306058188" version="1" timestamp="2008-10-21T02:06:58Z" uid="36809" user="pfoten_weg_!_" changeset="478725" lat="48.10969" lon="11.52397">
    <tag k="amenity" v="wifi"/>
    <tag k="class" v="free"/>
    <tag k="created_by" v="RambaZamba"/>
    <tag k="man_made" v="beacon"/>
    <tag k="name" v="FON_AP"/>
    <tag k="ref" v="Heckenstallerstr.149,81369 Muc,UT30,K1,eggi"/>
    <tag k="source" v="survey"/>
  </node>
  <node id="306058188" version="4" timestamp="2009-08-26T10:00:45Z" uid="36809" user="pfoten_weg_!_" changeset="2265457" lat="48.10969" lon="11.52397">
    <tag k="amenity" v="wifi"/>
    <tag k="class" v="free"/>
    <tag k="man_made" v="beacon"/>
    <tag k="name" v="FON_AP"/>
    <tag k="ref" v="Heckenstallerstr.149,81369 Muc,UT30,K1,eggi"/>
    <tag k="seamark" v="beacon"/>
    <tag k="source" v="survey"/>
  </node>
  <node id="306058190" version="1" timestamp="2008-10-21T02:06:58Z" uid="36809" user="pfoten_weg_!_" changeset="478725" lat="48.10926" lon="11.53723">
    <tag k="amenity" v="wifi"/>
    <tag k="class" v="free"/>
    <tag k="created_by" v="RambaZamba"/>
    <tag k="man_made" v="beacon"/>
    <tag k="name" v="FON_AP"/>
    <tag k="ref" v="Leipartstr.17,81369 Muc,UT30,K2,mjokisch"/>
    <tag k="source" v="survey"/>
  </node>
  <node id="306058192" version="1" timestamp="2008-10-21T02:06:58Z" uid="36809" user="pfoten_weg_!_" changeset="478725" lat="48.10892" lon="11.51819">
    <tag k="amenity" v="wifi"/>
    <tag k="class" v="free"/>
    <tag k="created_by" v="RambaZamba"/>
    <tag k="man_made" v="beacon"/>
    <tag k="name" v="FON_AP_vdietmar"/>
    <tag k="ref" v="Uttinger Str.17b,81379 Muc,UT30,K6,vdietmar"/>
    <tag k="source" v="survey"/>
  </node>
  <node id="306058192" version="4" timestamp="2009-08-26T10:00:47Z" uid="36809" user="pfoten_weg_!_" changeset="2265457" lat="48.10892" lon="11.51819">
    <tag k="amenity" v="wifi"/>
    <tag k="class" v="free"/>
    <tag k="man_made" v="beacon"/>
    <tag k="name" v="FON_AP_vdietmar"/>
    <tag k="ref" v="Uttinger Str.17b,81379 Muc,UT30,K6,vdietmar"/>
    <tag k="seamark" v="beacon"/>
    <tag k="source" v="survey"/>
  </node>
  <node id="306058194" version="1" timestamp="2008-10-21T02:06:59Z" uid="36809" user="pfoten_weg_!_" changeset="478725" lat="48.1127" lon="11.53759">
    <tag k="amenity" v="wifi"/>
    <tag k="class" v="free"/>
    <tag k="created_by" v="RambaZamba"/>
    <tag k="man_made" v="beacon"/>
    <tag k="name" v="FON_AP"/>
    <tag k="ref" v="Sylvensteinstr.7,81369 Muc,UT30,K2,baerli409"/>
    <tag k="source" v="survey"/>
  </node>
  <node id="306058196" version="1" timestamp="2008-10-21T02:06:59Z" uid="36809" user="pfoten_weg_!_" changeset="478725" lat="48.11317" lon="11.53693">
    <tag k="amenity" v="wifi"/>
    <tag k="class" v="free"/>
    <tag k="created_by" v="RambaZamba"/>
    <tag k="man_made" v="beacon"/>
    <tag k="name" v="FON_AP"/>
    <tag k="ref" v="Karwendelstr.32,81369 Muc,UT30,K2,zhorvat"/>
    <tag k="source" v="survey"/>
  </node>
  <node id="306058198" version="1" timestamp="2008-10-21T02:06:59Z" uid="36809" user="pfoten_weg_!_" changeset="478725" lat="48.11356" lon="11.53549">
    <tag k="amenity" v="wifi"/>
    <tag k="class" v="free"/>
    <tag k="created_by" v="RambaZamba"/>
    <tag k="man_made" v="beacon"/>
    <tag k="name" v="FON_ZORRO"/>
    <tag k="ref" v="Marbachstr.14,81369 Muc,UT30,K2,rafterman"/>
    <tag k="source" v="survey"/>
  </node>
  <node id="306058200" version="1" timestamp="2008-10-21T02:07:00Z" uid="36809" user="pfoten_weg_!_" changeset="478725" lat="48.11358" lon="11.53549">
    <tag k="amenity" v="wifi"/>
    <tag k="class" v="free"/>
    <tag k="created_by" v="RambaZamba"/>
    <tag k="man_made" v="beacon"/>
    <tag k="name" v="FON_AP"/>
    <tag k="ref" v="Marbachstr.14,81369 Muc,UT30,K1,rafterman"/>
    <tag k="source" v="survey"/>
  </node>
  <node id="306058201" version="1" timestamp="2008-10-21T02:07:00Z" uid="36809" user="pfoten_weg_!_" changeset="478725" lat="48.11096" lon="11.52158">
    <tag k="amenity" v="wifi"/>
    <tag k="class" v="free"/>
    <tag k="created_by" v="RambaZamba"/>
    <tag k="man_made" v="beacon"/>
    <tag k="name" v="FON_Public_Access"/>
    <tag k="ref" v="Mainburger Str.9,81369 Muc,UT30,K1,opimuc"/>
    <tag k="source" v="survey"/>
  </node>
  <node id="306058201" version="4" timestamp="2009-08-26T10:00:47Z" uid="36809" user="pfoten_weg_!_" changeset="2265457" lat="48.11096" lon="11.52158">
    <tag k="amenity" v="wifi"/>
    <tag k="class" v="free"/>
    <tag k="man_made" v="beacon"/>
    <tag k="name" v="FON_Public_Access"/>
    <tag k="ref" v="Mainburger Str.9,81369 Muc,UT30,K1,opimuc"/>
    <tag k="seamark" v="beacon"/>
    <tag k="source" v="survey"/>
  </node>
  <node id="306058203" version="1" timestamp="2008-10-21T02:07:00Z" uid="36809" user="pfoten_weg_!_" changeset="478725" lat="48.11127" lon="11.53121">
    <tag k="amenity" v="wifi"/>
    <tag k="class" v="free"/>
    <tag k="created_by" v="RambaZamba"/>
    <tag k="man_made" v="beacon"/>
    <tag k="name" v="FON_24"/>
    <tag k="ref" v="Konrad-Celtis-Str.24,81369 Muc,UT30,K8,jaqob"/>
    <tag k="source" v="survey"/>
  </node>
  <node id="306058203" version="3" timestamp="2009-08-26T10:00:46Z" uid="36809" user="pfoten_weg_!_" changeset="2265457" lat="48.11127" lon="11.53121">
    <tag k="amenity" v="wifi"/>
    <tag k="class" v="free"/>
    <tag k="man_made" v="beacon"/>
    <tag k="name" v="FON_24"/>
    <tag k="ref" v="Konrad-Celtis-Str.24,81369 Muc,UT30,K8,jaqob"/>
    <tag k="seamark" v="beacon"/>
    <tag k="source" v="survey"/>
  </node>
  <node id="306058206" version="1" timestamp="2008-10-21T02:07:00Z" uid="36809" user="pfoten_weg_!_" changeset="478725" lat="48.11167" lon="11.5292">
    <tag k="amenity" v="wifi"/>
    <tag k="class" v="free"/>
    <tag k="created_by" v="RambaZamba"/>
    <tag k="man_made" v="beacon"/>
    <tag k="name" v="FON_AP"/>
    <tag k="ref" v="Arnimstr.19,81369 Muc,UT30,K7,daniel.r"/>
    <tag k="source" v="survey"/>
  </node>
  <node id="306058206" version="3" timestamp="2009-08-26T10:00:46Z" uid="36809" user="pfoten_weg_!_" changeset="2265457" lat="48.11167" lon="11.5292">
    <tag k="amenity" v="wifi"/>
    <tag k="class" v="free"/>
    <tag k="man_made" v="beacon"/>
    <tag k="name" v="FON_AP"/>
    <tag k="ref" v="Arnimstr.19,81369 Muc,UT30,K7,daniel.r"/>
    <tag k="seamark" v="beacon"/>
    <tag k="source" v="survey"/>
  </node>
  <node id="306058207" version="1" timestamp="2008-10-21T02:07:00Z" uid="36809" user="pfoten_weg_!_" changeset="478725" lat="48.11173" lon="11.53522">
    <tag k="amenity" v="wifi"/>
    <tag k="class" v="free"/>
    <tag k="created_by" v="RambaZamba"/>
    <tag k="man_made" v="beacon"/>
    <tag k="name" v="FON_public"/>
    <tag k="ref" v="Jachenauer Str.2,81369 Muc,UT30,K2,kwasimodo"/>
    <tag k="source" v="survey"/>
  </node>
  <node id="306058209" version="1" timestamp="2008-10-21T02:07:00Z" uid="36809" user="pfoten_weg_!_" changeset="478725" lat="48.13165" lon="11.52242">
    <tag k="amenity" v="wifi"/>
    <tag k="class" v="free"/>
    <tag k="created_by" v="RambaZamba"/>
    <tag k="man_made" v="beacon"/>
    <tag k="name" v="FON_AP"/>
    <tag k="ref" v="Rüdesheimer Str.11,80686 Muc,UT30,K2,mikesch61"/>
    <tag k="source" v="survey"/>
  </node>
</osm>
