<?xml version='1.0' encoding='UTF-8'?>
<osm version="0.6" generator="libosmium/2.20.0">
  <node id="307103834" version="2" timestamp="2008-11-26T17:52:15Z" uid="6975" user="ulfl" changeset="797054" lat="48.2120243" lon="9.029164">
    <tag k="name" v="Salon Petra Janssen"/>
    <tag k="shop" v="hairdresser"/>
  </node>
  <node id="307103846" version="2" timestamp="2009-01-01T14:30:23Z" uid="6975" user="ulfl" changeset="699648" lat="48.2122906" lon="9.0286957">
    <tag k="name" v="Uhren Meinecke"/>
    <tag k="shop" v="jewelry"/>
  </node>
  <node id="307103863" version="2" timestamp="2008-11-26T17:46:49Z" uid="6975" user="ulfl" changeset="797054" lat="48.2117563" lon="9.0277159">
    <tag k="amenity" v="ice_cream"/>
    <tag k="name" v="il Gelato"/>
  </node>
  <node id="307103867" version="2" timestamp="2008-11-26T17:52:15Z" uid="6975" user="ulfl" changeset="797054" lat="48.2116208" lon="9.0276851">
    <tag k="name" v="Hairkiller"/>
    <tag k="shop" v="hairdresser"/>
  </node>
  <node id="307103877" version="2" timestamp="2008-11-26T17:52:14Z" uid="6975" user="ulfl" changeset="797054" lat="48.2122163" lon="9.0276616">
    <tag k="name" v="Velly"/>
    <tag k="shop" v="hairdresser"/>
  </node>
  <node id="307103885" version="2" timestamp="2008-11-26T17:43:36Z" uid="6975" user="ulfl" changeset="797054" lat="48.2122619" lon="9.0273337">
    <tag k="name" v="Bertelsmann"/>
    <tag k="shop" v="books"/>
  </node>
  <node id="307106764" version="3" timestamp="2008-10-24T20:39:33Z" uid="6975" user="ulfl" changeset="551307" lat="51.4280651" lon="7.0496547">
    <tag k="Name" v="Hellweg"/>
    <tag k="shop" v="doityourself"/>
  </node>
</osm>
