<?xml version='1.0' encoding='UTF-8'?>
<osm version="0.6" generator="libosmium/2.20.0">
  <node id="310781267" version="7" timestamp="2009-10-02T19:49:21Z" uid="86259" user="hasse_osm_korinthenkacker" changeset="2716821" lat="47.9139006" lon="11.6821763">
    <tag k="addr:city" v="Otterfing"/>
    <tag k="addr:country" v="DE"/>
    <tag k="addr:housenumber" v="5a"/>
    <tag k="addr:postcode" v="83624"/>
    <tag k="addr:street" v="Staudenfeldweg"/>
    <tag k="source" v="survey"/>
  </node>
  <node id="310781267" version="8" timestamp="2009-10-23T11:36:40Z" uid="36809" user="pfoten_weg_!_" changeset="2928981" lat="47.9139006" lon="11.6821763">
    <tag k="addr:city" v="Otterfing"/>
    <tag k="addr:country" v="DE"/>
    <tag k="addr:housenumber" v="5a"/>
    <tag k="addr:postcode" v="83624"/>
    <tag k="addr:street" v="Staudenfeldweg"/>
  </node>
  <node id="310781292" version="3" timestamp="2010-07-01T19:17:36Z" uid="8619" user="cetest" changeset="5122960" lat="52.0174166" lon="4.4211552"/>
  <node id="310781560" version="9" timestamp="2009-10-02T19:49:21Z" uid="86259" user="hasse_osm_korinthenkacker" changeset="2716821" lat="47.9140761" lon="11.6824526">
    <tag k="addr:city" v="Otterfing"/>
    <tag k="addr:country" v="DE"/>
    <tag k="addr:housenumber" v="7a"/>
    <tag k="addr:postcode" v="83624"/>
    <tag k="addr:street" v="Staudenfeldweg"/>
    <tag k="source" v="survey"/>
  </node>
  <node id="310781560" version="10" timestamp="2009-10-23T11:36:39Z" uid="36809" user="pfoten_weg_!_" changeset="2928981" lat="47.9140761" lon="11.6824526">
    <tag k="addr:city" v="Otterfing"/>
    <tag k="addr:country" v="DE"/>
    <tag k="addr:housenumber" v="7a"/>
    <tag k="addr:postcode" v="83624"/>
    <tag k="addr:street" v="Staudenfeldweg"/>
  </node>
  <node id="310781584" version="9" timestamp="2009-10-02T19:49:21Z" uid="86259" user="hasse_osm_korinthenkacker" changeset="2716821" lat="47.9140933" lon="11.6825556">
    <tag k="addr:city" v="Otterfing"/>
    <tag k="addr:country" v="DE"/>
    <tag k="addr:housenumber" v="7b"/>
    <tag k="addr:postcode" v="83624"/>
    <tag k="addr:street" v="Staudenfeldweg"/>
    <tag k="source" v="survey"/>
  </node>
  <node id="310781584" version="10" timestamp="2009-10-23T11:36:39Z" uid="36809" user="pfoten_weg_!_" changeset="2928981" lat="47.9140933" lon="11.6825556">
    <tag k="addr:city" v="Otterfing"/>
    <tag k="addr:country" v="DE"/>
    <tag k="addr:housenumber" v="7b"/>
    <tag k="addr:postcode" v="83624"/>
    <tag k="addr:street" v="Staudenfeldweg"/>
  </node>
  <node id="310781599" version="9" timestamp="2009-10-02T19:49:33Z" uid="86259" user="hasse_osm_korinthenkacker" changeset="2716821" lat="47.9142688" lon="11.6827342">
    <tag k="addr:city" v="Otterfing"/>
    <tag k="addr:country" v="DE"/>
    <tag k="addr:housenumber" v="9a"/>
    <tag k="addr:postcode" v="83624"/>
    <tag k="addr:street" v="Staudenfeldweg"/>
    <tag k="source" v="survey"/>
  </node>
  <node id="310781599" version="10" timestamp="2009-10-23T11:37:16Z" uid="36809" user="pfoten_weg_!_" changeset="2928981" lat="47.9142688" lon="11.6827342">
    <tag k="addr:city" v="Otterfing"/>
    <tag k="addr:country" v="DE"/>
    <tag k="addr:housenumber" v="9a"/>
    <tag k="addr:postcode" v="83624"/>
    <tag k="addr:street" v="Staudenfeldweg"/>
  </node>
  <node id="310781619" version="9" timestamp="2009-10-02T19:49:33Z" uid="86259" user="hasse_osm_korinthenkacker" changeset="2716821" lat="47.9142803" lon="11.6828201">
    <tag k="addr:city" v="Otterfing"/>
    <tag k="addr:country" v="DE"/>
    <tag k="addr:housenumber" v="9b"/>
    <tag k="addr:postcode" v="83624"/>
    <tag k="addr:street" v="Staudenfeldweg"/>
    <tag k="source" v="survey"/>
  </node>
  <node id="310781619" version="10" timestamp="2009-10-23T11:37:16Z" uid="36809" user="pfoten_weg_!_" changeset="2928981" lat="47.9142803" lon="11.6828201">
    <tag k="addr:city" v="Otterfing"/>
    <tag k="addr:country" v="DE"/>
    <tag k="addr:housenumber" v="9b"/>
    <tag k="addr:postcode" v="83624"/>
    <tag k="addr:street" v="Staudenfeldweg"/>
  </node>
  <node id="310781994" version="7" timestamp="2009-10-02T19:49:33Z" uid="86259" user="hasse_osm_korinthenkacker" changeset="2716821" lat="47.9145248" lon="11.6831135">
    <tag k="addr:city" v="Otterfing"/>
    <tag k="addr:country" v="DE"/>
    <tag k="addr:housenumber" v="10"/>
    <tag k="addr:postcode" v="83624"/>
    <tag k="addr:street" v="Staudenfeldweg"/>
    <tag k="source" v="survey"/>
  </node>
  <node id="310781994" version="8" timestamp="2009-10-23T11:37:18Z" uid="36809" user="pfoten_weg_!_" changeset="2928981" lat="47.9145248" lon="11.6831135">
    <tag k="addr:city" v="Otterfing"/>
    <tag k="addr:country" v="DE"/>
    <tag k="addr:housenumber" v="10"/>
    <tag k="addr:postcode" v="83624"/>
    <tag k="addr:street" v="Staudenfeldweg"/>
  </node>
  <node id="310782257" version="7" timestamp="2009-10-02T19:49:33Z" uid="86259" user="hasse_osm_korinthenkacker" changeset="2716821" lat="47.9147036" lon="11.6826852">
    <tag k="addr:city" v="Otterfing"/>
    <tag k="addr:country" v="DE"/>
    <tag k="addr:housenumber" v="2"/>
    <tag k="addr:postcode" v="83624"/>
    <tag k="addr:street" v="Erlenweg"/>
    <tag k="source" v="survey"/>
  </node>
  <node id="310782257" version="8" timestamp="2009-10-23T11:37:18Z" uid="36809" user="pfoten_weg_!_" changeset="2928981" lat="47.9147036" lon="11.6826852">
    <tag k="addr:city" v="Otterfing"/>
    <tag k="addr:country" v="DE"/>
    <tag k="addr:housenumber" v="2"/>
    <tag k="addr:postcode" v="83624"/>
    <tag k="addr:street" v="Erlenweg"/>
  </node>
  <node id="310782269" version="8" timestamp="2009-10-02T19:49:32Z" uid="86259" user="hasse_osm_korinthenkacker" changeset="2716821" lat="47.9146744" lon="11.6824269">
    <tag k="addr:city" v="Otterfing"/>
    <tag k="addr:country" v="DE"/>
    <tag k="addr:housenumber" v="4"/>
    <tag k="addr:postcode" v="83624"/>
    <tag k="addr:street" v="Erlenweg"/>
    <tag k="source" v="survey"/>
  </node>
  <node id="310782269" version="9" timestamp="2009-10-23T11:37:15Z" uid="36809" user="pfoten_weg_!_" changeset="2928981" lat="47.9146744" lon="11.6824269">
    <tag k="addr:city" v="Otterfing"/>
    <tag k="addr:country" v="DE"/>
    <tag k="addr:housenumber" v="4"/>
    <tag k="addr:postcode" v="83624"/>
    <tag k="addr:street" v="Erlenweg"/>
  </node>
  <node id="310782286" version="8" timestamp="2009-10-02T19:49:32Z" uid="86259" user="hasse_osm_korinthenkacker" changeset="2716821" lat="47.9146658" lon="11.682348">
    <tag k="addr:city" v="Otterfing"/>
    <tag k="addr:country" v="DE"/>
    <tag k="addr:housenumber" v="6"/>
    <tag k="addr:postcode" v="83624"/>
    <tag k="addr:street" v="Erlenweg"/>
    <tag k="source" v="survey"/>
  </node>
  <node id="310782286" version="9" timestamp="2009-10-23T11:37:12Z" uid="36809" user="pfoten_weg_!_" changeset="2928981" lat="47.9146658" lon="11.682348">
    <tag k="addr:city" v="Otterfing"/>
    <tag k="addr:country" v="DE"/>
    <tag k="addr:housenumber" v="6"/>
    <tag k="addr:postcode" v="83624"/>
    <tag k="addr:street" v="Erlenweg"/>
  </node>
  <node id="310782298" version="9" timestamp="2009-10-02T19:49:32Z" uid="86259" user="hasse_osm_korinthenkacker" changeset="2716821" lat="47.9146514" lon="11.6821265">
    <tag k="addr:city" v="Otterfing"/>
    <tag k="addr:country" v="DE"/>
    <tag k="addr:housenumber" v="8"/>
    <tag k="addr:postcode" v="83624"/>
    <tag k="addr:street" v="Erlenweg"/>
    <tag k="source" v="survey"/>
  </node>
  <node id="310782298" version="10" timestamp="2009-10-23T11:37:14Z" uid="36809" user="pfoten_weg_!_" changeset="2928981" lat="47.9146514" lon="11.6821265">
    <tag k="addr:city" v="Otterfing"/>
    <tag k="addr:country" v="DE"/>
    <tag k="addr:housenumber" v="8"/>
    <tag k="addr:postcode" v="83624"/>
    <tag k="addr:street" v="Erlenweg"/>
  </node>
  <node id="310782299" version="8" timestamp="2009-10-02T19:49:32Z" uid="86259" user="hasse_osm_korinthenkacker" changeset="2716821" lat="47.9146427" lon="11.682039">
    <tag k="addr:city" v="Otterfing"/>
    <tag k="addr:country" v="DE"/>
    <tag k="addr:housenumber" v="10"/>
    <tag k="addr:postcode" v="83624"/>
    <tag k="addr:street" v="Erlenweg"/>
    <tag k="source" v="survey"/>
  </node>
  <node id="310782299" version="9" timestamp="2009-10-23T11:37:13Z" uid="36809" user="pfoten_weg_!_" changeset="2928981" lat="47.9146427" lon="11.682039">
    <tag k="addr:city" v="Otterfing"/>
    <tag k="addr:country" v="DE"/>
    <tag k="addr:housenumber" v="10"/>
    <tag k="addr:postcode" v="83624"/>
    <tag k="addr:street" v="Erlenweg"/>
  </node>
  <node id="310782438" version="1" timestamp="2008-11-09T14:43:25Z" uid="36809" user="pfoten_weg_!_" changeset="721335" lat="48.0679977" lon="11.5088452"/>
  <node id="310782438" version="2" timestamp="2008-11-09T18:24:13Z" uid="36809" user="pfoten_weg_!_" changeset="722735" lat="48.0679977" lon="11.5088452"/>
  <node id="310782440" version="1" timestamp="2008-11-09T14:43:25Z" uid="36809" user="pfoten_weg_!_" changeset="721335" lat="48.0678342" lon="11.5092931"/>
  <node id="310782440" version="2" timestamp="2008-11-09T18:24:13Z" uid="36809" user="pfoten_weg_!_" changeset="722735" lat="48.0678342" lon="11.5092931"/>
  <node id="310782443" version="1" timestamp="2008-11-09T14:43:25Z" uid="36809" user="pfoten_weg_!_" changeset="721335" lat="48.0680526" lon="11.5094302"/>
  <node id="310782443" version="2" timestamp="2008-11-09T18:24:12Z" uid="36809" user="pfoten_weg_!_" changeset="722735" lat="48.0680526" lon="11.5094302"/>
  <node id="310782445" version="1" timestamp="2008-11-09T14:43:26Z" uid="36809" user="pfoten_weg_!_" changeset="721335" lat="48.0685373" lon="11.5092699"/>
  <node id="310782445" version="2" timestamp="2009-03-13T22:30:18Z" uid="36809" user="pfoten_weg_!_" changeset="801607" lat="48.0685373" lon="11.5092699">
    <tag k="created_by" v="RambaZamba"/>
    <tag k="source" v="survey"/>
  </node>
  <node id="310782445" version="3" timestamp="2009-03-13T22:45:44Z" uid="36809" user="pfoten_weg_!_" changeset="801607" lat="48.0685373" lon="11.5092699">
    <tag k="created_by" v="RambaZamba"/>
    <tag k="source" v="survey"/>
  </node>
  <node id="310782445" version="4" timestamp="2009-07-12T21:51:39Z" uid="36809" user="pfoten_weg_!_" changeset="1812252" lat="48.0685373" lon="11.5092699">
    <tag k="created_by" v="RambaZamba"/>
    <tag k="source" v="survey"/>
  </node>
  <node id="310782746" version="7" timestamp="2009-10-02T19:49:33Z" uid="86259" user="hasse_osm_korinthenkacker" changeset="2716821" lat="47.9148383" lon="11.6830003">
    <tag k="addr:city" v="Otterfing"/>
    <tag k="addr:country" v="DE"/>
    <tag k="addr:housenumber" v="11"/>
    <tag k="addr:postcode" v="83624"/>
    <tag k="addr:street" v="Staudenfeldweg"/>
    <tag k="source" v="survey"/>
  </node>
  <node id="310782746" version="8" timestamp="2009-10-23T11:37:22Z" uid="36809" user="pfoten_weg_!_" changeset="2928981" lat="47.9148383" lon="11.6830003">
    <tag k="addr:city" v="Otterfing"/>
    <tag k="addr:country" v="DE"/>
    <tag k="addr:housenumber" v="11"/>
    <tag k="addr:postcode" v="83624"/>
    <tag k="addr:street" v="Staudenfeldweg"/>
  </node>
  <node id="310782878" version="4" timestamp="2009-09-29T00:18:29Z" uid="36809" user="pfoten_weg_!_" changeset="2671824" lat="46.6456244" lon="11.5771346">
    <tag k="amenity" v="parking"/>
  </node>
  <node id="310782878" version="5" timestamp="2009-09-29T00:48:18Z" uid="36809" user="pfoten_weg_!_" changeset="2671929" lat="46.6456244" lon="11.5771346">
    <tag k="amenity" v="parking"/>
  </node>
  <node id="310782878" version="6" timestamp="2009-09-29T01:14:38Z" uid="36809" user="pfoten_weg_!_" changeset="2671929" lat="46.6456244" lon="11.5771346">
    <tag k="amenity" v="parking"/>
  </node>
  <node id="310782878" version="7" timestamp="2009-09-29T01:45:16Z" uid="36809" user="pfoten_weg_!_" changeset="2672141" lat="46.6456244" lon="11.5771346">
    <tag k="amenity" v="parking"/>
  </node>
  <node id="310782878" version="8" timestamp="2009-09-29T02:19:51Z" uid="36809" user="pfoten_weg_!_" changeset="2672254" lat="46.6456244" lon="11.5771346">
    <tag k="amenity" v="parking"/>
  </node>
  <node id="310782910" version="6" timestamp="2009-10-02T19:49:33Z" uid="86259" user="hasse_osm_korinthenkacker" changeset="2716821" lat="47.9150454" lon="11.6826226">
    <tag k="addr:city" v="Otterfing"/>
    <tag k="addr:country" v="DE"/>
    <tag k="addr:housenumber" v="12"/>
    <tag k="addr:postcode" v="83624"/>
    <tag k="addr:street" v="Staudenfeldweg"/>
    <tag k="source" v="survey"/>
  </node>
  <node id="310782910" version="7" timestamp="2009-10-23T11:37:21Z" uid="36809" user="pfoten_weg_!_" changeset="2928981" lat="47.9150454" lon="11.6826226">
    <tag k="addr:city" v="Otterfing"/>
    <tag k="addr:country" v="DE"/>
    <tag k="addr:housenumber" v="12"/>
    <tag k="addr:postcode" v="83624"/>
    <tag k="addr:street" v="Staudenfeldweg"/>
  </node>
  <node id="310783279" version="3" timestamp="2009-09-29T00:18:29Z" uid="36809" user="pfoten_weg_!_" changeset="2671824" lat="46.6449939" lon="11.5773921">
    <tag k="sport" v="soccer"/>
  </node>
  <node id="310783279" version="4" timestamp="2009-09-29T00:48:18Z" uid="36809" user="pfoten_weg_!_" changeset="2671929" lat="46.6449939" lon="11.5773921">
    <tag k="sport" v="soccer"/>
  </node>
  <node id="310783279" version="5" timestamp="2009-09-29T01:14:38Z" uid="36809" user="pfoten_weg_!_" changeset="2671929" lat="46.6449939" lon="11.5773921">
    <tag k="sport" v="soccer"/>
  </node>
  <node id="310783279" version="6" timestamp="2009-09-29T01:45:16Z" uid="36809" user="pfoten_weg_!_" changeset="2672141" lat="46.6449939" lon="11.5773921">
    <tag k="sport" v="soccer"/>
  </node>
  <node id="310783279" version="7" timestamp="2009-09-29T02:19:51Z" uid="36809" user="pfoten_weg_!_" changeset="2672254" lat="46.6449939" lon="11.5773921">
    <tag k="sport" v="soccer"/>
  </node>
  <node id="310783279" version="8" timestamp="2009-09-30T11:50:02Z" uid="36809" user="pfoten_weg_!_" changeset="2687450" lat="46.6449939" lon="11.5773921"/>
  <node id="310783373" version="3" timestamp="2009-09-29T00:18:28Z" uid="36809" user="pfoten_weg_!_" changeset="2671824" lat="46.645094" lon="11.5757442">
    <tag k="sport" v="swimming"/>
  </node>
  <node id="310783373" version="4" timestamp="2009-09-29T00:48:18Z" uid="36809" user="pfoten_weg_!_" changeset="2671929" lat="46.645094" lon="11.5757442">
    <tag k="sport" v="swimming"/>
  </node>
  <node id="310783373" version="5" timestamp="2009-09-29T01:14:38Z" uid="36809" user="pfoten_weg_!_" changeset="2671929" lat="46.645094" lon="11.5757442">
    <tag k="sport" v="swimming"/>
  </node>
  <node id="310783373" version="6" timestamp="2009-09-29T01:45:16Z" uid="36809" user="pfoten_weg_!_" changeset="2672141" lat="46.645094" lon="11.5757442">
    <tag k="sport" v="swimming"/>
  </node>
  <node id="310783373" version="7" timestamp="2009-09-29T02:19:50Z" uid="36809" user="pfoten_weg_!_" changeset="2672254" lat="46.645094" lon="11.5757442">
    <tag k="sport" v="swimming"/>
  </node>
  <node id="310783373" version="8" timestamp="2009-09-30T11:50:01Z" uid="36809" user="pfoten_weg_!_" changeset="2687450" lat="46.645094" lon="11.5757442"/>
  <node id="310783884" version="6" timestamp="2009-10-02T19:49:00Z" uid="86259" user="hasse_osm_korinthenkacker" changeset="2716821" lat="47.9132016" lon="11.6778068">
    <tag k="addr:city" v="Otterfing"/>
    <tag k="addr:country" v="DE"/>
    <tag k="addr:housenumber" v="32"/>
    <tag k="addr:postcode" v="83624"/>
    <tag k="addr:street" v="Pfarrer-Böhm-Weg"/>
    <tag k="source" v="survey"/>
  </node>
  <node id="310783884" version="7" timestamp="2009-10-23T11:36:03Z" uid="36809" user="pfoten_weg_!_" changeset="2928981" lat="47.9132016" lon="11.6778068">
    <tag k="addr:city" v="Otterfing"/>
    <tag k="addr:country" v="DE"/>
    <tag k="addr:housenumber" v="32"/>
    <tag k="addr:postcode" v="83624"/>
    <tag k="addr:street" v="Pfarrer-Böhm-Weg"/>
  </node>
  <node id="310784209" version="7" timestamp="2009-10-02T19:48:59Z" uid="86259" user="hasse_osm_korinthenkacker" changeset="2716821" lat="47.9132259" lon="11.6780658">
    <tag k="addr:city" v="Otterfing"/>
    <tag k="addr:country" v="DE"/>
    <tag k="addr:housenumber" v="36"/>
    <tag k="addr:postcode" v="83624"/>
    <tag k="addr:street" v="Pfarrer-Böhm-Weg"/>
    <tag k="source" v="survey"/>
  </node>
  <node id="310784209" version="8" timestamp="2009-10-23T11:36:01Z" uid="36809" user="pfoten_weg_!_" changeset="2928981" lat="47.9132259" lon="11.6780658">
    <tag k="addr:city" v="Otterfing"/>
    <tag k="addr:country" v="DE"/>
    <tag k="addr:housenumber" v="36"/>
    <tag k="addr:postcode" v="83624"/>
    <tag k="addr:street" v="Pfarrer-Böhm-Weg"/>
  </node>
  <node id="310784256" version="3" timestamp="2010-05-01T15:07:36Z" uid="151899" user="Bikeman2000" changeset="4575929" lat="51.2256841" lon="6.7832075"/>
  <node id="310784256" version="4" timestamp="2010-05-02T08:45:41Z" uid="151899" user="Bikeman2000" changeset="4582130" lat="51.2257095" lon="6.7831467"/>
  <node id="310784258" version="2" timestamp="2010-05-01T15:07:26Z" uid="151899" user="Bikeman2000" changeset="4575929" lat="51.2249593" lon="6.7852835"/>
  <node id="310784260" version="3" timestamp="2010-05-01T15:07:37Z" uid="151899" user="Bikeman2000" changeset="4575929" lat="51.22547" lon="6.7829085"/>
  <node id="310784262" version="2" timestamp="2010-05-01T15:07:32Z" uid="151899" user="Bikeman2000" changeset="4575929" lat="51.2253389" lon="6.7840913"/>
  <node id="310784263" version="3" timestamp="2010-05-02T08:45:39Z" uid="151899" user="Bikeman2000" changeset="4582130" lat="51.2251586" lon="6.7846085"/>
  <node id="310784285" version="6" timestamp="2009-10-02T19:49:00Z" uid="86259" user="hasse_osm_korinthenkacker" changeset="2716821" lat="47.9132534" lon="11.6782359">
    <tag k="addr:city" v="Otterfing"/>
    <tag k="addr:country" v="DE"/>
    <tag k="addr:housenumber" v="38"/>
    <tag k="addr:postcode" v="83624"/>
    <tag k="addr:street" v="Pfarrer-Böhm-Weg"/>
    <tag k="source" v="survey"/>
  </node>
  <node id="310784285" version="7" timestamp="2009-10-23T11:36:03Z" uid="36809" user="pfoten_weg_!_" changeset="2928981" lat="47.9132534" lon="11.6782359">
    <tag k="addr:city" v="Otterfing"/>
    <tag k="addr:country" v="DE"/>
    <tag k="addr:housenumber" v="38"/>
    <tag k="addr:postcode" v="83624"/>
    <tag k="addr:street" v="Pfarrer-Böhm-Weg"/>
  </node>
  <node id="310784685" version="8" timestamp="2009-10-02T19:48:52Z" uid="86259" user="hasse_osm_korinthenkacker" changeset="2716821" lat="47.9134386" lon="11.6740856">
    <tag k="addr:city" v="Otterfing"/>
    <tag k="addr:country" v="DE"/>
    <tag k="addr:housenumber" v="5a"/>
    <tag k="addr:postcode" v="83624"/>
    <tag k="addr:street" v="Nordsiedlung"/>
    <tag k="source" v="survey"/>
  </node>
  <node id="310784685" version="9" timestamp="2009-10-23T11:35:40Z" uid="36809" user="pfoten_weg_!_" changeset="2928981" lat="47.9134386" lon="11.6740856">
    <tag k="addr:city" v="Otterfing"/>
    <tag k="addr:country" v="DE"/>
    <tag k="addr:housenumber" v="5a"/>
    <tag k="addr:postcode" v="83624"/>
    <tag k="addr:street" v="Nordsiedlung"/>
  </node>
  <node id="310784793" version="3" timestamp="2009-08-25T22:34:28Z" uid="36809" user="pfoten_weg_!_" changeset="2262439" lat="46.4957752" lon="11.4485058"/>
  <node id="310784854" version="3" timestamp="2009-08-25T22:34:28Z" uid="36809" user="pfoten_weg_!_" changeset="2262439" lat="46.4950466" lon="11.4466938"/>
  <node id="310784885" version="2" timestamp="2009-09-25T11:08:11Z" uid="36809" user="pfoten_weg_!_" changeset="2617013" lat="46.5171777" lon="11.4799148"/>
  <node id="310784894" version="2" timestamp="2009-08-25T22:48:13Z" uid="36809" user="pfoten_weg_!_" changeset="2262479" lat="46.5114385" lon="11.4752287"/>
  <node id="310785219" version="2" timestamp="2009-08-25T22:34:27Z" uid="36809" user="pfoten_weg_!_" changeset="2262439" lat="46.495337" lon="11.4466053"/>
  <node id="310785885" version="13" timestamp="2009-10-02T19:48:55Z" uid="86259" user="hasse_osm_korinthenkacker" changeset="2716821" lat="47.9118935" lon="11.6767565">
    <tag k="addr:city" v="Otterfing"/>
    <tag k="addr:country" v="DE"/>
    <tag k="addr:housenumber" v="1"/>
    <tag k="addr:postcode" v="83624"/>
    <tag k="addr:street" v="Sternstraße"/>
    <tag k="source" v="survey"/>
  </node>
  <node id="310785885" version="14" timestamp="2009-10-23T11:35:47Z" uid="36809" user="pfoten_weg_!_" changeset="2928981" lat="47.9118935" lon="11.6767565">
    <tag k="addr:city" v="Otterfing"/>
    <tag k="addr:country" v="DE"/>
    <tag k="addr:housenumber" v="1"/>
    <tag k="addr:postcode" v="83624"/>
    <tag k="addr:street" v="Sternstraße"/>
  </node>
  <node id="310786165" version="1" timestamp="2008-11-09T14:59:08Z" uid="33382" user="de_muur" changeset="722317" lat="53.561598" lon="10.3721403">
    <tag k="created_by" v="JOSM"/>
  </node>
  <node id="310786166" version="1" timestamp="2008-11-09T14:59:08Z" uid="33382" user="de_muur" changeset="722317" lat="53.5615984" lon="10.3721442">
    <tag k="created_by" v="JOSM"/>
  </node>
  <node id="310786167" version="1" timestamp="2008-11-09T14:59:08Z" uid="33382" user="de_muur" changeset="722317" lat="53.5618325" lon="10.3723996">
    <tag k="created_by" v="JOSM"/>
  </node>
  <node id="310786169" version="1" timestamp="2008-11-09T14:59:08Z" uid="33382" user="de_muur" changeset="722317" lat="53.5618308" lon="10.3723995">
    <tag k="created_by" v="JOSM"/>
  </node>
  <node id="310786170" version="1" timestamp="2008-11-09T14:59:09Z" uid="33382" user="de_muur" changeset="722317" lat="53.5615981" lon="10.3721423">
    <tag k="created_by" v="JOSM"/>
  </node>
  <node id="310786171" version="1" timestamp="2008-11-09T14:59:09Z" uid="33382" user="de_muur" changeset="722317" lat="53.5615993" lon="10.3721425">
    <tag k="created_by" v="JOSM"/>
  </node>
  <node id="310786172" version="1" timestamp="2008-11-09T14:59:09Z" uid="33382" user="de_muur" changeset="722317" lat="53.5610978" lon="10.3715936">
    <tag k="created_by" v="JOSM"/>
  </node>
  <node id="310786173" version="1" timestamp="2008-11-09T14:59:09Z" uid="33382" user="de_muur" changeset="722317" lat="53.5597495" lon="10.3700797">
    <tag k="created_by" v="JOSM"/>
  </node>
  <node id="310786175" version="1" timestamp="2008-11-09T14:59:09Z" uid="33382" user="de_muur" changeset="722317" lat="53.559301" lon="10.369153">
    <tag k="created_by" v="JOSM"/>
  </node>
  <node id="310786176" version="1" timestamp="2008-11-09T14:59:10Z" uid="33382" user="de_muur" changeset="722317" lat="53.5572925" lon="10.3649473">
    <tag k="created_by" v="JOSM"/>
  </node>
  <node id="310786177" version="1" timestamp="2008-11-09T14:59:10Z" uid="33382" user="de_muur" changeset="722317" lat="53.5552204" lon="10.3605192">
    <tag k="created_by" v="JOSM"/>
  </node>
  <node id="310786177" version="2" timestamp="2010-08-22T15:54:25Z" uid="33382" user="de_muur" changeset="5562447" lat="53.5548927" lon="10.3598092"/>
  <node id="310786178" version="1" timestamp="2008-11-09T14:59:10Z" uid="33382" user="de_muur" changeset="722317" lat="53.5539511" lon="10.3572083">
    <tag k="created_by" v="JOSM"/>
  </node>
  <node id="310786179" version="1" timestamp="2008-11-09T14:59:10Z" uid="33382" user="de_muur" changeset="722317" lat="53.5531319" lon="10.3551762">
    <tag k="created_by" v="JOSM"/>
  </node>
  <node id="310786181" version="1" timestamp="2008-11-09T14:59:10Z" uid="33382" user="de_muur" changeset="722317" lat="53.5528753" lon="10.3547194">
    <tag k="created_by" v="JOSM"/>
  </node>
  <node id="310786182" version="1" timestamp="2008-11-09T14:59:11Z" uid="33382" user="de_muur" changeset="722317" lat="53.5524739" lon="10.3543632">
    <tag k="created_by" v="JOSM"/>
  </node>
  <node id="310786182" version="2" timestamp="2010-08-22T15:54:25Z" uid="33382" user="de_muur" changeset="5562447" lat="53.5524918" lon="10.3542648"/>
  <node id="310786183" version="1" timestamp="2008-11-09T14:59:11Z" uid="33382" user="de_muur" changeset="722317" lat="53.5502762" lon="10.35282">
    <tag k="created_by" v="JOSM"/>
  </node>
  <node id="310786183" version="2" timestamp="2010-08-22T15:54:25Z" uid="33382" user="de_muur" changeset="5562447" lat="53.5506475" lon="10.3530875"/>
  <node id="310786184" version="1" timestamp="2008-11-09T14:59:11Z" uid="33382" user="de_muur" changeset="722317" lat="53.5469261" lon="10.3507424">
    <tag k="created_by" v="JOSM"/>
  </node>
  <node id="310786184" version="2" timestamp="2009-01-05T13:57:26Z" uid="33382" user="de_muur" changeset="739694" lat="53.5469462" lon="10.3506014">
    <tag k="created_by" v="JOSM"/>
  </node>
  <node id="310786185" version="1" timestamp="2008-11-09T14:59:11Z" uid="33382" user="de_muur" changeset="722317" lat="53.5418521" lon="10.3474129">
    <tag k="created_by" v="JOSM"/>
  </node>
  <node id="310786185" version="2" timestamp="2009-01-05T13:57:25Z" uid="33382" user="de_muur" changeset="739694" lat="53.541832" lon="10.3471914">
    <tag k="created_by" v="JOSM"/>
  </node>
  <node id="310786186" version="1" timestamp="2008-11-09T14:59:11Z" uid="33382" user="de_muur" changeset="722317" lat="53.5375697" lon="10.3446711">
    <tag k="created_by" v="JOSM"/>
  </node>
  <node id="310786186" version="2" timestamp="2009-01-05T13:47:05Z" uid="33382" user="de_muur" changeset="739694" lat="53.5376584" lon="10.3444198">
    <tag k="created_by" v="JOSM"/>
  </node>
  <node id="310786189" version="1" timestamp="2008-11-09T14:59:13Z" uid="33382" user="de_muur" changeset="722317" lat="53.5341483" lon="10.3424235">
    <tag k="created_by" v="JOSM"/>
  </node>
  <node id="310786189" version="2" timestamp="2009-01-05T13:47:03Z" uid="33382" user="de_muur" changeset="739694" lat="53.5341927" lon="10.3422017">
    <tag k="created_by" v="JOSM"/>
  </node>
  <node id="310786191" version="1" timestamp="2008-11-09T14:59:13Z" uid="33382" user="de_muur" changeset="722317" lat="53.5320519" lon="10.3410329">
    <tag k="created_by" v="JOSM"/>
  </node>
  <node id="310786191" version="2" timestamp="2009-01-05T13:47:04Z" uid="33382" user="de_muur" changeset="739694" lat="53.5323624" lon="10.3410181">
    <tag k="created_by" v="JOSM"/>
  </node>
  <node id="310786193" version="1" timestamp="2008-11-09T14:59:13Z" uid="33382" user="de_muur" changeset="722317" lat="53.5315888" lon="10.3407808">
    <tag k="created_by" v="JOSM"/>
  </node>
  <node id="310786195" version="1" timestamp="2008-11-09T14:59:13Z" uid="33382" user="de_muur" changeset="722317" lat="53.5312289" lon="10.3404683">
    <tag k="created_by" v="JOSM"/>
  </node>
  <node id="310786195" version="2" timestamp="2009-09-25T15:08:21Z" uid="33382" user="de_muur" changeset="2621241" lat="53.5312253" lon="10.3403642"/>
  <node id="310786195" version="3" timestamp="2010-12-29T17:12:52Z" uid="33382" user="de_muur" changeset="6800921" lat="53.5312253" lon="10.3403642"/>
  <node id="310786197" version="1" timestamp="2008-11-09T14:59:13Z" uid="33382" user="de_muur" changeset="722317" lat="53.5309258" lon="10.339961">
    <tag k="created_by" v="JOSM"/>
  </node>
  <node id="310786197" version="2" timestamp="2010-12-29T17:12:52Z" uid="33382" user="de_muur" changeset="6800921" lat="53.5309258" lon="10.339961">
    <tag k="created_by" v="JOSM"/>
  </node>
  <node id="310786199" version="1" timestamp="2008-11-09T14:59:14Z" uid="33382" user="de_muur" changeset="722317" lat="53.5305872" lon="10.3395538">
    <tag k="created_by" v="JOSM"/>
  </node>
  <node id="310786199" version="2" timestamp="2010-12-29T17:12:04Z" uid="33382" user="de_muur" changeset="6800921" lat="53.5305872" lon="10.3395538"/>
  <node id="310786201" version="1" timestamp="2008-11-09T14:59:14Z" uid="33382" user="de_muur" changeset="722317" lat="53.5304231" lon="10.3394825">
    <tag k="created_by" v="JOSM"/>
  </node>
  <node id="310786201" version="2" timestamp="2010-12-29T17:12:46Z" uid="33382" user="de_muur" changeset="6800921" lat="53.5304231" lon="10.3394825">
    <tag k="created_by" v="JOSM"/>
  </node>
  <node id="310786203" version="1" timestamp="2008-11-09T14:59:14Z" uid="33382" user="de_muur" changeset="722317" lat="53.5302376" lon="10.3395112">
    <tag k="created_by" v="JOSM"/>
  </node>
  <node id="310786203" version="2" timestamp="2010-12-29T17:12:47Z" uid="33382" user="de_muur" changeset="6800921" lat="53.5302376" lon="10.3395112">
    <tag k="created_by" v="JOSM"/>
  </node>
  <node id="310786205" version="1" timestamp="2008-11-09T14:59:14Z" uid="33382" user="de_muur" changeset="722317" lat="53.5300843" lon="10.3396432">
    <tag k="created_by" v="JOSM"/>
  </node>
  <node id="310786205" version="2" timestamp="2010-12-29T17:12:04Z" uid="33382" user="de_muur" changeset="6800921" lat="53.5300843" lon="10.3396432"/>
  <node id="310786206" version="1" timestamp="2008-11-09T14:59:15Z" uid="33382" user="de_muur" changeset="722317" lat="53.5299494" lon="10.3398263">
    <tag k="created_by" v="JOSM"/>
  </node>
  <node id="310786206" version="2" timestamp="2010-12-29T17:12:03Z" uid="33382" user="de_muur" changeset="6800921" lat="53.5299494" lon="10.3398263"/>
  <node id="310786207" version="1" timestamp="2008-11-09T14:59:15Z" uid="33382" user="de_muur" changeset="722317" lat="53.5298294" lon="10.3400278">
    <tag k="created_by" v="JOSM"/>
  </node>
  <node id="310786207" version="2" timestamp="2010-12-29T17:12:47Z" uid="33382" user="de_muur" changeset="6800921" lat="53.5298294" lon="10.3400278">
    <tag k="created_by" v="JOSM"/>
  </node>
  <node id="310786208" version="1" timestamp="2008-11-09T14:59:15Z" uid="33382" user="de_muur" changeset="722317" lat="53.5297303" lon="10.3401673">
    <tag k="created_by" v="JOSM"/>
  </node>
  <node id="310786208" version="2" timestamp="2010-12-29T17:12:46Z" uid="33382" user="de_muur" changeset="6800921" lat="53.5297303" lon="10.3401673">
    <tag k="created_by" v="JOSM"/>
  </node>
  <node id="310786209" version="1" timestamp="2008-11-09T14:59:15Z" uid="33382" user="de_muur" changeset="722317" lat="53.5295775" lon="10.3403133">
    <tag k="created_by" v="JOSM"/>
  </node>
  <node id="310786209" version="2" timestamp="2010-12-29T17:12:47Z" uid="33382" user="de_muur" changeset="6800921" lat="53.5295775" lon="10.3403133">
    <tag k="created_by" v="JOSM"/>
  </node>
  <node id="310786210" version="1" timestamp="2008-11-09T14:59:15Z" uid="33382" user="de_muur" changeset="722317" lat="53.5294282" lon="10.3403366">
    <tag k="created_by" v="JOSM"/>
  </node>
  <node id="310786210" version="2" timestamp="2010-12-29T17:12:46Z" uid="33382" user="de_muur" changeset="6800921" lat="53.5294282" lon="10.3403366">
    <tag k="created_by" v="JOSM"/>
  </node>
  <node id="310786212" version="1" timestamp="2008-11-09T14:59:16Z" uid="33382" user="de_muur" changeset="722317" lat="53.5293565" lon="10.3403602">
    <tag k="created_by" v="JOSM"/>
  </node>
  <node id="310786212" version="2" timestamp="2010-12-29T17:12:03Z" uid="33382" user="de_muur" changeset="6800921" lat="53.5293565" lon="10.3403602"/>
  <node id="310786213" version="1" timestamp="2008-11-09T14:59:16Z" uid="33382" user="de_muur" changeset="722317" lat="53.5292162" lon="10.3404587">
    <tag k="created_by" v="JOSM"/>
  </node>
  <node id="310786213" version="2" timestamp="2010-12-29T17:12:03Z" uid="33382" user="de_muur" changeset="6800921" lat="53.5292162" lon="10.3404587"/>
  <node id="310786214" version="1" timestamp="2008-11-09T14:59:16Z" uid="33382" user="de_muur" changeset="722317" lat="53.5290807" lon="10.340601">
    <tag k="created_by" v="JOSM"/>
  </node>
  <node id="310786214" version="2" timestamp="2010-12-29T17:12:03Z" uid="33382" user="de_muur" changeset="6800921" lat="53.5290807" lon="10.340601"/>
  <node id="310786215" version="1" timestamp="2008-11-09T14:59:16Z" uid="33382" user="de_muur" changeset="722317" lat="53.5289552" lon="10.3407628">
    <tag k="created_by" v="JOSM"/>
  </node>
  <node id="310786215" version="2" timestamp="2010-12-29T17:12:45Z" uid="33382" user="de_muur" changeset="6800921" lat="53.5289552" lon="10.3407628">
    <tag k="created_by" v="JOSM"/>
  </node>
  <node id="310786216" version="1" timestamp="2008-11-09T14:59:17Z" uid="33382" user="de_muur" changeset="722317" lat="53.5288047" lon="10.3410176">
    <tag k="created_by" v="JOSM"/>
  </node>
  <node id="310786216" version="2" timestamp="2010-12-29T17:12:48Z" uid="33382" user="de_muur" changeset="6800921" lat="53.5288047" lon="10.3410176">
    <tag k="created_by" v="JOSM"/>
  </node>
  <node id="310786217" version="1" timestamp="2008-11-09T14:59:17Z" uid="33382" user="de_muur" changeset="722317" lat="53.5287334" lon="10.3411687">
    <tag k="created_by" v="JOSM"/>
  </node>
  <node id="310786217" version="2" timestamp="2010-12-29T17:12:48Z" uid="33382" user="de_muur" changeset="6800921" lat="53.5287334" lon="10.3411687">
    <tag k="created_by" v="JOSM"/>
  </node>
  <node id="310786218" version="1" timestamp="2008-11-09T14:59:17Z" uid="33382" user="de_muur" changeset="722317" lat="53.5286532" lon="10.341383">
    <tag k="created_by" v="JOSM"/>
  </node>
  <node id="310786218" version="2" timestamp="2010-12-29T17:12:48Z" uid="33382" user="de_muur" changeset="6800921" lat="53.5286532" lon="10.341383">
    <tag k="created_by" v="JOSM"/>
  </node>
  <node id="310786219" version="1" timestamp="2008-11-09T14:59:17Z" uid="33382" user="de_muur" changeset="722317" lat="53.528525" lon="10.3418385">
    <tag k="created_by" v="JOSM"/>
  </node>
  <node id="310786219" version="2" timestamp="2010-12-29T17:12:48Z" uid="33382" user="de_muur" changeset="6800921" lat="53.528525" lon="10.3418385">
    <tag k="created_by" v="JOSM"/>
  </node>
  <node id="310786221" version="1" timestamp="2008-11-09T14:59:17Z" uid="33382" user="de_muur" changeset="722317" lat="53.5284664" lon="10.3425445">
    <tag k="created_by" v="JOSM"/>
  </node>
  <node id="310786221" version="2" timestamp="2010-12-29T17:12:48Z" uid="33382" user="de_muur" changeset="6800921" lat="53.5284664" lon="10.3425445">
    <tag k="created_by" v="JOSM"/>
  </node>
  <node id="310786222" version="1" timestamp="2008-11-09T14:59:17Z" uid="33382" user="de_muur" changeset="722317" lat="53.5283376" lon="10.3431893">
    <tag k="created_by" v="JOSM"/>
  </node>
  <node id="310786222" version="2" timestamp="2010-12-29T17:12:49Z" uid="33382" user="de_muur" changeset="6800921" lat="53.5283376" lon="10.3431893">
    <tag k="created_by" v="JOSM"/>
  </node>
  <node id="310786223" version="1" timestamp="2008-11-09T14:59:18Z" uid="33382" user="de_muur" changeset="722317" lat="53.5282018" lon="10.3434868">
    <tag k="created_by" v="JOSM"/>
  </node>
  <node id="310786223" version="2" timestamp="2010-12-29T17:12:05Z" uid="33382" user="de_muur" changeset="6800921" lat="53.5282018" lon="10.3434868"/>
  <node id="310786224" version="1" timestamp="2008-11-09T14:59:18Z" uid="33382" user="de_muur" changeset="722317" lat="53.5280911" lon="10.3436666">
    <tag k="created_by" v="JOSM"/>
  </node>
  <node id="310786224" version="2" timestamp="2010-12-29T17:12:51Z" uid="33382" user="de_muur" changeset="6800921" lat="53.5280911" lon="10.3436666">
    <tag k="created_by" v="JOSM"/>
  </node>
  <node id="310786225" version="1" timestamp="2008-11-09T14:59:18Z" uid="33382" user="de_muur" changeset="722317" lat="53.5277489" lon="10.3439858">
    <tag k="created_by" v="JOSM"/>
  </node>
  <node id="310786225" version="2" timestamp="2010-12-29T17:12:05Z" uid="33382" user="de_muur" changeset="6800921" lat="53.5277489" lon="10.3439858"/>
  <node id="310786226" version="1" timestamp="2008-11-09T14:59:18Z" uid="33382" user="de_muur" changeset="722317" lat="53.5273375" lon="10.3441789">
    <tag k="created_by" v="JOSM"/>
  </node>
  <node id="310786226" version="2" timestamp="2010-12-29T17:12:50Z" uid="33382" user="de_muur" changeset="6800921" lat="53.5273375" lon="10.3441789">
    <tag k="created_by" v="JOSM"/>
  </node>
  <node id="310786227" version="1" timestamp="2008-11-09T14:59:18Z" uid="33382" user="de_muur" changeset="722317" lat="53.5273379" lon="10.3441775">
    <tag k="created_by" v="JOSM"/>
  </node>
  <node id="310786227" version="2" timestamp="2010-12-29T17:12:50Z" uid="33382" user="de_muur" changeset="6800921" lat="53.5273379" lon="10.3441775">
    <tag k="created_by" v="JOSM"/>
  </node>
  <node id="310786228" version="1" timestamp="2008-11-09T14:59:19Z" uid="33382" user="de_muur" changeset="722317" lat="53.5273377" lon="10.344178">
    <tag k="created_by" v="JOSM"/>
  </node>
  <node id="310786228" version="2" timestamp="2010-12-29T17:12:50Z" uid="33382" user="de_muur" changeset="6800921" lat="53.5273377" lon="10.344178">
    <tag k="created_by" v="JOSM"/>
  </node>
  <node id="310786230" version="1" timestamp="2008-11-09T14:59:19Z" uid="33382" user="de_muur" changeset="722317" lat="53.5273362" lon="10.3441783">
    <tag k="created_by" v="JOSM"/>
  </node>
  <node id="310786230" version="5" timestamp="2010-12-29T17:12:05Z" uid="33382" user="de_muur" changeset="6800921" lat="53.527336" lon="10.3441783"/>
  <node id="310786231" version="1" timestamp="2008-11-09T14:59:19Z" uid="33382" user="de_muur" changeset="722317" lat="53.5277466" lon="10.3439828">
    <tag k="created_by" v="JOSM"/>
  </node>
  <node id="310786231" version="2" timestamp="2010-12-29T17:12:51Z" uid="33382" user="de_muur" changeset="6800921" lat="53.5277466" lon="10.3439828">
    <tag k="created_by" v="JOSM"/>
  </node>
  <node id="310786232" version="1" timestamp="2008-11-09T14:59:19Z" uid="33382" user="de_muur" changeset="722317" lat="53.5280904" lon="10.3436661">
    <tag k="created_by" v="JOSM"/>
  </node>
  <node id="310786232" version="2" timestamp="2010-12-29T17:12:51Z" uid="33382" user="de_muur" changeset="6800921" lat="53.5280904" lon="10.3436661">
    <tag k="created_by" v="JOSM"/>
  </node>
  <node id="310786233" version="1" timestamp="2008-11-09T14:59:19Z" uid="33382" user="de_muur" changeset="722317" lat="53.5282" lon="10.3434864">
    <tag k="created_by" v="JOSM"/>
  </node>
  <node id="310786233" version="2" timestamp="2010-12-29T17:12:49Z" uid="33382" user="de_muur" changeset="6800921" lat="53.5282" lon="10.3434864">
    <tag k="created_by" v="JOSM"/>
  </node>
  <node id="310786234" version="1" timestamp="2008-11-09T14:59:19Z" uid="33382" user="de_muur" changeset="722317" lat="53.5283365" lon="10.3431891">
    <tag k="created_by" v="JOSM"/>
  </node>
  <node id="310786234" version="2" timestamp="2010-12-29T17:12:05Z" uid="33382" user="de_muur" changeset="6800921" lat="53.5283365" lon="10.3431891"/>
  <node id="310786235" version="1" timestamp="2008-11-09T14:59:20Z" uid="33382" user="de_muur" changeset="722317" lat="53.5284651" lon="10.3425444">
    <tag k="created_by" v="JOSM"/>
  </node>
  <node id="310786235" version="2" timestamp="2010-12-29T17:12:05Z" uid="33382" user="de_muur" changeset="6800921" lat="53.5284651" lon="10.3425444"/>
  <node id="310786236" version="1" timestamp="2008-11-09T14:59:20Z" uid="33382" user="de_muur" changeset="722317" lat="53.5285238" lon="10.3418384">
    <tag k="created_by" v="JOSM"/>
  </node>
  <node id="310786236" version="2" timestamp="2010-12-29T17:12:04Z" uid="33382" user="de_muur" changeset="6800921" lat="53.5285238" lon="10.3418384"/>
  <node id="310786238" version="1" timestamp="2008-11-09T14:59:20Z" uid="33382" user="de_muur" changeset="722317" lat="53.5286524" lon="10.3413825">
    <tag k="created_by" v="JOSM"/>
  </node>
  <node id="310786238" version="2" timestamp="2010-12-29T17:12:04Z" uid="33382" user="de_muur" changeset="6800921" lat="53.5286524" lon="10.3413825"/>
  <node id="310786239" version="1" timestamp="2008-11-09T14:59:20Z" uid="33382" user="de_muur" changeset="722317" lat="53.5287324" lon="10.3411682">
    <tag k="created_by" v="JOSM"/>
  </node>
  <node id="310786239" version="2" timestamp="2010-12-29T17:12:48Z" uid="33382" user="de_muur" changeset="6800921" lat="53.5287324" lon="10.3411682">
    <tag k="created_by" v="JOSM"/>
  </node>
  <node id="310786240" version="1" timestamp="2008-11-09T14:59:20Z" uid="33382" user="de_muur" changeset="722317" lat="53.5288036" lon="10.341017">
    <tag k="created_by" v="JOSM"/>
  </node>
  <node id="310786240" version="2" timestamp="2010-12-29T17:12:48Z" uid="33382" user="de_muur" changeset="6800921" lat="53.5288036" lon="10.341017">
    <tag k="created_by" v="JOSM"/>
  </node>
  <node id="310786242" version="1" timestamp="2008-11-09T14:59:21Z" uid="33382" user="de_muur" changeset="722317" lat="53.5289535" lon="10.3407619">
    <tag k="created_by" v="JOSM"/>
  </node>
  <node id="310786242" version="2" timestamp="2010-12-29T17:12:03Z" uid="33382" user="de_muur" changeset="6800921" lat="53.5289535" lon="10.3407619"/>
  <node id="310786247" version="1" timestamp="2008-11-09T14:59:21Z" uid="33382" user="de_muur" changeset="722317" lat="53.5290793" lon="10.3405999">
    <tag k="created_by" v="JOSM"/>
  </node>
  <node id="310786247" version="2" timestamp="2010-12-29T17:12:45Z" uid="33382" user="de_muur" changeset="6800921" lat="53.5290793" lon="10.3405999">
    <tag k="created_by" v="JOSM"/>
  </node>
  <node id="310786248" version="1" timestamp="2008-11-09T14:59:21Z" uid="33382" user="de_muur" changeset="722317" lat="53.5292155" lon="10.3404573">
    <tag k="created_by" v="JOSM"/>
  </node>
  <node id="310786248" version="2" timestamp="2010-12-29T17:12:46Z" uid="33382" user="de_muur" changeset="6800921" lat="53.5292155" lon="10.3404573">
    <tag k="created_by" v="JOSM"/>
  </node>
  <node id="310786249" version="1" timestamp="2008-11-09T14:59:21Z" uid="33382" user="de_muur" changeset="722317" lat="53.5293563" lon="10.3403585">
    <tag k="created_by" v="JOSM"/>
  </node>
  <node id="310786249" version="2" timestamp="2010-12-29T17:12:45Z" uid="33382" user="de_muur" changeset="6800921" lat="53.5293563" lon="10.3403585">
    <tag k="created_by" v="JOSM"/>
  </node>
  <node id="310786250" version="1" timestamp="2008-11-09T14:59:21Z" uid="33382" user="de_muur" changeset="722317" lat="53.5294279" lon="10.3403354">
    <tag k="created_by" v="JOSM"/>
  </node>
  <node id="310786250" version="2" timestamp="2010-12-29T17:12:46Z" uid="33382" user="de_muur" changeset="6800921" lat="53.5294279" lon="10.3403354">
    <tag k="created_by" v="JOSM"/>
  </node>
  <node id="310786251" version="1" timestamp="2008-11-09T14:59:22Z" uid="33382" user="de_muur" changeset="722317" lat="53.5295772" lon="10.3403122">
    <tag k="created_by" v="JOSM"/>
  </node>
  <node id="310786251" version="2" timestamp="2010-12-29T17:12:47Z" uid="33382" user="de_muur" changeset="6800921" lat="53.5295772" lon="10.3403122">
    <tag k="created_by" v="JOSM"/>
  </node>
  <node id="310786253" version="1" timestamp="2008-11-09T14:59:22Z" uid="33382" user="de_muur" changeset="722317" lat="53.52973" lon="10.3401663">
    <tag k="created_by" v="JOSM"/>
  </node>
  <node id="310786253" version="2" timestamp="2010-12-29T17:12:03Z" uid="33382" user="de_muur" changeset="6800921" lat="53.52973" lon="10.3401663"/>
  <node id="310786254" version="1" timestamp="2008-11-09T14:59:22Z" uid="33382" user="de_muur" changeset="722317" lat="53.5298281" lon="10.340027">
    <tag k="created_by" v="JOSM"/>
  </node>
  <node id="310786254" version="2" timestamp="2010-12-29T17:12:46Z" uid="33382" user="de_muur" changeset="6800921" lat="53.5298281" lon="10.340027">
    <tag k="created_by" v="JOSM"/>
  </node>
  <node id="310786255" version="1" timestamp="2008-11-09T14:59:23Z" uid="33382" user="de_muur" changeset="722317" lat="53.5299487" lon="10.3398259">
    <tag k="created_by" v="JOSM"/>
  </node>
  <node id="310786255" version="2" timestamp="2010-12-29T17:12:47Z" uid="33382" user="de_muur" changeset="6800921" lat="53.5299487" lon="10.3398259">
    <tag k="created_by" v="JOSM"/>
  </node>
  <node id="310786256" version="1" timestamp="2008-11-09T14:59:23Z" uid="33382" user="de_muur" changeset="722317" lat="53.5300834" lon="10.3396423">
    <tag k="created_by" v="JOSM"/>
  </node>
  <node id="310786256" version="2" timestamp="2010-12-29T17:12:47Z" uid="33382" user="de_muur" changeset="6800921" lat="53.5300834" lon="10.3396423">
    <tag k="created_by" v="JOSM"/>
  </node>
  <node id="310786257" version="1" timestamp="2008-11-09T14:59:23Z" uid="33382" user="de_muur" changeset="722317" lat="53.530237" lon="10.3395098">
    <tag k="created_by" v="JOSM"/>
  </node>
  <node id="310786257" version="2" timestamp="2010-12-29T17:12:04Z" uid="33382" user="de_muur" changeset="6800921" lat="53.530237" lon="10.3395098"/>
  <node id="310786258" version="1" timestamp="2008-11-09T14:59:23Z" uid="33382" user="de_muur" changeset="722317" lat="53.5304232" lon="10.3394816">
    <tag k="created_by" v="JOSM"/>
  </node>
  <node id="310786258" version="2" timestamp="2010-12-29T17:12:03Z" uid="33382" user="de_muur" changeset="6800921" lat="53.5304232" lon="10.3394816"/>
  <node id="310786259" version="1" timestamp="2008-11-09T14:59:23Z" uid="33382" user="de_muur" changeset="722317" lat="53.5305872" lon="10.3395535">
    <tag k="created_by" v="JOSM"/>
  </node>
  <node id="310786259" version="2" timestamp="2008-11-09T21:28:42Z" uid="33382" user="de_muur" changeset="724956" lat="53.5305873" lon="10.3395535">
    <tag k="created_by" v="JOSM"/>
  </node>
  <node id="310786259" version="3" timestamp="2010-12-29T17:12:47Z" uid="33382" user="de_muur" changeset="6800921" lat="53.5305873" lon="10.3395535">
    <tag k="created_by" v="JOSM"/>
  </node>
  <node id="310786260" version="1" timestamp="2008-11-09T14:59:24Z" uid="33382" user="de_muur" changeset="722317" lat="53.5309261" lon="10.3399606">
    <tag k="created_by" v="JOSM"/>
  </node>
  <node id="310786260" version="2" timestamp="2010-12-29T17:12:52Z" uid="33382" user="de_muur" changeset="6800921" lat="53.5309261" lon="10.3399606">
    <tag k="created_by" v="JOSM"/>
  </node>
  <node id="310786261" version="1" timestamp="2008-11-09T14:59:24Z" uid="33382" user="de_muur" changeset="722317" lat="53.5312293" lon="10.3404679">
    <tag k="created_by" v="JOSM"/>
  </node>
  <node id="310786261" version="2" timestamp="2009-09-25T15:08:22Z" uid="33382" user="de_muur" changeset="2621241" lat="53.5312257" lon="10.3403638"/>
  <node id="310786261" version="3" timestamp="2010-12-29T17:12:06Z" uid="33382" user="de_muur" changeset="6800921" lat="53.5312257" lon="10.3403638">
    <tag k="traffic_sign" v="city_limit"/>
  </node>
  <node id="310786262" version="1" timestamp="2008-11-09T14:59:24Z" uid="33382" user="de_muur" changeset="722317" lat="53.5315893" lon="10.3407801">
    <tag k="created_by" v="JOSM"/>
  </node>
  <node id="310786263" version="1" timestamp="2008-11-09T14:59:24Z" uid="33382" user="de_muur" changeset="722317" lat="53.5320521" lon="10.3410323">
    <tag k="created_by" v="JOSM"/>
  </node>
  <node id="310786263" version="2" timestamp="2009-01-05T13:47:02Z" uid="33382" user="de_muur" changeset="739694" lat="53.5323626" lon="10.3410175">
    <tag k="created_by" v="JOSM"/>
  </node>
  <node id="310786268" version="1" timestamp="2008-11-09T14:59:24Z" uid="33382" user="de_muur" changeset="722317" lat="53.5341492" lon="10.3424228">
    <tag k="created_by" v="JOSM"/>
  </node>
  <node id="310786268" version="2" timestamp="2009-01-05T13:47:04Z" uid="33382" user="de_muur" changeset="739694" lat="53.5341936" lon="10.342201">
    <tag k="created_by" v="JOSM"/>
  </node>
  <node id="310786269" version="1" timestamp="2008-11-09T14:59:24Z" uid="33382" user="de_muur" changeset="722317" lat="53.5375711" lon="10.3446693">
    <tag k="created_by" v="JOSM"/>
  </node>
  <node id="310786269" version="2" timestamp="2009-01-05T13:47:03Z" uid="33382" user="de_muur" changeset="739694" lat="53.5376598" lon="10.344418">
    <tag k="created_by" v="JOSM"/>
  </node>
  <node id="310786270" version="1" timestamp="2008-11-09T14:59:25Z" uid="33382" user="de_muur" changeset="722317" lat="53.5418529" lon="10.3474114">
    <tag k="created_by" v="JOSM"/>
  </node>
  <node id="310786270" version="2" timestamp="2009-01-05T13:57:25Z" uid="33382" user="de_muur" changeset="739694" lat="53.5418328" lon="10.3471899">
    <tag k="created_by" v="JOSM"/>
  </node>
  <node id="310786271" version="1" timestamp="2008-11-09T14:59:25Z" uid="33382" user="de_muur" changeset="722317" lat="53.5469267" lon="10.3507416">
    <tag k="created_by" v="JOSM"/>
  </node>
  <node id="310786271" version="2" timestamp="2009-01-05T13:57:24Z" uid="33382" user="de_muur" changeset="739694" lat="53.5469468" lon="10.3506006">
    <tag k="created_by" v="JOSM"/>
  </node>
  <node id="310786272" version="1" timestamp="2008-11-09T14:59:25Z" uid="33382" user="de_muur" changeset="722317" lat="53.5502774" lon="10.3528184">
    <tag k="created_by" v="JOSM"/>
  </node>
  <node id="310786272" version="2" timestamp="2010-08-22T15:54:25Z" uid="33382" user="de_muur" changeset="5562447" lat="53.5506487" lon="10.3530859"/>
  <node id="310786273" version="1" timestamp="2008-11-09T14:59:25Z" uid="33382" user="de_muur" changeset="722317" lat="53.5524745" lon="10.354363">
    <tag k="created_by" v="JOSM"/>
  </node>
  <node id="310786273" version="2" timestamp="2010-08-22T15:54:25Z" uid="33382" user="de_muur" changeset="5562447" lat="53.5524924" lon="10.3542646"/>
  <node id="310786274" version="1" timestamp="2008-11-09T14:59:25Z" uid="33382" user="de_muur" changeset="722317" lat="53.5528755" lon="10.3547193">
    <tag k="created_by" v="JOSM"/>
  </node>
  <node id="310786275" version="1" timestamp="2008-11-09T14:59:26Z" uid="33382" user="de_muur" changeset="722317" lat="53.5531325" lon="10.355176">
    <tag k="created_by" v="JOSM"/>
  </node>
  <node id="310786276" version="1" timestamp="2008-11-09T14:59:26Z" uid="33382" user="de_muur" changeset="722317" lat="53.5539515" lon="10.3572083">
    <tag k="created_by" v="JOSM"/>
  </node>
  <node id="310786277" version="1" timestamp="2008-11-09T14:59:26Z" uid="33382" user="de_muur" changeset="722317" lat="53.5552212" lon="10.3605189">
    <tag k="created_by" v="JOSM"/>
  </node>
  <node id="310786277" version="2" timestamp="2010-08-22T15:54:25Z" uid="33382" user="de_muur" changeset="5562447" lat="53.5548935" lon="10.3598089"/>
  <node id="310786279" version="1" timestamp="2008-11-09T14:59:26Z" uid="33382" user="de_muur" changeset="722317" lat="53.5572932" lon="10.3649469">
    <tag k="created_by" v="JOSM"/>
  </node>
  <node id="310786280" version="1" timestamp="2008-11-09T14:59:26Z" uid="33382" user="de_muur" changeset="722317" lat="53.5593024" lon="10.3691524">
    <tag k="created_by" v="JOSM"/>
  </node>
  <node id="310786281" version="1" timestamp="2008-11-09T14:59:26Z" uid="33382" user="de_muur" changeset="722317" lat="53.5597509" lon="10.3700795">
    <tag k="created_by" v="JOSM"/>
  </node>
  <node id="310786282" version="1" timestamp="2008-11-09T14:59:27Z" uid="33382" user="de_muur" changeset="722317" lat="53.5610981" lon="10.3715932">
    <tag k="created_by" v="JOSM"/>
  </node>
  <node id="310786683" version="2" timestamp="2008-11-09T20:39:41Z" uid="3451" user="sascha_silbe" changeset="723296" lat="48.5105964" lon="9.0792057"/>
  <node id="310786683" version="3" timestamp="2009-02-01T11:50:09Z" uid="3451" user="sascha_silbe" changeset="26439" lat="48.5105972" lon="9.0792022"/>
  <node id="310786686" version="2" timestamp="2008-11-09T20:39:40Z" uid="3451" user="sascha_silbe" changeset="723296" lat="48.5111705" lon="9.0790812"/>
  <node id="310786686" version="3" timestamp="2009-02-01T11:50:09Z" uid="3451" user="sascha_silbe" changeset="26439" lat="48.5111705" lon="9.0790812"/>
  <node id="310786689" version="2" timestamp="2009-02-01T11:50:09Z" uid="3451" user="sascha_silbe" changeset="26439" lat="48.5110906" lon="9.0794394"/>
  <node id="310786999" version="3" timestamp="2010-12-24T23:14:03Z" uid="9581" user="Lobelt" changeset="6757933" lat="49.9988922" lon="10.0787707"/>
  <node id="310787000" version="3" timestamp="2010-12-24T23:14:06Z" uid="9581" user="Lobelt" changeset="6757933" lat="49.9994363" lon="10.0799246"/>
  <node id="310787001" version="3" timestamp="2010-12-24T23:14:00Z" uid="9581" user="Lobelt" changeset="6757933" lat="49.9996893" lon="10.0802123"/>
  <node id="310787002" version="3" timestamp="2010-12-24T23:13:52Z" uid="9581" user="Lobelt" changeset="6757933" lat="50.0005337" lon="10.0806978"/>
  <node id="310787003" version="3" timestamp="2010-12-24T23:13:46Z" uid="9581" user="Lobelt" changeset="6757933" lat="50.0007805" lon="10.0809074"/>
  <node id="310788266" version="3" timestamp="2009-02-08T20:56:59Z" uid="6269" user="Mueck" changeset="273385" lat="48.9534513" lon="8.5757883"/>
  <node id="310788266" version="4" timestamp="2009-02-08T20:57:02Z" uid="6269" user="Mueck" changeset="273385" lat="48.9534513" lon="8.5757883"/>
  <node id="310788266" version="5" timestamp="2009-02-08T20:57:50Z" uid="6269" user="Mueck" changeset="273385" lat="48.9534513" lon="8.5757883"/>
  <node id="310788266" version="6" timestamp="2009-02-08T20:57:50Z" uid="6269" user="Mueck" changeset="273385" lat="48.9534513" lon="8.5757883"/>
  <node id="310788266" version="7" timestamp="2009-02-08T20:58:03Z" uid="6269" user="Mueck" changeset="273385" lat="48.9534513" lon="8.5757883"/>
  <node id="310788266" version="8" timestamp="2009-02-08T20:58:04Z" uid="6269" user="Mueck" changeset="273385" lat="48.9534513" lon="8.5757883"/>
  <node id="310788266" version="9" timestamp="2009-02-08T21:04:24Z" uid="6269" user="Mueck" changeset="273385" lat="48.9534513" lon="8.5757883"/>
  <node id="310788266" version="10" timestamp="2009-02-08T21:04:29Z" uid="6269" user="Mueck" changeset="273385" lat="48.9534513" lon="8.5757883"/>
  <node id="310788266" version="11" timestamp="2009-02-08T21:04:38Z" uid="6269" user="Mueck" changeset="273385" lat="48.9534513" lon="8.5757883"/>
  <node id="310788266" version="12" timestamp="2009-02-08T21:04:40Z" uid="6269" user="Mueck" changeset="273385" lat="48.9534513" lon="8.5757883"/>
  <node id="310788266" version="13" timestamp="2009-02-08T21:04:54Z" uid="6269" user="Mueck" changeset="273385" lat="48.9534513" lon="8.5757883"/>
  <node id="310788266" version="14" timestamp="2009-02-08T21:04:57Z" uid="6269" user="Mueck" changeset="273385" lat="48.9534513" lon="8.5757883"/>
  <node id="310788268" version="3" timestamp="2009-02-08T20:57:02Z" uid="6269" user="Mueck" changeset="273385" lat="48.9503491" lon="8.5777116"/>
  <node id="310788268" version="4" timestamp="2009-02-08T20:57:50Z" uid="6269" user="Mueck" changeset="273385" lat="48.9503491" lon="8.5777116"/>
  <node id="310788268" version="5" timestamp="2009-02-08T20:58:04Z" uid="6269" user="Mueck" changeset="273385" lat="48.9503491" lon="8.5777116"/>
  <node id="310788268" version="6" timestamp="2009-02-08T21:04:28Z" uid="6269" user="Mueck" changeset="273385" lat="48.9503491" lon="8.5777116"/>
  <node id="310788268" version="7" timestamp="2009-02-08T21:04:38Z" uid="6269" user="Mueck" changeset="273385" lat="48.9503491" lon="8.5777116"/>
  <node id="310788268" version="8" timestamp="2009-02-08T21:04:56Z" uid="6269" user="Mueck" changeset="273385" lat="48.9503491" lon="8.5777116"/>
  <node id="310788270" version="3" timestamp="2009-02-08T20:57:01Z" uid="6269" user="Mueck" changeset="273385" lat="48.9496454" lon="8.5780934"/>
  <node id="310788270" version="4" timestamp="2009-02-08T20:57:50Z" uid="6269" user="Mueck" changeset="273385" lat="48.9496454" lon="8.5780934"/>
  <node id="310788270" version="5" timestamp="2009-02-08T20:58:04Z" uid="6269" user="Mueck" changeset="273385" lat="48.9496454" lon="8.5780934"/>
  <node id="310788270" version="6" timestamp="2009-02-08T21:04:27Z" uid="6269" user="Mueck" changeset="273385" lat="48.9496454" lon="8.5780934"/>
  <node id="310788270" version="7" timestamp="2009-02-08T21:04:37Z" uid="6269" user="Mueck" changeset="273385" lat="48.9496454" lon="8.5780934"/>
  <node id="310788270" version="8" timestamp="2009-02-08T21:04:56Z" uid="6269" user="Mueck" changeset="273385" lat="48.9496454" lon="8.5780934"/>
  <node id="310788272" version="5" timestamp="2009-02-08T20:56:49Z" uid="6269" user="Mueck" changeset="273385" lat="48.9504185" lon="8.5797362"/>
  <node id="310788272" version="6" timestamp="2009-02-08T20:57:00Z" uid="6269" user="Mueck" changeset="273385" lat="48.9504185" lon="8.5797362"/>
  <node id="310788272" version="7" timestamp="2009-02-08T20:57:50Z" uid="6269" user="Mueck" changeset="273385" lat="48.9504185" lon="8.5797362"/>
  <node id="310788272" version="8" timestamp="2009-02-08T20:58:04Z" uid="6269" user="Mueck" changeset="273385" lat="48.9504185" lon="8.5797362"/>
  <node id="310788272" version="9" timestamp="2009-02-08T21:01:08Z" uid="6269" user="Mueck" changeset="273385" lat="48.9504185" lon="8.5797362"/>
  <node id="310788272" version="10" timestamp="2009-02-08T21:01:50Z" uid="6269" user="Mueck" changeset="273385" lat="48.9504185" lon="8.5797362"/>
  <node id="310788272" version="11" timestamp="2009-02-08T21:04:27Z" uid="6269" user="Mueck" changeset="273385" lat="48.9504185" lon="8.5797362"/>
  <node id="310788272" version="12" timestamp="2009-02-08T21:04:36Z" uid="6269" user="Mueck" changeset="273385" lat="48.9504185" lon="8.5797362"/>
  <node id="310788272" version="13" timestamp="2009-02-08T21:04:56Z" uid="6269" user="Mueck" changeset="273385" lat="48.9504185" lon="8.5797362"/>
  <node id="310788272" version="14" timestamp="2009-02-08T21:04:58Z" uid="6269" user="Mueck" changeset="273385" lat="48.9504185" lon="8.5797362"/>
  <node id="310788272" version="15" timestamp="2009-02-08T21:05:09Z" uid="6269" user="Mueck" changeset="273385" lat="48.9504185" lon="8.5797362"/>
  <node id="310788272" version="16" timestamp="2009-02-09T09:34:50Z" uid="6269" user="Mueck" changeset="291929" lat="48.9504185" lon="8.5797362"/>
  <node id="310788282" version="2" timestamp="2009-02-08T21:04:58Z" uid="6269" user="Mueck" changeset="273385" lat="48.9510429" lon="8.5803272"/>
  <node id="310788298" version="2" timestamp="2009-02-08T20:57:29Z" uid="6269" user="Mueck" changeset="273385" lat="48.9560236" lon="8.5876871"/>
  <node id="310788298" version="3" timestamp="2009-02-08T20:58:54Z" uid="6269" user="Mueck" changeset="273385" lat="48.9560236" lon="8.5876871"/>
  <node id="310788302" version="2" timestamp="2009-02-08T20:57:29Z" uid="6269" user="Mueck" changeset="273385" lat="48.9543198" lon="8.5804841"/>
  <node id="310788302" version="3" timestamp="2009-02-08T20:57:29Z" uid="6269" user="Mueck" changeset="273385" lat="48.9543198" lon="8.5804841"/>
  <node id="310788302" version="4" timestamp="2009-02-08T20:58:54Z" uid="6269" user="Mueck" changeset="273385" lat="48.9543198" lon="8.5804841"/>
  <node id="310788302" version="5" timestamp="2009-02-08T20:59:05Z" uid="6269" user="Mueck" changeset="273385" lat="48.9543198" lon="8.5804841"/>
  <node id="310788302" version="6" timestamp="2009-02-08T21:02:49Z" uid="6269" user="Mueck" changeset="273385" lat="48.9543198" lon="8.5804841"/>
  <node id="310788302" version="7" timestamp="2009-02-08T21:03:29Z" uid="6269" user="Mueck" changeset="273385" lat="48.9543198" lon="8.5804841"/>
  <node id="310788302" version="8" timestamp="2009-02-09T09:35:30Z" uid="6269" user="Mueck" changeset="291929" lat="48.9543198" lon="8.5804841"/>
  <node id="310788302" version="9" timestamp="2009-02-09T09:38:33Z" uid="6269" user="Mueck" changeset="291929" lat="48.9543198" lon="8.5804841"/>
  <node id="310788303" version="4" timestamp="2009-02-08T20:56:28Z" uid="6269" user="Mueck" changeset="273385" lat="48.953699" lon="8.5808054"/>
  <node id="310788303" version="5" timestamp="2009-02-08T20:56:50Z" uid="6269" user="Mueck" changeset="273385" lat="48.9536093" lon="8.5810221"/>
  <node id="310788303" version="6" timestamp="2009-02-08T20:57:29Z" uid="6269" user="Mueck" changeset="273385" lat="48.9536206" lon="8.580859"/>
  <node id="310788303" version="7" timestamp="2009-02-08T20:58:53Z" uid="6269" user="Mueck" changeset="273385" lat="48.9536206" lon="8.580859"/>
  <node id="310788303" version="8" timestamp="2009-02-08T21:00:55Z" uid="6269" user="Mueck" changeset="273385" lat="48.9536206" lon="8.580859"/>
  <node id="310788304" version="4" timestamp="2009-02-08T20:56:51Z" uid="6269" user="Mueck" changeset="273385" lat="48.9556171" lon="8.5878023"/>
  <node id="310788304" version="5" timestamp="2009-02-08T20:57:29Z" uid="6269" user="Mueck" changeset="273385" lat="48.9556171" lon="8.5878023"/>
  <node id="310788304" version="6" timestamp="2009-02-08T20:58:54Z" uid="6269" user="Mueck" changeset="273385" lat="48.9556171" lon="8.5878023"/>
  <node id="310788304" version="7" timestamp="2009-02-08T21:00:56Z" uid="6269" user="Mueck" changeset="273385" lat="48.9556171" lon="8.5878023"/>
  <node id="310788304" version="8" timestamp="2009-02-08T21:05:26Z" uid="6269" user="Mueck" changeset="273385" lat="48.9556171" lon="8.5878023"/>
  <node id="310788304" version="9" timestamp="2009-02-08T21:05:28Z" uid="6269" user="Mueck" changeset="273385" lat="48.9556171" lon="8.5878023"/>
  <node id="310788305" version="2" timestamp="2009-02-08T20:57:29Z" uid="6269" user="Mueck" changeset="273385" lat="48.9569806" lon="8.5873634"/>
  <node id="310788305" version="3" timestamp="2009-02-08T20:58:54Z" uid="6269" user="Mueck" changeset="273385" lat="48.9569806" lon="8.5873634"/>
  <node id="310788305" version="4" timestamp="2009-02-08T21:05:27Z" uid="6269" user="Mueck" changeset="273385" lat="48.9569806" lon="8.5873634"/>
  <node id="310788305" version="5" timestamp="2009-02-08T21:05:28Z" uid="6269" user="Mueck" changeset="273385" lat="48.9569806" lon="8.5873634"/>
  <node id="310788305" version="6" timestamp="2009-02-08T21:05:35Z" uid="6269" user="Mueck" changeset="273385" lat="48.9569806" lon="8.5873634"/>
  <node id="310788305" version="7" timestamp="2009-02-08T21:05:53Z" uid="6269" user="Mueck" changeset="273385" lat="48.9569806" lon="8.5873634"/>
  <node id="310788305" version="8" timestamp="2009-02-08T21:05:54Z" uid="6269" user="Mueck" changeset="273385" lat="48.9569806" lon="8.5873634"/>
  <node id="310788305" version="9" timestamp="2009-02-09T09:38:58Z" uid="6269" user="Mueck" changeset="291929" lat="48.9569806" lon="8.5873634"/>
  <node id="310788305" version="10" timestamp="2009-02-09T09:39:16Z" uid="6269" user="Mueck" changeset="291929" lat="48.9569806" lon="8.5873634"/>
  <node id="310788305" version="11" timestamp="2009-02-09T09:39:53Z" uid="6269" user="Mueck" changeset="291929" lat="48.9569806" lon="8.5873634"/>
  <node id="310788306" version="2" timestamp="2009-02-08T20:57:29Z" uid="6269" user="Mueck" changeset="273385" lat="48.9558261" lon="8.584502"/>
  <node id="310788306" version="3" timestamp="2009-02-08T20:58:54Z" uid="6269" user="Mueck" changeset="273385" lat="48.9558261" lon="8.584502"/>
  <node id="310788306" version="4" timestamp="2009-02-09T09:38:58Z" uid="6269" user="Mueck" changeset="291929" lat="48.9558261" lon="8.584502"/>
  <node id="310788306" version="5" timestamp="2009-02-09T09:39:16Z" uid="6269" user="Mueck" changeset="291929" lat="48.9558261" lon="8.584502"/>
  <node id="310788306" version="6" timestamp="2009-02-09T09:39:53Z" uid="6269" user="Mueck" changeset="291929" lat="48.9558261" lon="8.584502"/>
  <node id="310788338" version="4" timestamp="2009-02-08T20:56:45Z" uid="6269" user="Mueck" changeset="273385" lat="48.9544139" lon="8.5992855"/>
  <node id="310788338" version="5" timestamp="2009-02-08T21:01:06Z" uid="6269" user="Mueck" changeset="273385" lat="48.9544139" lon="8.5992855"/>
  <node id="310788338" version="6" timestamp="2009-02-08T21:01:49Z" uid="6269" user="Mueck" changeset="273385" lat="48.9544139" lon="8.5992855"/>
  <node id="310788338" version="7" timestamp="2009-02-08T21:05:05Z" uid="6269" user="Mueck" changeset="273385" lat="48.9544139" lon="8.5992855"/>
  <node id="310788338" version="8" timestamp="2009-02-09T09:34:50Z" uid="6269" user="Mueck" changeset="291929" lat="48.9544139" lon="8.5992855"/>
</osm>
