<?xml version='1.0' encoding='UTF-8'?>
<osm version="0.6" generator="libosmium/2.20.0">
  <node id="311031980" version="6" timestamp="2009-10-02T20:03:27Z" uid="86259" user="hasse_osm_korinthenkacker" changeset="2717024" lat="47.8775987" lon="11.7179281">
    <tag k="addr:city" v="Holzkirchen"/>
    <tag k="addr:country" v="DE"/>
    <tag k="addr:housenumber" v="1"/>
    <tag k="addr:postcode" v="83607"/>
    <tag k="addr:street" v="Industriestraße"/>
    <tag k="name" v="Franz Schmid GmbH"/>
    <tag k="source" v="survey"/>
  </node>
  <node id="311031980" version="7" timestamp="2009-10-22T21:31:27Z" uid="36809" user="pfoten_weg_!_" changeset="2925729" lat="47.8775987" lon="11.7179281">
    <tag k="addr:city" v="Holzkirchen"/>
    <tag k="addr:country" v="DE"/>
    <tag k="addr:housenumber" v="1"/>
    <tag k="addr:postcode" v="83607"/>
    <tag k="addr:street" v="Industriestraße"/>
    <tag k="name" v="Franz Schmid GmbH"/>
  </node>
  <node id="311032796" version="4" timestamp="2009-10-02T20:03:28Z" uid="86259" user="hasse_osm_korinthenkacker" changeset="2717024" lat="47.8781925" lon="11.7177936">
    <tag k="addr:city" v="Holzkirchen"/>
    <tag k="addr:country" v="DE"/>
    <tag k="addr:housenumber" v="2"/>
    <tag k="addr:postcode" v="83607"/>
    <tag k="addr:street" v="Industriestraße"/>
    <tag k="name" v="CCL Label GmbH"/>
    <tag k="source" v="survey"/>
  </node>
  <node id="311032796" version="5" timestamp="2009-10-22T21:31:29Z" uid="36809" user="pfoten_weg_!_" changeset="2925729" lat="47.8781925" lon="11.7177936">
    <tag k="addr:city" v="Holzkirchen"/>
    <tag k="addr:country" v="DE"/>
    <tag k="addr:housenumber" v="2"/>
    <tag k="addr:postcode" v="83607"/>
    <tag k="addr:street" v="Industriestraße"/>
    <tag k="name" v="CCL Label GmbH"/>
  </node>
  <node id="311032802" version="9" timestamp="2009-10-02T20:04:01Z" uid="86259" user="hasse_osm_korinthenkacker" changeset="2717024" lat="47.8804299" lon="11.7098941">
    <tag k="name" v="Getränkehimmel"/>
    <tag k="source" v="survey"/>
  </node>
  <node id="311034079" version="1" timestamp="2008-11-10T11:54:09Z" uid="27600" user="Islanit" changeset="730119" lat="53.4427735" lon="10.2783778"/>
  <node id="311034079" version="2" timestamp="2008-11-10T11:54:25Z" uid="27600" user="Islanit" changeset="730119" lat="53.4427735" lon="10.2783778"/>
  <node id="311034079" version="3" timestamp="2008-11-10T11:54:27Z" uid="27600" user="Islanit" changeset="730119" lat="53.4427735" lon="10.2783778"/>
  <node id="311034081" version="1" timestamp="2008-11-10T11:54:10Z" uid="27600" user="Islanit" changeset="730119" lat="53.444665" lon="10.2667906"/>
  <node id="311034081" version="2" timestamp="2008-11-10T11:54:25Z" uid="27600" user="Islanit" changeset="730119" lat="53.444665" lon="10.2667906"/>
  <node id="311034082" version="1" timestamp="2008-11-10T11:54:10Z" uid="27600" user="Islanit" changeset="730119" lat="53.4523835" lon="10.2471354"/>
  <node id="311034082" version="2" timestamp="2008-11-10T11:54:25Z" uid="27600" user="Islanit" changeset="730119" lat="53.4528435" lon="10.2475646"/>
  <node id="311034082" version="3" timestamp="2010-11-23T07:19:49Z" uid="27600" user="Islanit" changeset="6437147" lat="53.4531102" lon="10.247995"/>
  <node id="311034084" version="1" timestamp="2008-11-10T11:54:10Z" uid="27600" user="Islanit" changeset="730119" lat="53.4595385" lon="10.2372649"/>
  <node id="311034084" version="2" timestamp="2008-11-10T11:54:25Z" uid="27600" user="Islanit" changeset="730119" lat="53.4595385" lon="10.2372649"/>
  <node id="311034084" version="3" timestamp="2010-11-23T07:20:44Z" uid="27600" user="Islanit" changeset="6437147" lat="53.4594602" lon="10.2377275"/>
  <node id="311034086" version="1" timestamp="2008-11-10T11:54:10Z" uid="27600" user="Islanit" changeset="730119" lat="53.4502367" lon="10.2335742"/>
  <node id="311034086" version="2" timestamp="2008-11-10T11:54:25Z" uid="27600" user="Islanit" changeset="730119" lat="53.4502367" lon="10.2335742"/>
  <node id="311034086" version="3" timestamp="2010-11-23T07:20:44Z" uid="27600" user="Islanit" changeset="6437147" lat="53.4505865" lon="10.233436"/>
  <node id="311034088" version="1" timestamp="2008-11-10T11:54:10Z" uid="27600" user="Islanit" changeset="730119" lat="53.4477832" lon="10.2379515"/>
  <node id="311034088" version="2" timestamp="2008-11-10T11:54:25Z" uid="27600" user="Islanit" changeset="730119" lat="53.4477832" lon="10.2379515"/>
  <node id="311034089" version="1" timestamp="2008-11-10T11:54:10Z" uid="27600" user="Islanit" changeset="730119" lat="53.4434892" lon="10.238724"/>
  <node id="311034089" version="2" timestamp="2008-11-10T11:54:25Z" uid="27600" user="Islanit" changeset="730119" lat="53.4434892" lon="10.238724"/>
  <node id="311034091" version="1" timestamp="2008-11-10T11:54:10Z" uid="27600" user="Islanit" changeset="730119" lat="53.4419044" lon="10.2420714"/>
  <node id="311034091" version="2" timestamp="2008-11-10T11:54:25Z" uid="27600" user="Islanit" changeset="730119" lat="53.4419044" lon="10.2420714"/>
  <node id="311034093" version="1" timestamp="2008-11-10T11:54:10Z" uid="27600" user="Islanit" changeset="730119" lat="53.439297" lon="10.2411273"/>
  <node id="311034093" version="2" timestamp="2008-11-10T11:54:26Z" uid="27600" user="Islanit" changeset="730119" lat="53.439297" lon="10.2411273"/>
  <node id="311034095" version="1" timestamp="2008-11-10T11:54:11Z" uid="27600" user="Islanit" changeset="730119" lat="53.4277918" lon="10.2558043"/>
  <node id="311034095" version="2" timestamp="2008-11-10T11:54:26Z" uid="27600" user="Islanit" changeset="730119" lat="53.4277918" lon="10.2558043"/>
  <node id="311034098" version="1" timestamp="2008-11-10T11:54:11Z" uid="27600" user="Islanit" changeset="730119" lat="53.4269735" lon="10.2575209"/>
  <node id="311034098" version="2" timestamp="2008-11-10T11:54:26Z" uid="27600" user="Islanit" changeset="730119" lat="53.4269735" lon="10.2575209"/>
  <node id="311034100" version="1" timestamp="2008-11-10T11:54:11Z" uid="27600" user="Islanit" changeset="730119" lat="53.4313204" lon="10.2690222"/>
  <node id="311034100" version="2" timestamp="2008-11-10T11:54:26Z" uid="27600" user="Islanit" changeset="730119" lat="53.4313204" lon="10.2690222"/>
  <node id="311034103" version="1" timestamp="2008-11-10T11:54:11Z" uid="27600" user="Islanit" changeset="730119" lat="53.4337237" lon="10.2703955"/>
  <node id="311034103" version="2" timestamp="2008-11-10T11:54:26Z" uid="27600" user="Islanit" changeset="730119" lat="53.4337237" lon="10.2703955"/>
  <node id="311034108" version="1" timestamp="2008-11-10T11:54:11Z" uid="27600" user="Islanit" changeset="730119" lat="53.4336215" lon="10.2750304"/>
  <node id="311034108" version="2" timestamp="2008-11-10T11:54:26Z" uid="27600" user="Islanit" changeset="730119" lat="53.4336215" lon="10.2750304"/>
  <node id="311034281" version="8" timestamp="2009-10-02T20:03:28Z" uid="86259" user="hasse_osm_korinthenkacker" changeset="2717024" lat="47.8775699" lon="11.7180483">
    <tag k="addr:city" v="Holzkirchen"/>
    <tag k="addr:country" v="DE"/>
    <tag k="addr:housenumber" v="1"/>
    <tag k="addr:postcode" v="83607"/>
    <tag k="addr:street" v="Industriestraße"/>
    <tag k="name" v="Schmid Franz Kfz-Werkstatt"/>
    <tag k="source" v="survey"/>
  </node>
  <node id="311034281" version="9" timestamp="2009-10-22T21:31:29Z" uid="36809" user="pfoten_weg_!_" changeset="2925729" lat="47.8775699" lon="11.7180483">
    <tag k="addr:city" v="Holzkirchen"/>
    <tag k="addr:country" v="DE"/>
    <tag k="addr:housenumber" v="1"/>
    <tag k="addr:postcode" v="83607"/>
    <tag k="addr:street" v="Industriestraße"/>
    <tag k="name" v="Schmid Franz Kfz-Werkstatt"/>
  </node>
  <node id="311034304" version="8" timestamp="2009-10-02T20:03:28Z" uid="86259" user="hasse_osm_korinthenkacker" changeset="2717024" lat="47.8775411" lon="11.7181771">
    <tag k="addr:city" v="Holzkirchen"/>
    <tag k="addr:country" v="DE"/>
    <tag k="addr:housenumber" v="1"/>
    <tag k="addr:postcode" v="83607"/>
    <tag k="addr:street" v="Industriestraße"/>
    <tag k="name" v="Autovermietung AVIS"/>
    <tag k="source" v="survey"/>
  </node>
  <node id="311034304" version="9" timestamp="2009-10-22T21:31:28Z" uid="36809" user="pfoten_weg_!_" changeset="2925729" lat="47.8775411" lon="11.7181771">
    <tag k="addr:city" v="Holzkirchen"/>
    <tag k="addr:country" v="DE"/>
    <tag k="addr:housenumber" v="1"/>
    <tag k="addr:postcode" v="83607"/>
    <tag k="addr:street" v="Industriestraße"/>
    <tag k="name" v="Autovermietung AVIS"/>
  </node>
  <node id="311034823" version="7" timestamp="2009-10-02T20:03:28Z" uid="86259" user="hasse_osm_korinthenkacker" changeset="2717024" lat="47.8775066" lon="11.7183058">
    <tag k="addr:city" v="Holzkirchen"/>
    <tag k="addr:country" v="DE"/>
    <tag k="addr:housenumber" v="1"/>
    <tag k="addr:postcode" v="83607"/>
    <tag k="addr:street" v="Industriestraße"/>
    <tag k="name" v="Automobilvertriebsgesellschaft mbH"/>
    <tag k="source" v="survey"/>
  </node>
  <node id="311034823" version="8" timestamp="2009-10-22T21:31:30Z" uid="36809" user="pfoten_weg_!_" changeset="2925729" lat="47.8775066" lon="11.7183058">
    <tag k="addr:city" v="Holzkirchen"/>
    <tag k="addr:country" v="DE"/>
    <tag k="addr:housenumber" v="1"/>
    <tag k="addr:postcode" v="83607"/>
    <tag k="addr:street" v="Industriestraße"/>
    <tag k="name" v="Automobilvertriebsgesellschaft mbH"/>
  </node>
  <node id="311035470" version="1" timestamp="2008-11-10T11:56:59Z" uid="9581" user="Lobelt" changeset="727683" lat="51.4256458" lon="14.5375771"/>
  <node id="311035472" version="1" timestamp="2008-11-10T11:56:59Z" uid="9581" user="Lobelt" changeset="727683" lat="51.4258096" lon="14.5372852"/>
  <node id="311035474" version="1" timestamp="2008-11-10T11:56:59Z" uid="9581" user="Lobelt" changeset="727683" lat="51.4259515" lon="14.5382484"/>
  <node id="311035476" version="1" timestamp="2008-11-10T11:56:59Z" uid="9581" user="Lobelt" changeset="727683" lat="51.4232397" lon="14.5369466"/>
  <node id="311035479" version="1" timestamp="2008-11-10T11:57:00Z" uid="9581" user="Lobelt" changeset="727683" lat="51.4231669" lon="14.537075"/>
  <node id="311035481" version="1" timestamp="2008-11-10T11:57:00Z" uid="9581" user="Lobelt" changeset="727683" lat="51.423014" lon="14.5380558"/>
  <node id="311035483" version="1" timestamp="2008-11-10T11:57:00Z" uid="9581" user="Lobelt" changeset="727683" lat="51.4228648" lon="14.5383593"/>
  <node id="311035485" version="1" timestamp="2008-11-10T11:57:00Z" uid="9581" user="Lobelt" changeset="727683" lat="51.4224898" lon="14.5390131"/>
  <node id="311035487" version="1" timestamp="2008-11-10T11:57:00Z" uid="9581" user="Lobelt" changeset="727683" lat="51.422417" lon="14.5391124"/>
  <node id="311035489" version="1" timestamp="2008-11-10T11:57:00Z" uid="9581" user="Lobelt" changeset="727683" lat="51.4222787" lon="14.5392583"/>
  <node id="311035492" version="1" timestamp="2008-11-10T11:57:00Z" uid="9581" user="Lobelt" changeset="727683" lat="51.4216744" lon="14.5402566"/>
  <node id="311035494" version="1" timestamp="2008-11-10T11:57:01Z" uid="9581" user="Lobelt" changeset="727683" lat="51.4227191" lon="14.5399238"/>
  <node id="311035496" version="1" timestamp="2008-11-10T11:57:01Z" uid="9581" user="Lobelt" changeset="727683" lat="51.4232178" lon="14.5408754"/>
  <node id="311035498" version="1" timestamp="2008-11-10T11:57:01Z" uid="9581" user="Lobelt" changeset="727683" lat="51.4234144" lon="14.5413249"/>
  <node id="311035502" version="1" timestamp="2008-11-10T11:57:01Z" uid="9581" user="Lobelt" changeset="727683" lat="51.4260134" lon="14.5382075"/>
  <node id="311035504" version="1" timestamp="2008-11-10T11:57:01Z" uid="9581" user="Lobelt" changeset="727683" lat="51.4261372" lon="14.5370984"/>
  <node id="311035507" version="1" timestamp="2008-11-10T11:57:02Z" uid="9581" user="Lobelt" changeset="727683" lat="51.4130382" lon="14.5218153"/>
  <node id="311035510" version="1" timestamp="2008-11-10T11:57:02Z" uid="9581" user="Lobelt" changeset="727683" lat="51.412759" lon="14.5238663"/>
  <node id="311035512" version="1" timestamp="2008-11-10T11:57:02Z" uid="9581" user="Lobelt" changeset="727683" lat="51.414072" lon="14.5228236"/>
  <node id="311035514" version="1" timestamp="2008-11-10T11:57:02Z" uid="9581" user="Lobelt" changeset="727683" lat="51.4141947" lon="14.5248155"/>
  <node id="311035516" version="1" timestamp="2008-11-10T11:57:02Z" uid="9581" user="Lobelt" changeset="727683" lat="51.4163788" lon="14.5225826"/>
  <node id="311035518" version="1" timestamp="2008-11-10T11:57:02Z" uid="9581" user="Lobelt" changeset="727683" lat="51.416434" lon="14.5225334"/>
  <node id="311035520" version="1" timestamp="2008-11-10T11:57:02Z" uid="9581" user="Lobelt" changeset="727683" lat="51.4177223" lon="14.5225088"/>
  <node id="311035767" version="6" timestamp="2009-10-02T20:03:27Z" uid="86259" user="hasse_osm_korinthenkacker" changeset="2717024" lat="47.8773059" lon="11.716858">
    <tag k="addr:city" v="Holzkirchen"/>
    <tag k="addr:country" v="DE"/>
    <tag k="addr:housenumber" v="5"/>
    <tag k="addr:postcode" v="83607"/>
    <tag k="addr:street" v="Industriestraße"/>
    <tag k="name" v="Brauereigenossenschaft Holzkirchen"/>
    <tag k="source" v="survey"/>
  </node>
  <node id="311035767" version="7" timestamp="2009-10-22T21:31:26Z" uid="36809" user="pfoten_weg_!_" changeset="2925729" lat="47.8773059" lon="11.716858">
    <tag k="addr:city" v="Holzkirchen"/>
    <tag k="addr:country" v="DE"/>
    <tag k="addr:housenumber" v="5"/>
    <tag k="addr:postcode" v="83607"/>
    <tag k="addr:street" v="Industriestraße"/>
    <tag k="name" v="Brauereigenossenschaft Holzkirchen"/>
  </node>
  <node id="311036746" version="10" timestamp="2009-01-30T14:10:25Z" uid="9581" user="Lobelt" changeset="855574" lat="50.6281769" lon="11.8384985"/>
  <node id="311036901" version="5" timestamp="2009-10-02T20:03:27Z" uid="86259" user="hasse_osm_korinthenkacker" changeset="2717024" lat="47.877329" lon="11.7167379">
    <tag k="addr:city" v="Holzkirchen"/>
    <tag k="addr:country" v="DE"/>
    <tag k="addr:housenumber" v="5"/>
    <tag k="addr:postcode" v="83607"/>
    <tag k="addr:street" v="Industriestraße"/>
    <tag k="name" v="König Ludwig Brauerei"/>
    <tag k="source" v="survey"/>
  </node>
  <node id="311036901" version="6" timestamp="2009-10-22T21:31:25Z" uid="36809" user="pfoten_weg_!_" changeset="2925729" lat="47.877329" lon="11.7167379">
    <tag k="addr:city" v="Holzkirchen"/>
    <tag k="addr:country" v="DE"/>
    <tag k="addr:housenumber" v="5"/>
    <tag k="addr:postcode" v="83607"/>
    <tag k="addr:street" v="Industriestraße"/>
    <tag k="name" v="König Ludwig Brauerei"/>
  </node>
  <node id="311037351" version="5" timestamp="2009-10-02T20:03:27Z" uid="86259" user="hasse_osm_korinthenkacker" changeset="2717024" lat="47.8773405" lon="11.7166091">
    <tag k="addr:city" v="Holzkirchen"/>
    <tag k="addr:country" v="DE"/>
    <tag k="addr:housenumber" v="5"/>
    <tag k="addr:postcode" v="83607"/>
    <tag k="addr:street" v="Industriestraße"/>
    <tag k="name" v="König Ludwig Schloßbrauerei Kaltenberg"/>
    <tag k="source" v="survey"/>
  </node>
  <node id="311037351" version="6" timestamp="2009-10-22T21:31:26Z" uid="36809" user="pfoten_weg_!_" changeset="2925729" lat="47.8773405" lon="11.7166091">
    <tag k="addr:city" v="Holzkirchen"/>
    <tag k="addr:country" v="DE"/>
    <tag k="addr:housenumber" v="5"/>
    <tag k="addr:postcode" v="83607"/>
    <tag k="addr:street" v="Industriestraße"/>
    <tag k="name" v="König Ludwig Schloßbrauerei Kaltenberg"/>
  </node>
  <node id="311037845" version="6" timestamp="2011-04-30T10:34:44Z" uid="9581" user="Lobelt" changeset="8010493" lat="49.6389459" lon="7.9001819"/>
  <node id="311039072" version="7" timestamp="2009-10-02T20:03:27Z" uid="86259" user="hasse_osm_korinthenkacker" changeset="2717024" lat="47.8778094" lon="11.7168146">
    <tag k="addr:city" v="Holzkirchen"/>
    <tag k="addr:country" v="DE"/>
    <tag k="addr:housenumber" v="7"/>
    <tag k="addr:postcode" v="83607"/>
    <tag k="addr:street" v="Industriestraße"/>
    <tag k="name" v="Garbe´s Gartenhof"/>
    <tag k="source" v="survey"/>
  </node>
  <node id="311039072" version="8" timestamp="2009-10-22T21:31:26Z" uid="36809" user="pfoten_weg_!_" changeset="2925729" lat="47.8778094" lon="11.7168146">
    <tag k="addr:city" v="Holzkirchen"/>
    <tag k="addr:country" v="DE"/>
    <tag k="addr:housenumber" v="7"/>
    <tag k="addr:postcode" v="83607"/>
    <tag k="addr:street" v="Industriestraße"/>
    <tag k="name" v="Garbe´s Gartenhof"/>
  </node>
  <node id="311039854" version="5" timestamp="2009-10-02T20:03:44Z" uid="86259" user="hasse_osm_korinthenkacker" changeset="2717024" lat="47.8800519" lon="11.7047302">
    <tag k="addr:city" v="Holzkirchen"/>
    <tag k="addr:country" v="DE"/>
    <tag k="addr:housenumber" v="51"/>
    <tag k="addr:postcode" v="83607"/>
    <tag k="addr:street" v="Industriestraße"/>
    <tag k="name" v="Kindergarten Frühlingsdorf"/>
    <tag k="source" v="survey"/>
  </node>
</osm>
