<?xml version='1.0' encoding='UTF-8'?>
<osm version="0.6" generator="libosmium/2.20.0">
  <node id="311330840" version="2" timestamp="2010-05-28T00:54:18Z" uid="20587" user="balrog-kun" changeset="4827116" lat="50.0600036" lon="19.9276265">
    <tag k="historic" v="monument"/>
    <tag k="name" v="Pomnik Marszałka Józefa Piłsudskiego i Legionistów"/>
  </node>
  <node id="311331965" version="2" timestamp="2008-11-23T11:30:18Z" uid="8619" user="cetest" changeset="784304" lat="52.0072362" lon="4.3632648">
    <tag k="created_by" v="Merkaartor 0.12"/>
  </node>
  <node id="311331967" version="2" timestamp="2008-11-23T11:30:19Z" uid="8619" user="cetest" changeset="784304" lat="52.0073295" lon="4.3635217">
    <tag k="created_by" v="Merkaartor 0.12"/>
  </node>
  <node id="311331968" version="2" timestamp="2008-11-23T11:30:08Z" uid="8619" user="cetest" changeset="784304" lat="52.0074687" lon="4.3633085">
    <tag k="created_by" v="Merkaartor 0.12"/>
  </node>
  <node id="311331973" version="2" timestamp="2008-11-23T11:30:09Z" uid="8619" user="cetest" changeset="784304" lat="52.0081117" lon="4.3624969">
    <tag k="created_by" v="Merkaartor 0.12"/>
  </node>
  <node id="311331974" version="2" timestamp="2008-11-23T11:30:11Z" uid="8619" user="cetest" changeset="784304" lat="52.0072318" lon="4.3627804">
    <tag k="created_by" v="Merkaartor 0.12"/>
  </node>
  <node id="311332039" version="4" timestamp="2009-10-03T13:54:33Z" uid="179968" user="Ich_hasse_doitsche_OSM-Korinthenkacker" changeset="2724114" lat="52.2135303" lon="10.6284721">
    <tag k="addr:city" v="Sickte"/>
    <tag k="addr:housenumber" v="7"/>
    <tag k="addr:postcode" v="38173"/>
    <tag k="addr:street" v="Heckenweg"/>
  </node>
  <node id="311332040" version="4" timestamp="2009-10-03T13:54:33Z" uid="179968" user="Ich_hasse_doitsche_OSM-Korinthenkacker" changeset="2724114" lat="52.2133147" lon="10.6285579">
    <tag k="addr:city" v="Sickte"/>
    <tag k="addr:housenumber" v="6"/>
    <tag k="addr:postcode" v="38173"/>
    <tag k="addr:street" v="Heckenweg"/>
  </node>
  <node id="311332044" version="5" timestamp="2009-10-03T13:34:38Z" uid="179968" user="Ich_hasse_doitsche_OSM-Korinthenkacker" changeset="2723894" lat="52.2126889" lon="10.6291244">
    <tag k="addr:city" v="Sickte"/>
    <tag k="addr:housenumber" v="3"/>
    <tag k="addr:postcode" v="38173"/>
    <tag k="addr:street" v="Heckenweg"/>
  </node>
  <node id="311332045" version="4" timestamp="2009-10-03T13:34:38Z" uid="179968" user="Ich_hasse_doitsche_OSM-Korinthenkacker" changeset="2723894" lat="52.2124312" lon="10.6295107">
    <tag k="addr:city" v="Sickte"/>
    <tag k="addr:housenumber" v="2"/>
    <tag k="addr:postcode" v="38173"/>
    <tag k="addr:street" v="Heckenweg"/>
  </node>
  <node id="311332884" version="4" timestamp="2009-10-03T13:34:37Z" uid="179968" user="Ich_hasse_doitsche_OSM-Korinthenkacker" changeset="2723894" lat="52.2123365" lon="10.6292017">
    <tag k="addr:city" v="Sickte"/>
    <tag k="addr:housenumber" v="1"/>
    <tag k="addr:postcode" v="38173"/>
    <tag k="addr:street" v="Heckenweg"/>
  </node>
  <node id="311333605" version="2" timestamp="2008-11-23T11:30:08Z" uid="8619" user="cetest" changeset="784304" lat="52.0075784" lon="4.3632331">
    <tag k="created_by" v="Merkaartor 0.12"/>
  </node>
  <node id="311334082" version="2" timestamp="2010-06-29T19:00:30Z" uid="74617" user="JohnSmith" changeset="5108182" lat="51.2951741" lon="-0.3608033">
    <tag k="fixme" v="sport=football is ambiguous, see http://wiki.osm.org/wiki/Football for more details"/>
    <tag k="name" v="Fetcham Football Club"/>
    <tag k="sport" v="football"/>
  </node>
  <node id="311335719" version="2" timestamp="2009-01-14T10:54:17Z" uid="9581" user="Lobelt" changeset="787373" lat="50.5018955" lon="11.5406751"/>
  <node id="311336040" version="4" timestamp="2009-10-03T13:54:32Z" uid="179968" user="Ich_hasse_doitsche_OSM-Korinthenkacker" changeset="2724114" lat="52.2133252" lon="10.6276996">
    <tag k="addr:city" v="Sickte"/>
    <tag k="addr:housenumber" v="20"/>
    <tag k="addr:postcode" v="38173"/>
    <tag k="addr:street" v="Heckenweg"/>
  </node>
  <node id="311336041" version="4" timestamp="2009-10-03T13:54:32Z" uid="179968" user="Ich_hasse_doitsche_OSM-Korinthenkacker" changeset="2724114" lat="52.2134567" lon="10.6276224">
    <tag k="addr:city" v="Sickte"/>
    <tag k="addr:housenumber" v="21"/>
    <tag k="addr:postcode" v="38173"/>
    <tag k="addr:street" v="Heckenweg"/>
  </node>
  <node id="311336042" version="4" timestamp="2009-10-03T13:54:33Z" uid="179968" user="Ich_hasse_doitsche_OSM-Korinthenkacker" changeset="2724114" lat="52.2136197" lon="10.6280258">
    <tag k="addr:city" v="Sickte"/>
    <tag k="addr:housenumber" v="22"/>
    <tag k="addr:postcode" v="38173"/>
    <tag k="addr:street" v="Heckenweg"/>
  </node>
  <node id="311336043" version="5" timestamp="2009-10-03T13:54:32Z" uid="179968" user="Ich_hasse_doitsche_OSM-Korinthenkacker" changeset="2724114" lat="52.213789" lon="10.6278661">
    <tag k="addr:city" v="Sickte"/>
    <tag k="addr:housenumber" v="23"/>
    <tag k="addr:postcode" v="38173"/>
    <tag k="addr:street" v="Heckenweg"/>
  </node>
  <node id="311336044" version="4" timestamp="2009-10-03T13:54:32Z" uid="179968" user="Ich_hasse_doitsche_OSM-Korinthenkacker" changeset="2724114" lat="52.2137617" lon="10.6273563">
    <tag k="addr:city" v="Sickte"/>
    <tag k="addr:housenumber" v="24"/>
    <tag k="addr:postcode" v="38173"/>
    <tag k="addr:street" v="Heckenweg"/>
  </node>
  <node id="311336045" version="4" timestamp="2009-10-03T13:54:33Z" uid="179968" user="Ich_hasse_doitsche_OSM-Korinthenkacker" changeset="2724114" lat="52.2139037" lon="10.6273048">
    <tag k="addr:city" v="Sickte"/>
    <tag k="addr:housenumber" v="25"/>
    <tag k="addr:postcode" v="38173"/>
    <tag k="addr:street" v="Heckenweg"/>
  </node>
  <node id="311336046" version="4" timestamp="2009-10-03T13:54:33Z" uid="179968" user="Ich_hasse_doitsche_OSM-Korinthenkacker" changeset="2724114" lat="52.2139931" lon="10.6276996">
    <tag k="addr:city" v="Sickte"/>
    <tag k="addr:housenumber" v="26"/>
    <tag k="addr:postcode" v="38173"/>
    <tag k="addr:street" v="Heckenweg"/>
  </node>
  <node id="311336047" version="4" timestamp="2009-10-03T13:54:32Z" uid="179968" user="Ich_hasse_doitsche_OSM-Korinthenkacker" changeset="2724114" lat="52.213078" lon="10.6278885">
    <tag k="addr:city" v="Sickte"/>
    <tag k="addr:housenumber" v="17"/>
    <tag k="addr:postcode" v="38173"/>
    <tag k="addr:street" v="Heckenweg"/>
  </node>
  <node id="311336048" version="4" timestamp="2009-10-03T13:54:33Z" uid="179968" user="Ich_hasse_doitsche_OSM-Korinthenkacker" changeset="2724114" lat="52.2131885" lon="10.6282489">
    <tag k="addr:city" v="Sickte"/>
    <tag k="addr:housenumber" v="18"/>
    <tag k="addr:postcode" v="38173"/>
    <tag k="addr:street" v="Heckenweg"/>
  </node>
  <node id="311336049" version="4" timestamp="2009-10-03T13:54:32Z" uid="179968" user="Ich_hasse_doitsche_OSM-Korinthenkacker" changeset="2724114" lat="52.2129203" lon="10.6283605">
    <tag k="addr:city" v="Sickte"/>
    <tag k="addr:housenumber" v="15"/>
    <tag k="addr:postcode" v="38173"/>
    <tag k="addr:street" v="Heckenweg"/>
  </node>
  <node id="311336050" version="4" timestamp="2009-10-03T13:54:33Z" uid="179968" user="Ich_hasse_doitsche_OSM-Korinthenkacker" changeset="2724114" lat="52.212936" lon="10.6279228">
    <tag k="addr:city" v="Sickte"/>
    <tag k="addr:housenumber" v="16"/>
    <tag k="addr:postcode" v="38173"/>
    <tag k="addr:street" v="Heckenweg"/>
  </node>
  <node id="311336051" version="4" timestamp="2009-10-03T13:54:33Z" uid="179968" user="Ich_hasse_doitsche_OSM-Korinthenkacker" changeset="2724114" lat="52.2127099" lon="10.6284378">
    <tag k="addr:city" v="Sickte"/>
    <tag k="addr:housenumber" v="14"/>
    <tag k="addr:postcode" v="38173"/>
    <tag k="addr:street" v="Heckenweg"/>
  </node>
  <node id="311336052" version="4" timestamp="2009-10-03T13:54:33Z" uid="179968" user="Ich_hasse_doitsche_OSM-Korinthenkacker" changeset="2724114" lat="52.2125889" lon="10.6282232">
    <tag k="addr:city" v="Sickte"/>
    <tag k="addr:housenumber" v="13"/>
    <tag k="addr:postcode" v="38173"/>
    <tag k="addr:street" v="Heckenweg"/>
  </node>
  <node id="311336053" version="4" timestamp="2009-10-03T13:54:32Z" uid="179968" user="Ich_hasse_doitsche_OSM-Korinthenkacker" changeset="2724114" lat="52.2124732" lon="10.6283262">
    <tag k="addr:city" v="Sickte"/>
    <tag k="addr:housenumber" v="12"/>
    <tag k="addr:postcode" v="38173"/>
    <tag k="addr:street" v="Heckenweg"/>
  </node>
  <node id="311336054" version="4" timestamp="2009-10-03T13:54:32Z" uid="179968" user="Ich_hasse_doitsche_OSM-Korinthenkacker" changeset="2724114" lat="52.2123049" lon="10.6283176">
    <tag k="addr:city" v="Sickte"/>
    <tag k="addr:housenumber" v="10"/>
    <tag k="addr:postcode" v="38173"/>
    <tag k="addr:street" v="Heckenweg"/>
  </node>
  <node id="311336055" version="5" timestamp="2009-10-03T13:54:32Z" uid="179968" user="Ich_hasse_doitsche_OSM-Korinthenkacker" changeset="2724114" lat="52.2120683" lon="10.6284807">
    <tag k="addr:city" v="Sickte"/>
    <tag k="addr:housenumber" v="8"/>
    <tag k="addr:postcode" v="38173"/>
    <tag k="addr:street" v="Heckenweg"/>
  </node>
  <node id="311336282" version="2" timestamp="2010-07-29T09:19:39Z" uid="74617" user="JohnSmith" changeset="5344848" lat="48.0698826" lon="8.3504215">
    <tag k="amenity" v="emergency_phone"/>
    <tag k="emergency" v="phone"/>
  </node>
  <node id="311338570" version="1" timestamp="2008-11-11T17:15:27Z" uid="33382" user="de_muur" changeset="733832" lat="53.5444073" lon="10.2946566">
    <tag k="created_by" v="JOSM"/>
  </node>
  <node id="311338572" version="1" timestamp="2008-11-11T17:15:28Z" uid="33382" user="de_muur" changeset="733832" lat="53.5444822" lon="10.2949382">
    <tag k="created_by" v="JOSM"/>
  </node>
  <node id="311338572" version="2" timestamp="2009-01-18T17:10:46Z" uid="33382" user="de_muur" changeset="807115" lat="53.5445289" lon="10.2950108">
    <tag k="created_by" v="JOSM"/>
  </node>
  <node id="311338573" version="1" timestamp="2008-11-11T17:15:28Z" uid="33382" user="de_muur" changeset="733832" lat="53.5416498" lon="10.2964925">
    <tag k="created_by" v="JOSM"/>
  </node>
  <node id="311338574" version="1" timestamp="2008-11-11T17:15:28Z" uid="33382" user="de_muur" changeset="733832" lat="53.543487" lon="10.3006544">
    <tag k="created_by" v="JOSM"/>
  </node>
  <node id="311338576" version="1" timestamp="2008-11-11T17:15:28Z" uid="33382" user="de_muur" changeset="733832" lat="53.54328" lon="10.3009502">
    <tag k="created_by" v="JOSM"/>
  </node>
  <node id="311338577" version="1" timestamp="2008-11-11T17:15:28Z" uid="33382" user="de_muur" changeset="733832" lat="53.5477479" lon="10.3014532">
    <tag k="created_by" v="JOSM"/>
  </node>
  <node id="311338577" version="2" timestamp="2009-09-26T15:17:22Z" uid="33382" user="de_muur" changeset="2642417" lat="53.5477479" lon="10.3014532">
    <tag k="created_by" v="JOSM"/>
  </node>
  <node id="311338578" version="1" timestamp="2008-11-11T17:15:29Z" uid="33382" user="de_muur" changeset="733832" lat="53.5478859" lon="10.3015915">
    <tag k="created_by" v="JOSM"/>
  </node>
  <node id="311338578" version="2" timestamp="2009-09-26T15:17:22Z" uid="33382" user="de_muur" changeset="2642417" lat="53.5478859" lon="10.3015915">
    <tag k="created_by" v="JOSM"/>
  </node>
  <node id="311338580" version="1" timestamp="2008-11-11T17:15:29Z" uid="33382" user="de_muur" changeset="733832" lat="53.5483839" lon="10.3021151">
    <tag k="created_by" v="JOSM"/>
  </node>
  <node id="311338580" version="2" timestamp="2009-09-26T15:17:17Z" uid="33382" user="de_muur" changeset="2642417" lat="53.548413" lon="10.3019549">
    <tag k="created_by" v="JOSM"/>
  </node>
  <node id="311338582" version="1" timestamp="2008-11-11T17:15:29Z" uid="33382" user="de_muur" changeset="733832" lat="53.5489418" lon="10.3024459">
    <tag k="created_by" v="JOSM"/>
  </node>
  <node id="311338582" version="2" timestamp="2009-09-26T15:17:22Z" uid="33382" user="de_muur" changeset="2642417" lat="53.5489418" lon="10.3024459">
    <tag k="created_by" v="JOSM"/>
  </node>
  <node id="311338585" version="1" timestamp="2008-11-11T17:15:29Z" uid="33382" user="de_muur" changeset="733832" lat="53.5494482" lon="10.3027923">
    <tag k="created_by" v="JOSM"/>
  </node>
  <node id="311338587" version="1" timestamp="2008-11-11T17:15:29Z" uid="33382" user="de_muur" changeset="733832" lat="53.5502936" lon="10.3033007">
    <tag k="created_by" v="JOSM"/>
  </node>
  <node id="311338588" version="1" timestamp="2008-11-11T17:15:29Z" uid="33382" user="de_muur" changeset="733832" lat="53.5468186" lon="10.3022208">
    <tag k="created_by" v="JOSM"/>
  </node>
  <node id="311338589" version="1" timestamp="2008-11-11T17:15:30Z" uid="33382" user="de_muur" changeset="733832" lat="53.5475873" lon="10.3025129">
    <tag k="created_by" v="JOSM"/>
  </node>
  <node id="311338590" version="1" timestamp="2008-11-11T17:15:30Z" uid="33382" user="de_muur" changeset="733832" lat="53.5480121" lon="10.3030249">
    <tag k="created_by" v="JOSM"/>
  </node>
  <node id="311338592" version="1" timestamp="2008-11-11T17:15:30Z" uid="33382" user="de_muur" changeset="733832" lat="53.5484933" lon="10.3038398">
    <tag k="created_by" v="JOSM"/>
  </node>
  <node id="311338593" version="1" timestamp="2008-11-11T17:15:30Z" uid="33382" user="de_muur" changeset="733832" lat="53.5493046" lon="10.3041804">
    <tag k="created_by" v="JOSM"/>
  </node>
  <node id="311338594" version="1" timestamp="2008-11-11T17:15:30Z" uid="33382" user="de_muur" changeset="733832" lat="53.549774" lon="10.3047293">
    <tag k="created_by" v="JOSM"/>
  </node>
  <node id="311338596" version="1" timestamp="2008-11-11T17:15:30Z" uid="33382" user="de_muur" changeset="733832" lat="53.5499588" lon="10.3053191">
    <tag k="created_by" v="JOSM"/>
  </node>
  <node id="311338597" version="1" timestamp="2008-11-11T17:15:30Z" uid="33382" user="de_muur" changeset="733832" lat="53.5503229" lon="10.3056015">
    <tag k="created_by" v="JOSM"/>
  </node>
  <node id="311338598" version="1" timestamp="2008-11-11T17:15:31Z" uid="33382" user="de_muur" changeset="733832" lat="53.5509259" lon="10.3054835">
    <tag k="created_by" v="JOSM"/>
  </node>
  <node id="311338600" version="1" timestamp="2008-11-11T17:15:31Z" uid="33382" user="de_muur" changeset="733832" lat="53.5513033" lon="10.3044157">
    <tag k="created_by" v="JOSM"/>
  </node>
  <node id="311338601" version="1" timestamp="2008-11-11T17:15:31Z" uid="33382" user="de_muur" changeset="733832" lat="53.5511448" lon="10.3032579">
    <tag k="created_by" v="JOSM"/>
  </node>
  <node id="311338602" version="1" timestamp="2008-11-11T17:15:31Z" uid="33382" user="de_muur" changeset="733832" lat="53.5511002" lon="10.3039775">
    <tag k="created_by" v="JOSM"/>
  </node>
  <node id="311338602" version="2" timestamp="2009-09-26T15:17:18Z" uid="33382" user="de_muur" changeset="2642417" lat="53.5511031" lon="10.3039309">
    <tag k="created_by" v="JOSM"/>
  </node>
  <node id="311338604" version="1" timestamp="2008-11-11T17:15:32Z" uid="33382" user="de_muur" changeset="733832" lat="53.550385" lon="10.302918">
    <tag k="created_by" v="JOSM"/>
  </node>
  <node id="311338605" version="1" timestamp="2008-11-11T17:15:32Z" uid="33382" user="de_muur" changeset="733832" lat="53.5495568" lon="10.3036107">
    <tag k="created_by" v="JOSM"/>
  </node>
  <node id="311338606" version="1" timestamp="2008-11-11T17:15:32Z" uid="33382" user="de_muur" changeset="733832" lat="53.5466558" lon="10.3013704">
    <tag k="created_by" v="JOSM"/>
  </node>
  <node id="311338608" version="1" timestamp="2008-11-11T17:15:32Z" uid="33382" user="de_muur" changeset="733832" lat="53.5456667" lon="10.3025601">
    <tag k="created_by" v="JOSM"/>
  </node>
  <node id="311338609" version="1" timestamp="2008-11-11T17:15:32Z" uid="33382" user="de_muur" changeset="733832" lat="53.5442817" lon="10.2997242">
    <tag k="created_by" v="JOSM"/>
  </node>
  <node id="311338610" version="1" timestamp="2008-11-11T17:15:32Z" uid="33382" user="de_muur" changeset="733832" lat="53.5445078" lon="10.3000728">
    <tag k="created_by" v="JOSM"/>
  </node>
  <node id="311338612" version="1" timestamp="2008-11-11T17:15:32Z" uid="33382" user="de_muur" changeset="733832" lat="53.5457744" lon="10.2986191">
    <tag k="created_by" v="JOSM"/>
  </node>
  <node id="311338613" version="1" timestamp="2008-11-11T17:15:33Z" uid="33382" user="de_muur" changeset="733832" lat="53.5461544" lon="10.2992373">
    <tag k="created_by" v="JOSM"/>
  </node>
  <node id="311338614" version="1" timestamp="2008-11-11T17:15:33Z" uid="33382" user="de_muur" changeset="733832" lat="53.5433105" lon="10.2959374">
    <tag k="created_by" v="JOSM"/>
  </node>
  <node id="311338616" version="1" timestamp="2008-11-11T17:15:33Z" uid="33382" user="de_muur" changeset="733832" lat="53.5447318" lon="10.2955183">
    <tag k="created_by" v="JOSM"/>
  </node>
  <node id="311338617" version="1" timestamp="2008-11-11T17:15:33Z" uid="33382" user="de_muur" changeset="733832" lat="53.5448647" lon="10.2957947">
    <tag k="created_by" v="JOSM"/>
  </node>
  <node id="311338618" version="1" timestamp="2008-11-11T17:15:33Z" uid="33382" user="de_muur" changeset="733832" lat="53.5450071" lon="10.2961687">
    <tag k="created_by" v="JOSM"/>
  </node>
  <node id="311338620" version="1" timestamp="2008-11-11T17:15:34Z" uid="33382" user="de_muur" changeset="733832" lat="53.5451202" lon="10.2965871">
    <tag k="created_by" v="JOSM"/>
  </node>
  <node id="311338621" version="1" timestamp="2008-11-11T17:15:34Z" uid="33382" user="de_muur" changeset="733832" lat="53.5451906" lon="10.2975867">
    <tag k="created_by" v="JOSM"/>
  </node>
  <node id="311338621" version="2" timestamp="2009-01-18T17:10:45Z" uid="33382" user="de_muur" changeset="807115" lat="53.5452217" lon="10.2976645">
    <tag k="created_by" v="JOSM"/>
  </node>
  <node id="311338622" version="1" timestamp="2008-11-11T17:15:34Z" uid="33382" user="de_muur" changeset="733832" lat="53.545275" lon="10.2978473">
    <tag k="created_by" v="JOSM"/>
  </node>
  <node id="311338624" version="1" timestamp="2008-11-11T17:15:34Z" uid="33382" user="de_muur" changeset="733832" lat="53.5454444" lon="10.2982141">
    <tag k="created_by" v="JOSM"/>
  </node>
  <node id="311338625" version="1" timestamp="2008-11-11T17:15:34Z" uid="33382" user="de_muur" changeset="733832" lat="53.5457148" lon="10.2985441">
    <tag k="created_by" v="JOSM"/>
  </node>
  <node id="311338626" version="1" timestamp="2008-11-11T17:15:35Z" uid="33382" user="de_muur" changeset="733832" lat="53.5448725" lon="10.2934434">
    <tag k="created_by" v="JOSM"/>
  </node>
  <node id="311338628" version="1" timestamp="2008-11-11T17:15:35Z" uid="33382" user="de_muur" changeset="733832" lat="53.544912" lon="10.2940063">
    <tag k="created_by" v="JOSM"/>
  </node>
  <node id="311338630" version="1" timestamp="2008-11-11T17:15:35Z" uid="33382" user="de_muur" changeset="733832" lat="53.5443827" lon="10.2942994">
    <tag k="created_by" v="JOSM"/>
  </node>
  <node id="311338631" version="1" timestamp="2008-11-11T17:15:35Z" uid="33382" user="de_muur" changeset="733832" lat="53.5443807" lon="10.2942997">
    <tag k="created_by" v="JOSM"/>
  </node>
  <node id="311338633" version="1" timestamp="2008-11-11T17:15:35Z" uid="33382" user="de_muur" changeset="733832" lat="53.5450386" lon="10.2936487">
    <tag k="created_by" v="JOSM"/>
  </node>
  <node id="311338634" version="1" timestamp="2008-11-11T17:15:35Z" uid="33382" user="de_muur" changeset="733832" lat="53.5454017" lon="10.2937889">
    <tag k="created_by" v="JOSM"/>
  </node>
  <node id="311338635" version="1" timestamp="2008-11-11T17:15:36Z" uid="33382" user="de_muur" changeset="733832" lat="53.5456271" lon="10.2945124">
    <tag k="created_by" v="JOSM"/>
  </node>
  <node id="311338640" version="1" timestamp="2008-11-11T17:15:36Z" uid="33382" user="de_muur" changeset="733832" lat="53.5456278" lon="10.2945133">
    <tag k="created_by" v="JOSM"/>
  </node>
  <node id="311338649" version="1" timestamp="2008-11-11T17:15:36Z" uid="33382" user="de_muur" changeset="733832" lat="53.5452597" lon="10.2949071">
    <tag k="created_by" v="JOSM"/>
  </node>
  <node id="311338650" version="1" timestamp="2008-11-11T17:15:36Z" uid="33382" user="de_muur" changeset="733832" lat="53.545386" lon="10.2956394">
    <tag k="created_by" v="JOSM"/>
  </node>
  <node id="311338651" version="1" timestamp="2008-11-11T17:15:36Z" uid="33382" user="de_muur" changeset="733832" lat="53.5464243" lon="10.2936563">
    <tag k="created_by" v="JOSM"/>
  </node>
  <node id="311338653" version="1" timestamp="2008-11-11T17:15:36Z" uid="33382" user="de_muur" changeset="733832" lat="53.5469843" lon="10.2931017">
    <tag k="created_by" v="JOSM"/>
  </node>
  <node id="311338654" version="1" timestamp="2008-11-11T17:15:37Z" uid="33382" user="de_muur" changeset="733832" lat="53.5475321" lon="10.292537">
    <tag k="created_by" v="JOSM"/>
  </node>
  <node id="311338655" version="1" timestamp="2008-11-11T17:15:37Z" uid="33382" user="de_muur" changeset="733832" lat="53.5482804" lon="10.2922844">
    <tag k="created_by" v="JOSM"/>
  </node>
  <node id="311338656" version="1" timestamp="2008-11-11T17:15:37Z" uid="33382" user="de_muur" changeset="733832" lat="53.5476636" lon="10.2927646">
    <tag k="created_by" v="JOSM"/>
  </node>
  <node id="311338658" version="1" timestamp="2008-11-11T17:15:37Z" uid="33382" user="de_muur" changeset="733832" lat="53.5466162" lon="10.2938286">
    <tag k="created_by" v="JOSM"/>
  </node>
  <node id="311338659" version="1" timestamp="2008-11-11T17:15:37Z" uid="33382" user="de_muur" changeset="733832" lat="53.5458793" lon="10.2951533">
    <tag k="created_by" v="JOSM"/>
  </node>
  <node id="311338660" version="1" timestamp="2008-11-11T17:15:37Z" uid="33382" user="de_muur" changeset="733832" lat="53.5486329" lon="10.2931594">
    <tag k="created_by" v="JOSM"/>
  </node>
  <node id="311338662" version="1" timestamp="2008-11-11T17:15:37Z" uid="33382" user="de_muur" changeset="733832" lat="53.5456991" lon="10.2974565">
    <tag k="created_by" v="JOSM"/>
  </node>
  <node id="311338663" version="1" timestamp="2008-11-11T17:15:38Z" uid="33382" user="de_muur" changeset="733832" lat="53.54604" lon="10.2983717">
    <tag k="created_by" v="JOSM"/>
  </node>
  <node id="311338664" version="1" timestamp="2008-11-11T17:15:38Z" uid="33382" user="de_muur" changeset="733832" lat="53.5460409" lon="10.2983728">
    <tag k="created_by" v="JOSM"/>
  </node>
  <node id="311338665" version="1" timestamp="2008-11-11T17:15:38Z" uid="33382" user="de_muur" changeset="733832" lat="53.5467181" lon="10.297748">
    <tag k="created_by" v="JOSM"/>
  </node>
  <node id="311338668" version="1" timestamp="2008-11-11T17:15:38Z" uid="33382" user="de_muur" changeset="733832" lat="53.5467194" lon="10.2977493">
    <tag k="created_by" v="JOSM"/>
  </node>
  <node id="311338669" version="1" timestamp="2008-11-11T17:15:38Z" uid="33382" user="de_muur" changeset="733832" lat="53.5470668" lon="10.2991458">
    <tag k="created_by" v="JOSM"/>
  </node>
  <node id="311338670" version="1" timestamp="2008-11-11T17:15:38Z" uid="33382" user="de_muur" changeset="733832" lat="53.5474668" lon="10.2970604">
    <tag k="created_by" v="JOSM"/>
  </node>
  <node id="311338672" version="1" timestamp="2008-11-11T17:15:38Z" uid="33382" user="de_muur" changeset="733832" lat="53.5474668" lon="10.297062">
    <tag k="created_by" v="JOSM"/>
  </node>
  <node id="311338673" version="1" timestamp="2008-11-11T17:15:39Z" uid="33382" user="de_muur" changeset="733832" lat="53.5463453" lon="10.295457">
    <tag k="created_by" v="JOSM"/>
  </node>
  <node id="311338674" version="1" timestamp="2008-11-11T17:15:39Z" uid="33382" user="de_muur" changeset="733832" lat="53.5461311" lon="10.2947073">
    <tag k="created_by" v="JOSM"/>
  </node>
  <node id="311338675" version="1" timestamp="2008-11-11T17:15:39Z" uid="33382" user="de_muur" changeset="733832" lat="53.5469779" lon="10.2975095">
    <tag k="created_by" v="JOSM"/>
  </node>
  <node id="311338677" version="1" timestamp="2008-11-11T17:15:39Z" uid="33382" user="de_muur" changeset="733832" lat="53.5469787" lon="10.2975111">
    <tag k="created_by" v="JOSM"/>
  </node>
  <node id="311338706" version="1" timestamp="2008-11-11T17:15:54Z" uid="33382" user="de_muur" changeset="733832" lat="53.5489285" lon="10.2939441">
    <tag k="created_by" v="JOSM"/>
  </node>
  <node id="311338707" version="1" timestamp="2008-11-11T17:15:54Z" uid="33382" user="de_muur" changeset="733832" lat="53.546545" lon="10.2961225">
    <tag k="created_by" v="JOSM"/>
  </node>
  <node id="311338708" version="1" timestamp="2008-11-11T17:15:55Z" uid="33382" user="de_muur" changeset="733832" lat="53.5494472" lon="10.2952307">
    <tag k="created_by" v="JOSM"/>
  </node>
  <node id="311338710" version="1" timestamp="2008-11-11T17:15:55Z" uid="33382" user="de_muur" changeset="733832" lat="53.5486389" lon="10.2959841">
    <tag k="created_by" v="JOSM"/>
  </node>
  <node id="311338711" version="1" timestamp="2008-11-11T17:15:55Z" uid="33382" user="de_muur" changeset="733832" lat="53.5467859" lon="10.2968288">
    <tag k="created_by" v="JOSM"/>
  </node>
  <node id="311338712" version="1" timestamp="2008-11-11T17:15:55Z" uid="33382" user="de_muur" changeset="733832" lat="53.5492122" lon="10.2945969">
    <tag k="created_by" v="JOSM"/>
  </node>
  <node id="311338716" version="1" timestamp="2008-11-11T17:15:55Z" uid="33382" user="de_muur" changeset="733832" lat="53.5507607" lon="10.2940029">
    <tag k="created_by" v="JOSM"/>
  </node>
</osm>
