<?xml version='1.0' encoding='UTF-8'?>
<osm version="0.6" generator="libosmium/2.20.0">
  <node id="311580004" version="3" timestamp="2009-07-27T03:26:23Z" uid="4467" user="Rosscoe" changeset="1951087" lat="-36.8027142" lon="175.0509214">
    <tag k="name" v="Anzac Bay"/>
    <tag k="natural" v="bay"/>
  </node>
  <node id="311580348" version="2" timestamp="2009-07-27T03:26:23Z" uid="4467" user="Rosscoe" changeset="1951087" lat="-36.7811315" lon="174.9853468">
    <tag k="name" v="Matiatia Bay"/>
    <tag k="natural" v="bay"/>
  </node>
  <node id="311580422" version="2" timestamp="2009-07-27T03:26:23Z" uid="4467" user="Rosscoe" changeset="1951087" lat="-36.7801691" lon="175.0151301">
    <tag k="name" v="Oneroa Bay"/>
    <tag k="natural" v="bay"/>
  </node>
  <node id="311588179" version="2" timestamp="2009-11-28T13:08:33Z" uid="9581" user="Lobelt" changeset="3235829" lat="50.4956877" lon="11.601867"/>
  <node id="311588196" version="3" timestamp="2009-11-28T13:08:32Z" uid="9581" user="Lobelt" changeset="3235829" lat="50.4967186" lon="11.6000587"/>
  <node id="311588197" version="3" timestamp="2009-11-28T13:08:32Z" uid="9581" user="Lobelt" changeset="3235829" lat="50.4961528" lon="11.6008553"/>
  <node id="311588199" version="3" timestamp="2009-11-28T13:08:32Z" uid="9581" user="Lobelt" changeset="3235829" lat="50.4964902" lon="11.600365"/>
  <node id="311588202" version="2" timestamp="2009-11-28T13:08:32Z" uid="9581" user="Lobelt" changeset="3235829" lat="50.4970821" lon="11.601532"/>
  <node id="311588210" version="3" timestamp="2009-11-28T13:08:32Z" uid="9581" user="Lobelt" changeset="3235829" lat="50.4969572" lon="11.5999189"/>
  <node id="311588216" version="2" timestamp="2009-11-28T13:08:32Z" uid="9581" user="Lobelt" changeset="3235829" lat="50.4978643" lon="11.6006966"/>
  <node id="311588312" version="6" timestamp="2009-05-01T18:27:43Z" uid="20587" user="balrog-kun" changeset="1040271" lat="53.9313394" lon="18.759256">
    <tag k="addr:postcode" v="83-121"/>
    <tag k="is_in" v="gmina Pelplin, powiat tczewski, wojew贸dztwo pomorskie, Poland"/>
    <tag k="is_in:country" v="Poland"/>
    <tag k="is_in:county" v="powiat tczewski"/>
    <tag k="is_in:municipality" v="gmina Pelplin"/>
    <tag k="is_in:province" v="wojew贸dztwo pomorskie"/>
    <tag k="name" v="Rudno"/>
    <tag k="place" v="village"/>
    <tag k="population" v="935"/>
    <tag k="source:population" v="wikipedia"/>
    <tag k="teryt:rm" v="01"/>
    <tag k="teryt:simc" v="0169035"/>
    <tag k="teryt:stan_na" v="2009-01-01"/>
    <tag k="teryt:terc" v="2214045"/>
    <tag k="teryt:updated_by" v="teryt2osm combine.py v. 43"/>
    <tag k="wikipedia" v="Rudno, Pomeranian Voivodeship"/>
  </node>
  <node id="311588312" version="7" timestamp="2010-04-11T04:38:54Z" uid="20587" user="balrog-kun" changeset="4389130" lat="53.9313216" lon="18.7589932">
    <tag k="addr:postcode" v="83-121"/>
    <tag k="is_in" v="gmina Pelplin, powiat tczewski, wojew贸dztwo pomorskie, Poland"/>
    <tag k="is_in:country" v="Poland"/>
    <tag k="is_in:county" v="powiat tczewski"/>
    <tag k="is_in:municipality" v="gmina Pelplin"/>
    <tag k="is_in:province" v="wojew贸dztwo pomorskie"/>
    <tag k="name" v="Rudno"/>
    <tag k="place" v="village"/>
    <tag k="population" v="935"/>
    <tag k="source:population" v="wikipedia"/>
    <tag k="teryt:rm" v="01"/>
    <tag k="teryt:simc" v="0169035"/>
    <tag k="teryt:stan_na" v="2009-01-01"/>
    <tag k="teryt:terc" v="2214045"/>
    <tag k="teryt:updated_by" v="teryt2osm combine.py v. 43"/>
    <tag k="wikipedia" v="Rudno, Pomeranian Voivodeship"/>
  </node>
</osm>
