<?xml version='1.0' encoding='UTF-8'?>
<osm version="0.6" generator="libosmium/2.20.0">
  <node id="313680022" version="4" timestamp="2009-10-23T11:52:47Z" uid="36809" user="pfoten_weg_!_" changeset="2929138" lat="47.967561" lon="11.6520118">
    <tag k="addr:city" v="Sauerlach"/>
    <tag k="addr:country" v="DE"/>
    <tag k="addr:housenumber" v="18"/>
    <tag k="addr:postcode" v="82054"/>
    <tag k="addr:street" v="Georgenstraße"/>
  </node>
  <node id="313680022" version="5" timestamp="2009-10-23T12:02:35Z" uid="36809" user="pfoten_weg_!_" changeset="2929214" lat="47.967561" lon="11.6520118">
    <tag k="addr:city" v="Sauerlach"/>
    <tag k="addr:country" v="DE"/>
    <tag k="addr:housenumber" v="18"/>
    <tag k="addr:postcode" v="82054"/>
    <tag k="addr:street" v="Georgenstraße"/>
  </node>
  <node id="313680022" version="6" timestamp="2009-10-23T12:08:10Z" uid="36809" user="pfoten_weg_!_" changeset="2929257" lat="47.967561" lon="11.6520118">
    <tag k="addr:city" v="Sauerlach"/>
    <tag k="addr:country" v="DE"/>
    <tag k="addr:housenumber" v="18"/>
    <tag k="addr:postcode" v="82054"/>
    <tag k="addr:street" v="Georgenstraße"/>
  </node>
  <node id="313680051" version="4" timestamp="2009-10-23T11:52:46Z" uid="36809" user="pfoten_weg_!_" changeset="2929138" lat="47.9675552" lon="11.6518916">
    <tag k="addr:city" v="Sauerlach"/>
    <tag k="addr:country" v="DE"/>
    <tag k="addr:housenumber" v="20"/>
    <tag k="addr:postcode" v="82054"/>
    <tag k="addr:street" v="Georgenstraße"/>
  </node>
  <node id="313680051" version="5" timestamp="2009-10-23T12:02:35Z" uid="36809" user="pfoten_weg_!_" changeset="2929214" lat="47.9675552" lon="11.6518916">
    <tag k="addr:city" v="Sauerlach"/>
    <tag k="addr:country" v="DE"/>
    <tag k="addr:housenumber" v="20"/>
    <tag k="addr:postcode" v="82054"/>
    <tag k="addr:street" v="Georgenstraße"/>
  </node>
  <node id="313680051" version="6" timestamp="2009-10-23T12:08:09Z" uid="36809" user="pfoten_weg_!_" changeset="2929257" lat="47.9675552" lon="11.6518916">
    <tag k="addr:city" v="Sauerlach"/>
    <tag k="addr:country" v="DE"/>
    <tag k="addr:housenumber" v="20"/>
    <tag k="addr:postcode" v="82054"/>
    <tag k="addr:street" v="Georgenstraße"/>
  </node>
  <node id="313680053" version="4" timestamp="2008-11-26T04:25:15Z" uid="6975" user="ulfl" changeset="795520" lat="55.6281354" lon="-6.1892982">
    <tag k="amenity" v="ferry_terminal"/>
    <tag k="name" v="Port Ellen"/>
  </node>
  <node id="313680076" version="5" timestamp="2009-10-23T11:52:49Z" uid="36809" user="pfoten_weg_!_" changeset="2929138" lat="47.9677851" lon="11.6519774">
    <tag k="addr:city" v="Sauerlach"/>
    <tag k="addr:country" v="DE"/>
    <tag k="addr:housenumber" v="16"/>
    <tag k="addr:postcode" v="82054"/>
    <tag k="addr:street" v="Georgenstraße"/>
  </node>
  <node id="313680076" version="6" timestamp="2009-10-23T12:02:42Z" uid="36809" user="pfoten_weg_!_" changeset="2929214" lat="47.9677851" lon="11.6519774">
    <tag k="addr:city" v="Sauerlach"/>
    <tag k="addr:country" v="DE"/>
    <tag k="addr:housenumber" v="16"/>
    <tag k="addr:postcode" v="82054"/>
    <tag k="addr:street" v="Georgenstraße"/>
  </node>
  <node id="313680076" version="7" timestamp="2009-10-23T12:08:14Z" uid="36809" user="pfoten_weg_!_" changeset="2929257" lat="47.9677851" lon="11.6519774">
    <tag k="addr:city" v="Sauerlach"/>
    <tag k="addr:country" v="DE"/>
    <tag k="addr:housenumber" v="16"/>
    <tag k="addr:postcode" v="82054"/>
    <tag k="addr:street" v="Georgenstraße"/>
  </node>
  <node id="313680123" version="5" timestamp="2009-10-23T11:52:55Z" uid="36809" user="pfoten_weg_!_" changeset="2929138" lat="47.9678598" lon="11.6519603">
    <tag k="addr:city" v="Sauerlach"/>
    <tag k="addr:country" v="DE"/>
    <tag k="addr:housenumber" v="14"/>
    <tag k="addr:postcode" v="82054"/>
    <tag k="addr:street" v="Georgenstraße"/>
  </node>
  <node id="313680123" version="6" timestamp="2009-10-23T12:02:46Z" uid="36809" user="pfoten_weg_!_" changeset="2929214" lat="47.9678598" lon="11.6519603">
    <tag k="addr:city" v="Sauerlach"/>
    <tag k="addr:country" v="DE"/>
    <tag k="addr:housenumber" v="14"/>
    <tag k="addr:postcode" v="82054"/>
    <tag k="addr:street" v="Georgenstraße"/>
  </node>
  <node id="313680123" version="7" timestamp="2009-10-23T12:08:22Z" uid="36809" user="pfoten_weg_!_" changeset="2929257" lat="47.9678598" lon="11.6519603">
    <tag k="addr:city" v="Sauerlach"/>
    <tag k="addr:country" v="DE"/>
    <tag k="addr:housenumber" v="14"/>
    <tag k="addr:postcode" v="82054"/>
    <tag k="addr:street" v="Georgenstraße"/>
  </node>
  <node id="313680180" version="4" timestamp="2009-10-23T11:52:54Z" uid="36809" user="pfoten_weg_!_" changeset="2929138" lat="47.9680494" lon="11.6519517">
    <tag k="addr:city" v="Sauerlach"/>
    <tag k="addr:country" v="DE"/>
    <tag k="addr:housenumber" v="12"/>
    <tag k="addr:postcode" v="82054"/>
    <tag k="addr:street" v="Georgenstraße"/>
  </node>
  <node id="313680180" version="5" timestamp="2009-10-23T12:02:45Z" uid="36809" user="pfoten_weg_!_" changeset="2929214" lat="47.9680494" lon="11.6519517">
    <tag k="addr:city" v="Sauerlach"/>
    <tag k="addr:country" v="DE"/>
    <tag k="addr:housenumber" v="12"/>
    <tag k="addr:postcode" v="82054"/>
    <tag k="addr:street" v="Georgenstraße"/>
  </node>
  <node id="313680180" version="6" timestamp="2009-10-23T12:08:22Z" uid="36809" user="pfoten_weg_!_" changeset="2929257" lat="47.9680494" lon="11.6519517">
    <tag k="addr:city" v="Sauerlach"/>
    <tag k="addr:country" v="DE"/>
    <tag k="addr:housenumber" v="12"/>
    <tag k="addr:postcode" v="82054"/>
    <tag k="addr:street" v="Georgenstraße"/>
  </node>
  <node id="313680259" version="5" timestamp="2009-10-23T11:52:54Z" uid="36809" user="pfoten_weg_!_" changeset="2929138" lat="47.9683655" lon="11.6519517">
    <tag k="addr:city" v="Sauerlach"/>
    <tag k="addr:country" v="DE"/>
    <tag k="addr:housenumber" v="8"/>
    <tag k="addr:postcode" v="82054"/>
    <tag k="addr:street" v="Georgenstraße"/>
  </node>
  <node id="313680259" version="6" timestamp="2009-10-23T12:02:45Z" uid="36809" user="pfoten_weg_!_" changeset="2929214" lat="47.9683655" lon="11.6519517">
    <tag k="addr:city" v="Sauerlach"/>
    <tag k="addr:country" v="DE"/>
    <tag k="addr:housenumber" v="8"/>
    <tag k="addr:postcode" v="82054"/>
    <tag k="addr:street" v="Georgenstraße"/>
  </node>
  <node id="313680259" version="7" timestamp="2009-10-23T12:08:21Z" uid="36809" user="pfoten_weg_!_" changeset="2929257" lat="47.9683655" lon="11.6519517">
    <tag k="addr:city" v="Sauerlach"/>
    <tag k="addr:country" v="DE"/>
    <tag k="addr:housenumber" v="8"/>
    <tag k="addr:postcode" v="82054"/>
    <tag k="addr:street" v="Georgenstraße"/>
  </node>
  <node id="313680318" version="6" timestamp="2009-10-23T11:52:53Z" uid="36809" user="pfoten_weg_!_" changeset="2929138" lat="47.9682736" lon="11.6514539">
    <tag k="addr:city" v="Sauerlach"/>
    <tag k="addr:country" v="DE"/>
    <tag k="addr:housenumber" v="5"/>
    <tag k="addr:postcode" v="82054"/>
    <tag k="addr:street" v="Karlstraße"/>
  </node>
  <node id="313680318" version="7" timestamp="2009-10-23T12:02:45Z" uid="36809" user="pfoten_weg_!_" changeset="2929214" lat="47.9682736" lon="11.6514539">
    <tag k="addr:city" v="Sauerlach"/>
    <tag k="addr:country" v="DE"/>
    <tag k="addr:housenumber" v="5"/>
    <tag k="addr:postcode" v="82054"/>
    <tag k="addr:street" v="Karlstraße"/>
  </node>
  <node id="313680318" version="8" timestamp="2009-10-23T12:08:21Z" uid="36809" user="pfoten_weg_!_" changeset="2929257" lat="47.9682736" lon="11.6514539">
    <tag k="addr:city" v="Sauerlach"/>
    <tag k="addr:country" v="DE"/>
    <tag k="addr:housenumber" v="5"/>
    <tag k="addr:postcode" v="82054"/>
    <tag k="addr:street" v="Karlstraße"/>
  </node>
  <node id="313680405" version="6" timestamp="2009-10-23T11:52:51Z" uid="36809" user="pfoten_weg_!_" changeset="2929138" lat="47.9681989" lon="11.651471">
    <tag k="addr:city" v="Sauerlach"/>
    <tag k="addr:country" v="DE"/>
    <tag k="addr:housenumber" v="7"/>
    <tag k="addr:postcode" v="82054"/>
    <tag k="addr:street" v="Karlstraße"/>
  </node>
  <node id="313680405" version="7" timestamp="2009-10-23T12:02:44Z" uid="36809" user="pfoten_weg_!_" changeset="2929214" lat="47.9681989" lon="11.651471">
    <tag k="addr:city" v="Sauerlach"/>
    <tag k="addr:country" v="DE"/>
    <tag k="addr:housenumber" v="7"/>
    <tag k="addr:postcode" v="82054"/>
    <tag k="addr:street" v="Karlstraße"/>
  </node>
  <node id="313680405" version="8" timestamp="2009-10-23T12:08:18Z" uid="36809" user="pfoten_weg_!_" changeset="2929257" lat="47.9681989" lon="11.651471">
    <tag k="addr:city" v="Sauerlach"/>
    <tag k="addr:country" v="DE"/>
    <tag k="addr:housenumber" v="7"/>
    <tag k="addr:postcode" v="82054"/>
    <tag k="addr:street" v="Karlstraße"/>
  </node>
  <node id="313680415" version="6" timestamp="2009-10-23T11:52:52Z" uid="36809" user="pfoten_weg_!_" changeset="2929138" lat="47.9679517" lon="11.6514968">
    <tag k="addr:city" v="Sauerlach"/>
    <tag k="addr:country" v="DE"/>
    <tag k="addr:housenumber" v="9"/>
    <tag k="addr:postcode" v="82054"/>
    <tag k="addr:street" v="Karlstraße"/>
  </node>
  <node id="313680415" version="7" timestamp="2009-10-23T12:02:44Z" uid="36809" user="pfoten_weg_!_" changeset="2929214" lat="47.9679517" lon="11.6514968">
    <tag k="addr:city" v="Sauerlach"/>
    <tag k="addr:country" v="DE"/>
    <tag k="addr:housenumber" v="9"/>
    <tag k="addr:postcode" v="82054"/>
    <tag k="addr:street" v="Karlstraße"/>
  </node>
  <node id="313680415" version="8" timestamp="2009-10-23T12:08:19Z" uid="36809" user="pfoten_weg_!_" changeset="2929257" lat="47.9679517" lon="11.6514968">
    <tag k="addr:city" v="Sauerlach"/>
    <tag k="addr:country" v="DE"/>
    <tag k="addr:housenumber" v="9"/>
    <tag k="addr:postcode" v="82054"/>
    <tag k="addr:street" v="Karlstraße"/>
  </node>
  <node id="313680429" version="5" timestamp="2009-10-23T11:52:52Z" uid="36809" user="pfoten_weg_!_" changeset="2929138" lat="47.967877" lon="11.6515054">
    <tag k="addr:city" v="Sauerlach"/>
    <tag k="addr:country" v="DE"/>
    <tag k="addr:housenumber" v="11"/>
    <tag k="addr:postcode" v="82054"/>
    <tag k="addr:street" v="Karlstraße"/>
  </node>
  <node id="313680429" version="6" timestamp="2009-10-23T12:02:44Z" uid="36809" user="pfoten_weg_!_" changeset="2929214" lat="47.967877" lon="11.6515054">
    <tag k="addr:city" v="Sauerlach"/>
    <tag k="addr:country" v="DE"/>
    <tag k="addr:housenumber" v="11"/>
    <tag k="addr:postcode" v="82054"/>
    <tag k="addr:street" v="Karlstraße"/>
  </node>
  <node id="313680429" version="7" timestamp="2009-10-23T12:08:20Z" uid="36809" user="pfoten_weg_!_" changeset="2929257" lat="47.967877" lon="11.6515054">
    <tag k="addr:city" v="Sauerlach"/>
    <tag k="addr:country" v="DE"/>
    <tag k="addr:housenumber" v="11"/>
    <tag k="addr:postcode" v="82054"/>
    <tag k="addr:street" v="Karlstraße"/>
  </node>
  <node id="313680466" version="1" timestamp="2008-11-22T10:54:12Z" uid="61114" user="Trav" changeset="781110" lat="-33.7360151" lon="151.1497843">
    <tag k="created_by" v="Merkaartor 0.13"/>
  </node>
  <node id="313680467" version="1" timestamp="2008-11-22T10:54:12Z" uid="61114" user="Trav" changeset="781110" lat="-33.7361623" lon="151.1497092">
    <tag k="created_by" v="Merkaartor 0.13"/>
  </node>
  <node id="313680468" version="1" timestamp="2008-11-22T10:54:13Z" uid="61114" user="Trav" changeset="781110" lat="-33.7365459" lon="151.1497414">
    <tag k="created_by" v="Merkaartor 0.13"/>
  </node>
  <node id="313680469" version="1" timestamp="2008-11-22T10:54:13Z" uid="61114" user="Trav" changeset="781110" lat="-33.736711" lon="151.1497897">
    <tag k="created_by" v="Merkaartor 0.13"/>
  </node>
  <node id="313680471" version="1" timestamp="2008-11-22T10:54:13Z" uid="61114" user="Trav" changeset="781110" lat="-33.7368046" lon="151.1498219">
    <tag k="created_by" v="Merkaartor 0.13"/>
  </node>
  <node id="313680474" version="1" timestamp="2008-11-22T10:54:14Z" uid="61114" user="Trav" changeset="781110" lat="-33.7371794" lon="151.1498594">
    <tag k="created_by" v="Merkaartor 0.13"/>
  </node>
  <node id="313680475" version="1" timestamp="2008-11-22T10:54:14Z" uid="61114" user="Trav" changeset="781110" lat="-33.7372998" lon="151.1511254">
    <tag k="created_by" v="Merkaartor 0.13"/>
  </node>
  <node id="313680476" version="1" timestamp="2008-11-22T10:54:14Z" uid="61114" user="Trav" changeset="781110" lat="-33.7363318" lon="151.1512273">
    <tag k="created_by" v="Merkaartor 0.13"/>
  </node>
  <node id="313680477" version="1" timestamp="2008-11-22T10:54:15Z" uid="61114" user="Trav" changeset="781110" lat="-33.7362827" lon="151.1449295">
    <tag k="amenity" v="post_box"/>
    <tag k="created_by" v="Merkaartor 0.13"/>
    <tag k="source" v="survey;approximation"/>
  </node>
  <node id="313680477" version="2" timestamp="2009-12-28T10:17:00Z" uid="7617" user="Franc" changeset="3469966" lat="-33.7363388" lon="151.1450086">
    <tag k="amenity" v="post_box"/>
    <tag k="source" v="nearmap"/>
  </node>
  <node id="313680487" version="4" timestamp="2009-10-23T11:52:47Z" uid="36809" user="pfoten_weg_!_" changeset="2929138" lat="47.9675552" lon="11.6514624">
    <tag k="addr:city" v="Sauerlach"/>
    <tag k="addr:country" v="DE"/>
    <tag k="addr:housenumber" v="13"/>
    <tag k="addr:postcode" v="82054"/>
    <tag k="addr:street" v="Karlstraße"/>
  </node>
  <node id="313680487" version="5" timestamp="2009-10-23T12:02:36Z" uid="36809" user="pfoten_weg_!_" changeset="2929214" lat="47.9675552" lon="11.6514624">
    <tag k="addr:city" v="Sauerlach"/>
    <tag k="addr:country" v="DE"/>
    <tag k="addr:housenumber" v="13"/>
    <tag k="addr:postcode" v="82054"/>
    <tag k="addr:street" v="Karlstraße"/>
  </node>
  <node id="313680487" version="6" timestamp="2009-10-23T12:08:10Z" uid="36809" user="pfoten_weg_!_" changeset="2929257" lat="47.9675552" lon="11.6514624">
    <tag k="addr:city" v="Sauerlach"/>
    <tag k="addr:country" v="DE"/>
    <tag k="addr:housenumber" v="13"/>
    <tag k="addr:postcode" v="82054"/>
    <tag k="addr:street" v="Karlstraße"/>
  </node>
  <node id="313680488" version="1" timestamp="2008-11-22T10:54:16Z" uid="61114" user="Trav" changeset="781110" lat="-33.7358586" lon="151.1412894">
    <tag k="created_by" v="Merkaartor 0.13"/>
  </node>
  <node id="313680506" version="1" timestamp="2008-11-22T10:54:17Z" uid="61114" user="Trav" changeset="781110" lat="-33.7372997" lon="151.1432688">
    <tag k="created_by" v="Merkaartor 0.13"/>
  </node>
  <node id="313680506" version="2" timestamp="2009-10-26T08:54:58Z" uid="7617" user="Franc" changeset="2954171" lat="-33.7373381" lon="151.1432816"/>
  <node id="313680507" version="1" timestamp="2008-11-22T10:54:19Z" uid="61114" user="Trav" changeset="781110" lat="-33.7366989" lon="151.142448">
    <tag k="created_by" v="Merkaartor 0.13"/>
  </node>
  <node id="313680511" version="1" timestamp="2008-11-22T10:54:20Z" uid="61114" user="Trav" changeset="781110" lat="-33.7354321" lon="151.1442191">
    <tag k="created_by" v="Merkaartor 0.13"/>
  </node>
  <node id="313680514" version="1" timestamp="2008-11-22T10:54:22Z" uid="61114" user="Trav" changeset="781110" lat="-33.7359348" lon="151.1436582">
    <tag k="created_by" v="Merkaartor 0.13"/>
  </node>
  <node id="313680515" version="1" timestamp="2008-11-22T10:54:22Z" uid="61114" user="Trav" changeset="781110" lat="-33.7363184" lon="151.1430949">
    <tag k="created_by" v="Merkaartor 0.13"/>
  </node>
  <node id="313680516" version="4" timestamp="2009-10-23T11:52:47Z" uid="36809" user="pfoten_weg_!_" changeset="2929138" lat="47.967561" lon="11.651574">
    <tag k="addr:city" v="Sauerlach"/>
    <tag k="addr:country" v="DE"/>
    <tag k="addr:housenumber" v="15"/>
    <tag k="addr:postcode" v="82054"/>
    <tag k="addr:street" v="Karlstraße"/>
  </node>
  <node id="313680516" version="5" timestamp="2009-10-23T12:02:40Z" uid="36809" user="pfoten_weg_!_" changeset="2929214" lat="47.967561" lon="11.651574">
    <tag k="addr:city" v="Sauerlach"/>
    <tag k="addr:country" v="DE"/>
    <tag k="addr:housenumber" v="15"/>
    <tag k="addr:postcode" v="82054"/>
    <tag k="addr:street" v="Karlstraße"/>
  </node>
  <node id="313680516" version="6" timestamp="2009-10-23T12:08:11Z" uid="36809" user="pfoten_weg_!_" changeset="2929257" lat="47.967561" lon="11.651574">
    <tag k="addr:city" v="Sauerlach"/>
    <tag k="addr:country" v="DE"/>
    <tag k="addr:housenumber" v="15"/>
    <tag k="addr:postcode" v="82054"/>
    <tag k="addr:street" v="Karlstraße"/>
  </node>
  <node id="313680517" version="1" timestamp="2008-11-22T10:54:23Z" uid="61114" user="Trav" changeset="781110" lat="-33.734012" lon="151.1422527">
    <tag k="created_by" v="Merkaartor 0.13"/>
  </node>
  <node id="313680518" version="1" timestamp="2008-11-22T10:54:24Z" uid="61114" user="Trav" changeset="781110" lat="-33.7340566" lon="151.1418611">
    <tag k="created_by" v="Merkaartor 0.13"/>
  </node>
  <node id="313680519" version="1" timestamp="2008-11-22T10:54:24Z" uid="61114" user="Trav" changeset="781110" lat="-33.7340254" lon="151.141271">
    <tag k="created_by" v="Merkaartor 0.13"/>
  </node>
  <node id="313680520" version="1" timestamp="2008-11-22T10:54:24Z" uid="61114" user="Trav" changeset="781110" lat="-33.7337946" lon="151.1396072">
    <tag k="created_by" v="Merkaartor 0.13"/>
  </node>
  <node id="313680521" version="1" timestamp="2008-11-22T10:54:27Z" uid="61114" user="Trav" changeset="781110" lat="-33.7360923" lon="151.1397625">
    <tag k="created_by" v="Merkaartor 0.13"/>
  </node>
  <node id="313680521" version="2" timestamp="2009-09-01T06:15:39Z" uid="61114" user="Trav" changeset="2333683" lat="-33.7360954" lon="151.1397589"/>
  <node id="313680522" version="1" timestamp="2008-11-22T10:54:29Z" uid="61114" user="Trav" changeset="781110" lat="-33.7415682" lon="151.1387195">
    <tag k="created_by" v="Merkaartor 0.13"/>
  </node>
  <node id="313680522" version="2" timestamp="2009-10-26T08:54:59Z" uid="7617" user="Franc" changeset="2954171" lat="-33.7415256" lon="151.1387451"/>
  <node id="313680522" version="3" timestamp="2010-03-14T05:47:12Z" uid="7617" user="Franc" changeset="4121152" lat="-33.7414201" lon="151.1386992"/>
  <node id="313680522" version="4" timestamp="2011-06-18T12:55:45Z" uid="7617" user="Franc" changeset="8473039" lat="-33.7413954" lon="151.1386918"/>
  <node id="313680523" version="1" timestamp="2008-11-22T10:54:30Z" uid="61114" user="Trav" changeset="781110" lat="-33.736039" lon="151.132991">
    <tag k="created_by" v="Merkaartor 0.13"/>
  </node>
  <node id="313680523" version="2" timestamp="2010-03-14T05:47:14Z" uid="7617" user="Franc" changeset="4121152" lat="-33.7358999" lon="151.1329575"/>
  <node id="313680524" version="1" timestamp="2008-11-22T10:54:32Z" uid="61114" user="Trav" changeset="781110" lat="-33.7384585" lon="151.1291669">
    <tag k="created_by" v="Merkaartor 0.13"/>
  </node>
  <node id="313680524" version="2" timestamp="2009-11-08T03:52:39Z" uid="7617" user="Franc" changeset="3060769" lat="-33.7384257" lon="151.1292063"/>
  <node id="313680525" version="1" timestamp="2008-11-22T10:54:33Z" uid="61114" user="Trav" changeset="781110" lat="-33.7388804" lon="151.1292345">
    <tag k="created_by" v="Merkaartor 0.13"/>
  </node>
  <node id="313680525" version="2" timestamp="2009-11-08T03:52:39Z" uid="7617" user="Franc" changeset="3060769" lat="-33.7387162" lon="151.1292969"/>
  <node id="313680526" version="1" timestamp="2008-11-22T10:54:34Z" uid="61114" user="Trav" changeset="781110" lat="-33.737895" lon="151.1325317">
    <tag k="created_by" v="Merkaartor 0.13"/>
  </node>
  <node id="313680526" version="3" timestamp="2009-11-08T03:52:39Z" uid="7617" user="Franc" changeset="3060769" lat="-33.7378392" lon="151.1324003"/>
  <node id="313680526" version="4" timestamp="2011-02-04T13:59:46Z" uid="4467" user="Rosscoe" changeset="7183487" lat="-33.7378665" lon="151.1324331"/>
  <node id="313680527" version="1" timestamp="2008-11-22T10:54:35Z" uid="61114" user="Trav" changeset="781110" lat="-33.736377" lon="151.130459">
    <tag k="created_by" v="Merkaartor 0.13"/>
  </node>
  <node id="313680528" version="1" timestamp="2008-11-22T10:54:36Z" uid="61114" user="Trav" changeset="781110" lat="-33.7382577" lon="151.1283602">
    <tag k="created_by" v="Merkaartor 0.13"/>
  </node>
  <node id="313680528" version="4" timestamp="2009-11-08T03:52:39Z" uid="7617" user="Franc" changeset="3060769" lat="-33.7382216" lon="151.1282649"/>
  <node id="313680529" version="1" timestamp="2008-11-22T10:54:37Z" uid="61114" user="Trav" changeset="781110" lat="-33.7358545" lon="151.1310249">
    <tag k="created_by" v="Merkaartor 0.13"/>
  </node>
  <node id="313680757" version="1" timestamp="2008-11-22T10:55:57Z" uid="64977" user="CLoeser" changeset="780849" lat="54.0880263" lon="13.4533009"/>
  <node id="313680758" version="1" timestamp="2008-11-22T10:55:57Z" uid="64977" user="CLoeser" changeset="780849" lat="54.0877394" lon="13.4529404"/>
  <node id="313680760" version="1" timestamp="2008-11-22T10:55:57Z" uid="64977" user="CLoeser" changeset="780849" lat="54.0875178" lon="13.4536699"/>
  <node id="313680761" version="1" timestamp="2008-11-22T10:55:57Z" uid="64977" user="CLoeser" changeset="780849" lat="54.0878854" lon="13.4540734"/>
  <node id="313681017" version="4" timestamp="2009-10-23T11:52:42Z" uid="36809" user="pfoten_weg_!_" changeset="2929138" lat="47.9688195" lon="11.6509303">
    <tag k="addr:city" v="Sauerlach"/>
    <tag k="addr:country" v="DE"/>
    <tag k="addr:housenumber" v="17"/>
    <tag k="addr:postcode" v="82054"/>
    <tag k="addr:street" v="Hubertusstraße"/>
  </node>
  <node id="313681017" version="5" timestamp="2009-10-23T12:02:31Z" uid="36809" user="pfoten_weg_!_" changeset="2929214" lat="47.9688195" lon="11.6509303">
    <tag k="addr:city" v="Sauerlach"/>
    <tag k="addr:country" v="DE"/>
    <tag k="addr:housenumber" v="17"/>
    <tag k="addr:postcode" v="82054"/>
    <tag k="addr:street" v="Hubertusstraße"/>
  </node>
  <node id="313681017" version="6" timestamp="2009-10-23T12:08:04Z" uid="36809" user="pfoten_weg_!_" changeset="2929257" lat="47.9688195" lon="11.6509303">
    <tag k="addr:city" v="Sauerlach"/>
    <tag k="addr:country" v="DE"/>
    <tag k="addr:housenumber" v="17"/>
    <tag k="addr:postcode" v="82054"/>
    <tag k="addr:street" v="Hubertusstraße"/>
  </node>
  <node id="313681055" version="4" timestamp="2009-10-23T11:52:43Z" uid="36809" user="pfoten_weg_!_" changeset="2929138" lat="47.9688023" lon="11.6508016">
    <tag k="addr:city" v="Sauerlach"/>
    <tag k="addr:country" v="DE"/>
    <tag k="addr:housenumber" v="19"/>
    <tag k="addr:postcode" v="82054"/>
    <tag k="addr:street" v="Hubertusstraße"/>
  </node>
  <node id="313681055" version="5" timestamp="2009-10-23T12:02:32Z" uid="36809" user="pfoten_weg_!_" changeset="2929214" lat="47.9688023" lon="11.6508016">
    <tag k="addr:city" v="Sauerlach"/>
    <tag k="addr:country" v="DE"/>
    <tag k="addr:housenumber" v="19"/>
    <tag k="addr:postcode" v="82054"/>
    <tag k="addr:street" v="Hubertusstraße"/>
  </node>
  <node id="313681055" version="6" timestamp="2009-10-23T12:08:05Z" uid="36809" user="pfoten_weg_!_" changeset="2929257" lat="47.9688023" lon="11.6508016">
    <tag k="addr:city" v="Sauerlach"/>
    <tag k="addr:country" v="DE"/>
    <tag k="addr:housenumber" v="19"/>
    <tag k="addr:postcode" v="82054"/>
    <tag k="addr:street" v="Hubertusstraße"/>
  </node>
  <node id="313681063" version="4" timestamp="2009-10-23T11:52:45Z" uid="36809" user="pfoten_weg_!_" changeset="2929138" lat="47.9687448" lon="11.6505269">
    <tag k="addr:city" v="Sauerlach"/>
    <tag k="addr:country" v="DE"/>
    <tag k="addr:housenumber" v="21"/>
    <tag k="addr:postcode" v="82054"/>
    <tag k="addr:street" v="Hubertusstraße"/>
  </node>
  <node id="313681063" version="5" timestamp="2009-10-23T12:02:34Z" uid="36809" user="pfoten_weg_!_" changeset="2929214" lat="47.9687448" lon="11.6505269">
    <tag k="addr:city" v="Sauerlach"/>
    <tag k="addr:country" v="DE"/>
    <tag k="addr:housenumber" v="21"/>
    <tag k="addr:postcode" v="82054"/>
    <tag k="addr:street" v="Hubertusstraße"/>
  </node>
  <node id="313681063" version="6" timestamp="2009-10-23T12:08:07Z" uid="36809" user="pfoten_weg_!_" changeset="2929257" lat="47.9687448" lon="11.6505269">
    <tag k="addr:city" v="Sauerlach"/>
    <tag k="addr:country" v="DE"/>
    <tag k="addr:housenumber" v="21"/>
    <tag k="addr:postcode" v="82054"/>
    <tag k="addr:street" v="Hubertusstraße"/>
  </node>
  <node id="313681091" version="4" timestamp="2009-10-23T11:52:44Z" uid="36809" user="pfoten_weg_!_" changeset="2929138" lat="47.9687103" lon="11.6503981">
    <tag k="addr:city" v="Sauerlach"/>
    <tag k="addr:country" v="DE"/>
    <tag k="addr:housenumber" v="23"/>
    <tag k="addr:postcode" v="82054"/>
    <tag k="addr:street" v="Hubertusstraße"/>
  </node>
  <node id="313681091" version="5" timestamp="2009-10-23T12:02:33Z" uid="36809" user="pfoten_weg_!_" changeset="2929214" lat="47.9687103" lon="11.6503981">
    <tag k="addr:city" v="Sauerlach"/>
    <tag k="addr:country" v="DE"/>
    <tag k="addr:housenumber" v="23"/>
    <tag k="addr:postcode" v="82054"/>
    <tag k="addr:street" v="Hubertusstraße"/>
  </node>
  <node id="313681091" version="6" timestamp="2009-10-23T12:08:06Z" uid="36809" user="pfoten_weg_!_" changeset="2929257" lat="47.9687103" lon="11.6503981">
    <tag k="addr:city" v="Sauerlach"/>
    <tag k="addr:country" v="DE"/>
    <tag k="addr:housenumber" v="23"/>
    <tag k="addr:postcode" v="82054"/>
    <tag k="addr:street" v="Hubertusstraße"/>
  </node>
  <node id="313681118" version="5" timestamp="2009-10-23T11:52:58Z" uid="36809" user="pfoten_weg_!_" changeset="2929138" lat="47.9685896" lon="11.6510161">
    <tag k="addr:city" v="Sauerlach"/>
    <tag k="addr:country" v="DE"/>
    <tag k="addr:housenumber" v="2"/>
    <tag k="addr:postcode" v="82054"/>
    <tag k="addr:street" v="Karlstraße"/>
  </node>
  <node id="313681118" version="6" timestamp="2009-10-23T12:02:48Z" uid="36809" user="pfoten_weg_!_" changeset="2929214" lat="47.9685896" lon="11.6510161">
    <tag k="addr:city" v="Sauerlach"/>
    <tag k="addr:country" v="DE"/>
    <tag k="addr:housenumber" v="2"/>
    <tag k="addr:postcode" v="82054"/>
    <tag k="addr:street" v="Karlstraße"/>
  </node>
  <node id="313681118" version="7" timestamp="2009-10-23T12:08:26Z" uid="36809" user="pfoten_weg_!_" changeset="2929257" lat="47.9685896" lon="11.6510161">
    <tag k="addr:city" v="Sauerlach"/>
    <tag k="addr:country" v="DE"/>
    <tag k="addr:housenumber" v="2"/>
    <tag k="addr:postcode" v="82054"/>
    <tag k="addr:street" v="Karlstraße"/>
  </node>
  <node id="313681121" version="5" timestamp="2009-10-23T11:52:57Z" uid="36809" user="pfoten_weg_!_" changeset="2929138" lat="47.9685092" lon="11.6510247">
    <tag k="addr:city" v="Sauerlach"/>
    <tag k="addr:country" v="DE"/>
    <tag k="addr:housenumber" v="4"/>
    <tag k="addr:postcode" v="82054"/>
    <tag k="addr:street" v="Karlstraße"/>
  </node>
  <node id="313681121" version="6" timestamp="2009-10-23T12:02:48Z" uid="36809" user="pfoten_weg_!_" changeset="2929214" lat="47.9685092" lon="11.6510247">
    <tag k="addr:city" v="Sauerlach"/>
    <tag k="addr:country" v="DE"/>
    <tag k="addr:housenumber" v="4"/>
    <tag k="addr:postcode" v="82054"/>
    <tag k="addr:street" v="Karlstraße"/>
  </node>
  <node id="313681121" version="7" timestamp="2009-10-23T12:08:26Z" uid="36809" user="pfoten_weg_!_" changeset="2929257" lat="47.9685092" lon="11.6510247">
    <tag k="addr:city" v="Sauerlach"/>
    <tag k="addr:country" v="DE"/>
    <tag k="addr:housenumber" v="4"/>
    <tag k="addr:postcode" v="82054"/>
    <tag k="addr:street" v="Karlstraße"/>
  </node>
  <node id="313681168" version="5" timestamp="2009-10-23T11:52:50Z" uid="36809" user="pfoten_weg_!_" changeset="2929138" lat="47.9683425" lon="11.6510333">
    <tag k="addr:city" v="Sauerlach"/>
    <tag k="addr:country" v="DE"/>
    <tag k="addr:housenumber" v="6"/>
    <tag k="addr:postcode" v="82054"/>
    <tag k="addr:street" v="Karlstraße"/>
  </node>
  <node id="313681168" version="6" timestamp="2009-10-23T12:02:43Z" uid="36809" user="pfoten_weg_!_" changeset="2929214" lat="47.9683425" lon="11.6510333">
    <tag k="addr:city" v="Sauerlach"/>
    <tag k="addr:country" v="DE"/>
    <tag k="addr:housenumber" v="6"/>
    <tag k="addr:postcode" v="82054"/>
    <tag k="addr:street" v="Karlstraße"/>
  </node>
  <node id="313681168" version="7" timestamp="2009-10-23T12:08:16Z" uid="36809" user="pfoten_weg_!_" changeset="2929257" lat="47.9683425" lon="11.6510333">
    <tag k="addr:city" v="Sauerlach"/>
    <tag k="addr:country" v="DE"/>
    <tag k="addr:housenumber" v="6"/>
    <tag k="addr:postcode" v="82054"/>
    <tag k="addr:street" v="Karlstraße"/>
  </node>
  <node id="313681169" version="5" timestamp="2009-10-23T11:52:51Z" uid="36809" user="pfoten_weg_!_" changeset="2929138" lat="47.9682621" lon="11.6510333">
    <tag k="addr:city" v="Sauerlach"/>
    <tag k="addr:country" v="DE"/>
    <tag k="addr:housenumber" v="8"/>
    <tag k="addr:postcode" v="82054"/>
    <tag k="addr:street" v="Karlstraße"/>
  </node>
  <node id="313681169" version="6" timestamp="2009-10-23T12:02:43Z" uid="36809" user="pfoten_weg_!_" changeset="2929214" lat="47.9682621" lon="11.6510333">
    <tag k="addr:city" v="Sauerlach"/>
    <tag k="addr:country" v="DE"/>
    <tag k="addr:housenumber" v="8"/>
    <tag k="addr:postcode" v="82054"/>
    <tag k="addr:street" v="Karlstraße"/>
  </node>
  <node id="313681169" version="7" timestamp="2009-10-23T12:08:17Z" uid="36809" user="pfoten_weg_!_" changeset="2929257" lat="47.9682621" lon="11.6510333">
    <tag k="addr:city" v="Sauerlach"/>
    <tag k="addr:country" v="DE"/>
    <tag k="addr:housenumber" v="8"/>
    <tag k="addr:postcode" v="82054"/>
    <tag k="addr:street" v="Karlstraße"/>
  </node>
  <node id="313681174" version="4" timestamp="2009-10-23T11:52:50Z" uid="36809" user="pfoten_weg_!_" changeset="2929138" lat="47.9680494" lon="11.651059">
    <tag k="addr:city" v="Sauerlach"/>
    <tag k="addr:country" v="DE"/>
    <tag k="addr:housenumber" v="10"/>
    <tag k="addr:postcode" v="82054"/>
    <tag k="addr:street" v="Karlstraße"/>
  </node>
  <node id="313681174" version="5" timestamp="2009-10-23T12:02:42Z" uid="36809" user="pfoten_weg_!_" changeset="2929214" lat="47.9680494" lon="11.651059">
    <tag k="addr:city" v="Sauerlach"/>
    <tag k="addr:country" v="DE"/>
    <tag k="addr:housenumber" v="10"/>
    <tag k="addr:postcode" v="82054"/>
    <tag k="addr:street" v="Karlstraße"/>
  </node>
  <node id="313681174" version="6" timestamp="2009-10-23T12:08:15Z" uid="36809" user="pfoten_weg_!_" changeset="2929257" lat="47.9680494" lon="11.651059">
    <tag k="addr:city" v="Sauerlach"/>
    <tag k="addr:country" v="DE"/>
    <tag k="addr:housenumber" v="10"/>
    <tag k="addr:postcode" v="82054"/>
    <tag k="addr:street" v="Karlstraße"/>
  </node>
  <node id="313681202" version="4" timestamp="2009-10-23T11:52:48Z" uid="36809" user="pfoten_weg_!_" changeset="2929138" lat="47.9679575" lon="11.6510676">
    <tag k="addr:city" v="Sauerlach"/>
    <tag k="addr:country" v="DE"/>
    <tag k="addr:housenumber" v="12"/>
    <tag k="addr:postcode" v="82054"/>
    <tag k="addr:street" v="Karlstraße"/>
  </node>
  <node id="313681202" version="5" timestamp="2009-10-23T12:02:40Z" uid="36809" user="pfoten_weg_!_" changeset="2929214" lat="47.9679575" lon="11.6510676">
    <tag k="addr:city" v="Sauerlach"/>
    <tag k="addr:country" v="DE"/>
    <tag k="addr:housenumber" v="12"/>
    <tag k="addr:postcode" v="82054"/>
    <tag k="addr:street" v="Karlstraße"/>
  </node>
  <node id="313681202" version="6" timestamp="2009-10-23T12:08:12Z" uid="36809" user="pfoten_weg_!_" changeset="2929257" lat="47.9679575" lon="11.6510676">
    <tag k="addr:city" v="Sauerlach"/>
    <tag k="addr:country" v="DE"/>
    <tag k="addr:housenumber" v="12"/>
    <tag k="addr:postcode" v="82054"/>
    <tag k="addr:street" v="Karlstraße"/>
  </node>
  <node id="313681270" version="5" timestamp="2009-10-23T11:52:48Z" uid="36809" user="pfoten_weg_!_" changeset="2929138" lat="47.9677966" lon="11.6510762">
    <tag k="addr:city" v="Sauerlach"/>
    <tag k="addr:country" v="DE"/>
    <tag k="addr:housenumber" v="14"/>
    <tag k="addr:postcode" v="82054"/>
    <tag k="addr:street" v="Karlstraße"/>
  </node>
  <node id="313681270" version="6" timestamp="2009-10-23T12:02:40Z" uid="36809" user="pfoten_weg_!_" changeset="2929214" lat="47.9677966" lon="11.6510762">
    <tag k="addr:city" v="Sauerlach"/>
    <tag k="addr:country" v="DE"/>
    <tag k="addr:housenumber" v="14"/>
    <tag k="addr:postcode" v="82054"/>
    <tag k="addr:street" v="Karlstraße"/>
  </node>
  <node id="313681270" version="7" timestamp="2009-10-23T12:08:13Z" uid="36809" user="pfoten_weg_!_" changeset="2929257" lat="47.9677966" lon="11.6510762">
    <tag k="addr:city" v="Sauerlach"/>
    <tag k="addr:country" v="DE"/>
    <tag k="addr:housenumber" v="14"/>
    <tag k="addr:postcode" v="82054"/>
    <tag k="addr:street" v="Karlstraße"/>
  </node>
  <node id="313681290" version="5" timestamp="2009-10-23T11:52:49Z" uid="36809" user="pfoten_weg_!_" changeset="2929138" lat="47.9677046" lon="11.6510848">
    <tag k="addr:city" v="Sauerlach"/>
    <tag k="addr:country" v="DE"/>
    <tag k="addr:housenumber" v="16"/>
    <tag k="addr:postcode" v="82054"/>
    <tag k="addr:street" v="Karlstraße"/>
  </node>
  <node id="313681290" version="6" timestamp="2009-10-23T12:02:41Z" uid="36809" user="pfoten_weg_!_" changeset="2929214" lat="47.9677046" lon="11.6510848">
    <tag k="addr:city" v="Sauerlach"/>
    <tag k="addr:country" v="DE"/>
    <tag k="addr:housenumber" v="16"/>
    <tag k="addr:postcode" v="82054"/>
    <tag k="addr:street" v="Karlstraße"/>
  </node>
  <node id="313681290" version="7" timestamp="2009-10-23T12:08:13Z" uid="36809" user="pfoten_weg_!_" changeset="2929257" lat="47.9677046" lon="11.6510848">
    <tag k="addr:city" v="Sauerlach"/>
    <tag k="addr:country" v="DE"/>
    <tag k="addr:housenumber" v="16"/>
    <tag k="addr:postcode" v="82054"/>
    <tag k="addr:street" v="Karlstraße"/>
  </node>
  <node id="313681325" version="4" timestamp="2009-10-23T11:52:46Z" uid="36809" user="pfoten_weg_!_" changeset="2929138" lat="47.9675265" lon="11.651102">
    <tag k="addr:city" v="Sauerlach"/>
    <tag k="addr:country" v="DE"/>
    <tag k="addr:housenumber" v="18"/>
    <tag k="addr:postcode" v="82054"/>
    <tag k="addr:street" v="Karlstraße"/>
  </node>
  <node id="313681325" version="5" timestamp="2009-10-23T12:02:35Z" uid="36809" user="pfoten_weg_!_" changeset="2929214" lat="47.9675265" lon="11.651102">
    <tag k="addr:city" v="Sauerlach"/>
    <tag k="addr:country" v="DE"/>
    <tag k="addr:housenumber" v="18"/>
    <tag k="addr:postcode" v="82054"/>
    <tag k="addr:street" v="Karlstraße"/>
  </node>
  <node id="313681325" version="6" timestamp="2009-10-23T12:08:08Z" uid="36809" user="pfoten_weg_!_" changeset="2929257" lat="47.9675265" lon="11.651102">
    <tag k="addr:city" v="Sauerlach"/>
    <tag k="addr:country" v="DE"/>
    <tag k="addr:housenumber" v="18"/>
    <tag k="addr:postcode" v="82054"/>
    <tag k="addr:street" v="Karlstraße"/>
  </node>
  <node id="313681365" version="5" timestamp="2009-10-23T11:52:40Z" uid="36809" user="pfoten_weg_!_" changeset="2929138" lat="47.9675265" lon="11.6509646">
    <tag k="addr:city" v="Sauerlach"/>
    <tag k="addr:country" v="DE"/>
    <tag k="addr:housenumber" v="22"/>
    <tag k="addr:postcode" v="82054"/>
    <tag k="addr:street" v="Georgenstraße"/>
  </node>
  <node id="313681365" version="6" timestamp="2009-10-23T12:02:28Z" uid="36809" user="pfoten_weg_!_" changeset="2929214" lat="47.9675265" lon="11.6509646">
    <tag k="addr:city" v="Sauerlach"/>
    <tag k="addr:country" v="DE"/>
    <tag k="addr:housenumber" v="22"/>
    <tag k="addr:postcode" v="82054"/>
    <tag k="addr:street" v="Georgenstraße"/>
  </node>
  <node id="313681365" version="7" timestamp="2009-10-23T12:08:01Z" uid="36809" user="pfoten_weg_!_" changeset="2929257" lat="47.9675265" lon="11.6509646">
    <tag k="addr:city" v="Sauerlach"/>
    <tag k="addr:country" v="DE"/>
    <tag k="addr:housenumber" v="22"/>
    <tag k="addr:postcode" v="82054"/>
    <tag k="addr:street" v="Georgenstraße"/>
  </node>
  <node id="313681513" version="4" timestamp="2009-10-23T11:52:39Z" uid="36809" user="pfoten_weg_!_" changeset="2929138" lat="47.967515" lon="11.6506127">
    <tag k="addr:city" v="Sauerlach"/>
    <tag k="addr:country" v="DE"/>
    <tag k="addr:housenumber" v="24"/>
    <tag k="addr:postcode" v="82054"/>
    <tag k="addr:street" v="Georgenstraße"/>
  </node>
  <node id="313681513" version="5" timestamp="2009-10-23T12:02:27Z" uid="36809" user="pfoten_weg_!_" changeset="2929214" lat="47.967515" lon="11.6506127">
    <tag k="addr:city" v="Sauerlach"/>
    <tag k="addr:country" v="DE"/>
    <tag k="addr:housenumber" v="24"/>
    <tag k="addr:postcode" v="82054"/>
    <tag k="addr:street" v="Georgenstraße"/>
  </node>
  <node id="313681513" version="6" timestamp="2009-10-23T12:08:01Z" uid="36809" user="pfoten_weg_!_" changeset="2929257" lat="47.967515" lon="11.6506127">
    <tag k="addr:city" v="Sauerlach"/>
    <tag k="addr:country" v="DE"/>
    <tag k="addr:housenumber" v="24"/>
    <tag k="addr:postcode" v="82054"/>
    <tag k="addr:street" v="Georgenstraße"/>
  </node>
  <node id="313681624" version="4" timestamp="2009-10-23T11:52:41Z" uid="36809" user="pfoten_weg_!_" changeset="2929138" lat="47.9684919" lon="11.650381">
    <tag k="addr:city" v="Sauerlach"/>
    <tag k="addr:country" v="DE"/>
    <tag k="addr:housenumber" v="1"/>
    <tag k="addr:postcode" v="82054"/>
    <tag k="addr:street" v="Ottostraße"/>
  </node>
  <node id="313681624" version="5" timestamp="2009-10-23T12:02:30Z" uid="36809" user="pfoten_weg_!_" changeset="2929214" lat="47.9684919" lon="11.650381">
    <tag k="addr:city" v="Sauerlach"/>
    <tag k="addr:country" v="DE"/>
    <tag k="addr:housenumber" v="1"/>
    <tag k="addr:postcode" v="82054"/>
    <tag k="addr:street" v="Ottostraße"/>
  </node>
  <node id="313681624" version="6" timestamp="2009-10-23T12:08:04Z" uid="36809" user="pfoten_weg_!_" changeset="2929257" lat="47.9684919" lon="11.650381">
    <tag k="addr:city" v="Sauerlach"/>
    <tag k="addr:country" v="DE"/>
    <tag k="addr:housenumber" v="1"/>
    <tag k="addr:postcode" v="82054"/>
    <tag k="addr:street" v="Ottostraße"/>
  </node>
  <node id="313681697" version="4" timestamp="2009-10-23T11:52:42Z" uid="36809" user="pfoten_weg_!_" changeset="2929138" lat="47.9684057" lon="11.650381">
    <tag k="addr:city" v="Sauerlach"/>
    <tag k="addr:country" v="DE"/>
    <tag k="addr:housenumber" v="3"/>
    <tag k="addr:postcode" v="82054"/>
    <tag k="addr:street" v="Ottostraße"/>
  </node>
  <node id="313681697" version="5" timestamp="2009-10-23T12:02:31Z" uid="36809" user="pfoten_weg_!_" changeset="2929214" lat="47.9684057" lon="11.650381">
    <tag k="addr:city" v="Sauerlach"/>
    <tag k="addr:country" v="DE"/>
    <tag k="addr:housenumber" v="3"/>
    <tag k="addr:postcode" v="82054"/>
    <tag k="addr:street" v="Ottostraße"/>
  </node>
  <node id="313681697" version="6" timestamp="2009-10-23T12:08:04Z" uid="36809" user="pfoten_weg_!_" changeset="2929257" lat="47.9684057" lon="11.650381">
    <tag k="addr:city" v="Sauerlach"/>
    <tag k="addr:country" v="DE"/>
    <tag k="addr:housenumber" v="3"/>
    <tag k="addr:postcode" v="82054"/>
    <tag k="addr:street" v="Ottostraße"/>
  </node>
  <node id="313681737" version="5" timestamp="2009-10-23T11:52:45Z" uid="36809" user="pfoten_weg_!_" changeset="2929138" lat="47.9682391" lon="11.6503981">
    <tag k="addr:city" v="Sauerlach"/>
    <tag k="addr:country" v="DE"/>
    <tag k="addr:housenumber" v="5"/>
    <tag k="addr:postcode" v="82054"/>
    <tag k="addr:street" v="Ottostraße"/>
  </node>
  <node id="313681737" version="6" timestamp="2009-10-23T12:02:34Z" uid="36809" user="pfoten_weg_!_" changeset="2929214" lat="47.9682391" lon="11.6503981">
    <tag k="addr:city" v="Sauerlach"/>
    <tag k="addr:country" v="DE"/>
    <tag k="addr:housenumber" v="5"/>
    <tag k="addr:postcode" v="82054"/>
    <tag k="addr:street" v="Ottostraße"/>
  </node>
  <node id="313681737" version="7" timestamp="2009-10-23T12:08:08Z" uid="36809" user="pfoten_weg_!_" changeset="2929257" lat="47.9682391" lon="11.6503981">
    <tag k="addr:city" v="Sauerlach"/>
    <tag k="addr:country" v="DE"/>
    <tag k="addr:housenumber" v="5"/>
    <tag k="addr:postcode" v="82054"/>
    <tag k="addr:street" v="Ottostraße"/>
  </node>
  <node id="313681768" version="5" timestamp="2009-10-23T11:52:44Z" uid="36809" user="pfoten_weg_!_" changeset="2929138" lat="47.9681471" lon="11.6503981">
    <tag k="addr:city" v="Sauerlach"/>
    <tag k="addr:country" v="DE"/>
    <tag k="addr:housenumber" v="7"/>
    <tag k="addr:postcode" v="82054"/>
    <tag k="addr:street" v="Ottostraße"/>
  </node>
  <node id="313681768" version="6" timestamp="2009-10-23T12:02:32Z" uid="36809" user="pfoten_weg_!_" changeset="2929214" lat="47.9681471" lon="11.6503981">
    <tag k="addr:city" v="Sauerlach"/>
    <tag k="addr:country" v="DE"/>
    <tag k="addr:housenumber" v="7"/>
    <tag k="addr:postcode" v="82054"/>
    <tag k="addr:street" v="Ottostraße"/>
  </node>
  <node id="313681768" version="7" timestamp="2009-10-23T12:08:06Z" uid="36809" user="pfoten_weg_!_" changeset="2929257" lat="47.9681471" lon="11.6503981">
    <tag k="addr:city" v="Sauerlach"/>
    <tag k="addr:country" v="DE"/>
    <tag k="addr:housenumber" v="7"/>
    <tag k="addr:postcode" v="82054"/>
    <tag k="addr:street" v="Ottostraße"/>
  </node>
  <node id="313681819" version="3" timestamp="2008-12-03T19:02:49Z" uid="43863" user="Rundling" changeset="82725" lat="53.1738838" lon="10.6312995"/>
  <node id="313681820" version="2" timestamp="2008-11-25T17:19:24Z" uid="43863" user="Rundling" changeset="791826" lat="53.1739074" lon="10.6312964"/>
  <node id="313681820" version="3" timestamp="2008-12-03T19:02:48Z" uid="43863" user="Rundling" changeset="82725" lat="53.1738874" lon="10.6312964"/>
  <node id="313681820" version="4" timestamp="2008-12-16T21:08:47Z" uid="43863" user="Rundling" changeset="424249" lat="53.1738874" lon="10.6312964"/>
  <node id="313681821" version="5" timestamp="2009-10-23T11:52:41Z" uid="36809" user="pfoten_weg_!_" changeset="2929138" lat="47.967969" lon="11.6503981">
    <tag k="addr:city" v="Sauerlach"/>
    <tag k="addr:country" v="DE"/>
    <tag k="addr:housenumber" v="9"/>
    <tag k="addr:postcode" v="82054"/>
    <tag k="addr:street" v="Ottostraße"/>
  </node>
  <node id="313681821" version="6" timestamp="2009-10-23T12:02:30Z" uid="36809" user="pfoten_weg_!_" changeset="2929214" lat="47.967969" lon="11.6503981">
    <tag k="addr:city" v="Sauerlach"/>
    <tag k="addr:country" v="DE"/>
    <tag k="addr:housenumber" v="9"/>
    <tag k="addr:postcode" v="82054"/>
    <tag k="addr:street" v="Ottostraße"/>
  </node>
  <node id="313681821" version="7" timestamp="2009-10-23T12:08:03Z" uid="36809" user="pfoten_weg_!_" changeset="2929257" lat="47.967969" lon="11.6503981">
    <tag k="addr:city" v="Sauerlach"/>
    <tag k="addr:country" v="DE"/>
    <tag k="addr:housenumber" v="9"/>
    <tag k="addr:postcode" v="82054"/>
    <tag k="addr:street" v="Ottostraße"/>
  </node>
  <node id="313681822" version="2" timestamp="2008-11-25T17:19:28Z" uid="43863" user="Rundling" changeset="791826" lat="53.1739074" lon="10.6312964"/>
  <node id="313681832" version="2" timestamp="2008-11-25T17:19:24Z" uid="43863" user="Rundling" changeset="791826" lat="53.173915" lon="10.6312991"/>
  <node id="313681832" version="3" timestamp="2008-12-03T19:07:14Z" uid="43863" user="Rundling" changeset="82725" lat="53.173915" lon="10.6312991"/>
  <node id="313681833" version="2" timestamp="2008-11-25T17:19:28Z" uid="43863" user="Rundling" changeset="791826" lat="53.173915" lon="10.6312991"/>
  <node id="313681841" version="4" timestamp="2009-10-23T11:52:41Z" uid="36809" user="pfoten_weg_!_" changeset="2929138" lat="47.9677679" lon="11.6504239">
    <tag k="addr:city" v="Sauerlach"/>
    <tag k="addr:country" v="DE"/>
    <tag k="addr:housenumber" v="13"/>
    <tag k="addr:postcode" v="82054"/>
    <tag k="addr:street" v="Ottostraße"/>
  </node>
  <node id="313681841" version="5" timestamp="2009-10-23T12:02:29Z" uid="36809" user="pfoten_weg_!_" changeset="2929214" lat="47.9677679" lon="11.6504239">
    <tag k="addr:city" v="Sauerlach"/>
    <tag k="addr:country" v="DE"/>
    <tag k="addr:housenumber" v="13"/>
    <tag k="addr:postcode" v="82054"/>
    <tag k="addr:street" v="Ottostraße"/>
  </node>
  <node id="313681841" version="6" timestamp="2009-10-23T12:08:02Z" uid="36809" user="pfoten_weg_!_" changeset="2929257" lat="47.9677679" lon="11.6504239">
    <tag k="addr:city" v="Sauerlach"/>
    <tag k="addr:country" v="DE"/>
    <tag k="addr:housenumber" v="13"/>
    <tag k="addr:postcode" v="82054"/>
    <tag k="addr:street" v="Ottostraße"/>
  </node>
  <node id="313681853" version="4" timestamp="2009-10-23T11:52:40Z" uid="36809" user="pfoten_weg_!_" changeset="2929138" lat="47.9676874" lon="11.6504325">
    <tag k="addr:city" v="Sauerlach"/>
    <tag k="addr:country" v="DE"/>
    <tag k="addr:housenumber" v="15"/>
    <tag k="addr:postcode" v="82054"/>
    <tag k="addr:street" v="Ottostraße"/>
  </node>
  <node id="313681853" version="5" timestamp="2009-10-23T12:02:28Z" uid="36809" user="pfoten_weg_!_" changeset="2929214" lat="47.9676874" lon="11.6504325">
    <tag k="addr:city" v="Sauerlach"/>
    <tag k="addr:country" v="DE"/>
    <tag k="addr:housenumber" v="15"/>
    <tag k="addr:postcode" v="82054"/>
    <tag k="addr:street" v="Ottostraße"/>
  </node>
  <node id="313681853" version="6" timestamp="2009-10-23T12:08:02Z" uid="36809" user="pfoten_weg_!_" changeset="2929257" lat="47.9676874" lon="11.6504325">
    <tag k="addr:city" v="Sauerlach"/>
    <tag k="addr:country" v="DE"/>
    <tag k="addr:housenumber" v="15"/>
    <tag k="addr:postcode" v="82054"/>
    <tag k="addr:street" v="Ottostraße"/>
  </node>
  <node id="313681889" version="4" timestamp="2009-10-23T11:52:39Z" uid="36809" user="pfoten_weg_!_" changeset="2929138" lat="47.967515" lon="11.6504668">
    <tag k="addr:city" v="Sauerlach"/>
    <tag k="addr:country" v="DE"/>
    <tag k="addr:housenumber" v="17"/>
    <tag k="addr:postcode" v="82054"/>
    <tag k="addr:street" v="Ottostraße"/>
  </node>
  <node id="313681889" version="5" timestamp="2009-10-23T12:02:27Z" uid="36809" user="pfoten_weg_!_" changeset="2929214" lat="47.967515" lon="11.6504668">
    <tag k="addr:city" v="Sauerlach"/>
    <tag k="addr:country" v="DE"/>
    <tag k="addr:housenumber" v="17"/>
    <tag k="addr:postcode" v="82054"/>
    <tag k="addr:street" v="Ottostraße"/>
  </node>
  <node id="313681889" version="6" timestamp="2009-10-23T12:08:00Z" uid="36809" user="pfoten_weg_!_" changeset="2929257" lat="47.967515" lon="11.6504668">
    <tag k="addr:city" v="Sauerlach"/>
    <tag k="addr:country" v="DE"/>
    <tag k="addr:housenumber" v="17"/>
    <tag k="addr:postcode" v="82054"/>
    <tag k="addr:street" v="Ottostraße"/>
  </node>
  <node id="313682055" version="1" timestamp="2008-11-22T11:04:44Z" uid="64977" user="CLoeser" changeset="780849" lat="54.0772565" lon="13.4324011"/>
  <node id="313682055" version="2" timestamp="2008-11-22T11:06:21Z" uid="64977" user="CLoeser" changeset="780849" lat="54.0772565" lon="13.4324011"/>
  <node id="313682055" version="3" timestamp="2008-11-22T11:06:21Z" uid="64977" user="CLoeser" changeset="780849" lat="54.0772565" lon="13.4324011"/>
  <node id="313682055" version="4" timestamp="2008-11-22T11:06:28Z" uid="64977" user="CLoeser" changeset="780849" lat="54.0772565" lon="13.4324011"/>
  <node id="313682055" version="5" timestamp="2008-11-22T11:06:28Z" uid="64977" user="CLoeser" changeset="780849" lat="54.0772565" lon="13.4324011"/>
  <node id="313682055" version="6" timestamp="2008-11-24T17:22:35Z" uid="64977" user="CLoeser" changeset="787315" lat="54.0772565" lon="13.4324011"/>
  <node id="313682055" version="7" timestamp="2008-11-24T17:22:35Z" uid="64977" user="CLoeser" changeset="787315" lat="54.0772565" lon="13.4324011"/>
  <node id="313682056" version="1" timestamp="2008-11-22T11:04:44Z" uid="64977" user="CLoeser" changeset="780849" lat="54.0762645" lon="13.4302382"/>
  <node id="313682056" version="2" timestamp="2008-11-22T11:06:21Z" uid="64977" user="CLoeser" changeset="780849" lat="54.0762645" lon="13.4302382"/>
  <node id="313682056" version="3" timestamp="2008-11-22T11:06:28Z" uid="64977" user="CLoeser" changeset="780849" lat="54.0762645" lon="13.4302382"/>
  <node id="313682056" version="4" timestamp="2008-11-24T17:22:35Z" uid="64977" user="CLoeser" changeset="787315" lat="54.0762645" lon="13.4302382"/>
  <node id="313682057" version="1" timestamp="2008-11-22T11:04:44Z" uid="64977" user="CLoeser" changeset="780849" lat="54.0748444" lon="13.4278006"/>
  <node id="313682057" version="2" timestamp="2008-11-22T11:06:21Z" uid="64977" user="CLoeser" changeset="780849" lat="54.0748444" lon="13.4278006"/>
  <node id="313682057" version="3" timestamp="2008-11-22T11:06:28Z" uid="64977" user="CLoeser" changeset="780849" lat="54.0748444" lon="13.4278006"/>
  <node id="313682057" version="4" timestamp="2008-11-24T17:22:35Z" uid="64977" user="CLoeser" changeset="787315" lat="54.0748444" lon="13.4278006"/>
  <node id="313682058" version="1" timestamp="2008-11-22T11:04:44Z" uid="64977" user="CLoeser" changeset="780849" lat="54.0755041" lon="13.426453"/>
  <node id="313682058" version="2" timestamp="2008-11-22T11:06:21Z" uid="64977" user="CLoeser" changeset="780849" lat="54.0755041" lon="13.426453"/>
  <node id="313682058" version="3" timestamp="2008-11-22T11:06:28Z" uid="64977" user="CLoeser" changeset="780849" lat="54.0755041" lon="13.426453"/>
  <node id="313682058" version="4" timestamp="2008-11-24T17:22:35Z" uid="64977" user="CLoeser" changeset="787315" lat="54.0755041" lon="13.426453"/>
  <node id="313682059" version="1" timestamp="2008-11-22T11:04:44Z" uid="64977" user="CLoeser" changeset="780849" lat="54.0771558" lon="13.4289421"/>
  <node id="313682059" version="2" timestamp="2008-11-22T11:06:21Z" uid="64977" user="CLoeser" changeset="780849" lat="54.0771558" lon="13.4289421"/>
  <node id="313682059" version="3" timestamp="2008-11-22T11:06:28Z" uid="64977" user="CLoeser" changeset="780849" lat="54.0771558" lon="13.4289421"/>
  <node id="313682059" version="4" timestamp="2008-11-24T17:22:35Z" uid="64977" user="CLoeser" changeset="787315" lat="54.0771558" lon="13.4289421"/>
  <node id="313682060" version="1" timestamp="2008-11-22T11:04:44Z" uid="64977" user="CLoeser" changeset="780849" lat="54.0781025" lon="13.4312166"/>
  <node id="313682060" version="2" timestamp="2008-11-22T11:06:21Z" uid="64977" user="CLoeser" changeset="780849" lat="54.0781025" lon="13.4312166"/>
  <node id="313682060" version="3" timestamp="2008-11-22T11:06:28Z" uid="64977" user="CLoeser" changeset="780849" lat="54.0781025" lon="13.4312166"/>
  <node id="313682060" version="4" timestamp="2008-11-24T17:22:35Z" uid="64977" user="CLoeser" changeset="787315" lat="54.0781025" lon="13.4312166"/>
  <node id="313682068" version="5" timestamp="2009-10-23T11:53:04Z" uid="36809" user="pfoten_weg_!_" changeset="2929138" lat="47.9680839" lon="11.6523808">
    <tag k="addr:city" v="Sauerlach"/>
    <tag k="addr:country" v="DE"/>
    <tag k="addr:housenumber" v="9"/>
    <tag k="addr:postcode" v="82054"/>
    <tag k="addr:street" v="Georgenstraße"/>
  </node>
  <node id="313682068" version="6" timestamp="2009-10-23T12:02:53Z" uid="36809" user="pfoten_weg_!_" changeset="2929214" lat="47.9680839" lon="11.6523808">
    <tag k="addr:city" v="Sauerlach"/>
    <tag k="addr:country" v="DE"/>
    <tag k="addr:housenumber" v="9"/>
    <tag k="addr:postcode" v="82054"/>
    <tag k="addr:street" v="Georgenstraße"/>
  </node>
  <node id="313682068" version="7" timestamp="2009-10-23T12:08:32Z" uid="36809" user="pfoten_weg_!_" changeset="2929257" lat="47.9680839" lon="11.6523808">
    <tag k="addr:city" v="Sauerlach"/>
    <tag k="addr:country" v="DE"/>
    <tag k="addr:housenumber" v="9"/>
    <tag k="addr:postcode" v="82054"/>
    <tag k="addr:street" v="Georgenstraße"/>
  </node>
  <node id="313682092" version="5" timestamp="2009-10-23T11:53:03Z" uid="36809" user="pfoten_weg_!_" changeset="2929138" lat="47.9677391" lon="11.6524152">
    <tag k="addr:city" v="Sauerlach"/>
    <tag k="addr:country" v="DE"/>
    <tag k="addr:housenumber" v="11"/>
    <tag k="addr:postcode" v="82054"/>
    <tag k="addr:street" v="Georgenstraße"/>
  </node>
  <node id="313682092" version="6" timestamp="2009-10-23T12:02:53Z" uid="36809" user="pfoten_weg_!_" changeset="2929214" lat="47.9677391" lon="11.6524152">
    <tag k="addr:city" v="Sauerlach"/>
    <tag k="addr:country" v="DE"/>
    <tag k="addr:housenumber" v="11"/>
    <tag k="addr:postcode" v="82054"/>
    <tag k="addr:street" v="Georgenstraße"/>
  </node>
  <node id="313682092" version="7" timestamp="2009-10-23T12:08:31Z" uid="36809" user="pfoten_weg_!_" changeset="2929257" lat="47.9677391" lon="11.6524152">
    <tag k="addr:city" v="Sauerlach"/>
    <tag k="addr:country" v="DE"/>
    <tag k="addr:housenumber" v="11"/>
    <tag k="addr:postcode" v="82054"/>
    <tag k="addr:street" v="Georgenstraße"/>
  </node>
  <node id="313682291" version="4" timestamp="2008-12-01T22:03:29Z" uid="6269" user="Mueck" changeset="34612" lat="47.9223341" lon="7.842656"/>
  <node id="313686828" version="3" timestamp="2008-12-03T19:02:02Z" uid="43863" user="Rundling" changeset="82725" lat="53.1718437" lon="10.6307306"/>
  <node id="313687437" version="2" timestamp="2011-05-31T12:57:42Z" uid="115477" user="wowik" changeset="8301336" lat="55.8068441" lon="37.517679"/>
  <node id="313687438" version="2" timestamp="2011-05-31T12:57:57Z" uid="115477" user="wowik" changeset="8301336" lat="55.8067648" lon="37.5179838"/>
  <node id="313687439" version="2" timestamp="2011-05-31T12:57:52Z" uid="115477" user="wowik" changeset="8301336" lat="55.8066161" lon="37.5178613"/>
  <node id="313687440" version="2" timestamp="2011-05-31T12:57:52Z" uid="115477" user="wowik" changeset="8301336" lat="55.8067847" lon="37.5176301"/>
  <node id="313687847" version="2" timestamp="2011-05-31T15:56:06Z" uid="115477" user="wowik" changeset="8301336" lat="55.8109009" lon="37.5186354"/>
  <node id="313687848" version="2" timestamp="2011-05-31T15:55:12Z" uid="115477" user="wowik" changeset="8301336" lat="55.8108421" lon="37.5188251"/>
  <node id="313687849" version="2" timestamp="2011-05-31T15:56:06Z" uid="115477" user="wowik" changeset="8301336" lat="55.8109465" lon="37.5186749"/>
  <node id="313687850" version="2" timestamp="2011-05-31T15:56:04Z" uid="115477" user="wowik" changeset="8301336" lat="55.8108932" lon="37.5188695"/>
  <node id="313688260" version="2" timestamp="2009-01-05T22:39:19Z" uid="30201" user="rrankin" changeset="743034" lat="-33.8060193" lon="150.8499453"/>
  <node id="313688403" version="2" timestamp="2011-05-31T15:56:06Z" uid="115477" user="wowik" changeset="8301336" lat="55.8099999" lon="37.5176935"/>
  <node id="313688405" version="2" timestamp="2011-05-31T15:55:13Z" uid="115477" user="wowik" changeset="8301336" lat="55.810831" lon="37.5183103"/>
  <node id="313688408" version="2" timestamp="2011-05-31T15:56:06Z" uid="115477" user="wowik" changeset="8301336" lat="55.8109164" lon="37.5182032"/>
  <node id="313688413" version="2" timestamp="2011-05-31T15:56:04Z" uid="115477" user="wowik" changeset="8301336" lat="55.8103441" lon="37.5179579"/>
  <node id="313688419" version="2" timestamp="2011-05-31T15:56:05Z" uid="115477" user="wowik" changeset="8301336" lat="55.8102549" lon="37.5183113"/>
  <node id="313688422" version="2" timestamp="2011-05-31T15:56:05Z" uid="115477" user="wowik" changeset="8301336" lat="55.8108047" lon="37.5187723"/>
  <node id="313688424" version="2" timestamp="2011-05-31T15:56:05Z" uid="115477" user="wowik" changeset="8301336" lat="55.810961" lon="37.5182481"/>
  <node id="313688432" version="3" timestamp="2011-05-31T15:56:06Z" uid="115477" user="wowik" changeset="8301336" lat="55.8107364" lon="37.5161363"/>
  <node id="313688437" version="2" timestamp="2011-05-31T15:56:06Z" uid="115477" user="wowik" changeset="8301336" lat="55.8106206" lon="37.5165132"/>
  <node id="313688443" version="2" timestamp="2011-05-31T15:56:03Z" uid="115477" user="wowik" changeset="8301336" lat="55.8105216" lon="37.5169879"/>
  <node id="313688451" version="2" timestamp="2011-05-31T15:56:06Z" uid="115477" user="wowik" changeset="8301336" lat="55.8103801" lon="37.5179829"/>
  <node id="313688453" version="2" timestamp="2011-05-31T15:56:04Z" uid="115477" user="wowik" changeset="8301336" lat="55.8105039" lon="37.5174924"/>
  <node id="313688642" version="2" timestamp="2008-12-03T19:06:45Z" uid="43863" user="Rundling" changeset="82725" lat="53.1730404" lon="10.6292528"/>
  <node id="313688646" version="2" timestamp="2008-12-03T19:06:45Z" uid="43863" user="Rundling" changeset="82725" lat="53.1730182" lon="10.6309816"/>
  <node id="313688660" version="3" timestamp="2008-12-03T19:06:45Z" uid="43863" user="Rundling" changeset="82725" lat="53.1717114" lon="10.630662"/>
  <node id="313688661" version="4" timestamp="2008-12-03T19:06:45Z" uid="43863" user="Rundling" changeset="82725" lat="53.1717514" lon="10.6288412"/>
  <node id="313688666" version="2" timestamp="2008-12-03T19:06:45Z" uid="43863" user="Rundling" changeset="82725" lat="53.172379" lon="10.6308058"/>
  <node id="313688675" version="3" timestamp="2008-12-03T19:06:46Z" uid="43863" user="Rundling" changeset="82725" lat="53.1704187" lon="10.6303801"/>
  <node id="313688676" version="3" timestamp="2008-12-03T19:06:46Z" uid="43863" user="Rundling" changeset="82725" lat="53.1699694" lon="10.6303607"/>
  <node id="313688677" version="3" timestamp="2008-12-03T19:06:46Z" uid="43863" user="Rundling" changeset="82725" lat="53.169426" lon="10.6303569"/>
  <node id="313688700" version="3" timestamp="2008-12-03T19:06:45Z" uid="43863" user="Rundling" changeset="82725" lat="53.1687897" lon="10.6302039"/>
  <node id="313688702" version="3" timestamp="2008-12-03T19:06:46Z" uid="43863" user="Rundling" changeset="82725" lat="53.168567" lon="10.6301641"/>
  <node id="313688712" version="3" timestamp="2008-12-03T19:06:44Z" uid="43863" user="Rundling" changeset="82725" lat="53.1682484" lon="10.6291656"/>
  <node id="313688739" version="3" timestamp="2008-12-03T19:06:45Z" uid="43863" user="Rundling" changeset="82725" lat="53.1691122" lon="10.6294087"/>
  <node id="313688744" version="3" timestamp="2008-12-03T19:06:45Z" uid="43863" user="Rundling" changeset="82725" lat="53.1690658" lon="10.6279754"/>
  <node id="313688752" version="3" timestamp="2008-12-03T19:06:45Z" uid="43863" user="Rundling" changeset="82725" lat="53.1697863" lon="10.6282078"/>
  <node id="313688811" version="3" timestamp="2008-12-03T19:06:44Z" uid="43863" user="Rundling" changeset="82725" lat="53.1698173" lon="10.6290291"/>
  <node id="313688819" version="3" timestamp="2008-12-03T19:06:44Z" uid="43863" user="Rundling" changeset="82725" lat="53.1705069" lon="10.6291918"/>
  <node id="313688837" version="3" timestamp="2008-12-03T19:06:43Z" uid="43863" user="Rundling" changeset="82725" lat="53.1705224" lon="10.6296024"/>
  <node id="313688864" version="3" timestamp="2008-12-03T19:06:44Z" uid="43863" user="Rundling" changeset="82725" lat="53.1712119" lon="10.6297264"/>
  <node id="313688883" version="3" timestamp="2008-12-03T19:06:44Z" uid="43863" user="Rundling" changeset="82725" lat="53.1712391" lon="10.6286688"/>
  <node id="313688915" version="3" timestamp="2008-12-03T19:06:43Z" uid="43863" user="Rundling" changeset="82725" lat="53.1682955" lon="10.6300605"/>
  <node id="313689791" version="3" timestamp="2010-05-27T13:30:52Z" uid="7617" user="Franc" changeset="4821986" lat="-33.8345218" lon="151.0846988"/>
  <node id="313689844" version="3" timestamp="2010-10-09T09:52:55Z" uid="7617" user="Franc" changeset="5992181" lat="-33.8344918" lon="151.0840859"/>
</osm>
